<?xml version='1.0' encoding='UTF-8'?>
<osm version="0.6" generator="libosmium/2.20.0">
  <way id="80776763" version="2" timestamp="2010-10-15T06:06:34Z" uid="4467" user="Rosscoe" changeset="6046373">
    <nd ref="941959628"/>
    <nd ref="253760853"/>
    <nd ref="253760846"/>
    <tag k="cycleway" v="lane"/>
    <tag k="highway" v="trunk"/>
    <tag k="is_in" v="Flemington,Victoria,Australia"/>
    <tag k="name" v="Smithfield Road"/>
    <tag k="oneway" v="yes"/>
    <tag k="postal_code" v="3031"/>
    <tag k="ref" v="83"/>
    <tag k="source" v="yahoo"/>
    <tag k="source:name" v="survey"/>
  </way>
  <way id="80776765" version="2" timestamp="2010-10-15T06:06:40Z" uid="4467" user="Rosscoe" changeset="6046373"/>
  <way id="80776766" version="1" timestamp="2010-10-08T21:41:05Z" uid="320632" user="Zulu99" changeset="5989782">
    <nd ref="941959627"/>
    <nd ref="67825351"/>
    <nd ref="941959621"/>
    <tag k="cycleway" v="lane"/>
    <tag k="highway" v="trunk"/>
    <tag k="is_in" v="Flemington,Victoria,Australia"/>
    <tag k="name" v="Smithfield Road"/>
    <tag k="oneway" v="yes"/>
    <tag k="postal_code" v="3031"/>
    <tag k="ref" v="83"/>
    <tag k="source" v="yahoo"/>
    <tag k="source:name" v="survey"/>
  </way>
  <way id="80776766" version="2" timestamp="2010-10-11T05:37:46Z" uid="4467" user="Rosscoe" changeset="6008602">
    <nd ref="941959627"/>
    <nd ref="67825351"/>
    <nd ref="944833269"/>
    <nd ref="941959621"/>
    <tag k="cycleway" v="lane"/>
    <tag k="highway" v="trunk"/>
    <tag k="is_in" v="Flemington,Victoria,Australia"/>
    <tag k="name" v="Smithfield Road"/>
    <tag k="oneway" v="yes"/>
    <tag k="postal_code" v="3031"/>
    <tag k="ref" v="83"/>
    <tag k="source" v="yahoo"/>
    <tag k="source:name" v="survey"/>
  </way>
  <way id="80776766" version="3" timestamp="2010-10-15T06:06:40Z" uid="4467" user="Rosscoe" changeset="6046373"/>
</osm>
