<?xml version='1.0' encoding='UTF-8'?>
<osm version="0.6" generator="libosmium/2.20.0">
  <way id="81981423" version="1" timestamp="2010-10-17T20:47:21Z" uid="96874" user="Quedel" changeset="6070824">
    <nd ref="253993316"/>
    <nd ref="253993317"/>
    <nd ref="253993318"/>
    <nd ref="530049817"/>
    <nd ref="253993320"/>
    <nd ref="253993321"/>
    <nd ref="253993322"/>
    <nd ref="253993323"/>
    <nd ref="253993324"/>
    <nd ref="253993325"/>
    <nd ref="253993326"/>
    <nd ref="253993327"/>
    <nd ref="253993328"/>
    <nd ref="253993329"/>
    <nd ref="253993330"/>
    <nd ref="306475595"/>
    <nd ref="955027020"/>
    <nd ref="821795418"/>
    <tag k="highway" v="secondary"/>
    <tag k="maxspeed" v="100"/>
    <tag k="name" v="Gernröder Chaussee"/>
    <tag k="parking:lane:both" v="no_parking"/>
    <tag k="ref" v="L 242"/>
  </way>
  <way id="81981423" version="2" timestamp="2011-04-26T20:06:47Z" uid="156263" user="tillea" changeset="7979133">
    <nd ref="253993316"/>
    <nd ref="1261274143"/>
    <nd ref="1261274206"/>
    <nd ref="253993317"/>
    <nd ref="253993318"/>
    <nd ref="530049817"/>
    <nd ref="253993320"/>
    <nd ref="253993321"/>
    <nd ref="253993322"/>
    <nd ref="253993323"/>
    <nd ref="253993324"/>
    <nd ref="253993325"/>
    <nd ref="253993326"/>
    <nd ref="253993327"/>
    <nd ref="253993328"/>
    <nd ref="253993329"/>
    <nd ref="253993330"/>
    <nd ref="306475595"/>
    <nd ref="955027020"/>
    <nd ref="821795418"/>
    <tag k="highway" v="secondary"/>
    <tag k="maxspeed" v="100"/>
    <tag k="name" v="Gernröder Chaussee"/>
    <tag k="parking:lane:both" v="no_parking"/>
    <tag k="ref" v="L 242"/>
  </way>
  <way id="81981426" version="1" timestamp="2010-10-17T20:47:22Z" uid="96874" user="Quedel" changeset="6070824">
    <nd ref="459994812"/>
    <nd ref="250163177"/>
    <nd ref="307945869"/>
    <nd ref="250163178"/>
    <nd ref="659032859"/>
    <nd ref="250163179"/>
    <nd ref="836772725"/>
    <nd ref="250163180"/>
    <nd ref="250163189"/>
    <nd ref="250163196"/>
    <nd ref="250163197"/>
    <nd ref="250163198"/>
    <nd ref="250163199"/>
    <tag k="highway" v="tertiary"/>
    <tag k="maxspeed" v="100"/>
    <tag k="name" v="Wedderslebener Chaussee"/>
    <tag k="ref" v="K 2356"/>
  </way>
  <way id="81981430" version="1" timestamp="2010-10-17T20:47:22Z" uid="96874" user="Quedel" changeset="6070824">
    <nd ref="955166501"/>
    <nd ref="250163399"/>
    <nd ref="250163404"/>
    <nd ref="496010192"/>
    <nd ref="371666412"/>
    <nd ref="250163407"/>
    <tag k="highway" v="tertiary"/>
    <tag k="maxspeed" v="70"/>
    <tag k="name" v="Suderöder Straße"/>
    <tag k="ref" v="L 92 (alt)"/>
  </way>
  <way id="81981430" version="2" timestamp="2012-03-18T19:21:39Z" uid="173911" user="jenbee" changeset="11022953">
    <nd ref="955166501"/>
    <nd ref="250163399"/>
    <nd ref="250163404"/>
    <nd ref="496010192"/>
    <nd ref="371666412"/>
    <nd ref="250163407"/>
    <tag k="highway" v="tertiary"/>
    <tag k="maxspeed" v="70"/>
    <tag k="name" v="Suderöder Straße"/>
    <tag k="odbl" v="clean"/>
    <tag k="ref" v="L 92 (alt)"/>
  </way>
  <way id="81981432" version="1" timestamp="2010-10-17T20:47:22Z" uid="96874" user="Quedel" changeset="6070824">
    <nd ref="371665769"/>
    <nd ref="250163388"/>
    <nd ref="250163390"/>
    <nd ref="250163393"/>
    <nd ref="371666017"/>
    <nd ref="955166501"/>
    <tag k="highway" v="tertiary"/>
    <tag k="maxspeed" v="50"/>
    <tag k="name" v="Suderöder Straße"/>
    <tag k="ref" v="L 92 (alt)"/>
  </way>
  <way id="81981432" version="2" timestamp="2012-03-18T19:21:39Z" uid="173911" user="jenbee" changeset="11022953">
    <nd ref="371665769"/>
    <nd ref="250163388"/>
    <nd ref="250163390"/>
    <nd ref="250163393"/>
    <nd ref="371666017"/>
    <nd ref="955166501"/>
    <tag k="highway" v="tertiary"/>
    <tag k="maxspeed" v="50"/>
    <tag k="name" v="Suderöder Straße"/>
    <tag k="odbl" v="clean"/>
    <tag k="ref" v="L 92 (alt)"/>
  </way>
</osm>
