<?xml version='1.0' encoding='UTF-8'?>
<osm version="0.6" generator="libosmium/2.20.0">
  <way id="81992503" version="1" timestamp="2010-10-17T21:44:12Z" uid="96874" user="Quedel" changeset="6072345">
    <nd ref="955241797"/>
    <nd ref="955241755"/>
    <nd ref="955241808"/>
    <nd ref="409791177"/>
    <nd ref="893325458"/>
    <tag k="bicycle" v="yes"/>
    <tag k="foot" v="yes"/>
    <tag k="highway" v="path"/>
    <tag k="ref" v="Kleerswiese"/>
    <tag k="surface" v="grass"/>
    <tag k="wheelchair" v="difficult"/>
  </way>
  <way id="81992504" version="1" timestamp="2010-10-17T21:44:13Z" uid="96874" user="Quedel" changeset="6072345">
    <nd ref="955241921"/>
    <nd ref="955196323"/>
    <nd ref="955241740"/>
    <nd ref="955241884"/>
    <nd ref="955241919"/>
    <nd ref="955241921"/>
    <tag k="leisure" v="sports_centre"/>
    <tag k="name" v="Sporthalle BBS Mette"/>
    <tag k="sport" v="multi"/>
  </way>
  <way id="81992504" version="2" timestamp="2011-02-05T21:25:45Z" uid="96874" user="Quedel" changeset="7197399">
    <nd ref="955241921"/>
    <nd ref="955196323"/>
    <nd ref="955241740"/>
    <nd ref="955241884"/>
    <nd ref="955241919"/>
    <nd ref="955241921"/>
    <tag k="addr:city" v="Quedlinburg"/>
    <tag k="addr:country" v="DE"/>
    <tag k="addr:housenumber" v="3"/>
    <tag k="addr:postcode" v="06484"/>
    <tag k="addr:street" v="BossestraÃŸe"/>
    <tag k="leisure" v="sports_centre"/>
    <tag k="name" v="Sporthalle BBS Mette"/>
    <tag k="sport" v="multi"/>
  </way>
  <way id="81992507" version="1" timestamp="2010-10-17T21:44:13Z" uid="96874" user="Quedel" changeset="6072345">
    <nd ref="955241808"/>
    <nd ref="955241718"/>
    <nd ref="955241763"/>
    <nd ref="955241795"/>
    <nd ref="955241829"/>
    <tag k="bicycle" v="yes"/>
    <tag k="foot" v="yes"/>
    <tag k="highway" v="path"/>
    <tag k="ref" v="Kleerswiese"/>
    <tag k="surface" v="grass"/>
    <tag k="wheelchair" v="difficult"/>
  </way>
  <way id="81992509" version="1" timestamp="2010-10-17T21:44:13Z" uid="96874" user="Quedel" changeset="6072345">
    <nd ref="955241843"/>
    <nd ref="955241884"/>
    <nd ref="955241914"/>
    <nd ref="955241879"/>
    <nd ref="955241828"/>
    <nd ref="955241925"/>
    <nd ref="955241916"/>
    <nd ref="955241713"/>
    <nd ref="955241758"/>
    <nd ref="955241809"/>
    <nd ref="955241801"/>
    <nd ref="955241833"/>
    <nd ref="955241847"/>
    <nd ref="955241881"/>
    <nd ref="955241868"/>
    <nd ref="955241909"/>
    <nd ref="955241928"/>
    <nd ref="955241747"/>
    <nd ref="955241751"/>
    <nd ref="955241805"/>
    <nd ref="955241836"/>
    <nd ref="955241864"/>
    <nd ref="955241845"/>
    <nd ref="955241873"/>
    <nd ref="955241911"/>
    <nd ref="955241942"/>
    <nd ref="955241918"/>
    <nd ref="955241737"/>
    <nd ref="955241767"/>
    <nd ref="955241826"/>
    <nd ref="955241806"/>
    <nd ref="955241840"/>
    <nd ref="955241925"/>
    <tag k="access" v="permissive"/>
    <tag k="bicycle" v="no"/>
    <tag k="foot" v="official"/>
    <tag k="highway" v="path"/>
  </way>
  <way id="81992515" version="1" timestamp="2010-10-17T21:44:14Z" uid="96874" user="Quedel" changeset="6072345">
    <nd ref="955241795"/>
    <nd ref="955241755"/>
    <nd ref="955241875"/>
    <tag k="bicycle" v="yes"/>
    <tag k="foot" v="yes"/>
    <tag k="highway" v="path"/>
    <tag k="ref" v="Kleerswiese"/>
    <tag k="surface" v="grass"/>
    <tag k="wheelchair" v="difficult"/>
  </way>
  <way id="81992515" version="2" timestamp="2010-10-18T21:30:55Z" uid="96874" user="Quedel" changeset="6087393">
    <nd ref="955241795"/>
    <nd ref="955241755"/>
    <nd ref="955241875"/>
    <tag k="bicycle" v="yes"/>
    <tag k="foot" v="yes"/>
    <tag k="highway" v="path"/>
    <tag k="ref" v="Kleerswiese"/>
    <tag k="surface" v="grass"/>
    <tag k="wheelchair" v="difficult"/>
  </way>
  <way id="81992518" version="1" timestamp="2010-10-17T21:44:15Z" uid="96874" user="Quedel" changeset="6072345">
    <nd ref="955241877"/>
    <nd ref="955241803"/>
    <nd ref="955241742"/>
    <nd ref="955241798"/>
    <nd ref="955241877"/>
    <tag k="access" v="private"/>
    <tag k="amenity" v="parking"/>
    <tag k="parking" v="multi-storey"/>
  </way>
  <way id="81992519" version="1" timestamp="2010-10-17T21:44:15Z" uid="96874" user="Quedel" changeset="6072345">
    <nd ref="955241916"/>
    <nd ref="955241805"/>
    <nd ref="955241883"/>
    <nd ref="955241861"/>
    <tag k="access" v="permissive"/>
    <tag k="bicycle" v="no"/>
    <tag k="foot" v="official"/>
    <tag k="highway" v="path"/>
  </way>
</osm>
