<?xml version='1.0' encoding='UTF-8'?>
<osm version="0.6" generator="libosmium/2.20.0">
  <way id="82255700" version="2" timestamp="2011-05-26T18:19:26Z" uid="9581" user="Lobelt" changeset="8255820">
    <nd ref="31991942"/>
    <nd ref="31991908"/>
    <nd ref="268404163"/>
    <tag k="highway" v="secondary"/>
    <tag k="maxspeed" v="50"/>
    <tag k="name" v="Walkteich"/>
    <tag k="ref" v="L 1110"/>
  </way>
  <way id="82255700" version="3" timestamp="2012-01-08T21:00:48Z" uid="118134" user="scai" changeset="10336642"/>
  <way id="82255701" version="3" timestamp="2011-05-26T18:19:28Z" uid="9581" user="Lobelt" changeset="8255820">
    <nd ref="313328165"/>
    <nd ref="313457221"/>
    <nd ref="31992560"/>
    <nd ref="734314459"/>
    <nd ref="31992861"/>
    <nd ref="313327890"/>
    <tag k="highway" v="residential"/>
    <tag k="maxspeed" v="30"/>
    <tag k="name" v="SaalstraÃŸe"/>
    <tag k="oneway" v="yes"/>
  </way>
  <way id="82255701" version="4" timestamp="2012-03-13T21:55:02Z" uid="192395" user="BBO" changeset="10972250"/>
</osm>
