<?xml version='1.0' encoding='UTF-8'?>
<osm version="0.6" generator="libosmium/2.20.0">
  <way id="82587507" version="1" timestamp="2010-10-23T06:13:33Z" uid="7617" user="Franc" changeset="6142273">
    <nd ref="961215648"/>
    <nd ref="961215595"/>
    <nd ref="961215545"/>
    <tag k="access" v="no"/>
    <tag k="bus" v="yes"/>
    <tag k="highway" v="secondary"/>
    <tag k="name" v="French&apos;s Forest Road"/>
    <tag k="oneway" v="yes"/>
  </way>
  <way id="82587508" version="1" timestamp="2010-10-23T06:13:34Z" uid="7617" user="Franc" changeset="6142273">
    <nd ref="961215576"/>
    <nd ref="961215584"/>
    <nd ref="961215592"/>
    <nd ref="961215530"/>
    <nd ref="961215548"/>
    <tag k="highway" v="footway"/>
    <tag k="source" v="nearmap"/>
  </way>
  <way id="82587509" version="1" timestamp="2010-10-23T06:13:34Z" uid="7617" user="Franc" changeset="6142273">
    <nd ref="961215577"/>
    <nd ref="961215585"/>
    <nd ref="961215593"/>
    <nd ref="961215601"/>
    <nd ref="961215578"/>
    <nd ref="961215587"/>
    <nd ref="961215596"/>
    <nd ref="961215546"/>
    <nd ref="961215563"/>
    <nd ref="961215577"/>
    <tag k="highway" v="residential"/>
    <tag k="junction" v="roundabout"/>
    <tag k="source" v="nearmap"/>
  </way>
  <way id="82587510" version="1" timestamp="2010-10-23T06:13:34Z" uid="7617" user="Franc" changeset="6142273">
    <nd ref="961215601"/>
    <nd ref="961215564"/>
    <nd ref="204441147"/>
    <nd ref="32355486"/>
    <nd ref="32355485"/>
    <nd ref="32355484"/>
    <nd ref="32355483"/>
    <nd ref="32355482"/>
    <nd ref="204442125"/>
    <nd ref="32355479"/>
    <tag k="highway" v="residential"/>
    <tag k="maxspeed" v="50"/>
    <tag k="maxspeed:source" v="default residential speed limit in Australia"/>
    <tag k="name" v="Owen Stanley Avenue"/>
    <tag k="source:name" v="survey"/>
  </way>
  <way id="82587511" version="1" timestamp="2010-10-23T06:13:35Z" uid="7617" user="Franc" changeset="6142273">
    <nd ref="961215648"/>
    <nd ref="961215513"/>
    <nd ref="961215531"/>
    <nd ref="961215549"/>
    <nd ref="961215566"/>
    <tag k="highway" v="secondary"/>
    <tag k="name" v="French&apos;s Forest Road"/>
    <tag k="oneway" v="yes"/>
  </way>
  <way id="82587512" version="1" timestamp="2010-10-23T06:13:35Z" uid="7617" user="Franc" changeset="6142273">
    <nd ref="961215514"/>
    <nd ref="961215603"/>
    <nd ref="961215621"/>
    <nd ref="961215643"/>
    <nd ref="342994931"/>
    <tag k="highway" v="service"/>
    <tag k="source" v="nearmap"/>
  </way>
  <way id="82587513" version="1" timestamp="2010-10-23T06:13:35Z" uid="7617" user="Franc" changeset="6142273">
    <nd ref="961215529"/>
    <nd ref="961215614"/>
    <nd ref="961215633"/>
    <nd ref="961215500"/>
    <nd ref="961215529"/>
    <tag k="leisure" v="nature_reserve"/>
    <tag k="source" v="nearmap"/>
  </way>
  <way id="82587514" version="1" timestamp="2010-10-23T06:13:35Z" uid="7617" user="Franc" changeset="6142273">
    <nd ref="961215574"/>
    <nd ref="961215625"/>
    <nd ref="961215647"/>
    <nd ref="961215504"/>
    <nd ref="961215522"/>
    <nd ref="961215547"/>
    <nd ref="961215574"/>
    <tag k="leisure" v="park"/>
    <tag k="source" v="nearmap"/>
  </way>
  <way id="82587515" version="1" timestamp="2010-10-23T06:13:35Z" uid="7617" user="Franc" changeset="6142273">
    <nd ref="961215532"/>
    <nd ref="961215618"/>
    <nd ref="961215641"/>
    <nd ref="961215503"/>
    <nd ref="961215518"/>
    <nd ref="961215544"/>
    <nd ref="961215562"/>
    <nd ref="961215575"/>
    <nd ref="961215582"/>
    <nd ref="961215532"/>
    <tag k="leisure" v="park"/>
    <tag k="source" v="nearmap"/>
  </way>
  <way id="82587516" version="1" timestamp="2010-10-23T06:13:35Z" uid="7617" user="Franc" changeset="6142273">
    <nd ref="961215565"/>
    <nd ref="961215611"/>
    <nd ref="961215630"/>
    <nd ref="961215496"/>
    <nd ref="961215565"/>
    <tag k="leisure" v="park"/>
    <tag k="source" v="nearmap"/>
  </way>
  <way id="82587564" version="2" timestamp="2011-02-01T03:13:18Z" uid="4467" user="Rosscoe" changeset="7151424"/>
  <way id="82587565" version="2" timestamp="2011-02-01T03:13:18Z" uid="4467" user="Rosscoe" changeset="7151424">
    <nd ref="961222717"/>
    <nd ref="961222676"/>
    <nd ref="961222718"/>
    <tag k="name" v="Northam Goomalling Railway"/>
    <tag k="railway" v="rail"/>
    <tag k="source" v="GPS"/>
    <tag k="tracks" v="1"/>
  </way>
  <way id="82587676" version="1" timestamp="2010-10-23T06:38:15Z" uid="33382" user="de_muur" changeset="6142342">
    <nd ref="107633506"/>
    <nd ref="600862943"/>
    <nd ref="35146736"/>
    <nd ref="35146742"/>
    <tag k="bicycle" v="designated"/>
    <tag k="cycleway" v="track"/>
    <tag k="foot" v="designated"/>
    <tag k="highway" v="secondary"/>
    <tag k="maxspeed" v="70"/>
    <tag k="name" v="In der Marsch"/>
    <tag k="ref" v="L 203"/>
  </way>
  <way id="82587676" version="2" timestamp="2011-01-29T16:19:16Z" uid="33382" user="de_muur" changeset="7123910">
    <nd ref="107633506"/>
    <nd ref="600862943"/>
    <nd ref="35146736"/>
    <tag k="bicycle" v="designated"/>
    <tag k="cycleway" v="track"/>
    <tag k="foot" v="designated"/>
    <tag k="highway" v="secondary"/>
    <tag k="maxspeed" v="70"/>
    <tag k="name" v="In der Marsch"/>
    <tag k="ref" v="L 203"/>
  </way>
  <way id="82587676" version="3" timestamp="2011-08-14T17:35:14Z" uid="57645" user="KartoGrapHiti" changeset="9018677">
    <nd ref="35146736"/>
    <nd ref="600862943"/>
    <nd ref="107633506"/>
    <tag k="bicycle" v="designated"/>
    <tag k="cycleway" v="track"/>
    <tag k="foot" v="designated"/>
    <tag k="highway" v="secondary"/>
    <tag k="maxspeed" v="70"/>
    <tag k="name" v="In der Marsch"/>
    <tag k="ref" v="L 203"/>
  </way>
  <way id="82587676" version="4" timestamp="2011-12-26T23:50:05Z" uid="57645" user="KartoGrapHiti" changeset="10211973">
    <nd ref="35146736"/>
    <nd ref="600862943"/>
    <nd ref="107633506"/>
    <tag k="bicycle" v="designated"/>
    <tag k="cycleway" v="track"/>
    <tag k="foot" v="designated"/>
    <tag k="highway" v="secondary"/>
    <tag k="lit" v="no"/>
    <tag k="maxspeed" v="70"/>
    <tag k="name" v="In der Marsch"/>
    <tag k="ref" v="L 203"/>
  </way>
  <way id="82587676" version="5" timestamp="2012-01-27T19:53:23Z" uid="57645" user="KartoGrapHiti" changeset="10515710">
    <nd ref="35146736"/>
    <nd ref="600862943"/>
    <nd ref="107633506"/>
    <tag k="highway" v="secondary"/>
    <tag k="lit" v="no"/>
    <tag k="maxspeed" v="70"/>
    <tag k="name" v="In der Marsch"/>
    <tag k="ref" v="L 203"/>
  </way>
  <way id="82587676" version="6" timestamp="2012-03-04T16:38:02Z" uid="57645" user="KartoGrapHiti" changeset="10870627">
    <nd ref="35146736"/>
    <nd ref="600862943"/>
    <nd ref="107633506"/>
    <tag k="highway" v="secondary"/>
    <tag k="lit" v="no"/>
    <tag k="maxspeed" v="70"/>
    <tag k="name" v="In der Marsch"/>
    <tag k="ref" v="L 203"/>
    <tag k="surface" v="asphalt"/>
  </way>
</osm>
