<?xml version='1.0' encoding='UTF-8'?>
<osm version="0.6" generator="libosmium/2.20.0">
  <way id="82891367" version="1" timestamp="2010-10-25T11:16:30Z" uid="115477" user="wowik" changeset="6170800">
    <nd ref="964760603"/>
    <nd ref="964760604"/>
    <nd ref="964760605"/>
    <nd ref="964760606"/>
    <nd ref="964760607"/>
    <nd ref="964760609"/>
    <nd ref="964760610"/>
    <nd ref="964760611"/>
    <nd ref="964760612"/>
    <nd ref="964760613"/>
    <nd ref="964760614"/>
    <nd ref="964760616"/>
    <nd ref="964760624"/>
    <nd ref="964760626"/>
    <nd ref="964760627"/>
    <nd ref="964760603"/>
    <tag k="addr:housenumber" v="3"/>
    <tag k="addr:street" v="улица Вавилова"/>
    <tag k="building" v="yes"/>
    <tag k="name" v="ТРЦ Гагаринский"/>
    <tag k="shop" v="mall"/>
  </way>
  <way id="82891367" version="2" timestamp="2011-01-16T16:12:09Z" uid="269466" user="vfjj" changeset="6989472">
    <nd ref="964760603"/>
    <nd ref="964760604"/>
    <nd ref="964760605"/>
    <nd ref="964760606"/>
    <nd ref="964760607"/>
    <nd ref="964760609"/>
    <nd ref="964760610"/>
    <nd ref="964760611"/>
    <nd ref="964760612"/>
    <nd ref="964760613"/>
    <nd ref="964760614"/>
    <nd ref="964760616"/>
    <nd ref="964760624"/>
    <nd ref="964760626"/>
    <nd ref="964760627"/>
    <nd ref="964760603"/>
    <tag k="addr:housenumber" v="3"/>
    <tag k="addr:street" v="улица Вавилова"/>
    <tag k="building" v="yes"/>
    <tag k="name" v="ТРЦ Гагаринский"/>
    <tag k="shop" v="mall"/>
    <tag k="website" v="http://trcgagarinsky.ru"/>
  </way>
  <way id="82891367" version="3" timestamp="2011-03-10T19:47:55Z" uid="115477" user="wowik" changeset="7517563">
    <nd ref="964760603"/>
    <nd ref="964760604"/>
    <nd ref="964760605"/>
    <nd ref="964760606"/>
    <nd ref="964760607"/>
    <nd ref="964760609"/>
    <nd ref="964760610"/>
    <nd ref="964760611"/>
    <nd ref="1195788384"/>
    <nd ref="964760612"/>
    <nd ref="964760613"/>
    <nd ref="964760614"/>
    <nd ref="964760616"/>
    <nd ref="964760624"/>
    <nd ref="964760626"/>
    <nd ref="964760627"/>
    <nd ref="964760603"/>
    <tag k="addr:housenumber" v="3"/>
    <tag k="addr:street" v="улица Вавилова"/>
    <tag k="building" v="yes"/>
    <tag k="name" v="ТРЦ Гагаринский"/>
    <tag k="shop" v="mall"/>
    <tag k="website" v="http://trcgagarinsky.ru"/>
  </way>
  <way id="82891367" version="4" timestamp="2011-05-04T16:37:03Z" uid="419633" user="trim" changeset="8050363">
    <nd ref="964760603"/>
    <nd ref="964760604"/>
    <nd ref="964760605"/>
    <nd ref="964760606"/>
    <nd ref="964760607"/>
    <nd ref="964760609"/>
    <nd ref="964760610"/>
    <nd ref="964760611"/>
    <nd ref="1195788384"/>
    <nd ref="1272200566"/>
    <nd ref="964760612"/>
    <nd ref="1272200567"/>
    <nd ref="964760613"/>
    <nd ref="964760614"/>
    <nd ref="964760616"/>
    <nd ref="964760624"/>
    <nd ref="964760626"/>
    <nd ref="964760627"/>
    <nd ref="964760603"/>
    <tag k="addr:housenumber" v="3"/>
    <tag k="addr:street" v="улица Вавилова"/>
    <tag k="building" v="yes"/>
    <tag k="name" v="ТРЦ Гагаринский"/>
    <tag k="shop" v="mall"/>
    <tag k="website" v="http://trcgagarinsky.ru"/>
  </way>
  <way id="82891367" version="5" timestamp="2011-05-05T08:54:43Z" uid="115477" user="wowik" changeset="8055584">
    <nd ref="964760603"/>
    <nd ref="964760604"/>
    <nd ref="964760605"/>
    <nd ref="964760606"/>
    <nd ref="964760607"/>
    <nd ref="1272896085"/>
    <nd ref="964760609"/>
    <nd ref="964760610"/>
    <nd ref="964760611"/>
    <nd ref="1195788384"/>
    <nd ref="1272200566"/>
    <nd ref="964760612"/>
    <nd ref="1272200567"/>
    <nd ref="964760613"/>
    <nd ref="964760614"/>
    <nd ref="964760616"/>
    <nd ref="964760624"/>
    <nd ref="964760626"/>
    <nd ref="964760627"/>
    <nd ref="964760603"/>
    <tag k="addr:housenumber" v="3"/>
    <tag k="addr:street" v="улица Вавилова"/>
    <tag k="building" v="yes"/>
    <tag k="name" v="ТРЦ Гагаринский"/>
    <tag k="shop" v="mall"/>
    <tag k="website" v="http://trcgagarinsky.ru"/>
  </way>
  <way id="82891367" version="6" timestamp="2011-12-12T20:40:02Z" uid="126304" user="TarzanASG" changeset="10101987">
    <nd ref="964760603"/>
    <nd ref="964760604"/>
    <nd ref="964760605"/>
    <nd ref="964760606"/>
    <nd ref="964760607"/>
    <nd ref="1272896085"/>
    <nd ref="964760609"/>
    <nd ref="964760610"/>
    <nd ref="964760611"/>
    <nd ref="1195788384"/>
    <nd ref="1272200566"/>
    <nd ref="964760612"/>
    <nd ref="1272200567"/>
    <nd ref="964760613"/>
    <nd ref="964760614"/>
    <nd ref="964760616"/>
    <nd ref="964760624"/>
    <nd ref="964760626"/>
    <nd ref="964760627"/>
    <nd ref="964760603"/>
    <tag k="addr:housenumber" v="3"/>
    <tag k="addr:street" v="улица Вавилова"/>
    <tag k="building" v="retail"/>
    <tag k="name" v="ТРЦ Гагаринский"/>
    <tag k="shop" v="mall"/>
    <tag k="website" v="http://trcgagarinsky.ru"/>
  </way>
  <way id="82891367" version="7" timestamp="2011-12-14T11:11:02Z" uid="143266" user="Sergey Astakhov" changeset="10114234">
    <nd ref="964760603"/>
    <nd ref="964760604"/>
    <nd ref="964760605"/>
    <nd ref="964760606"/>
    <nd ref="964760607"/>
    <nd ref="1272896085"/>
    <nd ref="964760609"/>
    <nd ref="964760610"/>
    <nd ref="964760611"/>
    <nd ref="1195788384"/>
    <nd ref="1272200566"/>
    <nd ref="964760612"/>
    <nd ref="1272200567"/>
    <nd ref="964760613"/>
    <nd ref="964760614"/>
    <nd ref="964760616"/>
    <nd ref="964760624"/>
    <nd ref="964760626"/>
    <nd ref="964760627"/>
    <nd ref="964760603"/>
    <tag k="addr:housenumber" v="3"/>
    <tag k="addr:street" v="улица Вавилова"/>
    <tag k="building" v="yes"/>
    <tag k="name" v="ТРЦ Гагаринский"/>
    <tag k="shop" v="mall"/>
    <tag k="website" v="http://trcgagarinsky.ru"/>
  </way>
  <way id="82891367" version="8" timestamp="2012-03-15T22:34:07Z" uid="336354" user="esaulenka" changeset="10993761"/>
  <way id="82891838" version="1" timestamp="2010-10-25T11:20:04Z" uid="115477" user="wowik" changeset="6170842">
    <nd ref="964763459"/>
    <nd ref="964763462"/>
    <tag k="highway" v="service"/>
    <tag k="oneway" v="yes"/>
    <tag k="service" v="alley"/>
  </way>
  <way id="82891838" version="2" timestamp="2011-11-23T09:13:35Z" uid="481934" user="iWowik" changeset="9918615">
    <nd ref="964763459"/>
    <nd ref="964763462"/>
    <tag k="highway" v="service"/>
    <tag k="oneway" v="no"/>
    <tag k="service" v="alley"/>
  </way>
  <way id="82891838" version="3" timestamp="2011-12-09T06:58:41Z" uid="481934" user="iWowik" changeset="10070659">
    <nd ref="964763459"/>
    <nd ref="964763462"/>
    <tag k="highway" v="unclassified"/>
    <tag k="oneway" v="no"/>
    <tag k="service" v="alley"/>
  </way>
  <way id="82891838" version="4" timestamp="2012-03-22T08:42:05Z" uid="336354" user="esaulenka" changeset="11060373"/>
  <way id="82891839" version="1" timestamp="2010-10-25T11:20:04Z" uid="115477" user="wowik" changeset="6170842">
    <nd ref="964763462"/>
    <nd ref="671164917"/>
    <nd ref="354941025"/>
    <tag k="highway" v="service"/>
    <tag k="service" v="alley"/>
  </way>
  <way id="82891839" version="2" timestamp="2011-10-18T14:22:03Z" uid="481934" user="iWowik" changeset="9591634">
    <nd ref="964763462"/>
    <nd ref="1472071493"/>
    <nd ref="671164917"/>
    <nd ref="354941025"/>
    <tag k="highway" v="service"/>
    <tag k="service" v="alley"/>
  </way>
  <way id="82891839" version="3" timestamp="2011-12-09T06:58:41Z" uid="481934" user="iWowik" changeset="10070659">
    <nd ref="964763462"/>
    <nd ref="1472071493"/>
    <nd ref="671164917"/>
    <nd ref="354941025"/>
    <tag k="highway" v="unclassified"/>
    <tag k="service" v="alley"/>
  </way>
  <way id="82891839" version="4" timestamp="2012-02-06T10:42:00Z" uid="94786" user="glebius" changeset="10601699">
    <nd ref="964763462"/>
    <nd ref="1472071493"/>
    <nd ref="1620073458"/>
    <nd ref="671164917"/>
    <nd ref="354941025"/>
    <tag k="highway" v="unclassified"/>
    <tag k="service" v="alley"/>
  </way>
  <way id="82891839" version="5" timestamp="2012-03-22T08:42:05Z" uid="336354" user="esaulenka" changeset="11060373"/>
</osm>
