<?xml version='1.0' encoding='UTF-8'?>
<osm version="0.6" generator="libosmium/2.20.0">
  <way id="83013985" version="2" timestamp="2010-12-06T00:29:34Z" uid="6269" user="Mueck" changeset="6558663">
    <nd ref="119101581"/>
    <nd ref="119101584"/>
    <tag k="highway" v="residential"/>
    <tag k="name" v="Rahel-Straus-Straße"/>
    <tag k="oneway" v="yes"/>
  </way>
  <way id="83013985" version="3" timestamp="2011-01-22T12:40:34Z" uid="284172" user="editor20" changeset="7049787">
    <nd ref="119101581"/>
    <nd ref="119101584"/>
    <tag k="highway" v="living_street"/>
    <tag k="name" v="Rahel-Straus-Straße"/>
    <tag k="oneway" v="yes"/>
  </way>
  <way id="83013985" version="4" timestamp="2011-01-29T18:23:37Z" uid="285245" user="Baluk" changeset="7125386">
    <nd ref="14768499"/>
    <nd ref="28087807"/>
    <nd ref="119101581"/>
    <nd ref="119101584"/>
    <tag k="highway" v="living_street"/>
    <tag k="name" v="Rahel-Straus-Straße"/>
    <tag k="oneway" v="yes"/>
  </way>
  <way id="83013987" version="2" timestamp="2010-12-06T00:29:34Z" uid="6269" user="Mueck" changeset="6558663">
    <nd ref="119101606"/>
    <nd ref="119101578"/>
    <tag k="highway" v="residential"/>
    <tag k="name" v="Rahel-Straus-Straße"/>
    <tag k="oneway" v="yes"/>
  </way>
  <way id="83013987" version="3" timestamp="2011-01-29T18:23:37Z" uid="285245" user="Baluk" changeset="7125386"/>
</osm>
