<?xml version='1.0' encoding='UTF-8'?>
<osm version="0.6" generator="libosmium/2.20.0">
  <way id="83102225" version="2" timestamp="2010-11-03T16:05:40Z" uid="33382" user="de_muur" changeset="6277282">
    <nd ref="46441379"/>
    <nd ref="415786326"/>
    <nd ref="38967116"/>
    <tag k="highway" v="primary"/>
    <tag k="maxspeed" v="50"/>
    <tag k="ref" v="B 75"/>
    <tag k="surface" v="paved"/>
  </way>
  <way id="83102225" version="3" timestamp="2011-01-07T14:21:07Z" uid="58095" user="BudBundi" changeset="6893171">
    <nd ref="46441379"/>
    <nd ref="415786326"/>
    <nd ref="38967116"/>
    <tag k="highway" v="primary"/>
    <tag k="maxspeed" v="70"/>
    <tag k="ref" v="B 75"/>
    <tag k="surface" v="paved"/>
  </way>
  <way id="83102225" version="4" timestamp="2011-08-21T18:40:56Z" uid="57645" user="KartoGrapHiti" changeset="9087298">
    <nd ref="46441379"/>
    <nd ref="415786326"/>
    <nd ref="1407395738"/>
    <nd ref="38967116"/>
    <tag k="highway" v="primary"/>
    <tag k="maxspeed" v="70"/>
    <tag k="ref" v="B 75"/>
    <tag k="surface" v="paved"/>
  </way>
  <way id="83102225" version="5" timestamp="2012-02-26T23:00:10Z" uid="45882" user="smarties" changeset="10804332"/>
</osm>
