<?xml version='1.0' encoding='UTF-8'?>
<osm version="0.6" generator="libosmium/2.20.0">
  <way id="83279895" version="2" timestamp="2011-01-04T15:39:10Z" uid="9581" user="Lobelt" changeset="6861971">
    <nd ref="33681541"/>
    <nd ref="1082274726"/>
    <tag k="highway" v="primary"/>
    <tag k="maxspeed" v="70"/>
    <tag k="motorroad" v="no"/>
    <tag k="ref" v="B 281"/>
  </way>
  <way id="83279895" version="3" timestamp="2011-03-11T11:08:01Z" uid="192395" user="BBO" changeset="7522225">
    <nd ref="33681541"/>
    <nd ref="1082274726"/>
    <tag k="highway" v="primary"/>
    <tag k="maxspeed:backward" v="100"/>
    <tag k="maxspeed:forward" v="70"/>
    <tag k="motorroad" v="no"/>
    <tag k="ref" v="B 281"/>
    <tag k="source:maxspeed:backward" v="DE:rural"/>
  </way>
  <way id="83279895" version="4" timestamp="2011-03-11T12:07:41Z" uid="192395" user="BBO" changeset="7522669">
    <nd ref="33681541"/>
    <nd ref="1082274726"/>
    <tag k="highway" v="primary"/>
    <tag k="maxspeed" v="70"/>
    <tag k="motorroad" v="no"/>
    <tag k="ref" v="B 281"/>
  </way>
  <way id="83279895" version="5" timestamp="2011-03-16T15:06:58Z" uid="192395" user="BBO" changeset="7576562">
    <nd ref="33681541"/>
    <nd ref="1082274726"/>
    <tag k="highway" v="primary"/>
    <tag k="maxspeed:backward" v="100"/>
    <tag k="maxspeed:forward" v="70"/>
    <tag k="motorroad" v="no"/>
    <tag k="ref" v="B 281"/>
    <tag k="source:maxspeed:backward" v="DE:rural"/>
  </way>
  <way id="83279895" version="6" timestamp="2011-06-21T13:00:29Z" uid="192395" user="BBO" changeset="8504465"/>
</osm>
