<?xml version='1.0' encoding='UTF-8'?>
<osm version="0.6" generator="libosmium/2.20.0">
  <way id="83429642" version="3" timestamp="2011-02-25T08:57:03Z" uid="115477" user="wowik" changeset="7388402">
    <nd ref="971201857"/>
    <nd ref="971201607"/>
    <nd ref="971202058"/>
    <nd ref="971201539"/>
    <nd ref="971201857"/>
    <tag k="addr:city" v="Москва"/>
    <tag k="addr:housenumber" v="25 к4 с1"/>
    <tag k="addr:street" v="Митинская улица"/>
    <tag k="building" v="yes"/>
    <tag k="building:levels" v="1"/>
    <tag k="cladr:code" v="77000000000186400"/>
  </way>
  <way id="83429642" version="4" timestamp="2012-03-27T16:49:47Z" uid="481934" user="iWowik" changeset="11118068">
    <nd ref="971201857"/>
    <nd ref="971201607"/>
    <nd ref="971202058"/>
    <nd ref="971201539"/>
    <nd ref="971201857"/>
    <tag k="addr:city" v="Москва"/>
    <tag k="addr:country" v="RU"/>
    <tag k="addr:housenumber" v="25 к4 с1"/>
    <tag k="addr:street" v="Митинская улица"/>
    <tag k="building" v="yes"/>
    <tag k="building:levels" v="1"/>
    <tag k="cladr:code" v="77000000000186400"/>
  </way>
</osm>
