<?xml version='1.0' encoding='UTF-8'?>
<osm version="0.6" generator="libosmium/2.20.0">
  <way id="83753123" version="1" timestamp="2010-11-02T23:46:20Z" uid="34428" user="usm78-gis" changeset="6272768">
    <nd ref="439472003"/>
    <nd ref="975466679"/>
    <nd ref="975466680"/>
    <nd ref="975466672"/>
    <nd ref="975466675"/>
    <tag k="highway" v="path"/>
  </way>
  <way id="83753124" version="1" timestamp="2010-11-02T23:46:20Z" uid="34428" user="usm78-gis" changeset="6272768">
    <nd ref="272371603"/>
    <nd ref="975466689"/>
    <tag k="highway" v="footway"/>
  </way>
  <way id="83753125" version="1" timestamp="2010-11-02T23:46:20Z" uid="34428" user="usm78-gis" changeset="6272768">
    <nd ref="975466682"/>
    <nd ref="975466676"/>
    <tag k="highway" v="track"/>
  </way>
  <way id="83753127" version="1" timestamp="2010-11-02T23:46:21Z" uid="34428" user="usm78-gis" changeset="6272768">
    <nd ref="277080660"/>
    <nd ref="277080661"/>
    <tag k="addr:postcode" v="195043"/>
    <tag k="cladr:code" v="78000000000052000"/>
    <tag k="cladr:name" v="Капсюльное"/>
    <tag k="cladr:suffix" v="Шоссе"/>
    <tag k="highway" v="residential"/>
    <tag k="name" v="Капсюльное шоссе"/>
  </way>
  <way id="83753127" version="2" timestamp="2011-09-27T22:01:49Z" uid="143266" user="Sergey Astakhov" changeset="9415287">
    <nd ref="277080660"/>
    <nd ref="277080661"/>
    <tag k="addr:postcode" v="195043"/>
    <tag k="highway" v="residential"/>
    <tag k="name" v="Капсюльное шоссе"/>
  </way>
  <way id="83753129" version="1" timestamp="2010-11-02T23:46:21Z" uid="34428" user="usm78-gis" changeset="6272768">
    <nd ref="469358060"/>
    <nd ref="469358061"/>
    <nd ref="469358063"/>
    <nd ref="469358057"/>
    <tag k="foot" v="yes"/>
    <tag k="highway" v="footway"/>
  </way>
  <way id="83753129" version="2" timestamp="2011-08-22T21:01:54Z" uid="395588" user="Danidin9" changeset="9098363"/>
  <way id="83753130" version="1" timestamp="2010-11-02T23:46:21Z" uid="34428" user="usm78-gis" changeset="6272768">
    <nd ref="975466682"/>
    <nd ref="342397"/>
    <tag k="addr:postcode" v="195043"/>
    <tag k="cladr:code" v="78000000000119200"/>
    <tag k="cladr:name" v="Ржевская"/>
    <tag k="cladr:suffix" v="Улица"/>
    <tag k="highway" v="secondary"/>
    <tag k="name" v="Ржевская улица"/>
    <tag k="surface" v="asphalt"/>
  </way>
  <way id="83753130" version="2" timestamp="2010-11-10T13:58:37Z" uid="290271" user="Zverik" changeset="6336114">
    <nd ref="975466682"/>
    <nd ref="342397"/>
    <tag k="addr:postcode" v="195043"/>
    <tag k="cladr:code" v="78000000000119200"/>
    <tag k="cladr:name" v="Ржевская"/>
    <tag k="cladr:suffix" v="Улица"/>
    <tag k="highway" v="secondary"/>
    <tag k="lit" v="yes"/>
    <tag k="name" v="Ржевская улица"/>
    <tag k="surface" v="asphalt"/>
  </way>
  <way id="83753130" version="3" timestamp="2011-06-21T22:48:08Z" uid="392109" user="GaM" changeset="8509671"/>
  <way id="83753148" version="1" timestamp="2010-11-02T23:46:25Z" uid="34428" user="usm78-gis" changeset="6272768">
    <nd ref="469358060"/>
    <nd ref="975466688"/>
    <nd ref="975466670"/>
    <nd ref="975466681"/>
    <tag k="highway" v="footway"/>
  </way>
  <way id="83753148" version="2" timestamp="2011-08-22T21:01:54Z" uid="395588" user="Danidin9" changeset="9098363"/>
  <way id="83753149" version="1" timestamp="2010-11-02T23:46:25Z" uid="34428" user="usm78-gis" changeset="6272768">
    <nd ref="975466678"/>
    <nd ref="975466674"/>
    <nd ref="975466685"/>
    <nd ref="975466687"/>
    <tag k="highway" v="footway"/>
  </way>
</osm>
