<?xml version='1.0' encoding='UTF-8'?>
<osm version="0.6" generator="libosmium/2.20.0">
  <way id="83885280" version="2" timestamp="2011-01-01T00:58:55Z" uid="4467" user="Rosscoe" changeset="6824546">
    <nd ref="976336615"/>
    <nd ref="976336616"/>
    <nd ref="976336612"/>
    <tag k="highway" v="residential"/>
    <tag k="name" v="Mandalay Place"/>
    <tag k="old_name" v="Mona Vale Road"/>
  </way>
  <way id="83885280" version="3" timestamp="2011-05-14T10:00:27Z" uid="61114" user="Trav" changeset="8139083">
    <nd ref="976336615"/>
    <nd ref="976336616"/>
    <nd ref="1283909821"/>
    <nd ref="1283909818"/>
    <nd ref="976336612"/>
    <tag k="highway" v="residential"/>
    <tag k="name" v="Mandalay Place"/>
    <tag k="old_name" v="Mona Vale Road"/>
  </way>
  <way id="83885280" version="4" timestamp="2012-03-09T04:27:05Z" uid="7523" user="inas" changeset="10915963">
    <nd ref="1666786275"/>
    <nd ref="976336612"/>
    <nd ref="1283909818"/>
    <nd ref="1283909821"/>
    <nd ref="976336616"/>
    <nd ref="976336615"/>
    <tag k="highway" v="residential"/>
    <tag k="name" v="Mandalay Place"/>
    <tag k="old_name" v="Mona Vale Road"/>
  </way>
</osm>
