<?xml version='1.0' encoding='UTF-8'?>
<osm version="0.6" generator="libosmium/2.20.0">
  <way id="8401001" version="1" timestamp="2007-03-22T20:10:26Z" uid="5871" user="Banny" changeset="242655">
    <nd ref="26631679"/>
    <nd ref="18313585"/>
    <tag k="created_by" v="JOSM"/>
    <tag k="note" v="FIXME previously unwayed segment"/>
  </way>
  <way id="8401001" version="2" timestamp="2007-12-08T21:12:03Z" uid="5871" user="Banny" changeset="187427">
    <nd ref="26631679"/>
    <nd ref="18313585"/>
    <tag k="created_by" v="JOSM"/>
    <tag k="highway" v="service"/>
  </way>
  <way id="8401001" version="3" timestamp="2007-12-09T19:51:56Z" uid="5871" user="Banny" changeset="214357">
    <nd ref="26631679"/>
    <nd ref="158751587"/>
    <tag k="created_by" v="JOSM"/>
    <tag k="highway" v="service"/>
  </way>
  <way id="8401001" version="4" timestamp="2007-12-12T10:09:00Z" uid="5871" user="Banny" changeset="269950">
    <nd ref="26631679"/>
    <nd ref="158751587"/>
    <tag k="created_by" v="JOSM"/>
    <tag k="highway" v="service"/>
    <tag k="name" v="Johann-Wilhelm-Lindlar-Straße"/>
  </way>
  <way id="8401001" version="5" timestamp="2008-06-20T19:54:24Z" uid="44377" user="klasmd" changeset="235731">
    <nd ref="26631679"/>
    <nd ref="158751587"/>
    <tag k="created_by" v="JOSM"/>
    <tag k="highway" v="service"/>
    <tag k="name" v="Johann Wilhelm Lindlar Str."/>
  </way>
  <way id="8401001" version="6" timestamp="2008-08-05T08:45:09Z" uid="31059" user="DaBear" changeset="66888">
    <nd ref="26631679"/>
    <nd ref="158751587"/>
    <tag k="created_by" v="JOSM"/>
    <tag k="highway" v="service"/>
    <tag k="name" v="Johann Wilhelm Lindlar Straße"/>
  </way>
  <way id="8401001" version="7" timestamp="2008-09-07T11:57:10Z" uid="44377" user="klasmd" changeset="566365">
    <nd ref="26631679"/>
    <nd ref="294621067"/>
    <nd ref="158751587"/>
    <tag k="created_by" v="JOSM"/>
    <tag k="highway" v="service"/>
    <tag k="name" v="Johann Wilhelm Lindlar Straße"/>
  </way>
  <way id="8401001" version="8" timestamp="2009-04-22T17:09:02Z" uid="15198" user="WolleU" changeset="902434">
    <nd ref="380794401"/>
    <nd ref="294621067"/>
    <nd ref="158751587"/>
    <tag k="created_by" v="JOSM"/>
    <tag k="highway" v="service"/>
    <tag k="name" v="Johann Wilhelm Lindlar Straße"/>
  </way>
  <way id="8401001" version="9" timestamp="2009-05-04T19:57:54Z" uid="5735" user="ColinMarquardt" changeset="1079781">
    <nd ref="380794401"/>
    <nd ref="294621067"/>
    <nd ref="158751587"/>
    <tag k="created_by" v="JOSM"/>
    <tag k="highway" v="service"/>
    <tag k="name" v="Johann-Wilhelm Lindlar-Straße"/>
  </way>
  <way id="8401001" version="10" timestamp="2009-08-25T08:15:45Z" uid="42123" user="Ropino" changeset="2253492">
    <nd ref="380794401"/>
    <nd ref="294621067"/>
    <nd ref="158751587"/>
    <tag k="created_by" v="JOSM"/>
    <tag k="highway" v="service"/>
    <tag k="name" v="Johann-Wilhelm-Lindlar-Straße"/>
  </way>
  <way id="8401001" version="11" timestamp="2010-12-16T21:25:19Z" uid="384605" user="Ferdi_GL" changeset="6681719">
    <nd ref="380794401"/>
    <nd ref="1041839633"/>
    <nd ref="294621067"/>
    <nd ref="158751587"/>
    <tag k="created_by" v="JOSM"/>
    <tag k="highway" v="service"/>
    <tag k="name" v="Johann-Wilhelm-Lindlar-Straße"/>
  </way>
  <way id="8401001" version="12" timestamp="2011-02-14T09:11:53Z" uid="403600" user="alexmerkel" changeset="7283934">
    <nd ref="380794401"/>
    <nd ref="1041839633"/>
    <nd ref="294621067"/>
    <nd ref="158751587"/>
    <tag k="highway" v="service"/>
    <tag k="name" v="Johann-Wilhelm-Lindlar-Straße"/>
  </way>
  <way id="8401001" version="13" timestamp="2012-03-06T18:21:15Z" uid="7079" user="mapwitch" changeset="10892879">
    <nd ref="380794401"/>
    <nd ref="1662812531"/>
    <nd ref="1662812509"/>
    <nd ref="1041839633"/>
    <nd ref="294621067"/>
    <nd ref="18313585"/>
    <tag k="highway" v="service"/>
    <tag k="name" v="Johann-Wilhelm-Lindlar-Straße"/>
  </way>
  <way id="8401355" version="4" timestamp="2010-02-03T01:15:28Z" uid="30201" user="rrankin" changeset="3780262"/>
</osm>
