<?xml version='1.0' encoding='UTF-8'?>
<osm version="0.6" generator="libosmium/2.20.0">
  <way id="84188659" version="1" timestamp="2010-11-06T17:08:17Z" uid="6269" user="Mueck" changeset="6304139">
    <nd ref="27134781"/>
    <nd ref="27046228"/>
    <nd ref="27046247"/>
    <nd ref="27046237"/>
    <tag k="highway" v="cycleway"/>
  </way>
  <way id="84188659" version="2" timestamp="2011-02-03T06:15:22Z" uid="163673" user="Free_Jan" changeset="7171179">
    <nd ref="27134781"/>
    <nd ref="1133478914"/>
    <nd ref="1133478928"/>
    <nd ref="1133479010"/>
    <nd ref="27046228"/>
    <nd ref="27046247"/>
    <nd ref="27046237"/>
    <tag k="highway" v="cycleway"/>
  </way>
  <way id="84188659" version="3" timestamp="2011-02-12T17:20:21Z" uid="118352" user="kamarc" changeset="7267075"/>
  <way id="84188747" version="1" timestamp="2010-11-06T17:08:34Z" uid="6269" user="Mueck" changeset="6304139">
    <nd ref="27046212"/>
    <nd ref="27046249"/>
    <nd ref="27046248"/>
    <tag k="highway" v="primary"/>
    <tag k="maxspeed" v="50"/>
    <tag k="name" v="Michelinstraße"/>
    <tag k="oneway" v="yes"/>
    <tag k="ref" v="B 36"/>
  </way>
  <way id="84188747" version="2" timestamp="2011-02-03T06:15:17Z" uid="163673" user="Free_Jan" changeset="7171179">
    <nd ref="27046212"/>
    <nd ref="27046249"/>
    <nd ref="1133479006"/>
    <nd ref="27046248"/>
    <tag k="highway" v="primary"/>
    <tag k="maxspeed" v="50"/>
    <tag k="name" v="Michelinstraße"/>
    <tag k="oneway" v="yes"/>
    <tag k="ref" v="B 36"/>
  </way>
  <way id="84188747" version="3" timestamp="2012-02-07T22:58:26Z" uid="165061" user="keinname" changeset="10618069">
    <nd ref="27046212"/>
    <nd ref="27046249"/>
    <nd ref="1133479006"/>
    <nd ref="27046248"/>
    <tag k="highway" v="primary"/>
    <tag k="lanes" v="2"/>
    <tag k="maxspeed" v="50"/>
    <tag k="name" v="Michelinstraße"/>
    <tag k="oneway" v="yes"/>
    <tag k="ref" v="B 36"/>
  </way>
</osm>
