<?xml version='1.0' encoding='UTF-8'?>
<osm version="0.6" generator="libosmium/2.20.0">
  <way id="84623132" version="3" timestamp="2010-12-19T23:23:37Z" uid="6269" user="Mueck" changeset="6711092">
    <nd ref="29764682"/>
    <nd ref="295712841"/>
    <nd ref="29764677"/>
    <nd ref="988572530"/>
    <nd ref="29764484"/>
    <nd ref="1050228843"/>
    <nd ref="29764483"/>
    <nd ref="416974475"/>
    <tag k="highway" v="secondary"/>
    <tag k="name" v="Hauptstraße"/>
    <tag k="ref" v="L 121"/>
  </way>
  <way id="84623132" version="4" timestamp="2011-04-13T18:35:41Z" uid="114813" user="Chrisuu" changeset="7854216">
    <nd ref="29764682"/>
    <nd ref="295712841"/>
    <nd ref="29764677"/>
    <nd ref="988572530"/>
    <nd ref="1243597135"/>
    <nd ref="1243597155"/>
    <nd ref="29764484"/>
    <nd ref="1050228843"/>
    <nd ref="29764483"/>
    <nd ref="416974475"/>
    <tag k="highway" v="secondary"/>
    <tag k="name" v="Hauptstraße"/>
    <tag k="ref" v="L 121"/>
  </way>
  <way id="84623132" version="5" timestamp="2011-04-13T18:42:08Z" uid="114813" user="Chrisuu" changeset="7854216">
    <nd ref="29764682"/>
    <nd ref="1243609775"/>
    <nd ref="1243609807"/>
    <nd ref="295712841"/>
    <nd ref="29764677"/>
    <nd ref="988572530"/>
    <nd ref="1243597135"/>
    <nd ref="1243597155"/>
    <nd ref="29764484"/>
    <nd ref="1050228843"/>
    <nd ref="29764483"/>
    <nd ref="416974475"/>
    <tag k="highway" v="secondary"/>
    <tag k="name" v="Hauptstraße"/>
    <tag k="ref" v="L 121"/>
  </way>
  <way id="84623132" version="6" timestamp="2011-04-13T18:57:34Z" uid="114813" user="Chrisuu" changeset="7854654">
    <nd ref="29764682"/>
    <nd ref="1243609775"/>
    <nd ref="1243609807"/>
    <nd ref="295712841"/>
    <nd ref="29764677"/>
    <nd ref="988572530"/>
    <nd ref="1243597135"/>
    <nd ref="1243597155"/>
    <nd ref="29764484"/>
    <nd ref="1243621359"/>
    <nd ref="1050228843"/>
    <nd ref="29764483"/>
    <nd ref="416974475"/>
    <tag k="highway" v="secondary"/>
    <tag k="name" v="Hauptstraße"/>
    <tag k="ref" v="L 121"/>
  </way>
  <way id="84623132" version="7" timestamp="2011-04-20T22:47:17Z" uid="42429" user="FK270673" changeset="7921065">
    <nd ref="29764682"/>
    <nd ref="1243609775"/>
    <nd ref="1253194967"/>
    <nd ref="295712841"/>
    <nd ref="29764677"/>
    <nd ref="988572530"/>
    <nd ref="1243597135"/>
    <nd ref="1243597155"/>
    <nd ref="29764484"/>
    <nd ref="1243621359"/>
    <nd ref="1050228843"/>
    <nd ref="29764483"/>
    <nd ref="416974475"/>
    <tag k="highway" v="secondary"/>
    <tag k="name" v="Hauptstraße"/>
    <tag k="ref" v="L 121"/>
  </way>
  <way id="84623132" version="8" timestamp="2011-06-08T19:07:02Z" uid="114813" user="Chrisuu" changeset="8382538">
    <nd ref="29764682"/>
    <nd ref="1243609775"/>
    <nd ref="1316422175"/>
    <nd ref="1253194967"/>
    <nd ref="295712841"/>
    <nd ref="29764677"/>
    <nd ref="988572530"/>
    <nd ref="1243597135"/>
    <nd ref="1243597155"/>
    <nd ref="29764484"/>
    <nd ref="1243621359"/>
    <nd ref="1050228843"/>
    <nd ref="29764483"/>
    <nd ref="416974475"/>
    <tag k="highway" v="secondary"/>
    <tag k="name" v="Hauptstraße"/>
    <tag k="ref" v="L 121"/>
  </way>
  <way id="84623132" version="9" timestamp="2011-07-11T16:04:16Z" uid="192065" user="Pedie" changeset="8695117">
    <nd ref="29764682"/>
    <nd ref="1243609775"/>
    <nd ref="1316422175"/>
    <nd ref="1253194967"/>
    <nd ref="295712841"/>
    <tag k="highway" v="secondary"/>
    <tag k="name" v="Hauptstraße"/>
    <tag k="ref" v="L 121"/>
  </way>
  <way id="84623132" version="10" timestamp="2012-03-03T00:11:03Z" uid="45882" user="smarties" changeset="10853720"/>
  <way id="84623687" version="1" timestamp="2010-11-09T08:23:54Z" uid="115477" user="wowik" changeset="6325744">
    <nd ref="983105154"/>
    <nd ref="983105354"/>
    <nd ref="983105292"/>
    <nd ref="983105071"/>
    <nd ref="983105154"/>
    <tag k="addr:city" v="Зеленоград"/>
    <tag k="addr:housenumber" v="3с2"/>
    <tag k="addr:street" v="Панфиловский проспект"/>
    <tag k="building" v="yes"/>
    <tag k="is_in" v="Russia"/>
  </way>
  <way id="84623687" version="2" timestamp="2011-01-19T17:02:50Z" uid="70696" user="xybot" changeset="7021015">
    <nd ref="983105154"/>
    <nd ref="983105354"/>
    <nd ref="983105292"/>
    <nd ref="983105071"/>
    <nd ref="983105154"/>
    <tag k="addr:city" v="Зеленоград"/>
    <tag k="addr:housenumber" v="3 с2"/>
    <tag k="addr:street" v="Панфиловский проспект"/>
    <tag k="building" v="yes"/>
    <tag k="is_in" v="Russia"/>
  </way>
  <way id="84623687" version="3" timestamp="2011-09-13T10:25:29Z" uid="29320" user="Komяpa" changeset="9288237">
    <nd ref="983105154"/>
    <nd ref="983105354"/>
    <nd ref="983105292"/>
    <nd ref="983105071"/>
    <nd ref="983105154"/>
    <tag k="addr:city" v="Зеленоград"/>
    <tag k="addr:country" v="RU"/>
    <tag k="addr:housenumber" v="3 с2"/>
    <tag k="addr:street" v="Панфиловский проспект"/>
    <tag k="building" v="yes"/>
  </way>
  <way id="84623688" version="1" timestamp="2010-11-09T08:23:55Z" uid="115477" user="wowik" changeset="6325744">
    <nd ref="983105139"/>
    <nd ref="983105085"/>
    <nd ref="983105276"/>
    <nd ref="983105217"/>
    <nd ref="983105139"/>
    <tag k="addr:city" v="Зеленоград"/>
    <tag k="addr:street" v="1-й Микрорайон"/>
    <tag k="building" v="yes"/>
    <tag k="is_in" v="Russia"/>
    <tag k="landuse" v="service"/>
  </way>
  <way id="84623688" version="2" timestamp="2011-06-07T20:49:24Z" uid="133332" user="AMDmi3" changeset="8374030">
    <nd ref="983105139"/>
    <nd ref="983105085"/>
    <nd ref="983105276"/>
    <nd ref="983105217"/>
    <nd ref="983105139"/>
    <tag k="addr:city" v="Зеленоград"/>
    <tag k="addr:street" v="1-й микрорайон"/>
    <tag k="building" v="yes"/>
    <tag k="is_in" v="Russia"/>
    <tag k="landuse" v="service"/>
  </way>
  <way id="84623688" version="3" timestamp="2011-09-13T10:37:11Z" uid="29320" user="Komяpa" changeset="9288237">
    <nd ref="983105139"/>
    <nd ref="983105085"/>
    <nd ref="983105276"/>
    <nd ref="983105217"/>
    <nd ref="983105139"/>
    <tag k="addr:city" v="Зеленоград"/>
    <tag k="addr:country" v="RU"/>
    <tag k="addr:street" v="1-й микрорайон"/>
    <tag k="building" v="service"/>
  </way>
  <way id="84623688" version="4" timestamp="2011-10-28T10:33:46Z" uid="481934" user="iWowik" changeset="9675276">
    <nd ref="983105139"/>
    <nd ref="983105085"/>
    <nd ref="983105276"/>
    <nd ref="983105217"/>
    <nd ref="983105139"/>
    <tag k="addr:city" v="Зеленоград"/>
    <tag k="addr:country" v="RU"/>
    <tag k="addr:street" v="1-й Микрорайон"/>
    <tag k="building" v="service"/>
  </way>
  <way id="84623688" version="5" timestamp="2011-11-14T20:35:57Z" uid="133332" user="AMDmi3" changeset="9828527">
    <nd ref="983105139"/>
    <nd ref="983105085"/>
    <nd ref="983105276"/>
    <nd ref="983105217"/>
    <nd ref="983105139"/>
    <tag k="addr:city" v="Зеленоград"/>
    <tag k="addr:country" v="RU"/>
    <tag k="addr:street" v="1-й микрорайон"/>
    <tag k="building" v="service"/>
  </way>
  <way id="84623688" version="6" timestamp="2012-03-27T11:52:44Z" uid="481934" user="iWowik" changeset="11115472">
    <nd ref="983105139"/>
    <nd ref="983105085"/>
    <nd ref="983105276"/>
    <nd ref="983105217"/>
    <nd ref="983105139"/>
    <tag k="addr:city" v="Зеленоград"/>
    <tag k="addr:country" v="RU"/>
    <tag k="addr:region" v="Москва"/>
    <tag k="addr:street" v="1-й микрорайон"/>
    <tag k="building" v="service"/>
  </way>
  <way id="84623689" version="1" timestamp="2010-11-09T08:23:55Z" uid="115477" user="wowik" changeset="6325744">
    <nd ref="983105074"/>
    <nd ref="983105267"/>
    <nd ref="983105198"/>
    <nd ref="983104986"/>
    <nd ref="983105074"/>
    <tag k="addr:city" v="Зеленоград"/>
    <tag k="addr:housenumber" v="7"/>
    <tag k="addr:street" v="Панфиловский проспект"/>
    <tag k="building" v="yes"/>
    <tag k="is_in" v="Russia"/>
  </way>
  <way id="84623689" version="2" timestamp="2011-09-13T10:28:15Z" uid="29320" user="Komяpa" changeset="9288237">
    <nd ref="983105074"/>
    <nd ref="983105267"/>
    <nd ref="983105198"/>
    <nd ref="983104986"/>
    <nd ref="983105074"/>
    <tag k="addr:city" v="Зеленоград"/>
    <tag k="addr:country" v="RU"/>
    <tag k="addr:housenumber" v="7"/>
    <tag k="addr:street" v="Панфиловский проспект"/>
    <tag k="building" v="yes"/>
  </way>
  <way id="84623690" version="1" timestamp="2010-11-09T08:23:56Z" uid="115477" user="wowik" changeset="6325744">
    <nd ref="983105317"/>
    <nd ref="983105260"/>
    <nd ref="983105032"/>
    <nd ref="983104979"/>
    <nd ref="983105317"/>
    <tag k="addr:city" v="Зеленоград"/>
    <tag k="addr:housenumber" v="158А"/>
    <tag k="addr:street" v="1-й Микрорайон"/>
    <tag k="building" v="yes"/>
    <tag k="is_in" v="Russia"/>
  </way>
  <way id="84623690" version="2" timestamp="2010-11-09T15:54:21Z" uid="115477" user="wowik" changeset="6329024">
    <nd ref="983105317"/>
    <nd ref="983105260"/>
    <nd ref="983105032"/>
    <nd ref="983104979"/>
    <nd ref="983105317"/>
    <tag k="addr:city" v="Зеленоград"/>
    <tag k="addr:housenumber" v="158А"/>
    <tag k="addr:street" v="1-й Микрорайон"/>
    <tag k="building" v="yes"/>
    <tag k="is_in" v="Russia"/>
    <tag k="landuse" v="service"/>
  </way>
  <way id="84623690" version="3" timestamp="2011-06-07T20:49:25Z" uid="133332" user="AMDmi3" changeset="8374030">
    <nd ref="983105317"/>
    <nd ref="983105260"/>
    <nd ref="983105032"/>
    <nd ref="983104979"/>
    <nd ref="983105317"/>
    <tag k="addr:city" v="Зеленоград"/>
    <tag k="addr:housenumber" v="158А"/>
    <tag k="addr:street" v="1-й микрорайон"/>
    <tag k="building" v="yes"/>
    <tag k="is_in" v="Russia"/>
    <tag k="landuse" v="service"/>
  </way>
  <way id="84623690" version="4" timestamp="2011-09-13T10:23:09Z" uid="29320" user="Komяpa" changeset="9288237">
    <nd ref="983105317"/>
    <nd ref="983105260"/>
    <nd ref="983105032"/>
    <nd ref="983104979"/>
    <nd ref="983105317"/>
    <tag k="addr:city" v="Зеленоград"/>
    <tag k="addr:country" v="RU"/>
    <tag k="addr:housenumber" v="158А"/>
    <tag k="addr:street" v="1-й микрорайон"/>
    <tag k="building" v="service"/>
  </way>
  <way id="84623690" version="5" timestamp="2011-10-28T10:33:41Z" uid="481934" user="iWowik" changeset="9675276">
    <nd ref="983105317"/>
    <nd ref="983105260"/>
    <nd ref="983105032"/>
    <nd ref="983104979"/>
    <nd ref="983105317"/>
    <tag k="addr:city" v="Зеленоград"/>
    <tag k="addr:country" v="RU"/>
    <tag k="addr:housenumber" v="158А"/>
    <tag k="addr:street" v="1-й Микрорайон"/>
    <tag k="building" v="service"/>
  </way>
  <way id="84623690" version="6" timestamp="2011-11-14T20:31:46Z" uid="133332" user="AMDmi3" changeset="9828527">
    <nd ref="983105317"/>
    <nd ref="983105260"/>
    <nd ref="983105032"/>
    <nd ref="983104979"/>
    <nd ref="983105317"/>
    <tag k="addr:city" v="Зеленоград"/>
    <tag k="addr:country" v="RU"/>
    <tag k="addr:housenumber" v="158А"/>
    <tag k="addr:street" v="1-й микрорайон"/>
    <tag k="building" v="service"/>
  </way>
  <way id="84623691" version="1" timestamp="2010-11-09T08:23:56Z" uid="115477" user="wowik" changeset="6325744">
    <nd ref="983105131"/>
    <nd ref="983105337"/>
    <nd ref="983105270"/>
    <nd ref="983105052"/>
    <nd ref="983105131"/>
    <tag k="addr:city" v="Зеленоград"/>
    <tag k="addr:street" v="1-й Микрорайон"/>
    <tag k="building" v="yes"/>
    <tag k="is_in" v="Russia"/>
    <tag k="landuse" v="service"/>
  </way>
  <way id="84623691" version="2" timestamp="2011-06-07T20:49:25Z" uid="133332" user="AMDmi3" changeset="8374030">
    <nd ref="983105131"/>
    <nd ref="983105337"/>
    <nd ref="983105270"/>
    <nd ref="983105052"/>
    <nd ref="983105131"/>
    <tag k="addr:city" v="Зеленоград"/>
    <tag k="addr:street" v="1-й микрорайон"/>
    <tag k="building" v="yes"/>
    <tag k="is_in" v="Russia"/>
    <tag k="landuse" v="service"/>
  </way>
  <way id="84623691" version="3" timestamp="2011-09-13T10:37:11Z" uid="29320" user="Komяpa" changeset="9288237">
    <nd ref="983105131"/>
    <nd ref="983105337"/>
    <nd ref="983105270"/>
    <nd ref="983105052"/>
    <nd ref="983105131"/>
    <tag k="addr:city" v="Зеленоград"/>
    <tag k="addr:country" v="RU"/>
    <tag k="addr:street" v="1-й микрорайон"/>
    <tag k="building" v="service"/>
  </way>
  <way id="84623691" version="4" timestamp="2011-10-28T10:33:46Z" uid="481934" user="iWowik" changeset="9675276">
    <nd ref="983105131"/>
    <nd ref="983105337"/>
    <nd ref="983105270"/>
    <nd ref="983105052"/>
    <nd ref="983105131"/>
    <tag k="addr:city" v="Зеленоград"/>
    <tag k="addr:country" v="RU"/>
    <tag k="addr:street" v="1-й Микрорайон"/>
    <tag k="building" v="service"/>
  </way>
  <way id="84623691" version="5" timestamp="2011-11-14T20:35:57Z" uid="133332" user="AMDmi3" changeset="9828527">
    <nd ref="983105131"/>
    <nd ref="983105337"/>
    <nd ref="983105270"/>
    <nd ref="983105052"/>
    <nd ref="983105131"/>
    <tag k="addr:city" v="Зеленоград"/>
    <tag k="addr:country" v="RU"/>
    <tag k="addr:street" v="1-й микрорайон"/>
    <tag k="building" v="service"/>
  </way>
  <way id="84623692" version="1" timestamp="2010-11-09T08:23:56Z" uid="115477" user="wowik" changeset="6325744">
    <nd ref="983105288"/>
    <nd ref="983105222"/>
    <nd ref="983105008"/>
    <nd ref="983105349"/>
    <nd ref="983105288"/>
    <tag k="addr:city" v="Зеленоград"/>
    <tag k="addr:housenumber" v="3с4"/>
    <tag k="addr:street" v="Панфиловский проспект"/>
    <tag k="building" v="yes"/>
    <tag k="is_in" v="Russia"/>
  </way>
  <way id="84623692" version="2" timestamp="2011-01-19T17:02:50Z" uid="70696" user="xybot" changeset="7021015">
    <nd ref="983105288"/>
    <nd ref="983105222"/>
    <nd ref="983105008"/>
    <nd ref="983105349"/>
    <nd ref="983105288"/>
    <tag k="addr:city" v="Зеленоград"/>
    <tag k="addr:housenumber" v="3 с4"/>
    <tag k="addr:street" v="Панфиловский проспект"/>
    <tag k="building" v="yes"/>
    <tag k="is_in" v="Russia"/>
  </way>
  <way id="84623692" version="3" timestamp="2011-09-13T10:25:33Z" uid="29320" user="Komяpa" changeset="9288237">
    <nd ref="983105288"/>
    <nd ref="983105222"/>
    <nd ref="983105008"/>
    <nd ref="983105349"/>
    <nd ref="983105288"/>
    <tag k="addr:city" v="Зеленоград"/>
    <tag k="addr:country" v="RU"/>
    <tag k="addr:housenumber" v="3 с4"/>
    <tag k="addr:street" v="Панфиловский проспект"/>
    <tag k="building" v="yes"/>
  </way>
  <way id="84623693" version="1" timestamp="2010-11-09T08:23:57Z" uid="115477" user="wowik" changeset="6325744">
    <nd ref="983105350"/>
    <nd ref="983105037"/>
    <nd ref="983105149"/>
    <nd ref="983105285"/>
    <nd ref="983105050"/>
    <nd ref="983105117"/>
    <nd ref="983105158"/>
    <nd ref="983105294"/>
    <nd ref="983105069"/>
    <nd ref="983105263"/>
    <nd ref="983105321"/>
    <nd ref="983105183"/>
    <nd ref="983105350"/>
    <tag k="addr:city" v="Зеленоград"/>
    <tag k="addr:housenumber" v="158с1"/>
    <tag k="addr:street" v="1-й Микрорайон"/>
    <tag k="building" v="yes"/>
    <tag k="is_in" v="Russia"/>
    <tag k="landuse" v="service"/>
  </way>
  <way id="84623693" version="2" timestamp="2011-01-19T17:02:51Z" uid="70696" user="xybot" changeset="7021015">
    <nd ref="983105350"/>
    <nd ref="983105037"/>
    <nd ref="983105149"/>
    <nd ref="983105285"/>
    <nd ref="983105050"/>
    <nd ref="983105117"/>
    <nd ref="983105158"/>
    <nd ref="983105294"/>
    <nd ref="983105069"/>
    <nd ref="983105263"/>
    <nd ref="983105321"/>
    <nd ref="983105183"/>
    <nd ref="983105350"/>
    <tag k="addr:city" v="Зеленоград"/>
    <tag k="addr:housenumber" v="158 с1"/>
    <tag k="addr:street" v="1-й Микрорайон"/>
    <tag k="building" v="yes"/>
    <tag k="is_in" v="Russia"/>
    <tag k="landuse" v="service"/>
  </way>
  <way id="84623693" version="3" timestamp="2011-06-07T20:49:23Z" uid="133332" user="AMDmi3" changeset="8374030">
    <nd ref="983105350"/>
    <nd ref="983105037"/>
    <nd ref="983105149"/>
    <nd ref="983105285"/>
    <nd ref="983105050"/>
    <nd ref="983105117"/>
    <nd ref="983105158"/>
    <nd ref="983105294"/>
    <nd ref="983105069"/>
    <nd ref="983105263"/>
    <nd ref="983105321"/>
    <nd ref="983105183"/>
    <nd ref="983105350"/>
    <tag k="addr:city" v="Зеленоград"/>
    <tag k="addr:housenumber" v="158 с1"/>
    <tag k="addr:street" v="1-й микрорайон"/>
    <tag k="building" v="yes"/>
    <tag k="is_in" v="Russia"/>
    <tag k="landuse" v="service"/>
  </way>
  <way id="84623693" version="4" timestamp="2011-09-13T10:23:08Z" uid="29320" user="Komяpa" changeset="9288237">
    <nd ref="983105350"/>
    <nd ref="983105037"/>
    <nd ref="983105149"/>
    <nd ref="983105285"/>
    <nd ref="983105050"/>
    <nd ref="983105117"/>
    <nd ref="983105158"/>
    <nd ref="983105294"/>
    <nd ref="983105069"/>
    <nd ref="983105263"/>
    <nd ref="983105321"/>
    <nd ref="983105183"/>
    <nd ref="983105350"/>
    <tag k="addr:city" v="Зеленоград"/>
    <tag k="addr:country" v="RU"/>
    <tag k="addr:housenumber" v="158 с1"/>
    <tag k="addr:street" v="1-й микрорайон"/>
    <tag k="building" v="service"/>
  </way>
  <way id="84623693" version="5" timestamp="2011-10-28T10:33:41Z" uid="481934" user="iWowik" changeset="9675276">
    <nd ref="983105350"/>
    <nd ref="983105037"/>
    <nd ref="983105149"/>
    <nd ref="983105285"/>
    <nd ref="983105050"/>
    <nd ref="983105117"/>
    <nd ref="983105158"/>
    <nd ref="983105294"/>
    <nd ref="983105069"/>
    <nd ref="983105263"/>
    <nd ref="983105321"/>
    <nd ref="983105183"/>
    <nd ref="983105350"/>
    <tag k="addr:city" v="Зеленоград"/>
    <tag k="addr:country" v="RU"/>
    <tag k="addr:housenumber" v="158 с1"/>
    <tag k="addr:street" v="1-й Микрорайон"/>
    <tag k="building" v="service"/>
  </way>
  <way id="84623693" version="6" timestamp="2011-11-14T20:31:46Z" uid="133332" user="AMDmi3" changeset="9828527">
    <nd ref="983105350"/>
    <nd ref="983105037"/>
    <nd ref="983105149"/>
    <nd ref="983105285"/>
    <nd ref="983105050"/>
    <nd ref="983105117"/>
    <nd ref="983105158"/>
    <nd ref="983105294"/>
    <nd ref="983105069"/>
    <nd ref="983105263"/>
    <nd ref="983105321"/>
    <nd ref="983105183"/>
    <nd ref="983105350"/>
    <tag k="addr:city" v="Зеленоград"/>
    <tag k="addr:country" v="RU"/>
    <tag k="addr:housenumber" v="158 с1"/>
    <tag k="addr:street" v="1-й микрорайон"/>
    <tag k="building" v="service"/>
  </way>
  <way id="84623694" version="1" timestamp="2010-11-09T08:23:57Z" uid="115477" user="wowik" changeset="6325744">
    <nd ref="983105013"/>
    <nd ref="983105185"/>
    <nd ref="983105121"/>
    <nd ref="983105324"/>
    <nd ref="983105013"/>
    <tag k="addr:city" v="Зеленоград"/>
    <tag k="addr:housenumber" v="11с5"/>
    <tag k="addr:street" v="Панфиловский проспект"/>
    <tag k="building" v="yes"/>
    <tag k="cladr:code" v="77000002000220500"/>
    <tag k="is_in" v="Russia"/>
  </way>
  <way id="84623694" version="2" timestamp="2011-01-19T17:02:51Z" uid="70696" user="xybot" changeset="7021015">
    <nd ref="983105013"/>
    <nd ref="983105185"/>
    <nd ref="983105121"/>
    <nd ref="983105324"/>
    <nd ref="983105013"/>
    <tag k="addr:city" v="Зеленоград"/>
    <tag k="addr:housenumber" v="11 с5"/>
    <tag k="addr:street" v="Панфиловский проспект"/>
    <tag k="building" v="yes"/>
    <tag k="cladr:code" v="77000002000220500"/>
    <tag k="is_in" v="Russia"/>
  </way>
  <way id="84623694" version="3" timestamp="2011-09-13T10:21:26Z" uid="29320" user="Komяpa" changeset="9288237">
    <nd ref="983105013"/>
    <nd ref="983105185"/>
    <nd ref="983105121"/>
    <nd ref="983105324"/>
    <nd ref="983105013"/>
    <tag k="addr:city" v="Зеленоград"/>
    <tag k="addr:country" v="RU"/>
    <tag k="addr:housenumber" v="11 с5"/>
    <tag k="addr:street" v="Панфиловский проспект"/>
    <tag k="building" v="yes"/>
    <tag k="cladr:code" v="77000002000220500"/>
  </way>
  <way id="84623694" version="4" timestamp="2012-03-27T11:34:07Z" uid="481934" user="iWowik" changeset="11115472">
    <nd ref="983105013"/>
    <nd ref="983105185"/>
    <nd ref="983105121"/>
    <nd ref="983105324"/>
    <nd ref="983105013"/>
    <tag k="addr:city" v="Зеленоград"/>
    <tag k="addr:country" v="RU"/>
    <tag k="addr:housenumber" v="11 с5"/>
    <tag k="addr:region" v="Москва"/>
    <tag k="addr:street" v="Панфиловский проспект"/>
    <tag k="building" v="yes"/>
    <tag k="cladr:code" v="77000002000220500"/>
  </way>
  <way id="84623695" version="1" timestamp="2010-11-09T08:23:58Z" uid="115477" user="wowik" changeset="6325744">
    <nd ref="983105344"/>
    <nd ref="983105106"/>
    <nd ref="983105060"/>
    <nd ref="983105251"/>
    <nd ref="983105344"/>
    <tag k="addr:city" v="Зеленоград"/>
    <tag k="addr:housenumber" v="164А"/>
    <tag k="addr:street" v="1-й Микрорайон"/>
    <tag k="building" v="yes"/>
    <tag k="is_in" v="Russia"/>
    <tag k="landuse" v="service"/>
  </way>
  <way id="84623695" version="2" timestamp="2010-11-13T09:23:47Z" uid="115477" user="wowik" changeset="6356660">
    <nd ref="983105344"/>
    <nd ref="983105106"/>
    <nd ref="983105060"/>
    <nd ref="983105251"/>
    <nd ref="983105344"/>
    <tag k="addr:city" v="Зеленоград"/>
    <tag k="building" v="yes"/>
    <tag k="is_in" v="Russia"/>
    <tag k="landuse" v="service"/>
  </way>
  <way id="84623695" version="3" timestamp="2011-09-13T10:37:12Z" uid="29320" user="Komяpa" changeset="9288237">
    <nd ref="983105344"/>
    <nd ref="983105106"/>
    <nd ref="983105060"/>
    <nd ref="983105251"/>
    <nd ref="983105344"/>
    <tag k="addr:city" v="Зеленоград"/>
    <tag k="addr:country" v="RU"/>
    <tag k="building" v="service"/>
  </way>
  <way id="84623696" version="1" timestamp="2010-11-09T08:23:58Z" uid="115477" user="wowik" changeset="6325744">
    <nd ref="983105028"/>
    <nd ref="983105219"/>
    <nd ref="983105143"/>
    <nd ref="983105322"/>
    <nd ref="983105038"/>
    <nd ref="983104981"/>
    <nd ref="983105028"/>
    <tag k="addr:city" v="Зеленоград"/>
    <tag k="addr:street" v="2-й Микрорайон"/>
    <tag k="building" v="yes"/>
    <tag k="is_in" v="Russia"/>
    <tag k="landuse" v="service"/>
  </way>
  <way id="84623696" version="2" timestamp="2011-06-07T20:49:22Z" uid="133332" user="AMDmi3" changeset="8374030">
    <nd ref="983105028"/>
    <nd ref="983105219"/>
    <nd ref="983105143"/>
    <nd ref="983105322"/>
    <nd ref="983105038"/>
    <nd ref="983104981"/>
    <nd ref="983105028"/>
    <tag k="addr:city" v="Зеленоград"/>
    <tag k="addr:street" v="2-й микрорайон"/>
    <tag k="building" v="yes"/>
    <tag k="is_in" v="Russia"/>
    <tag k="landuse" v="service"/>
  </way>
  <way id="84623696" version="3" timestamp="2011-09-13T10:37:12Z" uid="29320" user="Komяpa" changeset="9288237">
    <nd ref="983105028"/>
    <nd ref="983105219"/>
    <nd ref="983105143"/>
    <nd ref="983105322"/>
    <nd ref="983105038"/>
    <nd ref="983104981"/>
    <nd ref="983105028"/>
    <tag k="addr:city" v="Зеленоград"/>
    <tag k="addr:country" v="RU"/>
    <tag k="addr:street" v="2-й микрорайон"/>
    <tag k="building" v="service"/>
  </way>
  <way id="84623696" version="4" timestamp="2011-10-28T10:34:54Z" uid="481934" user="iWowik" changeset="9675276">
    <nd ref="983105028"/>
    <nd ref="983105219"/>
    <nd ref="983105143"/>
    <nd ref="983105322"/>
    <nd ref="983105038"/>
    <nd ref="983104981"/>
    <nd ref="983105028"/>
    <tag k="addr:city" v="Зеленоград"/>
    <tag k="addr:country" v="RU"/>
    <tag k="addr:street" v="2-й Микрорайон"/>
    <tag k="building" v="service"/>
  </way>
  <way id="84623696" version="5" timestamp="2011-11-14T20:35:58Z" uid="133332" user="AMDmi3" changeset="9828527">
    <nd ref="983105028"/>
    <nd ref="983105219"/>
    <nd ref="983105143"/>
    <nd ref="983105322"/>
    <nd ref="983105038"/>
    <nd ref="983104981"/>
    <nd ref="983105028"/>
    <tag k="addr:city" v="Зеленоград"/>
    <tag k="addr:country" v="RU"/>
    <tag k="addr:street" v="2-й микрорайон"/>
    <tag k="building" v="service"/>
  </way>
  <way id="84623696" version="6" timestamp="2012-03-27T11:54:49Z" uid="481934" user="iWowik" changeset="11115472">
    <nd ref="983105028"/>
    <nd ref="983105219"/>
    <nd ref="983105143"/>
    <nd ref="983105322"/>
    <nd ref="983105038"/>
    <nd ref="983104981"/>
    <nd ref="983105028"/>
    <tag k="addr:city" v="Зеленоград"/>
    <tag k="addr:country" v="RU"/>
    <tag k="addr:region" v="Москва"/>
    <tag k="addr:street" v="2-й микрорайон"/>
    <tag k="building" v="service"/>
  </way>
  <way id="84623697" version="1" timestamp="2010-11-09T08:23:58Z" uid="115477" user="wowik" changeset="6325744">
    <nd ref="983105266"/>
    <nd ref="983105190"/>
    <nd ref="983104984"/>
    <nd ref="983105330"/>
    <nd ref="983105266"/>
    <tag k="addr:city" v="Зеленоград"/>
    <tag k="addr:housenumber" v="3с3"/>
    <tag k="addr:street" v="Панфиловский проспект"/>
    <tag k="building" v="yes"/>
    <tag k="is_in" v="Russia"/>
  </way>
  <way id="84623697" version="2" timestamp="2011-01-19T17:02:52Z" uid="70696" user="xybot" changeset="7021015">
    <nd ref="983105266"/>
    <nd ref="983105190"/>
    <nd ref="983104984"/>
    <nd ref="983105330"/>
    <nd ref="983105266"/>
    <tag k="addr:city" v="Зеленоград"/>
    <tag k="addr:housenumber" v="3 с3"/>
    <tag k="addr:street" v="Панфиловский проспект"/>
    <tag k="building" v="yes"/>
    <tag k="is_in" v="Russia"/>
  </way>
  <way id="84623697" version="3" timestamp="2011-09-13T10:25:31Z" uid="29320" user="Komяpa" changeset="9288237">
    <nd ref="983105266"/>
    <nd ref="983105190"/>
    <nd ref="983104984"/>
    <nd ref="983105330"/>
    <nd ref="983105266"/>
    <tag k="addr:city" v="Зеленоград"/>
    <tag k="addr:country" v="RU"/>
    <tag k="addr:housenumber" v="3 с3"/>
    <tag k="addr:street" v="Панфиловский проспект"/>
    <tag k="building" v="yes"/>
  </way>
  <way id="84623698" version="1" timestamp="2010-11-09T08:23:59Z" uid="115477" user="wowik" changeset="6325744">
    <nd ref="983105045"/>
    <nd ref="983105223"/>
    <nd ref="983105153"/>
    <nd ref="983104989"/>
    <nd ref="983105045"/>
    <tag k="addr:city" v="Зеленоград"/>
    <tag k="addr:street" v="1-й Микрорайон"/>
    <tag k="building" v="yes"/>
    <tag k="is_in" v="Russia"/>
    <tag k="landuse" v="service"/>
  </way>
  <way id="84623698" version="2" timestamp="2011-06-07T20:49:23Z" uid="133332" user="AMDmi3" changeset="8374030">
    <nd ref="983105045"/>
    <nd ref="983105223"/>
    <nd ref="983105153"/>
    <nd ref="983104989"/>
    <nd ref="983105045"/>
    <tag k="addr:city" v="Зеленоград"/>
    <tag k="addr:street" v="1-й микрорайон"/>
    <tag k="building" v="yes"/>
    <tag k="is_in" v="Russia"/>
    <tag k="landuse" v="service"/>
  </way>
  <way id="84623698" version="3" timestamp="2011-09-13T10:37:12Z" uid="29320" user="Komяpa" changeset="9288237">
    <nd ref="983105045"/>
    <nd ref="983105223"/>
    <nd ref="983105153"/>
    <nd ref="983104989"/>
    <nd ref="983105045"/>
    <tag k="addr:city" v="Зеленоград"/>
    <tag k="addr:country" v="RU"/>
    <tag k="addr:street" v="1-й микрорайон"/>
    <tag k="building" v="service"/>
  </way>
  <way id="84623698" version="4" timestamp="2011-10-28T10:33:46Z" uid="481934" user="iWowik" changeset="9675276">
    <nd ref="983105045"/>
    <nd ref="983105223"/>
    <nd ref="983105153"/>
    <nd ref="983104989"/>
    <nd ref="983105045"/>
    <tag k="addr:city" v="Зеленоград"/>
    <tag k="addr:country" v="RU"/>
    <tag k="addr:street" v="1-й Микрорайон"/>
    <tag k="building" v="service"/>
  </way>
  <way id="84623698" version="5" timestamp="2011-11-14T20:35:58Z" uid="133332" user="AMDmi3" changeset="9828527">
    <nd ref="983105045"/>
    <nd ref="983105223"/>
    <nd ref="983105153"/>
    <nd ref="983104989"/>
    <nd ref="983105045"/>
    <tag k="addr:city" v="Зеленоград"/>
    <tag k="addr:country" v="RU"/>
    <tag k="addr:street" v="1-й микрорайон"/>
    <tag k="building" v="service"/>
  </way>
  <way id="84623699" version="1" timestamp="2010-11-09T08:23:59Z" uid="115477" user="wowik" changeset="6325744">
    <nd ref="983105104"/>
    <nd ref="983105300"/>
    <nd ref="983105248"/>
    <nd ref="983105019"/>
    <nd ref="983105104"/>
    <tag k="addr:city" v="Зеленоград"/>
    <tag k="addr:street" v="1-й Микрорайон"/>
    <tag k="building" v="yes"/>
    <tag k="is_in" v="Russia"/>
    <tag k="landuse" v="service"/>
  </way>
  <way id="84623699" version="2" timestamp="2011-06-07T20:49:23Z" uid="133332" user="AMDmi3" changeset="8374030">
    <nd ref="983105104"/>
    <nd ref="983105300"/>
    <nd ref="983105248"/>
    <nd ref="983105019"/>
    <nd ref="983105104"/>
    <tag k="addr:city" v="Зеленоград"/>
    <tag k="addr:street" v="1-й микрорайон"/>
    <tag k="building" v="yes"/>
    <tag k="is_in" v="Russia"/>
    <tag k="landuse" v="service"/>
  </way>
  <way id="84623699" version="3" timestamp="2011-09-13T10:37:12Z" uid="29320" user="Komяpa" changeset="9288237">
    <nd ref="983105104"/>
    <nd ref="983105300"/>
    <nd ref="983105248"/>
    <nd ref="983105019"/>
    <nd ref="983105104"/>
    <tag k="addr:city" v="Зеленоград"/>
    <tag k="addr:country" v="RU"/>
    <tag k="addr:street" v="1-й микрорайон"/>
    <tag k="building" v="service"/>
  </way>
  <way id="84623699" version="4" timestamp="2011-10-28T10:33:47Z" uid="481934" user="iWowik" changeset="9675276">
    <nd ref="983105104"/>
    <nd ref="983105300"/>
    <nd ref="983105248"/>
    <nd ref="983105019"/>
    <nd ref="983105104"/>
    <tag k="addr:city" v="Зеленоград"/>
    <tag k="addr:country" v="RU"/>
    <tag k="addr:street" v="1-й Микрорайон"/>
    <tag k="building" v="service"/>
  </way>
  <way id="84623699" version="5" timestamp="2011-11-14T20:35:58Z" uid="133332" user="AMDmi3" changeset="9828527">
    <nd ref="983105104"/>
    <nd ref="983105300"/>
    <nd ref="983105248"/>
    <nd ref="983105019"/>
    <nd ref="983105104"/>
    <tag k="addr:city" v="Зеленоград"/>
    <tag k="addr:country" v="RU"/>
    <tag k="addr:street" v="1-й микрорайон"/>
    <tag k="building" v="service"/>
  </way>
  <way id="84623699" version="6" timestamp="2012-03-27T11:52:57Z" uid="481934" user="iWowik" changeset="11115472">
    <nd ref="983105104"/>
    <nd ref="983105300"/>
    <nd ref="983105248"/>
    <nd ref="983105019"/>
    <nd ref="983105104"/>
    <tag k="addr:city" v="Зеленоград"/>
    <tag k="addr:country" v="RU"/>
    <tag k="addr:region" v="Москва"/>
    <tag k="addr:street" v="1-й микрорайон"/>
    <tag k="building" v="service"/>
  </way>
  <way id="84623700" version="1" timestamp="2010-11-09T08:23:59Z" uid="115477" user="wowik" changeset="6325744">
    <nd ref="983105136"/>
    <nd ref="983105084"/>
    <nd ref="983105082"/>
    <nd ref="983104971"/>
    <nd ref="983105274"/>
    <nd ref="983105214"/>
    <nd ref="983105136"/>
    <tag k="addr:city" v="Зеленоград"/>
    <tag k="addr:street" v="1-й Микрорайон"/>
    <tag k="building" v="yes"/>
    <tag k="is_in" v="Russia"/>
    <tag k="landuse" v="service"/>
  </way>
  <way id="84623700" version="2" timestamp="2011-06-07T20:49:21Z" uid="133332" user="AMDmi3" changeset="8374030">
    <nd ref="983105136"/>
    <nd ref="983105084"/>
    <nd ref="983105082"/>
    <nd ref="983104971"/>
    <nd ref="983105274"/>
    <nd ref="983105214"/>
    <nd ref="983105136"/>
    <tag k="addr:city" v="Зеленоград"/>
    <tag k="addr:street" v="1-й микрорайон"/>
    <tag k="building" v="yes"/>
    <tag k="is_in" v="Russia"/>
    <tag k="landuse" v="service"/>
  </way>
  <way id="84623700" version="3" timestamp="2011-09-13T10:37:12Z" uid="29320" user="Komяpa" changeset="9288237">
    <nd ref="983105136"/>
    <nd ref="983105084"/>
    <nd ref="983105082"/>
    <nd ref="983104971"/>
    <nd ref="983105274"/>
    <nd ref="983105214"/>
    <nd ref="983105136"/>
    <tag k="addr:city" v="Зеленоград"/>
    <tag k="addr:country" v="RU"/>
    <tag k="addr:street" v="1-й микрорайон"/>
    <tag k="building" v="service"/>
  </way>
  <way id="84623700" version="4" timestamp="2011-10-28T10:33:47Z" uid="481934" user="iWowik" changeset="9675276">
    <nd ref="983105136"/>
    <nd ref="983105084"/>
    <nd ref="983105082"/>
    <nd ref="983104971"/>
    <nd ref="983105274"/>
    <nd ref="983105214"/>
    <nd ref="983105136"/>
    <tag k="addr:city" v="Зеленоград"/>
    <tag k="addr:country" v="RU"/>
    <tag k="addr:street" v="1-й Микрорайон"/>
    <tag k="building" v="service"/>
  </way>
  <way id="84623700" version="5" timestamp="2011-11-14T20:35:58Z" uid="133332" user="AMDmi3" changeset="9828527">
    <nd ref="983105136"/>
    <nd ref="983105084"/>
    <nd ref="983105082"/>
    <nd ref="983104971"/>
    <nd ref="983105274"/>
    <nd ref="983105214"/>
    <nd ref="983105136"/>
    <tag k="addr:city" v="Зеленоград"/>
    <tag k="addr:country" v="RU"/>
    <tag k="addr:street" v="1-й микрорайон"/>
    <tag k="building" v="service"/>
  </way>
  <way id="84623701" version="1" timestamp="2010-11-09T08:23:59Z" uid="115477" user="wowik" changeset="6325744">
    <nd ref="983105255"/>
    <nd ref="983105172"/>
    <nd ref="983104975"/>
    <nd ref="983105311"/>
    <nd ref="983105255"/>
    <tag k="addr:city" v="Зеленоград"/>
    <tag k="addr:street" v="2-й Микрорайон"/>
    <tag k="building" v="yes"/>
    <tag k="is_in" v="Russia"/>
    <tag k="landuse" v="service"/>
  </way>
  <way id="84623701" version="2" timestamp="2011-06-07T20:49:22Z" uid="133332" user="AMDmi3" changeset="8374030">
    <nd ref="983105255"/>
    <nd ref="983105172"/>
    <nd ref="983104975"/>
    <nd ref="983105311"/>
    <nd ref="983105255"/>
    <tag k="addr:city" v="Зеленоград"/>
    <tag k="addr:street" v="2-й микрорайон"/>
    <tag k="building" v="yes"/>
    <tag k="is_in" v="Russia"/>
    <tag k="landuse" v="service"/>
  </way>
  <way id="84623701" version="3" timestamp="2011-09-13T10:37:13Z" uid="29320" user="Komяpa" changeset="9288237">
    <nd ref="983105255"/>
    <nd ref="983105172"/>
    <nd ref="983104975"/>
    <nd ref="983105311"/>
    <nd ref="983105255"/>
    <tag k="addr:city" v="Зеленоград"/>
    <tag k="addr:country" v="RU"/>
    <tag k="addr:street" v="2-й микрорайон"/>
    <tag k="building" v="service"/>
  </way>
  <way id="84623701" version="4" timestamp="2011-10-28T10:34:55Z" uid="481934" user="iWowik" changeset="9675276">
    <nd ref="983105255"/>
    <nd ref="983105172"/>
    <nd ref="983104975"/>
    <nd ref="983105311"/>
    <nd ref="983105255"/>
    <tag k="addr:city" v="Зеленоград"/>
    <tag k="addr:country" v="RU"/>
    <tag k="addr:street" v="2-й Микрорайон"/>
    <tag k="building" v="service"/>
  </way>
  <way id="84623701" version="5" timestamp="2011-11-14T20:35:59Z" uid="133332" user="AMDmi3" changeset="9828527">
    <nd ref="983105255"/>
    <nd ref="983105172"/>
    <nd ref="983104975"/>
    <nd ref="983105311"/>
    <nd ref="983105255"/>
    <tag k="addr:city" v="Зеленоград"/>
    <tag k="addr:country" v="RU"/>
    <tag k="addr:street" v="2-й микрорайон"/>
    <tag k="building" v="service"/>
  </way>
  <way id="84623701" version="6" timestamp="2012-03-27T11:53:46Z" uid="481934" user="iWowik" changeset="11115472">
    <nd ref="983105255"/>
    <nd ref="983105172"/>
    <nd ref="983104975"/>
    <nd ref="983105311"/>
    <nd ref="983105255"/>
    <tag k="addr:city" v="Зеленоград"/>
    <tag k="addr:country" v="RU"/>
    <tag k="addr:region" v="Москва"/>
    <tag k="addr:street" v="2-й микрорайон"/>
    <tag k="building" v="service"/>
  </way>
  <way id="84623702" version="1" timestamp="2010-11-09T08:24:00Z" uid="115477" user="wowik" changeset="6325744">
    <nd ref="983105342"/>
    <nd ref="983105272"/>
    <nd ref="983105058"/>
    <nd ref="983104995"/>
    <nd ref="983105342"/>
    <tag k="addr:city" v="Зеленоград"/>
    <tag k="addr:housenumber" v="139с1"/>
    <tag k="addr:street" v="1-й Микрорайон"/>
    <tag k="building" v="yes"/>
    <tag k="is_in" v="Russia"/>
    <tag k="landuse" v="service"/>
  </way>
  <way id="84623702" version="2" timestamp="2010-11-09T08:41:24Z" uid="115477" user="wowik" changeset="6325744"/>
  <way id="84623703" version="1" timestamp="2010-11-09T08:24:00Z" uid="115477" user="wowik" changeset="6325744">
    <nd ref="983105347"/>
    <nd ref="983105167"/>
    <nd ref="983105096"/>
    <nd ref="983105295"/>
    <nd ref="983105347"/>
    <tag k="addr:city" v="Зеленоград"/>
    <tag k="addr:street" v="1-й Микрорайон"/>
    <tag k="building" v="yes"/>
    <tag k="is_in" v="Russia"/>
    <tag k="landuse" v="service"/>
  </way>
  <way id="84623703" version="2" timestamp="2011-06-07T20:49:22Z" uid="133332" user="AMDmi3" changeset="8374030">
    <nd ref="983105347"/>
    <nd ref="983105167"/>
    <nd ref="983105096"/>
    <nd ref="983105295"/>
    <nd ref="983105347"/>
    <tag k="addr:city" v="Зеленоград"/>
    <tag k="addr:street" v="1-й микрорайон"/>
    <tag k="building" v="yes"/>
    <tag k="is_in" v="Russia"/>
    <tag k="landuse" v="service"/>
  </way>
  <way id="84623703" version="3" timestamp="2011-09-13T10:37:13Z" uid="29320" user="Komяpa" changeset="9288237">
    <nd ref="983105347"/>
    <nd ref="983105167"/>
    <nd ref="983105096"/>
    <nd ref="983105295"/>
    <nd ref="983105347"/>
    <tag k="addr:city" v="Зеленоград"/>
    <tag k="addr:country" v="RU"/>
    <tag k="addr:street" v="1-й микрорайон"/>
    <tag k="building" v="service"/>
  </way>
  <way id="84623703" version="4" timestamp="2011-10-28T10:33:47Z" uid="481934" user="iWowik" changeset="9675276">
    <nd ref="983105347"/>
    <nd ref="983105167"/>
    <nd ref="983105096"/>
    <nd ref="983105295"/>
    <nd ref="983105347"/>
    <tag k="addr:city" v="Зеленоград"/>
    <tag k="addr:country" v="RU"/>
    <tag k="addr:street" v="1-й Микрорайон"/>
    <tag k="building" v="service"/>
  </way>
  <way id="84623703" version="5" timestamp="2011-11-14T20:35:59Z" uid="133332" user="AMDmi3" changeset="9828527">
    <nd ref="983105347"/>
    <nd ref="983105167"/>
    <nd ref="983105096"/>
    <nd ref="983105295"/>
    <nd ref="983105347"/>
    <tag k="addr:city" v="Зеленоград"/>
    <tag k="addr:country" v="RU"/>
    <tag k="addr:street" v="1-й микрорайон"/>
    <tag k="building" v="service"/>
  </way>
  <way id="84623703" version="6" timestamp="2012-03-27T11:50:16Z" uid="481934" user="iWowik" changeset="11115472">
    <nd ref="983105347"/>
    <nd ref="983105167"/>
    <nd ref="983105096"/>
    <nd ref="983105295"/>
    <nd ref="983105347"/>
    <tag k="addr:city" v="Зеленоград"/>
    <tag k="addr:country" v="RU"/>
    <tag k="addr:region" v="Москва"/>
    <tag k="addr:street" v="1-й микрорайон"/>
    <tag k="building" v="service"/>
  </way>
  <way id="84623704" version="1" timestamp="2010-11-09T08:24:00Z" uid="115477" user="wowik" changeset="6325744">
    <nd ref="983105329"/>
    <nd ref="983105093"/>
    <nd ref="983105048"/>
    <nd ref="983105229"/>
    <nd ref="983105329"/>
    <tag k="addr:city" v="Зеленоград"/>
    <tag k="addr:housenumber" v="11с3"/>
    <tag k="addr:street" v="Панфиловский проспект"/>
    <tag k="building" v="yes"/>
    <tag k="cladr:code" v="77000002000220500"/>
    <tag k="is_in" v="Russia"/>
  </way>
  <way id="84623704" version="2" timestamp="2011-01-19T17:02:53Z" uid="70696" user="xybot" changeset="7021015">
    <nd ref="983105329"/>
    <nd ref="983105093"/>
    <nd ref="983105048"/>
    <nd ref="983105229"/>
    <nd ref="983105329"/>
    <tag k="addr:city" v="Зеленоград"/>
    <tag k="addr:housenumber" v="11 с3"/>
    <tag k="addr:street" v="Панфиловский проспект"/>
    <tag k="building" v="yes"/>
    <tag k="cladr:code" v="77000002000220500"/>
    <tag k="is_in" v="Russia"/>
  </way>
  <way id="84623704" version="3" timestamp="2011-09-13T10:21:24Z" uid="29320" user="Komяpa" changeset="9288237">
    <nd ref="983105329"/>
    <nd ref="983105093"/>
    <nd ref="983105048"/>
    <nd ref="983105229"/>
    <nd ref="983105329"/>
    <tag k="addr:city" v="Зеленоград"/>
    <tag k="addr:country" v="RU"/>
    <tag k="addr:housenumber" v="11 с3"/>
    <tag k="addr:street" v="Панфиловский проспект"/>
    <tag k="building" v="yes"/>
    <tag k="cladr:code" v="77000002000220500"/>
  </way>
  <way id="84623704" version="4" timestamp="2012-03-27T11:34:02Z" uid="481934" user="iWowik" changeset="11115472">
    <nd ref="983105329"/>
    <nd ref="983105093"/>
    <nd ref="983105048"/>
    <nd ref="983105229"/>
    <nd ref="983105329"/>
    <tag k="addr:city" v="Зеленоград"/>
    <tag k="addr:country" v="RU"/>
    <tag k="addr:housenumber" v="11 с3"/>
    <tag k="addr:region" v="Москва"/>
    <tag k="addr:street" v="Панфиловский проспект"/>
    <tag k="building" v="yes"/>
    <tag k="cladr:code" v="77000002000220500"/>
  </way>
  <way id="84623705" version="1" timestamp="2010-11-09T08:24:01Z" uid="115477" user="wowik" changeset="6325744">
    <nd ref="983105055"/>
    <nd ref="983104999"/>
    <tag k="highway" v="service"/>
    <tag k="living_street" v="yes"/>
  </way>
  <way id="84623706" version="1" timestamp="2010-11-09T08:24:01Z" uid="115477" user="wowik" changeset="6325744">
    <nd ref="983105129"/>
    <nd ref="983105335"/>
    <nd ref="983105269"/>
    <nd ref="983105051"/>
    <nd ref="983105129"/>
    <tag k="addr:city" v="Зеленоград"/>
    <tag k="addr:housenumber" v="164А"/>
    <tag k="addr:street" v="1-й Микрорайон"/>
    <tag k="building" v="yes"/>
    <tag k="is_in" v="Russia"/>
    <tag k="landuse" v="service"/>
  </way>
  <way id="84623706" version="2" timestamp="2011-06-07T20:49:21Z" uid="133332" user="AMDmi3" changeset="8374030">
    <nd ref="983105129"/>
    <nd ref="983105335"/>
    <nd ref="983105269"/>
    <nd ref="983105051"/>
    <nd ref="983105129"/>
    <tag k="addr:city" v="Зеленоград"/>
    <tag k="addr:housenumber" v="164А"/>
    <tag k="addr:street" v="1-й микрорайон"/>
    <tag k="building" v="yes"/>
    <tag k="is_in" v="Russia"/>
    <tag k="landuse" v="service"/>
  </way>
  <way id="84623706" version="3" timestamp="2011-09-13T10:23:35Z" uid="29320" user="Komяpa" changeset="9288237">
    <nd ref="983105129"/>
    <nd ref="983105335"/>
    <nd ref="983105269"/>
    <nd ref="983105051"/>
    <nd ref="983105129"/>
    <tag k="addr:city" v="Зеленоград"/>
    <tag k="addr:country" v="RU"/>
    <tag k="addr:housenumber" v="164А"/>
    <tag k="addr:street" v="1-й микрорайон"/>
    <tag k="building" v="service"/>
  </way>
  <way id="84623706" version="4" timestamp="2011-10-28T10:33:43Z" uid="481934" user="iWowik" changeset="9675276">
    <nd ref="983105129"/>
    <nd ref="983105335"/>
    <nd ref="983105269"/>
    <nd ref="983105051"/>
    <nd ref="983105129"/>
    <tag k="addr:city" v="Зеленоград"/>
    <tag k="addr:country" v="RU"/>
    <tag k="addr:housenumber" v="164А"/>
    <tag k="addr:street" v="1-й Микрорайон"/>
    <tag k="building" v="service"/>
  </way>
  <way id="84623706" version="5" timestamp="2011-11-14T20:31:49Z" uid="133332" user="AMDmi3" changeset="9828527">
    <nd ref="983105129"/>
    <nd ref="983105335"/>
    <nd ref="983105269"/>
    <nd ref="983105051"/>
    <nd ref="983105129"/>
    <tag k="addr:city" v="Зеленоград"/>
    <tag k="addr:country" v="RU"/>
    <tag k="addr:housenumber" v="164А"/>
    <tag k="addr:street" v="1-й микрорайон"/>
    <tag k="building" v="service"/>
  </way>
  <way id="84623707" version="1" timestamp="2010-11-09T08:24:02Z" uid="115477" user="wowik" changeset="6325744">
    <nd ref="983105332"/>
    <nd ref="983104992"/>
    <tag k="highway" v="service"/>
    <tag k="living_street" v="yes"/>
  </way>
  <way id="84623708" version="1" timestamp="2010-11-09T08:24:02Z" uid="115477" user="wowik" changeset="6325744">
    <nd ref="983105310"/>
    <nd ref="983104999"/>
    <nd ref="983105027"/>
    <tag k="highway" v="service"/>
    <tag k="living_street" v="yes"/>
  </way>
  <way id="84623708" version="2" timestamp="2011-09-12T16:32:42Z" uid="518169" user="kosatov" changeset="9281584">
    <nd ref="983105310"/>
    <nd ref="983104999"/>
    <nd ref="983105027"/>
    <nd ref="1431084677"/>
    <tag k="highway" v="service"/>
    <tag k="living_street" v="yes"/>
  </way>
  <way id="84623709" version="1" timestamp="2010-11-09T08:24:02Z" uid="115477" user="wowik" changeset="6325744">
    <nd ref="983105221"/>
    <nd ref="983105006"/>
    <nd ref="983105348"/>
    <nd ref="983105114"/>
    <nd ref="983105221"/>
    <tag k="addr:city" v="Зеленоград"/>
    <tag k="addr:housenumber" v="11с4"/>
    <tag k="addr:street" v="Панфиловский проспект"/>
    <tag k="building" v="yes"/>
    <tag k="cladr:code" v="77000002000220500"/>
    <tag k="is_in" v="Russia"/>
  </way>
  <way id="84623709" version="2" timestamp="2011-01-19T17:02:54Z" uid="70696" user="xybot" changeset="7021015">
    <nd ref="983105221"/>
    <nd ref="983105006"/>
    <nd ref="983105348"/>
    <nd ref="983105114"/>
    <nd ref="983105221"/>
    <tag k="addr:city" v="Зеленоград"/>
    <tag k="addr:housenumber" v="11 с4"/>
    <tag k="addr:street" v="Панфиловский проспект"/>
    <tag k="building" v="yes"/>
    <tag k="cladr:code" v="77000002000220500"/>
    <tag k="is_in" v="Russia"/>
  </way>
  <way id="84623709" version="3" timestamp="2011-09-13T10:21:25Z" uid="29320" user="Komяpa" changeset="9288237">
    <nd ref="983105221"/>
    <nd ref="983105006"/>
    <nd ref="983105348"/>
    <nd ref="983105114"/>
    <nd ref="983105221"/>
    <tag k="addr:city" v="Зеленоград"/>
    <tag k="addr:country" v="RU"/>
    <tag k="addr:housenumber" v="11 с4"/>
    <tag k="addr:street" v="Панфиловский проспект"/>
    <tag k="building" v="yes"/>
    <tag k="cladr:code" v="77000002000220500"/>
  </way>
  <way id="84623709" version="4" timestamp="2012-03-27T11:34:04Z" uid="481934" user="iWowik" changeset="11115472">
    <nd ref="983105221"/>
    <nd ref="983105006"/>
    <nd ref="983105348"/>
    <nd ref="983105114"/>
    <nd ref="983105221"/>
    <tag k="addr:city" v="Зеленоград"/>
    <tag k="addr:country" v="RU"/>
    <tag k="addr:housenumber" v="11 с4"/>
    <tag k="addr:region" v="Москва"/>
    <tag k="addr:street" v="Панфиловский проспект"/>
    <tag k="building" v="yes"/>
    <tag k="cladr:code" v="77000002000220500"/>
  </way>
  <way id="84623710" version="1" timestamp="2010-11-09T08:24:02Z" uid="115477" user="wowik" changeset="6325744">
    <nd ref="983105205"/>
    <nd ref="983104990"/>
    <nd ref="983105341"/>
    <nd ref="983105100"/>
    <nd ref="983105205"/>
    <tag k="addr:city" v="Зеленоград"/>
    <tag k="addr:street" v="1-й Микрорайон"/>
    <tag k="building" v="yes"/>
    <tag k="is_in" v="Russia"/>
  </way>
  <way id="84623710" version="2" timestamp="2011-06-07T20:49:20Z" uid="133332" user="AMDmi3" changeset="8374030">
    <nd ref="983105205"/>
    <nd ref="983104990"/>
    <nd ref="983105341"/>
    <nd ref="983105100"/>
    <nd ref="983105205"/>
    <tag k="addr:city" v="Зеленоград"/>
    <tag k="addr:street" v="1-й микрорайон"/>
    <tag k="building" v="yes"/>
    <tag k="is_in" v="Russia"/>
  </way>
  <way id="84623710" version="3" timestamp="2011-09-13T10:37:13Z" uid="29320" user="Komяpa" changeset="9288237">
    <nd ref="983105205"/>
    <nd ref="983104990"/>
    <nd ref="983105341"/>
    <nd ref="983105100"/>
    <nd ref="983105205"/>
    <tag k="addr:city" v="Зеленоград"/>
    <tag k="addr:country" v="RU"/>
    <tag k="addr:street" v="1-й микрорайон"/>
    <tag k="building" v="yes"/>
  </way>
  <way id="84623710" version="4" timestamp="2011-10-19T17:23:49Z" uid="518169" user="kosatov" changeset="9601797">
    <nd ref="983105205"/>
    <nd ref="983104990"/>
    <nd ref="983105341"/>
    <nd ref="983105100"/>
    <nd ref="983105205"/>
    <tag k="addr:city" v="Зеленоград"/>
    <tag k="addr:country" v="RU"/>
    <tag k="addr:street" v="1-й микрорайон"/>
    <tag k="building" v="yes"/>
    <tag k="building:levels" v="1"/>
  </way>
  <way id="84623710" version="5" timestamp="2011-10-28T10:33:47Z" uid="481934" user="iWowik" changeset="9675276">
    <nd ref="983105205"/>
    <nd ref="983104990"/>
    <nd ref="983105341"/>
    <nd ref="983105100"/>
    <nd ref="983105205"/>
    <tag k="addr:city" v="Зеленоград"/>
    <tag k="addr:country" v="RU"/>
    <tag k="addr:street" v="1-й Микрорайон"/>
    <tag k="building" v="yes"/>
    <tag k="building:levels" v="1"/>
  </way>
  <way id="84623710" version="6" timestamp="2011-11-14T20:35:59Z" uid="133332" user="AMDmi3" changeset="9828527">
    <nd ref="983105205"/>
    <nd ref="983104990"/>
    <nd ref="983105341"/>
    <nd ref="983105100"/>
    <nd ref="983105205"/>
    <tag k="addr:city" v="Зеленоград"/>
    <tag k="addr:country" v="RU"/>
    <tag k="addr:street" v="1-й микрорайон"/>
    <tag k="building" v="yes"/>
    <tag k="building:levels" v="1"/>
  </way>
  <way id="84623710" version="7" timestamp="2012-03-27T11:52:24Z" uid="481934" user="iWowik" changeset="11115472">
    <nd ref="983105205"/>
    <nd ref="983104990"/>
    <nd ref="983105341"/>
    <nd ref="983105100"/>
    <nd ref="983105205"/>
    <tag k="addr:city" v="Зеленоград"/>
    <tag k="addr:country" v="RU"/>
    <tag k="addr:region" v="Москва"/>
    <tag k="addr:street" v="1-й микрорайон"/>
    <tag k="building" v="yes"/>
    <tag k="building:levels" v="1"/>
  </way>
  <way id="84623711" version="1" timestamp="2010-11-09T08:24:02Z" uid="115477" user="wowik" changeset="6325744">
    <nd ref="983104964"/>
    <nd ref="983105297"/>
    <nd ref="983105075"/>
    <nd ref="983105018"/>
    <nd ref="983104964"/>
    <tag k="addr:city" v="Зеленоград"/>
    <tag k="addr:street" v="1-й Микрорайон"/>
    <tag k="building" v="yes"/>
    <tag k="is_in" v="Russia"/>
    <tag k="landuse" v="service"/>
  </way>
  <way id="84623711" version="2" timestamp="2011-06-07T20:49:20Z" uid="133332" user="AMDmi3" changeset="8374030">
    <nd ref="983104964"/>
    <nd ref="983105297"/>
    <nd ref="983105075"/>
    <nd ref="983105018"/>
    <nd ref="983104964"/>
    <tag k="addr:city" v="Зеленоград"/>
    <tag k="addr:street" v="1-й микрорайон"/>
    <tag k="building" v="yes"/>
    <tag k="is_in" v="Russia"/>
    <tag k="landuse" v="service"/>
  </way>
  <way id="84623711" version="3" timestamp="2011-09-13T10:37:13Z" uid="29320" user="Komяpa" changeset="9288237">
    <nd ref="983104964"/>
    <nd ref="983105297"/>
    <nd ref="983105075"/>
    <nd ref="983105018"/>
    <nd ref="983104964"/>
    <tag k="addr:city" v="Зеленоград"/>
    <tag k="addr:country" v="RU"/>
    <tag k="addr:street" v="1-й микрорайон"/>
    <tag k="building" v="service"/>
  </way>
  <way id="84623711" version="4" timestamp="2011-10-28T10:33:47Z" uid="481934" user="iWowik" changeset="9675276">
    <nd ref="983104964"/>
    <nd ref="983105297"/>
    <nd ref="983105075"/>
    <nd ref="983105018"/>
    <nd ref="983104964"/>
    <tag k="addr:city" v="Зеленоград"/>
    <tag k="addr:country" v="RU"/>
    <tag k="addr:street" v="1-й Микрорайон"/>
    <tag k="building" v="service"/>
  </way>
  <way id="84623711" version="5" timestamp="2011-11-14T20:35:59Z" uid="133332" user="AMDmi3" changeset="9828527">
    <nd ref="983104964"/>
    <nd ref="983105297"/>
    <nd ref="983105075"/>
    <nd ref="983105018"/>
    <nd ref="983104964"/>
    <tag k="addr:city" v="Зеленоград"/>
    <tag k="addr:country" v="RU"/>
    <tag k="addr:street" v="1-й микрорайон"/>
    <tag k="building" v="service"/>
  </way>
  <way id="84623712" version="1" timestamp="2010-11-09T08:24:03Z" uid="115477" user="wowik" changeset="6325744">
    <nd ref="983105031"/>
    <nd ref="983104978"/>
    <nd ref="983105147"/>
    <nd ref="983105090"/>
    <nd ref="983105031"/>
    <tag k="addr:city" v="Зеленоград"/>
    <tag k="addr:housenumber" v="3c1"/>
    <tag k="addr:street" v="Панфиловский проспект"/>
    <tag k="building" v="yes"/>
    <tag k="is_in" v="Russia"/>
  </way>
  <way id="84623712" version="2" timestamp="2010-11-22T02:05:12Z" uid="133332" user="AMDmi3" changeset="6428552">
    <nd ref="983105031"/>
    <nd ref="983104978"/>
    <nd ref="983105147"/>
    <nd ref="983105090"/>
    <nd ref="983105031"/>
    <tag k="addr:city" v="Зеленоград"/>
    <tag k="addr:housenumber" v="3с1"/>
    <tag k="addr:street" v="Панфиловский проспект"/>
    <tag k="building" v="yes"/>
    <tag k="is_in" v="Russia"/>
  </way>
  <way id="84623712" version="3" timestamp="2011-01-19T17:02:54Z" uid="70696" user="xybot" changeset="7021015">
    <nd ref="983105031"/>
    <nd ref="983104978"/>
    <nd ref="983105147"/>
    <nd ref="983105090"/>
    <nd ref="983105031"/>
    <tag k="addr:city" v="Зеленоград"/>
    <tag k="addr:housenumber" v="3 с1"/>
    <tag k="addr:street" v="Панфиловский проспект"/>
    <tag k="building" v="yes"/>
    <tag k="is_in" v="Russia"/>
  </way>
  <way id="84623712" version="4" timestamp="2011-09-13T10:25:25Z" uid="29320" user="Komяpa" changeset="9288237">
    <nd ref="983105031"/>
    <nd ref="983104978"/>
    <nd ref="983105147"/>
    <nd ref="983105090"/>
    <nd ref="983105031"/>
    <tag k="addr:city" v="Зеленоград"/>
    <tag k="addr:country" v="RU"/>
    <tag k="addr:housenumber" v="3 с1"/>
    <tag k="addr:street" v="Панфиловский проспект"/>
    <tag k="building" v="yes"/>
  </way>
  <way id="84623713" version="1" timestamp="2010-11-09T08:24:03Z" uid="115477" user="wowik" changeset="6325744">
    <nd ref="983105124"/>
    <nd ref="983105073"/>
    <nd ref="983105301"/>
    <nd ref="983105250"/>
    <nd ref="983105124"/>
    <tag k="addr:city" v="Зеленоград"/>
    <tag k="addr:street" v="1-й Микрорайон"/>
    <tag k="building" v="yes"/>
    <tag k="is_in" v="Russia"/>
    <tag k="landuse" v="service"/>
  </way>
  <way id="84623713" version="2" timestamp="2011-06-07T20:49:30Z" uid="133332" user="AMDmi3" changeset="8374030">
    <nd ref="983105124"/>
    <nd ref="983105073"/>
    <nd ref="983105301"/>
    <nd ref="983105250"/>
    <nd ref="983105124"/>
    <tag k="addr:city" v="Зеленоград"/>
    <tag k="addr:street" v="1-й микрорайон"/>
    <tag k="building" v="yes"/>
    <tag k="is_in" v="Russia"/>
    <tag k="landuse" v="service"/>
  </way>
  <way id="84623713" version="3" timestamp="2011-09-13T10:37:13Z" uid="29320" user="Komяpa" changeset="9288237">
    <nd ref="983105124"/>
    <nd ref="983105073"/>
    <nd ref="983105301"/>
    <nd ref="983105250"/>
    <nd ref="983105124"/>
    <tag k="addr:city" v="Зеленоград"/>
    <tag k="addr:country" v="RU"/>
    <tag k="addr:street" v="1-й микрорайон"/>
    <tag k="building" v="service"/>
  </way>
  <way id="84623713" version="4" timestamp="2011-10-28T10:33:48Z" uid="481934" user="iWowik" changeset="9675276">
    <nd ref="983105124"/>
    <nd ref="983105073"/>
    <nd ref="983105301"/>
    <nd ref="983105250"/>
    <nd ref="983105124"/>
    <tag k="addr:city" v="Зеленоград"/>
    <tag k="addr:country" v="RU"/>
    <tag k="addr:street" v="1-й Микрорайон"/>
    <tag k="building" v="service"/>
  </way>
  <way id="84623713" version="5" timestamp="2011-11-14T20:36:00Z" uid="133332" user="AMDmi3" changeset="9828527">
    <nd ref="983105124"/>
    <nd ref="983105073"/>
    <nd ref="983105301"/>
    <nd ref="983105250"/>
    <nd ref="983105124"/>
    <tag k="addr:city" v="Зеленоград"/>
    <tag k="addr:country" v="RU"/>
    <tag k="addr:street" v="1-й микрорайон"/>
    <tag k="building" v="service"/>
  </way>
  <way id="84623714" version="1" timestamp="2010-11-09T08:24:03Z" uid="115477" user="wowik" changeset="6325744">
    <nd ref="983105015"/>
    <nd ref="983105196"/>
    <nd ref="983105126"/>
    <nd ref="983105331"/>
    <nd ref="983105015"/>
    <tag k="addr:city" v="Зеленоград"/>
    <tag k="addr:street" v="1-й Микрорайон"/>
    <tag k="building" v="yes"/>
    <tag k="is_in" v="Russia"/>
    <tag k="landuse" v="service"/>
  </way>
  <way id="84623714" version="2" timestamp="2011-06-07T20:49:29Z" uid="133332" user="AMDmi3" changeset="8374030">
    <nd ref="983105015"/>
    <nd ref="983105196"/>
    <nd ref="983105126"/>
    <nd ref="983105331"/>
    <nd ref="983105015"/>
    <tag k="addr:city" v="Зеленоград"/>
    <tag k="addr:street" v="1-й микрорайон"/>
    <tag k="building" v="yes"/>
    <tag k="is_in" v="Russia"/>
    <tag k="landuse" v="service"/>
  </way>
  <way id="84623714" version="3" timestamp="2011-09-13T10:37:14Z" uid="29320" user="Komяpa" changeset="9288237">
    <nd ref="983105015"/>
    <nd ref="983105196"/>
    <nd ref="983105126"/>
    <nd ref="983105331"/>
    <nd ref="983105015"/>
    <tag k="addr:city" v="Зеленоград"/>
    <tag k="addr:country" v="RU"/>
    <tag k="addr:street" v="1-й микрорайон"/>
    <tag k="building" v="service"/>
  </way>
  <way id="84623714" version="4" timestamp="2011-10-20T06:04:42Z" uid="518169" user="kosatov" changeset="9605370">
    <nd ref="983105015"/>
    <nd ref="983105196"/>
    <nd ref="983105126"/>
    <nd ref="983105331"/>
    <nd ref="983105015"/>
    <tag k="addr:city" v="Зеленоград"/>
    <tag k="addr:country" v="RU"/>
    <tag k="addr:street" v="1-й микрорайон"/>
    <tag k="building" v="service"/>
    <tag k="building:levels" v="1"/>
  </way>
  <way id="84623714" version="5" timestamp="2011-10-28T10:33:48Z" uid="481934" user="iWowik" changeset="9675276">
    <nd ref="983105015"/>
    <nd ref="983105196"/>
    <nd ref="983105126"/>
    <nd ref="983105331"/>
    <nd ref="983105015"/>
    <tag k="addr:city" v="Зеленоград"/>
    <tag k="addr:country" v="RU"/>
    <tag k="addr:street" v="1-й Микрорайон"/>
    <tag k="building" v="service"/>
    <tag k="building:levels" v="1"/>
  </way>
  <way id="84623714" version="6" timestamp="2011-11-14T20:36:00Z" uid="133332" user="AMDmi3" changeset="9828527">
    <nd ref="983105015"/>
    <nd ref="983105196"/>
    <nd ref="983105126"/>
    <nd ref="983105331"/>
    <nd ref="983105015"/>
    <tag k="addr:city" v="Зеленоград"/>
    <tag k="addr:country" v="RU"/>
    <tag k="addr:street" v="1-й микрорайон"/>
    <tag k="building" v="service"/>
    <tag k="building:levels" v="1"/>
  </way>
  <way id="84623714" version="7" timestamp="2012-03-27T11:51:38Z" uid="481934" user="iWowik" changeset="11115472">
    <nd ref="983105015"/>
    <nd ref="983105196"/>
    <nd ref="983105126"/>
    <nd ref="983105331"/>
    <nd ref="983105015"/>
    <tag k="addr:city" v="Зеленоград"/>
    <tag k="addr:country" v="RU"/>
    <tag k="addr:region" v="Москва"/>
    <tag k="addr:street" v="1-й микрорайон"/>
    <tag k="building" v="service"/>
    <tag k="building:levels" v="1"/>
  </way>
  <way id="84623715" version="1" timestamp="2010-11-09T08:24:04Z" uid="115477" user="wowik" changeset="6325744">
    <nd ref="983105187"/>
    <nd ref="983104982"/>
    <nd ref="983105326"/>
    <nd ref="983105092"/>
    <nd ref="983105187"/>
    <tag k="addr:city" v="Зеленоград"/>
    <tag k="addr:street" v="1-й Микрорайон"/>
    <tag k="building" v="yes"/>
    <tag k="is_in" v="Russia"/>
    <tag k="landuse" v="service"/>
  </way>
  <way id="84623715" version="2" timestamp="2011-06-07T20:49:29Z" uid="133332" user="AMDmi3" changeset="8374030">
    <nd ref="983105187"/>
    <nd ref="983104982"/>
    <nd ref="983105326"/>
    <nd ref="983105092"/>
    <nd ref="983105187"/>
    <tag k="addr:city" v="Зеленоград"/>
    <tag k="addr:street" v="1-й микрорайон"/>
    <tag k="building" v="yes"/>
    <tag k="is_in" v="Russia"/>
    <tag k="landuse" v="service"/>
  </way>
  <way id="84623715" version="3" timestamp="2011-09-13T10:37:14Z" uid="29320" user="Komяpa" changeset="9288237">
    <nd ref="983105187"/>
    <nd ref="983104982"/>
    <nd ref="983105326"/>
    <nd ref="983105092"/>
    <nd ref="983105187"/>
    <tag k="addr:city" v="Зеленоград"/>
    <tag k="addr:country" v="RU"/>
    <tag k="addr:street" v="1-й микрорайон"/>
    <tag k="building" v="service"/>
  </way>
  <way id="84623715" version="4" timestamp="2011-10-20T06:04:43Z" uid="518169" user="kosatov" changeset="9605370">
    <nd ref="983105187"/>
    <nd ref="983104982"/>
    <nd ref="983105326"/>
    <nd ref="983105092"/>
    <nd ref="983105187"/>
    <tag k="addr:city" v="Зеленоград"/>
    <tag k="addr:country" v="RU"/>
    <tag k="addr:street" v="1-й микрорайон"/>
    <tag k="building" v="service"/>
    <tag k="building:levels" v="1"/>
  </way>
  <way id="84623715" version="5" timestamp="2011-10-28T10:33:48Z" uid="481934" user="iWowik" changeset="9675276">
    <nd ref="983105187"/>
    <nd ref="983104982"/>
    <nd ref="983105326"/>
    <nd ref="983105092"/>
    <nd ref="983105187"/>
    <tag k="addr:city" v="Зеленоград"/>
    <tag k="addr:country" v="RU"/>
    <tag k="addr:street" v="1-й Микрорайон"/>
    <tag k="building" v="service"/>
    <tag k="building:levels" v="1"/>
  </way>
  <way id="84623715" version="6" timestamp="2011-11-14T20:36:00Z" uid="133332" user="AMDmi3" changeset="9828527">
    <nd ref="983105187"/>
    <nd ref="983104982"/>
    <nd ref="983105326"/>
    <nd ref="983105092"/>
    <nd ref="983105187"/>
    <tag k="addr:city" v="Зеленоград"/>
    <tag k="addr:country" v="RU"/>
    <tag k="addr:street" v="1-й микрорайон"/>
    <tag k="building" v="service"/>
    <tag k="building:levels" v="1"/>
  </way>
  <way id="84623715" version="7" timestamp="2012-03-27T11:53:14Z" uid="481934" user="iWowik" changeset="11115472">
    <nd ref="983105187"/>
    <nd ref="983104982"/>
    <nd ref="983105326"/>
    <nd ref="983105092"/>
    <nd ref="983105187"/>
    <tag k="addr:city" v="Зеленоград"/>
    <tag k="addr:country" v="RU"/>
    <tag k="addr:region" v="Москва"/>
    <tag k="addr:street" v="1-й микрорайон"/>
    <tag k="building" v="service"/>
    <tag k="building:levels" v="1"/>
  </way>
  <way id="84623716" version="1" timestamp="2010-11-09T08:24:04Z" uid="115477" user="wowik" changeset="6325744">
    <nd ref="983104992"/>
    <nd ref="983105055"/>
    <tag k="highway" v="service"/>
    <tag k="living_street" v="yes"/>
    <tag k="tunnel" v="yes"/>
  </way>
</osm>
