<?xml version='1.0' encoding='UTF-8'?>
<osm version="0.6" generator="libosmium/2.20.0">
  <way id="84621886" version="1" timestamp="2010-11-09T07:39:07Z" uid="115477" user="wowik" changeset="6325744">
    <nd ref="525259239"/>
    <nd ref="983089232"/>
    <nd ref="983089222"/>
    <nd ref="983089333"/>
    <tag k="bicycle" v="yes"/>
    <tag k="foot" v="yes"/>
    <tag k="highway" v="footway"/>
    <tag k="motorcar" v="no"/>
    <tag k="surface" v="paved"/>
  </way>
  <way id="84621886" version="2" timestamp="2010-11-27T07:08:31Z" uid="241531" user="dik_man" changeset="6467265">
    <nd ref="525259239"/>
    <nd ref="983089232"/>
    <nd ref="1006576307"/>
    <nd ref="983089222"/>
    <nd ref="983089333"/>
    <tag k="bicycle" v="yes"/>
    <tag k="foot" v="yes"/>
    <tag k="highway" v="footway"/>
    <tag k="motorcar" v="no"/>
    <tag k="surface" v="paved"/>
  </way>
  <way id="84621886" version="3" timestamp="2011-09-08T21:42:15Z" uid="518169" user="kosatov" changeset="9249228">
    <nd ref="525259239"/>
    <nd ref="983089232"/>
    <nd ref="1006576307"/>
    <nd ref="983089222"/>
    <nd ref="983089333"/>
    <tag k="highway" v="footway"/>
    <tag k="motorcar" v="no"/>
  </way>
  <way id="84621886" version="4" timestamp="2011-09-12T16:31:04Z" uid="518169" user="kosatov" changeset="9281584">
    <nd ref="525259239"/>
    <nd ref="983089232"/>
    <nd ref="1431084291"/>
    <nd ref="1006576307"/>
    <nd ref="983089222"/>
    <nd ref="983089333"/>
    <tag k="highway" v="footway"/>
    <tag k="motorcar" v="no"/>
  </way>
  <way id="84621893" version="1" timestamp="2010-11-09T07:39:08Z" uid="115477" user="wowik" changeset="6325744">
    <nd ref="983089313"/>
    <nd ref="983089303"/>
    <nd ref="983089270"/>
    <nd ref="983089257"/>
    <nd ref="983089313"/>
    <tag k="addr:city" v="Зеленоград"/>
    <tag k="addr:street" v="2-й Микрорайон"/>
    <tag k="building" v="yes"/>
    <tag k="is_in" v="Russia"/>
    <tag k="landuse" v="service"/>
  </way>
  <way id="84621893" version="2" timestamp="2011-01-25T16:23:22Z" uid="115477" user="wowik" changeset="7085120">
    <nd ref="983089313"/>
    <nd ref="983089303"/>
    <nd ref="983089270"/>
    <nd ref="983089257"/>
    <nd ref="983089313"/>
    <tag k="addr:city" v="Зеленоград"/>
    <tag k="addr:street" v="2-й Микрорайон"/>
    <tag k="building" v="yes"/>
    <tag k="building:levels" v="1"/>
    <tag k="is_in" v="Russia"/>
    <tag k="landuse" v="service"/>
  </way>
  <way id="84621893" version="3" timestamp="2011-06-07T20:46:09Z" uid="133332" user="AMDmi3" changeset="8374030">
    <nd ref="983089313"/>
    <nd ref="983089303"/>
    <nd ref="983089270"/>
    <nd ref="983089257"/>
    <nd ref="983089313"/>
    <tag k="addr:city" v="Зеленоград"/>
    <tag k="addr:street" v="2-й микрорайон"/>
    <tag k="building" v="yes"/>
    <tag k="building:levels" v="1"/>
    <tag k="is_in" v="Russia"/>
    <tag k="landuse" v="service"/>
  </way>
  <way id="84621893" version="4" timestamp="2011-09-13T10:37:09Z" uid="29320" user="Komяpa" changeset="9288237">
    <nd ref="983089313"/>
    <nd ref="983089303"/>
    <nd ref="983089270"/>
    <nd ref="983089257"/>
    <nd ref="983089313"/>
    <tag k="addr:city" v="Зеленоград"/>
    <tag k="addr:country" v="RU"/>
    <tag k="addr:street" v="2-й микрорайон"/>
    <tag k="building" v="service"/>
    <tag k="building:levels" v="1"/>
  </way>
  <way id="84621893" version="5" timestamp="2011-10-28T10:34:52Z" uid="481934" user="iWowik" changeset="9675276">
    <nd ref="983089313"/>
    <nd ref="983089303"/>
    <nd ref="983089270"/>
    <nd ref="983089257"/>
    <nd ref="983089313"/>
    <tag k="addr:city" v="Зеленоград"/>
    <tag k="addr:country" v="RU"/>
    <tag k="addr:street" v="2-й Микрорайон"/>
    <tag k="building" v="service"/>
    <tag k="building:levels" v="1"/>
  </way>
  <way id="84621893" version="6" timestamp="2011-11-14T20:35:56Z" uid="133332" user="AMDmi3" changeset="9828527">
    <nd ref="983089313"/>
    <nd ref="983089303"/>
    <nd ref="983089270"/>
    <nd ref="983089257"/>
    <nd ref="983089313"/>
    <tag k="addr:city" v="Зеленоград"/>
    <tag k="addr:country" v="RU"/>
    <tag k="addr:street" v="2-й микрорайон"/>
    <tag k="building" v="service"/>
    <tag k="building:levels" v="1"/>
  </way>
  <way id="84621893" version="7" timestamp="2012-03-27T11:53:46Z" uid="481934" user="iWowik" changeset="11115472">
    <nd ref="983089313"/>
    <nd ref="983089303"/>
    <nd ref="983089270"/>
    <nd ref="983089257"/>
    <nd ref="983089313"/>
    <tag k="addr:city" v="Зеленоград"/>
    <tag k="addr:country" v="RU"/>
    <tag k="addr:region" v="Москва"/>
    <tag k="addr:street" v="2-й микрорайон"/>
    <tag k="building" v="service"/>
    <tag k="building:levels" v="1"/>
  </way>
  <way id="84621899" version="1" timestamp="2010-11-09T07:39:09Z" uid="115477" user="wowik" changeset="6325744">
    <nd ref="983089339"/>
    <nd ref="983089305"/>
    <nd ref="983089293"/>
    <nd ref="983089261"/>
    <nd ref="983089339"/>
    <tag k="addr:city" v="Зеленоград"/>
    <tag k="addr:street" v="2-й Микрорайон"/>
    <tag k="building" v="yes"/>
    <tag k="is_in" v="Zelenograd,Moscow,Russia"/>
    <tag k="landuse" v="service"/>
  </way>
  <way id="84621899" version="2" timestamp="2011-01-12T16:31:07Z" uid="115477" user="wowik" changeset="6948828">
    <nd ref="983089339"/>
    <nd ref="983089305"/>
    <nd ref="983089293"/>
    <nd ref="983089261"/>
    <nd ref="983089339"/>
    <tag k="addr:city" v="Зеленоград"/>
    <tag k="addr:street" v="2-й Микрорайон"/>
    <tag k="building" v="yes"/>
    <tag k="is_in" v="Russia"/>
    <tag k="landuse" v="service"/>
  </way>
  <way id="84621899" version="3" timestamp="2011-01-25T16:23:23Z" uid="115477" user="wowik" changeset="7085120">
    <nd ref="983089339"/>
    <nd ref="983089305"/>
    <nd ref="983089293"/>
    <nd ref="983089261"/>
    <nd ref="983089339"/>
    <tag k="addr:city" v="Зеленоград"/>
    <tag k="addr:street" v="2-й Микрорайон"/>
    <tag k="building" v="yes"/>
    <tag k="building:levels" v="1"/>
    <tag k="is_in" v="Russia"/>
    <tag k="landuse" v="service"/>
  </way>
  <way id="84621899" version="4" timestamp="2011-06-07T20:46:08Z" uid="133332" user="AMDmi3" changeset="8374030">
    <nd ref="983089339"/>
    <nd ref="983089305"/>
    <nd ref="983089293"/>
    <nd ref="983089261"/>
    <nd ref="983089339"/>
    <tag k="addr:city" v="Зеленоград"/>
    <tag k="addr:street" v="2-й микрорайон"/>
    <tag k="building" v="yes"/>
    <tag k="building:levels" v="1"/>
    <tag k="is_in" v="Russia"/>
    <tag k="landuse" v="service"/>
  </way>
  <way id="84621899" version="5" timestamp="2011-09-13T10:37:10Z" uid="29320" user="Komяpa" changeset="9288237">
    <nd ref="983089339"/>
    <nd ref="983089305"/>
    <nd ref="983089293"/>
    <nd ref="983089261"/>
    <nd ref="983089339"/>
    <tag k="addr:city" v="Зеленоград"/>
    <tag k="addr:country" v="RU"/>
    <tag k="addr:street" v="2-й микрорайон"/>
    <tag k="building" v="service"/>
    <tag k="building:levels" v="1"/>
  </way>
  <way id="84621899" version="6" timestamp="2011-10-28T10:34:52Z" uid="481934" user="iWowik" changeset="9675276">
    <nd ref="983089339"/>
    <nd ref="983089305"/>
    <nd ref="983089293"/>
    <nd ref="983089261"/>
    <nd ref="983089339"/>
    <tag k="addr:city" v="Зеленоград"/>
    <tag k="addr:country" v="RU"/>
    <tag k="addr:street" v="2-й Микрорайон"/>
    <tag k="building" v="service"/>
    <tag k="building:levels" v="1"/>
  </way>
  <way id="84621899" version="7" timestamp="2011-11-14T20:35:56Z" uid="133332" user="AMDmi3" changeset="9828527">
    <nd ref="983089339"/>
    <nd ref="983089305"/>
    <nd ref="983089293"/>
    <nd ref="983089261"/>
    <nd ref="983089339"/>
    <tag k="addr:city" v="Зеленоград"/>
    <tag k="addr:country" v="RU"/>
    <tag k="addr:street" v="2-й микрорайон"/>
    <tag k="building" v="service"/>
    <tag k="building:levels" v="1"/>
  </way>
  <way id="84621899" version="8" timestamp="2012-03-27T11:52:18Z" uid="481934" user="iWowik" changeset="11115472">
    <nd ref="983089339"/>
    <nd ref="983089305"/>
    <nd ref="983089293"/>
    <nd ref="983089261"/>
    <nd ref="983089339"/>
    <tag k="addr:city" v="Зеленоград"/>
    <tag k="addr:country" v="RU"/>
    <tag k="addr:region" v="Москва"/>
    <tag k="addr:street" v="2-й микрорайон"/>
    <tag k="building" v="service"/>
    <tag k="building:levels" v="1"/>
  </way>
  <way id="84621901" version="1" timestamp="2010-11-09T07:39:09Z" uid="115477" user="wowik" changeset="6325744">
    <nd ref="983089271"/>
    <nd ref="983089216"/>
    <nd ref="983089304"/>
    <nd ref="983089260"/>
    <nd ref="983089271"/>
    <tag k="leisure" v="pitch"/>
  </way>
  <way id="84621905" version="1" timestamp="2010-11-09T07:39:10Z" uid="115477" user="wowik" changeset="6325744">
    <nd ref="983089247"/>
    <nd ref="983089229"/>
    <nd ref="983089325"/>
    <nd ref="983089317"/>
    <nd ref="983089247"/>
    <tag k="addr:city" v="Зеленоград"/>
    <tag k="addr:street" v="2-й Микрорайон"/>
    <tag k="building" v="yes"/>
    <tag k="is_in" v="Russia"/>
    <tag k="landuse" v="service"/>
  </way>
  <way id="84621905" version="2" timestamp="2011-01-25T16:23:21Z" uid="115477" user="wowik" changeset="7085120">
    <nd ref="983089247"/>
    <nd ref="983089229"/>
    <nd ref="983089325"/>
    <nd ref="983089317"/>
    <nd ref="983089247"/>
    <tag k="addr:city" v="Зеленоград"/>
    <tag k="addr:street" v="2-й Микрорайон"/>
    <tag k="building" v="yes"/>
    <tag k="building:levels" v="1"/>
    <tag k="is_in" v="Russia"/>
    <tag k="landuse" v="service"/>
  </way>
  <way id="84621905" version="3" timestamp="2011-06-07T20:46:08Z" uid="133332" user="AMDmi3" changeset="8374030">
    <nd ref="983089247"/>
    <nd ref="983089229"/>
    <nd ref="983089325"/>
    <nd ref="983089317"/>
    <nd ref="983089247"/>
    <tag k="addr:city" v="Зеленоград"/>
    <tag k="addr:street" v="2-й микрорайон"/>
    <tag k="building" v="yes"/>
    <tag k="building:levels" v="1"/>
    <tag k="is_in" v="Russia"/>
    <tag k="landuse" v="service"/>
  </way>
  <way id="84621905" version="4" timestamp="2011-09-13T10:37:10Z" uid="29320" user="Komяpa" changeset="9288237">
    <nd ref="983089247"/>
    <nd ref="983089229"/>
    <nd ref="983089325"/>
    <nd ref="983089317"/>
    <nd ref="983089247"/>
    <tag k="addr:city" v="Зеленоград"/>
    <tag k="addr:country" v="RU"/>
    <tag k="addr:street" v="2-й микрорайон"/>
    <tag k="building" v="service"/>
    <tag k="building:levels" v="1"/>
  </way>
  <way id="84621905" version="5" timestamp="2011-10-28T10:34:53Z" uid="481934" user="iWowik" changeset="9675276">
    <nd ref="983089247"/>
    <nd ref="983089229"/>
    <nd ref="983089325"/>
    <nd ref="983089317"/>
    <nd ref="983089247"/>
    <tag k="addr:city" v="Зеленоград"/>
    <tag k="addr:country" v="RU"/>
    <tag k="addr:street" v="2-й Микрорайон"/>
    <tag k="building" v="service"/>
    <tag k="building:levels" v="1"/>
  </way>
  <way id="84621905" version="6" timestamp="2011-11-14T20:35:56Z" uid="133332" user="AMDmi3" changeset="9828527">
    <nd ref="983089247"/>
    <nd ref="983089229"/>
    <nd ref="983089325"/>
    <nd ref="983089317"/>
    <nd ref="983089247"/>
    <tag k="addr:city" v="Зеленоград"/>
    <tag k="addr:country" v="RU"/>
    <tag k="addr:street" v="2-й микрорайон"/>
    <tag k="building" v="service"/>
    <tag k="building:levels" v="1"/>
  </way>
  <way id="84621905" version="7" timestamp="2012-03-27T11:53:20Z" uid="481934" user="iWowik" changeset="11115472">
    <nd ref="983089247"/>
    <nd ref="983089229"/>
    <nd ref="983089325"/>
    <nd ref="983089317"/>
    <nd ref="983089247"/>
    <tag k="addr:city" v="Зеленоград"/>
    <tag k="addr:country" v="RU"/>
    <tag k="addr:region" v="Москва"/>
    <tag k="addr:street" v="2-й микрорайон"/>
    <tag k="building" v="service"/>
    <tag k="building:levels" v="1"/>
  </way>
  <way id="84621908" version="1" timestamp="2010-11-09T07:39:10Z" uid="115477" user="wowik" changeset="6325744">
    <nd ref="983089334"/>
    <nd ref="983089295"/>
    <nd ref="983089277"/>
    <nd ref="983089214"/>
    <nd ref="983089334"/>
    <tag k="addr:city" v="Зеленоград"/>
    <tag k="addr:housenumber" v="416А"/>
    <tag k="addr:street" v="4-й Микрорайон"/>
    <tag k="building" v="yes"/>
    <tag k="building:levels" v="1"/>
    <tag k="is_in" v="Russia"/>
    <tag k="note" v="или таки 415А?"/>
  </way>
  <way id="84621908" version="2" timestamp="2011-06-07T20:46:07Z" uid="133332" user="AMDmi3" changeset="8374030">
    <nd ref="983089334"/>
    <nd ref="983089295"/>
    <nd ref="983089277"/>
    <nd ref="983089214"/>
    <nd ref="983089334"/>
    <tag k="addr:city" v="Зеленоград"/>
    <tag k="addr:housenumber" v="416А"/>
    <tag k="addr:street" v="4-й микрорайон"/>
    <tag k="building" v="yes"/>
    <tag k="building:levels" v="1"/>
    <tag k="is_in" v="Russia"/>
    <tag k="note" v="или таки 415А?"/>
  </way>
  <way id="84621908" version="3" timestamp="2011-09-13T10:26:47Z" uid="29320" user="Komяpa" changeset="9288237">
    <nd ref="983089334"/>
    <nd ref="983089295"/>
    <nd ref="983089277"/>
    <nd ref="983089214"/>
    <nd ref="983089334"/>
    <tag k="addr:city" v="Зеленоград"/>
    <tag k="addr:country" v="RU"/>
    <tag k="addr:housenumber" v="416А"/>
    <tag k="addr:street" v="4-й микрорайон"/>
    <tag k="building" v="yes"/>
    <tag k="building:levels" v="1"/>
    <tag k="note" v="или таки 415А?"/>
  </way>
  <way id="84621908" version="4" timestamp="2011-10-28T10:31:55Z" uid="481934" user="iWowik" changeset="9675276">
    <nd ref="983089334"/>
    <nd ref="983089295"/>
    <nd ref="983089277"/>
    <nd ref="983089214"/>
    <nd ref="983089334"/>
    <tag k="addr:city" v="Зеленоград"/>
    <tag k="addr:country" v="RU"/>
    <tag k="addr:housenumber" v="416А"/>
    <tag k="addr:street" v="4-й Микрорайон"/>
    <tag k="building" v="yes"/>
    <tag k="building:levels" v="1"/>
    <tag k="note" v="или таки 415А?"/>
  </way>
  <way id="84621908" version="5" timestamp="2011-11-14T20:33:09Z" uid="133332" user="AMDmi3" changeset="9828527">
    <nd ref="983089334"/>
    <nd ref="983089295"/>
    <nd ref="983089277"/>
    <nd ref="983089214"/>
    <nd ref="983089334"/>
    <tag k="addr:city" v="Зеленоград"/>
    <tag k="addr:country" v="RU"/>
    <tag k="addr:housenumber" v="416А"/>
    <tag k="addr:street" v="4-й микрорайон"/>
    <tag k="building" v="yes"/>
    <tag k="building:levels" v="1"/>
    <tag k="note" v="или таки 415А?"/>
  </way>
  <way id="84621908" version="6" timestamp="2012-03-27T11:43:09Z" uid="481934" user="iWowik" changeset="11115472">
    <nd ref="983089334"/>
    <nd ref="983089295"/>
    <nd ref="983089277"/>
    <nd ref="983089214"/>
    <nd ref="983089334"/>
    <tag k="addr:city" v="Зеленоград"/>
    <tag k="addr:country" v="RU"/>
    <tag k="addr:housenumber" v="416А"/>
    <tag k="addr:region" v="Москва"/>
    <tag k="addr:street" v="4-й микрорайон"/>
    <tag k="building" v="yes"/>
    <tag k="building:levels" v="1"/>
    <tag k="note" v="или таки 415А?"/>
  </way>
  <way id="84621912" version="1" timestamp="2010-11-09T07:39:11Z" uid="115477" user="wowik" changeset="6325744">
    <nd ref="983089275"/>
    <nd ref="983089266"/>
    <tag k="foot" v="yes"/>
    <tag k="highway" v="footway"/>
    <tag k="layer" v="-1"/>
    <tag k="tunnel" v="yes"/>
  </way>
  <way id="84621912" version="2" timestamp="2011-09-08T21:04:55Z" uid="518169" user="kosatov" changeset="9249228">
    <nd ref="983089275"/>
    <nd ref="983089266"/>
    <tag k="foot" v="yes"/>
    <tag k="highway" v="steps"/>
    <tag k="layer" v="-1"/>
    <tag k="tunnel" v="yes"/>
  </way>
  <way id="84621912" version="3" timestamp="2011-10-19T16:47:30Z" uid="518169" user="kosatov" changeset="9601533">
    <nd ref="1473224827"/>
    <nd ref="1473224829"/>
    <tag k="foot" v="yes"/>
    <tag k="highway" v="steps"/>
    <tag k="layer" v="-1"/>
    <tag k="tunnel" v="yes"/>
  </way>
  <way id="84621912" version="4" timestamp="2011-10-21T19:57:00Z" uid="518169" user="kosatov" changeset="9619246">
    <nd ref="1473224827"/>
    <nd ref="1473224829"/>
    <tag k="foot" v="yes"/>
    <tag k="highway" v="footway"/>
    <tag k="layer" v="-1"/>
    <tag k="tunnel" v="yes"/>
  </way>
  <way id="84621917" version="1" timestamp="2010-11-09T07:39:11Z" uid="115477" user="wowik" changeset="6325744">
    <nd ref="983089292"/>
    <nd ref="983089258"/>
    <nd ref="983089234"/>
    <nd ref="983089330"/>
    <nd ref="983089292"/>
    <tag k="addr:city" v="Зеленоград"/>
    <tag k="addr:housenumber" v="237А"/>
    <tag k="addr:street" v="2-й Микрорайон"/>
    <tag k="building" v="yes"/>
    <tag k="is_in" v="Russia"/>
    <tag k="landuse" v="service"/>
  </way>
  <way id="84621917" version="2" timestamp="2011-01-25T16:23:22Z" uid="115477" user="wowik" changeset="7085120">
    <nd ref="983089292"/>
    <nd ref="983089258"/>
    <nd ref="983089234"/>
    <nd ref="983089330"/>
    <nd ref="983089292"/>
    <tag k="addr:city" v="Зеленоград"/>
    <tag k="addr:housenumber" v="237А"/>
    <tag k="addr:street" v="2-й Микрорайон"/>
    <tag k="building" v="yes"/>
    <tag k="building:levels" v="1"/>
    <tag k="is_in" v="Russia"/>
    <tag k="landuse" v="service"/>
  </way>
  <way id="84621917" version="3" timestamp="2011-06-07T20:46:07Z" uid="133332" user="AMDmi3" changeset="8374030">
    <nd ref="983089292"/>
    <nd ref="983089258"/>
    <nd ref="983089234"/>
    <nd ref="983089330"/>
    <nd ref="983089292"/>
    <tag k="addr:city" v="Зеленоград"/>
    <tag k="addr:housenumber" v="237А"/>
    <tag k="addr:street" v="2-й микрорайон"/>
    <tag k="building" v="yes"/>
    <tag k="building:levels" v="1"/>
    <tag k="is_in" v="Russia"/>
    <tag k="landuse" v="service"/>
  </way>
  <way id="84621917" version="4" timestamp="2011-09-13T10:24:56Z" uid="29320" user="Komяpa" changeset="9288237">
    <nd ref="983089292"/>
    <nd ref="983089258"/>
    <nd ref="983089234"/>
    <nd ref="983089330"/>
    <nd ref="983089292"/>
    <tag k="addr:city" v="Зеленоград"/>
    <tag k="addr:country" v="RU"/>
    <tag k="addr:housenumber" v="237А"/>
    <tag k="addr:street" v="2-й микрорайон"/>
    <tag k="building" v="service"/>
    <tag k="building:levels" v="1"/>
  </way>
  <way id="84621917" version="5" timestamp="2011-10-28T10:34:47Z" uid="481934" user="iWowik" changeset="9675276">
    <nd ref="983089292"/>
    <nd ref="983089258"/>
    <nd ref="983089234"/>
    <nd ref="983089330"/>
    <nd ref="983089292"/>
    <tag k="addr:city" v="Зеленоград"/>
    <tag k="addr:country" v="RU"/>
    <tag k="addr:housenumber" v="237А"/>
    <tag k="addr:street" v="2-й Микрорайон"/>
    <tag k="building" v="service"/>
    <tag k="building:levels" v="1"/>
  </way>
  <way id="84621917" version="6" timestamp="2011-11-14T20:32:05Z" uid="133332" user="AMDmi3" changeset="9828527">
    <nd ref="983089292"/>
    <nd ref="983089258"/>
    <nd ref="983089234"/>
    <nd ref="983089330"/>
    <nd ref="983089292"/>
    <tag k="addr:city" v="Зеленоград"/>
    <tag k="addr:country" v="RU"/>
    <tag k="addr:housenumber" v="237А"/>
    <tag k="addr:street" v="2-й микрорайон"/>
    <tag k="building" v="service"/>
    <tag k="building:levels" v="1"/>
  </way>
  <way id="84621917" version="7" timestamp="2012-03-27T11:40:01Z" uid="481934" user="iWowik" changeset="11115472">
    <nd ref="983089292"/>
    <nd ref="983089258"/>
    <nd ref="983089234"/>
    <nd ref="983089330"/>
    <nd ref="983089292"/>
    <tag k="addr:city" v="Зеленоград"/>
    <tag k="addr:country" v="RU"/>
    <tag k="addr:housenumber" v="237А"/>
    <tag k="addr:region" v="Москва"/>
    <tag k="addr:street" v="2-й микрорайон"/>
    <tag k="building" v="service"/>
    <tag k="building:levels" v="1"/>
  </way>
  <way id="84621921" version="1" timestamp="2010-11-09T07:39:12Z" uid="115477" user="wowik" changeset="6325744">
    <nd ref="983089308"/>
    <nd ref="983089320"/>
    <nd ref="983089285"/>
    <nd ref="983089278"/>
    <nd ref="983089308"/>
    <tag k="addr:city" v="Зеленоград"/>
    <tag k="addr:street" v="2-й Микрорайон"/>
    <tag k="building" v="yes"/>
    <tag k="is_in" v="Russia"/>
    <tag k="landuse" v="service"/>
  </way>
  <way id="84621921" version="2" timestamp="2011-01-25T16:23:22Z" uid="115477" user="wowik" changeset="7085120">
    <nd ref="983089308"/>
    <nd ref="983089320"/>
    <nd ref="983089285"/>
    <nd ref="983089278"/>
    <nd ref="983089308"/>
    <tag k="addr:city" v="Зеленоград"/>
    <tag k="addr:street" v="2-й Микрорайон"/>
    <tag k="building" v="yes"/>
    <tag k="building:levels" v="1"/>
    <tag k="is_in" v="Russia"/>
    <tag k="landuse" v="service"/>
  </way>
  <way id="84621921" version="3" timestamp="2011-06-07T20:46:14Z" uid="133332" user="AMDmi3" changeset="8374030">
    <nd ref="983089308"/>
    <nd ref="983089320"/>
    <nd ref="983089285"/>
    <nd ref="983089278"/>
    <nd ref="983089308"/>
    <tag k="addr:city" v="Зеленоград"/>
    <tag k="addr:street" v="2-й микрорайон"/>
    <tag k="building" v="yes"/>
    <tag k="building:levels" v="1"/>
    <tag k="is_in" v="Russia"/>
    <tag k="landuse" v="service"/>
  </way>
  <way id="84621921" version="4" timestamp="2011-09-13T10:37:10Z" uid="29320" user="Komяpa" changeset="9288237">
    <nd ref="983089308"/>
    <nd ref="983089320"/>
    <nd ref="983089285"/>
    <nd ref="983089278"/>
    <nd ref="983089308"/>
    <tag k="addr:city" v="Зеленоград"/>
    <tag k="addr:country" v="RU"/>
    <tag k="addr:street" v="2-й микрорайон"/>
    <tag k="building" v="service"/>
    <tag k="building:levels" v="1"/>
  </way>
  <way id="84621921" version="5" timestamp="2011-10-28T10:34:54Z" uid="481934" user="iWowik" changeset="9675276">
    <nd ref="983089308"/>
    <nd ref="983089320"/>
    <nd ref="983089285"/>
    <nd ref="983089278"/>
    <nd ref="983089308"/>
    <tag k="addr:city" v="Зеленоград"/>
    <tag k="addr:country" v="RU"/>
    <tag k="addr:street" v="2-й Микрорайон"/>
    <tag k="building" v="service"/>
    <tag k="building:levels" v="1"/>
  </way>
  <way id="84621921" version="6" timestamp="2011-11-14T20:35:56Z" uid="133332" user="AMDmi3" changeset="9828527">
    <nd ref="983089308"/>
    <nd ref="983089320"/>
    <nd ref="983089285"/>
    <nd ref="983089278"/>
    <nd ref="983089308"/>
    <tag k="addr:city" v="Зеленоград"/>
    <tag k="addr:country" v="RU"/>
    <tag k="addr:street" v="2-й микрорайон"/>
    <tag k="building" v="service"/>
    <tag k="building:levels" v="1"/>
  </way>
  <way id="84621921" version="7" timestamp="2012-03-27T11:53:40Z" uid="481934" user="iWowik" changeset="11115472">
    <nd ref="983089308"/>
    <nd ref="983089320"/>
    <nd ref="983089285"/>
    <nd ref="983089278"/>
    <nd ref="983089308"/>
    <tag k="addr:city" v="Зеленоград"/>
    <tag k="addr:country" v="RU"/>
    <tag k="addr:region" v="Москва"/>
    <tag k="addr:street" v="2-й микрорайон"/>
    <tag k="building" v="service"/>
    <tag k="building:levels" v="1"/>
  </way>
  <way id="84621925" version="1" timestamp="2010-11-09T07:39:12Z" uid="115477" user="wowik" changeset="6325744">
    <nd ref="983089279"/>
    <nd ref="983089245"/>
    <nd ref="983089324"/>
    <tag k="highway" v="footway"/>
  </way>
  <way id="84621925" version="2" timestamp="2011-04-27T13:05:15Z" uid="241531" user="dik_man" changeset="7984926">
    <nd ref="983089279"/>
    <nd ref="1262080458"/>
    <nd ref="1262080408"/>
    <nd ref="983089245"/>
    <nd ref="983089324"/>
    <tag k="highway" v="footway"/>
  </way>
  <way id="84621925" version="3" timestamp="2011-11-18T16:52:41Z" uid="481934" user="iWowik" changeset="9865397">
    <nd ref="983089279"/>
    <nd ref="1262080458"/>
    <nd ref="1262080408"/>
    <nd ref="1507540775"/>
    <nd ref="983089245"/>
    <nd ref="983089324"/>
    <tag k="highway" v="footway"/>
  </way>
  <way id="84621926" version="1" timestamp="2010-11-09T07:39:13Z" uid="115477" user="wowik" changeset="6325744">
    <nd ref="983089311"/>
    <nd ref="983089302"/>
    <nd ref="983089268"/>
    <nd ref="983089256"/>
    <nd ref="983089311"/>
    <tag k="addr:city" v="Зеленоград"/>
    <tag k="addr:street" v="2-й Микрорайон"/>
    <tag k="building" v="yes"/>
    <tag k="is_in" v="Russia"/>
  </way>
  <way id="84621926" version="2" timestamp="2010-11-09T14:32:49Z" uid="115477" user="wowik" changeset="6327211">
    <nd ref="983089311"/>
    <nd ref="983089302"/>
    <nd ref="983089268"/>
    <nd ref="983089256"/>
    <nd ref="983089311"/>
    <tag k="addr:city" v="Зеленоград"/>
    <tag k="addr:street" v="2-й Микрорайон"/>
    <tag k="amenity" v="commercial"/>
    <tag k="building" v="yes"/>
    <tag k="is_in" v="Russia"/>
    <tag k="shop" v="convenience"/>
  </way>
  <way id="84621926" version="3" timestamp="2011-06-07T20:46:13Z" uid="133332" user="AMDmi3" changeset="8374030">
    <nd ref="983089311"/>
    <nd ref="983089302"/>
    <nd ref="983089268"/>
    <nd ref="983089256"/>
    <nd ref="983089311"/>
    <tag k="addr:city" v="Зеленоград"/>
    <tag k="addr:street" v="2-й микрорайон"/>
    <tag k="amenity" v="commercial"/>
    <tag k="building" v="yes"/>
    <tag k="is_in" v="Russia"/>
    <tag k="shop" v="convenience"/>
  </way>
  <way id="84621926" version="4" timestamp="2011-09-13T10:37:11Z" uid="29320" user="Komяpa" changeset="9288237">
    <nd ref="983089311"/>
    <nd ref="983089302"/>
    <nd ref="983089268"/>
    <nd ref="983089256"/>
    <nd ref="983089311"/>
    <tag k="addr:city" v="Зеленоград"/>
    <tag k="addr:country" v="RU"/>
    <tag k="addr:street" v="2-й микрорайон"/>
    <tag k="amenity" v="commercial"/>
    <tag k="building" v="yes"/>
    <tag k="shop" v="convenience"/>
  </way>
  <way id="84621926" version="5" timestamp="2011-10-28T10:34:54Z" uid="481934" user="iWowik" changeset="9675276">
    <nd ref="983089311"/>
    <nd ref="983089302"/>
    <nd ref="983089268"/>
    <nd ref="983089256"/>
    <nd ref="983089311"/>
    <tag k="addr:city" v="Зеленоград"/>
    <tag k="addr:country" v="RU"/>
    <tag k="addr:street" v="2-й Микрорайон"/>
    <tag k="amenity" v="commercial"/>
    <tag k="building" v="yes"/>
    <tag k="shop" v="convenience"/>
  </way>
  <way id="84621926" version="6" timestamp="2011-11-14T20:35:57Z" uid="133332" user="AMDmi3" changeset="9828527">
    <nd ref="983089311"/>
    <nd ref="983089302"/>
    <nd ref="983089268"/>
    <nd ref="983089256"/>
    <nd ref="983089311"/>
    <tag k="addr:city" v="Зеленоград"/>
    <tag k="addr:country" v="RU"/>
    <tag k="addr:street" v="2-й микрорайон"/>
    <tag k="amenity" v="commercial"/>
    <tag k="building" v="yes"/>
    <tag k="shop" v="convenience"/>
  </way>
  <way id="84621926" version="7" timestamp="2011-12-13T07:23:31Z" uid="126304" user="TarzanASG" changeset="10105192">
    <nd ref="983089311"/>
    <nd ref="983089302"/>
    <nd ref="983089268"/>
    <nd ref="983089256"/>
    <nd ref="983089311"/>
    <tag k="addr:city" v="Зеленоград"/>
    <tag k="addr:country" v="RU"/>
    <tag k="addr:street" v="2-й микрорайон"/>
    <tag k="amenity" v="commercial"/>
    <tag k="building" v="retail"/>
    <tag k="shop" v="convenience"/>
  </way>
  <way id="84621926" version="8" timestamp="2011-12-14T07:28:20Z" uid="143266" user="Sergey Astakhov" changeset="10113313">
    <nd ref="983089311"/>
    <nd ref="983089302"/>
    <nd ref="983089268"/>
    <nd ref="983089256"/>
    <nd ref="983089311"/>
    <tag k="addr:city" v="Зеленоград"/>
    <tag k="addr:country" v="RU"/>
    <tag k="addr:street" v="2-й микрорайон"/>
    <tag k="amenity" v="commercial"/>
    <tag k="building" v="yes"/>
    <tag k="shop" v="convenience"/>
  </way>
  <way id="84621926" version="9" timestamp="2012-03-27T11:50:14Z" uid="481934" user="iWowik" changeset="11115472">
    <nd ref="983089311"/>
    <nd ref="983089302"/>
    <nd ref="983089268"/>
    <nd ref="983089256"/>
    <nd ref="983089311"/>
    <tag k="addr:city" v="Зеленоград"/>
    <tag k="addr:country" v="RU"/>
    <tag k="addr:region" v="Москва"/>
    <tag k="addr:street" v="2-й микрорайон"/>
    <tag k="amenity" v="commercial"/>
    <tag k="building" v="yes"/>
    <tag k="shop" v="convenience"/>
  </way>
  <way id="84621932" version="1" timestamp="2010-11-09T07:39:13Z" uid="115477" user="wowik" changeset="6325744">
    <nd ref="983089287"/>
    <nd ref="983089236"/>
    <nd ref="983089226"/>
    <nd ref="983089322"/>
    <nd ref="983089287"/>
    <tag k="addr:city" v="Зеленоград"/>
    <tag k="addr:street" v="2-й Микрорайон"/>
    <tag k="building" v="yes"/>
    <tag k="is_in" v="Russia"/>
    <tag k="landuse" v="service"/>
  </way>
  <way id="84621932" version="2" timestamp="2011-01-25T16:23:24Z" uid="115477" user="wowik" changeset="7085120">
    <nd ref="983089287"/>
    <nd ref="983089236"/>
    <nd ref="983089226"/>
    <nd ref="983089322"/>
    <nd ref="983089287"/>
    <tag k="addr:city" v="Зеленоград"/>
    <tag k="addr:street" v="2-й Микрорайон"/>
    <tag k="building" v="yes"/>
    <tag k="building:levels" v="undefined"/>
    <tag k="is_in" v="Russia"/>
    <tag k="landuse" v="service"/>
  </way>
  <way id="84621932" version="3" timestamp="2011-06-07T20:46:12Z" uid="133332" user="AMDmi3" changeset="8374030">
    <nd ref="983089287"/>
    <nd ref="983089236"/>
    <nd ref="983089226"/>
    <nd ref="983089322"/>
    <nd ref="983089287"/>
    <tag k="addr:city" v="Зеленоград"/>
    <tag k="addr:street" v="2-й микрорайон"/>
    <tag k="building" v="yes"/>
    <tag k="building:levels" v="undefined"/>
    <tag k="is_in" v="Russia"/>
    <tag k="landuse" v="service"/>
  </way>
  <way id="84621932" version="4" timestamp="2011-09-13T10:37:11Z" uid="29320" user="Komяpa" changeset="9288237">
    <nd ref="983089287"/>
    <nd ref="983089236"/>
    <nd ref="983089226"/>
    <nd ref="983089322"/>
    <nd ref="983089287"/>
    <tag k="addr:city" v="Зеленоград"/>
    <tag k="addr:country" v="RU"/>
    <tag k="addr:street" v="2-й микрорайон"/>
    <tag k="building" v="service"/>
    <tag k="building:levels" v="undefined"/>
  </way>
  <way id="84621932" version="5" timestamp="2011-10-28T10:34:54Z" uid="481934" user="iWowik" changeset="9675276">
    <nd ref="983089287"/>
    <nd ref="983089236"/>
    <nd ref="983089226"/>
    <nd ref="983089322"/>
    <nd ref="983089287"/>
    <tag k="addr:city" v="Зеленоград"/>
    <tag k="addr:country" v="RU"/>
    <tag k="addr:street" v="2-й Микрорайон"/>
    <tag k="building" v="service"/>
    <tag k="building:levels" v="undefined"/>
  </way>
  <way id="84621932" version="6" timestamp="2011-11-14T20:35:57Z" uid="133332" user="AMDmi3" changeset="9828527">
    <nd ref="983089287"/>
    <nd ref="983089236"/>
    <nd ref="983089226"/>
    <nd ref="983089322"/>
    <nd ref="983089287"/>
    <tag k="addr:city" v="Зеленоград"/>
    <tag k="addr:country" v="RU"/>
    <tag k="addr:street" v="2-й микрорайон"/>
    <tag k="building" v="service"/>
    <tag k="building:levels" v="undefined"/>
  </way>
  <way id="84621932" version="7" timestamp="2011-11-15T16:35:00Z" uid="481934" user="iWowik" changeset="9836117">
    <nd ref="983089287"/>
    <nd ref="983089236"/>
    <nd ref="983089226"/>
    <nd ref="983089322"/>
    <nd ref="983089287"/>
    <tag k="addr:city" v="Зеленоград"/>
    <tag k="addr:country" v="RU"/>
    <tag k="addr:street" v="2-й микрорайон"/>
    <tag k="building" v="service"/>
    <tag k="building:levels" v="1"/>
  </way>
  <way id="84621932" version="8" timestamp="2012-03-27T11:53:08Z" uid="481934" user="iWowik" changeset="11115472">
    <nd ref="983089287"/>
    <nd ref="983089236"/>
    <nd ref="983089226"/>
    <nd ref="983089322"/>
    <nd ref="983089287"/>
    <tag k="addr:city" v="Зеленоград"/>
    <tag k="addr:country" v="RU"/>
    <tag k="addr:region" v="Москва"/>
    <tag k="addr:street" v="2-й микрорайон"/>
    <tag k="building" v="service"/>
    <tag k="building:levels" v="1"/>
  </way>
</osm>
