<?xml version='1.0' encoding='UTF-8'?>
<osm version="0.6" generator="libosmium/2.20.0">
  <way id="84655474" version="1" timestamp="2010-11-09T14:32:36Z" uid="115477" user="wowik" changeset="6327211">
    <nd ref="983405174"/>
    <nd ref="983405142"/>
    <nd ref="983405202"/>
    <nd ref="983405256"/>
    <nd ref="983405174"/>
    <tag k="addr:city" v="Зеленоград"/>
    <tag k="addr:housenumber" v="8с2"/>
    <tag k="addr:street" v="1-й Западный проезд"/>
    <tag k="building" v="yes"/>
    <tag k="is_in" v="Russia"/>
  </way>
  <way id="84655474" version="2" timestamp="2011-01-15T17:27:09Z" uid="206282" user="Amigo" changeset="6979675">
    <nd ref="983405174"/>
    <nd ref="983405142"/>
    <nd ref="983405202"/>
    <nd ref="983405256"/>
    <nd ref="983405174"/>
    <tag k="addr:city" v="Зеленоград"/>
    <tag k="addr:housenumber" v="8 с2"/>
    <tag k="addr:street" v="1-й Западный проезд"/>
    <tag k="building" v="yes"/>
    <tag k="is_in" v="Russia"/>
  </way>
  <way id="84655474" version="3" timestamp="2011-09-13T10:28:32Z" uid="29320" user="Komяpa" changeset="9288237">
    <nd ref="983405174"/>
    <nd ref="983405142"/>
    <nd ref="983405202"/>
    <nd ref="983405256"/>
    <nd ref="983405174"/>
    <tag k="addr:city" v="Зеленоград"/>
    <tag k="addr:country" v="RU"/>
    <tag k="addr:housenumber" v="8 с2"/>
    <tag k="addr:street" v="1-й Западный проезд"/>
    <tag k="building" v="yes"/>
  </way>
  <way id="84655475" version="1" timestamp="2010-11-09T14:32:36Z" uid="115477" user="wowik" changeset="6327211">
    <nd ref="983405300"/>
    <nd ref="983405268"/>
    <nd ref="983405168"/>
    <nd ref="983405138"/>
    <nd ref="983405300"/>
    <tag k="addr:city" v="Зеленоград"/>
    <tag k="amenity" v="commercial"/>
    <tag k="building" v="yes"/>
    <tag k="is_in" v="Russia"/>
    <tag k="shop" v="kiosk"/>
  </way>
  <way id="84655475" version="2" timestamp="2011-09-13T10:37:29Z" uid="29320" user="Komяpa" changeset="9288237">
    <nd ref="983405300"/>
    <nd ref="983405268"/>
    <nd ref="983405168"/>
    <nd ref="983405138"/>
    <nd ref="983405300"/>
    <tag k="addr:city" v="Зеленоград"/>
    <tag k="addr:country" v="RU"/>
    <tag k="amenity" v="commercial"/>
    <tag k="building" v="yes"/>
    <tag k="shop" v="kiosk"/>
  </way>
  <way id="84655475" version="3" timestamp="2011-12-13T07:23:34Z" uid="126304" user="TarzanASG" changeset="10105192">
    <nd ref="983405300"/>
    <nd ref="983405268"/>
    <nd ref="983405168"/>
    <nd ref="983405138"/>
    <nd ref="983405300"/>
    <tag k="addr:city" v="Зеленоград"/>
    <tag k="addr:country" v="RU"/>
    <tag k="amenity" v="commercial"/>
    <tag k="building" v="retail"/>
    <tag k="shop" v="kiosk"/>
  </way>
  <way id="84655475" version="4" timestamp="2011-12-14T07:28:33Z" uid="143266" user="Sergey Astakhov" changeset="10113313">
    <nd ref="983405300"/>
    <nd ref="983405268"/>
    <nd ref="983405168"/>
    <nd ref="983405138"/>
    <nd ref="983405300"/>
    <tag k="addr:city" v="Зеленоград"/>
    <tag k="addr:country" v="RU"/>
    <tag k="amenity" v="commercial"/>
    <tag k="building" v="yes"/>
    <tag k="shop" v="kiosk"/>
  </way>
  <way id="84655475" version="5" timestamp="2012-03-27T11:51:16Z" uid="481934" user="iWowik" changeset="11115472">
    <nd ref="983405300"/>
    <nd ref="983405268"/>
    <nd ref="983405168"/>
    <nd ref="983405138"/>
    <nd ref="983405300"/>
    <tag k="addr:city" v="Зеленоград"/>
    <tag k="addr:country" v="RU"/>
    <tag k="addr:region" v="Москва"/>
    <tag k="amenity" v="commercial"/>
    <tag k="building" v="yes"/>
    <tag k="shop" v="kiosk"/>
  </way>
  <way id="84655478" version="1" timestamp="2010-11-09T14:32:36Z" uid="115477" user="wowik" changeset="6327211">
    <nd ref="983405305"/>
    <nd ref="983405204"/>
    <nd ref="983405257"/>
    <nd ref="983405330"/>
    <nd ref="983405185"/>
    <nd ref="983405245"/>
    <nd ref="983405305"/>
    <tag k="addr:city" v="Зеленоград"/>
    <tag k="addr:housenumber" v="10с2"/>
    <tag k="addr:street" v="1-й Западный проезд"/>
    <tag k="building" v="yes"/>
    <tag k="is_in" v="Russia"/>
  </way>
  <way id="84655478" version="2" timestamp="2011-01-19T17:03:05Z" uid="70696" user="xybot" changeset="7021015">
    <nd ref="983405305"/>
    <nd ref="983405204"/>
    <nd ref="983405257"/>
    <nd ref="983405330"/>
    <nd ref="983405185"/>
    <nd ref="983405245"/>
    <nd ref="983405305"/>
    <tag k="addr:city" v="Зеленоград"/>
    <tag k="addr:housenumber" v="10 с2"/>
    <tag k="addr:street" v="1-й Западный проезд"/>
    <tag k="building" v="yes"/>
    <tag k="is_in" v="Russia"/>
  </way>
  <way id="84655478" version="3" timestamp="2011-09-13T10:20:58Z" uid="29320" user="Komяpa" changeset="9288237">
    <nd ref="983405305"/>
    <nd ref="983405204"/>
    <nd ref="983405257"/>
    <nd ref="983405330"/>
    <nd ref="983405185"/>
    <nd ref="983405245"/>
    <nd ref="983405305"/>
    <tag k="addr:city" v="Зеленоград"/>
    <tag k="addr:country" v="RU"/>
    <tag k="addr:housenumber" v="10 с2"/>
    <tag k="addr:street" v="1-й Западный проезд"/>
    <tag k="building" v="yes"/>
  </way>
  <way id="84655480" version="1" timestamp="2010-11-09T14:32:36Z" uid="115477" user="wowik" changeset="6327211">
    <nd ref="983405250"/>
    <nd ref="983405149"/>
    <nd ref="983405227"/>
    <nd ref="983405283"/>
    <nd ref="983405153"/>
    <nd ref="983405250"/>
    <tag k="addr:city" v="Зеленоград"/>
    <tag k="addr:street" v="1-й Западный проезд"/>
    <tag k="building" v="yes"/>
    <tag k="is_in" v="Russia"/>
  </way>
  <way id="84655480" version="2" timestamp="2011-02-09T16:15:19Z" uid="115477" user="wowik" changeset="7237446">
    <nd ref="983405250"/>
    <nd ref="983405149"/>
    <nd ref="983405227"/>
    <nd ref="983405283"/>
    <nd ref="983405153"/>
    <nd ref="983405250"/>
    <tag k="addr:city" v="Зеленоград"/>
    <tag k="addr:housenumber" v="10 с1"/>
    <tag k="addr:street" v="1-й Западный проезд"/>
    <tag k="building" v="yes"/>
    <tag k="is_in" v="Russia"/>
  </way>
  <way id="84655480" version="3" timestamp="2011-09-13T10:20:58Z" uid="29320" user="Komяpa" changeset="9288237">
    <nd ref="983405250"/>
    <nd ref="983405149"/>
    <nd ref="983405227"/>
    <nd ref="983405283"/>
    <nd ref="983405153"/>
    <nd ref="983405250"/>
    <tag k="addr:city" v="Зеленоград"/>
    <tag k="addr:country" v="RU"/>
    <tag k="addr:housenumber" v="10 с1"/>
    <tag k="addr:street" v="1-й Западный проезд"/>
    <tag k="building" v="yes"/>
  </way>
  <way id="84655481" version="1" timestamp="2010-11-09T14:32:36Z" uid="115477" user="wowik" changeset="6327211">
    <nd ref="983405315"/>
    <nd ref="983405280"/>
    <nd ref="983405150"/>
    <nd ref="983405228"/>
    <nd ref="983405315"/>
    <tag k="addr:city" v="Зеленоград"/>
    <tag k="addr:housenumber" v="1с2"/>
    <tag k="addr:street" v="1-й Западный проезд"/>
    <tag k="amenity" v="commercial"/>
    <tag k="building" v="yes"/>
    <tag k="is_in" v="Russia"/>
  </way>
  <way id="84655481" version="2" timestamp="2011-01-14T19:39:22Z" uid="206282" user="Amigo" changeset="6970476">
    <nd ref="983405315"/>
    <nd ref="983405280"/>
    <nd ref="983405150"/>
    <nd ref="983405228"/>
    <nd ref="983405315"/>
    <tag k="addr:city" v="Зеленоград"/>
    <tag k="addr:housenumber" v="1 с2"/>
    <tag k="addr:street" v="1-й Западный проезд"/>
    <tag k="amenity" v="commercial"/>
    <tag k="building" v="yes"/>
    <tag k="is_in" v="Russia"/>
  </way>
  <way id="84655481" version="3" timestamp="2011-02-03T17:36:11Z" uid="135021" user="andriano" changeset="7175924">
    <nd ref="983405315"/>
    <nd ref="983405280"/>
    <nd ref="983405150"/>
    <nd ref="983405228"/>
    <nd ref="983405315"/>
    <tag k="addr:city" v="Зеленоград"/>
    <tag k="addr:housenumber" v="1 с2"/>
    <tag k="addr:street" v="1-й Западный проезд"/>
    <tag k="building" v="yes"/>
    <tag k="is_in" v="Russia"/>
    <tag k="shop" v="convenience"/>
  </way>
  <way id="84655481" version="4" timestamp="2011-09-13T10:20:40Z" uid="29320" user="Komяpa" changeset="9288237">
    <nd ref="983405315"/>
    <nd ref="983405280"/>
    <nd ref="983405150"/>
    <nd ref="983405228"/>
    <nd ref="983405315"/>
    <tag k="addr:city" v="Зеленоград"/>
    <tag k="addr:country" v="RU"/>
    <tag k="addr:housenumber" v="1 с2"/>
    <tag k="addr:street" v="1-й Западный проезд"/>
    <tag k="building" v="yes"/>
    <tag k="shop" v="convenience"/>
  </way>
  <way id="84655481" version="5" timestamp="2011-12-12T17:49:16Z" uid="126304" user="TarzanASG" changeset="10100388">
    <nd ref="983405315"/>
    <nd ref="983405280"/>
    <nd ref="983405150"/>
    <nd ref="983405228"/>
    <nd ref="983405315"/>
    <tag k="addr:city" v="Зеленоград"/>
    <tag k="addr:country" v="RU"/>
    <tag k="addr:housenumber" v="1 с2"/>
    <tag k="addr:street" v="1-й Западный проезд"/>
    <tag k="building" v="retail"/>
    <tag k="shop" v="convenience"/>
  </way>
  <way id="84655481" version="6" timestamp="2011-12-14T13:08:02Z" uid="143266" user="Sergey Astakhov" changeset="10115724">
    <nd ref="983405315"/>
    <nd ref="983405280"/>
    <nd ref="983405150"/>
    <nd ref="983405228"/>
    <nd ref="983405315"/>
    <tag k="addr:city" v="Зеленоград"/>
    <tag k="addr:country" v="RU"/>
    <tag k="addr:housenumber" v="1 с2"/>
    <tag k="addr:street" v="1-й Западный проезд"/>
    <tag k="building" v="yes"/>
    <tag k="shop" v="convenience"/>
  </way>
  <way id="84655482" version="1" timestamp="2010-11-09T14:32:37Z" uid="115477" user="wowik" changeset="6327211">
    <nd ref="983405193"/>
    <nd ref="983405281"/>
    <nd ref="983405252"/>
    <nd ref="983405151"/>
    <nd ref="983405193"/>
    <tag k="addr:city" v="Зеленоград"/>
    <tag k="amenity" v="commercial"/>
    <tag k="building" v="yes"/>
    <tag k="is_in" v="Russia"/>
    <tag k="shop" v="kiosk"/>
  </way>
  <way id="84655482" version="2" timestamp="2011-09-13T10:37:29Z" uid="29320" user="Komяpa" changeset="9288237">
    <nd ref="983405193"/>
    <nd ref="983405281"/>
    <nd ref="983405252"/>
    <nd ref="983405151"/>
    <nd ref="983405193"/>
    <tag k="addr:city" v="Зеленоград"/>
    <tag k="addr:country" v="RU"/>
    <tag k="amenity" v="commercial"/>
    <tag k="building" v="yes"/>
    <tag k="shop" v="kiosk"/>
  </way>
  <way id="84655482" version="3" timestamp="2011-12-13T07:23:35Z" uid="126304" user="TarzanASG" changeset="10105192">
    <nd ref="983405193"/>
    <nd ref="983405281"/>
    <nd ref="983405252"/>
    <nd ref="983405151"/>
    <nd ref="983405193"/>
    <tag k="addr:city" v="Зеленоград"/>
    <tag k="addr:country" v="RU"/>
    <tag k="amenity" v="commercial"/>
    <tag k="building" v="retail"/>
    <tag k="shop" v="kiosk"/>
  </way>
  <way id="84655482" version="4" timestamp="2011-12-14T07:28:35Z" uid="143266" user="Sergey Astakhov" changeset="10113313">
    <nd ref="983405193"/>
    <nd ref="983405281"/>
    <nd ref="983405252"/>
    <nd ref="983405151"/>
    <nd ref="983405193"/>
    <tag k="addr:city" v="Зеленоград"/>
    <tag k="addr:country" v="RU"/>
    <tag k="amenity" v="commercial"/>
    <tag k="building" v="yes"/>
    <tag k="shop" v="kiosk"/>
  </way>
  <way id="84655482" version="5" timestamp="2012-03-27T11:53:10Z" uid="481934" user="iWowik" changeset="11115472">
    <nd ref="983405193"/>
    <nd ref="983405281"/>
    <nd ref="983405252"/>
    <nd ref="983405151"/>
    <nd ref="983405193"/>
    <tag k="addr:city" v="Зеленоград"/>
    <tag k="addr:country" v="RU"/>
    <tag k="addr:region" v="Москва"/>
    <tag k="amenity" v="commercial"/>
    <tag k="building" v="yes"/>
    <tag k="shop" v="kiosk"/>
  </way>
  <way id="84655483" version="1" timestamp="2010-11-09T14:32:37Z" uid="115477" user="wowik" changeset="6327211">
    <nd ref="983405194"/>
    <nd ref="983405301"/>
    <nd ref="983405169"/>
    <nd ref="983405229"/>
    <nd ref="983405284"/>
    <nd ref="983405154"/>
    <nd ref="983405208"/>
    <nd ref="983405267"/>
    <nd ref="983405194"/>
    <tag k="addr:city" v="Зеленоград"/>
    <tag k="addr:housenumber" v="7А"/>
    <tag k="addr:street" v="1-й Западный проезд"/>
    <tag k="building" v="yes"/>
    <tag k="is_in" v="Russia"/>
  </way>
  <way id="84655483" version="2" timestamp="2010-12-07T22:59:53Z" uid="380194" user="ac-trash" changeset="6580900">
    <nd ref="983405194"/>
    <nd ref="983405301"/>
    <nd ref="983405169"/>
    <nd ref="983405229"/>
    <nd ref="1027304360"/>
    <nd ref="983405284"/>
    <nd ref="983405154"/>
    <nd ref="983405208"/>
    <nd ref="983405267"/>
    <nd ref="983405194"/>
    <tag k="addr:city" v="Зеленоград"/>
    <tag k="addr:housenumber" v="7А"/>
    <tag k="addr:street" v="1-й Западный проезд"/>
    <tag k="building" v="yes"/>
    <tag k="is_in" v="Russia"/>
  </way>
  <way id="84655483" version="3" timestamp="2011-09-13T10:28:26Z" uid="29320" user="Komяpa" changeset="9288237">
    <nd ref="983405194"/>
    <nd ref="983405301"/>
    <nd ref="983405169"/>
    <nd ref="983405229"/>
    <nd ref="1027304360"/>
    <nd ref="983405284"/>
    <nd ref="983405154"/>
    <nd ref="983405208"/>
    <nd ref="983405267"/>
    <nd ref="983405194"/>
    <tag k="addr:city" v="Зеленоград"/>
    <tag k="addr:country" v="RU"/>
    <tag k="addr:housenumber" v="7А"/>
    <tag k="addr:street" v="1-й Западный проезд"/>
    <tag k="building" v="yes"/>
  </way>
  <way id="84655484" version="1" timestamp="2010-11-09T14:32:37Z" uid="115477" user="wowik" changeset="6327211">
    <nd ref="983405318"/>
    <nd ref="983405282"/>
    <nd ref="983405199"/>
    <nd ref="983405171"/>
    <nd ref="983405318"/>
    <tag k="addr:city" v="Зеленоград"/>
    <tag k="amenity" v="commercial"/>
    <tag k="building" v="yes"/>
    <tag k="is_in" v="Russia"/>
    <tag k="shop" v="kiosk"/>
  </way>
  <way id="84655484" version="2" timestamp="2011-09-13T10:37:29Z" uid="29320" user="Komяpa" changeset="9288237">
    <nd ref="983405318"/>
    <nd ref="983405282"/>
    <nd ref="983405199"/>
    <nd ref="983405171"/>
    <nd ref="983405318"/>
    <tag k="addr:city" v="Зеленоград"/>
    <tag k="addr:country" v="RU"/>
    <tag k="amenity" v="commercial"/>
    <tag k="building" v="yes"/>
    <tag k="shop" v="kiosk"/>
  </way>
  <way id="84655484" version="3" timestamp="2011-12-13T07:23:35Z" uid="126304" user="TarzanASG" changeset="10105192">
    <nd ref="983405318"/>
    <nd ref="983405282"/>
    <nd ref="983405199"/>
    <nd ref="983405171"/>
    <nd ref="983405318"/>
    <tag k="addr:city" v="Зеленоград"/>
    <tag k="addr:country" v="RU"/>
    <tag k="amenity" v="commercial"/>
    <tag k="building" v="retail"/>
    <tag k="shop" v="kiosk"/>
  </way>
  <way id="84655484" version="4" timestamp="2011-12-14T07:28:35Z" uid="143266" user="Sergey Astakhov" changeset="10113313">
    <nd ref="983405318"/>
    <nd ref="983405282"/>
    <nd ref="983405199"/>
    <nd ref="983405171"/>
    <nd ref="983405318"/>
    <tag k="addr:city" v="Зеленоград"/>
    <tag k="addr:country" v="RU"/>
    <tag k="amenity" v="commercial"/>
    <tag k="building" v="yes"/>
    <tag k="shop" v="kiosk"/>
  </way>
  <way id="84655484" version="5" timestamp="2012-03-27T11:54:05Z" uid="481934" user="iWowik" changeset="11115472">
    <nd ref="983405318"/>
    <nd ref="983405282"/>
    <nd ref="983405199"/>
    <nd ref="983405171"/>
    <nd ref="983405318"/>
    <tag k="addr:city" v="Зеленоград"/>
    <tag k="addr:country" v="RU"/>
    <tag k="addr:region" v="Москва"/>
    <tag k="amenity" v="commercial"/>
    <tag k="building" v="yes"/>
    <tag k="shop" v="kiosk"/>
  </way>
  <way id="84655486" version="1" timestamp="2010-11-09T14:32:37Z" uid="115477" user="wowik" changeset="6327211">
    <nd ref="983405201"/>
    <nd ref="983405172"/>
    <nd ref="983405236"/>
    <nd ref="983405289"/>
    <nd ref="983405201"/>
    <tag k="addr:city" v="Зеленоград"/>
    <tag k="addr:street" v="1-й Западный проезд"/>
    <tag k="building" v="yes"/>
    <tag k="is_in" v="Russia"/>
  </way>
  <way id="84655486" version="2" timestamp="2011-09-13T10:37:30Z" uid="29320" user="Komяpa" changeset="9288237">
    <nd ref="983405201"/>
    <nd ref="983405172"/>
    <nd ref="983405236"/>
    <nd ref="983405289"/>
    <nd ref="983405201"/>
    <tag k="addr:city" v="Зеленоград"/>
    <tag k="addr:country" v="RU"/>
    <tag k="addr:street" v="1-й Западный проезд"/>
    <tag k="building" v="yes"/>
  </way>
  <way id="84655487" version="1" timestamp="2010-11-09T14:32:37Z" uid="115477" user="wowik" changeset="6327211">
    <nd ref="983405262"/>
    <nd ref="983405237"/>
    <nd ref="983405291"/>
    <nd ref="983405179"/>
    <nd ref="983405262"/>
    <tag k="addr:city" v="Зеленоград"/>
    <tag k="addr:street" v="1-й Западный проезд"/>
    <tag k="building" v="yes"/>
    <tag k="is_in" v="Russia"/>
  </way>
  <way id="84655487" version="2" timestamp="2011-09-13T10:37:30Z" uid="29320" user="Komяpa" changeset="9288237">
    <nd ref="983405262"/>
    <nd ref="983405237"/>
    <nd ref="983405291"/>
    <nd ref="983405179"/>
    <nd ref="983405262"/>
    <tag k="addr:city" v="Зеленоград"/>
    <tag k="addr:country" v="RU"/>
    <tag k="addr:street" v="1-й Западный проезд"/>
    <tag k="building" v="yes"/>
  </way>
  <way id="84655488" version="1" timestamp="2010-11-09T14:32:38Z" uid="115477" user="wowik" changeset="6327211">
    <nd ref="983405294"/>
    <nd ref="983405264"/>
    <nd ref="983405334"/>
    <nd ref="983405187"/>
    <nd ref="983405294"/>
    <tag k="addr:city" v="Зеленоград"/>
    <tag k="addr:street" v="1-й Западный проезд"/>
    <tag k="amenity" v="commercial"/>
    <tag k="building" v="yes"/>
    <tag k="is_in" v="Russia"/>
  </way>
  <way id="84655488" version="2" timestamp="2011-02-03T17:37:54Z" uid="135021" user="andriano" changeset="7175924">
    <nd ref="983405294"/>
    <nd ref="983405264"/>
    <nd ref="983405334"/>
    <nd ref="983405187"/>
    <nd ref="983405294"/>
    <tag k="addr:city" v="Зеленоград"/>
    <tag k="addr:street" v="1-й Западный проезд"/>
    <tag k="building" v="yes"/>
    <tag k="is_in" v="Russia"/>
    <tag k="shop" v="convenience"/>
  </way>
  <way id="84655488" version="3" timestamp="2011-09-13T10:37:30Z" uid="29320" user="Komяpa" changeset="9288237">
    <nd ref="983405294"/>
    <nd ref="983405264"/>
    <nd ref="983405334"/>
    <nd ref="983405187"/>
    <nd ref="983405294"/>
    <tag k="addr:city" v="Зеленоград"/>
    <tag k="addr:country" v="RU"/>
    <tag k="addr:street" v="1-й Западный проезд"/>
    <tag k="building" v="yes"/>
    <tag k="shop" v="convenience"/>
  </way>
  <way id="84655488" version="4" timestamp="2011-12-13T07:23:35Z" uid="126304" user="TarzanASG" changeset="10105192">
    <nd ref="983405294"/>
    <nd ref="983405264"/>
    <nd ref="983405334"/>
    <nd ref="983405187"/>
    <nd ref="983405294"/>
    <tag k="addr:city" v="Зеленоград"/>
    <tag k="addr:country" v="RU"/>
    <tag k="addr:street" v="1-й Западный проезд"/>
    <tag k="building" v="retail"/>
    <tag k="shop" v="convenience"/>
  </way>
  <way id="84655488" version="5" timestamp="2011-12-14T07:28:37Z" uid="143266" user="Sergey Astakhov" changeset="10113313">
    <nd ref="983405294"/>
    <nd ref="983405264"/>
    <nd ref="983405334"/>
    <nd ref="983405187"/>
    <nd ref="983405294"/>
    <tag k="addr:city" v="Зеленоград"/>
    <tag k="addr:country" v="RU"/>
    <tag k="addr:street" v="1-й Западный проезд"/>
    <tag k="building" v="yes"/>
    <tag k="shop" v="convenience"/>
  </way>
  <way id="84655489" version="1" timestamp="2010-11-09T14:32:38Z" uid="115477" user="wowik" changeset="6327211">
    <nd ref="983405279"/>
    <nd ref="983405132"/>
    <nd ref="983405266"/>
    <nd ref="983405176"/>
    <nd ref="983405238"/>
    <nd ref="983405317"/>
    <nd ref="983405181"/>
    <nd ref="983405242"/>
    <nd ref="983405279"/>
    <tag k="barrier" v="wall"/>
  </way>
  <way id="84655490" version="1" timestamp="2010-11-09T14:32:38Z" uid="115477" user="wowik" changeset="6327211">
    <nd ref="983405133"/>
    <nd ref="983405297"/>
    <nd ref="983405166"/>
    <nd ref="983405226"/>
    <nd ref="983405133"/>
    <tag k="addr:city" v="Зеленоград"/>
    <tag k="addr:housenumber" v="2с1"/>
    <tag k="addr:street" v="1-й Западный проезд"/>
    <tag k="amenity" v="commercial"/>
    <tag k="building" v="yes"/>
    <tag k="is_in" v="Russia"/>
  </way>
  <way id="84655490" version="2" timestamp="2011-01-14T19:39:22Z" uid="206282" user="Amigo" changeset="6970476">
    <nd ref="983405133"/>
    <nd ref="983405297"/>
    <nd ref="983405166"/>
    <nd ref="983405226"/>
    <nd ref="983405133"/>
    <tag k="addr:city" v="Зеленоград"/>
    <tag k="addr:housenumber" v="2 с1"/>
    <tag k="addr:street" v="1-й Западный проезд"/>
    <tag k="amenity" v="commercial"/>
    <tag k="building" v="yes"/>
    <tag k="is_in" v="Russia"/>
  </way>
  <way id="84655490" version="3" timestamp="2011-02-03T17:36:15Z" uid="135021" user="andriano" changeset="7175924">
    <nd ref="983405133"/>
    <nd ref="983405297"/>
    <nd ref="983405166"/>
    <nd ref="983405226"/>
    <nd ref="983405133"/>
    <tag k="addr:city" v="Зеленоград"/>
    <tag k="addr:housenumber" v="2 с1"/>
    <tag k="addr:street" v="1-й Западный проезд"/>
    <tag k="building" v="yes"/>
    <tag k="is_in" v="Russia"/>
    <tag k="shop" v="convenience"/>
  </way>
  <way id="84655490" version="4" timestamp="2011-09-13T10:24:07Z" uid="29320" user="Komяpa" changeset="9288237">
    <nd ref="983405133"/>
    <nd ref="983405297"/>
    <nd ref="983405166"/>
    <nd ref="983405226"/>
    <nd ref="983405133"/>
    <tag k="addr:city" v="Зеленоград"/>
    <tag k="addr:country" v="RU"/>
    <tag k="addr:housenumber" v="2 с1"/>
    <tag k="addr:street" v="1-й Западный проезд"/>
    <tag k="building" v="yes"/>
    <tag k="shop" v="convenience"/>
  </way>
  <way id="84655490" version="5" timestamp="2011-12-12T17:53:04Z" uid="126304" user="TarzanASG" changeset="10100388">
    <nd ref="983405133"/>
    <nd ref="983405297"/>
    <nd ref="983405166"/>
    <nd ref="983405226"/>
    <nd ref="983405133"/>
    <tag k="addr:city" v="Зеленоград"/>
    <tag k="addr:country" v="RU"/>
    <tag k="addr:housenumber" v="2 с1"/>
    <tag k="addr:street" v="1-й Западный проезд"/>
    <tag k="building" v="retail"/>
    <tag k="shop" v="convenience"/>
  </way>
  <way id="84655490" version="6" timestamp="2011-12-14T13:12:12Z" uid="143266" user="Sergey Astakhov" changeset="10115724">
    <nd ref="983405133"/>
    <nd ref="983405297"/>
    <nd ref="983405166"/>
    <nd ref="983405226"/>
    <nd ref="983405133"/>
    <tag k="addr:city" v="Зеленоград"/>
    <tag k="addr:country" v="RU"/>
    <tag k="addr:housenumber" v="2 с1"/>
    <tag k="addr:street" v="1-й Западный проезд"/>
    <tag k="building" v="yes"/>
    <tag k="shop" v="convenience"/>
  </way>
  <way id="84655492" version="1" timestamp="2010-11-09T14:32:38Z" uid="115477" user="wowik" changeset="6327211">
    <nd ref="983405276"/>
    <nd ref="983405246"/>
    <nd ref="983405306"/>
    <nd ref="983405175"/>
    <nd ref="983405276"/>
    <tag k="addr:city" v="Зеленоград"/>
    <tag k="addr:street" v="1-й Западный проезд"/>
    <tag k="building" v="yes"/>
    <tag k="is_in" v="Russia"/>
  </way>
  <way id="84655492" version="2" timestamp="2011-02-09T16:15:18Z" uid="115477" user="wowik" changeset="7237446">
    <nd ref="983405276"/>
    <nd ref="983405246"/>
    <nd ref="983405306"/>
    <nd ref="983405175"/>
    <nd ref="983405276"/>
    <tag k="addr:city" v="Зеленоград"/>
    <tag k="addr:street" v="1-й Западный проезд"/>
    <tag k="building" v="yes"/>
    <tag k="is_in" v="Russia"/>
  </way>
  <way id="84655492" version="3" timestamp="2011-09-13T10:37:30Z" uid="29320" user="Komяpa" changeset="9288237">
    <nd ref="983405276"/>
    <nd ref="983405246"/>
    <nd ref="983405306"/>
    <nd ref="983405175"/>
    <nd ref="983405276"/>
    <tag k="addr:city" v="Зеленоград"/>
    <tag k="addr:country" v="RU"/>
    <tag k="addr:street" v="1-й Западный проезд"/>
    <tag k="building" v="yes"/>
  </way>
  <way id="84655494" version="1" timestamp="2010-11-09T14:32:39Z" uid="115477" user="wowik" changeset="6327211">
    <nd ref="983405292"/>
    <nd ref="983405186"/>
    <nd ref="983405247"/>
    <nd ref="983405308"/>
    <nd ref="983405292"/>
    <tag k="addr:city" v="Зеленоград"/>
    <tag k="addr:street" v="1-й Западный проезд"/>
    <tag k="building" v="yes"/>
    <tag k="is_in" v="Russia"/>
  </way>
  <way id="84655494" version="2" timestamp="2010-12-21T22:45:54Z" uid="380194" user="ac-trash" changeset="6731005">
    <nd ref="983405292"/>
    <nd ref="983405186"/>
    <nd ref="1055522428"/>
    <nd ref="983405247"/>
    <nd ref="983405308"/>
    <nd ref="983405292"/>
    <tag k="addr:city" v="Зеленоград"/>
    <tag k="addr:street" v="1-й Западный проезд"/>
    <tag k="building" v="yes"/>
    <tag k="is_in" v="Russia"/>
    <tag k="landuse" v="construction"/>
  </way>
  <way id="84655494" version="3" timestamp="2011-09-13T10:37:30Z" uid="29320" user="Komяpa" changeset="9288237">
    <nd ref="983405292"/>
    <nd ref="983405186"/>
    <nd ref="1055522428"/>
    <nd ref="983405247"/>
    <nd ref="983405308"/>
    <nd ref="983405292"/>
    <tag k="addr:city" v="Зеленоград"/>
    <tag k="addr:country" v="RU"/>
    <tag k="addr:street" v="1-й Западный проезд"/>
    <tag k="building" v="construction"/>
  </way>
  <way id="84655496" version="1" timestamp="2010-11-09T14:32:39Z" uid="115477" user="wowik" changeset="6327211">
    <nd ref="983405232"/>
    <nd ref="983405322"/>
    <nd ref="983405184"/>
    <nd ref="983405260"/>
    <nd ref="983405232"/>
    <tag k="addr:city" v="Зеленоград"/>
    <tag k="addr:street" v="1-й Западный проезд"/>
    <tag k="building" v="yes"/>
    <tag k="is_in" v="Russia"/>
  </way>
  <way id="84655496" version="2" timestamp="2011-09-13T10:37:31Z" uid="29320" user="Komяpa" changeset="9288237">
    <nd ref="983405232"/>
    <nd ref="983405322"/>
    <nd ref="983405184"/>
    <nd ref="983405260"/>
    <nd ref="983405232"/>
    <tag k="addr:city" v="Зеленоград"/>
    <tag k="addr:country" v="RU"/>
    <tag k="addr:street" v="1-й Западный проезд"/>
    <tag k="building" v="yes"/>
  </way>
  <way id="84655497" version="1" timestamp="2010-11-09T14:32:39Z" uid="115477" user="wowik" changeset="6327211">
    <nd ref="700730846"/>
    <nd ref="983405205"/>
    <nd ref="983405145"/>
    <nd ref="983405275"/>
    <nd ref="983405216"/>
    <nd ref="983405159"/>
    <nd ref="983405270"/>
    <nd ref="983405209"/>
    <nd ref="983405156"/>
    <nd ref="983405290"/>
    <nd ref="983405225"/>
    <tag k="barrier" v="wall"/>
  </way>
  <way id="84655497" version="2" timestamp="2010-12-08T16:28:47Z" uid="380194" user="ac-trash" changeset="6586769">
    <nd ref="700730846"/>
    <nd ref="983405205"/>
    <nd ref="983405145"/>
    <nd ref="983405275"/>
    <nd ref="983405216"/>
    <nd ref="983405159"/>
    <nd ref="1028193968"/>
    <nd ref="1028193999"/>
    <nd ref="983405270"/>
    <nd ref="983405209"/>
    <nd ref="983405156"/>
    <nd ref="983405290"/>
    <nd ref="983405225"/>
    <tag k="barrier" v="wall"/>
  </way>
  <way id="84655497" version="3" timestamp="2011-01-31T11:33:17Z" uid="115477" user="wowik" changeset="7144093">
    <nd ref="700730846"/>
    <nd ref="983405205"/>
    <nd ref="983405145"/>
    <nd ref="983405275"/>
    <nd ref="983405216"/>
    <nd ref="983405159"/>
    <nd ref="1028193999"/>
    <nd ref="983405270"/>
    <nd ref="983405209"/>
    <nd ref="983405156"/>
    <nd ref="983405290"/>
    <nd ref="983405225"/>
    <tag k="barrier" v="wall"/>
  </way>
  <way id="84655498" version="1" timestamp="2010-11-09T14:32:39Z" uid="115477" user="wowik" changeset="6327211">
    <nd ref="983405233"/>
    <nd ref="983405197"/>
    <nd ref="983405254"/>
    <nd ref="983405325"/>
    <nd ref="983405233"/>
    <tag k="addr:city" v="Зеленоград"/>
    <tag k="addr:street" v="1-й Западный проезд"/>
    <tag k="building" v="yes"/>
    <tag k="is_in" v="Russia"/>
  </way>
  <way id="84655498" version="2" timestamp="2011-02-09T16:15:19Z" uid="115477" user="wowik" changeset="7237446">
    <nd ref="983405233"/>
    <nd ref="983405197"/>
    <nd ref="983405254"/>
    <nd ref="983405325"/>
    <nd ref="983405233"/>
    <tag k="addr:city" v="Зеленоград"/>
    <tag k="addr:housenumber" v="10А"/>
    <tag k="addr:street" v="1-й Западный проезд"/>
    <tag k="building" v="yes"/>
    <tag k="is_in" v="Russia"/>
  </way>
  <way id="84655498" version="3" timestamp="2011-09-13T10:21:16Z" uid="29320" user="Komяpa" changeset="9288237">
    <nd ref="983405233"/>
    <nd ref="983405197"/>
    <nd ref="983405254"/>
    <nd ref="983405325"/>
    <nd ref="983405233"/>
    <tag k="addr:city" v="Зеленоград"/>
    <tag k="addr:country" v="RU"/>
    <tag k="addr:housenumber" v="10А"/>
    <tag k="addr:street" v="1-й Западный проезд"/>
    <tag k="building" v="yes"/>
  </way>
  <way id="84655500" version="1" timestamp="2010-11-09T14:32:39Z" uid="115477" user="wowik" changeset="6327211">
    <nd ref="983405258"/>
    <nd ref="983405157"/>
    <nd ref="983405333"/>
    <nd ref="983405211"/>
    <nd ref="983405258"/>
    <tag k="addr:city" v="Зеленоград"/>
    <tag k="amenity" v="commercial"/>
    <tag k="building" v="yes"/>
    <tag k="is_in" v="Russia"/>
    <tag k="shop" v="kiosk"/>
  </way>
  <way id="84655500" version="2" timestamp="2010-12-21T22:45:47Z" uid="380194" user="ac-trash" changeset="6731005">
    <nd ref="983405258"/>
    <nd ref="983405157"/>
    <nd ref="983405333"/>
    <nd ref="983405211"/>
    <nd ref="983405258"/>
    <tag k="addr:city" v="Зеленоград"/>
    <tag k="amenity" v="commercial"/>
    <tag k="building" v="yes"/>
    <tag k="is_in" v="Russia"/>
    <tag k="shop" v="kiosk"/>
  </way>
  <way id="84655500" version="3" timestamp="2011-09-13T10:37:31Z" uid="29320" user="Komяpa" changeset="9288237">
    <nd ref="983405258"/>
    <nd ref="983405157"/>
    <nd ref="983405333"/>
    <nd ref="983405211"/>
    <nd ref="983405258"/>
    <tag k="addr:city" v="Зеленоград"/>
    <tag k="addr:country" v="RU"/>
    <tag k="amenity" v="commercial"/>
    <tag k="building" v="yes"/>
    <tag k="shop" v="kiosk"/>
  </way>
  <way id="84655500" version="4" timestamp="2011-12-13T07:23:36Z" uid="126304" user="TarzanASG" changeset="10105192">
    <nd ref="983405258"/>
    <nd ref="983405157"/>
    <nd ref="983405333"/>
    <nd ref="983405211"/>
    <nd ref="983405258"/>
    <tag k="addr:city" v="Зеленоград"/>
    <tag k="addr:country" v="RU"/>
    <tag k="amenity" v="commercial"/>
    <tag k="building" v="retail"/>
    <tag k="shop" v="kiosk"/>
  </way>
  <way id="84655500" version="5" timestamp="2011-12-14T07:28:37Z" uid="143266" user="Sergey Astakhov" changeset="10113313">
    <nd ref="983405258"/>
    <nd ref="983405157"/>
    <nd ref="983405333"/>
    <nd ref="983405211"/>
    <nd ref="983405258"/>
    <tag k="addr:city" v="Зеленоград"/>
    <tag k="addr:country" v="RU"/>
    <tag k="amenity" v="commercial"/>
    <tag k="building" v="yes"/>
    <tag k="shop" v="kiosk"/>
  </way>
  <way id="84655895" version="1" timestamp="2010-11-09T14:36:42Z" uid="115477" user="wowik" changeset="6327211">
    <nd ref="983406374"/>
    <nd ref="983406386"/>
    <nd ref="983406376"/>
    <nd ref="983406381"/>
    <nd ref="983406374"/>
    <tag k="addr:city" v="Зеленоград"/>
    <tag k="addr:housenumber" v="16с1"/>
    <tag k="addr:street" v="Панфиловский проспект"/>
    <tag k="building" v="yes"/>
    <tag k="is_in" v="Russia"/>
  </way>
  <way id="84655895" version="2" timestamp="2011-01-15T17:27:04Z" uid="206282" user="Amigo" changeset="6979675">
    <nd ref="983406374"/>
    <nd ref="983406386"/>
    <nd ref="983406376"/>
    <nd ref="983406381"/>
    <nd ref="983406374"/>
    <tag k="addr:city" v="Зеленоград"/>
    <tag k="addr:housenumber" v="16 с1"/>
    <tag k="addr:street" v="Панфиловский проспект"/>
    <tag k="building" v="yes"/>
    <tag k="is_in" v="Russia"/>
  </way>
  <way id="84655895" version="3" timestamp="2011-09-13T10:23:11Z" uid="29320" user="Komяpa" changeset="9288237">
    <nd ref="983406374"/>
    <nd ref="983406386"/>
    <nd ref="983406376"/>
    <nd ref="983406381"/>
    <nd ref="983406374"/>
    <tag k="addr:city" v="Зеленоград"/>
    <tag k="addr:country" v="RU"/>
    <tag k="addr:housenumber" v="16 с1"/>
    <tag k="addr:street" v="Панфиловский проспект"/>
    <tag k="building" v="yes"/>
  </way>
  <way id="84655895" version="4" timestamp="2012-03-27T11:36:51Z" uid="481934" user="iWowik" changeset="11115472">
    <nd ref="983406374"/>
    <nd ref="983406386"/>
    <nd ref="983406376"/>
    <nd ref="983406381"/>
    <nd ref="983406374"/>
    <tag k="addr:city" v="Зеленоград"/>
    <tag k="addr:country" v="RU"/>
    <tag k="addr:housenumber" v="16 с1"/>
    <tag k="addr:region" v="Москва"/>
    <tag k="addr:street" v="Панфиловский проспект"/>
    <tag k="building" v="yes"/>
  </way>
  <way id="84655896" version="1" timestamp="2010-11-09T14:36:43Z" uid="115477" user="wowik" changeset="6327211">
    <nd ref="983406379"/>
    <nd ref="983406385"/>
    <nd ref="983406382"/>
    <nd ref="983406375"/>
    <nd ref="983406379"/>
    <tag k="addr:city" v="Зеленоград"/>
    <tag k="addr:street" v="Панфиловский проспект"/>
    <tag k="building" v="yes"/>
    <tag k="is_in" v="Russia"/>
  </way>
  <way id="84655896" version="2" timestamp="2011-09-13T10:37:31Z" uid="29320" user="Komяpa" changeset="9288237">
    <nd ref="983406379"/>
    <nd ref="983406385"/>
    <nd ref="983406382"/>
    <nd ref="983406375"/>
    <nd ref="983406379"/>
    <tag k="addr:city" v="Зеленоград"/>
    <tag k="addr:country" v="RU"/>
    <tag k="addr:street" v="Панфиловский проспект"/>
    <tag k="building" v="yes"/>
  </way>
  <way id="84655896" version="3" timestamp="2012-03-27T11:52:29Z" uid="481934" user="iWowik" changeset="11115472">
    <nd ref="983406379"/>
    <nd ref="983406385"/>
    <nd ref="983406382"/>
    <nd ref="983406375"/>
    <nd ref="983406379"/>
    <tag k="addr:city" v="Зеленоград"/>
    <tag k="addr:country" v="RU"/>
    <tag k="addr:region" v="Москва"/>
    <tag k="addr:street" v="Панфиловский проспект"/>
    <tag k="building" v="yes"/>
  </way>
</osm>
