<?xml version='1.0' encoding='UTF-8'?>
<osm version="0.6" generator="libosmium/2.20.0">
  <way id="84829691" version="3" timestamp="2011-02-03T05:23:53Z" uid="4467" user="Rosscoe" changeset="7171030">
    <nd ref="368979645"/>
    <nd ref="984102748"/>
    <nd ref="984102749"/>
    <nd ref="984102751"/>
    <nd ref="984923417"/>
    <nd ref="176853918"/>
    <tag k="highway" v="secondary"/>
    <tag k="narrow" v="yes"/>
    <tag k="oneway" v="yes"/>
    <tag k="ref" v="C413"/>
  </way>
  <way id="84829691" version="4" timestamp="2011-02-15T12:29:26Z" uid="206929" user="Supt_of_Printing" changeset="7294449">
    <nd ref="368979645"/>
    <nd ref="984102748"/>
    <nd ref="984102749"/>
    <nd ref="984102751"/>
    <nd ref="1154358857"/>
    <nd ref="984923417"/>
    <nd ref="176853918"/>
    <tag k="highway" v="secondary"/>
    <tag k="narrow" v="yes"/>
    <tag k="oneway" v="yes"/>
    <tag k="ref" v="C413"/>
  </way>
  <way id="84829691" version="5" timestamp="2011-08-11T08:43:15Z" uid="11111" user="melb_guy" changeset="8983115">
    <nd ref="368979645"/>
    <nd ref="984102748"/>
    <nd ref="984102749"/>
    <nd ref="984102751"/>
    <nd ref="1154358857"/>
    <nd ref="984923417"/>
    <nd ref="176853918"/>
    <tag k="highway" v="secondary"/>
    <tag k="lanes" v="1"/>
    <tag k="maxspeed" v="60"/>
    <tag k="name" v="Wellington Road"/>
    <tag k="oneway" v="yes"/>
    <tag k="surface" v="asphalt"/>
  </way>
  <way id="84829692" version="5" timestamp="2011-02-03T05:23:51Z" uid="4467" user="Rosscoe" changeset="7171030">
    <nd ref="369631874"/>
    <nd ref="1133437582"/>
    <nd ref="985165728"/>
    <nd ref="984923422"/>
    <nd ref="984923421"/>
    <nd ref="984923420"/>
    <nd ref="984923419"/>
    <nd ref="984923418"/>
    <nd ref="984102760"/>
    <nd ref="984102759"/>
    <nd ref="984102757"/>
    <nd ref="984102756"/>
    <nd ref="641372146"/>
    <tag k="highway" v="secondary"/>
    <tag k="narrow" v="yes"/>
    <tag k="oneway" v="yes"/>
    <tag k="ref" v="C412"/>
  </way>
  <way id="84829692" version="6" timestamp="2011-11-20T10:12:43Z" uid="46482" user="Leon K" changeset="9881965">
    <nd ref="369631874"/>
    <nd ref="1133437582"/>
    <nd ref="985165728"/>
    <nd ref="984923422"/>
    <nd ref="984923421"/>
    <nd ref="984923420"/>
    <nd ref="984923419"/>
    <nd ref="984923418"/>
    <nd ref="984102760"/>
    <nd ref="984102759"/>
    <nd ref="984102757"/>
    <nd ref="984102756"/>
    <nd ref="641372146"/>
    <tag k="highway" v="secondary"/>
    <tag k="name" v="Belgrave - Gembrook Road"/>
    <tag k="narrow" v="yes"/>
    <tag k="oneway" v="yes"/>
    <tag k="ref" v="C412"/>
  </way>
  <way id="84829693" version="3" timestamp="2011-02-03T05:23:47Z" uid="4467" user="Rosscoe" changeset="7171030">
    <nd ref="369631678"/>
    <nd ref="984923426"/>
    <nd ref="985165789"/>
    <nd ref="368979616"/>
    <tag k="highway" v="secondary"/>
    <tag k="narrow" v="yes"/>
    <tag k="oneway" v="yes"/>
    <tag k="ref" v="C412"/>
  </way>
  <way id="84829693" version="4" timestamp="2011-02-15T12:29:20Z" uid="206929" user="Supt_of_Printing" changeset="7294449">
    <nd ref="369631678"/>
    <nd ref="1154358825"/>
    <nd ref="1154358826"/>
    <nd ref="1154358827"/>
    <nd ref="1154358829"/>
    <nd ref="984923426"/>
    <nd ref="985165789"/>
    <nd ref="1154358832"/>
    <nd ref="1154358835"/>
    <nd ref="368979616"/>
    <tag k="highway" v="secondary"/>
    <tag k="narrow" v="yes"/>
    <tag k="oneway" v="yes"/>
    <tag k="ref" v="C412"/>
  </way>
  <way id="84829693" version="5" timestamp="2011-11-20T10:12:44Z" uid="46482" user="Leon K" changeset="9881965">
    <nd ref="369631678"/>
    <nd ref="1154358825"/>
    <nd ref="1154358826"/>
    <nd ref="1154358827"/>
    <nd ref="1154358829"/>
    <nd ref="984923426"/>
    <nd ref="985165789"/>
    <nd ref="1154358832"/>
    <nd ref="1154358835"/>
    <nd ref="368979616"/>
    <tag k="highway" v="secondary"/>
    <tag k="name" v="Belgrave - Gembrook Road"/>
    <tag k="narrow" v="yes"/>
    <tag k="oneway" v="yes"/>
    <tag k="ref" v="C412"/>
  </way>
</osm>
