<?xml version='1.0' encoding='UTF-8'?>
<osm version="0.6" generator="libosmium/2.20.0">
  <way id="84839064" version="1" timestamp="2010-11-11T09:21:50Z" uid="115477" user="wowik" changeset="6342038">
    <nd ref="461009388"/>
    <nd ref="461009388"/>
    <nd ref="985058658"/>
    <nd ref="985058654"/>
    <nd ref="461009522"/>
    <nd ref="984982625"/>
    <nd ref="984982622"/>
    <nd ref="461009630"/>
    <nd ref="461008478"/>
    <nd ref="461008523"/>
    <nd ref="461009388"/>
    <tag k="addr:city" v="Зеленоград"/>
    <tag k="addr:housenumber" v="834В"/>
    <tag k="addr:street" v="8-й Микрорайон"/>
    <tag k="building" v="yes"/>
    <tag k="is_in" v="Russia"/>
  </way>
  <way id="84839064" version="2" timestamp="2010-11-11T21:43:46Z" uid="70696" user="xybot" changeset="6346212">
    <nd ref="461009388"/>
    <nd ref="985058658"/>
    <nd ref="985058654"/>
    <nd ref="461009522"/>
    <nd ref="984982625"/>
    <nd ref="984982622"/>
    <nd ref="461009630"/>
    <nd ref="461008478"/>
    <nd ref="461008523"/>
    <nd ref="461009388"/>
    <tag k="addr:city" v="Зеленоград"/>
    <tag k="addr:housenumber" v="834В"/>
    <tag k="addr:street" v="8-й Микрорайон"/>
    <tag k="building" v="yes"/>
    <tag k="is_in" v="Russia"/>
  </way>
  <way id="84839064" version="3" timestamp="2011-01-25T16:51:00Z" uid="115477" user="wowik" changeset="7085363">
    <nd ref="461009388"/>
    <nd ref="461009522"/>
    <nd ref="984982625"/>
    <nd ref="984982622"/>
    <nd ref="461008478"/>
    <nd ref="461008523"/>
    <nd ref="461009388"/>
    <tag k="addr:city" v="Зеленоград"/>
    <tag k="addr:housenumber" v="834В"/>
    <tag k="addr:street" v="8-й Микрорайон"/>
    <tag k="building" v="yes"/>
    <tag k="is_in" v="Russia"/>
  </way>
  <way id="84839064" version="4" timestamp="2011-06-07T20:45:58Z" uid="133332" user="AMDmi3" changeset="8374030">
    <nd ref="461009388"/>
    <nd ref="461009522"/>
    <nd ref="984982625"/>
    <nd ref="984982622"/>
    <nd ref="461008478"/>
    <nd ref="461008523"/>
    <nd ref="461009388"/>
    <tag k="addr:city" v="Зеленоград"/>
    <tag k="addr:housenumber" v="834В"/>
    <tag k="addr:street" v="8-й микрорайон"/>
    <tag k="building" v="yes"/>
    <tag k="is_in" v="Russia"/>
  </way>
  <way id="84839064" version="5" timestamp="2011-09-13T10:28:55Z" uid="29320" user="Komяpa" changeset="9288237">
    <nd ref="461009388"/>
    <nd ref="461009522"/>
    <nd ref="984982625"/>
    <nd ref="984982622"/>
    <nd ref="461008478"/>
    <nd ref="461008523"/>
    <nd ref="461009388"/>
    <tag k="addr:city" v="Зеленоград"/>
    <tag k="addr:country" v="RU"/>
    <tag k="addr:housenumber" v="834В"/>
    <tag k="addr:street" v="8-й микрорайон"/>
    <tag k="building" v="yes"/>
  </way>
  <way id="84839064" version="6" timestamp="2012-03-27T11:46:33Z" uid="481934" user="iWowik" changeset="11115472">
    <nd ref="461009388"/>
    <nd ref="461009522"/>
    <nd ref="984982625"/>
    <nd ref="984982622"/>
    <nd ref="461008478"/>
    <nd ref="461008523"/>
    <nd ref="461009388"/>
    <tag k="addr:city" v="Зеленоград"/>
    <tag k="addr:country" v="RU"/>
    <tag k="addr:housenumber" v="834В"/>
    <tag k="addr:region" v="Москва"/>
    <tag k="addr:street" v="8-й микрорайон"/>
    <tag k="building" v="yes"/>
  </way>
</osm>
