<?xml version='1.0' encoding='UTF-8'?>
<osm version="0.6" generator="libosmium/2.20.0">
  <way id="84997681" version="1" timestamp="2010-11-12T13:00:58Z" uid="115477" user="wowik" changeset="6349638">
    <nd ref="986530298"/>
    <nd ref="986530280"/>
    <nd ref="986530163"/>
    <nd ref="986530065"/>
    <nd ref="986530237"/>
    <nd ref="986530126"/>
    <nd ref="986530298"/>
    <tag k="addr:city" v="Зеленоград"/>
    <tag k="building" v="yes"/>
  </way>
  <way id="84997681" version="2" timestamp="2012-03-27T08:14:08Z" uid="481934" user="iWowik" changeset="11113698">
    <nd ref="986530298"/>
    <nd ref="986530280"/>
    <nd ref="986530163"/>
    <nd ref="986530065"/>
    <nd ref="986530237"/>
    <nd ref="986530126"/>
    <nd ref="986530298"/>
    <tag k="addr:city" v="Зеленоград"/>
    <tag k="addr:country" v="RU"/>
    <tag k="building" v="yes"/>
  </way>
  <way id="84997681" version="3" timestamp="2012-03-27T11:54:53Z" uid="481934" user="iWowik" changeset="11115472">
    <nd ref="986530298"/>
    <nd ref="986530280"/>
    <nd ref="986530163"/>
    <nd ref="986530065"/>
    <nd ref="986530237"/>
    <nd ref="986530126"/>
    <nd ref="986530298"/>
    <tag k="addr:city" v="Зеленоград"/>
    <tag k="addr:country" v="RU"/>
    <tag k="addr:region" v="Москва"/>
    <tag k="building" v="yes"/>
  </way>
  <way id="84997682" version="1" timestamp="2010-11-12T13:01:00Z" uid="115477" user="wowik" changeset="6349638">
    <nd ref="986530147"/>
    <nd ref="986530225"/>
    <nd ref="986530109"/>
    <nd ref="986530275"/>
    <nd ref="986530160"/>
    <nd ref="516014466"/>
    <tag k="waterway" v="stream"/>
  </way>
  <way id="84997683" version="1" timestamp="2010-11-12T13:01:00Z" uid="115477" user="wowik" changeset="6349638">
    <nd ref="986530159"/>
    <nd ref="986530142"/>
    <nd ref="986530050"/>
    <nd ref="986530221"/>
    <nd ref="986530159"/>
    <tag k="addr:city" v="Зеленоград"/>
    <tag k="building" v="yes"/>
  </way>
  <way id="84997683" version="2" timestamp="2012-03-27T08:13:31Z" uid="481934" user="iWowik" changeset="11113698">
    <nd ref="986530159"/>
    <nd ref="986530142"/>
    <nd ref="986530050"/>
    <nd ref="986530221"/>
    <nd ref="986530159"/>
    <tag k="addr:city" v="Зеленоград"/>
    <tag k="addr:country" v="RU"/>
    <tag k="building" v="yes"/>
  </way>
  <way id="84997683" version="3" timestamp="2012-03-27T11:52:00Z" uid="481934" user="iWowik" changeset="11115472">
    <nd ref="986530159"/>
    <nd ref="986530142"/>
    <nd ref="986530050"/>
    <nd ref="986530221"/>
    <nd ref="986530159"/>
    <tag k="addr:city" v="Зеленоград"/>
    <tag k="addr:country" v="RU"/>
    <tag k="addr:region" v="Москва"/>
    <tag k="building" v="yes"/>
  </way>
  <way id="84997684" version="1" timestamp="2010-11-12T13:01:00Z" uid="115477" user="wowik" changeset="6349638">
    <nd ref="986530116"/>
    <nd ref="986530104"/>
    <nd ref="986530268"/>
    <nd ref="986530150"/>
    <nd ref="986530056"/>
    <nd ref="986530231"/>
    <nd ref="986530116"/>
    <tag k="addr:city" v="Зеленоград"/>
    <tag k="addr:housenumber" v="25с8"/>
    <tag k="addr:street" v="Заводская улица"/>
    <tag k="building" v="yes"/>
  </way>
  <way id="84997684" version="2" timestamp="2011-01-19T17:03:20Z" uid="70696" user="xybot" changeset="7021015">
    <nd ref="986530116"/>
    <nd ref="986530104"/>
    <nd ref="986530268"/>
    <nd ref="986530150"/>
    <nd ref="986530056"/>
    <nd ref="986530231"/>
    <nd ref="986530116"/>
    <tag k="addr:city" v="Зеленоград"/>
    <tag k="addr:housenumber" v="25 с8"/>
    <tag k="addr:street" v="Заводская улица"/>
    <tag k="building" v="yes"/>
  </way>
  <way id="84997684" version="3" timestamp="2012-03-27T08:07:53Z" uid="481934" user="iWowik" changeset="11113698">
    <nd ref="986530116"/>
    <nd ref="986530104"/>
    <nd ref="986530268"/>
    <nd ref="986530150"/>
    <nd ref="986530056"/>
    <nd ref="986530231"/>
    <nd ref="986530116"/>
    <tag k="addr:city" v="Зеленоград"/>
    <tag k="addr:country" v="RU"/>
    <tag k="addr:housenumber" v="25 с8"/>
    <tag k="addr:street" v="Заводская улица"/>
    <tag k="building" v="yes"/>
  </way>
  <way id="84997684" version="4" timestamp="2012-03-27T11:40:16Z" uid="481934" user="iWowik" changeset="11115472">
    <nd ref="986530116"/>
    <nd ref="986530104"/>
    <nd ref="986530268"/>
    <nd ref="986530150"/>
    <nd ref="986530056"/>
    <nd ref="986530231"/>
    <nd ref="986530116"/>
    <tag k="addr:city" v="Зеленоград"/>
    <tag k="addr:country" v="RU"/>
    <tag k="addr:housenumber" v="25 с8"/>
    <tag k="addr:region" v="Москва"/>
    <tag k="addr:street" v="Заводская улица"/>
    <tag k="building" v="yes"/>
  </way>
  <way id="84997685" version="1" timestamp="2010-11-12T13:01:00Z" uid="115477" user="wowik" changeset="6349638">
    <nd ref="986530105"/>
    <nd ref="986530080"/>
    <nd ref="986530254"/>
    <nd ref="986530134"/>
    <nd ref="986530313"/>
    <nd ref="986530216"/>
    <nd ref="986530105"/>
    <tag k="addr:city" v="Зеленоград"/>
    <tag k="addr:housenumber" v="25с2"/>
    <tag k="addr:street" v="Заводская улица"/>
    <tag k="building" v="yes"/>
    <tag k="note" v="не совсем ясно какая улица"/>
  </way>
  <way id="84997685" version="2" timestamp="2011-01-19T17:03:21Z" uid="70696" user="xybot" changeset="7021015">
    <nd ref="986530105"/>
    <nd ref="986530080"/>
    <nd ref="986530254"/>
    <nd ref="986530134"/>
    <nd ref="986530313"/>
    <nd ref="986530216"/>
    <nd ref="986530105"/>
    <tag k="addr:city" v="Зеленоград"/>
    <tag k="addr:housenumber" v="25 с2"/>
    <tag k="addr:street" v="Заводская улица"/>
    <tag k="building" v="yes"/>
    <tag k="note" v="не совсем ясно какая улица"/>
  </way>
  <way id="84997685" version="3" timestamp="2011-01-31T13:03:18Z" uid="115477" user="wowik" changeset="7144820">
    <nd ref="986530105"/>
    <nd ref="986530080"/>
    <nd ref="986530254"/>
    <nd ref="986530134"/>
    <nd ref="986530313"/>
    <nd ref="986530216"/>
    <nd ref="986530105"/>
    <tag k="addr:city" v="Зеленоград"/>
    <tag k="addr:housenumber" v="25 с2"/>
    <tag k="addr:street" v="Заводская улица"/>
    <tag k="building" v="yes"/>
  </way>
  <way id="84997685" version="4" timestamp="2012-03-27T08:07:52Z" uid="481934" user="iWowik" changeset="11113698">
    <nd ref="986530105"/>
    <nd ref="986530080"/>
    <nd ref="986530254"/>
    <nd ref="986530134"/>
    <nd ref="986530313"/>
    <nd ref="986530216"/>
    <nd ref="986530105"/>
    <tag k="addr:city" v="Зеленоград"/>
    <tag k="addr:country" v="RU"/>
    <tag k="addr:housenumber" v="25 с2"/>
    <tag k="addr:street" v="Заводская улица"/>
    <tag k="building" v="yes"/>
  </way>
  <way id="84997685" version="5" timestamp="2012-03-27T11:40:15Z" uid="481934" user="iWowik" changeset="11115472">
    <nd ref="986530105"/>
    <nd ref="986530080"/>
    <nd ref="986530254"/>
    <nd ref="986530134"/>
    <nd ref="986530313"/>
    <nd ref="986530216"/>
    <nd ref="986530105"/>
    <tag k="addr:city" v="Зеленоград"/>
    <tag k="addr:country" v="RU"/>
    <tag k="addr:housenumber" v="25 с2"/>
    <tag k="addr:region" v="Москва"/>
    <tag k="addr:street" v="Заводская улица"/>
    <tag k="building" v="yes"/>
  </way>
  <way id="84997686" version="1" timestamp="2010-11-12T13:01:01Z" uid="115477" user="wowik" changeset="6349638">
    <nd ref="986530095"/>
    <nd ref="986530289"/>
    <nd ref="986530179"/>
    <nd ref="986530074"/>
    <nd ref="986530095"/>
    <tag k="addr:city" v="Зеленоград"/>
    <tag k="building" v="yes"/>
  </way>
  <way id="84997686" version="2" timestamp="2012-03-27T08:13:37Z" uid="481934" user="iWowik" changeset="11113698">
    <nd ref="986530095"/>
    <nd ref="986530289"/>
    <nd ref="986530179"/>
    <nd ref="986530074"/>
    <nd ref="986530095"/>
    <tag k="addr:city" v="Зеленоград"/>
    <tag k="addr:country" v="RU"/>
    <tag k="building" v="yes"/>
  </way>
  <way id="84997686" version="3" timestamp="2012-03-27T11:52:04Z" uid="481934" user="iWowik" changeset="11115472">
    <nd ref="986530095"/>
    <nd ref="986530289"/>
    <nd ref="986530179"/>
    <nd ref="986530074"/>
    <nd ref="986530095"/>
    <tag k="addr:city" v="Зеленоград"/>
    <tag k="addr:country" v="RU"/>
    <tag k="addr:region" v="Москва"/>
    <tag k="building" v="yes"/>
  </way>
  <way id="84997687" version="1" timestamp="2010-11-12T13:01:01Z" uid="115477" user="wowik" changeset="6349638">
    <nd ref="986530186"/>
    <nd ref="986530110"/>
    <nd ref="986530277"/>
    <nd ref="986530161"/>
    <nd ref="986530186"/>
    <tag k="addr:city" v="Зеленоград"/>
    <tag k="building" v="yes"/>
  </way>
  <way id="84997687" version="2" timestamp="2010-11-12T13:02:23Z" uid="115477" user="wowik" changeset="6349638">
    <nd ref="986530186"/>
    <nd ref="986530110"/>
    <nd ref="986530277"/>
    <nd ref="986530161"/>
    <nd ref="986530186"/>
    <tag k="addr:city" v="Зеленоград"/>
    <tag k="addr:housenumber" v="25с9"/>
    <tag k="addr:street" v="Заводская улица"/>
    <tag k="building" v="yes"/>
  </way>
  <way id="84997687" version="3" timestamp="2011-01-19T17:03:21Z" uid="70696" user="xybot" changeset="7021015">
    <nd ref="986530186"/>
    <nd ref="986530110"/>
    <nd ref="986530277"/>
    <nd ref="986530161"/>
    <nd ref="986530186"/>
    <tag k="addr:city" v="Зеленоград"/>
    <tag k="addr:housenumber" v="25 с9"/>
    <tag k="addr:street" v="Заводская улица"/>
    <tag k="building" v="yes"/>
  </way>
  <way id="84997687" version="4" timestamp="2012-03-27T08:07:53Z" uid="481934" user="iWowik" changeset="11113698">
    <nd ref="986530186"/>
    <nd ref="986530110"/>
    <nd ref="986530277"/>
    <nd ref="986530161"/>
    <nd ref="986530186"/>
    <tag k="addr:city" v="Зеленоград"/>
    <tag k="addr:country" v="RU"/>
    <tag k="addr:housenumber" v="25 с9"/>
    <tag k="addr:street" v="Заводская улица"/>
    <tag k="building" v="yes"/>
  </way>
  <way id="84997687" version="5" timestamp="2012-03-27T11:40:17Z" uid="481934" user="iWowik" changeset="11115472">
    <nd ref="986530186"/>
    <nd ref="986530110"/>
    <nd ref="986530277"/>
    <nd ref="986530161"/>
    <nd ref="986530186"/>
    <tag k="addr:city" v="Зеленоград"/>
    <tag k="addr:country" v="RU"/>
    <tag k="addr:housenumber" v="25 с9"/>
    <tag k="addr:region" v="Москва"/>
    <tag k="addr:street" v="Заводская улица"/>
    <tag k="building" v="yes"/>
  </way>
  <way id="84997688" version="1" timestamp="2010-11-12T13:01:01Z" uid="115477" user="wowik" changeset="6349638">
    <nd ref="986530092"/>
    <nd ref="986530282"/>
    <nd ref="986530164"/>
    <nd ref="986530166"/>
    <nd ref="986530068"/>
    <nd ref="986530241"/>
    <nd ref="986530092"/>
    <tag k="addr:city" v="Зеленоград"/>
    <tag k="building" v="yes"/>
  </way>
  <way id="84997688" version="2" timestamp="2012-03-27T08:14:07Z" uid="481934" user="iWowik" changeset="11113698">
    <nd ref="986530092"/>
    <nd ref="986530282"/>
    <nd ref="986530164"/>
    <nd ref="986530166"/>
    <nd ref="986530068"/>
    <nd ref="986530241"/>
    <nd ref="986530092"/>
    <tag k="addr:city" v="Зеленоград"/>
    <tag k="addr:country" v="RU"/>
    <tag k="building" v="yes"/>
  </way>
  <way id="84997688" version="3" timestamp="2012-03-27T11:55:17Z" uid="481934" user="iWowik" changeset="11115472">
    <nd ref="986530092"/>
    <nd ref="986530282"/>
    <nd ref="986530164"/>
    <nd ref="986530166"/>
    <nd ref="986530068"/>
    <nd ref="986530241"/>
    <nd ref="986530092"/>
    <tag k="addr:city" v="Зеленоград"/>
    <tag k="addr:country" v="RU"/>
    <tag k="addr:region" v="Москва"/>
    <tag k="building" v="yes"/>
  </way>
  <way id="84997689" version="1" timestamp="2010-11-12T13:01:01Z" uid="115477" user="wowik" changeset="6349638">
    <nd ref="986530290"/>
    <nd ref="986530106"/>
    <nd ref="986530081"/>
    <nd ref="986530255"/>
    <nd ref="986530291"/>
    <nd ref="986530138"/>
    <nd ref="986530181"/>
    <nd ref="986530270"/>
    <nd ref="986530290"/>
    <tag k="addr:city" v="Зеленоград"/>
    <tag k="addr:housenumber" v="2с2"/>
    <tag k="addr:street" v="проектируемый проезд 707"/>
    <tag k="building" v="yes"/>
  </way>
  <way id="84997689" version="2" timestamp="2010-11-18T17:23:10Z" uid="115477" user="wowik" changeset="6401014">
    <nd ref="986530290"/>
    <nd ref="986530106"/>
    <nd ref="986530081"/>
    <nd ref="986530255"/>
    <nd ref="986530291"/>
    <nd ref="986530138"/>
    <nd ref="986530181"/>
    <nd ref="986530270"/>
    <nd ref="986530290"/>
    <tag k="addr:city" v="Зеленоград"/>
    <tag k="addr:housenumber" v="2с2"/>
    <tag k="addr:street" v="проектируемый проезд N 707"/>
    <tag k="building" v="yes"/>
  </way>
  <way id="84997689" version="3" timestamp="2011-01-14T11:07:16Z" uid="115477" user="wowik" changeset="6966068">
    <nd ref="986530290"/>
    <nd ref="986530106"/>
    <nd ref="986530081"/>
    <nd ref="986530255"/>
    <nd ref="986530291"/>
    <nd ref="986530138"/>
    <nd ref="986530181"/>
    <nd ref="986530270"/>
    <nd ref="986530290"/>
    <tag k="addr:city" v="Зеленоград"/>
    <tag k="addr:housenumber" v="2с2"/>
    <tag k="addr:street" v="Проектируемый проезд N 710"/>
    <tag k="building" v="yes"/>
  </way>
  <way id="84997689" version="4" timestamp="2011-01-19T17:03:22Z" uid="70696" user="xybot" changeset="7021015">
    <nd ref="986530290"/>
    <nd ref="986530106"/>
    <nd ref="986530081"/>
    <nd ref="986530255"/>
    <nd ref="986530291"/>
    <nd ref="986530138"/>
    <nd ref="986530181"/>
    <nd ref="986530270"/>
    <nd ref="986530290"/>
    <tag k="addr:city" v="Зеленоград"/>
    <tag k="addr:housenumber" v="2 с2"/>
    <tag k="addr:street" v="Проектируемый проезд N 710"/>
    <tag k="building" v="yes"/>
  </way>
  <way id="84997689" version="5" timestamp="2011-01-31T12:53:44Z" uid="115477" user="wowik" changeset="7144725">
    <nd ref="986530290"/>
    <nd ref="986530106"/>
    <nd ref="986530081"/>
    <nd ref="986530255"/>
    <nd ref="986530291"/>
    <nd ref="986530138"/>
    <nd ref="986530181"/>
    <nd ref="986530270"/>
    <nd ref="986530290"/>
    <tag k="addr:city" v="Зеленоград"/>
    <tag k="addr:housenumber" v="2 с2"/>
    <tag k="addr:street" v="Проектируемый проезд N 707"/>
    <tag k="building" v="yes"/>
  </way>
  <way id="84997689" version="6" timestamp="2012-03-27T08:07:29Z" uid="481934" user="iWowik" changeset="11113698">
    <nd ref="986530290"/>
    <nd ref="986530106"/>
    <nd ref="986530081"/>
    <nd ref="986530255"/>
    <nd ref="986530291"/>
    <nd ref="986530138"/>
    <nd ref="986530181"/>
    <nd ref="986530270"/>
    <nd ref="986530290"/>
    <tag k="addr:city" v="Зеленоград"/>
    <tag k="addr:country" v="RU"/>
    <tag k="addr:housenumber" v="2 с2"/>
    <tag k="addr:street" v="Проектируемый проезд N 707"/>
    <tag k="building" v="yes"/>
  </way>
  <way id="84997689" version="7" timestamp="2012-03-27T11:38:53Z" uid="481934" user="iWowik" changeset="11115472">
    <nd ref="986530290"/>
    <nd ref="986530106"/>
    <nd ref="986530081"/>
    <nd ref="986530255"/>
    <nd ref="986530291"/>
    <nd ref="986530138"/>
    <nd ref="986530181"/>
    <nd ref="986530270"/>
    <nd ref="986530290"/>
    <tag k="addr:city" v="Зеленоград"/>
    <tag k="addr:country" v="RU"/>
    <tag k="addr:housenumber" v="2 с2"/>
    <tag k="addr:region" v="Москва"/>
    <tag k="addr:street" v="Проектируемый проезд N 707"/>
    <tag k="building" v="yes"/>
  </way>
  <way id="84997690" version="1" timestamp="2010-11-12T13:01:01Z" uid="115477" user="wowik" changeset="6349638">
    <nd ref="986530107"/>
    <nd ref="986530294"/>
    <nd ref="986530183"/>
    <nd ref="986530084"/>
    <nd ref="986530257"/>
    <nd ref="986530139"/>
    <nd ref="986530047"/>
    <nd ref="986530219"/>
    <nd ref="986530107"/>
    <tag k="addr:city" v="Зеленоград"/>
    <tag k="building" v="yes"/>
  </way>
  <way id="84997690" version="2" timestamp="2012-03-27T08:14:37Z" uid="481934" user="iWowik" changeset="11113698">
    <nd ref="986530107"/>
    <nd ref="986530294"/>
    <nd ref="986530183"/>
    <nd ref="986530084"/>
    <nd ref="986530257"/>
    <nd ref="986530139"/>
    <nd ref="986530047"/>
    <nd ref="986530219"/>
    <nd ref="986530107"/>
    <tag k="addr:city" v="Зеленоград"/>
    <tag k="addr:country" v="RU"/>
    <tag k="building" v="yes"/>
  </way>
  <way id="84997690" version="3" timestamp="2012-03-27T11:55:53Z" uid="481934" user="iWowik" changeset="11115472">
    <nd ref="986530107"/>
    <nd ref="986530294"/>
    <nd ref="986530183"/>
    <nd ref="986530084"/>
    <nd ref="986530257"/>
    <nd ref="986530139"/>
    <nd ref="986530047"/>
    <nd ref="986530219"/>
    <nd ref="986530107"/>
    <tag k="addr:city" v="Зеленоград"/>
    <tag k="addr:country" v="RU"/>
    <tag k="addr:region" v="Москва"/>
    <tag k="building" v="yes"/>
  </way>
  <way id="84997691" version="1" timestamp="2010-11-12T13:01:01Z" uid="115477" user="wowik" changeset="6349638">
    <nd ref="986530123"/>
    <nd ref="986530052"/>
    <nd ref="986530223"/>
    <nd ref="986530108"/>
    <nd ref="986530273"/>
    <nd ref="986530158"/>
    <nd ref="986530058"/>
    <nd ref="986530062"/>
    <nd ref="986530234"/>
    <nd ref="986530120"/>
    <nd ref="986530123"/>
    <tag k="natural" v="water"/>
  </way>
  <way id="84997692" version="1" timestamp="2010-11-12T13:01:01Z" uid="115477" user="wowik" changeset="6349638">
    <nd ref="986530259"/>
    <nd ref="986530233"/>
    <nd ref="986530119"/>
    <nd ref="986530292"/>
    <nd ref="986530259"/>
    <tag k="addr:city" v="Зеленоград"/>
    <tag k="addr:housenumber" v="25с1"/>
    <tag k="addr:street" v="Заводская улица"/>
    <tag k="building" v="yes"/>
  </way>
  <way id="84997692" version="2" timestamp="2011-01-19T17:03:22Z" uid="70696" user="xybot" changeset="7021015">
    <nd ref="986530259"/>
    <nd ref="986530233"/>
    <nd ref="986530119"/>
    <nd ref="986530292"/>
    <nd ref="986530259"/>
    <tag k="addr:city" v="Зеленоград"/>
    <tag k="addr:housenumber" v="25 с1"/>
    <tag k="addr:street" v="Заводская улица"/>
    <tag k="building" v="yes"/>
  </way>
  <way id="84997692" version="3" timestamp="2012-03-27T08:07:51Z" uid="481934" user="iWowik" changeset="11113698">
    <nd ref="986530259"/>
    <nd ref="986530233"/>
    <nd ref="986530119"/>
    <nd ref="986530292"/>
    <nd ref="986530259"/>
    <tag k="addr:city" v="Зеленоград"/>
    <tag k="addr:country" v="RU"/>
    <tag k="addr:housenumber" v="25 с1"/>
    <tag k="addr:street" v="Заводская улица"/>
    <tag k="building" v="yes"/>
  </way>
  <way id="84997692" version="4" timestamp="2012-03-27T11:40:13Z" uid="481934" user="iWowik" changeset="11115472">
    <nd ref="986530259"/>
    <nd ref="986530233"/>
    <nd ref="986530119"/>
    <nd ref="986530292"/>
    <nd ref="986530259"/>
    <tag k="addr:city" v="Зеленоград"/>
    <tag k="addr:country" v="RU"/>
    <tag k="addr:housenumber" v="25 с1"/>
    <tag k="addr:region" v="Москва"/>
    <tag k="addr:street" v="Заводская улица"/>
    <tag k="building" v="yes"/>
  </way>
  <way id="84997693" version="1" timestamp="2010-11-12T13:01:01Z" uid="115477" user="wowik" changeset="6349638">
    <nd ref="986530217"/>
    <nd ref="986530177"/>
    <nd ref="986530072"/>
    <nd ref="986530244"/>
    <nd ref="986530217"/>
    <tag k="addr:city" v="Зеленоград"/>
    <tag k="building" v="yes"/>
  </way>
  <way id="84997693" version="2" timestamp="2012-03-27T08:13:42Z" uid="481934" user="iWowik" changeset="11113698">
    <nd ref="986530217"/>
    <nd ref="986530177"/>
    <nd ref="986530072"/>
    <nd ref="986530244"/>
    <nd ref="986530217"/>
    <tag k="addr:city" v="Зеленоград"/>
    <tag k="addr:country" v="RU"/>
    <tag k="building" v="yes"/>
  </way>
  <way id="84997693" version="3" timestamp="2012-03-27T11:52:10Z" uid="481934" user="iWowik" changeset="11115472">
    <nd ref="986530217"/>
    <nd ref="986530177"/>
    <nd ref="986530072"/>
    <nd ref="986530244"/>
    <nd ref="986530217"/>
    <tag k="addr:city" v="Зеленоград"/>
    <tag k="addr:country" v="RU"/>
    <tag k="addr:region" v="Москва"/>
    <tag k="building" v="yes"/>
  </way>
  <way id="84997694" version="1" timestamp="2010-11-12T13:01:02Z" uid="115477" user="wowik" changeset="6349638">
    <nd ref="986530054"/>
    <nd ref="986530240"/>
    <nd ref="986530128"/>
    <nd ref="986530295"/>
    <nd ref="986530184"/>
    <nd ref="986530086"/>
    <nd ref="986530261"/>
    <nd ref="986530144"/>
    <nd ref="986530054"/>
    <tag k="addr:city" v="Зеленоград"/>
    <tag k="addr:housenumber" v="2с1"/>
    <tag k="addr:street" v="проектируемый проезд 707"/>
    <tag k="building" v="yes"/>
  </way>
  <way id="84997694" version="2" timestamp="2010-11-18T17:23:07Z" uid="115477" user="wowik" changeset="6401014">
    <nd ref="986530054"/>
    <nd ref="986530240"/>
    <nd ref="986530128"/>
    <nd ref="986530295"/>
    <nd ref="986530184"/>
    <nd ref="986530086"/>
    <nd ref="986530261"/>
    <nd ref="986530144"/>
    <nd ref="986530054"/>
    <tag k="addr:city" v="Зеленоград"/>
    <tag k="addr:housenumber" v="2с1"/>
    <tag k="addr:street" v="проектируемый проезд N 707"/>
    <tag k="building" v="yes"/>
  </way>
  <way id="84997694" version="3" timestamp="2011-01-14T11:07:10Z" uid="115477" user="wowik" changeset="6966068">
    <nd ref="986530054"/>
    <nd ref="986530240"/>
    <nd ref="986530128"/>
    <nd ref="986530295"/>
    <nd ref="986530184"/>
    <nd ref="986530086"/>
    <nd ref="986530261"/>
    <nd ref="986530144"/>
    <nd ref="986530054"/>
    <tag k="addr:city" v="Зеленоград"/>
    <tag k="addr:housenumber" v="2с1"/>
    <tag k="addr:street" v="Проектируемый проезд N 710"/>
    <tag k="building" v="yes"/>
  </way>
  <way id="84997694" version="4" timestamp="2011-01-19T17:03:23Z" uid="70696" user="xybot" changeset="7021015">
    <nd ref="986530054"/>
    <nd ref="986530240"/>
    <nd ref="986530128"/>
    <nd ref="986530295"/>
    <nd ref="986530184"/>
    <nd ref="986530086"/>
    <nd ref="986530261"/>
    <nd ref="986530144"/>
    <nd ref="986530054"/>
    <tag k="addr:city" v="Зеленоград"/>
    <tag k="addr:housenumber" v="2 с1"/>
    <tag k="addr:street" v="Проектируемый проезд N 710"/>
    <tag k="building" v="yes"/>
  </way>
  <way id="84997694" version="5" timestamp="2011-01-31T12:53:44Z" uid="115477" user="wowik" changeset="7144725">
    <nd ref="986530054"/>
    <nd ref="986530240"/>
    <nd ref="986530128"/>
    <nd ref="986530295"/>
    <nd ref="986530184"/>
    <nd ref="986530086"/>
    <nd ref="986530261"/>
    <nd ref="986530144"/>
    <nd ref="986530054"/>
    <tag k="addr:city" v="Зеленоград"/>
    <tag k="addr:housenumber" v="2 с1"/>
    <tag k="addr:street" v="Проектируемый проезд N 707"/>
    <tag k="building" v="yes"/>
  </way>
  <way id="84997694" version="6" timestamp="2012-03-27T08:07:28Z" uid="481934" user="iWowik" changeset="11113698">
    <nd ref="986530054"/>
    <nd ref="986530240"/>
    <nd ref="986530128"/>
    <nd ref="986530295"/>
    <nd ref="986530184"/>
    <nd ref="986530086"/>
    <nd ref="986530261"/>
    <nd ref="986530144"/>
    <nd ref="986530054"/>
    <tag k="addr:city" v="Зеленоград"/>
    <tag k="addr:country" v="RU"/>
    <tag k="addr:housenumber" v="2 с1"/>
    <tag k="addr:street" v="Проектируемый проезд N 707"/>
    <tag k="building" v="yes"/>
  </way>
  <way id="84997694" version="7" timestamp="2012-03-27T11:38:42Z" uid="481934" user="iWowik" changeset="11115472">
    <nd ref="986530054"/>
    <nd ref="986530240"/>
    <nd ref="986530128"/>
    <nd ref="986530295"/>
    <nd ref="986530184"/>
    <nd ref="986530086"/>
    <nd ref="986530261"/>
    <nd ref="986530144"/>
    <nd ref="986530054"/>
    <tag k="addr:city" v="Зеленоград"/>
    <tag k="addr:country" v="RU"/>
    <tag k="addr:housenumber" v="2 с1"/>
    <tag k="addr:region" v="Москва"/>
    <tag k="addr:street" v="Проектируемый проезд N 707"/>
    <tag k="building" v="yes"/>
  </way>
  <way id="84997695" version="1" timestamp="2010-11-12T13:01:02Z" uid="115477" user="wowik" changeset="6349638">
    <nd ref="986530315"/>
    <nd ref="986530288"/>
    <nd ref="986530175"/>
    <nd ref="986530069"/>
    <nd ref="986530243"/>
    <nd ref="986530131"/>
    <nd ref="986530310"/>
    <nd ref="986530214"/>
    <nd ref="986530088"/>
    <nd ref="986530089"/>
    <nd ref="986530263"/>
    <nd ref="986530147"/>
    <nd ref="986530315"/>
    <tag k="natural" v="water"/>
  </way>
  <way id="84997696" version="1" timestamp="2010-11-12T13:01:02Z" uid="115477" user="wowik" changeset="6349638">
    <nd ref="986530266"/>
    <nd ref="986530252"/>
    <nd ref="986530132"/>
    <nd ref="986530312"/>
    <nd ref="986530266"/>
    <tag k="addr:city" v="Зеленоград"/>
    <tag k="building" v="yes"/>
  </way>
  <way id="84997696" version="2" timestamp="2012-03-27T08:13:24Z" uid="481934" user="iWowik" changeset="11113698">
    <nd ref="986530266"/>
    <nd ref="986530252"/>
    <nd ref="986530132"/>
    <nd ref="986530312"/>
    <nd ref="986530266"/>
    <tag k="addr:city" v="Зеленоград"/>
    <tag k="addr:country" v="RU"/>
    <tag k="building" v="yes"/>
  </way>
  <way id="84997696" version="3" timestamp="2012-03-27T11:53:52Z" uid="481934" user="iWowik" changeset="11115472">
    <nd ref="986530266"/>
    <nd ref="986530252"/>
    <nd ref="986530132"/>
    <nd ref="986530312"/>
    <nd ref="986530266"/>
    <tag k="addr:city" v="Зеленоград"/>
    <tag k="addr:country" v="RU"/>
    <tag k="addr:region" v="Москва"/>
    <tag k="building" v="yes"/>
  </way>
</osm>
