<?xml version='1.0' encoding='UTF-8'?>
<osm version="0.6" generator="libosmium/2.20.0">
  <way id="85046428" version="1" timestamp="2010-11-12T18:49:30Z" uid="115477" user="wowik" changeset="6352227">
    <nd ref="986861893"/>
    <nd ref="986863721"/>
    <nd ref="986862869"/>
    <nd ref="986862557"/>
    <nd ref="986861893"/>
    <tag k="addr:city" v="Зеленоград"/>
    <tag k="addr:suburb" v="Малино"/>
    <tag k="building" v="yes"/>
  </way>
  <way id="85046432" version="1" timestamp="2010-11-12T18:49:31Z" uid="115477" user="wowik" changeset="6352227">
    <nd ref="986863599"/>
    <nd ref="986863192"/>
    <nd ref="986863372"/>
    <nd ref="986861960"/>
    <nd ref="986862102"/>
    <nd ref="986864050"/>
    <nd ref="986863599"/>
    <tag k="addr:city" v="Зеленоград"/>
    <tag k="addr:housenumber" v="21"/>
    <tag k="addr:street" v="Лесная улица"/>
    <tag k="addr:suburb" v="Малино"/>
    <tag k="building" v="yes"/>
  </way>
  <way id="85046432" version="2" timestamp="2011-01-13T16:25:49Z" uid="115477" user="wowik" changeset="6958660">
    <nd ref="986863599"/>
    <nd ref="986863192"/>
    <nd ref="986863372"/>
    <nd ref="986861960"/>
    <nd ref="986862102"/>
    <nd ref="986864050"/>
    <nd ref="986863599"/>
    <tag k="addr:city" v="Зеленоград"/>
    <tag k="addr:housenumber" v="21"/>
    <tag k="addr:street" v="Лесная улица"/>
    <tag k="addr:suburb" v="Малино"/>
    <tag k="building" v="yes"/>
    <tag k="building:use" v="residential"/>
  </way>
  <way id="85046436" version="1" timestamp="2010-11-12T18:49:31Z" uid="115477" user="wowik" changeset="6352227">
    <nd ref="986862845"/>
    <nd ref="986864041"/>
    <nd ref="986863590"/>
    <nd ref="986862422"/>
    <nd ref="986862684"/>
    <nd ref="986862100"/>
    <nd ref="986862845"/>
    <tag k="addr:city" v="Зеленоград"/>
    <tag k="addr:housenumber" v="22"/>
    <tag k="addr:street" v="Первомайская улица"/>
    <tag k="addr:suburb" v="Малино"/>
    <tag k="building" v="yes"/>
  </way>
  <way id="85046436" version="2" timestamp="2011-01-13T16:27:10Z" uid="115477" user="wowik" changeset="6958660">
    <nd ref="986862845"/>
    <nd ref="986864041"/>
    <nd ref="986863590"/>
    <nd ref="986862422"/>
    <nd ref="986862684"/>
    <nd ref="986862100"/>
    <nd ref="986862845"/>
    <tag k="addr:city" v="Зеленоград"/>
    <tag k="addr:housenumber" v="22"/>
    <tag k="addr:street" v="Первомайская улица"/>
    <tag k="addr:suburb" v="Малино"/>
    <tag k="building" v="yes"/>
    <tag k="building:use" v="residential"/>
  </way>
  <way id="85046439" version="1" timestamp="2010-11-12T18:49:33Z" uid="115477" user="wowik" changeset="6352227">
    <nd ref="986862500"/>
    <nd ref="986863503"/>
    <nd ref="986863125"/>
    <nd ref="986862054"/>
    <nd ref="986862500"/>
    <tag k="addr:city" v="Зеленоград"/>
    <tag k="addr:suburb" v="Малино"/>
    <tag k="building" v="yes"/>
  </way>
  <way id="85046443" version="1" timestamp="2010-11-12T18:49:33Z" uid="115477" user="wowik" changeset="6352227">
    <nd ref="986862701"/>
    <nd ref="986862426"/>
    <nd ref="986863400"/>
    <nd ref="986862981"/>
    <nd ref="986862701"/>
    <tag k="addr:city" v="Зеленоград"/>
    <tag k="addr:suburb" v="Малино"/>
    <tag k="building" v="yes"/>
  </way>
  <way id="85046445" version="1" timestamp="2010-11-12T18:49:34Z" uid="115477" user="wowik" changeset="6352227">
    <nd ref="986863369"/>
    <nd ref="986862871"/>
    <nd ref="986862296"/>
    <nd ref="986862144"/>
    <nd ref="986863616"/>
    <nd ref="986862721"/>
    <nd ref="986863403"/>
    <nd ref="986862261"/>
    <nd ref="986861940"/>
    <nd ref="986862817"/>
    <nd ref="986863369"/>
    <tag k="abandoned" v="yes"/>
    <tag k="addr:city" v="Зеленоград"/>
    <tag k="addr:suburb" v="Малино"/>
    <tag k="building" v="yes"/>
  </way>
  <way id="85046445" version="2" timestamp="2011-01-13T17:42:30Z" uid="115477" user="wowik" changeset="6959469">
    <nd ref="986863369"/>
    <nd ref="986862871"/>
    <nd ref="986862296"/>
    <nd ref="986862144"/>
    <nd ref="986863616"/>
    <nd ref="986862721"/>
    <nd ref="986863403"/>
    <nd ref="986862261"/>
    <nd ref="986861940"/>
    <nd ref="986862817"/>
    <nd ref="986863369"/>
    <tag k="abandoned" v="yes"/>
    <tag k="addr:city" v="Зеленоград"/>
    <tag k="addr:housenumber" v="9"/>
    <tag k="addr:street" v="Лесная улица"/>
    <tag k="addr:suburb" v="Малино"/>
    <tag k="building" v="yes"/>
  </way>
  <way id="85046452" version="1" timestamp="2010-11-12T18:49:35Z" uid="115477" user="wowik" changeset="6352227">
    <nd ref="986863705"/>
    <nd ref="986863284"/>
    <nd ref="986862195"/>
    <nd ref="986864211"/>
    <nd ref="986863705"/>
    <tag k="addr:city" v="Зеленоград"/>
    <tag k="building" v="yes"/>
  </way>
  <way id="85046454" version="1" timestamp="2010-11-12T18:49:36Z" uid="115477" user="wowik" changeset="6352227">
    <nd ref="986862779"/>
    <nd ref="986862491"/>
    <nd ref="986863495"/>
    <nd ref="986863105"/>
    <nd ref="986862779"/>
    <tag k="addr:city" v="Зеленоград"/>
    <tag k="addr:housenumber" v="42"/>
    <tag k="addr:street" v="Лесная улица"/>
    <tag k="addr:suburb" v="Малино"/>
    <tag k="building" v="yes"/>
  </way>
  <way id="85046454" version="2" timestamp="2011-01-25T14:28:09Z" uid="115477" user="wowik" changeset="7084094">
    <nd ref="986862779"/>
    <nd ref="986862491"/>
    <nd ref="986863495"/>
    <nd ref="986863105"/>
    <nd ref="986862779"/>
    <tag k="addr:city" v="Зеленоград"/>
    <tag k="addr:housenumber" v="20"/>
    <tag k="addr:street" v="Лесная улица"/>
    <tag k="addr:suburb" v="Малино"/>
    <tag k="building" v="yes"/>
  </way>
  <way id="85046458" version="1" timestamp="2010-11-12T18:49:36Z" uid="115477" user="wowik" changeset="6352227">
    <nd ref="986864011"/>
    <nd ref="986863609"/>
    <nd ref="986863807"/>
    <nd ref="986862855"/>
    <nd ref="986862293"/>
    <nd ref="986862666"/>
    <nd ref="986862412"/>
    <nd ref="986863356"/>
    <nd ref="986864011"/>
    <tag k="addr:city" v="Зеленоград"/>
    <tag k="addr:housenumber" v="10"/>
    <tag k="addr:street" v="Первомайская улица"/>
    <tag k="addr:suburb" v="Малино"/>
    <tag k="building" v="yes"/>
  </way>
  <way id="85046458" version="2" timestamp="2011-01-13T16:27:43Z" uid="115477" user="wowik" changeset="6958660">
    <nd ref="986864011"/>
    <nd ref="986863609"/>
    <nd ref="986863807"/>
    <nd ref="986862855"/>
    <nd ref="986862293"/>
    <nd ref="986862666"/>
    <nd ref="986862412"/>
    <nd ref="986863356"/>
    <nd ref="986864011"/>
    <tag k="addr:city" v="Зеленоград"/>
    <tag k="addr:housenumber" v="10"/>
    <tag k="addr:street" v="Первомайская улица"/>
    <tag k="addr:suburb" v="Малино"/>
    <tag k="building" v="yes"/>
    <tag k="building:use" v="residential"/>
  </way>
  <way id="85046462" version="1" timestamp="2010-11-12T18:49:38Z" uid="115477" user="wowik" changeset="6352227">
    <nd ref="986864155"/>
    <nd ref="986862730"/>
    <nd ref="986862453"/>
    <nd ref="986863411"/>
    <nd ref="986864155"/>
    <tag k="addr:city" v="Зеленоград"/>
    <tag k="addr:housenumber" v="30"/>
    <tag k="addr:street" v="Первомайская улица"/>
    <tag k="addr:suburb" v="Малино"/>
    <tag k="building" v="yes"/>
  </way>
  <way id="85046464" version="1" timestamp="2010-11-12T18:49:38Z" uid="115477" user="wowik" changeset="6352227">
    <nd ref="986864162"/>
    <nd ref="986862738"/>
    <nd ref="986862455"/>
    <nd ref="986863438"/>
    <nd ref="986864162"/>
    <tag k="addr:city" v="Зеленоград"/>
    <tag k="addr:suburb" v="Малино"/>
    <tag k="building" v="yes"/>
  </way>
  <way id="85046466" version="1" timestamp="2010-11-12T18:49:39Z" uid="115477" user="wowik" changeset="6352227">
    <nd ref="986862905"/>
    <nd ref="986862613"/>
    <nd ref="986863665"/>
    <nd ref="986863273"/>
    <nd ref="986862905"/>
    <tag k="addr:city" v="Зеленоград"/>
    <tag k="addr:suburb" v="Малино"/>
    <tag k="building" v="yes"/>
  </way>
  <way id="85046471" version="1" timestamp="2010-11-12T18:49:40Z" uid="115477" user="wowik" changeset="6352227">
    <nd ref="986863619"/>
    <nd ref="986862439"/>
    <nd ref="986862148"/>
    <nd ref="986862988"/>
    <nd ref="986863619"/>
    <tag k="addr:city" v="Зеленоград"/>
    <tag k="addr:housenumber" v="36"/>
    <tag k="addr:street" v="Первомайская улица"/>
    <tag k="addr:suburb" v="Малино"/>
    <tag k="building" v="yes"/>
  </way>
  <way id="85046471" version="2" timestamp="2010-11-25T22:13:59Z" uid="115477" user="wowik" changeset="6458208">
    <nd ref="986863619"/>
    <nd ref="986862439"/>
    <nd ref="986862148"/>
    <nd ref="986862988"/>
    <nd ref="986863619"/>
    <tag k="addr:city" v="Зеленоград"/>
    <tag k="addr:housenumber" v="36"/>
    <tag k="addr:street" v="Первомайская улица"/>
    <tag k="building" v="yes"/>
  </way>
  <way id="85046471" version="3" timestamp="2011-01-13T16:25:55Z" uid="115477" user="wowik" changeset="6958660">
    <nd ref="986863619"/>
    <nd ref="986862439"/>
    <nd ref="986862148"/>
    <nd ref="986862988"/>
    <nd ref="986863619"/>
    <tag k="addr:city" v="Зеленоград"/>
    <tag k="addr:housenumber" v="36"/>
    <tag k="addr:street" v="Первомайская улица"/>
    <tag k="building" v="yes"/>
    <tag k="building:use" v="residential"/>
  </way>
  <way id="85046471" version="4" timestamp="2011-01-17T15:14:10Z" uid="115477" user="wowik" changeset="7000395">
    <nd ref="986863619"/>
    <nd ref="986862439"/>
    <nd ref="986862148"/>
    <nd ref="986862988"/>
    <nd ref="986863619"/>
    <tag k="addr:city" v="Зеленоград"/>
    <tag k="addr:housenumber" v="36"/>
    <tag k="addr:street" v="Первомайская улица"/>
    <tag k="addr:suburb" v="Малино"/>
    <tag k="building" v="yes"/>
    <tag k="building:use" v="residential"/>
  </way>
  <way id="85046473" version="1" timestamp="2010-11-12T18:49:40Z" uid="115477" user="wowik" changeset="6352227">
    <nd ref="986863953"/>
    <nd ref="986863510"/>
    <nd ref="986862373"/>
    <nd ref="986862057"/>
    <nd ref="986863953"/>
    <tag k="addr:city" v="Зеленоград"/>
    <tag k="addr:housenumber" v="2"/>
    <tag k="addr:street" v="Лесная улица"/>
    <tag k="addr:suburb" v="Малино"/>
    <tag k="building" v="yes"/>
  </way>
  <way id="85046473" version="2" timestamp="2011-01-13T16:26:57Z" uid="115477" user="wowik" changeset="6958660">
    <nd ref="986863953"/>
    <nd ref="986863510"/>
    <nd ref="986862373"/>
    <nd ref="986862057"/>
    <nd ref="986863953"/>
    <tag k="addr:city" v="Зеленоград"/>
    <tag k="addr:housenumber" v="2"/>
    <tag k="addr:street" v="Лесная улица"/>
    <tag k="addr:suburb" v="Малино"/>
    <tag k="building" v="yes"/>
    <tag k="building:use" v="residential"/>
  </way>
  <way id="85046477" version="1" timestamp="2010-11-12T18:49:41Z" uid="115477" user="wowik" changeset="6352227">
    <nd ref="986863418"/>
    <nd ref="986863020"/>
    <nd ref="986862024"/>
    <nd ref="986862091"/>
    <nd ref="986862652"/>
    <nd ref="986863854"/>
    <nd ref="986863418"/>
    <tag k="addr:city" v="Зеленоград"/>
    <tag k="addr:housenumber" v="18"/>
    <tag k="addr:street" v="Первомайская улица"/>
    <tag k="addr:suburb" v="Малино"/>
    <tag k="building" v="yes"/>
  </way>
  <way id="85046477" version="2" timestamp="2011-01-13T16:24:24Z" uid="115477" user="wowik" changeset="6958660">
    <nd ref="986863418"/>
    <nd ref="986863020"/>
    <nd ref="986862024"/>
    <nd ref="986862091"/>
    <nd ref="986862652"/>
    <nd ref="986863854"/>
    <nd ref="986863418"/>
    <tag k="addr:city" v="Зеленоград"/>
    <tag k="addr:housenumber" v="18"/>
    <tag k="addr:street" v="Первомайская улица"/>
    <tag k="addr:suburb" v="Малино"/>
    <tag k="building" v="yes"/>
    <tag k="building:use" v="residential"/>
  </way>
  <way id="85046479" version="1" timestamp="2010-11-12T18:49:41Z" uid="115477" user="wowik" changeset="6352227">
    <nd ref="986862042"/>
    <nd ref="986862888"/>
    <nd ref="986862604"/>
    <nd ref="986863662"/>
    <nd ref="986862042"/>
    <tag k="addr:city" v="Зеленоград"/>
    <tag k="addr:housenumber" v="28"/>
    <tag k="addr:street" v="Первомайская улица"/>
    <tag k="addr:suburb" v="Малино"/>
    <tag k="building" v="yes"/>
  </way>
  <way id="85046485" version="1" timestamp="2010-11-12T18:49:43Z" uid="115477" user="wowik" changeset="6352227">
    <nd ref="986862234"/>
    <nd ref="986861906"/>
    <nd ref="986862799"/>
    <nd ref="986862509"/>
    <nd ref="986862234"/>
    <tag k="addr:city" v="Зеленоград"/>
    <tag k="building" v="yes"/>
  </way>
  <way id="85046488" version="1" timestamp="2010-11-12T18:49:43Z" uid="115477" user="wowik" changeset="6352227">
    <nd ref="986862094"/>
    <nd ref="986862939"/>
    <nd ref="986862655"/>
    <nd ref="986863748"/>
    <nd ref="986862094"/>
    <tag k="addr:city" v="Зеленоград"/>
    <tag k="building" v="yes"/>
  </way>
  <way id="85046490" version="1" timestamp="2010-11-12T18:49:44Z" uid="115477" user="wowik" changeset="6352227">
    <nd ref="986863604"/>
    <nd ref="986863203"/>
    <nd ref="986862134"/>
    <nd ref="986864075"/>
    <nd ref="986863604"/>
    <tag k="addr:city" v="Зеленоград"/>
    <tag k="building" v="yes"/>
  </way>
  <way id="85046492" version="1" timestamp="2010-11-12T18:49:44Z" uid="115477" user="wowik" changeset="6352227">
    <nd ref="986863845"/>
    <nd ref="986862564"/>
    <nd ref="986862298"/>
    <nd ref="986863231"/>
    <nd ref="986863845"/>
    <tag k="addr:city" v="Зеленоград"/>
    <tag k="addr:housenumber" v="32"/>
    <tag k="addr:street" v="Первомайская улица"/>
    <tag k="addr:suburb" v="Малино"/>
    <tag k="building" v="yes"/>
  </way>
  <way id="85046492" version="2" timestamp="2010-11-25T22:13:59Z" uid="115477" user="wowik" changeset="6458208">
    <nd ref="986863845"/>
    <nd ref="986862564"/>
    <nd ref="986862298"/>
    <nd ref="986863231"/>
    <nd ref="986863845"/>
    <tag k="addr:city" v="Зеленоград"/>
    <tag k="addr:housenumber" v="32"/>
    <tag k="addr:street" v="Первомайская улица"/>
    <tag k="building" v="yes"/>
  </way>
  <way id="85046492" version="3" timestamp="2011-01-17T15:13:53Z" uid="115477" user="wowik" changeset="7000395">
    <nd ref="986863845"/>
    <nd ref="986862564"/>
    <nd ref="986862298"/>
    <nd ref="986863231"/>
    <nd ref="986863845"/>
    <tag k="addr:city" v="Зеленоград"/>
    <tag k="addr:housenumber" v="32"/>
    <tag k="addr:street" v="Первомайская улица"/>
    <tag k="addr:suburb" v="Малино"/>
    <tag k="building" v="yes"/>
  </way>
  <way id="85046497" version="1" timestamp="2010-11-12T18:49:45Z" uid="115477" user="wowik" changeset="6352227">
    <nd ref="986863029"/>
    <nd ref="986862752"/>
    <nd ref="986863876"/>
    <nd ref="986863454"/>
    <nd ref="986863029"/>
    <tag k="addr:city" v="Зеленоград"/>
    <tag k="addr:housenumber" v="12"/>
    <tag k="addr:street" v="Лесная улица"/>
    <tag k="addr:suburb" v="Малино"/>
    <tag k="building" v="yes"/>
  </way>
  <way id="85046497" version="2" timestamp="2011-01-13T16:27:14Z" uid="115477" user="wowik" changeset="6958660">
    <nd ref="986863029"/>
    <nd ref="986862752"/>
    <nd ref="986863876"/>
    <nd ref="986863454"/>
    <nd ref="986863029"/>
    <tag k="addr:city" v="Зеленоград"/>
    <tag k="addr:housenumber" v="12"/>
    <tag k="addr:street" v="Лесная улица"/>
    <tag k="addr:suburb" v="Малино"/>
    <tag k="building" v="yes"/>
    <tag k="building:use" v="residential"/>
  </way>
  <way id="85046499" version="1" timestamp="2010-11-12T18:49:45Z" uid="115477" user="wowik" changeset="6352227">
    <nd ref="986863718"/>
    <nd ref="986863313"/>
    <nd ref="986862201"/>
    <nd ref="986861864"/>
    <nd ref="986863718"/>
    <tag k="addr:city" v="Зеленоград"/>
    <tag k="addr:housenumber" v="17"/>
    <tag k="addr:street" v="Лесная улица"/>
    <tag k="addr:suburb" v="Малино"/>
    <tag k="building" v="yes"/>
  </way>
  <way id="85046499" version="2" timestamp="2011-01-13T16:26:30Z" uid="115477" user="wowik" changeset="6958660">
    <nd ref="986863718"/>
    <nd ref="986863313"/>
    <nd ref="986862201"/>
    <nd ref="986861864"/>
    <nd ref="986863718"/>
    <tag k="addr:city" v="Зеленоград"/>
    <tag k="addr:housenumber" v="17"/>
    <tag k="addr:street" v="Лесная улица"/>
    <tag k="addr:suburb" v="Малино"/>
    <tag k="building" v="yes"/>
    <tag k="building:use" v="residential"/>
  </way>
  <way id="85046503" version="1" timestamp="2010-11-12T18:49:46Z" uid="115477" user="wowik" changeset="6352227">
    <nd ref="986863990"/>
    <nd ref="986863017"/>
    <nd ref="986862729"/>
    <nd ref="986863816"/>
    <nd ref="986863990"/>
    <tag k="addr:city" v="Зеленоград"/>
    <tag k="addr:housenumber" v="38"/>
    <tag k="addr:street" v="Первомайская улица"/>
    <tag k="addr:suburb" v="Малино"/>
    <tag k="building" v="yes"/>
  </way>
  <way id="85046503" version="2" timestamp="2010-11-25T22:14:00Z" uid="115477" user="wowik" changeset="6458208">
    <nd ref="986863990"/>
    <nd ref="986863017"/>
    <nd ref="986862729"/>
    <nd ref="986863816"/>
    <nd ref="986863990"/>
    <tag k="addr:city" v="Зеленоград"/>
    <tag k="addr:housenumber" v="38"/>
    <tag k="addr:street" v="Первомайская улица"/>
    <tag k="building" v="yes"/>
  </way>
  <way id="85046503" version="3" timestamp="2011-01-13T16:27:49Z" uid="115477" user="wowik" changeset="6958660">
    <nd ref="986863990"/>
    <nd ref="986863017"/>
    <nd ref="986862729"/>
    <nd ref="986863816"/>
    <nd ref="986863990"/>
    <tag k="addr:city" v="Зеленоград"/>
    <tag k="addr:housenumber" v="38"/>
    <tag k="addr:street" v="Первомайская улица"/>
    <tag k="building" v="yes"/>
    <tag k="building:use" v="residential"/>
  </way>
  <way id="85046503" version="4" timestamp="2011-01-17T15:14:23Z" uid="115477" user="wowik" changeset="7000395">
    <nd ref="986863990"/>
    <nd ref="986863017"/>
    <nd ref="986862729"/>
    <nd ref="986863816"/>
    <nd ref="986863990"/>
    <tag k="addr:city" v="Зеленоград"/>
    <tag k="addr:housenumber" v="38"/>
    <tag k="addr:street" v="Первомайская улица"/>
    <tag k="addr:suburb" v="Малино"/>
    <tag k="building" v="yes"/>
    <tag k="building:use" v="residential"/>
  </way>
  <way id="85046507" version="1" timestamp="2010-11-12T18:49:47Z" uid="115477" user="wowik" changeset="6352227">
    <nd ref="986862424"/>
    <nd ref="986862128"/>
    <nd ref="986862973"/>
    <nd ref="986862688"/>
    <nd ref="986862424"/>
    <tag k="addr:city" v="Зеленоград"/>
    <tag k="addr:suburb" v="Малино"/>
    <tag k="building" v="yes"/>
  </way>
  <way id="85046510" version="1" timestamp="2010-11-12T18:49:47Z" uid="115477" user="wowik" changeset="6352227">
    <nd ref="986862285"/>
    <nd ref="986863195"/>
    <nd ref="986862852"/>
    <nd ref="986864069"/>
    <nd ref="986862285"/>
    <tag k="addr:city" v="Зеленоград"/>
    <tag k="addr:suburb" v="Малино"/>
    <tag k="building" v="yes"/>
  </way>
  <way id="85046513" version="1" timestamp="2010-11-12T18:49:48Z" uid="115477" user="wowik" changeset="6352227">
    <nd ref="986862835"/>
    <nd ref="986862524"/>
    <nd ref="986863566"/>
    <nd ref="986863180"/>
    <nd ref="986862835"/>
    <tag k="addr:city" v="Зеленоград"/>
    <tag k="addr:housenumber" v="8"/>
    <tag k="addr:street" v="Первомайская улица"/>
    <tag k="addr:suburb" v="Малино"/>
    <tag k="building" v="yes"/>
  </way>
  <way id="85046513" version="2" timestamp="2011-01-13T16:24:20Z" uid="115477" user="wowik" changeset="6958660">
    <nd ref="986862835"/>
    <nd ref="986862524"/>
    <nd ref="986863566"/>
    <nd ref="986863180"/>
    <nd ref="986862835"/>
    <tag k="addr:city" v="Зеленоград"/>
    <tag k="addr:housenumber" v="8"/>
    <tag k="addr:street" v="Первомайская улица"/>
    <tag k="addr:suburb" v="Малино"/>
    <tag k="building" v="yes"/>
    <tag k="building:use" v="residential"/>
  </way>
  <way id="85046516" version="1" timestamp="2010-11-12T18:49:48Z" uid="115477" user="wowik" changeset="6352227">
    <nd ref="986862687"/>
    <nd ref="986863798"/>
    <nd ref="986863376"/>
    <nd ref="986862691"/>
    <nd ref="986862138"/>
    <nd ref="986862270"/>
    <nd ref="986862687"/>
    <tag k="addr:city" v="Зеленоград"/>
    <tag k="addr:housenumber" v="6сА"/>
    <tag k="addr:street" v="Первомайская улица"/>
    <tag k="addr:suburb" v="Малино"/>
    <tag k="building" v="yes"/>
  </way>
  <way id="85046516" version="2" timestamp="2011-01-13T16:27:36Z" uid="115477" user="wowik" changeset="6958660">
    <nd ref="986862687"/>
    <nd ref="986863798"/>
    <nd ref="986863376"/>
    <nd ref="986862691"/>
    <nd ref="986862138"/>
    <nd ref="986862270"/>
    <nd ref="986862687"/>
    <tag k="addr:city" v="Зеленоград"/>
    <tag k="addr:housenumber" v="6сА"/>
    <tag k="addr:street" v="Первомайская улица"/>
    <tag k="addr:suburb" v="Малино"/>
    <tag k="building" v="yes"/>
    <tag k="building:use" v="residential"/>
  </way>
  <way id="85046516" version="3" timestamp="2011-02-10T09:47:14Z" uid="115477" user="wowik" changeset="7243711">
    <nd ref="986862687"/>
    <nd ref="986863798"/>
    <nd ref="986863376"/>
    <nd ref="986862691"/>
    <nd ref="986862138"/>
    <nd ref="986862270"/>
    <nd ref="986862687"/>
    <tag k="addr:city" v="Зеленоград"/>
    <tag k="addr:housenumber" v="6 сА"/>
    <tag k="addr:street" v="Первомайская улица"/>
    <tag k="addr:suburb" v="Малино"/>
    <tag k="building" v="yes"/>
    <tag k="building:use" v="residential"/>
  </way>
  <way id="85046519" version="1" timestamp="2010-11-12T18:49:49Z" uid="115477" user="wowik" changeset="6352227">
    <nd ref="986862384"/>
    <nd ref="986863336"/>
    <nd ref="986862945"/>
    <nd ref="986862330"/>
    <nd ref="986862384"/>
    <tag k="addr:city" v="Зеленоград"/>
    <tag k="addr:suburb" v="Малино"/>
    <tag k="building" v="yes"/>
  </way>
  <way id="85046521" version="1" timestamp="2010-11-12T18:49:50Z" uid="115477" user="wowik" changeset="6352227">
    <nd ref="986862337"/>
    <nd ref="986863277"/>
    <nd ref="986862907"/>
    <nd ref="986864175"/>
    <nd ref="986862337"/>
    <tag k="addr:city" v="Зеленоград"/>
    <tag k="building" v="yes"/>
  </way>
  <way id="85046527" version="1" timestamp="2010-11-12T18:49:50Z" uid="115477" user="wowik" changeset="6352227">
    <nd ref="986863671"/>
    <nd ref="986862457"/>
    <nd ref="986862185"/>
    <nd ref="986863023"/>
    <nd ref="986863671"/>
    <tag k="addr:city" v="Зеленоград"/>
    <tag k="building" v="yes"/>
  </way>
  <way id="85046530" version="1" timestamp="2010-11-12T18:49:51Z" uid="115477" user="wowik" changeset="6352227">
    <nd ref="986863486"/>
    <nd ref="986863079"/>
    <nd ref="986862051"/>
    <nd ref="986863924"/>
    <nd ref="986863486"/>
    <tag k="addr:city" v="Зеленоград"/>
    <tag k="building" v="yes"/>
  </way>
  <way id="85046534" version="1" timestamp="2010-11-12T18:49:51Z" uid="115477" user="wowik" changeset="6352227">
    <nd ref="986862615"/>
    <nd ref="986862336"/>
    <nd ref="986863275"/>
    <nd ref="986862906"/>
    <nd ref="986862615"/>
    <tag k="addr:city" v="Зеленоград"/>
    <tag k="building" v="yes"/>
  </way>
  <way id="85046540" version="1" timestamp="2010-11-12T18:49:51Z" uid="115477" user="wowik" changeset="6352227">
    <nd ref="986862018"/>
    <nd ref="986862873"/>
    <nd ref="986862567"/>
    <nd ref="986863643"/>
    <nd ref="986862018"/>
    <tag k="addr:city" v="Зеленоград"/>
    <tag k="addr:suburb" v="Малино"/>
    <tag k="building" v="yes"/>
  </way>
  <way id="85046543" version="1" timestamp="2010-11-12T18:49:52Z" uid="115477" user="wowik" changeset="6352227">
    <nd ref="986863013"/>
    <nd ref="986862728"/>
    <nd ref="986863810"/>
    <nd ref="986863408"/>
    <nd ref="986863013"/>
    <tag k="addr:city" v="Зеленоград"/>
    <tag k="addr:suburb" v="Малино"/>
    <tag k="building" v="yes"/>
  </way>
  <way id="85046547" version="1" timestamp="2010-11-12T18:49:52Z" uid="115477" user="wowik" changeset="6352227">
    <nd ref="986862882"/>
    <nd ref="986864142"/>
    <nd ref="986863647"/>
    <nd ref="986862446"/>
    <nd ref="986862882"/>
    <tag k="addr:city" v="Зеленоград"/>
    <tag k="addr:suburb" v="Малино"/>
    <tag k="building" v="yes"/>
  </way>
  <way id="85046550" version="1" timestamp="2010-11-12T18:49:53Z" uid="115477" user="wowik" changeset="6352227">
    <nd ref="986863935"/>
    <nd ref="986862620"/>
    <nd ref="986862341"/>
    <nd ref="986863281"/>
    <nd ref="986863935"/>
    <tag k="addr:city" v="Зеленоград"/>
    <tag k="addr:housenumber" v="5"/>
    <tag k="addr:street" v="Лесная улица"/>
    <tag k="addr:suburb" v="Малино"/>
    <tag k="building" v="yes"/>
  </way>
  <way id="85046550" version="2" timestamp="2011-01-13T16:28:01Z" uid="115477" user="wowik" changeset="6958660">
    <nd ref="986863935"/>
    <nd ref="986862620"/>
    <nd ref="986862341"/>
    <nd ref="986863281"/>
    <nd ref="986863935"/>
    <tag k="addr:city" v="Зеленоград"/>
    <tag k="addr:housenumber" v="5"/>
    <tag k="addr:street" v="Лесная улица"/>
    <tag k="addr:suburb" v="Малино"/>
    <tag k="building" v="yes"/>
    <tag k="building:use" v="residential"/>
  </way>
  <way id="85046557" version="1" timestamp="2010-11-12T18:49:53Z" uid="115477" user="wowik" changeset="6352227">
    <nd ref="986863987"/>
    <nd ref="986862644"/>
    <nd ref="986862378"/>
    <nd ref="986863323"/>
    <nd ref="986863987"/>
    <tag k="addr:city" v="Зеленоград"/>
    <tag k="addr:suburb" v="Малино"/>
    <tag k="building" v="yes"/>
  </way>
  <way id="85046562" version="1" timestamp="2010-11-12T18:49:54Z" uid="115477" user="wowik" changeset="6352227">
    <nd ref="986862909"/>
    <nd ref="986864206"/>
    <nd ref="986863703"/>
    <nd ref="986862474"/>
    <nd ref="986862909"/>
    <tag k="addr:city" v="Зеленоград"/>
    <tag k="addr:housenumber" v="21А"/>
    <tag k="addr:street" v="Лесная улица"/>
    <tag k="addr:suburb" v="Малино"/>
    <tag k="building" v="yes"/>
  </way>
  <way id="85046562" version="2" timestamp="2011-01-13T16:27:37Z" uid="115477" user="wowik" changeset="6958660">
    <nd ref="986862909"/>
    <nd ref="986864206"/>
    <nd ref="986863703"/>
    <nd ref="986862474"/>
    <nd ref="986862909"/>
    <tag k="addr:city" v="Зеленоград"/>
    <tag k="addr:housenumber" v="21А"/>
    <tag k="addr:street" v="Лесная улица"/>
    <tag k="addr:suburb" v="Малино"/>
    <tag k="building" v="yes"/>
    <tag k="building:use" v="residential"/>
  </way>
  <way id="85046569" version="1" timestamp="2010-11-12T18:49:54Z" uid="115477" user="wowik" changeset="6352227">
    <nd ref="986862187"/>
    <nd ref="986863064"/>
    <nd ref="986862758"/>
    <nd ref="986863885"/>
    <nd ref="986862187"/>
    <tag k="addr:city" v="Зеленоград"/>
    <tag k="addr:housenumber" v="26"/>
    <tag k="addr:street" v="Первомайская улица"/>
    <tag k="addr:suburb" v="Малино"/>
    <tag k="building" v="yes"/>
  </way>
  <way id="85046572" version="1" timestamp="2010-11-12T18:49:55Z" uid="115477" user="wowik" changeset="6352227">
    <nd ref="986863745"/>
    <nd ref="986863324"/>
    <nd ref="986862225"/>
    <nd ref="986861902"/>
    <nd ref="986863745"/>
    <tag k="addr:city" v="Зеленоград"/>
    <tag k="addr:housenumber" v="5"/>
    <tag k="addr:street" v="Лесная улица"/>
    <tag k="addr:suburb" v="Малино"/>
    <tag k="building" v="yes"/>
  </way>
  <way id="85046572" version="2" timestamp="2011-01-13T16:27:03Z" uid="115477" user="wowik" changeset="6958660">
    <nd ref="986863745"/>
    <nd ref="986863324"/>
    <nd ref="986862225"/>
    <nd ref="986861902"/>
    <nd ref="986863745"/>
    <tag k="addr:city" v="Зеленоград"/>
    <tag k="addr:housenumber" v="5"/>
    <tag k="addr:street" v="Лесная улица"/>
    <tag k="addr:suburb" v="Малино"/>
    <tag k="building" v="yes"/>
    <tag k="building:use" v="residential"/>
  </way>
  <way id="85046572" version="3" timestamp="2011-01-25T14:28:05Z" uid="115477" user="wowik" changeset="7084094">
    <nd ref="986863745"/>
    <nd ref="986863324"/>
    <nd ref="986862225"/>
    <nd ref="986861902"/>
    <nd ref="986863745"/>
    <tag k="addr:city" v="Зеленоград"/>
    <tag k="addr:housenumber" v="23"/>
    <tag k="addr:street" v="Лесная улица"/>
    <tag k="addr:suburb" v="Малино"/>
    <tag k="building" v="yes"/>
    <tag k="building:use" v="residential"/>
  </way>
  <way id="85046574" version="1" timestamp="2010-11-12T18:49:55Z" uid="115477" user="wowik" changeset="6352227">
    <nd ref="986862217"/>
    <nd ref="986863098"/>
    <nd ref="986862777"/>
    <nd ref="986863945"/>
    <nd ref="986862217"/>
    <tag k="addr:city" v="Зеленоград"/>
    <tag k="addr:suburb" v="Малино"/>
    <tag k="building" v="yes"/>
  </way>
  <way id="85046578" version="1" timestamp="2010-11-12T18:49:56Z" uid="115477" user="wowik" changeset="6352227">
    <nd ref="986863527"/>
    <nd ref="986862381"/>
    <nd ref="986862087"/>
    <nd ref="986862938"/>
    <nd ref="986863527"/>
    <tag k="addr:city" v="Зеленоград"/>
    <tag k="addr:housenumber" v="5"/>
    <tag k="addr:street" v="Лесная улица"/>
    <tag k="addr:suburb" v="Малино"/>
    <tag k="building" v="yes"/>
  </way>
  <way id="85046578" version="2" timestamp="2011-01-13T16:24:41Z" uid="115477" user="wowik" changeset="6958660">
    <nd ref="986863527"/>
    <nd ref="986862381"/>
    <nd ref="986862087"/>
    <nd ref="986862938"/>
    <nd ref="986863527"/>
    <tag k="addr:city" v="Зеленоград"/>
    <tag k="addr:housenumber" v="5"/>
    <tag k="addr:street" v="Лесная улица"/>
    <tag k="addr:suburb" v="Малино"/>
    <tag k="building" v="yes"/>
    <tag k="building:use" v="residential"/>
  </way>
  <way id="85046578" version="3" timestamp="2011-01-25T14:28:09Z" uid="115477" user="wowik" changeset="7084094">
    <nd ref="986863527"/>
    <nd ref="986862381"/>
    <nd ref="986862087"/>
    <nd ref="986862938"/>
    <nd ref="986863527"/>
    <tag k="addr:city" v="Зеленоград"/>
    <tag k="addr:housenumber" v="24"/>
    <tag k="addr:street" v="Лесная улица"/>
    <tag k="addr:suburb" v="Малино"/>
    <tag k="building" v="yes"/>
    <tag k="building:use" v="residential"/>
  </way>
  <way id="85046581" version="1" timestamp="2010-11-12T18:49:56Z" uid="115477" user="wowik" changeset="6352227">
    <nd ref="986863317"/>
    <nd ref="986862936"/>
    <nd ref="986861868"/>
    <nd ref="986863719"/>
    <nd ref="986863317"/>
    <tag k="addr:city" v="Зеленоград"/>
    <tag k="addr:suburb" v="Малино"/>
    <tag k="building" v="yes"/>
  </way>
  <way id="85046584" version="1" timestamp="2010-11-12T18:49:57Z" uid="115477" user="wowik" changeset="6352227">
    <nd ref="986863370"/>
    <nd ref="986862971"/>
    <nd ref="986861953"/>
    <nd ref="986863772"/>
    <nd ref="986863370"/>
    <tag k="addr:city" v="Зеленоград"/>
    <tag k="addr:housenumber" v="1"/>
    <tag k="addr:street" v="Лесная улица"/>
    <tag k="addr:suburb" v="Малино"/>
    <tag k="building" v="yes"/>
  </way>
  <way id="85046584" version="2" timestamp="2011-01-13T16:26:38Z" uid="115477" user="wowik" changeset="6958660">
    <nd ref="986863370"/>
    <nd ref="986862971"/>
    <nd ref="986861953"/>
    <nd ref="986863772"/>
    <nd ref="986863370"/>
    <tag k="addr:city" v="Зеленоград"/>
    <tag k="addr:housenumber" v="1"/>
    <tag k="addr:street" v="Лесная улица"/>
    <tag k="addr:suburb" v="Малино"/>
    <tag k="building" v="yes"/>
    <tag k="building:use" v="residential"/>
  </way>
  <way id="85046584" version="3" timestamp="2011-01-25T14:28:04Z" uid="115477" user="wowik" changeset="7084094">
    <nd ref="986863370"/>
    <nd ref="986862971"/>
    <nd ref="986861953"/>
    <nd ref="986863772"/>
    <nd ref="986863370"/>
    <tag k="addr:city" v="Зеленоград"/>
    <tag k="addr:housenumber" v="8"/>
    <tag k="addr:street" v="Лесная улица"/>
    <tag k="addr:suburb" v="Малино"/>
    <tag k="building" v="yes"/>
    <tag k="building:use" v="residential"/>
  </way>
  <way id="85046585" version="1" timestamp="2010-11-12T18:49:58Z" uid="115477" user="wowik" changeset="6352227">
    <nd ref="986863402"/>
    <nd ref="986862985"/>
    <nd ref="986861977"/>
    <nd ref="986863803"/>
    <nd ref="986863402"/>
    <tag k="addr:city" v="Зеленоград"/>
    <tag k="addr:suburb" v="Малино"/>
    <tag k="building" v="yes"/>
  </way>
  <way id="85046588" version="1" timestamp="2010-11-12T18:49:58Z" uid="115477" user="wowik" changeset="6352227">
    <nd ref="986863072"/>
    <nd ref="986862050"/>
    <nd ref="986863918"/>
    <nd ref="986862617"/>
    <nd ref="986863072"/>
    <tag k="addr:city" v="Зеленоград"/>
    <tag k="addr:housenumber" v="11"/>
    <tag k="addr:street" v="Лесная улица"/>
    <tag k="addr:suburb" v="Малино"/>
    <tag k="building" v="yes"/>
  </way>
  <way id="85046588" version="2" timestamp="2011-01-13T16:27:59Z" uid="115477" user="wowik" changeset="6958660">
    <nd ref="986863072"/>
    <nd ref="986862050"/>
    <nd ref="986863918"/>
    <nd ref="986862617"/>
    <nd ref="986863072"/>
    <tag k="addr:city" v="Зеленоград"/>
    <tag k="addr:housenumber" v="11"/>
    <tag k="addr:street" v="Лесная улица"/>
    <tag k="addr:suburb" v="Малино"/>
    <tag k="building" v="yes"/>
    <tag k="building:use" v="residential"/>
  </way>
  <way id="85046589" version="1" timestamp="2010-11-12T18:49:59Z" uid="115477" user="wowik" changeset="6352227">
    <nd ref="986861944"/>
    <nd ref="986862818"/>
    <nd ref="986862519"/>
    <nd ref="986863562"/>
    <nd ref="986861944"/>
    <tag k="addr:city" v="Зеленоград"/>
    <tag k="addr:housenumber" v="24"/>
    <tag k="addr:street" v="Первомайская улица"/>
    <tag k="addr:suburb" v="Малино"/>
    <tag k="building" v="yes"/>
  </way>
  <way id="85046593" version="1" timestamp="2010-11-12T18:49:59Z" uid="115477" user="wowik" changeset="6352227">
    <nd ref="986862769"/>
    <nd ref="986863900"/>
    <nd ref="986863458"/>
    <nd ref="986862334"/>
    <nd ref="986862769"/>
    <tag k="addr:city" v="Зеленоград"/>
    <tag k="addr:suburb" v="Малино"/>
    <tag k="building" v="yes"/>
  </way>
  <way id="85046593" version="2" timestamp="2011-01-13T16:27:44Z" uid="115477" user="wowik" changeset="6958660">
    <nd ref="986862769"/>
    <nd ref="986863900"/>
    <nd ref="986863458"/>
    <nd ref="986862334"/>
    <nd ref="986862769"/>
    <tag k="addr:city" v="Зеленоград"/>
    <tag k="addr:suburb" v="Малино"/>
    <tag k="building" v="yes"/>
    <tag k="building:use" v="residential"/>
  </way>
  <way id="85046595" version="1" timestamp="2010-11-12T18:50:00Z" uid="115477" user="wowik" changeset="6352227">
    <nd ref="986863549"/>
    <nd ref="986863172"/>
    <nd ref="986862450"/>
    <nd ref="986864149"/>
    <nd ref="986863019"/>
    <nd ref="986862038"/>
    <nd ref="986862096"/>
    <nd ref="986864007"/>
    <nd ref="986863256"/>
    <nd ref="986862583"/>
    <nd ref="986863549"/>
    <tag k="addr:city" v="Зеленоград"/>
    <tag k="addr:suburb" v="Малино"/>
    <tag k="building" v="yes"/>
  </way>
  <way id="85046598" version="1" timestamp="2010-11-12T18:50:00Z" uid="115477" user="wowik" changeset="6352227">
    <nd ref="986863268"/>
    <nd ref="986862178"/>
    <nd ref="986864159"/>
    <nd ref="986862733"/>
    <nd ref="986863268"/>
    <tag k="addr:city" v="Зеленоград"/>
    <tag k="addr:housenumber" v="16"/>
    <tag k="addr:street" v="Первомайская улица"/>
    <tag k="addr:suburb" v="Малино"/>
    <tag k="building" v="yes"/>
  </way>
  <way id="85046598" version="2" timestamp="2011-01-13T16:26:36Z" uid="115477" user="wowik" changeset="6958660">
    <nd ref="986863268"/>
    <nd ref="986862178"/>
    <nd ref="986864159"/>
    <nd ref="986862733"/>
    <nd ref="986863268"/>
    <tag k="addr:city" v="Зеленоград"/>
    <tag k="addr:housenumber" v="16"/>
    <tag k="addr:street" v="Первомайская улица"/>
    <tag k="addr:suburb" v="Малино"/>
    <tag k="building" v="yes"/>
    <tag k="building:use" v="residential"/>
  </way>
  <way id="85046602" version="1" timestamp="2010-11-12T18:50:01Z" uid="115477" user="wowik" changeset="6352227">
    <nd ref="986861913"/>
    <nd ref="986863763"/>
    <nd ref="986862890"/>
    <nd ref="986862442"/>
    <nd ref="986862609"/>
    <nd ref="986863010"/>
    <nd ref="986861913"/>
    <tag k="addr:city" v="Зеленоград"/>
    <tag k="addr:housenumber" v="12"/>
    <tag k="addr:street" v="Первомайская улица"/>
    <tag k="addr:suburb" v="Малино"/>
    <tag k="building" v="yes"/>
  </way>
  <way id="85046602" version="2" timestamp="2011-01-13T16:27:00Z" uid="115477" user="wowik" changeset="6958660">
    <nd ref="986861913"/>
    <nd ref="986863763"/>
    <nd ref="986862890"/>
    <nd ref="986862442"/>
    <nd ref="986862609"/>
    <nd ref="986863010"/>
    <nd ref="986861913"/>
    <tag k="addr:city" v="Зеленоград"/>
    <tag k="addr:housenumber" v="12"/>
    <tag k="addr:street" v="Первомайская улица"/>
    <tag k="addr:suburb" v="Малино"/>
    <tag k="building" v="yes"/>
    <tag k="building:use" v="residential"/>
  </way>
  <way id="85046605" version="1" timestamp="2010-11-12T18:50:02Z" uid="115477" user="wowik" changeset="6352227">
    <nd ref="986863143"/>
    <nd ref="986862815"/>
    <nd ref="986863994"/>
    <nd ref="986863545"/>
    <nd ref="986863143"/>
    <tag k="addr:city" v="Зеленоград"/>
    <tag k="building" v="yes"/>
  </way>
  <way id="85046607" version="1" timestamp="2010-11-12T18:50:02Z" uid="115477" user="wowik" changeset="6352227">
    <nd ref="986862029"/>
    <nd ref="986863864"/>
    <nd ref="986862570"/>
    <nd ref="986862305"/>
    <nd ref="986862029"/>
    <tag k="addr:city" v="Зеленоград"/>
    <tag k="addr:suburb" v="Малино"/>
    <tag k="building" v="yes"/>
  </way>
  <way id="85046609" version="1" timestamp="2010-11-12T18:50:02Z" uid="115477" user="wowik" changeset="6352227">
    <nd ref="986864022"/>
    <nd ref="986862680"/>
    <nd ref="986862418"/>
    <nd ref="986863367"/>
    <nd ref="986864022"/>
    <tag k="addr:city" v="Зеленоград"/>
    <tag k="building" v="yes"/>
  </way>
  <way id="85046611" version="1" timestamp="2010-11-12T18:50:03Z" uid="115477" user="wowik" changeset="6352227">
    <nd ref="986862578"/>
    <nd ref="986863650"/>
    <nd ref="986863250"/>
    <nd ref="986862513"/>
    <nd ref="986862578"/>
    <tag k="addr:city" v="Зеленоград"/>
    <tag k="building" v="yes"/>
  </way>
  <way id="85046613" version="1" timestamp="2010-11-12T18:50:03Z" uid="115477" user="wowik" changeset="6352227">
    <nd ref="986862775"/>
    <nd ref="986862394"/>
    <nd ref="986862952"/>
    <nd ref="986862484"/>
    <nd ref="986863491"/>
    <nd ref="986863090"/>
    <nd ref="986862775"/>
    <tag k="addr:city" v="Зеленоград"/>
    <tag k="addr:housenumber" v="4"/>
    <tag k="addr:street" v="Лесная улица"/>
    <tag k="addr:suburb" v="Малино"/>
    <tag k="building" v="yes"/>
  </way>
  <way id="85046613" version="2" timestamp="2011-01-13T16:25:48Z" uid="115477" user="wowik" changeset="6958660">
    <nd ref="986862775"/>
    <nd ref="986862394"/>
    <nd ref="986862952"/>
    <nd ref="986862484"/>
    <nd ref="986863491"/>
    <nd ref="986863090"/>
    <nd ref="986862775"/>
    <tag k="addr:city" v="Зеленоград"/>
    <tag k="addr:housenumber" v="4"/>
    <tag k="addr:street" v="Лесная улица"/>
    <tag k="addr:suburb" v="Малино"/>
    <tag k="building" v="yes"/>
    <tag k="building:use" v="residential"/>
  </way>
  <way id="85046615" version="1" timestamp="2010-11-12T18:50:04Z" uid="115477" user="wowik" changeset="6352227">
    <nd ref="986863804"/>
    <nd ref="986863404"/>
    <nd ref="986862648"/>
    <nd ref="986862379"/>
    <nd ref="986863804"/>
    <tag k="addr:city" v="Зеленоград"/>
    <tag k="addr:housenumber" v="34"/>
    <tag k="addr:street" v="Первомайская улица"/>
    <tag k="addr:suburb" v="Малино"/>
    <tag k="building" v="yes"/>
  </way>
  <way id="85046615" version="2" timestamp="2010-11-25T22:13:59Z" uid="115477" user="wowik" changeset="6458208">
    <nd ref="986863804"/>
    <nd ref="986863404"/>
    <nd ref="986862648"/>
    <nd ref="986862379"/>
    <nd ref="986863804"/>
    <tag k="addr:city" v="Зеленоград"/>
    <tag k="addr:housenumber" v="34"/>
    <tag k="addr:street" v="Первомайская улица"/>
    <tag k="building" v="yes"/>
  </way>
  <way id="85046615" version="3" timestamp="2011-01-13T16:25:15Z" uid="115477" user="wowik" changeset="6958660">
    <nd ref="986863804"/>
    <nd ref="986863404"/>
    <nd ref="986862648"/>
    <nd ref="986862379"/>
    <nd ref="986863804"/>
    <tag k="addr:city" v="Зеленоград"/>
    <tag k="addr:housenumber" v="34"/>
    <tag k="addr:street" v="Первомайская улица"/>
    <tag k="building" v="yes"/>
    <tag k="building:use" v="residential"/>
  </way>
  <way id="85046615" version="4" timestamp="2011-01-17T15:14:06Z" uid="115477" user="wowik" changeset="7000395">
    <nd ref="986863804"/>
    <nd ref="986863404"/>
    <nd ref="986862648"/>
    <nd ref="986862379"/>
    <nd ref="986863804"/>
    <tag k="addr:city" v="Зеленоград"/>
    <tag k="addr:housenumber" v="34"/>
    <tag k="addr:street" v="Первомайская улица"/>
    <tag k="addr:suburb" v="Малино"/>
    <tag k="building" v="yes"/>
    <tag k="building:use" v="residential"/>
  </way>
  <way id="85046617" version="1" timestamp="2010-11-12T18:50:05Z" uid="115477" user="wowik" changeset="6352227">
    <nd ref="986862629"/>
    <nd ref="986863715"/>
    <nd ref="986863289"/>
    <nd ref="986862196"/>
    <nd ref="986862821"/>
    <nd ref="986862266"/>
    <nd ref="986862629"/>
    <tag k="addr:city" v="Зеленоград"/>
    <tag k="addr:housenumber" v="3"/>
    <tag k="addr:street" v="Лесная улица"/>
    <tag k="addr:suburb" v="Малино"/>
    <tag k="building" v="yes"/>
  </way>
  <way id="85046617" version="2" timestamp="2011-01-13T16:26:07Z" uid="115477" user="wowik" changeset="6958660">
    <nd ref="986862629"/>
    <nd ref="986863715"/>
    <nd ref="986863289"/>
    <nd ref="986862196"/>
    <nd ref="986862821"/>
    <nd ref="986862266"/>
    <nd ref="986862629"/>
    <tag k="addr:city" v="Зеленоград"/>
    <tag k="addr:housenumber" v="3"/>
    <tag k="addr:street" v="Лесная улица"/>
    <tag k="addr:suburb" v="Малино"/>
    <tag k="building" v="yes"/>
    <tag k="building:use" v="residential"/>
  </way>
  <way id="85046619" version="1" timestamp="2010-11-12T18:50:05Z" uid="115477" user="wowik" changeset="6352227">
    <nd ref="986862806"/>
    <nd ref="986862511"/>
    <nd ref="986863520"/>
    <nd ref="986863139"/>
    <nd ref="986862806"/>
    <tag k="addr:city" v="Зеленоград"/>
    <tag k="addr:suburb" v="Малино"/>
    <tag k="building" v="yes"/>
  </way>
  <way id="85046621" version="1" timestamp="2010-11-12T18:50:06Z" uid="115477" user="wowik" changeset="6352227">
    <nd ref="986862659"/>
    <nd ref="986863753"/>
    <nd ref="986863331"/>
    <nd ref="986862236"/>
    <nd ref="986862659"/>
    <tag k="addr:city" v="Зеленоград"/>
    <tag k="addr:suburb" v="Малино"/>
    <tag k="building" v="yes"/>
  </way>
  <way id="85046623" version="1" timestamp="2010-11-12T18:50:09Z" uid="115477" user="wowik" changeset="6352227">
    <nd ref="986863513"/>
    <nd ref="986862375"/>
    <nd ref="986862059"/>
    <nd ref="986862934"/>
    <nd ref="986863513"/>
    <tag k="addr:city" v="Зеленоград"/>
    <tag k="addr:housenumber" v="16"/>
    <tag k="addr:street" v="Лесная улица"/>
    <tag k="addr:suburb" v="Малино"/>
    <tag k="building" v="yes"/>
  </way>
  <way id="85046623" version="2" timestamp="2011-01-13T16:26:48Z" uid="115477" user="wowik" changeset="6958660">
    <nd ref="986863513"/>
    <nd ref="986862375"/>
    <nd ref="986862059"/>
    <nd ref="986862934"/>
    <nd ref="986863513"/>
    <tag k="addr:city" v="Зеленоград"/>
    <tag k="addr:housenumber" v="16"/>
    <tag k="addr:street" v="Лесная улица"/>
    <tag k="addr:suburb" v="Малино"/>
    <tag k="building" v="yes"/>
    <tag k="building:use" v="residential"/>
  </way>
  <way id="85046625" version="1" timestamp="2010-11-12T18:50:09Z" uid="115477" user="wowik" changeset="6352227">
    <nd ref="986863449"/>
    <nd ref="986862315"/>
    <nd ref="986863254"/>
    <nd ref="986862886"/>
    <nd ref="986863449"/>
    <tag k="addr:city" v="Зеленоград"/>
    <tag k="addr:housenumber" v="42"/>
    <tag k="addr:street" v="Первомайская улица"/>
    <tag k="addr:suburb" v="Малино"/>
    <tag k="building" v="yes"/>
  </way>
  <way id="85046625" version="2" timestamp="2010-11-26T10:35:12Z" uid="115477" user="wowik" changeset="6460922">
    <nd ref="986863449"/>
    <nd ref="986862315"/>
    <nd ref="986863254"/>
    <nd ref="986862886"/>
    <nd ref="986863449"/>
    <tag k="addr:city" v="Зеленоград"/>
    <tag k="addr:housenumber" v="42"/>
    <tag k="addr:street" v="Первомайская улица"/>
    <tag k="building" v="yes"/>
  </way>
  <way id="85046625" version="3" timestamp="2011-01-13T16:25:29Z" uid="115477" user="wowik" changeset="6958660">
    <nd ref="986863449"/>
    <nd ref="986862315"/>
    <nd ref="986863254"/>
    <nd ref="986862886"/>
    <nd ref="986863449"/>
    <tag k="addr:city" v="Зеленоград"/>
    <tag k="addr:housenumber" v="42"/>
    <tag k="addr:street" v="Первомайская улица"/>
    <tag k="building" v="yes"/>
    <tag k="building:use" v="residential"/>
  </way>
  <way id="85046625" version="4" timestamp="2011-01-17T15:14:08Z" uid="115477" user="wowik" changeset="7000395">
    <nd ref="986863449"/>
    <nd ref="986862315"/>
    <nd ref="986863254"/>
    <nd ref="986862886"/>
    <nd ref="986863449"/>
    <tag k="addr:city" v="Зеленоград"/>
    <tag k="addr:housenumber" v="42"/>
    <tag k="addr:street" v="Первомайская улица"/>
    <tag k="addr:suburb" v="Малино"/>
    <tag k="building" v="yes"/>
    <tag k="building:use" v="residential"/>
  </way>
  <way id="85046629" version="1" timestamp="2010-11-12T18:50:10Z" uid="115477" user="wowik" changeset="6352227">
    <nd ref="986862417"/>
    <nd ref="986863364"/>
    <nd ref="986862969"/>
    <nd ref="986861916"/>
    <nd ref="986862417"/>
    <tag k="addr:city" v="Зеленоград"/>
    <tag k="addr:housenumber" v="13"/>
    <tag k="addr:street" v="Лесная улица"/>
    <tag k="addr:suburb" v="Малино"/>
    <tag k="building" v="yes"/>
  </way>
  <way id="85046629" version="2" timestamp="2011-01-13T16:26:46Z" uid="115477" user="wowik" changeset="6958660">
    <nd ref="986862417"/>
    <nd ref="986863364"/>
    <nd ref="986862969"/>
    <nd ref="986861916"/>
    <nd ref="986862417"/>
    <tag k="addr:city" v="Зеленоград"/>
    <tag k="addr:housenumber" v="13"/>
    <tag k="addr:street" v="Лесная улица"/>
    <tag k="addr:suburb" v="Малино"/>
    <tag k="building" v="yes"/>
    <tag k="building:use" v="residential"/>
  </way>
  <way id="85046631" version="1" timestamp="2010-11-12T18:50:10Z" uid="115477" user="wowik" changeset="6352227">
    <nd ref="986864060"/>
    <nd ref="986863602"/>
    <nd ref="986862423"/>
    <nd ref="986862106"/>
    <nd ref="986864060"/>
    <tag k="addr:city" v="Зеленоград"/>
    <tag k="addr:housenumber" v="4"/>
    <tag k="addr:street" v="Первомайская улица"/>
    <tag k="addr:suburb" v="Малино"/>
    <tag k="building" v="yes"/>
  </way>
  <way id="85046631" version="2" timestamp="2011-01-13T16:26:05Z" uid="115477" user="wowik" changeset="6958660">
    <nd ref="986864060"/>
    <nd ref="986863602"/>
    <nd ref="986862423"/>
    <nd ref="986862106"/>
    <nd ref="986864060"/>
    <tag k="addr:city" v="Зеленоград"/>
    <tag k="addr:housenumber" v="4"/>
    <tag k="addr:street" v="Первомайская улица"/>
    <tag k="addr:suburb" v="Малино"/>
    <tag k="building" v="yes"/>
    <tag k="building:use" v="residential"/>
  </way>
  <way id="85046633" version="1" timestamp="2010-11-12T18:50:12Z" uid="115477" user="wowik" changeset="6352227">
    <nd ref="986862052"/>
    <nd ref="986862912"/>
    <nd ref="986862625"/>
    <nd ref="986864215"/>
    <nd ref="986863286"/>
    <nd ref="986863710"/>
    <nd ref="986862052"/>
    <tag k="addr:city" v="Зеленоград"/>
    <tag k="addr:housenumber" v="10"/>
    <tag k="addr:street" v="Лесная улица"/>
    <tag k="addr:suburb" v="Малино"/>
    <tag k="building" v="yes"/>
  </way>
  <way id="85046633" version="2" timestamp="2011-01-13T16:27:09Z" uid="115477" user="wowik" changeset="6958660">
    <nd ref="986862052"/>
    <nd ref="986862912"/>
    <nd ref="986862625"/>
    <nd ref="986864215"/>
    <nd ref="986863286"/>
    <nd ref="986863710"/>
    <nd ref="986862052"/>
    <tag k="addr:city" v="Зеленоград"/>
    <tag k="addr:housenumber" v="10"/>
    <tag k="addr:street" v="Лесная улица"/>
    <tag k="addr:suburb" v="Малино"/>
    <tag k="building" v="yes"/>
    <tag k="building:use" v="residential"/>
  </way>
  <way id="85046636" version="1" timestamp="2010-11-12T18:50:13Z" uid="115477" user="wowik" changeset="6352227">
    <nd ref="986863241"/>
    <nd ref="986862170"/>
    <nd ref="986864127"/>
    <nd ref="986862726"/>
    <nd ref="986863241"/>
    <tag k="addr:city" v="Зеленоград"/>
    <tag k="addr:housenumber" v="14"/>
    <tag k="addr:street" v="Первомайская улица"/>
    <tag k="addr:suburb" v="Малино"/>
    <tag k="building" v="yes"/>
  </way>
  <way id="85046636" version="2" timestamp="2011-01-13T16:26:33Z" uid="115477" user="wowik" changeset="6958660">
    <nd ref="986863241"/>
    <nd ref="986862170"/>
    <nd ref="986864127"/>
    <nd ref="986862726"/>
    <nd ref="986863241"/>
    <tag k="addr:city" v="Зеленоград"/>
    <tag k="addr:housenumber" v="14"/>
    <tag k="addr:street" v="Первомайская улица"/>
    <tag k="addr:suburb" v="Малино"/>
    <tag k="building" v="yes"/>
    <tag k="building:use" v="residential"/>
  </way>
  <way id="85046638" version="1" timestamp="2010-11-12T18:50:14Z" uid="115477" user="wowik" changeset="6352227">
    <nd ref="986863767"/>
    <nd ref="986862516"/>
    <nd ref="986862255"/>
    <nd ref="986863150"/>
    <nd ref="986863767"/>
    <tag k="addr:city" v="Зеленоград"/>
    <tag k="building" v="yes"/>
  </way>
  <way id="85046640" version="1" timestamp="2010-11-12T18:50:14Z" uid="115477" user="wowik" changeset="6352227">
    <nd ref="986863568"/>
    <nd ref="986863187"/>
    <nd ref="986862098"/>
    <nd ref="986864019"/>
    <nd ref="986863568"/>
    <tag k="addr:city" v="Зеленоград"/>
    <tag k="addr:suburb" v="Малино"/>
    <tag k="building" v="yes"/>
  </way>
  <way id="85046642" version="1" timestamp="2010-11-12T18:50:15Z" uid="115477" user="wowik" changeset="6352227">
    <nd ref="986862477"/>
    <nd ref="986863463"/>
    <nd ref="986863068"/>
    <nd ref="986862049"/>
    <nd ref="986862477"/>
    <tag k="addr:city" v="Зеленоград"/>
    <tag k="building" v="yes"/>
  </way>
  <way id="85046643" version="1" timestamp="2010-11-12T18:50:15Z" uid="115477" user="wowik" changeset="6352227">
    <nd ref="986863381"/>
    <nd ref="986862274"/>
    <nd ref="986861963"/>
    <nd ref="986862838"/>
    <nd ref="986863381"/>
    <tag k="addr:city" v="Зеленоград"/>
    <tag k="addr:suburb" v="Малино"/>
    <tag k="building" v="yes"/>
  </way>
  <way id="85046646" version="1" timestamp="2010-11-12T18:50:16Z" uid="115477" user="wowik" changeset="6352227">
    <nd ref="986861896"/>
    <nd ref="986863950"/>
    <nd ref="986863121"/>
    <nd ref="986862343"/>
    <nd ref="986862914"/>
    <nd ref="986863732"/>
    <nd ref="986862497"/>
    <nd ref="986862222"/>
    <nd ref="986861896"/>
    <tag k="addr:city" v="Зеленоград"/>
    <tag k="addr:housenumber" v="40"/>
    <tag k="addr:street" v="Первомайская улица"/>
    <tag k="addr:suburb" v="Малино"/>
    <tag k="building" v="yes"/>
  </way>
  <way id="85046646" version="2" timestamp="2010-11-25T22:13:58Z" uid="115477" user="wowik" changeset="6458208">
    <nd ref="986861896"/>
    <nd ref="986863950"/>
    <nd ref="986863121"/>
    <nd ref="986862343"/>
    <nd ref="986862914"/>
    <nd ref="986863732"/>
    <nd ref="986862497"/>
    <nd ref="986862222"/>
    <nd ref="986861896"/>
    <tag k="addr:city" v="Зеленоград"/>
    <tag k="addr:housenumber" v="40"/>
    <tag k="addr:street" v="Первомайская улица"/>
    <tag k="building" v="yes"/>
  </way>
  <way id="85046646" version="3" timestamp="2011-01-13T16:25:20Z" uid="115477" user="wowik" changeset="6958660">
    <nd ref="986861896"/>
    <nd ref="986863950"/>
    <nd ref="986863121"/>
    <nd ref="986862343"/>
    <nd ref="986862914"/>
    <nd ref="986863732"/>
    <nd ref="986862497"/>
    <nd ref="986862222"/>
    <nd ref="986861896"/>
    <tag k="addr:city" v="Зеленоград"/>
    <tag k="addr:housenumber" v="40"/>
    <tag k="addr:street" v="Первомайская улица"/>
    <tag k="building" v="yes"/>
    <tag k="building:use" v="residential"/>
  </way>
  <way id="85046646" version="4" timestamp="2011-01-17T15:14:07Z" uid="115477" user="wowik" changeset="7000395">
    <nd ref="986861896"/>
    <nd ref="986863950"/>
    <nd ref="986863121"/>
    <nd ref="986862343"/>
    <nd ref="986862914"/>
    <nd ref="986863732"/>
    <nd ref="986862497"/>
    <nd ref="986862222"/>
    <nd ref="986861896"/>
    <tag k="addr:city" v="Зеленоград"/>
    <tag k="addr:housenumber" v="40"/>
    <tag k="addr:street" v="Первомайская улица"/>
    <tag k="addr:suburb" v="Малино"/>
    <tag k="building" v="yes"/>
    <tag k="building:use" v="residential"/>
  </way>
  <way id="85046649" version="1" timestamp="2010-11-12T18:50:16Z" uid="115477" user="wowik" changeset="6352227">
    <nd ref="986862840"/>
    <nd ref="986862529"/>
    <nd ref="986863572"/>
    <nd ref="986863190"/>
    <nd ref="986862840"/>
    <tag k="addr:city" v="Зеленоград"/>
    <tag k="building" v="yes"/>
  </way>
  <way id="85046650" version="1" timestamp="2010-11-12T18:50:17Z" uid="115477" user="wowik" changeset="6352227">
    <nd ref="986863872"/>
    <nd ref="986863443"/>
    <nd ref="986862311"/>
    <nd ref="986862034"/>
    <nd ref="986863872"/>
    <tag k="addr:city" v="Зеленоград"/>
    <tag k="building" v="yes"/>
  </way>
  <way id="85046651" version="1" timestamp="2010-11-12T18:50:17Z" uid="115477" user="wowik" changeset="6352227">
    <nd ref="986862302"/>
    <nd ref="986863247"/>
    <nd ref="986862877"/>
    <nd ref="986864134"/>
    <nd ref="986862302"/>
    <tag k="addr:city" v="Зеленоград"/>
    <tag k="addr:housenumber" v="1"/>
    <tag k="addr:street" v="Лесная улица"/>
    <tag k="addr:suburb" v="Малино"/>
    <tag k="building" v="yes"/>
  </way>
  <way id="85046651" version="2" timestamp="2011-01-13T16:27:25Z" uid="115477" user="wowik" changeset="6958660">
    <nd ref="986862302"/>
    <nd ref="986863247"/>
    <nd ref="986862877"/>
    <nd ref="986864134"/>
    <nd ref="986862302"/>
    <tag k="addr:city" v="Зеленоград"/>
    <tag k="addr:housenumber" v="1"/>
    <tag k="addr:street" v="Лесная улица"/>
    <tag k="addr:suburb" v="Малино"/>
    <tag k="building" v="yes"/>
    <tag k="building:use" v="residential"/>
  </way>
  <way id="85046655" version="1" timestamp="2010-11-12T18:50:17Z" uid="115477" user="wowik" changeset="6352227">
    <nd ref="986863325"/>
    <nd ref="986862941"/>
    <nd ref="986861911"/>
    <nd ref="986863750"/>
    <nd ref="986863325"/>
    <tag k="addr:city" v="Зеленоград"/>
    <tag k="addr:suburb" v="Малино"/>
    <tag k="building" v="yes"/>
  </way>
  <way id="85046656" version="1" timestamp="2010-11-12T18:50:17Z" uid="115477" user="wowik" changeset="6352227">
    <nd ref="986862508"/>
    <nd ref="986862230"/>
    <nd ref="986863134"/>
    <nd ref="986862796"/>
    <nd ref="986862508"/>
    <tag k="addr:city" v="Зеленоград"/>
    <tag k="addr:housenumber" v="14"/>
    <tag k="addr:street" v="Лесная улица"/>
    <tag k="addr:suburb" v="Малино"/>
    <tag k="building" v="yes"/>
  </way>
  <way id="85046656" version="2" timestamp="2011-01-13T16:25:35Z" uid="115477" user="wowik" changeset="6958660">
    <nd ref="986862508"/>
    <nd ref="986862230"/>
    <nd ref="986863134"/>
    <nd ref="986862796"/>
    <nd ref="986862508"/>
    <tag k="addr:city" v="Зеленоград"/>
    <tag k="addr:housenumber" v="14"/>
    <tag k="addr:street" v="Лесная улица"/>
    <tag k="addr:suburb" v="Малино"/>
    <tag k="building" v="yes"/>
    <tag k="building:use" v="residential"/>
  </way>
  <way id="85046658" version="1" timestamp="2010-11-12T18:50:18Z" uid="115477" user="wowik" changeset="6352227">
    <nd ref="986863396"/>
    <nd ref="986862975"/>
    <nd ref="986861971"/>
    <nd ref="986863801"/>
    <nd ref="986863396"/>
    <tag k="addr:city" v="Зеленоград"/>
    <tag k="addr:housenumber" v="20"/>
    <tag k="addr:street" v="Первомайская улица"/>
    <tag k="addr:suburb" v="Малино"/>
    <tag k="building" v="yes"/>
  </way>
  <way id="85046658" version="2" timestamp="2011-01-13T16:25:04Z" uid="115477" user="wowik" changeset="6958660">
    <nd ref="986863396"/>
    <nd ref="986862975"/>
    <nd ref="986861971"/>
    <nd ref="986863801"/>
    <nd ref="986863396"/>
    <tag k="addr:city" v="Зеленоград"/>
    <tag k="addr:housenumber" v="20"/>
    <tag k="addr:street" v="Первомайская улица"/>
    <tag k="addr:suburb" v="Малино"/>
    <tag k="building" v="yes"/>
    <tag k="building:use" v="residential"/>
  </way>
  <way id="85046660" version="1" timestamp="2010-11-12T18:50:19Z" uid="115477" user="wowik" changeset="6352227">
    <nd ref="986863138"/>
    <nd ref="986862063"/>
    <nd ref="986863983"/>
    <nd ref="986862641"/>
    <nd ref="986863138"/>
    <tag k="addr:city" v="Зеленоград"/>
    <tag k="building" v="yes"/>
  </way>
  <way id="85046662" version="1" timestamp="2010-11-12T18:50:19Z" uid="115477" user="wowik" changeset="6352227">
    <nd ref="986862765"/>
    <nd ref="986863758"/>
    <nd ref="986863892"/>
    <nd ref="986862239"/>
    <nd ref="986863455"/>
    <nd ref="986862331"/>
    <nd ref="986863543"/>
    <nd ref="986862812"/>
    <nd ref="986862765"/>
    <tag k="addr:city" v="Зеленоград"/>
    <tag k="addr:housenumber" v="7"/>
    <tag k="addr:street" v="Лесная улица"/>
    <tag k="addr:suburb" v="Малино"/>
    <tag k="building" v="yes"/>
  </way>
  <way id="85046662" version="2" timestamp="2011-01-13T16:26:11Z" uid="115477" user="wowik" changeset="6958660">
    <nd ref="986862765"/>
    <nd ref="986863758"/>
    <nd ref="986863892"/>
    <nd ref="986862239"/>
    <nd ref="986863455"/>
    <nd ref="986862331"/>
    <nd ref="986863543"/>
    <nd ref="986862812"/>
    <nd ref="986862765"/>
    <tag k="addr:city" v="Зеленоград"/>
    <tag k="addr:housenumber" v="7"/>
    <tag k="addr:street" v="Лесная улица"/>
    <tag k="addr:suburb" v="Малино"/>
    <tag k="building" v="yes"/>
    <tag k="building:use" v="residential"/>
  </way>
  <way id="85046664" version="1" timestamp="2010-11-12T18:50:19Z" uid="115477" user="wowik" changeset="6352227">
    <nd ref="986864202"/>
    <nd ref="986863676"/>
    <nd ref="986862459"/>
    <nd ref="986862189"/>
    <nd ref="986864202"/>
    <tag k="addr:city" v="Зеленоград"/>
    <tag k="addr:housenumber" v="1"/>
    <tag k="addr:street" v="Лесная улица"/>
    <tag k="addr:suburb" v="Малино"/>
    <tag k="building" v="yes"/>
  </way>
  <way id="85046664" version="2" timestamp="2011-01-13T16:27:15Z" uid="115477" user="wowik" changeset="6958660">
    <nd ref="986864202"/>
    <nd ref="986863676"/>
    <nd ref="986862459"/>
    <nd ref="986862189"/>
    <nd ref="986864202"/>
    <tag k="addr:city" v="Зеленоград"/>
    <tag k="addr:housenumber" v="1"/>
    <tag k="addr:street" v="Лесная улица"/>
    <tag k="addr:suburb" v="Малино"/>
    <tag k="building" v="yes"/>
    <tag k="building:use" v="residential"/>
  </way>
  <way id="85046666" version="1" timestamp="2010-11-12T18:50:20Z" uid="115477" user="wowik" changeset="6352227">
    <nd ref="986864085"/>
    <nd ref="986863612"/>
    <nd ref="986862279"/>
    <nd ref="986862140"/>
    <nd ref="986862978"/>
    <nd ref="986862849"/>
    <nd ref="986861861"/>
    <nd ref="986862696"/>
    <nd ref="986864085"/>
    <tag k="addr:city" v="Зеленоград"/>
    <tag k="addr:housenumber" v="22"/>
    <tag k="addr:street" v="Лесная улица"/>
    <tag k="addr:suburb" v="Малино"/>
    <tag k="building" v="yes"/>
  </way>
  <way id="85046666" version="2" timestamp="2011-01-13T16:26:31Z" uid="115477" user="wowik" changeset="6958660">
    <nd ref="986864085"/>
    <nd ref="986863612"/>
    <nd ref="986862279"/>
    <nd ref="986862140"/>
    <nd ref="986862978"/>
    <nd ref="986862849"/>
    <nd ref="986861861"/>
    <nd ref="986862696"/>
    <nd ref="986864085"/>
    <tag k="addr:city" v="Зеленоград"/>
    <tag k="addr:housenumber" v="22"/>
    <tag k="addr:street" v="Лесная улица"/>
    <tag k="addr:suburb" v="Малино"/>
    <tag k="building" v="yes"/>
    <tag k="building:use" v="residential"/>
  </way>
  <way id="85046668" version="1" timestamp="2010-11-12T18:50:20Z" uid="115477" user="wowik" changeset="6352227">
    <nd ref="986863227"/>
    <nd ref="986862142"/>
    <nd ref="986864094"/>
    <nd ref="986862715"/>
    <nd ref="986863227"/>
    <tag k="addr:city" v="Зеленоград"/>
    <tag k="addr:suburb" v="Малино"/>
    <tag k="building" v="yes"/>
  </way>
</osm>
