<?xml version='1.0' encoding='UTF-8'?>
<osm version="0.6" generator="libosmium/2.20.0">
  <way id="85043178" version="1" timestamp="2010-11-12T18:15:16Z" uid="115477" user="wowik" changeset="6352227">
    <nd ref="986831972"/>
    <nd ref="986831890"/>
    <nd ref="986831485"/>
    <nd ref="986831682"/>
    <nd ref="986831842"/>
    <nd ref="986832001"/>
    <nd ref="986831972"/>
    <tag k="addr:city" v="Зеленоград"/>
    <tag k="building" v="yes"/>
  </way>
  <way id="85043178" version="2" timestamp="2010-11-18T10:31:01Z" uid="115477" user="wowik" changeset="6398891">
    <nd ref="986831972"/>
    <nd ref="986831890"/>
    <nd ref="986831485"/>
    <nd ref="986831682"/>
    <nd ref="986831842"/>
    <nd ref="986832001"/>
    <nd ref="986831972"/>
    <tag k="addr:city" v="Зеленоград"/>
    <tag k="addr:street" v="Прудный переулок"/>
    <tag k="building" v="yes"/>
  </way>
  <way id="85043181" version="1" timestamp="2010-11-12T18:15:17Z" uid="115477" user="wowik" changeset="6352227">
    <nd ref="986831848"/>
    <nd ref="986831530"/>
    <nd ref="986832006"/>
    <nd ref="986831720"/>
    <nd ref="986831848"/>
    <tag k="addr:city" v="Зеленоград"/>
    <tag k="addr:housenumber" v="17"/>
    <tag k="addr:street" v="Школьная улица"/>
    <tag k="addr:suburb" v="Малино"/>
    <tag k="building" v="yes"/>
  </way>
  <way id="85043181" version="2" timestamp="2011-01-13T16:27:55Z" uid="115477" user="wowik" changeset="6958660">
    <nd ref="986831848"/>
    <nd ref="986831530"/>
    <nd ref="986832006"/>
    <nd ref="986831720"/>
    <nd ref="986831848"/>
    <tag k="addr:city" v="Зеленоград"/>
    <tag k="addr:housenumber" v="17"/>
    <tag k="addr:street" v="Школьная улица"/>
    <tag k="addr:suburb" v="Малино"/>
    <tag k="building" v="yes"/>
    <tag k="building:use" v="residential"/>
  </way>
  <way id="85043182" version="1" timestamp="2010-11-12T18:15:17Z" uid="115477" user="wowik" changeset="6352227">
    <nd ref="986831873"/>
    <nd ref="986831550"/>
    <nd ref="986831468"/>
    <nd ref="986831740"/>
    <nd ref="986831873"/>
    <tag k="addr:city" v="Зеленоград"/>
    <tag k="addr:housenumber" v="5"/>
    <tag k="addr:street" v="Школьная улица"/>
    <tag k="addr:suburb" v="Малино"/>
    <tag k="building" v="yes"/>
  </way>
  <way id="85043182" version="2" timestamp="2011-01-13T16:25:30Z" uid="115477" user="wowik" changeset="6958660">
    <nd ref="986831873"/>
    <nd ref="986831550"/>
    <nd ref="986831468"/>
    <nd ref="986831740"/>
    <nd ref="986831873"/>
    <tag k="addr:city" v="Зеленоград"/>
    <tag k="addr:housenumber" v="5"/>
    <tag k="addr:street" v="Школьная улица"/>
    <tag k="addr:suburb" v="Малино"/>
    <tag k="building" v="yes"/>
    <tag k="building:use" v="residential"/>
  </way>
  <way id="85043185" version="1" timestamp="2010-11-12T18:15:17Z" uid="115477" user="wowik" changeset="6352227">
    <nd ref="986831697"/>
    <nd ref="986831594"/>
    <nd ref="986831854"/>
    <nd ref="986831771"/>
    <nd ref="986831697"/>
    <tag k="addr:city" v="Зеленоград"/>
    <tag k="addr:housenumber" v="13"/>
    <tag k="addr:street" v="Первомайская улица"/>
    <tag k="building" v="yes"/>
  </way>
  <way id="85043185" version="2" timestamp="2011-01-13T16:25:55Z" uid="115477" user="wowik" changeset="6958660">
    <nd ref="986831697"/>
    <nd ref="986831594"/>
    <nd ref="986831854"/>
    <nd ref="986831771"/>
    <nd ref="986831697"/>
    <tag k="addr:city" v="Зеленоград"/>
    <tag k="addr:housenumber" v="13"/>
    <tag k="addr:street" v="Первомайская улица"/>
    <tag k="building" v="yes"/>
    <tag k="building:use" v="residential"/>
  </way>
  <way id="85043185" version="3" timestamp="2011-01-17T15:14:11Z" uid="115477" user="wowik" changeset="7000395">
    <nd ref="986831697"/>
    <nd ref="986831594"/>
    <nd ref="986831854"/>
    <nd ref="986831771"/>
    <nd ref="986831697"/>
    <tag k="addr:city" v="Зеленоград"/>
    <tag k="addr:housenumber" v="13"/>
    <tag k="addr:street" v="Первомайская улица"/>
    <tag k="addr:suburb" v="Малино"/>
    <tag k="building" v="yes"/>
    <tag k="building:use" v="residential"/>
  </way>
  <way id="85043187" version="1" timestamp="2010-11-12T18:15:17Z" uid="115477" user="wowik" changeset="6352227">
    <nd ref="986831971"/>
    <nd ref="986831680"/>
    <nd ref="986831583"/>
    <nd ref="986831839"/>
    <nd ref="986831971"/>
    <tag k="addr:city" v="Зеленоград"/>
    <tag k="building" v="yes"/>
  </way>
  <way id="85043189" version="1" timestamp="2010-11-12T18:15:17Z" uid="115477" user="wowik" changeset="6352227">
    <nd ref="986831715"/>
    <nd ref="986831631"/>
    <nd ref="986831884"/>
    <nd ref="986831800"/>
    <nd ref="986831715"/>
    <tag k="addr:city" v="Зеленоград"/>
    <tag k="building" v="yes"/>
  </way>
  <way id="85043189" version="2" timestamp="2012-03-27T08:13:25Z" uid="481934" user="iWowik" changeset="11113698">
    <nd ref="986831715"/>
    <nd ref="986831631"/>
    <nd ref="986831884"/>
    <nd ref="986831800"/>
    <nd ref="986831715"/>
    <tag k="addr:city" v="Зеленоград"/>
    <tag k="addr:country" v="RU"/>
    <tag k="building" v="yes"/>
  </way>
  <way id="85043189" version="3" timestamp="2012-03-27T11:53:53Z" uid="481934" user="iWowik" changeset="11115472">
    <nd ref="986831715"/>
    <nd ref="986831631"/>
    <nd ref="986831884"/>
    <nd ref="986831800"/>
    <nd ref="986831715"/>
    <tag k="addr:city" v="Зеленоград"/>
    <tag k="addr:country" v="RU"/>
    <tag k="addr:region" v="Москва"/>
    <tag k="building" v="yes"/>
  </way>
  <way id="85043192" version="1" timestamp="2010-11-12T18:15:17Z" uid="115477" user="wowik" changeset="6352227">
    <nd ref="986831880"/>
    <nd ref="986831570"/>
    <nd ref="986831478"/>
    <nd ref="986831830"/>
    <nd ref="986831668"/>
    <nd ref="986831748"/>
    <nd ref="986831880"/>
    <tag k="addr:city" v="Зеленоград"/>
    <tag k="addr:housenumber" v="11"/>
    <tag k="addr:street" v="Первомайская улица"/>
    <tag k="building" v="yes"/>
  </way>
  <way id="85043192" version="2" timestamp="2011-01-13T16:25:47Z" uid="115477" user="wowik" changeset="6958660">
    <nd ref="986831880"/>
    <nd ref="986831570"/>
    <nd ref="986831478"/>
    <nd ref="986831830"/>
    <nd ref="986831668"/>
    <nd ref="986831748"/>
    <nd ref="986831880"/>
    <tag k="addr:city" v="Зеленоград"/>
    <tag k="addr:housenumber" v="11"/>
    <tag k="addr:street" v="Первомайская улица"/>
    <tag k="building" v="yes"/>
    <tag k="building:use" v="residential"/>
  </way>
  <way id="85043192" version="3" timestamp="2011-01-17T15:13:45Z" uid="115477" user="wowik" changeset="7000395">
    <nd ref="986831880"/>
    <nd ref="986831570"/>
    <nd ref="986831478"/>
    <nd ref="986831830"/>
    <nd ref="986831668"/>
    <nd ref="986831748"/>
    <nd ref="986831880"/>
    <tag k="addr:city" v="Зеленоград"/>
    <tag k="addr:housenumber" v="11"/>
    <tag k="addr:street" v="Первомайская улица"/>
    <tag k="addr:suburb" v="Малино"/>
    <tag k="building" v="yes"/>
    <tag k="building:use" v="residential"/>
  </way>
  <way id="85043193" version="1" timestamp="2010-11-12T18:15:18Z" uid="115477" user="wowik" changeset="6352227">
    <nd ref="986831596"/>
    <nd ref="986831501"/>
    <nd ref="986831773"/>
    <nd ref="986831698"/>
    <nd ref="986831596"/>
    <tag k="addr:city" v="Зеленоград"/>
    <tag k="building" v="yes"/>
  </way>
  <way id="85043195" version="1" timestamp="2010-11-12T18:15:18Z" uid="115477" user="wowik" changeset="6352227">
    <nd ref="986831696"/>
    <nd ref="986831592"/>
    <nd ref="986831770"/>
    <nd ref="986831937"/>
    <nd ref="986831696"/>
    <tag k="addr:city" v="Зеленоград"/>
    <tag k="building" v="yes"/>
  </way>
  <way id="85043197" version="1" timestamp="2010-11-12T18:15:18Z" uid="115477" user="wowik" changeset="6352227">
    <nd ref="986831958"/>
    <nd ref="986831876"/>
    <nd ref="986831555"/>
    <nd ref="986831471"/>
    <nd ref="986831958"/>
    <tag k="addr:city" v="Зеленоград"/>
    <tag k="building" v="yes"/>
  </way>
  <way id="85043199" version="1" timestamp="2010-11-12T18:15:18Z" uid="115477" user="wowik" changeset="6352227">
    <nd ref="986831909"/>
    <nd ref="986831612"/>
    <nd ref="986831511"/>
    <nd ref="986831790"/>
    <nd ref="986831909"/>
    <tag k="addr:city" v="Зеленоград"/>
    <tag k="building" v="yes"/>
  </way>
  <way id="85043200" version="1" timestamp="2010-11-12T18:15:18Z" uid="115477" user="wowik" changeset="6352227">
    <nd ref="986831992"/>
    <nd ref="986831557"/>
    <nd ref="986831743"/>
    <nd ref="986831911"/>
    <nd ref="986831614"/>
    <nd ref="986831959"/>
    <nd ref="986831792"/>
    <nd ref="986831512"/>
    <nd ref="986831992"/>
    <tag k="addr:city" v="Зеленоград"/>
    <tag k="addr:housenumber" v="19"/>
    <tag k="addr:street" v="Первомайская улица"/>
    <tag k="building" v="yes"/>
  </way>
  <way id="85043200" version="2" timestamp="2011-01-13T16:24:59Z" uid="115477" user="wowik" changeset="6958660">
    <nd ref="986831992"/>
    <nd ref="986831557"/>
    <nd ref="986831743"/>
    <nd ref="986831911"/>
    <nd ref="986831614"/>
    <nd ref="986831959"/>
    <nd ref="986831792"/>
    <nd ref="986831512"/>
    <nd ref="986831992"/>
    <tag k="addr:city" v="Зеленоград"/>
    <tag k="addr:housenumber" v="19"/>
    <tag k="addr:street" v="Первомайская улица"/>
    <tag k="building" v="yes"/>
    <tag k="building:use" v="residential"/>
  </way>
  <way id="85043200" version="3" timestamp="2011-01-17T15:13:40Z" uid="115477" user="wowik" changeset="7000395">
    <nd ref="986831992"/>
    <nd ref="986831557"/>
    <nd ref="986831743"/>
    <nd ref="986831911"/>
    <nd ref="986831614"/>
    <nd ref="986831959"/>
    <nd ref="986831792"/>
    <nd ref="986831512"/>
    <nd ref="986831992"/>
    <tag k="addr:city" v="Зеленоград"/>
    <tag k="addr:housenumber" v="19"/>
    <tag k="addr:street" v="Первомайская улица"/>
    <tag k="addr:suburb" v="Малино"/>
    <tag k="building" v="yes"/>
    <tag k="building:use" v="residential"/>
  </way>
  <way id="85043202" version="1" timestamp="2010-11-12T18:15:18Z" uid="115477" user="wowik" changeset="6352227">
    <nd ref="986831484"/>
    <nd ref="986831760"/>
    <nd ref="986831677"/>
    <nd ref="986831921"/>
    <nd ref="986831484"/>
    <tag k="addr:city" v="Зеленоград"/>
    <tag k="addr:housenumber" v="9"/>
    <tag k="addr:street" v="Школьная улица"/>
    <tag k="addr:suburb" v="Малино"/>
    <tag k="building" v="yes"/>
  </way>
  <way id="85043202" version="2" timestamp="2011-01-13T16:24:33Z" uid="115477" user="wowik" changeset="6958660">
    <nd ref="986831484"/>
    <nd ref="986831760"/>
    <nd ref="986831677"/>
    <nd ref="986831921"/>
    <nd ref="986831484"/>
    <tag k="addr:city" v="Зеленоград"/>
    <tag k="addr:housenumber" v="9"/>
    <tag k="addr:street" v="Школьная улица"/>
    <tag k="addr:suburb" v="Малино"/>
    <tag k="building" v="yes"/>
    <tag k="building:use" v="residential"/>
  </way>
  <way id="85043204" version="1" timestamp="2010-11-12T18:15:18Z" uid="115477" user="wowik" changeset="6352227">
    <nd ref="986831804"/>
    <nd ref="986831716"/>
    <nd ref="986831970"/>
    <nd ref="986831887"/>
    <nd ref="986831804"/>
    <tag k="addr:city" v="Зеленоград"/>
    <tag k="building" v="yes"/>
  </way>
  <way id="85043204" version="2" timestamp="2012-03-27T08:13:41Z" uid="481934" user="iWowik" changeset="11113698">
    <nd ref="986831804"/>
    <nd ref="986831716"/>
    <nd ref="986831970"/>
    <nd ref="986831887"/>
    <nd ref="986831804"/>
    <tag k="addr:city" v="Зеленоград"/>
    <tag k="addr:country" v="RU"/>
    <tag k="building" v="yes"/>
  </way>
  <way id="85043204" version="3" timestamp="2012-03-27T11:52:08Z" uid="481934" user="iWowik" changeset="11115472">
    <nd ref="986831804"/>
    <nd ref="986831716"/>
    <nd ref="986831970"/>
    <nd ref="986831887"/>
    <nd ref="986831804"/>
    <tag k="addr:city" v="Зеленоград"/>
    <tag k="addr:country" v="RU"/>
    <tag k="addr:region" v="Москва"/>
    <tag k="building" v="yes"/>
  </way>
  <way id="85043206" version="1" timestamp="2010-11-12T18:15:19Z" uid="115477" user="wowik" changeset="6352227">
    <nd ref="986831704"/>
    <nd ref="986831957"/>
    <nd ref="986831553"/>
    <nd ref="986831742"/>
    <nd ref="986831704"/>
    <tag k="addr:city" v="Зеленоград"/>
    <tag k="building" v="yes"/>
  </way>
  <way id="85043208" version="1" timestamp="2010-11-12T18:15:19Z" uid="115477" user="wowik" changeset="6352227">
    <nd ref="986831814"/>
    <nd ref="986831733"/>
    <nd ref="986831977"/>
    <nd ref="986831900"/>
    <nd ref="986831769"/>
    <nd ref="986831591"/>
    <nd ref="986831935"/>
    <nd ref="986831534"/>
    <nd ref="986831814"/>
    <tag k="addr:city" v="Зеленоград"/>
    <tag k="addr:housenumber" v="29"/>
    <tag k="addr:street" v="Первомайская улица"/>
    <tag k="building" v="yes"/>
  </way>
  <way id="85043208" version="2" timestamp="2011-01-13T16:26:25Z" uid="115477" user="wowik" changeset="6958660">
    <nd ref="986831814"/>
    <nd ref="986831733"/>
    <nd ref="986831977"/>
    <nd ref="986831900"/>
    <nd ref="986831769"/>
    <nd ref="986831591"/>
    <nd ref="986831935"/>
    <nd ref="986831534"/>
    <nd ref="986831814"/>
    <tag k="addr:city" v="Зеленоград"/>
    <tag k="addr:housenumber" v="29"/>
    <tag k="addr:street" v="Первомайская улица"/>
    <tag k="building" v="yes"/>
    <tag k="building:use" v="residential"/>
  </way>
  <way id="85043208" version="3" timestamp="2011-01-17T15:14:15Z" uid="115477" user="wowik" changeset="7000395">
    <nd ref="986831814"/>
    <nd ref="986831733"/>
    <nd ref="986831977"/>
    <nd ref="986831900"/>
    <nd ref="986831769"/>
    <nd ref="986831591"/>
    <nd ref="986831935"/>
    <nd ref="986831534"/>
    <nd ref="986831814"/>
    <tag k="addr:city" v="Зеленоград"/>
    <tag k="addr:housenumber" v="29"/>
    <tag k="addr:street" v="Первомайская улица"/>
    <tag k="addr:suburb" v="Малино"/>
    <tag k="building" v="yes"/>
    <tag k="building:use" v="residential"/>
  </way>
  <way id="85043211" version="1" timestamp="2010-11-12T18:15:22Z" uid="115477" user="wowik" changeset="6352227">
    <nd ref="986831539"/>
    <nd ref="986831452"/>
    <nd ref="986831642"/>
    <nd ref="986831813"/>
    <nd ref="986831539"/>
    <tag k="addr:city" v="Зеленоград"/>
    <tag k="building" v="yes"/>
  </way>
  <way id="85043213" version="1" timestamp="2010-11-12T18:15:22Z" uid="115477" user="wowik" changeset="6352227">
    <nd ref="986831648"/>
    <nd ref="986831902"/>
    <nd ref="986831819"/>
    <nd ref="986831502"/>
    <nd ref="986831648"/>
    <tag k="addr:city" v="Зеленоград"/>
    <tag k="building" v="yes"/>
  </way>
  <way id="85043214" version="1" timestamp="2010-11-12T18:15:22Z" uid="115477" user="wowik" changeset="6352227">
    <nd ref="986831948"/>
    <nd ref="986831868"/>
    <nd ref="986831547"/>
    <nd ref="986831465"/>
    <nd ref="986831948"/>
    <tag k="addr:city" v="Зеленоград"/>
    <tag k="building" v="yes"/>
  </way>
  <way id="85043216" version="1" timestamp="2010-11-12T18:15:22Z" uid="115477" user="wowik" changeset="6352227">
    <nd ref="986831617"/>
    <nd ref="986831513"/>
    <nd ref="986831794"/>
    <nd ref="986831706"/>
    <nd ref="986831617"/>
    <tag k="addr:city" v="Зеленоград"/>
    <tag k="addr:housenumber" v="3"/>
    <tag k="addr:street" v="Первомайская улица"/>
    <tag k="building" v="yes"/>
  </way>
  <way id="85043216" version="2" timestamp="2011-01-13T16:25:46Z" uid="115477" user="wowik" changeset="6958660">
    <nd ref="986831617"/>
    <nd ref="986831513"/>
    <nd ref="986831794"/>
    <nd ref="986831706"/>
    <nd ref="986831617"/>
    <tag k="addr:city" v="Зеленоград"/>
    <tag k="addr:housenumber" v="3"/>
    <tag k="addr:street" v="Первомайская улица"/>
    <tag k="building" v="yes"/>
    <tag k="building:use" v="residential"/>
  </way>
  <way id="85043216" version="3" timestamp="2011-01-17T15:14:10Z" uid="115477" user="wowik" changeset="7000395">
    <nd ref="986831617"/>
    <nd ref="986831513"/>
    <nd ref="986831794"/>
    <nd ref="986831706"/>
    <nd ref="986831617"/>
    <tag k="addr:city" v="Зеленоград"/>
    <tag k="addr:housenumber" v="3"/>
    <tag k="addr:street" v="Первомайская улица"/>
    <tag k="addr:suburb" v="Малино"/>
    <tag k="building" v="yes"/>
    <tag k="building:use" v="residential"/>
  </way>
  <way id="85043219" version="1" timestamp="2010-11-12T18:15:23Z" uid="115477" user="wowik" changeset="6352227">
    <nd ref="986831711"/>
    <nd ref="986831627"/>
    <nd ref="986831799"/>
    <nd ref="986831503"/>
    <nd ref="986831711"/>
    <tag k="addr:city" v="Зеленоград"/>
    <tag k="addr:housenumber" v="5"/>
    <tag k="addr:street" v="Малинская  улица"/>
    <tag k="building" v="yes"/>
  </way>
  <way id="85043219" version="2" timestamp="2010-11-15T19:27:33Z" uid="133332" user="AMDmi3" changeset="6379840">
    <nd ref="986831711"/>
    <nd ref="986831627"/>
    <nd ref="986831799"/>
    <nd ref="986831503"/>
    <nd ref="986831711"/>
    <tag k="addr:city" v="Зеленоград"/>
    <tag k="addr:housenumber" v="5"/>
    <tag k="addr:street" v="Малинская улица"/>
    <tag k="building" v="yes"/>
  </way>
  <way id="85043219" version="3" timestamp="2010-11-18T10:31:02Z" uid="115477" user="wowik" changeset="6398891">
    <nd ref="986831711"/>
    <nd ref="986831627"/>
    <nd ref="986831799"/>
    <nd ref="986831503"/>
    <nd ref="986831711"/>
    <tag k="addr:city" v="Зеленоград"/>
    <tag k="addr:housenumber" v="5"/>
    <tag k="addr:street" v="Прудный переулок"/>
    <tag k="building" v="yes"/>
  </way>
  <way id="85043219" version="4" timestamp="2011-01-13T16:26:57Z" uid="115477" user="wowik" changeset="6958660">
    <nd ref="986831711"/>
    <nd ref="986831627"/>
    <nd ref="986831799"/>
    <nd ref="986831503"/>
    <nd ref="986831711"/>
    <tag k="addr:city" v="Зеленоград"/>
    <tag k="addr:housenumber" v="5"/>
    <tag k="addr:street" v="Прудный переулок"/>
    <tag k="building" v="yes"/>
    <tag k="building:use" v="residential"/>
  </way>
  <way id="85043221" version="1" timestamp="2010-11-12T18:15:23Z" uid="115477" user="wowik" changeset="6352227">
    <nd ref="986831998"/>
    <nd ref="986831713"/>
    <nd ref="986831628"/>
    <nd ref="986831883"/>
    <nd ref="986831998"/>
    <tag k="addr:city" v="Зеленоград"/>
    <tag k="addr:housenumber" v="7"/>
    <tag k="addr:street" v="Первомайская улица"/>
    <tag k="building" v="yes"/>
  </way>
  <way id="85043221" version="2" timestamp="2011-01-13T16:24:51Z" uid="115477" user="wowik" changeset="6958660">
    <nd ref="986831998"/>
    <nd ref="986831713"/>
    <nd ref="986831628"/>
    <nd ref="986831883"/>
    <nd ref="986831998"/>
    <tag k="addr:city" v="Зеленоград"/>
    <tag k="addr:housenumber" v="7"/>
    <tag k="addr:street" v="Первомайская улица"/>
    <tag k="building" v="yes"/>
    <tag k="building:use" v="residential"/>
  </way>
  <way id="85043221" version="3" timestamp="2011-01-17T15:13:38Z" uid="115477" user="wowik" changeset="7000395">
    <nd ref="986831998"/>
    <nd ref="986831713"/>
    <nd ref="986831628"/>
    <nd ref="986831883"/>
    <nd ref="986831998"/>
    <tag k="addr:city" v="Зеленоград"/>
    <tag k="addr:housenumber" v="7"/>
    <tag k="addr:street" v="Первомайская улица"/>
    <tag k="addr:suburb" v="Малино"/>
    <tag k="building" v="yes"/>
    <tag k="building:use" v="residential"/>
  </way>
  <way id="85043222" version="1" timestamp="2010-11-12T18:15:23Z" uid="115477" user="wowik" changeset="6352227">
    <nd ref="986831750"/>
    <nd ref="986831670"/>
    <nd ref="986831912"/>
    <nd ref="986831832"/>
    <nd ref="986831750"/>
    <tag k="addr:city" v="Зеленоград"/>
    <tag k="building" v="yes"/>
  </way>
  <way id="85043225" version="1" timestamp="2010-11-12T18:15:23Z" uid="115477" user="wowik" changeset="6352227">
    <nd ref="986831951"/>
    <nd ref="986831872"/>
    <nd ref="986831467"/>
    <nd ref="986831659"/>
    <nd ref="986831822"/>
    <nd ref="986831980"/>
    <nd ref="986831951"/>
    <tag k="addr:city" v="Зеленоград"/>
    <tag k="addr:housenumber" v="4"/>
    <tag k="addr:street" v="Прудный переулок"/>
    <tag k="building" v="yes"/>
  </way>
  <way id="85043225" version="2" timestamp="2011-01-13T16:25:08Z" uid="115477" user="wowik" changeset="6958660">
    <nd ref="986831951"/>
    <nd ref="986831872"/>
    <nd ref="986831467"/>
    <nd ref="986831659"/>
    <nd ref="986831822"/>
    <nd ref="986831980"/>
    <nd ref="986831951"/>
    <tag k="addr:city" v="Зеленоград"/>
    <tag k="addr:housenumber" v="4"/>
    <tag k="addr:street" v="Прудный переулок"/>
    <tag k="building" v="yes"/>
    <tag k="building:use" v="residential"/>
  </way>
  <way id="85043226" version="1" timestamp="2010-11-12T18:15:23Z" uid="115477" user="wowik" changeset="6352227">
    <nd ref="986831506"/>
    <nd ref="986831985"/>
    <nd ref="986831602"/>
    <nd ref="986831780"/>
    <nd ref="986831506"/>
    <tag k="addr:city" v="Зеленоград"/>
    <tag k="addr:housenumber" v="1"/>
    <tag k="addr:street" v="Первомайская улица"/>
    <tag k="building" v="yes"/>
  </way>
  <way id="85043226" version="2" timestamp="2011-01-13T16:26:47Z" uid="115477" user="wowik" changeset="6958660">
    <nd ref="986831506"/>
    <nd ref="986831985"/>
    <nd ref="986831602"/>
    <nd ref="986831780"/>
    <nd ref="986831506"/>
    <tag k="addr:city" v="Зеленоград"/>
    <tag k="addr:housenumber" v="1"/>
    <tag k="addr:street" v="Первомайская улица"/>
    <tag k="building" v="yes"/>
    <tag k="building:use" v="residential"/>
  </way>
  <way id="85043226" version="3" timestamp="2011-01-17T15:14:16Z" uid="115477" user="wowik" changeset="7000395">
    <nd ref="986831506"/>
    <nd ref="986831985"/>
    <nd ref="986831602"/>
    <nd ref="986831780"/>
    <nd ref="986831506"/>
    <tag k="addr:city" v="Зеленоград"/>
    <tag k="addr:housenumber" v="1"/>
    <tag k="addr:street" v="Первомайская улица"/>
    <tag k="addr:suburb" v="Малино"/>
    <tag k="building" v="yes"/>
    <tag k="building:use" v="residential"/>
  </way>
  <way id="85043228" version="1" timestamp="2010-11-12T18:15:24Z" uid="115477" user="wowik" changeset="6352227">
    <nd ref="986831768"/>
    <nd ref="986831693"/>
    <nd ref="986831932"/>
    <nd ref="986831851"/>
    <nd ref="986831768"/>
    <tag k="addr:city" v="Зеленоград"/>
    <tag k="building" v="yes"/>
  </way>
  <way id="85043229" version="1" timestamp="2010-11-12T18:15:24Z" uid="115477" user="wowik" changeset="6352227">
    <nd ref="986831899"/>
    <nd ref="986831806"/>
    <nd ref="986831850"/>
    <nd ref="986831689"/>
    <nd ref="986831500"/>
    <nd ref="986831975"/>
    <nd ref="986831899"/>
    <tag k="addr:city" v="Зеленоград"/>
    <tag k="addr:housenumber" v="31"/>
    <tag k="addr:street" v="Первомайская улица"/>
    <tag k="building" v="yes"/>
  </way>
  <way id="85043229" version="2" timestamp="2011-01-13T16:26:14Z" uid="115477" user="wowik" changeset="6958660">
    <nd ref="986831899"/>
    <nd ref="986831806"/>
    <nd ref="986831850"/>
    <nd ref="986831689"/>
    <nd ref="986831500"/>
    <nd ref="986831975"/>
    <nd ref="986831899"/>
    <tag k="addr:city" v="Зеленоград"/>
    <tag k="addr:housenumber" v="31"/>
    <tag k="addr:street" v="Первомайская улица"/>
    <tag k="building" v="yes"/>
    <tag k="building:use" v="residential"/>
  </way>
  <way id="85043229" version="3" timestamp="2011-01-17T15:14:13Z" uid="115477" user="wowik" changeset="7000395">
    <nd ref="986831899"/>
    <nd ref="986831806"/>
    <nd ref="986831850"/>
    <nd ref="986831689"/>
    <nd ref="986831500"/>
    <nd ref="986831975"/>
    <nd ref="986831899"/>
    <tag k="addr:city" v="Зеленоград"/>
    <tag k="addr:housenumber" v="31"/>
    <tag k="addr:street" v="Первомайская улица"/>
    <tag k="addr:suburb" v="Малино"/>
    <tag k="building" v="yes"/>
    <tag k="building:use" v="residential"/>
  </way>
  <way id="85043232" version="1" timestamp="2010-11-12T18:15:24Z" uid="115477" user="wowik" changeset="6352227">
    <nd ref="986831619"/>
    <nd ref="986831878"/>
    <nd ref="986831796"/>
    <nd ref="986831589"/>
    <nd ref="986831619"/>
    <tag k="addr:city" v="Зеленоград"/>
    <tag k="addr:housenumber" v="7"/>
    <tag k="addr:street" v="Школьная улица"/>
    <tag k="addr:suburb" v="Малино"/>
    <tag k="building" v="yes"/>
  </way>
  <way id="85043232" version="2" timestamp="2011-01-13T16:26:44Z" uid="115477" user="wowik" changeset="6958660">
    <nd ref="986831619"/>
    <nd ref="986831878"/>
    <nd ref="986831796"/>
    <nd ref="986831589"/>
    <nd ref="986831619"/>
    <tag k="addr:city" v="Зеленоград"/>
    <tag k="addr:housenumber" v="7"/>
    <tag k="addr:street" v="Школьная улица"/>
    <tag k="addr:suburb" v="Малино"/>
    <tag k="building" v="yes"/>
    <tag k="building:use" v="residential"/>
  </way>
  <way id="85043234" version="1" timestamp="2010-11-12T18:15:28Z" uid="115477" user="wowik" changeset="6352227">
    <nd ref="986831483"/>
    <nd ref="986831755"/>
    <nd ref="986831676"/>
    <nd ref="986831916"/>
    <nd ref="986831483"/>
    <tag k="addr:city" v="Зеленоград"/>
    <tag k="addr:housenumber" v="19А"/>
    <tag k="addr:street" v="Школьная улица"/>
    <tag k="addr:suburb" v="Малино"/>
    <tag k="building" v="yes"/>
  </way>
  <way id="85043234" version="2" timestamp="2011-01-13T16:26:03Z" uid="115477" user="wowik" changeset="6958660">
    <nd ref="986831483"/>
    <nd ref="986831755"/>
    <nd ref="986831676"/>
    <nd ref="986831916"/>
    <nd ref="986831483"/>
    <tag k="addr:city" v="Зеленоград"/>
    <tag k="addr:housenumber" v="19А"/>
    <tag k="addr:street" v="Школьная улица"/>
    <tag k="addr:suburb" v="Малино"/>
    <tag k="building" v="yes"/>
    <tag k="building:use" v="residential"/>
  </way>
  <way id="85043237" version="1" timestamp="2010-11-12T18:15:28Z" uid="115477" user="wowik" changeset="6352227">
    <nd ref="986831446"/>
    <nd ref="986831726"/>
    <nd ref="986831892"/>
    <nd ref="986831490"/>
    <nd ref="986831446"/>
    <tag k="addr:city" v="Зеленоград"/>
    <tag k="building" v="yes"/>
  </way>
  <way id="85043238" version="1" timestamp="2010-11-12T18:15:28Z" uid="115477" user="wowik" changeset="6352227">
    <nd ref="986831949"/>
    <nd ref="986831649"/>
    <nd ref="986831548"/>
    <nd ref="986831820"/>
    <nd ref="986831949"/>
    <tag k="addr:city" v="Зеленоград"/>
    <tag k="building" v="yes"/>
  </way>
  <way id="85043238" version="2" timestamp="2010-11-12T18:56:50Z" uid="115477" user="wowik" changeset="6352227">
    <nd ref="986831949"/>
    <nd ref="986831649"/>
    <nd ref="986831548"/>
    <nd ref="986831820"/>
    <nd ref="986831949"/>
    <tag k="addr:city" v="Зеленоград"/>
    <tag k="addr:housenumber" v="33с2"/>
    <tag k="addr:street" v="Первомайская улица"/>
    <tag k="building" v="yes"/>
  </way>
  <way id="85043238" version="3" timestamp="2011-01-17T15:14:21Z" uid="115477" user="wowik" changeset="7000395">
    <nd ref="986831949"/>
    <nd ref="986831649"/>
    <nd ref="986831548"/>
    <nd ref="986831820"/>
    <nd ref="986831949"/>
    <tag k="addr:city" v="Зеленоград"/>
    <tag k="addr:housenumber" v="33с2"/>
    <tag k="addr:street" v="Первомайская улица"/>
    <tag k="addr:suburb" v="Малино"/>
    <tag k="building" v="yes"/>
  </way>
  <way id="85043238" version="4" timestamp="2011-01-19T17:03:30Z" uid="70696" user="xybot" changeset="7021015">
    <nd ref="986831949"/>
    <nd ref="986831649"/>
    <nd ref="986831548"/>
    <nd ref="986831820"/>
    <nd ref="986831949"/>
    <tag k="addr:city" v="Зеленоград"/>
    <tag k="addr:housenumber" v="33 с2"/>
    <tag k="addr:street" v="Первомайская улица"/>
    <tag k="addr:suburb" v="Малино"/>
    <tag k="building" v="yes"/>
  </way>
  <way id="85043240" version="1" timestamp="2010-11-12T18:15:28Z" uid="115477" user="wowik" changeset="6352227">
    <nd ref="986831701"/>
    <nd ref="986831604"/>
    <nd ref="986831869"/>
    <nd ref="986831784"/>
    <nd ref="986831701"/>
    <tag k="addr:city" v="Зеленоград"/>
    <tag k="building" v="yes"/>
  </way>
  <way id="85043242" version="1" timestamp="2010-11-12T18:15:28Z" uid="115477" user="wowik" changeset="6352227">
    <nd ref="986831945"/>
    <nd ref="986831645"/>
    <nd ref="986831816"/>
    <nd ref="986831978"/>
    <nd ref="986831945"/>
    <tag k="addr:city" v="Зеленоград"/>
    <tag k="addr:housenumber" v="3"/>
    <tag k="addr:street" v="Малинская  улица"/>
    <tag k="building" v="yes"/>
  </way>
  <way id="85043242" version="2" timestamp="2010-11-15T19:27:56Z" uid="133332" user="AMDmi3" changeset="6379840">
    <nd ref="986831945"/>
    <nd ref="986831645"/>
    <nd ref="986831816"/>
    <nd ref="986831978"/>
    <nd ref="986831945"/>
    <tag k="addr:city" v="Зеленоград"/>
    <tag k="addr:housenumber" v="3"/>
    <tag k="addr:street" v="Малинская улица"/>
    <tag k="building" v="yes"/>
  </way>
  <way id="85043242" version="3" timestamp="2010-11-18T10:31:03Z" uid="115477" user="wowik" changeset="6398891">
    <nd ref="986831945"/>
    <nd ref="986831645"/>
    <nd ref="986831816"/>
    <nd ref="986831978"/>
    <nd ref="986831945"/>
    <tag k="addr:city" v="Зеленоград"/>
    <tag k="addr:housenumber" v="3"/>
    <tag k="addr:street" v="Прудный переулок"/>
    <tag k="building" v="yes"/>
  </way>
  <way id="85043242" version="4" timestamp="2011-01-13T16:27:41Z" uid="115477" user="wowik" changeset="6958660">
    <nd ref="986831945"/>
    <nd ref="986831645"/>
    <nd ref="986831816"/>
    <nd ref="986831978"/>
    <nd ref="986831945"/>
    <tag k="addr:city" v="Зеленоград"/>
    <tag k="addr:housenumber" v="3"/>
    <tag k="addr:street" v="Прудный переулок"/>
    <tag k="building" v="yes"/>
    <tag k="building:use" v="residential"/>
  </way>
  <way id="85043244" version="1" timestamp="2010-11-12T18:15:29Z" uid="115477" user="wowik" changeset="6352227">
    <nd ref="986831730"/>
    <nd ref="986831976"/>
    <nd ref="986831586"/>
    <nd ref="986831767"/>
    <nd ref="986831730"/>
    <tag k="addr:city" v="Зеленоград"/>
    <tag k="addr:housenumber" v="1"/>
    <tag k="addr:street" v="Школьная улица"/>
    <tag k="addr:suburb" v="Малино"/>
    <tag k="building" v="yes"/>
  </way>
  <way id="85043244" version="2" timestamp="2011-01-13T16:25:28Z" uid="115477" user="wowik" changeset="6958660">
    <nd ref="986831730"/>
    <nd ref="986831976"/>
    <nd ref="986831586"/>
    <nd ref="986831767"/>
    <nd ref="986831730"/>
    <tag k="addr:city" v="Зеленоград"/>
    <tag k="addr:housenumber" v="1"/>
    <tag k="addr:street" v="Школьная улица"/>
    <tag k="addr:suburb" v="Малино"/>
    <tag k="building" v="yes"/>
    <tag k="building:use" v="residential"/>
  </way>
  <way id="85043246" version="1" timestamp="2010-11-12T18:15:29Z" uid="115477" user="wowik" changeset="6352227">
    <nd ref="986831857"/>
    <nd ref="986831544"/>
    <nd ref="986831735"/>
    <nd ref="986831901"/>
    <nd ref="986831857"/>
    <tag k="addr:city" v="Зеленоград"/>
    <tag k="building" v="yes"/>
  </way>
  <way id="85043248" version="1" timestamp="2010-11-12T18:15:30Z" uid="115477" user="wowik" changeset="6352227">
    <nd ref="986831840"/>
    <nd ref="986831761"/>
    <nd ref="986832000"/>
    <nd ref="986831924"/>
    <nd ref="986831840"/>
    <tag k="addr:city" v="Зеленоград"/>
    <tag k="building" v="yes"/>
  </way>
  <way id="85043248" version="2" timestamp="2012-03-27T08:12:40Z" uid="481934" user="iWowik" changeset="11113698">
    <nd ref="986831840"/>
    <nd ref="986831761"/>
    <nd ref="986832000"/>
    <nd ref="986831924"/>
    <nd ref="986831840"/>
    <tag k="addr:city" v="Зеленоград"/>
    <tag k="addr:country" v="RU"/>
    <tag k="building" v="yes"/>
  </way>
  <way id="85043248" version="3" timestamp="2012-03-27T11:53:12Z" uid="481934" user="iWowik" changeset="11115472">
    <nd ref="986831840"/>
    <nd ref="986831761"/>
    <nd ref="986832000"/>
    <nd ref="986831924"/>
    <nd ref="986831840"/>
    <tag k="addr:city" v="Зеленоград"/>
    <tag k="addr:country" v="RU"/>
    <tag k="addr:region" v="Москва"/>
    <tag k="building" v="yes"/>
  </way>
  <way id="85043250" version="1" timestamp="2010-11-12T18:15:30Z" uid="115477" user="wowik" changeset="6352227">
    <nd ref="986831990"/>
    <nd ref="986831703"/>
    <nd ref="986831611"/>
    <nd ref="986831874"/>
    <nd ref="986831990"/>
    <tag k="addr:city" v="Зеленоград"/>
    <tag k="building" v="yes"/>
  </way>
  <way id="85043252" version="1" timestamp="2010-11-12T18:15:31Z" uid="115477" user="wowik" changeset="6352227">
    <nd ref="986831944"/>
    <nd ref="986831858"/>
    <nd ref="986831545"/>
    <nd ref="986831457"/>
    <nd ref="986831944"/>
    <tag k="addr:city" v="Зеленоград"/>
    <tag k="building" v="yes"/>
  </way>
  <way id="85043254" version="1" timestamp="2010-11-12T18:15:31Z" uid="115477" user="wowik" changeset="6352227">
    <nd ref="986831618"/>
    <nd ref="986831514"/>
    <nd ref="986831795"/>
    <nd ref="986831708"/>
    <nd ref="986831618"/>
    <tag k="addr:city" v="Зеленоград"/>
    <tag k="addr:housenumber" v="15"/>
    <tag k="addr:street" v="Школьная улица"/>
    <tag k="addr:suburb" v="Малино"/>
    <tag k="building" v="yes"/>
  </way>
  <way id="85043254" version="2" timestamp="2011-01-13T16:24:30Z" uid="115477" user="wowik" changeset="6958660">
    <nd ref="986831618"/>
    <nd ref="986831514"/>
    <nd ref="986831795"/>
    <nd ref="986831708"/>
    <nd ref="986831618"/>
    <tag k="addr:city" v="Зеленоград"/>
    <tag k="addr:housenumber" v="15"/>
    <tag k="addr:street" v="Школьная улица"/>
    <tag k="addr:suburb" v="Малино"/>
    <tag k="building" v="yes"/>
    <tag k="building:use" v="residential"/>
  </way>
  <way id="85043255" version="1" timestamp="2010-11-12T18:15:31Z" uid="115477" user="wowik" changeset="6352227">
    <nd ref="986831947"/>
    <nd ref="986831861"/>
    <nd ref="986831546"/>
    <nd ref="986831464"/>
    <nd ref="986831947"/>
    <tag k="addr:city" v="Зеленоград"/>
    <tag k="building" v="yes"/>
  </way>
  <way id="85043256" version="1" timestamp="2010-11-12T18:15:31Z" uid="115477" user="wowik" changeset="6352227">
    <nd ref="986831903"/>
    <nd ref="986831600"/>
    <nd ref="986831504"/>
    <nd ref="986831775"/>
    <nd ref="986831903"/>
    <tag k="addr:city" v="Зеленоград"/>
    <tag k="building" v="yes"/>
  </way>
  <way id="85043259" version="1" timestamp="2010-11-12T18:15:31Z" uid="115477" user="wowik" changeset="6352227">
    <nd ref="986831571"/>
    <nd ref="986831831"/>
    <nd ref="986831749"/>
    <nd ref="986831995"/>
    <nd ref="986831571"/>
    <tag k="addr:city" v="Зеленоград"/>
    <tag k="addr:housenumber" v="13"/>
    <tag k="addr:street" v="Школьная улица"/>
    <tag k="addr:suburb" v="Малино"/>
    <tag k="building" v="yes"/>
  </way>
  <way id="85043259" version="2" timestamp="2011-01-13T16:26:12Z" uid="115477" user="wowik" changeset="6958660">
    <nd ref="986831571"/>
    <nd ref="986831831"/>
    <nd ref="986831749"/>
    <nd ref="986831995"/>
    <nd ref="986831571"/>
    <tag k="addr:city" v="Зеленоград"/>
    <tag k="addr:housenumber" v="13"/>
    <tag k="addr:street" v="Школьная улица"/>
    <tag k="addr:suburb" v="Малино"/>
    <tag k="building" v="yes"/>
    <tag k="building:use" v="residential"/>
  </way>
  <way id="85043260" version="1" timestamp="2010-11-12T18:15:31Z" uid="115477" user="wowik" changeset="6352227">
    <nd ref="986831695"/>
    <nd ref="986831934"/>
    <nd ref="986831853"/>
    <nd ref="986831728"/>
    <nd ref="986831898"/>
    <nd ref="986831532"/>
    <nd ref="986831635"/>
    <nd ref="986831805"/>
    <nd ref="986831973"/>
    <nd ref="986831584"/>
    <nd ref="986831443"/>
    <nd ref="986831823"/>
    <nd ref="986831498"/>
    <nd ref="986831687"/>
    <nd ref="986831763"/>
    <nd ref="986831849"/>
    <nd ref="986831926"/>
    <nd ref="986831662"/>
    <nd ref="986831695"/>
    <tag k="addr:city" v="Зеленоград"/>
    <tag k="addr:housenumber" v="11"/>
    <tag k="addr:street" v="Школьная улица"/>
    <tag k="addr:suburb" v="Малино"/>
    <tag k="building" v="yes"/>
  </way>
  <way id="85043260" version="2" timestamp="2011-01-13T16:26:21Z" uid="115477" user="wowik" changeset="6958660">
    <nd ref="986831695"/>
    <nd ref="986831934"/>
    <nd ref="986831853"/>
    <nd ref="986831728"/>
    <nd ref="986831898"/>
    <nd ref="986831532"/>
    <nd ref="986831635"/>
    <nd ref="986831805"/>
    <nd ref="986831973"/>
    <nd ref="986831584"/>
    <nd ref="986831443"/>
    <nd ref="986831823"/>
    <nd ref="986831498"/>
    <nd ref="986831687"/>
    <nd ref="986831763"/>
    <nd ref="986831849"/>
    <nd ref="986831926"/>
    <nd ref="986831662"/>
    <nd ref="986831695"/>
    <tag k="addr:city" v="Зеленоград"/>
    <tag k="addr:housenumber" v="11"/>
    <tag k="addr:street" v="Школьная улица"/>
    <tag k="addr:suburb" v="Малино"/>
    <tag k="building" v="yes"/>
    <tag k="building:use" v="residential"/>
  </way>
  <way id="85043263" version="1" timestamp="2010-11-12T18:15:32Z" uid="115477" user="wowik" changeset="6352227">
    <nd ref="986831845"/>
    <nd ref="986831764"/>
    <nd ref="986831929"/>
    <nd ref="986831527"/>
    <nd ref="986831845"/>
    <tag k="addr:city" v="Зеленоград"/>
    <tag k="building" v="yes"/>
  </way>
  <way id="85043263" version="2" timestamp="2012-02-27T08:05:03Z" uid="481934" user="iWowik" changeset="10806201">
    <nd ref="986831845"/>
    <nd ref="986831764"/>
    <nd ref="986831929"/>
    <nd ref="986831527"/>
    <nd ref="986831845"/>
    <tag k="addr:city" v="Зеленоград"/>
    <tag k="building" v="yes"/>
    <tag k="shop" v="convenience"/>
  </way>
  <way id="85043264" version="1" timestamp="2010-11-12T18:15:32Z" uid="115477" user="wowik" changeset="6352227">
    <nd ref="986831666"/>
    <nd ref="986831564"/>
    <nd ref="986831827"/>
    <nd ref="986831746"/>
    <nd ref="986831666"/>
    <tag k="addr:city" v="Зеленоград"/>
    <tag k="building" v="yes"/>
  </way>
  <way id="85043266" version="1" timestamp="2010-11-12T18:15:32Z" uid="115477" user="wowik" changeset="6352227">
    <nd ref="986831943"/>
    <nd ref="986831643"/>
    <nd ref="986831542"/>
    <nd ref="986831474"/>
    <nd ref="986831943"/>
    <tag k="addr:city" v="Зеленоград"/>
    <tag k="building" v="yes"/>
  </way>
  <way id="85043267" version="1" timestamp="2010-11-12T18:15:32Z" uid="115477" user="wowik" changeset="6352227">
    <nd ref="986831574"/>
    <nd ref="986831835"/>
    <nd ref="986831996"/>
    <nd ref="986831622"/>
    <nd ref="986831798"/>
    <nd ref="986831965"/>
    <nd ref="986831574"/>
    <tag k="addr:city" v="Зеленоград"/>
    <tag k="building" v="yes"/>
  </way>
  <way id="85043267" version="2" timestamp="2010-11-18T10:31:02Z" uid="115477" user="wowik" changeset="6398891">
    <nd ref="986831574"/>
    <nd ref="986831835"/>
    <nd ref="986831996"/>
    <nd ref="986831622"/>
    <nd ref="986831798"/>
    <nd ref="986831965"/>
    <nd ref="986831574"/>
    <tag k="addr:city" v="Зеленоград"/>
    <tag k="addr:housenumber" v="2"/>
    <tag k="addr:street" v="Прудный переулок"/>
    <tag k="building" v="yes"/>
  </way>
  <way id="85043267" version="3" timestamp="2011-01-13T16:25:34Z" uid="115477" user="wowik" changeset="6958660">
    <nd ref="986831574"/>
    <nd ref="986831835"/>
    <nd ref="986831996"/>
    <nd ref="986831622"/>
    <nd ref="986831798"/>
    <nd ref="986831965"/>
    <nd ref="986831574"/>
    <tag k="addr:city" v="Зеленоград"/>
    <tag k="addr:housenumber" v="2"/>
    <tag k="addr:street" v="Прудный переулок"/>
    <tag k="building" v="yes"/>
    <tag k="building:use" v="residential"/>
  </way>
  <way id="85043269" version="1" timestamp="2010-11-12T18:15:32Z" uid="115477" user="wowik" changeset="6352227">
    <nd ref="986831999"/>
    <nd ref="986831922"/>
    <nd ref="986831630"/>
    <nd ref="986831519"/>
    <nd ref="986831999"/>
    <tag k="addr:city" v="Зеленоград"/>
    <tag k="building" v="yes"/>
  </way>
  <way id="85043272" version="1" timestamp="2010-11-12T18:15:33Z" uid="115477" user="wowik" changeset="6352227">
    <nd ref="986831588"/>
    <nd ref="986831852"/>
    <nd ref="986831450"/>
    <nd ref="986831640"/>
    <nd ref="986831588"/>
    <tag k="addr:city" v="Зеленоград"/>
    <tag k="building" v="yes"/>
  </way>
  <way id="85043273" version="1" timestamp="2010-11-12T18:15:33Z" uid="115477" user="wowik" changeset="6352227">
    <nd ref="986831765"/>
    <nd ref="986832003"/>
    <nd ref="986831931"/>
    <nd ref="986831634"/>
    <nd ref="986831765"/>
    <tag k="addr:city" v="Зеленоград"/>
    <tag k="building" v="yes"/>
  </way>
  <way id="85043275" version="1" timestamp="2010-11-12T18:15:33Z" uid="115477" user="wowik" changeset="6352227">
    <nd ref="986831673"/>
    <nd ref="986831914"/>
    <nd ref="986831834"/>
    <nd ref="986831516"/>
    <nd ref="986831673"/>
    <tag k="addr:city" v="Зеленоград"/>
    <tag k="addr:housenumber" v="27"/>
    <tag k="addr:street" v="Первомайская улица"/>
    <tag k="building" v="yes"/>
  </way>
  <way id="85043275" version="2" timestamp="2011-01-13T16:27:14Z" uid="115477" user="wowik" changeset="6958660">
    <nd ref="986831673"/>
    <nd ref="986831914"/>
    <nd ref="986831834"/>
    <nd ref="986831516"/>
    <nd ref="986831673"/>
    <tag k="addr:city" v="Зеленоград"/>
    <tag k="addr:housenumber" v="27"/>
    <tag k="addr:street" v="Первомайская улица"/>
    <tag k="building" v="yes"/>
    <tag k="building:use" v="residential"/>
  </way>
  <way id="85043275" version="3" timestamp="2011-01-17T15:14:20Z" uid="115477" user="wowik" changeset="7000395">
    <nd ref="986831673"/>
    <nd ref="986831914"/>
    <nd ref="986831834"/>
    <nd ref="986831516"/>
    <nd ref="986831673"/>
    <tag k="addr:city" v="Зеленоград"/>
    <tag k="addr:housenumber" v="27"/>
    <tag k="addr:street" v="Первомайская улица"/>
    <tag k="addr:suburb" v="Малино"/>
    <tag k="building" v="yes"/>
    <tag k="building:use" v="residential"/>
  </way>
  <way id="85043277" version="1" timestamp="2010-11-12T18:15:33Z" uid="115477" user="wowik" changeset="6352227">
    <nd ref="986831684"/>
    <nd ref="986831928"/>
    <nd ref="986831843"/>
    <nd ref="986831524"/>
    <nd ref="986831684"/>
    <tag k="addr:city" v="Зеленоград"/>
    <tag k="addr:housenumber" v="25"/>
    <tag k="addr:street" v="Первомайская улица"/>
    <tag k="building" v="yes"/>
  </way>
  <way id="85043277" version="2" timestamp="2011-01-13T16:25:03Z" uid="115477" user="wowik" changeset="6958660">
    <nd ref="986831684"/>
    <nd ref="986831928"/>
    <nd ref="986831843"/>
    <nd ref="986831524"/>
    <nd ref="986831684"/>
    <tag k="addr:city" v="Зеленоград"/>
    <tag k="addr:housenumber" v="25"/>
    <tag k="addr:street" v="Первомайская улица"/>
    <tag k="building" v="yes"/>
    <tag k="building:use" v="residential"/>
  </way>
  <way id="85043277" version="3" timestamp="2011-01-17T15:14:05Z" uid="115477" user="wowik" changeset="7000395">
    <nd ref="986831684"/>
    <nd ref="986831928"/>
    <nd ref="986831843"/>
    <nd ref="986831524"/>
    <nd ref="986831684"/>
    <tag k="addr:city" v="Зеленоград"/>
    <tag k="addr:housenumber" v="25"/>
    <tag k="addr:street" v="Первомайская улица"/>
    <tag k="addr:suburb" v="Малино"/>
    <tag k="building" v="yes"/>
    <tag k="building:use" v="residential"/>
  </way>
  <way id="85043278" version="1" timestamp="2010-11-12T18:15:33Z" uid="115477" user="wowik" changeset="6352227">
    <nd ref="986831859"/>
    <nd ref="986831647"/>
    <nd ref="986831777"/>
    <nd ref="986831817"/>
    <nd ref="986831458"/>
    <nd ref="986831946"/>
    <nd ref="986831859"/>
    <tag k="addr:city" v="Зеленоград"/>
    <tag k="addr:housenumber" v="5"/>
    <tag k="addr:street" v="Первомайская улица"/>
    <tag k="building" v="yes"/>
  </way>
  <way id="85043278" version="2" timestamp="2011-01-13T16:26:41Z" uid="115477" user="wowik" changeset="6958660">
    <nd ref="986831859"/>
    <nd ref="986831647"/>
    <nd ref="986831777"/>
    <nd ref="986831817"/>
    <nd ref="986831458"/>
    <nd ref="986831946"/>
    <nd ref="986831859"/>
    <tag k="addr:city" v="Зеленоград"/>
    <tag k="addr:housenumber" v="5"/>
    <tag k="addr:street" v="Первомайская улица"/>
    <tag k="building" v="yes"/>
    <tag k="building:use" v="residential"/>
  </way>
  <way id="85043278" version="3" timestamp="2011-01-17T15:14:16Z" uid="115477" user="wowik" changeset="7000395">
    <nd ref="986831859"/>
    <nd ref="986831647"/>
    <nd ref="986831777"/>
    <nd ref="986831817"/>
    <nd ref="986831458"/>
    <nd ref="986831946"/>
    <nd ref="986831859"/>
    <tag k="addr:city" v="Зеленоград"/>
    <tag k="addr:housenumber" v="5"/>
    <tag k="addr:street" v="Первомайская улица"/>
    <tag k="addr:suburb" v="Малино"/>
    <tag k="building" v="yes"/>
    <tag k="building:use" v="residential"/>
  </way>
  <way id="85043280" version="1" timestamp="2010-11-12T18:15:33Z" uid="115477" user="wowik" changeset="6352227">
    <nd ref="986831904"/>
    <nd ref="986831601"/>
    <nd ref="986831505"/>
    <nd ref="986831779"/>
    <nd ref="986831904"/>
    <tag k="addr:city" v="Зеленоград"/>
    <tag k="building" v="yes"/>
  </way>
  <way id="85043282" version="1" timestamp="2010-11-12T18:15:33Z" uid="115477" user="wowik" changeset="6352227">
    <nd ref="986831652"/>
    <nd ref="986831549"/>
    <nd ref="986831821"/>
    <nd ref="986831738"/>
    <nd ref="986831652"/>
    <tag k="addr:city" v="Зеленоград"/>
    <tag k="building" v="yes"/>
  </way>
  <way id="85043283" version="1" timestamp="2010-11-12T18:15:34Z" uid="115477" user="wowik" changeset="6352227">
    <nd ref="986831747"/>
    <nd ref="986831667"/>
    <nd ref="986831829"/>
    <nd ref="986831993"/>
    <nd ref="986831616"/>
    <nd ref="986831793"/>
    <nd ref="986831961"/>
    <nd ref="986831558"/>
    <nd ref="986831747"/>
    <tag k="addr:city" v="Зеленоград"/>
    <tag k="addr:housenumber" v="1"/>
    <tag k="addr:street" v="Малинская  улица"/>
    <tag k="building" v="yes"/>
  </way>
  <way id="85043283" version="2" timestamp="2010-11-15T19:28:23Z" uid="133332" user="AMDmi3" changeset="6379840">
    <nd ref="986831747"/>
    <nd ref="986831667"/>
    <nd ref="986831829"/>
    <nd ref="986831993"/>
    <nd ref="986831616"/>
    <nd ref="986831793"/>
    <nd ref="986831961"/>
    <nd ref="986831558"/>
    <nd ref="986831747"/>
    <tag k="addr:city" v="Зеленоград"/>
    <tag k="addr:housenumber" v="1"/>
    <tag k="addr:street" v="Малинская улица"/>
    <tag k="building" v="yes"/>
  </way>
  <way id="85043283" version="3" timestamp="2010-11-18T10:31:02Z" uid="115477" user="wowik" changeset="6398891">
    <nd ref="986831747"/>
    <nd ref="986831667"/>
    <nd ref="986831829"/>
    <nd ref="986831993"/>
    <nd ref="986831616"/>
    <nd ref="986831793"/>
    <nd ref="986831961"/>
    <nd ref="986831558"/>
    <nd ref="986831747"/>
    <tag k="addr:city" v="Зеленоград"/>
    <tag k="addr:housenumber" v="1"/>
    <tag k="addr:street" v="Прудный переулок"/>
    <tag k="building" v="yes"/>
  </way>
  <way id="85043283" version="4" timestamp="2011-01-13T16:26:28Z" uid="115477" user="wowik" changeset="6958660">
    <nd ref="986831747"/>
    <nd ref="986831667"/>
    <nd ref="986831829"/>
    <nd ref="986831993"/>
    <nd ref="986831616"/>
    <nd ref="986831793"/>
    <nd ref="986831961"/>
    <nd ref="986831558"/>
    <nd ref="986831747"/>
    <tag k="addr:city" v="Зеленоград"/>
    <tag k="addr:housenumber" v="1"/>
    <tag k="addr:street" v="Прудный переулок"/>
    <tag k="building" v="yes"/>
    <tag k="building:use" v="residential"/>
  </way>
  <way id="85043287" version="1" timestamp="2010-11-12T18:15:34Z" uid="115477" user="wowik" changeset="6352227">
    <nd ref="986831938"/>
    <nd ref="986831641"/>
    <nd ref="986831536"/>
    <nd ref="986831811"/>
    <nd ref="986831938"/>
    <tag k="addr:city" v="Зеленоград"/>
    <tag k="addr:housenumber" v="15"/>
    <tag k="addr:street" v="Первомайская улица"/>
    <tag k="building" v="yes"/>
  </way>
  <way id="85043287" version="2" timestamp="2011-01-13T16:27:46Z" uid="115477" user="wowik" changeset="6958660">
    <nd ref="986831938"/>
    <nd ref="986831641"/>
    <nd ref="986831536"/>
    <nd ref="986831811"/>
    <nd ref="986831938"/>
    <tag k="addr:city" v="Зеленоград"/>
    <tag k="addr:housenumber" v="15"/>
    <tag k="addr:street" v="Первомайская улица"/>
    <tag k="building" v="yes"/>
    <tag k="building:use" v="residential"/>
  </way>
  <way id="85043287" version="3" timestamp="2011-01-17T15:14:23Z" uid="115477" user="wowik" changeset="7000395">
    <nd ref="986831938"/>
    <nd ref="986831641"/>
    <nd ref="986831536"/>
    <nd ref="986831811"/>
    <nd ref="986831938"/>
    <tag k="addr:city" v="Зеленоград"/>
    <tag k="addr:housenumber" v="15"/>
    <tag k="addr:street" v="Первомайская улица"/>
    <tag k="addr:suburb" v="Малино"/>
    <tag k="building" v="yes"/>
    <tag k="building:use" v="residential"/>
  </way>
  <way id="85043288" version="1" timestamp="2010-11-12T18:15:34Z" uid="115477" user="wowik" changeset="6352227">
    <nd ref="986831620"/>
    <nd ref="986831963"/>
    <nd ref="986831567"/>
    <nd ref="986831879"/>
    <nd ref="986831797"/>
    <nd ref="986831477"/>
    <nd ref="986831620"/>
    <tag k="addr:city" v="Зеленоград"/>
    <tag k="addr:housenumber" v="17"/>
    <tag k="addr:street" v="Первомайская улица"/>
    <tag k="building" v="yes"/>
  </way>
  <way id="85043288" version="2" timestamp="2011-01-13T16:27:02Z" uid="115477" user="wowik" changeset="6958660">
    <nd ref="986831620"/>
    <nd ref="986831963"/>
    <nd ref="986831567"/>
    <nd ref="986831879"/>
    <nd ref="986831797"/>
    <nd ref="986831477"/>
    <nd ref="986831620"/>
    <tag k="addr:city" v="Зеленоград"/>
    <tag k="addr:housenumber" v="17"/>
    <tag k="addr:street" v="Первомайская улица"/>
    <tag k="building" v="yes"/>
    <tag k="building:use" v="residential"/>
  </way>
  <way id="85043288" version="3" timestamp="2011-01-17T15:14:18Z" uid="115477" user="wowik" changeset="7000395">
    <nd ref="986831620"/>
    <nd ref="986831963"/>
    <nd ref="986831567"/>
    <nd ref="986831879"/>
    <nd ref="986831797"/>
    <nd ref="986831477"/>
    <nd ref="986831620"/>
    <tag k="addr:city" v="Зеленоград"/>
    <tag k="addr:housenumber" v="17"/>
    <tag k="addr:street" v="Первомайская улица"/>
    <tag k="addr:suburb" v="Малино"/>
    <tag k="building" v="yes"/>
    <tag k="building:use" v="residential"/>
  </way>
  <way id="85043289" version="1" timestamp="2010-11-12T18:15:40Z" uid="115477" user="wowik" changeset="6352227">
    <nd ref="986831997"/>
    <nd ref="986831918"/>
    <nd ref="986831626"/>
    <nd ref="986831517"/>
    <nd ref="986831997"/>
    <tag k="addr:city" v="Зеленоград"/>
    <tag k="building" v="yes"/>
  </way>
  <way id="85043289" version="2" timestamp="2012-03-27T08:13:14Z" uid="481934" user="iWowik" changeset="11113698">
    <nd ref="986831997"/>
    <nd ref="986831918"/>
    <nd ref="986831626"/>
    <nd ref="986831517"/>
    <nd ref="986831997"/>
    <tag k="addr:city" v="Зеленоград"/>
    <tag k="addr:country" v="RU"/>
    <tag k="building" v="yes"/>
  </way>
  <way id="85043289" version="3" timestamp="2012-03-27T11:51:45Z" uid="481934" user="iWowik" changeset="11115472">
    <nd ref="986831997"/>
    <nd ref="986831918"/>
    <nd ref="986831626"/>
    <nd ref="986831517"/>
    <nd ref="986831997"/>
    <tag k="addr:city" v="Зеленоград"/>
    <tag k="addr:country" v="RU"/>
    <tag k="addr:region" v="Москва"/>
    <tag k="building" v="yes"/>
  </way>
  <way id="85043291" version="1" timestamp="2010-11-12T18:15:52Z" uid="115477" user="wowik" changeset="6352227">
    <nd ref="986831700"/>
    <nd ref="986831597"/>
    <nd ref="986831856"/>
    <nd ref="986831774"/>
    <nd ref="986831700"/>
    <tag k="addr:city" v="Зеленоград"/>
    <tag k="building" v="yes"/>
  </way>
  <way id="85043293" version="1" timestamp="2010-11-12T18:15:55Z" uid="115477" user="wowik" changeset="6352227">
    <nd ref="986831846"/>
    <nd ref="986831528"/>
    <nd ref="986832005"/>
    <nd ref="986831718"/>
    <nd ref="986831846"/>
    <tag k="addr:city" v="Зеленоград"/>
    <tag k="addr:housenumber" v="2А"/>
    <tag k="addr:street" v="Первомайская улица"/>
    <tag k="building" v="yes"/>
  </way>
  <way id="85043293" version="2" timestamp="2011-01-13T16:25:51Z" uid="115477" user="wowik" changeset="6958660">
    <nd ref="986831846"/>
    <nd ref="986831528"/>
    <nd ref="986832005"/>
    <nd ref="986831718"/>
    <nd ref="986831846"/>
    <tag k="addr:city" v="Зеленоград"/>
    <tag k="addr:housenumber" v="2А"/>
    <tag k="addr:street" v="Первомайская улица"/>
    <tag k="building" v="yes"/>
    <tag k="building:use" v="residential"/>
  </way>
  <way id="85043293" version="3" timestamp="2011-01-17T15:13:45Z" uid="115477" user="wowik" changeset="7000395">
    <nd ref="986831846"/>
    <nd ref="986831528"/>
    <nd ref="986832005"/>
    <nd ref="986831718"/>
    <nd ref="986831846"/>
    <tag k="addr:city" v="Зеленоград"/>
    <tag k="addr:housenumber" v="2А"/>
    <tag k="addr:street" v="Первомайская улица"/>
    <tag k="addr:suburb" v="Малино"/>
    <tag k="building" v="yes"/>
    <tag k="building:use" v="residential"/>
  </way>
  <way id="85043296" version="1" timestamp="2010-11-12T18:15:56Z" uid="115477" user="wowik" changeset="6352227">
    <nd ref="986831665"/>
    <nd ref="986831563"/>
    <nd ref="986831745"/>
    <nd ref="986831907"/>
    <nd ref="986831665"/>
    <tag k="addr:city" v="Зеленоград"/>
    <tag k="building" v="yes"/>
  </way>
  <way id="85043298" version="1" timestamp="2010-11-12T18:15:56Z" uid="115477" user="wowik" changeset="6352227">
    <nd ref="986831877"/>
    <nd ref="986831560"/>
    <nd ref="986831472"/>
    <nd ref="986831744"/>
    <nd ref="986831877"/>
    <tag k="addr:city" v="Зеленоград"/>
    <tag k="building" v="yes"/>
  </way>
  <way id="85043299" version="1" timestamp="2010-11-12T18:15:56Z" uid="115477" user="wowik" changeset="6352227">
    <nd ref="986831855"/>
    <nd ref="986831541"/>
    <nd ref="986831454"/>
    <nd ref="986831732"/>
    <nd ref="986831855"/>
    <tag k="addr:city" v="Зеленоград"/>
    <tag k="building" v="yes"/>
  </way>
  <way id="85043304" version="1" timestamp="2010-11-12T18:15:56Z" uid="115477" user="wowik" changeset="6352227">
    <nd ref="986831481"/>
    <nd ref="986831966"/>
    <nd ref="986831674"/>
    <nd ref="986831579"/>
    <nd ref="986831481"/>
    <tag k="addr:city" v="Зеленоград"/>
    <tag k="addr:housenumber" v="9"/>
    <tag k="addr:street" v="Первомайская улица"/>
    <tag k="building" v="yes"/>
  </way>
  <way id="85043304" version="2" timestamp="2011-01-13T16:27:58Z" uid="115477" user="wowik" changeset="6958660">
    <nd ref="986831481"/>
    <nd ref="986831966"/>
    <nd ref="986831674"/>
    <nd ref="986831579"/>
    <nd ref="986831481"/>
    <tag k="addr:city" v="Зеленоград"/>
    <tag k="addr:housenumber" v="9"/>
    <tag k="addr:street" v="Первомайская улица"/>
    <tag k="building" v="yes"/>
    <tag k="building:use" v="residential"/>
  </way>
  <way id="85043304" version="3" timestamp="2011-01-17T15:13:56Z" uid="115477" user="wowik" changeset="7000395">
    <nd ref="986831481"/>
    <nd ref="986831966"/>
    <nd ref="986831674"/>
    <nd ref="986831579"/>
    <nd ref="986831481"/>
    <tag k="addr:city" v="Зеленоград"/>
    <tag k="addr:housenumber" v="9"/>
    <tag k="addr:street" v="Первомайская улица"/>
    <tag k="addr:suburb" v="Малино"/>
    <tag k="building" v="yes"/>
    <tag k="building:use" v="residential"/>
  </way>
  <way id="85043306" version="1" timestamp="2010-11-12T18:15:56Z" uid="115477" user="wowik" changeset="6352227">
    <nd ref="986831664"/>
    <nd ref="986831737"/>
    <nd ref="986832002"/>
    <nd ref="986831905"/>
    <nd ref="986831825"/>
    <nd ref="986831801"/>
    <nd ref="986831632"/>
    <nd ref="986831507"/>
    <nd ref="986831968"/>
    <nd ref="986831580"/>
    <nd ref="986831664"/>
    <tag k="addr:city" v="Зеленоград"/>
    <tag k="building" v="yes"/>
  </way>
  <way id="85043309" version="1" timestamp="2010-11-12T18:15:57Z" uid="115477" user="wowik" changeset="6352227">
    <nd ref="986831625"/>
    <nd ref="986831979"/>
    <nd ref="986831595"/>
    <nd ref="986831772"/>
    <nd ref="986831625"/>
    <tag k="addr:city" v="Зеленоград"/>
    <tag k="building" v="yes"/>
  </way>
  <way id="85043310" version="1" timestamp="2010-11-12T18:15:57Z" uid="115477" user="wowik" changeset="6352227">
    <nd ref="986831496"/>
    <nd ref="986831974"/>
    <nd ref="986831685"/>
    <nd ref="986831585"/>
    <nd ref="986831496"/>
    <tag k="addr:city" v="Зеленоград"/>
    <tag k="building" v="yes"/>
  </way>
  <way id="85043311" version="1" timestamp="2010-11-12T18:15:57Z" uid="115477" user="wowik" changeset="6352227">
    <nd ref="986831787"/>
    <nd ref="986831469"/>
    <nd ref="986831952"/>
    <nd ref="986831660"/>
    <nd ref="986831787"/>
    <tag k="addr:city" v="Зеленоград"/>
    <tag k="addr:housenumber" v="2"/>
    <tag k="addr:street" v="Первомайская улица"/>
    <tag k="building" v="yes"/>
  </way>
  <way id="85043311" version="2" timestamp="2010-11-12T18:50:58Z" uid="115477" user="wowik" changeset="6352227">
    <nd ref="986831787"/>
    <nd ref="986831469"/>
    <nd ref="986831952"/>
    <nd ref="986831660"/>
    <nd ref="986831787"/>
    <tag k="addr:city" v="Зеленоград"/>
    <tag k="addr:housenumber" v="2"/>
    <tag k="addr:street" v="Первомайская улица"/>
    <tag k="addr:suburb" v="Малино"/>
    <tag k="building" v="yes"/>
  </way>
  <way id="85043311" version="3" timestamp="2011-01-13T16:26:09Z" uid="115477" user="wowik" changeset="6958660">
    <nd ref="986831787"/>
    <nd ref="986831469"/>
    <nd ref="986831952"/>
    <nd ref="986831660"/>
    <nd ref="986831787"/>
    <tag k="addr:city" v="Зеленоград"/>
    <tag k="addr:housenumber" v="2"/>
    <tag k="addr:street" v="Первомайская улица"/>
    <tag k="addr:suburb" v="Малино"/>
    <tag k="building" v="yes"/>
    <tag k="building:use" v="residential"/>
  </way>
  <way id="85043314" version="1" timestamp="2010-11-12T18:15:57Z" uid="115477" user="wowik" changeset="6352227">
    <nd ref="986831448"/>
    <nd ref="986831727"/>
    <nd ref="986831638"/>
    <nd ref="986831894"/>
    <nd ref="986831448"/>
    <tag k="addr:city" v="Зеленоград"/>
    <tag k="building" v="yes"/>
  </way>
  <way id="85043315" version="1" timestamp="2010-11-12T18:15:57Z" uid="115477" user="wowik" changeset="6352227">
    <nd ref="986831886"/>
    <nd ref="986831582"/>
    <nd ref="986831758"/>
    <nd ref="986831919"/>
    <nd ref="986831886"/>
    <tag k="addr:city" v="Зеленоград"/>
    <tag k="building" v="yes"/>
  </way>
  <way id="85043317" version="1" timestamp="2010-11-12T18:15:57Z" uid="115477" user="wowik" changeset="6352227">
    <nd ref="986831871"/>
    <nd ref="986831786"/>
    <nd ref="986831466"/>
    <nd ref="986831950"/>
    <nd ref="986831871"/>
    <tag k="addr:city" v="Зеленоград"/>
    <tag k="addr:housenumber" v="23"/>
    <tag k="addr:street" v="Первомайская улица"/>
    <tag k="building" v="yes"/>
  </way>
  <way id="85043317" version="2" timestamp="2011-01-13T16:26:06Z" uid="115477" user="wowik" changeset="6958660">
    <nd ref="986831871"/>
    <nd ref="986831786"/>
    <nd ref="986831466"/>
    <nd ref="986831950"/>
    <nd ref="986831871"/>
    <tag k="addr:city" v="Зеленоград"/>
    <tag k="addr:housenumber" v="23"/>
    <tag k="addr:street" v="Первомайская улица"/>
    <tag k="building" v="yes"/>
    <tag k="building:use" v="residential"/>
  </way>
  <way id="85043317" version="3" timestamp="2011-01-17T15:14:12Z" uid="115477" user="wowik" changeset="7000395">
    <nd ref="986831871"/>
    <nd ref="986831786"/>
    <nd ref="986831466"/>
    <nd ref="986831950"/>
    <nd ref="986831871"/>
    <tag k="addr:city" v="Зеленоград"/>
    <tag k="addr:housenumber" v="23"/>
    <tag k="addr:street" v="Первомайская улица"/>
    <tag k="addr:suburb" v="Малино"/>
    <tag k="building" v="yes"/>
    <tag k="building:use" v="residential"/>
  </way>
  <way id="85043320" version="1" timestamp="2010-11-12T18:15:58Z" uid="115477" user="wowik" changeset="6352227">
    <nd ref="986831826"/>
    <nd ref="986831969"/>
    <nd ref="986831802"/>
    <nd ref="986831508"/>
    <nd ref="986831756"/>
    <nd ref="986831581"/>
    <nd ref="986831987"/>
    <nd ref="986831702"/>
    <nd ref="986831826"/>
    <tag k="addr:city" v="Зеленоград"/>
    <tag k="addr:housenumber" v="21"/>
    <tag k="addr:street" v="Первомайская улица"/>
    <tag k="building" v="yes"/>
  </way>
  <way id="85043320" version="2" timestamp="2011-01-13T16:24:53Z" uid="115477" user="wowik" changeset="6958660">
    <nd ref="986831826"/>
    <nd ref="986831969"/>
    <nd ref="986831802"/>
    <nd ref="986831508"/>
    <nd ref="986831756"/>
    <nd ref="986831581"/>
    <nd ref="986831987"/>
    <nd ref="986831702"/>
    <nd ref="986831826"/>
    <tag k="addr:city" v="Зеленоград"/>
    <tag k="addr:housenumber" v="21"/>
    <tag k="addr:street" v="Первомайская улица"/>
    <tag k="building" v="yes"/>
    <tag k="building:use" v="residential"/>
  </way>
  <way id="85043320" version="3" timestamp="2011-01-17T15:13:39Z" uid="115477" user="wowik" changeset="7000395">
    <nd ref="986831826"/>
    <nd ref="986831969"/>
    <nd ref="986831802"/>
    <nd ref="986831508"/>
    <nd ref="986831756"/>
    <nd ref="986831581"/>
    <nd ref="986831987"/>
    <nd ref="986831702"/>
    <nd ref="986831826"/>
    <tag k="addr:city" v="Зеленоград"/>
    <tag k="addr:housenumber" v="21"/>
    <tag k="addr:street" v="Первомайская улица"/>
    <tag k="addr:suburb" v="Малино"/>
    <tag k="building" v="yes"/>
    <tag k="building:use" v="residential"/>
  </way>
  <way id="85043322" version="1" timestamp="2010-11-12T18:15:58Z" uid="115477" user="wowik" changeset="6352227">
    <nd ref="986831989"/>
    <nd ref="986831906"/>
    <nd ref="986831610"/>
    <nd ref="986831509"/>
    <nd ref="986831989"/>
    <tag k="addr:city" v="Зеленоград"/>
    <tag k="addr:housenumber" v="3"/>
    <tag k="addr:street" v="Школьная улица"/>
    <tag k="addr:suburb" v="Малино"/>
    <tag k="building" v="yes"/>
  </way>
  <way id="85043322" version="2" timestamp="2011-01-13T16:24:27Z" uid="115477" user="wowik" changeset="6958660">
    <nd ref="986831989"/>
    <nd ref="986831906"/>
    <nd ref="986831610"/>
    <nd ref="986831509"/>
    <nd ref="986831989"/>
    <tag k="addr:city" v="Зеленоград"/>
    <tag k="addr:housenumber" v="3"/>
    <tag k="addr:street" v="Школьная улица"/>
    <tag k="addr:suburb" v="Малино"/>
    <tag k="building" v="yes"/>
    <tag k="building:use" v="residential"/>
  </way>
  <way id="85043324" version="1" timestamp="2010-11-12T18:15:58Z" uid="115477" user="wowik" changeset="6352227">
    <nd ref="986831663"/>
    <nd ref="986831551"/>
    <nd ref="986831824"/>
    <nd ref="986831741"/>
    <nd ref="986831663"/>
    <tag k="addr:city" v="Зеленоград"/>
    <tag k="building" v="yes"/>
  </way>
  <way id="85043325" version="1" timestamp="2010-11-12T18:15:58Z" uid="115477" user="wowik" changeset="6352227">
    <nd ref="986831488"/>
    <nd ref="986831875"/>
    <nd ref="986831789"/>
    <nd ref="986831470"/>
    <nd ref="986831709"/>
    <nd ref="986831479"/>
    <nd ref="986831881"/>
    <nd ref="986831518"/>
    <nd ref="986831488"/>
    <tag k="addr:city" v="Зеленоград"/>
    <tag k="building" v="yes"/>
  </way>
  <way id="85043603" version="2" timestamp="2011-01-12T10:24:47Z" uid="115477" user="wowik" changeset="6945653">
    <nd ref="982632233"/>
    <nd ref="428590059"/>
    <nd ref="428590041"/>
    <nd ref="428590257"/>
    <nd ref="428589946"/>
    <nd ref="982632233"/>
    <tag k="addr:city" v="Зеленоград"/>
    <tag k="addr:housenumber" v="313"/>
    <tag k="addr:street" v="3-й Микрорайон"/>
    <tag k="building" v="yes"/>
    <tag k="building:use" v="residential"/>
    <tag k="is_in" v="Russia"/>
  </way>
  <way id="85043603" version="3" timestamp="2011-01-12T16:45:17Z" uid="115477" user="wowik" changeset="6948926">
    <nd ref="982632233"/>
    <nd ref="428590059"/>
    <nd ref="428590041"/>
    <nd ref="428590257"/>
    <nd ref="428589946"/>
    <nd ref="982632233"/>
    <tag k="addr:city" v="Зеленоград"/>
    <tag k="addr:housenumber" v="313"/>
    <tag k="addr:postcode" v="124482"/>
    <tag k="addr:street" v="3-й Микрорайон"/>
    <tag k="building" v="yes"/>
    <tag k="building:use" v="residential"/>
    <tag k="is_in" v="Russia"/>
  </way>
  <way id="85043603" version="4" timestamp="2011-06-07T20:47:59Z" uid="133332" user="AMDmi3" changeset="8374030">
    <nd ref="982632233"/>
    <nd ref="428590059"/>
    <nd ref="428590041"/>
    <nd ref="428590257"/>
    <nd ref="428589946"/>
    <nd ref="982632233"/>
    <tag k="addr:city" v="Зеленоград"/>
    <tag k="addr:housenumber" v="313"/>
    <tag k="addr:postcode" v="124482"/>
    <tag k="addr:street" v="3-й микрорайон"/>
    <tag k="building" v="yes"/>
    <tag k="building:use" v="residential"/>
    <tag k="is_in" v="Russia"/>
  </way>
  <way id="85043603" version="5" timestamp="2011-09-10T10:56:15Z" uid="518169" user="kosatov" changeset="9261148"/>
  <way id="85043604" version="2" timestamp="2011-01-12T10:25:47Z" uid="115477" user="wowik" changeset="6945653">
    <nd ref="982632233"/>
    <nd ref="428590178"/>
    <nd ref="428590074"/>
    <nd ref="428590284"/>
    <nd ref="428590035"/>
    <nd ref="428590026"/>
    <nd ref="428590318"/>
    <nd ref="428590183"/>
    <nd ref="428590059"/>
    <nd ref="982632233"/>
    <tag k="building" v="yes"/>
    <tag k="building:use" v="residential"/>
  </way>
  <way id="85043604" version="3" timestamp="2011-01-12T16:44:51Z" uid="115477" user="wowik" changeset="6948926">
    <nd ref="982632233"/>
    <nd ref="428590178"/>
    <nd ref="428590074"/>
    <nd ref="428590284"/>
    <nd ref="428590035"/>
    <nd ref="428590026"/>
    <nd ref="428590318"/>
    <nd ref="428590183"/>
    <nd ref="428590059"/>
    <nd ref="982632233"/>
    <tag k="addr:postcode" v="124482"/>
    <tag k="building" v="yes"/>
    <tag k="building:use" v="residential"/>
  </way>
  <way id="85043604" version="4" timestamp="2011-09-10T10:56:15Z" uid="518169" user="kosatov" changeset="9261148"/>
  <way id="85043608" version="1" timestamp="2010-11-12T18:17:33Z" uid="30632" user="antblant" changeset="6352741">
    <nd ref="634515663"/>
    <nd ref="587576249"/>
    <tag k="highway" v="primary_link"/>
    <tag k="name" v="Plac 700-lecia"/>
    <tag k="oneway" v="yes"/>
    <tag k="ref" v="554"/>
  </way>
  <way id="85043608" version="2" timestamp="2010-12-09T22:09:55Z" uid="306326" user="Yaro" changeset="6600264"/>
  <way id="85043611" version="1" timestamp="2010-11-12T18:17:33Z" uid="30632" user="antblant" changeset="6352741">
    <nd ref="946943323"/>
    <nd ref="944380236"/>
    <nd ref="943328298"/>
    <nd ref="946953518"/>
    <nd ref="946943389"/>
    <nd ref="271376870"/>
    <tag k="highway" v="primary"/>
    <tag k="lanes" v="3"/>
    <tag k="name" v="Szosa Lubicka"/>
    <tag k="oneway" v="true"/>
    <tag k="ref" v="80"/>
  </way>
  <way id="85043611" version="2" timestamp="2010-11-16T15:35:41Z" uid="306326" user="Yaro" changeset="6385833">
    <nd ref="946102710"/>
    <nd ref="946953518"/>
    <nd ref="271376870"/>
    <tag k="highway" v="primary"/>
    <tag k="lanes" v="3"/>
    <tag k="name" v="Szosa Lubicka"/>
    <tag k="oneway" v="true"/>
    <tag k="ref" v="80"/>
  </way>
  <way id="85043611" version="3" timestamp="2010-11-29T17:16:59Z" uid="306326" user="Yaro" changeset="6488145">
    <nd ref="946102710"/>
    <nd ref="946953518"/>
    <nd ref="271376870"/>
    <tag k="highway" v="primary"/>
    <tag k="lanes" v="3"/>
    <tag k="name" v="Szosa Lubicka"/>
    <tag k="oneway" v="yes"/>
    <tag k="ref" v="80"/>
  </way>
  <way id="85043611" version="4" timestamp="2010-12-15T20:56:17Z" uid="306326" user="Yaro" changeset="6671535">
    <nd ref="946102710"/>
    <nd ref="1039870574"/>
    <nd ref="946953518"/>
    <nd ref="1039871225"/>
    <nd ref="946953538"/>
    <tag k="highway" v="primary"/>
    <tag k="lanes" v="3"/>
    <tag k="name" v="Szosa Lubicka"/>
    <tag k="oneway" v="yes"/>
    <tag k="ref" v="80"/>
  </way>
  <way id="85043613" version="1" timestamp="2010-11-12T18:17:33Z" uid="30632" user="antblant" changeset="6352741">
    <nd ref="946943405"/>
    <nd ref="945452911"/>
    <nd ref="268854353"/>
    <nd ref="945117814"/>
    <nd ref="945117789"/>
    <nd ref="956868478"/>
    <nd ref="957001821"/>
    <nd ref="956868420"/>
    <nd ref="271382567"/>
    <nd ref="956868436"/>
    <tag k="highway" v="primary"/>
    <tag k="name" v="Szosa Lubicka"/>
    <tag k="oneway" v="true"/>
    <tag k="ref" v="15,80"/>
  </way>
  <way id="85043613" version="2" timestamp="2010-11-26T12:16:11Z" uid="306326" user="Yaro" changeset="6461558">
    <nd ref="946943405"/>
    <nd ref="945452911"/>
    <nd ref="268854353"/>
    <nd ref="945117814"/>
    <nd ref="945117789"/>
    <nd ref="956868478"/>
    <nd ref="957001821"/>
    <nd ref="956868420"/>
    <nd ref="271382567"/>
    <nd ref="956868436"/>
    <tag k="addr:street" v="Szosa Lubicka"/>
    <tag k="highway" v="primary"/>
    <tag k="name" v="Szosa Lubicka"/>
    <tag k="oneway" v="true"/>
    <tag k="ref" v="15,80"/>
  </way>
  <way id="85043613" version="3" timestamp="2010-11-29T17:17:16Z" uid="306326" user="Yaro" changeset="6488145">
    <nd ref="946943405"/>
    <nd ref="945452911"/>
    <nd ref="268854353"/>
    <nd ref="945117814"/>
    <nd ref="945117789"/>
    <nd ref="956868478"/>
    <nd ref="957001821"/>
    <nd ref="956868420"/>
    <nd ref="271382567"/>
    <nd ref="956868436"/>
    <tag k="addr:street" v="Szosa Lubicka"/>
    <tag k="highway" v="primary"/>
    <tag k="name" v="Szosa Lubicka"/>
    <tag k="oneway" v="yes"/>
    <tag k="ref" v="15,80"/>
  </way>
  <way id="85043613" version="4" timestamp="2010-12-15T20:56:22Z" uid="306326" user="Yaro" changeset="6671535">
    <nd ref="946943405"/>
    <nd ref="1039870988"/>
    <nd ref="268854353"/>
    <nd ref="945117814"/>
    <nd ref="945117789"/>
    <nd ref="956868478"/>
    <nd ref="957001821"/>
    <nd ref="956868420"/>
    <nd ref="271382567"/>
    <nd ref="956868436"/>
    <tag k="addr:street" v="Szosa Lubicka"/>
    <tag k="highway" v="primary"/>
    <tag k="name" v="Szosa Lubicka"/>
    <tag k="oneway" v="yes"/>
    <tag k="ref" v="15,80"/>
  </way>
  <way id="85043613" version="5" timestamp="2011-01-02T20:41:41Z" uid="91056" user="Yarl" changeset="6843315">
    <nd ref="946943405"/>
    <nd ref="1079480745"/>
    <nd ref="268854353"/>
    <nd ref="945117814"/>
    <nd ref="945117789"/>
    <nd ref="956868478"/>
    <nd ref="957001821"/>
    <nd ref="956868420"/>
    <nd ref="271382567"/>
    <nd ref="956868436"/>
    <tag k="addr:street" v="Szosa Lubicka"/>
    <tag k="highway" v="primary"/>
    <tag k="name" v="Szosa Lubicka"/>
    <tag k="oneway" v="yes"/>
    <tag k="ref" v="15,80"/>
  </way>
  <way id="85043613" version="6" timestamp="2011-03-04T14:02:28Z" uid="306326" user="Yaro" changeset="7454627">
    <nd ref="946943405"/>
    <nd ref="1079480745"/>
    <nd ref="268854353"/>
    <nd ref="945117814"/>
    <nd ref="945117789"/>
    <nd ref="956868478"/>
    <nd ref="957001821"/>
    <nd ref="956868436"/>
    <tag k="addr:street" v="Szosa Lubicka"/>
    <tag k="highway" v="primary"/>
    <tag k="name" v="Szosa Lubicka"/>
    <tag k="oneway" v="yes"/>
    <tag k="ref" v="15,80"/>
  </way>
  <way id="85043613" version="7" timestamp="2011-10-17T08:26:14Z" uid="306326" user="jaruch" changeset="9579582">
    <nd ref="946943405"/>
    <nd ref="1079480745"/>
    <nd ref="268854353"/>
    <nd ref="945117814"/>
    <nd ref="945117789"/>
    <nd ref="956868478"/>
    <nd ref="957001821"/>
    <nd ref="956868436"/>
    <tag k="addr:street" v="Szosa Lubicka"/>
    <tag k="highway" v="primary"/>
    <tag k="name" v="Szosa Lubicka"/>
    <tag k="oneway" v="yes"/>
    <tag k="ref" v="15;80"/>
  </way>
  <way id="85043613" version="8" timestamp="2012-02-23T07:32:16Z" uid="338611" user="marek kleciak" changeset="10765693">
    <nd ref="946943405"/>
    <nd ref="1079480745"/>
    <nd ref="268854353"/>
    <nd ref="956868478"/>
    <nd ref="957001821"/>
    <nd ref="956868436"/>
    <tag k="addr:street" v="Szosa Lubicka"/>
    <tag k="highway" v="primary"/>
    <tag k="name" v="Szosa Lubicka"/>
    <tag k="oneway" v="yes"/>
    <tag k="ref" v="15;80"/>
  </way>
  <way id="85043615" version="1" timestamp="2010-11-12T18:17:34Z" uid="30632" user="antblant" changeset="6352741">
    <nd ref="946102721"/>
    <nd ref="946102717"/>
    <nd ref="944380203"/>
    <nd ref="946953528"/>
    <nd ref="271376947"/>
    <nd ref="946943368"/>
    <nd ref="271376869"/>
    <tag k="highway" v="primary_link"/>
    <tag k="name" v="Olsztyńska"/>
    <tag k="oneway" v="true"/>
  </way>
  <way id="85043615" version="2" timestamp="2010-11-29T17:16:47Z" uid="306326" user="Yaro" changeset="6488145">
    <nd ref="946102721"/>
    <nd ref="946102717"/>
    <nd ref="944380203"/>
    <nd ref="946953528"/>
    <nd ref="271376947"/>
    <nd ref="946943368"/>
    <nd ref="271376869"/>
    <tag k="highway" v="primary_link"/>
    <tag k="name" v="Olsztyńska"/>
    <tag k="oneway" v="yes"/>
  </way>
  <way id="85043615" version="3" timestamp="2010-12-12T23:26:11Z" uid="338611" user="marek kleciak" changeset="6643351">
    <nd ref="946102721"/>
    <nd ref="946102717"/>
    <nd ref="944380203"/>
    <nd ref="946953528"/>
    <nd ref="271376947"/>
    <tag k="highway" v="primary_link"/>
    <tag k="name" v="Olsztyńska"/>
    <tag k="oneway" v="yes"/>
  </way>
  <way id="85043615" version="4" timestamp="2010-12-15T20:56:37Z" uid="306326" user="Yaro" changeset="6671535"/>
  <way id="85043789" version="2" timestamp="2011-01-12T10:25:07Z" uid="115477" user="wowik" changeset="6945653">
    <nd ref="982632163"/>
    <nd ref="428590314"/>
    <nd ref="428589958"/>
    <nd ref="428590142"/>
    <nd ref="428590254"/>
    <nd ref="982632163"/>
    <tag k="addr:city" v="Зеленоград"/>
    <tag k="addr:housenumber" v="315"/>
    <tag k="addr:street" v="3-й Микрорайон"/>
    <tag k="building" v="yes"/>
    <tag k="building:use" v="residential"/>
    <tag k="is_in" v="Russia"/>
  </way>
  <way id="85043789" version="3" timestamp="2011-01-12T16:44:43Z" uid="115477" user="wowik" changeset="6948926">
    <nd ref="982632163"/>
    <nd ref="428590314"/>
    <nd ref="428589958"/>
    <nd ref="428590142"/>
    <nd ref="428590254"/>
    <nd ref="982632163"/>
    <tag k="addr:city" v="Зеленоград"/>
    <tag k="addr:housenumber" v="315"/>
    <tag k="addr:postcode" v="124482"/>
    <tag k="addr:street" v="3-й Микрорайон"/>
    <tag k="building" v="yes"/>
    <tag k="building:use" v="residential"/>
    <tag k="is_in" v="Russia"/>
  </way>
  <way id="85043789" version="4" timestamp="2011-06-07T20:50:04Z" uid="133332" user="AMDmi3" changeset="8374030">
    <nd ref="982632163"/>
    <nd ref="428590314"/>
    <nd ref="428589958"/>
    <nd ref="428590142"/>
    <nd ref="428590254"/>
    <nd ref="982632163"/>
    <tag k="addr:city" v="Зеленоград"/>
    <tag k="addr:housenumber" v="315"/>
    <tag k="addr:postcode" v="124482"/>
    <tag k="addr:street" v="3-й микрорайон"/>
    <tag k="building" v="yes"/>
    <tag k="building:use" v="residential"/>
    <tag k="is_in" v="Russia"/>
  </way>
  <way id="85043789" version="5" timestamp="2011-09-13T10:25:48Z" uid="29320" user="Komяpa" changeset="9288237">
    <nd ref="982632163"/>
    <nd ref="428590314"/>
    <nd ref="428589958"/>
    <nd ref="428590142"/>
    <nd ref="428590254"/>
    <nd ref="982632163"/>
    <tag k="addr:city" v="Зеленоград"/>
    <tag k="addr:country" v="RU"/>
    <tag k="addr:housenumber" v="315"/>
    <tag k="addr:postcode" v="124482"/>
    <tag k="addr:street" v="3-й микрорайон"/>
    <tag k="building" v="yes"/>
    <tag k="building:use" v="residential"/>
  </way>
  <way id="85043789" version="6" timestamp="2011-10-28T10:29:50Z" uid="481934" user="iWowik" changeset="9675133">
    <nd ref="982632163"/>
    <nd ref="428590314"/>
    <nd ref="428589958"/>
    <nd ref="428590142"/>
    <nd ref="428590254"/>
    <nd ref="982632163"/>
    <tag k="addr:city" v="Зеленоград"/>
    <tag k="addr:country" v="RU"/>
    <tag k="addr:housenumber" v="315"/>
    <tag k="addr:postcode" v="124482"/>
    <tag k="addr:street" v="3-й Микрорайон"/>
    <tag k="building" v="yes"/>
    <tag k="building:use" v="residential"/>
  </way>
  <way id="85043789" version="7" timestamp="2011-11-14T20:32:35Z" uid="133332" user="AMDmi3" changeset="9828527">
    <nd ref="982632163"/>
    <nd ref="428590314"/>
    <nd ref="428589958"/>
    <nd ref="428590142"/>
    <nd ref="428590254"/>
    <nd ref="982632163"/>
    <tag k="addr:city" v="Зеленоград"/>
    <tag k="addr:country" v="RU"/>
    <tag k="addr:housenumber" v="315"/>
    <tag k="addr:postcode" v="124482"/>
    <tag k="addr:street" v="3-й микрорайон"/>
    <tag k="building" v="yes"/>
    <tag k="building:use" v="residential"/>
  </way>
  <way id="85043789" version="8" timestamp="2012-03-27T11:41:37Z" uid="481934" user="iWowik" changeset="11115472">
    <nd ref="982632163"/>
    <nd ref="428590314"/>
    <nd ref="428589958"/>
    <nd ref="428590142"/>
    <nd ref="428590254"/>
    <nd ref="982632163"/>
    <tag k="addr:city" v="Зеленоград"/>
    <tag k="addr:country" v="RU"/>
    <tag k="addr:housenumber" v="315"/>
    <tag k="addr:postcode" v="124482"/>
    <tag k="addr:region" v="Москва"/>
    <tag k="addr:street" v="3-й микрорайон"/>
    <tag k="building" v="yes"/>
    <tag k="building:use" v="residential"/>
  </way>
  <way id="85043790" version="2" timestamp="2011-01-12T10:24:58Z" uid="115477" user="wowik" changeset="6945653">
    <nd ref="982632163"/>
    <nd ref="428590309"/>
    <nd ref="428590260"/>
    <nd ref="428589915"/>
    <nd ref="428590058"/>
    <nd ref="428589986"/>
    <nd ref="428590117"/>
    <nd ref="428590215"/>
    <nd ref="428590127"/>
    <nd ref="428590314"/>
    <nd ref="982632163"/>
    <tag k="building" v="yes"/>
    <tag k="building:use" v="residential"/>
  </way>
  <way id="85043790" version="3" timestamp="2011-01-12T16:45:20Z" uid="115477" user="wowik" changeset="6948926">
    <nd ref="982632163"/>
    <nd ref="428590309"/>
    <nd ref="428590260"/>
    <nd ref="428589915"/>
    <nd ref="428590058"/>
    <nd ref="428589986"/>
    <nd ref="428590117"/>
    <nd ref="428590215"/>
    <nd ref="428590127"/>
    <nd ref="428590314"/>
    <nd ref="982632163"/>
    <tag k="addr:postcode" v="124482"/>
    <tag k="building" v="yes"/>
    <tag k="building:use" v="residential"/>
  </way>
  <way id="85043790" version="4" timestamp="2012-03-27T11:48:49Z" uid="481934" user="iWowik" changeset="11115472">
    <nd ref="982632163"/>
    <nd ref="428590309"/>
    <nd ref="428590260"/>
    <nd ref="428589915"/>
    <nd ref="428590058"/>
    <nd ref="428589986"/>
    <nd ref="428590117"/>
    <nd ref="428590215"/>
    <nd ref="428590127"/>
    <nd ref="428590314"/>
    <nd ref="982632163"/>
    <tag k="addr:city" v="Зеленоград"/>
    <tag k="addr:country" v="RU"/>
    <tag k="addr:postcode" v="124482"/>
    <tag k="addr:region" v="Москва"/>
    <tag k="building" v="yes"/>
    <tag k="building:use" v="residential"/>
  </way>
  <way id="85043796" version="1" timestamp="2010-11-12T18:19:57Z" uid="115477" user="wowik" changeset="6352227">
    <nd ref="986834653"/>
    <nd ref="986834627"/>
    <nd ref="986834619"/>
    <nd ref="986834638"/>
    <nd ref="986834609"/>
    <nd ref="986834643"/>
    <nd ref="986834613"/>
    <nd ref="986834662"/>
    <nd ref="986834653"/>
    <tag k="addr:city" v="Зеленоград"/>
    <tag k="addr:housenumber" v="33"/>
    <tag k="addr:street" v="Первомайская улица"/>
    <tag k="building" v="yes"/>
  </way>
  <way id="85043796" version="2" timestamp="2011-01-13T16:25:44Z" uid="115477" user="wowik" changeset="6958660">
    <nd ref="986834653"/>
    <nd ref="986834627"/>
    <nd ref="986834619"/>
    <nd ref="986834638"/>
    <nd ref="986834609"/>
    <nd ref="986834643"/>
    <nd ref="986834613"/>
    <nd ref="986834662"/>
    <nd ref="986834653"/>
    <tag k="addr:city" v="Зеленоград"/>
    <tag k="addr:housenumber" v="33"/>
    <tag k="addr:street" v="Первомайская улица"/>
    <tag k="building" v="yes"/>
    <tag k="building:use" v="residential"/>
  </way>
  <way id="85043796" version="3" timestamp="2011-01-17T15:14:10Z" uid="115477" user="wowik" changeset="7000395">
    <nd ref="986834653"/>
    <nd ref="986834627"/>
    <nd ref="986834619"/>
    <nd ref="986834638"/>
    <nd ref="986834609"/>
    <nd ref="986834643"/>
    <nd ref="986834613"/>
    <nd ref="986834662"/>
    <nd ref="986834653"/>
    <tag k="addr:city" v="Зеленоград"/>
    <tag k="addr:housenumber" v="33"/>
    <tag k="addr:street" v="Первомайская улица"/>
    <tag k="addr:suburb" v="Малино"/>
    <tag k="building" v="yes"/>
    <tag k="building:use" v="residential"/>
  </way>
  <way id="85043798" version="1" timestamp="2010-11-12T18:19:58Z" uid="115477" user="wowik" changeset="6352227">
    <nd ref="986834636"/>
    <nd ref="986834626"/>
    <nd ref="986834651"/>
    <nd ref="986834652"/>
    <nd ref="986834612"/>
    <nd ref="986834641"/>
    <nd ref="986834636"/>
    <tag k="addr:city" v="Зеленоград"/>
    <tag k="building" v="yes"/>
  </way>
  <way id="85043799" version="1" timestamp="2010-11-12T18:19:58Z" uid="115477" user="wowik" changeset="6352227">
    <nd ref="986834618"/>
    <nd ref="986834642"/>
    <nd ref="986834637"/>
    <nd ref="986834661"/>
    <nd ref="986834618"/>
    <tag k="addr:city" v="Зеленоград"/>
    <tag k="building" v="yes"/>
  </way>
  <way id="85043801" version="1" timestamp="2010-11-12T18:19:58Z" uid="115477" user="wowik" changeset="6352227">
    <nd ref="986834607"/>
    <nd ref="986834634"/>
    <nd ref="986834624"/>
    <nd ref="986834649"/>
    <nd ref="986834607"/>
    <tag k="addr:city" v="Зеленоград"/>
    <tag k="addr:housenumber" v="39"/>
    <tag k="addr:street" v="Первомайская улица"/>
    <tag k="building" v="yes"/>
  </way>
  <way id="85043801" version="2" timestamp="2011-01-13T16:27:53Z" uid="115477" user="wowik" changeset="6958660">
    <nd ref="986834607"/>
    <nd ref="986834634"/>
    <nd ref="986834624"/>
    <nd ref="986834649"/>
    <nd ref="986834607"/>
    <tag k="addr:city" v="Зеленоград"/>
    <tag k="addr:housenumber" v="39"/>
    <tag k="addr:street" v="Первомайская улица"/>
    <tag k="building" v="yes"/>
    <tag k="building:use" v="residential"/>
  </way>
  <way id="85043801" version="3" timestamp="2011-01-17T15:13:56Z" uid="115477" user="wowik" changeset="7000395">
    <nd ref="986834607"/>
    <nd ref="986834634"/>
    <nd ref="986834624"/>
    <nd ref="986834649"/>
    <nd ref="986834607"/>
    <tag k="addr:city" v="Зеленоград"/>
    <tag k="addr:housenumber" v="39"/>
    <tag k="addr:street" v="Первомайская улица"/>
    <tag k="addr:suburb" v="Малино"/>
    <tag k="building" v="yes"/>
    <tag k="building:use" v="residential"/>
  </way>
  <way id="85043802" version="1" timestamp="2010-11-12T18:19:58Z" uid="115477" user="wowik" changeset="6352227">
    <nd ref="986834648"/>
    <nd ref="986834640"/>
    <nd ref="986834610"/>
    <nd ref="986834657"/>
    <nd ref="986834648"/>
    <tag k="addr:city" v="Зеленоград"/>
    <tag k="building" v="yes"/>
  </way>
  <way id="85043803" version="1" timestamp="2010-11-12T18:19:59Z" uid="115477" user="wowik" changeset="6352227">
    <nd ref="986834635"/>
    <nd ref="986834614"/>
    <nd ref="986834663"/>
    <nd ref="986834632"/>
    <nd ref="986834635"/>
    <tag k="addr:city" v="Зеленоград"/>
    <tag k="building" v="yes"/>
  </way>
  <way id="85043804" version="1" timestamp="2010-11-12T18:19:59Z" uid="115477" user="wowik" changeset="6352227">
    <nd ref="986834631"/>
    <nd ref="986834656"/>
    <nd ref="986834647"/>
    <nd ref="986834617"/>
    <nd ref="986834631"/>
    <tag k="addr:city" v="Зеленоград"/>
    <tag k="building" v="yes"/>
  </way>
  <way id="85043805" version="1" timestamp="2010-11-12T18:19:59Z" uid="115477" user="wowik" changeset="6352227">
    <nd ref="986834639"/>
    <nd ref="986834629"/>
    <nd ref="986834654"/>
    <nd ref="986834645"/>
    <nd ref="986834639"/>
    <tag k="addr:city" v="Зеленоград"/>
    <tag k="addr:housenumber" v="37"/>
    <tag k="addr:street" v="Первомайская улица"/>
    <tag k="building" v="yes"/>
  </way>
  <way id="85043805" version="2" timestamp="2011-01-13T16:25:06Z" uid="115477" user="wowik" changeset="6958660">
    <nd ref="986834639"/>
    <nd ref="986834629"/>
    <nd ref="986834654"/>
    <nd ref="986834645"/>
    <nd ref="986834639"/>
    <tag k="addr:city" v="Зеленоград"/>
    <tag k="addr:housenumber" v="37"/>
    <tag k="addr:street" v="Первомайская улица"/>
    <tag k="building" v="yes"/>
    <tag k="building:use" v="residential"/>
  </way>
  <way id="85043805" version="3" timestamp="2011-01-17T15:14:05Z" uid="115477" user="wowik" changeset="7000395">
    <nd ref="986834639"/>
    <nd ref="986834629"/>
    <nd ref="986834654"/>
    <nd ref="986834645"/>
    <nd ref="986834639"/>
    <tag k="addr:city" v="Зеленоград"/>
    <tag k="addr:housenumber" v="37"/>
    <tag k="addr:street" v="Первомайская улица"/>
    <tag k="addr:suburb" v="Малино"/>
    <tag k="building" v="yes"/>
    <tag k="building:use" v="residential"/>
  </way>
  <way id="85043806" version="1" timestamp="2010-11-12T18:19:59Z" uid="115477" user="wowik" changeset="6352227">
    <nd ref="986834623"/>
    <nd ref="986834659"/>
    <nd ref="986834650"/>
    <nd ref="986834615"/>
    <nd ref="986834633"/>
    <nd ref="986834621"/>
    <nd ref="986834623"/>
    <tag k="addr:city" v="Зеленоград"/>
    <tag k="addr:housenumber" v="35"/>
    <tag k="addr:street" v="Первомайская улица"/>
    <tag k="building" v="yes"/>
  </way>
  <way id="85043806" version="2" timestamp="2011-01-13T16:26:45Z" uid="115477" user="wowik" changeset="6958660">
    <nd ref="986834623"/>
    <nd ref="986834659"/>
    <nd ref="986834650"/>
    <nd ref="986834615"/>
    <nd ref="986834633"/>
    <nd ref="986834621"/>
    <nd ref="986834623"/>
    <tag k="addr:city" v="Зеленоград"/>
    <tag k="addr:housenumber" v="35"/>
    <tag k="addr:street" v="Первомайская улица"/>
    <tag k="building" v="yes"/>
    <tag k="building:use" v="residential"/>
  </way>
  <way id="85043806" version="3" timestamp="2011-01-17T15:14:16Z" uid="115477" user="wowik" changeset="7000395">
    <nd ref="986834623"/>
    <nd ref="986834659"/>
    <nd ref="986834650"/>
    <nd ref="986834615"/>
    <nd ref="986834633"/>
    <nd ref="986834621"/>
    <nd ref="986834623"/>
    <tag k="addr:city" v="Зеленоград"/>
    <tag k="addr:housenumber" v="35"/>
    <tag k="addr:street" v="Первомайская улица"/>
    <tag k="addr:suburb" v="Малино"/>
    <tag k="building" v="yes"/>
    <tag k="building:use" v="residential"/>
  </way>
  <way id="85043807" version="1" timestamp="2010-11-12T18:19:59Z" uid="115477" user="wowik" changeset="6352227">
    <nd ref="986834608"/>
    <nd ref="986834655"/>
    <nd ref="986834625"/>
    <nd ref="986834616"/>
    <nd ref="986834608"/>
    <tag k="addr:city" v="Зеленоград"/>
    <tag k="building" v="yes"/>
  </way>
  <way id="85043808" version="1" timestamp="2010-11-12T18:19:59Z" uid="115477" user="wowik" changeset="6352227">
    <nd ref="986834660"/>
    <nd ref="986834630"/>
    <nd ref="986834622"/>
    <nd ref="986834646"/>
    <nd ref="986834660"/>
    <tag k="addr:city" v="Зеленоград"/>
    <tag k="building" v="yes"/>
  </way>
  <way id="85043809" version="1" timestamp="2010-11-12T18:19:59Z" uid="115477" user="wowik" changeset="6352227">
    <nd ref="986834611"/>
    <nd ref="986834658"/>
    <nd ref="986834628"/>
    <nd ref="986834620"/>
    <nd ref="986834611"/>
    <tag k="addr:city" v="Зеленоград"/>
    <tag k="addr:housenumber" v="41"/>
    <tag k="addr:street" v="Первомайская улица"/>
    <tag k="building" v="yes"/>
  </way>
  <way id="85043809" version="2" timestamp="2011-01-13T16:27:15Z" uid="115477" user="wowik" changeset="6958660">
    <nd ref="986834611"/>
    <nd ref="986834658"/>
    <nd ref="986834628"/>
    <nd ref="986834620"/>
    <nd ref="986834611"/>
    <tag k="addr:city" v="Зеленоград"/>
    <tag k="addr:housenumber" v="41"/>
    <tag k="addr:street" v="Первомайская улица"/>
    <tag k="building" v="yes"/>
    <tag k="building:use" v="residential"/>
  </way>
  <way id="85043809" version="3" timestamp="2011-01-17T15:13:51Z" uid="115477" user="wowik" changeset="7000395">
    <nd ref="986834611"/>
    <nd ref="986834658"/>
    <nd ref="986834628"/>
    <nd ref="986834620"/>
    <nd ref="986834611"/>
    <tag k="addr:city" v="Зеленоград"/>
    <tag k="addr:housenumber" v="41"/>
    <tag k="addr:street" v="Первомайская улица"/>
    <tag k="addr:suburb" v="Малино"/>
    <tag k="building" v="yes"/>
    <tag k="building:use" v="residential"/>
  </way>
  <way id="85043904" version="2" timestamp="2011-01-12T10:25:17Z" uid="115477" user="wowik" changeset="6945653">
    <nd ref="982632317"/>
    <nd ref="982632245"/>
    <nd ref="428589994"/>
    <nd ref="428589974"/>
    <nd ref="428590060"/>
    <nd ref="982632317"/>
    <tag k="addr:city" v="Зеленоград"/>
    <tag k="addr:housenumber" v="316"/>
    <tag k="addr:street" v="3-й Микрорайон"/>
    <tag k="building" v="yes"/>
    <tag k="building:use" v="residential"/>
    <tag k="is_in" v="Russia"/>
  </way>
  <way id="85043904" version="3" timestamp="2011-01-12T16:45:02Z" uid="115477" user="wowik" changeset="6948926">
    <nd ref="982632317"/>
    <nd ref="982632245"/>
    <nd ref="428589994"/>
    <nd ref="428589974"/>
    <nd ref="428590060"/>
    <nd ref="982632317"/>
    <tag k="addr:city" v="Зеленоград"/>
    <tag k="addr:housenumber" v="316"/>
    <tag k="addr:postcode" v="124482"/>
    <tag k="addr:street" v="3-й Микрорайон"/>
    <tag k="building" v="yes"/>
    <tag k="building:use" v="residential"/>
    <tag k="is_in" v="Russia"/>
  </way>
  <way id="85043904" version="4" timestamp="2011-06-07T20:53:46Z" uid="133332" user="AMDmi3" changeset="8374030">
    <nd ref="982632317"/>
    <nd ref="982632245"/>
    <nd ref="428589994"/>
    <nd ref="428589974"/>
    <nd ref="428590060"/>
    <nd ref="982632317"/>
    <tag k="addr:city" v="Зеленоград"/>
    <tag k="addr:housenumber" v="316"/>
    <tag k="addr:postcode" v="124482"/>
    <tag k="addr:street" v="3-й микрорайон"/>
    <tag k="building" v="yes"/>
    <tag k="building:use" v="residential"/>
    <tag k="is_in" v="Russia"/>
  </way>
  <way id="85043904" version="5" timestamp="2011-09-13T10:25:49Z" uid="29320" user="Komяpa" changeset="9288237">
    <nd ref="982632317"/>
    <nd ref="982632245"/>
    <nd ref="428589994"/>
    <nd ref="428589974"/>
    <nd ref="428590060"/>
    <nd ref="982632317"/>
    <tag k="addr:city" v="Зеленоград"/>
    <tag k="addr:country" v="RU"/>
    <tag k="addr:housenumber" v="316"/>
    <tag k="addr:postcode" v="124482"/>
    <tag k="addr:street" v="3-й микрорайон"/>
    <tag k="building" v="yes"/>
    <tag k="building:use" v="residential"/>
  </way>
  <way id="85043904" version="6" timestamp="2011-10-28T10:29:50Z" uid="481934" user="iWowik" changeset="9675133">
    <nd ref="982632317"/>
    <nd ref="982632245"/>
    <nd ref="428589994"/>
    <nd ref="428589974"/>
    <nd ref="428590060"/>
    <nd ref="982632317"/>
    <tag k="addr:city" v="Зеленоград"/>
    <tag k="addr:country" v="RU"/>
    <tag k="addr:housenumber" v="316"/>
    <tag k="addr:postcode" v="124482"/>
    <tag k="addr:street" v="3-й Микрорайон"/>
    <tag k="building" v="yes"/>
    <tag k="building:use" v="residential"/>
  </way>
  <way id="85043904" version="7" timestamp="2011-11-14T20:32:37Z" uid="133332" user="AMDmi3" changeset="9828527">
    <nd ref="982632317"/>
    <nd ref="982632245"/>
    <nd ref="428589994"/>
    <nd ref="428589974"/>
    <nd ref="428590060"/>
    <nd ref="982632317"/>
    <tag k="addr:city" v="Зеленоград"/>
    <tag k="addr:country" v="RU"/>
    <tag k="addr:housenumber" v="316"/>
    <tag k="addr:postcode" v="124482"/>
    <tag k="addr:street" v="3-й микрорайон"/>
    <tag k="building" v="yes"/>
    <tag k="building:use" v="residential"/>
  </way>
  <way id="85043904" version="8" timestamp="2012-03-27T11:41:38Z" uid="481934" user="iWowik" changeset="11115472">
    <nd ref="982632317"/>
    <nd ref="982632245"/>
    <nd ref="428589994"/>
    <nd ref="428589974"/>
    <nd ref="428590060"/>
    <nd ref="982632317"/>
    <tag k="addr:city" v="Зеленоград"/>
    <tag k="addr:country" v="RU"/>
    <tag k="addr:housenumber" v="316"/>
    <tag k="addr:postcode" v="124482"/>
    <tag k="addr:region" v="Москва"/>
    <tag k="addr:street" v="3-й микрорайон"/>
    <tag k="building" v="yes"/>
    <tag k="building:use" v="residential"/>
  </way>
  <way id="85043905" version="2" timestamp="2011-01-12T10:25:06Z" uid="115477" user="wowik" changeset="6945653">
    <nd ref="982632317"/>
    <nd ref="428590320"/>
    <nd ref="428589971"/>
    <nd ref="428590198"/>
    <nd ref="428590083"/>
    <nd ref="428589947"/>
    <nd ref="428590100"/>
    <nd ref="428590049"/>
    <nd ref="428590282"/>
    <nd ref="982632245"/>
    <nd ref="982632317"/>
    <tag k="building" v="yes"/>
    <tag k="building:use" v="residential"/>
  </way>
  <way id="85043905" version="3" timestamp="2011-01-12T16:45:39Z" uid="115477" user="wowik" changeset="6948926">
    <nd ref="982632317"/>
    <nd ref="428590320"/>
    <nd ref="428589971"/>
    <nd ref="428590198"/>
    <nd ref="428590083"/>
    <nd ref="428589947"/>
    <nd ref="428590100"/>
    <nd ref="428590049"/>
    <nd ref="428590282"/>
    <nd ref="982632245"/>
    <nd ref="982632317"/>
    <tag k="addr:postcode" v="124482"/>
    <tag k="building" v="yes"/>
    <tag k="building:use" v="residential"/>
  </way>
  <way id="85043905" version="4" timestamp="2012-03-27T11:48:53Z" uid="481934" user="iWowik" changeset="11115472">
    <nd ref="982632317"/>
    <nd ref="428590320"/>
    <nd ref="428589971"/>
    <nd ref="428590198"/>
    <nd ref="428590083"/>
    <nd ref="428589947"/>
    <nd ref="428590100"/>
    <nd ref="428590049"/>
    <nd ref="428590282"/>
    <nd ref="982632245"/>
    <nd ref="982632317"/>
    <tag k="addr:city" v="Зеленоград"/>
    <tag k="addr:country" v="RU"/>
    <tag k="addr:postcode" v="124482"/>
    <tag k="addr:region" v="Москва"/>
    <tag k="building" v="yes"/>
    <tag k="building:use" v="residential"/>
  </way>
</osm>
