<?xml version='1.0' encoding='UTF-8'?>
<osm version="0.6" generator="libosmium/2.20.0">
  <way id="85065496" version="1" timestamp="2010-11-12T20:17:37Z" uid="30632" user="antblant" changeset="6353843">
    <nd ref="198156303"/>
    <nd ref="334198521"/>
    <nd ref="27167623"/>
    <nd ref="32329920"/>
    <tag k="highway" v="primary"/>
    <tag k="int_ref" v="E67 , E77"/>
    <tag k="lanes" v="2"/>
    <tag k="maxspeed" v="60"/>
    <tag k="name" v="Franciszka Hynka"/>
    <tag k="oneway" v="yes"/>
    <tag k="ref" v="7"/>
  </way>
  <way id="85065496" version="2" timestamp="2011-02-09T01:54:43Z" uid="165509" user="koszatek" changeset="7232505">
    <nd ref="198156303"/>
    <nd ref="334198521"/>
    <nd ref="32329920"/>
    <tag k="highway" v="primary"/>
    <tag k="int_ref" v="E67 , E77"/>
    <tag k="lanes" v="2"/>
    <tag k="maxspeed" v="60"/>
    <tag k="name" v="Franciszka Hynka"/>
    <tag k="oneway" v="yes"/>
    <tag k="ref" v="7"/>
  </way>
  <way id="85065499" version="1" timestamp="2010-11-12T20:17:37Z" uid="30632" user="antblant" changeset="6353843">
    <nd ref="198156300"/>
    <nd ref="27167626"/>
    <nd ref="27167628"/>
    <nd ref="27167629"/>
    <nd ref="27167631"/>
    <nd ref="27167646"/>
    <nd ref="27167648"/>
    <nd ref="448079564"/>
    <nd ref="27167649"/>
    <nd ref="785374871"/>
    <nd ref="27167651"/>
    <nd ref="27167653"/>
    <nd ref="30895838"/>
    <tag k="highway" v="primary"/>
    <tag k="int_ref" v="E67 , E77"/>
    <tag k="lanes" v="2"/>
    <tag k="maxspeed" v="60"/>
    <tag k="name" v="Franciszka Hynka"/>
    <tag k="oneway" v="yes"/>
    <tag k="ref" v="7"/>
  </way>
  <way id="85065499" version="2" timestamp="2011-07-11T09:11:49Z" uid="37370" user="amateja" changeset="8691784">
    <nd ref="198156300"/>
    <nd ref="27167626"/>
    <nd ref="27167628"/>
    <nd ref="27167629"/>
    <nd ref="27167631"/>
    <nd ref="27167646"/>
    <nd ref="448079564"/>
    <nd ref="27167649"/>
    <nd ref="785374871"/>
    <nd ref="27167653"/>
    <nd ref="30895838"/>
    <tag k="highway" v="primary"/>
    <tag k="int_ref" v="E67 , E77"/>
    <tag k="lanes" v="2"/>
    <tag k="maxspeed" v="60"/>
    <tag k="name" v="Franciszka Hynka"/>
    <tag k="oneway" v="yes"/>
    <tag k="ref" v="7"/>
  </way>
  <way id="85065499" version="3" timestamp="2011-11-17T15:10:59Z" uid="477744" user="hormel" changeset="9854652">
    <nd ref="198156300"/>
    <nd ref="27167626"/>
    <nd ref="27167628"/>
    <nd ref="27167629"/>
    <nd ref="27167631"/>
    <nd ref="27167646"/>
    <nd ref="448079564"/>
    <nd ref="27167649"/>
    <nd ref="785374871"/>
    <nd ref="27167653"/>
    <tag k="highway" v="primary"/>
    <tag k="int_ref" v="E67 , E77"/>
    <tag k="lanes" v="2"/>
    <tag k="maxspeed" v="60"/>
    <tag k="name" v="Franciszka Hynka"/>
    <tag k="oneway" v="yes"/>
    <tag k="ref" v="7"/>
  </way>
</osm>
