<?xml version='1.0' encoding='UTF-8'?>
<osm version="0.6" generator="libosmium/2.20.0">
  <way id="85107137" version="1" timestamp="2010-11-13T04:41:43Z" uid="30632" user="antblant" changeset="6355825">
    <nd ref="259982309"/>
    <nd ref="728564944"/>
    <nd ref="728565075"/>
    <tag k="bridge" v="yes"/>
    <tag k="highway" v="primary"/>
    <tag k="layer" v="1"/>
  </way>
  <way id="85107137" version="2" timestamp="2011-03-11T13:49:55Z" uid="236651" user="Sanjak" changeset="7523552">
    <nd ref="259982309"/>
    <nd ref="728564944"/>
    <nd ref="728565075"/>
    <tag k="bridge" v="yes"/>
    <tag k="highway" v="primary"/>
    <tag k="layer" v="1"/>
    <tag k="ref" v="Н-22"/>
  </way>
  <way id="85107493" version="3" timestamp="2011-01-14T16:42:50Z" uid="115477" user="wowik" changeset="6968851">
    <nd ref="461008260"/>
    <nd ref="461008738"/>
    <nd ref="461009919"/>
    <nd ref="461009546"/>
    <nd ref="461009230"/>
    <nd ref="1103423438"/>
    <nd ref="1103424395"/>
    <nd ref="461008565"/>
    <nd ref="1103423835"/>
    <nd ref="461009512"/>
    <nd ref="461009531"/>
    <nd ref="461009158"/>
    <nd ref="461008370"/>
    <nd ref="461008260"/>
    <tag k="building" v="yes"/>
  </way>
  <way id="85107493" version="4" timestamp="2011-01-17T17:39:23Z" uid="115477" user="wowik" changeset="7001640">
    <nd ref="461008260"/>
    <nd ref="461008738"/>
    <nd ref="461009919"/>
    <nd ref="461009546"/>
    <nd ref="461009230"/>
    <nd ref="461008565"/>
    <nd ref="1103423835"/>
    <nd ref="461009512"/>
    <nd ref="461009531"/>
    <nd ref="461009158"/>
    <nd ref="461008370"/>
    <nd ref="461008260"/>
    <tag k="building" v="yes"/>
  </way>
  <way id="85107493" version="5" timestamp="2012-03-27T08:10:39Z" uid="481934" user="iWowik" changeset="11113698">
    <nd ref="461008260"/>
    <nd ref="461008738"/>
    <nd ref="461009919"/>
    <nd ref="461009546"/>
    <nd ref="461009230"/>
    <nd ref="461008565"/>
    <nd ref="1103423835"/>
    <nd ref="461009512"/>
    <nd ref="461009531"/>
    <nd ref="461009158"/>
    <nd ref="461008370"/>
    <nd ref="461008260"/>
    <tag k="addr:city" v="Зеленоград"/>
    <tag k="addr:country" v="RU"/>
    <tag k="building" v="yes"/>
  </way>
  <way id="85107493" version="6" timestamp="2012-03-27T11:48:57Z" uid="481934" user="iWowik" changeset="11115472">
    <nd ref="461008260"/>
    <nd ref="461008738"/>
    <nd ref="461009919"/>
    <nd ref="461009546"/>
    <nd ref="461009230"/>
    <nd ref="461008565"/>
    <nd ref="1103423835"/>
    <nd ref="461009512"/>
    <nd ref="461009531"/>
    <nd ref="461009158"/>
    <nd ref="461008370"/>
    <nd ref="461008260"/>
    <tag k="addr:city" v="Зеленоград"/>
    <tag k="addr:country" v="RU"/>
    <tag k="addr:region" v="Москва"/>
    <tag k="building" v="yes"/>
  </way>
  <way id="85107498" version="2" timestamp="2011-01-14T16:42:03Z" uid="115477" user="wowik" changeset="6968851">
    <nd ref="461008976"/>
    <nd ref="461008439"/>
    <nd ref="1103423722"/>
    <nd ref="1103424635"/>
    <nd ref="461008738"/>
    <nd ref="461008260"/>
    <nd ref="1103424330"/>
    <nd ref="1103423325"/>
    <nd ref="1103423158"/>
    <nd ref="1103424383"/>
    <nd ref="461008976"/>
    <tag k="addr:city" v="Зеленоград"/>
    <tag k="addr:housenumber" v="830"/>
    <tag k="addr:street" v="8-й Микрорайон"/>
    <tag k="building" v="yes"/>
    <tag k="is_in" v="Russia"/>
  </way>
  <way id="85107498" version="3" timestamp="2011-06-07T20:44:34Z" uid="133332" user="AMDmi3" changeset="8374030">
    <nd ref="461008976"/>
    <nd ref="461008439"/>
    <nd ref="1103423722"/>
    <nd ref="1103424635"/>
    <nd ref="461008738"/>
    <nd ref="461008260"/>
    <nd ref="1103424330"/>
    <nd ref="1103423325"/>
    <nd ref="1103423158"/>
    <nd ref="1103424383"/>
    <nd ref="461008976"/>
    <tag k="addr:city" v="Зеленоград"/>
    <tag k="addr:housenumber" v="830"/>
    <tag k="addr:street" v="8-й микрорайон"/>
    <tag k="building" v="yes"/>
    <tag k="is_in" v="Russia"/>
  </way>
  <way id="85107498" version="4" timestamp="2011-09-13T10:28:52Z" uid="29320" user="Komяpa" changeset="9288237">
    <nd ref="461008976"/>
    <nd ref="461008439"/>
    <nd ref="1103423722"/>
    <nd ref="1103424635"/>
    <nd ref="461008738"/>
    <nd ref="461008260"/>
    <nd ref="1103424330"/>
    <nd ref="1103423325"/>
    <nd ref="1103423158"/>
    <nd ref="1103424383"/>
    <nd ref="461008976"/>
    <tag k="addr:city" v="Зеленоград"/>
    <tag k="addr:country" v="RU"/>
    <tag k="addr:housenumber" v="830"/>
    <tag k="addr:street" v="8-й микрорайон"/>
    <tag k="building" v="yes"/>
  </way>
  <way id="85107498" version="5" timestamp="2012-03-27T11:46:30Z" uid="481934" user="iWowik" changeset="11115472">
    <nd ref="461008976"/>
    <nd ref="461008439"/>
    <nd ref="1103423722"/>
    <nd ref="1103424635"/>
    <nd ref="461008738"/>
    <nd ref="461008260"/>
    <nd ref="1103424330"/>
    <nd ref="1103423325"/>
    <nd ref="1103423158"/>
    <nd ref="1103424383"/>
    <nd ref="461008976"/>
    <tag k="addr:city" v="Зеленоград"/>
    <tag k="addr:country" v="RU"/>
    <tag k="addr:housenumber" v="830"/>
    <tag k="addr:region" v="Москва"/>
    <tag k="addr:street" v="8-й микрорайон"/>
    <tag k="building" v="yes"/>
  </way>
  <way id="85107985" version="2" timestamp="2011-01-14T16:43:00Z" uid="115477" user="wowik" changeset="6968851">
    <nd ref="461008920"/>
    <nd ref="461008646"/>
    <nd ref="461008143"/>
    <nd ref="461009490"/>
    <nd ref="461008537"/>
    <nd ref="461009391"/>
    <nd ref="1103423708"/>
    <nd ref="1103423355"/>
    <nd ref="461009536"/>
    <nd ref="461008350"/>
    <nd ref="461009771"/>
    <nd ref="461008920"/>
    <tag k="building" v="yes"/>
  </way>
  <way id="85107985" version="3" timestamp="2012-03-27T08:10:39Z" uid="481934" user="iWowik" changeset="11113698">
    <nd ref="461008920"/>
    <nd ref="461008646"/>
    <nd ref="461008143"/>
    <nd ref="461009490"/>
    <nd ref="461008537"/>
    <nd ref="461009391"/>
    <nd ref="1103423708"/>
    <nd ref="1103423355"/>
    <nd ref="461009536"/>
    <nd ref="461008350"/>
    <nd ref="461009771"/>
    <nd ref="461008920"/>
    <tag k="addr:city" v="Зеленоград"/>
    <tag k="addr:country" v="RU"/>
    <tag k="building" v="yes"/>
  </way>
  <way id="85107985" version="4" timestamp="2012-03-27T11:48:56Z" uid="481934" user="iWowik" changeset="11115472">
    <nd ref="461008920"/>
    <nd ref="461008646"/>
    <nd ref="461008143"/>
    <nd ref="461009490"/>
    <nd ref="461008537"/>
    <nd ref="461009391"/>
    <nd ref="1103423708"/>
    <nd ref="1103423355"/>
    <nd ref="461009536"/>
    <nd ref="461008350"/>
    <nd ref="461009771"/>
    <nd ref="461008920"/>
    <tag k="addr:city" v="Зеленоград"/>
    <tag k="addr:country" v="RU"/>
    <tag k="addr:region" v="Москва"/>
    <tag k="building" v="yes"/>
  </way>
  <way id="85107987" version="2" timestamp="2011-01-14T16:44:25Z" uid="115477" user="wowik" changeset="6968851">
    <nd ref="461009498"/>
    <nd ref="461008662"/>
    <nd ref="1103424610"/>
    <nd ref="1103424377"/>
    <nd ref="461008646"/>
    <nd ref="461008920"/>
    <nd ref="1103423289"/>
    <nd ref="1103424543"/>
    <nd ref="1103423064"/>
    <nd ref="1103424285"/>
    <nd ref="461009498"/>
    <tag k="addr:city" v="Зеленоград"/>
    <tag k="addr:housenumber" v="826"/>
    <tag k="addr:street" v="8-й Микрорайон"/>
    <tag k="building" v="yes"/>
    <tag k="is_in" v="Russia"/>
  </way>
  <way id="85107987" version="3" timestamp="2011-06-07T20:49:32Z" uid="133332" user="AMDmi3" changeset="8374030">
    <nd ref="461009498"/>
    <nd ref="461008662"/>
    <nd ref="1103424610"/>
    <nd ref="1103424377"/>
    <nd ref="461008646"/>
    <nd ref="461008920"/>
    <nd ref="1103423289"/>
    <nd ref="1103424543"/>
    <nd ref="1103423064"/>
    <nd ref="1103424285"/>
    <nd ref="461009498"/>
    <tag k="addr:city" v="Зеленоград"/>
    <tag k="addr:housenumber" v="826"/>
    <tag k="addr:street" v="8-й микрорайон"/>
    <tag k="building" v="yes"/>
    <tag k="is_in" v="Russia"/>
  </way>
  <way id="85107987" version="4" timestamp="2011-09-13T10:28:49Z" uid="29320" user="Komяpa" changeset="9288237">
    <nd ref="461009498"/>
    <nd ref="461008662"/>
    <nd ref="1103424610"/>
    <nd ref="1103424377"/>
    <nd ref="461008646"/>
    <nd ref="461008920"/>
    <nd ref="1103423289"/>
    <nd ref="1103424543"/>
    <nd ref="1103423064"/>
    <nd ref="1103424285"/>
    <nd ref="461009498"/>
    <tag k="addr:city" v="Зеленоград"/>
    <tag k="addr:country" v="RU"/>
    <tag k="addr:housenumber" v="826"/>
    <tag k="addr:street" v="8-й микрорайон"/>
    <tag k="building" v="yes"/>
  </way>
  <way id="85107987" version="5" timestamp="2012-03-27T11:46:27Z" uid="481934" user="iWowik" changeset="11115472">
    <nd ref="461009498"/>
    <nd ref="461008662"/>
    <nd ref="1103424610"/>
    <nd ref="1103424377"/>
    <nd ref="461008646"/>
    <nd ref="461008920"/>
    <nd ref="1103423289"/>
    <nd ref="1103424543"/>
    <nd ref="1103423064"/>
    <nd ref="1103424285"/>
    <nd ref="461009498"/>
    <tag k="addr:city" v="Зеленоград"/>
    <tag k="addr:country" v="RU"/>
    <tag k="addr:housenumber" v="826"/>
    <tag k="addr:region" v="Москва"/>
    <tag k="addr:street" v="8-й микрорайон"/>
    <tag k="building" v="yes"/>
  </way>
</osm>
