<?xml version='1.0' encoding='UTF-8'?>
<osm version="0.6" generator="libosmium/2.20.0">
  <way id="85118112" version="2" timestamp="2011-01-24T17:28:43Z" uid="115477" user="wowik" changeset="7075407">
    <nd ref="605290125"/>
    <nd ref="605290130"/>
    <nd ref="605290090"/>
    <nd ref="605290093"/>
    <nd ref="1118961647"/>
    <nd ref="1118963113"/>
    <nd ref="1118960047"/>
    <nd ref="1118963479"/>
    <nd ref="1118963667"/>
    <nd ref="1118962400"/>
    <nd ref="605290125"/>
    <tag k="addr:city" v="Зеленоград"/>
    <tag k="addr:housenumber" v="1621"/>
    <tag k="addr:street" v="16-й Микрорайон"/>
    <tag k="building" v="yes"/>
    <tag k="is_in" v="Russia"/>
  </way>
  <way id="85118112" version="3" timestamp="2011-06-07T20:45:07Z" uid="133332" user="AMDmi3" changeset="8374030">
    <nd ref="605290125"/>
    <nd ref="605290130"/>
    <nd ref="605290090"/>
    <nd ref="605290093"/>
    <nd ref="1118961647"/>
    <nd ref="1118963113"/>
    <nd ref="1118960047"/>
    <nd ref="1118963479"/>
    <nd ref="1118963667"/>
    <nd ref="1118962400"/>
    <nd ref="605290125"/>
    <tag k="addr:city" v="Зеленоград"/>
    <tag k="addr:housenumber" v="1621"/>
    <tag k="addr:street" v="16-й микрорайон"/>
    <tag k="building" v="yes"/>
    <tag k="is_in" v="Russia"/>
  </way>
  <way id="85118112" version="4" timestamp="2011-09-13T10:23:23Z" uid="29320" user="Komяpa" changeset="9288237">
    <nd ref="605290125"/>
    <nd ref="605290130"/>
    <nd ref="605290090"/>
    <nd ref="605290093"/>
    <nd ref="1118961647"/>
    <nd ref="1118963113"/>
    <nd ref="1118960047"/>
    <nd ref="1118963479"/>
    <nd ref="1118963667"/>
    <nd ref="1118962400"/>
    <nd ref="605290125"/>
    <tag k="addr:city" v="Зеленоград"/>
    <tag k="addr:country" v="RU"/>
    <tag k="addr:housenumber" v="1621"/>
    <tag k="addr:street" v="16-й микрорайон"/>
    <tag k="building" v="yes"/>
  </way>
  <way id="85118112" version="5" timestamp="2012-03-27T11:37:12Z" uid="481934" user="iWowik" changeset="11115472">
    <nd ref="605290125"/>
    <nd ref="605290130"/>
    <nd ref="605290090"/>
    <nd ref="605290093"/>
    <nd ref="1118961647"/>
    <nd ref="1118963113"/>
    <nd ref="1118960047"/>
    <nd ref="1118963479"/>
    <nd ref="1118963667"/>
    <nd ref="1118962400"/>
    <nd ref="605290125"/>
    <tag k="addr:city" v="Зеленоград"/>
    <tag k="addr:country" v="RU"/>
    <tag k="addr:housenumber" v="1621"/>
    <tag k="addr:region" v="Москва"/>
    <tag k="addr:street" v="16-й микрорайон"/>
    <tag k="building" v="yes"/>
  </way>
  <way id="85118329" version="1" timestamp="2010-11-13T05:32:03Z" uid="7617" user="Franc" changeset="6355919">
    <nd ref="987375296"/>
    <nd ref="987375274"/>
    <nd ref="987375277"/>
    <nd ref="987375303"/>
    <nd ref="987375305"/>
    <nd ref="987375292"/>
    <nd ref="987375296"/>
    <tag k="amenity" v="parking"/>
    <tag k="capacity:disabled" v="1"/>
    <tag k="source" v="nearmap"/>
  </way>
  <way id="85118330" version="1" timestamp="2010-11-13T05:32:03Z" uid="7617" user="Franc" changeset="6355919">
    <nd ref="987375301"/>
    <nd ref="987375285"/>
    <nd ref="987375290"/>
    <nd ref="987375294"/>
    <nd ref="987375298"/>
    <nd ref="987375307"/>
    <nd ref="987375284"/>
    <nd ref="987375289"/>
    <nd ref="987375301"/>
    <tag k="highway" v="residential"/>
    <tag k="junction" v="roundabout"/>
    <tag k="source" v="nearmap"/>
  </way>
  <way id="85118332" version="1" timestamp="2010-11-13T05:32:04Z" uid="7617" user="Franc" changeset="6355919">
    <nd ref="987375276"/>
    <nd ref="987375283"/>
    <tag k="highway" v="service"/>
    <tag k="service" v="parking_aisle"/>
  </way>
  <way id="85118334" version="1" timestamp="2010-11-13T05:32:04Z" uid="7617" user="Franc" changeset="6355919">
    <nd ref="987375273"/>
    <nd ref="987375295"/>
    <tag k="highway" v="service"/>
    <tag k="service" v="driveway"/>
    <tag k="source" v="nearmap"/>
  </way>
  <way id="85118335" version="1" timestamp="2010-11-13T05:32:04Z" uid="7617" user="Franc" changeset="6355919">
    <nd ref="987375300"/>
    <nd ref="987375282"/>
    <nd ref="987375286"/>
    <nd ref="28881459"/>
    <nd ref="332787533"/>
    <nd ref="332787513"/>
    <nd ref="332787520"/>
    <nd ref="332787526"/>
    <nd ref="332787506"/>
    <nd ref="332787500"/>
    <tag k="highway" v="residential"/>
    <tag k="maxspeed" v="50"/>
    <tag k="maxspeed:source" v="default residential speed limit in Australia"/>
    <tag k="name" v="Best Street"/>
    <tag k="source" v="survey"/>
  </way>
</osm>
