<?xml version='1.0' encoding='UTF-8'?>
<osm version="0.6" generator="libosmium/2.20.0">
  <way id="85661063" version="2" timestamp="2011-02-25T08:57:50Z" uid="115477" user="wowik" changeset="7388402">
    <nd ref="993819151"/>
    <nd ref="993819175"/>
    <nd ref="993819127"/>
    <nd ref="993819141"/>
    <nd ref="993819151"/>
    <tag k="addr:housenumber" v="26 к1 с1"/>
    <tag k="addr:street" v="улица Барышиха"/>
    <tag k="building" v="yes"/>
    <tag k="note" v="addr:housenumber неточен"/>
  </way>
  <way id="85661063" version="3" timestamp="2012-03-27T16:49:51Z" uid="481934" user="iWowik" changeset="11118068">
    <nd ref="993819151"/>
    <nd ref="993819175"/>
    <nd ref="993819127"/>
    <nd ref="993819141"/>
    <nd ref="993819151"/>
    <tag k="addr:city" v="Москва"/>
    <tag k="addr:country" v="RU"/>
    <tag k="addr:housenumber" v="26 к1 с1"/>
    <tag k="addr:street" v="улица Барышиха"/>
    <tag k="building" v="yes"/>
    <tag k="note" v="addr:housenumber неточен"/>
  </way>
</osm>
