<?xml version='1.0' encoding='UTF-8'?>
<osm version="0.6" generator="libosmium/2.20.0">
  <way id="85882463" version="1" timestamp="2010-11-20T21:25:42Z" uid="33382" user="de_muur" changeset="6418158">
    <nd ref="26496873"/>
    <nd ref="459778519"/>
    <nd ref="26559897"/>
    <nd ref="316251630"/>
    <nd ref="26559898"/>
    <nd ref="26559899"/>
    <nd ref="691588217"/>
    <tag k="highway" v="cycleway"/>
    <tag k="name" v="Jan-Reiners-Wanderweg"/>
    <tag k="surface" v="paved"/>
  </way>
  <way id="85882463" version="3" timestamp="2011-06-14T14:20:07Z" uid="14002" user="Gehrke" changeset="8435823">
    <nd ref="26496873"/>
    <nd ref="459778519"/>
    <nd ref="316251630"/>
    <nd ref="26559898"/>
    <nd ref="691588217"/>
    <tag k="foot" v="yes"/>
    <tag k="highway" v="cycleway"/>
    <tag k="name" v="Jan-Reiners-Wanderweg"/>
    <tag k="surface" v="paved"/>
  </way>
  <way id="85882465" version="1" timestamp="2010-11-20T21:25:43Z" uid="33382" user="de_muur" changeset="6418158">
    <nd ref="29997413"/>
    <nd ref="459781590"/>
    <nd ref="29997414"/>
    <nd ref="459781495"/>
    <tag k="highway" v="cycleway"/>
    <tag k="name" v="Jan-Reiners-Wanderweg"/>
    <tag k="surface" v="paved"/>
  </way>
  <way id="85882465" version="2" timestamp="2011-05-21T21:40:55Z" uid="45445" user="UScha" changeset="8211082">
    <nd ref="29997413"/>
    <nd ref="459781590"/>
    <nd ref="29997414"/>
    <nd ref="459781495"/>
    <tag k="bicycle" v="yes"/>
    <tag k="foot" v="yes"/>
    <tag k="highway" v="path"/>
    <tag k="name" v="Jan-Reiners-Wanderweg"/>
    <tag k="surface" v="paved"/>
  </way>
</osm>
