<?xml version='1.0' encoding='UTF-8'?>
<osm version="0.6" generator="libosmium/2.20.0">
  <way id="8614183" version="6" timestamp="2010-07-07T08:59:10Z" uid="74617" user="JohnSmith" changeset="5156250">
    <nd ref="61308681"/>
    <nd ref="61308683"/>
    <nd ref="61308684"/>
    <nd ref="61308686"/>
    <nd ref="61308687"/>
    <nd ref="61308688"/>
    <tag k="highway" v="residential"/>
    <tag k="maxspeed" v="50"/>
    <tag k="maxspeed:source" v="default residential speed limit in Australia"/>
    <tag k="name" v="Lochee Place"/>
  </way>
  <way id="8614183" version="7" timestamp="2012-01-15T07:47:22Z" uid="147510" user="woodpeck_fixbot" changeset="10394821">
    <nd ref="61308681"/>
    <nd ref="61308683"/>
    <nd ref="61308684"/>
    <nd ref="61308686"/>
    <nd ref="61308687"/>
    <nd ref="61308688"/>
    <tag k="highway" v="residential"/>
    <tag k="name" v="Lochee Place"/>
  </way>
  <way id="8614194" version="6" timestamp="2010-07-07T08:59:00Z" uid="74617" user="JohnSmith" changeset="5156250">
    <nd ref="61309095"/>
    <nd ref="61309096"/>
    <nd ref="61309098"/>
    <nd ref="61309099"/>
    <tag k="highway" v="residential"/>
    <tag k="maxspeed" v="50"/>
    <tag k="maxspeed:source" v="default residential speed limit in Australia"/>
    <tag k="name" v="Bickley Close"/>
  </way>
  <way id="8614194" version="7" timestamp="2012-01-15T07:47:24Z" uid="147510" user="woodpeck_fixbot" changeset="10394821">
    <nd ref="61309095"/>
    <nd ref="61309096"/>
    <nd ref="61309098"/>
    <nd ref="61309099"/>
    <tag k="highway" v="residential"/>
    <tag k="name" v="Bickley Close"/>
  </way>
  <way id="8614197" version="7" timestamp="2010-07-07T08:59:23Z" uid="74617" user="JohnSmith" changeset="5156250">
    <nd ref="61309869"/>
    <nd ref="61309871"/>
    <nd ref="61309872"/>
    <nd ref="61309874"/>
    <nd ref="61309875"/>
    <nd ref="61309877"/>
    <nd ref="61309878"/>
    <nd ref="61308162"/>
    <tag k="highway" v="residential"/>
    <tag k="maxspeed" v="50"/>
    <tag k="maxspeed:source" v="default residential speed limit in Australia"/>
    <tag k="name" v="Salvado Place"/>
  </way>
  <way id="8614197" version="8" timestamp="2012-01-15T07:47:25Z" uid="147510" user="woodpeck_fixbot" changeset="10394821">
    <nd ref="61309869"/>
    <nd ref="61309871"/>
    <nd ref="61309872"/>
    <nd ref="61309874"/>
    <nd ref="61309875"/>
    <nd ref="61309877"/>
    <nd ref="61309878"/>
    <nd ref="61308162"/>
    <tag k="highway" v="residential"/>
    <tag k="name" v="Salvado Place"/>
  </way>
  <way id="8614199" version="4" timestamp="2010-07-07T09:02:42Z" uid="74617" user="JohnSmith" changeset="5156250">
    <nd ref="61310266"/>
    <nd ref="61310267"/>
    <nd ref="61310269"/>
    <nd ref="61310270"/>
    <nd ref="61310272"/>
    <tag k="highway" v="residential"/>
    <tag k="maxspeed" v="50"/>
    <tag k="maxspeed:source" v="default residential speed limit in Australia"/>
    <tag k="name" v="Tuckey Place"/>
  </way>
  <way id="8614199" version="5" timestamp="2012-01-15T07:47:26Z" uid="147510" user="woodpeck_fixbot" changeset="10394821">
    <nd ref="61310266"/>
    <nd ref="61310267"/>
    <nd ref="61310269"/>
    <nd ref="61310270"/>
    <nd ref="61310272"/>
    <tag k="highway" v="residential"/>
    <tag k="name" v="Tuckey Place"/>
  </way>
  <way id="8614200" version="6" timestamp="2010-07-07T08:59:44Z" uid="74617" user="JohnSmith" changeset="5156250">
    <nd ref="61311435"/>
    <nd ref="61311437"/>
    <tag k="highway" v="residential"/>
    <tag k="maxspeed" v="50"/>
    <tag k="maxspeed:source" v="default residential speed limit in Australia"/>
    <tag k="name" v="Hassell Place"/>
  </way>
  <way id="8614200" version="7" timestamp="2012-01-15T07:47:27Z" uid="147510" user="woodpeck_fixbot" changeset="10394821">
    <nd ref="61311435"/>
    <nd ref="61311437"/>
    <tag k="highway" v="residential"/>
    <tag k="name" v="Hassell Place"/>
  </way>
  <way id="8614201" version="3" timestamp="2008-09-05T10:53:59Z" uid="1066" user="pavel" changeset="539695">
    <nd ref="260815"/>
    <nd ref="61311723"/>
    <nd ref="260816"/>
    <nd ref="260810"/>
    <tag k="created_by" v="Potlatch 0.5d"/>
    <tag k="highway" v="residential"/>
    <tag k="name" v="Drahotická"/>
    <tag k="name:source" v="nameit/uir-adr"/>
    <tag k="oneway" v="true"/>
  </way>
  <way id="8614201" version="4" timestamp="2009-03-14T13:16:55Z" uid="3516" user="BiIbo" changeset="804731">
    <nd ref="260815"/>
    <nd ref="61311723"/>
    <nd ref="260816"/>
    <nd ref="260810"/>
    <tag k="highway" v="residential"/>
    <tag k="name" v="Drahotická"/>
    <tag k="oneway" v="yes"/>
    <tag k="source:name" v="nameit/uir-adr"/>
  </way>
  <way id="8614201" version="5" timestamp="2011-03-17T21:53:13Z" uid="412792" user="Buft" changeset="7590431">
    <nd ref="1206538231"/>
    <nd ref="260815"/>
    <nd ref="61311723"/>
    <nd ref="260816"/>
    <nd ref="260810"/>
    <tag k="highway" v="residential"/>
    <tag k="name" v="Drahotická"/>
    <tag k="oneway" v="yes"/>
    <tag k="source:name" v="nameit/uir-adr"/>
  </way>
  <way id="8614201" version="6" timestamp="2011-03-28T21:15:16Z" uid="412792" user="Buft" changeset="7701730">
    <nd ref="1206538231"/>
    <nd ref="260815"/>
    <nd ref="61311723"/>
    <nd ref="260816"/>
    <nd ref="260810"/>
    <tag k="highway" v="living_street"/>
    <tag k="name" v="Drahotická"/>
    <tag k="oneway" v="yes"/>
    <tag k="source:name" v="nameit/uir-adr"/>
  </way>
  <way id="8614201" version="7" timestamp="2012-03-14T11:02:46Z" uid="488732" user="montardo" changeset="10976551">
    <nd ref="1206538231"/>
    <nd ref="260815"/>
    <nd ref="61311723"/>
    <nd ref="260816"/>
    <nd ref="1674416873"/>
    <nd ref="260810"/>
    <tag k="highway" v="living_street"/>
    <tag k="name" v="Drahotická"/>
    <tag k="oneway" v="yes"/>
    <tag k="source:name" v="nameit/uir-adr"/>
  </way>
  <way id="8614203" version="2" timestamp="2008-09-05T10:55:11Z" uid="1066" user="pavel" changeset="539695">
    <nd ref="61311694"/>
    <nd ref="61311718"/>
    <nd ref="30127648"/>
    <tag k="created_by" v="JOSM"/>
    <tag k="highway" v="residential"/>
    <tag k="name" v="Sojovická"/>
    <tag k="name:source" v="nameit/uir-adr"/>
  </way>
  <way id="8614203" version="3" timestamp="2009-03-14T13:16:56Z" uid="3516" user="BiIbo" changeset="804731">
    <nd ref="61311694"/>
    <nd ref="61311718"/>
    <nd ref="30127648"/>
    <tag k="highway" v="residential"/>
    <tag k="name" v="Sojovická"/>
    <tag k="source:name" v="nameit/uir-adr"/>
  </way>
  <way id="8614203" version="4" timestamp="2011-03-17T21:53:18Z" uid="412792" user="Buft" changeset="7590431">
    <nd ref="61311694"/>
    <nd ref="1206538224"/>
    <nd ref="61311718"/>
    <nd ref="1206538552"/>
    <nd ref="30127648"/>
    <tag k="highway" v="residential"/>
    <tag k="name" v="Sojovická"/>
    <tag k="source:name" v="nameit/uir-adr"/>
  </way>
  <way id="8614203" version="5" timestamp="2011-03-28T21:15:05Z" uid="412792" user="Buft" changeset="7701730">
    <nd ref="61311694"/>
    <nd ref="1206538224"/>
    <nd ref="61311718"/>
    <nd ref="1206538552"/>
    <nd ref="30127648"/>
    <tag k="highway" v="living_street"/>
    <tag k="name" v="Sojovická"/>
    <tag k="source:name" v="nameit/uir-adr"/>
  </way>
  <way id="8614203" version="6" timestamp="2012-03-14T11:02:53Z" uid="488732" user="montardo" changeset="10976551">
    <nd ref="61311694"/>
    <nd ref="1674417049"/>
    <nd ref="1206538224"/>
    <nd ref="61311718"/>
    <nd ref="1206538552"/>
    <nd ref="1674416930"/>
    <nd ref="30127648"/>
    <tag k="highway" v="living_street"/>
    <tag k="name" v="Sojovická"/>
    <tag k="source:name" v="nameit/uir-adr"/>
  </way>
  <way id="8614204" version="2" timestamp="2008-09-05T10:54:20Z" uid="1066" user="pavel" changeset="539695">
    <nd ref="61311718"/>
    <nd ref="260815"/>
    <tag k="created_by" v="JOSM"/>
    <tag k="highway" v="residential"/>
    <tag k="name" v="Sojovická"/>
    <tag k="name:source" v="nameit/uir-adr"/>
  </way>
  <way id="8614204" version="3" timestamp="2009-03-14T13:16:53Z" uid="3516" user="BiIbo" changeset="804731">
    <nd ref="61311718"/>
    <nd ref="260815"/>
    <tag k="highway" v="residential"/>
    <tag k="name" v="Sojovická"/>
    <tag k="source:name" v="nameit/uir-adr"/>
  </way>
  <way id="8614204" version="4" timestamp="2011-03-17T21:53:12Z" uid="412792" user="Buft" changeset="7590431">
    <nd ref="61311718"/>
    <nd ref="1206538231"/>
    <tag k="highway" v="footway"/>
    <tag k="source:name" v="nameit/uir-adr"/>
    <tag k="surface" v="paved"/>
    <tag k="width" v="2"/>
  </way>
  <way id="8614206" version="2" timestamp="2008-09-05T10:52:55Z" uid="1066" user="pavel" changeset="539695">
    <nd ref="61311730"/>
    <nd ref="61311734"/>
    <tag k="created_by" v="JOSM"/>
    <tag k="highway" v="residential"/>
    <tag k="name" v="Úlibická"/>
    <tag k="name:source" v="nameit/uir-adr"/>
  </way>
  <way id="8614206" version="3" timestamp="2009-03-14T13:16:54Z" uid="3516" user="BiIbo" changeset="804731">
    <nd ref="61311730"/>
    <nd ref="61311734"/>
    <tag k="highway" v="residential"/>
    <tag k="name" v="Úlibická"/>
    <tag k="source:name" v="nameit/uir-adr"/>
  </way>
  <way id="8614206" version="4" timestamp="2011-04-25T12:58:09Z" uid="3516" user="BiIbo" changeset="7961486">
    <nd ref="61311730"/>
    <nd ref="1259499651"/>
    <nd ref="1259499687"/>
    <nd ref="1259499632"/>
    <nd ref="61311734"/>
    <tag k="highway" v="residential"/>
    <tag k="name" v="Úlibická"/>
    <tag k="source:name" v="nameit/uir-adr"/>
  </way>
  <way id="8614207" version="3" timestamp="2008-09-05T10:54:58Z" uid="1066" user="pavel" changeset="539695">
    <nd ref="61311734"/>
    <nd ref="61311739"/>
    <nd ref="61311742"/>
    <tag k="highway" v="residential"/>
    <tag k="name" v="Úlibická"/>
    <tag k="name:source" v="nameit/uir-adr"/>
  </way>
  <way id="8614207" version="4" timestamp="2009-03-14T13:16:53Z" uid="3516" user="BiIbo" changeset="804731">
    <nd ref="61311734"/>
    <nd ref="61311739"/>
    <nd ref="61311742"/>
    <tag k="highway" v="residential"/>
    <tag k="name" v="Úlibická"/>
    <tag k="source:name" v="nameit/uir-adr"/>
  </way>
  <way id="8614208" version="5" timestamp="2010-07-07T09:01:47Z" uid="74617" user="JohnSmith" changeset="5156250">
    <nd ref="61312036"/>
    <nd ref="61312037"/>
    <nd ref="61312039"/>
    <nd ref="61312040"/>
    <nd ref="61312050"/>
    <tag k="highway" v="residential"/>
    <tag k="maxspeed" v="50"/>
    <tag k="maxspeed:source" v="default residential speed limit in Australia"/>
    <tag k="name" v="Norrish Place"/>
  </way>
  <way id="8614208" version="6" timestamp="2012-01-15T07:47:29Z" uid="147510" user="woodpeck_fixbot" changeset="10394821">
    <nd ref="61312036"/>
    <nd ref="61312037"/>
    <nd ref="61312039"/>
    <nd ref="61312040"/>
    <nd ref="61312050"/>
    <tag k="highway" v="residential"/>
    <tag k="name" v="Norrish Place"/>
  </way>
  <way id="8614209" version="2" timestamp="2008-09-05T10:53:47Z" uid="1066" user="pavel" changeset="539695">
    <nd ref="61311758"/>
    <nd ref="61311764"/>
    <tag k="created_by" v="JOSM"/>
    <tag k="highway" v="residential"/>
    <tag k="name" v="Hornopočernická"/>
    <tag k="name:source" v="nameit/uir-adr"/>
  </way>
  <way id="8614209" version="3" timestamp="2009-03-14T13:16:37Z" uid="3516" user="BiIbo" changeset="804731">
    <nd ref="61311758"/>
    <nd ref="61311764"/>
    <tag k="highway" v="residential"/>
    <tag k="name" v="Hornopočernická"/>
    <tag k="source:name" v="nameit/uir-adr"/>
  </way>
  <way id="8614209" version="4" timestamp="2011-03-28T21:14:55Z" uid="412792" user="Buft" changeset="7701730">
    <nd ref="61311758"/>
    <nd ref="61311764"/>
    <tag k="highway" v="residential"/>
    <tag k="name" v="Krnská"/>
    <tag k="source:name" v="nameit/uir-adr"/>
  </way>
  <way id="8614209" version="5" timestamp="2011-08-14T20:28:48Z" uid="17615" user="Petr Dlouhý" changeset="9020740">
    <nd ref="61311758"/>
    <nd ref="1399074207"/>
    <nd ref="61311764"/>
    <tag k="bicycle" v="yes"/>
    <tag k="highway" v="residential"/>
    <tag k="motorcar" v="no"/>
    <tag k="name" v="Krnská"/>
    <tag k="source:name" v="nameit/uir-adr"/>
  </way>
  <way id="8614210" version="3" timestamp="2008-09-05T10:52:53Z" uid="1066" user="pavel" changeset="539695">
    <nd ref="61311739"/>
    <nd ref="61311764"/>
    <tag k="created_by" v="Potlatch 0.5d"/>
    <tag k="highway" v="residential"/>
    <tag k="name" v="Čejetická"/>
    <tag k="name:source" v="nameit/uir-adr"/>
    <tag k="oneway" v="true"/>
  </way>
  <way id="8614210" version="4" timestamp="2009-03-14T13:16:34Z" uid="3516" user="BiIbo" changeset="804731">
    <nd ref="61311739"/>
    <nd ref="61311764"/>
    <tag k="highway" v="residential"/>
    <tag k="name" v="Čejetická"/>
    <tag k="oneway" v="yes"/>
    <tag k="source:name" v="nameit/uir-adr"/>
  </way>
  <way id="8614211" version="3" timestamp="2008-09-05T10:54:55Z" uid="1066" user="pavel" changeset="539695">
    <nd ref="61311764"/>
    <nd ref="61311853"/>
    <nd ref="61311859"/>
    <nd ref="61311869"/>
    <nd ref="61311865"/>
    <nd ref="61311746"/>
    <tag k="created_by" v="Potlatch 0.5d"/>
    <tag k="highway" v="residential"/>
    <tag k="name" v="Krnská"/>
    <tag k="name:source" v="nameit/uir-adr"/>
    <tag k="oneway" v="true"/>
  </way>
  <way id="8614211" version="4" timestamp="2009-03-14T13:16:36Z" uid="3516" user="BiIbo" changeset="804731">
    <nd ref="61311764"/>
    <nd ref="61311853"/>
    <nd ref="61311859"/>
    <nd ref="61311869"/>
    <nd ref="61311865"/>
    <nd ref="61311746"/>
    <tag k="highway" v="residential"/>
    <tag k="name" v="Krnská"/>
    <tag k="oneway" v="yes"/>
    <tag k="source:name" v="nameit/uir-adr"/>
  </way>
  <way id="8614211" version="5" timestamp="2011-03-14T23:28:42Z" uid="412792" user="Buft" changeset="7562305">
    <nd ref="61311764"/>
    <nd ref="1202330836"/>
    <nd ref="1202331055"/>
    <nd ref="61311853"/>
    <nd ref="1202330996"/>
    <nd ref="1202330967"/>
    <nd ref="61311859"/>
    <nd ref="61311869"/>
    <nd ref="61311865"/>
    <nd ref="61311746"/>
    <tag k="highway" v="residential"/>
    <tag k="name" v="Krnská"/>
    <tag k="oneway" v="yes"/>
    <tag k="source:name" v="nameit/uir-adr"/>
  </way>
  <way id="8614211" version="6" timestamp="2011-03-28T21:15:10Z" uid="412792" user="Buft" changeset="7701730">
    <nd ref="61311764"/>
    <nd ref="1202330836"/>
    <nd ref="1202331055"/>
    <nd ref="61311853"/>
    <tag k="highway" v="residential"/>
    <tag k="name" v="Krnská"/>
    <tag k="oneway" v="yes"/>
    <tag k="source:name" v="nameit/uir-adr"/>
  </way>
  <way id="8614211" version="7" timestamp="2011-04-25T12:58:14Z" uid="3516" user="BiIbo" changeset="7961486">
    <nd ref="61311764"/>
    <nd ref="1259499636"/>
    <nd ref="1202330836"/>
    <nd ref="1202331055"/>
    <nd ref="61311853"/>
    <tag k="highway" v="residential"/>
    <tag k="name" v="Krnská"/>
    <tag k="oneway" v="yes"/>
    <tag k="source:name" v="nameit/uir-adr"/>
  </way>
  <way id="8614211" version="8" timestamp="2011-10-12T22:51:36Z" uid="527259" user="Vratislav Filler" changeset="9543368">
    <nd ref="61311764"/>
    <nd ref="1259499636"/>
    <nd ref="1202330836"/>
    <nd ref="1202331055"/>
    <nd ref="61311853"/>
    <tag k="highway" v="residential"/>
    <tag k="name" v="Krnská"/>
    <tag k="source:name" v="nameit/uir-adr"/>
  </way>
  <way id="8614212" version="3" timestamp="2008-09-05T10:54:28Z" uid="1066" user="pavel" changeset="539695">
    <nd ref="61311752"/>
    <nd ref="61311853"/>
    <tag k="highway" v="residential"/>
    <tag k="name" v="Slovačíkova"/>
    <tag k="name:source" v="nameit/uir-adr"/>
  </way>
  <way id="8614212" version="4" timestamp="2009-03-14T13:16:38Z" uid="3516" user="BiIbo" changeset="804731">
    <nd ref="61311752"/>
    <nd ref="61311853"/>
    <tag k="highway" v="residential"/>
    <tag k="name" v="Slovačíkova"/>
    <tag k="source:name" v="nameit/uir-adr"/>
  </way>
  <way id="8614212" version="5" timestamp="2011-03-28T21:15:13Z" uid="412792" user="Buft" changeset="7701730">
    <nd ref="61311752"/>
    <nd ref="61311853"/>
    <tag k="highway" v="residential"/>
    <tag k="name" v="Slovačíkova"/>
    <tag k="oneway" v="yes"/>
    <tag k="source:name" v="nameit/uir-adr"/>
  </way>
  <way id="8614213" version="4" timestamp="2010-04-25T17:51:07Z" uid="23543" user="jkjk" changeset="4524335">
    <nd ref="61311746"/>
    <nd ref="61311873"/>
    <nd ref="171292543"/>
    <nd ref="61311877"/>
    <nd ref="61311884"/>
    <nd ref="706477683"/>
    <nd ref="61311888"/>
    <nd ref="61311893"/>
    <tag k="highway" v="residential"/>
    <tag k="name" v="Vrchlabská"/>
  </way>
  <way id="8614213" version="5" timestamp="2010-10-05T22:46:46Z" uid="23543" user="jkjk" changeset="5965568">
    <nd ref="61311746"/>
    <nd ref="61311873"/>
    <nd ref="171292543"/>
    <nd ref="61311877"/>
    <nd ref="61311884"/>
    <nd ref="706477683"/>
    <nd ref="61311888"/>
    <nd ref="938889394"/>
    <nd ref="938889530"/>
    <nd ref="61311893"/>
    <tag k="highway" v="residential"/>
    <tag k="name" v="Vrchlabská"/>
  </way>
  <way id="8614213" version="6" timestamp="2011-03-16T20:37:26Z" uid="412792" user="Buft" changeset="7579458">
    <nd ref="61311746"/>
    <nd ref="61311873"/>
    <nd ref="171292543"/>
    <nd ref="61311877"/>
    <nd ref="61311884"/>
    <nd ref="706477683"/>
    <nd ref="1204747273"/>
    <nd ref="61311888"/>
    <nd ref="938889394"/>
    <nd ref="938889530"/>
    <nd ref="61311893"/>
    <tag k="highway" v="residential"/>
    <tag k="name" v="Vrchlabská"/>
  </way>
  <way id="8614213" version="7" timestamp="2011-05-16T22:15:24Z" uid="412792" user="Buft" changeset="8167248">
    <nd ref="61311746"/>
    <nd ref="61311873"/>
    <nd ref="171292543"/>
    <nd ref="61311877"/>
    <nd ref="61311884"/>
    <nd ref="706477683"/>
    <nd ref="1204747273"/>
    <nd ref="61311888"/>
    <nd ref="938889394"/>
    <nd ref="938889530"/>
    <nd ref="1288299960"/>
    <nd ref="61311893"/>
    <tag k="highway" v="residential"/>
    <tag k="name" v="Vrchlabská"/>
  </way>
  <way id="8614213" version="8" timestamp="2011-11-26T13:31:00Z" uid="527259" user="Vratislav Filler" changeset="9955602">
    <nd ref="61311746"/>
    <nd ref="61311873"/>
    <tag k="highway" v="tertiary"/>
    <tag k="name" v="Vrchlabská"/>
  </way>
  <way id="8614214" version="3" timestamp="2008-09-05T10:55:29Z" uid="1066" user="pavel" changeset="539695">
    <nd ref="59979797"/>
    <nd ref="61311898"/>
    <nd ref="61311904"/>
    <nd ref="61311893"/>
    <tag k="highway" v="residential"/>
    <tag k="name" v="Železnobrodská"/>
    <tag k="name:source" v="nameit/uir-adr"/>
  </way>
  <way id="8614214" version="4" timestamp="2009-03-14T13:16:37Z" uid="3516" user="BiIbo" changeset="804731">
    <nd ref="59979797"/>
    <nd ref="61311898"/>
    <nd ref="61311904"/>
    <nd ref="61311893"/>
    <tag k="highway" v="residential"/>
    <tag k="name" v="Železnobrodská"/>
    <tag k="source:name" v="nameit/uir-adr"/>
  </way>
  <way id="8614214" version="5" timestamp="2011-09-07T20:11:10Z" uid="17615" user="Petr Dlouhý" changeset="9240360">
    <nd ref="59979797"/>
    <nd ref="61311898"/>
    <nd ref="61311904"/>
    <nd ref="1426473777"/>
    <nd ref="61311893"/>
    <tag k="highway" v="residential"/>
    <tag k="name" v="Železnobrodská"/>
    <tag k="source:name" v="nameit/uir-adr"/>
  </way>
  <way id="8614214" version="6" timestamp="2011-09-07T20:51:58Z" uid="17615" user="Petr Dlouhý" changeset="9240747">
    <nd ref="59979797"/>
    <nd ref="1426505309"/>
    <nd ref="61311898"/>
    <nd ref="61311904"/>
    <nd ref="1426473777"/>
    <nd ref="61311893"/>
    <tag k="highway" v="residential"/>
    <tag k="name" v="Železnobrodská"/>
    <tag k="source:name" v="nameit/uir-adr"/>
  </way>
  <way id="8614215" version="3" timestamp="2008-09-05T10:54:53Z" uid="1066" user="pavel" changeset="539695">
    <nd ref="61311893"/>
    <nd ref="61311906"/>
    <nd ref="61311910"/>
    <tag k="created_by" v="Potlatch 0.5d"/>
    <tag k="highway" v="residential"/>
    <tag k="name" v="Železnobrodská"/>
    <tag k="name:source" v="nameit/uir-adr"/>
  </way>
  <way id="8614215" version="4" timestamp="2009-03-14T13:16:38Z" uid="3516" user="BiIbo" changeset="804731">
    <nd ref="61311893"/>
    <nd ref="61311906"/>
    <nd ref="61311910"/>
    <tag k="highway" v="residential"/>
    <tag k="name" v="Železnobrodská"/>
    <tag k="source:name" v="nameit/uir-adr"/>
  </way>
  <way id="8614215" version="5" timestamp="2011-05-01T20:54:27Z" uid="23543" user="jkjk" changeset="8026048">
    <nd ref="61311893"/>
    <nd ref="61311906"/>
    <nd ref="61311910"/>
    <nd ref="61311915"/>
    <tag k="highway" v="residential"/>
    <tag k="name" v="Železnobrodská"/>
    <tag k="source:name" v="nameit/uir-adr"/>
  </way>
  <way id="8614215" version="6" timestamp="2011-09-07T20:11:10Z" uid="17615" user="Petr Dlouhý" changeset="9240360">
    <nd ref="61311893"/>
    <nd ref="61311906"/>
    <nd ref="61311910"/>
    <tag k="cycleway:right" v="shared_lane"/>
    <tag k="highway" v="residential"/>
    <tag k="name" v="Železnobrodská"/>
    <tag k="source:name" v="nameit/uir-adr"/>
  </way>
  <way id="8614215" version="7" timestamp="2011-11-26T13:31:03Z" uid="527259" user="Vratislav Filler" changeset="9955602">
    <nd ref="61311893"/>
    <nd ref="61311906"/>
    <nd ref="61311910"/>
    <tag k="cycleway:right" v="shared_lane"/>
    <tag k="highway" v="tertiary"/>
    <tag k="name" v="Železnobrodská"/>
    <tag k="source:name" v="nameit/uir-adr"/>
  </way>
  <way id="8614216" version="3" timestamp="2008-09-05T10:54:14Z" uid="1066" user="pavel" changeset="539695">
    <nd ref="61311935"/>
    <nd ref="61311939"/>
    <nd ref="61311944"/>
    <nd ref="61311946"/>
    <nd ref="61311950"/>
    <nd ref="61311956"/>
    <nd ref="61311960"/>
    <nd ref="61285003"/>
    <tag k="highway" v="residential"/>
    <tag k="name" v="Svijanská"/>
    <tag k="name:source" v="nameit/uir-adr"/>
  </way>
  <way id="8614216" version="4" timestamp="2009-03-14T13:16:32Z" uid="3516" user="BiIbo" changeset="804731">
    <nd ref="61311935"/>
    <nd ref="61311939"/>
    <nd ref="61311944"/>
    <nd ref="61311946"/>
    <nd ref="61311950"/>
    <nd ref="61311956"/>
    <nd ref="61311960"/>
    <nd ref="61285003"/>
    <tag k="highway" v="residential"/>
    <tag k="name" v="Svijanská"/>
    <tag k="source:name" v="nameit/uir-adr"/>
  </way>
  <way id="8614216" version="5" timestamp="2009-04-05T15:16:40Z" uid="17615" user="Petr Dlouhý" changeset="211600">
    <nd ref="61311935"/>
    <nd ref="61311939"/>
    <tag k="highway" v="residential"/>
    <tag k="name" v="Svijanská"/>
    <tag k="source:name" v="nameit/uir-adr"/>
  </way>
  <way id="8614217" version="6" timestamp="2008-09-05T10:53:33Z" uid="1066" user="pavel" changeset="539695">
    <nd ref="61285130"/>
    <nd ref="240783202"/>
    <nd ref="240781783"/>
    <nd ref="61311935"/>
    <nd ref="240781784"/>
    <tag k="created_by" v="Potlatch 0.6c"/>
    <tag k="highway" v="residential"/>
    <tag k="name" v="Dalešická"/>
    <tag k="name:source" v="nameit/uir-adr"/>
  </way>
  <way id="8614217" version="7" timestamp="2009-03-14T13:16:33Z" uid="3516" user="BiIbo" changeset="804731">
    <nd ref="61285130"/>
    <nd ref="240783202"/>
    <nd ref="240781783"/>
    <nd ref="61311935"/>
    <nd ref="240781784"/>
    <tag k="highway" v="residential"/>
    <tag k="name" v="Dalešická"/>
    <tag k="source:name" v="nameit/uir-adr"/>
  </way>
  <way id="8614218" version="3" timestamp="2007-12-25T22:35:43Z" uid="1066" user="pavel" changeset="421816">
    <nd ref="61311939"/>
    <nd ref="61285087"/>
    <tag k="created_by" v="JOSM"/>
    <tag k="highway" v="residential"/>
  </way>
  <way id="8614218" version="4" timestamp="2008-01-20T17:02:15Z" uid="17606" user="Martin Vidner" changeset="674140">
    <nd ref="61285087"/>
    <nd ref="61311939"/>
    <tag k="created_by" v="Potlatch 0.6c"/>
    <tag k="highway" v="residential"/>
    <tag k="ncn_ref" v="A44"/>
    <tag k="oneway" v="yes"/>
  </way>
  <way id="8614218" version="5" timestamp="2008-09-05T10:55:24Z" uid="1066" user="pavel" changeset="539695">
    <nd ref="61285087"/>
    <nd ref="61311939"/>
    <tag k="created_by" v="Potlatch 0.6c"/>
    <tag k="highway" v="residential"/>
    <tag k="name" v="Olešnická"/>
    <tag k="name:source" v="nameit/uir-adr"/>
    <tag k="ncn_ref" v="A44"/>
    <tag k="oneway" v="yes"/>
  </way>
  <way id="8614218" version="6" timestamp="2009-03-14T13:16:32Z" uid="3516" user="BiIbo" changeset="804731">
    <nd ref="61285087"/>
    <nd ref="61311939"/>
    <tag k="highway" v="residential"/>
    <tag k="name" v="Olešnická"/>
    <tag k="ncn_ref" v="A44"/>
    <tag k="oneway" v="yes"/>
    <tag k="source:name" v="nameit/uir-adr"/>
  </way>
  <way id="8614218" version="7" timestamp="2009-04-05T15:16:39Z" uid="17615" user="Petr Dlouhý" changeset="211600">
    <nd ref="61285087"/>
    <nd ref="61311939"/>
    <tag k="highway" v="residential"/>
    <tag k="name" v="Olešnická"/>
    <tag k="oneway" v="yes"/>
    <tag k="source:name" v="nameit/uir-adr"/>
  </way>
  <way id="8614218" version="8" timestamp="2011-03-16T20:37:20Z" uid="412792" user="Buft" changeset="7579458">
    <nd ref="61285087"/>
    <nd ref="61311939"/>
    <tag k="highway" v="living_street"/>
    <tag k="name" v="Olešnická"/>
    <tag k="oneway" v="yes"/>
    <tag k="source:name" v="nameit/uir-adr"/>
    <tag k="surface" v="asphalt"/>
    <tag k="width" v="5"/>
  </way>
  <way id="8614219" version="3" timestamp="2008-09-05T10:54:29Z" uid="1066" user="pavel" changeset="539695">
    <nd ref="61311966"/>
    <nd ref="61311969"/>
    <nd ref="61311974"/>
    <tag k="highway" v="residential"/>
    <tag k="name" v="Hanušova"/>
    <tag k="name:source" v="nameit/uir-adr"/>
  </way>
  <way id="8614219" version="4" timestamp="2009-03-14T13:16:32Z" uid="3516" user="BiIbo" changeset="804731">
    <nd ref="61311966"/>
    <nd ref="61311969"/>
    <nd ref="61311974"/>
    <tag k="highway" v="residential"/>
    <tag k="name" v="Hanušova"/>
    <tag k="source:name" v="nameit/uir-adr"/>
  </way>
  <way id="8614219" version="5" timestamp="2011-03-17T21:53:15Z" uid="412792" user="Buft" changeset="7590431">
    <nd ref="61311974"/>
    <nd ref="61311969"/>
    <nd ref="61311966"/>
    <tag k="highway" v="residential"/>
    <tag k="name" v="Hanušova"/>
    <tag k="oneway" v="yes"/>
    <tag k="source:name" v="nameit/uir-adr"/>
  </way>
  <way id="8614221" version="3" timestamp="2008-09-05T10:53:42Z" uid="1066" user="pavel" changeset="539695">
    <nd ref="61311966"/>
    <nd ref="61311946"/>
    <tag k="highway" v="residential"/>
    <tag k="name" v="Benecká"/>
    <tag k="name:source" v="nameit/uir-adr"/>
  </way>
  <way id="8614221" version="4" timestamp="2009-03-14T13:16:34Z" uid="3516" user="BiIbo" changeset="804731">
    <nd ref="61311966"/>
    <nd ref="61311946"/>
    <tag k="highway" v="residential"/>
    <tag k="name" v="Benecká"/>
    <tag k="source:name" v="nameit/uir-adr"/>
  </way>
  <way id="8614221" version="5" timestamp="2009-09-23T12:20:38Z" uid="17615" user="Petr Dlouhý" changeset="2594870">
    <nd ref="61311946"/>
    <nd ref="61311966"/>
    <tag k="highway" v="residential"/>
    <tag k="name" v="Benecká"/>
    <tag k="source:name" v="nameit/uir-adr"/>
  </way>
  <way id="8614221" version="6" timestamp="2011-03-16T20:37:21Z" uid="412792" user="Buft" changeset="7579458">
    <nd ref="61311946"/>
    <nd ref="61311966"/>
    <tag k="highway" v="living_street"/>
    <tag k="name" v="Benecká"/>
    <tag k="source:name" v="nameit/uir-adr"/>
    <tag k="surface" v="asphalt"/>
    <tag k="width" v="5"/>
  </way>
  <way id="8614221" version="7" timestamp="2011-03-17T21:53:13Z" uid="412792" user="Buft" changeset="7590431">
    <nd ref="61311946"/>
    <nd ref="61311966"/>
    <tag k="highway" v="living_street"/>
    <tag k="name" v="Benecká"/>
    <tag k="oneway" v="yes"/>
    <tag k="source:name" v="nameit/uir-adr"/>
    <tag k="surface" v="asphalt"/>
    <tag k="width" v="5"/>
  </way>
  <way id="8614222" version="3" timestamp="2008-09-05T10:55:26Z" uid="1066" user="pavel" changeset="539695">
    <nd ref="171601813"/>
    <nd ref="61311956"/>
    <nd ref="61311974"/>
    <tag k="created_by" v="Potlatch 0.5d"/>
    <tag k="highway" v="residential"/>
    <tag k="name" v="Divišova"/>
    <tag k="name:source" v="nameit/uir-adr"/>
  </way>
  <way id="8614222" version="4" timestamp="2009-03-14T13:16:34Z" uid="3516" user="BiIbo" changeset="804731">
    <nd ref="171601813"/>
    <nd ref="61311956"/>
    <nd ref="61311974"/>
    <tag k="highway" v="residential"/>
    <tag k="name" v="Divišova"/>
    <tag k="source:name" v="nameit/uir-adr"/>
  </way>
  <way id="8614222" version="5" timestamp="2011-03-16T20:37:24Z" uid="412792" user="Buft" changeset="7579458">
    <nd ref="171601813"/>
    <nd ref="61311956"/>
    <nd ref="61311974"/>
    <tag k="highway" v="living_street"/>
    <tag k="name" v="Divišova"/>
    <tag k="source:name" v="nameit/uir-adr"/>
    <tag k="surface" v="asphalt"/>
    <tag k="width" v="5"/>
  </way>
  <way id="8614222" version="6" timestamp="2011-03-19T21:33:49Z" uid="412792" user="Buft" changeset="7610522">
    <nd ref="61311956"/>
    <nd ref="171601813"/>
    <tag k="highway" v="living_street"/>
    <tag k="name" v="Divišova"/>
    <tag k="oneway" v="yes"/>
    <tag k="source:name" v="nameit/uir-adr"/>
    <tag k="surface" v="asphalt"/>
    <tag k="width" v="5"/>
  </way>
  <way id="8614224" version="3" timestamp="2010-10-05T22:46:47Z" uid="23543" user="jkjk" changeset="5965568">
    <nd ref="61311983"/>
    <nd ref="171303926"/>
    <tag k="highway" v="residential"/>
    <tag k="name" v="Albrechtická"/>
  </way>
  <way id="8614226" version="3" timestamp="2008-09-05T10:55:29Z" uid="1066" user="pavel" changeset="539695">
    <nd ref="61311960"/>
    <nd ref="61311988"/>
    <nd ref="61311983"/>
    <tag k="created_by" v="Potlatch 0.5d"/>
    <tag k="highway" v="residential"/>
    <tag k="name" v="Pelnářova"/>
    <tag k="name:source" v="nameit/uir-adr"/>
    <tag k="oneway" v="true"/>
  </way>
  <way id="8614226" version="4" timestamp="2009-03-14T13:16:30Z" uid="3516" user="BiIbo" changeset="804731">
    <nd ref="61311960"/>
    <nd ref="61311988"/>
    <nd ref="61311983"/>
    <tag k="highway" v="residential"/>
    <tag k="name" v="Pelnářova"/>
    <tag k="oneway" v="yes"/>
    <tag k="source:name" v="nameit/uir-adr"/>
  </way>
  <way id="8614226" version="5" timestamp="2010-04-25T17:51:06Z" uid="23543" user="jkjk" changeset="4524335">
    <nd ref="61311960"/>
    <nd ref="61311988"/>
    <nd ref="61311983"/>
    <nd ref="706477690"/>
    <tag k="highway" v="residential"/>
    <tag k="name" v="Pelnářova"/>
    <tag k="oneway" v="yes"/>
    <tag k="source:name" v="nameit/uir-adr"/>
  </way>
  <way id="8614226" version="6" timestamp="2010-10-05T22:46:48Z" uid="23543" user="jkjk" changeset="5965568">
    <nd ref="61311960"/>
    <nd ref="61311988"/>
    <nd ref="61311983"/>
    <nd ref="938889403"/>
    <nd ref="706477690"/>
    <tag k="highway" v="residential"/>
    <tag k="name" v="Pelnářova"/>
    <tag k="oneway" v="yes"/>
  </way>
  <way id="8614227" version="4" timestamp="2010-07-07T09:01:40Z" uid="74617" user="JohnSmith" changeset="5156250">
    <nd ref="61312795"/>
    <nd ref="61312796"/>
    <nd ref="61312798"/>
    <nd ref="61312799"/>
    <nd ref="61312801"/>
    <nd ref="208961209"/>
    <tag k="highway" v="residential"/>
    <tag k="maxspeed" v="50"/>
    <tag k="maxspeed:source" v="default residential speed limit in Australia"/>
    <tag k="name" v="Cowcher Place"/>
  </way>
  <way id="8614227" version="5" timestamp="2012-01-15T07:47:30Z" uid="147510" user="woodpeck_fixbot" changeset="10394821">
    <nd ref="61312795"/>
    <nd ref="61312796"/>
    <nd ref="61312798"/>
    <nd ref="61312799"/>
    <nd ref="61312801"/>
    <nd ref="208961209"/>
    <tag k="highway" v="residential"/>
    <tag k="name" v="Cowcher Place"/>
  </way>
  <way id="8614229" version="5" timestamp="2010-07-07T09:03:17Z" uid="74617" user="JohnSmith" changeset="5156250">
    <nd ref="61313638"/>
    <nd ref="61313639"/>
    <nd ref="61313653"/>
    <tag k="highway" v="residential"/>
    <tag k="maxspeed" v="50"/>
    <tag k="maxspeed:source" v="default residential speed limit in Australia"/>
    <tag k="name" v="Logue Place"/>
  </way>
  <way id="8614229" version="6" timestamp="2012-01-15T07:47:31Z" uid="147510" user="woodpeck_fixbot" changeset="10394821">
    <nd ref="61313638"/>
    <nd ref="61313639"/>
    <nd ref="61313653"/>
    <tag k="highway" v="residential"/>
    <tag k="name" v="Logue Place"/>
  </way>
  <way id="8614240" version="6" timestamp="2010-07-07T09:00:29Z" uid="74617" user="JohnSmith" changeset="5156250">
    <nd ref="61316232"/>
    <nd ref="61316234"/>
    <tag k="highway" v="residential"/>
    <tag k="maxspeed" v="50"/>
    <tag k="maxspeed:source" v="default residential speed limit in Australia"/>
    <tag k="name" v="Toona Place"/>
  </way>
  <way id="8614240" version="7" timestamp="2012-01-15T07:47:32Z" uid="147510" user="woodpeck_fixbot" changeset="10394821">
    <nd ref="61316232"/>
    <nd ref="61316234"/>
    <tag k="highway" v="residential"/>
    <tag k="name" v="Toona Place"/>
  </way>
  <way id="8614241" version="7" timestamp="2010-07-07T08:59:20Z" uid="74617" user="JohnSmith" changeset="5156250">
    <nd ref="61316488"/>
    <nd ref="61316489"/>
    <nd ref="61316490"/>
    <nd ref="61316491"/>
    <tag k="highway" v="residential"/>
    <tag k="maxspeed" v="50"/>
    <tag k="maxspeed:source" v="default residential speed limit in Australia"/>
    <tag k="name" v="Melia Place"/>
  </way>
  <way id="8614241" version="8" timestamp="2012-01-15T07:47:33Z" uid="147510" user="woodpeck_fixbot" changeset="10394821">
    <nd ref="61316488"/>
    <nd ref="61316489"/>
    <nd ref="61316490"/>
    <nd ref="61316491"/>
    <tag k="highway" v="residential"/>
    <tag k="name" v="Melia Place"/>
  </way>
  <way id="8614245" version="7" timestamp="2010-07-07T08:58:08Z" uid="74617" user="JohnSmith" changeset="5156250">
    <nd ref="61316507"/>
    <nd ref="665038226"/>
    <nd ref="665038190"/>
    <nd ref="61079411"/>
    <tag k="highway" v="residential"/>
    <tag k="maxspeed" v="50"/>
    <tag k="maxspeed:source" v="default residential speed limit in Australia"/>
    <tag k="name" v="Lomatia Place"/>
  </way>
  <way id="8614245" version="8" timestamp="2012-01-15T07:47:34Z" uid="147510" user="woodpeck_fixbot" changeset="10394821">
    <nd ref="61316507"/>
    <nd ref="665038226"/>
    <nd ref="665038190"/>
    <nd ref="61079411"/>
    <tag k="highway" v="residential"/>
    <tag k="name" v="Lomatia Place"/>
  </way>
  <way id="8614246" version="9" timestamp="2010-07-07T09:03:02Z" uid="74617" user="JohnSmith" changeset="5156250">
    <nd ref="61316508"/>
    <nd ref="667503548"/>
    <nd ref="61316509"/>
    <nd ref="82881203"/>
    <nd ref="61316510"/>
    <nd ref="61316511"/>
    <tag k="highway" v="residential"/>
    <tag k="maxspeed" v="50"/>
    <tag k="maxspeed:source" v="default residential speed limit in Australia"/>
    <tag k="name" v="Burgan Place"/>
  </way>
  <way id="8614246" version="10" timestamp="2012-01-15T07:47:35Z" uid="147510" user="woodpeck_fixbot" changeset="10394821">
    <nd ref="61316508"/>
    <nd ref="667503548"/>
    <nd ref="61316509"/>
    <nd ref="82881203"/>
    <nd ref="61316510"/>
    <nd ref="61316511"/>
    <tag k="highway" v="residential"/>
    <tag k="name" v="Burgan Place"/>
  </way>
  <way id="8614248" version="5" timestamp="2010-07-07T08:58:34Z" uid="74617" user="JohnSmith" changeset="5156250">
    <nd ref="61316512"/>
    <nd ref="61316513"/>
    <nd ref="61316514"/>
    <nd ref="61316515"/>
    <tag k="highway" v="residential"/>
    <tag k="maxspeed" v="50"/>
    <tag k="maxspeed:source" v="default residential speed limit in Australia"/>
    <tag k="name" v="Titheradge Place"/>
  </way>
  <way id="8614248" version="6" timestamp="2012-01-15T07:47:36Z" uid="147510" user="woodpeck_fixbot" changeset="10394821">
    <nd ref="61316512"/>
    <nd ref="61316513"/>
    <nd ref="61316514"/>
    <nd ref="61316515"/>
    <tag k="highway" v="residential"/>
    <tag k="name" v="Titheradge Place"/>
  </way>
  <way id="8614250" version="5" timestamp="2010-07-07T09:02:03Z" uid="74617" user="JohnSmith" changeset="5156250">
    <nd ref="61316514"/>
    <nd ref="61316525"/>
    <nd ref="61316526"/>
    <nd ref="61316528"/>
    <tag k="highway" v="residential"/>
    <tag k="maxspeed" v="50"/>
    <tag k="maxspeed:source" v="default residential speed limit in Australia"/>
    <tag k="name" v="Titheradge Place"/>
  </way>
  <way id="8614250" version="6" timestamp="2012-01-15T07:47:37Z" uid="147510" user="woodpeck_fixbot" changeset="10394821">
    <nd ref="61316514"/>
    <nd ref="61316525"/>
    <nd ref="61316526"/>
    <nd ref="61316528"/>
    <tag k="highway" v="residential"/>
    <tag k="name" v="Titheradge Place"/>
  </way>
  <way id="8614269" version="6" timestamp="2010-07-07T09:00:11Z" uid="74617" user="JohnSmith" changeset="5156250">
    <nd ref="61316753"/>
    <nd ref="61316754"/>
    <tag k="highway" v="residential"/>
    <tag k="maxspeed" v="50"/>
    <tag k="maxspeed:source" v="default residential speed limit in Australia"/>
    <tag k="name" v="Niblo Place"/>
  </way>
  <way id="8614269" version="7" timestamp="2012-01-15T07:47:38Z" uid="147510" user="woodpeck_fixbot" changeset="10394821">
    <nd ref="61316753"/>
    <nd ref="61316754"/>
    <tag k="highway" v="residential"/>
    <tag k="name" v="Niblo Place"/>
  </way>
  <way id="8614276" version="2" timestamp="2008-08-12T08:36:37Z" uid="6269" user="Mueck" changeset="200178">
    <nd ref="61316756"/>
    <nd ref="61316757"/>
    <nd ref="61316758"/>
    <nd ref="61316759"/>
    <nd ref="61316760"/>
    <nd ref="61316761"/>
    <nd ref="61316762"/>
    <nd ref="61316763"/>
    <nd ref="61316764"/>
    <nd ref="61316756"/>
    <tag k="created_by" v="Potlatch 0.10b"/>
    <tag k="highway" v="secondary"/>
  </way>
  <way id="8614276" version="3" timestamp="2009-05-24T12:11:24Z" uid="122595" user="Ampelmann" changeset="1304854">
    <nd ref="61316756"/>
    <nd ref="61316757"/>
    <nd ref="61316758"/>
    <nd ref="61316759"/>
    <nd ref="61316760"/>
    <nd ref="61316761"/>
    <nd ref="61316762"/>
    <nd ref="61316763"/>
    <nd ref="61316764"/>
    <nd ref="61316756"/>
    <tag k="created_by" v="Potlatch 0.10b"/>
    <tag k="highway" v="tertiary"/>
  </way>
  <way id="8614276" version="4" timestamp="2009-09-06T13:55:01Z" uid="122595" user="Ampelmann" changeset="2391364">
    <nd ref="61316756"/>
    <nd ref="61316757"/>
    <nd ref="61316758"/>
    <nd ref="61316759"/>
    <nd ref="61316760"/>
    <nd ref="61316761"/>
    <nd ref="61316762"/>
    <nd ref="61316763"/>
    <nd ref="61316764"/>
    <nd ref="61316756"/>
    <tag k="highway" v="tertiary"/>
    <tag k="junction" v="roundabout"/>
    <tag k="lanes" v="1"/>
  </way>
  <way id="8614276" version="5" timestamp="2009-10-02T20:05:49Z" uid="36569" user="Snoopy88" changeset="2717060">
    <nd ref="61316756"/>
    <nd ref="518063161"/>
    <nd ref="61316757"/>
    <nd ref="518063163"/>
    <nd ref="61316758"/>
    <nd ref="518063165"/>
    <nd ref="61316759"/>
    <nd ref="518063167"/>
    <nd ref="518063178"/>
    <nd ref="61316760"/>
    <nd ref="518063169"/>
    <nd ref="61316761"/>
    <nd ref="518063171"/>
    <nd ref="518063173"/>
    <nd ref="61316762"/>
    <nd ref="518063175"/>
    <nd ref="61316763"/>
    <nd ref="518063156"/>
    <nd ref="61316764"/>
    <nd ref="518063160"/>
    <nd ref="61316756"/>
    <tag k="highway" v="tertiary"/>
    <tag k="junction" v="roundabout"/>
    <tag k="lanes" v="1"/>
  </way>
  <way id="8614276" version="6" timestamp="2010-07-20T21:14:39Z" uid="118352" user="kamarc" changeset="5274421">
    <nd ref="61316756"/>
    <nd ref="518063161"/>
    <nd ref="61316757"/>
    <nd ref="518063163"/>
    <nd ref="61316758"/>
    <nd ref="826794217"/>
    <nd ref="518063165"/>
    <nd ref="61316759"/>
    <nd ref="518063167"/>
    <nd ref="518063178"/>
    <nd ref="61316760"/>
    <nd ref="518063169"/>
    <nd ref="61316761"/>
    <nd ref="518063171"/>
    <nd ref="518063173"/>
    <nd ref="61316762"/>
    <nd ref="518063175"/>
    <nd ref="61316763"/>
    <nd ref="518063156"/>
    <nd ref="61316764"/>
    <nd ref="518063160"/>
    <nd ref="61316756"/>
    <tag k="highway" v="tertiary"/>
    <tag k="junction" v="roundabout"/>
    <tag k="lanes" v="1"/>
  </way>
  <way id="8614287" version="2" timestamp="2008-08-12T08:36:54Z" uid="6269" user="Mueck" changeset="200178">
    <nd ref="61316760"/>
    <nd ref="61316765"/>
    <nd ref="61316772"/>
    <nd ref="61316774"/>
    <nd ref="61316775"/>
    <nd ref="61316776"/>
    <nd ref="61316777"/>
    <nd ref="61316778"/>
    <nd ref="61316779"/>
    <nd ref="61316780"/>
    <nd ref="61316781"/>
    <nd ref="61316782"/>
    <nd ref="61316783"/>
    <nd ref="61316784"/>
    <tag k="created_by" v="Potlatch 0.10b"/>
    <tag k="highway" v="secondary"/>
  </way>
  <way id="8614287" version="3" timestamp="2008-09-17T06:43:01Z" uid="48546" user="thogan" changeset="656257">
    <nd ref="61316760"/>
    <nd ref="61316765"/>
    <nd ref="61316772"/>
    <nd ref="61316774"/>
    <nd ref="61316775"/>
    <nd ref="61316776"/>
    <nd ref="61316777"/>
    <nd ref="61316778"/>
    <nd ref="61316779"/>
    <nd ref="61316780"/>
    <nd ref="61316781"/>
    <nd ref="61316782"/>
    <nd ref="61316783"/>
    <nd ref="297639947"/>
    <nd ref="61316784"/>
    <tag k="created_by" v="Potlatch 0.10b"/>
    <tag k="highway" v="secondary"/>
  </way>
  <way id="8614287" version="4" timestamp="2008-12-31T10:43:06Z" uid="41808" user="Gukumatz" changeset="690783">
    <nd ref="61316760"/>
    <nd ref="61316765"/>
    <nd ref="61316772"/>
    <nd ref="61316774"/>
    <nd ref="61316775"/>
    <nd ref="323727006"/>
    <nd ref="61316776"/>
    <nd ref="61316777"/>
    <nd ref="61316778"/>
    <nd ref="61316779"/>
    <nd ref="61316780"/>
    <nd ref="61316781"/>
    <nd ref="61316782"/>
    <nd ref="61316783"/>
    <nd ref="297639947"/>
    <nd ref="61316784"/>
    <tag k="created_by" v="Potlatch 0.10b"/>
    <tag k="highway" v="secondary"/>
  </way>
  <way id="8614287" version="5" timestamp="2008-12-31T11:12:03Z" uid="41808" user="Gukumatz" changeset="690783">
    <nd ref="61316760"/>
    <nd ref="61316765"/>
    <nd ref="61316772"/>
    <nd ref="61316774"/>
    <nd ref="61316775"/>
    <nd ref="323727006"/>
    <nd ref="61316776"/>
    <nd ref="61316777"/>
    <nd ref="61316778"/>
    <nd ref="61316779"/>
    <nd ref="61316780"/>
    <nd ref="61316781"/>
    <nd ref="61316782"/>
    <nd ref="61316783"/>
    <nd ref="297639947"/>
    <nd ref="61316784"/>
    <tag k="created_by" v="JOSM"/>
    <tag k="highway" v="tertiary"/>
    <tag k="ref" v="K 3737"/>
  </way>
  <way id="8614287" version="6" timestamp="2009-01-01T12:11:14Z" uid="41808" user="Gukumatz" changeset="695816">
    <nd ref="61316760"/>
    <nd ref="61316765"/>
    <nd ref="61316772"/>
    <nd ref="61316774"/>
    <nd ref="61316775"/>
    <nd ref="323727006"/>
    <nd ref="61316776"/>
    <nd ref="61316777"/>
    <nd ref="61316778"/>
    <nd ref="61316779"/>
    <nd ref="61316780"/>
    <nd ref="61316781"/>
    <nd ref="61316782"/>
    <nd ref="61316783"/>
    <nd ref="297639947"/>
    <nd ref="61316784"/>
    <tag k="created_by" v="JOSM"/>
    <tag k="highway" v="secondary"/>
    <tag k="ref" v="K 3737"/>
  </way>
  <way id="8614287" version="7" timestamp="2009-05-24T12:11:24Z" uid="122595" user="Ampelmann" changeset="1304854">
    <nd ref="61316760"/>
    <nd ref="61316765"/>
    <nd ref="61316772"/>
    <nd ref="61316774"/>
    <nd ref="61316775"/>
    <nd ref="323727006"/>
    <nd ref="61316776"/>
    <nd ref="61316777"/>
    <nd ref="61316778"/>
    <nd ref="61316779"/>
    <nd ref="61316780"/>
    <nd ref="61316781"/>
    <nd ref="61316782"/>
    <nd ref="61316783"/>
    <nd ref="297639947"/>
    <nd ref="61316784"/>
    <tag k="created_by" v="JOSM"/>
    <tag k="highway" v="tertiary"/>
    <tag k="ref" v="K 3737"/>
  </way>
  <way id="8614287" version="8" timestamp="2009-07-12T17:49:47Z" uid="39233" user="Martin-D" changeset="1809832">
    <nd ref="61316760"/>
    <nd ref="61316765"/>
    <nd ref="61316772"/>
    <nd ref="61316774"/>
    <nd ref="61316775"/>
    <nd ref="323727006"/>
    <nd ref="61316776"/>
    <nd ref="61316777"/>
    <nd ref="440859145"/>
    <nd ref="61316778"/>
    <nd ref="440859075"/>
    <nd ref="61316779"/>
    <nd ref="61316780"/>
    <nd ref="61316781"/>
    <nd ref="61316782"/>
    <nd ref="61316783"/>
    <nd ref="297639947"/>
    <nd ref="61316784"/>
    <tag k="highway" v="tertiary"/>
    <tag k="ref" v="K 3737"/>
  </way>
  <way id="8614287" version="9" timestamp="2009-07-12T18:35:30Z" uid="39233" user="Martin-D" changeset="1810395">
    <nd ref="61316760"/>
    <nd ref="61316765"/>
    <nd ref="61316772"/>
    <nd ref="61316774"/>
    <nd ref="61316775"/>
    <nd ref="323727006"/>
    <nd ref="61316776"/>
    <nd ref="61316777"/>
    <nd ref="440859145"/>
    <nd ref="61316778"/>
    <nd ref="440859075"/>
    <nd ref="61316779"/>
    <nd ref="61316780"/>
    <nd ref="61316781"/>
    <nd ref="297639947"/>
    <nd ref="61316784"/>
    <tag k="highway" v="tertiary"/>
    <tag k="ref" v="K 3737"/>
  </way>
  <way id="8614288" version="2" timestamp="2008-08-15T07:22:40Z" uid="6269" user="Mueck" changeset="264650">
    <nd ref="61316765"/>
    <nd ref="61316761"/>
    <tag k="created_by" v="Potlatch 0.10b"/>
    <tag k="highway" v="secondary"/>
  </way>
  <way id="8614288" version="3" timestamp="2009-05-24T12:11:23Z" uid="122595" user="Ampelmann" changeset="1304854">
    <nd ref="61316765"/>
    <nd ref="61316761"/>
    <tag k="created_by" v="Potlatch 0.10b"/>
    <tag k="highway" v="tertiary"/>
  </way>
  <way id="8614289" version="2" timestamp="2008-08-15T07:22:35Z" uid="6269" user="Mueck" changeset="264650">
    <nd ref="61316773"/>
    <nd ref="61316756"/>
    <tag k="created_by" v="Potlatch 0.10b"/>
    <tag k="highway" v="secondary"/>
  </way>
  <way id="8614289" version="3" timestamp="2009-05-24T12:11:23Z" uid="122595" user="Ampelmann" changeset="1304854">
    <nd ref="61316773"/>
    <nd ref="61316756"/>
    <tag k="created_by" v="Potlatch 0.10b"/>
    <tag k="highway" v="tertiary"/>
  </way>
  <way id="8614289" version="4" timestamp="2009-09-06T13:55:01Z" uid="122595" user="Ampelmann" changeset="2391364">
    <nd ref="61316773"/>
    <nd ref="61316756"/>
    <tag k="highway" v="tertiary"/>
    <tag k="ref" v="K 3737"/>
  </way>
  <way id="8614290" version="7" timestamp="2008-08-12T08:36:27Z" uid="6269" user="Mueck" changeset="200178">
    <nd ref="61316764"/>
    <nd ref="61316773"/>
    <nd ref="61316771"/>
    <nd ref="61316785"/>
    <nd ref="61316786"/>
    <nd ref="61316787"/>
    <nd ref="61316788"/>
    <nd ref="33546796"/>
    <nd ref="33508183"/>
    <nd ref="33546795"/>
    <nd ref="61316789"/>
    <nd ref="61316793"/>
    <nd ref="61316796"/>
    <nd ref="61316798"/>
    <nd ref="61316805"/>
    <tag k="created_by" v="Potlatch 0.10b"/>
    <tag k="highway" v="secondary"/>
  </way>
  <way id="8614290" version="8" timestamp="2008-12-31T11:12:02Z" uid="41808" user="Gukumatz" changeset="690783">
    <nd ref="61316764"/>
    <nd ref="61316773"/>
    <nd ref="61316771"/>
    <nd ref="61316785"/>
    <nd ref="61316786"/>
    <nd ref="61316787"/>
    <nd ref="61316788"/>
    <nd ref="33546796"/>
    <nd ref="33508183"/>
    <nd ref="33546795"/>
    <nd ref="61316789"/>
    <nd ref="61316793"/>
    <nd ref="61316796"/>
    <nd ref="61316798"/>
    <nd ref="61316805"/>
    <tag k="created_by" v="Potlatch 0.10b"/>
    <tag k="highway" v="tertiary"/>
    <tag k="ref" v="K 3737"/>
  </way>
  <way id="8614290" version="9" timestamp="2009-01-01T12:11:14Z" uid="41808" user="Gukumatz" changeset="695816">
    <nd ref="61316764"/>
    <nd ref="61316773"/>
    <nd ref="61316771"/>
    <nd ref="61316785"/>
    <nd ref="61316786"/>
    <nd ref="61316787"/>
    <nd ref="61316788"/>
    <nd ref="33546796"/>
    <nd ref="33508183"/>
    <nd ref="33546795"/>
    <nd ref="61316789"/>
    <nd ref="61316793"/>
    <nd ref="61316796"/>
    <nd ref="61316798"/>
    <nd ref="61316805"/>
    <tag k="created_by" v="Potlatch 0.10b"/>
    <tag k="highway" v="secondary"/>
    <tag k="ref" v="K 3737"/>
  </way>
  <way id="8614290" version="10" timestamp="2009-05-24T12:11:23Z" uid="122595" user="Ampelmann" changeset="1304854">
    <nd ref="61316764"/>
    <nd ref="61316773"/>
    <nd ref="61316771"/>
    <nd ref="61316785"/>
    <nd ref="61316786"/>
    <nd ref="61316787"/>
    <nd ref="61316788"/>
    <nd ref="33546796"/>
    <nd ref="33508183"/>
    <nd ref="33546795"/>
    <nd ref="61316789"/>
    <nd ref="61316793"/>
    <nd ref="61316796"/>
    <nd ref="61316798"/>
    <nd ref="61316805"/>
    <tag k="created_by" v="Potlatch 0.10b"/>
    <tag k="highway" v="tertiary"/>
    <tag k="ref" v="K 3737"/>
  </way>
  <way id="8614290" version="11" timestamp="2009-09-16T16:06:01Z" uid="135254" user="Tobi-rr" changeset="2503809">
    <nd ref="61316764"/>
    <nd ref="61316773"/>
    <nd ref="61316771"/>
    <nd ref="61316785"/>
    <nd ref="61316786"/>
    <nd ref="61316787"/>
    <nd ref="61316788"/>
    <nd ref="33546796"/>
    <nd ref="33508183"/>
    <nd ref="33546795"/>
    <nd ref="61316789"/>
    <nd ref="61316793"/>
    <nd ref="61316796"/>
    <nd ref="61316798"/>
    <nd ref="61316805"/>
    <tag k="highway" v="tertiary"/>
    <tag k="ref" v="K 3737"/>
  </way>
  <way id="8614290" version="12" timestamp="2010-07-20T21:14:32Z" uid="118352" user="kamarc" changeset="5274421">
    <nd ref="61316764"/>
    <nd ref="61316773"/>
    <nd ref="61316771"/>
    <nd ref="61316785"/>
    <nd ref="61316786"/>
    <nd ref="61316787"/>
    <nd ref="61316788"/>
    <nd ref="33546796"/>
    <nd ref="33508183"/>
    <nd ref="33546795"/>
    <nd ref="61316789"/>
    <nd ref="61316793"/>
    <nd ref="826793763"/>
    <nd ref="61316796"/>
    <nd ref="61316798"/>
    <nd ref="61316805"/>
    <tag k="highway" v="tertiary"/>
    <tag k="ref" v="K 3737"/>
  </way>
  <way id="8614291" version="2" timestamp="2008-02-14T14:26:03Z" uid="6269" user="Mueck" changeset="120280">
    <nd ref="61316814"/>
    <nd ref="61316821"/>
    <nd ref="61316826"/>
    <nd ref="61316829"/>
    <nd ref="61316834"/>
    <nd ref="61316838"/>
    <nd ref="61316839"/>
    <nd ref="61316817"/>
    <tag k="created_by" v="Potlatch 0.7a"/>
    <tag k="highway" v="primary_link"/>
  </way>
  <way id="8614291" version="3" timestamp="2008-11-14T01:15:05Z" uid="7010" user="GarryX3D" changeset="747309">
    <nd ref="61316814"/>
    <nd ref="61316821"/>
    <nd ref="61316826"/>
    <nd ref="61316829"/>
    <nd ref="61316834"/>
    <nd ref="61316838"/>
    <nd ref="61316839"/>
    <nd ref="61316817"/>
    <tag k="created_by" v="Potlatch 0.7a"/>
    <tag k="highway" v="primary_link"/>
    <tag k="link" v="yes"/>
  </way>
  <way id="8614291" version="4" timestamp="2009-10-13T15:02:05Z" uid="163673" user="Free_Jan" changeset="2836995">
    <nd ref="529946698"/>
    <nd ref="61316821"/>
    <nd ref="61316826"/>
    <nd ref="61316829"/>
    <nd ref="61316834"/>
    <nd ref="61316838"/>
    <nd ref="61316839"/>
    <nd ref="61316817"/>
    <tag k="highway" v="primary_link"/>
    <tag k="link" v="yes"/>
  </way>
  <way id="8614291" version="5" timestamp="2010-11-10T00:09:38Z" uid="7010" user="GarryX3D" changeset="6332790">
    <nd ref="529946698"/>
    <nd ref="983878950"/>
    <nd ref="983878887"/>
    <nd ref="983878926"/>
    <nd ref="983878966"/>
    <nd ref="983878906"/>
    <nd ref="983878944"/>
    <nd ref="983878947"/>
    <tag k="highway" v="primary_link"/>
    <tag k="link" v="yes"/>
  </way>
  <way id="8614291" version="6" timestamp="2010-11-10T10:41:27Z" uid="136055" user="DrScott" changeset="6334885">
    <nd ref="529946698"/>
    <nd ref="983878950"/>
    <nd ref="983878887"/>
    <nd ref="983878926"/>
    <nd ref="983878966"/>
    <nd ref="983878906"/>
    <nd ref="983878944"/>
    <nd ref="61316817"/>
    <tag k="highway" v="primary_link"/>
    <tag k="link" v="yes"/>
  </way>
  <way id="8614293" version="7" timestamp="2010-07-07T09:00:04Z" uid="74617" user="JohnSmith" changeset="5156250">
    <nd ref="61317105"/>
    <nd ref="667500495"/>
    <nd ref="667500496"/>
    <nd ref="61317110"/>
    <nd ref="667500497"/>
    <nd ref="61317100"/>
    <nd ref="61317101"/>
    <nd ref="667500498"/>
    <nd ref="667500499"/>
    <nd ref="61317102"/>
    <nd ref="667500500"/>
    <nd ref="667500501"/>
    <nd ref="667500502"/>
    <nd ref="667500503"/>
    <nd ref="61317103"/>
    <nd ref="667500504"/>
    <nd ref="667500505"/>
    <nd ref="61317104"/>
    <nd ref="61317105"/>
    <tag k="highway" v="residential"/>
    <tag k="maxspeed" v="50"/>
    <tag k="maxspeed:source" v="default residential speed limit in Australia"/>
    <tag k="name" v="Craydon Place"/>
  </way>
  <way id="8614293" version="8" timestamp="2012-01-15T07:47:40Z" uid="147510" user="woodpeck_fixbot" changeset="10394821">
    <nd ref="61317105"/>
    <nd ref="667500495"/>
    <nd ref="667500496"/>
    <nd ref="61317110"/>
    <nd ref="667500497"/>
    <nd ref="61317100"/>
    <nd ref="61317101"/>
    <nd ref="667500498"/>
    <nd ref="667500499"/>
    <nd ref="61317102"/>
    <nd ref="667500500"/>
    <nd ref="667500501"/>
    <nd ref="667500502"/>
    <nd ref="667500503"/>
    <nd ref="61317103"/>
    <nd ref="667500504"/>
    <nd ref="667500505"/>
    <nd ref="61317104"/>
    <nd ref="61317105"/>
    <tag k="highway" v="residential"/>
    <tag k="name" v="Craydon Place"/>
  </way>
  <way id="8614296" version="20" timestamp="2009-09-30T12:59:15Z" uid="36809" user="pfoten_weg_!_" changeset="2687909">
    <nd ref="34697141"/>
    <nd ref="130156603"/>
    <nd ref="96969873"/>
    <nd ref="399233"/>
    <nd ref="34697988"/>
    <nd ref="399235"/>
    <nd ref="399237"/>
    <nd ref="142636588"/>
    <tag k="highway" v="primary"/>
    <tag k="ref" v="B 471"/>
  </way>
  <way id="8614296" version="21" timestamp="2009-10-11T16:55:21Z" uid="7596" user="ck3d" changeset="2817251">
    <nd ref="34697141"/>
    <nd ref="130156603"/>
    <nd ref="96969873"/>
    <nd ref="399233"/>
    <nd ref="34697988"/>
    <nd ref="399235"/>
    <nd ref="399237"/>
    <nd ref="142636588"/>
    <tag k="highway" v="primary"/>
    <tag k="ref" v="B 471"/>
    <tag k="zone:traffic" v="DE:rural"/>
  </way>
  <way id="8614296" version="22" timestamp="2010-01-17T21:20:23Z" uid="35560" user="HeikoE" changeset="3645853">
    <nd ref="34697141"/>
    <nd ref="130156603"/>
    <nd ref="96969873"/>
    <nd ref="399233"/>
    <nd ref="34697988"/>
    <nd ref="399235"/>
    <nd ref="399237"/>
    <nd ref="142636588"/>
    <tag k="highway" v="primary"/>
    <tag k="maxspeed" v="100"/>
    <tag k="ref" v="B 471"/>
    <tag k="zone:traffic" v="DE:rural"/>
  </way>
  <way id="8614296" version="23" timestamp="2011-02-23T20:41:26Z" uid="89943" user="Bengatzer" changeset="7376468">
    <nd ref="34697141"/>
    <nd ref="130156603"/>
    <nd ref="96969873"/>
    <nd ref="399233"/>
    <nd ref="34697988"/>
    <nd ref="399235"/>
    <nd ref="399237"/>
    <nd ref="1168830697"/>
    <tag k="highway" v="primary"/>
    <tag k="maxspeed" v="100"/>
    <tag k="ref" v="B 471"/>
    <tag k="zone:traffic" v="DE:rural"/>
  </way>
  <way id="8614296" version="24" timestamp="2011-04-19T16:55:17Z" uid="7596" user="ck3d" changeset="7908320">
    <nd ref="34697141"/>
    <nd ref="130156603"/>
    <nd ref="399233"/>
    <nd ref="1251366800"/>
    <nd ref="34697988"/>
    <nd ref="399235"/>
    <nd ref="399237"/>
    <nd ref="1168830697"/>
    <tag k="highway" v="primary"/>
    <tag k="maxspeed" v="100"/>
    <tag k="ref" v="B 471"/>
    <tag k="zone:traffic" v="DE:rural"/>
  </way>
  <way id="8614298" version="8" timestamp="2010-07-07T08:57:15Z" uid="74617" user="JohnSmith" changeset="5156250">
    <nd ref="61317132"/>
    <nd ref="667500449"/>
    <nd ref="61317153"/>
    <nd ref="667500450"/>
    <nd ref="667500451"/>
    <nd ref="61317154"/>
    <nd ref="667500452"/>
    <nd ref="667500453"/>
    <nd ref="667500454"/>
    <nd ref="61317155"/>
    <nd ref="667500455"/>
    <nd ref="61317156"/>
    <nd ref="667500456"/>
    <nd ref="667500457"/>
    <nd ref="61317131"/>
    <nd ref="667500458"/>
    <nd ref="667500459"/>
    <nd ref="667500460"/>
    <nd ref="61317132"/>
    <tag k="highway" v="residential"/>
    <tag k="maxspeed" v="50"/>
    <tag k="maxspeed:source" v="default residential speed limit in Australia"/>
    <tag k="name" v="Darrell Place"/>
  </way>
  <way id="8614298" version="9" timestamp="2012-01-15T07:47:41Z" uid="147510" user="woodpeck_fixbot" changeset="10394821">
    <nd ref="61317132"/>
    <nd ref="667500449"/>
    <nd ref="61317153"/>
    <nd ref="667500450"/>
    <nd ref="667500451"/>
    <nd ref="61317154"/>
    <nd ref="667500452"/>
    <nd ref="667500453"/>
    <nd ref="667500454"/>
    <nd ref="61317155"/>
    <nd ref="667500455"/>
    <nd ref="61317156"/>
    <nd ref="667500456"/>
    <nd ref="667500457"/>
    <nd ref="61317131"/>
    <nd ref="667500458"/>
    <nd ref="667500459"/>
    <nd ref="667500460"/>
    <nd ref="61317132"/>
    <tag k="highway" v="residential"/>
    <tag k="name" v="Darrell Place"/>
  </way>
  <way id="8614307" version="6" timestamp="2010-07-07T08:59:31Z" uid="74617" user="JohnSmith" changeset="5156250">
    <nd ref="61317157"/>
    <nd ref="61317158"/>
    <nd ref="61317159"/>
    <nd ref="61317160"/>
    <tag k="highway" v="residential"/>
    <tag k="maxspeed" v="50"/>
    <tag k="maxspeed:source" v="default residential speed limit in Australia"/>
    <tag k="name" v="Tudawalli Place"/>
  </way>
  <way id="8614307" version="7" timestamp="2012-01-15T07:47:42Z" uid="147510" user="woodpeck_fixbot" changeset="10394821">
    <nd ref="61317157"/>
    <nd ref="61317158"/>
    <nd ref="61317159"/>
    <nd ref="61317160"/>
    <tag k="highway" v="residential"/>
    <tag k="name" v="Tudawalli Place"/>
  </way>
  <way id="8614308" version="4" timestamp="2010-07-07T09:02:12Z" uid="74617" user="JohnSmith" changeset="5156250">
    <nd ref="61317162"/>
    <nd ref="61317163"/>
    <nd ref="207743483"/>
    <nd ref="207743484"/>
    <nd ref="207743474"/>
    <tag k="highway" v="residential"/>
    <tag k="maxspeed" v="50"/>
    <tag k="maxspeed:source" v="default residential speed limit in Australia"/>
    <tag k="name" v="Howarth Place"/>
  </way>
  <way id="8614308" version="5" timestamp="2012-01-15T07:47:44Z" uid="147510" user="woodpeck_fixbot" changeset="10394821">
    <nd ref="61317162"/>
    <nd ref="61317163"/>
    <nd ref="207743483"/>
    <nd ref="207743484"/>
    <nd ref="207743474"/>
    <tag k="highway" v="residential"/>
    <tag k="name" v="Howarth Place"/>
  </way>
  <way id="8614310" version="8" timestamp="2010-06-16T11:43:49Z" uid="9719" user="dvaey" changeset="4999804">
    <nd ref="207558858"/>
    <nd ref="207558860"/>
    <nd ref="686568425"/>
    <nd ref="207558861"/>
    <nd ref="61317168"/>
    <nd ref="61317169"/>
    <nd ref="61317170"/>
    <nd ref="61317171"/>
    <nd ref="773592599"/>
    <nd ref="61317172"/>
    <nd ref="61317173"/>
    <tag k="highway" v="unclassified"/>
  </way>
  <way id="8614310" version="9" timestamp="2010-06-16T11:45:00Z" uid="9719" user="dvaey" changeset="4999804">
    <nd ref="207558858"/>
    <nd ref="773593715"/>
    <nd ref="207558860"/>
    <nd ref="686568425"/>
    <nd ref="207558861"/>
    <nd ref="61317168"/>
    <nd ref="61317169"/>
    <nd ref="61317170"/>
    <nd ref="61317171"/>
    <nd ref="773592599"/>
    <nd ref="61317172"/>
    <nd ref="61317173"/>
    <tag k="highway" v="unclassified"/>
  </way>
  <way id="8614314" version="2" timestamp="2009-04-25T19:43:09Z" uid="8619" user="cetest" changeset="957313">
    <nd ref="61317196"/>
    <nd ref="61317197"/>
    <nd ref="61317198"/>
    <nd ref="384934644"/>
    <nd ref="61317199"/>
    <nd ref="61317200"/>
    <nd ref="61317201"/>
    <nd ref="61317196"/>
    <tag k="created_by" v="Potlatch alpha"/>
    <tag k="landuse" v="forest"/>
  </way>
  <way id="8614314" version="3" timestamp="2010-01-12T22:40:27Z" uid="161542" user="textlijn" changeset="3606836">
    <nd ref="61317196"/>
    <nd ref="61317197"/>
    <nd ref="61317198"/>
    <nd ref="384934644"/>
    <nd ref="61317199"/>
    <nd ref="61317200"/>
    <nd ref="61317201"/>
    <nd ref="61317196"/>
    <tag k="landuse" v="forest"/>
  </way>
  <way id="8614314" version="4" timestamp="2011-12-31T12:09:42Z" uid="476789" user="CeesW" changeset="10253960"/>
  <way id="8614338" version="6" timestamp="2010-07-07T08:58:40Z" uid="74617" user="JohnSmith" changeset="5156250">
    <nd ref="61317721"/>
    <nd ref="61317801"/>
    <nd ref="61317717"/>
    <nd ref="61317718"/>
    <nd ref="61317719"/>
    <nd ref="61317724"/>
    <tag k="highway" v="residential"/>
    <tag k="maxspeed" v="50"/>
    <tag k="maxspeed:source" v="default residential speed limit in Australia"/>
    <tag k="name" v="Yambina Crescent"/>
  </way>
  <way id="8614338" version="7" timestamp="2012-01-15T07:47:45Z" uid="147510" user="woodpeck_fixbot" changeset="10394821">
    <nd ref="61317721"/>
    <nd ref="61317801"/>
    <nd ref="61317717"/>
    <nd ref="61317718"/>
    <nd ref="61317719"/>
    <nd ref="61317724"/>
    <tag k="highway" v="residential"/>
    <tag k="name" v="Yambina Crescent"/>
  </way>
  <way id="8614339" version="4" timestamp="2010-07-07T09:03:24Z" uid="74617" user="JohnSmith" changeset="5156250">
    <nd ref="61317799"/>
    <nd ref="61317800"/>
    <nd ref="61317801"/>
    <tag k="highway" v="residential"/>
    <tag k="maxspeed" v="50"/>
    <tag k="maxspeed:source" v="default residential speed limit in Australia"/>
    <tag k="name" v="Wirangu Place"/>
  </way>
  <way id="8614339" version="5" timestamp="2012-01-15T07:47:46Z" uid="147510" user="woodpeck_fixbot" changeset="10394821">
    <nd ref="61317799"/>
    <nd ref="61317800"/>
    <nd ref="61317801"/>
    <tag k="highway" v="residential"/>
    <tag k="name" v="Wirangu Place"/>
  </way>
  <way id="8614366" version="5" timestamp="2010-07-07T08:59:44Z" uid="74617" user="JohnSmith" changeset="5156250">
    <nd ref="61318414"/>
    <nd ref="61318415"/>
    <nd ref="61318416"/>
    <tag k="highway" v="residential"/>
    <tag k="maxspeed" v="50"/>
    <tag k="maxspeed:source" v="default residential speed limit in Australia"/>
    <tag k="name" v="Teesdale Place"/>
  </way>
  <way id="8614366" version="6" timestamp="2012-01-15T07:47:47Z" uid="147510" user="woodpeck_fixbot" changeset="10394821">
    <nd ref="61318414"/>
    <nd ref="61318415"/>
    <nd ref="61318416"/>
    <tag k="highway" v="residential"/>
    <tag k="name" v="Teesdale Place"/>
  </way>
  <way id="8614371" version="4" timestamp="2010-07-07T09:02:03Z" uid="74617" user="JohnSmith" changeset="5156250">
    <nd ref="61318616"/>
    <nd ref="61318617"/>
    <nd ref="60960509"/>
    <tag k="highway" v="residential"/>
    <tag k="maxspeed" v="50"/>
    <tag k="maxspeed:source" v="default residential speed limit in Australia"/>
    <tag k="name" v="Redgrave Place"/>
  </way>
  <way id="8614371" version="5" timestamp="2012-01-15T07:47:49Z" uid="147510" user="woodpeck_fixbot" changeset="10394821">
    <nd ref="61318616"/>
    <nd ref="61318617"/>
    <nd ref="60960509"/>
    <tag k="highway" v="residential"/>
    <tag k="name" v="Redgrave Place"/>
  </way>
  <way id="8614397" version="3" timestamp="2008-08-12T09:05:50Z" uid="6269" user="Mueck" changeset="200178">
    <nd ref="29910209"/>
    <nd ref="61319857"/>
    <nd ref="61319859"/>
    <nd ref="61319860"/>
    <nd ref="61319862"/>
    <nd ref="61319864"/>
    <nd ref="61319865"/>
    <nd ref="61319867"/>
    <nd ref="61319869"/>
    <nd ref="61319870"/>
    <nd ref="61319872"/>
    <nd ref="61319874"/>
    <nd ref="61319875"/>
    <nd ref="61319877"/>
    <nd ref="61319879"/>
    <nd ref="61319881"/>
    <nd ref="61319882"/>
    <nd ref="61319884"/>
    <nd ref="61319886"/>
    <nd ref="61319887"/>
    <nd ref="61319889"/>
    <nd ref="61319891"/>
    <nd ref="61319892"/>
    <nd ref="61319894"/>
    <nd ref="61319895"/>
    <nd ref="61319897"/>
    <nd ref="61319899"/>
    <nd ref="61319900"/>
    <nd ref="61319902"/>
    <nd ref="61319904"/>
    <nd ref="61319906"/>
    <nd ref="61319907"/>
    <nd ref="61319909"/>
    <nd ref="61319911"/>
    <nd ref="61319912"/>
    <nd ref="61319914"/>
    <nd ref="61319916"/>
    <nd ref="61319917"/>
    <nd ref="61319919"/>
    <nd ref="61319921"/>
    <nd ref="61319922"/>
    <nd ref="61318790"/>
    <tag k="created_by" v="Potlatch 0.10b"/>
    <tag k="highway" v="secondary"/>
    <tag k="note" v="im SHP des NVK: II"/>
    <tag k="ref" v="L 613"/>
  </way>
  <way id="8614397" version="4" timestamp="2008-09-25T19:37:31Z" uid="69126" user="Philipp Sªsse" changeset="698179">
    <nd ref="29910209"/>
    <nd ref="61319857"/>
    <nd ref="61319859"/>
    <nd ref="61319860"/>
    <nd ref="61319862"/>
    <nd ref="61319864"/>
    <nd ref="61319865"/>
    <nd ref="61319867"/>
    <nd ref="61319869"/>
    <nd ref="61319870"/>
    <nd ref="61319872"/>
    <nd ref="61319874"/>
    <nd ref="61319875"/>
    <nd ref="61319877"/>
    <nd ref="61319879"/>
    <nd ref="61319881"/>
    <nd ref="61319882"/>
    <nd ref="61319884"/>
    <nd ref="61319886"/>
    <nd ref="61319887"/>
    <nd ref="61319889"/>
    <nd ref="61319891"/>
    <nd ref="61319892"/>
    <nd ref="61319894"/>
    <nd ref="61319895"/>
    <nd ref="61319897"/>
    <nd ref="61319899"/>
    <nd ref="61319900"/>
    <nd ref="61319902"/>
    <nd ref="61319904"/>
    <nd ref="61319906"/>
    <nd ref="61319907"/>
    <nd ref="61319909"/>
    <nd ref="61319911"/>
    <nd ref="61319912"/>
    <nd ref="61319914"/>
    <nd ref="61319916"/>
    <nd ref="61319917"/>
    <nd ref="61319919"/>
    <nd ref="61319921"/>
    <nd ref="61319922"/>
    <nd ref="61318790"/>
    <tag k="created_by" v="Potlatch 0.10b"/>
    <tag k="highway" v="secondary"/>
    <tag k="note" v="im SHP des NVK: II"/>
    <tag k="ref" v="L 613"/>
  </way>
  <way id="8614397" version="5" timestamp="2009-04-27T19:55:50Z" uid="37063" user="kette-links" changeset="996512">
    <nd ref="29910209"/>
    <nd ref="61319857"/>
    <nd ref="61319859"/>
    <nd ref="61319860"/>
    <nd ref="61319862"/>
    <nd ref="61319864"/>
    <nd ref="61319865"/>
    <nd ref="61319867"/>
    <nd ref="61319869"/>
    <nd ref="61319870"/>
    <nd ref="61319872"/>
    <nd ref="61319874"/>
    <nd ref="61319875"/>
    <nd ref="61319877"/>
    <nd ref="61319879"/>
    <nd ref="61319881"/>
    <nd ref="61319882"/>
    <nd ref="61319884"/>
    <nd ref="61319886"/>
    <nd ref="61319887"/>
    <nd ref="61319889"/>
    <nd ref="61319891"/>
    <nd ref="61319892"/>
    <nd ref="61319894"/>
    <nd ref="61319895"/>
    <nd ref="61319897"/>
    <nd ref="61319899"/>
    <nd ref="61319900"/>
    <nd ref="61319902"/>
    <nd ref="61319904"/>
    <nd ref="61319906"/>
    <nd ref="61319907"/>
    <nd ref="61319909"/>
    <nd ref="61319911"/>
    <nd ref="61319912"/>
    <nd ref="61319914"/>
    <nd ref="61319916"/>
    <nd ref="61319917"/>
    <tag k="created_by" v="Potlatch 0.10b"/>
    <tag k="highway" v="secondary"/>
    <tag k="note" v="im SHP des NVK: II"/>
    <tag k="ref" v="L 613"/>
  </way>
  <way id="8614397" version="6" timestamp="2009-08-08T17:16:38Z" uid="118352" user="kamarc" changeset="2077795">
    <nd ref="29910209"/>
    <nd ref="61319857"/>
    <nd ref="61319859"/>
    <nd ref="61319860"/>
    <nd ref="61319862"/>
    <nd ref="61319864"/>
    <nd ref="61319865"/>
    <nd ref="61319867"/>
    <nd ref="61319869"/>
    <nd ref="61319870"/>
    <nd ref="61319872"/>
    <nd ref="61319874"/>
    <nd ref="61319875"/>
    <nd ref="61319877"/>
    <nd ref="61319879"/>
    <nd ref="61319881"/>
    <nd ref="61319882"/>
    <nd ref="61319884"/>
    <nd ref="61319887"/>
    <nd ref="61319889"/>
    <nd ref="61319891"/>
    <nd ref="61319892"/>
    <nd ref="61319894"/>
    <nd ref="61319895"/>
    <nd ref="61319897"/>
    <nd ref="61319899"/>
    <nd ref="61319900"/>
    <nd ref="61319902"/>
    <nd ref="61319904"/>
    <nd ref="61319906"/>
    <nd ref="61319907"/>
    <nd ref="61319909"/>
    <nd ref="61319911"/>
    <nd ref="61319912"/>
    <nd ref="61319914"/>
    <nd ref="61319916"/>
    <nd ref="61319917"/>
    <tag k="highway" v="secondary"/>
    <tag k="note" v="im SHP des NVK: II"/>
    <tag k="ref" v="L 613"/>
  </way>
  <way id="8614397" version="7" timestamp="2009-10-22T19:36:25Z" uid="119785" user="trekki" changeset="2924816">
    <nd ref="29910209"/>
    <nd ref="61319857"/>
    <nd ref="61319859"/>
    <nd ref="61319860"/>
    <nd ref="61319862"/>
    <nd ref="61319864"/>
    <nd ref="61319865"/>
    <nd ref="61319867"/>
    <nd ref="61319869"/>
    <nd ref="61319870"/>
    <nd ref="61319872"/>
    <nd ref="61319874"/>
    <nd ref="61319875"/>
    <nd ref="61319877"/>
    <nd ref="61319879"/>
    <nd ref="61319881"/>
    <nd ref="61319882"/>
    <nd ref="61319884"/>
    <nd ref="61319887"/>
    <nd ref="61319889"/>
    <nd ref="61319891"/>
    <nd ref="61319892"/>
    <nd ref="61319894"/>
    <nd ref="61319895"/>
    <nd ref="61319897"/>
    <nd ref="61319899"/>
    <nd ref="61319900"/>
    <nd ref="538501335"/>
    <nd ref="61319902"/>
    <nd ref="61319904"/>
    <nd ref="538501337"/>
    <nd ref="61319906"/>
    <nd ref="61319907"/>
    <nd ref="61319909"/>
    <nd ref="61319911"/>
    <nd ref="61319912"/>
    <nd ref="61319914"/>
    <nd ref="61319916"/>
    <nd ref="61319917"/>
    <tag k="highway" v="secondary"/>
    <tag k="note" v="im SHP des NVK: II"/>
    <tag k="ref" v="L 613"/>
  </way>
  <way id="8614397" version="8" timestamp="2011-01-08T09:51:18Z" uid="163673" user="Free_Jan" changeset="6901413">
    <nd ref="29910209"/>
    <nd ref="61319857"/>
    <nd ref="61319859"/>
    <nd ref="61319860"/>
    <nd ref="61319862"/>
    <nd ref="61319864"/>
    <nd ref="61319865"/>
    <nd ref="61319867"/>
    <nd ref="61319869"/>
    <nd ref="61319870"/>
    <nd ref="61319872"/>
    <nd ref="61319874"/>
    <nd ref="61319875"/>
    <nd ref="61319877"/>
    <nd ref="61319879"/>
    <nd ref="61319881"/>
    <nd ref="61319882"/>
    <nd ref="61319884"/>
    <nd ref="61319887"/>
    <nd ref="61319889"/>
    <nd ref="61319891"/>
    <nd ref="61319892"/>
    <nd ref="61319894"/>
    <nd ref="61319895"/>
    <nd ref="61319897"/>
    <nd ref="61319899"/>
    <nd ref="61319900"/>
    <nd ref="538501335"/>
    <nd ref="61319902"/>
    <nd ref="61319904"/>
    <nd ref="1090814905"/>
    <nd ref="538501337"/>
    <nd ref="1090815065"/>
    <nd ref="61319906"/>
    <nd ref="61319907"/>
    <nd ref="61319909"/>
    <nd ref="61319911"/>
    <nd ref="1090814665"/>
    <nd ref="1090814466"/>
    <nd ref="61319912"/>
    <nd ref="61319914"/>
    <nd ref="61319916"/>
    <nd ref="61319917"/>
    <tag k="highway" v="secondary"/>
    <tag k="note" v="im SHP des NVK: II"/>
    <tag k="ref" v="L 613"/>
  </way>
  <way id="8614406" version="5" timestamp="2009-09-30T13:00:22Z" uid="36809" user="pfoten_weg_!_" changeset="2687909">
    <nd ref="130134"/>
    <nd ref="130135"/>
    <nd ref="186072552"/>
    <nd ref="162546510"/>
    <nd ref="130136"/>
    <nd ref="60674712"/>
    <nd ref="95717759"/>
    <tag k="highway" v="trunk_link"/>
  </way>
  <way id="8614406" version="6" timestamp="2011-04-01T14:08:14Z" uid="7596" user="ck3d" changeset="7735815">
    <nd ref="130134"/>
    <nd ref="186072552"/>
    <nd ref="162546510"/>
    <nd ref="130136"/>
    <nd ref="60674712"/>
    <nd ref="95717759"/>
    <tag k="highway" v="trunk_link"/>
  </way>
  <way id="8614408" version="8" timestamp="2009-09-30T13:00:21Z" uid="36809" user="pfoten_weg_!_" changeset="2687909">
    <nd ref="130132"/>
    <nd ref="162547307"/>
    <nd ref="162547308"/>
    <nd ref="130134"/>
    <tag k="highway" v="trunk_link"/>
    <tag k="name" v="Fürstenfeldbruck Ost"/>
    <tag k="oneway" v="yes"/>
  </way>
  <way id="8614408" version="9" timestamp="2011-04-01T14:08:15Z" uid="7596" user="ck3d" changeset="7735815">
    <nd ref="130132"/>
    <nd ref="1227947387"/>
    <nd ref="162547307"/>
    <nd ref="1227947394"/>
    <nd ref="162547308"/>
    <nd ref="130134"/>
    <tag k="highway" v="trunk_link"/>
    <tag k="name" v="Fürstenfeldbruck Ost"/>
    <tag k="oneway" v="yes"/>
  </way>
  <way id="8614422" version="3" timestamp="2007-12-16T11:35:46Z" uid="13367" user="nubok" changeset="330106">
    <nd ref="57792238"/>
    <nd ref="172958323"/>
    <nd ref="61323809"/>
    <tag k="created_by" v="Potlatch 0.5d"/>
    <tag k="highway" v="primary"/>
    <tag k="layer" v="-1"/>
    <tag k="tunnel" v="yes"/>
  </way>
  <way id="8614422" version="4" timestamp="2007-12-16T11:36:16Z" uid="13367" user="nubok" changeset="330106">
    <nd ref="57792238"/>
    <nd ref="172958323"/>
    <nd ref="61323809"/>
    <tag k="created_by" v="Potlatch 0.5d"/>
    <tag k="highway" v="primary"/>
    <tag k="layer" v="-1"/>
    <tag k="tunnel" v="yes"/>
  </way>
  <way id="8614422" version="5" timestamp="2008-07-18T13:31:04Z" uid="35560" user="HeikoE" changeset="529992">
    <nd ref="57792238"/>
    <nd ref="172958323"/>
    <nd ref="61323809"/>
    <tag k="created_by" v="Potlatch 0.10"/>
    <tag k="highway" v="primary"/>
    <tag k="layer" v="-1"/>
    <tag k="ref" v="B 1"/>
    <tag k="tunnel" v="yes"/>
  </way>
  <way id="8614422" version="6" timestamp="2008-10-31T10:36:50Z" uid="13565" user="hadhuey" changeset="639060">
    <nd ref="57792238"/>
    <nd ref="172958323"/>
    <nd ref="61323809"/>
    <tag k="created_by" v="Potlatch 0.10f"/>
    <tag k="highway" v="primary"/>
    <tag k="layer" v="-1"/>
    <tag k="name" v="Walther-Rathenau-Straße"/>
    <tag k="ref" v="B 1"/>
    <tag k="tunnel" v="yes"/>
  </way>
  <way id="8614422" version="7" timestamp="2008-10-31T14:59:53Z" uid="13565" user="hadhuey" changeset="641625">
    <nd ref="57792238"/>
    <nd ref="61323809"/>
    <tag k="created_by" v="Potlatch 0.10f"/>
    <tag k="highway" v="primary"/>
    <tag k="layer" v="-1"/>
    <tag k="name" v="Walther-Rathenau-Straße"/>
    <tag k="ref" v="B 1"/>
    <tag k="tunnel" v="yes"/>
  </way>
  <way id="8614422" version="8" timestamp="2009-02-06T14:35:46Z" uid="42683" user="riechfield" changeset="186971">
    <nd ref="57792238"/>
    <nd ref="342032156"/>
    <nd ref="342032153"/>
    <nd ref="61323809"/>
    <tag k="created_by" v="Potlatch 0.10f"/>
    <tag k="highway" v="primary"/>
    <tag k="layer" v="-1"/>
    <tag k="name" v="Walther-Rathenau-Straße"/>
    <tag k="ref" v="B 1"/>
    <tag k="tunnel" v="yes"/>
  </way>
  <way id="8614422" version="9" timestamp="2009-02-07T13:41:33Z" uid="14714" user="aquandur" changeset="240418">
    <nd ref="57792238"/>
    <nd ref="342032156"/>
    <nd ref="342032153"/>
    <nd ref="61323809"/>
    <tag k="bicycle" v="no"/>
    <tag k="created_by" v="Potlatch 0.10f"/>
    <tag k="foot" v="no"/>
    <tag k="highway" v="primary"/>
    <tag k="layer" v="-1"/>
    <tag k="name" v="Walther-Rathenau-Straße"/>
    <tag k="ref" v="B 1"/>
    <tag k="tunnel" v="yes"/>
  </way>
  <way id="8614422" version="10" timestamp="2009-03-07T21:54:06Z" uid="42683" user="riechfield" changeset="755078">
    <nd ref="57792238"/>
    <nd ref="342032156"/>
    <nd ref="342032153"/>
    <nd ref="61323809"/>
    <tag k="bicycle" v="no"/>
    <tag k="created_by" v="Potlatch 0.10f"/>
    <tag k="foot" v="no"/>
    <tag k="highway" v="primary"/>
    <tag k="layer" v="-1"/>
    <tag k="maxheight" v="4.5"/>
    <tag k="name" v="Walther-Rathenau-Straße"/>
    <tag k="ref" v="B 1"/>
    <tag k="tunnel" v="yes"/>
  </way>
  <way id="8614422" version="11" timestamp="2009-03-15T14:11:41Z" uid="42683" user="riechfield" changeset="813435">
    <nd ref="57792238"/>
    <nd ref="61323809"/>
    <tag k="bicycle" v="no"/>
    <tag k="created_by" v="Potlatch 0.10f"/>
    <tag k="foot" v="no"/>
    <tag k="highway" v="primary"/>
    <tag k="layer" v="-1"/>
    <tag k="maxheight" v="4.5"/>
    <tag k="name" v="Walther-Rathenau-Straße"/>
    <tag k="ref" v="B 1"/>
    <tag k="tunnel" v="yes"/>
  </way>
  <way id="8614422" version="12" timestamp="2009-09-03T18:21:14Z" uid="43566" user="anbr" changeset="2362778">
    <nd ref="57792238"/>
    <nd ref="61323809"/>
    <tag k="bicycle" v="no"/>
    <tag k="foot" v="no"/>
    <tag k="highway" v="primary"/>
    <tag k="layer" v="-1"/>
    <tag k="maxheight" v="4.5"/>
    <tag k="name" v="Walther-Rathenau-Straße"/>
    <tag k="ref" v="B 1"/>
    <tag k="tunnel" v="yes"/>
  </way>
  <way id="8614422" version="13" timestamp="2011-02-08T20:40:19Z" uid="41889" user="Kurt Krampmeier" changeset="7230569">
    <nd ref="57792238"/>
    <nd ref="61323809"/>
    <tag k="bicycle" v="no"/>
    <tag k="foot" v="no"/>
    <tag k="highway" v="primary"/>
    <tag k="layer" v="-1"/>
    <tag k="maxheight" v="4.5"/>
    <tag k="maxspeed" v="50"/>
    <tag k="name" v="Walther-Rathenau-Straße"/>
    <tag k="ref" v="B 1"/>
    <tag k="tunnel" v="yes"/>
    <tag k="zone:traffic" v="DE:urban"/>
  </way>
  <way id="8614422" version="14" timestamp="2012-01-12T20:48:27Z" uid="13565" user="hadhuey" changeset="10372923"/>
  <way id="8614505" version="4" timestamp="2009-09-30T13:00:16Z" uid="36809" user="pfoten_weg_!_" changeset="2687909">
    <nd ref="130138"/>
    <nd ref="130139"/>
    <nd ref="281343625"/>
    <nd ref="88462229"/>
    <nd ref="88462200"/>
    <tag k="highway" v="trunk_link"/>
  </way>
  <way id="8614522" version="2" timestamp="2008-08-12T08:30:53Z" uid="6269" user="Mueck" changeset="200178">
    <nd ref="27047615"/>
    <nd ref="61332521"/>
    <nd ref="61332523"/>
    <nd ref="61332526"/>
    <nd ref="31317205"/>
    <tag k="created_by" v="Potlatch 0.10b"/>
    <tag k="highway" v="tertiary"/>
    <tag k="note" v="im SHP des NVK: III"/>
    <tag k="oneway" v="yes"/>
  </way>
  <way id="8614522" version="3" timestamp="2008-09-07T20:17:59Z" uid="66253" user="topli2" changeset="562397">
    <nd ref="27047615"/>
    <nd ref="61332521"/>
    <nd ref="61332523"/>
    <nd ref="61332526"/>
    <nd ref="31317205"/>
    <tag k="created_by" v="Potlatch 0.10b"/>
    <tag k="highway" v="tertiary"/>
    <tag k="name" v="Badener Straße"/>
    <tag k="note" v="im SHP des NVK: III"/>
    <tag k="oneway" v="yes"/>
  </way>
  <way id="8614522" version="4" timestamp="2008-11-27T13:02:48Z" uid="6893" user="[HEK]the_other" changeset="800693">
    <nd ref="27047615"/>
    <nd ref="61332521"/>
    <nd ref="61332523"/>
    <nd ref="61332526"/>
    <nd ref="315050092"/>
    <nd ref="31317205"/>
    <tag k="created_by" v="Potlatch 0.10b"/>
    <tag k="highway" v="tertiary"/>
    <tag k="name" v="Badener Straße"/>
    <tag k="note" v="im SHP des NVK: III"/>
    <tag k="oneway" v="yes"/>
  </way>
  <way id="8614522" version="5" timestamp="2009-03-16T22:57:59Z" uid="87700" user="Joachim Melcher" changeset="824721">
    <nd ref="27047615"/>
    <nd ref="61332523"/>
    <nd ref="61332526"/>
    <nd ref="315050092"/>
    <nd ref="31317205"/>
    <tag k="created_by" v="Potlatch 0.10b"/>
    <tag k="highway" v="tertiary"/>
    <tag k="name" v="Badener Straße"/>
    <tag k="note" v="im SHP des NVK: III"/>
    <tag k="oneway" v="yes"/>
  </way>
</osm>
