<?xml version='1.0' encoding='UTF-8'?>
<osm version="0.6" generator="libosmium/2.20.0">
  <way id="8619753" version="9" timestamp="2010-02-14T15:43:47Z" uid="74617" user="JohnSmith" changeset="3874884">
    <nd ref="60072475"/>
    <nd ref="332817111"/>
    <nd ref="60072479"/>
    <nd ref="61395668"/>
    <nd ref="61394187"/>
    <tag k="highway" v="tertiary"/>
    <tag k="name" v="Edmondstone Street"/>
  </way>
  <way id="8619753" version="10" timestamp="2010-04-17T07:44:08Z" uid="14505" user="David Dean" changeset="4445135">
    <nd ref="60072475"/>
    <nd ref="332817111"/>
    <nd ref="699591149"/>
    <nd ref="60072479"/>
    <nd ref="699591194"/>
    <nd ref="61395668"/>
    <nd ref="61394187"/>
    <tag k="highway" v="tertiary"/>
    <tag k="name" v="Edmondstone Street"/>
  </way>
  <way id="8619811" version="3" timestamp="2010-02-14T15:43:43Z" uid="74617" user="JohnSmith" changeset="3874884">
    <nd ref="60072478"/>
    <nd ref="61394662"/>
    <tag k="highway" v="residential"/>
    <tag k="maxspeed" v="50"/>
    <tag k="name" v="Ruby Street"/>
  </way>
  <way id="8619811" version="4" timestamp="2012-01-15T07:48:22Z" uid="147510" user="woodpeck_fixbot" changeset="10394821">
    <nd ref="60072478"/>
    <nd ref="61394662"/>
    <tag k="highway" v="residential"/>
    <tag k="name" v="Ruby Street"/>
  </way>
  <way id="8619878" version="3" timestamp="2010-02-14T15:43:47Z" uid="74617" user="JohnSmith" changeset="3874884">
    <nd ref="61395238"/>
    <nd ref="61395392"/>
    <tag k="highway" v="residential"/>
    <tag k="maxspeed" v="50"/>
    <tag k="name" v="Badger Street"/>
  </way>
  <way id="8619878" version="4" timestamp="2012-01-15T07:48:23Z" uid="147510" user="woodpeck_fixbot" changeset="10394821">
    <nd ref="61395238"/>
    <nd ref="61395392"/>
    <tag k="highway" v="residential"/>
    <tag k="name" v="Badger Street"/>
  </way>
  <way id="8619922" version="3" timestamp="2010-02-14T15:43:30Z" uid="74617" user="JohnSmith" changeset="3874884">
    <nd ref="61395668"/>
    <nd ref="61395837"/>
    <tag k="highway" v="residential"/>
    <tag k="maxspeed" v="50"/>
    <tag k="name" v="Vivienne Street"/>
  </way>
  <way id="8619922" version="4" timestamp="2010-04-17T07:44:07Z" uid="14505" user="David Dean" changeset="4445135">
    <nd ref="61395668"/>
    <nd ref="699591040"/>
    <nd ref="61395837"/>
    <tag k="highway" v="residential"/>
    <tag k="maxspeed" v="50"/>
    <tag k="name" v="Vivienne Street"/>
  </way>
  <way id="8619922" version="5" timestamp="2012-01-15T07:48:24Z" uid="147510" user="woodpeck_fixbot" changeset="10394821">
    <nd ref="61395668"/>
    <nd ref="699591040"/>
    <nd ref="61395837"/>
    <tag k="highway" v="residential"/>
    <tag k="name" v="Vivienne Street"/>
  </way>
</osm>
