<?xml version='1.0' encoding='UTF-8'?>
<osm version="0.6" generator="libosmium/2.20.0">
  <way id="8635215" version="8" timestamp="2010-07-09T02:54:54Z" uid="74617" user="JohnSmith" changeset="5170739">
    <nd ref="60720251"/>
    <nd ref="60720307"/>
    <nd ref="68842912"/>
    <nd ref="60720255"/>
    <nd ref="60720256"/>
    <tag k="highway" v="residential"/>
    <tag k="maxspeed" v="50"/>
    <tag k="maxspeed:source" v="default residential speed limit in Australia"/>
    <tag k="name" v="Flower Street"/>
    <tag k="source" v="yahoo"/>
    <tag k="source:name" v="survey"/>
  </way>
  <way id="8635215" version="9" timestamp="2012-01-15T07:50:12Z" uid="147510" user="woodpeck_fixbot" changeset="10394821">
    <nd ref="60720251"/>
    <nd ref="60720307"/>
    <nd ref="68842912"/>
    <nd ref="60720255"/>
    <nd ref="60720256"/>
    <tag k="highway" v="residential"/>
    <tag k="name" v="Flower Street"/>
    <tag k="source" v="yahoo"/>
    <tag k="source:name" v="survey"/>
  </way>
  <way id="8635689" version="6" timestamp="2010-02-14T17:07:09Z" uid="74617" user="JohnSmith" changeset="3875836">
    <nd ref="61605741"/>
    <nd ref="61605770"/>
    <nd ref="317556659"/>
    <nd ref="61605755"/>
    <tag k="cycleway" v="shared"/>
    <tag k="highway" v="tertiary"/>
    <tag k="name" v="Carraway Street"/>
  </way>
  <way id="8635689" version="7" timestamp="2010-05-27T08:28:54Z" uid="74617" user="JohnSmith" changeset="4820036">
    <nd ref="61605741"/>
    <nd ref="61605770"/>
    <nd ref="317556659"/>
    <nd ref="750502827"/>
    <tag k="cycleway" v="shared"/>
    <tag k="highway" v="tertiary"/>
    <tag k="name" v="Carraway Street"/>
  </way>
  <way id="8635689" version="8" timestamp="2010-09-07T06:50:08Z" uid="320632" user="Zulu99" changeset="5704761">
    <nd ref="61605741"/>
    <nd ref="61605770"/>
    <nd ref="317556659"/>
    <nd ref="750502827"/>
    <tag k="highway" v="tertiary"/>
    <tag k="name" v="Carraway Street"/>
  </way>
  <way id="8635693" version="7" timestamp="2010-02-14T17:05:36Z" uid="74617" user="JohnSmith" changeset="3875836">
    <nd ref="33308963"/>
    <nd ref="316736561"/>
    <nd ref="61605770"/>
    <nd ref="130095085"/>
    <nd ref="79298997"/>
    <nd ref="61605786"/>
    <tag k="highway" v="residential"/>
    <tag k="maxspeed" v="50"/>
    <tag k="name" v="Ramsgate Street"/>
  </way>
  <way id="8635693" version="8" timestamp="2010-05-17T06:03:34Z" uid="14505" user="David Dean" changeset="4725843">
    <nd ref="33308963"/>
    <nd ref="737157316"/>
    <nd ref="316736561"/>
    <nd ref="61605770"/>
    <nd ref="130095085"/>
    <nd ref="79298997"/>
    <nd ref="61605786"/>
    <tag k="highway" v="residential"/>
    <tag k="maxspeed" v="50"/>
    <tag k="name" v="Ramsgate Street"/>
  </way>
  <way id="8635693" version="9" timestamp="2010-05-18T11:51:51Z" uid="14505" user="David Dean" changeset="4737855">
    <nd ref="33308963"/>
    <nd ref="737157316"/>
    <nd ref="316736561"/>
    <nd ref="61605770"/>
    <nd ref="130095085"/>
    <nd ref="79298997"/>
    <nd ref="738367261"/>
    <tag k="highway" v="residential"/>
    <tag k="maxspeed" v="50"/>
    <tag k="name" v="Ramsgate Street"/>
  </way>
  <way id="8635693" version="10" timestamp="2012-01-15T07:50:14Z" uid="147510" user="woodpeck_fixbot" changeset="10394821">
    <nd ref="33308963"/>
    <nd ref="737157316"/>
    <nd ref="316736561"/>
    <nd ref="61605770"/>
    <nd ref="130095085"/>
    <nd ref="79298997"/>
    <nd ref="738367261"/>
    <tag k="highway" v="residential"/>
    <tag k="name" v="Ramsgate Street"/>
  </way>
  <way id="8635696" version="3" timestamp="2010-02-14T17:05:35Z" uid="74617" user="JohnSmith" changeset="3875836">
    <nd ref="26334726"/>
    <nd ref="61605799"/>
    <tag k="highway" v="residential"/>
    <tag k="maxspeed" v="50"/>
    <tag k="name" v="Maidstone Street"/>
  </way>
  <way id="8635696" version="4" timestamp="2010-05-27T08:29:08Z" uid="74617" user="JohnSmith" changeset="4820036"/>
  <way id="8635874" version="10" timestamp="2010-07-09T02:58:59Z" uid="74617" user="JohnSmith" changeset="5170739">
    <nd ref="61608161"/>
    <nd ref="68768077"/>
    <nd ref="68768845"/>
    <nd ref="287810970"/>
    <nd ref="68751544"/>
    <nd ref="68751538"/>
    <nd ref="68751542"/>
    <nd ref="68751537"/>
    <tag k="highway" v="residential"/>
    <tag k="maxspeed" v="50"/>
    <tag k="maxspeed:source" v="default residential speed limit in Australia"/>
    <tag k="name" v="Brewster Street"/>
    <tag k="oneway" v="yes"/>
    <tag k="source" v="yahoo"/>
    <tag k="source:name" v="survey"/>
  </way>
  <way id="8635874" version="11" timestamp="2012-01-15T07:50:16Z" uid="147510" user="woodpeck_fixbot" changeset="10394821">
    <nd ref="61608161"/>
    <nd ref="68768077"/>
    <nd ref="68768845"/>
    <nd ref="287810970"/>
    <nd ref="68751544"/>
    <nd ref="68751538"/>
    <nd ref="68751542"/>
    <nd ref="68751537"/>
    <tag k="highway" v="residential"/>
    <tag k="name" v="Brewster Street"/>
    <tag k="oneway" v="yes"/>
    <tag k="source" v="yahoo"/>
    <tag k="source:name" v="survey"/>
  </way>
  <way id="8635992" version="11" timestamp="2010-07-09T02:56:31Z" uid="74617" user="JohnSmith" changeset="5170739">
    <nd ref="68752168"/>
    <nd ref="68752167"/>
    <nd ref="68752171"/>
    <nd ref="61609468"/>
    <nd ref="68772776"/>
    <nd ref="68768847"/>
    <nd ref="68866557"/>
    <nd ref="68768076"/>
    <nd ref="61609470"/>
    <nd ref="61609479"/>
    <tag k="highway" v="residential"/>
    <tag k="maxspeed" v="50"/>
    <tag k="maxspeed:source" v="default residential speed limit in Australia"/>
    <tag k="name" v="Brewster Street"/>
    <tag k="oneway" v="yes"/>
    <tag k="source" v="yahoo"/>
    <tag k="source:name" v="survey"/>
  </way>
  <way id="8635992" version="12" timestamp="2012-01-15T07:50:18Z" uid="147510" user="woodpeck_fixbot" changeset="10394821">
    <nd ref="68752168"/>
    <nd ref="68752167"/>
    <nd ref="68752171"/>
    <nd ref="61609468"/>
    <nd ref="68772776"/>
    <nd ref="68768847"/>
    <nd ref="68866557"/>
    <nd ref="68768076"/>
    <nd ref="61609470"/>
    <nd ref="61609479"/>
    <tag k="highway" v="residential"/>
    <tag k="name" v="Brewster Street"/>
    <tag k="oneway" v="yes"/>
    <tag k="source" v="yahoo"/>
    <tag k="source:name" v="survey"/>
  </way>
</osm>
