<?xml version='1.0' encoding='UTF-8'?>
<osm version="0.6" generator="libosmium/2.20.0">
  <way id="86462894" version="2" timestamp="2011-03-18T15:18:10Z" uid="4467" user="Rosscoe" changeset="7596265">
    <nd ref="1004563752"/>
    <nd ref="319721178"/>
    <nd ref="319721221"/>
    <nd ref="32122647"/>
    <nd ref="1207409929"/>
    <nd ref="32122317"/>
    <nd ref="1207409949"/>
    <nd ref="31430519"/>
    <nd ref="1207409968"/>
    <nd ref="208509126"/>
    <nd ref="32123156"/>
    <nd ref="208509167"/>
    <nd ref="319720297"/>
    <nd ref="208509203"/>
    <nd ref="32122405"/>
    <nd ref="1207409862"/>
    <nd ref="319719720"/>
    <nd ref="32122374"/>
    <nd ref="208509242"/>
    <nd ref="31430657"/>
    <nd ref="322496931"/>
    <nd ref="208518398"/>
    <nd ref="322484517"/>
    <nd ref="208518392"/>
    <tag k="cycleway" v="lane"/>
    <tag k="highway" v="primary"/>
    <tag k="is_in" v="South Plympton,South Australia,Australia"/>
    <tag k="maxspeed" v="60"/>
    <tag k="name" v="Marion Road"/>
    <tag k="oneway" v="yes"/>
    <tag k="postal_code" v="5038"/>
    <tag k="ref" v="A14"/>
    <tag k="source" v="survey"/>
  </way>
  <way id="86462894" version="3" timestamp="2011-07-30T12:12:29Z" uid="428465" user="markinspace" changeset="8871326">
    <nd ref="1004563752"/>
    <nd ref="319721178"/>
    <nd ref="319721221"/>
    <nd ref="32122647"/>
    <nd ref="1207409929"/>
    <nd ref="32122317"/>
    <nd ref="1207409949"/>
    <nd ref="31430519"/>
    <nd ref="1207409968"/>
    <nd ref="208509126"/>
    <nd ref="32123156"/>
    <nd ref="208509167"/>
    <nd ref="319720297"/>
    <nd ref="208509203"/>
    <nd ref="32122405"/>
    <nd ref="1207409862"/>
    <nd ref="319719720"/>
    <nd ref="32122374"/>
    <nd ref="208509242"/>
    <nd ref="31430657"/>
    <nd ref="322496931"/>
    <nd ref="208518398"/>
    <nd ref="322484517"/>
    <nd ref="208518392"/>
    <tag k="cycleway" v="lane"/>
    <tag k="highway" v="primary"/>
    <tag k="is_in" v="South Plympton,South Australia,Australia"/>
    <tag k="lanes" v="2"/>
    <tag k="maxspeed" v="60"/>
    <tag k="name" v="Marion Road"/>
    <tag k="oneway" v="yes"/>
    <tag k="postal_code" v="5038"/>
    <tag k="ref" v="A14"/>
    <tag k="source" v="survey"/>
  </way>
  <way id="86462901" version="2" timestamp="2010-12-02T04:52:39Z" uid="4467" user="Rosscoe" changeset="6511120">
    <nd ref="322482936"/>
    <nd ref="249772844"/>
    <nd ref="249773279"/>
    <nd ref="29750078"/>
    <nd ref="249773282"/>
    <nd ref="33113560"/>
    <nd ref="1015426013"/>
    <nd ref="249773285"/>
    <nd ref="1015425933"/>
    <nd ref="1015425954"/>
    <nd ref="29750077"/>
    <nd ref="1015425951"/>
    <nd ref="249773426"/>
    <nd ref="33114811"/>
    <tag k="cycleway" v="lane"/>
    <tag k="highway" v="primary"/>
    <tag k="is_in" v="Plympton,South Australia,Australia"/>
    <tag k="maxspeed" v="60"/>
    <tag k="name" v="Anzac Highway"/>
    <tag k="oneway" v="yes"/>
    <tag k="postal_code" v="5038"/>
    <tag k="ref" v="A5"/>
    <tag k="source" v="survey;Yahoo"/>
  </way>
  <way id="86462901" version="3" timestamp="2011-04-10T11:29:31Z" uid="21143" user="hryciuk" changeset="7821785">
    <nd ref="322482936"/>
    <nd ref="249772844"/>
    <nd ref="249773279"/>
    <nd ref="29750078"/>
    <nd ref="249773282"/>
    <nd ref="33113560"/>
    <nd ref="1015426013"/>
    <nd ref="249773285"/>
    <nd ref="1015425933"/>
    <nd ref="1015425954"/>
    <nd ref="29750077"/>
    <nd ref="1015425951"/>
    <nd ref="1239663700"/>
    <nd ref="249773426"/>
    <nd ref="33114811"/>
    <tag k="cycleway" v="lane"/>
    <tag k="highway" v="primary"/>
    <tag k="is_in" v="Plympton,South Australia,Australia"/>
    <tag k="maxspeed" v="60"/>
    <tag k="name" v="Anzac Highway"/>
    <tag k="oneway" v="yes"/>
    <tag k="postal_code" v="5038"/>
    <tag k="ref" v="A5"/>
    <tag k="source" v="survey;Yahoo"/>
  </way>
  <way id="86462901" version="4" timestamp="2011-07-30T12:12:29Z" uid="428465" user="markinspace" changeset="8871326">
    <nd ref="322482936"/>
    <nd ref="249772844"/>
    <nd ref="249773279"/>
    <nd ref="29750078"/>
    <nd ref="249773282"/>
    <nd ref="33113560"/>
    <nd ref="1015426013"/>
    <nd ref="249773285"/>
    <nd ref="1015425933"/>
    <nd ref="1015425954"/>
    <nd ref="29750077"/>
    <nd ref="1015425951"/>
    <nd ref="1239663700"/>
    <nd ref="249773426"/>
    <nd ref="33114811"/>
    <tag k="cycleway" v="lane"/>
    <tag k="highway" v="primary"/>
    <tag k="is_in" v="Plympton,South Australia,Australia"/>
    <tag k="lanes" v="3"/>
    <tag k="maxspeed" v="60"/>
    <tag k="name" v="Anzac Highway"/>
    <tag k="oneway" v="yes"/>
    <tag k="postal_code" v="5038"/>
    <tag k="ref" v="A5"/>
    <tag k="source" v="survey;Yahoo"/>
  </way>
  <way id="86462908" version="2" timestamp="2011-03-18T15:16:29Z" uid="4467" user="Rosscoe" changeset="7596265">
    <nd ref="896798439"/>
    <nd ref="533673243"/>
    <nd ref="1207409910"/>
    <nd ref="29750109"/>
    <nd ref="29750110"/>
    <nd ref="29750111"/>
    <nd ref="533672166"/>
    <nd ref="361384911"/>
    <nd ref="1004563645"/>
    <tag k="cycleway" v="lane"/>
    <tag k="highway" v="primary"/>
    <tag k="maxspeed" v="60"/>
    <tag k="name" v="Anzac Highway"/>
    <tag k="oneway" v="yes"/>
    <tag k="ref" v="A5"/>
  </way>
  <way id="86462908" version="3" timestamp="2011-07-29T02:58:03Z" uid="238041" user="marquisite" changeset="8859885">
    <nd ref="896798439"/>
    <nd ref="1377286282"/>
    <nd ref="533673243"/>
    <nd ref="1207409910"/>
    <nd ref="29750109"/>
    <nd ref="29750110"/>
    <nd ref="29750111"/>
    <nd ref="533672166"/>
    <nd ref="361384911"/>
    <nd ref="1004563645"/>
    <tag k="cycleway" v="lane"/>
    <tag k="highway" v="primary"/>
    <tag k="maxspeed" v="60"/>
    <tag k="name" v="Anzac Highway"/>
    <tag k="oneway" v="yes"/>
    <tag k="ref" v="A5"/>
  </way>
  <way id="86462908" version="4" timestamp="2011-07-30T12:20:19Z" uid="428465" user="markinspace" changeset="8871326">
    <nd ref="896798439"/>
    <nd ref="1377286282"/>
    <nd ref="533673243"/>
    <nd ref="1207409910"/>
    <nd ref="29750109"/>
    <nd ref="29750110"/>
    <nd ref="29750111"/>
    <nd ref="533672166"/>
    <nd ref="361384911"/>
    <nd ref="1004563645"/>
    <tag k="cycleway" v="lane"/>
    <tag k="highway" v="primary"/>
    <tag k="lanes" v="3"/>
    <tag k="maxspeed" v="60"/>
    <tag k="name" v="Anzac Highway"/>
    <tag k="oneway" v="yes"/>
    <tag k="ref" v="A5"/>
  </way>
  <way id="86462914" version="2" timestamp="2010-12-02T04:52:53Z" uid="4467" user="Rosscoe" changeset="6511120"/>
  <way id="86462947" version="2" timestamp="2011-03-18T15:17:06Z" uid="4467" user="Rosscoe" changeset="7596265">
    <nd ref="1004563754"/>
    <nd ref="322482896"/>
    <nd ref="29749952"/>
    <nd ref="208508998"/>
    <nd ref="322482936"/>
    <tag k="highway" v="primary"/>
    <tag k="is_in" v="Plympton,South Australia,Australia"/>
    <tag k="maxspeed" v="60"/>
    <tag k="name" v="Anzac Highway"/>
    <tag k="oneway" v="yes"/>
    <tag k="postal_code" v="5038"/>
    <tag k="ref" v="A5"/>
    <tag k="source" v="survey;Yahoo"/>
  </way>
  <way id="86462947" version="3" timestamp="2011-07-30T12:12:31Z" uid="428465" user="markinspace" changeset="8871326">
    <nd ref="1004563754"/>
    <nd ref="322482896"/>
    <nd ref="29749952"/>
    <nd ref="208508998"/>
    <nd ref="322482936"/>
    <tag k="highway" v="primary"/>
    <tag k="is_in" v="Plympton,South Australia,Australia"/>
    <tag k="lanes" v="3"/>
    <tag k="maxspeed" v="60"/>
    <tag k="name" v="Anzac Highway"/>
    <tag k="oneway" v="yes"/>
    <tag k="postal_code" v="5038"/>
    <tag k="ref" v="A5"/>
    <tag k="source" v="survey;Yahoo"/>
  </way>
</osm>
