<?xml version='1.0' encoding='UTF-8'?>
<osm version="0.6" generator="libosmium/2.20.0">
  <way id="8648448" version="6" timestamp="2010-02-14T17:06:43Z" uid="74617" user="JohnSmith" changeset="3875836">
    <nd ref="61667951"/>
    <nd ref="61667971"/>
    <tag k="highway" v="residential"/>
    <tag k="maxspeed" v="50"/>
    <tag k="name" v="Cross Street"/>
  </way>
  <way id="8648448" version="7" timestamp="2012-01-15T07:50:43Z" uid="147510" user="woodpeck_fixbot" changeset="10394821">
    <nd ref="61667951"/>
    <nd ref="61667971"/>
    <tag k="highway" v="residential"/>
    <tag k="name" v="Cross Street"/>
  </way>
  <way id="8648565" version="5" timestamp="2010-02-14T17:06:43Z" uid="74617" user="JohnSmith" changeset="3875836">
    <nd ref="98717219"/>
    <nd ref="60810884"/>
    <tag k="highway" v="residential"/>
    <tag k="maxspeed" v="50"/>
    <tag k="name" v="Winship Street"/>
    <tag k="oneway" v="yes"/>
  </way>
  <way id="8648565" version="6" timestamp="2012-01-15T07:50:45Z" uid="147510" user="woodpeck_fixbot" changeset="10394821">
    <nd ref="98717219"/>
    <nd ref="60810884"/>
    <tag k="highway" v="residential"/>
    <tag k="name" v="Winship Street"/>
    <tag k="oneway" v="yes"/>
  </way>
  <way id="8648667" version="5" timestamp="2010-02-14T17:06:36Z" uid="74617" user="JohnSmith" changeset="3875836">
    <nd ref="60810886"/>
    <nd ref="61668238"/>
    <nd ref="61668239"/>
    <nd ref="61668240"/>
    <tag k="highway" v="residential"/>
    <tag k="maxspeed" v="50"/>
    <tag k="name" v="Eva Street"/>
  </way>
  <way id="8648667" version="6" timestamp="2012-01-15T07:50:46Z" uid="147510" user="woodpeck_fixbot" changeset="10394821">
    <nd ref="60810886"/>
    <nd ref="61668238"/>
    <nd ref="61668239"/>
    <nd ref="61668240"/>
    <tag k="highway" v="residential"/>
    <tag k="name" v="Eva Street"/>
  </way>
  <way id="8648871" version="4" timestamp="2010-07-09T02:55:36Z" uid="74617" user="JohnSmith" changeset="5170739">
    <nd ref="61668428"/>
    <nd ref="61668480"/>
    <nd ref="61668429"/>
    <nd ref="61668430"/>
    <nd ref="61668431"/>
    <nd ref="61668432"/>
    <tag k="highway" v="residential"/>
    <tag k="maxspeed" v="50"/>
    <tag k="maxspeed:source" v="default residential speed limit in Australia"/>
  </way>
  <way id="8648871" version="5" timestamp="2010-08-06T08:10:35Z" uid="84937" user="Neil Penman" changeset="5414502">
    <nd ref="61668428"/>
    <nd ref="61668480"/>
    <tag k="highway" v="residential"/>
    <tag k="maxspeed" v="40"/>
    <tag k="maxspeed:source" v="survey"/>
    <tag k="name" v="Inglebrae Street"/>
    <tag k="oneway" v="yes"/>
  </way>
  <way id="8648871" version="6" timestamp="2012-01-15T07:50:48Z" uid="147510" user="woodpeck_fixbot" changeset="10394821">
    <nd ref="61668428"/>
    <nd ref="61668480"/>
    <tag k="highway" v="residential"/>
    <tag k="name" v="Inglebrae Street"/>
    <tag k="oneway" v="yes"/>
  </way>
  <way id="8648944" version="8" timestamp="2010-02-14T17:06:48Z" uid="74617" user="JohnSmith" changeset="3875836">
    <nd ref="60023286"/>
    <nd ref="61668452"/>
    <tag k="highway" v="residential"/>
    <tag k="maxspeed" v="50"/>
    <tag k="name" v="Argyle Street"/>
  </way>
  <way id="8648944" version="9" timestamp="2010-05-27T07:05:56Z" uid="74617" user="JohnSmith" changeset="4819577">
    <nd ref="750479467"/>
    <nd ref="61668452"/>
    <tag k="highway" v="residential"/>
    <tag k="maxspeed" v="50"/>
    <tag k="name" v="Argyle Street"/>
  </way>
  <way id="8648944" version="10" timestamp="2012-01-15T07:50:49Z" uid="147510" user="woodpeck_fixbot" changeset="10394821">
    <nd ref="750479467"/>
    <nd ref="61668452"/>
    <tag k="highway" v="residential"/>
    <tag k="name" v="Argyle Street"/>
  </way>
  <way id="8648959" version="10" timestamp="2010-02-14T17:06:45Z" uid="74617" user="JohnSmith" changeset="3875836">
    <nd ref="61668452"/>
    <nd ref="178047114"/>
    <nd ref="61668453"/>
    <nd ref="61668454"/>
    <nd ref="178047610"/>
    <nd ref="61668456"/>
    <tag k="highway" v="residential"/>
    <tag k="maxspeed" v="50"/>
    <tag k="name" v="Cairns Street"/>
  </way>
  <way id="8648959" version="11" timestamp="2010-05-23T22:51:03Z" uid="14505" user="David Dean" changeset="4788753">
    <nd ref="61668452"/>
    <nd ref="746863038"/>
    <nd ref="178047114"/>
    <nd ref="746862835"/>
    <nd ref="61668453"/>
    <nd ref="61668454"/>
    <nd ref="178047610"/>
    <nd ref="61668456"/>
    <tag k="highway" v="residential"/>
    <tag k="maxspeed" v="50"/>
    <tag k="name" v="Cairns Street"/>
  </way>
  <way id="8648959" version="12" timestamp="2012-01-15T07:50:50Z" uid="147510" user="woodpeck_fixbot" changeset="10394821">
    <nd ref="61668452"/>
    <nd ref="746863038"/>
    <nd ref="178047114"/>
    <nd ref="746862835"/>
    <nd ref="61668453"/>
    <nd ref="61668454"/>
    <nd ref="178047610"/>
    <nd ref="61668456"/>
    <tag k="highway" v="residential"/>
    <tag k="name" v="Cairns Street"/>
  </way>
</osm>
