<?xml version='1.0' encoding='UTF-8'?>
<osm version="0.6" generator="libosmium/2.20.0">
  <way id="8658034" version="4" timestamp="2010-07-07T09:00:03Z" uid="74617" user="JohnSmith" changeset="5156250">
    <nd ref="61767121"/>
    <nd ref="61767122"/>
    <nd ref="34389165"/>
    <tag k="highway" v="residential"/>
    <tag k="maxspeed" v="50"/>
    <tag k="maxspeed:source" v="default residential speed limit in Australia"/>
    <tag k="name" v="Pitt Place"/>
  </way>
  <way id="8658034" version="5" timestamp="2012-01-15T07:57:22Z" uid="147510" user="woodpeck_fixbot" changeset="10394821">
    <nd ref="61767121"/>
    <nd ref="61767122"/>
    <nd ref="34389165"/>
    <tag k="highway" v="residential"/>
    <tag k="name" v="Pitt Place"/>
  </way>
  <way id="8658035" version="4" timestamp="2010-07-07T08:58:43Z" uid="74617" user="JohnSmith" changeset="5156250">
    <nd ref="61767156"/>
    <nd ref="34389162"/>
    <tag k="highway" v="residential"/>
    <tag k="maxspeed" v="50"/>
    <tag k="maxspeed:source" v="default residential speed limit in Australia"/>
    <tag k="name" v="Calder Place"/>
  </way>
  <way id="8658035" version="5" timestamp="2012-01-15T07:57:23Z" uid="147510" user="woodpeck_fixbot" changeset="10394821">
    <nd ref="61767156"/>
    <nd ref="34389162"/>
    <tag k="highway" v="residential"/>
    <tag k="name" v="Calder Place"/>
  </way>
  <way id="8658037" version="5" timestamp="2010-07-07T09:00:22Z" uid="74617" user="JohnSmith" changeset="5156250">
    <nd ref="61767202"/>
    <nd ref="61767203"/>
    <nd ref="61767272"/>
    <tag k="highway" v="residential"/>
    <tag k="maxspeed" v="50"/>
    <tag k="maxspeed:source" v="default residential speed limit in Australia"/>
    <tag k="name" v="Warner Place"/>
  </way>
  <way id="8658037" version="6" timestamp="2012-01-15T07:57:24Z" uid="147510" user="woodpeck_fixbot" changeset="10394821">
    <nd ref="61767202"/>
    <nd ref="61767203"/>
    <nd ref="61767272"/>
    <tag k="highway" v="residential"/>
    <tag k="name" v="Warner Place"/>
  </way>
  <way id="8658038" version="4" timestamp="2010-07-07T08:59:12Z" uid="74617" user="JohnSmith" changeset="5156250">
    <nd ref="34389137"/>
    <nd ref="61767271"/>
    <nd ref="61767272"/>
    <nd ref="61767273"/>
    <nd ref="34389170"/>
    <tag k="highway" v="residential"/>
    <tag k="maxspeed" v="50"/>
    <tag k="maxspeed:source" v="default residential speed limit in Australia"/>
    <tag k="name" v="Woolrych Street"/>
  </way>
  <way id="8658038" version="5" timestamp="2012-01-15T07:57:25Z" uid="147510" user="woodpeck_fixbot" changeset="10394821">
    <nd ref="34389137"/>
    <nd ref="61767271"/>
    <nd ref="61767272"/>
    <nd ref="61767273"/>
    <nd ref="34389170"/>
    <tag k="highway" v="residential"/>
    <tag k="name" v="Woolrych Street"/>
  </way>
  <way id="8658041" version="5" timestamp="2010-07-07T08:59:33Z" uid="74617" user="JohnSmith" changeset="5156250">
    <nd ref="34389171"/>
    <nd ref="61767440"/>
    <nd ref="61767442"/>
    <nd ref="61767443"/>
    <nd ref="61767444"/>
    <nd ref="61767445"/>
    <nd ref="61767479"/>
    <nd ref="61767446"/>
    <tag k="highway" v="residential"/>
    <tag k="maxspeed" v="50"/>
    <tag k="maxspeed:source" v="default residential speed limit in Australia"/>
    <tag k="name" v="Fossey Street"/>
  </way>
  <way id="8658041" version="6" timestamp="2012-01-15T07:57:26Z" uid="147510" user="woodpeck_fixbot" changeset="10394821">
    <nd ref="34389171"/>
    <nd ref="61767440"/>
    <nd ref="61767442"/>
    <nd ref="61767443"/>
    <nd ref="61767444"/>
    <nd ref="61767445"/>
    <nd ref="61767479"/>
    <nd ref="61767446"/>
    <tag k="highway" v="residential"/>
    <tag k="name" v="Fossey Street"/>
  </way>
  <way id="8658042" version="5" timestamp="2010-07-07T08:57:55Z" uid="74617" user="JohnSmith" changeset="5156250">
    <nd ref="34389159"/>
    <nd ref="61767478"/>
    <nd ref="61767479"/>
    <tag k="highway" v="residential"/>
    <tag k="maxspeed" v="50"/>
    <tag k="maxspeed:source" v="default residential speed limit in Australia"/>
    <tag k="name" v="Tully Street"/>
  </way>
  <way id="8658042" version="6" timestamp="2012-01-15T07:57:27Z" uid="147510" user="woodpeck_fixbot" changeset="10394821">
    <nd ref="34389159"/>
    <nd ref="61767478"/>
    <nd ref="61767479"/>
    <tag k="highway" v="residential"/>
    <tag k="name" v="Tully Street"/>
  </way>
  <way id="8658049" version="14" timestamp="2009-01-05T07:41:38Z" uid="58091" user="Andreas M" changeset="735458">
    <nd ref="100864568"/>
    <nd ref="61845661"/>
    <nd ref="61767994"/>
    <nd ref="100864747"/>
    <nd ref="300130132"/>
    <tag k="created_by" v="Potlatch 0.4c"/>
    <tag k="highway" v="tertiary"/>
    <tag k="name" v="Wilhelmstraße"/>
  </way>
  <way id="8658049" version="15" timestamp="2009-02-12T08:51:43Z" uid="71701" user="timatio" changeset="382232">
    <nd ref="61845661"/>
    <nd ref="61767994"/>
    <nd ref="100864747"/>
    <nd ref="300130132"/>
    <tag k="created_by" v="Potlatch 0.10f"/>
    <tag k="highway" v="tertiary"/>
    <tag k="name" v="Wilhelmstraße"/>
  </way>
  <way id="8658049" version="16" timestamp="2009-02-12T08:56:03Z" uid="71701" user="timatio" changeset="382232">
    <nd ref="61845661"/>
    <nd ref="61767994"/>
    <nd ref="100864747"/>
    <tag k="created_by" v="Potlatch 0.10f"/>
    <tag k="highway" v="tertiary"/>
    <tag k="name" v="Wilhelmstraße"/>
  </way>
  <way id="8658049" version="17" timestamp="2009-02-12T08:56:14Z" uid="71701" user="timatio" changeset="382232">
    <nd ref="61845661"/>
    <nd ref="61767994"/>
    <nd ref="100864747"/>
    <tag k="created_by" v="Potlatch 0.10f"/>
    <tag k="highway" v="tertiary"/>
    <tag k="name" v="Wilhelmstraße"/>
    <tag k="oneway" v="yes"/>
  </way>
  <way id="8658049" version="18" timestamp="2009-02-24T17:52:52Z" uid="58091" user="Andreas M" changeset="656764">
    <nd ref="61845661"/>
    <nd ref="351681504"/>
    <nd ref="61767994"/>
    <nd ref="100864747"/>
    <tag k="created_by" v="Potlatch 0.10f"/>
    <tag k="highway" v="tertiary"/>
    <tag k="name" v="Wilhelmstraße"/>
    <tag k="oneway" v="yes"/>
  </way>
  <way id="8658049" version="19" timestamp="2009-12-30T12:59:40Z" uid="78656" user="Walter Schlögl" changeset="3489627">
    <nd ref="61845661"/>
    <nd ref="351681504"/>
    <nd ref="61767994"/>
    <nd ref="100864747"/>
    <tag k="highway" v="unclassified"/>
    <tag k="name" v="Wilhelmstraße"/>
    <tag k="oneway" v="yes"/>
  </way>
  <way id="8658049" version="20" timestamp="2011-02-22T00:46:12Z" uid="50650" user="Peter-Alexander" changeset="7359611">
    <nd ref="61845661"/>
    <nd ref="351681504"/>
    <nd ref="61767994"/>
    <nd ref="100864747"/>
    <tag k="highway" v="unclassified"/>
    <tag k="lcn" v="yes"/>
    <tag k="name" v="Wilhelmstraße"/>
    <tag k="oneway" v="yes"/>
  </way>
  <way id="8658049" version="21" timestamp="2012-01-26T20:27:42Z" uid="129531" user="almich" changeset="10506880">
    <nd ref="61845661"/>
    <nd ref="1606872469"/>
    <nd ref="61767994"/>
    <nd ref="100864747"/>
    <tag k="highway" v="unclassified"/>
    <tag k="lcn" v="yes"/>
    <tag k="name" v="Wilhelmstraße"/>
    <tag k="oneway" v="yes"/>
  </way>
  <way id="8658280" version="7" timestamp="2008-05-29T17:57:38Z" uid="40373" user="Daguru" changeset="549382">
    <nd ref="61779144"/>
    <nd ref="61779145"/>
    <nd ref="61779146"/>
    <nd ref="61779148"/>
    <nd ref="61779149"/>
    <nd ref="61779152"/>
    <nd ref="61779153"/>
    <tag k="created_by" v="dk3qu"/>
    <tag k="highway" v="secondary"/>
    <tag k="name" v="Ewaldstraße"/>
    <tag k="ref" v="K43"/>
  </way>
  <way id="8658280" version="8" timestamp="2008-08-15T06:24:24Z" uid="57006" user="haupty" changeset="261684">
    <nd ref="61779144"/>
    <nd ref="61779145"/>
    <nd ref="61779146"/>
    <nd ref="288080213"/>
    <nd ref="288080238"/>
    <nd ref="61779148"/>
    <nd ref="61779149"/>
    <nd ref="61779152"/>
    <nd ref="61779153"/>
    <tag k="created_by" v="dk3qu"/>
    <tag k="highway" v="secondary"/>
    <tag k="name" v="Ewaldstraße"/>
    <tag k="ref" v="K43"/>
  </way>
  <way id="8658280" version="9" timestamp="2008-08-15T19:39:46Z" uid="57006" user="haupty" changeset="271247">
    <nd ref="61779144"/>
    <nd ref="61779145"/>
    <nd ref="61779146"/>
    <nd ref="288290416"/>
    <nd ref="288080213"/>
    <nd ref="288080238"/>
    <nd ref="61779148"/>
    <nd ref="61779149"/>
    <nd ref="61779152"/>
    <nd ref="61779153"/>
    <tag k="created_by" v="dk3qu"/>
    <tag k="highway" v="secondary"/>
    <tag k="name" v="Ewaldstraße"/>
    <tag k="ref" v="K43"/>
  </way>
  <way id="8658280" version="10" timestamp="2008-09-16T16:30:28Z" uid="31059" user="DaBear" changeset="647556">
    <nd ref="61779144"/>
    <nd ref="61779145"/>
    <nd ref="61779146"/>
    <nd ref="288290416"/>
    <nd ref="288080213"/>
    <nd ref="288080238"/>
    <nd ref="61779148"/>
    <nd ref="61779149"/>
    <nd ref="61779152"/>
    <nd ref="61779153"/>
    <tag k="created_by" v="dk3qu"/>
    <tag k="highway" v="secondary"/>
    <tag k="name" v="Ewaldstraße"/>
    <tag k="ref" v="K 43"/>
  </way>
  <way id="8658280" version="11" timestamp="2009-01-08T12:03:05Z" uid="51131" user="cmohrki" changeset="755832">
    <nd ref="61779144"/>
    <nd ref="61779145"/>
    <nd ref="61779146"/>
    <nd ref="288290416"/>
    <nd ref="330183246"/>
    <nd ref="288080213"/>
    <nd ref="288080238"/>
    <nd ref="61779148"/>
    <nd ref="61779149"/>
    <nd ref="61779152"/>
    <nd ref="61779153"/>
    <tag k="created_by" v="dk3qu"/>
    <tag k="highway" v="secondary"/>
    <tag k="name" v="Ewaldstraße"/>
    <tag k="ref" v="K 43"/>
  </way>
  <way id="8658280" version="12" timestamp="2011-03-04T11:03:14Z" uid="31602" user="crazy-rat" changeset="7453384">
    <nd ref="61779144"/>
    <nd ref="61779145"/>
    <nd ref="61779146"/>
    <nd ref="288290416"/>
    <nd ref="330183246"/>
    <nd ref="288080213"/>
    <nd ref="288080238"/>
    <nd ref="61779148"/>
    <nd ref="61779149"/>
    <nd ref="61779152"/>
    <nd ref="61779153"/>
    <tag k="highway" v="tertiary"/>
    <tag k="name" v="Ewaldstraße"/>
    <tag k="ref" v="K 43"/>
  </way>
  <way id="8658280" version="13" timestamp="2011-04-27T08:01:53Z" uid="31602" user="crazy-rat" changeset="7982466">
    <nd ref="61779144"/>
    <nd ref="61779145"/>
    <nd ref="61779146"/>
    <nd ref="288290416"/>
    <tag k="highway" v="tertiary"/>
    <tag k="maxspeed" v="30"/>
    <tag k="name" v="Ewaldstraße"/>
    <tag k="ref" v="K 43"/>
  </way>
  <way id="8658280" version="14" timestamp="2012-03-21T23:45:21Z" uid="260151" user="morryis" changeset="11058371"/>
  <way id="8658355" version="3" timestamp="2008-04-18T20:54:21Z" uid="16579" user="bjk" changeset="181794">
    <nd ref="60509259"/>
    <nd ref="258407649"/>
    <nd ref="60518107"/>
    <nd ref="61782637"/>
    <nd ref="61782610"/>
    <nd ref="60509260"/>
    <tag k="created_by" v="Potlatch 0.7b"/>
    <tag k="highway" v="tertiary"/>
    <tag k="name" v="Hans-Schulten-Straße"/>
  </way>
  <way id="8658355" version="4" timestamp="2008-07-15T22:16:46Z" uid="16579" user="bjk" changeset="507070">
    <nd ref="60509259"/>
    <nd ref="258407649"/>
    <nd ref="60518107"/>
    <nd ref="278842591"/>
    <nd ref="61782637"/>
    <nd ref="61782610"/>
    <tag k="created_by" v="Potlatch 0.7b"/>
    <tag k="highway" v="tertiary"/>
    <tag k="name" v="Hans-Schulten-Straße"/>
  </way>
  <way id="8658355" version="5" timestamp="2009-06-21T20:20:09Z" uid="64516" user="Astoreg" changeset="1588205">
    <nd ref="60509259"/>
    <nd ref="258407649"/>
    <nd ref="60518107"/>
    <nd ref="278842591"/>
    <nd ref="61782637"/>
    <nd ref="61782610"/>
    <tag k="bicycle" v="no"/>
    <tag k="created_by" v="Potlatch 0.7b"/>
    <tag k="foot" v="no"/>
    <tag k="highway" v="tertiary"/>
    <tag k="name" v="Hans-Schulten-Straße"/>
  </way>
  <way id="8658355" version="6" timestamp="2010-07-25T11:24:56Z" uid="266838" user="sublevel7" changeset="5310949">
    <nd ref="60509259"/>
    <nd ref="258407649"/>
    <nd ref="60518107"/>
    <nd ref="278842591"/>
    <nd ref="832548327"/>
    <nd ref="61782637"/>
    <nd ref="61782610"/>
    <tag k="bicycle" v="no"/>
    <tag k="created_by" v="Potlatch 0.7b"/>
    <tag k="foot" v="no"/>
    <tag k="highway" v="tertiary"/>
    <tag k="name" v="Hans-Schulten-Straße"/>
  </way>
  <way id="8658355" version="7" timestamp="2011-11-04T22:14:55Z" uid="161619" user="FvGordon" changeset="9742596">
    <nd ref="60509259"/>
    <nd ref="258407649"/>
    <nd ref="60518107"/>
    <tag k="bicycle" v="no"/>
    <tag k="foot" v="no"/>
    <tag k="highway" v="tertiary"/>
    <tag k="name" v="Hans-Schulten-Straße"/>
  </way>
  <way id="8658355" version="8" timestamp="2012-01-15T13:42:00Z" uid="116044" user="berndw" changeset="10398005"/>
  <way id="8658408" version="2" timestamp="2007-10-11T08:10:33Z" uid="5871" user="Banny" changeset="99957">
    <nd ref="60521399"/>
    <nd ref="60521387"/>
    <tag k="created_by" v="Potlatch alpha"/>
    <tag k="railway" v="tram"/>
  </way>
  <way id="8658408" version="3" timestamp="2011-10-07T23:01:59Z" uid="39890" user="AJoNee" changeset="9498468"/>
  <way id="8658409" version="2" timestamp="2007-10-11T08:10:34Z" uid="5871" user="Banny" changeset="99957">
    <nd ref="60521399"/>
    <nd ref="61784878"/>
    <tag k="created_by" v="Potlatch alpha"/>
    <tag k="railway" v="tram"/>
  </way>
  <way id="8658409" version="3" timestamp="2011-10-07T23:01:59Z" uid="39890" user="AJoNee" changeset="9498468"/>
  <way id="8658427" version="2" timestamp="2008-07-05T18:29:16Z" uid="6975" user="ulfl" changeset="398437">
    <nd ref="61785238"/>
    <nd ref="61785239"/>
    <nd ref="61785240"/>
    <nd ref="61785241"/>
    <nd ref="61785238"/>
    <tag k="leisure" v="pitch"/>
  </way>
</osm>
