<?xml version='1.0' encoding='UTF-8'?>
<osm version="0.6" generator="libosmium/2.20.0">
  <way id="8659039" version="11" timestamp="2010-02-14T17:06:13Z" uid="74617" user="JohnSmith" changeset="3875836">
    <nd ref="254024804"/>
    <nd ref="61787071"/>
    <nd ref="61787198"/>
    <nd ref="61787140"/>
    <tag k="highway" v="residential"/>
    <tag k="maxspeed" v="50"/>
    <tag k="name" v="Wellington Road"/>
  </way>
  <way id="8659039" version="12" timestamp="2010-05-03T07:51:07Z" uid="71283" user="James Livingston" changeset="4592029">
    <nd ref="254024804"/>
    <nd ref="61787071"/>
    <tag k="highway" v="residential"/>
    <tag k="maxspeed" v="50"/>
    <tag k="name" v="Wellington Road"/>
  </way>
  <way id="8659039" version="13" timestamp="2012-01-15T07:57:29Z" uid="147510" user="woodpeck_fixbot" changeset="10394821">
    <nd ref="254024804"/>
    <nd ref="61787071"/>
    <tag k="highway" v="residential"/>
    <tag k="name" v="Wellington Road"/>
  </way>
  <way id="8659041" version="7" timestamp="2010-02-14T17:06:14Z" uid="74617" user="JohnSmith" changeset="3875836">
    <nd ref="61787198"/>
    <nd ref="61787240"/>
    <nd ref="61787363"/>
    <nd ref="278702253"/>
    <nd ref="61787241"/>
    <tag k="highway" v="residential"/>
    <tag k="maxspeed" v="50"/>
    <tag k="name" v="Cambridge Street"/>
  </way>
  <way id="8659041" version="8" timestamp="2012-01-15T07:57:30Z" uid="147510" user="woodpeck_fixbot" changeset="10394821">
    <nd ref="61787198"/>
    <nd ref="61787240"/>
    <nd ref="61787363"/>
    <nd ref="278702253"/>
    <nd ref="61787241"/>
    <tag k="highway" v="residential"/>
    <tag k="name" v="Cambridge Street"/>
  </way>
  <way id="8659045" version="7" timestamp="2010-02-14T17:06:17Z" uid="74617" user="JohnSmith" changeset="3875836">
    <nd ref="83221774"/>
    <nd ref="61787320"/>
    <nd ref="61787241"/>
    <nd ref="61787321"/>
    <tag k="highway" v="residential"/>
    <tag k="maxspeed" v="50"/>
    <tag k="name" v="Elston Street"/>
  </way>
  <way id="8659045" version="8" timestamp="2012-01-15T07:57:31Z" uid="147510" user="woodpeck_fixbot" changeset="10394821">
    <nd ref="83221774"/>
    <nd ref="61787320"/>
    <nd ref="61787241"/>
    <nd ref="61787321"/>
    <tag k="highway" v="residential"/>
    <tag k="name" v="Elston Street"/>
  </way>
  <way id="8659050" version="8" timestamp="2010-02-14T17:06:17Z" uid="74617" user="JohnSmith" changeset="3875836">
    <nd ref="61787363"/>
    <nd ref="93646377"/>
    <tag k="highway" v="residential"/>
    <tag k="maxspeed" v="50"/>
    <tag k="name" v="Stoneleigh Street"/>
  </way>
  <way id="8659050" version="9" timestamp="2012-01-15T07:57:32Z" uid="147510" user="woodpeck_fixbot" changeset="10394821">
    <nd ref="61787363"/>
    <nd ref="93646377"/>
    <tag k="highway" v="residential"/>
    <tag k="name" v="Stoneleigh Street"/>
  </way>
  <way id="8659052" version="4" timestamp="2010-02-14T17:06:05Z" uid="74617" user="JohnSmith" changeset="3875836">
    <nd ref="61787669"/>
    <nd ref="61787677"/>
    <tag k="highway" v="residential"/>
    <tag k="maxspeed" v="50"/>
    <tag k="name" v="Mullin Street"/>
  </way>
  <way id="8659052" version="5" timestamp="2012-01-15T07:57:34Z" uid="147510" user="woodpeck_fixbot" changeset="10394821">
    <nd ref="61787669"/>
    <nd ref="61787677"/>
    <tag k="highway" v="residential"/>
    <tag k="name" v="Mullin Street"/>
  </way>
  <way id="8659058" version="5" timestamp="2010-02-14T17:05:41Z" uid="74617" user="JohnSmith" changeset="3875836">
    <nd ref="61787141"/>
    <nd ref="61787925"/>
    <nd ref="61787926"/>
    <nd ref="93638746"/>
    <nd ref="61680245"/>
    <tag k="highway" v="residential"/>
    <tag k="maxspeed" v="50"/>
    <tag k="name" v="Doyle Street"/>
  </way>
  <way id="8659058" version="6" timestamp="2011-04-14T09:28:17Z" uid="129262" user="ElderKorean" changeset="7858747">
    <nd ref="61787141"/>
    <nd ref="61787925"/>
    <nd ref="1244186923"/>
    <nd ref="61787926"/>
    <nd ref="93638746"/>
    <nd ref="61680245"/>
    <tag k="highway" v="residential"/>
    <tag k="maxspeed" v="50"/>
    <tag k="name" v="Doyle Street"/>
  </way>
  <way id="8659058" version="7" timestamp="2012-01-15T07:57:35Z" uid="147510" user="woodpeck_fixbot" changeset="10394821">
    <nd ref="61787141"/>
    <nd ref="61787925"/>
    <nd ref="1244186923"/>
    <nd ref="61787926"/>
    <nd ref="93638746"/>
    <nd ref="61680245"/>
    <tag k="highway" v="residential"/>
    <tag k="name" v="Doyle Street"/>
  </way>
  <way id="8659061" version="4" timestamp="2010-02-14T17:05:41Z" uid="74617" user="JohnSmith" changeset="3875836">
    <nd ref="61787991"/>
    <nd ref="61788011"/>
    <nd ref="61788012"/>
    <tag k="highway" v="residential"/>
    <tag k="maxspeed" v="50"/>
    <tag k="name" v="Horsfall Street"/>
  </way>
  <way id="8659061" version="5" timestamp="2012-01-15T07:57:36Z" uid="147510" user="woodpeck_fixbot" changeset="10394821">
    <nd ref="61787991"/>
    <nd ref="61788011"/>
    <nd ref="61788012"/>
    <tag k="highway" v="residential"/>
    <tag k="name" v="Horsfall Street"/>
  </way>
  <way id="8659062" version="4" timestamp="2010-02-14T17:05:41Z" uid="74617" user="JohnSmith" changeset="3875836">
    <nd ref="61787925"/>
    <nd ref="61788011"/>
    <nd ref="61788099"/>
    <nd ref="61788100"/>
    <nd ref="61788101"/>
    <nd ref="61788102"/>
    <tag k="highway" v="residential"/>
    <tag k="maxspeed" v="50"/>
    <tag k="name" v="Plunkett Street"/>
  </way>
  <way id="8659062" version="5" timestamp="2012-01-15T07:57:38Z" uid="147510" user="woodpeck_fixbot" changeset="10394821">
    <nd ref="61787925"/>
    <nd ref="61788011"/>
    <nd ref="61788099"/>
    <nd ref="61788100"/>
    <nd ref="61788101"/>
    <nd ref="61788102"/>
    <tag k="highway" v="residential"/>
    <tag k="name" v="Plunkett Street"/>
  </way>
  <way id="8659066" version="6" timestamp="2010-02-14T17:05:50Z" uid="74617" user="JohnSmith" changeset="3875836">
    <nd ref="61788162"/>
    <nd ref="61788163"/>
    <nd ref="254025502"/>
    <tag k="highway" v="residential"/>
    <tag k="maxspeed" v="50"/>
    <tag k="name" v="Charteris Street"/>
  </way>
  <way id="8659066" version="7" timestamp="2012-01-15T07:57:39Z" uid="147510" user="woodpeck_fixbot" changeset="10394821">
    <nd ref="61788162"/>
    <nd ref="61788163"/>
    <nd ref="254025502"/>
    <tag k="highway" v="residential"/>
    <tag k="name" v="Charteris Street"/>
  </way>
  <way id="8659071" version="6" timestamp="2010-02-14T17:05:40Z" uid="74617" user="JohnSmith" changeset="3875836">
    <nd ref="61787651"/>
    <nd ref="61787650"/>
    <nd ref="61787626"/>
    <nd ref="61787926"/>
    <nd ref="61788259"/>
    <nd ref="61788012"/>
    <nd ref="61788260"/>
    <nd ref="61788261"/>
    <nd ref="61788262"/>
    <nd ref="61788263"/>
    <nd ref="61788264"/>
    <tag k="highway" v="tertiary"/>
    <tag k="name" v="Charlotte Street"/>
  </way>
  <way id="8659071" version="7" timestamp="2011-04-14T09:28:18Z" uid="129262" user="ElderKorean" changeset="7858747">
    <nd ref="61787651"/>
    <nd ref="61787650"/>
    <nd ref="61787626"/>
    <nd ref="1244186923"/>
    <tag k="highway" v="tertiary"/>
    <tag k="name" v="Charlotte Street"/>
  </way>
  <way id="8659072" version="4" timestamp="2010-02-14T17:06:02Z" uid="74617" user="JohnSmith" changeset="3875836">
    <nd ref="61788259"/>
    <nd ref="61680247"/>
    <tag k="highway" v="residential"/>
    <tag k="maxspeed" v="50"/>
    <tag k="name" v="Alexandra Street"/>
  </way>
  <way id="8659072" version="5" timestamp="2012-01-15T07:57:40Z" uid="147510" user="woodpeck_fixbot" changeset="10394821">
    <nd ref="61788259"/>
    <nd ref="61680247"/>
    <tag k="highway" v="residential"/>
    <tag k="name" v="Alexandra Street"/>
  </way>
  <way id="8659073" version="6" timestamp="2008-07-14T16:06:12Z" uid="16579" user="bjk" changeset="486019">
    <nd ref="60966849"/>
    <nd ref="60966850"/>
    <nd ref="60966851"/>
    <nd ref="60966852"/>
    <nd ref="60966853"/>
    <nd ref="278506510"/>
    <nd ref="60966854"/>
    <nd ref="71567277"/>
    <nd ref="60966855"/>
    <nd ref="60966856"/>
    <nd ref="60966857"/>
    <nd ref="71578237"/>
    <nd ref="60966858"/>
    <nd ref="60966859"/>
    <tag k="created_by" v="Potlatch 0.8a"/>
    <tag k="highway" v="tertiary"/>
    <tag k="name" v="Alter Deutzer Postweg"/>
  </way>
  <way id="8659073" version="7" timestamp="2008-08-09T20:29:03Z" uid="49946" user="goulex" changeset="159640">
    <nd ref="60966849"/>
    <nd ref="60966850"/>
    <nd ref="286565381"/>
    <nd ref="60966851"/>
    <nd ref="60966852"/>
    <nd ref="60966853"/>
    <nd ref="278506510"/>
    <nd ref="60966854"/>
    <nd ref="71567277"/>
    <nd ref="60966855"/>
    <nd ref="60966856"/>
    <nd ref="60966857"/>
    <nd ref="71578237"/>
    <nd ref="60966858"/>
    <nd ref="60966859"/>
    <tag k="created_by" v="Potlatch 0.8a"/>
    <tag k="highway" v="tertiary"/>
    <tag k="name" v="Alter Deutzer Postweg"/>
  </way>
  <way id="8659073" version="8" timestamp="2008-08-31T21:12:52Z" uid="13308" user="Udo" changeset="481613">
    <nd ref="60966849"/>
    <nd ref="60966850"/>
    <nd ref="286565381"/>
    <nd ref="60966851"/>
    <nd ref="60966852"/>
    <nd ref="60966853"/>
    <nd ref="278506510"/>
    <nd ref="60966854"/>
    <nd ref="292732884"/>
    <nd ref="71567277"/>
    <nd ref="60966855"/>
    <nd ref="60966856"/>
    <nd ref="292732885"/>
    <nd ref="60966857"/>
    <nd ref="71578237"/>
    <nd ref="60966858"/>
    <nd ref="60966859"/>
    <tag k="created_by" v="Potlatch 0.10b"/>
    <tag k="highway" v="tertiary"/>
    <tag k="name" v="Alter Deutzer Postweg"/>
  </way>
  <way id="8659073" version="9" timestamp="2010-03-07T19:28:26Z" uid="116044" user="berndw" changeset="4065272">
    <nd ref="60966849"/>
    <nd ref="60966850"/>
    <nd ref="286565381"/>
    <nd ref="60966851"/>
    <nd ref="60966852"/>
    <nd ref="60966853"/>
    <nd ref="278506510"/>
    <nd ref="60966854"/>
    <nd ref="292732884"/>
    <nd ref="71567277"/>
    <nd ref="60966855"/>
    <nd ref="60966856"/>
    <nd ref="292732885"/>
    <nd ref="60966857"/>
    <nd ref="71578237"/>
    <nd ref="60966858"/>
    <nd ref="60966859"/>
    <tag k="highway" v="tertiary"/>
    <tag k="maxspeed" v="50"/>
    <tag k="name" v="Alter Deutzer Postweg"/>
  </way>
  <way id="8659073" version="10" timestamp="2010-08-31T16:27:31Z" uid="266838" user="sublevel7" changeset="5646851">
    <nd ref="60966849"/>
    <nd ref="60966850"/>
    <nd ref="286565381"/>
    <nd ref="60966851"/>
    <nd ref="890618646"/>
    <nd ref="890618523"/>
    <nd ref="60966852"/>
    <nd ref="60966853"/>
    <nd ref="278506510"/>
    <nd ref="60966854"/>
    <nd ref="890618167"/>
    <nd ref="292732884"/>
    <nd ref="71567277"/>
    <nd ref="60966855"/>
    <nd ref="60966856"/>
    <nd ref="292732885"/>
    <nd ref="890618137"/>
    <nd ref="60966857"/>
    <nd ref="71578237"/>
    <nd ref="60966858"/>
    <nd ref="60966859"/>
    <tag k="highway" v="tertiary"/>
    <tag k="maxspeed" v="50"/>
    <tag k="name" v="Alter Deutzer Postweg"/>
  </way>
  <way id="8659073" version="11" timestamp="2010-11-16T16:19:43Z" uid="116044" user="berndw" changeset="6386133">
    <nd ref="60966849"/>
    <nd ref="60966850"/>
    <nd ref="286565381"/>
    <nd ref="60966851"/>
    <nd ref="890618646"/>
    <nd ref="890618523"/>
    <nd ref="60966852"/>
    <nd ref="60966853"/>
    <nd ref="278506510"/>
    <nd ref="60966854"/>
    <nd ref="890618167"/>
    <nd ref="292732884"/>
    <nd ref="71567277"/>
    <nd ref="60966855"/>
    <nd ref="60966856"/>
    <nd ref="292732885"/>
    <nd ref="890618137"/>
    <nd ref="60966857"/>
    <tag k="highway" v="tertiary"/>
    <tag k="maxspeed" v="50"/>
    <tag k="name" v="Alter Deutzer Postweg"/>
  </way>
  <way id="8659073" version="12" timestamp="2011-10-08T10:15:27Z" uid="116044" user="berndw" changeset="9500944"/>
  <way id="8659075" version="3" timestamp="2010-02-14T17:06:02Z" uid="74617" user="JohnSmith" changeset="3875836">
    <nd ref="61788260"/>
    <nd ref="61680249"/>
    <tag k="highway" v="residential"/>
    <tag k="maxspeed" v="50"/>
    <tag k="name" v="Princess Street"/>
  </way>
  <way id="8659075" version="4" timestamp="2012-01-15T07:57:41Z" uid="147510" user="woodpeck_fixbot" changeset="10394821">
    <nd ref="61788260"/>
    <nd ref="61680249"/>
    <tag k="highway" v="residential"/>
    <tag k="name" v="Princess Street"/>
  </way>
  <way id="8659077" version="3" timestamp="2010-02-14T17:05:39Z" uid="74617" user="JohnSmith" changeset="3875836">
    <nd ref="61788099"/>
    <nd ref="61788261"/>
    <nd ref="61788423"/>
    <nd ref="61680251"/>
    <tag k="highway" v="residential"/>
    <tag k="maxspeed" v="50"/>
    <tag k="name" v="Martha Street"/>
  </way>
  <way id="8659077" version="4" timestamp="2012-01-15T07:57:43Z" uid="147510" user="woodpeck_fixbot" changeset="10394821">
    <nd ref="61788099"/>
    <nd ref="61788261"/>
    <nd ref="61788423"/>
    <nd ref="61680251"/>
    <tag k="highway" v="residential"/>
    <tag k="name" v="Martha Street"/>
  </way>
  <way id="8659078" version="6" timestamp="2010-02-14T17:05:39Z" uid="74617" user="JohnSmith" changeset="3875836">
    <nd ref="61788480"/>
    <nd ref="61788423"/>
    <nd ref="61788481"/>
    <nd ref="254026222"/>
    <tag k="highway" v="residential"/>
    <tag k="maxspeed" v="50"/>
    <tag k="name" v="Bowler Street"/>
  </way>
  <way id="8659078" version="7" timestamp="2012-01-15T07:57:44Z" uid="147510" user="woodpeck_fixbot" changeset="10394821">
    <nd ref="61788480"/>
    <nd ref="61788423"/>
    <nd ref="61788481"/>
    <nd ref="254026222"/>
    <tag k="highway" v="residential"/>
    <tag k="name" v="Bowler Street"/>
  </way>
  <way id="8659080" version="13" timestamp="2010-02-14T17:05:40Z" uid="74617" user="JohnSmith" changeset="3875836">
    <nd ref="61680254"/>
    <nd ref="61788481"/>
    <nd ref="61788262"/>
    <nd ref="61788100"/>
    <nd ref="254025503"/>
    <nd ref="61788164"/>
    <nd ref="61788626"/>
    <tag k="highway" v="tertiary"/>
    <tag k="name" v="Great George Street"/>
  </way>
  <way id="8659086" version="4" timestamp="2010-02-14T17:05:40Z" uid="74617" user="JohnSmith" changeset="3875836">
    <nd ref="61680256"/>
    <nd ref="61788710"/>
    <nd ref="61788263"/>
    <nd ref="61788101"/>
    <nd ref="61788163"/>
    <nd ref="61788711"/>
    <tag k="highway" v="residential"/>
    <tag k="maxspeed" v="50"/>
    <tag k="name" v="Hayward Street"/>
  </way>
  <way id="8659086" version="5" timestamp="2012-01-15T07:57:46Z" uid="147510" user="woodpeck_fixbot" changeset="10394821">
    <nd ref="61680256"/>
    <nd ref="61788710"/>
    <nd ref="61788263"/>
    <nd ref="61788101"/>
    <nd ref="61788163"/>
    <nd ref="61788711"/>
    <tag k="highway" v="residential"/>
    <tag k="name" v="Hayward Street"/>
  </way>
  <way id="8659088" version="7" timestamp="2010-02-14T17:05:39Z" uid="74617" user="JohnSmith" changeset="3875836">
    <nd ref="93646380"/>
    <nd ref="61788626"/>
    <tag k="highway" v="steps"/>
  </way>
  <way id="8659092" version="10" timestamp="2010-02-14T17:05:55Z" uid="74617" user="JohnSmith" changeset="3875836">
    <nd ref="254025633"/>
    <nd ref="254025632"/>
    <nd ref="254025637"/>
    <nd ref="61789026"/>
    <tag k="highway" v="residential"/>
    <tag k="maxspeed" v="50"/>
    <tag k="name" v="Cook Street"/>
  </way>
  <way id="8659092" version="11" timestamp="2012-01-15T07:57:47Z" uid="147510" user="woodpeck_fixbot" changeset="10394821">
    <nd ref="254025633"/>
    <nd ref="254025632"/>
    <nd ref="254025637"/>
    <nd ref="61789026"/>
    <tag k="highway" v="residential"/>
    <tag k="name" v="Cook Street"/>
  </way>
  <way id="8659096" version="5" timestamp="2010-02-14T17:06:44Z" uid="74617" user="JohnSmith" changeset="3875836">
    <nd ref="61789314"/>
    <nd ref="61789101"/>
    <tag k="highway" v="residential"/>
    <tag k="maxspeed" v="50"/>
    <tag k="name" v="Broadway Street"/>
  </way>
  <way id="8659096" version="6" timestamp="2012-01-15T07:57:48Z" uid="147510" user="woodpeck_fixbot" changeset="10394821">
    <nd ref="61789314"/>
    <nd ref="61789101"/>
    <tag k="highway" v="residential"/>
    <tag k="name" v="Broadway Street"/>
  </way>
  <way id="8659118" version="6" timestamp="2010-02-14T17:05:40Z" uid="74617" user="JohnSmith" changeset="3875836">
    <nd ref="61789357"/>
    <nd ref="436193213"/>
    <nd ref="61789100"/>
    <nd ref="254025307"/>
    <nd ref="254025326"/>
    <nd ref="254025306"/>
    <tag k="highway" v="residential"/>
    <tag k="maxspeed" v="50"/>
    <tag k="name" v="Craig Street"/>
  </way>
  <way id="8659118" version="7" timestamp="2010-05-04T10:09:18Z" uid="71283" user="James Livingston" changeset="4602880">
    <nd ref="61789357"/>
    <nd ref="436193213"/>
    <nd ref="61789100"/>
    <tag k="highway" v="residential"/>
    <tag k="maxspeed" v="50"/>
    <tag k="name" v="Craig Street"/>
  </way>
  <way id="8659118" version="8" timestamp="2012-01-15T07:57:49Z" uid="147510" user="woodpeck_fixbot" changeset="10394821">
    <nd ref="61789357"/>
    <nd ref="436193213"/>
    <nd ref="61789100"/>
    <tag k="highway" v="residential"/>
    <tag k="name" v="Craig Street"/>
  </way>
  <way id="8659134" version="15" timestamp="2010-02-14T17:05:54Z" uid="74617" user="JohnSmith" changeset="3875836">
    <nd ref="61789429"/>
    <nd ref="61788483"/>
    <nd ref="279254960"/>
    <tag k="highway" v="tertiary"/>
    <tag k="name" v="Cochrane Street"/>
  </way>
  <way id="8659137" version="4" timestamp="2010-02-14T17:06:44Z" uid="74617" user="JohnSmith" changeset="3875836">
    <nd ref="61789668"/>
    <nd ref="61678986"/>
    <tag k="highway" v="residential"/>
    <tag k="maxspeed" v="50"/>
    <tag k="name" v="Jay Street"/>
  </way>
  <way id="8659137" version="5" timestamp="2010-04-25T02:55:12Z" uid="71283" user="James Livingston" changeset="4517367">
    <nd ref="61789668"/>
    <nd ref="61678986"/>
    <tag k="comment" v="Lang Park Traffic Area"/>
    <tag k="highway" v="residential"/>
    <tag k="maxspeed" v="50"/>
    <tag k="name" v="Jay Street"/>
  </way>
  <way id="8659137" version="6" timestamp="2012-01-15T07:57:50Z" uid="147510" user="woodpeck_fixbot" changeset="10394821">
    <nd ref="61789668"/>
    <nd ref="61678986"/>
    <tag k="comment" v="Lang Park Traffic Area"/>
    <tag k="highway" v="residential"/>
    <tag k="name" v="Jay Street"/>
  </way>
  <way id="8659138" version="4" timestamp="2010-02-14T17:05:29Z" uid="74617" user="JohnSmith" changeset="3875836">
    <nd ref="61789731"/>
    <nd ref="61678988"/>
    <tag k="highway" v="residential"/>
    <tag k="maxspeed" v="50"/>
    <tag k="name" v="Nott Street"/>
  </way>
  <way id="8659138" version="5" timestamp="2010-04-25T02:55:12Z" uid="71283" user="James Livingston" changeset="4517367">
    <nd ref="61789731"/>
    <nd ref="705720548"/>
    <nd ref="61678988"/>
    <tag k="comment" v="Lang Park Traffic Area"/>
    <tag k="highway" v="residential"/>
    <tag k="maxspeed" v="50"/>
    <tag k="name" v="Nott Street"/>
  </way>
  <way id="8659138" version="6" timestamp="2012-01-15T07:57:52Z" uid="147510" user="woodpeck_fixbot" changeset="10394821">
    <nd ref="61789731"/>
    <nd ref="705720548"/>
    <nd ref="61678988"/>
    <tag k="comment" v="Lang Park Traffic Area"/>
    <tag k="highway" v="residential"/>
    <tag k="name" v="Nott Street"/>
  </way>
  <way id="8659143" version="3" timestamp="2010-02-14T17:05:55Z" uid="74617" user="JohnSmith" changeset="3875836">
    <nd ref="61789796"/>
    <nd ref="61678989"/>
    <tag k="highway" v="residential"/>
    <tag k="maxspeed" v="50"/>
    <tag k="name" v="Surrey Street"/>
  </way>
  <way id="8659143" version="4" timestamp="2010-04-25T02:55:11Z" uid="71283" user="James Livingston" changeset="4517367">
    <nd ref="61789796"/>
    <nd ref="61678989"/>
    <tag k="comment" v="Lang Park Traffic Area"/>
    <tag k="highway" v="residential"/>
    <tag k="maxspeed" v="50"/>
    <tag k="name" v="Surrey Street"/>
  </way>
  <way id="8659143" version="5" timestamp="2012-01-15T07:57:53Z" uid="147510" user="woodpeck_fixbot" changeset="10394821">
    <nd ref="61789796"/>
    <nd ref="61678989"/>
    <tag k="comment" v="Lang Park Traffic Area"/>
    <tag k="highway" v="residential"/>
    <tag k="name" v="Surrey Street"/>
  </way>
  <way id="8659144" version="4" timestamp="2010-02-14T17:05:55Z" uid="74617" user="JohnSmith" changeset="3875836">
    <nd ref="61678990"/>
    <nd ref="61789873"/>
    <tag k="highway" v="residential"/>
    <tag k="maxspeed" v="50"/>
    <tag k="name" v="Pitt Street"/>
  </way>
  <way id="8659144" version="5" timestamp="2012-01-15T07:57:57Z" uid="147510" user="woodpeck_fixbot" changeset="10394821">
    <nd ref="61678990"/>
    <nd ref="61789873"/>
    <tag k="highway" v="residential"/>
    <tag k="name" v="Pitt Street"/>
  </way>
  <way id="8659146" version="7" timestamp="2010-02-14T17:05:50Z" uid="74617" user="JohnSmith" changeset="3875836">
    <nd ref="61789921"/>
    <nd ref="61789873"/>
    <nd ref="279254838"/>
    <nd ref="61789967"/>
    <nd ref="61789922"/>
    <tag k="highway" v="residential"/>
    <tag k="maxspeed" v="50"/>
    <tag k="name" v="View Street"/>
  </way>
  <way id="8659146" version="8" timestamp="2012-01-15T07:57:58Z" uid="147510" user="woodpeck_fixbot" changeset="10394821">
    <nd ref="61789921"/>
    <nd ref="61789873"/>
    <nd ref="279254838"/>
    <nd ref="61789967"/>
    <nd ref="61789922"/>
    <tag k="highway" v="residential"/>
    <tag k="name" v="View Street"/>
  </way>
  <way id="8659220" version="6" timestamp="2010-02-14T17:05:54Z" uid="74617" user="JohnSmith" changeset="3875836">
    <nd ref="61789967"/>
    <nd ref="279255211"/>
    <tag k="highway" v="service"/>
    <tag k="maxspeed" v="50"/>
    <tag k="name" v="View Street"/>
  </way>
  <way id="8659220" version="7" timestamp="2012-01-15T07:57:59Z" uid="147510" user="woodpeck_fixbot" changeset="10394821">
    <nd ref="61789967"/>
    <nd ref="279255211"/>
    <tag k="highway" v="service"/>
    <tag k="name" v="View Street"/>
  </way>
  <way id="8659386" version="19" timestamp="2010-02-14T17:05:52Z" uid="74617" user="JohnSmith" changeset="3875836">
    <nd ref="61680265"/>
    <nd ref="295879851"/>
    <nd ref="152498734"/>
    <tag k="highway" v="tertiary"/>
    <tag k="name" v="Ellena Street"/>
  </way>
  <way id="8659386" version="20" timestamp="2010-04-18T01:00:11Z" uid="71283" user="James Livingston" changeset="4453553">
    <nd ref="61680265"/>
    <nd ref="700498728"/>
    <nd ref="295879851"/>
    <nd ref="152498734"/>
    <tag k="highway" v="tertiary"/>
    <tag k="name" v="Ellena Street"/>
  </way>
  <way id="8659386" version="21" timestamp="2010-04-25T03:10:08Z" uid="71283" user="James Livingston" changeset="4517367">
    <nd ref="61680265"/>
    <nd ref="700498728"/>
    <nd ref="295879851"/>
    <nd ref="152498734"/>
    <tag k="comment" v="local traffic area"/>
    <tag k="highway" v="tertiary"/>
    <tag k="maxspeed" v="40"/>
    <tag k="name" v="Ellena Street"/>
  </way>
  <way id="8659386" version="22" timestamp="2011-01-18T11:15:53Z" uid="65103" user="pendethan" changeset="7009274">
    <nd ref="61680265"/>
    <nd ref="700498728"/>
    <nd ref="295879851"/>
    <nd ref="1108878603"/>
    <nd ref="152498734"/>
    <tag k="comment" v="local traffic area"/>
    <tag k="highway" v="tertiary"/>
    <tag k="maxspeed" v="40"/>
    <tag k="name" v="Ellena Street"/>
  </way>
  <way id="8659456" version="5" timestamp="2009-10-08T23:00:34Z" uid="179968" user="Ich_hasse_doitsche_OSM-Korinthenkacker" changeset="2788677">
    <nd ref="61196541"/>
    <nd ref="61198590"/>
    <tag k="highway" v="residential"/>
    <tag k="name" v="Kattrepel"/>
  </way>
  <way id="8659531" version="2" timestamp="2009-10-08T23:00:37Z" uid="179968" user="Ich_hasse_doitsche_OSM-Korinthenkacker" changeset="2788677">
    <nd ref="61795746"/>
    <nd ref="61795747"/>
    <nd ref="61795748"/>
    <nd ref="61795749"/>
    <nd ref="61795750"/>
    <nd ref="61795751"/>
    <tag k="highway" v="service"/>
    <tag k="name" v="Hafenstraße"/>
  </way>
  <way id="8659531" version="3" timestamp="2011-02-23T10:58:38Z" uid="60508" user="GomanGorson" changeset="7371309">
    <nd ref="61795746"/>
    <nd ref="61795747"/>
    <nd ref="61795748"/>
    <nd ref="61795749"/>
    <nd ref="1167939930"/>
    <nd ref="61795750"/>
    <nd ref="61795751"/>
    <tag k="highway" v="service"/>
    <tag k="name" v="Hafenstraße"/>
  </way>
</osm>
