<?xml version='1.0' encoding='UTF-8'?>
<osm version="0.6" generator="libosmium/2.20.0">
  <way id="86632707" version="2" timestamp="2011-01-22T16:42:15Z" uid="4467" user="Rosscoe" changeset="7052148">
    <nd ref="156197545"/>
    <nd ref="155964166"/>
    <nd ref="155964137"/>
    <nd ref="155964101"/>
    <nd ref="155964061"/>
    <nd ref="155964000"/>
    <nd ref="155963978"/>
    <nd ref="955973853"/>
    <tag k="highway" v="trunk"/>
    <tag k="maxspeed" v="70"/>
    <tag k="name" v="New England Highway"/>
    <tag k="source" v="survey"/>
    <tag k="surface" v="asphalt"/>
  </way>
  <way id="86632707" version="3" timestamp="2012-01-08T05:10:54Z" uid="67896" user="mrpulley" changeset="10328121">
    <nd ref="156197545"/>
    <nd ref="155964166"/>
    <nd ref="155964137"/>
    <nd ref="155964101"/>
    <nd ref="155964061"/>
    <nd ref="155964000"/>
    <nd ref="155963978"/>
    <nd ref="955973853"/>
    <tag k="highway" v="trunk"/>
    <tag k="maxspeed" v="70"/>
    <tag k="name" v="New England Highway"/>
    <tag k="ref" v="NH15"/>
    <tag k="source" v="survey"/>
    <tag k="surface" v="asphalt"/>
  </way>
  <way id="86632900" version="1" timestamp="2010-11-27T13:31:58Z" uid="49111" user="Markus B" changeset="6469790">
    <nd ref="1007525881"/>
    <nd ref="1007525886"/>
    <nd ref="1007525879"/>
    <nd ref="1007525913"/>
    <nd ref="1007525881"/>
    <tag k="amenity" v="fire_station"/>
    <tag k="building" v="yes"/>
    <tag k="name" v="Feuerwehr Simmelsdorf"/>
  </way>
  <way id="86632900" version="2" timestamp="2010-12-11T20:24:15Z" uid="82877" user="Wankmann" changeset="6629164">
    <nd ref="1007525881"/>
    <nd ref="1007525886"/>
    <nd ref="1007525879"/>
    <nd ref="1007525913"/>
    <nd ref="1007525881"/>
    <tag k="addr:city" v="Simmelsdorf"/>
    <tag k="addr:country" v="DE"/>
    <tag k="addr:housenumber" v="10"/>
    <tag k="addr:postcode" v="91245"/>
    <tag k="addr:street" v="Osternoher Weg"/>
    <tag k="amenity" v="fire_station"/>
    <tag k="building" v="yes"/>
    <tag k="name" v="Freiwillige Feuerwehr Simmelsdorf"/>
  </way>
</osm>
