<?xml version='1.0' encoding='UTF-8'?>
<osm version="0.6" generator="libosmium/2.20.0">
  <way id="8664472" version="6" timestamp="2008-09-06T14:39:32Z" uid="58091" user="Andreas M" changeset="549614">
    <nd ref="294134554"/>
    <nd ref="294134556"/>
    <nd ref="61842953"/>
    <nd ref="100865806"/>
    <nd ref="267731768"/>
    <nd ref="61842955"/>
    <nd ref="61842956"/>
    <tag k="created_by" v="Potlatch 0.4c"/>
    <tag k="highway" v="residential"/>
    <tag k="name" v="Dörfelstraße"/>
  </way>
  <way id="8664472" version="7" timestamp="2008-09-26T20:58:04Z" uid="64457" user="TAbfalter" changeset="702412">
    <nd ref="294134554"/>
    <nd ref="294134556"/>
    <nd ref="61842953"/>
    <nd ref="100865806"/>
    <nd ref="267731768"/>
    <nd ref="61842955"/>
    <nd ref="61842956"/>
    <tag k="created_by" v="Potlatch 0.4c"/>
    <tag k="highway" v="residential"/>
    <tag k="name" v="Steinackergasse"/>
  </way>
  <way id="8664472" version="8" timestamp="2009-01-05T07:41:42Z" uid="58091" user="Andreas M" changeset="735458">
    <nd ref="294134554"/>
    <nd ref="61842953"/>
    <nd ref="100865806"/>
    <nd ref="267731768"/>
    <nd ref="61842955"/>
    <nd ref="61842956"/>
    <tag k="created_by" v="Potlatch 0.4c"/>
    <tag k="highway" v="residential"/>
    <tag k="name" v="Steinackergasse"/>
  </way>
  <way id="8664472" version="9" timestamp="2009-08-11T18:49:21Z" uid="104947" user="My Friend" changeset="2111528">
    <nd ref="61842953"/>
    <nd ref="100865806"/>
    <nd ref="267731768"/>
    <nd ref="61842955"/>
    <nd ref="61842956"/>
    <tag k="created_by" v="Potlatch 0.4c"/>
    <tag k="highway" v="residential"/>
    <tag k="name" v="Steinackergasse"/>
  </way>
  <way id="8664472" version="10" timestamp="2009-08-19T06:13:58Z" uid="110203" user="MotMot" changeset="2197405">
    <nd ref="61842953"/>
    <nd ref="100865806"/>
    <nd ref="267731768"/>
    <nd ref="61842955"/>
    <nd ref="61842956"/>
    <tag k="highway" v="residential"/>
    <tag k="name" v="Steinackergasse"/>
    <tag k="oneway" v="yes"/>
  </way>
  <way id="8664472" version="11" timestamp="2011-07-15T22:06:33Z" uid="99692" user="that" changeset="8735168">
    <nd ref="61842953"/>
    <nd ref="100865806"/>
    <nd ref="267731768"/>
    <nd ref="61842956"/>
    <tag k="highway" v="residential"/>
    <tag k="name" v="Steinackergasse"/>
    <tag k="oneway" v="yes"/>
  </way>
  <way id="8664472" version="12" timestamp="2011-11-29T18:50:13Z" uid="104947" user="My Friend" changeset="9990848">
    <nd ref="1523533173"/>
    <nd ref="61842953"/>
    <nd ref="100865806"/>
    <nd ref="267731768"/>
    <nd ref="61842956"/>
    <tag k="highway" v="residential"/>
    <tag k="name" v="Steinackergasse"/>
    <tag k="oneway" v="yes"/>
  </way>
  <way id="8664505" version="6" timestamp="2008-12-13T22:15:03Z" uid="6975" user="ulfl" changeset="352865">
    <nd ref="61843382"/>
    <nd ref="61843383"/>
    <nd ref="61843386"/>
    <nd ref="61843388"/>
    <nd ref="61843390"/>
    <nd ref="61843391"/>
    <nd ref="61843392"/>
    <nd ref="61843395"/>
    <nd ref="61843397"/>
    <nd ref="61843399"/>
    <tag k="highway" v="service"/>
    <tag k="junction" v="roundabout"/>
    <tag k="oneway" v="yes"/>
    <tag k="tiger:cfcc" v="A63"/>
    <tag k="tiger:county" v="Oakland, MI"/>
    <tag k="tiger:reviewed" v="no"/>
    <tag k="tiger:source" v="tiger_import_dch_v0.6_20070813"/>
    <tag k="tiger:tlid" v="69715597"/>
    <tag k="tiger:upload_uuid" v="bulk_upload.pl-68122b60-d477-4f65-8a26-2e2e418ac7db"/>
  </way>
  <way id="8664505" version="7" timestamp="2009-11-23T23:48:30Z" uid="120468" user="Nakor" changeset="3200944"/>
  <way id="8664509" version="10" timestamp="2008-09-06T14:39:30Z" uid="58091" user="Andreas M" changeset="549614">
    <nd ref="61767997"/>
    <nd ref="267731766"/>
    <nd ref="267731763"/>
    <nd ref="100865807"/>
    <nd ref="61843436"/>
    <nd ref="293734740"/>
    <tag k="name" v="62"/>
    <tag k="railway" v="tram"/>
  </way>
  <way id="8664509" version="11" timestamp="2008-09-07T11:02:45Z" uid="58091" user="Andreas M" changeset="559010">
    <nd ref="293734740"/>
    <nd ref="61843436"/>
    <nd ref="100865807"/>
    <nd ref="267731763"/>
    <nd ref="267731766"/>
    <nd ref="61767997"/>
    <tag k="name" v="62"/>
    <tag k="oneway" v="yes"/>
    <tag k="railway" v="tram"/>
  </way>
  <way id="8664509" version="12" timestamp="2009-01-05T07:41:51Z" uid="58091" user="Andreas M" changeset="735458"/>
  <way id="8664727" version="8" timestamp="2009-02-20T16:31:33Z" uid="58091" user="Andreas M" changeset="580553">
    <nd ref="61768034"/>
    <nd ref="61845304"/>
    <nd ref="61845669"/>
    <nd ref="274590527"/>
    <nd ref="61845306"/>
    <tag k="created_by" v="Potlatch 0.10f"/>
    <tag k="highway" v="residential"/>
    <tag k="name" v="Rauchgasse"/>
  </way>
  <way id="8664727" version="9" timestamp="2010-04-12T07:39:34Z" uid="245624" user="imse01" changeset="4401811">
    <nd ref="61768034"/>
    <nd ref="61845304"/>
    <nd ref="61845669"/>
    <nd ref="274590527"/>
    <nd ref="61845306"/>
    <tag k="highway" v="residential"/>
    <tag k="name" v="Rauchgasse"/>
    <tag k="oneway" v="yes"/>
  </way>
  <way id="8664768" version="8" timestamp="2008-08-09T14:52:41Z" uid="58091" user="Andreas M" changeset="150552">
    <nd ref="62600259"/>
    <nd ref="286479933"/>
    <nd ref="127394982"/>
    <nd ref="61846010"/>
    <nd ref="61845760"/>
    <tag k="created_by" v="Potlatch 0.5b"/>
    <tag k="highway" v="residential"/>
    <tag k="name" v="Erlgasse"/>
  </way>
  <way id="8664768" version="9" timestamp="2009-02-24T20:40:12Z" uid="43577" user="dorni74" changeset="655950">
    <nd ref="62600259"/>
    <nd ref="286479933"/>
    <nd ref="127394982"/>
    <nd ref="61846010"/>
    <nd ref="61845760"/>
    <tag k="created_by" v="Potlatch 0.10f"/>
    <tag k="highway" v="residential"/>
    <tag k="name" v="Erlgasse"/>
    <tag k="oneway" v="yes"/>
  </way>
  <way id="8664817" version="4" timestamp="2008-08-09T14:27:22Z" uid="58091" user="Andreas M" changeset="150552">
    <nd ref="61846236"/>
    <nd ref="61846237"/>
    <nd ref="286474078"/>
    <nd ref="61846238"/>
    <nd ref="61846239"/>
    <tag k="created_by" v="Potlatch 0.5a"/>
    <tag k="highway" v="residential"/>
    <tag k="name" v="Tanbruckgasse"/>
    <tag k="oneway" v="yes"/>
  </way>
  <way id="8664817" version="5" timestamp="2008-08-09T14:52:41Z" uid="58091" user="Andreas M" changeset="150552">
    <nd ref="61846236"/>
    <nd ref="286479934"/>
    <nd ref="61846237"/>
    <nd ref="286474078"/>
    <nd ref="61846238"/>
    <nd ref="61846239"/>
    <tag k="created_by" v="Potlatch 0.5a"/>
    <tag k="highway" v="residential"/>
    <tag k="name" v="Tanbruckgasse"/>
    <tag k="oneway" v="yes"/>
  </way>
  <way id="8664817" version="6" timestamp="2009-01-06T06:48:47Z" uid="54806" user="_al" changeset="743280">
    <nd ref="61846236"/>
    <nd ref="286479934"/>
    <nd ref="61846237"/>
    <nd ref="286474078"/>
    <nd ref="61846238"/>
    <nd ref="61846239"/>
    <tag k="created_by" v="Potlatch 0.10f"/>
    <tag k="highway" v="residential"/>
    <tag k="lcn" v="yes"/>
    <tag k="name" v="Tanbruckgasse"/>
    <tag k="oneway" v="yes"/>
  </way>
  <way id="8664817" version="7" timestamp="2009-01-20T20:54:07Z" uid="43577" user="dorni74" changeset="818069">
    <nd ref="61846236"/>
    <nd ref="286479934"/>
    <nd ref="61846237"/>
    <nd ref="286474078"/>
    <nd ref="61846238"/>
    <tag k="created_by" v="Potlatch 0.10f"/>
    <tag k="highway" v="residential"/>
    <tag k="lcn" v="yes"/>
    <tag k="name" v="Tanbruckgasse"/>
    <tag k="oneway" v="yes"/>
  </way>
  <way id="8664817" version="8" timestamp="2009-02-05T07:40:34Z" uid="54806" user="_al" changeset="170861">
    <nd ref="61846236"/>
    <nd ref="286479934"/>
    <nd ref="286474078"/>
    <nd ref="61846238"/>
    <tag k="created_by" v="Potlatch 0.10f"/>
    <tag k="highway" v="residential"/>
    <tag k="lcn" v="yes"/>
    <tag k="name" v="Tanbruckgasse"/>
    <tag k="oneway" v="yes"/>
  </way>
  <way id="8664817" version="9" timestamp="2009-02-22T10:34:13Z" uid="58091" user="Andreas M" changeset="606483">
    <nd ref="61846236"/>
    <nd ref="286479934"/>
    <nd ref="349042351"/>
    <nd ref="286474078"/>
    <nd ref="61846238"/>
    <tag k="created_by" v="Potlatch 0.10f"/>
    <tag k="highway" v="residential"/>
    <tag k="lcn" v="yes"/>
    <tag k="name" v="Tanbruckgasse"/>
    <tag k="oneway" v="yes"/>
  </way>
  <way id="8664817" version="10" timestamp="2011-07-15T22:06:35Z" uid="99692" user="that" changeset="8735168">
    <nd ref="61846236"/>
    <nd ref="286479934"/>
    <nd ref="349042351"/>
    <nd ref="286474078"/>
    <nd ref="61846238"/>
    <tag k="highway" v="residential"/>
    <tag k="lcn" v="yes"/>
    <tag k="maxspeed" v="30"/>
    <tag k="name" v="Tanbruckgasse"/>
    <tag k="oneway" v="yes"/>
  </way>
  <way id="8664948" version="11" timestamp="2009-02-22T10:34:14Z" uid="58091" user="Andreas M" changeset="606483">
    <nd ref="61847366"/>
    <nd ref="349042376"/>
    <nd ref="61849347"/>
    <nd ref="61847367"/>
    <nd ref="349042401"/>
    <nd ref="61847368"/>
    <nd ref="98808829"/>
    <nd ref="61847369"/>
    <nd ref="349042406"/>
    <nd ref="61845760"/>
    <nd ref="61846239"/>
    <nd ref="349042412"/>
    <nd ref="61768034"/>
    <tag k="created_by" v="Potlatch 0.10f"/>
    <tag k="highway" v="residential"/>
    <tag k="name" v="Pohlgasse"/>
  </way>
  <way id="8664948" version="12" timestamp="2010-04-12T07:39:33Z" uid="245624" user="imse01" changeset="4401811">
    <nd ref="61847368"/>
    <nd ref="61847367"/>
    <nd ref="61849347"/>
    <nd ref="61847366"/>
    <nd ref="349042376"/>
    <nd ref="61849347"/>
    <nd ref="61847367"/>
    <nd ref="349042401"/>
    <nd ref="61847368"/>
    <nd ref="98808829"/>
    <nd ref="61847369"/>
    <nd ref="349042406"/>
    <nd ref="61845760"/>
    <nd ref="61846239"/>
    <nd ref="349042412"/>
    <nd ref="61768034"/>
    <tag k="highway" v="residential"/>
    <tag k="name" v="Pohlgasse"/>
  </way>
  <way id="8664948" version="13" timestamp="2010-04-12T07:45:47Z" uid="245624" user="imse01" changeset="4401811">
    <nd ref="61847368"/>
    <nd ref="61847367"/>
    <nd ref="61849347"/>
    <nd ref="61847366"/>
    <nd ref="349042376"/>
    <nd ref="61849347"/>
    <nd ref="61847367"/>
    <nd ref="349042401"/>
    <nd ref="61847368"/>
    <nd ref="98808829"/>
    <nd ref="61847369"/>
    <tag k="highway" v="residential"/>
    <tag k="name" v="Pohlgasse"/>
    <tag k="oneway" v="yes"/>
  </way>
  <way id="8664948" version="14" timestamp="2010-11-07T07:53:15Z" uid="47064" user="7503146" changeset="6308761">
    <nd ref="61847368"/>
    <nd ref="61847367"/>
    <tag k="highway" v="residential"/>
    <tag k="name" v="Pohlgasse"/>
    <tag k="oneway" v="yes"/>
  </way>
  <way id="8664948" version="15" timestamp="2010-12-01T14:42:53Z" uid="211966" user="Hetzi" changeset="6504485"/>
</osm>
