<?xml version='1.0' encoding='UTF-8'?>
<osm version="0.6" generator="libosmium/2.20.0">
  <way id="8727534" version="6" timestamp="2009-08-11T06:26:32Z" uid="4467" user="Rosscoe" changeset="2104833">
    <nd ref="62547767"/>
    <nd ref="260540240"/>
    <nd ref="62547769"/>
    <nd ref="62547770"/>
    <nd ref="62547771"/>
    <nd ref="62547773"/>
    <nd ref="62547774"/>
    <nd ref="62547776"/>
    <nd ref="62547777"/>
    <nd ref="62547779"/>
    <nd ref="62547780"/>
    <nd ref="62547781"/>
    <nd ref="62547782"/>
    <nd ref="62547784"/>
    <nd ref="62547785"/>
    <nd ref="62547787"/>
    <nd ref="62547788"/>
    <nd ref="62547790"/>
    <nd ref="62547791"/>
    <nd ref="62547794"/>
    <nd ref="62547796"/>
    <nd ref="62547797"/>
    <nd ref="276830449"/>
    <nd ref="62547798"/>
    <nd ref="62547799"/>
    <nd ref="62547800"/>
    <nd ref="62547801"/>
    <nd ref="62283410"/>
    <tag k="highway" v="primary"/>
    <tag k="is_in" v="NSW, New South Wales, Australia"/>
    <tag k="name" v="Pacific Highway"/>
    <tag k="oneway" v="yes"/>
    <tag k="ref" v="S111"/>
  </way>
  <way id="8727534" version="7" timestamp="2009-08-11T07:05:11Z" uid="4467" user="Rosscoe" changeset="2105104">
    <nd ref="62547767"/>
    <nd ref="260540240"/>
    <nd ref="62547769"/>
    <nd ref="461602528"/>
    <nd ref="62547770"/>
    <nd ref="62547771"/>
    <nd ref="62547773"/>
    <nd ref="62547774"/>
    <nd ref="62547776"/>
    <nd ref="62547777"/>
    <nd ref="62547779"/>
    <nd ref="62547780"/>
    <nd ref="62547781"/>
    <nd ref="62547782"/>
    <nd ref="62547784"/>
    <nd ref="62547785"/>
    <nd ref="62547787"/>
    <nd ref="62547788"/>
    <nd ref="62547790"/>
    <nd ref="62547791"/>
    <nd ref="62547794"/>
    <nd ref="62547796"/>
    <nd ref="62547797"/>
    <nd ref="276830449"/>
    <nd ref="62547798"/>
    <nd ref="62547799"/>
    <nd ref="62547800"/>
    <nd ref="62547801"/>
    <nd ref="62283410"/>
    <tag k="highway" v="primary"/>
    <tag k="is_in" v="NSW, New South Wales, Australia"/>
    <tag k="name" v="Pacific Highway"/>
    <tag k="oneway" v="yes"/>
    <tag k="ref" v="S111"/>
  </way>
  <way id="8727534" version="8" timestamp="2010-04-01T18:53:46Z" uid="74617" user="JohnSmith" changeset="4296292">
    <nd ref="62547767"/>
    <nd ref="260540240"/>
    <nd ref="62547769"/>
    <nd ref="461602528"/>
    <nd ref="62547770"/>
    <nd ref="62547771"/>
    <nd ref="62547773"/>
    <nd ref="62547774"/>
    <nd ref="62547776"/>
    <nd ref="62547777"/>
    <nd ref="62547779"/>
    <nd ref="62547780"/>
    <nd ref="62547781"/>
    <nd ref="62547782"/>
    <nd ref="62547784"/>
    <nd ref="62547785"/>
    <nd ref="62547787"/>
    <nd ref="62547788"/>
    <nd ref="62547790"/>
    <nd ref="62547791"/>
    <nd ref="62547794"/>
    <nd ref="62547796"/>
    <nd ref="62547797"/>
    <nd ref="276830449"/>
    <nd ref="62547798"/>
    <nd ref="62547799"/>
    <nd ref="62547800"/>
    <nd ref="62547801"/>
    <nd ref="62283410"/>
    <tag k="highway" v="primary"/>
    <tag k="name" v="Pacific Highway"/>
    <tag k="oneway" v="yes"/>
  </way>
  <way id="8727534" version="9" timestamp="2010-10-05T23:24:03Z" uid="79475" user="AlexOnTheBus" changeset="5965689">
    <nd ref="62547767"/>
    <nd ref="260540240"/>
    <nd ref="62547769"/>
    <nd ref="461602528"/>
    <nd ref="62547770"/>
    <nd ref="62547771"/>
    <nd ref="62547773"/>
    <nd ref="62547774"/>
    <nd ref="62547776"/>
    <nd ref="62547777"/>
    <nd ref="62547779"/>
    <nd ref="62547780"/>
    <nd ref="62547781"/>
    <nd ref="62547782"/>
    <nd ref="62547784"/>
    <nd ref="62547785"/>
    <nd ref="62547787"/>
    <nd ref="62547788"/>
    <nd ref="62547790"/>
    <nd ref="62547791"/>
    <nd ref="62547794"/>
    <nd ref="62547796"/>
    <nd ref="62547797"/>
    <nd ref="276830449"/>
    <nd ref="62547798"/>
    <nd ref="62547799"/>
    <nd ref="62547800"/>
    <nd ref="62547801"/>
    <nd ref="62283410"/>
    <tag k="highway" v="trunk"/>
    <tag k="name" v="Pacific Highway"/>
    <tag k="oneway" v="yes"/>
  </way>
  <way id="8727534" version="10" timestamp="2011-11-23T07:14:03Z" uid="77586" user="wolftracker" changeset="9917695"/>
  <way id="8727713" version="5" timestamp="2009-08-11T07:05:06Z" uid="4467" user="Rosscoe" changeset="2105104">
    <nd ref="17383779"/>
    <nd ref="62550075"/>
    <tag k="bridge" v="yes"/>
    <tag k="highway" v="primary"/>
    <tag k="layer" v="1"/>
    <tag k="name" v="Pacific Highway"/>
    <tag k="oneway" v="yes"/>
    <tag k="ref" v="S111"/>
  </way>
  <way id="8727713" version="6" timestamp="2010-04-01T18:53:47Z" uid="74617" user="JohnSmith" changeset="4296292">
    <nd ref="17383779"/>
    <nd ref="62550075"/>
    <tag k="bridge" v="yes"/>
    <tag k="highway" v="primary"/>
    <tag k="layer" v="1"/>
    <tag k="name" v="Pacific Highway"/>
    <tag k="oneway" v="yes"/>
  </way>
  <way id="8727713" version="7" timestamp="2010-10-05T23:26:01Z" uid="79475" user="AlexOnTheBus" changeset="5965689">
    <nd ref="17383779"/>
    <nd ref="62550075"/>
    <tag k="bridge" v="yes"/>
    <tag k="highway" v="trunk"/>
    <tag k="layer" v="1"/>
    <tag k="name" v="Pacific Highway"/>
    <tag k="oneway" v="yes"/>
  </way>
  <way id="8727713" version="8" timestamp="2012-02-15T08:35:50Z" uid="602082" user="mvmaps" changeset="10689984">
    <nd ref="17383779"/>
    <nd ref="62550075"/>
    <tag k="bridge" v="yes"/>
    <tag k="highway" v="trunk"/>
    <tag k="layer" v="1"/>
    <tag k="maxspeed" v="60"/>
    <tag k="name" v="Pacific Highway"/>
    <tag k="oneway" v="yes"/>
  </way>
  <way id="8727720" version="7" timestamp="2009-08-11T07:05:09Z" uid="4467" user="Rosscoe" changeset="2105104">
    <nd ref="62550075"/>
    <nd ref="17383790"/>
    <nd ref="461602529"/>
    <nd ref="420024248"/>
    <nd ref="17383794"/>
    <nd ref="17383795"/>
    <nd ref="17383799"/>
    <nd ref="17383802"/>
    <nd ref="260540181"/>
    <nd ref="17383805"/>
    <nd ref="62545961"/>
    <tag k="highway" v="primary"/>
    <tag k="name" v="Pacific Highway"/>
    <tag k="oneway" v="yes"/>
    <tag k="ref" v="S111"/>
  </way>
  <way id="8727720" version="8" timestamp="2010-04-01T18:53:47Z" uid="74617" user="JohnSmith" changeset="4296292">
    <nd ref="62550075"/>
    <nd ref="17383790"/>
    <nd ref="461602529"/>
    <nd ref="420024248"/>
    <nd ref="17383794"/>
    <nd ref="17383795"/>
    <nd ref="17383799"/>
    <nd ref="17383802"/>
    <nd ref="260540181"/>
    <nd ref="17383805"/>
    <nd ref="62545961"/>
    <tag k="highway" v="primary"/>
    <tag k="name" v="Pacific Highway"/>
    <tag k="oneway" v="yes"/>
  </way>
  <way id="8727720" version="9" timestamp="2010-10-05T23:25:47Z" uid="79475" user="AlexOnTheBus" changeset="5965689">
    <nd ref="62550075"/>
    <nd ref="17383790"/>
    <nd ref="461602529"/>
    <nd ref="420024248"/>
    <nd ref="17383794"/>
    <nd ref="17383795"/>
    <nd ref="17383799"/>
    <nd ref="17383802"/>
    <nd ref="260540181"/>
    <nd ref="17383805"/>
    <nd ref="62545961"/>
    <tag k="highway" v="trunk"/>
    <tag k="name" v="Pacific Highway"/>
    <tag k="oneway" v="yes"/>
  </way>
  <way id="8727720" version="10" timestamp="2011-11-22T16:52:40Z" uid="77586" user="wolftracker" changeset="9910842">
    <nd ref="62550075"/>
    <nd ref="17383790"/>
    <nd ref="461602529"/>
    <nd ref="420024248"/>
    <nd ref="17383794"/>
    <nd ref="17383795"/>
    <nd ref="17383799"/>
    <nd ref="17383802"/>
    <nd ref="1512968255"/>
    <nd ref="260540181"/>
    <nd ref="17383805"/>
    <nd ref="62545961"/>
    <tag k="highway" v="trunk"/>
    <tag k="name" v="Pacific Highway"/>
    <tag k="oneway" v="yes"/>
  </way>
  <way id="8727720" version="11" timestamp="2011-11-23T07:12:27Z" uid="77586" user="wolftracker" changeset="9917695">
    <nd ref="62550075"/>
    <nd ref="17383790"/>
    <nd ref="1513886945"/>
    <nd ref="461602529"/>
    <nd ref="420024248"/>
    <nd ref="17383794"/>
    <nd ref="17383795"/>
    <nd ref="17383799"/>
    <nd ref="17383802"/>
    <nd ref="1512968255"/>
    <nd ref="260540181"/>
    <nd ref="17383805"/>
    <nd ref="62545961"/>
    <tag k="alt_name" v="Bowman Street"/>
    <tag k="highway" v="trunk"/>
    <tag k="name" v="Pacific Highway"/>
    <tag k="oneway" v="yes"/>
  </way>
  <way id="8727720" version="12" timestamp="2012-02-15T08:35:51Z" uid="602082" user="mvmaps" changeset="10689984">
    <nd ref="62550075"/>
    <nd ref="17383790"/>
    <nd ref="1513886945"/>
    <nd ref="461602529"/>
    <nd ref="420024248"/>
    <nd ref="17383794"/>
    <nd ref="17383795"/>
    <nd ref="17383799"/>
    <nd ref="17383802"/>
    <nd ref="1512968255"/>
    <nd ref="260540181"/>
    <nd ref="17383805"/>
    <nd ref="62545961"/>
    <tag k="alt_name" v="Bowman Street"/>
    <tag k="highway" v="trunk"/>
    <tag k="maxspeed" v="60"/>
    <tag k="name" v="Pacific Highway"/>
    <tag k="oneway" v="yes"/>
  </way>
  <way id="8727787" version="5" timestamp="2009-08-11T07:05:07Z" uid="4467" user="Rosscoe" changeset="2105104">
    <nd ref="62550882"/>
    <nd ref="62550886"/>
    <tag k="bridge" v="yes"/>
    <tag k="highway" v="primary"/>
    <tag k="layer" v="1"/>
    <tag k="name" v="Pacific Highway"/>
    <tag k="oneway" v="yes"/>
    <tag k="ref" v="S111"/>
  </way>
  <way id="8727787" version="6" timestamp="2010-04-01T18:53:47Z" uid="74617" user="JohnSmith" changeset="4296292">
    <nd ref="62550882"/>
    <nd ref="62550886"/>
    <tag k="bridge" v="yes"/>
    <tag k="highway" v="primary"/>
    <tag k="layer" v="1"/>
    <tag k="name" v="Pacific Highway"/>
    <tag k="oneway" v="yes"/>
  </way>
  <way id="8727787" version="7" timestamp="2010-10-05T23:25:58Z" uid="79475" user="AlexOnTheBus" changeset="5965689">
    <nd ref="62550882"/>
    <nd ref="62550886"/>
    <tag k="bridge" v="yes"/>
    <tag k="highway" v="trunk"/>
    <tag k="layer" v="1"/>
    <tag k="name" v="Pacific Highway"/>
    <tag k="oneway" v="yes"/>
  </way>
  <way id="8727787" version="8" timestamp="2012-02-15T08:35:52Z" uid="602082" user="mvmaps" changeset="10689984">
    <nd ref="62550882"/>
    <nd ref="62550886"/>
    <tag k="bridge" v="yes"/>
    <tag k="highway" v="trunk"/>
    <tag k="layer" v="1"/>
    <tag k="maxspeed" v="60"/>
    <tag k="name" v="Pacific Highway"/>
    <tag k="oneway" v="yes"/>
  </way>
  <way id="8727885" version="5" timestamp="2009-08-11T07:05:03Z" uid="4467" user="Rosscoe" changeset="2105104">
    <nd ref="62549361"/>
    <nd ref="62551854"/>
    <nd ref="62551856"/>
    <nd ref="276647882"/>
    <nd ref="62551859"/>
    <nd ref="62551860"/>
    <nd ref="276647693"/>
    <nd ref="62551861"/>
    <nd ref="62550882"/>
    <tag k="highway" v="primary"/>
    <tag k="name" v="Pacific Highway"/>
    <tag k="oneway" v="yes"/>
    <tag k="ref" v="S111"/>
  </way>
  <way id="8727885" version="6" timestamp="2010-04-01T18:53:46Z" uid="74617" user="JohnSmith" changeset="4296292">
    <nd ref="62549361"/>
    <nd ref="62551854"/>
    <nd ref="62551856"/>
    <nd ref="276647882"/>
    <nd ref="62551859"/>
    <nd ref="62551860"/>
    <nd ref="276647693"/>
    <nd ref="62551861"/>
    <nd ref="62550882"/>
    <tag k="highway" v="primary"/>
    <tag k="name" v="Pacific Highway"/>
    <tag k="oneway" v="yes"/>
  </way>
  <way id="8727885" version="7" timestamp="2010-10-05T23:25:49Z" uid="79475" user="AlexOnTheBus" changeset="5965689">
    <nd ref="62549361"/>
    <nd ref="62551854"/>
    <nd ref="62551856"/>
    <nd ref="276647882"/>
    <nd ref="62551859"/>
    <nd ref="62551860"/>
    <nd ref="276647693"/>
    <nd ref="62551861"/>
    <nd ref="62550882"/>
    <tag k="highway" v="trunk"/>
    <tag k="name" v="Pacific Highway"/>
    <tag k="oneway" v="yes"/>
  </way>
  <way id="8727885" version="8" timestamp="2011-11-23T07:12:26Z" uid="77586" user="wolftracker" changeset="9917695">
    <nd ref="62549361"/>
    <nd ref="62551854"/>
    <nd ref="1513886955"/>
    <nd ref="62551856"/>
    <nd ref="276647882"/>
    <nd ref="62551859"/>
    <nd ref="62551860"/>
    <nd ref="276647693"/>
    <nd ref="1513886940"/>
    <nd ref="62551861"/>
    <nd ref="62550882"/>
    <tag k="highway" v="trunk"/>
    <tag k="name" v="Pacific Highway"/>
    <tag k="oneway" v="yes"/>
  </way>
  <way id="8727885" version="9" timestamp="2011-11-24T06:56:28Z" uid="77586" user="wolftracker" changeset="9930109">
    <nd ref="62549361"/>
    <nd ref="62551854"/>
    <nd ref="1513886955"/>
    <nd ref="62551856"/>
    <nd ref="276647882"/>
    <nd ref="62551859"/>
    <nd ref="62551860"/>
    <nd ref="276647693"/>
    <nd ref="1513886940"/>
    <nd ref="1515023051"/>
    <nd ref="62551861"/>
    <nd ref="62550882"/>
    <tag k="highway" v="trunk"/>
    <tag k="name" v="Pacific Highway"/>
    <tag k="oneway" v="yes"/>
  </way>
  <way id="8727885" version="10" timestamp="2011-11-30T21:40:05Z" uid="77586" user="wolftracker" changeset="10003546">
    <nd ref="62549361"/>
    <nd ref="62551854"/>
    <nd ref="1513886955"/>
    <nd ref="62551856"/>
    <nd ref="1525345776"/>
    <nd ref="276647882"/>
    <nd ref="62551859"/>
    <nd ref="62551860"/>
    <nd ref="276647693"/>
    <nd ref="1513886940"/>
    <nd ref="1515023051"/>
    <nd ref="62551861"/>
    <nd ref="62550882"/>
    <tag k="highway" v="trunk"/>
    <tag k="name" v="Pacific Highway"/>
    <tag k="oneway" v="yes"/>
  </way>
  <way id="8727885" version="11" timestamp="2012-02-15T08:35:53Z" uid="602082" user="mvmaps" changeset="10689984">
    <nd ref="62549361"/>
    <nd ref="62551854"/>
    <nd ref="1513886955"/>
    <nd ref="62551856"/>
    <nd ref="1525345776"/>
    <nd ref="276647882"/>
    <nd ref="62551859"/>
    <nd ref="62551860"/>
    <nd ref="276647693"/>
    <nd ref="1513886940"/>
    <nd ref="1515023051"/>
    <nd ref="62551861"/>
    <nd ref="62550882"/>
    <tag k="highway" v="trunk"/>
    <tag k="maxspeed" v="60"/>
    <tag k="name" v="Pacific Highway"/>
    <tag k="oneway" v="yes"/>
  </way>
</osm>
