<?xml version='1.0' encoding='UTF-8'?>
<osm version="0.6" generator="libosmium/2.20.0">
  <way id="8728025" version="5" timestamp="2008-09-22T03:44:05Z" uid="30201" user="rrankin" changeset="678141">
    <nd ref="65806594"/>
    <nd ref="86314324"/>
    <nd ref="62539556"/>
    <tag k="created_by" v="JOSM"/>
    <tag k="highway" v="residential"/>
    <tag k="name" v="Hall Street"/>
  </way>
  <way id="8728025" version="6" timestamp="2009-11-08T11:31:16Z" uid="7617" user="Franc" changeset="3062741">
    <nd ref="65806594"/>
    <nd ref="559440646"/>
    <nd ref="86314324"/>
    <nd ref="62539556"/>
    <tag k="highway" v="residential"/>
    <tag k="name" v="Hall Street"/>
  </way>
  <way id="8728025" version="7" timestamp="2010-01-23T14:43:15Z" uid="7617" user="Franc" changeset="3692271">
    <nd ref="65806594"/>
    <nd ref="559440646"/>
    <nd ref="86314324"/>
    <nd ref="618698615"/>
    <nd ref="62539556"/>
    <tag k="highway" v="residential"/>
    <tag k="name" v="Hall Street"/>
  </way>
  <way id="8728025" version="8" timestamp="2010-07-07T21:52:30Z" uid="74617" user="JohnSmith" changeset="5161069">
    <nd ref="65806594"/>
    <nd ref="559440646"/>
    <nd ref="86314324"/>
    <nd ref="618698615"/>
    <nd ref="62539556"/>
    <tag k="highway" v="residential"/>
    <tag k="maxspeed" v="50"/>
    <tag k="maxspeed:source" v="default residential speed limit in Australia"/>
    <tag k="name" v="Hall Street"/>
  </way>
  <way id="8728025" version="9" timestamp="2010-10-16T05:27:08Z" uid="7617" user="Franc" changeset="6054570">
    <nd ref="65806594"/>
    <nd ref="559440646"/>
    <nd ref="951198523"/>
    <nd ref="86314324"/>
    <nd ref="618698615"/>
    <nd ref="62539556"/>
    <tag k="highway" v="residential"/>
    <tag k="maxspeed" v="50"/>
    <tag k="maxspeed:source" v="default residential speed limit in Australia"/>
    <tag k="name" v="Hall Street"/>
  </way>
  <way id="8728025" version="10" timestamp="2012-01-15T08:00:00Z" uid="147510" user="woodpeck_fixbot" changeset="10394821">
    <nd ref="65806594"/>
    <nd ref="559440646"/>
    <nd ref="951198523"/>
    <nd ref="86314324"/>
    <nd ref="618698615"/>
    <nd ref="62539556"/>
    <tag k="highway" v="residential"/>
    <tag k="name" v="Hall Street"/>
  </way>
  <way id="8728376" version="8" timestamp="2010-07-09T03:00:54Z" uid="74617" user="JohnSmith" changeset="5170739">
    <nd ref="62558982"/>
    <nd ref="62557374"/>
    <nd ref="62565599"/>
    <nd ref="62559859"/>
    <tag k="highway" v="residential"/>
    <tag k="maxspeed" v="50"/>
    <tag k="maxspeed:source" v="default residential speed limit in Australia"/>
    <tag k="name" v="Ophir Street"/>
    <tag k="source" v="yahoo"/>
    <tag k="source:name" v="survey"/>
  </way>
  <way id="8728376" version="9" timestamp="2012-01-15T08:00:01Z" uid="147510" user="woodpeck_fixbot" changeset="10394821">
    <nd ref="62558982"/>
    <nd ref="62557374"/>
    <nd ref="62565599"/>
    <nd ref="62559859"/>
    <tag k="highway" v="residential"/>
    <tag k="name" v="Ophir Street"/>
    <tag k="source" v="yahoo"/>
    <tag k="source:name" v="survey"/>
  </way>
  <way id="8728458" version="5" timestamp="2010-07-09T02:57:43Z" uid="74617" user="JohnSmith" changeset="5170739">
    <nd ref="62558105"/>
    <nd ref="62558106"/>
    <nd ref="62558107"/>
    <nd ref="62558109"/>
    <nd ref="62558326"/>
    <tag k="highway" v="residential"/>
    <tag k="maxspeed" v="50"/>
    <tag k="maxspeed:source" v="default residential speed limit in Australia"/>
    <tag k="name" v="Carlyle Street"/>
    <tag k="source" v="yahoo"/>
    <tag k="source:name" v="survey"/>
  </way>
  <way id="8728458" version="6" timestamp="2010-10-31T07:35:31Z" uid="4467" user="Rosscoe" changeset="6235526">
    <nd ref="62558105"/>
    <nd ref="971750533"/>
    <nd ref="971750631"/>
    <nd ref="62558106"/>
    <nd ref="62558107"/>
    <nd ref="62558109"/>
    <nd ref="62558326"/>
    <tag k="highway" v="residential"/>
    <tag k="maxspeed" v="50"/>
    <tag k="maxspeed:source" v="default residential speed limit in Australia"/>
    <tag k="name" v="Carlyle Street"/>
    <tag k="source" v="yahoo"/>
    <tag k="source:name" v="survey"/>
  </way>
  <way id="8728458" version="7" timestamp="2010-12-12T00:28:35Z" uid="84937" user="Neil Penman" changeset="6631425">
    <nd ref="62558105"/>
    <nd ref="971750533"/>
    <nd ref="971750631"/>
    <nd ref="62558106"/>
    <nd ref="62558107"/>
    <tag k="highway" v="residential"/>
    <tag k="maxspeed" v="50"/>
    <tag k="maxspeed:source" v="default residential speed limit in Australia"/>
    <tag k="name" v="Carlyle Street"/>
    <tag k="source" v="yahoo"/>
    <tag k="source:name" v="survey"/>
  </way>
  <way id="8728458" version="8" timestamp="2012-01-15T08:00:03Z" uid="147510" user="woodpeck_fixbot" changeset="10394821">
    <nd ref="62558105"/>
    <nd ref="971750533"/>
    <nd ref="971750631"/>
    <nd ref="62558106"/>
    <nd ref="62558107"/>
    <tag k="highway" v="residential"/>
    <tag k="name" v="Carlyle Street"/>
    <tag k="source" v="yahoo"/>
    <tag k="source:name" v="survey"/>
  </way>
  <way id="8728668" version="2" timestamp="2008-09-22T03:44:26Z" uid="30201" user="rrankin" changeset="678141">
    <nd ref="62560579"/>
    <nd ref="62539556"/>
    <nd ref="62525956"/>
    <tag k="created_by" v="Potlatch alpha"/>
    <tag k="highway" v="residential"/>
    <tag k="name" v="Wellington Street"/>
  </way>
  <way id="8728668" version="3" timestamp="2009-11-08T11:31:15Z" uid="7617" user="Franc" changeset="3062741">
    <nd ref="62560579"/>
    <nd ref="559440640"/>
    <nd ref="62539556"/>
    <nd ref="62525956"/>
    <tag k="highway" v="residential"/>
    <tag k="name" v="Wellington Street"/>
  </way>
  <way id="8728668" version="4" timestamp="2010-07-07T21:52:55Z" uid="74617" user="JohnSmith" changeset="5161069">
    <nd ref="62560579"/>
    <nd ref="559440640"/>
    <nd ref="62539556"/>
    <nd ref="62525956"/>
    <tag k="highway" v="residential"/>
    <tag k="maxspeed" v="50"/>
    <tag k="maxspeed:source" v="default residential speed limit in Australia"/>
    <tag k="name" v="Wellington Street"/>
  </way>
  <way id="8728668" version="5" timestamp="2012-01-15T08:00:05Z" uid="147510" user="woodpeck_fixbot" changeset="10394821">
    <nd ref="62560579"/>
    <nd ref="559440640"/>
    <nd ref="62539556"/>
    <nd ref="62525956"/>
    <tag k="highway" v="residential"/>
    <tag k="name" v="Wellington Street"/>
  </way>
  <way id="8728669" version="2" timestamp="2008-09-22T03:44:25Z" uid="30201" user="rrankin" changeset="678141">
    <nd ref="62560571"/>
    <nd ref="60711788"/>
    <nd ref="20979882"/>
    <nd ref="62553262"/>
    <nd ref="62560559"/>
    <tag k="created_by" v="Potlatch alpha"/>
    <tag k="highway" v="residential"/>
    <tag k="name" v="O&apos;Brien St."/>
  </way>
  <way id="8728669" version="3" timestamp="2009-12-05T21:55:01Z" uid="1679" user="andrewpmk" changeset="3298741">
    <nd ref="62560571"/>
    <nd ref="60711788"/>
    <nd ref="20979882"/>
    <nd ref="62553262"/>
    <nd ref="62560559"/>
    <tag k="highway" v="residential"/>
    <tag k="name" v="O&apos;Brien Street"/>
  </way>
  <way id="8728669" version="4" timestamp="2010-01-23T14:43:15Z" uid="7617" user="Franc" changeset="3692271">
    <nd ref="62560571"/>
    <nd ref="60711788"/>
    <nd ref="20979882"/>
    <nd ref="618698614"/>
    <nd ref="62553262"/>
    <tag k="highway" v="residential"/>
    <tag k="name" v="O&apos;Brien Street"/>
  </way>
  <way id="8728669" version="5" timestamp="2010-02-27T05:34:35Z" uid="20949" user="Ebenezer" changeset="3985737">
    <nd ref="62560571"/>
    <nd ref="60711788"/>
    <nd ref="654735293"/>
    <nd ref="654735294"/>
    <nd ref="654735284"/>
    <tag k="highway" v="residential"/>
    <tag k="name" v="O&apos;Brien Street"/>
  </way>
  <way id="8728669" version="6" timestamp="2010-07-07T21:49:31Z" uid="74617" user="JohnSmith" changeset="5161069">
    <nd ref="62560571"/>
    <nd ref="60711788"/>
    <nd ref="654735293"/>
    <nd ref="654735294"/>
    <nd ref="654735284"/>
    <tag k="highway" v="residential"/>
    <tag k="maxspeed" v="50"/>
    <tag k="maxspeed:source" v="default residential speed limit in Australia"/>
    <tag k="name" v="O&apos;Brien Street"/>
  </way>
  <way id="8728669" version="7" timestamp="2012-01-15T08:00:06Z" uid="147510" user="woodpeck_fixbot" changeset="10394821">
    <nd ref="62560571"/>
    <nd ref="60711788"/>
    <nd ref="654735293"/>
    <nd ref="654735294"/>
    <nd ref="654735284"/>
    <tag k="highway" v="residential"/>
    <tag k="name" v="O&apos;Brien Street"/>
  </way>
  <way id="8728676" version="5" timestamp="2008-09-22T03:44:20Z" uid="30201" user="rrankin" changeset="678141">
    <nd ref="62560587"/>
    <nd ref="62560564"/>
    <nd ref="62560579"/>
    <nd ref="62560571"/>
    <nd ref="62560587"/>
    <tag k="created_by" v="JOSM"/>
    <tag k="highway" v="residential"/>
    <tag k="junction" v="roundabout"/>
    <tag k="name" v="Wellington Street"/>
  </way>
  <way id="8728676" version="6" timestamp="2009-12-28T13:47:29Z" uid="7617" user="Franc" changeset="3471615">
    <nd ref="62560587"/>
    <nd ref="600384212"/>
    <nd ref="62560564"/>
    <nd ref="600384222"/>
    <nd ref="62560579"/>
    <nd ref="600384225"/>
    <nd ref="62560571"/>
    <nd ref="600384227"/>
    <nd ref="62560587"/>
    <tag k="highway" v="residential"/>
    <tag k="junction" v="roundabout"/>
    <tag k="name" v="Wellington Street"/>
  </way>
  <way id="8728676" version="7" timestamp="2009-12-29T01:16:21Z" uid="7617" user="Franc" changeset="3477355">
    <nd ref="62560587"/>
    <nd ref="600384212"/>
    <nd ref="62560564"/>
    <nd ref="600384222"/>
    <nd ref="62560579"/>
    <nd ref="600384225"/>
    <nd ref="62560571"/>
    <nd ref="600384227"/>
    <nd ref="62560587"/>
    <tag k="highway" v="residential"/>
    <tag k="junction" v="roundabout"/>
  </way>
  <way id="8728676" version="8" timestamp="2010-07-07T21:52:17Z" uid="74617" user="JohnSmith" changeset="5161069">
    <nd ref="62560587"/>
    <nd ref="600384212"/>
    <nd ref="62560564"/>
    <nd ref="600384222"/>
    <nd ref="62560579"/>
    <nd ref="600384225"/>
    <nd ref="62560571"/>
    <nd ref="600384227"/>
    <nd ref="62560587"/>
    <tag k="highway" v="residential"/>
    <tag k="junction" v="roundabout"/>
    <tag k="maxspeed" v="50"/>
    <tag k="maxspeed:source" v="default residential speed limit in Australia"/>
  </way>
  <way id="8728676" version="9" timestamp="2012-01-15T08:00:07Z" uid="147510" user="woodpeck_fixbot" changeset="10394821">
    <nd ref="62560587"/>
    <nd ref="600384212"/>
    <nd ref="62560564"/>
    <nd ref="600384222"/>
    <nd ref="62560579"/>
    <nd ref="600384225"/>
    <nd ref="62560571"/>
    <nd ref="600384227"/>
    <nd ref="62560587"/>
    <tag k="highway" v="residential"/>
    <tag k="junction" v="roundabout"/>
  </way>
  <way id="8728683" version="10" timestamp="2009-11-29T08:25:21Z" uid="7617" user="Franc" changeset="3242878">
    <nd ref="8529763"/>
    <nd ref="246982707"/>
    <nd ref="8407451"/>
    <nd ref="8529766"/>
    <nd ref="8529772"/>
    <nd ref="246983062"/>
    <nd ref="8529775"/>
    <nd ref="8529769"/>
    <nd ref="8529778"/>
    <nd ref="8407452"/>
    <nd ref="8529781"/>
    <nd ref="8529784"/>
    <nd ref="8407453"/>
    <nd ref="8529786"/>
    <nd ref="8529787"/>
    <nd ref="8529788"/>
    <nd ref="62310275"/>
    <nd ref="8529789"/>
    <nd ref="8529790"/>
    <nd ref="8407471"/>
    <nd ref="26511379"/>
    <nd ref="8529791"/>
    <nd ref="86237618"/>
    <nd ref="8529792"/>
    <nd ref="8529799"/>
    <nd ref="574259193"/>
    <tag k="highway" v="primary"/>
    <tag k="image" v="80n:dsc04099.jpg"/>
    <tag k="name" v="New South Head Road"/>
  </way>
  <way id="8728683" version="11" timestamp="2009-12-01T11:51:48Z" uid="7617" user="Franc" changeset="3263493">
    <nd ref="8529763"/>
    <nd ref="246982707"/>
    <nd ref="8407451"/>
    <nd ref="8529766"/>
    <nd ref="8529772"/>
    <nd ref="246983062"/>
    <nd ref="8529775"/>
    <nd ref="8529769"/>
    <nd ref="8529778"/>
    <nd ref="8407452"/>
    <nd ref="8529781"/>
    <nd ref="8529784"/>
    <nd ref="8407453"/>
    <nd ref="8529786"/>
    <nd ref="8529787"/>
    <nd ref="8529788"/>
    <nd ref="62310275"/>
    <nd ref="8529789"/>
    <nd ref="8529790"/>
    <nd ref="8407471"/>
    <nd ref="26511379"/>
    <nd ref="8529791"/>
    <nd ref="86237618"/>
    <nd ref="8529799"/>
    <nd ref="574259193"/>
    <tag k="highway" v="primary"/>
    <tag k="image" v="80n:dsc04099.jpg"/>
    <tag k="name" v="New South Head Road"/>
  </way>
  <way id="8728683" version="12" timestamp="2010-03-19T10:12:37Z" uid="20949" user="Ebenezer" changeset="4168655">
    <nd ref="8529763"/>
    <nd ref="246982707"/>
    <nd ref="8407451"/>
    <nd ref="8529766"/>
    <nd ref="8529772"/>
    <nd ref="246983062"/>
    <nd ref="8529775"/>
    <nd ref="8529769"/>
    <nd ref="8529778"/>
    <nd ref="8407452"/>
    <nd ref="8529781"/>
    <nd ref="8529784"/>
    <nd ref="8407453"/>
    <nd ref="8529786"/>
    <nd ref="669452088"/>
    <tag k="highway" v="primary"/>
    <tag k="image" v="80n:dsc04099.jpg"/>
    <tag k="name" v="New South Head Road"/>
  </way>
  <way id="8728683" version="13" timestamp="2011-03-05T04:45:41Z" uid="237525" user="aharvey" changeset="7460013">
    <nd ref="8529763"/>
    <nd ref="246982707"/>
    <nd ref="8407451"/>
    <nd ref="8529766"/>
    <nd ref="8529772"/>
    <nd ref="246983062"/>
    <nd ref="8529775"/>
    <nd ref="1186814615"/>
    <nd ref="8529769"/>
    <nd ref="8529778"/>
    <nd ref="8407452"/>
    <nd ref="8529781"/>
    <nd ref="8529784"/>
    <nd ref="8407453"/>
    <nd ref="8529786"/>
    <nd ref="669452088"/>
    <tag k="highway" v="primary"/>
    <tag k="image" v="80n:dsc04099.jpg"/>
    <tag k="name" v="New South Head Road"/>
  </way>
</osm>
