<?xml version='1.0' encoding='UTF-8'?>
<osm version="0.6" generator="libosmium/2.20.0">
  <way id="87320244" version="1" timestamp="2010-12-02T00:14:14Z" uid="34428" user="usm78-gis" changeset="6510339">
    <nd ref="15491609"/>
    <nd ref="226344"/>
    <tag k="highway" v="secondary"/>
    <tag k="name" v="улица Островная"/>
    <tag k="name:en" v="ulitsa Ostrovnay"/>
    <tag k="name:ru" v="улица Островная"/>
    <tag k="source" v="kosmosnimki.ru"/>
    <tag k="type" v="street"/>
  </way>
  <way id="87320244" version="2" timestamp="2011-02-12T23:20:50Z" uid="288925" user="BoomEngine" changeset="7270689">
    <nd ref="15491609"/>
    <nd ref="226344"/>
    <tag k="addr:city" v="Выборг"/>
    <tag k="addr:country" v="RU"/>
    <tag k="addr:state" v="Ленинградская область"/>
    <tag k="cladr:code" v="47006001000011600"/>
    <tag k="cladr:name" v="Островная"/>
    <tag k="cladr:suffix" v="Улица"/>
    <tag k="highway" v="secondary"/>
    <tag k="name" v="Островная улица"/>
    <tag k="name:en" v="ulitsa Ostrovnay"/>
    <tag k="name:ru" v="Островная улица"/>
    <tag k="source" v="kosmosnimki.ru"/>
    <tag k="type" v="street"/>
  </way>
  <way id="87320244" version="3" timestamp="2011-02-27T19:44:50Z" uid="288925" user="BoomEngine" changeset="7414710"/>
  <way id="87320245" version="1" timestamp="2010-12-02T00:14:14Z" uid="34428" user="usm78-gis" changeset="6510339">
    <nd ref="226344"/>
    <nd ref="930789149"/>
    <nd ref="226345"/>
    <tag k="highway" v="secondary"/>
    <tag k="name" v="улица Островная"/>
    <tag k="name:en" v="ulitsa Ostrovnay"/>
    <tag k="name:ru" v="улица Островная"/>
    <tag k="source" v="kosmosnimki.ru"/>
    <tag k="type" v="street"/>
  </way>
  <way id="87320245" version="2" timestamp="2011-02-12T23:20:49Z" uid="288925" user="BoomEngine" changeset="7270689">
    <nd ref="226344"/>
    <nd ref="930789149"/>
    <nd ref="226345"/>
    <tag k="addr:city" v="Выборг"/>
    <tag k="addr:country" v="RU"/>
    <tag k="addr:state" v="Ленинградская область"/>
    <tag k="cladr:code" v="47006001000011600"/>
    <tag k="cladr:name" v="Островная"/>
    <tag k="cladr:suffix" v="Улица"/>
    <tag k="highway" v="secondary"/>
    <tag k="name" v="Островная улица"/>
    <tag k="name:en" v="ulitsa Ostrovnay"/>
    <tag k="name:ru" v="Островная улица"/>
    <tag k="source" v="kosmosnimki.ru"/>
    <tag k="type" v="street"/>
  </way>
  <way id="87320245" version="3" timestamp="2011-02-27T19:44:47Z" uid="288925" user="BoomEngine" changeset="7414710">
    <nd ref="226339"/>
    <nd ref="1045457993"/>
    <nd ref="1045458100"/>
    <nd ref="226340"/>
    <nd ref="226341"/>
    <nd ref="226342"/>
    <nd ref="1045457837"/>
    <nd ref="1177752317"/>
    <nd ref="15491636"/>
    <nd ref="226343"/>
    <nd ref="15491609"/>
    <nd ref="226344"/>
    <nd ref="930789149"/>
    <nd ref="15494597"/>
    <nd ref="930789283"/>
    <nd ref="568537"/>
    <tag k="addr:city" v="Выборг"/>
    <tag k="addr:country" v="RU"/>
    <tag k="addr:state" v="Ленинградская область"/>
    <tag k="cladr:code" v="47006001000011600"/>
    <tag k="cladr:name" v="Островная"/>
    <tag k="cladr:suffix" v="Улица"/>
    <tag k="highway" v="secondary"/>
    <tag k="name" v="Островная улица"/>
    <tag k="name:en" v="ulitsa Ostrovnay"/>
    <tag k="name:ru" v="Островная улица"/>
    <tag k="source" v="kosmosnimki.ru"/>
    <tag k="type" v="street"/>
  </way>
  <way id="87320245" version="4" timestamp="2011-03-05T19:15:55Z" uid="288925" user="BoomEngine" changeset="7466777">
    <nd ref="226339"/>
    <nd ref="1187757978"/>
    <nd ref="1187757990"/>
    <nd ref="1045457993"/>
    <nd ref="1187758134"/>
    <nd ref="1187758092"/>
    <nd ref="1187758063"/>
    <nd ref="1045458100"/>
    <nd ref="226340"/>
    <nd ref="1187758145"/>
    <nd ref="226341"/>
    <nd ref="226342"/>
    <nd ref="1045457837"/>
    <nd ref="1177752317"/>
    <nd ref="15491636"/>
    <nd ref="226343"/>
    <nd ref="15491609"/>
    <nd ref="226344"/>
    <nd ref="1187758038"/>
    <nd ref="930789149"/>
    <nd ref="15494597"/>
    <nd ref="930789283"/>
    <nd ref="568537"/>
    <tag k="addr:city" v="Выборг"/>
    <tag k="addr:country" v="RU"/>
    <tag k="addr:state" v="Ленинградская область"/>
    <tag k="cladr:code" v="47006001000011600"/>
    <tag k="cladr:name" v="Островная"/>
    <tag k="cladr:suffix" v="Улица"/>
    <tag k="highway" v="secondary"/>
    <tag k="name" v="Островная улица"/>
    <tag k="name:en" v="ulitsa Ostrovnay"/>
    <tag k="name:ru" v="Островная улица"/>
    <tag k="source" v="kosmosnimki.ru"/>
    <tag k="type" v="street"/>
  </way>
  <way id="87320245" version="5" timestamp="2011-09-21T20:05:21Z" uid="288925" user="BoomEngine" changeset="9363489">
    <nd ref="226339"/>
    <nd ref="1187757978"/>
    <nd ref="1187757990"/>
    <nd ref="1045457993"/>
    <nd ref="1187758134"/>
    <nd ref="1187758092"/>
    <nd ref="1187758063"/>
    <nd ref="1045458100"/>
    <nd ref="226340"/>
    <nd ref="1187758145"/>
    <nd ref="226341"/>
    <nd ref="226342"/>
    <nd ref="1045457837"/>
    <nd ref="1177752317"/>
    <nd ref="15491636"/>
    <nd ref="226343"/>
    <nd ref="15491609"/>
    <nd ref="226344"/>
    <nd ref="1187758038"/>
    <nd ref="930789149"/>
    <nd ref="1439630668"/>
    <nd ref="15494597"/>
    <nd ref="930789283"/>
    <nd ref="568537"/>
    <tag k="addr:city" v="Выборг"/>
    <tag k="addr:country" v="RU"/>
    <tag k="addr:state" v="Ленинградская область"/>
    <tag k="cladr:code" v="47006001000011600"/>
    <tag k="cladr:name" v="Островная"/>
    <tag k="cladr:suffix" v="Улица"/>
    <tag k="highway" v="secondary"/>
    <tag k="name" v="Островная улица"/>
    <tag k="name:en" v="ulitsa Ostrovnay"/>
    <tag k="name:ru" v="Островная улица"/>
    <tag k="source" v="kosmosnimki.ru"/>
    <tag k="type" v="street"/>
  </way>
  <way id="87320245" version="6" timestamp="2011-12-11T17:40:02Z" uid="472653" user="Pavel47" changeset="10092153">
    <nd ref="226339"/>
    <nd ref="1187757978"/>
    <nd ref="1187757990"/>
    <nd ref="1045457993"/>
    <nd ref="1187758134"/>
    <nd ref="1187758092"/>
    <nd ref="1187758063"/>
    <nd ref="1045458100"/>
    <nd ref="226340"/>
    <nd ref="1187758145"/>
    <nd ref="226341"/>
    <nd ref="226342"/>
    <nd ref="1045457837"/>
    <nd ref="1177752317"/>
    <nd ref="15491636"/>
    <nd ref="226343"/>
    <nd ref="15491609"/>
    <nd ref="1541215658"/>
    <nd ref="226344"/>
    <nd ref="1187758038"/>
    <nd ref="930789149"/>
    <nd ref="1439630668"/>
    <nd ref="15494597"/>
    <nd ref="930789283"/>
    <nd ref="568537"/>
    <tag k="addr:city" v="Выборг"/>
    <tag k="addr:country" v="RU"/>
    <tag k="addr:state" v="Ленинградская область"/>
    <tag k="cladr:code" v="47006001000011600"/>
    <tag k="cladr:name" v="Островная"/>
    <tag k="cladr:suffix" v="Улица"/>
    <tag k="highway" v="secondary"/>
    <tag k="name" v="Островная улица"/>
    <tag k="name:en" v="ulitsa Ostrovnay"/>
    <tag k="name:ru" v="Островная улица"/>
    <tag k="source" v="kosmosnimki.ru"/>
    <tag k="type" v="street"/>
  </way>
  <way id="87320245" version="7" timestamp="2011-12-27T05:14:25Z" uid="392109" user="GaM" changeset="10212858">
    <nd ref="226339"/>
    <nd ref="1187757978"/>
    <nd ref="1187757990"/>
    <nd ref="1045457993"/>
    <nd ref="1187758134"/>
    <nd ref="1187758092"/>
    <nd ref="1187758063"/>
    <nd ref="1045458100"/>
    <nd ref="226340"/>
    <nd ref="1187758145"/>
    <nd ref="226341"/>
    <nd ref="226342"/>
    <nd ref="1045457837"/>
    <nd ref="1177752317"/>
    <nd ref="15491636"/>
    <nd ref="226343"/>
    <nd ref="15491609"/>
    <nd ref="1541215658"/>
    <nd ref="226344"/>
    <nd ref="1187758038"/>
    <nd ref="930789149"/>
    <nd ref="1439630668"/>
    <nd ref="15494597"/>
    <nd ref="930789283"/>
    <nd ref="568537"/>
    <tag k="addr:city" v="Выборг"/>
    <tag k="addr:country" v="RU"/>
    <tag k="addr:state" v="Ленинградская область"/>
    <tag k="highway" v="primary"/>
    <tag k="name" v="Островная улица"/>
    <tag k="name:en" v="ulitsa Ostrovnay"/>
    <tag k="name:ru" v="Островная улица"/>
    <tag k="source" v="kosmosnimki.ru"/>
    <tag k="type" v="street"/>
  </way>
  <way id="87320245" version="8" timestamp="2012-01-03T19:05:09Z" uid="472653" user="Pavel47" changeset="10284549">
    <nd ref="226339"/>
    <nd ref="1187757978"/>
    <nd ref="1187757990"/>
    <nd ref="1045457993"/>
    <nd ref="1187758134"/>
    <nd ref="1187758092"/>
    <nd ref="1187758063"/>
    <nd ref="1045458100"/>
    <nd ref="226340"/>
    <nd ref="1187758145"/>
    <nd ref="226341"/>
    <nd ref="226342"/>
    <nd ref="1045457837"/>
    <nd ref="1177752317"/>
    <nd ref="15491636"/>
    <nd ref="226343"/>
    <nd ref="15491609"/>
    <tag k="addr:city" v="Выборг"/>
    <tag k="addr:country" v="RU"/>
    <tag k="addr:state" v="Ленинградская область"/>
    <tag k="highway" v="primary"/>
    <tag k="name" v="Островная улица"/>
    <tag k="name:en" v="ulitsa Ostrovnay"/>
    <tag k="name:ru" v="Островная улица"/>
    <tag k="source" v="kosmosnimki.ru"/>
    <tag k="type" v="street"/>
  </way>
</osm>
