<?xml version='1.0' encoding='UTF-8'?>
<osm version="0.6" generator="libosmium/2.20.0">
  <way id="87416161" version="1" timestamp="2010-12-02T19:59:41Z" uid="30632" user="antblant" changeset="6518773">
    <nd ref="254067453"/>
    <nd ref="254067455"/>
    <nd ref="620057716"/>
    <nd ref="254067454"/>
    <tag k="highway" v="construction"/>
    <tag k="name" v="Obrońców Stalingradu"/>
  </way>
  <way id="87416161" version="2" timestamp="2011-09-18T20:17:26Z" uid="473784" user="antblant" changeset="9337136">
    <nd ref="254067453"/>
    <nd ref="1436841934"/>
    <nd ref="254067455"/>
    <nd ref="1436841905"/>
    <tag k="construction" v="tertiary"/>
    <tag k="highway" v="construction"/>
    <tag k="name" v="Obrońców Stalingradu"/>
  </way>
  <way id="87416161" version="3" timestamp="2011-09-18T20:41:01Z" uid="473784" user="antblant" changeset="9337340">
    <nd ref="254067453"/>
    <nd ref="1436841934"/>
    <nd ref="254067455"/>
    <nd ref="1436841905"/>
    <tag k="highway" v="tertiary"/>
    <tag k="motor_vehicle" v="no"/>
    <tag k="name" v="Obrońców Stalingradu"/>
    <tag k="psv" v="yes"/>
  </way>
  <way id="87416161" version="4" timestamp="2011-09-27T10:50:38Z" uid="473784" user="antblant" changeset="9409599">
    <nd ref="254067453"/>
    <nd ref="1436841934"/>
    <nd ref="254067455"/>
    <nd ref="1436841905"/>
    <tag k="highway" v="tertiary"/>
    <tag k="name" v="Obrońców Stalingradu"/>
  </way>
</osm>
