<?xml version='1.0' encoding='UTF-8'?>
<osm version="0.6" generator="libosmium/2.20.0">
  <way id="87609587" version="2" timestamp="2011-01-26T17:19:02Z" uid="6269" user="Mueck" changeset="7094659">
    <nd ref="15750983"/>
    <nd ref="15750989"/>
    <nd ref="15750990"/>
    <nd ref="1122083007"/>
    <nd ref="15750991"/>
    <nd ref="1122082985"/>
    <nd ref="15750992"/>
    <nd ref="1122083051"/>
    <nd ref="15750993"/>
    <nd ref="15750994"/>
    <tag k="highway" v="secondary"/>
    <tag k="lanes" v="3"/>
    <tag k="maxspeed" v="60"/>
    <tag k="name" v="Herrenalber Straße"/>
    <tag k="note" v="im SHP des NVK: II"/>
    <tag k="ref" v="L 561"/>
  </way>
  <way id="87609587" version="3" timestamp="2012-03-30T12:05:16Z" uid="35468" user="Blunauer" changeset="11152843">
    <nd ref="15750983"/>
    <nd ref="15750989"/>
    <nd ref="15750990"/>
    <nd ref="1122083007"/>
    <nd ref="15750991"/>
    <nd ref="1122082985"/>
    <nd ref="15750992"/>
    <nd ref="1122083051"/>
    <nd ref="15750993"/>
    <nd ref="15750994"/>
    <tag k="highway" v="secondary"/>
    <tag k="lanes" v="3"/>
    <tag k="maxspeed" v="60"/>
    <tag k="name" v="Herrenalber Straße"/>
    <tag k="note" v="im SHP des NVK: II"/>
    <tag k="ref" v="L 561"/>
  </way>
</osm>
