<?xml version='1.0' encoding='UTF-8'?>
<osm version="0.6" generator="libosmium/2.20.0">
  <way id="87656396" version="1" timestamp="2010-12-04T02:50:45Z" uid="107674" user="GeoCounter" changeset="6534047">
    <nd ref="1019437386"/>
    <nd ref="1019437361"/>
    <nd ref="1019437393"/>
    <nd ref="1019437423"/>
    <nd ref="1019437386"/>
  </way>
  <way id="87656397" version="1" timestamp="2010-12-04T02:50:46Z" uid="107674" user="GeoCounter" changeset="6534047">
    <nd ref="1019437392"/>
    <nd ref="1019437367"/>
    <nd ref="1019437402"/>
    <nd ref="1019437400"/>
    <nd ref="1019437392"/>
    <tag k="addr:city" v="Neunkirchen"/>
    <tag k="addr:country" v="DE"/>
    <tag k="addr:postcode" v="57290"/>
    <tag k="addr:street" v="Friedensweg"/>
    <tag k="amenity" v="place_of_worship"/>
    <tag k="building" v="yes"/>
    <tag k="denomination" v="protestant"/>
    <tag k="name" v="Erlöserkirche"/>
    <tag k="religion" v="christian"/>
  </way>
  <way id="87656397" version="2" timestamp="2010-12-07T20:14:44Z" uid="107674" user="GeoCounter" changeset="6579080">
    <nd ref="1019437392"/>
    <nd ref="1019437367"/>
    <nd ref="1019437402"/>
    <nd ref="1019437400"/>
    <nd ref="1019437392"/>
    <tag k="addr:city" v="Neunkirchen"/>
    <tag k="addr:country" v="DE"/>
    <tag k="addr:postcode" v="57290"/>
    <tag k="addr:street" v="Friedensweg"/>
    <tag k="amenity" v="place_of_worship"/>
    <tag k="building" v="yes"/>
    <tag k="contact:website" v="http://neunkirchen.kirchenkreis-siegen.de/index.php?uname=Salchendorf&amp;katid=3&amp;uid=31"/>
    <tag k="denomination" v="protestant"/>
    <tag k="name" v="Erlöserkirche"/>
    <tag k="religion" v="christian"/>
  </way>
  <way id="87656397" version="3" timestamp="2012-01-03T13:39:11Z" uid="91490" user="Heinz_V" changeset="10281306">
    <nd ref="1019437392"/>
    <nd ref="1019437367"/>
    <nd ref="1019437402"/>
    <nd ref="1019437400"/>
    <nd ref="1019437392"/>
    <tag k="addr:city" v="Neunkirchen"/>
    <tag k="addr:country" v="DE"/>
    <tag k="addr:postcode" v="57290"/>
    <tag k="addr:street" v="Friedensweg"/>
    <tag k="amenity" v="place_of_worship"/>
    <tag k="building" v="yes"/>
    <tag k="contact:website" v="http://neunkirchen.kirchenkreis-siegen.de/index.php?uname=Salchendorf&amp;katid=3&amp;uid=31"/>
    <tag k="denomination" v="protestant"/>
    <tag k="name" v="Erlöserkirche"/>
    <tag k="odbl" v="clean"/>
    <tag k="religion" v="christian"/>
  </way>
  <way id="87656398" version="1" timestamp="2010-12-04T02:50:46Z" uid="107674" user="GeoCounter" changeset="6534047">
    <nd ref="1019437374"/>
    <nd ref="1019437355"/>
    <nd ref="1019437381"/>
    <nd ref="1019437415"/>
    <nd ref="1019437398"/>
    <nd ref="1019437426"/>
    <nd ref="1019437375"/>
    <nd ref="1019437409"/>
    <nd ref="1019437374"/>
    <tag k="building" v="yes"/>
  </way>
  <way id="87656399" version="1" timestamp="2010-12-04T02:50:46Z" uid="107674" user="GeoCounter" changeset="6534047">
    <nd ref="1019437359"/>
    <nd ref="1019437414"/>
    <nd ref="1019437364"/>
    <nd ref="1019437397"/>
    <nd ref="1019437359"/>
    <tag k="building" v="yes"/>
  </way>
  <way id="87656400" version="1" timestamp="2010-12-04T02:50:46Z" uid="107674" user="GeoCounter" changeset="6534047">
    <nd ref="1019437431"/>
    <nd ref="1019437405"/>
    <nd ref="1019437412"/>
    <nd ref="1019437363"/>
    <nd ref="1019437396"/>
    <nd ref="1019437425"/>
    <nd ref="1019437373"/>
    <nd ref="1019437407"/>
    <nd ref="1019437390"/>
    <nd ref="1019437421"/>
    <nd ref="1019437369"/>
    <nd ref="1019437404"/>
    <nd ref="1019437357"/>
    <nd ref="1019437384"/>
    <nd ref="1019437418"/>
    <nd ref="1019437366"/>
    <nd ref="1019437399"/>
    <nd ref="1019437428"/>
    <nd ref="1019437378"/>
    <nd ref="1019437385"/>
    <nd ref="1019437419"/>
    <nd ref="1019437422"/>
    <nd ref="1019437358"/>
    <nd ref="1019437430"/>
    <nd ref="1019437431"/>
  </way>
  <way id="87656401" version="1" timestamp="2010-12-04T02:50:47Z" uid="107674" user="GeoCounter" changeset="6534047">
    <nd ref="1019437371"/>
    <nd ref="1019437432"/>
    <nd ref="1019437380"/>
    <nd ref="1019437379"/>
    <nd ref="1019437411"/>
    <nd ref="1019437362"/>
    <nd ref="1019437394"/>
    <nd ref="1019437424"/>
    <nd ref="1019437372"/>
    <nd ref="1019437406"/>
    <nd ref="1019437360"/>
    <nd ref="1019437388"/>
    <nd ref="1019437420"/>
    <nd ref="1019437368"/>
    <nd ref="1019437403"/>
    <nd ref="1019437356"/>
    <nd ref="1019437383"/>
    <nd ref="1019437417"/>
    <nd ref="1019437365"/>
    <nd ref="1019437427"/>
    <nd ref="1019437377"/>
    <nd ref="1019437410"/>
    <nd ref="1019437371"/>
    <tag k="addr:city" v="Neunkirchen"/>
    <tag k="addr:country" v="DE"/>
    <tag k="addr:housenumber" v="1"/>
    <tag k="addr:postcode" v="57290"/>
    <tag k="addr:street" v="Am Birkenwald"/>
    <tag k="amenity" v="public_building"/>
    <tag k="building" v="yes"/>
    <tag k="name" v="Altersheim Freier Grund"/>
  </way>
  <way id="87656401" version="2" timestamp="2012-01-03T13:40:27Z" uid="91490" user="Heinz_V" changeset="10281306">
    <nd ref="1019437371"/>
    <nd ref="1019437432"/>
    <nd ref="1019437380"/>
    <nd ref="1019437379"/>
    <nd ref="1019437411"/>
    <nd ref="1019437362"/>
    <nd ref="1019437394"/>
    <nd ref="1019437424"/>
    <nd ref="1019437372"/>
    <nd ref="1019437406"/>
    <nd ref="1019437360"/>
    <nd ref="1019437388"/>
    <nd ref="1019437420"/>
    <nd ref="1019437368"/>
    <nd ref="1019437403"/>
    <nd ref="1019437356"/>
    <nd ref="1019437383"/>
    <nd ref="1019437417"/>
    <nd ref="1019437365"/>
    <nd ref="1019437427"/>
    <nd ref="1019437377"/>
    <nd ref="1019437410"/>
    <nd ref="1019437371"/>
    <tag k="addr:city" v="Neunkirchen"/>
    <tag k="addr:country" v="DE"/>
    <tag k="addr:housenumber" v="1"/>
    <tag k="addr:postcode" v="57290"/>
    <tag k="addr:street" v="Am Birkenwald"/>
    <tag k="amenity" v="public_building"/>
    <tag k="building" v="yes"/>
    <tag k="name" v="Altersheim Freier Grund"/>
    <tag k="odbl" v="clean"/>
  </way>
  <way id="87656625" version="1" timestamp="2010-12-04T03:02:57Z" uid="7617" user="Franc" changeset="6534062">
    <nd ref="1019440156"/>
    <nd ref="1019440154"/>
    <nd ref="1019440155"/>
    <tag k="highway" v="unclassified"/>
    <tag k="source" v="nearmap"/>
  </way>
</osm>
