<?xml version='1.0' encoding='UTF-8'?>
<osm version="0.6" generator="libosmium/2.20.0">
  <way id="8783648" version="2" timestamp="2008-07-05T18:10:23Z" uid="6975" user="ulfl" changeset="398437">
    <nd ref="63215233"/>
    <nd ref="63215235"/>
    <nd ref="63215236"/>
    <nd ref="63215237"/>
    <nd ref="63215238"/>
    <nd ref="63215240"/>
    <nd ref="63215241"/>
    <nd ref="63215243"/>
    <nd ref="63215233"/>
    <tag k="leisure" v="stadium"/>
    <tag k="name" v="Millwall"/>
    <tag k="sport" v="football"/>
  </way>
  <way id="8783648" version="3" timestamp="2009-11-28T22:26:28Z" uid="1185" user="dankarran" changeset="3241081">
    <nd ref="63215233"/>
    <nd ref="63215235"/>
    <nd ref="63215236"/>
    <nd ref="63215237"/>
    <nd ref="63215238"/>
    <nd ref="63215240"/>
    <nd ref="63215241"/>
    <nd ref="63215243"/>
    <nd ref="63215233"/>
    <tag k="addr:housename" v="The New Den"/>
    <tag k="alt_name" v="The Den"/>
    <tag k="leisure" v="stadium"/>
    <tag k="name" v="Millwall"/>
    <tag k="sport" v="football"/>
    <tag k="wikipedia" v="http://en.wikipedia.org/wiki/The_New_Den"/>
  </way>
  <way id="8783648" version="4" timestamp="2010-06-28T22:46:12Z" uid="38244" user="jamicu" changeset="5102258">
    <nd ref="63215233"/>
    <nd ref="63215235"/>
    <nd ref="63215236"/>
    <nd ref="63215237"/>
    <nd ref="63215238"/>
    <nd ref="63215240"/>
    <nd ref="63215241"/>
    <nd ref="63215243"/>
    <nd ref="63215233"/>
    <tag k="addr:housename" v="The New Den"/>
    <tag k="alt_name" v="The Den"/>
    <tag k="leisure" v="stadium"/>
    <tag k="name" v="Millwall"/>
    <tag k="sport" v="association_football"/>
    <tag k="wikipedia" v="http://en.wikipedia.org/wiki/The_New_Den"/>
  </way>
</osm>
