<?xml version='1.0' encoding='UTF-8'?>
<osm version="0.6" generator="libosmium/2.20.0">
  <way id="8791890" version="8" timestamp="2008-02-28T22:22:46Z" uid="13367" user="nubok" changeset="224978">
    <nd ref="63287911"/>
    <nd ref="249507527"/>
    <nd ref="82697639"/>
    <nd ref="249508021"/>
    <tag k="created_by" v="Potlatch 0.7b"/>
    <tag k="highway" v="secondary"/>
    <tag k="name" v="Beimsstraße"/>
  </way>
  <way id="8791890" version="9" timestamp="2008-02-28T22:22:57Z" uid="13367" user="nubok" changeset="224978">
    <nd ref="63287911"/>
    <nd ref="249507527"/>
    <nd ref="82697639"/>
    <nd ref="249508021"/>
    <nd ref="249622936"/>
    <tag k="created_by" v="Potlatch 0.7b"/>
    <tag k="highway" v="secondary"/>
    <tag k="name" v="Beimsstraße"/>
  </way>
  <way id="8791890" version="10" timestamp="2008-02-28T22:23:08Z" uid="13367" user="nubok" changeset="224978">
    <nd ref="63287911"/>
    <nd ref="249507527"/>
    <nd ref="82697639"/>
    <nd ref="249508021"/>
    <tag k="created_by" v="Potlatch 0.7b"/>
    <tag k="highway" v="secondary"/>
    <tag k="name" v="Beimsstraße"/>
  </way>
  <way id="8791890" version="11" timestamp="2008-02-28T22:23:23Z" uid="13367" user="nubok" changeset="224978"/>
</osm>
