<?xml version='1.0' encoding='UTF-8'?>
<osm version="0.6" generator="libosmium/2.20.0">
  <way id="88087970" version="2" timestamp="2011-02-07T06:18:12Z" uid="4467" user="Rosscoe" changeset="7212788">
    <nd ref="1023669531"/>
    <nd ref="1140362298"/>
    <nd ref="1023669586"/>
    <nd ref="1140362248"/>
    <nd ref="1023669442"/>
    <tag k="highway" v="residential"/>
    <tag k="maxspeed" v="50"/>
    <tag k="maxspeed:source" v="default residential speed limit in Australia"/>
    <tag k="name" v="Whitely Cresent"/>
    <tag k="source" v="nearmap"/>
    <tag k="surface" v="asphalt"/>
  </way>
  <way id="88087970" version="3" timestamp="2011-02-07T11:12:33Z" uid="4467" user="Rosscoe" changeset="7214726">
    <nd ref="1023669531"/>
    <nd ref="1140362298"/>
    <nd ref="1023669586"/>
    <nd ref="1140362248"/>
    <nd ref="1023669442"/>
    <tag k="highway" v="residential"/>
    <tag k="maxspeed" v="50"/>
    <tag k="name" v="Whitely Cresent"/>
    <tag k="source" v="nearmap"/>
    <tag k="source:maxspeed" v="default residential speed limit in Australia"/>
    <tag k="surface" v="asphalt"/>
  </way>
  <way id="88087972" version="2" timestamp="2011-02-07T08:21:09Z" uid="4467" user="Rosscoe" changeset="7213360">
    <nd ref="1140475353"/>
    <nd ref="1140474394"/>
    <nd ref="1140475238"/>
    <nd ref="1140475119"/>
    <nd ref="1140475295"/>
    <nd ref="1140474548"/>
    <nd ref="1023669226"/>
    <tag k="highway" v="secondary"/>
    <tag k="name" v="Hainz Lane"/>
    <tag k="source" v="nearmap"/>
    <tag k="surface" v="asphalt"/>
  </way>
  <way id="88087976" version="2" timestamp="2011-01-06T01:08:34Z" uid="4467" user="Rosscoe" changeset="6878194">
    <nd ref="1023669582"/>
    <nd ref="1023669717"/>
    <tag k="highway" v="residential"/>
    <tag k="name" v="Eaton Close"/>
  </way>
  <way id="88087976" version="3" timestamp="2011-02-07T06:18:39Z" uid="4467" user="Rosscoe" changeset="7212788">
    <nd ref="1023669582"/>
    <nd ref="1140362330"/>
    <nd ref="1023669717"/>
    <tag k="highway" v="residential"/>
    <tag k="name" v="Eaton Close"/>
  </way>
  <way id="88087979" version="3" timestamp="2011-02-07T06:18:00Z" uid="4467" user="Rosscoe" changeset="7212788">
    <nd ref="1023669721"/>
    <nd ref="1023764708"/>
    <nd ref="1140362198"/>
    <nd ref="1023669540"/>
    <nd ref="1023669434"/>
    <tag k="highway" v="residential"/>
    <tag k="name" v="Cedar Avenue"/>
  </way>
  <way id="88087985" version="2" timestamp="2011-02-07T06:17:59Z" uid="4467" user="Rosscoe" changeset="7212788">
    <nd ref="1023669531"/>
    <nd ref="1140362263"/>
    <nd ref="1023669707"/>
    <nd ref="1023669647"/>
    <nd ref="1023669592"/>
    <nd ref="1023669643"/>
    <nd ref="1140362224"/>
    <nd ref="1023669653"/>
    <tag k="highway" v="residential"/>
    <tag k="maxspeed" v="50"/>
    <tag k="maxspeed:source" v="default residential speed limit in Australia"/>
    <tag k="name" v="Argyle Cresent"/>
    <tag k="source" v="nearmap"/>
    <tag k="surface" v="asphalt"/>
  </way>
  <way id="88087985" version="3" timestamp="2011-02-07T11:11:10Z" uid="4467" user="Rosscoe" changeset="7214726">
    <nd ref="1023669531"/>
    <nd ref="1140362263"/>
    <nd ref="1023669707"/>
    <nd ref="1023669647"/>
    <nd ref="1023669592"/>
    <nd ref="1023669643"/>
    <nd ref="1140362224"/>
    <nd ref="1023669653"/>
    <tag k="highway" v="residential"/>
    <tag k="maxspeed" v="50"/>
    <tag k="name" v="Argyle Cresent"/>
    <tag k="source" v="nearmap"/>
    <tag k="source:maxspeed" v="default residential speed limit in Australia"/>
    <tag k="surface" v="asphalt"/>
  </way>
  <way id="88087988" version="2" timestamp="2011-02-07T06:18:15Z" uid="4467" user="Rosscoe" changeset="7212788">
    <nd ref="1023669578"/>
    <nd ref="1023669586"/>
    <tag k="highway" v="residential"/>
    <tag k="maxspeed" v="50"/>
    <tag k="maxspeed:source" v="default residential speed limit in Australia"/>
    <tag k="name" v="Ashbourne Court"/>
    <tag k="source" v="nearmap"/>
    <tag k="surface" v="asphalt"/>
  </way>
  <way id="88087988" version="3" timestamp="2011-02-07T11:12:51Z" uid="4467" user="Rosscoe" changeset="7214726">
    <nd ref="1023669578"/>
    <nd ref="1023669586"/>
    <tag k="highway" v="residential"/>
    <tag k="maxspeed" v="50"/>
    <tag k="name" v="Ashbourne Court"/>
    <tag k="source" v="nearmap"/>
    <tag k="source:maxspeed" v="default residential speed limit in Australia"/>
    <tag k="surface" v="asphalt"/>
  </way>
  <way id="88087991" version="2" timestamp="2011-01-06T01:08:35Z" uid="4467" user="Rosscoe" changeset="6878194">
    <nd ref="1023669447"/>
    <nd ref="1023669744"/>
    <tag k="highway" v="residential"/>
    <tag k="name" v="Cottesloe Place"/>
  </way>
  <way id="88087991" version="3" timestamp="2011-02-07T06:18:30Z" uid="4467" user="Rosscoe" changeset="7212788">
    <nd ref="1023669447"/>
    <nd ref="1023669744"/>
    <tag k="highway" v="residential"/>
    <tag k="maxspeed" v="50"/>
    <tag k="maxspeed:source" v="default residential speed limit in Australia"/>
    <tag k="name" v="Cottesloe Place"/>
    <tag k="source" v="nearmap"/>
    <tag k="surface" v="asphalt"/>
  </way>
  <way id="88087991" version="4" timestamp="2011-02-07T11:14:16Z" uid="4467" user="Rosscoe" changeset="7214726">
    <nd ref="1023669447"/>
    <nd ref="1023669744"/>
    <tag k="highway" v="residential"/>
    <tag k="maxspeed" v="50"/>
    <tag k="name" v="Cottesloe Place"/>
    <tag k="source" v="nearmap"/>
    <tag k="source:maxspeed" v="default residential speed limit in Australia"/>
    <tag k="surface" v="asphalt"/>
  </way>
  <way id="88087992" version="2" timestamp="2011-02-07T06:17:57Z" uid="4467" user="Rosscoe" changeset="7212788">
    <nd ref="1023669237"/>
    <nd ref="1023669707"/>
    <tag k="highway" v="residential"/>
    <tag k="maxspeed" v="50"/>
    <tag k="maxspeed:source" v="default residential speed limit in Australia"/>
    <tag k="name" v="Abbey Court"/>
    <tag k="source" v="nearmap"/>
    <tag k="surface" v="asphalt"/>
  </way>
  <way id="88087992" version="3" timestamp="2011-02-07T11:10:51Z" uid="4467" user="Rosscoe" changeset="7214726">
    <nd ref="1023669237"/>
    <nd ref="1023669707"/>
    <tag k="highway" v="residential"/>
    <tag k="maxspeed" v="50"/>
    <tag k="name" v="Abbey Court"/>
    <tag k="source" v="nearmap"/>
    <tag k="source:maxspeed" v="default residential speed limit in Australia"/>
    <tag k="surface" v="asphalt"/>
  </way>
  <way id="88087997" version="3" timestamp="2011-02-07T06:18:05Z" uid="4467" user="Rosscoe" changeset="7212788">
    <nd ref="1023669465"/>
    <nd ref="1023720100"/>
    <nd ref="1023720043"/>
    <nd ref="1023720035"/>
    <nd ref="1023720083"/>
    <nd ref="1140362176"/>
    <nd ref="1023669736"/>
    <tag k="highway" v="secondary"/>
    <tag k="name" v="Dyson Drive"/>
  </way>
  <way id="88087997" version="4" timestamp="2011-02-07T08:21:10Z" uid="4467" user="Rosscoe" changeset="7213360">
    <nd ref="1140475240"/>
    <nd ref="1023720100"/>
    <nd ref="1023720043"/>
    <nd ref="1023720035"/>
    <nd ref="1023720083"/>
    <nd ref="1140362176"/>
    <nd ref="1023669736"/>
    <tag k="highway" v="secondary"/>
    <tag k="name" v="Dyson Drive"/>
  </way>
  <way id="88087999" version="3" timestamp="2011-02-07T06:20:28Z" uid="4467" user="Rosscoe" changeset="7212802">
    <nd ref="1023669389"/>
    <nd ref="1023669726"/>
    <nd ref="1023669374"/>
    <nd ref="1023669516"/>
    <nd ref="1023669492"/>
    <nd ref="1023669499"/>
    <nd ref="1140364110"/>
    <nd ref="1023669459"/>
    <nd ref="1023764712"/>
    <nd ref="1023669367"/>
    <tag k="highway" v="residential"/>
    <tag k="name" v="Mirnosa Avenue"/>
  </way>
  <way id="88087999" version="4" timestamp="2011-08-27T16:07:11Z" uid="379724" user="bugman" changeset="9139194">
    <nd ref="1023669389"/>
    <nd ref="1023669726"/>
    <nd ref="1414930889"/>
    <nd ref="1023669374"/>
    <nd ref="1023669516"/>
    <nd ref="1023669492"/>
    <nd ref="1023669499"/>
    <nd ref="1140364110"/>
    <nd ref="1023669459"/>
    <nd ref="1023764712"/>
    <nd ref="1023669367"/>
    <tag k="highway" v="residential"/>
    <tag k="name" v="Mirnosa Avenue"/>
  </way>
</osm>
