<?xml version='1.0' encoding='UTF-8'?>
<osm version="0.6" generator="libosmium/2.20.0">
  <way id="88474955" version="4" timestamp="2011-03-13T00:01:05Z" uid="30632" user="antblant" changeset="7539780">
    <nd ref="1091369292"/>
    <nd ref="1027684990"/>
    <nd ref="1027684993"/>
    <nd ref="1027684915"/>
    <nd ref="1027684924"/>
    <nd ref="1091369292"/>
    <tag k="addr:country" v="PL"/>
    <tag k="addr:housenumber" v="169"/>
    <tag k="addr:street" v="Aleja Generała Józefa Hallera"/>
    <tag k="building" v="yes"/>
  </way>
  <way id="88474955" version="5" timestamp="2011-08-15T06:31:23Z" uid="378154" user="rosomak" changeset="9023641">
    <nd ref="1091369292"/>
    <nd ref="1027684990"/>
    <nd ref="1027684993"/>
    <nd ref="1027684915"/>
    <nd ref="1027684924"/>
    <nd ref="1091369292"/>
    <tag k="addr:country" v="PL"/>
    <tag k="addr:housenumber" v="169"/>
    <tag k="addr:street" v="aleja generała Józefa Hallera"/>
    <tag k="building" v="yes"/>
  </way>
</osm>
