<?xml version='1.0' encoding='UTF-8'?>
<osm version="0.6" generator="libosmium/2.20.0">
  <way id="88633231" version="1" timestamp="2010-12-09T07:30:20Z" uid="8619" user="cetest" changeset="6592432">
    <nd ref="1029222126"/>
    <nd ref="1029222144"/>
    <nd ref="1029222146"/>
    <nd ref="1029222127"/>
    <nd ref="1029222126"/>
    <tag k="amenity" v="restaurant"/>
    <tag k="cuisine" v="regional"/>
    <tag k="name" v="Havat HaTavliniem"/>
    <tag k="opening_hours" v="1300 - 2300"/>
    <tag k="phone" v="04-6531093"/>
    <tag k="website" v="http://www.herb-farm.co.il"/>
  </way>
  <way id="88633231" version="2" timestamp="2010-12-20T01:05:46Z" uid="32786" user="Netzwolf" changeset="6712284">
    <nd ref="1029222126"/>
    <nd ref="1029222144"/>
    <nd ref="1029222146"/>
    <nd ref="1029222127"/>
    <nd ref="1029222126"/>
    <tag k="amenity" v="restaurant"/>
    <tag k="cuisine" v="regional"/>
    <tag k="name" v="Havat HaTavliniem"/>
    <tag k="opening_hours" v="13:00-23:00"/>
    <tag k="phone" v="04-6531093"/>
    <tag k="website" v="http://www.herb-farm.co.il"/>
  </way>
  <way id="88633231" version="3" timestamp="2011-04-08T20:30:47Z" uid="254593" user="dimka" changeset="7807892">
    <nd ref="1029222126"/>
    <nd ref="1029222144"/>
    <nd ref="1029222146"/>
    <nd ref="1029222127"/>
    <nd ref="1029222126"/>
    <tag k="amenity" v="restaurant"/>
    <tag k="cuisine" v="regional"/>
    <tag k="name" v="חוות התבלינים"/>
    <tag k="name:en" v="Havat HaTavliniem"/>
    <tag k="opening_hours" v="13:00-23:00"/>
    <tag k="phone" v="04-6531093"/>
    <tag k="website" v="http://www.herb-farm.co.il"/>
  </way>
  <way id="88633231" version="4" timestamp="2012-02-17T10:04:07Z" uid="22684" user="Mr_Israel" changeset="10709562"/>
</osm>
