<?xml version='1.0' encoding='UTF-8'?>
<osm version="0.6" generator="libosmium/2.20.0">
  <way id="8867882" version="8" timestamp="2009-02-14T01:19:44Z" uid="36809" user="pfoten_weg_!_" changeset="423851">
    <nd ref="20982511"/>
    <nd ref="472069"/>
    <nd ref="315495804"/>
    <nd ref="472068"/>
    <nd ref="472067"/>
    <nd ref="472065"/>
    <nd ref="472066"/>
    <nd ref="472064"/>
    <nd ref="21486969"/>
    <nd ref="32268757"/>
    <nd ref="472063"/>
    <nd ref="21651047"/>
    <nd ref="472062"/>
    <nd ref="32677700"/>
    <nd ref="472061"/>
    <tag k="created_by" v="RambaZamba"/>
    <tag k="highway" v="primary"/>
    <tag k="name" v="Chiemgaustraße"/>
    <tag k="ref" v="B 2 R;B 11"/>
    <tag k="source" v="survey"/>
  </way>
  <way id="8867882" version="10" timestamp="2009-06-02T20:24:19Z" uid="118197" user="JosmJo" changeset="1408370">
    <nd ref="20982511"/>
    <nd ref="472069"/>
    <tag k="created_by" v="RambaZamba"/>
    <tag k="highway" v="primary"/>
    <tag k="name" v="Chiemgaustraße"/>
    <tag k="ref" v="B 2R;B 11"/>
    <tag k="source" v="survey"/>
  </way>
  <way id="8867882" version="11" timestamp="2009-08-04T19:09:14Z" uid="8748" user="ToniE" changeset="2038978">
    <nd ref="20982511"/>
    <nd ref="456354503"/>
    <nd ref="472069"/>
    <tag k="highway" v="primary"/>
    <tag k="name" v="Chiemgaustraße"/>
    <tag k="ref" v="B 2R;B 11"/>
    <tag k="source" v="survey"/>
  </way>
  <way id="8867882" version="12" timestamp="2009-09-23T20:05:10Z" uid="118197" user="JosmJo" changeset="2599790">
    <nd ref="20982511"/>
    <nd ref="456354503"/>
    <nd ref="472069"/>
    <tag k="highway" v="primary"/>
    <tag k="name" v="Chiemgaustraße"/>
    <tag k="ref" v="B 2R"/>
    <tag k="source" v="survey"/>
  </way>
  <way id="8867882" version="13" timestamp="2009-10-16T19:33:23Z" uid="8748" user="ToniE" changeset="2868149">
    <nd ref="20982511"/>
    <nd ref="456354503"/>
    <tag k="highway" v="primary"/>
    <tag k="name" v="Chiemgaustraße"/>
    <tag k="ref" v="B 2R"/>
    <tag k="source" v="survey"/>
  </way>
  <way id="8867882" version="14" timestamp="2010-04-25T17:38:08Z" uid="224490" user="Geo-Tobi" changeset="4524172">
    <nd ref="20982511"/>
    <nd ref="456354503"/>
    <tag k="highway" v="primary"/>
    <tag k="maxspeed" v="DE:urban"/>
    <tag k="name" v="Chiemgaustraße"/>
    <tag k="ref" v="B 2R"/>
    <tag k="source" v="survey"/>
  </way>
  <way id="8867882" version="15" timestamp="2010-06-23T17:59:18Z" uid="296748" user="klepo" changeset="5060670">
    <nd ref="20982511"/>
    <nd ref="784947354"/>
    <nd ref="456354503"/>
    <tag k="highway" v="primary"/>
    <tag k="maxspeed" v="DE:urban"/>
    <tag k="name" v="Chiemgaustraße"/>
    <tag k="ref" v="B 2R"/>
    <tag k="source" v="survey"/>
  </way>
  <way id="8867882" version="16" timestamp="2010-09-13T11:06:36Z" uid="104779" user="ABRob" changeset="5768179">
    <nd ref="20982511"/>
    <nd ref="784947354"/>
    <nd ref="456354503"/>
    <tag k="highway" v="primary"/>
    <tag k="maxspeed" v="50"/>
    <tag k="name" v="Chiemgaustraße"/>
    <tag k="ref" v="B 2R"/>
    <tag k="source" v="survey"/>
    <tag k="zone:maxspeed" v="DE:urban"/>
    <tag k="zone:traffic" v="DE:urban"/>
  </way>
  <way id="8867882" version="17" timestamp="2011-07-09T12:03:44Z" uid="8748" user="ToniE" changeset="8673918">
    <nd ref="1354717177"/>
    <nd ref="1354717196"/>
    <nd ref="1354717215"/>
    <nd ref="456354503"/>
    <tag k="highway" v="primary"/>
    <tag k="maxspeed" v="50"/>
    <tag k="name" v="Chiemgaustraße"/>
    <tag k="ref" v="B 2R"/>
    <tag k="source" v="survey"/>
    <tag k="zone:maxspeed" v="DE:urban"/>
    <tag k="zone:traffic" v="DE:urban"/>
  </way>
  <way id="8867882" version="18" timestamp="2012-03-01T22:03:21Z" uid="224490" user="Geo-Tobi" changeset="10842795">
    <nd ref="1354717177"/>
    <nd ref="1354717196"/>
    <nd ref="1354717215"/>
    <nd ref="456354503"/>
    <tag k="highway" v="primary"/>
    <tag k="lanes" v="4"/>
    <tag k="maxspeed" v="50"/>
    <tag k="name" v="Chiemgaustraße"/>
    <tag k="ref" v="B 2R"/>
    <tag k="source" v="survey"/>
    <tag k="zone:maxspeed" v="DE:urban"/>
    <tag k="zone:traffic" v="DE:urban"/>
  </way>
</osm>
