<?xml version='1.0' encoding='UTF-8'?>
<osm version="0.6" generator="libosmium/2.20.0">
  <way id="8874939" version="6" timestamp="2010-10-22T20:34:33Z" uid="9581" user="Lobelt" changeset="6140146">
    <nd ref="32926024"/>
    <nd ref="960737444"/>
    <nd ref="960737665"/>
    <nd ref="960736321"/>
    <nd ref="960735048"/>
    <nd ref="960735583"/>
    <nd ref="64629146"/>
    <tag k="bridge" v="yes"/>
    <tag k="highway" v="motorway"/>
    <tag k="lanes" v="2"/>
    <tag k="layer" v="1"/>
    <tag k="name" v="Talbrücke Albrechtgraben"/>
    <tag k="oneway" v="yes"/>
    <tag k="ref" v="A 71"/>
  </way>
  <way id="8874939" version="7" timestamp="2011-09-20T18:06:18Z" uid="475266" user="Lobelt_2" changeset="9353907">
    <nd ref="32926024"/>
    <nd ref="960737444"/>
    <nd ref="960737665"/>
    <nd ref="960736321"/>
    <nd ref="960735048"/>
    <nd ref="960735583"/>
    <nd ref="64629146"/>
    <tag k="bridge" v="yes"/>
    <tag k="highway" v="motorway"/>
    <tag k="lanes" v="2"/>
    <tag k="layer" v="1"/>
    <tag k="maxspeed" v="no"/>
    <tag k="name" v="Talbrücke Albrechtgraben"/>
    <tag k="oneway" v="yes"/>
    <tag k="ref" v="A 71"/>
  </way>
  <way id="8874939" version="8" timestamp="2011-09-20T18:14:18Z" uid="475266" user="Lobelt_2" changeset="9354014">
    <nd ref="32926024"/>
    <nd ref="960737444"/>
    <nd ref="960737665"/>
    <nd ref="960736321"/>
    <nd ref="960735048"/>
    <nd ref="960735583"/>
    <nd ref="64629146"/>
    <tag k="bridge" v="yes"/>
    <tag k="highway" v="motorway"/>
    <tag k="lanes" v="2"/>
    <tag k="layer" v="1"/>
    <tag k="maxspeed" v="none"/>
    <tag k="name" v="Talbrücke Albrechtgraben"/>
    <tag k="oneway" v="yes"/>
    <tag k="ref" v="A 71"/>
  </way>
  <way id="8874939" version="9" timestamp="2012-02-27T14:16:28Z" uid="28234" user="derandi" changeset="10808860"/>
  <way id="8874940" version="5" timestamp="2010-10-22T20:34:30Z" uid="9581" user="Lobelt" changeset="6140146">
    <nd ref="64629146"/>
    <nd ref="960736848"/>
    <nd ref="960735275"/>
    <nd ref="960735090"/>
    <nd ref="960734712"/>
    <nd ref="32926023"/>
    <nd ref="960736286"/>
    <nd ref="960735031"/>
    <nd ref="960735714"/>
    <nd ref="960736695"/>
    <nd ref="960735856"/>
    <tag k="highway" v="motorway"/>
    <tag k="lanes" v="2"/>
    <tag k="oneway" v="yes"/>
    <tag k="ref" v="A 71"/>
  </way>
  <way id="8874940" version="6" timestamp="2011-09-20T18:14:22Z" uid="475266" user="Lobelt_2" changeset="9354014">
    <nd ref="64629146"/>
    <nd ref="960736848"/>
    <nd ref="960735275"/>
    <nd ref="960735090"/>
    <nd ref="960734712"/>
    <nd ref="32926023"/>
    <nd ref="960736286"/>
    <nd ref="960735031"/>
    <nd ref="960735714"/>
    <nd ref="960736695"/>
    <nd ref="960735856"/>
    <tag k="highway" v="motorway"/>
    <tag k="lanes" v="2"/>
    <tag k="maxspeed" v="none"/>
    <tag k="oneway" v="yes"/>
    <tag k="ref" v="A 71"/>
  </way>
  <way id="8874940" version="7" timestamp="2012-02-27T14:16:28Z" uid="28234" user="derandi" changeset="10808860"/>
  <way id="8874941" version="6" timestamp="2010-10-22T20:35:20Z" uid="9581" user="Lobelt" changeset="6140146">
    <nd ref="64629148"/>
    <nd ref="960736185"/>
    <nd ref="960735542"/>
    <nd ref="960735743"/>
    <nd ref="960734913"/>
    <nd ref="960736807"/>
    <nd ref="26559564"/>
    <tag k="bridge" v="yes"/>
    <tag k="highway" v="motorway"/>
    <tag k="lanes" v="2"/>
    <tag k="layer" v="1"/>
    <tag k="name" v="Talbrücke Albrechtgraben"/>
    <tag k="oneway" v="yes"/>
    <tag k="ref" v="A 71"/>
  </way>
  <way id="8874941" version="7" timestamp="2010-12-30T20:13:44Z" uid="9581" user="Lobelt" changeset="6813569">
    <nd ref="64629148"/>
    <nd ref="960736185"/>
    <nd ref="960735542"/>
    <nd ref="960735743"/>
    <tag k="bridge" v="yes"/>
    <tag k="highway" v="motorway"/>
    <tag k="lanes" v="2"/>
    <tag k="layer" v="1"/>
    <tag k="maxspeed" v="130"/>
    <tag k="name" v="Talbrücke Albrechtgraben"/>
    <tag k="oneway" v="yes"/>
    <tag k="ref" v="A 71"/>
  </way>
  <way id="8874941" version="8" timestamp="2012-02-27T14:16:28Z" uid="28234" user="derandi" changeset="10808860"/>
  <way id="8874942" version="8" timestamp="2010-12-30T20:13:53Z" uid="9581" user="Lobelt" changeset="6813569">
    <nd ref="26559564"/>
    <nd ref="619977098"/>
    <nd ref="26559565"/>
    <tag k="highway" v="motorway"/>
    <tag k="lanes" v="2"/>
    <tag k="maxspeed" v="80"/>
    <tag k="oneway" v="yes"/>
    <tag k="ref" v="A 71"/>
  </way>
  <way id="8874942" version="9" timestamp="2012-02-27T14:16:26Z" uid="28234" user="derandi" changeset="10808860">
    <nd ref="1650362429"/>
    <nd ref="619977098"/>
    <nd ref="26559565"/>
    <tag k="highway" v="motorway"/>
    <tag k="lanes" v="2"/>
    <tag k="maxspeed" v="80"/>
    <tag k="oneway" v="yes"/>
    <tag k="ref" v="A 71"/>
  </way>
  <way id="8874942" version="10" timestamp="2012-03-10T12:01:36Z" uid="418724" user="wintersportler" changeset="10930819">
    <nd ref="1650362429"/>
    <nd ref="26559565"/>
    <tag k="highway" v="motorway"/>
    <tag k="lanes" v="2"/>
    <tag k="maxspeed" v="80"/>
    <tag k="oneway" v="yes"/>
    <tag k="ref" v="A 71"/>
  </way>
</osm>
