<?xml version='1.0' encoding='UTF-8'?>
<osm version="0.6" generator="libosmium/2.20.0">
  <way id="88826821" version="1" timestamp="2010-12-10T14:27:07Z" uid="6269" user="Mueck" changeset="6605715">
    <nd ref="1028921931"/>
    <nd ref="1028921990"/>
    <nd ref="1028921975"/>
    <tag k="VzG" v="1740"/>
    <tag k="electrified" v="contact_line"/>
    <tag k="embankment" v="yes"/>
    <tag k="gauge" v="1435"/>
    <tag k="name" v="Bremerhaven-Wunstorf"/>
    <tag k="railway" v="rail"/>
    <tag k="source" v="bing"/>
  </way>
  <way id="88826821" version="2" timestamp="2010-12-13T14:01:57Z" uid="6269" user="Mueck" changeset="6647897">
    <nd ref="1028921931"/>
    <nd ref="1028921990"/>
    <nd ref="1028921975"/>
    <tag k="VzG" v="1740"/>
    <tag k="electrified" v="contact_line"/>
    <tag k="embankment" v="yes"/>
    <tag k="gauge" v="1435"/>
    <tag k="name" v="Bremerhaven-Wunstorf"/>
    <tag k="railway" v="rail"/>
    <tag k="ref" v="402"/>
    <tag k="source" v="bing"/>
  </way>
  <way id="88826821" version="3" timestamp="2010-12-15T02:44:12Z" uid="6269" user="Mueck" changeset="6664352">
    <nd ref="1028921931"/>
    <nd ref="1028921990"/>
    <nd ref="1028921975"/>
    <tag k="VzG" v="1740"/>
    <tag k="electrified" v="contact_line"/>
    <tag k="embankment" v="yes"/>
    <tag k="gauge" v="1435"/>
    <tag k="name" v="Bremerhaven-Wunstorf"/>
    <tag k="railway" v="rail"/>
    <tag k="ref" v="402"/>
    <tag k="source" v="bing"/>
    <tag k="usage" v="main"/>
  </way>
  <way id="88826832" version="1" timestamp="2010-12-10T14:27:29Z" uid="6269" user="Mueck" changeset="6605715">
    <nd ref="1028921974"/>
    <nd ref="1028922033"/>
    <nd ref="1028922022"/>
    <tag k="VzG" v="1740"/>
    <tag k="electrified" v="contact_line"/>
    <tag k="embankment" v="yes"/>
    <tag k="gauge" v="1435"/>
    <tag k="railway" v="rail"/>
    <tag k="source" v="bing"/>
  </way>
  <way id="88826832" version="2" timestamp="2010-12-15T02:44:13Z" uid="6269" user="Mueck" changeset="6664352">
    <nd ref="1028921974"/>
    <nd ref="1028922033"/>
    <nd ref="1028922022"/>
    <tag k="VzG" v="1740"/>
    <tag k="electrified" v="contact_line"/>
    <tag k="embankment" v="yes"/>
    <tag k="gauge" v="1435"/>
    <tag k="railway" v="rail"/>
    <tag k="source" v="bing"/>
    <tag k="usage" v="main"/>
  </way>
  <way id="88826945" version="1" timestamp="2010-12-10T14:28:58Z" uid="6269" user="Mueck" changeset="6605715">
    <nd ref="1028921972"/>
    <nd ref="1028921933"/>
    <nd ref="1028921971"/>
    <nd ref="1028921967"/>
    <nd ref="1028922004"/>
    <nd ref="1028921931"/>
    <tag k="VzG" v="1740"/>
    <tag k="electrified" v="contact_line"/>
    <tag k="embankment" v="yes"/>
    <tag k="gauge" v="1435"/>
    <tag k="name" v="Bremerhaven-Wunstorf"/>
    <tag k="railway" v="rail"/>
    <tag k="source" v="bing"/>
  </way>
  <way id="88826945" version="2" timestamp="2010-12-13T14:00:08Z" uid="6269" user="Mueck" changeset="6647897">
    <nd ref="1028921972"/>
    <nd ref="1028921933"/>
    <nd ref="1028921971"/>
    <nd ref="1028921967"/>
    <nd ref="1028922004"/>
    <nd ref="1028921931"/>
    <tag k="VzG" v="1740"/>
    <tag k="electrified" v="contact_line"/>
    <tag k="embankment" v="yes"/>
    <tag k="gauge" v="1435"/>
    <tag k="name" v="Bremerhaven-Wunstorf"/>
    <tag k="railway" v="rail"/>
    <tag k="ref" v="402"/>
    <tag k="source" v="bing"/>
  </way>
  <way id="88826945" version="3" timestamp="2010-12-15T02:44:13Z" uid="6269" user="Mueck" changeset="6664352">
    <nd ref="1028921972"/>
    <nd ref="1028921933"/>
    <nd ref="1028921971"/>
    <nd ref="1028921967"/>
    <nd ref="1028922004"/>
    <nd ref="1028921931"/>
    <tag k="VzG" v="1740"/>
    <tag k="electrified" v="contact_line"/>
    <tag k="embankment" v="yes"/>
    <tag k="gauge" v="1435"/>
    <tag k="name" v="Bremerhaven-Wunstorf"/>
    <tag k="railway" v="rail"/>
    <tag k="ref" v="402"/>
    <tag k="service" v="siding"/>
    <tag k="source" v="bing"/>
  </way>
</osm>
