<?xml version='1.0' encoding='UTF-8'?>
<osm version="0.6" generator="libosmium/2.20.0">
  <way id="88886117" version="1" timestamp="2010-12-10T19:54:22Z" uid="171838" user="argrath" changeset="6609100">
    <nd ref="1031734745"/>
    <nd ref="1031734748"/>
    <nd ref="258496078"/>
    <nd ref="258496079"/>
    <tag k="bridge" v="yes"/>
    <tag k="railway" v="rail"/>
    <tag k="source" v="Bing"/>
  </way>
  <way id="88886117" version="2" timestamp="2010-12-11T09:36:01Z" uid="171838" user="argrath" changeset="6620319">
    <nd ref="1031734745"/>
    <nd ref="1032927967"/>
    <nd ref="1031734748"/>
    <nd ref="258496078"/>
    <nd ref="258496079"/>
    <tag k="railway" v="rail"/>
    <tag k="source" v="Bing"/>
  </way>
  <way id="88886117" version="3" timestamp="2011-09-03T13:47:36Z" uid="151227" user="MaryHiroshige" changeset="9200771">
    <nd ref="1031734745"/>
    <nd ref="1032927967"/>
    <nd ref="1031734748"/>
    <nd ref="258496078"/>
    <nd ref="258496079"/>
    <tag k="name" v="大阪環状線"/>
    <tag k="railway" v="rail"/>
    <tag k="source" v="Bing"/>
  </way>
  <way id="88886117" version="4" timestamp="2011-10-05T11:52:42Z" uid="151227" user="MaryHiroshige" changeset="9477407">
    <nd ref="1031734745"/>
    <nd ref="1455834624"/>
    <nd ref="1032927967"/>
    <nd ref="1455834606"/>
    <nd ref="1031734748"/>
    <nd ref="258496078"/>
    <nd ref="258496079"/>
    <tag k="name" v="大阪環状線"/>
    <tag k="railway" v="rail"/>
    <tag k="source" v="Bing"/>
  </way>
  <way id="88886117" version="5" timestamp="2011-11-26T22:28:28Z" uid="42429" user="FK270673" changeset="9961769">
    <nd ref="1031734745"/>
    <nd ref="1455834624"/>
    <nd ref="1032927967"/>
    <nd ref="1455834606"/>
    <nd ref="1031734748"/>
    <nd ref="258496078"/>
    <nd ref="258496079"/>
    <tag k="electrified" v="contact_line"/>
    <tag k="frequency" v="0"/>
    <tag k="gauge" v="1067"/>
    <tag k="name" v="JR大阪環状線"/>
    <tag k="railway" v="rail"/>
    <tag k="source" v="Bing"/>
    <tag k="voltage" v="1500"/>
  </way>
  <way id="88886117" version="6" timestamp="2012-02-26T17:22:33Z" uid="42429" user="FK270673" changeset="10800722">
    <nd ref="1031734745"/>
    <nd ref="1455834624"/>
    <nd ref="1032927967"/>
    <nd ref="1455834606"/>
    <nd ref="1031734748"/>
    <nd ref="258496078"/>
    <tag k="electrified" v="contact_line"/>
    <tag k="frequency" v="0"/>
    <tag k="gauge" v="1067"/>
    <tag k="name" v="JR大阪環状線"/>
    <tag k="name:de" v="Osaka-Ringbahn"/>
    <tag k="name:en" v="Osaka Loop Line"/>
    <tag k="name:fr" v="Ceinture ferroviaire d’Ōsaka"/>
    <tag k="name:it" v="Linea Circolare di Ōsaka"/>
    <tag k="name:ja" v="JR大阪環状線"/>
    <tag k="name:nl" v="Osaka-ringlijn"/>
    <tag k="name:zh" v="大阪環狀線"/>
    <tag k="odbl" v="clean"/>
    <tag k="railway" v="rail"/>
    <tag k="source" v="Bing"/>
    <tag k="voltage" v="1500"/>
  </way>
  <way id="88886125" version="1" timestamp="2010-12-10T19:54:23Z" uid="171838" user="argrath" changeset="6609100">
    <nd ref="1031734742"/>
    <nd ref="258496077"/>
    <nd ref="1031734829"/>
    <nd ref="1031734747"/>
    <nd ref="1031734745"/>
    <tag k="bridge" v="yes"/>
    <tag k="railway" v="rail"/>
    <tag k="source" v="Bing"/>
  </way>
  <way id="88886125" version="2" timestamp="2011-09-03T13:47:36Z" uid="151227" user="MaryHiroshige" changeset="9200771">
    <nd ref="1031734742"/>
    <nd ref="258496077"/>
    <nd ref="1031734829"/>
    <nd ref="1031734747"/>
    <nd ref="1031734745"/>
    <tag k="bridge" v="yes"/>
    <tag k="name" v="大阪環状線"/>
    <tag k="railway" v="rail"/>
    <tag k="source" v="Bing"/>
  </way>
  <way id="88886125" version="3" timestamp="2011-10-05T11:52:41Z" uid="151227" user="MaryHiroshige" changeset="9477407">
    <nd ref="1031734742"/>
    <nd ref="258496077"/>
    <nd ref="1455834641"/>
    <nd ref="1031734829"/>
    <nd ref="1031734747"/>
    <nd ref="1031734745"/>
    <tag k="bridge" v="yes"/>
    <tag k="name" v="大阪環状線"/>
    <tag k="railway" v="rail"/>
    <tag k="source" v="Bing"/>
  </way>
  <way id="88886125" version="4" timestamp="2011-11-26T22:28:23Z" uid="42429" user="FK270673" changeset="9961769">
    <nd ref="1031734742"/>
    <nd ref="258496077"/>
    <nd ref="1455834641"/>
    <nd ref="1031734829"/>
    <nd ref="1031734747"/>
    <nd ref="1031734745"/>
    <tag k="bridge" v="yes"/>
    <tag k="electrified" v="contact_line"/>
    <tag k="frequency" v="0"/>
    <tag k="gauge" v="1067"/>
    <tag k="name" v="JR大阪環状線"/>
    <tag k="railway" v="rail"/>
    <tag k="source" v="Bing"/>
    <tag k="voltage" v="1500"/>
  </way>
  <way id="88886125" version="5" timestamp="2012-02-26T17:22:42Z" uid="42429" user="FK270673" changeset="10800722">
    <nd ref="1031734742"/>
    <nd ref="258496077"/>
    <nd ref="1455834641"/>
    <nd ref="1031734829"/>
    <nd ref="1031734747"/>
    <nd ref="1031734745"/>
    <tag k="bridge" v="yes"/>
    <tag k="electrified" v="contact_line"/>
    <tag k="frequency" v="0"/>
    <tag k="gauge" v="1067"/>
    <tag k="name" v="JR大阪環状線"/>
    <tag k="name:de" v="Osaka-Ringbahn"/>
    <tag k="name:en" v="Osaka Loop Line"/>
    <tag k="name:fr" v="Ceinture ferroviaire d’Ōsaka"/>
    <tag k="name:it" v="Linea Circolare di Ōsaka"/>
    <tag k="name:ja" v="JR大阪環状線"/>
    <tag k="name:nl" v="Osaka-ringlijn"/>
    <tag k="name:zh" v="大阪環狀線"/>
    <tag k="odbl" v="clean"/>
    <tag k="railway" v="rail"/>
    <tag k="source" v="Bing"/>
    <tag k="voltage" v="1500"/>
  </way>
  <way id="88886186" version="1" timestamp="2010-12-10T19:54:30Z" uid="171838" user="argrath" changeset="6609100">
    <nd ref="1031735150"/>
    <nd ref="1031735152"/>
    <nd ref="1031735157"/>
    <nd ref="258496079"/>
    <tag k="railway" v="rail"/>
    <tag k="source" v="Bing"/>
  </way>
  <way id="88886186" version="2" timestamp="2011-09-03T13:47:36Z" uid="151227" user="MaryHiroshige" changeset="9200771">
    <nd ref="1031735150"/>
    <nd ref="1031735152"/>
    <nd ref="1031735157"/>
    <nd ref="258496079"/>
    <tag k="name" v="大阪環状線"/>
    <tag k="railway" v="rail"/>
    <tag k="source" v="Bing"/>
  </way>
  <way id="88886186" version="3" timestamp="2011-10-08T22:21:36Z" uid="151227" user="MaryHiroshige" changeset="9507504">
    <nd ref="1031735150"/>
    <nd ref="1031735152"/>
    <nd ref="346685322"/>
    <nd ref="1031735157"/>
    <nd ref="258496079"/>
    <tag k="name" v="大阪環状線"/>
    <tag k="railway" v="rail"/>
    <tag k="source" v="Bing"/>
  </way>
  <way id="88886186" version="4" timestamp="2011-11-26T22:28:08Z" uid="42429" user="FK270673" changeset="9961769">
    <nd ref="1031735150"/>
    <nd ref="1031735152"/>
    <nd ref="346685322"/>
    <nd ref="1031735157"/>
    <nd ref="258496079"/>
    <tag k="electrified" v="contact_line"/>
    <tag k="frequency" v="0"/>
    <tag k="gauge" v="1067"/>
    <tag k="name" v="JR大阪環状線"/>
    <tag k="railway" v="rail"/>
    <tag k="source" v="Bing"/>
    <tag k="voltage" v="1500"/>
  </way>
  <way id="88886186" version="5" timestamp="2012-02-26T17:21:47Z" uid="42429" user="FK270673" changeset="10800722">
    <nd ref="1031735150"/>
    <nd ref="346685322"/>
    <nd ref="1031735157"/>
    <nd ref="258496079"/>
    <tag k="electrified" v="contact_line"/>
    <tag k="frequency" v="0"/>
    <tag k="gauge" v="1067"/>
    <tag k="name" v="JR大阪環状線"/>
    <tag k="name:de" v="Osaka-Ringbahn"/>
    <tag k="name:en" v="Osaka Loop Line"/>
    <tag k="name:fr" v="Ceinture ferroviaire d’Ōsaka"/>
    <tag k="name:it" v="Linea Circolare di Ōsaka"/>
    <tag k="name:ja" v="JR大阪環状線"/>
    <tag k="name:nl" v="Osaka-ringlijn"/>
    <tag k="name:zh" v="大阪環狀線"/>
    <tag k="odbl" v="clean"/>
    <tag k="railway" v="rail"/>
    <tag k="source" v="Bing"/>
    <tag k="voltage" v="1500"/>
  </way>
</osm>
