<?xml version='1.0' encoding='UTF-8'?>
<osm version="0.6" generator="libosmium/2.20.0">
  <way id="89042162" version="2" timestamp="2011-03-18T22:55:15Z" uid="9581" user="Lobelt" changeset="7600297">
    <nd ref="156996588"/>
    <nd ref="1207973879"/>
    <nd ref="32530895"/>
    <tag k="highway" v="residential"/>
    <tag k="maxspeed" v="30"/>
    <tag k="name" v="Mundenheimer Straße"/>
  </way>
  <way id="89042177" version="2" timestamp="2011-03-18T22:55:12Z" uid="9581" user="Lobelt" changeset="7600297">
    <nd ref="293252009"/>
    <nd ref="1207973714"/>
    <nd ref="375689319"/>
    <nd ref="293252010"/>
    <tag k="highway" v="residential"/>
    <tag k="maxspeed" v="30"/>
    <tag k="name" v="Mundenheimer Straße"/>
  </way>
  <way id="89042177" version="3" timestamp="2011-09-17T10:44:40Z" uid="6326" user="mike_hd" changeset="9322779">
    <nd ref="293252009"/>
    <nd ref="1435312902"/>
    <nd ref="1207973714"/>
    <nd ref="1435312900"/>
    <nd ref="375689319"/>
    <nd ref="293252010"/>
    <tag k="highway" v="residential"/>
    <tag k="maxspeed" v="30"/>
    <tag k="name" v="Mundenheimer Straße"/>
  </way>
</osm>
