<?xml version='1.0' encoding='UTF-8'?>
<osm version="0.6" generator="libosmium/2.20.0">
  <way id="89156533" version="1" timestamp="2010-12-11T22:35:52Z" uid="151899" user="Bikeman2000" changeset="6630548">
    <nd ref="1034226618"/>
    <nd ref="1034226881"/>
    <nd ref="1034227200"/>
    <nd ref="1034226887"/>
    <nd ref="1034226618"/>
    <tag k="building" v="yes"/>
  </way>
  <way id="89156533" version="2" timestamp="2011-11-28T21:18:36Z" uid="173844" user="Antikalk" changeset="9982432">
    <nd ref="1034226618"/>
    <nd ref="1521851816"/>
    <nd ref="1034226881"/>
    <nd ref="1034227200"/>
    <nd ref="1034226887"/>
    <nd ref="1034226618"/>
    <tag k="addr:city" v="Duesseldorf"/>
    <tag k="addr:country" v="DE"/>
    <tag k="addr:housenumber" v="49"/>
    <tag k="addr:postcode" v="40547"/>
    <tag k="addr:street" v="Niederkasseler Straße"/>
    <tag k="building" v="yes"/>
    <tag k="source" v="Bing Sat"/>
  </way>
  <way id="89156533" version="3" timestamp="2011-12-24T00:53:44Z" uid="173844" user="Antikalk" changeset="10191323"/>
  <way id="89156535" version="1" timestamp="2010-12-11T22:35:53Z" uid="151899" user="Bikeman2000" changeset="6630548">
    <nd ref="1034226848"/>
    <nd ref="1034226646"/>
    <nd ref="1034227225"/>
    <nd ref="1034226673"/>
    <nd ref="1034226848"/>
    <tag k="building" v="yes"/>
  </way>
  <way id="89156535" version="2" timestamp="2011-11-28T21:18:54Z" uid="173844" user="Antikalk" changeset="9982432">
    <nd ref="1034226848"/>
    <nd ref="1034226646"/>
    <nd ref="1034227225"/>
    <nd ref="1034226673"/>
    <nd ref="1521851981"/>
    <nd ref="1034226848"/>
    <tag k="addr:city" v="Duesseldorf"/>
    <tag k="addr:country" v="DE"/>
    <tag k="addr:housenumber" v="75"/>
    <tag k="addr:postcode" v="40547"/>
    <tag k="addr:street" v="Niederkasseler Straße"/>
    <tag k="building" v="yes"/>
    <tag k="source" v="Bing Sat"/>
  </way>
  <way id="89156535" version="3" timestamp="2011-12-24T00:53:47Z" uid="173844" user="Antikalk" changeset="10191323"/>
  <way id="89156536" version="1" timestamp="2010-12-11T22:35:53Z" uid="151899" user="Bikeman2000" changeset="6630548">
    <nd ref="1034227155"/>
    <nd ref="1034226591"/>
    <nd ref="1034226698"/>
    <nd ref="1034226753"/>
    <nd ref="1034227155"/>
    <tag k="building" v="yes"/>
  </way>
  <way id="89156536" version="2" timestamp="2011-11-28T21:18:41Z" uid="173844" user="Antikalk" changeset="9982432">
    <nd ref="1034227175"/>
    <nd ref="1034226714"/>
    <nd ref="1521851861"/>
    <nd ref="1034227155"/>
    <nd ref="1034226753"/>
    <nd ref="1034227175"/>
    <tag k="addr:city" v="Duesseldorf"/>
    <tag k="addr:country" v="DE"/>
    <tag k="addr:housenumber" v="57"/>
    <tag k="addr:postcode" v="40547"/>
    <tag k="addr:street" v="Niederkasseler Straße"/>
    <tag k="building" v="yes"/>
    <tag k="source" v="Bing Sat"/>
  </way>
  <way id="89156536" version="3" timestamp="2011-11-29T19:19:50Z" uid="173844" user="Antikalk" changeset="9991255">
    <nd ref="1034227175"/>
    <nd ref="1034226714"/>
    <nd ref="1521851861"/>
    <nd ref="1034227155"/>
    <nd ref="1034226753"/>
    <nd ref="1523568544"/>
    <nd ref="1034227175"/>
    <tag k="addr:city" v="Duesseldorf"/>
    <tag k="addr:country" v="DE"/>
    <tag k="addr:housenumber" v="57"/>
    <tag k="addr:postcode" v="40547"/>
    <tag k="addr:street" v="Niederkasseler Straße"/>
    <tag k="building" v="yes"/>
    <tag k="source" v="Bing Sat"/>
  </way>
  <way id="89156536" version="4" timestamp="2011-12-24T00:53:45Z" uid="173844" user="Antikalk" changeset="10191323"/>
  <way id="89156538" version="1" timestamp="2010-12-11T22:35:53Z" uid="151899" user="Bikeman2000" changeset="6630548">
    <nd ref="1034226706"/>
    <nd ref="1034227277"/>
    <nd ref="1034227275"/>
    <nd ref="1034226968"/>
    <nd ref="1034227229"/>
    <nd ref="1034226706"/>
    <tag k="building" v="yes"/>
  </way>
  <way id="89156538" version="2" timestamp="2011-11-27T12:13:53Z" uid="173844" user="Antikalk" changeset="9965884">
    <nd ref="1034226706"/>
    <nd ref="1034227277"/>
    <nd ref="1034227275"/>
    <nd ref="1034226968"/>
    <nd ref="1519381107"/>
    <nd ref="1034227229"/>
    <nd ref="1034226706"/>
    <tag k="addr:city" v="Duesseldorf"/>
    <tag k="addr:country" v="DE"/>
    <tag k="addr:housenumber" v="2a"/>
    <tag k="addr:postcode" v="40545"/>
    <tag k="addr:street" v="Lewitstraße"/>
    <tag k="building" v="yes"/>
    <tag k="source" v="Bing Sat"/>
  </way>
  <way id="89156538" version="3" timestamp="2011-12-23T23:32:09Z" uid="173844" user="Antikalk" changeset="10190984"/>
  <way id="89156542" version="1" timestamp="2010-12-11T22:35:53Z" uid="151899" user="Bikeman2000" changeset="6630548">
    <nd ref="1034226642"/>
    <nd ref="1034227159"/>
    <nd ref="1034226927"/>
    <nd ref="1034226913"/>
    <nd ref="1034227194"/>
    <nd ref="1034226642"/>
    <tag k="building" v="yes"/>
  </way>
  <way id="89156542" version="2" timestamp="2011-11-28T21:19:07Z" uid="173844" user="Antikalk" changeset="9982432">
    <nd ref="1034226642"/>
    <nd ref="1521852111"/>
    <nd ref="1034227159"/>
    <nd ref="1034226927"/>
    <nd ref="1034226913"/>
    <nd ref="1034227194"/>
    <nd ref="1034226642"/>
    <tag k="addr:city" v="Duesseldorf"/>
    <tag k="addr:country" v="DE"/>
    <tag k="addr:housenumber" v="89"/>
    <tag k="addr:postcode" v="40547"/>
    <tag k="addr:street" v="Niederkasseler Straße"/>
    <tag k="building" v="yes"/>
    <tag k="source" v="Bing Sat"/>
  </way>
  <way id="89156542" version="3" timestamp="2011-12-24T00:53:49Z" uid="173844" user="Antikalk" changeset="10191323"/>
  <way id="89156544" version="1" timestamp="2010-12-11T22:35:53Z" uid="151899" user="Bikeman2000" changeset="6630548">
    <nd ref="1034226714"/>
    <nd ref="1034227273"/>
    <nd ref="1034227000"/>
    <nd ref="1034227241"/>
    <nd ref="1034227175"/>
    <nd ref="1034226714"/>
    <tag k="building" v="yes"/>
  </way>
  <way id="89156544" version="2" timestamp="2011-11-28T21:18:39Z" uid="173844" user="Antikalk" changeset="9982432">
    <nd ref="1034226714"/>
    <nd ref="1521851821"/>
    <nd ref="1034227273"/>
    <nd ref="1034227000"/>
    <nd ref="1034227241"/>
    <nd ref="1034227175"/>
    <nd ref="1034226714"/>
    <tag k="addr:city" v="Duesseldorf"/>
    <tag k="addr:country" v="DE"/>
    <tag k="addr:housenumber" v="55"/>
    <tag k="addr:postcode" v="40547"/>
    <tag k="addr:street" v="Niederkasseler Straße"/>
    <tag k="building" v="yes"/>
    <tag k="source" v="Bing Sat"/>
  </way>
  <way id="89156544" version="3" timestamp="2011-12-24T00:53:45Z" uid="173844" user="Antikalk" changeset="10191323"/>
  <way id="89156546" version="1" timestamp="2010-12-11T22:35:54Z" uid="151899" user="Bikeman2000" changeset="6630548">
    <nd ref="1034227075"/>
    <nd ref="1034226944"/>
    <nd ref="1034226586"/>
    <nd ref="1034226922"/>
    <nd ref="1034227272"/>
    <nd ref="1034227075"/>
    <tag k="building" v="yes"/>
  </way>
  <way id="89156546" version="2" timestamp="2011-11-28T21:18:45Z" uid="173844" user="Antikalk" changeset="9982432">
    <nd ref="1034227075"/>
    <nd ref="1034226944"/>
    <nd ref="1034226586"/>
    <nd ref="1034226922"/>
    <nd ref="1034227272"/>
    <nd ref="1521851895"/>
    <nd ref="1034227075"/>
    <tag k="addr:city" v="Duesseldorf"/>
    <tag k="addr:country" v="DE"/>
    <tag k="addr:housenumber" v="63"/>
    <tag k="addr:postcode" v="40547"/>
    <tag k="addr:street" v="Niederkasseler Straße"/>
    <tag k="building" v="yes"/>
    <tag k="source" v="Bing Sat"/>
  </way>
  <way id="89156546" version="3" timestamp="2011-12-24T00:53:46Z" uid="173844" user="Antikalk" changeset="10191323"/>
  <way id="89156548" version="1" timestamp="2010-12-11T22:35:54Z" uid="151899" user="Bikeman2000" changeset="6630548">
    <nd ref="1034227268"/>
    <nd ref="1034227117"/>
    <nd ref="1034226744"/>
    <nd ref="1034227300"/>
    <nd ref="1034227268"/>
    <tag k="building" v="yes"/>
    <tag k="fixme" v="oder ist das nur ein Gewächshaus?"/>
  </way>
  <way id="89156548" version="2" timestamp="2011-12-23T23:28:20Z" uid="173844" user="Antikalk" changeset="10190954"/>
  <way id="89156550" version="1" timestamp="2010-12-11T22:35:54Z" uid="151899" user="Bikeman2000" changeset="6630548">
    <nd ref="1034227208"/>
    <nd ref="1034227051"/>
    <nd ref="1034226891"/>
    <nd ref="1034226885"/>
    <nd ref="1034227198"/>
    <nd ref="1034226780"/>
    <nd ref="1034227208"/>
    <tag k="building" v="yes"/>
  </way>
  <way id="89156550" version="2" timestamp="2011-11-29T19:20:03Z" uid="173844" user="Antikalk" changeset="9991255">
    <nd ref="1034227208"/>
    <nd ref="1034227051"/>
    <nd ref="1034226891"/>
    <nd ref="1034226885"/>
    <nd ref="1034227198"/>
    <nd ref="1523568494"/>
    <nd ref="1034226780"/>
    <nd ref="1034227208"/>
    <tag k="building" v="yes"/>
    <tag k="source" v="Bing Sat"/>
  </way>
  <way id="89156550" version="3" timestamp="2011-12-23T23:32:09Z" uid="173844" user="Antikalk" changeset="10190984"/>
  <way id="89156553" version="1" timestamp="2010-12-11T22:35:54Z" uid="151899" user="Bikeman2000" changeset="6630548">
    <nd ref="1034227273"/>
    <nd ref="1034226618"/>
    <nd ref="1034226887"/>
    <nd ref="1034226932"/>
    <nd ref="1034226557"/>
    <nd ref="1034227000"/>
    <nd ref="1034227273"/>
    <tag k="building" v="yes"/>
  </way>
  <way id="89156553" version="2" timestamp="2011-11-28T21:18:38Z" uid="173844" user="Antikalk" changeset="9982432">
    <nd ref="1034227273"/>
    <nd ref="1521851819"/>
    <nd ref="1034226618"/>
    <nd ref="1034226887"/>
    <nd ref="1034226932"/>
    <nd ref="1034226557"/>
    <nd ref="1034227000"/>
    <nd ref="1034227273"/>
    <tag k="addr:city" v="Duesseldorf"/>
    <tag k="addr:country" v="DE"/>
    <tag k="addr:housenumber" v="53"/>
    <tag k="addr:postcode" v="40547"/>
    <tag k="addr:street" v="Niederkasseler Straße"/>
    <tag k="building" v="yes"/>
    <tag k="source" v="Bing Sat"/>
  </way>
  <way id="89156553" version="3" timestamp="2011-12-24T00:53:45Z" uid="173844" user="Antikalk" changeset="10191323"/>
  <way id="89156554" version="1" timestamp="2010-12-11T22:35:54Z" uid="151899" user="Bikeman2000" changeset="6630548">
    <nd ref="1034227035"/>
    <nd ref="1034226711"/>
    <nd ref="1034227167"/>
    <nd ref="1034226843"/>
    <nd ref="1034226808"/>
    <nd ref="1034226748"/>
    <nd ref="1034227035"/>
    <tag k="building" v="yes"/>
  </way>
  <way id="89156554" version="2" timestamp="2011-12-24T00:53:55Z" uid="173844" user="Antikalk" changeset="10191323"/>
  <way id="89156556" version="1" timestamp="2010-12-11T22:35:55Z" uid="151899" user="Bikeman2000" changeset="6630548">
    <nd ref="1034227264"/>
    <nd ref="1034227101"/>
    <nd ref="1034226581"/>
    <nd ref="1034227006"/>
    <nd ref="1034226813"/>
    <nd ref="1034227234"/>
    <nd ref="1034227264"/>
    <tag k="building" v="yes"/>
  </way>
  <way id="89156556" version="2" timestamp="2011-11-26T20:55:33Z" uid="173844" user="Antikalk" changeset="9960804"/>
  <way id="89156557" version="1" timestamp="2010-12-11T22:35:55Z" uid="151899" user="Bikeman2000" changeset="6630548">
    <nd ref="1034226673"/>
    <nd ref="1034226801"/>
    <nd ref="1034227056"/>
    <nd ref="1034227083"/>
    <nd ref="1034227225"/>
    <nd ref="1034226673"/>
    <tag k="building" v="yes"/>
  </way>
  <way id="89156557" version="2" timestamp="2011-11-28T21:18:54Z" uid="173844" user="Antikalk" changeset="9982432">
    <nd ref="1034226673"/>
    <nd ref="1521851973"/>
    <nd ref="1034226801"/>
    <nd ref="1034227056"/>
    <nd ref="1034227083"/>
    <nd ref="1034227225"/>
    <nd ref="1034226673"/>
    <tag k="addr:city" v="Duesseldorf"/>
    <tag k="addr:country" v="DE"/>
    <tag k="addr:housenumber" v="73"/>
    <tag k="addr:postcode" v="40547"/>
    <tag k="addr:street" v="Niederkasseler Straße"/>
    <tag k="building" v="yes"/>
    <tag k="source" v="Bing Sat"/>
  </way>
  <way id="89156557" version="3" timestamp="2011-12-24T00:53:47Z" uid="173844" user="Antikalk" changeset="10191323"/>
  <way id="89156559" version="1" timestamp="2010-12-11T22:35:55Z" uid="151899" user="Bikeman2000" changeset="6630548">
    <nd ref="1034227159"/>
    <nd ref="1034226594"/>
    <nd ref="1034226984"/>
    <nd ref="1034226757"/>
    <nd ref="1034227023"/>
    <nd ref="1034226677"/>
    <nd ref="1034227248"/>
    <nd ref="1034226927"/>
    <nd ref="1034227159"/>
    <tag k="building" v="yes"/>
  </way>
  <way id="89156559" version="2" timestamp="2011-11-28T21:19:05Z" uid="173844" user="Antikalk" changeset="9982432">
    <nd ref="1034227159"/>
    <nd ref="1521852067"/>
    <nd ref="1034226594"/>
    <nd ref="1034226984"/>
    <nd ref="1034226757"/>
    <nd ref="1034227023"/>
    <nd ref="1034226677"/>
    <nd ref="1034227248"/>
    <nd ref="1034226927"/>
    <nd ref="1034227159"/>
    <tag k="addr:city" v="Duesseldorf"/>
    <tag k="addr:country" v="DE"/>
    <tag k="addr:housenumber" v="85"/>
    <tag k="addr:postcode" v="40547"/>
    <tag k="addr:street" v="Niederkasseler Straße"/>
    <tag k="building" v="yes"/>
    <tag k="source" v="Bing Sat"/>
  </way>
  <way id="89156559" version="3" timestamp="2011-12-24T00:53:49Z" uid="173844" user="Antikalk" changeset="10191323"/>
  <way id="89156560" version="1" timestamp="2010-12-11T22:35:55Z" uid="151899" user="Bikeman2000" changeset="6630548">
    <nd ref="1034226854"/>
    <nd ref="1034226664"/>
    <nd ref="1034226958"/>
    <nd ref="1034226588"/>
    <nd ref="1034226854"/>
    <tag k="building" v="yes"/>
    <tag k="fixme" v="oder ist das nur ein Gewächshaus?"/>
  </way>
  <way id="89156560" version="2" timestamp="2011-12-23T23:28:20Z" uid="173844" user="Antikalk" changeset="10190954"/>
  <way id="89156562" version="1" timestamp="2010-12-11T22:35:55Z" uid="151899" user="Bikeman2000" changeset="6630548">
    <nd ref="1034226984"/>
    <nd ref="1034226843"/>
    <nd ref="1034226808"/>
    <nd ref="1034226838"/>
    <nd ref="1034226594"/>
    <nd ref="1034226984"/>
    <tag k="building" v="yes"/>
  </way>
  <way id="89156562" version="2" timestamp="2011-11-28T21:19:02Z" uid="173844" user="Antikalk" changeset="9982432">
    <nd ref="1034226984"/>
    <nd ref="1034226843"/>
    <nd ref="1034226808"/>
    <nd ref="1034226838"/>
    <nd ref="1521852028"/>
    <nd ref="1034226594"/>
    <nd ref="1034226984"/>
    <tag k="addr:city" v="Duesseldorf"/>
    <tag k="addr:country" v="DE"/>
    <tag k="addr:housenumber" v="83"/>
    <tag k="addr:postcode" v="40547"/>
    <tag k="addr:street" v="Niederkasseler Straße"/>
    <tag k="building" v="yes"/>
    <tag k="source" v="Bing Sat"/>
  </way>
  <way id="89156562" version="3" timestamp="2011-12-24T00:53:48Z" uid="173844" user="Antikalk" changeset="10191323"/>
  <way id="89156563" version="1" timestamp="2010-12-11T22:35:56Z" uid="151899" user="Bikeman2000" changeset="6630548">
    <nd ref="1034226838"/>
    <nd ref="1034226808"/>
    <nd ref="1034227069"/>
    <nd ref="1034226669"/>
    <nd ref="1034226838"/>
    <tag k="building" v="yes"/>
  </way>
  <way id="89156563" version="2" timestamp="2011-11-28T21:19:00Z" uid="173844" user="Antikalk" changeset="9982432">
    <nd ref="1034226838"/>
    <nd ref="1034226808"/>
    <nd ref="1034227069"/>
    <nd ref="1034226669"/>
    <nd ref="1521852019"/>
    <nd ref="1034226838"/>
    <tag k="addr:city" v="Duesseldorf"/>
    <tag k="addr:country" v="DE"/>
    <tag k="addr:housenumber" v="81"/>
    <tag k="addr:postcode" v="40547"/>
    <tag k="addr:street" v="Niederkasseler Straße"/>
    <tag k="building" v="yes"/>
    <tag k="source" v="Bing Sat"/>
  </way>
  <way id="89156563" version="3" timestamp="2011-12-24T00:53:48Z" uid="173844" user="Antikalk" changeset="10191323"/>
  <way id="89156564" version="1" timestamp="2010-12-11T22:35:56Z" uid="151899" user="Bikeman2000" changeset="6630548">
    <nd ref="1034227109"/>
    <nd ref="1034227075"/>
    <nd ref="1034226944"/>
    <nd ref="1034226560"/>
    <nd ref="1034227109"/>
    <tag k="building" v="yes"/>
  </way>
  <way id="89156564" version="2" timestamp="2011-11-28T21:18:47Z" uid="173844" user="Antikalk" changeset="9982432">
    <nd ref="1034227109"/>
    <nd ref="1521851909"/>
    <nd ref="1034227075"/>
    <nd ref="1034226944"/>
    <nd ref="1034226560"/>
    <nd ref="1034227109"/>
    <tag k="addr:city" v="Duesseldorf"/>
    <tag k="addr:country" v="DE"/>
    <tag k="addr:housenumber" v="65"/>
    <tag k="addr:postcode" v="40547"/>
    <tag k="addr:street" v="Niederkasseler Straße"/>
    <tag k="building" v="yes"/>
    <tag k="source" v="Bing Sat"/>
  </way>
  <way id="89156564" version="3" timestamp="2011-12-24T00:53:46Z" uid="173844" user="Antikalk" changeset="10191323"/>
  <way id="89156566" version="1" timestamp="2010-12-11T22:35:56Z" uid="151899" user="Bikeman2000" changeset="6630548">
    <nd ref="1034226881"/>
    <nd ref="1034226895"/>
    <nd ref="1034226761"/>
    <nd ref="1034227200"/>
    <nd ref="1034226881"/>
    <tag k="building" v="yes"/>
  </way>
  <way id="89156566" version="2" timestamp="2011-11-28T21:18:34Z" uid="173844" user="Antikalk" changeset="9982432">
    <nd ref="1034226881"/>
    <nd ref="1521851809"/>
    <nd ref="1034226895"/>
    <nd ref="1034226761"/>
    <nd ref="1034227200"/>
    <nd ref="1034226881"/>
    <tag k="addr:city" v="Duesseldorf"/>
    <tag k="addr:country" v="DE"/>
    <tag k="addr:housenumber" v="47"/>
    <tag k="addr:postcode" v="40547"/>
    <tag k="addr:street" v="Niederkasseler Straße"/>
    <tag k="building" v="yes"/>
    <tag k="source" v="Bing Sat"/>
  </way>
  <way id="89156566" version="3" timestamp="2011-12-24T00:53:44Z" uid="173844" user="Antikalk" changeset="10191323"/>
  <way id="89156567" version="1" timestamp="2010-12-11T22:35:56Z" uid="151899" user="Bikeman2000" changeset="6630548">
    <nd ref="1034227272"/>
    <nd ref="1034227155"/>
    <nd ref="1034226753"/>
    <nd ref="1034226922"/>
    <nd ref="1034227272"/>
    <tag k="building" v="yes"/>
  </way>
  <way id="89156567" version="2" timestamp="2011-11-28T21:18:43Z" uid="173844" user="Antikalk" changeset="9982432">
    <nd ref="1034227272"/>
    <nd ref="1521851888"/>
    <nd ref="1034227155"/>
    <nd ref="1034226753"/>
    <nd ref="1034226922"/>
    <nd ref="1034227272"/>
    <tag k="addr:city" v="Duesseldorf"/>
    <tag k="addr:country" v="DE"/>
    <tag k="addr:housenumber" v="61"/>
    <tag k="addr:postcode" v="40547"/>
    <tag k="addr:street" v="Niederkasseler Straße"/>
    <tag k="building" v="yes"/>
    <tag k="source" v="Bing Sat"/>
  </way>
  <way id="89156567" version="3" timestamp="2011-11-29T19:19:50Z" uid="173844" user="Antikalk" changeset="9991255">
    <nd ref="1034227272"/>
    <nd ref="1521851888"/>
    <nd ref="1034227155"/>
    <nd ref="1034226753"/>
    <nd ref="1523568564"/>
    <nd ref="1034226922"/>
    <nd ref="1034227272"/>
    <tag k="addr:city" v="Duesseldorf"/>
    <tag k="addr:country" v="DE"/>
    <tag k="addr:housenumber" v="61"/>
    <tag k="addr:postcode" v="40547"/>
    <tag k="addr:street" v="Niederkasseler Straße"/>
    <tag k="building" v="yes"/>
    <tag k="source" v="Bing Sat"/>
  </way>
  <way id="89156567" version="4" timestamp="2011-12-24T00:53:46Z" uid="173844" user="Antikalk" changeset="10191323"/>
  <way id="89156568" version="1" timestamp="2010-12-11T22:35:56Z" uid="151899" user="Bikeman2000" changeset="6630548">
    <nd ref="1034227134"/>
    <nd ref="1034227292"/>
    <nd ref="1034227247"/>
    <nd ref="1034226940"/>
    <nd ref="1034226585"/>
    <nd ref="1034226885"/>
    <nd ref="1034226891"/>
    <nd ref="1034227134"/>
    <tag k="building" v="yes"/>
  </way>
  <way id="89156568" version="2" timestamp="2011-11-29T19:20:03Z" uid="173844" user="Antikalk" changeset="9991255">
    <nd ref="1034227134"/>
    <nd ref="1034227292"/>
    <nd ref="1034227247"/>
    <nd ref="1034226940"/>
    <nd ref="1034226585"/>
    <nd ref="1034226885"/>
    <nd ref="1034226891"/>
    <nd ref="1034227134"/>
    <tag k="building" v="yes"/>
    <tag k="source" v="Bing Sat"/>
  </way>
  <way id="89156568" version="3" timestamp="2011-12-23T23:32:10Z" uid="173844" user="Antikalk" changeset="10190984"/>
  <way id="89156570" version="1" timestamp="2010-12-11T22:35:57Z" uid="151899" user="Bikeman2000" changeset="6630548">
    <nd ref="1034226636"/>
    <nd ref="1034226848"/>
    <nd ref="1034226646"/>
    <nd ref="1034226936"/>
    <nd ref="1034226636"/>
    <tag k="building" v="yes"/>
  </way>
  <way id="89156570" version="2" timestamp="2011-11-28T21:18:56Z" uid="173844" user="Antikalk" changeset="9982432">
    <nd ref="1034226636"/>
    <nd ref="1521851988"/>
    <nd ref="1034226848"/>
    <nd ref="1034226646"/>
    <nd ref="1034226936"/>
    <nd ref="1034226636"/>
    <tag k="addr:city" v="Duesseldorf"/>
    <tag k="addr:country" v="DE"/>
    <tag k="addr:housenumber" v="77"/>
    <tag k="addr:postcode" v="40547"/>
    <tag k="addr:street" v="Niederkasseler Straße"/>
    <tag k="building" v="yes"/>
    <tag k="source" v="Bing Sat"/>
  </way>
  <way id="89156570" version="3" timestamp="2011-12-24T00:53:48Z" uid="173844" user="Antikalk" changeset="10191323"/>
  <way id="89156571" version="1" timestamp="2010-12-11T22:35:57Z" uid="151899" user="Bikeman2000" changeset="6630548">
    <nd ref="1034226682"/>
    <nd ref="1034227275"/>
    <nd ref="1034227277"/>
    <nd ref="1034226706"/>
    <nd ref="1034227229"/>
    <nd ref="1034227011"/>
    <nd ref="1034226648"/>
    <nd ref="1034226940"/>
    <nd ref="1034226585"/>
    <nd ref="1034226885"/>
    <nd ref="1034227198"/>
    <nd ref="1034226833"/>
    <nd ref="1034227104"/>
    <nd ref="1034226682"/>
    <tag k="building" v="yes"/>
  </way>
  <way id="89156571" version="2" timestamp="2011-11-27T12:13:54Z" uid="173844" user="Antikalk" changeset="9965884">
    <nd ref="1034226682"/>
    <nd ref="1034227275"/>
    <nd ref="1034227277"/>
    <nd ref="1034226706"/>
    <nd ref="1034227229"/>
    <nd ref="1034227011"/>
    <nd ref="1034226648"/>
    <nd ref="1034226940"/>
    <nd ref="1034226585"/>
    <nd ref="1034226885"/>
    <nd ref="1034227198"/>
    <nd ref="1034226833"/>
    <nd ref="1034227104"/>
    <nd ref="1519381106"/>
    <nd ref="1034226682"/>
    <tag k="addr:city" v="Duesseldorf"/>
    <tag k="addr:country" v="DE"/>
    <tag k="addr:housenumber" v="2b"/>
    <tag k="addr:postcode" v="40545"/>
    <tag k="addr:street" v="Lewitstraße"/>
    <tag k="building" v="yes"/>
    <tag k="source" v="Bing Sat"/>
  </way>
  <way id="89156571" version="3" timestamp="2011-12-23T23:32:09Z" uid="173844" user="Antikalk" changeset="10190984"/>
  <way id="89156573" version="1" timestamp="2010-12-11T22:35:57Z" uid="151899" user="Bikeman2000" changeset="6630548">
    <nd ref="1034226895"/>
    <nd ref="1034227295"/>
    <nd ref="1034227171"/>
    <nd ref="1034226974"/>
    <nd ref="1034226625"/>
    <nd ref="1034226761"/>
    <nd ref="1034226895"/>
    <tag k="building" v="yes"/>
  </way>
  <way id="89156573" version="2" timestamp="2011-11-28T21:18:31Z" uid="173844" user="Antikalk" changeset="9982432">
    <nd ref="1034226895"/>
    <nd ref="1521851784"/>
    <nd ref="1034227295"/>
    <nd ref="1034227171"/>
    <nd ref="1034226974"/>
    <nd ref="1034226625"/>
    <nd ref="1034226761"/>
    <nd ref="1034226895"/>
    <tag k="addr:city" v="Duesseldorf"/>
    <tag k="addr:country" v="DE"/>
    <tag k="addr:housenumber" v="43"/>
    <tag k="addr:postcode" v="40547"/>
    <tag k="addr:street" v="Niederkasseler Straße"/>
    <tag k="building" v="yes"/>
    <tag k="source" v="Bing Sat"/>
  </way>
  <way id="89156573" version="3" timestamp="2011-12-24T00:53:43Z" uid="173844" user="Antikalk" changeset="10191323"/>
  <way id="89156574" version="1" timestamp="2010-12-11T22:35:57Z" uid="151899" user="Bikeman2000" changeset="6630548">
    <nd ref="1034226721"/>
    <nd ref="1034227302"/>
    <nd ref="1034227161"/>
    <nd ref="1034226789"/>
    <nd ref="1034227062"/>
    <nd ref="1034226702"/>
    <nd ref="1034226721"/>
    <tag k="building" v="yes"/>
  </way>
  <way id="89156574" version="2" timestamp="2011-11-26T20:55:33Z" uid="173844" user="Antikalk" changeset="9960804"/>
  <way id="89156576" version="1" timestamp="2010-12-11T22:35:57Z" uid="151899" user="Bikeman2000" changeset="6630548">
    <nd ref="1034226698"/>
    <nd ref="1034227175"/>
    <nd ref="1034226714"/>
    <nd ref="1034226591"/>
    <nd ref="1034226698"/>
    <tag k="building" v="yes"/>
  </way>
  <way id="89156576" version="2" timestamp="2011-11-28T21:19:23Z" uid="173844" user="Antikalk" changeset="9982432"/>
  <way id="89156577" version="1" timestamp="2010-12-11T22:35:57Z" uid="151899" user="Bikeman2000" changeset="6630548">
    <nd ref="1034226989"/>
    <nd ref="1034226825"/>
    <nd ref="1034226917"/>
    <nd ref="1034227238"/>
    <nd ref="1034226740"/>
    <nd ref="1034227298"/>
    <nd ref="1034227196"/>
    <nd ref="1034227152"/>
    <nd ref="1034226980"/>
    <nd ref="1034226989"/>
    <tag k="building" v="yes"/>
  </way>
  <way id="89156577" version="2" timestamp="2011-11-26T20:55:33Z" uid="173844" user="Antikalk" changeset="9960804"/>
  <way id="89156579" version="1" timestamp="2010-12-11T22:35:58Z" uid="151899" user="Bikeman2000" changeset="6630548">
    <nd ref="1034226795"/>
    <nd ref="1034227101"/>
    <nd ref="1034227264"/>
    <nd ref="1034227234"/>
    <nd ref="1034226813"/>
    <nd ref="1034227247"/>
    <nd ref="1034227292"/>
    <nd ref="1034227134"/>
    <nd ref="1034226763"/>
    <nd ref="1034227047"/>
    <nd ref="1034226684"/>
    <nd ref="1034227180"/>
    <nd ref="1034226811"/>
    <nd ref="1034227079"/>
    <nd ref="1034226723"/>
    <nd ref="1034227276"/>
    <nd ref="1034226963"/>
    <nd ref="1034227212"/>
    <nd ref="1034226898"/>
    <nd ref="1034226680"/>
    <nd ref="1034227128"/>
    <nd ref="1034226599"/>
    <nd ref="1034227030"/>
    <nd ref="1034226853"/>
    <nd ref="1034227302"/>
    <nd ref="1034226721"/>
    <nd ref="1034226702"/>
    <nd ref="1034227062"/>
    <nd ref="1034226795"/>
    <tag k="building" v="yes"/>
  </way>
  <way id="89156579" version="2" timestamp="2011-11-26T20:55:32Z" uid="173844" user="Antikalk" changeset="9960804">
    <nd ref="1034226813"/>
    <nd ref="1034227247"/>
    <nd ref="1034227292"/>
    <nd ref="1034227134"/>
    <nd ref="1034226763"/>
    <nd ref="1034227047"/>
    <nd ref="1034226684"/>
    <nd ref="1034227180"/>
    <nd ref="1034226811"/>
    <nd ref="1034227079"/>
    <nd ref="1034226723"/>
    <nd ref="1034227276"/>
    <nd ref="1034226963"/>
    <nd ref="1034227212"/>
    <nd ref="1034226898"/>
    <nd ref="1034226680"/>
    <nd ref="1034227128"/>
    <nd ref="1034226599"/>
    <nd ref="1034227030"/>
    <nd ref="1034226853"/>
    <nd ref="1034227302"/>
    <nd ref="1034227161"/>
    <nd ref="1034226789"/>
    <nd ref="1034227062"/>
    <nd ref="1034226795"/>
    <nd ref="1034227101"/>
    <nd ref="1034226581"/>
    <nd ref="1034227006"/>
    <nd ref="1034226813"/>
    <tag k="building" v="yes"/>
    <tag k="source" v="Bing Sat"/>
  </way>
  <way id="89156579" version="3" timestamp="2011-11-27T12:13:51Z" uid="173844" user="Antikalk" changeset="9965884">
    <nd ref="1034226813"/>
    <nd ref="1034227247"/>
    <nd ref="1034227292"/>
    <nd ref="1034227134"/>
    <nd ref="1034226763"/>
    <nd ref="1034227047"/>
    <nd ref="1034226684"/>
    <nd ref="1034227180"/>
    <nd ref="1034226811"/>
    <nd ref="1034227079"/>
    <nd ref="1034226723"/>
    <nd ref="1034227276"/>
    <nd ref="1034226963"/>
    <nd ref="1034227212"/>
    <nd ref="1034226898"/>
    <nd ref="1034226680"/>
    <nd ref="1034227128"/>
    <nd ref="1034226599"/>
    <nd ref="1034227030"/>
    <nd ref="1519381108"/>
    <nd ref="1034226853"/>
    <nd ref="1034227302"/>
    <nd ref="1034227161"/>
    <nd ref="1034226789"/>
    <nd ref="1034227062"/>
    <nd ref="1034226795"/>
    <nd ref="1034227101"/>
    <nd ref="1034226581"/>
    <nd ref="1034227006"/>
    <nd ref="1034226813"/>
    <tag k="addr:city" v="Duesseldorf"/>
    <tag k="addr:country" v="DE"/>
    <tag k="addr:housenumber" v="2"/>
    <tag k="addr:postcode" v="40545"/>
    <tag k="addr:street" v="Lewitstraße"/>
    <tag k="building" v="yes"/>
    <tag k="source" v="Bing Sat"/>
  </way>
  <way id="89156579" version="4" timestamp="2011-12-23T23:32:09Z" uid="173844" user="Antikalk" changeset="10190984"/>
  <way id="89156581" version="1" timestamp="2010-12-11T22:35:58Z" uid="151899" user="Bikeman2000" changeset="6630548">
    <nd ref="1034227056"/>
    <nd ref="1034226896"/>
    <nd ref="1034227003"/>
    <nd ref="1034227244"/>
    <nd ref="1034226801"/>
    <nd ref="1034227056"/>
    <tag k="building" v="yes"/>
  </way>
  <way id="89156581" version="2" timestamp="2011-11-28T21:18:53Z" uid="173844" user="Antikalk" changeset="9982432">
    <nd ref="1034227056"/>
    <nd ref="1034226896"/>
    <nd ref="1034227003"/>
    <nd ref="1034227244"/>
    <nd ref="1521851947"/>
    <nd ref="1034226801"/>
    <nd ref="1034227056"/>
    <tag k="addr:city" v="Duesseldorf"/>
    <tag k="addr:country" v="DE"/>
    <tag k="addr:housenumber" v="71"/>
    <tag k="addr:postcode" v="40547"/>
    <tag k="addr:street" v="Niederkasseler Straße"/>
    <tag k="building" v="yes"/>
    <tag k="source" v="Bing Sat"/>
  </way>
  <way id="89156581" version="3" timestamp="2011-12-24T00:53:47Z" uid="173844" user="Antikalk" changeset="10191323"/>
  <way id="89156582" version="1" timestamp="2010-12-11T22:35:58Z" uid="151899" user="Bikeman2000" changeset="6630548">
    <nd ref="1034226775"/>
    <nd ref="1034227212"/>
    <nd ref="1034226898"/>
    <nd ref="1034226680"/>
    <nd ref="1034227128"/>
    <nd ref="1034226599"/>
    <nd ref="1034227030"/>
    <nd ref="1034227122"/>
    <nd ref="1034226775"/>
    <tag k="building" v="yes"/>
  </way>
  <way id="89156582" version="2" timestamp="2011-11-29T19:20:03Z" uid="173844" user="Antikalk" changeset="9991255">
    <nd ref="1034226775"/>
    <nd ref="1034227212"/>
    <nd ref="1034226898"/>
    <nd ref="1034226680"/>
    <nd ref="1034227128"/>
    <nd ref="1034226599"/>
    <nd ref="1034227030"/>
    <nd ref="1034227122"/>
    <nd ref="1034226775"/>
    <tag k="building" v="yes"/>
    <tag k="source" v="Bing Sat"/>
  </way>
  <way id="89156582" version="3" timestamp="2011-12-23T23:32:10Z" uid="173844" user="Antikalk" changeset="10190984"/>
  <way id="89156584" version="1" timestamp="2010-12-11T22:35:59Z" uid="151899" user="Bikeman2000" changeset="6630548">
    <nd ref="1034226669"/>
    <nd ref="1034226636"/>
    <nd ref="1034226936"/>
    <nd ref="1034227069"/>
    <nd ref="1034226669"/>
    <tag k="building" v="yes"/>
  </way>
  <way id="89156584" version="2" timestamp="2011-11-28T21:18:58Z" uid="173844" user="Antikalk" changeset="9982432">
    <nd ref="1034226669"/>
    <nd ref="1521852009"/>
    <nd ref="1034226636"/>
    <nd ref="1034226936"/>
    <nd ref="1034227069"/>
    <nd ref="1034226669"/>
    <tag k="addr:city" v="Duesseldorf"/>
    <tag k="addr:country" v="DE"/>
    <tag k="addr:housenumber" v="79"/>
    <tag k="addr:postcode" v="40547"/>
    <tag k="addr:street" v="Niederkasseler Straße"/>
    <tag k="building" v="yes"/>
    <tag k="source" v="Bing Sat"/>
  </way>
  <way id="89156584" version="3" timestamp="2011-12-24T00:53:48Z" uid="173844" user="Antikalk" changeset="10191323"/>
  <way id="89156585" version="1" timestamp="2010-12-11T22:35:59Z" uid="151899" user="Bikeman2000" changeset="6630548">
    <nd ref="1034227244"/>
    <nd ref="1034227109"/>
    <nd ref="1034226560"/>
    <nd ref="1034226718"/>
    <nd ref="1034227003"/>
    <nd ref="1034227244"/>
    <tag k="building" v="yes"/>
  </way>
  <way id="89156585" version="2" timestamp="2011-11-28T21:18:51Z" uid="173844" user="Antikalk" changeset="9982432">
    <nd ref="1034227244"/>
    <nd ref="1521851944"/>
    <nd ref="1034227109"/>
    <nd ref="1034226560"/>
    <nd ref="1034226718"/>
    <nd ref="1034227003"/>
    <nd ref="1034227244"/>
    <tag k="addr:city" v="Duesseldorf"/>
    <tag k="addr:country" v="DE"/>
    <tag k="addr:housenumber" v="69"/>
    <tag k="addr:postcode" v="40547"/>
    <tag k="addr:street" v="Niederkasseler Straße"/>
    <tag k="building" v="yes"/>
    <tag k="source" v="Bing Sat"/>
  </way>
  <way id="89156585" version="3" timestamp="2011-12-24T00:53:46Z" uid="173844" user="Antikalk" changeset="10191323"/>
  <way id="89156587" version="1" timestamp="2010-12-11T22:35:59Z" uid="151899" user="Bikeman2000" changeset="6630548">
    <nd ref="1034227295"/>
    <nd ref="1034227171"/>
    <nd ref="1034173552"/>
    <nd ref="1034173560"/>
    <nd ref="1034227295"/>
    <tag k="building" v="yes"/>
  </way>
  <way id="89156587" version="2" timestamp="2011-11-28T21:18:26Z" uid="173844" user="Antikalk" changeset="9982432">
    <nd ref="1034227295"/>
    <nd ref="1034227171"/>
    <nd ref="1034173552"/>
    <nd ref="1034173560"/>
    <nd ref="1521851778"/>
    <nd ref="1034227295"/>
    <tag k="addr:city" v="Duesseldorf"/>
    <tag k="addr:country" v="DE"/>
    <tag k="addr:housenumber" v="35"/>
    <tag k="addr:postcode" v="40547"/>
    <tag k="addr:street" v="Niederkasseler Straße"/>
    <tag k="building" v="yes"/>
    <tag k="source" v="Bing Sat"/>
  </way>
  <way id="89156587" version="3" timestamp="2011-12-24T00:53:42Z" uid="173844" user="Antikalk" changeset="10191323"/>
</osm>
