<?xml version='1.0' encoding='UTF-8'?>
<osm version="0.6" generator="libosmium/2.20.0">
  <way id="89279705" version="2" timestamp="2011-03-28T17:30:20Z" uid="115477" user="wowik" changeset="7697837">
    <nd ref="1035922609"/>
    <nd ref="1035922621"/>
    <nd ref="1035922571"/>
    <nd ref="1035922602"/>
    <nd ref="1035922609"/>
    <tag k="alt_name" v="METRO Cash &amp; Carry Russia"/>
    <tag k="building" v="yes"/>
    <tag k="building:levels" v="3"/>
    <tag k="name" v="ТЦ МЕТРО"/>
    <tag k="name:en" v="METRO"/>
    <tag k="name:ru" v="ТЦ МЕТРО"/>
  </way>
  <way id="89279705" version="3" timestamp="2011-03-28T17:31:35Z" uid="115477" user="wowik" changeset="7697837">
    <nd ref="1035922609"/>
    <nd ref="1035922621"/>
    <nd ref="1035922571"/>
    <nd ref="1035922602"/>
    <nd ref="1035922609"/>
    <tag k="alt_name" v="METRO Cash &amp; Carry Russia"/>
    <tag k="building" v="yes"/>
    <tag k="building:levels" v="3"/>
    <tag k="name" v="ТЦ МЕТРО"/>
    <tag k="name:en" v="METRO"/>
    <tag k="name:ru" v="ТЦ МЕТРО"/>
    <tag k="shop" v="supermarket"/>
  </way>
  <way id="89279705" version="4" timestamp="2011-05-27T11:51:36Z" uid="115477" user="wowik" changeset="8261375">
    <nd ref="1035922609"/>
    <nd ref="1035922621"/>
    <nd ref="1035922571"/>
    <nd ref="1035922602"/>
    <nd ref="1035922609"/>
    <tag k="addr:housenumber" v="5"/>
    <tag k="addr:street" v="Промышленная улица"/>
    <tag k="alt_name" v="METRO Cash &amp; Carry Russia"/>
    <tag k="building" v="yes"/>
    <tag k="building:levels" v="3"/>
    <tag k="name" v="ТЦ МЕТРО"/>
    <tag k="name:en" v="METRO"/>
    <tag k="name:ru" v="ТЦ МЕТРО"/>
    <tag k="shop" v="supermarket"/>
  </way>
  <way id="89279705" version="5" timestamp="2011-12-12T20:54:18Z" uid="126304" user="TarzanASG" changeset="10101987">
    <nd ref="1035922609"/>
    <nd ref="1035922621"/>
    <nd ref="1035922571"/>
    <nd ref="1035922602"/>
    <nd ref="1035922609"/>
    <tag k="addr:housenumber" v="5"/>
    <tag k="addr:street" v="Промышленная улица"/>
    <tag k="alt_name" v="METRO Cash &amp; Carry Russia"/>
    <tag k="building" v="retail"/>
    <tag k="building:levels" v="3"/>
    <tag k="name" v="ТЦ МЕТРО"/>
    <tag k="name:en" v="METRO"/>
    <tag k="name:ru" v="ТЦ МЕТРО"/>
    <tag k="shop" v="supermarket"/>
  </way>
  <way id="89279705" version="6" timestamp="2011-12-14T11:27:46Z" uid="143266" user="Sergey Astakhov" changeset="10114234">
    <nd ref="1035922609"/>
    <nd ref="1035922621"/>
    <nd ref="1035922571"/>
    <nd ref="1035922602"/>
    <nd ref="1035922609"/>
    <tag k="addr:housenumber" v="5"/>
    <tag k="addr:street" v="Промышленная улица"/>
    <tag k="alt_name" v="METRO Cash &amp; Carry Russia"/>
    <tag k="building" v="yes"/>
    <tag k="building:levels" v="3"/>
    <tag k="name" v="ТЦ МЕТРО"/>
    <tag k="name:en" v="METRO"/>
    <tag k="name:ru" v="ТЦ МЕТРО"/>
    <tag k="shop" v="supermarket"/>
  </way>
  <way id="89279709" version="3" timestamp="2011-01-12T12:31:56Z" uid="115477" user="wowik" changeset="6946620">
    <nd ref="1035922567"/>
    <nd ref="1035922688"/>
    <nd ref="1099734791"/>
    <nd ref="1035922562"/>
    <tag k="highway" v="unclassified"/>
  </way>
  <way id="89279709" version="4" timestamp="2012-03-22T19:35:39Z" uid="241531" user="dik_man" changeset="11066828">
    <nd ref="1035922567"/>
    <nd ref="1686167349"/>
    <nd ref="1035922688"/>
    <nd ref="1686167350"/>
    <nd ref="1099734791"/>
    <nd ref="1686167330"/>
    <nd ref="1035922562"/>
    <tag k="highway" v="unclassified"/>
  </way>
  <way id="89279798" version="3" timestamp="2011-04-06T21:28:55Z" uid="6269" user="Mueck" changeset="7789512">
    <nd ref="1035924197"/>
    <nd ref="1035924250"/>
    <nd ref="1051268943"/>
    <nd ref="1051268937"/>
    <nd ref="1051268934"/>
    <nd ref="1051268918"/>
    <nd ref="1035924203"/>
    <nd ref="1035924209"/>
    <nd ref="1235210755"/>
    <nd ref="1035924197"/>
    <tag k="building" v="yes"/>
    <tag k="source" v="LA-KA"/>
  </way>
  <way id="89279798" version="4" timestamp="2011-10-24T10:22:54Z" uid="442210" user="dwausr" changeset="9641906"/>
</osm>
