<?xml version='1.0' encoding='UTF-8'?>
<osm version="0.6" generator="libosmium/2.20.0">
  <way id="89364131" version="1" timestamp="2010-12-12T22:04:42Z" uid="6269" user="Mueck" changeset="6642652">
    <nd ref="257099966"/>
    <nd ref="968641985"/>
    <tag k="cycleway" v="lane"/>
    <tag k="highway" v="secondary"/>
    <tag k="maxspeed" v="50"/>
    <tag k="name" v="LudwigstraÃŸe"/>
    <tag k="surface" v="paved"/>
  </way>
  <way id="89364131" version="2" timestamp="2011-10-09T12:51:55Z" uid="114813" user="Chrisuu" changeset="9511268"/>
  <way id="89364789" version="1" timestamp="2010-12-12T22:08:24Z" uid="6269" user="Mueck" changeset="6642701">
    <nd ref="257937680"/>
    <nd ref="257938140"/>
    <nd ref="257938289"/>
    <tag k="highway" v="service"/>
    <tag k="layer" v="0"/>
    <tag k="name" v="Adolf-Hoff-Weg"/>
    <tag k="surface" v="asphalt"/>
  </way>
  <way id="89364789" version="2" timestamp="2010-12-26T22:11:59Z" uid="6269" user="Mueck" changeset="6772902">
    <nd ref="257937680"/>
    <nd ref="257938140"/>
    <nd ref="257938289"/>
    <tag k="highway" v="service"/>
    <tag k="name" v="Adolf-Hoff-Weg"/>
    <tag k="surface" v="asphalt"/>
  </way>
  <way id="89364789" version="3" timestamp="2011-01-29T10:56:15Z" uid="114813" user="Chrisuu" changeset="7120725">
    <nd ref="257937680"/>
    <nd ref="257938140"/>
    <nd ref="257938289"/>
    <tag k="highway" v="service"/>
    <tag k="name" v="Adolf-Hoff-Weg"/>
    <tag k="surface" v="gravel"/>
  </way>
</osm>
