<?xml version='1.0' encoding='UTF-8'?>
<osm version="0.6" generator="libosmium/2.20.0">
  <way id="89549963" version="1" timestamp="2010-12-14T10:32:25Z" uid="171838" user="argrath" changeset="6656646">
    <nd ref="1038104993"/>
    <nd ref="1038104994"/>
    <nd ref="1038104995"/>
    <nd ref="1038104996"/>
    <nd ref="1038104998"/>
    <nd ref="1038104999"/>
    <nd ref="1038105000"/>
    <nd ref="1038105001"/>
    <nd ref="1038105002"/>
    <nd ref="1038105003"/>
    <nd ref="1038104993"/>
    <tag k="building" v="yes"/>
    <tag k="source" v="Bing"/>
  </way>
  <way id="89549964" version="1" timestamp="2010-12-14T10:32:26Z" uid="171838" user="argrath" changeset="6656646">
    <nd ref="1038104994"/>
    <nd ref="1038105006"/>
    <nd ref="1038105007"/>
    <nd ref="1038105008"/>
    <nd ref="1038105009"/>
    <nd ref="1038105010"/>
    <nd ref="1038105011"/>
    <nd ref="1038104995"/>
    <nd ref="1038104994"/>
    <tag k="amenity" v="parking"/>
    <tag k="source" v="Bing"/>
  </way>
  <way id="89549965" version="1" timestamp="2010-12-14T10:32:26Z" uid="171838" user="argrath" changeset="6656646">
    <nd ref="1038105002"/>
    <nd ref="1038105013"/>
    <nd ref="1038105015"/>
    <nd ref="1038105016"/>
    <nd ref="1038105017"/>
    <nd ref="1038105018"/>
    <nd ref="1038105019"/>
    <nd ref="1038105001"/>
    <nd ref="1038105002"/>
    <tag k="amenity" v="parking"/>
    <tag k="source" v="Bing"/>
  </way>
  <way id="89549966" version="1" timestamp="2010-12-14T10:32:28Z" uid="171838" user="argrath" changeset="6656646">
    <nd ref="267297201"/>
    <nd ref="267297204"/>
    <nd ref="267297203"/>
    <tag k="name" v="JR関西空港線"/>
    <tag k="name:ja" v="JR関西空港線"/>
    <tag k="operator" v="西日本旅客鉄道"/>
    <tag k="operator:ja" v="西日本旅客鉄道"/>
    <tag k="railway" v="rail"/>
    <tag k="source" v="Bing"/>
    <tag k="tunnel" v="yes"/>
  </way>
  <way id="89549966" version="2" timestamp="2011-11-28T21:36:39Z" uid="42429" user="FK270673" changeset="9982609">
    <nd ref="267297201"/>
    <nd ref="267297204"/>
    <nd ref="267297203"/>
    <tag k="electrified" v="contact_line"/>
    <tag k="frequency" v="0"/>
    <tag k="gauge" v="1067"/>
    <tag k="name" v="JR関西空港線"/>
    <tag k="name:ja" v="JR関西空港線"/>
    <tag k="operator" v="西日本旅客鉄道"/>
    <tag k="operator:ja" v="西日本旅客鉄道"/>
    <tag k="railway" v="rail"/>
    <tag k="source" v="Bing"/>
    <tag k="tunnel" v="yes"/>
    <tag k="voltage" v="1500"/>
  </way>
  <way id="89549967" version="1" timestamp="2010-12-14T10:32:29Z" uid="171838" user="argrath" changeset="6656646">
    <nd ref="267297203"/>
    <nd ref="267297206"/>
    <nd ref="267297205"/>
    <nd ref="267297208"/>
    <nd ref="267297207"/>
    <nd ref="267297210"/>
    <nd ref="267297209"/>
    <nd ref="267297212"/>
    <nd ref="267297211"/>
    <nd ref="267297215"/>
    <nd ref="267297216"/>
    <nd ref="267297213"/>
    <nd ref="267297214"/>
    <nd ref="267297219"/>
    <nd ref="267297220"/>
    <nd ref="267297217"/>
    <nd ref="267297218"/>
    <nd ref="267297223"/>
    <nd ref="267297224"/>
    <nd ref="267297221"/>
    <nd ref="267297222"/>
    <tag k="name" v="JR関西空港線"/>
    <tag k="name:ja" v="JR関西空港線"/>
    <tag k="operator" v="西日本旅客鉄道"/>
    <tag k="operator:ja" v="西日本旅客鉄道"/>
    <tag k="railway" v="rail"/>
    <tag k="source" v="Bing"/>
  </way>
  <way id="89549967" version="2" timestamp="2011-11-28T21:36:31Z" uid="42429" user="FK270673" changeset="9982609">
    <nd ref="267297203"/>
    <nd ref="267297206"/>
    <nd ref="267297205"/>
    <nd ref="267297208"/>
    <nd ref="267297207"/>
    <nd ref="267297210"/>
    <nd ref="267297209"/>
    <nd ref="267297212"/>
    <nd ref="267297211"/>
    <nd ref="267297215"/>
    <nd ref="267297216"/>
    <nd ref="267297213"/>
    <nd ref="267297214"/>
    <nd ref="267297219"/>
    <nd ref="267297220"/>
    <nd ref="267297217"/>
    <nd ref="267297218"/>
    <nd ref="267297223"/>
    <nd ref="267297224"/>
    <nd ref="267297221"/>
    <nd ref="267297222"/>
    <tag k="electrified" v="contact_line"/>
    <tag k="frequency" v="0"/>
    <tag k="gauge" v="1067"/>
    <tag k="name" v="JR関西空港線"/>
    <tag k="name:ja" v="JR関西空港線"/>
    <tag k="operator" v="西日本旅客鉄道"/>
    <tag k="operator:ja" v="西日本旅客鉄道"/>
    <tag k="railway" v="rail"/>
    <tag k="source" v="Bing"/>
    <tag k="voltage" v="1500"/>
  </way>
  <way id="89549968" version="1" timestamp="2010-12-14T10:32:30Z" uid="171838" user="argrath" changeset="6656646">
    <nd ref="267297222"/>
    <nd ref="267297227"/>
    <nd ref="267297228"/>
    <nd ref="267297225"/>
    <nd ref="267297226"/>
    <nd ref="267297232"/>
    <nd ref="267297231"/>
    <nd ref="267297230"/>
    <nd ref="267297229"/>
    <nd ref="267297236"/>
    <nd ref="267297235"/>
    <nd ref="267297234"/>
    <nd ref="267297233"/>
    <nd ref="267297240"/>
    <nd ref="267297239"/>
    <nd ref="267297238"/>
    <nd ref="267297237"/>
    <nd ref="267297244"/>
    <nd ref="267297243"/>
    <nd ref="267297242"/>
    <nd ref="267297241"/>
    <nd ref="267297249"/>
    <nd ref="267297250"/>
    <nd ref="267297251"/>
    <nd ref="267297252"/>
    <nd ref="267297245"/>
    <nd ref="267297246"/>
    <nd ref="267297247"/>
    <nd ref="267297248"/>
    <nd ref="267297255"/>
    <nd ref="267297256"/>
    <nd ref="267297257"/>
    <nd ref="267297258"/>
    <nd ref="267297253"/>
    <tag k="bridge" v="yes"/>
    <tag k="name" v="JR関西空港線"/>
    <tag k="name:ja" v="JR関西空港線"/>
    <tag k="operator" v="西日本旅客鉄道"/>
    <tag k="operator:ja" v="西日本旅客鉄道"/>
    <tag k="railway" v="rail"/>
    <tag k="source" v="Bing"/>
  </way>
  <way id="89549968" version="2" timestamp="2011-11-28T21:36:41Z" uid="42429" user="FK270673" changeset="9982609">
    <nd ref="267297222"/>
    <nd ref="267297227"/>
    <nd ref="267297228"/>
    <nd ref="267297225"/>
    <nd ref="267297226"/>
    <nd ref="267297232"/>
    <nd ref="267297231"/>
    <nd ref="267297230"/>
    <nd ref="267297229"/>
    <nd ref="267297236"/>
    <nd ref="267297235"/>
    <nd ref="267297234"/>
    <nd ref="267297233"/>
    <nd ref="267297240"/>
    <nd ref="267297239"/>
    <nd ref="267297238"/>
    <nd ref="267297237"/>
    <nd ref="267297244"/>
    <nd ref="267297243"/>
    <nd ref="267297242"/>
    <nd ref="267297241"/>
    <nd ref="267297249"/>
    <nd ref="267297250"/>
    <nd ref="267297251"/>
    <nd ref="267297252"/>
    <nd ref="267297245"/>
    <nd ref="267297246"/>
    <nd ref="267297247"/>
    <nd ref="267297248"/>
    <nd ref="267297255"/>
    <nd ref="267297256"/>
    <nd ref="267297257"/>
    <nd ref="267297258"/>
    <nd ref="267297253"/>
    <tag k="bridge" v="yes"/>
    <tag k="electrified" v="contact_line"/>
    <tag k="frequency" v="0"/>
    <tag k="gauge" v="1067"/>
    <tag k="name" v="JR関西空港線"/>
    <tag k="name:ja" v="JR関西空港線"/>
    <tag k="operator" v="西日本旅客鉄道"/>
    <tag k="operator:ja" v="西日本旅客鉄道"/>
    <tag k="railway" v="rail"/>
    <tag k="source" v="Bing"/>
    <tag k="voltage" v="1500"/>
  </way>
  <way id="89549968" version="3" timestamp="2012-03-29T03:00:03Z" uid="139957" user="ij_" changeset="11133139">
    <nd ref="267297222"/>
    <nd ref="267297227"/>
    <nd ref="267297228"/>
    <nd ref="267297225"/>
    <nd ref="267297226"/>
    <nd ref="267297232"/>
    <nd ref="267297231"/>
    <nd ref="267297230"/>
    <nd ref="267297229"/>
    <nd ref="267297236"/>
    <nd ref="267297235"/>
    <nd ref="267297234"/>
    <nd ref="267297233"/>
    <nd ref="267297240"/>
    <nd ref="267297239"/>
    <nd ref="267297238"/>
    <nd ref="267297237"/>
    <nd ref="267297244"/>
    <nd ref="267297242"/>
    <nd ref="267297241"/>
    <nd ref="267297249"/>
    <nd ref="267297250"/>
    <nd ref="267297252"/>
    <nd ref="267297247"/>
    <nd ref="1695507180"/>
    <nd ref="267297255"/>
    <nd ref="1695507176"/>
    <nd ref="267297256"/>
    <nd ref="267297257"/>
    <nd ref="267297258"/>
    <nd ref="267297253"/>
    <tag k="bridge" v="yes"/>
    <tag k="electrified" v="contact_line"/>
    <tag k="frequency" v="0"/>
    <tag k="gauge" v="1067"/>
    <tag k="layer" v="3"/>
    <tag k="name" v="JR関西空港線"/>
    <tag k="name:ja" v="JR関西空港線"/>
    <tag k="operator" v="西日本旅客鉄道"/>
    <tag k="operator:ja" v="西日本旅客鉄道"/>
    <tag k="railway" v="rail"/>
    <tag k="source" v="Bing"/>
    <tag k="voltage" v="1500"/>
  </way>
</osm>
