<?xml version='1.0' encoding='UTF-8'?>
<osm version="0.6" generator="libosmium/2.20.0">
  <way id="89723963" version="1" timestamp="2010-12-15T20:19:04Z" uid="151899" user="Bikeman2000" changeset="6671139">
    <nd ref="1039791573"/>
    <nd ref="1039792261"/>
    <nd ref="1039792428"/>
    <nd ref="1039792127"/>
    <nd ref="1039791573"/>
    <tag k="building" v="yes"/>
  </way>
  <way id="89723963" version="2" timestamp="2011-11-19T10:04:50Z" uid="173844" user="Antikalk" changeset="9871659">
    <nd ref="1039791573"/>
    <nd ref="1039792261"/>
    <nd ref="1039792428"/>
    <nd ref="1039792127"/>
    <nd ref="1039791573"/>
    <tag k="building" v="yes"/>
    <tag k="source" v="Bing Sat"/>
  </way>
  <way id="89723963" version="3" timestamp="2011-11-22T15:16:58Z" uid="173844" user="Antikalk" changeset="9910032">
    <nd ref="1039791573"/>
    <nd ref="1039792261"/>
    <nd ref="1512850585"/>
    <nd ref="1039792428"/>
    <nd ref="1039792127"/>
    <nd ref="1039791573"/>
    <tag k="addr:city" v="Duesseldorf"/>
    <tag k="addr:country" v="DE"/>
    <tag k="addr:housenumber" v="17"/>
    <tag k="addr:postcode" v="40545"/>
    <tag k="addr:street" v="Brend&apos;amourstraße"/>
    <tag k="building" v="yes"/>
    <tag k="source" v="Bing Sat"/>
  </way>
  <way id="89723963" version="4" timestamp="2011-12-18T21:21:07Z" uid="173844" user="Antikalk" changeset="10150964"/>
  <way id="89723967" version="1" timestamp="2010-12-15T20:19:05Z" uid="151899" user="Bikeman2000" changeset="6671139">
    <nd ref="1039791945"/>
    <nd ref="1039792254"/>
    <nd ref="1039791939"/>
    <nd ref="1039792050"/>
    <nd ref="1039791945"/>
    <tag k="building" v="yes"/>
  </way>
  <way id="89723967" version="2" timestamp="2011-11-19T10:04:50Z" uid="173844" user="Antikalk" changeset="9871659">
    <nd ref="1039791945"/>
    <nd ref="1039792254"/>
    <nd ref="1508436784"/>
    <nd ref="1039791939"/>
    <nd ref="1508436787"/>
    <nd ref="1508436785"/>
    <nd ref="1039792050"/>
    <nd ref="1039791945"/>
    <tag k="building" v="yes"/>
    <tag k="source" v="Bing Sat"/>
  </way>
  <way id="89723967" version="3" timestamp="2011-11-22T10:52:45Z" uid="173844" user="Antikalk" changeset="9907502">
    <nd ref="1039791945"/>
    <nd ref="1512597590"/>
    <nd ref="1039792254"/>
    <nd ref="1508436784"/>
    <nd ref="1039791939"/>
    <nd ref="1508436787"/>
    <nd ref="1508436785"/>
    <nd ref="1039792050"/>
    <nd ref="1039791945"/>
    <tag k="addr:city" v="Düsseldorf"/>
    <tag k="addr:country" v="DE"/>
    <tag k="addr:housenumber" v="6"/>
    <tag k="addr:postcode" v="40545"/>
    <tag k="addr:street" v="Salierstraße"/>
    <tag k="building" v="yes"/>
    <tag k="source" v="Bing Sat"/>
  </way>
  <way id="89723967" version="4" timestamp="2011-12-18T21:21:14Z" uid="173844" user="Antikalk" changeset="10150964"/>
  <way id="89723969" version="1" timestamp="2010-12-15T20:19:05Z" uid="151899" user="Bikeman2000" changeset="6671139">
    <nd ref="1039792113"/>
    <nd ref="1039791777"/>
    <nd ref="1039792187"/>
    <nd ref="1039792085"/>
    <nd ref="1039792113"/>
    <tag k="building" v="yes"/>
  </way>
  <way id="89723969" version="2" timestamp="2011-11-19T10:04:51Z" uid="173844" user="Antikalk" changeset="9871659">
    <nd ref="1039792113"/>
    <nd ref="1039791777"/>
    <nd ref="1039792187"/>
    <nd ref="1039792085"/>
    <nd ref="1039792113"/>
    <tag k="building" v="yes"/>
    <tag k="source" v="Bing Sat"/>
  </way>
  <way id="89723969" version="3" timestamp="2011-11-22T08:31:51Z" uid="173844" user="Antikalk" changeset="9906297">
    <nd ref="1039792113"/>
    <nd ref="1039791777"/>
    <nd ref="1039792187"/>
    <nd ref="1039792085"/>
    <nd ref="1512521747"/>
    <nd ref="1039792113"/>
    <tag k="addr:city" v="Duesseldorf"/>
    <tag k="addr:country" v="DE"/>
    <tag k="addr:housenumber" v="20"/>
    <tag k="addr:postcode" v="40545"/>
    <tag k="addr:street" v="Kaiser-Wilhelm-Ring"/>
    <tag k="building" v="yes"/>
    <tag k="source" v="Bing Sat"/>
  </way>
  <way id="89723969" version="4" timestamp="2011-12-18T21:21:09Z" uid="173844" user="Antikalk" changeset="10150964"/>
  <way id="89723976" version="1" timestamp="2010-12-15T20:19:05Z" uid="151899" user="Bikeman2000" changeset="6671139">
    <nd ref="1039791663"/>
    <nd ref="1039791787"/>
    <tag k="access" v="private"/>
    <tag k="highway" v="service"/>
  </way>
  <way id="89723976" version="2" timestamp="2011-12-18T08:41:30Z" uid="173844" user="Antikalk" changeset="10144403"/>
  <way id="89723979" version="1" timestamp="2010-12-15T20:19:06Z" uid="151899" user="Bikeman2000" changeset="6671139">
    <nd ref="1039792295"/>
    <nd ref="1039791835"/>
    <nd ref="1039791996"/>
    <nd ref="1039791763"/>
    <nd ref="1039792061"/>
    <nd ref="1039792295"/>
    <tag k="building" v="yes"/>
  </way>
  <way id="89723979" version="2" timestamp="2011-11-19T10:04:51Z" uid="173844" user="Antikalk" changeset="9871659">
    <nd ref="1039792295"/>
    <nd ref="1039791835"/>
    <nd ref="1039791763"/>
    <nd ref="1039792061"/>
    <nd ref="1039792295"/>
    <tag k="building" v="yes"/>
    <tag k="source" v="Bing Sat"/>
  </way>
  <way id="89723979" version="3" timestamp="2011-11-22T08:31:52Z" uid="173844" user="Antikalk" changeset="9906297">
    <nd ref="1039792295"/>
    <nd ref="1039791835"/>
    <nd ref="1039791763"/>
    <nd ref="1039792061"/>
    <nd ref="1512521744"/>
    <nd ref="1039792295"/>
    <tag k="addr:city" v="Duesseldorf"/>
    <tag k="addr:country" v="DE"/>
    <tag k="addr:housenumber" v="22"/>
    <tag k="addr:postcode" v="40545"/>
    <tag k="addr:street" v="Kaiser-Wilhelm-Ring"/>
    <tag k="building" v="yes"/>
    <tag k="source" v="Bing Sat"/>
  </way>
  <way id="89723979" version="4" timestamp="2011-12-18T21:21:10Z" uid="173844" user="Antikalk" changeset="10150964"/>
  <way id="89723980" version="1" timestamp="2010-12-15T20:19:06Z" uid="151899" user="Bikeman2000" changeset="6671139">
    <nd ref="1039792317"/>
    <nd ref="1039792008"/>
    <nd ref="1039792243"/>
    <nd ref="1039792546"/>
    <nd ref="1039792317"/>
    <tag k="building" v="yes"/>
  </way>
  <way id="89723980" version="2" timestamp="2011-11-19T10:04:51Z" uid="173844" user="Antikalk" changeset="9871659">
    <nd ref="1039792317"/>
    <nd ref="1039792008"/>
    <nd ref="1039792243"/>
    <nd ref="1039792546"/>
    <nd ref="1039792317"/>
    <tag k="building" v="yes"/>
    <tag k="source" v="Bing Sat"/>
  </way>
  <way id="89723980" version="3" timestamp="2011-11-22T08:32:03Z" uid="173844" user="Antikalk" changeset="9906297">
    <nd ref="1039792317"/>
    <nd ref="1039792008"/>
    <nd ref="1039792243"/>
    <nd ref="1039792546"/>
    <nd ref="1512521764"/>
    <nd ref="1039792317"/>
    <tag k="addr:city" v="Duesseldorf"/>
    <tag k="addr:country" v="DE"/>
    <tag k="addr:housenumber" v="5"/>
    <tag k="addr:postcode" v="40545"/>
    <tag k="addr:street" v="Kaiser-Wilhelm-Ring"/>
    <tag k="building" v="yes"/>
    <tag k="source" v="Bing Sat"/>
  </way>
  <way id="89723980" version="4" timestamp="2011-12-18T21:21:14Z" uid="173844" user="Antikalk" changeset="10150964"/>
  <way id="89723986" version="1" timestamp="2010-12-15T20:19:07Z" uid="151899" user="Bikeman2000" changeset="6671139">
    <nd ref="1039792435"/>
    <nd ref="1039791934"/>
    <nd ref="1039791906"/>
    <nd ref="1039792500"/>
    <nd ref="1039792357"/>
    <nd ref="1039792201"/>
    <nd ref="1039792435"/>
    <tag k="building" v="yes"/>
  </way>
  <way id="89723986" version="2" timestamp="2011-11-19T10:04:51Z" uid="173844" user="Antikalk" changeset="9871659">
    <nd ref="1039792435"/>
    <nd ref="1039791934"/>
    <nd ref="1039791906"/>
    <nd ref="1039792500"/>
    <nd ref="1039792357"/>
    <nd ref="1039792201"/>
    <nd ref="1039792435"/>
    <tag k="building" v="yes"/>
    <tag k="source" v="Bing Sat"/>
  </way>
  <way id="89723986" version="3" timestamp="2011-11-22T08:32:05Z" uid="173844" user="Antikalk" changeset="9906297">
    <nd ref="1039792435"/>
    <nd ref="1512521758"/>
    <nd ref="1039791934"/>
    <nd ref="1039791906"/>
    <nd ref="1039792500"/>
    <nd ref="1039792357"/>
    <nd ref="1039792201"/>
    <nd ref="1039792435"/>
    <tag k="addr:city" v="Duesseldorf"/>
    <tag k="addr:country" v="DE"/>
    <tag k="addr:housenumber" v="9"/>
    <tag k="addr:postcode" v="40545"/>
    <tag k="addr:street" v="Kaiser-Wilhelm-Ring"/>
    <tag k="building" v="yes"/>
    <tag k="source" v="Bing Sat"/>
  </way>
  <way id="89723986" version="4" timestamp="2011-12-18T21:21:17Z" uid="173844" user="Antikalk" changeset="10150964"/>
  <way id="89723989" version="1" timestamp="2010-12-15T20:19:07Z" uid="151899" user="Bikeman2000" changeset="6671139">
    <nd ref="1039791845"/>
    <nd ref="1039792556"/>
    <nd ref="1039792002"/>
    <nd ref="1039792310"/>
    <nd ref="1039791845"/>
    <tag k="building" v="yes"/>
  </way>
  <way id="89723989" version="2" timestamp="2011-11-19T10:04:52Z" uid="173844" user="Antikalk" changeset="9871659">
    <nd ref="1039791845"/>
    <nd ref="1039792556"/>
    <nd ref="1039792002"/>
    <nd ref="1039792310"/>
    <nd ref="1508436858"/>
    <nd ref="1508436859"/>
    <nd ref="1039791845"/>
    <tag k="building" v="yes"/>
    <tag k="source" v="Bing Sat"/>
  </way>
  <way id="89723989" version="3" timestamp="2011-11-22T15:17:24Z" uid="173844" user="Antikalk" changeset="9910032">
    <nd ref="1039791845"/>
    <nd ref="1039792556"/>
    <nd ref="1039792002"/>
    <nd ref="1039792310"/>
    <nd ref="1512850602"/>
    <nd ref="1508436858"/>
    <nd ref="1508436859"/>
    <nd ref="1039791845"/>
    <tag k="addr:city" v="Duesseldorf"/>
    <tag k="addr:country" v="DE"/>
    <tag k="addr:housenumber" v="9"/>
    <tag k="addr:postcode" v="40545"/>
    <tag k="addr:street" v="Brend&apos;amourstraße"/>
    <tag k="building" v="yes"/>
    <tag k="source" v="Bing Sat"/>
  </way>
  <way id="89723989" version="4" timestamp="2011-12-18T21:21:17Z" uid="173844" user="Antikalk" changeset="10150964"/>
  <way id="89723991" version="1" timestamp="2010-12-15T20:19:07Z" uid="151899" user="Bikeman2000" changeset="6671139">
    <nd ref="1039792061"/>
    <nd ref="1039791763"/>
    <nd ref="1039792174"/>
    <nd ref="1039791961"/>
    <nd ref="1039792061"/>
    <tag k="building" v="yes"/>
  </way>
  <way id="89723991" version="2" timestamp="2011-11-19T10:04:52Z" uid="173844" user="Antikalk" changeset="9871659">
    <nd ref="1039792061"/>
    <nd ref="1039791763"/>
    <nd ref="1039792174"/>
    <nd ref="1508436783"/>
    <nd ref="1039791961"/>
    <nd ref="1039792061"/>
    <tag k="building" v="yes"/>
    <tag k="source" v="Bing Sat"/>
  </way>
  <way id="89723991" version="3" timestamp="2011-11-22T08:31:52Z" uid="173844" user="Antikalk" changeset="9906297">
    <nd ref="1039792061"/>
    <nd ref="1039791763"/>
    <nd ref="1039792174"/>
    <nd ref="1508436783"/>
    <nd ref="1039791961"/>
    <nd ref="1512521743"/>
    <nd ref="1039792061"/>
    <tag k="addr:city" v="Duesseldorf"/>
    <tag k="addr:country" v="DE"/>
    <tag k="addr:housenumber" v="23"/>
    <tag k="addr:postcode" v="40545"/>
    <tag k="addr:street" v="Kaiser-Wilhelm-Ring"/>
    <tag k="building" v="yes"/>
    <tag k="source" v="Bing Sat"/>
  </way>
  <way id="89723991" version="4" timestamp="2011-12-18T21:21:11Z" uid="173844" user="Antikalk" changeset="10150964"/>
  <way id="89723994" version="1" timestamp="2010-12-15T20:19:08Z" uid="151899" user="Bikeman2000" changeset="6671139">
    <nd ref="1039792483"/>
    <nd ref="1039791911"/>
    <nd ref="1039792182"/>
    <nd ref="1039791985"/>
    <nd ref="1039792393"/>
    <nd ref="1039792303"/>
    <nd ref="1039791856"/>
    <nd ref="1039792483"/>
    <tag k="building" v="yes"/>
  </way>
  <way id="89723994" version="2" timestamp="2011-11-19T10:04:52Z" uid="173844" user="Antikalk" changeset="9871659">
    <nd ref="1039792483"/>
    <nd ref="1039791911"/>
    <nd ref="1039792182"/>
    <nd ref="1039791985"/>
    <nd ref="1039792393"/>
    <nd ref="1039792303"/>
    <nd ref="1039791856"/>
    <nd ref="1039792483"/>
    <tag k="building" v="yes"/>
    <tag k="source" v="Bing Sat"/>
  </way>
  <way id="89723994" version="3" timestamp="2011-11-22T08:31:48Z" uid="173844" user="Antikalk" changeset="9906297">
    <nd ref="1039792483"/>
    <nd ref="1039791911"/>
    <nd ref="1039792182"/>
    <nd ref="1039791985"/>
    <nd ref="1039792393"/>
    <nd ref="1039792303"/>
    <nd ref="1039791856"/>
    <nd ref="1512521754"/>
    <nd ref="1039792483"/>
    <tag k="addr:city" v="Duesseldorf"/>
    <tag k="addr:country" v="DE"/>
    <tag k="addr:housenumber" v="15"/>
    <tag k="addr:postcode" v="40545"/>
    <tag k="addr:street" v="Kaiser-Wilhelm-Ring"/>
    <tag k="building" v="yes"/>
    <tag k="source" v="Bing Sat"/>
  </way>
  <way id="89723994" version="4" timestamp="2011-12-18T21:21:06Z" uid="173844" user="Antikalk" changeset="10150964"/>
  <way id="89723997" version="1" timestamp="2010-12-15T20:19:09Z" uid="151899" user="Bikeman2000" changeset="6671139">
    <nd ref="1039792118"/>
    <nd ref="1039791783"/>
    <nd ref="1039792195"/>
    <nd ref="1039792016"/>
    <nd ref="1039792415"/>
    <nd ref="1039792367"/>
    <nd ref="1039792118"/>
    <tag k="building" v="yes"/>
  </way>
  <way id="89723997" version="2" timestamp="2011-11-19T10:04:52Z" uid="173844" user="Antikalk" changeset="9871659">
    <nd ref="1039792118"/>
    <nd ref="1039791783"/>
    <nd ref="1039792195"/>
    <nd ref="1039792016"/>
    <nd ref="1039792415"/>
    <nd ref="1039792367"/>
    <nd ref="1508436788"/>
    <nd ref="1039792118"/>
    <tag k="building" v="yes"/>
    <tag k="source" v="Bing Sat"/>
  </way>
  <way id="89723997" version="3" timestamp="2011-11-22T10:51:55Z" uid="173844" user="Antikalk" changeset="9907502">
    <nd ref="1039792118"/>
    <nd ref="1512597596"/>
    <nd ref="1039791783"/>
    <nd ref="1039792195"/>
    <nd ref="1039792016"/>
    <nd ref="1039792415"/>
    <nd ref="1039792367"/>
    <nd ref="1508436788"/>
    <nd ref="1039792118"/>
    <tag k="addr:city" v="Düsseldorf"/>
    <tag k="addr:country" v="DE"/>
    <tag k="addr:housenumber" v="10"/>
    <tag k="addr:postcode" v="40545"/>
    <tag k="addr:street" v="Salierstraße"/>
    <tag k="building" v="yes"/>
    <tag k="source" v="Bing Sat"/>
  </way>
  <way id="89723997" version="4" timestamp="2011-12-18T21:21:05Z" uid="173844" user="Antikalk" changeset="10150964"/>
</osm>
