<?xml version='1.0' encoding='UTF-8'?>
<osm version="0.6" generator="libosmium/2.20.0">
  <way id="89809751" version="1" timestamp="2010-12-16T11:19:41Z" uid="19626" user="Swamp" changeset="6675628">
    <nd ref="1041008192"/>
    <nd ref="1041008165"/>
    <tag k="highway" v="residential"/>
    <tag k="name" v="Myall Street"/>
    <tag k="source" v="survey"/>
    <tag k="surface" v="unpaved"/>
  </way>
  <way id="89809752" version="1" timestamp="2010-12-16T11:19:41Z" uid="19626" user="Swamp" changeset="6675628">
    <nd ref="1041008168"/>
    <nd ref="1041008182"/>
    <nd ref="1041008163"/>
    <nd ref="1041008200"/>
    <nd ref="1041008168"/>
    <tag k="amenity" v="school"/>
    <tag k="name" v="Naradhan Public School"/>
    <tag k="source" v="survey"/>
  </way>
  <way id="89809753" version="1" timestamp="2010-12-16T11:19:41Z" uid="19626" user="Swamp" changeset="6675628">
    <nd ref="1041008194"/>
    <nd ref="1041008170"/>
    <tag k="highway" v="residential"/>
    <tag k="name" v="Quandong Street"/>
    <tag k="source" v="survey"/>
    <tag k="surface" v="unpaved"/>
  </way>
  <way id="89809754" version="1" timestamp="2010-12-16T11:19:41Z" uid="19626" user="Swamp" changeset="6675628">
    <nd ref="1041008199"/>
    <nd ref="1041008194"/>
    <tag k="highway" v="unclassified"/>
    <tag k="name" v="Boree Street"/>
    <tag k="source" v="survey"/>
    <tag k="surface" v="unpaved"/>
  </way>
  <way id="89809755" version="1" timestamp="2010-12-16T11:19:42Z" uid="19626" user="Swamp" changeset="6675628">
    <nd ref="1041008194"/>
    <nd ref="1040988731"/>
    <nd ref="1040988797"/>
    <nd ref="1041008209"/>
    <nd ref="1041008181"/>
    <nd ref="1041008180"/>
    <nd ref="1041008176"/>
    <tag k="highway" v="residential"/>
    <tag k="maxspeed" v="50"/>
    <tag k="name" v="Boree Street"/>
    <tag k="source" v="survey"/>
    <tag k="surface" v="paved"/>
  </way>
  <way id="89809755" version="2" timestamp="2011-11-23T02:11:36Z" uid="3560" user="Firefishy" changeset="9916103">
    <nd ref="1041008194"/>
    <nd ref="1040988731"/>
    <nd ref="1040988797"/>
    <nd ref="1041008209"/>
    <nd ref="1041008181"/>
    <nd ref="1041008180"/>
    <nd ref="1513627896"/>
    <tag k="highway" v="residential"/>
    <tag k="maxspeed" v="50"/>
    <tag k="name" v="Boree Street"/>
    <tag k="source" v="survey"/>
    <tag k="surface" v="paved"/>
  </way>
  <way id="89809756" version="1" timestamp="2010-12-16T11:19:42Z" uid="19626" user="Swamp" changeset="6675628">
    <nd ref="1041008179"/>
    <nd ref="1040988797"/>
    <tag k="highway" v="residential"/>
    <tag k="name" v="High Street"/>
    <tag k="source" v="survey"/>
    <tag k="surface" v="unpaved"/>
  </way>
</osm>
