<?xml version='1.0' encoding='UTF-8'?>
<osm version="0.6" generator="libosmium/2.20.0">
  <way id="90023035" version="1" timestamp="2010-12-17T18:38:42Z" uid="151899" user="Bikeman2000" changeset="6689432">
    <nd ref="1043469493"/>
    <nd ref="1043469178"/>
    <nd ref="1043469519"/>
    <nd ref="1043468283"/>
    <nd ref="1043469313"/>
    <nd ref="1043469493"/>
    <tag k="building" v="yes"/>
  </way>
  <way id="90023035" version="2" timestamp="2011-11-19T18:52:54Z" uid="173844" user="Antikalk" changeset="9876029">
    <nd ref="1043469493"/>
    <nd ref="1043469178"/>
    <nd ref="1043469519"/>
    <nd ref="1043468283"/>
    <nd ref="1043469313"/>
    <nd ref="1043469493"/>
    <tag k="building" v="yes"/>
    <tag k="source" v="Bing Sat"/>
  </way>
  <way id="90023035" version="3" timestamp="2011-11-23T22:48:20Z" uid="173844" user="Antikalk" changeset="9927438">
    <nd ref="1043469493"/>
    <nd ref="1514657466"/>
    <nd ref="1043469178"/>
    <nd ref="1043469519"/>
    <nd ref="1043468283"/>
    <nd ref="1043469313"/>
    <nd ref="1043469493"/>
    <tag k="addr:city" v="Düsseldorf"/>
    <tag k="addr:country" v="DE"/>
    <tag k="addr:housenumber" v="83"/>
    <tag k="addr:postcode" v="40545"/>
    <tag k="addr:street" v="Cheruskerstraße"/>
    <tag k="building" v="yes"/>
    <tag k="source" v="Bing Sat"/>
  </way>
  <way id="90023035" version="4" timestamp="2011-12-21T21:40:29Z" uid="173844" user="Antikalk" changeset="10175610"/>
  <way id="90023040" version="1" timestamp="2010-12-17T18:38:42Z" uid="151899" user="Bikeman2000" changeset="6689432">
    <nd ref="1043469434"/>
    <nd ref="1043469074"/>
    <nd ref="1043468274"/>
    <nd ref="1043469236"/>
    <nd ref="1043469434"/>
    <tag k="building" v="yes"/>
  </way>
  <way id="90023040" version="2" timestamp="2011-11-19T18:52:54Z" uid="173844" user="Antikalk" changeset="9876029">
    <nd ref="1043469434"/>
    <nd ref="1043469074"/>
    <nd ref="1043468274"/>
    <nd ref="1043469236"/>
    <nd ref="1043469434"/>
    <tag k="building" v="yes"/>
    <tag k="source" v="Bing Sat"/>
  </way>
  <way id="90023040" version="3" timestamp="2011-11-23T22:47:20Z" uid="173844" user="Antikalk" changeset="9927438">
    <nd ref="1043469434"/>
    <nd ref="1043469074"/>
    <nd ref="1043468274"/>
    <nd ref="1514657623"/>
    <nd ref="1043469236"/>
    <nd ref="1043469434"/>
    <tag k="addr:city" v="Düsseldorf"/>
    <tag k="addr:country" v="DE"/>
    <tag k="addr:housenumber" v="109"/>
    <tag k="addr:postcode" v="40545"/>
    <tag k="addr:street" v="Cheruskerstraße"/>
    <tag k="building" v="yes"/>
    <tag k="source" v="Bing Sat"/>
  </way>
  <way id="90023040" version="4" timestamp="2011-12-21T21:40:19Z" uid="173844" user="Antikalk" changeset="10175610"/>
  <way id="90023041" version="1" timestamp="2010-12-17T18:38:43Z" uid="151899" user="Bikeman2000" changeset="6689432">
    <nd ref="1043469514"/>
    <nd ref="1043469247"/>
    <nd ref="1043468301"/>
    <nd ref="1043468549"/>
    <nd ref="1043469514"/>
    <tag k="building" v="yes"/>
  </way>
  <way id="90023041" version="2" timestamp="2011-11-19T18:52:54Z" uid="173844" user="Antikalk" changeset="9876029">
    <nd ref="1043469514"/>
    <nd ref="1043469247"/>
    <nd ref="1043468301"/>
    <nd ref="1043468549"/>
    <nd ref="1043469514"/>
    <tag k="building" v="yes"/>
    <tag k="source" v="Bing Sat"/>
  </way>
  <way id="90023041" version="3" timestamp="2011-11-23T22:48:26Z" uid="173844" user="Antikalk" changeset="9927438">
    <nd ref="1043469514"/>
    <nd ref="1514657516"/>
    <nd ref="1043469247"/>
    <nd ref="1043468301"/>
    <nd ref="1043468549"/>
    <nd ref="1043469514"/>
    <tag k="addr:city" v="Düsseldorf"/>
    <tag k="addr:country" v="DE"/>
    <tag k="addr:housenumber" v="93"/>
    <tag k="addr:postcode" v="40545"/>
    <tag k="addr:street" v="Cheruskerstraße"/>
    <tag k="building" v="yes"/>
    <tag k="source" v="Bing Sat"/>
  </way>
  <way id="90023041" version="4" timestamp="2011-12-21T21:40:30Z" uid="173844" user="Antikalk" changeset="10175610"/>
  <way id="90023043" version="1" timestamp="2010-12-17T18:38:43Z" uid="151899" user="Bikeman2000" changeset="6689432">
    <nd ref="1043468008"/>
    <nd ref="1043469306"/>
    <nd ref="1043469027"/>
    <nd ref="1043469400"/>
    <nd ref="1043468008"/>
    <tag k="building" v="yes"/>
  </way>
  <way id="90023043" version="2" timestamp="2011-11-19T18:52:55Z" uid="173844" user="Antikalk" changeset="9876029">
    <nd ref="1043468008"/>
    <nd ref="1043469306"/>
    <nd ref="1043469027"/>
    <nd ref="1043469400"/>
    <nd ref="1043468008"/>
    <tag k="building" v="yes"/>
    <tag k="source" v="Bing Sat"/>
  </way>
  <way id="90023043" version="3" timestamp="2011-11-23T22:48:15Z" uid="173844" user="Antikalk" changeset="9927438">
    <nd ref="1043468008"/>
    <nd ref="1514657433"/>
    <nd ref="1043469306"/>
    <nd ref="1043469027"/>
    <nd ref="1043469400"/>
    <nd ref="1043468008"/>
    <tag k="addr:city" v="Düsseldorf"/>
    <tag k="addr:country" v="DE"/>
    <tag k="addr:housenumber" v="79"/>
    <tag k="addr:postcode" v="40545"/>
    <tag k="addr:street" v="Cheruskerstraße"/>
    <tag k="building" v="yes"/>
    <tag k="source" v="Bing Sat"/>
  </way>
  <way id="90023043" version="4" timestamp="2011-12-21T21:40:28Z" uid="173844" user="Antikalk" changeset="10175610"/>
  <way id="90023046" version="1" timestamp="2010-12-17T18:38:44Z" uid="151899" user="Bikeman2000" changeset="6689432">
    <nd ref="1043468942"/>
    <nd ref="1043468560"/>
    <nd ref="1043469434"/>
    <nd ref="1043469236"/>
    <nd ref="1043468942"/>
    <tag k="building" v="yes"/>
  </way>
  <way id="90023046" version="2" timestamp="2011-11-19T18:52:55Z" uid="173844" user="Antikalk" changeset="9876029">
    <nd ref="1043468942"/>
    <nd ref="1043468560"/>
    <nd ref="1043469434"/>
    <nd ref="1043469236"/>
    <nd ref="1043468942"/>
    <tag k="building" v="yes"/>
    <tag k="source" v="Bing Sat"/>
  </way>
  <way id="90023046" version="3" timestamp="2011-11-23T22:47:19Z" uid="173844" user="Antikalk" changeset="9927438">
    <nd ref="1043468942"/>
    <nd ref="1043468560"/>
    <nd ref="1043469434"/>
    <nd ref="1043469236"/>
    <nd ref="1514657620"/>
    <nd ref="1043468942"/>
    <tag k="addr:city" v="Düsseldorf"/>
    <tag k="addr:country" v="DE"/>
    <tag k="addr:housenumber" v="107"/>
    <tag k="addr:postcode" v="40545"/>
    <tag k="addr:street" v="Cheruskerstraße"/>
    <tag k="building" v="yes"/>
    <tag k="source" v="Bing Sat"/>
  </way>
  <way id="90023046" version="4" timestamp="2011-12-21T21:40:18Z" uid="173844" user="Antikalk" changeset="10175610"/>
  <way id="90023048" version="1" timestamp="2010-12-17T18:38:44Z" uid="151899" user="Bikeman2000" changeset="6689432">
    <nd ref="1043469528"/>
    <nd ref="1043469035"/>
    <nd ref="1043469429"/>
    <nd ref="1043468385"/>
    <nd ref="1043469528"/>
    <tag k="building" v="yes"/>
  </way>
  <way id="90023048" version="2" timestamp="2011-11-19T18:52:55Z" uid="173844" user="Antikalk" changeset="9876029">
    <nd ref="1043469528"/>
    <nd ref="1043469035"/>
    <nd ref="1043469429"/>
    <nd ref="1043468385"/>
    <nd ref="1043469528"/>
    <tag k="building" v="yes"/>
    <tag k="source" v="Bing Sat"/>
  </way>
  <way id="90023048" version="3" timestamp="2011-11-24T22:15:20Z" uid="173844" user="Antikalk" changeset="9938272">
    <nd ref="1043469528"/>
    <nd ref="1043469035"/>
    <nd ref="1043469429"/>
    <nd ref="1043468385"/>
    <nd ref="1515975553"/>
    <nd ref="1043469528"/>
    <tag k="addr:city" v="Düsseldorf"/>
    <tag k="addr:country" v="DE"/>
    <tag k="addr:housenumber" v="14"/>
    <tag k="addr:postcode" v="40545"/>
    <tag k="addr:street" v="Sonderburgstraße"/>
    <tag k="building" v="yes"/>
    <tag k="source" v="Bing Sat"/>
  </way>
  <way id="90023048" version="4" timestamp="2011-12-21T21:40:20Z" uid="173844" user="Antikalk" changeset="10175610"/>
  <way id="90023051" version="1" timestamp="2010-12-17T18:38:45Z" uid="151899" user="Bikeman2000" changeset="6689432">
    <nd ref="1043468274"/>
    <nd ref="1043468592"/>
    <nd ref="1043468180"/>
    <nd ref="1043468867"/>
    <nd ref="1043469074"/>
    <nd ref="1043468274"/>
    <tag k="building" v="yes"/>
  </way>
  <way id="90023051" version="2" timestamp="2011-11-19T18:52:56Z" uid="173844" user="Antikalk" changeset="9876029">
    <nd ref="1043468274"/>
    <nd ref="1043468592"/>
    <nd ref="1043468180"/>
    <nd ref="1043468867"/>
    <nd ref="1043469074"/>
    <nd ref="1043468274"/>
    <tag k="building" v="yes"/>
    <tag k="source" v="Bing Sat"/>
  </way>
  <way id="90023051" version="3" timestamp="2011-11-23T22:47:22Z" uid="173844" user="Antikalk" changeset="9927438">
    <nd ref="1043468274"/>
    <nd ref="1514657627"/>
    <nd ref="1043468592"/>
    <nd ref="1043468180"/>
    <nd ref="1043468867"/>
    <nd ref="1043469074"/>
    <nd ref="1043468274"/>
    <tag k="addr:city" v="Düsseldorf"/>
    <tag k="addr:country" v="DE"/>
    <tag k="addr:housenumber" v="111"/>
    <tag k="addr:postcode" v="40545"/>
    <tag k="addr:street" v="Cheruskerstraße"/>
    <tag k="building" v="yes"/>
    <tag k="source" v="Bing Sat"/>
  </way>
  <way id="90023051" version="4" timestamp="2011-12-21T21:40:19Z" uid="173844" user="Antikalk" changeset="10175610"/>
  <way id="90023053" version="1" timestamp="2010-12-17T18:38:45Z" uid="151899" user="Bikeman2000" changeset="6689432">
    <nd ref="1043467982"/>
    <nd ref="1043469270"/>
    <nd ref="1043468192"/>
    <nd ref="1043468555"/>
    <nd ref="1043468082"/>
    <nd ref="1043467982"/>
    <tag k="building" v="yes"/>
  </way>
  <way id="90023053" version="2" timestamp="2011-11-19T18:52:56Z" uid="173844" user="Antikalk" changeset="9876029">
    <nd ref="1043467982"/>
    <nd ref="1043469270"/>
    <nd ref="1043468192"/>
    <nd ref="1043468555"/>
    <nd ref="1043468082"/>
    <nd ref="1043467982"/>
    <tag k="building" v="yes"/>
    <tag k="source" v="Bing Sat"/>
  </way>
  <way id="90023053" version="3" timestamp="2011-11-23T22:48:08Z" uid="173844" user="Antikalk" changeset="9927438">
    <nd ref="1043467982"/>
    <nd ref="1514657366"/>
    <nd ref="1043469270"/>
    <nd ref="1043468192"/>
    <nd ref="1043468555"/>
    <nd ref="1043468082"/>
    <nd ref="1043467982"/>
    <tag k="addr:city" v="Düsseldorf"/>
    <tag k="addr:country" v="DE"/>
    <tag k="addr:housenumber" v="71"/>
    <tag k="addr:postcode" v="40545"/>
    <tag k="addr:street" v="Cheruskerstraße"/>
    <tag k="building" v="yes"/>
    <tag k="source" v="Bing Sat"/>
  </way>
  <way id="90023053" version="4" timestamp="2011-12-21T21:40:27Z" uid="173844" user="Antikalk" changeset="10175610"/>
  <way id="90023056" version="1" timestamp="2010-12-17T18:38:46Z" uid="151899" user="Bikeman2000" changeset="6689432">
    <nd ref="1043469370"/>
    <nd ref="1043469133"/>
    <nd ref="1043469227"/>
    <nd ref="1043468772"/>
    <nd ref="1043469370"/>
    <tag k="building" v="yes"/>
  </way>
  <way id="90023056" version="2" timestamp="2011-11-19T18:52:56Z" uid="173844" user="Antikalk" changeset="9876029">
    <nd ref="1043469370"/>
    <nd ref="1043469133"/>
    <nd ref="1043469227"/>
    <nd ref="1043468772"/>
    <nd ref="1043469370"/>
    <tag k="building" v="yes"/>
    <tag k="source" v="Bing Sat"/>
  </way>
  <way id="90023056" version="3" timestamp="2011-11-23T22:48:30Z" uid="173844" user="Antikalk" changeset="9927438">
    <nd ref="1043469370"/>
    <nd ref="1043469133"/>
    <nd ref="1043469227"/>
    <nd ref="1043468772"/>
    <nd ref="1514657559"/>
    <nd ref="1043469370"/>
    <tag k="addr:city" v="Düsseldorf"/>
    <tag k="addr:country" v="DE"/>
    <tag k="addr:housenumber" v="99"/>
    <tag k="addr:postcode" v="40545"/>
    <tag k="addr:street" v="Cheruskerstraße"/>
    <tag k="building" v="yes"/>
    <tag k="source" v="Bing Sat"/>
  </way>
  <way id="90023056" version="4" timestamp="2011-12-21T21:40:31Z" uid="173844" user="Antikalk" changeset="10175610"/>
  <way id="90023059" version="1" timestamp="2010-12-17T18:38:46Z" uid="151899" user="Bikeman2000" changeset="6689432">
    <nd ref="1043468067"/>
    <nd ref="1043469370"/>
    <nd ref="1043469133"/>
    <nd ref="1043468671"/>
    <nd ref="1043468373"/>
    <nd ref="1043468067"/>
    <tag k="building" v="yes"/>
  </way>
  <way id="90023059" version="2" timestamp="2011-11-19T18:52:56Z" uid="173844" user="Antikalk" changeset="9876029">
    <nd ref="1043468067"/>
    <nd ref="1043469370"/>
    <nd ref="1043469133"/>
    <nd ref="1043468671"/>
    <nd ref="1043468373"/>
    <nd ref="1043468067"/>
    <tag k="building" v="yes"/>
    <tag k="source" v="Bing Sat"/>
  </way>
  <way id="90023059" version="3" timestamp="2011-11-23T22:48:28Z" uid="173844" user="Antikalk" changeset="9927438">
    <nd ref="1043468067"/>
    <nd ref="1514657543"/>
    <nd ref="1043469370"/>
    <nd ref="1043469133"/>
    <nd ref="1043468671"/>
    <nd ref="1043468373"/>
    <nd ref="1043468067"/>
    <tag k="addr:city" v="Düsseldorf"/>
    <tag k="addr:country" v="DE"/>
    <tag k="addr:housenumber" v="97"/>
    <tag k="addr:postcode" v="40545"/>
    <tag k="addr:street" v="Cheruskerstraße"/>
    <tag k="building" v="yes"/>
    <tag k="source" v="Bing Sat"/>
  </way>
  <way id="90023059" version="4" timestamp="2011-12-21T21:40:31Z" uid="173844" user="Antikalk" changeset="10175610"/>
  <way id="90023061" version="1" timestamp="2010-12-17T18:38:46Z" uid="151899" user="Bikeman2000" changeset="6689432">
    <nd ref="1043469178"/>
    <nd ref="1043468644"/>
    <nd ref="1043468951"/>
    <nd ref="1043469519"/>
    <nd ref="1043469178"/>
    <tag k="building" v="yes"/>
  </way>
  <way id="90023061" version="2" timestamp="2011-11-19T18:52:56Z" uid="173844" user="Antikalk" changeset="9876029">
    <nd ref="1043469178"/>
    <nd ref="1043468644"/>
    <nd ref="1043468951"/>
    <nd ref="1043469519"/>
    <nd ref="1043469178"/>
    <tag k="building" v="yes"/>
    <tag k="source" v="Bing Sat"/>
  </way>
  <way id="90023061" version="3" timestamp="2011-11-23T22:48:22Z" uid="173844" user="Antikalk" changeset="9927438">
    <nd ref="1043469178"/>
    <nd ref="1514657474"/>
    <nd ref="1043468644"/>
    <nd ref="1043468951"/>
    <nd ref="1043469519"/>
    <nd ref="1043469178"/>
    <tag k="addr:city" v="Düsseldorf"/>
    <tag k="addr:country" v="DE"/>
    <tag k="addr:housenumber" v="85"/>
    <tag k="addr:postcode" v="40545"/>
    <tag k="addr:street" v="Cheruskerstraße"/>
    <tag k="building" v="yes"/>
    <tag k="source" v="Bing Sat"/>
  </way>
  <way id="90023061" version="4" timestamp="2011-12-21T21:40:29Z" uid="173844" user="Antikalk" changeset="10175610"/>
  <way id="90023067" version="1" timestamp="2010-12-17T18:38:47Z" uid="151899" user="Bikeman2000" changeset="6689432">
    <nd ref="1043469247"/>
    <nd ref="1043468067"/>
    <nd ref="1043468373"/>
    <nd ref="1043468301"/>
    <nd ref="1043469247"/>
    <tag k="building" v="yes"/>
  </way>
  <way id="90023067" version="2" timestamp="2011-11-19T18:52:56Z" uid="173844" user="Antikalk" changeset="9876029">
    <nd ref="1043469247"/>
    <nd ref="1043468067"/>
    <nd ref="1043468373"/>
    <nd ref="1043468301"/>
    <nd ref="1043469247"/>
    <tag k="building" v="yes"/>
    <tag k="source" v="Bing Sat"/>
  </way>
  <way id="90023067" version="3" timestamp="2011-11-23T22:48:27Z" uid="173844" user="Antikalk" changeset="9927438">
    <nd ref="1043469247"/>
    <nd ref="1514657525"/>
    <nd ref="1043468067"/>
    <nd ref="1043468373"/>
    <nd ref="1043468301"/>
    <nd ref="1043469247"/>
    <tag k="addr:city" v="Düsseldorf"/>
    <tag k="addr:country" v="DE"/>
    <tag k="addr:housenumber" v="95"/>
    <tag k="addr:postcode" v="40545"/>
    <tag k="addr:street" v="Cheruskerstraße"/>
    <tag k="building" v="yes"/>
    <tag k="source" v="Bing Sat"/>
  </way>
  <way id="90023067" version="4" timestamp="2011-12-21T21:40:30Z" uid="173844" user="Antikalk" changeset="10175610"/>
  <way id="90023070" version="1" timestamp="2010-12-17T18:38:48Z" uid="151899" user="Bikeman2000" changeset="6689432">
    <nd ref="1043468458"/>
    <nd ref="1043468112"/>
    <nd ref="1043468743"/>
    <nd ref="1043468982"/>
    <nd ref="1043468458"/>
    <tag k="building" v="yes"/>
  </way>
  <way id="90023070" version="2" timestamp="2011-11-19T18:52:57Z" uid="173844" user="Antikalk" changeset="9876029">
    <nd ref="1043468458"/>
    <nd ref="1043468112"/>
    <nd ref="1043468743"/>
    <nd ref="1043468982"/>
    <nd ref="1043468458"/>
    <tag k="building" v="yes"/>
    <tag k="source" v="Bing Sat"/>
  </way>
  <way id="90023070" version="3" timestamp="2011-11-24T22:15:38Z" uid="173844" user="Antikalk" changeset="9938272">
    <nd ref="1043468458"/>
    <nd ref="1043468112"/>
    <nd ref="1043468743"/>
    <nd ref="1515975601"/>
    <nd ref="1043468982"/>
    <nd ref="1043468458"/>
    <tag k="addr:city" v="Düsseldorf"/>
    <tag k="addr:country" v="DE"/>
    <tag k="addr:housenumber" v="48"/>
    <tag k="addr:postcode" v="40545"/>
    <tag k="addr:street" v="Sonderburgstraße"/>
    <tag k="building" v="yes"/>
    <tag k="source" v="Bing Sat"/>
  </way>
  <way id="90023070" version="4" timestamp="2011-12-21T21:40:26Z" uid="173844" user="Antikalk" changeset="10175610"/>
  <way id="90023073" version="1" timestamp="2010-12-17T18:38:48Z" uid="151899" user="Bikeman2000" changeset="6689432">
    <nd ref="1043468930"/>
    <nd ref="1043468485"/>
    <nd ref="1043468767"/>
    <nd ref="1043468174"/>
    <nd ref="1043468930"/>
    <tag k="building" v="yes"/>
  </way>
  <way id="90023073" version="2" timestamp="2011-11-19T18:52:57Z" uid="173844" user="Antikalk" changeset="9876029">
    <nd ref="1043468930"/>
    <nd ref="1043468485"/>
    <nd ref="1043468767"/>
    <nd ref="1043468174"/>
    <nd ref="1043468930"/>
    <tag k="building" v="yes"/>
    <tag k="source" v="Bing Sat"/>
  </way>
  <way id="90023073" version="3" timestamp="2011-11-24T22:15:29Z" uid="173844" user="Antikalk" changeset="9938272">
    <nd ref="1043468930"/>
    <nd ref="1043468485"/>
    <nd ref="1515975568"/>
    <nd ref="1043468767"/>
    <nd ref="1043468174"/>
    <nd ref="1043468930"/>
    <tag k="addr:city" v="Düsseldorf"/>
    <tag k="addr:country" v="DE"/>
    <tag k="addr:housenumber" v="24"/>
    <tag k="addr:postcode" v="40545"/>
    <tag k="addr:street" v="Sonderburgstraße"/>
    <tag k="building" v="yes"/>
    <tag k="source" v="Bing Sat"/>
  </way>
  <way id="90023073" version="4" timestamp="2011-12-21T21:40:22Z" uid="173844" user="Antikalk" changeset="10175610"/>
  <way id="90023074" version="1" timestamp="2010-12-17T18:38:48Z" uid="151899" user="Bikeman2000" changeset="6689432">
    <nd ref="1043469306"/>
    <nd ref="1043469493"/>
    <nd ref="1043469313"/>
    <nd ref="1043468380"/>
    <nd ref="1043469027"/>
    <nd ref="1043469306"/>
    <tag k="building" v="yes"/>
  </way>
  <way id="90023074" version="2" timestamp="2011-11-19T18:52:57Z" uid="173844" user="Antikalk" changeset="9876029">
    <nd ref="1043469306"/>
    <nd ref="1043469493"/>
    <nd ref="1043469313"/>
    <nd ref="1043468380"/>
    <nd ref="1043469027"/>
    <nd ref="1043469306"/>
    <tag k="building" v="yes"/>
    <tag k="source" v="Bing Sat"/>
  </way>
  <way id="90023074" version="3" timestamp="2011-11-23T22:48:18Z" uid="173844" user="Antikalk" changeset="9927438">
    <nd ref="1043469306"/>
    <nd ref="1514657453"/>
    <nd ref="1043469493"/>
    <nd ref="1043469313"/>
    <nd ref="1043468380"/>
    <nd ref="1043469027"/>
    <nd ref="1043469306"/>
    <tag k="addr:city" v="Düsseldorf"/>
    <tag k="addr:country" v="DE"/>
    <tag k="addr:housenumber" v="81"/>
    <tag k="addr:postcode" v="40545"/>
    <tag k="addr:street" v="Cheruskerstraße"/>
    <tag k="building" v="yes"/>
    <tag k="source" v="Bing Sat"/>
  </way>
  <way id="90023074" version="4" timestamp="2011-12-21T21:40:28Z" uid="173844" user="Antikalk" changeset="10175610"/>
  <way id="90023076" version="1" timestamp="2010-12-17T18:38:49Z" uid="151899" user="Bikeman2000" changeset="6689432">
    <nd ref="1043469333"/>
    <nd ref="1043469404"/>
    <nd ref="1043468860"/>
    <nd ref="1043469110"/>
    <nd ref="1043468654"/>
    <nd ref="1043469310"/>
    <nd ref="1043469333"/>
    <tag k="building" v="yes"/>
  </way>
  <way id="90023076" version="2" timestamp="2011-11-19T18:52:57Z" uid="173844" user="Antikalk" changeset="9876029">
    <nd ref="1043469333"/>
    <nd ref="1043469404"/>
    <nd ref="1043468860"/>
    <nd ref="1043469110"/>
    <nd ref="1043468654"/>
    <nd ref="1043469310"/>
    <nd ref="1043469333"/>
    <tag k="building" v="yes"/>
    <tag k="source" v="Bing Sat"/>
  </way>
  <way id="90023076" version="3" timestamp="2011-11-23T23:01:32Z" uid="173844" user="Antikalk" changeset="9927592">
    <nd ref="1043469333"/>
    <nd ref="1043469404"/>
    <nd ref="1043468860"/>
    <nd ref="1043469110"/>
    <nd ref="1043468654"/>
    <nd ref="1043469310"/>
    <nd ref="1514677068"/>
    <nd ref="1043469333"/>
    <tag k="addr:city" v="Düsseldorf"/>
    <tag k="addr:country" v="DE"/>
    <tag k="addr:housenumber" v="2"/>
    <tag k="addr:postcode" v="40545"/>
    <tag k="addr:street" v="Sonderburgstraße"/>
    <tag k="building" v="yes"/>
    <tag k="source" v="Bing Sat"/>
  </way>
  <way id="90023076" version="4" timestamp="2011-12-21T21:40:21Z" uid="173844" user="Antikalk" changeset="10175610"/>
  <way id="90023081" version="1" timestamp="2010-12-17T18:38:49Z" uid="151899" user="Bikeman2000" changeset="6689432">
    <nd ref="1043469497"/>
    <nd ref="1043468751"/>
    <nd ref="1043468096"/>
    <nd ref="1043468876"/>
    <nd ref="1043468256"/>
    <nd ref="1043468988"/>
    <nd ref="1043469510"/>
    <nd ref="1043469497"/>
    <tag k="building" v="yes"/>
  </way>
  <way id="90023081" version="2" timestamp="2011-11-19T18:52:57Z" uid="173844" user="Antikalk" changeset="9876029">
    <nd ref="1043469497"/>
    <nd ref="1043468751"/>
    <nd ref="1043468096"/>
    <nd ref="1043468876"/>
    <nd ref="1043468256"/>
    <nd ref="1043468988"/>
    <nd ref="1043469510"/>
    <nd ref="1043469497"/>
    <tag k="building" v="yes"/>
    <tag k="source" v="Bing Sat"/>
  </way>
  <way id="90023081" version="3" timestamp="2011-11-24T22:15:13Z" uid="173844" user="Antikalk" changeset="9938272">
    <nd ref="1043469497"/>
    <nd ref="1043468751"/>
    <nd ref="1515975608"/>
    <nd ref="1043468096"/>
    <nd ref="1043468876"/>
    <nd ref="1043468256"/>
    <nd ref="1043468988"/>
    <nd ref="1043469510"/>
    <nd ref="1043469497"/>
    <tag k="addr:city" v="Düsseldorf"/>
    <tag k="addr:country" v="DE"/>
    <tag k="addr:housenumber" v="1"/>
    <tag k="addr:postcode" v="40545"/>
    <tag k="addr:street" v="Belsenplatz"/>
    <tag k="building" v="yes"/>
    <tag k="source" v="Bing Sat"/>
  </way>
  <way id="90023081" version="4" timestamp="2011-12-21T21:40:17Z" uid="173844" user="Antikalk" changeset="10175610"/>
  <way id="90023082" version="1" timestamp="2010-12-17T18:38:50Z" uid="151899" user="Bikeman2000" changeset="6689432">
    <nd ref="1043468385"/>
    <nd ref="1043469322"/>
    <nd ref="1043468266"/>
    <nd ref="1043469429"/>
    <nd ref="1043468385"/>
    <tag k="building" v="yes"/>
  </way>
  <way id="90023082" version="2" timestamp="2011-11-19T18:52:58Z" uid="173844" user="Antikalk" changeset="9876029">
    <nd ref="1043468385"/>
    <nd ref="1043469322"/>
    <nd ref="1043468266"/>
    <nd ref="1043469429"/>
    <nd ref="1043468385"/>
    <tag k="building" v="yes"/>
    <tag k="source" v="Bing Sat"/>
  </way>
  <way id="90023082" version="3" timestamp="2011-11-24T22:15:16Z" uid="173844" user="Antikalk" changeset="9938272">
    <nd ref="1043468385"/>
    <nd ref="1515975547"/>
    <nd ref="1043469322"/>
    <nd ref="1043468266"/>
    <nd ref="1043469429"/>
    <nd ref="1043468385"/>
    <tag k="addr:city" v="Düsseldorf"/>
    <tag k="addr:country" v="DE"/>
    <tag k="addr:housenumber" v="12"/>
    <tag k="addr:postcode" v="40545"/>
    <tag k="addr:street" v="Sonderburgstraße"/>
    <tag k="building" v="yes"/>
    <tag k="source" v="Bing Sat"/>
  </way>
  <way id="90023082" version="4" timestamp="2011-12-21T21:40:19Z" uid="173844" user="Antikalk" changeset="10175610"/>
  <way id="90023084" version="1" timestamp="2010-12-17T18:38:50Z" uid="151899" user="Bikeman2000" changeset="6689432">
    <nd ref="1043468757"/>
    <nd ref="1043468463"/>
    <nd ref="1043469151"/>
    <nd ref="1043468963"/>
    <nd ref="1043468096"/>
    <nd ref="1043468876"/>
    <nd ref="1043469092"/>
    <nd ref="1043468200"/>
    <nd ref="1043469258"/>
    <nd ref="1043468757"/>
    <tag k="building" v="yes"/>
  </way>
  <way id="90023084" version="2" timestamp="2011-11-19T18:52:58Z" uid="173844" user="Antikalk" changeset="9876029">
    <nd ref="1043468757"/>
    <nd ref="1043468463"/>
    <nd ref="1043469151"/>
    <nd ref="1043468963"/>
    <nd ref="1043468096"/>
    <nd ref="1043468876"/>
    <nd ref="1043469092"/>
    <nd ref="1043468200"/>
    <nd ref="1043469258"/>
    <nd ref="1043468757"/>
    <tag k="building" v="yes"/>
    <tag k="source" v="Bing Sat"/>
  </way>
  <way id="90023084" version="3" timestamp="2011-11-24T22:15:32Z" uid="173844" user="Antikalk" changeset="9938272">
    <nd ref="1043468757"/>
    <nd ref="1043468463"/>
    <nd ref="1043469151"/>
    <nd ref="1043468963"/>
    <nd ref="1515975606"/>
    <nd ref="1043468096"/>
    <nd ref="1043468876"/>
    <nd ref="1043469092"/>
    <nd ref="1043468200"/>
    <nd ref="1043469258"/>
    <nd ref="1043468757"/>
    <tag k="addr:city" v="Düsseldorf"/>
    <tag k="addr:country" v="DE"/>
    <tag k="addr:housenumber" v="3"/>
    <tag k="addr:postcode" v="40545"/>
    <tag k="addr:street" v="Belsenplatz"/>
    <tag k="building" v="yes"/>
    <tag k="source" v="Bing Sat"/>
  </way>
  <way id="90023084" version="4" timestamp="2011-12-21T21:40:23Z" uid="173844" user="Antikalk" changeset="10175610"/>
  <way id="90023088" version="1" timestamp="2010-12-17T18:38:51Z" uid="151899" user="Bikeman2000" changeset="6689432">
    <nd ref="1043469270"/>
    <nd ref="1043468692"/>
    <nd ref="1043469106"/>
    <nd ref="1043468192"/>
    <nd ref="1043469270"/>
    <tag k="building" v="yes"/>
  </way>
  <way id="90023088" version="2" timestamp="2011-11-19T18:52:58Z" uid="173844" user="Antikalk" changeset="9876029">
    <nd ref="1043469270"/>
    <nd ref="1043468692"/>
    <nd ref="1043469106"/>
    <nd ref="1043468192"/>
    <nd ref="1043469270"/>
    <tag k="building" v="yes"/>
    <tag k="source" v="Bing Sat"/>
  </way>
  <way id="90023088" version="3" timestamp="2011-11-23T22:48:10Z" uid="173844" user="Antikalk" changeset="9927438">
    <nd ref="1043469270"/>
    <nd ref="1514657369"/>
    <nd ref="1043468692"/>
    <nd ref="1043469106"/>
    <nd ref="1043468192"/>
    <nd ref="1043469270"/>
    <tag k="addr:city" v="Düsseldorf"/>
    <tag k="addr:country" v="DE"/>
    <tag k="addr:housenumber" v="73"/>
    <tag k="addr:postcode" v="40545"/>
    <tag k="addr:street" v="Cheruskerstraße"/>
    <tag k="building" v="yes"/>
    <tag k="source" v="Bing Sat"/>
  </way>
  <way id="90023088" version="4" timestamp="2011-12-21T21:40:27Z" uid="173844" user="Antikalk" changeset="10175610"/>
  <way id="90023091" version="1" timestamp="2010-12-17T18:38:52Z" uid="151899" user="Bikeman2000" changeset="6689432">
    <nd ref="1043468780"/>
    <nd ref="1043468360"/>
    <nd ref="1043469392"/>
    <nd ref="1043468654"/>
    <nd ref="1043469310"/>
    <nd ref="1043468780"/>
    <tag k="building" v="yes"/>
  </way>
  <way id="90023091" version="2" timestamp="2011-11-19T18:52:58Z" uid="173844" user="Antikalk" changeset="9876029">
    <nd ref="1043468780"/>
    <nd ref="1043468360"/>
    <nd ref="1043469392"/>
    <nd ref="1043468654"/>
    <nd ref="1043469310"/>
    <nd ref="1043468780"/>
    <tag k="building" v="yes"/>
    <tag k="source" v="Bing Sat"/>
  </way>
  <way id="90023091" version="3" timestamp="2011-11-24T22:15:36Z" uid="173844" user="Antikalk" changeset="9938272">
    <nd ref="1043468780"/>
    <nd ref="1043468360"/>
    <nd ref="1043469392"/>
    <nd ref="1043468654"/>
    <nd ref="1043469310"/>
    <nd ref="1515975532"/>
    <nd ref="1043468780"/>
    <tag k="addr:city" v="Düsseldorf"/>
    <tag k="addr:country" v="DE"/>
    <tag k="addr:housenumber" v="4"/>
    <tag k="addr:postcode" v="40545"/>
    <tag k="addr:street" v="Sonderburgstraße"/>
    <tag k="building" v="yes"/>
    <tag k="source" v="Bing Sat"/>
  </way>
  <way id="90023091" version="4" timestamp="2011-12-21T21:40:25Z" uid="173844" user="Antikalk" changeset="10175610"/>
  <way id="90023092" version="1" timestamp="2010-12-17T18:38:52Z" uid="151899" user="Bikeman2000" changeset="6689432">
    <nd ref="1043469367"/>
    <nd ref="1043469461"/>
    <nd ref="1043468485"/>
    <nd ref="1043468930"/>
    <nd ref="1043469367"/>
    <tag k="building" v="yes"/>
  </way>
  <way id="90023092" version="2" timestamp="2011-11-19T18:52:59Z" uid="173844" user="Antikalk" changeset="9876029">
    <nd ref="1043469367"/>
    <nd ref="1043469461"/>
    <nd ref="1043468485"/>
    <nd ref="1043468930"/>
    <nd ref="1043469367"/>
    <tag k="building" v="yes"/>
    <tag k="source" v="Bing Sat"/>
  </way>
  <way id="90023092" version="3" timestamp="2011-11-24T22:15:30Z" uid="173844" user="Antikalk" changeset="9938272">
    <nd ref="1043469367"/>
    <nd ref="1043469461"/>
    <nd ref="1515975571"/>
    <nd ref="1043468485"/>
    <nd ref="1043468930"/>
    <nd ref="1043469367"/>
    <tag k="addr:city" v="Düsseldorf"/>
    <tag k="addr:country" v="DE"/>
    <tag k="addr:housenumber" v="26"/>
    <tag k="addr:postcode" v="40545"/>
    <tag k="addr:street" v="Sonderburgstraße"/>
    <tag k="building" v="yes"/>
    <tag k="source" v="Bing Sat"/>
  </way>
  <way id="90023092" version="4" timestamp="2011-12-21T21:40:22Z" uid="173844" user="Antikalk" changeset="10175610"/>
  <way id="90023093" version="1" timestamp="2010-12-17T18:38:52Z" uid="151899" user="Bikeman2000" changeset="6689432">
    <nd ref="1043469326"/>
    <nd ref="1043469098"/>
    <nd ref="1043469003"/>
    <nd ref="1043468100"/>
    <nd ref="1043468164"/>
    <nd ref="1043469017"/>
    <nd ref="1043469326"/>
    <tag k="building" v="yes"/>
  </way>
  <way id="90023093" version="2" timestamp="2011-11-19T18:52:59Z" uid="173844" user="Antikalk" changeset="9876029">
    <nd ref="1043469326"/>
    <nd ref="1043469098"/>
    <nd ref="1043469003"/>
    <nd ref="1043468100"/>
    <nd ref="1043468164"/>
    <nd ref="1043469017"/>
    <nd ref="1043469326"/>
    <tag k="building" v="yes"/>
    <tag k="source" v="Bing Sat"/>
  </way>
  <way id="90023093" version="3" timestamp="2011-11-24T22:15:37Z" uid="173844" user="Antikalk" changeset="9938272">
    <nd ref="1043469326"/>
    <nd ref="1043469098"/>
    <nd ref="1043469003"/>
    <nd ref="1043468100"/>
    <nd ref="1043468164"/>
    <nd ref="1043469017"/>
    <nd ref="1515975584"/>
    <nd ref="1043469326"/>
    <tag k="addr:city" v="Düsseldorf"/>
    <tag k="addr:country" v="DE"/>
    <tag k="addr:housenumber" v="40"/>
    <tag k="addr:postcode" v="40545"/>
    <tag k="addr:street" v="Sonderburgstraße"/>
    <tag k="building" v="yes"/>
    <tag k="source" v="Bing Sat"/>
  </way>
  <way id="90023093" version="4" timestamp="2011-12-21T21:40:25Z" uid="173844" user="Antikalk" changeset="10175610"/>
  <way id="90023097" version="1" timestamp="2010-12-17T18:38:53Z" uid="151899" user="Bikeman2000" changeset="6689432">
    <nd ref="1043468644"/>
    <nd ref="1043468206"/>
    <nd ref="1043468678"/>
    <nd ref="1043468951"/>
    <nd ref="1043468644"/>
    <tag k="building" v="yes"/>
  </way>
  <way id="90023097" version="2" timestamp="2011-11-19T18:52:59Z" uid="173844" user="Antikalk" changeset="9876029">
    <nd ref="1043468644"/>
    <nd ref="1043468206"/>
    <nd ref="1043468678"/>
    <nd ref="1043468951"/>
    <nd ref="1043468644"/>
    <tag k="building" v="yes"/>
    <tag k="source" v="Bing Sat"/>
  </way>
  <way id="90023097" version="3" timestamp="2011-11-23T22:48:23Z" uid="173844" user="Antikalk" changeset="9927438">
    <nd ref="1043468644"/>
    <nd ref="1514657477"/>
    <nd ref="1043468206"/>
    <nd ref="1043468678"/>
    <nd ref="1043468951"/>
    <nd ref="1043468644"/>
    <tag k="addr:city" v="Düsseldorf"/>
    <tag k="addr:country" v="DE"/>
    <tag k="addr:housenumber" v="87"/>
    <tag k="addr:postcode" v="40545"/>
    <tag k="addr:street" v="Cheruskerstraße"/>
    <tag k="building" v="yes"/>
    <tag k="source" v="Bing Sat"/>
  </way>
  <way id="90023097" version="4" timestamp="2011-12-21T21:40:29Z" uid="173844" user="Antikalk" changeset="10175610"/>
  <way id="90023101" version="1" timestamp="2010-12-17T18:38:53Z" uid="151899" user="Bikeman2000" changeset="6689432">
    <nd ref="1043468844"/>
    <nd ref="1043468391"/>
    <nd ref="1043469461"/>
    <nd ref="1043469367"/>
    <nd ref="1043468844"/>
    <tag k="building" v="yes"/>
  </way>
  <way id="90023101" version="2" timestamp="2011-11-19T18:52:59Z" uid="173844" user="Antikalk" changeset="9876029">
    <nd ref="1043468844"/>
    <nd ref="1043468391"/>
    <nd ref="1043469461"/>
    <nd ref="1043469367"/>
    <nd ref="1043468844"/>
    <tag k="building" v="yes"/>
    <tag k="source" v="Bing Sat"/>
  </way>
  <way id="90023101" version="3" timestamp="2011-11-24T22:15:32Z" uid="173844" user="Antikalk" changeset="9938272">
    <nd ref="1043468844"/>
    <nd ref="1043468391"/>
    <nd ref="1515975573"/>
    <nd ref="1043469461"/>
    <nd ref="1043469367"/>
    <nd ref="1043468844"/>
    <tag k="addr:city" v="Düsseldorf"/>
    <tag k="addr:country" v="DE"/>
    <tag k="addr:housenumber" v="28"/>
    <tag k="addr:postcode" v="40545"/>
    <tag k="addr:street" v="Sonderburgstraße"/>
    <tag k="building" v="yes"/>
    <tag k="source" v="Bing Sat"/>
  </way>
  <way id="90023101" version="4" timestamp="2011-12-21T21:40:23Z" uid="173844" user="Antikalk" changeset="10175610"/>
  <way id="90023103" version="1" timestamp="2010-12-17T18:38:54Z" uid="151899" user="Bikeman2000" changeset="6689432">
    <nd ref="1043468663"/>
    <nd ref="1043469466"/>
    <nd ref="1043468451"/>
    <nd ref="1043469265"/>
    <nd ref="1043468663"/>
    <tag k="building" v="yes"/>
  </way>
  <way id="90023103" version="2" timestamp="2011-11-19T18:52:59Z" uid="173844" user="Antikalk" changeset="9876029">
    <nd ref="1043468663"/>
    <nd ref="1043469466"/>
    <nd ref="1043468451"/>
    <nd ref="1043469265"/>
    <nd ref="1043468663"/>
    <tag k="building" v="yes"/>
    <tag k="source" v="Bing Sat"/>
  </way>
  <way id="90023103" version="3" timestamp="2011-11-24T22:15:26Z" uid="173844" user="Antikalk" changeset="9938272">
    <nd ref="1043468663"/>
    <nd ref="1043469466"/>
    <nd ref="1043468451"/>
    <nd ref="1515975562"/>
    <nd ref="1043469265"/>
    <nd ref="1043468663"/>
    <tag k="addr:city" v="Düsseldorf"/>
    <tag k="addr:country" v="DE"/>
    <tag k="addr:housenumber" v="20"/>
    <tag k="addr:postcode" v="40545"/>
    <tag k="addr:street" v="Sonderburgstraße"/>
    <tag k="building" v="yes"/>
    <tag k="source" v="Bing Sat"/>
  </way>
  <way id="90023103" version="4" timestamp="2011-12-21T21:40:22Z" uid="173844" user="Antikalk" changeset="10175610"/>
  <way id="90023106" version="1" timestamp="2010-12-17T18:38:54Z" uid="151899" user="Bikeman2000" changeset="6689432">
    <nd ref="1043468836"/>
    <nd ref="1043468477"/>
    <nd ref="1043468995"/>
    <nd ref="1043468018"/>
    <nd ref="1043468836"/>
    <tag k="building" v="yes"/>
  </way>
  <way id="90023106" version="2" timestamp="2011-11-19T18:52:59Z" uid="173844" user="Antikalk" changeset="9876029">
    <nd ref="1043468836"/>
    <nd ref="1043468477"/>
    <nd ref="1043468995"/>
    <nd ref="1043468018"/>
    <nd ref="1043468836"/>
    <tag k="building" v="yes"/>
    <tag k="source" v="Bing Sat"/>
  </way>
  <way id="90023106" version="3" timestamp="2011-11-23T22:47:16Z" uid="173844" user="Antikalk" changeset="9927438">
    <nd ref="1043468836"/>
    <nd ref="1514657611"/>
    <nd ref="1043468477"/>
    <nd ref="1043468995"/>
    <nd ref="1043468018"/>
    <nd ref="1043468836"/>
    <tag k="addr:city" v="Düsseldorf"/>
    <tag k="addr:country" v="DE"/>
    <tag k="addr:housenumber" v="103"/>
    <tag k="addr:postcode" v="40545"/>
    <tag k="addr:street" v="Cheruskerstraße"/>
    <tag k="building" v="yes"/>
    <tag k="source" v="Bing Sat"/>
  </way>
  <way id="90023106" version="4" timestamp="2011-12-21T21:40:17Z" uid="173844" user="Antikalk" changeset="10175610"/>
  <way id="90023107" version="1" timestamp="2010-12-17T18:38:55Z" uid="151899" user="Bikeman2000" changeset="6689432">
    <nd ref="1043468112"/>
    <nd ref="1043469066"/>
    <nd ref="1043467991"/>
    <nd ref="1043468743"/>
    <nd ref="1043468112"/>
    <tag k="building" v="yes"/>
  </way>
  <way id="90023107" version="2" timestamp="2011-11-19T18:53:00Z" uid="173844" user="Antikalk" changeset="9876029">
    <nd ref="1043468112"/>
    <nd ref="1043469066"/>
    <nd ref="1043467991"/>
    <nd ref="1043468743"/>
    <nd ref="1043468112"/>
    <tag k="building" v="yes"/>
    <tag k="source" v="Bing Sat"/>
  </way>
  <way id="90023107" version="3" timestamp="2011-11-24T22:15:38Z" uid="173844" user="Antikalk" changeset="9938272">
    <nd ref="1043468112"/>
    <nd ref="1043469066"/>
    <nd ref="1043467991"/>
    <nd ref="1515975596"/>
    <nd ref="1043468743"/>
    <nd ref="1043468112"/>
    <tag k="addr:city" v="Düsseldorf"/>
    <tag k="addr:country" v="DE"/>
    <tag k="addr:housenumber" v="46"/>
    <tag k="addr:postcode" v="40545"/>
    <tag k="addr:street" v="Sonderburgstraße"/>
    <tag k="building" v="yes"/>
    <tag k="source" v="Bing Sat"/>
  </way>
  <way id="90023107" version="4" timestamp="2011-12-21T21:40:26Z" uid="173844" user="Antikalk" changeset="10175610"/>
  <way id="90023113" version="1" timestamp="2010-12-17T18:38:55Z" uid="151899" user="Bikeman2000" changeset="6689432">
    <nd ref="1043468174"/>
    <nd ref="1043468663"/>
    <nd ref="1043469265"/>
    <nd ref="1043468767"/>
    <nd ref="1043468174"/>
    <tag k="building" v="yes"/>
  </way>
  <way id="90023113" version="2" timestamp="2011-11-19T18:53:00Z" uid="173844" user="Antikalk" changeset="9876029">
    <nd ref="1043468174"/>
    <nd ref="1043468663"/>
    <nd ref="1043469265"/>
    <nd ref="1043468767"/>
    <nd ref="1043468174"/>
    <tag k="building" v="yes"/>
    <tag k="source" v="Bing Sat"/>
  </way>
  <way id="90023113" version="3" timestamp="2011-11-24T22:15:27Z" uid="173844" user="Antikalk" changeset="9938272">
    <nd ref="1043468174"/>
    <nd ref="1043468663"/>
    <nd ref="1043469265"/>
    <nd ref="1515975566"/>
    <nd ref="1043468767"/>
    <nd ref="1043468174"/>
    <tag k="addr:city" v="Düsseldorf"/>
    <tag k="addr:country" v="DE"/>
    <tag k="addr:housenumber" v="22"/>
    <tag k="addr:postcode" v="40545"/>
    <tag k="addr:street" v="Sonderburgstraße"/>
    <tag k="building" v="yes"/>
    <tag k="source" v="Bing Sat"/>
  </way>
  <way id="90023113" version="4" timestamp="2011-12-21T21:40:22Z" uid="173844" user="Antikalk" changeset="10175610"/>
  <way id="90023114" version="1" timestamp="2010-12-17T18:38:56Z" uid="151899" user="Bikeman2000" changeset="6689432">
    <nd ref="1043468762"/>
    <nd ref="1043469528"/>
    <nd ref="1043469035"/>
    <nd ref="1043469010"/>
    <nd ref="1043468762"/>
    <tag k="building" v="yes"/>
  </way>
  <way id="90023114" version="2" timestamp="2011-11-19T18:53:00Z" uid="173844" user="Antikalk" changeset="9876029">
    <nd ref="1043468762"/>
    <nd ref="1043469528"/>
    <nd ref="1043469035"/>
    <nd ref="1043469010"/>
    <nd ref="1043468762"/>
    <tag k="building" v="yes"/>
    <tag k="source" v="Bing Sat"/>
  </way>
  <way id="90023114" version="3" timestamp="2011-11-24T22:15:22Z" uid="173844" user="Antikalk" changeset="9938272">
    <nd ref="1043468762"/>
    <nd ref="1515975556"/>
    <nd ref="1043469528"/>
    <nd ref="1043469035"/>
    <nd ref="1043469010"/>
    <nd ref="1043468762"/>
    <tag k="addr:city" v="Düsseldorf"/>
    <tag k="addr:country" v="DE"/>
    <tag k="addr:housenumber" v="16"/>
    <tag k="addr:postcode" v="40545"/>
    <tag k="addr:street" v="Sonderburgstraße"/>
    <tag k="building" v="yes"/>
    <tag k="source" v="Bing Sat"/>
  </way>
  <way id="90023114" version="4" timestamp="2011-12-21T21:40:21Z" uid="173844" user="Antikalk" changeset="10175610"/>
  <way id="90023117" version="1" timestamp="2010-12-17T18:38:56Z" uid="151899" user="Bikeman2000" changeset="6689432">
    <nd ref="1043468936"/>
    <nd ref="1043468504"/>
    <nd ref="1043469085"/>
    <nd ref="1043468004"/>
    <nd ref="1043468936"/>
    <tag k="building" v="yes"/>
  </way>
  <way id="90023117" version="2" timestamp="2011-11-19T18:53:00Z" uid="173844" user="Antikalk" changeset="9876029">
    <nd ref="1043468936"/>
    <nd ref="1043468504"/>
    <nd ref="1043469085"/>
    <nd ref="1043468004"/>
    <nd ref="1043468936"/>
    <tag k="building" v="yes"/>
    <tag k="source" v="Bing Sat"/>
  </way>
  <way id="90023117" version="3" timestamp="2011-11-24T22:15:34Z" uid="173844" user="Antikalk" changeset="9938272">
    <nd ref="1043468936"/>
    <nd ref="1043468504"/>
    <nd ref="1515975579"/>
    <nd ref="1043469085"/>
    <nd ref="1043468004"/>
    <nd ref="1043468936"/>
    <tag k="addr:city" v="Düsseldorf"/>
    <tag k="addr:country" v="DE"/>
    <tag k="addr:housenumber" v="32"/>
    <tag k="addr:postcode" v="40545"/>
    <tag k="addr:street" v="Sonderburgstraße"/>
    <tag k="building" v="yes"/>
    <tag k="source" v="Bing Sat"/>
  </way>
  <way id="90023117" version="4" timestamp="2011-12-21T21:40:23Z" uid="173844" user="Antikalk" changeset="10175610"/>
  <way id="90023119" version="1" timestamp="2010-12-17T18:38:56Z" uid="151899" user="Bikeman2000" changeset="6689432">
    <nd ref="1043469466"/>
    <nd ref="1043469010"/>
    <nd ref="1043468762"/>
    <nd ref="1043468451"/>
    <nd ref="1043469466"/>
    <tag k="building" v="yes"/>
  </way>
  <way id="90023119" version="2" timestamp="2011-11-19T18:53:01Z" uid="173844" user="Antikalk" changeset="9876029">
    <nd ref="1043469466"/>
    <nd ref="1043469010"/>
    <nd ref="1043468762"/>
    <nd ref="1043468451"/>
    <nd ref="1043469466"/>
    <tag k="building" v="yes"/>
    <tag k="source" v="Bing Sat"/>
  </way>
  <way id="90023119" version="3" timestamp="2011-11-24T22:15:23Z" uid="173844" user="Antikalk" changeset="9938272">
    <nd ref="1043469466"/>
    <nd ref="1043469010"/>
    <nd ref="1043468762"/>
    <nd ref="1515975557"/>
    <nd ref="1043468451"/>
    <nd ref="1043469466"/>
    <tag k="addr:city" v="Düsseldorf"/>
    <tag k="addr:country" v="DE"/>
    <tag k="addr:housenumber" v="18"/>
    <tag k="addr:postcode" v="40545"/>
    <tag k="addr:street" v="Sonderburgstraße"/>
    <tag k="building" v="yes"/>
    <tag k="source" v="Bing Sat"/>
  </way>
  <way id="90023119" version="4" timestamp="2011-12-21T21:40:21Z" uid="173844" user="Antikalk" changeset="10175610"/>
  <way id="90023121" version="1" timestamp="2010-12-17T18:38:57Z" uid="151899" user="Bikeman2000" changeset="6689432">
    <nd ref="1043468692"/>
    <nd ref="1043468293"/>
    <nd ref="1043468924"/>
    <nd ref="1043469106"/>
    <nd ref="1043468692"/>
    <tag k="building" v="yes"/>
  </way>
  <way id="90023121" version="2" timestamp="2011-11-19T18:53:01Z" uid="173844" user="Antikalk" changeset="9876029">
    <nd ref="1043468692"/>
    <nd ref="1043468293"/>
    <nd ref="1043468924"/>
    <nd ref="1043469106"/>
    <nd ref="1043468692"/>
    <tag k="building" v="yes"/>
    <tag k="source" v="Bing Sat"/>
  </way>
  <way id="90023121" version="3" timestamp="2011-11-23T22:48:10Z" uid="173844" user="Antikalk" changeset="9927438">
    <nd ref="1043468692"/>
    <nd ref="1514657406"/>
    <nd ref="1043468293"/>
    <nd ref="1043468924"/>
    <nd ref="1043469106"/>
    <nd ref="1043468692"/>
    <tag k="addr:city" v="Düsseldorf"/>
    <tag k="addr:country" v="DE"/>
    <tag k="addr:housenumber" v="75"/>
    <tag k="addr:postcode" v="40545"/>
    <tag k="addr:street" v="Cheruskerstraße"/>
    <tag k="building" v="yes"/>
    <tag k="source" v="Bing Sat"/>
  </way>
  <way id="90023121" version="4" timestamp="2011-12-21T21:40:27Z" uid="173844" user="Antikalk" changeset="10175610"/>
  <way id="90023126" version="1" timestamp="2010-12-17T18:38:58Z" uid="151899" user="Bikeman2000" changeset="6689432">
    <nd ref="1043468183"/>
    <nd ref="1043468836"/>
    <nd ref="1043468018"/>
    <nd ref="1043468604"/>
    <nd ref="1043468183"/>
    <tag k="building" v="yes"/>
  </way>
  <way id="90023126" version="2" timestamp="2011-11-19T18:53:01Z" uid="173844" user="Antikalk" changeset="9876029">
    <nd ref="1043468183"/>
    <nd ref="1043468836"/>
    <nd ref="1043468018"/>
    <nd ref="1043468604"/>
    <nd ref="1043468183"/>
    <tag k="building" v="yes"/>
    <tag k="source" v="Bing Sat"/>
  </way>
  <way id="90023126" version="3" timestamp="2011-11-23T22:47:15Z" uid="173844" user="Antikalk" changeset="9927438">
    <nd ref="1043468183"/>
    <nd ref="1514657583"/>
    <nd ref="1043468836"/>
    <nd ref="1043468018"/>
    <nd ref="1043468604"/>
    <nd ref="1043468183"/>
    <tag k="addr:city" v="Düsseldorf"/>
    <tag k="addr:country" v="DE"/>
    <tag k="addr:housenumber" v="101"/>
    <tag k="addr:postcode" v="40545"/>
    <tag k="addr:street" v="Cheruskerstraße"/>
    <tag k="building" v="yes"/>
    <tag k="source" v="Bing Sat"/>
  </way>
  <way id="90023126" version="4" timestamp="2011-12-21T21:40:17Z" uid="173844" user="Antikalk" changeset="10175610"/>
  <way id="90023127" version="1" timestamp="2010-12-17T18:38:58Z" uid="151899" user="Bikeman2000" changeset="6689432">
    <nd ref="1043468772"/>
    <nd ref="1043468183"/>
    <nd ref="1043468604"/>
    <nd ref="1043469227"/>
    <nd ref="1043468772"/>
    <tag k="building" v="yes"/>
  </way>
  <way id="90023127" version="2" timestamp="2011-11-19T18:53:01Z" uid="173844" user="Antikalk" changeset="9876029">
    <nd ref="1043468772"/>
    <nd ref="1043468183"/>
    <nd ref="1043468604"/>
    <nd ref="1043469227"/>
    <nd ref="1043468772"/>
    <tag k="building" v="yes"/>
    <tag k="source" v="Bing Sat"/>
  </way>
  <way id="90023127" version="3" timestamp="2011-11-23T22:48:30Z" uid="173844" user="Antikalk" changeset="9927438">
    <nd ref="1043468772"/>
    <nd ref="1514657569"/>
    <nd ref="1043468183"/>
    <nd ref="1043468604"/>
    <nd ref="1043469227"/>
    <nd ref="1043468772"/>
    <tag k="addr:city" v="Düsseldorf"/>
    <tag k="addr:country" v="DE"/>
    <tag k="addr:housenumber" v="99a"/>
    <tag k="addr:postcode" v="40545"/>
    <tag k="addr:street" v="Cheruskerstraße"/>
    <tag k="building" v="yes"/>
    <tag k="source" v="Bing Sat"/>
  </way>
  <way id="90023127" version="4" timestamp="2011-12-21T21:40:31Z" uid="173844" user="Antikalk" changeset="10175610"/>
  <way id="90023130" version="1" timestamp="2010-12-17T18:38:58Z" uid="151899" user="Bikeman2000" changeset="6689432">
    <nd ref="1043469378"/>
    <nd ref="1043469141"/>
    <nd ref="1043468504"/>
    <nd ref="1043468936"/>
    <nd ref="1043469378"/>
    <tag k="building" v="yes"/>
  </way>
  <way id="90023130" version="2" timestamp="2011-11-19T18:53:01Z" uid="173844" user="Antikalk" changeset="9876029">
    <nd ref="1043469378"/>
    <nd ref="1043469141"/>
    <nd ref="1043468504"/>
    <nd ref="1043468936"/>
    <nd ref="1043469378"/>
    <tag k="building" v="yes"/>
    <tag k="source" v="Bing Sat"/>
  </way>
  <way id="90023130" version="3" timestamp="2011-11-24T22:15:34Z" uid="173844" user="Antikalk" changeset="9938272">
    <nd ref="1043469378"/>
    <nd ref="1043469141"/>
    <nd ref="1515975580"/>
    <nd ref="1043468504"/>
    <nd ref="1043468936"/>
    <nd ref="1043469378"/>
    <tag k="addr:city" v="Düsseldorf"/>
    <tag k="addr:country" v="DE"/>
    <tag k="addr:housenumber" v="34"/>
    <tag k="addr:postcode" v="40545"/>
    <tag k="addr:street" v="Sonderburgstraße"/>
    <tag k="building" v="yes"/>
    <tag k="source" v="Bing Sat"/>
  </way>
  <way id="90023130" version="4" timestamp="2011-12-21T21:40:24Z" uid="173844" user="Antikalk" changeset="10175610"/>
  <way id="90023134" version="1" timestamp="2010-12-17T18:38:59Z" uid="151899" user="Bikeman2000" changeset="6689432">
    <nd ref="1043468206"/>
    <nd ref="1043469167"/>
    <nd ref="1043469502"/>
    <nd ref="1043468678"/>
    <nd ref="1043468206"/>
    <tag k="building" v="yes"/>
  </way>
  <way id="90023134" version="2" timestamp="2011-11-19T18:53:02Z" uid="173844" user="Antikalk" changeset="9876029">
    <nd ref="1043468206"/>
    <nd ref="1043469167"/>
    <nd ref="1043469502"/>
    <nd ref="1043468678"/>
    <nd ref="1043468206"/>
    <tag k="building" v="yes"/>
    <tag k="source" v="Bing Sat"/>
  </way>
  <way id="90023134" version="3" timestamp="2011-11-23T22:48:24Z" uid="173844" user="Antikalk" changeset="9927438">
    <nd ref="1043468206"/>
    <nd ref="1514657484"/>
    <nd ref="1043469167"/>
    <nd ref="1043469502"/>
    <nd ref="1043468678"/>
    <nd ref="1043468206"/>
    <tag k="addr:city" v="Düsseldorf"/>
    <tag k="addr:country" v="DE"/>
    <tag k="addr:housenumber" v="89"/>
    <tag k="addr:postcode" v="40545"/>
    <tag k="addr:street" v="Cheruskerstraße"/>
    <tag k="building" v="yes"/>
    <tag k="source" v="Bing Sat"/>
  </way>
  <way id="90023134" version="4" timestamp="2011-12-21T21:40:29Z" uid="173844" user="Antikalk" changeset="10175610"/>
  <way id="90023136" version="1" timestamp="2010-12-17T18:38:59Z" uid="151899" user="Bikeman2000" changeset="6689432">
    <nd ref="1043468851"/>
    <nd ref="1043468397"/>
    <nd ref="1043469443"/>
    <nd ref="1043469378"/>
    <nd ref="1043469141"/>
    <nd ref="1043468013"/>
    <nd ref="1043468851"/>
    <tag k="building" v="yes"/>
  </way>
  <way id="90023136" version="2" timestamp="2011-11-19T18:53:02Z" uid="173844" user="Antikalk" changeset="9876029">
    <nd ref="1043468851"/>
    <nd ref="1043468397"/>
    <nd ref="1043469443"/>
    <nd ref="1043469378"/>
    <nd ref="1043469141"/>
    <nd ref="1043468013"/>
    <nd ref="1043468851"/>
    <tag k="building" v="yes"/>
    <tag k="source" v="Bing Sat"/>
  </way>
  <way id="90023136" version="3" timestamp="2011-11-24T22:15:35Z" uid="173844" user="Antikalk" changeset="9938272">
    <nd ref="1043468851"/>
    <nd ref="1043468397"/>
    <nd ref="1043469443"/>
    <nd ref="1043469378"/>
    <nd ref="1043469141"/>
    <nd ref="1515975581"/>
    <nd ref="1043468013"/>
    <nd ref="1043468851"/>
    <tag k="addr:city" v="Düsseldorf"/>
    <tag k="addr:country" v="DE"/>
    <tag k="addr:housenumber" v="36"/>
    <tag k="addr:postcode" v="40545"/>
    <tag k="addr:street" v="Sonderburgstraße"/>
    <tag k="building" v="yes"/>
    <tag k="source" v="Bing Sat"/>
  </way>
  <way id="90023136" version="4" timestamp="2011-12-21T21:40:24Z" uid="173844" user="Antikalk" changeset="10175610"/>
  <way id="90023140" version="1" timestamp="2010-12-17T18:39:00Z" uid="151899" user="Bikeman2000" changeset="6689432">
    <nd ref="1043468919"/>
    <nd ref="1043468470"/>
    <nd ref="1043468780"/>
    <nd ref="1043468360"/>
    <nd ref="1043468919"/>
    <tag k="building" v="yes"/>
  </way>
  <way id="90023140" version="2" timestamp="2011-11-19T18:53:02Z" uid="173844" user="Antikalk" changeset="9876029">
    <nd ref="1043468919"/>
    <nd ref="1043468470"/>
    <nd ref="1043468780"/>
    <nd ref="1043468360"/>
    <nd ref="1043468919"/>
    <tag k="building" v="yes"/>
    <tag k="source" v="Bing Sat"/>
  </way>
  <way id="90023140" version="3" timestamp="2011-11-24T22:15:41Z" uid="173844" user="Antikalk" changeset="9938272">
    <nd ref="1043468919"/>
    <nd ref="1043468470"/>
    <nd ref="1515975537"/>
    <nd ref="1043468780"/>
    <nd ref="1043468360"/>
    <nd ref="1043468919"/>
    <tag k="addr:city" v="Düsseldorf"/>
    <tag k="addr:country" v="DE"/>
    <tag k="addr:housenumber" v="6"/>
    <tag k="addr:postcode" v="40545"/>
    <tag k="addr:street" v="Sonderburgstraße"/>
    <tag k="building" v="yes"/>
    <tag k="source" v="Bing Sat"/>
  </way>
  <way id="90023140" version="4" timestamp="2011-12-21T21:40:26Z" uid="173844" user="Antikalk" changeset="10175610"/>
  <way id="90023144" version="1" timestamp="2010-12-17T18:39:00Z" uid="151899" user="Bikeman2000" changeset="6689432">
    <nd ref="1043468477"/>
    <nd ref="1043468942"/>
    <nd ref="1043468560"/>
    <nd ref="1043468995"/>
    <nd ref="1043468477"/>
    <tag k="building" v="yes"/>
  </way>
  <way id="90023144" version="2" timestamp="2011-11-19T18:53:02Z" uid="173844" user="Antikalk" changeset="9876029">
    <nd ref="1043468477"/>
    <nd ref="1043468942"/>
    <nd ref="1043468560"/>
    <nd ref="1043468995"/>
    <nd ref="1043468477"/>
    <tag k="building" v="yes"/>
    <tag k="source" v="Bing Sat"/>
  </way>
  <way id="90023144" version="3" timestamp="2011-11-23T22:47:18Z" uid="173844" user="Antikalk" changeset="9927438">
    <nd ref="1043468477"/>
    <nd ref="1514657615"/>
    <nd ref="1043468942"/>
    <nd ref="1043468560"/>
    <nd ref="1043468995"/>
    <nd ref="1043468477"/>
    <tag k="addr:city" v="Düsseldorf"/>
    <tag k="addr:country" v="DE"/>
    <tag k="addr:housenumber" v="105"/>
    <tag k="addr:postcode" v="40545"/>
    <tag k="addr:street" v="Cheruskerstraße"/>
    <tag k="building" v="yes"/>
    <tag k="source" v="Bing Sat"/>
  </way>
  <way id="90023144" version="4" timestamp="2011-12-21T21:40:18Z" uid="173844" user="Antikalk" changeset="10175610"/>
  <way id="90023146" version="1" timestamp="2010-12-17T18:39:00Z" uid="151899" user="Bikeman2000" changeset="6689432">
    <nd ref="1043469066"/>
    <nd ref="1043468025"/>
    <nd ref="1043469297"/>
    <nd ref="1043467991"/>
    <nd ref="1043469066"/>
    <tag k="building" v="yes"/>
  </way>
  <way id="90023146" version="2" timestamp="2011-11-19T18:53:02Z" uid="173844" user="Antikalk" changeset="9876029">
    <nd ref="1043469066"/>
    <nd ref="1043468025"/>
    <nd ref="1043469297"/>
    <nd ref="1043467991"/>
    <nd ref="1043469066"/>
    <tag k="building" v="yes"/>
    <tag k="source" v="Bing Sat"/>
  </way>
  <way id="90023146" version="3" timestamp="2011-11-24T22:15:38Z" uid="173844" user="Antikalk" changeset="9938272">
    <nd ref="1043469066"/>
    <nd ref="1043468025"/>
    <nd ref="1043469297"/>
    <nd ref="1515975591"/>
    <nd ref="1043467991"/>
    <nd ref="1043469066"/>
    <tag k="addr:city" v="Düsseldorf"/>
    <tag k="addr:country" v="DE"/>
    <tag k="addr:housenumber" v="44"/>
    <tag k="addr:postcode" v="40545"/>
    <tag k="addr:street" v="Sonderburgstraße"/>
    <tag k="building" v="yes"/>
    <tag k="source" v="Bing Sat"/>
  </way>
  <way id="90023146" version="4" timestamp="2011-12-21T21:40:25Z" uid="173844" user="Antikalk" changeset="10175610"/>
  <way id="90023148" version="1" timestamp="2010-12-17T18:39:02Z" uid="151899" user="Bikeman2000" changeset="6689432">
    <nd ref="1043468004"/>
    <nd ref="1043469085"/>
    <nd ref="1043468391"/>
    <nd ref="1043468844"/>
    <nd ref="1043468004"/>
    <tag k="building" v="yes"/>
  </way>
  <way id="90023148" version="2" timestamp="2011-11-19T18:53:02Z" uid="173844" user="Antikalk" changeset="9876029">
    <nd ref="1043468004"/>
    <nd ref="1043469085"/>
    <nd ref="1043468391"/>
    <nd ref="1043468844"/>
    <nd ref="1043468004"/>
    <tag k="building" v="yes"/>
    <tag k="source" v="Bing Sat"/>
  </way>
  <way id="90023148" version="3" timestamp="2011-11-24T22:15:33Z" uid="173844" user="Antikalk" changeset="9938272">
    <nd ref="1043468004"/>
    <nd ref="1043469085"/>
    <nd ref="1515975578"/>
    <nd ref="1043468391"/>
    <nd ref="1043468844"/>
    <nd ref="1043468004"/>
    <tag k="addr:city" v="Düsseldorf"/>
    <tag k="addr:country" v="DE"/>
    <tag k="addr:housenumber" v="30"/>
    <tag k="addr:postcode" v="40545"/>
    <tag k="addr:street" v="Sonderburgstraße"/>
    <tag k="building" v="yes"/>
    <tag k="source" v="Bing Sat"/>
  </way>
  <way id="90023148" version="4" timestamp="2011-12-21T21:40:23Z" uid="173844" user="Antikalk" changeset="10175610"/>
  <way id="90023149" version="1" timestamp="2010-12-17T18:39:02Z" uid="151899" user="Bikeman2000" changeset="6689432">
    <nd ref="1043468293"/>
    <nd ref="1043468008"/>
    <nd ref="1043469400"/>
    <nd ref="1043468924"/>
    <nd ref="1043468293"/>
    <tag k="building" v="yes"/>
  </way>
  <way id="90023149" version="2" timestamp="2011-11-19T18:53:03Z" uid="173844" user="Antikalk" changeset="9876029">
    <nd ref="1043468293"/>
    <nd ref="1043468008"/>
    <nd ref="1043469400"/>
    <nd ref="1043468924"/>
    <nd ref="1043468293"/>
    <tag k="building" v="yes"/>
    <tag k="source" v="Bing Sat"/>
  </way>
  <way id="90023149" version="3" timestamp="2011-11-23T22:48:12Z" uid="173844" user="Antikalk" changeset="9927438">
    <nd ref="1043468293"/>
    <nd ref="1514657418"/>
    <nd ref="1043468008"/>
    <nd ref="1043469400"/>
    <nd ref="1043468924"/>
    <nd ref="1043468293"/>
    <tag k="addr:city" v="Düsseldorf"/>
    <tag k="addr:country" v="DE"/>
    <tag k="addr:housenumber" v="77"/>
    <tag k="addr:postcode" v="40545"/>
    <tag k="addr:street" v="Cheruskerstraße"/>
    <tag k="building" v="yes"/>
    <tag k="source" v="Bing Sat"/>
  </way>
  <way id="90023149" version="4" timestamp="2011-12-21T21:40:27Z" uid="173844" user="Antikalk" changeset="10175610"/>
  <way id="90023156" version="1" timestamp="2010-12-17T18:39:03Z" uid="151899" user="Bikeman2000" changeset="6689432">
    <nd ref="1043468572"/>
    <nd ref="1043469254"/>
    <nd ref="1043469455"/>
    <nd ref="1043469182"/>
    <nd ref="1043468309"/>
    <nd ref="1043469385"/>
    <nd ref="1043468522"/>
    <nd ref="1043468812"/>
    <nd ref="1043469450"/>
    <nd ref="1043468599"/>
    <nd ref="1043468572"/>
    <tag k="building" v="yes"/>
  </way>
  <way id="90023156" version="2" timestamp="2011-11-19T18:53:03Z" uid="173844" user="Antikalk" changeset="9876029">
    <nd ref="1043468572"/>
    <nd ref="1043469254"/>
    <nd ref="1043469455"/>
    <nd ref="1043469182"/>
    <nd ref="1043468309"/>
    <nd ref="1043469385"/>
    <nd ref="1043468522"/>
    <nd ref="1043468812"/>
    <nd ref="1043469450"/>
    <nd ref="1043468599"/>
    <nd ref="1043468572"/>
    <tag k="building" v="yes"/>
    <tag k="source" v="Bing Sat"/>
  </way>
  <way id="90023156" version="3" timestamp="2011-11-23T23:01:29Z" uid="173844" user="Antikalk" changeset="9927592">
    <nd ref="1043468572"/>
    <nd ref="1514677100"/>
    <nd ref="1043469254"/>
    <nd ref="1043469455"/>
    <nd ref="1043469182"/>
    <nd ref="1043468309"/>
    <nd ref="1043469385"/>
    <nd ref="1043468522"/>
    <nd ref="1043468812"/>
    <nd ref="1043469450"/>
    <nd ref="1043468599"/>
    <nd ref="1043468572"/>
    <tag k="addr:city" v="Düsseldorf"/>
    <tag k="addr:country" v="DE"/>
    <tag k="addr:housenumber" v="14"/>
    <tag k="addr:postcode" v="40545"/>
    <tag k="addr:street" v="Dominikanerstraße"/>
    <tag k="building" v="yes"/>
    <tag k="source" v="Bing Sat"/>
  </way>
  <way id="90023156" version="4" timestamp="2011-12-21T21:40:20Z" uid="173844" user="Antikalk" changeset="10175610"/>
  <way id="90023158" version="1" timestamp="2010-12-17T18:39:03Z" uid="151899" user="Bikeman2000" changeset="6689432">
    <nd ref="1043469167"/>
    <nd ref="1043469514"/>
    <nd ref="1043468549"/>
    <nd ref="1043469502"/>
    <nd ref="1043469167"/>
    <tag k="building" v="yes"/>
  </way>
  <way id="90023158" version="2" timestamp="2011-11-19T18:53:03Z" uid="173844" user="Antikalk" changeset="9876029">
    <nd ref="1043469167"/>
    <nd ref="1043469514"/>
    <nd ref="1043468549"/>
    <nd ref="1043469502"/>
    <nd ref="1043469167"/>
    <tag k="building" v="yes"/>
    <tag k="source" v="Bing Sat"/>
  </way>
  <way id="90023158" version="3" timestamp="2011-11-23T22:48:25Z" uid="173844" user="Antikalk" changeset="9927438">
    <nd ref="1043469167"/>
    <nd ref="1514657502"/>
    <nd ref="1043469514"/>
    <nd ref="1043468549"/>
    <nd ref="1043469502"/>
    <nd ref="1043469167"/>
    <tag k="addr:city" v="Düsseldorf"/>
    <tag k="addr:country" v="DE"/>
    <tag k="addr:housenumber" v="91"/>
    <tag k="addr:postcode" v="40545"/>
    <tag k="addr:street" v="Cheruskerstraße"/>
    <tag k="building" v="yes"/>
    <tag k="source" v="Bing Sat"/>
  </way>
  <way id="90023158" version="4" timestamp="2011-12-21T21:40:30Z" uid="173844" user="Antikalk" changeset="10175610"/>
  <way id="90023163" version="1" timestamp="2010-12-17T18:39:04Z" uid="151899" user="Bikeman2000" changeset="6689432">
    <nd ref="1043468592"/>
    <nd ref="1043468180"/>
    <nd ref="1043469510"/>
    <nd ref="1043469497"/>
    <nd ref="1043468107"/>
    <nd ref="1043468592"/>
    <tag k="building" v="yes"/>
  </way>
  <way id="90023163" version="2" timestamp="2011-11-19T18:53:04Z" uid="173844" user="Antikalk" changeset="9876029">
    <nd ref="1043468592"/>
    <nd ref="1043468180"/>
    <nd ref="1043469510"/>
    <nd ref="1043469497"/>
    <nd ref="1043468107"/>
    <nd ref="1043468592"/>
    <tag k="building" v="yes"/>
    <tag k="source" v="Bing Sat"/>
  </way>
  <way id="90023163" version="3" timestamp="2011-11-23T22:47:23Z" uid="173844" user="Antikalk" changeset="9927438">
    <nd ref="1043468592"/>
    <nd ref="1043468180"/>
    <nd ref="1043469510"/>
    <nd ref="1043469497"/>
    <nd ref="1043468107"/>
    <nd ref="1514657632"/>
    <nd ref="1043468592"/>
    <tag k="addr:city" v="Düsseldorf"/>
    <tag k="addr:country" v="DE"/>
    <tag k="addr:housenumber" v="113"/>
    <tag k="addr:postcode" v="40545"/>
    <tag k="addr:street" v="Cheruskerstraße"/>
    <tag k="building" v="yes"/>
    <tag k="source" v="Bing Sat"/>
  </way>
  <way id="90023163" version="4" timestamp="2011-12-21T21:40:19Z" uid="173844" user="Antikalk" changeset="10175610"/>
  <way id="90023167" version="1" timestamp="2010-12-17T18:39:04Z" uid="151899" user="Bikeman2000" changeset="6689432">
    <nd ref="1043468177"/>
    <nd ref="1043468851"/>
    <nd ref="1043468013"/>
    <nd ref="1043469017"/>
    <nd ref="1043468164"/>
    <nd ref="1043469172"/>
    <nd ref="1043468177"/>
    <tag k="building" v="yes"/>
  </way>
  <way id="90023167" version="2" timestamp="2011-11-19T18:53:04Z" uid="173844" user="Antikalk" changeset="9876029">
    <nd ref="1043468177"/>
    <nd ref="1043468851"/>
    <nd ref="1043468013"/>
    <nd ref="1043469017"/>
    <nd ref="1043468164"/>
    <nd ref="1043469172"/>
    <nd ref="1043468177"/>
    <tag k="building" v="yes"/>
    <tag k="source" v="Bing Sat"/>
  </way>
  <way id="90023167" version="3" timestamp="2011-11-24T22:15:35Z" uid="173844" user="Antikalk" changeset="9938272">
    <nd ref="1043468177"/>
    <nd ref="1043468851"/>
    <nd ref="1043468013"/>
    <nd ref="1515975582"/>
    <nd ref="1043469017"/>
    <nd ref="1043468164"/>
    <nd ref="1043469172"/>
    <nd ref="1043468177"/>
    <tag k="addr:city" v="Düsseldorf"/>
    <tag k="addr:country" v="DE"/>
    <tag k="addr:housenumber" v="38"/>
    <tag k="addr:postcode" v="40545"/>
    <tag k="addr:street" v="Sonderburgstraße"/>
    <tag k="building" v="yes"/>
    <tag k="source" v="Bing Sat"/>
  </way>
  <way id="90023167" version="4" timestamp="2011-12-21T21:40:24Z" uid="173844" user="Antikalk" changeset="10175610"/>
  <way id="90023169" version="1" timestamp="2010-12-17T18:39:05Z" uid="151899" user="Bikeman2000" changeset="6689432">
    <nd ref="1043469404"/>
    <nd ref="1043468572"/>
    <nd ref="1043468599"/>
    <nd ref="1043469187"/>
    <nd ref="1043468351"/>
    <nd ref="1043468104"/>
    <nd ref="1043468860"/>
    <nd ref="1043469404"/>
    <tag k="building" v="yes"/>
  </way>
  <way id="90023169" version="2" timestamp="2011-11-19T18:53:04Z" uid="173844" user="Antikalk" changeset="9876029">
    <nd ref="1043469404"/>
    <nd ref="1043468572"/>
    <nd ref="1043468599"/>
    <nd ref="1043469187"/>
    <nd ref="1043468351"/>
    <nd ref="1043468104"/>
    <nd ref="1043468860"/>
    <nd ref="1043469404"/>
    <tag k="building" v="yes"/>
    <tag k="source" v="Bing Sat"/>
  </way>
  <way id="90023169" version="3" timestamp="2011-11-23T23:01:30Z" uid="173844" user="Antikalk" changeset="9927592">
    <nd ref="1043469404"/>
    <nd ref="1514677097"/>
    <nd ref="1043468572"/>
    <nd ref="1043468599"/>
    <nd ref="1043469187"/>
    <nd ref="1043468351"/>
    <nd ref="1043468104"/>
    <nd ref="1043468860"/>
    <nd ref="1043469404"/>
    <tag k="addr:city" v="Düsseldorf"/>
    <tag k="addr:country" v="DE"/>
    <tag k="addr:housenumber" v="16"/>
    <tag k="addr:postcode" v="40545"/>
    <tag k="addr:street" v="Dominikanerstraße"/>
    <tag k="building" v="yes"/>
    <tag k="source" v="Bing Sat"/>
  </way>
  <way id="90023169" version="4" timestamp="2011-12-21T21:40:20Z" uid="173844" user="Antikalk" changeset="10175610"/>
  <way id="90023172" version="1" timestamp="2010-12-17T18:39:05Z" uid="151899" user="Bikeman2000" changeset="6689432">
    <nd ref="1043468699"/>
    <nd ref="1043467982"/>
    <nd ref="1043468082"/>
    <nd ref="1043468685"/>
    <nd ref="1043469318"/>
    <nd ref="1043468826"/>
    <nd ref="1043469455"/>
    <nd ref="1043469254"/>
    <nd ref="1043467997"/>
    <nd ref="1043468699"/>
    <tag k="building" v="yes"/>
  </way>
  <way id="90023172" version="2" timestamp="2011-11-19T18:53:04Z" uid="173844" user="Antikalk" changeset="9876029">
    <nd ref="1043468699"/>
    <nd ref="1043467982"/>
    <nd ref="1043468082"/>
    <nd ref="1043468685"/>
    <nd ref="1043469318"/>
    <nd ref="1043468826"/>
    <nd ref="1043469455"/>
    <nd ref="1043469254"/>
    <nd ref="1043467997"/>
    <nd ref="1043468699"/>
    <tag k="building" v="yes"/>
    <tag k="source" v="Bing Sat"/>
  </way>
  <way id="90023172" version="3" timestamp="2011-11-23T22:48:06Z" uid="173844" user="Antikalk" changeset="9927438">
    <nd ref="1043468699"/>
    <nd ref="1514657353"/>
    <nd ref="1043467982"/>
    <nd ref="1043468082"/>
    <nd ref="1043468685"/>
    <nd ref="1043469318"/>
    <nd ref="1043468826"/>
    <nd ref="1043469455"/>
    <nd ref="1043469254"/>
    <nd ref="1043467997"/>
    <nd ref="1043468699"/>
    <tag k="addr:city" v="Düsseldorf"/>
    <tag k="addr:country" v="DE"/>
    <tag k="addr:housenumber" v="69"/>
    <tag k="addr:postcode" v="40545"/>
    <tag k="addr:street" v="Cheruskerstraße"/>
    <tag k="building" v="yes"/>
    <tag k="source" v="Bing Sat"/>
  </way>
  <way id="90023172" version="4" timestamp="2011-12-21T21:40:26Z" uid="173844" user="Antikalk" changeset="10175610"/>
  <way id="90023177" version="1" timestamp="2010-12-17T18:39:06Z" uid="151899" user="Bikeman2000" changeset="6689432">
    <nd ref="1043468025"/>
    <nd ref="1043469098"/>
    <nd ref="1043469326"/>
    <nd ref="1043469297"/>
    <nd ref="1043468025"/>
    <tag k="building" v="yes"/>
  </way>
  <way id="90023177" version="2" timestamp="2011-11-19T18:53:05Z" uid="173844" user="Antikalk" changeset="9876029">
    <nd ref="1043468025"/>
    <nd ref="1043469098"/>
    <nd ref="1043469326"/>
    <nd ref="1043469297"/>
    <nd ref="1043468025"/>
    <tag k="building" v="yes"/>
    <tag k="source" v="Bing Sat"/>
  </way>
  <way id="90023177" version="3" timestamp="2011-11-24T22:15:37Z" uid="173844" user="Antikalk" changeset="9938272">
    <nd ref="1043468025"/>
    <nd ref="1043469098"/>
    <nd ref="1043469326"/>
    <nd ref="1515975589"/>
    <nd ref="1043469297"/>
    <nd ref="1043468025"/>
    <tag k="addr:city" v="Düsseldorf"/>
    <tag k="addr:country" v="DE"/>
    <tag k="addr:housenumber" v="42"/>
    <tag k="addr:postcode" v="40545"/>
    <tag k="addr:street" v="Sonderburgstraße"/>
    <tag k="building" v="yes"/>
    <tag k="source" v="Bing Sat"/>
  </way>
  <way id="90023177" version="4" timestamp="2011-12-21T21:40:25Z" uid="173844" user="Antikalk" changeset="10175610"/>
  <way id="90023179" version="1" timestamp="2010-12-17T18:39:06Z" uid="151899" user="Bikeman2000" changeset="6689432">
    <nd ref="1043469322"/>
    <nd ref="1043468470"/>
    <nd ref="1043468919"/>
    <nd ref="1043468266"/>
    <nd ref="1043469322"/>
    <tag k="building" v="yes"/>
  </way>
  <way id="90023179" version="2" timestamp="2011-11-19T18:53:05Z" uid="173844" user="Antikalk" changeset="9876029">
    <nd ref="1043469322"/>
    <nd ref="1043468470"/>
    <nd ref="1043468919"/>
    <nd ref="1043468266"/>
    <nd ref="1043469322"/>
    <tag k="building" v="yes"/>
    <tag k="source" v="Bing Sat"/>
  </way>
  <way id="90023179" version="3" timestamp="2011-11-24T22:15:14Z" uid="173844" user="Antikalk" changeset="9938272">
    <nd ref="1043469322"/>
    <nd ref="1515975539"/>
    <nd ref="1043468470"/>
    <nd ref="1043468919"/>
    <nd ref="1043468266"/>
    <nd ref="1043469322"/>
    <tag k="addr:city" v="Düsseldorf"/>
    <tag k="addr:country" v="DE"/>
    <tag k="addr:housenumber" v="10"/>
    <tag k="addr:postcode" v="40545"/>
    <tag k="addr:street" v="Sonderburgstraße"/>
    <tag k="building" v="yes"/>
    <tag k="source" v="Bing Sat"/>
  </way>
  <way id="90023179" version="4" timestamp="2011-12-21T21:40:17Z" uid="173844" user="Antikalk" changeset="10175610"/>
</osm>
