<?xml version='1.0' encoding='UTF-8'?>
<osm version="0.6" generator="libosmium/2.20.0">
  <way id="90055869" version="1" timestamp="2010-12-17T21:36:22Z" uid="19626" user="Swamp" changeset="6691078">
    <nd ref="1043794567"/>
    <nd ref="1042616839"/>
    <tag k="highway" v="residential"/>
    <tag k="maxspeed" v="50"/>
    <tag k="name" v="Fernleigh Road"/>
    <tag k="source" v="survey"/>
  </way>
  <way id="90055869" version="2" timestamp="2011-02-27T03:11:30Z" uid="18775" user="drlizau" changeset="7406665">
    <nd ref="1043794567"/>
    <nd ref="1042616839"/>
    <tag k="highway" v="tertiary"/>
    <tag k="maxspeed" v="50"/>
    <tag k="name" v="Fernleigh Road"/>
    <tag k="source" v="survey"/>
  </way>
  <way id="90055869" version="3" timestamp="2011-02-27T09:11:16Z" uid="18775" user="drlizau" changeset="7408057">
    <nd ref="1043794567"/>
    <nd ref="1176766526"/>
    <nd ref="1042616839"/>
    <tag k="highway" v="tertiary"/>
    <tag k="maxspeed" v="50"/>
    <tag k="name" v="Fernleigh Road"/>
    <tag k="source" v="survey"/>
  </way>
  <way id="90055874" version="1" timestamp="2010-12-17T21:36:24Z" uid="19626" user="Swamp" changeset="6691078">
    <nd ref="1043794567"/>
    <nd ref="1043794637"/>
    <nd ref="1043794583"/>
    <nd ref="1043794641"/>
    <nd ref="1043794635"/>
    <nd ref="1043794626"/>
    <nd ref="1043794630"/>
    <nd ref="1043794601"/>
    <nd ref="1043794599"/>
    <nd ref="1043794593"/>
    <nd ref="1043794596"/>
    <nd ref="1043794591"/>
    <nd ref="1043794567"/>
    <tag k="highway" v="residential"/>
    <tag k="junction" v="roundabout"/>
    <tag k="maxspeed" v="50"/>
    <tag k="name" v="Fernleigh Road"/>
    <tag k="source" v="survey"/>
  </way>
  <way id="90055874" version="2" timestamp="2011-02-27T03:11:29Z" uid="18775" user="drlizau" changeset="7406665">
    <nd ref="1043794567"/>
    <nd ref="1043794637"/>
    <nd ref="1043794583"/>
    <nd ref="1043794641"/>
    <nd ref="1043794635"/>
    <nd ref="1043794626"/>
    <nd ref="1043794630"/>
    <nd ref="1043794601"/>
    <nd ref="1043794599"/>
    <nd ref="1043794593"/>
    <nd ref="1043794596"/>
    <nd ref="1043794591"/>
    <nd ref="1043794567"/>
    <tag k="highway" v="tertiary"/>
    <tag k="junction" v="roundabout"/>
    <tag k="maxspeed" v="50"/>
    <tag k="name" v="Fernleigh Road"/>
    <tag k="source" v="survey"/>
  </way>
  <way id="90055879" version="1" timestamp="2010-12-17T21:36:24Z" uid="19626" user="Swamp" changeset="6691078">
    <nd ref="1043794641"/>
    <nd ref="360524609"/>
    <nd ref="263992235"/>
    <nd ref="470229758"/>
    <tag k="highway" v="tertiary"/>
    <tag k="name" v="Pearson Street"/>
  </way>
  <way id="90055879" version="2" timestamp="2011-02-27T03:11:29Z" uid="18775" user="drlizau" changeset="7406665">
    <nd ref="1043794641"/>
    <nd ref="360524609"/>
    <nd ref="1176383955"/>
    <tag k="highway" v="tertiary"/>
    <tag k="maxspeed" v="60"/>
    <tag k="name" v="Pearson Street"/>
  </way>
</osm>
