<?xml version='1.0' encoding='UTF-8'?>
<osm version="0.6" generator="libosmium/2.20.0">
  <way id="90075001" version="1" timestamp="2010-12-17T23:32:29Z" uid="151899" user="Bikeman2000" changeset="6691945">
    <nd ref="1043998701"/>
    <nd ref="1043998777"/>
    <nd ref="1043998810"/>
    <nd ref="1043998760"/>
    <nd ref="1043998701"/>
    <tag k="building" v="yes"/>
  </way>
  <way id="90075001" version="2" timestamp="2011-11-20T12:43:51Z" uid="173844" user="Antikalk" changeset="9883470">
    <nd ref="1043998701"/>
    <nd ref="1043998777"/>
    <nd ref="1043998810"/>
    <nd ref="1043998760"/>
    <nd ref="1043998701"/>
    <tag k="building" v="yes"/>
    <tag k="source" v="Bing Sat"/>
  </way>
  <way id="90075001" version="3" timestamp="2011-11-21T15:37:26Z" uid="173844" user="Antikalk" changeset="9898374">
    <nd ref="1043998701"/>
    <nd ref="1043998777"/>
    <nd ref="1043998810"/>
    <nd ref="1511590416"/>
    <nd ref="1043998760"/>
    <nd ref="1043998701"/>
    <tag k="addr:city" v="Düsseldorf"/>
    <tag k="addr:country" v="DE"/>
    <tag k="addr:housenumber" v="112"/>
    <tag k="addr:postcode" v="40545"/>
    <tag k="addr:street" v="Düsseldorfer Straße"/>
    <tag k="building" v="yes"/>
    <tag k="source" v="Bing Sat"/>
  </way>
  <way id="90075001" version="4" timestamp="2011-12-18T21:38:07Z" uid="173844" user="Antikalk" changeset="10151127"/>
  <way id="90075003" version="1" timestamp="2010-12-17T23:32:29Z" uid="151899" user="Bikeman2000" changeset="6691945">
    <nd ref="1043998889"/>
    <nd ref="1043998806"/>
    <nd ref="1043998700"/>
    <nd ref="1043998959"/>
    <nd ref="1043998896"/>
    <nd ref="1043998889"/>
    <tag k="building" v="yes"/>
  </way>
  <way id="90075003" version="2" timestamp="2011-11-20T12:43:52Z" uid="173844" user="Antikalk" changeset="9883470">
    <nd ref="1043998889"/>
    <nd ref="1043998806"/>
    <nd ref="1043998700"/>
    <nd ref="1043998959"/>
    <nd ref="1043998896"/>
    <nd ref="1043998889"/>
    <tag k="building" v="yes"/>
    <tag k="source" v="Bing Sat"/>
  </way>
  <way id="90075003" version="3" timestamp="2011-11-23T22:47:21Z" uid="173844" user="Antikalk" changeset="9927438">
    <nd ref="1043998889"/>
    <nd ref="1043998806"/>
    <nd ref="1043998700"/>
    <nd ref="1514656961"/>
    <nd ref="1043998959"/>
    <nd ref="1043998896"/>
    <nd ref="1043998889"/>
    <tag k="addr:city" v="Düsseldorf"/>
    <tag k="addr:country" v="DE"/>
    <tag k="addr:housenumber" v="110"/>
    <tag k="addr:postcode" v="40545"/>
    <tag k="addr:street" v="Wildenbruchstraße"/>
    <tag k="building" v="yes"/>
    <tag k="source" v="Bing Sat"/>
  </way>
  <way id="90075003" version="4" timestamp="2011-12-18T21:38:07Z" uid="173844" user="Antikalk" changeset="10151127"/>
  <way id="90075004" version="1" timestamp="2010-12-17T23:32:30Z" uid="151899" user="Bikeman2000" changeset="6691945">
    <nd ref="1043998980"/>
    <nd ref="1043998812"/>
    <nd ref="1043998753"/>
    <nd ref="1043998722"/>
    <nd ref="1043998980"/>
    <tag k="building" v="yes"/>
  </way>
  <way id="90075004" version="2" timestamp="2011-11-20T12:43:52Z" uid="173844" user="Antikalk" changeset="9883470">
    <nd ref="1043998980"/>
    <nd ref="1043998812"/>
    <nd ref="1043998753"/>
    <nd ref="1043998722"/>
    <nd ref="1043998980"/>
    <tag k="building" v="yes"/>
    <tag k="source" v="Bing Sat"/>
  </way>
  <way id="90075004" version="3" timestamp="2011-11-21T15:37:50Z" uid="173844" user="Antikalk" changeset="9898374">
    <nd ref="1043998980"/>
    <nd ref="1043998812"/>
    <nd ref="1043998753"/>
    <nd ref="1511590423"/>
    <nd ref="1043998722"/>
    <nd ref="1043998980"/>
    <tag k="addr:city" v="Düsseldorf"/>
    <tag k="addr:country" v="DE"/>
    <tag k="addr:housenumber" v="3"/>
    <tag k="addr:postcode" v="40545"/>
    <tag k="addr:street" v="Steffenstraße"/>
    <tag k="building" v="yes"/>
    <tag k="source" v="Bing Sat"/>
  </way>
  <way id="90075004" version="4" timestamp="2011-12-18T21:38:12Z" uid="173844" user="Antikalk" changeset="10151127"/>
  <way id="90075006" version="1" timestamp="2010-12-17T23:32:30Z" uid="151899" user="Bikeman2000" changeset="6691945">
    <nd ref="1043998806"/>
    <nd ref="1043998749"/>
    <nd ref="1043998864"/>
    <nd ref="1043998945"/>
    <nd ref="1043998700"/>
    <nd ref="1043998806"/>
    <tag k="building" v="yes"/>
  </way>
  <way id="90075006" version="2" timestamp="2011-11-20T12:43:52Z" uid="173844" user="Antikalk" changeset="9883470">
    <nd ref="1043998806"/>
    <nd ref="1043998749"/>
    <nd ref="1043998864"/>
    <nd ref="1043998945"/>
    <nd ref="1043998700"/>
    <nd ref="1043998806"/>
    <tag k="building" v="yes"/>
    <tag k="source" v="Bing Sat"/>
  </way>
  <way id="90075006" version="3" timestamp="2011-11-23T22:47:22Z" uid="173844" user="Antikalk" changeset="9927438">
    <nd ref="1043998806"/>
    <nd ref="1043998749"/>
    <nd ref="1043998864"/>
    <nd ref="1043998945"/>
    <nd ref="1514656951"/>
    <nd ref="1043998700"/>
    <nd ref="1043998806"/>
    <tag k="addr:city" v="Düsseldorf"/>
    <tag k="addr:country" v="DE"/>
    <tag k="addr:housenumber" v="112"/>
    <tag k="addr:postcode" v="40545"/>
    <tag k="addr:street" v="Wildenbruchstraße"/>
    <tag k="building" v="yes"/>
    <tag k="source" v="Bing Sat"/>
  </way>
  <way id="90075006" version="4" timestamp="2011-12-18T21:38:07Z" uid="173844" user="Antikalk" changeset="10151127"/>
  <way id="90075007" version="1" timestamp="2010-12-17T23:32:30Z" uid="151899" user="Bikeman2000" changeset="6691945">
    <nd ref="1043998823"/>
    <nd ref="1043998957"/>
    <nd ref="1043998784"/>
    <nd ref="1043998861"/>
    <nd ref="1043998823"/>
    <tag k="building" v="yes"/>
  </way>
  <way id="90075007" version="2" timestamp="2011-11-20T12:43:52Z" uid="173844" user="Antikalk" changeset="9883470">
    <nd ref="1043998823"/>
    <nd ref="1043998957"/>
    <nd ref="1043998784"/>
    <nd ref="1043998861"/>
    <nd ref="1043998823"/>
    <tag k="building" v="yes"/>
    <tag k="source" v="Bing Sat"/>
  </way>
  <way id="90075007" version="3" timestamp="2011-11-21T15:37:27Z" uid="173844" user="Antikalk" changeset="9898374">
    <nd ref="1043998823"/>
    <nd ref="1511590447"/>
    <nd ref="1043998957"/>
    <nd ref="1043998784"/>
    <nd ref="1043998861"/>
    <nd ref="1043998823"/>
    <tag k="addr:city" v="Düsseldorf"/>
    <tag k="addr:country" v="DE"/>
    <tag k="addr:housenumber" v="113"/>
    <tag k="addr:postcode" v="40545"/>
    <tag k="addr:street" v="Wildenbruchstraße"/>
    <tag k="building" v="yes"/>
    <tag k="source" v="Bing Sat"/>
  </way>
  <way id="90075007" version="4" timestamp="2011-12-18T21:38:07Z" uid="173844" user="Antikalk" changeset="10151127"/>
  <way id="90075008" version="1" timestamp="2010-12-17T23:32:31Z" uid="151899" user="Bikeman2000" changeset="6691945">
    <nd ref="1043998758"/>
    <nd ref="1043998957"/>
    <nd ref="1043998784"/>
    <nd ref="1043998922"/>
    <nd ref="1043998758"/>
    <tag k="building" v="yes"/>
  </way>
  <way id="90075008" version="2" timestamp="2011-11-20T12:43:53Z" uid="173844" user="Antikalk" changeset="9883470">
    <nd ref="1043998758"/>
    <nd ref="1043998957"/>
    <nd ref="1043998784"/>
    <nd ref="1043998922"/>
    <nd ref="1043998758"/>
    <tag k="building" v="yes"/>
    <tag k="source" v="Bing Sat"/>
  </way>
  <way id="90075008" version="3" timestamp="2011-11-21T15:37:27Z" uid="173844" user="Antikalk" changeset="9898374">
    <nd ref="1043998758"/>
    <nd ref="1511590445"/>
    <nd ref="1043998957"/>
    <nd ref="1043998784"/>
    <nd ref="1043998922"/>
    <nd ref="1043998758"/>
    <tag k="addr:city" v="Düsseldorf"/>
    <tag k="addr:country" v="DE"/>
    <tag k="addr:housenumber" v="115"/>
    <tag k="addr:postcode" v="40545"/>
    <tag k="addr:street" v="Wildenbruchstraße"/>
    <tag k="building" v="yes"/>
    <tag k="source" v="Bing Sat"/>
  </way>
  <way id="90075008" version="4" timestamp="2011-12-18T21:38:08Z" uid="173844" user="Antikalk" changeset="10151127"/>
  <way id="90075009" version="1" timestamp="2010-12-17T23:32:31Z" uid="151899" user="Bikeman2000" changeset="6691945">
    <nd ref="1043998727"/>
    <nd ref="1043998962"/>
    <nd ref="1043998797"/>
    <nd ref="1043998942"/>
    <nd ref="1043998776"/>
    <nd ref="1043998901"/>
    <nd ref="1043998744"/>
    <nd ref="1043998879"/>
    <nd ref="1043998727"/>
    <tag k="building" v="yes"/>
  </way>
  <way id="90075009" version="2" timestamp="2011-11-20T12:43:53Z" uid="173844" user="Antikalk" changeset="9883470">
    <nd ref="1043998727"/>
    <nd ref="1043998962"/>
    <nd ref="1043998797"/>
    <nd ref="1043998942"/>
    <nd ref="1043998776"/>
    <nd ref="1043998901"/>
    <nd ref="1043998744"/>
    <nd ref="1043998879"/>
    <nd ref="1043998727"/>
    <tag k="building" v="yes"/>
    <tag k="source" v="Bing Sat"/>
  </way>
  <way id="90075009" version="3" timestamp="2011-11-21T15:37:31Z" uid="173844" user="Antikalk" changeset="9898374">
    <nd ref="1043998727"/>
    <nd ref="1511590455"/>
    <nd ref="1043998962"/>
    <nd ref="1043998797"/>
    <nd ref="1043998942"/>
    <nd ref="1043998776"/>
    <nd ref="1043998901"/>
    <nd ref="1043998744"/>
    <nd ref="1043998879"/>
    <nd ref="1043998727"/>
    <tag k="addr:city" v="Düsseldorf"/>
    <tag k="addr:country" v="DE"/>
    <tag k="addr:housenumber" v="123"/>
    <tag k="addr:postcode" v="40545"/>
    <tag k="addr:street" v="Wildenbruchstraße"/>
    <tag k="building" v="yes"/>
    <tag k="source" v="Bing Sat"/>
  </way>
  <way id="90075009" version="4" timestamp="2011-12-18T21:38:09Z" uid="173844" user="Antikalk" changeset="10151127"/>
  <way id="90075010" version="1" timestamp="2010-12-17T23:32:32Z" uid="151899" user="Bikeman2000" changeset="6691945">
    <nd ref="1043998821"/>
    <nd ref="1043998844"/>
    <nd ref="1043998910"/>
    <nd ref="1043998852"/>
    <nd ref="1043998983"/>
    <nd ref="1043998993"/>
    <nd ref="1043998821"/>
    <tag k="building" v="yes"/>
  </way>
  <way id="90075010" version="2" timestamp="2011-11-20T12:43:53Z" uid="173844" user="Antikalk" changeset="9883470">
    <nd ref="1043998821"/>
    <nd ref="1043998844"/>
    <nd ref="1043998910"/>
    <nd ref="1043998852"/>
    <nd ref="1043998983"/>
    <nd ref="1043998993"/>
    <nd ref="1043998821"/>
    <tag k="building" v="yes"/>
    <tag k="source" v="Bing Sat"/>
  </way>
  <way id="90075010" version="3" timestamp="2011-11-21T15:37:22Z" uid="173844" user="Antikalk" changeset="9898374">
    <nd ref="1043998821"/>
    <nd ref="1511590453"/>
    <nd ref="1043998844"/>
    <nd ref="1043998910"/>
    <nd ref="1043998852"/>
    <nd ref="1043998983"/>
    <nd ref="1043998993"/>
    <nd ref="1043998821"/>
    <tag k="addr:city" v="Düsseldorf"/>
    <tag k="addr:country" v="DE"/>
    <tag k="addr:housenumber" v="107"/>
    <tag k="addr:postcode" v="40545"/>
    <tag k="addr:street" v="Wildenbruchstraße"/>
    <tag k="building" v="yes"/>
    <tag k="source" v="Bing Sat"/>
  </way>
  <way id="90075010" version="4" timestamp="2011-12-18T21:38:06Z" uid="173844" user="Antikalk" changeset="10151127"/>
  <way id="90075011" version="1" timestamp="2010-12-17T23:32:32Z" uid="151899" user="Bikeman2000" changeset="6691945">
    <nd ref="1043998992"/>
    <nd ref="1043998900"/>
    <nd ref="1043998737"/>
    <nd ref="1043998870"/>
    <nd ref="1043998992"/>
    <tag k="building" v="yes"/>
  </way>
  <way id="90075011" version="2" timestamp="2011-11-20T12:43:53Z" uid="173844" user="Antikalk" changeset="9883470">
    <nd ref="1043998992"/>
    <nd ref="1043998900"/>
    <nd ref="1043998737"/>
    <nd ref="1043998870"/>
    <nd ref="1043998992"/>
    <tag k="building" v="yes"/>
    <tag k="source" v="Bing Sat"/>
  </way>
  <way id="90075011" version="3" timestamp="2011-11-21T15:37:28Z" uid="173844" user="Antikalk" changeset="9898374">
    <nd ref="1043998992"/>
    <nd ref="1043998900"/>
    <nd ref="1043998737"/>
    <nd ref="1511590425"/>
    <nd ref="1043998870"/>
    <nd ref="1043998992"/>
    <tag k="addr:city" v="Düsseldorf"/>
    <tag k="addr:country" v="DE"/>
    <tag k="addr:housenumber" v="116"/>
    <tag k="addr:postcode" v="40545"/>
    <tag k="addr:street" v="Düsseldorfer Straße"/>
    <tag k="building" v="yes"/>
    <tag k="source" v="Bing Sat"/>
  </way>
  <way id="90075011" version="4" timestamp="2011-12-18T21:38:08Z" uid="173844" user="Antikalk" changeset="10151127"/>
  <way id="90075012" version="1" timestamp="2010-12-17T23:32:32Z" uid="151899" user="Bikeman2000" changeset="6691945">
    <nd ref="1043998965"/>
    <nd ref="1043998898"/>
    <nd ref="1043998735"/>
    <nd ref="1043998866"/>
    <nd ref="1043998991"/>
    <nd ref="1043998856"/>
    <nd ref="1043998843"/>
    <nd ref="1043998965"/>
    <tag k="building" v="yes"/>
  </way>
  <way id="90075012" version="2" timestamp="2011-11-20T12:43:54Z" uid="173844" user="Antikalk" changeset="9883470">
    <nd ref="1043998965"/>
    <nd ref="1043998898"/>
    <nd ref="1043998735"/>
    <nd ref="1043998866"/>
    <nd ref="1043998991"/>
    <nd ref="1043998856"/>
    <nd ref="1043998843"/>
    <nd ref="1043998965"/>
    <tag k="building" v="yes"/>
    <tag k="source" v="Bing Sat"/>
  </way>
  <way id="90075012" version="3" timestamp="2011-11-21T19:01:54Z" uid="173844" user="Antikalk" changeset="9900390">
    <nd ref="1043998965"/>
    <nd ref="1043998898"/>
    <nd ref="1043998735"/>
    <nd ref="1043998866"/>
    <nd ref="1043998991"/>
    <nd ref="1043998856"/>
    <nd ref="1511815005"/>
    <nd ref="1043998843"/>
    <nd ref="1043998965"/>
    <tag k="addr:city" v="Düsseldorf"/>
    <tag k="addr:country" v="DE"/>
    <tag k="addr:housenumber" v="21"/>
    <tag k="addr:postcode" v="40545"/>
    <tag k="addr:street" v="Steffenstraße"/>
    <tag k="building" v="yes"/>
    <tag k="source" v="Bing Sat"/>
  </way>
  <way id="90075012" version="4" timestamp="2011-12-18T21:38:11Z" uid="173844" user="Antikalk" changeset="10151127"/>
  <way id="90075013" version="1" timestamp="2010-12-17T23:32:33Z" uid="151899" user="Bikeman2000" changeset="6691945">
    <nd ref="1043998786"/>
    <nd ref="1043998712"/>
    <nd ref="1043998979"/>
    <nd ref="1043998779"/>
    <nd ref="1043989877"/>
    <nd ref="1043989685"/>
    <nd ref="1043998829"/>
    <nd ref="1043998960"/>
    <nd ref="1043998786"/>
    <tag k="building" v="yes"/>
  </way>
  <way id="90075013" version="2" timestamp="2011-11-20T12:43:54Z" uid="173844" user="Antikalk" changeset="9883470">
    <nd ref="1043998786"/>
    <nd ref="1043998712"/>
    <nd ref="1043998979"/>
    <nd ref="1043998779"/>
    <nd ref="1043989877"/>
    <nd ref="1043989685"/>
    <nd ref="1043998829"/>
    <nd ref="1043998960"/>
    <nd ref="1043998786"/>
    <tag k="building" v="yes"/>
    <tag k="source" v="Bing Sat"/>
  </way>
  <way id="90075013" version="3" timestamp="2011-11-21T19:01:55Z" uid="173844" user="Antikalk" changeset="9900390">
    <nd ref="1043998786"/>
    <nd ref="1043998712"/>
    <nd ref="1043998979"/>
    <nd ref="1043998779"/>
    <nd ref="1511815013"/>
    <nd ref="1043989877"/>
    <nd ref="1043989685"/>
    <nd ref="1043998829"/>
    <nd ref="1043998960"/>
    <nd ref="1043998786"/>
    <tag k="addr:city" v="Düsseldorf"/>
    <tag k="addr:country" v="DE"/>
    <tag k="addr:housenumber" v="25"/>
    <tag k="addr:postcode" v="40545"/>
    <tag k="addr:street" v="Steffenstraße"/>
    <tag k="building" v="yes"/>
    <tag k="source" v="Bing Sat"/>
  </way>
  <way id="90075013" version="4" timestamp="2011-12-18T21:38:12Z" uid="173844" user="Antikalk" changeset="10151127"/>
  <way id="90075015" version="1" timestamp="2010-12-17T23:32:33Z" uid="151899" user="Bikeman2000" changeset="6691945">
    <nd ref="1043998755"/>
    <nd ref="1043998978"/>
    <nd ref="1043998879"/>
    <nd ref="1043998727"/>
    <nd ref="1043998755"/>
    <tag k="building" v="yes"/>
  </way>
  <way id="90075015" version="2" timestamp="2011-11-20T12:43:55Z" uid="173844" user="Antikalk" changeset="9883470">
    <nd ref="1043998755"/>
    <nd ref="1043998978"/>
    <nd ref="1043998879"/>
    <nd ref="1043998727"/>
    <nd ref="1043998755"/>
    <tag k="building" v="yes"/>
    <tag k="source" v="Bing Sat"/>
  </way>
  <way id="90075015" version="3" timestamp="2011-11-21T15:37:30Z" uid="173844" user="Antikalk" changeset="9898374">
    <nd ref="1043998755"/>
    <nd ref="1043998978"/>
    <nd ref="1043998879"/>
    <nd ref="1043998727"/>
    <nd ref="1511590448"/>
    <nd ref="1043998755"/>
    <tag k="addr:city" v="Düsseldorf"/>
    <tag k="addr:country" v="DE"/>
    <tag k="addr:housenumber" v="121"/>
    <tag k="addr:postcode" v="40545"/>
    <tag k="addr:street" v="Wildenbruchstraße"/>
    <tag k="building" v="yes"/>
    <tag k="source" v="Bing Sat"/>
  </way>
  <way id="90075015" version="4" timestamp="2011-12-18T21:38:09Z" uid="173844" user="Antikalk" changeset="10151127"/>
  <way id="90075016" version="1" timestamp="2010-12-17T23:32:34Z" uid="151899" user="Bikeman2000" changeset="6691945">
    <nd ref="1043998925"/>
    <nd ref="1043998826"/>
    <nd ref="1043998959"/>
    <nd ref="1043998896"/>
    <nd ref="1043998940"/>
    <nd ref="1043998801"/>
    <nd ref="1043998925"/>
    <tag k="building" v="yes"/>
  </way>
  <way id="90075016" version="2" timestamp="2011-11-20T12:43:55Z" uid="173844" user="Antikalk" changeset="9883470">
    <nd ref="1043998925"/>
    <nd ref="1043998826"/>
    <nd ref="1043998959"/>
    <nd ref="1043998896"/>
    <nd ref="1043998940"/>
    <nd ref="1043998801"/>
    <nd ref="1043998925"/>
    <tag k="building" v="yes"/>
    <tag k="source" v="Bing Sat"/>
  </way>
  <way id="90075016" version="3" timestamp="2011-11-23T22:47:20Z" uid="173844" user="Antikalk" changeset="9927438">
    <nd ref="1043998925"/>
    <nd ref="1514656924"/>
    <nd ref="1043998826"/>
    <nd ref="1043998959"/>
    <nd ref="1043998896"/>
    <nd ref="1043998940"/>
    <nd ref="1043998801"/>
    <nd ref="1043998925"/>
    <tag k="addr:city" v="Düsseldorf"/>
    <tag k="addr:country" v="DE"/>
    <tag k="addr:housenumber" v="108"/>
    <tag k="addr:postcode" v="40545"/>
    <tag k="addr:street" v="Wildenbruchstraße"/>
    <tag k="building" v="yes"/>
    <tag k="source" v="Bing Sat"/>
  </way>
  <way id="90075016" version="4" timestamp="2011-12-18T21:38:06Z" uid="173844" user="Antikalk" changeset="10151127"/>
  <way id="90075017" version="1" timestamp="2010-12-17T23:32:34Z" uid="151899" user="Bikeman2000" changeset="6691945">
    <nd ref="1043998716"/>
    <nd ref="1043998701"/>
    <nd ref="1043998760"/>
    <nd ref="1043998788"/>
    <nd ref="1043998716"/>
    <tag k="building" v="yes"/>
  </way>
  <way id="90075017" version="2" timestamp="2011-11-20T12:43:55Z" uid="173844" user="Antikalk" changeset="9883470">
    <nd ref="1043998716"/>
    <nd ref="1043998701"/>
    <nd ref="1043998760"/>
    <nd ref="1043998788"/>
    <nd ref="1043998716"/>
    <tag k="building" v="yes"/>
    <tag k="source" v="Bing Sat"/>
  </way>
  <way id="90075017" version="3" timestamp="2011-11-21T15:37:24Z" uid="173844" user="Antikalk" changeset="9898374">
    <nd ref="1043998716"/>
    <nd ref="1043998701"/>
    <nd ref="1043998760"/>
    <nd ref="1511590414"/>
    <nd ref="1043998788"/>
    <nd ref="1043998716"/>
    <tag k="addr:city" v="Düsseldorf"/>
    <tag k="addr:country" v="DE"/>
    <tag k="addr:housenumber" v="110"/>
    <tag k="addr:postcode" v="40545"/>
    <tag k="addr:street" v="Düsseldorfer Straße"/>
    <tag k="building" v="yes"/>
    <tag k="source" v="Bing Sat"/>
  </way>
  <way id="90075017" version="4" timestamp="2011-12-18T21:38:07Z" uid="173844" user="Antikalk" changeset="10151127"/>
  <way id="90075018" version="1" timestamp="2010-12-17T23:32:34Z" uid="151899" user="Bikeman2000" changeset="6691945">
    <nd ref="1043998777"/>
    <nd ref="1043998900"/>
    <nd ref="1043998737"/>
    <nd ref="1043998810"/>
    <nd ref="1043998777"/>
    <tag k="building" v="yes"/>
  </way>
  <way id="90075018" version="2" timestamp="2011-11-20T12:43:55Z" uid="173844" user="Antikalk" changeset="9883470">
    <nd ref="1043998777"/>
    <nd ref="1043998900"/>
    <nd ref="1043998737"/>
    <nd ref="1043998810"/>
    <nd ref="1043998777"/>
    <tag k="building" v="yes"/>
    <tag k="source" v="Bing Sat"/>
  </way>
  <way id="90075018" version="3" timestamp="2011-11-21T15:37:27Z" uid="173844" user="Antikalk" changeset="9898374">
    <nd ref="1043998777"/>
    <nd ref="1043998900"/>
    <nd ref="1043998737"/>
    <nd ref="1511590420"/>
    <nd ref="1043998810"/>
    <nd ref="1043998777"/>
    <tag k="addr:city" v="Düsseldorf"/>
    <tag k="addr:country" v="DE"/>
    <tag k="addr:housenumber" v="114"/>
    <tag k="addr:postcode" v="40545"/>
    <tag k="addr:street" v="Düsseldorfer Straße"/>
    <tag k="building" v="yes"/>
    <tag k="source" v="Bing Sat"/>
  </way>
  <way id="90075018" version="4" timestamp="2011-12-18T21:38:07Z" uid="173844" user="Antikalk" changeset="10151127"/>
  <way id="90075019" version="1" timestamp="2010-12-17T23:32:35Z" uid="151899" user="Bikeman2000" changeset="6691945">
    <nd ref="1043998984"/>
    <nd ref="1043998935"/>
    <nd ref="1043998768"/>
    <nd ref="1043998897"/>
    <nd ref="1043998980"/>
    <nd ref="1043998722"/>
    <nd ref="1043998863"/>
    <nd ref="1043998984"/>
    <tag k="building" v="yes"/>
  </way>
  <way id="90075019" version="2" timestamp="2011-11-20T12:43:56Z" uid="173844" user="Antikalk" changeset="9883470">
    <nd ref="1043998984"/>
    <nd ref="1043998935"/>
    <nd ref="1043998768"/>
    <nd ref="1043998897"/>
    <nd ref="1043998980"/>
    <nd ref="1043998722"/>
    <nd ref="1043998863"/>
    <nd ref="1043998984"/>
    <tag k="building" v="yes"/>
    <tag k="source" v="Bing Sat"/>
  </way>
  <way id="90075019" version="3" timestamp="2011-11-21T15:37:18Z" uid="173844" user="Antikalk" changeset="9898374">
    <nd ref="1043998984"/>
    <nd ref="1043998935"/>
    <nd ref="1043998768"/>
    <nd ref="1043998897"/>
    <nd ref="1043998980"/>
    <nd ref="1043998722"/>
    <nd ref="1511590411"/>
    <nd ref="1043998863"/>
    <nd ref="1043998984"/>
    <tag k="addr:city" v="Düsseldorf"/>
    <tag k="addr:country" v="DE"/>
    <tag k="addr:housenumber" v="1"/>
    <tag k="addr:postcode" v="40545"/>
    <tag k="addr:street" v="Steffenstraße"/>
    <tag k="building" v="yes"/>
    <tag k="source" v="Bing Sat"/>
  </way>
  <way id="90075019" version="4" timestamp="2011-12-18T21:38:05Z" uid="173844" user="Antikalk" changeset="10151127"/>
  <way id="90075020" version="1" timestamp="2010-12-17T23:32:35Z" uid="151899" user="Bikeman2000" changeset="6691945">
    <nd ref="1043998770"/>
    <nd ref="1043998823"/>
    <nd ref="1043998861"/>
    <nd ref="1043998799"/>
    <nd ref="1043998950"/>
    <nd ref="1043998770"/>
    <tag k="building" v="yes"/>
  </way>
  <way id="90075020" version="2" timestamp="2011-11-20T12:43:56Z" uid="173844" user="Antikalk" changeset="9883470">
    <nd ref="1043998770"/>
    <nd ref="1043998823"/>
    <nd ref="1043998861"/>
    <nd ref="1043998799"/>
    <nd ref="1043998950"/>
    <nd ref="1043998770"/>
    <tag k="building" v="yes"/>
    <tag k="source" v="Bing Sat"/>
  </way>
  <way id="90075020" version="3" timestamp="2011-11-21T15:37:25Z" uid="173844" user="Antikalk" changeset="9898374">
    <nd ref="1043998770"/>
    <nd ref="1511590450"/>
    <nd ref="1043998823"/>
    <nd ref="1043998861"/>
    <nd ref="1043998799"/>
    <nd ref="1043998950"/>
    <nd ref="1043998770"/>
    <tag k="addr:city" v="Düsseldorf"/>
    <tag k="addr:country" v="DE"/>
    <tag k="addr:housenumber" v="111"/>
    <tag k="addr:postcode" v="40545"/>
    <tag k="addr:street" v="Wildenbruchstraße"/>
    <tag k="building" v="yes"/>
    <tag k="source" v="Bing Sat"/>
  </way>
  <way id="90075020" version="4" timestamp="2011-12-18T21:38:07Z" uid="173844" user="Antikalk" changeset="10151127"/>
  <way id="90075021" version="1" timestamp="2010-12-17T23:32:35Z" uid="151899" user="Bikeman2000" changeset="6691945">
    <nd ref="1043998708"/>
    <nd ref="1043998915"/>
    <nd ref="1043998833"/>
    <nd ref="1043998893"/>
    <nd ref="1043998724"/>
    <nd ref="1043998856"/>
    <nd ref="1043998991"/>
    <nd ref="1043998708"/>
    <tag k="building" v="yes"/>
  </way>
  <way id="90075021" version="2" timestamp="2011-11-20T12:43:56Z" uid="173844" user="Antikalk" changeset="9883470">
    <nd ref="1043998708"/>
    <nd ref="1043998915"/>
    <nd ref="1043998833"/>
    <nd ref="1043998893"/>
    <nd ref="1043998724"/>
    <nd ref="1043998856"/>
    <nd ref="1043998991"/>
    <nd ref="1043998708"/>
    <tag k="building" v="yes"/>
    <tag k="source" v="Bing Sat"/>
  </way>
  <way id="90075021" version="3" timestamp="2011-11-23T23:03:39Z" uid="173844" user="Antikalk" changeset="9927610">
    <nd ref="1043998708"/>
    <nd ref="1043998915"/>
    <nd ref="1043998833"/>
    <nd ref="1043998893"/>
    <nd ref="1514683405"/>
    <nd ref="1043998724"/>
    <nd ref="1043998856"/>
    <nd ref="1043998991"/>
    <nd ref="1043998708"/>
    <tag k="addr:city" v="Düsseldorf"/>
    <tag k="addr:country" v="DE"/>
    <tag k="addr:housenumber" v="19"/>
    <tag k="addr:postcode" v="40545"/>
    <tag k="addr:street" v="Steffenstraße"/>
    <tag k="building" v="yes"/>
    <tag k="source" v="Bing Sat"/>
  </way>
  <way id="90075021" version="4" timestamp="2011-12-18T21:38:10Z" uid="173844" user="Antikalk" changeset="10151127"/>
  <way id="90075022" version="1" timestamp="2010-12-17T23:32:35Z" uid="151899" user="Bikeman2000" changeset="6691945">
    <nd ref="1043998851"/>
    <nd ref="1043998782"/>
    <nd ref="1043998913"/>
    <nd ref="1043998762"/>
    <nd ref="1043998851"/>
    <tag k="building" v="yes"/>
  </way>
  <way id="90075022" version="2" timestamp="2011-11-20T12:43:56Z" uid="173844" user="Antikalk" changeset="9883470">
    <nd ref="1043998851"/>
    <nd ref="1043998782"/>
    <nd ref="1043998913"/>
    <nd ref="1043998762"/>
    <nd ref="1043998851"/>
    <tag k="building" v="yes"/>
    <tag k="source" v="Bing Sat"/>
  </way>
  <way id="90075022" version="3" timestamp="2011-11-23T22:47:24Z" uid="173844" user="Antikalk" changeset="9927438">
    <nd ref="1043998851"/>
    <nd ref="1043998782"/>
    <nd ref="1043998913"/>
    <nd ref="1514656907"/>
    <nd ref="1043998762"/>
    <nd ref="1043998851"/>
    <tag k="addr:city" v="Düsseldorf"/>
    <tag k="addr:country" v="DE"/>
    <tag k="addr:housenumber" v="118"/>
    <tag k="addr:postcode" v="40545"/>
    <tag k="addr:street" v="Wildenbruchstraße"/>
    <tag k="building" v="yes"/>
    <tag k="source" v="Bing Sat"/>
  </way>
  <way id="90075022" version="4" timestamp="2011-12-18T21:38:08Z" uid="173844" user="Antikalk" changeset="10151127"/>
  <way id="90075023" version="1" timestamp="2010-12-17T23:32:35Z" uid="151899" user="Bikeman2000" changeset="6691945">
    <nd ref="1043998933"/>
    <nd ref="1043998853"/>
    <tag k="access" v="private"/>
    <tag k="highway" v="service"/>
  </way>
  <way id="90075023" version="2" timestamp="2011-12-18T21:38:14Z" uid="173844" user="Antikalk" changeset="10151127"/>
  <way id="90075674" version="1" timestamp="2010-12-17T23:40:23Z" uid="151899" user="Bikeman2000" changeset="6691996">
    <nd ref="1044008949"/>
    <nd ref="1044008963"/>
    <nd ref="1044008916"/>
    <nd ref="1044008905"/>
    <nd ref="1044008931"/>
    <nd ref="1044008957"/>
    <nd ref="1044008872"/>
    <nd ref="1044008949"/>
    <tag k="building" v="yes"/>
  </way>
  <way id="90075674" version="2" timestamp="2011-11-21T05:20:42Z" uid="173844" user="Antikalk" changeset="9893133">
    <nd ref="1044008949"/>
    <nd ref="1044008963"/>
    <nd ref="1044008916"/>
    <nd ref="1044008905"/>
    <nd ref="1044008931"/>
    <nd ref="1044008957"/>
    <nd ref="1044008872"/>
    <nd ref="1044008949"/>
    <tag k="building" v="yes"/>
    <tag k="source" v="Bing Sat"/>
  </way>
  <way id="90075674" version="3" timestamp="2011-11-21T15:37:32Z" uid="173844" user="Antikalk" changeset="9898374">
    <nd ref="1044008949"/>
    <nd ref="1511590422"/>
    <nd ref="1044008963"/>
    <nd ref="1044008916"/>
    <nd ref="1044008905"/>
    <nd ref="1044008931"/>
    <nd ref="1044008957"/>
    <nd ref="1044008872"/>
    <nd ref="1044008949"/>
    <tag k="addr:city" v="Düsseldorf"/>
    <tag k="addr:country" v="DE"/>
    <tag k="addr:housenumber" v="127"/>
    <tag k="addr:postcode" v="40545"/>
    <tag k="addr:street" v="Düsseldorfer Straße"/>
    <tag k="building" v="yes"/>
    <tag k="source" v="Bing Sat"/>
  </way>
  <way id="90075674" version="4" timestamp="2011-12-22T15:57:28Z" uid="173844" user="Antikalk" changeset="10180743"/>
  <way id="90075675" version="1" timestamp="2010-12-17T23:40:23Z" uid="151899" user="Bikeman2000" changeset="6691996">
    <nd ref="1044008920"/>
    <nd ref="1044008894"/>
    <nd ref="1044008902"/>
    <nd ref="1044008939"/>
    <nd ref="1044008942"/>
    <nd ref="1044008920"/>
    <tag k="building" v="yes"/>
  </way>
  <way id="90075675" version="2" timestamp="2011-11-21T05:20:43Z" uid="173844" user="Antikalk" changeset="9893133">
    <nd ref="1044008920"/>
    <nd ref="1044008894"/>
    <nd ref="1044008902"/>
    <nd ref="1044008939"/>
    <nd ref="1044008942"/>
    <nd ref="1044008920"/>
    <tag k="building" v="yes"/>
    <tag k="source" v="Bing Sat"/>
  </way>
  <way id="90075675" version="3" timestamp="2011-11-21T15:37:26Z" uid="173844" user="Antikalk" changeset="9898374">
    <nd ref="1044008920"/>
    <nd ref="1044008894"/>
    <nd ref="1044008902"/>
    <nd ref="1044008939"/>
    <nd ref="1044008942"/>
    <nd ref="1511590402"/>
    <nd ref="1044008920"/>
    <tag k="addr:city" v="Düsseldorf"/>
    <tag k="addr:country" v="DE"/>
    <tag k="addr:housenumber" v="113"/>
    <tag k="addr:postcode" v="40545"/>
    <tag k="addr:street" v="Düsseldorfer Straße"/>
    <tag k="building" v="yes"/>
    <tag k="source" v="Bing Sat"/>
  </way>
  <way id="90075675" version="4" timestamp="2011-12-22T15:57:26Z" uid="173844" user="Antikalk" changeset="10180743"/>
  <way id="90075676" version="1" timestamp="2010-12-17T23:40:23Z" uid="151899" user="Bikeman2000" changeset="6691996">
    <nd ref="1044008900"/>
    <nd ref="1044008949"/>
    <nd ref="1044008872"/>
    <nd ref="1044008972"/>
    <nd ref="1044008884"/>
    <nd ref="1044008900"/>
    <tag k="building" v="yes"/>
  </way>
  <way id="90075676" version="2" timestamp="2011-11-21T05:20:43Z" uid="173844" user="Antikalk" changeset="9893133">
    <nd ref="1044008900"/>
    <nd ref="1044008949"/>
    <nd ref="1044008872"/>
    <nd ref="1044008972"/>
    <nd ref="1044008884"/>
    <nd ref="1044008900"/>
    <tag k="building" v="yes"/>
    <tag k="source" v="Bing Sat"/>
  </way>
  <way id="90075676" version="3" timestamp="2011-11-21T15:37:33Z" uid="173844" user="Antikalk" changeset="9898374">
    <nd ref="1044008900"/>
    <nd ref="1511590426"/>
    <nd ref="1044008949"/>
    <nd ref="1044008872"/>
    <nd ref="1044008972"/>
    <nd ref="1044008884"/>
    <nd ref="1044008900"/>
    <tag k="addr:city" v="Düsseldorf"/>
    <tag k="addr:country" v="DE"/>
    <tag k="addr:housenumber" v="129"/>
    <tag k="addr:postcode" v="40545"/>
    <tag k="addr:street" v="Düsseldorfer Straße"/>
    <tag k="building" v="yes"/>
    <tag k="source" v="Bing Sat"/>
  </way>
  <way id="90075676" version="4" timestamp="2011-12-22T15:57:29Z" uid="173844" user="Antikalk" changeset="10180743"/>
  <way id="90075677" version="1" timestamp="2010-12-17T23:40:23Z" uid="151899" user="Bikeman2000" changeset="6691996">
    <nd ref="1044008926"/>
    <nd ref="1044008935"/>
    <nd ref="1044008943"/>
    <nd ref="1044008933"/>
    <nd ref="1044008926"/>
    <tag k="building" v="yes"/>
  </way>
  <way id="90075677" version="2" timestamp="2011-11-21T05:20:43Z" uid="173844" user="Antikalk" changeset="9893133">
    <nd ref="1044008926"/>
    <nd ref="1044008935"/>
    <nd ref="1044008943"/>
    <nd ref="1044008933"/>
    <nd ref="1044008926"/>
    <tag k="building" v="yes"/>
    <tag k="source" v="Bing Sat"/>
  </way>
  <way id="90075677" version="3" timestamp="2011-11-21T15:37:39Z" uid="173844" user="Antikalk" changeset="9898374">
    <nd ref="1044008926"/>
    <nd ref="1511590459"/>
    <nd ref="1044008935"/>
    <nd ref="1044008943"/>
    <nd ref="1044008933"/>
    <nd ref="1044008926"/>
    <tag k="addr:city" v="Düsseldorf"/>
    <tag k="addr:country" v="DE"/>
    <tag k="addr:housenumber" v="145"/>
    <tag k="addr:postcode" v="40545"/>
    <tag k="addr:street" v="Düsseldorfer Straße"/>
    <tag k="building" v="yes"/>
    <tag k="source" v="Bing Sat"/>
  </way>
  <way id="90075677" version="4" timestamp="2011-12-22T15:57:32Z" uid="173844" user="Antikalk" changeset="10180743"/>
  <way id="90075678" version="1" timestamp="2010-12-17T23:40:23Z" uid="151899" user="Bikeman2000" changeset="6691996">
    <nd ref="1044008918"/>
    <nd ref="1044008904"/>
    <nd ref="1044008887"/>
    <nd ref="1044008876"/>
    <nd ref="1044008899"/>
    <nd ref="1044008927"/>
    <nd ref="1044008952"/>
    <nd ref="1044008980"/>
    <nd ref="1044008918"/>
    <tag k="building" v="yes"/>
  </way>
  <way id="90075678" version="2" timestamp="2011-11-21T05:20:43Z" uid="173844" user="Antikalk" changeset="9893133">
    <nd ref="1044008918"/>
    <nd ref="1044008904"/>
    <nd ref="1044008887"/>
    <nd ref="1044008876"/>
    <nd ref="1044008899"/>
    <nd ref="1044008927"/>
    <nd ref="1044008952"/>
    <nd ref="1044008980"/>
    <nd ref="1044008918"/>
    <tag k="building" v="yes"/>
    <tag k="source" v="Bing Sat"/>
  </way>
  <way id="90075678" version="3" timestamp="2011-11-21T15:37:35Z" uid="173844" user="Antikalk" changeset="9898374">
    <nd ref="1511590424"/>
    <nd ref="1044008927"/>
    <nd ref="1044008952"/>
    <nd ref="1044008980"/>
    <nd ref="1044008918"/>
    <nd ref="1511590435"/>
    <nd ref="1511590434"/>
    <nd ref="1511590424"/>
    <tag k="addr:city" v="Düsseldorf"/>
    <tag k="addr:country" v="DE"/>
    <tag k="addr:housenumber" v="133a"/>
    <tag k="addr:postcode" v="40545"/>
    <tag k="addr:street" v="Düsseldorfer Straße"/>
    <tag k="building" v="yes"/>
    <tag k="source" v="Bing Sat"/>
  </way>
  <way id="90075678" version="4" timestamp="2011-12-22T15:57:30Z" uid="173844" user="Antikalk" changeset="10180743"/>
  <way id="90075679" version="1" timestamp="2010-12-17T23:40:23Z" uid="151899" user="Bikeman2000" changeset="6691996">
    <nd ref="1044008879"/>
    <nd ref="1044008919"/>
    <nd ref="1044008944"/>
    <nd ref="1044008974"/>
    <nd ref="1044008910"/>
    <nd ref="1044008895"/>
    <nd ref="1044008908"/>
    <nd ref="1044008934"/>
    <nd ref="1044008962"/>
    <nd ref="1044008874"/>
    <nd ref="1044008948"/>
    <nd ref="1044008879"/>
    <tag k="building" v="yes"/>
  </way>
  <way id="90075679" version="2" timestamp="2011-11-21T05:20:44Z" uid="173844" user="Antikalk" changeset="9893133">
    <nd ref="1044008879"/>
    <nd ref="1044008919"/>
    <nd ref="1044008944"/>
    <nd ref="1044008974"/>
    <nd ref="1044008910"/>
    <nd ref="1044008895"/>
    <nd ref="1044008908"/>
    <nd ref="1044008934"/>
    <nd ref="1044008962"/>
    <nd ref="1044008874"/>
    <nd ref="1044008948"/>
    <nd ref="1044008879"/>
    <tag k="building" v="yes"/>
    <tag k="source" v="Bing Sat"/>
  </way>
  <way id="90075679" version="3" timestamp="2011-11-21T15:37:21Z" uid="173844" user="Antikalk" changeset="9898374">
    <nd ref="1044008879"/>
    <nd ref="1511590395"/>
    <nd ref="1044008919"/>
    <nd ref="1044008944"/>
    <nd ref="1044008974"/>
    <nd ref="1044008910"/>
    <nd ref="1044008895"/>
    <nd ref="1044008908"/>
    <nd ref="1044008934"/>
    <nd ref="1044008962"/>
    <nd ref="1044008874"/>
    <nd ref="1044008948"/>
    <nd ref="1044008879"/>
    <tag k="addr:city" v="Düsseldorf"/>
    <tag k="addr:country" v="DE"/>
    <tag k="addr:housenumber" v="105"/>
    <tag k="addr:postcode" v="40545"/>
    <tag k="addr:street" v="Düsseldorfer Straße"/>
    <tag k="building" v="yes"/>
    <tag k="source" v="Bing Sat"/>
  </way>
  <way id="90075679" version="4" timestamp="2011-12-22T15:57:25Z" uid="173844" user="Antikalk" changeset="10180743"/>
  <way id="90075680" version="1" timestamp="2010-12-17T23:40:24Z" uid="151899" user="Bikeman2000" changeset="6691996">
    <nd ref="1044008960"/>
    <nd ref="1044008889"/>
    <nd ref="1044008911"/>
    <nd ref="1044008938"/>
    <nd ref="1044008969"/>
    <nd ref="1044008903"/>
    <nd ref="1044008960"/>
    <tag k="building" v="yes"/>
  </way>
  <way id="90075680" version="2" timestamp="2011-11-21T05:20:44Z" uid="173844" user="Antikalk" changeset="9893133">
    <nd ref="1044008960"/>
    <nd ref="1044008889"/>
    <nd ref="1044008911"/>
    <nd ref="1044008938"/>
    <nd ref="1044008969"/>
    <nd ref="1044008903"/>
    <nd ref="1044008960"/>
    <tag k="building" v="yes"/>
    <tag k="source" v="Bing Sat"/>
  </way>
  <way id="90075680" version="3" timestamp="2011-11-21T15:37:51Z" uid="173844" user="Antikalk" changeset="9898374">
    <nd ref="1044008960"/>
    <nd ref="1044008889"/>
    <nd ref="1044008911"/>
    <nd ref="1044008938"/>
    <nd ref="1511590392"/>
    <nd ref="1044008969"/>
    <nd ref="1044008903"/>
    <nd ref="1044008960"/>
    <tag k="addr:city" v="Düsseldorf"/>
    <tag k="addr:country" v="DE"/>
    <tag k="addr:housenumber" v="3"/>
    <tag k="addr:postcode" v="40545"/>
    <tag k="addr:street" v="Wodanstraße"/>
    <tag k="building" v="yes"/>
    <tag k="source" v="Bing Sat"/>
  </way>
  <way id="90075680" version="4" timestamp="2011-12-22T15:57:34Z" uid="173844" user="Antikalk" changeset="10180743"/>
  <way id="90075681" version="1" timestamp="2010-12-17T23:40:24Z" uid="151899" user="Bikeman2000" changeset="6691996">
    <nd ref="1044008910"/>
    <nd ref="1044008895"/>
    <nd ref="1044008917"/>
    <nd ref="1044008881"/>
    <nd ref="1044008971"/>
    <nd ref="1044008925"/>
    <nd ref="1044008910"/>
    <tag k="building" v="yes"/>
  </way>
  <way id="90075681" version="2" timestamp="2011-11-21T05:20:44Z" uid="173844" user="Antikalk" changeset="9893133">
    <nd ref="1044008910"/>
    <nd ref="1044008895"/>
    <nd ref="1044008917"/>
    <nd ref="1044008881"/>
    <nd ref="1044008971"/>
    <nd ref="1044008925"/>
    <nd ref="1044008910"/>
    <tag k="building" v="yes"/>
    <tag k="source" v="Bing Sat"/>
  </way>
  <way id="90075681" version="3" timestamp="2011-11-21T15:37:20Z" uid="173844" user="Antikalk" changeset="9898374">
    <nd ref="1044008910"/>
    <nd ref="1044008895"/>
    <nd ref="1044008917"/>
    <nd ref="1044008881"/>
    <nd ref="1044008971"/>
    <nd ref="1044008925"/>
    <nd ref="1511590394"/>
    <nd ref="1044008910"/>
    <tag k="addr:city" v="Düsseldorf"/>
    <tag k="addr:country" v="DE"/>
    <tag k="addr:housenumber" v="103"/>
    <tag k="addr:postcode" v="40545"/>
    <tag k="addr:street" v="Düsseldorfer Straße"/>
    <tag k="building" v="yes"/>
    <tag k="source" v="Bing Sat"/>
  </way>
  <way id="90075681" version="4" timestamp="2011-12-22T15:57:24Z" uid="173844" user="Antikalk" changeset="10180743"/>
  <way id="90075683" version="1" timestamp="2010-12-17T23:40:24Z" uid="151899" user="Bikeman2000" changeset="6691996">
    <nd ref="1044008909"/>
    <nd ref="1044008938"/>
    <nd ref="1044008911"/>
    <nd ref="1044008889"/>
    <nd ref="1044008978"/>
    <nd ref="1044008964"/>
    <nd ref="1044008924"/>
    <nd ref="1044008909"/>
    <tag k="building" v="yes"/>
  </way>
  <way id="90075683" version="2" timestamp="2011-11-21T05:20:45Z" uid="173844" user="Antikalk" changeset="9893133">
    <nd ref="1044008909"/>
    <nd ref="1044008938"/>
    <nd ref="1044008911"/>
    <nd ref="1044008889"/>
    <nd ref="1044008978"/>
    <nd ref="1044008964"/>
    <nd ref="1044008924"/>
    <nd ref="1044008909"/>
    <tag k="building" v="yes"/>
    <tag k="source" v="Bing Sat"/>
  </way>
  <way id="90075683" version="3" timestamp="2011-11-21T15:37:54Z" uid="173844" user="Antikalk" changeset="9898374">
    <nd ref="1044008909"/>
    <nd ref="1044008938"/>
    <nd ref="1044008911"/>
    <nd ref="1044008889"/>
    <nd ref="1044008978"/>
    <nd ref="1044008964"/>
    <nd ref="1044008924"/>
    <nd ref="1511590390"/>
    <nd ref="1044008909"/>
    <tag k="addr:city" v="Düsseldorf"/>
    <tag k="addr:country" v="DE"/>
    <tag k="addr:housenumber" v="5"/>
    <tag k="addr:postcode" v="40545"/>
    <tag k="addr:street" v="Wodanstraße"/>
    <tag k="building" v="yes"/>
    <tag k="source" v="Bing Sat"/>
  </way>
  <way id="90075683" version="4" timestamp="2011-12-22T15:57:34Z" uid="173844" user="Antikalk" changeset="10180743"/>
  <way id="90075684" version="1" timestamp="2010-12-17T23:40:24Z" uid="151899" user="Bikeman2000" changeset="6691996">
    <nd ref="1044008946"/>
    <nd ref="1044008883"/>
    <nd ref="1044008970"/>
    <nd ref="1044008954"/>
    <nd ref="1044008946"/>
    <tag k="building" v="yes"/>
  </way>
  <way id="90075684" version="2" timestamp="2011-11-21T05:20:45Z" uid="173844" user="Antikalk" changeset="9893133">
    <nd ref="1044008946"/>
    <nd ref="1044008883"/>
    <nd ref="1044008970"/>
    <nd ref="1044008954"/>
    <nd ref="1044008946"/>
    <tag k="building" v="yes"/>
    <tag k="source" v="Bing Sat"/>
  </way>
  <way id="90075684" version="3" timestamp="2011-11-21T15:37:41Z" uid="173844" user="Antikalk" changeset="9898374">
    <nd ref="1044008946"/>
    <nd ref="1511590464"/>
    <nd ref="1044008883"/>
    <nd ref="1044008970"/>
    <nd ref="1044008954"/>
    <nd ref="1044008946"/>
    <tag k="addr:city" v="Düsseldorf"/>
    <tag k="addr:country" v="DE"/>
    <tag k="addr:housenumber" v="149"/>
    <tag k="addr:postcode" v="40545"/>
    <tag k="addr:street" v="Düsseldorfer Straße"/>
    <tag k="building" v="yes"/>
    <tag k="source" v="Bing Sat"/>
  </way>
  <way id="90075684" version="4" timestamp="2011-12-22T15:57:32Z" uid="173844" user="Antikalk" changeset="10180743"/>
  <way id="90075685" version="1" timestamp="2010-12-17T23:40:24Z" uid="151899" user="Bikeman2000" changeset="6691996">
    <nd ref="1044008888"/>
    <nd ref="1044008875"/>
    <nd ref="1044008906"/>
    <nd ref="1044008896"/>
    <nd ref="1044008888"/>
    <tag k="building" v="yes"/>
  </way>
  <way id="90075685" version="2" timestamp="2011-11-21T05:20:45Z" uid="173844" user="Antikalk" changeset="9893133">
    <nd ref="1044008888"/>
    <nd ref="1044008875"/>
    <nd ref="1044008906"/>
    <nd ref="1044008896"/>
    <nd ref="1044008888"/>
    <tag k="building" v="yes"/>
    <tag k="source" v="Bing Sat"/>
  </way>
  <way id="90075685" version="3" timestamp="2011-11-21T15:37:38Z" uid="173844" user="Antikalk" changeset="9898374">
    <nd ref="1044008888"/>
    <nd ref="1511590446"/>
    <nd ref="1044008875"/>
    <nd ref="1044008906"/>
    <nd ref="1044008896"/>
    <nd ref="1044008888"/>
    <tag k="addr:city" v="Düsseldorf"/>
    <tag k="addr:country" v="DE"/>
    <tag k="addr:housenumber" v="141"/>
    <tag k="addr:postcode" v="40545"/>
    <tag k="addr:street" v="Düsseldorfer Straße"/>
    <tag k="building" v="yes"/>
    <tag k="source" v="Bing Sat"/>
  </way>
  <way id="90075685" version="4" timestamp="2011-12-22T15:57:31Z" uid="173844" user="Antikalk" changeset="10180743"/>
  <way id="90075686" version="1" timestamp="2010-12-17T23:40:25Z" uid="151899" user="Bikeman2000" changeset="6691996">
    <nd ref="1044008873"/>
    <nd ref="1044008882"/>
    <nd ref="1044008950"/>
    <nd ref="1044008937"/>
    <nd ref="1044008873"/>
    <tag k="building" v="yes"/>
  </way>
  <way id="90075686" version="2" timestamp="2011-11-21T05:20:45Z" uid="173844" user="Antikalk" changeset="9893133">
    <nd ref="1044008873"/>
    <nd ref="1044008882"/>
    <nd ref="1044008950"/>
    <nd ref="1044008937"/>
    <nd ref="1044008873"/>
    <tag k="building" v="yes"/>
    <tag k="source" v="Bing Sat"/>
  </way>
  <way id="90075686" version="3" timestamp="2011-11-21T15:37:29Z" uid="173844" user="Antikalk" changeset="9898374">
    <nd ref="1044008873"/>
    <nd ref="1511590413"/>
    <nd ref="1044008882"/>
    <nd ref="1044008950"/>
    <nd ref="1044008937"/>
    <nd ref="1044008873"/>
    <tag k="addr:city" v="Düsseldorf"/>
    <tag k="addr:country" v="DE"/>
    <tag k="addr:housenumber" v="121"/>
    <tag k="addr:postcode" v="40545"/>
    <tag k="addr:street" v="Düsseldorfer Straße"/>
    <tag k="building" v="yes"/>
    <tag k="source" v="Bing Sat"/>
  </way>
  <way id="90075686" version="4" timestamp="2011-12-22T15:57:27Z" uid="173844" user="Antikalk" changeset="10180743"/>
  <way id="90075687" version="1" timestamp="2010-12-17T23:40:25Z" uid="151899" user="Bikeman2000" changeset="6691996">
    <nd ref="1044008959"/>
    <nd ref="1044008918"/>
    <nd ref="1044008980"/>
    <nd ref="1044008968"/>
    <nd ref="1044008880"/>
    <nd ref="1044008901"/>
    <nd ref="1044008959"/>
    <tag k="building" v="yes"/>
  </way>
  <way id="90075687" version="2" timestamp="2011-11-21T05:20:45Z" uid="173844" user="Antikalk" changeset="9893133">
    <nd ref="1044008959"/>
    <nd ref="1044008918"/>
    <nd ref="1044008980"/>
    <nd ref="1044008968"/>
    <nd ref="1044008880"/>
    <nd ref="1044008901"/>
    <nd ref="1044008959"/>
    <tag k="building" v="yes"/>
    <tag k="source" v="Bing Sat"/>
  </way>
  <way id="90075687" version="3" timestamp="2011-11-21T15:37:36Z" uid="173844" user="Antikalk" changeset="9898374">
    <nd ref="1044008959"/>
    <nd ref="1511590439"/>
    <nd ref="1044008918"/>
    <nd ref="1044008980"/>
    <nd ref="1044008968"/>
    <nd ref="1044008880"/>
    <nd ref="1044008901"/>
    <nd ref="1044008959"/>
    <tag k="addr:city" v="Düsseldorf"/>
    <tag k="addr:country" v="DE"/>
    <tag k="addr:housenumber" v="135"/>
    <tag k="addr:postcode" v="40545"/>
    <tag k="addr:street" v="Düsseldorfer Straße"/>
    <tag k="building" v="yes"/>
    <tag k="source" v="Bing Sat"/>
  </way>
  <way id="90075687" version="4" timestamp="2011-12-22T15:57:30Z" uid="173844" user="Antikalk" changeset="10180743"/>
  <way id="90075689" version="1" timestamp="2010-12-17T23:40:25Z" uid="151899" user="Bikeman2000" changeset="6691996">
    <nd ref="1044008904"/>
    <nd ref="1044008914"/>
    <nd ref="1044008930"/>
    <nd ref="1044008887"/>
    <nd ref="1044008904"/>
    <tag k="building" v="yes"/>
  </way>
  <way id="90075689" version="2" timestamp="2011-11-21T05:20:46Z" uid="173844" user="Antikalk" changeset="9893133">
    <nd ref="1044008904"/>
    <nd ref="1044008914"/>
    <nd ref="1044008930"/>
    <nd ref="1044008887"/>
    <nd ref="1044008904"/>
    <tag k="building" v="yes"/>
    <tag k="source" v="Bing Sat"/>
  </way>
  <way id="90075689" version="3" timestamp="2011-11-21T15:37:34Z" uid="173844" user="Antikalk" changeset="9898374">
    <nd ref="1044008904"/>
    <nd ref="1511590432"/>
    <nd ref="1044008914"/>
    <nd ref="1044008930"/>
    <nd ref="1044008887"/>
    <nd ref="1044008904"/>
    <tag k="addr:city" v="Düsseldorf"/>
    <tag k="addr:country" v="DE"/>
    <tag k="addr:housenumber" v="131a"/>
    <tag k="addr:postcode" v="40545"/>
    <tag k="addr:street" v="Düsseldorfer Straße"/>
    <tag k="building" v="yes"/>
    <tag k="source" v="Bing Sat"/>
  </way>
  <way id="90075689" version="4" timestamp="2011-12-22T15:57:29Z" uid="173844" user="Antikalk" changeset="10180743"/>
  <way id="90075690" version="1" timestamp="2010-12-17T23:40:25Z" uid="151899" user="Bikeman2000" changeset="6691996">
    <nd ref="1044008975"/>
    <nd ref="1044008873"/>
    <nd ref="1044008937"/>
    <nd ref="1044008928"/>
    <nd ref="1044008975"/>
    <tag k="building" v="yes"/>
  </way>
  <way id="90075690" version="2" timestamp="2011-11-21T05:20:46Z" uid="173844" user="Antikalk" changeset="9893133">
    <nd ref="1044008975"/>
    <nd ref="1044008873"/>
    <nd ref="1044008937"/>
    <nd ref="1044008928"/>
    <nd ref="1044008975"/>
    <tag k="building" v="yes"/>
    <tag k="source" v="Bing Sat"/>
  </way>
  <way id="90075690" version="3" timestamp="2011-11-21T15:37:30Z" uid="173844" user="Antikalk" changeset="9898374">
    <nd ref="1044008975"/>
    <nd ref="1511590415"/>
    <nd ref="1044008873"/>
    <nd ref="1044008937"/>
    <nd ref="1044008928"/>
    <nd ref="1044008975"/>
    <tag k="addr:city" v="Düsseldorf"/>
    <tag k="addr:country" v="DE"/>
    <tag k="addr:housenumber" v="123"/>
    <tag k="addr:postcode" v="40545"/>
    <tag k="addr:street" v="Düsseldorfer Straße"/>
    <tag k="building" v="yes"/>
    <tag k="source" v="Bing Sat"/>
  </way>
  <way id="90075690" version="4" timestamp="2011-12-22T15:57:28Z" uid="173844" user="Antikalk" changeset="10180743"/>
  <way id="90075691" version="1" timestamp="2010-12-17T23:40:25Z" uid="151899" user="Bikeman2000" changeset="6691996">
    <nd ref="1044008923"/>
    <nd ref="1044008879"/>
    <nd ref="1044008948"/>
    <nd ref="1044008956"/>
    <nd ref="1044008923"/>
    <tag k="building" v="yes"/>
  </way>
  <way id="90075691" version="2" timestamp="2011-11-21T05:20:46Z" uid="173844" user="Antikalk" changeset="9893133">
    <nd ref="1044008923"/>
    <nd ref="1044008879"/>
    <nd ref="1044008948"/>
    <nd ref="1044008956"/>
    <nd ref="1044008923"/>
    <tag k="building" v="yes"/>
    <tag k="source" v="Bing Sat"/>
  </way>
  <way id="90075691" version="3" timestamp="2011-11-21T15:37:22Z" uid="173844" user="Antikalk" changeset="9898374">
    <nd ref="1044008923"/>
    <nd ref="1511590396"/>
    <nd ref="1044008879"/>
    <nd ref="1044008948"/>
    <nd ref="1044008956"/>
    <nd ref="1044008923"/>
    <tag k="addr:city" v="Düsseldorf"/>
    <tag k="addr:country" v="DE"/>
    <tag k="addr:housenumber" v="107"/>
    <tag k="addr:postcode" v="40545"/>
    <tag k="addr:street" v="Düsseldorfer Straße"/>
    <tag k="building" v="yes"/>
    <tag k="source" v="Bing Sat"/>
  </way>
  <way id="90075691" version="4" timestamp="2011-12-22T15:57:25Z" uid="173844" user="Antikalk" changeset="10180743"/>
  <way id="90075693" version="1" timestamp="2010-12-17T23:40:25Z" uid="151899" user="Bikeman2000" changeset="6691996">
    <nd ref="1044008941"/>
    <nd ref="1044008924"/>
    <nd ref="1044008964"/>
    <nd ref="1044008978"/>
    <nd ref="1044008932"/>
    <nd ref="1044008958"/>
    <nd ref="1044008941"/>
    <tag k="building" v="yes"/>
  </way>
  <way id="90075693" version="2" timestamp="2011-11-21T05:20:46Z" uid="173844" user="Antikalk" changeset="9893133">
    <nd ref="1044008941"/>
    <nd ref="1044008924"/>
    <nd ref="1044008964"/>
    <nd ref="1044008978"/>
    <nd ref="1044008932"/>
    <nd ref="1044008958"/>
    <nd ref="1044008941"/>
    <tag k="building" v="yes"/>
    <tag k="source" v="Bing Sat"/>
  </way>
  <way id="90075693" version="3" timestamp="2011-11-21T15:37:56Z" uid="173844" user="Antikalk" changeset="9898374">
    <nd ref="1044008941"/>
    <nd ref="1044008924"/>
    <nd ref="1044008964"/>
    <nd ref="1044008978"/>
    <nd ref="1044008932"/>
    <nd ref="1044008958"/>
    <nd ref="1511590387"/>
    <nd ref="1044008941"/>
    <tag k="addr:city" v="Düsseldorf"/>
    <tag k="addr:country" v="DE"/>
    <tag k="addr:housenumber" v="7"/>
    <tag k="addr:postcode" v="40545"/>
    <tag k="addr:street" v="Wodanstraße"/>
    <tag k="building" v="yes"/>
    <tag k="source" v="Bing Sat"/>
  </way>
  <way id="90075693" version="4" timestamp="2011-12-22T15:57:35Z" uid="173844" user="Antikalk" changeset="10180743"/>
  <way id="90075694" version="1" timestamp="2010-12-17T23:40:26Z" uid="151899" user="Bikeman2000" changeset="6691996">
    <nd ref="1044008897"/>
    <nd ref="1044008971"/>
    <nd ref="1044008881"/>
    <nd ref="1044008917"/>
    <nd ref="1044008903"/>
    <nd ref="1044008969"/>
    <nd ref="1044008929"/>
    <nd ref="1044008897"/>
    <tag k="building" v="yes"/>
  </way>
  <way id="90075694" version="2" timestamp="2011-11-21T05:20:47Z" uid="173844" user="Antikalk" changeset="9893133">
    <nd ref="1044008897"/>
    <nd ref="1044008971"/>
    <nd ref="1044008881"/>
    <nd ref="1044008917"/>
    <nd ref="1044008903"/>
    <nd ref="1044008969"/>
    <nd ref="1044008929"/>
    <nd ref="1044008897"/>
    <tag k="building" v="yes"/>
    <tag k="source" v="Bing Sat"/>
  </way>
  <way id="90075694" version="3" timestamp="2011-11-21T15:37:19Z" uid="173844" user="Antikalk" changeset="9898374">
    <nd ref="1044008897"/>
    <nd ref="1511590393"/>
    <nd ref="1044008971"/>
    <nd ref="1044008881"/>
    <nd ref="1044008917"/>
    <nd ref="1044008903"/>
    <nd ref="1044008969"/>
    <nd ref="1044008929"/>
    <nd ref="1044008897"/>
    <tag k="addr:city" v="Düsseldorf"/>
    <tag k="addr:country" v="DE"/>
    <tag k="addr:housenumber" v="101"/>
    <tag k="addr:postcode" v="40545"/>
    <tag k="addr:street" v="Düsseldorfer Straße"/>
    <tag k="building" v="yes"/>
    <tag k="source" v="Bing Sat"/>
  </way>
  <way id="90075694" version="4" timestamp="2011-12-22T15:57:24Z" uid="173844" user="Antikalk" changeset="10180743"/>
  <way id="90075695" version="1" timestamp="2010-12-17T23:40:26Z" uid="151899" user="Bikeman2000" changeset="6691996">
    <nd ref="1044008953"/>
    <nd ref="1044008923"/>
    <nd ref="1044008956"/>
    <nd ref="1044008966"/>
    <nd ref="1044008953"/>
    <tag k="building" v="yes"/>
  </way>
  <way id="90075695" version="2" timestamp="2011-11-21T05:20:47Z" uid="173844" user="Antikalk" changeset="9893133">
    <nd ref="1044008953"/>
    <nd ref="1044008923"/>
    <nd ref="1044008956"/>
    <nd ref="1044008966"/>
    <nd ref="1044008953"/>
    <tag k="building" v="yes"/>
    <tag k="source" v="Bing Sat"/>
  </way>
  <way id="90075695" version="3" timestamp="2011-11-21T15:37:23Z" uid="173844" user="Antikalk" changeset="9898374">
    <nd ref="1044008953"/>
    <nd ref="1511590397"/>
    <nd ref="1044008923"/>
    <nd ref="1044008956"/>
    <nd ref="1044008966"/>
    <nd ref="1044008953"/>
    <tag k="addr:city" v="Düsseldorf"/>
    <tag k="addr:country" v="DE"/>
    <tag k="addr:housenumber" v="109"/>
    <tag k="addr:postcode" v="40545"/>
    <tag k="addr:street" v="Düsseldorfer Straße"/>
    <tag k="building" v="yes"/>
    <tag k="source" v="Bing Sat"/>
  </way>
  <way id="90075695" version="4" timestamp="2011-12-22T15:57:26Z" uid="173844" user="Antikalk" changeset="10180743"/>
  <way id="90075696" version="1" timestamp="2010-12-17T23:40:26Z" uid="151899" user="Bikeman2000" changeset="6691996">
    <nd ref="1044008926"/>
    <nd ref="1044008933"/>
    <nd ref="1044008921"/>
    <nd ref="1044008945"/>
    <nd ref="1044008976"/>
    <nd ref="1044008896"/>
    <nd ref="1044008888"/>
    <nd ref="1044008926"/>
    <tag k="building" v="yes"/>
  </way>
  <way id="90075696" version="2" timestamp="2011-11-21T05:20:47Z" uid="173844" user="Antikalk" changeset="9893133">
    <nd ref="1044008926"/>
    <nd ref="1044008933"/>
    <nd ref="1044008921"/>
    <nd ref="1044008945"/>
    <nd ref="1044008976"/>
    <nd ref="1044008896"/>
    <nd ref="1044008888"/>
    <nd ref="1044008926"/>
    <tag k="building" v="yes"/>
    <tag k="source" v="Bing Sat"/>
  </way>
  <way id="90075696" version="3" timestamp="2011-11-21T15:37:38Z" uid="173844" user="Antikalk" changeset="9898374">
    <nd ref="1044008926"/>
    <nd ref="1044008933"/>
    <nd ref="1044008921"/>
    <nd ref="1044008945"/>
    <nd ref="1044008976"/>
    <nd ref="1044008896"/>
    <nd ref="1044008888"/>
    <nd ref="1511590458"/>
    <nd ref="1044008926"/>
    <tag k="addr:city" v="Düsseldorf"/>
    <tag k="addr:country" v="DE"/>
    <tag k="addr:housenumber" v="143"/>
    <tag k="addr:postcode" v="40545"/>
    <tag k="addr:street" v="Düsseldorfer Straße"/>
    <tag k="building" v="yes"/>
    <tag k="source" v="Bing Sat"/>
  </way>
  <way id="90075696" version="4" timestamp="2011-12-22T15:57:31Z" uid="173844" user="Antikalk" changeset="10180743"/>
  <way id="90075697" version="1" timestamp="2010-12-17T23:40:26Z" uid="151899" user="Bikeman2000" changeset="6691996">
    <nd ref="1044008886"/>
    <nd ref="1044008959"/>
    <nd ref="1044008901"/>
    <nd ref="1044008893"/>
    <nd ref="1044008898"/>
    <nd ref="1044008886"/>
    <tag k="building" v="yes"/>
  </way>
  <way id="90075697" version="2" timestamp="2011-11-21T05:20:47Z" uid="173844" user="Antikalk" changeset="9893133">
    <nd ref="1044008886"/>
    <nd ref="1044008959"/>
    <nd ref="1044008901"/>
    <nd ref="1044008893"/>
    <nd ref="1044008898"/>
    <nd ref="1044008886"/>
    <tag k="building" v="yes"/>
    <tag k="source" v="Bing Sat"/>
  </way>
  <way id="90075697" version="3" timestamp="2011-11-21T15:37:36Z" uid="173844" user="Antikalk" changeset="9898374">
    <nd ref="1044008886"/>
    <nd ref="1511590440"/>
    <nd ref="1044008959"/>
    <nd ref="1044008901"/>
    <nd ref="1044008893"/>
    <nd ref="1044008898"/>
    <nd ref="1044008886"/>
    <tag k="addr:city" v="Düsseldorf"/>
    <tag k="addr:country" v="DE"/>
    <tag k="addr:housenumber" v="137"/>
    <tag k="addr:postcode" v="40545"/>
    <tag k="addr:street" v="Düsseldorfer Straße"/>
    <tag k="building" v="yes"/>
    <tag k="source" v="Bing Sat"/>
  </way>
  <way id="90075697" version="4" timestamp="2011-12-22T15:57:30Z" uid="173844" user="Antikalk" changeset="10180743"/>
  <way id="90075700" version="1" timestamp="2010-12-17T23:40:26Z" uid="151899" user="Bikeman2000" changeset="6691996">
    <nd ref="1044008882"/>
    <nd ref="1044008871"/>
    <nd ref="1044008965"/>
    <nd ref="1044008950"/>
    <nd ref="1044008882"/>
    <tag k="building" v="yes"/>
  </way>
  <way id="90075700" version="2" timestamp="2011-11-21T05:20:48Z" uid="173844" user="Antikalk" changeset="9893133">
    <nd ref="1044008882"/>
    <nd ref="1044008871"/>
    <nd ref="1044008965"/>
    <nd ref="1044008950"/>
    <nd ref="1044008882"/>
    <tag k="building" v="yes"/>
    <tag k="source" v="Bing Sat"/>
  </way>
  <way id="90075700" version="3" timestamp="2011-11-21T15:37:28Z" uid="173844" user="Antikalk" changeset="9898374">
    <nd ref="1044008882"/>
    <nd ref="1511590410"/>
    <nd ref="1044008871"/>
    <nd ref="1044008965"/>
    <nd ref="1044008950"/>
    <nd ref="1044008882"/>
    <tag k="addr:city" v="Düsseldorf"/>
    <tag k="addr:country" v="DE"/>
    <tag k="addr:housenumber" v="119"/>
    <tag k="addr:postcode" v="40545"/>
    <tag k="addr:street" v="Düsseldorfer Straße"/>
    <tag k="building" v="yes"/>
    <tag k="source" v="Bing Sat"/>
  </way>
  <way id="90075700" version="4" timestamp="2011-12-22T15:57:27Z" uid="173844" user="Antikalk" changeset="10180743"/>
  <way id="90075701" version="1" timestamp="2010-12-17T23:40:26Z" uid="151899" user="Bikeman2000" changeset="6691996">
    <nd ref="1044008883"/>
    <nd ref="1044008877"/>
    <nd ref="1044008967"/>
    <nd ref="1044008891"/>
    <nd ref="1044008913"/>
    <nd ref="1044008940"/>
    <nd ref="1044008970"/>
    <nd ref="1044008883"/>
    <tag k="building" v="yes"/>
  </way>
  <way id="90075701" version="2" timestamp="2011-11-21T05:20:48Z" uid="173844" user="Antikalk" changeset="9893133">
    <nd ref="1044008883"/>
    <nd ref="1044008877"/>
    <nd ref="1044008967"/>
    <nd ref="1044008891"/>
    <nd ref="1044008913"/>
    <nd ref="1044008940"/>
    <nd ref="1044008970"/>
    <nd ref="1044008883"/>
    <tag k="building" v="yes"/>
    <tag k="source" v="Bing Sat"/>
  </way>
  <way id="90075701" version="3" timestamp="2011-11-21T15:37:42Z" uid="173844" user="Antikalk" changeset="9898374">
    <nd ref="1044008883"/>
    <nd ref="1511590465"/>
    <nd ref="1044008877"/>
    <nd ref="1044008967"/>
    <nd ref="1044008891"/>
    <nd ref="1044008913"/>
    <nd ref="1044008940"/>
    <nd ref="1044008970"/>
    <nd ref="1044008883"/>
    <tag k="addr:city" v="Düsseldorf"/>
    <tag k="addr:country" v="DE"/>
    <tag k="addr:housenumber" v="151"/>
    <tag k="addr:postcode" v="40545"/>
    <tag k="addr:street" v="Düsseldorfer Straße"/>
    <tag k="building" v="yes"/>
    <tag k="source" v="Bing Sat"/>
  </way>
  <way id="90075701" version="4" timestamp="2011-12-22T15:57:32Z" uid="173844" user="Antikalk" changeset="10180743"/>
  <way id="90075702" version="1" timestamp="2010-12-17T23:40:26Z" uid="151899" user="Bikeman2000" changeset="6691996">
    <nd ref="1044008942"/>
    <nd ref="1044008953"/>
    <nd ref="1044008966"/>
    <nd ref="1044008951"/>
    <nd ref="1044008979"/>
    <nd ref="1044008890"/>
    <nd ref="1044008912"/>
    <nd ref="1044008939"/>
    <nd ref="1044008942"/>
    <tag k="building" v="yes"/>
  </way>
  <way id="90075702" version="2" timestamp="2011-11-21T05:20:48Z" uid="173844" user="Antikalk" changeset="9893133">
    <nd ref="1044008942"/>
    <nd ref="1044008953"/>
    <nd ref="1044008966"/>
    <nd ref="1044008951"/>
    <nd ref="1044008979"/>
    <nd ref="1044008890"/>
    <nd ref="1044008912"/>
    <nd ref="1044008939"/>
    <nd ref="1044008942"/>
    <tag k="building" v="yes"/>
    <tag k="source" v="Bing Sat"/>
  </way>
  <way id="90075702" version="3" timestamp="2011-11-21T15:37:24Z" uid="173844" user="Antikalk" changeset="9898374">
    <nd ref="1044008942"/>
    <nd ref="1511590401"/>
    <nd ref="1044008953"/>
    <nd ref="1044008966"/>
    <nd ref="1044008951"/>
    <nd ref="1044008979"/>
    <nd ref="1044008890"/>
    <nd ref="1044008912"/>
    <nd ref="1044008939"/>
    <nd ref="1044008942"/>
    <tag k="addr:city" v="Düsseldorf"/>
    <tag k="addr:country" v="DE"/>
    <tag k="addr:housenumber" v="111"/>
    <tag k="addr:postcode" v="40545"/>
    <tag k="addr:street" v="Düsseldorfer Straße"/>
    <tag k="building" v="yes"/>
    <tag k="source" v="Bing Sat"/>
  </way>
  <way id="90075702" version="4" timestamp="2011-12-22T15:57:26Z" uid="173844" user="Antikalk" changeset="10180743"/>
  <way id="90075704" version="1" timestamp="2010-12-17T23:40:27Z" uid="151899" user="Bikeman2000" changeset="6691996">
    <nd ref="1044008878"/>
    <nd ref="1044008973"/>
    <nd ref="1044008915"/>
    <nd ref="1044008885"/>
    <nd ref="1044008907"/>
    <nd ref="1044008878"/>
    <tag k="building" v="yes"/>
  </way>
  <way id="90075704" version="2" timestamp="2011-11-21T05:20:48Z" uid="173844" user="Antikalk" changeset="9893133">
    <nd ref="1044008878"/>
    <nd ref="1044008973"/>
    <nd ref="1044008915"/>
    <nd ref="1044008885"/>
    <nd ref="1044008907"/>
    <nd ref="1044008878"/>
    <tag k="building" v="yes"/>
    <tag k="source" v="Bing Sat"/>
  </way>
  <way id="90075704" version="3" timestamp="2011-11-21T15:37:45Z" uid="173844" user="Antikalk" changeset="9898374">
    <nd ref="1044008878"/>
    <nd ref="1511590471"/>
    <nd ref="1044008973"/>
    <nd ref="1044008915"/>
    <nd ref="1044008885"/>
    <nd ref="1044008907"/>
    <nd ref="1044008878"/>
    <tag k="addr:city" v="Düsseldorf"/>
    <tag k="addr:country" v="DE"/>
    <tag k="addr:housenumber" v="157"/>
    <tag k="addr:postcode" v="40545"/>
    <tag k="addr:street" v="Düsseldorfer Straße"/>
    <tag k="building" v="yes"/>
    <tag k="source" v="Bing Sat"/>
  </way>
  <way id="90075704" version="4" timestamp="2011-12-22T15:57:34Z" uid="173844" user="Antikalk" changeset="10180743"/>
  <way id="90075705" version="1" timestamp="2010-12-17T23:40:27Z" uid="151899" user="Bikeman2000" changeset="6691996">
    <nd ref="1044008914"/>
    <nd ref="1044008930"/>
    <nd ref="1044008961"/>
    <nd ref="1044008884"/>
    <nd ref="1044008900"/>
    <nd ref="1044008914"/>
    <tag k="building" v="yes"/>
  </way>
  <way id="90075705" version="2" timestamp="2011-11-21T05:20:49Z" uid="173844" user="Antikalk" changeset="9893133">
    <nd ref="1044008914"/>
    <nd ref="1044008930"/>
    <nd ref="1044008961"/>
    <nd ref="1044008884"/>
    <nd ref="1044008900"/>
    <nd ref="1044008914"/>
    <tag k="building" v="yes"/>
    <tag k="source" v="Bing Sat"/>
  </way>
  <way id="90075705" version="3" timestamp="2011-11-21T15:37:34Z" uid="173844" user="Antikalk" changeset="9898374">
    <nd ref="1044008914"/>
    <nd ref="1044008930"/>
    <nd ref="1044008961"/>
    <nd ref="1044008884"/>
    <nd ref="1044008900"/>
    <nd ref="1511590428"/>
    <nd ref="1044008914"/>
    <tag k="addr:city" v="Düsseldorf"/>
    <tag k="addr:country" v="DE"/>
    <tag k="addr:housenumber" v="131"/>
    <tag k="addr:postcode" v="40545"/>
    <tag k="addr:street" v="Düsseldorfer Straße"/>
    <tag k="building" v="yes"/>
    <tag k="source" v="Bing Sat"/>
  </way>
  <way id="90075705" version="4" timestamp="2011-12-22T15:57:29Z" uid="173844" user="Antikalk" changeset="10180743"/>
  <way id="90075706" version="1" timestamp="2010-12-17T23:40:27Z" uid="151899" user="Bikeman2000" changeset="6691996">
    <nd ref="1044008963"/>
    <nd ref="1044008975"/>
    <nd ref="1044008928"/>
    <nd ref="1044008916"/>
    <nd ref="1044008963"/>
    <tag k="building" v="yes"/>
  </way>
  <way id="90075706" version="2" timestamp="2011-11-21T05:20:49Z" uid="173844" user="Antikalk" changeset="9893133">
    <nd ref="1044008963"/>
    <nd ref="1044008975"/>
    <nd ref="1044008928"/>
    <nd ref="1044008916"/>
    <nd ref="1044008963"/>
    <tag k="building" v="yes"/>
    <tag k="source" v="Bing Sat"/>
  </way>
  <way id="90075706" version="3" timestamp="2011-11-21T15:37:31Z" uid="173844" user="Antikalk" changeset="9898374">
    <nd ref="1044008963"/>
    <nd ref="1511590419"/>
    <nd ref="1044008975"/>
    <nd ref="1044008928"/>
    <nd ref="1044008916"/>
    <nd ref="1044008963"/>
    <tag k="addr:city" v="Düsseldorf"/>
    <tag k="addr:country" v="DE"/>
    <tag k="addr:housenumber" v="125"/>
    <tag k="addr:postcode" v="40545"/>
    <tag k="addr:street" v="Düsseldorfer Straße"/>
    <tag k="building" v="yes"/>
    <tag k="source" v="Bing Sat"/>
  </way>
  <way id="90075706" version="4" timestamp="2011-12-22T15:57:28Z" uid="173844" user="Antikalk" changeset="10180743"/>
  <way id="90075708" version="1" timestamp="2010-12-17T23:40:27Z" uid="151899" user="Bikeman2000" changeset="6691996">
    <nd ref="1044008875"/>
    <nd ref="1044008886"/>
    <nd ref="1044008898"/>
    <nd ref="1044008906"/>
    <nd ref="1044008875"/>
    <tag k="building" v="yes"/>
  </way>
  <way id="90075708" version="2" timestamp="2011-11-21T05:20:49Z" uid="173844" user="Antikalk" changeset="9893133">
    <nd ref="1044008875"/>
    <nd ref="1044008886"/>
    <nd ref="1044008898"/>
    <nd ref="1044008906"/>
    <nd ref="1044008875"/>
    <tag k="building" v="yes"/>
    <tag k="source" v="Bing Sat"/>
  </way>
  <way id="90075708" version="3" timestamp="2011-11-21T15:37:37Z" uid="173844" user="Antikalk" changeset="9898374">
    <nd ref="1044008875"/>
    <nd ref="1511590443"/>
    <nd ref="1044008886"/>
    <nd ref="1044008898"/>
    <nd ref="1044008906"/>
    <nd ref="1044008875"/>
    <tag k="addr:city" v="Düsseldorf"/>
    <tag k="addr:country" v="DE"/>
    <tag k="addr:housenumber" v="139"/>
    <tag k="addr:postcode" v="40545"/>
    <tag k="addr:street" v="Düsseldorfer Straße"/>
    <tag k="building" v="yes"/>
    <tag k="source" v="Bing Sat"/>
  </way>
  <way id="90075708" version="4" timestamp="2011-12-22T15:57:31Z" uid="173844" user="Antikalk" changeset="10180743"/>
  <way id="90075709" version="1" timestamp="2010-12-17T23:40:27Z" uid="151899" user="Bikeman2000" changeset="6691996">
    <nd ref="1044008871"/>
    <nd ref="1044008920"/>
    <nd ref="1044008894"/>
    <nd ref="1044008965"/>
    <nd ref="1044008871"/>
    <tag k="building" v="yes"/>
  </way>
  <way id="90075709" version="2" timestamp="2011-11-21T05:20:49Z" uid="173844" user="Antikalk" changeset="9893133">
    <nd ref="1044008871"/>
    <nd ref="1044008920"/>
    <nd ref="1044008894"/>
    <nd ref="1044008965"/>
    <nd ref="1044008871"/>
    <tag k="building" v="yes"/>
    <tag k="source" v="Bing Sat"/>
  </way>
  <way id="90075709" version="3" timestamp="2011-11-21T15:38:02Z" uid="173844" user="Antikalk" changeset="9898374"/>
  <way id="90075710" version="1" timestamp="2010-12-17T23:40:27Z" uid="151899" user="Bikeman2000" changeset="6691996">
    <nd ref="1044008935"/>
    <nd ref="1044008946"/>
    <nd ref="1044008954"/>
    <nd ref="1044008943"/>
    <nd ref="1044008935"/>
    <tag k="building" v="yes"/>
  </way>
  <way id="90075710" version="2" timestamp="2011-11-21T05:20:50Z" uid="173844" user="Antikalk" changeset="9893133">
    <nd ref="1044008935"/>
    <nd ref="1044008946"/>
    <nd ref="1044008954"/>
    <nd ref="1044008943"/>
    <nd ref="1044008935"/>
    <tag k="building" v="yes"/>
    <tag k="source" v="Bing Sat"/>
  </way>
  <way id="90075710" version="3" timestamp="2011-11-21T15:37:40Z" uid="173844" user="Antikalk" changeset="9898374">
    <nd ref="1044008935"/>
    <nd ref="1511590462"/>
    <nd ref="1044008946"/>
    <nd ref="1044008954"/>
    <nd ref="1044008943"/>
    <nd ref="1044008935"/>
    <tag k="addr:city" v="Düsseldorf"/>
    <tag k="addr:country" v="DE"/>
    <tag k="addr:housenumber" v="147"/>
    <tag k="addr:postcode" v="40545"/>
    <tag k="addr:street" v="Düsseldorfer Straße"/>
    <tag k="building" v="yes"/>
    <tag k="source" v="Bing Sat"/>
  </way>
  <way id="90075710" version="4" timestamp="2011-12-22T15:57:32Z" uid="173844" user="Antikalk" changeset="10180743"/>
  <way id="90075711" version="1" timestamp="2010-12-17T23:40:28Z" uid="151899" user="Bikeman2000" changeset="6691996">
    <nd ref="1044008955"/>
    <nd ref="1044008936"/>
    <nd ref="1044008967"/>
    <nd ref="1044008877"/>
    <nd ref="1044008892"/>
    <nd ref="1044008977"/>
    <nd ref="1044008955"/>
    <tag k="building" v="yes"/>
  </way>
  <way id="90075711" version="2" timestamp="2011-11-21T05:20:50Z" uid="173844" user="Antikalk" changeset="9893133">
    <nd ref="1044008955"/>
    <nd ref="1044008936"/>
    <nd ref="1044008967"/>
    <nd ref="1044008877"/>
    <nd ref="1044008892"/>
    <nd ref="1044008977"/>
    <nd ref="1044008955"/>
    <tag k="building" v="yes"/>
    <tag k="source" v="Bing Sat"/>
  </way>
  <way id="90075711" version="3" timestamp="2011-11-21T15:37:43Z" uid="173844" user="Antikalk" changeset="9898374">
    <nd ref="1044008955"/>
    <nd ref="1044008936"/>
    <nd ref="1044008967"/>
    <nd ref="1044008877"/>
    <nd ref="1511590466"/>
    <nd ref="1044008892"/>
    <nd ref="1044008977"/>
    <nd ref="1044008955"/>
    <tag k="addr:city" v="Düsseldorf"/>
    <tag k="addr:country" v="DE"/>
    <tag k="addr:housenumber" v="153"/>
    <tag k="addr:postcode" v="40545"/>
    <tag k="addr:street" v="Düsseldorfer Straße"/>
    <tag k="building" v="yes"/>
    <tag k="source" v="Bing Sat"/>
  </way>
  <way id="90075711" version="4" timestamp="2011-12-22T15:57:33Z" uid="173844" user="Antikalk" changeset="10180743"/>
  <way id="90075712" version="1" timestamp="2010-12-17T23:40:28Z" uid="151899" user="Bikeman2000" changeset="6691996">
    <nd ref="1044008892"/>
    <nd ref="1044008973"/>
    <nd ref="1044008915"/>
    <nd ref="1044008922"/>
    <nd ref="1044008947"/>
    <nd ref="1044008977"/>
    <nd ref="1044008892"/>
    <tag k="building" v="yes"/>
  </way>
  <way id="90075712" version="2" timestamp="2011-11-21T05:20:50Z" uid="173844" user="Antikalk" changeset="9893133">
    <nd ref="1044008892"/>
    <nd ref="1044008973"/>
    <nd ref="1044008915"/>
    <nd ref="1044008922"/>
    <nd ref="1044008947"/>
    <nd ref="1044008977"/>
    <nd ref="1044008892"/>
    <tag k="building" v="yes"/>
    <tag k="source" v="Bing Sat"/>
  </way>
  <way id="90075712" version="3" timestamp="2011-11-21T15:37:44Z" uid="173844" user="Antikalk" changeset="9898374">
    <nd ref="1044008892"/>
    <nd ref="1511590468"/>
    <nd ref="1044008973"/>
    <nd ref="1044008915"/>
    <nd ref="1044008922"/>
    <nd ref="1044008947"/>
    <nd ref="1044008977"/>
    <nd ref="1044008892"/>
    <tag k="addr:city" v="Düsseldorf"/>
    <tag k="addr:country" v="DE"/>
    <tag k="addr:housenumber" v="155"/>
    <tag k="addr:postcode" v="40545"/>
    <tag k="addr:street" v="Düsseldorfer Straße"/>
    <tag k="building" v="yes"/>
    <tag k="source" v="Bing Sat"/>
  </way>
  <way id="90075712" version="4" timestamp="2011-12-22T15:57:33Z" uid="173844" user="Antikalk" changeset="10180743"/>
</osm>
