<?xml version='1.0' encoding='UTF-8'?>
<osm version="0.6" generator="libosmium/2.20.0">
  <way id="90116676" version="1" timestamp="2010-12-18T11:04:23Z" uid="19626" user="Swamp" changeset="6694548">
    <nd ref="1044700321"/>
    <nd ref="1044700378"/>
    <tag k="highway" v="unclassified"/>
    <tag k="maxspeed" v="100"/>
    <tag k="source" v="landsat"/>
  </way>
  <way id="90116678" version="1" timestamp="2010-12-18T11:04:24Z" uid="19626" user="Swamp" changeset="6694548">
    <nd ref="1044700373"/>
    <nd ref="1044700316"/>
    <nd ref="1044700378"/>
    <nd ref="1044700342"/>
    <tag k="highway" v="unclassified"/>
    <tag k="maxspeed" v="100"/>
    <tag k="source" v="landsat"/>
  </way>
  <way id="90116894" version="4" timestamp="2011-06-19T13:05:33Z" uid="7617" user="Franc" changeset="8483784">
    <nd ref="1044706541"/>
    <nd ref="1312840120"/>
    <nd ref="1157165088"/>
    <nd ref="1312840122"/>
    <nd ref="266727215"/>
    <tag k="highway" v="trunk"/>
    <tag k="lanes" v="3"/>
    <tag k="maxspeed" v="80"/>
    <tag k="name" v="Roberts Road"/>
    <tag k="network" v="MR"/>
    <tag k="oneway" v="yes"/>
    <tag k="ref" v="3"/>
    <tag k="source" v="survey;nearmap"/>
  </way>
  <way id="90116894" version="5" timestamp="2012-01-31T06:39:05Z" uid="54784" user="Tom Hollander" changeset="10546288">
    <nd ref="1044706541"/>
    <nd ref="1312840120"/>
    <nd ref="1157165088"/>
    <nd ref="1312840122"/>
    <nd ref="266727215"/>
    <tag k="highway" v="trunk"/>
    <tag k="lanes" v="3"/>
    <tag k="maxspeed" v="80"/>
    <tag k="name" v="Roberts Road"/>
    <tag k="network" v="MR"/>
    <tag k="oneway" v="yes"/>
    <tag k="ref" v="MR3"/>
    <tag k="source" v="survey;nearmap"/>
  </way>
  <way id="90116894" version="6" timestamp="2012-03-08T01:15:57Z" uid="7523" user="inas" changeset="10905482">
    <nd ref="1665371311"/>
    <nd ref="1665371309"/>
    <nd ref="266909976"/>
    <nd ref="1665371308"/>
    <nd ref="1665371307"/>
    <nd ref="1665371306"/>
    <nd ref="266909974"/>
    <nd ref="1665371305"/>
    <nd ref="1665371304"/>
    <nd ref="1665371303"/>
    <nd ref="1665371302"/>
    <nd ref="1044706541"/>
    <nd ref="1312840120"/>
    <nd ref="1157165088"/>
    <nd ref="1312840122"/>
    <nd ref="266727215"/>
    <tag k="highway" v="trunk"/>
    <tag k="lanes" v="3"/>
    <tag k="maxspeed" v="80"/>
    <tag k="name" v="Roberts Road"/>
    <tag k="network" v="MR"/>
    <tag k="oneway" v="yes"/>
    <tag k="ref" v="MR3"/>
    <tag k="source" v="survey;nearmap"/>
  </way>
  <way id="90116894" version="7" timestamp="2012-03-09T01:30:02Z" uid="7523" user="inas" changeset="10915505">
    <nd ref="1665371311"/>
    <nd ref="1665371309"/>
    <nd ref="266909976"/>
    <nd ref="1665371308"/>
    <nd ref="1665371307"/>
    <nd ref="1665371306"/>
    <nd ref="266909974"/>
    <nd ref="1665371305"/>
    <nd ref="1665371304"/>
    <nd ref="1665371303"/>
    <nd ref="1665371302"/>
    <nd ref="1044706541"/>
    <nd ref="1312840120"/>
    <nd ref="1157165088"/>
    <nd ref="1312840122"/>
    <nd ref="266727215"/>
    <tag k="highway" v="trunk"/>
    <tag k="lanes" v="3"/>
    <tag k="maxspeed" v="80"/>
    <tag k="name" v="Roberts Road"/>
    <tag k="network" v="MR"/>
    <tag k="oneway" v="yes"/>
    <tag k="ref" v="3"/>
    <tag k="source" v="survey;nearmap"/>
  </way>
  <way id="90116895" version="3" timestamp="2011-06-19T13:05:28Z" uid="7617" user="Franc" changeset="8483784">
    <nd ref="1044706536"/>
    <nd ref="36593269"/>
    <nd ref="610745977"/>
    <nd ref="610745975"/>
    <nd ref="610745976"/>
    <nd ref="36593270"/>
    <tag k="highway" v="trunk"/>
    <tag k="lanes" v="3"/>
    <tag k="maxspeed" v="70"/>
    <tag k="name" v="Roberts Road"/>
    <tag k="network" v="MR"/>
    <tag k="oneway" v="yes"/>
    <tag k="ref" v="3"/>
  </way>
  <way id="90116895" version="4" timestamp="2012-01-31T06:39:05Z" uid="54784" user="Tom Hollander" changeset="10546288">
    <nd ref="1044706536"/>
    <nd ref="36593269"/>
    <nd ref="610745977"/>
    <nd ref="610745975"/>
    <nd ref="610745976"/>
    <nd ref="36593270"/>
    <tag k="highway" v="trunk"/>
    <tag k="lanes" v="3"/>
    <tag k="maxspeed" v="70"/>
    <tag k="name" v="Roberts Road"/>
    <tag k="network" v="MR"/>
    <tag k="oneway" v="yes"/>
    <tag k="ref" v="MR3"/>
  </way>
  <way id="90116895" version="5" timestamp="2012-03-08T01:15:58Z" uid="7523" user="inas" changeset="10905482">
    <nd ref="1044706536"/>
    <nd ref="36593269"/>
    <nd ref="610745977"/>
    <nd ref="610745975"/>
    <nd ref="610745976"/>
    <nd ref="1665371318"/>
    <nd ref="1665371326"/>
    <nd ref="1665371333"/>
    <nd ref="1665371339"/>
    <nd ref="36593271"/>
    <nd ref="1665371345"/>
    <nd ref="1665371350"/>
    <nd ref="248886642"/>
    <nd ref="1665371352"/>
    <nd ref="1665371353"/>
    <nd ref="1665371354"/>
    <nd ref="1665371355"/>
    <nd ref="1665371363"/>
    <nd ref="1665371369"/>
    <nd ref="1665371374"/>
    <nd ref="1665371375"/>
    <nd ref="1665371376"/>
    <nd ref="1665371377"/>
    <nd ref="1665371379"/>
    <nd ref="1665371381"/>
    <nd ref="1665371383"/>
    <nd ref="1665371385"/>
    <nd ref="1665371387"/>
    <nd ref="1665371389"/>
    <nd ref="1665371395"/>
    <nd ref="1665371396"/>
    <nd ref="1665371398"/>
    <nd ref="1665371400"/>
    <nd ref="36594456"/>
    <tag k="highway" v="trunk"/>
    <tag k="lanes" v="3"/>
    <tag k="maxspeed" v="70"/>
    <tag k="name" v="Roberts Road"/>
    <tag k="network" v="MR"/>
    <tag k="oneway" v="yes"/>
    <tag k="ref" v="MR3"/>
  </way>
  <way id="90116895" version="6" timestamp="2012-03-08T05:58:07Z" uid="7523" user="inas" changeset="10906275">
    <nd ref="1044706536"/>
    <nd ref="36593269"/>
    <nd ref="610745977"/>
    <nd ref="610745975"/>
    <nd ref="610745976"/>
    <nd ref="1665371318"/>
    <nd ref="1665371326"/>
    <nd ref="1665371333"/>
    <nd ref="1665371339"/>
    <nd ref="36593271"/>
    <nd ref="1665371345"/>
    <nd ref="1665371350"/>
    <nd ref="248886642"/>
    <nd ref="1665371352"/>
    <nd ref="1665371353"/>
    <nd ref="1665371354"/>
    <nd ref="1665371355"/>
    <nd ref="1665371363"/>
    <nd ref="1665371369"/>
    <nd ref="1665371374"/>
    <nd ref="1665371375"/>
    <nd ref="1665371376"/>
    <nd ref="1665371377"/>
    <nd ref="1665371379"/>
    <nd ref="1665371381"/>
    <nd ref="1665371383"/>
    <nd ref="1665371385"/>
    <nd ref="1665371387"/>
    <nd ref="1665371389"/>
    <nd ref="1665371395"/>
    <nd ref="1665371396"/>
    <nd ref="1665371398"/>
    <nd ref="1665371400"/>
    <nd ref="36594456"/>
    <tag k="highway" v="trunk"/>
    <tag k="lanes" v="3"/>
    <tag k="maxspeed" v="70"/>
    <tag k="name" v="Roberts Road"/>
    <tag k="network" v="MR"/>
    <tag k="oneway" v="yes"/>
    <tag k="ref" v="3"/>
  </way>
  <way id="90116895" version="7" timestamp="2012-03-08T22:54:26Z" uid="7523" user="inas" changeset="10914785">
    <nd ref="1044706536"/>
    <nd ref="36593269"/>
    <nd ref="610745977"/>
    <nd ref="610745975"/>
    <nd ref="610745976"/>
    <nd ref="1665371318"/>
    <nd ref="1665371326"/>
    <nd ref="1665371333"/>
    <nd ref="1665371339"/>
    <nd ref="36593271"/>
    <nd ref="1665371345"/>
    <nd ref="1665371350"/>
    <nd ref="248886642"/>
    <nd ref="1665371352"/>
    <nd ref="1665371353"/>
    <nd ref="1665371354"/>
    <nd ref="1665371355"/>
    <nd ref="1665371363"/>
    <nd ref="1665371369"/>
    <nd ref="1665371374"/>
    <nd ref="1665371375"/>
    <nd ref="1665371377"/>
    <nd ref="1665371379"/>
    <nd ref="1665371381"/>
    <nd ref="1665371383"/>
    <nd ref="1665371385"/>
    <nd ref="1665371387"/>
    <nd ref="1665371389"/>
    <nd ref="1665371395"/>
    <nd ref="1665371396"/>
    <nd ref="1665371398"/>
    <nd ref="1665371400"/>
    <nd ref="36594456"/>
    <tag k="highway" v="trunk"/>
    <tag k="lanes" v="3"/>
    <tag k="maxspeed" v="70"/>
    <tag k="name" v="Roberts Road"/>
    <tag k="network" v="MR"/>
    <tag k="oneway" v="yes"/>
    <tag k="ref" v="3"/>
  </way>
</osm>
