<?xml version='1.0' encoding='UTF-8'?>
<osm version="0.6" generator="libosmium/2.20.0">
  <way id="9088102" version="2" timestamp="2008-07-15T01:29:58Z" uid="6975" user="ulfl" changeset="496348">
    <nd ref="67082165"/>
    <nd ref="67071363"/>
    <nd ref="67068335"/>
    <nd ref="67053430"/>
    <nd ref="67102223"/>
    <nd ref="67101079"/>
    <nd ref="67061404"/>
    <nd ref="67048850"/>
    <nd ref="67058114"/>
    <nd ref="67077240"/>
    <nd ref="67093768"/>
    <nd ref="67101241"/>
    <nd ref="67055293"/>
    <nd ref="67072337"/>
    <nd ref="67097230"/>
    <nd ref="67074320"/>
    <nd ref="67052496"/>
    <nd ref="67055974"/>
    <nd ref="67039985"/>
    <nd ref="67067523"/>
    <nd ref="67085650"/>
    <nd ref="67073673"/>
    <nd ref="67087094"/>
    <nd ref="67098241"/>
    <nd ref="67059630"/>
    <nd ref="67082165"/>
    <nd ref="67082165"/>
    <tag k="attribution" v="Office of Geographic and Environmental Information (MassGIS)"/>
    <tag k="condition" v="intolerable"/>
    <tag k="highway" v="residential"/>
    <tag k="lanes" v="1"/>
    <tag k="massgis:way_id" v="198138"/>
    <tag k="maxspeed" v="8"/>
    <tag k="name" v="Windswept Drive"/>
    <tag k="note" v="FIXME unreviewed oneway"/>
    <tag k="oneway" v="yes"/>
    <tag k="source" v="massgis_import_v0.1_20071009102959"/>
    <tag k="surface" v="unpaved"/>
  </way>
  <way id="9088102" version="3" timestamp="2009-04-13T02:53:44Z" uid="2758" user="Stefan de Konink" changeset="482338">
    <nd ref="67082165"/>
    <nd ref="67071363"/>
    <nd ref="67068335"/>
    <nd ref="67053430"/>
    <nd ref="67102223"/>
    <nd ref="67101079"/>
    <nd ref="67061404"/>
    <nd ref="67048850"/>
    <nd ref="67058114"/>
    <nd ref="67077240"/>
    <nd ref="67093768"/>
    <nd ref="67101241"/>
    <nd ref="67055293"/>
    <nd ref="67072337"/>
    <nd ref="67097230"/>
    <nd ref="67074320"/>
    <nd ref="67052496"/>
    <nd ref="67055974"/>
    <nd ref="67039985"/>
    <nd ref="67067523"/>
    <nd ref="67085650"/>
    <nd ref="67073673"/>
    <nd ref="67087094"/>
    <nd ref="67098241"/>
    <nd ref="67059630"/>
    <nd ref="67082165"/>
    <tag k="attribution" v="Office of Geographic and Environmental Information (MassGIS)"/>
    <tag k="condition" v="intolerable"/>
    <tag k="created_by" v="OSM Fixer"/>
    <tag k="highway" v="residential"/>
    <tag k="lanes" v="1"/>
    <tag k="massgis:way_id" v="198138"/>
    <tag k="maxspeed" v="8"/>
    <tag k="name" v="Windswept Drive"/>
    <tag k="note" v="FIXME unreviewed oneway"/>
    <tag k="oneway" v="yes"/>
    <tag k="source" v="massgis_import_v0.1_20071009102959"/>
    <tag k="surface" v="unpaved"/>
  </way>
  <way id="9088106" version="2" timestamp="2008-07-15T01:30:06Z" uid="6975" user="ulfl" changeset="496348">
    <nd ref="67096308"/>
    <nd ref="67058869"/>
    <nd ref="67048415"/>
    <nd ref="67066169"/>
    <nd ref="67045812"/>
    <nd ref="67046370"/>
    <nd ref="67088437"/>
    <nd ref="67068335"/>
    <tag k="attribution" v="Office of Geographic and Environmental Information (MassGIS)"/>
    <tag k="condition" v="intolerable"/>
    <tag k="highway" v="residential"/>
    <tag k="lanes" v="1"/>
    <tag k="massgis:way_id" v="198138"/>
    <tag k="maxspeed" v="8"/>
    <tag k="name" v="Windswept Drive"/>
    <tag k="note" v="FIXME unreviewed oneway"/>
    <tag k="oneway" v="yes"/>
    <tag k="source" v="massgis_import_v0.1_20071009102959"/>
    <tag k="surface" v="unpaved"/>
  </way>
  <way id="9088336" version="2" timestamp="2008-07-15T01:30:08Z" uid="6975" user="ulfl" changeset="496348">
    <nd ref="67039472"/>
    <nd ref="67055945"/>
    <tag k="attribution" v="Office of Geographic and Environmental Information (MassGIS)"/>
    <tag k="condition" v="fair"/>
    <tag k="highway" v="residential"/>
    <tag k="lanes" v="1"/>
    <tag k="massgis:way_id" v="145169"/>
    <tag k="maxspeed" v="8"/>
    <tag k="name" v="Reservation Lane"/>
    <tag k="note" v="FIXME unreviewed oneway"/>
    <tag k="oneway" v="yes"/>
    <tag k="source" v="massgis_import_v0.1_20071009102959"/>
    <tag k="surface" v="unpaved"/>
  </way>
  <way id="9088760" version="1" timestamp="2007-10-12T19:51:00Z" uid="8931" user="bluepup" changeset="127112">
    <nd ref="32994746"/>
    <nd ref="32994747"/>
    <nd ref="32994748"/>
    <nd ref="32994749"/>
    <tag k="created_by" v="JOSM"/>
    <tag k="highway" v="secondary"/>
    <tag k="name" v="Barkhauser Straße"/>
    <tag k="note" v="FIXME incomplete"/>
    <tag k="ref" v="K37"/>
  </way>
  <way id="9088760" version="2" timestamp="2008-01-19T15:55:48Z" uid="21756" user="Torfnase" changeset="667721">
    <nd ref="32994746"/>
    <nd ref="32994747"/>
    <nd ref="32994749"/>
    <tag k="created_by" v="JOSM"/>
    <tag k="highway" v="secondary"/>
    <tag k="name" v="Barkhauser Straße"/>
    <tag k="ref" v="K37"/>
  </way>
  <way id="9088760" version="3" timestamp="2008-04-22T20:15:49Z" uid="29055" user="derden" changeset="227552">
    <nd ref="32994746"/>
    <nd ref="259243963"/>
    <nd ref="32994747"/>
    <nd ref="32994749"/>
    <tag k="created_by" v="Potlatch 0.8a"/>
    <tag k="highway" v="secondary"/>
    <tag k="name" v="Barkhauser Straße"/>
    <tag k="ref" v="K37"/>
  </way>
  <way id="9088760" version="4" timestamp="2008-06-22T01:49:59Z" uid="24920" user="Schusch" changeset="253097">
    <nd ref="32994746"/>
    <nd ref="259243963"/>
    <nd ref="32994747"/>
    <nd ref="32994749"/>
    <tag k="created_by" v="Potlatch 0.9c"/>
    <tag k="highway" v="secondary"/>
    <tag k="name" v="Barkhauser Straße"/>
    <tag k="ref" v="K 37"/>
  </way>
  <way id="9088760" version="5" timestamp="2008-08-27T00:26:42Z" uid="29639" user="bielebog" changeset="430291">
    <nd ref="32994746"/>
    <nd ref="259243963"/>
    <nd ref="278816640"/>
    <nd ref="32994747"/>
    <nd ref="32994749"/>
    <tag k="created_by" v="Potlatch 0.9c"/>
    <tag k="highway" v="secondary"/>
    <tag k="name" v="Barkhauser Straße"/>
    <tag k="ref" v="K 37"/>
  </way>
  <way id="9088760" version="6" timestamp="2008-08-31T00:52:00Z" uid="44787" user="marsgps" changeset="472586">
    <nd ref="32994746"/>
    <nd ref="259243963"/>
    <nd ref="278816640"/>
    <nd ref="32994747"/>
    <nd ref="32994749"/>
    <tag k="created_by" v="Potlatch 0.9c"/>
    <tag k="highway" v="secondary"/>
    <tag k="name" v="Barkhauser Straße"/>
    <tag k="ref" v="K37"/>
  </way>
  <way id="9088760" version="7" timestamp="2008-09-16T21:42:38Z" uid="31059" user="DaBear" changeset="653506">
    <nd ref="32994746"/>
    <nd ref="259243963"/>
    <nd ref="278816640"/>
    <nd ref="32994747"/>
    <nd ref="32994749"/>
    <tag k="created_by" v="Potlatch 0.9c"/>
    <tag k="highway" v="secondary"/>
    <tag k="name" v="Barkhauser Straße"/>
    <tag k="ref" v="K 37"/>
  </way>
  <way id="9088760" version="8" timestamp="2009-01-25T18:38:48Z" uid="21756" user="Torfnase" changeset="834761">
    <nd ref="336506569"/>
    <nd ref="259243864"/>
    <nd ref="105869049"/>
    <nd ref="105869050"/>
    <nd ref="32994746"/>
    <nd ref="259243963"/>
    <nd ref="278816640"/>
    <nd ref="32994747"/>
    <nd ref="32994749"/>
    <tag k="created_by" v="Potlatch 0.9c"/>
    <tag k="highway" v="secondary"/>
    <tag k="maxspeed" v="50"/>
    <tag k="name" v="Barkhauser Straße"/>
    <tag k="ref" v="K 37"/>
  </way>
  <way id="9088760" version="9" timestamp="2010-10-05T09:27:45Z" uid="29639" user="bielebog" changeset="5959742">
    <nd ref="336506569"/>
    <nd ref="259243864"/>
    <tag k="highway" v="secondary"/>
    <tag k="maxspeed" v="50"/>
    <tag k="name" v="Barkhauser Straße"/>
    <tag k="ref" v="K 37"/>
  </way>
  <way id="9088760" version="10" timestamp="2010-10-09T21:44:37Z" uid="29639" user="bielebog" changeset="5997580">
    <nd ref="336506569"/>
    <nd ref="259243864"/>
    <tag k="access" v="no"/>
    <tag k="date_off" v="2010-12"/>
    <tag k="date_on" v="2010-10-04"/>
    <tag k="highway" v="secondary"/>
    <tag k="maxspeed" v="50"/>
    <tag k="name" v="Barkhauser Straße"/>
    <tag k="ref" v="K 37"/>
  </way>
  <way id="9088760" version="11" timestamp="2010-12-22T19:17:26Z" uid="29639" user="bielebog" changeset="6738770">
    <nd ref="336506569"/>
    <nd ref="259243864"/>
    <tag k="highway" v="secondary"/>
    <tag k="maxspeed" v="50"/>
    <tag k="name" v="Barkhauser Straße"/>
    <tag k="ref" v="K 37"/>
  </way>
  <way id="9088760" version="12" timestamp="2010-12-22T19:26:16Z" uid="29639" user="bielebog" changeset="6738797">
    <nd ref="336506569"/>
    <nd ref="259243864"/>
    <tag k="highway" v="secondary"/>
    <tag k="maxspeed" v="30"/>
    <tag k="name" v="Barkhauser Straße"/>
    <tag k="ref" v="K 37"/>
  </way>
  <way id="9088765" version="1" timestamp="2007-10-12T19:51:01Z" uid="2488" user="Alban" changeset="126267">
    <nd ref="67108824"/>
    <nd ref="67108827"/>
    <tag k="created_by" v="Editop"/>
  </way>
  <way id="9088765" version="2" timestamp="2007-10-12T20:20:24Z" uid="2488" user="Alban" changeset="126267">
    <nd ref="67152274"/>
    <nd ref="67152277"/>
    <nd ref="67152280"/>
    <nd ref="67152283"/>
    <nd ref="67152286"/>
    <nd ref="67152289"/>
    <nd ref="67152292"/>
    <nd ref="67152296"/>
    <nd ref="67152303"/>
    <nd ref="67152305"/>
    <nd ref="67152306"/>
    <nd ref="67152307"/>
    <nd ref="67152309"/>
    <nd ref="67152311"/>
    <nd ref="67152313"/>
    <nd ref="67152316"/>
    <nd ref="67152319"/>
    <nd ref="67152322"/>
    <nd ref="67152325"/>
    <nd ref="67152327"/>
    <nd ref="67152331"/>
    <nd ref="67152335"/>
    <nd ref="67152338"/>
    <nd ref="67152342"/>
    <nd ref="67152345"/>
    <nd ref="67152349"/>
    <nd ref="67152354"/>
    <nd ref="67152358"/>
    <nd ref="67152363"/>
    <nd ref="67152364"/>
    <nd ref="67152368"/>
    <nd ref="67152372"/>
    <nd ref="67152376"/>
    <nd ref="67152381"/>
    <nd ref="67152384"/>
    <nd ref="67152386"/>
    <nd ref="67152389"/>
    <nd ref="67152390"/>
    <nd ref="67152394"/>
    <nd ref="67152399"/>
    <nd ref="67152404"/>
    <nd ref="67152407"/>
    <nd ref="67152412"/>
    <nd ref="67152413"/>
    <nd ref="67152418"/>
    <nd ref="67152426"/>
    <nd ref="67152438"/>
    <nd ref="67152450"/>
    <nd ref="67152454"/>
    <nd ref="67152456"/>
    <nd ref="67152458"/>
    <nd ref="67152461"/>
    <nd ref="67152464"/>
    <nd ref="67152467"/>
    <nd ref="67152471"/>
    <nd ref="67152474"/>
    <nd ref="67152477"/>
    <nd ref="67152479"/>
    <nd ref="67152485"/>
    <nd ref="67152490"/>
    <nd ref="67152495"/>
    <nd ref="67152499"/>
    <nd ref="67152501"/>
    <nd ref="67152506"/>
    <nd ref="67152510"/>
    <nd ref="67152511"/>
    <nd ref="67152515"/>
    <nd ref="67152519"/>
    <nd ref="67152524"/>
    <nd ref="67152531"/>
    <nd ref="67152538"/>
    <nd ref="67152539"/>
    <nd ref="67152542"/>
    <nd ref="67152546"/>
    <nd ref="67152547"/>
    <nd ref="67152552"/>
    <nd ref="67152557"/>
    <nd ref="67152561"/>
    <nd ref="67152564"/>
    <nd ref="67152566"/>
    <nd ref="67152570"/>
    <nd ref="67152577"/>
    <nd ref="67108824"/>
    <nd ref="67108827"/>
    <tag k="created_by" v="Editop"/>
    <tag k="highway" v="motorway"/>
    <tag k="int_ref" v="E80"/>
    <tag k="oneway" v="true"/>
    <tag k="ref" v="A54"/>
  </way>
  <way id="9088765" version="3" timestamp="2007-10-17T22:35:05Z" uid="6454" user="B10xxx" changeset="233502">
    <nd ref="67152274"/>
    <nd ref="67152277"/>
    <nd ref="67152280"/>
    <nd ref="67152283"/>
    <nd ref="67152286"/>
    <nd ref="67152289"/>
    <nd ref="67152292"/>
    <nd ref="67152296"/>
    <nd ref="67152303"/>
    <nd ref="67152305"/>
    <nd ref="67152306"/>
    <nd ref="67152307"/>
    <nd ref="67152309"/>
    <nd ref="67152311"/>
    <nd ref="67152313"/>
    <nd ref="67152316"/>
    <nd ref="67152319"/>
    <nd ref="67152322"/>
    <nd ref="67152325"/>
    <nd ref="67152327"/>
    <nd ref="67152331"/>
    <nd ref="67152335"/>
    <nd ref="67152338"/>
    <nd ref="67152342"/>
    <nd ref="67152345"/>
    <nd ref="67152349"/>
    <nd ref="67152354"/>
    <nd ref="67152358"/>
    <nd ref="67152363"/>
    <nd ref="67152364"/>
    <nd ref="67152368"/>
    <nd ref="67152372"/>
    <nd ref="67152376"/>
    <nd ref="67152381"/>
    <nd ref="67152384"/>
    <nd ref="67152386"/>
    <nd ref="67152389"/>
    <nd ref="67152390"/>
    <nd ref="67152394"/>
    <nd ref="67152399"/>
    <nd ref="67152404"/>
    <nd ref="67152407"/>
    <nd ref="67152412"/>
    <nd ref="67152413"/>
    <nd ref="67152418"/>
    <nd ref="67152426"/>
    <nd ref="67152438"/>
    <nd ref="67152450"/>
    <nd ref="67152454"/>
    <nd ref="67152456"/>
    <nd ref="76950452"/>
    <nd ref="67152458"/>
    <nd ref="67152461"/>
    <nd ref="67152464"/>
    <nd ref="67152467"/>
    <nd ref="67152471"/>
    <nd ref="67152474"/>
    <nd ref="67152477"/>
    <nd ref="67152479"/>
    <nd ref="67152485"/>
    <nd ref="67152490"/>
    <nd ref="67152495"/>
    <nd ref="67152499"/>
    <nd ref="67152501"/>
    <nd ref="67152506"/>
    <nd ref="67152510"/>
    <nd ref="67152511"/>
    <nd ref="67152515"/>
    <nd ref="67152519"/>
    <nd ref="67152524"/>
    <nd ref="67152531"/>
    <nd ref="67152538"/>
    <nd ref="67152539"/>
    <nd ref="67152542"/>
    <nd ref="67152546"/>
    <nd ref="67152547"/>
    <nd ref="67152552"/>
    <nd ref="67152557"/>
    <nd ref="67152561"/>
    <nd ref="67152564"/>
    <nd ref="67152566"/>
    <nd ref="67152570"/>
    <nd ref="67152577"/>
    <nd ref="67108824"/>
    <nd ref="67108827"/>
    <tag k="created_by" v="Potlatch alpha"/>
    <tag k="highway" v="motorway"/>
    <tag k="int_ref" v="E80"/>
    <tag k="oneway" v="true"/>
    <tag k="ref" v="A54"/>
  </way>
  <way id="9088765" version="4" timestamp="2007-11-05T19:27:16Z" uid="10927" user="Skywave" changeset="412781">
    <nd ref="67152274"/>
    <nd ref="67152277"/>
    <nd ref="67152280"/>
    <nd ref="67152283"/>
    <nd ref="67152286"/>
    <nd ref="67152289"/>
    <nd ref="99194091"/>
    <tag k="created_by" v="Potlatch 0.4c"/>
    <tag k="highway" v="motorway"/>
    <tag k="int_ref" v="E80"/>
    <tag k="oneway" v="true"/>
    <tag k="ref" v="A54"/>
  </way>
  <way id="9088765" version="5" timestamp="2009-03-11T20:58:30Z" uid="85516" user="MS BOT" changeset="790284">
    <nd ref="67152274"/>
    <nd ref="67152277"/>
    <nd ref="67152280"/>
    <nd ref="67152283"/>
    <nd ref="67152286"/>
    <nd ref="67152289"/>
    <nd ref="99194091"/>
    <tag k="created_by" v="Potlatch 0.4c"/>
    <tag k="highway" v="motorway"/>
    <tag k="int_ref" v="E80"/>
    <tag k="oneway" v="true"/>
    <tag k="ref" v="A 54"/>
  </way>
  <way id="9088765" version="6" timestamp="2009-03-12T22:32:47Z" uid="19237" user="Aurelien Jacobs" changeset="798226">
    <nd ref="67152274"/>
    <nd ref="67152277"/>
    <nd ref="67152280"/>
    <nd ref="67152283"/>
    <nd ref="67152286"/>
    <nd ref="67152289"/>
    <nd ref="99194091"/>
    <tag k="created_by" v="Potlatch 0.4c"/>
    <tag k="highway" v="motorway"/>
    <tag k="int_ref" v="E80"/>
    <tag k="oneway" v="true"/>
    <tag k="ref" v="A54"/>
  </way>
  <way id="9088765" version="7" timestamp="2009-06-18T06:18:25Z" uid="37548" user="Marcussacapuces91" changeset="1551676">
    <nd ref="67152274"/>
    <nd ref="67152277"/>
    <nd ref="67152280"/>
    <nd ref="67152283"/>
    <nd ref="67152286"/>
    <nd ref="67152289"/>
    <nd ref="99194091"/>
    <tag k="created_by" v="Potlatch 0.4c"/>
    <tag k="highway" v="motorway"/>
    <tag k="int_ref" v="E 80"/>
    <tag k="oneway" v="true"/>
    <tag k="ref" v="A 54"/>
  </way>
  <way id="9088765" version="8" timestamp="2009-06-18T06:19:50Z" uid="37548" user="Marcussacapuces91" changeset="1551676">
    <nd ref="67152274"/>
    <nd ref="67152277"/>
    <nd ref="67152280"/>
    <nd ref="67152283"/>
    <nd ref="67152286"/>
    <nd ref="67152289"/>
    <nd ref="423746924"/>
    <nd ref="99194091"/>
    <tag k="created_by" v="Potlatch 0.4c"/>
    <tag k="highway" v="motorway"/>
    <tag k="int_ref" v="E 80"/>
    <tag k="oneway" v="true"/>
    <tag k="ref" v="A 54"/>
  </way>
  <way id="9088765" version="9" timestamp="2009-06-18T06:20:27Z" uid="37548" user="Marcussacapuces91" changeset="1551676">
    <nd ref="67152274"/>
    <nd ref="67152277"/>
    <nd ref="67152280"/>
    <nd ref="67152283"/>
    <nd ref="67152286"/>
    <nd ref="67152289"/>
    <nd ref="423746924"/>
    <nd ref="99194091"/>
    <tag k="created_by" v="Potlatch 0.4c"/>
    <tag k="highway" v="motorway"/>
    <tag k="int_ref" v="E 80"/>
    <tag k="oneway" v="true"/>
    <tag k="operator" v="ASF"/>
    <tag k="ref" v="A 54"/>
    <tag k="toll" v="yes"/>
  </way>
  <way id="9088765" version="10" timestamp="2009-07-09T13:26:11Z" uid="133254" user="tabltrai" changeset="1781008">
    <nd ref="67152274"/>
    <nd ref="67152277"/>
    <nd ref="67152280"/>
    <nd ref="67152283"/>
    <nd ref="67152286"/>
    <nd ref="67152289"/>
    <nd ref="423746924"/>
    <nd ref="99194091"/>
    <tag k="created_by" v="Potlatch 0.4c"/>
    <tag k="highway" v="motorway"/>
    <tag k="int_ref" v="E 80"/>
    <tag k="oneway" v="yes"/>
    <tag k="operator" v="ASF"/>
    <tag k="ref" v="A 54"/>
    <tag k="toll" v="yes"/>
  </way>
  <way id="9088765" version="11" timestamp="2012-02-28T21:16:15Z" uid="99151" user="quicky" changeset="10822869"/>
  <way id="9088769" version="2" timestamp="2007-10-20T01:03:52Z" uid="6454" user="B10xxx" changeset="260921">
    <nd ref="20931589"/>
    <nd ref="20931647"/>
    <nd ref="20931648"/>
    <nd ref="20931649"/>
    <nd ref="20931650"/>
    <nd ref="20931651"/>
    <nd ref="20931652"/>
    <nd ref="20931653"/>
    <nd ref="20931654"/>
    <nd ref="20931655"/>
    <nd ref="20931656"/>
    <nd ref="20931657"/>
    <nd ref="20931658"/>
    <nd ref="20931659"/>
    <nd ref="20931660"/>
    <nd ref="20931579"/>
    <tag k="created_by" v="Potlatch alpha"/>
    <tag k="highway" v="secondary"/>
  </way>
  <way id="9088769" version="3" timestamp="2007-12-13T21:12:49Z" uid="2488" user="Alban" changeset="287942">
    <nd ref="20931589"/>
    <nd ref="20931647"/>
    <nd ref="20931648"/>
    <nd ref="20931649"/>
    <nd ref="20931650"/>
    <nd ref="20931651"/>
    <nd ref="20931652"/>
    <nd ref="20931653"/>
    <nd ref="20931654"/>
    <nd ref="20931655"/>
    <nd ref="20931656"/>
    <nd ref="20931657"/>
    <nd ref="20931658"/>
    <nd ref="20931659"/>
    <nd ref="20931660"/>
    <nd ref="20931579"/>
    <tag k="created_by" v="Potlatch alpha"/>
    <tag k="highway" v="primary"/>
  </way>
  <way id="9088769" version="4" timestamp="2007-12-14T05:49:32Z" uid="2488" user="Alban" changeset="301597">
    <nd ref="20931589"/>
    <nd ref="20931647"/>
    <nd ref="20931648"/>
    <nd ref="20931649"/>
    <nd ref="20931650"/>
    <nd ref="20931652"/>
    <nd ref="20931654"/>
    <nd ref="20931656"/>
    <nd ref="20931658"/>
    <nd ref="20931659"/>
    <nd ref="20931660"/>
    <nd ref="20931579"/>
    <tag k="created_by" v="Potlatch alpha"/>
    <tag k="highway" v="primary"/>
    <tag k="name" v="Boulevard du Président Salavador Allende"/>
    <tag k="oneway" v="true"/>
    <tag k="ref" v="N113"/>
  </way>
  <way id="9088769" version="5" timestamp="2009-05-13T17:41:57Z" uid="83557" user="Esperanza36" changeset="1177425">
    <nd ref="20931589"/>
    <nd ref="20931647"/>
    <nd ref="20931648"/>
    <nd ref="20931649"/>
    <nd ref="20931650"/>
    <nd ref="395482550"/>
    <nd ref="20931652"/>
    <nd ref="20931654"/>
    <nd ref="20931656"/>
    <nd ref="20931658"/>
    <nd ref="20931659"/>
    <nd ref="20931660"/>
    <nd ref="20931579"/>
    <tag k="created_by" v="Potlatch alpha"/>
    <tag k="highway" v="primary"/>
    <tag k="name" v="Boulevard du Président Salavador Allende"/>
    <tag k="oneway" v="true"/>
    <tag k="ref" v="N113"/>
  </way>
  <way id="9088769" version="6" timestamp="2009-07-09T13:26:32Z" uid="133254" user="tabltrai" changeset="1781008">
    <nd ref="20931589"/>
    <nd ref="20931647"/>
    <nd ref="20931648"/>
    <nd ref="20931649"/>
    <nd ref="20931650"/>
    <nd ref="395482550"/>
    <nd ref="20931652"/>
    <nd ref="20931654"/>
    <nd ref="20931656"/>
    <nd ref="20931658"/>
    <nd ref="20931659"/>
    <nd ref="20931660"/>
    <nd ref="20931579"/>
    <tag k="created_by" v="Potlatch alpha"/>
    <tag k="highway" v="primary"/>
    <tag k="name" v="Boulevard du Président Salavador Allende"/>
    <tag k="oneway" v="yes"/>
    <tag k="ref" v="N113"/>
  </way>
  <way id="9088769" version="7" timestamp="2009-09-06T09:47:28Z" uid="145184" user="Balooval" changeset="2389008">
    <nd ref="20931589"/>
    <nd ref="20931647"/>
    <nd ref="20931648"/>
    <nd ref="20931650"/>
    <nd ref="395482550"/>
    <nd ref="20931652"/>
    <nd ref="20931654"/>
    <nd ref="20931658"/>
    <nd ref="20931659"/>
    <nd ref="20931660"/>
    <nd ref="20931579"/>
    <tag k="highway" v="primary"/>
    <tag k="name" v="Boulevard du Président Salavador Allende"/>
    <tag k="oneway" v="yes"/>
    <tag k="ref" v="N113"/>
  </way>
  <way id="9088769" version="8" timestamp="2009-12-31T17:17:25Z" uid="201149" user="PierenBot" changeset="3502496">
    <nd ref="20931589"/>
    <nd ref="20931647"/>
    <nd ref="20931648"/>
    <nd ref="20931650"/>
    <nd ref="395482550"/>
    <nd ref="20931652"/>
    <nd ref="20931654"/>
    <nd ref="20931658"/>
    <nd ref="20931659"/>
    <nd ref="20931660"/>
    <nd ref="20931579"/>
    <tag k="highway" v="primary"/>
    <tag k="name" v="Boulevard du Président Salavador Allende"/>
    <tag k="oneway" v="yes"/>
    <tag k="ref" v="N 113"/>
  </way>
  <way id="9088769" version="9" timestamp="2012-03-08T21:21:43Z" uid="145184" user="Balooval" changeset="10913919"/>
  <way id="9088778" version="4" timestamp="2007-10-22T14:14:08Z" uid="6454" user="B10xxx" changeset="285651">
    <nd ref="67108911"/>
    <nd ref="67108910"/>
    <nd ref="67108908"/>
    <nd ref="67108903"/>
    <nd ref="28870831"/>
    <nd ref="83381769"/>
    <tag k="created_by" v="Potlatch alpha"/>
    <tag k="highway" v="secondary"/>
  </way>
  <way id="9088778" version="5" timestamp="2007-12-16T08:32:18Z" uid="2488" user="Alban" changeset="327692">
    <nd ref="67108911"/>
    <nd ref="67108910"/>
    <nd ref="67108908"/>
    <nd ref="67108903"/>
    <nd ref="28870831"/>
    <nd ref="172699820"/>
    <nd ref="172699826"/>
    <nd ref="172699831"/>
    <nd ref="83381769"/>
    <tag k="created_by" v="Potlatch alpha"/>
    <tag k="highway" v="primary"/>
    <tag k="ref" v="D570"/>
  </way>
  <way id="9088778" version="6" timestamp="2008-02-09T22:39:47Z" uid="10927" user="Skywave" changeset="88621"/>
</osm>
