<?xml version='1.0' encoding='UTF-8'?>
<osm version="0.6" generator="libosmium/2.20.0">
  <way id="9114347" version="1" timestamp="2007-10-13T00:14:21Z" uid="7617" user="Franc" changeset="145818">
    <nd ref="28829863"/>
    <nd ref="28829864"/>
    <nd ref="28829865"/>
    <nd ref="28829866"/>
    <nd ref="26638243"/>
    <tag k="created_by" v="YahooApplet 1.0"/>
    <tag k="highway" v="residential"/>
    <tag k="name" v="Barnsbury Grove"/>
  </way>
  <way id="9114347" version="2" timestamp="2007-11-06T06:41:51Z" uid="7617" user="Franc" changeset="418528">
    <nd ref="28829863"/>
    <nd ref="28829864"/>
    <nd ref="28829865"/>
    <nd ref="28829866"/>
    <nd ref="26638243"/>
    <tag k="created_by" v="YahooApplet 1.0"/>
    <tag k="highway" v="residential"/>
    <tag k="name" v="Barnsbury Grove"/>
  </way>
  <way id="9114347" version="3" timestamp="2007-12-21T23:19:55Z" uid="7617" user="Franc" changeset="387092">
    <nd ref="28829863"/>
    <nd ref="181811275"/>
    <nd ref="28829864"/>
    <nd ref="28829865"/>
    <nd ref="28829866"/>
    <nd ref="26638243"/>
    <tag k="created_by" v="YahooApplet 1.0"/>
    <tag k="highway" v="residential"/>
    <tag k="name" v="Barnsbury Grove"/>
  </way>
  <way id="9114347" version="4" timestamp="2010-01-25T21:44:35Z" uid="7617" user="Franc" changeset="3715094">
    <nd ref="28829863"/>
    <nd ref="181811275"/>
    <nd ref="28829864"/>
    <nd ref="620110182"/>
    <nd ref="28829865"/>
    <nd ref="28829866"/>
    <nd ref="26638243"/>
    <tag k="highway" v="residential"/>
    <tag k="name" v="Barnsbury Grove"/>
  </way>
  <way id="9114347" version="5" timestamp="2010-02-06T07:18:25Z" uid="20949" user="Ebenezer" changeset="3802951">
    <nd ref="28829863"/>
    <nd ref="181811275"/>
    <nd ref="28829864"/>
    <nd ref="620110182"/>
    <nd ref="28829865"/>
    <nd ref="28829866"/>
    <nd ref="26638243"/>
    <tag k="highway" v="residential"/>
    <tag k="lcn" v="yes"/>
    <tag k="name" v="Barnsbury Grove"/>
  </way>
  <way id="9114347" version="6" timestamp="2010-02-15T20:54:09Z" uid="20949" user="Ebenezer" changeset="3886830">
    <nd ref="28829863"/>
    <nd ref="181811275"/>
    <nd ref="28829864"/>
    <nd ref="620110182"/>
    <nd ref="28829865"/>
    <nd ref="28829866"/>
    <nd ref="26638243"/>
    <tag k="highway" v="residential"/>
    <tag k="name" v="Barnsbury Grove"/>
  </way>
  <way id="9114347" version="7" timestamp="2010-07-08T02:12:24Z" uid="74617" user="JohnSmith" changeset="5162525">
    <nd ref="28829863"/>
    <nd ref="181811275"/>
    <nd ref="28829864"/>
    <nd ref="620110182"/>
    <nd ref="28829865"/>
    <nd ref="28829866"/>
    <nd ref="26638243"/>
    <tag k="highway" v="residential"/>
    <tag k="maxspeed" v="50"/>
    <tag k="maxspeed:source" v="default residential speed limit in Australia"/>
    <tag k="name" v="Barnsbury Grove"/>
  </way>
  <way id="9114347" version="8" timestamp="2011-04-18T13:00:39Z" uid="7617" user="Franc" changeset="7896777">
    <nd ref="28829863"/>
    <nd ref="181811275"/>
    <nd ref="28829864"/>
    <nd ref="620110182"/>
    <nd ref="28829865"/>
    <nd ref="1249870425"/>
    <nd ref="28829866"/>
    <nd ref="26638243"/>
    <tag k="highway" v="residential"/>
    <tag k="maxspeed" v="50"/>
    <tag k="maxspeed:source" v="default residential speed limit in Australia"/>
    <tag k="name" v="Barnsbury Grove"/>
  </way>
  <way id="9114347" version="9" timestamp="2012-01-15T08:14:22Z" uid="147510" user="woodpeck_fixbot" changeset="10395278">
    <nd ref="28829863"/>
    <nd ref="181811275"/>
    <nd ref="28829864"/>
    <nd ref="620110182"/>
    <nd ref="28829865"/>
    <nd ref="1249870425"/>
    <nd ref="28829866"/>
    <nd ref="26638243"/>
    <tag k="highway" v="residential"/>
    <tag k="name" v="Barnsbury Grove"/>
  </way>
  <way id="9114350" version="1" timestamp="2007-10-13T00:14:22Z" uid="7617" user="Franc" changeset="145818">
    <nd ref="67471331"/>
    <nd ref="67471404"/>
    <nd ref="67471351"/>
    <nd ref="67471451"/>
    <nd ref="67471380"/>
    <nd ref="67471474"/>
    <nd ref="67471432"/>
    <nd ref="30430767"/>
    <tag k="created_by" v="JOSM"/>
    <tag k="highway" v="residential"/>
    <tag k="name" v="Sarsfield Crescent"/>
    <tag k="source" v="survey"/>
  </way>
  <way id="9114350" version="2" timestamp="2010-01-25T22:03:11Z" uid="7617" user="Franc" changeset="3715252">
    <nd ref="67471331"/>
    <nd ref="67471404"/>
    <nd ref="620117626"/>
    <nd ref="67471351"/>
    <nd ref="620117625"/>
    <nd ref="67471451"/>
    <nd ref="67471380"/>
    <nd ref="67471474"/>
    <nd ref="30430767"/>
    <tag k="highway" v="residential"/>
    <tag k="name" v="Sarsfield Crescent"/>
    <tag k="source" v="survey"/>
  </way>
  <way id="9114350" version="3" timestamp="2010-04-26T13:34:52Z" uid="7617" user="Franc" changeset="4531986">
    <nd ref="67471331"/>
    <nd ref="707395792"/>
    <nd ref="67471404"/>
    <nd ref="620117626"/>
    <nd ref="67471351"/>
    <nd ref="620117625"/>
    <nd ref="67471451"/>
    <nd ref="67471380"/>
    <nd ref="67471474"/>
    <nd ref="30430767"/>
    <tag k="highway" v="residential"/>
    <tag k="name" v="Sarsfield Crescent"/>
    <tag k="source" v="survey"/>
  </way>
  <way id="9114350" version="4" timestamp="2010-07-08T02:07:21Z" uid="74617" user="JohnSmith" changeset="5162525">
    <nd ref="67471331"/>
    <nd ref="707395792"/>
    <nd ref="67471404"/>
    <nd ref="620117626"/>
    <nd ref="67471351"/>
    <nd ref="620117625"/>
    <nd ref="67471451"/>
    <nd ref="67471380"/>
    <nd ref="67471474"/>
    <nd ref="30430767"/>
    <tag k="highway" v="residential"/>
    <tag k="maxspeed" v="50"/>
    <tag k="maxspeed:source" v="default residential speed limit in Australia"/>
    <tag k="name" v="Sarsfield Crescent"/>
    <tag k="source" v="survey"/>
  </way>
  <way id="9114350" version="5" timestamp="2010-10-15T11:57:53Z" uid="7617" user="Franc" changeset="6048572">
    <nd ref="67471331"/>
    <nd ref="707395792"/>
    <nd ref="67471404"/>
    <nd ref="949933318"/>
    <nd ref="620117626"/>
    <nd ref="67471351"/>
    <nd ref="620117625"/>
    <nd ref="67471451"/>
    <nd ref="67471380"/>
    <nd ref="67471474"/>
    <nd ref="949931571"/>
    <nd ref="30430767"/>
    <tag k="highway" v="residential"/>
    <tag k="maxspeed" v="50"/>
    <tag k="maxspeed:source" v="default residential speed limit in Australia"/>
    <tag k="name" v="Sarsfield Crescent"/>
    <tag k="source" v="survey"/>
  </way>
  <way id="9114350" version="6" timestamp="2012-01-15T08:14:23Z" uid="147510" user="woodpeck_fixbot" changeset="10395278">
    <nd ref="67471331"/>
    <nd ref="707395792"/>
    <nd ref="67471404"/>
    <nd ref="949933318"/>
    <nd ref="620117626"/>
    <nd ref="67471351"/>
    <nd ref="620117625"/>
    <nd ref="67471451"/>
    <nd ref="67471380"/>
    <nd ref="67471474"/>
    <nd ref="949931571"/>
    <nd ref="30430767"/>
    <tag k="highway" v="residential"/>
    <tag k="name" v="Sarsfield Crescent"/>
    <tag k="source" v="survey"/>
  </way>
  <way id="9114354" version="1" timestamp="2007-10-13T00:14:23Z" uid="7617" user="Franc" changeset="145818">
    <nd ref="32888923"/>
    <nd ref="67471597"/>
    <nd ref="67471571"/>
    <nd ref="33563579"/>
    <tag k="created_by" v="JOSM"/>
    <tag k="highway" v="residential"/>
    <tag k="source" v="Yahoo Imagery"/>
  </way>
  <way id="9114354" version="2" timestamp="2007-12-21T23:19:58Z" uid="7617" user="Franc" changeset="387092">
    <nd ref="32888923"/>
    <nd ref="67471597"/>
    <nd ref="67471571"/>
    <nd ref="33563579"/>
    <tag k="created_by" v="JOSM"/>
    <tag k="highway" v="residential"/>
    <tag k="name" v="Bernard Avenue"/>
    <tag k="source" v="Yahoo Imagery"/>
  </way>
  <way id="9114354" version="3" timestamp="2010-07-08T02:08:29Z" uid="74617" user="JohnSmith" changeset="5162525">
    <nd ref="32888923"/>
    <nd ref="67471597"/>
    <nd ref="67471571"/>
    <nd ref="33563579"/>
    <tag k="highway" v="residential"/>
    <tag k="maxspeed" v="50"/>
    <tag k="maxspeed:source" v="default residential speed limit in Australia"/>
    <tag k="name" v="Bernard Avenue"/>
    <tag k="source" v="Yahoo Imagery"/>
  </way>
  <way id="9114354" version="4" timestamp="2011-06-19T08:11:25Z" uid="7617" user="Franc" changeset="8480952">
    <nd ref="32888923"/>
    <nd ref="67471597"/>
    <nd ref="67471571"/>
    <nd ref="1330460704"/>
    <nd ref="33563579"/>
    <tag k="highway" v="residential"/>
    <tag k="maxspeed" v="50"/>
    <tag k="maxspeed:source" v="default residential speed limit in Australia"/>
    <tag k="name" v="Bernard Avenue"/>
    <tag k="source" v="Yahoo Imagery"/>
  </way>
  <way id="9114354" version="5" timestamp="2012-01-15T08:14:25Z" uid="147510" user="woodpeck_fixbot" changeset="10395278">
    <nd ref="32888923"/>
    <nd ref="67471597"/>
    <nd ref="67471571"/>
    <nd ref="1330460704"/>
    <nd ref="33563579"/>
    <tag k="highway" v="residential"/>
    <tag k="name" v="Bernard Avenue"/>
    <tag k="source" v="Yahoo Imagery"/>
  </way>
  <way id="9114358" version="1" timestamp="2007-10-13T00:14:24Z" uid="7617" user="Franc" changeset="145818">
    <nd ref="33563581"/>
    <nd ref="33563582"/>
    <nd ref="33563585"/>
    <tag k="created_by" v="Potlatch alpha"/>
    <tag k="highway" v="residential"/>
    <tag k="name" v="Stotts Avenue"/>
  </way>
  <way id="9114358" version="2" timestamp="2007-10-14T00:52:38Z" uid="7617" user="Franc" changeset="165865"/>
  <way id="9114361" version="1" timestamp="2007-10-13T00:14:25Z" uid="7617" user="Franc" changeset="145818">
    <nd ref="67471786"/>
    <nd ref="28801768"/>
    <tag k="created_by" v="JOSM"/>
    <tag k="highway" v="service"/>
    <tag k="source" v="Yahoo Imagery"/>
  </way>
  <way id="9114361" version="2" timestamp="2008-01-19T22:11:57Z" uid="7617" user="Franc" changeset="666652">
    <nd ref="67471786"/>
    <nd ref="28801768"/>
    <tag k="created_by" v="JOSM"/>
    <tag k="highway" v="service"/>
    <tag k="name" v="Banks Lane"/>
    <tag k="source" v="survey"/>
  </way>
  <way id="9114361" version="3" timestamp="2010-10-15T11:58:17Z" uid="7617" user="Franc" changeset="6048572">
    <nd ref="67471786"/>
    <nd ref="949933425"/>
    <nd ref="949931861"/>
    <nd ref="28801768"/>
    <tag k="highway" v="service"/>
    <tag k="name" v="Banks Lane"/>
    <tag k="source" v="survey"/>
  </way>
  <way id="9114880" version="7" timestamp="2010-04-02T18:46:22Z" uid="20587" user="balrog-kun" changeset="4304484">
    <nd ref="53178594"/>
    <nd ref="67507559"/>
    <nd ref="431781850"/>
    <nd ref="67507523"/>
    <nd ref="53253646"/>
    <nd ref="67507518"/>
    <nd ref="53250823"/>
    <nd ref="67477686"/>
    <nd ref="53147243"/>
    <nd ref="67477680"/>
    <nd ref="334332144"/>
    <nd ref="53242736"/>
    <nd ref="67477697"/>
    <tag k="highway" v="residential"/>
    <tag k="name" v="North 70th Street"/>
    <tag k="tiger:cfcc" v="A41"/>
    <tag k="tiger:county" v="King, WA"/>
    <tag k="tiger:name_base" v="70th"/>
    <tag k="tiger:name_direction_prefix" v="N"/>
    <tag k="tiger:name_type" v="St"/>
    <tag k="tiger:reviewed" v="no"/>
    <tag k="tiger:separated" v="no"/>
    <tag k="tiger:source" v="tiger_import_dch_v0.6_20070830"/>
    <tag k="tiger:tlid" v="186579589:186579593:186579595:186579458:186579460:186579469:186579473:186579501"/>
    <tag k="tiger:zip_left" v="98103"/>
    <tag k="tiger:zip_right" v="98103"/>
  </way>
</osm>
