<?xml version='1.0' encoding='UTF-8'?>
<osm version="0.6" generator="libosmium/2.20.0">
  <way id="91286247" version="1" timestamp="2010-12-23T18:17:55Z" uid="49111" user="Markus B" changeset="6748177">
    <nd ref="1059846933"/>
    <nd ref="1059846923"/>
    <nd ref="1059846934"/>
    <nd ref="382147199"/>
    <nd ref="382147201"/>
    <nd ref="382147203"/>
    <nd ref="1059846933"/>
    <tag k="addr:city" v="Nürnberg"/>
    <tag k="addr:housenumber" v="46"/>
    <tag k="addr:postcode" v="90429"/>
    <tag k="addr:street" v="Kernstraße"/>
    <tag k="amenity" v="restaurant"/>
    <tag k="building" v="yes"/>
    <tag k="drink:club-mate" v="yes"/>
    <tag k="internet_access" v="WLAN"/>
    <tag k="name" v="Palais Schaumburg"/>
    <tag k="phone" v="+49 911 260043"/>
    <tag k="smoking" v="no"/>
    <tag k="source" v="Yahoo"/>
    <tag k="website" v="http://palaisschaumburg.de"/>
  </way>
  <way id="91286247" version="2" timestamp="2011-03-01T19:25:07Z" uid="224440" user="Syl" changeset="7431711">
    <nd ref="1059846933"/>
    <nd ref="1059846923"/>
    <nd ref="1059846934"/>
    <nd ref="382147199"/>
    <nd ref="382147201"/>
    <nd ref="382147203"/>
    <nd ref="1059846933"/>
    <tag k="addr:city" v="Nürnberg"/>
    <tag k="addr:housenumber" v="46"/>
    <tag k="addr:postcode" v="90429"/>
    <tag k="addr:street" v="Kernstraße"/>
    <tag k="amenity" v="restaurant"/>
    <tag k="building" v="yes"/>
    <tag k="drink:club-mate" v="yes"/>
    <tag k="internet_access" v="wlan"/>
    <tag k="name" v="Palais Schaumburg"/>
    <tag k="phone" v="+49 911 260043"/>
    <tag k="smoking" v="no"/>
    <tag k="source" v="Yahoo"/>
    <tag k="website" v="http://palaisschaumburg.de"/>
  </way>
  <way id="91286247" version="3" timestamp="2011-12-03T19:11:09Z" uid="71557" user="Taroc" changeset="10027511"/>
  <way id="91286250" version="1" timestamp="2010-12-23T18:17:56Z" uid="49111" user="Markus B" changeset="6748177">
    <nd ref="1059846930"/>
    <nd ref="1059846937"/>
    <nd ref="1059846927"/>
    <nd ref="1059846967"/>
    <nd ref="1059846930"/>
    <tag k="amenity" v="biergarten"/>
  </way>
  <way id="91286250" version="2" timestamp="2011-12-03T19:11:11Z" uid="71557" user="Taroc" changeset="10027511"/>
</osm>
