<?xml version='1.0' encoding='UTF-8'?>
<osm version="0.6" generator="libosmium/2.20.0">
  <way id="9132019" version="4" timestamp="2010-10-15T06:06:36Z" uid="4467" user="Rosscoe" changeset="6046373">
    <nd ref="67698776"/>
    <nd ref="67698253"/>
    <tag k="highway" v="service"/>
  </way>
  <way id="9132302" version="4" timestamp="2010-07-09T02:58:04Z" uid="74617" user="JohnSmith" changeset="5170739">
    <nd ref="67702563"/>
    <nd ref="67702564"/>
    <tag k="highway" v="residential"/>
    <tag k="maxspeed" v="50"/>
    <tag k="maxspeed:source" v="default residential speed limit in Australia"/>
    <tag k="name" v="Belmont Road"/>
  </way>
  <way id="9132302" version="5" timestamp="2012-01-15T08:15:17Z" uid="147510" user="woodpeck_fixbot" changeset="10395278">
    <nd ref="67702563"/>
    <nd ref="67702564"/>
    <tag k="highway" v="residential"/>
    <tag k="name" v="Belmont Road"/>
  </way>
  <way id="9132406" version="3" timestamp="2010-07-09T02:54:59Z" uid="74617" user="JohnSmith" changeset="5170739">
    <nd ref="506119056"/>
    <nd ref="506119050"/>
    <tag k="highway" v="residential"/>
    <tag k="maxspeed" v="50"/>
    <tag k="maxspeed:source" v="default residential speed limit in Australia"/>
    <tag k="name" v="Chinnock Lane"/>
    <tag k="source" v="Yahoo"/>
    <tag k="source:name" v="photo"/>
  </way>
  <way id="9132406" version="4" timestamp="2012-01-15T08:15:18Z" uid="147510" user="woodpeck_fixbot" changeset="10395278">
    <nd ref="506119056"/>
    <nd ref="506119050"/>
    <tag k="highway" v="residential"/>
    <tag k="name" v="Chinnock Lane"/>
    <tag k="source" v="Yahoo"/>
    <tag k="source:name" v="photo"/>
  </way>
  <way id="9132430" version="5" timestamp="2010-07-09T02:59:08Z" uid="74617" user="JohnSmith" changeset="5170739">
    <nd ref="67710315"/>
    <nd ref="67704511"/>
    <nd ref="67704512"/>
    <nd ref="67709507"/>
    <tag k="highway" v="residential"/>
    <tag k="maxspeed" v="50"/>
    <tag k="maxspeed:source" v="default residential speed limit in Australia"/>
    <tag k="name" v="Gardner Lane"/>
    <tag k="source" v="Yahoo"/>
    <tag k="source:name" v="photo"/>
  </way>
  <way id="9132430" version="6" timestamp="2012-01-15T08:15:19Z" uid="147510" user="woodpeck_fixbot" changeset="10395278">
    <nd ref="67710315"/>
    <nd ref="67704511"/>
    <nd ref="67704512"/>
    <nd ref="67709507"/>
    <tag k="highway" v="residential"/>
    <tag k="name" v="Gardner Lane"/>
    <tag k="source" v="Yahoo"/>
    <tag k="source:name" v="photo"/>
  </way>
  <way id="9132620" version="9" timestamp="2010-07-09T03:01:22Z" uid="74617" user="JohnSmith" changeset="5170739">
    <nd ref="67710024"/>
    <nd ref="506119094"/>
    <nd ref="67709749"/>
    <nd ref="67709507"/>
    <nd ref="67707489"/>
    <tag k="highway" v="residential"/>
    <tag k="maxspeed" v="50"/>
    <tag k="maxspeed:source" v="default residential speed limit in Australia"/>
    <tag k="name" v="Woodruff Street"/>
  </way>
  <way id="9132620" version="10" timestamp="2012-01-15T08:15:21Z" uid="147510" user="woodpeck_fixbot" changeset="10395278">
    <nd ref="67710024"/>
    <nd ref="506119094"/>
    <nd ref="67709749"/>
    <nd ref="67709507"/>
    <nd ref="67707489"/>
    <tag k="highway" v="residential"/>
    <tag k="name" v="Woodruff Street"/>
  </way>
  <way id="9132654" version="5" timestamp="2010-07-09T02:57:47Z" uid="74617" user="JohnSmith" changeset="5170739">
    <nd ref="506119094"/>
    <nd ref="506119095"/>
    <tag k="highway" v="residential"/>
    <tag k="maxspeed" v="50"/>
    <tag k="maxspeed:source" v="default residential speed limit in Australia"/>
    <tag k="name" v="Rogan Lane"/>
    <tag k="source" v="survey"/>
    <tag k="source:name" v="photo"/>
  </way>
  <way id="9132654" version="6" timestamp="2012-01-15T08:15:22Z" uid="147510" user="woodpeck_fixbot" changeset="10395278">
    <nd ref="506119094"/>
    <nd ref="506119095"/>
    <tag k="highway" v="residential"/>
    <tag k="name" v="Rogan Lane"/>
    <tag k="source" v="survey"/>
    <tag k="source:name" v="photo"/>
  </way>
</osm>
