<?xml version='1.0' encoding='UTF-8'?>
<osm version="0.6" generator="libosmium/2.20.0">
  <way id="9141226" version="9" timestamp="2010-07-09T02:55:11Z" uid="74617" user="JohnSmith" changeset="5170739">
    <nd ref="67816409"/>
    <nd ref="67816410"/>
    <tag k="highway" v="residential"/>
    <tag k="maxspeed" v="50"/>
    <tag k="maxspeed:source" v="default residential speed limit in Australia"/>
    <tag k="name" v="Youlden Street"/>
  </way>
  <way id="9141226" version="10" timestamp="2012-01-02T08:37:18Z" uid="320632" user="Zulu99" changeset="10268423">
    <nd ref="67816409"/>
    <nd ref="1573773308"/>
    <nd ref="67816410"/>
    <tag k="highway" v="residential"/>
    <tag k="maxspeed" v="50"/>
    <tag k="maxspeed:source" v="default residential speed limit in Australia"/>
    <tag k="name" v="Youlden Street"/>
  </way>
  <way id="9141226" version="11" timestamp="2012-01-15T08:16:26Z" uid="147510" user="woodpeck_fixbot" changeset="10395278">
    <nd ref="67816409"/>
    <nd ref="1573773308"/>
    <nd ref="67816410"/>
    <tag k="highway" v="residential"/>
    <tag k="name" v="Youlden Street"/>
  </way>
  <way id="9141256" version="6" timestamp="2010-07-09T02:58:33Z" uid="74617" user="JohnSmith" changeset="5170739">
    <nd ref="67816837"/>
    <nd ref="67816838"/>
    <nd ref="67816839"/>
    <nd ref="67816842"/>
    <nd ref="67819304"/>
    <tag k="highway" v="residential"/>
    <tag k="maxspeed" v="50"/>
    <tag k="maxspeed:source" v="default residential speed limit in Australia"/>
    <tag k="name" v="Kett Place"/>
  </way>
  <way id="9141256" version="7" timestamp="2012-01-15T08:16:28Z" uid="147510" user="woodpeck_fixbot" changeset="10395278">
    <nd ref="67816837"/>
    <nd ref="67816838"/>
    <nd ref="67816839"/>
    <nd ref="67816842"/>
    <nd ref="67819304"/>
    <tag k="highway" v="residential"/>
    <tag k="name" v="Kett Place"/>
  </way>
  <way id="9141288" version="10" timestamp="2010-07-09T03:00:49Z" uid="74617" user="JohnSmith" changeset="5170739">
    <nd ref="67818237"/>
    <nd ref="249914566"/>
    <nd ref="249912017"/>
    <nd ref="67819304"/>
    <tag k="highway" v="residential"/>
    <tag k="maxspeed" v="50"/>
    <tag k="maxspeed:source" v="default residential speed limit in Australia"/>
    <tag k="name" v="Siberia Lane"/>
  </way>
  <way id="9141288" version="11" timestamp="2012-01-15T08:16:29Z" uid="147510" user="woodpeck_fixbot" changeset="10395278">
    <nd ref="67818237"/>
    <nd ref="249914566"/>
    <nd ref="249912017"/>
    <nd ref="67819304"/>
    <tag k="highway" v="residential"/>
    <tag k="name" v="Siberia Lane"/>
  </way>
  <way id="9141339" version="10" timestamp="2010-07-09T02:56:34Z" uid="74617" user="JohnSmith" changeset="5170739">
    <nd ref="67819045"/>
    <nd ref="249912193"/>
    <nd ref="67818631"/>
    <nd ref="249914567"/>
    <nd ref="67818633"/>
    <nd ref="67818235"/>
    <tag k="highway" v="residential"/>
    <tag k="maxspeed" v="50"/>
    <tag k="maxspeed:source" v="default residential speed limit in Australia"/>
    <tag k="name" v="Export Lane"/>
  </way>
  <way id="9141339" version="11" timestamp="2010-10-15T07:26:25Z" uid="4467" user="Rosscoe" changeset="6046725">
    <nd ref="67819045"/>
    <nd ref="249912193"/>
    <nd ref="249914567"/>
    <nd ref="67818633"/>
    <nd ref="67818235"/>
    <tag k="highway" v="residential"/>
    <tag k="maxspeed" v="50"/>
    <tag k="maxspeed:source" v="default residential speed limit in Australia"/>
    <tag k="name" v="Export Lane"/>
  </way>
  <way id="9141339" version="12" timestamp="2012-01-15T08:16:32Z" uid="147510" user="woodpeck_fixbot" changeset="10395278">
    <nd ref="67819045"/>
    <nd ref="249912193"/>
    <nd ref="249914567"/>
    <nd ref="67818633"/>
    <nd ref="67818235"/>
    <tag k="highway" v="residential"/>
    <tag k="name" v="Export Lane"/>
  </way>
  <way id="9141462" version="8" timestamp="2010-06-02T02:03:14Z" uid="4467" user="Rosscoe" changeset="4880127"/>
  <way id="9141477" version="5" timestamp="2010-07-09T03:00:57Z" uid="74617" user="JohnSmith" changeset="5170739">
    <nd ref="67820946"/>
    <nd ref="67824200"/>
    <tag k="highway" v="residential"/>
    <tag k="maxspeed" v="50"/>
    <tag k="maxspeed:source" v="default residential speed limit in Australia"/>
    <tag k="name" v="Serong Street"/>
    <tag k="source" v="Yahoo"/>
    <tag k="source:name" v="photo"/>
  </way>
  <way id="9141477" version="6" timestamp="2010-10-11T05:37:41Z" uid="4467" user="Rosscoe" changeset="6008602">
    <nd ref="67820946"/>
    <nd ref="944833257"/>
    <tag k="highway" v="residential"/>
    <tag k="maxspeed" v="50"/>
    <tag k="maxspeed:source" v="default residential speed limit in Australia"/>
    <tag k="name" v="Serong Street"/>
    <tag k="source" v="Yahoo"/>
    <tag k="source:name" v="photo"/>
  </way>
  <way id="9141477" version="7" timestamp="2010-10-26T01:56:30Z" uid="4467" user="Rosscoe" changeset="6178718">
    <nd ref="67820946"/>
    <nd ref="944833257"/>
    <tag k="highway" v="residential"/>
    <tag k="maxspeed" v="50"/>
    <tag k="name" v="Serong Street"/>
    <tag k="source" v="Yahoo"/>
    <tag k="source:maxspeed" v="default residential speed limit in Australia"/>
    <tag k="source:name" v="photo"/>
  </way>
  <way id="9141477" version="8" timestamp="2012-01-15T08:16:33Z" uid="147510" user="woodpeck_fixbot" changeset="10395278">
    <nd ref="67820946"/>
    <nd ref="944833257"/>
    <tag k="highway" v="residential"/>
    <tag k="name" v="Serong Street"/>
    <tag k="source" v="Yahoo"/>
    <tag k="source:maxspeed" v="default residential speed limit in Australia"/>
    <tag k="source:name" v="photo"/>
  </way>
  <way id="9141493" version="6" timestamp="2010-07-09T02:57:06Z" uid="74617" user="JohnSmith" changeset="5170739">
    <nd ref="67821132"/>
    <nd ref="67822112"/>
    <tag k="highway" v="residential"/>
    <tag k="maxspeed" v="50"/>
    <tag k="maxspeed:source" v="default residential speed limit in Australia"/>
    <tag k="name" v="Bradfield Lane"/>
    <tag k="source" v="Yahoo"/>
    <tag k="source:name" v="photo"/>
  </way>
  <way id="9141493" version="7" timestamp="2010-10-26T01:56:12Z" uid="4467" user="Rosscoe" changeset="6178718">
    <nd ref="67821132"/>
    <nd ref="67822112"/>
    <tag k="highway" v="residential"/>
    <tag k="maxspeed" v="50"/>
    <tag k="name" v="Bradfield Lane"/>
    <tag k="source" v="Yahoo"/>
    <tag k="source:maxspeed" v="default residential speed limit in Australia"/>
    <tag k="source:name" v="photo"/>
  </way>
  <way id="9141493" version="8" timestamp="2012-01-15T08:16:34Z" uid="147510" user="woodpeck_fixbot" changeset="10395278">
    <nd ref="67821132"/>
    <nd ref="67822112"/>
    <tag k="highway" v="residential"/>
    <tag k="name" v="Bradfield Lane"/>
    <tag k="source" v="Yahoo"/>
    <tag k="source:maxspeed" v="default residential speed limit in Australia"/>
    <tag k="source:name" v="photo"/>
  </way>
  <way id="9141558" version="11" timestamp="2010-07-09T02:54:30Z" uid="74617" user="JohnSmith" changeset="5170739">
    <nd ref="67823322"/>
    <nd ref="67822572"/>
    <nd ref="67825963"/>
    <nd ref="67822573"/>
    <nd ref="67823818"/>
    <nd ref="493879125"/>
    <nd ref="67822574"/>
    <nd ref="67824200"/>
    <tag k="highway" v="residential"/>
    <tag k="maxspeed" v="50"/>
    <tag k="maxspeed:source" v="default residential speed limit in Australia"/>
    <tag k="name" v="Bendall Street"/>
    <tag k="source" v="yahoo"/>
    <tag k="source:name" v="survey"/>
  </way>
  <way id="9141558" version="12" timestamp="2010-10-11T05:37:35Z" uid="4467" user="Rosscoe" changeset="6008602">
    <nd ref="67823322"/>
    <nd ref="67822572"/>
    <nd ref="67825963"/>
    <nd ref="67822573"/>
    <nd ref="67823818"/>
    <nd ref="493879125"/>
    <nd ref="67824200"/>
    <tag k="highway" v="residential"/>
    <tag k="maxspeed" v="50"/>
    <tag k="maxspeed:source" v="default residential speed limit in Australia"/>
    <tag k="name" v="Bendall Street"/>
    <tag k="source" v="yahoo"/>
    <tag k="source:name" v="survey"/>
  </way>
  <way id="9141558" version="13" timestamp="2012-01-15T08:16:35Z" uid="147510" user="woodpeck_fixbot" changeset="10395278">
    <nd ref="67823322"/>
    <nd ref="67822572"/>
    <nd ref="67825963"/>
    <nd ref="67822573"/>
    <nd ref="67823818"/>
    <nd ref="493879125"/>
    <nd ref="67824200"/>
    <tag k="highway" v="residential"/>
    <tag k="name" v="Bendall Street"/>
    <tag k="source" v="yahoo"/>
    <tag k="source:name" v="survey"/>
  </way>
  <way id="9141608" version="6" timestamp="2010-07-09T02:58:11Z" uid="74617" user="JohnSmith" changeset="5170739">
    <nd ref="67823109"/>
    <nd ref="67823401"/>
    <nd ref="67823818"/>
    <tag k="highway" v="residential"/>
    <tag k="maxspeed" v="50"/>
    <tag k="maxspeed:source" v="default residential speed limit in Australia"/>
    <tag k="name" v="The Lairidge"/>
    <tag k="source" v="Yahoo"/>
    <tag k="source:name" v="photo"/>
  </way>
  <way id="9141608" version="7" timestamp="2012-01-15T08:16:37Z" uid="147510" user="woodpeck_fixbot" changeset="10395278">
    <nd ref="67823109"/>
    <nd ref="67823401"/>
    <nd ref="67823818"/>
    <tag k="highway" v="residential"/>
    <tag k="name" v="The Lairidge"/>
    <tag k="source" v="Yahoo"/>
    <tag k="source:name" v="photo"/>
  </way>
  <way id="9141756" version="4" timestamp="2010-07-09T02:53:32Z" uid="74617" user="JohnSmith" changeset="5170739">
    <nd ref="493879125"/>
    <nd ref="67825957"/>
    <nd ref="67825958"/>
    <nd ref="67825963"/>
    <tag k="highway" v="residential"/>
    <tag k="maxspeed" v="50"/>
    <tag k="maxspeed:source" v="default residential speed limit in Australia"/>
    <tag k="name" v="Little Bendall Street"/>
    <tag k="source" v="Yahoo"/>
    <tag k="source:name" v="photo"/>
  </way>
  <way id="9141756" version="5" timestamp="2012-01-15T08:16:38Z" uid="147510" user="woodpeck_fixbot" changeset="10395278">
    <nd ref="493879125"/>
    <nd ref="67825957"/>
    <nd ref="67825958"/>
    <nd ref="67825963"/>
    <tag k="highway" v="residential"/>
    <tag k="name" v="Little Bendall Street"/>
    <tag k="source" v="Yahoo"/>
    <tag k="source:name" v="photo"/>
  </way>
  <way id="9141883" version="4" timestamp="2010-10-11T05:37:35Z" uid="4467" user="Rosscoe" changeset="6008602">
    <nd ref="661600870"/>
    <nd ref="661600873"/>
    <nd ref="661600875"/>
    <nd ref="661600878"/>
    <nd ref="67828148"/>
    <nd ref="67828150"/>
    <nd ref="67828151"/>
    <nd ref="253768018"/>
    <nd ref="253768008"/>
    <tag k="highway" v="service"/>
  </way>
  <way id="9141946" version="3" timestamp="2008-09-30T21:07:45Z" uid="1066" user="pavel" changeset="721761">
    <nd ref="7294734"/>
    <nd ref="67829254"/>
    <tag k="highway" v="residential"/>
    <tag k="name" v="Valentova"/>
    <tag k="name:source" v="nameit/uir-adr"/>
  </way>
  <way id="9141946" version="4" timestamp="2009-03-14T12:04:32Z" uid="3516" user="BiIbo" changeset="804731">
    <nd ref="7294734"/>
    <nd ref="67829254"/>
    <tag k="highway" v="residential"/>
    <tag k="name" v="Valentova"/>
    <tag k="source:name" v="nameit/uir-adr"/>
  </way>
  <way id="9141946" version="5" timestamp="2011-02-07T15:09:46Z" uid="3516" user="BiIbo" changeset="7215631">
    <nd ref="7294734"/>
    <nd ref="1140887282"/>
    <nd ref="1140887283"/>
    <nd ref="67829254"/>
    <tag k="highway" v="residential"/>
    <tag k="name" v="Valentova"/>
    <tag k="source:name" v="nameit/uir-adr"/>
  </way>
  <way id="9141946" version="6" timestamp="2011-07-08T15:46:46Z" uid="13114" user="nijel" changeset="8667340">
    <nd ref="7294734"/>
    <nd ref="1140887282"/>
    <nd ref="1353938590"/>
    <nd ref="1353938588"/>
    <nd ref="1353938596"/>
    <nd ref="1140887283"/>
    <nd ref="67829254"/>
    <tag k="highway" v="residential"/>
    <tag k="name" v="Valentova"/>
    <tag k="source:name" v="nameit/uir-adr"/>
  </way>
</osm>
