<?xml version='1.0' encoding='UTF-8'?>
<osm version="0.6" generator="libosmium/2.20.0">
  <way id="9146073" version="6" timestamp="2010-07-09T02:57:50Z" uid="74617" user="JohnSmith" changeset="5170739">
    <nd ref="67880796"/>
    <nd ref="67880919"/>
    <tag k="highway" v="residential"/>
    <tag k="maxspeed" v="50"/>
    <tag k="maxspeed:source" v="default residential speed limit in Australia"/>
    <tag k="name" v="Murray Street"/>
    <tag k="source" v="yahoo"/>
    <tag k="source:name" v="survey"/>
  </way>
  <way id="9146073" version="7" timestamp="2010-10-13T10:46:58Z" uid="4467" user="Rosscoe" changeset="6028045">
    <nd ref="67880796"/>
    <nd ref="67880919"/>
    <tag k="highway" v="residential"/>
    <tag k="maxspeed" v="50"/>
    <tag k="name" v="Murray Street"/>
    <tag k="source" v="yahoo"/>
    <tag k="source:maxspeed" v="default residential speed limit in Australia"/>
    <tag k="source:name" v="survey"/>
  </way>
  <way id="9146073" version="8" timestamp="2012-01-15T08:16:45Z" uid="147510" user="woodpeck_fixbot" changeset="10395278">
    <nd ref="67880796"/>
    <nd ref="67880919"/>
    <tag k="highway" v="residential"/>
    <tag k="name" v="Murray Street"/>
    <tag k="source" v="yahoo"/>
    <tag k="source:maxspeed" v="default residential speed limit in Australia"/>
    <tag k="source:name" v="survey"/>
  </way>
  <way id="9146100" version="21" timestamp="2010-07-09T02:59:32Z" uid="74617" user="JohnSmith" changeset="5170739">
    <nd ref="67880868"/>
    <nd ref="67880796"/>
    <nd ref="67909395"/>
    <nd ref="67880369"/>
    <nd ref="67909738"/>
    <nd ref="67880196"/>
    <tag k="highway" v="residential"/>
    <tag k="maxspeed" v="50"/>
    <tag k="maxspeed:source" v="default residential speed limit in Australia"/>
    <tag k="name" v="Hutcheson Street"/>
    <tag k="source:name" v="Collins 1936"/>
  </way>
  <way id="9146100" version="22" timestamp="2010-10-13T10:46:36Z" uid="4467" user="Rosscoe" changeset="6028045">
    <nd ref="67880868"/>
    <nd ref="67880796"/>
    <nd ref="67909395"/>
    <nd ref="67880369"/>
    <nd ref="67909738"/>
    <nd ref="67880196"/>
    <tag k="highway" v="residential"/>
    <tag k="maxspeed" v="50"/>
    <tag k="name" v="Hutcheson Street"/>
    <tag k="source:maxspeed" v="default residential speed limit in Australia"/>
    <tag k="source:name" v="Collins 1936"/>
  </way>
  <way id="9146100" version="23" timestamp="2010-10-21T02:31:09Z" uid="4467" user="Rosscoe" changeset="6121102">
    <nd ref="67880868"/>
    <nd ref="67880796"/>
    <nd ref="67909395"/>
    <nd ref="959091004"/>
    <nd ref="959091011"/>
    <nd ref="67880369"/>
    <nd ref="67909738"/>
    <nd ref="67880196"/>
    <tag k="highway" v="residential"/>
    <tag k="maxspeed" v="50"/>
    <tag k="name" v="Hutcheson Street"/>
    <tag k="source:maxspeed" v="default residential speed limit in Australia"/>
    <tag k="source:name" v="Collins 1936"/>
  </way>
  <way id="9146100" version="24" timestamp="2012-01-15T08:16:46Z" uid="147510" user="woodpeck_fixbot" changeset="10395278">
    <nd ref="67880868"/>
    <nd ref="67880796"/>
    <nd ref="67909395"/>
    <nd ref="959091004"/>
    <nd ref="959091011"/>
    <nd ref="67880369"/>
    <nd ref="67909738"/>
    <nd ref="67880196"/>
    <tag k="highway" v="residential"/>
    <tag k="name" v="Hutcheson Street"/>
    <tag k="source:maxspeed" v="default residential speed limit in Australia"/>
    <tag k="source:name" v="Collins 1936"/>
  </way>
  <way id="9146138" version="5" timestamp="2009-06-26T17:27:59Z" uid="23543" user="jkjk" changeset="1643052">
    <nd ref="67879155"/>
    <nd ref="67879159"/>
    <nd ref="67879162"/>
    <tag k="highway" v="tertiary"/>
    <tag k="junction" v="roundabout"/>
  </way>
  <way id="9146138" version="6" timestamp="2010-09-02T12:01:40Z" uid="102554" user="Jezevec" changeset="5661708"/>
  <way id="9146168" version="11" timestamp="2010-07-09T02:53:13Z" uid="74617" user="JohnSmith" changeset="5170739">
    <nd ref="67880369"/>
    <nd ref="67925146"/>
    <nd ref="444592787"/>
    <nd ref="67881882"/>
    <tag k="highway" v="residential"/>
    <tag k="maxspeed" v="50"/>
    <tag k="maxspeed:source" v="default residential speed limit in Australia"/>
    <tag k="name" v="Lethbridge Street"/>
    <tag k="oneway" v="yes"/>
    <tag k="source" v="yahoo"/>
    <tag k="source:name" v="survey"/>
  </way>
  <way id="9146168" version="12" timestamp="2012-01-15T08:16:47Z" uid="147510" user="woodpeck_fixbot" changeset="10395278">
    <nd ref="67880369"/>
    <nd ref="67925146"/>
    <nd ref="444592787"/>
    <nd ref="67881882"/>
    <tag k="highway" v="residential"/>
    <tag k="name" v="Lethbridge Street"/>
    <tag k="oneway" v="yes"/>
    <tag k="source" v="yahoo"/>
    <tag k="source:name" v="survey"/>
  </way>
  <way id="9146674" version="8" timestamp="2010-07-09T02:59:04Z" uid="74617" user="JohnSmith" changeset="5170739">
    <nd ref="67882404"/>
    <nd ref="67899847"/>
    <nd ref="67924364"/>
    <nd ref="67898650"/>
    <nd ref="67898652"/>
    <tag k="highway" v="residential"/>
    <tag k="maxspeed" v="50"/>
    <tag k="maxspeed:source" v="default residential speed limit in Australia"/>
    <tag k="name" v="Robinson Street"/>
    <tag k="source" v="Yahoo"/>
    <tag k="source:name" v="Collins 1936"/>
  </way>
  <way id="9146674" version="9" timestamp="2012-01-15T08:16:49Z" uid="147510" user="woodpeck_fixbot" changeset="10395278">
    <nd ref="67882404"/>
    <nd ref="67899847"/>
    <nd ref="67924364"/>
    <nd ref="67898650"/>
    <nd ref="67898652"/>
    <tag k="highway" v="residential"/>
    <tag k="name" v="Robinson Street"/>
    <tag k="source" v="Yahoo"/>
    <tag k="source:name" v="Collins 1936"/>
  </way>
  <way id="9146830" version="8" timestamp="2010-07-09T03:02:25Z" uid="74617" user="JohnSmith" changeset="5170739">
    <nd ref="67899847"/>
    <nd ref="67923695"/>
    <nd ref="67899849"/>
    <nd ref="67899860"/>
    <tag k="highway" v="residential"/>
    <tag k="maxspeed" v="50"/>
    <tag k="maxspeed:source" v="default residential speed limit in Australia"/>
    <tag k="name" v="Blair Street"/>
    <tag k="source" v="Yahoo"/>
    <tag k="source:name" v="survey"/>
  </way>
  <way id="9146830" version="9" timestamp="2012-01-15T08:16:50Z" uid="147510" user="woodpeck_fixbot" changeset="10395278">
    <nd ref="67899847"/>
    <nd ref="67923695"/>
    <nd ref="67899849"/>
    <nd ref="67899860"/>
    <tag k="highway" v="residential"/>
    <tag k="name" v="Blair Street"/>
    <tag k="source" v="Yahoo"/>
    <tag k="source:name" v="survey"/>
  </way>
  <way id="9146834" version="5" timestamp="2010-07-09T03:02:56Z" uid="74617" user="JohnSmith" changeset="5170739">
    <nd ref="67884881"/>
    <nd ref="67909395"/>
    <tag k="highway" v="residential"/>
    <tag k="maxspeed" v="50"/>
    <tag k="maxspeed:source" v="default residential speed limit in Australia"/>
    <tag k="name" v="Heritage Street"/>
    <tag k="source:name" v="Collins 1936"/>
  </way>
  <way id="9146834" version="6" timestamp="2012-01-15T08:16:52Z" uid="147510" user="woodpeck_fixbot" changeset="10395278">
    <nd ref="67884881"/>
    <nd ref="67909395"/>
    <tag k="highway" v="residential"/>
    <tag k="name" v="Heritage Street"/>
    <tag k="source:name" v="Collins 1936"/>
  </way>
</osm>
