<?xml version='1.0' encoding='UTF-8'?>
<osm version="0.6" generator="libosmium/2.20.0">
  <way id="91611940" version="1" timestamp="2010-12-25T18:07:42Z" uid="49111" user="Markus B" changeset="6762886">
    <nd ref="1064433379"/>
    <nd ref="1064433376"/>
    <tag k="layer" v="-1"/>
    <tag k="location" v="underground"/>
    <tag k="man_made" v="pipeline"/>
    <tag k="name" v="Rohrleitung Oberer See - Happurger See Pumpspeicherwerk"/>
  </way>
  <way id="91611940" version="2" timestamp="2010-12-26T08:26:45Z" uid="49111" user="Markus B" changeset="6765859">
    <nd ref="1064433379"/>
    <nd ref="1064433376"/>
    <tag k="location" v="underground"/>
    <tag k="man_made" v="pipeline"/>
    <tag k="name" v="Rohrleitung Oberer See - Happurger See Pumpspeicherwerk"/>
  </way>
  <way id="91611942" version="1" timestamp="2010-12-25T18:07:42Z" uid="49111" user="Markus B" changeset="6762886">
    <nd ref="35210004"/>
    <nd ref="358432780"/>
    <nd ref="358432779"/>
    <nd ref="1064433376"/>
    <nd ref="1064433361"/>
    <nd ref="358432778"/>
    <nd ref="35210005"/>
    <tag k="barrier" v="wall"/>
  </way>
  <way id="91611944" version="1" timestamp="2010-12-25T18:07:43Z" uid="49111" user="Markus B" changeset="6762886">
    <nd ref="1064433360"/>
    <nd ref="1064433373"/>
    <tag k="location" v="overground"/>
    <tag k="man_made" v="pipeline"/>
    <tag k="name" v="Rohrleitung Oberer See - Happurger See Pumpspeicherwerk"/>
  </way>
  <way id="91611946" version="1" timestamp="2010-12-25T18:07:43Z" uid="49111" user="Markus B" changeset="6762886">
    <nd ref="1064433359"/>
    <nd ref="1064433379"/>
    <tag k="location" v="overground"/>
    <tag k="man_made" v="pipeline"/>
    <tag k="name" v="Rohrleitung Oberer See - Happurger See Pumpspeicherwerk"/>
  </way>
  <way id="91611947" version="1" timestamp="2010-12-25T18:07:43Z" uid="49111" user="Markus B" changeset="6762886">
    <nd ref="1064433373"/>
    <nd ref="358433369"/>
    <tag k="layer" v="-1"/>
    <tag k="location" v="underground"/>
    <tag k="man_made" v="pipeline"/>
    <tag k="name" v="Rohrleitung Oberer See - Happurger See Pumpspeicherwerk"/>
  </way>
</osm>
