<?xml version='1.0' encoding='UTF-8'?>
<osm version="0.6" generator="libosmium/2.20.0">
  <way id="92145352" version="1" timestamp="2010-12-28T21:39:14Z" uid="6269" user="Mueck" changeset="6792817">
    <nd ref="1069845765"/>
    <nd ref="260545845"/>
    <nd ref="246628891"/>
    <tag k="hgv" v="no"/>
    <tag k="highway" v="residential"/>
    <tag k="name" v="Hamburger Straße"/>
  </way>
  <way id="92145352" version="2" timestamp="2010-12-28T21:39:30Z" uid="6269" user="Mueck" changeset="6792817">
    <nd ref="1069845765"/>
    <nd ref="260545845"/>
    <nd ref="246628891"/>
    <tag k="hgv" v="no"/>
    <tag k="highway" v="residential"/>
    <tag k="maxheight" v="3,4"/>
    <tag k="name" v="Hamburger Straße"/>
  </way>
  <way id="92145352" version="3" timestamp="2011-12-27T09:25:12Z" uid="78656" user="Walter Schlögl" changeset="10213856">
    <nd ref="1069845765"/>
    <nd ref="260545845"/>
    <nd ref="246628891"/>
    <tag k="hgv" v="no"/>
    <tag k="highway" v="residential"/>
    <tag k="maxheight" v="3.4"/>
    <tag k="name" v="Hamburger Straße"/>
  </way>
  <way id="92145352" version="4" timestamp="2012-02-24T19:05:58Z" uid="61005" user="nkbre" changeset="10781320">
    <nd ref="1645937745"/>
    <nd ref="260545845"/>
    <nd ref="246628891"/>
    <tag k="hgv" v="no"/>
    <tag k="highway" v="residential"/>
    <tag k="maxheight" v="3.4"/>
    <tag k="name" v="Hamburger Straße"/>
  </way>
</osm>
