<?xml version='1.0' encoding='UTF-8'?>
<osm version="0.6" generator="libosmium/2.20.0">
  <way id="9220129" version="13" timestamp="2009-09-30T15:23:51Z" uid="36809" user="pfoten_weg_!_" changeset="2689341">
    <nd ref="68862213"/>
    <nd ref="68862230"/>
    <nd ref="68862238"/>
    <nd ref="68862247"/>
    <nd ref="68862256"/>
    <nd ref="68862264"/>
    <nd ref="303615653"/>
    <nd ref="68862270"/>
    <nd ref="68862279"/>
    <nd ref="185729645"/>
    <tag k="highway" v="residential"/>
    <tag k="name" v="Herrschinger StraÃŸe"/>
  </way>
  <way id="9220129" version="14" timestamp="2011-01-11T05:48:41Z" uid="323886" user="hermann51" changeset="6933556">
    <nd ref="68862213"/>
    <nd ref="68862230"/>
    <nd ref="68862238"/>
    <nd ref="68862247"/>
    <nd ref="68862256"/>
    <nd ref="68862264"/>
    <nd ref="303615653"/>
    <tag k="highway" v="residential"/>
    <tag k="name" v="Am Oberfeld"/>
  </way>
  <way id="9220138" version="12" timestamp="2010-07-09T02:59:33Z" uid="74617" user="JohnSmith" changeset="5170739">
    <nd ref="68915987"/>
    <nd ref="287808845"/>
    <tag k="highway" v="residential"/>
    <tag k="maxspeed" v="50"/>
    <tag k="maxspeed:source" v="default residential speed limit in Australia"/>
    <tag k="name" v="Fuller Street"/>
    <tag k="source" v="Yahoo"/>
    <tag k="source:name" v="Collins 1936"/>
  </way>
  <way id="9220138" version="13" timestamp="2012-01-15T08:21:01Z" uid="147510" user="woodpeck_fixbot" changeset="10395278">
    <nd ref="68915987"/>
    <nd ref="287808845"/>
    <tag k="highway" v="residential"/>
    <tag k="name" v="Fuller Street"/>
    <tag k="source" v="Yahoo"/>
    <tag k="source:name" v="Collins 1936"/>
  </way>
  <way id="9220152" version="11" timestamp="2010-07-09T03:01:30Z" uid="74617" user="JohnSmith" changeset="5170739">
    <nd ref="287806265"/>
    <nd ref="68915987"/>
    <nd ref="68915886"/>
    <nd ref="68870889"/>
    <nd ref="68870891"/>
    <tag k="highway" v="residential"/>
    <tag k="maxspeed" v="50"/>
    <tag k="maxspeed:source" v="default residential speed limit in Australia"/>
    <tag k="name" v="Schofield Street"/>
    <tag k="source" v="yahoo"/>
    <tag k="source:name" v="survey"/>
  </way>
  <way id="9220152" version="12" timestamp="2012-01-15T08:21:03Z" uid="147510" user="woodpeck_fixbot" changeset="10395278">
    <nd ref="287806265"/>
    <nd ref="68915987"/>
    <nd ref="68915886"/>
    <nd ref="68870889"/>
    <nd ref="68870891"/>
    <tag k="highway" v="residential"/>
    <tag k="name" v="Schofield Street"/>
    <tag k="source" v="yahoo"/>
    <tag k="source:name" v="survey"/>
  </way>
  <way id="9220157" version="12" timestamp="2010-07-09T03:02:02Z" uid="74617" user="JohnSmith" changeset="5170739">
    <nd ref="68897855"/>
    <nd ref="68869969"/>
    <nd ref="287809149"/>
    <tag k="highway" v="residential"/>
    <tag k="maxspeed" v="50"/>
    <tag k="maxspeed:source" v="default residential speed limit in Australia"/>
    <tag k="name" v="Crisp Street"/>
    <tag k="source" v="yahoo"/>
    <tag k="source:name" v="survey"/>
  </way>
  <way id="9220157" version="13" timestamp="2012-01-15T08:21:04Z" uid="147510" user="woodpeck_fixbot" changeset="10395278">
    <nd ref="68897855"/>
    <nd ref="68869969"/>
    <nd ref="287809149"/>
    <tag k="highway" v="residential"/>
    <tag k="name" v="Crisp Street"/>
    <tag k="source" v="yahoo"/>
    <tag k="source:name" v="survey"/>
  </way>
  <way id="9220235" version="10" timestamp="2010-07-09T03:00:28Z" uid="74617" user="JohnSmith" changeset="5170739">
    <nd ref="68900473"/>
    <nd ref="68868115"/>
    <nd ref="287809168"/>
    <tag k="highway" v="residential"/>
    <tag k="maxspeed" v="50"/>
    <tag k="maxspeed:source" v="default residential speed limit in Australia"/>
    <tag k="name" v="Cooke Street"/>
    <tag k="source" v="yahoo"/>
    <tag k="source:name" v="survey"/>
  </way>
  <way id="9220235" version="11" timestamp="2012-01-15T08:21:05Z" uid="147510" user="woodpeck_fixbot" changeset="10395278">
    <nd ref="68900473"/>
    <nd ref="68868115"/>
    <nd ref="287809168"/>
    <tag k="highway" v="residential"/>
    <tag k="name" v="Cooke Street"/>
    <tag k="source" v="yahoo"/>
    <tag k="source:name" v="survey"/>
  </way>
  <way id="9220377" version="5" timestamp="2010-06-06T21:57:43Z" uid="107674" user="GeoCounter" changeset="4923314">
    <nd ref="35134653"/>
    <nd ref="68866136"/>
    <nd ref="68866142"/>
    <nd ref="68866153"/>
    <nd ref="68974002"/>
    <tag k="highway" v="cycleway"/>
  </way>
  <way id="9220377" version="6" timestamp="2010-06-12T15:19:18Z" uid="8464" user="MichaH" changeset="4971220">
    <nd ref="35134653"/>
    <nd ref="68866136"/>
    <nd ref="770091068"/>
    <nd ref="68866142"/>
    <nd ref="770091004"/>
    <nd ref="68866153"/>
    <nd ref="68974002"/>
    <tag k="highway" v="cycleway"/>
  </way>
  <way id="9220378" version="4" timestamp="2010-06-06T21:57:46Z" uid="107674" user="GeoCounter" changeset="4923314">
    <nd ref="60675478"/>
    <nd ref="68866142"/>
    <tag k="highway" v="cycleway"/>
  </way>
  <way id="9220650" version="7" timestamp="2010-07-09T18:17:00Z" uid="74617" user="JohnSmith" changeset="5175333">
    <nd ref="419724381"/>
    <nd ref="419724477"/>
    <nd ref="68870498"/>
    <tag k="highway" v="residential"/>
    <tag k="maxspeed" v="50"/>
    <tag k="maxspeed:source" v="default residential speed limit in Australia"/>
    <tag k="name" v="Thelma Street"/>
    <tag k="oneway" v="yes"/>
  </way>
  <way id="9220650" version="8" timestamp="2011-04-24T04:04:57Z" uid="4467" user="Rosscoe" changeset="7949114">
    <nd ref="419724381"/>
    <nd ref="419724477"/>
    <nd ref="68870498"/>
    <tag k="highway" v="residential"/>
    <tag k="maxspeed" v="50"/>
    <tag k="name" v="Thelma Street"/>
    <tag k="oneway" v="yes"/>
    <tag k="source:maxspeed" v="default residential speed limit in Australia"/>
  </way>
  <way id="9220650" version="9" timestamp="2012-01-15T08:21:06Z" uid="147510" user="woodpeck_fixbot" changeset="10395278">
    <nd ref="419724381"/>
    <nd ref="419724477"/>
    <nd ref="68870498"/>
    <tag k="highway" v="residential"/>
    <tag k="name" v="Thelma Street"/>
    <tag k="oneway" v="yes"/>
    <tag k="source:maxspeed" v="default residential speed limit in Australia"/>
  </way>
</osm>
