<?xml version='1.0' encoding='UTF-8'?>
<osm version="0.6" generator="libosmium/2.20.0">
  <way id="92245056" version="3" timestamp="2011-02-26T15:11:17Z" uid="16922" user="amai" changeset="7400373">
    <nd ref="979353917"/>
    <nd ref="1174873221"/>
    <nd ref="979391938"/>
    <nd ref="979353924"/>
    <nd ref="979353931"/>
    <nd ref="979353934"/>
    <nd ref="979353936"/>
    <nd ref="979353938"/>
    <nd ref="979353942"/>
    <nd ref="979353946"/>
    <tag k="alt_name" v="ซอย วัดตะกล่ำ"/>
    <tag k="alt_name:en" v="Soi Wat Taklam"/>
    <tag k="alt_name:th" v="ซอย วัดตะกล่ำ"/>
    <tag k="highway" v="residential"/>
    <tag k="name" v="เฉลิมพระเกียรติ ร.9 ซอย 22"/>
    <tag k="name:en" v="Chaloem Phrakiat Ratchakan Thi 9 Soi 22"/>
    <tag k="name:th" v="เฉลิมพระเกียรติ ร.9 ซอย 22"/>
    <tag k="source" v="survey"/>
    <tag k="surface" v="paved"/>
  </way>
  <way id="92245056" version="4" timestamp="2012-03-24T03:04:38Z" uid="510836" user="Rub21" changeset="11080461">
    <nd ref="979353917"/>
    <nd ref="1688039802"/>
    <nd ref="1688039798"/>
    <nd ref="1688039792"/>
    <nd ref="1688039788"/>
    <nd ref="1688039782"/>
    <nd ref="1688039780"/>
    <nd ref="1174873221"/>
    <nd ref="1688039766"/>
    <nd ref="1688039760"/>
    <nd ref="1688039748"/>
    <nd ref="1688039734"/>
    <nd ref="979391938"/>
    <nd ref="979353924"/>
    <nd ref="979353931"/>
    <nd ref="1688039703"/>
    <nd ref="979353934"/>
    <nd ref="979353936"/>
    <nd ref="979353938"/>
    <nd ref="979353942"/>
    <nd ref="979353946"/>
    <tag k="alt_name" v="ซอย วัดตะกล่ำ"/>
    <tag k="alt_name:en" v="Soi Wat Taklam"/>
    <tag k="alt_name:th" v="ซอย วัดตะกล่ำ"/>
    <tag k="highway" v="residential"/>
    <tag k="name" v="เฉลิมพระเกียรติ ร.9 ซอย 22"/>
    <tag k="name:en" v="Chaloem Phrakiat Ratchakan Thi 9 Soi 22"/>
    <tag k="name:th" v="เฉลิมพระเกียรติ ร.9 ซอย 22"/>
    <tag k="source" v="survey"/>
    <tag k="surface" v="paved"/>
  </way>
  <way id="92245056" version="5" timestamp="2012-03-24T15:34:56Z" uid="61891" user="stephankn" changeset="11085617"/>
</osm>
