<?xml version='1.0' encoding='UTF-8'?>
<osm version="0.6" generator="libosmium/2.20.0">
  <way id="9273148" version="1" timestamp="2007-10-14T00:30:48Z" uid="6454" user="B10xxx" changeset="154656">
    <nd ref="69593494"/>
    <nd ref="69593496"/>
    <nd ref="69593497"/>
    <nd ref="69593498"/>
    <nd ref="69593499"/>
    <nd ref="69577993"/>
    <tag k="created_by" v="Potlatch alpha"/>
    <tag k="highway" v="tertiary"/>
  </way>
  <way id="9273148" version="2" timestamp="2008-01-03T07:40:31Z" uid="23157" user="nh147" changeset="523865">
    <nd ref="69593494"/>
    <nd ref="69593496"/>
    <nd ref="69593497"/>
    <nd ref="69593498"/>
    <nd ref="69593499"/>
    <nd ref="69577993"/>
    <tag k="created_by" v="Potlatch 0.6"/>
    <tag k="highway" v="tertiary"/>
    <tag k="name" v="Flachstraße"/>
  </way>
  <way id="9273148" version="3" timestamp="2008-01-03T07:40:51Z" uid="23157" user="nh147" changeset="523865">
    <nd ref="69593494"/>
    <nd ref="204765629"/>
    <nd ref="69593496"/>
    <nd ref="69593497"/>
    <nd ref="69593498"/>
    <nd ref="69593499"/>
    <nd ref="69577993"/>
    <tag k="created_by" v="Potlatch 0.6"/>
    <tag k="highway" v="tertiary"/>
    <tag k="name" v="Flachstraße"/>
  </way>
  <way id="9273148" version="4" timestamp="2008-04-01T21:53:10Z" uid="17602" user="B10xyz" changeset="11942">
    <nd ref="69593494"/>
    <nd ref="204765629"/>
    <nd ref="69593496"/>
    <nd ref="69593497"/>
    <nd ref="69593498"/>
    <nd ref="69593499"/>
    <nd ref="255324422"/>
    <nd ref="69577993"/>
    <tag k="created_by" v="Potlatch 0.6"/>
    <tag k="highway" v="tertiary"/>
    <tag k="name" v="Flachstraße"/>
  </way>
  <way id="9273148" version="5" timestamp="2008-12-22T11:44:15Z" uid="85114" user="netbui" changeset="540038">
    <nd ref="69593494"/>
    <nd ref="204765629"/>
    <nd ref="69593496"/>
    <nd ref="320874658"/>
    <nd ref="69593497"/>
    <nd ref="69593498"/>
    <nd ref="69593499"/>
    <nd ref="255324422"/>
    <nd ref="69577993"/>
    <tag k="created_by" v="Potlatch 0.10f"/>
    <tag k="highway" v="tertiary"/>
    <tag k="name" v="Flachstraße"/>
  </way>
  <way id="9273148" version="6" timestamp="2009-03-14T15:51:47Z" uid="17602" user="B10xyz" changeset="805748">
    <nd ref="69593494"/>
    <nd ref="204765629"/>
    <nd ref="69593496"/>
    <nd ref="69593497"/>
    <nd ref="69593498"/>
    <nd ref="69593499"/>
    <nd ref="255324422"/>
    <nd ref="69577993"/>
    <tag k="created_by" v="Potlatch 0.10f"/>
    <tag k="highway" v="tertiary"/>
    <tag k="name" v="Flachstraße"/>
  </way>
  <way id="9273148" version="7" timestamp="2009-10-01T18:15:50Z" uid="104912" user="Sir Lancelot" changeset="2703508">
    <nd ref="69593494"/>
    <nd ref="204765629"/>
    <nd ref="69593496"/>
    <nd ref="516501911"/>
    <nd ref="69593497"/>
    <nd ref="69593498"/>
    <nd ref="69593499"/>
    <nd ref="516501912"/>
    <nd ref="255324422"/>
    <nd ref="69577993"/>
    <tag k="highway" v="tertiary"/>
    <tag k="name" v="Flachstraße"/>
  </way>
  <way id="9273148" version="8" timestamp="2009-10-24T13:07:51Z" uid="94353" user="Fips" changeset="2937425">
    <nd ref="69593494"/>
    <nd ref="204765629"/>
    <nd ref="69593496"/>
    <nd ref="516501911"/>
    <nd ref="69593497"/>
    <nd ref="69593498"/>
    <nd ref="69593499"/>
    <tag k="highway" v="tertiary"/>
    <tag k="name" v="Flachstraße"/>
  </way>
  <way id="9273148" version="9" timestamp="2010-02-23T22:38:56Z" uid="94353" user="Fips" changeset="3959002">
    <nd ref="69593494"/>
    <nd ref="204765629"/>
    <nd ref="69593496"/>
    <nd ref="516501911"/>
    <nd ref="69593497"/>
    <nd ref="69593498"/>
    <tag k="highway" v="tertiary"/>
    <tag k="name" v="Flachstraße"/>
  </way>
  <way id="9273148" version="10" timestamp="2010-08-12T07:24:43Z" uid="18141" user="Hobby Navigator" changeset="5469403">
    <nd ref="69593494"/>
    <nd ref="204765629"/>
    <nd ref="69593496"/>
    <nd ref="516501911"/>
    <nd ref="69593497"/>
    <nd ref="69593498"/>
    <tag k="highway" v="residential"/>
    <tag k="name" v="Flachstraße"/>
  </way>
  <way id="9273148" version="11" timestamp="2011-03-01T18:40:56Z" uid="212897" user="richtest" changeset="7431671">
    <nd ref="69593494"/>
    <nd ref="204765629"/>
    <nd ref="69593496"/>
    <nd ref="1181064348"/>
    <nd ref="516501911"/>
    <nd ref="69593497"/>
    <nd ref="69593498"/>
    <tag k="highway" v="residential"/>
    <tag k="name" v="Flachstraße"/>
  </way>
  <way id="9273148" version="12" timestamp="2011-04-15T22:10:10Z" uid="157940" user="kmaufrath" changeset="7874206">
    <nd ref="69593494"/>
    <nd ref="1246352400"/>
    <nd ref="1246352402"/>
    <nd ref="204765629"/>
    <nd ref="69593496"/>
    <nd ref="1181064348"/>
    <nd ref="516501911"/>
    <nd ref="69593497"/>
    <nd ref="69593498"/>
    <tag k="highway" v="residential"/>
    <tag k="name" v="Flachstraße"/>
  </way>
  <way id="9273148" version="13" timestamp="2011-12-30T21:00:59Z" uid="328555" user="peb12345" changeset="10249660"/>
  <way id="9273311" version="1" timestamp="2007-10-14T00:32:25Z" uid="6454" user="B10xxx" changeset="154656">
    <nd ref="69593498"/>
    <nd ref="69596573"/>
    <nd ref="69596574"/>
    <nd ref="69596575"/>
    <nd ref="69596577"/>
    <nd ref="69596578"/>
    <nd ref="69596579"/>
    <nd ref="69596580"/>
    <nd ref="69587583"/>
    <nd ref="69596581"/>
    <tag k="created_by" v="Potlatch alpha"/>
    <tag k="highway" v="residential"/>
  </way>
  <way id="9273311" version="2" timestamp="2008-04-01T21:53:13Z" uid="17602" user="B10xyz" changeset="11942">
    <nd ref="69593498"/>
    <nd ref="69596573"/>
    <nd ref="69596574"/>
    <nd ref="255324377"/>
    <nd ref="69596575"/>
    <nd ref="69596577"/>
    <nd ref="69596578"/>
    <nd ref="69596579"/>
    <nd ref="69596580"/>
    <nd ref="69587583"/>
    <nd ref="69596581"/>
    <tag k="created_by" v="Potlatch alpha"/>
    <tag k="highway" v="residential"/>
  </way>
  <way id="9273311" version="3" timestamp="2008-07-02T11:03:18Z" uid="49167" user="lotan" changeset="374184">
    <nd ref="69593498"/>
    <nd ref="69596573"/>
    <nd ref="69596574"/>
    <nd ref="255324377"/>
    <nd ref="69596575"/>
    <nd ref="69596577"/>
    <nd ref="69596578"/>
    <nd ref="69596579"/>
    <nd ref="69596580"/>
    <nd ref="69587583"/>
    <nd ref="69596581"/>
    <tag k="created_by" v="Potlatch 0.9c"/>
    <tag k="highway" v="residential"/>
    <tag k="name" v="Carl-von-Ossietzky-Straße"/>
  </way>
  <way id="9273311" version="4" timestamp="2008-12-14T12:30:42Z" uid="85114" user="netbui" changeset="387021">
    <nd ref="69593498"/>
    <nd ref="69596573"/>
    <nd ref="69596574"/>
    <nd ref="255324377"/>
    <nd ref="318598851"/>
    <nd ref="69596575"/>
    <nd ref="69596577"/>
    <nd ref="69596578"/>
    <nd ref="69596579"/>
    <nd ref="69596580"/>
    <nd ref="69587583"/>
    <nd ref="69596581"/>
    <tag k="created_by" v="Potlatch 0.10f"/>
    <tag k="highway" v="residential"/>
    <tag k="name" v="Carl-von-Ossietzky-Straße"/>
  </way>
  <way id="9273311" version="5" timestamp="2009-03-03T13:10:59Z" uid="40801" user="friedemann2811" changeset="730946">
    <nd ref="69593498"/>
    <nd ref="69596573"/>
    <nd ref="69596574"/>
    <nd ref="255324377"/>
    <nd ref="318598851"/>
    <nd ref="69596575"/>
    <nd ref="69596577"/>
    <nd ref="69596578"/>
    <nd ref="69596579"/>
    <nd ref="69596580"/>
    <nd ref="69587583"/>
    <nd ref="69596581"/>
    <tag k="addr:postcode" v="65197"/>
    <tag k="created_by" v="Potlatch 0.10f"/>
    <tag k="highway" v="residential"/>
    <tag k="name" v="Carl-von-Ossietzky-Straße"/>
  </way>
  <way id="9273311" version="6" timestamp="2009-03-22T09:26:17Z" uid="6367" user="mackerski" changeset="842829">
    <nd ref="69593498"/>
    <nd ref="69596573"/>
    <nd ref="69596574"/>
    <nd ref="255324377"/>
    <nd ref="318598851"/>
    <nd ref="69596575"/>
    <nd ref="69596577"/>
    <nd ref="364636877"/>
    <nd ref="69596578"/>
    <nd ref="69596579"/>
    <nd ref="364636879"/>
    <nd ref="69596580"/>
    <nd ref="364636880"/>
    <nd ref="69587583"/>
    <nd ref="69596581"/>
    <tag k="addr:postcode" v="65197"/>
    <tag k="created_by" v="Potlatch 0.10f"/>
    <tag k="highway" v="residential"/>
    <tag k="name" v="Carl-von-Ossietzky-Straße"/>
  </way>
  <way id="9273311" version="7" timestamp="2010-02-23T22:38:57Z" uid="94353" user="Fips" changeset="3959002">
    <nd ref="69596581"/>
    <nd ref="69587583"/>
    <tag k="addr:postcode" v="65197"/>
    <tag k="highway" v="residential"/>
    <tag k="name" v="Carl-von-Ossietzky-Straße"/>
  </way>
  <way id="9273311" version="8" timestamp="2010-02-24T15:58:13Z" uid="94353" user="Fips" changeset="3964053">
    <nd ref="69587583"/>
    <nd ref="69596581"/>
    <tag k="addr:postcode" v="65197"/>
    <tag k="highway" v="residential"/>
    <tag k="name" v="Carl-von-Ossietzky-Straße"/>
  </way>
  <way id="9273311" version="9" timestamp="2012-01-01T22:54:15Z" uid="328555" user="peb12345" changeset="10266642">
    <nd ref="1573363897"/>
    <nd ref="1573363899"/>
    <tag k="addr:postcode" v="65197"/>
    <tag k="highway" v="residential"/>
    <tag k="name" v="Carl-von-Ossietzky-Straße"/>
  </way>
  <way id="9273358" version="1" timestamp="2007-10-14T00:32:46Z" uid="6454" user="B10xxx" changeset="154656">
    <nd ref="69596575"/>
    <nd ref="69597266"/>
    <nd ref="69597268"/>
    <nd ref="69587586"/>
    <nd ref="69582115"/>
    <tag k="created_by" v="Potlatch alpha"/>
  </way>
  <way id="9273358" version="2" timestamp="2007-10-14T00:32:58Z" uid="6454" user="B10xxx" changeset="154656">
    <nd ref="69596575"/>
    <nd ref="69597266"/>
    <nd ref="69597268"/>
    <nd ref="69587586"/>
    <nd ref="69582115"/>
    <tag k="created_by" v="Potlatch alpha"/>
    <tag k="highway" v="residential"/>
  </way>
  <way id="9273358" version="3" timestamp="2008-12-14T11:21:16Z" uid="85114" user="netbui" changeset="387021">
    <nd ref="69596575"/>
    <nd ref="69597266"/>
    <nd ref="69597268"/>
    <nd ref="69587586"/>
    <nd ref="69582115"/>
    <tag k="created_by" v="Potlatch 0.10f"/>
    <tag k="highway" v="residential"/>
    <tag k="name" v="Theodor-Haubach Strasse"/>
  </way>
  <way id="9273358" version="4" timestamp="2008-12-14T11:25:14Z" uid="85114" user="netbui" changeset="387021">
    <nd ref="69596575"/>
    <nd ref="318584286"/>
    <nd ref="69597266"/>
    <nd ref="69597268"/>
    <nd ref="69587586"/>
    <nd ref="69582115"/>
    <tag k="created_by" v="Potlatch 0.10f"/>
    <tag k="highway" v="residential"/>
    <tag k="name" v="Theodor-Haubach Strasse"/>
  </way>
  <way id="9273358" version="5" timestamp="2008-12-18T09:36:35Z" uid="70696" user="xybot" changeset="465787">
    <nd ref="69596575"/>
    <nd ref="318584286"/>
    <nd ref="69597266"/>
    <nd ref="69597268"/>
    <nd ref="69587586"/>
    <nd ref="69582115"/>
    <tag k="created_by" v="xybot"/>
    <tag k="highway" v="residential"/>
    <tag k="name" v="Theodor-Haubach Straße"/>
  </way>
  <way id="9273358" version="6" timestamp="2009-03-22T09:26:16Z" uid="6367" user="mackerski" changeset="842829">
    <nd ref="69596575"/>
    <nd ref="318584284"/>
    <nd ref="69597266"/>
    <nd ref="69597268"/>
    <nd ref="69587586"/>
    <nd ref="69582115"/>
    <tag k="created_by" v="xybot"/>
    <tag k="highway" v="residential"/>
    <tag k="name" v="Theodor-Haubach Straße"/>
  </way>
  <way id="9273358" version="7" timestamp="2010-09-02T22:07:03Z" uid="201359" user="wambacher" changeset="5666578">
    <nd ref="69596575"/>
    <nd ref="318584284"/>
    <nd ref="69597266"/>
    <nd ref="69597268"/>
    <nd ref="69587586"/>
    <nd ref="69582115"/>
    <tag k="highway" v="residential"/>
    <tag k="name" v="Theodor-Haubach Straße"/>
  </way>
  <way id="9273358" version="8" timestamp="2012-01-03T11:29:26Z" uid="328555" user="peb12345" changeset="10280238"/>
  <way id="9273723" version="11" timestamp="2009-07-26T13:40:47Z" uid="58091" user="Andreas M" changeset="1944881">
    <nd ref="61688577"/>
    <nd ref="69603286"/>
    <nd ref="61688578"/>
    <nd ref="61688579"/>
    <nd ref="323385985"/>
    <nd ref="61688580"/>
    <tag k="railway" v="subway"/>
    <tag k="ref" v="U6"/>
  </way>
  <way id="9273723" version="12" timestamp="2010-02-23T23:01:30Z" uid="28427" user="skunk" changeset="3959148">
    <nd ref="61688577"/>
    <nd ref="69603286"/>
    <nd ref="61688578"/>
    <nd ref="652070383"/>
    <nd ref="61688579"/>
    <nd ref="652070376"/>
    <nd ref="652070375"/>
    <nd ref="323385985"/>
    <nd ref="61688580"/>
    <tag k="railway" v="subway"/>
    <tag k="ref" v="U6"/>
  </way>
  <way id="9273723" version="13" timestamp="2010-04-02T17:06:53Z" uid="67684" user="darkweasel" changeset="4305737">
    <nd ref="61688577"/>
    <nd ref="681751389"/>
    <nd ref="69603286"/>
    <nd ref="61688578"/>
    <nd ref="652070383"/>
    <nd ref="61688579"/>
    <nd ref="652070376"/>
    <nd ref="652070375"/>
    <nd ref="323385985"/>
    <nd ref="61688580"/>
    <tag k="railway" v="subway"/>
    <tag k="ref" v="U6"/>
  </way>
  <way id="9273723" version="14" timestamp="2010-04-18T19:57:06Z" uid="129531" user="almich" changeset="4462273">
    <nd ref="61688577"/>
    <nd ref="681751389"/>
    <nd ref="69603286"/>
    <nd ref="61688578"/>
    <nd ref="652070383"/>
    <nd ref="61688579"/>
    <nd ref="652070376"/>
    <nd ref="652070375"/>
    <nd ref="323385985"/>
    <nd ref="61688580"/>
    <tag k="electrified" v="contact_line"/>
    <tag k="frequency" v="0"/>
    <tag k="gauge" v="1435"/>
    <tag k="railway" v="subway"/>
    <tag k="ref" v="U6"/>
    <tag k="tracks" v="2"/>
    <tag k="voltage" v="750"/>
  </way>
  <way id="9273723" version="15" timestamp="2010-04-23T17:23:11Z" uid="129531" user="almich" changeset="4505198">
    <nd ref="61688577"/>
    <nd ref="681751389"/>
    <nd ref="69603286"/>
    <nd ref="61688578"/>
    <nd ref="652070383"/>
    <nd ref="61688579"/>
    <nd ref="652070376"/>
    <nd ref="652070375"/>
    <nd ref="323385985"/>
    <nd ref="61688580"/>
    <tag k="electrified" v="contact_line"/>
    <tag k="frequency" v="0"/>
    <tag k="gauge" v="1435"/>
    <tag k="layer" v="0"/>
    <tag k="railway" v="subway"/>
    <tag k="ref" v="U6"/>
    <tag k="tracks" v="2"/>
    <tag k="voltage" v="750"/>
  </way>
  <way id="9273723" version="16" timestamp="2011-07-29T23:41:52Z" uid="129531" user="almich" changeset="8868156">
    <nd ref="61688577"/>
    <nd ref="681751389"/>
    <nd ref="69603286"/>
    <nd ref="61688578"/>
    <nd ref="652070383"/>
    <nd ref="61688579"/>
    <nd ref="652070376"/>
    <nd ref="652070375"/>
    <nd ref="323385985"/>
    <nd ref="1378094221"/>
    <nd ref="61688580"/>
    <tag k="electrified" v="contact_line"/>
    <tag k="frequency" v="0"/>
    <tag k="gauge" v="1435"/>
    <tag k="layer" v="0"/>
    <tag k="railway" v="subway"/>
    <tag k="ref" v="U6"/>
    <tag k="tracks" v="2"/>
    <tag k="voltage" v="750"/>
  </way>
  <way id="9273723" version="17" timestamp="2011-08-01T00:42:07Z" uid="29320" user="Komяpa" changeset="8886564">
    <nd ref="61688577"/>
    <nd ref="681751389"/>
    <nd ref="69603286"/>
    <nd ref="61688578"/>
    <nd ref="652070383"/>
    <nd ref="61688579"/>
    <nd ref="652070376"/>
    <nd ref="652070375"/>
    <nd ref="323385985"/>
    <nd ref="1378094221"/>
    <nd ref="61688580"/>
    <tag k="colour" v="brown"/>
    <tag k="electrified" v="contact_line"/>
    <tag k="frequency" v="0"/>
    <tag k="gauge" v="1435"/>
    <tag k="layer" v="0"/>
    <tag k="operator" v="Wiener Linien"/>
    <tag k="railway" v="subway"/>
    <tag k="ref" v="U6"/>
    <tag k="tracks" v="2"/>
    <tag k="voltage" v="750"/>
  </way>
</osm>
