<?xml version='1.0' encoding='UTF-8'?>
<osm version="0.6" generator="libosmium/2.20.0">
  <way id="92789847" version="3" timestamp="2011-01-06T13:44:14Z" uid="4467" user="Rosscoe" changeset="6882509">
    <nd ref="313129457"/>
    <nd ref="313129459"/>
    <nd ref="1085686637"/>
    <nd ref="313129461"/>
    <nd ref="436080189"/>
    <nd ref="313129463"/>
    <nd ref="436080120"/>
    <tag k="highway" v="trunk"/>
    <tag k="maxspeed" v="100"/>
    <tag k="name" v="Meander Valley Road"/>
    <tag k="ref" v="A5"/>
  </way>
  <way id="92789847" version="4" timestamp="2011-04-12T16:24:01Z" uid="4467" user="Rosscoe" changeset="7844178">
    <nd ref="313129457"/>
    <nd ref="1242120731"/>
    <nd ref="313129459"/>
    <nd ref="1242121223"/>
    <nd ref="1085686637"/>
    <nd ref="313129461"/>
    <nd ref="436080189"/>
    <nd ref="313129463"/>
    <nd ref="436080120"/>
    <tag k="highway" v="trunk"/>
    <tag k="maxspeed" v="100"/>
    <tag k="name" v="Meander Valley Road"/>
    <tag k="ref" v="A5"/>
    <tag k="source" v="nearmap"/>
  </way>
  <way id="92789847" version="5" timestamp="2011-12-21T23:21:50Z" uid="46482" user="Leon K" changeset="10176247">
    <nd ref="1557683535"/>
    <nd ref="1557683534"/>
    <nd ref="1557683547"/>
    <nd ref="1557683540"/>
    <nd ref="1557683536"/>
    <nd ref="1557683553"/>
    <nd ref="1557683552"/>
    <nd ref="436080189"/>
    <nd ref="1557683546"/>
    <nd ref="1557683550"/>
    <nd ref="1557683565"/>
    <tag k="highway" v="trunk"/>
    <tag k="maxspeed" v="100"/>
    <tag k="name" v="Meander Valley Road"/>
    <tag k="ref" v="A5"/>
    <tag k="source" v="nearmap"/>
  </way>
  <way id="92789849" version="3" timestamp="2011-01-06T13:44:19Z" uid="4467" user="Rosscoe" changeset="6882509">
    <nd ref="313129453"/>
    <nd ref="422704358"/>
    <nd ref="313129455"/>
    <nd ref="313129457"/>
    <nd ref="422704357"/>
    <nd ref="360608712"/>
    <nd ref="422704354"/>
    <nd ref="314206628"/>
    <nd ref="422704356"/>
    <nd ref="313129453"/>
    <tag k="highway" v="trunk"/>
    <tag k="junction" v="roundabout"/>
    <tag k="maxspeed" v="100"/>
  </way>
  <way id="92789849" version="4" timestamp="2011-06-01T12:48:39Z" uid="46482" user="Leon K" changeset="8310030">
    <nd ref="313129453"/>
    <nd ref="422704358"/>
    <nd ref="313129455"/>
    <nd ref="313129457"/>
    <nd ref="422704357"/>
    <nd ref="360608712"/>
    <nd ref="422704354"/>
    <nd ref="314206628"/>
    <nd ref="422704356"/>
    <nd ref="313129453"/>
    <tag k="highway" v="trunk"/>
    <tag k="junction" v="roundabout"/>
    <tag k="maxspeed" v="100"/>
    <tag k="name" v="Lake Highway"/>
    <tag k="ref" v="A5"/>
  </way>
  <way id="92789849" version="5" timestamp="2011-12-21T23:21:51Z" uid="46482" user="Leon K" changeset="10176247">
    <nd ref="313129453"/>
    <nd ref="422704358"/>
    <nd ref="313129455"/>
    <nd ref="1557683535"/>
    <nd ref="422704357"/>
    <nd ref="360608712"/>
    <nd ref="422704354"/>
    <nd ref="314206628"/>
    <nd ref="422704356"/>
    <nd ref="313129453"/>
    <tag k="highway" v="trunk"/>
    <tag k="junction" v="roundabout"/>
    <tag k="maxspeed" v="100"/>
    <tag k="name" v="Lake Highway"/>
    <tag k="ref" v="A5"/>
  </way>
</osm>
