<?xml version='1.0' encoding='UTF-8'?>
<osm version="0.6" generator="libosmium/2.20.0">
  <way id="9289049" version="1" timestamp="2007-10-14T02:46:12Z" uid="7617" user="Franc" changeset="165865">
    <nd ref="69825882"/>
    <nd ref="69825859"/>
    <tag k="created_by" v="JOSM"/>
    <tag k="highway" v="residential"/>
    <tag k="name" v="Oliver Street"/>
    <tag k="source" v="survey"/>
  </way>
  <way id="9289049" version="2" timestamp="2008-01-22T19:03:16Z" uid="20949" user="Ebenezer" changeset="683334">
    <nd ref="69825882"/>
    <nd ref="69825859"/>
    <nd ref="242104109"/>
    <nd ref="35544488"/>
    <tag k="created_by" v="Potlatch 0.6c"/>
    <tag k="highway" v="residential"/>
    <tag k="name" v="Oliver Street"/>
    <tag k="source" v="survey"/>
  </way>
  <way id="9289049" version="3" timestamp="2008-01-22T19:03:30Z" uid="20949" user="Ebenezer" changeset="683334">
    <nd ref="69825882"/>
    <nd ref="69825859"/>
    <nd ref="242104109"/>
    <nd ref="35544488"/>
    <nd ref="35561308"/>
    <nd ref="35558783"/>
    <tag k="created_by" v="Potlatch 0.6c"/>
    <tag k="highway" v="residential"/>
    <tag k="name" v="Oliver Street"/>
    <tag k="source" v="survey"/>
  </way>
  <way id="9289049" version="4" timestamp="2010-01-26T02:33:15Z" uid="30201" user="rrankin" changeset="3716457">
    <nd ref="69825882"/>
    <nd ref="69825859"/>
    <nd ref="242104109"/>
    <nd ref="620345058"/>
    <tag k="highway" v="residential"/>
    <tag k="name" v="Oliver Street"/>
    <tag k="source" v="survey"/>
  </way>
  <way id="9289049" version="5" timestamp="2010-07-08T02:09:33Z" uid="74617" user="JohnSmith" changeset="5162525">
    <nd ref="69825882"/>
    <nd ref="69825859"/>
    <nd ref="242104109"/>
    <nd ref="620345058"/>
    <tag k="highway" v="residential"/>
    <tag k="maxspeed" v="50"/>
    <tag k="maxspeed:source" v="default residential speed limit in Australia"/>
    <tag k="name" v="Oliver Street"/>
    <tag k="source" v="survey"/>
  </way>
  <way id="9289049" version="6" timestamp="2012-01-15T08:25:10Z" uid="147510" user="woodpeck_fixbot" changeset="10395278">
    <nd ref="69825882"/>
    <nd ref="69825859"/>
    <nd ref="242104109"/>
    <nd ref="620345058"/>
    <tag k="highway" v="residential"/>
    <tag k="name" v="Oliver Street"/>
    <tag k="source" v="survey"/>
  </way>
  <way id="9289052" version="1" timestamp="2007-10-14T02:46:12Z" uid="7617" user="Franc" changeset="165865">
    <nd ref="30431113"/>
    <nd ref="69825907"/>
    <nd ref="69825928"/>
    <nd ref="30430782"/>
    <tag k="created_by" v="JOSM"/>
    <tag k="highway" v="secondary"/>
    <tag k="name" v="New Illawarra Road"/>
    <tag k="source" v="survey"/>
  </way>
  <way id="9289052" version="2" timestamp="2007-11-06T06:35:14Z" uid="7617" user="Franc" changeset="418528">
    <nd ref="30431113"/>
    <nd ref="69825907"/>
    <nd ref="69825928"/>
    <nd ref="99713489"/>
    <nd ref="99713497"/>
    <nd ref="30430782"/>
    <tag k="created_by" v="JOSM"/>
    <tag k="highway" v="secondary"/>
    <tag k="name" v="New Illawarra Road"/>
    <tag k="source" v="survey"/>
  </way>
  <way id="9289052" version="3" timestamp="2007-11-06T06:37:51Z" uid="7617" user="Franc" changeset="418528">
    <nd ref="30431113"/>
    <nd ref="69825907"/>
    <nd ref="69825928"/>
    <nd ref="99713489"/>
    <nd ref="99713497"/>
    <nd ref="99715181"/>
    <nd ref="30430782"/>
    <tag k="created_by" v="JOSM"/>
    <tag k="highway" v="secondary"/>
    <tag k="name" v="New Illawarra Road"/>
    <tag k="source" v="survey"/>
  </way>
  <way id="9289052" version="4" timestamp="2007-12-18T12:10:15Z" uid="7617" user="Franc" changeset="352342">
    <nd ref="30431113"/>
    <nd ref="69825907"/>
    <nd ref="69825928"/>
    <nd ref="99713489"/>
    <nd ref="99713497"/>
    <nd ref="99715181"/>
    <nd ref="30430782"/>
    <tag k="created_by" v="JOSM"/>
    <tag k="highway" v="secondary"/>
    <tag k="name" v="New Illawarra Road"/>
    <tag k="source" v="survey"/>
  </way>
  <way id="9289052" version="5" timestamp="2008-01-21T11:14:02Z" uid="7617" user="Franc" changeset="677964">
    <nd ref="30431113"/>
    <nd ref="241460537"/>
    <nd ref="241460440"/>
    <nd ref="69825907"/>
    <nd ref="241460450"/>
    <nd ref="69825928"/>
    <nd ref="99713489"/>
    <nd ref="99713497"/>
    <nd ref="99715181"/>
    <nd ref="30430782"/>
    <tag k="created_by" v="JOSM"/>
    <tag k="highway" v="secondary"/>
    <tag k="name" v="New Illawarra Road"/>
    <tag k="source" v="survey"/>
  </way>
  <way id="9289052" version="6" timestamp="2008-07-21T11:40:17Z" uid="7617" user="Franc" changeset="560392">
    <nd ref="30431113"/>
    <nd ref="241460537"/>
    <nd ref="241460440"/>
    <nd ref="69825907"/>
    <nd ref="241460450"/>
    <tag k="created_by" v="JOSM"/>
    <tag k="highway" v="secondary"/>
    <tag k="name" v="New Illawarra Road"/>
    <tag k="source" v="survey"/>
  </way>
  <way id="9289052" version="7" timestamp="2010-04-18T01:41:59Z" uid="4467" user="Rosscoe" changeset="4453793">
    <nd ref="700552965"/>
    <nd ref="241460537"/>
    <nd ref="241460440"/>
    <nd ref="69825907"/>
    <nd ref="241460450"/>
    <tag k="highway" v="secondary"/>
    <tag k="name" v="New Illawarra Road"/>
    <tag k="source" v="survey"/>
  </way>
  <way id="9289052" version="8" timestamp="2010-11-14T06:37:09Z" uid="7617" user="Franc" changeset="6363993">
    <nd ref="700552965"/>
    <nd ref="241460537"/>
    <nd ref="241460440"/>
    <nd ref="69825907"/>
    <nd ref="988537916"/>
    <nd ref="241460450"/>
    <tag k="highway" v="secondary"/>
    <tag k="name" v="New Illawarra Road"/>
    <tag k="source" v="survey"/>
  </way>
  <way id="9289052" version="9" timestamp="2011-02-13T11:52:16Z" uid="389517" user="good2010" changeset="7274328">
    <nd ref="700552965"/>
    <nd ref="241460537"/>
    <nd ref="241460440"/>
    <nd ref="69825907"/>
    <nd ref="988537916"/>
    <nd ref="241460450"/>
    <tag k="highway" v="secondary"/>
    <tag k="maxspeed" v="50"/>
    <tag k="name" v="New Illawarra Road"/>
    <tag k="source" v="survey"/>
  </way>
  <way id="9289283" version="3" timestamp="2008-07-07T18:42:29Z" uid="6975" user="ulfl" changeset="420350">
    <nd ref="69830059"/>
    <nd ref="69830081"/>
    <nd ref="69830094"/>
    <nd ref="69830110"/>
    <nd ref="69830127"/>
    <nd ref="69830147"/>
    <nd ref="69830163"/>
    <nd ref="69830178"/>
    <nd ref="69830205"/>
    <nd ref="69830219"/>
    <nd ref="69830231"/>
    <nd ref="69830247"/>
    <nd ref="69830269"/>
    <nd ref="69830286"/>
    <nd ref="69830305"/>
    <nd ref="69830325"/>
    <nd ref="69830342"/>
    <nd ref="69830059"/>
    <tag k="leisure" v="park"/>
    <tag k="name" v="Jardines de Viveros"/>
    <tag k="old_name" v="Jardines del Real de Valencia"/>
  </way>
  <way id="9289283" version="4" timestamp="2008-12-23T11:41:16Z" uid="8016" user="jgui" changeset="571265">
    <nd ref="69830059"/>
    <nd ref="69830081"/>
    <nd ref="69830094"/>
    <nd ref="69830110"/>
    <nd ref="69830127"/>
    <nd ref="69830147"/>
    <nd ref="69830163"/>
    <nd ref="69830178"/>
    <nd ref="69830205"/>
    <nd ref="69830219"/>
    <nd ref="69830231"/>
    <nd ref="321220036"/>
    <nd ref="69830247"/>
    <nd ref="321220004"/>
    <nd ref="69830269"/>
    <nd ref="69830286"/>
    <nd ref="69830305"/>
    <nd ref="69830325"/>
    <nd ref="321220003"/>
    <nd ref="69830342"/>
    <nd ref="69830059"/>
    <tag k="leisure" v="park"/>
    <tag k="name" v="Jardines de Viveros"/>
    <tag k="old_name" v="Jardines del Real de Valencia"/>
  </way>
  <way id="9289497" version="4" timestamp="2009-02-19T16:14:26Z" uid="58091" user="Andreas M" changeset="554467">
    <nd ref="33471766"/>
    <nd ref="33472277"/>
    <nd ref="33471770"/>
    <tag k="created_by" v="Potlatch 0.10f"/>
    <tag k="highway" v="residential"/>
    <tag k="maxspeed" v="30"/>
    <tag k="name" v="Hillerstraße"/>
  </way>
  <way id="9289497" version="5" timestamp="2009-03-13T19:38:10Z" uid="99800" user="wolfbert" changeset="803311">
    <nd ref="33471766"/>
    <nd ref="360010636"/>
    <nd ref="33472277"/>
    <nd ref="33471770"/>
    <tag k="created_by" v="Potlatch 0.10f"/>
    <tag k="highway" v="residential"/>
    <tag k="maxspeed" v="30"/>
    <tag k="name" v="Hillerstraße"/>
  </way>
  <way id="9289497" version="6" timestamp="2011-02-25T14:26:53Z" uid="99800" user="wolfbert" changeset="7390913">
    <nd ref="33471766"/>
    <nd ref="1172270291"/>
    <nd ref="33472277"/>
    <nd ref="360010637"/>
    <tag k="highway" v="residential"/>
    <tag k="maxspeed" v="30"/>
    <tag k="name" v="Hillerstraße"/>
    <tag k="source:maxspeed" v="sign"/>
  </way>
  <way id="9289497" version="7" timestamp="2011-02-26T18:29:56Z" uid="99800" user="wolfbert" changeset="7402895">
    <nd ref="33471766"/>
    <nd ref="1172270291"/>
    <nd ref="33472277"/>
    <nd ref="360010637"/>
    <tag k="highway" v="residential"/>
    <tag k="maxspeed" v="30"/>
    <tag k="name" v="Hillerstraße"/>
    <tag k="source:maxspeed" v="zone"/>
  </way>
  <way id="9289497" version="8" timestamp="2011-02-27T14:18:25Z" uid="99800" user="wolfbert" changeset="7411182">
    <nd ref="33471766"/>
    <nd ref="1172270291"/>
    <nd ref="33472277"/>
    <nd ref="360010637"/>
    <tag k="highway" v="residential"/>
    <tag k="maxspeed" v="30"/>
    <tag k="name" v="Hillerstraße"/>
    <tag k="source:maxspeed" v="AT:zone"/>
  </way>
  <way id="9289497" version="9" timestamp="2011-03-08T11:13:00Z" uid="99800" user="wolfbert" changeset="7492964">
    <nd ref="33471766"/>
    <nd ref="1172270291"/>
    <nd ref="33472277"/>
    <nd ref="360010637"/>
    <tag k="highway" v="residential"/>
    <tag k="maxspeed" v="30"/>
    <tag k="name" v="Hillerstraße"/>
    <tag k="source:maxspeed" v="AT:zone:30"/>
  </way>
  <way id="9289497" version="10" timestamp="2012-02-26T18:14:31Z" uid="99800" user="wolfbert" changeset="10801411">
    <nd ref="33471766"/>
    <nd ref="1172270291"/>
    <nd ref="33472277"/>
    <nd ref="360010637"/>
    <tag k="highway" v="residential"/>
    <tag k="maxspeed" v="30"/>
    <tag k="name" v="Hillerstraße"/>
    <tag k="odbl" v="clean"/>
    <tag k="source:maxspeed" v="AT:zone:30"/>
  </way>
  <way id="9289497" version="11" timestamp="2012-03-02T12:23:04Z" uid="99800" user="wolfbert" changeset="10847705">
    <nd ref="33471766"/>
    <nd ref="1172270291"/>
    <nd ref="33472277"/>
    <nd ref="360010637"/>
    <tag k="highway" v="residential"/>
    <tag k="maxspeed" v="30"/>
    <tag k="name" v="Hillerstraße"/>
    <tag k="source:maxspeed" v="AT:zone:30"/>
  </way>
  <way id="9289730" version="5" timestamp="2008-06-22T16:17:48Z" uid="4667" user="MapZ" changeset="259439">
    <nd ref="271947363"/>
    <nd ref="271947361"/>
    <nd ref="271947358"/>
    <nd ref="271947356"/>
    <nd ref="69838002"/>
    <nd ref="69838089"/>
    <nd ref="69838093"/>
    <nd ref="69838096"/>
    <nd ref="89447300"/>
    <nd ref="69838102"/>
    <nd ref="69838110"/>
    <nd ref="69838116"/>
    <nd ref="131073272"/>
    <nd ref="69838124"/>
    <tag k="created_by" v="Potlatch alpha"/>
    <tag k="highway" v="residential"/>
    <tag k="name" v="Pfaffenbrunnen"/>
  </way>
  <way id="9289730" version="6" timestamp="2008-06-30T06:09:34Z" uid="31470" user="Tom63452" changeset="342379">
    <nd ref="271947363"/>
    <nd ref="271947361"/>
    <nd ref="271947358"/>
    <nd ref="271947356"/>
    <nd ref="69838002"/>
    <nd ref="69838089"/>
    <nd ref="69838093"/>
    <nd ref="69838096"/>
    <nd ref="89447300"/>
    <nd ref="69838102"/>
    <nd ref="69838110"/>
    <nd ref="69838116"/>
    <nd ref="131073272"/>
    <nd ref="69838124"/>
    <tag k="created_by" v="Potlatch alpha"/>
    <tag k="highway" v="residential"/>
    <tag k="name" v="Pfaffenbrunnenstraße"/>
  </way>
  <way id="9289730" version="7" timestamp="2008-07-19T14:59:37Z" uid="31470" user="Tom63452" changeset="538041">
    <nd ref="271947363"/>
    <nd ref="271947361"/>
    <nd ref="271947358"/>
    <nd ref="271947356"/>
    <nd ref="69838002"/>
    <nd ref="69838089"/>
    <nd ref="89447300"/>
    <nd ref="69838102"/>
    <nd ref="69838110"/>
    <nd ref="69838116"/>
    <nd ref="279549917"/>
    <nd ref="131073272"/>
    <nd ref="69838124"/>
    <tag k="created_by" v="Potlatch alpha"/>
    <tag k="highway" v="residential"/>
    <tag k="name" v="Pfaffenbrunnenstraße"/>
  </way>
  <way id="9289730" version="8" timestamp="2008-07-19T19:22:20Z" uid="31470" user="Tom63452" changeset="542547">
    <nd ref="279607775"/>
    <nd ref="279607773"/>
    <nd ref="279607771"/>
    <nd ref="279607769"/>
    <nd ref="279607767"/>
    <nd ref="279607764"/>
    <nd ref="279607762"/>
    <nd ref="279607759"/>
    <nd ref="279607757"/>
    <nd ref="279607754"/>
    <nd ref="271947363"/>
    <nd ref="271947361"/>
    <nd ref="271947358"/>
    <nd ref="271947356"/>
    <nd ref="69838002"/>
    <nd ref="69838089"/>
    <nd ref="89447300"/>
    <nd ref="69838102"/>
    <nd ref="69838110"/>
    <nd ref="69838116"/>
    <nd ref="279549917"/>
    <nd ref="131073272"/>
    <nd ref="69838124"/>
    <tag k="created_by" v="Potlatch alpha"/>
    <tag k="highway" v="residential"/>
    <tag k="name" v="Pfaffenbrunnenstraße"/>
  </way>
  <way id="9289730" version="9" timestamp="2008-07-21T10:50:42Z" uid="31470" user="Tom63452" changeset="557216">
    <nd ref="279607775"/>
    <nd ref="279607773"/>
    <nd ref="279607771"/>
    <nd ref="279607769"/>
    <nd ref="279607767"/>
    <nd ref="279607764"/>
    <nd ref="279607762"/>
    <nd ref="279607759"/>
    <nd ref="279607757"/>
    <nd ref="279607754"/>
    <nd ref="271947363"/>
    <nd ref="271947361"/>
    <nd ref="280003357"/>
    <nd ref="271947358"/>
    <nd ref="271947356"/>
    <nd ref="69838002"/>
    <nd ref="69838089"/>
    <nd ref="89447300"/>
    <nd ref="69838102"/>
    <nd ref="69838110"/>
    <nd ref="69838116"/>
    <nd ref="279549917"/>
    <nd ref="131073272"/>
    <nd ref="69838124"/>
    <tag k="created_by" v="Potlatch alpha"/>
    <tag k="highway" v="residential"/>
    <tag k="name" v="Pfaffenbrunnenstraße"/>
  </way>
  <way id="9289730" version="10" timestamp="2009-01-24T10:07:04Z" uid="31470" user="Tom63452" changeset="830469">
    <nd ref="279607775"/>
    <nd ref="279607773"/>
    <nd ref="279607771"/>
    <nd ref="279607769"/>
    <nd ref="279607767"/>
    <nd ref="279607764"/>
    <nd ref="279607762"/>
    <nd ref="279607759"/>
    <nd ref="279607757"/>
    <nd ref="279607754"/>
    <nd ref="271947363"/>
    <nd ref="271947361"/>
    <nd ref="280003357"/>
    <nd ref="271947358"/>
    <nd ref="271947356"/>
    <nd ref="69838002"/>
    <nd ref="69838089"/>
    <nd ref="89447300"/>
    <nd ref="69838102"/>
    <nd ref="69838110"/>
    <nd ref="69838116"/>
    <nd ref="279549917"/>
    <nd ref="69838124"/>
    <tag k="created_by" v="Potlatch alpha"/>
    <tag k="highway" v="residential"/>
    <tag k="name" v="Pfaffenbrunnenstraße"/>
  </way>
  <way id="9289730" version="11" timestamp="2009-03-14T20:43:34Z" uid="12165" user="MrJott" changeset="807331">
    <nd ref="279607775"/>
    <nd ref="279607773"/>
    <nd ref="279607771"/>
    <nd ref="279607769"/>
    <nd ref="279607767"/>
    <nd ref="279607764"/>
    <nd ref="279607762"/>
    <nd ref="279607759"/>
    <nd ref="279607757"/>
    <nd ref="279607754"/>
    <nd ref="271947363"/>
    <nd ref="271947361"/>
    <nd ref="280003357"/>
    <nd ref="271947358"/>
    <nd ref="271947356"/>
    <nd ref="69838002"/>
    <nd ref="360416555"/>
    <nd ref="69838089"/>
    <nd ref="89447300"/>
    <nd ref="69838102"/>
    <nd ref="69838110"/>
    <nd ref="69838116"/>
    <nd ref="279549917"/>
    <nd ref="69838124"/>
    <tag k="created_by" v="Potlatch alpha"/>
    <tag k="highway" v="residential"/>
    <tag k="name" v="Pfaffenbrunnenstraße"/>
  </way>
  <way id="9289730" version="12" timestamp="2009-09-23T01:43:28Z" uid="120369" user="tom63452" changeset="2586099"/>
  <way id="9289896" version="2" timestamp="2009-11-09T07:36:56Z" uid="4467" user="Rosscoe" changeset="3071110">
    <nd ref="69840125"/>
    <nd ref="69840157"/>
    <tag k="highway" v="residential"/>
    <tag k="name" v="Gilbert Place"/>
  </way>
  <way id="9289896" version="3" timestamp="2010-07-09T05:32:21Z" uid="74617" user="JohnSmith" changeset="5170972">
    <nd ref="69840125"/>
    <nd ref="69840157"/>
    <tag k="highway" v="residential"/>
    <tag k="maxspeed" v="50"/>
    <tag k="maxspeed:source" v="default residential speed limit in Australia"/>
    <tag k="name" v="Gilbert Place"/>
  </way>
  <way id="9289896" version="4" timestamp="2010-07-09T05:39:52Z" uid="74617" user="JohnSmith" changeset="5170972">
    <nd ref="69840125"/>
    <nd ref="69840157"/>
    <tag k="highway" v="residential"/>
    <tag k="maxspeed" v="50"/>
    <tag k="maxspeed:source" v="default residential speed limit in Australia"/>
    <tag k="name" v="Gilbert Place"/>
  </way>
  <way id="9289896" version="5" timestamp="2012-01-15T08:25:11Z" uid="147510" user="woodpeck_fixbot" changeset="10395278">
    <nd ref="69840125"/>
    <nd ref="69840157"/>
    <tag k="highway" v="residential"/>
    <tag k="name" v="Gilbert Place"/>
  </way>
  <way id="9289900" version="4" timestamp="2010-07-09T05:28:25Z" uid="74617" user="JohnSmith" changeset="5170972">
    <nd ref="69840836"/>
    <nd ref="69840869"/>
    <nd ref="69840438"/>
    <nd ref="69840545"/>
    <tag k="highway" v="residential"/>
    <tag k="maxspeed" v="50"/>
    <tag k="maxspeed:source" v="default residential speed limit in Australia"/>
    <tag k="name" v="Hill Street"/>
  </way>
  <way id="9289900" version="5" timestamp="2010-07-09T05:36:09Z" uid="74617" user="JohnSmith" changeset="5170972">
    <nd ref="69840836"/>
    <nd ref="69840869"/>
    <nd ref="69840438"/>
    <nd ref="69840545"/>
    <tag k="highway" v="residential"/>
    <tag k="maxspeed" v="50"/>
    <tag k="maxspeed:source" v="default residential speed limit in Australia"/>
    <tag k="name" v="Hill Street"/>
  </way>
  <way id="9289900" version="6" timestamp="2011-03-23T12:43:39Z" uid="4467" user="Rosscoe" changeset="7646150">
    <nd ref="69840836"/>
    <nd ref="69840869"/>
    <nd ref="1214781864"/>
    <tag k="highway" v="residential"/>
    <tag k="maxspeed" v="50"/>
    <tag k="maxspeed:source" v="default residential speed limit in Australia"/>
    <tag k="name" v="Hill Street"/>
  </way>
  <way id="9289900" version="7" timestamp="2012-01-15T08:25:13Z" uid="147510" user="woodpeck_fixbot" changeset="10395278">
    <nd ref="69840836"/>
    <nd ref="69840869"/>
    <nd ref="1214781864"/>
    <tag k="highway" v="residential"/>
    <tag k="name" v="Hill Street"/>
  </way>
  <way id="9289903" version="2" timestamp="2010-07-09T05:30:07Z" uid="74617" user="JohnSmith" changeset="5170972">
    <nd ref="69840482"/>
    <nd ref="69840465"/>
    <tag k="highway" v="residential"/>
    <tag k="maxspeed" v="50"/>
    <tag k="maxspeed:source" v="default residential speed limit in Australia"/>
  </way>
  <way id="9289903" version="3" timestamp="2010-07-09T05:37:43Z" uid="74617" user="JohnSmith" changeset="5170972">
    <nd ref="69840482"/>
    <nd ref="69840465"/>
    <tag k="highway" v="residential"/>
    <tag k="maxspeed" v="50"/>
    <tag k="maxspeed:source" v="default residential speed limit in Australia"/>
  </way>
  <way id="9289903" version="4" timestamp="2011-03-23T12:43:34Z" uid="4467" user="Rosscoe" changeset="7646150">
    <nd ref="69840482"/>
    <nd ref="1214781836"/>
    <nd ref="69840465"/>
    <tag k="highway" v="residential"/>
    <tag k="maxspeed" v="50"/>
    <tag k="maxspeed:source" v="default residential speed limit in Australia"/>
  </way>
  <way id="9289903" version="5" timestamp="2012-01-15T08:25:14Z" uid="147510" user="woodpeck_fixbot" changeset="10395278">
    <nd ref="69840482"/>
    <nd ref="1214781836"/>
    <nd ref="69840465"/>
    <tag k="highway" v="residential"/>
  </way>
  <way id="9289905" version="3" timestamp="2010-07-09T05:28:10Z" uid="74617" user="JohnSmith" changeset="5170972">
    <nd ref="69840407"/>
    <nd ref="69840514"/>
    <tag k="highway" v="residential"/>
    <tag k="maxspeed" v="50"/>
    <tag k="maxspeed:source" v="default residential speed limit in Australia"/>
    <tag k="name" v="Dossiter Street"/>
  </way>
  <way id="9289905" version="4" timestamp="2010-07-09T05:35:57Z" uid="74617" user="JohnSmith" changeset="5170972">
    <nd ref="69840407"/>
    <nd ref="69840514"/>
    <tag k="highway" v="residential"/>
    <tag k="maxspeed" v="50"/>
    <tag k="maxspeed:source" v="default residential speed limit in Australia"/>
    <tag k="name" v="Dossiter Street"/>
  </way>
  <way id="9289905" version="5" timestamp="2012-01-15T08:25:16Z" uid="147510" user="woodpeck_fixbot" changeset="10395278">
    <nd ref="69840407"/>
    <nd ref="69840514"/>
    <tag k="highway" v="residential"/>
    <tag k="name" v="Dossiter Street"/>
  </way>
  <way id="9289908" version="5" timestamp="2010-07-09T05:33:08Z" uid="74617" user="JohnSmith" changeset="5170972">
    <nd ref="257193469"/>
    <nd ref="257193872"/>
    <nd ref="69840438"/>
    <nd ref="69840407"/>
    <nd ref="69840377"/>
    <tag k="highway" v="residential"/>
    <tag k="maxspeed" v="50"/>
    <tag k="maxspeed:source" v="default residential speed limit in Australia"/>
    <tag k="name" v="River Street"/>
  </way>
  <way id="9289908" version="6" timestamp="2010-07-09T05:40:33Z" uid="74617" user="JohnSmith" changeset="5170972">
    <nd ref="257193469"/>
    <nd ref="257193872"/>
    <nd ref="69840438"/>
    <nd ref="69840407"/>
    <nd ref="69840377"/>
    <tag k="highway" v="residential"/>
    <tag k="maxspeed" v="50"/>
    <tag k="maxspeed:source" v="default residential speed limit in Australia"/>
    <tag k="name" v="River Street"/>
  </way>
  <way id="9289908" version="7" timestamp="2011-03-23T12:43:26Z" uid="4467" user="Rosscoe" changeset="7646150">
    <nd ref="257193469"/>
    <nd ref="257193872"/>
    <nd ref="1214781891"/>
    <tag k="highway" v="residential"/>
    <tag k="maxspeed" v="50"/>
    <tag k="maxspeed:source" v="default residential speed limit in Australia"/>
    <tag k="name" v="River Street"/>
  </way>
  <way id="9289908" version="8" timestamp="2012-01-15T08:25:17Z" uid="147510" user="woodpeck_fixbot" changeset="10395278">
    <nd ref="257193469"/>
    <nd ref="257193872"/>
    <nd ref="1214781891"/>
    <tag k="highway" v="residential"/>
    <tag k="name" v="River Street"/>
  </way>
  <way id="9289913" version="4" timestamp="2010-07-09T05:30:29Z" uid="74617" user="JohnSmith" changeset="5170972">
    <nd ref="69840573"/>
    <nd ref="69840354"/>
    <nd ref="69840482"/>
    <nd ref="69840320"/>
    <tag k="highway" v="residential"/>
    <tag k="maxspeed" v="50"/>
    <tag k="maxspeed:source" v="default residential speed limit in Australia"/>
    <tag k="name" v="Alexandra Esplanade"/>
  </way>
  <way id="9289913" version="5" timestamp="2010-07-09T05:38:04Z" uid="74617" user="JohnSmith" changeset="5170972">
    <nd ref="69840573"/>
    <nd ref="69840354"/>
    <nd ref="69840482"/>
    <nd ref="69840320"/>
    <tag k="highway" v="residential"/>
    <tag k="maxspeed" v="50"/>
    <tag k="maxspeed:source" v="default residential speed limit in Australia"/>
    <tag k="name" v="Alexandra Esplanade"/>
  </way>
  <way id="9289913" version="6" timestamp="2011-03-23T12:43:38Z" uid="4467" user="Rosscoe" changeset="7646150">
    <nd ref="69840573"/>
    <nd ref="1214781802"/>
    <nd ref="69840354"/>
    <nd ref="69840482"/>
    <nd ref="69840320"/>
    <tag k="highway" v="residential"/>
    <tag k="maxspeed" v="50"/>
    <tag k="maxspeed:source" v="default residential speed limit in Australia"/>
    <tag k="name" v="Alexandra Esplanade"/>
  </way>
  <way id="9289913" version="7" timestamp="2012-01-15T08:25:19Z" uid="147510" user="woodpeck_fixbot" changeset="10395278">
    <nd ref="69840573"/>
    <nd ref="1214781802"/>
    <nd ref="69840354"/>
    <nd ref="69840482"/>
    <nd ref="69840320"/>
    <tag k="highway" v="residential"/>
    <tag k="name" v="Alexandra Esplanade"/>
  </way>
  <way id="9289915" version="3" timestamp="2010-07-09T05:29:35Z" uid="74617" user="JohnSmith" changeset="5170972">
    <nd ref="69840704"/>
    <nd ref="69840680"/>
    <nd ref="69840730"/>
    <tag k="highway" v="residential"/>
    <tag k="maxspeed" v="50"/>
    <tag k="maxspeed:source" v="default residential speed limit in Australia"/>
    <tag k="name" v="Luttrell Avenue"/>
  </way>
  <way id="9289915" version="4" timestamp="2010-07-09T05:37:13Z" uid="74617" user="JohnSmith" changeset="5170972">
    <nd ref="69840704"/>
    <nd ref="69840680"/>
    <nd ref="69840730"/>
    <tag k="highway" v="residential"/>
    <tag k="maxspeed" v="50"/>
    <tag k="maxspeed:source" v="default residential speed limit in Australia"/>
    <tag k="name" v="Luttrell Avenue"/>
  </way>
  <way id="9289915" version="5" timestamp="2012-01-15T08:25:20Z" uid="147510" user="woodpeck_fixbot" changeset="10395278">
    <nd ref="69840704"/>
    <nd ref="69840680"/>
    <nd ref="69840730"/>
    <tag k="highway" v="residential"/>
    <tag k="name" v="Luttrell Avenue"/>
  </way>
  <way id="9289918" version="3" timestamp="2010-07-09T05:28:52Z" uid="74617" user="JohnSmith" changeset="5170972">
    <nd ref="69840623"/>
    <nd ref="69840680"/>
    <tag k="highway" v="residential"/>
    <tag k="maxspeed" v="50"/>
    <tag k="maxspeed:source" v="default residential speed limit in Australia"/>
    <tag k="name" v="Facy Street"/>
  </way>
  <way id="9289918" version="4" timestamp="2010-07-09T05:36:33Z" uid="74617" user="JohnSmith" changeset="5170972">
    <nd ref="69840623"/>
    <nd ref="69840680"/>
    <tag k="highway" v="residential"/>
    <tag k="maxspeed" v="50"/>
    <tag k="maxspeed:source" v="default residential speed limit in Australia"/>
    <tag k="name" v="Facy Street"/>
  </way>
  <way id="9289918" version="5" timestamp="2012-01-15T08:25:22Z" uid="147510" user="woodpeck_fixbot" changeset="10395278">
    <nd ref="69840623"/>
    <nd ref="69840680"/>
    <tag k="highway" v="residential"/>
    <tag k="name" v="Facy Street"/>
  </way>
  <way id="9289919" version="2" timestamp="2009-11-09T07:36:58Z" uid="4467" user="Rosscoe" changeset="3071110">
    <nd ref="69840655"/>
    <nd ref="69840623"/>
    <nd ref="69840597"/>
    <nd ref="69840189"/>
    <nd ref="69840125"/>
    <nd ref="69840217"/>
    <tag k="highway" v="residential"/>
    <tag k="name" v="South Street"/>
  </way>
  <way id="9289919" version="3" timestamp="2009-11-09T08:07:11Z" uid="4467" user="Rosscoe" changeset="3071229">
    <nd ref="69840655"/>
    <nd ref="69840623"/>
    <nd ref="559893948"/>
    <tag k="highway" v="residential"/>
    <tag k="name" v="South Street"/>
  </way>
  <way id="9289919" version="4" timestamp="2010-07-09T05:31:17Z" uid="74617" user="JohnSmith" changeset="5170972">
    <nd ref="69840655"/>
    <nd ref="69840623"/>
    <nd ref="559893948"/>
    <tag k="highway" v="residential"/>
    <tag k="maxspeed" v="50"/>
    <tag k="maxspeed:source" v="default residential speed limit in Australia"/>
    <tag k="name" v="South Street"/>
  </way>
  <way id="9289919" version="5" timestamp="2010-07-09T05:38:51Z" uid="74617" user="JohnSmith" changeset="5170972">
    <nd ref="69840655"/>
    <nd ref="69840623"/>
    <nd ref="559893948"/>
    <tag k="highway" v="residential"/>
    <tag k="maxspeed" v="50"/>
    <tag k="maxspeed:source" v="default residential speed limit in Australia"/>
    <tag k="name" v="South Street"/>
  </way>
  <way id="9289919" version="6" timestamp="2012-01-15T08:25:23Z" uid="147510" user="woodpeck_fixbot" changeset="10395278">
    <nd ref="69840655"/>
    <nd ref="69840623"/>
    <nd ref="559893948"/>
    <tag k="highway" v="residential"/>
    <tag k="name" v="South Street"/>
  </way>
  <way id="9289922" version="7" timestamp="2010-07-09T05:32:25Z" uid="74617" user="JohnSmith" changeset="5170972">
    <nd ref="69840985"/>
    <nd ref="69840965"/>
    <nd ref="257198060"/>
    <nd ref="69840836"/>
    <nd ref="257198885"/>
    <nd ref="84328952"/>
    <nd ref="69840780"/>
    <nd ref="84293912"/>
    <nd ref="69840655"/>
    <nd ref="69840811"/>
    <nd ref="69840704"/>
    <tag k="highway" v="residential"/>
    <tag k="maxspeed" v="50"/>
    <tag k="maxspeed:source" v="default residential speed limit in Australia"/>
    <tag k="name" v="Beach Street"/>
  </way>
  <way id="9289922" version="8" timestamp="2010-07-09T05:39:56Z" uid="74617" user="JohnSmith" changeset="5170972">
    <nd ref="69840985"/>
    <nd ref="69840965"/>
    <nd ref="257198060"/>
    <nd ref="69840836"/>
    <nd ref="257198885"/>
    <nd ref="84328952"/>
    <nd ref="69840780"/>
    <nd ref="84293912"/>
    <nd ref="69840655"/>
    <nd ref="69840811"/>
    <nd ref="69840704"/>
    <tag k="highway" v="residential"/>
    <tag k="maxspeed" v="50"/>
    <tag k="maxspeed:source" v="default residential speed limit in Australia"/>
    <tag k="name" v="Beach Street"/>
  </way>
  <way id="9289922" version="9" timestamp="2011-03-23T12:43:41Z" uid="4467" user="Rosscoe" changeset="7646150">
    <nd ref="69840985"/>
    <nd ref="257198060"/>
    <nd ref="69840836"/>
    <nd ref="257198885"/>
    <nd ref="84328952"/>
    <nd ref="69840780"/>
    <nd ref="84293912"/>
    <nd ref="69840655"/>
    <nd ref="69840811"/>
    <nd ref="69840704"/>
    <tag k="highway" v="residential"/>
    <tag k="maxspeed" v="50"/>
    <tag k="maxspeed:source" v="default residential speed limit in Australia"/>
    <tag k="name" v="Beach Street"/>
  </way>
  <way id="9289922" version="10" timestamp="2012-01-15T08:25:26Z" uid="147510" user="woodpeck_fixbot" changeset="10395278">
    <nd ref="69840985"/>
    <nd ref="257198060"/>
    <nd ref="69840836"/>
    <nd ref="257198885"/>
    <nd ref="84328952"/>
    <nd ref="69840780"/>
    <nd ref="84293912"/>
    <nd ref="69840655"/>
    <nd ref="69840811"/>
    <nd ref="69840704"/>
    <tag k="highway" v="residential"/>
    <tag k="name" v="Beach Street"/>
  </way>
  <way id="9289933" version="4" timestamp="2009-11-09T08:07:11Z" uid="4467" user="Rosscoe" changeset="3071229">
    <nd ref="69840933"/>
    <nd ref="69840900"/>
    <nd ref="257264840"/>
    <nd ref="69840869"/>
    <nd ref="69840753"/>
    <nd ref="559893955"/>
    <tag k="highway" v="residential"/>
    <tag k="name" v="High Street"/>
  </way>
  <way id="9289933" version="5" timestamp="2010-07-09T05:28:15Z" uid="74617" user="JohnSmith" changeset="5170972">
    <nd ref="69840933"/>
    <nd ref="69840900"/>
    <nd ref="257264840"/>
    <nd ref="69840869"/>
    <nd ref="69840753"/>
    <nd ref="559893955"/>
    <tag k="highway" v="residential"/>
    <tag k="maxspeed" v="50"/>
    <tag k="maxspeed:source" v="default residential speed limit in Australia"/>
    <tag k="name" v="High Street"/>
  </way>
  <way id="9289933" version="6" timestamp="2010-07-09T05:36:01Z" uid="74617" user="JohnSmith" changeset="5170972">
    <nd ref="69840933"/>
    <nd ref="69840900"/>
    <nd ref="257264840"/>
    <nd ref="69840869"/>
    <nd ref="69840753"/>
    <nd ref="559893955"/>
    <tag k="highway" v="residential"/>
    <tag k="maxspeed" v="50"/>
    <tag k="maxspeed:source" v="default residential speed limit in Australia"/>
    <tag k="name" v="High Street"/>
  </way>
  <way id="9289933" version="7" timestamp="2011-03-23T12:43:36Z" uid="4467" user="Rosscoe" changeset="7646150">
    <nd ref="69840933"/>
    <nd ref="69840900"/>
    <nd ref="69840869"/>
    <nd ref="69840753"/>
    <nd ref="559893955"/>
    <tag k="highway" v="residential"/>
    <tag k="maxspeed" v="50"/>
    <tag k="maxspeed:source" v="default residential speed limit in Australia"/>
    <tag k="name" v="High Street"/>
  </way>
  <way id="9289933" version="8" timestamp="2012-01-15T08:25:27Z" uid="147510" user="woodpeck_fixbot" changeset="10395278">
    <nd ref="69840933"/>
    <nd ref="69840900"/>
    <nd ref="69840869"/>
    <nd ref="69840753"/>
    <nd ref="559893955"/>
    <tag k="highway" v="residential"/>
    <tag k="name" v="High Street"/>
  </way>
  <way id="9289989" version="1" timestamp="2007-10-14T02:55:40Z" uid="7617" user="Franc" changeset="165865">
    <nd ref="31651974"/>
    <nd ref="31651975"/>
    <tag k="created_by" v="Potlatch alpha"/>
    <tag k="highway" v="residential"/>
    <tag k="name" v="Marana Road"/>
  </way>
  <way id="9289989" version="2" timestamp="2007-12-24T06:16:59Z" uid="7617" user="Franc" changeset="408635">
    <nd ref="31651974"/>
    <nd ref="31651975"/>
    <tag k="created_by" v="Potlatch alpha"/>
    <tag k="highway" v="residential"/>
    <tag k="name" v="Marana Road"/>
    <tag k="source" v="survey"/>
  </way>
  <way id="9289989" version="3" timestamp="2007-12-24T06:38:30Z" uid="7617" user="Franc" changeset="408635"/>
</osm>
