<?xml version='1.0' encoding='UTF-8'?>
<osm version="0.6" generator="libosmium/2.20.0">
  <way id="929311" version="3" timestamp="2008-04-11T15:22:40Z" uid="26515" user="Simon Ward" changeset="115635">
    <nd ref="3351359"/>
    <nd ref="3351358"/>
    <nd ref="3351353"/>
    <nd ref="3351352"/>
    <nd ref="3351349"/>
    <nd ref="3351348"/>
    <nd ref="3351346"/>
    <nd ref="3351344"/>
    <nd ref="3351341"/>
    <nd ref="3351340"/>
    <nd ref="3351337"/>
    <nd ref="3351336"/>
    <nd ref="3351333"/>
    <nd ref="3351332"/>
    <nd ref="3351329"/>
    <nd ref="3351327"/>
    <nd ref="3351326"/>
    <nd ref="3351264"/>
    <nd ref="3351262"/>
    <nd ref="3351263"/>
    <nd ref="3350617"/>
    <nd ref="3350613"/>
    <nd ref="3350611"/>
    <nd ref="3350609"/>
    <nd ref="3350607"/>
    <nd ref="3350605"/>
    <nd ref="3350579"/>
    <nd ref="3350578"/>
    <nd ref="3350577"/>
    <nd ref="3350570"/>
    <nd ref="3350569"/>
    <nd ref="3350566"/>
    <nd ref="3350565"/>
    <nd ref="3350560"/>
    <nd ref="3350559"/>
    <nd ref="3350557"/>
    <nd ref="3350554"/>
    <nd ref="3350552"/>
    <nd ref="3350549"/>
    <nd ref="3350546"/>
    <tag k="created_by" v="Potlatch alpha"/>
    <tag k="highway" v="motorway"/>
    <tag k="layer" v="1"/>
    <tag k="name" v="Mancunian Way"/>
    <tag k="oneway" v="yes"/>
    <tag k="ref" v="A57(M)"/>
  </way>
  <way id="929311" version="4" timestamp="2008-06-05T18:13:26Z" uid="37512" user="Kyllikki" changeset="57040">
    <nd ref="3351359"/>
    <nd ref="3351358"/>
    <nd ref="3351353"/>
    <nd ref="268646639"/>
    <nd ref="3351352"/>
    <nd ref="3351349"/>
    <nd ref="3351348"/>
    <nd ref="3351346"/>
    <nd ref="3351344"/>
    <nd ref="3351341"/>
    <nd ref="268646629"/>
    <nd ref="3351340"/>
    <nd ref="3351337"/>
    <nd ref="3351336"/>
    <nd ref="3351333"/>
    <nd ref="3351332"/>
    <nd ref="3351329"/>
    <nd ref="3351327"/>
    <nd ref="3351326"/>
    <nd ref="3351264"/>
    <nd ref="3351262"/>
    <nd ref="3351263"/>
    <nd ref="3350617"/>
    <nd ref="3350613"/>
    <nd ref="3350611"/>
    <nd ref="3350609"/>
    <nd ref="3350607"/>
    <nd ref="3350605"/>
    <nd ref="3350579"/>
    <nd ref="3350578"/>
    <nd ref="3350577"/>
    <nd ref="3350570"/>
    <nd ref="3350569"/>
    <nd ref="3350566"/>
    <nd ref="3350565"/>
    <nd ref="3350560"/>
    <nd ref="3350559"/>
    <nd ref="3350557"/>
    <nd ref="3350554"/>
    <nd ref="3350552"/>
    <nd ref="3350549"/>
    <nd ref="3350546"/>
    <tag k="created_by" v="Potlatch alpha"/>
    <tag k="highway" v="motorway"/>
    <tag k="layer" v="1"/>
    <tag k="name" v="Mancunian Way"/>
    <tag k="oneway" v="yes"/>
    <tag k="ref" v="A57(M)"/>
  </way>
  <way id="929311" version="5" timestamp="2009-05-12T11:50:27Z" uid="121664" user="fingerpuppet" changeset="1163439">
    <nd ref="3351359"/>
    <nd ref="3351358"/>
    <nd ref="3351353"/>
    <nd ref="268646639"/>
    <nd ref="3351352"/>
    <nd ref="3351349"/>
    <nd ref="3351348"/>
    <nd ref="3351346"/>
    <nd ref="3351344"/>
    <nd ref="3351341"/>
    <tag k="created_by" v="Potlatch alpha"/>
    <tag k="highway" v="motorway"/>
    <tag k="layer" v="1"/>
    <tag k="name" v="Mancunian Way"/>
    <tag k="oneway" v="yes"/>
    <tag k="ref" v="A57(M)"/>
  </way>
  <way id="929311" version="6" timestamp="2009-05-12T11:50:33Z" uid="121664" user="fingerpuppet" changeset="1163439">
    <nd ref="3351359"/>
    <nd ref="3351358"/>
    <nd ref="3351353"/>
    <nd ref="268646639"/>
    <nd ref="3351352"/>
    <nd ref="3351349"/>
    <nd ref="3351348"/>
    <nd ref="3351346"/>
    <nd ref="3351344"/>
    <nd ref="3351341"/>
    <tag k="created_by" v="Potlatch alpha"/>
    <tag k="highway" v="motorway"/>
    <tag k="layer" v="1"/>
    <tag k="name" v="Mancunian Way"/>
    <tag k="oneway" v="yes"/>
    <tag k="ref" v="A635(M)"/>
  </way>
  <way id="929311" version="7" timestamp="2010-10-27T10:25:38Z" uid="363696" user="lefrinj" changeset="6193661">
    <nd ref="3351359"/>
    <nd ref="3351358"/>
    <nd ref="3351353"/>
    <nd ref="268646639"/>
    <nd ref="3351352"/>
    <nd ref="3351349"/>
    <nd ref="3351348"/>
    <nd ref="3351346"/>
    <nd ref="3351344"/>
    <nd ref="3351341"/>
    <tag k="highway" v="motorway"/>
    <tag k="layer" v="1"/>
    <tag k="maxspeed" v="50 mph"/>
    <tag k="name" v="Mancunian Way"/>
    <tag k="oneway" v="yes"/>
    <tag k="ref" v="A635(M)"/>
  </way>
  <way id="929311" version="8" timestamp="2010-11-24T15:35:35Z" uid="47487" user="IJMacD" changeset="6447709">
    <nd ref="3351359"/>
    <nd ref="1002564025"/>
    <nd ref="3351358"/>
    <tag k="highway" v="motorway"/>
    <tag k="layer" v="1"/>
    <tag k="maxspeed" v="50 mph"/>
    <tag k="name" v="Mancunian Way"/>
    <tag k="oneway" v="yes"/>
    <tag k="ref" v="A635(M)"/>
  </way>
  <way id="929311" version="9" timestamp="2012-03-04T19:19:55Z" uid="82820" user="Mark_S" changeset="10872756"/>
  <way id="929463" version="3" timestamp="2008-04-11T15:22:45Z" uid="26515" user="Simon Ward" changeset="115635">
    <nd ref="3350511"/>
    <nd ref="3350512"/>
    <nd ref="3350515"/>
    <nd ref="3350517"/>
    <nd ref="3350521"/>
    <nd ref="3350522"/>
    <nd ref="3350525"/>
    <nd ref="3350526"/>
    <nd ref="3350529"/>
    <nd ref="3350533"/>
    <nd ref="3350534"/>
    <nd ref="3350537"/>
    <nd ref="3350538"/>
    <nd ref="3350543"/>
    <nd ref="3350544"/>
    <nd ref="3350547"/>
    <tag k="created_by" v="Potlatch alpha"/>
    <tag k="highway" v="motorway"/>
    <tag k="layer" v="-1"/>
    <tag k="name" v="Mancunian Way"/>
    <tag k="oneway" v="yes"/>
    <tag k="ref" v="A57(M)"/>
  </way>
  <way id="929463" version="4" timestamp="2008-09-17T16:30:57Z" uid="54755" user="Paul Martin" changeset="653171">
    <nd ref="3350511"/>
    <nd ref="3350512"/>
    <nd ref="3350515"/>
    <nd ref="3350517"/>
    <nd ref="3350521"/>
    <nd ref="3350522"/>
    <nd ref="3350525"/>
    <nd ref="3350526"/>
    <nd ref="3350529"/>
    <nd ref="3350533"/>
    <nd ref="297722158"/>
    <nd ref="3350534"/>
    <nd ref="3350537"/>
    <nd ref="3350538"/>
    <nd ref="3350543"/>
    <nd ref="3350544"/>
    <nd ref="3350547"/>
    <tag k="created_by" v="Potlatch 0.10b"/>
    <tag k="highway" v="motorway"/>
    <tag k="layer" v="-1"/>
    <tag k="name" v="Mancunian Way"/>
    <tag k="oneway" v="yes"/>
    <tag k="ref" v="A57(M)"/>
  </way>
  <way id="929463" version="5" timestamp="2008-10-26T16:33:23Z" uid="735" user="blackadder" changeset="583072">
    <nd ref="3350511"/>
    <nd ref="3350512"/>
    <nd ref="3350515"/>
    <nd ref="3350517"/>
    <nd ref="3350521"/>
    <nd ref="3350522"/>
    <nd ref="307735119"/>
    <nd ref="3350525"/>
    <nd ref="3350526"/>
    <nd ref="3350529"/>
    <nd ref="3350533"/>
    <nd ref="297722158"/>
    <nd ref="3350534"/>
    <nd ref="3350537"/>
    <nd ref="3350538"/>
    <nd ref="3350543"/>
    <nd ref="3350544"/>
    <nd ref="3350547"/>
    <tag k="created_by" v="Potlatch 0.10b"/>
    <tag k="highway" v="motorway"/>
    <tag k="layer" v="-1"/>
    <tag k="name" v="Mancunian Way"/>
    <tag k="oneway" v="yes"/>
    <tag k="ref" v="A57(M)"/>
  </way>
  <way id="929463" version="6" timestamp="2008-10-27T11:12:39Z" uid="8235" user="chriscf" changeset="598640"/>
</osm>
