<?xml version='1.0' encoding='UTF-8'?>
<osm version="0.6" generator="libosmium/2.20.0">
  <way id="9293007" version="2" timestamp="2008-11-15T02:00:49Z" uid="7617" user="Franc" changeset="749614">
    <nd ref="69894108"/>
    <nd ref="69894109"/>
    <tag k="created_by" v="Potlatch alpha"/>
    <tag k="highway" v="residential"/>
    <tag k="name" v="Wolseley Street"/>
  </way>
  <way id="9293007" version="3" timestamp="2009-12-05T10:29:40Z" uid="7617" user="Franc" changeset="3294077">
    <nd ref="69894108"/>
    <nd ref="581830201"/>
    <nd ref="69894109"/>
    <tag k="highway" v="residential"/>
    <tag k="name" v="Wolseley Street"/>
  </way>
  <way id="9293007" version="4" timestamp="2009-12-05T22:54:48Z" uid="7617" user="Franc" changeset="3299227">
    <nd ref="69894108"/>
    <nd ref="582220645"/>
    <nd ref="581830201"/>
    <nd ref="69894109"/>
    <tag k="highway" v="residential"/>
    <tag k="name" v="Wolseley Street"/>
  </way>
  <way id="9293007" version="5" timestamp="2010-03-13T14:25:22Z" uid="7617" user="Franc" changeset="4115145">
    <nd ref="69894108"/>
    <nd ref="665195025"/>
    <tag k="highway" v="residential"/>
    <tag k="name" v="Wolseley Street"/>
  </way>
  <way id="9293007" version="6" timestamp="2010-07-08T01:58:49Z" uid="74617" user="JohnSmith" changeset="5162525">
    <nd ref="69894108"/>
    <nd ref="665195025"/>
    <tag k="highway" v="residential"/>
    <tag k="maxspeed" v="50"/>
    <tag k="maxspeed:source" v="default residential speed limit in Australia"/>
    <tag k="name" v="Wolseley Street"/>
  </way>
  <way id="9293007" version="7" timestamp="2012-01-15T08:25:59Z" uid="147510" user="woodpeck_fixbot" changeset="10395278">
    <nd ref="69894108"/>
    <nd ref="665195025"/>
    <tag k="highway" v="residential"/>
    <tag k="name" v="Wolseley Street"/>
  </way>
  <way id="9293052" version="4" timestamp="2010-03-13T14:25:22Z" uid="7617" user="Franc" changeset="4115145">
    <nd ref="69895101"/>
    <nd ref="665195031"/>
    <tag k="highway" v="residential"/>
    <tag k="name" v="Cathard Street"/>
    <tag k="restriction" v="school_zone"/>
  </way>
  <way id="9293052" version="5" timestamp="2010-07-08T01:59:31Z" uid="74617" user="JohnSmith" changeset="5162525">
    <nd ref="69895101"/>
    <nd ref="665195031"/>
    <tag k="highway" v="residential"/>
    <tag k="maxspeed" v="50"/>
    <tag k="maxspeed:source" v="default residential speed limit in Australia"/>
    <tag k="name" v="Cathard Street"/>
    <tag k="restriction" v="school_zone"/>
  </way>
  <way id="9293052" version="6" timestamp="2012-01-15T08:26:00Z" uid="147510" user="woodpeck_fixbot" changeset="10395278">
    <nd ref="69895101"/>
    <nd ref="665195031"/>
    <tag k="highway" v="residential"/>
    <tag k="name" v="Cathard Street"/>
    <tag k="restriction" v="school_zone"/>
  </way>
  <way id="9293130" version="6" timestamp="2009-01-02T14:52:57Z" uid="58091" user="Andreas M" changeset="708469">
    <nd ref="69896528"/>
    <nd ref="69896530"/>
    <tag k="bridge" v="yes"/>
    <tag k="created_by" v="Potlatch 0.9a"/>
    <tag k="highway" v="tertiary"/>
    <tag k="layer" v="1"/>
    <tag k="name" v="Rotundenbrücke"/>
    <tag k="railway" v="tram"/>
  </way>
  <way id="9293130" version="7" timestamp="2009-05-31T19:15:03Z" uid="56311" user="Elandrion" changeset="1372571">
    <nd ref="69896528"/>
    <nd ref="69896530"/>
    <tag k="bridge" v="yes"/>
    <tag k="highway" v="tertiary"/>
    <tag k="layer" v="1"/>
    <tag k="name" v="Rotundenbrücke"/>
    <tag k="railway" v="tram"/>
    <tag k="tracks" v="2"/>
  </way>
  <way id="9293130" version="8" timestamp="2009-10-30T21:57:42Z" uid="177764" user="matknoll" changeset="2993226">
    <nd ref="69896528"/>
    <nd ref="69896530"/>
    <tag k="bridge" v="yes"/>
    <tag k="cycleway" v="track"/>
    <tag k="highway" v="tertiary"/>
    <tag k="layer" v="1"/>
    <tag k="lcn" v="yes"/>
    <tag k="name" v="Rotundenbrücke"/>
    <tag k="railway" v="tram"/>
    <tag k="tracks" v="2"/>
  </way>
  <way id="9293130" version="9" timestamp="2009-12-08T09:42:04Z" uid="104947" user="My Friend" changeset="3323446">
    <nd ref="69896528"/>
    <nd ref="69896530"/>
    <tag k="bridge" v="yes"/>
    <tag k="cycleway" v="track"/>
    <tag k="highway" v="residential"/>
    <tag k="layer" v="1"/>
    <tag k="lcn" v="yes"/>
    <tag k="name" v="Rotundenbrücke"/>
    <tag k="railway" v="tram"/>
    <tag k="tracks" v="2"/>
  </way>
  <way id="9293130" version="10" timestamp="2010-04-18T20:00:13Z" uid="129531" user="almich" changeset="4462273">
    <nd ref="69896528"/>
    <nd ref="69896530"/>
    <tag k="bridge" v="yes"/>
    <tag k="cycleway" v="track"/>
    <tag k="gauge" v="1435"/>
    <tag k="highway" v="residential"/>
    <tag k="layer" v="1"/>
    <tag k="lcn" v="yes"/>
    <tag k="name" v="Rotundenbrücke"/>
    <tag k="railway" v="tram"/>
    <tag k="tracks" v="2"/>
  </way>
  <way id="9293130" version="11" timestamp="2010-04-18T20:25:11Z" uid="129531" user="almich" changeset="4462598">
    <nd ref="69896528"/>
    <nd ref="69896530"/>
    <tag k="bridge" v="yes"/>
    <tag k="cycleway" v="track"/>
    <tag k="electrified" v="contact_line"/>
    <tag k="frequency" v="0"/>
    <tag k="gauge" v="1435"/>
    <tag k="highway" v="residential"/>
    <tag k="layer" v="1"/>
    <tag k="lcn" v="yes"/>
    <tag k="name" v="Rotundenbrücke"/>
    <tag k="railway" v="tram"/>
    <tag k="tracks" v="2"/>
  </way>
  <way id="9293130" version="12" timestamp="2011-02-20T16:22:49Z" uid="14907" user="nevermind" changeset="7343723">
    <nd ref="69896528"/>
    <nd ref="69896530"/>
    <tag k="bridge" v="yes"/>
    <tag k="cycleway" v="track"/>
    <tag k="electrified" v="contact_line"/>
    <tag k="frequency" v="0"/>
    <tag k="gauge" v="1435"/>
    <tag k="highway" v="tertiary"/>
    <tag k="layer" v="1"/>
    <tag k="lcn" v="yes"/>
    <tag k="name" v="Rotundenbrücke"/>
    <tag k="railway" v="tram"/>
    <tag k="tracks" v="2"/>
  </way>
  <way id="9293130" version="13" timestamp="2011-11-08T00:46:47Z" uid="129531" user="almich" changeset="9770160">
    <nd ref="69896528"/>
    <nd ref="69896530"/>
    <tag k="bridge" v="yes"/>
    <tag k="cycleway" v="track"/>
    <tag k="electrified" v="contact_line"/>
    <tag k="frequency" v="0"/>
    <tag k="gauge" v="1435"/>
    <tag k="highway" v="tertiary"/>
    <tag k="layer" v="1"/>
    <tag k="lcn" v="yes"/>
    <tag k="name" v="Rotundenbrücke"/>
    <tag k="railway" v="tram"/>
    <tag k="tracks" v="2"/>
    <tag k="voltage" v="600"/>
  </way>
  <way id="9293132" version="5" timestamp="2009-01-02T14:52:57Z" uid="58091" user="Andreas M" changeset="708469">
    <nd ref="69896530"/>
    <nd ref="60216506"/>
    <tag k="created_by" v="Potlatch 0.9a"/>
    <tag k="highway" v="tertiary"/>
    <tag k="name" v="Wittelsbachstraße"/>
    <tag k="railway" v="tram"/>
  </way>
  <way id="9293132" version="6" timestamp="2009-05-31T19:15:04Z" uid="56311" user="Elandrion" changeset="1372571">
    <nd ref="69896530"/>
    <nd ref="60216506"/>
    <tag k="highway" v="tertiary"/>
    <tag k="name" v="Wittelsbachstraße"/>
    <tag k="railway" v="tram"/>
    <tag k="tracks" v="2"/>
  </way>
  <way id="9293132" version="7" timestamp="2009-10-30T21:57:42Z" uid="177764" user="matknoll" changeset="2993226">
    <nd ref="69896530"/>
    <nd ref="60216506"/>
    <tag k="cycleway" v="lane"/>
    <tag k="highway" v="tertiary"/>
    <tag k="lcn" v="yes"/>
    <tag k="name" v="Wittelsbachstraße"/>
    <tag k="railway" v="tram"/>
    <tag k="tracks" v="2"/>
  </way>
  <way id="9293132" version="8" timestamp="2009-12-08T09:42:06Z" uid="104947" user="My Friend" changeset="3323446">
    <nd ref="69896530"/>
    <nd ref="60216506"/>
    <tag k="cycleway" v="lane"/>
    <tag k="highway" v="residential"/>
    <tag k="lcn" v="yes"/>
    <tag k="name" v="Wittelsbachstraße"/>
    <tag k="railway" v="tram"/>
    <tag k="tracks" v="2"/>
  </way>
  <way id="9293132" version="9" timestamp="2010-04-18T20:00:13Z" uid="129531" user="almich" changeset="4462273">
    <nd ref="69896530"/>
    <nd ref="60216506"/>
    <tag k="cycleway" v="lane"/>
    <tag k="gauge" v="1435"/>
    <tag k="highway" v="residential"/>
    <tag k="lcn" v="yes"/>
    <tag k="name" v="Wittelsbachstraße"/>
    <tag k="railway" v="tram"/>
    <tag k="tracks" v="2"/>
  </way>
  <way id="9293132" version="10" timestamp="2010-04-18T20:25:11Z" uid="129531" user="almich" changeset="4462598">
    <nd ref="69896530"/>
    <nd ref="60216506"/>
    <tag k="cycleway" v="lane"/>
    <tag k="electrified" v="contact_line"/>
    <tag k="frequency" v="0"/>
    <tag k="gauge" v="1435"/>
    <tag k="highway" v="residential"/>
    <tag k="lcn" v="yes"/>
    <tag k="name" v="Wittelsbachstraße"/>
    <tag k="railway" v="tram"/>
    <tag k="tracks" v="2"/>
  </way>
  <way id="9293132" version="11" timestamp="2011-02-20T16:22:50Z" uid="14907" user="nevermind" changeset="7343723">
    <nd ref="69896530"/>
    <nd ref="60216506"/>
    <tag k="cycleway" v="lane"/>
    <tag k="electrified" v="contact_line"/>
    <tag k="frequency" v="0"/>
    <tag k="gauge" v="1435"/>
    <tag k="highway" v="tertiary"/>
    <tag k="lcn" v="yes"/>
    <tag k="name" v="Wittelsbachstraße"/>
    <tag k="railway" v="tram"/>
    <tag k="tracks" v="2"/>
  </way>
  <way id="9293132" version="12" timestamp="2011-11-08T00:47:14Z" uid="129531" user="almich" changeset="9770160">
    <nd ref="69896530"/>
    <nd ref="60216506"/>
    <tag k="cycleway" v="lane"/>
    <tag k="electrified" v="contact_line"/>
    <tag k="frequency" v="0"/>
    <tag k="gauge" v="1435"/>
    <tag k="highway" v="tertiary"/>
    <tag k="lcn" v="yes"/>
    <tag k="name" v="Wittelsbachstraße"/>
    <tag k="railway" v="tram"/>
    <tag k="tracks" v="2"/>
    <tag k="voltage" v="600"/>
  </way>
  <way id="9293144" version="3" timestamp="2008-04-06T08:09:34Z" uid="30201" user="rrankin" changeset="64490">
    <nd ref="69896796"/>
    <nd ref="69904968"/>
    <nd ref="69896797"/>
    <tag k="created_by" v="Potlatch alpha"/>
    <tag k="highway" v="residential"/>
    <tag k="name" v="Delamere Street"/>
  </way>
  <way id="9293144" version="4" timestamp="2008-04-07T06:46:27Z" uid="30201" user="rrankin" changeset="70839">
    <nd ref="69896796"/>
    <nd ref="69904968"/>
    <nd ref="69896797"/>
    <tag k="created_by" v="Potlatch alpha"/>
    <tag k="highway" v="residential"/>
    <tag k="name" v="Delamere Street"/>
  </way>
  <way id="9293144" version="5" timestamp="2008-11-15T02:00:39Z" uid="7617" user="Franc" changeset="749614">
    <nd ref="69896796"/>
    <nd ref="69904968"/>
    <nd ref="312097468"/>
    <nd ref="69896797"/>
    <tag k="created_by" v="Potlatch alpha"/>
    <tag k="highway" v="residential"/>
    <tag k="name" v="Delamere Street"/>
  </way>
  <way id="9293144" version="6" timestamp="2009-12-05T22:54:48Z" uid="7617" user="Franc" changeset="3299227">
    <nd ref="69896796"/>
    <nd ref="582220627"/>
    <nd ref="69904968"/>
    <nd ref="312097468"/>
    <nd ref="69896797"/>
    <tag k="highway" v="residential"/>
    <tag k="name" v="Delamere Street"/>
  </way>
  <way id="9293144" version="7" timestamp="2010-07-08T02:02:02Z" uid="74617" user="JohnSmith" changeset="5162525">
    <nd ref="69896796"/>
    <nd ref="582220627"/>
    <nd ref="69904968"/>
    <nd ref="312097468"/>
    <nd ref="69896797"/>
    <tag k="highway" v="residential"/>
    <tag k="maxspeed" v="50"/>
    <tag k="maxspeed:source" v="default residential speed limit in Australia"/>
    <tag k="name" v="Delamere Street"/>
  </way>
  <way id="9293144" version="8" timestamp="2012-01-15T08:26:01Z" uid="147510" user="woodpeck_fixbot" changeset="10395278">
    <nd ref="69896796"/>
    <nd ref="582220627"/>
    <nd ref="69904968"/>
    <nd ref="312097468"/>
    <nd ref="69896797"/>
    <tag k="highway" v="residential"/>
    <tag k="name" v="Delamere Street"/>
  </way>
  <way id="9293328" version="8" timestamp="2008-11-14T11:17:24Z" uid="7617" user="Franc" changeset="747140">
    <nd ref="69899625"/>
    <nd ref="69896796"/>
    <nd ref="69880421"/>
    <nd ref="69901743"/>
    <nd ref="69889453"/>
    <nd ref="69899626"/>
    <nd ref="69975290"/>
    <nd ref="70072673"/>
    <nd ref="311954923"/>
    <nd ref="311954925"/>
    <nd ref="311955140"/>
    <nd ref="69899628"/>
    <tag k="created_by" v="Potlatch alpha"/>
    <tag k="highway" v="tertiary"/>
    <tag k="name" v="The Boulevarde"/>
  </way>
  <way id="9293328" version="9" timestamp="2008-11-14T22:38:59Z" uid="7617" user="Franc" changeset="747210">
    <nd ref="69899625"/>
    <nd ref="69896796"/>
    <nd ref="69880421"/>
    <nd ref="69901743"/>
    <nd ref="69889453"/>
    <nd ref="69899626"/>
    <nd ref="69975290"/>
    <nd ref="312073339"/>
    <nd ref="70072673"/>
    <nd ref="311954923"/>
    <nd ref="311954925"/>
    <nd ref="311955140"/>
    <nd ref="69899628"/>
    <tag k="created_by" v="Potlatch alpha"/>
    <tag k="highway" v="tertiary"/>
    <tag k="name" v="The Boulevarde"/>
  </way>
  <way id="9293328" version="10" timestamp="2008-11-14T23:57:51Z" uid="7617" user="Franc" changeset="749573">
    <nd ref="69899625"/>
    <nd ref="69896796"/>
    <nd ref="69880421"/>
    <nd ref="69901743"/>
    <nd ref="69889453"/>
    <nd ref="69899626"/>
    <nd ref="312086198"/>
    <nd ref="312086157"/>
    <nd ref="69975290"/>
    <nd ref="312086138"/>
    <nd ref="312086136"/>
    <nd ref="312086134"/>
    <nd ref="312086132"/>
    <nd ref="312086130"/>
    <nd ref="312086128"/>
    <nd ref="312086223"/>
    <nd ref="312086061"/>
    <nd ref="312086225"/>
    <nd ref="312086227"/>
    <nd ref="312086060"/>
    <nd ref="312086229"/>
    <nd ref="312073339"/>
    <nd ref="70072673"/>
    <nd ref="311954923"/>
    <nd ref="311954925"/>
    <nd ref="311955140"/>
    <nd ref="69899628"/>
    <tag k="created_by" v="Potlatch alpha"/>
    <tag k="highway" v="tertiary"/>
    <tag k="name" v="The Boulevarde"/>
  </way>
  <way id="9293328" version="11" timestamp="2008-11-15T02:00:44Z" uid="7617" user="Franc" changeset="749614">
    <nd ref="312097487"/>
    <nd ref="69899625"/>
    <tag k="created_by" v="Potlatch alpha"/>
    <tag k="highway" v="tertiary"/>
  </way>
  <way id="9293328" version="12" timestamp="2009-12-05T20:34:23Z" uid="7617" user="Franc" changeset="3298057">
    <nd ref="312097487"/>
    <nd ref="69899625"/>
    <tag k="highway" v="tertiary"/>
    <tag k="name" v="Avenel Street"/>
    <tag k="source" v="survey"/>
  </way>
  <way id="9293328" version="13" timestamp="2009-12-05T20:47:03Z" uid="7617" user="Franc" changeset="3298177">
    <nd ref="312097487"/>
    <nd ref="582113464"/>
    <nd ref="69899625"/>
    <tag k="highway" v="tertiary"/>
    <tag k="name" v="Avenel Street"/>
    <tag k="source" v="survey"/>
  </way>
  <way id="9293328" version="14" timestamp="2009-12-05T22:54:48Z" uid="7617" user="Franc" changeset="3299227">
    <nd ref="312097487"/>
    <nd ref="582220624"/>
    <nd ref="582113464"/>
    <nd ref="69899625"/>
    <tag k="highway" v="tertiary"/>
    <tag k="name" v="Avenel Street"/>
    <tag k="source" v="survey"/>
  </way>
  <way id="9293756" version="8" timestamp="2010-07-09T03:01:27Z" uid="74617" user="JohnSmith" changeset="5170739">
    <nd ref="69991368"/>
    <nd ref="69906068"/>
    <nd ref="69906070"/>
    <nd ref="69991838"/>
    <nd ref="69992376"/>
    <nd ref="69992906"/>
    <nd ref="69887193"/>
    <nd ref="69887194"/>
    <nd ref="69895820"/>
    <tag k="highway" v="residential"/>
    <tag k="maxspeed" v="50"/>
    <tag k="maxspeed:source" v="default residential speed limit in Australia"/>
    <tag k="name" v="Glenview Road"/>
    <tag k="source" v="yahoo"/>
    <tag k="source:name" v="survey"/>
  </way>
  <way id="9293756" version="9" timestamp="2012-01-15T08:26:03Z" uid="147510" user="woodpeck_fixbot" changeset="10395278">
    <nd ref="69991368"/>
    <nd ref="69906068"/>
    <nd ref="69906070"/>
    <nd ref="69991838"/>
    <nd ref="69992376"/>
    <nd ref="69992906"/>
    <nd ref="69887193"/>
    <nd ref="69887194"/>
    <nd ref="69895820"/>
    <tag k="highway" v="residential"/>
    <tag k="name" v="Glenview Road"/>
    <tag k="source" v="yahoo"/>
    <tag k="source:name" v="survey"/>
  </way>
  <way id="9293757" version="6" timestamp="2010-07-09T03:08:53Z" uid="74617" user="JohnSmith" changeset="5170739">
    <nd ref="69991838"/>
    <nd ref="69995288"/>
    <tag k="highway" v="residential"/>
    <tag k="maxspeed" v="50"/>
    <tag k="maxspeed:source" v="default residential speed limit in Australia"/>
    <tag k="name" v="Prefect Street"/>
    <tag k="source:name" v="Collins 1936"/>
  </way>
  <way id="9293757" version="7" timestamp="2012-01-15T08:26:04Z" uid="147510" user="woodpeck_fixbot" changeset="10395278">
    <nd ref="69991838"/>
    <nd ref="69995288"/>
    <tag k="highway" v="residential"/>
    <tag k="name" v="Prefect Street"/>
    <tag k="source:name" v="Collins 1936"/>
  </way>
  <way id="9293774" version="8" timestamp="2010-04-05T11:14:42Z" uid="74617" user="JohnSmith" changeset="4331807">
    <nd ref="69992203"/>
    <nd ref="69992720"/>
    <nd ref="69992376"/>
    <nd ref="69995485"/>
    <tag k="highway" v="residential"/>
    <tag k="name" v="Head Street"/>
    <tag k="source" v="yahoo"/>
    <tag k="source:name" v="survey"/>
  </way>
  <way id="9293774" version="9" timestamp="2010-07-09T03:16:42Z" uid="74617" user="JohnSmith" changeset="5170739">
    <nd ref="69992203"/>
    <nd ref="69992720"/>
    <nd ref="69992376"/>
    <nd ref="69995485"/>
    <tag k="highway" v="residential"/>
    <tag k="maxspeed" v="50"/>
    <tag k="maxspeed:source" v="default residential speed limit in Australia"/>
    <tag k="name" v="Head Street"/>
    <tag k="source" v="yahoo"/>
    <tag k="source:name" v="survey"/>
  </way>
  <way id="9293774" version="10" timestamp="2012-01-15T08:26:06Z" uid="147510" user="woodpeck_fixbot" changeset="10395278">
    <nd ref="69992203"/>
    <nd ref="69992720"/>
    <nd ref="69992376"/>
    <nd ref="69995485"/>
    <tag k="highway" v="residential"/>
    <tag k="name" v="Head Street"/>
    <tag k="source" v="yahoo"/>
    <tag k="source:name" v="survey"/>
  </way>
  <way id="9293860" version="6" timestamp="2010-04-05T11:14:40Z" uid="74617" user="JohnSmith" changeset="4331807">
    <nd ref="69988527"/>
    <nd ref="69940866"/>
    <nd ref="69940867"/>
    <nd ref="69940869"/>
    <nd ref="69940870"/>
    <nd ref="69907487"/>
    <nd ref="69907488"/>
    <nd ref="69907489"/>
    <nd ref="69995159"/>
    <tag k="highway" v="residential"/>
    <tag k="name" v="Collegeian Avenue"/>
    <tag k="source" v="yahoo"/>
    <tag k="source:name" v="survey"/>
  </way>
  <way id="9293860" version="7" timestamp="2010-07-09T03:08:58Z" uid="74617" user="JohnSmith" changeset="5170739">
    <nd ref="69988527"/>
    <nd ref="69940866"/>
    <nd ref="69940867"/>
    <nd ref="69940869"/>
    <nd ref="69940870"/>
    <nd ref="69907487"/>
    <nd ref="69907488"/>
    <nd ref="69907489"/>
    <nd ref="69995159"/>
    <tag k="highway" v="residential"/>
    <tag k="maxspeed" v="50"/>
    <tag k="maxspeed:source" v="default residential speed limit in Australia"/>
    <tag k="name" v="Collegeian Avenue"/>
    <tag k="source" v="yahoo"/>
    <tag k="source:name" v="survey"/>
  </way>
  <way id="9293860" version="8" timestamp="2012-01-15T08:26:07Z" uid="147510" user="woodpeck_fixbot" changeset="10395278">
    <nd ref="69988527"/>
    <nd ref="69940866"/>
    <nd ref="69940867"/>
    <nd ref="69940869"/>
    <nd ref="69940870"/>
    <nd ref="69907487"/>
    <nd ref="69907488"/>
    <nd ref="69907489"/>
    <nd ref="69995159"/>
    <tag k="highway" v="residential"/>
    <tag k="name" v="Collegeian Avenue"/>
    <tag k="source" v="yahoo"/>
    <tag k="source:name" v="survey"/>
  </way>
  <way id="9293945" version="13" timestamp="2010-04-05T11:14:39Z" uid="74617" user="JohnSmith" changeset="4331807">
    <nd ref="69915572"/>
    <nd ref="69941714"/>
    <nd ref="69941715"/>
    <nd ref="69941716"/>
    <nd ref="69909163"/>
    <nd ref="69917912"/>
    <nd ref="69917915"/>
    <nd ref="69917916"/>
    <nd ref="69917917"/>
    <nd ref="69917918"/>
    <nd ref="69917919"/>
    <nd ref="69917920"/>
    <nd ref="69917923"/>
    <nd ref="69917925"/>
    <nd ref="69917926"/>
    <nd ref="69917927"/>
    <nd ref="69917929"/>
    <nd ref="69996896"/>
    <tag k="highway" v="residential"/>
    <tag k="name" v="Hillsyde Parade"/>
    <tag k="source" v="yahoo"/>
    <tag k="source:name" v="survey"/>
  </way>
  <way id="9293945" version="14" timestamp="2010-07-09T02:55:46Z" uid="74617" user="JohnSmith" changeset="5170739">
    <nd ref="69915572"/>
    <nd ref="69941714"/>
    <nd ref="69941715"/>
    <nd ref="69941716"/>
    <nd ref="69909163"/>
    <nd ref="69917912"/>
    <nd ref="69917915"/>
    <nd ref="69917916"/>
    <nd ref="69917917"/>
    <nd ref="69917918"/>
    <nd ref="69917919"/>
    <nd ref="69917920"/>
    <nd ref="69917923"/>
    <nd ref="69917925"/>
    <nd ref="69917926"/>
    <nd ref="69917927"/>
    <nd ref="69917929"/>
    <nd ref="69996896"/>
    <tag k="highway" v="residential"/>
    <tag k="maxspeed" v="50"/>
    <tag k="maxspeed:source" v="default residential speed limit in Australia"/>
    <tag k="name" v="Hillsyde Parade"/>
    <tag k="source" v="yahoo"/>
    <tag k="source:name" v="survey"/>
  </way>
  <way id="9293945" version="15" timestamp="2012-01-15T08:26:09Z" uid="147510" user="woodpeck_fixbot" changeset="10395278">
    <nd ref="69915572"/>
    <nd ref="69941714"/>
    <nd ref="69941715"/>
    <nd ref="69941716"/>
    <nd ref="69909163"/>
    <nd ref="69917912"/>
    <nd ref="69917915"/>
    <nd ref="69917916"/>
    <nd ref="69917917"/>
    <nd ref="69917918"/>
    <nd ref="69917919"/>
    <nd ref="69917920"/>
    <nd ref="69917923"/>
    <nd ref="69917925"/>
    <nd ref="69917926"/>
    <nd ref="69917927"/>
    <nd ref="69917929"/>
    <nd ref="69996896"/>
    <tag k="highway" v="residential"/>
    <tag k="name" v="Hillsyde Parade"/>
    <tag k="source" v="yahoo"/>
    <tag k="source:name" v="survey"/>
  </way>
  <way id="9293960" version="2" timestamp="2008-04-19T23:16:49Z" uid="30201" user="rrankin" changeset="196429">
    <nd ref="69906570"/>
    <nd ref="69907290"/>
    <nd ref="69907292"/>
    <tag k="created_by" v="Potlatch alpha"/>
    <tag k="highway" v="service"/>
    <tag k="name" v="Hampton Street"/>
  </way>
</osm>
