<?xml version='1.0' encoding='UTF-8'?>
<osm version="0.6" generator="libosmium/2.20.0">
  <way id="93077638" version="1" timestamp="2011-01-02T16:12:33Z" uid="9581" user="Lobelt" changeset="6839896">
    <nd ref="307658772"/>
    <nd ref="307658774"/>
    <nd ref="1078885547"/>
    <nd ref="307658775"/>
    <nd ref="307658776"/>
    <nd ref="307658777"/>
    <nd ref="307658772"/>
    <tag k="addr:city" v="Orlamünde"/>
    <tag k="addr:housenumber" v="23"/>
    <tag k="addr:postcode" v="07768"/>
    <tag k="addr:street" v="Bahnhofstraße"/>
    <tag k="building" v="yes"/>
  </way>
  <way id="93077639" version="1" timestamp="2011-01-02T16:12:34Z" uid="9581" user="Lobelt" changeset="6839896">
    <nd ref="1078885563"/>
    <nd ref="1078885605"/>
    <nd ref="1078885503"/>
    <nd ref="1078885553"/>
    <nd ref="1078885563"/>
    <tag k="building" v="yes"/>
  </way>
  <way id="93077640" version="1" timestamp="2011-01-02T16:12:34Z" uid="9581" user="Lobelt" changeset="6839896">
    <nd ref="296381854"/>
    <nd ref="296381850"/>
    <nd ref="296381831"/>
    <nd ref="296381827"/>
    <nd ref="1078885475"/>
    <nd ref="296381854"/>
    <tag k="addr:city" v="Orlamünde"/>
    <tag k="addr:housenumber" v="28"/>
    <tag k="addr:postcode" v="07768"/>
    <tag k="addr:street" v="Bahnhofstraße"/>
    <tag k="building" v="yes"/>
  </way>
  <way id="93077641" version="1" timestamp="2011-01-02T16:12:34Z" uid="9581" user="Lobelt" changeset="6839896">
    <nd ref="1078885601"/>
    <nd ref="1078885477"/>
    <nd ref="1078885466"/>
    <nd ref="1078885513"/>
    <nd ref="1078885601"/>
    <tag k="building" v="yes"/>
  </way>
  <way id="93077642" version="1" timestamp="2011-01-02T16:12:34Z" uid="9581" user="Lobelt" changeset="6839896">
    <nd ref="293351560"/>
    <nd ref="293351561"/>
    <nd ref="293351562"/>
    <nd ref="293351563"/>
    <nd ref="293351564"/>
    <tag k="highway" v="residential"/>
    <tag k="maxspeed" v="30"/>
    <tag k="name" v="Bahnhofstraße"/>
  </way>
  <way id="93077643" version="1" timestamp="2011-01-02T16:12:34Z" uid="9581" user="Lobelt" changeset="6839896">
    <nd ref="307658835"/>
    <nd ref="307658836"/>
    <nd ref="307658811"/>
    <nd ref="307658839"/>
    <nd ref="307658840"/>
    <nd ref="307658841"/>
    <nd ref="307658842"/>
    <nd ref="307658835"/>
    <tag k="addr:city" v="Orlamünde"/>
    <tag k="addr:housenumber" v="17"/>
    <tag k="addr:postcode" v="07768"/>
    <tag k="addr:street" v="Bahnhofstraße"/>
    <tag k="building" v="yes"/>
  </way>
  <way id="93077644" version="1" timestamp="2011-01-02T16:12:35Z" uid="9581" user="Lobelt" changeset="6839896">
    <nd ref="1078885614"/>
    <nd ref="1078885505"/>
    <nd ref="1078885594"/>
    <tag k="access" v="private"/>
    <tag k="highway" v="service"/>
    <tag k="service" v="parking_aisle"/>
  </way>
  <way id="93077645" version="1" timestamp="2011-01-02T16:12:35Z" uid="9581" user="Lobelt" changeset="6839896">
    <nd ref="293351560"/>
    <nd ref="1078885568"/>
    <nd ref="1078885509"/>
    <nd ref="1078885516"/>
    <tag k="highway" v="service"/>
  </way>
  <way id="93077646" version="1" timestamp="2011-01-02T16:12:35Z" uid="9581" user="Lobelt" changeset="6839896">
    <nd ref="307658810"/>
    <nd ref="1078885552"/>
    <nd ref="1078885471"/>
    <nd ref="1078885617"/>
    <nd ref="1078885566"/>
    <nd ref="307658818"/>
    <nd ref="307658810"/>
    <tag k="building" v="yes"/>
  </way>
  <way id="93077647" version="1" timestamp="2011-01-02T16:12:35Z" uid="9581" user="Lobelt" changeset="6839896">
    <nd ref="1078885499"/>
    <nd ref="296381887"/>
    <nd ref="1078885527"/>
    <nd ref="1078885511"/>
    <nd ref="1078885603"/>
    <nd ref="296381871"/>
    <nd ref="296381863"/>
    <nd ref="1078885499"/>
    <tag k="addr:city" v="Orlamünde"/>
    <tag k="addr:housenumber" v="34"/>
    <tag k="addr:postcode" v="07768"/>
    <tag k="addr:street" v="Bahnhofstraße"/>
    <tag k="building" v="yes"/>
  </way>
</osm>
