<?xml version='1.0' encoding='UTF-8'?>
<osm version="0.6" generator="libosmium/2.20.0">
  <way id="9327444" version="3" timestamp="2009-09-30T15:18:19Z" uid="36809" user="pfoten_weg_!_" changeset="2689341">
    <nd ref="60747484"/>
    <nd ref="60747483"/>
    <nd ref="60747482"/>
    <nd ref="60747481"/>
    <nd ref="60747480"/>
    <nd ref="60747479"/>
    <nd ref="60747478"/>
    <nd ref="60747477"/>
    <nd ref="60747476"/>
    <nd ref="60747475"/>
    <nd ref="60747474"/>
    <nd ref="60747473"/>
    <nd ref="60747471"/>
    <nd ref="71043955"/>
    <nd ref="60184607"/>
    <tag k="highway" v="footway"/>
  </way>
  <way id="9327444" version="4" timestamp="2010-09-02T19:51:37Z" uid="313675" user="alphax" changeset="5665440">
    <nd ref="60747484"/>
    <nd ref="60747483"/>
    <nd ref="60747482"/>
    <nd ref="893322038"/>
    <nd ref="60747481"/>
    <nd ref="893321739"/>
    <nd ref="893321775"/>
    <nd ref="893321893"/>
    <nd ref="60747480"/>
    <nd ref="893321637"/>
    <tag k="highway" v="footway"/>
  </way>
  <way id="9327444" version="5" timestamp="2010-09-03T12:08:03Z" uid="313675" user="alphax" changeset="5670169">
    <nd ref="60747484"/>
    <nd ref="60747483"/>
    <nd ref="60747482"/>
    <nd ref="893322038"/>
    <nd ref="60747481"/>
    <nd ref="893321739"/>
    <nd ref="893321775"/>
    <nd ref="893321893"/>
    <nd ref="60747480"/>
    <nd ref="893321637"/>
    <tag k="highway" v="path"/>
  </way>
  <way id="9327444" version="6" timestamp="2010-10-05T11:10:56Z" uid="313675" user="alphax" changeset="5960372">
    <nd ref="60747484"/>
    <nd ref="60747483"/>
    <nd ref="60747482"/>
    <nd ref="893322038"/>
    <nd ref="938388708"/>
    <nd ref="893321739"/>
    <nd ref="893321775"/>
    <nd ref="893321893"/>
    <nd ref="60747480"/>
    <nd ref="893321637"/>
    <tag k="highway" v="path"/>
  </way>
  <way id="9327872" version="3" timestamp="2010-07-09T18:18:48Z" uid="74617" user="JohnSmith" changeset="5175333">
    <nd ref="36853778"/>
    <nd ref="70398288"/>
    <tag k="highway" v="residential"/>
    <tag k="maxspeed" v="50"/>
    <tag k="maxspeed:source" v="default residential speed limit in Australia"/>
    <tag k="name" v="Loma Street"/>
  </way>
  <way id="9327872" version="4" timestamp="2012-01-15T08:28:23Z" uid="147510" user="woodpeck_fixbot" changeset="10395278">
    <nd ref="36853778"/>
    <nd ref="70398288"/>
    <tag k="highway" v="residential"/>
    <tag k="name" v="Loma Street"/>
  </way>
  <way id="9327873" version="4" timestamp="2010-06-08T05:37:59Z" uid="4467" user="Rosscoe" changeset="4934363">
    <nd ref="766983467"/>
    <nd ref="59900302"/>
    <nd ref="70398311"/>
    <tag k="highway" v="residential"/>
    <tag k="name" v="Overton Gardens"/>
    <tag k="oneway" v="yes"/>
  </way>
  <way id="9327873" version="5" timestamp="2010-07-09T18:20:10Z" uid="74617" user="JohnSmith" changeset="5175333">
    <nd ref="766983467"/>
    <nd ref="59900302"/>
    <nd ref="70398311"/>
    <tag k="highway" v="residential"/>
    <tag k="maxspeed" v="50"/>
    <tag k="maxspeed:source" v="default residential speed limit in Australia"/>
    <tag k="name" v="Overton Gardens"/>
    <tag k="oneway" v="yes"/>
  </way>
  <way id="9327873" version="6" timestamp="2012-01-15T08:28:24Z" uid="147510" user="woodpeck_fixbot" changeset="10395278">
    <nd ref="766983467"/>
    <nd ref="59900302"/>
    <nd ref="70398311"/>
    <tag k="highway" v="residential"/>
    <tag k="name" v="Overton Gardens"/>
    <tag k="oneway" v="yes"/>
  </way>
  <way id="9327874" version="3" timestamp="2010-07-09T18:13:58Z" uid="74617" user="JohnSmith" changeset="5175333">
    <nd ref="70398376"/>
    <nd ref="70398393"/>
    <tag k="highway" v="residential"/>
    <tag k="maxspeed" v="50"/>
    <tag k="maxspeed:source" v="default residential speed limit in Australia"/>
    <tag k="name" v="Bird Street"/>
  </way>
  <way id="9327874" version="4" timestamp="2012-01-15T08:28:25Z" uid="147510" user="woodpeck_fixbot" changeset="10395278">
    <nd ref="70398376"/>
    <nd ref="70398393"/>
    <tag k="highway" v="residential"/>
    <tag k="name" v="Bird Street"/>
  </way>
  <way id="9327876" version="5" timestamp="2010-06-08T05:37:43Z" uid="4467" user="Rosscoe" changeset="4934363">
    <nd ref="766984062"/>
    <nd ref="59900279"/>
    <nd ref="339630466"/>
    <tag k="highway" v="residential"/>
    <tag k="maxspeed" v="50"/>
    <tag k="name" v="Eileen Street"/>
  </way>
  <way id="9327892" version="2" timestamp="2010-07-09T18:20:19Z" uid="74617" user="JohnSmith" changeset="5175333">
    <nd ref="70399294"/>
    <nd ref="70399158"/>
    <nd ref="70399313"/>
    <tag k="highway" v="residential"/>
    <tag k="maxspeed" v="50"/>
    <tag k="maxspeed:source" v="default residential speed limit in Australia"/>
    <tag k="name" v="Hooley Street"/>
  </way>
  <way id="9327892" version="3" timestamp="2012-01-15T08:28:27Z" uid="147510" user="woodpeck_fixbot" changeset="10395278">
    <nd ref="70399294"/>
    <nd ref="70399158"/>
    <nd ref="70399313"/>
    <tag k="highway" v="residential"/>
    <tag k="name" v="Hooley Street"/>
  </way>
  <way id="9327908" version="3" timestamp="2010-07-09T18:19:14Z" uid="74617" user="JohnSmith" changeset="5175333">
    <nd ref="70399644"/>
    <nd ref="571459372"/>
    <nd ref="571459399"/>
    <nd ref="70399684"/>
    <tag k="highway" v="residential"/>
    <tag k="maxspeed" v="50"/>
    <tag k="maxspeed:source" v="default residential speed limit in Australia"/>
    <tag k="name" v="Yilgarn Street"/>
  </way>
  <way id="9327908" version="4" timestamp="2012-01-15T08:28:28Z" uid="147510" user="woodpeck_fixbot" changeset="10395278">
    <nd ref="70399644"/>
    <nd ref="571459372"/>
    <nd ref="571459399"/>
    <nd ref="70399684"/>
    <tag k="highway" v="residential"/>
    <tag k="name" v="Yilgarn Street"/>
  </way>
  <way id="9327909" version="4" timestamp="2010-07-09T21:14:36Z" uid="74617" user="JohnSmith" changeset="5176956">
    <nd ref="70399727"/>
    <nd ref="319125913"/>
    <nd ref="70399774"/>
    <nd ref="70399787"/>
    <tag k="highway" v="residential"/>
    <tag k="maxspeed" v="50"/>
    <tag k="maxspeed:source" v="default residential speed limit in Australia"/>
    <tag k="name" v="Hensman Road"/>
  </way>
  <way id="9327909" version="5" timestamp="2012-01-15T08:28:29Z" uid="147510" user="woodpeck_fixbot" changeset="10395278">
    <nd ref="70399727"/>
    <nd ref="319125913"/>
    <nd ref="70399774"/>
    <nd ref="70399787"/>
    <tag k="highway" v="residential"/>
    <tag k="name" v="Hensman Road"/>
  </way>
  <way id="9327910" version="2" timestamp="2010-07-09T21:00:30Z" uid="74617" user="JohnSmith" changeset="5176956">
    <nd ref="70399837"/>
    <nd ref="70399849"/>
    <nd ref="70399859"/>
    <tag k="highway" v="residential"/>
    <tag k="maxspeed" v="50"/>
    <tag k="maxspeed:source" v="default residential speed limit in Australia"/>
    <tag k="name" v="Rosalie Street"/>
  </way>
  <way id="9327910" version="3" timestamp="2012-01-15T08:28:30Z" uid="147510" user="woodpeck_fixbot" changeset="10395278">
    <nd ref="70399837"/>
    <nd ref="70399849"/>
    <nd ref="70399859"/>
    <tag k="highway" v="residential"/>
    <tag k="name" v="Rosalie Street"/>
  </way>
  <way id="9327911" version="3" timestamp="2010-07-09T21:05:04Z" uid="74617" user="JohnSmith" changeset="5176956">
    <nd ref="70399787"/>
    <nd ref="70399798"/>
    <nd ref="70399819"/>
    <nd ref="70399837"/>
    <tag k="highway" v="residential"/>
    <tag k="maxspeed" v="50"/>
    <tag k="maxspeed:source" v="default residential speed limit in Australia"/>
    <tag k="name" v="Keightley Road Central"/>
  </way>
  <way id="9327911" version="4" timestamp="2012-01-15T08:28:31Z" uid="147510" user="woodpeck_fixbot" changeset="10395278">
    <nd ref="70399787"/>
    <nd ref="70399798"/>
    <nd ref="70399819"/>
    <nd ref="70399837"/>
    <tag k="highway" v="residential"/>
    <tag k="name" v="Keightley Road Central"/>
  </way>
</osm>
