<?xml version='1.0' encoding='UTF-8'?>
<osm version="0.6" generator="libosmium/2.20.0">
  <way id="9331754" version="9" timestamp="2008-09-06T11:01:51Z" uid="58091" user="Andreas M" changeset="547954">
    <nd ref="685149"/>
    <nd ref="70463279"/>
    <nd ref="70463281"/>
    <nd ref="292258940"/>
    <nd ref="291326363"/>
    <nd ref="27028165"/>
    <tag k="created_by" v="Potlatch 0.10b"/>
    <tag k="highway" v="secondary"/>
    <tag k="lanes" v="3"/>
    <tag k="name" v="Rooseveltplatz"/>
    <tag k="oneway" v="yes"/>
  </way>
  <way id="9331754" version="10" timestamp="2008-09-24T14:16:18Z" uid="12295" user="mapper_07" changeset="688740">
    <nd ref="685149"/>
    <nd ref="70463279"/>
    <nd ref="292258940"/>
    <nd ref="291326363"/>
    <nd ref="27028165"/>
    <tag k="created_by" v="Potlatch 0.10b"/>
    <tag k="highway" v="secondary"/>
    <tag k="lanes" v="3"/>
    <tag k="name" v="Rooseveltplatz"/>
    <tag k="oneway" v="yes"/>
  </way>
  <way id="9331754" version="11" timestamp="2008-10-05T16:42:18Z" uid="2689" user="user_2689" changeset="79691">
    <nd ref="685149"/>
    <nd ref="70463279"/>
    <nd ref="292258940"/>
    <nd ref="302336574"/>
    <nd ref="291326363"/>
    <nd ref="27028165"/>
    <tag k="created_by" v="Potlatch 0.10b"/>
    <tag k="highway" v="secondary"/>
    <tag k="lanes" v="3"/>
    <tag k="name" v="Rooseveltplatz"/>
    <tag k="oneway" v="yes"/>
  </way>
  <way id="9331754" version="12" timestamp="2008-10-25T05:41:23Z" uid="12295" user="mapper_07" changeset="563208">
    <nd ref="685149"/>
    <nd ref="70463279"/>
    <nd ref="292258940"/>
    <nd ref="302336574"/>
    <nd ref="291326363"/>
    <nd ref="27028165"/>
    <tag k="created_by" v="Potlatch 0.10b"/>
    <tag k="highway" v="secondary"/>
    <tag k="lanes" v="3"/>
    <tag k="maxspeed" v="50"/>
    <tag k="name" v="Rooseveltplatz"/>
    <tag k="oneway" v="yes"/>
  </way>
  <way id="9331754" version="13" timestamp="2009-01-15T22:55:22Z" uid="28205" user="kelvan" changeset="795329">
    <nd ref="685149"/>
    <nd ref="70463279"/>
    <nd ref="292258940"/>
    <nd ref="302336574"/>
    <nd ref="291326363"/>
    <tag k="created_by" v="Potlatch 0.10b"/>
    <tag k="highway" v="secondary"/>
    <tag k="lanes" v="3"/>
    <tag k="maxspeed" v="50"/>
    <tag k="name" v="Rooseveltplatz"/>
    <tag k="oneway" v="yes"/>
  </way>
  <way id="9331754" version="14" timestamp="2009-04-09T13:19:03Z" uid="58091" user="Andreas M" changeset="355492">
    <nd ref="685149"/>
    <nd ref="70463279"/>
    <nd ref="371135783"/>
    <nd ref="292258940"/>
    <nd ref="302336574"/>
    <nd ref="291326363"/>
    <tag k="created_by" v="Potlatch 0.10b"/>
    <tag k="highway" v="secondary"/>
    <tag k="lanes" v="3"/>
    <tag k="maxspeed" v="50"/>
    <tag k="name" v="Rooseveltplatz"/>
    <tag k="oneway" v="yes"/>
  </way>
  <way id="9331754" version="15" timestamp="2010-11-06T17:23:13Z" uid="298560" user="evod" changeset="6304313">
    <nd ref="685149"/>
    <nd ref="70463279"/>
    <nd ref="371135783"/>
    <nd ref="292258940"/>
    <nd ref="302336574"/>
    <nd ref="291326363"/>
    <tag k="created_by" v="Potlatch 0.10b"/>
    <tag k="highway" v="secondary"/>
    <tag k="lanes" v="4"/>
    <tag k="maxspeed" v="50"/>
    <tag k="name" v="Rooseveltplatz"/>
    <tag k="oneway" v="yes"/>
  </way>
</osm>
