<?xml version='1.0' encoding='UTF-8'?>
<osm version="0.6" generator="libosmium/2.20.0">
  <way id="93413878" version="3" timestamp="2011-02-05T03:08:26Z" uid="30201" user="rrankin" changeset="7189177">
    <nd ref="1083056216"/>
    <nd ref="1083056217"/>
    <nd ref="1083056218"/>
    <nd ref="1083056219"/>
    <nd ref="1083056220"/>
    <nd ref="1083056221"/>
    <nd ref="1083056222"/>
    <nd ref="1083056223"/>
    <nd ref="1083056216"/>
    <tag k="building" v="yes"/>
    <tag k="layer" v="1"/>
    <tag k="source" v="nearmap"/>
  </way>
  <way id="93413954" version="3" timestamp="2011-04-22T23:16:21Z" uid="7617" user="Franc" changeset="7939553">
    <nd ref="575727163"/>
    <nd ref="575727155"/>
    <nd ref="575727157"/>
    <nd ref="575727159"/>
    <tag k="highway" v="trunk"/>
    <tag k="lanes" v="3"/>
    <tag k="maxspeed" v="70"/>
    <tag k="name" v="Princes Highway"/>
    <tag k="network" v="MR"/>
    <tag k="oneway" v="yes"/>
    <tag k="ref" v="1"/>
    <tag k="source" v="survey;nearmap"/>
  </way>
  <way id="93413954" version="4" timestamp="2012-02-01T01:38:34Z" uid="54784" user="Tom Hollander" changeset="10555374">
    <nd ref="575727163"/>
    <nd ref="575727155"/>
    <nd ref="575727157"/>
    <nd ref="575727159"/>
    <tag k="highway" v="trunk"/>
    <tag k="lanes" v="3"/>
    <tag k="maxspeed" v="70"/>
    <tag k="name" v="Princes Highway"/>
    <tag k="network" v="MR"/>
    <tag k="oneway" v="yes"/>
    <tag k="ref" v="MR1"/>
    <tag k="source" v="survey;nearmap"/>
  </way>
  <way id="93413954" version="5" timestamp="2012-02-02T08:05:01Z" uid="7523" user="inas" changeset="10565177">
    <nd ref="575727163"/>
    <nd ref="575727155"/>
    <nd ref="575727157"/>
    <nd ref="575727159"/>
    <tag k="highway" v="trunk"/>
    <tag k="lanes" v="3"/>
    <tag k="maxspeed" v="70"/>
    <tag k="name" v="Princes Highway"/>
    <tag k="network" v="MR"/>
    <tag k="oneway" v="yes"/>
    <tag k="ref" v="1"/>
    <tag k="source" v="survey;nearmap"/>
  </way>
  <way id="93413954" version="6" timestamp="2012-03-20T04:23:46Z" uid="7523" user="inas" changeset="11037300">
    <nd ref="575727163"/>
    <nd ref="575727157"/>
    <nd ref="575727159"/>
    <tag k="highway" v="trunk"/>
    <tag k="lanes" v="3"/>
    <tag k="maxspeed" v="70"/>
    <tag k="name" v="Princes Highway"/>
    <tag k="network" v="MR"/>
    <tag k="oneway" v="yes"/>
    <tag k="ref" v="1"/>
    <tag k="source" v="survey;nearmap"/>
  </way>
  <way id="93413954" version="7" timestamp="2012-03-21T02:29:09Z" uid="7523" user="inas" changeset="11047788">
    <nd ref="575727163"/>
    <nd ref="575727159"/>
    <tag k="highway" v="trunk"/>
    <tag k="lanes" v="3"/>
    <tag k="maxspeed" v="70"/>
    <tag k="name" v="Princes Highway"/>
    <tag k="network" v="MR"/>
    <tag k="oneway" v="yes"/>
    <tag k="ref" v="1"/>
    <tag k="source" v="survey;nearmap"/>
  </way>
  <way id="93413954" version="8" timestamp="2012-03-21T02:55:30Z" uid="7523" user="inas" changeset="11047862">
    <nd ref="575701138"/>
    <nd ref="1684152217"/>
    <nd ref="1684152218"/>
    <nd ref="1684152219"/>
    <nd ref="1684152220"/>
    <nd ref="1684152221"/>
    <nd ref="1684152222"/>
    <nd ref="1684152223"/>
    <nd ref="1684152224"/>
    <nd ref="1684152225"/>
    <nd ref="575727163"/>
    <nd ref="1684152232"/>
    <nd ref="1684152233"/>
    <nd ref="575727159"/>
    <tag k="highway" v="trunk"/>
    <tag k="lanes" v="3"/>
    <tag k="maxspeed" v="70"/>
    <tag k="name" v="Princes Highway"/>
    <tag k="network" v="MR"/>
    <tag k="oneway" v="yes"/>
    <tag k="ref" v="1"/>
    <tag k="source" v="survey;nearmap"/>
  </way>
  <way id="93413954" version="9" timestamp="2012-03-21T03:42:40Z" uid="7523" user="inas" changeset="11048002">
    <nd ref="1684152217"/>
    <nd ref="1684152218"/>
    <nd ref="1684152219"/>
    <nd ref="1684152220"/>
    <nd ref="1684152221"/>
    <nd ref="1684152222"/>
    <nd ref="1684152223"/>
    <nd ref="1684152224"/>
    <nd ref="1684152225"/>
    <nd ref="575727163"/>
    <nd ref="1684152232"/>
    <nd ref="1684152233"/>
    <nd ref="575727159"/>
    <tag k="highway" v="trunk"/>
    <tag k="lanes" v="3"/>
    <tag k="maxspeed" v="70"/>
    <tag k="name" v="Princes Highway"/>
    <tag k="network" v="MR"/>
    <tag k="oneway" v="yes"/>
    <tag k="ref" v="1"/>
    <tag k="source" v="survey;nearmap"/>
  </way>
  <way id="93413954" version="10" timestamp="2012-03-21T03:45:41Z" uid="7523" user="inas" changeset="11048009">
    <nd ref="575701148"/>
    <nd ref="575701151"/>
    <nd ref="1074423488"/>
    <tag k="highway" v="trunk"/>
    <tag k="lanes" v="3"/>
    <tag k="maxspeed" v="60"/>
    <tag k="name" v="Princes Highway"/>
    <tag k="network" v="MR"/>
    <tag k="oneway" v="yes"/>
    <tag k="ref" v="1"/>
    <tag k="source:location" v="bing"/>
  </way>
</osm>
