<?xml version='1.0' encoding='UTF-8'?>
<osm version="0.6" generator="libosmium/2.20.0">
  <way id="93439393" version="1" timestamp="2011-01-05T09:26:51Z" uid="6269" user="Mueck" changeset="6869582">
    <nd ref="1073083653"/>
    <nd ref="1073083724"/>
    <tag k="cycleway" v="lane"/>
    <tag k="highway" v="secondary"/>
    <tag k="maxspeed" v="50"/>
    <tag k="name" v="Deichstraße"/>
    <tag k="oneway" v="yes"/>
    <tag k="restriction" v="no_left_turn"/>
    <tag k="surface" v="paved"/>
  </way>
  <way id="93439393" version="2" timestamp="2011-01-05T09:38:39Z" uid="6269" user="Mueck" changeset="6869671">
    <nd ref="1073083653"/>
    <nd ref="1083322294"/>
    <nd ref="1083322297"/>
    <nd ref="1073083724"/>
    <tag k="cycleway" v="lane"/>
    <tag k="highway" v="secondary"/>
    <tag k="maxspeed" v="50"/>
    <tag k="name" v="Deichstraße"/>
    <tag k="oneway" v="yes"/>
    <tag k="restriction" v="no_left_turn"/>
    <tag k="surface" v="paved"/>
  </way>
  <way id="93439393" version="3" timestamp="2011-09-17T06:19:59Z" uid="161619" user="FvGordon" changeset="9321276">
    <nd ref="1073083653"/>
    <nd ref="1083322294"/>
    <tag k="cycleway" v="lane"/>
    <tag k="highway" v="secondary"/>
    <tag k="maxspeed" v="50"/>
    <tag k="name" v="Deichstraße"/>
    <tag k="oneway" v="yes"/>
    <tag k="restriction" v="no_left_turn"/>
    <tag k="surface" v="paved"/>
  </way>
</osm>
