<?xml version='1.0' encoding='UTF-8'?>
<osm version="0.6" generator="libosmium/2.20.0">
  <way id="9418201" version="14" timestamp="2010-04-25T17:42:23Z" uid="58091" user="Andreas M" changeset="4524227">
    <nd ref="60215904"/>
    <nd ref="339405953"/>
    <nd ref="71757716"/>
    <nd ref="685868953"/>
    <nd ref="71747312"/>
    <tag k="highway" v="primary"/>
    <tag k="maxspeed" v="50"/>
    <tag k="name" v="Franzosengraben"/>
    <tag k="oneway" v="yes"/>
    <tag k="ref" v="B228"/>
  </way>
  <way id="9418201" version="15" timestamp="2011-02-19T12:58:38Z" uid="78656" user="Walter Schlögl" changeset="7331505">
    <nd ref="60215904"/>
    <nd ref="339405953"/>
    <nd ref="1161249805"/>
    <nd ref="71757716"/>
    <nd ref="685868953"/>
    <nd ref="71747312"/>
    <tag k="highway" v="primary"/>
    <tag k="maxspeed" v="50"/>
    <tag k="name" v="Franzosengraben"/>
    <tag k="oneway" v="yes"/>
    <tag k="ref" v="B228"/>
  </way>
  <way id="9418354" version="8" timestamp="2008-08-11T11:25:36Z" uid="6269" user="Mueck" changeset="188275">
    <nd ref="71757661"/>
    <nd ref="71757654"/>
    <nd ref="73911336"/>
    <nd ref="71757649"/>
    <nd ref="17325373"/>
    <nd ref="76782341"/>
    <nd ref="17325372"/>
    <nd ref="17325371"/>
    <nd ref="76878930"/>
    <nd ref="17325369"/>
    <nd ref="76782294"/>
    <nd ref="90440564"/>
    <nd ref="76782289"/>
    <nd ref="17325368"/>
    <nd ref="71757635"/>
    <nd ref="71757628"/>
    <nd ref="71757625"/>
    <nd ref="71757615"/>
    <nd ref="71757610"/>
    <nd ref="71757602"/>
    <nd ref="17325357"/>
    <tag k="created_by" v="Potlatch 0.10b"/>
    <tag k="highway" v="secondary"/>
    <tag k="name" v="Hauptstraße"/>
    <tag k="note" v="im SHP des NVK: II"/>
    <tag k="ref" v="L 602"/>
  </way>
  <way id="9418390" version="9" timestamp="2010-04-25T17:42:16Z" uid="58091" user="Andreas M" changeset="4524227">
    <nd ref="71698597"/>
    <nd ref="298097599"/>
    <nd ref="71758496"/>
    <nd ref="71758497"/>
    <nd ref="706464949"/>
    <nd ref="459796842"/>
    <nd ref="71758848"/>
    <tag k="highway" v="primary"/>
    <tag k="maxspeed" v="50"/>
    <tag k="name" v="1. Haidequerstraße"/>
    <tag k="ref" v="B228"/>
  </way>
  <way id="9418390" version="10" timestamp="2011-03-19T15:54:33Z" uid="411359" user="Thomas Passauer" changeset="7606446">
    <nd ref="71698597"/>
    <nd ref="298097599"/>
    <nd ref="71758496"/>
    <nd ref="71758497"/>
    <nd ref="706464949"/>
    <nd ref="459796842"/>
    <nd ref="1209131552"/>
    <nd ref="71758848"/>
    <tag k="highway" v="primary"/>
    <tag k="maxspeed" v="50"/>
    <tag k="name" v="1. Haidequerstraße"/>
    <tag k="ref" v="B228"/>
  </way>
  <way id="9418390" version="11" timestamp="2011-03-20T13:23:53Z" uid="411359" user="Thomas Passauer" changeset="7616438">
    <nd ref="71698597"/>
    <nd ref="298097599"/>
    <nd ref="71758496"/>
    <nd ref="71758497"/>
    <nd ref="1210482183"/>
    <nd ref="706464949"/>
    <nd ref="459796842"/>
    <nd ref="1209131552"/>
    <nd ref="71758848"/>
    <tag k="highway" v="primary"/>
    <tag k="maxspeed" v="50"/>
    <tag k="name" v="1. Haidequerstraße"/>
    <tag k="ref" v="B228"/>
  </way>
  <way id="9418390" version="12" timestamp="2011-03-20T17:35:48Z" uid="411359" user="Thomas Passauer" changeset="7619209">
    <nd ref="71698597"/>
    <nd ref="298097599"/>
    <nd ref="71758496"/>
    <nd ref="71758497"/>
    <nd ref="1210798918"/>
    <nd ref="1210798951"/>
    <nd ref="1210798959"/>
    <nd ref="1210482183"/>
    <nd ref="706464949"/>
    <nd ref="459796842"/>
    <nd ref="1209131552"/>
    <nd ref="71758848"/>
    <tag k="highway" v="primary"/>
    <tag k="maxspeed" v="50"/>
    <tag k="name" v="1. Haidequerstraße"/>
    <tag k="ref" v="B228"/>
  </way>
  <way id="9418390" version="13" timestamp="2011-09-24T19:49:58Z" uid="495567" user="zimba" changeset="9387312">
    <nd ref="298097599"/>
    <nd ref="1444892797"/>
    <nd ref="71758496"/>
    <nd ref="1444892784"/>
    <nd ref="71758497"/>
    <nd ref="1444892742"/>
    <nd ref="1210798918"/>
    <nd ref="1210798951"/>
    <nd ref="1210798959"/>
    <nd ref="1210482183"/>
    <nd ref="706464949"/>
    <nd ref="459796842"/>
    <nd ref="1209131552"/>
    <nd ref="71758848"/>
    <tag k="highway" v="primary"/>
    <tag k="maxspeed" v="50"/>
    <tag k="name" v="1. Haidequerstraße"/>
    <tag k="ref" v="B228"/>
  </way>
  <way id="9418390" version="14" timestamp="2011-11-12T11:03:32Z" uid="104947" user="My Friend" changeset="9803343">
    <nd ref="298097599"/>
    <nd ref="1499773322"/>
    <nd ref="1444892797"/>
    <nd ref="71758496"/>
    <nd ref="1444892784"/>
    <nd ref="71758497"/>
    <nd ref="1444892742"/>
    <nd ref="1210798918"/>
    <nd ref="1210798951"/>
    <nd ref="1210798959"/>
    <nd ref="1210482183"/>
    <nd ref="706464949"/>
    <nd ref="459796842"/>
    <nd ref="1209131552"/>
    <nd ref="71758848"/>
    <tag k="highway" v="primary"/>
    <tag k="maxspeed" v="50"/>
    <tag k="name" v="1. Haidequerstraße"/>
    <tag k="ref" v="B228"/>
  </way>
  <way id="9418390" version="15" timestamp="2011-11-26T12:21:12Z" uid="495567" user="zimba" changeset="9954821">
    <nd ref="298097599"/>
    <nd ref="1499773322"/>
    <nd ref="1444892797"/>
    <nd ref="71758496"/>
    <nd ref="1444892784"/>
    <nd ref="71758497"/>
    <nd ref="298097969"/>
    <nd ref="1210798918"/>
    <nd ref="1517650022"/>
    <nd ref="223580560"/>
    <nd ref="1517649831"/>
    <nd ref="1210798959"/>
    <nd ref="1517649479"/>
    <nd ref="1517649262"/>
    <nd ref="1210482183"/>
    <nd ref="1517648951"/>
    <nd ref="706464949"/>
    <nd ref="1209131552"/>
    <nd ref="71758848"/>
    <tag k="highway" v="primary"/>
    <tag k="maxspeed" v="50"/>
    <tag k="name" v="1. Haidequerstraße"/>
    <tag k="ref" v="B228"/>
  </way>
  <way id="9418483" version="7" timestamp="2010-04-25T17:42:22Z" uid="58091" user="Andreas M" changeset="4524227">
    <nd ref="71758848"/>
    <nd ref="706464943"/>
    <nd ref="298095865"/>
    <tag k="highway" v="residential"/>
    <tag k="name" v="Haidestraße"/>
  </way>
  <way id="9418483" version="8" timestamp="2010-05-23T14:38:16Z" uid="67684" user="darkweasel" changeset="4783819">
    <nd ref="71758848"/>
    <nd ref="746504903"/>
    <nd ref="706464943"/>
    <nd ref="298095865"/>
    <tag k="highway" v="residential"/>
    <tag k="name" v="Haidestraße"/>
  </way>
  <way id="9418483" version="9" timestamp="2010-10-24T09:43:39Z" uid="78656" user="Walter Schlögl" changeset="6154695">
    <nd ref="71758848"/>
    <nd ref="746504903"/>
    <nd ref="706464943"/>
    <nd ref="298095865"/>
    <tag k="highway" v="tertiary"/>
    <tag k="name" v="Haidestraße"/>
  </way>
</osm>
