<?xml version='1.0' encoding='UTF-8'?>
<osm version="0.6" generator="libosmium/2.20.0">
  <way id="9421077" version="4" timestamp="2011-01-05T01:29:03Z" uid="6269" user="Mueck" changeset="6867724">
    <nd ref="71307630"/>
    <nd ref="1083004751"/>
    <nd ref="71309495"/>
    <tag k="highway" v="residential"/>
    <tag k="maxspeed" v="30"/>
    <tag k="name" v="Salzburger Straße"/>
    <tag k="source" v="GPS"/>
    <tag k="surface" v="paved"/>
  </way>
  <way id="9421631" version="4" timestamp="2008-12-08T12:17:15Z" uid="27600" user="Islanit" changeset="255247">
    <nd ref="71836026"/>
    <nd ref="317391902"/>
    <nd ref="71836011"/>
    <tag k="abutters" v="residential"/>
    <tag k="created_by" v="Potlatch 0.10f"/>
    <tag k="highway" v="residential"/>
    <tag k="maxspeed" v="30"/>
    <tag k="name" v="Doktor-Semmelweiß-Straße"/>
    <tag k="oneway" v="false"/>
  </way>
  <way id="9421631" version="5" timestamp="2008-12-08T15:36:24Z" uid="27600" user="Islanit" changeset="256442">
    <nd ref="71836026"/>
    <nd ref="317391902"/>
    <nd ref="71836011"/>
    <nd ref="78718801"/>
    <tag k="abutters" v="residential"/>
    <tag k="created_by" v="Potlatch 0.10f"/>
    <tag k="highway" v="residential"/>
    <tag k="maxspeed" v="30"/>
    <tag k="name" v="Doktor-Semmelweiß-Straße"/>
    <tag k="oneway" v="false"/>
  </way>
  <way id="9421631" version="6" timestamp="2008-12-10T19:36:54Z" uid="36894" user="rab" changeset="303094">
    <nd ref="71836026"/>
    <nd ref="317391902"/>
    <nd ref="78718801"/>
    <tag k="abutters" v="residential"/>
    <tag k="created_by" v="Potlatch 0.10f"/>
    <tag k="highway" v="residential"/>
    <tag k="maxspeed" v="30"/>
    <tag k="name" v="Doktor-Semmelweiß-Straße"/>
    <tag k="oneway" v="false"/>
  </way>
  <way id="9421631" version="7" timestamp="2009-04-17T00:19:16Z" uid="103885" user="logicbot" changeset="603450">
    <nd ref="71836026"/>
    <nd ref="317391902"/>
    <nd ref="78718801"/>
    <tag k="abutters" v="residential"/>
    <tag k="created_by" v="Potlatch 0.10f"/>
    <tag k="highway" v="residential"/>
    <tag k="maxspeed" v="30"/>
    <tag k="name" v="Doktor-Semmelweiß-Straße"/>
    <tag k="oneway" v="no"/>
  </way>
  <way id="9421631" version="8" timestamp="2009-09-28T12:09:51Z" uid="109035" user="Teddy80" changeset="2663725">
    <nd ref="71836026"/>
    <nd ref="317391902"/>
    <nd ref="78718801"/>
    <tag k="abutters" v="residential"/>
    <tag k="highway" v="residential"/>
    <tag k="maxspeed" v="30"/>
    <tag k="name" v="Doktor-Semmelweiß-Straße"/>
    <tag k="oneway" v="no"/>
  </way>
  <way id="9421631" version="9" timestamp="2010-03-08T16:50:20Z" uid="161619" user="FvGordon" changeset="4073432">
    <nd ref="71836026"/>
    <nd ref="317391902"/>
    <nd ref="78718801"/>
    <tag k="abutters" v="residential"/>
    <tag k="highway" v="residential"/>
    <tag k="maxspeed" v="30"/>
    <tag k="name" v="Doktor-Semmelweiß-Straße"/>
  </way>
  <way id="9421631" version="10" timestamp="2010-07-06T12:46:47Z" uid="42938" user="Xanadu" changeset="5150257">
    <nd ref="71836026"/>
    <nd ref="317391902"/>
    <nd ref="78718801"/>
    <tag k="highway" v="residential"/>
    <tag k="maxspeed" v="30"/>
    <tag k="name" v="Doktor-Semmelweiß-Straße"/>
  </way>
  <way id="9421631" version="11" timestamp="2011-08-03T18:06:58Z" uid="194089" user="Daresch" changeset="8912629">
    <nd ref="71836026"/>
    <nd ref="317391902"/>
    <nd ref="78718801"/>
    <tag k="highway" v="residential"/>
    <tag k="maxspeed" v="30"/>
    <tag k="name" v="Doktor-Semmelweiß-Straße"/>
    <tag k="surface" v="asphalt"/>
  </way>
  <way id="9421809" version="5" timestamp="2008-12-22T10:28:25Z" uid="27600" user="Islanit" changeset="538850"/>
  <way id="9421946" version="5" timestamp="2008-07-04T09:03:44Z" uid="6975" user="ulfl" changeset="389415">
    <nd ref="98344233"/>
    <nd ref="82798315"/>
    <tag k="highway" v="track"/>
    <tag k="tracktype" v="grade2"/>
  </way>
  <way id="9421946" version="6" timestamp="2012-02-11T12:09:22Z" uid="118134" user="scai" changeset="10651924"/>
</osm>
