<?xml version='1.0' encoding='UTF-8'?>
<osm version="0.6" generator="libosmium/2.20.0">
  <way id="94473519" version="2" timestamp="2011-03-26T21:20:42Z" uid="34428" user="usm78-gis" changeset="7680240">
    <nd ref="1097309448"/>
    <nd ref="1097309207"/>
    <nd ref="1097309441"/>
    <nd ref="1097309215"/>
    <nd ref="1219707265"/>
    <nd ref="1097309448"/>
    <tag k="addr:country" v="RU"/>
    <tag k="building" v="yes"/>
  </way>
  <way id="94473519" version="3" timestamp="2012-01-01T12:56:04Z" uid="509556" user="AntonyLips" changeset="10261071">
    <nd ref="1097309448"/>
    <nd ref="1097309207"/>
    <nd ref="1097309441"/>
    <nd ref="1097309215"/>
    <nd ref="1219707265"/>
    <nd ref="1097309448"/>
    <tag k="addr:country" v="RU"/>
    <tag k="addr:housenumber" v="53"/>
    <tag k="addr:street" v="Оборонная улица"/>
    <tag k="building" v="yes"/>
  </way>
  <way id="94473519" version="4" timestamp="2012-01-20T22:11:33Z" uid="165883" user="Ilgn" changeset="10451232">
    <nd ref="1097309448"/>
    <nd ref="1097309207"/>
    <nd ref="1097309441"/>
    <nd ref="1097309215"/>
    <nd ref="1219707265"/>
    <nd ref="1097309448"/>
    <tag k="addr:country" v="RU"/>
    <tag k="addr:housenumber" v="53"/>
    <tag k="addr:street" v="Оборонная улица"/>
    <tag k="building" v="yes"/>
    <tag k="building:levels" v="4"/>
  </way>
</osm>
