<?xml version='1.0' encoding='UTF-8'?>
<osm version="0.6" generator="libosmium/2.20.0">
  <way id="9463372" version="26" timestamp="2010-03-20T14:06:15Z" uid="74617" user="JohnSmith" changeset="4180105">
    <nd ref="33719913"/>
    <nd ref="80850798"/>
    <nd ref="80850797"/>
    <nd ref="80850796"/>
    <nd ref="80850793"/>
    <nd ref="80850792"/>
    <nd ref="80850791"/>
    <nd ref="80850787"/>
    <nd ref="94581771"/>
    <nd ref="80850785"/>
    <nd ref="259780402"/>
    <nd ref="80850784"/>
    <nd ref="80850783"/>
    <nd ref="80850782"/>
    <nd ref="80850781"/>
    <nd ref="33719896"/>
    <tag k="highway" v="primary"/>
    <tag k="maxspeed" v="60"/>
    <tag k="name" v="Webster Road"/>
    <tag k="oneway" v="yes"/>
  </way>
  <way id="9463445" version="11" timestamp="2010-02-14T15:45:18Z" uid="74617" user="JohnSmith" changeset="3874884">
    <nd ref="72461846"/>
    <nd ref="353177332"/>
    <tag k="highway" v="secondary"/>
    <tag k="name" v="Days Road"/>
    <tag k="oneway" v="yes"/>
  </way>
  <way id="9463445" version="12" timestamp="2010-02-23T09:27:26Z" uid="14505" user="David Dean" changeset="3951585">
    <nd ref="353177332"/>
    <nd ref="72461846"/>
    <tag k="highway" v="secondary"/>
    <tag k="name" v="Days Road"/>
    <tag k="oneway" v="yes"/>
  </way>
  <way id="9463518" version="10" timestamp="2010-02-14T15:45:01Z" uid="74617" user="JohnSmith" changeset="3874884">
    <nd ref="158102036"/>
    <nd ref="72462988"/>
    <nd ref="72462989"/>
    <nd ref="72462990"/>
    <nd ref="72462991"/>
    <nd ref="72462992"/>
    <nd ref="72462994"/>
    <nd ref="72462995"/>
    <nd ref="72462996"/>
    <nd ref="72462997"/>
    <nd ref="158281787"/>
    <nd ref="72462998"/>
    <nd ref="72462999"/>
    <nd ref="72463000"/>
    <nd ref="72463003"/>
    <nd ref="72463004"/>
    <nd ref="72463005"/>
    <nd ref="72463006"/>
    <nd ref="72463007"/>
    <nd ref="72463011"/>
    <nd ref="72470398"/>
    <tag k="highway" v="secondary"/>
    <tag k="name" v="Maygar Street"/>
  </way>
  <way id="9463780" version="24" timestamp="2010-02-14T15:45:00Z" uid="74617" user="JohnSmith" changeset="3874884">
    <nd ref="72473360"/>
    <nd ref="310730796"/>
    <nd ref="72463533"/>
    <nd ref="268410363"/>
    <nd ref="72463534"/>
    <nd ref="72470629"/>
    <nd ref="268410362"/>
    <nd ref="72463538"/>
    <nd ref="72463539"/>
    <nd ref="72463540"/>
    <nd ref="72463011"/>
    <tag k="highway" v="trunk"/>
    <tag k="maxspeed" v="60"/>
    <tag k="name" v="Lutwyche Road"/>
    <tag k="oneway" v="yes"/>
    <tag k="ref" v="A3"/>
  </way>
  <way id="9463780" version="25" timestamp="2010-02-26T17:45:36Z" uid="74617" user="JohnSmith" changeset="3982219">
    <nd ref="72473360"/>
    <nd ref="310730796"/>
    <nd ref="72463533"/>
    <nd ref="268410363"/>
    <nd ref="72463534"/>
    <nd ref="72470629"/>
    <nd ref="268410362"/>
    <nd ref="72463538"/>
    <nd ref="72463539"/>
    <nd ref="72463540"/>
    <nd ref="72463011"/>
    <tag k="highway" v="trunk"/>
    <tag k="maxspeed" v="60"/>
    <tag k="name" v="Lutwyche Road"/>
    <tag k="oneway" v="yes"/>
  </way>
  <way id="9463881" version="12" timestamp="2010-02-14T15:45:35Z" uid="74617" user="JohnSmith" changeset="3874884">
    <nd ref="72469571"/>
    <nd ref="72470394"/>
    <nd ref="353175140"/>
    <nd ref="72470395"/>
    <nd ref="72470397"/>
    <nd ref="72470398"/>
    <tag k="highway" v="secondary"/>
    <tag k="name" v="Lutwyche Road"/>
    <tag k="oneway" v="yes"/>
    <tag k="ref" v="A3"/>
  </way>
  <way id="9463881" version="13" timestamp="2010-02-14T16:03:46Z" uid="74617" user="JohnSmith" changeset="3875130">
    <nd ref="72469571"/>
    <nd ref="72470394"/>
    <nd ref="353175140"/>
    <nd ref="72470395"/>
    <nd ref="639077738"/>
    <nd ref="72470397"/>
    <nd ref="72470398"/>
    <tag k="highway" v="secondary"/>
    <tag k="name" v="Lutwyche Road"/>
    <tag k="oneway" v="yes"/>
    <tag k="ref" v="A3"/>
  </way>
  <way id="9463881" version="14" timestamp="2011-05-23T04:56:19Z" uid="129262" user="ElderKorean" changeset="8222964">
    <nd ref="72469571"/>
    <nd ref="1296952808"/>
    <nd ref="1296952805"/>
    <nd ref="72470394"/>
    <nd ref="353175140"/>
    <nd ref="72470395"/>
    <nd ref="639077738"/>
    <nd ref="72470397"/>
    <nd ref="1296952809"/>
    <nd ref="72470398"/>
    <tag k="highway" v="secondary"/>
    <tag k="name" v="Lutwyche Road"/>
    <tag k="oneway" v="yes"/>
    <tag k="ref" v="A3"/>
  </way>
</osm>
