<?xml version='1.0' encoding='UTF-8'?>
<osm version="0.6" generator="libosmium/2.20.0">
  <way id="94730038" version="1" timestamp="2011-01-12T14:19:47Z" uid="115477" user="wowik" changeset="6947600">
    <nd ref="1099946198"/>
    <nd ref="1099946509"/>
    <nd ref="1099946103"/>
    <nd ref="1099946404"/>
    <nd ref="1099946198"/>
    <tag k="addr:city" v="Зеленоград"/>
    <tag k="building" v="yes"/>
    <tag k="is_in" v="Russia"/>
  </way>
  <way id="94730038" version="2" timestamp="2011-01-19T20:20:41Z" uid="241531" user="dik_man" changeset="7024388"/>
  <way id="94730041" version="1" timestamp="2011-01-12T14:19:47Z" uid="115477" user="wowik" changeset="6947600">
    <nd ref="1099946607"/>
    <nd ref="1099946189"/>
    <nd ref="1099946490"/>
    <nd ref="1099946096"/>
    <nd ref="1099946607"/>
    <tag k="addr:city" v="Зеленоград"/>
    <tag k="addr:housenumber" v="1с4"/>
    <tag k="addr:street" v="Солнечная аллея"/>
    <tag k="building" v="yes"/>
    <tag k="is_in" v="Russia"/>
  </way>
  <way id="94730041" version="2" timestamp="2011-01-19T17:07:27Z" uid="70696" user="xybot" changeset="7021015">
    <nd ref="1099946607"/>
    <nd ref="1099946189"/>
    <nd ref="1099946490"/>
    <nd ref="1099946096"/>
    <nd ref="1099946607"/>
    <tag k="addr:city" v="Зеленоград"/>
    <tag k="addr:housenumber" v="1 с4"/>
    <tag k="addr:street" v="Солнечная аллея"/>
    <tag k="building" v="yes"/>
    <tag k="is_in" v="Russia"/>
  </way>
  <way id="94730041" version="3" timestamp="2011-09-13T10:20:47Z" uid="29320" user="Komяpa" changeset="9288237">
    <nd ref="1099946607"/>
    <nd ref="1099946189"/>
    <nd ref="1099946490"/>
    <nd ref="1099946096"/>
    <nd ref="1099946607"/>
    <tag k="addr:city" v="Зеленоград"/>
    <tag k="addr:country" v="RU"/>
    <tag k="addr:housenumber" v="1 с4"/>
    <tag k="addr:street" v="Солнечная аллея"/>
    <tag k="building" v="yes"/>
  </way>
  <way id="94730041" version="4" timestamp="2012-03-27T11:33:13Z" uid="481934" user="iWowik" changeset="11115472">
    <nd ref="1099946607"/>
    <nd ref="1099946189"/>
    <nd ref="1099946490"/>
    <nd ref="1099946096"/>
    <nd ref="1099946607"/>
    <tag k="addr:city" v="Зеленоград"/>
    <tag k="addr:country" v="RU"/>
    <tag k="addr:housenumber" v="1 с4"/>
    <tag k="addr:region" v="Москва"/>
    <tag k="addr:street" v="Солнечная аллея"/>
    <tag k="building" v="yes"/>
  </way>
  <way id="94730046" version="1" timestamp="2011-01-12T14:19:48Z" uid="115477" user="wowik" changeset="6947600">
    <nd ref="1099946461"/>
    <nd ref="1099946292"/>
    <nd ref="1099946602"/>
    <nd ref="1099946162"/>
    <nd ref="1099946461"/>
    <tag k="addr:city" v="Зеленоград"/>
    <tag k="building" v="yes"/>
    <tag k="is_in" v="Russia"/>
  </way>
  <way id="94730046" version="2" timestamp="2011-09-13T10:37:45Z" uid="29320" user="Komяpa" changeset="9288237">
    <nd ref="1099946461"/>
    <nd ref="1099946292"/>
    <nd ref="1099946602"/>
    <nd ref="1099946162"/>
    <nd ref="1099946461"/>
    <tag k="addr:city" v="Зеленоград"/>
    <tag k="addr:country" v="RU"/>
    <tag k="building" v="yes"/>
  </way>
  <way id="94730046" version="3" timestamp="2012-03-27T11:50:04Z" uid="481934" user="iWowik" changeset="11115472">
    <nd ref="1099946461"/>
    <nd ref="1099946292"/>
    <nd ref="1099946602"/>
    <nd ref="1099946162"/>
    <nd ref="1099946461"/>
    <tag k="addr:city" v="Зеленоград"/>
    <tag k="addr:country" v="RU"/>
    <tag k="addr:region" v="Москва"/>
    <tag k="building" v="yes"/>
  </way>
  <way id="94730049" version="1" timestamp="2011-01-12T14:19:48Z" uid="115477" user="wowik" changeset="6947600">
    <nd ref="593337638"/>
    <nd ref="593337697"/>
    <tag k="addr:postcode" v="124460"/>
    <tag k="cladr:code" v="77000002000453700"/>
    <tag k="cladr:name" v="4806-й"/>
    <tag k="cladr:suffix" v="Проезд"/>
    <tag k="highway" v="primary"/>
    <tag k="lanes" v="2"/>
    <tag k="name" v="Проезд N 4806"/>
    <tag k="oneway" v="yes"/>
    <tag k="sorting_name" v="Проезд 4806"/>
  </way>
  <way id="94730049" version="2" timestamp="2011-04-21T10:38:44Z" uid="241531" user="dik_man" changeset="7924197">
    <nd ref="593337638"/>
    <nd ref="593337697"/>
    <tag k="addr:postcode" v="124460"/>
    <tag k="cladr:code" v="77000002000453700"/>
    <tag k="cladr:name" v="4806-й"/>
    <tag k="cladr:suffix" v="Проезд"/>
    <tag k="highway" v="primary"/>
    <tag k="lanes" v="2"/>
    <tag k="maxspeed" v="40"/>
    <tag k="name" v="Проезд N 4806"/>
    <tag k="oneway" v="yes"/>
    <tag k="sorting_name" v="Проезд 4806"/>
  </way>
  <way id="94730049" version="3" timestamp="2011-10-09T22:39:46Z" uid="518169" user="kosatov" changeset="9517911">
    <nd ref="593337638"/>
    <nd ref="593337697"/>
    <tag k="addr:postcode" v="124460"/>
    <tag k="cladr:code" v="77000002000453700"/>
    <tag k="cladr:name" v="4806-й"/>
    <tag k="cladr:suffix" v="Проезд"/>
    <tag k="highway" v="primary"/>
    <tag k="lanes" v="2"/>
    <tag k="maxspeed" v="40"/>
    <tag k="name" v="Проезд N 4806"/>
    <tag k="oneway" v="yes"/>
    <tag k="sorting_name" v="Проезд 4806"/>
  </way>
  <way id="94730049" version="4" timestamp="2011-10-27T19:40:51Z" uid="518169" user="kosatov" changeset="9671386"/>
  <way id="94730056" version="1" timestamp="2011-01-12T14:19:49Z" uid="115477" user="wowik" changeset="6947600">
    <nd ref="1099946722"/>
    <nd ref="1099946341"/>
    <nd ref="1099946311"/>
    <nd ref="1099946450"/>
    <nd ref="1099946651"/>
    <nd ref="1099946233"/>
    <nd ref="1099946555"/>
    <nd ref="1099946722"/>
    <tag k="addr:city" v="Зеленоград"/>
    <tag k="addr:housenumber" v="5с15"/>
    <tag k="addr:street" v="Проезд N 4806"/>
    <tag k="building" v="yes"/>
    <tag k="is_in" v="Russia"/>
  </way>
  <way id="94730056" version="2" timestamp="2011-01-19T17:07:28Z" uid="70696" user="xybot" changeset="7021015">
    <nd ref="1099946722"/>
    <nd ref="1099946341"/>
    <nd ref="1099946311"/>
    <nd ref="1099946450"/>
    <nd ref="1099946651"/>
    <nd ref="1099946233"/>
    <nd ref="1099946555"/>
    <nd ref="1099946722"/>
    <tag k="addr:city" v="Зеленоград"/>
    <tag k="addr:housenumber" v="5 с15"/>
    <tag k="addr:street" v="Проезд N 4806"/>
    <tag k="building" v="yes"/>
    <tag k="is_in" v="Russia"/>
  </way>
  <way id="94730056" version="3" timestamp="2011-01-19T20:20:41Z" uid="241531" user="dik_man" changeset="7024388"/>
  <way id="94730059" version="1" timestamp="2011-01-12T14:19:49Z" uid="115477" user="wowik" changeset="6947600">
    <nd ref="1099946306"/>
    <nd ref="1099946639"/>
    <nd ref="1099946201"/>
    <nd ref="1099946538"/>
    <nd ref="1099946306"/>
    <tag k="addr:city" v="Зеленоград"/>
    <tag k="building" v="yes"/>
    <tag k="is_in" v="Russia"/>
  </way>
  <way id="94730059" version="2" timestamp="2011-09-13T10:37:45Z" uid="29320" user="Komяpa" changeset="9288237">
    <nd ref="1099946306"/>
    <nd ref="1099946639"/>
    <nd ref="1099946201"/>
    <nd ref="1099946538"/>
    <nd ref="1099946306"/>
    <tag k="addr:city" v="Зеленоград"/>
    <tag k="addr:country" v="RU"/>
    <tag k="building" v="yes"/>
  </way>
  <way id="94730059" version="3" timestamp="2012-03-27T11:50:19Z" uid="481934" user="iWowik" changeset="11115472">
    <nd ref="1099946306"/>
    <nd ref="1099946639"/>
    <nd ref="1099946201"/>
    <nd ref="1099946538"/>
    <nd ref="1099946306"/>
    <tag k="addr:city" v="Зеленоград"/>
    <tag k="addr:country" v="RU"/>
    <tag k="addr:region" v="Москва"/>
    <tag k="building" v="yes"/>
  </way>
  <way id="94730062" version="1" timestamp="2011-01-12T14:19:49Z" uid="115477" user="wowik" changeset="6947600">
    <nd ref="1099946718"/>
    <nd ref="1099946335"/>
    <nd ref="1099946212"/>
    <nd ref="1099946140"/>
    <nd ref="1099946718"/>
    <tag k="leisure" v="pitch"/>
  </way>
  <way id="94730063" version="1" timestamp="2011-01-12T14:19:50Z" uid="115477" user="wowik" changeset="6947600">
    <nd ref="1099946726"/>
    <nd ref="1099946346"/>
    <nd ref="1099946654"/>
    <nd ref="1099946237"/>
    <nd ref="1099946726"/>
    <tag k="addr:city" v="Зеленоград"/>
    <tag k="building" v="yes"/>
    <tag k="is_in" v="Russia"/>
  </way>
  <way id="94730063" version="2" timestamp="2011-09-13T10:37:46Z" uid="29320" user="Komяpa" changeset="9288237">
    <nd ref="1099946726"/>
    <nd ref="1099946346"/>
    <nd ref="1099946654"/>
    <nd ref="1099946237"/>
    <nd ref="1099946726"/>
    <tag k="addr:city" v="Зеленоград"/>
    <tag k="addr:country" v="RU"/>
    <tag k="building" v="yes"/>
  </way>
  <way id="94730063" version="3" timestamp="2012-03-27T11:52:20Z" uid="481934" user="iWowik" changeset="11115472">
    <nd ref="1099946726"/>
    <nd ref="1099946346"/>
    <nd ref="1099946654"/>
    <nd ref="1099946237"/>
    <nd ref="1099946726"/>
    <tag k="addr:city" v="Зеленоград"/>
    <tag k="addr:country" v="RU"/>
    <tag k="addr:region" v="Москва"/>
    <tag k="building" v="yes"/>
  </way>
  <way id="94730064" version="1" timestamp="2011-01-12T14:19:50Z" uid="115477" user="wowik" changeset="6947600">
    <nd ref="1099946114"/>
    <nd ref="1099946444"/>
    <nd ref="1099946691"/>
    <nd ref="1099946301"/>
    <nd ref="1099946114"/>
    <tag k="addr:city" v="Зеленоград"/>
    <tag k="addr:housenumber" v="2с1"/>
    <tag k="addr:street" v="Солнечная аллея"/>
    <tag k="building" v="yes"/>
    <tag k="is_in" v="Russia"/>
  </way>
  <way id="94730064" version="2" timestamp="2011-01-19T17:07:29Z" uid="70696" user="xybot" changeset="7021015">
    <nd ref="1099946114"/>
    <nd ref="1099946444"/>
    <nd ref="1099946691"/>
    <nd ref="1099946301"/>
    <nd ref="1099946114"/>
    <tag k="addr:city" v="Зеленоград"/>
    <tag k="addr:housenumber" v="2 с1"/>
    <tag k="addr:street" v="Солнечная аллея"/>
    <tag k="building" v="yes"/>
    <tag k="is_in" v="Russia"/>
  </way>
  <way id="94730064" version="3" timestamp="2011-09-13T10:24:09Z" uid="29320" user="Komяpa" changeset="9288237">
    <nd ref="1099946114"/>
    <nd ref="1099946444"/>
    <nd ref="1099946691"/>
    <nd ref="1099946301"/>
    <nd ref="1099946114"/>
    <tag k="addr:city" v="Зеленоград"/>
    <tag k="addr:country" v="RU"/>
    <tag k="addr:housenumber" v="2 с1"/>
    <tag k="addr:street" v="Солнечная аллея"/>
    <tag k="building" v="yes"/>
  </way>
  <way id="94730064" version="4" timestamp="2012-03-27T11:38:42Z" uid="481934" user="iWowik" changeset="11115472">
    <nd ref="1099946114"/>
    <nd ref="1099946444"/>
    <nd ref="1099946691"/>
    <nd ref="1099946301"/>
    <nd ref="1099946114"/>
    <tag k="addr:city" v="Зеленоград"/>
    <tag k="addr:country" v="RU"/>
    <tag k="addr:housenumber" v="2 с1"/>
    <tag k="addr:region" v="Москва"/>
    <tag k="addr:street" v="Солнечная аллея"/>
    <tag k="building" v="yes"/>
  </way>
  <way id="94730073" version="1" timestamp="2011-01-12T14:19:50Z" uid="115477" user="wowik" changeset="6947600">
    <nd ref="1099946728"/>
    <nd ref="1099946364"/>
    <nd ref="1099946336"/>
    <nd ref="1099946466"/>
    <nd ref="1099946680"/>
    <nd ref="1099946251"/>
    <nd ref="1099946728"/>
    <tag k="addr:city" v="Зеленоград"/>
    <tag k="building" v="yes"/>
    <tag k="is_in" v="Russia"/>
  </way>
  <way id="94730073" version="2" timestamp="2011-09-13T10:37:46Z" uid="29320" user="Komяpa" changeset="9288237">
    <nd ref="1099946728"/>
    <nd ref="1099946364"/>
    <nd ref="1099946336"/>
    <nd ref="1099946466"/>
    <nd ref="1099946680"/>
    <nd ref="1099946251"/>
    <nd ref="1099946728"/>
    <tag k="addr:city" v="Зеленоград"/>
    <tag k="addr:country" v="RU"/>
    <tag k="building" v="yes"/>
  </way>
  <way id="94730073" version="3" timestamp="2012-03-27T11:54:52Z" uid="481934" user="iWowik" changeset="11115472">
    <nd ref="1099946728"/>
    <nd ref="1099946364"/>
    <nd ref="1099946336"/>
    <nd ref="1099946466"/>
    <nd ref="1099946680"/>
    <nd ref="1099946251"/>
    <nd ref="1099946728"/>
    <tag k="addr:city" v="Зеленоград"/>
    <tag k="addr:country" v="RU"/>
    <tag k="addr:region" v="Москва"/>
    <tag k="building" v="yes"/>
  </way>
  <way id="94730074" version="1" timestamp="2011-01-12T14:19:51Z" uid="115477" user="wowik" changeset="6947600">
    <nd ref="1099946419"/>
    <nd ref="1099946390"/>
    <nd ref="1099946683"/>
    <nd ref="1099946284"/>
    <nd ref="1099946419"/>
    <tag k="addr:city" v="Зеленоград"/>
    <tag k="building" v="yes"/>
    <tag k="is_in" v="Russia"/>
  </way>
  <way id="94730074" version="2" timestamp="2011-09-13T10:37:46Z" uid="29320" user="Komяpa" changeset="9288237">
    <nd ref="1099946419"/>
    <nd ref="1099946390"/>
    <nd ref="1099946683"/>
    <nd ref="1099946284"/>
    <nd ref="1099946419"/>
    <tag k="addr:city" v="Зеленоград"/>
    <tag k="addr:country" v="RU"/>
    <tag k="building" v="yes"/>
  </way>
  <way id="94730074" version="3" timestamp="2012-03-27T11:49:56Z" uid="481934" user="iWowik" changeset="11115472">
    <nd ref="1099946419"/>
    <nd ref="1099946390"/>
    <nd ref="1099946683"/>
    <nd ref="1099946284"/>
    <nd ref="1099946419"/>
    <tag k="addr:city" v="Зеленоград"/>
    <tag k="addr:country" v="RU"/>
    <tag k="addr:region" v="Москва"/>
    <tag k="building" v="yes"/>
  </way>
  <way id="94730079" version="1" timestamp="2011-01-12T14:19:51Z" uid="115477" user="wowik" changeset="6947600">
    <nd ref="1099946464"/>
    <nd ref="1099946717"/>
    <nd ref="1099946334"/>
    <nd ref="1099946647"/>
    <nd ref="1099946464"/>
    <tag k="addr:city" v="Зеленоград"/>
    <tag k="building" v="yes"/>
    <tag k="is_in" v="Russia"/>
  </way>
  <way id="94730079" version="2" timestamp="2011-09-13T10:37:46Z" uid="29320" user="Komяpa" changeset="9288237">
    <nd ref="1099946464"/>
    <nd ref="1099946717"/>
    <nd ref="1099946334"/>
    <nd ref="1099946647"/>
    <nd ref="1099946464"/>
    <tag k="addr:city" v="Зеленоград"/>
    <tag k="addr:country" v="RU"/>
    <tag k="building" v="yes"/>
  </way>
  <way id="94730079" version="3" timestamp="2012-03-27T11:53:38Z" uid="481934" user="iWowik" changeset="11115472">
    <nd ref="1099946464"/>
    <nd ref="1099946717"/>
    <nd ref="1099946334"/>
    <nd ref="1099946647"/>
    <nd ref="1099946464"/>
    <tag k="addr:city" v="Зеленоград"/>
    <tag k="addr:country" v="RU"/>
    <tag k="addr:region" v="Москва"/>
    <tag k="building" v="yes"/>
  </way>
  <way id="94730080" version="1" timestamp="2011-01-12T14:19:51Z" uid="115477" user="wowik" changeset="6947600">
    <nd ref="1099946192"/>
    <nd ref="1099946160"/>
    <nd ref="1099946483"/>
    <nd ref="1099946356"/>
    <nd ref="1099946599"/>
    <nd ref="1099946488"/>
    <nd ref="1099946192"/>
    <tag k="addr:city" v="Зеленоград"/>
    <tag k="addr:housenumber" v="5с13"/>
    <tag k="addr:street" v="Проезд N 4806"/>
    <tag k="building" v="yes"/>
    <tag k="is_in" v="Russia"/>
  </way>
  <way id="94730080" version="2" timestamp="2011-01-19T17:07:30Z" uid="70696" user="xybot" changeset="7021015">
    <nd ref="1099946192"/>
    <nd ref="1099946160"/>
    <nd ref="1099946483"/>
    <nd ref="1099946356"/>
    <nd ref="1099946599"/>
    <nd ref="1099946488"/>
    <nd ref="1099946192"/>
    <tag k="addr:city" v="Зеленоград"/>
    <tag k="addr:housenumber" v="5 с13"/>
    <tag k="addr:street" v="Проезд N 4806"/>
    <tag k="building" v="yes"/>
    <tag k="is_in" v="Russia"/>
  </way>
  <way id="94730080" version="3" timestamp="2011-01-19T20:20:41Z" uid="241531" user="dik_man" changeset="7024388"/>
  <way id="94730084" version="1" timestamp="2011-01-12T14:19:52Z" uid="115477" user="wowik" changeset="6947600">
    <nd ref="1099946245"/>
    <nd ref="1099946566"/>
    <nd ref="1099946150"/>
    <nd ref="1099946457"/>
    <nd ref="1099946245"/>
    <tag k="addr:city" v="Зеленоград"/>
    <tag k="building" v="yes"/>
    <tag k="is_in" v="Russia"/>
  </way>
  <way id="94730084" version="2" timestamp="2011-09-13T10:37:46Z" uid="29320" user="Komяpa" changeset="9288237">
    <nd ref="1099946245"/>
    <nd ref="1099946566"/>
    <nd ref="1099946150"/>
    <nd ref="1099946457"/>
    <nd ref="1099946245"/>
    <tag k="addr:city" v="Зеленоград"/>
    <tag k="addr:country" v="RU"/>
    <tag k="building" v="yes"/>
  </way>
  <way id="94730084" version="3" timestamp="2012-03-27T11:52:05Z" uid="481934" user="iWowik" changeset="11115472">
    <nd ref="1099946245"/>
    <nd ref="1099946566"/>
    <nd ref="1099946150"/>
    <nd ref="1099946457"/>
    <nd ref="1099946245"/>
    <tag k="addr:city" v="Зеленоград"/>
    <tag k="addr:country" v="RU"/>
    <tag k="addr:region" v="Москва"/>
    <tag k="building" v="yes"/>
  </way>
  <way id="94730086" version="1" timestamp="2011-01-12T14:19:52Z" uid="115477" user="wowik" changeset="6947600">
    <nd ref="1099946545"/>
    <nd ref="1099946122"/>
    <nd ref="1099946446"/>
    <nd ref="1099946695"/>
    <nd ref="1099946545"/>
    <tag k="addr:city" v="Зеленоград"/>
    <tag k="building" v="yes"/>
    <tag k="is_in" v="Russia"/>
  </way>
  <way id="94730086" version="2" timestamp="2011-01-19T20:20:42Z" uid="241531" user="dik_man" changeset="7024388"/>
  <way id="94730089" version="1" timestamp="2011-01-12T14:19:52Z" uid="115477" user="wowik" changeset="6947600">
    <nd ref="1099946747"/>
    <nd ref="1099946383"/>
    <nd ref="1099946498"/>
    <nd ref="1099946100"/>
    <nd ref="1099946395"/>
    <nd ref="1099946285"/>
    <nd ref="1099946747"/>
    <tag k="addr:city" v="Зеленоград"/>
    <tag k="addr:housenumber" v="5с13"/>
    <tag k="addr:street" v="Проезд N 4806"/>
    <tag k="building" v="yes"/>
    <tag k="is_in" v="Russia"/>
  </way>
  <way id="94730089" version="2" timestamp="2011-01-19T17:07:30Z" uid="70696" user="xybot" changeset="7021015">
    <nd ref="1099946747"/>
    <nd ref="1099946383"/>
    <nd ref="1099946498"/>
    <nd ref="1099946100"/>
    <nd ref="1099946395"/>
    <nd ref="1099946285"/>
    <nd ref="1099946747"/>
    <tag k="addr:city" v="Зеленоград"/>
    <tag k="addr:housenumber" v="5 с13"/>
    <tag k="addr:street" v="Проезд N 4806"/>
    <tag k="building" v="yes"/>
    <tag k="is_in" v="Russia"/>
  </way>
  <way id="94730089" version="3" timestamp="2011-01-19T20:20:42Z" uid="241531" user="dik_man" changeset="7024388"/>
  <way id="94730092" version="1" timestamp="2011-01-12T14:19:53Z" uid="115477" user="wowik" changeset="6947600">
    <nd ref="1099946643"/>
    <nd ref="1099946208"/>
    <nd ref="1099946540"/>
    <nd ref="1099946118"/>
    <nd ref="1099946643"/>
    <tag k="addr:city" v="Зеленоград"/>
    <tag k="addr:housenumber" v="2Ас1"/>
    <tag k="addr:street" v="Солнечная аллея"/>
    <tag k="building" v="yes"/>
    <tag k="is_in" v="Russia"/>
  </way>
  <way id="94730092" version="2" timestamp="2011-01-19T18:06:35Z" uid="70696" user="xybot" changeset="7022960">
    <nd ref="1099946643"/>
    <nd ref="1099946208"/>
    <nd ref="1099946540"/>
    <nd ref="1099946118"/>
    <nd ref="1099946643"/>
    <tag k="addr:city" v="Зеленоград"/>
    <tag k="addr:housenumber" v="2А с1"/>
    <tag k="addr:street" v="Солнечная аллея"/>
    <tag k="building" v="yes"/>
    <tag k="is_in" v="Russia"/>
  </way>
  <way id="94730092" version="3" timestamp="2011-09-13T10:25:16Z" uid="29320" user="Komяpa" changeset="9288237">
    <nd ref="1099946643"/>
    <nd ref="1099946208"/>
    <nd ref="1099946540"/>
    <nd ref="1099946118"/>
    <nd ref="1099946643"/>
    <tag k="addr:city" v="Зеленоград"/>
    <tag k="addr:country" v="RU"/>
    <tag k="addr:housenumber" v="2А с1"/>
    <tag k="addr:street" v="Солнечная аллея"/>
    <tag k="building" v="yes"/>
  </way>
  <way id="94730092" version="4" timestamp="2012-03-27T11:40:36Z" uid="481934" user="iWowik" changeset="11115472">
    <nd ref="1099946643"/>
    <nd ref="1099946208"/>
    <nd ref="1099946540"/>
    <nd ref="1099946118"/>
    <nd ref="1099946643"/>
    <tag k="addr:city" v="Зеленоград"/>
    <tag k="addr:country" v="RU"/>
    <tag k="addr:housenumber" v="2А с1"/>
    <tag k="addr:region" v="Москва"/>
    <tag k="addr:street" v="Солнечная аллея"/>
    <tag k="building" v="yes"/>
  </way>
  <way id="94730096" version="1" timestamp="2011-01-12T14:19:53Z" uid="115477" user="wowik" changeset="6947600">
    <nd ref="1099946686"/>
    <nd ref="1099946288"/>
    <nd ref="1099946195"/>
    <nd ref="1099946504"/>
    <nd ref="1099946686"/>
    <tag k="addr:city" v="Зеленоград"/>
    <tag k="building" v="yes"/>
    <tag k="is_in" v="Russia"/>
  </way>
  <way id="94730096" version="2" timestamp="2011-09-13T10:37:47Z" uid="29320" user="Komяpa" changeset="9288237">
    <nd ref="1099946686"/>
    <nd ref="1099946288"/>
    <nd ref="1099946195"/>
    <nd ref="1099946504"/>
    <nd ref="1099946686"/>
    <tag k="addr:city" v="Зеленоград"/>
    <tag k="addr:country" v="RU"/>
    <tag k="building" v="yes"/>
  </way>
  <way id="94730096" version="3" timestamp="2012-03-27T11:51:35Z" uid="481934" user="iWowik" changeset="11115472">
    <nd ref="1099946686"/>
    <nd ref="1099946288"/>
    <nd ref="1099946195"/>
    <nd ref="1099946504"/>
    <nd ref="1099946686"/>
    <tag k="addr:city" v="Зеленоград"/>
    <tag k="addr:country" v="RU"/>
    <tag k="addr:region" v="Москва"/>
    <tag k="building" v="yes"/>
  </way>
  <way id="94730098" version="1" timestamp="2011-01-12T14:19:53Z" uid="115477" user="wowik" changeset="6947600">
    <nd ref="1099946672"/>
    <nd ref="1099946241"/>
    <nd ref="1099946561"/>
    <nd ref="1099946145"/>
    <nd ref="1099946453"/>
    <nd ref="1099946714"/>
    <nd ref="1099946672"/>
    <tag k="addr:city" v="Зеленоград"/>
    <tag k="addr:housenumber" v="2с1"/>
    <tag k="addr:street" v="Солнечная аллея"/>
    <tag k="building" v="yes"/>
    <tag k="is_in" v="Russia"/>
  </way>
  <way id="94730098" version="2" timestamp="2011-01-19T17:07:31Z" uid="70696" user="xybot" changeset="7021015">
    <nd ref="1099946672"/>
    <nd ref="1099946241"/>
    <nd ref="1099946561"/>
    <nd ref="1099946145"/>
    <nd ref="1099946453"/>
    <nd ref="1099946714"/>
    <nd ref="1099946672"/>
    <tag k="addr:city" v="Зеленоград"/>
    <tag k="addr:housenumber" v="2 с1"/>
    <tag k="addr:street" v="Солнечная аллея"/>
    <tag k="building" v="yes"/>
    <tag k="is_in" v="Russia"/>
  </way>
  <way id="94730098" version="3" timestamp="2011-09-13T10:24:10Z" uid="29320" user="Komяpa" changeset="9288237">
    <nd ref="1099946672"/>
    <nd ref="1099946241"/>
    <nd ref="1099946561"/>
    <nd ref="1099946145"/>
    <nd ref="1099946453"/>
    <nd ref="1099946714"/>
    <nd ref="1099946672"/>
    <tag k="addr:city" v="Зеленоград"/>
    <tag k="addr:country" v="RU"/>
    <tag k="addr:housenumber" v="2 с1"/>
    <tag k="addr:street" v="Солнечная аллея"/>
    <tag k="building" v="yes"/>
  </way>
  <way id="94730098" version="4" timestamp="2012-03-27T11:38:43Z" uid="481934" user="iWowik" changeset="11115472">
    <nd ref="1099946672"/>
    <nd ref="1099946241"/>
    <nd ref="1099946561"/>
    <nd ref="1099946145"/>
    <nd ref="1099946453"/>
    <nd ref="1099946714"/>
    <nd ref="1099946672"/>
    <tag k="addr:city" v="Зеленоград"/>
    <tag k="addr:country" v="RU"/>
    <tag k="addr:housenumber" v="2 с1"/>
    <tag k="addr:region" v="Москва"/>
    <tag k="addr:street" v="Солнечная аллея"/>
    <tag k="building" v="yes"/>
  </way>
  <way id="94730101" version="1" timestamp="2011-01-12T14:19:54Z" uid="115477" user="wowik" changeset="6947600">
    <nd ref="1099946549"/>
    <nd ref="1099946143"/>
    <nd ref="1099946712"/>
    <nd ref="1099946635"/>
    <nd ref="1099946549"/>
    <tag k="addr:city" v="Зеленоград"/>
    <tag k="addr:housenumber" v="1с6"/>
    <tag k="addr:street" v="Солнечная аллея"/>
    <tag k="building" v="yes"/>
    <tag k="is_in" v="Russia"/>
  </way>
  <way id="94730101" version="2" timestamp="2011-01-19T17:07:32Z" uid="70696" user="xybot" changeset="7021015">
    <nd ref="1099946549"/>
    <nd ref="1099946143"/>
    <nd ref="1099946712"/>
    <nd ref="1099946635"/>
    <nd ref="1099946549"/>
    <tag k="addr:city" v="Зеленоград"/>
    <tag k="addr:housenumber" v="1 с6"/>
    <tag k="addr:street" v="Солнечная аллея"/>
    <tag k="building" v="yes"/>
    <tag k="is_in" v="Russia"/>
  </way>
  <way id="94730101" version="3" timestamp="2011-09-13T10:20:49Z" uid="29320" user="Komяpa" changeset="9288237">
    <nd ref="1099946549"/>
    <nd ref="1099946143"/>
    <nd ref="1099946712"/>
    <nd ref="1099946635"/>
    <nd ref="1099946549"/>
    <tag k="addr:city" v="Зеленоград"/>
    <tag k="addr:country" v="RU"/>
    <tag k="addr:housenumber" v="1 с6"/>
    <tag k="addr:street" v="Солнечная аллея"/>
    <tag k="building" v="yes"/>
  </way>
  <way id="94730101" version="4" timestamp="2012-03-27T11:33:16Z" uid="481934" user="iWowik" changeset="11115472">
    <nd ref="1099946549"/>
    <nd ref="1099946143"/>
    <nd ref="1099946712"/>
    <nd ref="1099946635"/>
    <nd ref="1099946549"/>
    <tag k="addr:city" v="Зеленоград"/>
    <tag k="addr:country" v="RU"/>
    <tag k="addr:housenumber" v="1 с6"/>
    <tag k="addr:region" v="Москва"/>
    <tag k="addr:street" v="Солнечная аллея"/>
    <tag k="building" v="yes"/>
  </way>
  <way id="94730104" version="1" timestamp="2011-01-12T14:19:54Z" uid="115477" user="wowik" changeset="6947600">
    <nd ref="1099946349"/>
    <nd ref="1099946675"/>
    <nd ref="1099946249"/>
    <nd ref="1099946589"/>
    <nd ref="1099946349"/>
    <tag k="addr:city" v="Зеленоград"/>
    <tag k="building" v="yes"/>
    <tag k="is_in" v="Russia"/>
  </way>
  <way id="94730104" version="2" timestamp="2011-09-13T10:37:47Z" uid="29320" user="Komяpa" changeset="9288237">
    <nd ref="1099946349"/>
    <nd ref="1099946675"/>
    <nd ref="1099946249"/>
    <nd ref="1099946589"/>
    <nd ref="1099946349"/>
    <tag k="addr:city" v="Зеленоград"/>
    <tag k="addr:country" v="RU"/>
    <tag k="building" v="yes"/>
  </way>
  <way id="94730104" version="3" timestamp="2012-03-27T11:50:53Z" uid="481934" user="iWowik" changeset="11115472">
    <nd ref="1099946349"/>
    <nd ref="1099946675"/>
    <nd ref="1099946249"/>
    <nd ref="1099946589"/>
    <nd ref="1099946349"/>
    <tag k="addr:city" v="Зеленоград"/>
    <tag k="addr:country" v="RU"/>
    <tag k="addr:region" v="Москва"/>
    <tag k="building" v="yes"/>
  </way>
</osm>
