<?xml version='1.0' encoding='UTF-8'?>
<osm version="0.6" generator="libosmium/2.20.0">
  <way id="94744072" version="1" timestamp="2011-01-12T14:42:31Z" uid="115477" user="wowik" changeset="6947825">
    <nd ref="1099995136"/>
    <nd ref="1099995244"/>
    <nd ref="1099995102"/>
    <nd ref="1099995215"/>
    <nd ref="1099995136"/>
    <tag k="addr:city" v="Зеленоград"/>
    <tag k="building" v="yes"/>
    <tag k="cladr:code" v="77000002000453700"/>
    <tag k="is_in" v="Russia"/>
  </way>
  <way id="94744072" version="2" timestamp="2011-09-13T10:37:47Z" uid="29320" user="Komяpa" changeset="9288237">
    <nd ref="1099995136"/>
    <nd ref="1099995244"/>
    <nd ref="1099995102"/>
    <nd ref="1099995215"/>
    <nd ref="1099995136"/>
    <tag k="addr:city" v="Зеленоград"/>
    <tag k="addr:country" v="RU"/>
    <tag k="building" v="yes"/>
    <tag k="cladr:code" v="77000002000453700"/>
  </way>
  <way id="94744072" version="3" timestamp="2012-03-27T11:54:07Z" uid="481934" user="iWowik" changeset="11115472">
    <nd ref="1099995136"/>
    <nd ref="1099995244"/>
    <nd ref="1099995102"/>
    <nd ref="1099995215"/>
    <nd ref="1099995136"/>
    <tag k="addr:city" v="Зеленоград"/>
    <tag k="addr:country" v="RU"/>
    <tag k="addr:region" v="Москва"/>
    <tag k="building" v="yes"/>
    <tag k="cladr:code" v="77000002000453700"/>
  </way>
  <way id="94744073" version="1" timestamp="2011-01-12T14:42:31Z" uid="115477" user="wowik" changeset="6947825">
    <nd ref="1099995188"/>
    <nd ref="1099995095"/>
    <nd ref="1099995108"/>
    <nd ref="1099995227"/>
    <nd ref="1099995183"/>
    <nd ref="1099995140"/>
    <nd ref="1099995065"/>
    <nd ref="1099995146"/>
    <nd ref="1099995112"/>
    <nd ref="1099995188"/>
    <tag k="addr:city" v="Зеленоград"/>
    <tag k="building" v="yes"/>
    <tag k="cladr:code" v="77000002000453700"/>
    <tag k="is_in" v="Russia"/>
  </way>
  <way id="94744073" version="2" timestamp="2011-01-27T19:26:58Z" uid="115477" user="wowik" changeset="7106689">
    <nd ref="1099995188"/>
    <nd ref="1099995095"/>
    <nd ref="1099995108"/>
    <nd ref="1099995227"/>
    <nd ref="1099995183"/>
    <nd ref="1099995140"/>
    <nd ref="1099995065"/>
    <nd ref="1099995146"/>
    <nd ref="1099995112"/>
    <nd ref="1099995188"/>
    <tag k="addr:city" v="Зеленоград"/>
    <tag k="building" v="yes"/>
    <tag k="is_in" v="Russia"/>
  </way>
  <way id="94744073" version="3" timestamp="2011-09-13T10:37:47Z" uid="29320" user="Komяpa" changeset="9288237">
    <nd ref="1099995188"/>
    <nd ref="1099995095"/>
    <nd ref="1099995108"/>
    <nd ref="1099995227"/>
    <nd ref="1099995183"/>
    <nd ref="1099995140"/>
    <nd ref="1099995065"/>
    <nd ref="1099995146"/>
    <nd ref="1099995112"/>
    <nd ref="1099995188"/>
    <tag k="addr:city" v="Зеленоград"/>
    <tag k="addr:country" v="RU"/>
    <tag k="building" v="yes"/>
  </way>
  <way id="94744073" version="4" timestamp="2012-03-27T11:55:57Z" uid="481934" user="iWowik" changeset="11115472">
    <nd ref="1099995188"/>
    <nd ref="1099995095"/>
    <nd ref="1099995108"/>
    <nd ref="1099995227"/>
    <nd ref="1099995183"/>
    <nd ref="1099995140"/>
    <nd ref="1099995065"/>
    <nd ref="1099995146"/>
    <nd ref="1099995112"/>
    <nd ref="1099995188"/>
    <tag k="addr:city" v="Зеленоград"/>
    <tag k="addr:country" v="RU"/>
    <tag k="addr:region" v="Москва"/>
    <tag k="building" v="yes"/>
  </way>
  <way id="94744077" version="1" timestamp="2011-01-12T14:42:32Z" uid="115477" user="wowik" changeset="6947825">
    <nd ref="1099995195"/>
    <nd ref="1099995069"/>
    <nd ref="1099995151"/>
    <nd ref="1099995028"/>
    <nd ref="1099995195"/>
    <tag k="addr:city" v="Зеленоград"/>
    <tag k="building" v="yes"/>
    <tag k="cladr:code" v="77000002000453700"/>
    <tag k="is_in" v="Russia"/>
  </way>
  <way id="94744077" version="2" timestamp="2011-01-27T19:26:44Z" uid="115477" user="wowik" changeset="7106689">
    <nd ref="1099995195"/>
    <nd ref="1099995069"/>
    <nd ref="1099995151"/>
    <nd ref="1099995028"/>
    <nd ref="1099995195"/>
    <tag k="addr:city" v="Зеленоград"/>
    <tag k="building" v="yes"/>
    <tag k="is_in" v="Russia"/>
  </way>
  <way id="94744077" version="3" timestamp="2011-09-13T10:37:47Z" uid="29320" user="Komяpa" changeset="9288237">
    <nd ref="1099995195"/>
    <nd ref="1099995069"/>
    <nd ref="1099995151"/>
    <nd ref="1099995028"/>
    <nd ref="1099995195"/>
    <tag k="addr:city" v="Зеленоград"/>
    <tag k="addr:country" v="RU"/>
    <tag k="building" v="yes"/>
  </way>
  <way id="94744077" version="4" timestamp="2012-03-27T11:53:22Z" uid="481934" user="iWowik" changeset="11115472">
    <nd ref="1099995195"/>
    <nd ref="1099995069"/>
    <nd ref="1099995151"/>
    <nd ref="1099995028"/>
    <nd ref="1099995195"/>
    <tag k="addr:city" v="Зеленоград"/>
    <tag k="addr:country" v="RU"/>
    <tag k="addr:region" v="Москва"/>
    <tag k="building" v="yes"/>
  </way>
  <way id="94744079" version="1" timestamp="2011-01-12T14:42:32Z" uid="115477" user="wowik" changeset="6947825">
    <nd ref="1099995223"/>
    <nd ref="1099995181"/>
    <nd ref="1099995062"/>
    <nd ref="1099995138"/>
    <nd ref="1099995223"/>
    <tag k="addr:city" v="Зеленоград"/>
    <tag k="building" v="yes"/>
    <tag k="cladr:code" v="77000002000453700"/>
    <tag k="is_in" v="Russia"/>
  </way>
  <way id="94744079" version="2" timestamp="2011-09-13T10:37:47Z" uid="29320" user="Komяpa" changeset="9288237">
    <nd ref="1099995223"/>
    <nd ref="1099995181"/>
    <nd ref="1099995062"/>
    <nd ref="1099995138"/>
    <nd ref="1099995223"/>
    <tag k="addr:city" v="Зеленоград"/>
    <tag k="addr:country" v="RU"/>
    <tag k="building" v="yes"/>
    <tag k="cladr:code" v="77000002000453700"/>
  </way>
  <way id="94744079" version="3" timestamp="2012-03-27T11:54:20Z" uid="481934" user="iWowik" changeset="11115472">
    <nd ref="1099995223"/>
    <nd ref="1099995181"/>
    <nd ref="1099995062"/>
    <nd ref="1099995138"/>
    <nd ref="1099995223"/>
    <tag k="addr:city" v="Зеленоград"/>
    <tag k="addr:country" v="RU"/>
    <tag k="addr:region" v="Москва"/>
    <tag k="building" v="yes"/>
    <tag k="cladr:code" v="77000002000453700"/>
  </way>
  <way id="94744082" version="1" timestamp="2011-01-12T14:42:32Z" uid="115477" user="wowik" changeset="6947825">
    <nd ref="1099995159"/>
    <nd ref="1099995100"/>
    <nd ref="1099995103"/>
    <nd ref="1099995220"/>
    <nd ref="1099995159"/>
    <tag k="addr:city" v="Зеленоград"/>
    <tag k="addr:housenumber" v="3с1"/>
    <tag k="addr:street" v="Солнечная аллея"/>
    <tag k="amenity" v="commercial"/>
    <tag k="building" v="yes"/>
    <tag k="cladr:code" v="77000002000271400"/>
    <tag k="is_in" v="Russia"/>
    <tag k="name" v="ЗАО &quot;ОРГА ЗЕЛЕНОГРАД&quot;"/>
  </way>
  <way id="94744082" version="2" timestamp="2011-01-19T17:07:33Z" uid="70696" user="xybot" changeset="7021015">
    <nd ref="1099995159"/>
    <nd ref="1099995100"/>
    <nd ref="1099995103"/>
    <nd ref="1099995220"/>
    <nd ref="1099995159"/>
    <tag k="addr:city" v="Зеленоград"/>
    <tag k="addr:housenumber" v="3 с1"/>
    <tag k="addr:street" v="Солнечная аллея"/>
    <tag k="amenity" v="commercial"/>
    <tag k="building" v="yes"/>
    <tag k="cladr:code" v="77000002000271400"/>
    <tag k="is_in" v="Russia"/>
    <tag k="name" v="ЗАО &quot;ОРГА ЗЕЛЕНОГРАД&quot;"/>
  </way>
  <way id="94744082" version="3" timestamp="2011-02-03T17:36:58Z" uid="135021" user="andriano" changeset="7175924">
    <nd ref="1099995159"/>
    <nd ref="1099995100"/>
    <nd ref="1099995103"/>
    <nd ref="1099995220"/>
    <nd ref="1099995159"/>
    <tag k="addr:city" v="Зеленоград"/>
    <tag k="addr:housenumber" v="3 с1"/>
    <tag k="addr:street" v="Солнечная аллея"/>
    <tag k="building" v="yes"/>
    <tag k="cladr:code" v="77000002000271400"/>
    <tag k="is_in" v="Russia"/>
    <tag k="name" v="ЗАО &quot;ОРГА ЗЕЛЕНОГРАД&quot;"/>
    <tag k="shop" v="convenience"/>
  </way>
  <way id="94744082" version="4" timestamp="2011-04-19T14:29:22Z" uid="206282" user="Amigo" changeset="7907096">
    <nd ref="1099995159"/>
    <nd ref="1099995100"/>
    <nd ref="1099995103"/>
    <nd ref="1099995220"/>
    <nd ref="1099995159"/>
    <tag k="addr:city" v="Зеленоград"/>
    <tag k="addr:housenumber" v="3 с1"/>
    <tag k="addr:street" v="Солнечная аллея"/>
    <tag k="building" v="yes"/>
    <tag k="cladr:code" v="77000002000271400"/>
    <tag k="is_in" v="Russia"/>
  </way>
  <way id="94744082" version="5" timestamp="2011-09-13T10:25:26Z" uid="29320" user="Komяpa" changeset="9288237">
    <nd ref="1099995159"/>
    <nd ref="1099995100"/>
    <nd ref="1099995103"/>
    <nd ref="1099995220"/>
    <nd ref="1099995159"/>
    <tag k="addr:city" v="Зеленоград"/>
    <tag k="addr:country" v="RU"/>
    <tag k="addr:housenumber" v="3 с1"/>
    <tag k="addr:street" v="Солнечная аллея"/>
    <tag k="building" v="yes"/>
    <tag k="cladr:code" v="77000002000271400"/>
  </way>
  <way id="94744082" version="6" timestamp="2012-03-27T11:40:52Z" uid="481934" user="iWowik" changeset="11115472">
    <nd ref="1099995159"/>
    <nd ref="1099995100"/>
    <nd ref="1099995103"/>
    <nd ref="1099995220"/>
    <nd ref="1099995159"/>
    <tag k="addr:city" v="Зеленоград"/>
    <tag k="addr:country" v="RU"/>
    <tag k="addr:housenumber" v="3 с1"/>
    <tag k="addr:region" v="Москва"/>
    <tag k="addr:street" v="Солнечная аллея"/>
    <tag k="building" v="yes"/>
    <tag k="cladr:code" v="77000002000271400"/>
  </way>
  <way id="94744084" version="1" timestamp="2011-01-12T14:42:32Z" uid="115477" user="wowik" changeset="6947825">
    <nd ref="1099995106"/>
    <nd ref="1099995221"/>
    <nd ref="1099995076"/>
    <nd ref="1099995179"/>
    <nd ref="1099995106"/>
    <tag k="addr:city" v="Зеленоград"/>
    <tag k="building" v="yes"/>
    <tag k="cladr:code" v="77000002000453700"/>
    <tag k="is_in" v="Russia"/>
  </way>
  <way id="94744084" version="2" timestamp="2011-09-13T10:37:48Z" uid="29320" user="Komяpa" changeset="9288237">
    <nd ref="1099995106"/>
    <nd ref="1099995221"/>
    <nd ref="1099995076"/>
    <nd ref="1099995179"/>
    <nd ref="1099995106"/>
    <tag k="addr:city" v="Зеленоград"/>
    <tag k="addr:country" v="RU"/>
    <tag k="building" v="yes"/>
    <tag k="cladr:code" v="77000002000453700"/>
  </way>
  <way id="94744084" version="3" timestamp="2012-03-27T11:53:37Z" uid="481934" user="iWowik" changeset="11115472">
    <nd ref="1099995106"/>
    <nd ref="1099995221"/>
    <nd ref="1099995076"/>
    <nd ref="1099995179"/>
    <nd ref="1099995106"/>
    <tag k="addr:city" v="Зеленоград"/>
    <tag k="addr:country" v="RU"/>
    <tag k="addr:region" v="Москва"/>
    <tag k="building" v="yes"/>
    <tag k="cladr:code" v="77000002000453700"/>
  </way>
  <way id="94744087" version="1" timestamp="2011-01-12T14:42:33Z" uid="115477" user="wowik" changeset="6947825">
    <nd ref="1099995071"/>
    <nd ref="1099995172"/>
    <nd ref="1099995050"/>
    <nd ref="1099995135"/>
    <nd ref="1099995071"/>
    <tag k="addr:city" v="Зеленоград"/>
    <tag k="building" v="yes"/>
    <tag k="cladr:code" v="77000002000453700"/>
    <tag k="is_in" v="Russia"/>
  </way>
  <way id="94744087" version="2" timestamp="2011-01-27T19:27:16Z" uid="115477" user="wowik" changeset="7106689">
    <nd ref="1099995071"/>
    <nd ref="1099995172"/>
    <nd ref="1099995050"/>
    <nd ref="1099995135"/>
    <nd ref="1099995071"/>
    <tag k="addr:city" v="Зеленоград"/>
    <tag k="addr:housenumber" v="2 с12"/>
    <tag k="addr:street" v="Проезд N 4806"/>
    <tag k="building" v="yes"/>
    <tag k="is_in" v="Russia"/>
  </way>
  <way id="94744087" version="3" timestamp="2011-09-13T10:24:10Z" uid="29320" user="Komяpa" changeset="9288237">
    <nd ref="1099995071"/>
    <nd ref="1099995172"/>
    <nd ref="1099995050"/>
    <nd ref="1099995135"/>
    <nd ref="1099995071"/>
    <tag k="addr:city" v="Зеленоград"/>
    <tag k="addr:country" v="RU"/>
    <tag k="addr:housenumber" v="2 с12"/>
    <tag k="addr:street" v="Проезд N 4806"/>
    <tag k="building" v="yes"/>
  </way>
  <way id="94744087" version="4" timestamp="2012-03-27T11:38:45Z" uid="481934" user="iWowik" changeset="11115472">
    <nd ref="1099995071"/>
    <nd ref="1099995172"/>
    <nd ref="1099995050"/>
    <nd ref="1099995135"/>
    <nd ref="1099995071"/>
    <tag k="addr:city" v="Зеленоград"/>
    <tag k="addr:country" v="RU"/>
    <tag k="addr:housenumber" v="2 с12"/>
    <tag k="addr:region" v="Москва"/>
    <tag k="addr:street" v="Проезд N 4806"/>
    <tag k="building" v="yes"/>
  </way>
  <way id="94744089" version="1" timestamp="2011-01-12T14:42:33Z" uid="115477" user="wowik" changeset="6947825">
    <nd ref="1099995175"/>
    <nd ref="1099995054"/>
    <nd ref="1099995074"/>
    <nd ref="1099995177"/>
    <nd ref="1099995175"/>
    <tag k="addr:city" v="Зеленоград"/>
    <tag k="building" v="yes"/>
    <tag k="cladr:code" v="77000002000453700"/>
    <tag k="is_in" v="Russia"/>
  </way>
  <way id="94744089" version="2" timestamp="2011-09-13T10:37:48Z" uid="29320" user="Komяpa" changeset="9288237">
    <nd ref="1099995175"/>
    <nd ref="1099995054"/>
    <nd ref="1099995074"/>
    <nd ref="1099995177"/>
    <nd ref="1099995175"/>
    <tag k="addr:city" v="Зеленоград"/>
    <tag k="addr:country" v="RU"/>
    <tag k="building" v="yes"/>
    <tag k="cladr:code" v="77000002000453700"/>
  </way>
  <way id="94744089" version="3" timestamp="2012-03-27T11:52:53Z" uid="481934" user="iWowik" changeset="11115472">
    <nd ref="1099995175"/>
    <nd ref="1099995054"/>
    <nd ref="1099995074"/>
    <nd ref="1099995177"/>
    <nd ref="1099995175"/>
    <tag k="addr:city" v="Зеленоград"/>
    <tag k="addr:country" v="RU"/>
    <tag k="addr:region" v="Москва"/>
    <tag k="building" v="yes"/>
    <tag k="cladr:code" v="77000002000453700"/>
  </way>
</osm>
