<?xml version='1.0' encoding='UTF-8'?>
<osm version="0.6" generator="libosmium/2.20.0">
  <way id="9483172" version="11" timestamp="2010-07-09T02:58:47Z" uid="74617" user="JohnSmith" changeset="5170739">
    <nd ref="72827129"/>
    <nd ref="72830618"/>
    <nd ref="72826904"/>
    <nd ref="72827549"/>
    <nd ref="278618745"/>
    <nd ref="72819372"/>
    <nd ref="72819373"/>
    <nd ref="72819375"/>
    <nd ref="72819376"/>
    <nd ref="72819377"/>
    <nd ref="72819378"/>
    <nd ref="72819379"/>
    <nd ref="72820026"/>
    <tag k="highway" v="residential"/>
    <tag k="maxspeed" v="50"/>
    <tag k="maxspeed:source" v="default residential speed limit in Australia"/>
    <tag k="name" v="Wallace Crescent"/>
    <tag k="source" v="yahoo"/>
    <tag k="source:name" v="survey"/>
  </way>
  <way id="9483172" version="12" timestamp="2012-01-15T08:33:38Z" uid="147510" user="woodpeck_fixbot" changeset="10395278">
    <nd ref="72827129"/>
    <nd ref="72830618"/>
    <nd ref="72826904"/>
    <nd ref="72827549"/>
    <nd ref="278618745"/>
    <nd ref="72819372"/>
    <nd ref="72819373"/>
    <nd ref="72819375"/>
    <nd ref="72819376"/>
    <nd ref="72819377"/>
    <nd ref="72819378"/>
    <nd ref="72819379"/>
    <nd ref="72820026"/>
    <tag k="highway" v="residential"/>
    <tag k="name" v="Wallace Crescent"/>
    <tag k="source" v="yahoo"/>
    <tag k="source:name" v="survey"/>
  </way>
  <way id="9483348" version="9" timestamp="2010-07-09T02:53:01Z" uid="74617" user="JohnSmith" changeset="5170739">
    <nd ref="72826555"/>
    <nd ref="72823726"/>
    <nd ref="72823728"/>
    <nd ref="72823731"/>
    <tag k="highway" v="residential"/>
    <tag k="maxspeed" v="50"/>
    <tag k="maxspeed:source" v="default residential speed limit in Australia"/>
    <tag k="name" v="Bridge Street"/>
    <tag k="source" v="yahoo"/>
    <tag k="source:name" v="survey"/>
  </way>
  <way id="9483348" version="10" timestamp="2012-01-15T08:33:40Z" uid="147510" user="woodpeck_fixbot" changeset="10395278">
    <nd ref="72826555"/>
    <nd ref="72823726"/>
    <nd ref="72823728"/>
    <nd ref="72823731"/>
    <tag k="highway" v="residential"/>
    <tag k="name" v="Bridge Street"/>
    <tag k="source" v="yahoo"/>
    <tag k="source:name" v="survey"/>
  </way>
  <way id="9483384" version="7" timestamp="2010-07-09T02:53:52Z" uid="74617" user="JohnSmith" changeset="5170739">
    <nd ref="72824239"/>
    <nd ref="72825460"/>
    <nd ref="72831821"/>
    <tag k="highway" v="residential"/>
    <tag k="maxspeed" v="50"/>
    <tag k="maxspeed:source" v="default residential speed limit in Australia"/>
    <tag k="name" v="Cochrane Court"/>
    <tag k="source" v="yahoo"/>
    <tag k="source:name" v="survey"/>
  </way>
  <way id="9483384" version="8" timestamp="2012-01-15T08:33:41Z" uid="147510" user="woodpeck_fixbot" changeset="10395278">
    <nd ref="72824239"/>
    <nd ref="72825460"/>
    <nd ref="72831821"/>
    <tag k="highway" v="residential"/>
    <tag k="name" v="Cochrane Court"/>
    <tag k="source" v="yahoo"/>
    <tag k="source:name" v="survey"/>
  </way>
  <way id="9483395" version="7" timestamp="2010-07-09T03:00:39Z" uid="74617" user="JohnSmith" changeset="5170739">
    <nd ref="72825460"/>
    <nd ref="72836657"/>
    <tag k="highway" v="residential"/>
    <tag k="maxspeed" v="50"/>
    <tag k="maxspeed:source" v="default residential speed limit in Australia"/>
    <tag k="name" v="Government Road"/>
    <tag k="source" v="yahoo"/>
    <tag k="source:name" v="survey"/>
  </way>
  <way id="9483395" version="8" timestamp="2012-01-15T08:33:42Z" uid="147510" user="woodpeck_fixbot" changeset="10395278">
    <nd ref="72825460"/>
    <nd ref="72836657"/>
    <tag k="highway" v="residential"/>
    <tag k="name" v="Government Road"/>
    <tag k="source" v="yahoo"/>
    <tag k="source:name" v="survey"/>
  </way>
  <way id="9483975" version="4" timestamp="2010-07-09T02:58:31Z" uid="74617" user="JohnSmith" changeset="5170739">
    <nd ref="72836657"/>
    <nd ref="72836658"/>
    <nd ref="72836659"/>
    <nd ref="72836660"/>
    <nd ref="72836661"/>
    <tag k="highway" v="residential"/>
    <tag k="maxspeed" v="50"/>
    <tag k="maxspeed:source" v="default residential speed limit in Australia"/>
    <tag k="name" v="Lyttle Avenue"/>
    <tag k="source" v="yahoo"/>
    <tag k="source:name" v="survey"/>
  </way>
  <way id="9483975" version="5" timestamp="2012-01-15T08:33:44Z" uid="147510" user="woodpeck_fixbot" changeset="10395278">
    <nd ref="72836657"/>
    <nd ref="72836658"/>
    <nd ref="72836659"/>
    <nd ref="72836660"/>
    <nd ref="72836661"/>
    <tag k="highway" v="residential"/>
    <tag k="name" v="Lyttle Avenue"/>
    <tag k="source" v="yahoo"/>
    <tag k="source:name" v="survey"/>
  </way>
</osm>
