<?xml version='1.0' encoding='UTF-8'?>
<osm version="0.6" generator="libosmium/2.20.0">
  <way id="9487051" version="10" timestamp="2011-02-13T10:30:09Z" uid="4467" user="Rosscoe" changeset="7273588">
    <nd ref="59154511"/>
    <nd ref="72871343"/>
    <nd ref="72871388"/>
    <nd ref="1150689226"/>
    <nd ref="1055567909"/>
    <tag k="highway" v="trunk"/>
    <tag k="oneway" v="yes"/>
  </way>
  <way id="9487051" version="11" timestamp="2011-12-24T00:16:45Z" uid="46482" user="Leon K" changeset="10191172">
    <nd ref="59154511"/>
    <nd ref="72871343"/>
    <nd ref="72871388"/>
    <nd ref="1150689226"/>
    <nd ref="1055567909"/>
    <tag k="highway" v="trunk"/>
    <tag k="name" v="Tasman Highway"/>
    <tag k="oneway" v="yes"/>
  </way>
  <way id="9487055" version="10" timestamp="2009-11-09T07:36:54Z" uid="4467" user="Rosscoe" changeset="3071110">
    <nd ref="72871478"/>
    <nd ref="72871727"/>
    <nd ref="72871750"/>
    <nd ref="72871996"/>
    <nd ref="72872017"/>
    <nd ref="72872033"/>
    <nd ref="79181009"/>
    <nd ref="79181035"/>
    <nd ref="559886485"/>
    <tag k="highway" v="motorway"/>
    <tag k="lanes" v="2"/>
    <tag k="oneway" v="yes"/>
    <tag k="ref" v="A3"/>
  </way>
  <way id="9487055" version="11" timestamp="2010-12-21T23:33:52Z" uid="46482" user="Leon K" changeset="6731221">
    <nd ref="72871478"/>
    <nd ref="72871727"/>
    <nd ref="72871750"/>
    <nd ref="1055567928"/>
    <nd ref="72871996"/>
    <nd ref="1055567910"/>
    <nd ref="72872017"/>
    <nd ref="72872033"/>
    <nd ref="79181009"/>
    <nd ref="1055567932"/>
    <nd ref="79181035"/>
    <nd ref="559886485"/>
    <tag k="highway" v="motorway"/>
    <tag k="lanes" v="2"/>
    <tag k="oneway" v="yes"/>
    <tag k="ref" v="A3"/>
  </way>
  <way id="9487055" version="12" timestamp="2011-02-13T10:29:59Z" uid="4467" user="Rosscoe" changeset="7273588">
    <nd ref="72871478"/>
    <nd ref="1150689128"/>
    <nd ref="72871727"/>
    <nd ref="72871750"/>
    <nd ref="1055567928"/>
    <nd ref="72871996"/>
    <nd ref="1055567910"/>
    <nd ref="72872017"/>
    <nd ref="72872033"/>
    <nd ref="79181009"/>
    <nd ref="1055567932"/>
    <nd ref="79181035"/>
    <nd ref="559886485"/>
    <tag k="highway" v="motorway"/>
    <tag k="lanes" v="2"/>
    <tag k="oneway" v="yes"/>
    <tag k="ref" v="A3"/>
  </way>
  <way id="9487055" version="13" timestamp="2011-12-24T00:16:45Z" uid="46482" user="Leon K" changeset="10191172">
    <nd ref="72871478"/>
    <nd ref="1150689128"/>
    <nd ref="72871727"/>
    <nd ref="72871750"/>
    <nd ref="1055567928"/>
    <nd ref="72871996"/>
    <nd ref="1055567910"/>
    <nd ref="72872017"/>
    <nd ref="72872033"/>
    <nd ref="79181009"/>
    <nd ref="1055567932"/>
    <nd ref="79181035"/>
    <nd ref="559886485"/>
    <tag k="highway" v="motorway"/>
    <tag k="lanes" v="2"/>
    <tag k="name" v="Tasman Highway"/>
    <tag k="oneway" v="yes"/>
    <tag k="ref" v="A3"/>
  </way>
  <way id="9487056" version="10" timestamp="2009-11-09T07:36:54Z" uid="4467" user="Rosscoe" changeset="3071110">
    <nd ref="69849227"/>
    <nd ref="74910866"/>
    <nd ref="74910849"/>
    <nd ref="74910818"/>
    <nd ref="74910795"/>
    <tag k="highway" v="primary"/>
    <tag k="name" v="Rosny Hill Road"/>
    <tag k="oneway" v="yes"/>
  </way>
</osm>
