<?xml version='1.0' encoding='UTF-8'?>
<osm version="0.6" generator="libosmium/2.20.0">
  <way id="95030898" version="2" timestamp="2011-01-24T14:40:04Z" uid="20587" user="balrog-kun" changeset="7073235">
    <nd ref="1102696434"/>
    <nd ref="1102696593"/>
    <nd ref="1102696310"/>
    <nd ref="1102696669"/>
    <nd ref="1102696306"/>
    <nd ref="1102696417"/>
    <nd ref="1102696506"/>
    <nd ref="1102696688"/>
    <nd ref="1102696431"/>
    <nd ref="1102696703"/>
    <nd ref="1102696555"/>
    <nd ref="1102696524"/>
    <nd ref="1102696434"/>
    <tag k="building" v="commercial"/>
    <tag k="building:levels" v="1"/>
    <tag k="name" v="Carrefour"/>
    <tag k="operator" v="Carrefour"/>
    <tag k="shop" v="supermarket"/>
  </way>
  <way id="95030898" version="3" timestamp="2012-03-02T17:31:16Z" uid="52087" user="kocio" changeset="10850555">
    <nd ref="1102696434"/>
    <nd ref="1102696593"/>
    <nd ref="1102696310"/>
    <nd ref="1102696669"/>
    <nd ref="1102696306"/>
    <nd ref="1102696417"/>
    <nd ref="1102696506"/>
    <nd ref="1102696688"/>
    <nd ref="1102696431"/>
    <nd ref="1102696703"/>
    <nd ref="1102696555"/>
    <nd ref="1102696524"/>
    <nd ref="1102696434"/>
    <tag k="building" v="commercial"/>
    <tag k="building:levels" v="1"/>
    <tag k="name" v="Carrefour Market"/>
    <tag k="operator" v="Carrefour"/>
    <tag k="shop" v="supermarket"/>
  </way>
  <way id="95030898" version="4" timestamp="2012-03-02T17:42:37Z" uid="52087" user="kocio" changeset="10850555">
    <nd ref="1102696434"/>
    <nd ref="1102696593"/>
    <nd ref="1102696310"/>
    <nd ref="1102696669"/>
    <nd ref="1102696306"/>
    <nd ref="1102696417"/>
    <nd ref="1102696506"/>
    <nd ref="1102696688"/>
    <nd ref="1102696431"/>
    <nd ref="1102696703"/>
    <nd ref="1102696555"/>
    <nd ref="1102696524"/>
    <nd ref="1102696434"/>
    <tag k="addr:housenumber" v="86/88"/>
    <tag k="addr:street" v="Aleja SolidarnoÅ›ci"/>
    <tag k="building" v="commercial"/>
    <tag k="building:levels" v="1"/>
    <tag k="name" v="Carrefour Market"/>
    <tag k="operator" v="Carrefour"/>
    <tag k="shop" v="supermarket"/>
  </way>
</osm>
