<?xml version='1.0' encoding='UTF-8'?>
<osm version="0.6" generator="libosmium/2.20.0">
  <way id="95241564" version="2" timestamp="2011-02-16T18:56:28Z" uid="115477" user="wowik" changeset="7306528">
    <nd ref="1104765606"/>
    <nd ref="1104765615"/>
    <nd ref="1104765617"/>
    <nd ref="1156577349"/>
    <nd ref="1104765619"/>
    <nd ref="1104765574"/>
    <nd ref="1104765739"/>
    <tag k="highway" v="unclassified"/>
    <tag k="living_street" v="yes"/>
  </way>
  <way id="95241564" version="3" timestamp="2011-02-17T13:39:49Z" uid="206282" user="Amigo" changeset="7313280">
    <nd ref="1104765606"/>
    <nd ref="1104765615"/>
    <nd ref="1104765617"/>
    <nd ref="1156577349"/>
    <nd ref="1104765619"/>
    <nd ref="1104765574"/>
    <nd ref="1104765739"/>
    <tag k="highway" v="service"/>
    <tag k="living_street" v="yes"/>
  </way>
  <way id="95241571" version="2" timestamp="2011-02-16T18:56:16Z" uid="115477" user="wowik" changeset="7306528">
    <nd ref="1104765641"/>
    <nd ref="1104765615"/>
    <nd ref="331128538"/>
    <nd ref="1104765646"/>
    <nd ref="1156577369"/>
    <nd ref="1156578160"/>
    <nd ref="1156578085"/>
    <nd ref="1156577733"/>
    <nd ref="1156577646"/>
    <nd ref="1156577994"/>
    <nd ref="1156578444"/>
    <tag k="highway" v="service"/>
    <tag k="living_street" v="yes"/>
  </way>
  <way id="95241587" version="3" timestamp="2011-02-16T18:56:33Z" uid="115477" user="wowik" changeset="7306528">
    <nd ref="331128540"/>
    <nd ref="1104765722"/>
    <nd ref="1104765723"/>
    <nd ref="1104765724"/>
    <nd ref="1104765725"/>
    <nd ref="1104765727"/>
    <nd ref="1104765708"/>
    <nd ref="1156577865"/>
    <nd ref="1104765684"/>
    <tag k="highway" v="service"/>
    <tag k="living_street" v="yes"/>
  </way>
  <way id="95241593" version="2" timestamp="2011-02-16T18:56:46Z" uid="115477" user="wowik" changeset="7306528"/>
  <way id="95241600" version="2" timestamp="2011-02-16T18:56:36Z" uid="115477" user="wowik" changeset="7306528">
    <nd ref="1104765737"/>
    <nd ref="1104765739"/>
    <tag k="highway" v="service"/>
    <tag k="living_street" v="yes"/>
  </way>
  <way id="95241619" version="2" timestamp="2011-02-16T18:56:37Z" uid="115477" user="wowik" changeset="7306528">
    <nd ref="1104765767"/>
    <nd ref="1104765769"/>
    <nd ref="1104765770"/>
    <nd ref="1104765773"/>
    <nd ref="1104765767"/>
    <tag k="addr:housenumber" v="50 к1 с1"/>
    <tag k="addr:street" v="Куркинское шоссе"/>
    <tag k="building" v="yes"/>
    <tag k="building:levels" v="1"/>
  </way>
  <way id="95241619" version="3" timestamp="2012-03-27T08:09:27Z" uid="481934" user="iWowik" changeset="11113698">
    <nd ref="1104765767"/>
    <nd ref="1104765769"/>
    <nd ref="1104765770"/>
    <nd ref="1104765773"/>
    <nd ref="1104765767"/>
    <tag k="addr:city" v="Москва"/>
    <tag k="addr:country" v="RU"/>
    <tag k="addr:housenumber" v="50 к1 с1"/>
    <tag k="addr:street" v="Куркинское шоссе"/>
    <tag k="building" v="yes"/>
    <tag k="building:levels" v="1"/>
  </way>
  <way id="95241941" version="2" timestamp="2011-02-16T18:56:42Z" uid="115477" user="wowik" changeset="7306528">
    <nd ref="1104769754"/>
    <nd ref="1104769756"/>
    <nd ref="1104769759"/>
    <nd ref="1104769761"/>
    <nd ref="1104769762"/>
    <nd ref="1104769764"/>
    <nd ref="1156577914"/>
    <nd ref="1156578226"/>
    <nd ref="1104769766"/>
    <nd ref="1104769754"/>
    <tag k="addr:housenumber" v="13/2"/>
    <tag k="addr:street" v="Воротынская улица"/>
    <tag k="building" v="yes"/>
    <tag k="cladr:code" v="77000000000450800"/>
  </way>
  <way id="95241941" version="3" timestamp="2012-03-27T08:05:40Z" uid="481934" user="iWowik" changeset="11113698">
    <nd ref="1104769754"/>
    <nd ref="1104769756"/>
    <nd ref="1104769759"/>
    <nd ref="1104769761"/>
    <nd ref="1104769762"/>
    <nd ref="1104769764"/>
    <nd ref="1156577914"/>
    <nd ref="1156578226"/>
    <nd ref="1104769766"/>
    <nd ref="1104769754"/>
    <tag k="addr:city" v="Москва"/>
    <tag k="addr:country" v="RU"/>
    <tag k="addr:housenumber" v="13/2"/>
    <tag k="addr:street" v="Воротынская улица"/>
    <tag k="building" v="yes"/>
    <tag k="cladr:code" v="77000000000450800"/>
  </way>
</osm>
