<?xml version='1.0' encoding='UTF-8'?>
<osm version="0.6" generator="libosmium/2.20.0">
  <way id="9527944" version="15" timestamp="2010-05-01T11:28:49Z" uid="151899" user="Bikeman2000" changeset="4573823">
    <nd ref="484614873"/>
    <nd ref="715210748"/>
    <nd ref="73534702"/>
    <nd ref="715210749"/>
    <nd ref="28389607"/>
    <tag k="cycleway" v="opposite_track"/>
    <tag k="highway" v="secondary"/>
    <tag k="name" v="Kaiserswerther Straße"/>
    <tag k="oneway" v="yes"/>
    <tag k="ref" v="L 55"/>
  </way>
  <way id="9527944" version="16" timestamp="2011-01-10T19:55:46Z" uid="18130" user="black_bike" changeset="6930224">
    <nd ref="484614873"/>
    <nd ref="715210748"/>
    <nd ref="73534702"/>
    <nd ref="715210749"/>
    <nd ref="28389607"/>
    <tag k="cycleway" v="opposite_track"/>
    <tag k="highway" v="secondary"/>
    <tag k="lit" v="yes"/>
    <tag k="lit_by_gaslight" v="no"/>
    <tag k="name" v="Kaiserswerther Straße"/>
    <tag k="oneway" v="yes"/>
    <tag k="ref" v="L 55"/>
    <tag k="surface" v="asphalt"/>
  </way>
  <way id="9527944" version="17" timestamp="2011-11-19T09:56:05Z" uid="18130" user="black_bike" changeset="9871599">
    <nd ref="484614873"/>
    <nd ref="1508434148"/>
    <nd ref="715210748"/>
    <nd ref="73534702"/>
    <nd ref="715210749"/>
    <nd ref="28389607"/>
    <tag k="cycleway" v="opposite_track"/>
    <tag k="highway" v="secondary"/>
    <tag k="lit" v="yes"/>
    <tag k="lit_by_gaslight" v="no"/>
    <tag k="name" v="Kaiserswerther Straße"/>
    <tag k="oneway" v="yes"/>
    <tag k="ref" v="L 55"/>
    <tag k="surface" v="asphalt"/>
  </way>
  <way id="9527944" version="18" timestamp="2012-01-08T22:06:46Z" uid="173844" user="Antikalk" changeset="10337391"/>
</osm>
