<?xml version='1.0' encoding='UTF-8'?>
<osm version="0.6" generator="libosmium/2.20.0">
  <way id="95305163" version="2" timestamp="2011-01-29T23:55:21Z" uid="4467" user="Rosscoe" changeset="7128942">
    <nd ref="1105501893"/>
    <nd ref="1105499128"/>
    <nd ref="1105499129"/>
    <tag k="highway" v="residential"/>
    <tag k="maxspeed" v="50"/>
    <tag k="maxspeed:source" v="default residential speed limit in Australia"/>
    <tag k="name" v="Xavier Way"/>
    <tag k="oneway" v="yes"/>
  </way>
  <way id="95305164" version="2" timestamp="2011-01-29T23:55:25Z" uid="4467" user="Rosscoe" changeset="7128942">
    <nd ref="1105499129"/>
    <nd ref="1105499132"/>
    <nd ref="1105499133"/>
    <nd ref="1105501898"/>
    <tag k="highway" v="residential"/>
    <tag k="maxspeed" v="50"/>
    <tag k="maxspeed:source" v="default residential speed limit in Australia"/>
    <tag k="name" v="Xavier Way"/>
    <tag k="oneway" v="yes"/>
  </way>
  <way id="95305173" version="2" timestamp="2011-01-30T00:07:10Z" uid="4467" user="Rosscoe" changeset="7129033">
    <nd ref="1105499129"/>
    <nd ref="1105499137"/>
    <nd ref="1105499139"/>
    <nd ref="1105499140"/>
    <nd ref="1105499143"/>
    <nd ref="1105499144"/>
    <nd ref="1105499146"/>
    <nd ref="1105499151"/>
    <tag k="highway" v="residential"/>
    <tag k="maxspeed" v="50"/>
    <tag k="maxspeed:source" v="default residential speed limit in Australia"/>
    <tag k="name" v="Xavier Way"/>
  </way>
  <way id="95305343" version="2" timestamp="2011-01-29T23:55:29Z" uid="4467" user="Rosscoe" changeset="7128942">
    <nd ref="1105501909"/>
    <nd ref="1105500170"/>
    <nd ref="1105500172"/>
    <nd ref="1105500173"/>
    <tag k="highway" v="residential"/>
    <tag k="maxspeed" v="50"/>
    <tag k="maxspeed:source" v="default residential speed limit in Australia"/>
    <tag k="name" v="Gabriel Terrace"/>
    <tag k="oneway" v="yes"/>
  </way>
  <way id="95305348" version="2" timestamp="2011-01-29T23:55:23Z" uid="4467" user="Rosscoe" changeset="7128942">
    <nd ref="1105500173"/>
    <nd ref="1105500189"/>
    <nd ref="1105500191"/>
    <nd ref="1105501924"/>
    <tag k="highway" v="residential"/>
    <tag k="maxspeed" v="50"/>
    <tag k="maxspeed:source" v="default residential speed limit in Australia"/>
    <tag k="name" v="Gabriel Terrace"/>
    <tag k="oneway" v="yes"/>
  </way>
  <way id="95305348" version="3" timestamp="2011-04-25T13:24:56Z" uid="400269" user="John Berkers" changeset="7963459">
    <nd ref="1105500173"/>
    <nd ref="1105500189"/>
    <nd ref="1259514912"/>
    <nd ref="1105500191"/>
    <nd ref="1105501924"/>
    <tag k="highway" v="residential"/>
    <tag k="maxspeed" v="50"/>
    <tag k="maxspeed:source" v="default residential speed limit in Australia"/>
    <tag k="name" v="Gabriel Terrace"/>
    <tag k="oneway" v="yes"/>
  </way>
  <way id="95305352" version="2" timestamp="2011-01-29T23:55:19Z" uid="4467" user="Rosscoe" changeset="7128942">
    <nd ref="1105500209"/>
    <nd ref="1105500218"/>
    <nd ref="1127152250"/>
    <tag k="highway" v="residential"/>
    <tag k="maxspeed" v="50"/>
    <tag k="maxspeed:source" v="default residential speed limit in Australia"/>
    <tag k="name" v="Lazar Grove"/>
    <tag k="oneway" v="yes"/>
  </way>
</osm>
