<?xml version='1.0' encoding='UTF-8'?>
<osm version="0.6" generator="libosmium/2.20.0">
  <way id="9550401" version="15" timestamp="2010-06-08T15:33:39Z" uid="33382" user="de_muur" changeset="4938078">
    <nd ref="51851324"/>
    <nd ref="408735158"/>
    <nd ref="84553887"/>
    <nd ref="249315567"/>
    <nd ref="765175237"/>
    <nd ref="32855711"/>
    <nd ref="387477062"/>
    <nd ref="32855712"/>
    <nd ref="267206235"/>
    <nd ref="270267473"/>
    <nd ref="249315625"/>
    <nd ref="270267472"/>
    <nd ref="270267242"/>
    <nd ref="68953290"/>
    <tag k="highway" v="primary"/>
    <tag k="maxspeed" v="50"/>
    <tag k="name" v="Verdener Landstraße"/>
    <tag k="ref" v="B 215"/>
    <tag k="surface" v="paved"/>
  </way>
  <way id="9550401" version="16" timestamp="2011-04-15T12:50:38Z" uid="131968" user="changchun_1" changeset="7869421">
    <nd ref="51851324"/>
    <nd ref="408735158"/>
    <nd ref="84553887"/>
    <nd ref="249315567"/>
    <nd ref="765175233"/>
    <nd ref="765175237"/>
    <nd ref="32855711"/>
    <nd ref="387477062"/>
    <nd ref="32855712"/>
    <nd ref="267206235"/>
    <nd ref="270267473"/>
    <nd ref="249315625"/>
    <nd ref="270267472"/>
    <nd ref="270267242"/>
    <nd ref="68953290"/>
    <tag k="highway" v="primary"/>
    <tag k="maxspeed" v="50"/>
    <tag k="name" v="Verdener Landstraße"/>
    <tag k="ref" v="B 215"/>
    <tag k="surface" v="paved"/>
  </way>
  <way id="9550401" version="17" timestamp="2011-04-18T20:06:33Z" uid="114430" user="Chenshi" changeset="7900944">
    <nd ref="51851324"/>
    <nd ref="408735158"/>
    <nd ref="84553887"/>
    <nd ref="249315567"/>
    <nd ref="765175233"/>
    <nd ref="765175237"/>
    <nd ref="387477062"/>
    <nd ref="32855712"/>
    <nd ref="267206235"/>
    <nd ref="270267473"/>
    <nd ref="249315625"/>
    <nd ref="270267472"/>
    <nd ref="270267242"/>
    <nd ref="68953290"/>
    <tag k="highway" v="primary"/>
    <tag k="maxspeed" v="50"/>
    <tag k="name" v="Verdener Landstraße"/>
    <tag k="ref" v="B 215"/>
    <tag k="surface" v="paved"/>
  </way>
  <way id="9550401" version="18" timestamp="2011-10-28T16:47:22Z" uid="528360" user="Konfusius" changeset="9678239">
    <nd ref="51851324"/>
    <nd ref="408735158"/>
    <nd ref="84553887"/>
    <nd ref="1483763091"/>
    <nd ref="249315567"/>
    <nd ref="765175233"/>
    <nd ref="765175237"/>
    <nd ref="1483763073"/>
    <nd ref="387477062"/>
    <nd ref="1483763072"/>
    <nd ref="32855712"/>
    <nd ref="267206235"/>
    <nd ref="270267473"/>
    <nd ref="249315625"/>
    <nd ref="270267472"/>
    <nd ref="270267242"/>
    <nd ref="68953290"/>
    <tag k="highway" v="primary"/>
    <tag k="maxspeed" v="50"/>
    <tag k="name" v="Verdener Landstraße"/>
    <tag k="ref" v="B 215"/>
    <tag k="surface" v="paved"/>
  </way>
  <way id="9550401" version="19" timestamp="2011-11-07T13:34:54Z" uid="528360" user="Konfusius" changeset="9764840">
    <nd ref="51851324"/>
    <nd ref="408735158"/>
    <nd ref="84553887"/>
    <nd ref="1483763091"/>
    <nd ref="249315567"/>
    <nd ref="765175233"/>
    <nd ref="765175237"/>
    <nd ref="1483763073"/>
    <nd ref="387477062"/>
    <nd ref="1483763072"/>
    <nd ref="1494182164"/>
    <nd ref="32855712"/>
    <nd ref="267206235"/>
    <nd ref="270267473"/>
    <nd ref="249315625"/>
    <nd ref="270267472"/>
    <nd ref="270267242"/>
    <nd ref="68953290"/>
    <tag k="highway" v="primary"/>
    <tag k="maxspeed" v="50"/>
    <tag k="name" v="Verdener Landstraße"/>
    <tag k="ref" v="B 215"/>
    <tag k="surface" v="paved"/>
  </way>
  <way id="9550539" version="2" timestamp="2008-09-17T08:07:35Z" uid="65847" user="LKK" changeset="651656">
    <nd ref="73871206"/>
    <nd ref="73871214"/>
    <nd ref="297647721"/>
    <nd ref="73871200"/>
    <tag k="created_by" v="JOSM"/>
    <tag k="highway" v="footway"/>
  </way>
  <way id="9550539" version="3" timestamp="2010-01-07T20:50:16Z" uid="216582" user="janschuster" changeset="3565478">
    <nd ref="608607001"/>
    <nd ref="73871206"/>
    <nd ref="73871214"/>
    <nd ref="297647721"/>
    <nd ref="73871200"/>
    <tag k="highway" v="footway"/>
  </way>
  <way id="9550539" version="4" timestamp="2010-05-05T10:15:33Z" uid="281370" user="Chr1966" changeset="4611357">
    <nd ref="722087697"/>
    <nd ref="722087697"/>
    <nd ref="722087697"/>
    <nd ref="722087697"/>
    <nd ref="73871206"/>
    <nd ref="73871214"/>
    <nd ref="297647721"/>
    <nd ref="73871200"/>
    <tag k="highway" v="footway"/>
  </way>
  <way id="9550539" version="5" timestamp="2010-05-06T12:50:22Z" uid="70696" user="xybot" changeset="4620875">
    <nd ref="722087697"/>
    <nd ref="73871206"/>
    <nd ref="73871214"/>
    <nd ref="297647721"/>
    <nd ref="73871200"/>
    <tag k="highway" v="footway"/>
  </way>
  <way id="9550539" version="6" timestamp="2010-12-11T08:56:43Z" uid="110639" user="aighes" changeset="6620101">
    <nd ref="722087697"/>
    <nd ref="1032879886"/>
    <nd ref="73871206"/>
    <nd ref="73871214"/>
    <nd ref="297647721"/>
    <nd ref="73871200"/>
    <tag k="highway" v="footway"/>
  </way>
  <way id="9550542" version="2" timestamp="2008-09-17T08:07:32Z" uid="65847" user="LKK" changeset="651656">
    <nd ref="73871229"/>
    <nd ref="73871144"/>
    <nd ref="73871149"/>
    <nd ref="297647720"/>
    <nd ref="73871200"/>
    <tag k="created_by" v="JOSM"/>
  </way>
  <way id="9550542" version="3" timestamp="2009-12-02T20:25:33Z" uid="39636" user="telegnom" changeset="3275235">
    <nd ref="73871229"/>
    <nd ref="73871144"/>
    <nd ref="73871149"/>
    <nd ref="297647720"/>
    <nd ref="73871200"/>
    <tag k="access" v="private"/>
    <tag k="highway" v="track"/>
  </way>
  <way id="9550542" version="4" timestamp="2010-05-05T10:15:33Z" uid="281370" user="Chr1966" changeset="4611357">
    <nd ref="66761877"/>
    <nd ref="722087727"/>
    <nd ref="722087730"/>
    <nd ref="73871144"/>
    <nd ref="73871206"/>
    <tag k="access" v="private"/>
    <tag k="highway" v="track"/>
  </way>
  <way id="9550542" version="5" timestamp="2010-12-11T08:56:47Z" uid="110639" user="aighes" changeset="6620101">
    <nd ref="66761877"/>
    <nd ref="722087727"/>
    <nd ref="722087730"/>
    <nd ref="73871144"/>
    <nd ref="73871206"/>
    <tag k="access" v="private"/>
    <tag k="highway" v="track"/>
  </way>
  <way id="9550546" version="5" timestamp="2008-09-17T08:07:34Z" uid="65847" user="LKK" changeset="651656">
    <nd ref="73871200"/>
    <nd ref="66767164"/>
    <tag k="created_by" v="Potlatch 0.7b"/>
    <tag k="highway" v="residential"/>
    <tag k="name" v="Im Sand"/>
  </way>
  <way id="9550670" version="1" timestamp="2007-10-15T20:17:47Z" uid="1066" user="pavel" changeset="190957">
    <nd ref="12350296"/>
    <nd ref="73873691"/>
    <nd ref="73386296"/>
    <nd ref="73443226"/>
    <nd ref="73469219"/>
    <nd ref="73313833"/>
    <nd ref="73375562"/>
    <nd ref="73410160"/>
    <tag k="created_by" v="shpupload"/>
    <tag k="highway" v="secondary"/>
    <tag k="name" v="_244"/>
    <tag k="ref" v="244"/>
    <tag k="source" v="HELP SERVICE - REMOTE SENSING spol. s r.o. http://www.bnhelp.cz"/>
  </way>
  <way id="9550670" version="2" timestamp="2007-11-16T14:56:34Z" uid="13887" user="MP2" changeset="534906">
    <nd ref="12350296"/>
    <nd ref="73873691"/>
    <nd ref="73386296"/>
    <nd ref="73443226"/>
    <nd ref="73469219"/>
    <nd ref="73313833"/>
    <nd ref="73375562"/>
    <nd ref="73410160"/>
    <tag k="created_by" v="shpupload"/>
    <tag k="highway" v="secondary"/>
    <tag k="ref" v="244"/>
    <tag k="source" v="HELP SERVICE - REMOTE SENSING spol. s r.o. http://www.bnhelp.cz"/>
  </way>
  <way id="9550670" version="3" timestamp="2007-11-17T11:37:30Z" uid="5748" user="fatbozz" changeset="543694">
    <nd ref="73873691"/>
    <nd ref="73386296"/>
    <nd ref="73443226"/>
    <nd ref="73469219"/>
    <nd ref="73313833"/>
    <nd ref="73375562"/>
    <nd ref="73410160"/>
    <tag k="created_by" v="shpupload"/>
    <tag k="highway" v="secondary"/>
    <tag k="ref" v="244"/>
    <tag k="source" v="HELP SERVICE - REMOTE SENSING spol. s r.o. http://www.bnhelp.cz"/>
  </way>
  <way id="9550670" version="4" timestamp="2009-04-29T08:59:06Z" uid="5748" user="fatbozz" changeset="1013122">
    <nd ref="73873691"/>
    <nd ref="73386296"/>
    <nd ref="73443226"/>
    <nd ref="73469219"/>
    <nd ref="73313833"/>
    <nd ref="73375562"/>
    <nd ref="73410160"/>
    <tag k="highway" v="secondary"/>
    <tag k="ref" v="244"/>
    <tag k="source" v="HELP SERVICE - REMOTE SENSING spol. s r.o. http://www.bnhelp.cz"/>
  </way>
  <way id="9550670" version="5" timestamp="2010-11-13T08:32:13Z" uid="8007" user="vrabcak" changeset="6356423">
    <nd ref="73873691"/>
    <nd ref="73386296"/>
    <nd ref="987424435"/>
    <nd ref="73443226"/>
    <nd ref="73469219"/>
    <nd ref="73313833"/>
    <nd ref="73375562"/>
    <nd ref="73410160"/>
    <tag k="highway" v="secondary"/>
    <tag k="ref" v="244"/>
    <tag k="source" v="HELP SERVICE - REMOTE SENSING spol. s r.o. http://www.bnhelp.cz"/>
  </way>
  <way id="9550670" version="6" timestamp="2010-11-23T02:41:01Z" uid="365360" user="David Hrivna" changeset="6436603">
    <nd ref="73873691"/>
    <nd ref="73386296"/>
    <tag k="highway" v="secondary"/>
    <tag k="name" v="T. G. Masaryka"/>
    <tag k="ref" v="244"/>
    <tag k="source" v="HELP SERVICE - REMOTE SENSING spol. s r.o. http://www.bnhelp.cz"/>
  </way>
  <way id="9550672" version="1" timestamp="2007-10-15T20:17:48Z" uid="1066" user="pavel" changeset="190957">
    <nd ref="12350303"/>
    <nd ref="73873658"/>
    <nd ref="73873670"/>
    <tag k="created_by" v="JOSM"/>
    <tag k="highway" v="residential"/>
  </way>
  <way id="9550672" version="2" timestamp="2007-11-17T11:37:30Z" uid="5748" user="fatbozz" changeset="543694">
    <nd ref="119228527"/>
    <nd ref="73873658"/>
    <nd ref="73873670"/>
    <tag k="created_by" v="JOSM"/>
    <tag k="highway" v="residential"/>
  </way>
  <way id="9550672" version="3" timestamp="2009-04-29T08:58:58Z" uid="5748" user="fatbozz" changeset="1013122">
    <nd ref="119228527"/>
    <nd ref="73873658"/>
    <nd ref="73873670"/>
    <tag k="highway" v="residential"/>
  </way>
  <way id="9550672" version="4" timestamp="2010-11-23T02:41:03Z" uid="365360" user="David Hrivna" changeset="6436603">
    <nd ref="119228527"/>
    <nd ref="73873658"/>
    <nd ref="73873670"/>
    <tag k="highway" v="residential"/>
    <tag k="name" v="Tyršova"/>
  </way>
  <way id="9550675" version="1" timestamp="2007-10-15T20:17:49Z" uid="1066" user="pavel" changeset="190957">
    <nd ref="73873691"/>
    <nd ref="73873724"/>
    <nd ref="73873751"/>
    <tag k="created_by" v="JOSM"/>
    <tag k="highway" v="residential"/>
  </way>
  <way id="9550675" version="2" timestamp="2008-01-02T10:46:41Z" uid="5748" user="fatbozz" changeset="513747">
    <nd ref="73873691"/>
    <nd ref="73873724"/>
    <nd ref="73873751"/>
    <nd ref="202933242"/>
    <nd ref="202933248"/>
    <tag k="created_by" v="JOSM"/>
    <tag k="highway" v="residential"/>
  </way>
  <way id="9550675" version="3" timestamp="2009-04-29T08:58:58Z" uid="5748" user="fatbozz" changeset="1013122">
    <nd ref="73873691"/>
    <nd ref="73873724"/>
    <nd ref="73873751"/>
    <nd ref="202933242"/>
    <nd ref="202933248"/>
    <tag k="highway" v="residential"/>
  </way>
  <way id="9550675" version="4" timestamp="2009-07-27T21:00:08Z" uid="17615" user="Petr Dlouhý" changeset="1959850">
    <nd ref="73873691"/>
    <nd ref="73873724"/>
    <nd ref="73873751"/>
    <tag k="highway" v="residential"/>
  </way>
  <way id="9550675" version="5" timestamp="2010-11-21T23:28:45Z" uid="365360" user="David Hrivna" changeset="6428145">
    <nd ref="73873691"/>
    <nd ref="73873724"/>
    <nd ref="73873751"/>
    <tag k="highway" v="residential"/>
    <tag k="name" v="Husova"/>
  </way>
  <way id="9550678" version="1" timestamp="2007-10-15T20:17:49Z" uid="1066" user="pavel" changeset="190957">
    <nd ref="73386296"/>
    <nd ref="73873772"/>
    <tag k="created_by" v="JOSM"/>
    <tag k="highway" v="residential"/>
  </way>
  <way id="9550678" version="2" timestamp="2008-01-02T10:46:41Z" uid="5748" user="fatbozz" changeset="513747">
    <nd ref="73386296"/>
    <nd ref="73873772"/>
    <nd ref="202933248"/>
    <nd ref="73873724"/>
    <tag k="created_by" v="JOSM"/>
    <tag k="highway" v="residential"/>
  </way>
  <way id="9550678" version="3" timestamp="2009-04-29T08:58:58Z" uid="5748" user="fatbozz" changeset="1013122">
    <nd ref="73386296"/>
    <nd ref="73873772"/>
    <nd ref="202933248"/>
    <nd ref="73873724"/>
    <tag k="highway" v="residential"/>
  </way>
  <way id="9550678" version="4" timestamp="2009-07-27T21:00:08Z" uid="17615" user="Petr Dlouhý" changeset="1959850">
    <nd ref="73386296"/>
    <nd ref="73873772"/>
    <nd ref="202933248"/>
    <nd ref="73873724"/>
    <nd ref="449333278"/>
    <nd ref="449333282"/>
    <nd ref="73873658"/>
    <tag k="highway" v="residential"/>
  </way>
  <way id="9550678" version="5" timestamp="2010-11-23T02:40:54Z" uid="365360" user="David Hrivna" changeset="6436603">
    <nd ref="73386296"/>
    <nd ref="73873772"/>
    <tag k="highway" v="residential"/>
    <tag k="name" v="Nádražní"/>
  </way>
  <way id="9550706" version="1" timestamp="2007-10-15T20:18:08Z" uid="8931" user="bluepup" changeset="185395">
    <nd ref="25590119"/>
    <nd ref="25590120"/>
    <tag k="bridge" v="true"/>
    <tag k="created_by" v="JOSM"/>
    <tag k="highway" v="primary"/>
    <tag k="layer" v="1"/>
    <tag k="name" v="Bahnhofstraße"/>
  </way>
  <way id="9550706" version="2" timestamp="2008-09-13T20:47:55Z" uid="44787" user="marsgps" changeset="622527">
    <nd ref="25590119"/>
    <nd ref="25590120"/>
    <tag k="bridge" v="yes"/>
    <tag k="created_by" v="JOSM"/>
    <tag k="highway" v="primary"/>
    <tag k="layer" v="1"/>
    <tag k="name" v="Bahnhofstraße"/>
  </way>
  <way id="9550706" version="3" timestamp="2008-11-29T19:29:01Z" uid="21756" user="Torfnase" changeset="808584">
    <nd ref="25590119"/>
    <nd ref="25590120"/>
    <tag k="bridge" v="yes"/>
    <tag k="created_by" v="JOSM"/>
    <tag k="highway" v="primary"/>
    <tag k="layer" v="1"/>
    <tag k="maxspeed" v="50"/>
    <tag k="name" v="Bahnhofstraße"/>
  </way>
  <way id="9550706" version="4" timestamp="2012-02-17T09:55:28Z" uid="131670" user="Ana Luisa" changeset="10709419"/>
  <way id="9550707" version="1" timestamp="2007-10-15T20:18:08Z" uid="8931" user="bluepup" changeset="185395">
    <nd ref="25590120"/>
    <nd ref="25590122"/>
    <nd ref="25590123"/>
    <nd ref="25590076"/>
    <tag k="created_by" v="JOSM"/>
    <tag k="highway" v="primary"/>
    <tag k="name" v="Bahnhofstraße"/>
  </way>
  <way id="9550707" version="2" timestamp="2008-11-29T19:29:01Z" uid="21756" user="Torfnase" changeset="808584">
    <nd ref="25590120"/>
    <nd ref="25590122"/>
    <nd ref="25590123"/>
    <nd ref="25590076"/>
    <tag k="created_by" v="JOSM"/>
    <tag k="highway" v="primary"/>
    <tag k="maxspeed" v="50"/>
    <tag k="name" v="Bahnhofstraße"/>
  </way>
  <way id="9550707" version="3" timestamp="2012-01-12T14:46:49Z" uid="429794" user="SennaHB" changeset="10370013">
    <nd ref="25590120"/>
    <nd ref="1587096249"/>
    <nd ref="25590122"/>
    <nd ref="25590123"/>
    <nd ref="25590076"/>
    <tag k="highway" v="primary"/>
    <tag k="maxspeed" v="50"/>
    <tag k="name" v="Bahnhofstraße"/>
  </way>
  <way id="9550707" version="4" timestamp="2012-02-17T09:55:28Z" uid="131670" user="Ana Luisa" changeset="10709419"/>
  <way id="9550709" version="1" timestamp="2007-10-15T20:18:09Z" uid="8931" user="bluepup" changeset="185395">
    <nd ref="24984327"/>
    <nd ref="73874433"/>
    <tag k="bridge" v="true"/>
    <tag k="created_by" v="JOSM"/>
    <tag k="highway" v="primary"/>
    <tag k="layer" v="1"/>
    <tag k="name" v="Heinz-Nixdorf-Ring"/>
    <tag k="note" v="FIXME incomplete"/>
  </way>
  <way id="9550709" version="2" timestamp="2008-02-08T20:07:16Z" uid="21756" user="Torfnase" changeset="76244">
    <nd ref="24984327"/>
    <nd ref="73874433"/>
    <tag k="bridge" v="true"/>
    <tag k="created_by" v="JOSM"/>
    <tag k="highway" v="primary"/>
    <tag k="layer" v="1"/>
    <tag k="name" v="Heinz-Nixdorf-Ring"/>
    <tag k="ref" v="L813"/>
  </way>
  <way id="9550709" version="3" timestamp="2008-08-28T15:16:45Z" uid="55868" user="fralfral" changeset="436736">
    <nd ref="24984327"/>
    <nd ref="73874433"/>
    <tag k="bridge" v="true"/>
    <tag k="created_by" v="Potlatch 0.10b"/>
    <tag k="highway" v="primary"/>
    <tag k="layer" v="1"/>
    <tag k="name" v="Heinz-Nixdorf-Ring"/>
    <tag k="ref" v="L 813"/>
  </way>
  <way id="9550709" version="4" timestamp="2008-09-13T20:47:57Z" uid="44787" user="marsgps" changeset="622527">
    <nd ref="24984327"/>
    <nd ref="73874433"/>
    <tag k="bridge" v="yes"/>
    <tag k="created_by" v="Potlatch 0.10b"/>
    <tag k="highway" v="primary"/>
    <tag k="layer" v="1"/>
    <tag k="name" v="Heinz-Nixdorf-Ring"/>
    <tag k="ref" v="L 813"/>
  </way>
  <way id="9550709" version="5" timestamp="2008-11-29T19:40:56Z" uid="21756" user="Torfnase" changeset="808584">
    <nd ref="24984327"/>
    <nd ref="73874433"/>
    <tag k="bridge" v="yes"/>
    <tag k="created_by" v="Potlatch 0.10b"/>
    <tag k="highway" v="primary"/>
    <tag k="layer" v="1"/>
    <tag k="maxspeed" v="70"/>
    <tag k="name" v="Heinz-Nixdorf-Ring"/>
    <tag k="ref" v="L 813"/>
  </way>
  <way id="9550709" version="6" timestamp="2012-02-17T09:55:29Z" uid="131670" user="Ana Luisa" changeset="10709419"/>
  <way id="9550710" version="1" timestamp="2007-10-15T20:18:09Z" uid="8931" user="bluepup" changeset="185395">
    <nd ref="73874433"/>
    <nd ref="52788266"/>
    <nd ref="29332461"/>
    <nd ref="24984333"/>
    <nd ref="52788268"/>
    <nd ref="25239123"/>
    <nd ref="24984340"/>
    <nd ref="24984341"/>
    <nd ref="24984342"/>
    <nd ref="24984343"/>
    <nd ref="24984344"/>
    <nd ref="24984345"/>
    <nd ref="24984346"/>
    <nd ref="24984347"/>
    <nd ref="24984348"/>
    <nd ref="24984349"/>
    <nd ref="24984350"/>
    <nd ref="24984351"/>
    <nd ref="24984352"/>
    <nd ref="24984353"/>
    <nd ref="24984354"/>
    <nd ref="24984355"/>
    <nd ref="25494896"/>
    <tag k="created_by" v="JOSM"/>
    <tag k="highway" v="primary"/>
    <tag k="name" v="Heinz-Nixdorf-Ring"/>
    <tag k="note" v="FIXME incomplete"/>
  </way>
  <way id="9550710" version="2" timestamp="2007-10-28T14:43:06Z" uid="9176" user="Maarten Deen" changeset="338589">
    <nd ref="73874433"/>
    <nd ref="52788266"/>
    <nd ref="29332461"/>
    <nd ref="24984333"/>
    <nd ref="52788268"/>
    <nd ref="25239123"/>
    <nd ref="24984340"/>
    <nd ref="24984341"/>
    <nd ref="24984342"/>
    <nd ref="24984343"/>
    <nd ref="24984344"/>
    <nd ref="24984345"/>
    <nd ref="24984346"/>
    <nd ref="24984347"/>
    <nd ref="24984348"/>
    <nd ref="24984349"/>
    <nd ref="24984350"/>
    <nd ref="24984351"/>
    <nd ref="24984352"/>
    <nd ref="24984353"/>
    <nd ref="24984354"/>
    <nd ref="24984355"/>
    <nd ref="25494896"/>
    <tag k="created_by" v="JOSM"/>
    <tag k="highway" v="primary"/>
    <tag k="name" v="Heinz-Nixdorf-Ring"/>
  </way>
  <way id="9550710" version="3" timestamp="2008-01-09T20:02:40Z" uid="21756" user="Torfnase" changeset="587122">
    <nd ref="73874433"/>
    <nd ref="52788266"/>
    <nd ref="29332461"/>
    <nd ref="24984333"/>
    <nd ref="52788268"/>
    <nd ref="25239123"/>
    <nd ref="24984340"/>
    <nd ref="24984341"/>
    <nd ref="24984342"/>
    <nd ref="24984343"/>
    <nd ref="24984344"/>
    <nd ref="24984345"/>
    <nd ref="24984346"/>
    <nd ref="24984347"/>
    <nd ref="24984348"/>
    <nd ref="24984349"/>
    <nd ref="24984350"/>
    <nd ref="24984351"/>
    <tag k="created_by" v="JOSM"/>
    <tag k="highway" v="primary"/>
    <tag k="name" v="Heinz-Nixdorf-Ring"/>
  </way>
  <way id="9550710" version="4" timestamp="2008-01-12T05:23:07Z" uid="21756" user="Torfnase" changeset="609724">
    <nd ref="73874433"/>
    <nd ref="52788266"/>
    <nd ref="29332461"/>
    <nd ref="24984333"/>
    <nd ref="52788268"/>
    <nd ref="25239123"/>
    <nd ref="24984340"/>
    <nd ref="24984341"/>
    <nd ref="24984342"/>
    <nd ref="24984343"/>
    <nd ref="24984344"/>
    <nd ref="24984345"/>
    <tag k="created_by" v="JOSM"/>
    <tag k="highway" v="primary"/>
    <tag k="name" v="Heinz-Nixdorf-Ring"/>
  </way>
  <way id="9550710" version="5" timestamp="2008-02-07T19:17:49Z" uid="21756" user="Torfnase" changeset="65684">
    <nd ref="73874433"/>
    <nd ref="52788266"/>
    <nd ref="29332461"/>
    <nd ref="24984333"/>
    <nd ref="52788268"/>
    <nd ref="246529969"/>
    <nd ref="246529944"/>
    <nd ref="246529947"/>
    <nd ref="25239123"/>
    <nd ref="24984340"/>
    <nd ref="24984341"/>
    <nd ref="24984342"/>
    <nd ref="24984343"/>
    <nd ref="24984344"/>
    <nd ref="24984345"/>
    <tag k="created_by" v="JOSM"/>
    <tag k="highway" v="primary"/>
    <tag k="name" v="Heinz-Nixdorf-Ring"/>
  </way>
  <way id="9550710" version="6" timestamp="2008-02-07T19:23:38Z" uid="21756" user="Torfnase" changeset="65684">
    <nd ref="73874433"/>
    <nd ref="52788266"/>
    <nd ref="246530863"/>
    <nd ref="29332461"/>
    <nd ref="24984333"/>
    <nd ref="52788268"/>
    <nd ref="246529969"/>
    <nd ref="246529944"/>
    <nd ref="246529947"/>
    <nd ref="25239123"/>
    <nd ref="24984340"/>
    <nd ref="24984341"/>
    <nd ref="24984342"/>
    <nd ref="24984343"/>
    <nd ref="24984344"/>
    <nd ref="24984345"/>
    <tag k="created_by" v="JOSM"/>
    <tag k="highway" v="primary"/>
    <tag k="name" v="Heinz-Nixdorf-Ring"/>
  </way>
  <way id="9550710" version="7" timestamp="2008-02-08T20:07:17Z" uid="21756" user="Torfnase" changeset="76244">
    <nd ref="73874433"/>
    <nd ref="52788266"/>
    <nd ref="246530863"/>
    <nd ref="29332461"/>
    <nd ref="24984333"/>
    <nd ref="52788268"/>
    <nd ref="246529969"/>
    <nd ref="246529944"/>
    <nd ref="246529947"/>
    <nd ref="25239123"/>
    <nd ref="246675677"/>
    <nd ref="24984340"/>
    <nd ref="24984341"/>
    <nd ref="24984342"/>
    <nd ref="24984343"/>
    <nd ref="24984344"/>
    <nd ref="24984345"/>
    <tag k="created_by" v="JOSM"/>
    <tag k="highway" v="primary"/>
    <tag k="name" v="Heinz-Nixdorf-Ring"/>
    <tag k="ref" v="L813"/>
  </way>
  <way id="9550710" version="8" timestamp="2008-03-01T16:12:24Z" uid="21756" user="Torfnase" changeset="239579">
    <nd ref="73874433"/>
    <nd ref="52788266"/>
    <nd ref="246530863"/>
    <nd ref="29332461"/>
    <nd ref="24984333"/>
    <nd ref="52788268"/>
    <nd ref="246529969"/>
    <nd ref="246529944"/>
    <nd ref="246529947"/>
    <nd ref="25239123"/>
    <nd ref="246675677"/>
    <nd ref="24984340"/>
    <nd ref="24984341"/>
    <nd ref="24984342"/>
    <nd ref="24984343"/>
    <nd ref="24984344"/>
    <tag k="created_by" v="JOSM"/>
    <tag k="highway" v="primary"/>
    <tag k="name" v="Heinz-Nixdorf-Ring"/>
    <tag k="ref" v="L813"/>
  </way>
  <way id="9550710" version="9" timestamp="2008-05-27T11:04:22Z" uid="39828" user="Onki" changeset="536552">
    <nd ref="73874433"/>
    <nd ref="52788266"/>
    <nd ref="246530863"/>
    <nd ref="29332461"/>
    <nd ref="24984333"/>
    <nd ref="52788268"/>
    <nd ref="246529969"/>
    <nd ref="246529944"/>
    <nd ref="246529947"/>
    <nd ref="25239123"/>
    <nd ref="246675677"/>
    <nd ref="24984340"/>
    <nd ref="24984341"/>
    <nd ref="24984342"/>
    <nd ref="24984343"/>
    <nd ref="24984344"/>
    <tag k="created_by" v="Potlatch 0.9b"/>
    <tag k="highway" v="primary"/>
    <tag k="name" v="Heinz-Nixdorf-Ring"/>
    <tag k="ref" v="L813"/>
  </way>
  <way id="9550710" version="10" timestamp="2008-06-05T22:04:27Z" uid="40877" user="Purpur Tentakel" changeset="77580">
    <nd ref="73874433"/>
    <nd ref="52788266"/>
    <nd ref="246531261"/>
    <nd ref="29332461"/>
    <nd ref="24984333"/>
    <nd ref="52788268"/>
    <nd ref="246529969"/>
    <nd ref="246529944"/>
    <nd ref="246529947"/>
    <nd ref="25239123"/>
    <nd ref="246675677"/>
    <nd ref="24984340"/>
    <nd ref="24984341"/>
    <nd ref="24984342"/>
    <nd ref="24984343"/>
    <nd ref="24984344"/>
    <tag k="created_by" v="Potlatch 0.9b"/>
    <tag k="highway" v="primary"/>
    <tag k="name" v="Heinz-Nixdorf-Ring"/>
    <tag k="ref" v="L813"/>
  </way>
  <way id="9550710" version="11" timestamp="2008-06-22T01:52:46Z" uid="24920" user="Schusch" changeset="253097">
    <nd ref="73874433"/>
    <nd ref="52788266"/>
    <nd ref="246531261"/>
    <nd ref="29332461"/>
    <nd ref="24984333"/>
    <nd ref="52788268"/>
    <nd ref="246529969"/>
    <nd ref="246529944"/>
    <nd ref="246529947"/>
    <nd ref="25239123"/>
    <nd ref="246675677"/>
    <nd ref="24984340"/>
    <nd ref="24984341"/>
    <nd ref="24984342"/>
    <nd ref="24984343"/>
    <nd ref="24984344"/>
    <tag k="created_by" v="Potlatch 0.9c"/>
    <tag k="highway" v="primary"/>
    <tag k="name" v="Heinz-Nixdorf-Ring"/>
    <tag k="ref" v="L 813"/>
  </way>
  <way id="9550710" version="12" timestamp="2008-07-27T20:25:40Z" uid="36951" user="inda" changeset="616062">
    <nd ref="73874433"/>
    <nd ref="52788266"/>
    <nd ref="246531261"/>
    <nd ref="29332461"/>
    <nd ref="24984333"/>
    <nd ref="52788268"/>
    <nd ref="246529969"/>
    <nd ref="246529944"/>
    <nd ref="246529947"/>
    <nd ref="281573095"/>
    <nd ref="25239123"/>
    <nd ref="246675677"/>
    <nd ref="24984340"/>
    <nd ref="24984341"/>
    <nd ref="24984342"/>
    <nd ref="24984343"/>
    <nd ref="24984344"/>
    <tag k="created_by" v="Potlatch 0.9c"/>
    <tag k="highway" v="primary"/>
    <tag k="name" v="Heinz-Nixdorf-Ring"/>
    <tag k="ref" v="L 813"/>
  </way>
  <way id="9550710" version="13" timestamp="2008-09-04T22:40:15Z" uid="29639" user="bielebog" changeset="542728">
    <nd ref="73874433"/>
    <nd ref="52788266"/>
    <nd ref="246531261"/>
    <nd ref="29332461"/>
    <nd ref="24984333"/>
    <nd ref="293802091"/>
    <nd ref="52788268"/>
    <nd ref="246529969"/>
    <nd ref="246529944"/>
    <nd ref="246529947"/>
    <nd ref="281573095"/>
    <nd ref="25239123"/>
    <nd ref="246675677"/>
    <nd ref="24984340"/>
    <nd ref="24984341"/>
    <nd ref="24984342"/>
    <nd ref="24984343"/>
    <nd ref="24984344"/>
    <tag k="created_by" v="Potlatch 0.9c"/>
    <tag k="highway" v="primary"/>
    <tag k="name" v="Heinz-Nixdorf-Ring"/>
    <tag k="ref" v="L 813"/>
  </way>
  <way id="9550710" version="14" timestamp="2008-11-29T19:40:57Z" uid="21756" user="Torfnase" changeset="808584">
    <nd ref="73874433"/>
    <nd ref="52788266"/>
    <nd ref="246531261"/>
    <nd ref="29332461"/>
    <nd ref="24984333"/>
    <nd ref="293802091"/>
    <nd ref="52788268"/>
    <nd ref="246529969"/>
    <nd ref="246529944"/>
    <nd ref="246529947"/>
    <nd ref="281573095"/>
    <nd ref="25239123"/>
    <nd ref="246675677"/>
    <nd ref="24984340"/>
    <nd ref="24984341"/>
    <nd ref="24984342"/>
    <nd ref="24984343"/>
    <nd ref="24984344"/>
    <tag k="created_by" v="Potlatch 0.9c"/>
    <tag k="highway" v="primary"/>
    <tag k="maxspeed" v="70"/>
    <tag k="name" v="Heinz-Nixdorf-Ring"/>
    <tag k="ref" v="L 813"/>
  </way>
  <way id="9550710" version="15" timestamp="2009-02-21T18:29:41Z" uid="21756" user="Torfnase" changeset="596156">
    <nd ref="73874433"/>
    <nd ref="52788266"/>
    <nd ref="246531261"/>
    <nd ref="29332461"/>
    <tag k="created_by" v="Potlatch 0.9c"/>
    <tag k="highway" v="primary"/>
    <tag k="maxspeed" v="70"/>
    <tag k="name" v="Heinz-Nixdorf-Ring"/>
    <tag k="ref" v="L 813"/>
  </way>
  <way id="9550710" version="16" timestamp="2009-06-07T12:22:04Z" uid="105640" user="Sascha Fleiss" changeset="1447363">
    <nd ref="73874433"/>
    <nd ref="52788266"/>
    <nd ref="246531261"/>
    <nd ref="416908140"/>
    <nd ref="29332461"/>
    <tag k="created_by" v="Potlatch 0.9c"/>
    <tag k="highway" v="primary"/>
    <tag k="maxspeed" v="70"/>
    <tag k="name" v="Heinz-Nixdorf-Ring"/>
    <tag k="ref" v="L 813"/>
  </way>
  <way id="9550710" version="17" timestamp="2012-02-17T09:55:29Z" uid="131670" user="Ana Luisa" changeset="10709419"/>
  <way id="9550991" version="4" timestamp="2010-04-06T23:00:28Z" uid="20587" user="balrog-kun" changeset="4350083">
    <nd ref="73878995"/>
    <nd ref="73878997"/>
    <nd ref="73879000"/>
    <nd ref="73879004"/>
    <nd ref="73879006"/>
    <nd ref="73879009"/>
    <nd ref="73879014"/>
    <nd ref="73879017"/>
    <nd ref="73879020"/>
    <nd ref="73879025"/>
    <nd ref="73879028"/>
    <nd ref="73879032"/>
    <nd ref="73879034"/>
    <nd ref="73879038"/>
    <nd ref="73879040"/>
    <nd ref="73879046"/>
    <nd ref="73879049"/>
    <tag k="highway" v="residential"/>
    <tag k="name" v="Hubbell Drive"/>
  </way>
</osm>
