<?xml version='1.0' encoding='UTF-8'?>
<osm version="0.6" generator="libosmium/2.20.0">
  <way id="95637875" version="1" timestamp="2011-01-18T12:19:37Z" uid="115477" user="wowik" changeset="7009789">
    <nd ref="1108919871"/>
    <nd ref="1108920175"/>
    <nd ref="1108919785"/>
    <nd ref="1108919133"/>
    <nd ref="1108919871"/>
    <tag k="leisure" v="pitch"/>
  </way>
  <way id="95637879" version="1" timestamp="2011-01-18T12:19:38Z" uid="115477" user="wowik" changeset="7009789">
    <nd ref="1108919950"/>
    <nd ref="1108920274"/>
    <nd ref="1108919634"/>
    <nd ref="1108919897"/>
    <nd ref="1108919950"/>
    <tag k="addr:city" v="Зеленоград"/>
    <tag k="addr:housenumber" v="903Б"/>
    <tag k="addr:street" v="9-й Микрорайон"/>
    <tag k="building" v="yes"/>
    <tag k="building:levels" v="1"/>
    <tag k="is_in" v="Russia"/>
  </way>
  <way id="95637879" version="2" timestamp="2011-06-07T20:47:59Z" uid="133332" user="AMDmi3" changeset="8374030">
    <nd ref="1108919950"/>
    <nd ref="1108920274"/>
    <nd ref="1108919634"/>
    <nd ref="1108919897"/>
    <nd ref="1108919950"/>
    <tag k="addr:city" v="Зеленоград"/>
    <tag k="addr:housenumber" v="903Б"/>
    <tag k="addr:street" v="9-й микрорайон"/>
    <tag k="building" v="yes"/>
    <tag k="building:levels" v="1"/>
    <tag k="is_in" v="Russia"/>
  </way>
  <way id="95637879" version="3" timestamp="2011-09-13T10:29:11Z" uid="29320" user="Komяpa" changeset="9288237">
    <nd ref="1108919950"/>
    <nd ref="1108920274"/>
    <nd ref="1108919634"/>
    <nd ref="1108919897"/>
    <nd ref="1108919950"/>
    <tag k="addr:city" v="Зеленоград"/>
    <tag k="addr:country" v="RU"/>
    <tag k="addr:housenumber" v="903Б"/>
    <tag k="addr:street" v="9-й микрорайон"/>
    <tag k="building" v="yes"/>
    <tag k="building:levels" v="1"/>
  </way>
  <way id="95637879" version="4" timestamp="2012-03-27T11:46:56Z" uid="481934" user="iWowik" changeset="11115472">
    <nd ref="1108919950"/>
    <nd ref="1108920274"/>
    <nd ref="1108919634"/>
    <nd ref="1108919897"/>
    <nd ref="1108919950"/>
    <tag k="addr:city" v="Зеленоград"/>
    <tag k="addr:country" v="RU"/>
    <tag k="addr:housenumber" v="903Б"/>
    <tag k="addr:region" v="Москва"/>
    <tag k="addr:street" v="9-й микрорайон"/>
    <tag k="building" v="yes"/>
    <tag k="building:levels" v="1"/>
  </way>
  <way id="95637881" version="1" timestamp="2011-01-18T12:19:38Z" uid="115477" user="wowik" changeset="7009789">
    <nd ref="700230223"/>
    <nd ref="700230235"/>
    <nd ref="700230242"/>
    <nd ref="700230252"/>
    <nd ref="700230257"/>
    <nd ref="700230265"/>
    <nd ref="700230269"/>
    <nd ref="700230276"/>
    <nd ref="700230283"/>
    <nd ref="700230287"/>
    <nd ref="700230298"/>
    <nd ref="700230302"/>
    <nd ref="700230223"/>
    <tag k="landuse" v="forest"/>
    <tag k="natural" v="wood"/>
  </way>
  <way id="95637881" version="2" timestamp="2011-06-06T13:06:32Z" uid="115477" user="wowik" changeset="8360111">
    <nd ref="700230223"/>
    <nd ref="700230235"/>
    <nd ref="700230242"/>
    <nd ref="700230252"/>
    <nd ref="700230257"/>
    <nd ref="700230265"/>
    <nd ref="700230269"/>
    <nd ref="700230276"/>
    <nd ref="700230283"/>
    <nd ref="700230287"/>
    <nd ref="700230298"/>
    <nd ref="700230302"/>
    <nd ref="700230223"/>
    <tag k="natural" v="wood"/>
  </way>
  <way id="95637884" version="1" timestamp="2011-01-18T12:19:39Z" uid="115477" user="wowik" changeset="7009789">
    <nd ref="1108919736"/>
    <nd ref="1108920022"/>
    <nd ref="1108919419"/>
    <nd ref="1108919668"/>
    <nd ref="1108919736"/>
    <tag k="addr:city" v="Зеленоград"/>
    <tag k="addr:housenumber" v="920с1"/>
    <tag k="addr:street" v="9-й Микрорайон"/>
    <tag k="building" v="yes"/>
    <tag k="building:levels" v="1"/>
    <tag k="is_in" v="Russia"/>
  </way>
  <way id="95637884" version="2" timestamp="2011-01-19T17:09:54Z" uid="70696" user="xybot" changeset="7021015">
    <nd ref="1108919736"/>
    <nd ref="1108920022"/>
    <nd ref="1108919419"/>
    <nd ref="1108919668"/>
    <nd ref="1108919736"/>
    <tag k="addr:city" v="Зеленоград"/>
    <tag k="addr:housenumber" v="920 с1"/>
    <tag k="addr:street" v="9-й Микрорайон"/>
    <tag k="building" v="yes"/>
    <tag k="building:levels" v="1"/>
    <tag k="is_in" v="Russia"/>
  </way>
  <way id="95637884" version="3" timestamp="2011-06-07T20:47:59Z" uid="133332" user="AMDmi3" changeset="8374030">
    <nd ref="1108919736"/>
    <nd ref="1108920022"/>
    <nd ref="1108919419"/>
    <nd ref="1108919668"/>
    <nd ref="1108919736"/>
    <tag k="addr:city" v="Зеленоград"/>
    <tag k="addr:housenumber" v="920 с1"/>
    <tag k="addr:street" v="9-й микрорайон"/>
    <tag k="building" v="yes"/>
    <tag k="building:levels" v="1"/>
    <tag k="is_in" v="Russia"/>
  </way>
  <way id="95637884" version="4" timestamp="2011-09-13T10:29:20Z" uid="29320" user="Komяpa" changeset="9288237">
    <nd ref="1108919736"/>
    <nd ref="1108920022"/>
    <nd ref="1108919419"/>
    <nd ref="1108919668"/>
    <nd ref="1108919736"/>
    <tag k="addr:city" v="Зеленоград"/>
    <tag k="addr:country" v="RU"/>
    <tag k="addr:housenumber" v="920 с1"/>
    <tag k="addr:street" v="9-й микрорайон"/>
    <tag k="building" v="yes"/>
    <tag k="building:levels" v="1"/>
  </way>
  <way id="95637884" version="5" timestamp="2012-03-27T11:47:06Z" uid="481934" user="iWowik" changeset="11115472">
    <nd ref="1108919736"/>
    <nd ref="1108920022"/>
    <nd ref="1108919419"/>
    <nd ref="1108919668"/>
    <nd ref="1108919736"/>
    <tag k="addr:city" v="Зеленоград"/>
    <tag k="addr:country" v="RU"/>
    <tag k="addr:housenumber" v="920 с1"/>
    <tag k="addr:region" v="Москва"/>
    <tag k="addr:street" v="9-й микрорайон"/>
    <tag k="building" v="yes"/>
    <tag k="building:levels" v="1"/>
  </way>
  <way id="95637885" version="1" timestamp="2011-01-18T12:19:39Z" uid="115477" user="wowik" changeset="7009789">
    <nd ref="1108919900"/>
    <nd ref="1108920231"/>
    <nd ref="1108919233"/>
    <nd ref="1108919446"/>
    <nd ref="1108919900"/>
    <tag k="addr:city" v="Зеленоград"/>
    <tag k="addr:housenumber" v="811с1"/>
    <tag k="addr:street" v="8-й Микрорайон"/>
    <tag k="building" v="yes"/>
    <tag k="building:levels" v="1"/>
    <tag k="is_in" v="Russia"/>
  </way>
  <way id="95637885" version="2" timestamp="2011-01-19T17:09:55Z" uid="70696" user="xybot" changeset="7021015">
    <nd ref="1108919900"/>
    <nd ref="1108920231"/>
    <nd ref="1108919233"/>
    <nd ref="1108919446"/>
    <nd ref="1108919900"/>
    <tag k="addr:city" v="Зеленоград"/>
    <tag k="addr:housenumber" v="811 с1"/>
    <tag k="addr:street" v="8-й Микрорайон"/>
    <tag k="building" v="yes"/>
    <tag k="building:levels" v="1"/>
    <tag k="is_in" v="Russia"/>
  </way>
  <way id="95637885" version="3" timestamp="2011-06-07T20:47:59Z" uid="133332" user="AMDmi3" changeset="8374030">
    <nd ref="1108919900"/>
    <nd ref="1108920231"/>
    <nd ref="1108919233"/>
    <nd ref="1108919446"/>
    <nd ref="1108919900"/>
    <tag k="addr:city" v="Зеленоград"/>
    <tag k="addr:housenumber" v="811 с1"/>
    <tag k="addr:street" v="8-й микрорайон"/>
    <tag k="building" v="yes"/>
    <tag k="building:levels" v="1"/>
    <tag k="is_in" v="Russia"/>
  </way>
  <way id="95637885" version="4" timestamp="2011-09-13T10:28:44Z" uid="29320" user="Komяpa" changeset="9288237">
    <nd ref="1108919900"/>
    <nd ref="1108920231"/>
    <nd ref="1108919233"/>
    <nd ref="1108919446"/>
    <nd ref="1108919900"/>
    <tag k="addr:city" v="Зеленоград"/>
    <tag k="addr:country" v="RU"/>
    <tag k="addr:housenumber" v="811 с1"/>
    <tag k="addr:street" v="8-й микрорайон"/>
    <tag k="building" v="yes"/>
    <tag k="building:levels" v="1"/>
  </way>
  <way id="95637885" version="5" timestamp="2012-03-27T11:46:19Z" uid="481934" user="iWowik" changeset="11115472">
    <nd ref="1108919900"/>
    <nd ref="1108920231"/>
    <nd ref="1108919233"/>
    <nd ref="1108919446"/>
    <nd ref="1108919900"/>
    <tag k="addr:city" v="Зеленоград"/>
    <tag k="addr:country" v="RU"/>
    <tag k="addr:housenumber" v="811 с1"/>
    <tag k="addr:region" v="Москва"/>
    <tag k="addr:street" v="8-й микрорайон"/>
    <tag k="building" v="yes"/>
    <tag k="building:levels" v="1"/>
  </way>
  <way id="95637888" version="1" timestamp="2011-01-18T12:19:41Z" uid="115477" user="wowik" changeset="7009789">
    <nd ref="1108919581"/>
    <nd ref="1108919861"/>
    <nd ref="1108920144"/>
    <nd ref="1108919197"/>
    <nd ref="1108919581"/>
    <tag k="addr:city" v="Зеленоград"/>
    <tag k="addr:housenumber" v="919Б"/>
    <tag k="addr:street" v="9-й Микрорайон"/>
    <tag k="building" v="yes"/>
    <tag k="building:levels" v="1"/>
    <tag k="is_in" v="Russia"/>
  </way>
  <way id="95637888" version="2" timestamp="2011-06-07T20:47:49Z" uid="133332" user="AMDmi3" changeset="8374030">
    <nd ref="1108919581"/>
    <nd ref="1108919861"/>
    <nd ref="1108920144"/>
    <nd ref="1108919197"/>
    <nd ref="1108919581"/>
    <tag k="addr:city" v="Зеленоград"/>
    <tag k="addr:housenumber" v="919Б"/>
    <tag k="addr:street" v="9-й микрорайон"/>
    <tag k="building" v="yes"/>
    <tag k="building:levels" v="1"/>
    <tag k="is_in" v="Russia"/>
  </way>
  <way id="95637888" version="3" timestamp="2011-09-13T10:29:18Z" uid="29320" user="Komяpa" changeset="9288237">
    <nd ref="1108919581"/>
    <nd ref="1108919861"/>
    <nd ref="1108920144"/>
    <nd ref="1108919197"/>
    <nd ref="1108919581"/>
    <tag k="addr:city" v="Зеленоград"/>
    <tag k="addr:country" v="RU"/>
    <tag k="addr:housenumber" v="919Б"/>
    <tag k="addr:street" v="9-й микрорайон"/>
    <tag k="building" v="yes"/>
    <tag k="building:levels" v="1"/>
  </way>
  <way id="95637888" version="4" timestamp="2012-03-27T11:47:05Z" uid="481934" user="iWowik" changeset="11115472">
    <nd ref="1108919581"/>
    <nd ref="1108919861"/>
    <nd ref="1108920144"/>
    <nd ref="1108919197"/>
    <nd ref="1108919581"/>
    <tag k="addr:city" v="Зеленоград"/>
    <tag k="addr:country" v="RU"/>
    <tag k="addr:housenumber" v="919Б"/>
    <tag k="addr:region" v="Москва"/>
    <tag k="addr:street" v="9-й микрорайон"/>
    <tag k="building" v="yes"/>
    <tag k="building:levels" v="1"/>
  </way>
  <way id="95637890" version="1" timestamp="2011-01-18T12:19:41Z" uid="115477" user="wowik" changeset="7009789">
    <nd ref="1108919930"/>
    <nd ref="1108920253"/>
    <nd ref="1108919608"/>
    <nd ref="1108919868"/>
    <nd ref="1108919930"/>
    <tag k="addr:city" v="Зеленоград"/>
    <tag k="addr:housenumber" v="814с2?"/>
    <tag k="addr:street" v="8-й Микрорайон"/>
    <tag k="building" v="yes"/>
    <tag k="building:levels" v="1"/>
    <tag k="is_in" v="Russia"/>
  </way>
  <way id="95637890" version="2" timestamp="2011-01-20T13:57:44Z" uid="2680" user="xylome" changeset="7030776">
    <nd ref="1108919930"/>
    <nd ref="1108920253"/>
    <nd ref="1108919608"/>
    <nd ref="1108919868"/>
    <nd ref="1108919930"/>
    <tag k="FIXME" v="addr:housenumber Нестандартный и/или странный адрес. Проверить и/или привести к стандарту http://wiki.osm.org/RU:Key:addr"/>
    <tag k="addr:city" v="Зеленоград"/>
    <tag k="addr:country" v="RU"/>
    <tag k="addr:housenumber" v="814 с2?"/>
    <tag k="addr:street" v="8-й Микрорайон"/>
    <tag k="building" v="yes"/>
    <tag k="building:levels" v="1"/>
    <tag k="is_in" v="Russia"/>
  </way>
  <way id="95637890" version="3" timestamp="2011-06-07T20:47:49Z" uid="133332" user="AMDmi3" changeset="8374030">
    <nd ref="1108919930"/>
    <nd ref="1108920253"/>
    <nd ref="1108919608"/>
    <nd ref="1108919868"/>
    <nd ref="1108919930"/>
    <tag k="FIXME" v="addr:housenumber Нестандартный и/или странный адрес. Проверить и/или привести к стандарту http://wiki.osm.org/RU:Key:addr"/>
    <tag k="addr:city" v="Зеленоград"/>
    <tag k="addr:country" v="RU"/>
    <tag k="addr:housenumber" v="814 с2?"/>
    <tag k="addr:street" v="8-й микрорайон"/>
    <tag k="building" v="yes"/>
    <tag k="building:levels" v="1"/>
    <tag k="is_in" v="Russia"/>
  </way>
  <way id="95637890" version="4" timestamp="2011-09-13T10:28:46Z" uid="29320" user="Komяpa" changeset="9288237">
    <nd ref="1108919930"/>
    <nd ref="1108920253"/>
    <nd ref="1108919608"/>
    <nd ref="1108919868"/>
    <nd ref="1108919930"/>
    <tag k="FIXME" v="addr:housenumber Нестандартный и/или странный адрес. Проверить и/или привести к стандарту http://wiki.osm.org/RU:Key:addr"/>
    <tag k="addr:city" v="Зеленоград"/>
    <tag k="addr:country" v="RU"/>
    <tag k="addr:housenumber" v="814 с2?"/>
    <tag k="addr:street" v="8-й микрорайон"/>
    <tag k="building" v="yes"/>
    <tag k="building:levels" v="1"/>
  </way>
  <way id="95637890" version="5" timestamp="2012-03-27T11:46:21Z" uid="481934" user="iWowik" changeset="11115472">
    <nd ref="1108919930"/>
    <nd ref="1108920253"/>
    <nd ref="1108919608"/>
    <nd ref="1108919868"/>
    <nd ref="1108919930"/>
    <tag k="FIXME" v="addr:housenumber Нестандартный и/или странный адрес. Проверить и/или привести к стандарту http://wiki.osm.org/RU:Key:addr"/>
    <tag k="addr:city" v="Зеленоград"/>
    <tag k="addr:country" v="RU"/>
    <tag k="addr:housenumber" v="814 с2?"/>
    <tag k="addr:region" v="Москва"/>
    <tag k="addr:street" v="8-й микрорайон"/>
    <tag k="building" v="yes"/>
    <tag k="building:levels" v="1"/>
  </way>
  <way id="95637893" version="1" timestamp="2011-01-18T12:19:42Z" uid="115477" user="wowik" changeset="7009789">
    <nd ref="1108919743"/>
    <nd ref="1108920032"/>
    <nd ref="1108920313"/>
    <nd ref="1108919335"/>
    <nd ref="1108919743"/>
    <tag k="addr:city" v="Зеленоград"/>
    <tag k="addr:housenumber" v="900с1"/>
    <tag k="addr:street" v="9-й Микрорайон"/>
    <tag k="building" v="bunker"/>
    <tag k="building:levels" v="1"/>
    <tag k="is_in" v="Russia"/>
  </way>
  <way id="95637893" version="2" timestamp="2011-01-19T17:09:56Z" uid="70696" user="xybot" changeset="7021015">
    <nd ref="1108919743"/>
    <nd ref="1108920032"/>
    <nd ref="1108920313"/>
    <nd ref="1108919335"/>
    <nd ref="1108919743"/>
    <tag k="addr:city" v="Зеленоград"/>
    <tag k="addr:housenumber" v="900 с1"/>
    <tag k="addr:street" v="9-й Микрорайон"/>
    <tag k="building" v="bunker"/>
    <tag k="building:levels" v="1"/>
    <tag k="is_in" v="Russia"/>
  </way>
  <way id="95637893" version="3" timestamp="2011-06-07T20:47:49Z" uid="133332" user="AMDmi3" changeset="8374030">
    <nd ref="1108919743"/>
    <nd ref="1108920032"/>
    <nd ref="1108920313"/>
    <nd ref="1108919335"/>
    <nd ref="1108919743"/>
    <tag k="addr:city" v="Зеленоград"/>
    <tag k="addr:housenumber" v="900 с1"/>
    <tag k="addr:street" v="9-й микрорайон"/>
    <tag k="building" v="bunker"/>
    <tag k="building:levels" v="1"/>
    <tag k="is_in" v="Russia"/>
  </way>
  <way id="95637893" version="4" timestamp="2011-08-03T06:19:45Z" uid="465700" user="Tomasina" changeset="8907055">
    <nd ref="1108919743"/>
    <nd ref="1108920032"/>
    <nd ref="1108920313"/>
    <nd ref="1108919335"/>
    <nd ref="1108919743"/>
    <tag k="access" v="public"/>
    <tag k="addr:city" v="Зеленоград"/>
    <tag k="addr:housenumber" v="900 с1"/>
    <tag k="addr:street" v="9-й микрорайон"/>
    <tag k="amenity" v="toilets"/>
    <tag k="building" v="bunker"/>
    <tag k="building:levels" v="1"/>
    <tag k="is_in" v="Russia"/>
    <tag k="opening_hours" v="9-18"/>
    <tag k="supervised" v="yes"/>
    <tag k="wheelchair" v="no"/>
  </way>
  <way id="95637893" version="5" timestamp="2011-09-13T10:29:07Z" uid="29320" user="Komяpa" changeset="9288237">
    <nd ref="1108919743"/>
    <nd ref="1108920032"/>
    <nd ref="1108920313"/>
    <nd ref="1108919335"/>
    <nd ref="1108919743"/>
    <tag k="access" v="public"/>
    <tag k="addr:city" v="Зеленоград"/>
    <tag k="addr:country" v="RU"/>
    <tag k="addr:housenumber" v="900 с1"/>
    <tag k="addr:street" v="9-й микрорайон"/>
    <tag k="amenity" v="toilets"/>
    <tag k="building" v="bunker"/>
    <tag k="building:levels" v="1"/>
    <tag k="opening_hours" v="9-18"/>
    <tag k="supervised" v="yes"/>
    <tag k="wheelchair" v="no"/>
  </way>
  <way id="95637893" version="6" timestamp="2012-03-27T11:46:51Z" uid="481934" user="iWowik" changeset="11115472">
    <nd ref="1108919743"/>
    <nd ref="1108920032"/>
    <nd ref="1108920313"/>
    <nd ref="1108919335"/>
    <nd ref="1108919743"/>
    <tag k="access" v="public"/>
    <tag k="addr:city" v="Зеленоград"/>
    <tag k="addr:country" v="RU"/>
    <tag k="addr:housenumber" v="900 с1"/>
    <tag k="addr:region" v="Москва"/>
    <tag k="addr:street" v="9-й микрорайон"/>
    <tag k="amenity" v="toilets"/>
    <tag k="building" v="bunker"/>
    <tag k="building:levels" v="1"/>
    <tag k="opening_hours" v="9-18"/>
    <tag k="supervised" v="yes"/>
    <tag k="wheelchair" v="no"/>
  </way>
  <way id="95637894" version="1" timestamp="2011-01-18T12:19:43Z" uid="115477" user="wowik" changeset="7009789">
    <nd ref="1108919281"/>
    <nd ref="1108919754"/>
    <nd ref="1108919696"/>
    <nd ref="1108919614"/>
    <nd ref="1108919281"/>
    <tag k="addr:city" v="Зеленоград"/>
    <tag k="amenity" v="school"/>
    <tag k="building" v="yes"/>
    <tag k="building:levels" v="1"/>
  </way>
  <way id="95637894" version="2" timestamp="2012-03-27T08:12:09Z" uid="481934" user="iWowik" changeset="11113698">
    <nd ref="1108919281"/>
    <nd ref="1108919754"/>
    <nd ref="1108919696"/>
    <nd ref="1108919614"/>
    <nd ref="1108919281"/>
    <tag k="addr:city" v="Зеленоград"/>
    <tag k="addr:country" v="RU"/>
    <tag k="amenity" v="school"/>
    <tag k="building" v="yes"/>
    <tag k="building:levels" v="1"/>
  </way>
  <way id="95637894" version="3" timestamp="2012-03-27T11:50:34Z" uid="481934" user="iWowik" changeset="11115472">
    <nd ref="1108919281"/>
    <nd ref="1108919754"/>
    <nd ref="1108919696"/>
    <nd ref="1108919614"/>
    <nd ref="1108919281"/>
    <tag k="addr:city" v="Зеленоград"/>
    <tag k="addr:country" v="RU"/>
    <tag k="addr:region" v="Москва"/>
    <tag k="amenity" v="school"/>
    <tag k="building" v="yes"/>
    <tag k="building:levels" v="1"/>
  </way>
  <way id="95637898" version="1" timestamp="2011-01-18T12:19:44Z" uid="115477" user="wowik" changeset="7009789">
    <nd ref="1108919532"/>
    <nd ref="1108920086"/>
    <nd ref="1108919983"/>
    <nd ref="1108919909"/>
    <nd ref="1108919532"/>
    <tag k="addr:city" v="Зеленоград"/>
    <tag k="addr:street" v="8-й Микрорайон"/>
    <tag k="amenity" v="school"/>
    <tag k="building" v="yes"/>
    <tag k="building:levels" v="1"/>
    <tag k="is_in" v="Russia"/>
  </way>
  <way id="95637898" version="2" timestamp="2011-06-07T20:47:52Z" uid="133332" user="AMDmi3" changeset="8374030">
    <nd ref="1108919532"/>
    <nd ref="1108920086"/>
    <nd ref="1108919983"/>
    <nd ref="1108919909"/>
    <nd ref="1108919532"/>
    <tag k="addr:city" v="Зеленоград"/>
    <tag k="addr:street" v="8-й микрорайон"/>
    <tag k="amenity" v="school"/>
    <tag k="building" v="yes"/>
    <tag k="building:levels" v="1"/>
    <tag k="is_in" v="Russia"/>
  </way>
  <way id="95637898" version="3" timestamp="2011-09-13T10:38:05Z" uid="29320" user="Komяpa" changeset="9288237">
    <nd ref="1108919532"/>
    <nd ref="1108920086"/>
    <nd ref="1108919983"/>
    <nd ref="1108919909"/>
    <nd ref="1108919532"/>
    <tag k="addr:city" v="Зеленоград"/>
    <tag k="addr:country" v="RU"/>
    <tag k="addr:street" v="8-й микрорайон"/>
    <tag k="amenity" v="school"/>
    <tag k="building" v="yes"/>
    <tag k="building:levels" v="1"/>
  </way>
  <way id="95637898" version="4" timestamp="2012-03-27T11:52:30Z" uid="481934" user="iWowik" changeset="11115472">
    <nd ref="1108919532"/>
    <nd ref="1108920086"/>
    <nd ref="1108919983"/>
    <nd ref="1108919909"/>
    <nd ref="1108919532"/>
    <tag k="addr:city" v="Зеленоград"/>
    <tag k="addr:country" v="RU"/>
    <tag k="addr:region" v="Москва"/>
    <tag k="addr:street" v="8-й микрорайон"/>
    <tag k="amenity" v="school"/>
    <tag k="building" v="yes"/>
    <tag k="building:levels" v="1"/>
  </way>
  <way id="95637899" version="1" timestamp="2011-01-18T12:19:44Z" uid="115477" user="wowik" changeset="7009789">
    <nd ref="1108920166"/>
    <nd ref="1108919200"/>
    <nd ref="1108919420"/>
    <nd ref="1108919670"/>
    <nd ref="1108920166"/>
    <tag k="addr:city" v="Зеленоград"/>
    <tag k="addr:street" v="9-й Микрорайон"/>
    <tag k="building" v="yes"/>
    <tag k="building:levels" v="1"/>
    <tag k="is_in" v="Russia"/>
  </way>
  <way id="95637899" version="2" timestamp="2011-06-07T20:47:51Z" uid="133332" user="AMDmi3" changeset="8374030">
    <nd ref="1108920166"/>
    <nd ref="1108919200"/>
    <nd ref="1108919420"/>
    <nd ref="1108919670"/>
    <nd ref="1108920166"/>
    <tag k="addr:city" v="Зеленоград"/>
    <tag k="addr:street" v="9-й микрорайон"/>
    <tag k="building" v="yes"/>
    <tag k="building:levels" v="1"/>
    <tag k="is_in" v="Russia"/>
  </way>
  <way id="95637899" version="3" timestamp="2011-09-13T10:38:05Z" uid="29320" user="Komяpa" changeset="9288237">
    <nd ref="1108920166"/>
    <nd ref="1108919200"/>
    <nd ref="1108919420"/>
    <nd ref="1108919670"/>
    <nd ref="1108920166"/>
    <tag k="addr:city" v="Зеленоград"/>
    <tag k="addr:country" v="RU"/>
    <tag k="addr:street" v="9-й микрорайон"/>
    <tag k="building" v="yes"/>
    <tag k="building:levels" v="1"/>
  </way>
  <way id="95637899" version="4" timestamp="2012-03-27T11:54:12Z" uid="481934" user="iWowik" changeset="11115472">
    <nd ref="1108920166"/>
    <nd ref="1108919200"/>
    <nd ref="1108919420"/>
    <nd ref="1108919670"/>
    <nd ref="1108920166"/>
    <tag k="addr:city" v="Зеленоград"/>
    <tag k="addr:country" v="RU"/>
    <tag k="addr:region" v="Москва"/>
    <tag k="addr:street" v="9-й микрорайон"/>
    <tag k="building" v="yes"/>
    <tag k="building:levels" v="1"/>
  </way>
  <way id="95637901" version="1" timestamp="2011-01-18T12:19:45Z" uid="115477" user="wowik" changeset="7009789">
    <nd ref="1108919305"/>
    <nd ref="1108919536"/>
    <nd ref="1108919616"/>
    <nd ref="1108919891"/>
    <nd ref="1108919305"/>
    <tag k="addr:city" v="Зеленоград"/>
    <tag k="addr:housenumber" v="815с1"/>
    <tag k="addr:street" v="8-й Микрорайон"/>
    <tag k="building" v="yes"/>
    <tag k="building:levels" v="1"/>
    <tag k="is_in" v="Russia"/>
  </way>
  <way id="95637901" version="2" timestamp="2011-01-19T17:09:57Z" uid="70696" user="xybot" changeset="7021015">
    <nd ref="1108919305"/>
    <nd ref="1108919536"/>
    <nd ref="1108919616"/>
    <nd ref="1108919891"/>
    <nd ref="1108919305"/>
    <tag k="addr:city" v="Зеленоград"/>
    <tag k="addr:housenumber" v="815 с1"/>
    <tag k="addr:street" v="8-й Микрорайон"/>
    <tag k="building" v="yes"/>
    <tag k="building:levels" v="1"/>
    <tag k="is_in" v="Russia"/>
  </way>
  <way id="95637901" version="3" timestamp="2011-06-07T20:47:49Z" uid="133332" user="AMDmi3" changeset="8374030">
    <nd ref="1108919305"/>
    <nd ref="1108919536"/>
    <nd ref="1108919616"/>
    <nd ref="1108919891"/>
    <nd ref="1108919305"/>
    <tag k="addr:city" v="Зеленоград"/>
    <tag k="addr:housenumber" v="815 с1"/>
    <tag k="addr:street" v="8-й микрорайон"/>
    <tag k="building" v="yes"/>
    <tag k="building:levels" v="1"/>
    <tag k="is_in" v="Russia"/>
  </way>
  <way id="95637901" version="4" timestamp="2011-09-13T10:28:47Z" uid="29320" user="Komяpa" changeset="9288237">
    <nd ref="1108919305"/>
    <nd ref="1108919536"/>
    <nd ref="1108919616"/>
    <nd ref="1108919891"/>
    <nd ref="1108919305"/>
    <tag k="addr:city" v="Зеленоград"/>
    <tag k="addr:country" v="RU"/>
    <tag k="addr:housenumber" v="815 с1"/>
    <tag k="addr:street" v="8-й микрорайон"/>
    <tag k="building" v="yes"/>
    <tag k="building:levels" v="1"/>
  </way>
  <way id="95637901" version="5" timestamp="2012-03-27T11:46:22Z" uid="481934" user="iWowik" changeset="11115472">
    <nd ref="1108919305"/>
    <nd ref="1108919536"/>
    <nd ref="1108919616"/>
    <nd ref="1108919891"/>
    <nd ref="1108919305"/>
    <tag k="addr:city" v="Зеленоград"/>
    <tag k="addr:country" v="RU"/>
    <tag k="addr:housenumber" v="815 с1"/>
    <tag k="addr:region" v="Москва"/>
    <tag k="addr:street" v="8-й микрорайон"/>
    <tag k="building" v="yes"/>
    <tag k="building:levels" v="1"/>
  </way>
  <way id="95637902" version="1" timestamp="2011-01-18T12:19:45Z" uid="115477" user="wowik" changeset="7009789">
    <nd ref="1108919240"/>
    <nd ref="1108919456"/>
    <nd ref="1108920127"/>
    <nd ref="1108920336"/>
    <nd ref="1108919406"/>
    <nd ref="1108919168"/>
    <nd ref="1108919240"/>
    <tag k="addr:city" v="Зеленоград"/>
    <tag k="addr:housenumber" v="803с2"/>
    <tag k="addr:street" v="8-й Микрорайон"/>
    <tag k="building" v="yes"/>
    <tag k="building:levels" v="1"/>
    <tag k="is_in" v="Russia"/>
  </way>
  <way id="95637902" version="2" timestamp="2011-01-19T17:09:57Z" uid="70696" user="xybot" changeset="7021015">
    <nd ref="1108919240"/>
    <nd ref="1108919456"/>
    <nd ref="1108920127"/>
    <nd ref="1108920336"/>
    <nd ref="1108919406"/>
    <nd ref="1108919168"/>
    <nd ref="1108919240"/>
    <tag k="addr:city" v="Зеленоград"/>
    <tag k="addr:housenumber" v="803 с2"/>
    <tag k="addr:street" v="8-й Микрорайон"/>
    <tag k="building" v="yes"/>
    <tag k="building:levels" v="1"/>
    <tag k="is_in" v="Russia"/>
  </way>
  <way id="95637902" version="3" timestamp="2011-06-07T20:47:50Z" uid="133332" user="AMDmi3" changeset="8374030">
    <nd ref="1108919240"/>
    <nd ref="1108919456"/>
    <nd ref="1108920127"/>
    <nd ref="1108920336"/>
    <nd ref="1108919406"/>
    <nd ref="1108919168"/>
    <nd ref="1108919240"/>
    <tag k="addr:city" v="Зеленоград"/>
    <tag k="addr:housenumber" v="803 с2"/>
    <tag k="addr:street" v="8-й микрорайон"/>
    <tag k="building" v="yes"/>
    <tag k="building:levels" v="1"/>
    <tag k="is_in" v="Russia"/>
  </way>
  <way id="95637902" version="4" timestamp="2011-09-13T10:28:41Z" uid="29320" user="Komяpa" changeset="9288237">
    <nd ref="1108919240"/>
    <nd ref="1108919456"/>
    <nd ref="1108920127"/>
    <nd ref="1108920336"/>
    <nd ref="1108919406"/>
    <nd ref="1108919168"/>
    <nd ref="1108919240"/>
    <tag k="addr:city" v="Зеленоград"/>
    <tag k="addr:country" v="RU"/>
    <tag k="addr:housenumber" v="803 с2"/>
    <tag k="addr:street" v="8-й микрорайон"/>
    <tag k="building" v="yes"/>
    <tag k="building:levels" v="1"/>
  </way>
  <way id="95637902" version="5" timestamp="2012-03-27T11:46:15Z" uid="481934" user="iWowik" changeset="11115472">
    <nd ref="1108919240"/>
    <nd ref="1108919456"/>
    <nd ref="1108920127"/>
    <nd ref="1108920336"/>
    <nd ref="1108919406"/>
    <nd ref="1108919168"/>
    <nd ref="1108919240"/>
    <tag k="addr:city" v="Зеленоград"/>
    <tag k="addr:country" v="RU"/>
    <tag k="addr:housenumber" v="803 с2"/>
    <tag k="addr:region" v="Москва"/>
    <tag k="addr:street" v="8-й микрорайон"/>
    <tag k="building" v="yes"/>
    <tag k="building:levels" v="1"/>
  </way>
  <way id="95637906" version="1" timestamp="2011-01-18T12:19:47Z" uid="115477" user="wowik" changeset="7009789">
    <nd ref="1108919421"/>
    <nd ref="1108919672"/>
    <nd ref="1108919927"/>
    <nd ref="1108919366"/>
    <nd ref="1108919421"/>
    <tag k="addr:city" v="Зеленоград"/>
    <tag k="addr:street" v="9-й Микрорайон"/>
    <tag k="building" v="yes"/>
    <tag k="building:levels" v="1"/>
    <tag k="is_in" v="Russia"/>
  </way>
  <way id="95637906" version="2" timestamp="2011-06-07T20:47:47Z" uid="133332" user="AMDmi3" changeset="8374030">
    <nd ref="1108919421"/>
    <nd ref="1108919672"/>
    <nd ref="1108919927"/>
    <nd ref="1108919366"/>
    <nd ref="1108919421"/>
    <tag k="addr:city" v="Зеленоград"/>
    <tag k="addr:street" v="9-й микрорайон"/>
    <tag k="building" v="yes"/>
    <tag k="building:levels" v="1"/>
    <tag k="is_in" v="Russia"/>
  </way>
  <way id="95637906" version="3" timestamp="2011-09-13T10:38:05Z" uid="29320" user="Komяpa" changeset="9288237">
    <nd ref="1108919421"/>
    <nd ref="1108919672"/>
    <nd ref="1108919927"/>
    <nd ref="1108919366"/>
    <nd ref="1108919421"/>
    <tag k="addr:city" v="Зеленоград"/>
    <tag k="addr:country" v="RU"/>
    <tag k="addr:street" v="9-й микрорайон"/>
    <tag k="building" v="yes"/>
    <tag k="building:levels" v="1"/>
  </way>
  <way id="95637906" version="4" timestamp="2012-03-27T11:49:56Z" uid="481934" user="iWowik" changeset="11115472">
    <nd ref="1108919421"/>
    <nd ref="1108919672"/>
    <nd ref="1108919927"/>
    <nd ref="1108919366"/>
    <nd ref="1108919421"/>
    <tag k="addr:city" v="Зеленоград"/>
    <tag k="addr:country" v="RU"/>
    <tag k="addr:region" v="Москва"/>
    <tag k="addr:street" v="9-й микрорайон"/>
    <tag k="building" v="yes"/>
    <tag k="building:levels" v="1"/>
  </way>
  <way id="95637908" version="1" timestamp="2011-01-18T12:19:47Z" uid="115477" user="wowik" changeset="7009789">
    <nd ref="1108919164"/>
    <nd ref="1108919387"/>
    <nd ref="1108920029"/>
    <nd ref="1108920311"/>
    <nd ref="1108919164"/>
    <tag k="addr:city" v="Зеленоград"/>
    <tag k="addr:housenumber" v="805с2"/>
    <tag k="addr:street" v="8-й Микрорайон"/>
    <tag k="building" v="yes"/>
    <tag k="building:levels" v="1"/>
    <tag k="is_in" v="Russia"/>
  </way>
  <way id="95637908" version="2" timestamp="2011-01-19T17:09:58Z" uid="70696" user="xybot" changeset="7021015">
    <nd ref="1108919164"/>
    <nd ref="1108919387"/>
    <nd ref="1108920029"/>
    <nd ref="1108920311"/>
    <nd ref="1108919164"/>
    <tag k="addr:city" v="Зеленоград"/>
    <tag k="addr:housenumber" v="805 с2"/>
    <tag k="addr:street" v="8-й Микрорайон"/>
    <tag k="building" v="yes"/>
    <tag k="building:levels" v="1"/>
    <tag k="is_in" v="Russia"/>
  </way>
  <way id="95637908" version="3" timestamp="2011-06-07T20:47:45Z" uid="133332" user="AMDmi3" changeset="8374030">
    <nd ref="1108919164"/>
    <nd ref="1108919387"/>
    <nd ref="1108920029"/>
    <nd ref="1108920311"/>
    <nd ref="1108919164"/>
    <tag k="addr:city" v="Зеленоград"/>
    <tag k="addr:housenumber" v="805 с2"/>
    <tag k="addr:street" v="8-й микрорайон"/>
    <tag k="building" v="yes"/>
    <tag k="building:levels" v="1"/>
    <tag k="is_in" v="Russia"/>
  </way>
  <way id="95637908" version="4" timestamp="2011-09-13T10:28:41Z" uid="29320" user="Komяpa" changeset="9288237">
    <nd ref="1108919164"/>
    <nd ref="1108919387"/>
    <nd ref="1108920029"/>
    <nd ref="1108920311"/>
    <nd ref="1108919164"/>
    <tag k="addr:city" v="Зеленоград"/>
    <tag k="addr:country" v="RU"/>
    <tag k="addr:housenumber" v="805 с2"/>
    <tag k="addr:street" v="8-й микрорайон"/>
    <tag k="building" v="yes"/>
    <tag k="building:levels" v="1"/>
  </way>
  <way id="95637908" version="5" timestamp="2012-03-27T11:46:17Z" uid="481934" user="iWowik" changeset="11115472">
    <nd ref="1108919164"/>
    <nd ref="1108919387"/>
    <nd ref="1108920029"/>
    <nd ref="1108920311"/>
    <nd ref="1108919164"/>
    <tag k="addr:city" v="Зеленоград"/>
    <tag k="addr:country" v="RU"/>
    <tag k="addr:housenumber" v="805 с2"/>
    <tag k="addr:region" v="Москва"/>
    <tag k="addr:street" v="8-й микрорайон"/>
    <tag k="building" v="yes"/>
    <tag k="building:levels" v="1"/>
  </way>
  <way id="95637910" version="1" timestamp="2011-01-18T12:19:47Z" uid="115477" user="wowik" changeset="7009789">
    <nd ref="461008379"/>
    <nd ref="1108920083"/>
    <nd ref="1108919909"/>
    <nd ref="1108919532"/>
    <nd ref="1108919529"/>
    <nd ref="461009905"/>
    <nd ref="461008366"/>
    <nd ref="461009818"/>
    <nd ref="461009340"/>
    <nd ref="461008457"/>
    <nd ref="461008379"/>
    <tag k="addr:city" v="Зеленоград"/>
    <tag k="addr:street" v="8-й Микрорайон"/>
    <tag k="amenity" v="school"/>
    <tag k="building" v="yes"/>
    <tag k="building:levels" v="3"/>
    <tag k="is_in" v="Russia"/>
  </way>
  <way id="95637910" version="2" timestamp="2011-06-07T20:47:46Z" uid="133332" user="AMDmi3" changeset="8374030">
    <nd ref="461008379"/>
    <nd ref="1108920083"/>
    <nd ref="1108919909"/>
    <nd ref="1108919532"/>
    <nd ref="1108919529"/>
    <nd ref="461009905"/>
    <nd ref="461008366"/>
    <nd ref="461009818"/>
    <nd ref="461009340"/>
    <nd ref="461008457"/>
    <nd ref="461008379"/>
    <tag k="addr:city" v="Зеленоград"/>
    <tag k="addr:street" v="8-й микрорайон"/>
    <tag k="amenity" v="school"/>
    <tag k="building" v="yes"/>
    <tag k="building:levels" v="3"/>
    <tag k="is_in" v="Russia"/>
  </way>
  <way id="95637910" version="3" timestamp="2011-09-13T10:38:06Z" uid="29320" user="Komяpa" changeset="9288237">
    <nd ref="461008379"/>
    <nd ref="1108920083"/>
    <nd ref="1108919909"/>
    <nd ref="1108919532"/>
    <nd ref="1108919529"/>
    <nd ref="461009905"/>
    <nd ref="461008366"/>
    <nd ref="461009818"/>
    <nd ref="461009340"/>
    <nd ref="461008457"/>
    <nd ref="461008379"/>
    <tag k="addr:city" v="Зеленоград"/>
    <tag k="addr:country" v="RU"/>
    <tag k="addr:street" v="8-й микрорайон"/>
    <tag k="amenity" v="school"/>
    <tag k="building" v="yes"/>
    <tag k="building:levels" v="3"/>
  </way>
  <way id="95637910" version="4" timestamp="2012-03-27T11:48:48Z" uid="481934" user="iWowik" changeset="11115472">
    <nd ref="461008379"/>
    <nd ref="1108920083"/>
    <nd ref="1108919909"/>
    <nd ref="1108919532"/>
    <nd ref="1108919529"/>
    <nd ref="461009905"/>
    <nd ref="461008366"/>
    <nd ref="461009818"/>
    <nd ref="461009340"/>
    <nd ref="461008457"/>
    <nd ref="461008379"/>
    <tag k="addr:city" v="Зеленоград"/>
    <tag k="addr:country" v="RU"/>
    <tag k="addr:region" v="Москва"/>
    <tag k="addr:street" v="8-й микрорайон"/>
    <tag k="amenity" v="school"/>
    <tag k="building" v="yes"/>
    <tag k="building:levels" v="3"/>
  </way>
  <way id="95637914" version="1" timestamp="2011-01-18T12:19:48Z" uid="115477" user="wowik" changeset="7009789">
    <nd ref="1108920038"/>
    <nd ref="1108920344"/>
    <nd ref="1108919700"/>
    <nd ref="1108919944"/>
    <nd ref="1108920038"/>
    <tag k="addr:city" v="Зеленоград"/>
    <tag k="addr:street" v="9-й Микрорайон"/>
    <tag k="building" v="yes"/>
    <tag k="building:levels" v="1"/>
    <tag k="is_in" v="Russia"/>
  </way>
  <way id="95637914" version="2" timestamp="2011-06-07T20:47:48Z" uid="133332" user="AMDmi3" changeset="8374030">
    <nd ref="1108920038"/>
    <nd ref="1108920344"/>
    <nd ref="1108919700"/>
    <nd ref="1108919944"/>
    <nd ref="1108920038"/>
    <tag k="addr:city" v="Зеленоград"/>
    <tag k="addr:street" v="9-й микрорайон"/>
    <tag k="building" v="yes"/>
    <tag k="building:levels" v="1"/>
    <tag k="is_in" v="Russia"/>
  </way>
  <way id="95637914" version="3" timestamp="2011-09-13T10:38:06Z" uid="29320" user="Komяpa" changeset="9288237">
    <nd ref="1108920038"/>
    <nd ref="1108920344"/>
    <nd ref="1108919700"/>
    <nd ref="1108919944"/>
    <nd ref="1108920038"/>
    <tag k="addr:city" v="Зеленоград"/>
    <tag k="addr:country" v="RU"/>
    <tag k="addr:street" v="9-й микрорайон"/>
    <tag k="building" v="yes"/>
    <tag k="building:levels" v="1"/>
  </way>
  <way id="95637914" version="4" timestamp="2012-03-27T11:53:44Z" uid="481934" user="iWowik" changeset="11115472">
    <nd ref="1108920038"/>
    <nd ref="1108920344"/>
    <nd ref="1108919700"/>
    <nd ref="1108919944"/>
    <nd ref="1108920038"/>
    <tag k="addr:city" v="Зеленоград"/>
    <tag k="addr:country" v="RU"/>
    <tag k="addr:region" v="Москва"/>
    <tag k="addr:street" v="9-й микрорайон"/>
    <tag k="building" v="yes"/>
    <tag k="building:levels" v="1"/>
  </way>
  <way id="95637919" version="1" timestamp="2011-01-18T12:19:49Z" uid="115477" user="wowik" changeset="7009789">
    <nd ref="1108919573"/>
    <nd ref="1108920271"/>
    <nd ref="1108919283"/>
    <nd ref="1108919498"/>
    <nd ref="1108919573"/>
    <tag k="addr:city" v="Зеленоград"/>
    <tag k="addr:housenumber" v="913с1"/>
    <tag k="addr:street" v="9-й Микрорайон"/>
    <tag k="building" v="yes"/>
    <tag k="building:levels" v="1"/>
    <tag k="is_in" v="Russia"/>
  </way>
  <way id="95637919" version="2" timestamp="2011-01-19T17:09:58Z" uid="70696" user="xybot" changeset="7021015">
    <nd ref="1108919573"/>
    <nd ref="1108920271"/>
    <nd ref="1108919283"/>
    <nd ref="1108919498"/>
    <nd ref="1108919573"/>
    <tag k="addr:city" v="Зеленоград"/>
    <tag k="addr:housenumber" v="913 с1"/>
    <tag k="addr:street" v="9-й Микрорайон"/>
    <tag k="building" v="yes"/>
    <tag k="building:levels" v="1"/>
    <tag k="is_in" v="Russia"/>
  </way>
  <way id="95637919" version="3" timestamp="2011-06-07T20:47:48Z" uid="133332" user="AMDmi3" changeset="8374030">
    <nd ref="1108919573"/>
    <nd ref="1108920271"/>
    <nd ref="1108919283"/>
    <nd ref="1108919498"/>
    <nd ref="1108919573"/>
    <tag k="addr:city" v="Зеленоград"/>
    <tag k="addr:housenumber" v="913 с1"/>
    <tag k="addr:street" v="9-й микрорайон"/>
    <tag k="building" v="yes"/>
    <tag k="building:levels" v="1"/>
    <tag k="is_in" v="Russia"/>
  </way>
  <way id="95637919" version="4" timestamp="2011-09-13T10:29:16Z" uid="29320" user="Komяpa" changeset="9288237">
    <nd ref="1108919573"/>
    <nd ref="1108920271"/>
    <nd ref="1108919283"/>
    <nd ref="1108919498"/>
    <nd ref="1108919573"/>
    <tag k="addr:city" v="Зеленоград"/>
    <tag k="addr:country" v="RU"/>
    <tag k="addr:housenumber" v="913 с1"/>
    <tag k="addr:street" v="9-й микрорайон"/>
    <tag k="building" v="yes"/>
    <tag k="building:levels" v="1"/>
  </way>
  <way id="95637919" version="5" timestamp="2012-03-27T11:47:01Z" uid="481934" user="iWowik" changeset="11115472">
    <nd ref="1108919573"/>
    <nd ref="1108920271"/>
    <nd ref="1108919283"/>
    <nd ref="1108919498"/>
    <nd ref="1108919573"/>
    <tag k="addr:city" v="Зеленоград"/>
    <tag k="addr:country" v="RU"/>
    <tag k="addr:housenumber" v="913 с1"/>
    <tag k="addr:region" v="Москва"/>
    <tag k="addr:street" v="9-й микрорайон"/>
    <tag k="building" v="yes"/>
    <tag k="building:levels" v="1"/>
  </way>
  <way id="95637921" version="1" timestamp="2011-01-18T12:19:50Z" uid="115477" user="wowik" changeset="7009789">
    <nd ref="1108919340"/>
    <nd ref="1108919567"/>
    <nd ref="1108920268"/>
    <nd ref="1108919276"/>
    <nd ref="1108919340"/>
    <tag k="addr:city" v="Зеленоград"/>
    <tag k="addr:street" v="9-й Микрорайон"/>
    <tag k="building" v="yes"/>
    <tag k="building:levels" v="1"/>
    <tag k="is_in" v="Russia"/>
  </way>
  <way id="95637921" version="2" timestamp="2011-06-07T20:47:56Z" uid="133332" user="AMDmi3" changeset="8374030">
    <nd ref="1108919340"/>
    <nd ref="1108919567"/>
    <nd ref="1108920268"/>
    <nd ref="1108919276"/>
    <nd ref="1108919340"/>
    <tag k="addr:city" v="Зеленоград"/>
    <tag k="addr:street" v="9-й микрорайон"/>
    <tag k="building" v="yes"/>
    <tag k="building:levels" v="1"/>
    <tag k="is_in" v="Russia"/>
  </way>
  <way id="95637921" version="3" timestamp="2011-09-13T10:38:06Z" uid="29320" user="Komяpa" changeset="9288237">
    <nd ref="1108919340"/>
    <nd ref="1108919567"/>
    <nd ref="1108920268"/>
    <nd ref="1108919276"/>
    <nd ref="1108919340"/>
    <tag k="addr:city" v="Зеленоград"/>
    <tag k="addr:country" v="RU"/>
    <tag k="addr:street" v="9-й микрорайон"/>
    <tag k="building" v="yes"/>
    <tag k="building:levels" v="1"/>
  </way>
  <way id="95637921" version="4" timestamp="2012-03-27T11:51:18Z" uid="481934" user="iWowik" changeset="11115472">
    <nd ref="1108919340"/>
    <nd ref="1108919567"/>
    <nd ref="1108920268"/>
    <nd ref="1108919276"/>
    <nd ref="1108919340"/>
    <tag k="addr:city" v="Зеленоград"/>
    <tag k="addr:country" v="RU"/>
    <tag k="addr:region" v="Москва"/>
    <tag k="addr:street" v="9-й микрорайон"/>
    <tag k="building" v="yes"/>
    <tag k="building:levels" v="1"/>
  </way>
  <way id="95637922" version="1" timestamp="2011-01-18T12:19:50Z" uid="115477" user="wowik" changeset="7009789">
    <nd ref="1108919408"/>
    <nd ref="1108920131"/>
    <nd ref="1108919572"/>
    <nd ref="1108919652"/>
    <nd ref="1108919907"/>
    <nd ref="1108919352"/>
    <nd ref="1108919408"/>
    <tag k="addr:city" v="Зеленоград"/>
    <tag k="addr:housenumber" v="912с1"/>
    <tag k="addr:street" v="9-й Микрорайон"/>
    <tag k="building" v="yes"/>
    <tag k="building:levels" v="1"/>
    <tag k="is_in" v="Russia"/>
  </way>
  <way id="95637922" version="2" timestamp="2011-01-19T17:09:59Z" uid="70696" user="xybot" changeset="7021015">
    <nd ref="1108919408"/>
    <nd ref="1108920131"/>
    <nd ref="1108919572"/>
    <nd ref="1108919652"/>
    <nd ref="1108919907"/>
    <nd ref="1108919352"/>
    <nd ref="1108919408"/>
    <tag k="addr:city" v="Зеленоград"/>
    <tag k="addr:housenumber" v="912 с1"/>
    <tag k="addr:street" v="9-й Микрорайон"/>
    <tag k="building" v="yes"/>
    <tag k="building:levels" v="1"/>
    <tag k="is_in" v="Russia"/>
  </way>
  <way id="95637922" version="3" timestamp="2011-06-07T20:47:56Z" uid="133332" user="AMDmi3" changeset="8374030">
    <nd ref="1108919408"/>
    <nd ref="1108920131"/>
    <nd ref="1108919572"/>
    <nd ref="1108919652"/>
    <nd ref="1108919907"/>
    <nd ref="1108919352"/>
    <nd ref="1108919408"/>
    <tag k="addr:city" v="Зеленоград"/>
    <tag k="addr:housenumber" v="912 с1"/>
    <tag k="addr:street" v="9-й микрорайон"/>
    <tag k="building" v="yes"/>
    <tag k="building:levels" v="1"/>
    <tag k="is_in" v="Russia"/>
  </way>
  <way id="95637922" version="4" timestamp="2011-09-13T10:29:14Z" uid="29320" user="Komяpa" changeset="9288237">
    <nd ref="1108919408"/>
    <nd ref="1108920131"/>
    <nd ref="1108919572"/>
    <nd ref="1108919652"/>
    <nd ref="1108919907"/>
    <nd ref="1108919352"/>
    <nd ref="1108919408"/>
    <tag k="addr:city" v="Зеленоград"/>
    <tag k="addr:country" v="RU"/>
    <tag k="addr:housenumber" v="912 с1"/>
    <tag k="addr:street" v="9-й микрорайон"/>
    <tag k="building" v="yes"/>
    <tag k="building:levels" v="1"/>
  </way>
  <way id="95637922" version="5" timestamp="2012-03-27T11:47:00Z" uid="481934" user="iWowik" changeset="11115472">
    <nd ref="1108919408"/>
    <nd ref="1108920131"/>
    <nd ref="1108919572"/>
    <nd ref="1108919652"/>
    <nd ref="1108919907"/>
    <nd ref="1108919352"/>
    <nd ref="1108919408"/>
    <tag k="addr:city" v="Зеленоград"/>
    <tag k="addr:country" v="RU"/>
    <tag k="addr:housenumber" v="912 с1"/>
    <tag k="addr:region" v="Москва"/>
    <tag k="addr:street" v="9-й микрорайон"/>
    <tag k="building" v="yes"/>
    <tag k="building:levels" v="1"/>
  </way>
  <way id="95637923" version="1" timestamp="2011-01-18T12:19:51Z" uid="115477" user="wowik" changeset="7009789">
    <nd ref="1108919940"/>
    <nd ref="1108920346"/>
    <nd ref="648822108"/>
  </way>
  <way id="95637923" version="2" timestamp="2011-04-01T18:16:47Z" uid="115477" user="wowik" changeset="7737524">
    <nd ref="1108919940"/>
    <nd ref="1108920346"/>
    <nd ref="648822108"/>
    <tag k="highway" v="service"/>
    <tag k="living_street" v="yes"/>
  </way>
  <way id="95637923" version="3" timestamp="2011-05-12T16:37:20Z" uid="241531" user="dik_man" changeset="8123960">
    <nd ref="1108919940"/>
    <nd ref="1108920346"/>
    <nd ref="648822108"/>
    <tag k="highway" v="service"/>
    <tag k="living_street" v="yes"/>
    <tag k="service" v="alley"/>
  </way>
  <way id="95637924" version="1" timestamp="2011-01-18T12:19:51Z" uid="115477" user="wowik" changeset="7009789">
    <nd ref="1108919620"/>
    <nd ref="1108920294"/>
    <nd ref="1108919330"/>
    <nd ref="1108919545"/>
    <nd ref="1108919620"/>
    <tag k="addr:city" v="Зеленоград"/>
    <tag k="addr:housenumber" v="801с1"/>
    <tag k="addr:street" v="8-й Микрорайон"/>
    <tag k="building" v="yes"/>
    <tag k="building:levels" v="1"/>
    <tag k="is_in" v="Russia"/>
  </way>
  <way id="95637924" version="2" timestamp="2011-01-19T17:10:00Z" uid="70696" user="xybot" changeset="7021015">
    <nd ref="1108919620"/>
    <nd ref="1108920294"/>
    <nd ref="1108919330"/>
    <nd ref="1108919545"/>
    <nd ref="1108919620"/>
    <tag k="addr:city" v="Зеленоград"/>
    <tag k="addr:housenumber" v="801 с1"/>
    <tag k="addr:street" v="8-й Микрорайон"/>
    <tag k="building" v="yes"/>
    <tag k="building:levels" v="1"/>
    <tag k="is_in" v="Russia"/>
  </way>
  <way id="95637924" version="3" timestamp="2011-06-07T20:47:55Z" uid="133332" user="AMDmi3" changeset="8374030">
    <nd ref="1108919620"/>
    <nd ref="1108920294"/>
    <nd ref="1108919330"/>
    <nd ref="1108919545"/>
    <nd ref="1108919620"/>
    <tag k="addr:city" v="Зеленоград"/>
    <tag k="addr:housenumber" v="801 с1"/>
    <tag k="addr:street" v="8-й микрорайон"/>
    <tag k="building" v="yes"/>
    <tag k="building:levels" v="1"/>
    <tag k="is_in" v="Russia"/>
  </way>
  <way id="95637924" version="4" timestamp="2011-09-13T10:28:39Z" uid="29320" user="Komяpa" changeset="9288237">
    <nd ref="1108919620"/>
    <nd ref="1108920294"/>
    <nd ref="1108919330"/>
    <nd ref="1108919545"/>
    <nd ref="1108919620"/>
    <tag k="addr:city" v="Зеленоград"/>
    <tag k="addr:country" v="RU"/>
    <tag k="addr:housenumber" v="801 с1"/>
    <tag k="addr:street" v="8-й микрорайон"/>
    <tag k="building" v="yes"/>
    <tag k="building:levels" v="1"/>
  </way>
  <way id="95637924" version="5" timestamp="2012-03-27T11:46:14Z" uid="481934" user="iWowik" changeset="11115472">
    <nd ref="1108919620"/>
    <nd ref="1108920294"/>
    <nd ref="1108919330"/>
    <nd ref="1108919545"/>
    <nd ref="1108919620"/>
    <tag k="addr:city" v="Зеленоград"/>
    <tag k="addr:country" v="RU"/>
    <tag k="addr:housenumber" v="801 с1"/>
    <tag k="addr:region" v="Москва"/>
    <tag k="addr:street" v="8-й микрорайон"/>
    <tag k="building" v="yes"/>
    <tag k="building:levels" v="1"/>
  </way>
  <way id="95637927" version="1" timestamp="2011-01-18T12:19:52Z" uid="115477" user="wowik" changeset="7009789">
    <nd ref="1108919781"/>
    <nd ref="1108920089"/>
    <nd ref="1108919132"/>
    <nd ref="1108919369"/>
    <nd ref="1108919781"/>
    <tag k="addr:city" v="Зеленоград"/>
    <tag k="addr:housenumber" v="815А"/>
    <tag k="addr:street" v="8-й Микрорайон"/>
    <tag k="building" v="yes"/>
    <tag k="building:levels" v="1"/>
    <tag k="is_in" v="Russia"/>
  </way>
  <way id="95637927" version="2" timestamp="2011-06-07T20:47:55Z" uid="133332" user="AMDmi3" changeset="8374030">
    <nd ref="1108919781"/>
    <nd ref="1108920089"/>
    <nd ref="1108919132"/>
    <nd ref="1108919369"/>
    <nd ref="1108919781"/>
    <tag k="addr:city" v="Зеленоград"/>
    <tag k="addr:housenumber" v="815А"/>
    <tag k="addr:street" v="8-й микрорайон"/>
    <tag k="building" v="yes"/>
    <tag k="building:levels" v="1"/>
    <tag k="is_in" v="Russia"/>
  </way>
  <way id="95637927" version="3" timestamp="2011-09-13T10:28:47Z" uid="29320" user="Komяpa" changeset="9288237">
    <nd ref="1108919781"/>
    <nd ref="1108920089"/>
    <nd ref="1108919132"/>
    <nd ref="1108919369"/>
    <nd ref="1108919781"/>
    <tag k="addr:city" v="Зеленоград"/>
    <tag k="addr:country" v="RU"/>
    <tag k="addr:housenumber" v="815А"/>
    <tag k="addr:street" v="8-й микрорайон"/>
    <tag k="building" v="yes"/>
    <tag k="building:levels" v="1"/>
  </way>
  <way id="95637927" version="4" timestamp="2012-03-27T11:46:22Z" uid="481934" user="iWowik" changeset="11115472">
    <nd ref="1108919781"/>
    <nd ref="1108920089"/>
    <nd ref="1108919132"/>
    <nd ref="1108919369"/>
    <nd ref="1108919781"/>
    <tag k="addr:city" v="Зеленоград"/>
    <tag k="addr:country" v="RU"/>
    <tag k="addr:housenumber" v="815А"/>
    <tag k="addr:region" v="Москва"/>
    <tag k="addr:street" v="8-й микрорайон"/>
    <tag k="building" v="yes"/>
    <tag k="building:levels" v="1"/>
  </way>
  <way id="95637930" version="1" timestamp="2011-01-18T12:19:53Z" uid="115477" user="wowik" changeset="7009789">
    <nd ref="253212331"/>
    <nd ref="1037790154"/>
    <tag k="boundary" v="administrative"/>
  </way>
  <way id="95637930" version="2" timestamp="2011-07-11T21:00:41Z" uid="260756" user="Felis Pimeja" changeset="8697537">
    <nd ref="253212331"/>
    <nd ref="1037790154"/>
  </way>
  <way id="95637932" version="1" timestamp="2011-01-18T12:19:53Z" uid="115477" user="wowik" changeset="7009789">
    <nd ref="461008953"/>
    <nd ref="1108919541"/>
    <nd ref="1108919281"/>
    <nd ref="1108919614"/>
    <nd ref="1108920286"/>
    <nd ref="461009756"/>
    <nd ref="461009124"/>
    <nd ref="461009668"/>
    <nd ref="461008887"/>
    <nd ref="461009658"/>
    <nd ref="461008953"/>
    <tag k="addr:city" v="Зеленоград"/>
    <tag k="addr:street" v="8-й Микрорайон"/>
    <tag k="amenity" v="school"/>
    <tag k="building" v="yes"/>
    <tag k="building:levels" v="3"/>
    <tag k="is_in" v="Russia"/>
  </way>
  <way id="95637932" version="2" timestamp="2011-06-07T20:47:57Z" uid="133332" user="AMDmi3" changeset="8374030">
    <nd ref="461008953"/>
    <nd ref="1108919541"/>
    <nd ref="1108919281"/>
    <nd ref="1108919614"/>
    <nd ref="1108920286"/>
    <nd ref="461009756"/>
    <nd ref="461009124"/>
    <nd ref="461009668"/>
    <nd ref="461008887"/>
    <nd ref="461009658"/>
    <nd ref="461008953"/>
    <tag k="addr:city" v="Зеленоград"/>
    <tag k="addr:street" v="8-й микрорайон"/>
    <tag k="amenity" v="school"/>
    <tag k="building" v="yes"/>
    <tag k="building:levels" v="3"/>
    <tag k="is_in" v="Russia"/>
  </way>
  <way id="95637932" version="3" timestamp="2011-09-13T10:38:06Z" uid="29320" user="Komяpa" changeset="9288237">
    <nd ref="461008953"/>
    <nd ref="1108919541"/>
    <nd ref="1108919281"/>
    <nd ref="1108919614"/>
    <nd ref="1108920286"/>
    <nd ref="461009756"/>
    <nd ref="461009124"/>
    <nd ref="461009668"/>
    <nd ref="461008887"/>
    <nd ref="461009658"/>
    <nd ref="461008953"/>
    <tag k="addr:city" v="Зеленоград"/>
    <tag k="addr:country" v="RU"/>
    <tag k="addr:street" v="8-й микрорайон"/>
    <tag k="amenity" v="school"/>
    <tag k="building" v="yes"/>
    <tag k="building:levels" v="3"/>
  </way>
  <way id="95637932" version="4" timestamp="2012-03-27T11:48:43Z" uid="481934" user="iWowik" changeset="11115472">
    <nd ref="461008953"/>
    <nd ref="1108919541"/>
    <nd ref="1108919281"/>
    <nd ref="1108919614"/>
    <nd ref="1108920286"/>
    <nd ref="461009756"/>
    <nd ref="461009124"/>
    <nd ref="461009668"/>
    <nd ref="461008887"/>
    <nd ref="461009658"/>
    <nd ref="461008953"/>
    <tag k="addr:city" v="Зеленоград"/>
    <tag k="addr:country" v="RU"/>
    <tag k="addr:region" v="Москва"/>
    <tag k="addr:street" v="8-й микрорайон"/>
    <tag k="amenity" v="school"/>
    <tag k="building" v="yes"/>
    <tag k="building:levels" v="3"/>
  </way>
  <way id="95637940" version="1" timestamp="2011-01-18T12:19:55Z" uid="115477" user="wowik" changeset="7009789">
    <nd ref="1108919243"/>
    <nd ref="1108919461"/>
    <nd ref="1108919415"/>
    <nd ref="1108919911"/>
    <nd ref="1108919718"/>
    <nd ref="1108919991"/>
    <nd ref="1108919243"/>
    <tag k="addr:city" v="Зеленоград"/>
    <tag k="addr:housenumber" v="802с1"/>
    <tag k="addr:street" v="8-й Микрорайон"/>
    <tag k="building" v="yes"/>
    <tag k="building:levels" v="1"/>
    <tag k="is_in" v="Russia"/>
  </way>
  <way id="95637940" version="2" timestamp="2011-01-19T17:10:01Z" uid="70696" user="xybot" changeset="7021015">
    <nd ref="1108919243"/>
    <nd ref="1108919461"/>
    <nd ref="1108919415"/>
    <nd ref="1108919911"/>
    <nd ref="1108919718"/>
    <nd ref="1108919991"/>
    <nd ref="1108919243"/>
    <tag k="addr:city" v="Зеленоград"/>
    <tag k="addr:housenumber" v="802 с1"/>
    <tag k="addr:street" v="8-й Микрорайон"/>
    <tag k="building" v="yes"/>
    <tag k="building:levels" v="1"/>
    <tag k="is_in" v="Russia"/>
  </way>
  <way id="95637940" version="3" timestamp="2011-06-07T20:47:52Z" uid="133332" user="AMDmi3" changeset="8374030">
    <nd ref="1108919243"/>
    <nd ref="1108919461"/>
    <nd ref="1108919415"/>
    <nd ref="1108919911"/>
    <nd ref="1108919718"/>
    <nd ref="1108919991"/>
    <nd ref="1108919243"/>
    <tag k="addr:city" v="Зеленоград"/>
    <tag k="addr:housenumber" v="802 с1"/>
    <tag k="addr:street" v="8-й микрорайон"/>
    <tag k="building" v="yes"/>
    <tag k="building:levels" v="1"/>
    <tag k="is_in" v="Russia"/>
  </way>
  <way id="95637940" version="4" timestamp="2011-09-13T10:28:40Z" uid="29320" user="Komяpa" changeset="9288237">
    <nd ref="1108919243"/>
    <nd ref="1108919461"/>
    <nd ref="1108919415"/>
    <nd ref="1108919911"/>
    <nd ref="1108919718"/>
    <nd ref="1108919991"/>
    <nd ref="1108919243"/>
    <tag k="addr:city" v="Зеленоград"/>
    <tag k="addr:country" v="RU"/>
    <tag k="addr:housenumber" v="802 с1"/>
    <tag k="addr:street" v="8-й микрорайон"/>
    <tag k="building" v="yes"/>
    <tag k="building:levels" v="1"/>
  </way>
  <way id="95637940" version="5" timestamp="2012-03-27T11:46:14Z" uid="481934" user="iWowik" changeset="11115472">
    <nd ref="1108919243"/>
    <nd ref="1108919461"/>
    <nd ref="1108919415"/>
    <nd ref="1108919911"/>
    <nd ref="1108919718"/>
    <nd ref="1108919991"/>
    <nd ref="1108919243"/>
    <tag k="addr:city" v="Зеленоград"/>
    <tag k="addr:country" v="RU"/>
    <tag k="addr:housenumber" v="802 с1"/>
    <tag k="addr:region" v="Москва"/>
    <tag k="addr:street" v="8-й микрорайон"/>
    <tag k="building" v="yes"/>
    <tag k="building:levels" v="1"/>
  </way>
  <way id="95637945" version="1" timestamp="2011-01-18T12:19:56Z" uid="115477" user="wowik" changeset="7009789">
    <nd ref="1108919391"/>
    <nd ref="1108919640"/>
    <nd ref="1108920316"/>
    <nd ref="1108919337"/>
    <nd ref="1108919391"/>
    <tag k="addr:city" v="Зеленоград"/>
    <tag k="addr:housenumber" v="812А"/>
    <tag k="addr:street" v="8-й Микрорайон"/>
    <tag k="building" v="yes"/>
    <tag k="building:levels" v="1"/>
    <tag k="is_in" v="Russia"/>
  </way>
  <way id="95637945" version="2" timestamp="2011-06-07T20:47:55Z" uid="133332" user="AMDmi3" changeset="8374030">
    <nd ref="1108919391"/>
    <nd ref="1108919640"/>
    <nd ref="1108920316"/>
    <nd ref="1108919337"/>
    <nd ref="1108919391"/>
    <tag k="addr:city" v="Зеленоград"/>
    <tag k="addr:housenumber" v="812А"/>
    <tag k="addr:street" v="8-й микрорайон"/>
    <tag k="building" v="yes"/>
    <tag k="building:levels" v="1"/>
    <tag k="is_in" v="Russia"/>
  </way>
  <way id="95637945" version="3" timestamp="2011-09-13T10:28:44Z" uid="29320" user="Komяpa" changeset="9288237">
    <nd ref="1108919391"/>
    <nd ref="1108919640"/>
    <nd ref="1108920316"/>
    <nd ref="1108919337"/>
    <nd ref="1108919391"/>
    <tag k="addr:city" v="Зеленоград"/>
    <tag k="addr:country" v="RU"/>
    <tag k="addr:housenumber" v="812А"/>
    <tag k="addr:street" v="8-й микрорайон"/>
    <tag k="building" v="yes"/>
    <tag k="building:levels" v="1"/>
  </way>
  <way id="95637945" version="4" timestamp="2012-03-27T11:46:19Z" uid="481934" user="iWowik" changeset="11115472">
    <nd ref="1108919391"/>
    <nd ref="1108919640"/>
    <nd ref="1108920316"/>
    <nd ref="1108919337"/>
    <nd ref="1108919391"/>
    <tag k="addr:city" v="Зеленоград"/>
    <tag k="addr:country" v="RU"/>
    <tag k="addr:housenumber" v="812А"/>
    <tag k="addr:region" v="Москва"/>
    <tag k="addr:street" v="8-й микрорайон"/>
    <tag k="building" v="yes"/>
    <tag k="building:levels" v="1"/>
  </way>
  <way id="95637946" version="1" timestamp="2011-01-18T12:19:57Z" uid="115477" user="wowik" changeset="7009789">
    <nd ref="1108920088"/>
    <nd ref="1108920035"/>
    <nd ref="1108920326"/>
    <nd ref="1108919344"/>
    <nd ref="1108920088"/>
    <tag k="addr:city" v="Зеленоград"/>
    <tag k="addr:housenumber" v="901А"/>
    <tag k="addr:street" v="9-й Микрорайон"/>
    <tag k="building" v="yes"/>
    <tag k="building:levels" v="1"/>
    <tag k="is_in" v="Russia"/>
  </way>
  <way id="95637946" version="2" timestamp="2011-06-07T20:47:55Z" uid="133332" user="AMDmi3" changeset="8374030">
    <nd ref="1108920088"/>
    <nd ref="1108920035"/>
    <nd ref="1108920326"/>
    <nd ref="1108919344"/>
    <nd ref="1108920088"/>
    <tag k="addr:city" v="Зеленоград"/>
    <tag k="addr:housenumber" v="901А"/>
    <tag k="addr:street" v="9-й микрорайон"/>
    <tag k="building" v="yes"/>
    <tag k="building:levels" v="1"/>
    <tag k="is_in" v="Russia"/>
  </way>
  <way id="95637946" version="3" timestamp="2011-09-13T10:29:09Z" uid="29320" user="Komяpa" changeset="9288237">
    <nd ref="1108920088"/>
    <nd ref="1108920035"/>
    <nd ref="1108920326"/>
    <nd ref="1108919344"/>
    <nd ref="1108920088"/>
    <tag k="addr:city" v="Зеленоград"/>
    <tag k="addr:country" v="RU"/>
    <tag k="addr:housenumber" v="901А"/>
    <tag k="addr:street" v="9-й микрорайон"/>
    <tag k="building" v="yes"/>
    <tag k="building:levels" v="1"/>
  </way>
  <way id="95637946" version="4" timestamp="2012-03-27T11:46:54Z" uid="481934" user="iWowik" changeset="11115472">
    <nd ref="1108920088"/>
    <nd ref="1108920035"/>
    <nd ref="1108920326"/>
    <nd ref="1108919344"/>
    <nd ref="1108920088"/>
    <tag k="addr:city" v="Зеленоград"/>
    <tag k="addr:country" v="RU"/>
    <tag k="addr:housenumber" v="901А"/>
    <tag k="addr:region" v="Москва"/>
    <tag k="addr:street" v="9-й микрорайон"/>
    <tag k="building" v="yes"/>
    <tag k="building:levels" v="1"/>
  </way>
  <way id="95637950" version="1" timestamp="2011-01-18T12:19:57Z" uid="115477" user="wowik" changeset="7009789">
    <nd ref="1108919332"/>
    <nd ref="1108919561"/>
    <nd ref="1108919469"/>
    <nd ref="1108920247"/>
    <nd ref="1108919457"/>
    <nd ref="1108919253"/>
    <nd ref="1108919332"/>
    <tag k="addr:city" v="Зеленоград"/>
    <tag k="addr:housenumber" v="920с1"/>
    <tag k="addr:street" v="9-й Микрорайон"/>
    <tag k="building" v="yes"/>
    <tag k="building:levels" v="1"/>
    <tag k="is_in" v="Russia"/>
  </way>
  <way id="95637950" version="2" timestamp="2011-01-19T17:10:02Z" uid="70696" user="xybot" changeset="7021015">
    <nd ref="1108919332"/>
    <nd ref="1108919561"/>
    <nd ref="1108919469"/>
    <nd ref="1108920247"/>
    <nd ref="1108919457"/>
    <nd ref="1108919253"/>
    <nd ref="1108919332"/>
    <tag k="addr:city" v="Зеленоград"/>
    <tag k="addr:housenumber" v="920 с1"/>
    <tag k="addr:street" v="9-й Микрорайон"/>
    <tag k="building" v="yes"/>
    <tag k="building:levels" v="1"/>
    <tag k="is_in" v="Russia"/>
  </way>
  <way id="95637950" version="3" timestamp="2011-06-07T20:47:53Z" uid="133332" user="AMDmi3" changeset="8374030">
    <nd ref="1108919332"/>
    <nd ref="1108919561"/>
    <nd ref="1108919469"/>
    <nd ref="1108920247"/>
    <nd ref="1108919457"/>
    <nd ref="1108919253"/>
    <nd ref="1108919332"/>
    <tag k="addr:city" v="Зеленоград"/>
    <tag k="addr:housenumber" v="920 с1"/>
    <tag k="addr:street" v="9-й микрорайон"/>
    <tag k="building" v="yes"/>
    <tag k="building:levels" v="1"/>
    <tag k="is_in" v="Russia"/>
  </way>
  <way id="95637950" version="4" timestamp="2011-09-13T10:29:20Z" uid="29320" user="Komяpa" changeset="9288237">
    <nd ref="1108919332"/>
    <nd ref="1108919561"/>
    <nd ref="1108919469"/>
    <nd ref="1108920247"/>
    <nd ref="1108919457"/>
    <nd ref="1108919253"/>
    <nd ref="1108919332"/>
    <tag k="addr:city" v="Зеленоград"/>
    <tag k="addr:country" v="RU"/>
    <tag k="addr:housenumber" v="920 с1"/>
    <tag k="addr:street" v="9-й микрорайон"/>
    <tag k="building" v="yes"/>
    <tag k="building:levels" v="1"/>
  </way>
  <way id="95637950" version="5" timestamp="2012-03-27T11:47:06Z" uid="481934" user="iWowik" changeset="11115472">
    <nd ref="1108919332"/>
    <nd ref="1108919561"/>
    <nd ref="1108919469"/>
    <nd ref="1108920247"/>
    <nd ref="1108919457"/>
    <nd ref="1108919253"/>
    <nd ref="1108919332"/>
    <tag k="addr:city" v="Зеленоград"/>
    <tag k="addr:country" v="RU"/>
    <tag k="addr:housenumber" v="920 с1"/>
    <tag k="addr:region" v="Москва"/>
    <tag k="addr:street" v="9-й микрорайон"/>
    <tag k="building" v="yes"/>
    <tag k="building:levels" v="1"/>
  </way>
  <way id="95637952" version="1" timestamp="2011-01-18T12:19:59Z" uid="115477" user="wowik" changeset="7009789">
    <nd ref="1108919714"/>
    <nd ref="1108919980"/>
    <nd ref="1108920282"/>
    <nd ref="1108919300"/>
    <nd ref="1108919714"/>
    <tag k="addr:city" v="Зеленоград"/>
    <tag k="addr:housenumber" v="803А"/>
    <tag k="addr:street" v="8-й Микрорайон"/>
    <tag k="building" v="yes"/>
    <tag k="building:levels" v="1"/>
    <tag k="is_in" v="Russia"/>
  </way>
  <way id="95637952" version="2" timestamp="2011-06-07T20:47:39Z" uid="133332" user="AMDmi3" changeset="8374030">
    <nd ref="1108919714"/>
    <nd ref="1108919980"/>
    <nd ref="1108920282"/>
    <nd ref="1108919300"/>
    <nd ref="1108919714"/>
    <tag k="addr:city" v="Зеленоград"/>
    <tag k="addr:housenumber" v="803А"/>
    <tag k="addr:street" v="8-й микрорайон"/>
    <tag k="building" v="yes"/>
    <tag k="building:levels" v="1"/>
    <tag k="is_in" v="Russia"/>
  </way>
  <way id="95637952" version="3" timestamp="2011-09-13T10:28:41Z" uid="29320" user="Komяpa" changeset="9288237">
    <nd ref="1108919714"/>
    <nd ref="1108919980"/>
    <nd ref="1108920282"/>
    <nd ref="1108919300"/>
    <nd ref="1108919714"/>
    <tag k="addr:city" v="Зеленоград"/>
    <tag k="addr:country" v="RU"/>
    <tag k="addr:housenumber" v="803А"/>
    <tag k="addr:street" v="8-й микрорайон"/>
    <tag k="building" v="yes"/>
    <tag k="building:levels" v="1"/>
  </way>
  <way id="95637952" version="4" timestamp="2012-03-27T11:46:16Z" uid="481934" user="iWowik" changeset="11115472">
    <nd ref="1108919714"/>
    <nd ref="1108919980"/>
    <nd ref="1108920282"/>
    <nd ref="1108919300"/>
    <nd ref="1108919714"/>
    <tag k="addr:city" v="Зеленоград"/>
    <tag k="addr:country" v="RU"/>
    <tag k="addr:housenumber" v="803А"/>
    <tag k="addr:region" v="Москва"/>
    <tag k="addr:street" v="8-й микрорайон"/>
    <tag k="building" v="yes"/>
    <tag k="building:levels" v="1"/>
  </way>
  <way id="95637953" version="1" timestamp="2011-01-18T12:19:59Z" uid="115477" user="wowik" changeset="7009789">
    <nd ref="1108919271"/>
    <nd ref="1108919488"/>
    <nd ref="1108919745"/>
    <nd ref="1108920033"/>
    <nd ref="1108919271"/>
    <tag k="addr:city" v="Зеленоград"/>
    <tag k="addr:housenumber" v="813с1"/>
    <tag k="addr:street" v="8-й Микрорайон"/>
    <tag k="building" v="yes"/>
    <tag k="building:levels" v="1"/>
    <tag k="is_in" v="Russia"/>
  </way>
  <way id="95637953" version="2" timestamp="2011-01-19T17:10:03Z" uid="70696" user="xybot" changeset="7021015">
    <nd ref="1108919271"/>
    <nd ref="1108919488"/>
    <nd ref="1108919745"/>
    <nd ref="1108920033"/>
    <nd ref="1108919271"/>
    <tag k="addr:city" v="Зеленоград"/>
    <tag k="addr:housenumber" v="813 с1"/>
    <tag k="addr:street" v="8-й Микрорайон"/>
    <tag k="building" v="yes"/>
    <tag k="building:levels" v="1"/>
    <tag k="is_in" v="Russia"/>
  </way>
  <way id="95637953" version="3" timestamp="2011-06-07T20:47:38Z" uid="133332" user="AMDmi3" changeset="8374030">
    <nd ref="1108919271"/>
    <nd ref="1108919488"/>
    <nd ref="1108919745"/>
    <nd ref="1108920033"/>
    <nd ref="1108919271"/>
    <tag k="addr:city" v="Зеленоград"/>
    <tag k="addr:housenumber" v="813 с1"/>
    <tag k="addr:street" v="8-й микрорайон"/>
    <tag k="building" v="yes"/>
    <tag k="building:levels" v="1"/>
    <tag k="is_in" v="Russia"/>
  </way>
  <way id="95637953" version="4" timestamp="2011-09-13T10:28:45Z" uid="29320" user="Komяpa" changeset="9288237">
    <nd ref="1108919271"/>
    <nd ref="1108919488"/>
    <nd ref="1108919745"/>
    <nd ref="1108920033"/>
    <nd ref="1108919271"/>
    <tag k="addr:city" v="Зеленоград"/>
    <tag k="addr:country" v="RU"/>
    <tag k="addr:housenumber" v="813 с1"/>
    <tag k="addr:street" v="8-й микрорайон"/>
    <tag k="building" v="yes"/>
    <tag k="building:levels" v="1"/>
  </way>
  <way id="95637953" version="5" timestamp="2012-03-27T11:46:20Z" uid="481934" user="iWowik" changeset="11115472">
    <nd ref="1108919271"/>
    <nd ref="1108919488"/>
    <nd ref="1108919745"/>
    <nd ref="1108920033"/>
    <nd ref="1108919271"/>
    <tag k="addr:city" v="Зеленоград"/>
    <tag k="addr:country" v="RU"/>
    <tag k="addr:housenumber" v="813 с1"/>
    <tag k="addr:region" v="Москва"/>
    <tag k="addr:street" v="8-й микрорайон"/>
    <tag k="building" v="yes"/>
    <tag k="building:levels" v="1"/>
  </way>
  <way id="95637955" version="1" timestamp="2011-01-18T12:20:01Z" uid="115477" user="wowik" changeset="7009789">
    <nd ref="1108919289"/>
    <nd ref="1108919504"/>
    <nd ref="1108920201"/>
    <nd ref="1108919220"/>
    <nd ref="1108919289"/>
    <tag k="addr:city" v="Зеленоград"/>
    <tag k="addr:housenumber" v="813Ас2"/>
    <tag k="addr:street" v="8-й Микрорайон"/>
    <tag k="building" v="yes"/>
    <tag k="building:levels" v="1"/>
    <tag k="is_in" v="Russia"/>
  </way>
  <way id="95637955" version="2" timestamp="2011-01-19T18:06:45Z" uid="70696" user="xybot" changeset="7022960">
    <nd ref="1108919289"/>
    <nd ref="1108919504"/>
    <nd ref="1108920201"/>
    <nd ref="1108919220"/>
    <nd ref="1108919289"/>
    <tag k="addr:city" v="Зеленоград"/>
    <tag k="addr:housenumber" v="813А с2"/>
    <tag k="addr:street" v="8-й Микрорайон"/>
    <tag k="building" v="yes"/>
    <tag k="building:levels" v="1"/>
    <tag k="is_in" v="Russia"/>
  </way>
  <way id="95637955" version="3" timestamp="2011-06-07T20:47:39Z" uid="133332" user="AMDmi3" changeset="8374030">
    <nd ref="1108919289"/>
    <nd ref="1108919504"/>
    <nd ref="1108920201"/>
    <nd ref="1108919220"/>
    <nd ref="1108919289"/>
    <tag k="addr:city" v="Зеленоград"/>
    <tag k="addr:housenumber" v="813А с2"/>
    <tag k="addr:street" v="8-й микрорайон"/>
    <tag k="building" v="yes"/>
    <tag k="building:levels" v="1"/>
    <tag k="is_in" v="Russia"/>
  </way>
  <way id="95637955" version="4" timestamp="2011-09-13T10:28:46Z" uid="29320" user="Komяpa" changeset="9288237">
    <nd ref="1108919289"/>
    <nd ref="1108919504"/>
    <nd ref="1108920201"/>
    <nd ref="1108919220"/>
    <nd ref="1108919289"/>
    <tag k="addr:city" v="Зеленоград"/>
    <tag k="addr:country" v="RU"/>
    <tag k="addr:housenumber" v="813А с2"/>
    <tag k="addr:street" v="8-й микрорайон"/>
    <tag k="building" v="yes"/>
    <tag k="building:levels" v="1"/>
  </way>
  <way id="95637955" version="5" timestamp="2012-03-27T11:46:20Z" uid="481934" user="iWowik" changeset="11115472">
    <nd ref="1108919289"/>
    <nd ref="1108919504"/>
    <nd ref="1108920201"/>
    <nd ref="1108919220"/>
    <nd ref="1108919289"/>
    <tag k="addr:city" v="Зеленоград"/>
    <tag k="addr:country" v="RU"/>
    <tag k="addr:housenumber" v="813А с2"/>
    <tag k="addr:region" v="Москва"/>
    <tag k="addr:street" v="8-й микрорайон"/>
    <tag k="building" v="yes"/>
    <tag k="building:levels" v="1"/>
  </way>
  <way id="95637956" version="1" timestamp="2011-01-18T12:20:01Z" uid="115477" user="wowik" changeset="7009789">
    <nd ref="1108919209"/>
    <nd ref="1108919437"/>
    <nd ref="1108919677"/>
    <nd ref="1108919129"/>
    <nd ref="1108919209"/>
    <tag k="addr:city" v="Зеленоград"/>
    <tag k="addr:housenumber" v="901с1"/>
    <tag k="addr:street" v="9-й Микрорайон"/>
    <tag k="building" v="yes"/>
    <tag k="building:levels" v="1"/>
    <tag k="is_in" v="Russia"/>
  </way>
  <way id="95637956" version="2" timestamp="2011-01-19T17:10:04Z" uid="70696" user="xybot" changeset="7021015">
    <nd ref="1108919209"/>
    <nd ref="1108919437"/>
    <nd ref="1108919677"/>
    <nd ref="1108919129"/>
    <nd ref="1108919209"/>
    <tag k="addr:city" v="Зеленоград"/>
    <tag k="addr:housenumber" v="901 с1"/>
    <tag k="addr:street" v="9-й Микрорайон"/>
    <tag k="building" v="yes"/>
    <tag k="building:levels" v="1"/>
    <tag k="is_in" v="Russia"/>
  </way>
  <way id="95637956" version="3" timestamp="2011-06-07T20:47:39Z" uid="133332" user="AMDmi3" changeset="8374030">
    <nd ref="1108919209"/>
    <nd ref="1108919437"/>
    <nd ref="1108919677"/>
    <nd ref="1108919129"/>
    <nd ref="1108919209"/>
    <tag k="addr:city" v="Зеленоград"/>
    <tag k="addr:housenumber" v="901 с1"/>
    <tag k="addr:street" v="9-й микрорайон"/>
    <tag k="building" v="yes"/>
    <tag k="building:levels" v="1"/>
    <tag k="is_in" v="Russia"/>
  </way>
  <way id="95637956" version="4" timestamp="2011-09-13T10:29:09Z" uid="29320" user="Komяpa" changeset="9288237">
    <nd ref="1108919209"/>
    <nd ref="1108919437"/>
    <nd ref="1108919677"/>
    <nd ref="1108919129"/>
    <nd ref="1108919209"/>
    <tag k="addr:city" v="Зеленоград"/>
    <tag k="addr:country" v="RU"/>
    <tag k="addr:housenumber" v="901 с1"/>
    <tag k="addr:street" v="9-й микрорайон"/>
    <tag k="building" v="yes"/>
    <tag k="building:levels" v="1"/>
  </way>
  <way id="95637956" version="5" timestamp="2012-03-27T11:46:53Z" uid="481934" user="iWowik" changeset="11115472">
    <nd ref="1108919209"/>
    <nd ref="1108919437"/>
    <nd ref="1108919677"/>
    <nd ref="1108919129"/>
    <nd ref="1108919209"/>
    <tag k="addr:city" v="Зеленоград"/>
    <tag k="addr:country" v="RU"/>
    <tag k="addr:housenumber" v="901 с1"/>
    <tag k="addr:region" v="Москва"/>
    <tag k="addr:street" v="9-й микрорайон"/>
    <tag k="building" v="yes"/>
    <tag k="building:levels" v="1"/>
  </way>
  <way id="95637958" version="1" timestamp="2011-01-18T12:20:03Z" uid="115477" user="wowik" changeset="7009789">
    <nd ref="1108919507"/>
    <nd ref="1108919864"/>
    <nd ref="1108919422"/>
    <nd ref="1108919368"/>
    <nd ref="1108919507"/>
    <tag k="addr:city" v="Зеленоград"/>
    <tag k="amenity" v="school"/>
    <tag k="building" v="yes"/>
    <tag k="building:levels" v="1"/>
    <tag k="is_in" v="Russia"/>
  </way>
  <way id="95637958" version="2" timestamp="2011-09-13T10:38:06Z" uid="29320" user="Komяpa" changeset="9288237">
    <nd ref="1108919507"/>
    <nd ref="1108919864"/>
    <nd ref="1108919422"/>
    <nd ref="1108919368"/>
    <nd ref="1108919507"/>
    <tag k="addr:city" v="Зеленоград"/>
    <tag k="addr:country" v="RU"/>
    <tag k="amenity" v="school"/>
    <tag k="building" v="yes"/>
    <tag k="building:levels" v="1"/>
  </way>
  <way id="95637958" version="3" timestamp="2012-03-27T11:53:57Z" uid="481934" user="iWowik" changeset="11115472">
    <nd ref="1108919507"/>
    <nd ref="1108919864"/>
    <nd ref="1108919422"/>
    <nd ref="1108919368"/>
    <nd ref="1108919507"/>
    <tag k="addr:city" v="Зеленоград"/>
    <tag k="addr:country" v="RU"/>
    <tag k="addr:region" v="Москва"/>
    <tag k="amenity" v="school"/>
    <tag k="building" v="yes"/>
    <tag k="building:levels" v="1"/>
  </way>
  <way id="95637959" version="1" timestamp="2011-01-18T12:20:04Z" uid="115477" user="wowik" changeset="7009789">
    <nd ref="1108919342"/>
    <nd ref="1108919829"/>
    <nd ref="1108919749"/>
    <nd ref="1108919678"/>
    <nd ref="1108919342"/>
    <tag k="addr:city" v="Зеленоград"/>
    <tag k="addr:street" v="9-й Микрорайон"/>
    <tag k="amenity" v="school"/>
    <tag k="building" v="yes"/>
    <tag k="building:levels" v="1"/>
    <tag k="is_in" v="Russia"/>
  </way>
  <way id="95637959" version="2" timestamp="2011-06-07T20:47:40Z" uid="133332" user="AMDmi3" changeset="8374030">
    <nd ref="1108919342"/>
    <nd ref="1108919829"/>
    <nd ref="1108919749"/>
    <nd ref="1108919678"/>
    <nd ref="1108919342"/>
    <tag k="addr:city" v="Зеленоград"/>
    <tag k="addr:street" v="9-й микрорайон"/>
    <tag k="amenity" v="school"/>
    <tag k="building" v="yes"/>
    <tag k="building:levels" v="1"/>
    <tag k="is_in" v="Russia"/>
  </way>
  <way id="95637959" version="3" timestamp="2011-09-13T10:38:07Z" uid="29320" user="Komяpa" changeset="9288237">
    <nd ref="1108919342"/>
    <nd ref="1108919829"/>
    <nd ref="1108919749"/>
    <nd ref="1108919678"/>
    <nd ref="1108919342"/>
    <tag k="addr:city" v="Зеленоград"/>
    <tag k="addr:country" v="RU"/>
    <tag k="addr:street" v="9-й микрорайон"/>
    <tag k="amenity" v="school"/>
    <tag k="building" v="yes"/>
    <tag k="building:levels" v="1"/>
  </way>
  <way id="95637959" version="4" timestamp="2012-03-27T11:51:25Z" uid="481934" user="iWowik" changeset="11115472">
    <nd ref="1108919342"/>
    <nd ref="1108919829"/>
    <nd ref="1108919749"/>
    <nd ref="1108919678"/>
    <nd ref="1108919342"/>
    <tag k="addr:city" v="Зеленоград"/>
    <tag k="addr:country" v="RU"/>
    <tag k="addr:region" v="Москва"/>
    <tag k="addr:street" v="9-й микрорайон"/>
    <tag k="amenity" v="school"/>
    <tag k="building" v="yes"/>
    <tag k="building:levels" v="1"/>
  </way>
  <way id="95637960" version="1" timestamp="2011-01-18T12:20:05Z" uid="115477" user="wowik" changeset="7009789">
    <nd ref="1108919153"/>
    <nd ref="1108919383"/>
    <nd ref="1108919618"/>
    <nd ref="1108919827"/>
    <nd ref="1108919153"/>
    <tag k="addr:city" v="Зеленоград"/>
    <tag k="addr:street" v="9-й Микрорайон"/>
    <tag k="building" v="yes"/>
    <tag k="building:levels" v="1"/>
    <tag k="is_in" v="Russia"/>
  </way>
  <way id="95637960" version="2" timestamp="2011-06-07T20:47:40Z" uid="133332" user="AMDmi3" changeset="8374030">
    <nd ref="1108919153"/>
    <nd ref="1108919383"/>
    <nd ref="1108919618"/>
    <nd ref="1108919827"/>
    <nd ref="1108919153"/>
    <tag k="addr:city" v="Зеленоград"/>
    <tag k="addr:street" v="9-й микрорайон"/>
    <tag k="building" v="yes"/>
    <tag k="building:levels" v="1"/>
    <tag k="is_in" v="Russia"/>
  </way>
  <way id="95637960" version="3" timestamp="2011-09-13T10:38:07Z" uid="29320" user="Komяpa" changeset="9288237">
    <nd ref="1108919153"/>
    <nd ref="1108919383"/>
    <nd ref="1108919618"/>
    <nd ref="1108919827"/>
    <nd ref="1108919153"/>
    <tag k="addr:city" v="Зеленоград"/>
    <tag k="addr:country" v="RU"/>
    <tag k="addr:street" v="9-й микрорайон"/>
    <tag k="building" v="yes"/>
    <tag k="building:levels" v="1"/>
  </way>
  <way id="95637960" version="4" timestamp="2012-03-27T11:50:27Z" uid="481934" user="iWowik" changeset="11115472">
    <nd ref="1108919153"/>
    <nd ref="1108919383"/>
    <nd ref="1108919618"/>
    <nd ref="1108919827"/>
    <nd ref="1108919153"/>
    <tag k="addr:city" v="Зеленоград"/>
    <tag k="addr:country" v="RU"/>
    <tag k="addr:region" v="Москва"/>
    <tag k="addr:street" v="9-й микрорайон"/>
    <tag k="building" v="yes"/>
    <tag k="building:levels" v="1"/>
  </way>
  <way id="95637961" version="1" timestamp="2011-01-18T12:20:06Z" uid="115477" user="wowik" changeset="7009789">
    <nd ref="1108920249"/>
    <nd ref="1108919266"/>
    <nd ref="1108919486"/>
    <nd ref="1108919741"/>
    <nd ref="1108920249"/>
    <tag k="addr:city" v="Зеленоград"/>
    <tag k="addr:housenumber" v="807А"/>
    <tag k="addr:street" v="8-й Микрорайон"/>
    <tag k="building" v="yes"/>
    <tag k="building:levels" v="1"/>
    <tag k="is_in" v="Russia"/>
  </way>
  <way id="95637961" version="2" timestamp="2011-06-07T20:47:40Z" uid="133332" user="AMDmi3" changeset="8374030">
    <nd ref="1108920249"/>
    <nd ref="1108919266"/>
    <nd ref="1108919486"/>
    <nd ref="1108919741"/>
    <nd ref="1108920249"/>
    <tag k="addr:city" v="Зеленоград"/>
    <tag k="addr:housenumber" v="807А"/>
    <tag k="addr:street" v="8-й микрорайон"/>
    <tag k="building" v="yes"/>
    <tag k="building:levels" v="1"/>
    <tag k="is_in" v="Russia"/>
  </way>
  <way id="95637961" version="3" timestamp="2011-09-13T10:28:42Z" uid="29320" user="Komяpa" changeset="9288237">
    <nd ref="1108920249"/>
    <nd ref="1108919266"/>
    <nd ref="1108919486"/>
    <nd ref="1108919741"/>
    <nd ref="1108920249"/>
    <tag k="addr:city" v="Зеленоград"/>
    <tag k="addr:country" v="RU"/>
    <tag k="addr:housenumber" v="807А"/>
    <tag k="addr:street" v="8-й микрорайон"/>
    <tag k="building" v="yes"/>
    <tag k="building:levels" v="1"/>
  </way>
  <way id="95637961" version="4" timestamp="2012-03-27T11:46:17Z" uid="481934" user="iWowik" changeset="11115472">
    <nd ref="1108920249"/>
    <nd ref="1108919266"/>
    <nd ref="1108919486"/>
    <nd ref="1108919741"/>
    <nd ref="1108920249"/>
    <tag k="addr:city" v="Зеленоград"/>
    <tag k="addr:country" v="RU"/>
    <tag k="addr:housenumber" v="807А"/>
    <tag k="addr:region" v="Москва"/>
    <tag k="addr:street" v="8-й микрорайон"/>
    <tag k="building" v="yes"/>
    <tag k="building:levels" v="1"/>
  </way>
  <way id="95637963" version="1" timestamp="2011-01-18T12:20:08Z" uid="115477" user="wowik" changeset="7009789">
    <nd ref="1108919309"/>
    <nd ref="1108919966"/>
    <nd ref="1108919579"/>
    <nd ref="1108919298"/>
    <nd ref="1108920225"/>
    <nd ref="708113381"/>
    <nd ref="1108920114"/>
    <nd ref="1002176223"/>
    <nd ref="1108919643"/>
    <nd ref="1108919309"/>
    <tag k="highway" v="unclassified"/>
    <tag k="living_street" v="yes"/>
    <tag k="oneway" v="yes"/>
  </way>
  <way id="95637964" version="1" timestamp="2011-01-18T12:20:08Z" uid="115477" user="wowik" changeset="7009789">
    <nd ref="430401943"/>
    <nd ref="1108919364"/>
    <nd ref="1108919864"/>
    <nd ref="1108919422"/>
    <nd ref="1108920063"/>
    <nd ref="430401600"/>
    <nd ref="430401609"/>
    <nd ref="430401426"/>
    <nd ref="430401390"/>
    <nd ref="430401515"/>
    <nd ref="430401943"/>
    <tag k="addr:city" v="Зеленоград"/>
    <tag k="addr:street" v="9-й Микрорайон"/>
    <tag k="amenity" v="school"/>
    <tag k="building" v="yes"/>
    <tag k="building:levels" v="3"/>
    <tag k="is_in" v="Russia"/>
  </way>
  <way id="95637964" version="2" timestamp="2011-06-07T20:47:40Z" uid="133332" user="AMDmi3" changeset="8374030">
    <nd ref="430401943"/>
    <nd ref="1108919364"/>
    <nd ref="1108919864"/>
    <nd ref="1108919422"/>
    <nd ref="1108920063"/>
    <nd ref="430401600"/>
    <nd ref="430401609"/>
    <nd ref="430401426"/>
    <nd ref="430401390"/>
    <nd ref="430401515"/>
    <nd ref="430401943"/>
    <tag k="addr:city" v="Зеленоград"/>
    <tag k="addr:street" v="9-й микрорайон"/>
    <tag k="amenity" v="school"/>
    <tag k="building" v="yes"/>
    <tag k="building:levels" v="3"/>
    <tag k="is_in" v="Russia"/>
  </way>
  <way id="95637964" version="3" timestamp="2011-09-13T10:38:07Z" uid="29320" user="Komяpa" changeset="9288237">
    <nd ref="430401943"/>
    <nd ref="1108919364"/>
    <nd ref="1108919864"/>
    <nd ref="1108919422"/>
    <nd ref="1108920063"/>
    <nd ref="430401600"/>
    <nd ref="430401609"/>
    <nd ref="430401426"/>
    <nd ref="430401390"/>
    <nd ref="430401515"/>
    <nd ref="430401943"/>
    <tag k="addr:city" v="Зеленоград"/>
    <tag k="addr:country" v="RU"/>
    <tag k="addr:street" v="9-й микрорайон"/>
    <tag k="amenity" v="school"/>
    <tag k="building" v="yes"/>
    <tag k="building:levels" v="3"/>
  </way>
  <way id="95637964" version="4" timestamp="2012-03-27T11:48:49Z" uid="481934" user="iWowik" changeset="11115472">
    <nd ref="430401943"/>
    <nd ref="1108919364"/>
    <nd ref="1108919864"/>
    <nd ref="1108919422"/>
    <nd ref="1108920063"/>
    <nd ref="430401600"/>
    <nd ref="430401609"/>
    <nd ref="430401426"/>
    <nd ref="430401390"/>
    <nd ref="430401515"/>
    <nd ref="430401943"/>
    <tag k="addr:city" v="Зеленоград"/>
    <tag k="addr:country" v="RU"/>
    <tag k="addr:region" v="Москва"/>
    <tag k="addr:street" v="9-й микрорайон"/>
    <tag k="amenity" v="school"/>
    <tag k="building" v="yes"/>
    <tag k="building:levels" v="3"/>
  </way>
  <way id="95637966" version="1" timestamp="2011-01-18T12:20:09Z" uid="115477" user="wowik" changeset="7009789">
    <nd ref="1108919521"/>
    <nd ref="1108919773"/>
    <nd ref="1108920068"/>
    <nd ref="1108919449"/>
    <nd ref="1108919521"/>
    <tag k="addr:city" v="Зеленоград"/>
    <tag k="addr:housenumber" v="920с1"/>
    <tag k="addr:street" v="9-й Микрорайон"/>
    <tag k="building" v="yes"/>
    <tag k="building:levels" v="1"/>
    <tag k="is_in" v="Russia"/>
  </way>
  <way id="95637966" version="2" timestamp="2011-01-19T17:10:05Z" uid="70696" user="xybot" changeset="7021015">
    <nd ref="1108919521"/>
    <nd ref="1108919773"/>
    <nd ref="1108920068"/>
    <nd ref="1108919449"/>
    <nd ref="1108919521"/>
    <tag k="addr:city" v="Зеленоград"/>
    <tag k="addr:housenumber" v="920 с1"/>
    <tag k="addr:street" v="9-й Микрорайон"/>
    <tag k="building" v="yes"/>
    <tag k="building:levels" v="1"/>
    <tag k="is_in" v="Russia"/>
  </way>
  <way id="95637966" version="3" timestamp="2011-06-07T20:47:41Z" uid="133332" user="AMDmi3" changeset="8374030">
    <nd ref="1108919521"/>
    <nd ref="1108919773"/>
    <nd ref="1108920068"/>
    <nd ref="1108919449"/>
    <nd ref="1108919521"/>
    <tag k="addr:city" v="Зеленоград"/>
    <tag k="addr:housenumber" v="920 с1"/>
    <tag k="addr:street" v="9-й микрорайон"/>
    <tag k="building" v="yes"/>
    <tag k="building:levels" v="1"/>
    <tag k="is_in" v="Russia"/>
  </way>
  <way id="95637966" version="4" timestamp="2011-09-13T10:29:20Z" uid="29320" user="Komяpa" changeset="9288237">
    <nd ref="1108919521"/>
    <nd ref="1108919773"/>
    <nd ref="1108920068"/>
    <nd ref="1108919449"/>
    <nd ref="1108919521"/>
    <tag k="addr:city" v="Зеленоград"/>
    <tag k="addr:country" v="RU"/>
    <tag k="addr:housenumber" v="920 с1"/>
    <tag k="addr:street" v="9-й микрорайон"/>
    <tag k="building" v="yes"/>
    <tag k="building:levels" v="1"/>
  </way>
  <way id="95637966" version="5" timestamp="2012-03-27T11:47:05Z" uid="481934" user="iWowik" changeset="11115472">
    <nd ref="1108919521"/>
    <nd ref="1108919773"/>
    <nd ref="1108920068"/>
    <nd ref="1108919449"/>
    <nd ref="1108919521"/>
    <tag k="addr:city" v="Зеленоград"/>
    <tag k="addr:country" v="RU"/>
    <tag k="addr:housenumber" v="920 с1"/>
    <tag k="addr:region" v="Москва"/>
    <tag k="addr:street" v="9-й микрорайон"/>
    <tag k="building" v="yes"/>
    <tag k="building:levels" v="1"/>
  </way>
  <way id="95637967" version="1" timestamp="2011-01-18T12:20:10Z" uid="115477" user="wowik" changeset="7009789">
    <nd ref="1108919895"/>
    <nd ref="1108920188"/>
    <nd ref="1108919216"/>
    <nd ref="1108919442"/>
    <nd ref="1108919895"/>
    <tag k="addr:city" v="Зеленоград"/>
    <tag k="addr:street" v="9-й Микрорайон"/>
    <tag k="building" v="yes"/>
    <tag k="building:levels" v="1"/>
    <tag k="is_in" v="Russia"/>
  </way>
  <way id="95637967" version="2" timestamp="2011-06-07T20:47:41Z" uid="133332" user="AMDmi3" changeset="8374030">
    <nd ref="1108919895"/>
    <nd ref="1108920188"/>
    <nd ref="1108919216"/>
    <nd ref="1108919442"/>
    <nd ref="1108919895"/>
    <tag k="addr:city" v="Зеленоград"/>
    <tag k="addr:street" v="9-й микрорайон"/>
    <tag k="building" v="yes"/>
    <tag k="building:levels" v="1"/>
    <tag k="is_in" v="Russia"/>
  </way>
  <way id="95637967" version="3" timestamp="2011-09-13T10:38:08Z" uid="29320" user="Komяpa" changeset="9288237">
    <nd ref="1108919895"/>
    <nd ref="1108920188"/>
    <nd ref="1108919216"/>
    <nd ref="1108919442"/>
    <nd ref="1108919895"/>
    <tag k="addr:city" v="Зеленоград"/>
    <tag k="addr:country" v="RU"/>
    <tag k="addr:street" v="9-й микрорайон"/>
    <tag k="building" v="yes"/>
    <tag k="building:levels" v="1"/>
  </way>
  <way id="95637967" version="4" timestamp="2012-03-27T11:50:39Z" uid="481934" user="iWowik" changeset="11115472">
    <nd ref="1108919895"/>
    <nd ref="1108920188"/>
    <nd ref="1108919216"/>
    <nd ref="1108919442"/>
    <nd ref="1108919895"/>
    <tag k="addr:city" v="Зеленоград"/>
    <tag k="addr:country" v="RU"/>
    <tag k="addr:region" v="Москва"/>
    <tag k="addr:street" v="9-й микрорайон"/>
    <tag k="building" v="yes"/>
    <tag k="building:levels" v="1"/>
  </way>
  <way id="95637969" version="1" timestamp="2011-01-18T12:20:11Z" uid="115477" user="wowik" changeset="7009789">
    <nd ref="253212331"/>
    <nd ref="253212019"/>
    <nd ref="253212020"/>
    <nd ref="253212021"/>
    <nd ref="253212022"/>
    <nd ref="253212291"/>
    <nd ref="253212293"/>
    <nd ref="1100070068"/>
    <nd ref="253212297"/>
    <nd ref="253212298"/>
    <nd ref="1100070088"/>
    <nd ref="253212301"/>
    <nd ref="253212302"/>
    <nd ref="253212304"/>
    <nd ref="253212305"/>
    <nd ref="253212308"/>
    <nd ref="253212309"/>
    <nd ref="253212311"/>
    <nd ref="253212312"/>
    <nd ref="253212313"/>
    <nd ref="1037662910"/>
  </way>
  <way id="95637969" version="2" timestamp="2011-01-28T12:49:09Z" uid="115477" user="wowik" changeset="7112607">
    <nd ref="253212331"/>
    <nd ref="253212019"/>
    <nd ref="253212020"/>
    <nd ref="253212021"/>
    <nd ref="253212022"/>
    <nd ref="253212291"/>
    <nd ref="253212293"/>
    <nd ref="1100070068"/>
    <nd ref="253212297"/>
    <nd ref="253212298"/>
    <nd ref="1100070088"/>
    <nd ref="253212301"/>
    <nd ref="253212302"/>
    <nd ref="253212304"/>
    <nd ref="253212305"/>
    <nd ref="253212308"/>
    <nd ref="253212309"/>
    <nd ref="253212311"/>
    <nd ref="1124817851"/>
    <nd ref="1124817854"/>
    <nd ref="253212312"/>
    <nd ref="253212313"/>
    <nd ref="1037662910"/>
  </way>
  <way id="95637969" version="3" timestamp="2011-07-21T21:29:07Z" uid="465700" user="Tomasina" changeset="8793090">
    <nd ref="253212331"/>
    <nd ref="253212019"/>
    <nd ref="253212020"/>
    <nd ref="253212021"/>
    <nd ref="253212022"/>
    <nd ref="253212291"/>
    <nd ref="253212293"/>
    <nd ref="1100070068"/>
    <nd ref="253212297"/>
    <nd ref="253212298"/>
    <nd ref="1100070088"/>
    <nd ref="253212301"/>
    <nd ref="253212302"/>
    <nd ref="253212304"/>
    <nd ref="253212305"/>
    <nd ref="1369457178"/>
    <nd ref="1369457175"/>
    <nd ref="253212308"/>
    <nd ref="253212309"/>
    <nd ref="253212311"/>
    <nd ref="1124817851"/>
    <nd ref="1124817854"/>
    <nd ref="253212312"/>
    <nd ref="253212313"/>
    <nd ref="1037662910"/>
  </way>
  <way id="95637969" version="4" timestamp="2011-07-28T08:23:44Z" uid="465700" user="Tomasina" changeset="8852140">
    <nd ref="253212331"/>
    <nd ref="253212019"/>
    <nd ref="253212020"/>
    <nd ref="253212021"/>
    <nd ref="253212022"/>
    <nd ref="253212291"/>
    <nd ref="253212293"/>
    <nd ref="1100070068"/>
    <nd ref="253212297"/>
    <nd ref="253212298"/>
    <nd ref="1100070088"/>
    <nd ref="253212301"/>
    <nd ref="253212302"/>
    <nd ref="253212304"/>
    <nd ref="253212305"/>
    <nd ref="1369457178"/>
    <nd ref="253212308"/>
    <nd ref="253212309"/>
    <nd ref="253212311"/>
    <nd ref="1124817851"/>
    <nd ref="1124817854"/>
    <nd ref="253212312"/>
    <nd ref="253212313"/>
    <nd ref="1037662910"/>
  </way>
  <way id="95637970" version="1" timestamp="2011-01-18T12:20:12Z" uid="115477" user="wowik" changeset="7009789">
    <nd ref="1108919796"/>
    <nd ref="1108920094"/>
    <nd ref="1108919156"/>
    <nd ref="1108919386"/>
    <nd ref="1108919796"/>
    <tag k="addr:city" v="Зеленоград"/>
    <tag k="addr:street" v="9-й Микрорайон"/>
    <tag k="building" v="yes"/>
    <tag k="building:levels" v="1"/>
    <tag k="is_in" v="Russia"/>
  </way>
  <way id="95637970" version="2" timestamp="2011-06-07T20:47:37Z" uid="133332" user="AMDmi3" changeset="8374030">
    <nd ref="1108919796"/>
    <nd ref="1108920094"/>
    <nd ref="1108919156"/>
    <nd ref="1108919386"/>
    <nd ref="1108919796"/>
    <tag k="addr:city" v="Зеленоград"/>
    <tag k="addr:street" v="9-й микрорайон"/>
    <tag k="building" v="yes"/>
    <tag k="building:levels" v="1"/>
    <tag k="is_in" v="Russia"/>
  </way>
  <way id="95637970" version="3" timestamp="2011-09-13T10:38:08Z" uid="29320" user="Komяpa" changeset="9288237">
    <nd ref="1108919796"/>
    <nd ref="1108920094"/>
    <nd ref="1108919156"/>
    <nd ref="1108919386"/>
    <nd ref="1108919796"/>
    <tag k="addr:city" v="Зеленоград"/>
    <tag k="addr:country" v="RU"/>
    <tag k="addr:street" v="9-й микрорайон"/>
    <tag k="building" v="yes"/>
    <tag k="building:levels" v="1"/>
  </way>
  <way id="95637970" version="4" timestamp="2012-03-27T11:53:29Z" uid="481934" user="iWowik" changeset="11115472">
    <nd ref="1108919796"/>
    <nd ref="1108920094"/>
    <nd ref="1108919156"/>
    <nd ref="1108919386"/>
    <nd ref="1108919796"/>
    <tag k="addr:city" v="Зеленоград"/>
    <tag k="addr:country" v="RU"/>
    <tag k="addr:region" v="Москва"/>
    <tag k="addr:street" v="9-й микрорайон"/>
    <tag k="building" v="yes"/>
    <tag k="building:levels" v="1"/>
  </way>
  <way id="95637971" version="1" timestamp="2011-01-18T12:20:13Z" uid="115477" user="wowik" changeset="7009789">
    <nd ref="1108919789"/>
    <nd ref="1108920090"/>
    <nd ref="1108919150"/>
    <nd ref="1108919382"/>
    <nd ref="1108919789"/>
    <tag k="addr:city" v="Зеленоград"/>
    <tag k="addr:housenumber" v="917А"/>
    <tag k="addr:street" v="9-й Микрорайон"/>
    <tag k="building" v="yes"/>
    <tag k="building:levels" v="1"/>
    <tag k="is_in" v="Russia"/>
  </way>
  <way id="95637971" version="2" timestamp="2011-06-07T20:47:38Z" uid="133332" user="AMDmi3" changeset="8374030">
    <nd ref="1108919789"/>
    <nd ref="1108920090"/>
    <nd ref="1108919150"/>
    <nd ref="1108919382"/>
    <nd ref="1108919789"/>
    <tag k="addr:city" v="Зеленоград"/>
    <tag k="addr:housenumber" v="917А"/>
    <tag k="addr:street" v="9-й микрорайон"/>
    <tag k="building" v="yes"/>
    <tag k="building:levels" v="1"/>
    <tag k="is_in" v="Russia"/>
  </way>
  <way id="95637971" version="3" timestamp="2011-09-13T10:29:17Z" uid="29320" user="Komяpa" changeset="9288237">
    <nd ref="1108919789"/>
    <nd ref="1108920090"/>
    <nd ref="1108919150"/>
    <nd ref="1108919382"/>
    <nd ref="1108919789"/>
    <tag k="addr:city" v="Зеленоград"/>
    <tag k="addr:country" v="RU"/>
    <tag k="addr:housenumber" v="917А"/>
    <tag k="addr:street" v="9-й микрорайон"/>
    <tag k="building" v="yes"/>
    <tag k="building:levels" v="1"/>
  </way>
  <way id="95637971" version="4" timestamp="2012-03-27T11:47:03Z" uid="481934" user="iWowik" changeset="11115472">
    <nd ref="1108919789"/>
    <nd ref="1108920090"/>
    <nd ref="1108919150"/>
    <nd ref="1108919382"/>
    <nd ref="1108919789"/>
    <tag k="addr:city" v="Зеленоград"/>
    <tag k="addr:country" v="RU"/>
    <tag k="addr:housenumber" v="917А"/>
    <tag k="addr:region" v="Москва"/>
    <tag k="addr:street" v="9-й микрорайон"/>
    <tag k="building" v="yes"/>
    <tag k="building:levels" v="1"/>
  </way>
  <way id="95637973" version="1" timestamp="2011-01-18T12:20:13Z" uid="115477" user="wowik" changeset="7009789">
    <nd ref="1108919417"/>
    <nd ref="1108919665"/>
    <nd ref="1108919913"/>
    <nd ref="1108919363"/>
    <nd ref="1108919417"/>
    <tag k="addr:city" v="Зеленоград"/>
    <tag k="addr:street" v="9-й Микрорайон"/>
    <tag k="building" v="yes"/>
    <tag k="building:levels" v="1"/>
    <tag k="is_in" v="Russia"/>
  </way>
  <way id="95637973" version="2" timestamp="2011-06-07T20:47:38Z" uid="133332" user="AMDmi3" changeset="8374030">
    <nd ref="1108919417"/>
    <nd ref="1108919665"/>
    <nd ref="1108919913"/>
    <nd ref="1108919363"/>
    <nd ref="1108919417"/>
    <tag k="addr:city" v="Зеленоград"/>
    <tag k="addr:street" v="9-й микрорайон"/>
    <tag k="building" v="yes"/>
    <tag k="building:levels" v="1"/>
    <tag k="is_in" v="Russia"/>
  </way>
  <way id="95637973" version="3" timestamp="2011-09-13T10:38:08Z" uid="29320" user="Komяpa" changeset="9288237">
    <nd ref="1108919417"/>
    <nd ref="1108919665"/>
    <nd ref="1108919913"/>
    <nd ref="1108919363"/>
    <nd ref="1108919417"/>
    <tag k="addr:city" v="Зеленоград"/>
    <tag k="addr:country" v="RU"/>
    <tag k="addr:street" v="9-й микрорайон"/>
    <tag k="building" v="yes"/>
    <tag k="building:levels" v="1"/>
  </way>
  <way id="95637973" version="4" timestamp="2012-03-27T11:51:54Z" uid="481934" user="iWowik" changeset="11115472">
    <nd ref="1108919417"/>
    <nd ref="1108919665"/>
    <nd ref="1108919913"/>
    <nd ref="1108919363"/>
    <nd ref="1108919417"/>
    <tag k="addr:city" v="Зеленоград"/>
    <tag k="addr:country" v="RU"/>
    <tag k="addr:region" v="Москва"/>
    <tag k="addr:street" v="9-й микрорайон"/>
    <tag k="building" v="yes"/>
    <tag k="building:levels" v="1"/>
  </way>
  <way id="95637979" version="1" timestamp="2011-01-18T12:20:15Z" uid="115477" user="wowik" changeset="7009789">
    <nd ref="430401519"/>
    <nd ref="1108919704"/>
    <nd ref="1108919829"/>
    <nd ref="1108919749"/>
    <nd ref="1108919218"/>
    <nd ref="430401877"/>
    <nd ref="430401945"/>
    <nd ref="430401525"/>
    <nd ref="430401590"/>
    <nd ref="430401629"/>
    <nd ref="430401519"/>
    <tag k="addr:city" v="Зеленоград"/>
    <tag k="addr:street" v="9-й Микрорайон"/>
    <tag k="amenity" v="school"/>
    <tag k="building" v="yes"/>
    <tag k="building:levels" v="3"/>
    <tag k="is_in" v="Russia"/>
  </way>
  <way id="95637979" version="2" timestamp="2011-06-07T20:47:38Z" uid="133332" user="AMDmi3" changeset="8374030">
    <nd ref="430401519"/>
    <nd ref="1108919704"/>
    <nd ref="1108919829"/>
    <nd ref="1108919749"/>
    <nd ref="1108919218"/>
    <nd ref="430401877"/>
    <nd ref="430401945"/>
    <nd ref="430401525"/>
    <nd ref="430401590"/>
    <nd ref="430401629"/>
    <nd ref="430401519"/>
    <tag k="addr:city" v="Зеленоград"/>
    <tag k="addr:street" v="9-й микрорайон"/>
    <tag k="amenity" v="school"/>
    <tag k="building" v="yes"/>
    <tag k="building:levels" v="3"/>
    <tag k="is_in" v="Russia"/>
  </way>
  <way id="95637979" version="3" timestamp="2011-09-13T10:38:08Z" uid="29320" user="Komяpa" changeset="9288237">
    <nd ref="430401519"/>
    <nd ref="1108919704"/>
    <nd ref="1108919829"/>
    <nd ref="1108919749"/>
    <nd ref="1108919218"/>
    <nd ref="430401877"/>
    <nd ref="430401945"/>
    <nd ref="430401525"/>
    <nd ref="430401590"/>
    <nd ref="430401629"/>
    <nd ref="430401519"/>
    <tag k="addr:city" v="Зеленоград"/>
    <tag k="addr:country" v="RU"/>
    <tag k="addr:street" v="9-й микрорайон"/>
    <tag k="amenity" v="school"/>
    <tag k="building" v="yes"/>
    <tag k="building:levels" v="3"/>
  </way>
  <way id="95637979" version="4" timestamp="2012-03-27T11:48:40Z" uid="481934" user="iWowik" changeset="11115472">
    <nd ref="430401519"/>
    <nd ref="1108919704"/>
    <nd ref="1108919829"/>
    <nd ref="1108919749"/>
    <nd ref="1108919218"/>
    <nd ref="430401877"/>
    <nd ref="430401945"/>
    <nd ref="430401525"/>
    <nd ref="430401590"/>
    <nd ref="430401629"/>
    <nd ref="430401519"/>
    <tag k="addr:city" v="Зеленоград"/>
    <tag k="addr:country" v="RU"/>
    <tag k="addr:region" v="Москва"/>
    <tag k="addr:street" v="9-й микрорайон"/>
    <tag k="amenity" v="school"/>
    <tag k="building" v="yes"/>
    <tag k="building:levels" v="3"/>
  </way>
  <way id="95637982" version="1" timestamp="2011-01-18T12:20:15Z" uid="115477" user="wowik" changeset="7009789">
    <nd ref="1108919443"/>
    <nd ref="1108919702"/>
    <nd ref="1108919948"/>
    <nd ref="1108919384"/>
    <nd ref="1108919443"/>
    <tag k="addr:city" v="Зеленоград"/>
    <tag k="addr:housenumber" v="900с2"/>
    <tag k="addr:street" v="9-й Микрорайон"/>
    <tag k="building" v="yes"/>
    <tag k="building:levels" v="1"/>
    <tag k="is_in" v="Russia"/>
  </way>
  <way id="95637982" version="2" timestamp="2011-01-19T17:10:06Z" uid="70696" user="xybot" changeset="7021015">
    <nd ref="1108919443"/>
    <nd ref="1108919702"/>
    <nd ref="1108919948"/>
    <nd ref="1108919384"/>
    <nd ref="1108919443"/>
    <tag k="addr:city" v="Зеленоград"/>
    <tag k="addr:housenumber" v="900 с2"/>
    <tag k="addr:street" v="9-й Микрорайон"/>
    <tag k="building" v="yes"/>
    <tag k="building:levels" v="1"/>
    <tag k="is_in" v="Russia"/>
  </way>
  <way id="95637982" version="3" timestamp="2011-06-07T20:47:38Z" uid="133332" user="AMDmi3" changeset="8374030">
    <nd ref="1108919443"/>
    <nd ref="1108919702"/>
    <nd ref="1108919948"/>
    <nd ref="1108919384"/>
    <nd ref="1108919443"/>
    <tag k="addr:city" v="Зеленоград"/>
    <tag k="addr:housenumber" v="900 с2"/>
    <tag k="addr:street" v="9-й микрорайон"/>
    <tag k="building" v="yes"/>
    <tag k="building:levels" v="1"/>
    <tag k="is_in" v="Russia"/>
  </way>
  <way id="95637982" version="4" timestamp="2011-09-13T10:29:08Z" uid="29320" user="Komяpa" changeset="9288237">
    <nd ref="1108919443"/>
    <nd ref="1108919702"/>
    <nd ref="1108919948"/>
    <nd ref="1108919384"/>
    <nd ref="1108919443"/>
    <tag k="addr:city" v="Зеленоград"/>
    <tag k="addr:country" v="RU"/>
    <tag k="addr:housenumber" v="900 с2"/>
    <tag k="addr:street" v="9-й микрорайон"/>
    <tag k="building" v="yes"/>
    <tag k="building:levels" v="1"/>
  </way>
  <way id="95637982" version="5" timestamp="2012-03-27T11:46:51Z" uid="481934" user="iWowik" changeset="11115472">
    <nd ref="1108919443"/>
    <nd ref="1108919702"/>
    <nd ref="1108919948"/>
    <nd ref="1108919384"/>
    <nd ref="1108919443"/>
    <tag k="addr:city" v="Зеленоград"/>
    <tag k="addr:country" v="RU"/>
    <tag k="addr:housenumber" v="900 с2"/>
    <tag k="addr:region" v="Москва"/>
    <tag k="addr:street" v="9-й микрорайон"/>
    <tag k="building" v="yes"/>
    <tag k="building:levels" v="1"/>
  </way>
  <way id="95637984" version="1" timestamp="2011-01-18T12:20:17Z" uid="115477" user="wowik" changeset="7009789">
    <nd ref="634844961"/>
    <nd ref="634844990"/>
    <nd ref="634844993"/>
    <tag k="addr:postcode" v="124527"/>
    <tag k="cladr:code" v="77000002000271400"/>
    <tag k="cladr:name" v="Солнечная"/>
    <tag k="cladr:suffix" v="Аллея"/>
    <tag k="highway" v="primary"/>
    <tag k="lanes" v="2"/>
    <tag k="name" v="Солнечная аллея"/>
    <tag k="omkum:code" v="25920"/>
    <tag k="oneway" v="yes"/>
    <tag k="ref" v="Солнечная аллея"/>
    <tag k="sorting_name" v="Солнечная  аллея"/>
  </way>
  <way id="95637984" version="2" timestamp="2011-04-21T10:38:41Z" uid="241531" user="dik_man" changeset="7924197">
    <nd ref="634844961"/>
    <nd ref="634844990"/>
    <nd ref="634844993"/>
    <tag k="addr:postcode" v="124527"/>
    <tag k="cladr:code" v="77000002000271400"/>
    <tag k="cladr:name" v="Солнечная"/>
    <tag k="cladr:suffix" v="Аллея"/>
    <tag k="highway" v="primary"/>
    <tag k="lanes" v="2"/>
    <tag k="maxspeed" v="60"/>
    <tag k="name" v="Солнечная аллея"/>
    <tag k="omkum:code" v="25920"/>
    <tag k="oneway" v="yes"/>
    <tag k="ref" v="Солнечная аллея"/>
    <tag k="sorting_name" v="Солнечная  аллея"/>
  </way>
  <way id="95637984" version="3" timestamp="2012-02-29T17:02:46Z" uid="241531" user="dik_man" changeset="10829928">
    <nd ref="634844961"/>
    <nd ref="634844990"/>
    <nd ref="1653005116"/>
    <nd ref="1653005118"/>
    <nd ref="634844993"/>
    <tag k="addr:postcode" v="124527"/>
    <tag k="cladr:code" v="77000002000271400"/>
    <tag k="cladr:name" v="Солнечная"/>
    <tag k="cladr:suffix" v="Аллея"/>
    <tag k="highway" v="primary"/>
    <tag k="lanes" v="2"/>
    <tag k="maxspeed" v="60"/>
    <tag k="name" v="Солнечная аллея"/>
    <tag k="omkum:code" v="25920"/>
    <tag k="oneway" v="yes"/>
    <tag k="ref" v="Солнечная аллея"/>
    <tag k="sorting_name" v="Солнечная  аллея"/>
  </way>
  <way id="95637984" version="4" timestamp="2012-03-28T16:42:13Z" uid="133332" user="AMDmi3" changeset="11128784">
    <nd ref="634844961"/>
    <nd ref="634844990"/>
    <nd ref="1653005116"/>
    <nd ref="1653005118"/>
    <nd ref="634844993"/>
    <tag k="addr:postcode" v="124527"/>
    <tag k="cladr:code" v="77000002000271400"/>
    <tag k="cladr:name" v="Солнечная"/>
    <tag k="cladr:suffix" v="Аллея"/>
    <tag k="highway" v="primary"/>
    <tag k="lanes" v="2"/>
    <tag k="maxspeed" v="60"/>
    <tag k="name" v="Солнечная аллея"/>
    <tag k="omkum:code" v="25920"/>
    <tag k="oneway" v="yes"/>
    <tag k="sorting_name" v="Солнечная  аллея"/>
  </way>
  <way id="95637985" version="1" timestamp="2011-01-18T12:20:17Z" uid="115477" user="wowik" changeset="7009789">
    <nd ref="1108919731"/>
    <nd ref="1108919997"/>
    <nd ref="1108920290"/>
    <nd ref="1108919251"/>
    <nd ref="1108919924"/>
    <nd ref="1108919316"/>
    <nd ref="1108920140"/>
    <nd ref="1108919418"/>
    <nd ref="1108919731"/>
    <tag k="addr:city" v="Зеленоград"/>
    <tag k="addr:housenumber" v="922Б"/>
    <tag k="addr:street" v="9-й Микрорайон"/>
    <tag k="building" v="yes"/>
    <tag k="building:levels" v="1"/>
    <tag k="is_in" v="Russia"/>
  </way>
  <way id="95637985" version="2" timestamp="2011-06-07T20:47:42Z" uid="133332" user="AMDmi3" changeset="8374030">
    <nd ref="1108919731"/>
    <nd ref="1108919997"/>
    <nd ref="1108920290"/>
    <nd ref="1108919251"/>
    <nd ref="1108919924"/>
    <nd ref="1108919316"/>
    <nd ref="1108920140"/>
    <nd ref="1108919418"/>
    <nd ref="1108919731"/>
    <tag k="addr:city" v="Зеленоград"/>
    <tag k="addr:housenumber" v="922Б"/>
    <tag k="addr:street" v="9-й микрорайон"/>
    <tag k="building" v="yes"/>
    <tag k="building:levels" v="1"/>
    <tag k="is_in" v="Russia"/>
  </way>
  <way id="95637985" version="3" timestamp="2011-09-13T10:29:22Z" uid="29320" user="Komяpa" changeset="9288237">
    <nd ref="1108919731"/>
    <nd ref="1108919997"/>
    <nd ref="1108920290"/>
    <nd ref="1108919251"/>
    <nd ref="1108919924"/>
    <nd ref="1108919316"/>
    <nd ref="1108920140"/>
    <nd ref="1108919418"/>
    <nd ref="1108919731"/>
    <tag k="addr:city" v="Зеленоград"/>
    <tag k="addr:country" v="RU"/>
    <tag k="addr:housenumber" v="922Б"/>
    <tag k="addr:street" v="9-й микрорайон"/>
    <tag k="building" v="yes"/>
    <tag k="building:levels" v="1"/>
  </way>
  <way id="95637985" version="4" timestamp="2012-03-27T11:47:08Z" uid="481934" user="iWowik" changeset="11115472">
    <nd ref="1108919731"/>
    <nd ref="1108919997"/>
    <nd ref="1108920290"/>
    <nd ref="1108919251"/>
    <nd ref="1108919924"/>
    <nd ref="1108919316"/>
    <nd ref="1108920140"/>
    <nd ref="1108919418"/>
    <nd ref="1108919731"/>
    <tag k="addr:city" v="Зеленоград"/>
    <tag k="addr:country" v="RU"/>
    <tag k="addr:housenumber" v="922Б"/>
    <tag k="addr:region" v="Москва"/>
    <tag k="addr:street" v="9-й микрорайон"/>
    <tag k="building" v="yes"/>
    <tag k="building:levels" v="1"/>
  </way>
  <way id="95637987" version="1" timestamp="2011-01-18T12:20:19Z" uid="115477" user="wowik" changeset="7009789">
    <nd ref="1108919606"/>
    <nd ref="1108919866"/>
    <nd ref="1108919302"/>
    <nd ref="1108919535"/>
    <nd ref="1108919606"/>
    <tag k="addr:city" v="Зеленоград"/>
    <tag k="addr:housenumber" v="903с1?"/>
    <tag k="addr:street" v="9-й Микрорайон"/>
    <tag k="building" v="yes"/>
    <tag k="building:levels" v="1"/>
    <tag k="is_in" v="Russia"/>
  </way>
  <way id="95637987" version="2" timestamp="2011-01-20T13:56:00Z" uid="2680" user="xylome" changeset="7030776">
    <nd ref="1108919606"/>
    <nd ref="1108919866"/>
    <nd ref="1108919302"/>
    <nd ref="1108919535"/>
    <nd ref="1108919606"/>
    <tag k="FIXME" v="addr:housenumber Нестандартный и/или странный адрес. Проверить и/или привести к стандарту http://wiki.osm.org/RU:Key:addr"/>
    <tag k="addr:city" v="Зеленоград"/>
    <tag k="addr:country" v="RU"/>
    <tag k="addr:housenumber" v="903 с1?"/>
    <tag k="addr:street" v="9-й Микрорайон"/>
    <tag k="building" v="yes"/>
    <tag k="building:levels" v="1"/>
    <tag k="is_in" v="Russia"/>
  </way>
  <way id="95637987" version="3" timestamp="2011-06-07T20:47:41Z" uid="133332" user="AMDmi3" changeset="8374030">
    <nd ref="1108919606"/>
    <nd ref="1108919866"/>
    <nd ref="1108919302"/>
    <nd ref="1108919535"/>
    <nd ref="1108919606"/>
    <tag k="FIXME" v="addr:housenumber Нестандартный и/или странный адрес. Проверить и/или привести к стандарту http://wiki.osm.org/RU:Key:addr"/>
    <tag k="addr:city" v="Зеленоград"/>
    <tag k="addr:country" v="RU"/>
    <tag k="addr:housenumber" v="903 с1?"/>
    <tag k="addr:street" v="9-й микрорайон"/>
    <tag k="building" v="yes"/>
    <tag k="building:levels" v="1"/>
    <tag k="is_in" v="Russia"/>
  </way>
  <way id="95637987" version="4" timestamp="2011-09-13T10:29:11Z" uid="29320" user="Komяpa" changeset="9288237">
    <nd ref="1108919606"/>
    <nd ref="1108919866"/>
    <nd ref="1108919302"/>
    <nd ref="1108919535"/>
    <nd ref="1108919606"/>
    <tag k="FIXME" v="addr:housenumber Нестандартный и/или странный адрес. Проверить и/или привести к стандарту http://wiki.osm.org/RU:Key:addr"/>
    <tag k="addr:city" v="Зеленоград"/>
    <tag k="addr:country" v="RU"/>
    <tag k="addr:housenumber" v="903 с1?"/>
    <tag k="addr:street" v="9-й микрорайон"/>
    <tag k="building" v="yes"/>
    <tag k="building:levels" v="1"/>
  </way>
  <way id="95637987" version="5" timestamp="2012-03-27T11:46:56Z" uid="481934" user="iWowik" changeset="11115472">
    <nd ref="1108919606"/>
    <nd ref="1108919866"/>
    <nd ref="1108919302"/>
    <nd ref="1108919535"/>
    <nd ref="1108919606"/>
    <tag k="FIXME" v="addr:housenumber Нестандартный и/или странный адрес. Проверить и/или привести к стандарту http://wiki.osm.org/RU:Key:addr"/>
    <tag k="addr:city" v="Зеленоград"/>
    <tag k="addr:country" v="RU"/>
    <tag k="addr:housenumber" v="903 с1?"/>
    <tag k="addr:region" v="Москва"/>
    <tag k="addr:street" v="9-й микрорайон"/>
    <tag k="building" v="yes"/>
    <tag k="building:levels" v="1"/>
  </way>
  <way id="95637988" version="1" timestamp="2011-01-18T12:20:20Z" uid="115477" user="wowik" changeset="7009789">
    <nd ref="1108919355"/>
    <nd ref="1108919574"/>
    <nd ref="1108919838"/>
    <nd ref="1108919285"/>
    <nd ref="1108919355"/>
    <tag k="addr:city" v="Зеленоград"/>
    <tag k="addr:housenumber" v="904Б"/>
    <tag k="addr:street" v="9-й Микрорайон"/>
    <tag k="building" v="yes"/>
    <tag k="building:levels" v="1"/>
    <tag k="is_in" v="Russia"/>
  </way>
  <way id="95637988" version="2" timestamp="2011-06-07T20:47:44Z" uid="133332" user="AMDmi3" changeset="8374030">
    <nd ref="1108919355"/>
    <nd ref="1108919574"/>
    <nd ref="1108919838"/>
    <nd ref="1108919285"/>
    <nd ref="1108919355"/>
    <tag k="addr:city" v="Зеленоград"/>
    <tag k="addr:housenumber" v="904Б"/>
    <tag k="addr:street" v="9-й микрорайон"/>
    <tag k="building" v="yes"/>
    <tag k="building:levels" v="1"/>
    <tag k="is_in" v="Russia"/>
  </way>
  <way id="95637988" version="3" timestamp="2011-09-13T10:29:12Z" uid="29320" user="Komяpa" changeset="9288237">
    <nd ref="1108919355"/>
    <nd ref="1108919574"/>
    <nd ref="1108919838"/>
    <nd ref="1108919285"/>
    <nd ref="1108919355"/>
    <tag k="addr:city" v="Зеленоград"/>
    <tag k="addr:country" v="RU"/>
    <tag k="addr:housenumber" v="904Б"/>
    <tag k="addr:street" v="9-й микрорайон"/>
    <tag k="building" v="yes"/>
    <tag k="building:levels" v="1"/>
  </way>
  <way id="95637988" version="4" timestamp="2012-03-27T11:46:57Z" uid="481934" user="iWowik" changeset="11115472">
    <nd ref="1108919355"/>
    <nd ref="1108919574"/>
    <nd ref="1108919838"/>
    <nd ref="1108919285"/>
    <nd ref="1108919355"/>
    <tag k="addr:city" v="Зеленоград"/>
    <tag k="addr:country" v="RU"/>
    <tag k="addr:housenumber" v="904Б"/>
    <tag k="addr:region" v="Москва"/>
    <tag k="addr:street" v="9-й микрорайон"/>
    <tag k="building" v="yes"/>
    <tag k="building:levels" v="1"/>
  </way>
</osm>
