<?xml version='1.0' encoding='UTF-8'?>
<osm version="0.6" generator="libosmium/2.20.0">
  <way id="95654655" version="2" timestamp="2011-03-12T23:26:38Z" uid="30632" user="antblant" changeset="7539514">
    <nd ref="301673784"/>
    <nd ref="1027609677"/>
    <nd ref="301673762"/>
    <nd ref="1199447426"/>
    <nd ref="1027650266"/>
    <nd ref="1027650288"/>
    <tag k="highway" v="secondary"/>
    <tag k="name" v="Aleja Jana Pawła II"/>
    <tag k="oneway" v="yes"/>
    <tag k="source" v="UMP-PL, ./UMP-Gdansk/src/GDANSK.ulice.txt"/>
  </way>
  <way id="95654655" version="3" timestamp="2011-11-13T13:12:59Z" uid="378154" user="rosomak" changeset="9813802">
    <nd ref="301673784"/>
    <nd ref="1027609677"/>
    <nd ref="301673762"/>
    <nd ref="1199447426"/>
    <nd ref="1027650266"/>
    <nd ref="1501348137"/>
    <nd ref="1027650288"/>
    <tag k="highway" v="secondary"/>
    <tag k="name" v="Aleja Jana Pawła II"/>
    <tag k="oneway" v="yes"/>
    <tag k="source" v="UMP-PL, ./UMP-Gdansk/src/GDANSK.ulice.txt"/>
  </way>
  <way id="95654655" version="4" timestamp="2012-03-07T11:50:44Z" uid="378154" user="rosomak" changeset="10898974">
    <nd ref="301673784"/>
    <nd ref="1027609677"/>
    <nd ref="301673762"/>
    <nd ref="1199447426"/>
    <nd ref="1027650266"/>
    <tag k="highway" v="secondary"/>
    <tag k="name" v="aleja Jana Pawła II"/>
    <tag k="oneway" v="yes"/>
  </way>
</osm>
