<?xml version='1.0' encoding='UTF-8'?>
<osm version="0.6" generator="libosmium/2.20.0">
  <way id="95860696" version="2" timestamp="2011-02-11T19:04:49Z" uid="43863" user="Rundling" changeset="7258050">
    <nd ref="1110910443"/>
    <nd ref="1110910423"/>
    <nd ref="1110910419"/>
    <nd ref="1110910462"/>
    <nd ref="1110910444"/>
    <nd ref="985967936"/>
    <nd ref="1110910487"/>
    <nd ref="1110910498"/>
    <nd ref="1110910426"/>
    <nd ref="1110910429"/>
    <nd ref="1110910451"/>
    <nd ref="1110910427"/>
    <nd ref="1110910433"/>
    <nd ref="1110910445"/>
    <nd ref="1110910491"/>
    <nd ref="1110910476"/>
    <nd ref="1071702579"/>
    <nd ref="1110910448"/>
    <nd ref="1110910430"/>
    <nd ref="1110910409"/>
    <nd ref="1110910486"/>
    <nd ref="1110910449"/>
    <nd ref="1110910473"/>
    <nd ref="1110910453"/>
    <nd ref="1110910402"/>
    <nd ref="1110910405"/>
    <nd ref="1110910467"/>
    <nd ref="1110910408"/>
    <nd ref="1110910494"/>
    <nd ref="1110910456"/>
    <nd ref="1110910424"/>
    <nd ref="1110910421"/>
    <nd ref="1110910440"/>
    <nd ref="1110910485"/>
    <nd ref="1110910470"/>
    <nd ref="1110910480"/>
    <nd ref="985967950"/>
    <nd ref="1110910469"/>
    <nd ref="1110910443"/>
    <tag k="landuse" v="residential"/>
    <tag k="name" v="Ostedt"/>
    <tag k="place" v="village"/>
  </way>
  <way id="95860739" version="1" timestamp="2011-01-19T21:54:33Z" uid="9581" user="Lobelt" changeset="7025368">
    <nd ref="1110912018"/>
    <nd ref="1110911954"/>
    <nd ref="1110911889"/>
    <nd ref="1110911974"/>
    <nd ref="1110911912"/>
    <nd ref="1110912003"/>
    <nd ref="1110912018"/>
    <tag k="addr:city" v="Mannheim"/>
    <tag k="addr:housenumber" v="2"/>
    <tag k="addr:postcode" v="68163"/>
    <tag k="addr:street" v="Harrlachweg"/>
    <tag k="building" v="yes"/>
  </way>
  <way id="95860739" version="2" timestamp="2012-02-24T23:30:47Z" uid="136321" user="Teddy73" changeset="10783279"/>
  <way id="95860740" version="1" timestamp="2011-01-19T21:54:33Z" uid="9581" user="Lobelt" changeset="7025368">
    <nd ref="1110911945"/>
    <nd ref="1110911894"/>
    <nd ref="1110912021"/>
    <nd ref="1110911916"/>
    <nd ref="1110911945"/>
  </way>
  <way id="95860741" version="1" timestamp="2011-01-19T21:54:33Z" uid="9581" user="Lobelt" changeset="7025368">
    <nd ref="21686313"/>
    <nd ref="283626062"/>
    <nd ref="21686318"/>
    <tag k="cycleway" v="lane"/>
    <tag k="highway" v="secondary"/>
    <tag k="maxspeed" v="50"/>
    <tag k="name" v="Seckenheimer Landstraße"/>
    <tag k="oneway" v="yes"/>
    <tag k="ref" v="L 637"/>
  </way>
  <way id="95860742" version="1" timestamp="2011-01-19T21:54:33Z" uid="9581" user="Lobelt" changeset="7025368">
    <nd ref="1110912014"/>
    <nd ref="1110911958"/>
    <nd ref="1110911951"/>
    <nd ref="1110911846"/>
    <nd ref="1110912014"/>
    <tag k="addr:city" v="Mannheim"/>
    <tag k="addr:housenumber" v="4"/>
    <tag k="addr:postcode" v="68163"/>
    <tag k="addr:street" v="Harrlachweg"/>
    <tag k="building" v="yes"/>
  </way>
  <way id="95860742" version="2" timestamp="2012-02-24T23:30:47Z" uid="136321" user="Teddy73" changeset="10783279"/>
  <way id="95860744" version="1" timestamp="2011-01-19T21:54:33Z" uid="9581" user="Lobelt" changeset="7025368">
    <nd ref="1110911984"/>
    <nd ref="1110911923"/>
    <nd ref="1110911857"/>
    <nd ref="1110911947"/>
    <nd ref="1110911869"/>
    <nd ref="1110911957"/>
    <nd ref="1110911984"/>
    <tag k="addr:city" v="Mannheim"/>
    <tag k="addr:housenumber" v="1"/>
    <tag k="addr:postcode" v="68163"/>
    <tag k="addr:street" v="Harrlachweg"/>
    <tag k="building" v="yes"/>
  </way>
  <way id="95860744" version="2" timestamp="2012-03-28T19:11:15Z" uid="110838" user="Bernhard W" changeset="11130163">
    <nd ref="1110911984"/>
    <nd ref="1110911923"/>
    <nd ref="1110911857"/>
    <nd ref="1110911947"/>
    <nd ref="1110911869"/>
    <nd ref="1110911957"/>
    <nd ref="1110911984"/>
    <tag k="addr:city" v="Mannheim"/>
    <tag k="addr:housenumber" v="1"/>
    <tag k="addr:postcode" v="68163"/>
    <tag k="addr:street" v="Harrlachweg"/>
    <tag k="building" v="yes"/>
    <tag k="odbl" v="clear"/>
  </way>
  <way id="95860744" version="3" timestamp="2012-03-28T21:30:21Z" uid="110838" user="Bernhard W" changeset="11131590">
    <nd ref="1110911984"/>
    <nd ref="1110911923"/>
    <nd ref="1110911857"/>
    <nd ref="1110911947"/>
    <nd ref="1110911869"/>
    <nd ref="1110911957"/>
    <nd ref="1110911984"/>
    <tag k="addr:city" v="Mannheim"/>
    <tag k="addr:housenumber" v="1"/>
    <tag k="addr:postcode" v="68163"/>
    <tag k="addr:street" v="Harrlachweg"/>
    <tag k="building" v="yes"/>
    <tag k="odbl" v="clean"/>
  </way>
  <way id="95860744" version="4" timestamp="2012-03-30T18:41:09Z" uid="110838" user="Bernhard W" changeset="11158569">
    <nd ref="1110911984"/>
    <nd ref="1110911923"/>
    <nd ref="1110911857"/>
    <nd ref="1110911947"/>
    <nd ref="1110911869"/>
    <nd ref="1110911957"/>
    <nd ref="1110911984"/>
    <tag k="addr:city" v="Mannheim"/>
    <tag k="addr:housenumber" v="1"/>
    <tag k="addr:postcode" v="68163"/>
    <tag k="addr:street" v="Harrlachweg"/>
    <tag k="building" v="yes"/>
  </way>
  <way id="95860745" version="1" timestamp="2011-01-19T21:54:34Z" uid="9581" user="Lobelt" changeset="7025368">
    <nd ref="1110911899"/>
    <nd ref="1110911861"/>
    <nd ref="1110911975"/>
    <nd ref="1110911871"/>
    <nd ref="1110911899"/>
    <tag k="addr:city" v="Mannheim"/>
    <tag k="addr:housenumber" v="4"/>
    <tag k="addr:postcode" v="68163"/>
    <tag k="addr:street" v="Seckenheimer Landstraße"/>
    <tag k="building" v="yes"/>
  </way>
  <way id="95860745" version="2" timestamp="2012-03-28T19:11:13Z" uid="110838" user="Bernhard W" changeset="11130163">
    <nd ref="1110911899"/>
    <nd ref="1110911861"/>
    <nd ref="1110911975"/>
    <nd ref="1110911871"/>
    <nd ref="1110911899"/>
    <tag k="addr:city" v="Mannheim"/>
    <tag k="addr:housenumber" v="4"/>
    <tag k="addr:postcode" v="68163"/>
    <tag k="addr:street" v="Seckenheimer Landstraße"/>
    <tag k="building" v="yes"/>
    <tag k="odbl" v="clear"/>
  </way>
  <way id="95860745" version="3" timestamp="2012-03-28T21:30:20Z" uid="110838" user="Bernhard W" changeset="11131590">
    <nd ref="1110911899"/>
    <nd ref="1110911861"/>
    <nd ref="1110911975"/>
    <nd ref="1110911871"/>
    <nd ref="1110911899"/>
    <tag k="addr:city" v="Mannheim"/>
    <tag k="addr:housenumber" v="4"/>
    <tag k="addr:postcode" v="68163"/>
    <tag k="addr:street" v="Seckenheimer Landstraße"/>
    <tag k="building" v="yes"/>
    <tag k="odbl" v="clean"/>
  </way>
  <way id="95860745" version="4" timestamp="2012-03-30T18:41:10Z" uid="110838" user="Bernhard W" changeset="11158569">
    <nd ref="1110911899"/>
    <nd ref="1110911861"/>
    <nd ref="1110911975"/>
    <nd ref="1110911871"/>
    <nd ref="1110911899"/>
    <tag k="addr:city" v="Mannheim"/>
    <tag k="addr:housenumber" v="4"/>
    <tag k="addr:postcode" v="68163"/>
    <tag k="addr:street" v="Seckenheimer Landstraße"/>
    <tag k="building" v="yes"/>
  </way>
  <way id="95860746" version="1" timestamp="2011-01-19T21:54:34Z" uid="9581" user="Lobelt" changeset="7025368">
    <nd ref="1110911978"/>
    <nd ref="1110911942"/>
    <nd ref="1110911913"/>
    <nd ref="1110911868"/>
    <nd ref="1110911978"/>
    <tag k="building" v="yes"/>
  </way>
  <way id="95860746" version="2" timestamp="2012-02-24T23:30:46Z" uid="136321" user="Teddy73" changeset="10783279"/>
  <way id="95860748" version="1" timestamp="2011-01-19T21:54:34Z" uid="9581" user="Lobelt" changeset="7025368">
    <nd ref="1110911929"/>
    <nd ref="1110911865"/>
    <nd ref="1110911993"/>
    <nd ref="1110911887"/>
    <nd ref="1110912011"/>
    <nd ref="1110911901"/>
    <nd ref="1110911853"/>
    <nd ref="1110911927"/>
    <nd ref="1110911897"/>
    <nd ref="1110911987"/>
    <nd ref="1110911920"/>
    <nd ref="1110912005"/>
    <nd ref="1110911930"/>
    <nd ref="1110912024"/>
    <nd ref="299011561"/>
    <nd ref="1110911929"/>
    <tag k="addr:city" v="Mannheim"/>
    <tag k="addr:housenumber" v="12"/>
    <tag k="addr:postcode" v="68163"/>
    <tag k="addr:street" v="Theodor-Heuss-Anlage"/>
    <tag k="building" v="yes"/>
  </way>
  <way id="95860748" version="2" timestamp="2012-02-24T23:15:14Z" uid="136321" user="Teddy73" changeset="10783279"/>
  <way id="95860750" version="1" timestamp="2011-01-19T21:54:34Z" uid="9581" user="Lobelt" changeset="7025368">
    <nd ref="1110911931"/>
    <nd ref="1110911891"/>
    <nd ref="1110911863"/>
    <nd ref="1110911953"/>
    <nd ref="1110911885"/>
    <nd ref="1110911972"/>
    <nd ref="1110911900"/>
    <nd ref="1110911991"/>
    <nd ref="1110911926"/>
    <nd ref="1110912007"/>
    <nd ref="1110911980"/>
    <nd ref="1110911873"/>
    <nd ref="1110911931"/>
    <tag k="addr:city" v="Mannheim"/>
    <tag k="addr:housenumber" v="4a"/>
    <tag k="addr:postcode" v="68163"/>
    <tag k="addr:street" v="Seckenheimer Landstraße"/>
    <tag k="building" v="yes"/>
  </way>
  <way id="95860750" version="2" timestamp="2012-03-28T19:11:13Z" uid="110838" user="Bernhard W" changeset="11130163">
    <nd ref="1110911931"/>
    <nd ref="1110911891"/>
    <nd ref="1110911863"/>
    <nd ref="1110911953"/>
    <nd ref="1110911885"/>
    <nd ref="1110911972"/>
    <nd ref="1110911900"/>
    <nd ref="1110911991"/>
    <nd ref="1110911926"/>
    <nd ref="1110912007"/>
    <nd ref="1110911980"/>
    <nd ref="1110911873"/>
    <nd ref="1110911931"/>
    <tag k="addr:city" v="Mannheim"/>
    <tag k="addr:housenumber" v="4a"/>
    <tag k="addr:postcode" v="68163"/>
    <tag k="addr:street" v="Seckenheimer Landstraße"/>
    <tag k="building" v="yes"/>
    <tag k="odbl" v="clear"/>
  </way>
  <way id="95860750" version="3" timestamp="2012-03-28T21:30:20Z" uid="110838" user="Bernhard W" changeset="11131590">
    <nd ref="1110911931"/>
    <nd ref="1110911891"/>
    <nd ref="1110911863"/>
    <nd ref="1110911953"/>
    <nd ref="1110911885"/>
    <nd ref="1110911972"/>
    <nd ref="1110911900"/>
    <nd ref="1110911991"/>
    <nd ref="1110911926"/>
    <nd ref="1110912007"/>
    <nd ref="1110911980"/>
    <nd ref="1110911873"/>
    <nd ref="1110911931"/>
    <tag k="addr:city" v="Mannheim"/>
    <tag k="addr:housenumber" v="4a"/>
    <tag k="addr:postcode" v="68163"/>
    <tag k="addr:street" v="Seckenheimer Landstraße"/>
    <tag k="building" v="yes"/>
    <tag k="odbl" v="clean"/>
  </way>
  <way id="95860750" version="4" timestamp="2012-03-30T18:41:10Z" uid="110838" user="Bernhard W" changeset="11158569">
    <nd ref="1110911931"/>
    <nd ref="1110911891"/>
    <nd ref="1110911863"/>
    <nd ref="1110911953"/>
    <nd ref="1110911885"/>
    <nd ref="1110911972"/>
    <nd ref="1110911900"/>
    <nd ref="1110911991"/>
    <nd ref="1110911926"/>
    <nd ref="1110912007"/>
    <nd ref="1110911980"/>
    <nd ref="1110911873"/>
    <nd ref="1110911931"/>
    <tag k="addr:city" v="Mannheim"/>
    <tag k="addr:housenumber" v="4a"/>
    <tag k="addr:postcode" v="68163"/>
    <tag k="addr:street" v="Seckenheimer Landstraße"/>
    <tag k="building" v="yes"/>
  </way>
  <way id="95860784" version="1" timestamp="2011-01-19T21:55:29Z" uid="30632" user="antblant" changeset="7025375">
    <nd ref="1110914170"/>
    <nd ref="1110914261"/>
    <nd ref="1110914178"/>
    <nd ref="1110914258"/>
    <nd ref="1110914176"/>
    <nd ref="1110914229"/>
    <nd ref="1110914170"/>
    <tag k="construction" v="sports"/>
    <tag k="landuse" v="construction"/>
    <tag k="name" v="Hala widowiskowo-sportowa"/>
    <tag k="url" v="http://www.skyscrapercity.com/showthread.php?t=377870"/>
  </way>
  <way id="95860785" version="1" timestamp="2011-01-19T21:55:29Z" uid="30632" user="antblant" changeset="7025375">
    <nd ref="1110914270"/>
    <nd ref="1110914230"/>
    <nd ref="1110914279"/>
    <nd ref="1110914196"/>
    <nd ref="1110914252"/>
    <nd ref="1110914270"/>
    <tag k="construction" v="office building"/>
    <tag k="landuse" v="construction"/>
    <tag k="name" v="Piastów Office Park"/>
    <tag k="url" v="http://www.skyscrapercity.com/showthread.php?t=1026085"/>
  </way>
  <way id="95860786" version="1" timestamp="2011-01-19T21:55:30Z" uid="30632" user="antblant" changeset="7025375">
    <nd ref="1110914224"/>
    <nd ref="1110914174"/>
    <nd ref="1110914227"/>
    <nd ref="1110914276"/>
    <nd ref="1110914224"/>
    <tag k="construction" v="residential"/>
    <tag k="landuse" v="construction"/>
    <tag k="name" v="Nowa Cegielnia"/>
  </way>
  <way id="95860787" version="1" timestamp="2011-01-19T21:55:30Z" uid="30632" user="antblant" changeset="7025375">
    <nd ref="1110914256"/>
    <nd ref="1110914225"/>
    <nd ref="1110914268"/>
    <nd ref="1110914179"/>
    <nd ref="1110914256"/>
    <tag k="construction" v="residential"/>
    <tag k="landuse" v="construction"/>
  </way>
  <way id="95860788" version="1" timestamp="2011-01-19T21:55:30Z" uid="30632" user="antblant" changeset="7025375">
    <nd ref="1110914275"/>
    <nd ref="1110914233"/>
    <nd ref="1110914292"/>
    <nd ref="1110914202"/>
    <nd ref="1110914275"/>
    <tag k="construction" v="office building"/>
    <tag k="landuse" v="construction"/>
    <tag k="name" v="Baltic Business Park"/>
    <tag k="url" v="http://www.skyscrapercity.com/showthread.php?t=445550"/>
  </way>
  <way id="95860789" version="1" timestamp="2011-01-19T21:55:30Z" uid="30632" user="antblant" changeset="7025375">
    <nd ref="1110914218"/>
    <nd ref="1110914214"/>
    <nd ref="1110914259"/>
    <nd ref="1110914177"/>
    <nd ref="1110914218"/>
    <tag k="construction" v="building"/>
    <tag k="landuse" v="construction"/>
    <tag k="name" v="ZUS"/>
  </way>
  <way id="95860790" version="1" timestamp="2011-01-19T21:55:31Z" uid="30632" user="antblant" changeset="7025375">
    <nd ref="411039248"/>
    <nd ref="1110914278"/>
    <nd ref="1110914181"/>
    <nd ref="1110914250"/>
    <nd ref="411039250"/>
    <nd ref="411039248"/>
    <tag k="construction" v="office building"/>
    <tag k="landuse" v="construction"/>
    <tag k="name" v="Lastadia Office"/>
    <tag k="url" v="http://www.skyscrapercity.com/showthread.php?t=1046267"/>
  </way>
  <way id="95860791" version="1" timestamp="2011-01-19T21:55:31Z" uid="30632" user="antblant" changeset="7025375">
    <nd ref="673619985"/>
    <nd ref="1110914198"/>
    <nd ref="1110914254"/>
    <nd ref="673619619"/>
    <nd ref="673619613"/>
    <nd ref="673619615"/>
    <nd ref="673619617"/>
    <nd ref="673619624"/>
    <nd ref="673619621"/>
    <nd ref="673619622"/>
    <nd ref="673619645"/>
    <nd ref="673619643"/>
    <nd ref="673619647"/>
    <nd ref="673619650"/>
    <nd ref="673619665"/>
    <nd ref="673619669"/>
    <nd ref="673619980"/>
    <nd ref="673619979"/>
    <nd ref="673619985"/>
    <tag k="construction" v="office building"/>
    <tag k="landuse" v="construction"/>
    <tag k="url" v="http://www.skyscrapercity.com/showthread.php?t=345211"/>
  </way>
  <way id="95860792" version="1" timestamp="2011-01-19T21:55:31Z" uid="30632" user="antblant" changeset="7025375">
    <nd ref="1110914204"/>
    <nd ref="1110914158"/>
    <nd ref="1110914226"/>
    <nd ref="1110914274"/>
    <nd ref="1110914204"/>
    <tag k="construction" v="hospital"/>
    <tag k="landuse" v="construction"/>
    <tag k="url" v="http://www.skyscrapercity.com/showthread.php?t=915844"/>
  </way>
  <way id="95860793" version="1" timestamp="2011-01-19T21:55:32Z" uid="30632" user="antblant" changeset="7025375">
    <nd ref="1110914273"/>
    <nd ref="1110914180"/>
    <nd ref="1110914236"/>
    <nd ref="1110914156"/>
    <nd ref="1110914209"/>
    <tag k="highway" v="road"/>
    <tag k="name" v="Bożeny"/>
    <tag k="source" v="gis.um.szczecin.pl"/>
  </way>
  <way id="95860793" version="2" timestamp="2012-03-14T07:34:09Z" uid="338611" user="marek kleciak" changeset="10975006">
    <nd ref="1110914273"/>
    <nd ref="1674299990"/>
    <nd ref="1674299914"/>
    <nd ref="1110914180"/>
    <tag k="highway" v="service"/>
    <tag k="name" v="Bożeny"/>
    <tag k="source" v="gis.um.szczecin.pl"/>
  </way>
  <way id="95860796" version="2" timestamp="2011-02-11T19:04:50Z" uid="43863" user="Rundling" changeset="7258050">
    <nd ref="413732695"/>
    <nd ref="1147800479"/>
    <nd ref="1147800428"/>
    <nd ref="1147800440"/>
    <nd ref="1147800394"/>
    <nd ref="1147800409"/>
    <nd ref="1110914430"/>
    <nd ref="1110914404"/>
    <nd ref="1110914407"/>
    <nd ref="1110914429"/>
    <nd ref="1071702592"/>
    <tag k="highway" v="track"/>
    <tag k="source" v="Bing"/>
  </way>
</osm>
