<?xml version='1.0' encoding='UTF-8'?>
<osm version="0.6" generator="libosmium/2.20.0">
  <way id="95930123" version="3" timestamp="2011-01-29T03:50:29Z" uid="4467" user="Rosscoe" changeset="7119118">
    <nd ref="474955159"/>
    <nd ref="1111476249"/>
    <nd ref="1111476260"/>
    <nd ref="1111483753"/>
    <nd ref="1111476273"/>
    <nd ref="1111476283"/>
    <tag k="highway" v="residential"/>
    <tag k="maxspeed" v="50"/>
    <tag k="name" v="Dover Road"/>
    <tag k="source" v="nearmap"/>
    <tag k="surface" v="paved"/>
  </way>
  <way id="95930123" version="4" timestamp="2011-02-28T09:38:06Z" uid="21143" user="hryciuk" changeset="7418773">
    <nd ref="474955159"/>
    <nd ref="1111476249"/>
    <nd ref="1111476260"/>
    <nd ref="1111483753"/>
    <nd ref="1178847307"/>
    <nd ref="1111476273"/>
    <nd ref="1111476283"/>
    <tag k="highway" v="residential"/>
    <tag k="maxspeed" v="50"/>
    <tag k="name" v="Dover Road"/>
    <tag k="source" v="nearmap"/>
    <tag k="surface" v="paved"/>
  </way>
  <way id="95930212" version="1" timestamp="2011-01-20T11:14:41Z" uid="115477" user="wowik" changeset="7029303">
    <nd ref="1111477063"/>
    <nd ref="1111477111"/>
    <nd ref="1111477099"/>
    <nd ref="1111477101"/>
    <nd ref="1111477063"/>
    <tag k="addr:city" v="Зеленоград"/>
    <tag k="addr:housenumber" v="с?"/>
    <tag k="addr:street" v="Крюковская площадь"/>
    <tag k="building:levels" v="1"/>
    <tag k="note" v="Вроде снесено"/>
  </way>
  <way id="95930212" version="2" timestamp="2011-01-25T21:35:12Z" uid="380194" user="ac-trash" changeset="7088424"/>
  <way id="95930213" version="1" timestamp="2011-01-20T11:14:41Z" uid="115477" user="wowik" changeset="7029303">
    <nd ref="1111477065"/>
    <nd ref="1111477052"/>
    <nd ref="1111477053"/>
    <nd ref="1111477045"/>
    <nd ref="1111477065"/>
    <tag k="addr:city" v="Зеленоград"/>
    <tag k="addr:housenumber" v="с?"/>
    <tag k="addr:street" v="Крюковская площадь"/>
    <tag k="building:levels" v="1"/>
    <tag k="note" v="Вроде снесено"/>
  </way>
  <way id="95930213" version="2" timestamp="2011-01-25T21:35:12Z" uid="380194" user="ac-trash" changeset="7088424"/>
  <way id="95930214" version="1" timestamp="2011-01-20T11:14:42Z" uid="115477" user="wowik" changeset="7029303">
    <nd ref="1111477060"/>
    <nd ref="1111477049"/>
    <nd ref="1111477088"/>
    <nd ref="1111477072"/>
    <nd ref="1111477038"/>
    <nd ref="1111477097"/>
    <nd ref="1111477060"/>
    <tag k="addr:city" v="Зеленоград"/>
    <tag k="addr:housenumber" v="5 с13"/>
    <tag k="addr:street" v="Проезд N 4806"/>
    <tag k="note" v="Вроде снесено"/>
  </way>
  <way id="95930214" version="2" timestamp="2011-01-20T16:57:51Z" uid="241531" user="dik_man" changeset="7032246">
    <nd ref="1111477060"/>
    <nd ref="1111477049"/>
    <nd ref="1111477088"/>
    <nd ref="1111477072"/>
    <nd ref="1111477038"/>
    <nd ref="1111477097"/>
    <nd ref="1111477060"/>
    <tag k="addr:city" v="Зеленоград"/>
    <tag k="addr:housenumber" v="5 с13"/>
    <tag k="addr:street" v="Проезд N 4806"/>
    <tag k="note" v="снесено"/>
  </way>
  <way id="95930214" version="3" timestamp="2012-03-27T11:44:18Z" uid="481934" user="iWowik" changeset="11115472">
    <nd ref="1111477060"/>
    <nd ref="1111477049"/>
    <nd ref="1111477088"/>
    <nd ref="1111477072"/>
    <nd ref="1111477038"/>
    <nd ref="1111477097"/>
    <nd ref="1111477060"/>
    <tag k="addr:city" v="Зеленоград"/>
    <tag k="addr:country" v="RU"/>
    <tag k="addr:housenumber" v="5 с13"/>
    <tag k="addr:region" v="Москва"/>
    <tag k="addr:street" v="Проезд N 4806"/>
    <tag k="note" v="снесено"/>
  </way>
  <way id="95930215" version="1" timestamp="2011-01-20T11:14:42Z" uid="115477" user="wowik" changeset="7029303">
    <nd ref="1111477098"/>
    <nd ref="1111477076"/>
    <nd ref="1111477080"/>
    <nd ref="1111477100"/>
    <nd ref="1111477098"/>
    <tag k="addr:city" v="Зеленоград"/>
    <tag k="addr:housenumber" v="5 с?"/>
    <tag k="addr:street" v="Проезд N 4806"/>
    <tag k="note" v="Вроде снесено"/>
  </way>
  <way id="95930215" version="2" timestamp="2011-01-20T16:57:51Z" uid="241531" user="dik_man" changeset="7032246">
    <nd ref="1111477098"/>
    <nd ref="1111477076"/>
    <nd ref="1111477080"/>
    <nd ref="1111477100"/>
    <nd ref="1111477098"/>
    <tag k="addr:city" v="Зеленоград"/>
    <tag k="addr:housenumber" v="5 с?"/>
    <tag k="addr:street" v="Проезд N 4806"/>
    <tag k="note" v="снесено"/>
  </way>
  <way id="95930215" version="3" timestamp="2012-03-27T11:44:39Z" uid="481934" user="iWowik" changeset="11115472">
    <nd ref="1111477098"/>
    <nd ref="1111477076"/>
    <nd ref="1111477080"/>
    <nd ref="1111477100"/>
    <nd ref="1111477098"/>
    <tag k="addr:city" v="Зеленоград"/>
    <tag k="addr:country" v="RU"/>
    <tag k="addr:housenumber" v="5 с?"/>
    <tag k="addr:region" v="Москва"/>
    <tag k="addr:street" v="Проезд N 4806"/>
    <tag k="note" v="снесено"/>
  </way>
  <way id="95930216" version="1" timestamp="2011-01-20T11:14:42Z" uid="115477" user="wowik" changeset="7029303">
    <nd ref="1111477032"/>
    <nd ref="1111477106"/>
    <nd ref="1111477054"/>
    <nd ref="1111477046"/>
    <nd ref="1111477032"/>
    <tag k="addr:city" v="Зеленоград"/>
    <tag k="addr:housenumber" v="5 с?"/>
    <tag k="addr:street" v="Проезд N 4806"/>
    <tag k="note" v="Вроде снесено"/>
  </way>
  <way id="95930216" version="2" timestamp="2011-01-20T16:57:51Z" uid="241531" user="dik_man" changeset="7032246">
    <nd ref="1111477032"/>
    <nd ref="1111477106"/>
    <nd ref="1111477054"/>
    <nd ref="1111477046"/>
    <nd ref="1111477032"/>
    <tag k="addr:city" v="Зеленоград"/>
    <tag k="addr:housenumber" v="5 с?"/>
    <tag k="addr:street" v="Проезд N 4806"/>
    <tag k="note" v="снесено"/>
  </way>
  <way id="95930216" version="3" timestamp="2012-03-27T11:44:39Z" uid="481934" user="iWowik" changeset="11115472">
    <nd ref="1111477032"/>
    <nd ref="1111477106"/>
    <nd ref="1111477054"/>
    <nd ref="1111477046"/>
    <nd ref="1111477032"/>
    <tag k="addr:city" v="Зеленоград"/>
    <tag k="addr:country" v="RU"/>
    <tag k="addr:housenumber" v="5 с?"/>
    <tag k="addr:region" v="Москва"/>
    <tag k="addr:street" v="Проезд N 4806"/>
    <tag k="note" v="снесено"/>
  </way>
  <way id="95930217" version="1" timestamp="2011-01-20T11:14:42Z" uid="115477" user="wowik" changeset="7029303">
    <nd ref="428893549"/>
    <nd ref="1111477058"/>
    <nd ref="428893550"/>
    <nd ref="428893667"/>
    <nd ref="1110762632"/>
    <nd ref="1110762626"/>
    <nd ref="994884845"/>
    <nd ref="994884846"/>
    <nd ref="428893549"/>
    <tag k="addr:city" v="Зеленоград"/>
    <tag k="addr:housenumber" v="5 с14"/>
    <tag k="addr:street" v="Проезд N 4806"/>
    <tag k="amenity" v="university"/>
    <tag k="building" v="yes"/>
    <tag k="is_in" v="Russia"/>
  </way>
  <way id="95930217" version="2" timestamp="2011-01-28T14:51:50Z" uid="241531" user="dik_man" changeset="7113657">
    <nd ref="428893549"/>
    <nd ref="1111477058"/>
    <nd ref="428893550"/>
    <nd ref="428893667"/>
    <nd ref="1110762632"/>
    <nd ref="1110762626"/>
    <nd ref="994884845"/>
    <nd ref="994884846"/>
    <nd ref="428893549"/>
    <tag k="addr:city" v="Зеленоград"/>
    <tag k="addr:housenumber" v="5 с14"/>
    <tag k="addr:street" v="Проезд N 4806"/>
    <tag k="amenity" v="university"/>
    <tag k="building" v="yes"/>
    <tag k="is_in" v="Russia"/>
    <tag k="note" v="конфиг с учёт.реконстр"/>
  </way>
  <way id="95930217" version="3" timestamp="2011-01-28T14:58:09Z" uid="241531" user="dik_man" changeset="7113716">
    <nd ref="428893550"/>
    <nd ref="428893667"/>
    <nd ref="1110762632"/>
    <nd ref="1110762626"/>
    <nd ref="994884845"/>
    <nd ref="994884846"/>
    <nd ref="428893550"/>
    <tag k="addr:city" v="Зеленоград"/>
    <tag k="addr:housenumber" v="5 с14"/>
    <tag k="addr:street" v="Проезд N 4806"/>
    <tag k="amenity" v="university"/>
    <tag k="building" v="yes"/>
    <tag k="is_in" v="Russia"/>
    <tag k="note" v="конфиг с учёт.реконстр"/>
  </way>
  <way id="95930217" version="4" timestamp="2011-09-13T10:27:23Z" uid="29320" user="Komяpa" changeset="9288237">
    <nd ref="428893550"/>
    <nd ref="428893667"/>
    <nd ref="1110762632"/>
    <nd ref="1110762626"/>
    <nd ref="994884845"/>
    <nd ref="994884846"/>
    <nd ref="428893550"/>
    <tag k="addr:city" v="Зеленоград"/>
    <tag k="addr:country" v="RU"/>
    <tag k="addr:housenumber" v="5 с14"/>
    <tag k="addr:street" v="Проезд N 4806"/>
    <tag k="amenity" v="university"/>
    <tag k="building" v="yes"/>
    <tag k="note" v="конфиг с учёт.реконстр"/>
  </way>
  <way id="95930217" version="5" timestamp="2012-03-27T11:44:18Z" uid="481934" user="iWowik" changeset="11115472">
    <nd ref="428893550"/>
    <nd ref="428893667"/>
    <nd ref="1110762632"/>
    <nd ref="1110762626"/>
    <nd ref="994884845"/>
    <nd ref="994884846"/>
    <nd ref="428893550"/>
    <tag k="addr:city" v="Зеленоград"/>
    <tag k="addr:country" v="RU"/>
    <tag k="addr:housenumber" v="5 с14"/>
    <tag k="addr:region" v="Москва"/>
    <tag k="addr:street" v="Проезд N 4806"/>
    <tag k="amenity" v="university"/>
    <tag k="building" v="yes"/>
    <tag k="note" v="конфиг с учёт.реконстр"/>
  </way>
  <way id="95930218" version="1" timestamp="2011-01-20T11:14:43Z" uid="115477" user="wowik" changeset="7029303">
    <nd ref="1111477059"/>
    <nd ref="1111477102"/>
    <nd ref="1111477086"/>
    <nd ref="1111477044"/>
    <nd ref="1111477059"/>
    <tag k="addr:city" v="Зеленоград"/>
    <tag k="addr:housenumber" v="с?"/>
    <tag k="addr:street" v="Крюковская площадь"/>
    <tag k="building:levels" v="1"/>
    <tag k="note" v="Вроде снесено"/>
  </way>
  <way id="95930218" version="2" timestamp="2011-01-25T21:35:12Z" uid="380194" user="ac-trash" changeset="7088424"/>
  <way id="95930219" version="1" timestamp="2011-01-20T11:14:43Z" uid="115477" user="wowik" changeset="7029303">
    <nd ref="1111477095"/>
    <nd ref="1111477074"/>
    <nd ref="1111477036"/>
    <nd ref="1111477109"/>
    <nd ref="1111477095"/>
    <tag k="addr:city" v="Зеленоград"/>
    <tag k="addr:housenumber" v="с10"/>
    <tag k="addr:street" v="Крюковская площадь"/>
    <tag k="building:levels" v="1"/>
    <tag k="note" v="Вроде снесено"/>
  </way>
  <way id="95930219" version="2" timestamp="2012-03-27T11:47:17Z" uid="481934" user="iWowik" changeset="11115472">
    <nd ref="1111477095"/>
    <nd ref="1111477074"/>
    <nd ref="1111477036"/>
    <nd ref="1111477109"/>
    <nd ref="1111477095"/>
    <tag k="addr:city" v="Зеленоград"/>
    <tag k="addr:country" v="RU"/>
    <tag k="addr:housenumber" v="с10"/>
    <tag k="addr:region" v="Москва"/>
    <tag k="addr:street" v="Крюковская площадь"/>
    <tag k="building:levels" v="1"/>
    <tag k="note" v="Вроде снесено"/>
  </way>
  <way id="95930220" version="1" timestamp="2011-01-20T11:14:43Z" uid="115477" user="wowik" changeset="7029303">
    <nd ref="1111477105"/>
    <nd ref="1111477107"/>
    <nd ref="1111477089"/>
    <nd ref="1111477070"/>
    <nd ref="1111477082"/>
    <nd ref="1111477081"/>
    <nd ref="1111477069"/>
    <nd ref="1111477048"/>
    <nd ref="1111477034"/>
    <nd ref="1111477055"/>
    <nd ref="1111477105"/>
    <tag k="addr:city" v="Зеленоград"/>
    <tag k="addr:housenumber" v="5 с16"/>
    <tag k="addr:street" v="Проезд N 4806"/>
    <tag k="note" v="Вроде снесено"/>
  </way>
  <way id="95930220" version="2" timestamp="2011-01-20T16:57:52Z" uid="241531" user="dik_man" changeset="7032246">
    <nd ref="1111477105"/>
    <nd ref="1111477107"/>
    <nd ref="1111477089"/>
    <nd ref="1111477070"/>
    <nd ref="1111477082"/>
    <nd ref="1111477081"/>
    <nd ref="1111477069"/>
    <nd ref="1111477048"/>
    <nd ref="1111477034"/>
    <nd ref="1111477055"/>
    <nd ref="1111477105"/>
    <tag k="addr:city" v="Зеленоград"/>
    <tag k="addr:housenumber" v="5 с16"/>
    <tag k="addr:street" v="Проезд N 4806"/>
    <tag k="note" v="снесено"/>
  </way>
  <way id="95930220" version="3" timestamp="2012-03-27T11:44:19Z" uid="481934" user="iWowik" changeset="11115472">
    <nd ref="1111477105"/>
    <nd ref="1111477107"/>
    <nd ref="1111477089"/>
    <nd ref="1111477070"/>
    <nd ref="1111477082"/>
    <nd ref="1111477081"/>
    <nd ref="1111477069"/>
    <nd ref="1111477048"/>
    <nd ref="1111477034"/>
    <nd ref="1111477055"/>
    <nd ref="1111477105"/>
    <tag k="addr:city" v="Зеленоград"/>
    <tag k="addr:country" v="RU"/>
    <tag k="addr:housenumber" v="5 с16"/>
    <tag k="addr:region" v="Москва"/>
    <tag k="addr:street" v="Проезд N 4806"/>
    <tag k="note" v="снесено"/>
  </way>
  <way id="95930221" version="1" timestamp="2011-01-20T11:14:43Z" uid="115477" user="wowik" changeset="7029303">
    <nd ref="1111477084"/>
    <nd ref="1111477040"/>
    <nd ref="1111477112"/>
    <nd ref="1111477061"/>
    <nd ref="1111477084"/>
    <tag k="addr:city" v="Зеленоград"/>
    <tag k="addr:housenumber" v="5 с?"/>
    <tag k="addr:street" v="Проезд N 4806"/>
    <tag k="note" v="Вроде снесено"/>
  </way>
  <way id="95930221" version="2" timestamp="2011-01-20T16:57:51Z" uid="241531" user="dik_man" changeset="7032246">
    <nd ref="1111477084"/>
    <nd ref="1111477040"/>
    <nd ref="1111477112"/>
    <nd ref="1111477061"/>
    <nd ref="1111477084"/>
    <tag k="addr:city" v="Зеленоград"/>
    <tag k="addr:housenumber" v="5 с?"/>
    <tag k="addr:street" v="Проезд N 4806"/>
    <tag k="note" v="снесено"/>
  </way>
  <way id="95930221" version="3" timestamp="2012-03-27T11:44:39Z" uid="481934" user="iWowik" changeset="11115472">
    <nd ref="1111477084"/>
    <nd ref="1111477040"/>
    <nd ref="1111477112"/>
    <nd ref="1111477061"/>
    <nd ref="1111477084"/>
    <tag k="addr:city" v="Зеленоград"/>
    <tag k="addr:country" v="RU"/>
    <tag k="addr:housenumber" v="5 с?"/>
    <tag k="addr:region" v="Москва"/>
    <tag k="addr:street" v="Проезд N 4806"/>
    <tag k="note" v="снесено"/>
  </way>
  <way id="95930222" version="1" timestamp="2011-01-20T11:14:44Z" uid="115477" user="wowik" changeset="7029303">
    <nd ref="1111477042"/>
    <nd ref="1111477071"/>
    <nd ref="1111477073"/>
    <nd ref="1111477108"/>
    <nd ref="1111477093"/>
    <nd ref="1111477096"/>
    <nd ref="1111477075"/>
    <nd ref="1111477042"/>
    <tag k="addr:city" v="Зеленоград"/>
    <tag k="addr:housenumber" v="5 с15"/>
    <tag k="addr:street" v="Проезд N 4806"/>
    <tag k="note" v="Вроде снесено"/>
  </way>
  <way id="95930222" version="2" timestamp="2011-01-20T16:57:52Z" uid="241531" user="dik_man" changeset="7032246">
    <nd ref="1111477042"/>
    <nd ref="1111477071"/>
    <nd ref="1111477073"/>
    <nd ref="1111477108"/>
    <nd ref="1111477093"/>
    <nd ref="1111477096"/>
    <nd ref="1111477075"/>
    <nd ref="1111477042"/>
    <tag k="addr:city" v="Зеленоград"/>
    <tag k="addr:housenumber" v="5 с15"/>
    <tag k="addr:street" v="Проезд N 4806"/>
    <tag k="note" v="снесено"/>
  </way>
  <way id="95930222" version="3" timestamp="2012-03-27T11:44:19Z" uid="481934" user="iWowik" changeset="11115472">
    <nd ref="1111477042"/>
    <nd ref="1111477071"/>
    <nd ref="1111477073"/>
    <nd ref="1111477108"/>
    <nd ref="1111477093"/>
    <nd ref="1111477096"/>
    <nd ref="1111477075"/>
    <nd ref="1111477042"/>
    <tag k="addr:city" v="Зеленоград"/>
    <tag k="addr:country" v="RU"/>
    <tag k="addr:housenumber" v="5 с15"/>
    <tag k="addr:region" v="Москва"/>
    <tag k="addr:street" v="Проезд N 4806"/>
    <tag k="note" v="снесено"/>
  </way>
  <way id="95930296" version="3" timestamp="2011-01-29T03:50:33Z" uid="4467" user="Rosscoe" changeset="7119118">
    <nd ref="1111476283"/>
    <nd ref="1111479507"/>
    <nd ref="1111479510"/>
    <nd ref="1111479527"/>
    <nd ref="1111479530"/>
    <nd ref="1111479536"/>
    <tag k="highway" v="residential"/>
    <tag k="maxspeed" v="50"/>
    <tag k="name" v="Ocean Parade"/>
    <tag k="oneway" v="yes"/>
    <tag k="source" v="nearmap"/>
    <tag k="surface" v="paved"/>
  </way>
  <way id="95930296" version="4" timestamp="2011-02-28T09:38:06Z" uid="21143" user="hryciuk" changeset="7418773">
    <nd ref="1111476283"/>
    <nd ref="1111479507"/>
    <nd ref="1178847270"/>
    <nd ref="1178847253"/>
    <nd ref="1111479510"/>
    <nd ref="1111479527"/>
    <nd ref="1178847238"/>
    <nd ref="1178847281"/>
    <nd ref="1111479530"/>
    <nd ref="1111479536"/>
    <tag k="highway" v="residential"/>
    <tag k="maxspeed" v="50"/>
    <tag k="name" v="Ocean Parade"/>
    <tag k="oneway" v="yes"/>
    <tag k="source" v="nearmap"/>
    <tag k="surface" v="paved"/>
  </way>
  <way id="95930472" version="2" timestamp="2011-01-29T03:50:27Z" uid="4467" user="Rosscoe" changeset="7119118">
    <nd ref="1111479536"/>
    <nd ref="1111481511"/>
    <nd ref="1111481512"/>
    <nd ref="1111476283"/>
    <tag k="highway" v="residential"/>
    <tag k="maxspeed" v="50"/>
    <tag k="name" v="Ocean Parade"/>
    <tag k="oneway" v="yes"/>
    <tag k="source" v="nearmap"/>
    <tag k="surface" v="paved"/>
  </way>
  <way id="95930472" version="3" timestamp="2011-02-28T09:38:03Z" uid="21143" user="hryciuk" changeset="7418773">
    <nd ref="1111479536"/>
    <nd ref="1111476283"/>
    <tag k="highway" v="residential"/>
    <tag k="maxspeed" v="50"/>
    <tag k="name" v="Ocean Parade"/>
    <tag k="oneway" v="yes"/>
    <tag k="source" v="nearmap"/>
    <tag k="surface" v="paved"/>
  </way>
  <way id="95930616" version="2" timestamp="2011-01-29T03:50:33Z" uid="4467" user="Rosscoe" changeset="7119118">
    <nd ref="1111483769"/>
    <nd ref="1111483753"/>
    <tag k="highway" v="residential"/>
    <tag k="maxspeed" v="50"/>
    <tag k="name" v="Higgins Place"/>
    <tag k="source" v="nearmap"/>
    <tag k="surface" v="paved"/>
  </way>
  <way id="95930722" version="2" timestamp="2011-01-29T03:50:32Z" uid="4467" user="Rosscoe" changeset="7119118">
    <nd ref="1111485519"/>
    <nd ref="1111485528"/>
    <nd ref="1111476260"/>
    <tag k="highway" v="residential"/>
    <tag k="maxspeed" v="50"/>
    <tag k="name" v="Highland Terrace"/>
    <tag k="source" v="nearmap"/>
    <tag k="surface" v="paved"/>
  </way>
  <way id="95930872" version="2" timestamp="2011-01-29T03:50:28Z" uid="4467" user="Rosscoe" changeset="7119118">
    <nd ref="1111476273"/>
    <nd ref="1111487779"/>
    <nd ref="1111487783"/>
    <nd ref="1111487787"/>
    <tag k="highway" v="residential"/>
    <tag k="maxspeed" v="50"/>
    <tag k="name" v="Higgins Terrace"/>
    <tag k="source" v="nearmap"/>
    <tag k="surface" v="paved"/>
  </way>
  <way id="95930872" version="3" timestamp="2011-02-28T09:38:03Z" uid="21143" user="hryciuk" changeset="7418773">
    <nd ref="1111476273"/>
    <nd ref="1178847268"/>
    <nd ref="1111487783"/>
    <nd ref="1111487787"/>
    <tag k="highway" v="residential"/>
    <tag k="maxspeed" v="50"/>
    <tag k="name" v="Higgins Terrace"/>
    <tag k="source" v="nearmap"/>
    <tag k="surface" v="paved"/>
  </way>
  <way id="95930915" version="2" timestamp="2011-01-29T03:50:27Z" uid="4467" user="Rosscoe" changeset="7119118">
    <nd ref="1111488826"/>
    <nd ref="1111488827"/>
    <nd ref="1111485519"/>
    <nd ref="1111488829"/>
    <nd ref="1111487787"/>
    <tag k="highway" v="residential"/>
    <tag k="maxspeed" v="50"/>
    <tag k="name" v="Abbot Avenue"/>
    <tag k="source" v="nearmap"/>
    <tag k="surface" v="paved"/>
  </way>
</osm>
