<?xml version='1.0' encoding='UTF-8'?>
<osm version="0.6" generator="libosmium/2.20.0">
  <way id="95933318" version="3" timestamp="2011-01-29T22:59:50Z" uid="4467" user="Rosscoe" changeset="7128467">
    <nd ref="1111532819"/>
    <nd ref="1111532827"/>
    <nd ref="1111532832"/>
    <nd ref="1111532839"/>
    <nd ref="1111532843"/>
    <nd ref="1111532847"/>
    <nd ref="1111532852"/>
    <nd ref="1127094154"/>
    <nd ref="1127094138"/>
    <nd ref="1111532868"/>
    <nd ref="1111532875"/>
    <nd ref="1127094150"/>
    <nd ref="1111532894"/>
    <nd ref="1111532898"/>
    <nd ref="1111532903"/>
    <nd ref="1111544221"/>
    <nd ref="1111544198"/>
    <nd ref="1111532933"/>
    <nd ref="1111532819"/>
    <tag k="highway" v="residential"/>
    <tag k="maxspeed" v="50"/>
    <tag k="name" v="Michelmore Drive"/>
    <tag k="source" v="nearmap"/>
    <tag k="surface" v="paved"/>
  </way>
  <way id="95933420" version="2" timestamp="2011-01-29T22:59:53Z" uid="4467" user="Rosscoe" changeset="7128467">
    <nd ref="1111532843"/>
    <nd ref="1111536249"/>
    <nd ref="1127094152"/>
    <nd ref="1111536256"/>
    <nd ref="1111536271"/>
    <tag k="highway" v="residential"/>
    <tag k="maxspeed" v="50"/>
    <tag k="name" v="Sutton Court"/>
    <tag k="source" v="nearmap"/>
    <tag k="surface" v="paved"/>
  </way>
  <way id="95933421" version="2" timestamp="2011-01-29T22:59:52Z" uid="4467" user="Rosscoe" changeset="7128467">
    <nd ref="1111536273"/>
    <nd ref="1111536271"/>
    <nd ref="1111536289"/>
    <tag k="highway" v="residential"/>
    <tag k="maxspeed" v="50"/>
    <tag k="name" v="Sutton Court"/>
    <tag k="source" v="nearmap"/>
    <tag k="surface" v="paved"/>
  </way>
  <way id="95933732" version="2" timestamp="2011-03-06T21:56:27Z" uid="49111" user="Markus B" changeset="7479078">
    <nd ref="1111540552"/>
    <nd ref="261053347"/>
    <nd ref="1190060222"/>
    <nd ref="1111540558"/>
    <nd ref="452809632"/>
    <nd ref="452815484"/>
    <tag k="highway" v="primary"/>
    <tag k="ref" v="IC4"/>
    <tag k="reg_ref" v="N120-4"/>
  </way>
  <way id="95933853" version="2" timestamp="2011-01-29T22:59:50Z" uid="4467" user="Rosscoe" changeset="7128467">
    <nd ref="1111544198"/>
    <nd ref="1111544200"/>
    <nd ref="1111544205"/>
    <tag k="highway" v="residential"/>
    <tag k="maxspeed" v="50"/>
    <tag k="name" v="Alway Court"/>
    <tag k="source" v="nearmap"/>
    <tag k="surface" v="paved"/>
  </way>
  <way id="95933854" version="2" timestamp="2011-01-29T22:59:53Z" uid="4467" user="Rosscoe" changeset="7128467">
    <nd ref="1111544212"/>
    <nd ref="1111544205"/>
    <nd ref="1111544206"/>
    <tag k="highway" v="residential"/>
    <tag k="maxspeed" v="50"/>
    <tag k="name" v="Alway Court"/>
    <tag k="source" v="nearmap"/>
    <tag k="surface" v="paved"/>
  </way>
  <way id="95933855" version="2" timestamp="2011-01-29T22:59:51Z" uid="4467" user="Rosscoe" changeset="7128467">
    <nd ref="1111544221"/>
    <nd ref="1111544233"/>
    <nd ref="1111544237"/>
    <tag k="highway" v="residential"/>
    <tag k="maxspeed" v="50"/>
    <tag k="name" v="Hazel Court"/>
    <tag k="source" v="nearmap"/>
    <tag k="surface" v="paved"/>
  </way>
  <way id="95933856" version="2" timestamp="2011-01-29T22:59:51Z" uid="4467" user="Rosscoe" changeset="7128467">
    <nd ref="1111544239"/>
    <nd ref="1111544237"/>
    <nd ref="1111544245"/>
    <tag k="highway" v="residential"/>
    <tag k="maxspeed" v="50"/>
    <tag k="name" v="Hazel Court"/>
    <tag k="source" v="nearmap"/>
    <tag k="surface" v="paved"/>
  </way>
</osm>
