<?xml version='1.0' encoding='UTF-8'?>
<osm version="0.6" generator="libosmium/2.20.0">
  <way id="96044128" version="2" timestamp="2011-04-23T12:54:58Z" uid="7617" user="Franc" changeset="7943317">
    <nd ref="1112804924"/>
    <nd ref="1112804903"/>
    <nd ref="1112804940"/>
    <nd ref="1112804914"/>
    <nd ref="1112804930"/>
    <nd ref="1112804905"/>
    <nd ref="1112804875"/>
    <nd ref="1112804924"/>
    <tag k="amenity" v="car_wash"/>
    <tag k="source" v="survey"/>
    <tag k="source:location" v="nearmap"/>
  </way>
  <way id="96044131" version="2" timestamp="2011-04-23T12:54:23Z" uid="7617" user="Franc" changeset="7943317">
    <nd ref="1112804928"/>
    <nd ref="1112804910"/>
    <nd ref="1256657101"/>
    <nd ref="1256657938"/>
    <nd ref="1112804880"/>
    <nd ref="1112804936"/>
    <nd ref="1112804928"/>
    <tag k="amenity" v="school"/>
    <tag k="name" v="Saint George Christian Infants School"/>
    <tag k="source" v="survey"/>
    <tag k="source:location" v="nearmap"/>
  </way>
  <way id="96044575" version="1" timestamp="2011-01-21T09:48:45Z" uid="115477" user="wowik" changeset="7038476">
    <nd ref="1112821959"/>
    <nd ref="1112822010"/>
    <nd ref="1112822008"/>
    <nd ref="1112822014"/>
    <nd ref="1112821956"/>
    <nd ref="1112821966"/>
    <nd ref="1112821963"/>
    <nd ref="1112821974"/>
    <nd ref="1112821959"/>
    <tag k="building" v="yes"/>
  </way>
  <way id="96044576" version="1" timestamp="2011-01-21T09:48:45Z" uid="115477" user="wowik" changeset="7038476">
    <nd ref="644657958"/>
    <nd ref="644657959"/>
    <nd ref="1112821947"/>
    <nd ref="1112822001"/>
    <nd ref="644657958"/>
    <tag k="addr:city" v="Зеленоград"/>
    <tag k="addr:postcode" v="124617"/>
    <tag k="addr:street" v="Проезд N 623"/>
    <tag k="building" v="yes"/>
    <tag k="is_in" v="Russia"/>
  </way>
  <way id="96044576" version="2" timestamp="2011-02-07T11:07:33Z" uid="115477" user="wowik" changeset="7214763">
    <nd ref="644657958"/>
    <nd ref="644657959"/>
    <nd ref="1112821947"/>
    <nd ref="1112822001"/>
    <nd ref="644657958"/>
    <tag k="addr:city" v="Зеленоград"/>
    <tag k="addr:postcode" v="124617"/>
    <tag k="addr:street" v="Новокрюковская улица"/>
    <tag k="building" v="yes"/>
    <tag k="is_in" v="Russia"/>
  </way>
  <way id="96044576" version="3" timestamp="2011-09-13T10:38:11Z" uid="29320" user="Komяpa" changeset="9288237">
    <nd ref="644657958"/>
    <nd ref="644657959"/>
    <nd ref="1112821947"/>
    <nd ref="1112822001"/>
    <nd ref="644657958"/>
    <tag k="addr:city" v="Зеленоград"/>
    <tag k="addr:country" v="RU"/>
    <tag k="addr:postcode" v="124617"/>
    <tag k="addr:street" v="Новокрюковская улица"/>
    <tag k="building" v="yes"/>
  </way>
  <way id="96044577" version="1" timestamp="2011-01-21T09:48:45Z" uid="115477" user="wowik" changeset="7038476">
    <nd ref="1112821976"/>
    <nd ref="1112821965"/>
    <nd ref="1112821957"/>
    <tag k="electrified" v="contact_line"/>
    <tag k="frequency" v="0"/>
    <tag k="railway" v="rail"/>
    <tag k="service" v="yard"/>
    <tag k="voltage" v="3000"/>
  </way>
  <way id="96044578" version="1" timestamp="2011-01-21T09:48:45Z" uid="115477" user="wowik" changeset="7038476">
    <nd ref="1112821948"/>
    <nd ref="1112822005"/>
    <nd ref="1112822013"/>
    <nd ref="1112821954"/>
    <nd ref="1112821948"/>
    <tag k="building" v="yes"/>
  </way>
  <way id="96044579" version="1" timestamp="2011-01-21T09:48:45Z" uid="115477" user="wowik" changeset="7038476">
    <nd ref="1112821981"/>
    <nd ref="1112821992"/>
    <nd ref="1112822004"/>
    <nd ref="1112822011"/>
    <nd ref="1112822009"/>
    <nd ref="1112821943"/>
    <nd ref="1112821962"/>
    <nd ref="1112821972"/>
    <nd ref="1112821981"/>
  </way>
  <way id="96044579" version="2" timestamp="2011-01-25T14:28:08Z" uid="115477" user="wowik" changeset="7084094">
    <nd ref="1112821981"/>
    <nd ref="1112821992"/>
    <nd ref="1112822004"/>
    <nd ref="1112822011"/>
    <nd ref="1112822009"/>
    <nd ref="1112821943"/>
    <nd ref="1112821962"/>
    <nd ref="1112821972"/>
    <nd ref="1112821981"/>
    <tag k="building" v="yes"/>
  </way>
  <way id="96044580" version="1" timestamp="2011-01-21T09:48:46Z" uid="115477" user="wowik" changeset="7038476">
    <nd ref="1112821951"/>
    <nd ref="1112821986"/>
    <nd ref="1112821960"/>
    <nd ref="1112821970"/>
    <nd ref="1112821980"/>
    <nd ref="1112821976"/>
    <nd ref="644657955"/>
    <tag k="electrified" v="contact_line"/>
    <tag k="frequency" v="0"/>
    <tag k="railway" v="rail"/>
    <tag k="service" v="yard"/>
    <tag k="voltage" v="3000"/>
  </way>
  <way id="96044581" version="1" timestamp="2011-01-21T09:48:46Z" uid="115477" user="wowik" changeset="7038476">
    <nd ref="1112821990"/>
    <nd ref="1112821973"/>
    <nd ref="1112821982"/>
    <nd ref="1112821977"/>
    <nd ref="1112821990"/>
    <tag k="building" v="yes"/>
  </way>
  <way id="96044582" version="1" timestamp="2011-01-21T09:48:46Z" uid="115477" user="wowik" changeset="7038476">
    <nd ref="1112821958"/>
    <nd ref="1112821985"/>
    <nd ref="644657983"/>
    <nd ref="1112821978"/>
    <nd ref="1112822007"/>
    <nd ref="1112821958"/>
    <tag k="addr:city" v="Зеленоград"/>
    <tag k="addr:postcode" v="124617"/>
    <tag k="addr:street" v="Проезд N 623"/>
    <tag k="building" v="yes"/>
    <tag k="is_in" v="Russia"/>
  </way>
  <way id="96044582" version="2" timestamp="2011-02-07T11:07:32Z" uid="115477" user="wowik" changeset="7214763">
    <nd ref="1112821958"/>
    <nd ref="1112821985"/>
    <nd ref="644657983"/>
    <nd ref="1112821978"/>
    <nd ref="1112822007"/>
    <nd ref="1112821958"/>
    <tag k="addr:city" v="Зеленоград"/>
    <tag k="addr:postcode" v="124617"/>
    <tag k="addr:street" v="Новокрюковская улица"/>
    <tag k="building" v="yes"/>
    <tag k="is_in" v="Russia"/>
  </way>
  <way id="96044582" version="3" timestamp="2011-09-13T10:38:11Z" uid="29320" user="Komяpa" changeset="9288237">
    <nd ref="1112821958"/>
    <nd ref="1112821985"/>
    <nd ref="644657983"/>
    <nd ref="1112821978"/>
    <nd ref="1112822007"/>
    <nd ref="1112821958"/>
    <tag k="addr:city" v="Зеленоград"/>
    <tag k="addr:country" v="RU"/>
    <tag k="addr:postcode" v="124617"/>
    <tag k="addr:street" v="Новокрюковская улица"/>
    <tag k="building" v="yes"/>
  </way>
  <way id="96044880" version="1" timestamp="2011-01-21T09:51:31Z" uid="115477" user="wowik" changeset="7038507">
    <nd ref="1112828078"/>
    <nd ref="1112828084"/>
    <nd ref="1112828086"/>
    <nd ref="1112828061"/>
    <nd ref="1112828081"/>
    <tag k="highway" v="service"/>
  </way>
  <way id="96044901" version="1" timestamp="2011-01-21T09:51:52Z" uid="115477" user="wowik" changeset="7038510">
    <nd ref="1112828806"/>
    <nd ref="1112828084"/>
    <tag k="highway" v="service"/>
  </way>
</osm>
