<?xml version='1.0' encoding='UTF-8'?>
<osm version="0.6" generator="libosmium/2.20.0">
  <way id="9608110" version="6" timestamp="2009-07-27T12:34:54Z" uid="74617" user="JohnSmith" changeset="1955076">
    <nd ref="74814667"/>
    <nd ref="74816240"/>
    <nd ref="74816241"/>
    <nd ref="74816242"/>
    <nd ref="74816243"/>
    <nd ref="74816245"/>
    <nd ref="74816246"/>
    <nd ref="74816247"/>
    <nd ref="74816248"/>
    <tag k="railway" v="rail"/>
  </way>
  <way id="9608110" version="7" timestamp="2009-11-11T14:39:41Z" uid="16385" user="morb_au" changeset="3090568">
    <nd ref="74814667"/>
    <nd ref="74816240"/>
    <nd ref="560768689"/>
    <nd ref="74816241"/>
    <nd ref="74816242"/>
    <nd ref="560768676"/>
    <nd ref="560768678"/>
    <nd ref="74816243"/>
    <nd ref="560768669"/>
    <nd ref="74816245"/>
    <nd ref="74816246"/>
    <nd ref="74816247"/>
    <nd ref="74816248"/>
    <tag k="name" v="Gold Coast Railway"/>
    <tag k="railway" v="rail"/>
  </way>
  <way id="9608110" version="8" timestamp="2009-11-15T03:19:51Z" uid="16385" user="morb_au" changeset="3118928">
    <nd ref="74814667"/>
    <nd ref="74816240"/>
    <nd ref="560768689"/>
    <nd ref="74816241"/>
    <nd ref="74816242"/>
    <nd ref="560768676"/>
    <nd ref="560768678"/>
    <nd ref="74816243"/>
    <nd ref="560768669"/>
    <nd ref="74816245"/>
    <nd ref="74816246"/>
    <nd ref="74816247"/>
    <nd ref="564543158"/>
    <nd ref="74816248"/>
    <tag k="name" v="Gold Coast Railway"/>
    <tag k="railway" v="rail"/>
    <tag k="source" v="nearmap"/>
  </way>
  <way id="9608110" version="9" timestamp="2012-01-04T04:17:04Z" uid="103574" user="Here is the repulsant snozzcumber!" changeset="10287918">
    <nd ref="74814667"/>
    <nd ref="74816240"/>
    <nd ref="560768689"/>
    <nd ref="74816241"/>
    <nd ref="74816242"/>
    <nd ref="560768676"/>
    <nd ref="560768678"/>
    <nd ref="74816243"/>
    <nd ref="560768669"/>
    <nd ref="74816245"/>
    <nd ref="74816246"/>
    <nd ref="74816247"/>
    <nd ref="564543158"/>
    <nd ref="1576400911"/>
    <tag k="name" v="Gold Coast Railway"/>
    <tag k="railway" v="rail"/>
    <tag k="source" v="nearmap"/>
  </way>
  <way id="9608110" version="10" timestamp="2012-01-04T04:31:03Z" uid="103574" user="Here is the repulsant snozzcumber!" changeset="10287918"/>
  <way id="9608138" version="36" timestamp="2009-08-11T11:04:12Z" uid="4467" user="Rosscoe" changeset="2107049">
    <nd ref="21477681"/>
    <nd ref="21477682"/>
    <nd ref="21477683"/>
    <nd ref="21477684"/>
    <tag k="bridge" v="yes"/>
    <tag k="highway" v="trunk"/>
    <tag k="is_in" v="Brisbane, QLD, Queensland, Australia"/>
    <tag k="layer" v="1"/>
    <tag k="name" v="Ipswich Road"/>
    <tag k="oneway" v="yes"/>
    <tag k="ref" v="A7"/>
  </way>
  <way id="9608138" version="37" timestamp="2010-02-15T06:57:58Z" uid="74617" user="JohnSmith" changeset="3880463">
    <nd ref="21477681"/>
    <nd ref="21477682"/>
    <nd ref="21477683"/>
    <nd ref="21477684"/>
    <tag k="bridge" v="yes"/>
    <tag k="highway" v="trunk"/>
    <tag k="layer" v="1"/>
    <tag k="name" v="Ipswich Road"/>
    <tag k="oneway" v="yes"/>
    <tag k="ref" v="A7"/>
  </way>
  <way id="9608138" version="38" timestamp="2010-03-21T14:59:46Z" uid="74617" user="JohnSmith" changeset="4191968">
    <nd ref="21477681"/>
    <nd ref="21477682"/>
    <nd ref="21477683"/>
    <nd ref="21477684"/>
    <tag k="bridge" v="yes"/>
    <tag k="highway" v="trunk"/>
    <tag k="layer" v="1"/>
    <tag k="oneway" v="yes"/>
  </way>
  <way id="9608138" version="39" timestamp="2012-02-03T05:45:06Z" uid="103574" user="Here is the repulsant snozzcumber!" changeset="10573481"/>
  <way id="9608345" version="28" timestamp="2010-03-27T12:59:34Z" uid="20587" user="balrog-kun" changeset="4245390">
    <nd ref="17445317"/>
    <nd ref="122743600"/>
    <nd ref="589644178"/>
    <tag k="highway" v="primary"/>
    <tag k="lanes" v="5"/>
    <tag k="maxspeed" v="56"/>
    <tag k="name" v="Atlantic Boulevard"/>
    <tag k="source" v="survey;image;usgs_imagery"/>
    <tag k="source_ref" v="AM909_DSCQ0955"/>
  </way>
  <way id="9608345" version="29" timestamp="2010-07-15T01:06:20Z" uid="82317" user="AM909" changeset="5223033">
    <nd ref="17445317"/>
    <nd ref="122743600"/>
    <nd ref="589644178"/>
    <tag k="highway" v="primary"/>
    <tag k="lanes" v="5"/>
    <tag k="maxspeed" v="35 mph"/>
    <tag k="name" v="Atlantic Boulevard"/>
    <tag k="source" v="survey;image;usgs_imagery"/>
    <tag k="source_ref" v="AM909_DSCQ0955"/>
  </way>
  <way id="9608345" version="30" timestamp="2011-01-11T23:16:00Z" uid="82317" user="AM909" changeset="6942883">
    <nd ref="17445317"/>
    <nd ref="1098842889"/>
    <nd ref="1098842947"/>
    <nd ref="122743600"/>
    <nd ref="589644178"/>
    <tag k="highway" v="primary"/>
    <tag k="lanes" v="5"/>
    <tag k="maxspeed" v="35 mph"/>
    <tag k="name" v="Atlantic Boulevard"/>
    <tag k="source" v="survey;image;usgs_imagery"/>
    <tag k="source_ref" v="AM909_DSCQ0955"/>
  </way>
  <way id="9608346" version="5" timestamp="2010-03-27T12:59:34Z" uid="20587" user="balrog-kun" changeset="4245390">
    <nd ref="36220462"/>
    <nd ref="390312303"/>
    <nd ref="36220464"/>
    <tag k="bridge" v="yes"/>
    <tag k="highway" v="primary"/>
    <tag k="layer" v="1"/>
    <tag k="name" v="Atlantic Avenue"/>
  </way>
  <way id="9608346" version="6" timestamp="2012-01-10T01:17:37Z" uid="92286" user="Paul Johnson" changeset="10347828">
    <nd ref="36220462"/>
    <nd ref="36220464"/>
    <tag k="bridge" v="yes"/>
    <tag k="highway" v="primary"/>
    <tag k="layer" v="1"/>
    <tag k="name" v="Atlantic Avenue"/>
  </way>
  <way id="9608848" version="29" timestamp="2010-03-20T16:43:46Z" uid="74617" user="JohnSmith" changeset="4181845">
    <nd ref="86872443"/>
    <nd ref="86872356"/>
    <nd ref="86872339"/>
    <nd ref="86873428"/>
    <nd ref="86872984"/>
    <nd ref="86872718"/>
    <nd ref="21478141"/>
    <nd ref="86873367"/>
    <nd ref="86873018"/>
    <nd ref="260558843"/>
    <nd ref="86873669"/>
    <nd ref="86871221"/>
    <nd ref="86873833"/>
    <nd ref="86873559"/>
    <nd ref="86873927"/>
    <nd ref="86873487"/>
    <nd ref="86873584"/>
    <nd ref="86873963"/>
    <nd ref="453758692"/>
    <nd ref="74827587"/>
    <tag k="highway" v="primary"/>
    <tag k="name" v="Main Street"/>
  </way>
  <way id="9608848" version="30" timestamp="2012-03-30T01:57:11Z" uid="349913" user="Peter W34" changeset="11146361"/>
  <way id="9608885" version="12" timestamp="2010-02-14T17:10:25Z" uid="74617" user="JohnSmith" changeset="3875836">
    <nd ref="74827587"/>
    <nd ref="21478972"/>
    <nd ref="206110528"/>
    <nd ref="74853995"/>
    <nd ref="21478973"/>
    <tag k="highway" v="primary"/>
    <tag k="name" v="Main Street"/>
    <tag k="oneway" v="yes"/>
  </way>
  <way id="9608885" version="13" timestamp="2011-01-16T03:30:36Z" uid="22094" user="Chadzopkyo" changeset="6984036">
    <nd ref="74827587"/>
    <nd ref="21478972"/>
    <nd ref="206110528"/>
    <nd ref="1105749188"/>
    <nd ref="74853995"/>
    <nd ref="21478973"/>
    <tag k="highway" v="primary"/>
    <tag k="name" v="Main Street"/>
    <tag k="oneway" v="yes"/>
  </way>
  <way id="9608885" version="14" timestamp="2012-03-30T01:57:11Z" uid="349913" user="Peter W34" changeset="11146361"/>
  <way id="9608939" version="13" timestamp="2010-02-14T17:10:44Z" uid="74617" user="JohnSmith" changeset="3875836">
    <nd ref="74829267"/>
    <nd ref="86871221"/>
    <tag k="highway" v="residential"/>
    <tag k="maxspeed" v="50"/>
    <tag k="name" v="Lockerbie Street"/>
  </way>
  <way id="9608939" version="14" timestamp="2012-01-15T08:38:00Z" uid="147510" user="woodpeck_fixbot" changeset="10395278">
    <nd ref="74829267"/>
    <nd ref="86871221"/>
    <tag k="highway" v="residential"/>
    <tag k="name" v="Lockerbie Street"/>
  </way>
</osm>
