<?xml version='1.0' encoding='UTF-8'?>
<osm version="0.6" generator="libosmium/2.20.0">
  <way id="96114983" version="1" timestamp="2011-01-21T19:41:16Z" uid="115477" user="wowik" changeset="7043767">
    <nd ref="1113640831"/>
    <nd ref="1113640849"/>
    <nd ref="1113640834"/>
    <nd ref="1113640852"/>
    <nd ref="1113640855"/>
    <nd ref="1113640857"/>
    <nd ref="1113640831"/>
    <tag k="building" v="yes"/>
    <tag k="building:levels" v="1"/>
    <tag k="shop" v="yes"/>
  </way>
  <way id="96114983" version="2" timestamp="2011-12-13T07:27:23Z" uid="126304" user="TarzanASG" changeset="10105192">
    <nd ref="1113640831"/>
    <nd ref="1113640849"/>
    <nd ref="1113640834"/>
    <nd ref="1113640852"/>
    <nd ref="1113640855"/>
    <nd ref="1113640857"/>
    <nd ref="1113640831"/>
    <tag k="building" v="retail"/>
    <tag k="building:levels" v="1"/>
    <tag k="shop" v="yes"/>
  </way>
  <way id="96114983" version="3" timestamp="2011-12-14T07:41:09Z" uid="143266" user="Sergey Astakhov" changeset="10113313">
    <nd ref="1113640831"/>
    <nd ref="1113640849"/>
    <nd ref="1113640834"/>
    <nd ref="1113640852"/>
    <nd ref="1113640855"/>
    <nd ref="1113640857"/>
    <nd ref="1113640831"/>
    <tag k="building" v="yes"/>
    <tag k="building:levels" v="1"/>
    <tag k="shop" v="yes"/>
  </way>
  <way id="96114983" version="4" timestamp="2012-03-27T08:14:02Z" uid="481934" user="iWowik" changeset="11113698">
    <nd ref="1113640831"/>
    <nd ref="1113640849"/>
    <nd ref="1113640834"/>
    <nd ref="1113640852"/>
    <nd ref="1113640855"/>
    <nd ref="1113640857"/>
    <nd ref="1113640831"/>
    <tag k="addr:city" v="Зеленоград"/>
    <tag k="addr:country" v="RU"/>
    <tag k="building" v="yes"/>
    <tag k="building:levels" v="1"/>
    <tag k="shop" v="yes"/>
  </way>
  <way id="96114983" version="5" timestamp="2012-03-27T11:54:49Z" uid="481934" user="iWowik" changeset="11115472">
    <nd ref="1113640831"/>
    <nd ref="1113640849"/>
    <nd ref="1113640834"/>
    <nd ref="1113640852"/>
    <nd ref="1113640855"/>
    <nd ref="1113640857"/>
    <nd ref="1113640831"/>
    <tag k="addr:city" v="Зеленоград"/>
    <tag k="addr:country" v="RU"/>
    <tag k="addr:region" v="Москва"/>
    <tag k="building" v="yes"/>
    <tag k="building:levels" v="1"/>
    <tag k="shop" v="yes"/>
  </way>
</osm>
