<?xml version='1.0' encoding='UTF-8'?>
<osm version="0.6" generator="libosmium/2.20.0">
  <way id="9629017" version="6" timestamp="2009-12-12T10:03:44Z" uid="4467" user="Rosscoe" changeset="3354566">
    <nd ref="75157621"/>
    <nd ref="298326708"/>
    <nd ref="75157937"/>
    <nd ref="75157938"/>
    <nd ref="75157939"/>
    <nd ref="75157940"/>
    <nd ref="75158008"/>
    <tag k="highway" v="motorway_link"/>
    <tag k="name" v="Western Ring Road Onramp"/>
    <tag k="oneway" v="yes"/>
  </way>
  <way id="9629017" version="7" timestamp="2009-12-12T10:04:59Z" uid="4467" user="Rosscoe" changeset="3354570">
    <nd ref="75157621"/>
    <nd ref="298326708"/>
    <nd ref="75157937"/>
    <nd ref="75157938"/>
    <nd ref="75157939"/>
    <nd ref="75157940"/>
    <nd ref="75158008"/>
    <tag k="highway" v="motorway_link"/>
    <tag k="name" v="Western Ring Road Onramp"/>
    <tag k="oneway" v="yes"/>
    <tag k="source" v="survey;nearmap"/>
  </way>
  <way id="9629022" version="3" timestamp="2009-12-12T10:03:44Z" uid="4467" user="Rosscoe" changeset="3354566"/>
  <way id="9629057" version="5" timestamp="2010-02-14T17:14:53Z" uid="74617" user="JohnSmith" changeset="3875836">
    <nd ref="75158623"/>
    <nd ref="287513721"/>
    <nd ref="75158700"/>
    <tag k="highway" v="unclassified"/>
    <tag k="maxspeed" v="50"/>
    <tag k="name" v="Cousins Street"/>
  </way>
  <way id="9629057" version="6" timestamp="2012-01-15T08:39:42Z" uid="147510" user="woodpeck_fixbot" changeset="10395278">
    <nd ref="75158623"/>
    <nd ref="287513721"/>
    <nd ref="75158700"/>
    <tag k="highway" v="unclassified"/>
    <tag k="name" v="Cousins Street"/>
  </way>
  <way id="9629065" version="5" timestamp="2009-12-12T10:03:44Z" uid="4467" user="Rosscoe" changeset="3354566">
    <nd ref="75158541"/>
    <nd ref="75158823"/>
    <nd ref="75158824"/>
    <nd ref="75158825"/>
    <nd ref="75158826"/>
    <nd ref="75158827"/>
    <nd ref="75158828"/>
    <tag k="highway" v="motorway_link"/>
    <tag k="name" v="Boundary Road Offramp"/>
    <tag k="oneway" v="yes"/>
  </way>
  <way id="9629065" version="6" timestamp="2009-12-12T10:05:00Z" uid="4467" user="Rosscoe" changeset="3354570">
    <nd ref="75158541"/>
    <nd ref="75158823"/>
    <nd ref="75158824"/>
    <nd ref="75158825"/>
    <nd ref="75158826"/>
    <nd ref="75158827"/>
    <nd ref="75158828"/>
    <nd ref="75156602"/>
    <tag k="highway" v="motorway_link"/>
    <tag k="name" v="Boundary Road Offramp"/>
    <tag k="oneway" v="yes"/>
    <tag k="source" v="survey;nearmap"/>
  </way>
  <way id="9629117" version="4" timestamp="2009-12-12T10:05:00Z" uid="4467" user="Rosscoe" changeset="3354570"/>
  <way id="9629125" version="7" timestamp="2009-12-12T10:05:00Z" uid="4467" user="Rosscoe" changeset="3354570"/>
  <way id="9629349" version="3" timestamp="2009-12-16T13:47:55Z" uid="4467" user="Rosscoe" changeset="3386759">
    <nd ref="75155400"/>
    <nd ref="75161824"/>
    <nd ref="75161825"/>
    <nd ref="75161826"/>
    <nd ref="75161827"/>
    <nd ref="75161828"/>
    <tag k="highway" v="secondary"/>
    <tag k="name" v="Boundary Road"/>
    <tag k="oneway" v="yes"/>
    <tag k="source" v="nearmap"/>
  </way>
  <way id="9629349" version="4" timestamp="2010-04-27T13:38:43Z" uid="79475" user="AlexOnTheBus" changeset="4541194">
    <nd ref="75155400"/>
    <nd ref="75161824"/>
    <nd ref="75161825"/>
    <nd ref="75161826"/>
    <nd ref="75161827"/>
    <nd ref="75161828"/>
    <tag k="highway" v="tertiary"/>
    <tag k="name" v="Boundary Road"/>
    <tag k="oneway" v="yes"/>
    <tag k="source" v="nearmap"/>
  </way>
  <way id="9629349" version="5" timestamp="2011-12-08T11:08:02Z" uid="11111" user="melb_guy" changeset="10064252">
    <nd ref="75155400"/>
    <nd ref="75161824"/>
    <nd ref="75161825"/>
    <nd ref="75161826"/>
    <nd ref="75161827"/>
    <nd ref="75161828"/>
    <tag k="highway" v="secondary"/>
    <tag k="lanes" v="2"/>
    <tag k="maxspeed" v="80"/>
    <tag k="name" v="Boundary Road"/>
    <tag k="oneway" v="yes"/>
    <tag k="surface" v="asphalt"/>
  </way>
  <way id="9629358" version="3" timestamp="2009-12-16T13:47:52Z" uid="4467" user="Rosscoe" changeset="3386759">
    <nd ref="75161847"/>
    <nd ref="75161935"/>
    <nd ref="75161936"/>
    <tag k="highway" v="secondary"/>
    <tag k="name" v="Boundary Road"/>
    <tag k="oneway" v="yes"/>
    <tag k="source" v="nearmap"/>
  </way>
  <way id="9629358" version="4" timestamp="2010-04-27T13:38:49Z" uid="79475" user="AlexOnTheBus" changeset="4541194">
    <nd ref="75161847"/>
    <nd ref="75161935"/>
    <nd ref="75161936"/>
    <tag k="highway" v="tertiary"/>
    <tag k="name" v="Boundary Road"/>
    <tag k="oneway" v="yes"/>
    <tag k="source" v="nearmap"/>
  </way>
  <way id="9629358" version="5" timestamp="2010-07-14T14:50:24Z" uid="79475" user="AlexOnTheBus" changeset="5217501">
    <nd ref="817329001"/>
    <nd ref="817329352"/>
    <nd ref="817329354"/>
    <nd ref="75161847"/>
    <nd ref="75161935"/>
    <nd ref="75161936"/>
    <tag k="highway" v="tertiary"/>
    <tag k="name" v="Boundary Road"/>
    <tag k="oneway" v="yes"/>
    <tag k="source" v="nearmap"/>
  </way>
  <way id="9629358" version="6" timestamp="2011-11-18T10:49:54Z" uid="11111" user="melb_guy" changeset="9862690">
    <nd ref="817329001"/>
    <nd ref="817329352"/>
    <nd ref="817329354"/>
    <nd ref="75161847"/>
    <nd ref="75161935"/>
    <nd ref="75161936"/>
    <tag k="highway" v="tertiary"/>
    <tag k="lanes" v="2"/>
    <tag k="maxspeed" v="80"/>
    <tag k="name" v="Boundary Road"/>
    <tag k="oneway" v="yes"/>
    <tag k="surface" v="asphalt"/>
  </way>
  <way id="9629403" version="5" timestamp="2009-12-16T13:47:50Z" uid="4467" user="Rosscoe" changeset="3386759">
    <nd ref="75161936"/>
    <nd ref="75162574"/>
    <nd ref="75162575"/>
    <nd ref="593602531"/>
    <nd ref="369729609"/>
    <nd ref="75162576"/>
    <nd ref="75162579"/>
    <nd ref="75162581"/>
    <nd ref="75162582"/>
    <tag k="highway" v="secondary"/>
    <tag k="name" v="Boundary Road"/>
    <tag k="oneway" v="yes"/>
  </way>
  <way id="9629403" version="6" timestamp="2010-04-27T13:38:50Z" uid="79475" user="AlexOnTheBus" changeset="4541194">
    <nd ref="75161936"/>
    <nd ref="75162574"/>
    <nd ref="75162575"/>
    <nd ref="593602531"/>
    <nd ref="369729609"/>
    <nd ref="75162576"/>
    <nd ref="75162579"/>
    <nd ref="75162581"/>
    <nd ref="75162582"/>
    <tag k="highway" v="tertiary"/>
    <tag k="name" v="Boundary Road"/>
    <tag k="oneway" v="yes"/>
  </way>
  <way id="9629403" version="7" timestamp="2010-05-13T01:49:25Z" uid="11111" user="lakeyboy" changeset="4682079">
    <nd ref="75161936"/>
    <nd ref="731664957"/>
    <nd ref="75162574"/>
    <nd ref="75162575"/>
    <nd ref="593602531"/>
    <nd ref="369729609"/>
    <nd ref="75162576"/>
    <nd ref="75162579"/>
    <nd ref="75162581"/>
    <nd ref="75162582"/>
    <tag k="highway" v="tertiary"/>
    <tag k="name" v="Boundary Road"/>
    <tag k="oneway" v="yes"/>
  </way>
  <way id="9629403" version="8" timestamp="2010-05-13T01:49:50Z" uid="11111" user="lakeyboy" changeset="4682079">
    <nd ref="75161936"/>
    <nd ref="731664957"/>
    <nd ref="75162574"/>
    <nd ref="75162575"/>
    <nd ref="593602531"/>
    <nd ref="369729609"/>
    <nd ref="75162576"/>
    <nd ref="75162579"/>
    <nd ref="75162581"/>
    <nd ref="75162582"/>
    <tag k="highway" v="tertiary"/>
    <tag k="lanes" v="2"/>
    <tag k="name" v="Boundary Road"/>
    <tag k="oneway" v="yes"/>
    <tag k="source" v="nearmap"/>
  </way>
  <way id="9629403" version="9" timestamp="2010-05-13T01:58:32Z" uid="11111" user="lakeyboy" changeset="4682079">
    <nd ref="75161936"/>
    <nd ref="731664957"/>
    <nd ref="75162574"/>
    <nd ref="75162575"/>
    <nd ref="593602531"/>
    <nd ref="731675285"/>
    <nd ref="369729609"/>
    <nd ref="75162576"/>
    <nd ref="75162579"/>
    <nd ref="75162581"/>
    <nd ref="75162582"/>
    <tag k="highway" v="tertiary"/>
    <tag k="lanes" v="2"/>
    <tag k="name" v="Boundary Road"/>
    <tag k="oneway" v="yes"/>
    <tag k="source" v="nearmap"/>
  </way>
  <way id="9629403" version="10" timestamp="2011-12-08T11:08:02Z" uid="11111" user="melb_guy" changeset="10064252">
    <nd ref="75161936"/>
    <nd ref="731664957"/>
    <nd ref="75162574"/>
    <nd ref="75162575"/>
    <nd ref="593602531"/>
    <nd ref="731675285"/>
    <nd ref="369729609"/>
    <nd ref="75162576"/>
    <nd ref="75162579"/>
    <nd ref="75162581"/>
    <nd ref="75162582"/>
    <tag k="highway" v="secondary"/>
    <tag k="lanes" v="2"/>
    <tag k="name" v="Boundary Road"/>
    <tag k="oneway" v="yes"/>
    <tag k="surface" v="asphalt"/>
  </way>
  <way id="9629440" version="2" timestamp="2009-12-16T13:47:52Z" uid="4467" user="Rosscoe" changeset="3386759">
    <nd ref="75161847"/>
    <nd ref="593602414"/>
    <tag k="highway" v="secondary"/>
    <tag k="name" v="Boundary Road"/>
  </way>
  <way id="9629440" version="3" timestamp="2010-04-27T13:38:48Z" uid="79475" user="AlexOnTheBus" changeset="4541194">
    <nd ref="75161847"/>
    <nd ref="593602414"/>
    <tag k="highway" v="tertiary"/>
    <tag k="name" v="Boundary Road"/>
  </way>
  <way id="9629440" version="4" timestamp="2010-04-27T23:45:44Z" uid="79475" user="AlexOnTheBus" changeset="4545934">
    <nd ref="75161847"/>
    <nd ref="709367728"/>
    <nd ref="709367750"/>
    <nd ref="709367753"/>
    <nd ref="593602414"/>
    <tag k="highway" v="tertiary"/>
    <tag k="name" v="Boundary Road"/>
  </way>
  <way id="9629440" version="5" timestamp="2010-07-14T14:47:50Z" uid="79475" user="AlexOnTheBus" changeset="5217501">
    <nd ref="75161847"/>
    <nd ref="709367728"/>
    <nd ref="709367750"/>
    <tag k="highway" v="tertiary"/>
    <tag k="name" v="Boundary Road"/>
  </way>
  <way id="9629440" version="6" timestamp="2010-07-14T14:48:45Z" uid="79475" user="AlexOnTheBus" changeset="5217501"/>
  <way id="9629492" version="6" timestamp="2010-07-06T09:51:47Z" uid="74617" user="JohnSmith" changeset="5147679">
    <nd ref="26338645"/>
    <nd ref="26338644"/>
    <nd ref="26338643"/>
    <tag k="highway" v="residential"/>
    <tag k="maxspeed" v="50"/>
    <tag k="maxspeed:source" v="default residential speed limit in Australia"/>
    <tag k="name" v="Ford Street"/>
  </way>
  <way id="9629492" version="7" timestamp="2012-01-15T08:39:43Z" uid="147510" user="woodpeck_fixbot" changeset="10395278">
    <nd ref="26338645"/>
    <nd ref="26338644"/>
    <nd ref="26338643"/>
    <tag k="highway" v="residential"/>
    <tag k="name" v="Ford Street"/>
  </way>
  <way id="9629495" version="10" timestamp="2010-01-31T13:20:14Z" uid="74617" user="JohnSmith" changeset="3758955">
    <nd ref="359337957"/>
    <nd ref="26337982"/>
    <nd ref="26337980"/>
    <nd ref="26337983"/>
    <tag k="highway" v="footway"/>
  </way>
  <way id="9629495" version="11" timestamp="2010-07-24T05:18:22Z" uid="4467" user="Rosscoe" changeset="5300812">
    <nd ref="359337957"/>
    <nd ref="26337982"/>
    <nd ref="830903708"/>
    <nd ref="830903907"/>
    <nd ref="830903557"/>
    <nd ref="26337980"/>
    <nd ref="26337983"/>
    <tag k="highway" v="footway"/>
  </way>
  <way id="9629496" version="5" timestamp="2010-01-31T13:20:15Z" uid="74617" user="JohnSmith" changeset="3758955">
    <nd ref="75043821"/>
    <nd ref="75163526"/>
    <nd ref="403638234"/>
    <nd ref="200101442"/>
    <nd ref="200101262"/>
    <nd ref="200101263"/>
    <tag k="highway" v="service"/>
  </way>
  <way id="9629496" version="6" timestamp="2010-07-24T05:18:33Z" uid="4467" user="Rosscoe" changeset="5300812">
    <nd ref="75043821"/>
    <nd ref="830903520"/>
    <nd ref="75163526"/>
    <nd ref="403638234"/>
    <nd ref="200101442"/>
    <nd ref="200101262"/>
    <nd ref="200101263"/>
    <tag k="highway" v="service"/>
  </way>
  <way id="9629498" version="17" timestamp="2010-07-22T01:47:13Z" uid="4467" user="Rosscoe" changeset="5283651">
    <nd ref="26337594"/>
    <nd ref="610685423"/>
    <nd ref="26337956"/>
    <nd ref="26337532"/>
    <nd ref="828396347"/>
    <nd ref="26337950"/>
    <nd ref="26337951"/>
    <nd ref="353183248"/>
    <nd ref="75209254"/>
    <tag k="highway" v="primary"/>
    <tag k="name" v="Frodsham Street"/>
    <tag k="oneway" v="yes"/>
    <tag k="ref" v="S26"/>
  </way>
  <way id="9629498" version="18" timestamp="2011-06-19T08:44:05Z" uid="22094" user="Chadzopkyo" changeset="8481215">
    <nd ref="26337594"/>
    <nd ref="1330475261"/>
    <nd ref="610685423"/>
    <nd ref="26337956"/>
    <nd ref="26337532"/>
    <nd ref="828396347"/>
    <nd ref="26337950"/>
    <nd ref="26337951"/>
    <nd ref="353183248"/>
    <nd ref="75209254"/>
    <tag k="highway" v="primary"/>
    <tag k="name" v="Frodsham Street"/>
    <tag k="oneway" v="yes"/>
    <tag k="ref" v="S26"/>
  </way>
  <way id="9629498" version="19" timestamp="2011-07-01T09:26:34Z" uid="22094" user="Chadzopkyo" changeset="8597569">
    <nd ref="26337594"/>
    <nd ref="1330475261"/>
    <nd ref="1345595078"/>
    <nd ref="610685423"/>
    <nd ref="1345595081"/>
    <nd ref="1345595085"/>
    <nd ref="26337532"/>
    <nd ref="828396347"/>
    <nd ref="26337950"/>
    <nd ref="26337951"/>
    <nd ref="353183248"/>
    <nd ref="75209254"/>
    <tag k="highway" v="primary"/>
    <tag k="name" v="Frodsham Street"/>
    <tag k="oneway" v="yes"/>
    <tag k="ref" v="S26"/>
  </way>
  <way id="9629600" version="5" timestamp="2009-12-16T13:47:52Z" uid="4467" user="Rosscoe" changeset="3386759">
    <nd ref="593602411"/>
    <nd ref="281939285"/>
    <tag k="highway" v="unclassified"/>
    <tag k="name" v="Boundary Road"/>
    <tag k="surface" v="paved"/>
  </way>
  <way id="9629600" version="6" timestamp="2010-04-27T23:45:41Z" uid="79475" user="AlexOnTheBus" changeset="4545934">
    <nd ref="709367453"/>
    <nd ref="281939285"/>
    <tag k="highway" v="unclassified"/>
    <tag k="name" v="Boundary Road"/>
    <tag k="surface" v="paved"/>
  </way>
  <way id="9629600" version="7" timestamp="2011-04-15T10:44:38Z" uid="4467" user="Rosscoe" changeset="7868461">
    <nd ref="709367430"/>
    <nd ref="281939285"/>
    <tag k="highway" v="unclassified"/>
    <tag k="name" v="Boundary Road"/>
    <tag k="surface" v="paved"/>
  </way>
  <way id="9629600" version="8" timestamp="2011-11-18T10:49:54Z" uid="11111" user="melb_guy" changeset="9862690">
    <nd ref="1507184986"/>
    <nd ref="75165496"/>
    <nd ref="75165495"/>
    <nd ref="75165494"/>
    <nd ref="1507185015"/>
    <nd ref="709367430"/>
    <nd ref="281939285"/>
    <tag k="highway" v="unclassified"/>
    <tag k="maxspeed" v="60"/>
    <tag k="name" v="Boundary Road"/>
    <tag k="surface" v="asphalt"/>
  </way>
  <way id="9629613" version="1" timestamp="2007-10-16T11:05:19Z" uid="1066" user="pavel" changeset="204763">
    <nd ref="73343109"/>
    <nd ref="73406618"/>
    <nd ref="73445765"/>
    <nd ref="73491281"/>
    <nd ref="73299244"/>
    <nd ref="73362112"/>
    <nd ref="73410679"/>
    <nd ref="73457779"/>
    <nd ref="73297711"/>
    <nd ref="73373102"/>
    <nd ref="75165621"/>
    <nd ref="75165635"/>
    <nd ref="75165646"/>
    <nd ref="75165659"/>
    <nd ref="75165671"/>
    <nd ref="75165680"/>
    <tag k="created_by" v="shpupload"/>
    <tag k="highway" v="motorway_link"/>
    <tag k="source" v="HELP SERVICE - REMOTE SENSING spol. s r.o. http://www.bnhelp.cz"/>
  </way>
  <way id="9629613" version="2" timestamp="2010-10-30T20:56:00Z" uid="109925" user="WanMil" changeset="6233274">
    <nd ref="73343109"/>
    <nd ref="73406618"/>
    <nd ref="73445765"/>
    <nd ref="73491281"/>
    <nd ref="73299244"/>
    <nd ref="73362112"/>
    <nd ref="73410679"/>
    <nd ref="73457779"/>
    <nd ref="73297711"/>
    <nd ref="73373102"/>
    <nd ref="75165621"/>
    <nd ref="75165635"/>
    <tag k="highway" v="motorway_link"/>
    <tag k="oneway" v="no"/>
    <tag k="source" v="HELP SERVICE - REMOTE SENSING spol. s r.o. http://www.bnhelp.cz"/>
  </way>
  <way id="9629898" version="3" timestamp="2009-12-28T03:40:25Z" uid="30201" user="rrankin" changeset="3468631">
    <nd ref="75167247"/>
    <nd ref="600233110"/>
    <nd ref="75167258"/>
    <nd ref="75167275"/>
    <nd ref="75167305"/>
    <nd ref="75167324"/>
    <nd ref="75167344"/>
    <nd ref="75167370"/>
    <nd ref="75167387"/>
    <nd ref="75167416"/>
    <nd ref="75167438"/>
    <nd ref="75167466"/>
    <nd ref="75167485"/>
    <nd ref="600233111"/>
    <nd ref="355508231"/>
    <tag k="source" v="yahoo_imagery"/>
    <tag k="waterway" v="stream"/>
  </way>
  <way id="9629898" version="4" timestamp="2011-05-16T06:46:56Z" uid="9477" user="NilbogAus" changeset="8159450">
    <nd ref="75167247"/>
    <nd ref="600233110"/>
    <nd ref="75167258"/>
    <nd ref="75167275"/>
    <nd ref="75167305"/>
    <nd ref="75167324"/>
    <nd ref="75167344"/>
    <nd ref="75167370"/>
    <nd ref="75167387"/>
    <nd ref="75167416"/>
    <nd ref="75167438"/>
    <nd ref="75167466"/>
    <nd ref="75167485"/>
    <nd ref="1287409957"/>
    <nd ref="355508232"/>
    <tag k="source" v="yahoo_imagery"/>
    <tag k="waterway" v="stream"/>
  </way>
  <way id="9629898" version="5" timestamp="2011-05-28T00:39:58Z" uid="9477" user="NilbogAus" changeset="8267884">
    <nd ref="1302783138"/>
    <nd ref="75167247"/>
    <nd ref="600233110"/>
    <nd ref="75167258"/>
    <nd ref="75167275"/>
    <nd ref="75167305"/>
    <nd ref="75167324"/>
    <nd ref="75167344"/>
    <nd ref="75167370"/>
    <nd ref="75167387"/>
    <nd ref="75167416"/>
    <nd ref="75167438"/>
    <nd ref="75167466"/>
    <nd ref="75167485"/>
    <nd ref="1287409957"/>
    <nd ref="355508232"/>
    <tag k="layer" v="-1"/>
    <tag k="name" v="Nyrippin Creek"/>
    <tag k="source" v="survey"/>
    <tag k="waterway" v="stream"/>
  </way>
  <way id="9629937" version="5" timestamp="2010-02-14T17:15:13Z" uid="74617" user="JohnSmith" changeset="3875836">
    <nd ref="75169719"/>
    <nd ref="415514992"/>
    <nd ref="75169816"/>
    <tag k="highway" v="residential"/>
    <tag k="maxspeed" v="50"/>
    <tag k="name" v="Howard Street"/>
  </way>
  <way id="9629937" version="6" timestamp="2012-01-15T08:39:44Z" uid="147510" user="woodpeck_fixbot" changeset="10395278">
    <nd ref="75169719"/>
    <nd ref="415514992"/>
    <nd ref="75169816"/>
    <tag k="highway" v="residential"/>
    <tag k="name" v="Howard Street"/>
  </way>
  <way id="9629945" version="7" timestamp="2010-04-30T11:16:46Z" uid="74617" user="JohnSmith" changeset="4564503">
    <nd ref="75169055"/>
    <nd ref="281921509"/>
    <nd ref="174568733"/>
    <nd ref="174571295"/>
    <nd ref="174568736"/>
    <nd ref="713118344"/>
    <nd ref="75169904"/>
    <nd ref="75169901"/>
    <tag k="highway" v="tertiary"/>
    <tag k="name" v="Mount Cottrell Road"/>
  </way>
  <way id="9629945" version="8" timestamp="2011-08-26T02:55:08Z" uid="11111" user="melb_guy" changeset="9126183">
    <nd ref="75169055"/>
    <nd ref="281921509"/>
    <nd ref="174568733"/>
    <nd ref="174571295"/>
    <nd ref="174568736"/>
    <nd ref="713118344"/>
    <nd ref="75169904"/>
    <nd ref="1412733103"/>
    <nd ref="1412733158"/>
    <nd ref="1412733061"/>
    <tag k="highway" v="unclassified"/>
    <tag k="lanes" v="2"/>
    <tag k="maxspeed" v="100"/>
    <tag k="name" v="Mount Cottrell Road"/>
    <tag k="surface" v="dirt"/>
  </way>
  <way id="9629945" version="9" timestamp="2011-08-26T03:09:24Z" uid="11111" user="melb_guy" changeset="9126190">
    <nd ref="75169055"/>
    <nd ref="1412750458"/>
    <tag k="highway" v="tertiary"/>
    <tag k="lanes" v="2"/>
    <tag k="maxspeed" v="100"/>
    <tag k="name" v="Mount Cottrell Road"/>
    <tag k="surface" v="dirt"/>
  </way>
  <way id="9629968" version="3" timestamp="2010-04-07T16:21:41Z" uid="20587" user="balrog-kun" changeset="4355840">
    <nd ref="75205761"/>
    <nd ref="75170186"/>
    <nd ref="75162034"/>
    <tag k="highway" v="residential"/>
    <tag k="name" v="32nd Street South"/>
    <tag k="tiger:cfcc" v="A41"/>
    <tag k="tiger:county" v="Cass, ND"/>
    <tag k="tiger:name_base" v="32nd"/>
    <tag k="tiger:name_direction_suffix" v="S"/>
    <tag k="tiger:name_type" v="St"/>
    <tag k="tiger:reviewed" v="no"/>
    <tag k="tiger:separated" v="no"/>
    <tag k="tiger:source" v="tiger_import_dch_v0.6_20070829"/>
    <tag k="tiger:tlid" v="151463985"/>
    <tag k="tiger:zip_right" v="58103"/>
  </way>
  <way id="9629968" version="4" timestamp="2010-06-24T00:50:18Z" uid="170882" user="NathanBergeson" changeset="5063010">
    <nd ref="75205761"/>
    <nd ref="786407392"/>
    <nd ref="75170186"/>
    <nd ref="75162034"/>
    <tag k="highway" v="residential"/>
    <tag k="name" v="32nd Street South"/>
    <tag k="tiger:cfcc" v="A41"/>
    <tag k="tiger:county" v="Cass, ND"/>
    <tag k="tiger:name_base" v="32nd"/>
    <tag k="tiger:name_direction_suffix" v="S"/>
    <tag k="tiger:name_type" v="St"/>
    <tag k="tiger:reviewed" v="no"/>
    <tag k="tiger:separated" v="no"/>
    <tag k="tiger:source" v="tiger_import_dch_v0.6_20070829"/>
    <tag k="tiger:tlid" v="151463985"/>
    <tag k="tiger:zip_right" v="58103"/>
  </way>
  <way id="9629990" version="7" timestamp="2010-02-14T17:14:07Z" uid="74617" user="JohnSmith" changeset="3875836">
    <nd ref="26336382"/>
    <nd ref="75170458"/>
    <nd ref="152470101"/>
    <nd ref="152470102"/>
    <nd ref="75170459"/>
    <nd ref="152470106"/>
    <nd ref="75170460"/>
    <tag k="highway" v="secondary"/>
    <tag k="name" v="Ivory Street"/>
    <tag k="oneway" v="yes"/>
  </way>
  <way id="9629990" version="8" timestamp="2010-06-14T14:37:39Z" uid="114230" user="danerikk" changeset="4988437">
    <nd ref="26336382"/>
    <nd ref="75170458"/>
    <nd ref="772653221"/>
    <nd ref="772653224"/>
    <nd ref="152470101"/>
    <nd ref="772653229"/>
    <nd ref="152470102"/>
    <nd ref="772653233"/>
    <nd ref="75170459"/>
    <nd ref="772653239"/>
    <nd ref="772653241"/>
    <nd ref="152470106"/>
    <nd ref="772653247"/>
    <nd ref="75170460"/>
    <tag k="highway" v="secondary"/>
    <tag k="name" v="Ivory Street"/>
    <tag k="oneway" v="yes"/>
  </way>
  <way id="9629990" version="9" timestamp="2010-06-25T10:06:46Z" uid="114230" user="danerikk" changeset="5072245">
    <nd ref="26336382"/>
    <nd ref="75170458"/>
    <nd ref="772653221"/>
    <nd ref="772653224"/>
    <nd ref="152470101"/>
    <nd ref="772653229"/>
    <nd ref="152470102"/>
    <nd ref="772653233"/>
    <nd ref="75170459"/>
    <nd ref="772653239"/>
    <nd ref="772653241"/>
    <nd ref="152470106"/>
    <nd ref="772653247"/>
    <nd ref="789501415"/>
    <nd ref="75170460"/>
    <tag k="highway" v="secondary"/>
    <tag k="name" v="Ivory Street"/>
    <tag k="oneway" v="yes"/>
  </way>
  <way id="9629992" version="17" timestamp="2011-03-16T10:54:11Z" uid="4467" user="Rosscoe" changeset="7574339">
    <nd ref="1204092645"/>
    <nd ref="1204092550"/>
    <nd ref="595557834"/>
    <nd ref="595557837"/>
    <nd ref="1204092757"/>
    <tag k="highway" v="tertiary"/>
    <tag k="is_in" v="Tarneit,Victoria,Australia"/>
    <tag k="name" v="Tarneit Road"/>
    <tag k="oneway" v="yes"/>
    <tag k="postal_code" v="3029"/>
    <tag k="source" v="nearmap"/>
    <tag k="surface" v="paved"/>
  </way>
  <way id="9629992" version="18" timestamp="2011-12-09T04:13:55Z" uid="11111" user="melb_guy" changeset="10070214">
    <nd ref="1204092645"/>
    <nd ref="1204092550"/>
    <nd ref="1537726794"/>
    <nd ref="595557834"/>
    <nd ref="595557837"/>
    <nd ref="1204092757"/>
    <tag k="highway" v="secondary"/>
    <tag k="is_in" v="Tarneit,Victoria,Australia"/>
    <tag k="name" v="Tarneit Road"/>
    <tag k="oneway" v="yes"/>
    <tag k="postal_code" v="3029"/>
    <tag k="source" v="nearmap"/>
    <tag k="surface" v="asphalt"/>
  </way>
</osm>
