<?xml version='1.0' encoding='UTF-8'?>
<osm version="0.6" generator="libosmium/2.20.0">
  <way id="96530434" version="2" timestamp="2011-04-04T08:22:14Z" uid="74617" user="JohnSmith" changeset="7762132">
    <nd ref="1118309730"/>
    <nd ref="1118309731"/>
    <nd ref="1118309733"/>
    <nd ref="1118309732"/>
    <nd ref="1118309734"/>
    <nd ref="21386960"/>
    <tag k="alt_name" v="Woodenbong Road"/>
    <tag k="highway" v="secondary"/>
    <tag k="name" v="Mount Lindesay Road"/>
    <tag k="old_name" v="Mount Lindesay Highway"/>
    <tag k="oneway" v="yes"/>
    <tag k="source" v="landsat"/>
  </way>
  <way id="96530434" version="3" timestamp="2011-04-04T08:26:45Z" uid="74617" user="JohnSmith" changeset="7762161">
    <nd ref="1118309730"/>
    <nd ref="1118309731"/>
    <nd ref="1118309733"/>
    <nd ref="1118309732"/>
    <nd ref="1118309734"/>
    <nd ref="21386960"/>
    <tag k="alt_name" v="Woodenbong Road"/>
    <tag k="highway" v="tertiary"/>
    <tag k="name" v="Mount Lindesay Road"/>
    <tag k="old_name" v="Mount Lindesay Highway"/>
    <tag k="oneway" v="yes"/>
    <tag k="source" v="survey"/>
  </way>
  <way id="96530435" version="2" timestamp="2011-02-03T02:11:50Z" uid="4467" user="Rosscoe" changeset="7170521">
    <nd ref="1118309735"/>
    <nd ref="1118309736"/>
    <nd ref="1118309737"/>
    <nd ref="1118309738"/>
    <nd ref="1118309740"/>
    <nd ref="21386599"/>
    <tag k="highway" v="unclassified"/>
    <tag k="name" v="Tooloom Street"/>
    <tag k="source" v="survey"/>
  </way>
</osm>
