<?xml version='1.0' encoding='UTF-8'?>
<osm version="0.6" generator="libosmium/2.20.0">
  <way id="96692523" version="1" timestamp="2011-01-25T10:56:00Z" uid="115477" user="wowik" changeset="7082367">
    <nd ref="317630799"/>
    <nd ref="1119786149"/>
    <nd ref="1119786250"/>
    <nd ref="1119785984"/>
    <nd ref="1119786128"/>
    <nd ref="317630797"/>
    <nd ref="317630799"/>
    <tag k="building" v="yes"/>
    <tag k="building:levels" v="2"/>
  </way>
  <way id="96692523" version="2" timestamp="2011-02-06T17:15:30Z" uid="115477" user="wowik" changeset="7206463">
    <nd ref="1119785992"/>
    <nd ref="1119786128"/>
    <nd ref="1119785984"/>
    <nd ref="1119786250"/>
    <nd ref="1119786149"/>
    <nd ref="1119786227"/>
    <nd ref="1119786153"/>
    <nd ref="1119786254"/>
    <nd ref="1119785992"/>
    <tag k="addr:city" v="Москва"/>
    <tag k="addr:country" v="RU"/>
    <tag k="addr:housenumber" v="95"/>
    <tag k="addr:postcode" v="125481"/>
    <tag k="addr:street" v="улица Свободы"/>
    <tag k="building" v="yes"/>
    <tag k="building:levels" v="3"/>
    <tag k="cladr:code" v="77000000000258900"/>
    <tag k="name" v="Детский санаторий №62"/>
  </way>
  <way id="96692523" version="3" timestamp="2011-03-21T09:06:12Z" uid="206282" user="Amigo" changeset="7625135">
    <nd ref="1119785992"/>
    <nd ref="1119786128"/>
    <nd ref="1119785984"/>
    <nd ref="1119786250"/>
    <nd ref="1119786149"/>
    <nd ref="1119786227"/>
    <nd ref="1119786153"/>
    <nd ref="1119786254"/>
    <nd ref="1119785992"/>
    <tag k="addr:city" v="Москва"/>
    <tag k="addr:country" v="RU"/>
    <tag k="addr:housenumber" v="95"/>
    <tag k="addr:postcode" v="125481"/>
    <tag k="addr:street" v="улица Свободы"/>
    <tag k="amenity" v="sanatorium"/>
    <tag k="building" v="yes"/>
    <tag k="building:levels" v="3"/>
    <tag k="cladr:code" v="77000000000258900"/>
    <tag k="name" v="Детский санаторий №62"/>
  </way>
  <way id="96692524" version="1" timestamp="2011-01-25T10:56:00Z" uid="115477" user="wowik" changeset="7082367">
    <nd ref="1119785905"/>
    <nd ref="1119786268"/>
    <nd ref="1119786168"/>
    <nd ref="1119786058"/>
    <nd ref="1119785905"/>
    <tag k="building" v="yes"/>
    <tag k="building:levels" v="1"/>
  </way>
  <way id="96692524" version="2" timestamp="2012-03-28T06:25:33Z" uid="481934" user="iWowik" changeset="11123401">
    <nd ref="1119785905"/>
    <nd ref="1119786268"/>
    <nd ref="1119786168"/>
    <nd ref="1119786058"/>
    <nd ref="1119785905"/>
    <tag k="addr:city" v="Москва"/>
    <tag k="addr:country" v="RU"/>
    <tag k="building" v="yes"/>
    <tag k="building:levels" v="1"/>
  </way>
  <way id="96692525" version="1" timestamp="2011-01-25T10:56:00Z" uid="115477" user="wowik" changeset="7082367">
    <nd ref="317630753"/>
    <nd ref="317630763"/>
    <nd ref="317630756"/>
    <nd ref="317630754"/>
    <nd ref="317630753"/>
    <tag k="building" v="yes"/>
    <tag k="building:levels" v="1"/>
  </way>
  <way id="96692525" version="2" timestamp="2011-01-27T19:54:29Z" uid="206282" user="Amigo" changeset="7107016"/>
  <way id="96692526" version="1" timestamp="2011-01-25T10:56:00Z" uid="115477" user="wowik" changeset="7082367">
    <nd ref="611751667"/>
    <nd ref="1119785946"/>
    <nd ref="1119786236"/>
    <nd ref="1119786211"/>
    <nd ref="1119786113"/>
    <nd ref="1119785889"/>
    <nd ref="1119785926"/>
    <nd ref="1119786105"/>
    <nd ref="1119786132"/>
    <nd ref="1119786231"/>
    <nd ref="1119785995"/>
    <nd ref="611751668"/>
    <nd ref="611751669"/>
    <nd ref="611751670"/>
    <nd ref="1119786005"/>
    <nd ref="611751667"/>
    <tag k="addr:housenumber" v="14"/>
    <tag k="addr:street" v="Планерная улица"/>
    <tag k="building" v="yes"/>
    <tag k="cladr:code" v="77000000000229000"/>
  </way>
  <way id="96692526" version="2" timestamp="2011-01-27T20:08:51Z" uid="206282" user="Amigo" changeset="7107118"/>
  <way id="96692527" version="1" timestamp="2011-01-25T10:56:01Z" uid="115477" user="wowik" changeset="7082367">
    <nd ref="1119786076"/>
    <nd ref="1119785996"/>
    <nd ref="1119786257"/>
    <nd ref="1119786156"/>
    <nd ref="1119786235"/>
    <nd ref="1119786137"/>
    <nd ref="1119786003"/>
    <nd ref="1119785848"/>
    <nd ref="1119786076"/>
    <tag k="building" v="yes"/>
    <tag k="building:levels" v="1"/>
    <tag k="landuse" v="garages"/>
  </way>
  <way id="96692527" version="2" timestamp="2011-09-13T10:38:31Z" uid="29320" user="Komяpa" changeset="9288237">
    <nd ref="1119786076"/>
    <nd ref="1119785996"/>
    <nd ref="1119786257"/>
    <nd ref="1119786156"/>
    <nd ref="1119786235"/>
    <nd ref="1119786137"/>
    <nd ref="1119786003"/>
    <nd ref="1119785848"/>
    <nd ref="1119786076"/>
    <tag k="building" v="garages"/>
    <tag k="building:levels" v="1"/>
  </way>
  <way id="96692527" version="3" timestamp="2012-03-28T06:26:48Z" uid="481934" user="iWowik" changeset="11123401">
    <nd ref="1119786076"/>
    <nd ref="1119785996"/>
    <nd ref="1119786257"/>
    <nd ref="1119786156"/>
    <nd ref="1119786235"/>
    <nd ref="1119786137"/>
    <nd ref="1119786003"/>
    <nd ref="1119785848"/>
    <nd ref="1119786076"/>
    <tag k="addr:city" v="Москва"/>
    <tag k="addr:country" v="RU"/>
    <tag k="building" v="garages"/>
    <tag k="building:levels" v="1"/>
  </way>
  <way id="96692528" version="1" timestamp="2011-01-25T10:56:01Z" uid="115477" user="wowik" changeset="7082367">
    <nd ref="1119786184"/>
    <nd ref="1119785827"/>
    <nd ref="1119786045"/>
    <nd ref="1119786157"/>
    <nd ref="1119786184"/>
  </way>
  <way id="96692528" version="2" timestamp="2011-02-06T17:08:12Z" uid="206282" user="Amigo" changeset="7205240"/>
  <way id="96692529" version="1" timestamp="2011-01-25T10:56:01Z" uid="115477" user="wowik" changeset="7082367">
    <nd ref="1119786145"/>
    <nd ref="1119786096"/>
    <nd ref="1119785917"/>
    <nd ref="1119786223"/>
    <nd ref="1119786145"/>
    <tag k="building" v="yes"/>
    <tag k="building:levels" v="1"/>
  </way>
  <way id="96692529" version="2" timestamp="2012-03-28T06:24:12Z" uid="481934" user="iWowik" changeset="11123401">
    <nd ref="1119786145"/>
    <nd ref="1119786096"/>
    <nd ref="1119785917"/>
    <nd ref="1119786223"/>
    <nd ref="1119786145"/>
    <tag k="addr:city" v="Москва"/>
    <tag k="addr:country" v="RU"/>
    <tag k="building" v="yes"/>
    <tag k="building:levels" v="1"/>
  </way>
  <way id="96692530" version="1" timestamp="2011-01-25T10:56:01Z" uid="115477" user="wowik" changeset="7082367">
    <nd ref="305012100"/>
    <nd ref="890233804"/>
    <nd ref="805150073"/>
    <nd ref="1030032653"/>
    <nd ref="1038284574"/>
    <nd ref="1119786165"/>
    <nd ref="792612084"/>
    <nd ref="792612120"/>
    <nd ref="1038284553"/>
    <nd ref="305012095"/>
    <tag k="highway" v="secondary"/>
    <tag k="lanes" v="2"/>
    <tag k="name" v="улица Александровка"/>
    <tag k="omkum:code" v="65119"/>
    <tag k="omkum:old_name" v="Проезд N 624"/>
    <tag k="oneway" v="yes"/>
    <tag k="sorting_name" v="Александровка  улица"/>
  </way>
  <way id="96692530" version="2" timestamp="2011-11-05T22:09:45Z" uid="518169" user="kosatov" changeset="9750937">
    <nd ref="305012100"/>
    <nd ref="890233804"/>
    <nd ref="805150073"/>
    <nd ref="1038284574"/>
    <nd ref="1119786165"/>
    <nd ref="792612084"/>
    <nd ref="792612120"/>
    <nd ref="1038284553"/>
    <nd ref="305012095"/>
    <tag k="highway" v="secondary"/>
    <tag k="lanes" v="2"/>
    <tag k="name" v="улица Александровка"/>
    <tag k="omkum:code" v="65119"/>
    <tag k="omkum:old_name" v="Проезд N 624"/>
    <tag k="oneway" v="yes"/>
    <tag k="sorting_name" v="Александровка  улица"/>
  </way>
  <way id="96692530" version="3" timestamp="2011-11-11T09:27:47Z" uid="481934" user="iWowik" changeset="9793916"/>
  <way id="96692531" version="1" timestamp="2011-01-25T10:56:02Z" uid="115477" user="wowik" changeset="7082367">
    <nd ref="1119786047"/>
    <nd ref="1119786159"/>
    <nd ref="1119786260"/>
    <nd ref="1119786001"/>
    <nd ref="1119786136"/>
    <nd ref="1119786234"/>
    <nd ref="1119785934"/>
    <nd ref="1119786109"/>
    <nd ref="1119786047"/>
    <tag k="building" v="yes"/>
    <tag k="building:levels" v="1"/>
    <tag k="landuse" v="garages"/>
  </way>
  <way id="96692531" version="2" timestamp="2011-09-13T10:38:32Z" uid="29320" user="Komяpa" changeset="9288237">
    <nd ref="1119786047"/>
    <nd ref="1119786159"/>
    <nd ref="1119786260"/>
    <nd ref="1119786001"/>
    <nd ref="1119786136"/>
    <nd ref="1119786234"/>
    <nd ref="1119785934"/>
    <nd ref="1119786109"/>
    <nd ref="1119786047"/>
    <tag k="building" v="garages"/>
    <tag k="building:levels" v="1"/>
  </way>
  <way id="96692531" version="3" timestamp="2012-03-28T06:26:44Z" uid="481934" user="iWowik" changeset="11123401">
    <nd ref="1119786047"/>
    <nd ref="1119786159"/>
    <nd ref="1119786260"/>
    <nd ref="1119786001"/>
    <nd ref="1119786136"/>
    <nd ref="1119786234"/>
    <nd ref="1119785934"/>
    <nd ref="1119786109"/>
    <nd ref="1119786047"/>
    <tag k="addr:city" v="Москва"/>
    <tag k="addr:country" v="RU"/>
    <tag k="building" v="garages"/>
    <tag k="building:levels" v="1"/>
  </way>
  <way id="96692532" version="1" timestamp="2011-01-25T10:56:02Z" uid="115477" user="wowik" changeset="7082367">
    <nd ref="1119786115"/>
    <nd ref="1119786052"/>
    <nd ref="1119785837"/>
    <nd ref="1119786188"/>
    <nd ref="1119786115"/>
    <tag k="building" v="yes"/>
    <tag k="building:levels" v="1"/>
    <tag k="landuse" v="garages"/>
  </way>
  <way id="96692532" version="2" timestamp="2011-09-13T10:38:32Z" uid="29320" user="Komяpa" changeset="9288237">
    <nd ref="1119786115"/>
    <nd ref="1119786052"/>
    <nd ref="1119785837"/>
    <nd ref="1119786188"/>
    <nd ref="1119786115"/>
    <tag k="building" v="garages"/>
    <tag k="building:levels" v="1"/>
  </way>
  <way id="96692532" version="3" timestamp="2012-03-28T06:25:17Z" uid="481934" user="iWowik" changeset="11123401">
    <nd ref="1119786115"/>
    <nd ref="1119786052"/>
    <nd ref="1119785837"/>
    <nd ref="1119786188"/>
    <nd ref="1119786115"/>
    <tag k="addr:city" v="Москва"/>
    <tag k="addr:country" v="RU"/>
    <tag k="building" v="garages"/>
    <tag k="building:levels" v="1"/>
  </way>
  <way id="96692533" version="1" timestamp="2011-01-25T10:56:02Z" uid="115477" user="wowik" changeset="7082367">
    <nd ref="1119786092"/>
    <nd ref="1119786017"/>
    <nd ref="1119786270"/>
    <nd ref="1119786169"/>
    <nd ref="1119786062"/>
    <nd ref="1119785853"/>
    <nd ref="1119786092"/>
    <tag k="building" v="yes"/>
    <tag k="building:levels" v="1"/>
    <tag k="landuse" v="garages"/>
  </way>
  <way id="96692533" version="2" timestamp="2011-09-13T10:38:32Z" uid="29320" user="Komяpa" changeset="9288237">
    <nd ref="1119786092"/>
    <nd ref="1119786017"/>
    <nd ref="1119786270"/>
    <nd ref="1119786169"/>
    <nd ref="1119786062"/>
    <nd ref="1119785853"/>
    <nd ref="1119786092"/>
    <tag k="building" v="garages"/>
    <tag k="building:levels" v="1"/>
  </way>
  <way id="96692533" version="3" timestamp="2012-03-28T06:26:24Z" uid="481934" user="iWowik" changeset="11123401">
    <nd ref="1119786092"/>
    <nd ref="1119786017"/>
    <nd ref="1119786270"/>
    <nd ref="1119786169"/>
    <nd ref="1119786062"/>
    <nd ref="1119785853"/>
    <nd ref="1119786092"/>
    <tag k="addr:city" v="Москва"/>
    <tag k="addr:country" v="RU"/>
    <tag k="building" v="garages"/>
    <tag k="building:levels" v="1"/>
  </way>
  <way id="96692534" version="1" timestamp="2011-01-25T10:56:02Z" uid="115477" user="wowik" changeset="7082367">
    <nd ref="1119786248"/>
    <nd ref="1119785973"/>
    <nd ref="1119786091"/>
    <nd ref="1119786193"/>
    <nd ref="1119786248"/>
    <tag k="building" v="yes"/>
    <tag k="building:levels" v="1"/>
    <tag k="landuse" v="garages"/>
  </way>
  <way id="96692534" version="2" timestamp="2011-09-13T10:38:32Z" uid="29320" user="Komяpa" changeset="9288237">
    <nd ref="1119786248"/>
    <nd ref="1119785973"/>
    <nd ref="1119786091"/>
    <nd ref="1119786193"/>
    <nd ref="1119786248"/>
    <tag k="building" v="garages"/>
    <tag k="building:levels" v="1"/>
  </way>
  <way id="96692534" version="3" timestamp="2012-03-28T06:23:59Z" uid="481934" user="iWowik" changeset="11123401">
    <nd ref="1119786248"/>
    <nd ref="1119785973"/>
    <nd ref="1119786091"/>
    <nd ref="1119786193"/>
    <nd ref="1119786248"/>
    <tag k="addr:city" v="Москва"/>
    <tag k="addr:country" v="RU"/>
    <tag k="building" v="garages"/>
    <tag k="building:levels" v="1"/>
  </way>
  <way id="96692535" version="1" timestamp="2011-01-25T10:56:02Z" uid="115477" user="wowik" changeset="7082367">
    <nd ref="1119786256"/>
    <nd ref="1119786208"/>
    <nd ref="1119786110"/>
    <nd ref="1119785935"/>
    <nd ref="1119786256"/>
    <tag k="building" v="yes"/>
    <tag k="building:levels" v="1"/>
  </way>
  <way id="96692535" version="2" timestamp="2011-03-22T11:44:18Z" uid="133332" user="AMDmi3" changeset="7636270"/>
  <way id="96692536" version="1" timestamp="2011-01-25T10:56:02Z" uid="115477" user="wowik" changeset="7082367">
    <nd ref="317630803"/>
    <nd ref="1119786227"/>
    <nd ref="1119786153"/>
    <nd ref="1119786254"/>
    <nd ref="1119785992"/>
    <nd ref="317630802"/>
    <nd ref="317630803"/>
    <tag k="building" v="yes"/>
    <tag k="building:levels" v="2"/>
  </way>
  <way id="96692536" version="2" timestamp="2011-02-06T17:15:31Z" uid="115477" user="wowik" changeset="7206463"/>
  <way id="96692537" version="1" timestamp="2011-01-25T10:56:03Z" uid="115477" user="wowik" changeset="7082367">
    <nd ref="1119785918"/>
    <nd ref="1119786097"/>
    <nd ref="1119786197"/>
    <nd ref="1119785859"/>
    <nd ref="1119785918"/>
    <tag k="leisure" v="pitch"/>
  </way>
  <way id="96692537" version="2" timestamp="2011-02-08T20:47:53Z" uid="206282" user="Amigo" changeset="7230636"/>
  <way id="96692538" version="1" timestamp="2011-01-25T10:56:03Z" uid="115477" user="wowik" changeset="7082367">
    <nd ref="1119785878"/>
    <nd ref="1119786253"/>
    <nd ref="1119786152"/>
    <nd ref="1119786042"/>
    <nd ref="1119785878"/>
    <tag k="leisure" v="pitch"/>
  </way>
  <way id="96692539" version="1" timestamp="2011-01-25T10:56:03Z" uid="115477" user="wowik" changeset="7082367">
    <nd ref="1119786154"/>
    <nd ref="1119786107"/>
    <nd ref="1119786044"/>
    <nd ref="1119785932"/>
    <nd ref="1119786154"/>
    <tag k="addr:city" v="Москва"/>
    <tag k="addr:country" v="RU"/>
    <tag k="addr:housenumber" v="20 к1 с2"/>
    <tag k="building" v="yes"/>
    <tag k="building:levels" v="1"/>
  </way>
  <way id="96692539" version="2" timestamp="2011-03-22T11:44:18Z" uid="133332" user="AMDmi3" changeset="7636270"/>
  <way id="96692540" version="1" timestamp="2011-01-25T10:56:03Z" uid="115477" user="wowik" changeset="7082367">
    <nd ref="1119786118"/>
    <nd ref="1119786053"/>
    <nd ref="1119785840"/>
    <nd ref="1119786190"/>
    <nd ref="1119786118"/>
    <tag k="building" v="yes"/>
    <tag k="building:levels" v="1"/>
    <tag k="landuse" v="garages"/>
  </way>
  <way id="96692540" version="2" timestamp="2011-09-13T10:38:33Z" uid="29320" user="Komяpa" changeset="9288237">
    <nd ref="1119786118"/>
    <nd ref="1119786053"/>
    <nd ref="1119785840"/>
    <nd ref="1119786190"/>
    <nd ref="1119786118"/>
    <tag k="building" v="garages"/>
    <tag k="building:levels" v="1"/>
  </way>
  <way id="96692540" version="3" timestamp="2012-03-28T06:24:23Z" uid="481934" user="iWowik" changeset="11123401">
    <nd ref="1119786118"/>
    <nd ref="1119786053"/>
    <nd ref="1119785840"/>
    <nd ref="1119786190"/>
    <nd ref="1119786118"/>
    <tag k="addr:city" v="Москва"/>
    <tag k="addr:country" v="RU"/>
    <tag k="building" v="garages"/>
    <tag k="building:levels" v="1"/>
  </way>
  <way id="96692541" version="1" timestamp="2011-01-25T10:56:04Z" uid="115477" user="wowik" changeset="7082367">
    <nd ref="1119786055"/>
    <nd ref="1119785916"/>
    <nd ref="1036445101"/>
    <nd ref="617238734"/>
    <nd ref="617238735"/>
    <nd ref="617238736"/>
    <nd ref="1024098859"/>
    <nd ref="948000577"/>
    <nd ref="617238737"/>
    <nd ref="941396691"/>
    <nd ref="617238738"/>
    <nd ref="617238739"/>
    <nd ref="948000612"/>
    <nd ref="1036445053"/>
    <nd ref="617238740"/>
    <nd ref="617238741"/>
    <nd ref="617238742"/>
    <nd ref="617238743"/>
    <nd ref="825453239"/>
    <nd ref="1026624856"/>
    <nd ref="941436786"/>
    <nd ref="941389413"/>
    <nd ref="914204150"/>
    <nd ref="662530084"/>
    <nd ref="705756579"/>
    <nd ref="1024098953"/>
    <nd ref="914204154"/>
    <nd ref="617238745"/>
    <nd ref="305038145"/>
    <tag k="highway" v="service"/>
    <tag k="living_street" v="yes"/>
    <tag k="name" v="14-й Микрорайон"/>
    <tag k="service" v="alley"/>
  </way>
  <way id="96692541" version="2" timestamp="2011-02-17T15:07:23Z" uid="133332" user="AMDmi3" changeset="7313979"/>
  <way id="96692542" version="1" timestamp="2011-01-25T10:56:04Z" uid="115477" user="wowik" changeset="7082367">
    <nd ref="598893865"/>
    <nd ref="317631375"/>
    <nd ref="1119786224"/>
    <nd ref="598893868"/>
    <nd ref="598893869"/>
    <nd ref="598893865"/>
    <tag k="addr:city" v="Москва"/>
    <tag k="addr:country" v="RU"/>
    <tag k="addr:housenumber" v="22 к1"/>
    <tag k="addr:postcode" v="125481"/>
    <tag k="addr:street" v="Планерная улица"/>
    <tag k="amenity" v="public_building"/>
    <tag k="building" v="yes"/>
    <tag k="cladr:code" v="77000000000229000"/>
    <tag k="name" v="ЕИРЦ района Северное Тушино"/>
  </way>
  <way id="96692543" version="1" timestamp="2011-01-25T10:56:04Z" uid="115477" user="wowik" changeset="7082367">
    <nd ref="1119785950"/>
    <nd ref="1119786117"/>
    <nd ref="1119786214"/>
    <nd ref="1119785896"/>
    <nd ref="1119785950"/>
    <tag k="building" v="yes"/>
    <tag k="building:levels" v="1"/>
    <tag k="landuse" v="garages"/>
  </way>
  <way id="96692543" version="2" timestamp="2011-09-13T10:38:33Z" uid="29320" user="Komяpa" changeset="9288237">
    <nd ref="1119785950"/>
    <nd ref="1119786117"/>
    <nd ref="1119786214"/>
    <nd ref="1119785896"/>
    <nd ref="1119785950"/>
    <tag k="building" v="garages"/>
    <tag k="building:levels" v="1"/>
  </way>
  <way id="96692543" version="3" timestamp="2012-03-28T06:25:28Z" uid="481934" user="iWowik" changeset="11123401">
    <nd ref="1119785950"/>
    <nd ref="1119786117"/>
    <nd ref="1119786214"/>
    <nd ref="1119785896"/>
    <nd ref="1119785950"/>
    <tag k="addr:city" v="Москва"/>
    <tag k="addr:country" v="RU"/>
    <tag k="building" v="garages"/>
    <tag k="building:levels" v="1"/>
  </way>
  <way id="96692544" version="1" timestamp="2011-01-25T10:56:05Z" uid="115477" user="wowik" changeset="7082367">
    <nd ref="1119785806"/>
    <nd ref="1119786226"/>
    <nd ref="1119786127"/>
    <nd ref="1119785975"/>
    <nd ref="1119785806"/>
    <tag k="building" v="yes"/>
    <tag k="building:levels" v="1"/>
    <tag k="landuse" v="garages"/>
  </way>
  <way id="96692544" version="2" timestamp="2011-09-13T10:38:33Z" uid="29320" user="Komяpa" changeset="9288237">
    <nd ref="1119785806"/>
    <nd ref="1119786226"/>
    <nd ref="1119786127"/>
    <nd ref="1119785975"/>
    <nd ref="1119785806"/>
    <tag k="building" v="garages"/>
    <tag k="building:levels" v="1"/>
  </way>
  <way id="96692544" version="3" timestamp="2012-03-28T06:23:37Z" uid="481934" user="iWowik" changeset="11123401">
    <nd ref="1119785806"/>
    <nd ref="1119786226"/>
    <nd ref="1119786127"/>
    <nd ref="1119785975"/>
    <nd ref="1119785806"/>
    <tag k="addr:city" v="Москва"/>
    <tag k="addr:country" v="RU"/>
    <tag k="building" v="garages"/>
    <tag k="building:levels" v="1"/>
  </way>
  <way id="96692545" version="1" timestamp="2011-01-25T10:56:05Z" uid="115477" user="wowik" changeset="7082367">
    <nd ref="1119786099"/>
    <nd ref="1119786074"/>
    <nd ref="1119785993"/>
    <nd ref="1119785882"/>
    <nd ref="1119786155"/>
    <nd ref="1119786255"/>
    <nd ref="1119786099"/>
    <tag k="building" v="yes"/>
    <tag k="building:levels" v="1"/>
    <tag k="landuse" v="garages"/>
  </way>
  <way id="96692545" version="2" timestamp="2011-09-13T10:38:33Z" uid="29320" user="Komяpa" changeset="9288237">
    <nd ref="1119786099"/>
    <nd ref="1119786074"/>
    <nd ref="1119785993"/>
    <nd ref="1119785882"/>
    <nd ref="1119786155"/>
    <nd ref="1119786255"/>
    <nd ref="1119786099"/>
    <tag k="building" v="garages"/>
    <tag k="building:levels" v="1"/>
  </way>
  <way id="96692545" version="3" timestamp="2012-03-28T06:26:00Z" uid="481934" user="iWowik" changeset="11123401">
    <nd ref="1119786099"/>
    <nd ref="1119786074"/>
    <nd ref="1119785993"/>
    <nd ref="1119785882"/>
    <nd ref="1119786155"/>
    <nd ref="1119786255"/>
    <nd ref="1119786099"/>
    <tag k="addr:city" v="Москва"/>
    <tag k="addr:country" v="RU"/>
    <tag k="building" v="garages"/>
    <tag k="building:levels" v="1"/>
  </way>
  <way id="96692546" version="1" timestamp="2011-01-25T10:56:05Z" uid="115477" user="wowik" changeset="7082367">
    <nd ref="1119786182"/>
    <nd ref="1119786135"/>
    <nd ref="1119786000"/>
    <nd ref="1119786228"/>
    <nd ref="1119786129"/>
    <nd ref="1119785986"/>
    <nd ref="1119786251"/>
    <nd ref="1119786150"/>
    <nd ref="1119786182"/>
    <tag k="building" v="yes"/>
    <tag k="building:levels" v="1"/>
  </way>
  <way id="96692546" version="2" timestamp="2012-03-28T06:26:55Z" uid="481934" user="iWowik" changeset="11123401">
    <nd ref="1119786182"/>
    <nd ref="1119786135"/>
    <nd ref="1119786000"/>
    <nd ref="1119786228"/>
    <nd ref="1119786129"/>
    <nd ref="1119785986"/>
    <nd ref="1119786251"/>
    <nd ref="1119786150"/>
    <nd ref="1119786182"/>
    <tag k="addr:city" v="Москва"/>
    <tag k="addr:country" v="RU"/>
    <tag k="building" v="yes"/>
    <tag k="building:levels" v="1"/>
  </way>
  <way id="96692548" version="1" timestamp="2011-01-25T10:56:05Z" uid="115477" user="wowik" changeset="7082367">
    <nd ref="1119785846"/>
    <nd ref="1119786057"/>
    <nd ref="1119786166"/>
    <nd ref="1119786266"/>
    <nd ref="1119785846"/>
    <tag k="building" v="yes"/>
    <tag k="building:levels" v="1"/>
    <tag k="landuse" v="garages"/>
  </way>
  <way id="96692548" version="2" timestamp="2011-09-13T10:38:33Z" uid="29320" user="Komяpa" changeset="9288237">
    <nd ref="1119785846"/>
    <nd ref="1119786057"/>
    <nd ref="1119786166"/>
    <nd ref="1119786266"/>
    <nd ref="1119785846"/>
    <tag k="building" v="garages"/>
    <tag k="building:levels" v="1"/>
  </way>
  <way id="96692548" version="3" timestamp="2012-03-28T06:24:07Z" uid="481934" user="iWowik" changeset="11123401">
    <nd ref="1119785846"/>
    <nd ref="1119786057"/>
    <nd ref="1119786166"/>
    <nd ref="1119786266"/>
    <nd ref="1119785846"/>
    <tag k="addr:city" v="Москва"/>
    <tag k="addr:country" v="RU"/>
    <tag k="building" v="garages"/>
    <tag k="building:levels" v="1"/>
  </way>
  <way id="96692549" version="1" timestamp="2011-01-25T10:56:05Z" uid="115477" user="wowik" changeset="7082367">
    <nd ref="1119785967"/>
    <nd ref="1119785863"/>
    <nd ref="1119786245"/>
    <nd ref="1119786199"/>
    <nd ref="1119785967"/>
    <tag k="building" v="yes"/>
    <tag k="building:levels" v="1"/>
    <tag k="landuse" v="garages"/>
  </way>
  <way id="96692549" version="2" timestamp="2011-09-13T10:38:34Z" uid="29320" user="Komяpa" changeset="9288237">
    <nd ref="1119785967"/>
    <nd ref="1119785863"/>
    <nd ref="1119786245"/>
    <nd ref="1119786199"/>
    <nd ref="1119785967"/>
    <tag k="building" v="garages"/>
    <tag k="building:levels" v="1"/>
  </way>
  <way id="96692549" version="3" timestamp="2012-03-28T06:23:25Z" uid="481934" user="iWowik" changeset="11123401">
    <nd ref="1119785967"/>
    <nd ref="1119785863"/>
    <nd ref="1119786245"/>
    <nd ref="1119786199"/>
    <nd ref="1119785967"/>
    <tag k="addr:city" v="Москва"/>
    <tag k="addr:country" v="RU"/>
    <tag k="building" v="garages"/>
    <tag k="building:levels" v="1"/>
  </way>
  <way id="96692550" version="1" timestamp="2011-01-25T10:56:06Z" uid="115477" user="wowik" changeset="7082367">
    <nd ref="317630731"/>
    <nd ref="1119786194"/>
    <nd ref="1119786093"/>
    <nd ref="1119785909"/>
    <nd ref="1119786220"/>
    <nd ref="317630736"/>
    <nd ref="317630731"/>
    <tag k="building" v="yes"/>
    <tag k="building:levels" v="2"/>
  </way>
  <way id="96692550" version="2" timestamp="2011-02-06T17:07:15Z" uid="115477" user="wowik" changeset="7206339"/>
  <way id="96692551" version="1" timestamp="2011-01-25T10:56:06Z" uid="115477" user="wowik" changeset="7082367">
    <nd ref="317630821"/>
    <nd ref="317630832"/>
    <nd ref="317630823"/>
    <nd ref="317630818"/>
    <nd ref="317630816"/>
    <nd ref="317630830"/>
    <nd ref="317630815"/>
    <nd ref="317630813"/>
    <nd ref="317630814"/>
    <nd ref="317630838"/>
    <nd ref="317630834"/>
    <nd ref="317630822"/>
    <nd ref="317630831"/>
    <nd ref="317630820"/>
    <nd ref="317630821"/>
    <tag k="addr:city" v="Москва"/>
    <tag k="addr:country" v="RU"/>
    <tag k="addr:housenumber" v="81 к6"/>
    <tag k="addr:postcode" v="125481"/>
    <tag k="addr:street" v="улица Свободы"/>
    <tag k="building" v="yes"/>
    <tag k="building:levels" v="3"/>
    <tag k="cladr:code" v="77000000000258900"/>
  </way>
  <way id="96692551" version="2" timestamp="2011-01-27T20:12:16Z" uid="206282" user="Amigo" changeset="7107118"/>
  <way id="96692553" version="1" timestamp="2011-01-25T10:56:06Z" uid="115477" user="wowik" changeset="7082367">
    <nd ref="1119785981"/>
    <nd ref="1119785869"/>
    <nd ref="1119786262"/>
    <nd ref="1119786161"/>
    <nd ref="1119786204"/>
    <nd ref="1119786104"/>
    <nd ref="1119785981"/>
    <tag k="leisure" v="pitch"/>
  </way>
  <way id="96692553" version="2" timestamp="2011-02-08T20:51:17Z" uid="206282" user="Amigo" changeset="7230636"/>
  <way id="96692554" version="1" timestamp="2011-01-25T10:56:06Z" uid="115477" user="wowik" changeset="7082367">
    <nd ref="1119785912"/>
    <nd ref="1119786272"/>
    <nd ref="1119786171"/>
    <nd ref="1119786065"/>
    <nd ref="1119785912"/>
    <tag k="building" v="yes"/>
    <tag k="building:levels" v="1"/>
  </way>
  <way id="96692554" version="2" timestamp="2012-03-28T06:24:29Z" uid="481934" user="iWowik" changeset="11123401">
    <nd ref="1119785912"/>
    <nd ref="1119786272"/>
    <nd ref="1119786171"/>
    <nd ref="1119786065"/>
    <nd ref="1119785912"/>
    <tag k="addr:city" v="Москва"/>
    <tag k="addr:country" v="RU"/>
    <tag k="building" v="yes"/>
    <tag k="building:levels" v="1"/>
  </way>
  <way id="96692555" version="1" timestamp="2011-01-25T10:56:06Z" uid="115477" user="wowik" changeset="7082367">
    <nd ref="1119786066"/>
    <nd ref="1119786172"/>
    <nd ref="1119785868"/>
    <nd ref="1119786071"/>
    <nd ref="1119786066"/>
    <tag k="building" v="yes"/>
    <tag k="building:levels" v="1"/>
    <tag k="landuse" v="garages"/>
  </way>
  <way id="96692555" version="2" timestamp="2011-09-13T10:38:34Z" uid="29320" user="Komяpa" changeset="9288237">
    <nd ref="1119786066"/>
    <nd ref="1119786172"/>
    <nd ref="1119785868"/>
    <nd ref="1119786071"/>
    <nd ref="1119786066"/>
    <tag k="building" v="garages"/>
    <tag k="building:levels" v="1"/>
  </way>
  <way id="96692555" version="3" timestamp="2012-03-28T06:23:48Z" uid="481934" user="iWowik" changeset="11123401">
    <nd ref="1119786066"/>
    <nd ref="1119786172"/>
    <nd ref="1119785868"/>
    <nd ref="1119786071"/>
    <nd ref="1119786066"/>
    <tag k="addr:city" v="Москва"/>
    <tag k="addr:country" v="RU"/>
    <tag k="building" v="garages"/>
    <tag k="building:levels" v="1"/>
  </way>
  <way id="96692556" version="1" timestamp="2011-01-25T10:56:07Z" uid="115477" user="wowik" changeset="7082367">
    <nd ref="1119786124"/>
    <nd ref="1119785971"/>
    <nd ref="1119786247"/>
    <nd ref="1119786147"/>
    <nd ref="317630742"/>
    <nd ref="317630739"/>
    <nd ref="1119786124"/>
    <tag k="building" v="yes"/>
    <tag k="building:levels" v="2"/>
  </way>
  <way id="96692556" version="2" timestamp="2011-02-06T17:07:13Z" uid="115477" user="wowik" changeset="7206339">
    <nd ref="317630742"/>
    <nd ref="317630731"/>
    <nd ref="1119786194"/>
    <nd ref="1119786093"/>
    <nd ref="1119785909"/>
    <nd ref="1119786220"/>
    <nd ref="1119786124"/>
    <nd ref="1119785971"/>
    <nd ref="1119786247"/>
    <nd ref="1119786147"/>
    <nd ref="317630742"/>
    <tag k="addr:city" v="Москва"/>
    <tag k="addr:country" v="RU"/>
    <tag k="addr:housenumber" v="87 к2"/>
    <tag k="addr:postcode" v="125481"/>
    <tag k="addr:street" v="улица Свободы"/>
    <tag k="building" v="yes"/>
    <tag k="building:levels" v="3"/>
    <tag k="cladr:code" v="77000000000258900"/>
  </way>
  <way id="96692556" version="3" timestamp="2011-02-06T17:17:45Z" uid="115477" user="wowik" changeset="7206467">
    <nd ref="1119786194"/>
    <nd ref="1119786093"/>
    <nd ref="1119785909"/>
    <nd ref="1119786220"/>
    <nd ref="1119786124"/>
    <nd ref="1119785971"/>
    <nd ref="1119786247"/>
    <nd ref="1119786147"/>
    <nd ref="1119786194"/>
    <tag k="addr:city" v="Москва"/>
    <tag k="addr:country" v="RU"/>
    <tag k="addr:housenumber" v="87 к2"/>
    <tag k="addr:postcode" v="125481"/>
    <tag k="addr:street" v="улица Свободы"/>
    <tag k="building" v="yes"/>
    <tag k="building:levels" v="3"/>
    <tag k="cladr:code" v="77000000000258900"/>
  </way>
  <way id="96692557" version="1" timestamp="2011-01-25T10:56:07Z" uid="115477" user="wowik" changeset="7082367">
    <nd ref="317630744"/>
    <nd ref="1119786189"/>
    <nd ref="1119786085"/>
    <nd ref="1119785898"/>
    <nd ref="1119786216"/>
    <nd ref="317630743"/>
    <nd ref="317630744"/>
    <tag k="building" v="yes"/>
    <tag k="building:levels" v="2"/>
  </way>
  <way id="96692557" version="2" timestamp="2011-02-06T17:14:15Z" uid="115477" user="wowik" changeset="7206436"/>
  <way id="96692558" version="1" timestamp="2011-01-25T10:56:07Z" uid="115477" user="wowik" changeset="7082367">
    <nd ref="1119785900"/>
    <nd ref="1119786267"/>
    <nd ref="1119786167"/>
    <nd ref="1119786004"/>
    <nd ref="1119785900"/>
    <tag k="leisure" v="pitch"/>
  </way>
  <way id="96692559" version="1" timestamp="2011-01-25T10:56:07Z" uid="115477" user="wowik" changeset="7082367">
    <nd ref="1119785953"/>
    <nd ref="1119786120"/>
    <nd ref="1119786218"/>
    <nd ref="1119785904"/>
    <nd ref="1119785953"/>
    <tag k="building" v="yes"/>
    <tag k="building:levels" v="1"/>
  </way>
  <way id="96692559" version="2" timestamp="2012-03-28T06:24:19Z" uid="481934" user="iWowik" changeset="11123401">
    <nd ref="1119785953"/>
    <nd ref="1119786120"/>
    <nd ref="1119786218"/>
    <nd ref="1119785904"/>
    <nd ref="1119785953"/>
    <tag k="addr:city" v="Москва"/>
    <tag k="addr:country" v="RU"/>
    <tag k="building" v="yes"/>
    <tag k="building:levels" v="1"/>
  </way>
  <way id="96692560" version="1" timestamp="2011-01-25T10:56:07Z" uid="115477" user="wowik" changeset="7082367">
    <nd ref="317630763"/>
    <nd ref="317630756"/>
    <nd ref="317630766"/>
    <nd ref="317630794"/>
    <nd ref="317630767"/>
    <nd ref="317630769"/>
    <nd ref="317630787"/>
    <nd ref="317630793"/>
    <nd ref="317630755"/>
    <nd ref="317630757"/>
    <nd ref="317630752"/>
    <nd ref="317630791"/>
    <nd ref="317630761"/>
    <nd ref="317630796"/>
    <nd ref="317630763"/>
    <tag k="addr:city" v="Москва"/>
    <tag k="addr:country" v="RU"/>
    <tag k="addr:housenumber" v="22 к2"/>
    <tag k="addr:postcode" v="125481"/>
    <tag k="addr:street" v="Планерная улица"/>
    <tag k="alt_name" v="ФГУП ГосНИИГА"/>
    <tag k="building" v="yes"/>
    <tag k="building:levels" v="3"/>
    <tag k="cladr:code" v="77000000000229000"/>
    <tag k="name" v="ГосНИИГА"/>
  </way>
  <way id="96692560" version="2" timestamp="2011-01-27T19:54:29Z" uid="206282" user="Amigo" changeset="7107016"/>
  <way id="96692561" version="1" timestamp="2011-01-25T10:56:08Z" uid="115477" user="wowik" changeset="7082367">
    <nd ref="1119786040"/>
    <nd ref="1119785815"/>
    <nd ref="1119786178"/>
    <nd ref="1119786073"/>
    <nd ref="317630746"/>
    <nd ref="317630745"/>
    <nd ref="1119786040"/>
    <tag k="building" v="yes"/>
    <tag k="building:levels" v="2"/>
  </way>
  <way id="96692561" version="2" timestamp="2011-01-25T11:33:11Z" uid="115477" user="wowik" changeset="7082670"/>
  <way id="96692562" version="1" timestamp="2011-01-25T10:56:08Z" uid="115477" user="wowik" changeset="7082367">
    <nd ref="589031796"/>
    <nd ref="589031797"/>
    <nd ref="589031800"/>
    <nd ref="589031795"/>
    <nd ref="1119785857"/>
    <nd ref="317636203"/>
    <nd ref="1119786064"/>
    <nd ref="589031796"/>
    <tag k="addr:city" v="Москва"/>
    <tag k="addr:country" v="RU"/>
    <tag k="addr:housenumber" v="91"/>
    <tag k="addr:street" v="улица Свободы"/>
    <tag k="amenity" v="public_building"/>
    <tag k="building" v="yes"/>
    <tag k="cladr:code" v="77000000000258900"/>
    <tag k="name" v="ДК Алые Паруса"/>
    <tag k="nat_name" v="Дом культуры &quot;Алые Паруса&quot;"/>
  </way>
  <way id="96692562" version="2" timestamp="2011-01-25T11:33:11Z" uid="115477" user="wowik" changeset="7082670">
    <nd ref="589031797"/>
    <nd ref="589031800"/>
    <nd ref="589031795"/>
    <nd ref="1119785857"/>
    <nd ref="317636203"/>
    <nd ref="1119786064"/>
    <nd ref="589031797"/>
    <tag k="addr:city" v="Москва"/>
    <tag k="addr:country" v="RU"/>
    <tag k="addr:housenumber" v="91"/>
    <tag k="addr:street" v="улица Свободы"/>
    <tag k="amenity" v="public_building"/>
    <tag k="building" v="yes"/>
    <tag k="cladr:code" v="77000000000258900"/>
    <tag k="name" v="ДК Алые Паруса"/>
    <tag k="nat_name" v="Дом культуры &quot;Алые Паруса&quot;"/>
  </way>
  <way id="96692563" version="1" timestamp="2011-01-25T10:56:08Z" uid="115477" user="wowik" changeset="7082367">
    <nd ref="890205367"/>
    <nd ref="890205406"/>
    <nd ref="893922180"/>
    <nd ref="890205408"/>
    <nd ref="914309028"/>
    <nd ref="890205411"/>
    <nd ref="1111969207"/>
    <nd ref="890205414"/>
    <nd ref="890205419"/>
    <nd ref="1111971478"/>
    <nd ref="890205423"/>
    <nd ref="890205429"/>
    <nd ref="893917203"/>
    <nd ref="890205440"/>
    <nd ref="890205450"/>
    <nd ref="890205458"/>
    <nd ref="893917657"/>
    <nd ref="890205462"/>
    <nd ref="1116271742"/>
    <nd ref="890205467"/>
    <nd ref="890205470"/>
    <nd ref="1111969382"/>
    <nd ref="890210912"/>
    <nd ref="890260963"/>
    <tag k="highway" v="secondary"/>
    <tag k="lanes" v="2"/>
    <tag k="layer" v="0"/>
    <tag k="name" v="Новокрюковская улица"/>
    <tag k="omkum:code" v="21954"/>
    <tag k="omkum:old_name" v="Проектируемый проезд N 623"/>
    <tag k="oneway" v="yes"/>
    <tag k="sorting_name" v="Новокрюковская  улица"/>
  </way>
  <way id="96692563" version="2" timestamp="2011-04-24T20:46:09Z" uid="241531" user="dik_man" changeset="7956943">
    <nd ref="890205367"/>
    <nd ref="890205406"/>
    <nd ref="893922180"/>
    <nd ref="890205408"/>
    <nd ref="914309028"/>
    <nd ref="890205411"/>
    <nd ref="1111969207"/>
    <nd ref="890205414"/>
    <nd ref="890205419"/>
    <nd ref="1111971478"/>
    <nd ref="890205423"/>
    <nd ref="890205429"/>
    <nd ref="893917203"/>
    <nd ref="890205440"/>
    <nd ref="890205450"/>
    <nd ref="890205458"/>
    <nd ref="893917657"/>
    <nd ref="890205462"/>
    <nd ref="1116271742"/>
    <nd ref="890205467"/>
    <nd ref="890205470"/>
    <nd ref="1111969382"/>
    <nd ref="890210912"/>
    <nd ref="890260963"/>
    <tag k="highway" v="secondary"/>
    <tag k="lanes" v="2"/>
    <tag k="layer" v="0"/>
    <tag k="maxspeed" v="60"/>
    <tag k="name" v="Новокрюковская улица"/>
    <tag k="omkum:code" v="21954"/>
    <tag k="omkum:old_name" v="Проектируемый проезд N 623"/>
    <tag k="oneway" v="yes"/>
    <tag k="sorting_name" v="Новокрюковская  улица"/>
  </way>
  <way id="96692563" version="3" timestamp="2011-11-05T22:09:45Z" uid="518169" user="kosatov" changeset="9750937">
    <nd ref="890205367"/>
    <nd ref="890205406"/>
    <nd ref="893922180"/>
    <nd ref="914309028"/>
    <nd ref="890205411"/>
    <nd ref="1111969207"/>
    <nd ref="890205414"/>
    <nd ref="890205419"/>
    <nd ref="1111971478"/>
    <nd ref="890205423"/>
    <nd ref="890205429"/>
    <nd ref="893917203"/>
    <nd ref="890205440"/>
    <nd ref="890205450"/>
    <nd ref="890205458"/>
    <nd ref="893917657"/>
    <nd ref="890205462"/>
    <nd ref="1116271742"/>
    <nd ref="890205467"/>
    <nd ref="890205470"/>
    <nd ref="1111969382"/>
    <nd ref="890210912"/>
    <nd ref="890260963"/>
    <tag k="highway" v="secondary"/>
    <tag k="lanes" v="2"/>
    <tag k="layer" v="0"/>
    <tag k="maxspeed" v="60"/>
    <tag k="name" v="Новокрюковская улица"/>
    <tag k="omkum:code" v="21954"/>
    <tag k="omkum:old_name" v="Проектируемый проезд N 623"/>
    <tag k="oneway" v="yes"/>
    <tag k="sorting_name" v="Новокрюковская  улица"/>
  </way>
  <way id="96692563" version="4" timestamp="2011-12-20T16:24:23Z" uid="241531" user="dik_man" changeset="10164733">
    <nd ref="890205367"/>
    <nd ref="1555911614"/>
    <nd ref="890205406"/>
    <nd ref="1555911620"/>
    <nd ref="1555911577"/>
    <nd ref="893922180"/>
    <nd ref="1555911580"/>
    <nd ref="914309028"/>
    <nd ref="1555911589"/>
    <nd ref="1555911626"/>
    <nd ref="890205411"/>
    <nd ref="1111969207"/>
    <nd ref="890205414"/>
    <nd ref="890205419"/>
    <nd ref="1111971478"/>
    <nd ref="890205423"/>
    <nd ref="1555911591"/>
    <nd ref="890205429"/>
    <nd ref="893917203"/>
    <nd ref="1555911593"/>
    <nd ref="890205440"/>
    <nd ref="1555911575"/>
    <nd ref="1555911594"/>
    <nd ref="890205450"/>
    <nd ref="1555911622"/>
    <nd ref="890205458"/>
    <nd ref="1555911610"/>
    <nd ref="893917657"/>
    <nd ref="1555911604"/>
    <nd ref="890205462"/>
    <nd ref="1555911623"/>
    <nd ref="1116271742"/>
    <nd ref="1555911624"/>
    <nd ref="890205467"/>
    <nd ref="1555911608"/>
    <nd ref="890205470"/>
    <nd ref="1111969382"/>
    <nd ref="890210912"/>
    <nd ref="890260963"/>
    <tag k="highway" v="secondary"/>
    <tag k="lanes" v="2"/>
    <tag k="layer" v="0"/>
    <tag k="maxspeed" v="60"/>
    <tag k="name" v="Новокрюковская улица"/>
    <tag k="omkum:code" v="21954"/>
    <tag k="omkum:old_name" v="Проектируемый проезд N 623"/>
    <tag k="oneway" v="yes"/>
    <tag k="sorting_name" v="Новокрюковская  улица"/>
  </way>
  <way id="96692563" version="5" timestamp="2012-02-02T20:49:07Z" uid="336354" user="esaulenka" changeset="10571130"/>
  <way id="96692564" version="1" timestamp="2011-01-25T10:56:09Z" uid="115477" user="wowik" changeset="7082367">
    <nd ref="317630829"/>
    <nd ref="317630821"/>
    <nd ref="317630832"/>
    <nd ref="317630833"/>
    <nd ref="317630829"/>
    <tag k="building" v="yes"/>
    <tag k="building:levels" v="1"/>
  </way>
  <way id="96692564" version="2" timestamp="2011-01-27T20:12:17Z" uid="206282" user="Amigo" changeset="7107118"/>
  <way id="96692565" version="1" timestamp="2011-01-25T10:56:09Z" uid="115477" user="wowik" changeset="7082367">
    <nd ref="1119786014"/>
    <nd ref="1119786141"/>
    <nd ref="1119786273"/>
    <nd ref="1119786022"/>
    <nd ref="1119786144"/>
    <nd ref="1119786244"/>
    <nd ref="1119785965"/>
    <nd ref="1119786121"/>
    <nd ref="1119786219"/>
    <nd ref="1119785906"/>
    <nd ref="1119786014"/>
    <tag k="building" v="yes"/>
    <tag k="building:levels" v="1"/>
    <tag k="landuse" v="garages"/>
  </way>
  <way id="96692565" version="2" timestamp="2011-09-13T10:38:34Z" uid="29320" user="Komяpa" changeset="9288237">
    <nd ref="1119786014"/>
    <nd ref="1119786141"/>
    <nd ref="1119786273"/>
    <nd ref="1119786022"/>
    <nd ref="1119786144"/>
    <nd ref="1119786244"/>
    <nd ref="1119785965"/>
    <nd ref="1119786121"/>
    <nd ref="1119786219"/>
    <nd ref="1119785906"/>
    <nd ref="1119786014"/>
    <tag k="building" v="garages"/>
    <tag k="building:levels" v="1"/>
  </way>
  <way id="96692565" version="3" timestamp="2012-03-28T06:22:06Z" uid="481934" user="iWowik" changeset="11123401">
    <nd ref="1119786014"/>
    <nd ref="1119786141"/>
    <nd ref="1119786273"/>
    <nd ref="1119786022"/>
    <nd ref="1119786144"/>
    <nd ref="1119786244"/>
    <nd ref="1119785965"/>
    <nd ref="1119786121"/>
    <nd ref="1119786219"/>
    <nd ref="1119785906"/>
    <nd ref="1119786014"/>
    <tag k="addr:city" v="Москва"/>
    <tag k="addr:country" v="RU"/>
    <tag k="building" v="garages"/>
    <tag k="building:levels" v="1"/>
  </way>
  <way id="96692566" version="1" timestamp="2011-01-25T10:56:09Z" uid="115477" user="wowik" changeset="7082367">
    <nd ref="1119786176"/>
    <nd ref="1119785810"/>
    <nd ref="1119786028"/>
    <nd ref="1119786148"/>
    <nd ref="1119786176"/>
    <tag k="building" v="yes"/>
    <tag k="building:levels" v="1"/>
    <tag k="landuse" v="garages"/>
  </way>
  <way id="96692566" version="2" timestamp="2011-09-13T10:38:34Z" uid="29320" user="Komяpa" changeset="9288237">
    <nd ref="1119786176"/>
    <nd ref="1119785810"/>
    <nd ref="1119786028"/>
    <nd ref="1119786148"/>
    <nd ref="1119786176"/>
    <tag k="building" v="garages"/>
    <tag k="building:levels" v="1"/>
  </way>
  <way id="96692566" version="3" timestamp="2012-03-28T06:24:39Z" uid="481934" user="iWowik" changeset="11123401">
    <nd ref="1119786176"/>
    <nd ref="1119785810"/>
    <nd ref="1119786028"/>
    <nd ref="1119786148"/>
    <nd ref="1119786176"/>
    <tag k="addr:city" v="Москва"/>
    <tag k="addr:country" v="RU"/>
    <tag k="building" v="garages"/>
    <tag k="building:levels" v="1"/>
  </way>
</osm>
