<?xml version='1.0' encoding='UTF-8'?>
<osm version="0.6" generator="libosmium/2.20.0">
  <way id="96702239" version="1" timestamp="2011-01-25T13:39:22Z" uid="115477" user="wowik" changeset="7083719">
    <nd ref="1119881167"/>
    <nd ref="1119881231"/>
    <nd ref="1119881145"/>
    <nd ref="1119881362"/>
    <tag k="highway" v="service"/>
    <tag k="service" v="living_street"/>
  </way>
  <way id="96702239" version="2" timestamp="2011-11-15T11:08:44Z" uid="554402" user="Канавичев Александр" changeset="9833619">
    <nd ref="685122319"/>
    <nd ref="1503755321"/>
    <nd ref="1119881167"/>
    <nd ref="1119881231"/>
    <nd ref="1119881145"/>
    <nd ref="1119881362"/>
    <tag k="highway" v="service"/>
    <tag k="service" v="living_street"/>
  </way>
  <way id="96702240" version="1" timestamp="2011-01-25T13:39:22Z" uid="115477" user="wowik" changeset="7083719">
    <nd ref="1119881309"/>
    <nd ref="1119881248"/>
    <nd ref="1119881160"/>
    <nd ref="1119881356"/>
    <nd ref="317631338"/>
    <nd ref="317631345"/>
    <nd ref="1119881309"/>
    <tag k="amenity" v="kindergarten"/>
    <tag k="building" v="yes"/>
    <tag k="building:levels" v="2"/>
  </way>
  <way id="96702240" version="2" timestamp="2011-01-27T19:35:06Z" uid="206282" user="Amigo" changeset="7106806">
    <nd ref="1119881309"/>
    <nd ref="1119881248"/>
    <nd ref="1119881160"/>
    <nd ref="1119881356"/>
    <nd ref="317631338"/>
    <nd ref="317631345"/>
    <nd ref="1119881309"/>
    <tag k="building" v="yes"/>
    <tag k="building:levels" v="2"/>
  </way>
  <way id="96702240" version="3" timestamp="2011-02-06T17:07:06Z" uid="115477" user="wowik" changeset="7206339">
    <nd ref="1119881309"/>
    <nd ref="1119881248"/>
    <nd ref="1119881160"/>
    <nd ref="1119881356"/>
    <nd ref="317631338"/>
    <nd ref="317631342"/>
    <nd ref="1119881282"/>
    <nd ref="1119881369"/>
    <nd ref="1119881173"/>
    <nd ref="1119881260"/>
    <nd ref="1119881309"/>
    <tag k="addr:city" v="Москва"/>
    <tag k="addr:country" v="RU"/>
    <tag k="addr:housenumber" v="6 к2"/>
    <tag k="addr:street" v="улица Героев Панфиловцев"/>
    <tag k="amenity" v="kindergarten"/>
    <tag k="building" v="yes"/>
    <tag k="building:levels" v="3"/>
    <tag k="cladr:code" v="77000000000107300"/>
    <tag k="name" v="Детский сад №259"/>
  </way>
  <way id="96702240" version="4" timestamp="2011-03-07T12:53:26Z" uid="206282" user="Amigo" changeset="7483827">
    <nd ref="1119881309"/>
    <nd ref="1119881248"/>
    <nd ref="1119881160"/>
    <nd ref="1119881356"/>
    <nd ref="317631338"/>
    <nd ref="317631342"/>
    <nd ref="1119881282"/>
    <nd ref="1119881369"/>
    <nd ref="1119881173"/>
    <nd ref="1119881260"/>
    <nd ref="1119881309"/>
    <tag k="addr:city" v="Москва"/>
    <tag k="addr:country" v="RU"/>
    <tag k="addr:housenumber" v="6 с2"/>
    <tag k="addr:street" v="улица Героев Панфиловцев"/>
    <tag k="amenity" v="kindergarten"/>
    <tag k="building" v="yes"/>
    <tag k="building:levels" v="3"/>
    <tag k="cladr:code" v="77000000000107300"/>
    <tag k="name" v="Детский сад №259"/>
  </way>
  <way id="96702241" version="1" timestamp="2011-01-25T13:39:22Z" uid="115477" user="wowik" changeset="7083719">
    <nd ref="1119881230"/>
    <nd ref="1119881215"/>
    <nd ref="1119881171"/>
    <nd ref="1119881136"/>
    <nd ref="1119881230"/>
    <tag k="building" v="yes"/>
    <tag k="building:levels" v="1"/>
  </way>
  <way id="96702241" version="2" timestamp="2011-05-29T21:43:13Z" uid="244719" user="BigViking" changeset="8285807"/>
  <way id="96702242" version="1" timestamp="2011-01-25T13:39:23Z" uid="115477" user="wowik" changeset="7083719">
    <nd ref="1119881348"/>
    <nd ref="1119881231"/>
    <tag k="highway" v="service"/>
    <tag k="service" v="living_street"/>
  </way>
  <way id="96702243" version="1" timestamp="2011-01-25T13:39:23Z" uid="115477" user="wowik" changeset="7083719">
    <nd ref="1119881185"/>
    <nd ref="1119881142"/>
    <nd ref="1119881380"/>
    <nd ref="1119881340"/>
    <nd ref="1119881185"/>
    <tag k="addr:city" v="Москва"/>
    <tag k="addr:country" v="RU"/>
    <tag k="building" v="yes"/>
    <tag k="building:levels" v="1"/>
  </way>
  <way id="96702244" version="1" timestamp="2011-01-25T13:39:23Z" uid="115477" user="wowik" changeset="7083719">
    <nd ref="1119881135"/>
    <nd ref="1119881367"/>
    <nd ref="1119881279"/>
    <nd ref="1119881193"/>
    <nd ref="1119881390"/>
    <nd ref="1119881135"/>
    <tag k="barrier" v="fence"/>
  </way>
  <way id="96702245" version="1" timestamp="2011-01-25T13:39:23Z" uid="115477" user="wowik" changeset="7083719">
    <nd ref="1119881220"/>
    <nd ref="1119881179"/>
    <nd ref="1119881140"/>
    <nd ref="1119881372"/>
    <nd ref="1119881220"/>
    <tag k="building" v="yes"/>
    <tag k="building:levels" v="1"/>
  </way>
  <way id="96702245" version="2" timestamp="2011-05-29T21:43:13Z" uid="244719" user="BigViking" changeset="8285807"/>
  <way id="96702246" version="1" timestamp="2011-01-25T13:39:24Z" uid="115477" user="wowik" changeset="7083719">
    <nd ref="1119881125"/>
    <nd ref="1119881358"/>
    <nd ref="1119881320"/>
    <nd ref="1119881271"/>
    <nd ref="1119881125"/>
    <tag k="addr:city" v="Москва"/>
    <tag k="addr:country" v="RU"/>
    <tag k="building" v="yes"/>
    <tag k="building:levels" v="1"/>
  </way>
  <way id="96702247" version="1" timestamp="2011-01-25T13:39:24Z" uid="115477" user="wowik" changeset="7083719">
    <nd ref="1119881211"/>
    <nd ref="1119881169"/>
    <nd ref="1119881132"/>
    <nd ref="1119881310"/>
    <nd ref="1119881393"/>
    <nd ref="1119881365"/>
    <nd ref="1119881139"/>
    <nd ref="1119881219"/>
    <nd ref="1119881211"/>
    <tag k="building" v="yes"/>
    <tag k="building:levels" v="1"/>
  </way>
  <way id="96702247" version="2" timestamp="2011-05-29T21:43:13Z" uid="244719" user="BigViking" changeset="8285807"/>
  <way id="96702248" version="1" timestamp="2011-01-25T13:39:24Z" uid="115477" user="wowik" changeset="7083719">
    <nd ref="1119881156"/>
    <nd ref="1119881116"/>
    <nd ref="1119881353"/>
    <nd ref="1119881312"/>
    <nd ref="1119881359"/>
    <nd ref="1119881272"/>
    <nd ref="1119881156"/>
    <tag k="building" v="yes"/>
    <tag k="building:levels" v="1"/>
  </way>
  <way id="96702248" version="2" timestamp="2011-05-29T21:43:14Z" uid="244719" user="BigViking" changeset="8285807"/>
  <way id="96702249" version="1" timestamp="2011-01-25T13:39:24Z" uid="115477" user="wowik" changeset="7083719">
    <nd ref="317631325"/>
    <nd ref="1119881121"/>
    <nd ref="1119881315"/>
    <nd ref="1119881224"/>
    <nd ref="1119881141"/>
    <nd ref="317631324"/>
    <nd ref="317631322"/>
    <nd ref="317631325"/>
    <tag k="amenity" v="public_building"/>
    <tag k="building" v="yes"/>
    <tag k="building:levels" v="1"/>
  </way>
  <way id="96702249" version="2" timestamp="2011-01-27T19:35:05Z" uid="206282" user="Amigo" changeset="7106806">
    <nd ref="317631325"/>
    <nd ref="1119881121"/>
    <nd ref="1119881315"/>
    <nd ref="1119881224"/>
    <nd ref="1119881141"/>
    <nd ref="317631324"/>
    <nd ref="317631322"/>
    <nd ref="317631325"/>
    <tag k="building" v="yes"/>
    <tag k="building:levels" v="1"/>
  </way>
  <way id="96702249" version="3" timestamp="2012-03-28T06:26:42Z" uid="481934" user="iWowik" changeset="11123401">
    <nd ref="317631325"/>
    <nd ref="1119881121"/>
    <nd ref="1119881315"/>
    <nd ref="1119881224"/>
    <nd ref="1119881141"/>
    <nd ref="317631324"/>
    <nd ref="317631322"/>
    <nd ref="317631325"/>
    <tag k="addr:city" v="Москва"/>
    <tag k="addr:country" v="RU"/>
    <tag k="building" v="yes"/>
    <tag k="building:levels" v="1"/>
  </way>
  <way id="96702250" version="1" timestamp="2011-01-25T13:39:25Z" uid="115477" user="wowik" changeset="7083719">
    <nd ref="1119881174"/>
    <nd ref="1119881138"/>
    <nd ref="1119881344"/>
    <nd ref="1119881300"/>
    <nd ref="1119881174"/>
    <tag k="building" v="yes"/>
    <tag k="building:levels" v="1"/>
  </way>
  <way id="96702250" version="2" timestamp="2011-03-05T10:05:14Z" uid="206282" user="Amigo" changeset="7461052">
    <nd ref="1119881174"/>
    <nd ref="1119881138"/>
    <nd ref="1119881344"/>
    <nd ref="1119881300"/>
    <nd ref="1119881174"/>
    <tag k="addr:housenumber" v="16 к1 с1"/>
    <tag k="addr:street" v="Химкинский бульвар"/>
    <tag k="building" v="yes"/>
    <tag k="building:levels" v="1"/>
  </way>
  <way id="96702250" version="3" timestamp="2012-03-28T06:13:36Z" uid="481934" user="iWowik" changeset="11123401">
    <nd ref="1119881174"/>
    <nd ref="1119881138"/>
    <nd ref="1119881344"/>
    <nd ref="1119881300"/>
    <nd ref="1119881174"/>
    <tag k="addr:city" v="Москва"/>
    <tag k="addr:country" v="RU"/>
    <tag k="addr:housenumber" v="16 к1 с1"/>
    <tag k="addr:street" v="Химкинский бульвар"/>
    <tag k="building" v="yes"/>
    <tag k="building:levels" v="1"/>
  </way>
  <way id="96702251" version="1" timestamp="2011-01-25T13:39:25Z" uid="115477" user="wowik" changeset="7083719">
    <nd ref="1119881146"/>
    <nd ref="1119881384"/>
    <nd ref="1119881298"/>
    <nd ref="1119881210"/>
    <nd ref="1119881131"/>
    <nd ref="1119881325"/>
    <nd ref="1119881234"/>
    <nd ref="1119881176"/>
    <nd ref="1119881370"/>
    <nd ref="1119881285"/>
    <nd ref="1119881197"/>
    <nd ref="1119881146"/>
    <tag k="barrier" v="fence"/>
  </way>
  <way id="96702252" version="1" timestamp="2011-01-25T13:39:25Z" uid="115477" user="wowik" changeset="7083719">
    <nd ref="685131606"/>
    <nd ref="1119881326"/>
    <nd ref="685131601"/>
    <nd ref="685131600"/>
    <nd ref="685131606"/>
    <tag k="building" v="yes"/>
    <tag k="building:levels" v="1"/>
  </way>
  <way id="96702252" version="2" timestamp="2012-03-28T06:23:23Z" uid="481934" user="iWowik" changeset="11123401">
    <nd ref="685131606"/>
    <nd ref="1119881326"/>
    <nd ref="685131601"/>
    <nd ref="685131600"/>
    <nd ref="685131606"/>
    <tag k="addr:city" v="Москва"/>
    <tag k="addr:country" v="RU"/>
    <tag k="building" v="yes"/>
    <tag k="building:levels" v="1"/>
  </way>
  <way id="96702253" version="1" timestamp="2011-01-25T13:39:26Z" uid="115477" user="wowik" changeset="7083719">
    <nd ref="1119881119"/>
    <nd ref="1119881355"/>
    <nd ref="1119881267"/>
    <nd ref="1119881181"/>
    <nd ref="1119881375"/>
    <nd ref="1119881291"/>
    <nd ref="1119881201"/>
    <nd ref="1119881122"/>
    <nd ref="1119881316"/>
    <nd ref="1119881256"/>
    <nd ref="1119881168"/>
    <nd ref="1119881364"/>
    <nd ref="1119881277"/>
    <nd ref="1119881191"/>
    <nd ref="1119881388"/>
    <nd ref="1119881302"/>
    <nd ref="1119881214"/>
    <nd ref="1119881381"/>
    <nd ref="1119881295"/>
    <nd ref="1119881207"/>
    <nd ref="1119881129"/>
    <nd ref="1119881119"/>
    <tag k="barrier" v="fence"/>
  </way>
  <way id="96702254" version="1" timestamp="2011-01-25T13:39:26Z" uid="115477" user="wowik" changeset="7083719">
    <nd ref="1119881273"/>
    <nd ref="1119881228"/>
    <nd ref="1119881186"/>
    <nd ref="1119881144"/>
    <nd ref="1119881273"/>
    <tag k="addr:city" v="Москва"/>
    <tag k="addr:country" v="RU"/>
    <tag k="addr:street" v="улица Героев Панфиловцев"/>
    <tag k="building" v="yes"/>
    <tag k="building:levels" v="1"/>
    <tag k="cladr:code" v="77000000000107300"/>
  </way>
  <way id="96702254" version="2" timestamp="2011-03-07T13:00:01Z" uid="206282" user="Amigo" changeset="7483827">
    <nd ref="1119881273"/>
    <nd ref="1119881228"/>
    <nd ref="1119881186"/>
    <nd ref="1119881144"/>
    <nd ref="1119881273"/>
    <tag k="addr:city" v="Москва"/>
    <tag k="addr:country" v="RU"/>
    <tag k="addr:housenumber" v="8 к1 с2"/>
    <tag k="addr:street" v="улица Героев Панфиловцев"/>
    <tag k="building" v="yes"/>
    <tag k="building:levels" v="1"/>
    <tag k="cladr:code" v="77000000000107300"/>
  </way>
  <way id="96702255" version="1" timestamp="2011-01-25T13:39:26Z" uid="115477" user="wowik" changeset="7083719">
    <nd ref="1119881297"/>
    <nd ref="1119881255"/>
    <nd ref="1119881209"/>
    <nd ref="1119881195"/>
    <nd ref="1119881297"/>
    <tag k="addr:housenumber" v="63 с7"/>
    <tag k="addr:street" v="улица Свободы"/>
    <tag k="building" v="yes"/>
    <tag k="building:levels" v="1"/>
  </way>
  <way id="96702255" version="2" timestamp="2012-03-28T06:18:48Z" uid="481934" user="iWowik" changeset="11123401">
    <nd ref="1119881297"/>
    <nd ref="1119881255"/>
    <nd ref="1119881209"/>
    <nd ref="1119881195"/>
    <nd ref="1119881297"/>
    <tag k="addr:city" v="Москва"/>
    <tag k="addr:country" v="RU"/>
    <tag k="addr:housenumber" v="63 с7"/>
    <tag k="addr:street" v="улица Свободы"/>
    <tag k="building" v="yes"/>
    <tag k="building:levels" v="1"/>
  </way>
  <way id="96702256" version="1" timestamp="2011-01-25T13:39:26Z" uid="115477" user="wowik" changeset="7083719">
    <nd ref="1119881190"/>
    <nd ref="1119881148"/>
    <nd ref="1119881345"/>
    <nd ref="599063045"/>
    <nd ref="1119881264"/>
    <nd ref="1119881170"/>
    <nd ref="1119881366"/>
    <nd ref="1119881252"/>
    <nd ref="1119881190"/>
    <tag k="building" v="yes"/>
    <tag k="building:levels" v="1"/>
  </way>
  <way id="96702256" version="2" timestamp="2012-03-28T06:26:43Z" uid="481934" user="iWowik" changeset="11123401">
    <nd ref="1119881190"/>
    <nd ref="1119881148"/>
    <nd ref="1119881345"/>
    <nd ref="599063045"/>
    <nd ref="1119881264"/>
    <nd ref="1119881170"/>
    <nd ref="1119881366"/>
    <nd ref="1119881252"/>
    <nd ref="1119881190"/>
    <tag k="addr:city" v="Москва"/>
    <tag k="addr:country" v="RU"/>
    <tag k="building" v="yes"/>
    <tag k="building:levels" v="1"/>
  </way>
  <way id="96702257" version="1" timestamp="2011-01-25T13:39:26Z" uid="115477" user="wowik" changeset="7083719">
    <nd ref="1119881374"/>
    <nd ref="1119881337"/>
    <nd ref="1119881290"/>
    <nd ref="1119881274"/>
    <nd ref="1119881374"/>
    <tag k="addr:city" v="Москва"/>
    <tag k="addr:country" v="RU"/>
    <tag k="building" v="yes"/>
    <tag k="building:levels" v="1"/>
  </way>
  <way id="96702258" version="1" timestamp="2011-01-25T13:39:27Z" uid="115477" user="wowik" changeset="7083719">
    <nd ref="1119881229"/>
    <nd ref="1119881187"/>
    <nd ref="1119881382"/>
    <nd ref="1119881330"/>
    <nd ref="1119881239"/>
    <nd ref="1119881153"/>
    <nd ref="1119881351"/>
    <nd ref="1119881261"/>
    <nd ref="1119881229"/>
    <tag k="leisure" v="pitch"/>
  </way>
  <way id="96702259" version="1" timestamp="2011-01-25T13:39:27Z" uid="115477" user="wowik" changeset="7083719">
    <nd ref="1119881332"/>
    <nd ref="1119881284"/>
    <nd ref="1119881241"/>
    <nd ref="1119881196"/>
    <nd ref="1119881332"/>
    <tag k="building" v="yes"/>
    <tag k="building:levels" v="1"/>
  </way>
  <way id="96702259" version="2" timestamp="2012-03-28T06:23:48Z" uid="481934" user="iWowik" changeset="11123401">
    <nd ref="1119881332"/>
    <nd ref="1119881284"/>
    <nd ref="1119881241"/>
    <nd ref="1119881196"/>
    <nd ref="1119881332"/>
    <tag k="addr:city" v="Москва"/>
    <tag k="addr:country" v="RU"/>
    <tag k="building" v="yes"/>
    <tag k="building:levels" v="1"/>
  </way>
  <way id="96702260" version="1" timestamp="2011-01-25T13:39:27Z" uid="115477" user="wowik" changeset="7083719">
    <nd ref="1119881307"/>
    <nd ref="1119881263"/>
    <nd ref="1119881217"/>
    <nd ref="1119881175"/>
    <nd ref="1119881307"/>
    <tag k="addr:street" v="улица Свободы"/>
    <tag k="building" v="yes"/>
    <tag k="building:levels" v="1"/>
  </way>
  <way id="96702260" version="2" timestamp="2011-03-05T09:49:43Z" uid="206282" user="Amigo" changeset="7461052">
    <nd ref="1119881307"/>
    <nd ref="1119881263"/>
    <nd ref="1119881217"/>
    <nd ref="1119881175"/>
    <nd ref="1119881307"/>
    <tag k="addr:housenumber" v="4 с3"/>
    <tag k="addr:street" v="Химкинский бульвар"/>
    <tag k="building" v="yes"/>
    <tag k="building:levels" v="1"/>
  </way>
  <way id="96702260" version="3" timestamp="2012-03-28T06:17:09Z" uid="481934" user="iWowik" changeset="11123401">
    <nd ref="1119881307"/>
    <nd ref="1119881263"/>
    <nd ref="1119881217"/>
    <nd ref="1119881175"/>
    <nd ref="1119881307"/>
    <tag k="addr:city" v="Москва"/>
    <tag k="addr:country" v="RU"/>
    <tag k="addr:housenumber" v="4 с3"/>
    <tag k="addr:street" v="Химкинский бульвар"/>
    <tag k="building" v="yes"/>
    <tag k="building:levels" v="1"/>
  </way>
  <way id="96702261" version="1" timestamp="2011-01-25T13:39:28Z" uid="115477" user="wowik" changeset="7083719">
    <nd ref="1119881157"/>
    <nd ref="1119881117"/>
    <nd ref="1119881313"/>
    <nd ref="1119881221"/>
    <nd ref="1119881157"/>
    <tag k="leisure" v="pitch"/>
  </way>
  <way id="96702262" version="1" timestamp="2011-01-25T13:39:28Z" uid="115477" user="wowik" changeset="7083719">
    <nd ref="1119881363"/>
    <nd ref="1119881323"/>
    <nd ref="1119881276"/>
    <nd ref="1119881233"/>
    <nd ref="1119881363"/>
    <tag k="addr:city" v="Москва"/>
    <tag k="addr:country" v="RU"/>
    <tag k="building" v="yes"/>
    <tag k="building:levels" v="1"/>
  </way>
  <way id="96702263" version="1" timestamp="2011-01-25T13:39:28Z" uid="115477" user="wowik" changeset="7083719">
    <nd ref="1119881149"/>
    <nd ref="1119881389"/>
    <nd ref="1119881346"/>
    <nd ref="1119881303"/>
    <nd ref="1119881149"/>
    <tag k="addr:city" v="Москва"/>
    <tag k="addr:country" v="RU"/>
    <tag k="addr:housenumber" v="6 к2 с1"/>
    <tag k="addr:street" v="улица Героев Панфиловцев"/>
    <tag k="building" v="yes"/>
    <tag k="building:levels" v="1"/>
    <tag k="cladr:code" v="77000000000107300"/>
    <tag k="landuse" v="service"/>
  </way>
  <way id="96702263" version="2" timestamp="2011-09-13T10:27:54Z" uid="29320" user="Komяpa" changeset="9288237">
    <nd ref="1119881149"/>
    <nd ref="1119881389"/>
    <nd ref="1119881346"/>
    <nd ref="1119881303"/>
    <nd ref="1119881149"/>
    <tag k="addr:city" v="Москва"/>
    <tag k="addr:country" v="RU"/>
    <tag k="addr:housenumber" v="6 к2 с1"/>
    <tag k="addr:street" v="улица Героев Панфиловцев"/>
    <tag k="building" v="service"/>
    <tag k="building:levels" v="1"/>
    <tag k="cladr:code" v="77000000000107300"/>
  </way>
  <way id="96702264" version="1" timestamp="2011-01-25T13:39:28Z" uid="115477" user="wowik" changeset="7083719">
    <nd ref="1119881347"/>
    <nd ref="1119881304"/>
    <nd ref="1119881258"/>
    <nd ref="1119881250"/>
    <nd ref="1119881163"/>
    <nd ref="1119881244"/>
    <nd ref="1119881347"/>
    <tag k="building" v="yes"/>
    <tag k="building:levels" v="1"/>
  </way>
  <way id="96702264" version="2" timestamp="2011-05-29T21:43:14Z" uid="244719" user="BigViking" changeset="8285807"/>
  <way id="96702265" version="1" timestamp="2011-01-25T13:39:28Z" uid="115477" user="wowik" changeset="7083719">
    <nd ref="1119881288"/>
    <nd ref="1119881246"/>
    <nd ref="1119881199"/>
    <nd ref="1119881159"/>
    <nd ref="1119881288"/>
    <tag k="building" v="yes"/>
    <tag k="building:levels" v="1"/>
  </way>
  <way id="96702265" version="2" timestamp="2012-03-28T06:24:11Z" uid="481934" user="iWowik" changeset="11123401">
    <nd ref="1119881288"/>
    <nd ref="1119881246"/>
    <nd ref="1119881199"/>
    <nd ref="1119881159"/>
    <nd ref="1119881288"/>
    <tag k="addr:city" v="Москва"/>
    <tag k="addr:country" v="RU"/>
    <tag k="building" v="yes"/>
    <tag k="building:levels" v="1"/>
  </way>
  <way id="96702266" version="1" timestamp="2011-01-25T13:39:29Z" uid="115477" user="wowik" changeset="7083719">
    <nd ref="1119881391"/>
    <nd ref="1119881352"/>
    <nd ref="1119881306"/>
    <nd ref="1119881262"/>
    <nd ref="1119881391"/>
    <tag k="building" v="yes"/>
    <tag k="building:levels" v="1"/>
  </way>
  <way id="96702266" version="2" timestamp="2012-03-28T06:23:28Z" uid="481934" user="iWowik" changeset="11123401">
    <nd ref="1119881391"/>
    <nd ref="1119881352"/>
    <nd ref="1119881306"/>
    <nd ref="1119881262"/>
    <nd ref="1119881391"/>
    <tag k="addr:city" v="Москва"/>
    <tag k="addr:country" v="RU"/>
    <tag k="building" v="yes"/>
    <tag k="building:levels" v="1"/>
  </way>
  <way id="96702267" version="1" timestamp="2011-01-25T13:39:29Z" uid="115477" user="wowik" changeset="7083719">
    <nd ref="1119881278"/>
    <nd ref="1119881235"/>
    <nd ref="1119881192"/>
    <nd ref="1119881150"/>
    <nd ref="1119881278"/>
    <tag k="building" v="yes"/>
    <tag k="building:levels" v="1"/>
  </way>
  <way id="96702267" version="2" timestamp="2011-05-29T21:43:14Z" uid="244719" user="BigViking" changeset="8285807"/>
  <way id="96702268" version="1" timestamp="2011-01-25T13:39:29Z" uid="115477" user="wowik" changeset="7083719">
    <nd ref="1119881331"/>
    <nd ref="1119881280"/>
    <nd ref="1119881333"/>
    <nd ref="1119881269"/>
    <nd ref="1119881240"/>
    <nd ref="1119881194"/>
    <nd ref="1119881183"/>
    <nd ref="1119881378"/>
    <nd ref="1119881331"/>
    <tag k="building" v="yes"/>
    <tag k="building:levels" v="1"/>
  </way>
  <way id="96702268" version="2" timestamp="2011-05-29T21:43:14Z" uid="244719" user="BigViking" changeset="8285807"/>
  <way id="96702269" version="1" timestamp="2011-01-25T13:39:29Z" uid="115477" user="wowik" changeset="7083719">
    <nd ref="1119881260"/>
    <nd ref="1119881173"/>
    <nd ref="1119881369"/>
    <nd ref="1119881282"/>
    <nd ref="317631342"/>
    <nd ref="317631339"/>
    <nd ref="1119881260"/>
    <tag k="amenity" v="kindergarten"/>
    <tag k="building" v="yes"/>
    <tag k="building:levels" v="2"/>
  </way>
  <way id="96702269" version="2" timestamp="2011-01-27T19:35:06Z" uid="206282" user="Amigo" changeset="7106806">
    <nd ref="1119881260"/>
    <nd ref="1119881173"/>
    <nd ref="1119881369"/>
    <nd ref="1119881282"/>
    <nd ref="317631342"/>
    <nd ref="317631339"/>
    <nd ref="1119881260"/>
    <tag k="building" v="yes"/>
    <tag k="building:levels" v="2"/>
  </way>
  <way id="96702269" version="3" timestamp="2011-02-06T17:07:14Z" uid="115477" user="wowik" changeset="7206339"/>
  <way id="96702270" version="1" timestamp="2011-01-25T13:39:29Z" uid="115477" user="wowik" changeset="7083719">
    <nd ref="1119881257"/>
    <nd ref="1119881213"/>
    <nd ref="1119881134"/>
    <nd ref="1119881328"/>
    <nd ref="1119881237"/>
    <nd ref="1119881151"/>
    <nd ref="1119881349"/>
    <nd ref="1119881287"/>
    <nd ref="1119881198"/>
    <nd ref="1119881118"/>
    <nd ref="1119881314"/>
    <nd ref="1119881222"/>
    <nd ref="1119881257"/>
    <tag k="leisure" v="pitch"/>
  </way>
  <way id="96702271" version="1" timestamp="2011-01-25T13:39:30Z" uid="115477" user="wowik" changeset="7083719">
    <nd ref="1119881147"/>
    <nd ref="1119881386"/>
    <nd ref="1119881319"/>
    <nd ref="1119881270"/>
    <nd ref="1119881147"/>
    <tag k="building" v="yes"/>
    <tag k="building:levels" v="1"/>
  </way>
  <way id="96702271" version="2" timestamp="2011-05-29T21:43:13Z" uid="244719" user="BigViking" changeset="8285807"/>
  <way id="96702665" version="2" timestamp="2011-01-31T18:00:34Z" uid="23543" user="jkjk" changeset="7147187">
    <nd ref="1119888748"/>
    <nd ref="1119888828"/>
    <nd ref="1129616909"/>
    <nd ref="1119888664"/>
    <tag k="highway" v="tertiary"/>
    <tag k="oneway" v="yes"/>
    <tag k="source" v="Bing"/>
  </way>
  <way id="96702665" version="3" timestamp="2012-02-10T12:19:22Z" uid="28794" user="csdf" changeset="10642867"/>
  <way id="96702670" version="2" timestamp="2011-01-31T18:00:35Z" uid="23543" user="jkjk" changeset="7147187">
    <nd ref="1119888638"/>
    <nd ref="1129616626"/>
    <nd ref="1119888552"/>
    <nd ref="1119888773"/>
    <nd ref="1119888562"/>
    <nd ref="1119888569"/>
    <tag k="highway" v="tertiary"/>
    <tag k="oneway" v="yes"/>
    <tag k="source" v="Bing"/>
  </way>
  <way id="96702670" version="3" timestamp="2012-02-10T12:19:20Z" uid="28794" user="csdf" changeset="10642867">
    <nd ref="1119888638"/>
    <nd ref="1129616626"/>
    <nd ref="1626774928"/>
    <nd ref="1119888552"/>
    <nd ref="1119888773"/>
    <nd ref="1119888562"/>
    <nd ref="1119888569"/>
    <tag k="highway" v="tertiary"/>
    <tag k="oneway" v="yes"/>
    <tag k="source" v="Bing"/>
  </way>
  <way id="96702680" version="3" timestamp="2011-01-31T18:00:46Z" uid="23543" user="jkjk" changeset="7147187">
    <nd ref="1119888880"/>
    <nd ref="1119888474"/>
    <nd ref="1119888886"/>
    <nd ref="1119888868"/>
    <nd ref="1129616686"/>
    <nd ref="1119888888"/>
    <tag k="highway" v="tertiary"/>
    <tag k="oneway" v="yes"/>
    <tag k="source" v="Bing"/>
  </way>
  <way id="96702783" version="1" timestamp="2011-01-25T13:49:28Z" uid="115477" user="wowik" changeset="7083822">
    <nd ref="1119890145"/>
    <nd ref="1119890129"/>
    <nd ref="1119890165"/>
    <nd ref="1119890184"/>
    <nd ref="1119890101"/>
    <nd ref="1119890084"/>
    <nd ref="1119890174"/>
    <nd ref="1119890163"/>
    <nd ref="1119890145"/>
    <tag k="addr:city" v="Москва"/>
    <tag k="addr:country" v="RU"/>
    <tag k="building" v="yes"/>
    <tag k="building:levels" v="1"/>
    <tag k="landuse" v="garages"/>
  </way>
  <way id="96702783" version="2" timestamp="2011-09-13T10:38:39Z" uid="29320" user="Komяpa" changeset="9288237">
    <nd ref="1119890145"/>
    <nd ref="1119890129"/>
    <nd ref="1119890165"/>
    <nd ref="1119890184"/>
    <nd ref="1119890101"/>
    <nd ref="1119890084"/>
    <nd ref="1119890174"/>
    <nd ref="1119890163"/>
    <nd ref="1119890145"/>
    <tag k="addr:city" v="Москва"/>
    <tag k="addr:country" v="RU"/>
    <tag k="building" v="garages"/>
    <tag k="building:levels" v="1"/>
  </way>
  <way id="96702784" version="1" timestamp="2011-01-25T13:49:29Z" uid="115477" user="wowik" changeset="7083822">
    <nd ref="1119890184"/>
    <nd ref="1119890165"/>
    <nd ref="1119890147"/>
    <nd ref="1119890132"/>
    <nd ref="1119890167"/>
    <nd ref="1119890184"/>
    <tag k="addr:city" v="Москва"/>
    <tag k="addr:country" v="RU"/>
    <tag k="addr:housenumber" v="16А с11"/>
    <tag k="addr:street" v="Химкинский бульвар"/>
    <tag k="building" v="yes"/>
    <tag k="building:levels" v="1"/>
    <tag k="cladr:code" v="77000000000302800"/>
  </way>
  <way id="96702785" version="1" timestamp="2011-01-25T13:49:29Z" uid="115477" user="wowik" changeset="7083822">
    <nd ref="1119890150"/>
    <nd ref="1119890138"/>
    <nd ref="1119890118"/>
    <nd ref="1119890103"/>
    <nd ref="1119890150"/>
    <tag k="addr:city" v="Москва"/>
    <tag k="addr:country" v="RU"/>
    <tag k="building" v="yes"/>
    <tag k="building:levels" v="1"/>
  </way>
  <way id="96702785" version="2" timestamp="2011-03-05T10:00:51Z" uid="206282" user="Amigo" changeset="7461052">
    <nd ref="1119890150"/>
    <nd ref="1119890138"/>
    <nd ref="1119890118"/>
    <nd ref="1119890103"/>
    <nd ref="1119890150"/>
    <tag k="addr:city" v="Москва"/>
    <tag k="addr:country" v="RU"/>
    <tag k="addr:housenumber" v="16А с2"/>
    <tag k="addr:street" v="Химкинский бульвар"/>
    <tag k="building" v="yes"/>
    <tag k="building:levels" v="1"/>
  </way>
  <way id="96702786" version="1" timestamp="2011-01-25T13:49:29Z" uid="115477" user="wowik" changeset="7083822">
    <nd ref="1119890167"/>
    <nd ref="1119890134"/>
    <nd ref="1119890101"/>
    <nd ref="1119890184"/>
    <nd ref="1119890167"/>
    <tag k="building" v="yes"/>
    <tag k="building:levels" v="1"/>
  </way>
  <way id="96702786" version="2" timestamp="2011-03-05T10:00:55Z" uid="206282" user="Amigo" changeset="7461052">
    <nd ref="1119890167"/>
    <nd ref="1119890134"/>
    <nd ref="1119890101"/>
    <nd ref="1119890184"/>
    <nd ref="1119890167"/>
    <tag k="addr:housenumber" v="16А с10"/>
    <tag k="addr:street" v="Химкинский бульвар"/>
    <tag k="building" v="yes"/>
    <tag k="building:levels" v="1"/>
  </way>
  <way id="96702786" version="3" timestamp="2012-03-28T06:13:47Z" uid="481934" user="iWowik" changeset="11123401">
    <nd ref="1119890167"/>
    <nd ref="1119890134"/>
    <nd ref="1119890101"/>
    <nd ref="1119890184"/>
    <nd ref="1119890167"/>
    <tag k="addr:city" v="Москва"/>
    <tag k="addr:country" v="RU"/>
    <tag k="addr:housenumber" v="16А с10"/>
    <tag k="addr:street" v="Химкинский бульвар"/>
    <tag k="building" v="yes"/>
    <tag k="building:levels" v="1"/>
  </way>
  <way id="96702787" version="1" timestamp="2011-01-25T13:49:29Z" uid="115477" user="wowik" changeset="7083822">
    <nd ref="1119890117"/>
    <nd ref="1119890099"/>
    <nd ref="1119890082"/>
    <nd ref="1119890173"/>
    <nd ref="1119890117"/>
    <tag k="addr:city" v="Москва"/>
    <tag k="addr:country" v="RU"/>
    <tag k="building" v="yes"/>
    <tag k="building:levels" v="1"/>
  </way>
  <way id="96702787" version="2" timestamp="2011-03-05T10:00:57Z" uid="206282" user="Amigo" changeset="7461052">
    <nd ref="1119890117"/>
    <nd ref="1119890099"/>
    <nd ref="1119890082"/>
    <nd ref="1119890173"/>
    <nd ref="1119890117"/>
    <tag k="addr:city" v="Москва"/>
    <tag k="addr:country" v="RU"/>
    <tag k="addr:housenumber" v="16А с9"/>
    <tag k="addr:street" v="Химкинский бульвар"/>
    <tag k="building" v="yes"/>
    <tag k="building:levels" v="1"/>
  </way>
  <way id="96702788" version="1" timestamp="2011-01-25T13:49:29Z" uid="115477" user="wowik" changeset="7083822">
    <nd ref="1119890119"/>
    <nd ref="1119890105"/>
    <nd ref="1119890086"/>
    <nd ref="1119890175"/>
    <nd ref="1119890119"/>
    <tag k="addr:city" v="Москва"/>
    <tag k="addr:country" v="RU"/>
    <tag k="building" v="yes"/>
    <tag k="building:levels" v="1"/>
  </way>
  <way id="96702788" version="2" timestamp="2011-03-05T10:00:54Z" uid="206282" user="Amigo" changeset="7461052">
    <nd ref="1119890119"/>
    <nd ref="1119890105"/>
    <nd ref="1119890086"/>
    <nd ref="1119890175"/>
    <nd ref="1119890119"/>
    <tag k="addr:city" v="Москва"/>
    <tag k="addr:country" v="RU"/>
    <tag k="addr:housenumber" v="16А"/>
    <tag k="addr:street" v="Химкинский бульвар"/>
    <tag k="building" v="yes"/>
    <tag k="building:levels" v="1"/>
  </way>
  <way id="96702789" version="1" timestamp="2011-01-25T13:49:29Z" uid="115477" user="wowik" changeset="7083822">
    <nd ref="1119890115"/>
    <nd ref="1119890095"/>
    <nd ref="1119890078"/>
    <nd ref="1119890170"/>
    <nd ref="1119890115"/>
    <tag k="addr:city" v="Москва"/>
    <tag k="addr:country" v="RU"/>
    <tag k="building" v="yes"/>
    <tag k="building:levels" v="1"/>
  </way>
  <way id="96702790" version="1" timestamp="2011-01-25T13:49:29Z" uid="115477" user="wowik" changeset="7083822">
    <nd ref="1119890094"/>
    <nd ref="1119890185"/>
    <nd ref="1119890166"/>
    <nd ref="1119890148"/>
    <nd ref="1119890094"/>
    <tag k="addr:city" v="Москва"/>
    <tag k="addr:country" v="RU"/>
    <tag k="building" v="yes"/>
    <tag k="building:levels" v="1"/>
  </way>
  <way id="96702790" version="2" timestamp="2011-03-05T10:00:55Z" uid="206282" user="Amigo" changeset="7461052">
    <nd ref="1119890094"/>
    <nd ref="1119890185"/>
    <nd ref="1119890166"/>
    <nd ref="1119890148"/>
    <nd ref="1119890094"/>
    <tag k="addr:city" v="Москва"/>
    <tag k="addr:country" v="RU"/>
    <tag k="addr:housenumber" v="16А с6"/>
    <tag k="addr:street" v="Химкинский бульвар"/>
    <tag k="building" v="yes"/>
    <tag k="building:levels" v="1"/>
  </way>
  <way id="96702791" version="1" timestamp="2011-01-25T13:49:30Z" uid="115477" user="wowik" changeset="7083822">
    <nd ref="1119890142"/>
    <nd ref="1119890124"/>
    <nd ref="1119890108"/>
    <nd ref="1119890093"/>
    <nd ref="1119890142"/>
    <tag k="addr:city" v="Москва"/>
    <tag k="addr:country" v="RU"/>
    <tag k="building" v="yes"/>
    <tag k="building:levels" v="1"/>
  </way>
  <way id="96702793" version="1" timestamp="2011-01-25T13:49:30Z" uid="115477" user="wowik" changeset="7083822">
    <nd ref="1119890088"/>
    <nd ref="1119890182"/>
    <nd ref="1119890164"/>
    <nd ref="1119890146"/>
    <nd ref="1119890088"/>
    <tag k="addr:city" v="Москва"/>
    <tag k="addr:country" v="RU"/>
    <tag k="building" v="yes"/>
    <tag k="building:levels" v="1"/>
  </way>
  <way id="96702793" version="2" timestamp="2011-03-05T10:00:55Z" uid="206282" user="Amigo" changeset="7461052">
    <nd ref="1119890088"/>
    <nd ref="1119890182"/>
    <nd ref="1119890164"/>
    <nd ref="1119890146"/>
    <nd ref="1119890088"/>
    <tag k="addr:city" v="Москва"/>
    <tag k="addr:country" v="RU"/>
    <tag k="addr:housenumber" v="16А с3"/>
    <tag k="addr:street" v="Химкинский бульвар"/>
    <tag k="building" v="yes"/>
    <tag k="building:levels" v="1"/>
  </way>
  <way id="96702794" version="1" timestamp="2011-01-25T13:49:30Z" uid="115477" user="wowik" changeset="7083822">
    <nd ref="1119890168"/>
    <nd ref="1119890152"/>
    <nd ref="1119890139"/>
    <nd ref="1119890120"/>
    <nd ref="1119890168"/>
    <tag k="addr:city" v="Москва"/>
    <tag k="addr:country" v="RU"/>
    <tag k="addr:housenumber" v="16А с12"/>
    <tag k="addr:street" v="Химкинский бульвар"/>
    <tag k="building" v="yes"/>
    <tag k="building:levels" v="1"/>
    <tag k="cladr:code" v="77000000000302800"/>
  </way>
  <way id="96702795" version="1" timestamp="2011-01-25T13:49:30Z" uid="115477" user="wowik" changeset="7083822">
    <nd ref="1119890155"/>
    <nd ref="1119890143"/>
    <nd ref="1119890125"/>
    <nd ref="1119890110"/>
    <nd ref="1119890155"/>
    <tag k="addr:city" v="Москва"/>
    <tag k="addr:country" v="RU"/>
    <tag k="building" v="yes"/>
    <tag k="building:levels" v="1"/>
  </way>
  <way id="96702795" version="2" timestamp="2011-03-05T10:00:53Z" uid="206282" user="Amigo" changeset="7461052">
    <nd ref="1119890155"/>
    <nd ref="1119890143"/>
    <nd ref="1119890125"/>
    <nd ref="1119890110"/>
    <nd ref="1119890155"/>
    <tag k="addr:city" v="Москва"/>
    <tag k="addr:country" v="RU"/>
    <tag k="addr:housenumber" v="16А с8"/>
    <tag k="addr:street" v="Химкинский бульвар"/>
    <tag k="building" v="yes"/>
    <tag k="building:levels" v="1"/>
  </way>
  <way id="96702796" version="1" timestamp="2011-01-25T13:49:30Z" uid="115477" user="wowik" changeset="7083822">
    <nd ref="1119890169"/>
    <nd ref="1119890153"/>
    <nd ref="1119890140"/>
    <nd ref="1119890112"/>
    <nd ref="1119890169"/>
    <tag k="addr:city" v="Москва"/>
    <tag k="addr:country" v="RU"/>
    <tag k="building" v="yes"/>
    <tag k="building:levels" v="1"/>
  </way>
  <way id="96702796" version="2" timestamp="2011-03-05T10:00:53Z" uid="206282" user="Amigo" changeset="7461052">
    <nd ref="1119890169"/>
    <nd ref="1119890153"/>
    <nd ref="1119890140"/>
    <nd ref="1119890112"/>
    <nd ref="1119890169"/>
    <tag k="addr:city" v="Москва"/>
    <tag k="addr:country" v="RU"/>
    <tag k="addr:housenumber" v="16А с1"/>
    <tag k="addr:street" v="Химкинский бульвар"/>
    <tag k="building" v="yes"/>
    <tag k="building:levels" v="1"/>
  </way>
  <way id="96702797" version="1" timestamp="2011-01-25T13:49:30Z" uid="115477" user="wowik" changeset="7083822">
    <nd ref="1119890172"/>
    <nd ref="1119890162"/>
    <nd ref="1119890144"/>
    <nd ref="1119890127"/>
    <nd ref="1119890172"/>
    <tag k="addr:city" v="Москва"/>
    <tag k="addr:country" v="RU"/>
    <tag k="building" v="yes"/>
    <tag k="building:levels" v="1"/>
  </way>
  <way id="96702797" version="2" timestamp="2011-03-05T10:00:53Z" uid="206282" user="Amigo" changeset="7461052">
    <nd ref="1119890172"/>
    <nd ref="1119890162"/>
    <nd ref="1119890144"/>
    <nd ref="1119890127"/>
    <nd ref="1119890172"/>
    <tag k="addr:city" v="Москва"/>
    <tag k="addr:country" v="RU"/>
    <tag k="addr:housenumber" v="16А с5"/>
    <tag k="addr:street" v="Химкинский бульвар"/>
    <tag k="building" v="yes"/>
    <tag k="building:levels" v="1"/>
  </way>
  <way id="96702798" version="1" timestamp="2011-01-25T13:49:30Z" uid="115477" user="wowik" changeset="7083822">
    <nd ref="1119890130"/>
    <nd ref="1119890116"/>
    <nd ref="1119890096"/>
    <nd ref="1119890080"/>
    <nd ref="1119890130"/>
    <tag k="addr:city" v="Москва"/>
    <tag k="addr:country" v="RU"/>
    <tag k="building" v="yes"/>
    <tag k="building:levels" v="1"/>
  </way>
  <way id="96702798" version="2" timestamp="2011-03-05T10:00:56Z" uid="206282" user="Amigo" changeset="7461052">
    <nd ref="1119890130"/>
    <nd ref="1119890116"/>
    <nd ref="1119890096"/>
    <nd ref="1119890080"/>
    <nd ref="1119890130"/>
    <tag k="addr:city" v="Москва"/>
    <tag k="addr:country" v="RU"/>
    <tag k="addr:housenumber" v="16А с7"/>
    <tag k="addr:street" v="Химкинский бульвар"/>
    <tag k="building" v="yes"/>
    <tag k="building:levels" v="1"/>
  </way>
  <way id="96702799" version="1" timestamp="2011-01-25T13:49:30Z" uid="115477" user="wowik" changeset="7083822">
    <nd ref="1119890141"/>
    <nd ref="1119890122"/>
    <nd ref="1119890106"/>
    <nd ref="1119890092"/>
    <nd ref="1119890141"/>
    <tag k="addr:city" v="Москва"/>
    <tag k="addr:country" v="RU"/>
    <tag k="building" v="yes"/>
    <tag k="building:levels" v="1"/>
  </way>
  <way id="96702799" version="2" timestamp="2011-03-05T10:00:55Z" uid="206282" user="Amigo" changeset="7461052">
    <nd ref="1119890141"/>
    <nd ref="1119890122"/>
    <nd ref="1119890106"/>
    <nd ref="1119890092"/>
    <nd ref="1119890141"/>
    <tag k="addr:city" v="Москва"/>
    <tag k="addr:country" v="RU"/>
    <tag k="addr:housenumber" v="16А с4"/>
    <tag k="addr:street" v="Химкинский бульвар"/>
    <tag k="building" v="yes"/>
    <tag k="building:levels" v="1"/>
  </way>
  <way id="96702826" version="1" timestamp="2011-01-25T13:50:52Z" uid="115477" user="wowik" changeset="7083834">
    <nd ref="1119891456"/>
    <nd ref="1119891453"/>
    <nd ref="1119891449"/>
    <nd ref="1119891446"/>
    <nd ref="1119891456"/>
    <tag k="building" v="yes"/>
    <tag k="building:levels" v="1"/>
  </way>
  <way id="96702826" version="2" timestamp="2011-03-05T10:05:17Z" uid="206282" user="Amigo" changeset="7461052">
    <nd ref="1119891456"/>
    <nd ref="1119891453"/>
    <nd ref="1119891449"/>
    <nd ref="1119891446"/>
    <nd ref="1119891456"/>
    <tag k="addr:housenumber" v="16 к3 с1"/>
    <tag k="addr:street" v="Химкинский бульвар"/>
    <tag k="building" v="yes"/>
    <tag k="building:levels" v="1"/>
  </way>
  <way id="96702826" version="3" timestamp="2012-03-28T06:13:39Z" uid="481934" user="iWowik" changeset="11123401">
    <nd ref="1119891456"/>
    <nd ref="1119891453"/>
    <nd ref="1119891449"/>
    <nd ref="1119891446"/>
    <nd ref="1119891456"/>
    <tag k="addr:city" v="Москва"/>
    <tag k="addr:country" v="RU"/>
    <tag k="addr:housenumber" v="16 к3 с1"/>
    <tag k="addr:street" v="Химкинский бульвар"/>
    <tag k="building" v="yes"/>
    <tag k="building:levels" v="1"/>
  </way>
  <way id="96702828" version="1" timestamp="2011-01-25T13:50:52Z" uid="115477" user="wowik" changeset="7083834">
    <nd ref="1119891445"/>
    <nd ref="1119891443"/>
    <nd ref="1119891438"/>
    <nd ref="1119891457"/>
    <nd ref="1119891447"/>
    <nd ref="1119891454"/>
    <nd ref="1119891442"/>
    <nd ref="1119891451"/>
    <nd ref="1119891445"/>
    <tag k="building" v="yes"/>
    <tag k="building:levels" v="1"/>
  </way>
  <way id="96702828" version="2" timestamp="2012-03-28T06:26:47Z" uid="481934" user="iWowik" changeset="11123401">
    <nd ref="1119891445"/>
    <nd ref="1119891443"/>
    <nd ref="1119891438"/>
    <nd ref="1119891457"/>
    <nd ref="1119891447"/>
    <nd ref="1119891454"/>
    <nd ref="1119891442"/>
    <nd ref="1119891451"/>
    <nd ref="1119891445"/>
    <tag k="addr:city" v="Москва"/>
    <tag k="addr:country" v="RU"/>
    <tag k="building" v="yes"/>
    <tag k="building:levels" v="1"/>
  </way>
  <way id="96702829" version="1" timestamp="2011-01-25T13:50:52Z" uid="115477" user="wowik" changeset="7083834">
    <nd ref="1119891440"/>
    <nd ref="1119891455"/>
    <nd ref="1119891450"/>
    <nd ref="1119891448"/>
    <nd ref="1119891440"/>
    <tag k="building" v="yes"/>
    <tag k="building:levels" v="1"/>
  </way>
  <way id="96702829" version="2" timestamp="2011-03-05T10:05:16Z" uid="206282" user="Amigo" changeset="7461052">
    <nd ref="1119891440"/>
    <nd ref="1119891455"/>
    <nd ref="1119891450"/>
    <nd ref="1119891448"/>
    <nd ref="1119891440"/>
    <tag k="addr:housenumber" v="16 к4 с2"/>
    <tag k="addr:street" v="Химкинский бульвар"/>
    <tag k="building" v="yes"/>
    <tag k="building:levels" v="1"/>
  </way>
  <way id="96702829" version="3" timestamp="2012-03-28T06:13:40Z" uid="481934" user="iWowik" changeset="11123401">
    <nd ref="1119891440"/>
    <nd ref="1119891455"/>
    <nd ref="1119891450"/>
    <nd ref="1119891448"/>
    <nd ref="1119891440"/>
    <tag k="addr:city" v="Москва"/>
    <tag k="addr:country" v="RU"/>
    <tag k="addr:housenumber" v="16 к4 с2"/>
    <tag k="addr:street" v="Химкинский бульвар"/>
    <tag k="building" v="yes"/>
    <tag k="building:levels" v="1"/>
  </way>
</osm>
