<?xml version='1.0' encoding='UTF-8'?>
<osm version="0.6" generator="libosmium/2.20.0">
  <way id="96716546" version="1" timestamp="2011-01-25T16:50:56Z" uid="115477" user="wowik" changeset="7085363">
    <nd ref="984982622"/>
    <nd ref="1120044639"/>
    <nd ref="1120044634"/>
    <nd ref="1120044631"/>
    <nd ref="1120044633"/>
    <nd ref="1120044638"/>
    <nd ref="461008523"/>
    <nd ref="461008478"/>
    <nd ref="984982622"/>
    <tag k="building" v="yes"/>
    <tag k="building:levels" v="1"/>
    <tag k="shop" v="yes"/>
  </way>
  <way id="96716546" version="2" timestamp="2011-12-13T07:27:47Z" uid="126304" user="TarzanASG" changeset="10105192">
    <nd ref="984982622"/>
    <nd ref="1120044639"/>
    <nd ref="1120044634"/>
    <nd ref="1120044631"/>
    <nd ref="1120044633"/>
    <nd ref="1120044638"/>
    <nd ref="461008523"/>
    <nd ref="461008478"/>
    <nd ref="984982622"/>
    <tag k="building" v="retail"/>
    <tag k="building:levels" v="1"/>
    <tag k="shop" v="yes"/>
  </way>
  <way id="96716546" version="3" timestamp="2011-12-14T07:41:41Z" uid="143266" user="Sergey Astakhov" changeset="10113313">
    <nd ref="984982622"/>
    <nd ref="1120044639"/>
    <nd ref="1120044634"/>
    <nd ref="1120044631"/>
    <nd ref="1120044633"/>
    <nd ref="1120044638"/>
    <nd ref="461008523"/>
    <nd ref="461008478"/>
    <nd ref="984982622"/>
    <tag k="building" v="yes"/>
    <tag k="building:levels" v="1"/>
    <tag k="shop" v="yes"/>
  </way>
  <way id="96716546" version="4" timestamp="2012-03-27T08:14:37Z" uid="481934" user="iWowik" changeset="11113698">
    <nd ref="984982622"/>
    <nd ref="1120044639"/>
    <nd ref="1120044634"/>
    <nd ref="1120044631"/>
    <nd ref="1120044633"/>
    <nd ref="1120044638"/>
    <nd ref="461008523"/>
    <nd ref="461008478"/>
    <nd ref="984982622"/>
    <tag k="addr:city" v="Зеленоград"/>
    <tag k="addr:country" v="RU"/>
    <tag k="building" v="yes"/>
    <tag k="building:levels" v="1"/>
    <tag k="shop" v="yes"/>
  </way>
  <way id="96716546" version="5" timestamp="2012-03-27T11:55:54Z" uid="481934" user="iWowik" changeset="11115472">
    <nd ref="984982622"/>
    <nd ref="1120044639"/>
    <nd ref="1120044634"/>
    <nd ref="1120044631"/>
    <nd ref="1120044633"/>
    <nd ref="1120044638"/>
    <nd ref="461008523"/>
    <nd ref="461008478"/>
    <nd ref="984982622"/>
    <tag k="addr:city" v="Зеленоград"/>
    <tag k="addr:country" v="RU"/>
    <tag k="addr:region" v="Москва"/>
    <tag k="building" v="yes"/>
    <tag k="building:levels" v="1"/>
    <tag k="shop" v="yes"/>
  </way>
  <way id="96716547" version="1" timestamp="2011-01-25T16:50:56Z" uid="115477" user="wowik" changeset="7085363">
    <nd ref="461008523"/>
    <nd ref="1120044638"/>
    <nd ref="1120044633"/>
    <nd ref="1120044630"/>
    <nd ref="1120044637"/>
    <nd ref="1120044632"/>
    <nd ref="461009564"/>
    <nd ref="461009388"/>
    <nd ref="461008523"/>
    <tag k="building" v="yes"/>
    <tag k="building:levels" v="1"/>
    <tag k="shop" v="yes"/>
  </way>
  <way id="96716547" version="2" timestamp="2011-12-13T07:27:48Z" uid="126304" user="TarzanASG" changeset="10105192">
    <nd ref="461008523"/>
    <nd ref="1120044638"/>
    <nd ref="1120044633"/>
    <nd ref="1120044630"/>
    <nd ref="1120044637"/>
    <nd ref="1120044632"/>
    <nd ref="461009564"/>
    <nd ref="461009388"/>
    <nd ref="461008523"/>
    <tag k="building" v="retail"/>
    <tag k="building:levels" v="1"/>
    <tag k="shop" v="yes"/>
  </way>
  <way id="96716547" version="3" timestamp="2011-12-14T07:41:44Z" uid="143266" user="Sergey Astakhov" changeset="10113313">
    <nd ref="461008523"/>
    <nd ref="1120044638"/>
    <nd ref="1120044633"/>
    <nd ref="1120044630"/>
    <nd ref="1120044637"/>
    <nd ref="1120044632"/>
    <nd ref="461009564"/>
    <nd ref="461009388"/>
    <nd ref="461008523"/>
    <tag k="building" v="yes"/>
    <tag k="building:levels" v="1"/>
    <tag k="shop" v="yes"/>
  </way>
  <way id="96716547" version="4" timestamp="2012-03-27T08:14:35Z" uid="481934" user="iWowik" changeset="11113698">
    <nd ref="461008523"/>
    <nd ref="1120044638"/>
    <nd ref="1120044633"/>
    <nd ref="1120044630"/>
    <nd ref="1120044637"/>
    <nd ref="1120044632"/>
    <nd ref="461009564"/>
    <nd ref="461009388"/>
    <nd ref="461008523"/>
    <tag k="addr:city" v="Зеленоград"/>
    <tag k="addr:country" v="RU"/>
    <tag k="building" v="yes"/>
    <tag k="building:levels" v="1"/>
    <tag k="shop" v="yes"/>
  </way>
  <way id="96716547" version="5" timestamp="2012-03-27T11:55:42Z" uid="481934" user="iWowik" changeset="11115472">
    <nd ref="461008523"/>
    <nd ref="1120044638"/>
    <nd ref="1120044633"/>
    <nd ref="1120044630"/>
    <nd ref="1120044637"/>
    <nd ref="1120044632"/>
    <nd ref="461009564"/>
    <nd ref="461009388"/>
    <nd ref="461008523"/>
    <tag k="addr:city" v="Зеленоград"/>
    <tag k="addr:country" v="RU"/>
    <tag k="addr:region" v="Москва"/>
    <tag k="building" v="yes"/>
    <tag k="building:levels" v="1"/>
    <tag k="shop" v="yes"/>
  </way>
  <way id="96716548" version="1" timestamp="2011-01-25T16:50:57Z" uid="115477" user="wowik" changeset="7085363">
    <nd ref="461009645"/>
    <nd ref="1120044640"/>
    <nd ref="1120044635"/>
    <nd ref="1120044637"/>
    <nd ref="1120044632"/>
    <nd ref="461009564"/>
    <nd ref="984982626"/>
    <nd ref="461008563"/>
    <nd ref="461009645"/>
    <tag k="building" v="yes"/>
    <tag k="building:levels" v="1"/>
    <tag k="shop" v="yes"/>
  </way>
  <way id="96716548" version="2" timestamp="2011-12-13T07:27:48Z" uid="126304" user="TarzanASG" changeset="10105192">
    <nd ref="461009645"/>
    <nd ref="1120044640"/>
    <nd ref="1120044635"/>
    <nd ref="1120044637"/>
    <nd ref="1120044632"/>
    <nd ref="461009564"/>
    <nd ref="984982626"/>
    <nd ref="461008563"/>
    <nd ref="461009645"/>
    <tag k="building" v="retail"/>
    <tag k="building:levels" v="1"/>
    <tag k="shop" v="yes"/>
  </way>
  <way id="96716548" version="3" timestamp="2011-12-14T07:41:44Z" uid="143266" user="Sergey Astakhov" changeset="10113313">
    <nd ref="461009645"/>
    <nd ref="1120044640"/>
    <nd ref="1120044635"/>
    <nd ref="1120044637"/>
    <nd ref="1120044632"/>
    <nd ref="461009564"/>
    <nd ref="984982626"/>
    <nd ref="461008563"/>
    <nd ref="461009645"/>
    <tag k="building" v="yes"/>
    <tag k="building:levels" v="1"/>
    <tag k="shop" v="yes"/>
  </way>
  <way id="96716548" version="4" timestamp="2012-03-27T08:14:32Z" uid="481934" user="iWowik" changeset="11113698">
    <nd ref="461009645"/>
    <nd ref="1120044640"/>
    <nd ref="1120044635"/>
    <nd ref="1120044637"/>
    <nd ref="1120044632"/>
    <nd ref="461009564"/>
    <nd ref="984982626"/>
    <nd ref="461008563"/>
    <nd ref="461009645"/>
    <tag k="addr:city" v="Зеленоград"/>
    <tag k="addr:country" v="RU"/>
    <tag k="building" v="yes"/>
    <tag k="building:levels" v="1"/>
    <tag k="shop" v="yes"/>
  </way>
  <way id="96716548" version="5" timestamp="2012-03-27T11:55:37Z" uid="481934" user="iWowik" changeset="11115472">
    <nd ref="461009645"/>
    <nd ref="1120044640"/>
    <nd ref="1120044635"/>
    <nd ref="1120044637"/>
    <nd ref="1120044632"/>
    <nd ref="461009564"/>
    <nd ref="984982626"/>
    <nd ref="461008563"/>
    <nd ref="461009645"/>
    <tag k="addr:city" v="Зеленоград"/>
    <tag k="addr:country" v="RU"/>
    <tag k="addr:region" v="Москва"/>
    <tag k="building" v="yes"/>
    <tag k="building:levels" v="1"/>
    <tag k="shop" v="yes"/>
  </way>
  <way id="96716549" version="1" timestamp="2011-01-25T16:50:57Z" uid="115477" user="wowik" changeset="7085363">
    <nd ref="1103423088"/>
    <nd ref="1120044641"/>
    <nd ref="1120044636"/>
    <nd ref="1103423261"/>
    <nd ref="1103423088"/>
    <tag k="building" v="yes"/>
    <tag k="building:levels" v="1"/>
  </way>
  <way id="96716549" version="2" timestamp="2012-03-27T08:13:47Z" uid="481934" user="iWowik" changeset="11113698">
    <nd ref="1103423088"/>
    <nd ref="1120044641"/>
    <nd ref="1120044636"/>
    <nd ref="1103423261"/>
    <nd ref="1103423088"/>
    <tag k="addr:city" v="Зеленоград"/>
    <tag k="addr:country" v="RU"/>
    <tag k="building" v="yes"/>
    <tag k="building:levels" v="1"/>
  </way>
  <way id="96716549" version="3" timestamp="2012-03-27T11:52:15Z" uid="481934" user="iWowik" changeset="11115472">
    <nd ref="1103423088"/>
    <nd ref="1120044641"/>
    <nd ref="1120044636"/>
    <nd ref="1103423261"/>
    <nd ref="1103423088"/>
    <tag k="addr:city" v="Зеленоград"/>
    <tag k="addr:country" v="RU"/>
    <tag k="addr:region" v="Москва"/>
    <tag k="building" v="yes"/>
    <tag k="building:levels" v="1"/>
  </way>
</osm>
