<?xml version='1.0' encoding='UTF-8'?>
<osm version="0.6" generator="libosmium/2.20.0">
  <way id="96723173" version="1" timestamp="2011-01-25T18:03:27Z" uid="115477" user="wowik" changeset="7086022">
    <nd ref="1120099400"/>
    <nd ref="1120099383"/>
    <tag k="barrier" v="wall"/>
  </way>
  <way id="96723173" version="2" timestamp="2011-09-12T16:24:54Z" uid="518169" user="kosatov" changeset="9281584">
    <nd ref="1120099400"/>
    <nd ref="1431081226"/>
    <nd ref="1120099383"/>
    <tag k="barrier" v="wall"/>
  </way>
  <way id="96723175" version="1" timestamp="2011-01-25T18:03:27Z" uid="115477" user="wowik" changeset="7086022">
    <nd ref="1120099383"/>
    <nd ref="428146642"/>
    <nd ref="982632386"/>
    <nd ref="428146751"/>
    <nd ref="982632116"/>
    <nd ref="428146445"/>
    <nd ref="428146234"/>
    <nd ref="1120099382"/>
    <nd ref="1120099409"/>
    <nd ref="1120099370"/>
    <nd ref="1120099408"/>
    <nd ref="1120099386"/>
    <nd ref="1120099378"/>
    <nd ref="1120099379"/>
    <nd ref="1120099373"/>
    <nd ref="1120099391"/>
    <nd ref="1120099383"/>
    <tag k="addr:city" v="Зеленоград"/>
    <tag k="addr:housenumber" v="403Б"/>
    <tag k="addr:street" v="4-й Микрорайон"/>
    <tag k="building" v="yes"/>
    <tag k="building:levels" v="1"/>
    <tag k="is_in" v="Russia"/>
  </way>
  <way id="96723175" version="2" timestamp="2011-06-07T20:44:04Z" uid="133332" user="AMDmi3" changeset="8374030">
    <nd ref="1120099383"/>
    <nd ref="428146642"/>
    <nd ref="982632386"/>
    <nd ref="428146751"/>
    <nd ref="982632116"/>
    <nd ref="428146445"/>
    <nd ref="428146234"/>
    <nd ref="1120099382"/>
    <nd ref="1120099409"/>
    <nd ref="1120099370"/>
    <nd ref="1120099408"/>
    <nd ref="1120099386"/>
    <nd ref="1120099378"/>
    <nd ref="1120099379"/>
    <nd ref="1120099373"/>
    <nd ref="1120099391"/>
    <nd ref="1120099383"/>
    <tag k="addr:city" v="Зеленоград"/>
    <tag k="addr:housenumber" v="403Б"/>
    <tag k="addr:street" v="4-й микрорайон"/>
    <tag k="building" v="yes"/>
    <tag k="building:levels" v="1"/>
    <tag k="is_in" v="Russia"/>
  </way>
  <way id="96723175" version="3" timestamp="2011-09-13T10:26:41Z" uid="29320" user="Komяpa" changeset="9288237">
    <nd ref="1120099383"/>
    <nd ref="428146642"/>
    <nd ref="982632386"/>
    <nd ref="428146751"/>
    <nd ref="982632116"/>
    <nd ref="428146445"/>
    <nd ref="428146234"/>
    <nd ref="1120099382"/>
    <nd ref="1120099409"/>
    <nd ref="1120099370"/>
    <nd ref="1120099408"/>
    <nd ref="1120099386"/>
    <nd ref="1120099378"/>
    <nd ref="1120099379"/>
    <nd ref="1120099373"/>
    <nd ref="1120099391"/>
    <nd ref="1120099383"/>
    <tag k="addr:city" v="Зеленоград"/>
    <tag k="addr:country" v="RU"/>
    <tag k="addr:housenumber" v="403Б"/>
    <tag k="addr:street" v="4-й микрорайон"/>
    <tag k="building" v="yes"/>
    <tag k="building:levels" v="1"/>
  </way>
  <way id="96723175" version="4" timestamp="2011-10-28T10:31:50Z" uid="481934" user="iWowik" changeset="9675276">
    <nd ref="1120099383"/>
    <nd ref="428146642"/>
    <nd ref="982632386"/>
    <nd ref="428146751"/>
    <nd ref="982632116"/>
    <nd ref="428146445"/>
    <nd ref="428146234"/>
    <nd ref="1120099382"/>
    <nd ref="1120099409"/>
    <nd ref="1120099370"/>
    <nd ref="1120099408"/>
    <nd ref="1120099386"/>
    <nd ref="1120099378"/>
    <nd ref="1120099379"/>
    <nd ref="1120099373"/>
    <nd ref="1120099391"/>
    <nd ref="1120099383"/>
    <tag k="addr:city" v="Зеленоград"/>
    <tag k="addr:country" v="RU"/>
    <tag k="addr:housenumber" v="403Б"/>
    <tag k="addr:street" v="4-й Микрорайон"/>
    <tag k="building" v="yes"/>
    <tag k="building:levels" v="1"/>
  </way>
  <way id="96723175" version="5" timestamp="2011-11-14T20:33:05Z" uid="133332" user="AMDmi3" changeset="9828527">
    <nd ref="1120099383"/>
    <nd ref="428146642"/>
    <nd ref="982632386"/>
    <nd ref="428146751"/>
    <nd ref="982632116"/>
    <nd ref="428146445"/>
    <nd ref="428146234"/>
    <nd ref="1120099382"/>
    <nd ref="1120099409"/>
    <nd ref="1120099370"/>
    <nd ref="1120099408"/>
    <nd ref="1120099386"/>
    <nd ref="1120099378"/>
    <nd ref="1120099379"/>
    <nd ref="1120099373"/>
    <nd ref="1120099391"/>
    <nd ref="1120099383"/>
    <tag k="addr:city" v="Зеленоград"/>
    <tag k="addr:country" v="RU"/>
    <tag k="addr:housenumber" v="403Б"/>
    <tag k="addr:street" v="4-й микрорайон"/>
    <tag k="building" v="yes"/>
    <tag k="building:levels" v="1"/>
  </way>
  <way id="96723175" version="6" timestamp="2012-03-27T11:43:02Z" uid="481934" user="iWowik" changeset="11115472">
    <nd ref="1120099383"/>
    <nd ref="428146642"/>
    <nd ref="982632386"/>
    <nd ref="428146751"/>
    <nd ref="982632116"/>
    <nd ref="428146445"/>
    <nd ref="428146234"/>
    <nd ref="1120099382"/>
    <nd ref="1120099409"/>
    <nd ref="1120099370"/>
    <nd ref="1120099408"/>
    <nd ref="1120099386"/>
    <nd ref="1120099378"/>
    <nd ref="1120099379"/>
    <nd ref="1120099373"/>
    <nd ref="1120099391"/>
    <nd ref="1120099383"/>
    <tag k="addr:city" v="Зеленоград"/>
    <tag k="addr:country" v="RU"/>
    <tag k="addr:housenumber" v="403Б"/>
    <tag k="addr:region" v="Москва"/>
    <tag k="addr:street" v="4-й микрорайон"/>
    <tag k="building" v="yes"/>
    <tag k="building:levels" v="1"/>
  </way>
  <way id="96723176" version="1" timestamp="2011-01-25T18:03:27Z" uid="115477" user="wowik" changeset="7086022">
    <nd ref="1120099377"/>
    <nd ref="1120099384"/>
    <nd ref="1120099382"/>
    <tag k="barrier" v="wall"/>
  </way>
  <way id="96723177" version="1" timestamp="2011-01-25T18:03:27Z" uid="115477" user="wowik" changeset="7086022">
    <nd ref="1120099393"/>
    <nd ref="1120099384"/>
    <nd ref="451696205"/>
    <tag k="highway" v="service"/>
  </way>
  <way id="96723177" version="2" timestamp="2011-04-27T13:05:13Z" uid="241531" user="dik_man" changeset="7984926">
    <nd ref="1262080407"/>
    <nd ref="1262080467"/>
    <nd ref="1120099393"/>
    <nd ref="1120099384"/>
    <nd ref="451696205"/>
    <tag k="highway" v="service"/>
  </way>
  <way id="96723177" version="3" timestamp="2011-09-12T16:24:54Z" uid="518169" user="kosatov" changeset="9281584">
    <nd ref="1431081226"/>
    <nd ref="1431081227"/>
    <nd ref="1262080407"/>
    <nd ref="1262080467"/>
    <nd ref="1120099393"/>
    <nd ref="1120099384"/>
    <nd ref="451696205"/>
    <tag k="highway" v="service"/>
  </way>
  <way id="96723383" version="1" timestamp="2011-01-25T18:04:59Z" uid="115477" user="wowik" changeset="7086037">
    <nd ref="451850970"/>
    <nd ref="451695981"/>
    <tag k="bicycle" v="yes"/>
    <tag k="foot" v="yes"/>
    <tag k="highway" v="footway"/>
    <tag k="motorcar" v="no"/>
    <tag k="surface" v="paved"/>
  </way>
  <way id="96723383" version="2" timestamp="2011-09-11T19:18:26Z" uid="518169" user="kosatov" changeset="9274152">
    <nd ref="451850970"/>
    <nd ref="451695981"/>
    <tag k="foot" v="yes"/>
    <tag k="highway" v="footway"/>
    <tag k="motorcar" v="no"/>
    <tag k="surface" v="paved"/>
  </way>
</osm>
