<?xml version='1.0' encoding='UTF-8'?>
<osm version="0.6" generator="libosmium/2.20.0">
  <way id="96826424" version="2" timestamp="2011-02-22T15:05:17Z" uid="49111" user="Markus B" changeset="7364190">
    <nd ref="1121876260"/>
    <nd ref="1121876290"/>
    <tag k="highway" v="secondary"/>
    <tag k="source" v="Bing"/>
  </way>
  <way id="96826424" version="3" timestamp="2012-01-14T22:34:09Z" uid="585797" user="IECE" changeset="10393241">
    <nd ref="1121876260"/>
    <nd ref="1121876290"/>
    <tag k="highway" v="residential"/>
    <tag k="source" v="Bing"/>
  </way>
  <way id="96826424" version="4" timestamp="2012-01-14T22:36:53Z" uid="585797" user="IECE" changeset="10393241">
    <nd ref="1121876260"/>
    <nd ref="1590080670"/>
    <nd ref="1121876290"/>
    <tag k="highway" v="residential"/>
    <tag k="source" v="Bing"/>
  </way>
  <way id="96826424" version="5" timestamp="2012-01-15T13:14:41Z" uid="585797" user="IECE" changeset="10397710">
    <nd ref="1121876260"/>
    <nd ref="1590080670"/>
    <nd ref="1121876290"/>
    <tag k="highway" v="tertiary_link"/>
    <tag k="source" v="Bing"/>
  </way>
  <way id="96826438" version="2" timestamp="2011-02-22T15:05:21Z" uid="49111" user="Markus B" changeset="7364190">
    <nd ref="1121876259"/>
    <nd ref="301960863"/>
    <nd ref="1166505697"/>
    <nd ref="365837679"/>
    <nd ref="365837683"/>
    <nd ref="365837686"/>
    <tag k="highway" v="primary"/>
    <tag k="ref" v="N125"/>
  </way>
  <way id="96826438" version="3" timestamp="2012-01-14T15:47:04Z" uid="585797" user="IECE" changeset="10389021">
    <nd ref="1121876259"/>
    <nd ref="301960863"/>
    <nd ref="1166505697"/>
    <nd ref="1589680252"/>
    <nd ref="365837679"/>
    <nd ref="1589680220"/>
    <nd ref="365837683"/>
    <nd ref="365837686"/>
    <tag k="highway" v="primary"/>
    <tag k="ref" v="N125"/>
  </way>
  <way id="96826438" version="4" timestamp="2012-01-14T22:30:36Z" uid="585797" user="IECE" changeset="10393241">
    <nd ref="1121876259"/>
    <nd ref="301960863"/>
    <nd ref="1166505697"/>
    <nd ref="1589680252"/>
    <nd ref="365837679"/>
    <nd ref="1589680220"/>
    <nd ref="365837683"/>
    <tag k="highway" v="primary"/>
    <tag k="ref" v="N125"/>
  </way>
  <way id="96826438" version="5" timestamp="2012-01-14T22:54:07Z" uid="585797" user="IECE" changeset="10393241">
    <nd ref="1121876259"/>
    <nd ref="301960863"/>
    <nd ref="1166505697"/>
    <nd ref="1589680252"/>
    <nd ref="365837679"/>
    <nd ref="1589680220"/>
    <nd ref="365837683"/>
    <tag k="designation" v="EN125"/>
    <tag k="highway" v="primary"/>
    <tag k="lanes" v="2"/>
    <tag k="name" v="EN125"/>
    <tag k="oneway" v="no"/>
    <tag k="ref" v="EN125"/>
  </way>
  <way id="96826438" version="6" timestamp="2012-01-15T14:32:07Z" uid="585797" user="IECE" changeset="10397710">
    <nd ref="1121876259"/>
    <nd ref="301960863"/>
    <nd ref="1166505697"/>
    <nd ref="1589680252"/>
    <nd ref="365837679"/>
    <nd ref="1589680220"/>
    <nd ref="365837683"/>
    <tag k="designation" v="EN 125"/>
    <tag k="highway" v="primary"/>
    <tag k="lanes" v="2"/>
    <tag k="name" v="EN 125"/>
    <tag k="oneway" v="no"/>
    <tag k="ref" v="EN 125"/>
  </way>
  <way id="96826438" version="7" timestamp="2012-01-16T19:09:32Z" uid="585797" user="IECE" changeset="10411068">
    <nd ref="1121876259"/>
    <nd ref="301960863"/>
    <nd ref="1166505697"/>
    <nd ref="1589680252"/>
    <nd ref="365837679"/>
    <nd ref="1589680220"/>
    <nd ref="365837683"/>
    <tag k="designation" v="EN 125"/>
    <tag k="highway" v="primary"/>
    <tag k="lanes" v="2"/>
    <tag k="name" v="Av. D. João VI"/>
    <tag k="oneway" v="no"/>
    <tag k="ref" v="EN 125"/>
  </way>
  <way id="96826438" version="8" timestamp="2012-01-16T20:05:49Z" uid="585797" user="IECE" changeset="10411068">
    <nd ref="1121876259"/>
    <nd ref="301960863"/>
    <nd ref="1166505697"/>
    <nd ref="1589680252"/>
    <nd ref="365837679"/>
    <tag k="designation" v="EN 125"/>
    <tag k="highway" v="primary"/>
    <tag k="lanes" v="2"/>
    <tag k="name" v="Av. D. João VI"/>
    <tag k="oneway" v="no"/>
    <tag k="ref" v="EN 125"/>
  </way>
  <way id="96826438" version="9" timestamp="2012-01-16T22:06:35Z" uid="585797" user="IECE" changeset="10412596">
    <nd ref="1121876259"/>
    <nd ref="1593837020"/>
    <tag k="designation" v="EN 125"/>
    <tag k="highway" v="primary"/>
    <tag k="lanes" v="2"/>
    <tag k="maxspeed" v="50"/>
    <tag k="name" v="Av. D. João VI"/>
    <tag k="oneway" v="yes"/>
    <tag k="ref" v="EN 125"/>
  </way>
  <way id="96826442" version="2" timestamp="2011-02-22T15:05:18Z" uid="49111" user="Markus B" changeset="7364190">
    <nd ref="1121876371"/>
    <nd ref="1121876285"/>
    <nd ref="1121876290"/>
    <tag k="highway" v="secondary"/>
    <tag k="source" v="Bing"/>
  </way>
  <way id="96826442" version="3" timestamp="2012-01-14T22:30:37Z" uid="585797" user="IECE" changeset="10393241"/>
</osm>
