<?xml version='1.0' encoding='UTF-8'?>
<osm version="0.6" generator="libosmium/2.20.0">
  <way id="96845002" version="1" timestamp="2011-01-26T18:24:13Z" uid="115477" user="wowik" changeset="7096167">
    <nd ref="1122178378"/>
    <nd ref="1122177337"/>
    <nd ref="1122177704"/>
    <nd ref="1122177548"/>
    <nd ref="1122178378"/>
    <tag k="leisure" v="pitch"/>
  </way>
  <way id="96845004" version="1" timestamp="2011-01-26T18:24:13Z" uid="115477" user="wowik" changeset="7096167">
    <nd ref="1122178187"/>
    <nd ref="1122177835"/>
    <nd ref="1122178213"/>
    <nd ref="1122178445"/>
    <nd ref="1122178187"/>
    <tag k="building" v="yes"/>
    <tag k="building:levels" v="1"/>
    <tag k="shop" v="yes"/>
  </way>
  <way id="96845004" version="2" timestamp="2011-12-13T07:27:52Z" uid="126304" user="TarzanASG" changeset="10105192">
    <nd ref="1122178187"/>
    <nd ref="1122177835"/>
    <nd ref="1122178213"/>
    <nd ref="1122178445"/>
    <nd ref="1122178187"/>
    <tag k="building" v="retail"/>
    <tag k="building:levels" v="1"/>
    <tag k="shop" v="yes"/>
  </way>
  <way id="96845004" version="3" timestamp="2011-12-14T07:41:58Z" uid="143266" user="Sergey Astakhov" changeset="10113313">
    <nd ref="1122178187"/>
    <nd ref="1122177835"/>
    <nd ref="1122178213"/>
    <nd ref="1122178445"/>
    <nd ref="1122178187"/>
    <tag k="building" v="yes"/>
    <tag k="building:levels" v="1"/>
    <tag k="shop" v="yes"/>
  </way>
  <way id="96845004" version="4" timestamp="2012-03-27T11:54:19Z" uid="481934" user="iWowik" changeset="11115472">
    <nd ref="1122178187"/>
    <nd ref="1122177835"/>
    <nd ref="1122178213"/>
    <nd ref="1122178445"/>
    <nd ref="1122178187"/>
    <tag k="addr:city" v="Зеленоград"/>
    <tag k="addr:country" v="RU"/>
    <tag k="addr:region" v="Москва"/>
    <tag k="building" v="yes"/>
    <tag k="building:levels" v="1"/>
    <tag k="shop" v="yes"/>
  </way>
  <way id="96845010" version="1" timestamp="2011-01-26T18:24:13Z" uid="115477" user="wowik" changeset="7096167">
    <nd ref="1122178302"/>
    <nd ref="1122177230"/>
    <nd ref="1122177636"/>
    <nd ref="1122178042"/>
    <nd ref="1122178302"/>
    <tag k="addr:city" v="Зеленоград"/>
    <tag k="addr:housenumber" v="35"/>
    <tag k="addr:street" v="улица Щербакова"/>
    <tag k="building" v="yes"/>
    <tag k="building:levels" v="1"/>
    <tag k="building:use" v="residential"/>
    <tag k="is_in" v="Russia"/>
  </way>
  <way id="96845010" version="2" timestamp="2011-09-13T10:26:07Z" uid="29320" user="Komяpa" changeset="9288237">
    <nd ref="1122178302"/>
    <nd ref="1122177230"/>
    <nd ref="1122177636"/>
    <nd ref="1122178042"/>
    <nd ref="1122178302"/>
    <tag k="addr:city" v="Зеленоград"/>
    <tag k="addr:country" v="RU"/>
    <tag k="addr:housenumber" v="35"/>
    <tag k="addr:street" v="улица Щербакова"/>
    <tag k="building" v="yes"/>
    <tag k="building:levels" v="1"/>
    <tag k="building:use" v="residential"/>
  </way>
  <way id="96845010" version="3" timestamp="2012-03-27T11:42:10Z" uid="481934" user="iWowik" changeset="11115472">
    <nd ref="1122178302"/>
    <nd ref="1122177230"/>
    <nd ref="1122177636"/>
    <nd ref="1122178042"/>
    <nd ref="1122178302"/>
    <tag k="addr:city" v="Зеленоград"/>
    <tag k="addr:country" v="RU"/>
    <tag k="addr:housenumber" v="35"/>
    <tag k="addr:region" v="Москва"/>
    <tag k="addr:street" v="улица Щербакова"/>
    <tag k="building" v="yes"/>
    <tag k="building:levels" v="1"/>
    <tag k="building:use" v="residential"/>
  </way>
  <way id="96845013" version="1" timestamp="2011-01-26T18:24:13Z" uid="115477" user="wowik" changeset="7096167">
    <nd ref="1122177214"/>
    <nd ref="1122177458"/>
    <nd ref="1122177592"/>
    <nd ref="1122177522"/>
    <nd ref="1122178746"/>
    <nd ref="1122179111"/>
    <nd ref="1122177214"/>
    <tag k="addr:city" v="Зеленоград"/>
    <tag k="addr:street" v="улица Щербакова"/>
    <tag k="building" v="yes"/>
    <tag k="building:levels" v="1"/>
    <tag k="is_in" v="Russia"/>
  </way>
  <way id="96845013" version="2" timestamp="2011-02-08T09:25:46Z" uid="115477" user="wowik" changeset="7224641">
    <nd ref="1122177214"/>
    <nd ref="1122177458"/>
    <nd ref="1122177592"/>
    <nd ref="1122177522"/>
    <nd ref="1122178746"/>
    <nd ref="1122179111"/>
    <nd ref="1122177214"/>
    <tag k="addr:city" v="Зеленоград"/>
    <tag k="building" v="yes"/>
    <tag k="building:levels" v="1"/>
    <tag k="is_in" v="Russia"/>
  </way>
  <way id="96845013" version="3" timestamp="2011-09-13T10:38:41Z" uid="29320" user="Komяpa" changeset="9288237">
    <nd ref="1122177214"/>
    <nd ref="1122177458"/>
    <nd ref="1122177592"/>
    <nd ref="1122177522"/>
    <nd ref="1122178746"/>
    <nd ref="1122179111"/>
    <nd ref="1122177214"/>
    <tag k="addr:city" v="Зеленоград"/>
    <tag k="addr:country" v="RU"/>
    <tag k="building" v="yes"/>
    <tag k="building:levels" v="1"/>
  </way>
  <way id="96845013" version="4" timestamp="2012-03-27T11:55:22Z" uid="481934" user="iWowik" changeset="11115472">
    <nd ref="1122177214"/>
    <nd ref="1122177458"/>
    <nd ref="1122177592"/>
    <nd ref="1122177522"/>
    <nd ref="1122178746"/>
    <nd ref="1122179111"/>
    <nd ref="1122177214"/>
    <tag k="addr:city" v="Зеленоград"/>
    <tag k="addr:country" v="RU"/>
    <tag k="addr:region" v="Москва"/>
    <tag k="building" v="yes"/>
    <tag k="building:levels" v="1"/>
  </way>
  <way id="96845021" version="1" timestamp="2011-01-26T18:24:14Z" uid="115477" user="wowik" changeset="7096167">
    <nd ref="1122178991"/>
    <nd ref="1122178157"/>
    <nd ref="1122178412"/>
    <nd ref="1122178327"/>
    <nd ref="1122178991"/>
    <tag k="addr:city" v="Зеленоград"/>
    <tag k="addr:street" v="улица Щербакова"/>
    <tag k="building" v="yes"/>
    <tag k="building:levels" v="1"/>
    <tag k="is_in" v="Russia"/>
  </way>
  <way id="96845021" version="2" timestamp="2011-02-09T14:25:45Z" uid="115477" user="wowik" changeset="7236536">
    <nd ref="1122178991"/>
    <nd ref="1122178157"/>
    <nd ref="1122178412"/>
    <nd ref="1122178327"/>
    <nd ref="1122178991"/>
    <tag k="addr:city" v="Зеленоград"/>
    <tag k="building" v="yes"/>
    <tag k="building:levels" v="1"/>
    <tag k="is_in" v="Russia"/>
  </way>
  <way id="96845021" version="3" timestamp="2011-09-13T10:38:41Z" uid="29320" user="Komяpa" changeset="9288237">
    <nd ref="1122178991"/>
    <nd ref="1122178157"/>
    <nd ref="1122178412"/>
    <nd ref="1122178327"/>
    <nd ref="1122178991"/>
    <tag k="addr:city" v="Зеленоград"/>
    <tag k="addr:country" v="RU"/>
    <tag k="building" v="yes"/>
    <tag k="building:levels" v="1"/>
  </way>
  <way id="96845021" version="4" timestamp="2012-03-27T11:52:58Z" uid="481934" user="iWowik" changeset="11115472">
    <nd ref="1122178991"/>
    <nd ref="1122178157"/>
    <nd ref="1122178412"/>
    <nd ref="1122178327"/>
    <nd ref="1122178991"/>
    <tag k="addr:city" v="Зеленоград"/>
    <tag k="addr:country" v="RU"/>
    <tag k="addr:region" v="Москва"/>
    <tag k="building" v="yes"/>
    <tag k="building:levels" v="1"/>
  </way>
  <way id="96845027" version="1" timestamp="2011-01-26T18:24:14Z" uid="115477" user="wowik" changeset="7096167">
    <nd ref="1122178829"/>
    <nd ref="1122177996"/>
    <nd ref="1122177795"/>
    <nd ref="1122178188"/>
    <nd ref="1122178829"/>
    <tag k="addr:city" v="Зеленоград"/>
    <tag k="addr:housenumber" v="27 с1А"/>
    <tag k="addr:street" v="улица Щербакова"/>
    <tag k="building" v="yes"/>
    <tag k="building:levels" v="1"/>
    <tag k="is_in" v="Russia"/>
  </way>
  <way id="96845027" version="2" timestamp="2011-02-08T09:25:43Z" uid="115477" user="wowik" changeset="7224641">
    <nd ref="1122178829"/>
    <nd ref="1122177996"/>
    <nd ref="1122177795"/>
    <nd ref="1122178188"/>
    <nd ref="1122178829"/>
    <tag k="addr:city" v="Зеленоград"/>
    <tag k="addr:housenumber" v="27 с1А"/>
    <tag k="building" v="yes"/>
    <tag k="building:levels" v="1"/>
    <tag k="is_in" v="Russia"/>
  </way>
  <way id="96845027" version="3" timestamp="2011-02-10T12:52:52Z" uid="115477" user="wowik" changeset="7245098">
    <nd ref="1122178829"/>
    <nd ref="1122177996"/>
    <nd ref="1122177795"/>
    <nd ref="1122178188"/>
    <nd ref="1122178829"/>
    <tag k="addr:city" v="Зеленоград"/>
    <tag k="addr:housenumber" v="27 с1А"/>
    <tag k="addr:street" v="улица Щербакова"/>
    <tag k="building" v="yes"/>
    <tag k="building:levels" v="1"/>
    <tag k="is_in" v="Russia"/>
  </way>
  <way id="96845027" version="4" timestamp="2011-09-13T10:25:08Z" uid="29320" user="Komяpa" changeset="9288237">
    <nd ref="1122178829"/>
    <nd ref="1122177996"/>
    <nd ref="1122177795"/>
    <nd ref="1122178188"/>
    <nd ref="1122178829"/>
    <tag k="addr:city" v="Зеленоград"/>
    <tag k="addr:country" v="RU"/>
    <tag k="addr:housenumber" v="27 с1А"/>
    <tag k="addr:street" v="улица Щербакова"/>
    <tag k="building" v="yes"/>
    <tag k="building:levels" v="1"/>
  </way>
  <way id="96845027" version="5" timestamp="2012-03-27T11:40:24Z" uid="481934" user="iWowik" changeset="11115472">
    <nd ref="1122178829"/>
    <nd ref="1122177996"/>
    <nd ref="1122177795"/>
    <nd ref="1122178188"/>
    <nd ref="1122178829"/>
    <tag k="addr:city" v="Зеленоград"/>
    <tag k="addr:country" v="RU"/>
    <tag k="addr:housenumber" v="27 с1А"/>
    <tag k="addr:region" v="Москва"/>
    <tag k="addr:street" v="улица Щербакова"/>
    <tag k="building" v="yes"/>
    <tag k="building:levels" v="1"/>
  </way>
  <way id="96845030" version="1" timestamp="2011-01-26T18:24:14Z" uid="115477" user="wowik" changeset="7096167">
    <nd ref="1122178243"/>
    <nd ref="1122177109"/>
    <nd ref="1122177539"/>
    <nd ref="1122178383"/>
    <nd ref="1122178243"/>
    <tag k="addr:city" v="Зеленоград"/>
    <tag k="addr:street" v="улица Щербакова"/>
    <tag k="building" v="yes"/>
    <tag k="building:levels" v="1"/>
    <tag k="is_in" v="Russia"/>
  </way>
  <way id="96845030" version="2" timestamp="2011-02-08T09:25:44Z" uid="115477" user="wowik" changeset="7224641">
    <nd ref="1122178243"/>
    <nd ref="1122177109"/>
    <nd ref="1122177539"/>
    <nd ref="1122178383"/>
    <nd ref="1122178243"/>
    <tag k="addr:city" v="Зеленоград"/>
    <tag k="building" v="yes"/>
    <tag k="building:levels" v="1"/>
    <tag k="is_in" v="Russia"/>
  </way>
  <way id="96845030" version="3" timestamp="2011-09-13T10:38:42Z" uid="29320" user="Komяpa" changeset="9288237">
    <nd ref="1122178243"/>
    <nd ref="1122177109"/>
    <nd ref="1122177539"/>
    <nd ref="1122178383"/>
    <nd ref="1122178243"/>
    <tag k="addr:city" v="Зеленоград"/>
    <tag k="addr:country" v="RU"/>
    <tag k="building" v="yes"/>
    <tag k="building:levels" v="1"/>
  </way>
  <way id="96845030" version="4" timestamp="2012-03-27T11:53:10Z" uid="481934" user="iWowik" changeset="11115472">
    <nd ref="1122178243"/>
    <nd ref="1122177109"/>
    <nd ref="1122177539"/>
    <nd ref="1122178383"/>
    <nd ref="1122178243"/>
    <tag k="addr:city" v="Зеленоград"/>
    <tag k="addr:country" v="RU"/>
    <tag k="addr:region" v="Москва"/>
    <tag k="building" v="yes"/>
    <tag k="building:levels" v="1"/>
  </way>
  <way id="96845035" version="1" timestamp="2011-01-26T18:24:15Z" uid="115477" user="wowik" changeset="7096167">
    <nd ref="1122178899"/>
    <nd ref="1122178063"/>
    <nd ref="1122177858"/>
    <nd ref="1122178262"/>
    <nd ref="1122178899"/>
    <tag k="addr:city" v="Зеленоград"/>
    <tag k="addr:street" v="улица Щербакова"/>
    <tag k="building" v="yes"/>
    <tag k="building:levels" v="1"/>
    <tag k="is_in" v="Russia"/>
  </way>
  <way id="96845035" version="2" timestamp="2011-02-08T09:25:44Z" uid="115477" user="wowik" changeset="7224641">
    <nd ref="1122178899"/>
    <nd ref="1122178063"/>
    <nd ref="1122177858"/>
    <nd ref="1122178262"/>
    <nd ref="1122178899"/>
    <tag k="addr:city" v="Зеленоград"/>
    <tag k="building" v="yes"/>
    <tag k="building:levels" v="1"/>
    <tag k="is_in" v="Russia"/>
  </way>
  <way id="96845035" version="3" timestamp="2011-09-13T10:38:42Z" uid="29320" user="Komяpa" changeset="9288237">
    <nd ref="1122178899"/>
    <nd ref="1122178063"/>
    <nd ref="1122177858"/>
    <nd ref="1122178262"/>
    <nd ref="1122178899"/>
    <tag k="addr:city" v="Зеленоград"/>
    <tag k="addr:country" v="RU"/>
    <tag k="building" v="yes"/>
    <tag k="building:levels" v="1"/>
  </way>
  <way id="96845035" version="4" timestamp="2012-03-27T11:52:26Z" uid="481934" user="iWowik" changeset="11115472">
    <nd ref="1122178899"/>
    <nd ref="1122178063"/>
    <nd ref="1122177858"/>
    <nd ref="1122178262"/>
    <nd ref="1122178899"/>
    <tag k="addr:city" v="Зеленоград"/>
    <tag k="addr:country" v="RU"/>
    <tag k="addr:region" v="Москва"/>
    <tag k="building" v="yes"/>
    <tag k="building:levels" v="1"/>
  </way>
  <way id="96845039" version="1" timestamp="2011-01-26T18:24:15Z" uid="115477" user="wowik" changeset="7096167">
    <nd ref="1122179103"/>
    <nd ref="1122178286"/>
    <nd ref="1122178487"/>
    <nd ref="1122178833"/>
    <nd ref="1122176809"/>
    <nd ref="1122179020"/>
    <nd ref="1122177082"/>
    <nd ref="1122177512"/>
    <nd ref="1122179103"/>
    <tag k="addr:city" v="Зеленоград"/>
    <tag k="addr:housenumber" v="31"/>
    <tag k="addr:street" v="улица Щербакова"/>
    <tag k="building" v="yes"/>
    <tag k="building:levels" v="1"/>
    <tag k="building:use" v="residential"/>
    <tag k="is_in" v="Russia"/>
  </way>
  <way id="96845039" version="2" timestamp="2011-09-13T10:25:45Z" uid="29320" user="Komяpa" changeset="9288237">
    <nd ref="1122179103"/>
    <nd ref="1122178286"/>
    <nd ref="1122178487"/>
    <nd ref="1122178833"/>
    <nd ref="1122176809"/>
    <nd ref="1122179020"/>
    <nd ref="1122177082"/>
    <nd ref="1122177512"/>
    <nd ref="1122179103"/>
    <tag k="addr:city" v="Зеленоград"/>
    <tag k="addr:country" v="RU"/>
    <tag k="addr:housenumber" v="31"/>
    <tag k="addr:street" v="улица Щербакова"/>
    <tag k="building" v="yes"/>
    <tag k="building:levels" v="1"/>
    <tag k="building:use" v="residential"/>
  </way>
  <way id="96845039" version="3" timestamp="2012-03-27T11:41:32Z" uid="481934" user="iWowik" changeset="11115472">
    <nd ref="1122179103"/>
    <nd ref="1122178286"/>
    <nd ref="1122178487"/>
    <nd ref="1122178833"/>
    <nd ref="1122176809"/>
    <nd ref="1122179020"/>
    <nd ref="1122177082"/>
    <nd ref="1122177512"/>
    <nd ref="1122179103"/>
    <tag k="addr:city" v="Зеленоград"/>
    <tag k="addr:country" v="RU"/>
    <tag k="addr:housenumber" v="31"/>
    <tag k="addr:region" v="Москва"/>
    <tag k="addr:street" v="улица Щербакова"/>
    <tag k="building" v="yes"/>
    <tag k="building:levels" v="1"/>
    <tag k="building:use" v="residential"/>
  </way>
  <way id="96845044" version="1" timestamp="2011-01-26T18:24:15Z" uid="115477" user="wowik" changeset="7096167">
    <nd ref="1122177531"/>
    <nd ref="1122178774"/>
    <nd ref="1122179137"/>
    <nd ref="1122178981"/>
    <nd ref="1122177531"/>
    <tag k="addr:city" v="Зеленоград"/>
    <tag k="addr:housenumber" v="24 сА1"/>
    <tag k="addr:street" v="улица Калинина"/>
    <tag k="building" v="yes"/>
    <tag k="building:levels" v="1"/>
    <tag k="building:use" v="residential"/>
    <tag k="is_in" v="Russia"/>
  </way>
  <way id="96845044" version="2" timestamp="2011-02-11T09:51:10Z" uid="115477" user="wowik" changeset="7253448">
    <nd ref="1122177531"/>
    <nd ref="1122178774"/>
    <nd ref="1122179137"/>
    <nd ref="1122178981"/>
    <nd ref="1122177531"/>
    <tag k="addr:city" v="Зеленоград"/>
    <tag k="addr:housenumber" v="24 сА"/>
    <tag k="addr:street" v="улица Калинина"/>
    <tag k="building" v="yes"/>
    <tag k="building:levels" v="1"/>
    <tag k="building:use" v="residential"/>
    <tag k="is_in" v="Russia"/>
  </way>
  <way id="96845044" version="3" timestamp="2011-09-13T10:24:59Z" uid="29320" user="Komяpa" changeset="9288237">
    <nd ref="1122177531"/>
    <nd ref="1122178774"/>
    <nd ref="1122179137"/>
    <nd ref="1122178981"/>
    <nd ref="1122177531"/>
    <tag k="addr:city" v="Зеленоград"/>
    <tag k="addr:country" v="RU"/>
    <tag k="addr:housenumber" v="24 сА"/>
    <tag k="addr:street" v="улица Калинина"/>
    <tag k="building" v="yes"/>
    <tag k="building:levels" v="1"/>
    <tag k="building:use" v="residential"/>
  </way>
  <way id="96845044" version="4" timestamp="2012-03-27T11:40:05Z" uid="481934" user="iWowik" changeset="11115472">
    <nd ref="1122177531"/>
    <nd ref="1122178774"/>
    <nd ref="1122179137"/>
    <nd ref="1122178981"/>
    <nd ref="1122177531"/>
    <tag k="addr:city" v="Зеленоград"/>
    <tag k="addr:country" v="RU"/>
    <tag k="addr:housenumber" v="24 сА"/>
    <tag k="addr:region" v="Москва"/>
    <tag k="addr:street" v="улица Калинина"/>
    <tag k="building" v="yes"/>
    <tag k="building:levels" v="1"/>
    <tag k="building:use" v="residential"/>
  </way>
  <way id="96845050" version="1" timestamp="2011-01-26T18:24:15Z" uid="115477" user="wowik" changeset="7096167">
    <nd ref="1122177826"/>
    <nd ref="1122179019"/>
    <nd ref="1122177071"/>
    <nd ref="1122176829"/>
    <nd ref="1122177826"/>
    <tag k="addr:city" v="Зеленоград"/>
    <tag k="addr:housenumber" v="35 с2А"/>
    <tag k="addr:street" v="улица Калинина"/>
    <tag k="building" v="yes"/>
    <tag k="building:levels" v="1"/>
    <tag k="is_in" v="Russia"/>
  </way>
  <way id="96845050" version="2" timestamp="2011-09-13T10:26:08Z" uid="29320" user="Komяpa" changeset="9288237">
    <nd ref="1122177826"/>
    <nd ref="1122179019"/>
    <nd ref="1122177071"/>
    <nd ref="1122176829"/>
    <nd ref="1122177826"/>
    <tag k="addr:city" v="Зеленоград"/>
    <tag k="addr:country" v="RU"/>
    <tag k="addr:housenumber" v="35 с2А"/>
    <tag k="addr:street" v="улица Калинина"/>
    <tag k="building" v="yes"/>
    <tag k="building:levels" v="1"/>
  </way>
  <way id="96845050" version="3" timestamp="2012-03-27T11:42:11Z" uid="481934" user="iWowik" changeset="11115472">
    <nd ref="1122177826"/>
    <nd ref="1122179019"/>
    <nd ref="1122177071"/>
    <nd ref="1122176829"/>
    <nd ref="1122177826"/>
    <tag k="addr:city" v="Зеленоград"/>
    <tag k="addr:country" v="RU"/>
    <tag k="addr:housenumber" v="35 с2А"/>
    <tag k="addr:region" v="Москва"/>
    <tag k="addr:street" v="улица Калинина"/>
    <tag k="building" v="yes"/>
    <tag k="building:levels" v="1"/>
  </way>
  <way id="96845054" version="1" timestamp="2011-01-26T18:24:16Z" uid="115477" user="wowik" changeset="7096167">
    <nd ref="1122177095"/>
    <nd ref="1122177342"/>
    <nd ref="1122177719"/>
    <nd ref="1122178128"/>
    <nd ref="1122179028"/>
    <nd ref="1122177948"/>
    <nd ref="1122178507"/>
    <nd ref="1122178870"/>
    <nd ref="1122178312"/>
    <nd ref="476391373"/>
    <nd ref="1122178603"/>
    <nd ref="1122179000"/>
    <nd ref="1122177031"/>
    <nd ref="1122179167"/>
    <nd ref="1122177277"/>
    <nd ref="1122177645"/>
    <nd ref="1122178066"/>
    <nd ref="1122177863"/>
    <nd ref="1122178269"/>
    <nd ref="1122178475"/>
    <nd ref="1122177095"/>
    <tag k="addr:city" v="Зеленоград"/>
    <tag k="addr:housenumber" v="1130"/>
    <tag k="addr:street" v="11-й Микрорайон"/>
    <tag k="building" v="yes"/>
    <tag k="is_in" v="Russia"/>
  </way>
  <way id="96845054" version="2" timestamp="2011-04-01T17:48:06Z" uid="115477" user="wowik" changeset="7737524">
    <nd ref="1122177095"/>
    <nd ref="1122177342"/>
    <nd ref="1122177719"/>
    <nd ref="1122178128"/>
    <nd ref="1122179028"/>
    <nd ref="1122177948"/>
    <nd ref="1122178507"/>
    <nd ref="1122178870"/>
    <nd ref="1122178312"/>
    <nd ref="476391373"/>
    <nd ref="1122178603"/>
    <nd ref="1122179000"/>
    <nd ref="1122177031"/>
    <nd ref="1122179167"/>
    <nd ref="1122177277"/>
    <nd ref="1122177645"/>
    <nd ref="1122178066"/>
    <nd ref="1122177863"/>
    <nd ref="1122178269"/>
    <nd ref="1122178475"/>
    <nd ref="1122177095"/>
    <tag k="addr:city" v="Зеленоград"/>
    <tag k="addr:housenumber" v="1130"/>
    <tag k="addr:street" v="11-й Микрорайон"/>
    <tag k="building" v="yes"/>
    <tag k="building:use" v="residential"/>
    <tag k="is_in" v="Russia"/>
  </way>
  <way id="96845054" version="3" timestamp="2011-06-07T20:48:34Z" uid="133332" user="AMDmi3" changeset="8374030">
    <nd ref="1122177095"/>
    <nd ref="1122177342"/>
    <nd ref="1122177719"/>
    <nd ref="1122178128"/>
    <nd ref="1122179028"/>
    <nd ref="1122177948"/>
    <nd ref="1122178507"/>
    <nd ref="1122178870"/>
    <nd ref="1122178312"/>
    <nd ref="476391373"/>
    <nd ref="1122178603"/>
    <nd ref="1122179000"/>
    <nd ref="1122177031"/>
    <nd ref="1122179167"/>
    <nd ref="1122177277"/>
    <nd ref="1122177645"/>
    <nd ref="1122178066"/>
    <nd ref="1122177863"/>
    <nd ref="1122178269"/>
    <nd ref="1122178475"/>
    <nd ref="1122177095"/>
    <tag k="addr:city" v="Зеленоград"/>
    <tag k="addr:housenumber" v="1130"/>
    <tag k="addr:street" v="11-й микрорайон"/>
    <tag k="building" v="yes"/>
    <tag k="building:use" v="residential"/>
    <tag k="is_in" v="Russia"/>
  </way>
  <way id="96845054" version="4" timestamp="2011-09-13T10:21:39Z" uid="29320" user="Komяpa" changeset="9288237">
    <nd ref="1122177095"/>
    <nd ref="1122177342"/>
    <nd ref="1122177719"/>
    <nd ref="1122178128"/>
    <nd ref="1122179028"/>
    <nd ref="1122177948"/>
    <nd ref="1122178507"/>
    <nd ref="1122178870"/>
    <nd ref="1122178312"/>
    <nd ref="476391373"/>
    <nd ref="1122178603"/>
    <nd ref="1122179000"/>
    <nd ref="1122177031"/>
    <nd ref="1122179167"/>
    <nd ref="1122177277"/>
    <nd ref="1122177645"/>
    <nd ref="1122178066"/>
    <nd ref="1122177863"/>
    <nd ref="1122178269"/>
    <nd ref="1122178475"/>
    <nd ref="1122177095"/>
    <tag k="addr:city" v="Зеленоград"/>
    <tag k="addr:country" v="RU"/>
    <tag k="addr:housenumber" v="1130"/>
    <tag k="addr:street" v="11-й микрорайон"/>
    <tag k="building" v="yes"/>
    <tag k="building:use" v="residential"/>
  </way>
  <way id="96845054" version="5" timestamp="2011-10-28T10:36:35Z" uid="481934" user="iWowik" changeset="9675303">
    <nd ref="1122177095"/>
    <nd ref="1122177342"/>
    <nd ref="1122177719"/>
    <nd ref="1122178128"/>
    <nd ref="1122179028"/>
    <nd ref="1122177948"/>
    <nd ref="1122178507"/>
    <nd ref="1122178870"/>
    <nd ref="1122178312"/>
    <nd ref="476391373"/>
    <nd ref="1122178603"/>
    <nd ref="1122179000"/>
    <nd ref="1122177031"/>
    <nd ref="1122179167"/>
    <nd ref="1122177277"/>
    <nd ref="1122177645"/>
    <nd ref="1122178066"/>
    <nd ref="1122177863"/>
    <nd ref="1122178269"/>
    <nd ref="1122178475"/>
    <nd ref="1122177095"/>
    <tag k="addr:city" v="Зеленоград"/>
    <tag k="addr:country" v="RU"/>
    <tag k="addr:housenumber" v="1130"/>
    <tag k="addr:street" v="11-й Микрорайон"/>
    <tag k="building" v="yes"/>
    <tag k="building:use" v="residential"/>
  </way>
  <way id="96845054" version="6" timestamp="2011-11-14T20:31:19Z" uid="133332" user="AMDmi3" changeset="9828527">
    <nd ref="1122177095"/>
    <nd ref="1122177342"/>
    <nd ref="1122177719"/>
    <nd ref="1122178128"/>
    <nd ref="1122179028"/>
    <nd ref="1122177948"/>
    <nd ref="1122178507"/>
    <nd ref="1122178870"/>
    <nd ref="1122178312"/>
    <nd ref="476391373"/>
    <nd ref="1122178603"/>
    <nd ref="1122179000"/>
    <nd ref="1122177031"/>
    <nd ref="1122179167"/>
    <nd ref="1122177277"/>
    <nd ref="1122177645"/>
    <nd ref="1122178066"/>
    <nd ref="1122177863"/>
    <nd ref="1122178269"/>
    <nd ref="1122178475"/>
    <nd ref="1122177095"/>
    <tag k="addr:city" v="Зеленоград"/>
    <tag k="addr:country" v="RU"/>
    <tag k="addr:housenumber" v="1130"/>
    <tag k="addr:street" v="11-й микрорайон"/>
    <tag k="building" v="yes"/>
    <tag k="building:use" v="residential"/>
  </way>
  <way id="96845054" version="7" timestamp="2012-03-27T11:34:29Z" uid="481934" user="iWowik" changeset="11115472">
    <nd ref="1122177095"/>
    <nd ref="1122177342"/>
    <nd ref="1122177719"/>
    <nd ref="1122178128"/>
    <nd ref="1122179028"/>
    <nd ref="1122177948"/>
    <nd ref="1122178507"/>
    <nd ref="1122178870"/>
    <nd ref="1122178312"/>
    <nd ref="476391373"/>
    <nd ref="1122178603"/>
    <nd ref="1122179000"/>
    <nd ref="1122177031"/>
    <nd ref="1122179167"/>
    <nd ref="1122177277"/>
    <nd ref="1122177645"/>
    <nd ref="1122178066"/>
    <nd ref="1122177863"/>
    <nd ref="1122178269"/>
    <nd ref="1122178475"/>
    <nd ref="1122177095"/>
    <tag k="addr:city" v="Зеленоград"/>
    <tag k="addr:country" v="RU"/>
    <tag k="addr:housenumber" v="1130"/>
    <tag k="addr:region" v="Москва"/>
    <tag k="addr:street" v="11-й микрорайон"/>
    <tag k="building" v="yes"/>
    <tag k="building:use" v="residential"/>
  </way>
  <way id="96845062" version="1" timestamp="2011-01-26T18:24:16Z" uid="115477" user="wowik" changeset="7096167">
    <nd ref="1122177355"/>
    <nd ref="1122178596"/>
    <nd ref="1122178462"/>
    <nd ref="1122178781"/>
    <nd ref="1122179156"/>
    <nd ref="1122177245"/>
    <nd ref="1122177355"/>
    <tag k="addr:city" v="Зеленоград"/>
    <tag k="addr:housenumber" v="26 сА"/>
    <tag k="addr:street" v="улица Калинина"/>
    <tag k="building" v="yes"/>
    <tag k="building:levels" v="1"/>
    <tag k="is_in" v="Russia"/>
  </way>
  <way id="96845062" version="2" timestamp="2011-09-13T10:25:07Z" uid="29320" user="Komяpa" changeset="9288237">
    <nd ref="1122177355"/>
    <nd ref="1122178596"/>
    <nd ref="1122178462"/>
    <nd ref="1122178781"/>
    <nd ref="1122179156"/>
    <nd ref="1122177245"/>
    <nd ref="1122177355"/>
    <tag k="addr:city" v="Зеленоград"/>
    <tag k="addr:country" v="RU"/>
    <tag k="addr:housenumber" v="26 сА"/>
    <tag k="addr:street" v="улица Калинина"/>
    <tag k="building" v="yes"/>
    <tag k="building:levels" v="1"/>
  </way>
  <way id="96845062" version="3" timestamp="2012-03-27T11:40:22Z" uid="481934" user="iWowik" changeset="11115472">
    <nd ref="1122177355"/>
    <nd ref="1122178596"/>
    <nd ref="1122178462"/>
    <nd ref="1122178781"/>
    <nd ref="1122179156"/>
    <nd ref="1122177245"/>
    <nd ref="1122177355"/>
    <tag k="addr:city" v="Зеленоград"/>
    <tag k="addr:country" v="RU"/>
    <tag k="addr:housenumber" v="26 сА"/>
    <tag k="addr:region" v="Москва"/>
    <tag k="addr:street" v="улица Калинина"/>
    <tag k="building" v="yes"/>
    <tag k="building:levels" v="1"/>
  </way>
  <way id="96845070" version="1" timestamp="2011-01-26T18:24:17Z" uid="115477" user="wowik" changeset="7096167">
    <nd ref="1122177861"/>
    <nd ref="1122179077"/>
    <nd ref="1122177166"/>
    <nd ref="1122176946"/>
    <nd ref="1122177861"/>
    <tag k="addr:city" v="Зеленоград"/>
    <tag k="addr:housenumber" v="44"/>
    <tag k="addr:street" v="Панфиловский проспект"/>
    <tag k="building" v="yes"/>
    <tag k="building:levels" v="1"/>
    <tag k="building:use" v="residential"/>
    <tag k="is_in" v="Russia"/>
  </way>
  <way id="96845070" version="2" timestamp="2011-09-13T10:27:01Z" uid="29320" user="Komяpa" changeset="9288237">
    <nd ref="1122177861"/>
    <nd ref="1122179077"/>
    <nd ref="1122177166"/>
    <nd ref="1122176946"/>
    <nd ref="1122177861"/>
    <tag k="addr:city" v="Зеленоград"/>
    <tag k="addr:country" v="RU"/>
    <tag k="addr:housenumber" v="44"/>
    <tag k="addr:street" v="Панфиловский проспект"/>
    <tag k="building" v="yes"/>
    <tag k="building:levels" v="1"/>
    <tag k="building:use" v="residential"/>
  </way>
  <way id="96845070" version="3" timestamp="2012-03-27T11:43:33Z" uid="481934" user="iWowik" changeset="11115472">
    <nd ref="1122177861"/>
    <nd ref="1122179077"/>
    <nd ref="1122177166"/>
    <nd ref="1122176946"/>
    <nd ref="1122177861"/>
    <tag k="addr:city" v="Зеленоград"/>
    <tag k="addr:country" v="RU"/>
    <tag k="addr:housenumber" v="44"/>
    <tag k="addr:region" v="Москва"/>
    <tag k="addr:street" v="Панфиловский проспект"/>
    <tag k="building" v="yes"/>
    <tag k="building:levels" v="1"/>
    <tag k="building:use" v="residential"/>
  </way>
  <way id="96845074" version="1" timestamp="2011-01-26T18:24:17Z" uid="115477" user="wowik" changeset="7096167">
    <nd ref="1122177990"/>
    <nd ref="1122178631"/>
    <nd ref="1122179007"/>
    <nd ref="1122177062"/>
    <nd ref="1122177990"/>
    <tag k="addr:city" v="Зеленоград"/>
    <tag k="addr:street" v="улица Щербакова"/>
    <tag k="building" v="yes"/>
    <tag k="building:levels" v="1"/>
    <tag k="is_in" v="Russia"/>
  </way>
  <way id="96845074" version="2" timestamp="2011-09-13T10:38:42Z" uid="29320" user="Komяpa" changeset="9288237">
    <nd ref="1122177990"/>
    <nd ref="1122178631"/>
    <nd ref="1122179007"/>
    <nd ref="1122177062"/>
    <nd ref="1122177990"/>
    <tag k="addr:city" v="Зеленоград"/>
    <tag k="addr:country" v="RU"/>
    <tag k="addr:street" v="улица Щербакова"/>
    <tag k="building" v="yes"/>
    <tag k="building:levels" v="1"/>
  </way>
  <way id="96845074" version="3" timestamp="2012-03-27T11:50:18Z" uid="481934" user="iWowik" changeset="11115472">
    <nd ref="1122177990"/>
    <nd ref="1122178631"/>
    <nd ref="1122179007"/>
    <nd ref="1122177062"/>
    <nd ref="1122177990"/>
    <tag k="addr:city" v="Зеленоград"/>
    <tag k="addr:country" v="RU"/>
    <tag k="addr:region" v="Москва"/>
    <tag k="addr:street" v="улица Щербакова"/>
    <tag k="building" v="yes"/>
    <tag k="building:levels" v="1"/>
  </way>
  <way id="96845077" version="1" timestamp="2011-01-26T18:24:17Z" uid="115477" user="wowik" changeset="7096167">
    <nd ref="1122177687"/>
    <nd ref="1122178966"/>
    <nd ref="1122176998"/>
    <nd ref="1122177454"/>
    <nd ref="1122177687"/>
    <tag k="addr:city" v="Зеленоград"/>
    <tag k="addr:housenumber" v="29"/>
    <tag k="addr:street" v="улица Щербакова"/>
    <tag k="building" v="yes"/>
    <tag k="building:levels" v="1"/>
    <tag k="building:use" v="residential"/>
    <tag k="is_in" v="Russia"/>
  </way>
  <way id="96845077" version="2" timestamp="2011-09-13T10:25:12Z" uid="29320" user="Komяpa" changeset="9288237">
    <nd ref="1122177687"/>
    <nd ref="1122178966"/>
    <nd ref="1122176998"/>
    <nd ref="1122177454"/>
    <nd ref="1122177687"/>
    <tag k="addr:city" v="Зеленоград"/>
    <tag k="addr:country" v="RU"/>
    <tag k="addr:housenumber" v="29"/>
    <tag k="addr:street" v="улица Щербакова"/>
    <tag k="building" v="yes"/>
    <tag k="building:levels" v="1"/>
    <tag k="building:use" v="residential"/>
  </way>
  <way id="96845077" version="3" timestamp="2012-03-27T11:40:31Z" uid="481934" user="iWowik" changeset="11115472">
    <nd ref="1122177687"/>
    <nd ref="1122178966"/>
    <nd ref="1122176998"/>
    <nd ref="1122177454"/>
    <nd ref="1122177687"/>
    <tag k="addr:city" v="Зеленоград"/>
    <tag k="addr:country" v="RU"/>
    <tag k="addr:housenumber" v="29"/>
    <tag k="addr:region" v="Москва"/>
    <tag k="addr:street" v="улица Щербакова"/>
    <tag k="building" v="yes"/>
    <tag k="building:levels" v="1"/>
    <tag k="building:use" v="residential"/>
  </way>
  <way id="96845083" version="1" timestamp="2011-01-26T18:24:17Z" uid="115477" user="wowik" changeset="7096167">
    <nd ref="1122177000"/>
    <nd ref="1122177897"/>
    <nd ref="1122179107"/>
    <nd ref="1122178967"/>
    <nd ref="1122177000"/>
    <tag k="addr:city" v="Зеленоград"/>
    <tag k="addr:street" v="улица Щербакова"/>
    <tag k="building" v="yes"/>
    <tag k="building:levels" v="1"/>
    <tag k="is_in" v="Russia"/>
  </way>
  <way id="96845083" version="2" timestamp="2011-02-08T09:25:45Z" uid="115477" user="wowik" changeset="7224641">
    <nd ref="1122177000"/>
    <nd ref="1122177897"/>
    <nd ref="1122179107"/>
    <nd ref="1122178967"/>
    <nd ref="1122177000"/>
    <tag k="addr:city" v="Зеленоград"/>
    <tag k="building" v="yes"/>
    <tag k="building:levels" v="1"/>
    <tag k="is_in" v="Russia"/>
  </way>
  <way id="96845083" version="3" timestamp="2011-09-13T10:38:42Z" uid="29320" user="Komяpa" changeset="9288237">
    <nd ref="1122177000"/>
    <nd ref="1122177897"/>
    <nd ref="1122179107"/>
    <nd ref="1122178967"/>
    <nd ref="1122177000"/>
    <tag k="addr:city" v="Зеленоград"/>
    <tag k="addr:country" v="RU"/>
    <tag k="building" v="yes"/>
    <tag k="building:levels" v="1"/>
  </way>
  <way id="96845083" version="4" timestamp="2012-03-27T11:51:33Z" uid="481934" user="iWowik" changeset="11115472">
    <nd ref="1122177000"/>
    <nd ref="1122177897"/>
    <nd ref="1122179107"/>
    <nd ref="1122178967"/>
    <nd ref="1122177000"/>
    <tag k="addr:city" v="Зеленоград"/>
    <tag k="addr:country" v="RU"/>
    <tag k="addr:region" v="Москва"/>
    <tag k="building" v="yes"/>
    <tag k="building:levels" v="1"/>
  </way>
  <way id="96845085" version="1" timestamp="2011-01-26T18:24:18Z" uid="115477" user="wowik" changeset="7096167">
    <nd ref="1122177502"/>
    <nd ref="1122178349"/>
    <nd ref="1122178551"/>
    <nd ref="1122178942"/>
    <nd ref="1122177502"/>
    <tag k="addr:city" v="Зеленоград"/>
    <tag k="addr:street" v="улица Щербакова"/>
    <tag k="building" v="yes"/>
    <tag k="building:levels" v="1"/>
    <tag k="is_in" v="Russia"/>
  </way>
  <way id="96845085" version="2" timestamp="2011-02-09T14:25:44Z" uid="115477" user="wowik" changeset="7236536">
    <nd ref="1122177502"/>
    <nd ref="1122178349"/>
    <nd ref="1122178551"/>
    <nd ref="1122178942"/>
    <nd ref="1122177502"/>
    <tag k="addr:city" v="Зеленоград"/>
    <tag k="building" v="yes"/>
    <tag k="building:levels" v="1"/>
    <tag k="is_in" v="Russia"/>
  </way>
  <way id="96845085" version="3" timestamp="2011-09-13T10:38:43Z" uid="29320" user="Komяpa" changeset="9288237">
    <nd ref="1122177502"/>
    <nd ref="1122178349"/>
    <nd ref="1122178551"/>
    <nd ref="1122178942"/>
    <nd ref="1122177502"/>
    <tag k="addr:city" v="Зеленоград"/>
    <tag k="addr:country" v="RU"/>
    <tag k="building" v="yes"/>
    <tag k="building:levels" v="1"/>
  </way>
  <way id="96845085" version="4" timestamp="2012-03-27T11:52:28Z" uid="481934" user="iWowik" changeset="11115472">
    <nd ref="1122177502"/>
    <nd ref="1122178349"/>
    <nd ref="1122178551"/>
    <nd ref="1122178942"/>
    <nd ref="1122177502"/>
    <tag k="addr:city" v="Зеленоград"/>
    <tag k="addr:country" v="RU"/>
    <tag k="addr:region" v="Москва"/>
    <tag k="building" v="yes"/>
    <tag k="building:levels" v="1"/>
  </way>
  <way id="96845087" version="1" timestamp="2011-01-26T18:24:18Z" uid="115477" user="wowik" changeset="7096167">
    <nd ref="1122178046"/>
    <nd ref="1122176904"/>
    <nd ref="1122177375"/>
    <nd ref="1122177146"/>
    <nd ref="1122178046"/>
    <tag k="addr:city" v="Зеленоград"/>
    <tag k="addr:housenumber" v="37 с2А"/>
    <tag k="addr:street" v="улица Калинина"/>
    <tag k="building" v="yes"/>
    <tag k="building:levels" v="1"/>
    <tag k="building:use" v="residential"/>
    <tag k="is_in" v="Russia"/>
  </way>
  <way id="96845087" version="2" timestamp="2011-09-13T10:26:18Z" uid="29320" user="Komяpa" changeset="9288237">
    <nd ref="1122178046"/>
    <nd ref="1122176904"/>
    <nd ref="1122177375"/>
    <nd ref="1122177146"/>
    <nd ref="1122178046"/>
    <tag k="addr:city" v="Зеленоград"/>
    <tag k="addr:country" v="RU"/>
    <tag k="addr:housenumber" v="37 с2А"/>
    <tag k="addr:street" v="улица Калинина"/>
    <tag k="building" v="yes"/>
    <tag k="building:levels" v="1"/>
    <tag k="building:use" v="residential"/>
  </way>
  <way id="96845087" version="3" timestamp="2012-03-27T11:42:22Z" uid="481934" user="iWowik" changeset="11115472">
    <nd ref="1122178046"/>
    <nd ref="1122176904"/>
    <nd ref="1122177375"/>
    <nd ref="1122177146"/>
    <nd ref="1122178046"/>
    <tag k="addr:city" v="Зеленоград"/>
    <tag k="addr:country" v="RU"/>
    <tag k="addr:housenumber" v="37 с2А"/>
    <tag k="addr:region" v="Москва"/>
    <tag k="addr:street" v="улица Калинина"/>
    <tag k="building" v="yes"/>
    <tag k="building:levels" v="1"/>
    <tag k="building:use" v="residential"/>
  </way>
  <way id="96845091" version="1" timestamp="2011-01-26T18:24:18Z" uid="115477" user="wowik" changeset="7096167">
    <nd ref="1122178368"/>
    <nd ref="1122177327"/>
    <nd ref="1122177697"/>
    <nd ref="1122178116"/>
    <nd ref="1122178368"/>
    <tag k="addr:city" v="Зеленоград"/>
    <tag k="addr:housenumber" v="18 с4"/>
    <tag k="addr:street" v="Панфиловский проспект"/>
    <tag k="building" v="yes"/>
    <tag k="is_in" v="Russia"/>
  </way>
  <way id="96845091" version="2" timestamp="2011-02-04T10:33:25Z" uid="115477" user="wowik" changeset="7181742">
    <nd ref="1122178368"/>
    <nd ref="1122177327"/>
    <nd ref="1122177697"/>
    <nd ref="1135441821"/>
    <nd ref="1122178116"/>
    <nd ref="1122178368"/>
    <tag k="addr:city" v="Зеленоград"/>
    <tag k="addr:housenumber" v="18 с4"/>
    <tag k="addr:street" v="Панфиловский проспект"/>
    <tag k="building" v="yes"/>
    <tag k="is_in" v="Russia"/>
  </way>
  <way id="96845091" version="3" timestamp="2011-09-13T10:23:43Z" uid="29320" user="Komяpa" changeset="9288237">
    <nd ref="1122178368"/>
    <nd ref="1122177327"/>
    <nd ref="1122177697"/>
    <nd ref="1135441821"/>
    <nd ref="1122178116"/>
    <nd ref="1122178368"/>
    <tag k="addr:city" v="Зеленоград"/>
    <tag k="addr:country" v="RU"/>
    <tag k="addr:housenumber" v="18 с4"/>
    <tag k="addr:street" v="Панфиловский проспект"/>
    <tag k="building" v="yes"/>
  </way>
  <way id="96845091" version="4" timestamp="2012-03-27T11:37:58Z" uid="481934" user="iWowik" changeset="11115472">
    <nd ref="1122178368"/>
    <nd ref="1122177327"/>
    <nd ref="1122177697"/>
    <nd ref="1135441821"/>
    <nd ref="1122178116"/>
    <nd ref="1122178368"/>
    <tag k="addr:city" v="Зеленоград"/>
    <tag k="addr:country" v="RU"/>
    <tag k="addr:housenumber" v="18 с4"/>
    <tag k="addr:region" v="Москва"/>
    <tag k="addr:street" v="Панфиловский проспект"/>
    <tag k="building" v="yes"/>
  </way>
  <way id="96845093" version="1" timestamp="2011-01-26T18:24:18Z" uid="115477" user="wowik" changeset="7096167">
    <nd ref="1122179086"/>
    <nd ref="1122177659"/>
    <nd ref="1122178919"/>
    <nd ref="1122176937"/>
    <nd ref="1122179086"/>
    <tag k="addr:city" v="Зеленоград"/>
    <tag k="addr:housenumber" v="27 сА"/>
    <tag k="addr:street" v="улица Щербакова"/>
    <tag k="building" v="yes"/>
    <tag k="building:levels" v="1"/>
    <tag k="is_in" v="Russia"/>
  </way>
  <way id="96845093" version="2" timestamp="2011-09-13T10:25:08Z" uid="29320" user="Komяpa" changeset="9288237">
    <nd ref="1122179086"/>
    <nd ref="1122177659"/>
    <nd ref="1122178919"/>
    <nd ref="1122176937"/>
    <nd ref="1122179086"/>
    <tag k="addr:city" v="Зеленоград"/>
    <tag k="addr:country" v="RU"/>
    <tag k="addr:housenumber" v="27 сА"/>
    <tag k="addr:street" v="улица Щербакова"/>
    <tag k="building" v="yes"/>
    <tag k="building:levels" v="1"/>
  </way>
  <way id="96845093" version="3" timestamp="2012-03-27T11:40:25Z" uid="481934" user="iWowik" changeset="11115472">
    <nd ref="1122179086"/>
    <nd ref="1122177659"/>
    <nd ref="1122178919"/>
    <nd ref="1122176937"/>
    <nd ref="1122179086"/>
    <tag k="addr:city" v="Зеленоград"/>
    <tag k="addr:country" v="RU"/>
    <tag k="addr:housenumber" v="27 сА"/>
    <tag k="addr:region" v="Москва"/>
    <tag k="addr:street" v="улица Щербакова"/>
    <tag k="building" v="yes"/>
    <tag k="building:levels" v="1"/>
  </way>
  <way id="96845097" version="1" timestamp="2011-01-26T18:24:19Z" uid="115477" user="wowik" changeset="7096167">
    <nd ref="1122179071"/>
    <nd ref="1122178267"/>
    <nd ref="1122178075"/>
    <nd ref="1122178385"/>
    <nd ref="1122179071"/>
    <tag k="addr:city" v="Зеленоград"/>
    <tag k="addr:housenumber" v="35 с1А"/>
    <tag k="addr:street" v="улица Калинина"/>
    <tag k="building" v="yes"/>
    <tag k="building:levels" v="1"/>
    <tag k="building:use" v="residential"/>
    <tag k="is_in" v="Russia"/>
  </way>
  <way id="96845097" version="2" timestamp="2011-09-13T10:26:08Z" uid="29320" user="Komяpa" changeset="9288237">
    <nd ref="1122179071"/>
    <nd ref="1122178267"/>
    <nd ref="1122178075"/>
    <nd ref="1122178385"/>
    <nd ref="1122179071"/>
    <tag k="addr:city" v="Зеленоград"/>
    <tag k="addr:country" v="RU"/>
    <tag k="addr:housenumber" v="35 с1А"/>
    <tag k="addr:street" v="улица Калинина"/>
    <tag k="building" v="yes"/>
    <tag k="building:levels" v="1"/>
    <tag k="building:use" v="residential"/>
  </way>
  <way id="96845097" version="3" timestamp="2012-03-27T11:42:10Z" uid="481934" user="iWowik" changeset="11115472">
    <nd ref="1122179071"/>
    <nd ref="1122178267"/>
    <nd ref="1122178075"/>
    <nd ref="1122178385"/>
    <nd ref="1122179071"/>
    <tag k="addr:city" v="Зеленоград"/>
    <tag k="addr:country" v="RU"/>
    <tag k="addr:housenumber" v="35 с1А"/>
    <tag k="addr:region" v="Москва"/>
    <tag k="addr:street" v="улица Калинина"/>
    <tag k="building" v="yes"/>
    <tag k="building:levels" v="1"/>
    <tag k="building:use" v="residential"/>
  </way>
  <way id="96845101" version="1" timestamp="2011-01-26T18:24:19Z" uid="115477" user="wowik" changeset="7096167">
    <nd ref="1122177359"/>
    <nd ref="1122178598"/>
    <nd ref="1122178983"/>
    <nd ref="1122178783"/>
    <nd ref="1122177359"/>
    <tag k="addr:city" v="Зеленоград"/>
    <tag k="addr:street" v="улица Калинина"/>
    <tag k="building" v="yes"/>
    <tag k="building:levels" v="1"/>
    <tag k="is_in" v="Russia"/>
  </way>
  <way id="96845101" version="2" timestamp="2011-02-11T09:51:10Z" uid="115477" user="wowik" changeset="7253448">
    <nd ref="1122177359"/>
    <nd ref="1122178598"/>
    <nd ref="1122178983"/>
    <nd ref="1122178783"/>
    <nd ref="1122177359"/>
    <tag k="addr:city" v="Зеленоград"/>
    <tag k="addr:housenumber" v="28"/>
    <tag k="addr:street" v="улица Калинина"/>
    <tag k="building" v="yes"/>
    <tag k="building:levels" v="1"/>
    <tag k="building:use" v="residential"/>
    <tag k="is_in" v="Russia"/>
  </way>
  <way id="96845101" version="3" timestamp="2011-09-13T10:25:11Z" uid="29320" user="Komяpa" changeset="9288237">
    <nd ref="1122177359"/>
    <nd ref="1122178598"/>
    <nd ref="1122178983"/>
    <nd ref="1122178783"/>
    <nd ref="1122177359"/>
    <tag k="addr:city" v="Зеленоград"/>
    <tag k="addr:country" v="RU"/>
    <tag k="addr:housenumber" v="28"/>
    <tag k="addr:street" v="улица Калинина"/>
    <tag k="building" v="yes"/>
    <tag k="building:levels" v="1"/>
    <tag k="building:use" v="residential"/>
  </way>
  <way id="96845101" version="4" timestamp="2012-03-27T11:40:26Z" uid="481934" user="iWowik" changeset="11115472">
    <nd ref="1122177359"/>
    <nd ref="1122178598"/>
    <nd ref="1122178983"/>
    <nd ref="1122178783"/>
    <nd ref="1122177359"/>
    <tag k="addr:city" v="Зеленоград"/>
    <tag k="addr:country" v="RU"/>
    <tag k="addr:housenumber" v="28"/>
    <tag k="addr:region" v="Москва"/>
    <tag k="addr:street" v="улица Калинина"/>
    <tag k="building" v="yes"/>
    <tag k="building:levels" v="1"/>
    <tag k="building:use" v="residential"/>
  </way>
  <way id="96845103" version="1" timestamp="2011-01-26T18:24:19Z" uid="115477" user="wowik" changeset="7096167">
    <nd ref="1122178013"/>
    <nd ref="1122176814"/>
    <nd ref="1122179022"/>
    <nd ref="1122177084"/>
    <nd ref="1122178013"/>
    <tag k="addr:city" v="Зеленоград"/>
    <tag k="addr:street" v="улица Щербакова"/>
    <tag k="building" v="yes"/>
    <tag k="building:levels" v="1"/>
    <tag k="is_in" v="Russia"/>
  </way>
  <way id="96845103" version="2" timestamp="2011-02-08T09:25:44Z" uid="115477" user="wowik" changeset="7224641">
    <nd ref="1122178013"/>
    <nd ref="1122176814"/>
    <nd ref="1122179022"/>
    <nd ref="1122177084"/>
    <nd ref="1122178013"/>
    <tag k="addr:city" v="Зеленоград"/>
    <tag k="building" v="yes"/>
    <tag k="building:levels" v="1"/>
    <tag k="is_in" v="Russia"/>
  </way>
  <way id="96845103" version="3" timestamp="2011-09-13T10:38:43Z" uid="29320" user="Komяpa" changeset="9288237">
    <nd ref="1122178013"/>
    <nd ref="1122176814"/>
    <nd ref="1122179022"/>
    <nd ref="1122177084"/>
    <nd ref="1122178013"/>
    <tag k="addr:city" v="Зеленоград"/>
    <tag k="addr:country" v="RU"/>
    <tag k="building" v="yes"/>
    <tag k="building:levels" v="1"/>
  </way>
  <way id="96845103" version="4" timestamp="2012-03-27T11:53:39Z" uid="481934" user="iWowik" changeset="11115472">
    <nd ref="1122178013"/>
    <nd ref="1122176814"/>
    <nd ref="1122179022"/>
    <nd ref="1122177084"/>
    <nd ref="1122178013"/>
    <tag k="addr:city" v="Зеленоград"/>
    <tag k="addr:country" v="RU"/>
    <tag k="addr:region" v="Москва"/>
    <tag k="building" v="yes"/>
    <tag k="building:levels" v="1"/>
  </way>
  <way id="96845106" version="1" timestamp="2011-01-26T18:24:20Z" uid="115477" user="wowik" changeset="7096167">
    <nd ref="1122178241"/>
    <nd ref="1122177097"/>
    <nd ref="1122176879"/>
    <nd ref="1122177363"/>
    <nd ref="1122177723"/>
    <nd ref="1122178130"/>
    <nd ref="1122178241"/>
    <tag k="addr:city" v="Зеленоград"/>
    <tag k="addr:housenumber" v="46"/>
    <tag k="addr:street" v="улица Щербакова"/>
    <tag k="building" v="yes"/>
    <tag k="building:levels" v="1"/>
    <tag k="building:use" v="residential"/>
    <tag k="is_in" v="Russia"/>
  </way>
  <way id="96845106" version="2" timestamp="2011-09-13T10:27:14Z" uid="29320" user="Komяpa" changeset="9288237">
    <nd ref="1122178241"/>
    <nd ref="1122177097"/>
    <nd ref="1122176879"/>
    <nd ref="1122177363"/>
    <nd ref="1122177723"/>
    <nd ref="1122178130"/>
    <nd ref="1122178241"/>
    <tag k="addr:city" v="Зеленоград"/>
    <tag k="addr:country" v="RU"/>
    <tag k="addr:housenumber" v="46"/>
    <tag k="addr:street" v="улица Щербакова"/>
    <tag k="building" v="yes"/>
    <tag k="building:levels" v="1"/>
    <tag k="building:use" v="residential"/>
  </way>
  <way id="96845106" version="3" timestamp="2012-03-27T11:44:02Z" uid="481934" user="iWowik" changeset="11115472">
    <nd ref="1122178241"/>
    <nd ref="1122177097"/>
    <nd ref="1122176879"/>
    <nd ref="1122177363"/>
    <nd ref="1122177723"/>
    <nd ref="1122178130"/>
    <nd ref="1122178241"/>
    <tag k="addr:city" v="Зеленоград"/>
    <tag k="addr:country" v="RU"/>
    <tag k="addr:housenumber" v="46"/>
    <tag k="addr:region" v="Москва"/>
    <tag k="addr:street" v="улица Щербакова"/>
    <tag k="building" v="yes"/>
    <tag k="building:levels" v="1"/>
    <tag k="building:use" v="residential"/>
  </way>
  <way id="96845108" version="1" timestamp="2011-01-26T18:24:20Z" uid="115477" user="wowik" changeset="7096167">
    <nd ref="1122178455"/>
    <nd ref="1122176897"/>
    <nd ref="1122177370"/>
    <nd ref="1122177728"/>
    <nd ref="1122178455"/>
    <tag k="addr:city" v="Зеленоград"/>
    <tag k="addr:street" v="улица Щербакова"/>
    <tag k="building" v="yes"/>
    <tag k="building:levels" v="1"/>
    <tag k="is_in" v="Russia"/>
  </way>
  <way id="96845108" version="2" timestamp="2011-02-09T14:25:45Z" uid="115477" user="wowik" changeset="7236536">
    <nd ref="1122178455"/>
    <nd ref="1122176897"/>
    <nd ref="1122177370"/>
    <nd ref="1122177728"/>
    <nd ref="1122178455"/>
    <tag k="addr:city" v="Зеленоград"/>
    <tag k="building" v="yes"/>
    <tag k="building:levels" v="1"/>
    <tag k="is_in" v="Russia"/>
  </way>
  <way id="96845108" version="3" timestamp="2011-09-13T10:38:43Z" uid="29320" user="Komяpa" changeset="9288237">
    <nd ref="1122178455"/>
    <nd ref="1122176897"/>
    <nd ref="1122177370"/>
    <nd ref="1122177728"/>
    <nd ref="1122178455"/>
    <tag k="addr:city" v="Зеленоград"/>
    <tag k="addr:country" v="RU"/>
    <tag k="building" v="yes"/>
    <tag k="building:levels" v="1"/>
  </way>
  <way id="96845108" version="4" timestamp="2012-03-27T11:53:03Z" uid="481934" user="iWowik" changeset="11115472">
    <nd ref="1122178455"/>
    <nd ref="1122176897"/>
    <nd ref="1122177370"/>
    <nd ref="1122177728"/>
    <nd ref="1122178455"/>
    <tag k="addr:city" v="Зеленоград"/>
    <tag k="addr:country" v="RU"/>
    <tag k="addr:region" v="Москва"/>
    <tag k="building" v="yes"/>
    <tag k="building:levels" v="1"/>
  </way>
  <way id="96845109" version="1" timestamp="2011-01-26T18:24:20Z" uid="115477" user="wowik" changeset="7096167">
    <nd ref="1122177249"/>
    <nd ref="1122178509"/>
    <nd ref="1122178416"/>
    <nd ref="1122178692"/>
    <nd ref="1122179049"/>
    <nd ref="1122177130"/>
    <nd ref="1122176917"/>
    <nd ref="1122177403"/>
    <nd ref="1122177755"/>
    <nd ref="1122178163"/>
    <nd ref="1122177985"/>
    <nd ref="1122178330"/>
    <nd ref="1122177249"/>
    <tag k="addr:city" v="Зеленоград"/>
    <tag k="addr:housenumber" v="33 с?"/>
    <tag k="addr:street" v="улица Щербакова"/>
    <tag k="building" v="yes"/>
    <tag k="building:levels" v="1"/>
    <tag k="building:use" v="residential"/>
    <tag k="is_in" v="Russia"/>
  </way>
  <way id="96845109" version="2" timestamp="2011-09-13T10:25:55Z" uid="29320" user="Komяpa" changeset="9288237">
    <nd ref="1122177249"/>
    <nd ref="1122178509"/>
    <nd ref="1122178416"/>
    <nd ref="1122178692"/>
    <nd ref="1122179049"/>
    <nd ref="1122177130"/>
    <nd ref="1122176917"/>
    <nd ref="1122177403"/>
    <nd ref="1122177755"/>
    <nd ref="1122178163"/>
    <nd ref="1122177985"/>
    <nd ref="1122178330"/>
    <nd ref="1122177249"/>
    <tag k="addr:city" v="Зеленоград"/>
    <tag k="addr:country" v="RU"/>
    <tag k="addr:housenumber" v="33 с?"/>
    <tag k="addr:street" v="улица Щербакова"/>
    <tag k="building" v="yes"/>
    <tag k="building:levels" v="1"/>
    <tag k="building:use" v="residential"/>
  </way>
  <way id="96845109" version="3" timestamp="2012-03-27T11:41:47Z" uid="481934" user="iWowik" changeset="11115472">
    <nd ref="1122177249"/>
    <nd ref="1122178509"/>
    <nd ref="1122178416"/>
    <nd ref="1122178692"/>
    <nd ref="1122179049"/>
    <nd ref="1122177130"/>
    <nd ref="1122176917"/>
    <nd ref="1122177403"/>
    <nd ref="1122177755"/>
    <nd ref="1122178163"/>
    <nd ref="1122177985"/>
    <nd ref="1122178330"/>
    <nd ref="1122177249"/>
    <tag k="addr:city" v="Зеленоград"/>
    <tag k="addr:country" v="RU"/>
    <tag k="addr:housenumber" v="33 с?"/>
    <tag k="addr:region" v="Москва"/>
    <tag k="addr:street" v="улица Щербакова"/>
    <tag k="building" v="yes"/>
    <tag k="building:levels" v="1"/>
    <tag k="building:use" v="residential"/>
  </way>
  <way id="96845112" version="1" timestamp="2011-01-26T18:24:21Z" uid="115477" user="wowik" changeset="7096167">
    <nd ref="1122177491"/>
    <nd ref="1122178691"/>
    <nd ref="1122179048"/>
    <nd ref="1122177120"/>
    <nd ref="1122177491"/>
    <tag k="addr:city" v="Зеленоград"/>
    <tag k="addr:housenumber" v="26 с3А"/>
    <tag k="addr:street" v="улица Калинина"/>
    <tag k="building" v="yes"/>
    <tag k="building:levels" v="1"/>
    <tag k="building:use" v="residential"/>
    <tag k="is_in" v="Russia"/>
  </way>
  <way id="96845112" version="2" timestamp="2011-09-13T10:25:07Z" uid="29320" user="Komяpa" changeset="9288237">
    <nd ref="1122177491"/>
    <nd ref="1122178691"/>
    <nd ref="1122179048"/>
    <nd ref="1122177120"/>
    <nd ref="1122177491"/>
    <tag k="addr:city" v="Зеленоград"/>
    <tag k="addr:country" v="RU"/>
    <tag k="addr:housenumber" v="26 с3А"/>
    <tag k="addr:street" v="улица Калинина"/>
    <tag k="building" v="yes"/>
    <tag k="building:levels" v="1"/>
    <tag k="building:use" v="residential"/>
  </way>
  <way id="96845112" version="3" timestamp="2012-03-27T11:40:22Z" uid="481934" user="iWowik" changeset="11115472">
    <nd ref="1122177491"/>
    <nd ref="1122178691"/>
    <nd ref="1122179048"/>
    <nd ref="1122177120"/>
    <nd ref="1122177491"/>
    <tag k="addr:city" v="Зеленоград"/>
    <tag k="addr:country" v="RU"/>
    <tag k="addr:housenumber" v="26 с3А"/>
    <tag k="addr:region" v="Москва"/>
    <tag k="addr:street" v="улица Калинина"/>
    <tag k="building" v="yes"/>
    <tag k="building:levels" v="1"/>
    <tag k="building:use" v="residential"/>
  </way>
  <way id="96845113" version="1" timestamp="2011-01-26T18:24:21Z" uid="115477" user="wowik" changeset="7096167">
    <nd ref="1122177856"/>
    <nd ref="1122179063"/>
    <nd ref="1122177141"/>
    <nd ref="1122177560"/>
    <nd ref="1122177856"/>
    <tag k="addr:city" v="Зеленоград"/>
    <tag k="addr:street" v="улица Щербакова"/>
    <tag k="building" v="yes"/>
    <tag k="building:levels" v="1"/>
    <tag k="is_in" v="Russia"/>
  </way>
  <way id="96845113" version="2" timestamp="2011-02-09T14:25:44Z" uid="115477" user="wowik" changeset="7236536">
    <nd ref="1122177856"/>
    <nd ref="1122179063"/>
    <nd ref="1122177141"/>
    <nd ref="1122177560"/>
    <nd ref="1122177856"/>
    <tag k="addr:city" v="Зеленоград"/>
    <tag k="building" v="yes"/>
    <tag k="building:levels" v="1"/>
    <tag k="is_in" v="Russia"/>
  </way>
  <way id="96845113" version="3" timestamp="2011-09-13T10:38:43Z" uid="29320" user="Komяpa" changeset="9288237">
    <nd ref="1122177856"/>
    <nd ref="1122179063"/>
    <nd ref="1122177141"/>
    <nd ref="1122177560"/>
    <nd ref="1122177856"/>
    <tag k="addr:city" v="Зеленоград"/>
    <tag k="addr:country" v="RU"/>
    <tag k="building" v="yes"/>
    <tag k="building:levels" v="1"/>
  </way>
  <way id="96845113" version="4" timestamp="2012-03-27T11:52:17Z" uid="481934" user="iWowik" changeset="11115472">
    <nd ref="1122177856"/>
    <nd ref="1122179063"/>
    <nd ref="1122177141"/>
    <nd ref="1122177560"/>
    <nd ref="1122177856"/>
    <tag k="addr:city" v="Зеленоград"/>
    <tag k="addr:country" v="RU"/>
    <tag k="addr:region" v="Москва"/>
    <tag k="building" v="yes"/>
    <tag k="building:levels" v="1"/>
  </way>
  <way id="96845114" version="1" timestamp="2011-01-26T18:24:22Z" uid="115477" user="wowik" changeset="7096167">
    <nd ref="1122176944"/>
    <nd ref="1122178388"/>
    <nd ref="1122178284"/>
    <nd ref="1122178483"/>
    <nd ref="1122178830"/>
    <nd ref="1122176803"/>
    <nd ref="1122176944"/>
    <tag k="addr:city" v="Зеленоград"/>
    <tag k="addr:housenumber" v="1121 с1"/>
    <tag k="addr:street" v="11-й Микрорайон"/>
    <tag k="building" v="yes"/>
    <tag k="is_in" v="Russia"/>
    <tag k="landuse" v="service"/>
  </way>
  <way id="96845114" version="2" timestamp="2011-06-07T20:48:21Z" uid="133332" user="AMDmi3" changeset="8374030">
    <nd ref="1122176944"/>
    <nd ref="1122178388"/>
    <nd ref="1122178284"/>
    <nd ref="1122178483"/>
    <nd ref="1122178830"/>
    <nd ref="1122176803"/>
    <nd ref="1122176944"/>
    <tag k="addr:city" v="Зеленоград"/>
    <tag k="addr:housenumber" v="1121 с1"/>
    <tag k="addr:street" v="11-й микрорайон"/>
    <tag k="building" v="yes"/>
    <tag k="is_in" v="Russia"/>
    <tag k="landuse" v="service"/>
  </way>
  <way id="96845114" version="3" timestamp="2011-09-13T10:21:36Z" uid="29320" user="Komяpa" changeset="9288237">
    <nd ref="1122176944"/>
    <nd ref="1122178388"/>
    <nd ref="1122178284"/>
    <nd ref="1122178483"/>
    <nd ref="1122178830"/>
    <nd ref="1122176803"/>
    <nd ref="1122176944"/>
    <tag k="addr:city" v="Зеленоград"/>
    <tag k="addr:country" v="RU"/>
    <tag k="addr:housenumber" v="1121 с1"/>
    <tag k="addr:street" v="11-й микрорайон"/>
    <tag k="building" v="service"/>
  </way>
  <way id="96845114" version="4" timestamp="2011-10-28T10:36:32Z" uid="481934" user="iWowik" changeset="9675303">
    <nd ref="1122176944"/>
    <nd ref="1122178388"/>
    <nd ref="1122178284"/>
    <nd ref="1122178483"/>
    <nd ref="1122178830"/>
    <nd ref="1122176803"/>
    <nd ref="1122176944"/>
    <tag k="addr:city" v="Зеленоград"/>
    <tag k="addr:country" v="RU"/>
    <tag k="addr:housenumber" v="1121 с1"/>
    <tag k="addr:street" v="11-й Микрорайон"/>
    <tag k="building" v="service"/>
  </way>
  <way id="96845114" version="5" timestamp="2011-11-14T20:31:16Z" uid="133332" user="AMDmi3" changeset="9828527">
    <nd ref="1122176944"/>
    <nd ref="1122178388"/>
    <nd ref="1122178284"/>
    <nd ref="1122178483"/>
    <nd ref="1122178830"/>
    <nd ref="1122176803"/>
    <nd ref="1122176944"/>
    <tag k="addr:city" v="Зеленоград"/>
    <tag k="addr:country" v="RU"/>
    <tag k="addr:housenumber" v="1121 с1"/>
    <tag k="addr:street" v="11-й микрорайон"/>
    <tag k="building" v="service"/>
  </way>
  <way id="96845114" version="6" timestamp="2012-03-27T11:34:25Z" uid="481934" user="iWowik" changeset="11115472">
    <nd ref="1122176944"/>
    <nd ref="1122178388"/>
    <nd ref="1122178284"/>
    <nd ref="1122178483"/>
    <nd ref="1122178830"/>
    <nd ref="1122176803"/>
    <nd ref="1122176944"/>
    <tag k="addr:city" v="Зеленоград"/>
    <tag k="addr:country" v="RU"/>
    <tag k="addr:housenumber" v="1121 с1"/>
    <tag k="addr:region" v="Москва"/>
    <tag k="addr:street" v="11-й микрорайон"/>
    <tag k="building" v="service"/>
  </way>
  <way id="96845116" version="1" timestamp="2011-01-26T18:24:22Z" uid="115477" user="wowik" changeset="7096167">
    <nd ref="983105113"/>
    <nd ref="429283416"/>
    <nd ref="1122178642"/>
    <nd ref="983105320"/>
    <nd ref="429283085"/>
    <nd ref="807800169"/>
    <nd ref="983105113"/>
    <tag k="addr:city" v="Зеленоград"/>
    <tag k="addr:housenumber" v="1"/>
    <tag k="addr:street" v="Панфиловский проспект"/>
    <tag k="building" v="yes"/>
    <tag k="building:levels" v="2"/>
    <tag k="cladr:code" v="77000002000220500"/>
    <tag k="is_in" v="Russia"/>
    <tag k="name" v="Дом мебели"/>
    <tag k="shop" v="furniture"/>
  </way>
  <way id="96845116" version="2" timestamp="2011-09-13T10:30:19Z" uid="29320" user="Komяpa" changeset="9288237">
    <nd ref="983105113"/>
    <nd ref="429283416"/>
    <nd ref="1122178642"/>
    <nd ref="983105320"/>
    <nd ref="429283085"/>
    <nd ref="807800169"/>
    <nd ref="983105113"/>
    <tag k="addr:city" v="Зеленоград"/>
    <tag k="addr:country" v="RU"/>
    <tag k="addr:housenumber" v="1"/>
    <tag k="addr:street" v="Панфиловский проспект"/>
    <tag k="building" v="yes"/>
    <tag k="building:levels" v="2"/>
    <tag k="cladr:code" v="77000002000220500"/>
    <tag k="name" v="Дом мебели"/>
    <tag k="shop" v="furniture"/>
  </way>
  <way id="96845116" version="3" timestamp="2011-12-12T17:48:59Z" uid="126304" user="TarzanASG" changeset="10100388">
    <nd ref="983105113"/>
    <nd ref="429283416"/>
    <nd ref="1122178642"/>
    <nd ref="983105320"/>
    <nd ref="429283085"/>
    <nd ref="807800169"/>
    <nd ref="983105113"/>
    <tag k="addr:city" v="Зеленоград"/>
    <tag k="addr:country" v="RU"/>
    <tag k="addr:housenumber" v="1"/>
    <tag k="addr:street" v="Панфиловский проспект"/>
    <tag k="building" v="retail"/>
    <tag k="building:levels" v="2"/>
    <tag k="cladr:code" v="77000002000220500"/>
    <tag k="name" v="Дом мебели"/>
    <tag k="shop" v="furniture"/>
  </way>
  <way id="96845116" version="4" timestamp="2011-12-14T13:07:46Z" uid="143266" user="Sergey Astakhov" changeset="10115724">
    <nd ref="983105113"/>
    <nd ref="429283416"/>
    <nd ref="1122178642"/>
    <nd ref="983105320"/>
    <nd ref="429283085"/>
    <nd ref="807800169"/>
    <nd ref="983105113"/>
    <tag k="addr:city" v="Зеленоград"/>
    <tag k="addr:country" v="RU"/>
    <tag k="addr:housenumber" v="1"/>
    <tag k="addr:street" v="Панфиловский проспект"/>
    <tag k="building" v="yes"/>
    <tag k="building:levels" v="2"/>
    <tag k="cladr:code" v="77000002000220500"/>
    <tag k="name" v="Дом мебели"/>
    <tag k="shop" v="furniture"/>
  </way>
  <way id="96845116" version="5" timestamp="2012-03-27T11:32:36Z" uid="481934" user="iWowik" changeset="11115472">
    <nd ref="983105113"/>
    <nd ref="429283416"/>
    <nd ref="1122178642"/>
    <nd ref="983105320"/>
    <nd ref="429283085"/>
    <nd ref="807800169"/>
    <nd ref="983105113"/>
    <tag k="addr:city" v="Зеленоград"/>
    <tag k="addr:country" v="RU"/>
    <tag k="addr:housenumber" v="1"/>
    <tag k="addr:region" v="Москва"/>
    <tag k="addr:street" v="Панфиловский проспект"/>
    <tag k="building" v="yes"/>
    <tag k="building:levels" v="2"/>
    <tag k="cladr:code" v="77000002000220500"/>
    <tag k="name" v="Дом мебели"/>
    <tag k="shop" v="furniture"/>
  </way>
  <way id="96845117" version="1" timestamp="2011-01-26T18:24:23Z" uid="115477" user="wowik" changeset="7096167">
    <nd ref="1122177410"/>
    <nd ref="1122178608"/>
    <nd ref="1122177761"/>
    <nd ref="1122178477"/>
    <nd ref="1122177573"/>
    <nd ref="1122178808"/>
    <nd ref="1122177993"/>
    <nd ref="1122176790"/>
    <nd ref="1122178342"/>
    <nd ref="1122177280"/>
    <nd ref="1122178532"/>
    <nd ref="1122177410"/>
    <tag k="building" v="yes"/>
  </way>
  <way id="96845117" version="2" timestamp="2012-03-27T11:48:57Z" uid="481934" user="iWowik" changeset="11115472">
    <nd ref="1122177410"/>
    <nd ref="1122178608"/>
    <nd ref="1122177761"/>
    <nd ref="1122178477"/>
    <nd ref="1122177573"/>
    <nd ref="1122178808"/>
    <nd ref="1122177993"/>
    <nd ref="1122176790"/>
    <nd ref="1122178342"/>
    <nd ref="1122177280"/>
    <nd ref="1122178532"/>
    <nd ref="1122177410"/>
    <tag k="addr:city" v="Зеленоград"/>
    <tag k="addr:country" v="RU"/>
    <tag k="addr:region" v="Москва"/>
    <tag k="building" v="yes"/>
  </way>
  <way id="96845118" version="1" timestamp="2011-01-26T18:24:23Z" uid="115477" user="wowik" changeset="7096167">
    <nd ref="1122177532"/>
    <nd ref="1122178775"/>
    <nd ref="1122179142"/>
    <nd ref="1122177223"/>
    <nd ref="1122177532"/>
    <tag k="addr:city" v="Зеленоград"/>
    <tag k="addr:housenumber" v="30"/>
    <tag k="addr:street" v="улица Калинина"/>
    <tag k="building" v="yes"/>
    <tag k="building:levels" v="1"/>
    <tag k="building:use" v="residential"/>
    <tag k="is_in" v="Russia"/>
  </way>
  <way id="96845118" version="2" timestamp="2011-09-13T10:25:37Z" uid="29320" user="Komяpa" changeset="9288237">
    <nd ref="1122177532"/>
    <nd ref="1122178775"/>
    <nd ref="1122179142"/>
    <nd ref="1122177223"/>
    <nd ref="1122177532"/>
    <tag k="addr:city" v="Зеленоград"/>
    <tag k="addr:country" v="RU"/>
    <tag k="addr:housenumber" v="30"/>
    <tag k="addr:street" v="улица Калинина"/>
    <tag k="building" v="yes"/>
    <tag k="building:levels" v="1"/>
    <tag k="building:use" v="residential"/>
  </way>
  <way id="96845118" version="3" timestamp="2012-03-27T11:41:18Z" uid="481934" user="iWowik" changeset="11115472">
    <nd ref="1122177532"/>
    <nd ref="1122178775"/>
    <nd ref="1122179142"/>
    <nd ref="1122177223"/>
    <nd ref="1122177532"/>
    <tag k="addr:city" v="Зеленоград"/>
    <tag k="addr:country" v="RU"/>
    <tag k="addr:housenumber" v="30"/>
    <tag k="addr:region" v="Москва"/>
    <tag k="addr:street" v="улица Калинина"/>
    <tag k="building" v="yes"/>
    <tag k="building:levels" v="1"/>
    <tag k="building:use" v="residential"/>
  </way>
  <way id="96845119" version="1" timestamp="2011-01-26T18:24:23Z" uid="115477" user="wowik" changeset="7096167">
    <nd ref="1122178207"/>
    <nd ref="1122177068"/>
    <nd ref="1122177509"/>
    <nd ref="1122177889"/>
    <nd ref="1122177674"/>
    <nd ref="1122178096"/>
    <nd ref="1122178207"/>
    <tag k="addr:city" v="Зеленоград"/>
    <tag k="addr:street" v="улица Щербакова"/>
    <tag k="building" v="yes"/>
    <tag k="building:levels" v="1"/>
    <tag k="is_in" v="Russia"/>
  </way>
  <way id="96845119" version="2" timestamp="2011-01-30T20:19:30Z" uid="115477" user="wowik" changeset="7139077">
    <nd ref="1122178207"/>
    <nd ref="1122177068"/>
    <nd ref="1122177509"/>
    <nd ref="1122177889"/>
    <nd ref="1122177674"/>
    <nd ref="1122178096"/>
    <nd ref="1122178207"/>
    <tag k="addr:city" v="Зеленоград"/>
    <tag k="addr:housenumber" v="39А"/>
    <tag k="addr:street" v="улица Щербакова"/>
    <tag k="building" v="yes"/>
    <tag k="building:levels" v="1"/>
    <tag k="building:use" v="residential"/>
    <tag k="is_in" v="Russia"/>
  </way>
  <way id="96845119" version="3" timestamp="2011-09-13T10:26:21Z" uid="29320" user="Komяpa" changeset="9288237">
    <nd ref="1122178207"/>
    <nd ref="1122177068"/>
    <nd ref="1122177509"/>
    <nd ref="1122177889"/>
    <nd ref="1122177674"/>
    <nd ref="1122178096"/>
    <nd ref="1122178207"/>
    <tag k="addr:city" v="Зеленоград"/>
    <tag k="addr:country" v="RU"/>
    <tag k="addr:housenumber" v="39А"/>
    <tag k="addr:street" v="улица Щербакова"/>
    <tag k="building" v="yes"/>
    <tag k="building:levels" v="1"/>
    <tag k="building:use" v="residential"/>
  </way>
  <way id="96845119" version="4" timestamp="2012-03-27T11:42:26Z" uid="481934" user="iWowik" changeset="11115472">
    <nd ref="1122178207"/>
    <nd ref="1122177068"/>
    <nd ref="1122177509"/>
    <nd ref="1122177889"/>
    <nd ref="1122177674"/>
    <nd ref="1122178096"/>
    <nd ref="1122178207"/>
    <tag k="addr:city" v="Зеленоград"/>
    <tag k="addr:country" v="RU"/>
    <tag k="addr:housenumber" v="39А"/>
    <tag k="addr:region" v="Москва"/>
    <tag k="addr:street" v="улица Щербакова"/>
    <tag k="building" v="yes"/>
    <tag k="building:levels" v="1"/>
    <tag k="building:use" v="residential"/>
  </way>
  <way id="96845120" version="1" timestamp="2011-01-26T18:24:23Z" uid="115477" user="wowik" changeset="7096167">
    <nd ref="1122177399"/>
    <nd ref="1122178605"/>
    <nd ref="1122179002"/>
    <nd ref="1122178805"/>
    <nd ref="1122177399"/>
    <tag k="addr:city" v="Зеленоград"/>
    <tag k="addr:housenumber" v="26 с1А"/>
    <tag k="addr:street" v="улица Калинина"/>
    <tag k="building" v="yes"/>
    <tag k="building:levels" v="1"/>
    <tag k="building:use" v="residential"/>
    <tag k="is_in" v="Russia"/>
  </way>
  <way id="96845120" version="2" timestamp="2011-09-13T10:25:06Z" uid="29320" user="Komяpa" changeset="9288237">
    <nd ref="1122177399"/>
    <nd ref="1122178605"/>
    <nd ref="1122179002"/>
    <nd ref="1122178805"/>
    <nd ref="1122177399"/>
    <tag k="addr:city" v="Зеленоград"/>
    <tag k="addr:country" v="RU"/>
    <tag k="addr:housenumber" v="26 с1А"/>
    <tag k="addr:street" v="улица Калинина"/>
    <tag k="building" v="yes"/>
    <tag k="building:levels" v="1"/>
    <tag k="building:use" v="residential"/>
  </way>
  <way id="96845120" version="3" timestamp="2012-03-27T11:40:20Z" uid="481934" user="iWowik" changeset="11115472">
    <nd ref="1122177399"/>
    <nd ref="1122178605"/>
    <nd ref="1122179002"/>
    <nd ref="1122178805"/>
    <nd ref="1122177399"/>
    <tag k="addr:city" v="Зеленоград"/>
    <tag k="addr:country" v="RU"/>
    <tag k="addr:housenumber" v="26 с1А"/>
    <tag k="addr:region" v="Москва"/>
    <tag k="addr:street" v="улица Калинина"/>
    <tag k="building" v="yes"/>
    <tag k="building:levels" v="1"/>
    <tag k="building:use" v="residential"/>
  </way>
  <way id="96845122" version="1" timestamp="2011-01-26T18:24:24Z" uid="115477" user="wowik" changeset="7096167">
    <nd ref="1122177618"/>
    <nd ref="1122178856"/>
    <nd ref="1122176837"/>
    <nd ref="1122177310"/>
    <nd ref="1122177618"/>
    <tag k="addr:city" v="Зеленоград"/>
    <tag k="addr:housenumber" v="33"/>
    <tag k="addr:street" v="улица Щербакова"/>
    <tag k="building" v="yes"/>
    <tag k="building:levels" v="1"/>
    <tag k="building:use" v="residential"/>
    <tag k="is_in" v="Russia"/>
  </way>
  <way id="96845122" version="2" timestamp="2011-09-13T10:25:55Z" uid="29320" user="Komяpa" changeset="9288237">
    <nd ref="1122177618"/>
    <nd ref="1122178856"/>
    <nd ref="1122176837"/>
    <nd ref="1122177310"/>
    <nd ref="1122177618"/>
    <tag k="addr:city" v="Зеленоград"/>
    <tag k="addr:country" v="RU"/>
    <tag k="addr:housenumber" v="33"/>
    <tag k="addr:street" v="улица Щербакова"/>
    <tag k="building" v="yes"/>
    <tag k="building:levels" v="1"/>
    <tag k="building:use" v="residential"/>
  </way>
  <way id="96845122" version="3" timestamp="2012-03-27T11:41:47Z" uid="481934" user="iWowik" changeset="11115472">
    <nd ref="1122177618"/>
    <nd ref="1122178856"/>
    <nd ref="1122176837"/>
    <nd ref="1122177310"/>
    <nd ref="1122177618"/>
    <tag k="addr:city" v="Зеленоград"/>
    <tag k="addr:country" v="RU"/>
    <tag k="addr:housenumber" v="33"/>
    <tag k="addr:region" v="Москва"/>
    <tag k="addr:street" v="улица Щербакова"/>
    <tag k="building" v="yes"/>
    <tag k="building:levels" v="1"/>
    <tag k="building:use" v="residential"/>
  </way>
  <way id="96845123" version="1" timestamp="2011-01-26T18:24:24Z" uid="115477" user="wowik" changeset="7096167">
    <nd ref="1122177475"/>
    <nd ref="1122178669"/>
    <nd ref="1122179038"/>
    <nd ref="1122178885"/>
    <nd ref="1122177475"/>
    <tag k="addr:city" v="Зеленоград"/>
    <tag k="addr:housenumber" v="30"/>
    <tag k="addr:street" v="улица Калинина"/>
    <tag k="building" v="yes"/>
    <tag k="building:levels" v="1"/>
    <tag k="building:use" v="residential"/>
    <tag k="is_in" v="Russia"/>
  </way>
  <way id="96845123" version="2" timestamp="2011-02-20T11:33:04Z" uid="115477" user="wowik" changeset="7341119">
    <nd ref="1122177475"/>
    <nd ref="1122178669"/>
    <nd ref="1122179038"/>
    <nd ref="1122178885"/>
    <nd ref="1122177475"/>
    <tag k="addr:city" v="Зеленоград"/>
    <tag k="addr:street" v="улица Калинина"/>
    <tag k="building" v="yes"/>
    <tag k="building:levels" v="1"/>
    <tag k="building:use" v="residential"/>
    <tag k="is_in" v="Russia"/>
  </way>
  <way id="96845123" version="3" timestamp="2011-09-13T10:38:44Z" uid="29320" user="Komяpa" changeset="9288237">
    <nd ref="1122177475"/>
    <nd ref="1122178669"/>
    <nd ref="1122179038"/>
    <nd ref="1122178885"/>
    <nd ref="1122177475"/>
    <tag k="addr:city" v="Зеленоград"/>
    <tag k="addr:country" v="RU"/>
    <tag k="addr:street" v="улица Калинина"/>
    <tag k="building" v="yes"/>
    <tag k="building:levels" v="1"/>
    <tag k="building:use" v="residential"/>
  </way>
  <way id="96845123" version="4" timestamp="2012-03-27T11:54:13Z" uid="481934" user="iWowik" changeset="11115472">
    <nd ref="1122177475"/>
    <nd ref="1122178669"/>
    <nd ref="1122179038"/>
    <nd ref="1122178885"/>
    <nd ref="1122177475"/>
    <tag k="addr:city" v="Зеленоград"/>
    <tag k="addr:country" v="RU"/>
    <tag k="addr:region" v="Москва"/>
    <tag k="addr:street" v="улица Калинина"/>
    <tag k="building" v="yes"/>
    <tag k="building:levels" v="1"/>
    <tag k="building:use" v="residential"/>
  </way>
  <way id="96845124" version="1" timestamp="2011-01-26T18:24:24Z" uid="115477" user="wowik" changeset="7096167">
    <nd ref="1122178633"/>
    <nd ref="1122177203"/>
    <nd ref="1122177587"/>
    <nd ref="1122178017"/>
    <nd ref="1122178633"/>
    <tag k="addr:city" v="Зеленоград"/>
    <tag k="addr:housenumber" v="48"/>
    <tag k="addr:street" v="улица Щербакова"/>
    <tag k="building" v="yes"/>
    <tag k="building:levels" v="1"/>
    <tag k="building:use" v="residential"/>
    <tag k="is_in" v="Russia"/>
  </way>
  <way id="96845124" version="2" timestamp="2011-09-13T10:27:15Z" uid="29320" user="Komяpa" changeset="9288237">
    <nd ref="1122178633"/>
    <nd ref="1122177203"/>
    <nd ref="1122177587"/>
    <nd ref="1122178017"/>
    <nd ref="1122178633"/>
    <tag k="addr:city" v="Зеленоград"/>
    <tag k="addr:country" v="RU"/>
    <tag k="addr:housenumber" v="48"/>
    <tag k="addr:street" v="улица Щербакова"/>
    <tag k="building" v="yes"/>
    <tag k="building:levels" v="1"/>
    <tag k="building:use" v="residential"/>
  </way>
  <way id="96845124" version="3" timestamp="2012-03-27T11:44:03Z" uid="481934" user="iWowik" changeset="11115472">
    <nd ref="1122178633"/>
    <nd ref="1122177203"/>
    <nd ref="1122177587"/>
    <nd ref="1122178017"/>
    <nd ref="1122178633"/>
    <tag k="addr:city" v="Зеленоград"/>
    <tag k="addr:country" v="RU"/>
    <tag k="addr:housenumber" v="48"/>
    <tag k="addr:region" v="Москва"/>
    <tag k="addr:street" v="улица Щербакова"/>
    <tag k="building" v="yes"/>
    <tag k="building:levels" v="1"/>
    <tag k="building:use" v="residential"/>
  </way>
  <way id="96845126" version="1" timestamp="2011-01-26T18:24:25Z" uid="115477" user="wowik" changeset="7096167">
    <nd ref="1122177927"/>
    <nd ref="1122179147"/>
    <nd ref="1122177241"/>
    <nd ref="1122177637"/>
    <nd ref="1122177487"/>
    <nd ref="1122177853"/>
    <nd ref="1122177927"/>
    <tag k="addr:city" v="Зеленоград"/>
    <tag k="addr:housenumber" v="52"/>
    <tag k="addr:street" v="улица Щербакова"/>
    <tag k="building" v="yes"/>
    <tag k="building:levels" v="1"/>
    <tag k="building:use" v="residential"/>
    <tag k="is_in" v="Russia"/>
  </way>
  <way id="96845126" version="2" timestamp="2011-09-13T10:27:37Z" uid="29320" user="Komяpa" changeset="9288237">
    <nd ref="1122177927"/>
    <nd ref="1122179147"/>
    <nd ref="1122177241"/>
    <nd ref="1122177637"/>
    <nd ref="1122177487"/>
    <nd ref="1122177853"/>
    <nd ref="1122177927"/>
    <tag k="addr:city" v="Зеленоград"/>
    <tag k="addr:country" v="RU"/>
    <tag k="addr:housenumber" v="52"/>
    <tag k="addr:street" v="улица Щербакова"/>
    <tag k="building" v="yes"/>
    <tag k="building:levels" v="1"/>
    <tag k="building:use" v="residential"/>
  </way>
  <way id="96845126" version="3" timestamp="2012-03-27T11:44:44Z" uid="481934" user="iWowik" changeset="11115472">
    <nd ref="1122177927"/>
    <nd ref="1122179147"/>
    <nd ref="1122177241"/>
    <nd ref="1122177637"/>
    <nd ref="1122177487"/>
    <nd ref="1122177853"/>
    <nd ref="1122177927"/>
    <tag k="addr:city" v="Зеленоград"/>
    <tag k="addr:country" v="RU"/>
    <tag k="addr:housenumber" v="52"/>
    <tag k="addr:region" v="Москва"/>
    <tag k="addr:street" v="улица Щербакова"/>
    <tag k="building" v="yes"/>
    <tag k="building:levels" v="1"/>
    <tag k="building:use" v="residential"/>
  </way>
  <way id="96845127" version="1" timestamp="2011-01-26T18:24:25Z" uid="115477" user="wowik" changeset="7096167">
    <nd ref="1122177837"/>
    <nd ref="1122178100"/>
    <nd ref="1122177004"/>
    <nd ref="1122177456"/>
    <nd ref="1122177837"/>
    <tag k="addr:city" v="Зеленоград"/>
    <tag k="addr:street" v="улица Щербакова"/>
    <tag k="building" v="yes"/>
    <tag k="building:levels" v="1"/>
    <tag k="is_in" v="Russia"/>
  </way>
  <way id="96845127" version="2" timestamp="2011-02-08T09:25:45Z" uid="115477" user="wowik" changeset="7224641">
    <nd ref="1122177837"/>
    <nd ref="1122178100"/>
    <nd ref="1122177004"/>
    <nd ref="1122177456"/>
    <nd ref="1122177837"/>
    <tag k="addr:city" v="Зеленоград"/>
    <tag k="building" v="yes"/>
    <tag k="building:levels" v="1"/>
    <tag k="is_in" v="Russia"/>
  </way>
  <way id="96845127" version="3" timestamp="2011-09-13T10:38:44Z" uid="29320" user="Komяpa" changeset="9288237">
    <nd ref="1122177837"/>
    <nd ref="1122178100"/>
    <nd ref="1122177004"/>
    <nd ref="1122177456"/>
    <nd ref="1122177837"/>
    <tag k="addr:city" v="Зеленоград"/>
    <tag k="addr:country" v="RU"/>
    <tag k="building" v="yes"/>
    <tag k="building:levels" v="1"/>
  </way>
  <way id="96845127" version="4" timestamp="2012-03-27T11:51:48Z" uid="481934" user="iWowik" changeset="11115472">
    <nd ref="1122177837"/>
    <nd ref="1122178100"/>
    <nd ref="1122177004"/>
    <nd ref="1122177456"/>
    <nd ref="1122177837"/>
    <tag k="addr:city" v="Зеленоград"/>
    <tag k="addr:country" v="RU"/>
    <tag k="addr:region" v="Москва"/>
    <tag k="building" v="yes"/>
    <tag k="building:levels" v="1"/>
  </way>
  <way id="96845128" version="1" timestamp="2011-01-26T18:24:25Z" uid="115477" user="wowik" changeset="7096167">
    <nd ref="1122177721"/>
    <nd ref="1122178987"/>
    <nd ref="1122177669"/>
    <nd ref="476390795"/>
    <nd ref="476391406"/>
    <nd ref="476390271"/>
    <nd ref="1122178513"/>
    <nd ref="1122178887"/>
    <nd ref="1122176875"/>
    <nd ref="1122177721"/>
    <tag k="building" v="yes"/>
    <tag k="building:levels" v="1"/>
    <tag k="shop" v="yes"/>
  </way>
  <way id="96845128" version="2" timestamp="2011-12-13T07:27:53Z" uid="126304" user="TarzanASG" changeset="10105192">
    <nd ref="1122177721"/>
    <nd ref="1122178987"/>
    <nd ref="1122177669"/>
    <nd ref="476390795"/>
    <nd ref="476391406"/>
    <nd ref="476390271"/>
    <nd ref="1122178513"/>
    <nd ref="1122178887"/>
    <nd ref="1122176875"/>
    <nd ref="1122177721"/>
    <tag k="building" v="retail"/>
    <tag k="building:levels" v="1"/>
    <tag k="shop" v="yes"/>
  </way>
  <way id="96845128" version="3" timestamp="2011-12-14T07:41:58Z" uid="143266" user="Sergey Astakhov" changeset="10113313">
    <nd ref="1122177721"/>
    <nd ref="1122178987"/>
    <nd ref="1122177669"/>
    <nd ref="476390795"/>
    <nd ref="476391406"/>
    <nd ref="476390271"/>
    <nd ref="1122178513"/>
    <nd ref="1122178887"/>
    <nd ref="1122176875"/>
    <nd ref="1122177721"/>
    <tag k="building" v="yes"/>
    <tag k="building:levels" v="1"/>
    <tag k="shop" v="yes"/>
  </way>
  <way id="96845128" version="4" timestamp="2012-03-27T11:55:56Z" uid="481934" user="iWowik" changeset="11115472">
    <nd ref="1122177721"/>
    <nd ref="1122178987"/>
    <nd ref="1122177669"/>
    <nd ref="476390795"/>
    <nd ref="476391406"/>
    <nd ref="476390271"/>
    <nd ref="1122178513"/>
    <nd ref="1122178887"/>
    <nd ref="1122176875"/>
    <nd ref="1122177721"/>
    <tag k="addr:city" v="Зеленоград"/>
    <tag k="addr:country" v="RU"/>
    <tag k="addr:region" v="Москва"/>
    <tag k="building" v="yes"/>
    <tag k="building:levels" v="1"/>
    <tag k="shop" v="yes"/>
  </way>
  <way id="96845130" version="1" timestamp="2011-01-26T18:24:26Z" uid="115477" user="wowik" changeset="7096167">
    <nd ref="1122178713"/>
    <nd ref="1122177286"/>
    <nd ref="1122177661"/>
    <nd ref="1122178073"/>
    <nd ref="1122178713"/>
    <tag k="addr:city" v="Зеленоград"/>
    <tag k="addr:housenumber" v="41"/>
    <tag k="addr:street" v="улица Щербакова"/>
    <tag k="building" v="yes"/>
    <tag k="building:levels" v="1"/>
    <tag k="building:use" v="residential"/>
    <tag k="is_in" v="Russia"/>
  </way>
  <way id="96845130" version="2" timestamp="2011-09-13T10:26:45Z" uid="29320" user="Komяpa" changeset="9288237">
    <nd ref="1122178713"/>
    <nd ref="1122177286"/>
    <nd ref="1122177661"/>
    <nd ref="1122178073"/>
    <nd ref="1122178713"/>
    <tag k="addr:city" v="Зеленоград"/>
    <tag k="addr:country" v="RU"/>
    <tag k="addr:housenumber" v="41"/>
    <tag k="addr:street" v="улица Щербакова"/>
    <tag k="building" v="yes"/>
    <tag k="building:levels" v="1"/>
    <tag k="building:use" v="residential"/>
  </way>
  <way id="96845130" version="3" timestamp="2012-03-27T11:43:05Z" uid="481934" user="iWowik" changeset="11115472">
    <nd ref="1122178713"/>
    <nd ref="1122177286"/>
    <nd ref="1122177661"/>
    <nd ref="1122178073"/>
    <nd ref="1122178713"/>
    <tag k="addr:city" v="Зеленоград"/>
    <tag k="addr:country" v="RU"/>
    <tag k="addr:housenumber" v="41"/>
    <tag k="addr:region" v="Москва"/>
    <tag k="addr:street" v="улица Щербакова"/>
    <tag k="building" v="yes"/>
    <tag k="building:levels" v="1"/>
    <tag k="building:use" v="residential"/>
  </way>
  <way id="96845131" version="1" timestamp="2011-01-26T18:24:26Z" uid="115477" user="wowik" changeset="7096167">
    <nd ref="1122178381"/>
    <nd ref="1122179058"/>
    <nd ref="1122178248"/>
    <nd ref="1122177135"/>
    <nd ref="1122178381"/>
    <tag k="addr:city" v="Зеленоград"/>
    <tag k="addr:housenumber" v="18 с?"/>
    <tag k="addr:street" v="Панфиловский проспект"/>
    <tag k="building" v="yes"/>
    <tag k="is_in" v="Russia"/>
  </way>
  <way id="96845131" version="2" timestamp="2011-09-13T10:23:44Z" uid="29320" user="Komяpa" changeset="9288237">
    <nd ref="1122178381"/>
    <nd ref="1122179058"/>
    <nd ref="1122178248"/>
    <nd ref="1122177135"/>
    <nd ref="1122178381"/>
    <tag k="addr:city" v="Зеленоград"/>
    <tag k="addr:country" v="RU"/>
    <tag k="addr:housenumber" v="18 с?"/>
    <tag k="addr:street" v="Панфиловский проспект"/>
    <tag k="building" v="yes"/>
  </way>
  <way id="96845131" version="3" timestamp="2012-03-27T11:38:01Z" uid="481934" user="iWowik" changeset="11115472">
    <nd ref="1122178381"/>
    <nd ref="1122179058"/>
    <nd ref="1122178248"/>
    <nd ref="1122177135"/>
    <nd ref="1122178381"/>
    <tag k="addr:city" v="Зеленоград"/>
    <tag k="addr:country" v="RU"/>
    <tag k="addr:housenumber" v="18 с?"/>
    <tag k="addr:region" v="Москва"/>
    <tag k="addr:street" v="Панфиловский проспект"/>
    <tag k="building" v="yes"/>
  </way>
  <way id="96845132" version="1" timestamp="2011-01-26T18:24:26Z" uid="115477" user="wowik" changeset="7096167">
    <nd ref="1122177474"/>
    <nd ref="1122178666"/>
    <nd ref="1122179029"/>
    <nd ref="1122178883"/>
    <nd ref="1122177474"/>
    <tag k="addr:city" v="Зеленоград"/>
    <tag k="addr:housenumber" v="26 с2А"/>
    <tag k="addr:street" v="улица Калинина"/>
    <tag k="building" v="yes"/>
    <tag k="building:levels" v="1"/>
    <tag k="building:use" v="residential"/>
    <tag k="is_in" v="Russia"/>
  </way>
  <way id="96845132" version="2" timestamp="2011-09-13T10:25:06Z" uid="29320" user="Komяpa" changeset="9288237">
    <nd ref="1122177474"/>
    <nd ref="1122178666"/>
    <nd ref="1122179029"/>
    <nd ref="1122178883"/>
    <nd ref="1122177474"/>
    <tag k="addr:city" v="Зеленоград"/>
    <tag k="addr:country" v="RU"/>
    <tag k="addr:housenumber" v="26 с2А"/>
    <tag k="addr:street" v="улица Калинина"/>
    <tag k="building" v="yes"/>
    <tag k="building:levels" v="1"/>
    <tag k="building:use" v="residential"/>
  </way>
  <way id="96845132" version="3" timestamp="2012-03-27T11:40:21Z" uid="481934" user="iWowik" changeset="11115472">
    <nd ref="1122177474"/>
    <nd ref="1122178666"/>
    <nd ref="1122179029"/>
    <nd ref="1122178883"/>
    <nd ref="1122177474"/>
    <tag k="addr:city" v="Зеленоград"/>
    <tag k="addr:country" v="RU"/>
    <tag k="addr:housenumber" v="26 с2А"/>
    <tag k="addr:region" v="Москва"/>
    <tag k="addr:street" v="улица Калинина"/>
    <tag k="building" v="yes"/>
    <tag k="building:levels" v="1"/>
    <tag k="building:use" v="residential"/>
  </way>
  <way id="96845133" version="1" timestamp="2011-01-26T18:24:27Z" uid="115477" user="wowik" changeset="7096167">
    <nd ref="1122177284"/>
    <nd ref="1122178534"/>
    <nd ref="1122178434"/>
    <nd ref="1122178727"/>
    <nd ref="1122177284"/>
    <tag k="addr:city" v="Зеленоград"/>
    <tag k="addr:housenumber" v="39"/>
    <tag k="addr:street" v="улица Калинина"/>
    <tag k="building" v="yes"/>
    <tag k="building:levels" v="1"/>
    <tag k="building:use" v="residential"/>
    <tag k="is_in" v="Russia"/>
  </way>
  <way id="96845133" version="2" timestamp="2011-09-13T10:26:20Z" uid="29320" user="Komяpa" changeset="9288237">
    <nd ref="1122177284"/>
    <nd ref="1122178534"/>
    <nd ref="1122178434"/>
    <nd ref="1122178727"/>
    <nd ref="1122177284"/>
    <tag k="addr:city" v="Зеленоград"/>
    <tag k="addr:country" v="RU"/>
    <tag k="addr:housenumber" v="39"/>
    <tag k="addr:street" v="улица Калинина"/>
    <tag k="building" v="yes"/>
    <tag k="building:levels" v="1"/>
    <tag k="building:use" v="residential"/>
  </way>
  <way id="96845133" version="3" timestamp="2012-03-27T11:42:25Z" uid="481934" user="iWowik" changeset="11115472">
    <nd ref="1122177284"/>
    <nd ref="1122178534"/>
    <nd ref="1122178434"/>
    <nd ref="1122178727"/>
    <nd ref="1122177284"/>
    <tag k="addr:city" v="Зеленоград"/>
    <tag k="addr:country" v="RU"/>
    <tag k="addr:housenumber" v="39"/>
    <tag k="addr:region" v="Москва"/>
    <tag k="addr:street" v="улица Калинина"/>
    <tag k="building" v="yes"/>
    <tag k="building:levels" v="1"/>
    <tag k="building:use" v="residential"/>
  </way>
  <way id="96845134" version="1" timestamp="2011-01-26T18:24:27Z" uid="115477" user="wowik" changeset="7096167">
    <nd ref="1122177663"/>
    <nd ref="1122178438"/>
    <nd ref="1122178740"/>
    <nd ref="1122179091"/>
    <nd ref="1122177199"/>
    <nd ref="1122176977"/>
    <nd ref="1122177450"/>
  </way>
  <way id="96845134" version="2" timestamp="2011-04-01T18:17:00Z" uid="115477" user="wowik" changeset="7737524">
    <nd ref="1122177663"/>
    <nd ref="1122178438"/>
    <nd ref="1122178740"/>
    <nd ref="1122179091"/>
    <nd ref="1122177199"/>
    <nd ref="1122176977"/>
    <nd ref="1122177450"/>
    <tag k="building" v="yes"/>
    <tag k="building:levels" v="1"/>
  </way>
  <way id="96845134" version="3" timestamp="2011-04-04T04:46:32Z" uid="70742" user="Ezhick" changeset="7760950">
    <nd ref="1122177450"/>
    <nd ref="1122178438"/>
    <nd ref="1122178740"/>
    <nd ref="1122179091"/>
    <nd ref="1122177199"/>
    <nd ref="1122176977"/>
    <nd ref="1122177450"/>
    <tag k="building" v="yes"/>
    <tag k="building:levels" v="1"/>
  </way>
  <way id="96845134" version="4" timestamp="2012-03-27T11:55:23Z" uid="481934" user="iWowik" changeset="11115472">
    <nd ref="1122177450"/>
    <nd ref="1122178438"/>
    <nd ref="1122178740"/>
    <nd ref="1122179091"/>
    <nd ref="1122177199"/>
    <nd ref="1122176977"/>
    <nd ref="1122177450"/>
    <tag k="addr:city" v="Зеленоград"/>
    <tag k="addr:country" v="RU"/>
    <tag k="addr:region" v="Москва"/>
    <tag k="building" v="yes"/>
    <tag k="building:levels" v="1"/>
  </way>
  <way id="96845135" version="1" timestamp="2011-01-26T18:24:27Z" uid="115477" user="wowik" changeset="7096167">
    <nd ref="1122178328"/>
    <nd ref="1122177270"/>
    <nd ref="1122178527"/>
    <nd ref="1122177643"/>
    <nd ref="1122178910"/>
    <nd ref="1122177494"/>
    <nd ref="1122178715"/>
    <nd ref="1122177859"/>
    <nd ref="1122179069"/>
    <nd ref="1122178265"/>
    <nd ref="1122177160"/>
    <nd ref="1122178328"/>
    <tag k="leisure" v="playground"/>
  </way>
  <way id="96845136" version="1" timestamp="2011-01-26T18:24:27Z" uid="115477" user="wowik" changeset="7096167">
    <nd ref="1122177610"/>
    <nd ref="1122178838"/>
    <nd ref="1122178658"/>
    <nd ref="1122179023"/>
    <nd ref="1122177610"/>
    <tag k="building" v="yes"/>
    <tag k="building:levels" v="1"/>
  </way>
  <way id="96845136" version="2" timestamp="2012-03-27T11:52:55Z" uid="481934" user="iWowik" changeset="11115472">
    <nd ref="1122177610"/>
    <nd ref="1122178838"/>
    <nd ref="1122178658"/>
    <nd ref="1122179023"/>
    <nd ref="1122177610"/>
    <tag k="addr:city" v="Зеленоград"/>
    <tag k="addr:country" v="RU"/>
    <tag k="addr:region" v="Москва"/>
    <tag k="building" v="yes"/>
    <tag k="building:levels" v="1"/>
  </way>
  <way id="96845138" version="1" timestamp="2011-01-26T18:24:28Z" uid="115477" user="wowik" changeset="7096167">
    <nd ref="1122177750"/>
    <nd ref="1122178471"/>
    <nd ref="1122178804"/>
    <nd ref="1122179164"/>
    <nd ref="1122177274"/>
    <nd ref="1122177056"/>
    <nd ref="1122177750"/>
    <tag k="addr:city" v="Зеленоград"/>
    <tag k="addr:housenumber" v="46"/>
    <tag k="addr:street" v="Панфиловский проспект"/>
    <tag k="building" v="yes"/>
    <tag k="building:levels" v="1"/>
    <tag k="building:use" v="residential"/>
    <tag k="is_in" v="Russia"/>
  </way>
  <way id="96845138" version="2" timestamp="2011-09-13T10:27:13Z" uid="29320" user="Komяpa" changeset="9288237">
    <nd ref="1122177750"/>
    <nd ref="1122178471"/>
    <nd ref="1122178804"/>
    <nd ref="1122179164"/>
    <nd ref="1122177274"/>
    <nd ref="1122177056"/>
    <nd ref="1122177750"/>
    <tag k="addr:city" v="Зеленоград"/>
    <tag k="addr:country" v="RU"/>
    <tag k="addr:housenumber" v="46"/>
    <tag k="addr:street" v="Панфиловский проспект"/>
    <tag k="building" v="yes"/>
    <tag k="building:levels" v="1"/>
    <tag k="building:use" v="residential"/>
  </way>
  <way id="96845138" version="3" timestamp="2012-03-27T11:44:01Z" uid="481934" user="iWowik" changeset="11115472">
    <nd ref="1122177750"/>
    <nd ref="1122178471"/>
    <nd ref="1122178804"/>
    <nd ref="1122179164"/>
    <nd ref="1122177274"/>
    <nd ref="1122177056"/>
    <nd ref="1122177750"/>
    <tag k="addr:city" v="Зеленоград"/>
    <tag k="addr:country" v="RU"/>
    <tag k="addr:housenumber" v="46"/>
    <tag k="addr:region" v="Москва"/>
    <tag k="addr:street" v="Панфиловский проспект"/>
    <tag k="building" v="yes"/>
    <tag k="building:levels" v="1"/>
    <tag k="building:use" v="residential"/>
  </way>
  <way id="96845139" version="1" timestamp="2011-01-26T18:24:28Z" uid="115477" user="wowik" changeset="7096167">
    <nd ref="1122177300"/>
    <nd ref="1122178552"/>
    <nd ref="1122178944"/>
    <nd ref="1122176961"/>
    <nd ref="1122177430"/>
    <nd ref="1122177202"/>
    <nd ref="1122177300"/>
    <tag k="addr:city" v="Зеленоград"/>
    <tag k="addr:housenumber" v="44"/>
    <tag k="addr:street" v="улица Щербакова"/>
    <tag k="building" v="yes"/>
    <tag k="building:levels" v="1"/>
    <tag k="building:use" v="residential"/>
    <tag k="is_in" v="Russia"/>
  </way>
  <way id="96845139" version="2" timestamp="2011-09-13T10:27:01Z" uid="29320" user="Komяpa" changeset="9288237">
    <nd ref="1122177300"/>
    <nd ref="1122178552"/>
    <nd ref="1122178944"/>
    <nd ref="1122176961"/>
    <nd ref="1122177430"/>
    <nd ref="1122177202"/>
    <nd ref="1122177300"/>
    <tag k="addr:city" v="Зеленоград"/>
    <tag k="addr:country" v="RU"/>
    <tag k="addr:housenumber" v="44"/>
    <tag k="addr:street" v="улица Щербакова"/>
    <tag k="building" v="yes"/>
    <tag k="building:levels" v="1"/>
    <tag k="building:use" v="residential"/>
  </way>
  <way id="96845139" version="3" timestamp="2012-03-27T11:43:38Z" uid="481934" user="iWowik" changeset="11115472">
    <nd ref="1122177300"/>
    <nd ref="1122178552"/>
    <nd ref="1122178944"/>
    <nd ref="1122176961"/>
    <nd ref="1122177430"/>
    <nd ref="1122177202"/>
    <nd ref="1122177300"/>
    <tag k="addr:city" v="Зеленоград"/>
    <tag k="addr:country" v="RU"/>
    <tag k="addr:housenumber" v="44"/>
    <tag k="addr:region" v="Москва"/>
    <tag k="addr:street" v="улица Щербакова"/>
    <tag k="building" v="yes"/>
    <tag k="building:levels" v="1"/>
    <tag k="building:use" v="residential"/>
  </way>
  <way id="96845140" version="1" timestamp="2011-01-26T18:24:28Z" uid="115477" user="wowik" changeset="7096167">
    <nd ref="1122177176"/>
    <nd ref="1122178094"/>
    <nd ref="1122178399"/>
    <nd ref="1122178635"/>
    <nd ref="1122179017"/>
    <nd ref="1122178836"/>
    <nd ref="1122176825"/>
    <nd ref="1122177304"/>
    <nd ref="1122177176"/>
    <tag k="addr:city" v="Зеленоград"/>
    <tag k="addr:housenumber" v="41"/>
    <tag k="addr:street" v="улица Калинина"/>
    <tag k="building" v="yes"/>
    <tag k="building:levels" v="1"/>
    <tag k="building:use" v="residential"/>
    <tag k="is_in" v="Russia"/>
  </way>
  <way id="96845140" version="2" timestamp="2011-09-13T10:26:45Z" uid="29320" user="Komяpa" changeset="9288237">
    <nd ref="1122177176"/>
    <nd ref="1122178094"/>
    <nd ref="1122178399"/>
    <nd ref="1122178635"/>
    <nd ref="1122179017"/>
    <nd ref="1122178836"/>
    <nd ref="1122176825"/>
    <nd ref="1122177304"/>
    <nd ref="1122177176"/>
    <tag k="addr:city" v="Зеленоград"/>
    <tag k="addr:country" v="RU"/>
    <tag k="addr:housenumber" v="41"/>
    <tag k="addr:street" v="улица Калинина"/>
    <tag k="building" v="yes"/>
    <tag k="building:levels" v="1"/>
    <tag k="building:use" v="residential"/>
  </way>
  <way id="96845140" version="3" timestamp="2012-03-27T11:43:05Z" uid="481934" user="iWowik" changeset="11115472">
    <nd ref="1122177176"/>
    <nd ref="1122178094"/>
    <nd ref="1122178399"/>
    <nd ref="1122178635"/>
    <nd ref="1122179017"/>
    <nd ref="1122178836"/>
    <nd ref="1122176825"/>
    <nd ref="1122177304"/>
    <nd ref="1122177176"/>
    <tag k="addr:city" v="Зеленоград"/>
    <tag k="addr:country" v="RU"/>
    <tag k="addr:housenumber" v="41"/>
    <tag k="addr:region" v="Москва"/>
    <tag k="addr:street" v="улица Калинина"/>
    <tag k="building" v="yes"/>
    <tag k="building:levels" v="1"/>
    <tag k="building:use" v="residential"/>
  </way>
  <way id="96845141" version="1" timestamp="2011-01-26T18:24:29Z" uid="115477" user="wowik" changeset="7096167">
    <nd ref="1122178300"/>
    <nd ref="1122177239"/>
    <nd ref="1122177026"/>
    <nd ref="1122177484"/>
    <nd ref="1122178300"/>
    <tag k="addr:city" v="Зеленоград"/>
    <tag k="addr:housenumber" v="23 сА"/>
    <tag k="addr:street" v="Рабочая улица"/>
    <tag k="building" v="yes"/>
    <tag k="building:levels" v="1"/>
    <tag k="building:use" v="residential"/>
    <tag k="is_in" v="Russia"/>
  </way>
  <way id="96845141" version="2" timestamp="2011-09-13T10:24:53Z" uid="29320" user="Komяpa" changeset="9288237">
    <nd ref="1122178300"/>
    <nd ref="1122177239"/>
    <nd ref="1122177026"/>
    <nd ref="1122177484"/>
    <nd ref="1122178300"/>
    <tag k="addr:city" v="Зеленоград"/>
    <tag k="addr:country" v="RU"/>
    <tag k="addr:housenumber" v="23 сА"/>
    <tag k="addr:street" v="Рабочая улица"/>
    <tag k="building" v="yes"/>
    <tag k="building:levels" v="1"/>
    <tag k="building:use" v="residential"/>
  </way>
  <way id="96845141" version="3" timestamp="2012-03-27T11:39:57Z" uid="481934" user="iWowik" changeset="11115472">
    <nd ref="1122178300"/>
    <nd ref="1122177239"/>
    <nd ref="1122177026"/>
    <nd ref="1122177484"/>
    <nd ref="1122178300"/>
    <tag k="addr:city" v="Зеленоград"/>
    <tag k="addr:country" v="RU"/>
    <tag k="addr:housenumber" v="23 сА"/>
    <tag k="addr:region" v="Москва"/>
    <tag k="addr:street" v="Рабочая улица"/>
    <tag k="building" v="yes"/>
    <tag k="building:levels" v="1"/>
    <tag k="building:use" v="residential"/>
  </way>
  <way id="96845142" version="1" timestamp="2011-01-26T18:24:29Z" uid="115477" user="wowik" changeset="7096167">
    <nd ref="1122177615"/>
    <nd ref="1122178854"/>
    <nd ref="1122176833"/>
    <nd ref="1122177307"/>
    <nd ref="1122177615"/>
    <tag k="addr:city" v="Зеленоград"/>
    <tag k="addr:street" v="улица Щербакова"/>
    <tag k="building" v="yes"/>
    <tag k="building:levels" v="1"/>
    <tag k="is_in" v="Russia"/>
  </way>
  <way id="96845142" version="2" timestamp="2011-02-08T09:25:45Z" uid="115477" user="wowik" changeset="7224641">
    <nd ref="1122177615"/>
    <nd ref="1122178854"/>
    <nd ref="1122176833"/>
    <nd ref="1122177307"/>
    <nd ref="1122177615"/>
    <tag k="addr:city" v="Зеленоград"/>
    <tag k="building" v="yes"/>
    <tag k="building:levels" v="1"/>
    <tag k="is_in" v="Russia"/>
  </way>
  <way id="96845142" version="3" timestamp="2011-09-13T10:38:44Z" uid="29320" user="Komяpa" changeset="9288237">
    <nd ref="1122177615"/>
    <nd ref="1122178854"/>
    <nd ref="1122176833"/>
    <nd ref="1122177307"/>
    <nd ref="1122177615"/>
    <tag k="addr:city" v="Зеленоград"/>
    <tag k="addr:country" v="RU"/>
    <tag k="building" v="yes"/>
    <tag k="building:levels" v="1"/>
  </way>
  <way id="96845142" version="4" timestamp="2012-03-27T11:51:20Z" uid="481934" user="iWowik" changeset="11115472">
    <nd ref="1122177615"/>
    <nd ref="1122178854"/>
    <nd ref="1122176833"/>
    <nd ref="1122177307"/>
    <nd ref="1122177615"/>
    <tag k="addr:city" v="Зеленоград"/>
    <tag k="addr:country" v="RU"/>
    <tag k="addr:region" v="Москва"/>
    <tag k="building" v="yes"/>
    <tag k="building:levels" v="1"/>
  </way>
  <way id="96845143" version="1" timestamp="2011-01-26T18:24:29Z" uid="115477" user="wowik" changeset="7096167">
    <nd ref="1122177527"/>
    <nd ref="1122178369"/>
    <nd ref="1122178581"/>
    <nd ref="1122178977"/>
    <nd ref="1122177527"/>
    <tag k="addr:city" v="Зеленоград"/>
    <tag k="addr:housenumber" v="37 сА"/>
    <tag k="addr:street" v="улица Калинина"/>
    <tag k="building" v="yes"/>
    <tag k="building:levels" v="1"/>
    <tag k="building:use" v="residential"/>
    <tag k="is_in" v="Russia"/>
  </way>
  <way id="96845143" version="2" timestamp="2011-09-13T10:26:18Z" uid="29320" user="Komяpa" changeset="9288237">
    <nd ref="1122177527"/>
    <nd ref="1122178369"/>
    <nd ref="1122178581"/>
    <nd ref="1122178977"/>
    <nd ref="1122177527"/>
    <tag k="addr:city" v="Зеленоград"/>
    <tag k="addr:country" v="RU"/>
    <tag k="addr:housenumber" v="37 сА"/>
    <tag k="addr:street" v="улица Калинина"/>
    <tag k="building" v="yes"/>
    <tag k="building:levels" v="1"/>
    <tag k="building:use" v="residential"/>
  </way>
  <way id="96845143" version="3" timestamp="2012-03-27T11:42:23Z" uid="481934" user="iWowik" changeset="11115472">
    <nd ref="1122177527"/>
    <nd ref="1122178369"/>
    <nd ref="1122178581"/>
    <nd ref="1122178977"/>
    <nd ref="1122177527"/>
    <tag k="addr:city" v="Зеленоград"/>
    <tag k="addr:country" v="RU"/>
    <tag k="addr:housenumber" v="37 сА"/>
    <tag k="addr:region" v="Москва"/>
    <tag k="addr:street" v="улица Калинина"/>
    <tag k="building" v="yes"/>
    <tag k="building:levels" v="1"/>
    <tag k="building:use" v="residential"/>
  </way>
  <way id="96845145" version="1" timestamp="2011-01-26T18:24:30Z" uid="6269" user="Mueck" changeset="7094659">
    <nd ref="1122179619"/>
    <nd ref="1122179649"/>
    <nd ref="267986105"/>
    <tag k="bicycle" v="designated"/>
    <tag k="foot" v="designated"/>
    <tag k="highway" v="path"/>
    <tag k="oneway" v="yes"/>
    <tag k="segregated" v="no"/>
  </way>
  <way id="96845145" version="2" timestamp="2011-01-26T18:59:40Z" uid="6269" user="Mueck" changeset="7094659">
    <nd ref="1122179619"/>
    <nd ref="1122179649"/>
    <nd ref="1122235324"/>
    <nd ref="1122235330"/>
    <nd ref="1122235336"/>
    <nd ref="1122235256"/>
    <nd ref="1122235208"/>
    <nd ref="1122235307"/>
    <nd ref="267986105"/>
    <tag k="bicycle" v="designated"/>
    <tag k="foot" v="designated"/>
    <tag k="highway" v="path"/>
    <tag k="oneway" v="yes"/>
    <tag k="segregated" v="no"/>
  </way>
  <way id="96845145" version="3" timestamp="2012-03-28T16:36:55Z" uid="35468" user="Blunauer" changeset="11128763">
    <nd ref="1122179619"/>
    <nd ref="1122179649"/>
    <nd ref="1122235324"/>
    <nd ref="1122235330"/>
    <nd ref="1122235336"/>
    <nd ref="1122235256"/>
    <nd ref="1122235208"/>
    <nd ref="1122235307"/>
    <nd ref="1694932508"/>
    <tag k="bicycle" v="designated"/>
    <tag k="foot" v="designated"/>
    <tag k="highway" v="path"/>
    <tag k="oneway" v="yes"/>
    <tag k="segregated" v="no"/>
  </way>
  <way id="96845145" version="4" timestamp="2012-03-30T18:28:13Z" uid="35468" user="Blunauer" changeset="11158549"/>
  <way id="96845146" version="1" timestamp="2011-01-26T18:24:30Z" uid="115477" user="wowik" changeset="7096167">
    <nd ref="1122178261"/>
    <nd ref="1122177137"/>
    <nd ref="1122177550"/>
    <nd ref="1122177406"/>
    <nd ref="1122178261"/>
    <tag k="addr:city" v="Зеленоград"/>
    <tag k="addr:housenumber" v="19"/>
    <tag k="addr:street" v="Рабочая улица"/>
    <tag k="building" v="yes"/>
    <tag k="building:levels" v="1"/>
    <tag k="building:use" v="residential"/>
    <tag k="is_in" v="Russia"/>
  </way>
  <way id="96845146" version="2" timestamp="2011-09-13T10:23:54Z" uid="29320" user="Komяpa" changeset="9288237">
    <nd ref="1122178261"/>
    <nd ref="1122177137"/>
    <nd ref="1122177550"/>
    <nd ref="1122177406"/>
    <nd ref="1122178261"/>
    <tag k="addr:city" v="Зеленоград"/>
    <tag k="addr:country" v="RU"/>
    <tag k="addr:housenumber" v="19"/>
    <tag k="addr:street" v="Рабочая улица"/>
    <tag k="building" v="yes"/>
    <tag k="building:levels" v="1"/>
    <tag k="building:use" v="residential"/>
  </way>
  <way id="96845146" version="3" timestamp="2012-03-27T11:38:18Z" uid="481934" user="iWowik" changeset="11115472">
    <nd ref="1122178261"/>
    <nd ref="1122177137"/>
    <nd ref="1122177550"/>
    <nd ref="1122177406"/>
    <nd ref="1122178261"/>
    <tag k="addr:city" v="Зеленоград"/>
    <tag k="addr:country" v="RU"/>
    <tag k="addr:housenumber" v="19"/>
    <tag k="addr:region" v="Москва"/>
    <tag k="addr:street" v="Рабочая улица"/>
    <tag k="building" v="yes"/>
    <tag k="building:levels" v="1"/>
    <tag k="building:use" v="residential"/>
  </way>
</osm>
