<?xml version='1.0' encoding='UTF-8'?>
<osm version="0.6" generator="libosmium/2.20.0">
  <way id="9687037" version="3" timestamp="2011-04-08T09:29:39Z" uid="20587" user="balrog-kun" changeset="7802356">
    <nd ref="53090200"/>
    <nd ref="53096368"/>
    <nd ref="1237053571"/>
    <nd ref="53126707"/>
    <nd ref="1237053761"/>
    <nd ref="1237053690"/>
    <nd ref="1237053719"/>
    <nd ref="53126711"/>
    <nd ref="1237053745"/>
    <nd ref="1237053740"/>
    <nd ref="1237053576"/>
    <nd ref="1237053750"/>
    <nd ref="76210674"/>
    <tag k="highway" v="residential"/>
    <tag k="name" v="54th Street"/>
    <tag k="tiger:cfcc" v="A41"/>
    <tag k="tiger:county" v="Alameda, CA"/>
    <tag k="tiger:name_base" v="54th"/>
    <tag k="tiger:name_type" v="St"/>
    <tag k="tiger:reviewed" v="no"/>
    <tag k="tiger:separated" v="no"/>
    <tag k="tiger:source" v="tiger_import_dch_v0.6_20070809"/>
    <tag k="tiger:tlid" v="124994527:124994550:124994561:125080420:124994934:124994529"/>
    <tag k="tiger:upload_uuid" v="bulk_upload.pl-9d5e179e-e488-4300-b71d-b0a82eacb273"/>
    <tag k="tiger:zip_left" v="94608"/>
    <tag k="tiger:zip_right" v="94608"/>
  </way>
  <way id="9687171" version="3" timestamp="2008-06-29T09:02:20Z" uid="5871" user="Banny" changeset="336062">
    <nd ref="26514996"/>
    <nd ref="26514973"/>
    <nd ref="26515060"/>
    <nd ref="26151762"/>
    <nd ref="26151764"/>
    <nd ref="26151766"/>
    <nd ref="26151768"/>
    <nd ref="26151770"/>
    <nd ref="26151772"/>
    <nd ref="26151774"/>
    <nd ref="26151777"/>
    <nd ref="26151779"/>
    <tag k="created_by" v="fixbot"/>
    <tag k="highway" v="trunk"/>
    <tag k="maxspeed" v="70"/>
    <tag k="name" v="Westtangente"/>
    <tag k="oneway" v="true"/>
    <tag k="ref" v="B56"/>
  </way>
  <way id="9687171" version="4" timestamp="2008-08-01T05:06:24Z" uid="18106" user="geltmar" changeset="4469">
    <nd ref="26514996"/>
    <nd ref="26514973"/>
    <nd ref="26515060"/>
    <nd ref="26151762"/>
    <nd ref="26151764"/>
    <nd ref="26151766"/>
    <nd ref="26151768"/>
    <nd ref="26151770"/>
    <nd ref="26151772"/>
    <nd ref="26151774"/>
    <nd ref="26151777"/>
    <nd ref="26151779"/>
    <tag k="created_by" v="Potlatch 0.10b"/>
    <tag k="highway" v="trunk"/>
    <tag k="maxspeed" v="70"/>
    <tag k="name" v="Westtangente"/>
    <tag k="oneway" v="yes"/>
    <tag k="ref" v="B56"/>
  </way>
  <way id="9687171" version="5" timestamp="2008-09-16T23:51:28Z" uid="31059" user="DaBear" changeset="653506">
    <nd ref="26514996"/>
    <nd ref="26514973"/>
    <nd ref="26515060"/>
    <nd ref="26151762"/>
    <nd ref="26151764"/>
    <nd ref="26151766"/>
    <nd ref="26151768"/>
    <nd ref="26151770"/>
    <nd ref="26151772"/>
    <nd ref="26151774"/>
    <nd ref="26151777"/>
    <nd ref="26151779"/>
    <tag k="created_by" v="Potlatch 0.10b"/>
    <tag k="highway" v="trunk"/>
    <tag k="maxspeed" v="70"/>
    <tag k="name" v="Westtangente"/>
    <tag k="oneway" v="yes"/>
    <tag k="ref" v="B 56"/>
  </way>
  <way id="9687171" version="6" timestamp="2009-10-22T16:13:20Z" uid="53152" user="Nils2501" changeset="2922883">
    <nd ref="26514996"/>
    <nd ref="26514973"/>
    <nd ref="26515060"/>
    <nd ref="26151762"/>
    <nd ref="26151764"/>
    <nd ref="26151766"/>
    <nd ref="26151768"/>
    <nd ref="26151770"/>
    <nd ref="26151772"/>
    <nd ref="26151774"/>
    <nd ref="26151777"/>
    <nd ref="26151779"/>
    <tag k="highway" v="trunk"/>
    <tag k="lanes" v="2"/>
    <tag k="maxspeed" v="70"/>
    <tag k="name" v="Westtangente"/>
    <tag k="oneway" v="yes"/>
    <tag k="ref" v="B 56"/>
  </way>
  <way id="9687171" version="7" timestamp="2012-01-03T13:18:04Z" uid="53152" user="Nils2501" changeset="10281149">
    <nd ref="26514996"/>
    <nd ref="26514973"/>
    <nd ref="26515060"/>
    <nd ref="26151762"/>
    <nd ref="26151764"/>
    <nd ref="26151766"/>
    <nd ref="26151768"/>
    <nd ref="1575468614"/>
    <nd ref="26151770"/>
    <nd ref="1575468619"/>
    <nd ref="26151772"/>
    <nd ref="1575468616"/>
    <nd ref="26151774"/>
    <nd ref="26151777"/>
    <nd ref="26151779"/>
    <tag k="highway" v="trunk"/>
    <tag k="lanes" v="2"/>
    <tag k="maxspeed" v="70"/>
    <tag k="name" v="Westtangente"/>
    <tag k="oneway" v="yes"/>
    <tag k="ref" v="B 56"/>
  </way>
  <way id="9687171" version="8" timestamp="2012-01-09T01:46:16Z" uid="6390" user="grenzdebil_bonn" changeset="10338555">
    <nd ref="26514996"/>
    <nd ref="26514973"/>
    <nd ref="1583429823"/>
    <nd ref="1583429869"/>
    <nd ref="1583429893"/>
    <nd ref="1583429896"/>
    <nd ref="1583429898"/>
    <nd ref="1575468614"/>
    <nd ref="26151770"/>
    <nd ref="1575468619"/>
    <nd ref="26151772"/>
    <nd ref="1575468616"/>
    <nd ref="26151774"/>
    <nd ref="26151777"/>
    <nd ref="1583429897"/>
    <nd ref="26151779"/>
    <tag k="highway" v="trunk"/>
    <tag k="lanes" v="2"/>
    <tag k="maxspeed" v="70"/>
    <tag k="name" v="Westtangente"/>
    <tag k="oneway" v="yes"/>
    <tag k="ref" v="B 56"/>
  </way>
  <way id="9687171" version="9" timestamp="2012-01-27T13:13:47Z" uid="263596" user="OberfÃ¶rster" changeset="10512111">
    <nd ref="26514996"/>
    <nd ref="26514973"/>
    <nd ref="1583429823"/>
    <nd ref="1583429869"/>
    <nd ref="1583429893"/>
    <nd ref="1583429896"/>
    <nd ref="1583429898"/>
    <nd ref="1575468614"/>
    <nd ref="26151770"/>
    <nd ref="1575468619"/>
    <nd ref="26151772"/>
    <nd ref="1575468616"/>
    <nd ref="26151774"/>
    <nd ref="26151777"/>
    <nd ref="1583429897"/>
    <nd ref="26151779"/>
    <tag k="highway" v="trunk"/>
    <tag k="lanes" v="2"/>
    <tag k="maxspeed" v="70"/>
    <tag k="motorroad" v="yes"/>
    <tag k="name" v="Westtangente"/>
    <tag k="oneway" v="yes"/>
    <tag k="ref" v="B 56"/>
  </way>
  <way id="9687171" version="10" timestamp="2012-01-29T02:06:14Z" uid="147510" user="woodpeck_fixbot" changeset="10526539">
    <nd ref="26514996"/>
    <nd ref="26514973"/>
    <nd ref="1583429823"/>
    <nd ref="1583429869"/>
    <nd ref="1583429893"/>
    <nd ref="1583429896"/>
    <nd ref="1583429898"/>
    <nd ref="1575468614"/>
    <nd ref="26151770"/>
    <nd ref="1575468619"/>
    <nd ref="26151772"/>
    <nd ref="1575468616"/>
    <nd ref="26151774"/>
    <nd ref="26151777"/>
    <nd ref="1583429897"/>
    <nd ref="26151779"/>
    <tag k="highway" v="trunk"/>
    <tag k="lanes" v="2"/>
    <tag k="maxspeed" v="70"/>
    <tag k="name" v="Westtangente"/>
    <tag k="oneway" v="yes"/>
    <tag k="ref" v="B 56"/>
  </way>
</osm>
