<?xml version='1.0' encoding='UTF-8'?>
<osm version="0.6" generator="libosmium/2.20.0">
  <way id="96899916" version="1" timestamp="2011-01-27T01:28:16Z" uid="4467" user="Rosscoe" changeset="7099703">
    <nd ref="1122846579"/>
    <nd ref="30766780"/>
    <tag k="bridge" v="yes"/>
    <tag k="highway" v="secondary"/>
    <tag k="lanes" v="4"/>
    <tag k="layer" v="1"/>
    <tag k="name" v="Barrack Street"/>
  </way>
  <way id="96899916" version="2" timestamp="2012-01-05T13:31:34Z" uid="142807" user="SDavies" changeset="10300844">
    <nd ref="1122846579"/>
    <nd ref="30766780"/>
    <tag k="bridge" v="yes"/>
    <tag k="highway" v="primary"/>
    <tag k="lanes" v="4"/>
    <tag k="layer" v="1"/>
    <tag k="name" v="Barrack Street"/>
  </way>
  <way id="96899917" version="1" timestamp="2011-01-27T01:28:16Z" uid="4467" user="Rosscoe" changeset="7099703">
    <nd ref="30762610"/>
    <nd ref="571166061"/>
    <nd ref="30762612"/>
    <nd ref="571166062"/>
    <nd ref="571166063"/>
    <nd ref="30762418"/>
    <nd ref="571166064"/>
    <nd ref="571166065"/>
    <nd ref="30762415"/>
    <nd ref="30762416"/>
    <nd ref="1122846565"/>
    <tag k="bridge" v="yes"/>
    <tag k="highway" v="secondary"/>
    <tag k="lanes" v="2"/>
    <tag k="layer" v="1"/>
    <tag k="name" v="Horse Shoe Bridge"/>
  </way>
  <way id="96899917" version="2" timestamp="2012-01-06T02:26:33Z" uid="192584" user="ORYX" changeset="10307517">
    <nd ref="310000997"/>
    <nd ref="571166060"/>
    <nd ref="30762610"/>
    <nd ref="571166061"/>
    <nd ref="30762612"/>
    <nd ref="571166062"/>
    <nd ref="571166063"/>
    <nd ref="30762418"/>
    <nd ref="571166064"/>
    <nd ref="571166065"/>
    <nd ref="30762415"/>
    <nd ref="30762416"/>
    <nd ref="1122846565"/>
    <nd ref="30762412"/>
    <nd ref="30762413"/>
    <tag k="bridge" v="yes"/>
    <tag k="highway" v="secondary"/>
    <tag k="lanes" v="2"/>
    <tag k="layer" v="1"/>
    <tag k="name" v="Horse Shoe Bridge"/>
  </way>
  <way id="96899917" version="3" timestamp="2012-01-09T18:29:50Z" uid="142807" user="SDavies" changeset="10344441">
    <nd ref="310000997"/>
    <nd ref="571166060"/>
    <nd ref="30762610"/>
    <nd ref="571166061"/>
    <nd ref="30762612"/>
    <nd ref="571166062"/>
    <nd ref="571166063"/>
    <nd ref="30762418"/>
    <nd ref="571166064"/>
    <nd ref="571166065"/>
    <nd ref="30762415"/>
    <nd ref="30762416"/>
    <nd ref="1122846565"/>
    <nd ref="30762412"/>
    <nd ref="30762413"/>
    <tag k="bridge" v="yes"/>
    <tag k="highway" v="primary"/>
    <tag k="lanes" v="2"/>
    <tag k="layer" v="1"/>
    <tag k="name" v="Horse Shoe Bridge"/>
  </way>
  <way id="96899917" version="4" timestamp="2012-02-05T10:15:34Z" uid="142807" user="SDavies" changeset="10591972">
    <nd ref="310000997"/>
    <nd ref="571166060"/>
    <nd ref="30762610"/>
    <nd ref="571166061"/>
    <nd ref="30762612"/>
    <nd ref="571166062"/>
    <nd ref="571166063"/>
    <nd ref="30762418"/>
    <nd ref="1618725066"/>
    <nd ref="571166064"/>
    <nd ref="1618725069"/>
    <nd ref="571166065"/>
    <nd ref="30762415"/>
    <nd ref="1618725062"/>
    <nd ref="1618725061"/>
    <nd ref="1618725060"/>
    <nd ref="30762416"/>
    <nd ref="1122846565"/>
    <nd ref="30762412"/>
    <nd ref="30762413"/>
    <tag k="bridge" v="yes"/>
    <tag k="highway" v="primary"/>
    <tag k="lanes" v="2"/>
    <tag k="layer" v="1"/>
    <tag k="name" v="Horse Shoe Bridge"/>
  </way>
  <way id="96899918" version="1" timestamp="2011-01-27T01:28:16Z" uid="4467" user="Rosscoe" changeset="7099703">
    <nd ref="30766780"/>
    <nd ref="30766781"/>
    <tag k="highway" v="secondary"/>
    <tag k="lanes" v="4"/>
    <tag k="name" v="Barrack Street"/>
  </way>
  <way id="96899918" version="2" timestamp="2012-01-05T13:31:35Z" uid="142807" user="SDavies" changeset="10300844">
    <nd ref="30766780"/>
    <nd ref="30766781"/>
    <tag k="highway" v="primary"/>
    <tag k="lanes" v="4"/>
    <tag k="name" v="Barrack Street"/>
  </way>
  <way id="96899918" version="3" timestamp="2012-01-28T13:01:08Z" uid="142807" user="SDavies" changeset="10520673">
    <nd ref="30766780"/>
    <nd ref="1608638118"/>
    <nd ref="30766781"/>
    <tag k="highway" v="primary"/>
    <tag k="lanes" v="4"/>
    <tag k="name" v="Barrack Street"/>
  </way>
  <way id="96899919" version="1" timestamp="2011-01-27T01:28:17Z" uid="4467" user="Rosscoe" changeset="7099703">
    <nd ref="1122846565"/>
    <nd ref="30762412"/>
    <nd ref="30762413"/>
    <tag k="highway" v="secondary"/>
    <tag k="lanes" v="2"/>
    <tag k="name" v="Horse Shoe Bridge"/>
  </way>
  <way id="96899919" version="2" timestamp="2012-01-06T02:26:42Z" uid="192584" user="ORYX" changeset="10307517"/>
</osm>
