<?xml version='1.0' encoding='UTF-8'?>
<osm version="0.6" generator="libosmium/2.20.0">
  <way id="97092109" version="1" timestamp="2011-01-28T13:36:23Z" uid="115477" user="wowik" changeset="7113030">
    <nd ref="1124841804"/>
    <nd ref="1124841963"/>
    <nd ref="1124841880"/>
    <nd ref="1124841795"/>
    <nd ref="1124841804"/>
    <tag k="leisure" v="pitch"/>
  </way>
  <way id="97092110" version="1" timestamp="2011-01-28T13:36:23Z" uid="115477" user="wowik" changeset="7113030">
    <nd ref="1124841904"/>
    <nd ref="1124841866"/>
    <nd ref="1124841972"/>
    <nd ref="1124841890"/>
    <nd ref="1124841806"/>
    <nd ref="1124841904"/>
    <tag k="barrier" v="wall"/>
  </way>
  <way id="97092110" version="2" timestamp="2011-03-29T10:16:36Z" uid="206282" user="Amigo" changeset="7705192">
    <nd ref="1124841904"/>
    <nd ref="1124841866"/>
    <nd ref="1124841972"/>
    <nd ref="1124841890"/>
    <nd ref="1124841806"/>
    <nd ref="1124841904"/>
    <tag k="addr:city" v="Зеленоград"/>
    <tag k="addr:housenumber" v="621Б"/>
    <tag k="addr:street" v="6-й Микрорайон"/>
    <tag k="amenity" v="sanatorium"/>
    <tag k="barrier" v="wall"/>
    <tag k="name" v="Нефрологический детский санаторий №67"/>
  </way>
  <way id="97092110" version="3" timestamp="2011-06-07T20:44:38Z" uid="133332" user="AMDmi3" changeset="8374030">
    <nd ref="1124841904"/>
    <nd ref="1124841866"/>
    <nd ref="1124841972"/>
    <nd ref="1124841890"/>
    <nd ref="1124841806"/>
    <nd ref="1124841904"/>
    <tag k="addr:city" v="Зеленоград"/>
    <tag k="addr:housenumber" v="621Б"/>
    <tag k="addr:street" v="6-й микрорайон"/>
    <tag k="amenity" v="sanatorium"/>
    <tag k="barrier" v="wall"/>
    <tag k="name" v="Нефрологический детский санаторий №67"/>
  </way>
  <way id="97092110" version="4" timestamp="2011-10-28T10:30:20Z" uid="481934" user="iWowik" changeset="9675133">
    <nd ref="1124841904"/>
    <nd ref="1124841866"/>
    <nd ref="1124841972"/>
    <nd ref="1124841890"/>
    <nd ref="1124841806"/>
    <nd ref="1124841904"/>
    <tag k="addr:city" v="Зеленоград"/>
    <tag k="addr:housenumber" v="621Б"/>
    <tag k="addr:street" v="6-й Микрорайон"/>
    <tag k="amenity" v="sanatorium"/>
    <tag k="barrier" v="wall"/>
    <tag k="name" v="Нефрологический детский санаторий №67"/>
  </way>
  <way id="97092110" version="5" timestamp="2011-11-14T20:34:32Z" uid="133332" user="AMDmi3" changeset="9828527">
    <nd ref="1124841904"/>
    <nd ref="1124841866"/>
    <nd ref="1124841972"/>
    <nd ref="1124841890"/>
    <nd ref="1124841806"/>
    <nd ref="1124841904"/>
    <tag k="addr:city" v="Зеленоград"/>
    <tag k="addr:housenumber" v="621Б"/>
    <tag k="addr:street" v="6-й микрорайон"/>
    <tag k="amenity" v="sanatorium"/>
    <tag k="barrier" v="wall"/>
    <tag k="name" v="Нефрологический детский санаторий №67"/>
  </way>
  <way id="97092110" version="6" timestamp="2012-03-27T11:47:39Z" uid="481934" user="iWowik" changeset="11115472">
    <nd ref="1124841904"/>
    <nd ref="1124841866"/>
    <nd ref="1124841972"/>
    <nd ref="1124841890"/>
    <nd ref="1124841806"/>
    <nd ref="1124841904"/>
    <tag k="addr:city" v="Зеленоград"/>
    <tag k="addr:country" v="RU"/>
    <tag k="addr:housenumber" v="621Б"/>
    <tag k="addr:region" v="Москва"/>
    <tag k="addr:street" v="6-й микрорайон"/>
    <tag k="amenity" v="sanatorium"/>
    <tag k="barrier" v="wall"/>
    <tag k="name" v="Нефрологический детский санаторий №67"/>
  </way>
  <way id="97092111" version="1" timestamp="2011-01-28T13:36:23Z" uid="115477" user="wowik" changeset="7113030">
    <nd ref="720957964"/>
    <nd ref="1124841798"/>
    <nd ref="720957950"/>
    <nd ref="720957959"/>
    <nd ref="1124841937"/>
    <nd ref="720957964"/>
    <tag k="natural" v="wood"/>
  </way>
  <way id="97092112" version="1" timestamp="2011-01-28T13:36:23Z" uid="115477" user="wowik" changeset="7113030">
    <nd ref="1124841938"/>
    <nd ref="306044381"/>
    <nd ref="612183000"/>
    <tag k="highway" v="footway"/>
    <tag k="living_street" v="yes"/>
    <tag k="motorcar" v="no"/>
    <tag k="name" v="7-й Микрорайон"/>
  </way>
  <way id="97092112" version="2" timestamp="2011-06-07T20:44:33Z" uid="133332" user="AMDmi3" changeset="8374030">
    <nd ref="1124841938"/>
    <nd ref="306044381"/>
    <nd ref="612183000"/>
    <tag k="highway" v="footway"/>
    <tag k="living_street" v="yes"/>
    <tag k="motorcar" v="no"/>
    <tag k="name" v="7-й микрорайон"/>
  </way>
  <way id="97092113" version="1" timestamp="2011-01-28T13:36:24Z" uid="115477" user="wowik" changeset="7113030">
    <nd ref="1124841865"/>
    <nd ref="1124841817"/>
    <nd ref="1124841935"/>
    <nd ref="1124841852"/>
    <nd ref="1124841865"/>
    <tag k="addr:city" v="Зеленоград"/>
    <tag k="addr:housenumber" v="349А с2"/>
    <tag k="addr:postcode" v="124482"/>
    <tag k="addr:street" v="3-й Микрорайон"/>
    <tag k="building" v="yes"/>
    <tag k="building:levels" v="1"/>
    <tag k="is_in" v="Russia"/>
    <tag k="landuse" v="service"/>
  </way>
  <way id="97092113" version="2" timestamp="2011-06-07T20:44:33Z" uid="133332" user="AMDmi3" changeset="8374030">
    <nd ref="1124841865"/>
    <nd ref="1124841817"/>
    <nd ref="1124841935"/>
    <nd ref="1124841852"/>
    <nd ref="1124841865"/>
    <tag k="addr:city" v="Зеленоград"/>
    <tag k="addr:housenumber" v="349А с2"/>
    <tag k="addr:postcode" v="124482"/>
    <tag k="addr:street" v="3-й микрорайон"/>
    <tag k="building" v="yes"/>
    <tag k="building:levels" v="1"/>
    <tag k="is_in" v="Russia"/>
    <tag k="landuse" v="service"/>
  </way>
  <way id="97092113" version="3" timestamp="2011-09-13T10:26:06Z" uid="29320" user="Komяpa" changeset="9288237">
    <nd ref="1124841865"/>
    <nd ref="1124841817"/>
    <nd ref="1124841935"/>
    <nd ref="1124841852"/>
    <nd ref="1124841865"/>
    <tag k="addr:city" v="Зеленоград"/>
    <tag k="addr:country" v="RU"/>
    <tag k="addr:housenumber" v="349А с2"/>
    <tag k="addr:postcode" v="124482"/>
    <tag k="addr:street" v="3-й микрорайон"/>
    <tag k="building" v="service"/>
    <tag k="building:levels" v="1"/>
  </way>
  <way id="97092113" version="4" timestamp="2011-10-28T10:30:01Z" uid="481934" user="iWowik" changeset="9675133">
    <nd ref="1124841865"/>
    <nd ref="1124841817"/>
    <nd ref="1124841935"/>
    <nd ref="1124841852"/>
    <nd ref="1124841865"/>
    <tag k="addr:city" v="Зеленоград"/>
    <tag k="addr:country" v="RU"/>
    <tag k="addr:housenumber" v="349А с2"/>
    <tag k="addr:postcode" v="124482"/>
    <tag k="addr:street" v="3-й Микрорайон"/>
    <tag k="building" v="service"/>
    <tag k="building:levels" v="1"/>
  </way>
  <way id="97092113" version="5" timestamp="2011-11-14T20:32:55Z" uid="133332" user="AMDmi3" changeset="9828527">
    <nd ref="1124841865"/>
    <nd ref="1124841817"/>
    <nd ref="1124841935"/>
    <nd ref="1124841852"/>
    <nd ref="1124841865"/>
    <tag k="addr:city" v="Зеленоград"/>
    <tag k="addr:country" v="RU"/>
    <tag k="addr:housenumber" v="349А с2"/>
    <tag k="addr:postcode" v="124482"/>
    <tag k="addr:street" v="3-й микрорайон"/>
    <tag k="building" v="service"/>
    <tag k="building:levels" v="1"/>
  </way>
  <way id="97092113" version="6" timestamp="2012-03-27T11:42:08Z" uid="481934" user="iWowik" changeset="11115472">
    <nd ref="1124841865"/>
    <nd ref="1124841817"/>
    <nd ref="1124841935"/>
    <nd ref="1124841852"/>
    <nd ref="1124841865"/>
    <tag k="addr:city" v="Зеленоград"/>
    <tag k="addr:country" v="RU"/>
    <tag k="addr:housenumber" v="349А с2"/>
    <tag k="addr:postcode" v="124482"/>
    <tag k="addr:region" v="Москва"/>
    <tag k="addr:street" v="3-й микрорайон"/>
    <tag k="building" v="service"/>
    <tag k="building:levels" v="1"/>
  </way>
  <way id="97092114" version="1" timestamp="2011-01-28T13:36:24Z" uid="115477" user="wowik" changeset="7113030">
    <nd ref="612187704"/>
    <nd ref="612183000"/>
    <nd ref="612183004"/>
    <nd ref="612183006"/>
    <nd ref="612183009"/>
    <nd ref="612183013"/>
    <nd ref="612183015"/>
    <tag k="highway" v="footway"/>
    <tag k="motorcar" v="no"/>
  </way>
  <way id="97092115" version="1" timestamp="2011-01-28T13:36:24Z" uid="115477" user="wowik" changeset="7113030">
    <nd ref="1124841875"/>
    <nd ref="1124841831"/>
    <nd ref="1124841947"/>
    <nd ref="1124841842"/>
    <nd ref="1124841808"/>
    <nd ref="1124841928"/>
    <nd ref="1124841875"/>
    <tag k="barrier" v="wall"/>
  </way>
  <way id="97092115" version="2" timestamp="2011-03-29T10:15:30Z" uid="206282" user="Amigo" changeset="7705192">
    <nd ref="1124841875"/>
    <nd ref="1124841831"/>
    <nd ref="1124841947"/>
    <nd ref="1124841842"/>
    <nd ref="1124841808"/>
    <nd ref="1124841928"/>
    <nd ref="1124841875"/>
    <tag k="addr:city" v="Зеленоград"/>
    <tag k="addr:housenumber" v="603Б"/>
    <tag k="addr:street" v="6-й Микрорайон"/>
    <tag k="amenity" v="kindergarten"/>
    <tag k="barrier" v="wall"/>
    <tag k="name" v="Детский сад №2048"/>
  </way>
  <way id="97092115" version="3" timestamp="2011-06-07T20:44:33Z" uid="133332" user="AMDmi3" changeset="8374030">
    <nd ref="1124841875"/>
    <nd ref="1124841831"/>
    <nd ref="1124841947"/>
    <nd ref="1124841842"/>
    <nd ref="1124841808"/>
    <nd ref="1124841928"/>
    <nd ref="1124841875"/>
    <tag k="addr:city" v="Зеленоград"/>
    <tag k="addr:housenumber" v="603Б"/>
    <tag k="addr:street" v="6-й микрорайон"/>
    <tag k="amenity" v="kindergarten"/>
    <tag k="barrier" v="wall"/>
    <tag k="name" v="Детский сад №2048"/>
  </way>
  <way id="97092115" version="4" timestamp="2011-10-28T10:29:41Z" uid="481934" user="iWowik" changeset="9675133">
    <nd ref="1124841875"/>
    <nd ref="1124841831"/>
    <nd ref="1124841947"/>
    <nd ref="1124841842"/>
    <nd ref="1124841808"/>
    <nd ref="1124841928"/>
    <nd ref="1124841875"/>
    <tag k="addr:city" v="Зеленоград"/>
    <tag k="addr:housenumber" v="603Б"/>
    <tag k="addr:street" v="6-й Микрорайон"/>
    <tag k="amenity" v="kindergarten"/>
    <tag k="barrier" v="wall"/>
    <tag k="name" v="Детский сад №2048"/>
  </way>
  <way id="97092115" version="5" timestamp="2011-11-14T20:34:14Z" uid="133332" user="AMDmi3" changeset="9828527">
    <nd ref="1124841875"/>
    <nd ref="1124841831"/>
    <nd ref="1124841947"/>
    <nd ref="1124841842"/>
    <nd ref="1124841808"/>
    <nd ref="1124841928"/>
    <nd ref="1124841875"/>
    <tag k="addr:city" v="Зеленоград"/>
    <tag k="addr:housenumber" v="603Б"/>
    <tag k="addr:street" v="6-й микрорайон"/>
    <tag k="amenity" v="kindergarten"/>
    <tag k="barrier" v="wall"/>
    <tag k="name" v="Детский сад №2048"/>
  </way>
  <way id="97092115" version="6" timestamp="2012-03-27T11:32:12Z" uid="481934" user="iWowik" changeset="11115472">
    <nd ref="1124841875"/>
    <nd ref="1124841831"/>
    <nd ref="1124841947"/>
    <nd ref="1124841842"/>
    <nd ref="1124841808"/>
    <nd ref="1124841928"/>
    <nd ref="1124841875"/>
    <tag k="addr:city" v="Зеленоград"/>
    <tag k="addr:country" v="RU"/>
    <tag k="addr:housenumber" v="603Б"/>
    <tag k="addr:region" v="Москва"/>
    <tag k="addr:street" v="6-й микрорайон"/>
    <tag k="amenity" v="kindergarten"/>
    <tag k="barrier" v="wall"/>
    <tag k="name" v="Детский сад №2048"/>
  </way>
  <way id="97092116" version="1" timestamp="2011-01-28T13:36:24Z" uid="115477" user="wowik" changeset="7113030">
    <nd ref="1124841897"/>
    <nd ref="1124841857"/>
    <nd ref="1124841849"/>
    <nd ref="1124841960"/>
    <nd ref="1124841878"/>
    <nd ref="1124841792"/>
    <nd ref="1124841980"/>
    <nd ref="1124841902"/>
    <nd ref="1124841813"/>
    <nd ref="1124841932"/>
    <nd ref="1124841924"/>
    <nd ref="1124841897"/>
    <tag k="building" v="w"/>
  </way>
  <way id="97092116" version="2" timestamp="2011-02-18T20:58:28Z" uid="206282" user="Amigo" changeset="7326405">
    <nd ref="1124841897"/>
    <nd ref="1124841857"/>
    <nd ref="1124841849"/>
    <nd ref="1124841960"/>
    <nd ref="1124841878"/>
    <nd ref="1124841792"/>
    <nd ref="1124841980"/>
    <nd ref="1124841902"/>
    <nd ref="1124841813"/>
    <nd ref="1124841932"/>
    <nd ref="1124841924"/>
    <nd ref="1124841897"/>
    <tag k="barrier" v="fence"/>
  </way>
  <way id="97092117" version="1" timestamp="2011-01-28T13:36:24Z" uid="115477" user="wowik" changeset="7113030">
    <nd ref="1124841854"/>
    <nd ref="1124841887"/>
    <nd ref="1124841802"/>
    <nd ref="1124841918"/>
    <nd ref="1124841836"/>
    <nd ref="1124841827"/>
    <nd ref="1124841942"/>
    <nd ref="1124841860"/>
    <nd ref="1124841969"/>
    <nd ref="1124841854"/>
    <tag k="barrier" v="wall"/>
  </way>
  <way id="97092117" version="2" timestamp="2011-03-29T10:15:30Z" uid="206282" user="Amigo" changeset="7705192">
    <nd ref="1124841854"/>
    <nd ref="1124841887"/>
    <nd ref="1124841802"/>
    <nd ref="1124841918"/>
    <nd ref="1124841836"/>
    <nd ref="1124841827"/>
    <nd ref="1124841942"/>
    <nd ref="1124841860"/>
    <nd ref="1124841969"/>
    <nd ref="1124841854"/>
    <tag k="addr:city" v="Зеленоград"/>
    <tag k="addr:housenumber" v="621А"/>
    <tag k="addr:street" v="6-й Микрорайон"/>
    <tag k="amenity" v="school"/>
    <tag k="barrier" v="wall"/>
    <tag k="name" v="Школа №616"/>
  </way>
  <way id="97092117" version="3" timestamp="2011-06-07T20:44:31Z" uid="133332" user="AMDmi3" changeset="8374030">
    <nd ref="1124841854"/>
    <nd ref="1124841887"/>
    <nd ref="1124841802"/>
    <nd ref="1124841918"/>
    <nd ref="1124841836"/>
    <nd ref="1124841827"/>
    <nd ref="1124841942"/>
    <nd ref="1124841860"/>
    <nd ref="1124841969"/>
    <nd ref="1124841854"/>
    <tag k="addr:city" v="Зеленоград"/>
    <tag k="addr:housenumber" v="621А"/>
    <tag k="addr:street" v="6-й микрорайон"/>
    <tag k="amenity" v="school"/>
    <tag k="barrier" v="wall"/>
    <tag k="name" v="Школа №616"/>
  </way>
  <way id="97092117" version="4" timestamp="2011-07-20T12:23:45Z" uid="465700" user="Tomasina" changeset="8778120">
    <nd ref="1124841854"/>
    <nd ref="1124841887"/>
    <nd ref="1124841827"/>
    <nd ref="1124841942"/>
    <nd ref="1124841860"/>
    <nd ref="1124841969"/>
    <nd ref="1124841854"/>
    <tag k="addr:city" v="Зеленоград"/>
    <tag k="addr:housenumber" v="621А"/>
    <tag k="addr:street" v="6-й микрорайон"/>
    <tag k="amenity" v="school"/>
    <tag k="barrier" v="wall"/>
    <tag k="name" v="Школа №616"/>
  </way>
  <way id="97092117" version="5" timestamp="2011-07-28T08:45:52Z" uid="465700" user="Tomasina" changeset="8852282">
    <nd ref="1124841854"/>
    <nd ref="1124841887"/>
    <nd ref="1376527434"/>
    <nd ref="1124841827"/>
    <nd ref="1124841942"/>
    <nd ref="1124841860"/>
    <nd ref="1124841969"/>
    <nd ref="1124841854"/>
    <tag k="addr:city" v="Зеленоград"/>
    <tag k="addr:housenumber" v="621А"/>
    <tag k="addr:street" v="6-й микрорайон"/>
    <tag k="amenity" v="school"/>
    <tag k="barrier" v="wall"/>
    <tag k="name" v="Школа №616"/>
  </way>
  <way id="97092117" version="6" timestamp="2011-10-28T10:30:21Z" uid="481934" user="iWowik" changeset="9675133">
    <nd ref="1124841854"/>
    <nd ref="1124841887"/>
    <nd ref="1376527434"/>
    <nd ref="1124841827"/>
    <nd ref="1124841942"/>
    <nd ref="1124841860"/>
    <nd ref="1124841969"/>
    <nd ref="1124841854"/>
    <tag k="addr:city" v="Зеленоград"/>
    <tag k="addr:housenumber" v="621А"/>
    <tag k="addr:street" v="6-й Микрорайон"/>
    <tag k="amenity" v="school"/>
    <tag k="barrier" v="wall"/>
    <tag k="name" v="Школа №616"/>
  </way>
  <way id="97092117" version="7" timestamp="2011-11-14T20:35:08Z" uid="133332" user="AMDmi3" changeset="9828527">
    <nd ref="1124841854"/>
    <nd ref="1124841887"/>
    <nd ref="1376527434"/>
    <nd ref="1124841827"/>
    <nd ref="1124841942"/>
    <nd ref="1124841860"/>
    <nd ref="1124841969"/>
    <nd ref="1124841854"/>
    <tag k="addr:city" v="Зеленоград"/>
    <tag k="addr:housenumber" v="621А"/>
    <tag k="addr:street" v="6-й микрорайон"/>
    <tag k="amenity" v="school"/>
    <tag k="barrier" v="wall"/>
    <tag k="name" v="Школа №616"/>
  </way>
  <way id="97092117" version="8" timestamp="2012-03-27T11:48:27Z" uid="481934" user="iWowik" changeset="11115472">
    <nd ref="1124841854"/>
    <nd ref="1124841887"/>
    <nd ref="1376527434"/>
    <nd ref="1124841827"/>
    <nd ref="1124841942"/>
    <nd ref="1124841860"/>
    <nd ref="1124841969"/>
    <nd ref="1124841854"/>
    <tag k="addr:city" v="Зеленоград"/>
    <tag k="addr:country" v="RU"/>
    <tag k="addr:housenumber" v="621А"/>
    <tag k="addr:region" v="Москва"/>
    <tag k="addr:street" v="6-й микрорайон"/>
    <tag k="amenity" v="school"/>
    <tag k="barrier" v="wall"/>
    <tag k="name" v="Школа №616"/>
  </way>
  <way id="97092118" version="1" timestamp="2011-01-28T13:36:25Z" uid="115477" user="wowik" changeset="7113030">
    <nd ref="1124841833"/>
    <nd ref="1124841982"/>
    <nd ref="1124841905"/>
    <nd ref="1124841819"/>
    <nd ref="1124841809"/>
    <nd ref="1124841929"/>
    <nd ref="1124841847"/>
    <nd ref="1124841956"/>
    <nd ref="1124841951"/>
    <nd ref="1124841871"/>
    <nd ref="1124841977"/>
    <nd ref="1124841899"/>
    <nd ref="1124841833"/>
    <tag k="barrier" v="wall"/>
  </way>
  <way id="97092118" version="2" timestamp="2011-03-29T10:13:50Z" uid="206282" user="Amigo" changeset="7705192">
    <nd ref="1124841833"/>
    <nd ref="1124841982"/>
    <nd ref="1124841905"/>
    <nd ref="1124841819"/>
    <nd ref="1124841809"/>
    <nd ref="1124841929"/>
    <nd ref="1124841847"/>
    <nd ref="1124841956"/>
    <nd ref="1124841951"/>
    <nd ref="1124841871"/>
    <nd ref="1124841977"/>
    <nd ref="1124841899"/>
    <nd ref="1124841833"/>
    <tag k="addr:city" v="Зеленоград"/>
    <tag k="addr:housenumber" v="603А"/>
    <tag k="addr:street" v="6-й Микрорайон"/>
    <tag k="amenity" v="school"/>
    <tag k="barrier" v="wall"/>
    <tag k="name" v="Школа №854"/>
  </way>
  <way id="97092118" version="3" timestamp="2011-06-07T20:44:32Z" uid="133332" user="AMDmi3" changeset="8374030">
    <nd ref="1124841833"/>
    <nd ref="1124841982"/>
    <nd ref="1124841905"/>
    <nd ref="1124841819"/>
    <nd ref="1124841809"/>
    <nd ref="1124841929"/>
    <nd ref="1124841847"/>
    <nd ref="1124841956"/>
    <nd ref="1124841951"/>
    <nd ref="1124841871"/>
    <nd ref="1124841977"/>
    <nd ref="1124841899"/>
    <nd ref="1124841833"/>
    <tag k="addr:city" v="Зеленоград"/>
    <tag k="addr:housenumber" v="603А"/>
    <tag k="addr:street" v="6-й микрорайон"/>
    <tag k="amenity" v="school"/>
    <tag k="barrier" v="wall"/>
    <tag k="name" v="Школа №854"/>
  </way>
  <way id="97092118" version="4" timestamp="2011-10-28T10:30:22Z" uid="481934" user="iWowik" changeset="9675133">
    <nd ref="1124841833"/>
    <nd ref="1124841982"/>
    <nd ref="1124841905"/>
    <nd ref="1124841819"/>
    <nd ref="1124841809"/>
    <nd ref="1124841929"/>
    <nd ref="1124841847"/>
    <nd ref="1124841956"/>
    <nd ref="1124841951"/>
    <nd ref="1124841871"/>
    <nd ref="1124841977"/>
    <nd ref="1124841899"/>
    <nd ref="1124841833"/>
    <tag k="addr:city" v="Зеленоград"/>
    <tag k="addr:housenumber" v="603А"/>
    <tag k="addr:street" v="6-й Микрорайон"/>
    <tag k="amenity" v="school"/>
    <tag k="barrier" v="wall"/>
    <tag k="name" v="Школа №854"/>
  </way>
  <way id="97092118" version="5" timestamp="2011-11-14T20:35:10Z" uid="133332" user="AMDmi3" changeset="9828527">
    <nd ref="1124841833"/>
    <nd ref="1124841982"/>
    <nd ref="1124841905"/>
    <nd ref="1124841819"/>
    <nd ref="1124841809"/>
    <nd ref="1124841929"/>
    <nd ref="1124841847"/>
    <nd ref="1124841956"/>
    <nd ref="1124841951"/>
    <nd ref="1124841871"/>
    <nd ref="1124841977"/>
    <nd ref="1124841899"/>
    <nd ref="1124841833"/>
    <tag k="addr:city" v="Зеленоград"/>
    <tag k="addr:housenumber" v="603А"/>
    <tag k="addr:street" v="6-й микрорайон"/>
    <tag k="amenity" v="school"/>
    <tag k="barrier" v="wall"/>
    <tag k="name" v="Школа №854"/>
  </way>
  <way id="97092118" version="6" timestamp="2012-03-27T11:48:33Z" uid="481934" user="iWowik" changeset="11115472">
    <nd ref="1124841833"/>
    <nd ref="1124841982"/>
    <nd ref="1124841905"/>
    <nd ref="1124841819"/>
    <nd ref="1124841809"/>
    <nd ref="1124841929"/>
    <nd ref="1124841847"/>
    <nd ref="1124841956"/>
    <nd ref="1124841951"/>
    <nd ref="1124841871"/>
    <nd ref="1124841977"/>
    <nd ref="1124841899"/>
    <nd ref="1124841833"/>
    <tag k="addr:city" v="Зеленоград"/>
    <tag k="addr:country" v="RU"/>
    <tag k="addr:housenumber" v="603А"/>
    <tag k="addr:region" v="Москва"/>
    <tag k="addr:street" v="6-й микрорайон"/>
    <tag k="amenity" v="school"/>
    <tag k="barrier" v="wall"/>
    <tag k="name" v="Школа №854"/>
  </way>
  <way id="97092119" version="1" timestamp="2011-01-28T13:36:25Z" uid="115477" user="wowik" changeset="7113030">
    <nd ref="306042077"/>
    <nd ref="612187704"/>
    <tag k="highway" v="service"/>
    <tag k="living_street" v="yes"/>
  </way>
</osm>
