<?xml version='1.0' encoding='UTF-8'?>
<osm version="0.6" generator="libosmium/2.20.0">
  <way id="97235507" version="1" timestamp="2011-01-29T16:08:14Z" uid="115477" user="wowik" changeset="7123769">
    <nd ref="1126341444"/>
    <nd ref="1126341440"/>
    <nd ref="939957277"/>
    <tag k="bicycle" v="yes"/>
    <tag k="foot" v="yes"/>
    <tag k="highway" v="footway"/>
    <tag k="motorcar" v="no"/>
    <tag k="surface" v="paved"/>
  </way>
  <way id="97235507" version="2" timestamp="2011-10-27T20:09:38Z" uid="518169" user="kosatov" changeset="9671439">
    <nd ref="1482699382"/>
    <nd ref="1126341444"/>
    <nd ref="1126341440"/>
    <nd ref="939957277"/>
    <tag k="bicycle" v="yes"/>
    <tag k="foot" v="yes"/>
    <tag k="highway" v="footway"/>
    <tag k="motorcar" v="no"/>
    <tag k="surface" v="paved"/>
  </way>
  <way id="97235508" version="1" timestamp="2011-01-29T16:08:14Z" uid="115477" user="wowik" changeset="7123769">
    <nd ref="1126341445"/>
    <nd ref="1126341441"/>
    <nd ref="1126341439"/>
    <nd ref="1126341443"/>
    <nd ref="1126341445"/>
    <tag k="addr:city" v="Зеленоград"/>
    <tag k="addr:housenumber" v="24 с1?"/>
    <tag k="addr:street" v="Панфиловский проспект"/>
    <tag k="building" v="yes"/>
    <tag k="building:levels" v="1"/>
    <tag k="is_in" v="Russia"/>
    <tag k="note" v="addr:housemunber неточен"/>
  </way>
  <way id="97235508" version="2" timestamp="2011-02-02T17:44:25Z" uid="115477" user="wowik" changeset="7166738">
    <nd ref="1126341445"/>
    <nd ref="1126341441"/>
    <nd ref="1126341439"/>
    <nd ref="1126341443"/>
    <nd ref="1126341445"/>
    <tag k="addr:city" v="Зеленоград"/>
    <tag k="addr:housenumber" v="24 с1?"/>
    <tag k="addr:street" v="Панфиловский проспект"/>
    <tag k="building" v="yes"/>
    <tag k="building:levels" v="1"/>
    <tag k="is_in" v="Russia"/>
    <tag k="note" v="addr:housenumber нeточен"/>
  </way>
  <way id="97235508" version="3" timestamp="2011-09-13T10:24:59Z" uid="29320" user="Komяpa" changeset="9288237">
    <nd ref="1126341445"/>
    <nd ref="1126341441"/>
    <nd ref="1126341439"/>
    <nd ref="1126341443"/>
    <nd ref="1126341445"/>
    <tag k="addr:city" v="Зеленоград"/>
    <tag k="addr:country" v="RU"/>
    <tag k="addr:housenumber" v="24 с1?"/>
    <tag k="addr:street" v="Панфиловский проспект"/>
    <tag k="building" v="yes"/>
    <tag k="building:levels" v="1"/>
    <tag k="note" v="addr:housenumber нeточен"/>
  </way>
  <way id="97235508" version="4" timestamp="2012-03-27T11:40:04Z" uid="481934" user="iWowik" changeset="11115472">
    <nd ref="1126341445"/>
    <nd ref="1126341441"/>
    <nd ref="1126341439"/>
    <nd ref="1126341443"/>
    <nd ref="1126341445"/>
    <tag k="addr:city" v="Зеленоград"/>
    <tag k="addr:country" v="RU"/>
    <tag k="addr:housenumber" v="24 с1?"/>
    <tag k="addr:region" v="Москва"/>
    <tag k="addr:street" v="Панфиловский проспект"/>
    <tag k="building" v="yes"/>
    <tag k="building:levels" v="1"/>
    <tag k="note" v="addr:housenumber нeточен"/>
  </way>
  <way id="97235586" version="1" timestamp="2011-01-29T16:09:04Z" uid="171838" user="argrath" changeset="7123783">
    <nd ref="1126342147"/>
    <nd ref="1126342157"/>
    <nd ref="1126342158"/>
    <nd ref="1126342159"/>
    <nd ref="1126342160"/>
    <nd ref="1126342165"/>
    <nd ref="1126342168"/>
    <nd ref="1126342170"/>
    <nd ref="1126342172"/>
    <nd ref="1126342174"/>
    <nd ref="1126342176"/>
    <nd ref="1126342177"/>
    <nd ref="1126342179"/>
    <nd ref="1126342182"/>
    <nd ref="1126342184"/>
    <nd ref="1126342186"/>
    <nd ref="1126342187"/>
    <nd ref="1126342189"/>
    <nd ref="1126342192"/>
    <nd ref="1126342194"/>
    <nd ref="1126342196"/>
    <nd ref="1126342201"/>
    <nd ref="1126342202"/>
    <nd ref="1126342203"/>
    <nd ref="1126342204"/>
    <nd ref="1126342206"/>
    <nd ref="1126342208"/>
    <nd ref="1126342210"/>
    <nd ref="1126342212"/>
    <nd ref="1126342225"/>
    <nd ref="1126342227"/>
    <nd ref="1126342229"/>
    <nd ref="1126342230"/>
    <nd ref="1126342231"/>
    <nd ref="1126342232"/>
    <nd ref="1126342233"/>
    <nd ref="1126342243"/>
    <nd ref="1126342247"/>
    <nd ref="1126342249"/>
    <nd ref="1126342250"/>
    <nd ref="1126342252"/>
    <nd ref="1126342255"/>
    <nd ref="1126342257"/>
    <nd ref="1126342259"/>
    <nd ref="1126342261"/>
    <nd ref="1126342262"/>
    <nd ref="1126342264"/>
    <nd ref="1126342267"/>
    <nd ref="1126342270"/>
    <nd ref="1126342147"/>
    <tag k="leisure" v="park"/>
    <tag k="name" v="花博記念公園鶴見緑地"/>
    <tag k="source" v="Bing"/>
  </way>
</osm>
