<?xml version='1.0' encoding='UTF-8'?>
<osm version="0.6" generator="libosmium/2.20.0">
  <way id="97334257" version="1" timestamp="2011-01-30T01:15:36Z" uid="4467" user="Rosscoe" changeset="7129491">
    <nd ref="176517382"/>
    <nd ref="269290134"/>
    <tag k="highway" v="secondary"/>
    <tag k="oneway" v="yes"/>
  </way>
  <way id="97334257" version="2" timestamp="2011-03-20T01:05:05Z" uid="424439" user="Dale82" changeset="7611998">
    <nd ref="176517382"/>
    <nd ref="269290134"/>
    <tag k="highway" v="secondary"/>
    <tag k="maxspeed" v="60"/>
    <tag k="name" v="Algester Road"/>
    <tag k="oneway" v="yes"/>
  </way>
  <way id="97334259" version="1" timestamp="2011-01-30T01:15:36Z" uid="4467" user="Rosscoe" changeset="7129491">
    <nd ref="269292830"/>
    <nd ref="1127224092"/>
    <tag k="highway" v="residential"/>
    <tag k="source" v="nearmap"/>
  </way>
  <way id="97334259" version="2" timestamp="2011-06-05T07:21:58Z" uid="110248" user="Greg Shea" changeset="8345889">
    <nd ref="269292830"/>
    <nd ref="1127224092"/>
    <tag k="highway" v="residential"/>
    <tag k="name" v="Crystal Court"/>
    <tag k="source" v="nearmap"/>
  </way>
  <way id="97334261" version="1" timestamp="2011-01-30T01:15:36Z" uid="4467" user="Rosscoe" changeset="7129491">
    <nd ref="176519980"/>
    <nd ref="1127224097"/>
    <nd ref="176518927"/>
    <nd ref="527711595"/>
    <nd ref="527711601"/>
    <nd ref="176518444"/>
    <nd ref="176518443"/>
    <nd ref="176518442"/>
    <nd ref="176518441"/>
    <nd ref="176518440"/>
    <nd ref="176518438"/>
    <nd ref="176518437"/>
    <nd ref="176518436"/>
    <nd ref="176517899"/>
    <nd ref="176517898"/>
    <nd ref="269290143"/>
    <nd ref="269290138"/>
    <tag k="highway" v="secondary"/>
    <tag k="name" v="Algester Road"/>
    <tag k="oneway" v="yes"/>
  </way>
  <way id="97334261" version="2" timestamp="2011-03-20T01:05:22Z" uid="424439" user="Dale82" changeset="7611998">
    <nd ref="176519980"/>
    <nd ref="1127224097"/>
    <nd ref="176518927"/>
    <nd ref="527711595"/>
    <nd ref="527711601"/>
    <nd ref="176518444"/>
    <nd ref="176518443"/>
    <nd ref="176518442"/>
    <nd ref="176518441"/>
    <nd ref="176518440"/>
    <nd ref="176518438"/>
    <nd ref="176518437"/>
    <nd ref="176518436"/>
    <nd ref="176517899"/>
    <nd ref="176517898"/>
    <nd ref="269290143"/>
    <nd ref="269290138"/>
    <tag k="highway" v="secondary"/>
    <tag k="maxspeed" v="60"/>
    <tag k="name" v="Algester Road"/>
    <tag k="oneway" v="yes"/>
  </way>
  <way id="97334263" version="1" timestamp="2011-01-30T01:15:36Z" uid="4467" user="Rosscoe" changeset="7129491">
    <nd ref="269290131"/>
    <nd ref="269290144"/>
    <nd ref="269290136"/>
    <tag k="highway" v="tertiary"/>
    <tag k="oneway" v="yes"/>
  </way>
  <way id="97334721" version="1" timestamp="2011-01-30T01:27:05Z" uid="4467" user="Rosscoe" changeset="7129549">
    <nd ref="1127229926"/>
    <nd ref="32878984"/>
    <nd ref="30470905"/>
    <nd ref="454043573"/>
    <nd ref="1074347875"/>
    <tag k="highway" v="trunk"/>
    <tag k="maxspeed" v="60"/>
    <tag k="name" v="President Avenue"/>
    <tag k="network" v="MR"/>
    <tag k="ref" v="1"/>
  </way>
  <way id="97334721" version="2" timestamp="2012-02-01T01:38:47Z" uid="54784" user="Tom Hollander" changeset="10555374">
    <nd ref="1127229926"/>
    <nd ref="32878984"/>
    <nd ref="30470905"/>
    <nd ref="454043573"/>
    <nd ref="1074347875"/>
    <tag k="highway" v="trunk"/>
    <tag k="maxspeed" v="60"/>
    <tag k="name" v="President Avenue"/>
    <tag k="network" v="MR"/>
    <tag k="ref" v="MR1"/>
  </way>
  <way id="97334721" version="3" timestamp="2012-02-02T08:04:34Z" uid="7523" user="inas" changeset="10565177">
    <nd ref="1127229926"/>
    <nd ref="32878984"/>
    <nd ref="30470905"/>
    <nd ref="454043573"/>
    <nd ref="1074347875"/>
    <tag k="highway" v="trunk"/>
    <tag k="maxspeed" v="60"/>
    <tag k="name" v="President Avenue"/>
    <tag k="network" v="MR"/>
    <tag k="ref" v="1"/>
  </way>
  <way id="97334721" version="4" timestamp="2012-03-20T04:23:52Z" uid="7523" user="inas" changeset="11037300"/>
  <way id="97334722" version="1" timestamp="2011-01-30T01:27:05Z" uid="4467" user="Rosscoe" changeset="7129549">
    <nd ref="29415560"/>
    <nd ref="29415561"/>
    <nd ref="29057592"/>
    <nd ref="29415562"/>
    <nd ref="29415563"/>
    <tag k="highway" v="residential"/>
    <tag k="maxspeed" v="50"/>
    <tag k="maxspeed:source" v="default residential speed limit in Australia"/>
    <tag k="name" v="Civic Avenue"/>
    <tag k="source:name" v="survey"/>
  </way>
  <way id="97334722" version="2" timestamp="2012-03-22T00:20:21Z" uid="7523" user="inas" changeset="11058517">
    <nd ref="29415561"/>
    <nd ref="29057592"/>
    <nd ref="29415562"/>
    <nd ref="29415563"/>
    <tag k="highway" v="residential"/>
    <tag k="maxspeed" v="50"/>
    <tag k="maxspeed:source" v="default residential speed limit in Australia"/>
    <tag k="name" v="Civic Avenue"/>
    <tag k="source:name" v="survey"/>
  </way>
  <way id="97334723" version="1" timestamp="2011-01-30T01:27:05Z" uid="4467" user="Rosscoe" changeset="7129549">
    <nd ref="1127229930"/>
    <nd ref="29415582"/>
    <nd ref="1083063599"/>
    <nd ref="1083063612"/>
    <nd ref="29415571"/>
    <nd ref="29057590"/>
    <nd ref="33226063"/>
    <tag k="highway" v="trunk"/>
    <tag k="maxspeed" v="60"/>
    <tag k="name" v="President Avenue"/>
    <tag k="network" v="MR"/>
    <tag k="ref" v="1"/>
  </way>
  <way id="97334723" version="2" timestamp="2012-02-01T01:38:47Z" uid="54784" user="Tom Hollander" changeset="10555374">
    <nd ref="1127229930"/>
    <nd ref="29415582"/>
    <nd ref="1083063599"/>
    <nd ref="1083063612"/>
    <nd ref="29415571"/>
    <nd ref="29057590"/>
    <nd ref="33226063"/>
    <tag k="highway" v="trunk"/>
    <tag k="maxspeed" v="60"/>
    <tag k="name" v="President Avenue"/>
    <tag k="network" v="MR"/>
    <tag k="ref" v="MR1"/>
  </way>
  <way id="97334723" version="3" timestamp="2012-02-02T08:04:35Z" uid="7523" user="inas" changeset="10565177">
    <nd ref="1127229930"/>
    <nd ref="29415582"/>
    <nd ref="1083063599"/>
    <nd ref="1083063612"/>
    <nd ref="29415571"/>
    <nd ref="29057590"/>
    <nd ref="33226063"/>
    <tag k="highway" v="trunk"/>
    <tag k="maxspeed" v="60"/>
    <tag k="name" v="President Avenue"/>
    <tag k="network" v="MR"/>
    <tag k="ref" v="1"/>
  </way>
  <way id="97334723" version="4" timestamp="2012-03-20T04:23:52Z" uid="7523" user="inas" changeset="11037300"/>
</osm>
