<?xml version='1.0' encoding='UTF-8'?>
<osm version="0.6" generator="libosmium/2.20.0">
  <way id="97419798" version="1" timestamp="2011-01-30T17:52:42Z" uid="6269" user="Mueck" changeset="7136664">
    <nd ref="1127943014"/>
    <nd ref="1127943038"/>
    <nd ref="1127942969"/>
    <nd ref="1127942970"/>
    <nd ref="14963280"/>
    <tag k="highway" v="secondary"/>
    <tag k="lanes" v="1"/>
    <tag k="name" v="Wichernstraße"/>
    <tag k="note" v="im SHP des NVK: II"/>
    <tag k="oneway" v="yes"/>
  </way>
  <way id="97419798" version="2" timestamp="2011-01-30T18:15:12Z" uid="6269" user="Mueck" changeset="7137318">
    <nd ref="1127943014"/>
    <nd ref="1128286741"/>
    <nd ref="1127943038"/>
    <nd ref="1127942969"/>
    <nd ref="1127942970"/>
    <nd ref="14963280"/>
    <tag k="highway" v="secondary"/>
    <tag k="lanes" v="1"/>
    <tag k="name" v="Wichernstraße"/>
    <tag k="note" v="im SHP des NVK: II"/>
    <tag k="oneway" v="yes"/>
  </way>
  <way id="97419798" version="3" timestamp="2011-01-30T18:24:37Z" uid="6269" user="Mueck" changeset="7137541">
    <nd ref="1127943014"/>
    <nd ref="1128304061"/>
    <nd ref="1128286741"/>
    <nd ref="1127943038"/>
    <nd ref="1127942969"/>
    <nd ref="1127942970"/>
    <nd ref="14963280"/>
    <tag k="highway" v="secondary"/>
    <tag k="lanes" v="1"/>
    <tag k="name" v="Wichernstraße"/>
    <tag k="note" v="im SHP des NVK: II"/>
    <tag k="oneway" v="yes"/>
  </way>
</osm>
