<?xml version='1.0' encoding='UTF-8'?>
<osm version="0.6" generator="libosmium/2.20.0">
  <way id="97551548" version="1" timestamp="2011-01-31T14:04:08Z" uid="115477" user="wowik" changeset="7145302">
    <nd ref="1129409729"/>
    <nd ref="1129425683"/>
    <nd ref="1129425682"/>
    <nd ref="1129409795"/>
    <nd ref="1129409729"/>
    <tag k="addr:city" v="Зеленоград"/>
    <tag k="addr:housenumber" v="34 с1"/>
    <tag k="addr:street" v="Заводская улица"/>
    <tag k="building" v="yes"/>
  </way>
  <way id="97551548" version="2" timestamp="2012-03-27T08:08:51Z" uid="481934" user="iWowik" changeset="11113698">
    <nd ref="1129409729"/>
    <nd ref="1129425683"/>
    <nd ref="1129425682"/>
    <nd ref="1129409795"/>
    <nd ref="1129409729"/>
    <tag k="addr:city" v="Зеленоград"/>
    <tag k="addr:country" v="RU"/>
    <tag k="addr:housenumber" v="34 с1"/>
    <tag k="addr:street" v="Заводская улица"/>
    <tag k="building" v="yes"/>
  </way>
  <way id="97551548" version="3" timestamp="2012-03-27T11:41:55Z" uid="481934" user="iWowik" changeset="11115472">
    <nd ref="1129409729"/>
    <nd ref="1129425683"/>
    <nd ref="1129425682"/>
    <nd ref="1129409795"/>
    <nd ref="1129409729"/>
    <tag k="addr:city" v="Зеленоград"/>
    <tag k="addr:country" v="RU"/>
    <tag k="addr:housenumber" v="34 с1"/>
    <tag k="addr:region" v="Москва"/>
    <tag k="addr:street" v="Заводская улица"/>
    <tag k="building" v="yes"/>
  </way>
  <way id="97551550" version="1" timestamp="2011-01-31T14:04:08Z" uid="115477" user="wowik" changeset="7145302">
    <nd ref="1129425684"/>
    <nd ref="1129425681"/>
    <nd ref="1129425696"/>
    <nd ref="1129425693"/>
    <nd ref="1129425685"/>
    <nd ref="1129425689"/>
    <nd ref="1129425684"/>
    <tag k="addr:city" v="Зеленоград"/>
    <tag k="addr:housenumber" v="25 с5"/>
    <tag k="addr:street" v="Заводская улица"/>
    <tag k="building" v="yes"/>
  </way>
  <way id="97551550" version="2" timestamp="2012-03-27T08:07:53Z" uid="481934" user="iWowik" changeset="11113698">
    <nd ref="1129425684"/>
    <nd ref="1129425681"/>
    <nd ref="1129425696"/>
    <nd ref="1129425693"/>
    <nd ref="1129425685"/>
    <nd ref="1129425689"/>
    <nd ref="1129425684"/>
    <tag k="addr:city" v="Зеленоград"/>
    <tag k="addr:country" v="RU"/>
    <tag k="addr:housenumber" v="25 с5"/>
    <tag k="addr:street" v="Заводская улица"/>
    <tag k="building" v="yes"/>
  </way>
  <way id="97551550" version="3" timestamp="2012-03-27T11:40:16Z" uid="481934" user="iWowik" changeset="11115472">
    <nd ref="1129425684"/>
    <nd ref="1129425681"/>
    <nd ref="1129425696"/>
    <nd ref="1129425693"/>
    <nd ref="1129425685"/>
    <nd ref="1129425689"/>
    <nd ref="1129425684"/>
    <tag k="addr:city" v="Зеленоград"/>
    <tag k="addr:country" v="RU"/>
    <tag k="addr:housenumber" v="25 с5"/>
    <tag k="addr:region" v="Москва"/>
    <tag k="addr:street" v="Заводская улица"/>
    <tag k="building" v="yes"/>
  </way>
</osm>
