<?xml version='1.0' encoding='UTF-8'?>
<osm version="0.6" generator="libosmium/2.20.0">
  <way id="97683683" version="1" timestamp="2011-02-01T13:08:00Z" uid="115477" user="wowik" changeset="7154504">
    <nd ref="1130929250"/>
    <nd ref="1130929133"/>
    <nd ref="1130929422"/>
    <nd ref="1130929109"/>
    <nd ref="1130929250"/>
    <tag k="addr:city" v="Зеленоград"/>
    <tag k="addr:housenumber" v="6 с2?"/>
    <tag k="addr:street" v="4-й Западный проезд"/>
    <tag k="building" v="yes"/>
  </way>
  <way id="97683684" version="1" timestamp="2011-02-01T13:08:01Z" uid="115477" user="wowik" changeset="7154504">
    <nd ref="704991207"/>
    <nd ref="1130929112"/>
    <nd ref="1130929394"/>
    <nd ref="1130929340"/>
    <nd ref="1130929183"/>
    <nd ref="1130929124"/>
    <nd ref="1130929284"/>
    <nd ref="1130929402"/>
    <nd ref="1130929399"/>
    <nd ref="1130929239"/>
    <nd ref="704991207"/>
    <tag k="building" v="yes"/>
  </way>
  <way id="97683685" version="1" timestamp="2011-02-01T13:08:01Z" uid="115477" user="wowik" changeset="7154504">
    <nd ref="704991220"/>
    <nd ref="1130929360"/>
    <nd ref="1130929304"/>
    <nd ref="704991221"/>
    <nd ref="704991220"/>
    <tag k="building" v="yes"/>
    <tag k="building:levels" v="1"/>
  </way>
  <way id="97683686" version="1" timestamp="2011-02-01T13:08:02Z" uid="115477" user="wowik" changeset="7154504">
    <nd ref="1130929319"/>
    <nd ref="1130929128"/>
    <nd ref="1130929154"/>
    <nd ref="1130929179"/>
    <nd ref="1130929210"/>
    <nd ref="1130929159"/>
    <nd ref="1130929364"/>
    <nd ref="1130929391"/>
    <nd ref="1130929334"/>
    <nd ref="1130929253"/>
    <nd ref="1130929182"/>
    <nd ref="1130929420"/>
    <nd ref="1130929131"/>
    <nd ref="1130929244"/>
    <nd ref="1130929362"/>
    <nd ref="1130929406"/>
    <nd ref="1130929119"/>
    <nd ref="1130929319"/>
    <tag k="addr:city" v="Зеленоград"/>
    <tag k="addr:housenumber" v="8 с7"/>
    <tag k="addr:street" v="4-й Западный проезд"/>
    <tag k="building" v="yes"/>
  </way>
  <way id="97683686" version="2" timestamp="2012-01-11T07:12:11Z" uid="481934" user="iWowik" changeset="10358050">
    <nd ref="1130929319"/>
    <nd ref="1130929128"/>
    <nd ref="1130929154"/>
    <nd ref="1130929179"/>
    <nd ref="1130929210"/>
    <nd ref="1130929159"/>
    <nd ref="1130929364"/>
    <nd ref="1130929391"/>
    <nd ref="1130929334"/>
    <nd ref="1130929253"/>
    <nd ref="1130929182"/>
    <nd ref="1130929420"/>
    <nd ref="1130929131"/>
    <nd ref="1130929244"/>
    <nd ref="1130929362"/>
    <nd ref="1130929406"/>
    <nd ref="1130929119"/>
    <nd ref="1130929319"/>
    <tag k="addr:city" v="Зеленоград"/>
    <tag k="addr:country" v="RU"/>
    <tag k="addr:housenumber" v="8 с7"/>
    <tag k="addr:street" v="4-й Западный проезд"/>
    <tag k="building" v="yes"/>
  </way>
  <way id="97683687" version="1" timestamp="2011-02-01T13:08:03Z" uid="115477" user="wowik" changeset="7154504">
    <nd ref="1130929423"/>
    <nd ref="1130929367"/>
    <nd ref="1130929402"/>
    <nd ref="1130929284"/>
    <nd ref="1130929423"/>
    <tag k="building" v="yes"/>
    <tag k="building:levels" v="1"/>
  </way>
  <way id="97683688" version="1" timestamp="2011-02-01T13:08:04Z" uid="115477" user="wowik" changeset="7154504">
    <nd ref="1130929221"/>
    <nd ref="1130929335"/>
    <nd ref="1130929185"/>
    <nd ref="1130929257"/>
    <nd ref="1130929221"/>
    <tag k="addr:city" v="Зеленоград"/>
    <tag k="addr:housenumber" v="8 с8"/>
    <tag k="addr:street" v="4-й Западный проезд"/>
    <tag k="building" v="yes"/>
  </way>
  <way id="97683688" version="2" timestamp="2012-01-11T07:12:12Z" uid="481934" user="iWowik" changeset="10358050">
    <nd ref="1130929221"/>
    <nd ref="1130929335"/>
    <nd ref="1130929185"/>
    <nd ref="1130929257"/>
    <nd ref="1130929221"/>
    <tag k="addr:city" v="Зеленоград"/>
    <tag k="addr:country" v="RU"/>
    <tag k="addr:housenumber" v="8 с8"/>
    <tag k="addr:street" v="4-й Западный проезд"/>
    <tag k="building" v="yes"/>
  </way>
  <way id="97683689" version="1" timestamp="2011-02-01T13:08:04Z" uid="115477" user="wowik" changeset="7154504">
    <nd ref="1130929356"/>
    <nd ref="1130929187"/>
    <nd ref="1130929214"/>
    <nd ref="1130929160"/>
    <nd ref="1130929356"/>
    <tag k="addr:city" v="Зеленоград"/>
    <tag k="addr:housenumber" v="12 с3"/>
    <tag k="addr:street" v="4-й Западный проезд"/>
    <tag k="building" v="yes"/>
    <tag k="note" v="addr:housenumber неточен"/>
  </way>
  <way id="97683690" version="1" timestamp="2011-02-01T13:08:05Z" uid="115477" user="wowik" changeset="7154504">
    <nd ref="1130929158"/>
    <nd ref="1130929332"/>
    <nd ref="1130929251"/>
    <nd ref="1130929219"/>
    <nd ref="1130929176"/>
    <nd ref="1130929202"/>
    <nd ref="1130929150"/>
    <nd ref="1130929426"/>
    <nd ref="1130929158"/>
    <tag k="addr:city" v="Зеленоград"/>
    <tag k="addr:housenumber" v="8 с5"/>
    <tag k="addr:street" v="4-й Западный проезд"/>
    <tag k="building" v="yes"/>
  </way>
  <way id="97683691" version="1" timestamp="2011-02-01T13:08:06Z" uid="115477" user="wowik" changeset="7154504">
    <nd ref="1130929114"/>
    <nd ref="1130929205"/>
    <nd ref="1130929152"/>
    <nd ref="1130929106"/>
    <nd ref="1130929114"/>
    <tag k="addr:city" v="Зеленоград"/>
    <tag k="addr:housenumber" v="8 с3"/>
    <tag k="addr:street" v="4-й Западный проезд"/>
    <tag k="building" v="yes"/>
  </way>
  <way id="97683692" version="1" timestamp="2011-02-01T13:08:07Z" uid="115477" user="wowik" changeset="7154504">
    <nd ref="1130929425"/>
    <nd ref="1130929371"/>
    <nd ref="1130929241"/>
    <nd ref="1130929298"/>
    <nd ref="1130929425"/>
    <tag k="building" v="yes"/>
    <tag k="building:levels" v="1"/>
  </way>
</osm>
