<?xml version='1.0' encoding='UTF-8'?>
<osm version="0.6" generator="libosmium/2.20.0">
  <way id="9785117" version="8" timestamp="2010-03-15T00:59:54Z" uid="9719" user="dvaey" changeset="4131301">
    <nd ref="77899273"/>
    <nd ref="77899041"/>
    <nd ref="666486250"/>
    <nd ref="77899043"/>
    <nd ref="666486152"/>
    <nd ref="77899044"/>
    <nd ref="77899727"/>
    <nd ref="77899049"/>
    <tag k="highway" v="residential"/>
    <tag k="name" v="Stapylton Street"/>
  </way>
  <way id="9785117" version="9" timestamp="2010-07-07T08:57:27Z" uid="74617" user="JohnSmith" changeset="5156250">
    <nd ref="77899273"/>
    <nd ref="77899041"/>
    <nd ref="666486250"/>
    <nd ref="77899043"/>
    <nd ref="666486152"/>
    <nd ref="77899044"/>
    <nd ref="77899727"/>
    <nd ref="77899049"/>
    <tag k="highway" v="residential"/>
    <tag k="maxspeed" v="50"/>
    <tag k="maxspeed:source" v="default residential speed limit in Australia"/>
    <tag k="name" v="Stapylton Street"/>
  </way>
  <way id="9785117" version="10" timestamp="2012-01-15T08:45:50Z" uid="147510" user="woodpeck_fixbot" changeset="10395278">
    <nd ref="77899273"/>
    <nd ref="77899041"/>
    <nd ref="666486250"/>
    <nd ref="77899043"/>
    <nd ref="666486152"/>
    <nd ref="77899044"/>
    <nd ref="77899727"/>
    <nd ref="77899049"/>
    <tag k="highway" v="residential"/>
    <tag k="name" v="Stapylton Street"/>
  </way>
  <way id="9785147" version="6" timestamp="2010-07-07T09:00:59Z" uid="74617" user="JohnSmith" changeset="5156250">
    <nd ref="77899722"/>
    <nd ref="77899723"/>
    <nd ref="622811115"/>
    <nd ref="77899725"/>
    <nd ref="77899726"/>
    <nd ref="77899727"/>
    <tag k="highway" v="residential"/>
    <tag k="maxspeed" v="50"/>
    <tag k="maxspeed:source" v="default residential speed limit in Australia"/>
    <tag k="name" v="Frankland Street"/>
  </way>
  <way id="9785147" version="7" timestamp="2012-01-15T08:45:51Z" uid="147510" user="woodpeck_fixbot" changeset="10395278">
    <nd ref="77899722"/>
    <nd ref="77899723"/>
    <nd ref="622811115"/>
    <nd ref="77899725"/>
    <nd ref="77899726"/>
    <nd ref="77899727"/>
    <tag k="highway" v="residential"/>
    <tag k="name" v="Frankland Street"/>
  </way>
  <way id="9785192" version="6" timestamp="2010-07-07T08:57:10Z" uid="74617" user="JohnSmith" changeset="5156250">
    <nd ref="77900493"/>
    <nd ref="77900494"/>
    <nd ref="77900495"/>
    <nd ref="77900496"/>
    <nd ref="92038790"/>
    <nd ref="211300074"/>
    <nd ref="77900497"/>
    <nd ref="61449953"/>
    <tag k="highway" v="residential"/>
    <tag k="maxspeed" v="50"/>
    <tag k="maxspeed:source" v="default residential speed limit in Australia"/>
    <tag k="name" v="Coane Street"/>
  </way>
  <way id="9785192" version="7" timestamp="2012-01-15T08:45:53Z" uid="147510" user="woodpeck_fixbot" changeset="10395278">
    <nd ref="77900493"/>
    <nd ref="77900494"/>
    <nd ref="77900495"/>
    <nd ref="77900496"/>
    <nd ref="92038790"/>
    <nd ref="211300074"/>
    <nd ref="77900497"/>
    <nd ref="61449953"/>
    <tag k="highway" v="residential"/>
    <tag k="name" v="Coane Street"/>
  </way>
  <way id="9785338" version="8" timestamp="2010-07-08T01:17:26Z" uid="74617" user="JohnSmith" changeset="5162525">
    <nd ref="26358959"/>
    <nd ref="77912208"/>
    <nd ref="457752514"/>
    <nd ref="77902900"/>
    <nd ref="436642518"/>
    <tag k="highway" v="residential"/>
    <tag k="maxspeed" v="50"/>
    <tag k="maxspeed:source" v="default residential speed limit in Australia"/>
    <tag k="name" v="Bank Street"/>
    <tag k="source" v="yahoo_imagery"/>
  </way>
  <way id="9785338" version="9" timestamp="2012-01-15T08:45:55Z" uid="147510" user="woodpeck_fixbot" changeset="10395278">
    <nd ref="26358959"/>
    <nd ref="77912208"/>
    <nd ref="457752514"/>
    <nd ref="77902900"/>
    <nd ref="436642518"/>
    <tag k="highway" v="residential"/>
    <tag k="name" v="Bank Street"/>
    <tag k="source" v="yahoo_imagery"/>
  </way>
  <way id="9785610" version="3" timestamp="2010-06-02T13:02:30Z" uid="4467" user="Rosscoe" changeset="4883781">
    <nd ref="77907668"/>
    <nd ref="77907669"/>
    <nd ref="77907670"/>
    <nd ref="77907671"/>
    <nd ref="665034510"/>
    <nd ref="77907672"/>
    <nd ref="77907673"/>
    <nd ref="77907674"/>
    <nd ref="77907675"/>
    <nd ref="77907676"/>
    <nd ref="665034525"/>
    <nd ref="77907677"/>
    <nd ref="77907678"/>
    <nd ref="77907679"/>
    <tag k="highway" v="residential"/>
    <tag k="name" v="Foxall Street"/>
  </way>
  <way id="9785610" version="4" timestamp="2010-07-07T09:00:28Z" uid="74617" user="JohnSmith" changeset="5156250">
    <nd ref="77907668"/>
    <nd ref="77907669"/>
    <nd ref="77907670"/>
    <nd ref="77907671"/>
    <nd ref="665034510"/>
    <nd ref="77907672"/>
    <nd ref="77907673"/>
    <nd ref="77907674"/>
    <nd ref="77907675"/>
    <nd ref="77907676"/>
    <nd ref="665034525"/>
    <nd ref="77907677"/>
    <nd ref="77907678"/>
    <nd ref="77907679"/>
    <tag k="highway" v="residential"/>
    <tag k="maxspeed" v="50"/>
    <tag k="maxspeed:source" v="default residential speed limit in Australia"/>
    <tag k="name" v="Foxall Street"/>
  </way>
  <way id="9785610" version="5" timestamp="2012-01-15T08:45:56Z" uid="147510" user="woodpeck_fixbot" changeset="10395278">
    <nd ref="77907668"/>
    <nd ref="77907669"/>
    <nd ref="77907670"/>
    <nd ref="77907671"/>
    <nd ref="665034510"/>
    <nd ref="77907672"/>
    <nd ref="77907673"/>
    <nd ref="77907674"/>
    <nd ref="77907675"/>
    <nd ref="77907676"/>
    <nd ref="665034525"/>
    <nd ref="77907677"/>
    <nd ref="77907678"/>
    <nd ref="77907679"/>
    <tag k="highway" v="residential"/>
    <tag k="name" v="Foxall Street"/>
  </way>
  <way id="9785624" version="6" timestamp="2010-07-07T09:00:40Z" uid="74617" user="JohnSmith" changeset="5156250">
    <nd ref="77907841"/>
    <nd ref="77907840"/>
    <nd ref="77908049"/>
    <tag k="highway" v="residential"/>
    <tag k="maxspeed" v="50"/>
    <tag k="maxspeed:source" v="default residential speed limit in Australia"/>
    <tag k="name" v="Govett Place"/>
  </way>
  <way id="9785624" version="7" timestamp="2012-01-15T08:45:58Z" uid="147510" user="woodpeck_fixbot" changeset="10395278">
    <nd ref="77907841"/>
    <nd ref="77907840"/>
    <nd ref="77908049"/>
    <tag k="highway" v="residential"/>
    <tag k="name" v="Govett Place"/>
  </way>
  <way id="9785715" version="4" timestamp="2010-07-07T09:00:07Z" uid="74617" user="JohnSmith" changeset="5156250">
    <nd ref="77908052"/>
    <nd ref="77909346"/>
    <nd ref="77907840"/>
    <tag k="highway" v="residential"/>
    <tag k="maxspeed" v="50"/>
    <tag k="maxspeed:source" v="default residential speed limit in Australia"/>
    <tag k="name" v="Govett Place"/>
  </way>
  <way id="9785715" version="5" timestamp="2012-01-15T08:45:59Z" uid="147510" user="woodpeck_fixbot" changeset="10395278">
    <nd ref="77908052"/>
    <nd ref="77909346"/>
    <nd ref="77907840"/>
    <tag k="highway" v="residential"/>
    <tag k="name" v="Govett Place"/>
  </way>
  <way id="9785757" version="7" timestamp="2010-07-07T08:57:25Z" uid="74617" user="JohnSmith" changeset="5156250">
    <nd ref="77910100"/>
    <nd ref="665034519"/>
    <nd ref="77910101"/>
    <tag k="highway" v="residential"/>
    <tag k="maxspeed" v="50"/>
    <tag k="maxspeed:source" v="default residential speed limit in Australia"/>
    <tag k="name" v="Ligar Place"/>
  </way>
  <way id="9785757" version="8" timestamp="2012-01-15T08:46:01Z" uid="147510" user="woodpeck_fixbot" changeset="10395278">
    <nd ref="77910100"/>
    <nd ref="665034519"/>
    <nd ref="77910101"/>
    <tag k="highway" v="residential"/>
    <tag k="name" v="Ligar Place"/>
  </way>
  <way id="9785773" version="4" timestamp="2010-07-07T08:58:58Z" uid="74617" user="JohnSmith" changeset="5156250">
    <nd ref="77910381"/>
    <nd ref="77910382"/>
    <nd ref="77910384"/>
    <tag k="highway" v="residential"/>
    <tag k="maxspeed" v="50"/>
    <tag k="maxspeed:source" v="default residential speed limit in Australia"/>
    <tag k="name" v="Craven Place"/>
  </way>
  <way id="9785773" version="5" timestamp="2012-01-15T08:46:02Z" uid="147510" user="woodpeck_fixbot" changeset="10395278">
    <nd ref="77910381"/>
    <nd ref="77910382"/>
    <nd ref="77910384"/>
    <tag k="highway" v="residential"/>
    <tag k="name" v="Craven Place"/>
  </way>
  <way id="9785797" version="3" timestamp="2010-07-07T08:58:47Z" uid="74617" user="JohnSmith" changeset="5156250">
    <nd ref="77910834"/>
    <nd ref="77910835"/>
    <nd ref="34018900"/>
    <tag k="highway" v="residential"/>
    <tag k="maxspeed" v="50"/>
    <tag k="maxspeed:source" v="default residential speed limit in Australia"/>
    <tag k="name" v="Winton Place"/>
  </way>
  <way id="9785797" version="4" timestamp="2012-01-15T08:46:03Z" uid="147510" user="woodpeck_fixbot" changeset="10395278">
    <nd ref="77910834"/>
    <nd ref="77910835"/>
    <nd ref="34018900"/>
    <tag k="highway" v="residential"/>
    <tag k="name" v="Winton Place"/>
  </way>
  <way id="9785867" version="4" timestamp="2010-07-07T09:02:44Z" uid="74617" user="JohnSmith" changeset="5156250">
    <nd ref="77912174"/>
    <nd ref="665034544"/>
    <nd ref="77912175"/>
    <nd ref="77907679"/>
    <tag k="highway" v="residential"/>
    <tag k="maxspeed" v="50"/>
    <tag k="maxspeed:source" v="default residential speed limit in Australia"/>
    <tag k="name" v="Foxall Place"/>
  </way>
  <way id="9785867" version="5" timestamp="2012-01-15T08:46:04Z" uid="147510" user="woodpeck_fixbot" changeset="10395278">
    <nd ref="77912174"/>
    <nd ref="665034544"/>
    <nd ref="77912175"/>
    <nd ref="77907679"/>
    <tag k="highway" v="residential"/>
    <tag k="name" v="Foxall Place"/>
  </way>
  <way id="9785874" version="2" timestamp="2008-08-06T04:42:38Z" uid="30201" user="rrankin" changeset="107425">
    <nd ref="284132123"/>
    <nd ref="284132121"/>
    <nd ref="284132118"/>
    <nd ref="284132116"/>
    <nd ref="284132114"/>
    <nd ref="284132111"/>
    <tag k="created_by" v="JOSM"/>
    <tag k="highway" v="residential"/>
    <tag k="name" v="Commodore Crescent"/>
    <tag k="source" v="yahoo_imagery"/>
    <tag k="source:name" v="historical"/>
  </way>
  <way id="9785874" version="3" timestamp="2008-08-06T04:45:36Z" uid="30201" user="rrankin" changeset="107425">
    <nd ref="284132123"/>
    <nd ref="284132121"/>
    <nd ref="284132118"/>
    <nd ref="284132116"/>
    <nd ref="284132530"/>
    <nd ref="284132114"/>
    <nd ref="284132111"/>
    <tag k="created_by" v="JOSM"/>
    <tag k="highway" v="residential"/>
    <tag k="name" v="Commodore Crescent"/>
    <tag k="source" v="yahoo_imagery"/>
    <tag k="source:name" v="historical"/>
  </way>
  <way id="9785874" version="4" timestamp="2009-06-25T10:48:38Z" uid="69319" user="Rhubarb" changeset="1620772">
    <nd ref="284132123"/>
    <nd ref="284132121"/>
    <nd ref="429206575"/>
    <nd ref="284132118"/>
    <nd ref="284132116"/>
    <nd ref="284132530"/>
    <nd ref="429206560"/>
    <nd ref="284132114"/>
    <nd ref="284132111"/>
    <tag k="created_by" v="JOSM"/>
    <tag k="highway" v="residential"/>
    <tag k="name" v="Commodore Crescent"/>
    <tag k="source" v="yahoo_imagery"/>
    <tag k="source:name" v="historical"/>
  </way>
  <way id="9785874" version="5" timestamp="2009-08-06T07:47:50Z" uid="104101" user="swanilli" changeset="2053413"/>
  <way id="9785876" version="2" timestamp="2008-08-06T04:22:56Z" uid="30201" user="rrankin" changeset="107425">
    <nd ref="77912194"/>
    <nd ref="77912217"/>
    <tag k="created_by" v="JOSM"/>
    <tag k="highway" v="residential"/>
    <tag k="name" v="Ancrum Street"/>
    <tag k="source" v="yahoo_imagery"/>
    <tag k="source:name" v="historical"/>
  </way>
  <way id="9785876" version="3" timestamp="2010-07-08T01:19:25Z" uid="74617" user="JohnSmith" changeset="5162525">
    <nd ref="77912194"/>
    <nd ref="77912217"/>
    <tag k="highway" v="residential"/>
    <tag k="maxspeed" v="50"/>
    <tag k="maxspeed:source" v="default residential speed limit in Australia"/>
    <tag k="name" v="Ancrum Street"/>
    <tag k="source" v="yahoo_imagery"/>
    <tag k="source:name" v="historical"/>
  </way>
  <way id="9785876" version="4" timestamp="2012-01-15T08:46:05Z" uid="147510" user="woodpeck_fixbot" changeset="10395278">
    <nd ref="77912194"/>
    <nd ref="77912217"/>
    <tag k="highway" v="residential"/>
    <tag k="name" v="Ancrum Street"/>
    <tag k="source" v="yahoo_imagery"/>
    <tag k="source:name" v="historical"/>
  </way>
  <way id="9785900" version="5" timestamp="2010-07-07T08:58:05Z" uid="74617" user="JohnSmith" changeset="5156250">
    <nd ref="77912877"/>
    <nd ref="77912879"/>
    <nd ref="77912881"/>
    <tag k="highway" v="residential"/>
    <tag k="maxspeed" v="50"/>
    <tag k="maxspeed:source" v="default residential speed limit in Australia"/>
    <tag k="name" v="Pearson Place"/>
  </way>
  <way id="9785900" version="6" timestamp="2012-01-15T08:46:07Z" uid="147510" user="woodpeck_fixbot" changeset="10395278">
    <nd ref="77912877"/>
    <nd ref="77912879"/>
    <nd ref="77912881"/>
    <tag k="highway" v="residential"/>
    <tag k="name" v="Pearson Place"/>
  </way>
  <way id="9785923" version="7" timestamp="2010-07-07T09:01:15Z" uid="74617" user="JohnSmith" changeset="5156250">
    <nd ref="77913388"/>
    <nd ref="665035309"/>
    <nd ref="77913622"/>
    <nd ref="77913390"/>
    <nd ref="77913391"/>
    <tag k="highway" v="residential"/>
    <tag k="maxspeed" v="50"/>
    <tag k="maxspeed:source" v="default residential speed limit in Australia"/>
    <tag k="name" v="Percival Street"/>
  </way>
  <way id="9785923" version="8" timestamp="2012-01-15T08:46:08Z" uid="147510" user="woodpeck_fixbot" changeset="10395278">
    <nd ref="77913388"/>
    <nd ref="665035309"/>
    <nd ref="77913622"/>
    <nd ref="77913390"/>
    <nd ref="77913391"/>
    <tag k="highway" v="residential"/>
    <tag k="name" v="Percival Street"/>
  </way>
  <way id="9785941" version="4" timestamp="2010-07-07T09:00:35Z" uid="74617" user="JohnSmith" changeset="5156250">
    <nd ref="209734694"/>
    <nd ref="77913621"/>
    <nd ref="77913622"/>
    <tag k="highway" v="residential"/>
    <tag k="maxspeed" v="50"/>
    <tag k="maxspeed:source" v="default residential speed limit in Australia"/>
    <tag k="name" v="Eve Street"/>
  </way>
  <way id="9785941" version="5" timestamp="2012-01-15T08:46:09Z" uid="147510" user="woodpeck_fixbot" changeset="10395278">
    <nd ref="209734694"/>
    <nd ref="77913621"/>
    <nd ref="77913622"/>
    <tag k="highway" v="residential"/>
    <tag k="name" v="Eve Street"/>
  </way>
</osm>
