<?xml version='1.0' encoding='UTF-8'?>
<osm version="0.6" generator="libosmium/2.20.0">
  <way id="9801353" version="5" timestamp="2009-01-02T15:07:05Z" uid="58091" user="Andreas M" changeset="708469">
    <nd ref="57473786"/>
    <nd ref="17313053"/>
    <tag k="created_by" v="Potlatch 0.10b"/>
    <tag k="highway" v="secondary"/>
    <tag k="name" v="Schwedenbrücke"/>
    <tag k="railway" v="tram"/>
  </way>
  <way id="9801353" version="6" timestamp="2009-05-31T18:13:29Z" uid="56311" user="Elandrion" changeset="1371947">
    <nd ref="57473786"/>
    <nd ref="17313053"/>
    <tag k="highway" v="secondary"/>
    <tag k="name" v="Schwedenbrücke"/>
    <tag k="railway" v="tram"/>
    <tag k="tracks" v="1"/>
  </way>
  <way id="9801353" version="7" timestamp="2009-11-05T15:37:09Z" uid="12295" user="mapper_07" changeset="3041327">
    <nd ref="57473786"/>
    <nd ref="17313053"/>
    <tag k="highway" v="secondary"/>
    <tag k="maxspeed" v="50"/>
    <tag k="name" v="Schwedenbrücke"/>
    <tag k="railway" v="tram"/>
    <tag k="tracks" v="1"/>
  </way>
  <way id="9801353" version="8" timestamp="2010-09-03T19:52:28Z" uid="129531" user="almich" changeset="5673667">
    <nd ref="57473786"/>
    <nd ref="17313053"/>
    <tag k="electrified" v="contact_line"/>
    <tag k="frequency" v="0"/>
    <tag k="gauge" v="1435"/>
    <tag k="highway" v="secondary"/>
    <tag k="maxspeed" v="50"/>
    <tag k="name" v="Schwedenbrücke"/>
    <tag k="railway" v="tram"/>
    <tag k="tracks" v="1"/>
  </way>
  <way id="9801353" version="9" timestamp="2011-11-08T00:46:51Z" uid="129531" user="almich" changeset="9770160">
    <nd ref="57473786"/>
    <nd ref="17313053"/>
    <tag k="electrified" v="contact_line"/>
    <tag k="frequency" v="0"/>
    <tag k="gauge" v="1435"/>
    <tag k="highway" v="secondary"/>
    <tag k="maxspeed" v="50"/>
    <tag k="name" v="Schwedenbrücke"/>
    <tag k="railway" v="tram"/>
    <tag k="tracks" v="1"/>
    <tag k="voltage" v="600"/>
  </way>
  <way id="9801360" version="7" timestamp="2009-01-02T15:07:05Z" uid="58091" user="Andreas M" changeset="708469">
    <nd ref="57473785"/>
    <nd ref="57473786"/>
    <tag k="bridge" v="yes"/>
    <tag k="created_by" v="Potlatch 0.10b"/>
    <tag k="highway" v="secondary"/>
    <tag k="layer" v="1"/>
    <tag k="name" v="Schwedenbrücke"/>
    <tag k="railway" v="tram"/>
  </way>
  <way id="9801360" version="8" timestamp="2009-05-31T18:13:29Z" uid="56311" user="Elandrion" changeset="1371947">
    <nd ref="57473785"/>
    <nd ref="57473786"/>
    <tag k="bridge" v="yes"/>
    <tag k="highway" v="secondary"/>
    <tag k="layer" v="1"/>
    <tag k="name" v="Schwedenbrücke"/>
    <tag k="railway" v="tram"/>
    <tag k="tracks" v="1"/>
  </way>
  <way id="9801360" version="9" timestamp="2009-11-05T15:37:08Z" uid="12295" user="mapper_07" changeset="3041327">
    <nd ref="57473785"/>
    <nd ref="57473786"/>
    <tag k="bridge" v="yes"/>
    <tag k="highway" v="secondary"/>
    <tag k="layer" v="1"/>
    <tag k="maxspeed" v="50"/>
    <tag k="name" v="Schwedenbrücke"/>
    <tag k="railway" v="tram"/>
    <tag k="tracks" v="1"/>
  </way>
  <way id="9801360" version="10" timestamp="2010-09-03T19:52:29Z" uid="129531" user="almich" changeset="5673667">
    <nd ref="57473785"/>
    <nd ref="57473786"/>
    <tag k="bridge" v="yes"/>
    <tag k="electrified" v="contact_line"/>
    <tag k="frequency" v="0"/>
    <tag k="gauge" v="1435"/>
    <tag k="highway" v="secondary"/>
    <tag k="layer" v="1"/>
    <tag k="maxspeed" v="50"/>
    <tag k="name" v="Schwedenbrücke"/>
    <tag k="railway" v="tram"/>
    <tag k="tracks" v="1"/>
  </way>
  <way id="9801360" version="11" timestamp="2011-08-22T18:34:48Z" uid="298560" user="evod" changeset="9096820">
    <nd ref="57473785"/>
    <nd ref="57473786"/>
    <tag k="bridge" v="yes"/>
    <tag k="cycleway" v="lane"/>
    <tag k="electrified" v="contact_line"/>
    <tag k="frequency" v="0"/>
    <tag k="gauge" v="1435"/>
    <tag k="highway" v="secondary"/>
    <tag k="layer" v="1"/>
    <tag k="maxspeed" v="50"/>
    <tag k="name" v="Schwedenbrücke"/>
    <tag k="railway" v="tram"/>
    <tag k="tracks" v="1"/>
  </way>
  <way id="9801360" version="12" timestamp="2011-11-08T00:46:52Z" uid="129531" user="almich" changeset="9770160">
    <nd ref="57473785"/>
    <nd ref="57473786"/>
    <tag k="bridge" v="yes"/>
    <tag k="cycleway" v="lane"/>
    <tag k="electrified" v="contact_line"/>
    <tag k="frequency" v="0"/>
    <tag k="gauge" v="1435"/>
    <tag k="highway" v="secondary"/>
    <tag k="layer" v="1"/>
    <tag k="maxspeed" v="50"/>
    <tag k="name" v="Schwedenbrücke"/>
    <tag k="railway" v="tram"/>
    <tag k="tracks" v="1"/>
    <tag k="voltage" v="600"/>
  </way>
  <way id="9801481" version="7" timestamp="2009-01-02T15:18:39Z" uid="58091" user="Andreas M" changeset="708469">
    <nd ref="78139595"/>
    <nd ref="57473991"/>
    <tag k="bridge" v="yes"/>
    <tag k="created_by" v="Potlatch 0.10b"/>
    <tag k="highway" v="tertiary"/>
    <tag k="layer" v="1"/>
    <tag k="name" v="Marienbrücke"/>
    <tag k="railway" v="tram"/>
  </way>
  <way id="9801481" version="8" timestamp="2009-01-09T04:04:43Z" uid="76050" user="Wolfgang_Wasserburger" changeset="759958">
    <nd ref="78139595"/>
    <nd ref="57473991"/>
    <tag k="bridge" v="yes"/>
    <tag k="created_by" v="Potlatch 0.10b"/>
    <tag k="highway" v="tertiary"/>
    <tag k="layer" v="1"/>
    <tag k="name" v="Marienbrücke"/>
    <tag k="oneway" v="yes"/>
    <tag k="railway" v="tram"/>
  </way>
  <way id="9801481" version="9" timestamp="2009-05-31T18:13:49Z" uid="56311" user="Elandrion" changeset="1371947">
    <nd ref="78139595"/>
    <nd ref="413584585"/>
    <nd ref="57473991"/>
    <tag k="bridge" v="yes"/>
    <tag k="highway" v="tertiary"/>
    <tag k="layer" v="1"/>
    <tag k="name" v="Marienbrücke"/>
    <tag k="oneway" v="yes"/>
    <tag k="railway" v="tram"/>
    <tag k="tracks" v="2"/>
  </way>
  <way id="9801481" version="10" timestamp="2009-08-01T20:12:08Z" uid="1679" user="andrewpmk" changeset="2007773">
    <nd ref="78139595"/>
    <nd ref="57473991"/>
    <tag k="bridge" v="yes"/>
    <tag k="highway" v="tertiary"/>
    <tag k="layer" v="1"/>
    <tag k="name" v="Marienbrücke"/>
    <tag k="oneway" v="yes"/>
    <tag k="railway" v="tram"/>
    <tag k="tracks" v="2"/>
  </way>
  <way id="9801481" version="11" timestamp="2009-11-05T15:37:08Z" uid="12295" user="mapper_07" changeset="3041327">
    <nd ref="78139595"/>
    <nd ref="57473991"/>
    <tag k="bridge" v="yes"/>
    <tag k="highway" v="tertiary"/>
    <tag k="layer" v="1"/>
    <tag k="maxspeed" v="50"/>
    <tag k="name" v="Marienbrücke"/>
    <tag k="oneway" v="yes"/>
    <tag k="railway" v="tram"/>
    <tag k="tracks" v="2"/>
  </way>
  <way id="9801481" version="12" timestamp="2010-02-15T14:29:23Z" uid="210956" user="spoiler" changeset="3883631">
    <nd ref="78139595"/>
    <nd ref="639717211"/>
    <nd ref="57473991"/>
    <tag k="bridge" v="yes"/>
    <tag k="highway" v="tertiary"/>
    <tag k="layer" v="1"/>
    <tag k="maxspeed" v="50"/>
    <tag k="name" v="Marienbrücke"/>
    <tag k="oneway" v="yes"/>
    <tag k="railway" v="tram"/>
    <tag k="tracks" v="2"/>
  </way>
  <way id="9801481" version="13" timestamp="2010-04-18T20:00:44Z" uid="129531" user="almich" changeset="4462273">
    <nd ref="78139595"/>
    <nd ref="639717211"/>
    <nd ref="57473991"/>
    <tag k="bridge" v="yes"/>
    <tag k="gauge" v="1435"/>
    <tag k="highway" v="tertiary"/>
    <tag k="layer" v="1"/>
    <tag k="maxspeed" v="50"/>
    <tag k="name" v="Marienbrücke"/>
    <tag k="oneway" v="yes"/>
    <tag k="railway" v="tram"/>
    <tag k="tracks" v="2"/>
  </way>
  <way id="9801481" version="14" timestamp="2010-04-18T20:25:34Z" uid="129531" user="almich" changeset="4462598">
    <nd ref="78139595"/>
    <nd ref="639717211"/>
    <nd ref="57473991"/>
    <tag k="bridge" v="yes"/>
    <tag k="electrified" v="contact_line"/>
    <tag k="frequency" v="0"/>
    <tag k="gauge" v="1435"/>
    <tag k="highway" v="tertiary"/>
    <tag k="layer" v="1"/>
    <tag k="maxspeed" v="50"/>
    <tag k="name" v="Marienbrücke"/>
    <tag k="oneway" v="yes"/>
    <tag k="railway" v="tram"/>
    <tag k="tracks" v="2"/>
  </way>
  <way id="9801481" version="15" timestamp="2011-11-08T00:46:23Z" uid="129531" user="almich" changeset="9770160">
    <nd ref="78139595"/>
    <nd ref="639717211"/>
    <nd ref="57473991"/>
    <tag k="bridge" v="yes"/>
    <tag k="electrified" v="contact_line"/>
    <tag k="frequency" v="0"/>
    <tag k="gauge" v="1435"/>
    <tag k="highway" v="tertiary"/>
    <tag k="layer" v="1"/>
    <tag k="maxspeed" v="50"/>
    <tag k="name" v="Marienbrücke"/>
    <tag k="oneway" v="yes"/>
    <tag k="railway" v="tram"/>
    <tag k="tracks" v="2"/>
    <tag k="voltage" v="600"/>
  </way>
  <way id="9801899" version="24" timestamp="2009-01-03T14:09:17Z" uid="58091" user="Andreas M" changeset="721411">
    <nd ref="260239719"/>
    <nd ref="25637943"/>
    <nd ref="256734045"/>
    <nd ref="25637946"/>
    <tag k="created_by" v="Potlatch 0.10b"/>
    <tag k="highway" v="secondary"/>
    <tag k="name" v="Vollbadgasse"/>
    <tag k="railway" v="tram"/>
  </way>
  <way id="9801899" version="25" timestamp="2010-01-20T21:13:21Z" uid="78656" user="Walter Schlögl" changeset="3670497">
    <nd ref="260239719"/>
    <nd ref="25637943"/>
    <nd ref="256734045"/>
    <nd ref="25637946"/>
    <tag k="highway" v="secondary"/>
    <tag k="maxspeed" v="50"/>
    <tag k="name" v="Vollbadgasse"/>
    <tag k="railway" v="tram"/>
  </way>
  <way id="9801899" version="26" timestamp="2010-04-18T19:58:46Z" uid="129531" user="almich" changeset="4462273">
    <nd ref="260239719"/>
    <nd ref="25637943"/>
    <nd ref="256734045"/>
    <nd ref="25637946"/>
    <tag k="gauge" v="1435"/>
    <tag k="highway" v="secondary"/>
    <tag k="maxspeed" v="50"/>
    <tag k="name" v="Vollbadgasse"/>
    <tag k="railway" v="tram"/>
  </way>
  <way id="9801899" version="27" timestamp="2010-04-18T20:23:50Z" uid="129531" user="almich" changeset="4462598">
    <nd ref="260239719"/>
    <nd ref="25637943"/>
    <nd ref="256734045"/>
    <nd ref="25637946"/>
    <tag k="electrified" v="contact_line"/>
    <tag k="frequency" v="0"/>
    <tag k="gauge" v="1435"/>
    <tag k="highway" v="secondary"/>
    <tag k="maxspeed" v="50"/>
    <tag k="name" v="Vollbadgasse"/>
    <tag k="railway" v="tram"/>
  </way>
  <way id="9801899" version="28" timestamp="2010-08-03T20:09:45Z" uid="56986" user="alice23" changeset="5393553">
    <nd ref="260239719"/>
    <nd ref="845251120"/>
    <nd ref="845251088"/>
    <nd ref="256734045"/>
    <nd ref="845251096"/>
    <nd ref="845250977"/>
    <nd ref="25637946"/>
    <tag k="electrified" v="contact_line"/>
    <tag k="frequency" v="0"/>
    <tag k="gauge" v="1435"/>
    <tag k="highway" v="secondary"/>
    <tag k="maxspeed" v="50"/>
    <tag k="name" v="Vollbadgasse"/>
    <tag k="railway" v="tram"/>
  </way>
  <way id="9801899" version="29" timestamp="2010-09-13T20:11:53Z" uid="129531" user="almich" changeset="5773276">
    <nd ref="260239719"/>
    <nd ref="845251120"/>
    <nd ref="845251088"/>
    <nd ref="256734045"/>
    <nd ref="845251096"/>
    <nd ref="845250977"/>
    <nd ref="25637946"/>
    <tag k="electrified" v="contact_line"/>
    <tag k="frequency" v="0"/>
    <tag k="gauge" v="1435"/>
    <tag k="highway" v="secondary"/>
    <tag k="maxspeed" v="50"/>
    <tag k="name" v="Vollbadgasse"/>
    <tag k="railway" v="tram"/>
    <tag k="tracks" v="2"/>
  </way>
  <way id="9801899" version="30" timestamp="2011-11-08T00:01:07Z" uid="129531" user="almich" changeset="9770029">
    <nd ref="260239719"/>
    <nd ref="845251120"/>
    <nd ref="845251088"/>
    <nd ref="256734045"/>
    <nd ref="845251096"/>
    <nd ref="845250977"/>
    <nd ref="25637946"/>
    <tag k="electrified" v="contact_line"/>
    <tag k="frequency" v="0"/>
    <tag k="gauge" v="1435"/>
    <tag k="highway" v="secondary"/>
    <tag k="maxspeed" v="50"/>
    <tag k="name" v="Vollbadgasse"/>
    <tag k="railway" v="tram"/>
    <tag k="tracks" v="2"/>
    <tag k="voltage" v="600"/>
  </way>
  <way id="9801899" version="31" timestamp="2011-12-02T20:16:13Z" uid="26818" user="David &amp; Christine Schmitt" changeset="10019788">
    <nd ref="260239719"/>
    <nd ref="1528780310"/>
    <nd ref="1528780320"/>
    <nd ref="845251120"/>
    <nd ref="1528780372"/>
    <nd ref="1528780446"/>
    <nd ref="845251088"/>
    <nd ref="845251096"/>
    <nd ref="845250977"/>
    <nd ref="1528780606"/>
    <nd ref="25637946"/>
    <tag k="electrified" v="contact_line"/>
    <tag k="frequency" v="0"/>
    <tag k="gauge" v="1435"/>
    <tag k="highway" v="secondary"/>
    <tag k="maxspeed" v="50"/>
    <tag k="name" v="Vollbadgasse"/>
    <tag k="railway" v="tram"/>
    <tag k="tracks" v="2"/>
    <tag k="voltage" v="600"/>
  </way>
</osm>
