<?xml version='1.0' encoding='UTF-8'?>
<osm version="0.6" generator="libosmium/2.20.0">
  <way id="98675088" version="1" timestamp="2011-02-08T02:06:40Z" uid="4467" user="Rosscoe" changeset="7222946">
    <nd ref="1141642233"/>
    <nd ref="1141642198"/>
    <nd ref="1141642226"/>
    <nd ref="1141642238"/>
    <nd ref="1141642215"/>
    <nd ref="1141642241"/>
    <nd ref="1141642216"/>
    <tag k="cycleway" v="lane"/>
    <tag k="highway" v="secondary"/>
    <tag k="name" v="Norman Street"/>
    <tag k="source" v="survey"/>
  </way>
  <way id="98675090" version="1" timestamp="2011-02-08T02:06:40Z" uid="4467" user="Rosscoe" changeset="7222946">
    <nd ref="1141642216"/>
    <nd ref="1141642203"/>
    <nd ref="619744464"/>
    <tag k="highway" v="secondary"/>
    <tag k="name" v="Norman Street"/>
    <tag k="source" v="survey"/>
  </way>
  <way id="98675092" version="1" timestamp="2011-02-08T02:06:40Z" uid="4467" user="Rosscoe" changeset="7222946">
    <nd ref="619715668"/>
    <nd ref="1141642235"/>
    <nd ref="1141642233"/>
    <tag k="highway" v="secondary"/>
    <tag k="name" v="Norman Street"/>
    <tag k="source" v="survey"/>
  </way>
</osm>
