<?xml version='1.0' encoding='UTF-8'?>
<osm version="0.6" generator="libosmium/2.20.0">
  <way id="98792747" version="2" timestamp="2011-02-11T18:11:19Z" uid="16922" user="amai" changeset="7257622">
    <nd ref="325212294"/>
    <nd ref="702190976"/>
    <nd ref="702190971"/>
    <nd ref="702190972"/>
    <nd ref="1147690627"/>
    <nd ref="702190973"/>
    <nd ref="702190977"/>
    <nd ref="702190978"/>
    <nd ref="1122114474"/>
    <tag k="highway" v="residential"/>
    <tag k="name" v="FIXME"/>
    <tag k="source" v="Yahoo Aerial"/>
  </way>
  <way id="98792747" version="3" timestamp="2011-08-30T16:19:59Z" uid="287183" user="thep" changeset="9168738">
    <nd ref="325212294"/>
    <nd ref="702190976"/>
    <nd ref="702190971"/>
    <nd ref="702190972"/>
    <nd ref="1147690627"/>
    <nd ref="702190973"/>
    <nd ref="702190977"/>
    <nd ref="702190978"/>
    <nd ref="1122114474"/>
    <nd ref="1122114496"/>
    <tag k="highway" v="residential"/>
    <tag k="name" v="ถนนศรีเวียง"/>
    <tag k="name:en" v="Si Wiang Road"/>
    <tag k="name:th" v="ถนนศรีเวียง"/>
    <tag k="source" v="Yahoo; sign"/>
  </way>
  <way id="98792747" version="4" timestamp="2012-03-06T23:35:55Z" uid="61891" user="stephankn" changeset="10895672">
    <nd ref="325212294"/>
    <nd ref="702190976"/>
    <nd ref="702190971"/>
    <nd ref="702190972"/>
    <nd ref="702190973"/>
    <nd ref="702190977"/>
    <nd ref="702190978"/>
    <nd ref="1122114474"/>
    <nd ref="1122114496"/>
    <tag k="highway" v="residential"/>
    <tag k="name" v="ถนนศรีเวียง"/>
    <tag k="name:en" v="Si Wiang Road"/>
    <tag k="name:th" v="ถนนศรีเวียง"/>
    <tag k="source" v="Yahoo; sign"/>
  </way>
  <way id="98792747" version="5" timestamp="2012-03-21T19:49:59Z" uid="609760" user="Dan Wood" changeset="11056157">
    <nd ref="325212294"/>
    <nd ref="702190976"/>
    <nd ref="702190971"/>
    <nd ref="702190972"/>
    <nd ref="1685047458"/>
    <nd ref="702190973"/>
    <nd ref="702190977"/>
    <nd ref="1685047467"/>
    <nd ref="702190978"/>
    <nd ref="1122114474"/>
    <nd ref="1122114496"/>
    <tag k="highway" v="residential"/>
    <tag k="name" v="ถนนศรีเวียง"/>
    <tag k="name:en" v="Si Wiang Road"/>
    <tag k="name:th" v="ถนนศรีเวียง"/>
    <tag k="source" v="Yahoo; sign"/>
  </way>
</osm>
