<?xml version='1.0' encoding='UTF-8'?>
<osm version="0.6" generator="libosmium/2.20.0">
  <way id="98911372" version="1" timestamp="2011-02-09T19:32:40Z" uid="115477" user="wowik" changeset="7239323">
    <nd ref="984992374"/>
    <nd ref="1144314392"/>
    <nd ref="700174917"/>
    <nd ref="700174920"/>
    <nd ref="984992374"/>
    <tag k="building" v="yes"/>
    <tag k="building:levels" v="5"/>
    <tag k="building:use" v="residential"/>
  </way>
  <way id="98911372" version="2" timestamp="2012-03-27T08:11:54Z" uid="481934" user="iWowik" changeset="11113698">
    <nd ref="984992374"/>
    <nd ref="1144314392"/>
    <nd ref="700174917"/>
    <nd ref="700174920"/>
    <nd ref="984992374"/>
    <tag k="addr:city" v="Зеленоград"/>
    <tag k="addr:country" v="RU"/>
    <tag k="building" v="yes"/>
    <tag k="building:levels" v="5"/>
    <tag k="building:use" v="residential"/>
  </way>
  <way id="98911372" version="3" timestamp="2012-03-27T11:52:38Z" uid="481934" user="iWowik" changeset="11115472">
    <nd ref="984992374"/>
    <nd ref="1144314392"/>
    <nd ref="700174917"/>
    <nd ref="700174920"/>
    <nd ref="984992374"/>
    <tag k="addr:city" v="Зеленоград"/>
    <tag k="addr:country" v="RU"/>
    <tag k="addr:region" v="Москва"/>
    <tag k="building" v="yes"/>
    <tag k="building:levels" v="5"/>
    <tag k="building:use" v="residential"/>
  </way>
</osm>
