<?xml version='1.0' encoding='UTF-8'?>
<osm version="0.6" generator="libosmium/2.20.0">
  <way id="98985297" version="3" timestamp="2011-04-20T12:57:56Z" uid="115477" user="wowik" changeset="7916018">
    <nd ref="1145199334"/>
    <nd ref="1145199276"/>
    <nd ref="1145199264"/>
    <nd ref="469932217"/>
    <nd ref="469932216"/>
    <nd ref="1145199290"/>
    <nd ref="1145199248"/>
    <nd ref="1145199334"/>
    <tag k="addr:city" v="Москва"/>
    <tag k="addr:country" v="RU"/>
    <tag k="addr:housenumber" v="8"/>
    <tag k="addr:street" v="Большая Никитская улица"/>
    <tag k="building" v="yes"/>
  </way>
  <way id="98985298" version="3" timestamp="2011-04-20T12:57:24Z" uid="115477" user="wowik" changeset="7916018">
    <nd ref="1145199280"/>
    <nd ref="1145199309"/>
    <nd ref="1145199300"/>
    <nd ref="1145199313"/>
    <nd ref="1145199314"/>
    <nd ref="1145199275"/>
    <nd ref="1145199282"/>
    <nd ref="1145199254"/>
    <nd ref="1145199263"/>
    <nd ref="1145199299"/>
    <nd ref="1145199322"/>
    <nd ref="1145199310"/>
    <nd ref="1145199340"/>
    <nd ref="1145199335"/>
    <nd ref="1145199280"/>
    <tag k="addr:city" v="Москва"/>
    <tag k="addr:country" v="RU"/>
    <tag k="addr:housenumber" v="3 c2"/>
    <tag k="addr:street" v="Никитский переулок"/>
    <tag k="building" v="yes"/>
  </way>
  <way id="98985299" version="2" timestamp="2011-04-20T12:59:49Z" uid="115477" user="wowik" changeset="7916018">
    <nd ref="1145199274"/>
    <nd ref="1145199333"/>
    <nd ref="1145199327"/>
    <nd ref="1145199311"/>
    <nd ref="1145199274"/>
    <tag k="addr:city" v="Москва"/>
    <tag k="addr:country" v="RU"/>
    <tag k="building" v="yes"/>
  </way>
  <way id="98985300" version="2" timestamp="2011-04-20T12:59:31Z" uid="115477" user="wowik" changeset="7916018">
    <nd ref="1145199301"/>
    <nd ref="1145199343"/>
    <nd ref="1145199295"/>
    <nd ref="1145199323"/>
    <nd ref="1145199301"/>
    <tag k="addr:city" v="Москва"/>
    <tag k="addr:country" v="RU"/>
    <tag k="building" v="yes"/>
  </way>
  <way id="98985301" version="2" timestamp="2011-04-20T12:59:38Z" uid="115477" user="wowik" changeset="7916018">
    <nd ref="1145199336"/>
    <nd ref="1145199287"/>
    <nd ref="1145199251"/>
    <nd ref="1145199259"/>
    <nd ref="1145199336"/>
    <tag k="addr:city" v="Москва"/>
    <tag k="addr:country" v="RU"/>
    <tag k="building" v="yes"/>
  </way>
  <way id="98985302" version="2" timestamp="2011-04-20T12:59:57Z" uid="115477" user="wowik" changeset="7916018">
    <nd ref="1145199305"/>
    <nd ref="1145199269"/>
    <nd ref="1145199339"/>
    <nd ref="1145199345"/>
    <nd ref="1145199305"/>
    <tag k="addr:city" v="Москва"/>
    <tag k="addr:country" v="RU"/>
    <tag k="building" v="yes"/>
  </way>
  <way id="98985304" version="3" timestamp="2011-04-20T12:57:31Z" uid="115477" user="wowik" changeset="7916018">
    <nd ref="1145199262"/>
    <nd ref="1145199331"/>
    <nd ref="1145199328"/>
    <nd ref="1145199311"/>
    <nd ref="1145199262"/>
    <tag k="addr:city" v="Москва"/>
    <tag k="addr:country" v="RU"/>
    <tag k="addr:housenumber" v="10"/>
    <tag k="addr:street" v="Большая Никитская улица"/>
    <tag k="building" v="yes"/>
  </way>
  <way id="98985304" version="4" timestamp="2011-12-26T14:03:49Z" uid="260756" user="Felis Pimeja" changeset="10207368">
    <nd ref="1145199262"/>
    <nd ref="1145199331"/>
    <nd ref="1145199328"/>
    <nd ref="1562455826"/>
    <nd ref="1145199311"/>
    <nd ref="1145199262"/>
    <tag k="addr:city" v="Москва"/>
    <tag k="addr:country" v="RU"/>
    <tag k="addr:housenumber" v="10"/>
    <tag k="addr:street" v="Большая Никитская улица"/>
    <tag k="building" v="yes"/>
  </way>
  <way id="98985305" version="3" timestamp="2011-04-20T12:57:40Z" uid="115477" user="wowik" changeset="7916018">
    <nd ref="1145199302"/>
    <nd ref="1145199256"/>
    <nd ref="1145199308"/>
    <nd ref="1145199272"/>
    <nd ref="1145199347"/>
    <nd ref="1145199337"/>
    <nd ref="1145199302"/>
    <tag k="addr:city" v="Москва"/>
    <tag k="addr:country" v="RU"/>
    <tag k="addr:housenumber" v="3"/>
    <tag k="addr:street" v="Никитский переулок"/>
    <tag k="building" v="yes"/>
  </way>
  <way id="98985306" version="3" timestamp="2011-04-20T12:57:07Z" uid="115477" user="wowik" changeset="7916018">
    <nd ref="1145199291"/>
    <nd ref="1145199307"/>
    <nd ref="1145199285"/>
    <nd ref="1145199250"/>
    <nd ref="1145199291"/>
    <tag k="addr:city" v="Москва"/>
    <tag k="addr:country" v="RU"/>
    <tag k="addr:housenumber" v="2"/>
    <tag k="addr:street" v="Газетный переулок"/>
    <tag k="building" v="yes"/>
  </way>
  <way id="98985307" version="2" timestamp="2011-04-20T12:59:42Z" uid="115477" user="wowik" changeset="7916018">
    <nd ref="1145199293"/>
    <nd ref="1145199332"/>
    <nd ref="1145199253"/>
    <nd ref="1145199321"/>
    <nd ref="1145199293"/>
    <tag k="addr:city" v="Москва"/>
    <tag k="addr:country" v="RU"/>
    <tag k="addr:housename" v="8c13"/>
    <tag k="building" v="yes"/>
  </way>
  <way id="98985308" version="2" timestamp="2011-04-20T13:00:00Z" uid="115477" user="wowik" changeset="7916018">
    <nd ref="1145199325"/>
    <nd ref="1145199277"/>
    <nd ref="1145199281"/>
    <nd ref="1145199292"/>
    <nd ref="1145199270"/>
    <nd ref="1145199318"/>
    <nd ref="1145199325"/>
    <tag k="addr:city" v="Москва"/>
    <tag k="addr:country" v="RU"/>
    <tag k="addr:housenumber" v="8"/>
    <tag k="building" v="yes"/>
  </way>
  <way id="98985308" version="3" timestamp="2011-07-27T13:26:49Z" uid="433361" user="Dima M" changeset="8845068">
    <nd ref="1375774539"/>
    <nd ref="1145199325"/>
    <nd ref="1145199277"/>
    <nd ref="1145199281"/>
    <nd ref="1145199292"/>
    <nd ref="1145199270"/>
    <nd ref="1375774539"/>
    <tag k="addr:city" v="Москва"/>
    <tag k="addr:country" v="RU"/>
    <tag k="addr:housenumber" v="8"/>
    <tag k="addr:street" v="Большая Никитская улица"/>
    <tag k="building" v="yes"/>
  </way>
  <way id="98985309" version="2" timestamp="2011-04-20T12:59:29Z" uid="115477" user="wowik" changeset="7916018">
    <nd ref="1145199267"/>
    <nd ref="1145199283"/>
    <nd ref="1145199329"/>
    <nd ref="1145199328"/>
    <nd ref="1145199349"/>
    <nd ref="1145199318"/>
    <nd ref="1145199267"/>
    <tag k="addr:city" v="Москва"/>
    <tag k="addr:country" v="RU"/>
    <tag k="building" v="yes"/>
  </way>
  <way id="98985309" version="3" timestamp="2011-12-26T14:04:50Z" uid="260756" user="Felis Pimeja" changeset="10207368">
    <nd ref="1145199267"/>
    <nd ref="1145199283"/>
    <nd ref="1562455826"/>
    <nd ref="1145199328"/>
    <nd ref="1145199349"/>
    <nd ref="1145199318"/>
    <nd ref="1145199267"/>
    <tag k="addr:city" v="Москва"/>
    <tag k="addr:country" v="RU"/>
    <tag k="building" v="yes"/>
  </way>
  <way id="98985310" version="2" timestamp="2011-04-20T12:59:50Z" uid="115477" user="wowik" changeset="7916018">
    <nd ref="1145199258"/>
    <nd ref="1145199273"/>
    <nd ref="1145199260"/>
    <nd ref="666830060"/>
    <nd ref="1145199252"/>
    <nd ref="1145199342"/>
    <nd ref="1145199306"/>
    <nd ref="1145199303"/>
    <nd ref="1145199258"/>
    <tag k="addr:city" v="Москва"/>
    <tag k="addr:country" v="RU"/>
    <tag k="building" v="yes"/>
  </way>
  <way id="98985311" version="2" timestamp="2011-04-20T12:59:55Z" uid="115477" user="wowik" changeset="7916018">
    <nd ref="1145199346"/>
    <nd ref="1145199257"/>
    <nd ref="1145199317"/>
    <nd ref="1145199247"/>
    <nd ref="1145199326"/>
    <nd ref="1145199298"/>
    <nd ref="1145199320"/>
    <nd ref="1145199284"/>
    <nd ref="1145199346"/>
    <tag k="addr:city" v="Москва"/>
    <tag k="addr:country" v="RU"/>
    <tag k="building" v="yes"/>
  </way>
  <way id="98985312" version="2" timestamp="2011-04-20T12:59:42Z" uid="115477" user="wowik" changeset="7916018">
    <nd ref="1145199294"/>
    <nd ref="1145199268"/>
    <nd ref="1145199278"/>
    <nd ref="1145199315"/>
    <nd ref="1145199294"/>
    <tag k="addr:city" v="Москва"/>
    <tag k="addr:country" v="RU"/>
    <tag k="building" v="yes"/>
    <tag k="name" v="Административное здание"/>
  </way>
</osm>
