<?xml version='1.0' encoding='UTF-8'?>
<osm version="0.6" generator="libosmium/2.20.0">
  <way id="99079792" version="1" timestamp="2011-02-10T22:56:56Z" uid="6269" user="Mueck" changeset="7250518">
    <nd ref="1146268221"/>
    <nd ref="1146269630"/>
    <nd ref="255926438"/>
    <tag k="highway" v="primary"/>
    <tag k="maxspeed" v="60"/>
    <tag k="name" v="Ostring"/>
    <tag k="note" v="im SHP des NVK: I"/>
    <tag k="oneway" v="yes"/>
    <tag k="ref" v="L 560"/>
  </way>
  <way id="99079792" version="2" timestamp="2011-03-04T15:09:33Z" uid="165061" user="keinname" changeset="7454993">
    <nd ref="1146268221"/>
    <nd ref="1146269630"/>
    <nd ref="255926438"/>
    <tag k="highway" v="primary"/>
    <tag k="lanes" v="1"/>
    <tag k="maxspeed" v="60"/>
    <tag k="name" v="Ostring"/>
    <tag k="note" v="im SHP des NVK: I"/>
    <tag k="oneway" v="yes"/>
    <tag k="ref" v="L 560"/>
  </way>
  <way id="99079792" version="3" timestamp="2011-10-25T13:43:47Z" uid="442210" user="dwausr" changeset="9652394"/>
</osm>
