<?xml version='1.0' encoding='UTF-8'?>
<osm version="0.6" generator="libosmium/2.20.0">
  <way id="99150783" version="2" timestamp="2011-04-20T12:59:27Z" uid="115477" user="wowik" changeset="7916018">
    <nd ref="1146881752"/>
    <nd ref="1146881786"/>
    <nd ref="1146881787"/>
    <nd ref="1146881724"/>
    <nd ref="1146881752"/>
    <tag k="addr:city" v="Москва"/>
    <tag k="addr:country" v="RU"/>
    <tag k="building" v="yes"/>
  </way>
  <way id="99150785" version="3" timestamp="2011-04-20T12:57:48Z" uid="115477" user="wowik" changeset="7916018">
    <nd ref="1146881787"/>
    <nd ref="1146881721"/>
    <nd ref="1146881781"/>
    <nd ref="1146881786"/>
    <nd ref="1146881787"/>
    <tag k="addr:city" v="Москва"/>
    <tag k="addr:country" v="RU"/>
    <tag k="addr:housenumber" v="14"/>
    <tag k="addr:street" v="Большая Никитская улица"/>
    <tag k="building" v="yes"/>
  </way>
  <way id="99150793" version="3" timestamp="2011-04-20T12:57:34Z" uid="115477" user="wowik" changeset="7916018">
    <nd ref="1146881721"/>
    <nd ref="1146881773"/>
    <nd ref="1146881734"/>
    <nd ref="1146881781"/>
    <nd ref="1146881721"/>
    <tag k="addr:city" v="Москва"/>
    <tag k="addr:country" v="RU"/>
    <tag k="addr:housenumber" v="12"/>
    <tag k="addr:street" v="Большая Никитская улица"/>
    <tag k="amenity" v="public_building"/>
    <tag k="building" v="yes"/>
  </way>
  <way id="99150798" version="2" timestamp="2011-04-20T12:59:46Z" uid="115477" user="wowik" changeset="7916018">
    <nd ref="1146881734"/>
    <nd ref="1146881762"/>
    <nd ref="1146881766"/>
    <nd ref="1146881774"/>
    <nd ref="1146881773"/>
    <nd ref="1146881734"/>
    <tag k="addr:city" v="Москва"/>
    <tag k="addr:country" v="RU"/>
    <tag k="addr:housenumber" v="12c2"/>
    <tag k="amenity" v="public_building"/>
    <tag k="building" v="yes"/>
  </way>
  <way id="99150798" version="3" timestamp="2011-07-27T13:27:49Z" uid="433361" user="Dima M" changeset="8845080">
    <nd ref="1146881734"/>
    <nd ref="1146881762"/>
    <nd ref="1146881766"/>
    <nd ref="1146881774"/>
    <nd ref="1146881773"/>
    <nd ref="1146881734"/>
    <tag k="addr:city" v="Москва"/>
    <tag k="addr:country" v="RU"/>
    <tag k="addr:housenumber" v="12c2"/>
    <tag k="addr:street" v="Большая Никитская улица"/>
    <tag k="amenity" v="public_building"/>
    <tag k="building" v="yes"/>
  </way>
  <way id="99150798" version="4" timestamp="2011-08-31T05:59:15Z" uid="433361" user="Dima M" changeset="9173309">
    <nd ref="1146881734"/>
    <nd ref="1146881762"/>
    <nd ref="1146881766"/>
    <nd ref="1146881774"/>
    <nd ref="1146881773"/>
    <nd ref="1146881734"/>
    <tag k="addr:city" v="Москва"/>
    <tag k="addr:country" v="RU"/>
    <tag k="addr:housenumber" v="12 с2"/>
    <tag k="addr:street" v="Большая Никитская улица"/>
    <tag k="amenity" v="public_building"/>
    <tag k="building" v="yes"/>
  </way>
</osm>
