<?xml version='1.0' encoding='UTF-8'?>
<osm version="0.6" generator="libosmium/2.20.0">
  <way id="99998138" version="1" timestamp="2011-02-16T10:16:17Z" uid="115477" user="wowik" changeset="7302413">
    <nd ref="1156195749"/>
    <nd ref="1156195625"/>
    <nd ref="1156195699"/>
    <nd ref="1156195672"/>
    <nd ref="1156195749"/>
    <tag k="addr:housenumber" v="35 к1 с1"/>
    <tag k="addr:street" v="Новокуркинское шоссе"/>
    <tag k="building" v="yes"/>
    <tag k="building:levels" v="1"/>
    <tag k="cladr:code" v="77000000000451400"/>
    <tag k="power" v="sub_station"/>
  </way>
  <way id="99998138" version="2" timestamp="2012-03-27T08:08:54Z" uid="481934" user="iWowik" changeset="11113698">
    <nd ref="1156195749"/>
    <nd ref="1156195625"/>
    <nd ref="1156195699"/>
    <nd ref="1156195672"/>
    <nd ref="1156195749"/>
    <tag k="addr:city" v="Москва"/>
    <tag k="addr:country" v="RU"/>
    <tag k="addr:housenumber" v="35 к1 с1"/>
    <tag k="addr:street" v="Новокуркинское шоссе"/>
    <tag k="building" v="yes"/>
    <tag k="building:levels" v="1"/>
    <tag k="cladr:code" v="77000000000451400"/>
    <tag k="power" v="sub_station"/>
  </way>
  <way id="99998139" version="1" timestamp="2011-02-16T10:16:17Z" uid="115477" user="wowik" changeset="7302413">
    <nd ref="1156195685"/>
    <nd ref="1156195624"/>
    <nd ref="1156195698"/>
    <nd ref="1156195670"/>
    <nd ref="1156195685"/>
    <tag k="leisure" v="pitch"/>
  </way>
  <way id="99998140" version="1" timestamp="2011-02-16T10:16:17Z" uid="115477" user="wowik" changeset="7302413">
    <nd ref="1156195765"/>
    <nd ref="1156195713"/>
    <nd ref="1156195782"/>
    <nd ref="1156195753"/>
    <nd ref="1156195641"/>
    <nd ref="1156195795"/>
    <nd ref="1156195765"/>
    <tag k="addr:housenumber" v="27 c1"/>
    <tag k="addr:street" v="Новокуркинское шоссе"/>
    <tag k="building" v="yes"/>
    <tag k="building:levels" v="1"/>
    <tag k="building:use" v="residential"/>
    <tag k="cladr:code" v="77000000000451400"/>
  </way>
  <way id="99998140" version="2" timestamp="2012-03-27T08:07:56Z" uid="481934" user="iWowik" changeset="11113698">
    <nd ref="1156195765"/>
    <nd ref="1156195713"/>
    <nd ref="1156195782"/>
    <nd ref="1156195753"/>
    <nd ref="1156195641"/>
    <nd ref="1156195795"/>
    <nd ref="1156195765"/>
    <tag k="addr:city" v="Москва"/>
    <tag k="addr:country" v="RU"/>
    <tag k="addr:housenumber" v="27 c1"/>
    <tag k="addr:street" v="Новокуркинское шоссе"/>
    <tag k="building" v="yes"/>
    <tag k="building:levels" v="1"/>
    <tag k="building:use" v="residential"/>
    <tag k="cladr:code" v="77000000000451400"/>
  </way>
  <way id="99998141" version="1" timestamp="2011-02-16T10:16:17Z" uid="115477" user="wowik" changeset="7302413">
    <nd ref="1156195672"/>
    <nd ref="1156195776"/>
    <nd ref="1156195665"/>
    <nd ref="1156195699"/>
    <nd ref="1156195672"/>
    <tag k="addr:housenumber" v="35 к1 с2"/>
    <tag k="addr:street" v="Новокуркинское шоссе"/>
    <tag k="building" v="yes"/>
    <tag k="building:levels" v="1"/>
    <tag k="cladr:code" v="77000000000451400"/>
    <tag k="power" v="sub_station"/>
  </way>
  <way id="99998141" version="2" timestamp="2012-03-27T08:08:54Z" uid="481934" user="iWowik" changeset="11113698">
    <nd ref="1156195672"/>
    <nd ref="1156195776"/>
    <nd ref="1156195665"/>
    <nd ref="1156195699"/>
    <nd ref="1156195672"/>
    <tag k="addr:city" v="Москва"/>
    <tag k="addr:country" v="RU"/>
    <tag k="addr:housenumber" v="35 к1 с2"/>
    <tag k="addr:street" v="Новокуркинское шоссе"/>
    <tag k="building" v="yes"/>
    <tag k="building:levels" v="1"/>
    <tag k="cladr:code" v="77000000000451400"/>
    <tag k="power" v="sub_station"/>
  </way>
</osm>
