<?xml version='1.0' encoding='UTF-8'?>
<osm version="0.6" generator="libosmium/2.20.0">
  <way id="100480517" version="1" timestamp="2011-02-19T15:44:12Z" uid="4467" user="Rosscoe" changeset="7333181">
    <nd ref="1161545218"/>
    <nd ref="320480380"/>
    <nd ref="1161442738"/>
    <tag k="name" v="Swan Hill Line"/>
    <tag k="railway" v="rail"/>
    <tag k="source" v="nearmap"/>
  </way>
  <way id="100480521" version="1" timestamp="2011-02-19T15:44:13Z" uid="4467" user="Rosscoe" changeset="7333181">
    <nd ref="1161545215"/>
    <nd ref="1161545218"/>
    <tag k="bridge" v="yes"/>
    <tag k="layer" v="1"/>
    <tag k="name" v="Swan Hill Line"/>
    <tag k="railway" v="rail"/>
    <tag k="source" v="nearmap"/>
  </way>
  <way id="100480523" version="1" timestamp="2011-02-19T15:44:14Z" uid="4467" user="Rosscoe" changeset="7333181">
    <nd ref="1161545265"/>
    <nd ref="1161442889"/>
    <nd ref="1161545215"/>
    <tag k="name" v="Swan Hill Line"/>
    <tag k="railway" v="rail"/>
    <tag k="source" v="nearmap"/>
  </way>
  <way id="100480554" version="1" timestamp="2011-02-19T15:44:22Z" uid="4467" user="Rosscoe" changeset="7333181">
    <nd ref="135619502"/>
    <nd ref="145489343"/>
    <nd ref="135619533"/>
    <nd ref="1104250536"/>
    <nd ref="135619564"/>
    <nd ref="135619593"/>
    <nd ref="1127750951"/>
    <nd ref="1127751107"/>
    <nd ref="1127751087"/>
    <nd ref="135619616"/>
    <nd ref="1127750850"/>
    <nd ref="1127750184"/>
    <nd ref="1161545568"/>
    <tag k="highway" v="primary"/>
  </way>
  <way id="100480567" version="1" timestamp="2011-02-19T15:44:25Z" uid="4467" user="Rosscoe" changeset="7333181">
    <nd ref="1161545668"/>
    <nd ref="1127750630"/>
    <nd ref="135619678"/>
    <nd ref="1127750357"/>
    <nd ref="1127751165"/>
    <nd ref="1127750760"/>
    <nd ref="1127750660"/>
    <nd ref="135619698"/>
    <nd ref="1127750783"/>
    <nd ref="135619718"/>
    <nd ref="1127750144"/>
    <nd ref="135619744"/>
    <nd ref="1127750425"/>
    <nd ref="135619753"/>
    <nd ref="135619768"/>
    <nd ref="135619787"/>
    <nd ref="135619802"/>
    <nd ref="135619811"/>
    <nd ref="135619821"/>
    <nd ref="135619832"/>
    <nd ref="135619849"/>
    <nd ref="135619862"/>
    <nd ref="135619906"/>
    <nd ref="135619928"/>
    <nd ref="135619941"/>
    <nd ref="135619963"/>
    <nd ref="135619981"/>
    <nd ref="135620001"/>
    <nd ref="135620020"/>
    <nd ref="585768668"/>
    <nd ref="135620047"/>
    <nd ref="585768699"/>
    <nd ref="585768697"/>
    <nd ref="135620078"/>
    <nd ref="135620106"/>
    <nd ref="135620137"/>
    <nd ref="135620161"/>
    <nd ref="135620172"/>
    <nd ref="135620186"/>
    <nd ref="135620207"/>
    <nd ref="715120095"/>
    <nd ref="715120109"/>
    <nd ref="715119967"/>
    <nd ref="715120161"/>
    <nd ref="715120032"/>
    <nd ref="715120046"/>
    <nd ref="715120113"/>
    <nd ref="715119977"/>
    <nd ref="715120059"/>
    <nd ref="715120092"/>
    <nd ref="715120130"/>
    <nd ref="135620232"/>
    <nd ref="715120029"/>
    <nd ref="135620250"/>
    <nd ref="715120075"/>
    <nd ref="715120167"/>
    <nd ref="715120011"/>
    <nd ref="135620273"/>
    <nd ref="135620290"/>
    <nd ref="135620315"/>
    <nd ref="135620340"/>
    <nd ref="135620369"/>
    <nd ref="135620397"/>
    <nd ref="135620421"/>
    <nd ref="135620450"/>
    <nd ref="135620483"/>
    <nd ref="135620517"/>
    <nd ref="135620551"/>
    <nd ref="135620585"/>
    <nd ref="135620614"/>
    <nd ref="135620641"/>
    <nd ref="673026872"/>
    <nd ref="252999725"/>
    <nd ref="135620671"/>
    <nd ref="252999726"/>
    <nd ref="252999727"/>
    <nd ref="252999728"/>
    <nd ref="252999710"/>
    <tag k="highway" v="primary"/>
  </way>
  <way id="100480573" version="1" timestamp="2011-02-19T15:44:27Z" uid="4467" user="Rosscoe" changeset="7333181">
    <nd ref="135619657"/>
    <nd ref="1161545668"/>
    <tag k="bridge" v="yes"/>
    <tag k="highway" v="primary"/>
    <tag k="layer" v="1"/>
  </way>
  <way id="100480577" version="1" timestamp="2011-02-19T15:44:27Z" uid="4467" user="Rosscoe" changeset="7333181">
    <nd ref="135619637"/>
    <nd ref="1127750946"/>
    <nd ref="135619657"/>
    <tag k="highway" v="primary"/>
  </way>
  <way id="100480578" version="1" timestamp="2011-02-19T15:44:27Z" uid="4467" user="Rosscoe" changeset="7333181">
    <nd ref="1161545568"/>
    <nd ref="135619637"/>
    <tag k="bridge" v="yes"/>
    <tag k="highway" v="primary"/>
    <tag k="layer" v="1"/>
  </way>
  <way id="100480804" version="2" timestamp="2011-04-20T12:59:51Z" uid="115477" user="wowik" changeset="7916018">
    <nd ref="1161548322"/>
    <nd ref="1161548634"/>
    <nd ref="669833451"/>
    <nd ref="1161548589"/>
    <nd ref="1161548263"/>
    <nd ref="1161548567"/>
    <nd ref="1161548305"/>
    <nd ref="1161548146"/>
    <nd ref="1161548322"/>
    <tag k="addr:city" v="Москва"/>
    <tag k="addr:country" v="RU"/>
    <tag k="addr:housenumber" v="6"/>
    <tag k="building" v="yes"/>
  </way>
  <way id="100480806" version="2" timestamp="2011-04-20T12:59:40Z" uid="115477" user="wowik" changeset="7916018">
    <nd ref="1161548310"/>
    <nd ref="1161548129"/>
    <nd ref="1161548554"/>
    <nd ref="1161548222"/>
    <nd ref="1161548310"/>
    <tag k="addr:city" v="Москва"/>
    <tag k="addr:country" v="RU"/>
    <tag k="building" v="yes"/>
  </way>
  <way id="100480809" version="2" timestamp="2011-04-20T12:59:32Z" uid="115477" user="wowik" changeset="7916018">
    <nd ref="1161548211"/>
    <nd ref="1161548099"/>
    <nd ref="1161548636"/>
    <nd ref="1161548272"/>
    <nd ref="1161548211"/>
    <tag k="addr:city" v="Москва"/>
    <tag k="addr:country" v="RU"/>
    <tag k="building" v="yes"/>
    <tag k="cladr:code" v="77000000000711100"/>
  </way>
  <way id="100480811" version="2" timestamp="2011-04-20T12:59:59Z" uid="115477" user="wowik" changeset="7916018">
    <nd ref="1161548641"/>
    <nd ref="1161548171"/>
    <nd ref="1161548054"/>
    <nd ref="1161548222"/>
    <nd ref="1161548641"/>
    <tag k="addr:city" v="Москва"/>
    <tag k="addr:country" v="RU"/>
    <tag k="building" v="yes"/>
  </way>
  <way id="100480816" version="3" timestamp="2011-04-20T12:57:41Z" uid="115477" user="wowik" changeset="7916018">
    <nd ref="1161548544"/>
    <nd ref="1161548095"/>
    <nd ref="1161548550"/>
    <nd ref="1161548293"/>
    <nd ref="1161548331"/>
    <nd ref="1161548313"/>
    <nd ref="1161548588"/>
    <nd ref="1161548385"/>
    <nd ref="1161548376"/>
    <nd ref="1161548143"/>
    <nd ref="1161548544"/>
    <tag k="addr:city" v="Москва"/>
    <tag k="addr:country" v="RU"/>
    <tag k="addr:housenumber" v="6"/>
    <tag k="addr:street" v="Брюсов переулок"/>
    <tag k="building" v="yes"/>
  </way>
  <way id="100480817" version="2" timestamp="2011-04-20T12:59:58Z" uid="115477" user="wowik" changeset="7916018">
    <nd ref="1161548629"/>
    <nd ref="1161548473"/>
    <nd ref="1161548431"/>
    <nd ref="1161548563"/>
    <nd ref="1161548046"/>
    <nd ref="1161548317"/>
    <nd ref="1161548629"/>
    <tag k="addr:city" v="Москва"/>
    <tag k="addr:country" v="RU"/>
    <tag k="building" v="yes"/>
  </way>
  <way id="100480819" version="2" timestamp="2011-04-20T12:59:47Z" uid="115477" user="wowik" changeset="7916018">
    <nd ref="1161548509"/>
    <nd ref="1161548557"/>
    <nd ref="1161548554"/>
    <nd ref="1161548129"/>
    <nd ref="1161548067"/>
    <nd ref="1161548209"/>
    <nd ref="1161548611"/>
    <nd ref="1161548336"/>
    <nd ref="1161548040"/>
    <nd ref="1161548475"/>
    <nd ref="1161548509"/>
    <tag k="addr:city" v="Москва"/>
    <tag k="addr:country" v="RU"/>
    <tag k="building" v="yes"/>
  </way>
  <way id="100480824" version="3" timestamp="2011-04-20T12:57:27Z" uid="115477" user="wowik" changeset="7916018">
    <nd ref="1161548133"/>
    <nd ref="1161548236"/>
    <nd ref="1161548032"/>
    <nd ref="1161548368"/>
    <nd ref="1148892134"/>
    <nd ref="1161548529"/>
    <nd ref="1161548266"/>
    <nd ref="1161548193"/>
    <nd ref="1161548133"/>
    <tag k="addr:city" v="Москва"/>
    <tag k="addr:country" v="RU"/>
    <tag k="addr:housenumber" v="2"/>
    <tag k="addr:street" v="Средний Кисловский переулок"/>
    <tag k="building" v="yes"/>
  </way>
  <way id="100480826" version="3" timestamp="2011-04-20T12:57:04Z" uid="115477" user="wowik" changeset="7916018">
    <nd ref="1161548518"/>
    <nd ref="1161548560"/>
    <nd ref="1161548381"/>
    <nd ref="1161548601"/>
    <nd ref="1161548513"/>
    <nd ref="1161548558"/>
    <nd ref="1161548518"/>
    <tag k="addr:city" v="Москва"/>
    <tag k="addr:country" v="RU"/>
    <tag k="addr:housenumber" v="1/12"/>
    <tag k="addr:street" v="Газетный переулок"/>
    <tag k="building" v="yes"/>
  </way>
  <way id="100480829" version="3" timestamp="2011-04-20T12:56:52Z" uid="115477" user="wowik" changeset="7916018">
    <nd ref="1161548207"/>
    <nd ref="1161548279"/>
    <nd ref="1161548374"/>
    <nd ref="1161548592"/>
    <nd ref="1161548237"/>
    <nd ref="1161548207"/>
    <tag k="addr:city" v="Москва"/>
    <tag k="addr:country" v="RU"/>
    <tag k="addr:housenumber" v="2А"/>
    <tag k="addr:street" v="Брюсов переулок"/>
    <tag k="building" v="yes"/>
    <tag k="cladr:code" v="77000000000703600"/>
  </way>
  <way id="100480833" version="3" timestamp="2011-04-20T12:57:28Z" uid="115477" user="wowik" changeset="7916018">
    <nd ref="1161548465"/>
    <nd ref="1161548097"/>
    <nd ref="1161548243"/>
    <nd ref="708697114"/>
    <nd ref="708697113"/>
    <nd ref="1161548497"/>
    <nd ref="1161548465"/>
    <tag k="addr:city" v="Москва"/>
    <tag k="addr:country" v="RU"/>
    <tag k="addr:housenumber" v="4"/>
    <tag k="addr:street" v="Средний Кисловский переулок"/>
    <tag k="building" v="yes"/>
  </way>
  <way id="100480836" version="3" timestamp="2011-04-20T12:57:43Z" uid="115477" user="wowik" changeset="7916018">
    <nd ref="1161548609"/>
    <nd ref="1161548645"/>
    <nd ref="1161548452"/>
    <nd ref="1161548138"/>
    <nd ref="1161548327"/>
    <nd ref="1161548029"/>
    <nd ref="1161548609"/>
    <tag k="addr:city" v="Москва"/>
    <tag k="addr:country" v="RU"/>
    <tag k="addr:housenumber" v="11"/>
    <tag k="addr:street" v="Брюсов переулок"/>
    <tag k="building" v="yes"/>
    <tag k="cladr:code" v="77000000000711100"/>
  </way>
  <way id="100480839" version="2" timestamp="2011-04-20T12:59:48Z" uid="115477" user="wowik" changeset="7916018">
    <nd ref="1161548597"/>
    <nd ref="1161548512"/>
    <nd ref="1161548525"/>
    <nd ref="1161548416"/>
    <nd ref="1161548597"/>
    <tag k="addr:city" v="Москва"/>
    <tag k="addr:country" v="RU"/>
    <tag k="building" v="yes"/>
  </way>
  <way id="100480843" version="4" timestamp="2011-04-20T12:58:02Z" uid="115477" user="wowik" changeset="7916018">
    <nd ref="1161548283"/>
    <nd ref="1161548246"/>
    <nd ref="1161548182"/>
    <nd ref="1161548521"/>
    <nd ref="1161548283"/>
    <tag k="addr:city" v="Москва"/>
    <tag k="addr:country" v="RU"/>
    <tag k="addr:housenumber" v="9 с7"/>
    <tag k="addr:street" v="Газетный переулок"/>
    <tag k="building" v="yes"/>
  </way>
  <way id="100480845" version="3" timestamp="2011-04-20T12:57:38Z" uid="115477" user="wowik" changeset="7916018">
    <nd ref="1161548643"/>
    <nd ref="1161548260"/>
    <nd ref="1161548199"/>
    <nd ref="1161548054"/>
    <nd ref="1161548171"/>
    <nd ref="1161548290"/>
    <nd ref="1161548418"/>
    <nd ref="1161548429"/>
    <nd ref="1161548643"/>
    <tag k="addr:city" v="Москва"/>
    <tag k="addr:country" v="RU"/>
    <tag k="addr:housenumber" v="7 с1"/>
    <tag k="addr:street" v="Газетный переулок"/>
    <tag k="building" v="yes"/>
  </way>
  <way id="100480846" version="2" timestamp="2011-04-20T12:59:34Z" uid="115477" user="wowik" changeset="7916018">
    <nd ref="1161548150"/>
    <nd ref="1161548421"/>
    <nd ref="1161548426"/>
    <nd ref="1161548155"/>
    <nd ref="1161548150"/>
    <tag k="addr:city" v="Москва"/>
    <tag k="addr:country" v="RU"/>
    <tag k="building" v="yes"/>
  </way>
  <way id="100480850" version="2" timestamp="2011-04-20T12:59:45Z" uid="115477" user="wowik" changeset="7916018">
    <nd ref="1161548334"/>
    <nd ref="1161548383"/>
    <nd ref="1161548307"/>
    <nd ref="1161548029"/>
    <nd ref="1161548334"/>
    <tag k="addr:city" v="Москва"/>
    <tag k="addr:country" v="RU"/>
    <tag k="building" v="yes"/>
    <tag k="cladr:code" v="77000000000711100"/>
  </way>
  <way id="100480851" version="2" timestamp="2011-04-20T12:59:51Z" uid="115477" user="wowik" changeset="7916018">
    <nd ref="1161548628"/>
    <nd ref="1161548643"/>
    <nd ref="1161548429"/>
    <nd ref="1161548196"/>
    <nd ref="1161548628"/>
    <tag k="addr:city" v="Москва"/>
    <tag k="addr:country" v="RU"/>
    <tag k="building" v="yes"/>
  </way>
  <way id="100480854" version="3" timestamp="2011-04-20T12:57:53Z" uid="115477" user="wowik" changeset="7916018">
    <nd ref="1161548379"/>
    <nd ref="1161548035"/>
    <nd ref="469931998"/>
    <nd ref="1161548112"/>
    <nd ref="1161548379"/>
    <tag k="addr:city" v="Москва"/>
    <tag k="addr:country" v="RU"/>
    <tag k="addr:housenumber" v="9/15"/>
    <tag k="addr:street" v="Большая Никитская улица"/>
    <tag k="building" v="yes"/>
  </way>
  <way id="100480855" version="3" timestamp="2011-04-20T12:56:53Z" uid="115477" user="wowik" changeset="7916018">
    <nd ref="1161548108"/>
    <nd ref="1161548517"/>
    <nd ref="1148892109"/>
    <nd ref="1161548241"/>
    <nd ref="1161548108"/>
    <tag k="addr:city" v="Москва"/>
    <tag k="addr:country" v="RU"/>
    <tag k="addr:housenumber" v="1/12 с5"/>
    <tag k="addr:street" v="Брюсов переулок"/>
    <tag k="building" v="yes"/>
  </way>
  <way id="100480857" version="2" timestamp="2011-04-20T12:59:53Z" uid="115477" user="wowik" changeset="7916018">
    <nd ref="1161548422"/>
    <nd ref="1161548543"/>
    <nd ref="1161548571"/>
    <nd ref="1161548072"/>
    <nd ref="1161548187"/>
    <nd ref="1161548023"/>
    <nd ref="1161548233"/>
    <nd ref="1161548199"/>
    <nd ref="1161548155"/>
    <nd ref="1161548422"/>
    <tag k="addr:city" v="Москва"/>
    <tag k="addr:country" v="RU"/>
    <tag k="building" v="yes"/>
  </way>
  <way id="100480859" version="2" timestamp="2011-04-20T12:59:43Z" uid="115477" user="wowik" changeset="7916018">
    <nd ref="1161548102"/>
    <nd ref="1161548275"/>
    <nd ref="1161548626"/>
    <nd ref="1161548404"/>
    <nd ref="1161548383"/>
    <nd ref="1161548307"/>
    <nd ref="1161548164"/>
    <nd ref="1161548019"/>
    <nd ref="1161548400"/>
    <nd ref="1161548102"/>
    <tag k="addr:city" v="Москва"/>
    <tag k="addr:country" v="RU"/>
    <tag k="building" v="yes"/>
    <tag k="cladr:code" v="77000000000711100"/>
  </way>
  <way id="100480862" version="2" timestamp="2011-04-20T12:59:51Z" uid="115477" user="wowik" changeset="7916018">
    <nd ref="1161548361"/>
    <nd ref="1161548599"/>
    <nd ref="1161548500"/>
    <nd ref="1161548161"/>
    <nd ref="1161548050"/>
    <nd ref="1161548602"/>
    <nd ref="1161548229"/>
    <nd ref="1161548408"/>
    <nd ref="1161548411"/>
    <nd ref="1161548038"/>
    <nd ref="1161548377"/>
    <nd ref="1161548092"/>
    <nd ref="1161548202"/>
    <nd ref="1161548248"/>
    <nd ref="1161548615"/>
    <nd ref="1161548501"/>
    <nd ref="1161548084"/>
    <nd ref="1161548632"/>
    <nd ref="1161548361"/>
    <tag k="addr:city" v="Москва"/>
    <tag k="addr:country" v="RU"/>
    <tag k="addr:housenumber" v="14"/>
    <tag k="building" v="yes"/>
  </way>
  <way id="100480864" version="2" timestamp="2011-04-20T12:59:44Z" uid="115477" user="wowik" changeset="7916018">
    <nd ref="1161548270"/>
    <nd ref="1161548456"/>
    <nd ref="1161548505"/>
    <nd ref="1161548167"/>
    <nd ref="1161548357"/>
    <nd ref="1161548448"/>
    <nd ref="1161548548"/>
    <nd ref="1161548338"/>
    <nd ref="1161548472"/>
    <nd ref="1161548454"/>
    <nd ref="1161548365"/>
    <nd ref="1161548270"/>
    <tag k="addr:city" v="Москва"/>
    <tag k="addr:country" v="RU"/>
    <tag k="addr:housenumber" v="8"/>
    <tag k="building" v="yes"/>
  </way>
  <way id="100480867" version="2" timestamp="2011-04-20T12:59:38Z" uid="115477" user="wowik" changeset="7916018">
    <nd ref="1161548205"/>
    <nd ref="1161548158"/>
    <nd ref="1161548224"/>
    <nd ref="1161548623"/>
    <nd ref="1161548205"/>
    <tag k="addr:city" v="Москва"/>
    <tag k="addr:country" v="RU"/>
    <tag k="building" v="yes"/>
  </way>
  <way id="100480869" version="2" timestamp="2011-04-20T12:58:03Z" uid="115477" user="wowik" changeset="7916018">
    <nd ref="1161548625"/>
    <nd ref="1161548468"/>
    <nd ref="1161548518"/>
    <nd ref="1161548233"/>
    <nd ref="1161548023"/>
    <nd ref="1161548460"/>
    <nd ref="1161548625"/>
    <tag k="addr:city" v="Москва"/>
    <tag k="addr:country" v="RU"/>
    <tag k="addr:housenumber" v="3"/>
    <tag k="addr:street" v="Газетный переулок"/>
    <tag k="building" v="yes"/>
  </way>
  <way id="100480872" version="3" timestamp="2011-04-20T12:57:07Z" uid="115477" user="wowik" changeset="7916018">
    <nd ref="1161548605"/>
    <nd ref="1161548477"/>
    <nd ref="1161548584"/>
    <nd ref="1161548592"/>
    <nd ref="1161548605"/>
    <tag k="addr:city" v="Москва"/>
    <tag k="addr:country" v="RU"/>
    <tag k="addr:housenumber" v="2 с3"/>
    <tag k="addr:street" v="Брюсов переулок"/>
    <tag k="building" v="yes"/>
    <tag k="cladr:code" v="77000000000703600"/>
  </way>
  <way id="100480873" version="3" timestamp="2011-04-20T12:57:19Z" uid="115477" user="wowik" changeset="7916018">
    <nd ref="1161548340"/>
    <nd ref="1161548433"/>
    <nd ref="1161548105"/>
    <nd ref="1161548231"/>
    <nd ref="1161548340"/>
    <tag k="addr:city" v="Москва"/>
    <tag k="addr:country" v="RU"/>
    <tag k="addr:housenumber" v="2 с5"/>
    <tag k="addr:street" v="Брюсов переулок"/>
    <tag k="building" v="yes"/>
  </way>
  <way id="100480875" version="2" timestamp="2011-04-20T12:59:29Z" uid="115477" user="wowik" changeset="7916018">
    <nd ref="1161548220"/>
    <nd ref="1161548210"/>
    <nd ref="469931997"/>
    <nd ref="469931996"/>
    <nd ref="1161548236"/>
    <nd ref="1161548220"/>
    <tag k="addr:city" v="Москва"/>
    <tag k="addr:country" v="RU"/>
    <tag k="addr:housenumber" v="2"/>
    <tag k="building" v="yes"/>
  </way>
  <way id="100480987" version="1" timestamp="2011-02-19T15:46:11Z" uid="43967" user="railsnail" changeset="7333200">
    <nd ref="1161549703"/>
    <nd ref="1161549677"/>
    <nd ref="1161549670"/>
    <tag k="highway" v="footway"/>
  </way>
  <way id="100480989" version="1" timestamp="2011-02-19T15:46:11Z" uid="43967" user="railsnail" changeset="7333200">
    <nd ref="1161549677"/>
    <nd ref="1161549674"/>
    <nd ref="1161549682"/>
    <nd ref="1161549678"/>
    <tag k="highway" v="footway"/>
  </way>
  <way id="100480991" version="1" timestamp="2011-02-19T15:46:12Z" uid="43967" user="railsnail" changeset="7333200">
    <nd ref="1161549682"/>
    <nd ref="1161549688"/>
    <nd ref="1161549664"/>
    <tag k="highway" v="footway"/>
  </way>
  <way id="100480992" version="1" timestamp="2011-02-19T15:46:12Z" uid="43967" user="railsnail" changeset="7333200">
    <nd ref="269148633"/>
    <nd ref="1161549680"/>
    <nd ref="1161549703"/>
    <nd ref="1161549699"/>
    <nd ref="1161549664"/>
    <nd ref="1161549694"/>
    <tag k="highway" v="service"/>
  </way>
</osm>
