<?xml version='1.0' encoding='UTF-8'?>
<osm version="0.6" generator="libosmium/2.20.0">
  <way id="101979395" version="2" timestamp="2011-04-30T16:09:45Z" uid="33382" user="de_muur" changeset="8013079">
    <nd ref="372827961"/>
    <nd ref="1177295201"/>
    <nd ref="1267528409"/>
    <nd ref="1177295204"/>
    <nd ref="1177295206"/>
    <nd ref="1177295210"/>
    <nd ref="372827958"/>
    <tag k="highway" v="unclassified"/>
    <tag k="surface" v="concrete"/>
  </way>
  <way id="101979786" version="1" timestamp="2011-02-27T15:25:04Z" uid="43863" user="Rundling" changeset="7411854">
    <nd ref="1177298493"/>
    <nd ref="1177298483"/>
    <nd ref="503186248"/>
    <nd ref="503186251"/>
    <nd ref="1177298493"/>
    <tag k="addr:city" v="Rosche"/>
    <tag k="addr:housenumber" v="12"/>
    <tag k="addr:postcode" v="29571"/>
    <tag k="addr:street" v="Lüchower Straße"/>
    <tag k="amenity" v="police"/>
    <tag k="building" v="yes"/>
    <tag k="name" v="Polizeistützpunkt"/>
  </way>
  <way id="101979786" version="2" timestamp="2011-02-27T15:53:37Z" uid="43863" user="Rundling" changeset="7411937">
    <nd ref="1177298493"/>
    <nd ref="1177298483"/>
    <nd ref="1177339718"/>
    <nd ref="503186248"/>
    <nd ref="503186251"/>
    <nd ref="1177298493"/>
    <tag k="addr:city" v="Rosche"/>
    <tag k="addr:housenumber" v="12"/>
    <tag k="addr:postcode" v="29571"/>
    <tag k="addr:street" v="Lüchower Straße"/>
    <tag k="amenity" v="police"/>
    <tag k="building" v="yes"/>
    <tag k="name" v="Polizeistützpunkt"/>
  </way>
</osm>
