<?xml version='1.0' encoding='UTF-8'?>
<osm version="0.6" generator="libosmium/2.20.0">
  <way id="10212227" version="2" timestamp="2010-07-08T17:47:09Z" uid="74617" user="JohnSmith" changeset="5167338">
    <nd ref="84499660"/>
    <nd ref="84499650"/>
    <tag k="highway" v="residential"/>
    <tag k="maxspeed" v="50"/>
    <tag k="maxspeed:source" v="default residential speed limit in Australia"/>
    <tag k="name" v="Kelly Street"/>
  </way>
  <way id="10212229" version="3" timestamp="2010-07-08T17:48:35Z" uid="74617" user="JohnSmith" changeset="5167338">
    <nd ref="82570152"/>
    <nd ref="84499687"/>
    <nd ref="82570177"/>
    <nd ref="84499736"/>
    <nd ref="84499742"/>
    <nd ref="84499764"/>
    <nd ref="84499823"/>
    <nd ref="84499795"/>
    <tag k="highway" v="residential"/>
    <tag k="maxspeed" v="50"/>
    <tag k="maxspeed:source" v="default residential speed limit in Australia"/>
    <tag k="name" v="Hunt Street"/>
  </way>
  <way id="10212230" version="2" timestamp="2010-07-08T17:47:26Z" uid="74617" user="JohnSmith" changeset="5167338">
    <nd ref="60672576"/>
    <nd ref="84499838"/>
    <tag k="highway" v="residential"/>
    <tag k="maxspeed" v="50"/>
    <tag k="maxspeed:source" v="default residential speed limit in Australia"/>
    <tag k="name" v="Rintoull Street"/>
  </way>
  <way id="10212231" version="3" timestamp="2010-07-08T17:51:04Z" uid="74617" user="JohnSmith" changeset="5167338">
    <nd ref="84499853"/>
    <nd ref="164635797"/>
    <nd ref="164635683"/>
    <nd ref="164635560"/>
    <nd ref="84499877"/>
    <nd ref="84499861"/>
    <tag k="highway" v="residential"/>
    <tag k="maxspeed" v="50"/>
    <tag k="maxspeed:source" v="default residential speed limit in Australia"/>
    <tag k="name" v="Fairfield Street"/>
  </way>
  <way id="10212233" version="3" timestamp="2010-07-08T17:50:37Z" uid="74617" user="JohnSmith" changeset="5167338">
    <nd ref="84499877"/>
    <nd ref="84499879"/>
    <nd ref="84499883"/>
    <nd ref="84499893"/>
    <nd ref="84499901"/>
    <nd ref="84499936"/>
    <nd ref="90038084"/>
    <nd ref="84499944"/>
    <tag k="highway" v="residential"/>
    <tag k="maxspeed" v="50"/>
    <tag k="maxspeed:source" v="default residential speed limit in Australia"/>
    <tag k="name" v="Booth Street"/>
  </way>
  <way id="10212234" version="2" timestamp="2010-07-08T17:49:42Z" uid="74617" user="JohnSmith" changeset="5167338">
    <nd ref="84499950"/>
    <nd ref="84499957"/>
    <tag k="highway" v="residential"/>
    <tag k="maxspeed" v="50"/>
    <tag k="maxspeed:source" v="default residential speed limit in Australia"/>
    <tag k="name" v="Reservoir Road"/>
  </way>
  <way id="10212237" version="2" timestamp="2010-07-08T17:49:56Z" uid="74617" user="JohnSmith" changeset="5167338">
    <nd ref="84500084"/>
    <nd ref="84499997"/>
    <tag k="highway" v="residential"/>
    <tag k="maxspeed" v="50"/>
    <tag k="maxspeed:source" v="default residential speed limit in Australia"/>
    <tag k="name" v="Bardia Street"/>
  </way>
  <way id="10212238" version="2" timestamp="2010-07-08T17:48:57Z" uid="74617" user="JohnSmith" changeset="5167338">
    <nd ref="84500087"/>
    <nd ref="84500366"/>
    <nd ref="84500025"/>
    <tag k="highway" v="residential"/>
    <tag k="maxspeed" v="50"/>
    <tag k="maxspeed:source" v="default residential speed limit in Australia"/>
    <tag k="name" v="Satelberg Street"/>
  </way>
  <way id="10212239" version="2" timestamp="2010-07-08T17:48:00Z" uid="74617" user="JohnSmith" changeset="5167338">
    <nd ref="84500092"/>
    <nd ref="84500088"/>
    <nd ref="60672587"/>
    <tag k="highway" v="residential"/>
    <tag k="maxspeed" v="50"/>
    <tag k="maxspeed:source" v="default residential speed limit in Australia"/>
    <tag k="name" v="Auchterlonie  Street"/>
  </way>
  <way id="10212240" version="2" timestamp="2010-07-08T17:47:17Z" uid="74617" user="JohnSmith" changeset="5167338">
    <nd ref="84500149"/>
    <nd ref="60672591"/>
    <tag k="highway" v="residential"/>
    <tag k="maxspeed" v="50"/>
    <tag k="maxspeed:source" v="default residential speed limit in Australia"/>
    <tag k="name" v="Perth Street"/>
  </way>
  <way id="10212241" version="2" timestamp="2010-07-08T17:50:56Z" uid="74617" user="JohnSmith" changeset="5167338">
    <nd ref="81365938"/>
    <nd ref="84500378"/>
    <nd ref="84500383"/>
    <nd ref="84500406"/>
    <nd ref="84500384"/>
    <nd ref="84500390"/>
    <nd ref="84500393"/>
    <nd ref="84500397"/>
    <nd ref="84500084"/>
    <nd ref="84500087"/>
    <nd ref="84500122"/>
    <tag k="highway" v="residential"/>
    <tag k="maxspeed" v="50"/>
    <tag k="maxspeed:source" v="default residential speed limit in Australia"/>
    <tag k="name" v="McMillan Street"/>
  </way>
  <way id="10212245" version="2" timestamp="2010-07-08T17:50:20Z" uid="74617" user="JohnSmith" changeset="5167338">
    <nd ref="60670640"/>
    <nd ref="84500486"/>
    <nd ref="84500484"/>
    <nd ref="84500481"/>
    <nd ref="84500479"/>
    <nd ref="84500472"/>
    <nd ref="84500461"/>
    <nd ref="84500451"/>
    <tag k="highway" v="residential"/>
    <tag k="maxspeed" v="50"/>
    <tag k="maxspeed:source" v="default residential speed limit in Australia"/>
    <tag k="name" v="Christina Street"/>
  </way>
  <way id="10212246" version="3" timestamp="2010-07-08T17:49:23Z" uid="74617" user="JohnSmith" changeset="5167338">
    <nd ref="60670633"/>
    <nd ref="168205886"/>
    <nd ref="84500451"/>
    <nd ref="84500491"/>
    <tag k="highway" v="residential"/>
    <tag k="maxspeed" v="50"/>
    <tag k="maxspeed:source" v="default residential speed limit in Australia"/>
    <tag k="name" v="Kathleen Street"/>
  </way>
  <way id="10212247" version="2" timestamp="2010-07-08T17:48:22Z" uid="74617" user="JohnSmith" changeset="5167338">
    <nd ref="84500092"/>
    <nd ref="84500098"/>
    <nd ref="84500110"/>
    <nd ref="84500122"/>
    <nd ref="84500133"/>
    <nd ref="84500143"/>
    <nd ref="84500149"/>
    <nd ref="84500156"/>
    <nd ref="84500162"/>
    <nd ref="84500169"/>
    <nd ref="84500174"/>
    <nd ref="84500184"/>
    <nd ref="84500190"/>
    <nd ref="84500198"/>
    <nd ref="84500271"/>
    <tag k="highway" v="residential"/>
    <tag k="maxspeed" v="50"/>
    <tag k="maxspeed:source" v="default residential speed limit in Australia"/>
    <tag k="name" v="Kokoda Street"/>
  </way>
  <way id="10212249" version="2" timestamp="2010-07-08T17:47:43Z" uid="74617" user="JohnSmith" changeset="5167338">
    <nd ref="84500498"/>
    <nd ref="84500339"/>
    <nd ref="84500319"/>
    <nd ref="84500310"/>
    <nd ref="84500271"/>
    <nd ref="84500034"/>
    <tag k="highway" v="residential"/>
    <tag k="maxspeed" v="50"/>
    <tag k="maxspeed:source" v="default residential speed limit in Australia"/>
    <tag k="name" v="Sydney Street"/>
  </way>
  <way id="10212250" version="2" timestamp="2010-07-08T17:46:43Z" uid="74617" user="JohnSmith" changeset="5167338">
    <nd ref="84500366"/>
    <nd ref="84500356"/>
    <nd ref="84500345"/>
    <nd ref="84500498"/>
    <tag k="highway" v="residential"/>
    <tag k="maxspeed" v="50"/>
    <tag k="maxspeed:source" v="default residential speed limit in Australia"/>
    <tag k="name" v="Green Street"/>
  </way>
  <way id="10212350" version="15" timestamp="2011-01-26T18:38:52Z" uid="49111" user="Markus B" changeset="7096290">
    <nd ref="84461617"/>
    <nd ref="84461616"/>
    <nd ref="84461615"/>
    <nd ref="84461614"/>
    <nd ref="84461612"/>
    <nd ref="84461611"/>
    <nd ref="1122200359"/>
    <nd ref="1122199993"/>
    <nd ref="84461610"/>
    <nd ref="1122201069"/>
    <nd ref="1122200541"/>
    <nd ref="84461609"/>
    <nd ref="1122200180"/>
    <nd ref="480320470"/>
    <nd ref="84461608"/>
    <nd ref="84461607"/>
    <tag k="access" v="no"/>
    <tag k="bicycle" v="yes"/>
    <tag k="foot" v="yes"/>
    <tag k="highway" v="unclassified"/>
    <tag k="name" v="Gänzliloostrasse"/>
    <tag k="tracktype" v="grade1"/>
  </way>
  <way id="10212377" version="21" timestamp="2009-01-05T11:47:29Z" uid="58091" user="Andreas M" changeset="735917">
    <nd ref="381002"/>
    <nd ref="84301252"/>
    <nd ref="285955080"/>
    <nd ref="381018"/>
    <nd ref="84300706"/>
    <nd ref="260969980"/>
    <nd ref="84760399"/>
    <nd ref="84303710"/>
    <nd ref="84303307"/>
    <nd ref="289291881"/>
    <nd ref="84748287"/>
    <nd ref="293552836"/>
    <nd ref="84298260"/>
    <nd ref="110114817"/>
    <nd ref="229510847"/>
    <nd ref="239419273"/>
    <nd ref="315550860"/>
    <nd ref="381025"/>
    <nd ref="229514275"/>
    <nd ref="110114041"/>
    <nd ref="92645377"/>
    <nd ref="247070772"/>
    <nd ref="290518076"/>
    <nd ref="84747007"/>
    <nd ref="290521706"/>
    <nd ref="241863780"/>
    <nd ref="260969982"/>
    <nd ref="260968543"/>
    <tag k="created_by" v="Potlatch 0.10f"/>
    <tag k="highway" v="secondary"/>
    <tag k="name" v="Speisinger Straße"/>
    <tag k="railway" v="tram"/>
  </way>
  <way id="10212377" version="22" timestamp="2009-01-05T12:33:58Z" uid="58091" user="Andreas M" changeset="735917">
    <nd ref="381002"/>
    <nd ref="84301252"/>
    <nd ref="285955080"/>
    <nd ref="381018"/>
    <nd ref="84300706"/>
    <nd ref="260969980"/>
    <nd ref="84760399"/>
    <nd ref="84303710"/>
    <nd ref="84303307"/>
    <nd ref="289291881"/>
    <nd ref="84748287"/>
    <nd ref="293552836"/>
    <nd ref="84298260"/>
    <nd ref="110114817"/>
    <nd ref="229510847"/>
    <nd ref="239419273"/>
    <nd ref="315550860"/>
    <nd ref="381025"/>
    <nd ref="229514275"/>
    <nd ref="110114041"/>
    <nd ref="92645377"/>
    <nd ref="247070772"/>
    <nd ref="290518076"/>
    <nd ref="84747007"/>
    <nd ref="290521706"/>
    <nd ref="241863780"/>
    <nd ref="327074069"/>
    <nd ref="260969982"/>
    <nd ref="260968543"/>
    <tag k="created_by" v="Potlatch 0.10f"/>
    <tag k="highway" v="secondary"/>
    <tag k="name" v="Speisinger Straße"/>
    <tag k="railway" v="tram"/>
  </way>
  <way id="10212388" version="9" timestamp="2009-01-05T11:47:30Z" uid="58091" user="Andreas M" changeset="735917">
    <nd ref="84503863"/>
    <nd ref="84764919"/>
    <nd ref="290603102"/>
    <nd ref="260969979"/>
    <nd ref="381002"/>
    <tag k="created_by" v="Potlatch 0.10b"/>
    <tag k="highway" v="tertiary"/>
    <tag k="name" v="Geßlgasse"/>
    <tag k="railway" v="tram"/>
  </way>
  <way id="10212528" version="3" timestamp="2010-07-08T17:48:22Z" uid="74617" user="JohnSmith" changeset="5167338">
    <nd ref="84542249"/>
    <nd ref="84507085"/>
    <nd ref="84507093"/>
    <nd ref="84507107"/>
    <tag k="highway" v="residential"/>
    <tag k="maxspeed" v="50"/>
    <tag k="maxspeed:source" v="default residential speed limit in Australia"/>
    <tag k="name" v="Elgin Street"/>
  </way>
  <way id="10212529" version="3" timestamp="2010-07-08T17:47:16Z" uid="74617" user="JohnSmith" changeset="5167338">
    <nd ref="84507123"/>
    <nd ref="84542298"/>
    <tag k="highway" v="residential"/>
    <tag k="maxspeed" v="50"/>
    <tag k="maxspeed:source" v="default residential speed limit in Australia"/>
    <tag k="name" v="White Street"/>
  </way>
  <way id="10212531" version="2" timestamp="2010-07-08T17:50:03Z" uid="74617" user="JohnSmith" changeset="5167338">
    <nd ref="84507219"/>
    <nd ref="84507354"/>
    <nd ref="84507297"/>
    <nd ref="84507134"/>
    <nd ref="84507153"/>
    <nd ref="84507123"/>
    <nd ref="84507164"/>
    <nd ref="84507173"/>
    <nd ref="84507182"/>
    <tag k="highway" v="residential"/>
    <tag k="maxspeed" v="50"/>
    <tag k="maxspeed:source" v="default residential speed limit in Australia"/>
    <tag k="name" v="McLean Street"/>
  </way>
  <way id="10212533" version="4" timestamp="2010-07-08T17:51:09Z" uid="74617" user="JohnSmith" changeset="5167338">
    <nd ref="84542155"/>
    <nd ref="168162268"/>
    <nd ref="84507208"/>
    <nd ref="84507219"/>
    <nd ref="168162328"/>
    <nd ref="84507220"/>
    <nd ref="84507227"/>
    <nd ref="84507229"/>
    <tag k="highway" v="residential"/>
    <tag k="maxspeed" v="50"/>
    <tag k="maxspeed:source" v="default residential speed limit in Australia"/>
    <tag k="name" v="Hazelwood Road"/>
  </way>
  <way id="10212540" version="2" timestamp="2010-07-08T17:49:03Z" uid="74617" user="JohnSmith" changeset="5167338">
    <nd ref="84507208"/>
    <nd ref="84507303"/>
    <tag k="highway" v="residential"/>
    <tag k="maxspeed" v="50"/>
    <tag k="maxspeed:source" v="default residential speed limit in Australia"/>
    <tag k="name" v="Berg Street"/>
  </way>
  <way id="10212542" version="2" timestamp="2010-07-08T17:46:59Z" uid="74617" user="JohnSmith" changeset="5167338">
    <nd ref="84507324"/>
    <nd ref="84507340"/>
    <tag k="highway" v="residential"/>
    <tag k="maxspeed" v="50"/>
    <tag k="maxspeed:source" v="default residential speed limit in Australia"/>
    <tag k="name" v="Kennedy Street"/>
  </way>
  <way id="10212544" version="2" timestamp="2010-07-08T17:47:30Z" uid="74617" user="JohnSmith" changeset="5167338">
    <nd ref="84507229"/>
    <nd ref="84507235"/>
    <nd ref="84507243"/>
    <nd ref="84507252"/>
    <nd ref="84507257"/>
    <nd ref="84507273"/>
    <nd ref="84507282"/>
    <nd ref="84507293"/>
    <nd ref="84507164"/>
    <tag k="highway" v="residential"/>
    <tag k="maxspeed" v="50"/>
    <tag k="maxspeed:source" v="default residential speed limit in Australia"/>
    <tag k="name" v="Wallace Street"/>
  </way>
  <way id="10212545" version="3" timestamp="2010-07-08T17:51:07Z" uid="74617" user="JohnSmith" changeset="5167338">
    <nd ref="84507182"/>
    <nd ref="84507187"/>
    <nd ref="84507193"/>
    <nd ref="165206026"/>
    <nd ref="84507085"/>
    <nd ref="165206108"/>
    <tag k="highway" v="residential"/>
    <tag k="maxspeed" v="50"/>
    <tag k="maxspeed:source" v="default residential speed limit in Australia"/>
    <tag k="name" v="Wilson Street"/>
  </way>
  <way id="10212547" version="2" timestamp="2010-07-08T17:49:20Z" uid="74617" user="JohnSmith" changeset="5167338">
    <nd ref="84507220"/>
    <nd ref="84507348"/>
    <nd ref="84507354"/>
    <tag k="highway" v="residential"/>
    <tag k="maxspeed" v="50"/>
    <tag k="maxspeed:source" v="default residential speed limit in Australia"/>
    <tag k="name" v="Grandyview Grove"/>
  </way>
  <way id="10212549" version="2" timestamp="2010-07-08T17:50:31Z" uid="74617" user="JohnSmith" changeset="5167338">
    <nd ref="84507107"/>
    <nd ref="84507110"/>
    <nd ref="84507112"/>
    <nd ref="84507117"/>
    <tag k="highway" v="residential"/>
    <tag k="maxspeed" v="50"/>
    <tag k="maxspeed:source" v="default residential speed limit in Australia"/>
    <tag k="name" v="Julia Street"/>
  </way>
  <way id="10212564" version="15" timestamp="2009-07-13T01:44:13Z" uid="23543" user="jkjk" changeset="1812840"/>
</osm>
