<?xml version='1.0' encoding='UTF-8'?>
<osm version="0.6" generator="libosmium/2.20.0">
  <way id="102268111" version="2" timestamp="2011-03-04T18:52:59Z" uid="6269" user="Mueck" changeset="7456921">
    <nd ref="15848098"/>
    <nd ref="15848099"/>
    <nd ref="1180503027"/>
    <nd ref="528653132"/>
    <tag k="highway" v="primary"/>
    <tag k="lanes" v="4"/>
    <tag k="maxspeed" v="60"/>
    <tag k="motorroad" v="no"/>
    <tag k="name" v="Wolfartsweierer StraÃŸe"/>
    <tag k="oneway" v="yes"/>
    <tag k="ref" v="B 10"/>
  </way>
  <way id="102268120" version="2" timestamp="2011-03-02T03:41:17Z" uid="6269" user="Mueck" changeset="7434891">
    <nd ref="25928827"/>
    <nd ref="623727921"/>
    <nd ref="950892539"/>
    <nd ref="526169"/>
    <nd ref="1180503154"/>
    <tag k="highway" v="primary"/>
    <tag k="lanes" v="2"/>
    <tag k="maxspeed" v="60"/>
    <tag k="motorroad" v="no"/>
    <tag k="name" v="Ostring"/>
    <tag k="oneway" v="yes"/>
    <tag k="ref" v="B 10"/>
  </way>
  <way id="102268244" version="3" timestamp="2011-03-02T14:52:02Z" uid="4467" user="Rosscoe" changeset="7438307">
    <nd ref="1180298473"/>
    <nd ref="1180298474"/>
    <tag k="highway" v="residential"/>
    <tag k="name" v="Hogans Road"/>
  </way>
</osm>
