<?xml version='1.0' encoding='UTF-8'?>
<osm version="0.6" generator="libosmium/2.20.0">
  <way id="102521700" version="1" timestamp="2011-03-03T06:28:33Z" uid="43863" user="Rundling" changeset="7443225">
    <nd ref="1184062852"/>
    <nd ref="1184062851"/>
    <tag k="name" v="Beispielsbach"/>
    <tag k="waterway" v="stream"/>
  </way>
  <way id="102521701" version="1" timestamp="2011-03-03T06:28:33Z" uid="43863" user="Rundling" changeset="7443225">
    <nd ref="1184062846"/>
    <nd ref="1184062852"/>
    <tag k="layer" v="-1"/>
    <tag k="name" v="Beispielsbach"/>
    <tag k="tunnel" v="yes"/>
    <tag k="waterway" v="stream"/>
  </way>
  <way id="102521704" version="1" timestamp="2011-03-03T06:28:34Z" uid="43863" user="Rundling" changeset="7443225">
    <nd ref="1184062847"/>
    <nd ref="1184062846"/>
    <tag k="name" v="Beispielsbach"/>
    <tag k="waterway" v="stream"/>
  </way>
  <way id="102521705" version="1" timestamp="2011-03-03T06:28:34Z" uid="43863" user="Rundling" changeset="7443225">
    <nd ref="1184062849"/>
    <nd ref="1184062850"/>
    <tag k="highway" v="track"/>
    <tag k="name" v="Beispielsweg"/>
  </way>
</osm>
