<?xml version='1.0' encoding='UTF-8'?>
<osm version="0.6" generator="libosmium/2.20.0">
  <way id="102745903" version="1" timestamp="2011-03-05T01:10:33Z" uid="4467" user="Rosscoe" changeset="7459572">
    <nd ref="699570074"/>
    <nd ref="699569891"/>
    <tag k="highway" v="tertiary"/>
    <tag k="maxspeed" v="40"/>
    <tag k="name" v="Mahoneys Road"/>
    <tag k="oneway" v="yes"/>
  </way>
  <way id="102745904" version="1" timestamp="2011-03-05T01:10:34Z" uid="4467" user="Rosscoe" changeset="7459572">
    <nd ref="699573911"/>
    <nd ref="1186705886"/>
    <nd ref="1186705880"/>
    <nd ref="1186705870"/>
    <tag k="highway" v="tertiary"/>
    <tag k="maxspeed" v="50"/>
    <tag k="name" v="Mahoneys Road"/>
    <tag k="source" v="nearmap"/>
  </way>
  <way id="102745905" version="1" timestamp="2011-03-05T01:10:34Z" uid="4467" user="Rosscoe" changeset="7459572">
    <nd ref="699574548"/>
    <nd ref="1186705897"/>
    <tag k="highway" v="tertiary"/>
    <tag k="maxspeed" v="40"/>
    <tag k="name" v="Mahoneys Road"/>
    <tag k="oneway" v="yes"/>
    <tag k="source" v="nearmap"/>
  </way>
  <way id="102745906" version="1" timestamp="2011-03-05T01:10:34Z" uid="4467" user="Rosscoe" changeset="7459572">
    <nd ref="699573901"/>
    <nd ref="699574432"/>
    <tag k="highway" v="residential"/>
    <tag k="maxspeed" v="50"/>
    <tag k="name" v="Pickford Street"/>
    <tag k="oneway" v="yes"/>
    <tag k="source" v="nearmap"/>
  </way>
  <way id="102745907" version="1" timestamp="2011-03-05T01:10:34Z" uid="4467" user="Rosscoe" changeset="7459572">
    <nd ref="699738660"/>
    <nd ref="314092026"/>
    <tag k="highway" v="tertiary"/>
    <tag k="maxspeed" v="50"/>
    <tag k="name" v="Hawthorn Road"/>
    <tag k="oneway" v="yes"/>
    <tag k="source" v="nearmap"/>
  </way>
  <way id="102745908" version="1" timestamp="2011-03-05T01:10:34Z" uid="4467" user="Rosscoe" changeset="7459572">
    <nd ref="700670140"/>
    <nd ref="1186705871"/>
    <nd ref="1186705863"/>
    <nd ref="1186705895"/>
    <nd ref="1186705862"/>
    <nd ref="1186705876"/>
    <nd ref="1186705888"/>
    <nd ref="1186705884"/>
    <nd ref="1186705873"/>
    <nd ref="699738660"/>
    <tag k="highway" v="tertiary"/>
    <tag k="maxspeed" v="50"/>
    <tag k="name" v="Hawthorn Road"/>
    <tag k="oneway" v="yes"/>
    <tag k="source" v="nearmap"/>
  </way>
  <way id="102745909" version="1" timestamp="2011-03-05T01:10:35Z" uid="4467" user="Rosscoe" changeset="7459572">
    <nd ref="700669831"/>
    <nd ref="1186705898"/>
    <nd ref="1186705903"/>
    <nd ref="1186705893"/>
    <nd ref="1186705869"/>
    <nd ref="1186705882"/>
    <nd ref="1186705900"/>
    <nd ref="1186705896"/>
    <nd ref="1186705890"/>
    <nd ref="1186705892"/>
    <tag k="highway" v="tertiary"/>
    <tag k="maxspeed" v="50"/>
    <tag k="name" v="Hawthorn Road"/>
    <tag k="source" v="nearmap"/>
  </way>
</osm>
