<?xml version='1.0' encoding='UTF-8'?>
<osm version="0.6" generator="libosmium/2.20.0">
  <way id="103394456" version="2" timestamp="2011-04-13T21:54:44Z" uid="66036" user="h4v" changeset="7856409">
    <nd ref="1193915790"/>
    <nd ref="1193915812"/>
    <nd ref="1193915795"/>
    <nd ref="1193915778"/>
    <nd ref="1193915929"/>
    <nd ref="1193915899"/>
    <nd ref="1193915797"/>
    <nd ref="1193915790"/>
    <tag k="addr:housenumber" v="2"/>
    <tag k="building" v="yes"/>
    <tag k="old_name" v="Kino Gdynia"/>
    <tag k="source" v="bing"/>
    <tag k="source:addr" v="wikipedia"/>
    <tag k="source:name" v="wikipedia"/>
    <tag k="wikipedia" v="pl:Kino_Gdynia_w_Åodzi"/>
  </way>
  <way id="103394461" version="2" timestamp="2011-04-13T21:54:43Z" uid="66036" user="h4v" changeset="7856409">
    <nd ref="1193915899"/>
    <nd ref="1193915929"/>
    <nd ref="1193915847"/>
    <nd ref="1193915804"/>
    <nd ref="1193915781"/>
    <nd ref="1193915902"/>
    <nd ref="1193915823"/>
    <nd ref="1193915797"/>
    <nd ref="1193915899"/>
    <tag k="addr:housenumber" v="98"/>
    <tag k="building" v="yes"/>
    <tag k="loc_name" v="Dom Buta"/>
    <tag k="name" v="Magazyn Konfekcyjny Emila Schmechela"/>
    <tag k="source" v="bing"/>
    <tag k="source:addr" v="wikipedia"/>
    <tag k="source:name" v="wikipedia"/>
    <tag k="wikipedia" v="pl:Magazyn_Konfekcyjny_Emila_Schmechela"/>
  </way>
</osm>
