<?xml version='1.0' encoding='UTF-8'?>
<osm version="0.6" generator="libosmium/2.20.0">
  <way id="103466077" version="1" timestamp="2011-03-09T21:48:57Z" uid="30632" user="antblant" changeset="7509110">
    <nd ref="481951852"/>
    <nd ref="481947210"/>
    <tag k="highway" v="primary"/>
    <tag k="lit" v="yes"/>
    <tag k="name" v="Aleja Generała Władysława Sikorskiego"/>
    <tag k="oneway" v="yes"/>
  </way>
  <way id="103466586" version="1" timestamp="2011-03-09T21:50:42Z" uid="30632" user="antblant" changeset="7509128">
    <nd ref="481950839"/>
    <nd ref="481950682"/>
    <nd ref="481950685"/>
    <nd ref="481950680"/>
    <nd ref="481950683"/>
    <nd ref="481950677"/>
    <nd ref="481950768"/>
    <nd ref="481950675"/>
    <nd ref="481950678"/>
    <nd ref="481950674"/>
    <tag k="highway" v="primary"/>
    <tag k="int_ref" v="E372"/>
    <tag k="lit" v="yes"/>
    <tag k="maxspeed" v="70"/>
    <tag k="name" v="Aleja Solidarności"/>
    <tag k="oneway" v="yes"/>
    <tag k="ref" v="12;17;19"/>
    <tag k="source" v="http://ump.waw.pl/ retrieved 23:59:15 08/30/09 (UMP-Lublin/src/LUBLIN.ulice.txt)"/>
  </way>
</osm>
