<?xml version='1.0' encoding='UTF-8'?>
<osm version="0.6" generator="libosmium/2.20.0">
  <way id="103533252" version="2" timestamp="2011-05-29T00:25:43Z" uid="66036" user="h4v" changeset="8276873">
    <nd ref="1195382106"/>
    <nd ref="1195381800"/>
    <nd ref="1195381686"/>
    <nd ref="1195381646"/>
    <nd ref="1195382106"/>
    <tag k="addr:housenumber" v="86"/>
    <tag k="building" v="yes"/>
    <tag k="source" v="bing"/>
  </way>
  <way id="103533254" version="2" timestamp="2011-05-29T00:25:58Z" uid="66036" user="h4v" changeset="8276873">
    <nd ref="1195381818"/>
    <nd ref="1195381660"/>
    <nd ref="1195381885"/>
    <nd ref="1195381919"/>
    <nd ref="1195381818"/>
    <tag k="addr:housenumber" v="27"/>
    <tag k="building" v="yes"/>
    <tag k="source" v="bing"/>
  </way>
  <way id="103533255" version="2" timestamp="2011-05-29T00:25:49Z" uid="66036" user="h4v" changeset="8276873">
    <nd ref="1195381695"/>
    <nd ref="1195382024"/>
    <nd ref="1195382057"/>
    <nd ref="1195381947"/>
    <nd ref="1195381695"/>
    <tag k="addr:housenumber" v="78"/>
    <tag k="building" v="yes"/>
    <tag k="source" v="bing"/>
  </way>
  <way id="103533262" version="2" timestamp="2011-06-05T15:08:36Z" uid="66036" user="h4v" changeset="8350157">
    <nd ref="1195381693"/>
    <nd ref="1195381873"/>
    <nd ref="1195381932"/>
    <nd ref="1195381754"/>
    <nd ref="1195381693"/>
    <tag k="addr:housenumber" v="76a"/>
    <tag k="building" v="yes"/>
    <tag k="source" v="bing"/>
  </way>
  <way id="103533263" version="2" timestamp="2011-05-29T00:25:58Z" uid="66036" user="h4v" changeset="8276873">
    <nd ref="1195381923"/>
    <nd ref="1195381715"/>
    <nd ref="1195381755"/>
    <nd ref="1195382080"/>
    <nd ref="1195381923"/>
    <tag k="addr:housenumber" v="29"/>
    <tag k="building" v="yes"/>
    <tag k="source" v="bing"/>
  </way>
  <way id="103533268" version="2" timestamp="2011-05-29T00:25:57Z" uid="66036" user="h4v" changeset="8276873">
    <nd ref="1195381736"/>
    <nd ref="1195381720"/>
    <nd ref="1195381931"/>
    <nd ref="1195381997"/>
    <nd ref="1195381736"/>
    <tag k="addr:housenumber" v="74"/>
    <tag k="building" v="yes"/>
    <tag k="source" v="bing"/>
  </way>
  <way id="103533271" version="2" timestamp="2011-05-29T00:25:45Z" uid="66036" user="h4v" changeset="8276873">
    <nd ref="1195381716"/>
    <nd ref="1195381838"/>
    <nd ref="1195381692"/>
    <nd ref="1195382018"/>
    <nd ref="1195381807"/>
    <nd ref="1195381901"/>
    <nd ref="1195381890"/>
    <nd ref="1195381893"/>
    <nd ref="1195381716"/>
    <tag k="addr:housenumber" v="84"/>
    <tag k="building" v="yes"/>
    <tag k="source" v="bing"/>
  </way>
  <way id="103533273" version="2" timestamp="2011-06-05T15:08:39Z" uid="66036" user="h4v" changeset="8350157">
    <nd ref="1195381906"/>
    <nd ref="1195382039"/>
    <nd ref="1195381816"/>
    <nd ref="1195381897"/>
    <nd ref="1195381906"/>
    <tag k="addr:housenumber" v="78a"/>
    <tag k="building" v="yes"/>
    <tag k="source" v="bing"/>
  </way>
  <way id="103533282" version="2" timestamp="2011-05-29T00:25:43Z" uid="66036" user="h4v" changeset="8276873">
    <nd ref="1195382060"/>
    <nd ref="1195381934"/>
    <nd ref="1195382000"/>
    <nd ref="1195381916"/>
    <nd ref="1195382060"/>
    <tag k="addr:housenumber" v="76"/>
    <tag k="building" v="yes"/>
    <tag k="source" v="bing"/>
  </way>
  <way id="103533288" version="2" timestamp="2011-05-29T00:25:56Z" uid="66036" user="h4v" changeset="8276873">
    <nd ref="1195381809"/>
    <nd ref="1195381657"/>
    <nd ref="1195381774"/>
    <nd ref="1195381748"/>
    <nd ref="1195381809"/>
    <tag k="addr:housenumber" v="82"/>
    <tag k="building" v="yes"/>
    <tag k="source" v="bing"/>
  </way>
  <way id="103533291" version="2" timestamp="2011-05-29T00:25:44Z" uid="66036" user="h4v" changeset="8276873">
    <nd ref="1195381679"/>
    <nd ref="1195382045"/>
    <nd ref="1195381850"/>
    <nd ref="1195381894"/>
    <nd ref="1195381679"/>
    <tag k="addr:housenumber" v="25"/>
    <tag k="building" v="yes"/>
    <tag k="source" v="bing"/>
  </way>
  <way id="103533292" version="2" timestamp="2011-05-29T00:25:45Z" uid="66036" user="h4v" changeset="8276873">
    <nd ref="1195381700"/>
    <nd ref="1195381729"/>
    <nd ref="1195381757"/>
    <nd ref="1195381691"/>
    <nd ref="1195381700"/>
    <tag k="addr:housenumber" v="80"/>
    <tag k="building" v="yes"/>
    <tag k="source" v="bing"/>
  </way>
  <way id="103533297" version="2" timestamp="2011-05-29T00:25:51Z" uid="66036" user="h4v" changeset="8276873">
    <nd ref="1195381857"/>
    <nd ref="1195381785"/>
    <nd ref="1195381726"/>
    <nd ref="1195381865"/>
    <nd ref="1195381857"/>
    <tag k="addr:housenumber" v="23"/>
    <tag k="building" v="yes"/>
    <tag k="source" v="bing"/>
  </way>
  <way id="103533299" version="2" timestamp="2011-06-05T15:08:36Z" uid="66036" user="h4v" changeset="8350157">
    <nd ref="1195381799"/>
    <nd ref="1195381814"/>
    <nd ref="1195381741"/>
    <nd ref="1195381949"/>
    <nd ref="1195381799"/>
    <tag k="addr:housenumber" v="74a"/>
    <tag k="building" v="yes"/>
    <tag k="source" v="bing"/>
  </way>
  <way id="103533719" version="2" timestamp="2011-03-10T18:41:39Z" uid="33382" user="de_muur" changeset="7516836">
    <nd ref="1195385096"/>
    <nd ref="1195335857"/>
    <nd ref="1195335918"/>
    <nd ref="1195335735"/>
    <nd ref="1195336095"/>
    <nd ref="1195335949"/>
    <nd ref="1195336002"/>
    <nd ref="1195335878"/>
    <nd ref="1195336343"/>
    <nd ref="1195336035"/>
    <nd ref="1195336172"/>
    <nd ref="1195335978"/>
    <nd ref="1195335853"/>
    <nd ref="1195336242"/>
    <nd ref="1195335863"/>
    <nd ref="1195697863"/>
    <nd ref="1195336278"/>
    <tag k="name" v="Steinau"/>
    <tag k="waterway" v="stream"/>
  </way>
</osm>
