<?xml version='1.0' encoding='UTF-8'?>
<osm version="0.6" generator="libosmium/2.20.0">
  <way id="10392466" version="6" timestamp="2010-07-09T05:13:44Z" uid="74617" user="JohnSmith" changeset="5170986">
    <nd ref="88612372"/>
    <nd ref="619140038"/>
    <nd ref="88612703"/>
    <nd ref="619140039"/>
    <nd ref="258965556"/>
    <nd ref="258965557"/>
    <nd ref="88612604"/>
    <tag k="highway" v="residential"/>
    <tag k="maxspeed" v="50"/>
    <tag k="maxspeed:source" v="default residential speed limit in Australia"/>
    <tag k="name" v="Bank Street"/>
    <tag k="source:name" v="Collins 1936"/>
  </way>
  <way id="10392466" version="7" timestamp="2011-04-23T23:19:20Z" uid="4467" user="Rosscoe" changeset="7948456">
    <nd ref="88612372"/>
    <nd ref="619140038"/>
    <nd ref="88612703"/>
    <nd ref="619140039"/>
    <nd ref="258965556"/>
    <nd ref="258965557"/>
    <nd ref="88612604"/>
    <tag k="highway" v="residential"/>
    <tag k="maxspeed" v="50"/>
    <tag k="name" v="Bank Street"/>
    <tag k="source:maxspeed" v="default residential speed limit in Australia"/>
    <tag k="source:name" v="Collins 1936"/>
  </way>
  <way id="10392475" version="5" timestamp="2010-07-09T05:17:35Z" uid="74617" user="JohnSmith" changeset="5170986">
    <nd ref="88612703"/>
    <nd ref="88612869"/>
    <tag k="highway" v="residential"/>
    <tag k="maxspeed" v="50"/>
    <tag k="maxspeed:source" v="default residential speed limit in Australia"/>
    <tag k="name" v="Garretts Lane"/>
    <tag k="source" v="survey"/>
  </way>
  <way id="10392475" version="6" timestamp="2011-04-23T23:19:21Z" uid="4467" user="Rosscoe" changeset="7948456">
    <nd ref="88612703"/>
    <nd ref="88612869"/>
    <tag k="highway" v="residential"/>
    <tag k="maxspeed" v="50"/>
    <tag k="name" v="Garretts Lane"/>
    <tag k="source" v="survey"/>
    <tag k="source:maxspeed" v="default residential speed limit in Australia"/>
  </way>
  <way id="10392493" version="5" timestamp="2010-07-09T05:15:29Z" uid="74617" user="JohnSmith" changeset="5170986">
    <nd ref="88613127"/>
    <nd ref="88612869"/>
    <nd ref="88613129"/>
    <tag k="highway" v="residential"/>
    <tag k="maxspeed" v="50"/>
    <tag k="maxspeed:source" v="default residential speed limit in Australia"/>
    <tag k="name" v="Readys Lane"/>
    <tag k="source" v="survey; nearmap"/>
  </way>
  <way id="10392516" version="8" timestamp="2010-06-14T14:48:43Z" uid="4467" user="Rosscoe" changeset="4988594">
    <nd ref="88613489"/>
    <nd ref="88613626"/>
    <tag k="highway" v="pedestrian"/>
    <tag k="name" v="Market Street"/>
  </way>
  <way id="10392601" version="5" timestamp="2010-07-09T05:20:17Z" uid="74617" user="JohnSmith" changeset="5170986">
    <nd ref="88614568"/>
    <nd ref="88614827"/>
    <tag k="highway" v="residential"/>
    <tag k="lanes" v="2"/>
    <tag k="maxspeed" v="50"/>
    <tag k="maxspeed:source" v="default residential speed limit in Australia"/>
    <tag k="name" v="Shipley Street"/>
    <tag k="surface" v="paved"/>
  </way>
  <way id="10392603" version="6" timestamp="2010-07-09T05:16:49Z" uid="74617" user="JohnSmith" changeset="5170986">
    <nd ref="88614827"/>
    <nd ref="619141720"/>
    <nd ref="88614828"/>
    <nd ref="88614829"/>
    <tag k="highway" v="residential"/>
    <tag k="lanes" v="2"/>
    <tag k="maxspeed" v="50"/>
    <tag k="maxspeed:source" v="default residential speed limit in Australia"/>
    <tag k="name" v="Irving Avenue"/>
    <tag k="surface" v="paved"/>
  </way>
  <way id="10392605" version="9" timestamp="2010-06-14T14:48:10Z" uid="4467" user="Rosscoe" changeset="4988594">
    <nd ref="88614828"/>
    <nd ref="88615585"/>
    <nd ref="772675797"/>
    <tag k="highway" v="residential"/>
    <tag k="name" v="Bruce Street"/>
  </way>
  <way id="10392605" version="10" timestamp="2010-07-09T05:13:25Z" uid="74617" user="JohnSmith" changeset="5170986">
    <nd ref="88614828"/>
    <nd ref="88615585"/>
    <nd ref="772675797"/>
    <tag k="highway" v="residential"/>
    <tag k="maxspeed" v="50"/>
    <tag k="maxspeed:source" v="default residential speed limit in Australia"/>
    <tag k="name" v="Bruce Street"/>
  </way>
  <way id="10392776" version="1" timestamp="2007-10-27T03:05:15Z" uid="7617" user="Franc" changeset="325242">
    <nd ref="88618815"/>
    <nd ref="88618950"/>
    <nd ref="88618794"/>
    <tag k="created_by" v="JOSM"/>
    <tag k="highway" v="residential"/>
    <tag k="name" v="Carawa Road"/>
    <tag k="source" v="survey"/>
  </way>
  <way id="10392776" version="2" timestamp="2007-10-27T03:11:17Z" uid="7617" user="Franc" changeset="325242">
    <nd ref="88618815"/>
    <nd ref="88625005"/>
    <nd ref="88625022"/>
    <nd ref="88618950"/>
    <nd ref="88618794"/>
    <tag k="created_by" v="JOSM"/>
    <tag k="highway" v="residential"/>
    <tag k="name" v="Carawa Road"/>
    <tag k="source" v="Yahoo Imagery"/>
    <tag k="source:name" v="survey"/>
  </way>
  <way id="10392776" version="11" timestamp="2010-01-23T06:01:57Z" uid="30201" user="rrankin" changeset="3689199">
    <nd ref="88618815"/>
    <nd ref="204399042"/>
    <nd ref="163566165"/>
    <nd ref="204388883"/>
    <nd ref="163564926"/>
    <nd ref="88625022"/>
    <nd ref="163565582"/>
    <nd ref="618542743"/>
    <tag k="highway" v="secondary"/>
    <tag k="name" v="Carawa Road"/>
    <tag k="source" v="Yahoo Imagery"/>
    <tag k="source:name" v="survey"/>
  </way>
  <way id="10392776" version="12" timestamp="2010-03-10T08:54:05Z" uid="7617" user="Franc" changeset="4087205">
    <nd ref="88618815"/>
    <nd ref="663559871"/>
    <nd ref="663559870"/>
    <nd ref="204399042"/>
    <nd ref="663559867"/>
    <tag k="highway" v="secondary"/>
    <tag k="name" v="Carawa Road"/>
    <tag k="source" v="nearmap"/>
    <tag k="source:name" v="survey"/>
  </way>
  <way id="10392777" version="1" timestamp="2007-10-27T03:05:16Z" uid="7617" user="Franc" changeset="325242">
    <nd ref="88618834"/>
    <nd ref="88618884"/>
    <nd ref="88618939"/>
    <nd ref="88618919"/>
    <nd ref="88618900"/>
    <nd ref="88618849"/>
    <nd ref="88618866"/>
    <nd ref="88618834"/>
    <tag k="created_by" v="JOSM"/>
    <tag k="layer" v="-1"/>
    <tag k="leisure" v="park"/>
  </way>
  <way id="10392778" version="1" timestamp="2007-10-27T03:05:17Z" uid="7617" user="Franc" changeset="325242">
    <nd ref="88619052"/>
    <nd ref="88619122"/>
    <nd ref="88619110"/>
    <nd ref="88619106"/>
    <nd ref="88619102"/>
    <nd ref="88619096"/>
    <nd ref="88619086"/>
    <nd ref="88619076"/>
    <nd ref="88619072"/>
    <nd ref="88619069"/>
    <nd ref="88619066"/>
    <nd ref="88619061"/>
    <nd ref="88618966"/>
    <nd ref="88619040"/>
    <nd ref="88619027"/>
    <nd ref="88619020"/>
    <nd ref="88619004"/>
    <nd ref="88618985"/>
    <nd ref="88618950"/>
    <tag k="created_by" v="JOSM"/>
    <tag k="highway" v="residential"/>
    <tag k="name" v="Alfred Street"/>
    <tag k="source" v="survey"/>
  </way>
  <way id="10392779" version="1" timestamp="2007-10-27T03:05:18Z" uid="7617" user="Franc" changeset="325242">
    <nd ref="88619140"/>
    <nd ref="88619159"/>
    <tag k="created_by" v="JOSM"/>
    <tag k="highway" v="residential"/>
    <tag k="name" v="Alfred Street"/>
    <tag k="source" v="survey"/>
  </way>
  <way id="10392780" version="1" timestamp="2007-10-27T03:05:18Z" uid="7617" user="Franc" changeset="325242">
    <nd ref="88619181"/>
    <nd ref="88619226"/>
    <nd ref="88619203"/>
    <nd ref="88619247"/>
    <nd ref="88619262"/>
    <nd ref="88619052"/>
    <tag k="created_by" v="JOSM"/>
    <tag k="highway" v="residential"/>
  </way>
  <way id="10392780" version="7" timestamp="2009-06-06T03:23:19Z" uid="61114" user="Trav" changeset="1434233">
    <nd ref="88619181"/>
    <nd ref="88619226"/>
    <nd ref="88619203"/>
    <tag k="highway" v="residential"/>
    <tag k="name" v="Cousins Road"/>
    <tag k="source:name" v="survey"/>
  </way>
  <way id="10392780" version="8" timestamp="2010-07-07T23:34:18Z" uid="74617" user="JohnSmith" changeset="5162525">
    <nd ref="88619181"/>
    <nd ref="88619226"/>
    <nd ref="88619203"/>
    <tag k="highway" v="residential"/>
    <tag k="maxspeed" v="50"/>
    <tag k="maxspeed:source" v="default residential speed limit in Australia"/>
    <tag k="name" v="Cousins Road"/>
    <tag k="source:name" v="survey"/>
  </way>
  <way id="10392781" version="1" timestamp="2007-10-27T03:05:19Z" uid="7617" user="Franc" changeset="325242">
    <nd ref="88619052"/>
    <nd ref="88619140"/>
    <tag k="created_by" v="JOSM"/>
  </way>
  <way id="10392781" version="2" timestamp="2007-10-27T03:13:43Z" uid="7617" user="Franc" changeset="325242">
    <nd ref="88619052"/>
    <nd ref="88619140"/>
    <nd ref="88628047"/>
    <nd ref="88628036"/>
    <tag k="created_by" v="JOSM"/>
  </way>
  <way id="10392928" version="2" timestamp="2010-03-27T15:39:55Z" uid="20587" user="balrog-kun" changeset="4247030">
    <nd ref="26263727"/>
    <nd ref="88622179"/>
    <nd ref="26263728"/>
    <nd ref="88622261"/>
    <tag k="created_by" v="JOSM"/>
    <tag k="highway" v="residential"/>
    <tag k="name" v="Highland View Avenue"/>
  </way>
  <way id="10392929" version="4" timestamp="2010-03-27T15:39:56Z" uid="20587" user="balrog-kun" changeset="4247030">
    <nd ref="88622272"/>
    <nd ref="123013376"/>
    <nd ref="26263728"/>
    <nd ref="123286297"/>
    <nd ref="26263729"/>
    <nd ref="26263730"/>
    <nd ref="122968843"/>
    <nd ref="26263731"/>
    <nd ref="26263732"/>
    <tag k="created_by" v="JOSM"/>
    <tag k="highway" v="residential"/>
    <tag k="name" v="Las Flores Drive"/>
  </way>
</osm>
