<?xml version='1.0' encoding='UTF-8'?>
<osm version="0.6" generator="libosmium/2.20.0">
  <way id="104677866" version="2" timestamp="2011-04-16T22:12:38Z" uid="66036" user="h4v" changeset="7882749">
    <nd ref="1207431794"/>
    <nd ref="1207431625"/>
    <nd ref="1207431594"/>
    <nd ref="1207431840"/>
    <nd ref="1207431802"/>
    <nd ref="1207431645"/>
    <nd ref="1207431647"/>
    <nd ref="1207431634"/>
    <nd ref="1207431618"/>
    <nd ref="1207431604"/>
    <nd ref="1207431687"/>
    <nd ref="1207431668"/>
    <nd ref="1207431672"/>
    <nd ref="1207431692"/>
    <nd ref="1207431642"/>
    <nd ref="1207431794"/>
    <tag k="addr:housenumber" v="39"/>
    <tag k="building" v="yes"/>
    <tag k="source:addr" v="wikipedia"/>
    <tag k="source:name" v="wikipedia"/>
  </way>
  <way id="104677866" version="3" timestamp="2011-06-17T19:07:05Z" uid="66036" user="h4v" changeset="8467520">
    <nd ref="1207431794"/>
    <nd ref="1207431625"/>
    <nd ref="1207431594"/>
    <nd ref="1207431840"/>
    <nd ref="1207431802"/>
    <nd ref="1207431645"/>
    <nd ref="1207431647"/>
    <nd ref="1207431634"/>
    <nd ref="1207431618"/>
    <nd ref="1207431604"/>
    <nd ref="1207431687"/>
    <nd ref="1207431668"/>
    <nd ref="1207431672"/>
    <nd ref="1207431692"/>
    <nd ref="1207431642"/>
    <nd ref="1207431794"/>
    <tag k="addr:housenumber" v="39"/>
    <tag k="building" v="yes"/>
    <tag k="heritage" v="2"/>
    <tag k="heritage:operator" v="nid"/>
    <tag k="historic" v="heritage"/>
    <tag k="name" v="kamienica J. Czapiewskiego"/>
    <tag k="ref:nid" v="A/198"/>
    <tag k="source" v="wikipedia"/>
    <tag k="source:addr" v="wikipedia"/>
    <tag k="source:name" v="wikipedia"/>
  </way>
  <way id="104677868" version="3" timestamp="2011-06-17T19:07:03Z" uid="66036" user="h4v" changeset="8467520">
    <nd ref="1207431727"/>
    <nd ref="1207431709"/>
    <nd ref="1207431624"/>
    <nd ref="1207431685"/>
    <nd ref="1207431775"/>
    <nd ref="1207431743"/>
    <nd ref="1207431653"/>
    <nd ref="1207431782"/>
    <nd ref="1207438791"/>
    <nd ref="1207431644"/>
    <nd ref="1207431830"/>
    <nd ref="1207431819"/>
    <nd ref="1207431678"/>
    <nd ref="1207431667"/>
    <nd ref="1207431727"/>
    <tag k="addr:housenumber" v="31"/>
    <tag k="building" v="yes"/>
    <tag k="heritage" v="2"/>
    <tag k="heritage:operator" v="nid"/>
    <tag k="historic" v="heritage"/>
    <tag k="name" v="kamienica S. Dyszkina"/>
    <tag k="ref:nid" v="A/67"/>
  </way>
  <way id="104677870" version="2" timestamp="2011-06-17T19:07:11Z" uid="66036" user="h4v" changeset="8467520">
    <nd ref="1207431775"/>
    <nd ref="1207431680"/>
    <nd ref="1207431714"/>
    <nd ref="1207431655"/>
    <nd ref="1207431658"/>
    <nd ref="1207431653"/>
    <nd ref="1207431743"/>
    <nd ref="1207431775"/>
    <tag k="addr:housenumber" v="33"/>
    <tag k="building" v="yes"/>
  </way>
  <way id="104677871" version="2" timestamp="2011-04-16T22:12:37Z" uid="66036" user="h4v" changeset="7882749">
    <nd ref="1207431731"/>
    <nd ref="1207431601"/>
    <nd ref="1207431726"/>
    <nd ref="1207431657"/>
    <nd ref="1207431835"/>
    <nd ref="1207431608"/>
    <nd ref="1207431837"/>
    <nd ref="1207431747"/>
    <nd ref="1207431695"/>
    <nd ref="1207431711"/>
    <nd ref="1207431650"/>
    <nd ref="1207431694"/>
    <nd ref="1207431814"/>
    <nd ref="1207431724"/>
    <nd ref="1207431691"/>
    <nd ref="1207431628"/>
    <nd ref="1207431731"/>
    <tag k="addr:housenumber" v="43"/>
    <tag k="building" v="yes"/>
    <tag k="heritage" v="2"/>
    <tag k="heritage:operator" v="kobidz"/>
    <tag k="kobidz:ref" v="A/27"/>
    <tag k="name" v="Kamienica Oszera Kohna"/>
    <tag k="source:addr" v="wikipedia"/>
    <tag k="source:name" v="wikipedia"/>
    <tag k="wikipedia" v="pl:Kamienica_Oszera_Kohna"/>
  </way>
  <way id="104677871" version="3" timestamp="2011-06-10T21:26:36Z" uid="66036" user="h4v" changeset="8401181">
    <nd ref="1207431731"/>
    <nd ref="1207431601"/>
    <nd ref="1207431726"/>
    <nd ref="1207431657"/>
    <nd ref="1207431835"/>
    <nd ref="1207431608"/>
    <nd ref="1207431837"/>
    <nd ref="1207431747"/>
    <nd ref="1207431695"/>
    <nd ref="1207431711"/>
    <nd ref="1207431650"/>
    <nd ref="1207431694"/>
    <nd ref="1207431814"/>
    <nd ref="1207431724"/>
    <nd ref="1207431691"/>
    <nd ref="1207431628"/>
    <nd ref="1207431731"/>
    <tag k="addr:housenumber" v="43"/>
    <tag k="building" v="yes"/>
    <tag k="heritage" v="2"/>
    <tag k="heritage:operator" v="nid"/>
    <tag k="name" v="Kamienica Oszera Kohna"/>
    <tag k="ref:nid" v="A/27"/>
    <tag k="source:addr" v="wikipedia"/>
    <tag k="source:name" v="wikipedia"/>
    <tag k="wikipedia" v="pl:Kamienica_Oszera_Kohna"/>
  </way>
  <way id="104677872" version="2" timestamp="2011-06-17T19:07:10Z" uid="66036" user="h4v" changeset="8467520">
    <nd ref="1207431670"/>
    <nd ref="1207431808"/>
    <nd ref="1207431702"/>
    <nd ref="1207431714"/>
    <nd ref="1207431680"/>
    <nd ref="1207431615"/>
    <nd ref="1207431820"/>
    <nd ref="1207431788"/>
    <nd ref="1207431690"/>
    <nd ref="1207431663"/>
    <nd ref="1207431626"/>
    <nd ref="1207431592"/>
    <nd ref="1207431670"/>
    <tag k="addr:housenumber" v="35"/>
    <tag k="building" v="yes"/>
  </way>
  <way id="104677873" version="2" timestamp="2011-04-16T22:12:43Z" uid="66036" user="h4v" changeset="7882749">
    <nd ref="1207431641"/>
    <nd ref="1207431645"/>
    <nd ref="1207431802"/>
    <nd ref="1207431840"/>
    <nd ref="1207431608"/>
    <nd ref="1207431835"/>
    <nd ref="1207431657"/>
    <nd ref="1207431780"/>
    <nd ref="1207431796"/>
    <nd ref="1207431800"/>
    <nd ref="1207431679"/>
    <nd ref="1207431610"/>
    <nd ref="1207431611"/>
    <nd ref="1207431635"/>
    <nd ref="1207431606"/>
    <nd ref="1207431728"/>
    <nd ref="1207431641"/>
    <tag k="addr:housenumber" v="41"/>
    <tag k="building" v="yes"/>
    <tag k="source:addr" v="wikipedia"/>
    <tag k="source:name" v="wikipedia"/>
  </way>
  <way id="104677874" version="2" timestamp="2011-04-16T22:12:50Z" uid="66036" user="h4v" changeset="7882749">
    <nd ref="1207431756"/>
    <nd ref="1207431822"/>
    <nd ref="1207431820"/>
    <nd ref="1207431615"/>
    <nd ref="1207431594"/>
    <nd ref="1207431625"/>
    <nd ref="1207431766"/>
    <nd ref="1207431771"/>
    <nd ref="1207431769"/>
    <nd ref="1207431654"/>
    <nd ref="1207431651"/>
    <nd ref="1207431602"/>
    <nd ref="1207431730"/>
    <nd ref="1207431827"/>
    <nd ref="1207431627"/>
    <nd ref="1207431631"/>
    <nd ref="1207431700"/>
    <nd ref="1207431683"/>
    <nd ref="1207431613"/>
    <nd ref="1207431656"/>
    <nd ref="1207431756"/>
    <tag k="addr:housenumber" v="37"/>
    <tag k="building" v="yes"/>
    <tag k="heritage" v="2"/>
    <tag k="heritage:operator" v="kobidz"/>
    <tag k="kobidz:ref" v="A/68"/>
    <tag k="name" v="Kamienica Dawida Szmulewicza"/>
    <tag k="source:addr" v="wikipedia"/>
    <tag k="source:name" v="wikipedia"/>
    <tag k="wikipedia" v="pl:Kamienica_Dawida_Szmulewicza"/>
  </way>
  <way id="104677874" version="3" timestamp="2011-06-10T21:26:34Z" uid="66036" user="h4v" changeset="8401181">
    <nd ref="1207431756"/>
    <nd ref="1207431822"/>
    <nd ref="1207431820"/>
    <nd ref="1207431615"/>
    <nd ref="1207431594"/>
    <nd ref="1207431625"/>
    <nd ref="1207431766"/>
    <nd ref="1207431771"/>
    <nd ref="1207431769"/>
    <nd ref="1207431654"/>
    <nd ref="1207431651"/>
    <nd ref="1207431602"/>
    <nd ref="1207431730"/>
    <nd ref="1207431827"/>
    <nd ref="1207431627"/>
    <nd ref="1207431631"/>
    <nd ref="1207431700"/>
    <nd ref="1207431683"/>
    <nd ref="1207431613"/>
    <nd ref="1207431656"/>
    <nd ref="1207431756"/>
    <tag k="addr:housenumber" v="37"/>
    <tag k="building" v="yes"/>
    <tag k="heritage" v="2"/>
    <tag k="heritage:operator" v="nid"/>
    <tag k="name" v="Kamienica Dawida Szmulewicza"/>
    <tag k="ref:nid" v="A/68"/>
    <tag k="source:addr" v="wikipedia"/>
    <tag k="source:name" v="wikipedia"/>
    <tag k="wikipedia" v="pl:Kamienica_Dawida_Szmulewicza"/>
  </way>
  <way id="104677877" version="2" timestamp="2011-06-17T19:07:10Z" uid="66036" user="h4v" changeset="8467520">
    <nd ref="1207431733"/>
    <nd ref="1207431637"/>
    <nd ref="1207431695"/>
    <nd ref="1207431747"/>
    <nd ref="1207431837"/>
    <nd ref="1207431609"/>
    <nd ref="1207431646"/>
    <nd ref="1207431599"/>
    <nd ref="1207431633"/>
    <nd ref="1207431662"/>
    <nd ref="1207431605"/>
    <nd ref="1207431816"/>
    <nd ref="1207431729"/>
    <nd ref="1207431834"/>
    <nd ref="1207431821"/>
    <nd ref="1207431824"/>
    <nd ref="1207431733"/>
    <tag k="addr:housenumber" v="45"/>
    <tag k="building" v="yes"/>
  </way>
  <way id="104677882" version="3" timestamp="2011-04-16T22:12:46Z" uid="66036" user="h4v" changeset="7882749">
    <nd ref="1207431713"/>
    <nd ref="1207431826"/>
    <nd ref="1207431685"/>
    <nd ref="1207431624"/>
    <nd ref="1207431709"/>
    <nd ref="1207438733"/>
    <nd ref="1207431746"/>
    <nd ref="1207431617"/>
    <nd ref="1207431623"/>
    <nd ref="1207431652"/>
    <nd ref="1207431648"/>
    <nd ref="1207431673"/>
    <nd ref="1207431660"/>
    <nd ref="1207431629"/>
    <nd ref="1207431639"/>
    <nd ref="1207431715"/>
    <nd ref="1207431682"/>
    <nd ref="1207431686"/>
    <nd ref="1207431713"/>
    <tag k="addr:housenumber" v="29"/>
    <tag k="building" v="yes"/>
    <tag k="heritage" v="2"/>
    <tag k="heritage:operator" v="kobidz"/>
    <tag k="kobidz:ref" v="A/66"/>
    <tag k="name" v="Dom bankowy Wilhelma Landaua"/>
    <tag k="source:addr" v="wikipedia"/>
    <tag k="source:name" v="wikipedia"/>
    <tag k="wikipedia" v="pl:Dom_bankowy_Wilhelma_Landaua"/>
  </way>
  <way id="104677882" version="4" timestamp="2011-06-10T21:26:31Z" uid="66036" user="h4v" changeset="8401181">
    <nd ref="1207431713"/>
    <nd ref="1207431826"/>
    <nd ref="1207431685"/>
    <nd ref="1207431624"/>
    <nd ref="1207431709"/>
    <nd ref="1207438733"/>
    <nd ref="1207431746"/>
    <nd ref="1207431617"/>
    <nd ref="1207431623"/>
    <nd ref="1207431652"/>
    <nd ref="1207431648"/>
    <nd ref="1207431673"/>
    <nd ref="1207431660"/>
    <nd ref="1207431629"/>
    <nd ref="1207431639"/>
    <nd ref="1207431715"/>
    <nd ref="1207431682"/>
    <nd ref="1207431686"/>
    <nd ref="1207431713"/>
    <tag k="addr:housenumber" v="29"/>
    <tag k="building" v="yes"/>
    <tag k="heritage" v="2"/>
    <tag k="heritage:operator" v="nid"/>
    <tag k="name" v="Dom bankowy Wilhelma Landaua"/>
    <tag k="ref:nid" v="A/66"/>
    <tag k="source:addr" v="wikipedia"/>
    <tag k="source:name" v="wikipedia"/>
    <tag k="wikipedia" v="pl:Dom_bankowy_Wilhelma_Landaua"/>
  </way>
</osm>
