<?xml version='1.0' encoding='UTF-8'?>
<osm version="0.6" generator="libosmium/2.20.0">
  <way id="105343630" version="1" timestamp="2011-03-22T20:16:45Z" uid="33382" user="de_muur" changeset="7640822">
    <nd ref="25809730"/>
    <nd ref="25769655"/>
    <tag k="cycleway" v="track"/>
    <tag k="highway" v="secondary"/>
    <tag k="lanes" v="2"/>
    <tag k="maxspeed" v="50"/>
    <tag k="name" v="Habenhauser Brückenstraße"/>
    <tag k="oneway" v="yes"/>
    <tag k="surface" v="paved"/>
  </way>
  <way id="105343633" version="1" timestamp="2011-03-22T20:16:46Z" uid="33382" user="de_muur" changeset="7640822">
    <nd ref="25769655"/>
    <nd ref="703392945"/>
    <nd ref="21963499"/>
    <tag k="cycleway" v="track"/>
    <tag k="highway" v="secondary"/>
    <tag k="lanes" v="2"/>
    <tag k="maxspeed" v="50"/>
    <tag k="name" v="Habenhauser Brückenstraße"/>
    <tag k="oneway" v="yes"/>
    <tag k="surface" v="paved"/>
  </way>
  <way id="105343634" version="1" timestamp="2011-03-22T20:16:46Z" uid="33382" user="de_muur" changeset="7640822">
    <nd ref="25809730"/>
    <nd ref="25809412"/>
    <tag k="highway" v="secondary"/>
    <tag k="maxspeed" v="50"/>
    <tag k="name" v="Habenhauser Landstraße"/>
    <tag k="oneway" v="yes"/>
    <tag k="surface" v="paved"/>
  </way>
  <way id="105343636" version="1" timestamp="2011-03-22T20:16:48Z" uid="33382" user="de_muur" changeset="7640822">
    <nd ref="823318342"/>
    <nd ref="25746996"/>
    <nd ref="25746997"/>
    <nd ref="25746998"/>
    <nd ref="25746999"/>
    <nd ref="416535837"/>
    <nd ref="823317980"/>
    <tag k="bridge" v="yes"/>
    <tag k="cycleway" v="track"/>
    <tag k="highway" v="secondary"/>
    <tag k="layer" v="1"/>
    <tag k="loc_name" v="Erdbeerbrücke"/>
    <tag k="maxspeed" v="50"/>
    <tag k="name" v="Karl-Carstens-Brücke"/>
    <tag k="surface" v="paved"/>
  </way>
</osm>
