<?xml version='1.0' encoding='UTF-8'?>
<osm version="0.6" generator="libosmium/2.20.0">
  <way id="106539004" version="2" timestamp="2011-06-13T11:06:29Z" uid="66036" user="h4v" changeset="8424619">
    <nd ref="1225587301"/>
    <nd ref="1225587220"/>
    <nd ref="1225587145"/>
    <nd ref="1225587153"/>
    <nd ref="1225587277"/>
    <nd ref="1225587181"/>
    <nd ref="1225587124"/>
    <nd ref="1225587219"/>
    <nd ref="1225587295"/>
    <nd ref="1225587195"/>
    <nd ref="1225587143"/>
    <nd ref="1225587166"/>
    <nd ref="1225587301"/>
    <tag k="addr:housenumber" v="7"/>
    <tag k="building" v="yes"/>
  </way>
  <way id="106539009" version="2" timestamp="2011-06-13T11:06:30Z" uid="66036" user="h4v" changeset="8424619">
    <nd ref="1225587200"/>
    <nd ref="1225587217"/>
    <nd ref="1225587130"/>
    <nd ref="1225587151"/>
    <nd ref="1225587245"/>
    <nd ref="1225587229"/>
    <nd ref="1225587236"/>
    <nd ref="1225587168"/>
    <nd ref="1225587304"/>
    <nd ref="1225587198"/>
    <nd ref="1225587179"/>
    <nd ref="1225587262"/>
    <nd ref="1225587227"/>
    <nd ref="1225587171"/>
    <nd ref="1225587209"/>
    <nd ref="1225587127"/>
    <nd ref="1225587200"/>
    <tag k="addr:housenumber" v="3"/>
    <tag k="building" v="yes"/>
  </way>
  <way id="106539012" version="2" timestamp="2011-06-13T11:06:29Z" uid="66036" user="h4v" changeset="8424619">
    <nd ref="1225587153"/>
    <nd ref="1225587229"/>
    <nd ref="1225587236"/>
    <nd ref="1225587145"/>
    <nd ref="1225587153"/>
    <tag k="addr:housenumber" v="5"/>
    <tag k="building" v="yes"/>
    <tag k="heritage" v="2"/>
    <tag k="heritage:operator" v="nid"/>
    <tag k="historic" v="heritage"/>
    <tag k="name" v="kamienica wielkomiejska"/>
    <tag k="ref:nid" v="A/62"/>
  </way>
  <way id="106539852" version="2" timestamp="2011-06-13T11:06:34Z" uid="66036" user="h4v" changeset="8424619">
    <nd ref="1225593205"/>
    <nd ref="1225587277"/>
    <nd ref="1225587181"/>
    <nd ref="1225593222"/>
    <nd ref="1225593217"/>
    <nd ref="1225593229"/>
    <nd ref="1225593239"/>
    <nd ref="1225593242"/>
    <nd ref="1225593215"/>
    <nd ref="1225593245"/>
    <nd ref="1225593228"/>
    <nd ref="1225593202"/>
    <nd ref="1225593205"/>
    <tag k="addr:housenumber" v="9"/>
    <tag k="building" v="yes"/>
  </way>
  <way id="106539855" version="3" timestamp="2011-04-16T10:29:53Z" uid="66036" user="h4v" changeset="7877061">
    <nd ref="1225593219"/>
    <nd ref="1225593202"/>
    <nd ref="1225593205"/>
    <nd ref="1225593208"/>
    <nd ref="1225593244"/>
    <nd ref="1225593200"/>
    <nd ref="1225593209"/>
    <nd ref="1225593241"/>
    <nd ref="1225593224"/>
    <nd ref="1225593237"/>
    <nd ref="1225593206"/>
    <nd ref="1244390705"/>
    <nd ref="1225593226"/>
    <nd ref="1225593219"/>
    <tag k="addr:housenumber" v="12"/>
    <tag k="building" v="yes"/>
    <tag k="heritage" v="2"/>
    <tag k="heritage:operator" v="kobidz"/>
    <tag k="kobidz:ref" v="A/63"/>
    <tag k="name" v="Kamienica Karola Scheiblera"/>
    <tag k="source:addr" v="wikipedia"/>
    <tag k="source:name" v="wikipedia"/>
    <tag k="wikipedia" v="pl:Kamienica_Scheiblerów"/>
  </way>
  <way id="106539855" version="4" timestamp="2011-04-16T22:12:42Z" uid="66036" user="h4v" changeset="7882749">
    <nd ref="1225593219"/>
    <nd ref="1225593202"/>
    <nd ref="1225593205"/>
    <nd ref="1225593208"/>
    <nd ref="1225593244"/>
    <nd ref="1225593200"/>
    <nd ref="1225593209"/>
    <nd ref="1225593241"/>
    <nd ref="1225593224"/>
    <nd ref="1225593237"/>
    <nd ref="1225593206"/>
    <nd ref="1244390705"/>
    <nd ref="1225593226"/>
    <nd ref="1225593219"/>
    <tag k="addr:housenumber" v="11"/>
    <tag k="building" v="yes"/>
    <tag k="heritage" v="2"/>
    <tag k="heritage:operator" v="kobidz"/>
    <tag k="kobidz:ref" v="A/63"/>
    <tag k="name" v="Kamienica Karola Scheiblera"/>
    <tag k="source:addr" v="wikipedia"/>
    <tag k="source:name" v="wikipedia"/>
    <tag k="wikipedia" v="pl:Kamienica_Scheiblerów"/>
  </way>
  <way id="106539855" version="5" timestamp="2011-06-10T21:26:33Z" uid="66036" user="h4v" changeset="8401181">
    <nd ref="1225593219"/>
    <nd ref="1225593202"/>
    <nd ref="1225593205"/>
    <nd ref="1225593208"/>
    <nd ref="1225593244"/>
    <nd ref="1225593200"/>
    <nd ref="1225593209"/>
    <nd ref="1225593241"/>
    <nd ref="1225593224"/>
    <nd ref="1225593237"/>
    <nd ref="1225593206"/>
    <nd ref="1244390705"/>
    <nd ref="1225593226"/>
    <nd ref="1225593219"/>
    <tag k="addr:housenumber" v="11"/>
    <tag k="building" v="yes"/>
    <tag k="heritage" v="2"/>
    <tag k="heritage:operator" v="nid"/>
    <tag k="name" v="Kamienica Karola Scheiblera"/>
    <tag k="ref:nid" v="A/63"/>
    <tag k="source:addr" v="wikipedia"/>
    <tag k="source:name" v="wikipedia"/>
    <tag k="wikipedia" v="pl:Kamienica_Scheiblerów"/>
  </way>
</osm>
