<?xml version='1.0' encoding='UTF-8'?>
<osm version="0.6" generator="libosmium/2.20.0">
  <way id="107027325" version="1" timestamp="2011-04-03T10:30:40Z" uid="33382" user="de_muur" changeset="7752450">
    <nd ref="355158919"/>
    <nd ref="1230511782"/>
    <nd ref="1230511849"/>
    <nd ref="1230511838"/>
    <nd ref="1230511820"/>
    <nd ref="1230511815"/>
    <nd ref="1230511789"/>
    <nd ref="1230511829"/>
    <nd ref="685605829"/>
    <tag k="highway" v="tertiary"/>
  </way>
  <way id="107027326" version="1" timestamp="2011-04-03T10:30:41Z" uid="33382" user="de_muur" changeset="7752450">
    <nd ref="1230511836"/>
    <nd ref="270458648"/>
    <nd ref="270458641"/>
    <nd ref="270458639"/>
    <nd ref="676829499"/>
    <nd ref="270458644"/>
    <nd ref="270458642"/>
    <nd ref="270458676"/>
    <nd ref="270458678"/>
    <nd ref="355161382"/>
    <nd ref="270458670"/>
    <tag k="highway" v="secondary"/>
    <tag k="maxspeed" v="50"/>
    <tag k="name" v="Mallinghäuser Straße"/>
    <tag k="ref" v="L 356"/>
    <tag k="surface" v="paved"/>
  </way>
  <way id="107027332" version="1" timestamp="2011-04-03T10:30:41Z" uid="33382" user="de_muur" changeset="7752450">
    <nd ref="254476183"/>
    <nd ref="254476184"/>
    <nd ref="1230511787"/>
    <tag k="highway" v="secondary"/>
    <tag k="maxspeed" v="70"/>
    <tag k="name" v="Neubruchhäuser Straße"/>
    <tag k="ref" v="L 356"/>
    <tag k="surface" v="paved"/>
  </way>
  <way id="107027333" version="1" timestamp="2011-04-03T10:30:41Z" uid="33382" user="de_muur" changeset="7752450">
    <nd ref="270458605"/>
    <nd ref="270458607"/>
    <nd ref="270458629"/>
    <nd ref="270458628"/>
    <nd ref="270458635"/>
    <nd ref="270458634"/>
    <nd ref="270458623"/>
    <nd ref="270458621"/>
    <nd ref="270458626"/>
    <nd ref="270458625"/>
    <nd ref="270458646"/>
    <nd ref="685605872"/>
    <nd ref="270458645"/>
    <nd ref="270458649"/>
    <nd ref="1230511791"/>
    <tag k="highway" v="secondary"/>
    <tag k="maxspeed" v="100"/>
    <tag k="name" v="Mallinghäuser Straße"/>
    <tag k="ref" v="L 356"/>
    <tag k="surface" v="paved"/>
  </way>
  <way id="107027337" version="1" timestamp="2011-04-03T10:30:42Z" uid="33382" user="de_muur" changeset="7752450">
    <nd ref="270458576"/>
    <nd ref="270458579"/>
    <nd ref="270458581"/>
    <nd ref="270458584"/>
    <nd ref="270458609"/>
    <nd ref="270458613"/>
    <nd ref="270458615"/>
    <tag k="highway" v="secondary"/>
    <tag k="maxspeed" v="70"/>
    <tag k="note" v="northern part may be L 356, southern part seems to be L 202, please check"/>
    <tag k="ref" v="L 202"/>
    <tag k="surface" v="paved"/>
  </way>
  <way id="107027339" version="1" timestamp="2011-04-03T10:30:42Z" uid="33382" user="de_muur" changeset="7752450">
    <nd ref="1230511787"/>
    <nd ref="283202416"/>
    <nd ref="254476186"/>
    <nd ref="254476187"/>
    <nd ref="254476188"/>
    <nd ref="254476189"/>
    <nd ref="355158916"/>
    <nd ref="1132501090"/>
    <nd ref="1230511853"/>
    <tag k="highway" v="secondary"/>
    <tag k="maxspeed" v="100"/>
    <tag k="name" v="Neubruchhäuser Straße"/>
    <tag k="ref" v="L 356"/>
    <tag k="surface" v="paved"/>
  </way>
  <way id="107027341" version="1" timestamp="2011-04-03T10:30:42Z" uid="33382" user="de_muur" changeset="7752450">
    <nd ref="1230511806"/>
    <nd ref="1230511860"/>
    <tag k="highway" v="secondary"/>
    <tag k="maxspeed" v="100"/>
    <tag k="name" v="Neubruchhäuser Straße"/>
    <tag k="ref" v="L 356"/>
    <tag k="surface" v="paved"/>
  </way>
  <way id="107027345" version="1" timestamp="2011-04-03T10:30:43Z" uid="33382" user="de_muur" changeset="7752450">
    <nd ref="355158919"/>
    <nd ref="355161383"/>
    <nd ref="355158920"/>
    <nd ref="1230511833"/>
    <nd ref="270458670"/>
    <tag k="highway" v="secondary"/>
    <tag k="maxspeed" v="50"/>
    <tag k="name" v="Neubruchhäuser Straße"/>
    <tag k="ref" v="L 356"/>
    <tag k="surface" v="paved"/>
  </way>
  <way id="107027346" version="1" timestamp="2011-04-03T10:30:43Z" uid="33382" user="de_muur" changeset="7752450">
    <nd ref="270458463"/>
    <nd ref="270458475"/>
    <nd ref="270458483"/>
    <nd ref="270458469"/>
    <nd ref="270458473"/>
    <nd ref="425034647"/>
    <nd ref="270458490"/>
    <nd ref="425034648"/>
    <nd ref="270458494"/>
    <tag k="highway" v="secondary"/>
    <tag k="maxspeed" v="70"/>
    <tag k="name" v="Verdener Straße"/>
    <tag k="ref" v="L 202"/>
    <tag k="surface" v="paved"/>
  </way>
  <way id="107027349" version="1" timestamp="2011-04-03T10:30:44Z" uid="33382" user="de_muur" changeset="7752450">
    <nd ref="1230511860"/>
    <nd ref="355158919"/>
    <tag k="highway" v="secondary"/>
    <tag k="maxspeed" v="50"/>
    <tag k="name" v="Neubruchhäuser Straße"/>
    <tag k="ref" v="L 356"/>
    <tag k="surface" v="paved"/>
  </way>
  <way id="107027350" version="1" timestamp="2011-04-03T10:30:44Z" uid="33382" user="de_muur" changeset="7752450">
    <nd ref="1230511791"/>
    <nd ref="685605851"/>
    <nd ref="1230511836"/>
    <tag k="highway" v="secondary"/>
    <tag k="maxspeed" v="70"/>
    <tag k="name" v="Mallinghäuser Straße"/>
    <tag k="ref" v="L 356"/>
    <tag k="surface" v="paved"/>
  </way>
  <way id="107027351" version="1" timestamp="2011-04-03T10:30:44Z" uid="33382" user="de_muur" changeset="7752450">
    <nd ref="1230511853"/>
    <nd ref="355158917"/>
    <nd ref="355158918"/>
    <nd ref="1230511806"/>
    <tag k="highway" v="secondary"/>
    <tag k="maxspeed" v="70"/>
    <tag k="name" v="Neubruchhäuser Straße"/>
    <tag k="ref" v="L 356"/>
    <tag k="surface" v="paved"/>
  </way>
  <way id="107027353" version="1" timestamp="2011-04-03T10:30:45Z" uid="33382" user="de_muur" changeset="7752450">
    <nd ref="270458494"/>
    <nd ref="270458485"/>
    <nd ref="270458488"/>
    <nd ref="270458502"/>
    <nd ref="692980020"/>
    <nd ref="270458505"/>
    <nd ref="331345881"/>
    <tag k="highway" v="secondary"/>
    <tag k="name" v="Verdener Straße"/>
    <tag k="ref" v="L 202"/>
    <tag k="surface" v="paved"/>
  </way>
</osm>
