<?xml version='1.0' encoding='UTF-8'?>
<osm version="0.6" generator="libosmium/2.20.0">
  <way id="107137161" version="1" timestamp="2011-04-04T01:29:17Z" uid="6269" user="Mueck" changeset="7760460">
    <nd ref="427993878"/>
    <nd ref="1231749900"/>
    <nd ref="1231749848"/>
    <tag k="highway" v="path"/>
  </way>
  <way id="107137162" version="1" timestamp="2011-04-04T01:29:17Z" uid="6269" user="Mueck" changeset="7760460">
    <nd ref="281223226"/>
    <nd ref="1231749849"/>
    <tag k="highway" v="service"/>
  </way>
  <way id="107137163" version="1" timestamp="2011-04-04T01:29:17Z" uid="6269" user="Mueck" changeset="7760460">
    <nd ref="1231749860"/>
    <nd ref="1231749864"/>
    <tag k="barrier" v="gate"/>
  </way>
  <way id="107137164" version="1" timestamp="2011-04-04T01:29:17Z" uid="6269" user="Mueck" changeset="7760460">
    <nd ref="1231749889"/>
    <nd ref="1231749935"/>
    <tag k="railway" v="rail"/>
  </way>
  <way id="107137165" version="1" timestamp="2011-04-04T01:29:17Z" uid="6269" user="Mueck" changeset="7760460">
    <nd ref="1231749848"/>
    <nd ref="14912575"/>
    <nd ref="1231749874"/>
    <nd ref="1231749947"/>
    <nd ref="1231749967"/>
    <nd ref="1231749941"/>
    <nd ref="1231749990"/>
    <nd ref="1231749857"/>
    <nd ref="1231749899"/>
    <nd ref="1231749918"/>
    <nd ref="1231749992"/>
    <nd ref="1231749972"/>
    <nd ref="1231749952"/>
    <nd ref="1231749848"/>
    <tag k="area" v="yse"/>
    <tag k="highway" v="pedestrian"/>
  </way>
  <way id="107137165" version="2" timestamp="2011-04-14T19:38:45Z" uid="6269" user="Mueck" changeset="7864275">
    <nd ref="1231749848"/>
    <nd ref="14912575"/>
    <nd ref="1231749874"/>
    <nd ref="1231749947"/>
    <nd ref="1231749967"/>
    <nd ref="1231749941"/>
    <nd ref="1231749990"/>
    <nd ref="1231749857"/>
    <nd ref="1231749899"/>
    <nd ref="1231749918"/>
    <nd ref="1231749992"/>
    <nd ref="1231749972"/>
    <nd ref="1231749952"/>
    <nd ref="1231749848"/>
    <tag k="area" v="yes"/>
    <tag k="highway" v="pedestrian"/>
  </way>
  <way id="107137166" version="1" timestamp="2011-04-04T01:29:17Z" uid="6269" user="Mueck" changeset="7760460">
    <nd ref="1231749984"/>
    <nd ref="1231749949"/>
    <nd ref="1231749888"/>
    <nd ref="1231749922"/>
    <nd ref="1231749865"/>
    <nd ref="1231749860"/>
    <tag k="barrier" v="wall"/>
  </way>
  <way id="107137167" version="1" timestamp="2011-04-04T01:29:18Z" uid="6269" user="Mueck" changeset="7760460">
    <nd ref="1231749940"/>
    <nd ref="1231749830"/>
    <nd ref="1231749946"/>
    <tag k="highway" v="steps"/>
  </way>
  <way id="107137168" version="1" timestamp="2011-04-04T01:29:18Z" uid="6269" user="Mueck" changeset="7760460">
    <nd ref="1231749972"/>
    <nd ref="1231749881"/>
    <tag k="highway" v="steps"/>
  </way>
  <way id="107137169" version="1" timestamp="2011-04-04T01:29:18Z" uid="6269" user="Mueck" changeset="7760460">
    <nd ref="1231749913"/>
    <nd ref="1231749990"/>
    <nd ref="1231749857"/>
    <nd ref="1231749899"/>
    <nd ref="1231749913"/>
    <tag k="leisure" v="playground"/>
  </way>
  <way id="107137170" version="1" timestamp="2011-04-04T01:29:18Z" uid="6269" user="Mueck" changeset="7760460">
    <nd ref="1231749894"/>
    <nd ref="1231749940"/>
    <nd ref="1231749873"/>
    <nd ref="1231749984"/>
    <nd ref="1231749949"/>
    <nd ref="1231749888"/>
    <nd ref="1231749922"/>
    <nd ref="1231749865"/>
    <nd ref="1231749860"/>
    <nd ref="1231749864"/>
    <nd ref="1231749936"/>
    <nd ref="1231749804"/>
    <nd ref="1231749831"/>
    <nd ref="1231749980"/>
    <nd ref="1231749954"/>
    <nd ref="1231749879"/>
    <nd ref="1231749956"/>
    <nd ref="1231749894"/>
    <tag k="access" v="private"/>
    <tag k="area" v="yes"/>
    <tag k="highway" v="pedestrian"/>
  </way>
  <way id="107137171" version="1" timestamp="2011-04-04T01:29:18Z" uid="6269" user="Mueck" changeset="7760460">
    <nd ref="427993876"/>
    <nd ref="427993877"/>
    <tag k="highway" v="footway"/>
  </way>
  <way id="107137172" version="1" timestamp="2011-04-04T01:29:18Z" uid="6269" user="Mueck" changeset="7760460">
    <nd ref="1231749793"/>
    <nd ref="427993877"/>
    <nd ref="1231749805"/>
    <nd ref="1231749901"/>
    <nd ref="1231749825"/>
    <nd ref="1231749919"/>
    <nd ref="1043600960"/>
    <nd ref="1043600951"/>
    <nd ref="1231749806"/>
    <nd ref="1020385494"/>
    <nd ref="1043601007"/>
    <nd ref="1020385502"/>
    <nd ref="1020385585"/>
    <nd ref="1020385657"/>
    <nd ref="1020385558"/>
    <nd ref="1043600989"/>
    <nd ref="1020385643"/>
    <nd ref="1231749924"/>
    <nd ref="1231749843"/>
    <nd ref="1043601003"/>
    <nd ref="1231749892"/>
    <nd ref="1231749824"/>
    <nd ref="1231749877"/>
    <nd ref="1231749818"/>
    <nd ref="1231749898"/>
    <nd ref="1231749900"/>
    <nd ref="427993878"/>
    <nd ref="1231749973"/>
    <nd ref="1231749793"/>
    <tag k="area" v="yes"/>
    <tag k="highway" v="pedestrian"/>
  </way>
  <way id="107137173" version="1" timestamp="2011-04-04T01:29:19Z" uid="6269" user="Mueck" changeset="7760460">
    <nd ref="553070119"/>
    <nd ref="427993876"/>
    <tag k="highway" v="steps"/>
  </way>
  <way id="107137174" version="1" timestamp="2011-04-04T01:29:19Z" uid="6269" user="Mueck" changeset="7760460">
    <nd ref="1231749984"/>
    <nd ref="1231749873"/>
    <nd ref="1231749946"/>
    <nd ref="1231749961"/>
    <nd ref="1231749956"/>
    <nd ref="1231749879"/>
    <nd ref="1231749954"/>
    <nd ref="1231749980"/>
    <nd ref="1231749831"/>
    <nd ref="1231749804"/>
    <nd ref="1231749936"/>
    <nd ref="1231749864"/>
    <nd ref="1231749876"/>
    <nd ref="1231749984"/>
    <tag k="addr:city" v="Karlsruhe"/>
    <tag k="addr:housename" v="L! Rhenainia i. CC"/>
    <tag k="addr:housenumber" v="11"/>
    <tag k="addr:postcode" v="76131"/>
    <tag k="addr:street" v="Haizingerstraße"/>
    <tag k="building" v="yes"/>
    <tag k="designation" v="Verbindungshaus"/>
    <tag k="name" v="L! Rhenania"/>
  </way>
  <way id="107137174" version="2" timestamp="2011-04-06T19:55:30Z" uid="6269" user="Mueck" changeset="7788631">
    <nd ref="1231749984"/>
    <nd ref="1231749873"/>
    <nd ref="1231749946"/>
    <nd ref="1231749961"/>
    <nd ref="1231749956"/>
    <nd ref="1231749879"/>
    <nd ref="1231749954"/>
    <nd ref="1231749980"/>
    <nd ref="1231749831"/>
    <nd ref="1231749804"/>
    <nd ref="1231749936"/>
    <nd ref="1231749864"/>
    <nd ref="1231749876"/>
    <nd ref="1231749984"/>
    <tag k="addr:city" v="Karlsruhe"/>
    <tag k="addr:housename" v="L! Rhenainia i. CC"/>
    <tag k="addr:housenumber" v="11"/>
    <tag k="addr:postcode" v="76131"/>
    <tag k="addr:street" v="Haizingerstraße"/>
    <tag k="building" v="yes"/>
    <tag k="designation" v="Verbindungshaus"/>
    <tag k="name" v="L! Rhenania"/>
    <tag k="website" v="http://www.rhenania-karlsruhe.de/"/>
  </way>
  <way id="107137174" version="3" timestamp="2011-04-06T20:06:29Z" uid="6269" user="Mueck" changeset="7788762">
    <nd ref="1231749984"/>
    <nd ref="1231749873"/>
    <nd ref="1231749946"/>
    <nd ref="1231749961"/>
    <nd ref="1231749956"/>
    <nd ref="1231749879"/>
    <nd ref="1231749954"/>
    <nd ref="1231749980"/>
    <nd ref="1231749831"/>
    <nd ref="1231749804"/>
    <nd ref="1231749936"/>
    <nd ref="1231749864"/>
    <nd ref="1231749876"/>
    <nd ref="1231749984"/>
    <tag k="addr:city" v="Karlsruhe"/>
    <tag k="addr:housename" v="L! Rhenainia i. CC"/>
    <tag k="addr:housenumber" v="11"/>
    <tag k="addr:postcode" v="76131"/>
    <tag k="addr:street" v="Haizingerstraße"/>
    <tag k="building" v="yes"/>
    <tag k="designation" v="Verbindungshaus"/>
    <tag k="name" v="L! Rhenania"/>
    <tag k="phone" v="+49 721 614860"/>
    <tag k="website" v="http://www.rhenania-karlsruhe.de/"/>
  </way>
  <way id="107137174" version="4" timestamp="2011-04-13T22:37:30Z" uid="6269" user="Mueck" changeset="7856666">
    <nd ref="1231749984"/>
    <nd ref="1231749873"/>
    <nd ref="1231749946"/>
    <nd ref="1231749961"/>
    <nd ref="1231749956"/>
    <nd ref="1231749879"/>
    <nd ref="1231749954"/>
    <nd ref="1231749980"/>
    <nd ref="1231749831"/>
    <nd ref="1231749804"/>
    <nd ref="1231749936"/>
    <nd ref="1231749864"/>
    <nd ref="1231749876"/>
    <nd ref="1231749984"/>
    <tag k="addr:city" v="Karlsruhe"/>
    <tag k="addr:housename" v="L! Rhenania i. CC"/>
    <tag k="addr:housenumber" v="11"/>
    <tag k="addr:postcode" v="76131"/>
    <tag k="addr:street" v="Haizingerstraße"/>
    <tag k="building" v="yes"/>
    <tag k="building:use" v="fraternity"/>
    <tag k="name" v="L! Rhenania"/>
    <tag k="phone" v="+49 721 614860"/>
    <tag k="website" v="http://www.rhenania-karlsruhe.de/"/>
  </way>
  <way id="107137174" version="5" timestamp="2011-04-13T23:30:57Z" uid="6269" user="Mueck" changeset="7856666">
    <nd ref="1231749984"/>
    <nd ref="1231749873"/>
    <nd ref="1231749946"/>
    <nd ref="1231749961"/>
    <nd ref="1231749956"/>
    <nd ref="1231749879"/>
    <nd ref="1231749954"/>
    <nd ref="1231749980"/>
    <nd ref="1231749831"/>
    <nd ref="1231749804"/>
    <nd ref="1231749936"/>
    <nd ref="1231749864"/>
    <nd ref="1231749876"/>
    <nd ref="1231749984"/>
    <tag k="addr:city" v="Karlsruhe"/>
    <tag k="addr:housename" v="Rhenanenhaus"/>
    <tag k="addr:housenumber" v="11"/>
    <tag k="addr:postcode" v="76131"/>
    <tag k="addr:street" v="Haizingerstraße"/>
    <tag k="amenity" v="fraternity"/>
    <tag k="building" v="yes"/>
    <tag k="building:use" v="dormitory"/>
    <tag k="name" v="L! Rhenania"/>
    <tag k="phone" v="+49 721 614860"/>
    <tag k="verbindung:art" v="Landsmannschaft"/>
    <tag k="verbindung:couleur" v="farbentragend"/>
    <tag k="verbindung:fechten" v="pflichtschlagend"/>
    <tag k="verbindung:konfession" v="nein"/>
    <tag k="verbindung:mitglieder" v="männlich"/>
    <tag k="verbindung:typ" v="akademisch"/>
    <tag k="verbindung:verband" v="CC"/>
    <tag k="website" v="http://www.rhenania-karlsruhe.de/"/>
  </way>
  <way id="107137174" version="6" timestamp="2011-04-13T23:55:06Z" uid="6269" user="Mueck" changeset="7856666">
    <nd ref="1231749984"/>
    <nd ref="1231749873"/>
    <nd ref="1231749946"/>
    <nd ref="1231749961"/>
    <nd ref="1231749956"/>
    <nd ref="1231749879"/>
    <nd ref="1231749954"/>
    <nd ref="1231749980"/>
    <nd ref="1231749831"/>
    <nd ref="1231749804"/>
    <nd ref="1231749936"/>
    <nd ref="1231749864"/>
    <nd ref="1231749876"/>
    <nd ref="1231749984"/>
    <tag k="addr:city" v="Karlsruhe"/>
    <tag k="addr:housename" v="Rhenanenhaus"/>
    <tag k="addr:housenumber" v="11"/>
    <tag k="addr:postcode" v="76131"/>
    <tag k="addr:street" v="Haizingerstraße"/>
    <tag k="amenity" v="fraternity"/>
    <tag k="building" v="yes"/>
    <tag k="building:use" v="dormitory"/>
    <tag k="name" v="L! Rhenania"/>
    <tag k="phone" v="+49 721 614860"/>
    <tag k="verbindung:art" v="Landsmannschaft"/>
    <tag k="verbindung:couleur" v="farbentragend"/>
    <tag k="verbindung:farben" v="blau-gold-weiß"/>
    <tag k="verbindung:fechten" v="pflichtschlagend"/>
    <tag k="verbindung:konfession" v="nein"/>
    <tag k="verbindung:mitglieder" v="männlich"/>
    <tag k="verbindung:tramizu" v="rhenania_karlsruhe.html"/>
    <tag k="verbindung:typ" v="akademisch"/>
    <tag k="verbindung:verband" v="CC"/>
    <tag k="website" v="http://www.rhenania-karlsruhe.de/"/>
  </way>
  <way id="107137174" version="7" timestamp="2011-04-14T00:56:53Z" uid="6269" user="Mueck" changeset="7857104">
    <nd ref="1231749984"/>
    <nd ref="1231749873"/>
    <nd ref="1231749946"/>
    <nd ref="1231749961"/>
    <nd ref="1231749956"/>
    <nd ref="1231749879"/>
    <nd ref="1231749954"/>
    <nd ref="1231749980"/>
    <nd ref="1231749831"/>
    <nd ref="1231749804"/>
    <nd ref="1231749936"/>
    <nd ref="1231749864"/>
    <nd ref="1231749876"/>
    <nd ref="1231749984"/>
    <tag k="addr:city" v="Karlsruhe"/>
    <tag k="addr:housename" v="Rhenanenhaus"/>
    <tag k="addr:housenumber" v="11"/>
    <tag k="addr:postcode" v="76131"/>
    <tag k="addr:street" v="Haizingerstraße"/>
    <tag k="amenity" v="fraternity"/>
    <tag k="building" v="yes"/>
    <tag k="building:use" v="dormitory"/>
    <tag k="name" v="L! Rhenania"/>
    <tag k="official_name" v="Landsmannschaft im CC Rhenania zu Karlsruhe"/>
    <tag k="phone" v="+49 721 614860"/>
    <tag k="verbindung:art" v="Landsmannschaft"/>
    <tag k="verbindung:couleur" v="farbentragend"/>
    <tag k="verbindung:farben" v="blau-gold-weiß"/>
    <tag k="verbindung:fechten" v="pflichtschlagend"/>
    <tag k="verbindung:konfession" v="nein"/>
    <tag k="verbindung:mitglieder" v="männlich"/>
    <tag k="verbindung:tramizu" v="rhenania_karlsruhe.html"/>
    <tag k="verbindung:typ" v="akademisch"/>
    <tag k="verbindung:verband" v="CC"/>
    <tag k="website" v="http://www.rhenania-karlsruhe.de/"/>
  </way>
  <way id="107137174" version="8" timestamp="2011-04-14T20:52:17Z" uid="6269" user="Mueck" changeset="7865008">
    <nd ref="1231749984"/>
    <nd ref="1231749873"/>
    <nd ref="1231749946"/>
    <nd ref="1231749961"/>
    <nd ref="1231749956"/>
    <nd ref="1231749879"/>
    <nd ref="1231749954"/>
    <nd ref="1231749980"/>
    <nd ref="1231749831"/>
    <nd ref="1231749804"/>
    <nd ref="1231749936"/>
    <nd ref="1231749864"/>
    <nd ref="1231749876"/>
    <nd ref="1231749984"/>
    <tag k="addr:city" v="Karlsruhe"/>
    <tag k="addr:housename" v="Rhenanenhaus"/>
    <tag k="addr:housenumber" v="11"/>
    <tag k="addr:postcode" v="76131"/>
    <tag k="addr:street" v="Haizingerstraße"/>
    <tag k="amenity" v="fraternity"/>
    <tag k="building" v="yes"/>
    <tag k="building:use" v="dormitory"/>
    <tag k="name" v="L! Rhenania"/>
    <tag k="official_name" v="Landsmannschaft im CC Rhenania zu Karlsruhe"/>
    <tag k="phone" v="+49 721 614860"/>
    <tag k="verbindung" v="haus"/>
    <tag k="verbindung:art" v="Landsmannschaft"/>
    <tag k="verbindung:couleur" v="farbentragend"/>
    <tag k="verbindung:farben" v="blau-gold-weiß"/>
    <tag k="verbindung:fechten" v="pflichtschlagend"/>
    <tag k="verbindung:konfession" v="nein"/>
    <tag k="verbindung:mitglieder" v="männlich"/>
    <tag k="verbindung:tramizu" v="rhenania_karlsruhe.html"/>
    <tag k="verbindung:typ" v="akademisch"/>
    <tag k="verbindung:verband" v="CC"/>
    <tag k="website" v="http://www.rhenania-karlsruhe.de/"/>
  </way>
  <way id="107137174" version="9" timestamp="2011-04-14T22:16:41Z" uid="6269" user="Mueck" changeset="7865681">
    <nd ref="1231749984"/>
    <nd ref="1231749873"/>
    <nd ref="1231749946"/>
    <nd ref="1231749961"/>
    <nd ref="1231749956"/>
    <nd ref="1231749879"/>
    <nd ref="1231749954"/>
    <nd ref="1231749980"/>
    <nd ref="1231749831"/>
    <nd ref="1231749804"/>
    <nd ref="1231749936"/>
    <nd ref="1231749864"/>
    <nd ref="1231749876"/>
    <nd ref="1231749984"/>
    <tag k="addr:city" v="Karlsruhe"/>
    <tag k="addr:country" v="DE"/>
    <tag k="addr:housename" v="Rhenanenhaus"/>
    <tag k="addr:housenumber" v="11"/>
    <tag k="addr:postcode" v="76131"/>
    <tag k="addr:street" v="Haizingerstraße"/>
    <tag k="amenity" v="fraternity"/>
    <tag k="building" v="yes"/>
    <tag k="building:use" v="dormitory"/>
    <tag k="name" v="L! Rhenania"/>
    <tag k="official_name" v="Landsmannschaft im CC Rhenania zu Karlsruhe"/>
    <tag k="phone" v="+49 721 614860"/>
    <tag k="verbindung" v="haus"/>
    <tag k="verbindung:art" v="Landsmannschaft"/>
    <tag k="verbindung:couleur" v="farbentragend"/>
    <tag k="verbindung:farben" v="blau-gold-weiß"/>
    <tag k="verbindung:fechten" v="pflichtschlagend"/>
    <tag k="verbindung:konfession" v="nein"/>
    <tag k="verbindung:mitglieder" v="männlich"/>
    <tag k="verbindung:tramizu" v="rhenania_karlsruhe.html"/>
    <tag k="verbindung:typ" v="akademisch"/>
    <tag k="verbindung:verband" v="CC"/>
    <tag k="website" v="http://www.rhenania-karlsruhe.de/"/>
  </way>
  <way id="107137498" version="1" timestamp="2011-04-04T01:59:14Z" uid="4467" user="Rosscoe" changeset="7760508">
    <nd ref="583242412"/>
    <nd ref="1231769602"/>
    <nd ref="1231769590"/>
    <nd ref="1231769620"/>
    <nd ref="1231769609"/>
    <nd ref="1231769639"/>
    <nd ref="1231769627"/>
    <nd ref="1231769659"/>
    <nd ref="1231769646"/>
    <tag k="highway" v="residential"/>
    <tag k="maxspeed" v="50"/>
    <tag k="source" v="nearmap"/>
    <tag k="source:maxspeed" v="default residential speed limit in Australia"/>
  </way>
  <way id="107137499" version="1" timestamp="2011-04-04T01:59:14Z" uid="4467" user="Rosscoe" changeset="7760508">
    <nd ref="1231769633"/>
    <nd ref="1231769628"/>
    <nd ref="599615714"/>
    <nd ref="599615728"/>
    <nd ref="599615729"/>
    <tag k="highway" v="service"/>
    <tag k="service" v="parking_aisle"/>
  </way>
  <way id="107137672" version="1" timestamp="2011-04-04T02:16:02Z" uid="4467" user="Rosscoe" changeset="7760538">
    <nd ref="1231772341"/>
    <nd ref="1231772326"/>
    <nd ref="1231772318"/>
    <nd ref="1231772350"/>
    <nd ref="1231772354"/>
    <nd ref="1231772338"/>
    <nd ref="1231772324"/>
    <nd ref="1231772308"/>
    <nd ref="1231772341"/>
    <tag k="highway" v="residential"/>
    <tag k="junction" v="roundabout"/>
    <tag k="source" v="nearmap"/>
  </way>
  <way id="107137673" version="1" timestamp="2011-04-04T02:16:03Z" uid="4467" user="Rosscoe" changeset="7760538">
    <nd ref="1231772333"/>
    <nd ref="1025634610"/>
    <tag k="highway" v="residential"/>
    <tag k="maxspeed" v="50"/>
    <tag k="name" v="William Street"/>
    <tag k="source" v="nearmap"/>
    <tag k="source:name" v="survey"/>
  </way>
  <way id="107137674" version="1" timestamp="2011-04-04T02:16:03Z" uid="4467" user="Rosscoe" changeset="7760538">
    <nd ref="1231772323"/>
    <nd ref="1025634637"/>
    <tag k="highway" v="residential"/>
    <tag k="maxspeed" v="50"/>
    <tag k="name" v="William Street"/>
    <tag k="source" v="nearmap"/>
    <tag k="source:name" v="survey"/>
  </way>
  <way id="107137675" version="1" timestamp="2011-04-04T02:16:03Z" uid="4467" user="Rosscoe" changeset="7760538">
    <nd ref="1231772310"/>
    <nd ref="1231772335"/>
    <nd ref="1231772323"/>
    <nd ref="1231772325"/>
    <nd ref="1231772321"/>
    <nd ref="1231772348"/>
    <nd ref="1231772320"/>
    <nd ref="1231772340"/>
    <nd ref="1231772310"/>
    <tag k="highway" v="residential"/>
    <tag k="junction" v="roundabout"/>
    <tag k="source" v="nearmap"/>
  </way>
  <way id="107137676" version="1" timestamp="2011-04-04T02:16:03Z" uid="4467" user="Rosscoe" changeset="7760538">
    <nd ref="1231772309"/>
    <nd ref="1231772346"/>
    <nd ref="1231772333"/>
    <nd ref="1231772337"/>
    <nd ref="1231772322"/>
    <nd ref="1231772355"/>
    <nd ref="1231772339"/>
    <nd ref="1231772352"/>
    <nd ref="1231772309"/>
    <tag k="highway" v="residential"/>
    <tag k="junction" v="roundabout"/>
    <tag k="source" v="nearmap"/>
  </way>
  <way id="107137677" version="1" timestamp="2011-04-04T02:16:03Z" uid="4467" user="Rosscoe" changeset="7760538">
    <nd ref="1152521054"/>
    <nd ref="1152521058"/>
    <tag k="bicycle" v="yes"/>
    <tag k="cycleway" v="track"/>
    <tag k="foot" v="yes"/>
    <tag k="highway" v="cycleway"/>
    <tag k="source" v="Bing"/>
  </way>
</osm>
