<?xml version='1.0' encoding='UTF-8'?>
<osm version="0.6" generator="libosmium/2.20.0">
  <way id="107283120" version="1" timestamp="2011-04-05T08:23:17Z" uid="115477" user="wowik" changeset="7772261">
    <nd ref="1233383388"/>
    <nd ref="1233383284"/>
    <nd ref="1233383299"/>
    <nd ref="1233383321"/>
    <nd ref="1233383388"/>
    <tag k="addr:housenumber" v="3-5 с2"/>
    <tag k="building" v="yes"/>
  </way>
  <way id="107283120" version="2" timestamp="2011-04-20T11:18:42Z" uid="115477" user="wowik" changeset="7915124">
    <nd ref="1233383388"/>
    <nd ref="1233383284"/>
    <nd ref="1233383299"/>
    <nd ref="1233383321"/>
    <nd ref="1233383388"/>
    <tag k="addr:city" v="Москва"/>
    <tag k="addr:country" v="RU"/>
    <tag k="addr:housenumber" v="3-5 с2"/>
    <tag k="building" v="yes"/>
  </way>
  <way id="107283121" version="1" timestamp="2011-04-05T08:23:17Z" uid="115477" user="wowik" changeset="7772261">
    <nd ref="359705276"/>
    <nd ref="1233383308"/>
    <nd ref="1233383339"/>
    <nd ref="1233383354"/>
    <nd ref="1233383259"/>
    <nd ref="1233383268"/>
    <nd ref="359705276"/>
    <tag k="building" v="yes"/>
  </way>
  <way id="107283121" version="2" timestamp="2011-04-20T07:30:39Z" uid="115477" user="wowik" changeset="7913535">
    <nd ref="359705276"/>
    <nd ref="1233383308"/>
    <nd ref="1233383339"/>
    <nd ref="1233383354"/>
    <nd ref="1233383259"/>
    <nd ref="1233383268"/>
    <nd ref="359705276"/>
    <tag k="addr:city" v="Москва"/>
    <tag k="addr:country" v="RU"/>
    <tag k="building" v="yes"/>
  </way>
  <way id="107283122" version="1" timestamp="2011-04-05T08:23:17Z" uid="115477" user="wowik" changeset="7772261">
    <nd ref="1233383363"/>
    <nd ref="1233383320"/>
    <nd ref="1233383372"/>
    <nd ref="1233383395"/>
    <nd ref="1233383243"/>
    <nd ref="1233383363"/>
    <tag k="addr:housenumber" v="1А"/>
    <tag k="addr:street" v="Гранатный переулок"/>
    <tag k="building" v="yes"/>
  </way>
  <way id="107283122" version="2" timestamp="2011-04-20T07:30:48Z" uid="115477" user="wowik" changeset="7913535">
    <nd ref="1233383363"/>
    <nd ref="1233383320"/>
    <nd ref="1233383372"/>
    <nd ref="1233383395"/>
    <nd ref="1233383243"/>
    <nd ref="1233383363"/>
    <tag k="addr:city" v="Москва"/>
    <tag k="addr:country" v="RU"/>
    <tag k="addr:housenumber" v="1А"/>
    <tag k="addr:street" v="Гранатный переулок"/>
    <tag k="building" v="yes"/>
  </way>
  <way id="107283123" version="1" timestamp="2011-04-05T08:23:17Z" uid="115477" user="wowik" changeset="7772261">
    <nd ref="1233383232"/>
    <nd ref="1233383308"/>
    <nd ref="1233383339"/>
    <nd ref="1233383320"/>
    <nd ref="1233383232"/>
    <tag k="addr:housenumber" v="12 с7"/>
    <tag k="addr:street" v="Малая Никитская улица"/>
    <tag k="building" v="yes"/>
  </way>
  <way id="107283123" version="2" timestamp="2011-04-20T11:18:05Z" uid="115477" user="wowik" changeset="7915124">
    <nd ref="1233383232"/>
    <nd ref="1233383308"/>
    <nd ref="1233383339"/>
    <nd ref="1233383320"/>
    <nd ref="1233383232"/>
    <tag k="addr:city" v="Москва"/>
    <tag k="addr:country" v="RU"/>
    <tag k="addr:housenumber" v="12 с7"/>
    <tag k="addr:street" v="Малая Никитская улица"/>
    <tag k="building" v="yes"/>
  </way>
  <way id="107283124" version="1" timestamp="2011-04-05T08:23:17Z" uid="115477" user="wowik" changeset="7772261">
    <nd ref="1233383288"/>
    <nd ref="1233383303"/>
    <nd ref="1233383337"/>
    <nd ref="1233383319"/>
    <nd ref="1233383346"/>
    <nd ref="621098815"/>
    <nd ref="1233383371"/>
    <nd ref="1233383393"/>
    <nd ref="359705275"/>
    <nd ref="1233383288"/>
    <tag k="building" v="yes"/>
  </way>
  <way id="107283124" version="2" timestamp="2011-04-20T11:18:16Z" uid="115477" user="wowik" changeset="7915124">
    <nd ref="1233383288"/>
    <nd ref="1233383303"/>
    <nd ref="1233383337"/>
    <nd ref="1233383319"/>
    <nd ref="1233383346"/>
    <nd ref="621098815"/>
    <nd ref="1233383371"/>
    <nd ref="1233383393"/>
    <nd ref="359705275"/>
    <nd ref="1233383288"/>
    <tag k="addr:city" v="Москва"/>
    <tag k="addr:country" v="RU"/>
    <tag k="building" v="yes"/>
  </way>
  <way id="107283125" version="1" timestamp="2011-04-05T08:23:17Z" uid="115477" user="wowik" changeset="7772261">
    <nd ref="650997365"/>
    <nd ref="1233383231"/>
    <nd ref="1233383386"/>
    <nd ref="1233383292"/>
    <nd ref="1233383317"/>
    <nd ref="1233383344"/>
    <nd ref="1233383359"/>
    <nd ref="650997365"/>
    <tag k="building" v="yes"/>
  </way>
  <way id="107283125" version="2" timestamp="2011-04-20T11:18:50Z" uid="115477" user="wowik" changeset="7915124">
    <nd ref="650997365"/>
    <nd ref="1233383231"/>
    <nd ref="1233383386"/>
    <nd ref="1233383292"/>
    <nd ref="1233383317"/>
    <nd ref="1233383344"/>
    <nd ref="1233383359"/>
    <nd ref="650997365"/>
    <tag k="addr:city" v="Москва"/>
    <tag k="addr:country" v="RU"/>
    <tag k="building" v="yes"/>
  </way>
  <way id="107283126" version="1" timestamp="2011-04-05T08:23:18Z" uid="115477" user="wowik" changeset="7772261">
    <nd ref="1233383365"/>
    <nd ref="1233383260"/>
    <nd ref="599043727"/>
    <nd ref="1233383401"/>
    <nd ref="1233383309"/>
    <nd ref="1233383342"/>
    <nd ref="1233383357"/>
    <nd ref="1233383297"/>
    <nd ref="1233383365"/>
    <tag k="building" v="yes"/>
  </way>
  <way id="107283126" version="2" timestamp="2011-04-20T11:19:21Z" uid="115477" user="wowik" changeset="7915253">
    <nd ref="1233383365"/>
    <nd ref="1233383260"/>
    <nd ref="599043727"/>
    <nd ref="1233383401"/>
    <nd ref="1233383309"/>
    <nd ref="1233383342"/>
    <nd ref="1233383357"/>
    <nd ref="1233383297"/>
    <nd ref="1233383365"/>
    <tag k="addr:city" v="Москва"/>
    <tag k="addr:country" v="RU"/>
    <tag k="building" v="yes"/>
  </way>
  <way id="107283127" version="1" timestamp="2011-04-05T08:23:18Z" uid="115477" user="wowik" changeset="7772261">
    <nd ref="359705273"/>
    <nd ref="1233383297"/>
    <nd ref="1233383357"/>
    <nd ref="1233383259"/>
    <nd ref="1233383268"/>
    <nd ref="359705273"/>
    <tag k="building" v="yes"/>
  </way>
  <way id="107283127" version="2" timestamp="2011-04-20T07:31:00Z" uid="115477" user="wowik" changeset="7913535">
    <nd ref="359705273"/>
    <nd ref="1233383297"/>
    <nd ref="1233383357"/>
    <nd ref="1233383259"/>
    <nd ref="1233383268"/>
    <nd ref="359705273"/>
    <tag k="addr:city" v="Москва"/>
    <tag k="addr:country" v="RU"/>
    <tag k="building" v="yes"/>
  </way>
  <way id="107283128" version="1" timestamp="2011-04-05T08:23:18Z" uid="115477" user="wowik" changeset="7772261">
    <nd ref="1233383395"/>
    <nd ref="1233383348"/>
    <nd ref="1233383361"/>
    <nd ref="1233383372"/>
    <nd ref="1233383395"/>
    <tag k="addr:housenumber" v="3 с2"/>
    <tag k="addr:street" v="Гранатный переулок"/>
    <tag k="building" v="yes"/>
  </way>
  <way id="107283128" version="2" timestamp="2011-04-20T07:31:08Z" uid="115477" user="wowik" changeset="7913535">
    <nd ref="1233383395"/>
    <nd ref="1233383348"/>
    <nd ref="1233383361"/>
    <nd ref="1233383372"/>
    <nd ref="1233383395"/>
    <tag k="addr:city" v="Москва"/>
    <tag k="addr:country" v="RU"/>
    <tag k="addr:housenumber" v="3 с2"/>
    <tag k="addr:street" v="Гранатный переулок"/>
    <tag k="building" v="yes"/>
  </way>
  <way id="107283129" version="1" timestamp="2011-04-05T08:23:19Z" uid="115477" user="wowik" changeset="7772261">
    <nd ref="1233383282"/>
    <nd ref="1233383368"/>
    <nd ref="359705302"/>
    <nd ref="359705280"/>
    <nd ref="1233383386"/>
    <nd ref="1233383231"/>
    <nd ref="1233383282"/>
    <tag k="building" v="yes"/>
  </way>
  <way id="107283129" version="2" timestamp="2011-04-20T11:18:27Z" uid="115477" user="wowik" changeset="7915124">
    <nd ref="1233383282"/>
    <nd ref="1233383368"/>
    <nd ref="359705302"/>
    <nd ref="359705280"/>
    <nd ref="1233383386"/>
    <nd ref="1233383231"/>
    <nd ref="1233383282"/>
    <tag k="addr:city" v="Москва"/>
    <tag k="addr:country" v="RU"/>
    <tag k="building" v="yes"/>
  </way>
  <way id="107283130" version="1" timestamp="2011-04-05T08:23:19Z" uid="115477" user="wowik" changeset="7772261">
    <nd ref="1233383374"/>
    <nd ref="621098805"/>
    <nd ref="621098808"/>
    <nd ref="1233383399"/>
    <nd ref="1233383374"/>
    <tag k="addr:housenumber" v="10А"/>
    <tag k="addr:street" v="Малая Никитская улица"/>
    <tag k="building" v="yes"/>
  </way>
  <way id="107283130" version="2" timestamp="2011-04-20T11:18:34Z" uid="115477" user="wowik" changeset="7915124">
    <nd ref="1233383374"/>
    <nd ref="621098805"/>
    <nd ref="621098808"/>
    <nd ref="1233383399"/>
    <nd ref="1233383374"/>
    <tag k="addr:city" v="Москва"/>
    <tag k="addr:country" v="RU"/>
    <tag k="addr:housenumber" v="10А"/>
    <tag k="addr:street" v="Малая Никитская улица"/>
    <tag k="building" v="yes"/>
  </way>
  <way id="107283292" version="1" timestamp="2011-04-05T08:26:13Z" uid="115477" user="wowik" changeset="7772261">
    <nd ref="1233384295"/>
    <nd ref="1233384296"/>
    <nd ref="1233384297"/>
    <nd ref="1233384298"/>
    <tag k="highway" v="footway"/>
  </way>
  <way id="107283338" version="1" timestamp="2011-04-05T08:28:40Z" uid="115477" user="wowik" changeset="7772261">
    <nd ref="1233384640"/>
    <nd ref="1233384636"/>
    <nd ref="1233384637"/>
    <nd ref="1233384638"/>
    <nd ref="1233384639"/>
    <nd ref="1233384635"/>
    <nd ref="1233384640"/>
    <tag k="addr:housenumber" v="2/1 с2"/>
    <tag k="addr:street" v="Малая Никитская улица"/>
    <tag k="building" v="yes"/>
  </way>
  <way id="107283338" version="2" timestamp="2011-04-20T07:30:53Z" uid="115477" user="wowik" changeset="7913535">
    <nd ref="1233384640"/>
    <nd ref="1233384636"/>
    <nd ref="1233384637"/>
    <nd ref="1233384638"/>
    <nd ref="1233384639"/>
    <nd ref="1233384635"/>
    <nd ref="1233384640"/>
    <tag k="addr:city" v="Москва"/>
    <tag k="addr:country" v="RU"/>
    <tag k="addr:housenumber" v="2/1 с2"/>
    <tag k="addr:street" v="Малая Никитская улица"/>
    <tag k="building" v="yes"/>
  </way>
  <way id="107283584" version="1" timestamp="2011-04-05T08:32:39Z" uid="115477" user="wowik" changeset="7772261">
    <nd ref="1233386180"/>
    <nd ref="1233386174"/>
    <nd ref="1233386189"/>
    <nd ref="1233386193"/>
    <nd ref="1233386180"/>
    <tag k="addr:housenumber" v="28 с1"/>
    <tag k="addr:street" v="Хлебный переулок"/>
    <tag k="building" v="yes"/>
  </way>
  <way id="107283584" version="2" timestamp="2011-04-20T11:18:47Z" uid="115477" user="wowik" changeset="7915124">
    <nd ref="1233386180"/>
    <nd ref="1233386174"/>
    <nd ref="1233386189"/>
    <nd ref="1233386193"/>
    <nd ref="1233386180"/>
    <tag k="addr:city" v="Москва"/>
    <tag k="addr:country" v="RU"/>
    <tag k="addr:housenumber" v="28 с1"/>
    <tag k="addr:street" v="Хлебный переулок"/>
    <tag k="building" v="yes"/>
  </way>
  <way id="107283585" version="1" timestamp="2011-04-05T08:32:39Z" uid="115477" user="wowik" changeset="7772261">
    <nd ref="1233386182"/>
    <nd ref="1233386169"/>
    <nd ref="1233386183"/>
    <nd ref="1233386170"/>
    <nd ref="1233386186"/>
    <nd ref="1233386173"/>
    <nd ref="1233386188"/>
    <nd ref="1233386176"/>
    <nd ref="1233386184"/>
    <nd ref="1233386182"/>
    <tag k="addr:housenumber" v="26"/>
    <tag k="addr:street" v="Хлебный переулок"/>
    <tag k="building" v="yes"/>
  </way>
  <way id="107283585" version="2" timestamp="2011-04-20T07:30:45Z" uid="115477" user="wowik" changeset="7913535">
    <nd ref="1233386182"/>
    <nd ref="1233386169"/>
    <nd ref="1233386183"/>
    <nd ref="1233386170"/>
    <nd ref="1233386186"/>
    <nd ref="1233386173"/>
    <nd ref="1233386188"/>
    <nd ref="1233386176"/>
    <nd ref="1233386184"/>
    <nd ref="1233386182"/>
    <tag k="addr:city" v="Москва"/>
    <tag k="addr:country" v="RU"/>
    <tag k="addr:housenumber" v="26"/>
    <tag k="addr:street" v="Хлебный переулок"/>
    <tag k="building" v="yes"/>
  </way>
  <way id="107283586" version="1" timestamp="2011-04-05T08:32:39Z" uid="115477" user="wowik" changeset="7772261">
    <nd ref="1233386195"/>
    <nd ref="1233386177"/>
    <nd ref="1233386193"/>
    <nd ref="1233386180"/>
    <nd ref="1233386195"/>
    <tag k="addr:housenumber" v="28 с1"/>
    <tag k="addr:street" v="Хлебный переулок"/>
    <tag k="building" v="yes"/>
  </way>
  <way id="107283586" version="2" timestamp="2011-04-20T07:30:56Z" uid="115477" user="wowik" changeset="7913535">
    <nd ref="1233386195"/>
    <nd ref="1233386177"/>
    <nd ref="1233386193"/>
    <nd ref="1233386180"/>
    <nd ref="1233386195"/>
    <tag k="addr:city" v="Москва"/>
    <tag k="addr:country" v="RU"/>
    <tag k="addr:housenumber" v="28 с1"/>
    <tag k="addr:street" v="Хлебный переулок"/>
    <tag k="building" v="yes"/>
  </way>
  <way id="107283587" version="1" timestamp="2011-04-05T08:32:39Z" uid="115477" user="wowik" changeset="7772261">
    <nd ref="1233386179"/>
    <nd ref="1233386182"/>
    <nd ref="1233386184"/>
    <nd ref="1233386171"/>
    <nd ref="1233386187"/>
    <nd ref="1233386175"/>
    <nd ref="1233386190"/>
    <nd ref="1233386178"/>
    <nd ref="1233386194"/>
    <nd ref="1233386181"/>
    <nd ref="1233386168"/>
    <nd ref="1233386191"/>
    <nd ref="1233386179"/>
    <tag k="addr:housenumber" v="28 с1"/>
    <tag k="addr:street" v="Хлебный переулок"/>
    <tag k="amenity" v="embassy"/>
    <tag k="building" v="yes"/>
    <tag k="country" v="IS"/>
    <tag k="name" v="посольство Исландии"/>
    <tag k="name:en" v="Embassy of Iceland"/>
  </way>
  <way id="107283587" version="2" timestamp="2011-04-20T11:18:13Z" uid="115477" user="wowik" changeset="7915124">
    <nd ref="1233386179"/>
    <nd ref="1233386182"/>
    <nd ref="1233386184"/>
    <nd ref="1233386171"/>
    <nd ref="1233386187"/>
    <nd ref="1233386175"/>
    <nd ref="1233386190"/>
    <nd ref="1233386178"/>
    <nd ref="1233386194"/>
    <nd ref="1233386181"/>
    <nd ref="1233386168"/>
    <nd ref="1233386191"/>
    <nd ref="1233386179"/>
    <tag k="addr:city" v="Москва"/>
    <tag k="addr:country" v="RU"/>
    <tag k="addr:housenumber" v="28 с1"/>
    <tag k="addr:street" v="Хлебный переулок"/>
    <tag k="amenity" v="embassy"/>
    <tag k="building" v="yes"/>
    <tag k="country" v="IS"/>
    <tag k="name" v="посольство Исландии"/>
    <tag k="name:en" v="Embassy of Iceland"/>
  </way>
  <way id="107283589" version="2" timestamp="2011-06-11T22:34:57Z" uid="16922" user="amai" changeset="8410780">
    <nd ref="1320957240"/>
    <nd ref="1320956983"/>
    <nd ref="1320957350"/>
    <nd ref="1320956932"/>
    <nd ref="1320957428"/>
    <nd ref="1320957430"/>
    <nd ref="1320957186"/>
    <nd ref="1320957374"/>
    <nd ref="1320957086"/>
    <nd ref="1320957279"/>
    <nd ref="1320957295"/>
    <nd ref="1320957416"/>
    <nd ref="1320957437"/>
    <nd ref="1320957112"/>
    <nd ref="1320957026"/>
    <nd ref="1320957243"/>
    <nd ref="1320957435"/>
    <nd ref="1320957433"/>
    <nd ref="1320956998"/>
    <nd ref="1320957331"/>
    <nd ref="1320957332"/>
    <nd ref="1320956908"/>
    <nd ref="1320956934"/>
    <nd ref="1320956945"/>
    <nd ref="1233372945"/>
    <tag k="highway" v="unclassified"/>
    <tag k="source" v="Bing"/>
  </way>
  <way id="107283591" version="2" timestamp="2011-06-11T22:34:58Z" uid="16922" user="amai" changeset="8410780">
    <nd ref="1320957153"/>
    <nd ref="1320956941"/>
    <nd ref="1320956916"/>
    <nd ref="1320956981"/>
    <nd ref="1320956907"/>
    <nd ref="1320956913"/>
    <nd ref="1320957380"/>
    <nd ref="1320957346"/>
    <nd ref="1320957061"/>
    <nd ref="1233386212"/>
    <nd ref="1233386208"/>
    <nd ref="1233386206"/>
    <nd ref="1233386215"/>
    <nd ref="1233386204"/>
    <tag k="highway" v="residential"/>
    <tag k="source" v="Bing"/>
  </way>
</osm>
