<?xml version='1.0' encoding='UTF-8'?>
<osm version="0.6" generator="libosmium/2.20.0">
  <way id="107203657" version="1" timestamp="2011-04-04T16:20:14Z" uid="6269" user="Mueck" changeset="7766537">
    <nd ref="1232515816"/>
    <nd ref="1232515819"/>
    <nd ref="1232515808"/>
    <tag k="highway" v="steps"/>
  </way>
  <way id="107203658" version="1" timestamp="2011-04-04T16:20:14Z" uid="6269" user="Mueck" changeset="7766537">
    <nd ref="245390970"/>
    <nd ref="1232515806"/>
    <nd ref="1232515809"/>
    <nd ref="1228104766"/>
    <tag k="highway" v="footway"/>
  </way>
  <way id="107203659" version="1" timestamp="2011-04-04T16:20:15Z" uid="6269" user="Mueck" changeset="7766537">
    <nd ref="496220606"/>
    <nd ref="15254842"/>
    <nd ref="26041852"/>
    <tag k="bicycle" v="yes"/>
    <tag k="highway" v="pedestrian"/>
    <tag k="name" v="Alter Brauhof"/>
  </way>
  <way id="107203660" version="1" timestamp="2011-04-04T16:20:15Z" uid="6269" user="Mueck" changeset="7766537">
    <nd ref="1232515849"/>
    <nd ref="1232515832"/>
    <nd ref="1232515842"/>
    <nd ref="1210006022"/>
    <tag k="cycleway" v="opposite"/>
    <tag k="highway" v="primary"/>
    <tag k="name" v="Kriegsstraße"/>
    <tag k="oneway" v="yes"/>
    <tag k="ref" v="B 10"/>
  </way>
  <way id="107203661" version="1" timestamp="2011-04-04T16:20:15Z" uid="6269" user="Mueck" changeset="7766537">
    <nd ref="1232515808"/>
    <nd ref="1232515803"/>
    <nd ref="1232515822"/>
    <nd ref="1232515821"/>
    <nd ref="1232515820"/>
    <nd ref="245402301"/>
    <tag k="highway" v="footway"/>
  </way>
  <way id="107203662" version="1" timestamp="2011-04-04T16:20:15Z" uid="6269" user="Mueck" changeset="7766537">
    <nd ref="1232515816"/>
    <nd ref="1232515838"/>
    <tag k="highway" v="footway"/>
  </way>
  <way id="107203663" version="1" timestamp="2011-04-04T16:20:15Z" uid="6269" user="Mueck" changeset="7766537">
    <nd ref="496220605"/>
    <nd ref="1228104666"/>
    <tag k="bicycle" v="yes"/>
    <tag k="highway" v="pedestrian"/>
    <tag k="motor_vehicle" v="private"/>
    <tag k="name" v="Alter Brauhof"/>
  </way>
  <way id="107203664" version="1" timestamp="2011-04-04T16:20:15Z" uid="6269" user="Mueck" changeset="7766537">
    <nd ref="1232515805"/>
    <nd ref="1232515841"/>
    <nd ref="1232515807"/>
    <nd ref="1210005863"/>
    <nd ref="1210005981"/>
    <nd ref="26027142"/>
    <nd ref="465211903"/>
    <nd ref="26027135"/>
    <tag k="highway" v="primary"/>
    <tag k="name" v="Kriegsstraße"/>
    <tag k="oneway" v="yes"/>
    <tag k="ref" v="B 10"/>
  </way>
  <way id="107203665" version="1" timestamp="2011-04-04T16:20:15Z" uid="6269" user="Mueck" changeset="7766537">
    <nd ref="245390928"/>
    <nd ref="1232515839"/>
    <nd ref="1232515825"/>
    <nd ref="1232515840"/>
    <nd ref="1232515833"/>
    <nd ref="1232515826"/>
    <tag k="highway" v="footway"/>
  </way>
  <way id="107203666" version="1" timestamp="2011-04-04T16:20:16Z" uid="6269" user="Mueck" changeset="7766537">
    <nd ref="1232515810"/>
    <nd ref="1229192807"/>
    <tag k="highway" v="footway"/>
  </way>
  <way id="107203667" version="1" timestamp="2011-04-04T16:20:16Z" uid="6269" user="Mueck" changeset="7766537">
    <nd ref="26027397"/>
    <nd ref="1232515836"/>
    <nd ref="1232515805"/>
    <tag k="cycleway" v="opposite"/>
    <tag k="highway" v="primary"/>
    <tag k="name" v="Kriegsstraße"/>
    <tag k="oneway" v="yes"/>
    <tag k="ref" v="B 10"/>
  </way>
  <way id="107203668" version="1" timestamp="2011-04-04T16:20:16Z" uid="6269" user="Mueck" changeset="7766537">
    <nd ref="1232515805"/>
    <nd ref="1232515829"/>
    <nd ref="1232515824"/>
    <nd ref="1232515848"/>
    <nd ref="1232515798"/>
    <nd ref="1232515844"/>
    <nd ref="1232515849"/>
    <tag k="construction" v="cycleway"/>
    <tag k="foot" v="designated"/>
    <tag k="highway" v="construction"/>
  </way>
  <way id="107203669" version="1" timestamp="2011-04-04T16:20:16Z" uid="6269" user="Mueck" changeset="7766537">
    <nd ref="1232515837"/>
    <nd ref="1232515828"/>
    <nd ref="1232515818"/>
    <nd ref="1232515823"/>
    <nd ref="1232515802"/>
    <nd ref="1229158243"/>
    <nd ref="1229158205"/>
    <nd ref="1229158273"/>
    <nd ref="1229158190"/>
    <nd ref="1229158279"/>
    <nd ref="1229158192"/>
    <nd ref="1232515837"/>
    <tag k="leisure" v="playground"/>
  </way>
  <way id="107203670" version="1" timestamp="2011-04-04T16:20:16Z" uid="6269" user="Mueck" changeset="7766537">
    <nd ref="1210006022"/>
    <nd ref="1210005939"/>
    <nd ref="1210005870"/>
    <nd ref="1210005935"/>
    <tag k="highway" v="primary"/>
    <tag k="name" v="Kriegsstraße"/>
    <tag k="oneway" v="yes"/>
    <tag k="ref" v="B 10"/>
  </way>
</osm>
