<?xml version='1.0' encoding='UTF-8'?>
<osm version="0.6" generator="libosmium/2.20.0">
  <way id="107379102" version="1" timestamp="2011-04-05T22:02:08Z" uid="66036" user="h4v" changeset="7779929">
    <nd ref="1234188187"/>
    <nd ref="499912540"/>
    <nd ref="1234188186"/>
    <tag k="construction" v="yes"/>
    <tag k="construction:ump" v="FS#6847"/>
    <tag k="highway" v="secondary"/>
    <tag k="loc_name" v="Sześćsetlecia"/>
    <tag k="name" v="Aleja 600-lecia"/>
    <tag k="ref" v="580;705"/>
  </way>
  <way id="107379103" version="1" timestamp="2011-04-05T22:02:08Z" uid="66036" user="h4v" changeset="7779929">
    <nd ref="1234188186"/>
    <nd ref="499897425"/>
    <nd ref="499894140"/>
    <tag k="highway" v="secondary"/>
    <tag k="loc_name" v="Sześćsetlecia"/>
    <tag k="name" v="Aleja 600-lecia"/>
    <tag k="ref" v="580;705"/>
  </way>
  <way id="107379232" version="1" timestamp="2011-04-05T22:07:44Z" uid="7617" user="Franc" changeset="7779969">
    <nd ref="1234190215"/>
    <nd ref="240474517"/>
    <nd ref="240474518"/>
    <nd ref="1234190175"/>
    <tag k="highway" v="residential"/>
    <tag k="maxspeed" v="50"/>
    <tag k="maxspeed:source" v="default residential speed limit in Australia"/>
    <tag k="name" v="Rosa Street"/>
  </way>
  <way id="107379233" version="1" timestamp="2011-04-05T22:07:44Z" uid="7617" user="Franc" changeset="7779969">
    <nd ref="1234190235"/>
    <nd ref="1234190195"/>
    <nd ref="1234190247"/>
    <nd ref="1234190181"/>
    <nd ref="1234190212"/>
    <nd ref="1234190243"/>
    <nd ref="1234190182"/>
    <nd ref="1234190253"/>
    <nd ref="1234190214"/>
    <nd ref="1234190244"/>
    <nd ref="1234190202"/>
    <nd ref="1234190228"/>
    <nd ref="1234190235"/>
    <tag k="highway" v="tertiary"/>
    <tag k="junction" v="roundabout"/>
    <tag k="source" v="nearmap"/>
  </way>
  <way id="107379234" version="1" timestamp="2011-04-05T22:07:44Z" uid="7617" user="Franc" changeset="7779969">
    <nd ref="1234190214"/>
    <nd ref="331769539"/>
    <nd ref="703047292"/>
    <tag k="highway" v="tertiary"/>
    <tag k="name" v="Hurstville Road"/>
    <tag k="restriction" v="school_zone"/>
  </way>
  <way id="107379235" version="1" timestamp="2011-04-05T22:07:44Z" uid="7617" user="Franc" changeset="7779969">
    <nd ref="1234190175"/>
    <nd ref="240474555"/>
    <nd ref="1234190178"/>
    <nd ref="1234190183"/>
    <tag k="highway" v="residential"/>
    <tag k="maxspeed" v="50"/>
    <tag k="maxspeed:source" v="default residential speed limit in Australia"/>
    <tag k="name" v="Rosa Street"/>
    <tag k="restriction" v="school_zone"/>
  </way>
  <way id="107379236" version="1" timestamp="2011-04-05T22:07:45Z" uid="7617" user="Franc" changeset="7779969">
    <nd ref="1234190210"/>
    <nd ref="240474555"/>
    <nd ref="1234190198"/>
    <tag k="highway" v="residential"/>
    <tag k="maxspeed" v="50"/>
    <tag k="maxspeed:source" v="default residential speed limit in Australia"/>
    <tag k="name" v="Frederick Street"/>
    <tag k="restriction" v="school_zone"/>
  </way>
  <way id="107379237" version="1" timestamp="2011-04-05T22:07:45Z" uid="7617" user="Franc" changeset="7779969">
    <nd ref="1234190183"/>
    <nd ref="31026419"/>
    <tag k="highway" v="residential"/>
    <tag k="maxspeed" v="50"/>
    <tag k="maxspeed:source" v="default residential speed limit in Australia"/>
    <tag k="name" v="Rosa Street"/>
  </way>
  <way id="107379238" version="1" timestamp="2011-04-05T22:07:45Z" uid="7617" user="Franc" changeset="7779969">
    <nd ref="1234190198"/>
    <nd ref="240474556"/>
    <nd ref="1208257716"/>
    <nd ref="1208257706"/>
    <nd ref="240474559"/>
    <nd ref="240474557"/>
    <tag k="highway" v="residential"/>
    <tag k="maxspeed" v="50"/>
    <tag k="maxspeed:source" v="default residential speed limit in Australia"/>
    <tag k="name" v="Frederick Street"/>
  </way>
  <way id="107379239" version="1" timestamp="2011-04-05T22:07:45Z" uid="7617" user="Franc" changeset="7779969">
    <nd ref="1234190233"/>
    <nd ref="1234190193"/>
    <nd ref="1234190245"/>
    <nd ref="1234190207"/>
    <nd ref="1234190238"/>
    <nd ref="1234190173"/>
    <nd ref="1234190233"/>
    <tag k="amenity" v="school"/>
    <tag k="source" v="nearmap"/>
  </way>
</osm>
