<?xml version='1.0' encoding='UTF-8'?>
<osm version="0.6" generator="libosmium/2.20.0">
  <way id="107415904" version="2" timestamp="2011-04-29T19:55:29Z" uid="66036" user="h4v" changeset="8006337">
    <nd ref="1234578789"/>
    <nd ref="1234578801"/>
    <nd ref="1234555814"/>
    <nd ref="1234578793"/>
    <nd ref="1234578782"/>
    <nd ref="1234578792"/>
    <nd ref="1234578786"/>
    <nd ref="1234578803"/>
    <nd ref="1234578795"/>
    <nd ref="1234578789"/>
    <tag k="addr:housenumber" v="48"/>
    <tag k="building" v="yes"/>
    <tag k="heritage" v="2"/>
    <tag k="heritage:operator" v="kobidz"/>
    <tag k="kobidz:ref" v="A/269"/>
    <tag k="name" v="Willa Gustawa Schreera"/>
    <tag k="source:addr" v="wikipedia"/>
  </way>
  <way id="107415904" version="3" timestamp="2011-06-10T21:26:33Z" uid="66036" user="h4v" changeset="8401181">
    <nd ref="1234578789"/>
    <nd ref="1234578801"/>
    <nd ref="1234555814"/>
    <nd ref="1234578793"/>
    <nd ref="1234578782"/>
    <nd ref="1234578792"/>
    <nd ref="1234578786"/>
    <nd ref="1234578803"/>
    <nd ref="1234578795"/>
    <nd ref="1234578789"/>
    <tag k="addr:housenumber" v="48"/>
    <tag k="building" v="yes"/>
    <tag k="heritage" v="2"/>
    <tag k="heritage:operator" v="nid"/>
    <tag k="name" v="Willa Gustawa Schreera"/>
    <tag k="ref:nid" v="A/269"/>
    <tag k="source:addr" v="wikipedia"/>
  </way>
  <way id="107415905" version="2" timestamp="2011-04-29T19:55:26Z" uid="66036" user="h4v" changeset="8006337">
    <nd ref="1234578796"/>
    <nd ref="1234578781"/>
    <nd ref="1234578790"/>
    <nd ref="1234578806"/>
    <nd ref="1234578788"/>
    <nd ref="1234578777"/>
    <nd ref="1234578775"/>
    <nd ref="1234578805"/>
    <nd ref="1234578780"/>
    <nd ref="1234578776"/>
    <nd ref="1234578784"/>
    <nd ref="1234578787"/>
    <nd ref="1234578804"/>
    <nd ref="1234578796"/>
    <tag k="addr:housenumber" v="46"/>
    <tag k="building" v="yes"/>
    <tag k="source:addr" v="wikipedia"/>
  </way>
  <way id="107415905" version="3" timestamp="2011-06-12T18:40:39Z" uid="66036" user="h4v" changeset="8418318">
    <nd ref="1234578796"/>
    <nd ref="1234578781"/>
    <nd ref="1234578790"/>
    <nd ref="1234578806"/>
    <nd ref="1234578788"/>
    <nd ref="1234578777"/>
    <nd ref="1234578775"/>
    <nd ref="1234578805"/>
    <nd ref="1234578780"/>
    <nd ref="1234578776"/>
    <nd ref="1234578784"/>
    <nd ref="1234578787"/>
    <nd ref="1234578804"/>
    <nd ref="1234578796"/>
    <tag k="addr:housenumber" v="46"/>
    <tag k="building" v="yes"/>
    <tag k="heritage" v="2"/>
    <tag k="heritage:operator" v="nid"/>
    <tag k="historic" v="heritage"/>
    <tag k="ref:nid" v="A/332"/>
    <tag k="source:addr" v="wikipedia"/>
  </way>
</osm>
