<?xml version='1.0' encoding='UTF-8'?>
<osm version="0.6" generator="libosmium/2.20.0">
  <way id="10760100" version="16" timestamp="2009-10-21T00:09:59Z" uid="36809" user="pfoten_weg_!_" changeset="2908220">
    <nd ref="60794279"/>
    <nd ref="60794280"/>
    <nd ref="60794281"/>
    <nd ref="392310463"/>
    <nd ref="60794282"/>
    <tag k="highway" v="secondary"/>
    <tag k="name" v="Katharinenstraße"/>
    <tag k="ref" v="St 2054"/>
  </way>
  <way id="10760102" version="5" timestamp="2009-10-21T00:27:09Z" uid="36809" user="pfoten_weg_!_" changeset="2908255">
    <nd ref="95833903"/>
    <nd ref="60640269"/>
    <tag k="bridge" v="yes"/>
    <tag k="highway" v="secondary"/>
    <tag k="layer" v="1"/>
    <tag k="ref" v="St 2054"/>
  </way>
  <way id="10760105" version="4" timestamp="2009-09-01T10:08:29Z" uid="36809" user="pfoten_weg_!_" changeset="2335514">
    <nd ref="60640239"/>
    <nd ref="60640238"/>
    <tag k="highway" v="residential"/>
    <tag k="name" v="Bahnhofsplatz"/>
  </way>
  <way id="10760108" version="8" timestamp="2009-09-01T10:10:18Z" uid="36809" user="pfoten_weg_!_" changeset="2335514">
    <nd ref="268823495"/>
    <nd ref="389866893"/>
    <tag k="bridge" v="yes"/>
    <tag k="highway" v="residential"/>
    <tag k="layer" v="1"/>
    <tag k="name" v="Sandauer Straße"/>
    <tag k="surface" v="paved"/>
  </way>
  <way id="10760738" version="6" timestamp="2008-12-13T20:18:18Z" uid="6975" user="ulfl" changeset="352865">
    <nd ref="95838385"/>
    <nd ref="95831217"/>
    <tag k="highway" v="steps"/>
    <tag k="number_of_steps" v="18"/>
  </way>
</osm>
