<?xml version='1.0' encoding='UTF-8'?>
<osm version="0.6" generator="libosmium/2.20.0">
  <way id="10812017" version="4" timestamp="2010-02-15T06:57:37Z" uid="74617" user="JohnSmith" changeset="3880463">
    <nd ref="96095690"/>
    <nd ref="96097409"/>
    <nd ref="96097410"/>
    <nd ref="96097411"/>
    <nd ref="96097412"/>
    <nd ref="84351359"/>
    <tag k="highway" v="secondary"/>
    <tag k="name" v="King Avenue"/>
    <tag k="oneway" v="yes"/>
  </way>
  <way id="10812017" version="5" timestamp="2011-02-12T10:24:30Z" uid="4467" user="Rosscoe" changeset="7263105">
    <nd ref="96095691"/>
    <nd ref="96097409"/>
    <nd ref="96097410"/>
    <nd ref="84351359"/>
    <tag k="highway" v="secondary"/>
    <tag k="name" v="King Avenue"/>
    <tag k="oneway" v="yes"/>
  </way>
  <way id="10812049" version="5" timestamp="2010-02-15T06:57:37Z" uid="74617" user="JohnSmith" changeset="3880463">
    <nd ref="96094081"/>
    <nd ref="96097638"/>
    <nd ref="96097639"/>
    <nd ref="96097640"/>
    <nd ref="96097641"/>
    <tag k="highway" v="secondary"/>
    <tag k="name" v="Sherbrooke Road"/>
    <tag k="oneway" v="yes"/>
  </way>
  <way id="10812049" version="6" timestamp="2011-02-12T10:24:31Z" uid="4467" user="Rosscoe" changeset="7263105">
    <nd ref="96094081"/>
    <nd ref="96097638"/>
    <nd ref="96097639"/>
    <nd ref="96097641"/>
    <tag k="highway" v="secondary"/>
    <tag k="name" v="Sherbrooke Road"/>
    <tag k="oneway" v="yes"/>
  </way>
  <way id="10812064" version="5" timestamp="2010-02-15T06:57:37Z" uid="74617" user="JohnSmith" changeset="3880463">
    <nd ref="96097641"/>
    <nd ref="96097715"/>
    <nd ref="96097716"/>
    <nd ref="96097717"/>
    <nd ref="96095683"/>
    <tag k="highway" v="secondary"/>
    <tag k="name" v="Sherbrooke Road"/>
    <tag k="oneway" v="yes"/>
  </way>
  <way id="10812064" version="6" timestamp="2011-02-12T10:24:38Z" uid="4467" user="Rosscoe" changeset="7263105">
    <nd ref="96097641"/>
    <nd ref="96097716"/>
    <nd ref="96097717"/>
    <nd ref="96095683"/>
    <tag k="highway" v="secondary"/>
    <tag k="name" v="Sherbrooke Road"/>
    <tag k="oneway" v="yes"/>
  </way>
  <way id="10812155" version="4" timestamp="2010-02-15T06:57:37Z" uid="74617" user="JohnSmith" changeset="3880463">
    <nd ref="96095687"/>
    <nd ref="96098282"/>
    <nd ref="96098283"/>
    <nd ref="96098284"/>
    <tag k="highway" v="tertiary"/>
    <tag k="name" v="Sherbrooke Road"/>
    <tag k="oneway" v="yes"/>
  </way>
  <way id="10812155" version="5" timestamp="2011-02-12T10:24:39Z" uid="4467" user="Rosscoe" changeset="7263105">
    <nd ref="1148820861"/>
    <nd ref="96098282"/>
    <nd ref="1148820793"/>
    <nd ref="96098284"/>
    <tag k="highway" v="tertiary"/>
    <tag k="name" v="Sherbrooke Road"/>
    <tag k="oneway" v="yes"/>
  </way>
  <way id="10812174" version="4" timestamp="2010-02-15T06:57:38Z" uid="74617" user="JohnSmith" changeset="3880463">
    <nd ref="96098284"/>
    <nd ref="96098466"/>
    <nd ref="96098467"/>
    <nd ref="96098468"/>
    <nd ref="96095690"/>
    <tag k="highway" v="tertiary"/>
    <tag k="name" v="Sherbrooke Road"/>
    <tag k="oneway" v="yes"/>
  </way>
  <way id="10812174" version="5" timestamp="2011-02-12T10:24:41Z" uid="4467" user="Rosscoe" changeset="7263105">
    <nd ref="96098284"/>
    <nd ref="1148820824"/>
    <nd ref="96098468"/>
    <nd ref="96095690"/>
    <tag k="highway" v="tertiary"/>
    <tag k="name" v="Sherbrooke Road"/>
    <tag k="oneway" v="yes"/>
  </way>
  <way id="10812189" version="5" timestamp="2010-02-15T06:53:07Z" uid="74617" user="JohnSmith" changeset="3880463">
    <nd ref="96098284"/>
    <nd ref="96098556"/>
    <nd ref="96099400"/>
    <tag k="highway" v="tertiary"/>
    <tag k="name" v="Sherbrooke Road"/>
  </way>
  <way id="10812543" version="7" timestamp="2007-11-17T18:48:51Z" uid="8328" user="benpre" changeset="545740">
    <nd ref="35514557"/>
    <nd ref="96141540"/>
    <nd ref="35514390"/>
    <nd ref="35514661"/>
    <nd ref="94151281"/>
    <nd ref="361088"/>
    <nd ref="17809150"/>
    <nd ref="361087"/>
    <nd ref="94141553"/>
    <nd ref="361085"/>
    <tag k="created_by" v="Potlatch 0.4c"/>
    <tag k="highway" v="secondary"/>
    <tag k="name" v="Rue du faubourg du temple"/>
  </way>
  <way id="10812562" version="4" timestamp="2010-02-15T06:57:31Z" uid="74617" user="JohnSmith" changeset="3880463">
    <nd ref="84352384"/>
    <nd ref="96100865"/>
    <nd ref="96100866"/>
    <nd ref="96100867"/>
    <nd ref="96100868"/>
    <nd ref="96100869"/>
    <nd ref="96100870"/>
    <tag k="highway" v="secondary"/>
    <tag k="name" v="Learoyd Road"/>
    <tag k="oneway" v="yes"/>
  </way>
  <way id="10812646" version="3" timestamp="2010-02-15T06:58:36Z" uid="74617" user="JohnSmith" changeset="3880463">
    <nd ref="96100870"/>
    <nd ref="96101253"/>
    <nd ref="96101254"/>
    <nd ref="96101256"/>
    <nd ref="96101257"/>
    <nd ref="96101258"/>
    <nd ref="96101259"/>
    <nd ref="96101261"/>
    <nd ref="96101262"/>
    <nd ref="96101263"/>
    <nd ref="96101264"/>
    <nd ref="96101266"/>
    <nd ref="96100870"/>
    <tag k="highway" v="secondary"/>
    <tag k="junction" v="roundabout"/>
    <tag k="name" v="Learoyd Road"/>
  </way>
  <way id="10812727" version="4" timestamp="2010-02-15T06:57:31Z" uid="74617" user="JohnSmith" changeset="3880463">
    <nd ref="96101263"/>
    <nd ref="96101681"/>
    <nd ref="96101682"/>
    <nd ref="96101683"/>
    <nd ref="96101684"/>
    <nd ref="84352384"/>
    <tag k="highway" v="secondary"/>
    <tag k="name" v="Learoyd Road"/>
    <tag k="oneway" v="yes"/>
  </way>
  <way id="10812879" version="4" timestamp="2010-02-15T06:58:36Z" uid="74617" user="JohnSmith" changeset="3880463">
    <nd ref="96100870"/>
    <nd ref="96102530"/>
    <nd ref="96102531"/>
    <nd ref="96102532"/>
    <tag k="highway" v="tertiary"/>
    <tag k="name" v="Watson Road"/>
    <tag k="oneway" v="yes"/>
  </way>
  <way id="10812880" version="3" timestamp="2010-02-15T06:58:36Z" uid="74617" user="JohnSmith" changeset="3880463">
    <nd ref="96102532"/>
    <nd ref="96102584"/>
    <nd ref="96102585"/>
    <nd ref="96101256"/>
    <tag k="highway" v="tertiary"/>
    <tag k="name" v="Watson Road"/>
    <tag k="oneway" v="yes"/>
  </way>
</osm>
