<?xml version='1.0' encoding='UTF-8'?>
<osm version="0.6" generator="libosmium/2.20.0">
  <way id="10816308" version="3" timestamp="2007-11-17T18:48:50Z" uid="8328" user="benpre" changeset="545740">
    <nd ref="96136839"/>
    <nd ref="96137424"/>
    <nd ref="96137709"/>
    <nd ref="96137425"/>
    <nd ref="96137426"/>
    <nd ref="96137428"/>
    <tag k="created_by" v="Potlatch 0.4c"/>
  </way>
  <way id="10816409" version="15" timestamp="2009-09-30T14:00:08Z" uid="36809" user="pfoten_weg_!_" changeset="2688655">
    <nd ref="128367"/>
    <nd ref="96138309"/>
    <nd ref="361202835"/>
    <nd ref="266836815"/>
    <nd ref="266836754"/>
    <nd ref="96138312"/>
    <tag k="highway" v="unclassified"/>
    <tag k="maxspeed" v="30"/>
    <tag k="maxweight" v="3.5"/>
    <tag k="name" v="Lusstraße"/>
  </way>
  <way id="10816410" version="8" timestamp="2009-09-30T14:00:10Z" uid="36809" user="pfoten_weg_!_" changeset="2688655">
    <nd ref="128388"/>
    <nd ref="291924078"/>
    <nd ref="370687491"/>
    <nd ref="142645725"/>
    <nd ref="96138318"/>
    <nd ref="96138319"/>
    <nd ref="96138323"/>
    <tag k="highway" v="residential"/>
    <tag k="name" v="Kirchenstraße"/>
  </way>
  <way id="10816412" version="2" timestamp="2009-09-30T14:00:04Z" uid="36809" user="pfoten_weg_!_" changeset="2688655">
    <nd ref="96138339"/>
    <nd ref="96138341"/>
    <tag k="bridge" v="yes"/>
    <tag k="layer" v="1"/>
    <tag k="railway" v="rail"/>
  </way>
  <way id="10816413" version="5" timestamp="2009-09-30T13:59:59Z" uid="36809" user="pfoten_weg_!_" changeset="2688655">
    <nd ref="96138341"/>
    <nd ref="48919174"/>
    <tag k="railway" v="rail"/>
  </way>
  <way id="10816414" version="10" timestamp="2009-09-30T14:00:06Z" uid="36809" user="pfoten_weg_!_" changeset="2688655">
    <nd ref="96138346"/>
    <nd ref="339338598"/>
    <tag k="highway" v="residential"/>
    <tag k="layer" v="-1"/>
    <tag k="maxheight" v="3.7"/>
    <tag k="name" v="Bahnhofstraße"/>
    <tag k="tunnel" v="yes"/>
  </way>
  <way id="10816415" version="8" timestamp="2009-09-30T14:00:05Z" uid="36809" user="pfoten_weg_!_" changeset="2688655">
    <nd ref="96138351"/>
    <nd ref="59932101"/>
    <nd ref="361206421"/>
    <nd ref="339338558"/>
    <tag k="highway" v="unclassified"/>
    <tag k="name" v="Alte Brucker Straße"/>
  </way>
  <way id="10816417" version="3" timestamp="2009-09-30T14:00:28Z" uid="36809" user="pfoten_weg_!_" changeset="2688655">
    <nd ref="96138354"/>
    <nd ref="221630893"/>
    <nd ref="96138351"/>
    <tag k="highway" v="residential"/>
    <tag k="name" v="Moserstraße"/>
  </way>
  <way id="10816419" version="2" timestamp="2009-09-30T14:00:25Z" uid="36809" user="pfoten_weg_!_" changeset="2688655">
    <nd ref="96138358"/>
    <nd ref="96138362"/>
    <nd ref="96138354"/>
    <tag k="highway" v="residential"/>
    <tag k="name" v="Kellerstraße"/>
  </way>
</osm>
