<?xml version='1.0' encoding='UTF-8'?>
<osm version="0.6" generator="libosmium/2.20.0">
  <way id="108254318" version="1" timestamp="2011-04-12T19:34:19Z" uid="9581" user="Lobelt" changeset="7845953">
    <nd ref="205018745"/>
    <nd ref="205018753"/>
    <nd ref="205018759"/>
    <nd ref="205089814"/>
    <nd ref="281280058"/>
    <tag k="highway" v="secondary"/>
    <tag k="maxspeed" v="50"/>
    <tag k="name" v="Rudolstädter Straße"/>
    <tag k="ref" v="L 1048"/>
  </way>
  <way id="108254319" version="1" timestamp="2011-04-12T19:34:19Z" uid="9581" user="Lobelt" changeset="7845953">
    <nd ref="1242362211"/>
    <nd ref="205089813"/>
    <nd ref="85841305"/>
    <tag k="highway" v="secondary"/>
    <tag k="maxspeed" v="30"/>
    <tag k="ref" v="L 1048"/>
  </way>
  <way id="108254320" version="1" timestamp="2011-04-12T19:34:19Z" uid="9581" user="Lobelt" changeset="7845953">
    <nd ref="1242362230"/>
    <nd ref="1242362233"/>
    <nd ref="1242362209"/>
    <nd ref="1242362226"/>
    <nd ref="1242362205"/>
    <nd ref="1242362230"/>
    <tag k="landuse" v="cemetery"/>
  </way>
  <way id="108254321" version="1" timestamp="2011-04-12T19:34:20Z" uid="9581" user="Lobelt" changeset="7845953">
    <nd ref="85841295"/>
    <nd ref="1242362231"/>
    <tag k="highway" v="secondary"/>
    <tag k="incline" v="-15%"/>
    <tag k="maxspeed" v="50"/>
    <tag k="ref" v="L 1048"/>
  </way>
  <way id="108254322" version="1" timestamp="2011-04-12T19:34:20Z" uid="9581" user="Lobelt" changeset="7845953">
    <nd ref="1242362221"/>
    <nd ref="1242362210"/>
    <nd ref="85841295"/>
    <tag k="highway" v="secondary"/>
    <tag k="maxspeed:forward" v="50"/>
    <tag k="ref" v="L 1048"/>
  </way>
  <way id="108254323" version="1" timestamp="2011-04-12T19:34:20Z" uid="9581" user="Lobelt" changeset="7845953">
    <nd ref="1242362222"/>
    <nd ref="85841270"/>
    <nd ref="152186250"/>
    <nd ref="85841271"/>
    <nd ref="85841272"/>
    <nd ref="85841273"/>
    <nd ref="296654123"/>
    <nd ref="85841274"/>
    <nd ref="1242362207"/>
    <nd ref="85841275"/>
    <nd ref="954518751"/>
    <tag k="highway" v="secondary"/>
    <tag k="maxspeed" v="100"/>
    <tag k="ref" v="L 1048"/>
  </way>
  <way id="108254324" version="1" timestamp="2011-04-12T19:34:20Z" uid="9581" user="Lobelt" changeset="7845953">
    <nd ref="85841268"/>
    <nd ref="85841269"/>
    <nd ref="296567967"/>
    <tag k="highway" v="secondary"/>
    <tag k="maxspeed" v="70"/>
    <tag k="ref" v="L 1048"/>
  </way>
</osm>
