<?xml version='1.0' encoding='UTF-8'?>
<osm version="0.6" generator="libosmium/2.20.0">
  <way id="108395143" version="1" timestamp="2011-04-13T23:49:07Z" uid="6269" user="Mueck" changeset="7856666">
    <nd ref="1243889110"/>
    <nd ref="1243889115"/>
    <nd ref="1243889113"/>
    <nd ref="1243889112"/>
    <nd ref="1243889111"/>
    <nd ref="1243889114"/>
    <nd ref="1243889110"/>
    <tag k="addr:city" v="Karlsruhe"/>
    <tag k="addr:country" v="DE"/>
    <tag k="addr:housename" v="Gotenhaus"/>
    <tag k="addr:housenumber" v="13"/>
    <tag k="addr:postcode" v="76131"/>
    <tag k="addr:street" v="Durlacher Allee"/>
    <tag k="amenity" v="fraternity"/>
    <tag k="building" v="yes"/>
    <tag k="building:use" v="dormitory"/>
    <tag k="name" v="T! Gotia-Zaringia"/>
    <tag k="verbindung:art" v="Turnerschaft"/>
    <tag k="verbindung:couleur" v="farbentragend"/>
    <tag k="verbindung:farben" v="rot-weiß-blau + orange-weiß-grün"/>
    <tag k="verbindung:fechten" v="pflichtschlagend"/>
    <tag k="verbindung:konfession" v="nein"/>
    <tag k="verbindung:mitglieder" v="männlich"/>
    <tag k="verbindung:tramizu" v="t_gotia-zaringia_karlsruhe.html"/>
    <tag k="verbindung:typ" v="akademisch"/>
    <tag k="verbindung:verband" v="CC"/>
    <tag k="website" v="http://www.gotia-zaringia.de/"/>
  </way>
  <way id="108395143" version="2" timestamp="2011-04-14T00:02:27Z" uid="6269" user="Mueck" changeset="7856666">
    <nd ref="1243889110"/>
    <nd ref="1243889115"/>
    <nd ref="1243889113"/>
    <nd ref="1243889112"/>
    <nd ref="1243889111"/>
    <nd ref="1243889114"/>
    <nd ref="1243889110"/>
    <tag k="addr:city" v="Karlsruhe"/>
    <tag k="addr:country" v="DE"/>
    <tag k="addr:housenumber" v="13"/>
    <tag k="addr:postcode" v="76131"/>
    <tag k="addr:street" v="Durlacher Allee"/>
    <tag k="amenity" v="fraternity"/>
    <tag k="building" v="yes"/>
    <tag k="building:use" v="dormitory"/>
    <tag k="name" v="T! Gotia-Zaringia"/>
    <tag k="verbindung:art" v="Turnerschaft"/>
    <tag k="verbindung:couleur" v="farbentragend"/>
    <tag k="verbindung:farben" v="rot-weiß-blau + orange-weiß-grün"/>
    <tag k="verbindung:fechten" v="pflichtschlagend"/>
    <tag k="verbindung:konfession" v="nein"/>
    <tag k="verbindung:mitglieder" v="männlich"/>
    <tag k="verbindung:tramizu" v="t_gotia-zaringia_karlsruhe.html"/>
    <tag k="verbindung:typ" v="akademisch"/>
    <tag k="verbindung:verband" v="CC"/>
    <tag k="website" v="http://www.gotia-zaringia.de/"/>
  </way>
  <way id="108395143" version="3" timestamp="2011-04-14T00:45:33Z" uid="6269" user="Mueck" changeset="7856666">
    <nd ref="1243889110"/>
    <nd ref="1243889115"/>
    <nd ref="1243889113"/>
    <nd ref="1243889112"/>
    <nd ref="1243889111"/>
    <nd ref="1243889114"/>
    <nd ref="1243889110"/>
    <tag k="addr:city" v="Karlsruhe"/>
    <tag k="addr:country" v="DE"/>
    <tag k="addr:housenumber" v="13"/>
    <tag k="addr:postcode" v="76131"/>
    <tag k="addr:street" v="Durlacher Allee"/>
    <tag k="amenity" v="fraternity"/>
    <tag k="building" v="yes"/>
    <tag k="building:use" v="dormitory"/>
    <tag k="name" v="T! Gotia-Zaringia"/>
    <tag k="official_name" v="Turnerschaft Gotia-Zaringia im CC Karlsruhe"/>
    <tag k="verbindung:art" v="Turnerschaft"/>
    <tag k="verbindung:couleur" v="farbentragend"/>
    <tag k="verbindung:farben" v="rot-weiß-blau + orange-weiß-grün"/>
    <tag k="verbindung:fechten" v="pflichtschlagend"/>
    <tag k="verbindung:konfession" v="nein"/>
    <tag k="verbindung:mitglieder" v="männlich"/>
    <tag k="verbindung:tramizu" v="t_gotia-zaringia_karlsruhe.html"/>
    <tag k="verbindung:typ" v="akademisch"/>
    <tag k="verbindung:verband" v="CC"/>
    <tag k="website" v="http://www.gotia-zaringia.de/"/>
  </way>
  <way id="108395143" version="4" timestamp="2011-04-14T20:52:25Z" uid="6269" user="Mueck" changeset="7865008">
    <nd ref="1243889110"/>
    <nd ref="1243889115"/>
    <nd ref="1243889113"/>
    <nd ref="1243889112"/>
    <nd ref="1243889111"/>
    <nd ref="1243889114"/>
    <nd ref="1243889110"/>
    <tag k="addr:city" v="Karlsruhe"/>
    <tag k="addr:country" v="DE"/>
    <tag k="addr:housenumber" v="13"/>
    <tag k="addr:postcode" v="76131"/>
    <tag k="addr:street" v="Durlacher Allee"/>
    <tag k="amenity" v="fraternity"/>
    <tag k="building" v="yes"/>
    <tag k="building:use" v="dormitory"/>
    <tag k="name" v="T! Gotia-Zaringia"/>
    <tag k="official_name" v="Turnerschaft Gotia-Zaringia im CC Karlsruhe"/>
    <tag k="verbindung" v="haus"/>
    <tag k="verbindung:art" v="Turnerschaft"/>
    <tag k="verbindung:couleur" v="farbentragend"/>
    <tag k="verbindung:farben" v="rot-weiß-blau + orange-weiß-grün"/>
    <tag k="verbindung:fechten" v="pflichtschlagend"/>
    <tag k="verbindung:konfession" v="nein"/>
    <tag k="verbindung:mitglieder" v="männlich"/>
    <tag k="verbindung:tramizu" v="t_gotia-zaringia_karlsruhe.html"/>
    <tag k="verbindung:typ" v="akademisch"/>
    <tag k="verbindung:verband" v="CC"/>
    <tag k="website" v="http://www.gotia-zaringia.de/"/>
  </way>
  <way id="108395160" version="1" timestamp="2011-04-13T23:51:28Z" uid="66036" user="h4v" changeset="7856972">
    <nd ref="1243889622"/>
    <nd ref="1243889623"/>
    <tag k="addr:inclusion" v="potential"/>
    <tag k="addr:interpolation" v="odd"/>
  </way>
  <way id="108395161" version="1" timestamp="2011-04-13T23:51:28Z" uid="66036" user="h4v" changeset="7856972">
    <nd ref="1243889624"/>
    <nd ref="1243889627"/>
    <tag k="addr:inclusion" v="potential"/>
    <tag k="addr:interpolation" v="even"/>
  </way>
  <way id="108395162" version="1" timestamp="2011-04-13T23:51:29Z" uid="66036" user="h4v" changeset="7856972">
    <nd ref="1243889626"/>
    <nd ref="1243889629"/>
    <tag k="addr:inclusion" v="estimate"/>
    <tag k="addr:interpolation" v="odd"/>
    <tag k="source:wiki" v="wikipedia"/>
  </way>
  <way id="108395163" version="1" timestamp="2011-04-13T23:51:29Z" uid="66036" user="h4v" changeset="7856972">
    <nd ref="305651747"/>
    <nd ref="297915415"/>
    <nd ref="305651327"/>
    <nd ref="297915412"/>
    <tag k="highway" v="unclassified"/>
    <tag k="name" v="Nawrot"/>
    <tag k="source:oneway" v="wikipedia"/>
    <tag k="wikipedia" v="pl:Ulica_Nawrot_w_Łodzi"/>
  </way>
  <way id="108395164" version="1" timestamp="2011-04-13T23:51:29Z" uid="66036" user="h4v" changeset="7856972">
    <nd ref="1243889625"/>
    <nd ref="1243889628"/>
    <tag k="addr:inclusion" v="estimate"/>
    <tag k="addr:interpolation" v="even"/>
    <tag k="source:wiki" v="wikipedia"/>
  </way>
</osm>
