<?xml version='1.0' encoding='UTF-8'?>
<osm version="0.6" generator="libosmium/2.20.0">
  <way id="108328591" version="1" timestamp="2011-04-13T11:51:07Z" uid="66036" user="h4v" changeset="7851052">
    <nd ref="1243143173"/>
    <nd ref="1243143138"/>
    <tag k="addr:inclusion" v="potential"/>
    <tag k="addr:interpolation" v="even"/>
    <tag k="source:addr" v="wikipedia"/>
  </way>
  <way id="108328592" version="1" timestamp="2011-04-13T11:51:07Z" uid="66036" user="h4v" changeset="7851052">
    <nd ref="1243143158"/>
    <nd ref="1243143169"/>
    <tag k="addr:inclusion" v="potential"/>
    <tag k="addr:interpolation" v="odd"/>
    <tag k="source:addr" v="wikipedia"/>
  </way>
  <way id="108328592" version="2" timestamp="2011-06-17T20:50:33Z" uid="66036" user="h4v" changeset="8468449"/>
  <way id="108328593" version="1" timestamp="2011-04-13T11:51:07Z" uid="66036" user="h4v" changeset="7851052">
    <nd ref="1166434448"/>
    <nd ref="1243143127"/>
    <tag k="fixme" v="check"/>
    <tag k="highway" v="road"/>
    <tag k="name" v="Hotelowa"/>
    <tag k="source:addr" v="wikipedia"/>
  </way>
  <way id="108328593" version="2" timestamp="2011-06-12T18:40:47Z" uid="66036" user="h4v" changeset="8418318">
    <nd ref="1166434448"/>
    <nd ref="1243143127"/>
    <tag k="fixme" v="check"/>
    <tag k="highway" v="road"/>
    <tag k="name" v="Hotelowa"/>
  </way>
  <way id="108328593" version="3" timestamp="2011-06-17T20:50:30Z" uid="66036" user="h4v" changeset="8468449">
    <nd ref="1166434448"/>
    <nd ref="1328918877"/>
    <nd ref="1328918873"/>
    <nd ref="1328918767"/>
    <nd ref="1243143127"/>
    <tag k="fixme" v="check"/>
    <tag k="highway" v="residential"/>
    <tag k="name" v="Hotelowa"/>
  </way>
  <way id="108328594" version="1" timestamp="2011-04-13T11:51:08Z" uid="66036" user="h4v" changeset="7851052">
    <nd ref="1243143167"/>
    <nd ref="1243143121"/>
    <tag k="addr:inclusion" v="potential"/>
    <tag k="addr:interpolation" v="even"/>
    <tag k="source:addr" v="wikipedia"/>
  </way>
  <way id="108328595" version="1" timestamp="2011-04-13T11:51:08Z" uid="66036" user="h4v" changeset="7851052">
    <nd ref="1243143166"/>
    <nd ref="1243143120"/>
    <tag k="addr:inclusion" v="actual"/>
    <tag k="addr:interpolation" v="odd"/>
    <tag k="source:addr" v="wikipedia"/>
  </way>
  <way id="108328595" version="2" timestamp="2011-06-17T20:50:33Z" uid="66036" user="h4v" changeset="8468449"/>
  <way id="108328596" version="1" timestamp="2011-04-13T11:51:08Z" uid="66036" user="h4v" changeset="7851052">
    <nd ref="1243143149"/>
    <nd ref="1243143128"/>
    <nd ref="1243143168"/>
    <nd ref="1243143148"/>
    <nd ref="1243143177"/>
    <nd ref="1243143159"/>
    <nd ref="1243143149"/>
    <tag k="addr:housenumber" v="17"/>
    <tag k="building" v="yes"/>
    <tag k="source:addr" v="wikipedia"/>
  </way>
  <way id="108328596" version="2" timestamp="2011-06-14T08:19:32Z" uid="66036" user="h4v" changeset="8434685">
    <nd ref="1243143149"/>
    <nd ref="1243143128"/>
    <nd ref="1243143168"/>
    <nd ref="1243143148"/>
    <nd ref="1243143177"/>
    <nd ref="1243143159"/>
    <nd ref="1243143149"/>
    <tag k="addr:housenumber" v="17"/>
    <tag k="building" v="yes"/>
    <tag k="heritage" v="2"/>
    <tag k="heritage:operator" v="nid"/>
    <tag k="historic" v="heritage"/>
    <tag k="ref:nid" v="A/354"/>
    <tag k="source:addr" v="wikipedia"/>
  </way>
  <way id="108328597" version="1" timestamp="2011-04-13T11:51:08Z" uid="66036" user="h4v" changeset="7851052">
    <nd ref="1243143156"/>
    <nd ref="1242615616"/>
    <tag k="addr:inclusion" v="potential"/>
    <tag k="addr:interpolation" v="even"/>
    <tag k="source" v="wikipedia"/>
    <tag k="source:addr" v="wikipedia"/>
  </way>
  <way id="108328598" version="1" timestamp="2011-04-13T11:51:08Z" uid="66036" user="h4v" changeset="7851052">
    <nd ref="1243143179"/>
    <nd ref="1243143144"/>
    <tag k="addr:inclusion" v="potential"/>
    <tag k="addr:interpolation" v="even"/>
    <tag k="source:addr" v="wikipedia"/>
  </way>
  <way id="108328599" version="1" timestamp="2011-04-13T11:51:09Z" uid="66036" user="h4v" changeset="7851052">
    <nd ref="1243143175"/>
    <nd ref="1243143126"/>
    <tag k="addr:inclusion" v="potential"/>
    <tag k="addr:interpolation" v="even"/>
    <tag k="source:addr" v="wikipedia"/>
  </way>
  <way id="108328600" version="1" timestamp="2011-04-13T11:51:09Z" uid="66036" user="h4v" changeset="7851052">
    <nd ref="1243143153"/>
    <nd ref="1243143165"/>
    <tag k="addr:inclusion" v="potential"/>
    <tag k="addr:interpolation" v="odd"/>
    <tag k="source:addr" v="wikipedia"/>
  </way>
  <way id="108328601" version="1" timestamp="2011-04-13T11:51:09Z" uid="66036" user="h4v" changeset="7851052">
    <nd ref="1243143171"/>
    <nd ref="1243143118"/>
    <tag k="addr:inclusion" v="potential"/>
    <tag k="addr:interpolation" v="even"/>
    <tag k="source:addr" v="wikipedia"/>
  </way>
  <way id="108328601" version="2" timestamp="2011-04-16T10:29:51Z" uid="66036" user="h4v" changeset="7877061">
    <nd ref="1243143171"/>
    <nd ref="1246713526"/>
    <tag k="addr:inclusion" v="potential"/>
    <tag k="addr:interpolation" v="even"/>
    <tag k="source:addr" v="wikipedia"/>
    <tag k="source:name" v="wikipedia"/>
  </way>
  <way id="108328602" version="1" timestamp="2011-04-13T11:51:09Z" uid="66036" user="h4v" changeset="7851052">
    <nd ref="1243143181"/>
    <nd ref="1243143137"/>
    <tag k="addr:inclusion" v="potential"/>
    <tag k="addr:interpolation" v="odd"/>
    <tag k="source:addr" v="wikipedia"/>
  </way>
</osm>
