<?xml version='1.0' encoding='UTF-8'?>
<osm version="0.6" generator="libosmium/2.20.0">
  <way id="10836170" version="5" timestamp="2010-07-08T00:00:26Z" uid="74617" user="JohnSmith" changeset="5162525">
    <nd ref="97266544"/>
    <nd ref="96275402"/>
    <nd ref="96274677"/>
    <tag k="highway" v="residential"/>
    <tag k="maxspeed" v="50"/>
    <tag k="maxspeed:source" v="default residential speed limit in Australia"/>
    <tag k="name" v="Lawson Parade"/>
  </way>
  <way id="10836170" version="6" timestamp="2010-07-08T00:10:25Z" uid="74617" user="JohnSmith" changeset="5162525">
    <nd ref="97266544"/>
    <nd ref="96275402"/>
    <nd ref="96274677"/>
    <tag k="highway" v="residential"/>
    <tag k="maxspeed" v="50"/>
    <tag k="maxspeed:source" v="default residential speed limit in Australia"/>
    <tag k="name" v="Lawson Parade"/>
  </way>
  <way id="10836188" version="2" timestamp="2009-11-09T08:54:16Z" uid="4467" user="Rosscoe" changeset="3071495">
    <nd ref="50416804"/>
    <nd ref="96274797"/>
    <nd ref="96271869"/>
    <tag k="highway" v="residential"/>
    <tag k="name" v="Chesterman Street"/>
  </way>
  <way id="10836188" version="3" timestamp="2010-07-09T05:30:18Z" uid="74617" user="JohnSmith" changeset="5170972">
    <nd ref="50416804"/>
    <nd ref="96274797"/>
    <nd ref="96271869"/>
    <tag k="highway" v="residential"/>
    <tag k="maxspeed" v="50"/>
    <tag k="maxspeed:source" v="default residential speed limit in Australia"/>
    <tag k="name" v="Chesterman Street"/>
  </way>
  <way id="10836188" version="4" timestamp="2010-07-09T05:37:53Z" uid="74617" user="JohnSmith" changeset="5170972">
    <nd ref="50416804"/>
    <nd ref="96274797"/>
    <nd ref="96271869"/>
    <tag k="highway" v="residential"/>
    <tag k="maxspeed" v="50"/>
    <tag k="maxspeed:source" v="default residential speed limit in Australia"/>
    <tag k="name" v="Chesterman Street"/>
  </way>
  <way id="10836269" version="3" timestamp="2010-02-14T17:10:53Z" uid="74617" user="JohnSmith" changeset="3875836">
    <nd ref="96275165"/>
    <nd ref="96275174"/>
    <nd ref="310387957"/>
    <tag k="highway" v="service"/>
    <tag k="maxspeed" v="50"/>
    <tag k="name" v="Beatrice Lane"/>
  </way>
  <way id="10836274" version="4" timestamp="2010-02-14T17:10:54Z" uid="74617" user="JohnSmith" changeset="3875836">
    <nd ref="96275194"/>
    <nd ref="96275203"/>
    <tag k="access" v="permissive"/>
    <tag k="highway" v="service"/>
    <tag k="maxspeed" v="50"/>
  </way>
  <way id="10836285" version="13" timestamp="2010-02-14T17:10:54Z" uid="74617" user="JohnSmith" changeset="3875836">
    <nd ref="95745457"/>
    <nd ref="559844416"/>
    <nd ref="559844418"/>
    <nd ref="559844417"/>
    <nd ref="288372469"/>
    <nd ref="559845854"/>
    <nd ref="559844344"/>
    <nd ref="559844339"/>
    <nd ref="559844340"/>
    <nd ref="559844318"/>
    <nd ref="559844319"/>
    <tag k="access" v="no"/>
    <tag k="highway" v="unclassified"/>
    <tag k="maxspeed" v="50"/>
    <tag k="name" v="North Quay"/>
    <tag k="oneway" v="yes"/>
    <tag k="psv" v="yes"/>
  </way>
  <way id="10836312" version="6" timestamp="2010-02-18T08:13:21Z" uid="7617" user="Franc" changeset="3906977">
    <nd ref="96275402"/>
    <nd ref="644590263"/>
    <tag k="highway" v="service"/>
    <tag k="source" v="nearmap"/>
  </way>
  <way id="10836933" version="4" timestamp="2010-07-08T00:02:37Z" uid="74617" user="JohnSmith" changeset="5162525">
    <nd ref="96269606"/>
    <nd ref="96280144"/>
    <nd ref="96280145"/>
    <nd ref="96280146"/>
    <nd ref="96280148"/>
    <nd ref="598349352"/>
    <nd ref="598349353"/>
    <nd ref="598349354"/>
    <nd ref="598349348"/>
    <tag k="highway" v="residential"/>
    <tag k="maxspeed" v="50"/>
    <tag k="maxspeed:source" v="default residential speed limit in Australia"/>
    <tag k="name" v="College Crescent"/>
  </way>
  <way id="10836933" version="5" timestamp="2010-07-08T00:12:51Z" uid="74617" user="JohnSmith" changeset="5162525">
    <nd ref="96269606"/>
    <nd ref="96280144"/>
    <nd ref="96280145"/>
    <nd ref="96280146"/>
    <nd ref="96280148"/>
    <nd ref="598349352"/>
    <nd ref="598349353"/>
    <nd ref="598349354"/>
    <nd ref="598349348"/>
    <tag k="highway" v="residential"/>
    <tag k="maxspeed" v="50"/>
    <tag k="maxspeed:source" v="default residential speed limit in Australia"/>
    <tag k="name" v="College Crescent"/>
  </way>
</osm>
