<?xml version='1.0' encoding='UTF-8'?>
<osm version="0.6" generator="libosmium/2.20.0">
  <way id="10837019" version="4" timestamp="2010-07-08T00:01:56Z" uid="74617" user="JohnSmith" changeset="5162525">
    <nd ref="166122390"/>
    <nd ref="96280800"/>
    <tag k="highway" v="residential"/>
    <tag k="maxspeed" v="50"/>
    <tag k="maxspeed:source" v="default residential speed limit in Australia"/>
    <tag k="name" v="Dainton Avenue"/>
  </way>
  <way id="10837019" version="5" timestamp="2010-07-08T00:12:07Z" uid="74617" user="JohnSmith" changeset="5162525">
    <nd ref="166122390"/>
    <nd ref="96280800"/>
    <tag k="highway" v="residential"/>
    <tag k="maxspeed" v="50"/>
    <tag k="maxspeed:source" v="default residential speed limit in Australia"/>
    <tag k="name" v="Dainton Avenue"/>
  </way>
  <way id="10837112" version="8" timestamp="2010-07-08T00:01:20Z" uid="74617" user="JohnSmith" changeset="5162525">
    <nd ref="96281418"/>
    <nd ref="96281419"/>
    <nd ref="598349228"/>
    <nd ref="96281420"/>
    <nd ref="96280800"/>
    <nd ref="96281421"/>
    <nd ref="96289427"/>
    <nd ref="96281422"/>
    <nd ref="96284550"/>
    <nd ref="96281423"/>
    <tag k="highway" v="residential"/>
    <tag k="maxspeed" v="50"/>
    <tag k="maxspeed:source" v="default residential speed limit in Australia"/>
    <tag k="name" v="Flinders Avenue"/>
  </way>
  <way id="10837112" version="9" timestamp="2010-07-08T00:11:27Z" uid="74617" user="JohnSmith" changeset="5162525">
    <nd ref="96281418"/>
    <nd ref="96281419"/>
    <nd ref="598349228"/>
    <nd ref="96281420"/>
    <nd ref="96280800"/>
    <nd ref="96281421"/>
    <nd ref="96289427"/>
    <nd ref="96281422"/>
    <nd ref="96284550"/>
    <nd ref="96281423"/>
    <tag k="highway" v="residential"/>
    <tag k="maxspeed" v="50"/>
    <tag k="maxspeed:source" v="default residential speed limit in Australia"/>
    <tag k="name" v="Flinders Avenue"/>
  </way>
  <way id="10837336" version="3" timestamp="2010-07-08T00:01:10Z" uid="74617" user="JohnSmith" changeset="5162525">
    <nd ref="96282413"/>
    <nd ref="96283354"/>
    <nd ref="96282900"/>
    <tag k="highway" v="residential"/>
    <tag k="maxspeed" v="50"/>
    <tag k="maxspeed:source" v="default residential speed limit in Australia"/>
    <tag k="name" v="Flinders Avenue"/>
  </way>
  <way id="10837336" version="4" timestamp="2010-07-08T00:11:15Z" uid="74617" user="JohnSmith" changeset="5162525">
    <nd ref="96282413"/>
    <nd ref="96283354"/>
    <nd ref="96282900"/>
    <tag k="highway" v="residential"/>
    <tag k="maxspeed" v="50"/>
    <tag k="maxspeed:source" v="default residential speed limit in Australia"/>
    <tag k="name" v="Flinders Avenue"/>
  </way>
  <way id="10837538" version="3" timestamp="2010-07-08T00:02:29Z" uid="74617" user="JohnSmith" changeset="5162525">
    <nd ref="96283354"/>
    <nd ref="96284319"/>
    <tag k="highway" v="residential"/>
    <tag k="maxspeed" v="50"/>
    <tag k="maxspeed:source" v="default residential speed limit in Australia"/>
    <tag k="name" v="Oak Hill Close"/>
  </way>
  <way id="10837538" version="4" timestamp="2010-07-08T00:12:42Z" uid="74617" user="JohnSmith" changeset="5162525">
    <nd ref="96283354"/>
    <nd ref="96284319"/>
    <tag k="highway" v="residential"/>
    <tag k="maxspeed" v="50"/>
    <tag k="maxspeed:source" v="default residential speed limit in Australia"/>
    <tag k="name" v="Oak Hill Close"/>
  </way>
  <way id="10837568" version="3" timestamp="2010-07-08T00:00:28Z" uid="74617" user="JohnSmith" changeset="5162525">
    <nd ref="96284354"/>
    <nd ref="96284550"/>
    <tag k="highway" v="residential"/>
    <tag k="maxspeed" v="50"/>
    <tag k="maxspeed:source" v="default residential speed limit in Australia"/>
    <tag k="name" v="Lucia Avenue"/>
  </way>
  <way id="10837568" version="4" timestamp="2010-07-08T00:10:28Z" uid="74617" user="JohnSmith" changeset="5162525">
    <nd ref="96284354"/>
    <nd ref="96284550"/>
    <tag k="highway" v="residential"/>
    <tag k="maxspeed" v="50"/>
    <tag k="maxspeed:source" v="default residential speed limit in Australia"/>
    <tag k="name" v="Lucia Avenue"/>
  </way>
  <way id="10837575" version="4" timestamp="2010-07-08T00:03:55Z" uid="74617" user="JohnSmith" changeset="5162525">
    <nd ref="96284550"/>
    <nd ref="96284551"/>
    <tag k="highway" v="residential"/>
    <tag k="maxspeed" v="50"/>
    <tag k="maxspeed:source" v="default residential speed limit in Australia"/>
    <tag k="name" v="Matthew Close"/>
  </way>
  <way id="10837575" version="5" timestamp="2010-07-08T00:14:17Z" uid="74617" user="JohnSmith" changeset="5162525">
    <nd ref="96284550"/>
    <nd ref="96284551"/>
    <tag k="highway" v="residential"/>
    <tag k="maxspeed" v="50"/>
    <tag k="maxspeed:source" v="default residential speed limit in Australia"/>
    <tag k="name" v="Matthew Close"/>
  </way>
  <way id="10837815" version="2" timestamp="2008-08-31T05:08:31Z" uid="61114" user="Trav" changeset="469216">
    <nd ref="96286260"/>
    <nd ref="292445612"/>
    <tag k="abutters" v="commercial"/>
    <tag k="created_by" v="JOSM"/>
    <tag k="highway" v="service"/>
    <tag k="name" v="Clarke Lane"/>
    <tag k="oneway" v="-1"/>
    <tag k="source" v="yahoo_imagery"/>
    <tag k="source:name" v="survey"/>
  </way>
  <way id="10837815" version="3" timestamp="2009-07-31T13:37:50Z" uid="4467" user="Rosscoe" changeset="1994790">
    <nd ref="292445612"/>
    <nd ref="96286260"/>
    <tag k="abutters" v="commercial"/>
    <tag k="highway" v="service"/>
    <tag k="name" v="Clarke Lane"/>
    <tag k="oneway" v="yes"/>
    <tag k="source" v="yahoo_imagery"/>
    <tag k="source:name" v="survey"/>
  </way>
  <way id="10837815" version="4" timestamp="2009-12-04T05:16:32Z" uid="30201" user="rrankin" changeset="3285963">
    <nd ref="292445612"/>
    <nd ref="96286260"/>
    <tag k="highway" v="service"/>
    <tag k="name" v="Clarke Lane"/>
    <tag k="oneway" v="yes"/>
    <tag k="source" v="yahoo_imagery"/>
    <tag k="source:name" v="survey"/>
  </way>
  <way id="10837818" version="4" timestamp="2008-08-31T10:48:58Z" uid="61114" user="Trav" changeset="479734">
    <nd ref="96286288"/>
    <nd ref="96286299"/>
    <nd ref="242403097"/>
    <tag k="abutters" v="commercial"/>
    <tag k="created_by" v="Merkaartor 0.12"/>
    <tag k="highway" v="service"/>
    <tag k="name" v="Pole Lane"/>
    <tag k="oneway" v="-1"/>
    <tag k="source" v="yahoo_imagery"/>
  </way>
  <way id="10837818" version="5" timestamp="2009-07-31T13:37:50Z" uid="4467" user="Rosscoe" changeset="1994790">
    <nd ref="242403097"/>
    <nd ref="96286299"/>
    <nd ref="96286288"/>
    <tag k="abutters" v="commercial"/>
    <tag k="highway" v="service"/>
    <tag k="name" v="Pole Lane"/>
    <tag k="oneway" v="yes"/>
    <tag k="source" v="yahoo_imagery"/>
  </way>
  <way id="10837818" version="6" timestamp="2009-07-31T13:43:01Z" uid="4467" user="Rosscoe" changeset="1994838">
    <nd ref="242403097"/>
    <nd ref="96286299"/>
    <nd ref="292445612"/>
    <tag k="abutters" v="commercial"/>
    <tag k="highway" v="service"/>
    <tag k="name" v="Pole Lane"/>
    <tag k="oneway" v="yes"/>
    <tag k="source" v="yahoo_imagery"/>
  </way>
  <way id="10837818" version="7" timestamp="2010-01-03T06:23:21Z" uid="30201" user="rrankin" changeset="3525492">
    <nd ref="242403097"/>
    <nd ref="96286299"/>
    <nd ref="292445612"/>
    <tag k="highway" v="service"/>
    <tag k="name" v="Pole Lane"/>
    <tag k="oneway" v="yes"/>
    <tag k="source" v="yahoo_imagery"/>
  </way>
  <way id="10837820" version="2" timestamp="2008-08-30T02:14:56Z" uid="61114" user="Trav" changeset="457316">
    <nd ref="96286313"/>
    <nd ref="96286327"/>
    <tag k="abutters" v="commercial"/>
    <tag k="created_by" v="Merkaartor 0.12"/>
    <tag k="highway" v="service"/>
    <tag k="name" v="Albany Lane"/>
    <tag k="source" v="yahoo_imagery"/>
    <tag k="source:name" v="survey"/>
  </way>
  <way id="10837820" version="3" timestamp="2009-12-04T05:16:33Z" uid="30201" user="rrankin" changeset="3285963">
    <nd ref="96286313"/>
    <nd ref="96286327"/>
    <tag k="highway" v="service"/>
    <tag k="name" v="Albany Lane"/>
    <tag k="source" v="yahoo_imagery"/>
    <tag k="source:name" v="survey"/>
  </way>
  <way id="10837820" version="5" timestamp="2009-12-22T06:05:30Z" uid="7617" user="Franc" changeset="3424906">
    <nd ref="589255773"/>
    <nd ref="598053205"/>
    <nd ref="96286327"/>
    <tag k="highway" v="service"/>
    <tag k="name" v="Albany Lane"/>
    <tag k="source" v="nearmap"/>
    <tag k="source:name" v="survey"/>
  </way>
  <way id="10837822" version="2" timestamp="2008-08-30T02:14:55Z" uid="61114" user="Trav" changeset="457316">
    <nd ref="96286327"/>
    <nd ref="96286337"/>
    <tag k="abutters" v="residential"/>
    <tag k="created_by" v="Merkaartor 0.12"/>
    <tag k="highway" v="service"/>
    <tag k="name" v="Albany Lane"/>
    <tag k="source" v="yahoo_imagery"/>
    <tag k="source:name" v="survey"/>
  </way>
  <way id="10837822" version="3" timestamp="2009-12-04T05:16:32Z" uid="30201" user="rrankin" changeset="3285963">
    <nd ref="96286327"/>
    <nd ref="96286337"/>
    <tag k="highway" v="service"/>
    <tag k="name" v="Albany Lane"/>
    <tag k="source" v="yahoo_imagery"/>
    <tag k="source:name" v="survey"/>
  </way>
  <way id="10837824" version="8" timestamp="2008-08-31T05:08:30Z" uid="61114" user="Trav" changeset="469216">
    <nd ref="96286271"/>
    <nd ref="96286377"/>
    <tag k="abutters" v="commercial"/>
    <tag k="created_by" v="Potlatch 0.9c"/>
    <tag k="highway" v="service"/>
    <tag k="name" v="Clarke Lane"/>
    <tag k="oneway" v="-1"/>
    <tag k="source" v="yahoo_imagery"/>
    <tag k="source:name" v="survey"/>
  </way>
  <way id="10837824" version="9" timestamp="2009-07-31T13:37:49Z" uid="4467" user="Rosscoe" changeset="1994790">
    <nd ref="96286377"/>
    <nd ref="96286271"/>
    <tag k="abutters" v="commercial"/>
    <tag k="highway" v="service"/>
    <tag k="name" v="Clarke Lane"/>
    <tag k="oneway" v="yes"/>
    <tag k="source" v="yahoo_imagery"/>
    <tag k="source:name" v="survey"/>
  </way>
  <way id="10837824" version="10" timestamp="2010-01-03T06:23:21Z" uid="30201" user="rrankin" changeset="3525492">
    <nd ref="96286377"/>
    <nd ref="96286271"/>
    <tag k="highway" v="service"/>
    <tag k="name" v="Clarke Lane"/>
    <tag k="oneway" v="yes"/>
    <tag k="source" v="yahoo_imagery"/>
    <tag k="source:name" v="survey"/>
  </way>
</osm>
