<?xml version='1.0' encoding='UTF-8'?>
<osm version="0.6" generator="libosmium/2.20.0">
  <way id="108391303" version="1" timestamp="2011-04-13T22:37:30Z" uid="6269" user="Mueck" changeset="7856666">
    <nd ref="1243862273"/>
    <nd ref="1243862272"/>
    <nd ref="1243862271"/>
    <nd ref="1243862270"/>
    <nd ref="1243862273"/>
    <tag k="addr:city" v="Karlsruhe"/>
    <tag k="addr:country" v="DE"/>
    <tag k="addr:housename" v="L! Suevia i. CC"/>
    <tag k="addr:housenumber" v="19a"/>
    <tag k="addr:postcode" v="76131"/>
    <tag k="addr:street" v="Zirkel"/>
    <tag k="building" v="yes"/>
    <tag k="building:use" v="fraternity"/>
    <tag k="name" v="L! Suevia"/>
    <tag k="website" v="http://www.suevia-ka.de/"/>
  </way>
  <way id="108391303" version="2" timestamp="2011-04-13T23:39:58Z" uid="6269" user="Mueck" changeset="7856666">
    <nd ref="1243862273"/>
    <nd ref="1243862272"/>
    <nd ref="1243862271"/>
    <nd ref="1243862270"/>
    <nd ref="1243862273"/>
    <tag k="addr:city" v="Karlsruhe"/>
    <tag k="addr:country" v="DE"/>
    <tag k="addr:housename" v="Schwabenhaus"/>
    <tag k="addr:housenumber" v="19a"/>
    <tag k="addr:postcode" v="76131"/>
    <tag k="addr:street" v="Zirkel"/>
    <tag k="amenity" v="fraternity"/>
    <tag k="building" v="yes"/>
    <tag k="building:use" v="dormitory"/>
    <tag k="name" v="L! Suevia"/>
    <tag k="verbindung:art" v="Landsmannschaft"/>
    <tag k="verbindung:couleur" v="farbentragend"/>
    <tag k="verbindung:fechten" v="pflichtschlagend"/>
    <tag k="verbindung:konfession" v="nein"/>
    <tag k="verbindung:mitglieder" v="männlich"/>
    <tag k="verbindung:typ" v="akademisch"/>
    <tag k="verbindung:verband" v="CC"/>
    <tag k="website" v="http://www.suevia-ka.de/"/>
  </way>
  <way id="108391303" version="3" timestamp="2011-04-13T23:55:06Z" uid="6269" user="Mueck" changeset="7856666">
    <nd ref="1243862273"/>
    <nd ref="1243862272"/>
    <nd ref="1243862271"/>
    <nd ref="1243862270"/>
    <nd ref="1243862273"/>
    <tag k="addr:city" v="Karlsruhe"/>
    <tag k="addr:country" v="DE"/>
    <tag k="addr:housename" v="Schwabenhaus"/>
    <tag k="addr:housenumber" v="19a"/>
    <tag k="addr:postcode" v="76131"/>
    <tag k="addr:street" v="Zirkel"/>
    <tag k="amenity" v="fraternity"/>
    <tag k="building" v="yes"/>
    <tag k="building:use" v="dormitory"/>
    <tag k="name" v="L! Suevia"/>
    <tag k="verbindung:art" v="Landsmannschaft"/>
    <tag k="verbindung:couleur" v="farbentragend"/>
    <tag k="verbindung:farben" v="blau-weiß-orange"/>
    <tag k="verbindung:fechten" v="pflichtschlagend"/>
    <tag k="verbindung:konfession" v="nein"/>
    <tag k="verbindung:mitglieder" v="männlich"/>
    <tag k="verbindung:tramizu" v="l_suevia_karlsruhe.html"/>
    <tag k="verbindung:typ" v="akademisch"/>
    <tag k="verbindung:verband" v="CC"/>
    <tag k="website" v="http://www.suevia-ka.de/"/>
  </way>
  <way id="108391303" version="4" timestamp="2011-04-14T00:56:53Z" uid="6269" user="Mueck" changeset="7857104">
    <nd ref="1243862273"/>
    <nd ref="1243862272"/>
    <nd ref="1243862271"/>
    <nd ref="1243862270"/>
    <nd ref="1243862273"/>
    <tag k="addr:city" v="Karlsruhe"/>
    <tag k="addr:country" v="DE"/>
    <tag k="addr:housename" v="Schwabenhaus"/>
    <tag k="addr:housenumber" v="19a"/>
    <tag k="addr:postcode" v="76131"/>
    <tag k="addr:street" v="Zirkel"/>
    <tag k="amenity" v="fraternity"/>
    <tag k="building" v="yes"/>
    <tag k="building:use" v="dormitory"/>
    <tag k="name" v="L! Suevia"/>
    <tag k="official_name" v="Landsmannschaft Suevia Karlsruhe"/>
    <tag k="verbindung:art" v="Landsmannschaft"/>
    <tag k="verbindung:couleur" v="farbentragend"/>
    <tag k="verbindung:farben" v="blau-weiß-orange"/>
    <tag k="verbindung:fechten" v="pflichtschlagend"/>
    <tag k="verbindung:konfession" v="nein"/>
    <tag k="verbindung:mitglieder" v="männlich"/>
    <tag k="verbindung:tramizu" v="l_suevia_karlsruhe.html"/>
    <tag k="verbindung:typ" v="akademisch"/>
    <tag k="verbindung:verband" v="CC"/>
    <tag k="website" v="http://www.suevia-ka.de/"/>
  </way>
  <way id="108391303" version="5" timestamp="2011-04-14T20:52:18Z" uid="6269" user="Mueck" changeset="7865008">
    <nd ref="1243862273"/>
    <nd ref="1243862272"/>
    <nd ref="1243862271"/>
    <nd ref="1243862270"/>
    <nd ref="1243862273"/>
    <tag k="addr:city" v="Karlsruhe"/>
    <tag k="addr:country" v="DE"/>
    <tag k="addr:housename" v="Schwabenhaus"/>
    <tag k="addr:housenumber" v="19a"/>
    <tag k="addr:postcode" v="76131"/>
    <tag k="addr:street" v="Zirkel"/>
    <tag k="amenity" v="fraternity"/>
    <tag k="building" v="yes"/>
    <tag k="building:use" v="dormitory"/>
    <tag k="name" v="L! Suevia"/>
    <tag k="official_name" v="Landsmannschaft Suevia Karlsruhe"/>
    <tag k="verbindung" v="haus"/>
    <tag k="verbindung:art" v="Landsmannschaft"/>
    <tag k="verbindung:couleur" v="farbentragend"/>
    <tag k="verbindung:farben" v="blau-weiß-orange"/>
    <tag k="verbindung:fechten" v="pflichtschlagend"/>
    <tag k="verbindung:konfession" v="nein"/>
    <tag k="verbindung:mitglieder" v="männlich"/>
    <tag k="verbindung:tramizu" v="l_suevia_karlsruhe.html"/>
    <tag k="verbindung:typ" v="akademisch"/>
    <tag k="verbindung:verband" v="CC"/>
    <tag k="website" v="http://www.suevia-ka.de/"/>
  </way>
</osm>
