<?xml version='1.0' encoding='UTF-8'?>
<osm version="0.6" generator="libosmium/2.20.0">
  <way id="108437344" version="1" timestamp="2011-04-14T10:55:58Z" uid="4467" user="Rosscoe" changeset="7859667">
    <nd ref="1244232462"/>
    <nd ref="361088408"/>
    <nd ref="701671023"/>
    <nd ref="1244232418"/>
    <tag k="construction" v="residential"/>
    <tag k="highway" v="construction"/>
    <tag k="maxspeed" v="80"/>
    <tag k="name" v="Bentley Road"/>
    <tag k="source" v="survey"/>
  </way>
  <way id="108437345" version="1" timestamp="2011-04-14T10:55:58Z" uid="4467" user="Rosscoe" changeset="7859667">
    <nd ref="1244232419"/>
    <nd ref="1244232456"/>
    <nd ref="1244232426"/>
    <nd ref="1244232452"/>
    <nd ref="1244232440"/>
    <tag k="construction" v="residential"/>
    <tag k="highway" v="construction"/>
  </way>
  <way id="108437346" version="1" timestamp="2011-04-14T10:55:59Z" uid="4467" user="Rosscoe" changeset="7859667">
    <nd ref="1244232452"/>
    <nd ref="1244232434"/>
    <nd ref="1244232458"/>
    <tag k="construction" v="residential"/>
    <tag k="highway" v="construction"/>
  </way>
  <way id="108437347" version="1" timestamp="2011-04-14T10:55:59Z" uid="4467" user="Rosscoe" changeset="7859667">
    <nd ref="1244232442"/>
    <nd ref="1244232438"/>
    <nd ref="361088408"/>
    <tag k="construction" v="residential"/>
    <tag k="highway" v="construction"/>
    <tag k="maxspeed" v="80"/>
    <tag k="name" v="Purdie Road"/>
    <tag k="source" v="yahoo"/>
  </way>
  <way id="108437348" version="1" timestamp="2011-04-14T10:55:59Z" uid="4467" user="Rosscoe" changeset="7859667">
    <nd ref="1244232443"/>
    <nd ref="1244232423"/>
    <nd ref="1244232449"/>
    <nd ref="1244232463"/>
    <nd ref="1244232432"/>
    <nd ref="1244232467"/>
    <nd ref="1244232437"/>
    <nd ref="1244232453"/>
    <nd ref="1244232424"/>
    <nd ref="1244232459"/>
    <nd ref="1244232429"/>
    <nd ref="1244232444"/>
    <nd ref="1244232468"/>
    <nd ref="1244232465"/>
    <nd ref="1244232450"/>
    <nd ref="1244232416"/>
    <nd ref="1244232415"/>
    <tag k="construction" v="residential"/>
    <tag k="highway" v="construction"/>
  </way>
  <way id="108437349" version="1" timestamp="2011-04-14T10:55:59Z" uid="4467" user="Rosscoe" changeset="7859667">
    <nd ref="1244232465"/>
    <nd ref="1244232433"/>
    <nd ref="1244232470"/>
    <nd ref="1244232439"/>
    <nd ref="1244232451"/>
    <nd ref="1244232420"/>
    <nd ref="1244232457"/>
    <nd ref="1244232427"/>
    <nd ref="1244232430"/>
    <nd ref="1244232454"/>
    <nd ref="1244232435"/>
    <nd ref="1244232460"/>
    <nd ref="1244232417"/>
    <nd ref="1244232446"/>
    <nd ref="1244232422"/>
    <tag k="construction" v="residential"/>
    <tag k="highway" v="construction"/>
  </way>
  <way id="108437350" version="1" timestamp="2011-04-14T10:55:59Z" uid="4467" user="Rosscoe" changeset="7859667">
    <nd ref="1244232425"/>
    <nd ref="361870752"/>
    <tag k="construction" v="residential"/>
    <tag k="highway" v="construction"/>
    <tag k="maxspeed" v="80"/>
    <tag k="name" v="Bentley Road"/>
    <tag k="source" v="survey"/>
  </way>
  <way id="108437351" version="1" timestamp="2011-04-14T10:55:59Z" uid="4467" user="Rosscoe" changeset="7859667">
    <nd ref="1244232418"/>
    <nd ref="1244232464"/>
    <nd ref="1244232455"/>
    <nd ref="1244232445"/>
    <nd ref="1244232425"/>
    <nd ref="1244232469"/>
    <nd ref="1244232428"/>
    <nd ref="1244232414"/>
    <nd ref="1244232418"/>
    <tag k="construction" v="residential"/>
    <tag k="highway" v="construction"/>
    <tag k="junction" v="roundabout"/>
    <tag k="maxspeed" v="50"/>
    <tag k="maxspeed:source" v="default residential speed limit in Australia"/>
    <tag k="source" v="nearmap"/>
  </way>
  <way id="108437352" version="1" timestamp="2011-04-14T10:56:00Z" uid="4467" user="Rosscoe" changeset="7859667">
    <nd ref="1199838351"/>
    <nd ref="1244232438"/>
    <tag k="construction" v="residential"/>
    <tag k="highway" v="construction"/>
  </way>
  <way id="108437353" version="1" timestamp="2011-04-14T10:56:00Z" uid="4467" user="Rosscoe" changeset="7859667">
    <nd ref="1199838397"/>
    <nd ref="1244232458"/>
    <nd ref="1244232440"/>
    <nd ref="1244232447"/>
    <nd ref="1244232413"/>
    <nd ref="1244232415"/>
    <nd ref="1244232441"/>
    <nd ref="1244232422"/>
    <nd ref="1244232448"/>
    <nd ref="1244232461"/>
    <nd ref="1244232431"/>
    <nd ref="1244232466"/>
    <nd ref="1244232436"/>
    <nd ref="1244232428"/>
    <tag k="construction" v="residential"/>
    <tag k="highway" v="construction"/>
  </way>
  <way id="108437998" version="1" timestamp="2011-04-14T11:08:24Z" uid="6269" user="Mueck" changeset="7859779">
    <nd ref="1244237747"/>
    <nd ref="1244237746"/>
    <nd ref="1244237750"/>
    <nd ref="1244237745"/>
    <nd ref="1244237751"/>
    <nd ref="1244237749"/>
    <nd ref="1244237748"/>
    <nd ref="1244237752"/>
    <nd ref="1244237747"/>
    <tag k="addr:city" v="Karlsruhe"/>
    <tag k="addr:country" v="DE"/>
    <tag k="addr:housenumber" v="49"/>
    <tag k="addr:postcode" v="76131"/>
    <tag k="addr:street" v="Am Künstlerhaus"/>
    <tag k="amenity" v="fraternity"/>
    <tag k="building" v="yes"/>
    <tag k="building:use" v="dormitory"/>
    <tag k="name" v="B! Hoheneberstein"/>
    <tag k="official_name" v="Burschenschaftim SB Hoheneberstein zu Karlsruhe"/>
    <tag k="verbindung:art" v="Burschenschaft"/>
    <tag k="verbindung:couleur" v="farbentragend"/>
    <tag k="verbindung:farben" v="blau-gold-grün"/>
    <tag k="verbindung:fechten" v="nichtschlagend"/>
    <tag k="verbindung:konfession" v="ja"/>
    <tag k="verbindung:mitglieder" v="männlich"/>
    <tag k="verbindung:tramizu" v="hoheneberstein_karlsruhe.html"/>
    <tag k="verbindung:typ" v="akademisch"/>
    <tag k="verbindung:verband" v="SB"/>
    <tag k="website" v="http://www.hoheneberstein.de/"/>
  </way>
  <way id="108437998" version="2" timestamp="2011-04-14T14:01:24Z" uid="6269" user="Mueck" changeset="7861083">
    <nd ref="1244237747"/>
    <nd ref="1244237746"/>
    <nd ref="1244237750"/>
    <nd ref="1244237745"/>
    <nd ref="1244237751"/>
    <nd ref="1244237749"/>
    <nd ref="1244237748"/>
    <nd ref="1244237752"/>
    <nd ref="1244237747"/>
    <tag k="addr:city" v="Karlsruhe"/>
    <tag k="addr:country" v="DE"/>
    <tag k="addr:housenumber" v="49"/>
    <tag k="addr:postcode" v="76131"/>
    <tag k="addr:street" v="Am Künstlerhaus"/>
    <tag k="amenity" v="fraternity"/>
    <tag k="building" v="yes"/>
    <tag k="building:use" v="dormitory"/>
    <tag k="name" v="B! Hoheneberstein"/>
    <tag k="official_name" v="Burschenschaftim SB Hoheneberstein zu Karlsruhe"/>
    <tag k="verbindung:art" v="Burschenschaft"/>
    <tag k="verbindung:couleur" v="farbentragend"/>
    <tag k="verbindung:farben" v="blau-gold-grün"/>
    <tag k="verbindung:fechten" v="nichtschlagend"/>
    <tag k="verbindung:konfession" v="christlich"/>
    <tag k="verbindung:mitglieder" v="männlich"/>
    <tag k="verbindung:tramizu" v="hoheneberstein_karlsruhe.html"/>
    <tag k="verbindung:typ" v="akademisch"/>
    <tag k="verbindung:verband" v="SB"/>
    <tag k="website" v="http://www.hoheneberstein.de/"/>
  </way>
  <way id="108437998" version="3" timestamp="2011-04-14T20:52:20Z" uid="6269" user="Mueck" changeset="7865008">
    <nd ref="1244237747"/>
    <nd ref="1244237746"/>
    <nd ref="1244237750"/>
    <nd ref="1244237745"/>
    <nd ref="1244237751"/>
    <nd ref="1244237749"/>
    <nd ref="1244237748"/>
    <nd ref="1244237752"/>
    <nd ref="1244237747"/>
    <tag k="addr:city" v="Karlsruhe"/>
    <tag k="addr:country" v="DE"/>
    <tag k="addr:housenumber" v="49"/>
    <tag k="addr:postcode" v="76131"/>
    <tag k="addr:street" v="Am Künstlerhaus"/>
    <tag k="amenity" v="fraternity"/>
    <tag k="building" v="yes"/>
    <tag k="building:use" v="dormitory"/>
    <tag k="name" v="B! Hoheneberstein"/>
    <tag k="official_name" v="Burschenschaftim SB Hoheneberstein zu Karlsruhe"/>
    <tag k="verbindung" v="haus"/>
    <tag k="verbindung:art" v="Burschenschaft"/>
    <tag k="verbindung:couleur" v="farbentragend"/>
    <tag k="verbindung:farben" v="blau-gold-grün"/>
    <tag k="verbindung:fechten" v="nichtschlagend"/>
    <tag k="verbindung:konfession" v="christlich"/>
    <tag k="verbindung:mitglieder" v="männlich"/>
    <tag k="verbindung:tramizu" v="hoheneberstein_karlsruhe.html"/>
    <tag k="verbindung:typ" v="akademisch"/>
    <tag k="verbindung:verband" v="SB"/>
    <tag k="website" v="http://www.hoheneberstein.de/"/>
  </way>
</osm>
