<?xml version='1.0' encoding='UTF-8'?>
<osm version="0.6" generator="libosmium/2.20.0">
  <way id="108456927" version="1" timestamp="2011-04-14T14:45:35Z" uid="6269" user="Mueck" changeset="7861083">
    <nd ref="1244396376"/>
    <nd ref="1244396383"/>
    <nd ref="1244396377"/>
    <nd ref="1244396380"/>
    <nd ref="1244396381"/>
    <nd ref="1244396379"/>
    <nd ref="1244396382"/>
    <nd ref="1244396378"/>
    <nd ref="1244396376"/>
    <tag k="addr:city" v="Karlsruhe"/>
    <tag k="addr:country" v="DE"/>
    <tag k="addr:housenumber" v="53"/>
    <tag k="addr:postcode" v="76131"/>
    <tag k="addr:street" v="Waldhornstraße"/>
    <tag k="amenity" v="fraternity"/>
    <tag k="building" v="yes"/>
    <tag k="building:use" v="dormitory"/>
    <tag k="name" v="AV Hütte"/>
    <tag k="official_name" v="Akademischer Verein Hütte e.V."/>
    <tag k="verbindung:art" v="Akademische Verbindung"/>
    <tag k="verbindung:couleur" v="farbenführend"/>
    <tag k="verbindung:farben" v="weiß-hellblau"/>
    <tag k="verbindung:fechten" v="nichtschlagend"/>
    <tag k="verbindung:konfession" v="nein"/>
    <tag k="verbindung:mitglieder" v="gemischt"/>
    <tag k="verbindung:tramizu" v="akademischer_verein_huette_karlsruhe.html"/>
    <tag k="verbindung:typ" v="akademisch"/>
    <tag k="verbindung:verband" v="nein"/>
    <tag k="website" v="http://www.av-huette.de/karlsruhe.0.html"/>
    <tag k="wikipedia:de" v="Akademischer_Verein_Hütte_(Berlin)"/>
  </way>
  <way id="108456927" version="2" timestamp="2011-04-14T20:52:21Z" uid="6269" user="Mueck" changeset="7865008">
    <nd ref="1244396376"/>
    <nd ref="1244396383"/>
    <nd ref="1244396377"/>
    <nd ref="1244396380"/>
    <nd ref="1244396381"/>
    <nd ref="1244396379"/>
    <nd ref="1244396382"/>
    <nd ref="1244396378"/>
    <nd ref="1244396376"/>
    <tag k="addr:city" v="Karlsruhe"/>
    <tag k="addr:country" v="DE"/>
    <tag k="addr:housenumber" v="53"/>
    <tag k="addr:postcode" v="76131"/>
    <tag k="addr:street" v="Waldhornstraße"/>
    <tag k="amenity" v="fraternity"/>
    <tag k="building" v="yes"/>
    <tag k="building:use" v="dormitory"/>
    <tag k="name" v="AV Hütte"/>
    <tag k="official_name" v="Akademischer Verein Hütte e.V."/>
    <tag k="verbindung" v="haus"/>
    <tag k="verbindung:art" v="Akademische Verbindung"/>
    <tag k="verbindung:couleur" v="farbenführend"/>
    <tag k="verbindung:farben" v="weiß-hellblau"/>
    <tag k="verbindung:fechten" v="nichtschlagend"/>
    <tag k="verbindung:konfession" v="nein"/>
    <tag k="verbindung:mitglieder" v="gemischt"/>
    <tag k="verbindung:tramizu" v="akademischer_verein_huette_karlsruhe.html"/>
    <tag k="verbindung:typ" v="akademisch"/>
    <tag k="verbindung:verband" v="nein"/>
    <tag k="website" v="http://www.av-huette.de/karlsruhe.0.html"/>
    <tag k="wikipedia:de" v="Akademischer_Verein_Hütte_(Berlin)"/>
  </way>
  <way id="108456929" version="1" timestamp="2011-04-14T14:45:35Z" uid="6269" user="Mueck" changeset="7861083">
    <nd ref="1244396377"/>
    <nd ref="1244396379"/>
    <tag k="barrier" v="wall"/>
  </way>
</osm>
