<?xml version='1.0' encoding='UTF-8'?>
<osm version="0.6" generator="libosmium/2.20.0">
  <way id="108505399" version="1" timestamp="2011-04-14T19:23:36Z" uid="66036" user="h4v" changeset="7864085">
    <nd ref="1244746341"/>
    <nd ref="1244746356"/>
    <nd ref="1244746336"/>
    <nd ref="1244746321"/>
    <nd ref="1244746323"/>
    <nd ref="1244746332"/>
    <nd ref="1244746325"/>
    <nd ref="1244746339"/>
    <nd ref="1244746341"/>
    <tag k="amenity" v="university"/>
    <tag k="fixme" v="should be bigger"/>
    <tag k="name" v="Wyższa Szkoła Informatyki"/>
    <tag k="wikipedia" v="pl:Wyższa_Szkoła_Informatyki"/>
  </way>
  <way id="108505402" version="1" timestamp="2011-04-14T19:23:36Z" uid="66036" user="h4v" changeset="7864085">
    <nd ref="1244746339"/>
    <nd ref="324619651"/>
    <nd ref="324619653"/>
    <nd ref="324619655"/>
    <tag k="access" v="permissive"/>
    <tag k="highway" v="service"/>
  </way>
  <way id="108505404" version="1" timestamp="2011-04-14T19:23:36Z" uid="66036" user="h4v" changeset="7864085">
    <nd ref="1244746343"/>
    <nd ref="1244746328"/>
    <tag k="addr:inclusion" v="actual"/>
    <tag k="addr:interpolation" v="odd"/>
    <tag k="source:addr" v="wikipedia"/>
    <tag k="source:name" v="wikipedia"/>
  </way>
  <way id="108505406" version="1" timestamp="2011-04-14T19:23:37Z" uid="66036" user="h4v" changeset="7864085">
    <nd ref="1244746375"/>
    <nd ref="1244746322"/>
    <tag k="addr:inclusion" v="actual"/>
    <tag k="addr:interpolation" v="even"/>
    <tag k="source:addr" v="wikipedia"/>
    <tag k="source:name" v="wikipedia"/>
  </way>
  <way id="108505407" version="1" timestamp="2011-04-14T19:23:37Z" uid="66036" user="h4v" changeset="7864085">
    <nd ref="1244746334"/>
    <nd ref="1244746349"/>
    <tag k="addr:inclusion" v="actual"/>
    <tag k="addr:interpolation" v="even"/>
    <tag k="source:addr" v="wikipedia"/>
    <tag k="source:name" v="wikipedia"/>
  </way>
  <way id="108505409" version="1" timestamp="2011-04-14T19:23:37Z" uid="66036" user="h4v" changeset="7864085">
    <nd ref="1244746329"/>
    <nd ref="1244746346"/>
    <nd ref="1244746360"/>
    <tag k="addr:inclusion" v="actual"/>
    <tag k="addr:interpolation" v="odd"/>
    <tag k="source:addr" v="wikipedia"/>
    <tag k="source:name" v="wikipedia"/>
  </way>
  <way id="108505411" version="1" timestamp="2011-04-14T19:23:37Z" uid="66036" user="h4v" changeset="7864085">
    <nd ref="624791216"/>
    <nd ref="1244746365"/>
    <nd ref="1244746326"/>
    <nd ref="624791217"/>
    <nd ref="1244746330"/>
    <nd ref="624791216"/>
    <tag k="addr:housenumber" v="3"/>
    <tag k="building" v="roof"/>
    <tag k="name" v="I Dom Studencki"/>
    <tag k="operator" v="Politechnika Łódzka"/>
    <tag k="source:addr" v="wikipedia"/>
    <tag k="source:name" v="wikipedia"/>
  </way>
</osm>
