<?xml version='1.0' encoding='UTF-8'?>
<osm version="0.6" generator="libosmium/2.20.0">
  <way id="108639322" version="1" timestamp="2011-04-15T18:06:46Z" uid="33382" user="de_muur" changeset="7872032">
    <nd ref="28401028"/>
    <nd ref="480285558"/>
    <nd ref="365543852"/>
    <tag k="highway" v="secondary"/>
    <tag k="maxspeed" v="50"/>
    <tag k="name" v="Lübecker Straße"/>
    <tag k="ref" v="L 221"/>
    <tag k="source:maxspeed" v="DE:urban"/>
    <tag k="surface" v="paved"/>
    <tag k="zone:traffic" v="DE:urban"/>
  </way>
  <way id="108639329" version="1" timestamp="2011-04-15T18:06:47Z" uid="33382" user="de_muur" changeset="7872032">
    <nd ref="1245919722"/>
    <nd ref="28401028"/>
    <tag k="highway" v="secondary"/>
    <tag k="maxspeed" v="50"/>
    <tag k="name" v="Lübecker Straße"/>
    <tag k="ref" v="L 221"/>
    <tag k="source:maxspeed" v="DE:urban"/>
    <tag k="surface" v="paved"/>
    <tag k="tunnel" v="yes"/>
    <tag k="zone:traffic" v="DE:urban"/>
  </way>
</osm>
