<?xml version='1.0' encoding='UTF-8'?>
<osm version="0.6" generator="libosmium/2.20.0">
  <way id="10894034" version="6" timestamp="2010-07-09T02:41:51Z" uid="74617" user="JohnSmith" changeset="5170713">
    <nd ref="96901795"/>
    <nd ref="96901796"/>
    <nd ref="595485153"/>
    <nd ref="96901797"/>
    <tag k="highway" v="residential"/>
    <tag k="maxspeed" v="50"/>
    <tag k="maxspeed:source" v="default residential speed limit in Australia"/>
    <tag k="name" v="Wadham Parade"/>
    <tag k="oneway" v="yes"/>
  </way>
  <way id="10894047" version="15" timestamp="2010-07-09T02:45:44Z" uid="74617" user="JohnSmith" changeset="5170713">
    <nd ref="96901954"/>
    <nd ref="96901956"/>
    <nd ref="595485138"/>
    <nd ref="96901957"/>
    <nd ref="96901795"/>
    <tag k="highway" v="residential"/>
    <tag k="maxspeed" v="50"/>
    <tag k="maxspeed:source" v="default residential speed limit in Australia"/>
    <tag k="name" v="Alvie Road"/>
    <tag k="oneway" v="yes"/>
  </way>
  <way id="10894053" version="3" timestamp="2009-09-04T21:13:10Z" uid="36809" user="pfoten_weg_!_" changeset="2374562">
    <nd ref="96902031"/>
    <nd ref="96902038"/>
    <nd ref="96902042"/>
    <nd ref="96902044"/>
    <nd ref="96902050"/>
    <tag k="highway" v="service"/>
  </way>
  <way id="10894064" version="5" timestamp="2009-08-13T12:13:52Z" uid="4467" user="Rosscoe" changeset="2130661">
    <nd ref="96901797"/>
    <nd ref="96902198"/>
    <nd ref="96902200"/>
    <nd ref="96901958"/>
    <nd ref="96902202"/>
    <tag k="highway" v="residential"/>
    <tag k="name" v="Wadham Parade"/>
    <tag k="oneway" v="yes"/>
    <tag k="osmarender:renderName" v="no"/>
  </way>
  <way id="10894064" version="6" timestamp="2010-07-09T02:49:14Z" uid="74617" user="JohnSmith" changeset="5170713">
    <nd ref="96901797"/>
    <nd ref="96902198"/>
    <nd ref="96902200"/>
    <nd ref="96901958"/>
    <nd ref="96902202"/>
    <tag k="highway" v="residential"/>
    <tag k="maxspeed" v="50"/>
    <tag k="maxspeed:source" v="default residential speed limit in Australia"/>
    <tag k="name" v="Wadham Parade"/>
    <tag k="oneway" v="yes"/>
  </way>
  <way id="10894133" version="4" timestamp="2009-08-13T12:13:52Z" uid="4467" user="Rosscoe" changeset="2130661">
    <nd ref="96903110"/>
    <nd ref="96902202"/>
    <nd ref="96903269"/>
    <nd ref="96903270"/>
    <nd ref="96903271"/>
    <tag k="highway" v="residential"/>
    <tag k="name" v="Alvie Road"/>
    <tag k="oneway" v="yes"/>
    <tag k="osmarender:renderName" v="no"/>
  </way>
  <way id="10894133" version="6" timestamp="2010-07-09T02:54:00Z" uid="74617" user="JohnSmith" changeset="5170713">
    <nd ref="96903110"/>
    <nd ref="530289184"/>
    <nd ref="96902202"/>
    <nd ref="96903269"/>
    <nd ref="96903270"/>
    <nd ref="96903271"/>
    <tag k="highway" v="residential"/>
    <tag k="maxspeed" v="50"/>
    <tag k="maxspeed:source" v="default residential speed limit in Australia"/>
    <tag k="name" v="Alvie Road"/>
    <tag k="oneway" v="yes"/>
  </way>
  <way id="10894150" version="6" timestamp="2010-07-09T02:43:35Z" uid="74617" user="JohnSmith" changeset="5170713">
    <nd ref="96903455"/>
    <nd ref="96903456"/>
    <nd ref="96903457"/>
    <tag k="highway" v="residential"/>
    <tag k="maxspeed" v="50"/>
    <tag k="maxspeed:source" v="default residential speed limit in Australia"/>
    <tag k="name" v="Brimar Court"/>
  </way>
  <way id="10894165" version="6" timestamp="2010-07-09T02:43:49Z" uid="74617" user="JohnSmith" changeset="5170713">
    <nd ref="96903695"/>
    <nd ref="96903696"/>
    <nd ref="595485146"/>
    <nd ref="96903697"/>
    <nd ref="96902892"/>
    <tag k="highway" v="residential"/>
    <tag k="maxspeed" v="50"/>
    <tag k="maxspeed:source" v="default residential speed limit in Australia"/>
    <tag k="name" v="Yatama Court"/>
  </way>
  <way id="10894191" version="5" timestamp="2010-07-09T02:53:04Z" uid="74617" user="JohnSmith" changeset="5170713">
    <nd ref="96903984"/>
    <nd ref="96903985"/>
    <nd ref="96903986"/>
    <nd ref="96903987"/>
    <tag k="highway" v="residential"/>
    <tag k="maxspeed" v="50"/>
    <tag k="maxspeed:source" v="default residential speed limit in Australia"/>
    <tag k="name" v="McLeod Place"/>
  </way>
  <way id="10894245" version="5" timestamp="2010-07-09T02:49:33Z" uid="74617" user="JohnSmith" changeset="5170713">
    <nd ref="96904728"/>
    <nd ref="96904729"/>
    <nd ref="96904733"/>
    <nd ref="96904734"/>
    <nd ref="96904736"/>
    <nd ref="29524174"/>
    <nd ref="662778849"/>
    <nd ref="662778853"/>
    <nd ref="29524175"/>
    <nd ref="29524176"/>
    <tag k="highway" v="residential"/>
    <tag k="maxspeed" v="50"/>
    <tag k="maxspeed:source" v="default residential speed limit in Australia"/>
    <tag k="name" v="Cheviot Street"/>
  </way>
  <way id="10894293" version="9" timestamp="2009-09-04T21:08:52Z" uid="36809" user="pfoten_weg_!_" changeset="2374562">
    <nd ref="96905272"/>
    <nd ref="373093101"/>
    <nd ref="96905248"/>
    <nd ref="96905252"/>
    <nd ref="96905256"/>
    <nd ref="96905260"/>
    <nd ref="160385832"/>
    <nd ref="244013138"/>
    <nd ref="244013136"/>
    <nd ref="96905262"/>
    <nd ref="96937907"/>
    <nd ref="96905266"/>
    <tag k="highway" v="unclassified"/>
    <tag k="name" v="Neurieder Straße"/>
    <tag k="psv" v="yes"/>
    <tag k="vehicle" v="no"/>
  </way>
  <way id="10894294" version="5" timestamp="2010-07-09T02:49:15Z" uid="74617" user="JohnSmith" changeset="5170713">
    <nd ref="96904878"/>
    <nd ref="96905309"/>
    <nd ref="96905310"/>
    <nd ref="96905311"/>
    <nd ref="96905312"/>
    <nd ref="96905313"/>
    <nd ref="29524174"/>
    <nd ref="29524196"/>
    <nd ref="662779020"/>
    <nd ref="29524173"/>
    <nd ref="29524195"/>
    <tag k="highway" v="residential"/>
    <tag k="maxspeed" v="50"/>
    <tag k="maxspeed:source" v="default residential speed limit in Australia"/>
    <tag k="name" v="Avondale Grove"/>
  </way>
  <way id="10894315" version="13" timestamp="2010-07-09T02:43:32Z" uid="74617" user="JohnSmith" changeset="5170713">
    <nd ref="209084612"/>
    <nd ref="209084908"/>
    <nd ref="96905777"/>
    <nd ref="96905779"/>
    <nd ref="96905781"/>
    <nd ref="96905800"/>
    <nd ref="96904728"/>
    <nd ref="96905785"/>
    <nd ref="29524195"/>
    <nd ref="29524194"/>
    <nd ref="595481477"/>
    <nd ref="595481496"/>
    <nd ref="353723497"/>
    <tag k="highway" v="residential"/>
    <tag k="maxspeed" v="50"/>
    <tag k="maxspeed:source" v="default residential speed limit in Australia"/>
    <tag k="name" v="Miller Grove"/>
  </way>
  <way id="10894467" version="5" timestamp="2010-07-09T02:41:37Z" uid="74617" user="JohnSmith" changeset="5170713">
    <nd ref="96905311"/>
    <nd ref="96907211"/>
    <nd ref="96907214"/>
    <nd ref="96907215"/>
    <nd ref="96907216"/>
    <nd ref="96907217"/>
    <nd ref="96907218"/>
    <nd ref="96901806"/>
    <tag k="highway" v="residential"/>
    <tag k="maxspeed" v="50"/>
    <tag k="maxspeed:source" v="default residential speed limit in Australia"/>
    <tag k="name" v="Glendowan Road"/>
  </way>
  <way id="10894473" version="4" timestamp="2009-09-04T21:19:49Z" uid="36809" user="pfoten_weg_!_" changeset="2374562">
    <nd ref="96907254"/>
    <nd ref="96907261"/>
    <nd ref="96907267"/>
    <nd ref="96907272"/>
    <nd ref="96907273"/>
    <nd ref="96907282"/>
    <nd ref="96907284"/>
    <nd ref="96907288"/>
    <nd ref="96905266"/>
    <tag k="highway" v="residential"/>
    <tag k="name" v="Pasteurstraße"/>
  </way>
  <way id="10894491" version="4" timestamp="2010-07-09T02:49:34Z" uid="74617" user="JohnSmith" changeset="5170713">
    <nd ref="96907548"/>
    <nd ref="96907549"/>
    <nd ref="96907550"/>
    <nd ref="96907551"/>
    <tag k="highway" v="residential"/>
    <tag k="maxspeed" v="50"/>
    <tag k="maxspeed:source" v="default residential speed limit in Australia"/>
    <tag k="name" v="Golf Avenue"/>
  </way>
  <way id="10894750" version="7" timestamp="2009-09-04T21:21:53Z" uid="36809" user="pfoten_weg_!_" changeset="2374562">
    <nd ref="167802779"/>
    <nd ref="96835962"/>
    <nd ref="96836641"/>
    <nd ref="96836642"/>
    <nd ref="96836643"/>
    <nd ref="29509331"/>
    <tag k="highway" v="residential"/>
    <tag k="maxspeed" v="30"/>
    <tag k="name" v="Elmauer Straße"/>
  </way>
  <way id="10894751" version="7" timestamp="2009-09-04T21:19:26Z" uid="36809" user="pfoten_weg_!_" changeset="2374562">
    <nd ref="29509330"/>
    <nd ref="96835168"/>
    <tag k="highway" v="residential"/>
    <tag k="maxspeed" v="30"/>
    <tag k="name" v="Eschenloher Straße"/>
  </way>
  <way id="10894821" version="4" timestamp="2009-09-04T21:11:19Z" uid="36809" user="pfoten_weg_!_" changeset="2374562">
    <nd ref="96883486"/>
    <nd ref="96907254"/>
    <tag k="highway" v="residential"/>
    <tag k="name" v="Josef-Gerstner-Straße"/>
  </way>
  <way id="10894880" version="7" timestamp="2011-05-29T07:31:01Z" uid="33382" user="de_muur" changeset="8278018">
    <nd ref="288526322"/>
    <nd ref="96912073"/>
    <nd ref="96912079"/>
    <nd ref="1304448226"/>
    <nd ref="96912080"/>
    <nd ref="96912085"/>
    <tag k="highway" v="unclassified"/>
    <tag k="name" v="Zum Lohhof"/>
    <tag k="surface" v="paved"/>
  </way>
  <way id="10894883" version="9" timestamp="2010-06-05T18:09:17Z" uid="33382" user="de_muur" changeset="4910916">
    <nd ref="133133513"/>
    <nd ref="96912116"/>
    <nd ref="251348279"/>
    <nd ref="251348253"/>
    <nd ref="251348266"/>
    <nd ref="479943287"/>
    <nd ref="96912113"/>
    <nd ref="96912118"/>
    <tag k="highway" v="tertiary"/>
    <tag k="maxspeed" v="40"/>
    <tag k="name" v="Diensthoper Straße"/>
    <tag k="ref" v="K 17"/>
  </way>
</osm>
