<?xml version='1.0' encoding='UTF-8'?>
<osm version="0.6" generator="libosmium/2.20.0">
  <way id="10935049" version="4" timestamp="2010-07-09T03:00:51Z" uid="74617" user="JohnSmith" changeset="5170739">
    <nd ref="97508673"/>
    <nd ref="97508973"/>
    <nd ref="97508972"/>
    <tag k="highway" v="residential"/>
    <tag k="maxspeed" v="50"/>
    <tag k="maxspeed:source" v="default residential speed limit in Australia"/>
    <tag k="name" v="Luscombe Street"/>
  </way>
  <way id="10935073" version="4" timestamp="2011-05-02T04:01:23Z" uid="4467" user="Rosscoe" changeset="8027578"/>
  <way id="10935141" version="11" timestamp="2011-05-02T04:01:16Z" uid="4467" user="Rosscoe" changeset="8027578">
    <nd ref="97508472"/>
    <nd ref="97509607"/>
    <nd ref="97509609"/>
    <nd ref="194795585"/>
    <nd ref="194795595"/>
    <nd ref="194795599"/>
    <nd ref="194795608"/>
    <nd ref="194795619"/>
    <nd ref="512078521"/>
    <nd ref="263203133"/>
    <tag k="highway" v="tertiary"/>
    <tag k="name" v="Thornside Road"/>
  </way>
  <way id="10935540" version="3" timestamp="2010-07-09T04:58:54Z" uid="74617" user="JohnSmith" changeset="5170972">
    <nd ref="97513272"/>
    <nd ref="97513273"/>
    <nd ref="97513274"/>
    <tag k="highway" v="residential"/>
    <tag k="maxspeed" v="50"/>
    <tag k="maxspeed:source" v="default residential speed limit in Australia"/>
    <tag k="name" v="Ethel Street"/>
  </way>
  <way id="10935560" version="4" timestamp="2010-07-09T05:02:26Z" uid="74617" user="JohnSmith" changeset="5170972">
    <nd ref="97513273"/>
    <nd ref="97513560"/>
    <nd ref="97504520"/>
    <tag k="highway" v="residential"/>
    <tag k="maxspeed" v="50"/>
    <tag k="maxspeed:source" v="default residential speed limit in Australia"/>
    <tag k="name" v="Lord Street"/>
  </way>
  <way id="10935605" version="3" timestamp="2010-07-09T05:02:57Z" uid="74617" user="JohnSmith" changeset="5170972">
    <nd ref="97513560"/>
    <nd ref="97513902"/>
    <tag k="highway" v="residential"/>
    <tag k="maxspeed" v="50"/>
    <tag k="maxspeed:source" v="default residential speed limit in Australia"/>
    <tag k="name" v="Deakin Street"/>
  </way>
  <way id="10935651" version="9" timestamp="2010-02-15T12:16:50Z" uid="74617" user="JohnSmith" changeset="3882541">
    <nd ref="97509607"/>
    <nd ref="569102559"/>
    <nd ref="97514215"/>
    <nd ref="622245387"/>
    <nd ref="619553456"/>
    <nd ref="97514216"/>
    <nd ref="619553458"/>
    <nd ref="97514217"/>
    <nd ref="97517467"/>
    <nd ref="97517468"/>
    <tag k="highway" v="residential"/>
    <tag k="maxspeed" v="50"/>
    <tag k="name" v="Ferry Road"/>
  </way>
  <way id="10935665" version="4" timestamp="2010-07-09T04:56:34Z" uid="74617" user="JohnSmith" changeset="5170972">
    <nd ref="97513940"/>
    <nd ref="97514394"/>
    <nd ref="97514302"/>
    <tag k="highway" v="residential"/>
    <tag k="maxspeed" v="50"/>
    <tag k="maxspeed:source" v="default residential speed limit in Australia"/>
    <tag k="name" v="Hutchinson Street"/>
  </way>
  <way id="10935691" version="4" timestamp="2010-07-09T04:59:22Z" uid="74617" user="JohnSmith" changeset="5170972">
    <nd ref="97514394"/>
    <nd ref="97513272"/>
    <nd ref="97514789"/>
    <nd ref="97514790"/>
    <tag k="highway" v="residential"/>
    <tag k="maxspeed" v="50"/>
    <tag k="maxspeed:source" v="default residential speed limit in Australia"/>
    <tag k="name" v="French Avenue"/>
  </way>
  <way id="10935710" version="5" timestamp="2010-02-15T12:17:36Z" uid="74617" user="JohnSmith" changeset="3882541">
    <nd ref="97509609"/>
    <nd ref="97514960"/>
    <tag k="highway" v="residential"/>
    <tag k="maxspeed" v="50"/>
    <tag k="name" v="Bayside Court"/>
  </way>
  <way id="10935716" version="7" timestamp="2010-07-09T04:55:38Z" uid="74617" user="JohnSmith" changeset="5170972">
    <nd ref="33447935"/>
    <nd ref="313859419"/>
    <nd ref="97515043"/>
    <tag k="highway" v="residential"/>
    <tag k="maxspeed" v="50"/>
    <tag k="maxspeed:source" v="default residential speed limit in Australia"/>
    <tag k="name" v="John Street"/>
  </way>
  <way id="10935737" version="4" timestamp="2010-02-15T12:17:06Z" uid="74617" user="JohnSmith" changeset="3882541">
    <nd ref="97515237"/>
    <nd ref="97515238"/>
    <nd ref="97515239"/>
    <nd ref="97515240"/>
    <nd ref="97515241"/>
    <nd ref="97515243"/>
    <nd ref="97515244"/>
    <tag k="highway" v="residential"/>
    <tag k="maxspeed" v="50"/>
  </way>
  <way id="10935762" version="4" timestamp="2008-09-22T05:15:50Z" uid="7617" user="Franc" changeset="678206">
    <nd ref="60087116"/>
    <nd ref="298942020"/>
    <nd ref="97515645"/>
    <tag k="created_by" v="Potlatch 0.5d"/>
    <tag k="highway" v="residential"/>
    <tag k="name" v="Huddart Avenue"/>
    <tag k="source" v="survey"/>
  </way>
  <way id="10935762" version="7" timestamp="2010-07-08T00:02:22Z" uid="74617" user="JohnSmith" changeset="5162525">
    <nd ref="60087116"/>
    <nd ref="298942020"/>
    <nd ref="97515645"/>
    <tag k="highway" v="residential"/>
    <tag k="maxspeed" v="50"/>
    <tag k="maxspeed:source" v="default residential speed limit in Australia"/>
    <tag k="name" v="Huddart Avenue"/>
    <tag k="source" v="survey"/>
  </way>
  <way id="10935762" version="8" timestamp="2010-07-08T00:12:35Z" uid="74617" user="JohnSmith" changeset="5162525">
    <nd ref="60087116"/>
    <nd ref="298942020"/>
    <nd ref="97515645"/>
    <tag k="highway" v="residential"/>
    <tag k="maxspeed" v="50"/>
    <tag k="maxspeed:source" v="default residential speed limit in Australia"/>
    <tag k="name" v="Huddart Avenue"/>
    <tag k="source" v="survey"/>
  </way>
  <way id="10935766" version="5" timestamp="2010-02-15T12:16:50Z" uid="74617" user="JohnSmith" changeset="3882541">
    <nd ref="97514961"/>
    <nd ref="97515675"/>
    <nd ref="97525844"/>
    <nd ref="97515677"/>
    <nd ref="97515678"/>
    <nd ref="97515679"/>
    <nd ref="97515241"/>
    <tag k="highway" v="residential"/>
    <tag k="maxspeed" v="50"/>
  </way>
  <way id="10935776" version="5" timestamp="2009-10-20T23:51:32Z" uid="36809" user="pfoten_weg_!_" changeset="2908189">
    <nd ref="245577109"/>
    <nd ref="245577110"/>
    <nd ref="245577111"/>
    <nd ref="245577112"/>
    <nd ref="245577113"/>
    <nd ref="259808569"/>
    <nd ref="245577114"/>
    <nd ref="97515713"/>
    <nd ref="451687835"/>
    <nd ref="97515711"/>
    <nd ref="97515709"/>
    <nd ref="97515706"/>
    <nd ref="97515704"/>
    <nd ref="97515702"/>
    <nd ref="97515700"/>
    <nd ref="26983197"/>
    <tag k="highway" v="unclassified"/>
    <tag k="name" v="Alte Hauptstraße"/>
  </way>
  <way id="10935778" version="3" timestamp="2009-09-30T15:30:43Z" uid="36809" user="pfoten_weg_!_" changeset="2689341">
    <nd ref="97515768"/>
    <nd ref="97515776"/>
    <nd ref="97515779"/>
    <nd ref="97515780"/>
    <nd ref="97515784"/>
    <nd ref="97515787"/>
    <nd ref="26984616"/>
    <nd ref="331043153"/>
    <nd ref="26984618"/>
    <nd ref="26981266"/>
    <tag k="highway" v="residential"/>
    <tag k="name" v="Wörthseestraße"/>
  </way>
  <way id="10935780" version="6" timestamp="2009-10-20T23:52:49Z" uid="36809" user="pfoten_weg_!_" changeset="2908189">
    <nd ref="97515790"/>
    <nd ref="26983162"/>
    <nd ref="278196103"/>
    <nd ref="26983163"/>
    <nd ref="26983165"/>
    <nd ref="26983167"/>
    <nd ref="26983168"/>
    <nd ref="26983169"/>
    <nd ref="26983170"/>
    <tag k="highway" v="unclassified"/>
    <tag k="name" v="Fischerstraße"/>
  </way>
  <way id="10935781" version="5" timestamp="2009-09-30T15:30:45Z" uid="36809" user="pfoten_weg_!_" changeset="2689341">
    <nd ref="97515662"/>
    <nd ref="97515667"/>
    <nd ref="97515671"/>
    <nd ref="97515673"/>
    <nd ref="97515682"/>
    <nd ref="97515684"/>
    <nd ref="97515687"/>
    <nd ref="97515689"/>
    <nd ref="97515693"/>
    <nd ref="97515695"/>
    <tag k="highway" v="residential"/>
    <tag k="name" v="Wallerstraße"/>
  </way>
  <way id="10935783" version="3" timestamp="2009-09-30T15:30:46Z" uid="36809" user="pfoten_weg_!_" changeset="2689341">
    <nd ref="97515650"/>
    <nd ref="97515654"/>
    <nd ref="97515659"/>
    <nd ref="97515662"/>
    <tag k="highway" v="unclassified"/>
    <tag k="maxspeed" v="30"/>
  </way>
  <way id="10935785" version="5" timestamp="2009-09-30T15:30:47Z" uid="36809" user="pfoten_weg_!_" changeset="2689341">
    <nd ref="97515631"/>
    <nd ref="97515637"/>
    <nd ref="97515641"/>
    <nd ref="303161017"/>
    <nd ref="97515646"/>
    <nd ref="97515650"/>
    <tag k="highway" v="residential"/>
    <tag k="name" v="Hechtstraße"/>
  </way>
  <way id="10935786" version="6" timestamp="2009-09-30T15:31:03Z" uid="36809" user="pfoten_weg_!_" changeset="2689341">
    <nd ref="97515582"/>
    <nd ref="278195883"/>
    <nd ref="97515587"/>
    <nd ref="97515593"/>
    <nd ref="97515598"/>
    <nd ref="97515602"/>
    <nd ref="97515606"/>
    <nd ref="97515609"/>
    <nd ref="97515613"/>
    <nd ref="97515617"/>
    <nd ref="278195885"/>
    <nd ref="97515620"/>
    <nd ref="97515624"/>
    <nd ref="97515627"/>
    <nd ref="97515631"/>
    <tag k="highway" v="residential"/>
    <tag k="maxspeed" v="30"/>
    <tag k="name" v="Hechtstraße"/>
  </way>
  <way id="10935790" version="10" timestamp="2009-09-30T15:31:05Z" uid="36809" user="pfoten_weg_!_" changeset="2689341">
    <nd ref="21140552"/>
    <nd ref="97515424"/>
    <nd ref="97515429"/>
    <tag k="highway" v="residential"/>
    <tag k="name" v="Bacherner Weg"/>
  </way>
  <way id="10935832" version="3" timestamp="2010-02-15T12:17:06Z" uid="74617" user="JohnSmith" changeset="3882541">
    <nd ref="97515237"/>
    <nd ref="97516181"/>
    <nd ref="97516182"/>
    <nd ref="97516183"/>
    <nd ref="97516184"/>
    <nd ref="97516185"/>
    <nd ref="97516187"/>
    <nd ref="97515237"/>
    <tag k="highway" v="service"/>
    <tag k="maxspeed" v="50"/>
  </way>
  <way id="10935866" version="4" timestamp="2010-07-09T03:01:34Z" uid="74617" user="JohnSmith" changeset="5170739">
    <nd ref="97516310"/>
    <nd ref="97516655"/>
    <nd ref="97516440"/>
    <tag k="highway" v="residential"/>
    <tag k="maxspeed" v="50"/>
    <tag k="maxspeed:source" v="default residential speed limit in Australia"/>
    <tag k="name" v="Bank Street"/>
  </way>
  <way id="10935913" version="5" timestamp="2008-09-22T09:45:58Z" uid="7617" user="Franc" changeset="680122">
    <nd ref="26959656"/>
    <nd ref="97516811"/>
    <nd ref="97516812"/>
    <nd ref="298986839"/>
    <nd ref="97516813"/>
    <tag k="created_by" v="Potlatch 0.5d"/>
    <tag k="highway" v="residential"/>
    <tag k="name" v="Normanhurst Road"/>
    <tag k="source" v="yahoo_imagery"/>
  </way>
  <way id="10935913" version="6" timestamp="2009-12-31T06:18:16Z" uid="61114" user="Trav" changeset="3496304">
    <nd ref="26959656"/>
    <nd ref="97516811"/>
    <nd ref="601839825"/>
    <nd ref="97516812"/>
    <nd ref="298986839"/>
    <nd ref="97516813"/>
    <tag k="highway" v="residential"/>
    <tag k="name" v="Normanhurst Road"/>
    <tag k="source" v="yahoo_imagery"/>
  </way>
  <way id="10935913" version="7" timestamp="2010-04-17T02:16:47Z" uid="7617" user="Franc" changeset="4443965">
    <nd ref="26959656"/>
    <nd ref="97516811"/>
    <nd ref="601839825"/>
    <nd ref="97516812"/>
    <nd ref="699403124"/>
    <tag k="highway" v="residential"/>
    <tag k="name" v="Normanhurst Road"/>
    <tag k="restriction" v="school_zone"/>
    <tag k="source" v="yahoo_imagery"/>
  </way>
  <way id="10935913" version="8" timestamp="2010-05-09T09:24:05Z" uid="61114" user="Trav" changeset="4646167">
    <nd ref="26959656"/>
    <nd ref="727277574"/>
    <nd ref="97516811"/>
    <nd ref="601839825"/>
    <nd ref="97516812"/>
    <nd ref="699403124"/>
    <tag k="highway" v="residential"/>
    <tag k="name" v="Normanhurst Road"/>
    <tag k="restriction" v="school_zone"/>
    <tag k="source" v="yahoo_imagery"/>
  </way>
  <way id="10935913" version="9" timestamp="2010-07-08T00:03:34Z" uid="74617" user="JohnSmith" changeset="5162525">
    <nd ref="26959656"/>
    <nd ref="727277574"/>
    <nd ref="97516811"/>
    <nd ref="601839825"/>
    <nd ref="97516812"/>
    <nd ref="699403124"/>
    <tag k="highway" v="residential"/>
    <tag k="maxspeed" v="50"/>
    <tag k="maxspeed:source" v="default residential speed limit in Australia"/>
    <tag k="name" v="Normanhurst Road"/>
    <tag k="restriction" v="school_zone"/>
    <tag k="source" v="yahoo_imagery"/>
  </way>
  <way id="10935913" version="10" timestamp="2010-07-08T00:13:53Z" uid="74617" user="JohnSmith" changeset="5162525">
    <nd ref="26959656"/>
    <nd ref="727277574"/>
    <nd ref="97516811"/>
    <nd ref="601839825"/>
    <nd ref="97516812"/>
    <nd ref="699403124"/>
    <tag k="highway" v="residential"/>
    <tag k="maxspeed" v="50"/>
    <tag k="maxspeed:source" v="default residential speed limit in Australia"/>
    <tag k="name" v="Normanhurst Road"/>
    <tag k="restriction" v="school_zone"/>
    <tag k="source" v="yahoo_imagery"/>
  </way>
  <way id="10935945" version="4" timestamp="2010-07-09T03:01:58Z" uid="74617" user="JohnSmith" changeset="5170739">
    <nd ref="97516655"/>
    <nd ref="97517021"/>
    <nd ref="97517965"/>
    <nd ref="97517022"/>
    <nd ref="97517023"/>
    <nd ref="97517024"/>
    <tag k="highway" v="residential"/>
    <tag k="maxspeed" v="50"/>
    <tag k="maxspeed:source" v="default residential speed limit in Australia"/>
    <tag k="name" v="Belfast Road"/>
  </way>
  <way id="10935958" version="3" timestamp="2010-07-09T03:01:49Z" uid="74617" user="JohnSmith" changeset="5170739">
    <nd ref="97517021"/>
    <nd ref="97517242"/>
    <tag k="highway" v="residential"/>
    <tag k="maxspeed" v="50"/>
    <tag k="maxspeed:source" v="default residential speed limit in Australia"/>
    <tag k="name" v="Essex Street"/>
  </way>
  <way id="10935978" version="3" timestamp="2010-07-09T02:56:21Z" uid="74617" user="JohnSmith" changeset="5170739">
    <nd ref="97517302"/>
    <nd ref="97517022"/>
    <tag k="highway" v="residential"/>
    <tag k="maxspeed" v="50"/>
    <tag k="maxspeed:source" v="default residential speed limit in Australia"/>
    <tag k="name" v="Bell Street"/>
  </way>
</osm>
