<?xml version='1.0' encoding='UTF-8'?>
<osm version="0.6" generator="libosmium/2.20.0">
  <way id="10934091" version="7" timestamp="2011-05-02T04:01:24Z" uid="4467" user="Rosscoe" changeset="8027578"/>
  <way id="10934133" version="8" timestamp="2010-07-09T05:00:11Z" uid="74617" user="JohnSmith" changeset="5170972">
    <nd ref="139074133"/>
    <nd ref="770707803"/>
    <nd ref="97501359"/>
    <tag k="highway" v="residential"/>
    <tag k="maxspeed" v="50"/>
    <tag k="maxspeed:source" v="default residential speed limit in Australia"/>
    <tag k="name" v="Piera Street"/>
  </way>
  <way id="10934221" version="6" timestamp="2010-07-09T04:53:39Z" uid="74617" user="JohnSmith" changeset="5170972">
    <nd ref="139074392"/>
    <nd ref="770707807"/>
    <nd ref="97502098"/>
    <tag k="highway" v="residential"/>
    <tag k="maxspeed" v="50"/>
    <tag k="maxspeed:source" v="default residential speed limit in Australia"/>
    <tag k="name" v="O&apos;Connor Street"/>
  </way>
  <way id="10934468" version="6" timestamp="2010-07-09T04:57:13Z" uid="74617" user="JohnSmith" changeset="5170972">
    <nd ref="97504520"/>
    <nd ref="97505418"/>
    <nd ref="315725924"/>
    <nd ref="97504521"/>
    <tag k="highway" v="residential"/>
    <tag k="maxspeed" v="50"/>
    <tag k="maxspeed:source" v="default residential speed limit in Australia"/>
    <tag k="name" v="Methven Street"/>
  </way>
  <way id="10934681" version="10" timestamp="2010-07-09T05:03:49Z" uid="74617" user="JohnSmith" changeset="5170972">
    <nd ref="126707992"/>
    <nd ref="139071701"/>
    <nd ref="160527071"/>
    <nd ref="97507829"/>
    <nd ref="444352624"/>
    <nd ref="770709116"/>
    <nd ref="97506078"/>
    <tag k="highway" v="residential"/>
    <tag k="maxspeed" v="50"/>
    <tag k="maxspeed:source" v="default residential speed limit in Australia"/>
    <tag k="name" v="Clarke Street"/>
  </way>
  <way id="10934756" version="9" timestamp="2011-05-02T04:01:23Z" uid="4467" user="Rosscoe" changeset="8027578"/>
  <way id="10934769" version="6" timestamp="2010-07-09T04:59:49Z" uid="74617" user="JohnSmith" changeset="5170972">
    <nd ref="97506287"/>
    <nd ref="97506724"/>
    <nd ref="97506725"/>
    <nd ref="97506726"/>
    <nd ref="97506727"/>
    <nd ref="444352624"/>
    <tag k="highway" v="residential"/>
    <tag k="maxspeed" v="50"/>
    <tag k="maxspeed:source" v="default residential speed limit in Australia"/>
    <tag k="name" v="Arnold Street"/>
    <tag k="source" v="nearmap"/>
  </way>
  <way id="10934815" version="8" timestamp="2010-07-09T04:56:16Z" uid="74617" user="JohnSmith" changeset="5170972">
    <nd ref="139073140"/>
    <nd ref="444352624"/>
    <tag k="highway" v="residential"/>
    <tag k="maxspeed" v="50"/>
    <tag k="maxspeed:source" v="default residential speed limit in Australia"/>
    <tag k="name" v="Leyden Street"/>
  </way>
  <way id="10934844" version="5" timestamp="2010-07-09T04:57:34Z" uid="74617" user="JohnSmith" changeset="5170972">
    <nd ref="97507389"/>
    <nd ref="97507393"/>
    <tag k="highway" v="residential"/>
    <tag k="maxspeed" v="50"/>
    <tag k="maxspeed:source" v="default residential speed limit in Australia"/>
    <tag k="name" v="Little Miller Street"/>
  </way>
  <way id="10934911" version="11" timestamp="2010-07-09T04:59:27Z" uid="74617" user="JohnSmith" changeset="5170972">
    <nd ref="770707822"/>
    <nd ref="160527071"/>
    <nd ref="160527080"/>
    <tag k="highway" v="residential"/>
    <tag k="maxspeed" v="50"/>
    <tag k="maxspeed:source" v="default residential speed limit in Australia"/>
    <tag k="name" v="Linden Street"/>
  </way>
  <way id="10934912" version="9" timestamp="2010-11-04T16:50:58Z" uid="33382" user="de_muur" changeset="6289855">
    <nd ref="187255167"/>
    <nd ref="21686073"/>
    <nd ref="280573642"/>
    <nd ref="21686072"/>
    <nd ref="21686071"/>
    <nd ref="21686070"/>
    <nd ref="280550400"/>
    <nd ref="21686069"/>
    <nd ref="21686068"/>
    <nd ref="21686067"/>
    <nd ref="21686042"/>
    <nd ref="21721774"/>
    <tag k="highway" v="secondary"/>
    <tag k="maxspeed" v="50"/>
    <tag k="name" v="Vorburgstraße"/>
    <tag k="ref" v="L 93"/>
    <tag k="surface" v="paved"/>
  </way>
  <way id="10934913" version="9" timestamp="2010-11-04T16:51:00Z" uid="33382" user="de_muur" changeset="6289855">
    <nd ref="213181896"/>
    <nd ref="281424889"/>
    <nd ref="26891928"/>
    <nd ref="281424932"/>
    <nd ref="253598432"/>
    <nd ref="281424934"/>
    <nd ref="21686079"/>
    <nd ref="280555295"/>
    <nd ref="21686078"/>
    <nd ref="21686077"/>
    <nd ref="26891929"/>
    <nd ref="21686075"/>
    <nd ref="187255167"/>
    <tag k="highway" v="secondary"/>
    <tag k="maxspeed" v="50"/>
    <tag k="name" v="Poststraße"/>
    <tag k="surface" v="paved"/>
  </way>
  <way id="10934948" version="7" timestamp="2011-05-02T04:01:13Z" uid="4467" user="Rosscoe" changeset="8027578">
    <nd ref="97649265"/>
    <nd ref="1269987650"/>
    <nd ref="1269987652"/>
    <nd ref="1269987684"/>
    <nd ref="1269987690"/>
    <nd ref="97508156"/>
    <nd ref="97508157"/>
    <nd ref="97508158"/>
    <nd ref="97508159"/>
    <nd ref="1269987677"/>
    <nd ref="97508160"/>
    <nd ref="97509235"/>
    <nd ref="97508476"/>
    <tag k="highway" v="secondary"/>
    <tag k="name" v="Rickertt Road"/>
    <tag k="oneway" v="yes"/>
  </way>
  <way id="10934991" version="5" timestamp="2011-05-02T04:01:16Z" uid="4467" user="Rosscoe" changeset="8027578">
    <nd ref="97508472"/>
    <nd ref="1269987651"/>
    <nd ref="97536876"/>
    <nd ref="97508473"/>
    <nd ref="97508474"/>
    <nd ref="97508475"/>
    <nd ref="97508476"/>
    <tag k="highway" v="tertiary"/>
    <tag k="oneway" v="yes"/>
  </way>
</osm>
