<?xml version='1.0' encoding='UTF-8'?>
<osm version="0.6" generator="libosmium/2.20.0">
  <way id="10954350" version="5" timestamp="2010-02-15T06:55:03Z" uid="74617" user="JohnSmith" changeset="3880463">
    <nd ref="97636980"/>
    <nd ref="118813330"/>
    <nd ref="269286683"/>
    <tag k="highway" v="residential"/>
    <tag k="maxspeed" v="50"/>
    <tag k="name" v="Magnolia Street"/>
  </way>
  <way id="10954350" version="6" timestamp="2010-05-12T09:44:59Z" uid="4467" user="Rosscoe" changeset="4675669">
    <nd ref="97636980"/>
    <nd ref="118813330"/>
    <nd ref="730675258"/>
    <tag k="highway" v="residential"/>
    <tag k="maxspeed" v="50"/>
    <tag k="name" v="Magnolia Street"/>
  </way>
  <way id="10954384" version="6" timestamp="2010-02-15T06:55:03Z" uid="74617" user="JohnSmith" changeset="3880463">
    <nd ref="269286683"/>
    <nd ref="97637861"/>
    <nd ref="97637618"/>
    <tag k="highway" v="residential"/>
    <tag k="maxspeed" v="50"/>
    <tag k="name" v="Magnolia Street"/>
  </way>
  <way id="10954384" version="7" timestamp="2010-05-12T09:45:00Z" uid="4467" user="Rosscoe" changeset="4675669">
    <nd ref="730675259"/>
    <nd ref="97637861"/>
    <nd ref="97637618"/>
    <tag k="highway" v="residential"/>
    <tag k="maxspeed" v="50"/>
    <tag k="name" v="Magnolia Street"/>
  </way>
  <way id="10954413" version="3" timestamp="2010-02-15T06:55:03Z" uid="74617" user="JohnSmith" changeset="3880463">
    <nd ref="97637859"/>
    <nd ref="97637861"/>
    <tag k="highway" v="residential"/>
    <tag k="maxspeed" v="50"/>
    <tag k="name" v="Hibiscus Court"/>
  </way>
  <way id="10954413" version="4" timestamp="2010-05-12T09:45:01Z" uid="4467" user="Rosscoe" changeset="4675669">
    <nd ref="97637859"/>
    <nd ref="97637861"/>
    <tag k="highway" v="residential"/>
    <tag k="maxspeed" v="50"/>
    <tag k="name" v="Hibiscus Court"/>
    <tag k="source" v="nearmap"/>
  </way>
  <way id="10954463" version="3" timestamp="2010-02-15T06:54:48Z" uid="74617" user="JohnSmith" changeset="3880463">
    <nd ref="97638309"/>
    <nd ref="97638311"/>
    <nd ref="97638312"/>
    <tag k="highway" v="residential"/>
    <tag k="maxspeed" v="50"/>
    <tag k="name" v="Liquidambar Place"/>
  </way>
  <way id="10954517" version="4" timestamp="2010-02-15T06:53:18Z" uid="74617" user="JohnSmith" changeset="3880463">
    <nd ref="97638311"/>
    <nd ref="269286683"/>
    <tag k="highway" v="residential"/>
    <tag k="maxspeed" v="50"/>
    <tag k="name" v="Liquidambar Place"/>
  </way>
  <way id="10954517" version="5" timestamp="2010-05-12T09:45:00Z" uid="4467" user="Rosscoe" changeset="4675669">
    <nd ref="97638311"/>
    <nd ref="730675254"/>
    <tag k="highway" v="residential"/>
    <tag k="maxspeed" v="50"/>
    <tag k="name" v="Liquidambar Place"/>
  </way>
  <way id="10954527" version="10" timestamp="2010-12-02T04:06:35Z" uid="4467" user="Rosscoe" changeset="6511028">
    <nd ref="186785658"/>
    <nd ref="186785679"/>
    <nd ref="186780903"/>
    <nd ref="186780888"/>
    <nd ref="355167717"/>
    <nd ref="186780879"/>
    <nd ref="186780859"/>
    <tag k="highway" v="residential"/>
    <tag k="maxspeed" v="50"/>
    <tag k="name" v="Corlette Street"/>
  </way>
  <way id="10954547" version="5" timestamp="2010-02-15T06:55:02Z" uid="74617" user="JohnSmith" changeset="3880463">
    <nd ref="53946699"/>
    <nd ref="269286683"/>
    <tag k="highway" v="residential"/>
    <tag k="maxspeed" v="50"/>
    <tag k="name" v="Midura Street"/>
  </way>
  <way id="10954547" version="6" timestamp="2010-05-12T09:45:00Z" uid="4467" user="Rosscoe" changeset="4675669">
    <nd ref="53946699"/>
    <nd ref="730675256"/>
    <tag k="highway" v="residential"/>
    <tag k="maxspeed" v="50"/>
    <tag k="name" v="Midura Street"/>
  </way>
  <way id="10954608" version="4" timestamp="2010-02-15T06:54:59Z" uid="74617" user="JohnSmith" changeset="3880463">
    <nd ref="97639599"/>
    <nd ref="258346681"/>
    <nd ref="97639600"/>
    <tag k="highway" v="residential"/>
    <tag k="maxspeed" v="50"/>
    <tag k="name" v="Midura Street"/>
  </way>
  <way id="10954608" version="5" timestamp="2010-05-12T09:45:00Z" uid="4467" user="Rosscoe" changeset="4675669">
    <nd ref="97639599"/>
    <nd ref="97639600"/>
    <tag k="highway" v="residential"/>
    <tag k="maxspeed" v="50"/>
    <tag k="name" v="Midura Street"/>
  </way>
  <way id="10954659" version="4" timestamp="2010-02-15T06:55:02Z" uid="74617" user="JohnSmith" changeset="3880463">
    <nd ref="97640065"/>
    <nd ref="97640067"/>
    <nd ref="258347788"/>
    <nd ref="97640068"/>
    <tag k="highway" v="residential"/>
    <tag k="maxspeed" v="50"/>
    <tag k="name" v="Lexton Street"/>
  </way>
  <way id="10954683" version="4" timestamp="2010-02-15T06:54:59Z" uid="74617" user="JohnSmith" changeset="3880463">
    <nd ref="97640283"/>
    <nd ref="258347321"/>
    <nd ref="97640284"/>
    <tag k="highway" v="residential"/>
    <tag k="maxspeed" v="50"/>
    <tag k="name" v="Kardella Street"/>
  </way>
  <way id="10954683" version="5" timestamp="2010-05-12T09:44:59Z" uid="4467" user="Rosscoe" changeset="4675669">
    <nd ref="97640283"/>
    <nd ref="97640284"/>
    <tag k="highway" v="residential"/>
    <tag k="maxspeed" v="50"/>
    <tag k="name" v="Kardella Street"/>
  </way>
  <way id="10954704" version="4" timestamp="2010-02-15T12:17:07Z" uid="74617" user="JohnSmith" changeset="3882541">
    <nd ref="97640420"/>
    <nd ref="97640421"/>
    <nd ref="97640423"/>
    <nd ref="97640424"/>
    <nd ref="97640426"/>
    <nd ref="97640427"/>
    <nd ref="97640429"/>
    <tag k="highway" v="residential"/>
    <tag k="maxspeed" v="50"/>
  </way>
  <way id="10954719" version="4" timestamp="2010-02-15T06:54:59Z" uid="74617" user="JohnSmith" changeset="3880463">
    <nd ref="97640564"/>
    <nd ref="258347383"/>
    <nd ref="97640565"/>
    <nd ref="97640566"/>
    <tag k="highway" v="residential"/>
    <tag k="maxspeed" v="50"/>
    <tag k="name" v="Lexton Street"/>
  </way>
  <way id="10954719" version="5" timestamp="2010-05-12T09:44:59Z" uid="4467" user="Rosscoe" changeset="4675669">
    <nd ref="97640564"/>
    <nd ref="97640565"/>
    <nd ref="97640566"/>
    <tag k="highway" v="residential"/>
    <tag k="maxspeed" v="50"/>
    <tag k="name" v="Lexton Street"/>
  </way>
  <way id="10954778" version="4" timestamp="2010-02-15T12:16:51Z" uid="74617" user="JohnSmith" changeset="3882541">
    <nd ref="97640423"/>
    <nd ref="97640932"/>
    <nd ref="97640933"/>
    <nd ref="97640934"/>
    <nd ref="97640936"/>
    <nd ref="97640937"/>
    <tag k="highway" v="residential"/>
    <tag k="maxspeed" v="50"/>
  </way>
  <way id="10954798" version="5" timestamp="2010-02-15T06:55:02Z" uid="74617" user="JohnSmith" changeset="3880463">
    <nd ref="97641138"/>
    <nd ref="258347782"/>
    <nd ref="258347783"/>
    <nd ref="258347784"/>
    <nd ref="97641140"/>
    <nd ref="258347785"/>
    <nd ref="97641141"/>
    <nd ref="258347786"/>
    <nd ref="97641142"/>
    <nd ref="258347964"/>
    <nd ref="97641143"/>
    <nd ref="258347965"/>
    <nd ref="258347966"/>
    <nd ref="258347967"/>
    <tag k="highway" v="residential"/>
    <tag k="maxspeed" v="50"/>
    <tag k="name" v="Penson Street"/>
  </way>
  <way id="10954840" version="4" timestamp="2010-02-15T06:55:05Z" uid="74617" user="JohnSmith" changeset="3880463">
    <nd ref="97641563"/>
    <nd ref="97641564"/>
    <tag k="highway" v="residential"/>
    <tag k="maxspeed" v="50"/>
    <tag k="name" v="Penson Street"/>
  </way>
  <way id="10954864" version="13" timestamp="2010-06-12T09:23:54Z" uid="30201" user="rrankin" changeset="4968689">
    <nd ref="97639805"/>
    <nd ref="761439100"/>
    <nd ref="97641729"/>
    <nd ref="97641731"/>
    <nd ref="176205150"/>
    <nd ref="119020143"/>
    <nd ref="97641735"/>
    <nd ref="287872024"/>
    <nd ref="97641736"/>
    <nd ref="321194317"/>
    <nd ref="176205234"/>
    <nd ref="97641739"/>
    <nd ref="761299742"/>
    <nd ref="97641741"/>
    <nd ref="119020066"/>
    <nd ref="97641744"/>
    <nd ref="97641745"/>
    <nd ref="769843083"/>
    <tag k="highway" v="tertiary"/>
    <tag k="maxspeed" v="60"/>
    <tag k="name" v="Scenic Drive"/>
  </way>
  <way id="10954900" version="5" timestamp="2010-02-15T06:54:59Z" uid="74617" user="JohnSmith" changeset="3880463">
    <nd ref="53946125"/>
    <nd ref="258346394"/>
    <nd ref="258346395"/>
    <nd ref="258346396"/>
    <tag k="highway" v="residential"/>
    <tag k="maxspeed" v="50"/>
    <tag k="name" v="Frizzell Street"/>
  </way>
</osm>
