<?xml version='1.0' encoding='UTF-8'?>
<osm version="0.6" generator="libosmium/2.20.0">
  <way id="10963153" version="5" timestamp="2009-08-30T07:55:53Z" uid="61114" user="Trav" changeset="2309931">
    <nd ref="97728746"/>
    <nd ref="36788676"/>
    <nd ref="300515030"/>
    <nd ref="36788677"/>
    <nd ref="82530202"/>
    <nd ref="263131010"/>
    <nd ref="36788678"/>
    <tag k="highway" v="secondary"/>
    <tag k="name" v="Ernest Street"/>
    <tag k="source" v="survey"/>
  </way>
  <way id="10963372" version="2" timestamp="2009-03-14T12:56:26Z" uid="61114" user="Trav" changeset="804689">
    <nd ref="36253673"/>
    <nd ref="36252861"/>
    <tag k="bridge" v="yes"/>
    <tag k="created_by" v="Merkaartor 0.13"/>
    <tag k="highway" v="trunk"/>
    <tag k="layer" v="1"/>
    <tag k="name" v="Falcon Street"/>
    <tag k="oneway" v="yes"/>
    <tag k="ref" v="MR10"/>
    <tag k="source:name" v="survey"/>
  </way>
  <way id="10963373" version="4" timestamp="2008-09-28T09:01:57Z" uid="61114" user="Trav" changeset="709191">
    <nd ref="36253823"/>
    <nd ref="82530217"/>
    <nd ref="36253824"/>
    <nd ref="36253825"/>
    <nd ref="299456129"/>
    <nd ref="36253826"/>
    <nd ref="300515016"/>
    <nd ref="36253827"/>
    <nd ref="299241169"/>
    <nd ref="36253828"/>
    <nd ref="36253657"/>
    <tag k="created_by" v="Merkaartor 0.13"/>
    <tag k="highway" v="trunk"/>
    <tag k="name" v="Military Road"/>
    <tag k="oneway" v="yes"/>
    <tag k="ref" v="MR10"/>
  </way>
  <way id="10963373" version="8" timestamp="2010-03-31T06:20:46Z" uid="74617" user="JohnSmith" changeset="4282717">
    <nd ref="36253823"/>
    <nd ref="82530217"/>
    <nd ref="36253824"/>
    <nd ref="36253825"/>
    <nd ref="299456129"/>
    <nd ref="36253826"/>
    <nd ref="300515016"/>
    <nd ref="36253827"/>
    <nd ref="299241169"/>
    <nd ref="459454010"/>
    <nd ref="36253828"/>
    <nd ref="81246492"/>
    <tag k="highway" v="trunk"/>
    <tag k="name" v="Military Road"/>
    <tag k="oneway" v="yes"/>
    <tag k="source" v="survey"/>
  </way>
  <way id="10963698" version="2" timestamp="2008-03-28T01:39:51Z" uid="30201" user="rrankin" changeset="409541">
    <nd ref="13797800"/>
    <nd ref="29421333"/>
    <nd ref="97734023"/>
    <nd ref="82543076"/>
    <nd ref="29421335"/>
    <nd ref="254359678"/>
    <nd ref="29421330"/>
    <tag k="created_by" v="Potlatch alpha"/>
    <tag k="highway" v="residential"/>
  </way>
  <way id="10963698" version="3" timestamp="2008-03-28T08:23:33Z" uid="30201" user="rrankin" changeset="414582">
    <nd ref="13797800"/>
    <nd ref="29421333"/>
    <nd ref="97734023"/>
    <nd ref="82543076"/>
    <nd ref="29421335"/>
    <nd ref="254359678"/>
    <nd ref="254375467"/>
    <tag k="created_by" v="Potlatch 0.8"/>
    <tag k="highway" v="residential"/>
    <tag k="name" v="Palmer Street"/>
  </way>
  <way id="10963698" version="4" timestamp="2008-06-02T00:33:52Z" uid="30201" user="rrankin" changeset="16379">
    <nd ref="13797800"/>
    <nd ref="29421333"/>
    <nd ref="97734023"/>
    <tag k="created_by" v="Potlatch 0.8"/>
    <tag k="highway" v="residential"/>
    <tag k="name" v="Palmer Street"/>
  </way>
  <way id="10963698" version="6" timestamp="2009-05-31T07:05:06Z" uid="61114" user="Trav" changeset="1365696">
    <nd ref="13797800"/>
    <nd ref="395260437"/>
    <nd ref="29421333"/>
    <nd ref="97734023"/>
    <tag k="highway" v="residential"/>
    <tag k="name" v="Palmer Street"/>
    <tag k="source:name" v="survey"/>
  </way>
  <way id="10963698" version="8" timestamp="2010-07-08T01:18:59Z" uid="74617" user="JohnSmith" changeset="5162525">
    <nd ref="13797800"/>
    <nd ref="395260437"/>
    <nd ref="29421333"/>
    <tag k="highway" v="residential"/>
    <tag k="maxspeed" v="50"/>
    <tag k="maxspeed:source" v="default residential speed limit in Australia"/>
    <tag k="name" v="Palmer Street"/>
    <tag k="source" v="survey"/>
    <tag k="source:name" v="survey"/>
  </way>
  <way id="10963810" version="3" timestamp="2010-03-21T05:11:45Z" uid="74617" user="JohnSmith" changeset="4187344">
    <nd ref="97734386"/>
    <nd ref="97735321"/>
    <nd ref="97735324"/>
    <nd ref="97735325"/>
    <nd ref="97735940"/>
    <nd ref="671145869"/>
    <tag k="highway" v="secondary"/>
    <tag k="name" v="Rickertt Road"/>
    <tag k="oneway" v="yes"/>
  </way>
  <way id="10963911" version="5" timestamp="2010-03-21T05:11:47Z" uid="74617" user="JohnSmith" changeset="4187344"/>
</osm>
