<?xml version='1.0' encoding='UTF-8'?>
<osm version="0.6" generator="libosmium/2.20.0">
  <way id="109899548" version="1" timestamp="2011-04-23T18:18:25Z" uid="115477" user="wowik" changeset="7946014">
    <nd ref="1256974215"/>
    <nd ref="1256974219"/>
    <nd ref="1256974222"/>
    <nd ref="1256974224"/>
    <nd ref="1256974215"/>
    <tag k="addr:city" v="Андреевка"/>
    <tag k="addr:housenumber" v="13А"/>
    <tag k="addr:street" v="поселок Андреевка"/>
    <tag k="amenity" v="veterinary "/>
    <tag k="building" v="yes"/>
  </way>
  <way id="109899977" version="1" timestamp="2011-04-23T18:21:14Z" uid="115477" user="wowik" changeset="7946014">
    <nd ref="1154897716"/>
    <nd ref="1154897720"/>
    <nd ref="1154881157"/>
    <tag k="highway" v="service"/>
    <tag k="living_street" v="yes"/>
  </way>
  <way id="109899979" version="1" timestamp="2011-04-23T18:21:14Z" uid="115477" user="wowik" changeset="7946014">
    <nd ref="1154881140"/>
    <nd ref="757379982"/>
    <nd ref="757379983"/>
    <nd ref="1252681106"/>
    <nd ref="1135477183"/>
    <tag k="highway" v="service"/>
    <tag k="living_street" v="yes"/>
  </way>
  <way id="109899980" version="1" timestamp="2011-04-23T18:21:14Z" uid="115477" user="wowik" changeset="7946014">
    <nd ref="1154881168"/>
    <nd ref="1154881099"/>
    <tag k="highway" v="service"/>
    <tag k="living_street" v="yes"/>
  </way>
</osm>
