<?xml version='1.0' encoding='UTF-8'?>
<osm version="0.6" generator="libosmium/2.20.0">
  <way id="10996002" version="6" timestamp="2009-11-10T13:41:48Z" uid="23543" user="jkjk" changeset="3082104">
    <nd ref="97952104"/>
    <nd ref="97952151"/>
    <nd ref="97951610"/>
    <tag k="highway" v="tertiary"/>
    <tag k="kct_blue" v="major"/>
    <tag k="kct_red" v="major"/>
    <tag k="name" v="Černošická"/>
    <tag k="ref" v="1158"/>
  </way>
  <way id="10996652" version="10" timestamp="2011-01-29T20:18:37Z" uid="33382" user="de_muur" changeset="7126816">
    <nd ref="33601168"/>
    <nd ref="256128415"/>
    <nd ref="256128414"/>
    <nd ref="97955461"/>
    <nd ref="107633496"/>
    <nd ref="97955467"/>
    <nd ref="256128429"/>
    <tag k="highway" v="secondary"/>
    <tag k="name" v="Holtumer Hauptstraße"/>
    <tag k="ref" v="L 202"/>
    <tag k="surface" v="paved"/>
  </way>
  <way id="10996652" version="11" timestamp="2011-01-29T20:25:19Z" uid="33382" user="de_muur" changeset="7126896">
    <nd ref="33601168"/>
    <nd ref="256128415"/>
    <tag k="highway" v="secondary"/>
    <tag k="maxspeed" v="50"/>
    <tag k="name" v="Holtumer Hauptstraße"/>
    <tag k="ref" v="L 202"/>
    <tag k="surface" v="paved"/>
  </way>
  <way id="10996652" version="12" timestamp="2011-02-03T19:44:24Z" uid="33382" user="de_muur" changeset="7177104">
    <nd ref="33601168"/>
    <nd ref="256128415"/>
    <tag k="highway" v="secondary"/>
    <tag k="maxspeed" v="50"/>
    <tag k="name" v="Hustedter Dorfstraße"/>
    <tag k="ref" v="L 202"/>
    <tag k="surface" v="paved"/>
  </way>
  <way id="10996654" version="10" timestamp="2010-07-11T11:32:21Z" uid="33382" user="de_muur" changeset="5189394">
    <nd ref="97955321"/>
    <nd ref="811292843"/>
    <tag k="highway" v="tertiary"/>
    <tag k="maxspeed" v="50"/>
    <tag k="ref" v="K 20"/>
    <tag k="surface" v="paved"/>
  </way>
  <way id="10996654" version="13" timestamp="2011-01-29T20:18:44Z" uid="33382" user="de_muur" changeset="7126816">
    <nd ref="97955321"/>
    <nd ref="1057129652"/>
    <nd ref="811292843"/>
    <tag k="cycleway" v="track"/>
    <tag k="highway" v="tertiary"/>
    <tag k="maxspeed" v="50"/>
    <tag k="name" v="Im Knick"/>
    <tag k="ref" v="K 20"/>
    <tag k="surface" v="paved"/>
  </way>
  <way id="10996659" version="15" timestamp="2010-04-06T19:44:29Z" uid="33382" user="de_muur" changeset="4348125">
    <nd ref="323858763"/>
    <nd ref="489346732"/>
    <nd ref="97955336"/>
    <nd ref="489346756"/>
    <nd ref="269210337"/>
    <nd ref="269210298"/>
    <nd ref="97955341"/>
    <nd ref="324243397"/>
    <nd ref="324243399"/>
    <nd ref="269210316"/>
    <nd ref="97955346"/>
    <nd ref="369693812"/>
    <nd ref="97955350"/>
    <nd ref="324243708"/>
    <nd ref="269210320"/>
    <nd ref="324243709"/>
    <nd ref="97955353"/>
    <nd ref="687010997"/>
    <tag k="highway" v="tertiary"/>
    <tag k="ref" v="K 143"/>
    <tag k="surface" v="paved"/>
  </way>
  <way id="10996659" version="16" timestamp="2010-04-24T09:40:59Z" uid="33382" user="de_muur" changeset="4510311">
    <nd ref="323858763"/>
    <nd ref="489346732"/>
    <nd ref="97955336"/>
    <nd ref="489346756"/>
    <nd ref="269210337"/>
    <nd ref="269210298"/>
    <nd ref="97955341"/>
    <nd ref="324243397"/>
    <nd ref="324243399"/>
    <nd ref="269210316"/>
    <nd ref="97955346"/>
    <nd ref="369693812"/>
    <nd ref="97955350"/>
    <nd ref="324243708"/>
    <nd ref="269210320"/>
    <nd ref="324243709"/>
    <nd ref="97955353"/>
    <tag k="highway" v="tertiary"/>
    <tag k="ref" v="K 143"/>
    <tag k="surface" v="paved"/>
  </way>
  <way id="10996660" version="3" timestamp="2008-04-14T13:46:39Z" uid="33382" user="de_muur" changeset="141778">
    <nd ref="97955370"/>
    <nd ref="97955368"/>
    <nd ref="97955374"/>
    <nd ref="254331562"/>
    <nd ref="254331560"/>
    <nd ref="97955371"/>
    <nd ref="97955384"/>
    <nd ref="257552733"/>
    <nd ref="97955379"/>
    <nd ref="97955388"/>
    <nd ref="31196831"/>
    <tag k="created_by" v="nmea2osm"/>
    <tag k="highway" v="tertiary"/>
  </way>
  <way id="10996660" version="4" timestamp="2008-04-15T16:38:06Z" uid="33382" user="de_muur" changeset="156989">
    <nd ref="97955370"/>
    <nd ref="97955368"/>
    <nd ref="97955374"/>
    <nd ref="254331562"/>
    <nd ref="254331560"/>
    <nd ref="97955371"/>
    <nd ref="97955384"/>
    <nd ref="257745263"/>
    <nd ref="97955379"/>
    <nd ref="97955388"/>
    <nd ref="31196831"/>
    <tag k="created_by" v="nmea2osm"/>
    <tag k="highway" v="tertiary"/>
  </way>
  <way id="10996660" version="17" timestamp="2010-03-23T19:29:13Z" uid="33382" user="de_muur" changeset="4215247">
    <nd ref="97955370"/>
    <nd ref="272265139"/>
    <nd ref="305112244"/>
    <nd ref="272265140"/>
    <nd ref="272265137"/>
    <nd ref="272265135"/>
    <tag k="highway" v="tertiary"/>
    <tag k="maxspeed" v="50"/>
    <tag k="name" v="Thedinghauser Straße"/>
    <tag k="ref" v="K 75"/>
    <tag k="surface" v="paved"/>
  </way>
  <way id="10996664" version="5" timestamp="2008-06-18T05:12:37Z" uid="33382" user="de_muur" changeset="214620">
    <nd ref="97955392"/>
    <nd ref="97955398"/>
    <nd ref="254331558"/>
    <nd ref="97955397"/>
    <nd ref="97955404"/>
    <nd ref="97955407"/>
    <nd ref="97955402"/>
    <tag k="created_by" v="Potlatch 0.7b"/>
    <tag k="highway" v="secondary"/>
  </way>
  <way id="10996664" version="6" timestamp="2008-06-22T18:22:11Z" uid="33382" user="de_muur" changeset="262742">
    <nd ref="97955392"/>
    <nd ref="271975542"/>
    <nd ref="97955398"/>
    <nd ref="254331558"/>
    <nd ref="271975506"/>
    <nd ref="97955397"/>
    <nd ref="97955404"/>
    <nd ref="97955407"/>
    <nd ref="97955402"/>
    <tag k="created_by" v="Potlatch 0.7b"/>
    <tag k="highway" v="secondary"/>
  </way>
  <way id="10996666" version="12" timestamp="2010-06-18T20:25:02Z" uid="33382" user="de_muur" changeset="5019272">
    <nd ref="35146764"/>
    <nd ref="324622384"/>
    <nd ref="324622385"/>
    <nd ref="324622386"/>
    <nd ref="324622387"/>
    <nd ref="600816972"/>
    <nd ref="97955431"/>
    <nd ref="97955436"/>
    <nd ref="297039364"/>
    <nd ref="290791245"/>
    <tag k="highway" v="unclassified"/>
    <tag k="maxspeed" v="50"/>
    <tag k="name" v="Schulstraße"/>
    <tag k="surface" v="paved"/>
  </way>
  <way id="10996666" version="13" timestamp="2010-06-20T18:15:19Z" uid="33382" user="de_muur" changeset="5035666">
    <nd ref="35146764"/>
    <nd ref="324622384"/>
    <nd ref="324622385"/>
    <nd ref="324622386"/>
    <nd ref="324622387"/>
    <nd ref="600816972"/>
    <nd ref="97955431"/>
    <nd ref="97955436"/>
    <nd ref="297039364"/>
    <nd ref="290791245"/>
    <tag k="highway" v="residential"/>
    <tag k="name" v="Schulstraße"/>
    <tag k="surface" v="paved"/>
  </way>
  <way id="10996666" version="14" timestamp="2010-06-24T05:18:52Z" uid="33382" user="de_muur" changeset="5063462">
    <nd ref="35146764"/>
    <nd ref="324622384"/>
    <nd ref="324622385"/>
    <nd ref="324622386"/>
    <nd ref="324622387"/>
    <nd ref="600816972"/>
    <nd ref="97955431"/>
    <nd ref="97955436"/>
    <nd ref="297039364"/>
    <tag k="highway" v="residential"/>
    <tag k="name" v="Schulstraße"/>
    <tag k="surface" v="paved"/>
  </way>
</osm>
