<?xml version='1.0' encoding='UTF-8'?>
<osm version="0.6" generator="libosmium/2.20.0">
  <way id="109973728" version="1" timestamp="2011-04-24T05:34:34Z" uid="7617" user="Franc" changeset="7949355">
    <nd ref="28782893"/>
    <nd ref="12194343"/>
    <tag k="highway" v="secondary"/>
    <tag k="maxspeed" v="50"/>
    <tag k="name" v="Marrickville Road"/>
    <tag k="oneway" v="yes"/>
  </way>
  <way id="109973729" version="1" timestamp="2011-04-24T05:34:34Z" uid="7617" user="Franc" changeset="7949355">
    <nd ref="1239442442"/>
    <nd ref="570578326"/>
    <nd ref="29098523"/>
    <nd ref="994354165"/>
    <nd ref="29098524"/>
    <nd ref="29098525"/>
    <nd ref="1239442461"/>
    <nd ref="570578327"/>
    <nd ref="29098526"/>
    <nd ref="29098527"/>
    <nd ref="29098528"/>
    <nd ref="570578322"/>
    <nd ref="570578321"/>
    <nd ref="29098529"/>
    <nd ref="1239442496"/>
    <nd ref="29098530"/>
    <tag k="highway" v="unclassified"/>
  </way>
  <way id="109973729" version="2" timestamp="2011-06-19T07:37:51Z" uid="7617" user="Franc" changeset="8480726">
    <nd ref="1239442442"/>
    <nd ref="570578326"/>
    <nd ref="29098523"/>
    <nd ref="994354165"/>
    <nd ref="29098524"/>
    <nd ref="29098525"/>
    <nd ref="1239442461"/>
    <nd ref="570578327"/>
    <nd ref="29098526"/>
    <nd ref="29098527"/>
    <nd ref="29098528"/>
    <nd ref="570578322"/>
    <nd ref="570578321"/>
    <nd ref="29098529"/>
    <tag k="highway" v="unclassified"/>
  </way>
  <way id="109973731" version="1" timestamp="2011-04-24T05:34:34Z" uid="7617" user="Franc" changeset="7949355">
    <nd ref="60716739"/>
    <nd ref="60900995"/>
    <nd ref="60716740"/>
    <tag k="highway" v="secondary"/>
    <tag k="maxspeed" v="50"/>
    <tag k="name" v="Marrickville Road"/>
    <tag k="oneway" v="yes"/>
  </way>
  <way id="109973732" version="1" timestamp="2011-04-24T05:34:35Z" uid="7617" user="Franc" changeset="7949355">
    <nd ref="29386899"/>
    <nd ref="60716740"/>
    <tag k="highway" v="residential"/>
    <tag k="maxspeed" v="50"/>
    <tag k="maxspeed:source" v="default residential speed limit in Australia"/>
    <tag k="name" v="Silver Street"/>
  </way>
  <way id="109973734" version="1" timestamp="2011-04-24T05:34:35Z" uid="7617" user="Franc" changeset="7949355">
    <nd ref="1257586612"/>
    <nd ref="1257586566"/>
    <tag k="addr:interpolation" v="even"/>
  </way>
  <way id="109973735" version="1" timestamp="2011-04-24T05:34:35Z" uid="7617" user="Franc" changeset="7949355">
    <nd ref="610199194"/>
    <nd ref="610199186"/>
    <tag k="highway" v="secondary"/>
    <tag k="maxspeed" v="50"/>
    <tag k="name" v="Marrickville Road"/>
    <tag k="oneway" v="yes"/>
  </way>
  <way id="109973736" version="1" timestamp="2011-04-24T05:34:35Z" uid="7617" user="Franc" changeset="7949355">
    <nd ref="28782893"/>
    <nd ref="610199194"/>
    <tag k="highway" v="residential"/>
    <tag k="maxspeed" v="50"/>
    <tag k="maxspeed:source" v="default residential speed limit in Australia"/>
    <tag k="name" v="Despointes Street"/>
  </way>
  <way id="109973738" version="1" timestamp="2011-04-24T05:34:35Z" uid="7617" user="Franc" changeset="7949355">
    <nd ref="610199187"/>
    <nd ref="28782893"/>
    <tag k="highway" v="secondary"/>
    <tag k="maxspeed" v="50"/>
    <tag k="name" v="Marrickville Road"/>
    <tag k="oneway" v="yes"/>
  </way>
  <way id="109973740" version="1" timestamp="2011-04-24T05:34:35Z" uid="7617" user="Franc" changeset="7949355">
    <nd ref="139147497"/>
    <nd ref="139147435"/>
    <nd ref="139147456"/>
    <tag k="highway" v="secondary"/>
    <tag k="maxspeed" v="60"/>
    <tag k="name" v="Bedwin Road"/>
    <tag k="oneway" v="yes"/>
  </way>
  <way id="109973742" version="1" timestamp="2011-04-24T05:34:35Z" uid="7617" user="Franc" changeset="7949355">
    <nd ref="60716738"/>
    <nd ref="60716739"/>
    <tag k="highway" v="secondary"/>
    <tag k="maxspeed" v="50"/>
    <tag k="name" v="Marrickville Road"/>
    <tag k="oneway" v="yes"/>
  </way>
  <way id="109973743" version="1" timestamp="2011-04-24T05:34:36Z" uid="7617" user="Franc" changeset="7949355">
    <nd ref="265080672"/>
    <nd ref="60716659"/>
    <tag k="highway" v="primary"/>
    <tag k="maxspeed" v="60"/>
    <tag k="name" v="Princes Highway"/>
    <tag k="note" v="This is only a primary road, as it is not a metroad."/>
    <tag k="oneway" v="yes"/>
  </way>
  <way id="109973744" version="1" timestamp="2011-04-24T05:34:36Z" uid="7617" user="Franc" changeset="7949355">
    <nd ref="60716737"/>
    <nd ref="289054097"/>
    <nd ref="60716738"/>
    <tag k="highway" v="secondary"/>
    <tag k="maxspeed" v="50"/>
    <tag k="name" v="Marrickville Road"/>
    <tag k="oneway" v="yes"/>
  </way>
  <way id="109973746" version="1" timestamp="2011-04-24T05:34:36Z" uid="7617" user="Franc" changeset="7949355">
    <nd ref="29375825"/>
    <nd ref="60716739"/>
    <tag k="highway" v="residential"/>
    <tag k="maxspeed" v="50"/>
    <tag k="maxspeed:source" v="default residential speed limit in Australia"/>
    <tag k="name" v="Garners Avenue"/>
  </way>
  <way id="109973747" version="1" timestamp="2011-04-24T05:34:36Z" uid="7617" user="Franc" changeset="7949355">
    <nd ref="29376016"/>
    <nd ref="60716749"/>
    <nd ref="85545255"/>
    <nd ref="624903"/>
    <tag k="highway" v="secondary"/>
    <tag k="maxspeed" v="50"/>
    <tag k="name" v="Marrickville Road"/>
    <tag k="oneway" v="yes"/>
  </way>
  <way id="109973748" version="1" timestamp="2011-04-24T05:34:36Z" uid="7617" user="Franc" changeset="7949355">
    <nd ref="1257586604"/>
    <nd ref="1257586556"/>
    <nd ref="1257586613"/>
    <nd ref="1257586606"/>
    <nd ref="1257586604"/>
    <tag k="building" v="yes"/>
  </way>
  <way id="109973750" version="1" timestamp="2011-04-24T05:34:36Z" uid="7617" user="Franc" changeset="7949355">
    <nd ref="1257586570"/>
    <nd ref="1257586533"/>
    <tag k="addr:interpolation" v="even"/>
  </way>
  <way id="109973751" version="1" timestamp="2011-04-24T05:34:36Z" uid="7617" user="Franc" changeset="7949355">
    <nd ref="610199187"/>
    <nd ref="30460396"/>
    <nd ref="29376113"/>
    <nd ref="29376115"/>
    <nd ref="29376117"/>
    <nd ref="29376112"/>
    <nd ref="29376111"/>
    <tag k="highway" v="residential"/>
    <tag k="maxspeed" v="50"/>
    <tag k="maxspeed:source" v="default residential speed limit in Australia"/>
    <tag k="name" v="Malakoff Street"/>
  </way>
  <way id="109973753" version="1" timestamp="2011-04-24T05:34:37Z" uid="7617" user="Franc" changeset="7949355">
    <nd ref="60716740"/>
    <nd ref="610199195"/>
    <tag k="highway" v="secondary"/>
    <tag k="maxspeed" v="50"/>
    <tag k="name" v="Marrickville Road"/>
    <tag k="oneway" v="yes"/>
  </way>
  <way id="109973754" version="1" timestamp="2011-04-24T05:34:37Z" uid="7617" user="Franc" changeset="7949355">
    <nd ref="29376016"/>
    <nd ref="60716737"/>
    <tag k="highway" v="residential"/>
    <tag k="maxspeed" v="50"/>
    <tag k="maxspeed:source" v="default residential speed limit in Australia"/>
    <tag k="name" v="Frampton Avenue"/>
  </way>
  <way id="109973755" version="1" timestamp="2011-04-24T05:34:37Z" uid="7617" user="Franc" changeset="7949355">
    <nd ref="1257586611"/>
    <nd ref="1257586468"/>
    <tag k="addr:interpolation" v="odd"/>
  </way>
  <way id="109973757" version="1" timestamp="2011-04-24T05:34:37Z" uid="7617" user="Franc" changeset="7949355">
    <nd ref="623046706"/>
    <nd ref="265080672"/>
    <tag k="highway" v="residential"/>
    <tag k="maxspeed" v="50"/>
    <tag k="maxspeed:source" v="default residential speed limit in Australia"/>
    <tag k="name" v="Park Road"/>
    <tag k="source:name" v="survey"/>
  </way>
  <way id="109973759" version="1" timestamp="2011-04-24T05:34:37Z" uid="7617" user="Franc" changeset="7949355">
    <nd ref="29386899"/>
    <nd ref="29375825"/>
    <tag k="highway" v="secondary"/>
    <tag k="maxspeed" v="50"/>
    <tag k="name" v="Marrickville Road"/>
    <tag k="oneway" v="yes"/>
  </way>
  <way id="109973760" version="1" timestamp="2011-04-24T05:34:37Z" uid="7617" user="Franc" changeset="7949355">
    <nd ref="60716738"/>
    <nd ref="29096837"/>
    <tag k="highway" v="residential"/>
    <tag k="maxspeed" v="50"/>
    <tag k="maxspeed:source" v="default residential speed limit in Australia"/>
    <tag k="name" v="Gladstone Street"/>
  </way>
  <way id="109973762" version="1" timestamp="2011-04-24T05:34:37Z" uid="7617" user="Franc" changeset="7949355">
    <nd ref="620396431"/>
    <nd ref="139147497"/>
    <tag k="highway" v="unclassified"/>
    <tag k="oneway" v="yes"/>
    <tag k="source" v="nearmap"/>
  </way>
  <way id="109973764" version="1" timestamp="2011-04-24T05:34:37Z" uid="7617" user="Franc" changeset="7949355">
    <nd ref="610199195"/>
    <nd ref="12194343"/>
    <tag k="highway" v="secondary"/>
    <tag k="maxspeed" v="50"/>
    <tag k="name" v="Illawarra Road"/>
  </way>
  <way id="109973765" version="1" timestamp="2011-04-24T05:34:38Z" uid="7617" user="Franc" changeset="7949355">
    <nd ref="1257586600"/>
    <nd ref="1257586530"/>
    <nd ref="1257586493"/>
    <nd ref="1257586599"/>
    <nd ref="1257586467"/>
    <nd ref="1257586479"/>
    <nd ref="1257586590"/>
    <nd ref="1257586531"/>
    <nd ref="1257586593"/>
    <nd ref="1257586580"/>
    <nd ref="1257586500"/>
    <nd ref="1257586600"/>
    <tag k="landuse" v="greenfield"/>
    <tag k="name" v="Quarry Apartments"/>
  </way>
  <way id="109973767" version="1" timestamp="2011-04-24T05:34:38Z" uid="7617" user="Franc" changeset="7949355">
    <nd ref="623046706"/>
    <nd ref="15169834"/>
    <tag k="highway" v="primary"/>
    <tag k="maxspeed" v="60"/>
    <tag k="name" v="Princes Highway"/>
    <tag k="oneway" v="yes"/>
  </way>
  <way id="109973768" version="1" timestamp="2011-04-24T05:34:38Z" uid="7617" user="Franc" changeset="7949355">
    <nd ref="1245093283"/>
    <nd ref="139147264"/>
    <nd ref="1245093317"/>
    <nd ref="26361947"/>
    <nd ref="648872413"/>
    <tag k="highway" v="secondary"/>
    <tag k="maxspeed" v="60"/>
    <tag k="name" v="Edgeware Road"/>
    <tag k="oneway" v="yes"/>
  </way>
  <way id="109973770" version="1" timestamp="2011-04-24T05:34:38Z" uid="7617" user="Franc" changeset="7949355">
    <nd ref="60900996"/>
    <nd ref="17925787"/>
    <tag k="highway" v="secondary"/>
    <tag k="name" v="Marrickville Road"/>
  </way>
  <way id="109973771" version="1" timestamp="2011-04-24T05:34:38Z" uid="7617" user="Franc" changeset="7949355">
    <nd ref="1257586454"/>
    <nd ref="1147200323"/>
    <tag k="addr:interpolation" v="even"/>
  </way>
  <way id="109973773" version="1" timestamp="2011-04-24T05:34:38Z" uid="7617" user="Franc" changeset="7949355">
    <nd ref="265080672"/>
    <nd ref="1257586545"/>
    <nd ref="265080673"/>
    <tag k="highway" v="residential"/>
    <tag k="maxspeed" v="50"/>
    <tag k="maxspeed:source" v="default residential speed limit in Australia"/>
    <tag k="name" v="Park Road"/>
    <tag k="source:name" v="survey"/>
  </way>
  <way id="109973773" version="2" timestamp="2011-06-13T13:04:32Z" uid="7617" user="Franc" changeset="8426070">
    <nd ref="265080672"/>
    <nd ref="265080673"/>
    <tag k="highway" v="residential"/>
    <tag k="maxspeed" v="50"/>
    <tag k="maxspeed:source" v="default residential speed limit in Australia"/>
    <tag k="name" v="Park Road"/>
    <tag k="source:name" v="survey"/>
  </way>
  <way id="109973774" version="1" timestamp="2011-04-24T05:34:39Z" uid="7617" user="Franc" changeset="7949355">
    <nd ref="60716750"/>
    <nd ref="624903"/>
    <tag k="highway" v="secondary"/>
    <tag k="lcn_ref" v="L12"/>
    <tag k="maxspeed" v="60"/>
    <tag k="name" v="Victoria Road"/>
  </way>
  <way id="109973776" version="1" timestamp="2011-04-24T05:34:39Z" uid="7617" user="Franc" changeset="7949355">
    <nd ref="620396431"/>
    <nd ref="139147197"/>
    <nd ref="1245093387"/>
    <nd ref="570578325"/>
    <nd ref="26361949"/>
    <nd ref="139147120"/>
    <nd ref="26361948"/>
    <nd ref="1245093283"/>
    <tag k="highway" v="secondary"/>
    <tag k="maxspeed" v="60"/>
    <tag k="name" v="Bedwin Road"/>
    <tag k="oneway" v="yes"/>
  </way>
  <way id="109973778" version="1" timestamp="2011-04-24T05:34:39Z" uid="7617" user="Franc" changeset="7949355">
    <nd ref="139147557"/>
    <nd ref="139147578"/>
    <nd ref="139147412"/>
    <nd ref="139147514"/>
    <nd ref="139147497"/>
    <tag k="highway" v="secondary"/>
    <tag k="maxspeed" v="60"/>
    <tag k="name" v="Bedwin Road"/>
    <tag k="oneway" v="yes"/>
  </way>
  <way id="109973780" version="1" timestamp="2011-04-24T05:34:39Z" uid="7617" user="Franc" changeset="7949355">
    <nd ref="1257586556"/>
    <nd ref="1257586469"/>
    <nd ref="1257586542"/>
    <nd ref="1257586602"/>
    <nd ref="1257586613"/>
    <nd ref="1257586556"/>
    <tag k="building" v="yes"/>
  </way>
  <way id="109973781" version="1" timestamp="2011-04-24T05:34:39Z" uid="7617" user="Franc" changeset="7949355">
    <nd ref="610199186"/>
    <nd ref="610199185"/>
    <nd ref="12194346"/>
    <tag k="highway" v="secondary"/>
    <tag k="maxspeed" v="50"/>
    <tag k="name" v="Marrickville Road"/>
    <tag k="oneway" v="yes"/>
  </way>
  <way id="109973783" version="1" timestamp="2011-04-24T05:34:39Z" uid="7617" user="Franc" changeset="7949355">
    <nd ref="29375825"/>
    <nd ref="29096837"/>
    <tag k="highway" v="secondary"/>
    <tag k="maxspeed" v="50"/>
    <tag k="name" v="Marrickville Road"/>
    <tag k="oneway" v="yes"/>
  </way>
</osm>
