<?xml version='1.0' encoding='UTF-8'?>
<osm version="0.6" generator="libosmium/2.20.0">
  <way id="11002432" version="4" timestamp="2008-08-14T21:18:15Z" uid="6975" user="ulfl" changeset="264731">
    <nd ref="97991243"/>
    <nd ref="97991246"/>
    <tag k="bicycle" v="no"/>
    <tag k="foot" v="no"/>
    <tag k="highway" v="track"/>
    <tag k="motorcar" v="no"/>
    <tag k="tracktype" v="grade3"/>
  </way>
  <way id="11002586" version="3" timestamp="2008-05-29T17:57:39Z" uid="40373" user="Daguru" changeset="549382">
    <nd ref="61147425"/>
    <nd ref="97992384"/>
    <nd ref="97992392"/>
    <nd ref="97992387"/>
    <nd ref="97992394"/>
    <tag k="created_by" v="dk3qu"/>
    <tag k="highway" v="unclassified"/>
    <tag k="name" v="Prozessionsweg"/>
  </way>
  <way id="11002594" version="2" timestamp="2008-05-28T20:37:37Z" uid="40373" user="Daguru" changeset="542660">
    <nd ref="97992396"/>
    <nd ref="34064142"/>
    <tag k="created_by" v="dk3qu"/>
    <tag k="highway" v="unclassified"/>
    <tag k="name" v="Prozessionsweg"/>
  </way>
  <way id="11002594" version="3" timestamp="2008-05-28T21:12:49Z" uid="40373" user="Daguru" changeset="542660">
    <nd ref="97992396"/>
    <nd ref="34064142"/>
    <tag k="created_by" v="dk3qu"/>
    <tag k="highway" v="unclassified"/>
    <tag k="name" v="Prozessionsweg"/>
  </way>
  <way id="11002729" version="2" timestamp="2008-07-06T01:00:52Z" uid="6975" user="ulfl" changeset="404092">
    <nd ref="97993177"/>
    <nd ref="97993180"/>
    <nd ref="97993183"/>
    <nd ref="97993186"/>
    <nd ref="97993189"/>
    <tag k="highway" v="residential"/>
    <tag k="maxspeed" v="50"/>
    <tag k="name" v="St책nggatan"/>
  </way>
  <way id="11002731" version="2" timestamp="2008-07-06T01:00:49Z" uid="6975" user="ulfl" changeset="404092">
    <nd ref="97993183"/>
    <nd ref="97993190"/>
    <nd ref="97993191"/>
    <nd ref="97993192"/>
    <nd ref="97993193"/>
    <nd ref="97993194"/>
    <nd ref="97993195"/>
    <nd ref="97993196"/>
    <nd ref="97993198"/>
    <nd ref="97993190"/>
    <tag k="highway" v="residential"/>
    <tag k="maxspeed" v="50"/>
    <tag k="name" v="Tumgatan"/>
  </way>
  <way id="11002733" version="2" timestamp="2008-07-06T01:00:48Z" uid="6975" user="ulfl" changeset="404092">
    <nd ref="97993180"/>
    <nd ref="97993200"/>
    <nd ref="97993201"/>
    <nd ref="97993202"/>
    <nd ref="97993204"/>
    <nd ref="97993205"/>
    <nd ref="97993206"/>
    <nd ref="97993207"/>
    <nd ref="97993209"/>
    <nd ref="97993210"/>
    <nd ref="97993200"/>
    <tag k="highway" v="residential"/>
    <tag k="maxspeed" v="50"/>
    <tag k="name" v="Snesgatan"/>
  </way>
  <way id="11002735" version="4" timestamp="2008-07-06T01:00:48Z" uid="6975" user="ulfl" changeset="404092">
    <nd ref="97993221"/>
    <nd ref="97993220"/>
    <nd ref="97993219"/>
    <nd ref="248005489"/>
    <nd ref="248005313"/>
    <nd ref="97993217"/>
    <nd ref="97993211"/>
    <tag k="highway" v="residential"/>
    <tag k="maxspeed" v="50"/>
    <tag k="name" v="Plogstigen"/>
  </way>
  <way id="11002738" version="2" timestamp="2008-07-06T01:00:35Z" uid="6975" user="ulfl" changeset="404092">
    <nd ref="97993211"/>
    <nd ref="97993224"/>
    <nd ref="97993225"/>
    <nd ref="97993226"/>
    <nd ref="97993228"/>
    <nd ref="97993231"/>
    <tag k="highway" v="residential"/>
    <tag k="maxspeed" v="50"/>
    <tag k="name" v="Plogstigen"/>
  </way>
  <way id="11002742" version="2" timestamp="2008-07-06T01:00:32Z" uid="6975" user="ulfl" changeset="404092">
    <nd ref="97993231"/>
    <nd ref="97993237"/>
    <nd ref="97993240"/>
    <tag k="highway" v="residential"/>
    <tag k="maxspeed" v="50"/>
    <tag k="name" v="Transtigen"/>
  </way>
  <way id="11002744" version="2" timestamp="2008-07-06T01:00:39Z" uid="6975" user="ulfl" changeset="404092">
    <nd ref="97993231"/>
    <nd ref="97993241"/>
    <nd ref="97993243"/>
    <nd ref="97993245"/>
    <nd ref="97993246"/>
    <nd ref="97993248"/>
    <tag k="highway" v="residential"/>
    <tag k="maxspeed" v="50"/>
    <tag k="name" v="Spovstigen"/>
  </way>
  <way id="11002746" version="2" timestamp="2008-07-06T01:00:39Z" uid="6975" user="ulfl" changeset="404092">
    <nd ref="97993240"/>
    <nd ref="97993250"/>
    <nd ref="97993255"/>
    <tag k="highway" v="residential"/>
    <tag k="maxspeed" v="50"/>
    <tag k="name" v="J채garv채gen"/>
  </way>
  <way id="11002747" version="2" timestamp="2008-07-06T01:00:39Z" uid="6975" user="ulfl" changeset="404092">
    <nd ref="97993255"/>
    <nd ref="97993260"/>
    <nd ref="97993261"/>
    <tag k="highway" v="residential"/>
    <tag k="maxspeed" v="50"/>
    <tag k="name" v="H채gerstigen"/>
  </way>
</osm>
