<?xml version='1.0' encoding='UTF-8'?>
<osm version="0.6" generator="libosmium/2.20.0">
  <way id="11016055" version="6" timestamp="2008-05-09T22:56:27Z" uid="36809" user="pfoten_weg_!_" changeset="380779">
    <nd ref="68345811"/>
    <nd ref="263058973"/>
    <nd ref="98095375"/>
    <nd ref="167802779"/>
    <tag k="created_by" v="Potlatch 0.9"/>
    <tag k="highway" v="residential"/>
    <tag k="name" v="Einhornallee"/>
    <tag k="oneway" v="yes"/>
  </way>
  <way id="11016055" version="9" timestamp="2009-09-04T21:18:29Z" uid="36809" user="pfoten_weg_!_" changeset="2374562">
    <nd ref="68345811"/>
    <nd ref="263058973"/>
    <nd ref="98095375"/>
    <nd ref="167802779"/>
    <tag k="highway" v="residential"/>
    <tag k="maxspeed" v="30"/>
    <tag k="name" v="Einhornallee"/>
    <tag k="oneway" v="yes"/>
  </way>
  <way id="11016654" version="2" timestamp="2008-06-14T04:57:26Z" uid="40373" user="Daguru" changeset="155121">
    <nd ref="98131324"/>
    <nd ref="98131327"/>
    <nd ref="30136117"/>
    <tag k="bicycle" v="yes"/>
    <tag k="created_by" v="dk3qu"/>
    <tag k="highway" v="footway"/>
    <tag k="name" v="Horneburger Straße"/>
  </way>
  <way id="11016662" version="2" timestamp="2008-06-14T04:57:25Z" uid="40373" user="Daguru" changeset="155121">
    <nd ref="98131351"/>
    <nd ref="98131327"/>
    <nd ref="98131352"/>
    <tag k="created_by" v="dk3qu"/>
    <tag k="highway" v="secondary_link"/>
    <tag k="name" v="Horneburger Straße"/>
    <tag k="oneway" v="yes"/>
  </way>
</osm>
