<?xml version='1.0' encoding='UTF-8'?>
<osm version="0.6" generator="libosmium/2.20.0">
  <way id="110417852" version="1" timestamp="2011-04-26T16:40:29Z" uid="9581" user="Lobelt" changeset="7976729">
    <nd ref="78415492"/>
    <nd ref="78415493"/>
    <nd ref="78415495"/>
    <nd ref="78415498"/>
    <tag k="highway" v="secondary"/>
    <tag k="ref" v="L 431"/>
  </way>
  <way id="110417853" version="1" timestamp="2011-04-26T16:40:29Z" uid="9581" user="Lobelt" changeset="7976729">
    <nd ref="78426393"/>
    <nd ref="319531535"/>
    <nd ref="78424695"/>
    <tag k="highway" v="secondary"/>
    <tag k="name" v="Wormser Straße"/>
    <tag k="ref" v="L 431"/>
  </way>
  <way id="110417855" version="1" timestamp="2011-04-26T16:40:29Z" uid="9581" user="Lobelt" changeset="7976729">
    <nd ref="1260972907"/>
    <nd ref="78429230"/>
    <nd ref="78426390"/>
    <nd ref="78427447"/>
    <nd ref="78426391"/>
    <nd ref="78426392"/>
    <nd ref="319531534"/>
    <nd ref="78426393"/>
    <tag k="highway" v="secondary"/>
    <tag k="name" v="Wormser Straße"/>
    <tag k="ref" v="L 431"/>
  </way>
  <way id="110417857" version="1" timestamp="2011-04-26T16:40:30Z" uid="9581" user="Lobelt" changeset="7976729">
    <nd ref="263046589"/>
    <nd ref="78415503"/>
    <nd ref="344209946"/>
    <nd ref="263047159"/>
    <tag k="highway" v="secondary"/>
    <tag k="name" v="Parkstraße"/>
    <tag k="ref" v="L 431"/>
  </way>
</osm>
