<?xml version='1.0' encoding='UTF-8'?>
<osm version="0.6" generator="libosmium/2.20.0">
  <way id="11048037" version="3" timestamp="2009-11-09T08:54:05Z" uid="4467" user="Rosscoe" changeset="3071495">
    <nd ref="98500619"/>
    <nd ref="98499709"/>
    <nd ref="98498131"/>
    <tag k="highway" v="residential"/>
    <tag k="name" v="Macartny Avenue"/>
  </way>
  <way id="11048037" version="4" timestamp="2010-07-09T05:32:38Z" uid="74617" user="JohnSmith" changeset="5170972">
    <nd ref="98500619"/>
    <nd ref="98499709"/>
    <nd ref="98498131"/>
    <tag k="highway" v="residential"/>
    <tag k="maxspeed" v="50"/>
    <tag k="maxspeed:source" v="default residential speed limit in Australia"/>
    <tag k="name" v="Macartny Avenue"/>
  </way>
  <way id="11048037" version="5" timestamp="2010-07-09T05:40:08Z" uid="74617" user="JohnSmith" changeset="5170972">
    <nd ref="98500619"/>
    <nd ref="98499709"/>
    <nd ref="98498131"/>
    <tag k="highway" v="residential"/>
    <tag k="maxspeed" v="50"/>
    <tag k="maxspeed:source" v="default residential speed limit in Australia"/>
    <tag k="name" v="Macartny Avenue"/>
  </way>
  <way id="11048068" version="5" timestamp="2010-07-09T05:27:41Z" uid="74617" user="JohnSmith" changeset="5170972">
    <nd ref="98500838"/>
    <nd ref="72519050"/>
    <nd ref="98498801"/>
    <tag k="highway" v="residential"/>
    <tag k="maxspeed" v="50"/>
    <tag k="maxspeed:source" v="default residential speed limit in Australia"/>
    <tag k="name" v="Allardyce Avenue"/>
  </way>
  <way id="11048068" version="6" timestamp="2010-07-09T05:35:32Z" uid="74617" user="JohnSmith" changeset="5170972">
    <nd ref="98500838"/>
    <nd ref="72519050"/>
    <nd ref="98498801"/>
    <tag k="highway" v="residential"/>
    <tag k="maxspeed" v="50"/>
    <tag k="maxspeed:source" v="default residential speed limit in Australia"/>
    <tag k="name" v="Allardyce Avenue"/>
  </way>
  <way id="11048171" version="5" timestamp="2009-11-09T08:54:06Z" uid="4467" user="Rosscoe" changeset="3071495">
    <nd ref="98498795"/>
    <nd ref="98498145"/>
    <nd ref="98499736"/>
    <nd ref="98501670"/>
    <tag k="highway" v="residential"/>
    <tag k="name" v="Dodds Avenue"/>
  </way>
  <way id="11048171" version="6" timestamp="2010-07-09T05:27:40Z" uid="74617" user="JohnSmith" changeset="5170972">
    <nd ref="98498795"/>
    <nd ref="98498145"/>
    <nd ref="98499736"/>
    <nd ref="98501670"/>
    <tag k="highway" v="residential"/>
    <tag k="maxspeed" v="50"/>
    <tag k="maxspeed:source" v="default residential speed limit in Australia"/>
    <tag k="name" v="Dodds Avenue"/>
  </way>
  <way id="11048171" version="7" timestamp="2010-07-09T05:35:32Z" uid="74617" user="JohnSmith" changeset="5170972">
    <nd ref="98498795"/>
    <nd ref="98498145"/>
    <nd ref="98499736"/>
    <nd ref="98501670"/>
    <tag k="highway" v="residential"/>
    <tag k="maxspeed" v="50"/>
    <tag k="maxspeed:source" v="default residential speed limit in Australia"/>
    <tag k="name" v="Dodds Avenue"/>
  </way>
  <way id="11048214" version="5" timestamp="2010-07-09T05:30:35Z" uid="74617" user="JohnSmith" changeset="5170972">
    <nd ref="98498806"/>
    <nd ref="98498140"/>
    <nd ref="98499729"/>
    <nd ref="98502075"/>
    <nd ref="131709219"/>
    <nd ref="131709557"/>
    <nd ref="131709248"/>
    <tag k="highway" v="residential"/>
    <tag k="maxspeed" v="50"/>
    <tag k="maxspeed:source" v="default residential speed limit in Australia"/>
    <tag k="name" v="Havelock Avenue"/>
  </way>
  <way id="11048214" version="6" timestamp="2010-07-09T05:38:10Z" uid="74617" user="JohnSmith" changeset="5170972">
    <nd ref="98498806"/>
    <nd ref="98498140"/>
    <nd ref="98499729"/>
    <nd ref="98502075"/>
    <nd ref="131709219"/>
    <nd ref="131709557"/>
    <nd ref="131709248"/>
    <tag k="highway" v="residential"/>
    <tag k="maxspeed" v="50"/>
    <tag k="maxspeed:source" v="default residential speed limit in Australia"/>
    <tag k="name" v="Havelock Avenue"/>
  </way>
  <way id="11048266" version="1" timestamp="2007-11-05T04:27:35Z" uid="7617" user="Franc" changeset="409392">
    <nd ref="34389361"/>
    <nd ref="98497925"/>
    <nd ref="98497937"/>
    <nd ref="98497942"/>
    <nd ref="29548317"/>
    <nd ref="29548397"/>
    <nd ref="29525866"/>
    <tag k="created_by" v="Potlatch alpha"/>
    <tag k="highway" v="residential"/>
    <tag k="name" v="Mount Street"/>
    <tag k="source:name" v="survey"/>
  </way>
  <way id="11048266" version="2" timestamp="2007-11-05T10:43:39Z" uid="7617" user="Franc" changeset="413403">
    <nd ref="34389361"/>
    <nd ref="98497925"/>
    <nd ref="98497937"/>
    <nd ref="98497942"/>
    <nd ref="29548317"/>
    <nd ref="29548397"/>
    <nd ref="98757296"/>
    <nd ref="29525866"/>
    <tag k="created_by" v="Potlatch alpha"/>
    <tag k="highway" v="residential"/>
    <tag k="name" v="Mount Street"/>
    <tag k="source:name" v="survey"/>
  </way>
  <way id="11048266" version="3" timestamp="2010-07-08T00:57:29Z" uid="74617" user="JohnSmith" changeset="5162525">
    <nd ref="34389361"/>
    <nd ref="98497925"/>
    <nd ref="98497937"/>
    <nd ref="98497942"/>
    <nd ref="29548317"/>
    <nd ref="29548397"/>
    <nd ref="98757296"/>
    <nd ref="29525866"/>
    <tag k="highway" v="residential"/>
    <tag k="maxspeed" v="50"/>
    <tag k="maxspeed:source" v="default residential speed limit in Australia"/>
    <tag k="name" v="Mount Street"/>
    <tag k="source:name" v="survey"/>
  </way>
  <way id="11048266" version="5" timestamp="2011-03-26T07:37:06Z" uid="7617" user="Franc" changeset="7672617">
    <nd ref="34389361"/>
    <nd ref="98497925"/>
    <nd ref="29548317"/>
    <tag k="highway" v="residential"/>
    <tag k="maxspeed" v="50"/>
    <tag k="maxspeed:source" v="default residential speed limit in Australia"/>
    <tag k="name" v="Mount Street"/>
    <tag k="source:name" v="survey"/>
  </way>
  <way id="11048269" version="1" timestamp="2007-11-05T04:27:35Z" uid="7617" user="Franc" changeset="409392">
    <nd ref="29525948"/>
    <nd ref="29525949"/>
    <nd ref="29525950"/>
    <tag k="created_by" v="Potlatch alpha"/>
    <tag k="highway" v="residential"/>
    <tag k="name" v="Ernest Street"/>
    <tag k="source:name" v="survey"/>
  </way>
  <way id="11048269" version="2" timestamp="2007-12-04T10:05:08Z" uid="7617" user="Franc" changeset="73191">
    <nd ref="29525948"/>
    <nd ref="150479311"/>
    <nd ref="29525949"/>
    <nd ref="29525950"/>
    <tag k="created_by" v="Potlatch alpha"/>
    <tag k="highway" v="residential"/>
    <tag k="name" v="Ernest Street"/>
    <tag k="source:name" v="survey"/>
  </way>
  <way id="11048269" version="3" timestamp="2010-05-02T10:49:52Z" uid="7617" user="Franc" changeset="4583441">
    <nd ref="29525948"/>
    <nd ref="150479311"/>
    <nd ref="29525949"/>
    <nd ref="716871574"/>
    <nd ref="29525950"/>
    <tag k="highway" v="residential"/>
    <tag k="name" v="Ernest Street"/>
    <tag k="source:name" v="survey"/>
  </way>
  <way id="11048269" version="4" timestamp="2010-07-08T00:59:39Z" uid="74617" user="JohnSmith" changeset="5162525">
    <nd ref="29525948"/>
    <nd ref="150479311"/>
    <nd ref="29525949"/>
    <nd ref="716871574"/>
    <nd ref="29525950"/>
    <tag k="highway" v="residential"/>
    <tag k="maxspeed" v="50"/>
    <tag k="maxspeed:source" v="default residential speed limit in Australia"/>
    <tag k="name" v="Ernest Street"/>
    <tag k="source:name" v="survey"/>
  </way>
  <way id="11048273" version="5" timestamp="2010-07-09T05:32:31Z" uid="74617" user="JohnSmith" changeset="5170972">
    <nd ref="98502463"/>
    <nd ref="98498152"/>
    <nd ref="236079052"/>
    <nd ref="98502630"/>
    <nd ref="98502631"/>
    <nd ref="98502632"/>
    <nd ref="98502633"/>
    <nd ref="98580273"/>
    <nd ref="98580297"/>
    <nd ref="98580312"/>
    <nd ref="72527441"/>
    <tag k="highway" v="residential"/>
    <tag k="maxspeed" v="50"/>
    <tag k="maxspeed:source" v="default residential speed limit in Australia"/>
    <tag k="name" v="Acton Crescent"/>
  </way>
  <way id="11048273" version="6" timestamp="2010-07-09T05:40:01Z" uid="74617" user="JohnSmith" changeset="5170972">
    <nd ref="98502463"/>
    <nd ref="98498152"/>
    <nd ref="236079052"/>
    <nd ref="98502630"/>
    <nd ref="98502631"/>
    <nd ref="98502632"/>
    <nd ref="98502633"/>
    <nd ref="98580273"/>
    <nd ref="98580297"/>
    <nd ref="98580312"/>
    <nd ref="72527441"/>
    <tag k="highway" v="residential"/>
    <tag k="maxspeed" v="50"/>
    <tag k="maxspeed:source" v="default residential speed limit in Australia"/>
    <tag k="name" v="Acton Crescent"/>
  </way>
  <way id="11048672" version="1" timestamp="2007-11-05T04:32:14Z" uid="7617" user="Franc" changeset="409392">
    <nd ref="29525875"/>
    <nd ref="29525876"/>
    <nd ref="98505944"/>
    <nd ref="29525877"/>
    <tag k="created_by" v="Potlatch alpha"/>
    <tag k="highway" v="residential"/>
  </way>
  <way id="11048672" version="2" timestamp="2007-11-05T04:40:07Z" uid="7617" user="Franc" changeset="409392">
    <nd ref="29525875"/>
    <nd ref="29525876"/>
    <nd ref="98505944"/>
    <nd ref="98512412"/>
    <nd ref="29525877"/>
    <tag k="created_by" v="Potlatch alpha"/>
    <tag k="highway" v="secondary"/>
  </way>
  <way id="11048672" version="3" timestamp="2007-11-05T06:22:15Z" uid="7617" user="Franc" changeset="409593">
    <nd ref="29525875"/>
    <nd ref="29525876"/>
    <nd ref="98505944"/>
    <nd ref="98512412"/>
    <nd ref="29525877"/>
    <tag k="created_by" v="Potlatch alpha"/>
    <tag k="highway" v="secondary"/>
    <tag k="name" v="Ferry Street"/>
    <tag k="source:name" v="survey"/>
  </way>
  <way id="11048672" version="4" timestamp="2008-10-19T05:43:01Z" uid="7617" user="Franc" changeset="444494">
    <nd ref="29525875"/>
    <nd ref="29525876"/>
    <nd ref="305556143"/>
    <nd ref="98505944"/>
    <nd ref="305556165"/>
    <nd ref="98512412"/>
    <nd ref="29525877"/>
    <tag k="created_by" v="Potlatch alpha"/>
    <tag k="highway" v="secondary"/>
    <tag k="name" v="Ferry Street"/>
    <tag k="source:name" v="survey"/>
  </way>
  <way id="11048672" version="5" timestamp="2010-09-25T05:00:12Z" uid="7617" user="Franc" changeset="5868095">
    <nd ref="29525875"/>
    <nd ref="924909894"/>
    <nd ref="29525876"/>
    <nd ref="305556143"/>
    <nd ref="98505944"/>
    <nd ref="305556165"/>
    <nd ref="98512412"/>
    <nd ref="924909874"/>
    <nd ref="29525877"/>
    <tag k="highway" v="secondary"/>
    <tag k="name" v="Ferry Street"/>
    <tag k="source:name" v="survey"/>
  </way>
</osm>
