<?xml version='1.0' encoding='UTF-8'?>
<osm version="0.6" generator="libosmium/2.20.0">
  <way id="110586085" version="1" timestamp="2011-04-27T21:11:50Z" uid="88880" user="firsttimelinux" changeset="7989520">
    <nd ref="1262538822"/>
    <nd ref="1262538803"/>
    <tag k="highway" v="residential"/>
    <tag k="name" v="Mattenweg"/>
  </way>
  <way id="110586086" version="1" timestamp="2011-04-27T21:11:50Z" uid="88880" user="firsttimelinux" changeset="7989520">
    <nd ref="410431191"/>
    <nd ref="410431192"/>
    <nd ref="410431193"/>
    <nd ref="410431194"/>
    <nd ref="410431195"/>
    <nd ref="410431196"/>
    <nd ref="410431197"/>
    <nd ref="410435733"/>
    <nd ref="410431198"/>
    <tag k="bicycle" v="yes"/>
    <tag k="highway" v="track"/>
    <tag k="motorcar" v="no"/>
    <tag k="motorcycle" v="no"/>
    <tag k="tracktype" v="grade3"/>
  </way>
  <way id="110586089" version="1" timestamp="2011-04-27T21:11:51Z" uid="88880" user="firsttimelinux" changeset="7989520">
    <nd ref="800201318"/>
    <nd ref="1262538807"/>
    <nd ref="288530522"/>
    <tag k="highway" v="track"/>
    <tag k="mtb:scale" v="0"/>
    <tag k="name" v="Iltenried"/>
    <tag k="surface" v="paved"/>
  </way>
  <way id="110586091" version="1" timestamp="2011-04-27T21:11:51Z" uid="88880" user="firsttimelinux" changeset="7989520">
    <nd ref="296506031"/>
    <nd ref="1038958697"/>
    <nd ref="297035860"/>
    <tag k="highway" v="tertiary"/>
    <tag k="name" v="BÃ¤umlistorkelstrasse"/>
  </way>
  <way id="110586093" version="1" timestamp="2011-04-27T21:11:51Z" uid="88880" user="firsttimelinux" changeset="7989520">
    <nd ref="1262538835"/>
    <nd ref="1262538817"/>
    <nd ref="1262538829"/>
    <nd ref="1262538843"/>
    <nd ref="1262538827"/>
    <tag k="highway" v="residential"/>
    <tag k="name" v="Hohrainweg"/>
  </way>
  <way id="110586095" version="1" timestamp="2011-04-27T21:11:51Z" uid="88880" user="firsttimelinux" changeset="7989520">
    <nd ref="288597953"/>
    <nd ref="288597867"/>
    <nd ref="288597869"/>
    <tag k="highway" v="residential"/>
    <tag k="surface" v="paved"/>
  </way>
  <way id="110586097" version="1" timestamp="2011-04-27T21:11:51Z" uid="88880" user="firsttimelinux" changeset="7989520">
    <nd ref="1262538831"/>
    <nd ref="1262538813"/>
    <nd ref="1262538839"/>
    <nd ref="1262538825"/>
    <nd ref="1262538806"/>
    <tag k="highway" v="residential"/>
    <tag k="name" v="In der Weid"/>
  </way>
  <way id="110586099" version="1" timestamp="2011-04-27T21:11:51Z" uid="88880" user="firsttimelinux" changeset="7989520">
    <nd ref="1262538836"/>
    <nd ref="1262538827"/>
    <tag k="highway" v="track"/>
    <tag k="name" v="Hohrainweg"/>
    <tag k="surface" v="unpaved"/>
  </way>
  <way id="110586100" version="1" timestamp="2011-04-27T21:11:51Z" uid="88880" user="firsttimelinux" changeset="7989520">
    <nd ref="1038961252"/>
    <nd ref="259973613"/>
    <tag k="bridge" v="yes"/>
    <tag k="highway" v="secondary"/>
    <tag k="loc_ref" v="6"/>
    <tag k="name" v="Martinsbruggstrasse"/>
    <tag k="ref" v="445"/>
  </way>
  <way id="110586100" version="2" timestamp="2011-04-27T21:53:20Z" uid="88880" user="firsttimelinux" changeset="7989869">
    <nd ref="1038961252"/>
    <nd ref="259973613"/>
    <tag k="bridge" v="yes"/>
    <tag k="highway" v="secondary"/>
    <tag k="layer" v="1"/>
    <tag k="loc_ref" v="6"/>
    <tag k="name" v="Martinsbruggstrasse"/>
    <tag k="ref" v="445"/>
  </way>
  <way id="110586106" version="1" timestamp="2011-04-27T21:11:52Z" uid="88880" user="firsttimelinux" changeset="7989520">
    <nd ref="1262538829"/>
    <nd ref="1262538810"/>
    <tag k="highway" v="footway"/>
    <tag k="name" v="Paradiesweg"/>
  </way>
  <way id="110586106" version="2" timestamp="2011-05-01T21:53:04Z" uid="88880" user="firsttimelinux" changeset="8026485">
    <nd ref="1262538829"/>
    <nd ref="1262538810"/>
    <nd ref="1269872333"/>
    <nd ref="641898590"/>
    <tag k="highway" v="footway"/>
    <tag k="name" v="Paradiesweg"/>
  </way>
  <way id="110586108" version="1" timestamp="2011-04-27T21:11:52Z" uid="88880" user="firsttimelinux" changeset="7989520">
    <nd ref="272309105"/>
    <nd ref="272309106"/>
    <nd ref="272309107"/>
    <nd ref="272309108"/>
    <nd ref="272308592"/>
    <nd ref="272308593"/>
    <nd ref="272308594"/>
    <nd ref="272308595"/>
    <nd ref="272308596"/>
    <nd ref="272308597"/>
    <nd ref="272308598"/>
    <nd ref="272308599"/>
    <nd ref="272308600"/>
    <nd ref="272308194"/>
    <nd ref="272308195"/>
    <nd ref="272308196"/>
    <nd ref="272308110"/>
    <tag k="highway" v="track"/>
    <tag k="tracktype" v="grade2"/>
  </way>
  <way id="110586112" version="1" timestamp="2011-04-27T21:11:52Z" uid="88880" user="firsttimelinux" changeset="7989520">
    <nd ref="1262538801"/>
    <nd ref="1262538830"/>
    <nd ref="1262538812"/>
    <nd ref="1262538837"/>
    <nd ref="1262538823"/>
    <nd ref="1262538804"/>
    <nd ref="1262538833"/>
    <nd ref="1262538816"/>
    <tag k="highway" v="track"/>
    <tag k="name" v="Brand"/>
    <tag k="surface" v="paved"/>
  </way>
  <way id="110586116" version="1" timestamp="2011-04-27T21:11:52Z" uid="88880" user="firsttimelinux" changeset="7989520">
    <nd ref="410431198"/>
    <nd ref="410431199"/>
    <nd ref="410431200"/>
    <nd ref="410431201"/>
    <tag k="bicycle" v="yes"/>
    <tag k="highway" v="track"/>
    <tag k="motorcar" v="no"/>
    <tag k="motorcycle" v="no"/>
    <tag k="tracktype" v="grade3"/>
  </way>
</osm>
