<?xml version='1.0' encoding='UTF-8'?>
<osm version="0.6" generator="libosmium/2.20.0">
  <way id="11095268" version="2" timestamp="2008-09-16T10:11:41Z" uid="1066" user="pavel" changeset="646258">
    <nd ref="26231252"/>
    <nd ref="26231251"/>
    <nd ref="98909840"/>
    <nd ref="98909844"/>
    <tag k="created_by" v="JOSM"/>
    <tag k="highway" v="residential"/>
    <tag k="name" v="U Královské louky"/>
    <tag k="name:source" v="nameit/uir-adr"/>
  </way>
  <way id="11095270" version="2" timestamp="2008-09-16T10:12:18Z" uid="1066" user="pavel" changeset="646258">
    <nd ref="26231253"/>
    <nd ref="26231254"/>
    <nd ref="98909847"/>
    <tag k="created_by" v="JOSM"/>
    <tag k="highway" v="residential"/>
    <tag k="name" v="Rozkošného"/>
    <tag k="name:source" v="nameit/uir-adr"/>
  </way>
  <way id="11095510" version="2" timestamp="2009-09-26T00:36:35Z" uid="103576" user="DiverCTH" changeset="2631604">
    <nd ref="98847087"/>
    <nd ref="98781257"/>
    <nd ref="98911422"/>
    <tag k="highway" v="residential"/>
    <tag k="name" v="SW 38th Ave"/>
    <tag k="tiger:cfcc" v="A41"/>
    <tag k="tiger:county" v="Marion, FL"/>
    <tag k="tiger:name_base" v="38th"/>
    <tag k="tiger:name_direction_prefix" v="SW"/>
    <tag k="tiger:name_type" v="Ave"/>
    <tag k="tiger:reviewed" v="no"/>
    <tag k="tiger:separated" v="no"/>
    <tag k="tiger:source" v="tiger_import_dch_v0.6_20070809"/>
    <tag k="tiger:tlid" v="116816592:116750223"/>
    <tag k="tiger:upload_uuid" v="bulk_upload.pl-f37aec8d-f52c-4744-8e67-d7f1d870dbd2"/>
  </way>
  <way id="11095990" version="4" timestamp="2010-04-02T18:48:00Z" uid="20587" user="balrog-kun" changeset="4304484">
    <nd ref="53185167"/>
    <nd ref="53185171"/>
    <nd ref="53185172"/>
    <nd ref="53185173"/>
    <nd ref="53185174"/>
    <nd ref="53185175"/>
    <nd ref="53185176"/>
    <nd ref="53185177"/>
    <nd ref="53185178"/>
    <nd ref="98914645"/>
    <nd ref="98914639"/>
    <tag k="highway" v="residential"/>
    <tag k="name" v="24th Court South"/>
  </way>
</osm>
