<?xml version='1.0' encoding='UTF-8'?>
<osm version="0.6" generator="libosmium/2.20.0">
  <way id="11106709" version="6" timestamp="2010-10-10T20:34:18Z" uid="20587" user="balrog-kun" changeset="6006462">
    <nd ref="209094318"/>
    <nd ref="99007386"/>
    <nd ref="99007378"/>
    <nd ref="34537442"/>
    <nd ref="944569500"/>
    <nd ref="31156366"/>
    <tag k="highway" v="service"/>
    <tag k="name" v="Burakowska"/>
    <tag k="oneway" v="yes"/>
  </way>
  <way id="11106709" version="7" timestamp="2010-11-19T00:45:44Z" uid="20587" user="balrog-kun" changeset="6404193">
    <nd ref="209094318"/>
    <nd ref="99007386"/>
    <nd ref="99007378"/>
    <nd ref="34537442"/>
    <nd ref="944569500"/>
    <nd ref="31156366"/>
    <tag k="highway" v="service"/>
    <tag k="lanes" v="1"/>
    <tag k="name" v="Burakowska"/>
    <tag k="oneway" v="yes"/>
    <tag k="wikipedia" v="pl:Ulica Burakowska w Warszawie"/>
  </way>
  <way id="11106709" version="8" timestamp="2010-12-23T23:52:10Z" uid="20587" user="balrog-kun" changeset="6750847">
    <nd ref="209094318"/>
    <nd ref="1060412216"/>
    <nd ref="99007386"/>
    <nd ref="99007378"/>
    <nd ref="34537442"/>
    <nd ref="944569500"/>
    <nd ref="31156366"/>
    <tag k="highway" v="service"/>
    <tag k="lanes" v="1"/>
    <tag k="name" v="Burakowska"/>
    <tag k="oneway" v="yes"/>
    <tag k="wikipedia" v="pl:Ulica Burakowska w Warszawie"/>
  </way>
</osm>
