<?xml version='1.0' encoding='UTF-8'?>
<osm version="0.6" generator="libosmium/2.20.0">
  <way id="111303445" version="1" timestamp="2011-05-01T07:51:36Z" uid="74617" user="JohnSmith" changeset="8018406">
    <nd ref="1268460750"/>
    <nd ref="1268460793"/>
    <nd ref="1268460771"/>
    <nd ref="1268460745"/>
    <nd ref="1268460788"/>
    <tag k="highway" v="unclassified"/>
    <tag k="name" v="Bolands Lane"/>
    <tag k="source" v="survey"/>
    <tag k="surface" v="paved"/>
  </way>
  <way id="111303448" version="1" timestamp="2011-05-01T07:51:36Z" uid="74617" user="JohnSmith" changeset="8018406">
    <nd ref="1268460774"/>
    <nd ref="1268460805"/>
    <nd ref="1268460780"/>
    <nd ref="1268460756"/>
    <nd ref="1268460792"/>
    <nd ref="1268460776"/>
    <nd ref="1268460752"/>
    <nd ref="1268460789"/>
    <nd ref="1268460763"/>
    <tag k="highway" v="residential"/>
    <tag k="name" v="Tom&apos;s Drive"/>
    <tag k="source" v="survey"/>
    <tag k="surface" v="paved"/>
  </way>
  <way id="111303450" version="1" timestamp="2011-05-01T07:51:36Z" uid="74617" user="JohnSmith" changeset="8018406">
    <nd ref="1268460791"/>
    <nd ref="1268460784"/>
    <nd ref="1268460761"/>
    <nd ref="1268460804"/>
    <nd ref="1268460778"/>
    <nd ref="1268460795"/>
    <nd ref="1268460765"/>
    <nd ref="1268460806"/>
    <nd ref="1268460782"/>
    <nd ref="1268460758"/>
    <tag k="highway" v="unclassified"/>
    <tag k="name" v="Taylor Avenue"/>
    <tag k="source" v="survey"/>
    <tag k="surface" v="paved"/>
  </way>
  <way id="111303454" version="1" timestamp="2011-05-01T07:51:37Z" uid="74617" user="JohnSmith" changeset="8018406">
    <nd ref="1268460767"/>
    <nd ref="1268460748"/>
    <tag k="highway" v="residential"/>
    <tag k="maxspeed" v="50"/>
    <tag k="name" v="Howard Street"/>
    <tag k="source" v="survey"/>
    <tag k="surface" v="gravel"/>
  </way>
  <way id="111303456" version="1" timestamp="2011-05-01T07:51:37Z" uid="74617" user="JohnSmith" changeset="8018406">
    <nd ref="1268460790"/>
    <nd ref="1268460760"/>
    <nd ref="1268460797"/>
    <nd ref="1268460775"/>
    <nd ref="1268460769"/>
    <nd ref="1268460750"/>
    <nd ref="1268460754"/>
    <tag k="highway" v="unclassified"/>
    <tag k="name" v="Brosnan&apos;s Lane"/>
    <tag k="source" v="survey"/>
    <tag k="surface" v="paved"/>
  </way>
  <way id="111303456" version="2" timestamp="2011-05-01T09:49:01Z" uid="74617" user="JohnSmith" changeset="8019281">
    <nd ref="1268460790"/>
    <nd ref="1268460760"/>
    <nd ref="1268460797"/>
    <nd ref="1268460775"/>
    <nd ref="1268460769"/>
    <nd ref="1268460750"/>
    <nd ref="1268460754"/>
    <tag k="highway" v="unclassified"/>
    <tag k="name" v="Brosnan&apos;s Lane"/>
    <tag k="source" v="survey"/>
    <tag k="surface" v="paved"/>
  </way>
</osm>
