<?xml version='1.0' encoding='UTF-8'?>
<osm version="0.6" generator="libosmium/2.20.0">
  <way id="111483205" version="1" timestamp="2011-05-02T06:42:27Z" uid="74617" user="JohnSmith" changeset="8028022">
    <nd ref="1270056259"/>
    <nd ref="1270056255"/>
    <nd ref="1270056270"/>
    <nd ref="1270056253"/>
    <tag k="highway" v="trunk"/>
    <tag k="maxspeed" v="60"/>
    <tag k="name" v="Church Street"/>
    <tag k="oneway" v="yes"/>
    <tag k="source" v="survey"/>
  </way>
  <way id="111483206" version="1" timestamp="2011-05-02T06:42:28Z" uid="74617" user="JohnSmith" changeset="8028022">
    <nd ref="1270056259"/>
    <nd ref="1269996576"/>
    <nd ref="323772747"/>
    <tag k="highway" v="trunk"/>
    <tag k="maxspeed" v="80"/>
    <tag k="name" v="Church Street"/>
    <tag k="source" v="survey"/>
  </way>
  <way id="111483207" version="1" timestamp="2011-05-02T06:42:28Z" uid="74617" user="JohnSmith" changeset="8028022">
    <nd ref="1270056257"/>
    <nd ref="1270056268"/>
    <tag k="highway" v="service"/>
    <tag k="name" v="Dunn Avenue"/>
    <tag k="source" v="survey"/>
    <tag k="surface" v="unpaved"/>
  </way>
  <way id="111483208" version="1" timestamp="2011-05-02T06:42:28Z" uid="74617" user="JohnSmith" changeset="8028022">
    <nd ref="1270027470"/>
    <nd ref="1270006088"/>
    <nd ref="276834360"/>
    <nd ref="1270006076"/>
    <nd ref="276834946"/>
    <nd ref="1270006078"/>
    <nd ref="1133645093"/>
    <nd ref="397794274"/>
    <nd ref="260309441"/>
    <tag k="highway" v="trunk"/>
    <tag k="maxspeed" v="60"/>
    <tag k="name" v="Church Street"/>
    <tag k="oneway" v="yes"/>
    <tag k="source" v="survey"/>
  </way>
  <way id="111483208" version="2" timestamp="2011-05-02T07:32:30Z" uid="74617" user="JohnSmith" changeset="8028272">
    <nd ref="1270027470"/>
    <nd ref="1270006088"/>
    <nd ref="276834360"/>
    <nd ref="1270006076"/>
    <nd ref="276834946"/>
    <nd ref="1270006078"/>
    <nd ref="1133645093"/>
    <nd ref="397794274"/>
    <nd ref="1270084422"/>
    <tag k="highway" v="trunk"/>
    <tag k="maxspeed" v="60"/>
    <tag k="name" v="Church Street"/>
    <tag k="oneway" v="yes"/>
    <tag k="source" v="survey"/>
  </way>
  <way id="111483209" version="1" timestamp="2011-05-02T06:42:28Z" uid="74617" user="JohnSmith" changeset="8028022">
    <nd ref="1270006121"/>
    <nd ref="1270006123"/>
    <nd ref="1270006076"/>
    <nd ref="1270056269"/>
    <nd ref="1270054330"/>
    <nd ref="1270006091"/>
    <nd ref="1270006108"/>
    <nd ref="1270006075"/>
    <tag k="highway" v="residential"/>
    <tag k="name" v="Cross Street"/>
    <tag k="source" v="survey"/>
    <tag k="surface" v="paved"/>
  </way>
  <way id="111483210" version="1" timestamp="2011-05-02T06:42:28Z" uid="74617" user="JohnSmith" changeset="8028022">
    <nd ref="1270056271"/>
    <nd ref="1270056265"/>
    <nd ref="1270056261"/>
    <nd ref="1270056269"/>
    <nd ref="1270056262"/>
    <nd ref="1270056264"/>
    <nd ref="1270027470"/>
    <tag k="highway" v="trunk"/>
    <tag k="maxspeed" v="60"/>
    <tag k="name" v="Church Street"/>
    <tag k="oneway" v="yes"/>
    <tag k="source" v="survey"/>
  </way>
  <way id="111483211" version="1" timestamp="2011-05-02T06:42:28Z" uid="74617" user="JohnSmith" changeset="8028022">
    <nd ref="1270056253"/>
    <nd ref="1270056256"/>
    <nd ref="1270056258"/>
    <nd ref="1270056254"/>
    <nd ref="1270056266"/>
    <nd ref="1270056271"/>
    <tag k="highway" v="trunk"/>
    <tag k="maxspeed" v="60"/>
    <tag k="name" v="Church Street"/>
    <tag k="oneway" v="yes"/>
    <tag k="source" v="survey"/>
  </way>
  <way id="111483211" version="2" timestamp="2011-05-02T07:32:30Z" uid="74617" user="JohnSmith" changeset="8028272">
    <nd ref="1270056253"/>
    <nd ref="1270056256"/>
    <nd ref="1270084421"/>
    <nd ref="1270084424"/>
    <tag k="highway" v="trunk"/>
    <tag k="maxspeed" v="60"/>
    <tag k="name" v="Church Street"/>
    <tag k="oneway" v="yes"/>
    <tag k="source" v="survey"/>
  </way>
</osm>
