<?xml version='1.0' encoding='UTF-8'?>
<osm version="0.6" generator="libosmium/2.20.0">
  <way id="111487190" version="1" timestamp="2011-05-02T07:32:29Z" uid="74617" user="JohnSmith" changeset="8028272">
    <nd ref="1270056258"/>
    <nd ref="1269996661"/>
    <nd ref="1269996625"/>
    <nd ref="1269996433"/>
    <nd ref="691381910"/>
    <nd ref="1269996555"/>
    <nd ref="1196630017"/>
    <nd ref="260309445"/>
    <nd ref="260309446"/>
    <nd ref="260309447"/>
    <nd ref="260309448"/>
    <nd ref="397800114"/>
    <tag k="highway" v="trunk"/>
    <tag k="maxspeed" v="50"/>
    <tag k="name" v="Meade Street"/>
    <tag k="source" v="survey"/>
  </way>
  <way id="111487193" version="1" timestamp="2011-05-02T07:32:29Z" uid="74617" user="JohnSmith" changeset="8028272">
    <nd ref="1270084420"/>
    <nd ref="1270056254"/>
    <nd ref="1270056266"/>
    <nd ref="1270056271"/>
    <tag k="highway" v="trunk"/>
    <tag k="maxspeed" v="60"/>
    <tag k="name" v="Church Street"/>
    <tag k="oneway" v="yes"/>
    <tag k="source" v="survey"/>
  </way>
  <way id="111487195" version="1" timestamp="2011-05-02T07:32:30Z" uid="74617" user="JohnSmith" changeset="8028272">
    <nd ref="1270084423"/>
    <nd ref="1270084425"/>
    <nd ref="1270056267"/>
    <nd ref="323772843"/>
    <tag k="highway" v="trunk"/>
    <tag k="maxspeed" v="60"/>
    <tag k="name" v="Church Street"/>
    <tag k="oneway" v="yes"/>
    <tag k="source" v="survey"/>
  </way>
</osm>
