<?xml version='1.0' encoding='UTF-8'?>
<osm version="0.6" generator="libosmium/2.20.0">
  <way id="11159129" version="1" timestamp="2007-11-05T22:02:48Z" uid="6975" user="ulfl" changeset="414534">
    <nd ref="73772387"/>
    <nd ref="99365727"/>
    <nd ref="99365732"/>
    <nd ref="99365736"/>
    <tag k="created_by" v="JOSM"/>
  </way>
  <way id="11159129" version="2" timestamp="2007-11-07T20:33:12Z" uid="6975" user="ulfl" changeset="431689">
    <nd ref="73772387"/>
    <nd ref="99365727"/>
    <nd ref="99365732"/>
    <nd ref="99365736"/>
    <nd ref="99365752"/>
    <nd ref="99365757"/>
    <nd ref="99365761"/>
    <nd ref="99365765"/>
    <tag k="created_by" v="JOSM"/>
    <tag k="highway" v="residential"/>
    <tag k="name" v="Siemensstraße"/>
  </way>
  <way id="11159129" version="3" timestamp="2007-11-07T20:36:08Z" uid="6975" user="ulfl" changeset="431689">
    <nd ref="73772387"/>
    <nd ref="101476376"/>
    <nd ref="99365727"/>
    <nd ref="99365732"/>
    <nd ref="99365736"/>
    <nd ref="99365752"/>
    <nd ref="99365757"/>
    <nd ref="99365761"/>
    <nd ref="99365765"/>
    <tag k="created_by" v="JOSM"/>
    <tag k="highway" v="residential"/>
    <tag k="name" v="Siemensstraße"/>
  </way>
  <way id="11159129" version="4" timestamp="2008-02-22T21:36:07Z" uid="6975" user="ulfl" changeset="179242">
    <nd ref="73772387"/>
    <nd ref="101476376"/>
    <nd ref="99365727"/>
    <nd ref="99365732"/>
    <nd ref="99365736"/>
    <nd ref="99365752"/>
    <nd ref="99365757"/>
    <nd ref="99365761"/>
    <nd ref="99365765"/>
    <tag k="created_by" v="Potlatch 0.7b"/>
    <tag k="highway" v="residential"/>
    <tag k="name" v="Siemensstraße"/>
  </way>
  <way id="11159129" version="5" timestamp="2009-01-12T02:43:06Z" uid="6975" user="ulfl" changeset="778582">
    <nd ref="73772387"/>
    <nd ref="101476376"/>
    <nd ref="99365727"/>
    <nd ref="99365732"/>
    <nd ref="99365736"/>
    <nd ref="99365752"/>
    <nd ref="99365757"/>
    <nd ref="99365761"/>
    <nd ref="99365765"/>
    <tag k="created_by" v="Potlatch 0.7b"/>
    <tag k="highway" v="residential"/>
    <tag k="maxspeed" v="50"/>
    <tag k="name" v="Siemensstraße"/>
  </way>
  <way id="11159131" version="1" timestamp="2007-11-05T22:02:48Z" uid="6975" user="ulfl" changeset="414534">
    <nd ref="99365736"/>
    <nd ref="99365752"/>
    <nd ref="99365757"/>
    <nd ref="99365761"/>
    <nd ref="99365765"/>
    <tag k="created_by" v="JOSM"/>
  </way>
  <way id="11159131" version="2" timestamp="2007-11-07T20:33:12Z" uid="6975" user="ulfl" changeset="431689"/>
  <way id="11159132" version="1" timestamp="2007-11-05T22:02:48Z" uid="6975" user="ulfl" changeset="414534">
    <nd ref="99365742"/>
    <nd ref="99365747"/>
    <nd ref="99365750"/>
    <nd ref="99362128"/>
    <tag k="created_by" v="JOSM"/>
  </way>
  <way id="11159132" version="2" timestamp="2007-11-07T20:34:15Z" uid="6975" user="ulfl" changeset="431689">
    <nd ref="99365742"/>
    <nd ref="99365747"/>
    <nd ref="99365750"/>
    <nd ref="99362128"/>
    <nd ref="99362135"/>
    <tag k="created_by" v="JOSM"/>
    <tag k="highway" v="residential"/>
    <tag k="name" v="Reichenberger Straße"/>
  </way>
  <way id="11159132" version="3" timestamp="2008-02-22T21:33:32Z" uid="6975" user="ulfl" changeset="179242">
    <nd ref="99365742"/>
    <nd ref="99365747"/>
    <nd ref="99365750"/>
    <nd ref="99362128"/>
    <nd ref="99362135"/>
    <tag k="created_by" v="Potlatch 0.7b"/>
    <tag k="highway" v="residential"/>
    <tag k="name" v="Reichenberger Straße"/>
  </way>
  <way id="11159132" version="4" timestamp="2008-02-23T12:57:45Z" uid="6975" user="ulfl" changeset="184302">
    <nd ref="99365742"/>
    <nd ref="99365747"/>
    <nd ref="99365750"/>
    <nd ref="248886327"/>
    <nd ref="99362128"/>
    <nd ref="99362135"/>
    <tag k="created_by" v="Potlatch 0.7b"/>
    <tag k="highway" v="residential"/>
    <tag k="name" v="Reichenberger Straße"/>
  </way>
  <way id="11159134" version="1" timestamp="2007-11-05T22:02:49Z" uid="6975" user="ulfl" changeset="414534">
    <nd ref="99365736"/>
    <nd ref="99365742"/>
    <tag k="created_by" v="JOSM"/>
  </way>
  <way id="11159134" version="2" timestamp="2007-11-07T20:34:15Z" uid="6975" user="ulfl" changeset="431689">
    <nd ref="99365736"/>
    <nd ref="99365742"/>
    <tag k="created_by" v="JOSM"/>
    <tag k="highway" v="residential"/>
    <tag k="name" v="Komotauer Straße"/>
  </way>
  <way id="11159134" version="4" timestamp="2008-02-22T21:35:05Z" uid="6975" user="ulfl" changeset="179242">
    <nd ref="99365736"/>
    <nd ref="99365742"/>
    <nd ref="207494231"/>
    <nd ref="207494238"/>
    <nd ref="207494246"/>
    <nd ref="207494253"/>
    <tag k="created_by" v="Potlatch 0.7b"/>
    <tag k="highway" v="residential"/>
    <tag k="name" v="Komotauer Straße"/>
  </way>
  <way id="11159134" version="5" timestamp="2008-02-22T21:52:36Z" uid="6975" user="ulfl" changeset="179242">
    <nd ref="99365736"/>
    <nd ref="99365742"/>
    <nd ref="207494231"/>
    <nd ref="207494238"/>
    <nd ref="207494246"/>
    <nd ref="207494253"/>
    <tag k="created_by" v="Potlatch 0.7b"/>
    <tag k="highway" v="residential"/>
    <tag k="name" v="Komotauer Straße"/>
  </way>
  <way id="11159840" version="6" timestamp="2010-05-28T14:46:43Z" uid="4467" user="Rosscoe" changeset="4831692">
    <nd ref="29897832"/>
    <nd ref="752989993"/>
    <nd ref="29897840"/>
    <nd ref="597898097"/>
    <nd ref="29897841"/>
    <nd ref="29897842"/>
    <tag k="highway" v="residential"/>
    <tag k="name" v="Ivanhoe Grove"/>
  </way>
  <way id="11159840" version="7" timestamp="2010-07-09T03:23:54Z" uid="74617" user="JohnSmith" changeset="5170713">
    <nd ref="29897832"/>
    <nd ref="752989993"/>
    <nd ref="29897840"/>
    <nd ref="597898097"/>
    <nd ref="29897841"/>
    <nd ref="29897842"/>
    <tag k="highway" v="residential"/>
    <tag k="maxspeed" v="50"/>
    <tag k="maxspeed:source" v="default residential speed limit in Australia"/>
    <tag k="name" v="Ivanhoe Grove"/>
  </way>
  <way id="11159888" version="4" timestamp="2010-05-28T14:46:25Z" uid="4467" user="Rosscoe" changeset="4831692">
    <nd ref="29897826"/>
    <nd ref="752990025"/>
    <nd ref="29897827"/>
    <nd ref="317503483"/>
    <nd ref="29897828"/>
    <tag k="highway" v="residential"/>
    <tag k="name" v="Quentin Road"/>
    <tag k="source" v="nearmap"/>
  </way>
  <way id="11159888" version="5" timestamp="2010-07-09T03:20:30Z" uid="74617" user="JohnSmith" changeset="5170713">
    <nd ref="29897826"/>
    <nd ref="752990025"/>
    <nd ref="29897827"/>
    <nd ref="317503483"/>
    <nd ref="29897828"/>
    <tag k="highway" v="residential"/>
    <tag k="maxspeed" v="50"/>
    <tag k="maxspeed:source" v="default residential speed limit in Australia"/>
    <tag k="name" v="Quentin Road"/>
    <tag k="source" v="nearmap"/>
  </way>
</osm>
