<?xml version='1.0' encoding='UTF-8'?>
<osm version="0.6" generator="libosmium/2.20.0">
  <way id="11160002" version="3" timestamp="2009-08-13T01:46:08Z" uid="4467" user="Rosscoe" changeset="2125878">
    <nd ref="99371566"/>
    <nd ref="99371670"/>
    <nd ref="99371674"/>
    <tag k="bicycle" v="yes"/>
    <tag k="cycleway" v="track"/>
    <tag k="foot" v="yes"/>
    <tag k="highway" v="cycleway"/>
  </way>
  <way id="11160101" version="5" timestamp="2010-07-09T03:22:43Z" uid="74617" user="JohnSmith" changeset="5170713">
    <nd ref="99372529"/>
    <nd ref="99372707"/>
    <nd ref="99372639"/>
    <tag k="highway" v="residential"/>
    <tag k="maxspeed" v="50"/>
    <tag k="maxspeed:source" v="default residential speed limit in Australia"/>
    <tag k="name" v="Caloola Avenue"/>
    <tag k="oneway" v="yes"/>
  </way>
  <way id="11160113" version="4" timestamp="2009-08-13T01:04:20Z" uid="4467" user="Rosscoe" changeset="2125668">
    <nd ref="99372670"/>
    <nd ref="99372707"/>
    <tag k="highway" v="residential"/>
    <tag k="name" v="Caloola Avenue"/>
    <tag k="oneway" v="yes"/>
    <tag k="osmarender:renderName" v="no"/>
  </way>
  <way id="11160113" version="5" timestamp="2010-07-09T03:18:48Z" uid="74617" user="JohnSmith" changeset="5170713">
    <nd ref="99372670"/>
    <nd ref="99372707"/>
    <tag k="highway" v="residential"/>
    <tag k="maxspeed" v="50"/>
    <tag k="maxspeed:source" v="default residential speed limit in Australia"/>
    <tag k="name" v="Caloola Avenue"/>
    <tag k="oneway" v="yes"/>
  </way>
  <way id="11160222" version="9" timestamp="2010-07-09T03:22:04Z" uid="74617" user="JohnSmith" changeset="5170713">
    <nd ref="27170751"/>
    <nd ref="99373706"/>
    <nd ref="99374175"/>
    <nd ref="99374054"/>
    <nd ref="99373707"/>
    <tag k="highway" v="residential"/>
    <tag k="maxspeed" v="50"/>
    <tag k="maxspeed:source" v="default residential speed limit in Australia"/>
    <tag k="name" v="Dalgety Avenue"/>
    <tag k="oneway" v="yes"/>
  </way>
  <way id="11160261" version="10" timestamp="2011-05-04T22:31:44Z" uid="23543" user="jkjk" changeset="8053354">
    <nd ref="99373884"/>
    <nd ref="1272541529"/>
    <nd ref="99373885"/>
    <nd ref="99373886"/>
    <nd ref="99373887"/>
    <nd ref="99373888"/>
    <nd ref="99373889"/>
    <nd ref="99373891"/>
    <nd ref="248422567"/>
    <nd ref="99373892"/>
    <nd ref="99373893"/>
    <nd ref="99373894"/>
    <nd ref="99373895"/>
    <nd ref="99373897"/>
    <nd ref="99373898"/>
    <nd ref="99373899"/>
    <nd ref="99373900"/>
    <nd ref="99373901"/>
    <nd ref="99373902"/>
    <nd ref="99373904"/>
    <nd ref="99373905"/>
    <nd ref="99373906"/>
    <nd ref="1272541350"/>
    <nd ref="99373907"/>
    <nd ref="99373909"/>
    <nd ref="99373911"/>
    <nd ref="99373912"/>
    <nd ref="99373913"/>
    <nd ref="99373914"/>
    <nd ref="99373915"/>
    <nd ref="99373917"/>
    <nd ref="99373918"/>
    <nd ref="99373919"/>
    <nd ref="99373921"/>
    <nd ref="99373922"/>
    <nd ref="1272541485"/>
    <nd ref="99373924"/>
    <nd ref="99373925"/>
    <nd ref="99373926"/>
    <nd ref="99373927"/>
    <nd ref="99373929"/>
    <nd ref="99373930"/>
    <nd ref="99373931"/>
    <nd ref="99373933"/>
    <nd ref="99373935"/>
    <nd ref="99373936"/>
    <nd ref="99373937"/>
    <nd ref="99373938"/>
    <nd ref="99373940"/>
    <nd ref="99373941"/>
    <nd ref="99373943"/>
    <nd ref="99373944"/>
    <nd ref="99373945"/>
    <nd ref="99373946"/>
    <nd ref="99373947"/>
    <nd ref="25780172"/>
    <tag k="highway" v="trunk"/>
    <tag k="name" v="badhdad road"/>
    <tag k="ref" v="1"/>
  </way>
  <way id="11160280" version="3" timestamp="2009-08-13T02:17:45Z" uid="4467" user="Rosscoe" changeset="2126018">
    <nd ref="99373993"/>
    <nd ref="99374054"/>
    <tag k="highway" v="residential"/>
    <tag k="name" v="Dalgety Street"/>
  </way>
  <way id="11160280" version="4" timestamp="2010-07-09T03:22:20Z" uid="74617" user="JohnSmith" changeset="5170713">
    <nd ref="99373993"/>
    <nd ref="99374054"/>
    <tag k="highway" v="residential"/>
    <tag k="maxspeed" v="50"/>
    <tag k="maxspeed:source" v="default residential speed limit in Australia"/>
    <tag k="name" v="Dalgety Street"/>
  </way>
  <way id="11160296" version="3" timestamp="2009-08-13T02:17:45Z" uid="4467" user="Rosscoe" changeset="2126018">
    <nd ref="99374080"/>
    <nd ref="99374175"/>
    <tag k="highway" v="residential"/>
    <tag k="name" v="Dalgety Street"/>
  </way>
  <way id="11160296" version="4" timestamp="2010-07-09T03:20:53Z" uid="74617" user="JohnSmith" changeset="5170713">
    <nd ref="99374080"/>
    <nd ref="99374175"/>
    <tag k="highway" v="residential"/>
    <tag k="maxspeed" v="50"/>
    <tag k="maxspeed:source" v="default residential speed limit in Australia"/>
    <tag k="name" v="Dalgety Street"/>
  </way>
  <way id="11160368" version="3" timestamp="2009-08-13T02:17:45Z" uid="4467" user="Rosscoe" changeset="2126018">
    <nd ref="99374622"/>
    <nd ref="99374691"/>
    <tag k="highway" v="residential"/>
    <tag k="name" v="Dalgety Street"/>
  </way>
  <way id="11160368" version="4" timestamp="2010-07-09T03:23:50Z" uid="74617" user="JohnSmith" changeset="5170713">
    <nd ref="99374622"/>
    <nd ref="99374691"/>
    <tag k="highway" v="residential"/>
    <tag k="maxspeed" v="50"/>
    <tag k="maxspeed:source" v="default residential speed limit in Australia"/>
    <tag k="name" v="Dalgety Street"/>
  </way>
  <way id="11160397" version="7" timestamp="2009-12-09T23:05:11Z" uid="200463" user="harmagedon" changeset="3337772">
    <nd ref="99374764"/>
    <nd ref="99374763"/>
    <nd ref="99374762"/>
    <nd ref="454916036"/>
    <tag k="highway" v="residential"/>
    <tag k="name" v="Steig-Strasse"/>
  </way>
  <way id="11160434" version="4" timestamp="2010-07-09T03:24:03Z" uid="74617" user="JohnSmith" changeset="5170713">
    <nd ref="99375040"/>
    <nd ref="614030273"/>
    <nd ref="99375212"/>
    <tag k="highway" v="residential"/>
    <tag k="maxspeed" v="50"/>
    <tag k="maxspeed:source" v="default residential speed limit in Australia"/>
    <tag k="name" v="Chapman Street"/>
  </way>
  <way id="11160507" version="6" timestamp="2009-12-09T23:04:56Z" uid="200463" user="harmagedon" changeset="3337772">
    <nd ref="99375846"/>
    <nd ref="454888929"/>
    <nd ref="99375845"/>
    <nd ref="99375844"/>
    <nd ref="393186125"/>
    <nd ref="99375843"/>
    <nd ref="99375842"/>
    <nd ref="99375841"/>
    <nd ref="99375840"/>
    <nd ref="291141458"/>
    <nd ref="99375839"/>
    <nd ref="99375838"/>
    <nd ref="99370428"/>
    <tag k="highway" v="residential"/>
    <tag k="name" v="Hermigasse"/>
  </way>
  <way id="11160571" version="7" timestamp="2009-12-09T23:04:58Z" uid="200463" user="harmagedon" changeset="3337772">
    <nd ref="99370428"/>
    <nd ref="289918236"/>
    <nd ref="99376197"/>
    <nd ref="99376196"/>
    <nd ref="99376195"/>
    <nd ref="99379067"/>
    <nd ref="99374764"/>
    <nd ref="99377535"/>
    <tag k="highway" v="residential"/>
    <tag k="name" v="Sandfuri-Strasse"/>
  </way>
  <way id="11160880" version="4" timestamp="2009-12-09T23:05:16Z" uid="200463" user="harmagedon" changeset="3337772">
    <nd ref="99377535"/>
    <nd ref="99377536"/>
    <nd ref="99377537"/>
    <nd ref="99377539"/>
    <tag k="highway" v="residential"/>
    <tag k="name" v="Kreuzhalden-Strasse"/>
  </way>
  <way id="11160925" version="9" timestamp="2009-12-09T23:05:17Z" uid="200463" user="harmagedon" changeset="3337772">
    <nd ref="454903942"/>
    <nd ref="454903961"/>
    <nd ref="99379067"/>
    <tag k="highway" v="track"/>
    <tag k="name" v="TÃ¼racher-Strasse"/>
  </way>
  <way id="11160963" version="5" timestamp="2009-12-09T23:05:16Z" uid="200463" user="harmagedon" changeset="3337772">
    <nd ref="99376196"/>
    <nd ref="99379342"/>
    <nd ref="99379343"/>
    <nd ref="99379344"/>
    <nd ref="99380123"/>
    <nd ref="99379345"/>
    <nd ref="99379346"/>
    <tag k="highway" v="residential"/>
    <tag k="name" v="Sunnhaldenstrasse"/>
  </way>
</osm>
