<?xml version='1.0' encoding='UTF-8'?>
<osm version="0.6" generator="libosmium/2.20.0">
  <way id="11172356" version="4" timestamp="2010-08-28T15:55:34Z" uid="33382" user="de_muur" changeset="5617483">
    <nd ref="99453885"/>
    <nd ref="99453891"/>
    <nd ref="99453928"/>
    <nd ref="99453930"/>
    <nd ref="99453934"/>
    <nd ref="99453937"/>
    <nd ref="99453940"/>
    <nd ref="99453943"/>
    <nd ref="99453945"/>
    <nd ref="99453947"/>
    <nd ref="99453951"/>
    <nd ref="99453956"/>
    <nd ref="99453960"/>
    <nd ref="99453964"/>
    <nd ref="99453967"/>
    <nd ref="99453978"/>
    <nd ref="884731544"/>
    <nd ref="128717571"/>
    <tag k="highway" v="unclassified"/>
    <tag k="name" v="In de Eck"/>
  </way>
  <way id="11172356" version="5" timestamp="2010-08-28T16:29:09Z" uid="33382" user="de_muur" changeset="5617806">
    <nd ref="99453885"/>
    <nd ref="99453891"/>
    <nd ref="99453928"/>
    <nd ref="99453930"/>
    <nd ref="99453934"/>
    <nd ref="99453937"/>
    <nd ref="99453940"/>
    <nd ref="99453943"/>
    <nd ref="99453945"/>
    <nd ref="99453947"/>
    <nd ref="99453951"/>
    <nd ref="99453956"/>
    <nd ref="99453960"/>
    <nd ref="99453964"/>
    <nd ref="99453967"/>
    <nd ref="99453978"/>
    <nd ref="884731544"/>
    <tag k="highway" v="unclassified"/>
    <tag k="name" v="In de Eck"/>
    <tag k="surface" v="paved"/>
  </way>
  <way id="11172358" version="7" timestamp="2010-08-27T20:12:17Z" uid="33382" user="de_muur" changeset="5611025">
    <nd ref="99453885"/>
    <nd ref="99453894"/>
    <nd ref="99453897"/>
    <nd ref="99453900"/>
    <tag k="highway" v="tertiary"/>
    <tag k="name" v="Bahnhofsstraße"/>
    <tag k="ref" v="K 61"/>
    <tag k="surface" v="paved"/>
  </way>
  <way id="11172358" version="8" timestamp="2010-08-28T16:29:08Z" uid="33382" user="de_muur" changeset="5617806">
    <nd ref="99453885"/>
    <nd ref="99453894"/>
    <nd ref="99453897"/>
    <nd ref="99453900"/>
    <nd ref="99453905"/>
    <nd ref="99453907"/>
    <nd ref="99453910"/>
    <nd ref="99453913"/>
    <nd ref="99453920"/>
    <nd ref="99453923"/>
    <nd ref="100303398"/>
    <nd ref="883388050"/>
    <nd ref="100303402"/>
    <nd ref="100303405"/>
    <nd ref="100303408"/>
    <nd ref="100303409"/>
    <nd ref="100303414"/>
    <nd ref="100303418"/>
    <nd ref="883388035"/>
    <tag k="highway" v="tertiary"/>
    <tag k="name" v="Bahnhofsstraße"/>
    <tag k="ref" v="K 61"/>
    <tag k="surface" v="paved"/>
  </way>
  <way id="11172360" version="7" timestamp="2010-08-27T20:30:46Z" uid="33382" user="de_muur" changeset="5611188">
    <nd ref="99453882"/>
    <nd ref="99453986"/>
    <nd ref="99453989"/>
    <nd ref="99453992"/>
    <nd ref="99453993"/>
    <nd ref="99453996"/>
    <nd ref="321651416"/>
    <nd ref="99454000"/>
    <nd ref="883426937"/>
    <tag k="highway" v="tertiary"/>
    <tag k="name" v="An der Sylsbek"/>
    <tag k="ref" v="K 79"/>
    <tag k="surface" v="paved"/>
  </way>
  <way id="11172803" version="5" timestamp="2010-07-03T22:20:17Z" uid="4467" user="Rosscoe" changeset="5128573">
    <nd ref="99432120"/>
    <nd ref="99455227"/>
    <nd ref="99455231"/>
    <nd ref="99455239"/>
    <nd ref="99455243"/>
    <nd ref="99455252"/>
    <nd ref="99455259"/>
    <nd ref="99446567"/>
    <tag k="highway" v="primary"/>
    <tag k="name" v="Liberty Street"/>
    <tag k="name_1" v="United States Highway 322"/>
    <tag k="old_ref_legislative" v="238"/>
    <tag k="ref" v="US 322"/>
    <tag k="tiger:cfcc" v="A21"/>
    <tag k="tiger:name_base" v="Liberty"/>
    <tag k="tiger:name_base_1" v="United States Highway 322"/>
    <tag k="tiger:name_base_2" v="State Route 18"/>
    <tag k="tiger:name_type" v="St"/>
    <tag k="tiger:reviewed" v="no"/>
    <tag k="tiger:separated" v="no"/>
    <tag k="tiger:source" v="tiger_import_dch_v0.7_20071105"/>
    <tag k="tiger:tlid" v="98576571:98592722:98586097:98574892:98575991:98574894:98575498:98574898:98575143"/>
  </way>
</osm>
