<?xml version='1.0' encoding='UTF-8'?>
<osm version="0.6" generator="libosmium/2.20.0">
  <way id="111840846" version="1" timestamp="2011-05-05T17:32:42Z" uid="115477" user="wowik" changeset="8058974">
    <nd ref="1273315440"/>
    <nd ref="1273315423"/>
    <nd ref="1273315444"/>
    <nd ref="1273315437"/>
    <nd ref="1273315424"/>
    <nd ref="1273315440"/>
    <tag k="area" v="yes"/>
    <tag k="bridge" v="yes"/>
    <tag k="layer" v="1"/>
  </way>
  <way id="111840848" version="1" timestamp="2011-05-05T17:32:42Z" uid="115477" user="wowik" changeset="8058974">
    <nd ref="1273315429"/>
    <nd ref="1002615580"/>
    <tag k="highway" v="motorway"/>
    <tag k="int_ref" v="E 30"/>
    <tag k="layer" v="1"/>
    <tag k="name" v="Дон"/>
    <tag k="oneway" v="yes"/>
    <tag k="ref" v="М4"/>
  </way>
  <way id="111840849" version="1" timestamp="2011-05-05T17:32:43Z" uid="115477" user="wowik" changeset="8058974">
    <nd ref="1273315442"/>
    <nd ref="423140289"/>
    <tag k="bridge" v="yes"/>
    <tag k="highway" v="motorway"/>
    <tag k="int_ref" v="E 30"/>
    <tag k="layer" v="1"/>
    <tag k="maxspeed" v="60"/>
    <tag k="name" v="Дон"/>
    <tag k="oneway" v="yes"/>
    <tag k="ref" v="М4"/>
  </way>
  <way id="111840852" version="1" timestamp="2011-05-05T17:32:43Z" uid="115477" user="wowik" changeset="8058974">
    <nd ref="1273315420"/>
    <nd ref="423140268"/>
    <tag k="bridge" v="yes"/>
    <tag k="highway" v="motorway"/>
    <tag k="layer" v="1"/>
    <tag k="maxspeed" v="60"/>
    <tag k="name" v="Дон"/>
    <tag k="oneway" v="yes"/>
    <tag k="ref" v="М4"/>
  </way>
  <way id="111840854" version="1" timestamp="2011-05-05T17:32:43Z" uid="115477" user="wowik" changeset="8058974">
    <nd ref="1273315434"/>
    <nd ref="1002615448"/>
    <tag k="highway" v="motorway"/>
    <tag k="layer" v="1"/>
    <tag k="name" v="Дон"/>
    <tag k="oneway" v="yes"/>
    <tag k="ref" v="М4"/>
  </way>
  <way id="111840855" version="1" timestamp="2011-05-05T17:32:43Z" uid="115477" user="wowik" changeset="8058974">
    <nd ref="1273315422"/>
    <nd ref="1273315435"/>
    <nd ref="1273315411"/>
    <nd ref="1273315427"/>
    <nd ref="1273315422"/>
    <tag k="area" v="yes"/>
    <tag k="bridge" v="yes"/>
    <tag k="layer" v="1"/>
  </way>
</osm>
