<?xml version='1.0' encoding='UTF-8'?>
<osm version="0.6" generator="libosmium/2.20.0">
  <way id="11181002" version="9" timestamp="2010-07-09T05:02:19Z" uid="74617" user="JohnSmith" changeset="5170972">
    <nd ref="99503322"/>
    <nd ref="300500690"/>
    <nd ref="99503667"/>
    <nd ref="99503669"/>
    <nd ref="99503670"/>
    <nd ref="300500695"/>
    <nd ref="99503672"/>
    <nd ref="99503674"/>
    <nd ref="99504521"/>
    <nd ref="99503675"/>
    <nd ref="99503676"/>
    <nd ref="99504105"/>
    <nd ref="99503677"/>
    <tag k="highway" v="residential"/>
    <tag k="maxspeed" v="50"/>
    <tag k="maxspeed:source" v="default residential speed limit in Australia"/>
    <tag k="name" v="Willowbank Road"/>
  </way>
  <way id="11181073" version="4" timestamp="2010-07-09T04:56:18Z" uid="74617" user="JohnSmith" changeset="5170972">
    <nd ref="99503723"/>
    <nd ref="99504099"/>
    <nd ref="99504101"/>
    <nd ref="99504102"/>
    <nd ref="99504104"/>
    <nd ref="99504105"/>
    <tag k="highway" v="residential"/>
    <tag k="maxspeed" v="50"/>
    <tag k="maxspeed:source" v="default residential speed limit in Australia"/>
    <tag k="name" v="Alister Street"/>
  </way>
  <way id="11181073" version="5" timestamp="2011-03-19T03:59:45Z" uid="4467" user="Rosscoe" changeset="7601289">
    <nd ref="99503723"/>
    <nd ref="99504099"/>
    <nd ref="99504101"/>
    <nd ref="99504102"/>
    <nd ref="99504104"/>
    <nd ref="99504105"/>
    <tag k="highway" v="residential"/>
    <tag k="maxspeed" v="50"/>
    <tag k="name" v="Alister Street"/>
    <tag k="source:maxspeed" v="default residential speed limit in Australia"/>
  </way>
  <way id="11181154" version="5" timestamp="2010-08-18T07:01:06Z" uid="4467" user="Rosscoe" changeset="5523817">
    <nd ref="99489104"/>
    <nd ref="99504457"/>
    <nd ref="504919785"/>
    <nd ref="506894765"/>
    <tag k="highway" v="service"/>
    <tag k="name" v="1st Street"/>
    <tag k="tiger:cfcc" v="A41"/>
    <tag k="tiger:county" v="Orange, FL"/>
    <tag k="tiger:name_base" v="1st"/>
    <tag k="tiger:name_type" v="St"/>
    <tag k="tiger:reviewed" v="no"/>
    <tag k="tiger:separated" v="no"/>
    <tag k="tiger:source" v="tiger_import_dch_v0.6_20070809"/>
    <tag k="tiger:tlid" v="94392178"/>
    <tag k="tiger:upload_uuid" v="bulk_upload.pl-2a48c04b-80d5-444d-817b-afeff6924aff"/>
  </way>
  <way id="11181155" version="8" timestamp="2010-07-09T04:57:34Z" uid="74617" user="JohnSmith" changeset="5170972">
    <nd ref="99504286"/>
    <nd ref="300500692"/>
    <nd ref="313859352"/>
    <nd ref="313859357"/>
    <nd ref="99504458"/>
    <nd ref="99504459"/>
    <tag k="admin_level" v="6"/>
    <tag k="boundary" v="administrative"/>
    <tag k="highway" v="residential"/>
    <tag k="maxspeed" v="50"/>
    <tag k="maxspeed:source" v="default residential speed limit in Australia"/>
    <tag k="name" v="May Street"/>
  </way>
  <way id="11181161" version="5" timestamp="2010-07-09T05:00:43Z" uid="74617" user="JohnSmith" changeset="5170972">
    <nd ref="99504458"/>
    <nd ref="99504521"/>
    <tag k="highway" v="residential"/>
    <tag k="maxspeed" v="50"/>
    <tag k="maxspeed:source" v="default residential speed limit in Australia"/>
    <tag k="noname" v="yes"/>
  </way>
  <way id="11181231" version="5" timestamp="2010-07-09T05:02:04Z" uid="74617" user="JohnSmith" changeset="5170972">
    <nd ref="99504712"/>
    <nd ref="770732904"/>
    <nd ref="770732907"/>
    <nd ref="770732909"/>
    <tag k="highway" v="residential"/>
    <tag k="lanes" v="1"/>
    <tag k="maxspeed" v="50"/>
    <tag k="maxspeed:source" v="default residential speed limit in Australia"/>
    <tag k="name" v="Ida Street"/>
    <tag k="oneway" v="yes"/>
  </way>
  <way id="11181246" version="11" timestamp="2010-12-30T21:29:22Z" uid="9581" user="Lobelt" changeset="6814301">
    <nd ref="219176258"/>
    <nd ref="447066074"/>
    <nd ref="219176244"/>
    <nd ref="219176229"/>
    <nd ref="219176215"/>
    <nd ref="219176204"/>
    <nd ref="219176194"/>
    <nd ref="158998059"/>
    <nd ref="158998049"/>
    <nd ref="158998033"/>
    <nd ref="858669623"/>
    <nd ref="858669583"/>
    <nd ref="858669550"/>
    <nd ref="858669619"/>
    <nd ref="858669578"/>
    <nd ref="858669545"/>
    <nd ref="858669593"/>
    <nd ref="858669616"/>
    <nd ref="858669573"/>
    <nd ref="858669540"/>
    <nd ref="858669590"/>
    <nd ref="99504909"/>
    <nd ref="631697840"/>
    <nd ref="99504913"/>
    <nd ref="1073846766"/>
    <nd ref="1073846840"/>
    <nd ref="1073846807"/>
    <nd ref="199147055"/>
    <nd ref="219176267"/>
    <nd ref="219176290"/>
    <nd ref="219176294"/>
    <nd ref="219176303"/>
    <nd ref="219176311"/>
    <nd ref="219176320"/>
    <tag k="name" v="Ilm"/>
    <tag k="waterway" v="river"/>
  </way>
  <way id="11181248" version="8" timestamp="2010-12-30T21:29:30Z" uid="9581" user="Lobelt" changeset="6814301">
    <nd ref="1073846919"/>
    <nd ref="199146914"/>
    <nd ref="99504918"/>
    <tag k="highway" v="secondary"/>
    <tag k="lit" v="yes"/>
    <tag k="maxspeed" v="50"/>
    <tag k="name" v="Gehrener Straße"/>
    <tag k="ref" v="L 1047"/>
  </way>
  <way id="11181249" version="5" timestamp="2010-12-30T21:29:01Z" uid="9581" user="Lobelt" changeset="6814301">
    <nd ref="99504918"/>
    <nd ref="1073846699"/>
    <nd ref="35504274"/>
    <tag k="highway" v="secondary"/>
    <tag k="lit" v="yes"/>
    <tag k="maxspeed" v="50"/>
    <tag k="name" v="Gehrener Straße"/>
    <tag k="ref" v="L 1047"/>
  </way>
  <way id="11181251" version="4" timestamp="2010-12-30T21:29:09Z" uid="9581" user="Lobelt" changeset="6814301">
    <nd ref="35504252"/>
    <nd ref="99504924"/>
    <nd ref="1073846832"/>
    <nd ref="245488792"/>
    <nd ref="245488793"/>
    <tag k="highway" v="residential"/>
    <tag k="name" v="Bergstraße"/>
  </way>
  <way id="11181254" version="5" timestamp="2010-12-30T21:29:19Z" uid="9581" user="Lobelt" changeset="6814301">
    <nd ref="99504926"/>
    <nd ref="99504945"/>
    <nd ref="99504941"/>
    <nd ref="1073846827"/>
    <nd ref="1073846770"/>
    <nd ref="1073846845"/>
    <nd ref="1073846702"/>
    <nd ref="99504934"/>
    <nd ref="1073846887"/>
    <nd ref="99504931"/>
    <nd ref="99504929"/>
    <nd ref="99504926"/>
    <tag k="name" v="Pfarrteich"/>
    <tag k="natural" v="water"/>
    <tag k="source" v="interpolated"/>
  </way>
  <way id="11181260" version="11" timestamp="2010-12-30T21:29:54Z" uid="9581" user="Lobelt" changeset="6814301"/>
  <way id="11181261" version="7" timestamp="2010-12-30T21:29:06Z" uid="9581" user="Lobelt" changeset="6814301">
    <nd ref="35504276"/>
    <nd ref="74211819"/>
    <nd ref="35504225"/>
    <nd ref="74211813"/>
    <nd ref="199146762"/>
    <nd ref="74211806"/>
    <nd ref="35504233"/>
    <nd ref="248202656"/>
    <nd ref="190611741"/>
    <nd ref="35504238"/>
    <nd ref="35504240"/>
    <nd ref="1073846863"/>
    <tag k="highway" v="secondary"/>
    <tag k="lit" v="yes"/>
    <tag k="maxspeed" v="50"/>
    <tag k="name" v="Gehrener Straße"/>
    <tag k="ref" v="L 1047"/>
    <tag k="smoothness" v="excellent"/>
    <tag k="surface" v="asphalt"/>
  </way>
  <way id="11181368" version="5" timestamp="2010-07-09T04:56:49Z" uid="74617" user="JohnSmith" changeset="5170972">
    <nd ref="99505718"/>
    <nd ref="99504938"/>
    <tag k="highway" v="residential"/>
    <tag k="maxspeed" v="50"/>
    <tag k="maxspeed:source" v="default residential speed limit in Australia"/>
    <tag k="name" v="Pilkington Street"/>
  </way>
  <way id="11181368" version="6" timestamp="2010-08-30T01:35:55Z" uid="4467" user="Rosscoe" changeset="5632270">
    <nd ref="99505718"/>
    <nd ref="99504938"/>
    <tag k="highway" v="residential"/>
    <tag k="maxspeed" v="50"/>
    <tag k="name" v="Pilkington Street"/>
    <tag k="source:maxspeed" v="default residential speed limit in Australia"/>
  </way>
  <way id="11181424" version="6" timestamp="2010-07-09T04:55:41Z" uid="74617" user="JohnSmith" changeset="5170972">
    <nd ref="99505942"/>
    <nd ref="300500702"/>
    <nd ref="99506236"/>
    <tag k="highway" v="residential"/>
    <tag k="maxspeed" v="50"/>
    <tag k="maxspeed:source" v="default residential speed limit in Australia"/>
    <tag k="name" v="Melville Street"/>
  </way>
</osm>
