<?xml version='1.0' encoding='UTF-8'?>
<osm version="0.6" generator="libosmium/2.20.0">
  <way id="11216226" version="5" timestamp="2011-01-07T23:17:58Z" uid="4467" user="Rosscoe" changeset="6898765">
    <nd ref="146213991"/>
    <nd ref="146213915"/>
    <nd ref="99711218"/>
    <nd ref="99707177"/>
    <tag k="highway" v="residential"/>
    <tag k="is_in" v="Mile End,South Australia,Australia"/>
    <tag k="maxspeed" v="50"/>
    <tag k="name" v="Rose Street"/>
    <tag k="postal_code" v="5031"/>
  </way>
  <way id="11216261" version="2" timestamp="2010-07-10T08:23:33Z" uid="4467" user="Rosscoe" changeset="5180267">
    <nd ref="147578271"/>
    <nd ref="147578295"/>
    <nd ref="147578254"/>
    <nd ref="99711062"/>
    <nd ref="99707330"/>
    <tag k="highway" v="residential"/>
    <tag k="is_in" v="Thebarton,South Australia,Australia"/>
    <tag k="maxspeed" v="50"/>
    <tag k="name" v="Bennett Street"/>
    <tag k="postal_code" v="5031"/>
    <tag k="source" v="survey"/>
  </way>
  <way id="11216428" version="1" timestamp="2007-11-06T06:35:09Z" uid="7617" user="Franc" changeset="418528">
    <nd ref="26638244"/>
    <nd ref="99713510"/>
    <nd ref="99713491"/>
    <nd ref="99713489"/>
    <tag k="created_by" v="JOSM"/>
    <tag k="highway" v="residential"/>
    <tag k="name" v="Miller Avenue"/>
    <tag k="source" v="Yahoo Imagery"/>
    <tag k="source:name" v="survey"/>
  </way>
  <way id="11216428" version="2" timestamp="2007-11-06T06:41:52Z" uid="7617" user="Franc" changeset="418528">
    <nd ref="26638244"/>
    <nd ref="99717327"/>
    <nd ref="99713510"/>
    <nd ref="99713491"/>
    <nd ref="99713489"/>
    <tag k="created_by" v="JOSM"/>
    <tag k="highway" v="residential"/>
    <tag k="name" v="Miller Avenue"/>
    <tag k="source" v="Yahoo Imagery"/>
    <tag k="source:name" v="survey"/>
  </way>
  <way id="11216428" version="3" timestamp="2008-02-02T23:10:50Z" uid="7617" user="Franc" changeset="20636">
    <nd ref="99713489"/>
    <nd ref="99713491"/>
    <nd ref="99713510"/>
    <nd ref="99717327"/>
    <nd ref="26638244"/>
    <tag k="created_by" v="JOSM"/>
    <tag k="highway" v="residential"/>
    <tag k="name" v="Miller Avenue"/>
    <tag k="source" v="survey"/>
  </way>
  <way id="11216428" version="4" timestamp="2010-07-08T02:07:27Z" uid="74617" user="JohnSmith" changeset="5162525">
    <nd ref="99713489"/>
    <nd ref="99713491"/>
    <nd ref="99713510"/>
    <nd ref="99717327"/>
    <nd ref="26638244"/>
    <tag k="highway" v="residential"/>
    <tag k="maxspeed" v="50"/>
    <tag k="maxspeed:source" v="default residential speed limit in Australia"/>
    <tag k="name" v="Miller Avenue"/>
    <tag k="source" v="survey"/>
  </way>
  <way id="11216428" version="5" timestamp="2010-11-14T06:37:08Z" uid="7617" user="Franc" changeset="6363993">
    <nd ref="988538052"/>
    <nd ref="99713491"/>
    <nd ref="99713510"/>
    <nd ref="99717327"/>
    <nd ref="26638244"/>
    <tag k="highway" v="residential"/>
    <tag k="maxspeed" v="50"/>
    <tag k="maxspeed:source" v="default residential speed limit in Australia"/>
    <tag k="name" v="Miller Avenue"/>
    <tag k="source" v="survey"/>
  </way>
  <way id="11216432" version="1" timestamp="2007-11-06T06:35:10Z" uid="7617" user="Franc" changeset="418528">
    <nd ref="99713491"/>
    <nd ref="29340999"/>
    <nd ref="99713492"/>
    <tag k="created_by" v="JOSM"/>
    <tag k="highway" v="residential"/>
    <tag k="name" v="Ellerslie Road"/>
    <tag k="source" v="survey"/>
  </way>
  <way id="11216432" version="2" timestamp="2008-03-29T13:02:23Z" uid="7617" user="Franc" changeset="419941">
    <nd ref="99713491"/>
    <nd ref="29340999"/>
    <nd ref="254615684"/>
    <nd ref="99713492"/>
    <tag k="created_by" v="JOSM"/>
    <tag k="highway" v="residential"/>
    <tag k="name" v="Ellerslie Road"/>
    <tag k="source" v="survey"/>
  </way>
  <way id="11216432" version="3" timestamp="2010-07-08T02:08:33Z" uid="74617" user="JohnSmith" changeset="5162525">
    <nd ref="99713491"/>
    <nd ref="29340999"/>
    <nd ref="254615684"/>
    <nd ref="99713492"/>
    <tag k="highway" v="residential"/>
    <tag k="maxspeed" v="50"/>
    <tag k="maxspeed:source" v="default residential speed limit in Australia"/>
    <tag k="name" v="Ellerslie Road"/>
    <tag k="source" v="survey"/>
  </way>
  <way id="11216435" version="1" timestamp="2007-11-06T06:35:11Z" uid="7617" user="Franc" changeset="418528">
    <nd ref="99713497"/>
    <nd ref="99713510"/>
    <tag k="created_by" v="JOSM"/>
    <tag k="highway" v="service"/>
  </way>
  <way id="11216435" version="2" timestamp="2008-04-08T12:31:51Z" uid="7617" user="Franc" changeset="86974">
    <nd ref="99713497"/>
    <nd ref="99713510"/>
    <tag k="created_by" v="JOSM"/>
    <tag k="highway" v="residential"/>
    <tag k="oneway" v="yes"/>
  </way>
  <way id="11216435" version="3" timestamp="2010-07-08T02:12:26Z" uid="74617" user="JohnSmith" changeset="5162525">
    <nd ref="99713497"/>
    <nd ref="99713510"/>
    <tag k="highway" v="residential"/>
    <tag k="maxspeed" v="50"/>
    <tag k="maxspeed:source" v="default residential speed limit in Australia"/>
    <tag k="oneway" v="yes"/>
  </way>
  <way id="11216750" version="5" timestamp="2010-07-10T08:23:01Z" uid="4467" user="Rosscoe" changeset="5180267">
    <nd ref="101160572"/>
    <nd ref="247745883"/>
    <nd ref="99708267"/>
    <nd ref="99708271"/>
    <nd ref="99708278"/>
    <nd ref="99714355"/>
    <nd ref="632194627"/>
    <nd ref="99714354"/>
    <tag k="highway" v="trunk"/>
    <tag k="is_in" v="Torrensville,South Australia,Australia"/>
    <tag k="maxspeed" v="60"/>
    <tag k="name" v="South Road"/>
    <tag k="oneway" v="yes"/>
    <tag k="postal_code" v="5031"/>
    <tag k="ref" v="A13"/>
    <tag k="source" v="survey"/>
  </way>
  <way id="11216753" version="12" timestamp="2010-07-10T08:23:28Z" uid="4467" user="Rosscoe" changeset="5180267">
    <nd ref="30036195"/>
    <nd ref="99710941"/>
    <nd ref="99710961"/>
    <nd ref="99710971"/>
    <nd ref="99710998"/>
    <nd ref="101160513"/>
    <nd ref="99708262"/>
    <nd ref="99711008"/>
    <nd ref="99711011"/>
    <nd ref="99711062"/>
    <nd ref="634093128"/>
    <nd ref="109907125"/>
    <nd ref="99711100"/>
    <nd ref="99711107"/>
    <nd ref="99711110"/>
    <nd ref="99711129"/>
    <nd ref="99711139"/>
    <nd ref="99711162"/>
    <nd ref="99711184"/>
    <nd ref="99711200"/>
    <tag k="highway" v="trunk"/>
    <tag k="is_in" v="Thebarton,South Australia,Australia"/>
    <tag k="lanes" v="2"/>
    <tag k="maxspeed" v="60"/>
    <tag k="name" v="South Road"/>
    <tag k="oneway" v="yes"/>
    <tag k="postal_code" v="5031"/>
    <tag k="ref" v="A13"/>
    <tag k="source" v="survey"/>
  </way>
  <way id="11216899" version="4" timestamp="2009-08-03T12:05:40Z" uid="4467" user="Rosscoe" changeset="2024805">
    <nd ref="99714659"/>
    <nd ref="99714486"/>
    <tag k="highway" v="tertiary"/>
    <tag k="name" v="Power Road"/>
    <tag k="oneway" v="yes"/>
  </way>
</osm>
