<?xml version='1.0' encoding='UTF-8'?>
<osm version="0.6" generator="libosmium/2.20.0">
  <way id="11253128" version="7" timestamp="2009-12-18T07:27:01Z" uid="30201" user="rrankin" changeset="3398669">
    <nd ref="99955567"/>
    <nd ref="99951568"/>
    <nd ref="99955573"/>
    <nd ref="252839743"/>
    <nd ref="252839741"/>
    <nd ref="103806983"/>
    <nd ref="103805349"/>
    <nd ref="103805301"/>
    <nd ref="443617309"/>
    <tag k="highway" v="residential"/>
    <tag k="name" v="Warrane Road"/>
    <tag k="source" v="yahoo_imagery"/>
    <tag k="source:name" v="historical"/>
  </way>
  <way id="11253128" version="8" timestamp="2010-01-18T22:07:18Z" uid="30201" user="rrankin" changeset="3654668">
    <nd ref="99955567"/>
    <nd ref="99951568"/>
    <nd ref="616470525"/>
    <tag k="highway" v="residential"/>
    <tag k="name" v="Warrane Road"/>
    <tag k="source" v="yahoo_imagery"/>
    <tag k="source:name" v="historical"/>
  </way>
  <way id="11253128" version="9" timestamp="2010-07-08T00:22:18Z" uid="74617" user="JohnSmith" changeset="5162525">
    <nd ref="99955567"/>
    <nd ref="99951568"/>
    <nd ref="616470525"/>
    <tag k="highway" v="residential"/>
    <tag k="maxspeed" v="50"/>
    <tag k="maxspeed:source" v="default residential speed limit in Australia"/>
    <tag k="name" v="Warrane Road"/>
    <tag k="source" v="yahoo_imagery"/>
    <tag k="source:name" v="historical"/>
  </way>
  <way id="11253131" version="2" timestamp="2009-08-31T07:21:26Z" uid="74617" user="JohnSmith" changeset="2323001">
    <nd ref="99955594"/>
    <nd ref="99955597"/>
    <nd ref="99955603"/>
    <nd ref="99955604"/>
    <nd ref="99955626"/>
    <nd ref="99955628"/>
    <nd ref="99955631"/>
    <nd ref="99955644"/>
    <nd ref="99955668"/>
    <nd ref="99955677"/>
    <nd ref="99955685"/>
    <nd ref="99955696"/>
    <nd ref="99955699"/>
    <nd ref="99955700"/>
    <nd ref="99955703"/>
    <nd ref="99955707"/>
    <nd ref="99955710"/>
    <nd ref="99955722"/>
    <nd ref="478537532"/>
    <nd ref="478537533"/>
    <nd ref="362069194"/>
    <tag k="name" v="Sugarloaf Creek"/>
    <tag k="source" v="yahoo_imagery"/>
    <tag k="source:name" v="historical"/>
    <tag k="waterway" v="stream"/>
  </way>
  <way id="11253134" version="3" timestamp="2010-01-21T10:36:48Z" uid="30201" user="rrankin" changeset="3673453">
    <nd ref="443617313"/>
    <nd ref="443617312"/>
    <nd ref="617554592"/>
    <nd ref="99955767"/>
    <nd ref="99955773"/>
    <nd ref="99955778"/>
    <nd ref="99955786"/>
    <nd ref="99955795"/>
    <nd ref="99955811"/>
    <nd ref="99955819"/>
    <nd ref="99955822"/>
    <nd ref="99955825"/>
    <nd ref="99955830"/>
    <nd ref="99955837"/>
    <nd ref="99955841"/>
    <nd ref="99955853"/>
    <nd ref="99955857"/>
    <nd ref="99955865"/>
    <nd ref="99955875"/>
    <nd ref="99955699"/>
    <tag k="name" v="Banks Creek"/>
    <tag k="source" v="yahoo_imagery"/>
    <tag k="waterway" v="stream"/>
  </way>
  <way id="11253543" version="6" timestamp="2011-06-01T09:09:06Z" uid="115477" user="wowik" changeset="8308495">
    <nd ref="60443945"/>
    <nd ref="1229211980"/>
    <nd ref="60443946"/>
    <nd ref="1229211952"/>
    <tag k="highway" v="trunk"/>
    <tag k="lit" v="yes"/>
    <tag k="name" v="Дмитровское шоссе"/>
    <tag k="oneway" v="yes"/>
    <tag k="ref" v="А104"/>
  </way>
  <way id="11253547" version="6" timestamp="2011-06-01T09:09:07Z" uid="115477" user="wowik" changeset="8308495">
    <nd ref="66373414"/>
    <nd ref="66373423"/>
    <nd ref="310961962"/>
    <nd ref="66373428"/>
    <nd ref="1307549242"/>
    <tag k="highway" v="trunk"/>
    <tag k="lit" v="yes"/>
    <tag k="name" v="Дмитровское шоссе"/>
    <tag k="oneway" v="yes"/>
    <tag k="ref" v="А104"/>
  </way>
  <way id="11253547" version="7" timestamp="2011-06-01T09:12:42Z" uid="115477" user="wowik" changeset="8308495">
    <nd ref="66373414"/>
    <nd ref="1307550952"/>
    <tag k="highway" v="trunk"/>
    <tag k="lit" v="yes"/>
    <tag k="name" v="Дмитровское шоссе"/>
    <tag k="oneway" v="yes"/>
    <tag k="ref" v="А104"/>
  </way>
  <way id="11253562" version="2" timestamp="2009-12-04T05:16:34Z" uid="30201" user="rrankin" changeset="3285963">
    <nd ref="26409006"/>
    <nd ref="96326983"/>
    <nd ref="96326988"/>
    <nd ref="96326992"/>
    <tag k="highway" v="residential"/>
    <tag k="name" v="Dalleys Road"/>
    <tag k="source" v="yahoo_imagery"/>
    <tag k="source:name" v="historical"/>
  </way>
  <way id="11253562" version="3" timestamp="2009-12-22T06:05:30Z" uid="7617" user="Franc" changeset="3424906">
    <nd ref="26409006"/>
    <nd ref="96326983"/>
    <nd ref="598053214"/>
    <nd ref="96326988"/>
    <nd ref="598053221"/>
    <nd ref="96326992"/>
    <tag k="highway" v="residential"/>
    <tag k="name" v="Dalleys Road"/>
    <tag k="source" v="yahoo_imagery"/>
    <tag k="source:name" v="historical"/>
  </way>
  <way id="11253562" version="4" timestamp="2010-07-08T00:57:14Z" uid="74617" user="JohnSmith" changeset="5162525">
    <nd ref="26409006"/>
    <nd ref="96326983"/>
    <nd ref="598053214"/>
    <nd ref="96326988"/>
    <nd ref="598053221"/>
    <nd ref="96326992"/>
    <tag k="highway" v="residential"/>
    <tag k="maxspeed" v="50"/>
    <tag k="maxspeed:source" v="default residential speed limit in Australia"/>
    <tag k="name" v="Dalleys Road"/>
    <tag k="source" v="yahoo_imagery"/>
    <tag k="source:name" v="historical"/>
  </way>
  <way id="11253562" version="5" timestamp="2010-09-25T03:29:31Z" uid="7617" user="Franc" changeset="5867953">
    <nd ref="26409006"/>
    <nd ref="96326983"/>
    <nd ref="598053214"/>
    <nd ref="96326988"/>
    <nd ref="924810050"/>
    <tag k="highway" v="residential"/>
    <tag k="maxspeed" v="50"/>
    <tag k="maxspeed:source" v="default residential speed limit in Australia"/>
    <tag k="name" v="Dalleys Road"/>
    <tag k="source" v="yahoo_imagery"/>
    <tag k="source:name" v="historical"/>
  </way>
</osm>
