<?xml version='1.0' encoding='UTF-8'?>
<osm version="0.6" generator="libosmium/2.20.0">
  <way id="112691592" version="1" timestamp="2011-05-11T15:35:55Z" uid="33382" user="de_muur" changeset="8113423">
    <nd ref="1280353986"/>
    <nd ref="30465869"/>
    <nd ref="30465868"/>
    <nd ref="30465867"/>
    <nd ref="30465866"/>
    <nd ref="30465865"/>
    <nd ref="30465864"/>
    <nd ref="30465863"/>
    <nd ref="30465862"/>
    <nd ref="30465861"/>
    <nd ref="30465860"/>
    <nd ref="30465859"/>
    <nd ref="30465858"/>
    <nd ref="30465857"/>
    <nd ref="30465856"/>
    <nd ref="30465855"/>
    <nd ref="30465854"/>
    <nd ref="1280353985"/>
    <tag k="cycleway" v="track"/>
    <tag k="highway" v="secondary"/>
    <tag k="ref" v="L 122"/>
    <tag k="surface" v="paved"/>
  </way>
  <way id="112691593" version="1" timestamp="2011-05-11T15:35:56Z" uid="33382" user="de_muur" changeset="8113423">
    <nd ref="1280353986"/>
    <nd ref="1280353984"/>
    <tag k="highway" v="track"/>
    <tag k="note" v="to be continued"/>
    <tag k="surface" v="unpaved"/>
    <tag k="tracktype" v="grade3"/>
  </way>
  <way id="112691658" version="1" timestamp="2011-05-11T15:38:15Z" uid="66036" user="h4v" changeset="8113443">
    <nd ref="369593243"/>
    <nd ref="236282194"/>
    <nd ref="236282197"/>
    <tag k="ata_delete:oneway" v="2011-09-29"/>
    <tag k="highway" v="tertiary"/>
    <tag k="name" v="Czekoladowa"/>
    <tag k="oneway" v="yes"/>
    <tag k="source" v="UMP:FS#9067"/>
  </way>
  <way id="112691659" version="1" timestamp="2011-05-11T15:38:16Z" uid="66036" user="h4v" changeset="8113443">
    <nd ref="258292837"/>
    <nd ref="258190749"/>
    <tag k="highway" v="primary"/>
    <tag k="int_ref" v="E 77"/>
    <tag k="ref" v="7"/>
  </way>
  <way id="112691660" version="1" timestamp="2011-05-11T15:38:16Z" uid="66036" user="h4v" changeset="8113443">
    <nd ref="585077368"/>
    <nd ref="389444987"/>
    <nd ref="1166507588"/>
    <nd ref="576464755"/>
    <nd ref="472637034"/>
    <nd ref="472695870"/>
    <nd ref="579561583"/>
    <tag k="highway" v="secondary"/>
    <tag k="name" v="Wałbrzyska"/>
    <tag k="ref" v="379"/>
  </way>
  <way id="112691661" version="1" timestamp="2011-05-11T15:38:16Z" uid="66036" user="h4v" changeset="8113443">
    <nd ref="1041315731"/>
    <nd ref="1041318995"/>
    <nd ref="1041314893"/>
    <tag k="highway" v="primary"/>
    <tag k="name" v="Wolborska"/>
    <tag k="ref" v="91"/>
    <tag k="source" v="GPS"/>
  </way>
  <way id="112691662" version="1" timestamp="2011-05-11T15:38:16Z" uid="66036" user="h4v" changeset="8113443">
    <nd ref="374296165"/>
    <nd ref="374296200"/>
    <nd ref="374296281"/>
    <nd ref="374296300"/>
    <nd ref="374296323"/>
    <nd ref="1172647528"/>
    <nd ref="1272985503"/>
    <nd ref="374296343"/>
    <nd ref="374296364"/>
    <nd ref="374296387"/>
    <tag k="ata_change:highway" v="2011-09-10;residential"/>
    <tag k="ata_delete:construction" v="2011-09-10"/>
    <tag k="construction" v="residential"/>
    <tag k="highway" v="construction"/>
    <tag k="name" v="Śląska"/>
    <tag k="source" v="UMP:FS#9179"/>
  </way>
  <way id="112691663" version="1" timestamp="2011-05-11T15:38:17Z" uid="66036" user="h4v" changeset="8113443">
    <nd ref="1280355546"/>
    <nd ref="1280355552"/>
    <nd ref="1041315731"/>
    <nd ref="1280355544"/>
    <nd ref="1280355548"/>
    <nd ref="1280355550"/>
    <nd ref="1280355541"/>
    <nd ref="1280355546"/>
    <tag k="construction" v="primary_link"/>
    <tag k="highway" v="construction"/>
    <tag k="source" v="UMP:FS#9120;UMP"/>
  </way>
  <way id="112691663" version="4" timestamp="2011-06-11T09:23:52Z" uid="66036" user="h4v" changeset="8404216">
    <nd ref="1280355546"/>
    <nd ref="1280355552"/>
    <nd ref="1041315731"/>
    <nd ref="1280355544"/>
    <nd ref="1280355548"/>
    <nd ref="1280355550"/>
    <nd ref="1280355541"/>
    <nd ref="1280355546"/>
    <tag k="highway" v="primary"/>
    <tag k="junction" v="roundabout"/>
    <tag k="oneway" v="yes"/>
    <tag k="ref" v="91"/>
    <tag k="source" v="UMP"/>
  </way>
  <way id="112691895" version="1" timestamp="2011-05-11T15:44:51Z" uid="33382" user="de_muur" changeset="8113487">
    <nd ref="30465881"/>
    <nd ref="30465880"/>
    <nd ref="30465879"/>
    <nd ref="30465878"/>
    <tag k="cycleway" v="track"/>
    <tag k="highway" v="secondary"/>
    <tag k="maxspeed" v="50"/>
    <tag k="name" v="Zevener Straße"/>
    <tag k="ref" v="L 122"/>
    <tag k="surface" v="paved"/>
  </way>
  <way id="112691896" version="1" timestamp="2011-05-11T15:44:51Z" uid="33382" user="de_muur" changeset="8113487">
    <nd ref="1280359111"/>
    <nd ref="1280359108"/>
    <nd ref="1280359122"/>
    <tag k="highway" v="residential"/>
  </way>
  <way id="112691897" version="1" timestamp="2011-05-11T15:44:51Z" uid="33382" user="de_muur" changeset="8113487">
    <nd ref="30465881"/>
    <nd ref="1280359108"/>
    <nd ref="1280359123"/>
    <nd ref="1280359110"/>
    <tag k="highway" v="residential"/>
  </way>
  <way id="112691898" version="1" timestamp="2011-05-11T15:44:51Z" uid="33382" user="de_muur" changeset="8113487">
    <nd ref="30465878"/>
    <nd ref="30465877"/>
    <nd ref="30465876"/>
    <tag k="cycleway" v="track"/>
    <tag k="highway" v="secondary"/>
    <tag k="maxspeed" v="50"/>
    <tag k="name" v="Zevener Straße"/>
    <tag k="ref" v="L 122"/>
    <tag k="surface" v="paved"/>
  </way>
</osm>
