<?xml version='1.0' encoding='UTF-8'?>
<osm version="0.6" generator="libosmium/2.20.0">
  <way id="112783508" version="1" timestamp="2011-05-12T09:09:26Z" uid="4467" user="Rosscoe" changeset="8119980">
    <nd ref="1281220501"/>
    <nd ref="1281220528"/>
    <nd ref="1281220526"/>
    <nd ref="1281220529"/>
    <nd ref="1281220520"/>
    <nd ref="1281220517"/>
    <nd ref="1281220508"/>
    <nd ref="1281220521"/>
    <nd ref="1281220518"/>
    <tag k="highway" v="secondary"/>
    <tag k="name" v="Mackay Bucasia Road"/>
    <tag k="oneway" v="yes"/>
    <tag k="source" v="nearmap"/>
    <tag k="surface" v="paved"/>
  </way>
  <way id="112783509" version="1" timestamp="2011-05-12T09:09:26Z" uid="4467" user="Rosscoe" changeset="8119980">
    <nd ref="1281220526"/>
    <nd ref="1281220525"/>
    <nd ref="1281220524"/>
    <tag k="highway" v="secondary_link"/>
    <tag k="oneway" v="yes"/>
    <tag k="source" v="nearmap"/>
  </way>
  <way id="112783510" version="1" timestamp="2011-05-12T09:09:26Z" uid="4467" user="Rosscoe" changeset="8119980">
    <nd ref="1281220518"/>
    <nd ref="312687814"/>
    <nd ref="1281220516"/>
    <nd ref="312687788"/>
    <nd ref="1281220506"/>
    <nd ref="1281220501"/>
    <tag k="highway" v="secondary"/>
    <tag k="name" v="Mackay Bucasia Road"/>
    <tag k="oneway" v="yes"/>
    <tag k="source" v="nearmap"/>
    <tag k="surface" v="paved"/>
  </way>
  <way id="112783511" version="1" timestamp="2011-05-12T09:09:27Z" uid="4467" user="Rosscoe" changeset="8119980">
    <nd ref="1281220515"/>
    <nd ref="1281220522"/>
    <nd ref="1281220520"/>
    <tag k="highway" v="secondary_link"/>
    <tag k="oneway" v="yes"/>
    <tag k="source" v="nearmap"/>
  </way>
  <way id="112783512" version="1" timestamp="2011-05-12T09:09:27Z" uid="4467" user="Rosscoe" changeset="8119980">
    <nd ref="839555931"/>
    <nd ref="1281220527"/>
    <nd ref="1281220504"/>
    <nd ref="1281220517"/>
    <nd ref="1281220514"/>
    <nd ref="1281220502"/>
    <nd ref="1281220516"/>
    <nd ref="1281220523"/>
    <nd ref="839577588"/>
    <tag k="bicycle" v="yes"/>
    <tag k="foot" v="yes"/>
    <tag k="highway" v="path"/>
    <tag k="source" v="nearmap"/>
  </way>
  <way id="112783965" version="1" timestamp="2011-05-12T09:25:08Z" uid="115477" user="wowik" changeset="8120079">
    <nd ref="1281224806"/>
    <nd ref="1281224789"/>
    <nd ref="1281224612"/>
    <nd ref="1281224659"/>
    <nd ref="1281224703"/>
    <nd ref="1281224683"/>
    <nd ref="1281224731"/>
    <nd ref="1281224780"/>
    <nd ref="1281224833"/>
    <nd ref="1281224718"/>
    <nd ref="1281224763"/>
    <nd ref="1281224815"/>
    <nd ref="1281224774"/>
    <nd ref="1281224681"/>
    <nd ref="1281224727"/>
    <nd ref="1281224775"/>
    <nd ref="1281224827"/>
    <nd ref="1281224713"/>
    <nd ref="1281224754"/>
    <nd ref="1281224810"/>
    <nd ref="1281224633"/>
    <nd ref="1281224611"/>
    <nd ref="1281224658"/>
    <nd ref="1281224701"/>
    <nd ref="1281224806"/>
    <tag k="natural" v="wood"/>
  </way>
  <way id="112783966" version="1" timestamp="2011-05-12T09:25:08Z" uid="115477" user="wowik" changeset="8120079">
    <nd ref="1281224695"/>
    <nd ref="1281224819"/>
    <nd ref="1281224642"/>
    <nd ref="1281224689"/>
    <nd ref="1281224695"/>
    <tag k="addr:city" v="Москва"/>
    <tag k="addr:country" v="RU"/>
    <tag k="building" v="yes"/>
    <tag k="source" v="ggk.mos.ru"/>
  </way>
  <way id="112783967" version="1" timestamp="2011-05-12T09:25:08Z" uid="115477" user="wowik" changeset="8120079">
    <nd ref="1281224800"/>
    <nd ref="1281224715"/>
    <nd ref="1281224620"/>
    <nd ref="1281224665"/>
    <nd ref="1281224800"/>
    <tag k="addr:city" v="Москва"/>
    <tag k="building" v="yes"/>
    <tag k="source" v="ggk.mos.ru"/>
  </way>
  <way id="112783968" version="1" timestamp="2011-05-12T09:25:08Z" uid="115477" user="wowik" changeset="8120079">
    <nd ref="1281224643"/>
    <nd ref="1281224777"/>
    <nd ref="1281224830"/>
    <tag k="highway" v="service"/>
  </way>
  <way id="112783969" version="1" timestamp="2011-05-12T09:25:09Z" uid="115477" user="wowik" changeset="8120079">
    <nd ref="672684228"/>
    <nd ref="1281224830"/>
    <nd ref="999295022"/>
    <nd ref="544382728"/>
    <tag k="highway" v="unclassified"/>
  </way>
  <way id="112783970" version="1" timestamp="2011-05-12T09:25:09Z" uid="115477" user="wowik" changeset="8120079">
    <nd ref="1281224708"/>
    <nd ref="1281224618"/>
    <nd ref="1281224664"/>
    <nd ref="1281224716"/>
    <nd ref="1281224708"/>
    <tag k="addr:city" v="Москва"/>
    <tag k="addr:country" v="RU"/>
    <tag k="addr:housenumber" v="71Б с11"/>
    <tag k="addr:street" v="Ленинградское шоссе"/>
    <tag k="building" v="yes"/>
    <tag k="source" v="ggk.mos.ru"/>
  </way>
  <way id="112783972" version="1" timestamp="2011-05-12T09:25:09Z" uid="115477" user="wowik" changeset="8120079">
    <nd ref="1281224711"/>
    <nd ref="1281224621"/>
    <nd ref="1281224666"/>
    <nd ref="1281224717"/>
    <nd ref="1281224663"/>
    <nd ref="1281224714"/>
    <nd ref="1281224711"/>
    <tag k="addr:city" v="Москва"/>
    <tag k="addr:country" v="RU"/>
    <tag k="addr:street" v="Ленинградское шоссе"/>
    <tag k="building" v="yes"/>
    <tag k="source" v="ggk.mos.ru"/>
  </way>
  <way id="112783974" version="1" timestamp="2011-05-12T09:25:09Z" uid="115477" user="wowik" changeset="8120079">
    <nd ref="1281224741"/>
    <nd ref="1281224737"/>
    <nd ref="1281224791"/>
    <nd ref="1281224699"/>
    <nd ref="1281224741"/>
    <tag k="addr:city" v="Москва"/>
    <tag k="addr:country" v="RU"/>
    <tag k="building" v="yes"/>
    <tag k="source" v="ggk.mos.ru"/>
  </way>
  <way id="112783975" version="1" timestamp="2011-05-12T09:25:09Z" uid="115477" user="wowik" changeset="8120079">
    <nd ref="1281224798"/>
    <nd ref="1281224783"/>
    <nd ref="1281224848"/>
    <nd ref="1281224656"/>
    <nd ref="1281224798"/>
    <tag k="addr:city" v="Москва"/>
    <tag k="addr:country" v="RU"/>
    <tag k="building" v="yes"/>
    <tag k="source" v="ggk.mos.ru"/>
  </way>
  <way id="112783977" version="1" timestamp="2011-05-12T09:25:09Z" uid="115477" user="wowik" changeset="8120079">
    <nd ref="1281224698"/>
    <nd ref="1281224615"/>
    <nd ref="1281224730"/>
    <nd ref="1281224779"/>
    <nd ref="1281224698"/>
    <tag k="addr:city" v="Москва"/>
    <tag k="addr:country" v="RU"/>
    <tag k="building" v="yes"/>
    <tag k="source" v="ggk.mos.ru"/>
  </way>
  <way id="112783978" version="1" timestamp="2011-05-12T09:25:09Z" uid="115477" user="wowik" changeset="8120079">
    <nd ref="898921170"/>
    <nd ref="50479581"/>
    <nd ref="1280340013"/>
    <nd ref="50475899"/>
    <tag k="cladr:code" v="77000000000168600"/>
    <tag k="cladr:name" v="Ленинградское"/>
    <tag k="cladr:suffix" v="Шоссе"/>
    <tag k="construction" v="primary"/>
    <tag k="highway" v="construction"/>
    <tag k="lanes" v="6"/>
    <tag k="name" v="Ленинградское шоссе"/>
    <tag k="omkum:code" v="13330"/>
    <tag k="oneway" v="yes"/>
    <tag k="sorting_name" v="Ленинградское  шоссе"/>
  </way>
  <way id="112783978" version="2" timestamp="2011-05-12T09:29:58Z" uid="115477" user="wowik" changeset="8120118"/>
  <way id="112783980" version="1" timestamp="2011-05-12T09:25:10Z" uid="115477" user="wowik" changeset="8120079">
    <nd ref="1281224758"/>
    <nd ref="1281224673"/>
    <nd ref="1281224790"/>
    <nd ref="1281224614"/>
    <nd ref="1281224758"/>
    <tag k="addr:city" v="Москва"/>
    <tag k="building" v="yes"/>
    <tag k="source" v="ggk.mos.ru"/>
  </way>
  <way id="112783981" version="1" timestamp="2011-05-12T09:25:11Z" uid="115477" user="wowik" changeset="8120079">
    <nd ref="1281224617"/>
    <nd ref="1281224743"/>
    <nd ref="1281224795"/>
    <nd ref="1281224622"/>
    <nd ref="1281224617"/>
    <tag k="addr:city" v="Москва"/>
    <tag k="building" v="yes"/>
    <tag k="source" v="ggk.mos.ru"/>
  </way>
  <way id="112783982" version="1" timestamp="2011-05-12T09:25:11Z" uid="115477" user="wowik" changeset="8120079">
    <nd ref="626935368"/>
    <nd ref="1281224640"/>
    <nd ref="1281224686"/>
    <nd ref="1281224733"/>
    <nd ref="1281224624"/>
    <nd ref="1281224671"/>
    <nd ref="1281224719"/>
    <nd ref="626935359"/>
    <nd ref="626935368"/>
    <tag k="addr:city" v="Москва"/>
    <tag k="addr:country" v="RU"/>
    <tag k="addr:housenumber" v="77"/>
    <tag k="addr:street" v="Ленинградское шоссе"/>
    <tag k="building" v="yes"/>
    <tag k="source" v="ggk.mos.ru"/>
  </way>
  <way id="112783983" version="1" timestamp="2011-05-12T09:25:11Z" uid="115477" user="wowik" changeset="8120079">
    <nd ref="1281224694"/>
    <nd ref="1281224846"/>
    <nd ref="1281224655"/>
    <nd ref="1281224697"/>
    <nd ref="1281224694"/>
    <tag k="building" v="yes"/>
    <tag k="source" v="ggk.mos.ru"/>
  </way>
  <way id="112783984" version="1" timestamp="2011-05-12T09:25:11Z" uid="115477" user="wowik" changeset="8120079">
    <nd ref="1281224850"/>
    <nd ref="1281224745"/>
    <nd ref="1281224657"/>
    <nd ref="1281224613"/>
    <nd ref="1281224662"/>
    <nd ref="1281224850"/>
    <tag k="addr:city" v="Москва"/>
    <tag k="addr:country" v="RU"/>
    <tag k="addr:street" v="Ленинградское шоссе"/>
    <tag k="building" v="yes"/>
    <tag k="source" v="ggk.mos.ru"/>
  </way>
  <way id="112783985" version="1" timestamp="2011-05-12T09:25:11Z" uid="115477" user="wowik" changeset="8120079">
    <nd ref="1281224629"/>
    <nd ref="1281224761"/>
    <nd ref="1281224813"/>
    <nd ref="1281224636"/>
    <nd ref="1281224629"/>
    <tag k="addr:city" v="Москва"/>
    <tag k="addr:country" v="RU"/>
    <tag k="building" v="yes"/>
    <tag k="source" v="ggk.mos.ru"/>
  </way>
  <way id="112783986" version="1" timestamp="2011-05-12T09:25:11Z" uid="115477" user="wowik" changeset="8120079">
    <nd ref="1281224653"/>
    <nd ref="1281224762"/>
    <nd ref="1281224814"/>
    <nd ref="1281224637"/>
    <nd ref="1281224653"/>
    <tag k="addr:city" v="Москва"/>
    <tag k="addr:country" v="RU"/>
    <tag k="building" v="yes"/>
    <tag k="source" v="ggk.mos.ru"/>
  </way>
  <way id="112783987" version="1" timestamp="2011-05-12T09:25:12Z" uid="115477" user="wowik" changeset="8120079">
    <nd ref="1281224710"/>
    <nd ref="1281224776"/>
    <nd ref="1281224829"/>
    <nd ref="1281224651"/>
    <nd ref="1281224710"/>
    <tag k="addr:city" v="Москва"/>
    <tag k="building" v="yes"/>
    <tag k="source" v="ggk.mos.ru"/>
  </way>
  <way id="112783988" version="1" timestamp="2011-05-12T09:25:12Z" uid="115477" user="wowik" changeset="8120079">
    <nd ref="1281224623"/>
    <nd ref="1281224753"/>
    <nd ref="1281224808"/>
    <nd ref="1281224632"/>
    <nd ref="1281224623"/>
    <tag k="addr:city" v="Москва"/>
    <tag k="addr:country" v="RU"/>
    <tag k="addr:housenumber" v="71А с17"/>
    <tag k="addr:street" v="Ленинградское шоссе"/>
    <tag k="building" v="yes"/>
    <tag k="source" v="ggk.mos.ru"/>
  </way>
  <way id="112783989" version="1" timestamp="2011-05-12T09:25:12Z" uid="115477" user="wowik" changeset="8120079">
    <nd ref="1281224652"/>
    <nd ref="1281224785"/>
    <nd ref="1281224852"/>
    <nd ref="1281224724"/>
    <nd ref="1281224652"/>
    <tag k="addr:city" v="Москва"/>
    <tag k="addr:country" v="RU"/>
    <tag k="addr:housenumber" v="71Б с6"/>
    <tag k="addr:street" v="Ленинградское шоссе"/>
    <tag k="building" v="yes"/>
    <tag k="source" v="ggk.mos.ru"/>
  </way>
  <way id="112783990" version="1" timestamp="2011-05-12T09:25:12Z" uid="115477" user="wowik" changeset="8120079">
    <nd ref="1281224650"/>
    <nd ref="1281224782"/>
    <nd ref="1281224752"/>
    <nd ref="1281224807"/>
    <nd ref="1281224650"/>
    <tag k="addr:city" v="Москва"/>
    <tag k="building" v="yes"/>
    <tag k="source" v="ggk.mos.ru"/>
  </way>
  <way id="112783991" version="1" timestamp="2011-05-12T09:25:12Z" uid="115477" user="wowik" changeset="8120079">
    <nd ref="1281224840"/>
    <nd ref="1281224628"/>
    <tag k="power" v="line"/>
  </way>
  <way id="112783992" version="1" timestamp="2011-05-12T09:25:12Z" uid="115477" user="wowik" changeset="8120079">
    <nd ref="1281224639"/>
    <nd ref="1281224809"/>
    <nd ref="1281224676"/>
    <nd ref="1281224626"/>
    <nd ref="1281224855"/>
    <nd ref="1281224738"/>
    <nd ref="1281224792"/>
    <tag k="power" v="line"/>
  </way>
  <way id="112783993" version="1" timestamp="2011-05-12T09:25:13Z" uid="115477" user="wowik" changeset="8120079">
    <nd ref="1281224825"/>
    <nd ref="1281224619"/>
    <nd ref="1281224648"/>
    <nd ref="1281224667"/>
  </way>
  <way id="112783994" version="1" timestamp="2011-05-12T09:25:13Z" uid="115477" user="wowik" changeset="8120079">
    <nd ref="626935372"/>
    <nd ref="1281224764"/>
    <nd ref="1281224816"/>
    <nd ref="1281224638"/>
    <nd ref="1281224684"/>
    <nd ref="626935371"/>
    <nd ref="626935372"/>
    <tag k="addr:city" v="Москва"/>
    <tag k="addr:country" v="RU"/>
    <tag k="addr:housenumber" v="77 с3"/>
    <tag k="addr:street" v="Ленинградское шоссе"/>
    <tag k="building" v="yes"/>
    <tag k="source" v="ggk.mos.ru"/>
  </way>
  <way id="112783995" version="1" timestamp="2011-05-12T09:25:13Z" uid="115477" user="wowik" changeset="8120079">
    <nd ref="1281224832"/>
    <nd ref="1281224734"/>
    <nd ref="1281224784"/>
    <nd ref="1281224756"/>
    <nd ref="1281224832"/>
    <tag k="addr:city" v="Москва"/>
    <tag k="addr:country" v="RU"/>
    <tag k="addr:housenumber" v="71А с7"/>
    <tag k="addr:street" v="Ленинградское шоссе"/>
    <tag k="building" v="yes"/>
    <tag k="source" v="ggk.mos.ru"/>
  </way>
  <way id="112783996" version="1" timestamp="2011-05-12T09:25:13Z" uid="115477" user="wowik" changeset="8120079">
    <nd ref="1281224634"/>
    <nd ref="1281224765"/>
    <nd ref="1281224817"/>
    <nd ref="1281224707"/>
    <nd ref="1281224634"/>
    <tag k="addr:city" v="Москва"/>
    <tag k="addr:country" v="RU"/>
    <tag k="addr:housenumber" v="71А с8"/>
    <tag k="addr:street" v="Ленинградское шоссе"/>
    <tag k="building" v="yes"/>
    <tag k="source" v="ggk.mos.ru"/>
  </way>
  <way id="112783997" version="1" timestamp="2011-05-12T09:25:13Z" uid="115477" user="wowik" changeset="8120079">
    <nd ref="1281224728"/>
    <nd ref="1281224644"/>
    <nd ref="1281224690"/>
    <nd ref="1281224735"/>
    <nd ref="1281224728"/>
    <tag k="addr:city" v="Москва"/>
    <tag k="addr:country" v="RU"/>
    <tag k="building" v="yes"/>
    <tag k="source" v="ggk.mos.ru"/>
  </way>
  <way id="112783998" version="1" timestamp="2011-05-12T09:25:14Z" uid="115477" user="wowik" changeset="8120079">
    <nd ref="1281224760"/>
    <nd ref="1281224677"/>
    <nd ref="1281224723"/>
    <nd ref="1281224770"/>
    <nd ref="1281224760"/>
    <tag k="addr:city" v="Москва"/>
    <tag k="building" v="yes"/>
    <tag k="source" v="ggk.mos.ru"/>
  </way>
  <way id="112783999" version="1" timestamp="2011-05-12T09:25:14Z" uid="115477" user="wowik" changeset="8120079">
    <nd ref="1281224757"/>
    <nd ref="1281224672"/>
    <nd ref="1281224720"/>
    <nd ref="1281224766"/>
    <nd ref="1281224757"/>
    <tag k="addr:city" v="Москва"/>
    <tag k="addr:country" v="RU"/>
    <tag k="building" v="yes"/>
    <tag k="source" v="ggk.mos.ru"/>
  </way>
</osm>
