<?xml version='1.0' encoding='UTF-8'?>
<osm version="0.6" generator="libosmium/2.20.0">
  <way id="11382261" version="6" timestamp="2009-01-03T13:35:13Z" uid="58091" user="Andreas M" changeset="721411">
    <nd ref="60424766"/>
    <nd ref="93434005"/>
    <tag k="created_by" v="Potlatch 0.4c"/>
    <tag k="highway" v="unclassified"/>
    <tag k="name" v="Eckpergasse"/>
    <tag k="oneway" v="yes"/>
    <tag k="railway" v="tram"/>
  </way>
  <way id="11382263" version="2" timestamp="2008-06-18T21:20:29Z" uid="27600" user="Islanit" changeset="213984">
    <nd ref="60424766"/>
    <nd ref="93434007"/>
    <nd ref="93434008"/>
    <nd ref="93434010"/>
    <nd ref="93434011"/>
    <nd ref="93434013"/>
    <nd ref="93434014"/>
    <nd ref="68915052"/>
    <tag k="created_by" v="Potlatch 0.4c"/>
    <tag k="highway" v="residential"/>
  </way>
  <way id="11382344" version="4" timestamp="2009-01-03T13:35:09Z" uid="58091" user="Andreas M" changeset="721411">
    <nd ref="65004157"/>
    <nd ref="34978464"/>
    <tag k="highway" v="tertiary"/>
    <tag k="name" v="Wallrißstraße"/>
    <tag k="oneway" v="yes"/>
    <tag k="railway" v="tram"/>
  </way>
  <way id="11382344" version="5" timestamp="2009-01-03T20:19:42Z" uid="58091" user="Andreas M" changeset="725036">
    <nd ref="65004157"/>
    <nd ref="325214808"/>
    <nd ref="34978464"/>
    <tag k="highway" v="tertiary"/>
    <tag k="name" v="Wallrißstraße"/>
    <tag k="oneway" v="yes"/>
    <tag k="railway" v="tram"/>
  </way>
  <way id="11382425" version="11" timestamp="2009-01-03T13:35:12Z" uid="58091" user="Andreas M" changeset="721411">
    <nd ref="93434005"/>
    <nd ref="61930589"/>
    <nd ref="325098799"/>
    <nd ref="34978472"/>
    <tag k="highway" v="tertiary"/>
    <tag k="maxspeed" v="50"/>
    <tag k="name" v="Herbeckstraße"/>
    <tag k="railway" v="tram"/>
    <tag k="surface" v="paved"/>
  </way>
  <way id="11382425" version="12" timestamp="2009-01-03T13:36:13Z" uid="58091" user="Andreas M" changeset="721411">
    <nd ref="93434005"/>
    <nd ref="61930589"/>
    <nd ref="252507819"/>
    <nd ref="34978472"/>
    <tag k="highway" v="tertiary"/>
    <tag k="maxspeed" v="50"/>
    <tag k="name" v="Herbeckstraße"/>
    <tag k="railway" v="tram"/>
    <tag k="surface" v="paved"/>
  </way>
  <way id="11382510" version="8" timestamp="2009-01-03T13:35:11Z" uid="58091" user="Andreas M" changeset="721411">
    <nd ref="93547348"/>
    <nd ref="61929838"/>
    <nd ref="61929839"/>
    <nd ref="68916904"/>
    <nd ref="294141129"/>
    <nd ref="285512722"/>
    <nd ref="61929841"/>
    <nd ref="61929842"/>
    <nd ref="294142166"/>
    <nd ref="61929843"/>
    <nd ref="61929845"/>
    <nd ref="285501891"/>
    <nd ref="61929846"/>
    <nd ref="285501964"/>
    <nd ref="303775409"/>
    <nd ref="61923785"/>
    <nd ref="60424767"/>
    <tag k="created_by" v="Potlatch 0.4c"/>
    <tag k="highway" v="tertiary"/>
    <tag k="name" v="Scheibenbergstraße"/>
  </way>
  <way id="11382534" version="5" timestamp="2009-01-03T13:35:07Z" uid="58091" user="Andreas M" changeset="721411">
    <nd ref="65004156"/>
    <nd ref="65004157"/>
    <tag k="created_by" v="Potlatch 0.4c"/>
    <tag k="highway" v="residential"/>
    <tag k="name" v="Salierigasse"/>
    <tag k="oneway" v="yes"/>
    <tag k="railway" v="tram"/>
  </way>
  <way id="11382727" version="17" timestamp="2009-01-03T13:23:54Z" uid="58091" user="Andreas M" changeset="721411">
    <nd ref="93547348"/>
    <nd ref="251207373"/>
    <nd ref="278842299"/>
    <nd ref="68916698"/>
    <nd ref="93547221"/>
    <nd ref="278842300"/>
    <nd ref="61927452"/>
    <nd ref="316266824"/>
    <nd ref="280364830"/>
    <tag k="created_by" v="Potlatch 0.10c"/>
    <tag k="footway" v="both"/>
    <tag k="highway" v="tertiary"/>
    <tag k="maxspeed" v="50"/>
    <tag k="name" v="Pötzleinsdorfer Straße"/>
    <tag k="railway" v="tram"/>
  </way>
  <way id="11382798" version="13" timestamp="2009-01-03T13:23:54Z" uid="58091" user="Andreas M" changeset="721411">
    <nd ref="392318"/>
    <nd ref="64980685"/>
    <tag k="created_by" v="Potlatch 0.10d"/>
    <tag k="highway" v="tertiary"/>
    <tag k="name" v="Gersthofer Straße"/>
  </way>
</osm>
