<?xml version='1.0' encoding='UTF-8'?>
<osm version="0.6" generator="libosmium/2.20.0">
  <way id="114277762" version="1" timestamp="2011-05-21T13:52:06Z" uid="7617" user="Franc" changeset="8206884">
    <nd ref="1294903980"/>
    <nd ref="1294904060"/>
    <nd ref="1294904094"/>
    <tag k="highway" v="service"/>
    <tag k="name" v="Industrial Street"/>
    <tag k="source" v="nearmap"/>
    <tag k="source:name" v="survey"/>
  </way>
  <way id="114277763" version="1" timestamp="2011-05-21T13:52:06Z" uid="7617" user="Franc" changeset="8206884">
    <nd ref="1294904170"/>
    <nd ref="720899224"/>
    <nd ref="583541847"/>
    <nd ref="269282206"/>
    <tag k="highway" v="residential"/>
    <tag k="maxspeed" v="50"/>
    <tag k="maxspeed:source" v="default residential speed limit in Australia"/>
    <tag k="name" v="Auburn Road"/>
    <tag k="restriction" v="school_zone"/>
    <tag k="source" v="nearmap"/>
  </way>
  <way id="114277769" version="1" timestamp="2011-05-21T13:52:07Z" uid="7617" user="Franc" changeset="8206884">
    <nd ref="1294904169"/>
    <nd ref="1294904221"/>
    <nd ref="1294904159"/>
    <nd ref="1294904089"/>
    <nd ref="1294904020"/>
    <nd ref="1294904169"/>
    <tag k="landuse" v="grass"/>
    <tag k="source" v="nearmap"/>
  </way>
  <way id="114277771" version="1" timestamp="2011-05-21T13:52:07Z" uid="7617" user="Franc" changeset="8206884">
    <nd ref="1294904062"/>
    <nd ref="256173612"/>
    <nd ref="1294904120"/>
    <nd ref="256173584"/>
    <nd ref="30381742"/>
    <tag k="highway" v="primary"/>
    <tag k="lanes" v="6"/>
    <tag k="maxspeed" v="60"/>
    <tag k="name" v="Parramatta Road"/>
  </way>
  <way id="114277773" version="1" timestamp="2011-05-21T13:52:07Z" uid="7617" user="Franc" changeset="8206884">
    <nd ref="1294904092"/>
    <nd ref="60284008"/>
    <nd ref="270197983"/>
    <nd ref="26399116"/>
    <tag k="highway" v="trunk"/>
    <tag k="maxspeed" v="70"/>
    <tag k="name" v="Silverwater Road"/>
    <tag k="oneway" v="yes"/>
  </way>
  <way id="114277779" version="1" timestamp="2011-05-21T13:52:07Z" uid="7617" user="Franc" changeset="8206884">
    <nd ref="599623144"/>
    <nd ref="599624448"/>
    <tag k="highway" v="residential"/>
    <tag k="maxspeed" v="50"/>
    <tag k="maxspeed:source" v="default residential speed limit in Australia"/>
    <tag k="name" v="Hampstead Road"/>
  </way>
  <way id="114277782" version="1" timestamp="2011-05-21T13:52:07Z" uid="7617" user="Franc" changeset="8206884">
    <nd ref="1294904106"/>
    <nd ref="270196457"/>
    <nd ref="270196456"/>
    <nd ref="256173629"/>
    <tag k="highway" v="unclassified"/>
    <tag k="name" v="Wetherill Street"/>
  </way>
  <way id="114277785" version="1" timestamp="2011-05-21T13:52:07Z" uid="7617" user="Franc" changeset="8206884">
    <nd ref="1294904263"/>
    <nd ref="26399189"/>
    <nd ref="665138774"/>
    <tag k="highway" v="primary"/>
    <tag k="lanes" v="6"/>
    <tag k="maxspeed" v="60"/>
    <tag k="name" v="Parramatta Road"/>
  </way>
  <way id="114277790" version="1" timestamp="2011-05-21T13:52:07Z" uid="7617" user="Franc" changeset="8206884">
    <nd ref="60027019"/>
    <nd ref="1294904188"/>
    <nd ref="230407515"/>
    <nd ref="1294904263"/>
    <tag k="highway" v="primary"/>
    <tag k="lanes" v="3"/>
    <tag k="maxspeed" v="60"/>
    <tag k="name" v="Parramatta Road"/>
    <tag k="oneway" v="yes"/>
  </way>
  <way id="114277794" version="1" timestamp="2011-05-21T13:52:08Z" uid="7617" user="Franc" changeset="8206884">
    <nd ref="1294904092"/>
    <nd ref="1294904211"/>
    <tag k="highway" v="primary"/>
    <tag k="lanes" v="3"/>
    <tag k="maxspeed" v="60"/>
    <tag k="name" v="Parramatta Road"/>
    <tag k="oneway" v="yes"/>
  </way>
  <way id="114277797" version="1" timestamp="2011-05-21T13:52:08Z" uid="7617" user="Franc" changeset="8206884">
    <nd ref="1294904239"/>
    <nd ref="1294904066"/>
    <nd ref="1294903990"/>
    <nd ref="1294904218"/>
    <nd ref="1294904157"/>
    <nd ref="1294904027"/>
    <nd ref="1294904243"/>
    <nd ref="1294904190"/>
    <nd ref="1294904121"/>
    <nd ref="1294903998"/>
    <nd ref="1294904236"/>
    <nd ref="1294904164"/>
    <nd ref="1294904239"/>
    <tag k="leisure" v="park"/>
    <tag k="source" v="nearmap"/>
  </way>
  <way id="114277801" version="1" timestamp="2011-05-21T13:52:08Z" uid="7617" user="Franc" changeset="8206884">
    <nd ref="1294904015"/>
    <nd ref="269282239"/>
    <nd ref="583541657"/>
    <nd ref="269282212"/>
    <nd ref="269282206"/>
    <nd ref="1294904237"/>
    <tag k="highway" v="residential"/>
    <tag k="maxspeed" v="50"/>
    <tag k="maxspeed:source" v="default residential speed limit in Australia"/>
    <tag k="name" v="Clarke Street"/>
    <tag k="restriction" v="school_zone"/>
    <tag k="source" v="yahoo"/>
  </way>
  <way id="114277803" version="1" timestamp="2011-05-21T13:52:08Z" uid="7617" user="Franc" changeset="8206884">
    <nd ref="1294904041"/>
    <nd ref="1294904143"/>
    <tag k="highway" v="service"/>
    <tag k="source" v="nearmap"/>
  </way>
  <way id="114277804" version="1" timestamp="2011-05-21T13:52:08Z" uid="7617" user="Franc" changeset="8206884">
    <nd ref="1294904168"/>
    <nd ref="1294904054"/>
    <nd ref="1294904264"/>
    <nd ref="1294904207"/>
    <nd ref="1294904137"/>
    <nd ref="1294904085"/>
    <tag k="highway" v="footway"/>
    <tag k="source" v="nearmap"/>
  </way>
  <way id="114277810" version="1" timestamp="2011-05-21T13:52:08Z" uid="7617" user="Franc" changeset="8206884">
    <nd ref="1294904147"/>
    <nd ref="1294904261"/>
    <tag k="addr:interpolation" v="even"/>
  </way>
  <way id="114277811" version="1" timestamp="2011-05-21T13:52:08Z" uid="7617" user="Franc" changeset="8206884">
    <nd ref="720899218"/>
    <nd ref="443604564"/>
    <nd ref="443604565"/>
    <nd ref="269441061"/>
    <nd ref="443604566"/>
    <nd ref="443604591"/>
    <nd ref="443604588"/>
    <nd ref="269441066"/>
    <tag k="highway" v="residential"/>
    <tag k="maxspeed" v="50"/>
    <tag k="maxspeed:source" v="default residential speed limit in Australia"/>
    <tag k="name" v="Kirkham Road"/>
    <tag k="source" v="yahoo"/>
  </way>
  <way id="114277813" version="1" timestamp="2011-05-21T13:52:09Z" uid="7617" user="Franc" changeset="8206884">
    <nd ref="1294904205"/>
    <nd ref="1294904081"/>
    <tag k="highway" v="service"/>
    <tag k="name" v="Wilcox Street"/>
    <tag k="source" v="nearmap"/>
    <tag k="source:name" v="survey"/>
  </way>
  <way id="114277817" version="1" timestamp="2011-05-21T13:52:09Z" uid="7617" user="Franc" changeset="8206884">
    <nd ref="1294903981"/>
    <nd ref="583541851"/>
    <nd ref="583541853"/>
    <nd ref="269282239"/>
    <tag k="highway" v="residential"/>
    <tag k="maxspeed" v="50"/>
    <tag k="maxspeed:source" v="default residential speed limit in Australia"/>
    <tag k="name" v="Harrow Road"/>
    <tag k="restriction" v="school_zone"/>
    <tag k="source" v="nearmap"/>
  </way>
  <way id="114277819" version="1" timestamp="2011-05-21T13:52:09Z" uid="7617" user="Franc" changeset="8206884">
    <nd ref="1294904214"/>
    <nd ref="1294904117"/>
    <nd ref="1294904144"/>
    <tag k="fixme:sign:no" v="2011-05-21"/>
    <tag k="highway" v="service"/>
    <tag k="source" v="nearmap"/>
  </way>
  <way id="114277820" version="1" timestamp="2011-05-21T13:52:09Z" uid="7617" user="Franc" changeset="8206884">
    <nd ref="1294904104"/>
    <nd ref="269282214"/>
    <tag k="highway" v="residential"/>
    <tag k="maxspeed" v="50"/>
    <tag k="maxspeed:source" v="default residential speed limit in Australia"/>
    <tag k="name" v="Guilfoyle Street"/>
    <tag k="source" v="yahoo"/>
  </way>
  <way id="114277824" version="1" timestamp="2011-05-21T13:52:09Z" uid="7617" user="Franc" changeset="8206884">
    <nd ref="230408495"/>
    <nd ref="443604684"/>
    <tag k="highway" v="secondary"/>
    <tag k="maxspeed" v="50"/>
    <tag k="name" v="Rawson Street"/>
  </way>
  <way id="114277825" version="1" timestamp="2011-05-21T13:52:09Z" uid="7617" user="Franc" changeset="8206884">
    <nd ref="325284161"/>
    <nd ref="443604674"/>
    <tag k="highway" v="residential"/>
    <tag k="maxspeed" v="50"/>
    <tag k="maxspeed:source" v="default residential speed limit in Australia"/>
    <tag k="name" v="Gelibolu Parade"/>
    <tag k="old_name" v="North Parade"/>
    <tag k="oneway" v="yes"/>
    <tag k="source" v="survey"/>
  </way>
  <way id="114277828" version="1" timestamp="2011-05-21T13:52:09Z" uid="7617" user="Franc" changeset="8206884">
    <nd ref="1294904210"/>
    <nd ref="1294904192"/>
    <nd ref="1294904129"/>
    <nd ref="1294904000"/>
    <tag k="highway" v="residential"/>
    <tag k="maxspeed" v="50"/>
    <tag k="maxspeed:source" v="default residential speed limit in Australia"/>
    <tag k="name" v="Hall Street"/>
    <tag k="oneway" v="yes"/>
  </way>
  <way id="114277831" version="1" timestamp="2011-05-21T13:52:10Z" uid="7617" user="Franc" changeset="8206884">
    <nd ref="1294904211"/>
    <nd ref="30381742"/>
    <tag k="highway" v="trunk"/>
    <tag k="maxspeed" v="70"/>
    <tag k="name" v="Silverwater Road"/>
    <tag k="oneway" v="yes"/>
  </way>
  <way id="114277833" version="1" timestamp="2011-05-21T13:52:10Z" uid="7617" user="Franc" changeset="8206884">
    <nd ref="1294904000"/>
    <nd ref="1237883413"/>
    <nd ref="610746033"/>
    <tag k="highway" v="residential"/>
    <tag k="maxspeed" v="50"/>
    <tag k="maxspeed:source" v="default residential speed limit in Australia"/>
    <tag k="name" v="Hall Street"/>
  </way>
  <way id="114277835" version="1" timestamp="2011-05-21T13:52:10Z" uid="7617" user="Franc" changeset="8206884">
    <nd ref="1294904211"/>
    <nd ref="1294903995"/>
    <nd ref="1294904165"/>
    <nd ref="1294904106"/>
    <nd ref="1294904062"/>
    <tag k="highway" v="primary"/>
    <tag k="lanes" v="3"/>
    <tag k="maxspeed" v="60"/>
    <tag k="name" v="Parramatta Road"/>
    <tag k="oneway" v="yes"/>
  </way>
  <way id="114277837" version="1" timestamp="2011-05-21T13:52:10Z" uid="7617" user="Franc" changeset="8206884">
    <nd ref="230408495"/>
    <nd ref="1237883378"/>
    <nd ref="348176473"/>
    <nd ref="413345389"/>
    <nd ref="325284149"/>
    <tag k="highway" v="residential"/>
    <tag k="maxspeed" v="50"/>
    <tag k="maxspeed:source" v="default residential speed limit in Australia"/>
    <tag k="name" v="Dartbrook Road"/>
  </way>
  <way id="114277838" version="1" timestamp="2011-05-21T13:52:10Z" uid="7617" user="Franc" changeset="8206884">
    <nd ref="256173584"/>
    <nd ref="1294904079"/>
    <nd ref="1294903982"/>
    <tag k="highway" v="unclassified"/>
    <tag k="name" v="Percy Street"/>
    <tag k="oneway" v="yes"/>
  </way>
  <way id="114277839" version="1" timestamp="2011-05-21T13:52:10Z" uid="7617" user="Franc" changeset="8206884">
    <nd ref="30381742"/>
    <nd ref="60027019"/>
    <tag k="highway" v="primary"/>
    <tag k="lanes" v="6"/>
    <tag k="maxspeed" v="60"/>
    <tag k="name" v="Parramatta Road"/>
  </way>
  <way id="114277842" version="1" timestamp="2011-05-21T13:52:10Z" uid="7617" user="Franc" changeset="8206884">
    <nd ref="1294904237"/>
    <nd ref="267315344"/>
    <nd ref="583541791"/>
    <nd ref="269282210"/>
    <tag k="highway" v="residential"/>
    <tag k="maxspeed" v="50"/>
    <tag k="maxspeed:source" v="default residential speed limit in Australia"/>
    <tag k="name" v="Clarke Street"/>
    <tag k="source" v="yahoo"/>
  </way>
  <way id="114277844" version="1" timestamp="2011-05-21T13:52:11Z" uid="7617" user="Franc" changeset="8206884">
    <nd ref="1294904263"/>
    <nd ref="1294904162"/>
    <nd ref="1294904092"/>
    <tag k="highway" v="primary"/>
    <tag k="lanes" v="3"/>
    <tag k="maxspeed" v="60"/>
    <tag k="name" v="Parramatta Road"/>
    <tag k="oneway" v="yes"/>
  </way>
  <way id="114277845" version="1" timestamp="2011-05-21T13:52:11Z" uid="7617" user="Franc" changeset="8206884">
    <nd ref="1294904140"/>
    <nd ref="1294904240"/>
    <nd ref="1294904187"/>
    <nd ref="1294904071"/>
    <nd ref="1294903994"/>
    <nd ref="1294904233"/>
    <nd ref="1294904161"/>
    <nd ref="1294904037"/>
    <nd ref="1294904248"/>
    <nd ref="1294904140"/>
    <tag k="leisure" v="park"/>
    <tag k="source" v="nearmap"/>
  </way>
  <way id="114277848" version="1" timestamp="2011-05-21T13:52:11Z" uid="7617" user="Franc" changeset="8206884">
    <nd ref="1294904216"/>
    <nd ref="1294904049"/>
    <nd ref="1294904212"/>
    <nd ref="1294904141"/>
    <nd ref="1294904216"/>
    <tag k="leisure" v="playground"/>
    <tag k="name" v="Dudley Reserve"/>
    <tag k="source" v="nearmap"/>
    <tag k="source:name" v="survey"/>
  </way>
  <way id="114277849" version="1" timestamp="2011-05-21T13:52:11Z" uid="7617" user="Franc" changeset="8206884">
    <nd ref="599623144"/>
    <nd ref="599623146"/>
    <nd ref="599623149"/>
    <nd ref="599623153"/>
    <nd ref="599623156"/>
    <nd ref="599623160"/>
    <nd ref="599623161"/>
    <nd ref="599623163"/>
    <nd ref="599622903"/>
    <nd ref="599623164"/>
    <nd ref="599623166"/>
    <nd ref="599622996"/>
    <nd ref="599625706"/>
    <tag k="highway" v="primary"/>
    <tag k="lanes" v="2"/>
    <tag k="maxspeed" v="60"/>
    <tag k="name" v="Parramatta Road"/>
    <tag k="oneway" v="yes"/>
    <tag k="source" v="nearmap"/>
  </way>
</osm>
