<?xml version='1.0' encoding='UTF-8'?>
<osm version="0.6" generator="libosmium/2.20.0">
  <way id="114613458" version="1" timestamp="2011-05-23T22:26:44Z" uid="66036" user="h4v" changeset="8231152">
    <nd ref="1297832732"/>
    <nd ref="1203366889"/>
    <nd ref="1203366867"/>
    <nd ref="1203366890"/>
    <nd ref="1297832732"/>
    <tag k="addr:housenumber" v="17"/>
    <tag k="building" v="yes"/>
    <tag k="source" v="bing"/>
  </way>
  <way id="114613567" version="2" timestamp="2011-06-01T02:05:44Z" uid="20587" user="balrog-kun" changeset="8306930">
    <nd ref="1297834697"/>
    <nd ref="1297834670"/>
    <nd ref="1297834735"/>
    <nd ref="1297834637"/>
    <nd ref="1297834697"/>
    <tag k="addr:housenumber" v="25"/>
    <tag k="addr:street" v="gen. Sylwestra Kaliskiego"/>
    <tag k="building" v="residential"/>
  </way>
  <way id="114613585" version="2" timestamp="2011-06-01T02:19:31Z" uid="20587" user="balrog-kun" changeset="8306955">
    <nd ref="1297834591"/>
    <nd ref="1297834693"/>
    <nd ref="1297834646"/>
    <nd ref="1297834751"/>
    <nd ref="1297834591"/>
    <tag k="addr:housenumber" v="27"/>
    <tag k="addr:street" v="gen. Sylwestra Kaliskiego"/>
    <tag k="building" v="residential"/>
  </way>
  <way id="114613591" version="2" timestamp="2011-06-01T02:05:45Z" uid="20587" user="balrog-kun" changeset="8306930">
    <nd ref="1297834598"/>
    <nd ref="1297834740"/>
    <nd ref="1297834641"/>
    <nd ref="1297834699"/>
    <nd ref="1297834598"/>
    <tag k="addr:housenumber" v="9"/>
    <tag k="addr:street" v="gen. Sylwestra Kaliskiego"/>
    <tag k="building" v="hall"/>
  </way>
  <way id="114613593" version="2" timestamp="2011-06-01T02:05:44Z" uid="20587" user="balrog-kun" changeset="8306930">
    <nd ref="1297834585"/>
    <nd ref="1297834686"/>
    <nd ref="1297834617"/>
    <nd ref="1297834724"/>
    <nd ref="1297834585"/>
    <tag k="addr:housenumber" v="21"/>
    <tag k="addr:street" v="gen. Sylwestra Kaliskiego"/>
    <tag k="building" v="residential"/>
  </way>
</osm>
