<?xml version='1.0' encoding='UTF-8'?>
<osm version="0.6" generator="libosmium/2.20.0">
  <way id="114715422" version="1" timestamp="2011-05-24T19:36:19Z" uid="9581" user="Lobelt" changeset="8238919">
    <nd ref="15860968"/>
    <nd ref="1278534389"/>
    <nd ref="1278553346"/>
    <nd ref="496269784"/>
    <nd ref="1278534403"/>
    <nd ref="1278534418"/>
    <nd ref="15860965"/>
    <nd ref="205090309"/>
    <nd ref="1278534397"/>
    <nd ref="205019259"/>
    <nd ref="1278534411"/>
    <nd ref="15861017"/>
    <nd ref="152187121"/>
    <nd ref="15861088"/>
    <nd ref="624512787"/>
    <tag k="highway" v="primary"/>
    <tag k="maxspeed" v="50"/>
    <tag k="name" v="Alexanderstraße"/>
    <tag k="ref" v="B 87"/>
  </way>
  <way id="114715423" version="1" timestamp="2011-05-24T19:36:19Z" uid="9581" user="Lobelt" changeset="8238919">
    <nd ref="309529966"/>
    <nd ref="568445076"/>
    <nd ref="1278534386"/>
    <nd ref="100521811"/>
    <nd ref="1278534402"/>
    <nd ref="1004148238"/>
    <tag k="highway" v="secondary"/>
    <tag k="maxspeed" v="80"/>
    <tag k="ref" v="L 1052"/>
  </way>
  <way id="114715424" version="1" timestamp="2011-05-24T19:36:20Z" uid="9581" user="Lobelt" changeset="8238919">
    <nd ref="503511374"/>
    <nd ref="1278534394"/>
    <nd ref="15861020"/>
    <nd ref="1278534407"/>
    <nd ref="334547316"/>
    <nd ref="1278534353"/>
    <tag k="highway" v="secondary"/>
    <tag k="maxspeed" v="60"/>
    <tag k="ref" v="L 1052"/>
  </way>
  <way id="114715425" version="1" timestamp="2011-05-24T19:36:20Z" uid="9581" user="Lobelt" changeset="8238919">
    <nd ref="1278534353"/>
    <nd ref="15861062"/>
    <nd ref="1278534388"/>
    <nd ref="15861023"/>
    <tag k="highway" v="secondary"/>
    <tag k="ref" v="L 1052"/>
  </way>
  <way id="114715426" version="1" timestamp="2011-05-24T19:36:20Z" uid="9581" user="Lobelt" changeset="8238919">
    <nd ref="13889110"/>
    <nd ref="29827997"/>
    <nd ref="13889124"/>
    <tag k="highway" v="secondary"/>
    <tag k="maxspeed" v="100"/>
    <tag k="ref" v="L 1052"/>
  </way>
  <way id="114715427" version="1" timestamp="2011-05-24T19:36:20Z" uid="9581" user="Lobelt" changeset="8238919">
    <nd ref="1298727138"/>
    <nd ref="15842943"/>
    <nd ref="1278534366"/>
    <nd ref="29828021"/>
    <nd ref="1278534392"/>
    <nd ref="15842948"/>
    <nd ref="100574614"/>
    <nd ref="15842944"/>
    <nd ref="1278534406"/>
    <nd ref="309529967"/>
    <nd ref="1278534352"/>
    <nd ref="309532634"/>
    <nd ref="309529966"/>
    <tag k="highway" v="secondary"/>
    <tag k="maxspeed" v="100"/>
    <tag k="ref" v="L 1052"/>
  </way>
  <way id="114715428" version="1" timestamp="2011-05-24T19:36:21Z" uid="9581" user="Lobelt" changeset="8238919">
    <nd ref="1278534363"/>
    <nd ref="15860966"/>
    <nd ref="1247472310"/>
    <nd ref="1247472308"/>
    <nd ref="801389066"/>
    <tag k="highway" v="secondary"/>
    <tag k="maxspeed" v="100"/>
    <tag k="ref" v="L 1052"/>
  </way>
  <way id="114715429" version="1" timestamp="2011-05-24T19:36:21Z" uid="9581" user="Lobelt" changeset="8238919">
    <nd ref="1271990264"/>
    <nd ref="245952815"/>
    <nd ref="15860980"/>
    <nd ref="1278534401"/>
    <nd ref="239839868"/>
    <tag k="cycleway" v="track"/>
    <tag k="highway" v="primary"/>
    <tag k="maxspeed" v="30"/>
    <tag k="name" v="Bahnhofstraße"/>
    <tag k="ref" v="B 87"/>
  </way>
  <way id="114715430" version="1" timestamp="2011-05-24T19:36:21Z" uid="9581" user="Lobelt" changeset="8238919">
    <nd ref="13889100"/>
    <nd ref="29828018"/>
    <nd ref="1278534412"/>
    <nd ref="270812547"/>
    <nd ref="29828020"/>
    <nd ref="1298727138"/>
    <tag k="highway" v="secondary"/>
    <tag k="maxspeed" v="70"/>
    <tag k="ref" v="L 1052"/>
  </way>
  <way id="114715431" version="1" timestamp="2011-05-24T19:36:21Z" uid="9581" user="Lobelt" changeset="8238919">
    <nd ref="15861023"/>
    <nd ref="1278534410"/>
    <nd ref="15860969"/>
    <nd ref="1278534363"/>
    <tag k="highway" v="secondary"/>
    <tag k="maxspeed" v="80"/>
    <tag k="ref" v="L 1052"/>
  </way>
</osm>
