<?xml version='1.0' encoding='UTF-8'?>
<osm version="0.6" generator="libosmium/2.20.0">
  <way id="114795778" version="1" timestamp="2011-05-25T10:32:00Z" uid="7617" user="Franc" changeset="8243457">
    <nd ref="60283095"/>
    <nd ref="583216515"/>
    <tag k="highway" v="primary"/>
    <tag k="lcn" v="yes"/>
    <tag k="maxspeed" v="50"/>
    <tag k="name" v="James Street"/>
  </way>
  <way id="114795779" version="1" timestamp="2011-05-25T10:32:00Z" uid="7617" user="Franc" changeset="8243457">
    <nd ref="33265079"/>
    <nd ref="266295692"/>
    <nd ref="599205504"/>
    <nd ref="60283070"/>
    <nd ref="60283071"/>
    <nd ref="60283072"/>
    <nd ref="60283073"/>
    <nd ref="623046867"/>
    <nd ref="60283074"/>
    <nd ref="623046875"/>
    <nd ref="60283044"/>
    <nd ref="623046876"/>
    <nd ref="60283045"/>
    <nd ref="623046878"/>
    <nd ref="60283047"/>
    <nd ref="60283048"/>
    <nd ref="60283049"/>
    <nd ref="60283050"/>
    <nd ref="60283033"/>
    <tag k="highway" v="trunk"/>
    <tag k="maxspeed" v="70"/>
    <tag k="name" v="City West Link"/>
    <tag k="oneway" v="yes"/>
  </way>
  <way id="114795780" version="1" timestamp="2011-05-25T10:32:01Z" uid="7617" user="Franc" changeset="8243457">
    <nd ref="891666963"/>
    <nd ref="1299423598"/>
    <nd ref="1299423605"/>
    <nd ref="1299423596"/>
    <nd ref="916285630"/>
    <tag k="addr:interpolation" v="even"/>
  </way>
  <way id="114795781" version="1" timestamp="2011-05-25T10:32:01Z" uid="7617" user="Franc" changeset="8243457">
    <nd ref="957049369"/>
    <nd ref="1299423607"/>
    <nd ref="1081972205"/>
    <tag k="addr:interpolation" v="even"/>
  </way>
  <way id="114795782" version="1" timestamp="2011-05-25T10:32:01Z" uid="7617" user="Franc" changeset="8243457">
    <nd ref="583216515"/>
    <nd ref="197112064"/>
    <tag k="highway" v="primary"/>
    <tag k="lcn" v="yes"/>
    <tag k="maxspeed" v="50"/>
    <tag k="name" v="James Street"/>
  </way>
  <way id="114795783" version="1" timestamp="2011-05-25T10:32:01Z" uid="7617" user="Franc" changeset="8243457">
    <nd ref="916285556"/>
    <nd ref="1299423603"/>
    <nd ref="1299423599"/>
    <nd ref="1299423592"/>
    <nd ref="913116598"/>
    <tag k="addr:interpolation" v="even"/>
  </way>
  <way id="114795784" version="1" timestamp="2011-05-25T10:32:01Z" uid="7617" user="Franc" changeset="8243457">
    <nd ref="33265079"/>
    <nd ref="26364424"/>
    <tag k="highway" v="secondary"/>
    <tag k="name" v="Catherine Street"/>
    <tag k="oneway" v="yes"/>
    <tag k="source" v="survey"/>
  </way>
  <way id="114795785" version="1" timestamp="2011-05-25T10:32:01Z" uid="7617" user="Franc" changeset="8243457">
    <nd ref="891666970"/>
    <nd ref="893982679"/>
    <tag k="addr:interpolation" v="even"/>
  </way>
</osm>
