<?xml version='1.0' encoding='UTF-8'?>
<osm version="0.6" generator="libosmium/2.20.0">
  <way id="114830328" version="1" timestamp="2011-05-25T16:29:08Z" uid="115477" user="wowik" changeset="8246247">
    <nd ref="332681215"/>
    <nd ref="332681183"/>
    <tag k="addr:postcode" v="141411"/>
    <tag k="cladr:code" v="77000000000382400"/>
    <tag k="cladr:name" v="Сестрорецкая 1-я"/>
    <tag k="cladr:suffix" v="Улица"/>
    <tag k="highway" v="tertiary"/>
    <tag k="name" v="1-я Сестрорецкая улица"/>
    <tag k="omkum:code" v="25075"/>
    <tag k="omkum:old_name" v="улица Суворова (1985 г.)"/>
    <tag k="sorting_name" v="Сестрорецкая  1-я  улица"/>
  </way>
  <way id="114830328" version="2" timestamp="2011-06-01T09:37:40Z" uid="115477" user="wowik" changeset="8308705">
    <nd ref="332681215"/>
    <nd ref="332681183"/>
    <tag k="addr:postcode" v="141411"/>
    <tag k="cladr:code" v="77000000000382400"/>
    <tag k="cladr:name" v="Сестрорецкая 1-я"/>
    <tag k="cladr:suffix" v="Улица"/>
    <tag k="highway" v="residential"/>
    <tag k="name" v="1-я Сестрорецкая улица"/>
    <tag k="omkum:code" v="25075"/>
    <tag k="omkum:old_name" v="улица Суворова (1985 г.)"/>
    <tag k="sorting_name" v="Сестрорецкая  1-я  улица"/>
  </way>
</osm>
