<?xml version='1.0' encoding='UTF-8'?>
<osm version="0.6" generator="libosmium/2.20.0">
  <way id="114823916" version="1" timestamp="2011-05-25T16:14:13Z" uid="115477" user="wowik" changeset="8246135">
    <nd ref="1299812101"/>
    <nd ref="1299809758"/>
    <nd ref="1299810194"/>
    <nd ref="1299812348"/>
    <nd ref="1299812101"/>
    <tag k="addr:city" v="Москва"/>
    <tag k="addr:country" v="RU"/>
    <tag k="building" v="yes"/>
    <tag k="building:levels" v="1"/>
    <tag k="source" v="ggk"/>
  </way>
  <way id="114823917" version="1" timestamp="2011-05-25T16:14:13Z" uid="115477" user="wowik" changeset="8246135">
    <nd ref="1299809543"/>
    <nd ref="1299810989"/>
    <nd ref="1299811713"/>
    <nd ref="1299811328"/>
    <nd ref="1299809543"/>
    <tag k="building" v="yes"/>
    <tag k="building:levels" v="1"/>
    <tag k="source" v="bing"/>
  </way>
  <way id="114823918" version="1" timestamp="2011-05-25T16:14:13Z" uid="115477" user="wowik" changeset="8246135">
    <nd ref="1299811293"/>
    <nd ref="1299810208"/>
    <nd ref="1299810706"/>
    <nd ref="1299810421"/>
    <nd ref="1299811293"/>
    <tag k="building" v="yes"/>
    <tag k="building:levels" v="1"/>
    <tag k="source" v="bing"/>
  </way>
  <way id="114823919" version="1" timestamp="2011-05-25T16:14:14Z" uid="115477" user="wowik" changeset="8246135">
    <nd ref="1299809707"/>
    <nd ref="1299808707"/>
    <nd ref="1299809329"/>
    <nd ref="1299809068"/>
    <nd ref="1299809707"/>
    <tag k="addr:city" v="Москва"/>
    <tag k="addr:country" v="RU"/>
    <tag k="building" v="yes"/>
    <tag k="building:levels" v="1"/>
    <tag k="source" v="bing"/>
  </way>
  <way id="114823920" version="1" timestamp="2011-05-25T16:14:14Z" uid="115477" user="wowik" changeset="8246135">
    <nd ref="1299810782"/>
    <nd ref="1299808874"/>
    <nd ref="1299809468"/>
    <nd ref="1299809928"/>
    <nd ref="1299810782"/>
    <tag k="building" v="yes"/>
    <tag k="building:levels" v="1"/>
    <tag k="source" v="bing"/>
  </way>
  <way id="114823921" version="1" timestamp="2011-05-25T16:14:14Z" uid="115477" user="wowik" changeset="8246135">
    <nd ref="1299808756"/>
    <nd ref="1299809188"/>
    <nd ref="1299810165"/>
    <nd ref="1299812012"/>
    <nd ref="1299808756"/>
    <tag k="addr:city" v="Москва"/>
    <tag k="addr:country" v="RU"/>
    <tag k="building" v="yes"/>
    <tag k="building:levels" v="1"/>
    <tag k="source" v="bing"/>
  </way>
  <way id="114823922" version="1" timestamp="2011-05-25T16:14:14Z" uid="115477" user="wowik" changeset="8246135">
    <nd ref="1299811478"/>
    <nd ref="1299810336"/>
    <nd ref="1299810985"/>
    <nd ref="1299809204"/>
    <nd ref="1299809715"/>
    <nd ref="1299810152"/>
    <nd ref="1299811478"/>
    <tag k="building" v="yes"/>
    <tag k="building:levels" v="1"/>
    <tag k="source" v="bing"/>
  </way>
  <way id="114823923" version="1" timestamp="2011-05-25T16:14:15Z" uid="115477" user="wowik" changeset="8246135">
    <nd ref="1299811025"/>
    <nd ref="1299809031"/>
    <nd ref="1299809589"/>
    <nd ref="1299810023"/>
    <nd ref="1299811025"/>
    <tag k="addr:city" v="Москва"/>
    <tag k="addr:country" v="RU"/>
    <tag k="building" v="yes"/>
    <tag k="building:levels" v="1"/>
    <tag k="source" v="ggk"/>
  </way>
  <way id="114823924" version="1" timestamp="2011-05-25T16:14:15Z" uid="115477" user="wowik" changeset="8246135">
    <nd ref="1299810259"/>
    <nd ref="1299812214"/>
    <nd ref="1299808905"/>
    <nd ref="1299810182"/>
    <nd ref="1299808544"/>
    <nd ref="1299810259"/>
    <tag k="addr:city" v="Москва"/>
    <tag k="addr:country" v="RU"/>
    <tag k="addr:housenumber" v="109"/>
    <tag k="addr:street" v="Ленинградское шоссе"/>
    <tag k="building" v="yes"/>
    <tag k="building:levels" v="1"/>
    <tag k="building:use" v="residential"/>
    <tag k="source" v="ggk"/>
  </way>
  <way id="114823925" version="1" timestamp="2011-05-25T16:14:15Z" uid="115477" user="wowik" changeset="8246135">
    <nd ref="1299811405"/>
    <nd ref="1299809598"/>
    <nd ref="1299810068"/>
    <nd ref="1299810514"/>
    <nd ref="1299811405"/>
    <tag k="building" v="yes"/>
    <tag k="building:levels" v="1"/>
    <tag k="source" v="bing"/>
  </way>
  <way id="114823926" version="1" timestamp="2011-05-25T16:14:16Z" uid="115477" user="wowik" changeset="8246135">
    <nd ref="1299811398"/>
    <nd ref="1299809362"/>
    <nd ref="1299809817"/>
    <nd ref="1299811660"/>
    <nd ref="1299811398"/>
    <tag k="building" v="yes"/>
    <tag k="building:levels" v="1"/>
    <tag k="source" v="bing"/>
  </way>
  <way id="114823927" version="1" timestamp="2011-05-25T16:14:16Z" uid="115477" user="wowik" changeset="8246135">
    <nd ref="1299809738"/>
    <nd ref="1299811271"/>
    <nd ref="1299812099"/>
    <nd ref="1299809607"/>
    <nd ref="1299809738"/>
    <tag k="addr:city" v="Москва"/>
    <tag k="addr:country" v="RU"/>
    <tag k="building" v="yes"/>
    <tag k="building:levels" v="1"/>
    <tag k="source" v="bing"/>
  </way>
  <way id="114823928" version="1" timestamp="2011-05-25T16:14:16Z" uid="115477" user="wowik" changeset="8246135">
    <nd ref="1299809886"/>
    <nd ref="1299808987"/>
    <nd ref="1299809532"/>
    <nd ref="1299809306"/>
    <nd ref="1299809886"/>
    <tag k="building" v="yes"/>
    <tag k="building:levels" v="1"/>
    <tag k="source" v="bing"/>
  </way>
  <way id="114823929" version="1" timestamp="2011-05-25T16:14:16Z" uid="115477" user="wowik" changeset="8246135">
    <nd ref="1299809257"/>
    <nd ref="1299812109"/>
    <nd ref="1299809616"/>
    <nd ref="1299810083"/>
    <nd ref="1299809257"/>
    <tag k="building" v="yes"/>
    <tag k="building:levels" v="1"/>
    <tag k="source" v="bing"/>
  </way>
  <way id="114823930" version="1" timestamp="2011-05-25T16:14:16Z" uid="115477" user="wowik" changeset="8246135">
    <nd ref="1299809926"/>
    <nd ref="1299809023"/>
    <nd ref="1299809574"/>
    <nd ref="1299809334"/>
    <nd ref="1299809926"/>
    <tag k="building" v="yes"/>
    <tag k="building:levels" v="1"/>
    <tag k="source" v="bing"/>
  </way>
  <way id="114823931" version="1" timestamp="2011-05-25T16:14:17Z" uid="115477" user="wowik" changeset="8246135">
    <nd ref="1299809260"/>
    <nd ref="1299810560"/>
    <nd ref="1299811285"/>
    <nd ref="1299812114"/>
    <nd ref="1299809260"/>
    <tag k="building" v="yes"/>
    <tag k="building:levels" v="1"/>
    <tag k="source" v="bing"/>
  </way>
  <way id="114823932" version="1" timestamp="2011-05-25T16:14:17Z" uid="115477" user="wowik" changeset="8246135">
    <nd ref="1299810104"/>
    <nd ref="1299810243"/>
    <nd ref="1299810791"/>
    <nd ref="1299811557"/>
    <nd ref="1299810104"/>
    <tag k="building" v="yes"/>
    <tag k="building:levels" v="1"/>
    <tag k="source" v="bing"/>
  </way>
  <way id="114823933" version="1" timestamp="2011-05-25T16:14:17Z" uid="115477" user="wowik" changeset="8246135">
    <nd ref="1299811476"/>
    <nd ref="1299809452"/>
    <nd ref="1299809889"/>
    <nd ref="1299809676"/>
    <nd ref="1299811476"/>
    <tag k="building" v="yes"/>
    <tag k="building:levels" v="1"/>
    <tag k="source" v="bing"/>
  </way>
  <way id="114823934" version="1" timestamp="2011-05-25T16:14:17Z" uid="115477" user="wowik" changeset="8246135">
    <nd ref="1299810360"/>
    <nd ref="1299812396"/>
    <nd ref="1299809077"/>
    <nd ref="1299810238"/>
    <nd ref="1299810360"/>
    <tag k="building" v="yes"/>
    <tag k="building:levels" v="1"/>
    <tag k="source" v="bing"/>
  </way>
  <way id="114823935" version="1" timestamp="2011-05-25T16:14:18Z" uid="115477" user="wowik" changeset="8246135">
    <nd ref="1299810189"/>
    <nd ref="1299812473"/>
    <nd ref="1299809125"/>
    <nd ref="1299809634"/>
    <nd ref="1299810189"/>
    <tag k="addr:city" v="Москва"/>
    <tag k="addr:country" v="RU"/>
    <tag k="building" v="yes"/>
    <tag k="building:levels" v="1"/>
    <tag k="source" v="bing"/>
  </way>
  <way id="114823937" version="1" timestamp="2011-05-25T16:14:18Z" uid="115477" user="wowik" changeset="8246135">
    <nd ref="1299811056"/>
    <nd ref="1299810034"/>
    <nd ref="1299810466"/>
    <nd ref="1299810262"/>
    <nd ref="1299811056"/>
    <tag k="building" v="yes"/>
    <tag k="building:levels" v="1"/>
    <tag k="source" v="bing"/>
  </way>
  <way id="114823945" version="1" timestamp="2011-05-25T16:14:18Z" uid="115477" user="wowik" changeset="8246135">
    <nd ref="1299811463"/>
    <nd ref="1299809435"/>
    <nd ref="1299809874"/>
    <nd ref="1299810312"/>
    <nd ref="1299811463"/>
    <tag k="building" v="yes"/>
    <tag k="building:levels" v="1"/>
    <tag k="source" v="bing"/>
  </way>
  <way id="114823946" version="1" timestamp="2011-05-25T16:14:19Z" uid="115477" user="wowik" changeset="8246135">
    <nd ref="1299808845"/>
    <nd ref="1299808616"/>
    <nd ref="1299809248"/>
    <nd ref="1299809741"/>
    <nd ref="1299808845"/>
    <tag k="building" v="yes"/>
    <tag k="building:levels" v="1"/>
    <tag k="source" v="bing"/>
  </way>
  <way id="114823948" version="1" timestamp="2011-05-25T16:14:19Z" uid="115477" user="wowik" changeset="8246135">
    <nd ref="1299808871"/>
    <nd ref="1299808684"/>
    <nd ref="1299809308"/>
    <nd ref="1299809783"/>
    <nd ref="1299808871"/>
    <tag k="building" v="yes"/>
    <tag k="building:levels" v="1"/>
    <tag k="source" v="bing"/>
  </way>
  <way id="114823952" version="1" timestamp="2011-05-25T16:14:19Z" uid="115477" user="wowik" changeset="8246135">
    <nd ref="1299811898"/>
    <nd ref="1299809655"/>
    <nd ref="1299810102"/>
    <nd ref="1299812205"/>
    <nd ref="1299811898"/>
    <tag k="building" v="yes"/>
    <tag k="building:levels" v="1"/>
    <tag k="source" v="bing"/>
  </way>
  <way id="114823954" version="1" timestamp="2011-05-25T16:14:19Z" uid="115477" user="wowik" changeset="8246135">
    <nd ref="1299810162"/>
    <nd ref="1299809357"/>
    <nd ref="1299809811"/>
    <nd ref="1299811176"/>
    <nd ref="1299810162"/>
    <tag k="building" v="yes"/>
    <tag k="building:levels" v="1"/>
    <tag k="source" v="bing"/>
  </way>
  <way id="114823955" version="1" timestamp="2011-05-25T16:14:19Z" uid="115477" user="wowik" changeset="8246135">
    <nd ref="1299810030"/>
    <nd ref="1299811783"/>
    <nd ref="1299808500"/>
    <nd ref="1299809190"/>
    <nd ref="1299810030"/>
    <tag k="building" v="garages"/>
    <tag k="building:levels" v="1"/>
    <tag k="source" v="bing"/>
  </way>
  <way id="114823958" version="1" timestamp="2011-05-25T16:14:19Z" uid="115477" user="wowik" changeset="8246135">
    <nd ref="1299811581"/>
    <nd ref="1299809497"/>
    <nd ref="1299809953"/>
    <nd ref="1299810355"/>
    <nd ref="1299811581"/>
    <tag k="building" v="yes"/>
    <tag k="building:levels" v="1"/>
    <tag k="source" v="bing"/>
  </way>
  <way id="114823961" version="1" timestamp="2011-05-25T16:14:20Z" uid="115477" user="wowik" changeset="8246135">
    <nd ref="1299809957"/>
    <nd ref="1299810071"/>
    <nd ref="1299810528"/>
    <nd ref="1299811224"/>
    <nd ref="1299812044"/>
    <nd ref="1299809592"/>
    <nd ref="1299810045"/>
    <nd ref="1299810468"/>
    <nd ref="1299811182"/>
    <nd ref="1299810827"/>
    <nd ref="1299811573"/>
    <nd ref="1299812385"/>
    <nd ref="1299809069"/>
    <nd ref="1299811266"/>
    <nd ref="1299812093"/>
    <nd ref="1299808798"/>
    <nd ref="1299812475"/>
    <nd ref="1299809130"/>
    <nd ref="1299809638"/>
    <nd ref="1299810095"/>
    <nd ref="1299811629"/>
    <nd ref="1299812437"/>
    <nd ref="1299809088"/>
    <nd ref="1299809606"/>
    <nd ref="1299809379"/>
    <nd ref="1299809861"/>
    <nd ref="1299810301"/>
    <nd ref="1299810895"/>
    <nd ref="1299812297"/>
    <nd ref="1299808990"/>
    <nd ref="1299809534"/>
    <nd ref="1299809994"/>
    <nd ref="1299809782"/>
    <nd ref="1299810210"/>
    <nd ref="1299810708"/>
    <nd ref="1299811469"/>
    <nd ref="1299809250"/>
    <nd ref="1299809755"/>
    <nd ref="1299810191"/>
    <nd ref="1299810700"/>
    <nd ref="1299810412"/>
    <nd ref="1299811131"/>
    <nd ref="1299811892"/>
    <nd ref="1299808620"/>
    <nd ref="1299810235"/>
    <nd ref="1299810773"/>
    <nd ref="1299811539"/>
    <nd ref="1299812345"/>
    <nd ref="1299811970"/>
    <nd ref="1299808711"/>
    <nd ref="1299809332"/>
    <nd ref="1299809802"/>
    <nd ref="1299811150"/>
    <nd ref="1299811917"/>
    <nd ref="1299808682"/>
    <nd ref="1299809307"/>
    <nd ref="1299809019"/>
    <nd ref="1299809571"/>
    <nd ref="1299810016"/>
    <nd ref="1299809957"/>
    <tag k="natural" v="water"/>
  </way>
  <way id="114823966" version="1" timestamp="2011-05-25T16:14:20Z" uid="115477" user="wowik" changeset="8246135">
    <nd ref="1299810158"/>
    <nd ref="1299812003"/>
    <nd ref="1299808746"/>
    <nd ref="1299809343"/>
    <nd ref="1299809809"/>
    <nd ref="1299811643"/>
    <nd ref="1299812448"/>
    <nd ref="1299809097"/>
    <nd ref="1299809617"/>
    <nd ref="1299809404"/>
    <nd ref="1299809869"/>
    <nd ref="1299810307"/>
    <nd ref="1299810918"/>
    <nd ref="1299808780"/>
    <nd ref="1299810158"/>
    <tag k="natural" v="water"/>
  </way>
  <way id="114823969" version="1" timestamp="2011-05-25T16:14:20Z" uid="115477" user="wowik" changeset="8246135">
    <nd ref="1299812294"/>
    <nd ref="1299810529"/>
    <nd ref="1299811233"/>
    <nd ref="1299812067"/>
    <nd ref="1299808787"/>
    <nd ref="1299812449"/>
    <nd ref="1299809115"/>
    <nd ref="1299809619"/>
    <nd ref="1299812294"/>
    <tag k="addr:city" v="Москва"/>
    <tag k="addr:country" v="RU"/>
    <tag k="addr:housenumber" v="32"/>
    <tag k="addr:street" v="Лужская улица"/>
    <tag k="building" v="yes"/>
    <tag k="building:levels" v="1"/>
    <tag k="building:use" v="residential"/>
    <tag k="source" v="ggk"/>
  </way>
  <way id="114823971" version="1" timestamp="2011-05-25T16:14:21Z" uid="115477" user="wowik" changeset="8246135">
    <nd ref="1299810711"/>
    <nd ref="1299808862"/>
    <nd ref="1299809458"/>
    <nd ref="1299809165"/>
    <nd ref="1299810711"/>
    <tag k="addr:city" v="Москва"/>
    <tag k="addr:country" v="RU"/>
    <tag k="building" v="yes"/>
    <tag k="building:levels" v="1"/>
    <tag k="source" v="ggk"/>
  </way>
  <way id="114823975" version="1" timestamp="2011-05-25T16:14:21Z" uid="115477" user="wowik" changeset="8246135">
    <nd ref="1299809709"/>
    <nd ref="1299811185"/>
    <nd ref="1299811978"/>
    <nd ref="1299808717"/>
    <nd ref="1299809709"/>
    <tag k="addr:city" v="Москва"/>
    <tag k="addr:country" v="RU"/>
    <tag k="building" v="yes"/>
    <tag k="building:levels" v="1"/>
    <tag k="source" v="bing"/>
  </way>
  <way id="114823977" version="1" timestamp="2011-05-25T16:14:21Z" uid="115477" user="wowik" changeset="8246135">
    <nd ref="1299809017"/>
    <nd ref="1299810000"/>
    <nd ref="1299809567"/>
    <nd ref="1299809924"/>
    <nd ref="1299809017"/>
    <tag k="addr:city" v="Москва"/>
    <tag k="addr:country" v="RU"/>
    <tag k="building" v="yes"/>
    <tag k="building:levels" v="1"/>
    <tag k="source" v="bing"/>
  </way>
  <way id="114823979" version="1" timestamp="2011-05-25T16:14:21Z" uid="115477" user="wowik" changeset="8246135">
    <nd ref="1299808466"/>
    <nd ref="1299811163"/>
    <nd ref="1299811934"/>
    <nd ref="1299809836"/>
    <nd ref="1299808466"/>
    <tag k="building" v="yes"/>
    <tag k="building:levels" v="1"/>
    <tag k="source" v="bing"/>
  </way>
  <way id="114823981" version="1" timestamp="2011-05-25T16:14:21Z" uid="115477" user="wowik" changeset="8246135">
    <nd ref="1299810348"/>
    <nd ref="1299812173"/>
    <nd ref="1299808866"/>
    <nd ref="1299809463"/>
    <nd ref="1299809894"/>
    <tag k="highway" v="service"/>
    <tag k="living_street" v="yes"/>
    <tag k="service" v="driveway"/>
  </way>
  <way id="114823983" version="1" timestamp="2011-05-25T16:14:21Z" uid="115477" user="wowik" changeset="8246135">
    <nd ref="1299810267"/>
    <nd ref="1299812236"/>
    <nd ref="1299808919"/>
    <nd ref="1299810148"/>
    <nd ref="1299810267"/>
    <tag k="building" v="yes"/>
    <tag k="building:levels" v="1"/>
    <tag k="source" v="bing"/>
  </way>
  <way id="114823984" version="1" timestamp="2011-05-25T16:14:22Z" uid="115477" user="wowik" changeset="8246135">
    <nd ref="1299810416"/>
    <nd ref="1299809642"/>
    <nd ref="1299810097"/>
    <nd ref="1299809888"/>
    <nd ref="1299810416"/>
    <tag k="addr:city" v="Москва"/>
    <tag k="addr:country" v="RU"/>
    <tag k="building" v="yes"/>
    <tag k="building:levels" v="1"/>
    <tag k="source" v="ggk"/>
  </way>
  <way id="114823985" version="1" timestamp="2011-05-25T16:14:22Z" uid="115477" user="wowik" changeset="8246135">
    <nd ref="1299809631"/>
    <nd ref="1299811100"/>
    <nd ref="1299810094"/>
    <nd ref="1299811856"/>
    <nd ref="1299809631"/>
    <tag k="addr:city" v="Москва"/>
    <tag k="addr:country" v="RU"/>
    <tag k="addr:housenumber" v="123"/>
    <tag k="addr:street" v="Ленинградское шоссе"/>
    <tag k="building" v="yes"/>
    <tag k="building:levels" v="1"/>
    <tag k="building:use" v="residential"/>
    <tag k="source" v="ggk"/>
  </way>
  <way id="114823986" version="1" timestamp="2011-05-25T16:14:22Z" uid="115477" user="wowik" changeset="8246135">
    <nd ref="1299812444"/>
    <nd ref="1299809973"/>
    <nd ref="1299810382"/>
    <nd ref="1299810180"/>
    <nd ref="1299812444"/>
    <tag k="building" v="yes"/>
    <tag k="building:levels" v="1"/>
    <tag k="source" v="bing"/>
  </way>
  <way id="114823987" version="1" timestamp="2011-05-25T16:14:22Z" uid="115477" user="wowik" changeset="8246135">
    <nd ref="1299809120"/>
    <nd ref="1299810389"/>
    <nd ref="1299811099"/>
    <nd ref="1299811853"/>
    <nd ref="1299809120"/>
    <tag k="addr:city" v="Москва"/>
    <tag k="addr:country" v="RU"/>
    <tag k="addr:housenumber" v="107"/>
    <tag k="addr:street" v="Ленинградское шоссе"/>
    <tag k="building" v="yes"/>
    <tag k="building:levels" v="1"/>
    <tag k="building:use" v="residential"/>
    <tag k="source" v="ggk"/>
  </way>
  <way id="114823989" version="1" timestamp="2011-05-25T16:14:22Z" uid="115477" user="wowik" changeset="8246135">
    <nd ref="1299809367"/>
    <nd ref="1299810660"/>
    <nd ref="1299811404"/>
    <nd ref="1299812218"/>
    <nd ref="1299809367"/>
    <tag k="addr:city" v="Москва"/>
    <tag k="addr:country" v="RU"/>
    <tag k="building" v="yes"/>
    <tag k="building:levels" v="1"/>
    <tag k="source" v="bing"/>
  </way>
  <way id="114823994" version="1" timestamp="2011-05-25T16:14:23Z" uid="115477" user="wowik" changeset="8246135">
    <nd ref="1299809982"/>
    <nd ref="1299809128"/>
    <nd ref="1299809636"/>
    <nd ref="1299809446"/>
    <nd ref="1299809982"/>
    <tag k="addr:city" v="Москва"/>
    <tag k="addr:country" v="RU"/>
    <tag k="building" v="yes"/>
    <tag k="building:levels" v="1"/>
    <tag k="building:use" v="residential"/>
    <tag k="source" v="bing"/>
  </way>
  <way id="114823997" version="1" timestamp="2011-05-25T16:14:23Z" uid="115477" user="wowik" changeset="8246135">
    <nd ref="1299810778"/>
    <nd ref="1299811545"/>
    <nd ref="1297372352"/>
    <nd ref="1297372065"/>
    <nd ref="1299810778"/>
    <tag k="addr:city" v="Москва"/>
    <tag k="addr:country" v="RU"/>
    <tag k="building" v="yes"/>
    <tag k="building:levels" v="1"/>
    <tag k="source" v="bing"/>
  </way>
  <way id="114823999" version="1" timestamp="2011-05-25T16:14:23Z" uid="115477" user="wowik" changeset="8246135">
    <nd ref="1299809494"/>
    <nd ref="1299811227"/>
    <nd ref="1299812051"/>
    <nd ref="1299808765"/>
    <nd ref="1299809494"/>
    <tag k="building" v="yes"/>
    <tag k="building:levels" v="1"/>
    <tag k="source" v="bing"/>
  </way>
</osm>
