<?xml version='1.0' encoding='UTF-8'?>
<osm version="0.6" generator="libosmium/2.20.0">
  <way id="114824001" version="1" timestamp="2011-05-25T16:14:23Z" uid="115477" user="wowik" changeset="8246135">
    <nd ref="1299809981"/>
    <nd ref="1299811646"/>
    <nd ref="1299811288"/>
    <nd ref="1299812130"/>
    <nd ref="1299808825"/>
    <nd ref="1299809433"/>
    <nd ref="1299809981"/>
    <tag k="addr:city" v="Москва"/>
    <tag k="addr:country" v="RU"/>
    <tag k="addr:housenumber" v="11"/>
    <tag k="addr:street" v="Лужская улица"/>
    <tag k="building" v="yes"/>
    <tag k="building:levels" v="1"/>
    <tag k="building:use" v="residential"/>
    <tag k="source" v="ggk"/>
  </way>
  <way id="114824004" version="1" timestamp="2011-05-25T16:14:23Z" uid="115477" user="wowik" changeset="8246135">
    <nd ref="1299810119"/>
    <nd ref="1299809304"/>
    <nd ref="1299809013"/>
    <nd ref="1299809551"/>
    <nd ref="1299810119"/>
    <tag k="addr:city" v="Москва"/>
    <tag k="addr:country" v="RU"/>
    <tag k="building" v="yes"/>
    <tag k="building:levels" v="1"/>
    <tag k="source" v="bing"/>
  </way>
  <way id="114824005" version="1" timestamp="2011-05-25T16:14:24Z" uid="115477" user="wowik" changeset="8246135">
    <nd ref="1299811866"/>
    <nd ref="1299809640"/>
    <nd ref="1299809449"/>
    <nd ref="1299809884"/>
    <nd ref="1299811866"/>
    <tag k="addr:city" v="Москва"/>
    <tag k="addr:country" v="RU"/>
    <tag k="building" v="yes"/>
    <tag k="building:levels" v="1"/>
    <tag k="source" v="bing"/>
  </way>
  <way id="114824007" version="1" timestamp="2011-05-25T16:14:24Z" uid="115477" user="wowik" changeset="8246135">
    <nd ref="1299810611"/>
    <nd ref="1299808695"/>
    <nd ref="1299809318"/>
    <nd ref="1299809059"/>
    <nd ref="1299810611"/>
    <tag k="building" v="yes"/>
    <tag k="building:levels" v="1"/>
    <tag k="source" v="bing"/>
  </way>
  <way id="114824008" version="1" timestamp="2011-05-25T16:14:24Z" uid="115477" user="wowik" changeset="8246135">
    <nd ref="1299811963"/>
    <nd ref="1299809692"/>
    <nd ref="1299809475"/>
    <nd ref="1299809948"/>
    <nd ref="1299811963"/>
    <tag k="addr:city" v="Москва"/>
    <tag k="addr:country" v="RU"/>
    <tag k="addr:housenumber" v="111"/>
    <tag k="addr:street" v="Ленинградское шоссе"/>
    <tag k="building" v="yes"/>
    <tag k="building:levels" v="1"/>
    <tag k="building:use" v="residential"/>
    <tag k="source" v="ggk"/>
  </way>
  <way id="114824009" version="1" timestamp="2011-05-25T16:14:24Z" uid="115477" user="wowik" changeset="8246135">
    <nd ref="1299812072"/>
    <nd ref="1299809730"/>
    <nd ref="1299809517"/>
    <nd ref="1299809978"/>
    <nd ref="1299810387"/>
    <nd ref="1299811096"/>
    <nd ref="1299809321"/>
    <nd ref="1299809786"/>
    <nd ref="1299810215"/>
    <tag k="man_made" v="pipeline"/>
  </way>
  <way id="114824010" version="1" timestamp="2011-05-25T16:14:24Z" uid="115477" user="wowik" changeset="8246135">
    <nd ref="1299810232"/>
    <nd ref="1299809465"/>
    <nd ref="1299809908"/>
    <nd ref="1299809690"/>
    <nd ref="1299810232"/>
    <tag k="addr:city" v="Москва"/>
    <tag k="addr:country" v="RU"/>
    <tag k="building" v="yes"/>
    <tag k="building:levels" v="1"/>
    <tag k="source" v="bing"/>
  </way>
  <way id="114824011" version="1" timestamp="2011-05-25T16:14:24Z" uid="115477" user="wowik" changeset="8246135">
    <nd ref="1299808705"/>
    <nd ref="1299810131"/>
    <nd ref="1299810631"/>
    <nd ref="1299811353"/>
    <nd ref="1299808705"/>
    <tag k="addr:city" v="Москва"/>
    <tag k="addr:country" v="RU"/>
    <tag k="addr:housenumber" v="101"/>
    <tag k="addr:street" v="Ленинградское шоссе"/>
    <tag k="building" v="yes"/>
    <tag k="building:levels" v="1"/>
    <tag k="building:use" v="residential"/>
    <tag k="source" v="ggk"/>
  </way>
  <way id="114824012" version="1" timestamp="2011-05-25T16:14:25Z" uid="115477" user="wowik" changeset="8246135">
    <nd ref="1299811820"/>
    <nd ref="1299809597"/>
    <nd ref="1299810059"/>
    <nd ref="1299809859"/>
    <nd ref="1299811820"/>
    <tag k="addr:city" v="Москва"/>
    <tag k="addr:country" v="RU"/>
    <tag k="addr:housenumber" v="97"/>
    <tag k="addr:street" v="Ленинградское шоссе"/>
    <tag k="building" v="yes"/>
    <tag k="building:levels" v="1"/>
    <tag k="building:use" v="residential"/>
    <tag k="source" v="ggk"/>
  </way>
  <way id="114824013" version="1" timestamp="2011-05-25T16:14:25Z" uid="115477" user="wowik" changeset="8246135">
    <nd ref="1299809191"/>
    <nd ref="1299811974"/>
    <nd ref="1299808715"/>
    <nd ref="1299812388"/>
    <nd ref="1299809191"/>
    <tag k="building" v="yes"/>
    <tag k="building:levels" v="1"/>
    <tag k="source" v="bing"/>
  </way>
  <way id="114824015" version="1" timestamp="2011-05-25T16:14:25Z" uid="115477" user="wowik" changeset="8246135">
    <nd ref="1299812176"/>
    <nd ref="1299810734"/>
    <nd ref="1299811500"/>
    <nd ref="1299812321"/>
    <nd ref="1299812176"/>
    <tag k="addr:city" v="Москва"/>
    <tag k="addr:country" v="RU"/>
    <tag k="addr:housenumber" v="38"/>
    <tag k="addr:street" v="Лужская улица"/>
    <tag k="building" v="yes"/>
    <tag k="building:levels" v="1"/>
    <tag k="building:use" v="residential"/>
    <tag k="source" v="ggk"/>
  </way>
  <way id="114824016" version="1" timestamp="2011-05-25T16:14:25Z" uid="115477" user="wowik" changeset="8246135">
    <nd ref="1299810323"/>
    <nd ref="1299812289"/>
    <nd ref="1299808960"/>
    <nd ref="1299809521"/>
    <nd ref="1299810323"/>
    <tag k="addr:city" v="Москва"/>
    <tag k="addr:country" v="RU"/>
    <tag k="building" v="yes"/>
    <tag k="building:levels" v="1"/>
    <tag k="source" v="ggk"/>
  </way>
  <way id="114824021" version="1" timestamp="2011-05-25T16:14:25Z" uid="115477" user="wowik" changeset="8246135">
    <nd ref="1299808495"/>
    <nd ref="1299810027"/>
    <nd ref="1299809186"/>
    <nd ref="1299810458"/>
    <nd ref="1299808495"/>
    <tag k="addr:city" v="Москва"/>
    <tag k="addr:country" v="RU"/>
    <tag k="addr:street" v="Ленинградское шоссе"/>
    <tag k="building" v="yes"/>
    <tag k="building:levels" v="1"/>
    <tag k="building:use" v="residential"/>
    <tag k="source" v="ggk"/>
  </way>
  <way id="114824023" version="1" timestamp="2011-05-25T16:14:26Z" uid="115477" user="wowik" changeset="8246135">
    <nd ref="1299810338"/>
    <nd ref="1299812319"/>
    <nd ref="1299808996"/>
    <nd ref="1299809546"/>
    <nd ref="1299810338"/>
    <tag k="building" v="yes"/>
    <tag k="building:levels" v="1"/>
    <tag k="source" v="bing"/>
  </way>
  <way id="114824024" version="1" timestamp="2011-05-25T16:14:26Z" uid="115477" user="wowik" changeset="8246135">
    <nd ref="1299808491"/>
    <nd ref="1299811812"/>
    <nd ref="1299808535"/>
    <nd ref="1299809211"/>
    <nd ref="1299808491"/>
    <tag k="building" v="yes"/>
    <tag k="building:levels" v="1"/>
    <tag k="building:use" v="residential"/>
    <tag k="source" v="bing"/>
  </way>
  <way id="114824025" version="1" timestamp="2011-05-25T16:14:26Z" uid="115477" user="wowik" changeset="8246135">
    <nd ref="1299808913"/>
    <nd ref="1299810265"/>
    <nd ref="1299810832"/>
    <nd ref="1299811577"/>
    <nd ref="1299808913"/>
    <tag k="addr:city" v="Москва"/>
    <tag k="addr:country" v="RU"/>
    <tag k="building" v="yes"/>
    <tag k="building:levels" v="1"/>
    <tag k="source" v="bing"/>
  </way>
  <way id="114824029" version="1" timestamp="2011-05-25T16:14:26Z" uid="115477" user="wowik" changeset="8246135">
    <nd ref="1299809223"/>
    <nd ref="1299810890"/>
    <nd ref="1299811626"/>
    <nd ref="1299812425"/>
    <nd ref="1299809223"/>
    <tag k="addr:city" v="Москва"/>
    <tag k="addr:country" v="RU"/>
    <tag k="building" v="yes"/>
    <tag k="building:levels" v="1"/>
    <tag k="source" v="bing"/>
  </way>
  <way id="114824030" version="1" timestamp="2011-05-25T16:14:27Z" uid="115477" user="wowik" changeset="8246135">
    <nd ref="1299811787"/>
    <nd ref="1299811094"/>
    <nd ref="1299811829"/>
    <nd ref="1299808576"/>
    <nd ref="1299811787"/>
    <tag k="building" v="yes"/>
    <tag k="building:levels" v="1"/>
    <tag k="source" v="bing"/>
  </way>
  <way id="114824031" version="1" timestamp="2011-05-25T16:14:27Z" uid="115477" user="wowik" changeset="8246135">
    <nd ref="1299810671"/>
    <nd ref="1299809844"/>
    <nd ref="1299810272"/>
    <nd ref="1299810852"/>
    <nd ref="1299810671"/>
    <tag k="addr:city" v="Москва"/>
    <tag k="addr:country" v="RU"/>
    <tag k="addr:housenumber" v="34"/>
    <tag k="addr:street" v="Лужская улица"/>
    <tag k="building" v="yes"/>
    <tag k="building:levels" v="1"/>
    <tag k="building:use" v="residential"/>
    <tag k="source" v="ggk"/>
  </way>
  <way id="114824032" version="1" timestamp="2011-05-25T16:14:27Z" uid="115477" user="wowik" changeset="8246135">
    <nd ref="1299811257"/>
    <nd ref="1299809244"/>
    <nd ref="1299809733"/>
    <nd ref="1299810186"/>
    <nd ref="1299811817"/>
    <nd ref="1299808562"/>
    <nd ref="1299809220"/>
    <nd ref="1299809721"/>
    <nd ref="1299811257"/>
    <tag k="addr:city" v="Москва"/>
    <tag k="addr:country" v="RU"/>
    <tag k="addr:housenumber" v="113"/>
    <tag k="addr:street" v="Ленинградское шоссе"/>
    <tag k="building" v="yes"/>
    <tag k="building:levels" v="1"/>
    <tag k="building:use" v="residential"/>
    <tag k="source" v="ggk"/>
  </way>
  <way id="114824037" version="1" timestamp="2011-05-25T16:14:27Z" uid="115477" user="wowik" changeset="8246135">
    <nd ref="1299809503"/>
    <nd ref="1299812434"/>
    <nd ref="1299809085"/>
    <nd ref="1299808795"/>
    <nd ref="1299809503"/>
    <tag k="building" v="yes"/>
    <tag k="building:levels" v="1"/>
    <tag k="source" v="bing"/>
  </way>
  <way id="114824038" version="1" timestamp="2011-05-25T16:14:27Z" uid="115477" user="wowik" changeset="8246135">
    <nd ref="1299808769"/>
    <nd ref="1299811413"/>
    <nd ref="1299809536"/>
    <nd ref="1299809995"/>
    <nd ref="1299808769"/>
    <tag k="building" v="yes"/>
    <tag k="building:levels" v="1"/>
    <tag k="source" v="bing"/>
  </way>
  <way id="114824039" version="1" timestamp="2011-05-25T16:14:28Z" uid="115477" user="wowik" changeset="8246135">
    <nd ref="1299809377"/>
    <nd ref="1299810698"/>
    <nd ref="1299811420"/>
    <nd ref="1299812246"/>
    <nd ref="1299811857"/>
    <nd ref="1299808603"/>
    <nd ref="1299809246"/>
    <nd ref="1299809735"/>
    <nd ref="1299810592"/>
    <nd ref="1299811317"/>
    <nd ref="1299812138"/>
    <nd ref="1299808828"/>
    <nd ref="1299808463"/>
    <nd ref="1299809157"/>
    <nd ref="1299809674"/>
    <nd ref="1299810122"/>
    <nd ref="1299811679"/>
    <nd ref="1299809377"/>
    <tag k="natural" v="water"/>
  </way>
  <way id="114824040" version="1" timestamp="2011-05-25T16:14:28Z" uid="115477" user="wowik" changeset="8246135">
    <nd ref="1299811904"/>
    <nd ref="1299809897"/>
    <nd ref="1299810340"/>
    <nd ref="1299810991"/>
    <nd ref="1299811904"/>
    <tag k="building" v="yes"/>
    <tag k="building:levels" v="1"/>
    <tag k="source" v="bing"/>
  </way>
  <way id="114824041" version="1" timestamp="2011-05-25T16:14:28Z" uid="115477" user="wowik" changeset="8246135">
    <nd ref="1299809464"/>
    <nd ref="1299810729"/>
    <nd ref="1299811496"/>
    <nd ref="1299811861"/>
    <nd ref="1299809464"/>
    <tag k="building" v="yes"/>
    <tag k="building:levels" v="1"/>
    <tag k="source" v="bing"/>
  </way>
  <way id="114824042" version="1" timestamp="2011-05-25T16:14:28Z" uid="115477" user="wowik" changeset="8246135">
    <nd ref="1299811550"/>
    <nd ref="1299810077"/>
    <nd ref="1299812351"/>
    <nd ref="1299808882"/>
    <nd ref="1299811550"/>
    <tag k="addr:city" v="Москва"/>
    <tag k="addr:country" v="RU"/>
    <tag k="building" v="yes"/>
    <tag k="building:levels" v="1"/>
    <tag k="source" v="ggk"/>
  </way>
  <way id="114824043" version="1" timestamp="2011-05-25T16:14:28Z" uid="115477" user="wowik" changeset="8246135">
    <nd ref="1299810675"/>
    <nd ref="1299809847"/>
    <nd ref="1299810284"/>
    <nd ref="1299812005"/>
    <nd ref="1299810675"/>
    <tag k="building" v="yes"/>
    <tag k="building:levels" v="1"/>
    <tag k="source" v="bing"/>
  </way>
  <way id="114824044" version="1" timestamp="2011-05-25T16:14:28Z" uid="115477" user="wowik" changeset="8246135">
    <nd ref="1299810182"/>
    <nd ref="1299809975"/>
    <nd ref="1299810386"/>
    <nd ref="1299808905"/>
    <nd ref="1299810182"/>
    <tag k="addr:city" v="Москва"/>
    <tag k="addr:country" v="RU"/>
    <tag k="building" v="yes"/>
    <tag k="building:levels" v="1"/>
    <tag k="source" v="ggk"/>
  </way>
  <way id="114824045" version="1" timestamp="2011-05-25T16:14:29Z" uid="115477" user="wowik" changeset="8246135">
    <nd ref="1299809459"/>
    <nd ref="1299812316"/>
    <nd ref="1299808993"/>
    <nd ref="1299809544"/>
    <nd ref="1299810704"/>
    <nd ref="1299811452"/>
    <nd ref="1299812286"/>
    <nd ref="1299808957"/>
    <nd ref="1299808673"/>
    <nd ref="1299809459"/>
    <tag k="building" v="garages"/>
    <tag k="building:levels" v="1"/>
    <tag k="source" v="bing"/>
  </way>
  <way id="114824046" version="1" timestamp="2011-05-25T16:14:29Z" uid="115477" user="wowik" changeset="8246135">
    <nd ref="1299810107"/>
    <nd ref="1299812322"/>
    <nd ref="1299809008"/>
    <nd ref="1299809547"/>
    <nd ref="1299810107"/>
    <tag k="addr:city" v="Москва"/>
    <tag k="addr:country" v="RU"/>
    <tag k="building" v="yes"/>
    <tag k="building:levels" v="1"/>
    <tag k="source" v="bing"/>
  </way>
  <way id="114824047" version="1" timestamp="2011-05-25T16:14:29Z" uid="115477" user="wowik" changeset="8246135">
    <nd ref="1299811467"/>
    <nd ref="1299809443"/>
    <nd ref="1299809876"/>
    <nd ref="1299811263"/>
    <nd ref="1299812091"/>
    <nd ref="1299808794"/>
    <nd ref="1299811467"/>
    <tag k="addr:city" v="Москва"/>
    <tag k="addr:country" v="RU"/>
    <tag k="addr:housenumber" v="103"/>
    <tag k="addr:street" v="Ленинградское шоссе"/>
    <tag k="building" v="yes"/>
    <tag k="building:levels" v="1"/>
    <tag k="building:use" v="residential"/>
    <tag k="source" v="ggk"/>
  </way>
  <way id="114824048" version="1" timestamp="2011-05-25T16:14:29Z" uid="115477" user="wowik" changeset="8246135">
    <nd ref="1299810907"/>
    <nd ref="1299809971"/>
    <nd ref="1299810378"/>
    <nd ref="1299812241"/>
    <nd ref="1299810907"/>
    <tag k="building" v="yes"/>
    <tag k="building:levels" v="1"/>
    <tag k="source" v="bing"/>
  </way>
  <way id="114824049" version="1" timestamp="2011-05-25T16:14:29Z" uid="115477" user="wowik" changeset="8246135">
    <nd ref="1299812249"/>
    <nd ref="1299808456"/>
    <nd ref="1299810391"/>
    <nd ref="1299809671"/>
    <nd ref="1299812249"/>
    <tag k="building" v="yes"/>
    <tag k="building:levels" v="1"/>
    <tag k="source" v="bing"/>
  </way>
  <way id="114824050" version="1" timestamp="2011-05-25T16:14:29Z" uid="115477" user="wowik" changeset="8246135">
    <nd ref="1299808848"/>
    <nd ref="1299811472"/>
    <nd ref="1299812302"/>
    <nd ref="1299808991"/>
    <nd ref="1299808848"/>
    <tag k="building" v="yes"/>
    <tag k="building:levels" v="1"/>
    <tag k="source" v="bing"/>
  </way>
  <way id="114824051" version="1" timestamp="2011-05-25T16:14:29Z" uid="115477" user="wowik" changeset="8246135">
    <nd ref="1299811907"/>
    <nd ref="1299810594"/>
    <nd ref="1299811322"/>
    <nd ref="1299809132"/>
    <nd ref="1299811907"/>
    <tag k="building" v="yes"/>
    <tag k="building:levels" v="1"/>
    <tag k="source" v="bing"/>
  </way>
  <way id="114824052" version="1" timestamp="2011-05-25T16:14:30Z" uid="115477" user="wowik" changeset="8246135">
    <nd ref="1299811032"/>
    <nd ref="1299810025"/>
    <nd ref="1299810454"/>
    <nd ref="1299810245"/>
    <nd ref="1299811032"/>
    <tag k="building" v="yes"/>
    <tag k="building:levels" v="1"/>
    <tag k="source" v="bing"/>
  </way>
  <way id="114824053" version="1" timestamp="2011-05-25T16:14:30Z" uid="115477" user="wowik" changeset="8246135">
    <nd ref="1299810078"/>
    <nd ref="1299811847"/>
    <nd ref="1299808581"/>
    <nd ref="1299809238"/>
    <nd ref="1299810078"/>
    <tag k="building" v="yes"/>
    <tag k="building:levels" v="1"/>
    <tag k="source" v="bing"/>
  </way>
  <way id="114824054" version="1" timestamp="2011-05-25T16:14:30Z" uid="115477" user="wowik" changeset="8246135">
    <nd ref="1299812208"/>
    <nd ref="1299809806"/>
    <nd ref="1299809594"/>
    <nd ref="1299810049"/>
    <nd ref="1299812208"/>
    <tag k="addr:city" v="Москва"/>
    <tag k="addr:country" v="RU"/>
    <tag k="building" v="yes"/>
    <tag k="building:levels" v="1"/>
    <tag k="source" v="bing"/>
  </way>
  <way id="114824055" version="1" timestamp="2011-05-25T16:14:30Z" uid="115477" user="wowik" changeset="8246135">
    <nd ref="1299809842"/>
    <nd ref="1299808937"/>
    <nd ref="1299808585"/>
    <nd ref="1299809240"/>
    <nd ref="1299809842"/>
    <tag k="building" v="yes"/>
    <tag k="building:levels" v="1"/>
    <tag k="source" v="bing"/>
  </way>
  <way id="114824056" version="1" timestamp="2011-05-25T16:14:30Z" uid="115477" user="wowik" changeset="8246135">
    <nd ref="1299811394"/>
    <nd ref="1299809595"/>
    <nd ref="1299810053"/>
    <nd ref="1299810498"/>
    <nd ref="1299811394"/>
    <tag k="building" v="yes"/>
    <tag k="building:levels" v="1"/>
    <tag k="source" v="bing"/>
  </way>
  <way id="114824057" version="1" timestamp="2011-05-25T16:14:30Z" uid="115477" user="wowik" changeset="8246135">
    <nd ref="1299810949"/>
    <nd ref="1299808958"/>
    <nd ref="1299808676"/>
    <nd ref="1299809263"/>
    <nd ref="1299810949"/>
    <tag k="building" v="yes"/>
    <tag k="building:levels" v="1"/>
    <tag k="source" v="bing"/>
  </way>
  <way id="114824058" version="1" timestamp="2011-05-25T16:14:30Z" uid="115477" user="wowik" changeset="8246135">
    <nd ref="1299810298"/>
    <nd ref="1299812243"/>
    <nd ref="1299808944"/>
    <nd ref="1299809501"/>
    <nd ref="1299810298"/>
    <tag k="addr:city" v="Москва"/>
    <tag k="addr:country" v="RU"/>
    <tag k="addr:housenumber" v="105"/>
    <tag k="addr:street" v="Ленинградское шоссе"/>
    <tag k="building" v="yes"/>
    <tag k="building:levels" v="1"/>
    <tag k="building:use" v="residential"/>
    <tag k="source" v="ggk"/>
  </way>
  <way id="114824060" version="1" timestamp="2011-05-25T16:14:31Z" uid="115477" user="wowik" changeset="8246135">
    <nd ref="1299809731"/>
    <nd ref="1299811251"/>
    <nd ref="1299812074"/>
    <nd ref="1299809287"/>
    <nd ref="1299809731"/>
    <tag k="addr:city" v="Москва"/>
    <tag k="addr:country" v="RU"/>
    <tag k="addr:housenumber" v="127"/>
    <tag k="addr:street" v="Ленинградское шоссе"/>
    <tag k="building" v="yes"/>
    <tag k="building:levels" v="1"/>
    <tag k="building:use" v="residential"/>
    <tag k="source" v="ggk"/>
  </way>
  <way id="114824061" version="1" timestamp="2011-05-25T16:14:31Z" uid="115477" user="wowik" changeset="8246135">
    <nd ref="1299810425"/>
    <nd ref="1299809668"/>
    <nd ref="1299810108"/>
    <nd ref="1299810589"/>
    <nd ref="1299810425"/>
    <tag k="addr:city" v="Москва"/>
    <tag k="addr:country" v="RU"/>
    <tag k="building" v="yes"/>
    <tag k="building:levels" v="1"/>
    <tag k="source" v="bing"/>
  </way>
  <way id="114824062" version="1" timestamp="2011-05-25T16:14:31Z" uid="115477" user="wowik" changeset="8246135">
    <nd ref="1299812183"/>
    <nd ref="1299809792"/>
    <nd ref="1299810230"/>
    <nd ref="1299810745"/>
    <nd ref="1299811504"/>
    <nd ref="1299808909"/>
    <nd ref="1299812183"/>
    <tag k="addr:city" v="Москва"/>
    <tag k="addr:country" v="RU"/>
    <tag k="building" v="yes"/>
    <tag k="building:levels" v="1"/>
    <tag k="source" v="ggk"/>
  </way>
  <way id="114824063" version="1" timestamp="2011-05-25T16:14:31Z" uid="115477" user="wowik" changeset="8246135">
    <nd ref="1299808941"/>
    <nd ref="1299810295"/>
    <nd ref="1299810862"/>
    <nd ref="1299808750"/>
    <nd ref="1299809360"/>
    <nd ref="1299809814"/>
    <nd ref="1299810247"/>
    <nd ref="1299810055"/>
    <nd ref="1299808941"/>
    <tag k="addr:city" v="Москва"/>
    <tag k="addr:country" v="RU"/>
    <tag k="addr:housenumber" v="9"/>
    <tag k="addr:street" v="Лужская улица"/>
    <tag k="building" v="yes"/>
    <tag k="building:levels" v="1"/>
    <tag k="building:use" v="residential"/>
    <tag k="source" v="ggk"/>
  </way>
  <way id="114824064" version="1" timestamp="2011-05-25T16:14:31Z" uid="115477" user="wowik" changeset="8246135">
    <nd ref="1299812329"/>
    <nd ref="1299809921"/>
    <nd ref="1299809698"/>
    <nd ref="1299810137"/>
    <nd ref="1299810635"/>
    <nd ref="1299811359"/>
    <nd ref="1299811717"/>
    <nd ref="1299812329"/>
    <tag k="building" v="garages"/>
    <tag k="building:levels" v="1"/>
    <tag k="source" v="bing"/>
  </way>
  <way id="114824065" version="1" timestamp="2011-05-25T16:14:32Z" uid="115477" user="wowik" changeset="8246135">
    <nd ref="1299810952"/>
    <nd ref="1299808961"/>
    <nd ref="1299811669"/>
    <nd ref="1299809523"/>
    <nd ref="1299810952"/>
    <tag k="addr:city" v="Москва"/>
    <tag k="addr:country" v="RU"/>
    <tag k="addr:housenumber" v="121"/>
    <tag k="addr:street" v="Ленинградское шоссе"/>
    <tag k="building" v="yes"/>
    <tag k="building:levels" v="1"/>
    <tag k="building:use" v="residential"/>
    <tag k="source" v="ggk"/>
  </way>
  <way id="114824066" version="1" timestamp="2011-05-25T16:14:32Z" uid="115477" user="wowik" changeset="8246135">
    <nd ref="1299812327"/>
    <nd ref="1299811002"/>
    <nd ref="1299811726"/>
    <nd ref="1299809448"/>
    <nd ref="1299812327"/>
    <tag k="building" v="yes"/>
    <tag k="building:levels" v="1"/>
    <tag k="source" v="bing"/>
  </way>
  <way id="114824067" version="1" timestamp="2011-05-25T16:14:32Z" uid="115477" user="wowik" changeset="8246135">
    <nd ref="1299809387"/>
    <nd ref="1299812273"/>
    <nd ref="1299808623"/>
    <nd ref="1299809252"/>
    <nd ref="1299809387"/>
    <tag k="building" v="yes"/>
    <tag k="building:levels" v="1"/>
    <tag k="source" v="bing"/>
  </way>
  <way id="114824068" version="1" timestamp="2011-05-25T16:14:32Z" uid="115477" user="wowik" changeset="8246135">
    <nd ref="1299808608"/>
    <nd ref="1299810330"/>
    <nd ref="1299810960"/>
    <nd ref="1299811683"/>
    <nd ref="1299808608"/>
    <tag k="building" v="yes"/>
    <tag k="building:levels" v="1"/>
    <tag k="source" v="bing"/>
  </way>
  <way id="114824069" version="1" timestamp="2011-05-25T16:14:32Z" uid="115477" user="wowik" changeset="8246135">
    <nd ref="1299810999"/>
    <nd ref="1299809010"/>
    <nd ref="1299811723"/>
    <nd ref="1299809549"/>
    <nd ref="1299810999"/>
    <tag k="addr:city" v="Москва"/>
    <tag k="addr:country" v="RU"/>
    <tag k="addr:housenumber" v="117"/>
    <tag k="addr:street" v="Ленинградское шоссе"/>
    <tag k="building" v="yes"/>
    <tag k="building:levels" v="1"/>
    <tag k="building:use" v="residential"/>
    <tag k="source" v="ggk"/>
  </way>
  <way id="114824070" version="1" timestamp="2011-05-25T16:14:32Z" uid="115477" user="wowik" changeset="8246135">
    <nd ref="1299808687"/>
    <nd ref="1299811996"/>
    <nd ref="1299808720"/>
    <nd ref="1299809337"/>
    <nd ref="1299808687"/>
    <tag k="addr:city" v="Москва"/>
    <tag k="addr:country" v="RU"/>
    <tag k="building" v="yes"/>
    <tag k="building:levels" v="1"/>
    <tag k="source" v="ggk"/>
  </way>
  <way id="114824071" version="1" timestamp="2011-05-25T16:14:33Z" uid="115477" user="wowik" changeset="8246135">
    <nd ref="1299809942"/>
    <nd ref="1299812000"/>
    <nd ref="1299808723"/>
    <nd ref="1299809338"/>
    <nd ref="1299809942"/>
    <tag k="building" v="yes"/>
    <tag k="building:levels" v="1"/>
    <tag k="source" v="bing"/>
  </way>
  <way id="114824072" version="1" timestamp="2011-05-25T16:14:33Z" uid="115477" user="wowik" changeset="8246135">
    <nd ref="1299811371"/>
    <nd ref="1299810242"/>
    <nd ref="1299810051"/>
    <nd ref="1299810494"/>
    <nd ref="1299811371"/>
    <tag k="addr:city" v="Москва"/>
    <tag k="addr:country" v="RU"/>
    <tag k="addr:housenumber" v="40"/>
    <tag k="addr:street" v="Лужская улица"/>
    <tag k="building" v="yes"/>
    <tag k="building:levels" v="1"/>
    <tag k="building:use" v="residential"/>
    <tag k="source" v="ggk"/>
  </way>
  <way id="114824073" version="1" timestamp="2011-05-25T16:14:33Z" uid="115477" user="wowik" changeset="8246135">
    <nd ref="1299809946"/>
    <nd ref="1299809790"/>
    <nd ref="1299810220"/>
    <nd ref="1299810741"/>
    <nd ref="1299809946"/>
    <tag k="building" v="yes"/>
    <tag k="building:levels" v="1"/>
    <tag k="source" v="bing"/>
  </way>
  <way id="114824074" version="1" timestamp="2011-05-25T16:14:33Z" uid="115477" user="wowik" changeset="8246135">
    <nd ref="1299809080"/>
    <nd ref="1299810362"/>
    <nd ref="1299811072"/>
    <nd ref="1299810678"/>
    <nd ref="1299809080"/>
    <tag k="addr:city" v="Москва"/>
    <tag k="addr:country" v="RU"/>
    <tag k="building" v="yes"/>
    <tag k="building:levels" v="1"/>
    <tag k="source" v="bing"/>
  </way>
  <way id="114824075" version="1" timestamp="2011-05-25T16:14:34Z" uid="115477" user="wowik" changeset="8246135">
    <nd ref="1299810489"/>
    <nd ref="1299808526"/>
    <nd ref="1299809206"/>
    <nd ref="1299808928"/>
    <nd ref="1299810489"/>
    <tag k="building" v="yes"/>
    <tag k="building:levels" v="1"/>
    <tag k="source" v="bing"/>
  </way>
  <way id="114824076" version="1" timestamp="2011-05-25T16:14:34Z" uid="115477" user="wowik" changeset="8246135">
    <nd ref="1299809491"/>
    <nd ref="1299812362"/>
    <nd ref="1299812015"/>
    <nd ref="1299808761"/>
    <nd ref="1299809491"/>
    <tag k="addr:city" v="Москва"/>
    <tag k="addr:country" v="RU"/>
    <tag k="building" v="yes"/>
    <tag k="building:levels" v="1"/>
    <tag k="source" v="bing"/>
  </way>
  <way id="114824077" version="1" timestamp="2011-05-25T16:14:34Z" uid="115477" user="wowik" changeset="8246135">
    <nd ref="1299809261"/>
    <nd ref="1299812126"/>
    <nd ref="1299808803"/>
    <nd ref="1299809419"/>
    <nd ref="1299809261"/>
    <tag k="building" v="yes"/>
    <tag k="building:levels" v="1"/>
    <tag k="source" v="bing"/>
  </way>
  <way id="114824078" version="1" timestamp="2011-05-25T16:14:34Z" uid="115477" user="wowik" changeset="8246135">
    <nd ref="1299809943"/>
    <nd ref="1299809029"/>
    <nd ref="1299809579"/>
    <nd ref="1299810019"/>
    <nd ref="1299809943"/>
    <tag k="building" v="yes"/>
    <tag k="building:levels" v="1"/>
    <tag k="source" v="bing"/>
  </way>
  <way id="114824079" version="1" timestamp="2011-05-25T16:14:34Z" uid="115477" user="wowik" changeset="8246135">
    <nd ref="1299809998"/>
    <nd ref="1299811725"/>
    <nd ref="1299808454"/>
    <nd ref="1299809153"/>
    <nd ref="1299810032"/>
    <nd ref="1299810463"/>
    <nd ref="1299809998"/>
    <tag k="addr:city" v="Москва"/>
    <tag k="addr:country" v="RU"/>
    <tag k="addr:housenumber" v="99"/>
    <tag k="addr:street" v="Ленинградское шоссе"/>
    <tag k="building" v="yes"/>
    <tag k="building:levels" v="1"/>
    <tag k="building:use" v="residential"/>
    <tag k="source" v="ggk"/>
  </way>
  <way id="114824080" version="1" timestamp="2011-05-25T16:14:35Z" uid="115477" user="wowik" changeset="8246135">
    <nd ref="1299809477"/>
    <nd ref="1299810801"/>
    <nd ref="1299810511"/>
    <nd ref="1299811220"/>
    <nd ref="1299809477"/>
    <tag k="addr:city" v="Москва"/>
    <tag k="addr:country" v="RU"/>
    <tag k="addr:housenumber" v="28"/>
    <tag k="addr:street" v="Лужская улица"/>
    <tag k="building" v="yes"/>
    <tag k="building:levels" v="1"/>
    <tag k="building:use" v="residential"/>
    <tag k="source" v="ggk"/>
  </way>
  <way id="114824081" version="1" timestamp="2011-05-25T16:14:35Z" uid="115477" user="wowik" changeset="8246135">
    <nd ref="1299808984"/>
    <nd ref="1299810590"/>
    <nd ref="1299811315"/>
    <nd ref="1299812134"/>
    <nd ref="1299808984"/>
    <tag k="building" v="yes"/>
    <tag k="building:levels" v="1"/>
    <tag k="source" v="bing"/>
  </way>
  <way id="114824082" version="1" timestamp="2011-05-25T16:14:35Z" uid="115477" user="wowik" changeset="8246135">
    <nd ref="1299809664"/>
    <nd ref="1299808679"/>
    <nd ref="1299809265"/>
    <nd ref="1299809006"/>
    <nd ref="1299809664"/>
    <tag k="addr:city" v="Москва"/>
    <tag k="addr:country" v="RU"/>
    <tag k="addr:housenumber" v="42"/>
    <tag k="addr:street" v="Лужская улица"/>
    <tag k="building" v="yes"/>
    <tag k="building:levels" v="1"/>
    <tag k="building:use" v="residential"/>
    <tag k="source" v="ggk"/>
  </way>
  <way id="114824083" version="1" timestamp="2011-05-25T16:14:35Z" uid="115477" user="wowik" changeset="8246135">
    <nd ref="1299809685"/>
    <nd ref="1299808690"/>
    <nd ref="1299809313"/>
    <nd ref="1299809028"/>
    <nd ref="1299809685"/>
    <tag k="building" v="yes"/>
    <tag k="building:levels" v="1"/>
    <tag k="building:use" v="residential"/>
    <tag k="source" v="bing"/>
  </way>
  <way id="114824084" version="1" timestamp="2011-05-25T16:14:35Z" uid="115477" user="wowik" changeset="8246135">
    <nd ref="1299809689"/>
    <nd ref="1299808698"/>
    <nd ref="1299809326"/>
    <nd ref="1299810857"/>
    <nd ref="1299811598"/>
    <nd ref="1299812402"/>
    <nd ref="1299809689"/>
    <tag k="building" v="yes"/>
    <tag k="building:levels" v="1"/>
    <tag k="source" v="bing"/>
  </way>
  <way id="114824085" version="1" timestamp="2011-05-25T16:14:36Z" uid="115477" user="wowik" changeset="8246135">
    <nd ref="1299810047"/>
    <nd ref="1299808919"/>
    <nd ref="1299810148"/>
    <nd ref="1299808512"/>
    <nd ref="1299809197"/>
    <nd ref="1299810047"/>
    <tag k="building" v="yes"/>
    <tag k="building:levels" v="1"/>
    <tag k="source" v="bing"/>
  </way>
  <way id="114824086" version="1" timestamp="2011-05-25T16:14:36Z" uid="115477" user="wowik" changeset="8246135">
    <nd ref="1299809510"/>
    <nd ref="1299812439"/>
    <nd ref="1299809092"/>
    <nd ref="1299809611"/>
    <nd ref="1299811591"/>
    <nd ref="1299812391"/>
    <nd ref="1299809072"/>
    <nd ref="1299808773"/>
    <nd ref="1299809369"/>
    <nd ref="1299809840"/>
    <nd ref="1299810269"/>
    <nd ref="1299811448"/>
    <nd ref="1299812281"/>
    <nd ref="1299808954"/>
    <nd ref="1299809510"/>
    <tag k="natural" v="water"/>
  </way>
  <way id="114824087" version="1" timestamp="2011-05-25T16:14:36Z" uid="115477" user="wowik" changeset="8246135">
    <nd ref="1299810546"/>
    <nd ref="1299808651"/>
    <nd ref="1299809254"/>
    <nd ref="1299809763"/>
    <nd ref="1299810546"/>
    <tag k="building" v="yes"/>
    <tag k="building:levels" v="1"/>
    <tag k="source" v="bing"/>
  </way>
  <way id="114824088" version="1" timestamp="2011-05-25T16:14:36Z" uid="115477" user="wowik" changeset="8246135">
    <nd ref="1299811901"/>
    <nd ref="1299810588"/>
    <nd ref="1299812466"/>
    <nd ref="1299809119"/>
    <nd ref="1299811901"/>
    <tag k="building" v="yes"/>
    <tag k="building:levels" v="1"/>
    <tag k="source" v="bing"/>
  </way>
  <way id="114824089" version="1" timestamp="2011-05-25T16:14:36Z" uid="115477" user="wowik" changeset="8246135">
    <nd ref="1299810313"/>
    <nd ref="1299809520"/>
    <nd ref="1299809283"/>
    <nd ref="1299809769"/>
    <nd ref="1299810313"/>
    <tag k="addr:city" v="Москва"/>
    <tag k="addr:country" v="RU"/>
    <tag k="building" v="yes"/>
    <tag k="building:levels" v="1"/>
    <tag k="source" v="bing"/>
  </way>
  <way id="114824090" version="1" timestamp="2011-05-25T16:14:36Z" uid="115477" user="wowik" changeset="8246135">
    <nd ref="1299809564"/>
    <nd ref="1299808460"/>
    <nd ref="1299809154"/>
    <nd ref="1299809673"/>
    <nd ref="1299810957"/>
    <nd ref="1299811676"/>
    <nd ref="1299809564"/>
    <tag k="addr:city" v="Москва"/>
    <tag k="addr:country" v="RU"/>
    <tag k="addr:housenumber" v="30"/>
    <tag k="addr:street" v="Лужская улица"/>
    <tag k="building" v="yes"/>
    <tag k="building:levels" v="1"/>
    <tag k="building:use" v="residential"/>
    <tag k="source" v="ggk"/>
  </way>
  <way id="114824091" version="1" timestamp="2011-05-25T16:14:37Z" uid="115477" user="wowik" changeset="8246135">
    <nd ref="1299808885"/>
    <nd ref="1299811552"/>
    <nd ref="1299809316"/>
    <nd ref="1299809785"/>
    <nd ref="1299810214"/>
    <nd ref="1299810726"/>
    <nd ref="1299810434"/>
    <nd ref="1299811169"/>
    <nd ref="1299811937"/>
    <nd ref="1299808692"/>
    <nd ref="1299809719"/>
    <nd ref="1299810160"/>
    <nd ref="1299810655"/>
    <nd ref="1299811370"/>
    <nd ref="1299811068"/>
    <nd ref="1299811815"/>
    <nd ref="1299808541"/>
    <nd ref="1299809215"/>
    <nd ref="1299810350"/>
    <nd ref="1299811026"/>
    <nd ref="1299811772"/>
    <nd ref="1299808492"/>
    <nd ref="1299812211"/>
    <nd ref="1299808888"/>
    <nd ref="1299809473"/>
    <nd ref="1299809945"/>
    <nd ref="1299811849"/>
    <nd ref="1299808592"/>
    <nd ref="1299809242"/>
    <nd ref="1299809727"/>
    <nd ref="1299809515"/>
    <nd ref="1299809977"/>
    <nd ref="1299808885"/>
    <tag k="natural" v="water"/>
  </way>
  <way id="114824092" version="1" timestamp="2011-05-25T16:14:37Z" uid="115477" user="wowik" changeset="8246135">
    <nd ref="1299812324"/>
    <nd ref="1299811091"/>
    <nd ref="1299811825"/>
    <nd ref="1299811424"/>
    <nd ref="1299812269"/>
    <nd ref="1299808951"/>
    <nd ref="1299809507"/>
    <nd ref="1299810664"/>
    <nd ref="1299811409"/>
    <nd ref="1299812238"/>
    <nd ref="1299808925"/>
    <nd ref="1299808573"/>
    <nd ref="1299809236"/>
    <nd ref="1299809722"/>
    <nd ref="1299810178"/>
    <nd ref="1299811275"/>
    <nd ref="1299810127"/>
    <nd ref="1299812106"/>
    <nd ref="1299808802"/>
    <nd ref="1299809396"/>
    <nd ref="1299809135"/>
    <nd ref="1299809652"/>
    <nd ref="1299810098"/>
    <nd ref="1299810550"/>
    <nd ref="1299812442"/>
    <nd ref="1299809094"/>
    <nd ref="1299809613"/>
    <nd ref="1299810080"/>
    <nd ref="1299809864"/>
    <nd ref="1299810303"/>
    <nd ref="1299810911"/>
    <nd ref="1299811639"/>
    <nd ref="1299809684"/>
    <nd ref="1299810125"/>
    <nd ref="1299810597"/>
    <nd ref="1299811327"/>
    <nd ref="1299811022"/>
    <nd ref="1299811767"/>
    <nd ref="1299808487"/>
    <nd ref="1299809162"/>
    <nd ref="1299810335"/>
    <nd ref="1299810981"/>
    <nd ref="1299811688"/>
    <nd ref="1299808423"/>
    <nd ref="1299812147"/>
    <nd ref="1299808855"/>
    <nd ref="1299809893"/>
    <nd ref="1299809456"/>
    <nd ref="1299810087"/>
    <nd ref="1299810540"/>
    <nd ref="1299812077"/>
    <nd ref="1299810613"/>
    <nd ref="1299811255"/>
    <nd ref="1299811663"/>
    <nd ref="1299812468"/>
    <nd ref="1299809123"/>
    <nd ref="1299809630"/>
    <nd ref="1299810886"/>
    <nd ref="1299811621"/>
    <nd ref="1299808791"/>
    <nd ref="1299809078"/>
    <nd ref="1299812408"/>
    <nd ref="1299810297"/>
    <nd ref="1299809850"/>
    <nd ref="1299809376"/>
    <nd ref="1299809666"/>
    <nd ref="1299809150"/>
    <nd ref="1299808450"/>
    <nd ref="1299811350"/>
    <nd ref="1299811806"/>
    <nd ref="1299808518"/>
    <nd ref="1299809200"/>
    <nd ref="1299809712"/>
    <nd ref="1299809500"/>
    <nd ref="1299809954"/>
    <nd ref="1299810358"/>
    <nd ref="1299811065"/>
    <nd ref="1299812180"/>
    <nd ref="1299808876"/>
    <nd ref="1299809470"/>
    <nd ref="1299809931"/>
    <nd ref="1299810346"/>
    <nd ref="1299810150"/>
    <nd ref="1299810639"/>
    <nd ref="1299811362"/>
    <nd ref="1299812199"/>
    <nd ref="1299809969"/>
    <nd ref="1299810376"/>
    <nd ref="1299812324"/>
    <tag k="natural" v="water"/>
  </way>
  <way id="114824094" version="1" timestamp="2011-05-25T16:14:38Z" uid="115477" user="wowik" changeset="8246135">
    <nd ref="1299811966"/>
    <nd ref="1299809696"/>
    <nd ref="1299810133"/>
    <nd ref="1299810633"/>
    <nd ref="1299811355"/>
    <nd ref="1299811040"/>
    <nd ref="1299811781"/>
    <nd ref="1299808499"/>
    <nd ref="1299811966"/>
    <tag k="addr:city" v="Москва"/>
    <tag k="addr:country" v="RU"/>
    <tag k="addr:housenumber" v="115"/>
    <tag k="addr:street" v="Ленинградское шоссе"/>
    <tag k="building" v="yes"/>
    <tag k="building:levels" v="1"/>
    <tag k="building:use" v="residential"/>
    <tag k="source" v="ggk"/>
  </way>
  <way id="114824096" version="1" timestamp="2011-05-25T16:14:38Z" uid="115477" user="wowik" changeset="8246135">
    <nd ref="1299810372"/>
    <nd ref="1299809609"/>
    <nd ref="1299810073"/>
    <nd ref="1299812140"/>
    <nd ref="1299810372"/>
    <tag k="building" v="yes"/>
    <tag k="building:levels" v="1"/>
    <tag k="source" v="bing"/>
  </way>
  <way id="114824097" version="1" timestamp="2011-05-25T16:14:38Z" uid="115477" user="wowik" changeset="8246135">
    <nd ref="1299808995"/>
    <nd ref="1299811719"/>
    <nd ref="1299808430"/>
    <nd ref="1299809870"/>
    <nd ref="1299810309"/>
    <nd ref="1299810939"/>
    <nd ref="1299808995"/>
    <tag k="addr:city" v="Москва"/>
    <tag k="addr:country" v="RU"/>
    <tag k="addr:housenumber" v="36"/>
    <tag k="addr:street" v="Лужская улица"/>
    <tag k="building" v="yes"/>
    <tag k="building:levels" v="1"/>
    <tag k="building:use" v="residential"/>
    <tag k="source" v="ggk"/>
  </way>
  <way id="114824098" version="1" timestamp="2011-05-25T16:14:39Z" uid="115477" user="wowik" changeset="8246135">
    <nd ref="1299811139"/>
    <nd ref="1299809140"/>
    <nd ref="1299809654"/>
    <nd ref="1299810100"/>
    <nd ref="1299811139"/>
    <tag k="addr:city" v="Москва"/>
    <tag k="addr:country" v="RU"/>
    <tag k="building" v="yes"/>
    <tag k="building:levels" v="1"/>
    <tag k="source" v="ggk"/>
  </way>
  <way id="114824099" version="1" timestamp="2011-05-25T16:14:39Z" uid="115477" user="wowik" changeset="8246135">
    <nd ref="1299812196"/>
    <nd ref="1299810754"/>
    <nd ref="1299811514"/>
    <nd ref="1299811180"/>
    <nd ref="1299812196"/>
    <tag k="building" v="yes"/>
    <tag k="building:levels" v="1"/>
    <tag k="source" v="bing"/>
  </way>
  <way id="114824100" version="1" timestamp="2011-05-25T16:14:39Z" uid="115477" user="wowik" changeset="8246135">
    <nd ref="1299809070"/>
    <nd ref="1299811810"/>
    <nd ref="1299808521"/>
    <nd ref="1299809934"/>
    <nd ref="1299809070"/>
    <tag k="building" v="yes"/>
    <tag k="building:levels" v="1"/>
    <tag k="source" v="bing"/>
  </way>
  <way id="114824101" version="1" timestamp="2011-05-25T16:14:39Z" uid="115477" user="wowik" changeset="8246135">
    <nd ref="1299809063"/>
    <nd ref="1299810352"/>
    <nd ref="1299811029"/>
    <nd ref="1299811776"/>
    <nd ref="1299809063"/>
    <tag k="building" v="yes"/>
    <tag k="building:levels" v="1"/>
    <tag k="source" v="bing"/>
  </way>
  <way id="114824102" version="1" timestamp="2011-05-25T16:14:39Z" uid="115477" user="wowik" changeset="8246135">
    <nd ref="1299812358"/>
    <nd ref="1299811037"/>
    <nd ref="1299811779"/>
    <nd ref="1299808497"/>
    <nd ref="1299812358"/>
    <tag k="addr:city" v="Москва"/>
    <tag k="addr:country" v="RU"/>
    <tag k="building" v="yes"/>
    <tag k="building:levels" v="1"/>
    <tag k="source" v="bing"/>
  </way>
  <way id="114824103" version="1" timestamp="2011-05-25T16:14:40Z" uid="115477" user="wowik" changeset="8246135">
    <nd ref="1299809950"/>
    <nd ref="1299809505"/>
    <nd ref="1299809966"/>
    <nd ref="1299810373"/>
    <nd ref="1299809950"/>
    <tag k="building" v="yes"/>
    <tag k="building:levels" v="1"/>
    <tag k="source" v="bing"/>
  </way>
  <way id="114824104" version="1" timestamp="2011-05-25T16:14:40Z" uid="115477" user="wowik" changeset="8246135">
    <nd ref="1293289797"/>
    <nd ref="1299809076"/>
    <nd ref="1299808776"/>
    <nd ref="1299809372"/>
    <tag k="foot" v="yes"/>
    <tag k="highway" v="footway"/>
  </way>
  <way id="114824105" version="1" timestamp="2011-05-25T16:14:40Z" uid="115477" user="wowik" changeset="8246135">
    <nd ref="1299809187"/>
    <nd ref="1299810461"/>
    <nd ref="1299810257"/>
    <nd ref="1299810798"/>
    <nd ref="1299809187"/>
    <tag k="addr:city" v="Москва"/>
    <tag k="addr:country" v="RU"/>
    <tag k="building" v="yes"/>
    <tag k="building:levels" v="1"/>
    <tag k="source" v="bing"/>
  </way>
  <way id="114824106" version="1" timestamp="2011-05-25T16:14:40Z" uid="115477" user="wowik" changeset="8246135">
    <nd ref="1299809195"/>
    <nd ref="1299810471"/>
    <nd ref="1299808800"/>
    <nd ref="1299809382"/>
    <nd ref="1299809195"/>
    <tag k="addr:city" v="Москва"/>
    <tag k="addr:country" v="RU"/>
    <tag k="building" v="yes"/>
    <tag k="building:levels" v="1"/>
    <tag k="source" v="bing"/>
  </way>
  <way id="114824107" version="1" timestamp="2011-05-25T16:14:40Z" uid="115477" user="wowik" changeset="8246135">
    <nd ref="1299809644"/>
    <nd ref="1299811134"/>
    <nd ref="1299811895"/>
    <nd ref="1299809513"/>
    <nd ref="1299809644"/>
    <tag k="building" v="yes"/>
    <tag k="building:levels" v="1"/>
    <tag k="source" v="bing"/>
  </way>
  <way id="114824108" version="1" timestamp="2011-05-25T16:14:40Z" uid="115477" user="wowik" changeset="8246135">
    <nd ref="1299811095"/>
    <nd ref="1299809101"/>
    <nd ref="1299810270"/>
    <nd ref="1299810837"/>
    <nd ref="1299811095"/>
    <tag k="building" v="yes"/>
    <tag k="building:levels" v="1"/>
    <tag k="source" v="bing"/>
  </way>
  <way id="114824109" version="1" timestamp="2011-05-25T16:14:40Z" uid="115477" user="wowik" changeset="8246135">
    <nd ref="1299808567"/>
    <nd ref="1299810302"/>
    <nd ref="1299810901"/>
    <nd ref="1299811635"/>
    <nd ref="1299808567"/>
    <tag k="addr:city" v="Москва"/>
    <tag k="addr:country" v="RU"/>
    <tag k="addr:housenumber" v="26"/>
    <tag k="addr:street" v="Лужская улица"/>
    <tag k="building" v="yes"/>
    <tag k="building:levels" v="1"/>
    <tag k="building:use" v="residential"/>
    <tag k="source" v="ggk"/>
  </way>
  <way id="114824110" version="1" timestamp="2011-05-25T16:14:41Z" uid="115477" user="wowik" changeset="8246135">
    <nd ref="1299811458"/>
    <nd ref="1299810311"/>
    <nd ref="1299810943"/>
    <nd ref="1299811644"/>
    <nd ref="1299811458"/>
    <tag k="building" v="yes"/>
    <tag k="building:levels" v="1"/>
    <tag k="source" v="bing"/>
  </way>
  <way id="114824111" version="1" timestamp="2011-05-25T16:14:41Z" uid="115477" user="wowik" changeset="8246135">
    <nd ref="1299810451"/>
    <nd ref="1299811172"/>
    <nd ref="1299808447"/>
    <nd ref="1299811938"/>
    <tag k="highway" v="service"/>
  </way>
  <way id="114824112" version="1" timestamp="2011-05-25T16:14:41Z" uid="115477" user="wowik" changeset="8246135">
    <nd ref="1299809311"/>
    <nd ref="1299812151"/>
    <nd ref="1299808857"/>
    <nd ref="1299808489"/>
    <nd ref="1299809311"/>
    <tag k="building" v="yes"/>
    <tag k="building:levels" v="1"/>
    <tag k="source" v="bing"/>
  </way>
  <way id="114824113" version="1" timestamp="2011-05-25T16:14:41Z" uid="115477" user="wowik" changeset="8246135">
    <nd ref="1299810129"/>
    <nd ref="1299811939"/>
    <nd ref="1299810630"/>
    <nd ref="1299811351"/>
    <nd ref="1299811034"/>
    <nd ref="1299808702"/>
    <nd ref="1299810129"/>
    <tag k="addr:city" v="Москва"/>
    <tag k="addr:country" v="RU"/>
    <tag k="addr:housenumber" v="119"/>
    <tag k="addr:street" v="Ленинградское шоссе"/>
    <tag k="building" v="yes"/>
    <tag k="building:levels" v="1"/>
    <tag k="building:use" v="residential"/>
    <tag k="source" v="ggk"/>
  </way>
  <way id="114824114" version="1" timestamp="2011-05-25T16:14:41Z" uid="115477" user="wowik" changeset="8246135">
    <nd ref="1299810637"/>
    <nd ref="1299810430"/>
    <nd ref="1299811147"/>
    <nd ref="1299811915"/>
    <nd ref="1299810637"/>
    <tag k="building" v="yes"/>
    <tag k="building:levels" v="1"/>
    <tag k="source" v="bing"/>
  </way>
  <way id="114824115" version="1" timestamp="2011-05-25T16:14:41Z" uid="115477" user="wowik" changeset="8246135">
    <nd ref="1299808523"/>
    <nd ref="1299811189"/>
    <nd ref="1299809025"/>
    <nd ref="1299809577"/>
    <nd ref="1299808523"/>
    <tag k="addr:city" v="Москва"/>
    <tag k="addr:country" v="RU"/>
    <tag k="building" v="yes"/>
    <tag k="building:levels" v="1"/>
    <tag k="source" v="ggk"/>
  </way>
  <way id="114824116" version="1" timestamp="2011-05-25T16:14:42Z" uid="115477" user="wowik" changeset="8246135">
    <nd ref="1299809575"/>
    <nd ref="1299811367"/>
    <nd ref="1299812201"/>
    <nd ref="1299808879"/>
    <nd ref="1299809575"/>
    <tag k="building" v="yes"/>
    <tag k="building:levels" v="1"/>
    <tag k="source" v="bing"/>
  </way>
  <way id="114824117" version="1" timestamp="2011-05-25T16:14:42Z" uid="115477" user="wowik" changeset="8246135">
    <nd ref="1299809218"/>
    <nd ref="1299810504"/>
    <nd ref="1299811211"/>
    <nd ref="1299810865"/>
    <nd ref="1299809218"/>
    <tag k="building" v="yes"/>
    <tag k="building:levels" v="1"/>
    <tag k="source" v="bing"/>
  </way>
  <way id="114824118" version="1" timestamp="2011-05-25T16:14:42Z" uid="115477" user="wowik" changeset="8246135">
    <nd ref="1299809384"/>
    <nd ref="1299812254"/>
    <nd ref="1299808948"/>
    <nd ref="1299810175"/>
    <nd ref="1299809384"/>
    <tag k="building" v="yes"/>
    <tag k="building:levels" v="1"/>
    <tag k="source" v="bing"/>
  </way>
  <way id="114824119" version="1" timestamp="2011-05-25T16:14:42Z" uid="115477" user="wowik" changeset="8246135">
    <nd ref="1299810153"/>
    <nd ref="1299809341"/>
    <nd ref="1299809074"/>
    <nd ref="1299809593"/>
    <nd ref="1299810153"/>
    <tag k="building" v="yes"/>
    <tag k="building:levels" v="1"/>
    <tag k="source" v="bing"/>
  </way>
  <way id="114824120" version="1" timestamp="2011-05-25T16:14:42Z" uid="115477" user="wowik" changeset="8246135">
    <nd ref="710378224"/>
    <nd ref="710378226"/>
    <nd ref="710378228"/>
    <nd ref="710378230"/>
    <tag k="access" v="destination"/>
    <tag k="highway" v="service"/>
    <tag k="living_street" v="yes"/>
    <tag k="service" v="driveway"/>
  </way>
  <way id="114824121" version="1" timestamp="2011-05-25T16:14:43Z" uid="115477" user="wowik" changeset="8246135">
    <nd ref="1299810555"/>
    <nd ref="1299809765"/>
    <nd ref="1299810205"/>
    <nd ref="1299810703"/>
    <nd ref="1299810555"/>
    <tag k="addr:city" v="Москва"/>
    <tag k="addr:country" v="RU"/>
    <tag k="building" v="yes"/>
    <tag k="building:levels" v="1"/>
    <tag k="source" v="ggk"/>
  </way>
  <way id="114824122" version="1" timestamp="2011-05-25T16:14:43Z" uid="115477" user="wowik" changeset="8246135">
    <nd ref="1299811297"/>
    <nd ref="1299809290"/>
    <nd ref="1299809771"/>
    <nd ref="1299810209"/>
    <nd ref="1299811297"/>
    <tag k="addr:city" v="Москва"/>
    <tag k="addr:country" v="RU"/>
    <tag k="building" v="yes"/>
    <tag k="building:levels" v="1"/>
    <tag k="source" v="bing"/>
  </way>
  <way id="114824123" version="1" timestamp="2011-05-25T16:14:43Z" uid="115477" user="wowik" changeset="8246135">
    <nd ref="1299809392"/>
    <nd ref="1299810701"/>
    <nd ref="1299811443"/>
    <nd ref="1299812277"/>
    <nd ref="1299809392"/>
    <tag k="building" v="yes"/>
    <tag k="building:levels" v="1"/>
    <tag k="source" v="bing"/>
  </way>
  <way id="114824124" version="1" timestamp="2011-05-25T16:14:43Z" uid="115477" user="wowik" changeset="8246135">
    <nd ref="1299810668"/>
    <nd ref="1299808783"/>
    <nd ref="1299809373"/>
    <nd ref="1299809843"/>
    <nd ref="1299810668"/>
    <tag k="building" v="yes"/>
    <tag k="building:levels" v="1"/>
    <tag k="source" v="bing"/>
  </way>
  <way id="114824125" version="1" timestamp="2011-05-25T16:14:43Z" uid="115477" user="wowik" changeset="8246135">
    <nd ref="1299811721"/>
    <nd ref="1299809788"/>
    <nd ref="1299810217"/>
    <nd ref="1299810737"/>
    <nd ref="1299811721"/>
    <tag k="building" v="yes"/>
    <tag k="building:levels" v="1"/>
    <tag k="source" v="bing"/>
  </way>
  <way id="114824126" version="1" timestamp="2011-05-25T16:14:44Z" uid="115477" user="wowik" changeset="8246135">
    <nd ref="1299809466"/>
    <nd ref="1299810749"/>
    <nd ref="1299811508"/>
    <nd ref="1299812331"/>
    <nd ref="1299809466"/>
    <tag k="addr:city" v="Москва"/>
    <tag k="addr:country" v="RU"/>
    <tag k="building" v="yes"/>
    <tag k="building:levels" v="1"/>
    <tag k="source" v="ggk"/>
  </way>
  <way id="114824127" version="1" timestamp="2011-05-25T16:14:44Z" uid="115477" user="wowik" changeset="8246135">
    <nd ref="1299811851"/>
    <nd ref="1299809621"/>
    <nd ref="1299810085"/>
    <nd ref="1299811144"/>
    <nd ref="1299811851"/>
    <tag k="addr:city" v="Москва"/>
    <tag k="addr:country" v="RU"/>
    <tag k="building" v="yes"/>
    <tag k="building:levels" v="1"/>
    <tag k="source" v="ggk"/>
  </way>
  <way id="114824128" version="1" timestamp="2011-05-25T16:14:44Z" uid="115477" user="wowik" changeset="8246135">
    <nd ref="1299811936"/>
    <nd ref="1299811710"/>
    <nd ref="1299808428"/>
    <nd ref="1299809137"/>
    <nd ref="1299811936"/>
    <tag k="building" v="yes"/>
    <tag k="building:levels" v="1"/>
    <tag k="source" v="bing"/>
  </way>
  <way id="114824129" version="1" timestamp="2011-05-25T16:14:44Z" uid="115477" user="wowik" changeset="8246135">
    <nd ref="1299810328"/>
    <nd ref="1299809527"/>
    <nd ref="1299809991"/>
    <nd ref="1299809773"/>
    <nd ref="1299810328"/>
    <tag k="addr:city" v="Москва"/>
    <tag k="addr:country" v="RU"/>
    <tag k="building" v="yes"/>
    <tag k="building:levels" v="1"/>
    <tag k="source" v="bing"/>
  </way>
  <way id="114824130" version="1" timestamp="2011-05-25T16:14:44Z" uid="115477" user="wowik" changeset="8246135">
    <nd ref="1299810343"/>
    <nd ref="1299809570"/>
    <nd ref="1299810003"/>
    <nd ref="1299812019"/>
    <nd ref="1299810343"/>
    <tag k="building" v="yes"/>
    <tag k="building:levels" v="1"/>
    <tag k="source" v="bing"/>
  </way>
  <way id="114824131" version="1" timestamp="2011-05-25T16:14:44Z" uid="115477" user="wowik" changeset="8246135">
    <nd ref="1299808933"/>
    <nd ref="1299811595"/>
    <nd ref="1299812392"/>
    <nd ref="1299812063"/>
    <nd ref="1299808933"/>
    <tag k="building" v="yes"/>
    <tag k="building:levels" v="1"/>
    <tag k="source" v="bing"/>
  </way>
  <way id="114824132" version="1" timestamp="2011-05-25T16:14:45Z" uid="115477" user="wowik" changeset="8246135">
    <nd ref="1299809183"/>
    <nd ref="1299810787"/>
    <nd ref="1299811555"/>
    <nd ref="1299812355"/>
    <nd ref="1299809183"/>
    <tag k="addr:city" v="Москва"/>
    <tag k="addr:country" v="RU"/>
    <tag k="addr:housenumber" v="44"/>
    <tag k="addr:street" v="Лужская улица"/>
    <tag k="building" v="yes"/>
    <tag k="building:levels" v="1"/>
    <tag k="building:use" v="residential"/>
    <tag k="source" v="ggk"/>
  </way>
  <way id="114824133" version="1" timestamp="2011-05-25T16:14:45Z" uid="115477" user="wowik" changeset="8246135">
    <nd ref="1299808901"/>
    <nd ref="1299810255"/>
    <nd ref="1299810795"/>
    <nd ref="1299811569"/>
    <nd ref="1299808901"/>
    <tag k="building" v="yes"/>
    <tag k="building:levels" v="1"/>
    <tag k="source" v="bing"/>
  </way>
  <way id="114824134" version="1" timestamp="2011-05-25T16:14:45Z" uid="115477" user="wowik" changeset="8246135">
    <nd ref="1299811674"/>
    <nd ref="1299809525"/>
    <nd ref="1299809989"/>
    <nd ref="1299810391"/>
    <nd ref="1299808456"/>
    <nd ref="1299811674"/>
    <tag k="building" v="yes"/>
    <tag k="building:levels" v="1"/>
    <tag k="source" v="bing"/>
  </way>
  <way id="114824135" version="1" timestamp="2011-05-25T16:14:45Z" uid="115477" user="wowik" changeset="8246135">
    <nd ref="1299809839"/>
    <nd ref="1299811822"/>
    <nd ref="1299808570"/>
    <nd ref="1299809224"/>
    <nd ref="1299809839"/>
    <tag k="building" v="yes"/>
    <tag k="building:levels" v="1"/>
    <tag k="source" v="bing"/>
  </way>
  <way id="114824136" version="1" timestamp="2011-05-25T16:14:45Z" uid="115477" user="wowik" changeset="8246135">
    <nd ref="1299810197"/>
    <nd ref="1299809400"/>
    <nd ref="1299809866"/>
    <nd ref="1299810306"/>
    <nd ref="1299810197"/>
    <tag k="building" v="yes"/>
    <tag k="building:levels" v="1"/>
    <tag k="source" v="bing"/>
  </way>
</osm>
