<?xml version='1.0' encoding='UTF-8'?>
<osm version="0.6" generator="libosmium/2.20.0">
  <way id="11535807" version="1" timestamp="2007-11-08T20:12:27Z" uid="6975" user="ulfl" changeset="441742">
    <nd ref="102843059"/>
    <nd ref="20946740"/>
    <tag k="bridge" v="yes"/>
    <tag k="created_by" v="JOSM"/>
    <tag k="highway" v="motorway"/>
    <tag k="layer" v="1"/>
    <tag k="name" v="A73"/>
    <tag k="oneway" v="true"/>
  </way>
  <way id="11535809" version="1" timestamp="2007-11-08T20:12:27Z" uid="6975" user="ulfl" changeset="441742">
    <nd ref="20946740"/>
    <nd ref="20946741"/>
    <nd ref="20946742"/>
    <nd ref="20946743"/>
    <nd ref="29209356"/>
    <nd ref="25418991"/>
    <nd ref="20946744"/>
    <nd ref="28384273"/>
    <tag k="created_by" v="JOSM"/>
    <tag k="highway" v="motorway"/>
    <tag k="name" v="A73"/>
    <tag k="oneway" v="true"/>
  </way>
  <way id="11535809" version="2" timestamp="2007-11-08T20:27:00Z" uid="6975" user="ulfl" changeset="441742">
    <nd ref="20946740"/>
    <nd ref="20946741"/>
    <nd ref="20946742"/>
    <nd ref="102862486"/>
    <tag k="created_by" v="JOSM"/>
    <tag k="highway" v="motorway"/>
    <tag k="name" v="A73"/>
    <tag k="oneway" v="true"/>
  </way>
  <way id="11535812" version="1" timestamp="2007-11-08T20:12:27Z" uid="6975" user="ulfl" changeset="441742">
    <nd ref="15848399"/>
    <nd ref="102843065"/>
    <tag k="bridge" v="yes"/>
    <tag k="created_by" v="JOSM"/>
    <tag k="highway" v="motorway"/>
    <tag k="layer" v="1"/>
    <tag k="name" v="A73"/>
    <tag k="oneway" v="true"/>
  </way>
  <way id="11535813" version="1" timestamp="2007-11-08T20:12:27Z" uid="6975" user="ulfl" changeset="441742">
    <nd ref="102843065"/>
    <nd ref="15848398"/>
    <nd ref="21317643"/>
    <nd ref="36470770"/>
    <tag k="created_by" v="JOSM"/>
    <tag k="highway" v="motorway"/>
    <tag k="name" v="A73"/>
    <tag k="oneway" v="true"/>
  </way>
  <way id="11535815" version="1" timestamp="2007-11-08T20:12:27Z" uid="6975" user="ulfl" changeset="441742">
    <nd ref="102843070"/>
    <nd ref="26583538"/>
    <nd ref="26583539"/>
    <nd ref="26583540"/>
    <nd ref="26583541"/>
    <nd ref="26583542"/>
    <nd ref="26583543"/>
    <tag k="created_by" v="fixbot"/>
    <tag k="highway" v="motorway_link"/>
    <tag k="oneway" v="true"/>
  </way>
</osm>
