<?xml version='1.0' encoding='UTF-8'?>
<osm version="0.6" generator="libosmium/2.20.0">
  <way id="11538264" version="2" timestamp="2008-05-08T00:29:56Z" uid="36809" user="pfoten_weg_!_" changeset="361524">
    <nd ref="69148018"/>
    <nd ref="27238031"/>
    <nd ref="27238032"/>
    <nd ref="21133549"/>
    <nd ref="69206611"/>
    <nd ref="262728903"/>
    <nd ref="21133548"/>
    <nd ref="262728904"/>
    <nd ref="69213420"/>
    <nd ref="21133546"/>
    <tag k="created_by" v="Potlatch 0.8c"/>
    <tag k="highway" v="residential"/>
    <tag k="name" v="Züricher Straße"/>
  </way>
  <way id="11538264" version="3" timestamp="2008-05-08T00:30:17Z" uid="36809" user="pfoten_weg_!_" changeset="361524">
    <nd ref="69148018"/>
    <nd ref="27238031"/>
    <nd ref="27238032"/>
    <nd ref="21133549"/>
    <nd ref="69206611"/>
    <nd ref="262728903"/>
    <nd ref="21133548"/>
    <nd ref="262728904"/>
    <nd ref="69213420"/>
    <nd ref="21133546"/>
    <tag k="created_by" v="Potlatch 0.8c"/>
    <tag k="highway" v="residential"/>
    <tag k="name" v="Züricher Straße"/>
  </way>
  <way id="11538264" version="4" timestamp="2008-05-09T22:48:38Z" uid="36809" user="pfoten_weg_!_" changeset="380779">
    <nd ref="69148018"/>
    <nd ref="27238031"/>
    <nd ref="27238032"/>
    <nd ref="21133549"/>
    <nd ref="69206611"/>
    <nd ref="262728903"/>
    <nd ref="21133548"/>
    <nd ref="262728904"/>
    <nd ref="69213420"/>
    <nd ref="21133546"/>
    <tag k="created_by" v="Potlatch 0.9"/>
    <tag k="highway" v="residential"/>
    <tag k="name" v="Züricher Straße"/>
  </way>
  <way id="11538346" version="1" timestamp="2007-11-08T20:32:41Z" uid="6975" user="ulfl" changeset="441742">
    <nd ref="102869161"/>
    <nd ref="102869155"/>
    <tag k="bridge" v="yes"/>
    <tag k="created_by" v="JOSM"/>
    <tag k="highway" v="primary"/>
    <tag k="layer" v="1"/>
    <tag k="name" v="Frankenschnellweg"/>
    <tag k="oneway" v="true"/>
  </way>
  <way id="11538347" version="1" timestamp="2007-11-08T20:32:41Z" uid="6975" user="ulfl" changeset="441742">
    <nd ref="102869155"/>
    <nd ref="16538046"/>
    <tag k="created_by" v="JOSM"/>
    <tag k="highway" v="primary"/>
    <tag k="name" v="Frankenschnellweg"/>
    <tag k="oneway" v="true"/>
  </way>
  <way id="11538348" version="1" timestamp="2007-11-08T20:32:41Z" uid="6975" user="ulfl" changeset="441742">
    <nd ref="102869169"/>
    <nd ref="102869165"/>
    <tag k="bridge" v="yes"/>
    <tag k="created_by" v="JOSM"/>
    <tag k="highway" v="primary"/>
    <tag k="layer" v="1"/>
    <tag k="name" v="Frankenschnellweg"/>
    <tag k="oneway" v="true"/>
  </way>
  <way id="11538350" version="1" timestamp="2007-11-08T20:32:41Z" uid="6975" user="ulfl" changeset="441742">
    <nd ref="102869165"/>
    <nd ref="15848392"/>
    <nd ref="33413647"/>
    <nd ref="15848389"/>
    <nd ref="15848390"/>
    <nd ref="21317581"/>
    <nd ref="15848393"/>
    <nd ref="15848395"/>
    <tag k="created_by" v="JOSM"/>
    <tag k="highway" v="primary"/>
    <tag k="name" v="Frankenschnellweg"/>
    <tag k="oneway" v="true"/>
  </way>
  <way id="11538350" version="2" timestamp="2007-11-13T23:39:59Z" uid="6975" user="ulfl" changeset="511892">
    <nd ref="102869165"/>
    <nd ref="15848392"/>
    <nd ref="33413647"/>
    <nd ref="15848389"/>
    <nd ref="15848390"/>
    <nd ref="21317581"/>
    <nd ref="15848393"/>
    <nd ref="15848395"/>
    <nd ref="112543148"/>
    <tag k="created_by" v="JOSM"/>
    <tag k="highway" v="primary"/>
    <tag k="name" v="Frankenschnellweg"/>
    <tag k="oneway" v="true"/>
  </way>
  <way id="11538350" version="3" timestamp="2008-01-24T19:52:10Z" uid="6975" user="ulfl" changeset="689008">
    <nd ref="102869165"/>
    <nd ref="15848392"/>
    <nd ref="33413647"/>
    <nd ref="15848389"/>
    <nd ref="243063748"/>
    <nd ref="15848390"/>
    <nd ref="21317581"/>
    <nd ref="15848393"/>
    <nd ref="15848395"/>
    <nd ref="112543148"/>
    <tag k="created_by" v="JOSM"/>
    <tag k="highway" v="primary"/>
    <tag k="name" v="Frankenschnellweg"/>
    <tag k="oneway" v="true"/>
  </way>
  <way id="11538350" version="5" timestamp="2008-06-08T18:17:06Z" uid="6975" user="ulfl" changeset="97180">
    <nd ref="102869165"/>
    <nd ref="15848392"/>
    <nd ref="248484693"/>
    <nd ref="33413647"/>
    <nd ref="15848389"/>
    <nd ref="243063748"/>
    <nd ref="15848390"/>
    <nd ref="269216099"/>
    <nd ref="21317581"/>
    <nd ref="15848393"/>
    <nd ref="15848395"/>
    <nd ref="112543148"/>
    <tag k="created_by" v="JOSM"/>
    <tag k="highway" v="primary"/>
    <tag k="name" v="Frankenschnellweg"/>
    <tag k="oneway" v="true"/>
  </way>
</osm>
