<?xml version='1.0' encoding='UTF-8'?>
<osm version="0.6" generator="libosmium/2.20.0">
  <way id="115711580" version="1" timestamp="2011-05-31T08:55:25Z" uid="7617" user="Franc" changeset="8299420">
    <nd ref="1306543478"/>
    <nd ref="868031852"/>
    <tag k="highway" v="tertiary"/>
    <tag k="name" v="Page Avenue"/>
    <tag k="restriction" v="school_zone"/>
    <tag k="source" v="survey"/>
  </way>
  <way id="115711581" version="1" timestamp="2011-05-31T08:55:25Z" uid="7617" user="Franc" changeset="8299420">
    <nd ref="860684342"/>
    <nd ref="1306543485"/>
    <nd ref="1306543471"/>
    <nd ref="860684377"/>
    <nd ref="860684334"/>
    <tag k="highway" v="residential"/>
    <tag k="name" v="Goolagong Street"/>
    <tag k="source" v="survey"/>
  </way>
  <way id="115711582" version="1" timestamp="2011-05-31T08:55:25Z" uid="7617" user="Franc" changeset="8299420">
    <nd ref="1306543470"/>
    <nd ref="878278320"/>
    <nd ref="878278283"/>
    <nd ref="1306543439"/>
    <tag k="highway" v="tertiary"/>
    <tag k="name" v="Pitt Street"/>
    <tag k="restriction" v="school_zone"/>
    <tag k="source" v="survey"/>
  </way>
  <way id="115711583" version="1" timestamp="2011-05-31T08:55:25Z" uid="7617" user="Franc" changeset="8299420">
    <nd ref="1306543482"/>
    <nd ref="868031877"/>
    <tag k="highway" v="tertiary"/>
    <tag k="name" v="Judith Drive"/>
    <tag k="restriction" v="school_zone"/>
    <tag k="source" v="survey"/>
  </way>
  <way id="115711584" version="1" timestamp="2011-05-31T08:55:26Z" uid="7617" user="Franc" changeset="8299420">
    <nd ref="860684340"/>
    <nd ref="1306543434"/>
    <nd ref="1306543479"/>
    <nd ref="1306543464"/>
    <nd ref="1306543440"/>
    <nd ref="860684351"/>
    <tag k="highway" v="residential"/>
    <tag k="name" v="Gumnut Way"/>
    <tag k="restriction" v="school_zone"/>
    <tag k="source" v="survey"/>
  </way>
  <way id="115711585" version="1" timestamp="2011-05-31T08:55:26Z" uid="7617" user="Franc" changeset="8299420">
    <nd ref="1306543439"/>
    <nd ref="878278262"/>
    <nd ref="357217138"/>
    <nd ref="878278269"/>
    <nd ref="878278271"/>
    <nd ref="878278264"/>
    <nd ref="878278273"/>
    <nd ref="878278293"/>
    <nd ref="224485133"/>
    <tag k="highway" v="tertiary"/>
    <tag k="name" v="Pitt Street"/>
    <tag k="source" v="survey"/>
  </way>
  <way id="115711585" version="2" timestamp="2011-06-01T12:04:31Z" uid="7617" user="Franc" changeset="8309708">
    <nd ref="1306543439"/>
    <nd ref="878278262"/>
    <nd ref="357217138"/>
    <nd ref="878278269"/>
    <nd ref="878278271"/>
    <nd ref="878278264"/>
    <nd ref="878278273"/>
    <nd ref="1307645560"/>
    <nd ref="224485133"/>
    <tag k="highway" v="tertiary"/>
    <tag k="name" v="Pitt Street"/>
    <tag k="source" v="survey"/>
  </way>
</osm>
