<?xml version='1.0' encoding='UTF-8'?>
<osm version="0.6" generator="libosmium/2.20.0">
  <way id="11628324" version="6" timestamp="2010-03-21T04:17:17Z" uid="74617" user="JohnSmith" changeset="4187218">
    <nd ref="103564693"/>
    <nd ref="103902287"/>
    <nd ref="103834693"/>
    <nd ref="103834694"/>
    <nd ref="103834696"/>
    <nd ref="103834697"/>
    <nd ref="103834698"/>
    <nd ref="103834699"/>
    <nd ref="103834700"/>
    <tag k="highway" v="primary"/>
    <tag k="name" v="Lytton Road"/>
  </way>
  <way id="11628366" version="12" timestamp="2010-03-21T04:11:28Z" uid="74617" user="JohnSmith" changeset="4187200">
    <nd ref="103834700"/>
    <nd ref="103835175"/>
    <nd ref="103835177"/>
    <nd ref="103835179"/>
    <nd ref="103835180"/>
    <nd ref="103835181"/>
    <nd ref="103835182"/>
    <nd ref="103877489"/>
    <nd ref="103837817"/>
    <nd ref="103837818"/>
    <nd ref="103837820"/>
    <nd ref="103837821"/>
    <nd ref="103837823"/>
    <nd ref="103837825"/>
    <nd ref="571309732"/>
    <nd ref="571309736"/>
    <tag k="highway" v="primary"/>
    <tag k="name" v="Lytton Road"/>
    <tag k="oneway" v="yes"/>
  </way>
  <way id="11628448" version="6" timestamp="2008-08-06T11:59:28Z" uid="7617" user="Franc" changeset="103925">
    <nd ref="33165890"/>
    <nd ref="98781936"/>
    <nd ref="98773291"/>
    <nd ref="38856032"/>
    <nd ref="267496194"/>
    <nd ref="98751230"/>
    <nd ref="261327427"/>
    <nd ref="98751067"/>
    <nd ref="98784328"/>
    <nd ref="33165893"/>
    <nd ref="103840482"/>
    <nd ref="284773975"/>
    <nd ref="13877827"/>
    <nd ref="33165891"/>
    <nd ref="103836263"/>
    <nd ref="103836282"/>
    <nd ref="103836215"/>
    <nd ref="103836191"/>
    <tag k="created_by" v="Potlatch 0.9c"/>
    <tag k="highway" v="residential"/>
    <tag k="name" v="Sydney Street"/>
  </way>
  <way id="11628448" version="7" timestamp="2008-08-06T12:08:03Z" uid="7617" user="Franc" changeset="103925">
    <nd ref="33165890"/>
    <nd ref="98781936"/>
    <nd ref="98773291"/>
    <nd ref="38856032"/>
    <nd ref="98751230"/>
    <nd ref="261327427"/>
    <nd ref="98751067"/>
    <nd ref="98784328"/>
    <nd ref="33165893"/>
    <nd ref="103840482"/>
    <nd ref="284773975"/>
    <nd ref="13877827"/>
    <nd ref="33165891"/>
    <nd ref="103836263"/>
    <nd ref="103836282"/>
    <nd ref="103836215"/>
    <nd ref="103836191"/>
    <tag k="created_by" v="Potlatch 0.9c"/>
    <tag k="highway" v="residential"/>
    <tag k="name" v="Sydney Street"/>
  </way>
  <way id="11628448" version="8" timestamp="2009-03-07T09:48:04Z" uid="61114" user="Trav" changeset="752969">
    <nd ref="33165890"/>
    <nd ref="98781936"/>
    <nd ref="98773291"/>
    <nd ref="38856032"/>
    <nd ref="356626453"/>
    <nd ref="98751230"/>
    <nd ref="261327427"/>
    <nd ref="98751067"/>
    <nd ref="98784328"/>
    <nd ref="33165893"/>
    <nd ref="103840482"/>
    <nd ref="284773975"/>
    <nd ref="13877827"/>
    <nd ref="33165891"/>
    <nd ref="103836263"/>
    <nd ref="103836282"/>
    <nd ref="103836215"/>
    <nd ref="103836191"/>
    <tag k="created_by" v="Merkaartor 0.13"/>
    <tag k="highway" v="residential"/>
    <tag k="name" v="Sydney Street"/>
  </way>
  <way id="11628448" version="10" timestamp="2009-12-18T07:27:44Z" uid="30201" user="rrankin" changeset="3398669">
    <nd ref="33165890"/>
    <nd ref="98781936"/>
    <nd ref="98773291"/>
    <nd ref="38856032"/>
    <nd ref="356626453"/>
    <nd ref="98751230"/>
    <nd ref="261327427"/>
    <nd ref="98751067"/>
    <nd ref="98784328"/>
    <nd ref="33165893"/>
    <tag k="highway" v="residential"/>
    <tag k="name" v="Sydney Street"/>
  </way>
  <way id="11628448" version="11" timestamp="2010-01-11T08:52:18Z" uid="30201" user="rrankin" changeset="3594189">
    <nd ref="33165890"/>
    <nd ref="98781936"/>
    <nd ref="611587088"/>
    <tag k="highway" v="residential"/>
    <tag k="name" v="Sydney Street"/>
  </way>
  <way id="11628448" version="12" timestamp="2010-07-08T01:00:08Z" uid="74617" user="JohnSmith" changeset="5162525">
    <nd ref="33165890"/>
    <nd ref="98781936"/>
    <nd ref="611587088"/>
    <tag k="highway" v="residential"/>
    <tag k="maxspeed" v="50"/>
    <tag k="maxspeed:source" v="default residential speed limit in Australia"/>
    <tag k="name" v="Sydney Street"/>
  </way>
  <way id="11628450" version="2" timestamp="2009-12-18T07:27:38Z" uid="30201" user="rrankin" changeset="3398669">
    <nd ref="103836195"/>
    <nd ref="103836215"/>
    <nd ref="103836234"/>
    <nd ref="103836245"/>
    <tag k="highway" v="residential"/>
    <tag k="name" v="Church Street"/>
    <tag k="source" v="yahoo_imagery"/>
    <tag k="source:name" v="historical"/>
  </way>
  <way id="11628450" version="3" timestamp="2010-07-08T00:23:13Z" uid="74617" user="JohnSmith" changeset="5162525">
    <nd ref="103836195"/>
    <nd ref="103836215"/>
    <nd ref="103836234"/>
    <nd ref="103836245"/>
    <tag k="highway" v="residential"/>
    <tag k="maxspeed" v="50"/>
    <tag k="maxspeed:source" v="default residential speed limit in Australia"/>
    <tag k="name" v="Church Street"/>
    <tag k="source" v="yahoo_imagery"/>
    <tag k="source:name" v="historical"/>
  </way>
  <way id="11628453" version="2" timestamp="2009-12-18T07:28:45Z" uid="30201" user="rrankin" changeset="3398669">
    <nd ref="103836263"/>
    <nd ref="103836307"/>
    <nd ref="103822090"/>
    <tag k="highway" v="service"/>
    <tag k="name" v="Forsyth Street"/>
    <tag k="source" v="yahoo_imagery"/>
    <tag k="source:name" v="historical"/>
  </way>
  <way id="11628455" version="2" timestamp="2009-12-18T07:27:37Z" uid="30201" user="rrankin" changeset="3398669">
    <nd ref="103836277"/>
    <nd ref="103836282"/>
    <nd ref="103836292"/>
    <tag k="highway" v="residential"/>
    <tag k="name" v="Clanwilliam Street"/>
    <tag k="source" v="yahoo_imagery"/>
    <tag k="source:name" v="historical"/>
  </way>
  <way id="11628455" version="3" timestamp="2010-07-08T00:23:34Z" uid="74617" user="JohnSmith" changeset="5162525">
    <nd ref="103836277"/>
    <nd ref="103836282"/>
    <nd ref="103836292"/>
    <tag k="highway" v="residential"/>
    <tag k="maxspeed" v="50"/>
    <tag k="maxspeed:source" v="default residential speed limit in Australia"/>
    <tag k="name" v="Clanwilliam Street"/>
    <tag k="source" v="yahoo_imagery"/>
    <tag k="source:name" v="historical"/>
  </way>
  <way id="11628457" version="2" timestamp="2009-12-04T05:16:47Z" uid="30201" user="rrankin" changeset="3285963">
    <nd ref="103836307"/>
    <nd ref="103829075"/>
    <tag k="highway" v="residential"/>
    <tag k="name" v="New Street"/>
    <tag k="source" v="yahoo_imagery"/>
    <tag k="source:name" v="historical"/>
  </way>
  <way id="11628457" version="3" timestamp="2010-07-08T00:25:22Z" uid="74617" user="JohnSmith" changeset="5162525">
    <nd ref="103836307"/>
    <nd ref="103829075"/>
    <tag k="highway" v="residential"/>
    <tag k="maxspeed" v="50"/>
    <tag k="maxspeed:source" v="default residential speed limit in Australia"/>
    <tag k="name" v="New Street"/>
    <tag k="source" v="yahoo_imagery"/>
    <tag k="source:name" v="historical"/>
  </way>
  <way id="11628679" version="2" timestamp="2008-10-04T08:49:15Z" uid="61114" user="Trav" changeset="68407">
    <nd ref="103840420"/>
    <nd ref="103840436"/>
    <nd ref="103840459"/>
    <nd ref="103840471"/>
    <tag k=" source:name" v="survey"/>
    <tag k="created_by" v="Merkaartor 0.13"/>
    <tag k="highway" v="service"/>
    <tag k="name" v="Stirling Lane"/>
    <tag k="source" v="yahoo_imagery"/>
  </way>
  <way id="11628680" version="2" timestamp="2009-12-04T05:16:36Z" uid="30201" user="rrankin" changeset="3285963">
    <nd ref="103840482"/>
    <nd ref="103840526"/>
    <nd ref="103840495"/>
    <tag k="highway" v="residential"/>
    <tag k="name" v="Church Street"/>
    <tag k="source" v="yahoo_imagery"/>
    <tag k="source:name" v="historical"/>
  </way>
  <way id="11628680" version="3" timestamp="2010-07-08T00:59:20Z" uid="74617" user="JohnSmith" changeset="5162525">
    <nd ref="103840482"/>
    <nd ref="103840526"/>
    <nd ref="103840495"/>
    <tag k="highway" v="residential"/>
    <tag k="maxspeed" v="50"/>
    <tag k="maxspeed:source" v="default residential speed limit in Australia"/>
    <tag k="name" v="Church Street"/>
    <tag k="source" v="yahoo_imagery"/>
    <tag k="source:name" v="historical"/>
  </way>
  <way id="11628682" version="2" timestamp="2008-08-06T11:59:32Z" uid="7617" user="Franc" changeset="103925"/>
  <way id="11628734" version="8" timestamp="2009-09-25T15:51:18Z" uid="33382" user="de_muur" changeset="2622027">
    <nd ref="103840853"/>
    <nd ref="103841214"/>
    <nd ref="103841215"/>
    <nd ref="103841217"/>
    <nd ref="103844220"/>
    <nd ref="103844221"/>
    <nd ref="103844223"/>
    <nd ref="267365479"/>
    <nd ref="103844224"/>
    <nd ref="103844225"/>
    <nd ref="103844226"/>
    <nd ref="103844227"/>
    <nd ref="103844228"/>
    <nd ref="103844229"/>
    <nd ref="103844230"/>
    <nd ref="103844233"/>
    <nd ref="103844234"/>
    <nd ref="103844235"/>
    <nd ref="103844236"/>
    <nd ref="103844237"/>
    <nd ref="103844238"/>
    <nd ref="103844239"/>
    <nd ref="103844240"/>
    <nd ref="103844241"/>
    <nd ref="103844242"/>
    <tag k="highway" v="tertiary"/>
    <tag k="name" v="Am Schattredder"/>
    <tag k="ref" v="K 32"/>
    <tag k="surface" v="paved"/>
  </way>
  <way id="11628896" version="15" timestamp="2010-08-22T20:02:08Z" uid="33382" user="de_muur" changeset="5565139">
    <nd ref="103848542"/>
    <nd ref="268570069"/>
    <nd ref="103848541"/>
    <tag k="highway" v="tertiary"/>
    <tag k="name" v="Todendorfer Straße"/>
    <tag k="ref" v="K 37"/>
    <tag k="surface" v="paved"/>
  </way>
  <way id="11628908" version="5" timestamp="2010-03-21T02:06:41Z" uid="9719" user="dvaey" changeset="4186842">
    <nd ref="103837821"/>
    <nd ref="103844728"/>
    <nd ref="671062880"/>
    <nd ref="103844730"/>
    <nd ref="86617189"/>
    <nd ref="86617191"/>
    <nd ref="671062882"/>
    <nd ref="671062883"/>
    <nd ref="86617192"/>
    <nd ref="86617194"/>
    <nd ref="86617195"/>
    <nd ref="86617196"/>
    <nd ref="86617198"/>
    <nd ref="86617199"/>
    <nd ref="86617200"/>
    <nd ref="86621106"/>
    <tag k="highway" v="motorway_link"/>
    <tag k="name" v="Gateway Motorway"/>
    <tag k="oneway" v="yes"/>
  </way>
  <way id="11628936" version="15" timestamp="2009-09-25T15:51:19Z" uid="33382" user="de_muur" changeset="2622027">
    <nd ref="270368555"/>
    <nd ref="268431058"/>
    <nd ref="268431057"/>
    <nd ref="507255663"/>
    <tag k="highway" v="tertiary"/>
    <tag k="maxspeed" v="50"/>
    <tag k="name" v="Sprenger Weg"/>
    <tag k="ref" v="K 71"/>
    <tag k="surface" v="paved"/>
  </way>
  <way id="11628946" version="7" timestamp="2008-07-06T22:14:01Z" uid="6975" user="ulfl" changeset="415781">
    <nd ref="103845031"/>
    <nd ref="103845464"/>
    <tag k="bicycle" v="yes"/>
    <tag k="date on " v="april"/>
    <tag k="date_off" v="oktobre"/>
    <tag k="day off" v="sunday"/>
    <tag k="day on" v="saturday"/>
    <tag k="description" v="Übrige Zeit auf Voranmeldung unter Tel. ++41 (0)44 865 62 62"/>
    <tag k="foot" v="yes"/>
    <tag k="horse" v="no"/>
    <tag k="motorcar" v="no"/>
    <tag k="motorcycle" v="no"/>
    <tag k="name" v="Fähre Tössegg-Buchberg "/>
    <tag k="route" v="ferry"/>
  </way>
  <way id="11628946" version="8" timestamp="2008-07-06T22:14:28Z" uid="6975" user="ulfl" changeset="415781">
    <nd ref="103845031"/>
    <nd ref="103845464"/>
    <tag k="bicycle" v="yes"/>
    <tag k="date off" v="oktobre"/>
    <tag k="date_on" v="april"/>
    <tag k="day off" v="sunday"/>
    <tag k="day on" v="saturday"/>
    <tag k="description" v="Übrige Zeit auf Voranmeldung unter Tel. ++41 (0)44 865 62 62"/>
    <tag k="foot" v="yes"/>
    <tag k="horse" v="no"/>
    <tag k="motorcar" v="no"/>
    <tag k="motorcycle" v="no"/>
    <tag k="name" v="Fähre Tössegg-Buchberg "/>
    <tag k="route" v="ferry"/>
  </way>
  <way id="11628946" version="9" timestamp="2008-07-06T22:15:52Z" uid="6975" user="ulfl" changeset="415781">
    <nd ref="103845031"/>
    <nd ref="103845464"/>
    <tag k="bicycle" v="yes"/>
    <tag k="date off" v="oktobre"/>
    <tag k="date on " v="april"/>
    <tag k="day on" v="saturday"/>
    <tag k="day_off" v="sunday"/>
    <tag k="description" v="Übrige Zeit auf Voranmeldung unter Tel. ++41 (0)44 865 62 62"/>
    <tag k="foot" v="yes"/>
    <tag k="horse" v="no"/>
    <tag k="motorcar" v="no"/>
    <tag k="motorcycle" v="no"/>
    <tag k="name" v="Fähre Tössegg-Buchberg "/>
    <tag k="route" v="ferry"/>
  </way>
  <way id="11628946" version="10" timestamp="2008-07-06T22:16:16Z" uid="6975" user="ulfl" changeset="415781">
    <nd ref="103845031"/>
    <nd ref="103845464"/>
    <tag k="bicycle" v="yes"/>
    <tag k="date off" v="oktobre"/>
    <tag k="date on " v="april"/>
    <tag k="day off" v="sunday"/>
    <tag k="day_on" v="saturday"/>
    <tag k="description" v="Übrige Zeit auf Voranmeldung unter Tel. ++41 (0)44 865 62 62"/>
    <tag k="foot" v="yes"/>
    <tag k="horse" v="no"/>
    <tag k="motorcar" v="no"/>
    <tag k="motorcycle" v="no"/>
    <tag k="name" v="Fähre Tössegg-Buchberg "/>
    <tag k="route" v="ferry"/>
  </way>
  <way id="11628946" version="11" timestamp="2008-07-07T08:33:44Z" uid="6975" user="ulfl" changeset="418206">
    <nd ref="103845031"/>
    <nd ref="103845464"/>
    <tag k="bicycle" v="yes"/>
    <tag k="date on " v="april"/>
    <tag k="date_off" v="oktobre"/>
    <tag k="day off" v="sunday"/>
    <tag k="day_on" v="saturday"/>
    <tag k="description" v="Übrige Zeit auf Voranmeldung unter Tel. ++41 (0)44 865 62 62"/>
    <tag k="foot" v="yes"/>
    <tag k="horse" v="no"/>
    <tag k="motorcar" v="no"/>
    <tag k="motorcycle" v="no"/>
    <tag k="name" v="Fähre Tössegg-Buchberg "/>
    <tag k="route" v="ferry"/>
  </way>
  <way id="11628946" version="12" timestamp="2008-07-07T18:14:17Z" uid="6975" user="ulfl" changeset="420350">
    <nd ref="103845031"/>
    <nd ref="103845464"/>
    <tag k="bicycle" v="yes"/>
    <tag k="date_off" v="oktobre"/>
    <tag k="date_on" v="april"/>
    <tag k="day off" v="sunday"/>
    <tag k="day_on" v="saturday"/>
    <tag k="description" v="Übrige Zeit auf Voranmeldung unter Tel. ++41 (0)44 865 62 62"/>
    <tag k="foot" v="yes"/>
    <tag k="horse" v="no"/>
    <tag k="motorcar" v="no"/>
    <tag k="motorcycle" v="no"/>
    <tag k="name" v="Fähre Tössegg-Buchberg "/>
    <tag k="route" v="ferry"/>
  </way>
  <way id="11628946" version="13" timestamp="2008-07-07T18:14:49Z" uid="6975" user="ulfl" changeset="420350">
    <nd ref="103845031"/>
    <nd ref="103845464"/>
    <tag k="bicycle" v="yes"/>
    <tag k="date_off" v="oktobre"/>
    <tag k="date_on" v="april"/>
    <tag k="day_off" v="sunday"/>
    <tag k="day_on" v="saturday"/>
    <tag k="description" v="Übrige Zeit auf Voranmeldung unter Tel. ++41 (0)44 865 62 62"/>
    <tag k="foot" v="yes"/>
    <tag k="horse" v="no"/>
    <tag k="motorcar" v="no"/>
    <tag k="motorcycle" v="no"/>
    <tag k="name" v="Fähre Tössegg-Buchberg "/>
    <tag k="route" v="ferry"/>
  </way>
</osm>
