<?xml version='1.0' encoding='UTF-8'?>
<osm version="0.6" generator="libosmium/2.20.0">
  <way id="11637485" version="4" timestamp="2010-03-21T04:17:16Z" uid="74617" user="JohnSmith" changeset="4187218">
    <nd ref="103921455"/>
    <nd ref="103921456"/>
    <nd ref="103921457"/>
    <nd ref="103923718"/>
    <nd ref="103921460"/>
    <nd ref="103921461"/>
    <nd ref="103921462"/>
    <nd ref="103921464"/>
    <nd ref="103921465"/>
    <nd ref="103921466"/>
    <nd ref="103921467"/>
    <nd ref="103921468"/>
    <nd ref="103921470"/>
    <nd ref="103921455"/>
    <tag k="highway" v="primary"/>
    <tag k="junction" v="roundabout"/>
  </way>
  <way id="11637509" version="5" timestamp="2010-03-21T04:17:17Z" uid="74617" user="JohnSmith" changeset="4187218">
    <nd ref="103563913"/>
    <nd ref="103921737"/>
    <nd ref="103921738"/>
    <nd ref="103921739"/>
    <nd ref="103921470"/>
    <tag k="highway" v="primary"/>
    <tag k="name" v="Lytton Road"/>
    <tag k="oneway" v="yes"/>
  </way>
  <way id="11637561" version="5" timestamp="2010-03-21T04:17:17Z" uid="74617" user="JohnSmith" changeset="4187218">
    <nd ref="103921456"/>
    <nd ref="103922917"/>
    <nd ref="103922918"/>
    <nd ref="103922920"/>
    <tag k="highway" v="primary"/>
    <tag k="name" v="Junction Road"/>
    <tag k="oneway" v="yes"/>
  </way>
  <way id="11637575" version="7" timestamp="2010-03-21T04:17:17Z" uid="74617" user="JohnSmith" changeset="4187218">
    <nd ref="103922920"/>
    <nd ref="103923223"/>
    <nd ref="103923224"/>
    <nd ref="103923226"/>
    <nd ref="103923228"/>
    <nd ref="103923718"/>
    <tag k="highway" v="primary"/>
    <tag k="name" v="Junction Road"/>
    <tag k="oneway" v="yes"/>
  </way>
  <way id="11637623" version="5" timestamp="2010-03-21T04:17:16Z" uid="74617" user="JohnSmith" changeset="4187218">
    <nd ref="103921465"/>
    <nd ref="103924563"/>
    <nd ref="103924564"/>
    <nd ref="103563913"/>
    <tag k="highway" v="primary"/>
    <tag k="name" v="Lytton Road"/>
    <tag k="oneway" v="yes"/>
  </way>
  <way id="11637631" version="4" timestamp="2010-07-06T09:47:58Z" uid="74617" user="JohnSmith" changeset="5147679">
    <nd ref="103921461"/>
    <nd ref="103925073"/>
    <nd ref="103925074"/>
    <nd ref="103925076"/>
    <tag k="highway" v="residential"/>
    <tag k="maxspeed" v="50"/>
    <tag k="maxspeed:source" v="default residential speed limit in Australia"/>
    <tag k="name" v="Colmslie Road"/>
    <tag k="oneway" v="yes"/>
  </way>
  <way id="11637633" version="4" timestamp="2010-07-06T09:51:38Z" uid="74617" user="JohnSmith" changeset="5147679">
    <nd ref="103925076"/>
    <nd ref="103925328"/>
    <nd ref="103925329"/>
    <nd ref="103925330"/>
    <nd ref="103921465"/>
    <tag k="highway" v="residential"/>
    <tag k="maxspeed" v="50"/>
    <tag k="maxspeed:source" v="default residential speed limit in Australia"/>
    <tag k="name" v="Colmslie Road"/>
    <tag k="oneway" v="yes"/>
  </way>
  <way id="11637734" version="6" timestamp="2010-07-06T09:50:43Z" uid="74617" user="JohnSmith" changeset="5147679">
    <nd ref="103925076"/>
    <nd ref="103920633"/>
    <nd ref="103927856"/>
    <nd ref="103927858"/>
    <nd ref="103927860"/>
    <nd ref="103927861"/>
    <nd ref="103927863"/>
    <nd ref="103927865"/>
    <nd ref="103927866"/>
    <nd ref="103927868"/>
    <nd ref="513263657"/>
    <nd ref="103927869"/>
    <nd ref="103927871"/>
    <nd ref="103927872"/>
    <nd ref="103927874"/>
    <nd ref="103927875"/>
    <nd ref="103927877"/>
    <nd ref="103927879"/>
    <nd ref="103927881"/>
    <nd ref="103927882"/>
    <nd ref="103927884"/>
    <nd ref="103927886"/>
    <nd ref="103927887"/>
    <nd ref="103927888"/>
    <nd ref="763007203"/>
    <tag k="highway" v="residential"/>
    <tag k="maxspeed" v="50"/>
    <tag k="maxspeed:source" v="default residential speed limit in Australia"/>
    <tag k="name" v="Colmslie Road"/>
  </way>
  <way id="11637761" version="3" timestamp="2010-02-14T17:15:28Z" uid="74617" user="JohnSmith" changeset="3875836">
    <nd ref="103927905"/>
    <nd ref="103927928"/>
    <tag k="highway" v="residential"/>
    <tag k="maxspeed" v="50"/>
    <tag k="name" v="Arch Lane"/>
  </way>
  <way id="11637763" version="5" timestamp="2010-02-14T17:15:12Z" uid="74617" user="JohnSmith" changeset="3875836">
    <nd ref="21478927"/>
    <nd ref="289069793"/>
    <nd ref="289069794"/>
    <nd ref="74004068"/>
    <nd ref="289069795"/>
    <nd ref="289069796"/>
    <nd ref="74004105"/>
    <tag k="highway" v="secondary"/>
    <tag k="name" v="Ivory Street Tunnel"/>
  </way>
  <way id="11637766" version="3" timestamp="2010-02-14T17:15:30Z" uid="74617" user="JohnSmith" changeset="3875836">
    <nd ref="103927953"/>
    <nd ref="103927981"/>
    <nd ref="103928112"/>
    <tag k="highway" v="residential"/>
    <tag k="lcn" v="yes"/>
    <tag k="maxspeed" v="50"/>
    <tag k="name" v="Ivory Lane"/>
  </way>
  <way id="11637767" version="3" timestamp="2010-02-14T17:15:32Z" uid="74617" user="JohnSmith" changeset="3875836">
    <nd ref="103927964"/>
    <nd ref="103927890"/>
    <tag k="highway" v="residential"/>
    <tag k="lcn" v="yes"/>
    <tag k="maxspeed" v="50"/>
    <tag k="name" v="Boundary Street"/>
  </way>
  <way id="11637772" version="6" timestamp="2010-02-14T17:02:55Z" uid="74617" user="JohnSmith" changeset="3875836">
    <nd ref="103928221"/>
    <nd ref="266723920"/>
    <nd ref="266723922"/>
    <nd ref="74838762"/>
    <nd ref="103928155"/>
    <tag k="bridge" v="yes"/>
    <tag k="highway" v="primary"/>
    <tag k="layer" v="1"/>
    <tag k="name" v="Bradfield Highway"/>
    <tag k="oneway" v="yes"/>
    <tag k="ref" v="S15"/>
  </way>
  <way id="11637772" version="7" timestamp="2010-03-20T16:39:28Z" uid="74617" user="JohnSmith" changeset="4181787">
    <nd ref="103928221"/>
    <nd ref="266723920"/>
    <nd ref="266723922"/>
    <nd ref="74838762"/>
    <nd ref="103928155"/>
    <tag k="bridge" v="yes"/>
    <tag k="highway" v="primary"/>
    <tag k="layer" v="1"/>
    <tag k="name" v="Bradfield Highway"/>
    <tag k="oneway" v="yes"/>
  </way>
  <way id="11637775" version="5" timestamp="2010-02-12T11:37:56Z" uid="74617" user="JohnSmith" changeset="3855511">
    <nd ref="103928203"/>
    <nd ref="616887473"/>
    <nd ref="616887474"/>
    <nd ref="616887475"/>
    <nd ref="74838530"/>
    <nd ref="21478138"/>
    <nd ref="636968065"/>
    <nd ref="21478140"/>
    <tag k="highway" v="primary"/>
    <tag k="name" v="Bradfield Highway"/>
    <tag k="oneway" v="yes"/>
    <tag k="ref" v="S15"/>
  </way>
  <way id="11637775" version="6" timestamp="2010-03-20T16:43:47Z" uid="74617" user="JohnSmith" changeset="4181845">
    <nd ref="103928203"/>
    <nd ref="616887473"/>
    <nd ref="616887474"/>
    <nd ref="616887475"/>
    <nd ref="74838530"/>
    <nd ref="21478138"/>
    <nd ref="636968065"/>
    <nd ref="21478140"/>
    <tag k="highway" v="primary"/>
    <tag k="name" v="Bradfield Highway"/>
    <tag k="oneway" v="yes"/>
  </way>
  <way id="11637776" version="5" timestamp="2010-02-14T17:02:55Z" uid="74617" user="JohnSmith" changeset="3875836">
    <nd ref="103928137"/>
    <nd ref="103928264"/>
    <nd ref="74838528"/>
    <nd ref="266723923"/>
    <nd ref="266723921"/>
    <nd ref="103928203"/>
    <tag k="bridge" v="yes"/>
    <tag k="highway" v="primary"/>
    <tag k="layer" v="1"/>
    <tag k="name" v="Bradfield Highway"/>
    <tag k="oneway" v="yes"/>
    <tag k="ref" v="S15"/>
  </way>
  <way id="11637776" version="6" timestamp="2010-03-20T16:39:28Z" uid="74617" user="JohnSmith" changeset="4181787">
    <nd ref="103928137"/>
    <nd ref="103928264"/>
    <nd ref="74838528"/>
    <nd ref="266723923"/>
    <nd ref="266723921"/>
    <nd ref="103928203"/>
    <tag k="bridge" v="yes"/>
    <tag k="highway" v="primary"/>
    <tag k="layer" v="1"/>
    <tag k="name" v="Bradfield Highway"/>
    <tag k="oneway" v="yes"/>
  </way>
  <way id="11637778" version="4" timestamp="2010-02-14T17:15:30Z" uid="74617" user="JohnSmith" changeset="3875836">
    <nd ref="103928155"/>
    <nd ref="103928188"/>
    <nd ref="26336380"/>
    <tag k="highway" v="primary"/>
    <tag k="name" v="Bradfield Highway"/>
    <tag k="oneway" v="yes"/>
    <tag k="ref" v="S15"/>
  </way>
  <way id="11637778" version="5" timestamp="2010-03-20T16:39:29Z" uid="74617" user="JohnSmith" changeset="4181787">
    <nd ref="103928155"/>
    <nd ref="103928188"/>
    <nd ref="26336380"/>
    <tag k="highway" v="primary"/>
    <tag k="name" v="Bradfield Highway"/>
    <tag k="oneway" v="yes"/>
  </way>
  <way id="11637780" version="2" timestamp="2010-02-14T17:12:36Z" uid="74617" user="JohnSmith" changeset="3875836">
    <nd ref="103928264"/>
    <nd ref="103928277"/>
    <nd ref="103928284"/>
    <tag k="highway" v="steps"/>
  </way>
  <way id="11637809" version="6" timestamp="2010-03-21T04:17:17Z" uid="74617" user="JohnSmith" changeset="4187218">
    <nd ref="103922920"/>
    <nd ref="103928940"/>
    <nd ref="103928941"/>
    <nd ref="103928942"/>
    <nd ref="103928943"/>
    <nd ref="103928944"/>
    <nd ref="103928945"/>
    <nd ref="103928946"/>
    <nd ref="103928947"/>
    <nd ref="103928949"/>
    <tag k="highway" v="primary"/>
    <tag k="name" v="Junction Road"/>
  </way>
</osm>
