<?xml version='1.0' encoding='UTF-8'?>
<osm version="0.6" generator="libosmium/2.20.0">
  <way id="116849197" version="1" timestamp="2011-06-08T17:29:17Z" uid="115477" user="wowik" changeset="8381529">
    <nd ref="870903904"/>
    <nd ref="1316331864"/>
    <nd ref="1316331872"/>
    <nd ref="1316331862"/>
    <nd ref="1316331876"/>
    <nd ref="1316331859"/>
    <nd ref="1316331860"/>
    <nd ref="1316331861"/>
    <nd ref="1316331873"/>
    <nd ref="1024073853"/>
    <tag k="addr:postcode" v="119072"/>
    <tag k="cladr:code" v="77000000000087900"/>
    <tag k="cladr:name" v="Болотная"/>
    <tag k="cladr:suffix" v="Набережная"/>
    <tag k="highway" v="footway"/>
    <tag k="name" v="Болотная набережная"/>
    <tag k="name:en" v="Bolotnaya Naberezhnaya"/>
    <tag k="omkum:code" v="02160"/>
    <tag k="sorting_name" v="Болотная  набережная"/>
  </way>
  <way id="116849198" version="1" timestamp="2011-06-08T17:29:18Z" uid="115477" user="wowik" changeset="8381529">
    <nd ref="1316331861"/>
    <nd ref="974231820"/>
    <tag k="highway" v="footway"/>
  </way>
  <way id="116849199" version="1" timestamp="2011-06-08T17:29:18Z" uid="115477" user="wowik" changeset="8381529">
    <nd ref="1316331875"/>
    <nd ref="1316331867"/>
    <nd ref="1316331854"/>
    <nd ref="1316331863"/>
    <nd ref="1316331875"/>
    <tag k="building" v="yes"/>
  </way>
</osm>
