<?xml version='1.0' encoding='UTF-8'?>
<osm version="0.6" generator="libosmium/2.20.0">
  <way id="11692020" version="2" timestamp="2008-04-28T07:11:30Z" uid="36099" user="olli_g" changeset="273148">
    <nd ref="104604468"/>
    <nd ref="104605376"/>
    <nd ref="104603016"/>
    <tag k="created_by" v="Potlatch 0.8b"/>
    <tag k="highway" v="residential"/>
    <tag k="name" v="Louis-Köhler-Weg"/>
  </way>
  <way id="11692020" version="3" timestamp="2008-04-28T11:09:24Z" uid="36099" user="olli_g" changeset="280940">
    <nd ref="104604468"/>
    <nd ref="104605376"/>
    <nd ref="104603016"/>
    <tag k="created_by" v="Potlatch 0.8b"/>
    <tag k="highway" v="residential"/>
    <tag k="name" v="Louis-Köhler-Weg"/>
  </way>
  <way id="11692020" version="5" timestamp="2008-06-22T17:51:02Z" uid="36099" user="olli_g" changeset="262920">
    <nd ref="104604468"/>
    <nd ref="104605376"/>
    <nd ref="104603016"/>
    <tag k="created_by" v="Potlatch 0.9c"/>
    <tag k="highway" v="residential"/>
    <tag k="name" v="Louis-Köhler-Weg"/>
  </way>
  <way id="11692020" version="6" timestamp="2008-06-22T17:53:33Z" uid="36099" user="olli_g" changeset="262920">
    <nd ref="104604468"/>
    <nd ref="104605376"/>
    <nd ref="104603016"/>
    <tag k="created_by" v="Potlatch 0.9c"/>
    <tag k="highway" v="residential"/>
    <tag k="name" v="Erich-Ockert-Weg"/>
  </way>
  <way id="11692173" version="8" timestamp="2008-07-05T22:20:09Z" uid="6975" user="ulfl" changeset="404092">
    <nd ref="162897816"/>
    <nd ref="130136513"/>
    <nd ref="104606877"/>
    <nd ref="104606878"/>
    <nd ref="104606879"/>
    <nd ref="104606880"/>
    <nd ref="104606881"/>
    <nd ref="104606882"/>
    <nd ref="104606883"/>
    <nd ref="104606884"/>
    <tag k="description" v="Žiežmariai - Kaišiadorys"/>
    <tag k="highway" v="secondary"/>
    <tag k="ref" v="142"/>
  </way>
  <way id="11692377" version="3" timestamp="2008-07-06T19:13:38Z" uid="6975" user="ulfl" changeset="415781">
    <nd ref="104610004"/>
    <nd ref="104610005"/>
    <nd ref="104610006"/>
    <nd ref="104610007"/>
    <nd ref="104610004"/>
    <tag k="leisure" v="pitch"/>
  </way>
  <way id="11692646" version="16" timestamp="2008-11-18T14:08:36Z" uid="67142" user="zottel" changeset="764564">
    <nd ref="25972033"/>
    <nd ref="268088981"/>
    <nd ref="25972034"/>
    <nd ref="300468705"/>
    <nd ref="25972035"/>
    <tag k="created_by" v="Potlatch 0.9c"/>
    <tag k="highway" v="primary"/>
    <tag k="lanes" v="4"/>
    <tag k="maxspeed" v="50"/>
    <tag k="name" v="Eutinger Straße"/>
    <tag k="ref" v="B 10"/>
    <tag k="surface" v="paved"/>
  </way>
</osm>
