<?xml version='1.0' encoding='UTF-8'?>
<osm version="0.6" generator="libosmium/2.20.0">
  <way id="117139005" version="1" timestamp="2011-06-10T22:45:58Z" uid="16922" user="amai" changeset="8401649">
    <nd ref="1319509418"/>
    <nd ref="1319509406"/>
    <nd ref="1319509411"/>
    <nd ref="391490779"/>
    <tag k="highway" v="residential"/>
    <tag k="source" v="Bing"/>
  </way>
  <way id="117139006" version="1" timestamp="2011-06-10T22:45:58Z" uid="16922" user="amai" changeset="8401649">
    <nd ref="1319509406"/>
    <nd ref="1319509425"/>
    <nd ref="1319509429"/>
    <nd ref="1319509420"/>
    <tag k="highway" v="residential"/>
    <tag k="source" v="Bing"/>
  </way>
  <way id="117139007" version="1" timestamp="2011-06-10T22:45:58Z" uid="16922" user="amai" changeset="8401649">
    <nd ref="1319509397"/>
    <nd ref="1319509416"/>
    <nd ref="1319509417"/>
    <nd ref="1319509405"/>
    <tag k="highway" v="residential"/>
    <tag k="source" v="Bing"/>
  </way>
  <way id="117139009" version="1" timestamp="2011-06-10T22:45:58Z" uid="16922" user="amai" changeset="8401649">
    <nd ref="601460587"/>
    <nd ref="1319509423"/>
    <nd ref="1319509415"/>
    <tag k="highway" v="residential"/>
    <tag k="source" v="Bing"/>
  </way>
  <way id="117139010" version="1" timestamp="2011-06-10T22:45:58Z" uid="16922" user="amai" changeset="8401649">
    <nd ref="1319509422"/>
    <nd ref="1319509425"/>
    <tag k="highway" v="residential"/>
    <tag k="source" v="Bing"/>
  </way>
  <way id="117139011" version="1" timestamp="2011-06-10T22:45:58Z" uid="16922" user="amai" changeset="8401649">
    <nd ref="1319509417"/>
    <nd ref="1319509398"/>
    <nd ref="1319509400"/>
    <nd ref="1319509424"/>
    <tag k="highway" v="residential"/>
    <tag k="source" v="Bing"/>
  </way>
  <way id="117139012" version="1" timestamp="2011-06-10T22:45:59Z" uid="16922" user="amai" changeset="8401649">
    <nd ref="271371092"/>
    <nd ref="1110794300"/>
    <tag k="highway" v="residential"/>
    <tag k="source" v="Bing"/>
  </way>
  <way id="117139013" version="1" timestamp="2011-06-10T22:45:59Z" uid="16922" user="amai" changeset="8401649">
    <nd ref="1319509419"/>
    <nd ref="1319509397"/>
    <nd ref="1319509424"/>
    <nd ref="1319509426"/>
    <nd ref="1319509410"/>
    <nd ref="1319509403"/>
    <nd ref="1319509412"/>
    <tag k="highway" v="residential"/>
    <tag k="source" v="Bing"/>
  </way>
  <way id="117139014" version="1" timestamp="2011-06-10T22:45:59Z" uid="16922" user="amai" changeset="8401649">
    <nd ref="1319509404"/>
    <nd ref="262500738"/>
    <tag k="highway" v="residential"/>
    <tag k="source" v="Bing"/>
  </way>
  <way id="117139015" version="1" timestamp="2011-06-10T22:45:59Z" uid="16922" user="amai" changeset="8401649">
    <nd ref="601460572"/>
    <nd ref="1319509396"/>
    <tag k="highway" v="residential"/>
    <tag k="source" v="Bing"/>
  </way>
  <way id="117139016" version="1" timestamp="2011-06-10T22:46:03Z" uid="66036" user="h4v" changeset="8401653">
    <nd ref="1319509461"/>
    <nd ref="1319509437"/>
    <tag k="addr:inclusion" v="estimate"/>
    <tag k="addr:interpolation" v="even"/>
  </way>
  <way id="117139017" version="1" timestamp="2011-06-10T22:46:03Z" uid="66036" user="h4v" changeset="8401653">
    <nd ref="1319509451"/>
    <nd ref="1319509458"/>
    <tag k="addr:inclusion" v="estimate"/>
    <tag k="addr:interpolation" v="even"/>
  </way>
  <way id="117139018" version="1" timestamp="2011-06-10T22:46:03Z" uid="66036" user="h4v" changeset="8401653">
    <nd ref="1319509443"/>
    <nd ref="1319509460"/>
    <nd ref="1319509455"/>
    <nd ref="1319509447"/>
    <nd ref="1319509443"/>
    <tag k="addr:housenumber" v="22"/>
    <tag k="amenity" v="place_of_worship"/>
    <tag k="building" v="church"/>
    <tag k="denomination" v="catholic"/>
    <tag k="heritage" v="2"/>
    <tag k="heritage:operator" v="nid"/>
    <tag k="historic" v="heritage"/>
    <tag k="name" v="Rektoralny kościół Środowisk Twórczych"/>
    <tag k="ref:nid" v="A/23"/>
    <tag k="religion" v="christian"/>
  </way>
  <way id="117139019" version="1" timestamp="2011-06-10T22:46:04Z" uid="66036" user="h4v" changeset="8401653">
    <nd ref="297819377"/>
    <nd ref="1252440737"/>
    <nd ref="1271463871"/>
    <nd ref="470241840"/>
    <nd ref="965087801"/>
    <nd ref="470241777"/>
    <nd ref="965087988"/>
    <nd ref="297823079"/>
    <tag k="highway" v="unclassified"/>
    <tag k="name" v="Srebrzynska"/>
  </way>
  <way id="117139020" version="1" timestamp="2011-06-10T22:46:04Z" uid="66036" user="h4v" changeset="8401653">
    <nd ref="1165127433"/>
    <nd ref="1165129011"/>
    <nd ref="1165128987"/>
    <nd ref="1165128941"/>
    <nd ref="1165128920"/>
    <nd ref="1165128918"/>
    <nd ref="1165127767"/>
    <nd ref="1165128274"/>
    <nd ref="1165128328"/>
    <nd ref="1165128376"/>
    <nd ref="1165127433"/>
  </way>
  <way id="117139021" version="1" timestamp="2011-06-10T22:46:04Z" uid="66036" user="h4v" changeset="8401653">
    <nd ref="1319509448"/>
    <nd ref="1319509436"/>
    <nd ref="1319509442"/>
    <nd ref="1319509435"/>
    <nd ref="1319509448"/>
    <tag k="building" v="yes"/>
    <tag k="heritage" v="2"/>
    <tag k="heritage:operator" v="nid"/>
    <tag k="historic" v="heritage"/>
    <tag k="name" v="Dzwonnica"/>
    <tag k="ref:nid" v="A/3"/>
  </way>
  <way id="117139022" version="1" timestamp="2011-06-10T22:46:05Z" uid="66036" user="h4v" changeset="8401653">
    <nd ref="297823079"/>
    <nd ref="471471669"/>
    <nd ref="297823043"/>
    <nd ref="297823045"/>
    <nd ref="1274689614"/>
    <nd ref="1274689552"/>
    <nd ref="297819380"/>
    <nd ref="297823080"/>
    <tag k="highway" v="unclassified"/>
    <tag k="name" v="Srebrzynska"/>
  </way>
  <way id="117139023" version="1" timestamp="2011-06-10T22:46:05Z" uid="66036" user="h4v" changeset="8401653">
    <nd ref="1165128199"/>
    <nd ref="1165128499"/>
    <nd ref="1165129056"/>
    <nd ref="1165128106"/>
    <nd ref="1165128147"/>
    <nd ref="1165127810"/>
    <nd ref="1165128199"/>
    <tag k="addr:housenumber" v="282"/>
    <tag k="building" v="yes"/>
    <tag k="heritage" v="2"/>
    <tag k="heritage:operator" v="nid"/>
    <tag k="name" v="Biała Fabryka"/>
    <tag k="ref:nid" v="A/1"/>
    <tag k="source:addr" v="wikipedia"/>
    <tag k="source:name" v="wikipedia"/>
  </way>
  <way id="117139024" version="1" timestamp="2011-06-10T22:46:05Z" uid="66036" user="h4v" changeset="8401653">
    <nd ref="1319509441"/>
    <nd ref="1319509459"/>
    <nd ref="1319509454"/>
    <nd ref="1319509445"/>
    <nd ref="1165128836"/>
    <nd ref="303189810"/>
    <nd ref="1218606031"/>
    <nd ref="1218606039"/>
    <nd ref="1319509441"/>
    <tag k="name" v="Skansen Łódzkiej Architektury Drewnianej"/>
    <tag k="tourism" v="museum"/>
  </way>
  <way id="117139024" version="2" timestamp="2011-06-11T07:53:06Z" uid="66036" user="h4v" changeset="8403607">
    <nd ref="1319509441"/>
    <nd ref="1319509459"/>
    <nd ref="1319509454"/>
    <nd ref="1319509445"/>
    <nd ref="1165128836"/>
    <nd ref="303189810"/>
    <nd ref="1218606031"/>
    <nd ref="1218606039"/>
    <nd ref="1319509441"/>
    <tag k="area" v="yes"/>
    <tag k="name" v="Skansen Łódzkiej Architektury Drewnianej"/>
    <tag k="tourism" v="museum"/>
  </way>
  <way id="117139025" version="1" timestamp="2011-06-10T22:46:05Z" uid="66036" user="h4v" changeset="8401653">
    <nd ref="297823129"/>
    <nd ref="297819064"/>
    <nd ref="297819101"/>
    <tag k="highway" v="unclassified"/>
    <tag k="name" v="Solec"/>
  </way>
  <way id="117139026" version="1" timestamp="2011-06-10T22:46:06Z" uid="66036" user="h4v" changeset="8401653">
    <nd ref="1319509449"/>
    <nd ref="1319509438"/>
    <nd ref="1319509463"/>
    <nd ref="1319509456"/>
    <nd ref="1319509449"/>
    <tag k="addr:housenumber" v="4"/>
    <tag k="addr:street" v="Telefoniczna"/>
    <tag k="amenity" v="place_of_worship"/>
    <tag k="denomination" v="russian_orthodox"/>
    <tag k="heritage" v="2"/>
    <tag k="heritage:operator" v="nid"/>
    <tag k="historic" v="heritage"/>
    <tag k="name" v="Cerkiew pod wezwaniem Zaśnięcia Najświętszej Maryi Panny"/>
    <tag k="ref:nid" v="A/293"/>
    <tag k="religion" v="christian"/>
  </way>
  <way id="117139027" version="1" timestamp="2011-06-10T22:46:06Z" uid="66036" user="h4v" changeset="8401653">
    <nd ref="297819377"/>
    <nd ref="1252440721"/>
    <nd ref="94711974"/>
    <nd ref="965087925"/>
    <nd ref="965087951"/>
    <nd ref="1255436656"/>
    <nd ref="1255436648"/>
    <nd ref="965087781"/>
    <nd ref="1255441784"/>
    <nd ref="94711975"/>
    <tag k="highway" v="unclassified"/>
    <tag k="name" v="Unii Lubelskiej"/>
  </way>
</osm>
