<?xml version='1.0' encoding='UTF-8'?>
<osm version="0.6" generator="libosmium/2.20.0">
  <way id="11742065" version="4" timestamp="2010-07-08T00:00:13Z" uid="74617" user="JohnSmith" changeset="5162525">
    <nd ref="105133486"/>
    <nd ref="105137511"/>
    <nd ref="105131774"/>
    <nd ref="105132674"/>
    <tag k="highway" v="residential"/>
    <tag k="maxspeed" v="50"/>
    <tag k="maxspeed:source" v="default residential speed limit in Australia"/>
    <tag k="name" v="Oxely Avenue"/>
  </way>
  <way id="11742065" version="5" timestamp="2010-07-08T00:10:10Z" uid="74617" user="JohnSmith" changeset="5162525">
    <nd ref="105133486"/>
    <nd ref="105137511"/>
    <nd ref="105131774"/>
    <nd ref="105132674"/>
    <tag k="highway" v="residential"/>
    <tag k="maxspeed" v="50"/>
    <tag k="maxspeed:source" v="default residential speed limit in Australia"/>
    <tag k="name" v="Oxely Avenue"/>
  </way>
  <way id="11742111" version="3" timestamp="2010-07-08T00:02:10Z" uid="74617" user="JohnSmith" changeset="5162525">
    <nd ref="105132676"/>
    <nd ref="105135219"/>
    <nd ref="170130425"/>
    <nd ref="96291239"/>
    <tag k="highway" v="residential"/>
    <tag k="maxspeed" v="50"/>
    <tag k="maxspeed:source" v="default residential speed limit in Australia"/>
    <tag k="name" v="Willis Avenue"/>
  </way>
  <way id="11742111" version="4" timestamp="2010-07-08T00:12:23Z" uid="74617" user="JohnSmith" changeset="5162525">
    <nd ref="105132676"/>
    <nd ref="105135219"/>
    <nd ref="170130425"/>
    <nd ref="96291239"/>
    <tag k="highway" v="residential"/>
    <tag k="maxspeed" v="50"/>
    <tag k="maxspeed:source" v="default residential speed limit in Australia"/>
    <tag k="name" v="Willis Avenue"/>
  </way>
  <way id="11742194" version="6" timestamp="2010-07-09T05:14:53Z" uid="74617" user="JohnSmith" changeset="5170986">
    <nd ref="105135609"/>
    <nd ref="105138093"/>
    <nd ref="105136204"/>
    <nd ref="734869725"/>
    <nd ref="105136205"/>
    <nd ref="734869728"/>
    <nd ref="105136206"/>
    <nd ref="105136207"/>
    <nd ref="105136208"/>
    <nd ref="105136209"/>
    <nd ref="105136210"/>
    <nd ref="105136211"/>
    <nd ref="105136212"/>
    <tag k="highway" v="residential"/>
    <tag k="maxspeed" v="50"/>
    <tag k="maxspeed:source" v="default residential speed limit in Australia"/>
    <tag k="name" v="Halcyon Court"/>
  </way>
  <way id="11742194" version="7" timestamp="2010-07-09T05:22:42Z" uid="74617" user="JohnSmith" changeset="5170972">
    <nd ref="105135609"/>
    <nd ref="105138093"/>
    <nd ref="105136204"/>
    <nd ref="734869725"/>
    <nd ref="105136205"/>
    <nd ref="734869728"/>
    <nd ref="105136206"/>
    <nd ref="105136207"/>
    <nd ref="105136208"/>
    <nd ref="105136209"/>
    <nd ref="105136210"/>
    <nd ref="105136211"/>
    <nd ref="105136212"/>
    <tag k="highway" v="residential"/>
    <tag k="maxspeed" v="50"/>
    <tag k="maxspeed:source" v="default residential speed limit in Australia"/>
    <tag k="name" v="Halcyon Court"/>
  </way>
  <way id="11742269" version="5" timestamp="2010-07-09T05:18:56Z" uid="74617" user="JohnSmith" changeset="5170986">
    <nd ref="734869731"/>
    <nd ref="734869732"/>
    <nd ref="105136801"/>
    <nd ref="105136210"/>
    <tag k="highway" v="residential"/>
    <tag k="maxspeed" v="50"/>
    <tag k="maxspeed:source" v="default residential speed limit in Australia"/>
    <tag k="name" v="Refuge Close"/>
  </way>
  <way id="11742269" version="6" timestamp="2010-07-09T05:22:26Z" uid="74617" user="JohnSmith" changeset="5170972">
    <nd ref="734869731"/>
    <nd ref="734869732"/>
    <nd ref="105136801"/>
    <nd ref="105136210"/>
    <tag k="highway" v="residential"/>
    <tag k="maxspeed" v="50"/>
    <tag k="maxspeed:source" v="default residential speed limit in Australia"/>
    <tag k="name" v="Refuge Close"/>
  </way>
  <way id="11742337" version="11" timestamp="2010-02-17T11:06:02Z" uid="7617" user="Franc" changeset="3899798">
    <nd ref="26391311"/>
    <nd ref="159146358"/>
    <nd ref="26391322"/>
    <nd ref="170097311"/>
    <nd ref="247473554"/>
    <nd ref="643027070"/>
    <tag k="highway" v="residential"/>
    <tag k="name" v="Woodbury Road"/>
    <tag k="source" v="Survey"/>
  </way>
  <way id="11742337" version="12" timestamp="2010-02-18T08:13:19Z" uid="7617" user="Franc" changeset="3906977">
    <nd ref="26391311"/>
    <nd ref="159146358"/>
    <nd ref="644590162"/>
    <nd ref="644590158"/>
    <nd ref="26391322"/>
    <nd ref="170097311"/>
    <nd ref="247473554"/>
    <nd ref="643027070"/>
    <tag k="highway" v="residential"/>
    <tag k="name" v="Woodbury Road"/>
    <tag k="source" v="Survey"/>
  </way>
  <way id="11742337" version="13" timestamp="2010-07-08T00:04:41Z" uid="74617" user="JohnSmith" changeset="5162525">
    <nd ref="26391311"/>
    <nd ref="159146358"/>
    <nd ref="644590162"/>
    <nd ref="644590158"/>
    <nd ref="26391322"/>
    <nd ref="170097311"/>
    <nd ref="247473554"/>
    <nd ref="643027070"/>
    <tag k="highway" v="residential"/>
    <tag k="maxspeed" v="50"/>
    <tag k="maxspeed:source" v="default residential speed limit in Australia"/>
    <tag k="name" v="Woodbury Road"/>
    <tag k="source" v="Survey"/>
  </way>
  <way id="11742337" version="14" timestamp="2010-07-08T00:15:22Z" uid="74617" user="JohnSmith" changeset="5162525">
    <nd ref="26391311"/>
    <nd ref="159146358"/>
    <nd ref="644590162"/>
    <nd ref="644590158"/>
    <nd ref="26391322"/>
    <nd ref="170097311"/>
    <nd ref="247473554"/>
    <nd ref="643027070"/>
    <tag k="highway" v="residential"/>
    <tag k="maxspeed" v="50"/>
    <tag k="maxspeed:source" v="default residential speed limit in Australia"/>
    <tag k="name" v="Woodbury Road"/>
    <tag k="source" v="Survey"/>
  </way>
  <way id="11742452" version="3" timestamp="2010-07-08T00:04:13Z" uid="74617" user="JohnSmith" changeset="5162525">
    <nd ref="105137511"/>
    <nd ref="170130425"/>
    <nd ref="105138307"/>
    <tag k="highway" v="residential"/>
    <tag k="maxspeed" v="50"/>
    <tag k="maxspeed:source" v="default residential speed limit in Australia"/>
    <tag k="name" v="Karen Road"/>
  </way>
  <way id="11742452" version="4" timestamp="2010-07-08T00:14:43Z" uid="74617" user="JohnSmith" changeset="5162525">
    <nd ref="105137511"/>
    <nd ref="170130425"/>
    <nd ref="105138307"/>
    <tag k="highway" v="residential"/>
    <tag k="maxspeed" v="50"/>
    <tag k="maxspeed:source" v="default residential speed limit in Australia"/>
    <tag k="name" v="Karen Road"/>
  </way>
  <way id="11742624" version="3" timestamp="2010-07-08T00:00:20Z" uid="74617" user="JohnSmith" changeset="5162525">
    <nd ref="105137312"/>
    <nd ref="105139713"/>
    <nd ref="105139715"/>
    <nd ref="105139716"/>
    <nd ref="105139718"/>
    <nd ref="105139719"/>
    <tag k="highway" v="residential"/>
    <tag k="maxspeed" v="50"/>
    <tag k="maxspeed:source" v="default residential speed limit in Australia"/>
    <tag k="name" v="The Cloisters"/>
  </way>
  <way id="11742624" version="4" timestamp="2010-07-08T00:10:18Z" uid="74617" user="JohnSmith" changeset="5162525">
    <nd ref="105137312"/>
    <nd ref="105139713"/>
    <nd ref="105139715"/>
    <nd ref="105139716"/>
    <nd ref="105139718"/>
    <nd ref="105139719"/>
    <tag k="highway" v="residential"/>
    <tag k="maxspeed" v="50"/>
    <tag k="maxspeed:source" v="default residential speed limit in Australia"/>
    <tag k="name" v="The Cloisters"/>
  </way>
  <way id="11742641" version="9" timestamp="2010-07-09T05:04:21Z" uid="74617" user="JohnSmith" changeset="5170986">
    <nd ref="105138582"/>
    <nd ref="105139812"/>
    <nd ref="105139813"/>
    <nd ref="105139814"/>
    <nd ref="105139815"/>
    <nd ref="105139817"/>
    <nd ref="105139819"/>
    <nd ref="105139820"/>
    <nd ref="105139821"/>
    <nd ref="105139822"/>
    <nd ref="105139823"/>
    <nd ref="105140785"/>
    <nd ref="105139824"/>
    <nd ref="105139825"/>
    <nd ref="105141034"/>
    <nd ref="105139826"/>
    <nd ref="105139827"/>
    <nd ref="105142546"/>
    <nd ref="105139828"/>
    <nd ref="105139829"/>
    <nd ref="105139830"/>
    <nd ref="105144884"/>
    <nd ref="105139831"/>
    <nd ref="105139833"/>
    <nd ref="105139834"/>
    <nd ref="105139836"/>
    <nd ref="105139837"/>
    <nd ref="105139839"/>
    <nd ref="105139840"/>
    <nd ref="105139842"/>
    <nd ref="603010789"/>
    <nd ref="105139843"/>
    <nd ref="105139844"/>
    <nd ref="105139845"/>
    <tag k="highway" v="residential"/>
    <tag k="maxspeed" v="50"/>
    <tag k="maxspeed:source" v="default residential speed limit in Australia"/>
    <tag k="name" v="Huntingfield Drive"/>
  </way>
  <way id="11742695" version="4" timestamp="2010-07-09T05:14:22Z" uid="74617" user="JohnSmith" changeset="5170986">
    <nd ref="105140234"/>
    <nd ref="105140236"/>
    <nd ref="105140237"/>
    <nd ref="105140239"/>
    <nd ref="105139821"/>
    <tag k="highway" v="residential"/>
    <tag k="maxspeed" v="50"/>
    <tag k="maxspeed:source" v="default residential speed limit in Australia"/>
    <tag k="name" v="Albany Way"/>
  </way>
  <way id="11742695" version="5" timestamp="2010-07-09T05:22:35Z" uid="74617" user="JohnSmith" changeset="5170972">
    <nd ref="105140234"/>
    <nd ref="105140236"/>
    <nd ref="105140237"/>
    <nd ref="105140239"/>
    <nd ref="105139821"/>
    <tag k="highway" v="residential"/>
    <tag k="maxspeed" v="50"/>
    <tag k="maxspeed:source" v="default residential speed limit in Australia"/>
    <tag k="name" v="Albany Way"/>
  </way>
  <way id="11742752" version="3" timestamp="2010-07-09T05:22:18Z" uid="74617" user="JohnSmith" changeset="5170972">
    <nd ref="105140782"/>
    <nd ref="105140783"/>
    <nd ref="105140784"/>
    <nd ref="105140785"/>
    <tag k="highway" v="residential"/>
    <tag k="maxspeed" v="50"/>
    <tag k="maxspeed:source" v="default residential speed limit in Australia"/>
    <tag k="name" v="Harkaway Rise"/>
  </way>
  <way id="11742771" version="2" timestamp="2010-07-08T00:04:06Z" uid="74617" user="JohnSmith" changeset="5162525">
    <nd ref="105139715"/>
    <nd ref="105141134"/>
    <tag k="highway" v="residential"/>
    <tag k="maxspeed" v="50"/>
    <tag k="maxspeed:source" v="default residential speed limit in Australia"/>
    <tag k="name" v="The Cloisters"/>
  </way>
  <way id="11742771" version="3" timestamp="2010-07-08T00:14:34Z" uid="74617" user="JohnSmith" changeset="5162525">
    <nd ref="105139715"/>
    <nd ref="105141134"/>
    <tag k="highway" v="residential"/>
    <tag k="maxspeed" v="50"/>
    <tag k="maxspeed:source" v="default residential speed limit in Australia"/>
    <tag k="name" v="The Cloisters"/>
  </way>
  <way id="11742801" version="5" timestamp="2010-07-09T05:22:30Z" uid="74617" user="JohnSmith" changeset="5170972">
    <nd ref="105141034"/>
    <nd ref="105141447"/>
    <nd ref="105141448"/>
    <nd ref="105141723"/>
    <nd ref="105141449"/>
    <tag k="highway" v="residential"/>
    <tag k="maxspeed" v="50"/>
    <tag k="maxspeed:source" v="default residential speed limit in Australia"/>
    <tag k="name" v="Zerbe Avenue"/>
  </way>
  <way id="11742801" version="6" timestamp="2011-03-03T01:30:35Z" uid="4467" user="Rosscoe" changeset="7442582">
    <nd ref="105141034"/>
    <nd ref="105141447"/>
    <nd ref="105141448"/>
    <nd ref="105141723"/>
    <nd ref="1183816720"/>
    <tag k="highway" v="residential"/>
    <tag k="maxspeed" v="50"/>
    <tag k="maxspeed:source" v="default residential speed limit in Australia"/>
    <tag k="name" v="Zerbe Avenue"/>
  </way>
  <way id="11742824" version="3" timestamp="2010-07-09T05:21:45Z" uid="74617" user="JohnSmith" changeset="5170972">
    <nd ref="105141722"/>
    <nd ref="105141723"/>
    <tag k="highway" v="residential"/>
    <tag k="maxspeed" v="50"/>
    <tag k="maxspeed:source" v="default residential speed limit in Australia"/>
    <tag k="name" v="Havelock Court"/>
  </way>
  <way id="11742831" version="3" timestamp="2010-07-08T00:00:49Z" uid="74617" user="JohnSmith" changeset="5162525">
    <nd ref="105137313"/>
    <nd ref="105141868"/>
    <tag k="highway" v="residential"/>
    <tag k="maxspeed" v="50"/>
    <tag k="maxspeed:source" v="default residential speed limit in Australia"/>
    <tag k="name" v="Darling Street"/>
  </way>
  <way id="11742831" version="4" timestamp="2010-07-08T00:10:51Z" uid="74617" user="JohnSmith" changeset="5162525">
    <nd ref="105137313"/>
    <nd ref="105141868"/>
    <tag k="highway" v="residential"/>
    <tag k="maxspeed" v="50"/>
    <tag k="maxspeed:source" v="default residential speed limit in Australia"/>
    <tag k="name" v="Darling Street"/>
  </way>
  <way id="11742885" version="2" timestamp="2010-07-09T05:22:14Z" uid="74617" user="JohnSmith" changeset="5170972">
    <nd ref="105142540"/>
    <nd ref="105142541"/>
    <nd ref="105142543"/>
    <nd ref="105142544"/>
    <nd ref="105142546"/>
    <tag k="highway" v="residential"/>
    <tag k="maxspeed" v="50"/>
    <tag k="maxspeed:source" v="default residential speed limit in Australia"/>
    <tag k="name" v="Thornecombe Walk"/>
  </way>
  <way id="11742924" version="4" timestamp="2010-07-08T00:00:06Z" uid="74617" user="JohnSmith" changeset="5162525">
    <nd ref="105137315"/>
    <nd ref="105143159"/>
    <nd ref="105145723"/>
    <nd ref="105142844"/>
    <tag k="highway" v="residential"/>
    <tag k="maxspeed" v="50"/>
    <tag k="maxspeed:source" v="default residential speed limit in Australia"/>
    <tag k="name" v="Aronia Avenue"/>
  </way>
  <way id="11742924" version="5" timestamp="2010-07-08T00:10:03Z" uid="74617" user="JohnSmith" changeset="5162525">
    <nd ref="105137315"/>
    <nd ref="105143159"/>
    <nd ref="105145723"/>
    <nd ref="105142844"/>
    <tag k="highway" v="residential"/>
    <tag k="maxspeed" v="50"/>
    <tag k="maxspeed:source" v="default residential speed limit in Australia"/>
    <tag k="name" v="Aronia Avenue"/>
  </way>
</osm>
