<?xml version='1.0' encoding='UTF-8'?>
<osm version="0.6" generator="libosmium/2.20.0">
  <way id="117423830" version="1" timestamp="2011-06-12T22:06:15Z" uid="7617" user="Franc" changeset="8420502">
    <nd ref="1322924821"/>
    <nd ref="1322924812"/>
    <tag k="highway" v="service"/>
    <tag k="oneway" v="yes"/>
    <tag k="service" v="parking_aisle"/>
  </way>
  <way id="117423831" version="1" timestamp="2011-06-12T22:06:15Z" uid="7617" user="Franc" changeset="8420502">
    <nd ref="31292528"/>
    <nd ref="291748442"/>
    <tag k="highway" v="unclassified"/>
    <tag k="name" v="Greeves Avenue"/>
    <tag k="source:name" v="historical"/>
    <tag k="source_ref:name" v="http://image.sl.nsw.gov.au/cgi-bin/ebindshow.pl?doc=mser4_811/a1363;seq=60"/>
  </way>
  <way id="117423832" version="1" timestamp="2011-06-12T22:06:15Z" uid="7617" user="Franc" changeset="8420502">
    <nd ref="60716683"/>
    <nd ref="60716668"/>
    <nd ref="255464772"/>
    <tag k="highway" v="primary"/>
    <tag k="maxspeed" v="60"/>
    <tag k="name" v="Princes Highway"/>
    <tag k="note" v="This is only a primary road, as it is not a metroad."/>
    <tag k="oneway" v="yes"/>
  </way>
  <way id="117423833" version="1" timestamp="2011-06-12T22:06:15Z" uid="7617" user="Franc" changeset="8420502">
    <nd ref="291748594"/>
    <nd ref="291748403"/>
    <nd ref="291748408"/>
    <nd ref="291748409"/>
    <tag k="highway" v="primary"/>
    <tag k="maxspeed" v="60"/>
    <tag k="name" v="Princes Highway"/>
    <tag k="note" v="This is only a primary road, as it is not a metroad."/>
    <tag k="oneway" v="yes"/>
  </way>
  <way id="117423834" version="1" timestamp="2011-06-12T22:06:15Z" uid="7617" user="Franc" changeset="8420502">
    <nd ref="291748594"/>
    <nd ref="291748595"/>
    <tag k="highway" v="secondary"/>
    <tag k="name" v="West Botany Street"/>
    <tag k="oneway" v="yes"/>
  </way>
  <way id="117423835" version="1" timestamp="2011-06-12T22:06:15Z" uid="7617" user="Franc" changeset="8420502">
    <nd ref="31292528"/>
    <nd ref="31436129"/>
    <nd ref="31292679"/>
    <tag k="highway" v="primary"/>
    <tag k="maxspeed" v="60"/>
    <tag k="name" v="Princes Highway"/>
    <tag k="note" v="This is only a primary road, as it is not a metroad."/>
    <tag k="oneway" v="yes"/>
  </way>
  <way id="117423836" version="1" timestamp="2011-06-12T22:06:16Z" uid="7617" user="Franc" changeset="8420502">
    <nd ref="60716683"/>
    <nd ref="262456171"/>
    <tag k="highway" v="unclassified"/>
    <tag k="name" v="Holbeach Avenue"/>
  </way>
</osm>
