<?xml version='1.0' encoding='UTF-8'?>
<osm version="0.6" generator="libosmium/2.20.0">
  <way id="11783527" version="3" timestamp="2009-11-01T19:00:30Z" uid="20587" user="balrog-kun" changeset="3009848">
    <nd ref="105500866"/>
    <nd ref="105500869"/>
    <nd ref="105500876"/>
    <nd ref="105500878"/>
    <tag k="electrified" v="contact_line"/>
    <tag k="frequency" v="0"/>
    <tag k="maxspeed" v="100"/>
    <tag k="name" v="Linia Tomaszów Mazowiecki - Radom"/>
    <tag k="operator" v="PLK S.A."/>
    <tag k="railway" v="rail"/>
    <tag k="ref" v="22"/>
    <tag k="voltage" v="3000"/>
    <tag k="wikipedia" v="pl:Linia kolejowa nr 22"/>
  </way>
  <way id="11783527" version="4" timestamp="2009-11-11T11:16:57Z" uid="20587" user="balrog-kun" changeset="3089068">
    <nd ref="105500866"/>
    <nd ref="105500869"/>
    <nd ref="105500876"/>
    <nd ref="105500878"/>
    <tag k="electrified" v="contact_line"/>
    <tag k="frequency" v="0"/>
    <tag k="railway" v="rail"/>
    <tag k="voltage" v="3000"/>
  </way>
  <way id="11783529" version="2" timestamp="2009-11-01T19:00:29Z" uid="20587" user="balrog-kun" changeset="3009848">
    <nd ref="105500878"/>
    <nd ref="105500912"/>
    <nd ref="105500914"/>
    <nd ref="105500918"/>
    <nd ref="105500922"/>
    <nd ref="105500927"/>
    <nd ref="105500929"/>
    <nd ref="105500931"/>
    <nd ref="105500933"/>
    <tag k="electrified" v="contact_line"/>
    <tag k="frequency" v="0"/>
    <tag k="maxspeed" v="100"/>
    <tag k="name" v="Linia Tomaszów Mazowiecki - Radom"/>
    <tag k="operator" v="PLK S.A."/>
    <tag k="railway" v="rail"/>
    <tag k="ref" v="22"/>
    <tag k="voltage" v="3000"/>
    <tag k="wikipedia" v="pl:Linia kolejowa nr 22"/>
  </way>
  <way id="11783529" version="3" timestamp="2009-11-11T11:16:55Z" uid="20587" user="balrog-kun" changeset="3089068">
    <nd ref="105500878"/>
    <nd ref="105500912"/>
    <nd ref="105500914"/>
    <nd ref="105500918"/>
    <nd ref="105500922"/>
    <nd ref="105500927"/>
    <nd ref="105500929"/>
    <nd ref="105500931"/>
    <nd ref="105500933"/>
    <tag k="electrified" v="contact_line"/>
    <tag k="frequency" v="0"/>
    <tag k="railway" v="rail"/>
    <tag k="voltage" v="3000"/>
  </way>
  <way id="11783529" version="4" timestamp="2010-04-03T12:48:54Z" uid="20587" user="balrog-kun" changeset="4312260">
    <nd ref="105500878"/>
    <nd ref="683199537"/>
    <nd ref="683199553"/>
    <nd ref="683199554"/>
    <nd ref="105500912"/>
    <nd ref="105500914"/>
    <nd ref="105500918"/>
    <nd ref="105500922"/>
    <nd ref="105500927"/>
    <nd ref="105500929"/>
    <nd ref="683208341"/>
    <nd ref="105500931"/>
    <nd ref="105500933"/>
    <tag k="electrified" v="contact_line"/>
    <tag k="frequency" v="0"/>
    <tag k="railway" v="rail"/>
    <tag k="voltage" v="3000"/>
  </way>
  <way id="11783531" version="3" timestamp="2009-11-01T19:00:30Z" uid="20587" user="balrog-kun" changeset="3009848">
    <nd ref="89421041"/>
    <nd ref="105501022"/>
    <nd ref="105501026"/>
    <nd ref="105501029"/>
    <nd ref="105500922"/>
    <tag k="name" v="Łącznica Kolejowa Nr 573"/>
    <tag k="railway" v="rail"/>
    <tag k="ref" v="573"/>
  </way>
  <way id="11783531" version="4" timestamp="2009-11-11T11:16:57Z" uid="20587" user="balrog-kun" changeset="3089068">
    <nd ref="89421041"/>
    <nd ref="105501022"/>
    <nd ref="105501026"/>
    <nd ref="105501029"/>
    <nd ref="105500922"/>
    <tag k="railway" v="rail"/>
  </way>
  <way id="11783531" version="5" timestamp="2010-04-03T12:49:00Z" uid="20587" user="balrog-kun" changeset="4312260">
    <nd ref="89421041"/>
    <nd ref="683199628"/>
    <nd ref="683199629"/>
    <nd ref="105501022"/>
    <nd ref="683199647"/>
    <nd ref="105501026"/>
    <nd ref="105501029"/>
    <nd ref="683199702"/>
    <nd ref="683199752"/>
    <nd ref="105500922"/>
    <tag k="railway" v="rail"/>
  </way>
  <way id="11783533" version="2" timestamp="2009-11-01T19:00:34Z" uid="20587" user="balrog-kun" changeset="3009848">
    <nd ref="105500933"/>
    <nd ref="105500935"/>
    <tag k="bridge" v="yes"/>
    <tag k="electrified" v="contact_line"/>
    <tag k="frequency" v="0"/>
    <tag k="layer" v="1"/>
    <tag k="maxspeed" v="100"/>
    <tag k="name" v="Linia Tomaszów Mazowiecki - Radom"/>
    <tag k="operator" v="PLK S.A."/>
    <tag k="railway" v="rail"/>
    <tag k="ref" v="22"/>
    <tag k="voltage" v="3000"/>
    <tag k="wikipedia" v="pl:Linia kolejowa nr 22"/>
  </way>
  <way id="11783533" version="3" timestamp="2009-11-11T11:17:01Z" uid="20587" user="balrog-kun" changeset="3089068">
    <nd ref="105500933"/>
    <nd ref="105500935"/>
    <tag k="bridge" v="yes"/>
    <tag k="electrified" v="contact_line"/>
    <tag k="frequency" v="0"/>
    <tag k="layer" v="1"/>
    <tag k="railway" v="rail"/>
    <tag k="voltage" v="3000"/>
  </way>
  <way id="11783534" version="2" timestamp="2009-04-01T04:16:17Z" uid="20587" user="balrog-kun" changeset="4543">
    <nd ref="105500935"/>
    <nd ref="105500939"/>
    <nd ref="105500942"/>
    <nd ref="105500944"/>
    <nd ref="105500946"/>
    <nd ref="105500951"/>
    <nd ref="105500954"/>
    <nd ref="105500957"/>
    <nd ref="105500963"/>
    <nd ref="105500966"/>
    <nd ref="105500972"/>
    <nd ref="105500979"/>
    <nd ref="105500982"/>
    <tag k="created_by" v="JOSM"/>
    <tag k="railway" v="rail"/>
  </way>
  <way id="11783534" version="3" timestamp="2009-11-01T19:00:34Z" uid="20587" user="balrog-kun" changeset="3009848">
    <nd ref="105500935"/>
    <nd ref="105500939"/>
    <nd ref="105500942"/>
    <nd ref="105500944"/>
    <nd ref="105500946"/>
    <nd ref="105500951"/>
    <nd ref="105500954"/>
    <nd ref="105500957"/>
    <nd ref="105500963"/>
    <nd ref="105500966"/>
    <nd ref="105500972"/>
    <nd ref="105500979"/>
    <nd ref="105500982"/>
    <tag k="electrified" v="contact_line"/>
    <tag k="frequency" v="0"/>
    <tag k="maxspeed" v="100"/>
    <tag k="name" v="Linia Tomaszów Mazowiecki - Radom"/>
    <tag k="operator" v="PLK S.A."/>
    <tag k="railway" v="rail"/>
    <tag k="ref" v="22"/>
    <tag k="voltage" v="3000"/>
    <tag k="wikipedia" v="pl:Linia kolejowa nr 22"/>
  </way>
  <way id="11783534" version="4" timestamp="2009-11-11T11:17:01Z" uid="20587" user="balrog-kun" changeset="3089068">
    <nd ref="105500935"/>
    <nd ref="105500939"/>
    <nd ref="105500942"/>
    <nd ref="105500944"/>
    <nd ref="105500946"/>
    <nd ref="105500951"/>
    <nd ref="105500954"/>
    <nd ref="105500957"/>
    <nd ref="105500963"/>
    <nd ref="105500966"/>
    <nd ref="105500972"/>
    <nd ref="105500979"/>
    <nd ref="105500982"/>
    <tag k="electrified" v="contact_line"/>
    <tag k="frequency" v="0"/>
    <tag k="railway" v="rail"/>
    <tag k="voltage" v="3000"/>
  </way>
  <way id="11783534" version="5" timestamp="2010-04-03T12:49:01Z" uid="20587" user="balrog-kun" changeset="4312260">
    <nd ref="105500935"/>
    <nd ref="105500939"/>
    <nd ref="683207962"/>
    <nd ref="683207973"/>
    <nd ref="105500942"/>
    <nd ref="105500944"/>
    <nd ref="683208129"/>
    <nd ref="105500946"/>
    <nd ref="683208135"/>
    <nd ref="105500951"/>
    <nd ref="105500954"/>
    <nd ref="683208102"/>
    <nd ref="105500957"/>
    <nd ref="105500963"/>
    <nd ref="105500966"/>
    <nd ref="105500972"/>
    <nd ref="105500979"/>
    <nd ref="105500982"/>
    <tag k="electrified" v="contact_line"/>
    <tag k="frequency" v="0"/>
    <tag k="railway" v="rail"/>
    <tag k="voltage" v="3000"/>
  </way>
  <way id="11783961" version="2" timestamp="2009-11-02T01:30:44Z" uid="20587" user="balrog-kun" changeset="3013111">
    <nd ref="105504229"/>
    <nd ref="105504230"/>
    <nd ref="105504234"/>
    <nd ref="105504237"/>
    <nd ref="105504244"/>
    <nd ref="105504253"/>
    <nd ref="105504259"/>
    <nd ref="105504261"/>
    <nd ref="105504267"/>
    <nd ref="31222038"/>
    <tag k="highway" v="primary"/>
    <tag k="ref" v="12"/>
  </way>
  <way id="11783961" version="4" timestamp="2010-04-03T12:49:29Z" uid="20587" user="balrog-kun" changeset="4312260"/>
  <way id="11783963" version="2" timestamp="2009-11-02T01:30:48Z" uid="20587" user="balrog-kun" changeset="3013111">
    <nd ref="31222038"/>
    <nd ref="105504269"/>
    <nd ref="105504271"/>
    <nd ref="105504273"/>
    <nd ref="105504274"/>
    <nd ref="105504280"/>
    <nd ref="105504283"/>
    <nd ref="105504286"/>
    <nd ref="105504289"/>
    <nd ref="105504294"/>
    <tag k="highway" v="primary"/>
    <tag k="ref" v="12"/>
  </way>
  <way id="11783963" version="4" timestamp="2010-04-03T12:49:29Z" uid="20587" user="balrog-kun" changeset="4312260"/>
  <way id="11783965" version="3" timestamp="2010-04-03T12:49:29Z" uid="20587" user="balrog-kun" changeset="4312260"/>
</osm>
