<?xml version='1.0' encoding='UTF-8'?>
<osm version="0.6" generator="libosmium/2.20.0">
  <way id="118304404" version="1" timestamp="2011-06-19T12:26:58Z" uid="7617" user="Franc" changeset="8483425">
    <nd ref="409769967"/>
    <nd ref="409769969"/>
    <nd ref="409769970"/>
    <nd ref="409769972"/>
    <tag k="highway" v="primary"/>
    <tag k="maxspeed" v="60"/>
    <tag k="name" v="Alison Road"/>
    <tag k="oneway" v="yes"/>
    <tag k="source" v="yahoo_imagery;extrapolation"/>
  </way>
  <way id="118304405" version="1" timestamp="2011-06-19T12:26:58Z" uid="7617" user="Franc" changeset="8483425">
    <nd ref="342589809"/>
    <nd ref="84429248"/>
    <nd ref="342589838"/>
    <tag k="bus_lane" v="Mo-Fr 15:00-19:00"/>
    <tag k="bus_lane:bicycle" v="yes"/>
    <tag k="highway" v="primary"/>
    <tag k="maxspeed" v="60"/>
    <tag k="name" v="Anzac Parade"/>
    <tag k="oneway" v="yes"/>
    <tag k="source" v="Yahoo Imagery"/>
  </way>
  <way id="118304406" version="1" timestamp="2011-06-19T12:26:59Z" uid="7617" user="Franc" changeset="8483425">
    <nd ref="409769952"/>
    <nd ref="652412355"/>
    <nd ref="409769951"/>
    <nd ref="652412357"/>
    <nd ref="409769950"/>
    <nd ref="1330734908"/>
    <nd ref="409769949"/>
    <tag k="highway" v="primary"/>
    <tag k="maxspeed" v="60"/>
    <tag k="name" v="Alison Road"/>
    <tag k="oneway" v="yes"/>
    <tag k="source" v="yahoo_imagery;extrapolation"/>
  </way>
  <way id="118304407" version="1" timestamp="2011-06-19T12:26:59Z" uid="7617" user="Franc" changeset="8483425">
    <nd ref="409769965"/>
    <nd ref="409769939"/>
    <tag k="highway" v="tertiary"/>
    <tag k="maxspeed" v="50"/>
    <tag k="name" v="Botany Street"/>
  </way>
  <way id="118304408" version="1" timestamp="2011-06-19T12:26:59Z" uid="7617" user="Franc" changeset="8483425">
    <nd ref="84429250"/>
    <nd ref="600901140"/>
    <tag k="highway" v="residential"/>
    <tag k="maxspeed" v="50"/>
    <tag k="name" v="Ascot Street"/>
    <tag k="source" v="survey"/>
    <tag k="source:maxspeed" v="state_limit"/>
  </way>
  <way id="118304409" version="1" timestamp="2011-06-19T12:26:59Z" uid="7617" user="Franc" changeset="8483425">
    <nd ref="251855468"/>
    <nd ref="29799330"/>
    <tag k="cycleway" v="lane"/>
    <tag k="highway" v="secondary"/>
    <tag k="lcn" v="yes"/>
    <tag k="name" v="Dalhousie Street"/>
    <tag k="source" v="survey"/>
  </way>
  <way id="118304410" version="1" timestamp="2011-06-19T12:27:00Z" uid="7617" user="Franc" changeset="8483425">
    <nd ref="19123563"/>
    <nd ref="19123560"/>
    <nd ref="251851050"/>
    <nd ref="634823154"/>
    <nd ref="33298778"/>
    <nd ref="33681349"/>
    <tag k="highway" v="primary"/>
    <tag k="maxspeed" v="60"/>
    <tag k="name" v="Parramatta Road"/>
    <tag k="oneway" v="yes"/>
  </way>
  <way id="118304412" version="1" timestamp="2011-06-19T12:27:00Z" uid="7617" user="Franc" changeset="8483425">
    <nd ref="14751129"/>
    <nd ref="84419686"/>
    <nd ref="84419687"/>
    <nd ref="84419688"/>
    <nd ref="84425280"/>
    <nd ref="84425282"/>
    <nd ref="84426244"/>
    <nd ref="84426245"/>
    <nd ref="14751121"/>
    <nd ref="84426246"/>
    <nd ref="1171698773"/>
    <nd ref="84426247"/>
    <nd ref="392288797"/>
    <nd ref="392289020"/>
    <nd ref="84426249"/>
    <tag k="bus_lane" v="Mo-Fr 06:00-10:00"/>
    <tag k="bus_lane:bicycle" v="yes"/>
    <tag k="highway" v="primary"/>
    <tag k="maxspeed" v="60"/>
    <tag k="name" v="Anzac Parade"/>
    <tag k="oneway" v="yes"/>
    <tag k="source" v="Yahoo Imagery;nearmap"/>
  </way>
  <way id="118304413" version="1" timestamp="2011-06-19T12:27:00Z" uid="7617" user="Franc" changeset="8483425">
    <nd ref="84419684"/>
    <nd ref="197010145"/>
    <tag k="highway" v="residential"/>
    <tag k="lcn" v="yes"/>
    <tag k="maxspeed" v="50"/>
    <tag k="name" v="Day Avenue"/>
    <tag k="source:name" v="survey"/>
  </way>
  <way id="118304414" version="1" timestamp="2011-06-19T12:27:01Z" uid="7617" user="Franc" changeset="8483425">
    <nd ref="409769939"/>
    <nd ref="409799315"/>
    <nd ref="124835971"/>
    <tag k="highway" v="primary"/>
    <tag k="maxspeed" v="60"/>
    <tag k="name" v="Alison Road"/>
    <tag k="oneway" v="yes"/>
    <tag k="source" v="yahoo_imagery;extrapolation"/>
  </way>
  <way id="118304415" version="1" timestamp="2011-06-19T12:27:01Z" uid="7617" user="Franc" changeset="8483425">
    <nd ref="29799330"/>
    <nd ref="619055670"/>
    <nd ref="20146830"/>
    <nd ref="1330734906"/>
    <nd ref="37796185"/>
    <nd ref="20146835"/>
    <nd ref="20146840"/>
    <nd ref="20146860"/>
    <nd ref="37788408"/>
    <nd ref="37798368"/>
    <nd ref="251855454"/>
    <nd ref="37790166"/>
    <tag k="highway" v="primary"/>
    <tag k="maxspeed" v="60"/>
    <tag k="name" v="Parramatta Road"/>
    <tag k="oneway" v="yes"/>
  </way>
  <way id="118304416" version="1" timestamp="2011-06-19T12:27:01Z" uid="7617" user="Franc" changeset="8483425">
    <nd ref="409769967"/>
    <nd ref="124835886"/>
    <nd ref="124835873"/>
    <tag k="highway" v="residential"/>
    <tag k="maxspeed" v="50"/>
    <tag k="name" v="Bradley Street"/>
    <tag k="source" v="survey"/>
    <tag k="source:maxspeed" v="state_limit"/>
  </way>
  <way id="118304417" version="1" timestamp="2011-06-19T12:27:01Z" uid="7617" user="Franc" changeset="8483425">
    <nd ref="26374816"/>
    <nd ref="305543048"/>
    <nd ref="392658134"/>
    <nd ref="84428068"/>
    <tag k="bus_lane" v="Mo-Fr 06:00-10:00"/>
    <tag k="bus_lane:bicycle" v="yes"/>
    <tag k="highway" v="primary"/>
    <tag k="maxspeed" v="60"/>
    <tag k="name" v="Anzac Parade"/>
    <tag k="oneway" v="yes"/>
    <tag k="source" v="Yahoo Imagery;nearmap"/>
  </way>
  <way id="118304418" version="1" timestamp="2011-06-19T12:27:02Z" uid="7617" user="Franc" changeset="8483425">
    <nd ref="409769965"/>
    <nd ref="409769966"/>
    <nd ref="409769967"/>
    <tag k="highway" v="primary"/>
    <tag k="maxspeed" v="60"/>
    <tag k="name" v="Alison Road"/>
    <tag k="oneway" v="yes"/>
    <tag k="source" v="yahoo_imagery;extrapolation"/>
  </way>
  <way id="118304419" version="1" timestamp="2011-06-19T12:27:02Z" uid="7617" user="Franc" changeset="8483425">
    <nd ref="409769952"/>
    <nd ref="652412349"/>
    <nd ref="1330734890"/>
    <nd ref="1330734899"/>
    <tag k="highway" v="unclassified"/>
    <tag k="name" v="John Street"/>
    <tag k="source" v="yahoo_imagery"/>
    <tag k="source:name" v="historical"/>
    <tag k="source_ref:name" v="http://www.sl.nsw.gov.au/online/maps.cfm"/>
  </way>
  <way id="118304420" version="1" timestamp="2011-06-19T12:27:02Z" uid="7617" user="Franc" changeset="8483425">
    <nd ref="20146867"/>
    <nd ref="300215753"/>
    <tag k="highway" v="primary"/>
    <tag k="name" v="Great North Road"/>
  </way>
  <way id="118304421" version="1" timestamp="2011-06-19T12:27:02Z" uid="7617" user="Franc" changeset="8483425">
    <nd ref="84429250"/>
    <nd ref="1171706873"/>
    <nd ref="342589748"/>
    <nd ref="412795988"/>
    <nd ref="18448961"/>
    <nd ref="84426995"/>
    <nd ref="245915305"/>
    <nd ref="84426997"/>
    <nd ref="581392246"/>
    <nd ref="84426998"/>
    <nd ref="84426999"/>
    <nd ref="84425446"/>
    <nd ref="84425447"/>
    <nd ref="1330734891"/>
    <nd ref="84420829"/>
    <nd ref="84420830"/>
    <nd ref="84420446"/>
    <tag k="bus_lane" v="Mo-Fr 15:00-19:00"/>
    <tag k="bus_lane:bicycle" v="yes"/>
    <tag k="highway" v="primary"/>
    <tag k="maxspeed" v="60"/>
    <tag k="name" v="Anzac Parade"/>
    <tag k="oneway" v="yes"/>
    <tag k="source" v="Yahoo Imagery"/>
  </way>
  <way id="118304422" version="1" timestamp="2011-06-19T12:27:03Z" uid="7617" user="Franc" changeset="8483425">
    <nd ref="84420446"/>
    <nd ref="245918080"/>
    <nd ref="197010145"/>
    <tag k="bus_lane" v="Mo-Fr 15:00-19:00"/>
    <tag k="bus_lane:bicycle" v="yes"/>
    <tag k="highway" v="primary"/>
    <tag k="maxspeed" v="60"/>
    <tag k="name" v="Anzac Parade"/>
    <tag k="oneway" v="yes"/>
    <tag k="source" v="Yahoo Imagery"/>
  </way>
  <way id="118304423" version="1" timestamp="2011-06-19T12:27:03Z" uid="7617" user="Franc" changeset="8483425">
    <nd ref="409769949"/>
    <nd ref="409769979"/>
    <tag k="highway" v="secondary"/>
    <tag k="name" v="Cowper Street"/>
    <tag k="oneway" v="yes"/>
  </way>
  <way id="118304424" version="1" timestamp="2011-06-19T12:27:03Z" uid="7617" user="Franc" changeset="8483425">
    <nd ref="197010145"/>
    <nd ref="84420824"/>
    <nd ref="42700164"/>
    <nd ref="305543192"/>
    <nd ref="84420822"/>
    <nd ref="305543194"/>
    <nd ref="84421839"/>
    <nd ref="84421840"/>
    <nd ref="84421836"/>
    <nd ref="600861998"/>
    <nd ref="84421842"/>
    <tag k="bus_lane" v="Mo-Fr 15:00-19:00"/>
    <tag k="bus_lane:bicycle" v="yes"/>
    <tag k="highway" v="primary"/>
    <tag k="maxspeed" v="60"/>
    <tag k="name" v="Anzac Parade"/>
    <tag k="oneway" v="yes"/>
    <tag k="source" v="Yahoo Imagery"/>
  </way>
  <way id="118304425" version="1" timestamp="2011-06-19T12:27:03Z" uid="7617" user="Franc" changeset="8483425">
    <nd ref="81903863"/>
    <nd ref="83937330"/>
    <tag k="highway" v="residential"/>
    <tag k="maxspeed" v="50"/>
    <tag k="name" v="Byng Street"/>
    <tag k="source" v="survey"/>
    <tag k="source:maxspeed" v="state_limit"/>
  </way>
  <way id="118304426" version="1" timestamp="2011-06-19T12:27:04Z" uid="7617" user="Franc" changeset="8483425">
    <nd ref="251848940"/>
    <nd ref="251848931"/>
    <nd ref="251848941"/>
    <nd ref="599108484"/>
    <nd ref="620585567"/>
    <nd ref="599108480"/>
    <nd ref="251848945"/>
    <nd ref="515899202"/>
    <nd ref="251848946"/>
    <nd ref="599108475"/>
    <nd ref="251848948"/>
    <nd ref="602828834"/>
    <nd ref="618528229"/>
    <nd ref="251849215"/>
    <nd ref="597177914"/>
    <nd ref="251848950"/>
    <nd ref="599177989"/>
    <nd ref="251848951"/>
    <tag k="bus_lane" v="Mo-Fr 06:00-10:00,15:00-19:00"/>
    <tag k="bus_lane:bicycle" v="yes"/>
    <tag k="highway" v="primary"/>
    <tag k="maxspeed" v="60"/>
    <tag k="name" v="Parramatta Road"/>
    <tag k="oneway" v="yes"/>
  </way>
  <way id="118304428" version="1" timestamp="2011-06-19T12:27:04Z" uid="7617" user="Franc" changeset="8483425">
    <nd ref="251851059"/>
    <nd ref="969457253"/>
    <nd ref="28438839"/>
    <nd ref="28438840"/>
    <nd ref="33781558"/>
    <nd ref="120580288"/>
    <nd ref="634823140"/>
    <nd ref="29496405"/>
    <nd ref="33681109"/>
    <nd ref="33660802"/>
    <nd ref="28438842"/>
    <nd ref="33781561"/>
    <nd ref="30677760"/>
    <nd ref="33781786"/>
    <tag k="highway" v="secondary"/>
    <tag k="maxspeed" v="60"/>
    <tag k="name" v="Crystal Street"/>
    <tag k="source" v="survey"/>
  </way>
  <way id="118304431" version="1" timestamp="2011-06-19T12:27:05Z" uid="7617" user="Franc" changeset="8483425">
    <nd ref="84419684"/>
    <nd ref="41848673"/>
    <nd ref="581427083"/>
    <nd ref="84419685"/>
    <nd ref="14751129"/>
    <tag k="bus_lane" v="Mo-Fr 06:00-10:00"/>
    <tag k="bus_lane:bicycle" v="yes"/>
    <tag k="highway" v="primary"/>
    <tag k="maxspeed" v="60"/>
    <tag k="name" v="Anzac Parade"/>
    <tag k="oneway" v="yes"/>
    <tag k="source" v="Yahoo Imagery;nearmap"/>
  </way>
  <way id="118304432" version="1" timestamp="2011-06-19T12:27:05Z" uid="7617" user="Franc" changeset="8483425">
    <nd ref="409769983"/>
    <nd ref="409769985"/>
    <tag k="highway" v="primary"/>
    <tag k="maxspeed" v="60"/>
    <tag k="name" v="Alison Road"/>
    <tag k="oneway" v="yes"/>
    <tag k="source" v="yahoo_imagery;extrapolation"/>
  </way>
  <way id="118304433" version="1" timestamp="2011-06-19T12:27:05Z" uid="7617" user="Franc" changeset="8483425">
    <nd ref="300215756"/>
    <nd ref="300215765"/>
    <nd ref="649985377"/>
    <tag k="highway" v="trunk"/>
    <tag k="lanes" v="3"/>
    <tag k="maxspeed" v="60"/>
    <tag k="name" v="Parramatta Road"/>
    <tag k="oneway" v="yes"/>
    <tag k="restriction" v="school_zone"/>
  </way>
  <way id="118304434" version="1" timestamp="2011-06-19T12:27:05Z" uid="7617" user="Franc" changeset="8483425">
    <nd ref="1330734908"/>
    <nd ref="308996004"/>
    <nd ref="1330734894"/>
    <nd ref="409799317"/>
    <tag k="highway" v="secondary"/>
    <tag k="name" v="Cowper Street"/>
    <tag k="oneway" v="yes"/>
  </way>
  <way id="118304435" version="1" timestamp="2011-06-19T12:27:05Z" uid="7617" user="Franc" changeset="8483425">
    <nd ref="33616242"/>
    <nd ref="33616243"/>
    <nd ref="649985384"/>
    <tag k="highway" v="tertiary"/>
    <tag k="name" v="Harris Street"/>
    <tag k="restriction" v="school_zone"/>
  </way>
  <way id="118304436" version="1" timestamp="2011-06-19T12:27:05Z" uid="7617" user="Franc" changeset="8483425">
    <nd ref="251851060"/>
    <nd ref="583239728"/>
    <nd ref="251851061"/>
    <nd ref="251851062"/>
    <nd ref="674770876"/>
    <nd ref="674770872"/>
    <tag k="fixme" v="clearway 6-10am 3-7pm M-F"/>
    <tag k="highway" v="primary"/>
    <tag k="maxspeed" v="60"/>
    <tag k="name" v="Parramatta Road"/>
    <tag k="oneway" v="yes"/>
  </way>
  <way id="118304437" version="1" timestamp="2011-06-19T12:27:06Z" uid="7617" user="Franc" changeset="8483425">
    <nd ref="84429246"/>
    <nd ref="342589809"/>
    <tag k="bus_lane" v="Mo-Fr 15:00-19:00"/>
    <tag k="bus_lane:bicycle" v="yes"/>
    <tag k="highway" v="primary"/>
    <tag k="maxspeed" v="60"/>
    <tag k="name" v="Anzac Parade"/>
    <tag k="oneway" v="yes"/>
    <tag k="source" v="Yahoo Imagery"/>
  </way>
  <way id="118304440" version="1" timestamp="2011-06-19T12:27:06Z" uid="7617" user="Franc" changeset="8483425">
    <nd ref="84420446"/>
    <nd ref="43283498"/>
    <nd ref="84380385"/>
    <nd ref="581019789"/>
    <nd ref="581020168"/>
    <nd ref="581020464"/>
    <nd ref="580983081"/>
    <nd ref="579661820"/>
    <nd ref="771187263"/>
    <nd ref="976338511"/>
    <nd ref="124835646"/>
    <nd ref="771187262"/>
    <nd ref="580978436"/>
    <nd ref="32488156"/>
    <nd ref="46163319"/>
    <nd ref="43270672"/>
    <nd ref="1127305753"/>
    <nd ref="1127123599"/>
    <nd ref="49146777"/>
    <nd ref="1127305764"/>
    <nd ref="1127123572"/>
    <nd ref="771187265"/>
    <nd ref="125093773"/>
    <nd ref="18548797"/>
    <tag k="bicycle" v="yes"/>
    <tag k="highway" v="secondary"/>
    <tag k="maxspeed" v="50"/>
    <tag k="name" v="High Street"/>
  </way>
  <way id="118304441" version="1" timestamp="2011-06-19T12:27:07Z" uid="7617" user="Franc" changeset="8483425">
    <nd ref="33616242"/>
    <nd ref="20146892"/>
    <tag k="highway" v="trunk"/>
    <tag k="lanes" v="3"/>
    <tag k="maxspeed" v="60"/>
    <tag k="name" v="Parramatta Road"/>
    <tag k="oneway" v="yes"/>
    <tag k="restriction" v="school_zone"/>
  </way>
  <way id="118304442" version="1" timestamp="2011-06-19T12:27:07Z" uid="7617" user="Franc" changeset="8483425">
    <nd ref="251851047"/>
    <nd ref="29496343"/>
    <nd ref="1300615513"/>
    <nd ref="1300615539"/>
    <nd ref="984048592"/>
    <nd ref="26363563"/>
    <tag k="highway" v="secondary"/>
    <tag k="name" v="Bridge Road"/>
  </way>
  <way id="118304443" version="1" timestamp="2011-06-19T12:27:07Z" uid="7617" user="Franc" changeset="8483425">
    <nd ref="1330734900"/>
    <nd ref="1330734897"/>
    <nd ref="1330734896"/>
    <nd ref="1330734893"/>
    <nd ref="1330734883"/>
    <nd ref="1330734885"/>
    <nd ref="1330734899"/>
    <nd ref="1330734887"/>
    <nd ref="1330734900"/>
    <tag k="highway" v="residential"/>
    <tag k="junction" v="roundabout"/>
  </way>
  <way id="118304444" version="1" timestamp="2011-06-19T12:27:08Z" uid="7617" user="Franc" changeset="8483425">
    <nd ref="19123563"/>
    <nd ref="214636624"/>
    <nd ref="20163818"/>
    <nd ref="583216501"/>
    <nd ref="674770885"/>
    <tag k="highway" v="secondary"/>
    <tag k="lcn" v="yes"/>
    <tag k="name" v="Norton Street"/>
  </way>
  <way id="118304445" version="1" timestamp="2011-06-19T12:27:08Z" uid="7617" user="Franc" changeset="8483425">
    <nd ref="300215753"/>
    <nd ref="300215767"/>
    <nd ref="300215771"/>
    <nd ref="300215754"/>
    <nd ref="300215770"/>
    <nd ref="300215766"/>
    <nd ref="649985380"/>
    <nd ref="300215755"/>
    <tag k="highway" v="trunk"/>
    <tag k="lanes" v="3"/>
    <tag k="maxspeed" v="60"/>
    <tag k="name" v="Parramatta Road"/>
    <tag k="oneway" v="yes"/>
  </way>
  <way id="118304446" version="1" timestamp="2011-06-19T12:27:08Z" uid="7617" user="Franc" changeset="8483425">
    <nd ref="251855468"/>
    <nd ref="251855469"/>
    <nd ref="251855470"/>
    <nd ref="251855471"/>
    <nd ref="19123599"/>
    <tag k="highway" v="primary"/>
    <tag k="lanes" v="3"/>
    <tag k="maxspeed" v="60"/>
    <tag k="name" v="Parramatta Road"/>
    <tag k="oneway" v="yes"/>
  </way>
  <way id="118304447" version="1" timestamp="2011-06-19T12:27:08Z" uid="7617" user="Franc" changeset="8483425">
    <nd ref="251854106"/>
    <nd ref="1330734881"/>
    <nd ref="33927482"/>
    <nd ref="33927567"/>
    <nd ref="19123605"/>
    <nd ref="33927629"/>
    <nd ref="37795724"/>
    <nd ref="267448517"/>
    <nd ref="19126515"/>
    <nd ref="29941971"/>
    <tag k="highway" v="primary"/>
    <tag k="maxspeed" v="60"/>
    <tag k="name" v="Hume Highway"/>
  </way>
  <way id="118304448" version="1" timestamp="2011-06-19T12:27:09Z" uid="7617" user="Franc" changeset="8483425">
    <nd ref="20146867"/>
    <nd ref="42922302"/>
    <nd ref="42922244"/>
    <tag k="highway" v="trunk"/>
    <tag k="lanes" v="3"/>
    <tag k="maxspeed" v="60"/>
    <tag k="name" v="Parramatta Road"/>
    <tag k="oneway" v="yes"/>
  </way>
  <way id="118304449" version="1" timestamp="2011-06-19T12:27:09Z" uid="7617" user="Franc" changeset="8483425">
    <nd ref="10285159"/>
    <nd ref="8965936"/>
    <tag k="highway" v="primary"/>
    <tag k="maxspeed" v="60"/>
    <tag k="name" v="Parramatta Road"/>
    <tag k="oneway" v="yes"/>
  </way>
  <way id="118304450" version="1" timestamp="2011-06-19T12:27:09Z" uid="7617" user="Franc" changeset="8483425">
    <nd ref="251851059"/>
    <nd ref="472432391"/>
    <nd ref="251851060"/>
    <tag k="fixme" v="clearway 6-10am 3-7pm M-F"/>
    <tag k="highway" v="primary"/>
    <tag k="maxspeed" v="60"/>
    <tag k="name" v="Parramatta Road"/>
    <tag k="oneway" v="yes"/>
  </way>
  <way id="118304451" version="1" timestamp="2011-06-19T12:27:09Z" uid="7617" user="Franc" changeset="8483425">
    <nd ref="84428068"/>
    <nd ref="84428070"/>
    <nd ref="1172032591"/>
    <nd ref="84428071"/>
    <nd ref="84428072"/>
    <nd ref="84428073"/>
    <tag k="bus_lane" v="Mo-Fr 06:00-10:00"/>
    <tag k="bus_lane:bicycle" v="yes"/>
    <tag k="highway" v="primary"/>
    <tag k="maxspeed" v="60"/>
    <tag k="name" v="Anzac Parade"/>
    <tag k="oneway" v="yes"/>
    <tag k="source" v="Yahoo Imagery;nearmap"/>
  </way>
  <way id="118304452" version="1" timestamp="2011-06-19T12:27:09Z" uid="7617" user="Franc" changeset="8483425">
    <nd ref="409769949"/>
    <nd ref="409769948"/>
    <nd ref="409769947"/>
    <nd ref="409769946"/>
    <nd ref="409769945"/>
    <nd ref="409769944"/>
    <nd ref="409769943"/>
    <nd ref="409769942"/>
    <nd ref="409769941"/>
    <nd ref="409769940"/>
    <nd ref="409769939"/>
    <tag k="highway" v="primary"/>
    <tag k="maxspeed" v="60"/>
    <tag k="name" v="Alison Road"/>
    <tag k="oneway" v="yes"/>
    <tag k="source" v="yahoo_imagery;extrapolation"/>
  </way>
  <way id="118304453" version="1" timestamp="2011-06-19T12:27:10Z" uid="7617" user="Franc" changeset="8483425">
    <nd ref="10285159"/>
    <nd ref="251848940"/>
    <tag k="highway" v="secondary"/>
    <tag k="lcn" v="yes"/>
    <tag k="name" v="Glebe Point Road"/>
  </way>
  <way id="118304454" version="1" timestamp="2011-06-19T12:27:10Z" uid="7617" user="Franc" changeset="8483425">
    <nd ref="342589838"/>
    <nd ref="342589855"/>
    <nd ref="305543047"/>
    <nd ref="84429250"/>
    <tag k="bus_lane" v="Mo-Fr 15:00-19:00"/>
    <tag k="bus_lane:bicycle" v="yes"/>
    <tag k="highway" v="primary"/>
    <tag k="maxspeed" v="60"/>
    <tag k="name" v="Anzac Parade"/>
    <tag k="oneway" v="yes"/>
    <tag k="source" v="Yahoo Imagery"/>
  </way>
</osm>
