<?xml version='1.0' encoding='UTF-8'?>
<osm version="0.6" generator="libosmium/2.20.0">
  <way id="11849292" version="2" timestamp="2007-12-13T04:28:24Z" uid="4467" user="Rosscoe" changeset="280283">
    <nd ref="25647230"/>
    <nd ref="106276428"/>
    <nd ref="106276432"/>
    <nd ref="106276433"/>
    <nd ref="106276436"/>
    <nd ref="106276439"/>
    <nd ref="106276442"/>
    <nd ref="106276444"/>
    <nd ref="106276447"/>
    <nd ref="106276498"/>
    <nd ref="106276451"/>
    <nd ref="106276454"/>
    <nd ref="106276458"/>
    <nd ref="106276461"/>
    <nd ref="106276464"/>
    <nd ref="106276468"/>
    <nd ref="106276471"/>
    <nd ref="106276475"/>
    <tag k="created_by" v="JOSM"/>
    <tag k="highway" v="unclassified"/>
  </way>
  <way id="11849292" version="3" timestamp="2007-12-13T04:34:28Z" uid="4467" user="Rosscoe" changeset="280283"/>
  <way id="11849298" version="9" timestamp="2010-04-27T22:18:26Z" uid="4467" user="Rosscoe" changeset="4545588">
    <nd ref="50576118"/>
    <nd ref="106276654"/>
    <nd ref="106276657"/>
    <nd ref="106276660"/>
    <nd ref="106276663"/>
    <nd ref="106276667"/>
    <nd ref="106276670"/>
    <nd ref="440514449"/>
    <nd ref="106276677"/>
    <nd ref="106276680"/>
    <nd ref="667729945"/>
    <nd ref="440514440"/>
    <nd ref="106276688"/>
    <nd ref="664390658"/>
    <nd ref="664390659"/>
    <nd ref="31128426"/>
    <tag k="highway" v="primary"/>
    <tag k="name" v="West Swan Road"/>
    <tag k="ref" v="S52"/>
  </way>
  <way id="11849298" version="10" timestamp="2010-05-20T07:54:18Z" uid="4467" user="Rosscoe" changeset="4754708">
    <nd ref="50576118"/>
    <nd ref="740470884"/>
    <nd ref="106276654"/>
    <nd ref="106276657"/>
    <nd ref="106276660"/>
    <nd ref="106276663"/>
    <nd ref="106276667"/>
    <nd ref="106276670"/>
    <nd ref="440514449"/>
    <nd ref="106276677"/>
    <nd ref="106276680"/>
    <nd ref="667729945"/>
    <nd ref="440514440"/>
    <nd ref="106276688"/>
    <nd ref="664390658"/>
    <nd ref="664390659"/>
    <nd ref="31128426"/>
    <tag k="highway" v="primary"/>
    <tag k="name" v="West Swan Road"/>
    <tag k="ref" v="S52"/>
  </way>
  <way id="11849299" version="2" timestamp="2011-03-29T10:35:27Z" uid="4467" user="Rosscoe" changeset="7705455">
    <nd ref="106276689"/>
    <nd ref="1224116193"/>
    <nd ref="106276690"/>
    <tag k="highway" v="unclassified"/>
    <tag k="oneway" v="yes"/>
    <tag k="source" v="nearmap"/>
  </way>
  <way id="11849301" version="2" timestamp="2011-03-29T10:35:14Z" uid="4467" user="Rosscoe" changeset="7705455">
    <nd ref="106276698"/>
    <nd ref="106276702"/>
    <tag k="highway" v="unclassified"/>
  </way>
  <way id="11849904" version="2" timestamp="2010-05-12T00:00:38Z" uid="4467" user="Rosscoe" changeset="4673740">
    <nd ref="730218281"/>
    <nd ref="59593423"/>
    <tag k="highway" v="secondary"/>
    <tag k="name" v="Chenery Street"/>
    <tag k="ref" v="C320"/>
  </way>
  <way id="11849906" version="6" timestamp="2010-05-12T00:00:38Z" uid="4467" user="Rosscoe" changeset="4673740">
    <nd ref="730218283"/>
    <nd ref="106287878"/>
    <nd ref="106287983"/>
    <tag k="highway" v="secondary"/>
    <tag k="name" v="High Street"/>
    <tag k="oneway" v="yes"/>
    <tag k="ref" v="C320"/>
    <tag k="source" v="survey"/>
    <tag k="surface" v="asphalt"/>
  </way>
  <way id="11849907" version="7" timestamp="2010-05-12T00:00:39Z" uid="4467" user="Rosscoe" changeset="4673740">
    <nd ref="730218284"/>
    <nd ref="106288037"/>
    <nd ref="133406809"/>
    <tag k="highway" v="secondary"/>
    <tag k="loc_name" v="High Street"/>
    <tag k="name" v="Mansfield - Whitfield Road"/>
    <tag k="ref" v="C521"/>
    <tag k="source" v="survey"/>
    <tag k="surface" v="asphalt"/>
  </way>
</osm>
