<?xml version='1.0' encoding='UTF-8'?>
<osm version="0.6" generator="libosmium/2.20.0">
  <way id="12295058" version="5" timestamp="2010-07-04T14:22:21Z" uid="4467" user="Rosscoe" changeset="5133340">
    <nd ref="111419222"/>
    <nd ref="111419224"/>
    <nd ref="111437380"/>
    <nd ref="111437384"/>
    <nd ref="111437387"/>
    <nd ref="111437390"/>
    <nd ref="420854956"/>
    <nd ref="111360624"/>
    <nd ref="111437393"/>
    <nd ref="111437396"/>
    <nd ref="111361488"/>
    <nd ref="111437399"/>
    <nd ref="111413632"/>
    <nd ref="111424739"/>
    <tag k="highway" v="secondary"/>
    <tag k="name" v="Freeman Drive"/>
    <tag k="name_1" v="State Route 419"/>
    <tag k="old_ref_legislative" v="138"/>
    <tag k="ref" v="419"/>
    <tag k="tiger:cfcc" v="A31"/>
    <tag k="tiger:county" v="Lebanon, PA"/>
    <tag k="tiger:name_base" v="Freeman"/>
    <tag k="tiger:name_base_1" v="State Route 419"/>
    <tag k="tiger:name_type" v="Dr"/>
    <tag k="tiger:reviewed" v="no"/>
    <tag k="tiger:separated" v="no"/>
    <tag k="tiger:source" v="tiger_import_dch_v0.6_20070829"/>
    <tag k="tiger:tlid" v="80675053:80675021:80689224:80689223:80689226:80675063"/>
    <tag k="tiger:upload_uuid" v="bulk_upload.pl-fd3c1da9-400e-4d56-b704-677ac7f87d28"/>
    <tag k="tiger:zip_left" v="17042"/>
    <tag k="tiger:zip_right" v="17042"/>
  </way>
  <way id="12295261" version="7" timestamp="2010-02-14T17:14:46Z" uid="74617" user="JohnSmith" changeset="3875836">
    <nd ref="75205527"/>
    <nd ref="563809949"/>
    <nd ref="75204436"/>
    <tag k="highway" v="unclassified"/>
    <tag k="maxspeed" v="50"/>
    <tag k="name" v="Berry Street"/>
  </way>
  <way id="12295268" version="5" timestamp="2010-02-14T17:14:14Z" uid="74617" user="JohnSmith" changeset="3875836">
    <nd ref="75203316"/>
    <nd ref="75200028"/>
    <tag k="highway" v="unclassified"/>
    <tag k="maxspeed" v="50"/>
    <tag k="name" v="Birley Street"/>
  </way>
  <way id="12295272" version="2" timestamp="2010-02-14T17:14:33Z" uid="74617" user="JohnSmith" changeset="3875836">
    <nd ref="111438349"/>
    <nd ref="111438376"/>
    <nd ref="111438396"/>
    <nd ref="111438428"/>
    <nd ref="111438441"/>
    <nd ref="111438535"/>
    <nd ref="111438560"/>
    <nd ref="111438584"/>
    <nd ref="111438607"/>
    <nd ref="111438627"/>
    <nd ref="111438349"/>
    <tag k="amenity" v="hospital"/>
    <tag k="name" v="St Andrews Private Hospital"/>
  </way>
  <way id="12295277" version="2" timestamp="2010-02-14T17:15:04Z" uid="74617" user="JohnSmith" changeset="3875836">
    <nd ref="111438669"/>
    <nd ref="111438756"/>
    <tag k="highway" v="residential"/>
    <tag k="maxspeed" v="50"/>
    <tag k="name" v="Laisby Drive"/>
  </way>
  <way id="12295282" version="3" timestamp="2010-02-14T17:15:04Z" uid="74617" user="JohnSmith" changeset="3875836">
    <nd ref="111438756"/>
    <nd ref="26335219"/>
    <tag k="highway" v="pedestrian"/>
    <tag k="name" v="Laisby Drive"/>
  </way>
  <way id="12295285" version="2" timestamp="2010-02-14T17:15:05Z" uid="74617" user="JohnSmith" changeset="3875836">
    <nd ref="26335219"/>
    <nd ref="75138442"/>
    <tag k="highway" v="residential"/>
    <tag k="maxspeed" v="50"/>
    <tag k="name" v="Laisby Drive"/>
  </way>
  <way id="12295291" version="2" timestamp="2010-02-14T17:15:02Z" uid="74617" user="JohnSmith" changeset="3875836">
    <nd ref="111438776"/>
    <nd ref="111438795"/>
    <tag k="highway" v="residential"/>
    <tag k="maxspeed" v="50"/>
    <tag k="name" v="Coburg Lane"/>
  </way>
  <way id="12295293" version="2" timestamp="2009-08-11T11:04:00Z" uid="4467" user="Rosscoe" changeset="2107049">
    <nd ref="21478936"/>
    <nd ref="26335100"/>
    <tag k="highway" v="primary"/>
    <tag k="is_in" v="Brisbane, QLD, Queensland, Australia"/>
    <tag k="name" v="Brunswick Street"/>
  </way>
  <way id="12295293" version="3" timestamp="2010-02-14T17:16:28Z" uid="74617" user="JohnSmith" changeset="3875836">
    <nd ref="21478936"/>
    <nd ref="26335100"/>
    <tag k="highway" v="primary"/>
    <tag k="name" v="Brunswick Street"/>
  </way>
  <way id="12295303" version="9" timestamp="2010-02-14T17:15:46Z" uid="74617" user="JohnSmith" changeset="3875836">
    <nd ref="111438919"/>
    <nd ref="152575839"/>
    <tag k="highway" v="residential"/>
    <tag k="maxspeed" v="50"/>
    <tag k="name" v="Kennigo Street"/>
  </way>
  <way id="12295307" version="5" timestamp="2010-02-14T17:13:56Z" uid="74617" user="JohnSmith" changeset="3875836">
    <nd ref="111438968"/>
    <nd ref="26334585"/>
    <tag k="highway" v="residential"/>
    <tag k="maxspeed" v="50"/>
    <tag k="name" v="Love Street"/>
  </way>
  <way id="12295311" version="6" timestamp="2010-02-14T17:13:55Z" uid="74617" user="JohnSmith" changeset="3875836">
    <nd ref="111439038"/>
    <nd ref="322728835"/>
    <nd ref="322730862"/>
    <nd ref="322728836"/>
    <nd ref="26334583"/>
    <tag k="highway" v="unclassified"/>
    <tag k="maxspeed" v="50"/>
    <tag k="name" v="Quarry Street"/>
  </way>
  <way id="12295316" version="3" timestamp="2010-02-14T17:15:04Z" uid="74617" user="JohnSmith" changeset="3875836">
    <nd ref="111439062"/>
    <nd ref="130095056"/>
    <tag k="foot" v="yes"/>
    <tag k="highway" v="cycleway"/>
    <tag k="name" v="Union Street"/>
  </way>
  <way id="12295318" version="6" timestamp="2010-02-14T17:13:56Z" uid="74617" user="JohnSmith" changeset="3875836">
    <nd ref="111439077"/>
    <nd ref="26335106"/>
    <nd ref="26334581"/>
    <tag k="highway" v="residential"/>
    <tag k="maxspeed" v="50"/>
    <tag k="name" v="Isaac Street"/>
  </way>
  <way id="12295321" version="2" timestamp="2010-02-14T17:14:57Z" uid="74617" user="JohnSmith" changeset="3875836">
    <nd ref="111439163"/>
    <nd ref="111439188"/>
    <tag k="highway" v="residential"/>
    <tag k="maxspeed" v="50"/>
    <tag k="name" v="Reading Street"/>
  </way>
  <way id="12295358" version="2" timestamp="2010-07-08T17:47:47Z" uid="74617" user="JohnSmith" changeset="5167338">
    <nd ref="59641049"/>
    <nd ref="111439549"/>
    <nd ref="111439567"/>
    <nd ref="111439587"/>
    <nd ref="111439603"/>
    <nd ref="111439621"/>
    <nd ref="111439668"/>
    <nd ref="111439640"/>
    <tag k="highway" v="residential"/>
    <tag k="maxspeed" v="50"/>
    <tag k="maxspeed:source" v="default residential speed limit in Australia"/>
    <tag k="name" v="Hedges Avenue"/>
  </way>
  <way id="12295361" version="2" timestamp="2010-07-08T17:47:17Z" uid="74617" user="JohnSmith" changeset="5167338">
    <nd ref="111439668"/>
    <nd ref="111439698"/>
    <tag k="highway" v="residential"/>
    <tag k="maxspeed" v="50"/>
    <tag k="maxspeed:source" v="default residential speed limit in Australia"/>
    <tag k="name" v="Windsor Court"/>
  </way>
</osm>
