<?xml version='1.0' encoding='UTF-8'?>
<osm version="0.6" generator="libosmium/2.20.0">
  <way id="12306018" version="3" timestamp="2009-12-24T02:34:30Z" uid="6975" user="ulfl" changeset="3439617">
    <nd ref="111532136"/>
    <nd ref="111532146"/>
    <nd ref="111532151"/>
    <nd ref="111532157"/>
    <nd ref="111532164"/>
    <nd ref="111532174"/>
    <nd ref="111532184"/>
    <nd ref="111532195"/>
    <nd ref="111532204"/>
    <nd ref="111532211"/>
    <nd ref="111532218"/>
    <nd ref="111446941"/>
    <nd ref="111532229"/>
    <nd ref="111532241"/>
    <nd ref="111532251"/>
    <nd ref="111532257"/>
    <nd ref="111532258"/>
    <nd ref="111532267"/>
    <nd ref="111532275"/>
    <nd ref="111532280"/>
    <nd ref="111532289"/>
    <nd ref="111532299"/>
    <nd ref="111532308"/>
    <nd ref="111532315"/>
    <nd ref="111532322"/>
    <nd ref="111532327"/>
    <nd ref="111532335"/>
    <nd ref="111532345"/>
    <nd ref="111532349"/>
    <nd ref="111532356"/>
    <nd ref="111532363"/>
    <tag k="highway" v="residential"/>
    <tag k="layer" v="1"/>
    <tag k="name" v="Fallsington Ave"/>
    <tag k="tiger:cfcc" v="A41"/>
    <tag k="tiger:name_base" v="Fallsington"/>
    <tag k="tiger:name_type" v="Ave"/>
    <tag k="tiger:reviewed" v="no"/>
    <tag k="tiger:separated" v="no"/>
    <tag k="tiger:source" v="tiger_import_dch_v0.7_20071112"/>
    <tag k="tiger:tlid" v="134776631:134776632:134787155:134805493"/>
  </way>
  <way id="12306188" version="2" timestamp="2009-11-16T12:39:53Z" uid="99207" user="Lar Kiesel" changeset="3131488">
    <nd ref="111506988"/>
    <nd ref="111506938"/>
    <nd ref="111533907"/>
    <nd ref="111533910"/>
    <tag k="highway" v="secondary"/>
    <tag k="name" v="State Highway 903"/>
    <tag k="ref" v="SC903"/>
    <tag k="tiger:cfcc" v="A31"/>
    <tag k="tiger:county" v="Chesterfield, SC"/>
    <tag k="tiger:name_base" v="State Highway 903"/>
    <tag k="tiger:reviewed" v="no"/>
    <tag k="tiger:separated" v="no"/>
    <tag k="tiger:source" v="tiger_import_dch_v0.6_20070829"/>
    <tag k="tiger:tlid" v="14328739:14328231"/>
    <tag k="tiger:upload_uuid" v="bulk_upload.pl-da5ccdbb-7feb-40c3-bada-006077d95ffb"/>
  </way>
  <way id="12306322" version="2" timestamp="2008-02-18T20:38:27Z" uid="20587" user="balrog-kun" changeset="151535">
    <nd ref="111534729"/>
    <nd ref="248204263"/>
    <nd ref="248204290"/>
    <nd ref="111534740"/>
    <nd ref="111534755"/>
    <tag k="created_by" v="JOSM"/>
    <tag k="highway" v="tertiary"/>
  </way>
  <way id="12306322" version="3" timestamp="2008-02-18T21:17:57Z" uid="20587" user="balrog-kun" changeset="151535">
    <nd ref="248207217"/>
    <nd ref="248207216"/>
    <nd ref="111534729"/>
    <nd ref="248204263"/>
    <nd ref="248204290"/>
    <nd ref="248207168"/>
    <nd ref="111534740"/>
    <nd ref="111534755"/>
    <tag k="created_by" v="JOSM"/>
    <tag k="highway" v="tertiary"/>
    <tag k="name" v="Międzynarodowa"/>
  </way>
  <way id="12306322" version="4" timestamp="2008-02-20T20:27:27Z" uid="20587" user="balrog-kun" changeset="164283">
    <nd ref="248207217"/>
    <nd ref="248566254"/>
    <nd ref="248207216"/>
    <nd ref="111534729"/>
    <nd ref="248204263"/>
    <nd ref="248204290"/>
    <nd ref="248207168"/>
    <nd ref="111534740"/>
    <nd ref="111534755"/>
    <tag k="created_by" v="JOSM"/>
    <tag k="highway" v="tertiary"/>
    <tag k="name" v="Międzynarodowa"/>
  </way>
  <way id="12306322" version="6" timestamp="2008-03-29T00:08:38Z" uid="20587" user="balrog-kun" changeset="415330">
    <nd ref="248207217"/>
    <nd ref="248566254"/>
    <nd ref="248207216"/>
    <nd ref="254518006"/>
    <nd ref="111534729"/>
    <nd ref="254518005"/>
    <nd ref="248204263"/>
    <nd ref="248204290"/>
    <nd ref="248207168"/>
    <nd ref="111534740"/>
    <nd ref="251880625"/>
    <nd ref="251880626"/>
    <nd ref="251880627"/>
    <nd ref="251880628"/>
    <nd ref="111534755"/>
    <tag k="created_by" v="Potlatch 0.7b"/>
    <tag k="highway" v="tertiary"/>
    <tag k="name" v="Międzynarodowa"/>
  </way>
  <way id="12306322" version="7" timestamp="2008-03-31T10:18:27Z" uid="20587" user="balrog-kun" changeset="434162">
    <nd ref="255063615"/>
    <nd ref="35970125"/>
    <nd ref="255063674"/>
    <nd ref="35970124"/>
    <nd ref="255063636"/>
    <tag k="created_by" v="JOSM"/>
    <tag k="highway" v="tertiary"/>
    <tag k="name" v="Międzynarodowa"/>
  </way>
  <way id="12306322" version="9" timestamp="2009-01-07T14:24:27Z" uid="20587" user="balrog-kun" changeset="752764">
    <nd ref="255063615"/>
    <nd ref="35970125"/>
    <nd ref="255063674"/>
    <nd ref="35970124"/>
    <nd ref="255063636"/>
    <tag k="created_by" v="Potlatch 0.10c"/>
    <tag k="highway" v="tertiary"/>
    <tag k="name" v="Międzynarodowa"/>
    <tag k="wikipedia" v="pl:Ulica Międzynarodowa w Warszawie"/>
  </way>
  <way id="12306322" version="10" timestamp="2010-04-26T01:01:47Z" uid="20587" user="balrog-kun" changeset="4527875">
    <nd ref="255063615"/>
    <nd ref="35970125"/>
    <nd ref="255063674"/>
    <nd ref="35970124"/>
    <nd ref="255063636"/>
    <tag k="highway" v="tertiary"/>
    <tag k="maxweight" v="2.5"/>
    <tag k="name" v="Międzynarodowa"/>
    <tag k="wikipedia" v="pl:Ulica Międzynarodowa w Warszawie"/>
  </way>
  <way id="12306322" version="11" timestamp="2010-12-21T18:05:08Z" uid="20587" user="balrog-kun" changeset="6727707">
    <nd ref="255063615"/>
    <nd ref="1055028969"/>
    <nd ref="1055028899"/>
    <nd ref="35970125"/>
    <nd ref="255063674"/>
    <nd ref="35970124"/>
    <nd ref="255063636"/>
    <tag k="highway" v="tertiary"/>
    <tag k="maxweight" v="2.5"/>
    <tag k="name" v="Międzynarodowa"/>
    <tag k="wikipedia" v="pl:Ulica Międzynarodowa w Warszawie"/>
  </way>
  <way id="12306324" version="3" timestamp="2008-02-09T15:06:45Z" uid="20587" user="balrog-kun" changeset="86105">
    <nd ref="111534769"/>
    <nd ref="246804732"/>
    <nd ref="111534780"/>
    <nd ref="111534787"/>
    <tag k="created_by" v="JOSM"/>
    <tag k="highway" v="tertiary"/>
    <tag k="name" v="Grenadierów"/>
  </way>
  <way id="12306324" version="4" timestamp="2008-02-18T21:17:56Z" uid="20587" user="balrog-kun" changeset="151535">
    <nd ref="248207225"/>
    <nd ref="34465673"/>
    <nd ref="34465676"/>
    <nd ref="248207223"/>
    <nd ref="248207224"/>
    <nd ref="111534769"/>
    <nd ref="246804732"/>
    <nd ref="111534780"/>
    <nd ref="111534787"/>
    <tag k="created_by" v="JOSM"/>
    <tag k="highway" v="tertiary"/>
    <tag k="name" v="Grenadierów"/>
  </way>
  <way id="12306324" version="5" timestamp="2008-02-19T19:10:10Z" uid="20587" user="balrog-kun" changeset="160261">
    <nd ref="248207225"/>
    <nd ref="34465673"/>
    <nd ref="34465676"/>
    <nd ref="248463179"/>
    <nd ref="248207223"/>
    <nd ref="248207224"/>
    <nd ref="111534769"/>
    <nd ref="246804732"/>
    <nd ref="111534780"/>
    <nd ref="111534787"/>
    <tag k="created_by" v="JOSM"/>
    <tag k="highway" v="tertiary"/>
    <tag k="name" v="Grenadierów"/>
  </way>
  <way id="12306324" version="6" timestamp="2008-02-20T20:27:26Z" uid="20587" user="balrog-kun" changeset="164283">
    <nd ref="248207225"/>
    <nd ref="34465673"/>
    <nd ref="34465676"/>
    <nd ref="248463179"/>
    <nd ref="248207223"/>
    <nd ref="248207224"/>
    <nd ref="111534769"/>
    <nd ref="248566267"/>
    <nd ref="246804732"/>
    <nd ref="111534780"/>
    <nd ref="111534787"/>
    <tag k="created_by" v="JOSM"/>
    <tag k="highway" v="tertiary"/>
    <tag k="name" v="Grenadierów"/>
  </way>
  <way id="12306324" version="7" timestamp="2008-02-21T16:50:14Z" uid="20587" user="balrog-kun" changeset="174814">
    <nd ref="248207225"/>
    <nd ref="248675364"/>
    <nd ref="34465673"/>
    <nd ref="34465676"/>
    <nd ref="248463179"/>
    <nd ref="248207223"/>
    <nd ref="248207224"/>
    <nd ref="111534769"/>
    <nd ref="248566267"/>
    <nd ref="246804732"/>
    <nd ref="111534780"/>
    <nd ref="111534787"/>
    <tag k="created_by" v="JOSM"/>
    <tag k="highway" v="tertiary"/>
    <tag k="name" v="Grenadierów"/>
  </way>
  <way id="12306324" version="8" timestamp="2008-03-31T21:47:57Z" uid="20587" user="balrog-kun" changeset="437119">
    <nd ref="248207225"/>
    <nd ref="248675364"/>
    <nd ref="34465673"/>
    <nd ref="34465676"/>
    <nd ref="248463179"/>
    <nd ref="248207223"/>
    <nd ref="248207224"/>
    <nd ref="255161027"/>
    <nd ref="111534769"/>
    <nd ref="255161029"/>
    <nd ref="248566267"/>
    <nd ref="246804732"/>
    <nd ref="111534780"/>
    <nd ref="111534787"/>
    <tag k="created_by" v="JOSM"/>
    <tag k="highway" v="tertiary"/>
    <tag k="name" v="Grenadierów"/>
  </way>
  <way id="12306324" version="9" timestamp="2008-04-01T20:21:13Z" uid="20587" user="balrog-kun" changeset="8794">
    <nd ref="248207225"/>
    <nd ref="248675364"/>
    <nd ref="34465673"/>
    <nd ref="34465676"/>
    <nd ref="248463179"/>
    <nd ref="248207223"/>
    <tag k="created_by" v="JOSM"/>
    <tag k="highway" v="tertiary"/>
    <tag k="name" v="Grenadierów"/>
  </way>
  <way id="12306324" version="10" timestamp="2008-04-24T16:46:43Z" uid="20587" user="balrog-kun" changeset="247359"/>
  <way id="12306326" version="5" timestamp="2008-08-10T11:43:40Z" uid="20587" user="balrog-kun" changeset="165773">
    <nd ref="111534815"/>
    <nd ref="211203657"/>
    <nd ref="207561663"/>
    <nd ref="286685463"/>
    <nd ref="286685497"/>
    <nd ref="286685473"/>
    <nd ref="111534840"/>
    <nd ref="209094149"/>
    <tag k="created_by" v="JOSM"/>
    <tag k="highway" v="tertiary"/>
    <tag k="name" v="Dwernickiego Józefa"/>
  </way>
  <way id="12306326" version="6" timestamp="2008-09-27T19:39:33Z" uid="20587" user="balrog-kun" changeset="706490">
    <nd ref="111534815"/>
    <nd ref="300417575"/>
    <nd ref="300417576"/>
    <nd ref="211203657"/>
    <nd ref="207561663"/>
    <nd ref="286685463"/>
    <nd ref="286685497"/>
    <nd ref="286685473"/>
    <nd ref="111534840"/>
    <nd ref="209094149"/>
    <tag k="created_by" v="JOSM"/>
    <tag k="highway" v="tertiary"/>
    <tag k="name" v="Dwernickiego Józefa"/>
  </way>
  <way id="12306326" version="7" timestamp="2009-05-25T20:48:39Z" uid="20587" user="balrog-kun" changeset="1321047">
    <nd ref="111534815"/>
    <nd ref="300417575"/>
    <nd ref="300417576"/>
    <nd ref="211203657"/>
    <nd ref="207561663"/>
    <nd ref="286685463"/>
    <nd ref="286685497"/>
    <nd ref="286685473"/>
    <nd ref="111534840"/>
    <nd ref="209094149"/>
    <tag k="created_by" v="JOSM"/>
    <tag k="highway" v="tertiary"/>
    <tag k="name" v="Józefa Dwernickiego"/>
  </way>
  <way id="12306326" version="8" timestamp="2010-06-19T03:55:42Z" uid="20587" user="balrog-kun" changeset="5020735">
    <nd ref="111534815"/>
    <nd ref="300417575"/>
    <nd ref="300417576"/>
    <nd ref="775917215"/>
    <nd ref="775917594"/>
    <nd ref="211203657"/>
    <nd ref="207561663"/>
    <nd ref="286685463"/>
    <nd ref="286685497"/>
    <nd ref="286685473"/>
    <nd ref="111534840"/>
    <nd ref="209094149"/>
    <tag k="highway" v="tertiary"/>
    <tag k="name" v="Józefa Dwernickiego"/>
  </way>
  <way id="12306326" version="9" timestamp="2010-06-19T14:03:19Z" uid="20587" user="balrog-kun" changeset="5024239">
    <nd ref="111534815"/>
    <nd ref="300417575"/>
    <nd ref="300417576"/>
    <nd ref="775917215"/>
    <nd ref="775917594"/>
    <nd ref="211203657"/>
    <nd ref="207561663"/>
    <nd ref="286685463"/>
    <nd ref="286685497"/>
    <nd ref="286685473"/>
    <nd ref="776329264"/>
    <nd ref="111534840"/>
    <nd ref="776328889"/>
    <nd ref="209094149"/>
    <tag k="highway" v="tertiary"/>
    <tag k="name" v="Józefa Dwernickiego"/>
  </way>
  <way id="12306326" version="10" timestamp="2011-06-19T13:07:30Z" uid="20587" user="balrog-kun" changeset="8483804">
    <nd ref="111534815"/>
    <nd ref="300417575"/>
    <nd ref="300417576"/>
    <nd ref="775917215"/>
    <nd ref="775917594"/>
    <nd ref="211203657"/>
    <nd ref="1330790097"/>
    <nd ref="1330790130"/>
    <nd ref="207561663"/>
    <nd ref="286685463"/>
    <nd ref="1330790052"/>
    <nd ref="286685497"/>
    <nd ref="286685473"/>
    <nd ref="776329264"/>
    <nd ref="111534840"/>
    <nd ref="1330790158"/>
    <nd ref="776328889"/>
    <nd ref="209094149"/>
    <tag k="highway" v="tertiary"/>
    <tag k="name" v="Józefa Dwernickiego"/>
  </way>
  <way id="12306326" version="11" timestamp="2011-06-19T14:06:55Z" uid="20587" user="balrog-kun" changeset="8484359">
    <nd ref="111534815"/>
    <nd ref="300417575"/>
    <nd ref="300417576"/>
    <nd ref="775917215"/>
    <nd ref="775917594"/>
    <nd ref="211203657"/>
    <nd ref="1330790097"/>
    <nd ref="1330790130"/>
    <nd ref="207561663"/>
    <nd ref="286685463"/>
    <nd ref="1330790052"/>
    <nd ref="286685497"/>
    <nd ref="1330865045"/>
    <nd ref="286685473"/>
    <nd ref="111534840"/>
    <nd ref="1330790158"/>
    <nd ref="776328889"/>
    <nd ref="209094149"/>
    <tag k="highway" v="tertiary"/>
    <tag k="name" v="Józefa Dwernickiego"/>
  </way>
  <way id="12306330" version="6" timestamp="2008-03-29T04:21:42Z" uid="20587" user="balrog-kun" changeset="416235">
    <nd ref="36174742"/>
    <nd ref="131642290"/>
    <nd ref="131642292"/>
    <nd ref="131642293"/>
    <nd ref="131642295"/>
    <nd ref="131642297"/>
    <nd ref="111534860"/>
    <tag k="created_by" v="Potlatch 0.7b"/>
    <tag k="highway" v="secondary"/>
    <tag k="name" v="Marsa"/>
    <tag k="ref" v="637"/>
  </way>
  <way id="12306330" version="7" timestamp="2008-06-27T01:42:24Z" uid="20587" user="balrog-kun" changeset="307391">
    <nd ref="36174742"/>
    <nd ref="273566632"/>
    <nd ref="273566636"/>
    <nd ref="273566634"/>
    <nd ref="131642290"/>
    <nd ref="131642292"/>
    <nd ref="131642293"/>
    <nd ref="131642295"/>
    <nd ref="131642297"/>
    <nd ref="111534860"/>
    <tag k="created_by" v="Potlatch 0.7b"/>
    <tag k="highway" v="secondary"/>
    <tag k="name" v="Marsa"/>
    <tag k="ref" v="637"/>
  </way>
  <way id="12306330" version="11" timestamp="2009-01-03T13:15:37Z" uid="20587" user="balrog-kun" changeset="723275">
    <nd ref="281084304"/>
    <nd ref="295584210"/>
    <nd ref="273566632"/>
    <nd ref="273566636"/>
    <nd ref="273566634"/>
    <tag k="highway" v="tertiary"/>
    <tag k="ref" v="637"/>
  </way>
  <way id="12306330" version="13" timestamp="2009-11-01T11:49:48Z" uid="20587" user="balrog-kun" changeset="3005429">
    <nd ref="281084304"/>
    <nd ref="295584210"/>
    <nd ref="273566632"/>
    <nd ref="273566636"/>
    <nd ref="273566634"/>
    <nd ref="325093860"/>
    <tag k="highway" v="secondary"/>
    <tag k="ref" v="637"/>
  </way>
  <way id="12306333" version="2" timestamp="2009-01-04T17:11:35Z" uid="20587" user="balrog-kun" changeset="731324">
    <nd ref="111534981"/>
    <nd ref="111535040"/>
    <nd ref="325870663"/>
    <nd ref="111535054"/>
    <tag k="created_by" v="JOSM"/>
    <tag k="highway" v="residential"/>
  </way>
  <way id="12306333" version="3" timestamp="2009-02-22T03:29:35Z" uid="20587" user="balrog-kun" changeset="604961">
    <nd ref="111534981"/>
    <nd ref="111535040"/>
    <nd ref="325870663"/>
    <nd ref="111535054"/>
    <tag k="created_by" v="JOSM"/>
    <tag k="highway" v="residential"/>
    <tag k="name" v="Szafarzy"/>
  </way>
  <way id="12306732" version="2" timestamp="2009-10-02T17:54:51Z" uid="99207" user="Lar Kiesel" changeset="2715653">
    <nd ref="111539140"/>
    <nd ref="111539142"/>
    <nd ref="111539146"/>
    <nd ref="111532666"/>
    <nd ref="111539152"/>
    <nd ref="111539156"/>
    <tag k="highway" v="primary"/>
    <tag k="name" v="N 7th St"/>
    <tag k="name_1" v="United States Highway 1"/>
    <tag k="ref" v="US 1"/>
    <tag k="tiger:cfcc" v="A21"/>
    <tag k="tiger:county" v="Chesterfield, SC"/>
    <tag k="tiger:name_base" v="7th"/>
    <tag k="tiger:name_base_1" v="United States Highway 1"/>
    <tag k="tiger:name_direction_prefix" v="N"/>
    <tag k="tiger:name_type" v="St"/>
    <tag k="tiger:reviewed" v="no"/>
    <tag k="tiger:separated" v="no"/>
    <tag k="tiger:source" v="tiger_import_dch_v0.6_20070829"/>
    <tag k="tiger:tlid" v="14318903:14318904:14318905:14318906:14318907"/>
    <tag k="tiger:upload_uuid" v="bulk_upload.pl-da5ccdbb-7feb-40c3-bada-006077d95ffb"/>
  </way>
</osm>
