<?xml version='1.0' encoding='UTF-8'?>
<osm version="0.6" generator="libosmium/2.20.0">
  <way id="12579515" version="2" timestamp="2008-07-06T01:00:09Z" uid="6975" user="ulfl" changeset="404092">
    <nd ref="114755409"/>
    <nd ref="61673251"/>
    <tag k="highway" v="residential"/>
    <tag k="maxspeed" v="50"/>
    <tag k="name" v="Rörtegsgatan"/>
  </way>
  <way id="12579517" version="3" timestamp="2008-07-06T01:00:15Z" uid="6975" user="ulfl" changeset="404092">
    <nd ref="61673251"/>
    <nd ref="61673249"/>
    <nd ref="61673245"/>
    <tag k="highway" v="residential"/>
    <tag k="lcn_ref" v="Green"/>
    <tag k="maxspeed" v="50"/>
    <tag k="name" v="Rösegatan"/>
  </way>
  <way id="12579519" version="2" timestamp="2008-07-06T01:00:14Z" uid="6975" user="ulfl" changeset="404092">
    <nd ref="61673255"/>
    <nd ref="114755414"/>
    <nd ref="114755419"/>
    <nd ref="114755422"/>
    <nd ref="114755426"/>
    <nd ref="114755430"/>
    <nd ref="114755433"/>
    <nd ref="114755440"/>
    <nd ref="114755446"/>
    <nd ref="61673252"/>
    <tag k="highway" v="residential"/>
    <tag k="maxspeed" v="50"/>
    <tag k="name" v="Spanngatan"/>
  </way>
  <way id="12579520" version="2" timestamp="2008-07-06T01:00:46Z" uid="6975" user="ulfl" changeset="404092">
    <nd ref="18126185"/>
    <nd ref="114755457"/>
    <nd ref="114755463"/>
    <nd ref="64559600"/>
    <tag k="highway" v="residential"/>
    <tag k="maxspeed" v="50"/>
    <tag k="name" v="Skillinggatan"/>
  </way>
  <way id="12579521" version="2" timestamp="2008-07-06T01:00:44Z" uid="6975" user="ulfl" changeset="404092">
    <nd ref="64559600"/>
    <nd ref="114755467"/>
    <nd ref="114755472"/>
    <nd ref="114755476"/>
    <nd ref="114755483"/>
    <nd ref="114755484"/>
    <nd ref="114755489"/>
    <nd ref="64559547"/>
    <tag k="highway" v="residential"/>
    <tag k="maxspeed" v="50"/>
    <tag k="name" v="Rörtegsgatan"/>
  </way>
  <way id="12579524" version="3" timestamp="2008-07-06T01:00:42Z" uid="6975" user="ulfl" changeset="404092">
    <nd ref="114755457"/>
    <nd ref="61673242"/>
    <nd ref="61673241"/>
    <nd ref="64559547"/>
    <tag k="highway" v="residential"/>
    <tag k="lcn_ref" v="Green"/>
    <tag k="maxspeed" v="50"/>
    <tag k="name" v="Rörtegsgatan"/>
  </way>
  <way id="12579526" version="3" timestamp="2008-07-06T01:00:43Z" uid="6975" user="ulfl" changeset="404092">
    <nd ref="61673239"/>
    <nd ref="61673238"/>
    <nd ref="61673236"/>
    <nd ref="61673235"/>
    <nd ref="61673234"/>
    <nd ref="63286306"/>
    <nd ref="61673232"/>
    <nd ref="61673231"/>
    <nd ref="61673229"/>
    <nd ref="61673228"/>
    <nd ref="61673224"/>
    <tag k="highway" v="residential"/>
    <tag k="lcn_ref" v="Green"/>
    <tag k="maxspeed" v="50"/>
    <tag k="name" v="Myntgatan"/>
  </way>
  <way id="12579528" version="2" timestamp="2008-07-06T01:00:52Z" uid="6975" user="ulfl" changeset="404092">
    <nd ref="114755492"/>
    <nd ref="61673238"/>
    <tag k="highway" v="residential"/>
    <tag k="maxspeed" v="50"/>
    <tag k="name" v="Myntgatan"/>
  </way>
</osm>
