<?xml version='1.0' encoding='UTF-8'?>
<osm version="0.6" generator="libosmium/2.20.0">
  <way id="12801700" version="1" timestamp="2007-11-16T11:30:21Z" uid="18775" user="drlizau" changeset="531609">
    <nd ref="117097949"/>
    <nd ref="117097969"/>
    <nd ref="117098021"/>
    <nd ref="117098041"/>
    <nd ref="117098053"/>
    <nd ref="117098075"/>
    <nd ref="117003483"/>
    <tag k="created_by" v="JOSM"/>
    <tag k="highway" v="residential"/>
    <tag k="name" v="Richards Street"/>
  </way>
  <way id="12801700" version="2" timestamp="2008-04-25T09:42:17Z" uid="19626" user="Swamp" changeset="249913">
    <nd ref="117097949"/>
    <nd ref="117097969"/>
    <nd ref="117098021"/>
    <nd ref="117098041"/>
    <nd ref="117098053"/>
    <nd ref="117098075"/>
    <nd ref="117003483"/>
    <tag k="created_by" v="JOSM"/>
    <tag k="highway" v="residential"/>
    <tag k="maxspeed" v="50"/>
    <tag k="name" v="Richards Street"/>
  </way>
  <way id="12801700" version="3" timestamp="2008-04-27T09:58:33Z" uid="19626" user="Swamp" changeset="270222">
    <nd ref="117097949"/>
    <nd ref="117097969"/>
    <nd ref="117098021"/>
    <nd ref="117098041"/>
    <nd ref="260127361"/>
    <nd ref="117098053"/>
    <nd ref="117098075"/>
    <nd ref="117003483"/>
    <tag k="created_by" v="JOSM"/>
    <tag k="highway" v="residential"/>
    <tag k="maxspeed" v="50"/>
    <tag k="name" v="Richards Street"/>
  </way>
  <way id="12801700" version="4" timestamp="2008-11-16T11:04:53Z" uid="18775" user="drlizau" changeset="756879">
    <nd ref="117097949"/>
    <nd ref="117097969"/>
    <nd ref="117098021"/>
    <nd ref="117098041"/>
    <nd ref="260127361"/>
    <nd ref="117098053"/>
    <nd ref="117098075"/>
    <nd ref="117003483"/>
    <tag k="created_by" v="JOSM"/>
    <tag k="highway" v="residential"/>
    <tag k="maxspeed" v="50"/>
    <tag k="name" v="Richards Street"/>
  </way>
  <way id="12801700" version="5" timestamp="2008-11-16T11:33:13Z" uid="18775" user="drlizau" changeset="756879">
    <nd ref="117097949"/>
    <nd ref="117097969"/>
    <nd ref="117098021"/>
    <nd ref="117098041"/>
    <nd ref="260127361"/>
    <nd ref="117098053"/>
    <nd ref="117098075"/>
    <nd ref="117003483"/>
    <tag k="created_by" v="JOSM"/>
    <tag k="highway" v="residential"/>
    <tag k="maxspeed" v="50"/>
    <tag k="name" v="Richards Street"/>
    <tag k="source" v="survey"/>
  </way>
</osm>
