<?xml version='1.0' encoding='UTF-8'?>
<osm version="0.6" generator="libosmium/2.20.0">
  <way id="12954200" version="4" timestamp="2010-07-06T10:11:55Z" uid="74617" user="JohnSmith" changeset="5147679">
    <nd ref="119094251"/>
    <nd ref="119094253"/>
    <nd ref="119094254"/>
    <tag k="highway" v="residential"/>
    <tag k="maxspeed" v="50"/>
    <tag k="maxspeed:source" v="default residential speed limit in Australia"/>
    <tag k="name" v="Amelia Street"/>
  </way>
  <way id="12954200" version="5" timestamp="2010-08-16T01:55:14Z" uid="4467" user="Rosscoe" changeset="5505701">
    <nd ref="119094251"/>
    <nd ref="119094253"/>
    <nd ref="119094254"/>
    <tag k="highway" v="residential"/>
    <tag k="maxspeed" v="50"/>
    <tag k="name" v="Amelia Street"/>
    <tag k="source:maxspeed" v="default residential speed limit in Australia"/>
  </way>
  <way id="12954251" version="4" timestamp="2010-07-06T10:12:47Z" uid="74617" user="JohnSmith" changeset="5147679">
    <nd ref="119094251"/>
    <nd ref="119094790"/>
    <nd ref="119083456"/>
    <tag k="highway" v="residential"/>
    <tag k="maxspeed" v="50"/>
    <tag k="maxspeed:source" v="default residential speed limit in Australia"/>
    <tag k="name" v="Amelia Street"/>
    <tag k="oneway" v="yes"/>
  </way>
  <way id="12954251" version="5" timestamp="2010-08-16T01:57:36Z" uid="4467" user="Rosscoe" changeset="5505701">
    <nd ref="119094251"/>
    <nd ref="119083456"/>
    <tag k="highway" v="residential"/>
    <tag k="maxspeed" v="50"/>
    <tag k="name" v="Amelia Street"/>
    <tag k="oneway" v="yes"/>
    <tag k="source:maxspeed" v="default residential speed limit in Australia"/>
  </way>
  <way id="12954260" version="4" timestamp="2010-07-06T10:11:02Z" uid="74617" user="JohnSmith" changeset="5147679">
    <nd ref="119083455"/>
    <nd ref="119094846"/>
    <nd ref="119094251"/>
    <tag k="highway" v="residential"/>
    <tag k="maxspeed" v="50"/>
    <tag k="maxspeed:source" v="default residential speed limit in Australia"/>
    <tag k="name" v="Amelia Street"/>
    <tag k="oneway" v="yes"/>
  </way>
  <way id="12954260" version="5" timestamp="2010-08-16T01:57:07Z" uid="4467" user="Rosscoe" changeset="5505701">
    <nd ref="119083455"/>
    <nd ref="119094251"/>
    <tag k="highway" v="residential"/>
    <tag k="maxspeed" v="50"/>
    <tag k="name" v="Amelia Street"/>
    <tag k="oneway" v="yes"/>
    <tag k="source:maxspeed" v="default residential speed limit in Australia"/>
  </way>
  <way id="12954397" version="5" timestamp="2010-07-06T10:11:00Z" uid="74617" user="JohnSmith" changeset="5147679">
    <nd ref="119091704"/>
    <nd ref="119095920"/>
    <nd ref="119095924"/>
    <tag k="highway" v="residential"/>
    <tag k="maxspeed" v="50"/>
    <tag k="maxspeed:source" v="default residential speed limit in Australia"/>
    <tag k="name" v="Macaulay Street"/>
  </way>
  <way id="12954397" version="6" timestamp="2010-08-16T01:56:58Z" uid="4467" user="Rosscoe" changeset="5505701">
    <nd ref="119091704"/>
    <nd ref="862413173"/>
    <tag k="highway" v="residential"/>
    <tag k="maxspeed" v="50"/>
    <tag k="name" v="Macaulay Street"/>
    <tag k="source:maxspeed" v="default residential speed limit in Australia"/>
  </way>
  <way id="12954443" version="6" timestamp="2010-07-06T10:05:50Z" uid="74617" user="JohnSmith" changeset="5147679">
    <nd ref="119096478"/>
    <nd ref="119096280"/>
    <nd ref="119096284"/>
    <tag k="highway" v="residential"/>
    <tag k="maxspeed" v="50"/>
    <tag k="maxspeed:source" v="default residential speed limit in Australia"/>
    <tag k="name" v="Wellington Street"/>
  </way>
  <way id="12954443" version="7" timestamp="2010-08-16T01:57:44Z" uid="4467" user="Rosscoe" changeset="5505701">
    <nd ref="119096478"/>
    <nd ref="862413011"/>
    <nd ref="119096280"/>
    <nd ref="119096284"/>
    <tag k="highway" v="residential"/>
    <tag k="maxspeed" v="50"/>
    <tag k="name" v="Wellington Street"/>
    <tag k="source:maxspeed" v="default residential speed limit in Australia"/>
  </way>
  <way id="12954538" version="5" timestamp="2010-07-06T10:01:26Z" uid="74617" user="JohnSmith" changeset="5147679">
    <nd ref="81952721"/>
    <nd ref="119094253"/>
    <nd ref="119089346"/>
    <nd ref="119095920"/>
    <nd ref="119096280"/>
    <tag k="highway" v="residential"/>
    <tag k="maxspeed" v="50"/>
    <tag k="maxspeed:source" v="default residential speed limit in Australia"/>
    <tag k="name" v="Noela Street"/>
  </way>
  <way id="12954538" version="6" timestamp="2010-08-16T01:56:48Z" uid="4467" user="Rosscoe" changeset="5505701">
    <nd ref="81952721"/>
    <nd ref="119094253"/>
    <nd ref="119089346"/>
    <nd ref="119095920"/>
    <nd ref="119096280"/>
    <tag k="highway" v="residential"/>
    <tag k="maxspeed" v="50"/>
    <tag k="name" v="Noela Street"/>
    <tag k="source:maxspeed" v="default residential speed limit in Australia"/>
  </way>
  <way id="12954551" version="1" timestamp="2007-11-17T09:49:13Z" uid="18775" user="drlizau" changeset="543682">
    <nd ref="119097140"/>
    <nd ref="119097155"/>
    <nd ref="119097163"/>
    <tag k="created_by" v="JOSM"/>
    <tag k="highway" v="minor"/>
    <tag k="name" v="Macedone Road"/>
  </way>
  <way id="12954551" version="2" timestamp="2007-11-20T11:44:18Z" uid="19626" user="Swamp" changeset="576919">
    <nd ref="119097140"/>
    <nd ref="119097155"/>
    <nd ref="119097163"/>
    <tag k="created_by" v="JOSM"/>
    <tag k="highway" v="minor"/>
    <tag k="name" v="Macedone Road"/>
  </way>
  <way id="12954551" version="3" timestamp="2007-12-06T10:08:41Z" uid="19626" user="Swamp" changeset="134711">
    <nd ref="119097140"/>
    <nd ref="119097155"/>
    <nd ref="119097163"/>
    <tag k="created_by" v="JOSM"/>
    <tag k="highway" v="minor"/>
    <tag k="name" v="Macedone Road"/>
  </way>
  <way id="12954551" version="4" timestamp="2008-01-29T10:13:38Z" uid="18775" user="drlizau" changeset="708790">
    <nd ref="119097140"/>
    <nd ref="119097155"/>
    <nd ref="119097163"/>
    <tag k="created_by" v="JOSM"/>
    <tag k="highway" v="unclassified"/>
    <tag k="name" v="Macedone Road"/>
  </way>
  <way id="12954551" version="5" timestamp="2008-04-27T10:01:55Z" uid="19626" user="Swamp" changeset="270222">
    <nd ref="119097140"/>
    <nd ref="119097155"/>
    <nd ref="119097163"/>
    <tag k="created_by" v="JOSM"/>
    <tag k="highway" v="unclassified"/>
    <tag k="maxspeed" v="100"/>
    <tag k="name" v="Macedone Road"/>
  </way>
  <way id="12954551" version="6" timestamp="2008-11-16T11:08:28Z" uid="18775" user="drlizau" changeset="756879">
    <nd ref="119097140"/>
    <nd ref="119097155"/>
    <nd ref="119097163"/>
    <tag k="created_by" v="JOSM"/>
    <tag k="highway" v="unclassified"/>
    <tag k="maxspeed" v="100"/>
    <tag k="name" v="Macedone Road"/>
  </way>
  <way id="12954551" version="7" timestamp="2008-11-16T11:35:59Z" uid="18775" user="drlizau" changeset="756879">
    <nd ref="119097140"/>
    <nd ref="119097155"/>
    <nd ref="119097163"/>
    <tag k="created_by" v="JOSM"/>
    <tag k="highway" v="unclassified"/>
    <tag k="maxspeed" v="100"/>
    <tag k="name" v="Macedone Road"/>
    <tag k="source" v="survey"/>
  </way>
  <way id="12954551" version="8" timestamp="2010-01-09T09:43:21Z" uid="18775" user="drlizau" changeset="3576146">
    <nd ref="114972438"/>
    <nd ref="120545685"/>
    <nd ref="120545742"/>
    <nd ref="120545769"/>
    <nd ref="120545789"/>
    <nd ref="120545816"/>
    <nd ref="120545848"/>
    <nd ref="119097155"/>
    <tag k="highway" v="unclassified"/>
    <tag k="maxspeed" v="100"/>
    <tag k="name" v="Macedone Road"/>
    <tag k="source" v="survey"/>
    <tag k="surface" v="unpaved"/>
  </way>
  <way id="12954553" version="1" timestamp="2007-11-17T09:49:14Z" uid="18775" user="drlizau" changeset="543682">
    <nd ref="119097169"/>
    <nd ref="119097177"/>
    <nd ref="117027421"/>
    <nd ref="117027518"/>
    <nd ref="119097163"/>
    <tag k="created_by" v="JOSM"/>
    <tag k="highway" v="minor"/>
    <tag k="name" v="Bilbul Road"/>
  </way>
  <way id="12954553" version="2" timestamp="2007-11-18T20:17:24Z" uid="18775" user="drlizau" changeset="560242">
    <nd ref="119097169"/>
    <nd ref="119097177"/>
    <nd ref="117027421"/>
    <nd ref="117027518"/>
    <nd ref="119097163"/>
    <tag k="created_by" v="JOSM"/>
    <tag k="highway" v="unclassified"/>
    <tag k="name" v="Bilbul Road"/>
  </way>
  <way id="12954553" version="3" timestamp="2007-11-20T11:40:26Z" uid="19626" user="Swamp" changeset="576919">
    <nd ref="119097169"/>
    <nd ref="119097177"/>
    <nd ref="117027421"/>
    <nd ref="117027518"/>
    <nd ref="119097163"/>
    <tag k="created_by" v="JOSM"/>
    <tag k="highway" v="unclassified"/>
    <tag k="name" v="Bilbul Road"/>
  </way>
  <way id="12954553" version="4" timestamp="2007-11-20T11:41:31Z" uid="19626" user="Swamp" changeset="576919">
    <nd ref="119097169"/>
    <nd ref="117027883"/>
    <nd ref="119097177"/>
    <nd ref="117027421"/>
    <nd ref="117027518"/>
    <nd ref="119097163"/>
    <tag k="created_by" v="JOSM"/>
    <tag k="highway" v="unclassified"/>
    <tag k="name" v="Bilbul Road"/>
  </way>
  <way id="12954553" version="5" timestamp="2007-11-20T11:44:19Z" uid="19626" user="Swamp" changeset="576919">
    <nd ref="119097169"/>
    <nd ref="117027883"/>
    <nd ref="119097177"/>
    <nd ref="117027421"/>
    <nd ref="117027518"/>
    <nd ref="119097163"/>
    <tag k="created_by" v="JOSM"/>
    <tag k="highway" v="unclassified"/>
    <tag k="name" v="Bilbul Road"/>
  </way>
  <way id="12954553" version="6" timestamp="2007-12-25T04:39:15Z" uid="18775" user="drlizau" changeset="417294">
    <nd ref="113537220"/>
    <nd ref="117027883"/>
    <nd ref="119097177"/>
    <nd ref="117027421"/>
    <nd ref="117027518"/>
    <nd ref="119097163"/>
    <tag k="created_by" v="JOSM"/>
    <tag k="highway" v="unclassified"/>
    <tag k="name" v="Bilbul Road"/>
  </way>
  <way id="12954553" version="7" timestamp="2008-03-01T11:50:11Z" uid="18775" user="drlizau" changeset="240795">
    <nd ref="113537220"/>
    <nd ref="249791408"/>
    <nd ref="117027883"/>
    <nd ref="119097177"/>
    <nd ref="117027421"/>
    <nd ref="117027518"/>
    <nd ref="119097163"/>
    <tag k="created_by" v="JOSM"/>
    <tag k="highway" v="unclassified"/>
    <tag k="name" v="Bilbul Road"/>
  </way>
  <way id="12954553" version="8" timestamp="2008-03-03T22:16:42Z" uid="18775" user="drlizau" changeset="263253">
    <nd ref="113537220"/>
    <nd ref="249791408"/>
    <nd ref="117027883"/>
    <nd ref="119097177"/>
    <nd ref="117027421"/>
    <nd ref="117027518"/>
    <nd ref="250412769"/>
    <nd ref="119097163"/>
    <tag k="created_by" v="JOSM"/>
    <tag k="highway" v="unclassified"/>
    <tag k="name" v="Bilbul Road"/>
  </way>
  <way id="12954553" version="9" timestamp="2008-04-25T09:42:15Z" uid="19626" user="Swamp" changeset="249913">
    <nd ref="113537220"/>
    <nd ref="249791408"/>
    <nd ref="117027883"/>
    <nd ref="119097177"/>
    <nd ref="117027421"/>
    <nd ref="117027518"/>
    <nd ref="250412769"/>
    <nd ref="119097163"/>
    <tag k="created_by" v="JOSM"/>
    <tag k="highway" v="unclassified"/>
    <tag k="maxspeed" v="50"/>
    <tag k="name" v="Bilbul Road"/>
  </way>
  <way id="12954553" version="10" timestamp="2008-04-25T10:42:44Z" uid="19626" user="Swamp" changeset="254805">
    <nd ref="113537220"/>
    <nd ref="249791408"/>
    <nd ref="117027883"/>
    <nd ref="119097177"/>
    <nd ref="117027421"/>
    <nd ref="117027518"/>
    <nd ref="259775303"/>
    <tag k="created_by" v="JOSM"/>
    <tag k="highway" v="unclassified"/>
    <tag k="maxspeed" v="50"/>
    <tag k="name" v="Bilbul Road"/>
  </way>
  <way id="12954553" version="11" timestamp="2008-11-16T11:09:17Z" uid="18775" user="drlizau" changeset="756879">
    <nd ref="113537220"/>
    <nd ref="249791408"/>
    <nd ref="117027883"/>
    <nd ref="117027421"/>
    <nd ref="117027518"/>
    <nd ref="259775303"/>
    <tag k="created_by" v="JOSM"/>
    <tag k="highway" v="unclassified"/>
    <tag k="maxspeed" v="50"/>
    <tag k="name" v="Bilbul Road"/>
  </way>
  <way id="12954553" version="12" timestamp="2008-11-16T11:36:43Z" uid="18775" user="drlizau" changeset="756879">
    <nd ref="113537220"/>
    <nd ref="249791408"/>
    <nd ref="117027883"/>
    <nd ref="117027421"/>
    <nd ref="117027518"/>
    <nd ref="259775303"/>
    <tag k="created_by" v="JOSM"/>
    <tag k="highway" v="unclassified"/>
    <tag k="maxspeed" v="50"/>
    <tag k="name" v="Bilbul Road"/>
    <tag k="source" v="survey"/>
  </way>
  <way id="12954568" version="6" timestamp="2008-07-05T16:30:45Z" uid="6975" user="ulfl" changeset="398437">
    <nd ref="119097274"/>
    <nd ref="119097275"/>
    <nd ref="119097277"/>
    <nd ref="119097278"/>
    <nd ref="119097279"/>
    <nd ref="119097281"/>
    <nd ref="119097283"/>
    <nd ref="119097284"/>
    <nd ref="119097285"/>
    <nd ref="119097287"/>
    <nd ref="119097288"/>
    <nd ref="119097289"/>
    <nd ref="119097290"/>
    <nd ref="119097291"/>
    <nd ref="119097293"/>
    <nd ref="119097295"/>
    <nd ref="119097297"/>
    <nd ref="119097299"/>
    <nd ref="119097300"/>
    <nd ref="119097301"/>
    <nd ref="119097302"/>
    <nd ref="119097305"/>
    <nd ref="119097306"/>
    <tag k="boat" v="no"/>
    <tag k="waterway" v="drain"/>
  </way>
  <way id="12954670" version="1" timestamp="2007-11-17T09:51:51Z" uid="18775" user="drlizau" changeset="543682">
    <nd ref="119098077"/>
    <nd ref="117065367"/>
    <nd ref="117059056"/>
    <tag k="created_by" v="JOSM"/>
    <tag k="highway" v="minor"/>
    <tag k="name" v="Sanders Street"/>
  </way>
  <way id="12954670" version="2" timestamp="2007-11-17T10:01:02Z" uid="18775" user="drlizau" changeset="543682">
    <nd ref="119098077"/>
    <nd ref="117065367"/>
    <nd ref="119101877"/>
    <nd ref="119101836"/>
    <nd ref="117059056"/>
    <tag k="created_by" v="JOSM"/>
    <tag k="highway" v="minor"/>
    <tag k="name" v="Sanders Street"/>
  </way>
  <way id="12954670" version="3" timestamp="2007-11-21T06:05:32Z" uid="19626" user="Swamp" changeset="582687">
    <nd ref="119098077"/>
    <nd ref="117065367"/>
    <nd ref="119101877"/>
    <nd ref="119101836"/>
    <nd ref="127256317"/>
    <nd ref="117059056"/>
    <tag k="created_by" v="JOSM"/>
    <tag k="highway" v="minor"/>
    <tag k="name" v="Sanders Street"/>
  </way>
  <way id="12954670" version="4" timestamp="2008-01-29T10:26:46Z" uid="18775" user="drlizau" changeset="708790">
    <nd ref="119098077"/>
    <nd ref="117065367"/>
    <nd ref="119101877"/>
    <nd ref="119101836"/>
    <nd ref="127256317"/>
    <nd ref="117059056"/>
    <tag k="created_by" v="JOSM"/>
    <tag k="highway" v="tertiary"/>
    <tag k="name" v="Sanders Street"/>
  </way>
  <way id="12954670" version="5" timestamp="2008-02-12T10:31:33Z" uid="19626" user="Swamp" changeset="109378">
    <nd ref="119098077"/>
    <nd ref="247318452"/>
    <nd ref="117065367"/>
    <nd ref="119101877"/>
    <nd ref="119101836"/>
    <nd ref="127256317"/>
    <nd ref="117059056"/>
    <tag k="created_by" v="JOSM"/>
    <tag k="highway" v="tertiary"/>
    <tag k="name" v="Sanders Street"/>
  </way>
  <way id="12954670" version="6" timestamp="2008-03-03T23:28:25Z" uid="18775" user="drlizau" changeset="263253">
    <nd ref="119098077"/>
    <nd ref="247318452"/>
    <nd ref="117065367"/>
    <tag k="created_by" v="JOSM"/>
    <tag k="highway" v="residential"/>
    <tag k="name" v="Sanders Street"/>
  </way>
  <way id="12954670" version="7" timestamp="2008-04-25T11:21:34Z" uid="19626" user="Swamp" changeset="254805">
    <nd ref="119098077"/>
    <nd ref="247318452"/>
    <nd ref="117065367"/>
    <tag k="created_by" v="JOSM"/>
    <tag k="highway" v="residential"/>
    <tag k="maxspeed" v="50"/>
    <tag k="name" v="Sanders Street"/>
  </way>
  <way id="12954670" version="8" timestamp="2008-04-25T11:47:47Z" uid="19626" user="Swamp" changeset="254805">
    <nd ref="119098077"/>
    <nd ref="247318452"/>
    <nd ref="117065367"/>
    <tag k="created_by" v="JOSM"/>
    <tag k="highway" v="residential"/>
    <tag k="maxspeed" v="50"/>
    <tag k="name" v="Sanders Street"/>
  </way>
  <way id="12954670" version="9" timestamp="2008-11-16T11:02:19Z" uid="18775" user="drlizau" changeset="756879">
    <nd ref="119098077"/>
    <nd ref="247318452"/>
    <nd ref="117065367"/>
    <tag k="created_by" v="JOSM"/>
    <tag k="highway" v="residential"/>
    <tag k="maxspeed" v="50"/>
    <tag k="name" v="Sanders Street"/>
  </way>
  <way id="12954670" version="10" timestamp="2008-11-16T11:30:57Z" uid="18775" user="drlizau" changeset="756879">
    <nd ref="119098077"/>
    <nd ref="247318452"/>
    <nd ref="117065367"/>
    <tag k="created_by" v="JOSM"/>
    <tag k="highway" v="residential"/>
    <tag k="maxspeed" v="50"/>
    <tag k="name" v="Sanders Street"/>
    <tag k="source" v="survey"/>
  </way>
  <way id="12954814" version="1" timestamp="2007-11-17T09:54:46Z" uid="18775" user="drlizau" changeset="543682">
    <nd ref="119099105"/>
    <nd ref="119099108"/>
    <tag k="created_by" v="JOSM"/>
    <tag k="highway" v="minor"/>
    <tag k="name" v="Citrus Road"/>
  </way>
  <way id="12954814" version="2" timestamp="2007-11-21T06:02:43Z" uid="19626" user="Swamp" changeset="582687">
    <nd ref="119099105"/>
    <nd ref="119099108"/>
    <tag k="created_by" v="JOSM"/>
    <tag k="highway" v="minor"/>
    <tag k="name" v="Citrus Road"/>
  </way>
  <way id="12954814" version="3" timestamp="2007-11-21T06:05:31Z" uid="19626" user="Swamp" changeset="582687">
    <nd ref="119099105"/>
    <nd ref="127256299"/>
    <nd ref="117059056"/>
    <tag k="created_by" v="JOSM"/>
    <tag k="highway" v="minor"/>
    <tag k="name" v="Citrus Road"/>
  </way>
  <way id="12954814" version="4" timestamp="2007-12-26T02:25:00Z" uid="18775" user="drlizau" changeset="432981">
    <nd ref="189598841"/>
    <nd ref="189599783"/>
    <nd ref="189599767"/>
    <nd ref="189599752"/>
    <nd ref="189599731"/>
    <nd ref="189599719"/>
    <nd ref="189599699"/>
    <nd ref="189599681"/>
    <nd ref="189599666"/>
    <nd ref="189599649"/>
    <nd ref="119099105"/>
    <nd ref="127256299"/>
    <nd ref="117059056"/>
    <tag k="created_by" v="JOSM"/>
    <tag k="highway" v="minor"/>
    <tag k="name" v="Citrus Road"/>
  </way>
  <way id="12954814" version="5" timestamp="2008-01-29T10:26:47Z" uid="18775" user="drlizau" changeset="708790">
    <nd ref="189598841"/>
    <nd ref="189599783"/>
    <nd ref="189599767"/>
    <nd ref="189599752"/>
    <nd ref="189599731"/>
    <nd ref="189599719"/>
    <nd ref="189599699"/>
    <nd ref="189599681"/>
    <nd ref="189599666"/>
    <nd ref="189599649"/>
    <nd ref="119099105"/>
    <nd ref="127256299"/>
    <nd ref="117059056"/>
    <tag k="created_by" v="JOSM"/>
    <tag k="highway" v="tertiary"/>
    <tag k="name" v="Citrus Road"/>
  </way>
  <way id="12954814" version="6" timestamp="2008-03-29T08:27:37Z" uid="18775" user="drlizau" changeset="419028">
    <nd ref="189598841"/>
    <nd ref="189599783"/>
    <nd ref="189599767"/>
    <nd ref="189599752"/>
    <nd ref="189599731"/>
    <nd ref="189599719"/>
    <nd ref="189599699"/>
    <nd ref="189599681"/>
    <nd ref="189599666"/>
    <nd ref="189599649"/>
    <nd ref="119099105"/>
    <nd ref="127256299"/>
    <nd ref="117059056"/>
    <tag k="created_by" v="JOSM"/>
    <tag k="highway" v="residential"/>
    <tag k="name" v="Citrus Road"/>
  </way>
  <way id="12954814" version="7" timestamp="2008-11-16T11:06:26Z" uid="18775" user="drlizau" changeset="756879">
    <nd ref="189598841"/>
    <nd ref="189599783"/>
    <nd ref="189599767"/>
    <nd ref="189599752"/>
    <nd ref="189599731"/>
    <nd ref="189599719"/>
    <nd ref="189599699"/>
    <nd ref="189599681"/>
    <nd ref="189599666"/>
    <nd ref="189599649"/>
    <nd ref="119099105"/>
    <nd ref="127256299"/>
    <nd ref="117059056"/>
    <tag k="created_by" v="JOSM"/>
    <tag k="highway" v="residential"/>
    <tag k="name" v="Citrus Road"/>
  </way>
  <way id="12954814" version="8" timestamp="2008-11-16T11:34:38Z" uid="18775" user="drlizau" changeset="756879">
    <nd ref="189598841"/>
    <nd ref="189599783"/>
    <nd ref="189599767"/>
    <nd ref="189599752"/>
    <nd ref="189599731"/>
    <nd ref="189599719"/>
    <nd ref="189599699"/>
    <nd ref="189599681"/>
    <nd ref="189599666"/>
    <nd ref="189599649"/>
    <nd ref="119099105"/>
    <nd ref="127256299"/>
    <nd ref="117059056"/>
    <tag k="created_by" v="JOSM"/>
    <tag k="highway" v="residential"/>
    <tag k="name" v="Citrus Road"/>
    <tag k="source" v="survey"/>
  </way>
  <way id="12954814" version="9" timestamp="2008-12-21T10:14:31Z" uid="18775" user="drlizau" changeset="525678">
    <nd ref="189598841"/>
    <nd ref="189599783"/>
    <nd ref="189599767"/>
    <nd ref="189599752"/>
    <nd ref="189599731"/>
    <nd ref="189599719"/>
    <nd ref="189599699"/>
    <nd ref="189599681"/>
    <nd ref="189599666"/>
    <nd ref="189599649"/>
    <nd ref="320476738"/>
    <tag k="created_by" v="JOSM"/>
    <tag k="highway" v="residential"/>
    <tag k="name" v="Citrus Road"/>
    <tag k="source" v="survey"/>
  </way>
  <way id="12954814" version="10" timestamp="2010-07-07T08:11:41Z" uid="74617" user="JohnSmith" changeset="5156250">
    <nd ref="189598841"/>
    <nd ref="189599783"/>
    <nd ref="189599767"/>
    <nd ref="189599752"/>
    <nd ref="189599731"/>
    <nd ref="189599719"/>
    <nd ref="189599699"/>
    <nd ref="189599681"/>
    <nd ref="189599666"/>
    <nd ref="189599649"/>
    <nd ref="320476738"/>
    <tag k="highway" v="residential"/>
    <tag k="maxspeed" v="50"/>
    <tag k="maxspeed:source" v="default residential speed limit in Australia"/>
    <tag k="name" v="Citrus Road"/>
    <tag k="source" v="survey"/>
  </way>
  <way id="12954814" version="11" timestamp="2010-10-31T10:48:40Z" uid="19626" user="Swamp" changeset="6236944">
    <nd ref="189598841"/>
    <nd ref="189599783"/>
    <nd ref="189599767"/>
    <nd ref="189599752"/>
    <nd ref="189599731"/>
    <nd ref="189599719"/>
    <nd ref="189599699"/>
    <nd ref="189599681"/>
    <nd ref="189599666"/>
    <nd ref="189599649"/>
    <nd ref="320476738"/>
    <tag k="highway" v="residential"/>
    <tag k="maxspeed" v="50"/>
    <tag k="name" v="Citrus Road"/>
    <tag k="source" v="survey"/>
  </way>
  <way id="12954954" version="4" timestamp="2008-07-05T16:30:47Z" uid="6975" user="ulfl" changeset="398437">
    <nd ref="119097299"/>
    <nd ref="119099869"/>
    <tag k="boat" v="no"/>
    <tag k="waterway" v="drain"/>
  </way>
  <way id="12954955" version="6" timestamp="2008-07-05T16:30:47Z" uid="6975" user="ulfl" changeset="398437">
    <nd ref="119099869"/>
    <nd ref="119099871"/>
    <nd ref="119099872"/>
    <nd ref="119099875"/>
    <nd ref="119099876"/>
    <nd ref="119099879"/>
    <nd ref="119099880"/>
    <nd ref="119099881"/>
    <nd ref="119099882"/>
    <nd ref="119099884"/>
    <nd ref="119099885"/>
    <nd ref="119099887"/>
    <nd ref="119099888"/>
    <nd ref="119099891"/>
    <nd ref="119099892"/>
    <nd ref="119099893"/>
    <nd ref="119099895"/>
    <nd ref="119099896"/>
    <nd ref="119099898"/>
    <tag k="boat" v="no"/>
    <tag k="oneway" v="yes"/>
    <tag k="waterway" v="drain"/>
  </way>
</osm>
