<?xml version='1.0' encoding='UTF-8'?>
<osm version="0.6" generator="libosmium/2.20.0">
  <way id="12951101" version="8" timestamp="2009-07-31T14:15:20Z" uid="4467" user="Rosscoe" changeset="1995110">
    <nd ref="119068585"/>
    <nd ref="242175152"/>
    <nd ref="242174705"/>
    <nd ref="242175811"/>
    <nd ref="119068603"/>
    <tag k="abutters" v="residential"/>
    <tag k="highway" v="residential"/>
    <tag k="name" v="Maple Street"/>
    <tag k="source" v="survey"/>
  </way>
  <way id="12951101" version="9" timestamp="2009-12-28T03:40:28Z" uid="30201" user="rrankin" changeset="3468631">
    <nd ref="119068585"/>
    <nd ref="600233125"/>
    <nd ref="242175152"/>
    <nd ref="242174705"/>
    <nd ref="242175811"/>
    <nd ref="119068603"/>
    <tag k="highway" v="residential"/>
    <tag k="name" v="Maple Street"/>
    <tag k="source" v="survey"/>
  </way>
  <way id="12951101" version="10" timestamp="2009-12-30T04:29:26Z" uid="61114" user="Trav" changeset="3487101">
    <nd ref="119068585"/>
    <nd ref="600233125"/>
    <nd ref="242175152"/>
    <nd ref="242174705"/>
    <nd ref="242175811"/>
    <nd ref="119068603"/>
    <tag k="highway" v="residential"/>
    <tag k="name" v="Maple Street"/>
    <tag k="source" v="survey"/>
    <tag k="source:name" v="survey"/>
  </way>
  <way id="12951106" version="4" timestamp="2009-12-28T03:40:28Z" uid="30201" user="rrankin" changeset="3468631">
    <nd ref="119068570"/>
    <nd ref="308900365"/>
    <tag k="highway" v="tertiary"/>
    <tag k="oneway" v="yes"/>
    <tag k="source" v="survey"/>
  </way>
  <way id="12951106" version="5" timestamp="2009-12-30T04:29:36Z" uid="61114" user="Trav" changeset="3487101">
    <nd ref="119068570"/>
    <nd ref="308900365"/>
    <tag k="highway" v="tertiary"/>
    <tag k="name" v="Kenthurst Road"/>
    <tag k="oneway" v="yes"/>
    <tag k="source" v="survey"/>
  </way>
  <way id="12951106" version="7" timestamp="2009-12-31T00:49:53Z" uid="61114" user="Trav" changeset="3495404">
    <nd ref="119068570"/>
    <nd ref="601731847"/>
    <nd ref="308900365"/>
    <tag k="highway" v="tertiary"/>
    <tag k="maxspeed" v="50"/>
    <tag k="name" v="Kenthurst Road"/>
    <tag k="oneway" v="yes"/>
    <tag k="source" v="survey"/>
    <tag k="source:maxspeed" v="state_limit"/>
  </way>
  <way id="12951106" version="8" timestamp="2011-02-01T04:15:44Z" uid="4467" user="Rosscoe" changeset="7151536">
    <nd ref="119068570"/>
    <nd ref="601731847"/>
    <nd ref="308900365"/>
    <tag k="highway" v="primary_link"/>
    <tag k="maxspeed" v="50"/>
    <tag k="oneway" v="yes"/>
    <tag k="source" v="survey"/>
    <tag k="source:maxspeed" v="state_limit"/>
  </way>
  <way id="12951107" version="4" timestamp="2009-07-31T14:15:17Z" uid="4467" user="Rosscoe" changeset="1995110">
    <nd ref="119068603"/>
    <nd ref="119068784"/>
    <nd ref="119068625"/>
    <nd ref="242174648"/>
    <tag k="abutters" v="residential"/>
    <tag k="highway" v="residential"/>
    <tag k="name" v="Pellitt Lane"/>
    <tag k="source" v="survey"/>
  </way>
  <way id="12951107" version="6" timestamp="2009-12-28T03:40:27Z" uid="30201" user="rrankin" changeset="3468631">
    <nd ref="119068603"/>
    <nd ref="362710907"/>
    <tag k="highway" v="residential"/>
    <tag k="name" v="Pellitt Lane"/>
    <tag k="source" v="survey"/>
  </way>
  <way id="12951107" version="7" timestamp="2009-12-30T04:30:06Z" uid="61114" user="Trav" changeset="3487101">
    <nd ref="119068603"/>
    <nd ref="601313665"/>
    <nd ref="362710907"/>
    <tag k="highway" v="residential"/>
    <tag k="name" v="Pellitt Lane"/>
    <tag k="source" v="survey"/>
  </way>
  <way id="12951245" version="5" timestamp="2010-03-21T05:55:33Z" uid="74617" user="JohnSmith" changeset="4187446">
    <nd ref="119085068"/>
    <nd ref="119093872"/>
    <nd ref="119069387"/>
    <nd ref="385281687"/>
    <nd ref="119069396"/>
    <nd ref="106502368"/>
    <nd ref="119074510"/>
    <nd ref="119004383"/>
    <nd ref="119004387"/>
    <nd ref="119004392"/>
    <nd ref="81345736"/>
    <nd ref="118984704"/>
    <nd ref="118984705"/>
    <nd ref="118877317"/>
    <nd ref="222335712"/>
    <nd ref="118990903"/>
    <nd ref="107259315"/>
    <nd ref="436192493"/>
    <nd ref="107259321"/>
    <nd ref="436192497"/>
    <nd ref="107259325"/>
    <nd ref="107252207"/>
    <nd ref="107252209"/>
    <nd ref="107254925"/>
    <tag k="highway" v="primary"/>
    <tag k="name" v="Old Cleveland Road"/>
    <tag k="oneway" v="yes"/>
  </way>
  <way id="12951551" version="6" timestamp="2010-02-14T17:10:01Z" uid="74617" user="JohnSmith" changeset="3875836">
    <nd ref="26336174"/>
    <nd ref="72673189"/>
    <nd ref="560757141"/>
    <nd ref="26336179"/>
    <tag k="highway" v="unclassified"/>
    <tag k="maxspeed" v="50"/>
    <tag k="name" v="Ernest Street"/>
  </way>
</osm>
