<?xml version='1.0' encoding='UTF-8'?>
<osm version="0.6" generator="libosmium/2.20.0">
  <way id="12972078" version="6" timestamp="2010-02-14T17:09:15Z" uid="74617" user="JohnSmith" changeset="3875836">
    <nd ref="119257498"/>
    <nd ref="119257500"/>
    <tag k="highway" v="residential"/>
    <tag k="maxspeed" v="50"/>
    <tag k="name" v="Digger Street"/>
  </way>
  <way id="12972584" version="4" timestamp="2010-02-14T17:09:13Z" uid="74617" user="JohnSmith" changeset="3875836">
    <nd ref="92284787"/>
    <nd ref="119262407"/>
    <nd ref="119262408"/>
    <nd ref="119262409"/>
    <tag k="access" v="no"/>
    <tag k="highway" v="unclassified"/>
    <tag k="layer" v="-2"/>
    <tag k="maxspeed" v="50"/>
    <tag k="name" v="South East Busway"/>
    <tag k="psv" v="permissive"/>
    <tag k="tunnel" v="yes"/>
  </way>
  <way id="12972608" version="9" timestamp="2010-02-14T17:07:48Z" uid="74617" user="JohnSmith" changeset="3875836">
    <nd ref="119262409"/>
    <nd ref="119263205"/>
    <nd ref="92290520"/>
    <tag k="access" v="no"/>
    <tag k="highway" v="unclassified"/>
    <tag k="layer" v="-2"/>
    <tag k="maxspeed" v="50"/>
    <tag k="name" v="South East Busway"/>
    <tag k="psv" v="permissive"/>
  </way>
  <way id="12972882" version="4" timestamp="2010-02-14T17:09:11Z" uid="74617" user="JohnSmith" changeset="3875836">
    <nd ref="119265528"/>
    <nd ref="119265530"/>
    <tag k="highway" v="residential"/>
    <tag k="maxspeed" v="50"/>
    <tag k="name" v="Arne Street"/>
  </way>
  <way id="12972947" version="6" timestamp="2010-02-14T17:07:48Z" uid="74617" user="JohnSmith" changeset="3875836">
    <nd ref="119259994"/>
    <nd ref="119265530"/>
    <nd ref="119266085"/>
    <tag k="highway" v="residential"/>
    <tag k="maxspeed" v="50"/>
    <tag k="name" v="Toohey Street"/>
  </way>
</osm>
