<?xml version='1.0' encoding='UTF-8'?>
<osm version="0.6" generator="libosmium/2.20.0">
  <way id="13544005" version="2" timestamp="2009-06-07T02:41:55Z" uid="61114" user="Trav" changeset="1443935">
    <nd ref="124544580"/>
    <nd ref="124544897"/>
    <nd ref="124544900"/>
    <tag k="highway" v="residential"/>
    <tag k="name" v="Kerr Close"/>
    <tag k="source:name" v="survey"/>
  </way>
  <way id="13544005" version="3" timestamp="2010-07-07T23:32:14Z" uid="74617" user="JohnSmith" changeset="5162525">
    <nd ref="124544580"/>
    <nd ref="124544897"/>
    <nd ref="124544900"/>
    <tag k="highway" v="residential"/>
    <tag k="maxspeed" v="50"/>
    <tag k="maxspeed:source" v="default residential speed limit in Australia"/>
    <tag k="name" v="Kerr Close"/>
    <tag k="source:name" v="survey"/>
  </way>
  <way id="13544048" version="2" timestamp="2009-06-06T03:23:08Z" uid="61114" user="Trav" changeset="1434233">
    <nd ref="124544985"/>
    <nd ref="124545229"/>
    <tag k="highway" v="residential"/>
    <tag k="name" v="Cambridge Avenue"/>
    <tag k="source:name" v="survey"/>
  </way>
  <way id="13544048" version="3" timestamp="2010-07-07T23:35:05Z" uid="74617" user="JohnSmith" changeset="5162525">
    <nd ref="124544985"/>
    <nd ref="124545229"/>
    <tag k="highway" v="residential"/>
    <tag k="maxspeed" v="50"/>
    <tag k="maxspeed:source" v="default residential speed limit in Australia"/>
    <tag k="name" v="Cambridge Avenue"/>
    <tag k="source:name" v="survey"/>
  </way>
  <way id="13544077" version="2" timestamp="2009-06-06T03:23:07Z" uid="61114" user="Trav" changeset="1434233">
    <nd ref="124545577"/>
    <nd ref="124545578"/>
    <nd ref="124545580"/>
    <nd ref="88619102"/>
    <tag k="highway" v="residential"/>
    <tag k="name" v="Rowena Road"/>
    <tag k="source:name" v="survey"/>
  </way>
  <way id="13544077" version="3" timestamp="2010-07-07T23:33:44Z" uid="74617" user="JohnSmith" changeset="5162525">
    <nd ref="124545577"/>
    <nd ref="124545578"/>
    <nd ref="124545580"/>
    <nd ref="88619102"/>
    <tag k="highway" v="residential"/>
    <tag k="maxspeed" v="50"/>
    <tag k="maxspeed:source" v="default residential speed limit in Australia"/>
    <tag k="name" v="Rowena Road"/>
    <tag k="source:name" v="survey"/>
  </way>
  <way id="13544130" version="2" timestamp="2009-06-06T03:22:54Z" uid="61114" user="Trav" changeset="1434233">
    <nd ref="124545893"/>
    <nd ref="124545894"/>
    <tag k="highway" v="residential"/>
    <tag k="name" v="Lynwood Avenue"/>
    <tag k="source:name" v="survey"/>
  </way>
  <way id="13544130" version="3" timestamp="2010-07-07T23:31:26Z" uid="74617" user="JohnSmith" changeset="5162525">
    <nd ref="124545893"/>
    <nd ref="124545894"/>
    <tag k="highway" v="residential"/>
    <tag k="maxspeed" v="50"/>
    <tag k="maxspeed:source" v="default residential speed limit in Australia"/>
    <tag k="name" v="Lynwood Avenue"/>
    <tag k="source:name" v="survey"/>
  </way>
  <way id="13544224" version="3" timestamp="2009-06-06T03:22:52Z" uid="61114" user="Trav" changeset="1434233">
    <nd ref="124546269"/>
    <nd ref="124546658"/>
    <nd ref="124546659"/>
    <nd ref="124546660"/>
    <nd ref="124546661"/>
    <nd ref="124546664"/>
    <nd ref="124546665"/>
    <nd ref="124546666"/>
    <tag k="highway" v="residential"/>
    <tag k="source:name" v="survey"/>
  </way>
  <way id="13544224" version="4" timestamp="2009-07-08T02:28:29Z" uid="61114" user="Trav" changeset="1767841">
    <nd ref="124546269"/>
    <nd ref="124546658"/>
    <nd ref="124546659"/>
    <nd ref="124546660"/>
    <nd ref="124546661"/>
    <nd ref="124546664"/>
    <nd ref="124546665"/>
    <nd ref="124546666"/>
    <tag k="highway" v="residential"/>
    <tag k="name" v="Lagoon View Road"/>
    <tag k="source:name" v="survey"/>
  </way>
  <way id="13544224" version="5" timestamp="2010-07-07T23:31:21Z" uid="74617" user="JohnSmith" changeset="5162525">
    <nd ref="124546269"/>
    <nd ref="124546658"/>
    <nd ref="124546659"/>
    <nd ref="124546660"/>
    <nd ref="124546661"/>
    <nd ref="124546664"/>
    <nd ref="124546665"/>
    <nd ref="124546666"/>
    <tag k="highway" v="residential"/>
    <tag k="maxspeed" v="50"/>
    <tag k="maxspeed:source" v="default residential speed limit in Australia"/>
    <tag k="name" v="Lagoon View Road"/>
    <tag k="source:name" v="survey"/>
  </way>
  <way id="13544295" version="5" timestamp="2009-06-06T03:22:54Z" uid="61114" user="Trav" changeset="1434233">
    <nd ref="124546937"/>
    <nd ref="124547507"/>
    <nd ref="124547278"/>
    <nd ref="124547279"/>
    <nd ref="124539065"/>
    <nd ref="124547280"/>
    <nd ref="124547281"/>
    <tag k="highway" v="residential"/>
    <tag k="name" v="Tennyson Road"/>
    <tag k="source:name" v="survey"/>
  </way>
  <way id="13544295" version="6" timestamp="2010-07-07T23:32:13Z" uid="74617" user="JohnSmith" changeset="5162525">
    <nd ref="124546937"/>
    <nd ref="124547507"/>
    <nd ref="124547278"/>
    <nd ref="124547279"/>
    <nd ref="124539065"/>
    <nd ref="124547280"/>
    <nd ref="124547281"/>
    <tag k="highway" v="residential"/>
    <tag k="maxspeed" v="50"/>
    <tag k="maxspeed:source" v="default residential speed limit in Australia"/>
    <tag k="name" v="Tennyson Road"/>
    <tag k="source:name" v="survey"/>
  </way>
  <way id="13544318" version="2" timestamp="2009-06-06T03:22:55Z" uid="61114" user="Trav" changeset="1434233">
    <nd ref="124547506"/>
    <nd ref="124547507"/>
    <tag k="highway" v="residential"/>
    <tag k="name" v="Buick Road"/>
    <tag k="source:name" v="survey"/>
  </way>
  <way id="13544318" version="3" timestamp="2010-07-07T23:33:13Z" uid="74617" user="JohnSmith" changeset="5162525">
    <nd ref="124547506"/>
    <nd ref="124547507"/>
    <tag k="highway" v="residential"/>
    <tag k="maxspeed" v="50"/>
    <tag k="maxspeed:source" v="default residential speed limit in Australia"/>
    <tag k="name" v="Buick Road"/>
    <tag k="source:name" v="survey"/>
  </way>
  <way id="13544437" version="8" timestamp="2009-06-07T02:41:58Z" uid="61114" user="Trav" changeset="1443935">
    <nd ref="124548785"/>
    <nd ref="124554715"/>
    <nd ref="124549186"/>
    <nd ref="124554713"/>
    <nd ref="124553636"/>
    <nd ref="124548786"/>
    <nd ref="124548787"/>
    <tag k="highway" v="residential"/>
    <tag k="name" v="Tor Road"/>
    <tag k="source:name" v="survey"/>
  </way>
  <way id="13544437" version="9" timestamp="2010-03-07T01:21:22Z" uid="7617" user="Franc" changeset="4056859">
    <nd ref="124548785"/>
    <nd ref="124554715"/>
    <nd ref="124549186"/>
    <nd ref="124554713"/>
    <nd ref="124553636"/>
    <nd ref="124548786"/>
    <nd ref="661778110"/>
    <tag k="highway" v="residential"/>
    <tag k="name" v="Tor Road"/>
    <tag k="source:name" v="survey"/>
  </way>
  <way id="13544437" version="10" timestamp="2010-07-07T23:31:37Z" uid="74617" user="JohnSmith" changeset="5162525">
    <nd ref="124548785"/>
    <nd ref="124554715"/>
    <nd ref="124549186"/>
    <nd ref="124554713"/>
    <nd ref="124553636"/>
    <nd ref="124548786"/>
    <nd ref="661778110"/>
    <tag k="highway" v="residential"/>
    <tag k="maxspeed" v="50"/>
    <tag k="maxspeed:source" v="default residential speed limit in Australia"/>
    <tag k="name" v="Tor Road"/>
    <tag k="source:name" v="survey"/>
  </way>
  <way id="13544461" version="2" timestamp="2009-06-07T02:41:59Z" uid="61114" user="Trav" changeset="1443935">
    <nd ref="124548786"/>
    <nd ref="124548992"/>
    <nd ref="124548993"/>
    <nd ref="124548995"/>
    <tag k="highway" v="residential"/>
    <tag k="name" v="Edna Place"/>
    <tag k="source:name" v="survey"/>
  </way>
  <way id="13544461" version="3" timestamp="2010-03-07T01:21:22Z" uid="7617" user="Franc" changeset="4056859">
    <nd ref="124548786"/>
    <nd ref="124548992"/>
    <nd ref="661778118"/>
    <nd ref="661778115"/>
    <nd ref="124548993"/>
    <nd ref="661778117"/>
    <nd ref="124548995"/>
    <tag k="highway" v="residential"/>
    <tag k="name" v="Edna Place"/>
    <tag k="source:name" v="survey"/>
  </way>
  <way id="13544461" version="4" timestamp="2010-07-07T23:33:40Z" uid="74617" user="JohnSmith" changeset="5162525">
    <nd ref="124548786"/>
    <nd ref="124548992"/>
    <nd ref="661778118"/>
    <nd ref="661778115"/>
    <nd ref="124548993"/>
    <nd ref="661778117"/>
    <nd ref="124548995"/>
    <tag k="highway" v="residential"/>
    <tag k="maxspeed" v="50"/>
    <tag k="maxspeed:source" v="default residential speed limit in Australia"/>
    <tag k="name" v="Edna Place"/>
    <tag k="source:name" v="survey"/>
  </way>
  <way id="13544493" version="5" timestamp="2009-06-06T03:22:57Z" uid="61114" user="Trav" changeset="1434233">
    <nd ref="124549186"/>
    <nd ref="124549495"/>
    <nd ref="124549846"/>
    <nd ref="124542782"/>
    <tag k="highway" v="residential"/>
    <tag k="name" v="Stoddart Place"/>
    <tag k="source:name" v="survey"/>
  </way>
  <way id="13544493" version="6" timestamp="2010-03-07T01:21:21Z" uid="7617" user="Franc" changeset="4056859">
    <nd ref="124549186"/>
    <nd ref="661778112"/>
    <nd ref="124549495"/>
    <nd ref="124549846"/>
    <nd ref="124542782"/>
    <tag k="highway" v="residential"/>
    <tag k="name" v="Stoddart Place"/>
    <tag k="source:name" v="survey"/>
  </way>
  <way id="13544493" version="7" timestamp="2010-07-07T23:35:56Z" uid="74617" user="JohnSmith" changeset="5162525">
    <nd ref="124549186"/>
    <nd ref="661778112"/>
    <nd ref="124549495"/>
    <nd ref="124549846"/>
    <nd ref="124542782"/>
    <tag k="highway" v="residential"/>
    <tag k="maxspeed" v="50"/>
    <tag k="maxspeed:source" v="default residential speed limit in Australia"/>
    <tag k="name" v="Stoddart Place"/>
    <tag k="source:name" v="survey"/>
  </way>
  <way id="13544525" version="2" timestamp="2009-06-07T02:41:57Z" uid="61114" user="Trav" changeset="1443935">
    <nd ref="124549845"/>
    <nd ref="124549846"/>
    <tag k="highway" v="residential"/>
    <tag k="name" v="Harold Place"/>
    <tag k="source:name" v="survey"/>
  </way>
  <way id="13544525" version="3" timestamp="2010-07-07T23:33:08Z" uid="74617" user="JohnSmith" changeset="5162525">
    <nd ref="124549845"/>
    <nd ref="124549846"/>
    <tag k="highway" v="residential"/>
    <tag k="maxspeed" v="50"/>
    <tag k="maxspeed:source" v="default residential speed limit in Australia"/>
    <tag k="name" v="Harold Place"/>
    <tag k="source:name" v="survey"/>
  </way>
  <way id="13544621" version="6" timestamp="2009-06-06T03:22:57Z" uid="61114" user="Trav" changeset="1434233">
    <nd ref="124549904"/>
    <nd ref="124548785"/>
    <nd ref="124551868"/>
    <nd ref="124550687"/>
    <tag k="highway" v="residential"/>
    <tag k="name" v="Bix Road"/>
    <tag k="source:name" v="survey"/>
  </way>
  <way id="13544621" version="7" timestamp="2010-07-07T23:34:55Z" uid="74617" user="JohnSmith" changeset="5162525">
    <nd ref="124549904"/>
    <nd ref="124548785"/>
    <nd ref="124551868"/>
    <nd ref="124550687"/>
    <tag k="highway" v="residential"/>
    <tag k="maxspeed" v="50"/>
    <tag k="maxspeed:source" v="default residential speed limit in Australia"/>
    <tag k="name" v="Bix Road"/>
    <tag k="source:name" v="survey"/>
  </way>
  <way id="13544715" version="2" timestamp="2009-06-07T02:41:56Z" uid="61114" user="Trav" changeset="1443935">
    <nd ref="124551262"/>
    <nd ref="124551622"/>
    <tag k="highway" v="residential"/>
    <tag k="name" v="Palya Place"/>
    <tag k="source:name" v="survey"/>
  </way>
  <way id="13544715" version="3" timestamp="2010-07-07T23:32:54Z" uid="74617" user="JohnSmith" changeset="5162525">
    <nd ref="124551262"/>
    <nd ref="124551622"/>
    <tag k="highway" v="residential"/>
    <tag k="maxspeed" v="50"/>
    <tag k="maxspeed:source" v="default residential speed limit in Australia"/>
    <tag k="name" v="Palya Place"/>
    <tag k="source:name" v="survey"/>
  </way>
  <way id="13544736" version="4" timestamp="2010-03-27T22:51:42Z" uid="20587" user="balrog-kun" changeset="4250464">
    <nd ref="49181392"/>
    <nd ref="124551771"/>
    <tag k="bridge" v="yes"/>
    <tag k="highway" v="motorway"/>
    <tag k="layer" v="1"/>
    <tag k="name" v="Jacob Dekema Freeway"/>
    <tag k="oneway" v="yes"/>
    <tag k="ref" v="I 805"/>
    <tag k="tiger:cfcc" v="A15"/>
    <tag k="tiger:county" v="San Diego, CA"/>
    <tag k="tiger:name_base" v="I-805"/>
    <tag k="tiger:name_base_1" v="Jacob Dekema"/>
    <tag k="tiger:name_type_1" v="Fwy"/>
    <tag k="tiger:source" v="tiger_import_dch_v0.6_20070809"/>
    <tag k="tiger:tlid" v="195741900:195741901:195665628:195665629:195306475:195300527:195413099:195300571:195751702:195734407:195734408:195755972:195741818:195741822:195741825:195741826:195737149:195755421:195737156:195737157:195755965:195755968:195741843:195737124:195737125:19573"/>
  </way>
  <way id="13544738" version="7" timestamp="2010-03-27T22:51:43Z" uid="20587" user="balrog-kun" changeset="4250464">
    <nd ref="124551771"/>
    <nd ref="49181394"/>
    <nd ref="48860247"/>
    <nd ref="49181398"/>
    <nd ref="278351337"/>
    <nd ref="49181399"/>
    <tag k="highway" v="motorway"/>
    <tag k="name" v="Jacob Dekema Freeway"/>
    <tag k="oneway" v="yes"/>
    <tag k="ref" v="I 805"/>
    <tag k="tiger:cfcc" v="A15"/>
    <tag k="tiger:county" v="San Diego, CA"/>
    <tag k="tiger:name_base" v="I-805"/>
    <tag k="tiger:name_base_1" v="Jacob Dekema"/>
    <tag k="tiger:name_type_1" v="Fwy"/>
    <tag k="tiger:source" v="tiger_import_dch_v0.6_20070809"/>
    <tag k="tiger:tlid" v="195741900:195741901:195665628:195665629:195306475:195300527:195413099:195300571:195751702:195734407:195734408:195755972:195741818:195741822:195741825:195741826:195737149:195755421:195737156:195737157:195755965:195755968:195741843:195737124:195737125:19573"/>
  </way>
  <way id="13544740" version="4" timestamp="2010-03-27T22:51:43Z" uid="20587" user="balrog-kun" changeset="4250464">
    <nd ref="124551764"/>
    <nd ref="49181972"/>
    <tag k="bridge" v="yes"/>
    <tag k="highway" v="motorway"/>
    <tag k="layer" v="1"/>
    <tag k="name" v="Jacob Dekema Freeway"/>
    <tag k="oneway" v="yes"/>
    <tag k="ref" v="I 805"/>
    <tag k="tiger:cfcc" v="A15"/>
    <tag k="tiger:county" v="San Diego, CA"/>
    <tag k="tiger:name_base" v="I-805"/>
    <tag k="tiger:name_base_1" v="Jacob Dekema"/>
    <tag k="tiger:name_type_1" v="Fwy"/>
    <tag k="tiger:source" v="tiger_import_dch_v0.6_20070809"/>
    <tag k="tiger:tlid" v="195408189:195408190:195300436:195369594:195300273:195367386:195367388:195300477:195300519:195366413:195389906:195367392:195734395:195755094:195741713:195755956:195755957:195741722:195741705:195755955:195741748:195755095:195755096:195755097"/>
  </way>
  <way id="13544743" version="8" timestamp="2010-03-27T22:51:43Z" uid="20587" user="balrog-kun" changeset="4250464">
    <nd ref="49181972"/>
    <nd ref="49181975"/>
    <nd ref="49181977"/>
    <nd ref="49181978"/>
    <nd ref="49181979"/>
    <nd ref="49181981"/>
    <nd ref="49181983"/>
    <nd ref="60650192"/>
    <nd ref="48949913"/>
    <nd ref="48960851"/>
    <nd ref="49181988"/>
    <nd ref="49181990"/>
    <nd ref="48960818"/>
    <nd ref="49181996"/>
    <nd ref="48917957"/>
    <nd ref="49181998"/>
    <nd ref="49181999"/>
    <nd ref="49182002"/>
    <nd ref="48917974"/>
    <nd ref="49182007"/>
    <nd ref="49182009"/>
    <nd ref="49182011"/>
    <nd ref="49182014"/>
    <tag k="highway" v="motorway"/>
    <tag k="name" v="Jacob Dekema Freeway"/>
    <tag k="oneway" v="yes"/>
    <tag k="ref" v="I 805"/>
    <tag k="tiger:cfcc" v="A15"/>
    <tag k="tiger:county" v="San Diego, CA"/>
    <tag k="tiger:name_base" v="I-805"/>
    <tag k="tiger:name_base_1" v="Jacob Dekema"/>
    <tag k="tiger:name_type_1" v="Fwy"/>
    <tag k="tiger:source" v="tiger_import_dch_v0.6_20070809"/>
    <tag k="tiger:tlid" v="195408189:195408190:195300436:195369594:195300273:195367386:195367388:195300477:195300519:195366413:195389906:195367392:195734395:195755094:195741713:195755956:195755957:195741722:195741705:195755955:195741748:195755095:195755096:195755097"/>
  </way>
  <way id="13544745" version="2" timestamp="2009-06-07T02:41:56Z" uid="61114" user="Trav" changeset="1443935">
    <nd ref="124551656"/>
    <nd ref="124551868"/>
    <tag k="highway" v="residential"/>
    <tag k="name" v="Wigan Road"/>
    <tag k="source:name" v="survey"/>
  </way>
  <way id="13544745" version="3" timestamp="2010-07-07T23:34:22Z" uid="74617" user="JohnSmith" changeset="5162525">
    <nd ref="124551656"/>
    <nd ref="124551868"/>
    <tag k="highway" v="residential"/>
    <tag k="maxspeed" v="50"/>
    <tag k="maxspeed:source" v="default residential speed limit in Australia"/>
    <tag k="name" v="Wigan Road"/>
    <tag k="source:name" v="survey"/>
  </way>
  <way id="13544763" version="2" timestamp="2009-06-07T02:41:58Z" uid="61114" user="Trav" changeset="1443935">
    <nd ref="124550687"/>
    <nd ref="124552064"/>
    <tag k="highway" v="residential"/>
    <tag k="name" v="Bix Road"/>
    <tag k="source:name" v="survey"/>
  </way>
  <way id="13544763" version="3" timestamp="2010-07-07T23:31:14Z" uid="74617" user="JohnSmith" changeset="5162525">
    <nd ref="124550687"/>
    <nd ref="124552064"/>
    <tag k="highway" v="residential"/>
    <tag k="maxspeed" v="50"/>
    <tag k="maxspeed:source" v="default residential speed limit in Australia"/>
    <tag k="name" v="Bix Road"/>
    <tag k="source:name" v="survey"/>
  </way>
  <way id="13544810" version="2" timestamp="2009-06-07T02:42:09Z" uid="61114" user="Trav" changeset="1443935">
    <nd ref="124552729"/>
    <nd ref="124552730"/>
    <tag k="highway" v="residential"/>
    <tag k="name" v="High Street"/>
    <tag k="source:name" v="survey"/>
  </way>
  <way id="13544810" version="3" timestamp="2010-07-07T23:32:34Z" uid="74617" user="JohnSmith" changeset="5162525">
    <nd ref="124552729"/>
    <nd ref="124552730"/>
    <tag k="highway" v="residential"/>
    <tag k="maxspeed" v="50"/>
    <tag k="maxspeed:source" v="default residential speed limit in Australia"/>
    <tag k="name" v="High Street"/>
    <tag k="source:name" v="survey"/>
  </way>
  <way id="13544816" version="2" timestamp="2009-06-07T02:42:09Z" uid="61114" user="Trav" changeset="1443935">
    <nd ref="124552807"/>
    <nd ref="124552809"/>
    <tag k="highway" v="residential"/>
    <tag k="name" v="Vale Avenue"/>
    <tag k="source:name" v="survey"/>
  </way>
  <way id="13544816" version="3" timestamp="2010-07-07T23:36:01Z" uid="74617" user="JohnSmith" changeset="5162525">
    <nd ref="124552807"/>
    <nd ref="124552809"/>
    <tag k="highway" v="residential"/>
    <tag k="maxspeed" v="50"/>
    <tag k="maxspeed:source" v="default residential speed limit in Australia"/>
    <tag k="name" v="Vale Avenue"/>
    <tag k="source:name" v="survey"/>
  </way>
  <way id="13544916" version="2" timestamp="2009-06-07T02:42:00Z" uid="61114" user="Trav" changeset="1443935">
    <nd ref="124553131"/>
    <nd ref="124553633"/>
    <nd ref="124553634"/>
    <nd ref="124553635"/>
    <nd ref="124553636"/>
    <tag k="highway" v="residential"/>
    <tag k="name" v="Arthur Street"/>
    <tag k="source:name" v="survey"/>
  </way>
  <way id="13544916" version="3" timestamp="2010-03-07T01:21:11Z" uid="7617" user="Franc" changeset="4056859">
    <nd ref="124553131"/>
    <nd ref="661778021"/>
    <nd ref="124553633"/>
    <nd ref="124553634"/>
    <nd ref="661778107"/>
    <nd ref="661778106"/>
    <nd ref="124553635"/>
    <nd ref="124553636"/>
    <tag k="highway" v="residential"/>
    <tag k="name" v="Arthur Street"/>
    <tag k="source:name" v="survey"/>
  </way>
  <way id="13544916" version="4" timestamp="2010-07-07T23:31:07Z" uid="74617" user="JohnSmith" changeset="5162525">
    <nd ref="124553131"/>
    <nd ref="661778021"/>
    <nd ref="124553633"/>
    <nd ref="124553634"/>
    <nd ref="661778107"/>
    <nd ref="661778106"/>
    <nd ref="124553635"/>
    <nd ref="124553636"/>
    <tag k="highway" v="residential"/>
    <tag k="maxspeed" v="50"/>
    <tag k="maxspeed:source" v="default residential speed limit in Australia"/>
    <tag k="name" v="Arthur Street"/>
    <tag k="source:name" v="survey"/>
  </way>
</osm>
