<?xml version='1.0' encoding='UTF-8'?>
<osm version="0.6" generator="libosmium/2.20.0">
  <way id="13553000" version="4" timestamp="2010-07-09T05:57:30Z" uid="74617" user="JohnSmith" changeset="5171128">
    <nd ref="29809771"/>
    <nd ref="29806523"/>
    <tag k="highway" v="residential"/>
    <tag k="maxspeed" v="50"/>
    <tag k="maxspeed:source" v="default residential speed limit in Australia"/>
    <tag k="name" v="Britomart Gardens"/>
  </way>
  <way id="13553127" version="32" timestamp="2010-02-15T05:21:47Z" uid="74617" user="JohnSmith" changeset="3880269">
    <nd ref="33719926"/>
    <nd ref="398444185"/>
    <nd ref="124641273"/>
    <nd ref="124641274"/>
    <nd ref="124641278"/>
    <nd ref="124641284"/>
    <nd ref="124647057"/>
    <nd ref="124641286"/>
    <nd ref="124641287"/>
    <nd ref="124641290"/>
    <nd ref="124643198"/>
    <nd ref="118997180"/>
    <tag k="highway" v="residential"/>
    <tag k="maxspeed" v="50"/>
    <tag k="name" v="Trouts Road"/>
  </way>
  <way id="13553177" version="1" timestamp="2007-11-20T01:59:52Z" uid="19626" user="Swamp" changeset="572804">
    <nd ref="124641606"/>
    <nd ref="124641627"/>
    <nd ref="124641644"/>
    <tag k="created_by" v="JOSM"/>
    <tag k="highway" v="residential"/>
    <tag k="name" v="Belford Road"/>
  </way>
  <way id="13553177" version="2" timestamp="2007-12-29T06:42:41Z" uid="18775" user="drlizau" changeset="459672">
    <nd ref="195047521"/>
    <nd ref="124641606"/>
    <nd ref="124641627"/>
    <nd ref="124641644"/>
    <tag k="created_by" v="JOSM"/>
    <tag k="highway" v="residential"/>
    <tag k="name" v="Belford Road"/>
  </way>
  <way id="13553177" version="3" timestamp="2008-11-16T11:03:09Z" uid="18775" user="drlizau" changeset="756879">
    <nd ref="195047521"/>
    <nd ref="124641606"/>
    <nd ref="124641627"/>
    <nd ref="124641644"/>
    <tag k="created_by" v="JOSM"/>
    <tag k="highway" v="residential"/>
    <tag k="name" v="Belford Road"/>
  </way>
  <way id="13553177" version="4" timestamp="2008-11-16T11:31:44Z" uid="18775" user="drlizau" changeset="756879">
    <nd ref="195047521"/>
    <nd ref="124641606"/>
    <nd ref="124641627"/>
    <nd ref="124641644"/>
    <tag k="created_by" v="JOSM"/>
    <tag k="highway" v="residential"/>
    <tag k="name" v="Belford Road"/>
    <tag k="source" v="survey"/>
  </way>
  <way id="13553177" version="5" timestamp="2009-07-25T04:16:14Z" uid="74617" user="JohnSmith" changeset="1930637">
    <nd ref="195047521"/>
    <nd ref="124641606"/>
    <nd ref="124641627"/>
    <nd ref="124641644"/>
    <tag k="highway" v="residential"/>
    <tag k="name" v="Belford Road"/>
    <tag k="source" v="survey"/>
  </way>
  <way id="13553177" version="6" timestamp="2009-07-25T22:29:35Z" uid="18775" user="drlizau" changeset="1939300">
    <nd ref="195047521"/>
    <nd ref="124641606"/>
    <nd ref="124641627"/>
    <nd ref="124641644"/>
    <tag k="highway" v="residential"/>
    <tag k="maxspeed" v="50"/>
    <tag k="name" v="Belford Road"/>
    <tag k="source" v="survey"/>
  </way>
  <way id="13553180" version="1" timestamp="2007-11-20T01:59:53Z" uid="19626" user="Swamp" changeset="572804">
    <nd ref="124641651"/>
    <nd ref="124641747"/>
    <nd ref="124641662"/>
    <nd ref="124641681"/>
    <nd ref="124641699"/>
    <nd ref="124641716"/>
    <nd ref="124641732"/>
    <tag k="created_by" v="JOSM"/>
    <tag k="highway" v="residential"/>
    <tag k="name" v="Ulong Street"/>
  </way>
  <way id="13553180" version="2" timestamp="2007-11-26T12:54:32Z" uid="18775" user="drlizau" changeset="624578">
    <nd ref="124641651"/>
    <nd ref="124641747"/>
    <nd ref="124641662"/>
    <nd ref="124641681"/>
    <nd ref="124641699"/>
    <nd ref="124641716"/>
    <nd ref="124641732"/>
    <tag k="created_by" v="JOSM"/>
    <tag k="highway" v="residential"/>
    <tag k="name" v="Ulong Street"/>
  </way>
  <way id="13553180" version="3" timestamp="2007-12-28T10:39:11Z" uid="18775" user="drlizau" changeset="456827">
    <nd ref="124641651"/>
    <nd ref="124641747"/>
    <nd ref="124641662"/>
    <nd ref="124641681"/>
    <nd ref="124641699"/>
    <nd ref="124641716"/>
    <nd ref="124641732"/>
    <tag k="created_by" v="JOSM"/>
    <tag k="highway" v="residential"/>
    <tag k="name" v="Ulong Street"/>
  </way>
  <way id="13553180" version="4" timestamp="2007-12-28T10:53:26Z" uid="18775" user="drlizau" changeset="456827">
    <nd ref="124641651"/>
    <nd ref="124641747"/>
    <nd ref="124641662"/>
    <nd ref="124641681"/>
    <nd ref="124641699"/>
    <nd ref="124641716"/>
    <nd ref="149872256"/>
    <nd ref="124641732"/>
    <tag k="created_by" v="JOSM"/>
    <tag k="highway" v="residential"/>
    <tag k="name" v="Ulong Street"/>
  </way>
  <way id="13553180" version="5" timestamp="2008-11-16T11:03:15Z" uid="18775" user="drlizau" changeset="756879">
    <nd ref="124641651"/>
    <nd ref="124641747"/>
    <nd ref="124641662"/>
    <nd ref="124641681"/>
    <nd ref="124641699"/>
    <nd ref="124641716"/>
    <nd ref="149872256"/>
    <nd ref="124641732"/>
    <tag k="created_by" v="JOSM"/>
    <tag k="highway" v="residential"/>
    <tag k="name" v="Ulong Street"/>
  </way>
  <way id="13553180" version="6" timestamp="2008-11-16T11:31:49Z" uid="18775" user="drlizau" changeset="756879">
    <nd ref="124641651"/>
    <nd ref="124641747"/>
    <nd ref="124641662"/>
    <nd ref="124641681"/>
    <nd ref="124641699"/>
    <nd ref="124641716"/>
    <nd ref="149872256"/>
    <nd ref="124641732"/>
    <tag k="created_by" v="JOSM"/>
    <tag k="highway" v="residential"/>
    <tag k="name" v="Ulong Street"/>
    <tag k="source" v="survey"/>
  </way>
  <way id="13553180" version="7" timestamp="2009-06-16T09:47:26Z" uid="18775" user="drlizau" changeset="1533458"/>
  <way id="13553182" version="1" timestamp="2007-11-20T01:59:54Z" uid="19626" user="Swamp" changeset="572804">
    <nd ref="124641747"/>
    <nd ref="124641766"/>
    <nd ref="124641771"/>
    <tag k="created_by" v="JOSM"/>
    <tag k="highway" v="residential"/>
    <tag k="name" v="Couch Street"/>
  </way>
  <way id="13553182" version="2" timestamp="2007-12-29T06:42:59Z" uid="18775" user="drlizau" changeset="459672">
    <nd ref="124641747"/>
    <nd ref="124641766"/>
    <nd ref="124641771"/>
    <nd ref="195047500"/>
    <tag k="created_by" v="JOSM"/>
    <tag k="highway" v="residential"/>
    <tag k="name" v="Couch Street"/>
  </way>
  <way id="13553182" version="3" timestamp="2008-11-16T11:03:11Z" uid="18775" user="drlizau" changeset="756879">
    <nd ref="124641747"/>
    <nd ref="124641766"/>
    <nd ref="124641771"/>
    <nd ref="195047500"/>
    <tag k="created_by" v="JOSM"/>
    <tag k="highway" v="residential"/>
    <tag k="name" v="Couch Street"/>
  </way>
  <way id="13553182" version="4" timestamp="2008-11-16T11:31:46Z" uid="18775" user="drlizau" changeset="756879">
    <nd ref="124641747"/>
    <nd ref="124641766"/>
    <nd ref="124641771"/>
    <nd ref="195047500"/>
    <tag k="created_by" v="JOSM"/>
    <tag k="highway" v="residential"/>
    <tag k="name" v="Couch Street"/>
    <tag k="source" v="survey"/>
  </way>
  <way id="13553182" version="5" timestamp="2009-07-24T19:56:41Z" uid="74617" user="JohnSmith" changeset="1928855">
    <nd ref="124641747"/>
    <nd ref="124641766"/>
    <nd ref="124641771"/>
    <nd ref="195047500"/>
    <tag k="highway" v="residential"/>
    <tag k="name" v="Couch Street"/>
    <tag k="source" v="survey"/>
  </way>
  <way id="13553182" version="6" timestamp="2009-07-25T22:29:31Z" uid="18775" user="drlizau" changeset="1939300">
    <nd ref="124641747"/>
    <nd ref="124641766"/>
    <nd ref="124641771"/>
    <nd ref="195047500"/>
    <tag k="highway" v="residential"/>
    <tag k="maxspeed" v="50"/>
    <tag k="name" v="Couch Street"/>
    <tag k="source" v="survey"/>
  </way>
  <way id="13553309" version="3" timestamp="2010-02-15T05:21:49Z" uid="74617" user="JohnSmith" changeset="3880269">
    <nd ref="118997179"/>
    <nd ref="124643194"/>
    <nd ref="124643196"/>
    <nd ref="124643198"/>
    <tag k="highway" v="residential"/>
    <tag k="maxspeed" v="50"/>
    <tag k="name" v="Trouts Road"/>
    <tag k="oneway" v="yes"/>
  </way>
  <way id="13553484" version="7" timestamp="2010-02-15T05:21:48Z" uid="74617" user="JohnSmith" changeset="3880269">
    <nd ref="118997180"/>
    <nd ref="118997181"/>
    <nd ref="118997182"/>
    <nd ref="339942189"/>
    <tag k="highway" v="tertiary"/>
    <tag k="name" v="Parton Street"/>
  </way>
  <way id="13553531" version="20" timestamp="2010-03-15T02:30:47Z" uid="74617" user="JohnSmith" changeset="4131580">
    <nd ref="273211636"/>
    <nd ref="124664923"/>
    <nd ref="124664924"/>
    <nd ref="124664925"/>
    <nd ref="124664926"/>
    <nd ref="273208924"/>
    <nd ref="124664929"/>
    <nd ref="124661179"/>
    <nd ref="124661183"/>
    <nd ref="124661184"/>
    <nd ref="323117409"/>
    <nd ref="124661186"/>
    <nd ref="124660419"/>
    <nd ref="124660420"/>
    <nd ref="124660424"/>
    <nd ref="124660426"/>
    <nd ref="124660427"/>
    <nd ref="124657886"/>
    <nd ref="124657887"/>
    <nd ref="124657888"/>
    <nd ref="326847696"/>
    <nd ref="124657889"/>
    <nd ref="124657892"/>
    <nd ref="124657893"/>
    <nd ref="124657895"/>
    <nd ref="124654606"/>
    <tag k="highway" v="primary"/>
    <tag k="name" v="Gympie Road"/>
    <tag k="oneway" v="yes"/>
  </way>
  <way id="13553704" version="10" timestamp="2010-02-15T05:21:14Z" uid="74617" user="JohnSmith" changeset="3880269">
    <nd ref="124647057"/>
    <nd ref="124647043"/>
    <nd ref="260098793"/>
    <nd ref="118993093"/>
    <nd ref="124647044"/>
    <nd ref="124647046"/>
    <nd ref="124647047"/>
    <nd ref="124647048"/>
    <nd ref="126569544"/>
    <nd ref="126569548"/>
    <nd ref="143674351"/>
    <nd ref="126569556"/>
    <nd ref="126569557"/>
    <nd ref="392679517"/>
    <nd ref="126569566"/>
    <nd ref="126569568"/>
    <nd ref="126569570"/>
    <nd ref="392679500"/>
    <nd ref="126569573"/>
    <nd ref="126569579"/>
    <nd ref="392679641"/>
    <nd ref="126569584"/>
    <nd ref="126569587"/>
    <nd ref="87705905"/>
    <nd ref="359452643"/>
    <tag k="highway" v="residential"/>
    <tag k="maxspeed" v="50"/>
    <tag k="name" v="Keona Road"/>
  </way>
  <way id="13553770" version="5" timestamp="2010-02-09T02:06:14Z" uid="74617" user="JohnSmith" changeset="3828705">
    <nd ref="59941260"/>
    <nd ref="124647423"/>
    <tag k="highway" v="primary"/>
    <tag k="name" v="Hoyland Street"/>
    <tag k="oneway" v="yes"/>
  </way>
  <way id="13553788" version="7" timestamp="2010-02-09T02:06:14Z" uid="74617" user="JohnSmith" changeset="3828705">
    <nd ref="124647423"/>
    <nd ref="124647425"/>
    <tag k="bridge" v="yes"/>
    <tag k="highway" v="primary"/>
    <tag k="layer" v="1"/>
    <tag k="name" v="Strathpine Road"/>
    <tag k="oneway" v="yes"/>
  </way>
  <way id="13553788" version="8" timestamp="2010-03-15T02:30:51Z" uid="74617" user="JohnSmith" changeset="4131580">
    <nd ref="124647423"/>
    <nd ref="124647425"/>
    <tag k="bridge" v="yes"/>
    <tag k="highway" v="primary"/>
    <tag k="layer" v="1"/>
    <tag k="oneway" v="yes"/>
  </way>
  <way id="13553800" version="5" timestamp="2010-02-09T02:06:14Z" uid="74617" user="JohnSmith" changeset="3828705">
    <nd ref="124645653"/>
    <nd ref="124645656"/>
    <tag k="bridge" v="yes"/>
    <tag k="highway" v="primary"/>
    <tag k="layer" v="1"/>
    <tag k="name" v="Strathpine Road"/>
    <tag k="oneway" v="yes"/>
  </way>
  <way id="13553800" version="6" timestamp="2010-03-15T02:30:51Z" uid="74617" user="JohnSmith" changeset="4131580">
    <nd ref="124645653"/>
    <nd ref="124645656"/>
    <tag k="bridge" v="yes"/>
    <tag k="highway" v="primary"/>
    <tag k="layer" v="1"/>
    <tag k="oneway" v="yes"/>
  </way>
  <way id="13553806" version="7" timestamp="2010-03-15T02:30:49Z" uid="74617" user="JohnSmith" changeset="4131580">
    <nd ref="124647425"/>
    <nd ref="124650825"/>
    <nd ref="566622546"/>
    <nd ref="124647427"/>
    <nd ref="124647429"/>
    <nd ref="124647431"/>
    <nd ref="124647433"/>
    <nd ref="310985744"/>
    <nd ref="124647434"/>
    <nd ref="124647435"/>
    <nd ref="267211580"/>
    <nd ref="124647437"/>
    <nd ref="124647438"/>
    <nd ref="124647439"/>
    <nd ref="124652469"/>
    <nd ref="124652471"/>
    <nd ref="124652473"/>
    <nd ref="87734025"/>
    <nd ref="87734027"/>
    <nd ref="87734028"/>
    <nd ref="228398797"/>
    <nd ref="326847543"/>
    <nd ref="124655767"/>
    <tag k="highway" v="primary"/>
    <tag k="name" v="Strathpine Road"/>
    <tag k="oneway" v="yes"/>
  </way>
  <way id="13553815" version="4" timestamp="2010-02-09T02:06:14Z" uid="74617" user="JohnSmith" changeset="3828705">
    <nd ref="124645656"/>
    <nd ref="59941251"/>
    <tag k="highway" v="primary"/>
    <tag k="name" v="Hoyland Street"/>
    <tag k="oneway" v="yes"/>
  </way>
</osm>
