<?xml version='1.0' encoding='UTF-8'?>
<osm version="0.6" generator="libosmium/2.20.0">
  <way id="13568048" version="5" timestamp="2010-01-23T12:11:01Z" uid="30201" user="rrankin" changeset="3690907">
    <nd ref="114325814"/>
    <nd ref="124806182"/>
    <nd ref="618623912"/>
    <tag k="highway" v="residential"/>
    <tag k="name" v="Acacia Street"/>
  </way>
  <way id="13568048" version="6" timestamp="2010-07-07T23:31:45Z" uid="74617" user="JohnSmith" changeset="5162525">
    <nd ref="114325814"/>
    <nd ref="124806182"/>
    <nd ref="618623912"/>
    <tag k="highway" v="residential"/>
    <tag k="maxspeed" v="50"/>
    <tag k="maxspeed:source" v="default residential speed limit in Australia"/>
    <tag k="name" v="Acacia Street"/>
  </way>
  <way id="13568062" version="2" timestamp="2009-06-06T03:22:12Z" uid="61114" user="Trav" changeset="1434233">
    <nd ref="124799187"/>
    <nd ref="114327318"/>
    <nd ref="124806417"/>
    <tag k="highway" v="residential"/>
    <tag k="name" v="Blandford Street"/>
    <tag k="source:name" v="survey"/>
  </way>
  <way id="13568062" version="3" timestamp="2010-07-07T23:32:58Z" uid="74617" user="JohnSmith" changeset="5162525">
    <nd ref="124799187"/>
    <nd ref="114327318"/>
    <nd ref="124806417"/>
    <tag k="highway" v="residential"/>
    <tag k="maxspeed" v="50"/>
    <tag k="maxspeed:source" v="default residential speed limit in Australia"/>
    <tag k="name" v="Blandford Street"/>
    <tag k="source:name" v="survey"/>
  </way>
  <way id="13568465" version="2" timestamp="2009-07-06T03:52:44Z" uid="61114" user="Trav" changeset="1745380"/>
  <way id="13568471" version="3" timestamp="2010-03-06T13:05:12Z" uid="7617" user="Franc" changeset="4049938">
    <nd ref="124812106"/>
    <nd ref="661074116"/>
    <nd ref="661074119"/>
    <nd ref="124818147"/>
    <tag k="highway" v="residential"/>
    <tag k="name" v="Fielding Street"/>
  </way>
  <way id="13568471" version="4" timestamp="2010-03-06T23:15:29Z" uid="7617" user="Franc" changeset="4056103">
    <nd ref="124812106"/>
    <nd ref="661629808"/>
    <nd ref="661074116"/>
    <nd ref="661074119"/>
    <nd ref="124818147"/>
    <tag k="highway" v="residential"/>
    <tag k="name" v="Fielding Street"/>
  </way>
  <way id="13568471" version="5" timestamp="2010-07-07T23:31:20Z" uid="74617" user="JohnSmith" changeset="5162525">
    <nd ref="124812106"/>
    <nd ref="661629808"/>
    <nd ref="661074116"/>
    <nd ref="661074119"/>
    <nd ref="124818147"/>
    <tag k="highway" v="residential"/>
    <tag k="maxspeed" v="50"/>
    <tag k="maxspeed:source" v="default residential speed limit in Australia"/>
    <tag k="name" v="Fielding Street"/>
  </way>
  <way id="13568493" version="2" timestamp="2009-07-06T03:52:43Z" uid="61114" user="Trav" changeset="1745380">
    <nd ref="124812422"/>
    <nd ref="124812423"/>
    <nd ref="124812425"/>
    <nd ref="124812427"/>
    <nd ref="124812428"/>
    <nd ref="124812429"/>
    <nd ref="124812431"/>
    <nd ref="124812432"/>
    <nd ref="124812433"/>
    <nd ref="124812434"/>
    <nd ref="124812435"/>
    <nd ref="124812437"/>
    <tag k="highway" v="residential"/>
    <tag k="name" v="Graylind Close"/>
    <tag k="source:name" v="survey"/>
  </way>
  <way id="13568493" version="3" timestamp="2010-07-07T23:33:41Z" uid="74617" user="JohnSmith" changeset="5162525">
    <nd ref="124812422"/>
    <nd ref="124812423"/>
    <nd ref="124812425"/>
    <nd ref="124812427"/>
    <nd ref="124812428"/>
    <nd ref="124812429"/>
    <nd ref="124812431"/>
    <nd ref="124812432"/>
    <nd ref="124812433"/>
    <nd ref="124812434"/>
    <nd ref="124812435"/>
    <nd ref="124812437"/>
    <tag k="highway" v="residential"/>
    <tag k="maxspeed" v="50"/>
    <tag k="maxspeed:source" v="default residential speed limit in Australia"/>
    <tag k="name" v="Graylind Close"/>
    <tag k="source:name" v="survey"/>
  </way>
  <way id="13568512" version="2" timestamp="2009-07-06T03:52:41Z" uid="61114" user="Trav" changeset="1745380">
    <nd ref="124812734"/>
    <nd ref="124812028"/>
    <nd ref="124811277"/>
    <tag k="highway" v="residential"/>
    <tag k="name" v="Collaroy Street"/>
    <tag k="source:name" v="survey"/>
  </way>
  <way id="13568512" version="3" timestamp="2010-03-06T13:05:12Z" uid="7617" user="Franc" changeset="4049938">
    <nd ref="124812734"/>
    <nd ref="124812028"/>
    <nd ref="661074126"/>
    <nd ref="661074128"/>
    <nd ref="124811277"/>
    <tag k="highway" v="residential"/>
    <tag k="name" v="Collaroy Street"/>
    <tag k="source:name" v="survey"/>
  </way>
  <way id="13568512" version="4" timestamp="2010-07-07T23:32:19Z" uid="74617" user="JohnSmith" changeset="5162525">
    <nd ref="124812734"/>
    <nd ref="124812028"/>
    <nd ref="661074126"/>
    <nd ref="661074128"/>
    <nd ref="124811277"/>
    <tag k="highway" v="residential"/>
    <tag k="maxspeed" v="50"/>
    <tag k="maxspeed:source" v="default residential speed limit in Australia"/>
    <tag k="name" v="Collaroy Street"/>
    <tag k="source:name" v="survey"/>
  </way>
  <way id="13568557" version="3" timestamp="2010-03-06T13:05:12Z" uid="7617" user="Franc" changeset="4049938">
    <nd ref="124813331"/>
    <nd ref="661074134"/>
    <nd ref="124813332"/>
    <tag k="highway" v="residential"/>
    <tag k="name" v="Frazer Street"/>
  </way>
  <way id="13568557" version="4" timestamp="2010-07-07T23:32:04Z" uid="74617" user="JohnSmith" changeset="5162525">
    <nd ref="124813331"/>
    <nd ref="661074134"/>
    <nd ref="124813332"/>
    <tag k="highway" v="residential"/>
    <tag k="maxspeed" v="50"/>
    <tag k="maxspeed:source" v="default residential speed limit in Australia"/>
    <tag k="name" v="Frazer Street"/>
  </way>
  <way id="13568901" version="3" timestamp="2010-03-06T13:05:14Z" uid="7617" user="Franc" changeset="4049938">
    <nd ref="124818050"/>
    <nd ref="661074137"/>
    <nd ref="124818052"/>
    <nd ref="124818053"/>
    <tag k="highway" v="residential"/>
    <tag k="name" v="Ramsay Street"/>
  </way>
  <way id="13568901" version="4" timestamp="2010-07-07T23:33:56Z" uid="74617" user="JohnSmith" changeset="5162525">
    <nd ref="124818050"/>
    <nd ref="661074137"/>
    <nd ref="124818052"/>
    <nd ref="124818053"/>
    <tag k="highway" v="residential"/>
    <tag k="maxspeed" v="50"/>
    <tag k="maxspeed:source" v="default residential speed limit in Australia"/>
    <tag k="name" v="Ramsay Street"/>
  </way>
</osm>
