<?xml version='1.0' encoding='UTF-8'?>
<osm version="0.6" generator="libosmium/2.20.0">
  <way id="13593006" version="12" timestamp="2010-05-13T13:41:49Z" uid="4467" user="Rosscoe" changeset="4686194">
    <nd ref="732197877"/>
    <nd ref="290310825"/>
    <nd ref="290310821"/>
    <nd ref="290310464"/>
    <nd ref="290310466"/>
    <nd ref="267004600"/>
    <nd ref="347140191"/>
    <nd ref="125101090"/>
    <nd ref="290309135"/>
    <nd ref="282813450"/>
    <nd ref="282813524"/>
    <nd ref="282813452"/>
    <nd ref="282813525"/>
    <nd ref="282813526"/>
    <nd ref="282813480"/>
    <tag k="highway" v="secondary"/>
    <tag k="is_in" v="Werribee,Victoria,Australia"/>
    <tag k="lanes" v="1"/>
    <tag k="name" v="Heaths Road"/>
    <tag k="oneway" v="yes"/>
    <tag k="postal_code" v="3030"/>
    <tag k="ref" v="C701"/>
    <tag k="source" v="knowledge;Yahoo; survey;Yahoo"/>
  </way>
  <way id="13593006" version="13" timestamp="2010-05-13T13:50:02Z" uid="4467" user="Rosscoe" changeset="4686274">
    <nd ref="732197877"/>
    <nd ref="290310825"/>
    <nd ref="290310821"/>
    <nd ref="290310464"/>
    <nd ref="267004600"/>
    <nd ref="347140191"/>
    <nd ref="290309135"/>
    <nd ref="282813450"/>
    <nd ref="282813452"/>
    <nd ref="282813525"/>
    <nd ref="282813526"/>
    <nd ref="282813480"/>
    <tag k="highway" v="secondary"/>
    <tag k="is_in" v="Werribee,Victoria,Australia"/>
    <tag k="lanes" v="1"/>
    <tag k="name" v="Heaths Road"/>
    <tag k="oneway" v="yes"/>
    <tag k="postal_code" v="3030"/>
    <tag k="ref" v="C701"/>
    <tag k="source" v="nearmap"/>
  </way>
  <way id="13593739" version="4" timestamp="2011-02-24T03:58:55Z" uid="4467" user="Rosscoe" changeset="7378631">
    <nd ref="125090222"/>
    <nd ref="125107322"/>
    <nd ref="125090016"/>
    <tag k="highway" v="tertiary"/>
    <tag k="name" v="Tarneit Road"/>
    <tag k="oneway" v="yes"/>
  </way>
  <way id="13593752" version="3" timestamp="2011-02-24T03:58:21Z" uid="4467" user="Rosscoe" changeset="7378631">
    <nd ref="125090016"/>
    <nd ref="125107323"/>
    <nd ref="125090226"/>
    <tag k="highway" v="tertiary"/>
    <tag k="name" v="Tarneit Road"/>
    <tag k="oneway" v="yes"/>
  </way>
  <way id="13593805" version="5" timestamp="2011-02-24T03:58:26Z" uid="4467" user="Rosscoe" changeset="7378631">
    <nd ref="1169362633"/>
    <nd ref="125108097"/>
    <nd ref="125108099"/>
    <tag k="highway" v="tertiary"/>
    <tag k="name" v="Shaws Road"/>
    <tag k="oneway" v="yes"/>
  </way>
  <way id="13593844" version="3" timestamp="2011-02-24T03:58:41Z" uid="4467" user="Rosscoe" changeset="7378631">
    <nd ref="125090219"/>
    <nd ref="125108388"/>
    <nd ref="38723835"/>
    <tag k="highway" v="tertiary"/>
    <tag k="name" v="Shaws Road"/>
    <tag k="oneway" v="yes"/>
  </way>
  <way id="13593901" version="2" timestamp="2011-02-24T03:58:24Z" uid="4467" user="Rosscoe" changeset="7378631">
    <nd ref="38723835"/>
    <nd ref="125108390"/>
    <nd ref="1169362645"/>
    <tag k="highway" v="tertiary"/>
    <tag k="name" v="Shaws Road"/>
    <tag k="oneway" v="yes"/>
  </way>
  <way id="13593908" version="3" timestamp="2011-02-24T03:59:00Z" uid="4467" user="Rosscoe" changeset="7378631">
    <nd ref="125108099"/>
    <nd ref="125108100"/>
    <nd ref="125090215"/>
    <tag k="highway" v="tertiary"/>
    <tag k="name" v="Shaws Road"/>
    <tag k="oneway" v="yes"/>
  </way>
</osm>
