<?xml version='1.0' encoding='UTF-8'?>
<osm version="0.6" generator="libosmium/2.20.0">
  <way id="13637774" version="2" timestamp="2009-06-21T01:57:09Z" uid="4467" user="Rosscoe" changeset="1579725">
    <nd ref="125558598"/>
    <nd ref="125558634"/>
    <nd ref="125558671"/>
    <nd ref="125558706"/>
    <nd ref="125558739"/>
    <nd ref="125558766"/>
    <nd ref="125558792"/>
    <nd ref="125558822"/>
    <nd ref="125558852"/>
    <nd ref="125558884"/>
    <nd ref="125558912"/>
    <nd ref="125558932"/>
    <nd ref="125558949"/>
    <tag k="created_by" v="JOSM"/>
    <tag k="highway" v="unpaved"/>
    <tag k="name" v="Toranto Rd"/>
  </way>
  <way id="13637774" version="3" timestamp="2009-06-21T01:57:22Z" uid="4467" user="Rosscoe" changeset="1579725">
    <nd ref="125558598"/>
    <nd ref="125558634"/>
    <nd ref="125558671"/>
    <nd ref="125558706"/>
    <nd ref="125558739"/>
    <nd ref="125558766"/>
    <nd ref="125558792"/>
    <nd ref="125558822"/>
    <nd ref="125558852"/>
    <nd ref="125558884"/>
    <nd ref="125558912"/>
    <nd ref="125558932"/>
    <nd ref="125558949"/>
    <tag k="created_by" v="JOSM"/>
    <tag k="highway" v="unclassified"/>
    <tag k="name" v="Toranto Rd"/>
  </way>
  <way id="13637774" version="4" timestamp="2009-06-21T01:58:43Z" uid="4467" user="Rosscoe" changeset="1579725">
    <nd ref="125558598"/>
    <nd ref="125558634"/>
    <nd ref="125558671"/>
    <nd ref="125558706"/>
    <nd ref="125558739"/>
    <nd ref="125558766"/>
    <nd ref="125558792"/>
    <nd ref="125558822"/>
    <nd ref="125558852"/>
    <nd ref="125558884"/>
    <nd ref="125558912"/>
    <nd ref="125558932"/>
    <nd ref="125558949"/>
    <tag k="created_by" v="JOSM"/>
    <tag k="highway" v="unclassified"/>
    <tag k="name" v="Toranto Rd"/>
    <tag k="surface" v="unpaved"/>
  </way>
  <way id="13637790" version="9" timestamp="2010-05-30T14:13:12Z" uid="4467" user="Rosscoe" changeset="4852399">
    <nd ref="82453390"/>
    <nd ref="82453391"/>
    <nd ref="82450286"/>
    <tag k="highway" v="trunk"/>
    <tag k="name" v="Bussell Highway"/>
    <tag k="oneway" v="yes"/>
    <tag k="source" v="nearmap"/>
  </way>
  <way id="13637802" version="4" timestamp="2010-06-02T05:51:35Z" uid="4467" user="Rosscoe" changeset="4881008">
    <nd ref="125561394"/>
    <nd ref="125561445"/>
    <tag k="created_by" v="JOSM"/>
    <tag k="highway" v="secondary"/>
    <tag k="name" v="Queen Street"/>
  </way>
  <way id="13637805" version="4" timestamp="2010-06-02T05:51:31Z" uid="4467" user="Rosscoe" changeset="4881008">
    <nd ref="125561445"/>
    <nd ref="125561418"/>
    <tag k="created_by" v="JOSM"/>
    <tag k="highway" v="secondary"/>
    <tag k="name" v="Queen Street"/>
  </way>
  <way id="13637809" version="7" timestamp="2010-04-20T04:06:14Z" uid="4467" user="Rosscoe" changeset="4474175">
    <nd ref="125561445"/>
    <nd ref="702343749"/>
    <tag k="highway" v="secondary"/>
    <tag k="name" v="Queen Street"/>
  </way>
  <way id="13637814" version="5" timestamp="2010-05-05T05:14:02Z" uid="4467" user="Rosscoe" changeset="4609894">
    <nd ref="125561418"/>
    <nd ref="125561491"/>
    <tag k="highway" v="residential"/>
    <tag k="name" v="Albert Road"/>
  </way>
  <way id="13637814" version="6" timestamp="2010-07-09T06:32:30Z" uid="74617" user="JohnSmith" changeset="5171128">
    <nd ref="125561418"/>
    <nd ref="125561491"/>
    <tag k="highway" v="residential"/>
    <tag k="maxspeed" v="50"/>
    <tag k="maxspeed:source" v="default residential speed limit in Australia"/>
    <tag k="name" v="Albert Road"/>
  </way>
  <way id="13637816" version="5" timestamp="2010-05-05T05:14:03Z" uid="4467" user="Rosscoe" changeset="4609894">
    <nd ref="125561491"/>
    <nd ref="125560925"/>
    <tag k="highway" v="residential"/>
    <tag k="name" v="Albert Road"/>
  </way>
  <way id="13637816" version="6" timestamp="2010-07-09T06:34:15Z" uid="74617" user="JohnSmith" changeset="5171128">
    <nd ref="125561491"/>
    <nd ref="125560925"/>
    <tag k="highway" v="residential"/>
    <tag k="maxspeed" v="50"/>
    <tag k="maxspeed:source" v="default residential speed limit in Australia"/>
    <tag k="name" v="Albert Road"/>
  </way>
  <way id="13637819" version="5" timestamp="2010-04-20T04:06:14Z" uid="4467" user="Rosscoe" changeset="4474175">
    <nd ref="125561491"/>
    <nd ref="702343716"/>
    <tag k="highway" v="residential"/>
    <tag k="name" v="Albert Road"/>
  </way>
  <way id="13637819" version="6" timestamp="2010-07-09T06:33:21Z" uid="74617" user="JohnSmith" changeset="5171128">
    <nd ref="125561491"/>
    <nd ref="702343716"/>
    <tag k="highway" v="residential"/>
    <tag k="maxspeed" v="50"/>
    <tag k="maxspeed:source" v="default residential speed limit in Australia"/>
    <tag k="name" v="Albert Road"/>
  </way>
  <way id="13637822" version="5" timestamp="2010-04-20T04:06:15Z" uid="4467" user="Rosscoe" changeset="4474175">
    <nd ref="702343747"/>
    <nd ref="125561562"/>
    <tag k="highway" v="residential"/>
    <tag k="name" v="Prince Street"/>
  </way>
  <way id="13637822" version="6" timestamp="2010-07-09T06:33:44Z" uid="74617" user="JohnSmith" changeset="5171128">
    <nd ref="702343747"/>
    <nd ref="125561562"/>
    <tag k="highway" v="residential"/>
    <tag k="maxspeed" v="50"/>
    <tag k="maxspeed:source" v="default residential speed limit in Australia"/>
    <tag k="name" v="Prince Street"/>
  </way>
  <way id="13637826" version="7" timestamp="2010-04-20T04:06:15Z" uid="4467" user="Rosscoe" changeset="4474175">
    <nd ref="125561591"/>
    <nd ref="702343761"/>
    <tag k="highway" v="residential"/>
    <tag k="name" v="Kent Street"/>
  </way>
  <way id="13637826" version="8" timestamp="2010-07-09T06:33:53Z" uid="74617" user="JohnSmith" changeset="5171128">
    <nd ref="125561591"/>
    <nd ref="702343761"/>
    <tag k="highway" v="residential"/>
    <tag k="maxspeed" v="50"/>
    <tag k="maxspeed:source" v="default residential speed limit in Australia"/>
    <tag k="name" v="Kent Street"/>
  </way>
  <way id="13637831" version="8" timestamp="2010-06-01T14:15:04Z" uid="4467" user="Rosscoe" changeset="4874893">
    <nd ref="125561681"/>
    <nd ref="634735433"/>
    <nd ref="125561689"/>
    <nd ref="643681255"/>
    <nd ref="125561698"/>
    <nd ref="643681199"/>
    <nd ref="634723664"/>
    <nd ref="362101171"/>
    <nd ref="634723665"/>
    <nd ref="634723667"/>
    <nd ref="634723652"/>
    <tag k="highway" v="residential"/>
    <tag k="name" v="Duchess Street"/>
  </way>
  <way id="13637831" version="9" timestamp="2010-07-09T06:34:43Z" uid="74617" user="JohnSmith" changeset="5171128">
    <nd ref="125561681"/>
    <nd ref="634735433"/>
    <nd ref="125561689"/>
    <nd ref="643681255"/>
    <nd ref="125561698"/>
    <nd ref="643681199"/>
    <nd ref="634723664"/>
    <nd ref="362101171"/>
    <nd ref="634723665"/>
    <nd ref="634723667"/>
    <nd ref="634723652"/>
    <tag k="highway" v="residential"/>
    <tag k="maxspeed" v="50"/>
    <tag k="maxspeed:source" v="default residential speed limit in Australia"/>
    <tag k="name" v="Duchess Street"/>
  </way>
  <way id="13637834" version="6" timestamp="2010-04-20T04:06:14Z" uid="4467" user="Rosscoe" changeset="4474175">
    <nd ref="125561681"/>
    <nd ref="634735430"/>
    <nd ref="634735431"/>
    <nd ref="702343725"/>
    <tag k="highway" v="residential"/>
    <tag k="name" v="Brown Street"/>
  </way>
  <way id="13637834" version="7" timestamp="2010-07-09T06:31:57Z" uid="74617" user="JohnSmith" changeset="5171128">
    <nd ref="125561681"/>
    <nd ref="634735430"/>
    <nd ref="634735431"/>
    <nd ref="702343725"/>
    <tag k="highway" v="residential"/>
    <tag k="maxspeed" v="50"/>
    <tag k="maxspeed:source" v="default residential speed limit in Australia"/>
    <tag k="name" v="Brown Street"/>
  </way>
  <way id="13637839" version="6" timestamp="2010-04-20T04:06:14Z" uid="4467" user="Rosscoe" changeset="4474175">
    <nd ref="702343721"/>
    <nd ref="702343712"/>
    <tag k="highway" v="residential"/>
    <tag k="name" v="Harris Road"/>
  </way>
  <way id="13637839" version="7" timestamp="2010-07-09T06:32:48Z" uid="74617" user="JohnSmith" changeset="5171128">
    <nd ref="702343721"/>
    <nd ref="702343712"/>
    <tag k="highway" v="residential"/>
    <tag k="maxspeed" v="50"/>
    <tag k="maxspeed:source" v="default residential speed limit in Australia"/>
    <tag k="name" v="Harris Road"/>
  </way>
  <way id="13637842" version="6" timestamp="2010-04-20T04:06:14Z" uid="4467" user="Rosscoe" changeset="4474175">
    <nd ref="125561562"/>
    <nd ref="634712974"/>
    <nd ref="702343714"/>
    <tag k="highway" v="residential"/>
    <tag k="name" v="Stanley Street"/>
  </way>
  <way id="13637842" version="7" timestamp="2010-07-09T06:34:37Z" uid="74617" user="JohnSmith" changeset="5171128">
    <nd ref="125561562"/>
    <nd ref="634712974"/>
    <nd ref="702343714"/>
    <tag k="highway" v="residential"/>
    <tag k="maxspeed" v="50"/>
    <tag k="maxspeed:source" v="default residential speed limit in Australia"/>
    <tag k="name" v="Stanley Street"/>
  </way>
  <way id="13637844" version="8" timestamp="2010-06-01T03:01:05Z" uid="4467" user="Rosscoe" changeset="4871192">
    <nd ref="240435413"/>
    <nd ref="634712893"/>
    <tag k="highway" v="secondary"/>
    <tag k="name" v="Peel Terrace"/>
  </way>
  <way id="13637850" version="8" timestamp="2010-05-03T14:53:40Z" uid="4467" user="Rosscoe" changeset="4595566">
    <nd ref="125561866"/>
    <nd ref="125561900"/>
    <nd ref="125561932"/>
    <nd ref="125561969"/>
    <nd ref="634735503"/>
    <nd ref="634735505"/>
    <nd ref="125561997"/>
    <nd ref="125562027"/>
    <nd ref="125562059"/>
    <nd ref="351493392"/>
    <nd ref="634735635"/>
    <nd ref="125562150"/>
    <nd ref="634735736"/>
    <nd ref="125562176"/>
    <nd ref="718872059"/>
    <nd ref="718871908"/>
    <nd ref="125562233"/>
    <nd ref="718871812"/>
    <nd ref="718871792"/>
    <nd ref="718871589"/>
    <tag k="highway" v="secondary"/>
    <tag k="name" v="Layman Road"/>
  </way>
  <way id="13637857" version="10" timestamp="2010-04-20T04:06:15Z" uid="4467" user="Rosscoe" changeset="4474175">
    <nd ref="240435590"/>
    <nd ref="702343773"/>
    <tag k="highway" v="residential"/>
    <tag k="name" v="Marine Terrace"/>
  </way>
  <way id="13637857" version="11" timestamp="2010-07-09T06:33:48Z" uid="74617" user="JohnSmith" changeset="5171128">
    <nd ref="240435590"/>
    <nd ref="702343773"/>
    <tag k="highway" v="residential"/>
    <tag k="maxspeed" v="50"/>
    <tag k="maxspeed:source" v="default residential speed limit in Australia"/>
    <tag k="name" v="Marine Terrace"/>
  </way>
  <way id="13637860" version="5" timestamp="2010-06-02T01:53:00Z" uid="4467" user="Rosscoe" changeset="4880040">
    <nd ref="125564128"/>
    <nd ref="627269296"/>
    <nd ref="627269299"/>
    <nd ref="627269298"/>
    <nd ref="125564142"/>
    <tag k="highway" v="residential"/>
    <tag k="name" v="South Road"/>
  </way>
  <way id="13637860" version="6" timestamp="2010-07-09T06:34:10Z" uid="74617" user="JohnSmith" changeset="5171128">
    <nd ref="125564128"/>
    <nd ref="627269296"/>
    <nd ref="627269299"/>
    <nd ref="627269298"/>
    <nd ref="125564142"/>
    <tag k="highway" v="residential"/>
    <tag k="maxspeed" v="50"/>
    <tag k="maxspeed:source" v="default residential speed limit in Australia"/>
    <tag k="name" v="South Road"/>
  </way>
  <way id="13637863" version="9" timestamp="2010-05-14T14:13:36Z" uid="4467" user="Rosscoe" changeset="4696511">
    <nd ref="125564142"/>
    <nd ref="627269294"/>
    <nd ref="125564166"/>
    <nd ref="634735460"/>
    <nd ref="634735466"/>
    <nd ref="125564195"/>
    <nd ref="634735471"/>
    <nd ref="125564216"/>
    <nd ref="125564252"/>
    <nd ref="125564290"/>
    <nd ref="125564324"/>
    <nd ref="634735544"/>
    <nd ref="125564352"/>
    <nd ref="634735542"/>
    <nd ref="125564372"/>
    <nd ref="634735631"/>
    <nd ref="125564434"/>
    <nd ref="634735793"/>
    <nd ref="125564462"/>
    <nd ref="125564519"/>
    <nd ref="599052894"/>
    <nd ref="125564585"/>
    <nd ref="734051515"/>
    <nd ref="125564637"/>
    <tag k="highway" v="residential"/>
    <tag k="name" v="Geographe Bay Road"/>
  </way>
  <way id="13637863" version="10" timestamp="2010-07-09T06:22:30Z" uid="74617" user="JohnSmith" changeset="5171128">
    <nd ref="125564142"/>
    <nd ref="627269294"/>
    <nd ref="125564166"/>
    <nd ref="634735460"/>
    <nd ref="634735466"/>
    <nd ref="125564195"/>
    <nd ref="634735471"/>
    <nd ref="125564216"/>
    <nd ref="125564252"/>
    <nd ref="125564290"/>
    <nd ref="125564324"/>
    <nd ref="634735544"/>
    <nd ref="125564352"/>
    <nd ref="634735542"/>
    <nd ref="125564372"/>
    <nd ref="634735631"/>
    <nd ref="125564434"/>
    <nd ref="634735793"/>
    <nd ref="125564462"/>
    <nd ref="125564519"/>
    <nd ref="599052894"/>
    <nd ref="125564585"/>
    <nd ref="734051515"/>
    <nd ref="125564637"/>
    <tag k="highway" v="residential"/>
    <tag k="maxspeed" v="50"/>
    <tag k="maxspeed:source" v="default residential speed limit in Australia"/>
    <tag k="name" v="Geographe Bay Road"/>
  </way>
  <way id="13637874" version="14" timestamp="2011-03-29T14:57:38Z" uid="4467" user="Rosscoe" changeset="7707489"/>
  <way id="13637877" version="15" timestamp="2011-03-29T14:57:26Z" uid="4467" user="Rosscoe" changeset="7707489">
    <nd ref="125565213"/>
    <nd ref="1224332430"/>
    <nd ref="1224332446"/>
    <nd ref="1224332471"/>
    <nd ref="1224332479"/>
    <nd ref="1224332495"/>
    <nd ref="1224332503"/>
    <nd ref="1224332523"/>
    <nd ref="1224332537"/>
    <nd ref="1224332556"/>
    <nd ref="1224332418"/>
    <nd ref="1224332428"/>
    <nd ref="1224332436"/>
    <nd ref="1224332542"/>
    <nd ref="1224332484"/>
    <nd ref="1224332498"/>
    <nd ref="1224332451"/>
    <nd ref="1224332525"/>
    <nd ref="634775231"/>
    <nd ref="125565525"/>
    <nd ref="125565534"/>
    <nd ref="125565546"/>
    <nd ref="634775280"/>
    <nd ref="634775283"/>
    <nd ref="634775287"/>
    <nd ref="643681110"/>
    <tag k="highway" v="primary"/>
    <tag k="name" v="Bussell Highway"/>
    <tag k="oneway" v="yes"/>
    <tag k="source" v="nearmap"/>
  </way>
</osm>
