<?xml version='1.0' encoding='UTF-8'?>
<osm version="0.6" generator="libosmium/2.20.0">
  <way id="13640112" version="6" timestamp="2010-02-09T02:05:28Z" uid="74617" user="JohnSmith" changeset="3828705">
    <nd ref="125579778"/>
    <nd ref="125006221"/>
    <tag k="highway" v="residential"/>
    <tag k="maxspeed" v="50"/>
    <tag k="name" v="Bungunya Street"/>
  </way>
  <way id="13640174" version="5" timestamp="2010-02-09T02:05:26Z" uid="74617" user="JohnSmith" changeset="3828705">
    <nd ref="125006220"/>
    <nd ref="125592831"/>
    <tag k="highway" v="residential"/>
    <tag k="maxspeed" v="50"/>
    <tag k="name" v="Hindmarsh Street"/>
  </way>
  <way id="13640251" version="6" timestamp="2010-02-09T02:05:28Z" uid="74617" user="JohnSmith" changeset="3828705">
    <nd ref="125006218"/>
    <nd ref="125593789"/>
    <tag k="highway" v="residential"/>
    <tag k="maxspeed" v="50"/>
    <tag k="name" v="Eames Street"/>
  </way>
  <way id="13640349" version="4" timestamp="2010-02-09T02:05:25Z" uid="74617" user="JohnSmith" changeset="3828705">
    <nd ref="320900163"/>
    <nd ref="125511133"/>
    <nd ref="125533966"/>
    <nd ref="125533957"/>
    <nd ref="125592831"/>
    <nd ref="125593789"/>
    <nd ref="125594825"/>
    <tag k="highway" v="residential"/>
    <tag k="maxspeed" v="50"/>
    <tag k="name" v="Railway Parade"/>
  </way>
  <way id="13640506" version="7" timestamp="2010-02-09T02:05:28Z" uid="74617" user="JohnSmith" changeset="3828705">
    <nd ref="125579779"/>
    <nd ref="125006223"/>
    <tag k="highway" v="residential"/>
    <tag k="maxspeed" v="50"/>
    <tag k="name" v="Walton Street"/>
  </way>
  <way id="13640681" version="5" timestamp="2010-04-20T13:49:35Z" uid="4467" user="Rosscoe" changeset="4477381">
    <nd ref="125537053"/>
    <nd ref="702514495"/>
    <nd ref="125598458"/>
    <nd ref="125598459"/>
    <nd ref="125598460"/>
    <nd ref="125598461"/>
    <nd ref="125598462"/>
    <nd ref="125598463"/>
    <nd ref="125598465"/>
    <nd ref="125598466"/>
    <nd ref="125598467"/>
    <tag k="highway" v="residential"/>
    <tag k="name" v="Hilltop Place"/>
  </way>
  <way id="13640681" version="6" timestamp="2010-07-06T09:19:27Z" uid="74617" user="JohnSmith" changeset="5147679">
    <nd ref="125537053"/>
    <nd ref="702514495"/>
    <nd ref="125598458"/>
    <nd ref="125598459"/>
    <nd ref="125598460"/>
    <nd ref="125598461"/>
    <nd ref="125598462"/>
    <nd ref="125598463"/>
    <nd ref="125598465"/>
    <nd ref="125598466"/>
    <nd ref="125598467"/>
    <tag k="highway" v="residential"/>
    <tag k="maxspeed" v="50"/>
    <tag k="maxspeed:source" v="default residential speed limit in Australia"/>
    <tag k="name" v="Hilltop Place"/>
  </way>
  <way id="13640810" version="5" timestamp="2010-07-06T09:17:33Z" uid="74617" user="JohnSmith" changeset="5147679">
    <nd ref="125579776"/>
    <nd ref="125006217"/>
    <tag k="highway" v="residential"/>
    <tag k="maxspeed" v="50"/>
    <tag k="maxspeed:source" v="default residential speed limit in Australia"/>
    <tag k="name" v="Meredith Street"/>
  </way>
  <way id="13640815" version="6" timestamp="2010-02-09T02:05:28Z" uid="74617" user="JohnSmith" changeset="3828705">
    <nd ref="125579777"/>
    <nd ref="125006219"/>
    <tag k="highway" v="residential"/>
    <tag k="maxspeed" v="50"/>
    <tag k="name" v="Paradise Street"/>
  </way>
  <way id="13640820" version="7" timestamp="2010-07-06T09:19:03Z" uid="74617" user="JohnSmith" changeset="5147679">
    <nd ref="125579774"/>
    <nd ref="359324820"/>
    <nd ref="561587995"/>
    <nd ref="558352025"/>
    <nd ref="125002854"/>
    <tag k="highway" v="residential"/>
    <tag k="maxspeed" v="50"/>
    <tag k="maxspeed:source" v="default residential speed limit in Australia"/>
    <tag k="name" v="Victor Street"/>
  </way>
  <way id="13640820" version="9" timestamp="2011-03-04T11:40:42Z" uid="4467" user="Rosscoe" changeset="7453655">
    <nd ref="1185734908"/>
    <nd ref="125579774"/>
    <nd ref="359324820"/>
    <nd ref="561587995"/>
    <nd ref="558352025"/>
    <nd ref="125002854"/>
    <tag k="highway" v="residential"/>
    <tag k="maxspeed" v="50"/>
    <tag k="name" v="Victor Street"/>
    <tag k="source" v="GPS"/>
    <tag k="surface" v="asphalt"/>
  </way>
</osm>
