<?xml version='1.0' encoding='UTF-8'?>
<osm version="0.6" generator="libosmium/2.20.0">
  <way id="13656128" version="2" timestamp="2007-12-24T23:36:00Z" uid="1066" user="pavel" changeset="420681">
    <nd ref="125787772"/>
    <nd ref="125793940"/>
    <tag k="created_by" v="JOSM"/>
    <tag k="highway" v="residential"/>
  </way>
  <way id="13656128" version="4" timestamp="2008-09-16T10:44:43Z" uid="1066" user="pavel" changeset="646258">
    <nd ref="244252286"/>
    <nd ref="125787772"/>
    <nd ref="125793940"/>
    <tag k="created_by" v="JOSM"/>
    <tag k="highway" v="residential"/>
    <tag k="name" v="Stehlíkova"/>
    <tag k="name:source" v="nameit/uir-adr"/>
  </way>
  <way id="13656130" version="2" timestamp="2007-12-24T23:35:27Z" uid="1066" user="pavel" changeset="420681">
    <nd ref="125787800"/>
    <nd ref="125793946"/>
    <tag k="created_by" v="JOSM"/>
    <tag k="highway" v="residential"/>
  </way>
  <way id="13656130" version="3" timestamp="2008-09-16T10:44:53Z" uid="1066" user="pavel" changeset="646258">
    <nd ref="125787800"/>
    <nd ref="125793946"/>
    <tag k="created_by" v="JOSM"/>
    <tag k="highway" v="residential"/>
    <tag k="name" v="Lysolajská"/>
    <tag k="name:source" v="nameit/uir-adr"/>
  </way>
  <way id="13656131" version="2" timestamp="2007-12-24T23:35:48Z" uid="1066" user="pavel" changeset="420681">
    <nd ref="125787780"/>
    <nd ref="125793961"/>
    <nd ref="125793969"/>
    <tag k="created_by" v="JOSM"/>
    <tag k="highway" v="residential"/>
  </way>
  <way id="13656131" version="3" timestamp="2008-09-16T10:42:57Z" uid="1066" user="pavel" changeset="646258">
    <nd ref="125787780"/>
    <nd ref="125793961"/>
    <nd ref="125793969"/>
    <tag k="created_by" v="JOSM"/>
    <tag k="highway" v="residential"/>
    <tag k="name" v="Májová"/>
    <tag k="name:source" v="nameit/uir-adr"/>
  </way>
  <way id="13656132" version="2" timestamp="2007-12-24T23:35:58Z" uid="1066" user="pavel" changeset="420681">
    <nd ref="125793969"/>
    <nd ref="125793971"/>
    <nd ref="125787800"/>
    <tag k="created_by" v="JOSM"/>
    <tag k="highway" v="residential"/>
  </way>
  <way id="13656132" version="3" timestamp="2008-09-16T10:44:31Z" uid="1066" user="pavel" changeset="646258">
    <nd ref="125793969"/>
    <nd ref="125793971"/>
    <nd ref="125787800"/>
    <tag k="created_by" v="JOSM"/>
    <tag k="highway" v="residential"/>
    <tag k="name" v="Lysolajská"/>
    <tag k="name:source" v="nameit/uir-adr"/>
  </way>
  <way id="13656133" version="2" timestamp="2007-12-24T23:34:10Z" uid="1066" user="pavel" changeset="420681">
    <nd ref="125789475"/>
    <nd ref="28023903"/>
    <tag k="created_by" v="JOSM"/>
    <tag k="highway" v="residential"/>
  </way>
  <way id="13656133" version="3" timestamp="2008-09-16T10:42:53Z" uid="1066" user="pavel" changeset="646258">
    <nd ref="125789475"/>
    <nd ref="28023903"/>
    <tag k="created_by" v="JOSM"/>
    <tag k="highway" v="residential"/>
    <tag k="name" v="U Nového Suchdola"/>
    <tag k="name:source" v="nameit/uir-adr"/>
  </way>
  <way id="13656135" version="2" timestamp="2008-09-16T10:42:58Z" uid="1066" user="pavel" changeset="646258">
    <nd ref="125789480"/>
    <nd ref="125793956"/>
    <nd ref="125793961"/>
    <nd ref="125787809"/>
    <nd ref="125793940"/>
    <nd ref="125793966"/>
    <tag k="created_by" v="JOSM"/>
    <tag k="highway" v="residential"/>
    <tag k="name" v="Osvobození"/>
    <tag k="name:source" v="nameit/uir-adr"/>
  </way>
  <way id="13656402" version="2" timestamp="2007-12-24T23:34:39Z" uid="1066" user="pavel" changeset="420681">
    <nd ref="125796290"/>
    <nd ref="125796291"/>
    <nd ref="125796294"/>
    <tag k="created_by" v="JOSM"/>
    <tag k="highway" v="residential"/>
  </way>
  <way id="13656402" version="3" timestamp="2008-09-16T10:42:26Z" uid="1066" user="pavel" changeset="646258">
    <nd ref="125796290"/>
    <nd ref="125796291"/>
    <nd ref="125796294"/>
    <tag k="created_by" v="JOSM"/>
    <tag k="highway" v="residential"/>
    <tag k="name" v="Při hranici"/>
    <tag k="name:source" v="nameit/uir-adr"/>
  </way>
  <way id="13656403" version="2" timestamp="2007-12-24T23:34:55Z" uid="1066" user="pavel" changeset="420681">
    <nd ref="125796294"/>
    <nd ref="125796298"/>
    <nd ref="125796301"/>
    <nd ref="125796303"/>
    <tag k="created_by" v="JOSM"/>
    <tag k="highway" v="residential"/>
  </way>
  <way id="13656403" version="3" timestamp="2008-09-16T10:44:21Z" uid="1066" user="pavel" changeset="646258">
    <nd ref="125796294"/>
    <nd ref="125796298"/>
    <nd ref="125796301"/>
    <nd ref="125796303"/>
    <tag k="created_by" v="JOSM"/>
    <tag k="highway" v="residential"/>
    <tag k="name" v="Výjezdní"/>
    <tag k="name:source" v="nameit/uir-adr"/>
  </way>
  <way id="13656405" version="2" timestamp="2007-12-24T23:35:22Z" uid="1066" user="pavel" changeset="420681">
    <nd ref="125787794"/>
    <nd ref="125796306"/>
    <nd ref="125796309"/>
    <nd ref="125796313"/>
    <nd ref="125796315"/>
    <nd ref="125796317"/>
    <nd ref="125796319"/>
    <nd ref="125796323"/>
    <nd ref="125787785"/>
    <nd ref="125796327"/>
    <nd ref="125796329"/>
    <nd ref="125796331"/>
    <nd ref="125796333"/>
    <nd ref="125796335"/>
    <nd ref="125796336"/>
    <nd ref="125796339"/>
    <nd ref="125796342"/>
    <nd ref="125796344"/>
    <nd ref="125787794"/>
    <tag k="created_by" v="JOSM"/>
    <tag k="highway" v="residential"/>
  </way>
  <way id="13656405" version="3" timestamp="2008-09-16T10:44:20Z" uid="1066" user="pavel" changeset="646258">
    <nd ref="125787794"/>
    <nd ref="125796306"/>
    <nd ref="125796309"/>
    <nd ref="125796313"/>
    <nd ref="125796315"/>
    <nd ref="125796317"/>
    <nd ref="125796319"/>
    <nd ref="125796323"/>
    <nd ref="125787785"/>
    <nd ref="125796327"/>
    <nd ref="125796329"/>
    <nd ref="125796331"/>
    <nd ref="125796333"/>
    <nd ref="125796335"/>
    <nd ref="125796336"/>
    <nd ref="125796339"/>
    <nd ref="125796342"/>
    <nd ref="125796344"/>
    <nd ref="125787794"/>
    <tag k="created_by" v="JOSM"/>
    <tag k="highway" v="residential"/>
    <tag k="name" v="Internacionální"/>
    <tag k="name:source" v="nameit/uir-adr"/>
  </way>
  <way id="13656406" version="2" timestamp="2007-12-24T23:35:41Z" uid="1066" user="pavel" changeset="420681">
    <nd ref="125793956"/>
    <nd ref="125796335"/>
    <tag k="created_by" v="JOSM"/>
    <tag k="highway" v="residential"/>
  </way>
  <way id="13656406" version="3" timestamp="2008-09-16T10:42:21Z" uid="1066" user="pavel" changeset="646258">
    <nd ref="125793956"/>
    <nd ref="125796335"/>
    <tag k="created_by" v="JOSM"/>
    <tag k="highway" v="residential"/>
    <tag k="name" v="Osvobození"/>
    <tag k="name:source" v="nameit/uir-adr"/>
  </way>
</osm>
