<?xml version='1.0' encoding='UTF-8'?>
<osm version="0.6" generator="libosmium/2.20.0">
  <way id="13973012" version="14" timestamp="2010-04-30T14:05:08Z" uid="74617" user="JohnSmith" changeset="4566032">
    <nd ref="132345285"/>
    <nd ref="132345286"/>
    <nd ref="132338137"/>
    <nd ref="132338134"/>
    <nd ref="132345300"/>
    <nd ref="315019858"/>
    <tag k="highway" v="residential"/>
    <tag k="is_in" v="Sunbury,Victoria,Australia"/>
    <tag k="name" v="O&apos;Shannassy Street"/>
    <tag k="postal_code" v="3429"/>
  </way>
  <way id="13973012" version="15" timestamp="2010-05-01T02:54:48Z" uid="74617" user="JohnSmith" changeset="4571237">
    <nd ref="132345285"/>
    <nd ref="132345286"/>
    <nd ref="132338137"/>
    <nd ref="132338134"/>
    <nd ref="132345300"/>
    <nd ref="315019858"/>
    <tag k="highway" v="residential"/>
    <tag k="name" v="O&apos;Shannassy Street"/>
  </way>
  <way id="13973012" version="16" timestamp="2010-05-04T07:21:18Z" uid="4467" user="Rosscoe" changeset="4601753">
    <nd ref="132345285"/>
    <nd ref="132345286"/>
    <nd ref="132338137"/>
    <nd ref="132338134"/>
    <nd ref="132345300"/>
    <nd ref="720575135"/>
    <tag k="highway" v="residential"/>
    <tag k="name" v="O&apos;Shannassy Street"/>
  </way>
  <way id="13973012" version="17" timestamp="2010-07-08T17:37:46Z" uid="74617" user="JohnSmith" changeset="5167338">
    <nd ref="132345285"/>
    <nd ref="132345286"/>
    <nd ref="132338137"/>
    <nd ref="132338134"/>
    <nd ref="132345300"/>
    <nd ref="720575135"/>
    <tag k="highway" v="residential"/>
    <tag k="maxspeed" v="50"/>
    <tag k="maxspeed:source" v="default residential speed limit in Australia"/>
    <tag k="name" v="O&apos;Shannassy Street"/>
  </way>
  <way id="13973205" version="9" timestamp="2010-04-30T14:05:09Z" uid="74617" user="JohnSmith" changeset="4566032">
    <nd ref="132334604"/>
    <nd ref="132345285"/>
    <nd ref="298348049"/>
    <nd ref="132346834"/>
    <nd ref="132346842"/>
    <nd ref="298347894"/>
    <nd ref="298347602"/>
    <tag k="highway" v="residential"/>
    <tag k="is_in" v="Sunbury,Victoria,Australia"/>
    <tag k="name" v="Shields Street"/>
    <tag k="postal_code" v="3429"/>
  </way>
  <way id="13973205" version="10" timestamp="2010-04-30T14:25:54Z" uid="74617" user="JohnSmith" changeset="4566032">
    <nd ref="132334604"/>
    <nd ref="713391821"/>
    <nd ref="132345285"/>
    <nd ref="298348049"/>
    <nd ref="132346834"/>
    <nd ref="132346842"/>
    <nd ref="298347894"/>
    <nd ref="713391896"/>
    <tag k="highway" v="residential"/>
    <tag k="name" v="Shields Street"/>
  </way>
  <way id="13973205" version="11" timestamp="2010-05-04T07:21:13Z" uid="4467" user="Rosscoe" changeset="4601753">
    <nd ref="720575043"/>
    <nd ref="713391821"/>
    <nd ref="132345285"/>
    <nd ref="720575168"/>
    <nd ref="720575154"/>
    <tag k="highway" v="residential"/>
    <tag k="name" v="Shields Street"/>
  </way>
  <way id="13973205" version="12" timestamp="2010-07-08T17:36:19Z" uid="74617" user="JohnSmith" changeset="5167338">
    <nd ref="720575043"/>
    <nd ref="713391821"/>
    <nd ref="132345285"/>
    <nd ref="720575168"/>
    <nd ref="720575154"/>
    <tag k="highway" v="residential"/>
    <tag k="maxspeed" v="50"/>
    <tag k="maxspeed:source" v="default residential speed limit in Australia"/>
    <tag k="name" v="Shields Street"/>
  </way>
  <way id="13973279" version="5" timestamp="2010-04-30T14:05:12Z" uid="74617" user="JohnSmith" changeset="4566032">
    <nd ref="132333136"/>
    <nd ref="267070791"/>
    <nd ref="132333137"/>
    <nd ref="132342358"/>
    <nd ref="132347887"/>
    <nd ref="132347890"/>
    <nd ref="132347893"/>
    <nd ref="132347210"/>
    <tag k="highway" v="residential"/>
    <tag k="is_in" v="Sunbury,Victoria,Australia"/>
    <tag k="name" v="Brook Street"/>
    <tag k="postal_code" v="3429"/>
  </way>
  <way id="13973279" version="6" timestamp="2010-04-30T18:06:31Z" uid="74617" user="JohnSmith" changeset="4568160">
    <nd ref="132333136"/>
    <nd ref="267070791"/>
    <nd ref="132333137"/>
    <nd ref="132342358"/>
    <nd ref="132347887"/>
    <nd ref="132347890"/>
    <nd ref="132347893"/>
    <nd ref="132347210"/>
    <nd ref="713681790"/>
    <nd ref="713681807"/>
    <nd ref="713681795"/>
    <tag k="highway" v="residential"/>
    <tag k="maxspeed" v="50"/>
    <tag k="name" v="Brook Street"/>
    <tag k="source" v="nearmap"/>
  </way>
  <way id="13973279" version="7" timestamp="2010-05-04T07:21:14Z" uid="4467" user="Rosscoe" changeset="4601753">
    <nd ref="132333136"/>
    <nd ref="267070791"/>
    <nd ref="720575118"/>
    <nd ref="720575049"/>
    <tag k="highway" v="residential"/>
    <tag k="maxspeed" v="50"/>
    <tag k="name" v="Brook Street"/>
    <tag k="source" v="nearmap"/>
  </way>
  <way id="13973416" version="2" timestamp="2007-11-26T11:35:53Z" uid="9581" user="Lobelt" changeset="623243"/>
  <way id="13973422" version="13" timestamp="2009-09-23T13:31:54Z" uid="9581" user="Lobelt" changeset="2595487">
    <nd ref="132350728"/>
    <nd ref="132350742"/>
    <nd ref="132350753"/>
    <nd ref="132350765"/>
    <nd ref="132350780"/>
    <nd ref="132350794"/>
    <nd ref="332499891"/>
    <nd ref="132350864"/>
    <nd ref="332558243"/>
    <nd ref="332576726"/>
    <nd ref="145931618"/>
    <nd ref="145931620"/>
    <nd ref="255716128"/>
    <nd ref="145931629"/>
    <nd ref="145931639"/>
    <nd ref="145931642"/>
    <nd ref="263264792"/>
    <nd ref="33050792"/>
    <tag k="foot" v="no"/>
    <tag k="highway" v="primary"/>
    <tag k="lanes" v="2"/>
    <tag k="name" v="Elsterdamm"/>
    <tag k="nat_ref" v="B 92"/>
    <tag k="oneway" v="yes"/>
    <tag k="ref" v="B 92"/>
  </way>
  <way id="13973677" version="3" timestamp="2010-07-09T06:37:21Z" uid="74617" user="JohnSmith" changeset="5171134">
    <nd ref="132352588"/>
    <nd ref="314933782"/>
    <nd ref="132353363"/>
    <tag k="highway" v="residential"/>
    <tag k="maxspeed" v="50"/>
    <tag k="maxspeed:source" v="default residential speed limit in Australia"/>
  </way>
  <way id="13973993" version="5" timestamp="2010-05-21T14:33:58Z" uid="4467" user="Rosscoe" changeset="4766199">
    <nd ref="132357257"/>
    <nd ref="742603116"/>
    <nd ref="132358611"/>
    <nd ref="253422480"/>
    <tag k="highway" v="residential"/>
    <tag k="name" v="Giles Street"/>
    <tag k="source" v="nearmap"/>
  </way>
  <way id="13973993" version="6" timestamp="2010-05-21T14:37:08Z" uid="4467" user="Rosscoe" changeset="4766199">
    <nd ref="132357257"/>
    <nd ref="742603116"/>
    <nd ref="132358611"/>
    <nd ref="253422480"/>
    <tag k="highway" v="residential"/>
    <tag k="name" v="Giles Street"/>
    <tag k="source" v="nearmap"/>
  </way>
  <way id="13973993" version="7" timestamp="2010-07-09T06:40:23Z" uid="74617" user="JohnSmith" changeset="5171134">
    <nd ref="132357257"/>
    <nd ref="742603116"/>
    <nd ref="132358611"/>
    <nd ref="253422480"/>
    <tag k="highway" v="residential"/>
    <tag k="maxspeed" v="50"/>
    <tag k="maxspeed:source" v="default residential speed limit in Australia"/>
    <tag k="name" v="Giles Street"/>
    <tag k="source" v="nearmap"/>
  </way>
</osm>
