<?xml version='1.0' encoding='UTF-8'?>
<osm version="0.6" generator="libosmium/2.20.0">
  <way id="13978034" version="8" timestamp="2010-07-09T06:22:47Z" uid="74617" user="JohnSmith" changeset="5171134">
    <nd ref="132409776"/>
    <nd ref="678120161"/>
    <tag k="highway" v="residential"/>
    <tag k="maxspeed" v="50"/>
    <tag k="maxspeed:source" v="default residential speed limit in Australia"/>
    <tag k="name" v="Moore Avenue"/>
    <tag k="source:name" v="survey"/>
  </way>
  <way id="13978169" version="2" timestamp="2008-07-04T07:13:22Z" uid="6975" user="ulfl" changeset="389415">
    <nd ref="132412280"/>
    <nd ref="132412281"/>
    <nd ref="132412284"/>
    <tag k="highway" v="pedestrian"/>
    <tag k="name" v="PfarrgÃ¤sli"/>
  </way>
  <way id="13978271" version="5" timestamp="2010-07-09T06:19:43Z" uid="74617" user="JohnSmith" changeset="5171134">
    <nd ref="56932789"/>
    <nd ref="132413526"/>
    <nd ref="56939758"/>
    <tag k="highway" v="residential"/>
    <tag k="maxspeed" v="50"/>
    <tag k="maxspeed:source" v="default residential speed limit in Australia"/>
    <tag k="name" v="Gartrell Street"/>
    <tag k="source:name" v="survey"/>
  </way>
  <way id="13978282" version="5" timestamp="2010-07-09T06:18:16Z" uid="74617" user="JohnSmith" changeset="5171134">
    <nd ref="56939758"/>
    <nd ref="132413781"/>
    <tag k="highway" v="residential"/>
    <tag k="maxspeed" v="50"/>
    <tag k="maxspeed:source" v="default residential speed limit in Australia"/>
    <tag k="name" v="Burnside Court"/>
    <tag k="source:name" v="survey"/>
  </way>
  <way id="13978309" version="5" timestamp="2010-07-09T06:23:07Z" uid="74617" user="JohnSmith" changeset="5171134">
    <nd ref="132413526"/>
    <nd ref="132414009"/>
    <tag k="highway" v="residential"/>
    <tag k="maxspeed" v="50"/>
    <tag k="maxspeed:source" v="default residential speed limit in Australia"/>
    <tag k="name" v="John Street"/>
    <tag k="source:name" v="survey"/>
  </way>
  <way id="13978342" version="6" timestamp="2010-07-09T06:17:42Z" uid="74617" user="JohnSmith" changeset="5171134">
    <nd ref="132412209"/>
    <nd ref="137481355"/>
    <nd ref="132414322"/>
    <tag k="highway" v="residential"/>
    <tag k="maxspeed" v="50"/>
    <tag k="maxspeed:source" v="default residential speed limit in Australia"/>
    <tag k="name" v="Glen Street"/>
  </way>
</osm>
