<?xml version='1.0' encoding='UTF-8'?>
<osm version="0.6" generator="libosmium/2.20.0">
  <way id="14256024" version="1" timestamp="2007-11-27T07:19:49Z" uid="18775" user="drlizau" changeset="629884">
    <nd ref="123405484"/>
    <nd ref="136638337"/>
    <tag k="created_by" v="JOSM"/>
    <tag k="highway" v="minor"/>
    <tag k="name" v="Bilbul Road"/>
    <tag k="surface" v="unpaved"/>
  </way>
  <way id="14256024" version="2" timestamp="2008-01-29T10:13:43Z" uid="18775" user="drlizau" changeset="708790">
    <nd ref="123405484"/>
    <nd ref="136638337"/>
    <tag k="created_by" v="JOSM"/>
    <tag k="highway" v="unclassified"/>
    <tag k="name" v="Bilbul Road"/>
    <tag k="surface" v="unpaved"/>
  </way>
  <way id="14256024" version="3" timestamp="2010-12-16T02:19:10Z" uid="18775" user="drlizau" changeset="6673344">
    <nd ref="123405484"/>
    <nd ref="136638337"/>
    <tag k="highway" v="unclassified"/>
    <tag k="name" v="Bilbul Road"/>
    <tag k="source" v="survey"/>
    <tag k="surface" v="unpaved"/>
  </way>
  <way id="14256027" version="1" timestamp="2007-11-27T07:19:50Z" uid="18775" user="drlizau" changeset="629884">
    <nd ref="136638366"/>
    <nd ref="136638337"/>
    <nd ref="136638388"/>
    <nd ref="129616618"/>
    <nd ref="136638416"/>
    <tag k="created_by" v="JOSM"/>
    <tag k="highway" v="minor"/>
    <tag k="name" v="Bilbul Road"/>
    <tag k="surface" v="unpaved"/>
  </way>
  <way id="14256027" version="2" timestamp="2007-12-11T03:19:54Z" uid="18775" user="drlizau" changeset="264676">
    <nd ref="136638366"/>
    <nd ref="136638337"/>
    <nd ref="136638388"/>
    <nd ref="129616618"/>
    <nd ref="136638416"/>
    <tag k="created_by" v="JOSM"/>
    <tag k="highway" v="minor"/>
    <tag k="name" v="Bilbul Road"/>
    <tag k="surface" v="unpaved"/>
  </way>
  <way id="14256027" version="3" timestamp="2008-01-29T10:13:39Z" uid="18775" user="drlizau" changeset="708790">
    <nd ref="136638366"/>
    <nd ref="136638337"/>
    <nd ref="136638388"/>
    <nd ref="129616618"/>
    <nd ref="136638416"/>
    <tag k="created_by" v="JOSM"/>
    <tag k="highway" v="unclassified"/>
    <tag k="name" v="Bilbul Road"/>
    <tag k="surface" v="unpaved"/>
  </way>
  <way id="14256027" version="4" timestamp="2009-07-18T07:43:13Z" uid="18775" user="drlizau" changeset="1860807">
    <nd ref="136638366"/>
    <nd ref="136638337"/>
    <nd ref="123503084"/>
    <nd ref="136638388"/>
    <nd ref="129616618"/>
    <nd ref="136638416"/>
    <tag k="highway" v="unclassified"/>
    <tag k="name" v="Bilbul Road"/>
    <tag k="surface" v="unpaved"/>
  </way>
  <way id="14256027" version="5" timestamp="2010-12-16T02:19:13Z" uid="18775" user="drlizau" changeset="6673344">
    <nd ref="136638366"/>
    <nd ref="136638337"/>
    <nd ref="123503084"/>
    <nd ref="136638388"/>
    <nd ref="129616618"/>
    <nd ref="136638416"/>
    <tag k="highway" v="unclassified"/>
    <tag k="name" v="Bilbul Road"/>
    <tag k="source" v="survey"/>
    <tag k="surface" v="unpaved"/>
  </way>
  <way id="14256436" version="1" timestamp="2007-11-27T07:24:01Z" uid="18775" user="drlizau" changeset="629884">
    <nd ref="136645956"/>
    <nd ref="136645981"/>
    <nd ref="114900757"/>
    <tag k="created_by" v="JOSM"/>
    <tag k="highway" v="unclassified"/>
    <tag k="name" v="Hemley Road"/>
  </way>
  <way id="14256436" version="2" timestamp="2007-12-11T03:19:56Z" uid="18775" user="drlizau" changeset="264676">
    <nd ref="136638366"/>
    <nd ref="136645981"/>
    <nd ref="114900757"/>
    <tag k="created_by" v="JOSM"/>
    <tag k="highway" v="unclassified"/>
    <tag k="name" v="Hemley Road"/>
  </way>
  <way id="14256436" version="3" timestamp="2008-09-07T03:54:51Z" uid="18775" user="drlizau" changeset="557548">
    <nd ref="136638366"/>
    <nd ref="136645981"/>
    <nd ref="114900757"/>
    <tag k="created_by" v="JOSM"/>
    <tag k="highway" v="unclassified"/>
    <tag k="name" v="Hemley Road"/>
  </way>
  <way id="14256436" version="4" timestamp="2010-12-16T02:19:11Z" uid="18775" user="drlizau" changeset="6673344">
    <nd ref="136638366"/>
    <nd ref="136645981"/>
    <nd ref="114900757"/>
    <tag k="highway" v="unclassified"/>
    <tag k="name" v="Hemley Road"/>
    <tag k="source" v="survey"/>
  </way>
  <way id="14256439" version="1" timestamp="2007-11-27T07:24:02Z" uid="18775" user="drlizau" changeset="629884">
    <nd ref="114901199"/>
    <nd ref="136646002"/>
    <tag k="created_by" v="JOSM"/>
    <tag k="highway" v="residential"/>
    <tag k="name" v="Leaver Street"/>
  </way>
  <way id="14256439" version="2" timestamp="2008-01-28T08:05:22Z" uid="18775" user="drlizau" changeset="705552">
    <nd ref="114901199"/>
    <nd ref="243809805"/>
    <nd ref="136646002"/>
    <tag k="created_by" v="JOSM"/>
    <tag k="highway" v="residential"/>
    <tag k="name" v="Leaver Street"/>
  </way>
  <way id="14256439" version="3" timestamp="2008-04-25T09:35:44Z" uid="19626" user="Swamp" changeset="249913">
    <nd ref="114901199"/>
    <nd ref="243809805"/>
    <nd ref="136646002"/>
    <tag k="created_by" v="JOSM"/>
    <tag k="highway" v="residential"/>
    <tag k="maxspeed" v="50"/>
    <tag k="name" v="Leaver Street"/>
  </way>
  <way id="14256439" version="4" timestamp="2008-08-19T10:41:53Z" uid="18775" user="drlizau" changeset="325906">
    <nd ref="114901199"/>
    <nd ref="289344571"/>
    <nd ref="243809805"/>
    <nd ref="136646002"/>
    <tag k="created_by" v="JOSM"/>
    <tag k="highway" v="residential"/>
    <tag k="maxspeed" v="50"/>
    <tag k="name" v="Leaver Street"/>
  </way>
  <way id="14256439" version="5" timestamp="2009-02-01T10:38:07Z" uid="19626" user="Swamp" changeset="30220">
    <nd ref="114901199"/>
    <nd ref="289344571"/>
    <nd ref="243809805"/>
    <nd ref="339601000"/>
    <nd ref="136646002"/>
    <tag k="created_by" v="JOSM"/>
    <tag k="highway" v="residential"/>
    <tag k="maxspeed" v="50"/>
    <tag k="name" v="Leaver Street"/>
  </way>
  <way id="14256439" version="6" timestamp="2010-12-16T09:51:28Z" uid="18775" user="drlizau" changeset="6674919">
    <nd ref="114901199"/>
    <nd ref="289344571"/>
    <nd ref="243809805"/>
    <nd ref="339601000"/>
    <nd ref="136646002"/>
    <tag k="highway" v="residential"/>
    <tag k="maxspeed" v="50"/>
    <tag k="name" v="Leaver Street"/>
    <tag k="source" v="survey"/>
  </way>
  <way id="14256442" version="1" timestamp="2007-11-27T07:24:03Z" uid="18775" user="drlizau" changeset="629884">
    <nd ref="125421668"/>
    <nd ref="136646034"/>
    <tag k="created_by" v="JOSM"/>
    <tag k="highway" v="residential"/>
    <tag k="name" v="Henry Street"/>
  </way>
  <way id="14256442" version="2" timestamp="2008-01-28T08:05:21Z" uid="18775" user="drlizau" changeset="705552">
    <nd ref="125421668"/>
    <nd ref="243809784"/>
    <nd ref="136646034"/>
    <tag k="created_by" v="JOSM"/>
    <tag k="highway" v="residential"/>
    <tag k="name" v="Henry Street"/>
  </way>
  <way id="14256442" version="3" timestamp="2008-01-28T08:07:38Z" uid="18775" user="drlizau" changeset="705552">
    <nd ref="125421668"/>
    <nd ref="243809784"/>
    <nd ref="136646034"/>
    <nd ref="243810103"/>
    <tag k="created_by" v="JOSM"/>
    <tag k="highway" v="residential"/>
    <tag k="name" v="Henry Street"/>
  </way>
  <way id="14256442" version="4" timestamp="2008-04-25T09:35:46Z" uid="19626" user="Swamp" changeset="249913">
    <nd ref="125421668"/>
    <nd ref="243809784"/>
    <nd ref="136646034"/>
    <nd ref="243810103"/>
    <tag k="created_by" v="JOSM"/>
    <tag k="highway" v="residential"/>
    <tag k="maxspeed" v="50"/>
    <tag k="name" v="Henry Street"/>
  </way>
  <way id="14256442" version="5" timestamp="2008-08-19T10:34:33Z" uid="18775" user="drlizau" changeset="325906">
    <nd ref="125421668"/>
    <nd ref="243809784"/>
    <nd ref="136646034"/>
    <nd ref="243810103"/>
    <nd ref="289343381"/>
    <tag k="created_by" v="JOSM"/>
    <tag k="highway" v="residential"/>
    <tag k="maxspeed" v="50"/>
    <tag k="name" v="Henry Street"/>
  </way>
  <way id="14256442" version="6" timestamp="2008-08-19T10:41:54Z" uid="18775" user="drlizau" changeset="325906">
    <nd ref="125421668"/>
    <nd ref="243809784"/>
    <nd ref="243810103"/>
    <tag k="created_by" v="JOSM"/>
    <tag k="highway" v="residential"/>
    <tag k="maxspeed" v="50"/>
    <tag k="name" v="Henry Street"/>
  </way>
  <way id="14256442" version="7" timestamp="2008-09-06T05:46:26Z" uid="18775" user="drlizau" changeset="552148">
    <nd ref="125421668"/>
    <nd ref="243809784"/>
    <nd ref="243810103"/>
    <tag k="created_by" v="JOSM"/>
    <tag k="highway" v="residential"/>
    <tag k="maxspeed" v="50"/>
    <tag k="name" v="Henry Street"/>
  </way>
  <way id="14256442" version="8" timestamp="2009-02-01T10:38:11Z" uid="19626" user="Swamp" changeset="30220">
    <nd ref="125421668"/>
    <nd ref="243809784"/>
    <nd ref="136646067"/>
    <nd ref="243810103"/>
    <tag k="created_by" v="JOSM"/>
    <tag k="highway" v="residential"/>
    <tag k="maxspeed" v="50"/>
    <tag k="name" v="Henry Street"/>
  </way>
  <way id="14256442" version="9" timestamp="2010-12-16T09:51:23Z" uid="18775" user="drlizau" changeset="6674919">
    <nd ref="125421668"/>
    <nd ref="243809784"/>
    <nd ref="136646067"/>
    <nd ref="243810103"/>
    <tag k="highway" v="residential"/>
    <tag k="maxspeed" v="50"/>
    <tag k="name" v="Henry Street"/>
    <tag k="source" v="survey"/>
  </way>
  <way id="14256445" version="1" timestamp="2007-11-27T07:24:04Z" uid="18775" user="drlizau" changeset="629884">
    <nd ref="136646067"/>
    <nd ref="136646098"/>
    <tag k="created_by" v="JOSM"/>
    <tag k="highway" v="residential"/>
    <tag k="name" v="Park Street"/>
  </way>
  <way id="14256445" version="2" timestamp="2008-01-28T04:37:42Z" uid="18775" user="drlizau" changeset="702754">
    <nd ref="136646067"/>
    <nd ref="243796097"/>
    <nd ref="136646098"/>
    <tag k="created_by" v="JOSM"/>
    <tag k="highway" v="residential"/>
    <tag k="name" v="Park Street"/>
  </way>
  <way id="14256445" version="3" timestamp="2008-04-25T09:35:46Z" uid="19626" user="Swamp" changeset="249913">
    <nd ref="136646067"/>
    <nd ref="243796097"/>
    <nd ref="136646098"/>
    <tag k="created_by" v="JOSM"/>
    <tag k="highway" v="residential"/>
    <tag k="maxspeed" v="50"/>
    <tag k="name" v="Park Street"/>
  </way>
  <way id="14256445" version="4" timestamp="2009-02-01T10:38:09Z" uid="19626" user="Swamp" changeset="30220">
    <nd ref="136646067"/>
    <nd ref="243796097"/>
    <nd ref="136646098"/>
    <tag k="created_by" v="JOSM"/>
    <tag k="highway" v="residential"/>
    <tag k="maxspeed" v="50"/>
    <tag k="name" v="Park Street"/>
  </way>
  <way id="14256445" version="5" timestamp="2010-12-16T09:51:24Z" uid="18775" user="drlizau" changeset="6674919">
    <nd ref="136646067"/>
    <nd ref="243796097"/>
    <nd ref="136646098"/>
    <tag k="highway" v="residential"/>
    <tag k="maxspeed" v="50"/>
    <tag k="name" v="Park Street"/>
    <tag k="source" v="survey"/>
  </way>
  <way id="14256736" version="1" timestamp="2007-11-27T07:27:40Z" uid="18775" user="drlizau" changeset="629884">
    <nd ref="136651717"/>
    <nd ref="136651731"/>
    <tag k="created_by" v="JOSM"/>
    <tag k="highway" v="unclassified"/>
    <tag k="name" v="McDonald Road"/>
    <tag k="surface" v="unpaved"/>
  </way>
  <way id="14256736" version="2" timestamp="2009-08-02T06:35:40Z" uid="18775" user="drlizau" changeset="2010163">
    <nd ref="454088446"/>
    <nd ref="454088445"/>
    <nd ref="136651717"/>
    <nd ref="136651731"/>
    <tag k="highway" v="unclassified"/>
    <tag k="name" v="McDonald Road"/>
    <tag k="surface" v="unpaved"/>
  </way>
  <way id="14256736" version="3" timestamp="2010-12-16T02:19:13Z" uid="18775" user="drlizau" changeset="6673344">
    <nd ref="454088446"/>
    <nd ref="454088445"/>
    <nd ref="136651717"/>
    <nd ref="136651731"/>
    <tag k="highway" v="unclassified"/>
    <tag k="name" v="McDonald Road"/>
    <tag k="source" v="survey"/>
    <tag k="surface" v="unpaved"/>
  </way>
  <way id="14256904" version="1" timestamp="2007-11-27T07:29:52Z" uid="18775" user="drlizau" changeset="629884">
    <nd ref="136654426"/>
    <nd ref="136654442"/>
    <nd ref="136654455"/>
    <nd ref="136654480"/>
    <nd ref="136654498"/>
    <nd ref="136654510"/>
    <nd ref="113537450"/>
    <nd ref="123405456"/>
    <nd ref="113537478"/>
    <nd ref="113537488"/>
    <nd ref="113537504"/>
    <nd ref="113537511"/>
    <nd ref="113537522"/>
    <nd ref="120517384"/>
    <nd ref="113537530"/>
    <nd ref="113537538"/>
    <tag k="created_by" v="JOSM"/>
    <tag k="highway" v="unclassified"/>
    <tag k="name" v="Mosely Road"/>
    <tag k="surface" v="unpaved"/>
  </way>
  <way id="14256904" version="2" timestamp="2007-11-27T07:30:33Z" uid="18775" user="drlizau" changeset="629884">
    <nd ref="136654426"/>
    <nd ref="136654442"/>
    <nd ref="136654455"/>
    <nd ref="136654480"/>
    <nd ref="136654498"/>
    <nd ref="136654510"/>
    <nd ref="113537450"/>
    <tag k="created_by" v="JOSM"/>
    <tag k="highway" v="unclassified"/>
    <tag k="name" v="Mosely Road"/>
    <tag k="surface" v="paved"/>
  </way>
  <way id="14256904" version="3" timestamp="2008-08-10T04:54:30Z" uid="19626" user="Swamp" changeset="173683">
    <nd ref="136654426"/>
    <nd ref="136654442"/>
    <nd ref="136654455"/>
    <nd ref="136654510"/>
    <nd ref="113537450"/>
    <tag k="created_by" v="JOSM"/>
    <tag k="highway" v="unclassified"/>
    <tag k="name" v="Mosely Road"/>
    <tag k="surface" v="paved"/>
  </way>
  <way id="14256904" version="4" timestamp="2009-07-18T07:59:01Z" uid="18775" user="drlizau" changeset="1860957">
    <nd ref="136654426"/>
    <nd ref="136654442"/>
    <nd ref="136654455"/>
    <nd ref="136657659"/>
    <nd ref="113537450"/>
    <tag k="highway" v="unclassified"/>
    <tag k="name" v="Mosely Road"/>
    <tag k="surface" v="paved"/>
  </way>
  <way id="14256963" version="1" timestamp="2007-11-27T07:30:32Z" uid="18775" user="drlizau" changeset="629884">
    <nd ref="113537450"/>
    <nd ref="123405456"/>
    <nd ref="113537478"/>
    <nd ref="113537488"/>
    <nd ref="113537504"/>
    <nd ref="113537511"/>
    <nd ref="113537522"/>
    <nd ref="120517384"/>
    <nd ref="113537530"/>
    <nd ref="113537538"/>
    <tag k="created_by" v="JOSM"/>
    <tag k="highway" v="unclassified"/>
    <tag k="name" v="Mosely Road"/>
    <tag k="surface" v="unpaved"/>
  </way>
  <way id="14256963" version="2" timestamp="2007-12-11T03:17:22Z" uid="18775" user="drlizau" changeset="264676">
    <nd ref="113537450"/>
    <nd ref="123405456"/>
    <nd ref="113537478"/>
    <nd ref="113537488"/>
    <nd ref="113537504"/>
    <nd ref="113537511"/>
    <nd ref="113537522"/>
    <nd ref="120517384"/>
    <nd ref="113537530"/>
    <nd ref="113537538"/>
  </way>
  <way id="14256963" version="3" timestamp="2007-12-11T03:35:59Z" uid="18775" user="drlizau" changeset="264676">
    <nd ref="113537450"/>
    <nd ref="123405456"/>
    <nd ref="113537478"/>
    <nd ref="113537488"/>
    <nd ref="113537504"/>
    <nd ref="113537511"/>
    <nd ref="113537522"/>
    <nd ref="120517384"/>
    <nd ref="113537530"/>
    <nd ref="113537538"/>
    <tag k="highway" v="minor"/>
    <tag k="name" v="Mosely Road"/>
    <tag k="surface" v="unpaved"/>
  </way>
  <way id="14256963" version="4" timestamp="2008-01-29T10:11:21Z" uid="18775" user="drlizau" changeset="708790">
    <nd ref="113537450"/>
    <nd ref="123405456"/>
    <nd ref="113537478"/>
    <nd ref="113537488"/>
    <nd ref="113537504"/>
    <nd ref="113537511"/>
    <nd ref="113537522"/>
    <nd ref="120517384"/>
    <nd ref="113537530"/>
    <nd ref="113537538"/>
    <tag k="highway" v="unclassified"/>
    <tag k="name" v="Mosely Road"/>
    <tag k="surface" v="unpaved"/>
  </way>
  <way id="14256963" version="5" timestamp="2008-02-24T10:46:08Z" uid="19626" user="Swamp" changeset="195877">
    <nd ref="113537450"/>
    <nd ref="123405456"/>
    <nd ref="113537478"/>
    <nd ref="113537488"/>
    <nd ref="113537504"/>
    <nd ref="113537511"/>
    <nd ref="113537522"/>
    <nd ref="120517384"/>
    <nd ref="113537530"/>
    <nd ref="113537538"/>
    <tag k="highway" v="unclassified"/>
    <tag k="name" v="Mosely Road"/>
    <tag k="surface" v="unpaved"/>
  </way>
  <way id="14256963" version="6" timestamp="2008-03-03T22:16:46Z" uid="18775" user="drlizau" changeset="263253">
    <nd ref="113537450"/>
    <nd ref="123405456"/>
    <nd ref="113537478"/>
    <nd ref="113537488"/>
    <nd ref="113537504"/>
    <nd ref="113537511"/>
    <nd ref="113537522"/>
    <nd ref="120517384"/>
    <nd ref="250412765"/>
    <nd ref="113537530"/>
    <nd ref="113537538"/>
    <tag k="highway" v="unclassified"/>
    <tag k="name" v="Mosely Road"/>
    <tag k="surface" v="unpaved"/>
  </way>
  <way id="14256963" version="7" timestamp="2008-03-03T22:20:22Z" uid="18775" user="drlizau" changeset="263253">
    <nd ref="113537450"/>
    <nd ref="123405456"/>
    <nd ref="113537478"/>
    <nd ref="113537488"/>
    <nd ref="113537504"/>
    <nd ref="113537511"/>
    <nd ref="113537522"/>
    <nd ref="120517384"/>
    <nd ref="250412765"/>
    <nd ref="113537530"/>
    <nd ref="113537538"/>
    <tag k="highway" v="unclassified"/>
    <tag k="name" v="Mosely Road"/>
    <tag k="surface" v="unpaved"/>
  </way>
  <way id="14256963" version="8" timestamp="2008-03-03T22:23:11Z" uid="18775" user="drlizau" changeset="263253"/>
</osm>
