<?xml version='1.0' encoding='UTF-8'?>
<osm version="0.6" generator="libosmium/2.20.0">
  <way id="14540035" version="3" timestamp="2010-02-14T15:49:20Z" uid="74617" user="JohnSmith" changeset="3874884">
    <nd ref="143075563"/>
    <nd ref="143075564"/>
    <nd ref="143075567"/>
    <nd ref="143075568"/>
    <nd ref="143075571"/>
    <tag k="highway" v="residential"/>
    <tag k="maxspeed" v="50"/>
    <tag k="name" v="Mendel Street"/>
  </way>
  <way id="14540094" version="7" timestamp="2010-02-14T15:46:10Z" uid="74617" user="JohnSmith" changeset="3874884">
    <nd ref="143076412"/>
    <nd ref="143076413"/>
    <nd ref="141456378"/>
    <nd ref="143075563"/>
    <nd ref="143072988"/>
    <nd ref="143073482"/>
    <nd ref="143075111"/>
    <nd ref="149497190"/>
    <nd ref="143076415"/>
    <nd ref="143074820"/>
    <nd ref="143076417"/>
    <nd ref="143074416"/>
    <nd ref="143076418"/>
    <tag k="highway" v="residential"/>
    <tag k="maxspeed" v="50"/>
    <tag k="name" v="Falkirk Street"/>
  </way>
  <way id="14540244" version="11" timestamp="2010-02-14T15:46:11Z" uid="74617" user="JohnSmith" changeset="3874884">
    <nd ref="143078579"/>
    <nd ref="143079065"/>
    <nd ref="143078580"/>
    <nd ref="260099327"/>
    <nd ref="143076412"/>
    <nd ref="143075571"/>
    <nd ref="143075313"/>
    <nd ref="259784487"/>
    <nd ref="143074829"/>
    <tag k="highway" v="residential"/>
    <tag k="maxspeed" v="50"/>
    <tag k="name" v="Farrant Street"/>
  </way>
  <way id="14540315" version="5" timestamp="2010-02-14T15:48:56Z" uid="74617" user="JohnSmith" changeset="3874884">
    <nd ref="143079868"/>
    <nd ref="143079869"/>
    <nd ref="143081003"/>
    <nd ref="143079870"/>
    <tag k="highway" v="residential"/>
    <tag k="maxspeed" v="50"/>
    <tag k="name" v="Gable Street"/>
  </way>
  <way id="14540340" version="8" timestamp="2010-02-14T15:46:09Z" uid="74617" user="JohnSmith" changeset="3874884">
    <nd ref="149497190"/>
    <nd ref="143080393"/>
    <nd ref="598432447"/>
    <nd ref="143080649"/>
    <nd ref="143080395"/>
    <nd ref="143079872"/>
    <tag k="highway" v="residential"/>
    <tag k="maxspeed" v="50"/>
    <tag k="name" v="Dorkay Street"/>
  </way>
  <way id="14540377" version="4" timestamp="2010-02-14T15:46:08Z" uid="74617" user="JohnSmith" changeset="3874884">
    <nd ref="143081003"/>
    <nd ref="143081005"/>
    <nd ref="143080396"/>
    <tag k="highway" v="residential"/>
    <tag k="maxspeed" v="50"/>
    <tag k="name" v="Hepburn Street"/>
  </way>
  <way id="14540414" version="4" timestamp="2010-02-14T15:49:18Z" uid="74617" user="JohnSmith" changeset="3874884">
    <nd ref="143081678"/>
    <nd ref="143081479"/>
    <nd ref="143080395"/>
    <tag k="highway" v="residential"/>
    <tag k="maxspeed" v="50"/>
    <tag k="name" v="Heston Street"/>
  </way>
  <way id="14540448" version="4" timestamp="2010-02-14T15:46:09Z" uid="74617" user="JohnSmith" changeset="3874884">
    <nd ref="143082020"/>
    <nd ref="143082268"/>
    <nd ref="143082021"/>
    <tag k="highway" v="residential"/>
    <tag k="maxspeed" v="50"/>
    <tag k="name" v="Gerry Street"/>
  </way>
  <way id="14540473" version="3" timestamp="2010-02-14T15:49:18Z" uid="74617" user="JohnSmith" changeset="3874884">
    <nd ref="143082267"/>
    <nd ref="143082268"/>
    <tag k="highway" v="residential"/>
    <tag k="maxspeed" v="50"/>
    <tag k="name" v="Adria Street"/>
  </way>
  <way id="14540510" version="4" timestamp="2010-02-14T15:46:09Z" uid="74617" user="JohnSmith" changeset="3874884">
    <nd ref="143081005"/>
    <nd ref="143083290"/>
    <nd ref="143082626"/>
    <nd ref="143082628"/>
    <nd ref="143082629"/>
    <nd ref="143083287"/>
    <nd ref="143080397"/>
    <tag k="highway" v="residential"/>
    <tag k="maxspeed" v="50"/>
    <tag k="name" v="Chaplin Street"/>
  </way>
  <way id="14540563" version="3" timestamp="2010-02-14T15:46:08Z" uid="74617" user="JohnSmith" changeset="3874884">
    <nd ref="143083287"/>
    <nd ref="143083289"/>
    <nd ref="143083290"/>
    <tag k="highway" v="residential"/>
    <tag k="maxspeed" v="50"/>
    <tag k="name" v="Fontaine Street"/>
  </way>
  <way id="14540602" version="6" timestamp="2010-02-15T05:21:45Z" uid="74617" user="JohnSmith" changeset="3880269">
    <nd ref="143084524"/>
    <nd ref="143083945"/>
    <nd ref="143083946"/>
    <nd ref="143083947"/>
    <nd ref="340148363"/>
    <nd ref="340148362"/>
    <nd ref="141456369"/>
    <tag k="highway" v="residential"/>
    <tag k="maxspeed" v="50"/>
    <tag k="name" v="Disney Street"/>
  </way>
  <way id="14540609" version="5" timestamp="2010-02-15T05:21:46Z" uid="74617" user="JohnSmith" changeset="3880269">
    <nd ref="143084111"/>
    <nd ref="143083947"/>
    <tag k="highway" v="residential"/>
    <tag k="maxspeed" v="50"/>
    <tag k="name" v="Bogart Street"/>
  </way>
</osm>
