<?xml version='1.0' encoding='UTF-8'?>
<osm version="0.6" generator="libosmium/2.20.0">
  <way id="14681006" version="2" timestamp="2010-07-08T17:51:04Z" uid="74617" user="JohnSmith" changeset="5167338">
    <nd ref="144854436"/>
    <nd ref="144854534"/>
    <nd ref="144854639"/>
    <nd ref="144854781"/>
    <nd ref="144854951"/>
    <nd ref="144855112"/>
    <nd ref="144855234"/>
    <tag k="highway" v="residential"/>
    <tag k="maxspeed" v="50"/>
    <tag k="maxspeed:source" v="default residential speed limit in Australia"/>
    <tag k="name" v="Jack Farmer Way"/>
  </way>
  <way id="14681026" version="2" timestamp="2010-07-08T17:46:48Z" uid="74617" user="JohnSmith" changeset="5167338">
    <nd ref="144855345"/>
    <nd ref="144855862"/>
    <nd ref="144855673"/>
    <nd ref="144855453"/>
    <nd ref="144855568"/>
    <tag k="highway" v="residential"/>
    <tag k="maxspeed" v="50"/>
    <tag k="maxspeed:source" v="default residential speed limit in Australia"/>
    <tag k="name" v="Woodhall Close"/>
  </way>
  <way id="14681046" version="2" timestamp="2010-07-08T17:48:01Z" uid="74617" user="JohnSmith" changeset="5167338">
    <nd ref="144855673"/>
    <nd ref="144855734"/>
    <tag k="highway" v="residential"/>
    <tag k="maxspeed" v="50"/>
    <tag k="maxspeed:source" v="default residential speed limit in Australia"/>
    <tag k="name" v="Ernest Court"/>
  </way>
  <way id="14681072" version="2" timestamp="2010-07-08T17:46:58Z" uid="74617" user="JohnSmith" changeset="5167338">
    <nd ref="144855862"/>
    <nd ref="144855972"/>
    <tag k="highway" v="residential"/>
    <tag k="maxspeed" v="50"/>
    <tag k="maxspeed:source" v="default residential speed limit in Australia"/>
    <tag k="name" v="Merino Court"/>
  </way>
  <way id="14681083" version="2" timestamp="2010-07-08T17:50:11Z" uid="74617" user="JohnSmith" changeset="5167338">
    <nd ref="144856101"/>
    <nd ref="144856271"/>
    <nd ref="144856412"/>
    <tag k="highway" v="residential"/>
    <tag k="maxspeed" v="50"/>
    <tag k="maxspeed:source" v="default residential speed limit in Australia"/>
    <tag k="name" v="Southdown Way"/>
  </way>
  <way id="14681104" version="3" timestamp="2010-07-08T17:48:56Z" uid="74617" user="JohnSmith" changeset="5167338">
    <nd ref="144856508"/>
    <nd ref="144856640"/>
    <nd ref="144856705"/>
    <nd ref="144856917"/>
    <nd ref="144857030"/>
    <tag k="highway" v="residential"/>
    <tag k="maxspeed" v="50"/>
    <tag k="maxspeed:source" v="default residential speed limit in Australia"/>
    <tag k="name" v="Bushfield Court"/>
  </way>
  <way id="14681125" version="2" timestamp="2010-07-08T17:51:01Z" uid="74617" user="JohnSmith" changeset="5167338">
    <nd ref="144857132"/>
    <nd ref="144857030"/>
    <tag k="highway" v="residential"/>
    <tag k="maxspeed" v="50"/>
    <tag k="maxspeed:source" v="default residential speed limit in Australia"/>
    <tag k="name" v="Bushfield Court"/>
  </way>
  <way id="14681143" version="2" timestamp="2010-07-08T17:50:54Z" uid="74617" user="JohnSmith" changeset="5167338">
    <nd ref="144857203"/>
    <nd ref="144857030"/>
    <tag k="highway" v="residential"/>
    <tag k="maxspeed" v="50"/>
    <tag k="maxspeed:source" v="default residential speed limit in Australia"/>
    <tag k="name" v="Bushfield Court"/>
  </way>
  <way id="14681168" version="2" timestamp="2010-07-08T17:50:57Z" uid="74617" user="JohnSmith" changeset="5167338">
    <nd ref="144857280"/>
    <nd ref="144857368"/>
    <nd ref="144857520"/>
    <nd ref="144857439"/>
    <tag k="highway" v="residential"/>
    <tag k="maxspeed" v="50"/>
    <tag k="maxspeed:source" v="default residential speed limit in Australia"/>
    <tag k="name" v="Victoria Court"/>
  </way>
  <way id="14681185" version="2" timestamp="2010-07-08T17:49:20Z" uid="74617" user="JohnSmith" changeset="5167338">
    <nd ref="144857520"/>
    <nd ref="144857603"/>
    <tag k="highway" v="residential"/>
    <tag k="maxspeed" v="50"/>
    <tag k="maxspeed:source" v="default residential speed limit in Australia"/>
    <tag k="name" v="Corriedale Court"/>
  </way>
  <way id="14681202" version="3" timestamp="2010-07-08T17:50:07Z" uid="74617" user="JohnSmith" changeset="5167338">
    <nd ref="144857715"/>
    <nd ref="144857815"/>
    <nd ref="144857967"/>
    <nd ref="144858047"/>
    <tag k="highway" v="residential"/>
    <tag k="maxspeed" v="50"/>
    <tag k="maxspeed:source" v="default residential speed limit in Australia"/>
    <tag k="name" v="Wallaby Grass Rise"/>
  </way>
  <way id="14681221" version="3" timestamp="2010-07-08T17:49:40Z" uid="74617" user="JohnSmith" changeset="5167338">
    <nd ref="144858140"/>
    <nd ref="144858335"/>
    <nd ref="144858465"/>
    <nd ref="144858591"/>
    <nd ref="144858719"/>
    <tag k="highway" v="residential"/>
    <tag k="maxspeed" v="50"/>
    <tag k="maxspeed:source" v="default residential speed limit in Australia"/>
    <tag k="name" v="Derwent Rise"/>
  </way>
  <way id="14681237" version="3" timestamp="2010-07-08T17:46:41Z" uid="74617" user="JohnSmith" changeset="5167338">
    <nd ref="144859777"/>
    <nd ref="144859899"/>
    <nd ref="144859977"/>
    <tag k="highway" v="residential"/>
    <tag k="maxspeed" v="50"/>
    <tag k="maxspeed:source" v="default residential speed limit in Australia"/>
    <tag k="name" v="Kangaroo Grass Rise"/>
  </way>
</osm>
