<?xml version='1.0' encoding='UTF-8'?>
<osm version="0.6" generator="libosmium/2.20.0">
  <way id="14894072" version="4" timestamp="2010-07-09T05:06:18Z" uid="74617" user="JohnSmith" changeset="5170986">
    <nd ref="147182837"/>
    <nd ref="147183181"/>
    <tag k="highway" v="residential"/>
    <tag k="maxspeed" v="50"/>
    <tag k="maxspeed:source" v="default residential speed limit in Australia"/>
    <tag k="name" v="Lisgoold Street"/>
  </way>
  <way id="14894323" version="2" timestamp="2009-08-15T13:41:55Z" uid="4467" user="Rosscoe" changeset="2154245">
    <nd ref="147185888"/>
    <nd ref="147185890"/>
    <nd ref="147185891"/>
    <nd ref="147185892"/>
    <nd ref="147185893"/>
    <nd ref="147185888"/>
    <tag k="amenity" v="school"/>
    <tag k="name" v="Aquinas College"/>
  </way>
  <way id="14894323" version="3" timestamp="2010-04-19T13:39:45Z" uid="4467" user="Rosscoe" changeset="4467919">
    <nd ref="147185888"/>
    <nd ref="701857564"/>
    <nd ref="147185890"/>
    <nd ref="147185891"/>
    <nd ref="147185892"/>
    <nd ref="147185893"/>
    <nd ref="147185888"/>
    <tag k="amenity" v="school"/>
    <tag k="name" v="Aquinas College"/>
  </way>
  <way id="14894323" version="4" timestamp="2010-07-29T13:56:01Z" uid="4467" user="Rosscoe" changeset="5346949">
    <nd ref="147185888"/>
    <nd ref="701857564"/>
    <nd ref="147185890"/>
    <nd ref="147185892"/>
    <nd ref="147185893"/>
    <nd ref="147185888"/>
    <tag k="amenity" v="school"/>
    <tag k="name" v="Aquinas College"/>
    <tag k="source" v="nearmap"/>
  </way>
  <way id="14894482" version="5" timestamp="2010-07-09T05:00:09Z" uid="74617" user="JohnSmith" changeset="5170986">
    <nd ref="147187082"/>
    <nd ref="147187189"/>
    <nd ref="660114130"/>
    <nd ref="148853286"/>
    <nd ref="660114131"/>
    <nd ref="148853284"/>
    <tag k="highway" v="residential"/>
    <tag k="maxspeed" v="50"/>
    <tag k="maxspeed:source" v="default residential speed limit in Australia"/>
    <tag k="name" v="Sussex Street"/>
  </way>
  <way id="14894512" version="5" timestamp="2010-07-09T05:01:49Z" uid="74617" user="JohnSmith" changeset="5170986">
    <nd ref="147187296"/>
    <nd ref="147187401"/>
    <tag k="highway" v="residential"/>
    <tag k="maxspeed" v="50"/>
    <tag k="maxspeed:source" v="default residential speed limit in Australia"/>
    <tag k="name" v="Norfolk Avenue"/>
  </way>
  <way id="14894861" version="5" timestamp="2010-07-09T05:01:27Z" uid="74617" user="JohnSmith" changeset="5170986">
    <nd ref="147191396"/>
    <nd ref="147191538"/>
    <tag k="highway" v="residential"/>
    <tag k="maxspeed" v="50"/>
    <tag k="maxspeed:source" v="default residential speed limit in Australia"/>
    <tag k="name" v="Stanhope Court"/>
  </way>
  <way id="14894885" version="4" timestamp="2010-07-09T05:02:00Z" uid="74617" user="JohnSmith" changeset="5170986">
    <nd ref="147191558"/>
    <nd ref="147191711"/>
    <tag k="highway" v="residential"/>
    <tag k="maxspeed" v="50"/>
    <tag k="maxspeed:source" v="default residential speed limit in Australia"/>
    <tag k="name" v="Wrights Court"/>
  </way>
  <way id="14894930" version="5" timestamp="2010-07-09T05:01:30Z" uid="74617" user="JohnSmith" changeset="5170986">
    <nd ref="147192260"/>
    <nd ref="660114068"/>
    <nd ref="147192493"/>
    <nd ref="660114080"/>
    <nd ref="100864018"/>
    <tag k="highway" v="residential"/>
    <tag k="maxspeed" v="50"/>
    <tag k="maxspeed:source" v="default residential speed limit in Australia"/>
    <tag k="name" v="Sylvia Grove"/>
  </way>
  <way id="14894999" version="4" timestamp="2010-07-09T05:04:41Z" uid="74617" user="JohnSmith" changeset="5170986">
    <nd ref="147192952"/>
    <nd ref="100864016"/>
    <tag k="highway" v="residential"/>
    <tag k="maxspeed" v="50"/>
    <tag k="maxspeed:source" v="default residential speed limit in Australia"/>
    <tag k="name" v="Heather Grove"/>
  </way>
</osm>
