<?xml version='1.0' encoding='UTF-8'?>
<osm version="0.6" generator="libosmium/2.20.0">
  <way id="14998975" version="9" timestamp="2008-04-26T23:22:02Z" uid="18775" user="drlizau" changeset="270125">
    <nd ref="148118755"/>
    <nd ref="150937054"/>
    <nd ref="170401443"/>
    <nd ref="148142078"/>
    <nd ref="148118759"/>
    <tag k="created_by" v="Potlatch 0.5d"/>
    <tag k="highway" v="trunk"/>
    <tag k="name" v="Erskine St"/>
    <tag k="ref" v="39"/>
  </way>
  <way id="14998975" version="11" timestamp="2009-08-05T14:31:00Z" uid="74617" user="JohnSmith" changeset="2046750">
    <nd ref="148118755"/>
    <nd ref="150937054"/>
    <nd ref="170401443"/>
    <nd ref="148142078"/>
    <nd ref="150935311"/>
    <tag k="alt_name" v="Newell Highway"/>
    <tag k="highway" v="trunk"/>
    <tag k="name" v="Erskine Street"/>
    <tag k="ref" v="NH39"/>
  </way>
  <way id="14998975" version="12" timestamp="2009-08-19T09:18:59Z" uid="74617" user="JohnSmith" changeset="2198893">
    <nd ref="148118755"/>
    <nd ref="150937054"/>
    <nd ref="170401443"/>
    <nd ref="148142078"/>
    <nd ref="150935311"/>
    <tag k="highway" v="trunk"/>
    <tag k="name" v="Erskine Street"/>
  </way>
  <way id="14998975" version="14" timestamp="2011-04-01T14:54:56Z" uid="4467" user="Rosscoe" changeset="7736102">
    <nd ref="148118755"/>
    <nd ref="475571280"/>
    <tag k="highway" v="trunk"/>
    <tag k="name" v="Erskine Street"/>
    <tag k="source" v="survey"/>
    <tag k="surface" v="asphalt"/>
    <tag k="survey" v="GPS"/>
  </way>
</osm>
