<?xml version='1.0' encoding='UTF-8'?>
<osm version="0.6" generator="libosmium/2.20.0">
  <way id="15244264" version="2" timestamp="2010-07-08T17:49:12Z" uid="74617" user="JohnSmith" changeset="5167338">
    <nd ref="71278947"/>
    <nd ref="151016068"/>
    <nd ref="151016075"/>
    <nd ref="151016076"/>
    <nd ref="151016077"/>
    <nd ref="151016079"/>
    <tag k="highway" v="residential"/>
    <tag k="maxspeed" v="50"/>
    <tag k="maxspeed:source" v="default residential speed limit in Australia"/>
    <tag k="name" v="Rae Cresent"/>
  </way>
  <way id="15244265" version="2" timestamp="2010-07-08T17:48:13Z" uid="74617" user="JohnSmith" changeset="5167338">
    <nd ref="151016082"/>
    <nd ref="151016083"/>
    <nd ref="151016084"/>
    <nd ref="151016086"/>
    <nd ref="151016092"/>
    <nd ref="151016093"/>
    <tag k="highway" v="residential"/>
    <tag k="maxspeed" v="50"/>
    <tag k="maxspeed:source" v="default residential speed limit in Australia"/>
    <tag k="name" v="Mulcare Cresent"/>
  </way>
  <way id="15244267" version="3" timestamp="2010-07-08T17:50:49Z" uid="74617" user="JohnSmith" changeset="5167338">
    <nd ref="151016094"/>
    <nd ref="151016095"/>
    <nd ref="151016096"/>
    <nd ref="151016097"/>
    <nd ref="151016098"/>
    <nd ref="151016099"/>
    <nd ref="151016100"/>
    <nd ref="151016101"/>
    <nd ref="151017727"/>
    <tag k="highway" v="residential"/>
    <tag k="maxspeed" v="50"/>
    <tag k="maxspeed:source" v="default residential speed limit in Australia"/>
    <tag k="name" v="Quigley Cresent"/>
  </way>
  <way id="15244268" version="3" timestamp="2010-07-08T17:48:30Z" uid="74617" user="JohnSmith" changeset="5167338">
    <nd ref="151017728"/>
    <nd ref="151016102"/>
    <nd ref="151016103"/>
    <nd ref="151016108"/>
    <nd ref="151016109"/>
    <nd ref="151016110"/>
    <nd ref="151016112"/>
    <nd ref="151016113"/>
    <nd ref="151016114"/>
    <nd ref="151016115"/>
    <nd ref="151016119"/>
    <nd ref="151017729"/>
    <tag k="highway" v="residential"/>
    <tag k="maxspeed" v="50"/>
    <tag k="maxspeed:source" v="default residential speed limit in Australia"/>
    <tag k="name" v="Auchterlonie  Cresent"/>
  </way>
  <way id="15244271" version="2" timestamp="2010-07-08T17:50:10Z" uid="74617" user="JohnSmith" changeset="5167338">
    <nd ref="151016121"/>
    <nd ref="151016122"/>
    <nd ref="151016130"/>
    <nd ref="151016131"/>
    <nd ref="71275898"/>
    <tag k="highway" v="residential"/>
    <tag k="maxspeed" v="50"/>
    <tag k="maxspeed:source" v="default residential speed limit in Australia"/>
    <tag k="name" v="McLean Avenue"/>
  </way>
  <way id="15244272" version="2" timestamp="2010-07-08T17:49:37Z" uid="74617" user="JohnSmith" changeset="5167338">
    <nd ref="71278882"/>
    <nd ref="151016132"/>
    <tag k="highway" v="residential"/>
    <tag k="maxspeed" v="50"/>
    <tag k="maxspeed:source" v="default residential speed limit in Australia"/>
    <tag k="name" v="Vary Court"/>
  </way>
  <way id="15244273" version="2" timestamp="2010-07-08T17:48:38Z" uid="74617" user="JohnSmith" changeset="5167338">
    <nd ref="151016133"/>
    <nd ref="151016134"/>
    <nd ref="151016144"/>
    <nd ref="151016145"/>
    <nd ref="151016130"/>
    <tag k="highway" v="residential"/>
    <tag k="maxspeed" v="50"/>
    <tag k="maxspeed:source" v="default residential speed limit in Australia"/>
    <tag k="name" v="Latter Grove"/>
  </way>
  <way id="15244274" version="2" timestamp="2010-07-08T17:47:29Z" uid="74617" user="JohnSmith" changeset="5167338">
    <nd ref="151016144"/>
    <nd ref="151016146"/>
    <nd ref="151016148"/>
    <tag k="highway" v="residential"/>
    <tag k="maxspeed" v="50"/>
    <tag k="maxspeed:source" v="default residential speed limit in Australia"/>
    <tag k="name" v="Eli Court"/>
  </way>
  <way id="15244276" version="2" timestamp="2010-07-08T17:48:52Z" uid="74617" user="JohnSmith" changeset="5167338">
    <nd ref="151016113"/>
    <nd ref="151016149"/>
    <tag k="highway" v="residential"/>
    <tag k="maxspeed" v="50"/>
    <tag k="maxspeed:source" v="default residential speed limit in Australia"/>
    <tag k="name" v="Walsh Court"/>
  </way>
  <way id="15244278" version="2" timestamp="2010-07-08T17:46:46Z" uid="74617" user="JohnSmith" changeset="5167338">
    <nd ref="151016115"/>
    <nd ref="151016150"/>
    <tag k="highway" v="residential"/>
    <tag k="maxspeed" v="50"/>
    <tag k="maxspeed:source" v="default residential speed limit in Australia"/>
    <tag k="name" v="Hare Court"/>
  </way>
  <way id="15244281" version="14" timestamp="2009-09-22T20:40:28Z" uid="9581" user="Lobelt" changeset="2576235">
    <nd ref="151016187"/>
    <nd ref="27594770"/>
    <nd ref="290299317"/>
    <nd ref="281801205"/>
    <nd ref="290299318"/>
    <nd ref="417649895"/>
    <nd ref="27594773"/>
    <nd ref="266627121"/>
    <nd ref="266627111"/>
    <nd ref="27594775"/>
    <nd ref="27594777"/>
    <nd ref="505818023"/>
    <tag k="highway" v="primary"/>
    <tag k="maxspeed" v="50"/>
    <tag k="name" v="TheaterstraÃŸe"/>
    <tag k="postal_code" v="07545"/>
    <tag k="ref" v="B 2"/>
  </way>
  <way id="15244305" version="2" timestamp="2010-07-08T17:50:27Z" uid="74617" user="JohnSmith" changeset="5167338">
    <nd ref="151016460"/>
    <nd ref="151016461"/>
    <tag k="highway" v="residential"/>
    <tag k="maxspeed" v="50"/>
    <tag k="maxspeed:source" v="default residential speed limit in Australia"/>
    <tag k="name" v="Winston Drive"/>
  </way>
  <way id="15244306" version="2" timestamp="2010-07-08T17:49:31Z" uid="74617" user="JohnSmith" changeset="5167338">
    <nd ref="151016462"/>
    <nd ref="151016463"/>
    <tag k="highway" v="residential"/>
    <tag k="maxspeed" v="50"/>
    <tag k="maxspeed:source" v="default residential speed limit in Australia"/>
    <tag k="name" v="Canterbury Way"/>
  </way>
  <way id="15244384" version="2" timestamp="2010-07-08T17:48:09Z" uid="74617" user="JohnSmith" changeset="5167338">
    <nd ref="151017722"/>
    <nd ref="151017740"/>
    <nd ref="151017742"/>
    <nd ref="151017730"/>
    <nd ref="151017731"/>
    <tag k="highway" v="residential"/>
    <tag k="maxspeed" v="50"/>
    <tag k="maxspeed:source" v="default residential speed limit in Australia"/>
    <tag k="name" v="McCarthy Street"/>
  </way>
  <way id="15244385" version="2" timestamp="2010-07-08T17:47:02Z" uid="74617" user="JohnSmith" changeset="5167338">
    <nd ref="151017740"/>
    <nd ref="151017741"/>
    <tag k="highway" v="residential"/>
    <tag k="maxspeed" v="50"/>
    <tag k="maxspeed:source" v="default residential speed limit in Australia"/>
    <tag k="name" v="Jacka Court"/>
  </way>
  <way id="15244386" version="2" timestamp="2010-07-08T17:50:44Z" uid="74617" user="JohnSmith" changeset="5167338">
    <nd ref="151017742"/>
    <nd ref="151017743"/>
    <tag k="highway" v="residential"/>
    <tag k="maxspeed" v="50"/>
    <tag k="maxspeed:source" v="default residential speed limit in Australia"/>
    <tag k="name" v="Moon Court"/>
  </way>
  <way id="15244387" version="2" timestamp="2010-07-08T17:49:51Z" uid="74617" user="JohnSmith" changeset="5167338">
    <nd ref="151017731"/>
    <nd ref="151017732"/>
    <nd ref="151017733"/>
    <nd ref="151017734"/>
    <nd ref="151017735"/>
    <nd ref="151017736"/>
    <nd ref="151017737"/>
    <nd ref="151017738"/>
    <nd ref="151017739"/>
    <tag k="highway" v="residential"/>
    <tag k="maxspeed" v="50"/>
    <tag k="maxspeed:source" v="default residential speed limit in Australia"/>
    <tag k="name" v="Cutler Cresent"/>
  </way>
  <way id="15244388" version="2" timestamp="2010-07-08T17:47:19Z" uid="74617" user="JohnSmith" changeset="5167338">
    <nd ref="151017738"/>
    <nd ref="71278334"/>
    <tag k="highway" v="residential"/>
    <tag k="maxspeed" v="50"/>
    <tag k="maxspeed:source" v="default residential speed limit in Australia"/>
    <tag k="name" v="Cutler Cresent"/>
  </way>
  <way id="15244389" version="2" timestamp="2010-07-08T17:50:58Z" uid="74617" user="JohnSmith" changeset="5167338">
    <nd ref="151017720"/>
    <nd ref="151017744"/>
    <nd ref="151017745"/>
    <nd ref="151017746"/>
    <nd ref="151017751"/>
    <nd ref="151017749"/>
    <nd ref="151017750"/>
    <tag k="highway" v="residential"/>
    <tag k="maxspeed" v="50"/>
    <tag k="maxspeed:source" v="default residential speed limit in Australia"/>
    <tag k="name" v="Williams Avenue"/>
  </way>
  <way id="15244390" version="2" timestamp="2010-07-08T17:50:05Z" uid="74617" user="JohnSmith" changeset="5167338">
    <nd ref="151017751"/>
    <nd ref="151017752"/>
    <nd ref="151017754"/>
    <nd ref="151017755"/>
    <nd ref="151017756"/>
    <nd ref="151017757"/>
    <nd ref="151017760"/>
    <nd ref="151017761"/>
    <nd ref="151017762"/>
    <nd ref="151017763"/>
    <nd ref="151017764"/>
    <nd ref="151017765"/>
    <nd ref="151017766"/>
    <nd ref="151017767"/>
    <tag k="highway" v="residential"/>
    <tag k="maxspeed" v="50"/>
    <tag k="maxspeed:source" v="default residential speed limit in Australia"/>
    <tag k="name" v="Walker Parade"/>
  </way>
  <way id="15244391" version="2" timestamp="2010-07-08T17:49:07Z" uid="74617" user="JohnSmith" changeset="5167338">
    <nd ref="151017766"/>
    <nd ref="71278334"/>
    <tag k="highway" v="residential"/>
    <tag k="maxspeed" v="50"/>
    <tag k="maxspeed:source" v="default residential speed limit in Australia"/>
    <tag k="name" v="Walker Parade"/>
  </way>
  <way id="15244392" version="2" timestamp="2010-07-08T17:49:37Z" uid="74617" user="JohnSmith" changeset="5167338">
    <nd ref="151017746"/>
    <nd ref="151017768"/>
    <nd ref="151017769"/>
    <nd ref="151017760"/>
    <tag k="highway" v="residential"/>
    <tag k="maxspeed" v="50"/>
    <tag k="maxspeed:source" v="default residential speed limit in Australia"/>
    <tag k="name" v="Catterick Parade"/>
  </way>
  <way id="15244393" version="2" timestamp="2010-07-08T17:48:38Z" uid="74617" user="JohnSmith" changeset="5167338">
    <nd ref="151017744"/>
    <nd ref="151017770"/>
    <nd ref="151017771"/>
    <nd ref="151017773"/>
    <nd ref="151017768"/>
    <tag k="highway" v="residential"/>
    <tag k="maxspeed" v="50"/>
    <tag k="maxspeed:source" v="default residential speed limit in Australia"/>
    <tag k="name" v="Dunbar Grove"/>
  </way>
  <way id="15244395" version="2" timestamp="2010-07-08T17:51:07Z" uid="74617" user="JohnSmith" changeset="5167338">
    <nd ref="151017752"/>
    <nd ref="151017775"/>
    <tag k="highway" v="residential"/>
    <tag k="maxspeed" v="50"/>
    <tag k="maxspeed:source" v="default residential speed limit in Australia"/>
    <tag k="name" v="Bond Court"/>
  </way>
  <way id="15244396" version="2" timestamp="2010-07-08T17:48:53Z" uid="74617" user="JohnSmith" changeset="5167338">
    <nd ref="151017754"/>
    <nd ref="151017776"/>
    <tag k="highway" v="residential"/>
    <tag k="maxspeed" v="50"/>
    <tag k="maxspeed:source" v="default residential speed limit in Australia"/>
    <tag k="name" v="O&apos;Hara Court"/>
  </way>
  <way id="15244442" version="2" timestamp="2010-07-08T17:50:26Z" uid="74617" user="JohnSmith" changeset="5167338">
    <nd ref="151017761"/>
    <nd ref="151018022"/>
    <tag k="highway" v="residential"/>
    <tag k="maxspeed" v="50"/>
    <tag k="maxspeed:source" v="default residential speed limit in Australia"/>
  </way>
  <way id="15244443" version="2" timestamp="2010-07-08T17:49:29Z" uid="74617" user="JohnSmith" changeset="5167338">
    <nd ref="151018023"/>
    <nd ref="151018024"/>
    <nd ref="151018025"/>
    <tag k="highway" v="residential"/>
    <tag k="maxspeed" v="50"/>
    <tag k="maxspeed:source" v="default residential speed limit in Australia"/>
    <tag k="name" v="Geoffrey Court"/>
  </way>
  <way id="15244444" version="4" timestamp="2010-07-08T17:46:57Z" uid="74617" user="JohnSmith" changeset="5167338">
    <nd ref="60674480"/>
    <nd ref="151018027"/>
    <nd ref="152472302"/>
    <nd ref="152471916"/>
    <nd ref="151018029"/>
    <nd ref="151018030"/>
    <nd ref="151018031"/>
    <nd ref="152472179"/>
    <nd ref="151018032"/>
    <nd ref="152472216"/>
    <nd ref="152472366"/>
    <nd ref="151018034"/>
    <nd ref="151018035"/>
    <nd ref="152472488"/>
    <nd ref="151018036"/>
    <nd ref="151018040"/>
    <nd ref="151018045"/>
    <tag k="highway" v="residential"/>
    <tag k="maxspeed" v="50"/>
    <tag k="maxspeed:source" v="default residential speed limit in Australia"/>
    <tag k="name" v="Amaroo Drive"/>
  </way>
  <way id="15244445" version="4" timestamp="2010-07-08T17:50:40Z" uid="74617" user="JohnSmith" changeset="5167338">
    <nd ref="151018031"/>
    <nd ref="151018046"/>
    <nd ref="151018047"/>
    <nd ref="152472637"/>
    <nd ref="151018059"/>
    <nd ref="152472577"/>
    <nd ref="151018040"/>
    <tag k="highway" v="residential"/>
    <tag k="maxspeed" v="50"/>
    <tag k="maxspeed:source" v="default residential speed limit in Australia"/>
    <tag k="name" v="Barooga Cresent"/>
  </way>
  <way id="15244446" version="3" timestamp="2010-04-20T13:15:06Z" uid="4467" user="Rosscoe" changeset="4477163">
    <nd ref="151018060"/>
    <nd ref="151018061"/>
    <nd ref="151018062"/>
    <nd ref="667269535"/>
    <nd ref="667269536"/>
    <nd ref="702497625"/>
    <tag k="highway" v="residential"/>
    <tag k="name" v="Balfour Place"/>
  </way>
  <way id="15244446" version="4" timestamp="2010-07-08T17:49:45Z" uid="74617" user="JohnSmith" changeset="5167338">
    <nd ref="151018060"/>
    <nd ref="151018061"/>
    <nd ref="151018062"/>
    <nd ref="667269535"/>
    <nd ref="667269536"/>
    <nd ref="702497625"/>
    <tag k="highway" v="residential"/>
    <tag k="maxspeed" v="50"/>
    <tag k="maxspeed:source" v="default residential speed limit in Australia"/>
    <tag k="name" v="Balfour Place"/>
  </way>
  <way id="15244447" version="3" timestamp="2010-07-08T17:48:47Z" uid="74617" user="JohnSmith" changeset="5167338">
    <nd ref="59739077"/>
    <nd ref="151018069"/>
    <nd ref="151018070"/>
    <nd ref="151018071"/>
    <nd ref="151018072"/>
    <nd ref="151018073"/>
    <nd ref="151018078"/>
    <nd ref="151018079"/>
    <nd ref="151018080"/>
    <nd ref="151018081"/>
    <nd ref="151018082"/>
    <nd ref="151018083"/>
    <tag k="highway" v="residential"/>
    <tag k="maxspeed" v="50"/>
    <tag k="maxspeed:source" v="default residential speed limit in Australia"/>
    <tag k="name" v="Georgina Place"/>
  </way>
  <way id="15244448" version="3" timestamp="2010-07-08T17:50:14Z" uid="74617" user="JohnSmith" changeset="5167338">
    <nd ref="151018093"/>
    <nd ref="667269540"/>
    <nd ref="151018094"/>
    <nd ref="151018082"/>
    <tag k="highway" v="residential"/>
    <tag k="maxspeed" v="50"/>
    <tag k="maxspeed:source" v="default residential speed limit in Australia"/>
    <tag k="name" v="Marina Drive"/>
  </way>
  <way id="15244449" version="2" timestamp="2010-07-08T17:49:17Z" uid="74617" user="JohnSmith" changeset="5167338">
    <nd ref="151018095"/>
    <nd ref="151018100"/>
    <tag k="highway" v="residential"/>
    <tag k="maxspeed" v="50"/>
    <tag k="maxspeed:source" v="default residential speed limit in Australia"/>
    <tag k="name" v="Silcocks Road"/>
    <tag k="source" v="unpaved"/>
  </way>
  <way id="15244450" version="2" timestamp="2010-07-08T17:48:17Z" uid="74617" user="JohnSmith" changeset="5167338">
    <nd ref="109753557"/>
    <nd ref="134522636"/>
    <nd ref="134521417"/>
    <nd ref="134521470"/>
    <nd ref="134522537"/>
    <nd ref="109753590"/>
    <nd ref="109753623"/>
    <tag k="highway" v="residential"/>
    <tag k="maxspeed" v="50"/>
    <tag k="maxspeed:source" v="default residential speed limit in Australia"/>
    <tag k="name" v="Birch Drive"/>
  </way>
  <way id="15244606" version="2" timestamp="2010-04-01T01:51:14Z" uid="23543" user="jkjk" changeset="4290708">
    <nd ref="151019943"/>
    <nd ref="151019944"/>
    <nd ref="151019946"/>
    <nd ref="151019947"/>
    <nd ref="151019948"/>
    <nd ref="151019950"/>
    <nd ref="151019951"/>
    <nd ref="151019952"/>
    <nd ref="151019953"/>
    <nd ref="151019963"/>
    <nd ref="151019966"/>
    <nd ref="151019967"/>
    <nd ref="679547840"/>
    <nd ref="151019969"/>
    <nd ref="151019991"/>
    <nd ref="149361540"/>
    <tag k="highway" v="tertiary"/>
    <tag k="ref" v="508025"/>
  </way>
  <way id="15244742" version="4" timestamp="2009-01-01T14:04:18Z" uid="6975" user="ulfl" changeset="699648">
    <nd ref="151020969"/>
    <nd ref="151020970"/>
    <nd ref="151020971"/>
    <nd ref="151020972"/>
    <nd ref="151020973"/>
    <nd ref="151020974"/>
    <nd ref="151020975"/>
    <nd ref="151020976"/>
    <nd ref="151020977"/>
    <nd ref="151020978"/>
    <nd ref="151020979"/>
    <nd ref="151020980"/>
    <nd ref="151020981"/>
    <nd ref="151020982"/>
    <nd ref="151020983"/>
    <nd ref="151020984"/>
    <nd ref="151020985"/>
    <nd ref="151020986"/>
    <nd ref="151020987"/>
    <nd ref="151020988"/>
    <nd ref="151020989"/>
    <nd ref="151020990"/>
    <nd ref="151020991"/>
    <nd ref="151020992"/>
    <nd ref="151020969"/>
    <tag k="building" v="true"/>
    <tag k="name" v="Museo de El Prado"/>
    <tag k="tourism" v="museum"/>
  </way>
  <way id="15244804" version="3" timestamp="2010-01-31T22:53:38Z" uid="20587" user="balrog-kun" changeset="3764164">
    <nd ref="151022104"/>
    <nd ref="151022105"/>
    <nd ref="612997309"/>
    <nd ref="151022106"/>
    <nd ref="151022107"/>
    <nd ref="151022108"/>
    <nd ref="151022109"/>
    <nd ref="151022104"/>
    <tag k="leisure" v="garden"/>
    <tag k="name" v="Real JardÃ­n BotÃ¡nico"/>
  </way>
  <way id="15244841" version="4" timestamp="2008-10-16T18:13:16Z" uid="49111" user="Markus B" changeset="380014">
    <nd ref="151022318"/>
    <nd ref="151022311"/>
    <nd ref="228251003"/>
    <nd ref="151022312"/>
    <nd ref="228251007"/>
    <nd ref="228251013"/>
    <nd ref="151022313"/>
    <nd ref="228251018"/>
    <nd ref="228251019"/>
    <nd ref="228251025"/>
    <nd ref="228260333"/>
    <nd ref="228260329"/>
    <nd ref="228260322"/>
    <nd ref="151022314"/>
    <nd ref="228260321"/>
    <nd ref="228260315"/>
    <nd ref="151022318"/>
    <tag k="created_by" v="Potlatch 0.10e"/>
    <tag k="landuse" v="forest"/>
  </way>
  <way id="15244842" version="3" timestamp="2010-01-31T22:53:39Z" uid="20587" user="balrog-kun" changeset="3764164">
    <nd ref="151022324"/>
    <nd ref="151022325"/>
    <nd ref="151022326"/>
    <nd ref="151022327"/>
    <nd ref="151022328"/>
    <nd ref="151022329"/>
    <nd ref="151022330"/>
    <nd ref="151022331"/>
    <nd ref="151022332"/>
    <nd ref="151022319"/>
    <nd ref="151022320"/>
    <nd ref="624783108"/>
    <nd ref="151022324"/>
    <tag k="leisure" v="garden"/>
  </way>
</osm>
