<?xml version='1.0' encoding='UTF-8'?>
<osm version="0.6" generator="libosmium/2.20.0">
  <way id="15518480" version="3" timestamp="2008-01-07T00:41:32Z" uid="1066" user="pavel" changeset="565415">
    <nd ref="154813784"/>
    <nd ref="166650251"/>
    <nd ref="154813772"/>
    <nd ref="154813794"/>
    <nd ref="154813789"/>
    <nd ref="154813776"/>
    <nd ref="154813768"/>
    <tag k="created_by" v="JOSM"/>
    <tag k="highway" v="residential"/>
    <tag k="name" v="Šrámkova"/>
  </way>
  <way id="15518481" version="2" timestamp="2008-01-07T00:42:45Z" uid="1066" user="pavel" changeset="565415">
    <nd ref="154813779"/>
    <nd ref="154813781"/>
    <nd ref="154813784"/>
    <tag k="created_by" v="JOSM"/>
    <tag k="highway" v="residential"/>
    <tag k="name" v="Švabinského"/>
  </way>
  <way id="15518482" version="3" timestamp="2008-01-07T00:43:22Z" uid="1066" user="pavel" changeset="565415">
    <nd ref="154813776"/>
    <nd ref="166650245"/>
    <nd ref="154813779"/>
    <tag k="created_by" v="JOSM"/>
    <tag k="highway" v="residential"/>
    <tag k="name" v="Vrchlického"/>
  </way>
  <way id="15518485" version="3" timestamp="2008-01-07T00:42:33Z" uid="1066" user="pavel" changeset="565415">
    <nd ref="154813765"/>
    <nd ref="166650233"/>
    <nd ref="78515953"/>
    <tag k="created_by" v="JOSM"/>
    <tag k="highway" v="residential"/>
    <tag k="name" v="Zahradní"/>
  </way>
  <way id="15518487" version="3" timestamp="2008-01-07T00:43:02Z" uid="1066" user="pavel" changeset="565415">
    <nd ref="78515981"/>
    <nd ref="154813762"/>
    <nd ref="154813765"/>
    <nd ref="166650224"/>
    <tag k="created_by" v="JOSM"/>
    <tag k="highway" v="residential"/>
    <tag k="name" v="Hradební"/>
  </way>
</osm>
