<?xml version='1.0' encoding='UTF-8'?>
<osm version="0.6" generator="libosmium/2.20.0">
  <way id="15572122" version="5" timestamp="2008-04-23T23:16:15Z" uid="6269" user="Mueck" changeset="241331">
    <nd ref="155335889"/>
    <nd ref="155335890"/>
    <nd ref="218450081"/>
    <tag k="created_by" v="Potlatch 0.8a"/>
    <tag k="highway" v="residential"/>
    <tag k="name" v="Johann-Wichels-Weg"/>
  </way>
  <way id="15572458" version="3" timestamp="2008-04-15T15:26:17Z" uid="6269" user="Mueck" changeset="153723">
    <nd ref="155335894"/>
    <nd ref="257737651"/>
    <nd ref="257737664"/>
    <nd ref="257737749"/>
    <nd ref="155335895"/>
    <tag k="created_by" v="Potlatch 0.5d"/>
    <tag k="highway" v="unclassified"/>
    <tag k="name" v="Adolf-Hoff-Weg"/>
  </way>
  <way id="15572458" version="4" timestamp="2008-04-16T18:37:47Z" uid="6269" user="Mueck" changeset="162638">
    <nd ref="155335894"/>
    <nd ref="257737651"/>
    <nd ref="257737664"/>
    <nd ref="257737749"/>
    <nd ref="155335895"/>
    <tag k="created_by" v="Potlatch 0.5d"/>
    <tag k="highway" v="residential"/>
    <tag k="name" v="Adolf-Hoff-Weg"/>
  </way>
  <way id="15572458" version="5" timestamp="2008-04-23T23:10:49Z" uid="6269" user="Mueck" changeset="241331">
    <nd ref="155335894"/>
    <nd ref="257737651"/>
    <nd ref="257737664"/>
    <tag k="created_by" v="Potlatch 0.8a"/>
    <tag k="highway" v="residential"/>
    <tag k="name" v="Adolf-Hoff-Weg"/>
  </way>
  <way id="15572458" version="6" timestamp="2008-04-23T23:14:13Z" uid="6269" user="Mueck" changeset="241331">
    <nd ref="218450030"/>
    <nd ref="155335892"/>
    <nd ref="155335893"/>
    <nd ref="155335894"/>
    <nd ref="257737651"/>
    <nd ref="257737664"/>
    <tag k="created_by" v="Potlatch 0.8a"/>
    <tag k="highway" v="residential"/>
    <tag k="name" v="Johann-Wichels-Weg"/>
  </way>
  <way id="15572458" version="7" timestamp="2008-04-24T00:08:15Z" uid="6269" user="Mueck" changeset="241331">
    <nd ref="218450030"/>
    <nd ref="155335892"/>
    <nd ref="155335893"/>
    <nd ref="155335894"/>
    <nd ref="259573244"/>
    <nd ref="257737651"/>
    <nd ref="257737664"/>
    <tag k="created_by" v="Potlatch 0.8a"/>
    <tag k="highway" v="residential"/>
    <tag k="name" v="Johann-Wichels-Weg"/>
  </way>
  <way id="15572458" version="11" timestamp="2010-08-18T21:46:42Z" uid="6269" user="Mueck" changeset="5531017">
    <nd ref="218450030"/>
    <nd ref="155335892"/>
    <nd ref="505378217"/>
    <nd ref="867452533"/>
    <tag k="highway" v="unclassified"/>
    <tag k="maxspeed" v="50"/>
    <tag k="name" v="Johann-Wichels-Weg"/>
    <tag k="source" v="GPS"/>
    <tag k="surface" v="asphalt"/>
    <tag k="width" v="6"/>
  </way>
  <way id="15572589" version="3" timestamp="2008-04-15T15:26:18Z" uid="6269" user="Mueck" changeset="153723">
    <nd ref="155335895"/>
    <nd ref="257737591"/>
    <nd ref="155335896"/>
    <nd ref="155335898"/>
    <tag k="created_by" v="Potlatch 0.5d"/>
    <tag k="highway" v="residential"/>
    <tag k="name" v="Kammerweg"/>
  </way>
  <way id="15572589" version="4" timestamp="2008-04-23T23:22:42Z" uid="6269" user="Mueck" changeset="241331"/>
  <way id="15572681" version="5" timestamp="2008-04-15T15:26:24Z" uid="6269" user="Mueck" changeset="153723">
    <nd ref="155335898"/>
    <nd ref="155335900"/>
    <nd ref="246627598"/>
    <nd ref="155335901"/>
    <nd ref="246627510"/>
    <nd ref="257737781"/>
    <nd ref="155335902"/>
    <tag k="created_by" v="Potlatch 0.7"/>
    <tag k="highway" v="residential"/>
    <tag k="name" v="Walter-Delius-Straße"/>
  </way>
  <way id="15572681" version="6" timestamp="2008-04-23T23:21:52Z" uid="6269" user="Mueck" changeset="241331">
    <nd ref="257737458"/>
    <nd ref="257737457"/>
    <nd ref="257737456"/>
    <nd ref="257737455"/>
    <nd ref="257737454"/>
    <nd ref="257737453"/>
    <nd ref="257737452"/>
    <nd ref="155335898"/>
    <nd ref="155335900"/>
    <nd ref="246627598"/>
    <nd ref="155335901"/>
    <nd ref="246627510"/>
    <nd ref="257737781"/>
    <nd ref="155335902"/>
    <tag k="created_by" v="Potlatch 0.8a"/>
    <tag k="highway" v="residential"/>
    <tag k="name" v="Walter-Delius-Straße"/>
  </way>
  <way id="15572681" version="9" timestamp="2010-08-18T21:59:12Z" uid="6269" user="Mueck" changeset="5531017">
    <nd ref="257737458"/>
    <nd ref="257737457"/>
    <nd ref="257737456"/>
    <nd ref="867473558"/>
    <nd ref="257737455"/>
    <nd ref="257737454"/>
    <nd ref="257737453"/>
    <nd ref="257737452"/>
    <nd ref="155335898"/>
    <nd ref="155335900"/>
    <nd ref="246627598"/>
    <nd ref="155335901"/>
    <nd ref="246627510"/>
    <nd ref="257737781"/>
    <nd ref="155335902"/>
    <tag k="highway" v="residential"/>
    <tag k="maxspeed" v="30"/>
    <tag k="name" v="Walter-Delius-Straße"/>
  </way>
  <way id="15572681" version="10" timestamp="2010-12-05T13:19:06Z" uid="6269" user="Mueck" changeset="6549831">
    <nd ref="257737458"/>
    <nd ref="257737457"/>
    <nd ref="1022651167"/>
    <nd ref="257737456"/>
    <nd ref="867473558"/>
    <nd ref="257737455"/>
    <nd ref="257737454"/>
    <nd ref="257737453"/>
    <nd ref="257737452"/>
    <nd ref="155335898"/>
    <nd ref="155335900"/>
    <nd ref="246627598"/>
    <nd ref="155335901"/>
    <nd ref="246627510"/>
    <nd ref="257737781"/>
    <nd ref="155335902"/>
    <tag k="highway" v="residential"/>
    <tag k="maxspeed" v="30"/>
    <tag k="name" v="Walter-Delius-Straße"/>
  </way>
  <way id="15572735" version="4" timestamp="2008-02-11T15:53:40Z" uid="6269" user="Mueck" changeset="100882">
    <nd ref="246627509"/>
    <nd ref="155335902"/>
    <nd ref="155335904"/>
    <nd ref="155335905"/>
    <tag k="created_by" v="Potlatch 0.7"/>
    <tag k="highway" v="residential"/>
    <tag k="name" v="Hartwigstraße"/>
    <tag k="oneway" v="true"/>
  </way>
  <way id="15572735" version="5" timestamp="2008-04-15T15:26:20Z" uid="6269" user="Mueck" changeset="153723">
    <nd ref="246627509"/>
    <nd ref="155335902"/>
    <nd ref="257737445"/>
    <nd ref="155335904"/>
    <nd ref="257737444"/>
    <nd ref="155335905"/>
    <tag k="created_by" v="Potlatch 0.7"/>
    <tag k="highway" v="residential"/>
    <tag k="name" v="Hartwigstraße"/>
    <tag k="oneway" v="true"/>
  </way>
  <way id="15572735" version="6" timestamp="2008-04-18T00:13:12Z" uid="6269" user="Mueck" changeset="181080">
    <nd ref="246627509"/>
    <nd ref="155335902"/>
    <tag k="created_by" v="Potlatch 0.8a"/>
    <tag k="highway" v="residential"/>
    <tag k="name" v="Hartwigstraße"/>
    <tag k="oneway" v="true"/>
  </way>
  <way id="15572735" version="7" timestamp="2008-04-18T00:13:22Z" uid="6269" user="Mueck" changeset="181080">
    <nd ref="246627509"/>
    <nd ref="155335902"/>
    <tag k="created_by" v="Potlatch 0.8a"/>
    <tag k="cycleway" v="opposite_lane"/>
    <tag k="highway" v="residential"/>
    <tag k="name" v="Hartwigstraße"/>
    <tag k="oneway" v="true"/>
  </way>
  <way id="15572735" version="10" timestamp="2010-08-22T21:14:27Z" uid="6269" user="Mueck" changeset="5565943">
    <nd ref="246627509"/>
    <nd ref="874457382"/>
    <nd ref="155335902"/>
    <tag k="cycleway" v="opposite_lane"/>
    <tag k="highway" v="residential"/>
    <tag k="name" v="Hartwigstraße"/>
    <tag k="oneway" v="yes"/>
  </way>
</osm>
