<?xml version='1.0' encoding='UTF-8'?>
<osm version="0.6" generator="libosmium/2.20.0">
  <way id="15588842" version="17" timestamp="2009-04-16T18:35:35Z" uid="30632" user="antblant" changeset="598077">
    <nd ref="192817684"/>
    <nd ref="123969012"/>
    <tag k="created_by" v="Potlatch 0.10f"/>
    <tag k="highway" v="primary"/>
    <tag k="name" v="Władysława Reymonta"/>
    <tag k="oneway" v="yes"/>
    <tag k="ref" v="11"/>
  </way>
  <way id="15588842" version="18" timestamp="2009-04-16T18:35:44Z" uid="30632" user="antblant" changeset="598077">
    <nd ref="192817684"/>
    <nd ref="123969012"/>
    <tag k="created_by" v="Potlatch 0.10f"/>
    <tag k="highway" v="primary"/>
    <tag k="name" v="Władysława Reymonta"/>
    <tag k="oneway" v="yes"/>
  </way>
  <way id="15588842" version="25" timestamp="2010-03-14T20:56:04Z" uid="163746" user="anti_bot-nonsense" changeset="4128666">
    <nd ref="192817684"/>
    <nd ref="123969012"/>
    <tag k="highway" v="primary"/>
    <tag k="name" v="Władysława Reymonta"/>
    <tag k="oneway" v="yes"/>
    <tag k="ref" v="11"/>
  </way>
</osm>
