<?xml version='1.0' encoding='UTF-8'?>
<osm version="0.6" generator="libosmium/2.20.0">
  <way id="15598075" version="3" timestamp="2010-03-15T23:40:27Z" uid="163746" user="anti_bot-nonsense" changeset="4139871">
    <nd ref="29943253"/>
    <nd ref="314225227"/>
    <nd ref="314225229"/>
    <nd ref="155565978"/>
    <tag k="highway" v="residential"/>
    <tag k="name" v="KrzyÅ¼owa"/>
  </way>
  <way id="15598262" version="6" timestamp="2010-03-15T23:40:21Z" uid="163746" user="anti_bot-nonsense" changeset="4139871">
    <nd ref="155567314"/>
    <nd ref="155567315"/>
    <nd ref="428764899"/>
    <nd ref="142361953"/>
    <tag k="highway" v="secondary"/>
    <tag k="name" v="Dolna Wilda"/>
    <tag k="oneway" v="yes"/>
  </way>
  <way id="15598300" version="1" timestamp="2007-12-07T23:47:26Z" uid="4467" user="Rosscoe" changeset="176100">
    <nd ref="155567450"/>
    <nd ref="25984363"/>
    <nd ref="25984364"/>
    <nd ref="25984365"/>
    <tag k="created_by" v="JOSM"/>
    <tag k="highway" v="trunk"/>
    <tag k="name" v="Pacific Highway"/>
    <tag k="ref" v="1"/>
  </way>
  <way id="15598300" version="2" timestamp="2007-12-08T00:05:10Z" uid="4467" user="Rosscoe" changeset="176100">
    <nd ref="155567450"/>
    <nd ref="25984363"/>
    <nd ref="25984364"/>
    <nd ref="25984365"/>
    <tag k="created_by" v="JOSM"/>
    <tag k="highway" v="trunk"/>
    <tag k="name" v="Pacific Highway"/>
    <tag k="ref" v="1"/>
    <tag k="surface" v="paved"/>
  </way>
  <way id="15598300" version="3" timestamp="2007-12-08T00:05:26Z" uid="4467" user="Rosscoe" changeset="176100">
    <nd ref="155567450"/>
    <nd ref="25984363"/>
    <nd ref="25984364"/>
    <nd ref="25984365"/>
    <tag k="created_by" v="JOSM"/>
    <tag k="highway" v="trunk"/>
    <tag k="name" v="Pacific Highway"/>
    <tag k="ref" v="1"/>
    <tag k="source" v="gpsdrive"/>
    <tag k="surface" v="paved"/>
  </way>
  <way id="15598300" version="5" timestamp="2009-08-04T16:00:38Z" uid="74617" user="JohnSmith" changeset="2037038"/>
  <way id="15598353" version="2" timestamp="2009-04-10T05:43:44Z" uid="61114" user="Trav" changeset="387666">
    <nd ref="155567934"/>
    <nd ref="155567935"/>
    <tag k="created_by" v="Merkaartor 0.14"/>
    <tag k="highway" v="residential"/>
    <tag k="name" v="Sames Close"/>
    <tag k="source:name" v="survey"/>
  </way>
  <way id="15598353" version="3" timestamp="2010-07-07T23:24:43Z" uid="74617" user="JohnSmith" changeset="5162525">
    <nd ref="155567934"/>
    <nd ref="155567935"/>
    <tag k="highway" v="residential"/>
    <tag k="maxspeed" v="50"/>
    <tag k="maxspeed:source" v="default residential speed limit in Australia"/>
    <tag k="name" v="Sames Close"/>
    <tag k="source:name" v="survey"/>
  </way>
  <way id="15598465" version="5" timestamp="2010-03-15T23:40:22Z" uid="163746" user="anti_bot-nonsense" changeset="4139871">
    <nd ref="142361951"/>
    <nd ref="155568670"/>
    <nd ref="428764897"/>
    <nd ref="155567314"/>
    <tag k="highway" v="secondary"/>
    <tag k="name" v="Dolna Wilda"/>
    <tag k="oneway" v="yes"/>
  </way>
  <way id="15598874" version="3" timestamp="2009-04-21T10:49:10Z" uid="61114" user="Trav" changeset="878397">
    <nd ref="154173784"/>
    <nd ref="154188396"/>
    <nd ref="154177952"/>
    <nd ref="154162596"/>
    <nd ref="154164997"/>
    <nd ref="155572520"/>
    <tag k="highway" v="residential"/>
    <tag k="name" v="Grandview Parade"/>
    <tag k="source:name" v="survey"/>
  </way>
  <way id="15598874" version="4" timestamp="2010-03-05T22:44:22Z" uid="7617" user="Franc" changeset="4045569">
    <nd ref="154173784"/>
    <nd ref="154188396"/>
    <nd ref="660861729"/>
    <nd ref="660861728"/>
    <nd ref="660861725"/>
    <nd ref="154177952"/>
    <nd ref="154162596"/>
    <nd ref="154164997"/>
    <nd ref="630018195"/>
    <tag k="highway" v="residential"/>
    <tag k="name" v="Grandview Parade"/>
    <tag k="source:name" v="survey"/>
  </way>
  <way id="15598874" version="5" timestamp="2010-07-07T23:24:19Z" uid="74617" user="JohnSmith" changeset="5162525">
    <nd ref="154173784"/>
    <nd ref="154188396"/>
    <nd ref="660861729"/>
    <nd ref="660861728"/>
    <nd ref="660861725"/>
    <nd ref="154177952"/>
    <nd ref="154162596"/>
    <nd ref="154164997"/>
    <nd ref="630018195"/>
    <tag k="highway" v="residential"/>
    <tag k="maxspeed" v="50"/>
    <tag k="maxspeed:source" v="default residential speed limit in Australia"/>
    <tag k="name" v="Grandview Parade"/>
    <tag k="source:name" v="survey"/>
  </way>
</osm>
