<?xml version='1.0' encoding='UTF-8'?>
<osm version="0.6" generator="libosmium/2.20.0">
  <way id="15599220" version="2" timestamp="2009-04-10T05:44:02Z" uid="61114" user="Trav" changeset="387666">
    <nd ref="154186009"/>
    <nd ref="155575356"/>
    <tag k="created_by" v="Merkaartor 0.14"/>
    <tag k="highway" v="service"/>
    <tag k="name" v="Akuna Lane"/>
    <tag k="oneway" v="yes"/>
    <tag k="source:name" v="survey"/>
  </way>
  <way id="15599220" version="3" timestamp="2010-03-05T23:54:05Z" uid="7617" user="Franc" changeset="4045986">
    <nd ref="154186009"/>
    <nd ref="660886357"/>
    <nd ref="660886356"/>
    <nd ref="660886358"/>
    <nd ref="660886367"/>
    <nd ref="155575356"/>
    <tag k="highway" v="service"/>
    <tag k="name" v="Akuna Lane"/>
    <tag k="oneway" v="yes"/>
    <tag k="source:name" v="survey"/>
  </way>
  <way id="15599220" version="4" timestamp="2010-03-06T01:21:39Z" uid="7617" user="Franc" changeset="4046247">
    <nd ref="154186009"/>
    <nd ref="660886357"/>
    <nd ref="660886356"/>
    <nd ref="660886358"/>
    <nd ref="660886367"/>
    <nd ref="660902698"/>
    <nd ref="155575356"/>
    <tag k="highway" v="service"/>
    <tag k="name" v="Akuna Lane"/>
    <tag k="oneway" v="yes"/>
    <tag k="source:name" v="survey"/>
  </way>
  <way id="15599274" version="1" timestamp="2007-12-07T23:54:01Z" uid="4467" user="Rosscoe" changeset="176100">
    <nd ref="25987562"/>
    <nd ref="25987563"/>
    <nd ref="25987564"/>
    <nd ref="25987566"/>
    <nd ref="25987567"/>
    <nd ref="25987568"/>
    <nd ref="25987570"/>
    <tag k="created_by" v="JOSM"/>
    <tag k="highway" v="secondary"/>
    <tag k="name" v="Wagner Street"/>
  </way>
  <way id="15599274" version="2" timestamp="2009-12-26T13:29:18Z" uid="74617" user="JohnSmith" changeset="3454712">
    <nd ref="25987562"/>
    <nd ref="25987563"/>
    <nd ref="25987564"/>
    <nd ref="25987566"/>
    <nd ref="25987567"/>
    <nd ref="25987568"/>
    <nd ref="25987570"/>
    <tag k="highway" v="secondary"/>
    <tag k="maxspeed" v="50"/>
    <tag k="name" v="Wagner Street"/>
    <tag k="source" v="survey"/>
  </way>
  <way id="15599279" version="1" timestamp="2007-12-07T23:54:02Z" uid="4467" user="Rosscoe" changeset="176100">
    <nd ref="25987570"/>
    <nd ref="25988433"/>
    <nd ref="25988434"/>
    <nd ref="25988435"/>
    <nd ref="25988436"/>
    <nd ref="25988437"/>
    <nd ref="25988442"/>
    <nd ref="25988443"/>
    <nd ref="25988444"/>
    <nd ref="25988445"/>
    <nd ref="25988446"/>
    <nd ref="25988447"/>
    <nd ref="25988448"/>
    <nd ref="25988449"/>
    <nd ref="25988450"/>
    <nd ref="25988451"/>
    <nd ref="155575828"/>
    <tag k="created_by" v="JOSM"/>
    <tag k="highway" v="secondary"/>
    <tag k="name" v="Woodburn Evans Head Road"/>
  </way>
  <way id="15599279" version="2" timestamp="2007-12-08T00:03:49Z" uid="4467" user="Rosscoe" changeset="176100">
    <nd ref="25987570"/>
    <nd ref="25988433"/>
    <nd ref="25988434"/>
    <nd ref="25988435"/>
    <nd ref="25988436"/>
    <nd ref="25988437"/>
    <nd ref="25988442"/>
    <nd ref="25988443"/>
    <nd ref="25988444"/>
    <nd ref="25988445"/>
    <nd ref="25988446"/>
    <nd ref="25988447"/>
    <nd ref="25988448"/>
    <nd ref="25988449"/>
    <nd ref="25988450"/>
    <nd ref="25988451"/>
    <nd ref="155575828"/>
    <tag k="created_by" v="JOSM"/>
    <tag k="highway" v="secondary"/>
    <tag k="name" v="Woodburn Evans Head Road"/>
    <tag k="surface" v="paved"/>
  </way>
  <way id="15599279" version="5" timestamp="2009-12-26T03:23:12Z" uid="74617" user="JohnSmith" changeset="3452099">
    <nd ref="25987570"/>
    <nd ref="25988433"/>
    <nd ref="25988434"/>
    <nd ref="599442539"/>
    <nd ref="25988435"/>
    <nd ref="25988436"/>
    <nd ref="25988437"/>
    <nd ref="25988442"/>
    <nd ref="25988443"/>
    <nd ref="25988444"/>
    <nd ref="25988445"/>
    <nd ref="25988446"/>
    <nd ref="25988447"/>
    <nd ref="25988448"/>
    <nd ref="25988449"/>
    <nd ref="25988450"/>
    <nd ref="599442541"/>
    <nd ref="25988451"/>
    <nd ref="599442488"/>
    <nd ref="418113278"/>
    <nd ref="418109002"/>
    <tag k="highway" v="secondary"/>
    <tag k="maxspeed" v="100"/>
    <tag k="name" v="Woodburn Evans Head Road"/>
  </way>
  <way id="15599284" version="1" timestamp="2007-12-07T23:54:04Z" uid="4467" user="Rosscoe" changeset="176100">
    <nd ref="155575828"/>
    <nd ref="25988452"/>
    <nd ref="25988472"/>
    <nd ref="25988453"/>
    <nd ref="25988469"/>
    <nd ref="25988458"/>
    <tag k="created_by" v="JOSM"/>
    <tag k="highway" v="secondary"/>
    <tag k="name" v="Woodburn Road"/>
  </way>
  <way id="15599284" version="2" timestamp="2007-12-08T00:01:39Z" uid="4467" user="Rosscoe" changeset="176100">
    <nd ref="155575828"/>
    <nd ref="25988452"/>
    <nd ref="25988472"/>
    <nd ref="25988453"/>
    <nd ref="25988469"/>
    <nd ref="25988458"/>
    <tag k="created_by" v="JOSM"/>
    <tag k="highway" v="residential"/>
    <tag k="name" v="Woodburn Street"/>
  </way>
  <way id="15599284" version="3" timestamp="2007-12-08T00:03:51Z" uid="4467" user="Rosscoe" changeset="176100">
    <nd ref="155575828"/>
    <nd ref="25988452"/>
    <nd ref="25988472"/>
    <nd ref="25988453"/>
    <nd ref="25988469"/>
    <nd ref="25988458"/>
    <tag k="created_by" v="JOSM"/>
    <tag k="highway" v="residential"/>
    <tag k="name" v="Woodburn Street"/>
    <tag k="surface" v="paved"/>
  </way>
  <way id="15599284" version="4" timestamp="2009-12-26T03:23:12Z" uid="74617" user="JohnSmith" changeset="3452099">
    <nd ref="599442498"/>
    <nd ref="155575828"/>
    <nd ref="25988452"/>
    <nd ref="25988472"/>
    <nd ref="25988453"/>
    <nd ref="25988469"/>
    <nd ref="25988458"/>
    <tag k="highway" v="tertiary"/>
    <tag k="name" v="Woodburn Street"/>
  </way>
</osm>
