<?xml version='1.0' encoding='UTF-8'?>
<osm version="0.6" generator="libosmium/2.20.0">
  <way id="15591153" version="8" timestamp="2008-10-22T15:07:05Z" uid="20587" user="balrog-kun" changeset="507511">
    <nd ref="155502720"/>
    <nd ref="155505443"/>
    <nd ref="256881737"/>
    <nd ref="155505444"/>
    <nd ref="155505445"/>
    <nd ref="155505447"/>
    <nd ref="155505448"/>
    <nd ref="155505449"/>
    <nd ref="306431741"/>
    <nd ref="155505450"/>
    <nd ref="306431739"/>
    <nd ref="155505452"/>
    <nd ref="155490019"/>
    <tag k="created_by" v="Potlatch 0.10c"/>
    <tag k="highway" v="primary"/>
    <tag k="name" v="StanisÅ‚awa Przybyszewskiego"/>
    <tag k="oneway" v="yes"/>
    <tag k="ref" v="11"/>
  </way>
  <way id="15591351" version="13" timestamp="2010-02-15T18:20:07Z" uid="123700" user="Mala" changeset="3885458">
    <nd ref="155496637"/>
    <nd ref="256881720"/>
    <nd ref="497308352"/>
    <nd ref="314819212"/>
    <nd ref="497308217"/>
    <nd ref="155507013"/>
    <nd ref="155507014"/>
    <nd ref="640100570"/>
    <nd ref="247477058"/>
    <nd ref="155507015"/>
    <tag k="highway" v="secondary"/>
    <tag k="name" v="Bukowska"/>
  </way>
  <way id="15591351" version="14" timestamp="2011-05-12T01:31:48Z" uid="20587" user="balrog-kun" changeset="8117868">
    <nd ref="155496637"/>
    <nd ref="256881720"/>
    <nd ref="497308352"/>
    <nd ref="314819212"/>
    <nd ref="497308217"/>
    <nd ref="155507013"/>
    <nd ref="155507014"/>
    <nd ref="640100570"/>
    <nd ref="247477058"/>
    <nd ref="155507015"/>
    <tag k="highway" v="secondary"/>
    <tag k="maxweight" v="16"/>
    <tag k="name" v="Bukowska"/>
  </way>
  <way id="15591479" version="7" timestamp="2008-10-22T14:29:03Z" uid="20587" user="balrog-kun" changeset="507511">
    <nd ref="155496637"/>
    <nd ref="306421845"/>
    <nd ref="155505447"/>
    <nd ref="155507961"/>
    <nd ref="155508544"/>
    <nd ref="282086096"/>
    <nd ref="247477918"/>
    <tag k="created_by" v="Potlatch 0.10a"/>
    <tag k="highway" v="secondary"/>
    <tag k="name" v="Bukowska"/>
    <tag k="ref" v="307"/>
  </way>
  <way id="15591479" version="8" timestamp="2008-10-22T15:07:03Z" uid="20587" user="balrog-kun" changeset="507511">
    <nd ref="155496637"/>
    <nd ref="306421845"/>
    <nd ref="155505447"/>
    <nd ref="306431733"/>
    <nd ref="306431730"/>
    <nd ref="306431638"/>
    <nd ref="155507961"/>
    <nd ref="282086096"/>
    <nd ref="247477918"/>
    <tag k="created_by" v="Potlatch 0.10a"/>
    <tag k="highway" v="secondary"/>
    <tag k="name" v="Bukowska"/>
    <tag k="ref" v="307"/>
  </way>
  <way id="15591835" version="9" timestamp="2009-04-16T18:30:07Z" uid="30632" user="antblant" changeset="598077">
    <nd ref="155501001"/>
    <nd ref="258775553"/>
    <nd ref="155511387"/>
    <nd ref="155511389"/>
    <nd ref="155511390"/>
    <nd ref="259806375"/>
    <nd ref="155511391"/>
    <nd ref="155511392"/>
    <nd ref="155511393"/>
    <tag k="created_by" v="Potlatch 0.10f"/>
    <tag k="highway" v="primary"/>
    <tag k="lanes" v="3"/>
    <tag k="name" v="Niestachowska"/>
    <tag k="oneway" v="yes"/>
    <tag k="ref" v="11"/>
  </way>
  <way id="15591947" version="17" timestamp="2009-04-16T18:28:38Z" uid="30632" user="antblant" changeset="598077">
    <nd ref="155511393"/>
    <nd ref="155511395"/>
    <nd ref="259806001"/>
    <nd ref="155511396"/>
    <nd ref="155511397"/>
    <nd ref="155511398"/>
    <nd ref="155515713"/>
    <nd ref="155515714"/>
    <nd ref="256401729"/>
    <nd ref="155515716"/>
    <nd ref="155515717"/>
    <nd ref="155515719"/>
    <nd ref="155515720"/>
    <nd ref="155515721"/>
    <nd ref="155515722"/>
    <nd ref="155515723"/>
    <tag k="created_by" v="Potlatch 0.10f"/>
    <tag k="highway" v="trunk"/>
    <tag k="lanes" v="3"/>
    <tag k="name" v="Wincentego Witosa"/>
    <tag k="oneway" v="yes"/>
    <tag k="ref" v="11"/>
  </way>
  <way id="15591947" version="18" timestamp="2009-04-16T18:28:50Z" uid="30632" user="antblant" changeset="598077">
    <nd ref="155511393"/>
    <nd ref="155511395"/>
    <nd ref="259806001"/>
    <nd ref="155511396"/>
    <nd ref="155511397"/>
    <nd ref="155511398"/>
    <nd ref="155515713"/>
    <nd ref="155515714"/>
    <nd ref="256401729"/>
    <nd ref="155515716"/>
    <nd ref="155515717"/>
    <nd ref="155515719"/>
    <nd ref="155515720"/>
    <nd ref="155515721"/>
    <nd ref="155515722"/>
    <nd ref="155515723"/>
    <tag k="created_by" v="Potlatch 0.10f"/>
    <tag k="highway" v="primary"/>
    <tag k="lanes" v="3"/>
    <tag k="name" v="Wincentego Witosa"/>
    <tag k="oneway" v="yes"/>
    <tag k="ref" v="11"/>
  </way>
</osm>
