<?xml version='1.0' encoding='UTF-8'?>
<osm version="0.6" generator="libosmium/2.20.0">
  <way id="15592084" version="16" timestamp="2009-04-16T18:30:38Z" uid="30632" user="antblant" changeset="598077">
    <nd ref="155513908"/>
    <nd ref="155513909"/>
    <nd ref="262787583"/>
    <nd ref="259806399"/>
    <nd ref="155513911"/>
    <nd ref="155513912"/>
    <nd ref="155513914"/>
    <nd ref="155513915"/>
    <nd ref="315279782"/>
    <nd ref="256881861"/>
    <nd ref="155502183"/>
    <tag k="created_by" v="Potlatch 0.10f"/>
    <tag k="highway" v="primary"/>
    <tag k="lanes" v="3"/>
    <tag k="name" v="Niestachowska"/>
    <tag k="oneway" v="yes"/>
    <tag k="ref" v="11"/>
  </way>
  <way id="15592084" version="27" timestamp="2010-03-16T22:32:50Z" uid="163746" user="anti_bot-nonsense" changeset="4147654">
    <nd ref="155513908"/>
    <nd ref="155513909"/>
    <nd ref="402320656"/>
    <nd ref="402320789"/>
    <nd ref="262787583"/>
    <tag k="highway" v="trunk"/>
    <tag k="lanes" v="3"/>
    <tag k="name" v="Niestachowska"/>
    <tag k="oneway" v="yes"/>
    <tag k="ref" v="11"/>
  </way>
  <way id="15592386" version="20" timestamp="2009-04-16T18:28:21Z" uid="30632" user="antblant" changeset="598077">
    <nd ref="155517187"/>
    <nd ref="155517188"/>
    <nd ref="155517191"/>
    <nd ref="155517192"/>
    <nd ref="155517193"/>
    <nd ref="155517194"/>
    <nd ref="155517196"/>
    <nd ref="256401844"/>
    <nd ref="256401947"/>
    <nd ref="155517198"/>
    <nd ref="256404295"/>
    <nd ref="155517199"/>
    <nd ref="155517200"/>
    <nd ref="259806102"/>
    <nd ref="262787535"/>
    <nd ref="155517202"/>
    <nd ref="155513908"/>
    <tag k="created_by" v="Potlatch 0.10f"/>
    <tag k="highway" v="primary"/>
    <tag k="lines" v="3"/>
    <tag k="name" v="Wincentego Witosa"/>
    <tag k="oneway" v="yes"/>
    <tag k="ref" v="11"/>
  </way>
  <way id="15592386" version="21" timestamp="2009-04-16T18:28:33Z" uid="30632" user="antblant" changeset="598077">
    <nd ref="155517187"/>
    <nd ref="155517188"/>
    <nd ref="155517191"/>
    <nd ref="155517192"/>
    <nd ref="155517193"/>
    <nd ref="155517194"/>
    <nd ref="155517196"/>
    <nd ref="256401844"/>
    <nd ref="256401947"/>
    <nd ref="155517198"/>
    <nd ref="256404295"/>
    <nd ref="155517199"/>
    <nd ref="155517200"/>
    <nd ref="259806102"/>
    <nd ref="262787535"/>
    <nd ref="155517202"/>
    <nd ref="155513908"/>
    <tag k="created_by" v="Potlatch 0.10f"/>
    <tag k="highway" v="primary"/>
    <tag k="lanes" v="3"/>
    <tag k="name" v="Wincentego Witosa"/>
    <tag k="oneway" v="yes"/>
    <tag k="ref" v="11"/>
  </way>
  <way id="15592437" version="7" timestamp="2010-03-16T22:33:33Z" uid="163746" user="anti_bot-nonsense" changeset="4147654">
    <nd ref="155518519"/>
    <nd ref="155517667"/>
    <tag k="highway" v="tertiary"/>
    <tag k="name" v="Aleja SolidarnoÅ›ci"/>
  </way>
  <way id="15592720" version="13" timestamp="2010-03-16T22:33:36Z" uid="163746" user="anti_bot-nonsense" changeset="4147654">
    <nd ref="155520821"/>
    <nd ref="155520823"/>
    <nd ref="360927885"/>
    <nd ref="155520825"/>
    <nd ref="360927503"/>
    <nd ref="360930167"/>
    <nd ref="155520828"/>
    <nd ref="155517187"/>
    <nd ref="360927887"/>
    <nd ref="155515723"/>
    <nd ref="360928203"/>
    <nd ref="360930169"/>
    <nd ref="155520821"/>
    <tag k="highway" v="primary"/>
    <tag k="junction" v="roundabout"/>
    <tag k="name" v="Rondo Obornickie"/>
  </way>
</osm>
