<?xml version='1.0' encoding='UTF-8'?>
<osm version="0.6" generator="libosmium/2.20.0">
  <way id="15652829" version="9" timestamp="2011-05-05T18:15:04Z" uid="115477" user="wowik" changeset="8059528">
    <nd ref="993614439"/>
    <nd ref="1273355014"/>
    <tag k="addr:postcode" v="127282"/>
    <tag k="cladr:code" v="77000000000741300"/>
    <tag k="cladr:name" v="МКАД 90 км"/>
    <tag k="cladr:suffix" v="Дорога"/>
    <tag k="highway" v="motorway"/>
    <tag k="int_ref" v="E 22"/>
    <tag k="lanes" v="5"/>
    <tag k="lit" v="yes"/>
    <tag k="loc_ref" v="МКАД"/>
    <tag k="maxspeed" v="100"/>
    <tag k="name" v="МКАД, 90-й километр"/>
    <tag k="omkum:code" v="63736"/>
    <tag k="oneway" v="yes"/>
    <tag k="sorting_name" v="МКАД,  90-й километр  МКАД"/>
  </way>
  <way id="15652877" version="2" timestamp="2008-08-22T07:29:35Z" uid="7617" user="Franc" changeset="367833">
    <nd ref="156079766"/>
    <nd ref="156079767"/>
    <nd ref="156079769"/>
    <nd ref="156079770"/>
    <nd ref="156079772"/>
    <nd ref="156079774"/>
    <nd ref="156079775"/>
    <nd ref="156079766"/>
    <tag k="created_by" v="Potlatch 0.5d"/>
    <tag k="leisure" v="park"/>
    <tag k="name" v="Hoskins Park"/>
  </way>
</osm>
