<?xml version='1.0' encoding='UTF-8'?>
<osm version="0.6" generator="libosmium/2.20.0">
  <way id="15815169" version="7" timestamp="2010-03-06T13:05:16Z" uid="7617" user="Franc" changeset="4049938">
    <nd ref="26381619"/>
    <nd ref="29698926"/>
    <tag k="highway" v="trunk"/>
    <tag k="maxspeed" v="60"/>
    <tag k="name" v="Pittwater Road"/>
    <tag k="oneway" v="yes"/>
    <tag k="ref" v="MR10"/>
  </way>
  <way id="15815169" version="8" timestamp="2010-03-31T07:59:21Z" uid="74617" user="JohnSmith" changeset="4283194">
    <nd ref="26381619"/>
    <nd ref="679031609"/>
    <tag k="highway" v="trunk"/>
    <tag k="maxspeed" v="60"/>
    <tag k="name" v="Pittwater Road"/>
    <tag k="oneway" v="yes"/>
  </way>
  <way id="15815239" version="10" timestamp="2010-03-06T13:05:15Z" uid="7617" user="Franc" changeset="4049938">
    <nd ref="152307818"/>
    <nd ref="158929634"/>
    <nd ref="158929636"/>
    <nd ref="158929637"/>
    <nd ref="158929638"/>
    <nd ref="158929639"/>
    <tag k="highway" v="trunk_link"/>
    <tag k="maxspeed" v="70"/>
    <tag k="name" v="Pittwater Road"/>
    <tag k="oneway" v="yes"/>
    <tag k="ref" v="MR10"/>
  </way>
  <way id="15815239" version="11" timestamp="2010-03-31T07:59:19Z" uid="74617" user="JohnSmith" changeset="4283194">
    <nd ref="29699074"/>
    <nd ref="29612711"/>
    <nd ref="21421666"/>
    <nd ref="21401213"/>
    <nd ref="152296038"/>
    <nd ref="152406392"/>
    <nd ref="152307818"/>
    <nd ref="158929634"/>
    <nd ref="158929636"/>
    <nd ref="158929637"/>
    <nd ref="158929638"/>
    <nd ref="158929639"/>
    <nd ref="679031607"/>
    <tag k="highway" v="trunk"/>
    <tag k="maxspeed" v="70"/>
    <tag k="name" v="Pittwater Road"/>
    <tag k="oneway" v="yes"/>
  </way>
  <way id="15815244" version="1" timestamp="2007-12-10T00:39:49Z" uid="17602" user="B10xyz" changeset="246950">
    <nd ref="158929129"/>
    <nd ref="158929688"/>
    <nd ref="158929690"/>
    <tag k="created_by" v="Potlatch 0.5d"/>
    <tag k="highway" v="service"/>
  </way>
  <way id="15815355" version="3" timestamp="2010-03-27T22:19:56Z" uid="20587" user="balrog-kun" changeset="4250871">
    <nd ref="122697799"/>
    <nd ref="122864614"/>
    <nd ref="122864617"/>
    <tag k="highway" v="residential"/>
    <tag k="name" v="West Chapman Avenue"/>
    <tag k="tiger:cfcc" v="A41"/>
    <tag k="tiger:county" v="Orange, CA"/>
    <tag k="tiger:name_base" v="Chapman"/>
    <tag k="tiger:name_direction_prefix" v="W"/>
    <tag k="tiger:name_type" v="Ave"/>
    <tag k="tiger:reviewed" v="no"/>
    <tag k="tiger:separated" v="no"/>
    <tag k="tiger:source" v="tiger_import_dch_v0.6_20070809"/>
    <tag k="tiger:tlid" v="144136082:144136086:144077115:144040905:144040860:144040912:144136109:144136110:144040934:144040935:144040939:144041184:144041208:144041210:144041300:144041301:144041302:144041307:144418336:144041274:144051037:144051039:144051042:144041185:144051061:14405"/>
  </way>
  <way id="15815381" version="5" timestamp="2010-03-31T07:59:21Z" uid="74617" user="JohnSmith" changeset="4283194">
    <nd ref="158929634"/>
    <nd ref="158932516"/>
    <nd ref="158932517"/>
    <nd ref="21401211"/>
    <tag k="highway" v="trunk"/>
    <tag k="name" v="Pittwater Road"/>
    <tag k="oneway" v="yes"/>
  </way>
  <way id="15815419" version="7" timestamp="2010-03-06T13:05:16Z" uid="7617" user="Franc" changeset="4049938"/>
  <way id="15815831" version="1" timestamp="2007-12-10T00:45:56Z" uid="17602" user="B10xyz" changeset="246950">
    <nd ref="30051654"/>
    <nd ref="158940719"/>
    <nd ref="158940720"/>
    <tag k="created_by" v="Potlatch 0.5d"/>
    <tag k="highway" v="residential"/>
  </way>
  <way id="15815964" version="1" timestamp="2007-12-10T00:46:59Z" uid="17602" user="B10xyz" changeset="246950">
    <nd ref="32348287"/>
    <nd ref="158942553"/>
    <nd ref="158942554"/>
    <tag k="created_by" v="Potlatch 0.5d"/>
    <tag k="highway" v="residential"/>
  </way>
</osm>
