<?xml version='1.0' encoding='UTF-8'?>
<osm version="0.6" generator="libosmium/2.20.0">
  <way id="15837516" version="2" timestamp="2010-07-08T00:03:47Z" uid="74617" user="JohnSmith" changeset="5162525">
    <nd ref="159151468"/>
    <nd ref="159148627"/>
    <nd ref="159151469"/>
    <tag k="highway" v="residential"/>
    <tag k="maxspeed" v="50"/>
    <tag k="maxspeed:source" v="default residential speed limit in Australia"/>
    <tag k="name" v="Torres Place"/>
  </way>
  <way id="15837516" version="3" timestamp="2010-07-08T00:14:08Z" uid="74617" user="JohnSmith" changeset="5162525">
    <nd ref="159151468"/>
    <nd ref="159148627"/>
    <nd ref="159151469"/>
    <tag k="highway" v="residential"/>
    <tag k="maxspeed" v="50"/>
    <tag k="maxspeed:source" v="default residential speed limit in Australia"/>
    <tag k="name" v="Torres Place"/>
  </way>
  <way id="15837808" version="2" timestamp="2010-07-08T00:01:09Z" uid="74617" user="JohnSmith" changeset="5162525">
    <nd ref="159154513"/>
    <nd ref="159154515"/>
    <nd ref="159154516"/>
    <tag k="highway" v="residential"/>
    <tag k="maxspeed" v="50"/>
    <tag k="maxspeed:source" v="default residential speed limit in Australia"/>
    <tag k="name" v="Bass Place"/>
  </way>
  <way id="15837808" version="3" timestamp="2010-07-08T00:11:13Z" uid="74617" user="JohnSmith" changeset="5162525">
    <nd ref="159154513"/>
    <nd ref="159154515"/>
    <nd ref="159154516"/>
    <tag k="highway" v="residential"/>
    <tag k="maxspeed" v="50"/>
    <tag k="maxspeed:source" v="default residential speed limit in Australia"/>
    <tag k="name" v="Bass Place"/>
  </way>
</osm>
