<?xml version='1.0' encoding='UTF-8'?>
<osm version="0.6" generator="libosmium/2.20.0">
  <way id="15842431" version="4" timestamp="2010-02-17T11:06:01Z" uid="7617" user="Franc" changeset="3899798">
    <nd ref="26391318"/>
    <nd ref="643027082"/>
    <nd ref="643027081"/>
    <nd ref="26391319"/>
    <nd ref="26391320"/>
    <nd ref="248417373"/>
    <nd ref="26391321"/>
    <tag k="highway" v="residential"/>
    <tag k="name" v="Mawson Street"/>
    <tag k="source" v="yahoo_imagery"/>
  </way>
  <way id="15842431" version="5" timestamp="2010-07-08T00:00:21Z" uid="74617" user="JohnSmith" changeset="5162525">
    <nd ref="26391318"/>
    <nd ref="643027082"/>
    <nd ref="643027081"/>
    <nd ref="26391319"/>
    <nd ref="26391320"/>
    <nd ref="248417373"/>
    <nd ref="26391321"/>
    <tag k="highway" v="residential"/>
    <tag k="maxspeed" v="50"/>
    <tag k="maxspeed:source" v="default residential speed limit in Australia"/>
    <tag k="name" v="Mawson Street"/>
    <tag k="source" v="yahoo_imagery"/>
  </way>
  <way id="15842431" version="6" timestamp="2010-07-08T00:10:20Z" uid="74617" user="JohnSmith" changeset="5162525">
    <nd ref="26391318"/>
    <nd ref="643027082"/>
    <nd ref="643027081"/>
    <nd ref="26391319"/>
    <nd ref="26391320"/>
    <nd ref="248417373"/>
    <nd ref="26391321"/>
    <tag k="highway" v="residential"/>
    <tag k="maxspeed" v="50"/>
    <tag k="maxspeed:source" v="default residential speed limit in Australia"/>
    <tag k="name" v="Mawson Street"/>
    <tag k="source" v="yahoo_imagery"/>
  </way>
  <way id="15842431" version="7" timestamp="2010-08-09T11:27:36Z" uid="7617" user="Franc" changeset="5442781">
    <nd ref="26391318"/>
    <nd ref="643027082"/>
    <nd ref="643027081"/>
    <nd ref="26391319"/>
    <nd ref="26391320"/>
    <nd ref="248417373"/>
    <nd ref="26391321"/>
    <tag k="highway" v="residential"/>
    <tag k="maxspeed" v="50"/>
    <tag k="maxspeed:source" v="default residential speed limit in Australia"/>
    <tag k="name" v="Mawson Street"/>
    <tag k="restriction" v="school_zone"/>
    <tag k="source" v="yahoo_imagery"/>
  </way>
  <way id="15842875" version="2" timestamp="2008-12-27T00:00:17Z" uid="61114" user="Trav" changeset="635586">
    <nd ref="159192276"/>
    <nd ref="159192277"/>
    <nd ref="159192278"/>
    <nd ref="159192283"/>
    <nd ref="159192276"/>
    <tag k="created_by" v="Merkaartor 0.13"/>
    <tag k="landuse" v="Sports Ground"/>
    <tag k="leisure" v="pitch"/>
    <tag k="name" v="Hassel Park"/>
  </way>
  <way id="15842875" version="3" timestamp="2009-08-01T07:22:36Z" uid="74617" user="JohnSmith" changeset="2000791">
    <nd ref="159192276"/>
    <nd ref="159192277"/>
    <nd ref="159192278"/>
    <nd ref="159192283"/>
    <nd ref="159192276"/>
    <tag k="leisure" v="pitch"/>
    <tag k="name" v="Hassel Park"/>
  </way>
</osm>
