<?xml version='1.0' encoding='UTF-8'?>
<osm version="0.6" generator="libosmium/2.20.0">
  <way id="15853034" version="3" timestamp="2009-07-24T03:38:37Z" uid="74617" user="JohnSmith" changeset="1920970">
    <nd ref="159297661"/>
    <nd ref="159297663"/>
    <nd ref="159297665"/>
    <nd ref="159297667"/>
    <nd ref="159298271"/>
    <tag k="highway" v="residential"/>
    <tag k="name" v="Beach Parade"/>
  </way>
  <way id="15853034" version="6" timestamp="2010-07-06T19:39:02Z" uid="74617" user="JohnSmith" changeset="5152225">
    <nd ref="159297661"/>
    <nd ref="159297663"/>
    <nd ref="159297665"/>
    <nd ref="159297667"/>
    <nd ref="159298271"/>
    <tag k="highway" v="residential"/>
    <tag k="maxspeed" v="50"/>
    <tag k="maxspeed:source" v="default residential speed limit in Australia"/>
    <tag k="name" v="Beach Parade"/>
    <tag k="oneway" v="yes"/>
  </way>
  <way id="15853330" version="2" timestamp="2009-07-24T03:38:24Z" uid="74617" user="JohnSmith" changeset="1920970">
    <nd ref="159264184"/>
    <nd ref="159300372"/>
    <nd ref="159300374"/>
    <nd ref="159300376"/>
    <nd ref="159300378"/>
    <tag k="highway" v="residential"/>
    <tag k="name" v="Richards Street"/>
  </way>
  <way id="15853330" version="4" timestamp="2010-07-06T19:36:32Z" uid="74617" user="JohnSmith" changeset="5152225">
    <nd ref="159264184"/>
    <nd ref="159300372"/>
    <nd ref="159300374"/>
    <nd ref="159300376"/>
    <nd ref="159300378"/>
    <tag k="highway" v="residential"/>
    <tag k="maxspeed" v="50"/>
    <tag k="maxspeed:source" v="default residential speed limit in Australia"/>
    <tag k="name" v="Richards Street"/>
  </way>
  <way id="15853338" version="3" timestamp="2010-04-06T08:56:58Z" uid="115477" user="wowik" changeset="4341703">
    <nd ref="61680224"/>
    <nd ref="686355805"/>
    <nd ref="686355822"/>
    <tag k="highway" v="secondary"/>
    <tag k="oneway" v="yes"/>
  </way>
  <way id="15853338" version="4" timestamp="2010-04-06T09:03:54Z" uid="115477" user="wowik" changeset="4341785">
    <nd ref="61680224"/>
    <nd ref="686355805"/>
    <nd ref="686358136"/>
    <tag k="highway" v="secondary"/>
    <tag k="oneway" v="yes"/>
  </way>
  <way id="15853338" version="5" timestamp="2010-04-06T09:07:27Z" uid="115477" user="wowik" changeset="4341827">
    <nd ref="61680224"/>
    <nd ref="686355805"/>
    <tag k="highway" v="secondary"/>
    <tag k="oneway" v="yes"/>
  </way>
  <way id="15853338" version="7" timestamp="2010-09-14T06:46:41Z" uid="115477" user="wowik" changeset="5775570">
    <nd ref="61680223"/>
    <nd ref="686355805"/>
    <tag k="highway" v="secondary"/>
    <tag k="oneway" v="yes"/>
  </way>
  <way id="15853488" version="3" timestamp="2009-07-24T03:38:28Z" uid="74617" user="JohnSmith" changeset="1920970">
    <nd ref="159301794"/>
    <nd ref="159301795"/>
    <nd ref="159301797"/>
    <nd ref="159301798"/>
    <nd ref="159302283"/>
    <nd ref="159301799"/>
    <nd ref="159301800"/>
    <nd ref="159301801"/>
    <nd ref="159301802"/>
    <nd ref="159277526"/>
    <tag k="highway" v="residential"/>
    <tag k="name" v="George Street"/>
  </way>
  <way id="15853488" version="5" timestamp="2010-07-06T19:35:55Z" uid="74617" user="JohnSmith" changeset="5152225">
    <nd ref="159301794"/>
    <nd ref="159301795"/>
    <nd ref="159301797"/>
    <nd ref="159301798"/>
    <nd ref="159302283"/>
    <nd ref="159301799"/>
    <nd ref="159301800"/>
    <nd ref="159301801"/>
    <nd ref="159301802"/>
    <nd ref="159277526"/>
    <tag k="highway" v="residential"/>
    <tag k="maxspeed" v="50"/>
    <tag k="maxspeed:source" v="default residential speed limit in Australia"/>
    <tag k="name" v="George Street"/>
  </way>
  <way id="15853547" version="2" timestamp="2009-07-24T03:38:26Z" uid="74617" user="JohnSmith" changeset="1920970">
    <nd ref="159302283"/>
    <nd ref="159302284"/>
    <nd ref="159302285"/>
    <nd ref="159302287"/>
    <nd ref="32998148"/>
    <tag k="highway" v="residential"/>
    <tag k="name" v="Maud Street"/>
  </way>
  <way id="15853547" version="5" timestamp="2010-07-06T19:33:01Z" uid="74617" user="JohnSmith" changeset="5152225">
    <nd ref="159302283"/>
    <nd ref="159302284"/>
    <nd ref="159302285"/>
    <nd ref="32998148"/>
    <tag k="highway" v="residential"/>
    <tag k="maxspeed" v="50"/>
    <tag k="maxspeed:source" v="default residential speed limit in Australia"/>
    <tag k="name" v="Maud Street"/>
  </way>
  <way id="15853679" version="3" timestamp="2009-07-24T03:38:15Z" uid="74617" user="JohnSmith" changeset="1920970">
    <nd ref="159303659"/>
    <nd ref="159303662"/>
    <nd ref="159305258"/>
    <nd ref="159303664"/>
    <nd ref="159264169"/>
    <tag k="highway" v="residential"/>
    <tag k="name" v="Beach Parade"/>
  </way>
  <way id="15853679" version="5" timestamp="2010-07-06T19:35:49Z" uid="74617" user="JohnSmith" changeset="5152225">
    <nd ref="159303659"/>
    <nd ref="159303662"/>
    <nd ref="159305258"/>
    <nd ref="159303664"/>
    <nd ref="159264169"/>
    <tag k="highway" v="residential"/>
    <tag k="maxspeed" v="50"/>
    <tag k="maxspeed:source" v="default residential speed limit in Australia"/>
    <tag k="name" v="Beach Parade"/>
  </way>
  <way id="15853695" version="15" timestamp="2009-09-21T09:52:26Z" uid="115477" user="wowik" changeset="2555620">
    <nd ref="159300348"/>
    <nd ref="159303822"/>
    <nd ref="303553078"/>
    <nd ref="159303829"/>
    <nd ref="303553137"/>
    <nd ref="159303848"/>
    <nd ref="303553138"/>
    <nd ref="159303836"/>
    <nd ref="159303810"/>
    <nd ref="303651354"/>
    <nd ref="178147766"/>
    <nd ref="303651355"/>
    <nd ref="178147761"/>
    <nd ref="311972991"/>
    <nd ref="253885922"/>
    <nd ref="503938042"/>
    <nd ref="305953153"/>
    <nd ref="305953152"/>
    <nd ref="178147754"/>
    <tag k="highway" v="secondary"/>
    <tag k="name" v="Юбилейный проспект"/>
  </way>
  <way id="15853695" version="20" timestamp="2010-05-25T13:37:41Z" uid="115477" user="wowik" changeset="4803749">
    <nd ref="159300348"/>
    <nd ref="628762552"/>
    <nd ref="747829230"/>
    <nd ref="616720631"/>
    <nd ref="616720537"/>
    <nd ref="159303822"/>
    <tag k="highway" v="secondary"/>
    <tag k="name" v="Юбилейный проспект"/>
  </way>
  <way id="15853743" version="3" timestamp="2009-07-24T03:38:21Z" uid="74617" user="JohnSmith" changeset="1920970">
    <nd ref="159274631"/>
    <nd ref="159304289"/>
    <nd ref="159305259"/>
    <nd ref="159304291"/>
    <nd ref="159264177"/>
    <tag k="highway" v="residential"/>
    <tag k="name" v="Hinkler Parade"/>
  </way>
  <way id="15853743" version="5" timestamp="2010-07-06T19:32:05Z" uid="74617" user="JohnSmith" changeset="5152225">
    <nd ref="159274631"/>
    <nd ref="159304289"/>
    <nd ref="159305259"/>
    <nd ref="159304291"/>
    <nd ref="159264177"/>
    <tag k="highway" v="residential"/>
    <tag k="maxspeed" v="50"/>
    <tag k="maxspeed:source" v="default residential speed limit in Australia"/>
    <tag k="name" v="Hinkler Parade"/>
  </way>
  <way id="15853854" version="5" timestamp="2009-07-24T03:38:21Z" uid="74617" user="JohnSmith" changeset="1920970">
    <nd ref="159305254"/>
    <nd ref="159305256"/>
    <nd ref="159305258"/>
    <nd ref="159305259"/>
    <nd ref="159305260"/>
    <tag k="highway" v="residential"/>
    <tag k="name" v="K"/>
  </way>
  <way id="15853854" version="8" timestamp="2010-07-06T19:35:58Z" uid="74617" user="JohnSmith" changeset="5152225">
    <nd ref="159305254"/>
    <nd ref="159305258"/>
    <nd ref="159305259"/>
    <nd ref="159305260"/>
    <tag k="highway" v="residential"/>
    <tag k="maxspeed" v="50"/>
    <tag k="maxspeed:source" v="default residential speed limit in Australia"/>
    <tag k="name" v="Kippara Lane"/>
  </way>
</osm>
