<?xml version='1.0' encoding='UTF-8'?>
<osm version="0.6" generator="libosmium/2.20.0">
  <way id="15893105" version="4" timestamp="2010-02-15T06:57:48Z" uid="74617" user="JohnSmith" changeset="3880463">
    <nd ref="159684211"/>
    <nd ref="159684213"/>
    <nd ref="159684215"/>
    <tag k="aeroway" v="runway"/>
    <tag k="name" v="22 R"/>
  </way>
  <way id="15893105" version="5" timestamp="2011-02-12T15:44:37Z" uid="4467" user="Rosscoe" changeset="7266150"/>
  <way id="15893195" version="4" timestamp="2010-02-15T06:57:46Z" uid="74617" user="JohnSmith" changeset="3880463">
    <nd ref="159684215"/>
    <nd ref="159684741"/>
    <nd ref="159684742"/>
    <nd ref="159684743"/>
  </way>
  <way id="15893195" version="5" timestamp="2011-02-12T15:44:35Z" uid="4467" user="Rosscoe" changeset="7266150"/>
  <way id="15893271" version="1" timestamp="2007-12-10T14:27:30Z" uid="13367" user="nubok" changeset="234055">
    <nd ref="159685223"/>
    <nd ref="159685224"/>
    <nd ref="159685226"/>
    <nd ref="159685227"/>
    <nd ref="159685228"/>
    <nd ref="159685230"/>
    <nd ref="159685232"/>
    <nd ref="159685233"/>
    <nd ref="159685235"/>
    <nd ref="159685223"/>
    <tag k="created_by" v="Potlatch 0.5d"/>
    <tag k="natural" v="water"/>
    <tag k="source" v="yahoo sat"/>
  </way>
  <way id="15893478" version="5" timestamp="2010-02-15T06:57:51Z" uid="74617" user="JohnSmith" changeset="3880463">
    <nd ref="159684744"/>
    <nd ref="159684743"/>
    <tag k="aeroway" v="runway"/>
    <tag k="name" v="22 R"/>
  </way>
  <way id="15893478" version="6" timestamp="2011-02-12T15:44:28Z" uid="4467" user="Rosscoe" changeset="7266150">
    <nd ref="159684211"/>
    <nd ref="159684213"/>
    <nd ref="159684744"/>
    <tag k="aeroway" v="runway"/>
    <tag k="name" v="04L/22R"/>
    <tag k="source" v="nearmap"/>
  </way>
  <way id="15893495" version="1" timestamp="2007-12-10T14:28:22Z" uid="13367" user="nubok" changeset="234055">
    <nd ref="159686753"/>
    <nd ref="159686754"/>
    <nd ref="159686756"/>
    <tag k="created_by" v="Potlatch 0.5d"/>
    <tag k="highway" v="unclassified"/>
  </way>
  <way id="15893534" version="2" timestamp="2010-02-15T06:57:53Z" uid="74617" user="JohnSmith" changeset="3880463">
    <nd ref="159687008"/>
    <nd ref="159687009"/>
  </way>
  <way id="15893534" version="3" timestamp="2011-02-12T15:44:39Z" uid="4467" user="Rosscoe" changeset="7266150"/>
  <way id="15893581" version="5" timestamp="2010-02-15T06:57:51Z" uid="74617" user="JohnSmith" changeset="3880463">
    <nd ref="159687374"/>
    <nd ref="159687375"/>
    <tag k="aeroway" v="runway"/>
    <tag k="name" v="22 L"/>
  </way>
  <way id="15893581" version="6" timestamp="2011-02-12T15:44:26Z" uid="4467" user="Rosscoe" changeset="7266150">
    <nd ref="159689695"/>
    <nd ref="159693281"/>
    <nd ref="159687374"/>
    <tag k="aeroway" v="runway"/>
    <tag k="name" v="04R/22L"/>
    <tag k="source" v="nearmap"/>
  </way>
  <way id="15893862" version="1" timestamp="2007-12-10T14:29:54Z" uid="13367" user="nubok" changeset="234055">
    <nd ref="21370092"/>
    <nd ref="21370080"/>
    <nd ref="21370068"/>
    <nd ref="21370040"/>
    <nd ref="21370016"/>
    <nd ref="21369992"/>
    <nd ref="21379397"/>
    <tag k="bicycle" v="no"/>
    <tag k="created_by" v="Potlatch 0.5d"/>
    <tag k="foot" v="no"/>
    <tag k="highway" v="motorway"/>
    <tag k="horse" v="no"/>
    <tag k="motorcar" v="yes"/>
    <tag k="name" v="A24"/>
    <tag k="ref" v="A24"/>
  </way>
  <way id="15893862" version="2" timestamp="2007-12-10T14:30:22Z" uid="13367" user="nubok" changeset="234055">
    <nd ref="21370092"/>
    <nd ref="21370080"/>
    <nd ref="21370068"/>
    <nd ref="21370040"/>
    <nd ref="21370016"/>
    <nd ref="21369992"/>
    <nd ref="159690244"/>
    <tag k="bicycle" v="no"/>
    <tag k="created_by" v="Potlatch 0.5d"/>
    <tag k="foot" v="no"/>
    <tag k="highway" v="motorway"/>
    <tag k="horse" v="no"/>
    <tag k="motorcar" v="yes"/>
    <tag k="name" v="A24"/>
    <tag k="ref" v="A24"/>
  </way>
  <way id="15893862" version="3" timestamp="2007-12-10T14:30:48Z" uid="13367" user="nubok" changeset="234055"/>
  <way id="15893895" version="5" timestamp="2010-02-15T06:57:48Z" uid="74617" user="JohnSmith" changeset="3880463">
    <nd ref="159689695"/>
    <nd ref="159693281"/>
    <nd ref="159689696"/>
    <tag k="aeroway" v="runway"/>
    <tag k="name" v="04 R"/>
  </way>
  <way id="15893895" version="6" timestamp="2011-02-12T15:44:38Z" uid="4467" user="Rosscoe" changeset="7266150"/>
</osm>
