<?xml version='1.0' encoding='UTF-8'?>
<osm version="0.6" generator="libosmium/2.20.0">
  <way id="15997091" version="3" timestamp="2010-04-18T19:47:48Z" uid="23543" user="jkjk" changeset="4462140"/>
  <way id="15997403" version="2" timestamp="2010-02-15T13:38:53Z" uid="7617" user="Franc" changeset="3883208"/>
  <way id="15997405" version="2" timestamp="2010-01-31T00:21:11Z" uid="30201" user="rrankin" changeset="3755774">
    <nd ref="160758397"/>
    <nd ref="623747162"/>
    <tag k="highway" v="residential"/>
    <tag k="name" v="Woodward Avenue"/>
  </way>
  <way id="15997405" version="3" timestamp="2010-07-08T02:35:24Z" uid="74617" user="JohnSmith" changeset="5163091">
    <nd ref="160758397"/>
    <nd ref="623747162"/>
    <tag k="highway" v="residential"/>
    <tag k="maxspeed" v="50"/>
    <tag k="maxspeed:source" v="default residential speed limit in Australia"/>
    <tag k="name" v="Woodward Avenue"/>
  </way>
  <way id="15997410" version="3" timestamp="2010-01-31T00:21:11Z" uid="30201" user="rrankin" changeset="3755774">
    <nd ref="623747142"/>
    <nd ref="623747170"/>
    <tag k="highway" v="residential"/>
    <tag k="name" v="Parsons Avenue"/>
  </way>
  <way id="15997410" version="4" timestamp="2010-07-08T02:39:13Z" uid="74617" user="JohnSmith" changeset="5163091">
    <nd ref="623747142"/>
    <nd ref="623747170"/>
    <tag k="highway" v="residential"/>
    <tag k="maxspeed" v="50"/>
    <tag k="maxspeed:source" v="default residential speed limit in Australia"/>
    <tag k="name" v="Parsons Avenue"/>
  </way>
  <way id="15997413" version="3" timestamp="2010-02-15T13:38:48Z" uid="7617" user="Franc" changeset="3883208">
    <nd ref="160758463"/>
    <nd ref="639650656"/>
    <nd ref="163183503"/>
    <nd ref="160758478"/>
    <tag k="highway" v="residential"/>
    <tag k="name" v="Alviston Street"/>
  </way>
  <way id="15997413" version="4" timestamp="2010-07-08T02:34:37Z" uid="74617" user="JohnSmith" changeset="5163091">
    <nd ref="160758463"/>
    <nd ref="639650656"/>
    <nd ref="163183503"/>
    <nd ref="160758478"/>
    <tag k="highway" v="residential"/>
    <tag k="maxspeed" v="50"/>
    <tag k="maxspeed:source" v="default residential speed limit in Australia"/>
    <tag k="name" v="Alviston Street"/>
  </way>
  <way id="15997574" version="4" timestamp="2008-05-25T06:01:05Z" uid="30201" user="rrankin" changeset="514784">
    <nd ref="160759859"/>
    <nd ref="175977473"/>
    <nd ref="160758449"/>
    <nd ref="175978492"/>
    <tag k="created_by" v="Potlatch 0.5d"/>
    <tag k="highway" v="residential"/>
    <tag k="name" v="Albyn Road"/>
  </way>
  <way id="15997574" version="5" timestamp="2010-01-31T00:21:11Z" uid="30201" user="rrankin" changeset="3755774">
    <nd ref="160759859"/>
    <nd ref="623747173"/>
    <tag k="highway" v="residential"/>
    <tag k="name" v="Albyn Road"/>
  </way>
  <way id="15997574" version="6" timestamp="2010-07-08T02:34:37Z" uid="74617" user="JohnSmith" changeset="5163091">
    <nd ref="160759859"/>
    <nd ref="623747173"/>
    <tag k="highway" v="residential"/>
    <tag k="maxspeed" v="50"/>
    <tag k="maxspeed:source" v="default residential speed limit in Australia"/>
    <tag k="name" v="Albyn Road"/>
  </way>
  <way id="15997617" version="3" timestamp="2010-02-15T13:38:34Z" uid="7617" user="Franc" changeset="3883208">
    <nd ref="160760778"/>
    <nd ref="639650533"/>
    <nd ref="160762274"/>
    <nd ref="158863702"/>
    <tag k="highway" v="residential"/>
    <tag k="name" v="Redmyre Road"/>
  </way>
  <way id="15997617" version="4" timestamp="2010-07-08T02:40:03Z" uid="74617" user="JohnSmith" changeset="5163091">
    <nd ref="160760778"/>
    <nd ref="639650533"/>
    <nd ref="160762274"/>
    <nd ref="158863702"/>
    <tag k="highway" v="residential"/>
    <tag k="maxspeed" v="50"/>
    <tag k="maxspeed:source" v="default residential speed limit in Australia"/>
    <tag k="name" v="Redmyre Road"/>
  </way>
  <way id="15997704" version="8" timestamp="2008-05-25T06:00:58Z" uid="30201" user="rrankin" changeset="514784">
    <nd ref="160760778"/>
    <nd ref="160761743"/>
    <nd ref="160775450"/>
    <nd ref="160760289"/>
    <nd ref="160775108"/>
    <tag k="created_by" v="Potlatch 0.5d"/>
    <tag k="highway" v="residential"/>
    <tag k="name" v="Chalmers Road"/>
  </way>
  <way id="15997704" version="9" timestamp="2010-02-15T13:38:42Z" uid="7617" user="Franc" changeset="3883208">
    <nd ref="160760778"/>
    <nd ref="639650531"/>
    <nd ref="160761743"/>
    <nd ref="160775450"/>
    <nd ref="160760289"/>
    <nd ref="639650529"/>
    <tag k="highway" v="residential"/>
    <tag k="name" v="Chalmers Road"/>
  </way>
  <way id="15997704" version="10" timestamp="2010-07-08T02:38:02Z" uid="74617" user="JohnSmith" changeset="5163091">
    <nd ref="160760778"/>
    <nd ref="639650531"/>
    <nd ref="160761743"/>
    <nd ref="160775450"/>
    <nd ref="160760289"/>
    <nd ref="639650529"/>
    <tag k="highway" v="residential"/>
    <tag k="maxspeed" v="50"/>
    <tag k="maxspeed:source" v="default residential speed limit in Australia"/>
    <tag k="name" v="Chalmers Road"/>
  </way>
  <way id="15997719" version="3" timestamp="2010-02-15T13:38:33Z" uid="7617" user="Franc" changeset="3883208">
    <nd ref="160761743"/>
    <nd ref="160763338"/>
    <nd ref="639650653"/>
    <tag k="highway" v="residential"/>
    <tag k="name" v="Elwin Road"/>
  </way>
  <way id="15997719" version="4" timestamp="2010-07-08T02:33:37Z" uid="74617" user="JohnSmith" changeset="5163091">
    <nd ref="160761743"/>
    <nd ref="160763338"/>
    <nd ref="639650653"/>
    <tag k="highway" v="residential"/>
    <tag k="maxspeed" v="50"/>
    <tag k="maxspeed:source" v="default residential speed limit in Australia"/>
    <tag k="name" v="Elwin Road"/>
  </way>
  <way id="15997803" version="2" timestamp="2010-02-15T13:38:46Z" uid="7617" user="Franc" changeset="3883208">
    <nd ref="160762274"/>
    <nd ref="639650663"/>
    <nd ref="160763337"/>
    <nd ref="160763338"/>
    <nd ref="639650654"/>
    <nd ref="639650655"/>
    <nd ref="160763339"/>
    <tag k="highway" v="residential"/>
    <tag k="name" v="Florence Street"/>
  </way>
  <way id="15997803" version="3" timestamp="2010-07-08T02:33:42Z" uid="74617" user="JohnSmith" changeset="5163091">
    <nd ref="160762274"/>
    <nd ref="639650663"/>
    <nd ref="160763337"/>
    <nd ref="160763338"/>
    <nd ref="639650654"/>
    <nd ref="639650655"/>
    <nd ref="160763339"/>
    <tag k="highway" v="residential"/>
    <tag k="maxspeed" v="50"/>
    <tag k="maxspeed:source" v="default residential speed limit in Australia"/>
    <tag k="name" v="Florence Street"/>
  </way>
  <way id="15997815" version="3" timestamp="2008-05-25T06:01:00Z" uid="30201" user="rrankin" changeset="514784">
    <nd ref="160763360"/>
    <nd ref="160763736"/>
    <nd ref="160763578"/>
    <tag k="created_by" v="Potlatch 0.5d"/>
    <tag k="highway" v="residential"/>
    <tag k="lcn" v="yes"/>
    <tag k="name" v="Victoria Street"/>
  </way>
  <way id="15997815" version="4" timestamp="2010-07-08T02:40:33Z" uid="74617" user="JohnSmith" changeset="5163091">
    <nd ref="160763360"/>
    <nd ref="160763736"/>
    <nd ref="160763578"/>
    <tag k="highway" v="residential"/>
    <tag k="lcn" v="yes"/>
    <tag k="maxspeed" v="50"/>
    <tag k="maxspeed:source" v="default residential speed limit in Australia"/>
    <tag k="name" v="Victoria Street"/>
  </way>
  <way id="15997862" version="3" timestamp="2008-05-28T01:46:32Z" uid="30201" user="rrankin" changeset="537299">
    <nd ref="160763736"/>
    <nd ref="160764305"/>
    <tag k="created_by" v="Potlatch 0.5d"/>
    <tag k="highway" v="residential"/>
    <tag k="name" v="Summit Place"/>
  </way>
  <way id="15997862" version="4" timestamp="2010-07-08T02:38:27Z" uid="74617" user="JohnSmith" changeset="5163091">
    <nd ref="160763736"/>
    <nd ref="160764305"/>
    <tag k="highway" v="residential"/>
    <tag k="maxspeed" v="50"/>
    <tag k="maxspeed:source" v="default residential speed limit in Australia"/>
    <tag k="name" v="Summit Place"/>
  </way>
  <way id="15997920" version="2" timestamp="2010-07-08T02:39:25Z" uid="74617" user="JohnSmith" changeset="5163091">
    <nd ref="160764562"/>
    <nd ref="160764911"/>
    <tag k="highway" v="residential"/>
    <tag k="maxspeed" v="50"/>
    <tag k="maxspeed:source" v="default residential speed limit in Australia"/>
    <tag k="name" v="Birnam Grove"/>
  </way>
</osm>
