<?xml version='1.0' encoding='UTF-8'?>
<osm version="0.6" generator="libosmium/2.20.0">
  <way id="16017542" version="1" timestamp="2007-12-11T03:02:14Z" uid="18775" user="drlizau" changeset="264676">
    <nd ref="29477636"/>
    <nd ref="160990841"/>
    <tag k="created_by" v="JOSM"/>
    <tag k="highway" v="residential"/>
    <tag k="name" v="Queen Street"/>
  </way>
  <way id="16017542" version="2" timestamp="2008-02-02T04:19:08Z" uid="18775" user="drlizau" changeset="10991">
    <nd ref="29477636"/>
    <nd ref="244877489"/>
    <nd ref="160990841"/>
    <tag k="created_by" v="JOSM"/>
    <tag k="highway" v="residential"/>
    <tag k="name" v="Queen Street"/>
  </way>
  <way id="16017711" version="1" timestamp="2007-12-11T03:03:05Z" uid="18775" user="drlizau" changeset="264676">
    <nd ref="160991955"/>
    <nd ref="160991980"/>
    <nd ref="160992005"/>
    <nd ref="160992029"/>
    <tag k="created_by" v="JOSM"/>
    <tag k="highway" v="residential"/>
    <tag k="name" v="Wellington Street"/>
  </way>
  <way id="16017711" version="2" timestamp="2007-12-11T03:03:42Z" uid="18775" user="drlizau" changeset="264676">
    <nd ref="160991955"/>
    <nd ref="160992979"/>
    <nd ref="160991980"/>
    <nd ref="160992005"/>
    <nd ref="160992029"/>
    <tag k="created_by" v="JOSM"/>
    <tag k="highway" v="residential"/>
    <tag k="name" v="Wellington Street"/>
  </way>
  <way id="16017711" version="3" timestamp="2008-02-02T04:19:46Z" uid="18775" user="drlizau" changeset="10991">
    <nd ref="160991955"/>
    <nd ref="160992979"/>
    <nd ref="160991980"/>
    <nd ref="160992005"/>
    <nd ref="160992029"/>
    <nd ref="190333564"/>
    <tag k="created_by" v="JOSM"/>
    <tag k="highway" v="residential"/>
    <tag k="name" v="Wellington Street"/>
  </way>
  <way id="16017711" version="6" timestamp="2008-09-06T06:57:25Z" uid="18775" user="drlizau" changeset="552148">
    <nd ref="294060066"/>
    <nd ref="294060144"/>
    <nd ref="294060145"/>
    <nd ref="263152843"/>
    <tag k="created_by" v="JOSM"/>
    <tag k="highway" v="unclassified"/>
    <tag k="name" v="Wellington Street"/>
  </way>
  <way id="16017849" version="1" timestamp="2007-12-11T03:03:41Z" uid="18775" user="drlizau" changeset="264676">
    <nd ref="160992979"/>
    <nd ref="160990841"/>
    <tag k="created_by" v="JOSM"/>
    <tag k="highway" v="residential"/>
    <tag k="name" v="Fitzroy Street"/>
  </way>
</osm>
