<?xml version='1.0' encoding='UTF-8'?>
<osm version="0.6" generator="libosmium/2.20.0">
  <way id="16127325" version="7" timestamp="2008-09-01T19:08:25Z" uid="43863" user="Rundling" changeset="490817">
    <nd ref="30404674"/>
    <nd ref="162752765"/>
    <nd ref="162752770"/>
    <nd ref="162752774"/>
    <nd ref="162752779"/>
    <nd ref="289746453"/>
    <nd ref="162752785"/>
    <nd ref="162752794"/>
    <nd ref="162752802"/>
    <nd ref="162752811"/>
    <nd ref="31326441"/>
    <tag k="created_by" v="Potlatch 0.10b"/>
    <tag k="highway" v="secondary"/>
    <tag k="name" v="MÃ¼dener Strasse"/>
    <tag k="ref" v="L 280"/>
    <tag k="source" v="survey"/>
  </way>
  <way id="16127585" version="15" timestamp="2010-02-12T20:51:27Z" uid="20587" user="balrog-kun" changeset="3860201">
    <nd ref="126151664"/>
    <nd ref="268230391"/>
    <nd ref="317728362"/>
    <nd ref="166685716"/>
    <nd ref="317728370"/>
    <nd ref="126151633"/>
    <nd ref="166687329"/>
    <nd ref="637765401"/>
    <nd ref="162753737"/>
    <tag k="highway" v="primary"/>
    <tag k="name" v="Wolnica"/>
    <tag k="oneway" v="yes"/>
  </way>
  <way id="16127753" version="11" timestamp="2010-02-12T20:51:29Z" uid="20587" user="balrog-kun" changeset="3860201">
    <nd ref="162759655"/>
    <nd ref="257763265"/>
    <nd ref="247470681"/>
    <tag k="highway" v="tertiary"/>
    <tag k="maxheight" v="3.7"/>
    <tag k="name" v="Garbary"/>
    <tag k="oneway" v="no"/>
  </way>
  <way id="16127812" version="5" timestamp="2010-03-22T18:58:03Z" uid="58091" user="Andreas M" changeset="4205574">
    <nd ref="166286465"/>
    <nd ref="162760691"/>
    <nd ref="162760692"/>
    <tag k="highway" v="residential"/>
    <tag k="name" v="Pilzengraben"/>
  </way>
</osm>
