<?xml version='1.0' encoding='UTF-8'?>
<osm version="0.6" generator="libosmium/2.20.0">
  <way id="16143396" version="2" timestamp="2008-11-11T22:19:25Z" uid="36809" user="pfoten_weg_!_" changeset="736643">
    <nd ref="163087837"/>
    <nd ref="163087838"/>
    <nd ref="163087840"/>
    <nd ref="163087841"/>
    <nd ref="163087842"/>
    <nd ref="163087844"/>
    <nd ref="163087845"/>
    <nd ref="163087847"/>
    <nd ref="163087848"/>
    <nd ref="161604170"/>
    <tag k="created_by" v="JOSM"/>
    <tag k="fixme" v="Straßenname fehlt"/>
    <tag k="highway" v="residential"/>
    <tag k="name" v="NoName"/>
  </way>
  <way id="16143396" version="6" timestamp="2009-09-29T01:34:52Z" uid="36809" user="pfoten_weg_!_" changeset="2672113">
    <nd ref="416032506"/>
    <nd ref="163087838"/>
    <nd ref="163087840"/>
    <nd ref="163087841"/>
    <nd ref="163087842"/>
    <nd ref="163087844"/>
    <nd ref="163087845"/>
    <nd ref="163087847"/>
    <nd ref="163087848"/>
    <nd ref="161604170"/>
    <tag k="fixme" v="Straßenname fehlt"/>
    <tag k="highway" v="residential"/>
    <tag k="name" v="Petersbrunner Straße"/>
  </way>
  <way id="16143433" version="2" timestamp="2008-11-11T22:19:23Z" uid="36809" user="pfoten_weg_!_" changeset="736643">
    <nd ref="163088988"/>
    <nd ref="163088990"/>
    <nd ref="163087848"/>
    <tag k="created_by" v="JOSM"/>
    <tag k="fixme" v="Straßenname fehlt"/>
    <tag k="highway" v="residential"/>
    <tag k="name" v="NoName"/>
  </way>
  <way id="16143433" version="5" timestamp="2009-09-01T11:50:49Z" uid="36809" user="pfoten_weg_!_" changeset="2336655">
    <nd ref="163088988"/>
    <nd ref="163088990"/>
    <nd ref="163087848"/>
    <tag k="highway" v="residential"/>
    <tag k="name" v="Moosstraße"/>
  </way>
  <way id="16143725" version="5" timestamp="2009-09-01T11:50:54Z" uid="36809" user="pfoten_weg_!_" changeset="2336655">
    <nd ref="163102233"/>
    <nd ref="304770513"/>
    <tag k="highway" v="residential"/>
    <tag k="name" v="Schlossbergstraße"/>
    <tag k="surface" v="paved"/>
  </way>
  <way id="16143751" version="5" timestamp="2009-10-12T21:49:22Z" uid="36809" user="pfoten_weg_!_" changeset="2831247">
    <nd ref="161598580"/>
    <nd ref="201249490"/>
    <nd ref="163100036"/>
    <nd ref="163100037"/>
    <nd ref="163100731"/>
    <nd ref="163100038"/>
    <nd ref="163100039"/>
    <nd ref="163099449"/>
    <tag k="highway" v="residential"/>
    <tag k="name" v="Mühlbergstraße"/>
  </way>
  <way id="16143777" version="2" timestamp="2009-08-26T08:46:30Z" uid="36809" user="pfoten_weg_!_" changeset="2264896">
    <nd ref="163100729"/>
    <nd ref="163100730"/>
    <nd ref="163100731"/>
    <tag k="highway" v="residential"/>
  </way>
  <way id="16143792" version="3" timestamp="2009-10-12T21:49:21Z" uid="36809" user="pfoten_weg_!_" changeset="2831247">
    <nd ref="163101443"/>
    <nd ref="163101445"/>
    <nd ref="161598580"/>
    <tag k="highway" v="residential"/>
    <tag k="name" v="Mühlbergstraße"/>
  </way>
  <way id="16143832" version="6" timestamp="2009-10-12T21:49:45Z" uid="36809" user="pfoten_weg_!_" changeset="2831247">
    <nd ref="304770499"/>
    <nd ref="304770511"/>
    <nd ref="304770510"/>
    <nd ref="304770509"/>
    <nd ref="304770508"/>
    <nd ref="304770507"/>
    <nd ref="304770506"/>
    <nd ref="304770505"/>
    <nd ref="201233172"/>
    <tag k="highway" v="footway"/>
    <tag k="name" v="Vordermühlstraße"/>
    <tag k="surface" v="unpaved"/>
  </way>
  <way id="16143837" version="2" timestamp="2008-11-11T22:19:30Z" uid="36809" user="pfoten_weg_!_" changeset="736643">
    <nd ref="163103272"/>
    <nd ref="163103633"/>
    <nd ref="163103634"/>
    <tag k="created_by" v="JOSM"/>
    <tag k="fixme" v="Straßenname fehlt"/>
    <tag k="highway" v="residential"/>
    <tag k="name" v="NoName"/>
  </way>
  <way id="16143837" version="5" timestamp="2009-10-12T21:50:21Z" uid="36809" user="pfoten_weg_!_" changeset="2831247">
    <nd ref="163103272"/>
    <nd ref="163103633"/>
    <nd ref="163103634"/>
    <tag k="fixme" v="Tutzingerhofplatz"/>
    <tag k="highway" v="residential"/>
    <tag k="name" v="Tutzingerhofplatz"/>
  </way>
  <way id="16143985" version="5" timestamp="2009-08-26T08:46:38Z" uid="36809" user="pfoten_weg_!_" changeset="2264896">
    <nd ref="34816028"/>
    <nd ref="26423961"/>
    <nd ref="26423962"/>
    <nd ref="26423963"/>
    <nd ref="26423964"/>
    <nd ref="26423965"/>
    <nd ref="26423966"/>
    <nd ref="58822410"/>
    <tag k="electrified" v="contact_line"/>
    <tag k="name" v="S6"/>
    <tag k="railway" v="rail"/>
  </way>
  <way id="16143987" version="6" timestamp="2009-08-26T08:46:55Z" uid="36809" user="pfoten_weg_!_" changeset="2264896">
    <nd ref="34816027"/>
    <nd ref="34816028"/>
    <tag k="bridge" v="yes"/>
    <tag k="electrified" v="contact_line"/>
    <tag k="layer" v="1"/>
    <tag k="name" v="S6"/>
    <tag k="railway" v="rail"/>
  </way>
</osm>
