<?xml version='1.0' encoding='UTF-8'?>
<osm version="0.6" generator="libosmium/2.20.0">
  <way id="16170010" version="2" timestamp="2009-05-31T05:58:42Z" uid="61114" user="Trav" changeset="1365262">
    <nd ref="163588518"/>
    <nd ref="163588519"/>
    <tag k="highway" v="residential"/>
    <tag k="name" v="Gipps Place"/>
    <tag k="source:name" v="survey"/>
  </way>
  <way id="16170010" version="3" timestamp="2010-07-07T23:31:23Z" uid="74617" user="JohnSmith" changeset="5162525">
    <nd ref="163588518"/>
    <nd ref="163588519"/>
    <tag k="highway" v="residential"/>
    <tag k="maxspeed" v="50"/>
    <tag k="maxspeed:source" v="default residential speed limit in Australia"/>
    <tag k="name" v="Gipps Place"/>
    <tag k="source:name" v="survey"/>
  </way>
  <way id="16170027" version="2" timestamp="2009-05-31T05:58:43Z" uid="61114" user="Trav" changeset="1365262">
    <nd ref="163589054"/>
    <nd ref="163589056"/>
    <nd ref="163589057"/>
    <nd ref="163589058"/>
    <nd ref="163589059"/>
    <nd ref="163589060"/>
    <tag k="highway" v="residential"/>
    <tag k="name" v="Denison Place"/>
    <tag k="source:name" v="survey"/>
  </way>
  <way id="16170027" version="3" timestamp="2010-03-10T08:54:07Z" uid="7617" user="Franc" changeset="4087205">
    <nd ref="163589054"/>
    <nd ref="163589056"/>
    <nd ref="163589057"/>
    <nd ref="663559900"/>
    <nd ref="663559901"/>
    <nd ref="163589058"/>
    <nd ref="663559902"/>
    <nd ref="163589059"/>
    <nd ref="163589060"/>
    <tag k="highway" v="residential"/>
    <tag k="name" v="Denison Place"/>
    <tag k="source:name" v="survey"/>
  </way>
  <way id="16170027" version="4" timestamp="2010-07-07T23:34:38Z" uid="74617" user="JohnSmith" changeset="5162525">
    <nd ref="163589054"/>
    <nd ref="163589056"/>
    <nd ref="163589057"/>
    <nd ref="663559900"/>
    <nd ref="663559901"/>
    <nd ref="163589058"/>
    <nd ref="663559902"/>
    <nd ref="163589059"/>
    <nd ref="163589060"/>
    <tag k="highway" v="residential"/>
    <tag k="maxspeed" v="50"/>
    <tag k="maxspeed:source" v="default residential speed limit in Australia"/>
    <tag k="name" v="Denison Place"/>
    <tag k="source:name" v="survey"/>
  </way>
  <way id="16170041" version="2" timestamp="2009-05-31T05:58:43Z" uid="61114" user="Trav" changeset="1365262">
    <nd ref="163589336"/>
    <nd ref="163589338"/>
    <nd ref="163589340"/>
    <nd ref="163589342"/>
    <nd ref="163589343"/>
    <tag k="highway" v="residential"/>
    <tag k="name" v="Strickland Avenue"/>
    <tag k="source:name" v="survey"/>
  </way>
  <way id="16170041" version="3" timestamp="2010-07-07T23:35:01Z" uid="74617" user="JohnSmith" changeset="5162525">
    <nd ref="163589336"/>
    <nd ref="163589338"/>
    <nd ref="163589340"/>
    <nd ref="163589342"/>
    <nd ref="163589343"/>
    <tag k="highway" v="residential"/>
    <tag k="maxspeed" v="50"/>
    <tag k="maxspeed:source" v="default residential speed limit in Australia"/>
    <tag k="name" v="Strickland Avenue"/>
    <tag k="source:name" v="survey"/>
  </way>
  <way id="16170042" version="2" timestamp="2009-05-31T05:58:44Z" uid="61114" user="Trav" changeset="1365262">
    <nd ref="163589545"/>
    <nd ref="163589546"/>
    <nd ref="163589340"/>
    <tag k="highway" v="residential"/>
    <tag k="name" v="Gowrie Place"/>
    <tag k="source:name" v="survey"/>
  </way>
  <way id="16170042" version="3" timestamp="2010-03-10T08:54:08Z" uid="7617" user="Franc" changeset="4087205">
    <nd ref="163589545"/>
    <nd ref="163589546"/>
    <nd ref="663559903"/>
    <nd ref="163589340"/>
    <tag k="highway" v="residential"/>
    <tag k="name" v="Gowrie Place"/>
    <tag k="source:name" v="survey"/>
  </way>
  <way id="16170042" version="4" timestamp="2010-07-07T23:33:42Z" uid="74617" user="JohnSmith" changeset="5162525">
    <nd ref="163589545"/>
    <nd ref="163589546"/>
    <nd ref="663559903"/>
    <nd ref="163589340"/>
    <tag k="highway" v="residential"/>
    <tag k="maxspeed" v="50"/>
    <tag k="maxspeed:source" v="default residential speed limit in Australia"/>
    <tag k="name" v="Gowrie Place"/>
    <tag k="source:name" v="survey"/>
  </way>
  <way id="16170043" version="2" timestamp="2009-05-31T05:58:44Z" uid="61114" user="Trav" changeset="1365262">
    <nd ref="163589777"/>
    <nd ref="163589778"/>
    <nd ref="163589780"/>
    <tag k="highway" v="residential"/>
    <tag k="name" v="Brisbane Place"/>
    <tag k="source:name" v="survey"/>
  </way>
  <way id="16170043" version="3" timestamp="2010-03-10T08:54:08Z" uid="7617" user="Franc" changeset="4087205">
    <nd ref="163589777"/>
    <nd ref="663559905"/>
    <nd ref="663559904"/>
    <nd ref="163589778"/>
    <nd ref="163589780"/>
    <tag k="highway" v="residential"/>
    <tag k="name" v="Brisbane Place"/>
    <tag k="source:name" v="survey"/>
  </way>
  <way id="16170043" version="4" timestamp="2010-07-07T23:35:50Z" uid="74617" user="JohnSmith" changeset="5162525">
    <nd ref="163589777"/>
    <nd ref="663559905"/>
    <nd ref="663559904"/>
    <nd ref="163589778"/>
    <nd ref="163589780"/>
    <tag k="highway" v="residential"/>
    <tag k="maxspeed" v="50"/>
    <tag k="maxspeed:source" v="default residential speed limit in Australia"/>
    <tag k="name" v="Brisbane Place"/>
    <tag k="source:name" v="survey"/>
  </way>
  <way id="16170051" version="4" timestamp="2009-05-31T05:58:42Z" uid="61114" user="Trav" changeset="1365262">
    <nd ref="163590273"/>
    <nd ref="163590441"/>
    <nd ref="163590443"/>
    <nd ref="163591458"/>
    <nd ref="163593254"/>
    <nd ref="163577757"/>
    <tag k="highway" v="residential"/>
    <tag k="name" v="Macquarie Street"/>
    <tag k="source:name" v="survey"/>
  </way>
  <way id="16170051" version="5" timestamp="2010-03-10T08:54:07Z" uid="7617" user="Franc" changeset="4087205">
    <nd ref="163590273"/>
    <nd ref="163590441"/>
    <nd ref="663559911"/>
    <nd ref="163590443"/>
    <nd ref="163591458"/>
    <nd ref="163593254"/>
    <nd ref="663559907"/>
    <nd ref="663559908"/>
    <nd ref="163577757"/>
    <tag k="highway" v="residential"/>
    <tag k="name" v="Macquarie Street"/>
    <tag k="source:name" v="survey"/>
  </way>
  <way id="16170051" version="6" timestamp="2010-07-07T23:34:58Z" uid="74617" user="JohnSmith" changeset="5162525">
    <nd ref="163590273"/>
    <nd ref="163590441"/>
    <nd ref="663559911"/>
    <nd ref="163590443"/>
    <nd ref="163591458"/>
    <nd ref="163593254"/>
    <nd ref="663559907"/>
    <nd ref="663559908"/>
    <nd ref="163577757"/>
    <tag k="highway" v="residential"/>
    <tag k="maxspeed" v="50"/>
    <tag k="maxspeed:source" v="default residential speed limit in Australia"/>
    <tag k="name" v="Macquarie Street"/>
    <tag k="source:name" v="survey"/>
  </way>
  <way id="16170087" version="2" timestamp="2009-05-31T05:58:51Z" uid="61114" user="Trav" changeset="1365262">
    <nd ref="163591455"/>
    <nd ref="163591457"/>
    <nd ref="163591458"/>
    <tag k="highway" v="residential"/>
    <tag k="name" v="Foveaux Place"/>
    <tag k="source" v="survey"/>
    <tag k="source:name" v="survey"/>
  </way>
  <way id="16170087" version="3" timestamp="2010-03-10T08:54:08Z" uid="7617" user="Franc" changeset="4087205">
    <nd ref="163591455"/>
    <nd ref="663559912"/>
    <nd ref="663559910"/>
    <nd ref="163591457"/>
    <nd ref="663559909"/>
    <nd ref="163591458"/>
    <tag k="highway" v="residential"/>
    <tag k="name" v="Foveaux Place"/>
    <tag k="source" v="survey"/>
    <tag k="source:name" v="survey"/>
  </way>
  <way id="16170087" version="4" timestamp="2010-07-07T23:35:42Z" uid="74617" user="JohnSmith" changeset="5162525">
    <nd ref="163591455"/>
    <nd ref="663559912"/>
    <nd ref="663559910"/>
    <nd ref="163591457"/>
    <nd ref="663559909"/>
    <nd ref="163591458"/>
    <tag k="highway" v="residential"/>
    <tag k="maxspeed" v="50"/>
    <tag k="maxspeed:source" v="default residential speed limit in Australia"/>
    <tag k="name" v="Foveaux Place"/>
    <tag k="source" v="survey"/>
    <tag k="source:name" v="survey"/>
  </way>
  <way id="16170136" version="4" timestamp="2009-05-31T05:58:54Z" uid="61114" user="Trav" changeset="1365262">
    <nd ref="163592743"/>
    <nd ref="163592744"/>
    <nd ref="163592745"/>
    <nd ref="163592746"/>
    <nd ref="163592748"/>
    <nd ref="289291889"/>
    <nd ref="163592749"/>
    <nd ref="163592750"/>
    <nd ref="163592751"/>
    <nd ref="163592752"/>
    <nd ref="163592753"/>
    <nd ref="163592754"/>
    <nd ref="163592755"/>
    <nd ref="163592756"/>
    <nd ref="163592757"/>
    <nd ref="163592759"/>
    <nd ref="163592760"/>
    <nd ref="163592761"/>
    <nd ref="163592763"/>
    <tag k="highway" v="residential"/>
    <tag k="name" v="Cromer Road"/>
    <tag k="source:name" v="survey"/>
  </way>
  <way id="16170136" version="5" timestamp="2010-03-10T08:54:07Z" uid="7617" user="Franc" changeset="4087205">
    <nd ref="163592743"/>
    <nd ref="163592744"/>
    <nd ref="663559915"/>
    <nd ref="163592745"/>
    <nd ref="163592746"/>
    <nd ref="163592748"/>
    <nd ref="289291889"/>
    <nd ref="163592749"/>
    <nd ref="163592750"/>
    <nd ref="163592751"/>
    <nd ref="163592752"/>
    <nd ref="163592753"/>
    <nd ref="163592754"/>
    <nd ref="163592755"/>
    <nd ref="163592756"/>
    <nd ref="163592757"/>
    <nd ref="163592759"/>
    <nd ref="163592760"/>
    <nd ref="163592761"/>
    <nd ref="163592763"/>
    <tag k="highway" v="residential"/>
    <tag k="name" v="Cromer Road"/>
    <tag k="source:name" v="survey"/>
  </way>
  <way id="16170136" version="6" timestamp="2010-07-07T23:34:39Z" uid="74617" user="JohnSmith" changeset="5162525">
    <nd ref="163592743"/>
    <nd ref="163592744"/>
    <nd ref="663559915"/>
    <nd ref="163592745"/>
    <nd ref="163592746"/>
    <nd ref="163592748"/>
    <nd ref="289291889"/>
    <nd ref="163592749"/>
    <nd ref="163592750"/>
    <nd ref="163592751"/>
    <nd ref="163592752"/>
    <nd ref="163592753"/>
    <nd ref="163592754"/>
    <nd ref="163592755"/>
    <nd ref="163592756"/>
    <nd ref="163592757"/>
    <nd ref="163592759"/>
    <nd ref="163592760"/>
    <nd ref="163592761"/>
    <nd ref="163592763"/>
    <tag k="highway" v="residential"/>
    <tag k="maxspeed" v="50"/>
    <tag k="maxspeed:source" v="default residential speed limit in Australia"/>
    <tag k="name" v="Cromer Road"/>
    <tag k="source:name" v="survey"/>
  </way>
  <way id="16170153" version="2" timestamp="2009-05-31T05:58:49Z" uid="61114" user="Trav" changeset="1365262">
    <nd ref="163592746"/>
    <nd ref="163593246"/>
    <nd ref="163593247"/>
    <nd ref="163593248"/>
    <nd ref="163593249"/>
    <nd ref="163593250"/>
    <nd ref="163593251"/>
    <nd ref="163593252"/>
    <nd ref="163593254"/>
    <tag k="highway" v="residential"/>
    <tag k="name" v="Woodward Street"/>
    <tag k="source:name" v="survey"/>
  </way>
  <way id="16170153" version="3" timestamp="2010-03-10T08:54:07Z" uid="7617" user="Franc" changeset="4087205">
    <nd ref="163592746"/>
    <nd ref="163593246"/>
    <nd ref="663559931"/>
    <nd ref="163593247"/>
    <nd ref="663559930"/>
    <nd ref="163593248"/>
    <nd ref="163593249"/>
    <nd ref="163593250"/>
    <nd ref="663559913"/>
    <nd ref="163593251"/>
    <nd ref="163593252"/>
    <nd ref="163593254"/>
    <tag k="highway" v="residential"/>
    <tag k="name" v="Woodward Street"/>
    <tag k="source:name" v="survey"/>
  </way>
  <way id="16170153" version="4" timestamp="2010-07-07T23:32:56Z" uid="74617" user="JohnSmith" changeset="5162525">
    <nd ref="163592746"/>
    <nd ref="163593246"/>
    <nd ref="663559931"/>
    <nd ref="163593247"/>
    <nd ref="663559930"/>
    <nd ref="163593248"/>
    <nd ref="163593249"/>
    <nd ref="163593250"/>
    <nd ref="663559913"/>
    <nd ref="163593251"/>
    <nd ref="163593252"/>
    <nd ref="163593254"/>
    <tag k="highway" v="residential"/>
    <tag k="maxspeed" v="50"/>
    <tag k="maxspeed:source" v="default residential speed limit in Australia"/>
    <tag k="name" v="Woodward Street"/>
    <tag k="source:name" v="survey"/>
  </way>
  <way id="16170170" version="2" timestamp="2009-05-31T05:58:45Z" uid="61114" user="Trav" changeset="1365262">
    <nd ref="163593252"/>
    <nd ref="163593729"/>
    <nd ref="163593730"/>
    <nd ref="163593731"/>
    <nd ref="163592761"/>
    <tag k="highway" v="residential"/>
    <tag k="name" v="Blighs Road"/>
    <tag k="source:name" v="survey"/>
  </way>
  <way id="16170170" version="3" timestamp="2010-07-07T23:32:45Z" uid="74617" user="JohnSmith" changeset="5162525">
    <nd ref="163593252"/>
    <nd ref="163593729"/>
    <nd ref="163593730"/>
    <nd ref="163593731"/>
    <nd ref="163592761"/>
    <tag k="highway" v="residential"/>
    <tag k="maxspeed" v="50"/>
    <tag k="maxspeed:source" v="default residential speed limit in Australia"/>
    <tag k="name" v="Blighs Road"/>
    <tag k="source:name" v="survey"/>
  </way>
  <way id="16170196" version="2" timestamp="2009-05-31T05:59:00Z" uid="61114" user="Trav" changeset="1365262"/>
  <way id="16170221" version="2" timestamp="2009-05-31T05:58:57Z" uid="61114" user="Trav" changeset="1365262">
    <nd ref="163594995"/>
    <nd ref="163594996"/>
    <nd ref="163594998"/>
    <nd ref="163592752"/>
    <tag k="highway" v="residential"/>
    <tag k="name" v="Boromi Way"/>
    <tag k="source:name" v="survey"/>
  </way>
  <way id="16170221" version="3" timestamp="2010-07-07T23:35:56Z" uid="74617" user="JohnSmith" changeset="5162525">
    <nd ref="163594995"/>
    <nd ref="163594996"/>
    <nd ref="163594998"/>
    <nd ref="163592752"/>
    <tag k="highway" v="residential"/>
    <tag k="maxspeed" v="50"/>
    <tag k="maxspeed:source" v="default residential speed limit in Australia"/>
    <tag k="name" v="Boromi Way"/>
    <tag k="source:name" v="survey"/>
  </way>
  <way id="16170224" version="2" timestamp="2009-05-31T05:58:57Z" uid="61114" user="Trav" changeset="1365262">
    <nd ref="163595193"/>
    <nd ref="163595194"/>
    <nd ref="163592756"/>
    <tag k="highway" v="residential"/>
    <tag k="name" v="Burrawal Place"/>
    <tag k="source:name" v="survey"/>
  </way>
  <way id="16170224" version="3" timestamp="2010-07-07T23:34:29Z" uid="74617" user="JohnSmith" changeset="5162525">
    <nd ref="163595193"/>
    <nd ref="163595194"/>
    <nd ref="163592756"/>
    <tag k="highway" v="residential"/>
    <tag k="maxspeed" v="50"/>
    <tag k="maxspeed:source" v="default residential speed limit in Australia"/>
    <tag k="name" v="Burrawal Place"/>
    <tag k="source:name" v="survey"/>
  </way>
  <way id="16170230" version="2" timestamp="2009-05-31T05:58:56Z" uid="61114" user="Trav" changeset="1365262">
    <nd ref="163595283"/>
    <nd ref="163592759"/>
    <tag k="highway" v="residential"/>
    <tag k="name" v="Wolbah Place"/>
    <tag k="source:name" v="survey"/>
  </way>
  <way id="16170230" version="3" timestamp="2010-07-07T23:33:46Z" uid="74617" user="JohnSmith" changeset="5162525">
    <nd ref="163595283"/>
    <nd ref="163592759"/>
    <tag k="highway" v="residential"/>
    <tag k="maxspeed" v="50"/>
    <tag k="maxspeed:source" v="default residential speed limit in Australia"/>
    <tag k="name" v="Wolbah Place"/>
    <tag k="source:name" v="survey"/>
  </way>
  <way id="16170428" version="3" timestamp="2010-03-27T22:20:10Z" uid="20587" user="balrog-kun" changeset="4250871">
    <nd ref="21420495"/>
    <nd ref="163599721"/>
    <nd ref="122627286"/>
    <nd ref="122627289"/>
    <nd ref="122627291"/>
    <nd ref="122627293"/>
    <nd ref="122627295"/>
    <nd ref="122627296"/>
    <nd ref="163599802"/>
    <nd ref="122627298"/>
    <nd ref="163599788"/>
    <nd ref="122627300"/>
    <nd ref="122627305"/>
    <nd ref="122627309"/>
    <nd ref="122627313"/>
    <nd ref="122627315"/>
    <tag k="created_by" v="JOSM"/>
    <tag k="highway" v="residential"/>
    <tag k="name" v="South Agate Street"/>
    <tag k="tiger:cfcc" v="A41"/>
    <tag k="tiger:county" v="Orange, CA"/>
    <tag k="tiger:name_base" v="Agate"/>
    <tag k="tiger:name_direction_prefix" v="S"/>
    <tag k="tiger:name_type" v="St"/>
    <tag k="tiger:separated" v="no"/>
    <tag k="tiger:source" v="tiger_import_dch_v0.6_20070809"/>
    <tag k="tiger:tlid" v="144023607:144254785:144254786:144254790:144254791:144023540:144023542:144023546:144023548:144023549:144023556:144023557:144023560:144023563:144023471:144023599"/>
    <tag k="tiger:zip_left" v="92804"/>
    <tag k="tiger:zip_right" v="92804"/>
  </way>
</osm>
