<?xml version='1.0' encoding='UTF-8'?>
<osm version="0.6" generator="libosmium/2.20.0">
  <way id="16242007" version="2" timestamp="2010-07-08T17:49:28Z" uid="74617" user="JohnSmith" changeset="5167338">
    <nd ref="165198398"/>
    <nd ref="165198453"/>
    <nd ref="165198543"/>
    <tag k="highway" v="residential"/>
    <tag k="maxspeed" v="50"/>
    <tag k="maxspeed:source" v="default residential speed limit in Australia"/>
    <tag k="name" v="Robert Street"/>
  </way>
  <way id="16242010" version="2" timestamp="2010-07-08T17:47:54Z" uid="74617" user="JohnSmith" changeset="5167338">
    <nd ref="165198517"/>
    <nd ref="165198543"/>
    <nd ref="165198560"/>
    <nd ref="165198590"/>
    <tag k="highway" v="residential"/>
    <tag k="maxspeed" v="50"/>
    <tag k="maxspeed:source" v="default residential speed limit in Australia"/>
    <tag k="name" v="Mulcare Street"/>
  </way>
  <way id="16242013" version="2" timestamp="2010-07-08T17:48:11Z" uid="74617" user="JohnSmith" changeset="5167338">
    <nd ref="165198543"/>
    <nd ref="165198487"/>
    <tag k="highway" v="residential"/>
    <tag k="maxspeed" v="50"/>
    <tag k="maxspeed:source" v="default residential speed limit in Australia"/>
    <tag k="name" v="Robert Court"/>
  </way>
  <way id="16242142" version="1" timestamp="2007-12-12T22:27:45Z" uid="6454" user="B10xxx" changeset="276009">
    <nd ref="33812999"/>
    <nd ref="165200211"/>
    <nd ref="165200204"/>
    <nd ref="165200199"/>
    <nd ref="165200192"/>
    <tag k="created_by" v="JOSM"/>
    <tag k="highway" v="residential"/>
  </way>
  <way id="16242270" version="2" timestamp="2010-07-08T17:49:05Z" uid="74617" user="JohnSmith" changeset="5167338">
    <nd ref="165202022"/>
    <nd ref="165202048"/>
    <tag k="highway" v="residential"/>
    <tag k="maxspeed" v="50"/>
    <tag k="maxspeed:source" v="default residential speed limit in Australia"/>
    <tag k="name" v="Keat Court"/>
  </way>
  <way id="16242273" version="2" timestamp="2010-07-08T17:48:40Z" uid="74617" user="JohnSmith" changeset="5167338">
    <nd ref="165202064"/>
    <nd ref="165202092"/>
    <tag k="highway" v="residential"/>
    <tag k="maxspeed" v="50"/>
    <tag k="maxspeed:source" v="default residential speed limit in Australia"/>
    <tag k="name" v="Dwyer Court"/>
  </way>
  <way id="16242274" version="2" timestamp="2010-07-08T17:47:32Z" uid="74617" user="JohnSmith" changeset="5167338">
    <nd ref="165202121"/>
    <nd ref="165202143"/>
    <tag k="highway" v="residential"/>
    <tag k="maxspeed" v="50"/>
    <tag k="maxspeed:source" v="default residential speed limit in Australia"/>
    <tag k="name" v="Nowa Court"/>
  </way>
  <way id="16242275" version="2" timestamp="2010-07-08T17:51:08Z" uid="74617" user="JohnSmith" changeset="5167338">
    <nd ref="165202164"/>
    <nd ref="165202191"/>
    <tag k="highway" v="residential"/>
    <tag k="maxspeed" v="50"/>
    <tag k="maxspeed:source" v="default residential speed limit in Australia"/>
    <tag k="name" v="Nuntin Court"/>
  </way>
  <way id="16242385" version="8" timestamp="2010-01-23T15:17:32Z" uid="58091" user="Andreas M" changeset="3692579">
    <nd ref="165203800"/>
    <nd ref="428836700"/>
    <nd ref="165203801"/>
    <nd ref="165199221"/>
    <nd ref="337411341"/>
    <nd ref="165200172"/>
    <nd ref="165200560"/>
    <nd ref="165199226"/>
    <nd ref="165199227"/>
    <tag k="highway" v="residential"/>
    <tag k="maxspeed" v="30"/>
    <tag k="name" v="Scheiblingsteingasse"/>
  </way>
  <way id="16242561" version="2" timestamp="2010-07-08T17:50:33Z" uid="74617" user="JohnSmith" changeset="5167338">
    <nd ref="165206026"/>
    <nd ref="165206055"/>
    <nd ref="165206079"/>
    <tag k="highway" v="residential"/>
    <tag k="maxspeed" v="50"/>
    <tag k="maxspeed:source" v="default residential speed limit in Australia"/>
    <tag k="name" v="Jennifer Court"/>
  </way>
</osm>
