<?xml version='1.0' encoding='UTF-8'?>
<osm version="0.6" generator="libosmium/2.20.0">
  <way id="16335502" version="8" timestamp="2010-07-07T09:20:04Z" uid="74617" user="JohnSmith" changeset="5156250">
    <nd ref="167721740"/>
    <nd ref="167721741"/>
    <nd ref="167721742"/>
    <nd ref="167722164"/>
    <nd ref="167721743"/>
    <nd ref="167721744"/>
    <nd ref="167721746"/>
    <nd ref="167721748"/>
    <nd ref="167721901"/>
    <nd ref="167721749"/>
    <nd ref="167721750"/>
    <nd ref="432519540"/>
    <nd ref="167721751"/>
    <nd ref="167721752"/>
    <nd ref="167722568"/>
    <nd ref="167721224"/>
    <nd ref="167721225"/>
    <nd ref="167721226"/>
    <nd ref="48754213"/>
    <tag k="highway" v="residential"/>
    <tag k="maxspeed" v="50"/>
    <tag k="maxspeed:source" v="default residential speed limit in Australia"/>
    <tag k="name" v="Demaine Crescent"/>
  </way>
  <way id="16335564" version="5" timestamp="2010-07-07T09:17:42Z" uid="74617" user="JohnSmith" changeset="5156250">
    <nd ref="167721900"/>
    <nd ref="167721901"/>
    <tag k="highway" v="residential"/>
    <tag k="maxspeed" v="50"/>
    <tag k="maxspeed:source" v="default residential speed limit in Australia"/>
    <tag k="name" v="Fryar Place"/>
  </way>
  <way id="16335599" version="4" timestamp="2010-07-07T09:20:22Z" uid="74617" user="JohnSmith" changeset="5156250">
    <nd ref="167722163"/>
    <nd ref="167722164"/>
    <tag k="highway" v="residential"/>
    <tag k="maxspeed" v="50"/>
    <tag k="maxspeed:source" v="default residential speed limit in Australia"/>
    <tag k="name" v="Hodel Place"/>
  </way>
  <way id="16335630" version="4" timestamp="2010-07-07T09:18:07Z" uid="74617" user="JohnSmith" changeset="5156250">
    <nd ref="167722340"/>
    <nd ref="167721746"/>
    <tag k="highway" v="residential"/>
    <tag k="maxspeed" v="50"/>
    <tag k="maxspeed:source" v="default residential speed limit in Australia"/>
    <tag k="name" v="Gilday Place"/>
  </way>
  <way id="16335659" version="4" timestamp="2010-07-07T09:10:49Z" uid="74617" user="JohnSmith" changeset="5156250">
    <nd ref="167722567"/>
    <nd ref="167722568"/>
    <tag k="highway" v="residential"/>
    <tag k="maxspeed" v="50"/>
    <tag k="maxspeed:source" v="default residential speed limit in Australia"/>
    <tag k="name" v="Brassington Place"/>
  </way>
  <way id="16335720" version="5" timestamp="2010-07-07T09:12:48Z" uid="74617" user="JohnSmith" changeset="5156250">
    <nd ref="167723207"/>
    <nd ref="167723209"/>
    <nd ref="167723210"/>
    <nd ref="167723393"/>
    <nd ref="167723211"/>
    <nd ref="167723213"/>
    <nd ref="167723215"/>
    <tag k="highway" v="residential"/>
    <tag k="maxspeed" v="50"/>
    <tag k="maxspeed:source" v="default residential speed limit in Australia"/>
    <tag k="name" v="Hardie Close"/>
  </way>
  <way id="16335731" version="5" timestamp="2010-07-07T09:19:52Z" uid="74617" user="JohnSmith" changeset="5156250">
    <nd ref="167723392"/>
    <nd ref="167723393"/>
    <tag k="highway" v="residential"/>
    <tag k="maxspeed" v="50"/>
    <tag k="maxspeed:source" v="default residential speed limit in Australia"/>
    <tag k="name" v="Hardie Close"/>
  </way>
  <way id="16335828" version="9" timestamp="2010-07-07T09:10:30Z" uid="74617" user="JohnSmith" changeset="5156250">
    <nd ref="32435109"/>
    <nd ref="167724570"/>
    <nd ref="167724863"/>
    <nd ref="167724572"/>
    <nd ref="167724573"/>
    <nd ref="167724574"/>
    <nd ref="167724575"/>
    <nd ref="167726672"/>
    <nd ref="167724577"/>
    <nd ref="167724578"/>
    <nd ref="167724580"/>
    <nd ref="167724581"/>
    <nd ref="167724582"/>
    <nd ref="167724584"/>
    <nd ref="167725302"/>
    <nd ref="167724586"/>
    <nd ref="167725529"/>
    <nd ref="167724588"/>
    <nd ref="291498350"/>
    <nd ref="167724590"/>
    <nd ref="32435098"/>
    <tag k="highway" v="residential"/>
    <tag k="maxspeed" v="50"/>
    <tag k="maxspeed:source" v="default residential speed limit in Australia"/>
    <tag k="name" v="Merriman Crescent"/>
  </way>
  <way id="16335858" version="7" timestamp="2010-07-07T09:10:35Z" uid="74617" user="JohnSmith" changeset="5156250">
    <nd ref="167724860"/>
    <nd ref="167724861"/>
    <nd ref="167724863"/>
    <tag k="highway" v="residential"/>
    <tag k="maxspeed" v="50"/>
    <tag k="maxspeed:source" v="default residential speed limit in Australia"/>
    <tag k="name" v="Body Place"/>
  </way>
  <way id="16335895" version="4" timestamp="2010-07-07T09:12:39Z" uid="74617" user="JohnSmith" changeset="5156250">
    <nd ref="167725301"/>
    <nd ref="167725302"/>
    <tag k="highway" v="residential"/>
    <tag k="maxspeed" v="50"/>
    <tag k="maxspeed:source" v="default residential speed limit in Australia"/>
    <tag k="name" v="Haly Place"/>
  </way>
  <way id="16335930" version="4" timestamp="2010-07-07T09:20:38Z" uid="74617" user="JohnSmith" changeset="5156250">
    <nd ref="167725525"/>
    <nd ref="167725527"/>
    <nd ref="167725528"/>
    <nd ref="167725529"/>
    <tag k="highway" v="residential"/>
    <tag k="maxspeed" v="50"/>
    <tag k="maxspeed:source" v="default residential speed limit in Australia"/>
    <tag k="name" v="Macknight Place"/>
  </way>
  <way id="16335999" version="6" timestamp="2010-07-07T09:10:49Z" uid="74617" user="JohnSmith" changeset="5156250">
    <nd ref="167726212"/>
    <nd ref="167726214"/>
    <nd ref="167726216"/>
    <nd ref="167726217"/>
    <nd ref="167726218"/>
    <nd ref="167726219"/>
    <nd ref="665621648"/>
    <nd ref="167726221"/>
    <nd ref="167726223"/>
    <nd ref="665621675"/>
    <nd ref="167726225"/>
    <tag k="highway" v="residential"/>
    <tag k="maxspeed" v="50"/>
    <tag k="maxspeed:source" v="default residential speed limit in Australia"/>
    <tag k="name" v="Starritt Place"/>
  </way>
</osm>
