<?xml version='1.0' encoding='UTF-8'?>
<osm version="0.6" generator="libosmium/2.20.0">
  <way id="16371023" version="5" timestamp="2010-07-06T08:51:41Z" uid="74617" user="JohnSmith" changeset="5147679">
    <nd ref="168615794"/>
    <nd ref="168616062"/>
    <nd ref="168616063"/>
    <nd ref="168616064"/>
    <tag k="highway" v="residential"/>
    <tag k="maxspeed" v="50"/>
    <tag k="maxspeed:source" v="default residential speed limit in Australia"/>
    <tag k="name" v="Calston Street"/>
  </way>
  <way id="16371053" version="6" timestamp="2010-07-06T08:52:47Z" uid="74617" user="JohnSmith" changeset="5147679">
    <nd ref="168615792"/>
    <nd ref="168616329"/>
    <nd ref="357187870"/>
    <nd ref="168616330"/>
    <nd ref="168616332"/>
    <tag k="highway" v="residential"/>
    <tag k="maxspeed" v="50"/>
    <tag k="maxspeed:source" v="default residential speed limit in Australia"/>
    <tag k="name" v="Logan Avenue"/>
  </way>
  <way id="16371079" version="5" timestamp="2010-07-06T08:52:00Z" uid="74617" user="JohnSmith" changeset="5147679">
    <nd ref="168615116"/>
    <nd ref="168616062"/>
    <nd ref="168616329"/>
    <tag k="highway" v="residential"/>
    <tag k="maxspeed" v="50"/>
    <tag k="maxspeed:source" v="default residential speed limit in Australia"/>
    <tag k="name" v="Manor Street"/>
  </way>
  <way id="16371113" version="6" timestamp="2010-07-06T08:52:49Z" uid="74617" user="JohnSmith" changeset="5147679">
    <nd ref="159562419"/>
    <nd ref="357188039"/>
    <nd ref="168617002"/>
    <nd ref="168617004"/>
    <tag k="highway" v="residential"/>
    <tag k="maxspeed" v="50"/>
    <tag k="maxspeed:source" v="default residential speed limit in Australia"/>
    <tag k="name" v="California Road"/>
  </way>
  <way id="16371113" version="7" timestamp="2010-07-24T03:26:36Z" uid="4467" user="Rosscoe" changeset="5300546">
    <nd ref="159562419"/>
    <nd ref="168617004"/>
    <tag k="highway" v="residential"/>
    <tag k="maxspeed" v="50"/>
    <tag k="maxspeed:source" v="default residential speed limit in Australia"/>
    <tag k="name" v="California Road"/>
  </way>
  <way id="16371173" version="4" timestamp="2010-07-06T08:53:39Z" uid="74617" user="JohnSmith" changeset="5147679">
    <nd ref="168615117"/>
    <nd ref="168618290"/>
    <nd ref="168618291"/>
    <nd ref="168618293"/>
    <nd ref="168616064"/>
    <nd ref="168616332"/>
    <tag k="highway" v="residential"/>
    <tag k="maxspeed" v="50"/>
    <tag k="maxspeed:source" v="default residential speed limit in Australia"/>
    <tag k="name" v="Bayford Street"/>
  </way>
  <way id="16371199" version="7" timestamp="2009-02-17T11:47:26Z" uid="9581" user="Lobelt" changeset="512064">
    <nd ref="168617657"/>
    <nd ref="31068766"/>
    <nd ref="346639209"/>
    <nd ref="31202536"/>
    <nd ref="31040027"/>
    <nd ref="31202972"/>
    <nd ref="31066512"/>
    <nd ref="31202535"/>
    <nd ref="31040026"/>
    <nd ref="31202534"/>
    <nd ref="31202533"/>
    <nd ref="31066511"/>
    <nd ref="207663056"/>
    <nd ref="31039875"/>
    <nd ref="31066510"/>
    <nd ref="31202532"/>
    <nd ref="31039874"/>
    <nd ref="31202531"/>
    <nd ref="31066509"/>
    <nd ref="31039873"/>
    <nd ref="32436724"/>
    <tag k="created_by" v="fixbot"/>
    <tag k="highway" v="motorway"/>
    <tag k="int_ref" v="E36"/>
    <tag k="lanes" v="2"/>
    <tag k="oneway" v="yes"/>
    <tag k="ref" v="A 15"/>
  </way>
  <way id="16371278" version="5" timestamp="2010-07-06T08:54:29Z" uid="74617" user="JohnSmith" changeset="5147679">
    <nd ref="168617004"/>
    <nd ref="168617856"/>
    <nd ref="168617857"/>
    <nd ref="168617858"/>
    <nd ref="168617860"/>
    <nd ref="168617861"/>
    <nd ref="168617862"/>
    <nd ref="168617863"/>
    <nd ref="168617864"/>
    <nd ref="168620764"/>
    <nd ref="168621168"/>
    <nd ref="168621169"/>
    <nd ref="357213858"/>
    <nd ref="168621170"/>
    <tag k="highway" v="residential"/>
    <tag k="maxspeed" v="50"/>
    <tag k="maxspeed:source" v="default residential speed limit in Australia"/>
    <tag k="name" v="Jutland Street"/>
  </way>
  <way id="16371411" version="6" timestamp="2010-07-06T08:51:17Z" uid="74617" user="JohnSmith" changeset="5147679">
    <nd ref="99987215"/>
    <nd ref="168623893"/>
    <nd ref="168620764"/>
    <tag k="highway" v="residential"/>
    <tag k="maxspeed" v="50"/>
    <tag k="maxspeed:source" v="default residential speed limit in Australia"/>
    <tag k="name" v="Munbilla Street"/>
  </way>
  <way id="16371411" version="7" timestamp="2010-07-24T03:17:11Z" uid="4467" user="Rosscoe" changeset="5300521">
    <nd ref="99987215"/>
    <nd ref="168623893"/>
    <nd ref="168620764"/>
    <tag k="highway" v="residential"/>
    <tag k="maxspeed" v="50"/>
    <tag k="maxspeed:source" v="default residential speed limit in Australia"/>
    <tag k="name" v="Munbilla Street"/>
  </way>
  <way id="16371522" version="4" timestamp="2010-07-06T08:51:18Z" uid="74617" user="JohnSmith" changeset="5147679">
    <nd ref="168615789"/>
    <nd ref="168625930"/>
    <nd ref="168617864"/>
    <nd ref="168625932"/>
    <nd ref="168625933"/>
    <tag k="highway" v="residential"/>
    <tag k="maxspeed" v="50"/>
    <tag k="maxspeed:source" v="default residential speed limit in Australia"/>
    <tag k="name" v="Price Street"/>
  </way>
  <way id="16371522" version="5" timestamp="2010-07-24T03:16:10Z" uid="4467" user="Rosscoe" changeset="5300521">
    <nd ref="168615789"/>
    <nd ref="168617864"/>
    <nd ref="168625932"/>
    <nd ref="168625933"/>
    <tag k="highway" v="residential"/>
    <tag k="maxspeed" v="50"/>
    <tag k="maxspeed:source" v="default residential speed limit in Australia"/>
    <tag k="name" v="Price Street"/>
  </way>
  <way id="16371536" version="5" timestamp="2010-07-06T08:51:36Z" uid="74617" user="JohnSmith" changeset="5147679">
    <nd ref="168615791"/>
    <nd ref="168626259"/>
    <nd ref="168617863"/>
    <tag k="highway" v="residential"/>
    <tag k="maxspeed" v="50"/>
    <tag k="maxspeed:source" v="default residential speed limit in Australia"/>
    <tag k="name" v="Enright Street"/>
  </way>
  <way id="16371575" version="5" timestamp="2010-07-06T08:51:08Z" uid="74617" user="JohnSmith" changeset="5147679">
    <nd ref="168615793"/>
    <nd ref="168626900"/>
    <nd ref="168617860"/>
    <tag k="highway" v="residential"/>
    <tag k="maxspeed" v="50"/>
    <tag k="maxspeed:source" v="default residential speed limit in Australia"/>
    <tag k="name" v="Saint Clements Road"/>
  </way>
  <way id="16371605" version="5" timestamp="2010-07-06T08:51:29Z" uid="74617" user="JohnSmith" changeset="5147679">
    <nd ref="168619726"/>
    <nd ref="168627544"/>
    <nd ref="168617858"/>
    <tag k="highway" v="residential"/>
    <tag k="maxspeed" v="50"/>
    <tag k="maxspeed:source" v="default residential speed limit in Australia"/>
    <tag k="name" v="Alexander Road"/>
  </way>
  <way id="16371620" version="5" timestamp="2010-07-06T08:54:28Z" uid="74617" user="JohnSmith" changeset="5147679">
    <nd ref="168615790"/>
    <nd ref="168627716"/>
    <nd ref="168627720"/>
    <nd ref="168627723"/>
    <nd ref="168628430"/>
    <nd ref="168628431"/>
    <nd ref="168628433"/>
    <nd ref="357187868"/>
    <nd ref="168658849"/>
    <nd ref="168658847"/>
    <nd ref="168658846"/>
    <nd ref="168658844"/>
    <tag k="highway" v="residential"/>
    <tag k="maxspeed" v="50"/>
    <tag k="maxspeed:source" v="default residential speed limit in Australia"/>
    <tag k="name" v="Colwel Street"/>
  </way>
  <way id="16371620" version="6" timestamp="2010-07-24T03:16:27Z" uid="4467" user="Rosscoe" changeset="5300521">
    <nd ref="168615790"/>
    <nd ref="168627720"/>
    <nd ref="168627723"/>
    <nd ref="168628430"/>
    <nd ref="168628431"/>
    <nd ref="168628433"/>
    <nd ref="357187868"/>
    <nd ref="168658849"/>
    <nd ref="168658847"/>
    <nd ref="168658846"/>
    <nd ref="168658844"/>
    <tag k="highway" v="residential"/>
    <tag k="maxspeed" v="50"/>
    <tag k="maxspeed:source" v="default residential speed limit in Australia"/>
    <tag k="name" v="Colwel Street"/>
  </way>
  <way id="16371664" version="4" timestamp="2010-07-06T08:50:47Z" uid="74617" user="JohnSmith" changeset="5147679">
    <nd ref="99995946"/>
    <nd ref="168629023"/>
    <nd ref="168629025"/>
    <nd ref="168629026"/>
    <nd ref="60847071"/>
    <tag k="highway" v="residential"/>
    <tag k="maxspeed" v="50"/>
    <tag k="maxspeed:source" v="default residential speed limit in Australia"/>
    <tag k="name" v="Bannerman Street"/>
    <tag k="oneway" v="yes"/>
  </way>
  <way id="16371664" version="5" timestamp="2010-07-24T03:17:17Z" uid="4467" user="Rosscoe" changeset="5300521"/>
  <way id="16371670" version="5" timestamp="2010-07-06T08:54:38Z" uid="74617" user="JohnSmith" changeset="5147679">
    <nd ref="60847071"/>
    <nd ref="168629155"/>
    <nd ref="168629156"/>
    <nd ref="168629157"/>
    <nd ref="168629158"/>
    <nd ref="168629159"/>
    <nd ref="168629160"/>
    <tag k="highway" v="residential"/>
    <tag k="maxspeed" v="50"/>
    <tag k="maxspeed:source" v="default residential speed limit in Australia"/>
    <tag k="name" v="Bannerman Street"/>
  </way>
  <way id="16371670" version="6" timestamp="2010-07-24T03:16:37Z" uid="4467" user="Rosscoe" changeset="5300521">
    <nd ref="99995948"/>
    <nd ref="60847071"/>
    <nd ref="168629159"/>
    <nd ref="168629160"/>
    <tag k="highway" v="residential"/>
    <tag k="maxspeed" v="50"/>
    <tag k="maxspeed:source" v="default residential speed limit in Australia"/>
    <tag k="name" v="Bannerman Street"/>
  </way>
  <way id="16371699" version="4" timestamp="2010-07-06T08:51:31Z" uid="74617" user="JohnSmith" changeset="5147679">
    <nd ref="168623893"/>
    <nd ref="168629579"/>
    <nd ref="168629582"/>
    <tag k="highway" v="residential"/>
    <tag k="maxspeed" v="50"/>
    <tag k="maxspeed:source" v="default residential speed limit in Australia"/>
    <tag k="name" v="Boodera Street"/>
  </way>
  <way id="16371742" version="4" timestamp="2010-07-06T08:51:56Z" uid="74617" user="JohnSmith" changeset="5147679">
    <nd ref="168629579"/>
    <nd ref="168630712"/>
    <tag k="highway" v="residential"/>
    <tag k="maxspeed" v="50"/>
    <tag k="maxspeed:source" v="default residential speed limit in Australia"/>
    <tag k="name" v="Hipper Street"/>
  </way>
  <way id="16371765" version="5" timestamp="2010-07-06T08:52:54Z" uid="74617" user="JohnSmith" changeset="5147679">
    <nd ref="168623898"/>
    <nd ref="168631363"/>
    <nd ref="168631364"/>
    <nd ref="168631366"/>
    <nd ref="168631723"/>
    <nd ref="168631725"/>
    <nd ref="168631727"/>
    <nd ref="168631730"/>
    <nd ref="168631731"/>
    <tag k="highway" v="residential"/>
    <tag k="maxspeed" v="50"/>
    <tag k="maxspeed:source" v="default residential speed limit in Australia"/>
    <tag k="name" v="Vesta Street"/>
  </way>
</osm>
