<?xml version='1.0' encoding='UTF-8'?>
<osm version="0.6" generator="libosmium/2.20.0">
  <way id="16438164" version="4" timestamp="2010-02-14T15:49:09Z" uid="74617" user="JohnSmith" changeset="3874884">
    <nd ref="169651916"/>
    <nd ref="169657121"/>
    <nd ref="169657122"/>
    <nd ref="169656692"/>
    <tag k="highway" v="tertiary"/>
    <tag k="name" v="Wilgarning Street"/>
    <tag k="oneway" v="yes"/>
  </way>
  <way id="16438322" version="5" timestamp="2010-02-14T15:49:20Z" uid="74617" user="JohnSmith" changeset="3874884">
    <nd ref="169658998"/>
    <nd ref="259787271"/>
    <nd ref="169662602"/>
    <nd ref="259787273"/>
    <nd ref="169659005"/>
    <tag k="highway" v="residential"/>
    <tag k="maxspeed" v="50"/>
    <tag k="name" v="Sarina Street"/>
  </way>
  <way id="16438387" version="8" timestamp="2010-02-14T15:49:05Z" uid="74617" user="JohnSmith" changeset="3874884">
    <nd ref="169660468"/>
    <nd ref="169660469"/>
    <nd ref="259785431"/>
    <nd ref="169660471"/>
    <tag k="highway" v="residential"/>
    <tag k="maxspeed" v="50"/>
    <tag k="name" v="Oakey Street"/>
  </way>
  <way id="16438434" version="10" timestamp="2010-02-14T15:45:57Z" uid="74617" user="JohnSmith" changeset="3874884">
    <nd ref="169661044"/>
    <nd ref="169661045"/>
    <nd ref="169658998"/>
    <nd ref="169660468"/>
    <nd ref="169656691"/>
    <tag k="highway" v="residential"/>
    <tag k="maxspeed" v="50"/>
    <tag k="name" v="Kingaroy Street"/>
  </way>
  <way id="16438473" version="1" timestamp="2007-12-15T00:40:20Z" uid="4667" user="MapZ" changeset="310342">
    <nd ref="169661518"/>
    <nd ref="169661525"/>
    <nd ref="169661529"/>
    <nd ref="169661531"/>
    <nd ref="169661536"/>
    <nd ref="169661542"/>
    <nd ref="169661518"/>
    <tag k="created_by" v="JOSM"/>
    <tag k="military" v="barracks"/>
  </way>
  <way id="16438473" version="6" timestamp="2010-03-07T19:54:23Z" uid="9581" user="Lobelt" changeset="4065569">
    <nd ref="169661518"/>
    <nd ref="169661525"/>
    <nd ref="169661529"/>
    <nd ref="312295074"/>
    <nd ref="662516033"/>
    <nd ref="169661531"/>
    <nd ref="662516028"/>
    <nd ref="662516030"/>
    <nd ref="662516032"/>
    <nd ref="662516027"/>
    <nd ref="662516013"/>
    <nd ref="662516002"/>
    <nd ref="169661536"/>
    <nd ref="169661542"/>
    <nd ref="375965221"/>
    <nd ref="375965215"/>
    <nd ref="169661518"/>
    <tag k="landuse" v="military"/>
    <tag k="military" v="barracks"/>
    <tag k="name" v="Taylor Barracks"/>
  </way>
  <way id="16438545" version="11" timestamp="2010-02-14T15:45:56Z" uid="74617" user="JohnSmith" changeset="3874884">
    <nd ref="169662598"/>
    <nd ref="169661044"/>
    <nd ref="169662600"/>
    <nd ref="169662602"/>
    <nd ref="169660471"/>
    <nd ref="169662604"/>
    <nd ref="169662607"/>
    <nd ref="169662610"/>
    <nd ref="169659005"/>
    <nd ref="169662612"/>
    <tag k="highway" v="residential"/>
    <tag k="maxspeed" v="50"/>
    <tag k="name" v="Normanton Street"/>
  </way>
  <way id="16438813" version="5" timestamp="2010-02-14T15:48:24Z" uid="74617" user="JohnSmith" changeset="3874884">
    <nd ref="169665542"/>
    <nd ref="260002124"/>
    <nd ref="169665546"/>
    <nd ref="169665709"/>
    <tag k="highway" v="residential"/>
    <tag k="maxspeed" v="50"/>
    <tag k="name" v="Yurara Street"/>
  </way>
  <way id="16438857" version="4" timestamp="2010-02-14T15:48:18Z" uid="74617" user="JohnSmith" changeset="3874884">
    <nd ref="169666015"/>
    <nd ref="169666014"/>
    <tag k="highway" v="residential"/>
    <tag k="maxspeed" v="50"/>
    <tag k="name" v="Worsfold Street"/>
  </way>
  <way id="16438928" version="15" timestamp="2010-02-14T15:48:00Z" uid="74617" user="JohnSmith" changeset="3874884">
    <nd ref="169668898"/>
    <nd ref="169668899"/>
    <nd ref="169666930"/>
    <nd ref="260002351"/>
    <nd ref="169666936"/>
    <nd ref="169665709"/>
    <nd ref="169666939"/>
    <nd ref="169666940"/>
    <nd ref="169666015"/>
    <nd ref="94602688"/>
    <tag k="highway" v="residential"/>
    <tag k="maxspeed" v="50"/>
    <tag k="name" v="Cutbush Road"/>
  </way>
  <way id="16438963" version="4" timestamp="2010-02-14T15:48:24Z" uid="74617" user="JohnSmith" changeset="3874884">
    <nd ref="169667253"/>
    <nd ref="169666939"/>
    <tag k="highway" v="residential"/>
    <tag k="maxspeed" v="50"/>
    <tag k="name" v="Sim Street"/>
  </way>
  <way id="16438998" version="5" timestamp="2010-02-14T15:48:00Z" uid="74617" user="JohnSmith" changeset="3874884">
    <nd ref="169667577"/>
    <nd ref="140557531"/>
    <nd ref="169667253"/>
    <nd ref="94602261"/>
    <tag k="highway" v="residential"/>
    <tag k="maxspeed" v="50"/>
    <tag k="name" v="Mountridge Street"/>
  </way>
</osm>
