<?xml version='1.0' encoding='UTF-8'?>
<osm version="0.6" generator="libosmium/2.20.0">
  <way id="16485116" version="3" timestamp="2009-09-29T01:35:54Z" uid="36809" user="pfoten_weg_!_" changeset="2672113">
    <nd ref="31926359"/>
    <nd ref="31926375"/>
    <nd ref="31926381"/>
    <nd ref="31926388"/>
    <nd ref="31926430"/>
    <nd ref="31926433"/>
    <nd ref="31271826"/>
    <tag k="highway" v="tertiary"/>
    <tag k="name" v="Erlinger Straße"/>
    <tag k="ref" v="STA 9"/>
  </way>
  <way id="16485116" version="5" timestamp="2009-10-20T23:52:38Z" uid="36809" user="pfoten_weg_!_" changeset="2908189">
    <nd ref="31926359"/>
    <nd ref="31926375"/>
    <nd ref="31926381"/>
    <nd ref="31926388"/>
    <nd ref="31926430"/>
    <nd ref="31926433"/>
    <nd ref="534113995"/>
    <nd ref="31271826"/>
    <tag k="highway" v="tertiary"/>
    <tag k="name" v="Erlinger Straße"/>
    <tag k="ref" v="STA 9"/>
  </way>
  <way id="16485163" version="2" timestamp="2009-10-01T06:17:49Z" uid="99207" user="Lar Kiesel" changeset="2696595">
    <nd ref="113231476"/>
    <nd ref="170181765"/>
    <nd ref="170171010"/>
    <nd ref="170181768"/>
    <nd ref="170181771"/>
    <nd ref="170181774"/>
    <nd ref="170160063"/>
    <nd ref="170181777"/>
    <nd ref="170173921"/>
    <nd ref="170181780"/>
    <nd ref="170181783"/>
    <nd ref="170181786"/>
    <nd ref="170180964"/>
    <nd ref="170175606"/>
    <nd ref="170181789"/>
    <tag k="highway" v="residential"/>
    <tag k="name" v="Hickman Rd"/>
    <tag k="tiger:cfcc" v="A41"/>
    <tag k="tiger:county" v="Columbus, NC"/>
    <tag k="tiger:name_base" v="Hickman"/>
    <tag k="tiger:name_type" v="Rd"/>
    <tag k="tiger:reviewed" v="no"/>
    <tag k="tiger:separated" v="no"/>
    <tag k="tiger:source" v="tiger_import_dch_v0.6_20070829"/>
    <tag k="tiger:tlid" v="64131686:64131687:64131688:64131689:64131690:64131691:64149441:64132299:64131693:64131694:64131695"/>
    <tag k="tiger:upload_uuid" v="bulk_upload.pl-4c65d9a1-a280-484a-9722-a51d3ba53afa"/>
    <tag k="tiger:zip_left" v="28463"/>
    <tag k="tiger:zip_right" v="28463"/>
  </way>
</osm>
