<?xml version='1.0' encoding='UTF-8'?>
<osm version="0.6" generator="libosmium/2.20.0">
  <way id="16494003" version="3" timestamp="2010-07-07T07:46:52Z" uid="74617" user="JohnSmith" changeset="5156250">
    <nd ref="170261225"/>
    <nd ref="170307268"/>
    <nd ref="170307241"/>
    <nd ref="170307220"/>
    <nd ref="170307196"/>
    <tag k="highway" v="residential"/>
    <tag k="maxspeed" v="50"/>
    <tag k="maxspeed:source" v="default residential speed limit in Australia"/>
    <tag k="name" v="Treverrow Court"/>
    <tag k="source" v="GPS"/>
    <tag k="surface" v="asphalt"/>
  </way>
  <way id="16494003" version="4" timestamp="2011-04-01T14:53:35Z" uid="4467" user="Rosscoe" changeset="7736102">
    <nd ref="170261225"/>
    <nd ref="170307268"/>
    <nd ref="170307241"/>
    <nd ref="170307220"/>
    <nd ref="170307196"/>
    <tag k="highway" v="residential"/>
    <tag k="maxspeed" v="50"/>
    <tag k="name" v="Treverrow Court"/>
    <tag k="source" v="survey"/>
    <tag k="source:maxspeed" v="default residential speed limit in Australia"/>
    <tag k="surface" v="asphalt"/>
    <tag k="survey" v="GPS"/>
  </way>
  <way id="16494005" version="5" timestamp="2010-07-07T07:47:09Z" uid="74617" user="JohnSmith" changeset="5156250">
    <nd ref="170307284"/>
    <nd ref="170261627"/>
    <nd ref="170261524"/>
    <nd ref="170261049"/>
    <tag k="highway" v="residential"/>
    <tag k="maxspeed" v="50"/>
    <tag k="maxspeed:source" v="default residential speed limit in Australia"/>
    <tag k="name" v="Hammond Street"/>
    <tag k="source" v="GPS"/>
    <tag k="surface" v="asphalt"/>
  </way>
  <way id="16494005" version="6" timestamp="2011-04-01T14:54:02Z" uid="4467" user="Rosscoe" changeset="7736102">
    <nd ref="170307284"/>
    <nd ref="170261627"/>
    <nd ref="170261524"/>
    <nd ref="170261049"/>
    <tag k="highway" v="residential"/>
    <tag k="maxspeed" v="50"/>
    <tag k="name" v="Hammond Street"/>
    <tag k="source" v="survey"/>
    <tag k="source:maxspeed" v="default residential speed limit in Australia"/>
    <tag k="surface" v="asphalt"/>
    <tag k="survey" v="GPS"/>
  </way>
  <way id="16494008" version="3" timestamp="2010-08-01T03:05:37Z" uid="18775" user="drlizau" changeset="5367352">
    <nd ref="170307311"/>
    <nd ref="472712042"/>
    <nd ref="170261029"/>
    <nd ref="169748617"/>
    <nd ref="170260981"/>
    <nd ref="169484789"/>
    <tag k="highway" v="tertiary"/>
    <tag k="name" v="Fairview Street"/>
    <tag k="surface" v="asphalt"/>
  </way>
  <way id="16494010" version="3" timestamp="2010-07-07T07:47:20Z" uid="74617" user="JohnSmith" changeset="5156250">
    <nd ref="170307338"/>
    <nd ref="170307358"/>
    <nd ref="170307386"/>
    <nd ref="170307420"/>
    <nd ref="170307447"/>
    <tag k="highway" v="residential"/>
    <tag k="maxspeed" v="50"/>
    <tag k="maxspeed:source" v="default residential speed limit in Australia"/>
    <tag k="name" v="Beveridge Crescent"/>
  </way>
  <way id="16494010" version="4" timestamp="2011-04-01T14:55:22Z" uid="4467" user="Rosscoe" changeset="7736102">
    <nd ref="170307338"/>
    <nd ref="170307358"/>
    <nd ref="170307386"/>
    <nd ref="170307420"/>
    <nd ref="170307447"/>
    <tag k="highway" v="residential"/>
    <tag k="maxspeed" v="50"/>
    <tag k="name" v="Beveridge Crescent"/>
    <tag k="source:maxspeed" v="default residential speed limit in Australia"/>
  </way>
  <way id="16494014" version="2" timestamp="2010-07-07T07:46:54Z" uid="74617" user="JohnSmith" changeset="5156250">
    <nd ref="170307477"/>
    <nd ref="170307503"/>
    <nd ref="170307538"/>
    <tag k="highway" v="residential"/>
    <tag k="maxspeed" v="50"/>
    <tag k="maxspeed:source" v="default residential speed limit in Australia"/>
    <tag k="name" v="Emerald Street"/>
  </way>
  <way id="16494014" version="3" timestamp="2011-04-01T14:54:55Z" uid="4467" user="Rosscoe" changeset="7736102">
    <nd ref="170307477"/>
    <nd ref="170307503"/>
    <nd ref="170307538"/>
    <tag k="highway" v="residential"/>
    <tag k="maxspeed" v="50"/>
    <tag k="name" v="Emerald Street"/>
    <tag k="source:maxspeed" v="default residential speed limit in Australia"/>
  </way>
  <way id="16494019" version="2" timestamp="2010-07-07T07:47:47Z" uid="74617" user="JohnSmith" changeset="5156250">
    <nd ref="170307570"/>
    <nd ref="169748663"/>
    <nd ref="170307600"/>
    <nd ref="170307633"/>
    <tag k="highway" v="residential"/>
    <tag k="maxspeed" v="50"/>
    <tag k="maxspeed:source" v="default residential speed limit in Australia"/>
    <tag k="name" v="Garnet Street"/>
  </way>
  <way id="16494019" version="3" timestamp="2011-04-01T14:53:56Z" uid="4467" user="Rosscoe" changeset="7736102">
    <nd ref="170307570"/>
    <nd ref="169748663"/>
    <nd ref="170307600"/>
    <nd ref="170307633"/>
    <tag k="highway" v="residential"/>
    <tag k="maxspeed" v="50"/>
    <tag k="name" v="Garnet Street"/>
    <tag k="source:maxspeed" v="default residential speed limit in Australia"/>
  </way>
  <way id="16494022" version="2" timestamp="2010-07-07T07:46:49Z" uid="74617" user="JohnSmith" changeset="5156250">
    <nd ref="170307648"/>
    <nd ref="170307673"/>
    <nd ref="170307696"/>
    <tag k="highway" v="residential"/>
    <tag k="maxspeed" v="50"/>
    <tag k="maxspeed:source" v="default residential speed limit in Australia"/>
    <tag k="name" v="Opal Street"/>
  </way>
  <way id="16494022" version="3" timestamp="2011-04-01T14:54:05Z" uid="4467" user="Rosscoe" changeset="7736102">
    <nd ref="170307648"/>
    <nd ref="170307673"/>
    <nd ref="170307696"/>
    <tag k="highway" v="residential"/>
    <tag k="maxspeed" v="50"/>
    <tag k="name" v="Opal Street"/>
    <tag k="source:maxspeed" v="default residential speed limit in Australia"/>
  </way>
  <way id="16494026" version="5" timestamp="2010-07-07T07:46:20Z" uid="74617" user="JohnSmith" changeset="5156250">
    <nd ref="170307714"/>
    <nd ref="169748644"/>
    <nd ref="170307734"/>
    <tag k="highway" v="residential"/>
    <tag k="maxspeed" v="50"/>
    <tag k="maxspeed:source" v="default residential speed limit in Australia"/>
    <tag k="name" v="Sapphire Street"/>
  </way>
  <way id="16494026" version="6" timestamp="2011-04-01T14:53:28Z" uid="4467" user="Rosscoe" changeset="7736102">
    <nd ref="170307714"/>
    <nd ref="169748644"/>
    <nd ref="170307734"/>
    <tag k="highway" v="residential"/>
    <tag k="maxspeed" v="50"/>
    <tag k="name" v="Sapphire Street"/>
    <tag k="source:maxspeed" v="default residential speed limit in Australia"/>
  </way>
  <way id="16494029" version="2" timestamp="2010-07-07T07:47:16Z" uid="74617" user="JohnSmith" changeset="5156250">
    <nd ref="170307764"/>
    <nd ref="170261006"/>
    <nd ref="170307785"/>
    <tag k="highway" v="residential"/>
    <tag k="maxspeed" v="50"/>
    <tag k="maxspeed:source" v="default residential speed limit in Australia"/>
    <tag k="name" v="Topaz Street"/>
  </way>
  <way id="16494029" version="3" timestamp="2011-04-01T14:55:17Z" uid="4467" user="Rosscoe" changeset="7736102">
    <nd ref="170307764"/>
    <nd ref="170261006"/>
    <nd ref="170307785"/>
    <tag k="highway" v="residential"/>
    <tag k="maxspeed" v="50"/>
    <tag k="name" v="Topaz Street"/>
    <tag k="source:maxspeed" v="default residential speed limit in Australia"/>
  </way>
  <way id="16494031" version="3" timestamp="2010-07-07T07:46:30Z" uid="74617" user="JohnSmith" changeset="5156250">
    <nd ref="170307803"/>
    <nd ref="170307830"/>
    <nd ref="170307853"/>
    <tag k="highway" v="residential"/>
    <tag k="maxspeed" v="50"/>
    <tag k="maxspeed:source" v="default residential speed limit in Australia"/>
    <tag k="name" v="Heather Street"/>
    <tag k="source" v="GPS"/>
    <tag k="surface" v="asphalt"/>
  </way>
  <way id="16494031" version="4" timestamp="2011-04-01T14:54:32Z" uid="4467" user="Rosscoe" changeset="7736102">
    <nd ref="170307803"/>
    <nd ref="170307830"/>
    <nd ref="170307853"/>
    <tag k="highway" v="residential"/>
    <tag k="maxspeed" v="50"/>
    <tag k="name" v="Heather Street"/>
    <tag k="source" v="survey"/>
    <tag k="source:maxspeed" v="default residential speed limit in Australia"/>
    <tag k="surface" v="asphalt"/>
    <tag k="survey" v="GPS"/>
  </way>
  <way id="16494035" version="2" timestamp="2010-07-07T07:47:38Z" uid="74617" user="JohnSmith" changeset="5156250">
    <nd ref="170307875"/>
    <nd ref="170307896"/>
    <nd ref="170307925"/>
    <tag k="highway" v="residential"/>
    <tag k="maxspeed" v="50"/>
    <tag k="maxspeed:source" v="default residential speed limit in Australia"/>
    <tag k="name" v="Elcama Street"/>
  </way>
  <way id="16494035" version="3" timestamp="2011-04-01T14:54:07Z" uid="4467" user="Rosscoe" changeset="7736102">
    <nd ref="170307875"/>
    <nd ref="170307896"/>
    <nd ref="170307925"/>
    <tag k="highway" v="residential"/>
    <tag k="maxspeed" v="50"/>
    <tag k="name" v="Elcama Street"/>
    <tag k="source:maxspeed" v="default residential speed limit in Australia"/>
  </way>
  <way id="16494040" version="2" timestamp="2010-07-07T07:46:56Z" uid="74617" user="JohnSmith" changeset="5156250">
    <nd ref="170307948"/>
    <nd ref="170307976"/>
    <nd ref="170308005"/>
    <tag k="highway" v="residential"/>
    <tag k="maxspeed" v="50"/>
    <tag k="maxspeed:source" v="default residential speed limit in Australia"/>
    <tag k="name" v="Diane Street"/>
  </way>
  <way id="16494040" version="3" timestamp="2011-04-01T14:54:34Z" uid="4467" user="Rosscoe" changeset="7736102">
    <nd ref="170307948"/>
    <nd ref="170307976"/>
    <nd ref="170308005"/>
    <tag k="highway" v="residential"/>
    <tag k="maxspeed" v="50"/>
    <tag k="name" v="Diane Street"/>
    <tag k="source:maxspeed" v="default residential speed limit in Australia"/>
  </way>
  <way id="16494042" version="4" timestamp="2010-07-07T07:46:09Z" uid="74617" user="JohnSmith" changeset="5156250">
    <nd ref="168027192"/>
    <nd ref="330698273"/>
    <nd ref="170308034"/>
    <tag k="highway" v="residential"/>
    <tag k="maxspeed" v="50"/>
    <tag k="maxspeed:source" v="default residential speed limit in Australia"/>
    <tag k="name" v="Diane Street"/>
    <tag k="surface" v="asphalt"/>
  </way>
  <way id="16494042" version="5" timestamp="2011-04-01T14:53:44Z" uid="4467" user="Rosscoe" changeset="7736102">
    <nd ref="168027192"/>
    <nd ref="330698273"/>
    <nd ref="170308034"/>
    <tag k="highway" v="residential"/>
    <tag k="maxspeed" v="50"/>
    <tag k="name" v="Diane Street"/>
    <tag k="source:maxspeed" v="default residential speed limit in Australia"/>
    <tag k="surface" v="asphalt"/>
  </way>
  <way id="16494046" version="3" timestamp="2010-07-07T07:47:40Z" uid="74617" user="JohnSmith" changeset="5156250">
    <nd ref="168027409"/>
    <nd ref="170261252"/>
    <nd ref="170308037"/>
    <tag k="highway" v="residential"/>
    <tag k="maxspeed" v="50"/>
    <tag k="maxspeed:source" v="default residential speed limit in Australia"/>
    <tag k="name" v="Wheatleys Lane"/>
    <tag k="surface" v="asphalt"/>
  </way>
  <way id="16494046" version="4" timestamp="2011-04-01T14:55:19Z" uid="4467" user="Rosscoe" changeset="7736102">
    <nd ref="168027409"/>
    <nd ref="170261252"/>
    <nd ref="170308037"/>
    <tag k="highway" v="residential"/>
    <tag k="maxspeed" v="50"/>
    <tag k="name" v="Wheatleys Lane"/>
    <tag k="source:maxspeed" v="default residential speed limit in Australia"/>
    <tag k="surface" v="asphalt"/>
  </way>
  <way id="16494057" version="4" timestamp="2010-03-27T22:51:36Z" uid="20587" user="balrog-kun" changeset="4250871">
    <nd ref="78970104"/>
    <nd ref="123377574"/>
    <nd ref="122950026"/>
    <nd ref="122940796"/>
    <nd ref="123553473"/>
    <nd ref="123553477"/>
    <nd ref="123534305"/>
    <nd ref="123553482"/>
    <nd ref="122863869"/>
    <nd ref="122897759"/>
    <nd ref="373513290"/>
    <nd ref="373513298"/>
    <nd ref="373513302"/>
    <nd ref="373513307"/>
    <tag k="highway" v="residential"/>
    <tag k="name" v="West Clark Avenue"/>
    <tag k="tiger:cfcc" v="A41"/>
    <tag k="tiger:county" v="Los Angeles, CA"/>
    <tag k="tiger:name_base" v="Clark"/>
    <tag k="tiger:name_direction_prefix" v="W"/>
    <tag k="tiger:name_type" v="Ave"/>
    <tag k="tiger:separated" v="no"/>
    <tag k="tiger:source" v="tiger_import_dch_v0.6_20070809"/>
    <tag k="tiger:tlid" v="141592138:141592206:141592913:141592847:141592849:141592857:141592859:141592861:141592863:141592867:141592901:142047678:142047679:141592903:141592906:141592907:141593102:141593104:141593106:141593116:141592909:141592868:141592869"/>
    <tag k="tiger:zip_left" v="91505"/>
    <tag k="tiger:zip_right" v="91505"/>
  </way>
  <way id="16494060" version="7" timestamp="2010-03-27T22:51:37Z" uid="20587" user="balrog-kun" changeset="4250871">
    <nd ref="123250566"/>
    <nd ref="458111764"/>
    <nd ref="458111768"/>
    <nd ref="458111772"/>
    <nd ref="458111782"/>
    <nd ref="458111789"/>
    <nd ref="458111793"/>
    <nd ref="458111802"/>
    <nd ref="458111811"/>
    <nd ref="458111814"/>
    <nd ref="458111817"/>
    <nd ref="458111819"/>
    <nd ref="458111823"/>
    <nd ref="458111826"/>
    <nd ref="123553463"/>
    <nd ref="458111853"/>
    <nd ref="462000604"/>
    <nd ref="358077129"/>
    <nd ref="123670358"/>
    <nd ref="358071372"/>
    <nd ref="123364550"/>
    <tag k="highway" v="residential"/>
    <tag k="name" v="North Fairview Street"/>
    <tag k="tiger:cfcc" v="A41"/>
    <tag k="tiger:county" v="Los Angeles, CA"/>
    <tag k="tiger:name_base" v="Fairview"/>
    <tag k="tiger:name_direction_prefix" v="N"/>
    <tag k="tiger:name_type" v="St"/>
    <tag k="tiger:separated" v="no"/>
    <tag k="tiger:source" v="tiger_import_dch_v0.6_20070809"/>
    <tag k="tiger:tlid" v="141592873:141592881:141593005:141593175:141593181:141593182:141592912"/>
    <tag k="tiger:zip_left" v="91505"/>
    <tag k="tiger:zip_right" v="91505"/>
  </way>
  <way id="16494142" version="2" timestamp="2011-05-16T20:08:38Z" uid="23543" user="jkjk" changeset="8166131"/>
</osm>
