<?xml version='1.0' encoding='UTF-8'?>
<osm version="0.6" generator="libosmium/2.20.0">
  <way id="16495098" version="2" timestamp="2010-07-07T07:46:23Z" uid="74617" user="JohnSmith" changeset="5156250">
    <nd ref="170261374"/>
    <nd ref="170261905"/>
    <nd ref="170261424"/>
    <nd ref="170261481"/>
    <nd ref="170318657"/>
    <tag k="highway" v="residential"/>
    <tag k="maxspeed" v="50"/>
    <tag k="maxspeed:source" v="default residential speed limit in Australia"/>
    <tag k="name" v="Hay Street"/>
  </way>
  <way id="16495098" version="3" timestamp="2011-04-01T14:55:09Z" uid="4467" user="Rosscoe" changeset="7736102">
    <nd ref="170261374"/>
    <nd ref="170261905"/>
    <nd ref="170261424"/>
    <nd ref="170261481"/>
    <nd ref="170318657"/>
    <tag k="highway" v="residential"/>
    <tag k="maxspeed" v="50"/>
    <tag k="name" v="Hay Street"/>
    <tag k="source:maxspeed" v="default residential speed limit in Australia"/>
  </way>
  <way id="16495100" version="2" timestamp="2010-07-07T07:46:43Z" uid="74617" user="JohnSmith" changeset="5156250">
    <nd ref="158605860"/>
    <nd ref="170318674"/>
    <nd ref="170318698"/>
    <tag k="highway" v="residential"/>
    <tag k="maxspeed" v="50"/>
    <tag k="maxspeed:source" v="default residential speed limit in Australia"/>
    <tag k="name" v="Naman Street"/>
  </way>
  <way id="16495100" version="3" timestamp="2011-04-01T14:53:17Z" uid="4467" user="Rosscoe" changeset="7736102">
    <nd ref="158605860"/>
    <nd ref="170318674"/>
    <nd ref="170318698"/>
    <tag k="highway" v="residential"/>
    <tag k="maxspeed" v="50"/>
    <tag k="name" v="Naman Street"/>
    <tag k="source:maxspeed" v="default residential speed limit in Australia"/>
  </way>
  <way id="16495102" version="2" timestamp="2010-07-07T07:45:54Z" uid="74617" user="JohnSmith" changeset="5156250">
    <nd ref="170318713"/>
    <nd ref="170318729"/>
    <tag k="highway" v="residential"/>
    <tag k="maxspeed" v="50"/>
    <tag k="maxspeed:source" v="default residential speed limit in Australia"/>
    <tag k="name" v="Dawson Street"/>
  </way>
  <way id="16495102" version="3" timestamp="2011-04-01T14:54:40Z" uid="4467" user="Rosscoe" changeset="7736102">
    <nd ref="170318713"/>
    <nd ref="170318729"/>
    <tag k="highway" v="residential"/>
    <tag k="maxspeed" v="50"/>
    <tag k="name" v="Dawson Street"/>
    <tag k="source:maxspeed" v="default residential speed limit in Australia"/>
  </way>
  <way id="16495103" version="2" timestamp="2010-07-07T07:46:33Z" uid="74617" user="JohnSmith" changeset="5156250">
    <nd ref="170318750"/>
    <nd ref="170318774"/>
    <tag k="highway" v="residential"/>
    <tag k="maxspeed" v="50"/>
    <tag k="maxspeed:source" v="default residential speed limit in Australia"/>
    <tag k="name" v="Ronald Street"/>
  </way>
  <way id="16495103" version="3" timestamp="2011-04-01T14:54:09Z" uid="4467" user="Rosscoe" changeset="7736102">
    <nd ref="170318750"/>
    <nd ref="170318774"/>
    <tag k="highway" v="residential"/>
    <tag k="maxspeed" v="50"/>
    <tag k="name" v="Ronald Street"/>
    <tag k="source:maxspeed" v="default residential speed limit in Australia"/>
  </way>
  <way id="16495106" version="3" timestamp="2010-07-07T07:46:55Z" uid="74617" user="JohnSmith" changeset="5156250">
    <nd ref="170318788"/>
    <nd ref="472695186"/>
    <nd ref="170318811"/>
    <tag k="highway" v="residential"/>
    <tag k="maxspeed" v="50"/>
    <tag k="maxspeed:source" v="default residential speed limit in Australia"/>
    <tag k="name" v="Healy Street"/>
    <tag k="surface" v="asphalt"/>
  </way>
  <way id="16495137" version="17" timestamp="2010-12-31T14:01:08Z" uid="4467" user="Rosscoe" changeset="6819942">
    <nd ref="170318795"/>
    <nd ref="683848098"/>
    <nd ref="170318819"/>
    <nd ref="170318840"/>
    <nd ref="1026338308"/>
    <nd ref="170318894"/>
    <nd ref="1026369979"/>
    <nd ref="1026369894"/>
    <nd ref="170318919"/>
    <nd ref="1026369902"/>
    <nd ref="170318952"/>
    <nd ref="1026369953"/>
    <nd ref="170318972"/>
    <nd ref="170318992"/>
    <nd ref="286379207"/>
    <nd ref="170319012"/>
    <nd ref="170319037"/>
    <nd ref="633168483"/>
    <nd ref="170319079"/>
    <nd ref="170319107"/>
    <nd ref="170319118"/>
    <nd ref="286379230"/>
    <nd ref="286379209"/>
    <nd ref="170319134"/>
    <nd ref="286379235"/>
    <nd ref="170319156"/>
    <nd ref="170319176"/>
    <nd ref="170319206"/>
    <nd ref="286379210"/>
    <nd ref="286379239"/>
    <nd ref="1075303325"/>
    <nd ref="170319229"/>
    <tag k="highway" v="secondary"/>
    <tag k="lanes" v="2"/>
    <tag k="maxspeed" v="60"/>
    <tag k="name" v="Frederick Road"/>
    <tag k="oneway" v="yes"/>
    <tag k="source" v="survey"/>
  </way>
</osm>
