<?xml version='1.0' encoding='UTF-8'?>
<osm version="0.6" generator="libosmium/2.20.0">
  <way id="16499341" version="4" timestamp="2008-09-16T10:38:15Z" uid="1066" user="pavel" changeset="646258">
    <nd ref="170359583"/>
    <nd ref="170359585"/>
    <tag k="created_by" v="Potlatch 0.5d"/>
    <tag k="highway" v="residential"/>
    <tag k="name" v="U Kavalírky"/>
    <tag k="name:source" v="nameit/uir-adr"/>
  </way>
  <way id="16499363" version="3" timestamp="2010-07-07T07:46:28Z" uid="74617" user="JohnSmith" changeset="5156250">
    <nd ref="170359718"/>
    <nd ref="170359732"/>
    <tag k="highway" v="residential"/>
    <tag k="maxspeed" v="50"/>
    <tag k="maxspeed:source" v="default residential speed limit in Australia"/>
    <tag k="name" v="Highland Place"/>
  </way>
  <way id="16499470" version="5" timestamp="2008-09-16T10:33:00Z" uid="1066" user="pavel" changeset="646258">
    <nd ref="170359077"/>
    <nd ref="170360687"/>
    <nd ref="170360688"/>
    <nd ref="170360689"/>
    <nd ref="170360691"/>
    <tag k="created_by" v="Potlatch 0.5d"/>
    <tag k="highway" v="residential"/>
    <tag k="name" v="Pod Kavalírkou"/>
    <tag k="name:source" v="nameit/uir-adr"/>
  </way>
  <way id="16499536" version="4" timestamp="2008-09-16T10:38:46Z" uid="1066" user="pavel" changeset="646258">
    <nd ref="170361357"/>
    <nd ref="170360688"/>
    <tag k="highway" v="residential"/>
    <tag k="name" v="Na Zámyšli"/>
    <tag k="name:source" v="nameit/uir-adr"/>
  </way>
  <way id="16499778" version="3" timestamp="2008-09-16T10:40:19Z" uid="1066" user="pavel" changeset="646258">
    <nd ref="25925847"/>
    <nd ref="170363846"/>
    <tag k="created_by" v="Potlatch 0.5d"/>
    <tag k="highway" v="residential"/>
    <tag k="name" v="Kvapilova"/>
    <tag k="name:source" v="nameit/uir-adr"/>
  </way>
  <way id="16499803" version="4" timestamp="2008-09-16T10:39:47Z" uid="1066" user="pavel" changeset="646258">
    <nd ref="170364110"/>
    <nd ref="170364111"/>
    <nd ref="170364112"/>
    <tag k="created_by" v="Potlatch 0.5d"/>
    <tag k="highway" v="residential"/>
    <tag k="name" v="Nad Kuliškou"/>
    <tag k="name:source" v="nameit/uir-adr"/>
  </way>
  <way id="16499957" version="4" timestamp="2008-09-16T10:36:47Z" uid="1066" user="pavel" changeset="646258">
    <nd ref="170365834"/>
    <nd ref="170365835"/>
    <nd ref="170365837"/>
    <nd ref="170365838"/>
    <nd ref="170365839"/>
    <nd ref="170365841"/>
    <nd ref="170365843"/>
    <nd ref="170365844"/>
    <nd ref="170365846"/>
    <nd ref="170365848"/>
    <nd ref="1324069"/>
    <tag k="created_by" v="Potlatch 0.5d"/>
    <tag k="highway" v="residential"/>
    <tag k="name" v="Na Stárce"/>
    <tag k="name:source" v="nameit/uir-adr"/>
  </way>
</osm>
