<?xml version='1.0' encoding='UTF-8'?>
<osm version="0.6" generator="libosmium/2.20.0">
  <way id="16490743" version="2" timestamp="2009-09-09T15:25:28Z" uid="99207" user="Lar Kiesel" changeset="2426581">
    <nd ref="170261393"/>
    <nd ref="170261397"/>
    <nd ref="170261401"/>
    <nd ref="170261404"/>
    <nd ref="170261406"/>
    <nd ref="170261408"/>
    <nd ref="170261410"/>
    <nd ref="170261412"/>
    <nd ref="170261415"/>
    <nd ref="170261418"/>
    <nd ref="170261421"/>
    <nd ref="170261423"/>
    <nd ref="170261426"/>
    <nd ref="170261429"/>
    <nd ref="170261431"/>
    <nd ref="170261434"/>
    <nd ref="170261437"/>
    <nd ref="170261440"/>
    <nd ref="170261443"/>
    <nd ref="170261445"/>
    <nd ref="170261447"/>
    <nd ref="170261449"/>
    <nd ref="170261452"/>
    <nd ref="170261454"/>
    <nd ref="170261459"/>
    <nd ref="170261463"/>
    <nd ref="170261466"/>
    <nd ref="170261469"/>
    <nd ref="170261471"/>
    <nd ref="170261473"/>
    <nd ref="170261475"/>
    <nd ref="170261479"/>
    <nd ref="170261483"/>
    <nd ref="170261486"/>
    <nd ref="170261489"/>
    <nd ref="170261491"/>
    <nd ref="170235714"/>
    <nd ref="170261496"/>
    <nd ref="170261499"/>
    <nd ref="170261500"/>
    <nd ref="170261506"/>
    <nd ref="170261509"/>
    <nd ref="170261511"/>
    <nd ref="170235019"/>
    <tag k="highway" v="residential"/>
    <tag k="name" v="Roslin Farm Rd"/>
    <tag k="name_1" v="State Road 2243"/>
    <tag k="tiger:cfcc" v="A41"/>
    <tag k="tiger:county" v="Cumberland, NC"/>
    <tag k="tiger:name_base" v="Roslin Farm"/>
    <tag k="tiger:name_base_1" v="State Road 2243"/>
    <tag k="tiger:name_type" v="Rd"/>
    <tag k="tiger:reviewed" v="no"/>
    <tag k="tiger:separated" v="no"/>
    <tag k="tiger:source" v="tiger_import_dch_v0.6_20070829"/>
    <tag k="tiger:tlid" v="64250852:64267342:64266634:64252350:64260229:64207887"/>
    <tag k="tiger:upload_uuid" v="bulk_upload.pl-a4d3d0f7-8331-42eb-8903-1ca57a91ea28"/>
  </way>
  <way id="16490838" version="2" timestamp="2010-07-07T07:46:24Z" uid="74617" user="JohnSmith" changeset="5156250">
    <nd ref="170260981"/>
    <nd ref="170261006"/>
    <tag k="highway" v="residential"/>
    <tag k="maxspeed" v="50"/>
    <tag k="maxspeed:source" v="default residential speed limit in Australia"/>
    <tag k="name" v="Anne Street"/>
  </way>
  <way id="16490838" version="3" timestamp="2011-04-01T14:54:26Z" uid="4467" user="Rosscoe" changeset="7736102">
    <nd ref="170260981"/>
    <nd ref="170261006"/>
    <tag k="highway" v="residential"/>
    <tag k="maxspeed" v="50"/>
    <tag k="name" v="Anne Street"/>
    <tag k="source:maxspeed" v="default residential speed limit in Australia"/>
  </way>
  <way id="16490843" version="3" timestamp="2010-07-07T07:46:33Z" uid="74617" user="JohnSmith" changeset="5156250">
    <nd ref="170261029"/>
    <nd ref="170261049"/>
    <nd ref="170261073"/>
    <nd ref="170261102"/>
    <nd ref="170261124"/>
    <nd ref="170261149"/>
    <nd ref="170261176"/>
    <nd ref="170261203"/>
    <nd ref="169485084"/>
    <tag k="highway" v="residential"/>
    <tag k="maxspeed" v="50"/>
    <tag k="maxspeed:source" v="default residential speed limit in Australia"/>
    <tag k="name" v="Keane Avenue"/>
    <tag k="surface" v="asphalt"/>
  </way>
  <way id="16490843" version="4" timestamp="2011-04-01T14:55:20Z" uid="4467" user="Rosscoe" changeset="7736102">
    <nd ref="170261029"/>
    <nd ref="170261049"/>
    <nd ref="170261073"/>
    <nd ref="170261102"/>
    <nd ref="170261124"/>
    <nd ref="170261149"/>
    <nd ref="170261176"/>
    <nd ref="170261203"/>
    <nd ref="169485084"/>
    <tag k="highway" v="residential"/>
    <tag k="maxspeed" v="50"/>
    <tag k="name" v="Keane Avenue"/>
    <tag k="source:maxspeed" v="default residential speed limit in Australia"/>
    <tag k="surface" v="asphalt"/>
  </way>
  <way id="16490846" version="4" timestamp="2010-07-07T07:47:28Z" uid="74617" user="JohnSmith" changeset="5156250">
    <nd ref="330698273"/>
    <nd ref="170261252"/>
    <tag k="highway" v="residential"/>
    <tag k="maxspeed" v="50"/>
    <tag k="maxspeed:source" v="default residential speed limit in Australia"/>
    <tag k="name" v="Gundarra Street"/>
    <tag k="surface" v="asphalt"/>
  </way>
  <way id="16490846" version="5" timestamp="2011-04-01T14:53:19Z" uid="4467" user="Rosscoe" changeset="7736102">
    <nd ref="330698273"/>
    <nd ref="170261252"/>
    <tag k="highway" v="residential"/>
    <tag k="maxspeed" v="50"/>
    <tag k="name" v="Gundarra Street"/>
    <tag k="source:maxspeed" v="default residential speed limit in Australia"/>
    <tag k="surface" v="asphalt"/>
  </way>
  <way id="16490847" version="4" timestamp="2010-07-07T07:46:05Z" uid="74617" user="JohnSmith" changeset="5156250">
    <nd ref="330698273"/>
    <nd ref="170261300"/>
    <tag k="highway" v="residential"/>
    <tag k="maxspeed" v="50"/>
    <tag k="maxspeed:source" v="default residential speed limit in Australia"/>
    <tag k="name" v="Booth Street"/>
    <tag k="source" v="GPS"/>
    <tag k="surface" v="asphalt"/>
  </way>
  <way id="16490847" version="5" timestamp="2011-04-01T14:54:52Z" uid="4467" user="Rosscoe" changeset="7736102">
    <nd ref="330698273"/>
    <nd ref="170261300"/>
    <tag k="highway" v="residential"/>
    <tag k="maxspeed" v="50"/>
    <tag k="name" v="Booth Street"/>
    <tag k="source" v="survey"/>
    <tag k="source:maxspeed" v="default residential speed limit in Australia"/>
    <tag k="surface" v="asphalt"/>
    <tag k="survey" v="GPS"/>
  </way>
  <way id="16490851" version="2" timestamp="2010-07-07T07:46:01Z" uid="74617" user="JohnSmith" changeset="5156250">
    <nd ref="170261424"/>
    <nd ref="170261451"/>
    <tag k="highway" v="residential"/>
    <tag k="maxspeed" v="50"/>
    <tag k="maxspeed:source" v="default residential speed limit in Australia"/>
    <tag k="name" v="Wheelers Street"/>
  </way>
  <way id="16490851" version="3" timestamp="2011-04-01T14:54:28Z" uid="4467" user="Rosscoe" changeset="7736102">
    <nd ref="170261424"/>
    <nd ref="170261451"/>
    <tag k="highway" v="residential"/>
    <tag k="maxspeed" v="50"/>
    <tag k="name" v="Wheelers Street"/>
    <tag k="source:maxspeed" v="default residential speed limit in Australia"/>
  </way>
  <way id="16490855" version="2" timestamp="2010-07-07T07:47:34Z" uid="74617" user="JohnSmith" changeset="5156250">
    <nd ref="170261481"/>
    <nd ref="170261507"/>
    <tag k="highway" v="residential"/>
    <tag k="maxspeed" v="50"/>
    <tag k="maxspeed:source" v="default residential speed limit in Australia"/>
    <tag k="name" v="Stroud Avenue"/>
  </way>
  <way id="16490855" version="3" timestamp="2011-04-01T14:54:02Z" uid="4467" user="Rosscoe" changeset="7736102">
    <nd ref="170261481"/>
    <nd ref="170261507"/>
    <tag k="highway" v="residential"/>
    <tag k="maxspeed" v="50"/>
    <tag k="name" v="Stroud Avenue"/>
    <tag k="source:maxspeed" v="default residential speed limit in Australia"/>
  </way>
  <way id="16490859" version="3" timestamp="2010-07-07T07:47:07Z" uid="74617" user="JohnSmith" changeset="5156250">
    <nd ref="170261524"/>
    <nd ref="472699260"/>
    <nd ref="170261547"/>
    <nd ref="170261576"/>
    <nd ref="472699304"/>
    <nd ref="170261602"/>
    <tag k="highway" v="residential"/>
    <tag k="maxspeed" v="50"/>
    <tag k="maxspeed:source" v="default residential speed limit in Australia"/>
    <tag k="name" v="Langford Drive"/>
    <tag k="surface" v="asphalt"/>
  </way>
  <way id="16490859" version="4" timestamp="2011-04-01T14:53:22Z" uid="4467" user="Rosscoe" changeset="7736102">
    <nd ref="170261524"/>
    <nd ref="472699260"/>
    <nd ref="170261547"/>
    <nd ref="170261576"/>
    <nd ref="472699304"/>
    <nd ref="170261602"/>
    <tag k="highway" v="residential"/>
    <tag k="maxspeed" v="50"/>
    <tag k="name" v="Langford Drive"/>
    <tag k="source:maxspeed" v="default residential speed limit in Australia"/>
    <tag k="surface" v="asphalt"/>
  </way>
  <way id="16490861" version="4" timestamp="2010-07-07T07:47:27Z" uid="74617" user="JohnSmith" changeset="5156250">
    <nd ref="170261627"/>
    <nd ref="170261647"/>
    <nd ref="170261676"/>
    <nd ref="170261699"/>
    <nd ref="170261725"/>
    <nd ref="170261750"/>
    <nd ref="170261783"/>
    <tag k="highway" v="residential"/>
    <tag k="maxspeed" v="50"/>
    <tag k="maxspeed:source" v="default residential speed limit in Australia"/>
    <tag k="name" v="Allandale Drive"/>
    <tag k="surface" v="asphalt"/>
  </way>
  <way id="16490861" version="5" timestamp="2011-04-01T14:53:53Z" uid="4467" user="Rosscoe" changeset="7736102">
    <nd ref="170261627"/>
    <nd ref="170261647"/>
    <nd ref="170261676"/>
    <nd ref="170261699"/>
    <nd ref="170261725"/>
    <nd ref="170261750"/>
    <nd ref="170261783"/>
    <tag k="highway" v="residential"/>
    <tag k="maxspeed" v="50"/>
    <tag k="name" v="Allandale Drive"/>
    <tag k="source:maxspeed" v="default residential speed limit in Australia"/>
    <tag k="surface" v="asphalt"/>
  </way>
  <way id="16490862" version="2" timestamp="2010-07-07T07:46:02Z" uid="74617" user="JohnSmith" changeset="5156250">
    <nd ref="170261805"/>
    <nd ref="170261830"/>
    <nd ref="170261852"/>
    <nd ref="170261882"/>
    <tag k="highway" v="residential"/>
    <tag k="maxspeed" v="50"/>
    <tag k="maxspeed:source" v="default residential speed limit in Australia"/>
    <tag k="name" v="Hewitt Place"/>
  </way>
  <way id="16490862" version="3" timestamp="2011-04-01T14:53:36Z" uid="4467" user="Rosscoe" changeset="7736102">
    <nd ref="170261805"/>
    <nd ref="170261830"/>
    <nd ref="170261852"/>
    <nd ref="170261882"/>
    <tag k="highway" v="residential"/>
    <tag k="maxspeed" v="50"/>
    <tag k="name" v="Hewitt Place"/>
    <tag k="source:maxspeed" v="default residential speed limit in Australia"/>
  </way>
  <way id="16490865" version="2" timestamp="2010-07-07T07:46:38Z" uid="74617" user="JohnSmith" changeset="5156250">
    <nd ref="170261905"/>
    <nd ref="170261926"/>
    <tag k="highway" v="residential"/>
    <tag k="maxspeed" v="50"/>
    <tag k="maxspeed:source" v="default residential speed limit in Australia"/>
  </way>
  <way id="16490865" version="3" timestamp="2011-04-01T14:55:23Z" uid="4467" user="Rosscoe" changeset="7736102">
    <nd ref="170261905"/>
    <nd ref="170261926"/>
    <tag k="highway" v="residential"/>
    <tag k="maxspeed" v="50"/>
    <tag k="source:maxspeed" v="default residential speed limit in Australia"/>
  </way>
  <way id="16490868" version="4" timestamp="2010-07-07T07:47:32Z" uid="74617" user="JohnSmith" changeset="5156250">
    <nd ref="170261948"/>
    <nd ref="170367799"/>
    <nd ref="170367740"/>
    <nd ref="170367777"/>
    <nd ref="170261966"/>
    <tag k="highway" v="residential"/>
    <tag k="maxspeed" v="50"/>
    <tag k="maxspeed:source" v="default residential speed limit in Australia"/>
    <tag k="name" v="Thorby Avenue"/>
  </way>
  <way id="16490872" version="2" timestamp="2010-07-07T07:47:04Z" uid="74617" user="JohnSmith" changeset="5156250">
    <nd ref="170261995"/>
    <nd ref="170262018"/>
    <tag k="highway" v="residential"/>
    <tag k="maxspeed" v="50"/>
    <tag k="maxspeed:source" v="default residential speed limit in Australia"/>
    <tag k="name" v="Tink Avenue"/>
  </way>
  <way id="16490872" version="3" timestamp="2011-04-01T14:55:07Z" uid="4467" user="Rosscoe" changeset="7736102">
    <nd ref="170261995"/>
    <nd ref="170262018"/>
    <nd ref="472699277"/>
    <tag k="highway" v="residential"/>
    <tag k="maxspeed" v="50"/>
    <tag k="name" v="Tink Avenue"/>
    <tag k="source:maxspeed" v="default residential speed limit in Australia"/>
  </way>
  <way id="16490878" version="5" timestamp="2010-07-07T07:45:50Z" uid="74617" user="JohnSmith" changeset="5156250">
    <nd ref="170262437"/>
    <nd ref="170400648"/>
    <nd ref="170400605"/>
    <nd ref="170400620"/>
    <nd ref="170400502"/>
    <nd ref="318713461"/>
    <tag k="highway" v="residential"/>
    <tag k="maxspeed" v="50"/>
    <tag k="maxspeed:source" v="default residential speed limit in Australia"/>
    <tag k="name" v="Brisbane Street"/>
  </way>
  <way id="16490878" version="6" timestamp="2011-04-01T11:47:06Z" uid="4467" user="Rosscoe" changeset="7734832">
    <nd ref="170262437"/>
    <nd ref="1227849307"/>
    <tag k="highway" v="residential"/>
    <tag k="maxspeed" v="50"/>
    <tag k="maxspeed:source" v="default residential speed limit in Australia"/>
    <tag k="name" v="Brisbane Street"/>
    <tag k="oneway" v="yes"/>
  </way>
  <way id="16490878" version="7" timestamp="2011-04-01T13:42:28Z" uid="4467" user="Rosscoe" changeset="7735639">
    <nd ref="170262437"/>
    <nd ref="1227849307"/>
    <tag k="highway" v="residential"/>
    <tag k="maxspeed" v="50"/>
    <tag k="name" v="Brisbane Street"/>
    <tag k="oneway" v="yes"/>
    <tag k="source:maxspeed" v="default residential speed limit in Australia"/>
  </way>
  <way id="16490881" version="2" timestamp="2010-07-07T07:47:37Z" uid="74617" user="JohnSmith" changeset="5156250">
    <nd ref="170262493"/>
    <nd ref="170262522"/>
    <nd ref="148143982"/>
    <nd ref="170262551"/>
    <nd ref="170262580"/>
    <tag k="highway" v="residential"/>
    <tag k="maxspeed" v="50"/>
    <tag k="maxspeed:source" v="default residential speed limit in Australia"/>
    <tag k="name" v="Brisbane Street"/>
  </way>
  <way id="16490881" version="4" timestamp="2011-04-01T13:42:04Z" uid="4467" user="Rosscoe" changeset="7735639">
    <nd ref="170262493"/>
    <nd ref="170262522"/>
    <nd ref="884076010"/>
    <tag k="highway" v="residential"/>
    <tag k="maxspeed" v="50"/>
    <tag k="name" v="Brisbane Street"/>
    <tag k="source:maxspeed" v="default residential speed limit in Australia"/>
    <tag k="surface" v="asphalt"/>
  </way>
  <way id="16490884" version="3" timestamp="2010-07-07T07:46:36Z" uid="74617" user="JohnSmith" changeset="5156250">
    <nd ref="170262608"/>
    <nd ref="318715299"/>
    <nd ref="318715295"/>
    <nd ref="170262633"/>
    <tag k="highway" v="residential"/>
    <tag k="maxspeed" v="50"/>
    <tag k="maxspeed:source" v="default residential speed limit in Australia"/>
    <tag k="name" v="Carrington Avenue"/>
  </way>
  <way id="16490884" version="5" timestamp="2011-04-01T11:46:37Z" uid="4467" user="Rosscoe" changeset="7734832">
    <nd ref="170262608"/>
    <nd ref="884075760"/>
    <nd ref="884076197"/>
    <nd ref="318715299"/>
    <nd ref="318715295"/>
    <nd ref="170262633"/>
    <nd ref="1227849688"/>
    <tag k="highway" v="residential"/>
    <tag k="maxspeed" v="50"/>
    <tag k="maxspeed:source" v="default residential speed limit in Australia"/>
    <tag k="name" v="Carrington Avenue"/>
    <tag k="surface" v="asphalt"/>
  </way>
  <way id="16490884" version="6" timestamp="2011-04-01T13:42:13Z" uid="4467" user="Rosscoe" changeset="7735639">
    <nd ref="170262608"/>
    <nd ref="884075760"/>
    <nd ref="884076197"/>
    <nd ref="318715299"/>
    <nd ref="318715295"/>
    <nd ref="170262633"/>
    <nd ref="1227849688"/>
    <tag k="highway" v="residential"/>
    <tag k="maxspeed" v="50"/>
    <tag k="name" v="Carrington Avenue"/>
    <tag k="source:maxspeed" v="default residential speed limit in Australia"/>
    <tag k="surface" v="asphalt"/>
  </way>
  <way id="16490887" version="3" timestamp="2010-07-07T07:46:25Z" uid="74617" user="JohnSmith" changeset="5156250">
    <nd ref="170262652"/>
    <nd ref="318713457"/>
    <nd ref="170262680"/>
    <tag k="highway" v="residential"/>
    <tag k="maxspeed" v="50"/>
    <tag k="maxspeed:source" v="default residential speed limit in Australia"/>
    <tag k="name" v="Bourke Street"/>
  </way>
  <way id="16490887" version="5" timestamp="2011-04-01T13:42:49Z" uid="4467" user="Rosscoe" changeset="7735639">
    <nd ref="170262652"/>
    <nd ref="884077737"/>
    <nd ref="884077748"/>
    <nd ref="318713457"/>
    <nd ref="884077894"/>
    <nd ref="170262680"/>
    <tag k="highway" v="residential"/>
    <tag k="maxspeed" v="50"/>
    <tag k="name" v="Bourke Street"/>
    <tag k="source:maxspeed" v="default residential speed limit in Australia"/>
    <tag k="surface" v="asphalt"/>
  </way>
  <way id="16490890" version="2" timestamp="2008-04-26T23:11:29Z" uid="18775" user="drlizau" changeset="270125">
    <nd ref="170262736"/>
    <nd ref="170262757"/>
    <nd ref="170262784"/>
    <tag k="created_by" v="JOSM"/>
    <tag k="highway" v="residential"/>
    <tag k="name" v="Smith Street"/>
  </way>
  <way id="16490890" version="3" timestamp="2010-07-07T07:47:21Z" uid="74617" user="JohnSmith" changeset="5156250">
    <nd ref="170262736"/>
    <nd ref="170262757"/>
    <nd ref="170262784"/>
    <tag k="highway" v="residential"/>
    <tag k="maxspeed" v="50"/>
    <tag k="maxspeed:source" v="default residential speed limit in Australia"/>
    <tag k="name" v="Smith Street"/>
  </way>
  <way id="16490890" version="4" timestamp="2011-04-01T11:47:44Z" uid="4467" user="Rosscoe" changeset="7734832">
    <nd ref="170262736"/>
    <nd ref="1227849198"/>
    <nd ref="170262757"/>
    <nd ref="170262784"/>
    <tag k="highway" v="residential"/>
    <tag k="maxspeed" v="50"/>
    <tag k="maxspeed:source" v="default residential speed limit in Australia"/>
    <tag k="name" v="Smith Street"/>
  </way>
  <way id="16490890" version="5" timestamp="2011-04-01T13:42:57Z" uid="4467" user="Rosscoe" changeset="7735639">
    <nd ref="170262736"/>
    <nd ref="1227849198"/>
    <nd ref="170262757"/>
    <nd ref="170262784"/>
    <tag k="highway" v="residential"/>
    <tag k="maxspeed" v="50"/>
    <tag k="name" v="Smith Street"/>
    <tag k="source:maxspeed" v="default residential speed limit in Australia"/>
  </way>
  <way id="16490892" version="3" timestamp="2010-07-07T07:47:39Z" uid="74617" user="JohnSmith" changeset="5156250">
    <nd ref="170262802"/>
    <nd ref="170400800"/>
    <nd ref="170262826"/>
    <tag k="highway" v="residential"/>
    <tag k="maxspeed" v="50"/>
    <tag k="maxspeed:source" v="default residential speed limit in Australia"/>
    <tag k="name" v="Bourke Street"/>
  </way>
  <way id="16490892" version="4" timestamp="2011-04-01T11:46:44Z" uid="4467" user="Rosscoe" changeset="7734832">
    <nd ref="170262802"/>
    <nd ref="1227849590"/>
    <nd ref="170400800"/>
    <nd ref="170262826"/>
    <tag k="highway" v="residential"/>
    <tag k="maxspeed" v="50"/>
    <tag k="maxspeed:source" v="default residential speed limit in Australia"/>
    <tag k="name" v="Bourke Street"/>
  </way>
  <way id="16490892" version="5" timestamp="2011-04-01T13:42:18Z" uid="4467" user="Rosscoe" changeset="7735639">
    <nd ref="170262802"/>
    <nd ref="1227849590"/>
    <nd ref="170400800"/>
    <nd ref="170262826"/>
    <tag k="highway" v="residential"/>
    <tag k="maxspeed" v="50"/>
    <tag k="name" v="Bourke Street"/>
    <tag k="source:maxspeed" v="default residential speed limit in Australia"/>
  </way>
  <way id="16490895" version="2" timestamp="2010-07-07T07:47:30Z" uid="74617" user="JohnSmith" changeset="5156250">
    <nd ref="170262853"/>
    <nd ref="170262881"/>
    <tag k="highway" v="residential"/>
    <tag k="maxspeed" v="50"/>
    <tag k="maxspeed:source" v="default residential speed limit in Australia"/>
    <tag k="name" v="James Street"/>
  </way>
  <way id="16490897" version="2" timestamp="2010-07-07T07:47:26Z" uid="74617" user="JohnSmith" changeset="5156250">
    <nd ref="170262912"/>
    <nd ref="170262941"/>
    <tag k="highway" v="residential"/>
    <tag k="maxspeed" v="50"/>
    <tag k="maxspeed:source" v="default residential speed limit in Australia"/>
    <tag k="name" v="Mary Street"/>
  </way>
  <way id="16490901" version="2" timestamp="2010-07-07T07:46:59Z" uid="74617" user="JohnSmith" changeset="5156250">
    <nd ref="170262968"/>
    <nd ref="170262994"/>
    <nd ref="170263021"/>
    <nd ref="170263032"/>
    <tag k="highway" v="residential"/>
    <tag k="maxspeed" v="50"/>
    <tag k="maxspeed:source" v="default residential speed limit in Australia"/>
    <tag k="name" v="Hunter Street"/>
  </way>
  <way id="16490901" version="3" timestamp="2011-04-01T13:42:46Z" uid="4467" user="Rosscoe" changeset="7735639">
    <nd ref="170262968"/>
    <nd ref="170262994"/>
    <nd ref="170263021"/>
    <nd ref="170263032"/>
    <tag k="highway" v="residential"/>
    <tag k="maxspeed" v="50"/>
    <tag k="name" v="Hunter Street"/>
    <tag k="source:maxspeed" v="default residential speed limit in Australia"/>
  </way>
  <way id="16490907" version="4" timestamp="2010-07-07T07:47:44Z" uid="74617" user="JohnSmith" changeset="5156250">
    <nd ref="170263145"/>
    <nd ref="170401163"/>
    <nd ref="170263194"/>
    <nd ref="170263170"/>
    <tag k="highway" v="residential"/>
    <tag k="maxspeed" v="50"/>
    <tag k="maxspeed:source" v="default residential speed limit in Australia"/>
    <tag k="name" v="Hopetown Street"/>
  </way>
  <way id="16490907" version="5" timestamp="2011-04-01T11:47:11Z" uid="4467" user="Rosscoe" changeset="7734832">
    <nd ref="170263145"/>
    <nd ref="170401163"/>
    <nd ref="170263194"/>
    <nd ref="170263170"/>
    <nd ref="1227849187"/>
    <tag k="highway" v="residential"/>
    <tag k="maxspeed" v="50"/>
    <tag k="maxspeed:source" v="default residential speed limit in Australia"/>
    <tag k="name" v="Hopetown Street"/>
  </way>
  <way id="16490907" version="6" timestamp="2011-04-01T13:42:31Z" uid="4467" user="Rosscoe" changeset="7735639">
    <nd ref="170263145"/>
    <nd ref="170401163"/>
    <nd ref="170263194"/>
    <nd ref="170263170"/>
    <nd ref="1227849187"/>
    <tag k="highway" v="residential"/>
    <tag k="maxspeed" v="50"/>
    <tag k="name" v="Hopetown Street"/>
    <tag k="source:maxspeed" v="default residential speed limit in Australia"/>
  </way>
  <way id="16490909" version="4" timestamp="2010-07-07T07:46:04Z" uid="74617" user="JohnSmith" changeset="5156250">
    <nd ref="170263219"/>
    <nd ref="170401179"/>
    <nd ref="170277334"/>
    <nd ref="170263245"/>
    <tag k="highway" v="residential"/>
    <tag k="maxspeed" v="50"/>
    <tag k="maxspeed:source" v="default residential speed limit in Australia"/>
    <tag k="name" v="Rawson Street"/>
  </way>
  <way id="16490909" version="5" timestamp="2011-04-01T11:47:35Z" uid="4467" user="Rosscoe" changeset="7734832">
    <nd ref="170263219"/>
    <nd ref="170401179"/>
    <nd ref="170277334"/>
    <nd ref="1227849157"/>
    <tag k="highway" v="residential"/>
    <tag k="maxspeed" v="50"/>
    <tag k="maxspeed:source" v="default residential speed limit in Australia"/>
    <tag k="name" v="Rawson Street"/>
  </way>
  <way id="16490909" version="6" timestamp="2011-04-01T13:42:51Z" uid="4467" user="Rosscoe" changeset="7735639">
    <nd ref="170263219"/>
    <nd ref="170401179"/>
    <nd ref="170277334"/>
    <nd ref="1227849157"/>
    <tag k="highway" v="residential"/>
    <tag k="maxspeed" v="50"/>
    <tag k="name" v="Rawson Street"/>
    <tag k="source:maxspeed" v="default residential speed limit in Australia"/>
  </way>
  <way id="16490915" version="3" timestamp="2010-07-07T07:47:16Z" uid="74617" user="JohnSmith" changeset="5156250">
    <nd ref="170263271"/>
    <nd ref="170401189"/>
    <nd ref="150934984"/>
    <nd ref="170263297"/>
    <tag k="highway" v="residential"/>
    <tag k="maxspeed" v="50"/>
    <tag k="maxspeed:source" v="default residential speed limit in Australia"/>
    <tag k="name" v="Hampden Street"/>
  </way>
  <way id="16490915" version="4" timestamp="2011-04-01T13:42:37Z" uid="4467" user="Rosscoe" changeset="7735639">
    <nd ref="170263271"/>
    <nd ref="170401189"/>
    <nd ref="150934984"/>
    <nd ref="170263297"/>
    <tag k="highway" v="residential"/>
    <tag k="maxspeed" v="50"/>
    <tag k="name" v="Hampden Street"/>
    <tag k="source:maxspeed" v="default residential speed limit in Australia"/>
  </way>
</osm>
