<?xml version='1.0' encoding='UTF-8'?>
<osm version="0.6" generator="libosmium/2.20.0">
  <way id="16491795" version="2" timestamp="2010-07-07T07:46:51Z" uid="74617" user="JohnSmith" changeset="5156250">
    <nd ref="170277362"/>
    <nd ref="170277386"/>
    <tag k="highway" v="residential"/>
    <tag k="maxspeed" v="50"/>
    <tag k="maxspeed:source" v="default residential speed limit in Australia"/>
    <tag k="name" v="Siren Street"/>
  </way>
  <way id="16491795" version="3" timestamp="2011-04-02T09:14:57Z" uid="4467" user="Rosscoe" changeset="7742172">
    <nd ref="170277362"/>
    <nd ref="170277386"/>
    <tag k="highway" v="residential"/>
    <tag k="maxspeed" v="50"/>
    <tag k="name" v="Siren Street"/>
    <tag k="source:maxspeed" v="default residential speed limit in Australia"/>
  </way>
  <way id="16491796" version="4" timestamp="2010-07-07T07:46:33Z" uid="74617" user="JohnSmith" changeset="5156250">
    <nd ref="170277411"/>
    <nd ref="170401668"/>
    <nd ref="170277438"/>
    <nd ref="475579341"/>
    <nd ref="170401215"/>
    <nd ref="170277464"/>
    <tag k="highway" v="residential"/>
    <tag k="maxspeed" v="50"/>
    <tag k="maxspeed:source" v="default residential speed limit in Australia"/>
    <tag k="name" v="Gibbs Street"/>
  </way>
  <way id="16491796" version="5" timestamp="2011-04-01T13:42:32Z" uid="4467" user="Rosscoe" changeset="7735639">
    <nd ref="170277411"/>
    <nd ref="170401668"/>
    <nd ref="170277438"/>
    <nd ref="475579341"/>
    <nd ref="170401215"/>
    <nd ref="170277464"/>
    <tag k="highway" v="residential"/>
    <tag k="maxspeed" v="50"/>
    <tag k="name" v="Gibbs Street"/>
    <tag k="source:maxspeed" v="default residential speed limit in Australia"/>
  </way>
  <way id="16491797" version="4" timestamp="2010-07-07T07:47:08Z" uid="74617" user="JohnSmith" changeset="5156250">
    <nd ref="170277480"/>
    <nd ref="170401859"/>
    <nd ref="475579315"/>
    <nd ref="475579312"/>
    <nd ref="170277496"/>
    <tag k="highway" v="residential"/>
    <tag k="maxspeed" v="50"/>
    <tag k="maxspeed:source" v="default residential speed limit in Australia"/>
    <tag k="name" v="Morgan Street"/>
    <tag k="surface" v="asphalt"/>
  </way>
  <way id="16491797" version="5" timestamp="2011-04-01T13:42:55Z" uid="4467" user="Rosscoe" changeset="7735639">
    <nd ref="170277480"/>
    <nd ref="170401859"/>
    <nd ref="475579315"/>
    <nd ref="475579312"/>
    <nd ref="170277496"/>
    <tag k="highway" v="residential"/>
    <tag k="maxspeed" v="50"/>
    <tag k="name" v="Morgan Street"/>
    <tag k="source:maxspeed" v="default residential speed limit in Australia"/>
    <tag k="surface" v="asphalt"/>
  </way>
  <way id="16491799" version="2" timestamp="2010-07-07T07:46:23Z" uid="74617" user="JohnSmith" changeset="5156250">
    <nd ref="170277518"/>
    <nd ref="170277547"/>
    <tag k="highway" v="residential"/>
    <tag k="maxspeed" v="50"/>
    <tag k="maxspeed:source" v="default residential speed limit in Australia"/>
    <tag k="name" v="Leonard Street"/>
  </way>
  <way id="16491799" version="4" timestamp="2011-04-01T13:42:11Z" uid="4467" user="Rosscoe" changeset="7735639">
    <nd ref="170277518"/>
    <nd ref="898626864"/>
    <nd ref="898626875"/>
    <nd ref="170277547"/>
    <tag k="highway" v="residential"/>
    <tag k="maxspeed" v="50"/>
    <tag k="name" v="Leonard Street"/>
    <tag k="source:maxspeed" v="default residential speed limit in Australia"/>
  </way>
  <way id="16491803" version="2" timestamp="2010-07-07T07:45:55Z" uid="74617" user="JohnSmith" changeset="5156250">
    <nd ref="170277576"/>
    <nd ref="170277603"/>
    <tag k="highway" v="residential"/>
    <tag k="maxspeed" v="50"/>
    <tag k="maxspeed:source" v="default residential speed limit in Australia"/>
    <tag k="name" v="Caroline Street"/>
  </way>
  <way id="16491803" version="4" timestamp="2011-04-01T13:42:42Z" uid="4467" user="Rosscoe" changeset="7735639">
    <nd ref="170277576"/>
    <nd ref="898626862"/>
    <nd ref="898626874"/>
    <nd ref="170277603"/>
    <tag k="highway" v="residential"/>
    <tag k="maxspeed" v="50"/>
    <tag k="name" v="Caroline Street"/>
    <tag k="source:maxspeed" v="default residential speed limit in Australia"/>
  </way>
</osm>
