<?xml version='1.0' encoding='UTF-8'?>
<osm version="0.6" generator="libosmium/2.20.0">
  <way id="16500042" version="2" timestamp="2008-09-16T10:37:21Z" uid="1066" user="pavel" changeset="646258">
    <nd ref="170366745"/>
    <nd ref="170366746"/>
    <tag k="created_by" v="Potlatch 0.5d"/>
    <tag k="highway" v="residential"/>
    <tag k="name" v="Destinové"/>
    <tag k="name:source" v="nameit/uir-adr"/>
  </way>
  <way id="16500155" version="2" timestamp="2010-07-07T07:46:30Z" uid="74617" user="JohnSmith" changeset="5156250">
    <nd ref="170367761"/>
    <nd ref="170367777"/>
    <tag k="highway" v="residential"/>
    <tag k="maxspeed" v="50"/>
    <tag k="maxspeed:source" v="default residential speed limit in Australia"/>
    <tag k="name" v="Squadron Close"/>
  </way>
  <way id="16500157" version="2" timestamp="2010-07-07T07:46:50Z" uid="74617" user="JohnSmith" changeset="5156250">
    <nd ref="170367829"/>
    <nd ref="170367799"/>
    <tag k="highway" v="residential"/>
    <tag k="maxspeed" v="50"/>
    <tag k="maxspeed:source" v="default residential speed limit in Australia"/>
    <tag k="name" v="Dulhunty Avenue"/>
  </way>
  <way id="16500158" version="2" timestamp="2010-07-07T07:47:25Z" uid="74617" user="JohnSmith" changeset="5156250">
    <nd ref="170367839"/>
    <nd ref="170367859"/>
    <nd ref="170367871"/>
    <tag k="highway" v="residential"/>
    <tag k="maxspeed" v="50"/>
    <tag k="maxspeed:source" v="default residential speed limit in Australia"/>
    <tag k="name" v="Wirraway Close"/>
  </way>
  <way id="16500281" version="5" timestamp="2008-09-16T10:39:45Z" uid="1066" user="pavel" changeset="646258">
    <nd ref="170369960"/>
    <nd ref="170369962"/>
    <nd ref="170370957"/>
    <nd ref="170369963"/>
    <nd ref="170369965"/>
    <nd ref="170369966"/>
    <nd ref="170369967"/>
    <nd ref="170369969"/>
    <nd ref="170369970"/>
    <nd ref="170369972"/>
    <tag k="created_by" v="Potlatch 0.5d"/>
    <tag k="highway" v="residential"/>
    <tag k="name" v="Na Stárce"/>
    <tag k="name:source" v="nameit/uir-adr"/>
  </way>
  <way id="16500370" version="2" timestamp="2008-09-16T10:39:59Z" uid="1066" user="pavel" changeset="646258">
    <nd ref="170370950"/>
    <nd ref="170370952"/>
    <nd ref="170370954"/>
    <nd ref="170370955"/>
    <nd ref="170370956"/>
    <nd ref="170370957"/>
    <tag k="created_by" v="Potlatch 0.5d"/>
    <tag k="highway" v="residential"/>
    <tag k="name" v="Nad Turbovou"/>
    <tag k="name:source" v="nameit/uir-adr"/>
  </way>
  <way id="16500582" version="2" timestamp="2008-09-16T10:35:53Z" uid="1066" user="pavel" changeset="646258">
    <nd ref="170373045"/>
    <nd ref="170373047"/>
    <nd ref="170373048"/>
    <nd ref="170373049"/>
    <nd ref="170373050"/>
    <nd ref="1324069"/>
    <tag k="created_by" v="Potlatch 0.5d"/>
    <tag k="highway" v="residential"/>
    <tag k="name" v="Na Šmukýřce"/>
    <tag k="name:source" v="nameit/uir-adr"/>
  </way>
  <way id="16500595" version="3" timestamp="2010-03-27T22:51:37Z" uid="20587" user="balrog-kun" changeset="4250871">
    <nd ref="122618694"/>
    <nd ref="122618696"/>
    <nd ref="122618698"/>
    <nd ref="458167135"/>
    <tag k="created_by" v="JOSM"/>
    <tag k="highway" v="residential"/>
    <tag k="name" v="Warner Boulevard"/>
    <tag k="tiger:cfcc" v="A41"/>
    <tag k="tiger:county" v="Los Angeles, CA"/>
    <tag k="tiger:name_base" v="Warner"/>
    <tag k="tiger:name_type" v="Blvd"/>
    <tag k="tiger:reviewed" v="no"/>
    <tag k="tiger:separated" v="no"/>
    <tag k="tiger:source" v="tiger_import_dch_v0.6_20070809"/>
    <tag k="tiger:tlid" v="141594077:141594079:141594091:141594093:141593065:141593212:141593213:141593218:141593076:142046788"/>
    <tag k="tiger:zip_left" v="91505"/>
    <tag k="tiger:zip_right" v="91505"/>
  </way>
  <way id="16500597" version="2" timestamp="2010-03-27T22:51:38Z" uid="20587" user="balrog-kun" changeset="4250871">
    <nd ref="122940780"/>
    <nd ref="122940782"/>
    <tag k="bridge" v="yes"/>
    <tag k="created_by" v="JOSM"/>
    <tag k="highway" v="residential"/>
    <tag k="layer" v="2"/>
    <tag k="name" v="North Pass Avenue"/>
    <tag k="tiger:cfcc" v="A41"/>
    <tag k="tiger:county" v="Los Angeles, CA"/>
    <tag k="tiger:name_base" v="Pass"/>
    <tag k="tiger:name_direction_prefix" v="N"/>
    <tag k="tiger:name_type" v="Ave"/>
    <tag k="tiger:separated" v="no"/>
    <tag k="tiger:source" v="tiger_import_dch_v0.6_20070809"/>
    <tag k="tiger:tlid" v="141592069:141592071:141592956"/>
  </way>
  <way id="16500601" version="9" timestamp="2010-03-27T22:51:38Z" uid="20587" user="balrog-kun" changeset="4250871">
    <nd ref="122940782"/>
    <nd ref="494415127"/>
    <nd ref="122940786"/>
    <nd ref="494415294"/>
    <nd ref="122900995"/>
    <nd ref="122940790"/>
    <nd ref="494444527"/>
    <nd ref="122940793"/>
    <nd ref="495674258"/>
    <nd ref="408505359"/>
    <nd ref="408505360"/>
    <nd ref="122940796"/>
    <nd ref="358076069"/>
    <nd ref="122940798"/>
    <nd ref="358071904"/>
    <nd ref="122940800"/>
    <nd ref="28112677"/>
    <nd ref="316621778"/>
    <nd ref="28112678"/>
    <tag k="highway" v="residential"/>
    <tag k="name" v="North Pass Avenue"/>
    <tag k="tiger:cfcc" v="A41"/>
    <tag k="tiger:county" v="Los Angeles, CA"/>
    <tag k="tiger:name_base" v="Pass"/>
    <tag k="tiger:name_direction_prefix" v="N"/>
    <tag k="tiger:name_type" v="Ave"/>
    <tag k="tiger:separated" v="no"/>
    <tag k="tiger:source" v="tiger_import_dch_v0.6_20070809"/>
    <tag k="tiger:tlid" v="141592069:141592071:141592956"/>
  </way>
  <way id="16500609" version="3" timestamp="2008-09-16T10:37:16Z" uid="1066" user="pavel" changeset="646258">
    <nd ref="170373524"/>
    <nd ref="170373525"/>
    <nd ref="170373526"/>
    <nd ref="170373528"/>
    <tag k="created_by" v="Potlatch 0.5d"/>
    <tag k="highway" v="residential"/>
    <tag k="name" v="U Vojanky"/>
    <tag k="name:source" v="nameit/uir-adr"/>
  </way>
  <way id="16500968" version="6" timestamp="2008-09-16T10:39:30Z" uid="1066" user="pavel" changeset="646258">
    <nd ref="170359078"/>
    <nd ref="243491443"/>
    <nd ref="170385133"/>
    <nd ref="170377773"/>
    <nd ref="170377774"/>
    <nd ref="170377775"/>
    <nd ref="170377776"/>
    <nd ref="170377777"/>
    <nd ref="170377778"/>
    <tag k="created_by" v="Potlatch 0.5d"/>
    <tag k="highway" v="residential"/>
    <tag k="name" v="Nad Zámečnicí"/>
    <tag k="name:source" v="nameit/uir-adr"/>
  </way>
</osm>
