<?xml version='1.0' encoding='UTF-8'?>
<osm version="0.6" generator="libosmium/2.20.0">
  <way id="16561086" version="6" timestamp="2010-07-06T09:47:46Z" uid="74617" user="JohnSmith" changeset="5147679">
    <nd ref="170917960"/>
    <nd ref="170917961"/>
    <nd ref="170917962"/>
    <nd ref="170917966"/>
    <nd ref="170917968"/>
    <nd ref="428992537"/>
    <nd ref="170916892"/>
    <nd ref="170906738"/>
    <tag k="highway" v="residential"/>
    <tag k="maxspeed" v="50"/>
    <tag k="maxspeed:source" v="default residential speed limit in Australia"/>
    <tag k="name" v="Harrison Street"/>
    <tag k="source" v="GPS"/>
    <tag k="surface" v="asphalt"/>
  </way>
  <way id="16561096" version="6" timestamp="2010-07-06T09:51:32Z" uid="74617" user="JohnSmith" changeset="5147679">
    <nd ref="170918153"/>
    <nd ref="170918155"/>
    <nd ref="170918156"/>
    <nd ref="170918157"/>
    <nd ref="170917960"/>
    <nd ref="170918159"/>
    <nd ref="170918161"/>
    <nd ref="170910779"/>
    <tag k="highway" v="residential"/>
    <tag k="maxspeed" v="50"/>
    <tag k="maxspeed:source" v="default residential speed limit in Australia"/>
    <tag k="name" v="Henderson Street"/>
    <tag k="source" v="GPS"/>
    <tag k="surface" v="asphalt"/>
  </way>
  <way id="16561140" version="7" timestamp="2010-07-06T09:50:12Z" uid="74617" user="JohnSmith" changeset="5147679">
    <nd ref="170889298"/>
    <nd ref="170894872"/>
    <nd ref="170918153"/>
    <nd ref="779012143"/>
    <nd ref="170918656"/>
    <nd ref="170906731"/>
    <tag k="highway" v="residential"/>
    <tag k="maxspeed" v="50"/>
    <tag k="maxspeed:source" v="default residential speed limit in Australia"/>
    <tag k="name" v="Bulimba Street"/>
    <tag k="source" v="GPS"/>
    <tag k="surface" v="asphalt"/>
  </way>
  <way id="16561263" version="6" timestamp="2010-07-06T09:52:01Z" uid="74617" user="JohnSmith" changeset="5147679">
    <nd ref="170911810"/>
    <nd ref="170921013"/>
    <tag k="highway" v="residential"/>
    <tag k="maxspeed" v="50"/>
    <tag k="maxspeed:source" v="default residential speed limit in Australia"/>
    <tag k="name" v="Hood Street"/>
    <tag k="source" v="GPS"/>
    <tag k="surface" v="asphalt"/>
  </way>
  <way id="16561322" version="6" timestamp="2010-07-06T09:48:31Z" uid="74617" user="JohnSmith" changeset="5147679">
    <nd ref="170889282"/>
    <nd ref="779007215"/>
    <nd ref="170922362"/>
    <nd ref="170911473"/>
    <tag k="highway" v="residential"/>
    <tag k="maxspeed" v="50"/>
    <tag k="maxspeed:source" v="default residential speed limit in Australia"/>
    <tag k="name" v="Riddell Street"/>
    <tag k="source" v="GPS"/>
    <tag k="surface" v="asphalt"/>
  </way>
  <way id="16561343" version="6" timestamp="2010-07-06T09:51:44Z" uid="74617" user="JohnSmith" changeset="5147679">
    <nd ref="103560922"/>
    <nd ref="170922684"/>
    <nd ref="170922685"/>
    <nd ref="170922686"/>
    <nd ref="170922687"/>
    <tag k="highway" v="residential"/>
    <tag k="maxspeed" v="50"/>
    <tag k="maxspeed:source" v="default residential speed limit in Australia"/>
    <tag k="name" v="Baldwin Street"/>
    <tag k="source" v="GPS"/>
    <tag k="surface" v="asphalt"/>
  </way>
  <way id="16561352" version="6" timestamp="2010-07-06T09:51:44Z" uid="74617" user="JohnSmith" changeset="5147679">
    <nd ref="170873448"/>
    <nd ref="315043818"/>
    <tag k="highway" v="residential"/>
    <tag k="maxspeed" v="50"/>
    <tag k="maxspeed:source" v="default residential speed limit in Australia"/>
    <tag k="name" v="Eton Street"/>
  </way>
  <way id="16561393" version="6" timestamp="2010-07-06T09:49:28Z" uid="74617" user="JohnSmith" changeset="5147679">
    <nd ref="170870933"/>
    <nd ref="170923477"/>
    <nd ref="170923479"/>
    <nd ref="170923481"/>
    <nd ref="170871937"/>
    <tag k="highway" v="residential"/>
    <tag k="maxspeed" v="50"/>
    <tag k="maxspeed:source" v="default residential speed limit in Australia"/>
    <tag k="name" v="Walter Street"/>
  </way>
  <way id="16561528" version="4" timestamp="2010-07-06T09:48:19Z" uid="74617" user="JohnSmith" changeset="5147679">
    <nd ref="170873446"/>
    <nd ref="170924404"/>
    <nd ref="170873868"/>
    <tag k="highway" v="residential"/>
    <tag k="maxspeed" v="50"/>
    <tag k="maxspeed:source" v="default residential speed limit in Australia"/>
    <tag k="name" v="Eton Street"/>
  </way>
  <way id="16561590" version="4" timestamp="2010-07-06T09:47:57Z" uid="74617" user="JohnSmith" changeset="5147679">
    <nd ref="170870928"/>
    <nd ref="170925141"/>
    <nd ref="170925142"/>
    <nd ref="170925144"/>
    <nd ref="170924404"/>
    <nd ref="337306005"/>
    <nd ref="170889289"/>
    <tag k="highway" v="residential"/>
    <tag k="maxspeed" v="50"/>
    <tag k="maxspeed:source" v="default residential speed limit in Australia"/>
    <tag k="name" v="Smallman Street"/>
  </way>
  <way id="16561851" version="4" timestamp="2010-07-06T09:52:06Z" uid="74617" user="JohnSmith" changeset="5147679">
    <nd ref="170927782"/>
    <nd ref="170927921"/>
    <tag k="highway" v="residential"/>
    <tag k="maxspeed" v="50"/>
    <tag k="maxspeed:source" v="default residential speed limit in Australia"/>
    <tag k="name" v="Nora Street"/>
  </way>
  <way id="16561926" version="10" timestamp="2010-07-06T09:50:14Z" uid="74617" user="JohnSmith" changeset="5147679">
    <nd ref="202043923"/>
    <nd ref="170928723"/>
    <nd ref="202086456"/>
    <nd ref="170928724"/>
    <nd ref="170928725"/>
    <nd ref="170928726"/>
    <tag k="highway" v="residential"/>
    <tag k="maxspeed" v="50"/>
    <tag k="maxspeed:source" v="default residential speed limit in Australia"/>
    <tag k="name" v="Bilyana Street"/>
  </way>
</osm>
