<?xml version='1.0' encoding='UTF-8'?>
<osm version="0.6" generator="libosmium/2.20.0">
  <way id="16568031" version="12" timestamp="2011-03-18T15:18:07Z" uid="4467" user="Rosscoe" changeset="7596265">
    <nd ref="171005317"/>
    <nd ref="171005433"/>
    <nd ref="171005423"/>
    <nd ref="171005399"/>
    <nd ref="171005376"/>
    <nd ref="171005356"/>
    <nd ref="31430689"/>
    <nd ref="253449325"/>
    <nd ref="679118158"/>
    <nd ref="170964724"/>
    <nd ref="253449326"/>
    <nd ref="170964765"/>
    <nd ref="170964785"/>
    <nd ref="170964807"/>
    <nd ref="997741284"/>
    <nd ref="31430690"/>
    <tag k="highway" v="primary"/>
    <tag k="is_in" v="Hove,South Australia,Australia"/>
    <tag k="maxspeed" v="60"/>
    <tag k="name" v="Brighton Road"/>
    <tag k="oneway" v="yes"/>
    <tag k="postal_code" v="5048"/>
    <tag k="ref" v="A15"/>
    <tag k="source" v="survey"/>
  </way>
  <way id="16568527" version="7" timestamp="2009-09-30T13:00:18Z" uid="36809" user="pfoten_weg_!_" changeset="2687909">
    <nd ref="293924976"/>
    <nd ref="293924968"/>
    <nd ref="293924969"/>
    <nd ref="293924970"/>
    <nd ref="293924971"/>
    <nd ref="293924972"/>
    <nd ref="293924973"/>
    <nd ref="293924974"/>
    <nd ref="293924975"/>
    <nd ref="293924976"/>
    <tag k="highway" v="residential"/>
    <tag k="name" v="Josef-Priller-StraÃŸe"/>
    <tag k="vehicle" v="destination"/>
  </way>
</osm>
