<?xml version='1.0' encoding='UTF-8'?>
<osm version="0.6" generator="libosmium/2.20.0">
  <way id="16599245" version="2" timestamp="2008-09-05T10:54:13Z" uid="1066" user="pavel" changeset="539695">
    <nd ref="171401478"/>
    <nd ref="171402320"/>
    <tag k="created_by" v="Potlatch 0.5d"/>
    <tag k="highway" v="residential"/>
    <tag k="name" v="Toužimská"/>
    <tag k="name:source" v="nameit/uir-adr"/>
  </way>
  <way id="16599407" version="3" timestamp="2008-10-14T09:48:26Z" uid="9581" user="Lobelt" changeset="323333">
    <nd ref="171403744"/>
    <nd ref="304516806"/>
    <nd ref="304516811"/>
    <nd ref="171403772"/>
    <nd ref="171403760"/>
    <nd ref="171403750"/>
    <nd ref="171403744"/>
    <tag k="building" v="yes"/>
    <tag k="created_by" v="Potlatch 0.8b"/>
  </way>
  <way id="16599528" version="3" timestamp="2010-01-20T23:23:41Z" uid="30201" user="rrankin" changeset="3671464">
    <nd ref="171404999"/>
    <nd ref="171405001"/>
    <nd ref="171405002"/>
    <nd ref="171405003"/>
    <nd ref="171404999"/>
    <tag k="building" v="yes"/>
    <tag k="name" v="ACM"/>
    <tag k="tourism" v="museum"/>
  </way>
</osm>
