<?xml version='1.0' encoding='UTF-8'?>
<osm version="0.6" generator="libosmium/2.20.0">
  <way id="16611217" version="4" timestamp="2008-10-14T09:48:33Z" uid="9581" user="Lobelt" changeset="323333">
    <nd ref="171545756"/>
    <nd ref="171545766"/>
    <nd ref="171545767"/>
    <nd ref="304517096"/>
    <nd ref="304517098"/>
    <nd ref="304517100"/>
    <nd ref="304517102"/>
    <nd ref="304517103"/>
    <nd ref="304517106"/>
    <nd ref="171545768"/>
    <nd ref="171545756"/>
    <tag k="building" v="yes"/>
    <tag k="created_by" v="Potlatch 0.10b"/>
  </way>
  <way id="16611370" version="2" timestamp="2009-09-21T19:25:06Z" uid="1066" user="pavel" changeset="2561659">
    <nd ref="171546824"/>
    <nd ref="504646988"/>
    <nd ref="504646985"/>
    <nd ref="171547616"/>
    <tag k="created_by" v="Potlatch 0.5d"/>
    <tag k="highway" v="residential"/>
    <tag k="name" v="Dany Medřické"/>
  </way>
  <way id="16611514" version="2" timestamp="2009-09-21T19:25:07Z" uid="1066" user="pavel" changeset="2561659">
    <nd ref="171546817"/>
    <nd ref="171549377"/>
    <nd ref="171549378"/>
    <nd ref="504646986"/>
    <nd ref="171549379"/>
    <nd ref="171547616"/>
    <nd ref="504646984"/>
    <tag k="created_by" v="Potlatch 0.5d"/>
    <tag k="highway" v="residential"/>
    <tag k="name" v="Rážova"/>
  </way>
  <way id="16611721" version="3" timestamp="2010-07-07T09:20:01Z" uid="74617" user="JohnSmith" changeset="5156250">
    <nd ref="171551942"/>
    <nd ref="171551943"/>
    <nd ref="171551946"/>
    <nd ref="171551948"/>
    <nd ref="171551949"/>
    <nd ref="171551950"/>
    <nd ref="171551951"/>
    <nd ref="171551952"/>
    <nd ref="171551954"/>
    <nd ref="171551955"/>
    <nd ref="171551956"/>
    <nd ref="171551958"/>
    <nd ref="171551959"/>
    <nd ref="171551961"/>
    <nd ref="171551963"/>
    <tag k="highway" v="residential"/>
    <tag k="maxspeed" v="50"/>
    <tag k="maxspeed:source" v="default residential speed limit in Australia"/>
    <tag k="name" v="Kingsbury Street"/>
  </way>
  <way id="16611816" version="4" timestamp="2010-07-07T09:18:39Z" uid="74617" user="JohnSmith" changeset="5156250">
    <nd ref="171553204"/>
    <nd ref="171553205"/>
    <nd ref="171553206"/>
    <nd ref="171553207"/>
    <tag k="highway" v="residential"/>
    <tag k="maxspeed" v="50"/>
    <tag k="maxspeed:source" v="default residential speed limit in Australia"/>
    <tag k="name" v="Verney Place"/>
  </way>
  <way id="16611828" version="4" timestamp="2010-07-07T09:12:42Z" uid="74617" user="JohnSmith" changeset="5156250">
    <nd ref="171553363"/>
    <nd ref="171553364"/>
    <tag k="highway" v="residential"/>
    <tag k="maxspeed" v="50"/>
    <tag k="maxspeed:source" v="default residential speed limit in Australia"/>
    <tag k="name" v="Towner Place"/>
  </way>
  <way id="16611845" version="3" timestamp="2010-07-07T09:16:52Z" uid="74617" user="JohnSmith" changeset="5156250">
    <nd ref="171553610"/>
    <nd ref="171553611"/>
    <tag k="highway" v="residential"/>
    <tag k="maxspeed" v="50"/>
    <tag k="maxspeed:source" v="default residential speed limit in Australia"/>
    <tag k="name" v="Peeler Place"/>
  </way>
  <way id="16611880" version="3" timestamp="2010-07-07T09:11:58Z" uid="74617" user="JohnSmith" changeset="5156250">
    <nd ref="171554189"/>
    <nd ref="171554191"/>
    <tag k="highway" v="residential"/>
    <tag k="maxspeed" v="50"/>
    <tag k="maxspeed:source" v="default residential speed limit in Australia"/>
    <tag k="name" v="Clayton Place"/>
  </way>
  <way id="16611922" version="3" timestamp="2010-07-07T09:17:01Z" uid="74617" user="JohnSmith" changeset="5156250">
    <nd ref="171554548"/>
    <nd ref="171554549"/>
    <tag k="highway" v="residential"/>
    <tag k="maxspeed" v="50"/>
    <tag k="maxspeed:source" v="default residential speed limit in Australia"/>
    <tag k="name" v="Bulcock Place"/>
  </way>
</osm>
