<?xml version='1.0' encoding='UTF-8'?>
<osm version="0.6" generator="libosmium/2.20.0">
  <way id="16645117" version="4" timestamp="2010-07-06T09:49:21Z" uid="74617" user="JohnSmith" changeset="5147679">
    <nd ref="103543600"/>
    <nd ref="171944005"/>
    <nd ref="171947039"/>
    <tag k="highway" v="residential"/>
    <tag k="maxspeed" v="50"/>
    <tag k="maxspeed:source" v="default residential speed limit in Australia"/>
    <tag k="name" v="Mullens Street"/>
  </way>
  <way id="16645212" version="5" timestamp="2010-07-06T09:50:52Z" uid="74617" user="JohnSmith" changeset="5147679">
    <nd ref="171937414"/>
    <nd ref="171938654"/>
    <nd ref="171940474"/>
    <tag k="highway" v="residential"/>
    <tag k="maxspeed" v="50"/>
    <tag k="maxspeed:source" v="default residential speed limit in Australia"/>
    <tag k="name" v="Howard Street"/>
  </way>
  <way id="16645317" version="4" timestamp="2010-07-06T09:47:38Z" uid="74617" user="JohnSmith" changeset="5147679">
    <nd ref="171937411"/>
    <nd ref="171938651"/>
    <tag k="highway" v="residential"/>
    <tag k="maxspeed" v="50"/>
    <tag k="maxspeed:source" v="default residential speed limit in Australia"/>
    <tag k="name" v="Talma Street"/>
  </way>
</osm>
