<?xml version='1.0' encoding='UTF-8'?>
<osm version="0.6" generator="libosmium/2.20.0">
  <way id="16699452" version="3" timestamp="2010-08-28T11:47:42Z" uid="9719" user="dvaey" changeset="5615325">
    <nd ref="172643280"/>
    <nd ref="32412225"/>
    <tag k="highway" v="unclassified"/>
  </way>
  <way id="16699659" version="4" timestamp="2009-09-06T23:25:01Z" uid="99207" user="Lar Kiesel" changeset="2397861">
    <nd ref="172645364"/>
    <nd ref="172645367"/>
    <nd ref="172645371"/>
    <nd ref="172645374"/>
    <nd ref="172645377"/>
    <nd ref="172645380"/>
    <nd ref="172645383"/>
    <nd ref="172645385"/>
    <nd ref="172148077"/>
    <tag k="highway" v="motorway"/>
    <tag k="name" v="Interstate Highway 77"/>
    <tag k="name_1" v="United States Highway 21"/>
    <tag k="nat_ref" v="I-77"/>
    <tag k="oneway" v="yes"/>
    <tag k="ref" v="I 77"/>
    <tag k="tiger:cfcc" v="A15"/>
    <tag k="tiger:county" v="Mecklenburg, NC"/>
    <tag k="tiger:name_base" v="United States Highway 21"/>
    <tag k="tiger:name_base_1" v="I-77"/>
    <tag k="tiger:reviewed" v="no"/>
    <tag k="tiger:separated" v="yes"/>
    <tag k="tiger:source" v="tiger_import_dch_v0.6_20070829"/>
    <tag k="tiger:tlid" v="70615364:70486285"/>
    <tag k="tiger:upload_uuid" v="bulk_upload.pl-59114b71-e8f9-4c0f-93ff-eb3f79e1d56f"/>
  </way>
  <way id="16699661" version="3" timestamp="2009-09-06T23:24:51Z" uid="99207" user="Lar Kiesel" changeset="2397861">
    <nd ref="172645394"/>
    <nd ref="172645396"/>
    <nd ref="172645398"/>
    <nd ref="172645401"/>
    <tag k="highway" v="motorway"/>
    <tag k="name" v="Interstate Highway 77"/>
    <tag k="name_1" v="United States Highway 21"/>
    <tag k="nat_ref" v="I-77"/>
    <tag k="oneway" v="yes"/>
    <tag k="ref" v="I 77"/>
    <tag k="tiger:cfcc" v="A15"/>
    <tag k="tiger:county" v="Mecklenburg, NC"/>
    <tag k="tiger:name_base" v="United States Highway 21"/>
    <tag k="tiger:name_base_1" v="I-77"/>
    <tag k="tiger:reviewed" v="no"/>
    <tag k="tiger:separated" v="yes"/>
    <tag k="tiger:source" v="tiger_import_dch_v0.6_20070829"/>
    <tag k="tiger:tlid" v="70613500"/>
    <tag k="tiger:upload_uuid" v="bulk_upload.pl-59114b71-e8f9-4c0f-93ff-eb3f79e1d56f"/>
  </way>
  <way id="16699762" version="2" timestamp="2008-11-04T14:58:05Z" uid="17602" user="B10xyz" changeset="678549">
    <nd ref="76939902"/>
    <nd ref="76939903"/>
    <nd ref="76939904"/>
    <nd ref="309894942"/>
    <nd ref="172601792"/>
    <nd ref="172601786"/>
    <nd ref="76939907"/>
    <nd ref="76939908"/>
    <nd ref="76939910"/>
    <tag k="created_by" v="Potlatch 0.10f"/>
    <tag k="highway" v="primary"/>
    <tag k="name" v="Quai Général de Gaulle"/>
    <tag k="oneway" v="true"/>
    <tag k="ref" v="D999"/>
  </way>
  <way id="16699762" version="3" timestamp="2008-11-04T15:01:25Z" uid="17602" user="B10xyz" changeset="678549">
    <nd ref="76939902"/>
    <nd ref="76939903"/>
    <nd ref="76939904"/>
    <nd ref="309894942"/>
    <nd ref="309895587"/>
    <nd ref="172601792"/>
    <nd ref="172601786"/>
    <nd ref="76939907"/>
    <nd ref="76939908"/>
    <nd ref="76939910"/>
    <tag k="created_by" v="Potlatch 0.10f"/>
    <tag k="highway" v="primary"/>
    <tag k="name" v="Quai Général de Gaulle"/>
    <tag k="oneway" v="true"/>
    <tag k="ref" v="D999"/>
  </way>
  <way id="16699762" version="4" timestamp="2008-11-04T15:06:12Z" uid="17602" user="B10xyz" changeset="678549">
    <nd ref="76939902"/>
    <nd ref="76939903"/>
    <nd ref="76939904"/>
    <nd ref="309896039"/>
    <nd ref="309894942"/>
    <nd ref="309895587"/>
    <nd ref="172601792"/>
    <nd ref="172601786"/>
    <nd ref="76939907"/>
    <nd ref="76939908"/>
    <nd ref="76939910"/>
    <tag k="created_by" v="Potlatch 0.10f"/>
    <tag k="highway" v="primary"/>
    <tag k="name" v="Quai Général de Gaulle"/>
    <tag k="oneway" v="true"/>
    <tag k="ref" v="D999"/>
  </way>
  <way id="16699762" version="5" timestamp="2008-11-04T15:06:34Z" uid="17602" user="B10xyz" changeset="678549">
    <nd ref="76939902"/>
    <nd ref="76939903"/>
    <nd ref="76939904"/>
    <nd ref="309896049"/>
    <nd ref="309896039"/>
    <nd ref="309894942"/>
    <nd ref="309895587"/>
    <nd ref="172601792"/>
    <nd ref="172601786"/>
    <nd ref="76939907"/>
    <nd ref="76939908"/>
    <nd ref="76939910"/>
    <tag k="created_by" v="Potlatch 0.10f"/>
    <tag k="highway" v="primary"/>
    <tag k="name" v="Quai Général de Gaulle"/>
    <tag k="oneway" v="true"/>
    <tag k="ref" v="D999"/>
  </way>
  <way id="16699771" version="2" timestamp="2008-11-04T13:52:18Z" uid="17602" user="B10xyz" changeset="678549">
    <nd ref="80435141"/>
    <nd ref="80435142"/>
    <nd ref="80435143"/>
    <nd ref="80435144"/>
    <nd ref="80435145"/>
    <nd ref="80435146"/>
    <nd ref="80435147"/>
    <nd ref="80435148"/>
    <nd ref="80435150"/>
    <nd ref="80435152"/>
    <nd ref="80435154"/>
    <nd ref="80435155"/>
    <nd ref="80435156"/>
    <nd ref="80435158"/>
    <nd ref="80435160"/>
    <nd ref="80435162"/>
    <nd ref="80435163"/>
    <nd ref="80435164"/>
    <nd ref="80435166"/>
    <nd ref="80435168"/>
    <tag k="created_by" v="Potlatch 0.10f"/>
    <tag k="highway" v="secondary"/>
    <tag k="ref" v="D15"/>
  </way>
</osm>
