<?xml version='1.0' encoding='UTF-8'?>
<osm version="0.6" generator="libosmium/2.20.0">
  <way id="16778036" version="3" timestamp="2008-07-08T20:59:29Z" uid="1066" user="pavel" changeset="431413">
    <nd ref="27146947"/>
    <nd ref="173554436"/>
    <nd ref="277292560"/>
    <nd ref="173554438"/>
    <nd ref="173554440"/>
    <nd ref="173554442"/>
    <nd ref="277292553"/>
    <nd ref="277292552"/>
    <nd ref="173554445"/>
    <nd ref="173554446"/>
    <nd ref="173554447"/>
    <nd ref="26499303"/>
    <tag k="created_by" v="Potlatch 0.5d"/>
    <tag k="foot" v="yes"/>
    <tag k="highway" v="footway"/>
    <tag k="name" v="Cesta ceckatým údolím"/>
  </way>
  <way id="16778036" version="4" timestamp="2008-09-12T20:43:37Z" uid="1066" user="pavel" changeset="613437">
    <nd ref="27146947"/>
    <nd ref="173554436"/>
    <nd ref="277292560"/>
    <nd ref="173554438"/>
    <nd ref="173554440"/>
    <nd ref="173554442"/>
    <nd ref="277292553"/>
    <nd ref="277292552"/>
    <nd ref="173554445"/>
    <nd ref="173554446"/>
    <nd ref="173554447"/>
    <nd ref="26499303"/>
    <tag k="created_by" v="Potlatch 0.5d"/>
    <tag k="foot" v="yes"/>
    <tag k="highway" v="footway"/>
    <tag k="kct_red" v="major"/>
    <tag k="name" v="Cesta ceckatým údolím"/>
  </way>
  <way id="16778036" version="6" timestamp="2009-07-17T09:42:43Z" uid="1066" user="pavel" changeset="1852546">
    <nd ref="27146947"/>
    <nd ref="173554436"/>
    <nd ref="277292560"/>
    <nd ref="173554438"/>
    <nd ref="173554440"/>
    <nd ref="173554442"/>
    <tag k="created_by" v="Potlatch 0.5d"/>
    <tag k="foot" v="yes"/>
    <tag k="highway" v="track"/>
    <tag k="name" v="Cesta ceckatým údolím"/>
  </way>
  <way id="16778113" version="2" timestamp="2007-12-16T20:31:14Z" uid="1066" user="pavel" changeset="327574"/>
  <way id="16778408" version="3" timestamp="2008-02-12T03:08:02Z" uid="7617" user="Franc" changeset="104216">
    <nd ref="11978218"/>
    <nd ref="173561754"/>
    <nd ref="8965670"/>
    <tag k="created_by" v="Potlatch 0.5d"/>
    <tag k="name" v="Paternoster Row"/>
  </way>
  <way id="16778408" version="4" timestamp="2008-04-16T06:18:14Z" uid="7617" user="Franc" changeset="162872">
    <nd ref="11978218"/>
    <nd ref="173561754"/>
    <nd ref="8965670"/>
    <tag k="created_by" v="Potlatch 0.5d"/>
    <tag k="name" v="Paternoster Row"/>
    <tag k="oneway" v="yes"/>
  </way>
  <way id="16778408" version="5" timestamp="2008-07-14T05:17:07Z" uid="7617" user="Franc" changeset="488284">
    <nd ref="11978218"/>
    <nd ref="173561754"/>
    <nd ref="8965670"/>
    <tag k="created_by" v="Potlatch 0.5d"/>
    <tag k="highway" v="unclassified"/>
    <tag k="name" v="Paternoster Row"/>
    <tag k="oneway" v="yes"/>
  </way>
  <way id="16778408" version="8" timestamp="2010-07-07T22:15:13Z" uid="74617" user="JohnSmith" changeset="5161069">
    <nd ref="11978218"/>
    <nd ref="173561754"/>
    <nd ref="8965670"/>
    <tag k="highway" v="residential"/>
    <tag k="maxspeed" v="50"/>
    <tag k="maxspeed:source" v="default residential speed limit in Australia"/>
    <tag k="name" v="Paternoster Row"/>
    <tag k="oneway" v="yes"/>
  </way>
</osm>
