<?xml version='1.0' encoding='UTF-8'?>
<osm version="0.6" generator="libosmium/2.20.0">
  <way id="17167456" version="1" timestamp="2007-12-19T08:36:08Z" uid="4467" user="Rosscoe" changeset="357330">
    <nd ref="178287749"/>
    <nd ref="178288988"/>
    <nd ref="178288956"/>
    <nd ref="178288783"/>
    <tag k="created_by" v="JOSM"/>
    <tag k="highway" v="residential"/>
    <tag k="name" v="Renwick Road"/>
    <tag k="source" v="gpsdrivetrack"/>
    <tag k="surface" v="paved"/>
  </way>
  <way id="17167456" version="2" timestamp="2007-12-21T23:55:41Z" uid="4467" user="Rosscoe" changeset="385886">
    <nd ref="178287749"/>
    <nd ref="178288988"/>
    <nd ref="178288956"/>
    <nd ref="178288783"/>
    <tag k="created_by" v="JOSM"/>
    <tag k="highway" v="residential"/>
    <tag k="name" v="Renwick Road"/>
    <tag k="source" v="gpsdrivetrack"/>
    <tag k="surface" v="paved"/>
  </way>
  <way id="17167456" version="3" timestamp="2007-12-27T01:49:54Z" uid="4467" user="Rosscoe" changeset="434591">
    <nd ref="178287749"/>
    <nd ref="191218574"/>
    <nd ref="191218014"/>
    <nd ref="178288988"/>
    <nd ref="191218248"/>
    <nd ref="191218955"/>
    <nd ref="178288956"/>
    <nd ref="191220882"/>
    <nd ref="191219439"/>
    <nd ref="178288783"/>
    <tag k="created_by" v="JOSM"/>
    <tag k="highway" v="residential"/>
    <tag k="name" v="Renwick Road"/>
    <tag k="source" v="gpsdrivetrack"/>
    <tag k="surface" v="paved"/>
  </way>
  <way id="17167456" version="4" timestamp="2008-01-10T02:39:26Z" uid="4467" user="Rosscoe" changeset="589280">
    <nd ref="178287749"/>
    <nd ref="191218574"/>
    <nd ref="191218014"/>
    <nd ref="178288988"/>
    <nd ref="191218248"/>
    <nd ref="191218955"/>
    <nd ref="178288956"/>
    <nd ref="191220882"/>
    <nd ref="191219439"/>
    <nd ref="178288783"/>
    <tag k="created_by" v="JOSM"/>
    <tag k="highway" v="residential"/>
    <tag k="name" v="Renwick Road"/>
    <tag k="source" v="gpsdrivetrack"/>
    <tag k="surface" v="paved"/>
  </way>
  <way id="17167456" version="5" timestamp="2008-10-14T22:01:26Z" uid="4467" user="Rosscoe" changeset="342472">
    <nd ref="178287749"/>
    <nd ref="191218574"/>
    <nd ref="191218014"/>
    <nd ref="178288988"/>
    <nd ref="191218248"/>
    <nd ref="191218955"/>
    <nd ref="178288956"/>
    <nd ref="191220882"/>
    <nd ref="191219439"/>
    <nd ref="178288783"/>
    <tag k="created_by" v="Potlatch 0.10e"/>
    <tag k="highway" v="residential"/>
    <tag k="name" v="Renwick Road"/>
    <tag k="source" v="survey"/>
    <tag k="surface" v="paved"/>
  </way>
  <way id="17167456" version="6" timestamp="2008-12-15T07:59:26Z" uid="4467" user="Rosscoe" changeset="389529">
    <nd ref="178287749"/>
    <nd ref="191218574"/>
    <nd ref="191218014"/>
    <nd ref="178288988"/>
    <nd ref="191218248"/>
    <nd ref="191218955"/>
    <nd ref="178288956"/>
    <nd ref="318859859"/>
    <nd ref="191220882"/>
    <nd ref="191219439"/>
    <nd ref="178288783"/>
    <tag k="created_by" v="Potlatch 0.10e"/>
    <tag k="highway" v="residential"/>
    <tag k="name" v="Renwick Road"/>
    <tag k="source" v="survey"/>
    <tag k="surface" v="paved"/>
  </way>
  <way id="17167456" version="7" timestamp="2011-01-02T04:32:28Z" uid="4467" user="Rosscoe" changeset="6835067">
    <nd ref="178287749"/>
    <nd ref="191218574"/>
    <nd ref="191218014"/>
    <nd ref="178288988"/>
    <nd ref="191218248"/>
    <nd ref="191218955"/>
    <nd ref="178288956"/>
    <nd ref="318859859"/>
    <nd ref="191220882"/>
    <nd ref="191219439"/>
    <nd ref="1078097837"/>
    <nd ref="178288783"/>
    <tag k="highway" v="residential"/>
    <tag k="name" v="Renwick Road"/>
    <tag k="source" v="survey"/>
    <tag k="surface" v="paved"/>
  </way>
  <way id="17167458" version="1" timestamp="2007-12-19T08:36:09Z" uid="4467" user="Rosscoe" changeset="357330">
    <nd ref="178288941"/>
    <nd ref="178288925"/>
    <tag k="created_by" v="JOSM"/>
    <tag k="highway" v="residential"/>
    <tag k="name" v="Doherty Street"/>
    <tag k="source" v="gpsdrivetrack"/>
    <tag k="surface" v="paved"/>
  </way>
  <way id="17167458" version="2" timestamp="2007-12-21T23:55:47Z" uid="4467" user="Rosscoe" changeset="385886">
    <nd ref="178288941"/>
    <nd ref="178288925"/>
    <tag k="created_by" v="JOSM"/>
    <tag k="highway" v="residential"/>
    <tag k="name" v="Doherty Street"/>
    <tag k="source" v="gpsdrivetrack"/>
    <tag k="surface" v="paved"/>
  </way>
  <way id="17167458" version="3" timestamp="2008-01-10T02:39:29Z" uid="4467" user="Rosscoe" changeset="589280">
    <nd ref="178288941"/>
    <nd ref="178288925"/>
    <tag k="created_by" v="JOSM"/>
    <tag k="highway" v="residential"/>
    <tag k="name" v="Doherty Street"/>
    <tag k="source" v="gpsdrivetrack"/>
    <tag k="surface" v="paved"/>
  </way>
  <way id="17167458" version="4" timestamp="2008-10-14T22:00:02Z" uid="4467" user="Rosscoe" changeset="342472">
    <nd ref="178288941"/>
    <nd ref="178288925"/>
    <tag k="created_by" v="Potlatch 0.10e"/>
    <tag k="highway" v="residential"/>
    <tag k="name" v="Doherty Street"/>
    <tag k="source" v="survey"/>
    <tag k="surface" v="paved"/>
  </way>
  <way id="17167460" version="1" timestamp="2007-12-19T08:36:09Z" uid="4467" user="Rosscoe" changeset="357330">
    <nd ref="178287768"/>
    <nd ref="178289211"/>
    <nd ref="178287790"/>
    <tag k="created_by" v="JOSM"/>
    <tag k="highway" v="residential"/>
    <tag k="name" v="Phaff Street"/>
    <tag k="source" v="gpsdrivetrack"/>
    <tag k="surface" v="paved"/>
  </way>
  <way id="17167460" version="2" timestamp="2008-01-10T02:39:18Z" uid="4467" user="Rosscoe" changeset="589280">
    <nd ref="178287768"/>
    <nd ref="178289211"/>
    <nd ref="178287790"/>
    <tag k="created_by" v="JOSM"/>
    <tag k="highway" v="residential"/>
    <tag k="name" v="Phaff Street"/>
    <tag k="source" v="gpsdrivetrack"/>
    <tag k="surface" v="paved"/>
  </way>
  <way id="17167460" version="3" timestamp="2008-10-14T22:00:50Z" uid="4467" user="Rosscoe" changeset="342472">
    <nd ref="178287768"/>
    <nd ref="178289211"/>
    <nd ref="178287790"/>
    <tag k="created_by" v="Potlatch 0.10e"/>
    <tag k="highway" v="residential"/>
    <tag k="name" v="Phaff Street"/>
    <tag k="source" v="survey"/>
    <tag k="surface" v="paved"/>
  </way>
  <way id="17167460" version="4" timestamp="2009-06-04T03:18:32Z" uid="4467" user="Rosscoe" changeset="1418127">
    <nd ref="178287768"/>
    <nd ref="178289211"/>
    <nd ref="415529996"/>
    <tag k="created_by" v="Potlatch 0.10e"/>
    <tag k="highway" v="residential"/>
    <tag k="name" v="Phaff Street"/>
    <tag k="source" v="survey"/>
    <tag k="surface" v="paved"/>
  </way>
  <way id="17167462" version="1" timestamp="2007-12-19T08:36:10Z" uid="4467" user="Rosscoe" changeset="357330">
    <nd ref="178288870"/>
    <nd ref="178288840"/>
    <nd ref="178288956"/>
    <tag k="created_by" v="JOSM"/>
    <tag k="highway" v="residential"/>
    <tag k="name" v="Dudley Road"/>
    <tag k="source" v="gpsdrivetrack"/>
    <tag k="surface" v="paved"/>
  </way>
  <way id="17167462" version="2" timestamp="2008-01-10T02:39:23Z" uid="4467" user="Rosscoe" changeset="589280">
    <nd ref="178288870"/>
    <nd ref="178288840"/>
    <nd ref="178288956"/>
    <tag k="created_by" v="JOSM"/>
    <tag k="highway" v="residential"/>
    <tag k="name" v="Dudley Road"/>
    <tag k="source" v="gpsdrivetrack"/>
    <tag k="surface" v="paved"/>
  </way>
  <way id="17167462" version="3" timestamp="2008-10-14T22:01:29Z" uid="4467" user="Rosscoe" changeset="342472">
    <nd ref="178288870"/>
    <nd ref="178288840"/>
    <nd ref="178288956"/>
    <tag k="created_by" v="Potlatch 0.10e"/>
    <tag k="highway" v="residential"/>
    <tag k="name" v="Dudley Road"/>
    <tag k="source" v="survey"/>
    <tag k="surface" v="paved"/>
  </way>
  <way id="17167462" version="4" timestamp="2008-12-15T07:59:27Z" uid="4467" user="Rosscoe" changeset="389529">
    <nd ref="178288870"/>
    <nd ref="318859910"/>
    <nd ref="178288840"/>
    <nd ref="178288956"/>
    <tag k="created_by" v="Potlatch 0.10e"/>
    <tag k="highway" v="residential"/>
    <tag k="name" v="Dudley Road"/>
    <tag k="source" v="survey"/>
    <tag k="surface" v="paved"/>
  </way>
  <way id="17167463" version="1" timestamp="2007-12-19T08:36:11Z" uid="4467" user="Rosscoe" changeset="357330">
    <nd ref="178287704"/>
    <nd ref="178287717"/>
    <tag k="created_by" v="JOSM"/>
    <tag k="highway" v="residential"/>
    <tag k="name" v="Telford Lane"/>
    <tag k="source" v="gpsdrivetrack"/>
    <tag k="surface" v="paved"/>
  </way>
  <way id="17167463" version="2" timestamp="2008-01-10T02:39:20Z" uid="4467" user="Rosscoe" changeset="589280">
    <nd ref="178287704"/>
    <nd ref="178287717"/>
    <tag k="created_by" v="JOSM"/>
    <tag k="highway" v="residential"/>
    <tag k="name" v="Telford Lane"/>
    <tag k="source" v="gpsdrivetrack"/>
    <tag k="surface" v="paved"/>
  </way>
  <way id="17167463" version="3" timestamp="2008-10-14T22:00:14Z" uid="4467" user="Rosscoe" changeset="342472">
    <nd ref="178287704"/>
    <nd ref="178287717"/>
    <tag k="created_by" v="Potlatch 0.10e"/>
    <tag k="highway" v="residential"/>
    <tag k="name" v="Telford Lane"/>
    <tag k="source" v="survey"/>
    <tag k="surface" v="paved"/>
  </way>
  <way id="17167466" version="1" timestamp="2007-12-19T08:36:12Z" uid="4467" user="Rosscoe" changeset="357330">
    <nd ref="178288800"/>
    <nd ref="178289006"/>
    <tag k="created_by" v="JOSM"/>
    <tag k="highway" v="residential"/>
    <tag k="name" v="Debney Street"/>
    <tag k="source" v="gpsdrivetrack"/>
    <tag k="surface" v="paved"/>
  </way>
  <way id="17167466" version="2" timestamp="2008-01-10T02:39:44Z" uid="4467" user="Rosscoe" changeset="589280">
    <nd ref="178288800"/>
    <nd ref="178289006"/>
    <tag k="created_by" v="JOSM"/>
    <tag k="highway" v="residential"/>
    <tag k="name" v="Debney Street"/>
    <tag k="source" v="gpsdrivetrack"/>
    <tag k="surface" v="paved"/>
  </way>
  <way id="17167466" version="3" timestamp="2008-10-14T22:01:43Z" uid="4467" user="Rosscoe" changeset="342472">
    <nd ref="178288800"/>
    <nd ref="178289006"/>
    <tag k="created_by" v="Potlatch 0.10e"/>
    <tag k="highway" v="residential"/>
    <tag k="name" v="Debney Street"/>
    <tag k="source" v="survey"/>
    <tag k="surface" v="paved"/>
  </way>
  <way id="17167466" version="4" timestamp="2011-01-02T09:41:16Z" uid="4467" user="Rosscoe" changeset="6836336">
    <nd ref="178288800"/>
    <nd ref="1078460721"/>
    <nd ref="178289006"/>
    <tag k="highway" v="residential"/>
    <tag k="name" v="Debney Street"/>
    <tag k="source" v="survey"/>
    <tag k="surface" v="paved"/>
  </way>
  <way id="17167470" version="1" timestamp="2007-12-19T08:36:13Z" uid="4467" user="Rosscoe" changeset="357330">
    <nd ref="178287851"/>
    <nd ref="178287734"/>
    <tag k="created_by" v="JOSM"/>
    <tag k="highway" v="residential"/>
    <tag k="name" v="Taylor Street"/>
    <tag k="source" v="gpsdrivetrack"/>
    <tag k="surface" v="paved"/>
  </way>
  <way id="17167470" version="2" timestamp="2007-12-21T23:55:49Z" uid="4467" user="Rosscoe" changeset="385886">
    <nd ref="178287851"/>
    <nd ref="178287734"/>
    <tag k="created_by" v="JOSM"/>
    <tag k="highway" v="residential"/>
    <tag k="name" v="Taylor Street"/>
    <tag k="source" v="gpsdrivetrack"/>
    <tag k="surface" v="paved"/>
  </way>
  <way id="17167470" version="3" timestamp="2007-12-27T01:49:55Z" uid="4467" user="Rosscoe" changeset="434591">
    <nd ref="178287851"/>
    <nd ref="191218054"/>
    <nd ref="191218778"/>
    <nd ref="178287734"/>
    <tag k="created_by" v="JOSM"/>
    <tag k="highway" v="residential"/>
    <tag k="name" v="Taylor Street"/>
    <tag k="source" v="gpsdrivetrack"/>
    <tag k="surface" v="paved"/>
  </way>
  <way id="17167470" version="4" timestamp="2008-01-10T02:39:35Z" uid="4467" user="Rosscoe" changeset="589280">
    <nd ref="178287851"/>
    <nd ref="191218054"/>
    <nd ref="191218778"/>
    <nd ref="178287734"/>
    <tag k="created_by" v="JOSM"/>
    <tag k="highway" v="residential"/>
    <tag k="name" v="Taylor Street"/>
    <tag k="source" v="gpsdrivetrack"/>
    <tag k="surface" v="paved"/>
  </way>
  <way id="17167470" version="5" timestamp="2008-12-19T14:45:41Z" uid="4467" user="Rosscoe" changeset="478276">
    <nd ref="178287851"/>
    <nd ref="191218054"/>
    <nd ref="191218778"/>
    <nd ref="178287734"/>
    <tag k="created_by" v="Potlatch 0.10f"/>
    <tag k="highway" v="residential"/>
    <tag k="name" v="Taylor Street"/>
    <tag k="source" v="survey"/>
    <tag k="surface" v="paved"/>
  </way>
  <way id="17167473" version="1" timestamp="2007-12-19T08:36:14Z" uid="4467" user="Rosscoe" changeset="357330">
    <nd ref="178289268"/>
    <nd ref="178288207"/>
    <nd ref="178287901"/>
    <nd ref="178288907"/>
    <nd ref="178287717"/>
    <nd ref="178289018"/>
    <tag k="created_by" v="JOSM"/>
    <tag k="highway" v="residential"/>
    <tag k="name" v="Dodd Street"/>
    <tag k="source" v="gpsdrivetrack"/>
    <tag k="surface" v="paved"/>
  </way>
  <way id="17167473" version="2" timestamp="2007-12-21T23:56:02Z" uid="4467" user="Rosscoe" changeset="385886">
    <nd ref="178289268"/>
    <nd ref="178288207"/>
    <nd ref="178287901"/>
    <nd ref="178288907"/>
    <nd ref="178287717"/>
    <nd ref="178289018"/>
    <tag k="created_by" v="JOSM"/>
    <tag k="highway" v="residential"/>
    <tag k="name" v="Dodd Street"/>
    <tag k="source" v="gpsdrivetrack"/>
    <tag k="surface" v="paved"/>
  </way>
  <way id="17167473" version="3" timestamp="2008-01-10T02:40:00Z" uid="4467" user="Rosscoe" changeset="589280">
    <nd ref="178289268"/>
    <nd ref="178288207"/>
    <nd ref="178287901"/>
    <nd ref="178288907"/>
    <nd ref="178287717"/>
    <nd ref="178289018"/>
    <tag k="created_by" v="JOSM"/>
    <tag k="highway" v="residential"/>
    <tag k="name" v="Dodd Street"/>
    <tag k="source" v="gpsdrivetrack"/>
    <tag k="surface" v="paved"/>
  </way>
  <way id="17167473" version="4" timestamp="2008-10-14T22:00:08Z" uid="4467" user="Rosscoe" changeset="342472">
    <nd ref="178289268"/>
    <nd ref="178288207"/>
    <nd ref="178287901"/>
    <nd ref="178288907"/>
    <nd ref="178287717"/>
    <nd ref="178289018"/>
    <tag k="created_by" v="Potlatch 0.10e"/>
    <tag k="highway" v="residential"/>
    <tag k="name" v="Dodd Street"/>
    <tag k="source" v="survey"/>
    <tag k="surface" v="paved"/>
  </way>
  <way id="17167473" version="5" timestamp="2009-06-04T03:18:23Z" uid="4467" user="Rosscoe" changeset="1418127">
    <nd ref="178289268"/>
    <nd ref="178288207"/>
    <nd ref="415529996"/>
    <nd ref="178287901"/>
    <nd ref="178288907"/>
    <nd ref="178287717"/>
    <nd ref="178289018"/>
    <tag k="created_by" v="Potlatch 0.10e"/>
    <tag k="highway" v="residential"/>
    <tag k="name" v="Dodd Street"/>
    <tag k="source" v="survey"/>
    <tag k="surface" v="paved"/>
  </way>
  <way id="17167474" version="1" timestamp="2007-12-19T08:36:14Z" uid="4467" user="Rosscoe" changeset="357330">
    <nd ref="178289033"/>
    <nd ref="178289132"/>
    <nd ref="178289113"/>
    <nd ref="178289098"/>
    <tag k="created_by" v="JOSM"/>
    <tag k="highway" v="residential"/>
    <tag k="name" v="Bennett Road"/>
    <tag k="source" v="gpsdrivetrack"/>
    <tag k="surface" v="paved"/>
  </way>
  <way id="17167474" version="2" timestamp="2007-12-22T04:33:44Z" uid="4467" user="Rosscoe" changeset="391874">
    <nd ref="178289033"/>
    <nd ref="178289132"/>
    <nd ref="178289113"/>
    <nd ref="178289098"/>
    <tag k="created_by" v="JOSM"/>
    <tag k="highway" v="residential"/>
    <tag k="name" v="Bennett Road"/>
    <tag k="source" v="gpsdrivetrack"/>
    <tag k="surface" v="paved"/>
  </way>
  <way id="17167474" version="3" timestamp="2008-01-10T02:40:04Z" uid="4467" user="Rosscoe" changeset="589280">
    <nd ref="178289033"/>
    <nd ref="178289132"/>
    <nd ref="178289113"/>
    <nd ref="178289098"/>
    <tag k="created_by" v="JOSM"/>
    <tag k="highway" v="residential"/>
    <tag k="name" v="Bennett Road"/>
    <tag k="source" v="gpsdrivetrack"/>
    <tag k="surface" v="paved"/>
  </way>
  <way id="17167474" version="4" timestamp="2008-10-18T08:36:49Z" uid="4467" user="Rosscoe" changeset="417553">
    <nd ref="178289033"/>
    <nd ref="178289132"/>
    <nd ref="178289113"/>
    <nd ref="305344565"/>
    <nd ref="178289098"/>
    <tag k="created_by" v="JOSM"/>
    <tag k="highway" v="residential"/>
    <tag k="name" v="Bennett Road"/>
    <tag k="source" v="gpsdrivetrack"/>
    <tag k="surface" v="paved"/>
  </way>
  <way id="17167474" version="5" timestamp="2008-12-26T08:08:21Z" uid="4467" user="Rosscoe" changeset="607845">
    <nd ref="178289033"/>
    <nd ref="178289132"/>
    <nd ref="178289113"/>
    <nd ref="305344565"/>
    <nd ref="178289098"/>
    <tag k="created_by" v="JOSM"/>
    <tag k="highway" v="residential"/>
    <tag k="name" v="Bennett Road"/>
    <tag k="source" v="survey"/>
    <tag k="surface" v="paved"/>
  </way>
  <way id="17167476" version="1" timestamp="2007-12-19T08:36:15Z" uid="4467" user="Rosscoe" changeset="357330">
    <nd ref="178287867"/>
    <nd ref="178287704"/>
    <nd ref="178287885"/>
    <tag k="created_by" v="JOSM"/>
    <tag k="highway" v="residential"/>
    <tag k="name" v="Mann Street"/>
    <tag k="source" v="gpsdrivetrack"/>
    <tag k="surface" v="paved"/>
  </way>
  <way id="17167476" version="2" timestamp="2007-12-21T23:55:59Z" uid="4467" user="Rosscoe" changeset="385886">
    <nd ref="178287867"/>
    <nd ref="178287704"/>
    <nd ref="178287885"/>
    <tag k="created_by" v="JOSM"/>
    <tag k="highway" v="residential"/>
    <tag k="name" v="Mann Street"/>
    <tag k="source" v="gpsdrivetrack"/>
    <tag k="surface" v="paved"/>
  </way>
  <way id="17167476" version="3" timestamp="2008-01-10T02:39:47Z" uid="4467" user="Rosscoe" changeset="589280">
    <nd ref="178287867"/>
    <nd ref="178287704"/>
    <nd ref="178287885"/>
    <tag k="created_by" v="JOSM"/>
    <tag k="highway" v="residential"/>
    <tag k="name" v="Mann Street"/>
    <tag k="source" v="gpsdrivetrack"/>
    <tag k="surface" v="paved"/>
  </way>
  <way id="17167476" version="4" timestamp="2008-10-14T22:00:18Z" uid="4467" user="Rosscoe" changeset="342472">
    <nd ref="178287867"/>
    <nd ref="178287704"/>
    <nd ref="178287885"/>
    <tag k="created_by" v="Potlatch 0.10e"/>
    <tag k="highway" v="residential"/>
    <tag k="name" v="Mann Street"/>
    <tag k="source" v="survey"/>
    <tag k="surface" v="paved"/>
  </way>
  <way id="17167479" version="1" timestamp="2007-12-19T08:36:16Z" uid="4467" user="Rosscoe" changeset="357330">
    <nd ref="178288988"/>
    <nd ref="178288966"/>
    <tag k="created_by" v="JOSM"/>
    <tag k="highway" v="residential"/>
    <tag k="name" v="Daybell Street"/>
    <tag k="source" v="gpsdrivetrack"/>
    <tag k="surface" v="paved"/>
  </way>
  <way id="17167479" version="2" timestamp="2008-01-10T02:39:56Z" uid="4467" user="Rosscoe" changeset="589280">
    <nd ref="178288988"/>
    <nd ref="178288966"/>
    <tag k="created_by" v="JOSM"/>
    <tag k="highway" v="residential"/>
    <tag k="name" v="Daybell Street"/>
    <tag k="source" v="gpsdrivetrack"/>
    <tag k="surface" v="paved"/>
  </way>
  <way id="17167479" version="3" timestamp="2008-10-14T22:01:47Z" uid="4467" user="Rosscoe" changeset="342472">
    <nd ref="178288988"/>
    <nd ref="178288966"/>
    <tag k="created_by" v="Potlatch 0.10e"/>
    <tag k="highway" v="residential"/>
    <tag k="name" v="Daybell Street"/>
    <tag k="source" v="survey"/>
    <tag k="surface" v="paved"/>
  </way>
  <way id="17167482" version="1" timestamp="2007-12-19T08:36:17Z" uid="4467" user="Rosscoe" changeset="357330">
    <nd ref="178288253"/>
    <nd ref="178288238"/>
    <tag k="created_by" v="JOSM"/>
    <tag k="highway" v="residential"/>
    <tag k="name" v="Les Stagg Lane"/>
    <tag k="source" v="gpsdrivetrack"/>
    <tag k="surface" v="paved"/>
  </way>
  <way id="17167482" version="2" timestamp="2007-12-21T23:56:06Z" uid="4467" user="Rosscoe" changeset="385886">
    <nd ref="178288253"/>
    <nd ref="178288238"/>
    <tag k="created_by" v="JOSM"/>
    <tag k="highway" v="residential"/>
    <tag k="name" v="Les Stagg Lane"/>
    <tag k="source" v="gpsdrivetrack"/>
    <tag k="surface" v="paved"/>
  </way>
  <way id="17167482" version="3" timestamp="2008-01-10T02:40:25Z" uid="4467" user="Rosscoe" changeset="589280">
    <nd ref="178288253"/>
    <nd ref="178288238"/>
    <tag k="created_by" v="JOSM"/>
    <tag k="highway" v="residential"/>
    <tag k="name" v="Les Stagg Lane"/>
    <tag k="source" v="gpsdrivetrack"/>
    <tag k="surface" v="paved"/>
  </way>
  <way id="17167482" version="4" timestamp="2008-10-14T22:00:30Z" uid="4467" user="Rosscoe" changeset="342472">
    <nd ref="178288253"/>
    <nd ref="178288238"/>
    <tag k="created_by" v="Potlatch 0.10e"/>
    <tag k="highway" v="residential"/>
    <tag k="name" v="Les Stagg Lane"/>
    <tag k="source" v="survey"/>
    <tag k="surface" v="paved"/>
  </way>
  <way id="17167482" version="5" timestamp="2009-01-28T03:50:27Z" uid="4467" user="Rosscoe" changeset="848145">
    <nd ref="178288253"/>
    <nd ref="178288238"/>
    <nd ref="338513375"/>
    <nd ref="338513376"/>
    <tag k="created_by" v="Potlatch 0.10e"/>
    <tag k="highway" v="residential"/>
    <tag k="name" v="Les Stagg Lane"/>
    <tag k="source" v="survey"/>
    <tag k="surface" v="paved"/>
  </way>
  <way id="17167485" version="1" timestamp="2007-12-19T08:36:18Z" uid="4467" user="Rosscoe" changeset="357330">
    <nd ref="178289291"/>
    <nd ref="178289302"/>
    <tag k="created_by" v="JOSM"/>
    <tag k="highway" v="residential"/>
    <tag k="name" v="Ann Street"/>
    <tag k="source" v="gpsdrivetrack"/>
    <tag k="surface" v="paved"/>
  </way>
  <way id="17167485" version="2" timestamp="2007-12-21T23:56:04Z" uid="4467" user="Rosscoe" changeset="385886">
    <nd ref="178289291"/>
    <nd ref="178289302"/>
    <tag k="created_by" v="JOSM"/>
    <tag k="highway" v="residential"/>
    <tag k="name" v="Ann Street"/>
    <tag k="source" v="gpsdrivetrack"/>
    <tag k="surface" v="paved"/>
  </way>
  <way id="17167485" version="3" timestamp="2008-01-10T02:40:14Z" uid="4467" user="Rosscoe" changeset="589280">
    <nd ref="178289291"/>
    <nd ref="178289302"/>
    <tag k="created_by" v="JOSM"/>
    <tag k="highway" v="residential"/>
    <tag k="name" v="Ann Street"/>
    <tag k="source" v="gpsdrivetrack"/>
    <tag k="surface" v="paved"/>
  </way>
  <way id="17167485" version="4" timestamp="2008-10-14T22:00:24Z" uid="4467" user="Rosscoe" changeset="342472">
    <nd ref="178289291"/>
    <nd ref="178289302"/>
    <tag k="created_by" v="Potlatch 0.10e"/>
    <tag k="highway" v="residential"/>
    <tag k="name" v="Ann Street"/>
    <tag k="source" v="survey"/>
    <tag k="surface" v="paved"/>
  </way>
  <way id="17167485" version="5" timestamp="2009-01-28T03:50:25Z" uid="4467" user="Rosscoe" changeset="848145">
    <nd ref="178289291"/>
    <nd ref="338513376"/>
    <nd ref="178289302"/>
    <tag k="created_by" v="Potlatch 0.10e"/>
    <tag k="highway" v="residential"/>
    <tag k="name" v="Ann Street"/>
    <tag k="source" v="survey"/>
    <tag k="surface" v="paved"/>
  </way>
  <way id="17167490" version="1" timestamp="2007-12-19T08:36:18Z" uid="4467" user="Rosscoe" changeset="357330">
    <nd ref="178287804"/>
    <nd ref="178287823"/>
    <tag k="created_by" v="JOSM"/>
    <tag k="highway" v="residential"/>
    <tag k="name" v="Nicol Street"/>
    <tag k="source" v="gpsdrivetrack"/>
    <tag k="surface" v="paved"/>
  </way>
  <way id="17167490" version="2" timestamp="2008-01-10T02:36:18Z" uid="4467" user="Rosscoe" changeset="589280">
    <nd ref="178287804"/>
    <nd ref="178287823"/>
    <tag k="created_by" v="JOSM"/>
    <tag k="highway" v="residential"/>
    <tag k="name" v="Nicol Street"/>
    <tag k="source" v="gpsdrivetrack"/>
    <tag k="surface" v="paved"/>
  </way>
  <way id="17167490" version="3" timestamp="2008-10-14T22:01:12Z" uid="4467" user="Rosscoe" changeset="342472">
    <nd ref="178287804"/>
    <nd ref="178287823"/>
    <tag k="created_by" v="Potlatch 0.10e"/>
    <tag k="highway" v="residential"/>
    <tag k="name" v="Nicol Street"/>
    <tag k="source" v="survey"/>
    <tag k="surface" v="paved"/>
  </way>
  <way id="17167493" version="1" timestamp="2007-12-19T08:36:19Z" uid="4467" user="Rosscoe" changeset="357330">
    <nd ref="178289083"/>
    <nd ref="178289211"/>
    <tag k="created_by" v="JOSM"/>
    <tag k="highway" v="residential"/>
    <tag k="name" v="Barry Street"/>
    <tag k="source" v="gpsdrivetrack"/>
    <tag k="surface" v="paved"/>
  </way>
  <way id="17167493" version="2" timestamp="2008-01-10T02:36:40Z" uid="4467" user="Rosscoe" changeset="589280">
    <nd ref="178289083"/>
    <nd ref="178289211"/>
    <tag k="created_by" v="JOSM"/>
    <tag k="highway" v="residential"/>
    <tag k="name" v="Barry Street"/>
    <tag k="source" v="gpsdrivetrack"/>
    <tag k="surface" v="paved"/>
  </way>
  <way id="17167493" version="3" timestamp="2008-10-14T22:00:45Z" uid="4467" user="Rosscoe" changeset="342472">
    <nd ref="178289083"/>
    <nd ref="178289211"/>
    <tag k="created_by" v="Potlatch 0.10e"/>
    <tag k="highway" v="residential"/>
    <tag k="name" v="Barry Street"/>
    <tag k="source" v="survey"/>
    <tag k="surface" v="paved"/>
  </way>
  <way id="17167499" version="1" timestamp="2007-12-19T08:36:20Z" uid="4467" user="Rosscoe" changeset="357330">
    <nd ref="178287842"/>
    <nd ref="178287851"/>
    <tag k="created_by" v="JOSM"/>
    <tag k="highway" v="residential"/>
    <tag k="name" v="Mill Street"/>
    <tag k="source" v="gpsdrivetrack"/>
    <tag k="surface" v="paved"/>
  </way>
  <way id="17167499" version="2" timestamp="2007-12-21T23:55:40Z" uid="4467" user="Rosscoe" changeset="385886">
    <nd ref="178287842"/>
    <nd ref="178287851"/>
    <tag k="created_by" v="JOSM"/>
    <tag k="highway" v="residential"/>
    <tag k="name" v="Mill Street"/>
    <tag k="source" v="gpsdrivetrack"/>
    <tag k="surface" v="paved"/>
  </way>
  <way id="17167499" version="3" timestamp="2007-12-27T01:49:51Z" uid="4467" user="Rosscoe" changeset="434591">
    <nd ref="178287842"/>
    <nd ref="191219835"/>
    <nd ref="191221168"/>
    <nd ref="178287851"/>
    <tag k="created_by" v="JOSM"/>
    <tag k="highway" v="residential"/>
    <tag k="name" v="Mill Street"/>
    <tag k="source" v="gpsdrivetrack"/>
    <tag k="surface" v="paved"/>
  </way>
  <way id="17167499" version="4" timestamp="2008-01-10T02:36:05Z" uid="4467" user="Rosscoe" changeset="589280">
    <nd ref="178287842"/>
    <nd ref="191219835"/>
    <nd ref="191221168"/>
    <nd ref="178287851"/>
    <tag k="created_by" v="JOSM"/>
    <tag k="highway" v="residential"/>
    <tag k="name" v="Mill Street"/>
    <tag k="source" v="gpsdrivetrack"/>
    <tag k="surface" v="paved"/>
  </way>
  <way id="17167499" version="5" timestamp="2009-01-25T00:13:06Z" uid="4467" user="Rosscoe" changeset="832900">
    <nd ref="178287842"/>
    <nd ref="191219835"/>
    <nd ref="191221168"/>
    <nd ref="178287851"/>
    <tag k="created_by" v="JOSM"/>
    <tag k="highway" v="residential"/>
    <tag k="name" v="Mill Street"/>
    <tag k="source" v="survey"/>
    <tag k="surface" v="paved"/>
  </way>
  <way id="17167500" version="1" timestamp="2007-12-19T08:36:21Z" uid="4467" user="Rosscoe" changeset="357330">
    <nd ref="178288395"/>
    <nd ref="178288768"/>
    <nd ref="178288768"/>
    <tag k="created_by" v="JOSM"/>
    <tag k="highway" v="residential"/>
    <tag k="name" v="Joan Street"/>
    <tag k="source" v="gpsdrivetrack"/>
    <tag k="surface" v="paved"/>
  </way>
  <way id="17167500" version="2" timestamp="2007-12-21T23:55:46Z" uid="4467" user="Rosscoe" changeset="385886">
    <nd ref="178288395"/>
    <nd ref="178288768"/>
    <nd ref="178288768"/>
    <tag k="created_by" v="JOSM"/>
    <tag k="highway" v="residential"/>
    <tag k="name" v="Joan Street"/>
    <tag k="source" v="gpsdrivetrack"/>
    <tag k="surface" v="paved"/>
  </way>
  <way id="17167500" version="3" timestamp="2008-01-10T02:36:14Z" uid="4467" user="Rosscoe" changeset="589280">
    <nd ref="178288395"/>
    <nd ref="178288768"/>
    <nd ref="178288768"/>
    <tag k="created_by" v="JOSM"/>
    <tag k="highway" v="residential"/>
    <tag k="name" v="Joan Street"/>
    <tag k="source" v="gpsdrivetrack"/>
    <tag k="surface" v="paved"/>
  </way>
  <way id="17167500" version="4" timestamp="2008-10-14T21:59:46Z" uid="4467" user="Rosscoe" changeset="342472">
    <nd ref="178288395"/>
    <nd ref="178288768"/>
    <nd ref="178288768"/>
    <tag k="created_by" v="Potlatch 0.10e"/>
    <tag k="highway" v="residential"/>
    <tag k="name" v="Joan Street"/>
    <tag k="source" v="survey"/>
    <tag k="surface" v="paved"/>
  </way>
  <way id="17167501" version="1" timestamp="2007-12-19T08:36:22Z" uid="4467" user="Rosscoe" changeset="357330">
    <nd ref="178287918"/>
    <nd ref="178287918"/>
    <tag k="created_by" v="JOSM"/>
    <tag k="name" v="Lurline Drive"/>
  </way>
  <way id="17167503" version="1" timestamp="2007-12-19T08:36:23Z" uid="4467" user="Rosscoe" changeset="357330">
    <nd ref="178288783"/>
    <nd ref="178289224"/>
    <nd ref="178288631"/>
    <tag k="created_by" v="JOSM"/>
    <tag k="highway" v="residential"/>
    <tag k="name" v="Hinschen Street"/>
    <tag k="source" v="gpsdrivetrack"/>
    <tag k="surface" v="paved"/>
  </way>
  <way id="17167503" version="2" timestamp="2007-12-21T23:55:43Z" uid="4467" user="Rosscoe" changeset="385886">
    <nd ref="178288783"/>
    <nd ref="178289224"/>
    <nd ref="178288631"/>
    <tag k="created_by" v="JOSM"/>
    <tag k="highway" v="residential"/>
    <tag k="name" v="Hinschen Street"/>
    <tag k="source" v="gpsdrivetrack"/>
    <tag k="surface" v="paved"/>
  </way>
  <way id="17167503" version="3" timestamp="2007-12-27T01:49:52Z" uid="4467" user="Rosscoe" changeset="434591">
    <nd ref="178288783"/>
    <nd ref="178289224"/>
    <nd ref="191219477"/>
    <nd ref="191218238"/>
    <nd ref="191219857"/>
    <nd ref="191219380"/>
    <nd ref="178288631"/>
    <tag k="created_by" v="JOSM"/>
    <tag k="highway" v="residential"/>
    <tag k="name" v="Hinschen Street"/>
    <tag k="source" v="gpsdrivetrack"/>
    <tag k="surface" v="paved"/>
  </way>
  <way id="17167503" version="4" timestamp="2008-01-10T02:36:12Z" uid="4467" user="Rosscoe" changeset="589280">
    <nd ref="178288783"/>
    <nd ref="178289224"/>
    <nd ref="191219477"/>
    <nd ref="191218238"/>
    <nd ref="191219857"/>
    <nd ref="191219380"/>
    <nd ref="178288631"/>
    <tag k="created_by" v="JOSM"/>
    <tag k="highway" v="residential"/>
    <tag k="name" v="Hinschen Street"/>
    <tag k="source" v="gpsdrivetrack"/>
    <tag k="surface" v="paved"/>
  </way>
  <way id="17167503" version="5" timestamp="2009-01-25T00:13:08Z" uid="4467" user="Rosscoe" changeset="832900">
    <nd ref="178288783"/>
    <nd ref="178289224"/>
    <nd ref="191219477"/>
    <nd ref="191218238"/>
    <nd ref="191219857"/>
    <nd ref="191219380"/>
    <nd ref="178288631"/>
    <tag k="created_by" v="JOSM"/>
    <tag k="highway" v="residential"/>
    <tag k="name" v="Hinschen Street"/>
    <tag k="source" v="survey"/>
    <tag k="surface" v="paved"/>
  </way>
  <way id="17167503" version="6" timestamp="2009-06-04T03:18:03Z" uid="4467" user="Rosscoe" changeset="1418127">
    <nd ref="178288783"/>
    <nd ref="415529995"/>
    <nd ref="178289224"/>
    <nd ref="191219477"/>
    <nd ref="191218238"/>
    <nd ref="191219857"/>
    <nd ref="191219380"/>
    <nd ref="178288631"/>
    <tag k="created_by" v="JOSM"/>
    <tag k="highway" v="residential"/>
    <tag k="name" v="Hinschen Street"/>
    <tag k="source" v="survey"/>
    <tag k="surface" v="paved"/>
  </way>
  <way id="17167503" version="7" timestamp="2009-07-01T11:52:58Z" uid="4467" user="Rosscoe" changeset="1700058">
    <nd ref="178288783"/>
    <nd ref="415529995"/>
    <nd ref="178289224"/>
    <nd ref="191219477"/>
    <nd ref="191218238"/>
    <nd ref="191219857"/>
    <nd ref="191219380"/>
    <nd ref="172521045"/>
    <tag k="created_by" v="JOSM"/>
    <tag k="highway" v="residential"/>
    <tag k="name" v="Hinschen Street"/>
    <tag k="source" v="survey"/>
    <tag k="surface" v="paved"/>
  </way>
  <way id="17167503" version="8" timestamp="2011-01-02T04:32:25Z" uid="4467" user="Rosscoe" changeset="6835067">
    <nd ref="178288783"/>
    <nd ref="1078097828"/>
    <nd ref="415529995"/>
    <nd ref="178289224"/>
    <nd ref="191219477"/>
    <nd ref="191218238"/>
    <nd ref="191219857"/>
    <nd ref="191219380"/>
    <nd ref="172521045"/>
    <tag k="highway" v="residential"/>
    <tag k="name" v="Hinschen Street"/>
    <tag k="source" v="survey"/>
    <tag k="surface" v="paved"/>
  </way>
  <way id="17167505" version="1" timestamp="2007-12-19T08:36:23Z" uid="4467" user="Rosscoe" changeset="357330">
    <nd ref="178289224"/>
    <nd ref="178289242"/>
    <nd ref="178289253"/>
    <nd ref="178289148"/>
    <nd ref="178289164"/>
    <nd ref="178289182"/>
    <nd ref="178289198"/>
    <nd ref="178289322"/>
    <nd ref="178289336"/>
    <nd ref="178289348"/>
    <nd ref="178289360"/>
    <nd ref="178289291"/>
    <nd ref="178287804"/>
    <nd ref="178289268"/>
    <nd ref="178289083"/>
    <nd ref="178288546"/>
    <nd ref="178289279"/>
    <tag k="created_by" v="JOSM"/>
    <tag k="highway" v="residential"/>
    <tag k="name" v="Anzac Road"/>
    <tag k="source" v="gpsdrivetrack"/>
    <tag k="surface" v="paved"/>
  </way>
  <way id="17167505" version="2" timestamp="2007-12-31T13:43:30Z" uid="4467" user="Rosscoe" changeset="492610">
    <nd ref="178289224"/>
    <nd ref="178289242"/>
    <nd ref="178289253"/>
    <nd ref="178289148"/>
    <nd ref="178289164"/>
    <nd ref="178289182"/>
    <nd ref="178289198"/>
    <nd ref="178289322"/>
    <nd ref="178289336"/>
    <nd ref="178289348"/>
    <nd ref="178289360"/>
    <nd ref="178289291"/>
    <nd ref="178287804"/>
    <nd ref="178289268"/>
    <nd ref="178289083"/>
    <nd ref="178288546"/>
    <nd ref="178289279"/>
    <tag k="created_by" v="JOSM"/>
    <tag k="highway" v="residential"/>
    <tag k="name" v="Anzac Road"/>
    <tag k="source" v="gpsdrivetrack"/>
    <tag k="surface" v="paved"/>
  </way>
  <way id="17167505" version="3" timestamp="2008-01-10T02:37:05Z" uid="4467" user="Rosscoe" changeset="589280">
    <nd ref="178289224"/>
    <nd ref="178289242"/>
    <nd ref="178289253"/>
    <nd ref="178289148"/>
    <nd ref="178289164"/>
    <nd ref="178289182"/>
    <nd ref="178289198"/>
    <nd ref="178289322"/>
    <nd ref="178289336"/>
    <nd ref="178289348"/>
    <nd ref="178289360"/>
    <nd ref="178289291"/>
    <nd ref="178287804"/>
    <nd ref="178289268"/>
    <nd ref="178289083"/>
    <nd ref="178288546"/>
    <nd ref="178289279"/>
    <tag k="created_by" v="JOSM"/>
    <tag k="highway" v="residential"/>
    <tag k="name" v="Anzac Road"/>
    <tag k="source" v="gpsdrivetrack"/>
    <tag k="surface" v="paved"/>
  </way>
  <way id="17167505" version="4" timestamp="2008-10-14T22:01:03Z" uid="4467" user="Rosscoe" changeset="342472">
    <nd ref="178289224"/>
    <nd ref="178289242"/>
    <nd ref="178289253"/>
    <nd ref="178289148"/>
    <nd ref="178289164"/>
    <nd ref="178289182"/>
    <nd ref="178289198"/>
    <nd ref="178289322"/>
    <nd ref="178289336"/>
    <nd ref="178289348"/>
    <nd ref="178289360"/>
    <nd ref="178289291"/>
    <nd ref="178287804"/>
    <nd ref="178289268"/>
    <nd ref="178289083"/>
    <nd ref="178288546"/>
    <nd ref="178289279"/>
    <tag k="created_by" v="Potlatch 0.10e"/>
    <tag k="highway" v="residential"/>
    <tag k="name" v="Anzac Road"/>
    <tag k="source" v="survey"/>
    <tag k="surface" v="paved"/>
  </way>
  <way id="17167509" version="1" timestamp="2007-12-19T08:36:24Z" uid="4467" user="Rosscoe" changeset="357330">
    <nd ref="178288291"/>
    <nd ref="178288811"/>
    <nd ref="178288269"/>
    <tag k="created_by" v="JOSM"/>
    <tag k="highway" v="residential"/>
    <tag k="name" v="Kanandah Street"/>
    <tag k="source" v="gpsdrivetrack"/>
    <tag k="surface" v="paved"/>
  </way>
  <way id="17167509" version="2" timestamp="2007-12-21T23:56:07Z" uid="4467" user="Rosscoe" changeset="385886">
    <nd ref="178288291"/>
    <nd ref="178288811"/>
    <nd ref="178288269"/>
    <tag k="created_by" v="JOSM"/>
    <tag k="highway" v="residential"/>
    <tag k="name" v="Kanandah Street"/>
    <tag k="source" v="gpsdrivetrack"/>
    <tag k="surface" v="paved"/>
  </way>
  <way id="17167509" version="3" timestamp="2008-01-10T02:37:11Z" uid="4467" user="Rosscoe" changeset="589280">
    <nd ref="178288291"/>
    <nd ref="178288811"/>
    <nd ref="178288269"/>
    <tag k="created_by" v="JOSM"/>
    <tag k="highway" v="residential"/>
    <tag k="name" v="Kanandah Street"/>
    <tag k="source" v="gpsdrivetrack"/>
    <tag k="surface" v="paved"/>
  </way>
  <way id="17167509" version="4" timestamp="2008-10-14T21:59:33Z" uid="4467" user="Rosscoe" changeset="342472">
    <nd ref="178288291"/>
    <nd ref="178288811"/>
    <nd ref="178288269"/>
    <tag k="created_by" v="Potlatch 0.10e"/>
    <tag k="highway" v="residential"/>
    <tag k="name" v="Kanandah Street"/>
    <tag k="source" v="survey"/>
    <tag k="surface" v="paved"/>
  </way>
  <way id="17167513" version="1" timestamp="2007-12-19T08:36:25Z" uid="4467" user="Rosscoe" changeset="357330">
    <nd ref="178287901"/>
    <nd ref="178288891"/>
    <nd ref="178287918"/>
    <nd ref="178287932"/>
    <nd ref="178287949"/>
    <nd ref="178288009"/>
    <nd ref="178287967"/>
    <nd ref="178288092"/>
    <nd ref="178288072"/>
    <nd ref="178288115"/>
    <nd ref="178288105"/>
    <nd ref="178288144"/>
    <nd ref="178288133"/>
    <nd ref="178288193"/>
    <nd ref="178288180"/>
    <nd ref="178288221"/>
    <nd ref="178288221"/>
    <nd ref="178288855"/>
    <nd ref="178288207"/>
    <tag k="created_by" v="JOSM"/>
    <tag k="highway" v="residential"/>
    <tag k="name" v="Lurline Drive"/>
    <tag k="source" v="gpsdrivetrack"/>
    <tag k="surface" v="paved"/>
  </way>
  <way id="17167513" version="2" timestamp="2008-01-10T02:36:52Z" uid="4467" user="Rosscoe" changeset="589280">
    <nd ref="178287901"/>
    <nd ref="178288891"/>
    <nd ref="178287918"/>
    <nd ref="178287932"/>
    <nd ref="178287949"/>
    <nd ref="178288009"/>
    <nd ref="178287967"/>
    <nd ref="178288092"/>
    <nd ref="178288072"/>
    <nd ref="178288115"/>
    <nd ref="178288105"/>
    <nd ref="178288144"/>
    <nd ref="178288133"/>
    <nd ref="178288193"/>
    <nd ref="178288180"/>
    <nd ref="178288221"/>
    <nd ref="178288221"/>
    <nd ref="178288855"/>
    <nd ref="178288207"/>
    <tag k="created_by" v="JOSM"/>
    <tag k="highway" v="residential"/>
    <tag k="name" v="Lurline Drive"/>
    <tag k="source" v="gpsdrivetrack"/>
    <tag k="surface" v="paved"/>
  </way>
  <way id="17167513" version="3" timestamp="2008-10-14T22:00:41Z" uid="4467" user="Rosscoe" changeset="342472">
    <nd ref="178287901"/>
    <nd ref="178288891"/>
    <nd ref="178287918"/>
    <nd ref="178287932"/>
    <nd ref="178287949"/>
    <nd ref="178288009"/>
    <nd ref="178287967"/>
    <nd ref="178288092"/>
    <nd ref="178288072"/>
    <nd ref="178288115"/>
    <nd ref="178288105"/>
    <nd ref="178288144"/>
    <nd ref="178288133"/>
    <nd ref="178288193"/>
    <nd ref="178288180"/>
    <nd ref="178288221"/>
    <nd ref="178288221"/>
    <nd ref="178288855"/>
    <nd ref="178288207"/>
    <tag k="created_by" v="Potlatch 0.10e"/>
    <tag k="highway" v="residential"/>
    <tag k="name" v="Lurline Drive"/>
    <tag k="source" v="survey"/>
    <tag k="surface" v="paved"/>
  </way>
  <way id="17167513" version="5" timestamp="2011-01-02T09:41:30Z" uid="4467" user="Rosscoe" changeset="6836336">
    <nd ref="178287901"/>
    <nd ref="178288891"/>
    <nd ref="178287949"/>
    <nd ref="178288009"/>
    <nd ref="178288092"/>
    <nd ref="178288144"/>
    <nd ref="178288193"/>
    <nd ref="178288180"/>
    <nd ref="178288855"/>
    <nd ref="178288207"/>
    <tag k="highway" v="residential"/>
    <tag k="name" v="Lurline Drive"/>
    <tag k="source" v="survey"/>
    <tag k="surface" v="paved"/>
  </way>
  <way id="17167516" version="1" timestamp="2007-12-19T08:36:26Z" uid="4467" user="Rosscoe" changeset="357330">
    <nd ref="178288472"/>
    <nd ref="178288546"/>
    <nd ref="178287768"/>
    <nd ref="178288312"/>
    <tag k="created_by" v="JOSM"/>
    <tag k="highway" v="residential"/>
    <tag k="name" v="Jupp Street"/>
    <tag k="source" v="gpsdrivetrack"/>
    <tag k="surface" v="paved"/>
  </way>
  <way id="17167516" version="2" timestamp="2007-12-21T23:56:03Z" uid="4467" user="Rosscoe" changeset="385886">
    <nd ref="178288472"/>
    <nd ref="178288546"/>
    <nd ref="178287768"/>
    <nd ref="178288312"/>
    <tag k="created_by" v="JOSM"/>
    <tag k="highway" v="residential"/>
    <tag k="name" v="Jupp Street"/>
    <tag k="source" v="gpsdrivetrack"/>
    <tag k="surface" v="paved"/>
  </way>
  <way id="17167516" version="3" timestamp="2008-01-10T02:37:01Z" uid="4467" user="Rosscoe" changeset="589280">
    <nd ref="178288472"/>
    <nd ref="178288546"/>
    <nd ref="178287768"/>
    <nd ref="178288312"/>
    <tag k="created_by" v="JOSM"/>
    <tag k="highway" v="residential"/>
    <tag k="name" v="Jupp Street"/>
    <tag k="source" v="gpsdrivetrack"/>
    <tag k="surface" v="paved"/>
  </way>
  <way id="17167516" version="4" timestamp="2008-10-14T22:00:57Z" uid="4467" user="Rosscoe" changeset="342472">
    <nd ref="178288472"/>
    <nd ref="178288546"/>
    <nd ref="178287768"/>
    <nd ref="178288312"/>
    <tag k="created_by" v="Potlatch 0.10e"/>
    <tag k="highway" v="residential"/>
    <tag k="name" v="Jupp Street"/>
    <tag k="source" v="survey"/>
    <tag k="surface" v="paved"/>
  </way>
  <way id="17167516" version="5" timestamp="2011-01-02T09:41:25Z" uid="4467" user="Rosscoe" changeset="6836336">
    <nd ref="178288472"/>
    <nd ref="1078460611"/>
    <nd ref="1078460886"/>
    <nd ref="178288546"/>
    <nd ref="178287768"/>
    <nd ref="178288312"/>
    <tag k="highway" v="residential"/>
    <tag k="name" v="Jupp Street"/>
    <tag k="source" v="survey"/>
    <tag k="surface" v="paved"/>
  </way>
  <way id="17167519" version="1" timestamp="2007-12-19T08:36:27Z" uid="4467" user="Rosscoe" changeset="357330">
    <nd ref="178288092"/>
    <nd ref="178288092"/>
    <tag k="created_by" v="JOSM"/>
    <tag k="name" v="Lurline Drive"/>
  </way>
  <way id="17167524" version="1" timestamp="2007-12-19T08:36:28Z" uid="4467" user="Rosscoe" changeset="357330">
    <nd ref="178288811"/>
    <nd ref="178288879"/>
    <tag k="created_by" v="JOSM"/>
    <tag k="highway" v="residential"/>
    <tag k="name" v="Foxlee Street"/>
    <tag k="source" v="gpsdrivetrack"/>
    <tag k="surface" v="paved"/>
  </way>
  <way id="17167524" version="2" timestamp="2008-01-10T02:37:38Z" uid="4467" user="Rosscoe" changeset="589280">
    <nd ref="178288811"/>
    <nd ref="178288879"/>
    <tag k="created_by" v="JOSM"/>
    <tag k="highway" v="residential"/>
    <tag k="name" v="Foxlee Street"/>
    <tag k="source" v="gpsdrivetrack"/>
    <tag k="surface" v="paved"/>
  </way>
  <way id="17167524" version="3" timestamp="2008-10-14T21:59:38Z" uid="4467" user="Rosscoe" changeset="342472">
    <nd ref="178288811"/>
    <nd ref="178288879"/>
    <tag k="created_by" v="Potlatch 0.10e"/>
    <tag k="highway" v="residential"/>
    <tag k="name" v="Foxlee Street"/>
    <tag k="source" v="survey"/>
    <tag k="surface" v="paved"/>
  </way>
  <way id="17167527" version="1" timestamp="2007-12-19T08:36:28Z" uid="4467" user="Rosscoe" changeset="357330">
    <nd ref="178289066"/>
    <nd ref="178289060"/>
    <nd ref="178289044"/>
    <tag k="created_by" v="JOSM"/>
    <tag k="highway" v="residential"/>
    <tag k="name" v="Compton Street"/>
    <tag k="source" v="gpsdrivetrack"/>
    <tag k="surface" v="paved"/>
  </way>
  <way id="17167527" version="2" timestamp="2007-12-21T23:55:57Z" uid="4467" user="Rosscoe" changeset="385886">
    <nd ref="178289066"/>
    <nd ref="178289060"/>
    <nd ref="178289044"/>
    <tag k="created_by" v="JOSM"/>
    <tag k="highway" v="residential"/>
    <tag k="name" v="Compton Street"/>
    <tag k="source" v="gpsdrivetrack"/>
    <tag k="surface" v="paved"/>
  </way>
  <way id="17167527" version="3" timestamp="2008-01-10T02:37:42Z" uid="4467" user="Rosscoe" changeset="589280">
    <nd ref="178289066"/>
    <nd ref="178289060"/>
    <nd ref="178289044"/>
    <tag k="created_by" v="JOSM"/>
    <tag k="highway" v="residential"/>
    <tag k="name" v="Compton Street"/>
    <tag k="source" v="gpsdrivetrack"/>
    <tag k="surface" v="paved"/>
  </way>
  <way id="17167527" version="4" timestamp="2008-10-14T21:59:48Z" uid="4467" user="Rosscoe" changeset="342472">
    <nd ref="178289066"/>
    <nd ref="178289060"/>
    <nd ref="178289044"/>
    <tag k="created_by" v="Potlatch 0.10e"/>
    <tag k="highway" v="residential"/>
    <tag k="name" v="Compton Street"/>
    <tag k="source" v="survey"/>
    <tag k="surface" v="paved"/>
  </way>
  <way id="17167528" version="1" timestamp="2007-12-19T08:36:29Z" uid="4467" user="Rosscoe" changeset="357330">
    <nd ref="178288891"/>
    <nd ref="178288855"/>
    <tag k="created_by" v="JOSM"/>
    <tag k="highway" v="residential"/>
    <tag k="name" v="Eddie Street"/>
    <tag k="source" v="gpsdrivetrack"/>
    <tag k="surface" v="paved"/>
  </way>
  <way id="17167528" version="2" timestamp="2008-01-10T02:37:18Z" uid="4467" user="Rosscoe" changeset="589280">
    <nd ref="178288891"/>
    <nd ref="178288855"/>
    <tag k="created_by" v="JOSM"/>
    <tag k="highway" v="residential"/>
    <tag k="name" v="Eddie Street"/>
    <tag k="source" v="gpsdrivetrack"/>
    <tag k="surface" v="paved"/>
  </way>
  <way id="17167528" version="3" timestamp="2008-10-14T22:00:35Z" uid="4467" user="Rosscoe" changeset="342472">
    <nd ref="178288891"/>
    <nd ref="178288855"/>
    <tag k="created_by" v="Potlatch 0.10e"/>
    <tag k="highway" v="residential"/>
    <tag k="name" v="Eddie Street"/>
    <tag k="source" v="survey"/>
    <tag k="surface" v="paved"/>
  </way>
  <way id="17167531" version="1" timestamp="2007-12-19T08:36:30Z" uid="4467" user="Rosscoe" changeset="357330">
    <nd ref="178288709"/>
    <nd ref="178288966"/>
    <nd ref="178288827"/>
    <tag k="created_by" v="JOSM"/>
    <tag k="highway" v="residential"/>
    <tag k="name" v="Fuller Street East"/>
    <tag k="source" v="gpsdrivetrack"/>
    <tag k="surface" v="paved"/>
  </way>
  <way id="17167531" version="2" timestamp="2008-01-10T02:37:29Z" uid="4467" user="Rosscoe" changeset="589280">
    <nd ref="178288709"/>
    <nd ref="178288966"/>
    <nd ref="178288827"/>
    <tag k="created_by" v="JOSM"/>
    <tag k="highway" v="residential"/>
    <tag k="name" v="Fuller Street East"/>
    <tag k="source" v="gpsdrivetrack"/>
    <tag k="surface" v="paved"/>
  </way>
  <way id="17167531" version="3" timestamp="2008-10-14T22:01:53Z" uid="4467" user="Rosscoe" changeset="342472">
    <nd ref="178288709"/>
    <nd ref="178288966"/>
    <nd ref="178288827"/>
    <tag k="created_by" v="Potlatch 0.10e"/>
    <tag k="highway" v="residential"/>
    <tag k="name" v="Fuller Street East"/>
    <tag k="source" v="survey"/>
    <tag k="surface" v="paved"/>
  </way>
  <way id="17167534" version="1" timestamp="2007-12-19T08:36:31Z" uid="4467" user="Rosscoe" changeset="357330">
    <nd ref="178288840"/>
    <nd ref="178288800"/>
    <tag k="created_by" v="JOSM"/>
    <tag k="highway" v="residential"/>
    <tag k="name" v="Fuller Street"/>
    <tag k="source" v="gpsdrivetrack"/>
    <tag k="surface" v="paved"/>
  </way>
  <way id="17167534" version="2" timestamp="2007-12-23T04:33:40Z" uid="4467" user="Rosscoe" changeset="404364">
    <nd ref="178288840"/>
    <nd ref="184467529"/>
    <nd ref="178288800"/>
    <tag k="created_by" v="JOSM"/>
    <tag k="highway" v="residential"/>
    <tag k="name" v="Fuller Street"/>
    <tag k="source" v="gpsdrivetrack"/>
    <tag k="surface" v="paved"/>
  </way>
  <way id="17167534" version="3" timestamp="2008-01-10T02:37:35Z" uid="4467" user="Rosscoe" changeset="589280">
    <nd ref="178288840"/>
    <nd ref="184467529"/>
    <nd ref="178288800"/>
    <tag k="created_by" v="JOSM"/>
    <tag k="highway" v="residential"/>
    <tag k="name" v="Fuller Street"/>
    <tag k="source" v="gpsdrivetrack"/>
    <tag k="surface" v="paved"/>
  </way>
  <way id="17167534" version="4" timestamp="2008-10-14T22:01:34Z" uid="4467" user="Rosscoe" changeset="342472">
    <nd ref="178288840"/>
    <nd ref="184467529"/>
    <nd ref="178288800"/>
    <tag k="created_by" v="Potlatch 0.10e"/>
    <tag k="highway" v="residential"/>
    <tag k="name" v="Fuller Street"/>
    <tag k="source" v="survey"/>
    <tag k="surface" v="paved"/>
  </way>
  <way id="17167536" version="1" timestamp="2007-12-19T08:36:32Z" uid="4467" user="Rosscoe" changeset="357330">
    <nd ref="178289927"/>
    <nd ref="178290922"/>
    <tag k="created_by" v="JOSM"/>
    <tag k="highway" v="residential"/>
    <tag k="name" v="Bellview Close"/>
    <tag k="source" v="gpsdrivetrack"/>
    <tag k="surface" v="paved"/>
  </way>
  <way id="17167536" version="2" timestamp="2008-01-10T02:38:01Z" uid="4467" user="Rosscoe" changeset="589280">
    <nd ref="178289927"/>
    <nd ref="178290922"/>
    <tag k="created_by" v="JOSM"/>
    <tag k="highway" v="residential"/>
    <tag k="name" v="Bellview Close"/>
    <tag k="source" v="gpsdrivetrack"/>
    <tag k="surface" v="paved"/>
  </way>
  <way id="17167536" version="3" timestamp="2009-01-25T00:13:38Z" uid="4467" user="Rosscoe" changeset="832900">
    <nd ref="178289927"/>
    <nd ref="178290922"/>
    <tag k="created_by" v="JOSM"/>
    <tag k="highway" v="residential"/>
    <tag k="name" v="Bellview Close"/>
    <tag k="source" v="survey"/>
    <tag k="surface" v="paved"/>
  </way>
  <way id="17167542" version="1" timestamp="2007-12-19T08:36:33Z" uid="4467" user="Rosscoe" changeset="357330">
    <nd ref="178290025"/>
    <nd ref="178290041"/>
    <nd ref="178290096"/>
    <nd ref="178290114"/>
    <nd ref="178290077"/>
    <nd ref="178290085"/>
    <nd ref="178290172"/>
    <tag k="created_by" v="JOSM"/>
    <tag k="highway" v="residential"/>
    <tag k="name" v="Pepperberry Lane"/>
    <tag k="source" v="gpsdrivetrack"/>
    <tag k="surface" v="paved"/>
  </way>
  <way id="17167542" version="2" timestamp="2008-01-10T02:38:13Z" uid="4467" user="Rosscoe" changeset="589280">
    <nd ref="178290025"/>
    <nd ref="178290041"/>
    <nd ref="178290096"/>
    <nd ref="178290114"/>
    <nd ref="178290077"/>
    <nd ref="178290085"/>
    <nd ref="178290172"/>
    <tag k="created_by" v="JOSM"/>
    <tag k="highway" v="residential"/>
    <tag k="name" v="Pepperberry Lane"/>
    <tag k="source" v="gpsdrivetrack"/>
    <tag k="surface" v="paved"/>
  </way>
  <way id="17167542" version="3" timestamp="2009-01-25T00:13:42Z" uid="4467" user="Rosscoe" changeset="832900">
    <nd ref="178290025"/>
    <nd ref="178290041"/>
    <nd ref="178290096"/>
    <nd ref="178290114"/>
    <nd ref="178290077"/>
    <nd ref="178290085"/>
    <nd ref="178290172"/>
    <tag k="created_by" v="JOSM"/>
    <tag k="highway" v="residential"/>
    <tag k="name" v="Pepperberry Lane"/>
    <tag k="source" v="survey"/>
    <tag k="surface" v="paved"/>
  </way>
  <way id="17167548" version="1" timestamp="2007-12-19T08:36:33Z" uid="4467" user="Rosscoe" changeset="357330">
    <nd ref="178290158"/>
    <nd ref="178290145"/>
    <nd ref="178290131"/>
    <nd ref="178290131"/>
    <nd ref="178290680"/>
    <nd ref="178290749"/>
    <nd ref="178290222"/>
    <nd ref="178290210"/>
    <nd ref="178290196"/>
    <nd ref="178290183"/>
    <nd ref="178290301"/>
    <nd ref="178290258"/>
    <nd ref="178290249"/>
    <nd ref="178290237"/>
    <nd ref="178290351"/>
    <tag k="created_by" v="JOSM"/>
    <tag k="highway" v="residential"/>
    <tag k="name" v="Orchid Road"/>
    <tag k="source" v="gpsdrivetrack"/>
    <tag k="surface" v="paved"/>
  </way>
  <way id="17167548" version="2" timestamp="2007-12-21T23:49:38Z" uid="4467" user="Rosscoe" changeset="385886">
    <nd ref="178290158"/>
    <nd ref="178290145"/>
    <nd ref="178290131"/>
    <nd ref="178290131"/>
    <nd ref="178290680"/>
    <nd ref="178290749"/>
    <nd ref="178290222"/>
    <nd ref="178290210"/>
    <nd ref="178290196"/>
    <nd ref="178290183"/>
    <nd ref="178290301"/>
    <nd ref="178290258"/>
    <nd ref="178290249"/>
    <nd ref="178290237"/>
    <nd ref="178290351"/>
    <tag k="created_by" v="JOSM"/>
    <tag k="highway" v="residential"/>
    <tag k="name" v="Orchid Road"/>
    <tag k="source" v="gpsdrivetrack"/>
    <tag k="surface" v="paved"/>
  </way>
  <way id="17167548" version="3" timestamp="2008-01-10T02:37:54Z" uid="4467" user="Rosscoe" changeset="589280">
    <nd ref="178290158"/>
    <nd ref="178290145"/>
    <nd ref="178290131"/>
    <nd ref="178290131"/>
    <nd ref="178290680"/>
    <nd ref="178290749"/>
    <nd ref="178290222"/>
    <nd ref="178290210"/>
    <nd ref="178290196"/>
    <nd ref="178290183"/>
    <nd ref="178290301"/>
    <nd ref="178290258"/>
    <nd ref="178290249"/>
    <nd ref="178290237"/>
    <nd ref="178290351"/>
    <tag k="created_by" v="JOSM"/>
    <tag k="highway" v="residential"/>
    <tag k="name" v="Orchid Road"/>
    <tag k="source" v="gpsdrivetrack"/>
    <tag k="surface" v="paved"/>
  </way>
  <way id="17167548" version="5" timestamp="2009-01-25T00:13:35Z" uid="4467" user="Rosscoe" changeset="832900">
    <nd ref="178290158"/>
    <nd ref="178290145"/>
    <nd ref="178290131"/>
    <nd ref="178290680"/>
    <nd ref="178290749"/>
    <nd ref="178290222"/>
    <nd ref="178290210"/>
    <nd ref="178290196"/>
    <nd ref="178290183"/>
    <nd ref="178290301"/>
    <nd ref="178290258"/>
    <nd ref="178290249"/>
    <nd ref="178290237"/>
    <nd ref="178290351"/>
    <tag k="created_by" v="JOSM"/>
    <tag k="highway" v="residential"/>
    <tag k="name" v="Orchid Road"/>
    <tag k="source" v="survey"/>
    <tag k="surface" v="paved"/>
  </way>
  <way id="17167550" version="1" timestamp="2007-12-19T08:36:34Z" uid="4467" user="Rosscoe" changeset="357330">
    <nd ref="178289465"/>
    <nd ref="178289481"/>
    <nd ref="178289493"/>
    <tag k="created_by" v="JOSM"/>
    <tag k="highway" v="residential"/>
    <tag k="name" v="Valley Drive"/>
    <tag k="source" v="gpsdrivetrack"/>
    <tag k="surface" v="paved"/>
  </way>
  <way id="17167550" version="2" timestamp="2007-12-21T23:46:54Z" uid="4467" user="Rosscoe" changeset="385886">
    <nd ref="178289465"/>
    <nd ref="178289481"/>
    <nd ref="174722390"/>
    <nd ref="178289493"/>
    <tag k="created_by" v="JOSM"/>
    <tag k="highway" v="residential"/>
    <tag k="name" v="Valley Drive"/>
    <tag k="source" v="gpsdrivetrack"/>
    <tag k="surface" v="paved"/>
  </way>
  <way id="17167550" version="3" timestamp="2008-01-10T02:37:58Z" uid="4467" user="Rosscoe" changeset="589280">
    <nd ref="178289465"/>
    <nd ref="178289481"/>
    <nd ref="174722390"/>
    <nd ref="178289493"/>
    <tag k="created_by" v="JOSM"/>
    <tag k="highway" v="residential"/>
    <tag k="name" v="Valley Drive"/>
    <tag k="source" v="gpsdrivetrack"/>
    <tag k="surface" v="paved"/>
  </way>
  <way id="17167550" version="5" timestamp="2008-12-26T06:50:49Z" uid="4467" user="Rosscoe" changeset="607845">
    <nd ref="251663282"/>
    <nd ref="178289481"/>
    <nd ref="174728796"/>
    <tag k="created_by" v="JOSM"/>
    <tag k="highway" v="residential"/>
    <tag k="name" v="Valley Drive"/>
    <tag k="source" v="survey"/>
    <tag k="surface" v="paved"/>
  </way>
  <way id="17167550" version="6" timestamp="2011-04-30T07:26:50Z" uid="4467" user="Rosscoe" changeset="8009211">
    <nd ref="251663282"/>
    <nd ref="178289481"/>
    <nd ref="174728796"/>
    <tag k="highway" v="residential"/>
    <tag k="name" v="Valley Drive"/>
    <tag k="source" v="survey"/>
    <tag k="surface" v="paved"/>
  </way>
  <way id="17167554" version="1" timestamp="2007-12-19T08:36:35Z" uid="4467" user="Rosscoe" changeset="357330">
    <nd ref="178290342"/>
    <nd ref="178290326"/>
    <tag k="created_by" v="JOSM"/>
    <tag k="highway" v="residential"/>
    <tag k="name" v="Macintosh Drive"/>
    <tag k="source" v="gpsdrivetrack"/>
    <tag k="surface" v="paved"/>
  </way>
  <way id="17167554" version="2" timestamp="2008-01-10T02:33:41Z" uid="4467" user="Rosscoe" changeset="589280">
    <nd ref="178290342"/>
    <nd ref="178290326"/>
    <tag k="created_by" v="JOSM"/>
    <tag k="highway" v="residential"/>
    <tag k="name" v="Macintosh Drive"/>
    <tag k="source" v="gpsdrivetrack"/>
    <tag k="surface" v="paved"/>
  </way>
  <way id="17167554" version="3" timestamp="2009-01-25T00:11:36Z" uid="4467" user="Rosscoe" changeset="832900">
    <nd ref="178290342"/>
    <nd ref="178290326"/>
    <tag k="created_by" v="JOSM"/>
    <tag k="highway" v="residential"/>
    <tag k="name" v="Macintosh Drive"/>
    <tag k="source" v="survey"/>
    <tag k="surface" v="paved"/>
  </way>
  <way id="17167554" version="4" timestamp="2011-04-30T07:27:09Z" uid="4467" user="Rosscoe" changeset="8009211">
    <nd ref="178290342"/>
    <nd ref="178290326"/>
    <tag k="highway" v="residential"/>
    <tag k="name" v="Macintosh Drive"/>
    <tag k="source" v="survey"/>
    <tag k="surface" v="paved"/>
  </way>
  <way id="17167558" version="1" timestamp="2007-12-19T08:36:36Z" uid="4467" user="Rosscoe" changeset="357330">
    <nd ref="178289379"/>
    <nd ref="178289415"/>
    <nd ref="178289429"/>
    <nd ref="178290326"/>
    <nd ref="178289444"/>
    <nd ref="178291027"/>
    <tag k="created_by" v="JOSM"/>
    <tag k="highway" v="residential"/>
    <tag k="name" v="William Murray Drive"/>
    <tag k="source" v="gpsdrivetrack"/>
    <tag k="surface" v="paved"/>
  </way>
  <way id="17167558" version="2" timestamp="2007-12-22T04:28:33Z" uid="4467" user="Rosscoe" changeset="391874">
    <nd ref="178289379"/>
    <nd ref="178289415"/>
    <nd ref="178289429"/>
    <nd ref="178290326"/>
    <nd ref="178289444"/>
    <nd ref="178291027"/>
    <tag k="created_by" v="JOSM"/>
    <tag k="highway" v="residential"/>
    <tag k="name" v="William Murray Drive"/>
    <tag k="source" v="gpsdrivetrack"/>
    <tag k="surface" v="paved"/>
  </way>
  <way id="17167558" version="3" timestamp="2008-01-10T02:33:28Z" uid="4467" user="Rosscoe" changeset="589280">
    <nd ref="178289379"/>
    <nd ref="178289415"/>
    <nd ref="178289429"/>
    <nd ref="178290326"/>
    <nd ref="178289444"/>
    <nd ref="178291027"/>
    <tag k="created_by" v="JOSM"/>
    <tag k="highway" v="residential"/>
    <tag k="name" v="William Murray Drive"/>
    <tag k="source" v="gpsdrivetrack"/>
    <tag k="surface" v="paved"/>
  </way>
  <way id="17167558" version="4" timestamp="2009-01-25T00:11:21Z" uid="4467" user="Rosscoe" changeset="832900">
    <nd ref="178289379"/>
    <nd ref="178289415"/>
    <nd ref="178289429"/>
    <nd ref="178290326"/>
    <nd ref="178289444"/>
    <nd ref="178291027"/>
    <tag k="created_by" v="JOSM"/>
    <tag k="highway" v="residential"/>
    <tag k="name" v="William Murray Drive"/>
    <tag k="source" v="survey"/>
    <tag k="surface" v="paved"/>
  </way>
  <way id="17167558" version="5" timestamp="2011-04-30T07:26:30Z" uid="4467" user="Rosscoe" changeset="8009211">
    <nd ref="178289379"/>
    <nd ref="178289415"/>
    <nd ref="178289429"/>
    <nd ref="178290326"/>
    <nd ref="178289444"/>
    <nd ref="178291027"/>
    <tag k="highway" v="residential"/>
    <tag k="name" v="William Murray Drive"/>
    <tag k="source" v="survey"/>
    <tag k="surface" v="paved"/>
  </way>
  <way id="17167563" version="1" timestamp="2007-12-19T08:36:37Z" uid="4467" user="Rosscoe" changeset="357330">
    <nd ref="178290313"/>
    <nd ref="178290428"/>
    <nd ref="178290441"/>
    <tag k="created_by" v="JOSM"/>
    <tag k="highway" v="residential"/>
    <tag k="name" v="Linscott Place"/>
    <tag k="source" v="gpsdrivetrack"/>
    <tag k="surface" v="paved"/>
  </way>
  <way id="17167563" version="2" timestamp="2007-12-21T23:46:48Z" uid="4467" user="Rosscoe" changeset="385886">
    <nd ref="178290313"/>
    <nd ref="178290428"/>
    <nd ref="178290441"/>
    <tag k="created_by" v="JOSM"/>
    <tag k="highway" v="residential"/>
    <tag k="name" v="Linscott Place"/>
    <tag k="source" v="gpsdrivetrack"/>
    <tag k="surface" v="paved"/>
  </way>
  <way id="17167563" version="3" timestamp="2008-01-10T02:33:25Z" uid="4467" user="Rosscoe" changeset="589280">
    <nd ref="178290313"/>
    <nd ref="178290428"/>
    <nd ref="178290441"/>
    <tag k="created_by" v="JOSM"/>
    <tag k="highway" v="residential"/>
    <tag k="name" v="Linscott Place"/>
    <tag k="source" v="gpsdrivetrack"/>
    <tag k="surface" v="paved"/>
  </way>
  <way id="17167563" version="4" timestamp="2009-01-25T00:11:20Z" uid="4467" user="Rosscoe" changeset="832900">
    <nd ref="178290313"/>
    <nd ref="178290428"/>
    <nd ref="178290441"/>
    <tag k="created_by" v="JOSM"/>
    <tag k="highway" v="residential"/>
    <tag k="name" v="Linscott Place"/>
    <tag k="source" v="survey"/>
    <tag k="surface" v="paved"/>
  </way>
  <way id="17167563" version="5" timestamp="2011-04-30T07:26:46Z" uid="4467" user="Rosscoe" changeset="8009211">
    <nd ref="178290313"/>
    <nd ref="178290428"/>
    <nd ref="178290441"/>
    <tag k="highway" v="residential"/>
    <tag k="name" v="Linscott Place"/>
    <tag k="source" v="survey"/>
    <tag k="surface" v="paved"/>
  </way>
  <way id="17167567" version="1" timestamp="2007-12-19T08:36:38Z" uid="4467" user="Rosscoe" changeset="357330">
    <nd ref="178289551"/>
    <nd ref="178289684"/>
    <nd ref="178289559"/>
    <nd ref="178289572"/>
    <nd ref="178289590"/>
    <nd ref="178289606"/>
    <nd ref="178289626"/>
    <nd ref="178289642"/>
    <nd ref="178289671"/>
    <nd ref="178289651"/>
    <nd ref="178289696"/>
    <nd ref="178289684"/>
    <tag k="created_by" v="JOSM"/>
    <tag k="highway" v="residential"/>
    <tag k="name" v="The Grove"/>
    <tag k="source" v="gpsdrivetrack"/>
    <tag k="surface" v="paved"/>
  </way>
  <way id="17167567" version="2" timestamp="2007-12-21T23:48:39Z" uid="4467" user="Rosscoe" changeset="385886">
    <nd ref="178289551"/>
    <nd ref="178289684"/>
    <nd ref="178289559"/>
    <nd ref="178289572"/>
    <nd ref="178289590"/>
    <nd ref="178289606"/>
    <nd ref="178289626"/>
    <nd ref="178289642"/>
    <nd ref="178289671"/>
    <nd ref="178289651"/>
    <nd ref="178289696"/>
    <nd ref="178289684"/>
    <tag k="created_by" v="JOSM"/>
    <tag k="highway" v="residential"/>
    <tag k="name" v="The Grove"/>
    <tag k="source" v="gpsdrivetrack"/>
    <tag k="surface" v="paved"/>
  </way>
  <way id="17167567" version="3" timestamp="2008-01-10T02:33:13Z" uid="4467" user="Rosscoe" changeset="589280">
    <nd ref="178289551"/>
    <nd ref="178289684"/>
    <nd ref="178289559"/>
    <nd ref="178289572"/>
    <nd ref="178289590"/>
    <nd ref="178289606"/>
    <nd ref="178289626"/>
    <nd ref="178289642"/>
    <nd ref="178289671"/>
    <nd ref="178289651"/>
    <nd ref="178289696"/>
    <nd ref="178289684"/>
    <tag k="created_by" v="JOSM"/>
    <tag k="highway" v="residential"/>
    <tag k="name" v="The Grove"/>
    <tag k="source" v="gpsdrivetrack"/>
    <tag k="surface" v="paved"/>
  </way>
  <way id="17167567" version="4" timestamp="2009-01-25T00:11:05Z" uid="4467" user="Rosscoe" changeset="832900">
    <nd ref="178289551"/>
    <nd ref="178289684"/>
    <nd ref="178289559"/>
    <nd ref="178289572"/>
    <nd ref="178289590"/>
    <nd ref="178289606"/>
    <nd ref="178289626"/>
    <nd ref="178289642"/>
    <nd ref="178289671"/>
    <nd ref="178289651"/>
    <nd ref="178289696"/>
    <nd ref="178289684"/>
    <tag k="created_by" v="JOSM"/>
    <tag k="highway" v="residential"/>
    <tag k="name" v="The Grove"/>
    <tag k="source" v="survey"/>
    <tag k="surface" v="paved"/>
  </way>
  <way id="17167567" version="5" timestamp="2011-04-30T07:27:18Z" uid="4467" user="Rosscoe" changeset="8009211">
    <nd ref="178289551"/>
    <nd ref="178289684"/>
    <nd ref="178289559"/>
    <nd ref="178289572"/>
    <nd ref="178289590"/>
    <nd ref="178289606"/>
    <nd ref="178289626"/>
    <nd ref="178289642"/>
    <nd ref="178289671"/>
    <nd ref="178289651"/>
    <nd ref="178289696"/>
    <nd ref="178289684"/>
    <tag k="highway" v="residential"/>
    <tag k="name" v="The Grove"/>
    <tag k="source" v="survey"/>
    <tag k="surface" v="paved"/>
  </way>
  <way id="17167569" version="1" timestamp="2007-12-19T08:36:39Z" uid="4467" user="Rosscoe" changeset="357330">
    <nd ref="178291008"/>
    <nd ref="178290456"/>
    <nd ref="178290470"/>
    <nd ref="178290367"/>
    <nd ref="178290384"/>
    <nd ref="178290401"/>
    <nd ref="178290418"/>
    <nd ref="178290551"/>
    <nd ref="178290563"/>
    <nd ref="178290579"/>
    <nd ref="178290594"/>
    <nd ref="178290484"/>
    <nd ref="178290499"/>
    <nd ref="178290499"/>
    <nd ref="178290519"/>
    <nd ref="178290534"/>
    <nd ref="178290669"/>
    <nd ref="178290658"/>
    <nd ref="178290697"/>
    <tag k="created_by" v="JOSM"/>
    <tag k="highway" v="residential"/>
    <tag k="name" v="Kookaburra Drive"/>
    <tag k="source" v="gpsdrivetrack"/>
    <tag k="surface" v="paved"/>
  </way>
  <way id="17167569" version="2" timestamp="2007-12-21T23:49:35Z" uid="4467" user="Rosscoe" changeset="385886">
    <nd ref="178291008"/>
    <nd ref="178290456"/>
    <nd ref="178290470"/>
    <nd ref="178290367"/>
    <nd ref="178290384"/>
    <nd ref="178290401"/>
    <nd ref="178290418"/>
    <nd ref="178290551"/>
    <nd ref="178290563"/>
    <nd ref="178290579"/>
    <nd ref="178290594"/>
    <nd ref="178290484"/>
    <nd ref="178290499"/>
    <nd ref="178290499"/>
    <nd ref="178290519"/>
    <nd ref="178290534"/>
    <nd ref="178290669"/>
    <nd ref="178290658"/>
    <nd ref="178290697"/>
    <tag k="created_by" v="JOSM"/>
    <tag k="highway" v="residential"/>
    <tag k="name" v="Kookaburra Drive"/>
    <tag k="source" v="gpsdrivetrack"/>
    <tag k="surface" v="paved"/>
  </way>
  <way id="17167569" version="3" timestamp="2007-12-22T22:57:25Z" uid="4467" user="Rosscoe" changeset="397091">
    <nd ref="178291008"/>
    <nd ref="178290456"/>
    <nd ref="178290470"/>
    <nd ref="178290367"/>
    <nd ref="178290384"/>
    <nd ref="178290401"/>
    <nd ref="178290418"/>
    <nd ref="178290551"/>
    <nd ref="178290563"/>
    <nd ref="178290579"/>
    <nd ref="178290594"/>
    <nd ref="178290484"/>
    <nd ref="178290499"/>
    <nd ref="178290499"/>
    <nd ref="178290519"/>
    <nd ref="178290534"/>
    <nd ref="178290669"/>
    <nd ref="178290658"/>
    <nd ref="178290697"/>
    <tag k="created_by" v="JOSM"/>
    <tag k="highway" v="residential"/>
    <tag k="name" v="Kookaburra Drive"/>
    <tag k="source" v="gpsdrivetrack"/>
    <tag k="surface" v="paved"/>
  </way>
  <way id="17167569" version="4" timestamp="2008-01-10T02:34:24Z" uid="4467" user="Rosscoe" changeset="589280">
    <nd ref="178291008"/>
    <nd ref="178290456"/>
    <nd ref="178290470"/>
    <nd ref="178290367"/>
    <nd ref="178290384"/>
    <nd ref="178290401"/>
    <nd ref="178290418"/>
    <nd ref="178290551"/>
    <nd ref="178290563"/>
    <nd ref="178290579"/>
    <nd ref="178290594"/>
    <nd ref="178290484"/>
    <nd ref="178290499"/>
    <nd ref="178290499"/>
    <nd ref="178290519"/>
    <nd ref="178290534"/>
    <nd ref="178290669"/>
    <nd ref="178290658"/>
    <nd ref="178290697"/>
    <tag k="created_by" v="JOSM"/>
    <tag k="highway" v="residential"/>
    <tag k="name" v="Kookaburra Drive"/>
    <tag k="source" v="gpsdrivetrack"/>
    <tag k="surface" v="paved"/>
  </way>
  <way id="17167569" version="6" timestamp="2009-01-25T00:12:05Z" uid="4467" user="Rosscoe" changeset="832900">
    <nd ref="178291008"/>
    <nd ref="178290456"/>
    <nd ref="178290470"/>
    <nd ref="178290367"/>
    <nd ref="178290384"/>
    <nd ref="178290401"/>
    <nd ref="178290418"/>
    <nd ref="178290551"/>
    <nd ref="178290563"/>
    <nd ref="178290579"/>
    <nd ref="178290594"/>
    <nd ref="178290484"/>
    <nd ref="178290499"/>
    <nd ref="178290519"/>
    <nd ref="178290534"/>
    <nd ref="178290669"/>
    <nd ref="178290658"/>
    <nd ref="178290697"/>
    <tag k="created_by" v="JOSM"/>
    <tag k="highway" v="residential"/>
    <tag k="name" v="Kookaburra Drive"/>
    <tag k="source" v="survey"/>
    <tag k="surface" v="paved"/>
  </way>
  <way id="17167573" version="1" timestamp="2007-12-19T08:36:39Z" uid="4467" user="Rosscoe" changeset="357330">
    <nd ref="178289510"/>
    <nd ref="178289530"/>
    <nd ref="178289530"/>
    <nd ref="178289530"/>
    <nd ref="178289530"/>
    <nd ref="178289530"/>
    <tag k="created_by" v="JOSM"/>
    <tag k="highway" v="residential"/>
    <tag k="name" v="Not Yet Named"/>
    <tag k="source" v="gpsdrivetrack"/>
    <tag k="surface" v="paved"/>
  </way>
  <way id="17167573" version="2" timestamp="2008-01-10T02:34:10Z" uid="4467" user="Rosscoe" changeset="589280">
    <nd ref="178289510"/>
    <nd ref="178289530"/>
    <nd ref="178289530"/>
    <nd ref="178289530"/>
    <nd ref="178289530"/>
    <nd ref="178289530"/>
    <tag k="created_by" v="JOSM"/>
    <tag k="highway" v="residential"/>
    <tag k="name" v="Not Yet Named"/>
    <tag k="source" v="gpsdrivetrack"/>
    <tag k="surface" v="paved"/>
  </way>
  <way id="17167573" version="3" timestamp="2009-01-25T00:11:51Z" uid="4467" user="Rosscoe" changeset="832900">
    <nd ref="178289510"/>
    <nd ref="178289530"/>
    <nd ref="178289530"/>
    <nd ref="178289530"/>
    <nd ref="178289530"/>
    <nd ref="178289530"/>
    <tag k="created_by" v="JOSM"/>
    <tag k="highway" v="residential"/>
    <tag k="name" v="Not Yet Named"/>
    <tag k="source" v="survey"/>
    <tag k="surface" v="paved"/>
  </way>
  <way id="17167573" version="5" timestamp="2009-06-04T04:45:43Z" uid="4467" user="Rosscoe" changeset="1418348">
    <nd ref="178289530"/>
    <nd ref="415533964"/>
    <tag k="created_by" v="JOSM"/>
    <tag k="highway" v="residential"/>
    <tag k="name" v="Not Yet Named"/>
    <tag k="source" v="survey"/>
    <tag k="surface" v="paved"/>
  </way>
  <way id="17167573" version="6" timestamp="2011-04-30T07:27:14Z" uid="4467" user="Rosscoe" changeset="8009211">
    <nd ref="178289530"/>
    <nd ref="415533964"/>
    <tag k="highway" v="residential"/>
    <tag k="name" v="Not Yet Named"/>
    <tag k="source" v="survey"/>
    <tag k="surface" v="paved"/>
  </way>
  <way id="17167577" version="1" timestamp="2007-12-19T08:36:40Z" uid="4467" user="Rosscoe" changeset="357330">
    <nd ref="178290680"/>
    <nd ref="178290614"/>
    <nd ref="178290605"/>
    <nd ref="178290641"/>
    <nd ref="178290628"/>
    <nd ref="178290784"/>
    <nd ref="178290772"/>
    <nd ref="178290853"/>
    <nd ref="178290798"/>
    <nd ref="178290731"/>
    <tag k="created_by" v="JOSM"/>
    <tag k="highway" v="residential"/>
    <tag k="name" v="Hisbiscus Road"/>
    <tag k="source" v="gpsdrivetrack"/>
    <tag k="surface" v="paved"/>
  </way>
  <way id="17167577" version="2" timestamp="2008-01-10T02:33:59Z" uid="4467" user="Rosscoe" changeset="589280">
    <nd ref="178290680"/>
    <nd ref="178290614"/>
    <nd ref="178290605"/>
    <nd ref="178290641"/>
    <nd ref="178290628"/>
    <nd ref="178290784"/>
    <nd ref="178290772"/>
    <nd ref="178290853"/>
    <nd ref="178290798"/>
    <nd ref="178290731"/>
    <tag k="created_by" v="JOSM"/>
    <tag k="highway" v="residential"/>
    <tag k="name" v="Hisbiscus Road"/>
    <tag k="source" v="gpsdrivetrack"/>
    <tag k="surface" v="paved"/>
  </way>
  <way id="17167577" version="3" timestamp="2009-01-25T00:11:49Z" uid="4467" user="Rosscoe" changeset="832900">
    <nd ref="178290680"/>
    <nd ref="178290614"/>
    <nd ref="178290605"/>
    <nd ref="178290641"/>
    <nd ref="178290628"/>
    <nd ref="178290784"/>
    <nd ref="178290772"/>
    <nd ref="178290853"/>
    <nd ref="178290798"/>
    <nd ref="178290731"/>
    <tag k="created_by" v="JOSM"/>
    <tag k="highway" v="residential"/>
    <tag k="name" v="Hisbiscus Road"/>
    <tag k="source" v="survey"/>
    <tag k="surface" v="paved"/>
  </way>
  <way id="17167581" version="1" timestamp="2007-12-19T08:36:41Z" uid="4467" user="Rosscoe" changeset="357330">
    <nd ref="178290049"/>
    <nd ref="178290313"/>
    <nd ref="178290062"/>
    <tag k="created_by" v="JOSM"/>
    <tag k="highway" v="residential"/>
    <tag k="name" v="Ryben Close"/>
    <tag k="source" v="gpsdrivetrack"/>
    <tag k="surface" v="paved"/>
  </way>
  <way id="17167581" version="2" timestamp="2007-12-21T23:46:49Z" uid="4467" user="Rosscoe" changeset="385886">
    <nd ref="178290049"/>
    <nd ref="178290313"/>
    <nd ref="178290062"/>
    <tag k="created_by" v="JOSM"/>
    <tag k="highway" v="residential"/>
    <tag k="name" v="Ryben Close"/>
    <tag k="source" v="gpsdrivetrack"/>
    <tag k="surface" v="paved"/>
  </way>
  <way id="17167581" version="3" timestamp="2008-01-10T02:33:54Z" uid="4467" user="Rosscoe" changeset="589280">
    <nd ref="178290049"/>
    <nd ref="178290313"/>
    <nd ref="178290062"/>
    <tag k="created_by" v="JOSM"/>
    <tag k="highway" v="residential"/>
    <tag k="name" v="Ryben Close"/>
    <tag k="source" v="gpsdrivetrack"/>
    <tag k="surface" v="paved"/>
  </way>
  <way id="17167581" version="4" timestamp="2009-01-25T00:11:42Z" uid="4467" user="Rosscoe" changeset="832900">
    <nd ref="178290049"/>
    <nd ref="178290313"/>
    <nd ref="178290062"/>
    <tag k="created_by" v="JOSM"/>
    <tag k="highway" v="residential"/>
    <tag k="name" v="Ryben Close"/>
    <tag k="source" v="survey"/>
    <tag k="surface" v="paved"/>
  </way>
  <way id="17167581" version="5" timestamp="2011-04-30T07:27:21Z" uid="4467" user="Rosscoe" changeset="8009211">
    <nd ref="178290049"/>
    <nd ref="178290313"/>
    <nd ref="178290062"/>
    <tag k="highway" v="residential"/>
    <tag k="name" v="Ryben Close"/>
    <tag k="source" v="survey"/>
    <tag k="surface" v="paved"/>
  </way>
  <way id="17167583" version="1" timestamp="2007-12-19T08:36:42Z" uid="4467" user="Rosscoe" changeset="357330">
    <nd ref="178290716"/>
    <nd ref="178289379"/>
    <nd ref="178290762"/>
    <tag k="created_by" v="JOSM"/>
    <tag k="highway" v="residential"/>
    <tag k="name" v="Garema Street"/>
    <tag k="source" v="gpsdrivetrack"/>
    <tag k="surface" v="paved"/>
  </way>
  <way id="17167583" version="2" timestamp="2008-01-10T02:33:50Z" uid="4467" user="Rosscoe" changeset="589280">
    <nd ref="178290716"/>
    <nd ref="178289379"/>
    <nd ref="178290762"/>
    <tag k="created_by" v="JOSM"/>
    <tag k="highway" v="residential"/>
    <tag k="name" v="Garema Street"/>
    <tag k="source" v="gpsdrivetrack"/>
    <tag k="surface" v="paved"/>
  </way>
  <way id="17167583" version="3" timestamp="2009-01-25T00:11:38Z" uid="4467" user="Rosscoe" changeset="832900">
    <nd ref="178290716"/>
    <nd ref="178289379"/>
    <nd ref="178290762"/>
    <tag k="created_by" v="JOSM"/>
    <tag k="highway" v="residential"/>
    <tag k="name" v="Garema Street"/>
    <tag k="source" v="survey"/>
    <tag k="surface" v="paved"/>
  </way>
  <way id="17167583" version="4" timestamp="2011-04-30T07:27:06Z" uid="4467" user="Rosscoe" changeset="8009211">
    <nd ref="178290716"/>
    <nd ref="178289379"/>
    <nd ref="178290762"/>
    <tag k="highway" v="residential"/>
    <tag k="name" v="Garema Street"/>
    <tag k="source" v="survey"/>
    <tag k="surface" v="paved"/>
  </way>
  <way id="17167585" version="1" timestamp="2007-12-19T08:36:43Z" uid="4467" user="Rosscoe" changeset="357330">
    <nd ref="178289746"/>
    <nd ref="178289717"/>
    <nd ref="178289774"/>
    <nd ref="178289763"/>
    <nd ref="178290025"/>
    <nd ref="178289801"/>
    <nd ref="178289786"/>
    <nd ref="178289834"/>
    <nd ref="178289820"/>
    <nd ref="178289858"/>
    <nd ref="178289848"/>
    <nd ref="178289890"/>
    <nd ref="178289877"/>
    <nd ref="178289927"/>
    <nd ref="178289939"/>
    <nd ref="178289901"/>
    <nd ref="178289916"/>
    <nd ref="178289995"/>
    <nd ref="178290008"/>
    <nd ref="178289968"/>
    <nd ref="178289981"/>
    <tag k="created_by" v="JOSM"/>
    <tag k="highway" v="residential"/>
    <tag k="name" v="Stanley Drive"/>
    <tag k="source" v="gpsdrivetrack"/>
    <tag k="surface" v="paved"/>
  </way>
  <way id="17167585" version="2" timestamp="2007-12-21T23:49:37Z" uid="4467" user="Rosscoe" changeset="385886">
    <nd ref="178289746"/>
    <nd ref="178289717"/>
    <nd ref="178289774"/>
    <nd ref="178289763"/>
    <nd ref="178290025"/>
    <nd ref="178289801"/>
    <nd ref="178289786"/>
    <nd ref="178289834"/>
    <nd ref="178289820"/>
    <nd ref="178289858"/>
    <nd ref="178289848"/>
    <nd ref="178289890"/>
    <nd ref="178289877"/>
    <nd ref="178289927"/>
    <nd ref="178289939"/>
    <nd ref="178289901"/>
    <nd ref="178289916"/>
    <nd ref="178289995"/>
    <nd ref="178290008"/>
    <nd ref="178289968"/>
    <nd ref="178289981"/>
    <tag k="created_by" v="JOSM"/>
    <tag k="highway" v="residential"/>
    <tag k="name" v="Stanley Drive"/>
    <tag k="source" v="gpsdrivetrack"/>
    <tag k="surface" v="paved"/>
  </way>
  <way id="17167585" version="3" timestamp="2008-01-10T02:35:03Z" uid="4467" user="Rosscoe" changeset="589280">
    <nd ref="178289746"/>
    <nd ref="178289717"/>
    <nd ref="178289774"/>
    <nd ref="178289763"/>
    <nd ref="178290025"/>
    <nd ref="178289801"/>
    <nd ref="178289786"/>
    <nd ref="178289834"/>
    <nd ref="178289820"/>
    <nd ref="178289858"/>
    <nd ref="178289848"/>
    <nd ref="178289890"/>
    <nd ref="178289877"/>
    <nd ref="178289927"/>
    <nd ref="178289939"/>
    <nd ref="178289901"/>
    <nd ref="178289916"/>
    <nd ref="178289995"/>
    <nd ref="178290008"/>
    <nd ref="178289968"/>
    <nd ref="178289981"/>
    <tag k="created_by" v="JOSM"/>
    <tag k="highway" v="residential"/>
    <tag k="name" v="Stanley Drive"/>
    <tag k="source" v="gpsdrivetrack"/>
    <tag k="surface" v="paved"/>
  </way>
  <way id="17167585" version="4" timestamp="2009-01-25T00:12:32Z" uid="4467" user="Rosscoe" changeset="832900">
    <nd ref="178289746"/>
    <nd ref="178289717"/>
    <nd ref="178289774"/>
    <nd ref="178289763"/>
    <nd ref="178290025"/>
    <nd ref="178289801"/>
    <nd ref="178289786"/>
    <nd ref="178289834"/>
    <nd ref="178289820"/>
    <nd ref="178289858"/>
    <nd ref="178289848"/>
    <nd ref="178289890"/>
    <nd ref="178289877"/>
    <nd ref="178289927"/>
    <nd ref="178289939"/>
    <nd ref="178289901"/>
    <nd ref="178289916"/>
    <nd ref="178289995"/>
    <nd ref="178290008"/>
    <nd ref="178289968"/>
    <nd ref="178289981"/>
    <tag k="created_by" v="JOSM"/>
    <tag k="highway" v="residential"/>
    <tag k="name" v="Stanley Drive"/>
    <tag k="source" v="survey"/>
    <tag k="surface" v="paved"/>
  </way>
  <way id="17167587" version="1" timestamp="2007-12-19T08:36:44Z" uid="4467" user="Rosscoe" changeset="357330">
    <nd ref="178290749"/>
    <nd ref="178290977"/>
    <nd ref="178290993"/>
    <nd ref="178290953"/>
    <nd ref="178290965"/>
    <nd ref="178290931"/>
    <nd ref="178290945"/>
    <nd ref="178290895"/>
    <tag k="created_by" v="JOSM"/>
    <tag k="highway" v="residential"/>
    <tag k="name" v="Cedar Court"/>
    <tag k="source" v="gpsdrivetrack"/>
    <tag k="surface" v="paved"/>
  </way>
  <way id="17167587" version="2" timestamp="2007-12-22T23:05:06Z" uid="4467" user="Rosscoe" changeset="397091">
    <nd ref="178290749"/>
    <nd ref="178290977"/>
    <nd ref="178290993"/>
    <nd ref="178290953"/>
    <nd ref="178290965"/>
    <nd ref="178290931"/>
    <nd ref="178290945"/>
    <nd ref="178290895"/>
    <tag k="created_by" v="JOSM"/>
    <tag k="highway" v="residential"/>
    <tag k="name" v="Wattle Road"/>
    <tag k="source" v="gpsdrivetrack"/>
    <tag k="surface" v="paved"/>
  </way>
  <way id="17167587" version="3" timestamp="2008-01-10T02:35:11Z" uid="4467" user="Rosscoe" changeset="589280">
    <nd ref="178290749"/>
    <nd ref="178290977"/>
    <nd ref="178290993"/>
    <nd ref="178290953"/>
    <nd ref="178290965"/>
    <nd ref="178290931"/>
    <nd ref="178290945"/>
    <nd ref="178290895"/>
    <tag k="created_by" v="JOSM"/>
    <tag k="highway" v="residential"/>
    <tag k="name" v="Wattle Road"/>
    <tag k="source" v="gpsdrivetrack"/>
    <tag k="surface" v="paved"/>
  </way>
  <way id="17167587" version="4" timestamp="2009-01-25T00:12:34Z" uid="4467" user="Rosscoe" changeset="832900">
    <nd ref="178290749"/>
    <nd ref="178290977"/>
    <nd ref="178290993"/>
    <nd ref="178290953"/>
    <nd ref="178290965"/>
    <nd ref="178290931"/>
    <nd ref="178290945"/>
    <nd ref="178290895"/>
    <tag k="created_by" v="JOSM"/>
    <tag k="highway" v="residential"/>
    <tag k="name" v="Wattle Road"/>
    <tag k="source" v="survey"/>
    <tag k="surface" v="paved"/>
  </way>
  <way id="17167591" version="1" timestamp="2007-12-19T08:36:45Z" uid="4467" user="Rosscoe" changeset="357330">
    <nd ref="178291568"/>
    <nd ref="178291585"/>
    <nd ref="178291657"/>
    <nd ref="178291657"/>
    <nd ref="178291666"/>
    <nd ref="178291626"/>
    <nd ref="178291626"/>
    <nd ref="178291641"/>
    <nd ref="178291641"/>
    <nd ref="178291705"/>
    <nd ref="178291705"/>
    <nd ref="178291723"/>
    <tag k="created_by" v="JOSM"/>
    <tag k="highway" v="residential"/>
    <tag k="name" v="Pringle Road"/>
    <tag k="source" v="gpsdrive"/>
    <tag k="surface" v="paved"/>
  </way>
  <way id="17167591" version="2" timestamp="2007-12-21T23:48:49Z" uid="4467" user="Rosscoe" changeset="385886">
    <nd ref="178291568"/>
    <nd ref="178291585"/>
    <nd ref="178291657"/>
    <nd ref="178291657"/>
    <nd ref="178291666"/>
    <nd ref="178291626"/>
    <nd ref="178291626"/>
    <nd ref="178291641"/>
    <nd ref="178291641"/>
    <nd ref="178291705"/>
    <nd ref="178291705"/>
    <nd ref="178291723"/>
    <tag k="created_by" v="JOSM"/>
    <tag k="highway" v="residential"/>
    <tag k="name" v="Pringle Road"/>
    <tag k="source" v="gpsdrive"/>
    <tag k="surface" v="paved"/>
  </way>
  <way id="17167591" version="3" timestamp="2007-12-22T22:42:52Z" uid="4467" user="Rosscoe" changeset="397091">
    <nd ref="178291568"/>
    <nd ref="178291585"/>
    <nd ref="178291657"/>
    <nd ref="178291657"/>
    <nd ref="178291666"/>
    <nd ref="178291626"/>
    <nd ref="178291626"/>
    <nd ref="178291641"/>
    <nd ref="178291641"/>
    <nd ref="178291705"/>
    <nd ref="178291705"/>
    <nd ref="178291723"/>
    <tag k="created_by" v="JOSM"/>
    <tag k="highway" v="residential"/>
    <tag k="name" v="Pringle Road"/>
    <tag k="source" v="gpsdrive"/>
    <tag k="surface" v="paved"/>
  </way>
  <way id="17167591" version="4" timestamp="2008-01-10T02:35:01Z" uid="4467" user="Rosscoe" changeset="589280">
    <nd ref="178291568"/>
    <nd ref="178291585"/>
    <nd ref="178291657"/>
    <nd ref="178291657"/>
    <nd ref="178291666"/>
    <nd ref="178291626"/>
    <nd ref="178291626"/>
    <nd ref="178291641"/>
    <nd ref="178291641"/>
    <nd ref="178291705"/>
    <nd ref="178291705"/>
    <nd ref="178291723"/>
    <tag k="created_by" v="JOSM"/>
    <tag k="highway" v="residential"/>
    <tag k="name" v="Pringle Road"/>
    <tag k="source" v="gpsdrivetrack"/>
    <tag k="surface" v="paved"/>
  </way>
  <way id="17167591" version="5" timestamp="2009-01-25T00:12:24Z" uid="4467" user="Rosscoe" changeset="832900">
    <nd ref="178291568"/>
    <nd ref="178291585"/>
    <nd ref="178291657"/>
    <nd ref="178291657"/>
    <nd ref="178291666"/>
    <nd ref="178291626"/>
    <nd ref="178291626"/>
    <nd ref="178291641"/>
    <nd ref="178291641"/>
    <nd ref="178291705"/>
    <nd ref="178291705"/>
    <nd ref="178291723"/>
    <tag k="created_by" v="JOSM"/>
    <tag k="highway" v="residential"/>
    <tag k="name" v="Pringle Road"/>
    <tag k="source" v="survey"/>
    <tag k="surface" v="paved"/>
  </way>
  <way id="17167596" version="1" timestamp="2007-12-19T08:36:46Z" uid="4467" user="Rosscoe" changeset="357330">
    <nd ref="178292417"/>
    <nd ref="178292382"/>
    <nd ref="178292395"/>
    <nd ref="178292362"/>
    <nd ref="178292372"/>
    <nd ref="178292340"/>
    <nd ref="178292348"/>
    <nd ref="178292517"/>
    <nd ref="178292529"/>
    <tag k="created_by" v="JOSM"/>
    <tag k="highway" v="residential"/>
    <tag k="name" v="Domenica Drive"/>
    <tag k="source" v="gpsdrive"/>
    <tag k="surface" v="paved"/>
  </way>
  <way id="17167596" version="2" timestamp="2007-12-22T04:33:43Z" uid="4467" user="Rosscoe" changeset="391874">
    <nd ref="178292417"/>
    <nd ref="178292382"/>
    <nd ref="178292395"/>
    <nd ref="178292362"/>
    <nd ref="178292372"/>
    <nd ref="178292340"/>
    <nd ref="178292348"/>
    <nd ref="178292517"/>
    <nd ref="178292529"/>
    <tag k="created_by" v="JOSM"/>
    <tag k="highway" v="residential"/>
    <tag k="name" v="Domenica Drive"/>
    <tag k="source" v="gpsdrive"/>
    <tag k="surface" v="paved"/>
  </way>
  <way id="17167596" version="3" timestamp="2008-01-01T12:19:22Z" uid="4467" user="Rosscoe" changeset="504922">
    <nd ref="178292417"/>
    <nd ref="178292382"/>
    <nd ref="178292395"/>
    <nd ref="178292362"/>
    <nd ref="178292372"/>
    <nd ref="178292340"/>
    <nd ref="178292348"/>
    <nd ref="178292517"/>
    <nd ref="178292529"/>
    <tag k="created_by" v="JOSM"/>
    <tag k="highway" v="residential"/>
    <tag k="name" v="Domenica Drive"/>
    <tag k="source" v="gpsdrivetrack"/>
    <tag k="surface" v="paved"/>
  </way>
  <way id="17167596" version="4" timestamp="2008-01-10T02:34:28Z" uid="4467" user="Rosscoe" changeset="589280">
    <nd ref="178292417"/>
    <nd ref="178292382"/>
    <nd ref="178292395"/>
    <nd ref="178292362"/>
    <nd ref="178292372"/>
    <nd ref="178292340"/>
    <nd ref="178292348"/>
    <nd ref="178292517"/>
    <nd ref="178292529"/>
    <tag k="created_by" v="JOSM"/>
    <tag k="highway" v="residential"/>
    <tag k="name" v="Domenica Drive"/>
    <tag k="source" v="gpsdrivetrack"/>
    <tag k="surface" v="paved"/>
  </way>
  <way id="17167596" version="5" timestamp="2009-01-25T00:12:09Z" uid="4467" user="Rosscoe" changeset="832900">
    <nd ref="178292417"/>
    <nd ref="178292382"/>
    <nd ref="178292395"/>
    <nd ref="178292362"/>
    <nd ref="178292372"/>
    <nd ref="178292340"/>
    <nd ref="178292348"/>
    <nd ref="178292517"/>
    <nd ref="178292529"/>
    <tag k="created_by" v="JOSM"/>
    <tag k="highway" v="residential"/>
    <tag k="name" v="Domenica Drive"/>
    <tag k="source" v="survey"/>
    <tag k="surface" v="paved"/>
  </way>
  <way id="17167598" version="1" timestamp="2007-12-19T08:36:46Z" uid="4467" user="Rosscoe" changeset="357330">
    <nd ref="178291221"/>
    <nd ref="178291234"/>
    <nd ref="178291248"/>
    <nd ref="178291278"/>
    <tag k="created_by" v="JOSM"/>
    <tag k="highway" v="residential"/>
    <tag k="name" v="The Ridge"/>
    <tag k="source" v="gpsdrive"/>
    <tag k="surface" v="paved"/>
  </way>
  <way id="17167598" version="2" timestamp="2008-01-10T02:34:31Z" uid="4467" user="Rosscoe" changeset="589280">
    <nd ref="178291221"/>
    <nd ref="178291234"/>
    <nd ref="178291248"/>
    <nd ref="178291278"/>
    <tag k="created_by" v="JOSM"/>
    <tag k="highway" v="residential"/>
    <tag k="name" v="The Ridge"/>
    <tag k="source" v="gpsdrivetrack"/>
    <tag k="surface" v="paved"/>
  </way>
  <way id="17167598" version="3" timestamp="2009-01-25T00:12:12Z" uid="4467" user="Rosscoe" changeset="832900">
    <nd ref="178291221"/>
    <nd ref="178291234"/>
    <nd ref="178291248"/>
    <nd ref="178291278"/>
    <tag k="created_by" v="JOSM"/>
    <tag k="highway" v="residential"/>
    <tag k="name" v="The Ridge"/>
    <tag k="source" v="survey"/>
    <tag k="surface" v="paved"/>
  </way>
  <way id="17167598" version="4" timestamp="2011-04-30T07:27:18Z" uid="4467" user="Rosscoe" changeset="8009211">
    <nd ref="178291221"/>
    <nd ref="178291234"/>
    <nd ref="178291248"/>
    <nd ref="178291278"/>
    <tag k="highway" v="residential"/>
    <tag k="name" v="The Ridge"/>
    <tag k="source" v="survey"/>
    <tag k="surface" v="paved"/>
  </way>
  <way id="17167601" version="1" timestamp="2007-12-19T08:36:47Z" uid="4467" user="Rosscoe" changeset="357330">
    <nd ref="178291677"/>
    <nd ref="178291689"/>
    <nd ref="178291775"/>
    <nd ref="178291764"/>
    <nd ref="178291751"/>
    <nd ref="178291736"/>
    <nd ref="178291833"/>
    <nd ref="178291810"/>
    <nd ref="178291796"/>
    <nd ref="178291789"/>
    <nd ref="178291886"/>
    <nd ref="178291876"/>
    <nd ref="178291863"/>
    <nd ref="178291852"/>
    <nd ref="178291945"/>
    <nd ref="178291931"/>
    <nd ref="178291915"/>
    <nd ref="178291898"/>
    <nd ref="178292019"/>
    <nd ref="178292028"/>
    <nd ref="178292043"/>
    <tag k="created_by" v="JOSM"/>
    <tag k="highway" v="residential"/>
    <tag k="name" v="Parkland Drive"/>
    <tag k="source" v="gpsdrive"/>
    <tag k="surface" v="paved"/>
  </way>
  <way id="17167601" version="2" timestamp="2007-12-21T23:48:57Z" uid="4467" user="Rosscoe" changeset="385886">
    <nd ref="178291677"/>
    <nd ref="178291689"/>
    <nd ref="178291775"/>
    <nd ref="178291764"/>
    <nd ref="178291751"/>
    <nd ref="178291736"/>
    <nd ref="178291833"/>
    <nd ref="178291810"/>
    <nd ref="178291796"/>
    <nd ref="178291789"/>
    <nd ref="178291886"/>
    <nd ref="178291876"/>
    <nd ref="178291863"/>
    <nd ref="178291852"/>
    <nd ref="178291945"/>
    <nd ref="178291931"/>
    <nd ref="178291915"/>
    <nd ref="178291898"/>
    <nd ref="178292019"/>
    <nd ref="178292028"/>
    <nd ref="178292043"/>
    <tag k="created_by" v="JOSM"/>
    <tag k="highway" v="residential"/>
    <tag k="name" v="Parkland Drive"/>
    <tag k="source" v="gpsdrive"/>
    <tag k="surface" v="paved"/>
  </way>
  <way id="17167601" version="3" timestamp="2007-12-22T22:42:54Z" uid="4467" user="Rosscoe" changeset="397091">
    <nd ref="178291677"/>
    <nd ref="178291689"/>
    <nd ref="178291775"/>
    <nd ref="178291764"/>
    <nd ref="178291751"/>
    <nd ref="178291736"/>
    <nd ref="178291833"/>
    <nd ref="178291810"/>
    <nd ref="178291796"/>
    <nd ref="178291789"/>
    <nd ref="178291886"/>
    <nd ref="178291876"/>
    <nd ref="178291863"/>
    <nd ref="178291852"/>
    <nd ref="178291945"/>
    <nd ref="178291931"/>
    <nd ref="178291915"/>
    <tag k="created_by" v="JOSM"/>
    <tag k="highway" v="residential"/>
    <tag k="name" v="Parkland Drive"/>
    <tag k="source" v="gpsdrive"/>
    <tag k="surface" v="paved"/>
  </way>
  <way id="17167601" version="4" timestamp="2007-12-22T22:43:04Z" uid="4467" user="Rosscoe" changeset="397091">
    <nd ref="178291677"/>
    <nd ref="178291689"/>
    <nd ref="178291775"/>
    <nd ref="178291764"/>
    <nd ref="178291751"/>
    <nd ref="178291736"/>
    <nd ref="178291833"/>
    <nd ref="178291810"/>
    <nd ref="178291796"/>
    <nd ref="178291789"/>
    <nd ref="178291886"/>
    <nd ref="178291876"/>
    <nd ref="178291863"/>
    <nd ref="178291852"/>
    <nd ref="178291945"/>
    <nd ref="178291931"/>
    <nd ref="178291915"/>
    <tag k="created_by" v="JOSM"/>
    <tag k="highway" v="residential"/>
    <tag k="name" v="Parkland Drive"/>
    <tag k="source" v="gpsdrive"/>
    <tag k="surface" v="paved"/>
  </way>
  <way id="17167601" version="5" timestamp="2008-01-10T02:35:47Z" uid="4467" user="Rosscoe" changeset="589280">
    <nd ref="178291677"/>
    <nd ref="178291689"/>
    <nd ref="178291775"/>
    <nd ref="178291764"/>
    <nd ref="178291751"/>
    <nd ref="178291736"/>
    <nd ref="178291833"/>
    <nd ref="178291810"/>
    <nd ref="178291796"/>
    <nd ref="178291789"/>
    <nd ref="178291886"/>
    <nd ref="178291876"/>
    <nd ref="178291863"/>
    <nd ref="178291852"/>
    <nd ref="178291945"/>
    <nd ref="178291931"/>
    <nd ref="178291915"/>
    <tag k="created_by" v="JOSM"/>
    <tag k="highway" v="residential"/>
    <tag k="name" v="Parkland Drive"/>
    <tag k="source" v="gpsdrivetrack"/>
    <tag k="surface" v="paved"/>
  </way>
  <way id="17167601" version="6" timestamp="2009-01-25T00:12:56Z" uid="4467" user="Rosscoe" changeset="832900">
    <nd ref="178291677"/>
    <nd ref="178291689"/>
    <nd ref="178291775"/>
    <nd ref="178291764"/>
    <nd ref="178291751"/>
    <nd ref="178291736"/>
    <nd ref="178291833"/>
    <nd ref="178291810"/>
    <nd ref="178291796"/>
    <nd ref="178291789"/>
    <nd ref="178291886"/>
    <nd ref="178291876"/>
    <nd ref="178291863"/>
    <nd ref="178291852"/>
    <nd ref="178291945"/>
    <nd ref="178291931"/>
    <nd ref="178291915"/>
    <tag k="created_by" v="JOSM"/>
    <tag k="highway" v="residential"/>
    <tag k="name" v="Parkland Drive"/>
    <tag k="source" v="survey"/>
    <tag k="surface" v="paved"/>
  </way>
  <way id="17167605" version="1" timestamp="2007-12-19T08:36:48Z" uid="4467" user="Rosscoe" changeset="357330">
    <nd ref="178292488"/>
    <nd ref="178292503"/>
    <nd ref="178292461"/>
    <nd ref="178292473"/>
    <nd ref="178292431"/>
    <nd ref="178292431"/>
    <nd ref="178292447"/>
    <nd ref="178292635"/>
    <nd ref="178292625"/>
    <nd ref="178292609"/>
    <nd ref="178292594"/>
    <tag k="created_by" v="JOSM"/>
    <tag k="highway" v="residential"/>
    <tag k="name" v="Carlo Drive"/>
    <tag k="source" v="gpsdrive"/>
    <tag k="surface" v="paved"/>
  </way>
  <way id="17167605" version="2" timestamp="2007-12-21T23:48:55Z" uid="4467" user="Rosscoe" changeset="385886">
    <nd ref="178292488"/>
    <nd ref="178292503"/>
    <nd ref="178292461"/>
    <nd ref="178292473"/>
    <nd ref="178292431"/>
    <nd ref="178292431"/>
    <nd ref="178292447"/>
    <nd ref="178292635"/>
    <nd ref="178292625"/>
    <nd ref="178292609"/>
    <nd ref="178292594"/>
    <tag k="created_by" v="JOSM"/>
    <tag k="highway" v="residential"/>
    <tag k="name" v="Carlo Drive"/>
    <tag k="source" v="gpsdrive"/>
    <tag k="surface" v="paved"/>
  </way>
  <way id="17167605" version="3" timestamp="2008-01-10T02:35:38Z" uid="4467" user="Rosscoe" changeset="589280">
    <nd ref="178292488"/>
    <nd ref="178292503"/>
    <nd ref="178292461"/>
    <nd ref="178292473"/>
    <nd ref="178292431"/>
    <nd ref="178292431"/>
    <nd ref="178292447"/>
    <nd ref="178292635"/>
    <nd ref="178292625"/>
    <nd ref="178292609"/>
    <nd ref="178292594"/>
    <tag k="created_by" v="JOSM"/>
    <tag k="highway" v="residential"/>
    <tag k="name" v="Carlo Drive"/>
    <tag k="source" v="gpsdrivetrack"/>
    <tag k="surface" v="paved"/>
  </way>
  <way id="17167605" version="4" timestamp="2009-01-14T05:51:30Z" uid="4467" user="Rosscoe" changeset="785768">
    <nd ref="178292488"/>
    <nd ref="178292503"/>
    <nd ref="178292461"/>
    <nd ref="178292473"/>
    <nd ref="178292431"/>
    <nd ref="331971054"/>
    <nd ref="178292447"/>
    <nd ref="178292635"/>
    <nd ref="178292625"/>
    <nd ref="178292609"/>
    <nd ref="331971002"/>
    <tag k="created_by" v="JOSM"/>
    <tag k="highway" v="residential"/>
    <tag k="name" v="Carlo Drive"/>
    <tag k="source" v="survey"/>
    <tag k="surface" v="paved"/>
  </way>
  <way id="17167605" version="5" timestamp="2010-05-22T06:33:00Z" uid="4467" user="Rosscoe" changeset="4771751">
    <nd ref="178292488"/>
    <nd ref="178292503"/>
    <nd ref="178292461"/>
    <nd ref="178292473"/>
    <nd ref="178292431"/>
    <nd ref="331971054"/>
    <nd ref="178292447"/>
    <nd ref="178292635"/>
    <nd ref="178292625"/>
    <nd ref="178292609"/>
    <nd ref="331971002"/>
    <tag k="highway" v="residential"/>
    <tag k="maxspeed" v="50"/>
    <tag k="name" v="Carlo Drive"/>
    <tag k="source" v="survey"/>
    <tag k="surface" v="paved"/>
  </way>
  <way id="17167605" version="6" timestamp="2010-12-02T02:52:22Z" uid="4467" user="Rosscoe" changeset="6510847">
    <nd ref="178292488"/>
    <nd ref="1015351854"/>
    <nd ref="178292503"/>
    <nd ref="178292461"/>
    <nd ref="178292473"/>
    <nd ref="178292431"/>
    <nd ref="331971054"/>
    <nd ref="178292447"/>
    <nd ref="178292635"/>
    <nd ref="178292625"/>
    <nd ref="178292609"/>
    <nd ref="331971002"/>
    <tag k="highway" v="residential"/>
    <tag k="maxspeed" v="50"/>
    <tag k="name" v="Carlo Drive"/>
    <tag k="source" v="survey"/>
    <tag k="surface" v="paved"/>
  </way>
  <way id="17167608" version="1" timestamp="2007-12-19T08:36:49Z" uid="4467" user="Rosscoe" changeset="357330">
    <nd ref="178291059"/>
    <nd ref="178291076"/>
    <nd ref="178291076"/>
    <nd ref="178291090"/>
    <nd ref="178291090"/>
    <nd ref="178291101"/>
    <nd ref="178291118"/>
    <nd ref="178291131"/>
    <nd ref="178291142"/>
    <nd ref="178291157"/>
    <nd ref="178291264"/>
    <nd ref="178291175"/>
    <nd ref="178291221"/>
    <nd ref="178291186"/>
    <nd ref="178291205"/>
    <tag k="created_by" v="JOSM"/>
    <tag k="highway" v="residential"/>
    <tag k="name" v="The Ridge"/>
    <tag k="source" v="gpsdrive"/>
    <tag k="surface" v="paved"/>
  </way>
  <way id="17167608" version="2" timestamp="2008-01-10T02:35:29Z" uid="4467" user="Rosscoe" changeset="589280">
    <nd ref="178291059"/>
    <nd ref="178291076"/>
    <nd ref="178291076"/>
    <nd ref="178291090"/>
    <nd ref="178291090"/>
    <nd ref="178291101"/>
    <nd ref="178291118"/>
    <nd ref="178291131"/>
    <nd ref="178291142"/>
    <nd ref="178291157"/>
    <nd ref="178291264"/>
    <nd ref="178291175"/>
    <nd ref="178291221"/>
    <nd ref="178291186"/>
    <nd ref="178291205"/>
    <tag k="created_by" v="JOSM"/>
    <tag k="highway" v="residential"/>
    <tag k="name" v="The Ridge"/>
    <tag k="source" v="gpsdrivetrack"/>
    <tag k="surface" v="paved"/>
  </way>
  <way id="17167608" version="3" timestamp="2009-01-25T00:12:49Z" uid="4467" user="Rosscoe" changeset="832900">
    <nd ref="178291059"/>
    <nd ref="178291076"/>
    <nd ref="178291076"/>
    <nd ref="178291090"/>
    <nd ref="178291090"/>
    <nd ref="178291101"/>
    <nd ref="178291118"/>
    <nd ref="178291131"/>
    <nd ref="178291142"/>
    <nd ref="178291157"/>
    <nd ref="178291264"/>
    <nd ref="178291175"/>
    <nd ref="178291221"/>
    <nd ref="178291186"/>
    <nd ref="178291205"/>
    <tag k="created_by" v="JOSM"/>
    <tag k="highway" v="residential"/>
    <tag k="name" v="The Ridge"/>
    <tag k="source" v="survey"/>
    <tag k="surface" v="paved"/>
  </way>
  <way id="17167608" version="5" timestamp="2011-04-30T07:26:48Z" uid="4467" user="Rosscoe" changeset="8009211">
    <nd ref="178291059"/>
    <nd ref="178291076"/>
    <nd ref="178291090"/>
    <nd ref="178291101"/>
    <nd ref="178291118"/>
    <nd ref="178291131"/>
    <nd ref="178291142"/>
    <nd ref="178291157"/>
    <nd ref="178291264"/>
    <nd ref="178291175"/>
    <nd ref="178291221"/>
    <nd ref="178291186"/>
    <nd ref="178291205"/>
    <tag k="highway" v="residential"/>
    <tag k="name" v="The Ridge"/>
    <tag k="source" v="survey"/>
    <tag k="surface" v="paved"/>
  </way>
  <way id="17167612" version="1" timestamp="2007-12-19T08:36:50Z" uid="4467" user="Rosscoe" changeset="357330">
    <nd ref="178292063"/>
    <nd ref="178291963"/>
    <nd ref="178291978"/>
    <tag k="created_by" v="JOSM"/>
    <tag k="highway" v="residential"/>
    <tag k="name" v="Myer Laskey Drive"/>
    <tag k="source" v="gpsdrive"/>
    <tag k="surface" v="paved"/>
  </way>
  <way id="17167612" version="2" timestamp="2007-12-21T23:48:51Z" uid="4467" user="Rosscoe" changeset="385886">
    <nd ref="178292063"/>
    <nd ref="178291963"/>
    <nd ref="178291978"/>
    <tag k="created_by" v="JOSM"/>
    <tag k="highway" v="residential"/>
    <tag k="name" v="Myer Laskey Drive"/>
    <tag k="source" v="gpsdrive"/>
    <tag k="surface" v="paved"/>
  </way>
  <way id="17167612" version="3" timestamp="2008-01-10T02:35:22Z" uid="4467" user="Rosscoe" changeset="589280">
    <nd ref="178292063"/>
    <nd ref="178291963"/>
    <nd ref="178291978"/>
    <tag k="created_by" v="JOSM"/>
    <tag k="highway" v="residential"/>
    <tag k="name" v="Myer Laskey Drive"/>
    <tag k="source" v="gpsdrivetrack"/>
    <tag k="surface" v="paved"/>
  </way>
  <way id="17167612" version="4" timestamp="2009-01-25T00:12:38Z" uid="4467" user="Rosscoe" changeset="832900">
    <nd ref="178292063"/>
    <nd ref="178291963"/>
    <nd ref="178291978"/>
    <tag k="created_by" v="JOSM"/>
    <tag k="highway" v="residential"/>
    <tag k="name" v="Myer Laskey Drive"/>
    <tag k="source" v="survey"/>
    <tag k="surface" v="paved"/>
  </way>
  <way id="17167616" version="1" timestamp="2007-12-19T08:36:51Z" uid="4467" user="Rosscoe" changeset="357330">
    <nd ref="178292573"/>
    <nd ref="178292562"/>
    <nd ref="178291044"/>
    <nd ref="178292546"/>
    <nd ref="178292545"/>
    <nd ref="178292755"/>
    <nd ref="178292746"/>
    <tag k="created_by" v="JOSM"/>
    <tag k="highway" v="residential"/>
    <tag k="name" v="Braithwaite Court"/>
    <tag k="source" v="gpsdrive"/>
    <tag k="surface" v="paved"/>
  </way>
  <way id="17167616" version="2" timestamp="2007-12-21T23:48:42Z" uid="4467" user="Rosscoe" changeset="385886">
    <nd ref="178292573"/>
    <nd ref="178292562"/>
    <nd ref="178291044"/>
    <nd ref="178292546"/>
    <nd ref="178292545"/>
    <nd ref="178292755"/>
    <nd ref="178292746"/>
    <tag k="created_by" v="JOSM"/>
    <tag k="highway" v="residential"/>
    <tag k="name" v="Braithwaite Court"/>
    <tag k="source" v="gpsdrive"/>
    <tag k="surface" v="paved"/>
  </way>
  <way id="17167616" version="3" timestamp="2008-01-10T02:40:59Z" uid="4467" user="Rosscoe" changeset="589280">
    <nd ref="178292573"/>
    <nd ref="178292562"/>
    <nd ref="178291044"/>
    <nd ref="178292546"/>
    <nd ref="178292545"/>
    <nd ref="178292755"/>
    <nd ref="178292746"/>
    <tag k="created_by" v="JOSM"/>
    <tag k="highway" v="residential"/>
    <tag k="name" v="Braithwaite Court"/>
    <tag k="source" v="gpsdrivetrack"/>
    <tag k="surface" v="paved"/>
  </way>
  <way id="17167616" version="4" timestamp="2009-01-25T00:10:09Z" uid="4467" user="Rosscoe" changeset="832900">
    <nd ref="178292573"/>
    <nd ref="178292562"/>
    <nd ref="178291044"/>
    <nd ref="178292546"/>
    <nd ref="178292545"/>
    <nd ref="178292755"/>
    <nd ref="178292746"/>
    <tag k="created_by" v="JOSM"/>
    <tag k="highway" v="residential"/>
    <tag k="name" v="Braithwaite Court"/>
    <tag k="source" v="survey"/>
    <tag k="surface" v="paved"/>
  </way>
  <way id="17167622" version="1" timestamp="2007-12-19T08:36:52Z" uid="4467" user="Rosscoe" changeset="357330">
    <nd ref="178291036"/>
    <nd ref="178291044"/>
    <tag k="created_by" v="JOSM"/>
    <tag k="highway" v="residential"/>
    <tag k="name" v="Wallace Drive"/>
    <tag k="source" v="gpsdrive"/>
    <tag k="surface" v="paved"/>
  </way>
  <way id="17167622" version="2" timestamp="2007-12-21T23:48:43Z" uid="4467" user="Rosscoe" changeset="385886">
    <nd ref="178291036"/>
    <nd ref="178291044"/>
    <tag k="created_by" v="JOSM"/>
    <tag k="highway" v="residential"/>
    <tag k="name" v="Wallace Drive"/>
    <tag k="source" v="gpsdrive"/>
    <tag k="surface" v="paved"/>
  </way>
  <way id="17167622" version="3" timestamp="2008-01-10T02:41:08Z" uid="4467" user="Rosscoe" changeset="589280">
    <nd ref="178291036"/>
    <nd ref="178291044"/>
    <tag k="created_by" v="JOSM"/>
    <tag k="highway" v="residential"/>
    <tag k="name" v="Wallace Drive"/>
    <tag k="source" v="gpsdrivetrack"/>
    <tag k="surface" v="paved"/>
  </way>
  <way id="17167622" version="4" timestamp="2009-01-25T00:10:22Z" uid="4467" user="Rosscoe" changeset="832900">
    <nd ref="178291036"/>
    <nd ref="178291044"/>
    <tag k="created_by" v="JOSM"/>
    <tag k="highway" v="residential"/>
    <tag k="name" v="Wallace Drive"/>
    <tag k="source" v="survey"/>
    <tag k="surface" v="paved"/>
  </way>
  <way id="17167625" version="1" timestamp="2007-12-19T08:36:52Z" uid="4467" user="Rosscoe" changeset="357330">
    <nd ref="178291991"/>
    <nd ref="178292009"/>
    <nd ref="178292093"/>
    <nd ref="178293070"/>
    <nd ref="178292100"/>
    <nd ref="178292109"/>
    <tag k="created_by" v="JOSM"/>
    <tag k="highway" v="residential"/>
    <tag k="name" v="Henderson Street"/>
    <tag k="source" v="gpsdrive"/>
    <tag k="surface" v="paved"/>
  </way>
  <way id="17167625" version="2" timestamp="2008-01-10T02:41:11Z" uid="4467" user="Rosscoe" changeset="589280">
    <nd ref="178291991"/>
    <nd ref="178292009"/>
    <nd ref="178292093"/>
    <nd ref="178293070"/>
    <nd ref="178292100"/>
    <nd ref="178292109"/>
    <tag k="created_by" v="JOSM"/>
    <tag k="highway" v="residential"/>
    <tag k="name" v="Henderson Street"/>
    <tag k="source" v="gpsdrivetrack"/>
    <tag k="surface" v="paved"/>
  </way>
  <way id="17167625" version="3" timestamp="2009-01-25T00:10:23Z" uid="4467" user="Rosscoe" changeset="832900">
    <nd ref="178291991"/>
    <nd ref="178292009"/>
    <nd ref="178292093"/>
    <nd ref="178293070"/>
    <nd ref="178292100"/>
    <nd ref="178292109"/>
    <tag k="created_by" v="JOSM"/>
    <tag k="highway" v="residential"/>
    <tag k="name" v="Henderson Street"/>
    <tag k="source" v="survey"/>
    <tag k="surface" v="paved"/>
  </way>
  <way id="17167625" version="4" timestamp="2009-06-04T04:45:54Z" uid="4467" user="Rosscoe" changeset="1418348">
    <nd ref="178291991"/>
    <nd ref="178292009"/>
    <nd ref="178292093"/>
    <nd ref="178293070"/>
    <nd ref="178292100"/>
    <nd ref="415533968"/>
    <tag k="created_by" v="JOSM"/>
    <tag k="highway" v="residential"/>
    <tag k="name" v="Henderson Street"/>
    <tag k="source" v="survey"/>
    <tag k="surface" v="paved"/>
  </way>
  <way id="17167625" version="5" timestamp="2010-05-22T06:32:57Z" uid="4467" user="Rosscoe" changeset="4771751">
    <nd ref="178291991"/>
    <nd ref="178292009"/>
    <nd ref="178292093"/>
    <nd ref="178293070"/>
    <nd ref="178292100"/>
    <nd ref="415533968"/>
    <tag k="highway" v="residential"/>
    <tag k="maxspeed" v="50"/>
    <tag k="name" v="Henderson Street"/>
    <tag k="source" v="survey"/>
    <tag k="surface" v="paved"/>
  </way>
  <way id="17167629" version="1" timestamp="2007-12-19T08:36:53Z" uid="4467" user="Rosscoe" changeset="357330">
    <nd ref="178292733"/>
    <nd ref="178292723"/>
    <nd ref="178292712"/>
    <nd ref="178292684"/>
    <nd ref="178292664"/>
    <nd ref="178292652"/>
    <nd ref="178292906"/>
    <nd ref="178292891"/>
    <nd ref="178292928"/>
    <nd ref="178292916"/>
    <nd ref="178292955"/>
    <nd ref="178292940"/>
    <nd ref="178292989"/>
    <nd ref="178292970"/>
    <nd ref="178292784"/>
    <nd ref="178292767"/>
    <nd ref="178292813"/>
    <nd ref="178292795"/>
    <nd ref="178292838"/>
    <nd ref="178292825"/>
    <nd ref="178292871"/>
    <nd ref="178292855"/>
    <nd ref="178291059"/>
    <nd ref="178293090"/>
    <nd ref="178293104"/>
    <nd ref="178293111"/>
    <nd ref="178293127"/>
    <nd ref="178293127"/>
    <nd ref="178293138"/>
    <nd ref="178293138"/>
    <nd ref="178293158"/>
    <nd ref="178293170"/>
    <nd ref="178293186"/>
    <nd ref="178293007"/>
    <nd ref="178293021"/>
    <tag k="created_by" v="JOSM"/>
    <tag k="highway" v="residential"/>
    <tag k="name" v="Botanica Drive"/>
    <tag k="source" v="gpsdrive"/>
    <tag k="surface" v="paved"/>
  </way>
  <way id="17167629" version="2" timestamp="2007-12-21T23:48:45Z" uid="4467" user="Rosscoe" changeset="385886">
    <nd ref="178292733"/>
    <nd ref="178292723"/>
    <nd ref="178292712"/>
    <nd ref="178292684"/>
    <nd ref="178292664"/>
    <nd ref="178292652"/>
    <nd ref="178292906"/>
    <nd ref="178292891"/>
    <nd ref="178292928"/>
    <nd ref="178292916"/>
    <nd ref="178292955"/>
    <nd ref="178292940"/>
    <nd ref="178292989"/>
    <nd ref="178292970"/>
    <nd ref="178292784"/>
    <nd ref="178292767"/>
    <nd ref="178292813"/>
    <nd ref="178292795"/>
    <nd ref="178292838"/>
    <nd ref="178292825"/>
    <nd ref="178292871"/>
    <nd ref="178292855"/>
    <nd ref="178291059"/>
    <nd ref="178293090"/>
    <nd ref="178293104"/>
    <nd ref="178293111"/>
    <nd ref="178293127"/>
    <nd ref="178293127"/>
    <nd ref="178293138"/>
    <nd ref="178293138"/>
    <nd ref="178293158"/>
    <nd ref="178293170"/>
    <nd ref="178293186"/>
    <nd ref="178293007"/>
    <nd ref="178293021"/>
    <tag k="created_by" v="JOSM"/>
    <tag k="highway" v="residential"/>
    <tag k="name" v="Botanica Drive"/>
    <tag k="source" v="gpsdrive"/>
    <tag k="surface" v="paved"/>
  </way>
  <way id="17167629" version="3" timestamp="2008-01-10T02:41:16Z" uid="4467" user="Rosscoe" changeset="589280">
    <nd ref="178292733"/>
    <nd ref="178292723"/>
    <nd ref="178292712"/>
    <nd ref="178292684"/>
    <nd ref="178292664"/>
    <nd ref="178292652"/>
    <nd ref="178292906"/>
    <nd ref="178292891"/>
    <nd ref="178292928"/>
    <nd ref="178292916"/>
    <nd ref="178292955"/>
    <nd ref="178292940"/>
    <nd ref="178292989"/>
    <nd ref="178292970"/>
    <nd ref="178292784"/>
    <nd ref="178292767"/>
    <nd ref="178292813"/>
    <nd ref="178292795"/>
    <nd ref="178292838"/>
    <nd ref="178292825"/>
    <nd ref="178292871"/>
    <nd ref="178292855"/>
    <nd ref="178291059"/>
    <nd ref="178293090"/>
    <nd ref="178293104"/>
    <nd ref="178293111"/>
    <nd ref="178293127"/>
    <nd ref="178293127"/>
    <nd ref="178293138"/>
    <nd ref="178293138"/>
    <nd ref="178293158"/>
    <nd ref="178293170"/>
    <nd ref="178293186"/>
    <nd ref="178293007"/>
    <nd ref="178293021"/>
    <tag k="created_by" v="JOSM"/>
    <tag k="highway" v="residential"/>
    <tag k="name" v="Botanica Drive"/>
    <tag k="source" v="gpsdrivetrack"/>
    <tag k="surface" v="paved"/>
  </way>
  <way id="17167629" version="4" timestamp="2009-01-25T00:10:25Z" uid="4467" user="Rosscoe" changeset="832900">
    <nd ref="178292733"/>
    <nd ref="178292723"/>
    <nd ref="178292712"/>
    <nd ref="178292684"/>
    <nd ref="178292664"/>
    <nd ref="178292652"/>
    <nd ref="178292906"/>
    <nd ref="178292891"/>
    <nd ref="178292928"/>
    <nd ref="178292916"/>
    <nd ref="178292955"/>
    <nd ref="178292940"/>
    <nd ref="178292989"/>
    <nd ref="178292970"/>
    <nd ref="178292784"/>
    <nd ref="178292767"/>
    <nd ref="178292813"/>
    <nd ref="178292795"/>
    <nd ref="178292838"/>
    <nd ref="178292825"/>
    <nd ref="178292871"/>
    <nd ref="178292855"/>
    <nd ref="178291059"/>
    <nd ref="178293090"/>
    <nd ref="178293104"/>
    <nd ref="178293111"/>
    <nd ref="178293127"/>
    <nd ref="178293127"/>
    <nd ref="178293138"/>
    <nd ref="178293138"/>
    <nd ref="178293158"/>
    <nd ref="178293170"/>
    <nd ref="178293186"/>
    <nd ref="178293007"/>
    <nd ref="178293021"/>
    <tag k="created_by" v="JOSM"/>
    <tag k="highway" v="residential"/>
    <tag k="name" v="Botanica Drive"/>
    <tag k="source" v="survey"/>
    <tag k="surface" v="paved"/>
  </way>
  <way id="17167629" version="6" timestamp="2011-04-30T07:26:30Z" uid="4467" user="Rosscoe" changeset="8009211">
    <nd ref="178292733"/>
    <nd ref="178292723"/>
    <nd ref="178292712"/>
    <nd ref="178292684"/>
    <nd ref="178292664"/>
    <nd ref="178292652"/>
    <nd ref="178292906"/>
    <nd ref="178292891"/>
    <nd ref="178292928"/>
    <nd ref="178292916"/>
    <nd ref="178292955"/>
    <nd ref="178292940"/>
    <nd ref="178292989"/>
    <nd ref="178292970"/>
    <nd ref="178292784"/>
    <nd ref="178292767"/>
    <nd ref="178292813"/>
    <nd ref="178292795"/>
    <nd ref="178292838"/>
    <nd ref="178292825"/>
    <nd ref="178292871"/>
    <nd ref="178292855"/>
    <nd ref="178291059"/>
    <nd ref="178293090"/>
    <nd ref="178293104"/>
    <nd ref="178293111"/>
    <nd ref="178293127"/>
    <nd ref="178293138"/>
    <nd ref="178293158"/>
    <nd ref="178293170"/>
    <nd ref="178293186"/>
    <nd ref="178293007"/>
    <nd ref="178293021"/>
    <tag k="highway" v="residential"/>
    <tag k="name" v="Botanica Drive"/>
    <tag k="source" v="survey"/>
    <tag k="surface" v="paved"/>
  </way>
  <way id="17167633" version="1" timestamp="2007-12-19T08:36:54Z" uid="4467" user="Rosscoe" changeset="357330">
    <nd ref="178291264"/>
    <nd ref="178291306"/>
    <nd ref="178291295"/>
    <nd ref="178291339"/>
    <nd ref="178291368"/>
    <nd ref="178291322"/>
    <tag k="created_by" v="JOSM"/>
    <tag k="highway" v="residential"/>
    <tag k="name" v="The Ridge"/>
    <tag k="source" v="gpsdrive"/>
    <tag k="surface" v="paved"/>
  </way>
  <way id="17167633" version="2" timestamp="2008-01-10T02:40:33Z" uid="4467" user="Rosscoe" changeset="589280">
    <nd ref="178291264"/>
    <nd ref="178291306"/>
    <nd ref="178291295"/>
    <nd ref="178291339"/>
    <nd ref="178291368"/>
    <nd ref="178291322"/>
    <tag k="created_by" v="JOSM"/>
    <tag k="highway" v="residential"/>
    <tag k="name" v="The Ridge"/>
    <tag k="source" v="gpsdrivetrack"/>
    <tag k="surface" v="paved"/>
  </way>
  <way id="17167633" version="3" timestamp="2009-01-25T00:09:50Z" uid="4467" user="Rosscoe" changeset="832900">
    <nd ref="178291264"/>
    <nd ref="178291306"/>
    <nd ref="178291295"/>
    <nd ref="178291339"/>
    <nd ref="178291368"/>
    <nd ref="178291322"/>
    <tag k="created_by" v="JOSM"/>
    <tag k="highway" v="residential"/>
    <tag k="name" v="The Ridge"/>
    <tag k="source" v="survey"/>
    <tag k="surface" v="paved"/>
  </way>
  <way id="17167633" version="4" timestamp="2011-04-30T07:26:46Z" uid="4467" user="Rosscoe" changeset="8009211">
    <nd ref="178291264"/>
    <nd ref="178291306"/>
    <nd ref="178291295"/>
    <nd ref="178291339"/>
    <nd ref="178291368"/>
    <nd ref="178291322"/>
    <tag k="highway" v="residential"/>
    <tag k="name" v="The Ridge"/>
    <tag k="source" v="survey"/>
    <tag k="surface" v="paved"/>
  </way>
  <way id="17167635" version="1" timestamp="2007-12-19T08:36:55Z" uid="4467" user="Rosscoe" changeset="357330">
    <nd ref="178292119"/>
    <nd ref="178292073"/>
    <tag k="created_by" v="JOSM"/>
    <tag k="highway" v="residential"/>
    <tag k="name" v="Hallam Sreet"/>
    <tag k="source" v="gpsdrive"/>
    <tag k="surface" v="paved"/>
  </way>
  <way id="17167635" version="2" timestamp="2008-01-10T02:40:36Z" uid="4467" user="Rosscoe" changeset="589280">
    <nd ref="178292119"/>
    <nd ref="178292073"/>
    <tag k="created_by" v="JOSM"/>
    <tag k="highway" v="residential"/>
    <tag k="name" v="Hallam Sreet"/>
    <tag k="source" v="gpsdrivetrack"/>
    <tag k="surface" v="paved"/>
  </way>
  <way id="17167635" version="3" timestamp="2009-01-25T00:09:53Z" uid="4467" user="Rosscoe" changeset="832900">
    <nd ref="178292119"/>
    <nd ref="178292073"/>
    <tag k="created_by" v="JOSM"/>
    <tag k="highway" v="residential"/>
    <tag k="name" v="Hallam Sreet"/>
    <tag k="source" v="survey"/>
    <tag k="surface" v="paved"/>
  </way>
  <way id="17167635" version="4" timestamp="2010-05-22T06:32:59Z" uid="4467" user="Rosscoe" changeset="4771751">
    <nd ref="178292119"/>
    <nd ref="178292073"/>
    <tag k="highway" v="residential"/>
    <tag k="maxspeed" v="50"/>
    <tag k="name" v="Hallam Sreet"/>
    <tag k="source" v="survey"/>
    <tag k="surface" v="paved"/>
  </way>
  <way id="17167637" version="1" timestamp="2007-12-19T08:36:56Z" uid="4467" user="Rosscoe" changeset="357330">
    <nd ref="178293041"/>
    <nd ref="178293057"/>
    <tag k="created_by" v="JOSM"/>
    <tag k="highway" v="residential"/>
    <tag k="name" v="Beames Crescent"/>
    <tag k="source" v="gpsdrive"/>
    <tag k="surface" v="paved"/>
  </way>
  <way id="17167637" version="2" timestamp="2008-01-10T02:40:38Z" uid="4467" user="Rosscoe" changeset="589280">
    <nd ref="178293041"/>
    <nd ref="178293057"/>
    <tag k="created_by" v="JOSM"/>
    <tag k="highway" v="residential"/>
    <tag k="name" v="Beames Crescent"/>
    <tag k="source" v="gpsdrivetrack"/>
    <tag k="surface" v="paved"/>
  </way>
  <way id="17167637" version="3" timestamp="2009-01-25T00:09:54Z" uid="4467" user="Rosscoe" changeset="832900">
    <nd ref="178293041"/>
    <nd ref="178293057"/>
    <tag k="created_by" v="JOSM"/>
    <tag k="highway" v="residential"/>
    <tag k="name" v="Beames Crescent"/>
    <tag k="source" v="survey"/>
    <tag k="surface" v="paved"/>
  </way>
  <way id="17167637" version="4" timestamp="2009-06-04T04:45:57Z" uid="4467" user="Rosscoe" changeset="1418348">
    <nd ref="178293041"/>
    <nd ref="415533968"/>
    <nd ref="178293057"/>
    <tag k="created_by" v="JOSM"/>
    <tag k="highway" v="residential"/>
    <tag k="name" v="Beames Crescent"/>
    <tag k="source" v="survey"/>
    <tag k="surface" v="paved"/>
  </way>
  <way id="17167637" version="5" timestamp="2010-05-22T06:33:01Z" uid="4467" user="Rosscoe" changeset="4771751">
    <nd ref="178293041"/>
    <nd ref="415533968"/>
    <nd ref="178293057"/>
    <tag k="highway" v="residential"/>
    <tag k="maxspeed" v="50"/>
    <tag k="name" v="Beames Crescent"/>
    <tag k="source" v="survey"/>
    <tag k="surface" v="paved"/>
  </way>
  <way id="17167640" version="1" timestamp="2007-12-19T08:36:57Z" uid="4467" user="Rosscoe" changeset="357330">
    <nd ref="178291368"/>
    <nd ref="178291356"/>
    <tag k="created_by" v="JOSM"/>
    <tag k="highway" v="residential"/>
    <tag k="name" v="The Ridge"/>
    <tag k="source" v="gpsdrive"/>
    <tag k="surface" v="paved"/>
  </way>
  <way id="17167640" version="2" timestamp="2008-01-10T02:40:46Z" uid="4467" user="Rosscoe" changeset="589280">
    <nd ref="178291368"/>
    <nd ref="178291356"/>
    <tag k="created_by" v="JOSM"/>
    <tag k="highway" v="residential"/>
    <tag k="name" v="The Ridge"/>
    <tag k="source" v="gpsdrivetrack"/>
    <tag k="surface" v="paved"/>
  </way>
  <way id="17167640" version="3" timestamp="2009-01-25T00:09:58Z" uid="4467" user="Rosscoe" changeset="832900">
    <nd ref="178291368"/>
    <nd ref="178291356"/>
    <tag k="created_by" v="JOSM"/>
    <tag k="highway" v="residential"/>
    <tag k="name" v="The Ridge"/>
    <tag k="source" v="survey"/>
    <tag k="surface" v="paved"/>
  </way>
  <way id="17167640" version="4" timestamp="2011-04-30T07:27:21Z" uid="4467" user="Rosscoe" changeset="8009211">
    <nd ref="178291368"/>
    <nd ref="178291356"/>
    <tag k="highway" v="residential"/>
    <tag k="name" v="The Ridge"/>
    <tag k="source" v="survey"/>
    <tag k="surface" v="paved"/>
  </way>
  <way id="17167643" version="1" timestamp="2007-12-19T08:36:58Z" uid="4467" user="Rosscoe" changeset="357330">
    <nd ref="178291915"/>
    <nd ref="178292079"/>
    <tag k="created_by" v="JOSM"/>
    <tag k="highway" v="residential"/>
    <tag k="name" v="Gumnut Place"/>
    <tag k="source" v="gpsdrive"/>
    <tag k="surface" v="paved"/>
  </way>
  <way id="17167643" version="2" timestamp="2008-01-10T02:40:51Z" uid="4467" user="Rosscoe" changeset="589280">
    <nd ref="178291915"/>
    <nd ref="178292079"/>
    <tag k="created_by" v="JOSM"/>
    <tag k="highway" v="residential"/>
    <tag k="name" v="Gumnut Place"/>
    <tag k="source" v="gpsdrivetrack"/>
    <tag k="surface" v="paved"/>
  </way>
  <way id="17167643" version="3" timestamp="2009-01-25T00:10:04Z" uid="4467" user="Rosscoe" changeset="832900">
    <nd ref="178291915"/>
    <nd ref="178292079"/>
    <tag k="created_by" v="JOSM"/>
    <tag k="highway" v="residential"/>
    <tag k="name" v="Gumnut Place"/>
    <tag k="source" v="survey"/>
    <tag k="surface" v="paved"/>
  </way>
  <way id="17167645" version="1" timestamp="2007-12-19T08:36:58Z" uid="4467" user="Rosscoe" changeset="357330">
    <nd ref="178291405"/>
    <nd ref="178291386"/>
    <nd ref="178291433"/>
    <nd ref="178291414"/>
    <nd ref="178291469"/>
    <nd ref="178291459"/>
    <nd ref="178291489"/>
    <nd ref="178291482"/>
    <nd ref="178291540"/>
    <nd ref="178291554"/>
    <nd ref="178291505"/>
    <tag k="created_by" v="JOSM"/>
    <tag k="highway" v="residential"/>
    <tag k="name" v="Telford Road"/>
    <tag k="source" v="gpsdrive"/>
    <tag k="surface" v="paved"/>
  </way>
  <way id="17167645" version="2" timestamp="2008-01-01T12:19:27Z" uid="4467" user="Rosscoe" changeset="504922">
    <nd ref="178291405"/>
    <nd ref="178291386"/>
    <nd ref="178291433"/>
    <nd ref="178291414"/>
    <nd ref="178291469"/>
    <nd ref="178291459"/>
    <nd ref="178291489"/>
    <nd ref="178291482"/>
    <nd ref="178291540"/>
    <nd ref="178291554"/>
    <nd ref="178291505"/>
    <tag k="created_by" v="JOSM"/>
    <tag k="highway" v="residential"/>
    <tag k="name" v="Telford Road"/>
    <tag k="source" v="gpsdrivetrack"/>
    <tag k="surface" v="paved"/>
  </way>
  <way id="17167645" version="3" timestamp="2008-01-10T02:40:54Z" uid="4467" user="Rosscoe" changeset="589280">
    <nd ref="178291405"/>
    <nd ref="178291386"/>
    <nd ref="178291433"/>
    <nd ref="178291414"/>
    <nd ref="178291469"/>
    <nd ref="178291459"/>
    <nd ref="178291489"/>
    <nd ref="178291482"/>
    <nd ref="178291540"/>
    <nd ref="178291554"/>
    <nd ref="178291505"/>
    <tag k="created_by" v="JOSM"/>
    <tag k="highway" v="residential"/>
    <tag k="name" v="Telford Road"/>
    <tag k="source" v="gpsdrivetrack"/>
    <tag k="surface" v="paved"/>
  </way>
  <way id="17167645" version="4" timestamp="2008-10-20T03:30:11Z" uid="4467" user="Rosscoe" changeset="468749">
    <nd ref="178291405"/>
    <nd ref="178291386"/>
    <nd ref="178291433"/>
    <nd ref="178291414"/>
    <nd ref="178291469"/>
    <nd ref="178291459"/>
    <nd ref="178291489"/>
    <nd ref="178291482"/>
    <nd ref="178291540"/>
    <nd ref="178291554"/>
    <nd ref="178291505"/>
    <tag k="created_by" v="JOSM"/>
    <tag k="highway" v="residential"/>
    <tag k="name" v="Telford Road"/>
    <tag k="source" v="gpsdrivetrack"/>
    <tag k="surface" v="paved"/>
  </way>
  <way id="17167645" version="5" timestamp="2009-01-25T00:10:06Z" uid="4467" user="Rosscoe" changeset="832900">
    <nd ref="178291405"/>
    <nd ref="178291386"/>
    <nd ref="178291433"/>
    <nd ref="178291414"/>
    <nd ref="178291469"/>
    <nd ref="178291459"/>
    <nd ref="178291489"/>
    <nd ref="178291482"/>
    <nd ref="178291540"/>
    <nd ref="178291554"/>
    <nd ref="178291505"/>
    <tag k="created_by" v="JOSM"/>
    <tag k="highway" v="residential"/>
    <tag k="name" v="Telford Road"/>
    <tag k="source" v="survey"/>
    <tag k="surface" v="paved"/>
  </way>
  <way id="17167645" version="6" timestamp="2009-06-04T04:55:44Z" uid="4467" user="Rosscoe" changeset="1418348">
    <nd ref="415535360"/>
    <nd ref="178291386"/>
    <nd ref="178291433"/>
    <nd ref="178291414"/>
    <nd ref="178291469"/>
    <nd ref="178291459"/>
    <nd ref="178291489"/>
    <nd ref="178291482"/>
    <nd ref="178291540"/>
    <nd ref="178291554"/>
    <nd ref="178291505"/>
    <tag k="created_by" v="JOSM"/>
    <tag k="highway" v="residential"/>
    <tag k="name" v="Telford Road"/>
    <tag k="source" v="survey"/>
    <tag k="surface" v="paved"/>
  </way>
  <way id="17167649" version="1" timestamp="2007-12-19T08:36:59Z" uid="4467" user="Rosscoe" changeset="357330">
    <nd ref="178292083"/>
    <nd ref="178292087"/>
    <nd ref="178292193"/>
    <nd ref="178292063"/>
    <nd ref="178292186"/>
    <nd ref="178292213"/>
    <nd ref="178292204"/>
    <nd ref="178292148"/>
    <nd ref="178292132"/>
    <nd ref="178293057"/>
    <nd ref="178292171"/>
    <nd ref="178292161"/>
    <nd ref="178292284"/>
    <nd ref="178292119"/>
    <nd ref="178292276"/>
    <nd ref="178293070"/>
    <tag k="created_by" v="JOSM"/>
    <tag k="highway" v="residential"/>
    <tag k="name" v="Galbraith Park Drive"/>
    <tag k="source" v="gpsdrive"/>
    <tag k="surface" v="paved"/>
  </way>
  <way id="17167649" version="2" timestamp="2007-12-21T23:48:52Z" uid="4467" user="Rosscoe" changeset="385886">
    <nd ref="178292083"/>
    <nd ref="178292087"/>
    <nd ref="178292193"/>
    <nd ref="178292063"/>
    <nd ref="178292186"/>
    <nd ref="178292213"/>
    <nd ref="178292204"/>
    <nd ref="178292148"/>
    <nd ref="178292132"/>
    <nd ref="178293057"/>
    <nd ref="178292171"/>
    <nd ref="178292161"/>
    <nd ref="178292284"/>
    <nd ref="178292119"/>
    <nd ref="178292276"/>
    <nd ref="178293070"/>
    <tag k="created_by" v="JOSM"/>
    <tag k="highway" v="residential"/>
    <tag k="name" v="Galbraith Park Drive"/>
    <tag k="source" v="gpsdrive"/>
    <tag k="surface" v="paved"/>
  </way>
  <way id="17167649" version="3" timestamp="2008-01-10T02:41:47Z" uid="4467" user="Rosscoe" changeset="589280">
    <nd ref="178292083"/>
    <nd ref="178292087"/>
    <nd ref="178292193"/>
    <nd ref="178292063"/>
    <nd ref="178292186"/>
    <nd ref="178292213"/>
    <nd ref="178292204"/>
    <nd ref="178292148"/>
    <nd ref="178292132"/>
    <nd ref="178293057"/>
    <nd ref="178292171"/>
    <nd ref="178292161"/>
    <nd ref="178292284"/>
    <nd ref="178292119"/>
    <nd ref="178292276"/>
    <nd ref="178293070"/>
    <tag k="created_by" v="JOSM"/>
    <tag k="highway" v="residential"/>
    <tag k="name" v="Galbraith Park Drive"/>
    <tag k="source" v="gpsdrivetrack"/>
    <tag k="surface" v="paved"/>
  </way>
  <way id="17167649" version="4" timestamp="2009-01-25T00:10:49Z" uid="4467" user="Rosscoe" changeset="832900">
    <nd ref="178292083"/>
    <nd ref="178292087"/>
    <nd ref="178292193"/>
    <nd ref="178292063"/>
    <nd ref="178292186"/>
    <nd ref="178292213"/>
    <nd ref="178292204"/>
    <nd ref="178292148"/>
    <nd ref="178292132"/>
    <nd ref="178293057"/>
    <nd ref="178292171"/>
    <nd ref="178292161"/>
    <nd ref="178292284"/>
    <nd ref="178292119"/>
    <nd ref="178292276"/>
    <nd ref="178293070"/>
    <tag k="created_by" v="JOSM"/>
    <tag k="highway" v="residential"/>
    <tag k="name" v="Galbraith Park Drive"/>
    <tag k="source" v="survey"/>
    <tag k="surface" v="paved"/>
  </way>
  <way id="17167649" version="5" timestamp="2009-10-06T08:24:35Z" uid="4467" user="Rosscoe" changeset="2758285">
    <nd ref="178292083"/>
    <nd ref="178292087"/>
    <nd ref="522498472"/>
    <nd ref="178292193"/>
    <nd ref="178292063"/>
    <nd ref="178292186"/>
    <nd ref="178292213"/>
    <nd ref="178292204"/>
    <nd ref="178292148"/>
    <nd ref="178292132"/>
    <nd ref="178293057"/>
    <nd ref="178292171"/>
    <nd ref="178292161"/>
    <nd ref="178292284"/>
    <nd ref="178292119"/>
    <nd ref="178292276"/>
    <nd ref="178293070"/>
    <tag k="highway" v="residential"/>
    <tag k="name" v="Galbraith Park Drive"/>
    <tag k="source" v="survey"/>
    <tag k="surface" v="paved"/>
  </way>
  <way id="17167649" version="6" timestamp="2010-05-22T06:32:58Z" uid="4467" user="Rosscoe" changeset="4771751">
    <nd ref="178292083"/>
    <nd ref="178292087"/>
    <nd ref="522498472"/>
    <nd ref="178292193"/>
    <nd ref="178292063"/>
    <nd ref="178292186"/>
    <nd ref="178292213"/>
    <nd ref="178292204"/>
    <nd ref="178292148"/>
    <nd ref="178292132"/>
    <nd ref="178293057"/>
    <nd ref="178292171"/>
    <nd ref="178292161"/>
    <nd ref="178292284"/>
    <nd ref="178292119"/>
    <nd ref="178292276"/>
    <nd ref="178293070"/>
    <tag k="highway" v="residential"/>
    <tag k="maxspeed" v="50"/>
    <tag k="name" v="Galbraith Park Drive"/>
    <tag k="source" v="survey"/>
    <tag k="surface" v="paved"/>
  </way>
  <way id="17167649" version="7" timestamp="2010-12-02T02:52:21Z" uid="4467" user="Rosscoe" changeset="6510847">
    <nd ref="178292083"/>
    <nd ref="1015351873"/>
    <nd ref="178292087"/>
    <nd ref="522498472"/>
    <nd ref="178292193"/>
    <nd ref="178292063"/>
    <nd ref="178292186"/>
    <nd ref="178292213"/>
    <nd ref="178292204"/>
    <nd ref="178292148"/>
    <nd ref="178292132"/>
    <nd ref="178293057"/>
    <nd ref="178292171"/>
    <nd ref="178292161"/>
    <nd ref="178292284"/>
    <nd ref="178292119"/>
    <nd ref="178292276"/>
    <nd ref="178293070"/>
    <tag k="highway" v="residential"/>
    <tag k="maxspeed" v="50"/>
    <tag k="name" v="Galbraith Park Drive"/>
    <tag k="source" v="survey"/>
    <tag k="surface" v="paved"/>
  </way>
  <way id="17167655" version="1" timestamp="2007-12-19T08:37:00Z" uid="4467" user="Rosscoe" changeset="357330">
    <nd ref="178291524"/>
    <nd ref="178291599"/>
    <nd ref="178291608"/>
    <tag k="created_by" v="JOSM"/>
    <tag k="highway" v="residential"/>
    <tag k="name" v="Richardson Road"/>
    <tag k="source" v="gpsdrive"/>
    <tag k="surface" v="unpaved"/>
  </way>
  <way id="17167655" version="2" timestamp="2008-01-10T02:41:51Z" uid="4467" user="Rosscoe" changeset="589280">
    <nd ref="178291524"/>
    <nd ref="178291599"/>
    <nd ref="178291608"/>
    <tag k="created_by" v="JOSM"/>
    <tag k="highway" v="residential"/>
    <tag k="name" v="Richardson Road"/>
    <tag k="source" v="gpsdrivetrack"/>
    <tag k="surface" v="unpaved"/>
  </way>
  <way id="17167655" version="3" timestamp="2009-01-14T12:00:28Z" uid="4467" user="Rosscoe" changeset="787262">
    <nd ref="133474977"/>
    <nd ref="178291599"/>
    <nd ref="178291608"/>
    <tag k="created_by" v="JOSM"/>
    <tag k="highway" v="residential"/>
    <tag k="name" v="Richardson Road"/>
    <tag k="source" v="gpsdrivetrack"/>
    <tag k="surface" v="unpaved"/>
  </way>
  <way id="17167655" version="4" timestamp="2009-01-14T12:01:23Z" uid="4467" user="Rosscoe" changeset="787262">
    <nd ref="133474977"/>
    <nd ref="178291599"/>
    <nd ref="178291608"/>
    <tag k="created_by" v="JOSM"/>
    <tag k="highway" v="residential"/>
    <tag k="name" v="Richardson Road"/>
    <tag k="source" v="survey"/>
    <tag k="surface" v="unpaved"/>
  </way>
  <way id="17167660" version="1" timestamp="2007-12-19T08:37:01Z" uid="4467" user="Rosscoe" changeset="357330">
    <nd ref="178291608"/>
    <nd ref="178292319"/>
    <nd ref="178292303"/>
    <nd ref="178292239"/>
    <nd ref="178292224"/>
    <nd ref="178292272"/>
    <nd ref="178292256"/>
    <nd ref="178292403"/>
    <tag k="created_by" v="JOSM"/>
    <tag k="highway" v="residential"/>
    <tag k="name" v="Dorothy Road"/>
    <tag k="source" v="gpsdrive"/>
    <tag k="surface" v="unpaved"/>
  </way>
  <way id="17167660" version="2" timestamp="2008-01-10T02:42:07Z" uid="4467" user="Rosscoe" changeset="589280">
    <nd ref="178291608"/>
    <nd ref="178292319"/>
    <nd ref="178292303"/>
    <nd ref="178292239"/>
    <nd ref="178292224"/>
    <nd ref="178292272"/>
    <nd ref="178292256"/>
    <nd ref="178292403"/>
    <tag k="created_by" v="JOSM"/>
    <tag k="highway" v="residential"/>
    <tag k="name" v="Dorothy Road"/>
    <tag k="source" v="gpsdrivetrack"/>
    <tag k="surface" v="unpaved"/>
  </way>
  <way id="17167660" version="3" timestamp="2008-12-30T07:51:09Z" uid="4467" user="Rosscoe" changeset="673499">
    <nd ref="178291608"/>
    <nd ref="178292319"/>
    <nd ref="178292303"/>
    <nd ref="178292239"/>
    <nd ref="178292224"/>
    <nd ref="178292272"/>
    <nd ref="178292256"/>
    <nd ref="178292403"/>
    <tag k="created_by" v="JOSM"/>
    <tag k="highway" v="residential"/>
    <tag k="name" v="Dorothy Road"/>
    <tag k="source" v="survey"/>
    <tag k="surface" v="unpaved"/>
  </way>
</osm>
