<?xml version='1.0' encoding='UTF-8'?>
<osm version="0.6" generator="libosmium/2.20.0">
  <way id="17232042" version="2" timestamp="2008-05-07T13:09:16Z" uid="20914" user="MwGrabowski" changeset="356346">
    <nd ref="178695205"/>
    <nd ref="178695209"/>
    <tag k="created_by" v="JOSM"/>
    <tag k="highway" v="residential"/>
    <tag k="name" v="Dürerstraße"/>
  </way>
  <way id="17232045" version="2" timestamp="2008-05-07T13:09:16Z" uid="20914" user="MwGrabowski" changeset="356346">
    <nd ref="178695225"/>
    <nd ref="178695219"/>
    <nd ref="178695229"/>
    <nd ref="178695233"/>
    <tag k="created_by" v="JOSM"/>
    <tag k="highway" v="residential"/>
    <tag k="name" v="Höhfeldstraße"/>
  </way>
  <way id="17232048" version="2" timestamp="2008-05-07T13:09:15Z" uid="20914" user="MwGrabowski" changeset="356346">
    <nd ref="178695244"/>
    <nd ref="178695256"/>
    <nd ref="178695260"/>
    <tag k="created_by" v="JOSM"/>
    <tag k="highway" v="residential"/>
    <tag k="name" v="Hollerweg"/>
  </way>
  <way id="17232048" version="3" timestamp="2008-05-07T13:19:28Z" uid="20914" user="MwGrabowski" changeset="356346">
    <nd ref="178695244"/>
    <nd ref="178695256"/>
    <nd ref="178695260"/>
    <nd ref="262637537"/>
    <nd ref="262637538"/>
    <nd ref="262637539"/>
    <nd ref="156866092"/>
    <tag k="created_by" v="JOSM"/>
    <tag k="highway" v="residential"/>
    <tag k="name" v="Hollerweg"/>
  </way>
  <way id="17232048" version="4" timestamp="2008-05-08T14:56:45Z" uid="20914" user="MwGrabowski" changeset="367744">
    <nd ref="178695244"/>
    <nd ref="178695256"/>
    <nd ref="178695260"/>
    <nd ref="262820025"/>
    <nd ref="262637537"/>
    <nd ref="262637538"/>
    <nd ref="262637539"/>
    <nd ref="156866092"/>
    <tag k="created_by" v="JOSM"/>
    <tag k="highway" v="residential"/>
    <tag k="name" v="Hollerweg"/>
  </way>
  <way id="17232050" version="4" timestamp="2008-05-07T20:59:15Z" uid="20914" user="MwGrabowski" changeset="359063">
    <nd ref="157325393"/>
    <nd ref="157329056"/>
    <nd ref="157329040"/>
    <nd ref="157329025"/>
    <nd ref="157329019"/>
    <nd ref="157329003"/>
    <nd ref="157328988"/>
    <nd ref="157328977"/>
    <nd ref="157328964"/>
    <nd ref="249803918"/>
    <nd ref="262700204"/>
    <nd ref="156399969"/>
    <tag k="created_by" v="JOSM"/>
    <tag k="highway" v="tertiary"/>
    <tag k="name" v="Dornauer Weg"/>
  </way>
  <way id="17232052" version="4" timestamp="2008-05-08T14:56:46Z" uid="20914" user="MwGrabowski" changeset="367744">
    <nd ref="178695281"/>
    <nd ref="178695288"/>
    <nd ref="178695297"/>
    <nd ref="255156980"/>
    <nd ref="178695310"/>
    <nd ref="178695316"/>
    <nd ref="262820012"/>
    <nd ref="178695323"/>
    <nd ref="178695328"/>
    <tag k="created_by" v="JOSM"/>
    <tag k="highway" v="residential"/>
    <tag k="name" v="Breiter Weg"/>
  </way>
  <way id="17232057" version="2" timestamp="2008-05-07T21:18:23Z" uid="20914" user="MwGrabowski" changeset="359063">
    <nd ref="178695480"/>
    <nd ref="178695484"/>
    <nd ref="178695491"/>
    <nd ref="178695494"/>
    <nd ref="178695502"/>
    <nd ref="178695510"/>
    <nd ref="178695513"/>
    <nd ref="178695518"/>
    <nd ref="178695522"/>
    <nd ref="178695526"/>
    <nd ref="178695531"/>
    <nd ref="178695535"/>
    <nd ref="178695541"/>
    <nd ref="178695546"/>
    <nd ref="178695551"/>
    <nd ref="178695555"/>
    <nd ref="178695557"/>
    <nd ref="178695564"/>
    <nd ref="178695568"/>
    <nd ref="178695572"/>
    <nd ref="178695575"/>
    <nd ref="178695577"/>
    <nd ref="178695579"/>
    <nd ref="262704333"/>
    <nd ref="156400341"/>
    <tag k="bicycle" v="yes"/>
    <tag k="created_by" v="JOSM"/>
    <tag k="highway" v="track"/>
    <tag k="motorcar" v="no"/>
    <tag k="motorcycle" v="no"/>
    <tag k="name" v="FIXME"/>
    <tag k="surface" v="unpaved"/>
  </way>
</osm>
