<?xml version='1.0' encoding='UTF-8'?>
<osm version="0.6" generator="libosmium/2.20.0">
  <way id="17265268" version="14" timestamp="2009-07-01T03:20:53Z" uid="20587" user="balrog-kun" changeset="1697137">
    <nd ref="27308529"/>
    <nd ref="27308506"/>
    <nd ref="198038499"/>
    <nd ref="27308451"/>
    <nd ref="198039857"/>
    <tag k="created_by" v="Potlatch 0.10f"/>
    <tag k="layer" v="1"/>
    <tag k="name" v="8 - 10 - 11 - 12 - 13 - 14 - 15 - 18 - 26 - N21"/>
    <tag k="railway" v="tram"/>
  </way>
  <way id="17265428" version="7" timestamp="2010-04-17T13:34:18Z" uid="4467" user="Rosscoe" changeset="4447755">
    <nd ref="130171200"/>
    <nd ref="699738699"/>
    <tag k="highway" v="residential"/>
    <tag k="name" v="Bindy Street"/>
  </way>
  <way id="17265428" version="9" timestamp="2010-07-09T05:17:00Z" uid="74617" user="JohnSmith" changeset="5170986">
    <nd ref="130171200"/>
    <nd ref="700677749"/>
    <tag k="highway" v="residential"/>
    <tag k="maxspeed" v="50"/>
    <tag k="maxspeed:source" v="default residential speed limit in Australia"/>
    <tag k="name" v="Bindy Street"/>
  </way>
</osm>
