<?xml version='1.0' encoding='UTF-8'?>
<osm version="0.6" generator="libosmium/2.20.0">
  <way id="17281218" version="2" timestamp="2009-08-03T13:34:35Z" uid="4467" user="Rosscoe" changeset="2025552">
    <nd ref="179036738"/>
    <nd ref="139089112"/>
    <tag k="highway" v="residential"/>
    <tag k="name" v="Barrow Street"/>
    <tag k="oneway" v="yes"/>
  </way>
  <way id="17281218" version="3" timestamp="2010-07-09T05:09:19Z" uid="74617" user="JohnSmith" changeset="5170972">
    <nd ref="179036738"/>
    <nd ref="139089112"/>
    <tag k="highway" v="residential"/>
    <tag k="maxspeed" v="50"/>
    <tag k="maxspeed:source" v="default residential speed limit in Australia"/>
    <tag k="name" v="Barrow Street"/>
    <tag k="oneway" v="yes"/>
  </way>
  <way id="17281221" version="4" timestamp="2010-04-20T07:53:49Z" uid="4467" user="Rosscoe" changeset="4475029">
    <nd ref="179036738"/>
    <nd ref="179036748"/>
    <nd ref="179036697"/>
    <nd ref="702381238"/>
    <tag k="highway" v="residential"/>
    <tag k="name" v="Barrow Street"/>
  </way>
  <way id="17281221" version="6" timestamp="2010-07-09T05:09:05Z" uid="74617" user="JohnSmith" changeset="5170972">
    <nd ref="179036738"/>
    <nd ref="772557017"/>
    <nd ref="179036748"/>
    <nd ref="179036697"/>
    <nd ref="702381238"/>
    <tag k="highway" v="residential"/>
    <tag k="maxspeed" v="50"/>
    <tag k="maxspeed:source" v="default residential speed limit in Australia"/>
    <tag k="name" v="Barrow Street"/>
  </way>
  <way id="17281222" version="3" timestamp="2010-07-09T03:01:37Z" uid="74617" user="JohnSmith" changeset="5170739">
    <nd ref="179036748"/>
    <nd ref="772556975"/>
    <nd ref="772556978"/>
    <nd ref="179036757"/>
    <nd ref="179036766"/>
    <nd ref="772556988"/>
    <nd ref="179036777"/>
    <nd ref="772556994"/>
    <nd ref="179036791"/>
    <nd ref="772556996"/>
    <nd ref="179036807"/>
    <nd ref="772556998"/>
    <nd ref="179036819"/>
    <nd ref="157840390"/>
    <tag k="highway" v="residential"/>
    <tag k="maxspeed" v="50"/>
    <tag k="maxspeed:source" v="default residential speed limit in Australia"/>
    <tag k="name" v="Crisp Avenue"/>
  </way>
  <way id="17281224" version="4" timestamp="2010-07-09T05:09:23Z" uid="74617" user="JohnSmith" changeset="5170972">
    <nd ref="179036833"/>
    <nd ref="179036848"/>
    <nd ref="772564319"/>
    <tag k="highway" v="residential"/>
    <tag k="maxspeed" v="50"/>
    <tag k="maxspeed:source" v="default residential speed limit in Australia"/>
    <tag k="name" v="McPherson Street"/>
  </way>
  <way id="17281225" version="4" timestamp="2010-07-09T05:09:15Z" uid="74617" user="JohnSmith" changeset="5170972">
    <nd ref="179036861"/>
    <nd ref="179036868"/>
    <nd ref="772564320"/>
    <nd ref="563757774"/>
    <tag k="highway" v="residential"/>
    <tag k="maxspeed" v="50"/>
    <tag k="maxspeed:source" v="default residential speed limit in Australia"/>
    <tag k="name" v="Grant Street"/>
  </way>
  <way id="17281229" version="4" timestamp="2010-07-09T02:56:25Z" uid="74617" user="JohnSmith" changeset="5170739">
    <nd ref="179036873"/>
    <nd ref="567772714"/>
    <nd ref="179036878"/>
    <tag k="highway" v="residential"/>
    <tag k="maxspeed" v="50"/>
    <tag k="maxspeed:source" v="default residential speed limit in Australia"/>
    <tag k="name" v="Payne Street"/>
  </way>
  <way id="17281230" version="2" timestamp="2010-07-09T02:58:31Z" uid="74617" user="JohnSmith" changeset="5170739">
    <nd ref="179036883"/>
    <nd ref="179036890"/>
    <tag k="highway" v="residential"/>
    <tag k="maxspeed" v="50"/>
    <tag k="maxspeed:source" v="default residential speed limit in Australia"/>
    <tag k="name" v="Lillian Street"/>
  </way>
  <way id="17281231" version="2" timestamp="2010-07-09T03:00:39Z" uid="74617" user="JohnSmith" changeset="5170739">
    <nd ref="179036895"/>
    <nd ref="179036899"/>
    <tag k="highway" v="residential"/>
    <tag k="maxspeed" v="50"/>
    <tag k="maxspeed:source" v="default residential speed limit in Australia"/>
    <tag k="name" v="Bishop Street"/>
  </way>
  <way id="17281232" version="2" timestamp="2009-08-03T13:34:35Z" uid="4467" user="Rosscoe" changeset="2025552">
    <nd ref="179036932"/>
    <nd ref="179036909"/>
    <tag k="highway" v="residential"/>
    <tag k="name" v="Leithead Street"/>
    <tag k="oneway" v="yes"/>
  </way>
  <way id="17281232" version="3" timestamp="2010-07-09T05:09:05Z" uid="74617" user="JohnSmith" changeset="5170972">
    <nd ref="179036932"/>
    <nd ref="179036909"/>
    <tag k="highway" v="residential"/>
    <tag k="maxspeed" v="50"/>
    <tag k="maxspeed:source" v="default residential speed limit in Australia"/>
    <tag k="name" v="Leithead Street"/>
    <tag k="oneway" v="yes"/>
  </way>
  <way id="17281233" version="2" timestamp="2010-07-09T05:09:24Z" uid="74617" user="JohnSmith" changeset="5170972">
    <nd ref="179036932"/>
    <nd ref="179036920"/>
    <tag k="highway" v="residential"/>
    <tag k="maxspeed" v="50"/>
    <tag k="maxspeed:source" v="default residential speed limit in Australia"/>
    <tag k="name" v="Leithead Street"/>
  </way>
  <way id="17281234" version="3" timestamp="2010-07-09T05:09:16Z" uid="74617" user="JohnSmith" changeset="5170972">
    <nd ref="179036939"/>
    <nd ref="179036952"/>
    <tag k="highway" v="residential"/>
    <tag k="maxspeed" v="50"/>
    <tag k="maxspeed:source" v="default residential speed limit in Australia"/>
    <tag k="name" v="Henty Street"/>
    <tag k="source" v="nearmap"/>
  </way>
  <way id="17281235" version="3" timestamp="2010-07-09T05:09:07Z" uid="74617" user="JohnSmith" changeset="5170972">
    <nd ref="179036976"/>
    <nd ref="179036986"/>
    <tag k="highway" v="residential"/>
    <tag k="maxspeed" v="50"/>
    <tag k="maxspeed:source" v="default residential speed limit in Australia"/>
    <tag k="name" v="North Street"/>
    <tag k="source" v="nearmap"/>
  </way>
  <way id="17281236" version="3" timestamp="2010-07-09T05:09:12Z" uid="74617" user="JohnSmith" changeset="5170972">
    <nd ref="139080367"/>
    <nd ref="139080713"/>
    <tag k="highway" v="residential"/>
    <tag k="maxspeed" v="50"/>
    <tag k="maxspeed:source" v="default residential speed limit in Australia"/>
    <tag k="name" v="Ashmore Street"/>
  </way>
  <way id="17281499" version="5" timestamp="2010-07-06T08:45:42Z" uid="74617" user="JohnSmith" changeset="5147679">
    <nd ref="179063046"/>
    <nd ref="179063047"/>
    <nd ref="179063048"/>
    <nd ref="179063049"/>
    <nd ref="179039904"/>
    <nd ref="179039907"/>
    <nd ref="179039909"/>
    <nd ref="179039911"/>
    <nd ref="179039913"/>
    <nd ref="179039915"/>
    <nd ref="179039932"/>
    <tag k="highway" v="residential"/>
    <tag k="maxspeed" v="50"/>
    <tag k="maxspeed:source" v="default residential speed limit in Australia"/>
    <tag k="name" v="Coonara Street"/>
  </way>
  <way id="17281501" version="4" timestamp="2010-04-21T04:10:20Z" uid="4467" user="Rosscoe" changeset="4483225">
    <nd ref="179039932"/>
    <nd ref="179039933"/>
    <nd ref="703038113"/>
    <tag k="highway" v="tertiary"/>
  </way>
  <way id="17281502" version="5" timestamp="2010-07-06T08:46:04Z" uid="74617" user="JohnSmith" changeset="5147679">
    <nd ref="179039907"/>
    <nd ref="179039942"/>
    <nd ref="179039943"/>
    <nd ref="179039944"/>
    <nd ref="179039945"/>
    <tag k="highway" v="residential"/>
    <tag k="maxspeed" v="50"/>
    <tag k="maxspeed:source" v="default residential speed limit in Australia"/>
    <tag k="name" v="Gill Street"/>
  </way>
  <way id="17281503" version="5" timestamp="2010-07-06T08:44:57Z" uid="74617" user="JohnSmith" changeset="5147679">
    <nd ref="179039945"/>
    <nd ref="179039947"/>
    <nd ref="179039964"/>
    <tag k="highway" v="residential"/>
    <tag k="maxspeed" v="50"/>
    <tag k="maxspeed:source" v="default residential speed limit in Australia"/>
    <tag k="name" v="Gosling Street"/>
  </way>
  <way id="17281505" version="7" timestamp="2010-04-21T04:10:20Z" uid="4467" user="Rosscoe" changeset="4483225">
    <nd ref="179039951"/>
    <nd ref="179039953"/>
    <nd ref="179039956"/>
    <nd ref="179039963"/>
    <tag k="highway" v="tertiary"/>
    <tag k="name" v="Arnold Street"/>
    <tag k="oneway" v="yes"/>
  </way>
  <way id="17281508" version="8" timestamp="2010-07-06T08:44:38Z" uid="74617" user="JohnSmith" changeset="5147679">
    <nd ref="179039965"/>
    <nd ref="570432785"/>
    <tag k="highway" v="residential"/>
    <tag k="maxspeed" v="50"/>
    <tag k="maxspeed:source" v="default residential speed limit in Australia"/>
    <tag k="name" v="Reuben Street"/>
  </way>
  <way id="17281510" version="6" timestamp="2010-07-06T08:47:43Z" uid="74617" user="JohnSmith" changeset="5147679">
    <nd ref="179039974"/>
    <nd ref="179039975"/>
    <nd ref="179039990"/>
    <tag k="highway" v="residential"/>
    <tag k="maxspeed" v="50"/>
    <tag k="maxspeed:source" v="default residential speed limit in Australia"/>
    <tag k="name" v="Stella Street"/>
    <tag k="oneway" v="yes"/>
  </way>
  <way id="17281511" version="6" timestamp="2010-07-06T08:46:27Z" uid="74617" user="JohnSmith" changeset="5147679">
    <nd ref="179039991"/>
    <nd ref="179039980"/>
    <nd ref="179039974"/>
    <tag k="highway" v="residential"/>
    <tag k="maxspeed" v="50"/>
    <tag k="maxspeed:source" v="default residential speed limit in Australia"/>
    <tag k="name" v="Stella Street"/>
    <tag k="oneway" v="yes"/>
  </way>
  <way id="17281512" version="5" timestamp="2010-07-06T08:47:00Z" uid="74617" user="JohnSmith" changeset="5147679">
    <nd ref="179039967"/>
    <nd ref="179039984"/>
    <nd ref="179039985"/>
    <nd ref="179039989"/>
    <tag k="highway" v="residential"/>
    <tag k="maxspeed" v="50"/>
    <tag k="maxspeed:source" v="default residential speed limit in Australia"/>
    <tag k="name" v="Rita Street"/>
  </way>
  <way id="17281513" version="9" timestamp="2010-07-06T08:45:55Z" uid="74617" user="JohnSmith" changeset="5147679">
    <nd ref="179058959"/>
    <nd ref="601447392"/>
    <nd ref="186945973"/>
    <nd ref="179039989"/>
    <nd ref="179039990"/>
    <nd ref="179039991"/>
    <nd ref="570432785"/>
    <nd ref="179039993"/>
    <nd ref="179039994"/>
    <nd ref="179039995"/>
    <nd ref="179039904"/>
    <tag k="highway" v="residential"/>
    <tag k="maxspeed" v="50"/>
    <tag k="maxspeed:source" v="default residential speed limit in Australia"/>
    <tag k="name" v="Harold Street"/>
  </way>
  <way id="17281514" version="6" timestamp="2010-07-06T08:44:50Z" uid="74617" user="JohnSmith" changeset="5147679">
    <nd ref="570432785"/>
    <nd ref="179039999"/>
    <nd ref="179040000"/>
    <nd ref="179040001"/>
    <tag k="highway" v="residential"/>
    <tag k="maxspeed" v="50"/>
    <tag k="maxspeed:source" v="default residential speed limit in Australia"/>
    <tag k="name" v="Reuben Street"/>
  </way>
  <way id="17281515" version="6" timestamp="2010-04-21T04:10:20Z" uid="4467" user="Rosscoe" changeset="4483225">
    <nd ref="703038115"/>
    <nd ref="179103114"/>
    <nd ref="179103115"/>
    <nd ref="179103116"/>
    <nd ref="179103117"/>
    <nd ref="179103119"/>
    <nd ref="179040019"/>
    <tag k="highway" v="residential"/>
    <tag k="name" v="Newbolt Street"/>
  </way>
  <way id="17281515" version="7" timestamp="2010-07-06T08:43:41Z" uid="74617" user="JohnSmith" changeset="5147679">
    <nd ref="703038115"/>
    <nd ref="179103114"/>
    <nd ref="179103115"/>
    <nd ref="179103116"/>
    <nd ref="179103117"/>
    <nd ref="179103119"/>
    <nd ref="179040019"/>
    <tag k="highway" v="residential"/>
    <tag k="maxspeed" v="50"/>
    <tag k="maxspeed:source" v="default residential speed limit in Australia"/>
    <tag k="name" v="Newbolt Street"/>
  </way>
  <way id="17281516" version="5" timestamp="2010-07-06T08:46:13Z" uid="74617" user="JohnSmith" changeset="5147679">
    <nd ref="179043062"/>
    <nd ref="179040006"/>
    <nd ref="179040007"/>
    <nd ref="179040019"/>
    <tag k="highway" v="residential"/>
    <tag k="maxspeed" v="50"/>
    <tag k="maxspeed:source" v="default residential speed limit in Australia"/>
    <tag k="name" v="Newbolt Street"/>
  </way>
  <way id="17281517" version="7" timestamp="2010-07-06T08:45:08Z" uid="74617" user="JohnSmith" changeset="5147679">
    <nd ref="179053158"/>
    <nd ref="179040009"/>
    <nd ref="179040011"/>
    <nd ref="179039963"/>
    <tag k="highway" v="residential"/>
    <tag k="maxspeed" v="50"/>
    <tag k="maxspeed:source" v="default residential speed limit in Australia"/>
    <tag k="name" v="Berkley Street"/>
  </way>
  <way id="17281518" version="5" timestamp="2010-07-06T08:44:01Z" uid="74617" user="JohnSmith" changeset="5147679">
    <nd ref="179040009"/>
    <nd ref="179040007"/>
    <tag k="highway" v="residential"/>
    <tag k="maxspeed" v="50"/>
    <tag k="maxspeed:source" v="default residential speed limit in Australia"/>
    <tag k="name" v="Paxton Street"/>
  </way>
  <way id="17281519" version="6" timestamp="2010-07-06T08:48:15Z" uid="74617" user="JohnSmith" changeset="5147679">
    <nd ref="179040011"/>
    <nd ref="179040019"/>
    <tag k="highway" v="residential"/>
    <tag k="maxspeed" v="50"/>
    <tag k="maxspeed:source" v="default residential speed limit in Australia"/>
    <tag k="name" v="Otway Street"/>
  </way>
  <way id="17281520" version="6" timestamp="2010-07-06T08:43:23Z" uid="74617" user="JohnSmith" changeset="5147679">
    <nd ref="81981698"/>
    <nd ref="179040045"/>
    <tag k="highway" v="residential"/>
    <tag k="maxspeed" v="50"/>
    <tag k="maxspeed:source" v="default residential speed limit in Australia"/>
    <tag k="name" v="Opal Street"/>
  </way>
  <way id="17281521" version="7" timestamp="2010-07-06T08:47:33Z" uid="74617" user="JohnSmith" changeset="5147679">
    <nd ref="81984551"/>
    <nd ref="179040022"/>
    <nd ref="179040025"/>
    <nd ref="179040027"/>
    <nd ref="179040028"/>
    <nd ref="179040023"/>
    <tag k="highway" v="residential"/>
    <tag k="maxspeed" v="50"/>
    <tag k="maxspeed:source" v="default residential speed limit in Australia"/>
    <tag k="name" v="Turquoise Street"/>
  </way>
  <way id="17281522" version="5" timestamp="2010-07-06T08:46:22Z" uid="74617" user="JohnSmith" changeset="5147679">
    <nd ref="179040023"/>
    <nd ref="179040024"/>
    <nd ref="179040026"/>
    <nd ref="179040029"/>
    <nd ref="179040034"/>
    <tag k="highway" v="residential"/>
    <tag k="maxspeed" v="50"/>
    <tag k="maxspeed:source" v="default residential speed limit in Australia"/>
    <tag k="name" v="Amethyst Street"/>
  </way>
  <way id="17281523" version="5" timestamp="2010-07-06T08:45:19Z" uid="74617" user="JohnSmith" changeset="5147679">
    <nd ref="179040034"/>
    <nd ref="179040035"/>
    <nd ref="179040036"/>
    <nd ref="179040053"/>
    <tag k="highway" v="residential"/>
    <tag k="maxspeed" v="50"/>
    <tag k="maxspeed:source" v="default residential speed limit in Australia"/>
    <tag k="name" v="Jasper Street"/>
  </way>
  <way id="17281525" version="12" timestamp="2010-07-06T08:46:41Z" uid="74617" user="JohnSmith" changeset="5147679">
    <nd ref="177033311"/>
    <nd ref="179040066"/>
    <nd ref="179040064"/>
    <nd ref="179040062"/>
    <nd ref="179040060"/>
    <nd ref="179040058"/>
    <nd ref="179052320"/>
    <nd ref="179040057"/>
    <nd ref="179040056"/>
    <nd ref="181005066"/>
    <nd ref="179040055"/>
    <nd ref="179040054"/>
    <nd ref="179040053"/>
    <nd ref="179040052"/>
    <nd ref="179040051"/>
    <nd ref="179040050"/>
    <nd ref="179040022"/>
    <nd ref="179040040"/>
    <nd ref="179040041"/>
    <nd ref="179040042"/>
    <nd ref="179040043"/>
    <nd ref="179040044"/>
    <nd ref="179040045"/>
    <tag k="highway" v="residential"/>
    <tag k="maxspeed" v="50"/>
    <tag k="maxspeed:source" v="default residential speed limit in Australia"/>
    <tag k="name" v="Sapphire Street"/>
  </way>
  <way id="17281526" version="5" timestamp="2010-04-21T04:10:19Z" uid="4467" user="Rosscoe" changeset="4483225">
    <nd ref="703038119"/>
    <nd ref="179040065"/>
    <nd ref="179040067"/>
    <nd ref="179040068"/>
    <nd ref="179062129"/>
    <tag k="highway" v="residential"/>
    <tag k="name" v="Newbolt Street"/>
  </way>
  <way id="17281526" version="6" timestamp="2010-07-06T08:45:32Z" uid="74617" user="JohnSmith" changeset="5147679">
    <nd ref="703038119"/>
    <nd ref="179040065"/>
    <nd ref="179040067"/>
    <nd ref="179040068"/>
    <nd ref="179062129"/>
    <tag k="highway" v="residential"/>
    <tag k="maxspeed" v="50"/>
    <tag k="maxspeed:source" v="default residential speed limit in Australia"/>
    <tag k="name" v="Newbolt Street"/>
  </way>
  <way id="17281723" version="11" timestamp="2010-03-20T17:11:23Z" uid="74617" user="JohnSmith" changeset="4182184">
    <nd ref="92236729"/>
    <nd ref="179042518"/>
    <nd ref="81981242"/>
    <tag k="highway" v="primary"/>
    <tag k="name" v="Holland Road"/>
    <tag k="oneway" v="yes"/>
  </way>
  <way id="17281771" version="6" timestamp="2010-03-20T17:11:23Z" uid="74617" user="JohnSmith" changeset="4182184">
    <nd ref="92238312"/>
    <nd ref="179043033"/>
    <nd ref="81981243"/>
    <tag k="highway" v="primary"/>
    <tag k="name" v="Boundary Road"/>
    <tag k="oneway" v="yes"/>
  </way>
  <way id="17281935" version="5" timestamp="2010-03-20T17:11:23Z" uid="74617" user="JohnSmith" changeset="4182184">
    <nd ref="81981242"/>
    <nd ref="179042745"/>
    <nd ref="92238312"/>
    <tag k="highway" v="primary"/>
    <tag k="name" v="Boundary Road"/>
    <tag k="oneway" v="yes"/>
  </way>
  <way id="17281942" version="7" timestamp="2010-03-20T17:11:22Z" uid="74617" user="JohnSmith" changeset="4182184">
    <nd ref="81981243"/>
    <nd ref="179043038"/>
    <nd ref="92236729"/>
    <tag k="highway" v="primary"/>
    <tag k="name" v="Holland Road"/>
    <tag k="oneway" v="yes"/>
  </way>
</osm>
