<?xml version='1.0' encoding='UTF-8'?>
<osm version="0.6" generator="libosmium/2.20.0">
  <way id="17285354" version="5" timestamp="2010-07-06T08:47:11Z" uid="74617" user="JohnSmith" changeset="5147679">
    <nd ref="179066666"/>
    <nd ref="179067355"/>
    <nd ref="179067356"/>
    <tag k="highway" v="residential"/>
    <tag k="maxspeed" v="50"/>
    <tag k="maxspeed:source" v="default residential speed limit in Australia"/>
    <tag k="name" v="Burlington Street"/>
    <tag k="source:name" v="survey"/>
  </way>
  <way id="17285437" version="4" timestamp="2010-07-06T08:47:19Z" uid="74617" user="JohnSmith" changeset="5147679">
    <nd ref="179058959"/>
    <nd ref="179067755"/>
    <nd ref="179067756"/>
    <nd ref="179067758"/>
    <nd ref="179066664"/>
    <tag k="highway" v="residential"/>
    <tag k="maxspeed" v="50"/>
    <tag k="maxspeed:source" v="default residential speed limit in Australia"/>
    <tag k="name" v="Harold Street"/>
  </way>
  <way id="17285783" version="5" timestamp="2010-07-06T08:44:53Z" uid="74617" user="JohnSmith" changeset="5147679">
    <nd ref="179130253"/>
    <nd ref="179130714"/>
    <nd ref="179130716"/>
    <nd ref="179126560"/>
    <nd ref="179130717"/>
    <nd ref="179069902"/>
    <nd ref="179069903"/>
    <nd ref="179069904"/>
    <nd ref="179069905"/>
    <tag k="highway" v="residential"/>
    <tag k="maxspeed" v="50"/>
    <tag k="maxspeed:source" v="default residential speed limit in Australia"/>
    <tag k="name" v="Emma Street"/>
  </way>
  <way id="17285818" version="5" timestamp="2010-07-06T08:44:22Z" uid="74617" user="JohnSmith" changeset="5147679">
    <nd ref="179058526"/>
    <nd ref="179070072"/>
    <nd ref="179069902"/>
    <tag k="highway" v="residential"/>
    <tag k="maxspeed" v="50"/>
    <tag k="maxspeed:source" v="default residential speed limit in Australia"/>
    <tag k="name" v="Yuletide Street"/>
  </way>
</osm>
