<?xml version='1.0' encoding='UTF-8'?>
<osm version="0.6" generator="libosmium/2.20.0">
  <way id="17293511" version="4" timestamp="2010-02-14T15:49:17Z" uid="74617" user="JohnSmith" changeset="3874884">
    <nd ref="143072989"/>
    <nd ref="141456376"/>
    <tag k="highway" v="residential"/>
    <tag k="maxspeed" v="50"/>
    <tag k="name" v="Kendrey Street"/>
  </way>
  <way id="17293534" version="6" timestamp="2010-07-06T09:20:27Z" uid="74617" user="JohnSmith" changeset="5147679">
    <nd ref="179134371"/>
    <nd ref="141456377"/>
    <tag k="highway" v="residential"/>
    <tag k="maxspeed" v="50"/>
    <tag k="maxspeed:source" v="default residential speed limit in Australia"/>
    <tag k="name" v="Ormeley Street"/>
  </way>
  <way id="17293651" version="7" timestamp="2010-07-06T09:21:01Z" uid="74617" user="JohnSmith" changeset="5147679">
    <nd ref="179135132"/>
    <nd ref="260099324"/>
    <nd ref="179135134"/>
    <nd ref="179135136"/>
    <nd ref="260099326"/>
    <nd ref="179135137"/>
    <tag k="highway" v="residential"/>
    <tag k="maxspeed" v="50"/>
    <tag k="maxspeed:source" v="default residential speed limit in Australia"/>
    <tag k="name" v="Rutherford Street"/>
  </way>
  <way id="17293699" version="6" timestamp="2010-07-06T09:15:50Z" uid="74617" user="JohnSmith" changeset="5147679">
    <nd ref="143049803"/>
    <nd ref="179134371"/>
    <nd ref="179134708"/>
    <tag k="highway" v="residential"/>
    <tag k="maxspeed" v="50"/>
    <tag k="maxspeed:source" v="default residential speed limit in Australia"/>
    <tag k="name" v="Venetia Street"/>
  </way>
  <way id="17293859" version="6" timestamp="2010-07-06T09:13:37Z" uid="74617" user="JohnSmith" changeset="5147679">
    <nd ref="143049806"/>
    <nd ref="179136646"/>
    <nd ref="179136647"/>
    <nd ref="179136648"/>
    <nd ref="179135883"/>
    <tag k="highway" v="residential"/>
    <tag k="maxspeed" v="50"/>
    <tag k="maxspeed:source" v="default residential speed limit in Australia"/>
    <tag k="name" v="Detling Street"/>
  </way>
  <way id="17293888" version="6" timestamp="2010-07-06T09:23:09Z" uid="74617" user="JohnSmith" changeset="5147679">
    <nd ref="179136840"/>
    <nd ref="179136842"/>
    <nd ref="179136846"/>
    <tag k="highway" v="residential"/>
    <tag k="maxspeed" v="50"/>
    <tag k="maxspeed:source" v="default residential speed limit in Australia"/>
    <tag k="name" v="Malwood Street"/>
  </way>
  <way id="17293921" version="13" timestamp="2010-07-06T09:23:34Z" uid="74617" user="JohnSmith" changeset="5147679">
    <nd ref="179135882"/>
    <nd ref="179135132"/>
    <nd ref="143078579"/>
    <nd ref="179139306"/>
    <nd ref="179149104"/>
    <tag k="highway" v="residential"/>
    <tag k="maxspeed" v="50"/>
    <tag k="maxspeed:source" v="default residential speed limit in Australia"/>
    <tag k="name" v="Coleridge Street"/>
  </way>
</osm>
