<?xml version='1.0' encoding='UTF-8'?>
<osm version="0.6" generator="libosmium/2.20.0">
  <way id="17294011" version="6" timestamp="2010-07-06T08:44:49Z" uid="74617" user="JohnSmith" changeset="5147679">
    <nd ref="179130251"/>
    <nd ref="179137758"/>
    <nd ref="179137759"/>
    <nd ref="179137760"/>
    <nd ref="179137762"/>
    <tag k="highway" v="residential"/>
    <tag k="maxspeed" v="50"/>
    <tag k="maxspeed:source" v="default residential speed limit in Australia"/>
    <tag k="name" v="Walter Street"/>
    <tag k="source:name" v="Out of copyright estate map. http://onesearch.slq.qld.gov.au/primo_library/libweb/action/getItAction.do?indx=297&amp;ct=getit&amp;doc=slq_voyager758661&amp;frbg=&amp;dum=true&amp;vl(1UI0)=contains&amp;vid=SLQ&amp;vl(58818275UI1)=all_items&amp;srt=rank&amp;indx=291&amp;tab=default_tab&amp;vl(D455007"/>
  </way>
  <way id="17294097" version="5" timestamp="2010-07-06T09:16:36Z" uid="74617" user="JohnSmith" changeset="5147679">
    <nd ref="179138469"/>
    <nd ref="179138470"/>
    <tag k="highway" v="residential"/>
    <tag k="maxspeed" v="50"/>
    <tag k="maxspeed:source" v="default residential speed limit in Australia"/>
    <tag k="name" v="Aldwych Street"/>
  </way>
  <way id="17294143" version="7" timestamp="2010-07-06T09:15:19Z" uid="74617" user="JohnSmith" changeset="5147679">
    <nd ref="179138795"/>
    <nd ref="179138799"/>
    <tag k="highway" v="residential"/>
    <tag k="maxspeed" v="50"/>
    <tag k="maxspeed:source" v="default residential speed limit in Australia"/>
    <tag k="name" v="Doulton Street"/>
  </way>
  <way id="17294209" version="7" timestamp="2010-07-06T09:21:59Z" uid="74617" user="JohnSmith" changeset="5147679">
    <nd ref="179142408"/>
    <nd ref="260099990"/>
    <nd ref="179139304"/>
    <nd ref="179139305"/>
    <nd ref="260099991"/>
    <nd ref="179138795"/>
    <nd ref="179139306"/>
    <tag k="highway" v="residential"/>
    <tag k="maxspeed" v="50"/>
    <tag k="maxspeed:source" v="default residential speed limit in Australia"/>
    <tag k="name" v="Tasman Street"/>
  </way>
  <way id="17294360" version="5" timestamp="2010-07-06T08:46:26Z" uid="74617" user="JohnSmith" changeset="5147679">
    <nd ref="179137762"/>
    <nd ref="179140244"/>
    <nd ref="179140245"/>
    <nd ref="179140246"/>
    <nd ref="179140247"/>
    <nd ref="179140248"/>
    <nd ref="179140249"/>
    <tag k="highway" v="residential"/>
    <tag k="maxspeed" v="50"/>
    <tag k="maxspeed:source" v="default residential speed limit in Australia"/>
    <tag k="name" v="Swain Street"/>
    <tag k="source" v="survey"/>
  </way>
  <way id="17294521" version="4" timestamp="2010-07-06T08:46:05Z" uid="74617" user="JohnSmith" changeset="5147679">
    <nd ref="179123702"/>
    <nd ref="179141237"/>
    <nd ref="179141238"/>
    <nd ref="179141241"/>
    <nd ref="179124171"/>
    <tag k="highway" v="residential"/>
    <tag k="maxspeed" v="50"/>
    <tag k="maxspeed:source" v="default residential speed limit in Australia"/>
    <tag k="name" v="Victor Street"/>
  </way>
  <way id="17294770" version="3" timestamp="2010-07-06T08:47:35Z" uid="74617" user="JohnSmith" changeset="5147679">
    <nd ref="179142400"/>
    <nd ref="179142796"/>
    <nd ref="179067356"/>
    <nd ref="179058959"/>
    <nd ref="179123702"/>
    <tag k="highway" v="residential"/>
    <tag k="maxspeed" v="50"/>
    <tag k="maxspeed:source" v="default residential speed limit in Australia"/>
    <tag k="name" v="Arabilia Street"/>
    <tag k="source:name" v="survey"/>
  </way>
  <way id="17294811" version="4" timestamp="2010-07-06T08:44:33Z" uid="74617" user="JohnSmith" changeset="5147679">
    <nd ref="179067755"/>
    <nd ref="179141237"/>
    <tag k="highway" v="residential"/>
    <tag k="maxspeed" v="50"/>
    <tag k="maxspeed:source" v="default residential speed limit in Australia"/>
    <tag k="name" v="Heriot Street"/>
    <tag k="source:name" v="survey"/>
  </way>
  <way id="17294824" version="9" timestamp="2010-07-06T09:13:55Z" uid="74617" user="JohnSmith" changeset="5147679">
    <nd ref="179143047"/>
    <nd ref="179152454"/>
    <nd ref="179146699"/>
    <nd ref="179143048"/>
    <tag k="highway" v="residential"/>
    <tag k="maxspeed" v="50"/>
    <tag k="maxspeed:source" v="default residential speed limit in Australia"/>
    <tag k="name" v="Risdon Street"/>
  </way>
  <way id="17294959" version="4" timestamp="2010-07-06T08:45:18Z" uid="74617" user="JohnSmith" changeset="5147679">
    <nd ref="179123702"/>
    <nd ref="179143905"/>
    <nd ref="179143906"/>
    <nd ref="179143908"/>
    <tag k="highway" v="residential"/>
    <tag k="maxspeed" v="50"/>
    <tag k="maxspeed:source" v="default residential speed limit in Australia"/>
    <tag k="name" v="Victor Street"/>
  </way>
</osm>
