<?xml version='1.0' encoding='UTF-8'?>
<osm version="0.6" generator="libosmium/2.20.0">
  <way id="17497156" version="6" timestamp="2008-11-12T21:37:04Z" uid="7617" user="Franc" changeset="738861">
    <nd ref="32658317"/>
    <nd ref="311635755"/>
    <nd ref="311635688"/>
    <nd ref="213457356"/>
    <nd ref="311635677"/>
    <nd ref="181199461"/>
    <nd ref="181199462"/>
    <nd ref="311635692"/>
    <nd ref="181199464"/>
    <tag k="created_by" v="Potlatch 0.10c"/>
    <tag k="highway" v="secondary"/>
    <tag k="lcn" v="yes"/>
    <tag k="name" v="Elizabeth Street"/>
  </way>
  <way id="17497156" version="7" timestamp="2010-02-23T07:39:27Z" uid="7617" user="Franc" changeset="3949884">
    <nd ref="32658317"/>
    <nd ref="651272531"/>
    <nd ref="311635755"/>
    <nd ref="311635688"/>
    <nd ref="213457356"/>
    <nd ref="311635677"/>
    <nd ref="181199461"/>
    <nd ref="181199462"/>
    <nd ref="311635692"/>
    <nd ref="181199464"/>
    <tag k="highway" v="secondary"/>
    <tag k="lcn" v="yes"/>
    <tag k="name" v="Elizabeth Street"/>
  </way>
  <way id="17497156" version="8" timestamp="2010-02-23T10:59:14Z" uid="7617" user="Franc" changeset="3952179">
    <nd ref="32658317"/>
    <nd ref="651272531"/>
    <nd ref="311635755"/>
    <nd ref="311635688"/>
    <nd ref="651376740"/>
    <nd ref="213457356"/>
    <nd ref="651376742"/>
    <nd ref="311635677"/>
    <nd ref="181199461"/>
    <nd ref="181199462"/>
    <nd ref="311635692"/>
    <nd ref="181199464"/>
    <tag k="highway" v="secondary"/>
    <tag k="lcn" v="yes"/>
    <tag k="name" v="Elizabeth Street"/>
  </way>
  <way id="17497205" version="5" timestamp="2010-02-23T10:59:15Z" uid="7617" user="Franc" changeset="3952179">
    <nd ref="181202723"/>
    <nd ref="215860990"/>
    <nd ref="181202724"/>
    <nd ref="651376674"/>
    <nd ref="181199464"/>
    <tag k="highway" v="residential"/>
    <tag k="name" v="Balfour Street"/>
  </way>
  <way id="17497205" version="6" timestamp="2010-07-08T02:12:22Z" uid="74617" user="JohnSmith" changeset="5162525">
    <nd ref="181202723"/>
    <nd ref="215860990"/>
    <nd ref="181202724"/>
    <nd ref="651376674"/>
    <nd ref="181199464"/>
    <tag k="highway" v="residential"/>
    <tag k="maxspeed" v="50"/>
    <tag k="maxspeed:source" v="default residential speed limit in Australia"/>
    <tag k="name" v="Balfour Street"/>
  </way>
  <way id="17497246" version="6" timestamp="2008-11-12T21:37:10Z" uid="7617" user="Franc" changeset="738861">
    <nd ref="181199466"/>
    <nd ref="215862894"/>
    <nd ref="181199467"/>
    <nd ref="311635695"/>
    <nd ref="181199469"/>
    <nd ref="311635704"/>
    <nd ref="181203277"/>
    <tag k="created_by" v="Potlatch 0.10c"/>
    <tag k="highway" v="secondary"/>
    <tag k="lcn" v="yes"/>
    <tag k="name" v="Swanns Lane"/>
  </way>
  <way id="17497246" version="7" timestamp="2010-02-23T10:59:16Z" uid="7617" user="Franc" changeset="3952179">
    <nd ref="181199466"/>
    <nd ref="215862894"/>
    <nd ref="181199467"/>
    <nd ref="651376667"/>
    <nd ref="311635695"/>
    <nd ref="651376655"/>
    <nd ref="181199469"/>
    <nd ref="311635704"/>
    <nd ref="181203277"/>
    <tag k="highway" v="secondary"/>
    <tag k="lcn" v="yes"/>
    <tag k="name" v="Swanns Lane"/>
  </way>
  <way id="17497358" version="7" timestamp="2008-11-12T21:37:08Z" uid="7617" user="Franc" changeset="738861">
    <nd ref="181203277"/>
    <nd ref="181199471"/>
    <nd ref="181199472"/>
    <nd ref="181199473"/>
    <nd ref="213442687"/>
    <nd ref="215906458"/>
    <nd ref="28548061"/>
    <tag k="created_by" v="Potlatch 0.10c"/>
    <tag k="highway" v="secondary"/>
    <tag k="lcn" v="yes"/>
    <tag k="name" v="Park Road"/>
  </way>
  <way id="17497358" version="8" timestamp="2010-02-23T10:59:15Z" uid="7617" user="Franc" changeset="3952179">
    <nd ref="181203277"/>
    <nd ref="651376624"/>
    <nd ref="181199471"/>
    <nd ref="651376626"/>
    <tag k="highway" v="secondary"/>
    <tag k="lcn" v="yes"/>
    <tag k="name" v="Park Road"/>
  </way>
  <way id="17497469" version="4" timestamp="2010-02-23T10:59:16Z" uid="7617" user="Franc" changeset="3952179">
    <nd ref="181199464"/>
    <nd ref="651376677"/>
    <nd ref="651376679"/>
    <nd ref="181199466"/>
    <tag k="highway" v="secondary"/>
    <tag k="lcn" v="yes"/>
    <tag k="name" v="Balfour Street"/>
  </way>
  <way id="17497621" version="5" timestamp="2010-02-14T17:09:00Z" uid="74617" user="JohnSmith" changeset="3875836">
    <nd ref="181207165"/>
    <nd ref="181193083"/>
    <tag k="foot" v="yes"/>
    <tag k="highway" v="cycleway"/>
  </way>
  <way id="17497899" version="5" timestamp="2010-02-14T17:09:00Z" uid="74617" user="JohnSmith" changeset="3875836">
    <nd ref="181192741"/>
    <nd ref="181208253"/>
    <tag k="foot" v="yes"/>
    <tag k="highway" v="cycleway"/>
  </way>
  <way id="17497922" version="8" timestamp="2010-02-23T07:39:28Z" uid="7617" user="Franc" changeset="3949884">
    <nd ref="181210047"/>
    <nd ref="181211149"/>
    <nd ref="651272535"/>
    <nd ref="181211151"/>
    <nd ref="181213000"/>
    <nd ref="181211152"/>
    <nd ref="181211154"/>
    <nd ref="181223286"/>
    <tag k="highway" v="unclassified"/>
    <tag k="name" v="Treacy Street"/>
    <tag k="oneway" v="yes"/>
  </way>
  <way id="17497922" version="9" timestamp="2010-02-23T10:59:17Z" uid="7617" user="Franc" changeset="3952179">
    <nd ref="181210047"/>
    <nd ref="181211149"/>
    <nd ref="651272535"/>
    <nd ref="181211151"/>
    <nd ref="181213000"/>
    <nd ref="181211152"/>
    <nd ref="651376766"/>
    <nd ref="651376752"/>
    <nd ref="181211154"/>
    <nd ref="181223286"/>
    <tag k="highway" v="unclassified"/>
    <tag k="name" v="Treacy Street"/>
    <tag k="oneway" v="yes"/>
  </way>
  <way id="17497922" version="15" timestamp="2011-02-05T03:08:34Z" uid="30201" user="rrankin" changeset="7189177">
    <nd ref="181210047"/>
    <nd ref="1055992503"/>
    <nd ref="1055992491"/>
    <nd ref="651272535"/>
    <nd ref="181211151"/>
    <nd ref="1080153247"/>
    <nd ref="1080153230"/>
    <nd ref="181213000"/>
    <nd ref="1080153239"/>
    <nd ref="1055534637"/>
    <nd ref="1055534638"/>
    <nd ref="181211152"/>
    <nd ref="651376766"/>
    <nd ref="1080136013"/>
    <nd ref="181211154"/>
    <nd ref="864627400"/>
    <nd ref="181223286"/>
    <tag k="highway" v="tertiary"/>
    <tag k="name" v="Treacy Street"/>
    <tag k="oneway" v="yes"/>
  </way>
  <way id="17497988" version="2" timestamp="2008-12-05T22:01:25Z" uid="7617" user="Franc" changeset="131274">
    <nd ref="181211149"/>
    <nd ref="316861842"/>
    <nd ref="181212043"/>
    <tag k="created_by" v="Potlatch 0.5d"/>
    <tag k="highway" v="residential"/>
    <tag k="name" v="Hill Street"/>
  </way>
  <way id="17497988" version="4" timestamp="2010-02-23T07:39:30Z" uid="7617" user="Franc" changeset="3949884">
    <nd ref="181211149"/>
    <nd ref="316861842"/>
    <nd ref="651272536"/>
    <nd ref="651272537"/>
    <nd ref="181212043"/>
    <nd ref="651272538"/>
    <nd ref="416704405"/>
    <tag k="highway" v="residential"/>
    <tag k="name" v="Hill Street"/>
    <tag k="source" v="survey"/>
  </way>
  <way id="17497988" version="5" timestamp="2010-07-08T02:12:16Z" uid="74617" user="JohnSmith" changeset="5162525">
    <nd ref="181211149"/>
    <nd ref="316861842"/>
    <nd ref="651272536"/>
    <nd ref="651272537"/>
    <nd ref="181212043"/>
    <nd ref="651272538"/>
    <nd ref="416704405"/>
    <tag k="highway" v="residential"/>
    <tag k="maxspeed" v="50"/>
    <tag k="maxspeed:source" v="default residential speed limit in Australia"/>
    <tag k="name" v="Hill Street"/>
    <tag k="source" v="survey"/>
  </way>
</osm>
