<?xml version='1.0' encoding='UTF-8'?>
<osm version="0.6" generator="libosmium/2.20.0">
  <way id="17490266" version="5" timestamp="2010-02-14T17:08:58Z" uid="74617" user="JohnSmith" changeset="3875836">
    <nd ref="181069203"/>
    <nd ref="181094268"/>
    <nd ref="181094269"/>
    <tag k="highway" v="residential"/>
    <tag k="maxspeed" v="50"/>
    <tag k="name" v="Gordon Street"/>
  </way>
  <way id="17490348" version="5" timestamp="2010-02-14T17:07:43Z" uid="74617" user="JohnSmith" changeset="3875836">
    <nd ref="181045560"/>
    <nd ref="181095368"/>
    <nd ref="181095369"/>
    <nd ref="181027628"/>
    <nd ref="181096101"/>
    <nd ref="181073400"/>
    <tag k="highway" v="residential"/>
    <tag k="maxspeed" v="50"/>
    <tag k="name" v="Stoneham Street"/>
    <tag k="oneway" v="yes"/>
  </way>
  <way id="17490491" version="5" timestamp="2010-02-14T17:09:01Z" uid="74617" user="JohnSmith" changeset="3875836">
    <nd ref="181073398"/>
    <nd ref="181097120"/>
    <tag k="highway" v="residential"/>
    <tag k="maxspeed" v="50"/>
    <tag k="name" v="Ellis Street"/>
  </way>
  <way id="17490687" version="10" timestamp="2010-02-14T17:09:01Z" uid="74617" user="JohnSmith" changeset="3875836">
    <nd ref="181073401"/>
    <nd ref="423518154"/>
    <nd ref="423518155"/>
    <tag k="highway" v="residential"/>
    <tag k="maxspeed" v="50"/>
    <tag k="name" v="Jubilee Street"/>
  </way>
  <way id="17490792" version="5" timestamp="2010-02-14T17:08:58Z" uid="74617" user="JohnSmith" changeset="3875836">
    <nd ref="181094269"/>
    <nd ref="181094537"/>
    <nd ref="181094539"/>
    <nd ref="423518164"/>
    <tag k="highway" v="residential"/>
    <tag k="maxspeed" v="50"/>
    <tag k="name" v="Knowsley Street"/>
  </way>
  <way id="17490969" version="5" timestamp="2010-02-14T17:09:14Z" uid="74617" user="JohnSmith" changeset="3875836">
    <nd ref="181077266"/>
    <nd ref="181103211"/>
    <nd ref="181103213"/>
    <tag k="highway" v="residential"/>
    <tag k="maxspeed" v="50"/>
    <tag k="name" v="Beata Street"/>
  </way>
</osm>
