<?xml version='1.0' encoding='UTF-8'?>
<osm version="0.6" generator="libosmium/2.20.0">
  <way id="17586459" version="7" timestamp="2010-03-31T11:01:12Z" uid="74617" user="JohnSmith" changeset="4284266">
    <nd ref="182052143"/>
    <nd ref="679077634"/>
    <nd ref="679077633"/>
    <nd ref="182053753"/>
    <nd ref="182074914"/>
    <nd ref="182051447"/>
    <nd ref="182052855"/>
    <tag k="highway" v="residential"/>
    <tag k="maxspeed" v="50"/>
    <tag k="name" v="Warwick Street"/>
  </way>
  <way id="17586459" version="8" timestamp="2010-04-21T05:09:35Z" uid="4467" user="Rosscoe" changeset="4483374">
    <nd ref="182052143"/>
    <nd ref="679077634"/>
    <nd ref="679077633"/>
    <nd ref="182053753"/>
    <nd ref="182074914"/>
    <nd ref="182051447"/>
    <nd ref="703047355"/>
    <tag k="highway" v="residential"/>
    <tag k="maxspeed" v="50"/>
    <tag k="name" v="Warwick Street"/>
  </way>
  <way id="17586500" version="4" timestamp="2010-04-21T05:09:35Z" uid="4467" user="Rosscoe" changeset="4483374">
    <nd ref="703047360"/>
    <nd ref="182052857"/>
    <nd ref="182052859"/>
    <tag k="highway" v="residential"/>
    <tag k="maxspeed" v="50"/>
    <tag k="name" v="Warwick Lane"/>
  </way>
  <way id="17586969" version="6" timestamp="2010-02-23T09:50:50Z" uid="7617" user="Franc" changeset="3951734">
    <nd ref="182056196"/>
    <nd ref="182057740"/>
    <nd ref="182057741"/>
    <nd ref="651305646"/>
    <tag k="highway" v="residential"/>
    <tag k="maxspeed" v="50"/>
    <tag k="name" v="Ruby Street"/>
  </way>
</osm>
