<?xml version='1.0' encoding='UTF-8'?>
<osm version="0.6" generator="libosmium/2.20.0">
  <way id="17590107" version="3" timestamp="2010-07-08T02:07:34Z" uid="74617" user="JohnSmith" changeset="5162525">
    <nd ref="182088942"/>
    <nd ref="182091945"/>
    <nd ref="182089470"/>
    <tag k="highway" v="residential"/>
    <tag k="maxspeed" v="50"/>
    <tag k="maxspeed:source" v="default residential speed limit in Australia"/>
    <tag k="name" v="Weston Road"/>
  </way>
  <way id="17590156" version="3" timestamp="2010-07-08T02:13:02Z" uid="74617" user="JohnSmith" changeset="5162525">
    <nd ref="182089537"/>
    <nd ref="182091943"/>
    <nd ref="182090022"/>
    <nd ref="182090024"/>
    <tag k="highway" v="residential"/>
    <tag k="maxspeed" v="50"/>
    <tag k="maxspeed:source" v="default residential speed limit in Australia"/>
    <tag k="name" v="Taunton Road"/>
  </way>
  <way id="17590156" version="4" timestamp="2010-09-20T08:51:15Z" uid="7617" user="Franc" changeset="5827121">
    <nd ref="182089537"/>
    <nd ref="182091943"/>
    <nd ref="919457115"/>
    <tag k="highway" v="residential"/>
    <tag k="maxspeed" v="50"/>
    <tag k="maxspeed:source" v="default residential speed limit in Australia"/>
    <tag k="name" v="Taunton Road"/>
  </way>
  <way id="17590206" version="6" timestamp="2008-09-22T09:10:30Z" uid="30201" user="rrankin" changeset="678672">
    <nd ref="182090122"/>
    <nd ref="182092068"/>
    <nd ref="182091942"/>
    <nd ref="182092790"/>
    <nd ref="182093453"/>
    <nd ref="182090846"/>
    <tag k="created_by" v="Potlatch 0.5d"/>
    <tag k="highway" v="residential"/>
    <tag k="name" v="Wellington Road"/>
  </way>
  <way id="17590206" version="7" timestamp="2010-07-08T02:11:51Z" uid="74617" user="JohnSmith" changeset="5162525">
    <nd ref="182090122"/>
    <nd ref="182092068"/>
    <nd ref="182091942"/>
    <nd ref="182092790"/>
    <nd ref="182093453"/>
    <nd ref="182090846"/>
    <tag k="highway" v="residential"/>
    <tag k="maxspeed" v="50"/>
    <tag k="maxspeed:source" v="default residential speed limit in Australia"/>
    <tag k="name" v="Wellington Road"/>
  </way>
  <way id="17590257" version="2" timestamp="2008-03-27T23:24:17Z" uid="7617" user="Franc" changeset="409439">
    <nd ref="175655469"/>
    <nd ref="182091942"/>
    <nd ref="182091943"/>
    <nd ref="182091945"/>
    <nd ref="182091946"/>
    <tag k="created_by" v="Potlatch 0.5d"/>
    <tag k="highway" v="residential"/>
    <tag k="name" v="Kimberly Road"/>
  </way>
  <way id="17590257" version="3" timestamp="2010-07-08T02:12:29Z" uid="74617" user="JohnSmith" changeset="5162525">
    <nd ref="175655469"/>
    <nd ref="182091942"/>
    <nd ref="182091943"/>
    <nd ref="182091945"/>
    <nd ref="182091946"/>
    <tag k="highway" v="residential"/>
    <tag k="maxspeed" v="50"/>
    <tag k="maxspeed:source" v="default residential speed limit in Australia"/>
    <tag k="name" v="Kimberly Road"/>
  </way>
  <way id="17590278" version="2" timestamp="2009-11-01T19:00:37Z" uid="20587" user="balrog-kun" changeset="3009848">
    <nd ref="182092146"/>
    <nd ref="182092120"/>
    <nd ref="182092123"/>
    <nd ref="182092126"/>
    <nd ref="182092127"/>
    <nd ref="182092128"/>
    <nd ref="182092130"/>
    <nd ref="182092133"/>
    <nd ref="182092134"/>
    <nd ref="182092140"/>
    <tag k="name" v="Łącznica Kolejowa Nr 575"/>
    <tag k="railway" v="rail"/>
    <tag k="ref" v="575"/>
  </way>
  <way id="17590278" version="3" timestamp="2009-11-11T11:17:02Z" uid="20587" user="balrog-kun" changeset="3089068">
    <nd ref="182092146"/>
    <nd ref="182092120"/>
    <nd ref="182092123"/>
    <nd ref="182092126"/>
    <nd ref="182092127"/>
    <nd ref="182092128"/>
    <nd ref="182092130"/>
    <nd ref="182092133"/>
    <nd ref="182092134"/>
    <nd ref="182092140"/>
    <tag k="railway" v="rail"/>
  </way>
  <way id="17590287" version="8" timestamp="2011-02-22T14:37:01Z" uid="20587" user="balrog-kun" changeset="7362943">
    <nd ref="88873465"/>
    <nd ref="182092277"/>
    <nd ref="246696710"/>
    <nd ref="246696714"/>
    <nd ref="182092225"/>
    <nd ref="182092231"/>
    <nd ref="182092234"/>
    <nd ref="571804063"/>
    <nd ref="182092238"/>
    <nd ref="182092240"/>
    <nd ref="716312609"/>
    <tag k="highway" v="tertiary"/>
    <tag k="source" v="landsat"/>
  </way>
  <way id="17590306" version="2" timestamp="2010-07-08T02:11:47Z" uid="74617" user="JohnSmith" changeset="5162525">
    <nd ref="182092068"/>
    <nd ref="175655465"/>
    <tag k="highway" v="residential"/>
    <tag k="maxspeed" v="50"/>
    <tag k="maxspeed:source" v="default residential speed limit in Australia"/>
    <tag k="name" v="Somerset Street"/>
  </way>
  <way id="17590340" version="2" timestamp="2010-07-08T02:11:41Z" uid="74617" user="JohnSmith" changeset="5162525">
    <nd ref="182092790"/>
    <nd ref="175655471"/>
    <tag k="highway" v="residential"/>
    <tag k="maxspeed" v="50"/>
    <tag k="maxspeed:source" v="default residential speed limit in Australia"/>
    <tag k="name" v="Gannons Avenue"/>
  </way>
  <way id="17590406" version="2" timestamp="2010-07-08T02:12:06Z" uid="74617" user="JohnSmith" changeset="5162525">
    <nd ref="182093453"/>
    <nd ref="182094665"/>
    <tag k="highway" v="residential"/>
    <tag k="maxspeed" v="50"/>
    <tag k="maxspeed:source" v="default residential speed limit in Australia"/>
    <tag k="name" v="Beronga Avenue"/>
  </way>
  <way id="17590523" version="5" timestamp="2010-04-18T01:41:59Z" uid="4467" user="Rosscoe" changeset="4453793">
    <nd ref="182095368"/>
    <nd ref="182098479"/>
    <nd ref="700552950"/>
    <tag k="highway" v="residential"/>
    <tag k="name" v="St Georges Road"/>
  </way>
  <way id="17590523" version="6" timestamp="2010-07-08T02:10:05Z" uid="74617" user="JohnSmith" changeset="5162525">
    <nd ref="182095368"/>
    <nd ref="182098479"/>
    <nd ref="700552950"/>
    <tag k="highway" v="residential"/>
    <tag k="maxspeed" v="50"/>
    <tag k="maxspeed:source" v="default residential speed limit in Australia"/>
    <tag k="name" v="St Georges Road"/>
  </way>
  <way id="17590638" version="5" timestamp="2008-03-27T23:24:21Z" uid="7617" user="Franc" changeset="409439"/>
  <way id="17590678" version="2" timestamp="2010-07-08T02:09:36Z" uid="74617" user="JohnSmith" changeset="5162525">
    <nd ref="182023920"/>
    <nd ref="182099329"/>
    <nd ref="182099330"/>
    <tag k="highway" v="residential"/>
    <tag k="maxspeed" v="50"/>
    <tag k="maxspeed:source" v="default residential speed limit in Australia"/>
    <tag k="name" v="Bridge Street"/>
  </way>
  <way id="17590678" version="3" timestamp="2010-09-20T08:51:54Z" uid="7617" user="Franc" changeset="5827121">
    <nd ref="182023920"/>
    <nd ref="182099329"/>
    <tag k="highway" v="residential"/>
    <tag k="maxspeed" v="50"/>
    <tag k="maxspeed:source" v="default residential speed limit in Australia"/>
    <tag k="name" v="Bridge Street"/>
  </way>
  <way id="17590700" version="5" timestamp="2010-07-08T02:12:37Z" uid="74617" user="JohnSmith" changeset="5162525">
    <nd ref="175655470"/>
    <nd ref="182100672"/>
    <nd ref="182100532"/>
    <nd ref="182103861"/>
    <nd ref="182099973"/>
    <tag k="highway" v="residential"/>
    <tag k="maxspeed" v="50"/>
    <tag k="maxspeed:source" v="default residential speed limit in Australia"/>
    <tag k="name" v="Ada Street"/>
  </way>
  <way id="17590735" version="2" timestamp="2010-07-08T02:12:48Z" uid="74617" user="JohnSmith" changeset="5162525">
    <nd ref="182100055"/>
    <nd ref="182100532"/>
    <tag k="highway" v="residential"/>
    <tag k="maxspeed" v="50"/>
    <tag k="maxspeed:source" v="default residential speed limit in Australia"/>
    <tag k="name" v="Rose Avenue"/>
  </way>
  <way id="17590810" version="2" timestamp="2010-09-20T08:51:20Z" uid="7617" user="Franc" changeset="5827121">
    <nd ref="182101900"/>
    <nd ref="919457178"/>
    <nd ref="919457152"/>
    <nd ref="919457086"/>
    <nd ref="182101901"/>
    <nd ref="182101902"/>
    <nd ref="182101904"/>
    <nd ref="182101905"/>
    <nd ref="919457193"/>
    <nd ref="919457135"/>
    <nd ref="919457098"/>
    <nd ref="919457184"/>
    <nd ref="182101906"/>
    <nd ref="182101907"/>
    <nd ref="919457136"/>
    <nd ref="182101900"/>
    <tag k="leisure" v="park"/>
    <tag k="name" v="Flynns Reserve"/>
  </way>
  <way id="17590857" version="9" timestamp="2010-04-18T01:41:59Z" uid="4467" user="Rosscoe" changeset="4453793">
    <nd ref="175655466"/>
    <nd ref="182103327"/>
    <nd ref="182115196"/>
    <nd ref="182109094"/>
    <nd ref="182104996"/>
    <nd ref="700552955"/>
    <tag k="highway" v="residential"/>
    <tag k="name" v="Iliffe Street"/>
    <tag k="source" v="survey"/>
  </way>
  <way id="17590857" version="10" timestamp="2010-07-08T02:11:05Z" uid="74617" user="JohnSmith" changeset="5162525">
    <nd ref="175655466"/>
    <nd ref="182103327"/>
    <nd ref="182115196"/>
    <nd ref="182109094"/>
    <nd ref="182104996"/>
    <nd ref="700552955"/>
    <tag k="highway" v="residential"/>
    <tag k="maxspeed" v="50"/>
    <tag k="maxspeed:source" v="default residential speed limit in Australia"/>
    <tag k="name" v="Iliffe Street"/>
    <tag k="source" v="survey"/>
  </way>
  <way id="17590857" version="11" timestamp="2010-09-20T08:51:34Z" uid="7617" user="Franc" changeset="5827121">
    <nd ref="175655466"/>
    <nd ref="919457163"/>
    <nd ref="919457091"/>
    <nd ref="182103327"/>
    <nd ref="182115196"/>
    <nd ref="182109094"/>
    <nd ref="182104996"/>
    <nd ref="700552955"/>
    <tag k="highway" v="residential"/>
    <tag k="maxspeed" v="50"/>
    <tag k="maxspeed:source" v="default residential speed limit in Australia"/>
    <tag k="name" v="Iliffe Street"/>
    <tag k="source" v="survey"/>
  </way>
  <way id="17590919" version="2" timestamp="2010-07-08T02:13:32Z" uid="74617" user="JohnSmith" changeset="5162525">
    <nd ref="182103327"/>
    <nd ref="182103781"/>
    <tag k="highway" v="residential"/>
    <tag k="maxspeed" v="50"/>
    <tag k="maxspeed:source" v="default residential speed limit in Australia"/>
    <tag k="name" v="Lavender Avenue"/>
  </way>
  <way id="17590977" version="2" timestamp="2010-07-08T02:06:59Z" uid="74617" user="JohnSmith" changeset="5162525">
    <nd ref="182103861"/>
    <nd ref="182104458"/>
    <tag k="highway" v="residential"/>
    <tag k="maxspeed" v="50"/>
    <tag k="maxspeed:source" v="default residential speed limit in Australia"/>
    <tag k="name" v="Toohey Crescent"/>
  </way>
</osm>
