<?xml version='1.0' encoding='UTF-8'?>
<osm version="0.6" generator="libosmium/2.20.0">
  <way id="17711116" version="7" timestamp="2009-10-07T16:16:59Z" uid="86259" user="hasse_osm_korinthenkacker" changeset="2773292">
    <nd ref="183537927"/>
    <nd ref="294250808"/>
    <nd ref="183539549"/>
    <nd ref="411719374"/>
    <nd ref="183539550"/>
    <nd ref="183539551"/>
    <tag k="highway" v="residential"/>
    <tag k="maxspeed" v="30"/>
    <tag k="name" v="Hirtentäschelweg"/>
  </way>
  <way id="17711146" version="7" timestamp="2009-10-07T16:17:00Z" uid="86259" user="hasse_osm_korinthenkacker" changeset="2773292">
    <nd ref="183537456"/>
    <nd ref="183537175"/>
    <nd ref="271667901"/>
    <tag k="highway" v="residential"/>
    <tag k="name" v="Hirtentäschelweg"/>
  </way>
  <way id="17711187" version="2" timestamp="2009-09-30T12:59:16Z" uid="36809" user="pfoten_weg_!_" changeset="2687909">
    <nd ref="183540234"/>
    <nd ref="183540241"/>
    <nd ref="183540252"/>
    <nd ref="183540258"/>
    <nd ref="183540234"/>
    <tag k="building" v="yes"/>
  </way>
  <way id="17711244" version="4" timestamp="2008-10-01T02:09:15Z" uid="36809" user="pfoten_weg_!_" changeset="5644">
    <nd ref="183539550"/>
    <nd ref="183534280"/>
    <nd ref="183540916"/>
    <tag k="created_by" v="RambaZamba"/>
    <tag k="highway" v="residential"/>
    <tag k="name" v="Waldgartenstraße"/>
  </way>
  <way id="17711244" version="5" timestamp="2009-02-15T13:11:33Z" uid="36809" user="pfoten_weg_!_" changeset="463903">
    <nd ref="183539550"/>
    <nd ref="183534280"/>
    <nd ref="183540916"/>
    <tag k="created_by" v="RambaZamba"/>
    <tag k="highway" v="residential"/>
    <tag k="name" v="Waldgartenstraße"/>
    <tag k="source" v="survey"/>
  </way>
  <way id="17711244" version="7" timestamp="2009-09-01T10:38:07Z" uid="36809" user="pfoten_weg_!_" changeset="2335754">
    <nd ref="183539550"/>
    <nd ref="183534280"/>
    <nd ref="183540916"/>
    <tag k="highway" v="residential"/>
    <tag k="name" v="Waldgartenstraße"/>
    <tag k="source" v="survey"/>
  </way>
  <way id="17711273" version="10" timestamp="2008-10-01T02:09:37Z" uid="36809" user="pfoten_weg_!_" changeset="5644">
    <nd ref="661312"/>
    <nd ref="661313"/>
    <nd ref="661314"/>
    <nd ref="661315"/>
    <nd ref="183550439"/>
    <tag k="created_by" v="RambaZamba"/>
    <tag k="foot" v="yes"/>
    <tag k="highway" v="footway"/>
    <tag k="name" v="Waldsaumstraße"/>
  </way>
  <way id="17711273" version="11" timestamp="2009-02-15T13:11:36Z" uid="36809" user="pfoten_weg_!_" changeset="463903">
    <nd ref="661312"/>
    <nd ref="661313"/>
    <nd ref="661314"/>
    <nd ref="661315"/>
    <nd ref="183550439"/>
    <tag k="created_by" v="RambaZamba"/>
    <tag k="foot" v="yes"/>
    <tag k="highway" v="footway"/>
    <tag k="name" v="Waldsaumstraße"/>
    <tag k="source" v="survey"/>
  </way>
  <way id="17711273" version="18" timestamp="2009-10-30T19:56:59Z" uid="36809" user="pfoten_weg_!_" changeset="2992134">
    <nd ref="195479895"/>
    <nd ref="367949598"/>
    <nd ref="367949599"/>
    <nd ref="367949600"/>
    <nd ref="661313"/>
    <nd ref="435414757"/>
    <nd ref="661314"/>
    <nd ref="661315"/>
    <nd ref="183550439"/>
    <tag k="bicycle" v="designated"/>
    <tag k="foot" v="designated"/>
    <tag k="highway" v="path"/>
    <tag k="lit" v="no"/>
  </way>
  <way id="17711400" version="7" timestamp="2008-10-01T02:04:34Z" uid="36809" user="pfoten_weg_!_" changeset="5644">
    <nd ref="1365428"/>
    <nd ref="1473592"/>
    <nd ref="183543542"/>
    <nd ref="183534277"/>
    <nd ref="183543091"/>
    <nd ref="268414108"/>
    <tag k="created_by" v="RambaZamba"/>
    <tag k="highway" v="residential"/>
    <tag k="name" v="Birkenhainstraße"/>
  </way>
  <way id="17711400" version="9" timestamp="2009-10-07T16:16:58Z" uid="86259" user="hasse_osm_korinthenkacker" changeset="2773292">
    <nd ref="1365428"/>
    <nd ref="1473592"/>
    <nd ref="183543542"/>
    <nd ref="183534277"/>
    <nd ref="183543091"/>
    <nd ref="268414108"/>
    <tag k="highway" v="residential"/>
    <tag k="maxspeed" v="30"/>
    <tag k="name" v="Birkenhainstraße"/>
  </way>
  <way id="17711452" version="4" timestamp="2008-10-01T02:03:26Z" uid="36809" user="pfoten_weg_!_" changeset="5644">
    <nd ref="183542434"/>
    <nd ref="183543091"/>
    <tag k="created_by" v="RambaZamba"/>
    <tag k="highway" v="residential"/>
  </way>
  <way id="17711452" version="5" timestamp="2009-02-15T13:09:12Z" uid="36809" user="pfoten_weg_!_" changeset="463903">
    <nd ref="183542434"/>
    <nd ref="183543091"/>
    <tag k="created_by" v="RambaZamba"/>
    <tag k="highway" v="residential"/>
    <tag k="source" v="survey"/>
  </way>
  <way id="17711452" version="6" timestamp="2009-03-24T00:45:32Z" uid="36809" user="pfoten_weg_!_" changeset="853978">
    <nd ref="183542434"/>
    <nd ref="183543091"/>
    <tag k="created_by" v="RambaZamba"/>
    <tag k="highway" v="residential"/>
    <tag k="name" v="NoName"/>
    <tag k="source" v="survey"/>
  </way>
  <way id="17711452" version="9" timestamp="2009-09-01T10:59:11Z" uid="36809" user="pfoten_weg_!_" changeset="2335754">
    <nd ref="183542434"/>
    <nd ref="183543091"/>
    <tag k="highway" v="residential"/>
    <tag k="name" v="FixMe"/>
    <tag k="source" v="survey"/>
  </way>
  <way id="17711452" version="10" timestamp="2009-10-30T19:56:56Z" uid="36809" user="pfoten_weg_!_" changeset="2992134">
    <nd ref="183542434"/>
    <nd ref="183543091"/>
    <tag k="highway" v="residential"/>
    <tag k="name" v="FixMe"/>
  </way>
  <way id="17711516" version="4" timestamp="2009-10-07T16:16:58Z" uid="86259" user="hasse_osm_korinthenkacker" changeset="2773292">
    <nd ref="183543542"/>
    <nd ref="183543872"/>
    <nd ref="183538476"/>
    <tag k="highway" v="residential"/>
    <tag k="maxspeed" v="30"/>
    <tag k="name" v="Goldregenstraße"/>
  </way>
  <way id="17711593" version="4" timestamp="2009-09-04T21:10:26Z" uid="36809" user="pfoten_weg_!_" changeset="2374562">
    <nd ref="183512295"/>
    <nd ref="183545524"/>
    <nd ref="183545526"/>
    <tag k="highway" v="residential"/>
    <tag k="name" v="Eichhornstraße"/>
  </way>
  <way id="17711671" version="4" timestamp="2009-09-04T21:12:27Z" uid="36809" user="pfoten_weg_!_" changeset="2374562">
    <nd ref="183546804"/>
    <nd ref="183546805"/>
    <nd ref="183546807"/>
    <tag k="highway" v="residential"/>
    <tag k="name" v="Waldklausenweg"/>
  </way>
  <way id="17711933" version="6" timestamp="2008-10-01T02:10:19Z" uid="36809" user="pfoten_weg_!_" changeset="5644">
    <nd ref="148612219"/>
    <nd ref="183550436"/>
    <nd ref="183550437"/>
    <nd ref="283173082"/>
    <nd ref="183550438"/>
    <tag k="created_by" v="RambaZamba"/>
    <tag k="highway" v="unclassified"/>
    <tag k="name" v="Zöllerstraße"/>
  </way>
  <way id="17711933" version="7" timestamp="2009-02-15T13:11:55Z" uid="36809" user="pfoten_weg_!_" changeset="463903">
    <nd ref="148612219"/>
    <nd ref="183550436"/>
    <nd ref="183550437"/>
    <nd ref="283173082"/>
    <nd ref="183550438"/>
    <tag k="created_by" v="RambaZamba"/>
    <tag k="highway" v="unclassified"/>
    <tag k="name" v="Zöllerstraße"/>
    <tag k="source" v="survey"/>
  </way>
  <way id="17711933" version="10" timestamp="2009-10-02T18:07:42Z" uid="86259" user="hasse_osm_korinthenkacker" changeset="2715119">
    <nd ref="148612219"/>
    <nd ref="183550436"/>
    <nd ref="183550437"/>
    <nd ref="283173082"/>
    <nd ref="183550438"/>
    <tag k="highway" v="unclassified"/>
    <tag k="lit" v="yes"/>
    <tag k="name" v="Zöllerstraße"/>
  </way>
</osm>
