<?xml version='1.0' encoding='UTF-8'?>
<osm version="0.6" generator="libosmium/2.20.0">
  <way id="17743457" version="1" timestamp="2007-12-22T22:31:22Z" uid="6975" user="ulfl" changeset="393940">
    <nd ref="56357123"/>
    <nd ref="56273746"/>
    <nd ref="56373005"/>
    <nd ref="56373002"/>
    <nd ref="56372995"/>
    <nd ref="56372987"/>
    <nd ref="56326460"/>
    <nd ref="56326449"/>
    <nd ref="56361248"/>
    <tag k="created_by" v="JOSM"/>
    <tag k="highway" v="tertiary"/>
    <tag k="name" v="Am Huxmühlenbach"/>
    <tag k="source" v="frida"/>
  </way>
  <way id="17743459" version="1" timestamp="2007-12-22T22:31:23Z" uid="6975" user="ulfl" changeset="393940">
    <nd ref="56361248"/>
    <nd ref="56361242"/>
    <nd ref="56367759"/>
    <nd ref="56260144"/>
    <nd ref="56352969"/>
    <nd ref="56250819"/>
    <nd ref="56340102"/>
    <nd ref="56340079"/>
    <nd ref="56394042"/>
    <nd ref="56258431"/>
    <nd ref="56391957"/>
    <tag k="created_by" v="JOSM"/>
    <tag k="highway" v="residential"/>
    <tag k="name" v="Meller Straße"/>
    <tag k="source" v="frida"/>
  </way>
  <way id="17743499" version="10" timestamp="2010-02-14T17:07:34Z" uid="74617" user="JohnSmith" changeset="3875836">
    <nd ref="79382425"/>
    <nd ref="358343866"/>
    <nd ref="183893490"/>
    <nd ref="183893492"/>
    <nd ref="358343501"/>
    <nd ref="74799855"/>
    <nd ref="331389455"/>
    <tag k="cycleway" v="lane"/>
    <tag k="highway" v="secondary"/>
    <tag k="name" v="Annerley Road"/>
    <tag k="oneway" v="yes"/>
    <tag k="rcn" v="yes"/>
  </way>
  <way id="17743603" version="3" timestamp="2010-02-14T17:08:52Z" uid="74617" user="JohnSmith" changeset="3875836">
    <nd ref="183871956"/>
    <nd ref="183894825"/>
    <nd ref="183894826"/>
    <nd ref="183884795"/>
    <tag k="highway" v="residential"/>
    <tag k="maxspeed" v="50"/>
    <tag k="name" v="Hawthorne Street"/>
  </way>
  <way id="17743736" version="4" timestamp="2010-02-14T17:08:52Z" uid="74617" user="JohnSmith" changeset="3875836">
    <nd ref="183884795"/>
    <nd ref="183895916"/>
    <tag k="bridge" v="yes"/>
    <tag k="highway" v="residential"/>
    <tag k="layer" v="1"/>
    <tag k="maxspeed" v="50"/>
    <tag k="name" v="Hawthorne Street"/>
  </way>
</osm>
