<?xml version='1.0' encoding='UTF-8'?>
<osm version="0.6" generator="libosmium/2.20.0">
  <way id="17746069" version="7" timestamp="2010-02-14T17:08:51Z" uid="74617" user="JohnSmith" changeset="3875836">
    <nd ref="183913479"/>
    <nd ref="94673055"/>
    <nd ref="206135388"/>
    <nd ref="183911787"/>
    <tag k="highway" v="residential"/>
    <tag k="maxspeed" v="50"/>
    <tag k="name" v="Wilton Street"/>
  </way>
  <way id="17746349" version="2" timestamp="2010-02-14T17:08:53Z" uid="74617" user="JohnSmith" changeset="3875836">
    <nd ref="183911787"/>
    <nd ref="183921106"/>
    <nd ref="183921108"/>
    <nd ref="183921109"/>
    <nd ref="183921111"/>
    <nd ref="183921112"/>
    <nd ref="183921113"/>
    <nd ref="183921114"/>
    <tag k="foot" v="yes"/>
    <tag k="highway" v="footway"/>
  </way>
  <way id="17746522" version="7" timestamp="2009-08-11T11:04:13Z" uid="4467" user="Rosscoe" changeset="2107049">
    <nd ref="21478001"/>
    <nd ref="183922588"/>
    <tag k="highway" v="primary"/>
    <tag k="is_in" v="Brisbane, QLD, Queensland, Australia"/>
    <tag k="name" v="Ipswich Road"/>
  </way>
  <way id="17746522" version="8" timestamp="2010-02-14T17:07:38Z" uid="74617" user="JohnSmith" changeset="3875836">
    <nd ref="21478001"/>
    <nd ref="183922588"/>
    <tag k="highway" v="primary"/>
    <tag k="name" v="Ipswich Road"/>
  </way>
  <way id="17746522" version="9" timestamp="2010-03-21T15:14:56Z" uid="74617" user="JohnSmith" changeset="4192148">
    <nd ref="21478001"/>
    <nd ref="183922588"/>
    <tag k="highway" v="primary"/>
  </way>
  <way id="17746682" version="5" timestamp="2010-02-14T17:07:36Z" uid="74617" user="JohnSmith" changeset="3875836">
    <nd ref="183899108"/>
    <nd ref="183925586"/>
    <tag k="highway" v="residential"/>
    <tag k="maxspeed" v="50"/>
    <tag k="name" v="Gibbon Street"/>
  </way>
  <way id="17746821" version="4" timestamp="2010-02-14T17:10:28Z" uid="74617" user="JohnSmith" changeset="3875836">
    <nd ref="74799844"/>
    <nd ref="183925584"/>
    <nd ref="183925585"/>
    <nd ref="183925586"/>
    <nd ref="183925588"/>
    <nd ref="183925589"/>
    <nd ref="183925590"/>
    <nd ref="183925591"/>
    <tag k="highway" v="unclassified"/>
    <tag k="maxspeed" v="50"/>
    <tag k="name" v="Stanley Street"/>
  </way>
  <way id="17746879" version="1" timestamp="2007-12-22T22:50:57Z" uid="6454" user="B10xxx" changeset="403501">
    <nd ref="183926314"/>
    <nd ref="165508281"/>
    <nd ref="183926325"/>
    <tag k="created_by" v="JOSM"/>
    <tag k="highway" v="footway"/>
  </way>
  <way id="17746879" version="2" timestamp="2008-02-21T22:09:38Z" uid="17602" user="B10xyz" changeset="172037">
    <nd ref="183926314"/>
    <nd ref="165508281"/>
    <tag k="created_by" v="JOSM"/>
    <tag k="highway" v="footway"/>
    <tag k="name" v="CALLE DEL MEGIO"/>
  </way>
  <way id="17746879" version="4" timestamp="2008-06-20T19:20:11Z" uid="17602" user="B10xyz" changeset="239848">
    <nd ref="183926314"/>
    <nd ref="165508281"/>
    <tag k="created_by" v="JOSM"/>
    <tag k="highway" v="footway"/>
    <tag k="name" v="CALLE DEL MEGIO"/>
  </way>
  <way id="17746879" version="6" timestamp="2008-11-28T12:09:40Z" uid="17602" user="B10xyz" changeset="803657">
    <nd ref="165508281"/>
    <nd ref="183926314"/>
    <nd ref="257481056"/>
    <tag k="highway" v="footway"/>
    <tag k="name" v="CALLE DEL MEGIO"/>
    <tag k="note" v="1775 CS"/>
  </way>
  <way id="17746879" version="7" timestamp="2009-07-10T23:20:08Z" uid="17602" user="B10xyz" changeset="1793392">
    <nd ref="165508281"/>
    <nd ref="183926314"/>
    <nd ref="257481056"/>
    <tag k="highway" v="footway"/>
    <tag k="note" v="1775 CS"/>
    <tag k="visible_name" v="CALLE DEL MEGIO"/>
  </way>
  <way id="17746879" version="8" timestamp="2009-11-17T18:21:47Z" uid="17602" user="B10xyz" changeset="3143268">
    <nd ref="165508281"/>
    <nd ref="566316206"/>
    <nd ref="566316232"/>
    <nd ref="183926314"/>
    <nd ref="257481056"/>
    <tag k="highway" v="footway"/>
    <tag k="note" v="1775 CS"/>
    <tag k="visible_name" v="CALLE DEL MEGIO"/>
  </way>
  <way id="17746908" version="11" timestamp="2011-06-03T07:01:42Z" uid="34428" user="usm78-gis" changeset="8326444">
    <nd ref="176809110"/>
    <nd ref="482094428"/>
    <nd ref="183925967"/>
    <nd ref="183925976"/>
    <nd ref="287833506"/>
    <nd ref="209041874"/>
    <nd ref="183925982"/>
    <nd ref="282664876"/>
    <nd ref="183925990"/>
    <nd ref="183925995"/>
    <nd ref="1309819946"/>
    <tag k="highway" v="tertiary"/>
    <tag k="lanes" v="2"/>
    <tag k="lit" v="yes"/>
    <tag k="name" v="Satamatie"/>
    <tag k="oneway" v="no"/>
    <tag k="surface" v="paved"/>
  </way>
  <way id="17746953" version="7" timestamp="2010-02-14T17:07:38Z" uid="74617" user="JohnSmith" changeset="3875836">
    <nd ref="74799847"/>
    <nd ref="355543218"/>
    <nd ref="183927081"/>
    <nd ref="183895916"/>
    <tag k="highway" v="residential"/>
    <tag k="maxspeed" v="50"/>
    <tag k="name" v="Reid Street"/>
    <tag k="oneway" v="yes"/>
  </way>
  <way id="17746995" version="4" timestamp="2010-02-14T17:10:34Z" uid="74617" user="JohnSmith" changeset="3875836">
    <nd ref="331700700"/>
    <nd ref="183927375"/>
    <nd ref="183927376"/>
    <nd ref="94687151"/>
    <tag k="highway" v="motorway_link"/>
    <tag k="name" v="Pacific Motorway"/>
    <tag k="oneway" v="yes"/>
    <tag k="ref" v="MR3"/>
  </way>
</osm>
