<?xml version='1.0' encoding='UTF-8'?>
<osm version="0.6" generator="libosmium/2.20.0">
  <way id="17806106" version="4" timestamp="2010-07-06T08:46:30Z" uid="74617" user="JohnSmith" changeset="5147679">
    <nd ref="184493390"/>
    <nd ref="184473257"/>
    <nd ref="166490501"/>
    <tag k="highway" v="residential"/>
    <tag k="maxspeed" v="50"/>
    <tag k="maxspeed:source" v="default residential speed limit in Australia"/>
    <tag k="name" v="Wingarra Street"/>
  </way>
  <way id="17806155" version="5" timestamp="2010-07-06T08:45:07Z" uid="74617" user="JohnSmith" changeset="5147679">
    <nd ref="166475637"/>
    <nd ref="184491919"/>
    <nd ref="184491920"/>
    <tag k="highway" v="residential"/>
    <tag k="maxspeed" v="50"/>
    <tag k="maxspeed:source" v="default residential speed limit in Australia"/>
    <tag k="name" v="Stamford Street"/>
  </way>
  <way id="17806193" version="5" timestamp="2010-07-06T08:44:52Z" uid="74617" user="JohnSmith" changeset="5147679">
    <nd ref="184478017"/>
    <nd ref="184492245"/>
    <nd ref="184202307"/>
    <tag k="highway" v="residential"/>
    <tag k="maxspeed" v="50"/>
    <tag k="maxspeed:source" v="default residential speed limit in Australia"/>
    <tag k="name" v="Christensen Street"/>
  </way>
  <way id="17806209" version="5" timestamp="2010-07-06T08:47:35Z" uid="74617" user="JohnSmith" changeset="5147679">
    <nd ref="184492410"/>
    <nd ref="184478022"/>
    <nd ref="343550019"/>
    <nd ref="184478020"/>
    <nd ref="184478019"/>
    <nd ref="184478017"/>
    <nd ref="184489730"/>
    <nd ref="184478016"/>
    <nd ref="184478015"/>
    <nd ref="184478014"/>
    <nd ref="184478013"/>
    <nd ref="184471969"/>
    <tag k="highway" v="residential"/>
    <tag k="maxspeed" v="50"/>
    <tag k="maxspeed:source" v="default residential speed limit in Australia"/>
    <tag k="name" v="Lake Street"/>
  </way>
  <way id="17806229" version="4" timestamp="2010-07-06T08:44:46Z" uid="74617" user="JohnSmith" changeset="5147679">
    <nd ref="184492606"/>
    <nd ref="184492658"/>
    <tag k="highway" v="residential"/>
    <tag k="maxspeed" v="50"/>
    <tag k="maxspeed:source" v="default residential speed limit in Australia"/>
    <tag k="name" v="Park Lane"/>
  </way>
  <way id="17806233" version="4" timestamp="2010-07-06T08:47:04Z" uid="74617" user="JohnSmith" changeset="5147679">
    <nd ref="184492604"/>
    <nd ref="184492703"/>
    <nd ref="184492704"/>
    <nd ref="166475633"/>
    <tag k="highway" v="residential"/>
    <tag k="maxspeed" v="50"/>
    <tag k="maxspeed:source" v="default residential speed limit in Australia"/>
    <tag k="name" v="Livingstone Street"/>
  </way>
  <way id="17806243" version="4" timestamp="2010-07-06T08:46:27Z" uid="74617" user="JohnSmith" changeset="5147679">
    <nd ref="184492703"/>
    <nd ref="184492658"/>
    <nd ref="184492747"/>
    <nd ref="184492748"/>
    <tag k="highway" v="residential"/>
    <tag k="maxspeed" v="50"/>
    <tag k="maxspeed:source" v="default residential speed limit in Australia"/>
    <tag k="name" v="Bow Street"/>
  </way>
  <way id="17806306" version="4" timestamp="2010-07-06T08:45:15Z" uid="74617" user="JohnSmith" changeset="5147679">
    <nd ref="166481357"/>
    <nd ref="184493300"/>
    <nd ref="184493301"/>
    <tag k="highway" v="residential"/>
    <tag k="maxspeed" v="50"/>
    <tag k="maxspeed:source" v="default residential speed limit in Australia"/>
    <tag k="name" v="Somerset Street"/>
  </way>
  <way id="17806312" version="4" timestamp="2010-07-06T08:43:51Z" uid="74617" user="JohnSmith" changeset="5147679">
    <nd ref="184492411"/>
    <nd ref="184493349"/>
    <nd ref="184493350"/>
    <nd ref="184493351"/>
    <tag k="highway" v="residential"/>
    <tag k="maxspeed" v="50"/>
    <tag k="maxspeed:source" v="default residential speed limit in Australia"/>
    <tag k="name" v="Belfast Street"/>
  </way>
  <way id="17806323" version="4" timestamp="2010-07-06T08:47:23Z" uid="74617" user="JohnSmith" changeset="5147679">
    <nd ref="184202299"/>
    <nd ref="184493429"/>
    <nd ref="184493349"/>
    <nd ref="184494344"/>
    <tag k="highway" v="residential"/>
    <tag k="maxspeed" v="50"/>
    <tag k="maxspeed:source" v="default residential speed limit in Australia"/>
    <tag k="name" v="Dublin Street"/>
  </way>
  <way id="17806431" version="5" timestamp="2010-07-06T08:47:39Z" uid="74617" user="JohnSmith" changeset="5147679">
    <nd ref="166481358"/>
    <nd ref="184468628"/>
    <nd ref="184468200"/>
    <nd ref="184468625"/>
    <nd ref="184468623"/>
    <nd ref="184468622"/>
    <nd ref="184468621"/>
    <tag k="highway" v="residential"/>
    <tag k="maxspeed" v="50"/>
    <tag k="maxspeed:source" v="default residential speed limit in Australia"/>
    <tag k="name" v="Dawson Street"/>
  </way>
  <way id="17806448" version="5" timestamp="2010-07-06T08:46:05Z" uid="74617" user="JohnSmith" changeset="5147679">
    <nd ref="184494750"/>
    <nd ref="184493429"/>
    <nd ref="229053156"/>
    <tag k="highway" v="residential"/>
    <tag k="maxspeed" v="50"/>
    <tag k="maxspeed:source" v="default residential speed limit in Australia"/>
    <tag k="name" v="Cork Street"/>
  </way>
</osm>
