<?xml version='1.0' encoding='UTF-8'?>
<osm version="0.6" generator="libosmium/2.20.0">
  <way id="17829713" version="5" timestamp="2010-02-14T17:10:32Z" uid="74617" user="JohnSmith" changeset="3875836">
    <nd ref="74843226"/>
    <nd ref="184701285"/>
    <tag k="highway" v="unclassified"/>
    <tag k="maxspeed" v="50"/>
    <tag k="name" v="Merton Road"/>
    <tag k="oneway" v="yes"/>
  </way>
  <way id="17829771" version="5" timestamp="2010-02-14T17:10:30Z" uid="74617" user="JohnSmith" changeset="3875836">
    <nd ref="184701285"/>
    <nd ref="184701751"/>
    <nd ref="184701752"/>
    <tag k="highway" v="unclassified"/>
    <tag k="maxspeed" v="50"/>
    <tag k="name" v="Merton Road"/>
  </way>
  <way id="17829863" version="8" timestamp="2010-02-14T17:10:32Z" uid="74617" user="JohnSmith" changeset="3875836">
    <nd ref="184701751"/>
    <nd ref="184705083"/>
    <nd ref="74847802"/>
    <tag k="highway" v="unclassified"/>
    <tag k="maxspeed" v="50"/>
    <tag k="name" v="Jacob Lane"/>
  </way>
</osm>
