<?xml version='1.0' encoding='UTF-8'?>
<osm version="0.6" generator="libosmium/2.20.0">
  <way id="17922008" version="2" timestamp="2010-07-06T17:48:44Z" uid="74617" user="JohnSmith" changeset="5152225">
    <nd ref="185577025"/>
    <nd ref="185573152"/>
    <tag k="highway" v="residential"/>
    <tag k="maxspeed" v="50"/>
    <tag k="maxspeed:source" v="default residential speed limit in Australia"/>
    <tag k="name" v="Carnamah Lane"/>
  </way>
  <way id="17922260" version="5" timestamp="2010-07-06T17:38:47Z" uid="74617" user="JohnSmith" changeset="5152225">
    <nd ref="185579649"/>
    <nd ref="677257196"/>
    <nd ref="677257199"/>
    <tag k="highway" v="residential"/>
    <tag k="maxspeed" v="50"/>
    <tag k="maxspeed:source" v="default residential speed limit in Australia"/>
    <tag k="name" v="Chairlift Avenue"/>
  </way>
  <way id="17922637" version="2" timestamp="2008-05-12T18:15:34Z" uid="36809" user="pfoten_weg_!_" changeset="433654">
    <nd ref="185583638"/>
    <nd ref="185582866"/>
    <nd ref="185583640"/>
    <tag k="created_by" v="Potlatch 0.9a"/>
    <tag k="highway" v="track"/>
    <tag k="motorcar" v="no"/>
  </way>
  <way id="17922637" version="3" timestamp="2008-05-13T22:03:02Z" uid="36809" user="pfoten_weg_!_" changeset="442681">
    <nd ref="185583638"/>
    <nd ref="185582866"/>
    <nd ref="185583640"/>
    <tag k="created_by" v="Potlatch 0.9a"/>
    <tag k="highway" v="track"/>
    <tag k="motorcar" v="no"/>
    <tag k="name" v="Geräumt"/>
  </way>
  <way id="17922637" version="6" timestamp="2009-08-26T09:32:21Z" uid="36809" user="pfoten_weg_!_" changeset="2265170">
    <nd ref="185583638"/>
    <nd ref="185582866"/>
    <nd ref="280081582"/>
    <tag k="highway" v="track"/>
    <tag k="motorcar" v="no"/>
    <tag k="name" v="Zyllnhardt geräumt"/>
  </way>
  <way id="17922717" version="4" timestamp="2010-07-06T17:41:01Z" uid="74617" user="JohnSmith" changeset="5152225">
    <nd ref="185584576"/>
    <nd ref="185586008"/>
    <nd ref="185584575"/>
    <tag k="highway" v="residential"/>
    <tag k="maxspeed" v="50"/>
    <tag k="maxspeed:source" v="default residential speed limit in Australia"/>
    <tag k="name" v="Nagle Avenue"/>
  </way>
  <way id="17922771" version="2" timestamp="2010-07-06T17:38:23Z" uid="74617" user="JohnSmith" changeset="5152225">
    <nd ref="185585118"/>
    <nd ref="185585119"/>
    <tag k="highway" v="residential"/>
    <tag k="maxspeed" v="50"/>
    <tag k="maxspeed:source" v="default residential speed limit in Australia"/>
    <tag k="name" v="Fraser Avenue"/>
  </way>
  <way id="17922852" version="3" timestamp="2010-07-06T17:38:41Z" uid="74617" user="JohnSmith" changeset="5152225">
    <nd ref="185586008"/>
    <nd ref="185586007"/>
    <nd ref="185586005"/>
    <tag k="highway" v="residential"/>
    <tag k="maxspeed" v="50"/>
    <tag k="maxspeed:source" v="default residential speed limit in Australia"/>
    <tag k="name" v="Nagle Avenue"/>
    <tag k="oneway" v="yes"/>
  </way>
  <way id="17922922" version="3" timestamp="2008-10-08T18:44:29Z" uid="30632" user="antblant" changeset="169665">
    <nd ref="185586375"/>
    <nd ref="185586379"/>
    <tag k="bridge" v="true"/>
    <tag k="created_by" v="JOSM"/>
    <tag k="highway" v="primary"/>
    <tag k="layer" v="1"/>
    <tag k="name" v="Most Romana Dmowskiego"/>
    <tag k="oneway" v="true"/>
  </way>
  <way id="17922924" version="3" timestamp="2008-10-08T18:44:30Z" uid="30632" user="antblant" changeset="169665">
    <nd ref="185586346"/>
    <nd ref="185586349"/>
    <tag k="bridge" v="true"/>
    <tag k="created_by" v="JOSM"/>
    <tag k="highway" v="primary"/>
    <tag k="layer" v="1"/>
    <tag k="name" v="Most Romana Dmowskiego"/>
    <tag k="oneway" v="true"/>
  </way>
</osm>
