<?xml version='1.0' encoding='UTF-8'?>
<osm version="0.6" generator="libosmium/2.20.0">
  <way id="17924007" version="6" timestamp="2008-07-08T19:39:02Z" uid="36809" user="pfoten_weg_!_" changeset="430914">
    <nd ref="245449216"/>
    <nd ref="245449213"/>
    <nd ref="245449209"/>
    <nd ref="263498510"/>
    <nd ref="263498511"/>
    <tag k="created_by" v="Potlatch 0.9c"/>
    <tag k="highway" v="track"/>
    <tag k="motorcar" v="no"/>
    <tag k="name" v="Marien Ger채umt"/>
  </way>
  <way id="17924007" version="7" timestamp="2009-03-30T08:19:56Z" uid="36809" user="pfoten_weg_!_" changeset="869210">
    <nd ref="245449216"/>
    <nd ref="245449213"/>
    <nd ref="245449209"/>
    <nd ref="263498510"/>
    <nd ref="263498511"/>
    <tag k="created_by" v="RambaZamba"/>
    <tag k="highway" v="track"/>
    <tag k="motorcar" v="no"/>
    <tag k="name" v="Marien Ger채umt"/>
    <tag k="source" v="survey"/>
  </way>
  <way id="17924007" version="8" timestamp="2009-03-30T08:24:54Z" uid="36809" user="pfoten_weg_!_" changeset="869210">
    <nd ref="245449216"/>
    <nd ref="245449209"/>
    <nd ref="263498510"/>
    <nd ref="263498511"/>
    <tag k="created_by" v="RambaZamba"/>
    <tag k="highway" v="track"/>
    <tag k="motorcar" v="no"/>
    <tag k="name" v="Marien Ger채umt"/>
    <tag k="source" v="survey"/>
  </way>
  <way id="17924007" version="9" timestamp="2009-04-03T06:14:24Z" uid="36809" user="pfoten_weg_!_" changeset="111830">
    <nd ref="245449216"/>
    <nd ref="263498510"/>
    <nd ref="263498511"/>
    <tag k="created_by" v="RambaZamba"/>
    <tag k="highway" v="track"/>
    <tag k="motorcar" v="no"/>
    <tag k="name" v="Marien Ger채umt"/>
    <tag k="source" v="survey"/>
  </way>
  <way id="17924007" version="10" timestamp="2009-04-04T21:12:17Z" uid="36809" user="pfoten_weg_!_" changeset="196576"/>
  <way id="17924880" version="12" timestamp="2009-12-26T07:00:56Z" uid="4467" user="Rosscoe" changeset="3452458">
    <nd ref="185606308"/>
    <nd ref="185754030"/>
    <nd ref="582426546"/>
    <nd ref="599485878"/>
    <tag k="highway" v="tertiary"/>
    <tag k="name" v="Karbunya Street"/>
  </way>
</osm>
