<?xml version='1.0' encoding='UTF-8'?>
<osm version="0.6" generator="libosmium/2.20.0">
  <way id="17989125" version="15" timestamp="2010-02-08T07:27:24Z" uid="74617" user="JohnSmith" changeset="3821117">
    <nd ref="186181676"/>
    <nd ref="267117029"/>
    <nd ref="330087357"/>
    <nd ref="330087361"/>
    <nd ref="385620602"/>
    <nd ref="186184179"/>
    <nd ref="186182162"/>
    <nd ref="186183537"/>
    <nd ref="186181677"/>
    <nd ref="426730618"/>
    <tag k="highway" v="residential"/>
    <tag k="maxspeed" v="50"/>
    <tag k="name" v="Sydney Street"/>
  </way>
  <way id="17989125" version="16" timestamp="2010-06-11T03:45:48Z" uid="74617" user="JohnSmith" changeset="4959571">
    <nd ref="186181676"/>
    <nd ref="267117029"/>
    <nd ref="768969793"/>
    <nd ref="330087357"/>
    <nd ref="330087361"/>
    <nd ref="768969783"/>
    <nd ref="385620602"/>
    <nd ref="186184179"/>
    <nd ref="186182162"/>
    <nd ref="186183537"/>
    <nd ref="186181677"/>
    <nd ref="426730618"/>
    <tag k="highway" v="residential"/>
    <tag k="maxspeed" v="50"/>
    <tag k="name" v="Sydney Street"/>
  </way>
  <way id="17989554" version="7" timestamp="2010-02-08T07:27:24Z" uid="74617" user="JohnSmith" changeset="3821117">
    <nd ref="186184175"/>
    <nd ref="186184176"/>
    <nd ref="263674218"/>
    <nd ref="186185718"/>
    <nd ref="385620423"/>
    <nd ref="186186392"/>
    <nd ref="186184179"/>
    <tag k="highway" v="residential"/>
    <tag k="maxspeed" v="50"/>
    <tag k="name" v="Hutchision Street"/>
  </way>
  <way id="17989686" version="3" timestamp="2010-02-08T07:27:25Z" uid="74617" user="JohnSmith" changeset="3821117">
    <nd ref="186185256"/>
    <nd ref="186185258"/>
    <tag k="highway" v="residential"/>
    <tag k="maxspeed" v="50"/>
    <tag k="name" v="Dix Street"/>
  </way>
  <way id="17989709" version="3" timestamp="2009-11-12T01:54:43Z" uid="36809" user="pfoten_weg_!_" changeset="3095145">
    <nd ref="186185141"/>
    <nd ref="315540093"/>
    <nd ref="186185150"/>
    <nd ref="296250032"/>
    <tag k="highway" v="secondary"/>
    <tag k="maxspeed" v="60"/>
    <tag k="ref" v="St 2084"/>
  </way>
  <way id="17989711" version="7" timestamp="2009-11-12T01:53:34Z" uid="36809" user="pfoten_weg_!_" changeset="3095145">
    <nd ref="309487699"/>
    <nd ref="186185125"/>
    <nd ref="309477536"/>
    <nd ref="262489116"/>
    <nd ref="186185129"/>
    <nd ref="315540090"/>
    <nd ref="312781501"/>
    <nd ref="186185137"/>
    <tag k="highway" v="secondary"/>
    <tag k="maxspeed" v="60"/>
    <tag k="ref" v="St 2084"/>
  </way>
  <way id="17989712" version="8" timestamp="2009-11-12T01:55:09Z" uid="36809" user="pfoten_weg_!_" changeset="3095145">
    <nd ref="186185115"/>
    <nd ref="315540089"/>
    <nd ref="309487697"/>
    <nd ref="309487696"/>
    <nd ref="309487695"/>
    <nd ref="309487694"/>
    <nd ref="309487693"/>
    <nd ref="186185120"/>
    <nd ref="309487698"/>
    <nd ref="309487699"/>
    <tag k="highway" v="secondary"/>
    <tag k="maxspeed" v="80"/>
    <tag k="ref" v="St 2084"/>
  </way>
  <way id="17989778" version="5" timestamp="2010-02-08T07:27:24Z" uid="74617" user="JohnSmith" changeset="3821117">
    <nd ref="186185718"/>
    <nd ref="330037460"/>
    <nd ref="426730658"/>
    <nd ref="186185722"/>
    <tag k="highway" v="residential"/>
    <tag k="maxspeed" v="50"/>
    <tag k="name" v="Dix Street"/>
  </way>
  <way id="17989882" version="4" timestamp="2010-02-08T07:27:24Z" uid="74617" user="JohnSmith" changeset="3821117">
    <nd ref="186186392"/>
    <nd ref="330037458"/>
    <nd ref="426730660"/>
    <nd ref="186186395"/>
    <nd ref="186186396"/>
    <tag k="highway" v="residential"/>
    <tag k="maxspeed" v="50"/>
    <tag k="name" v="Louis Street"/>
  </way>
</osm>
