<?xml version='1.0' encoding='UTF-8'?>
<osm version="0.6" generator="libosmium/2.20.0">
  <way id="17990583" version="3" timestamp="2010-06-05T23:20:58Z" uid="4467" user="Rosscoe" changeset="4913425">
    <nd ref="186189288"/>
    <nd ref="186191582"/>
    <nd ref="186187147"/>
    <tag k="highway" v="tertiary"/>
    <tag k="name" v="380th Avenue"/>
    <tag k="ref" v="CR 74"/>
    <tag k="tiger:cfcc" v="A41"/>
    <tag k="tiger:county" v="Aitkin, MN"/>
    <tag k="tiger:name_base" v="380th"/>
    <tag k="tiger:name_type" v="Ave"/>
    <tag k="tiger:reviewed" v="no"/>
    <tag k="tiger:separated" v="no"/>
    <tag k="tiger:source" v="tiger_import_dch_v0.6_20070813"/>
    <tag k="tiger:tlid" v="162620720"/>
    <tag k="tiger:upload_uuid" v="bulk_upload.pl-00ef03ae-d222-4476-ac37-75452a8b4e42"/>
    <tag k="tiger:zip_left" v="55748"/>
    <tag k="tiger:zip_right" v="55748"/>
  </way>
  <way id="17990904" version="6" timestamp="2009-11-12T01:51:05Z" uid="36809" user="pfoten_weg_!_" changeset="3095145">
    <nd ref="426779"/>
    <nd ref="426780"/>
    <nd ref="316202436"/>
    <nd ref="426797"/>
    <nd ref="426798"/>
    <nd ref="426799"/>
    <nd ref="426801"/>
    <nd ref="426803"/>
    <nd ref="426802"/>
    <nd ref="426805"/>
    <nd ref="426804"/>
    <nd ref="426806"/>
    <nd ref="426807"/>
    <tag k="highway" v="primary"/>
    <tag k="maxspeed" v="70"/>
    <tag k="ref" v="B 388"/>
  </way>
</osm>
