<?xml version='1.0' encoding='UTF-8'?>
<osm version="0.6" generator="libosmium/2.20.0">
  <way id="17996213" version="6" timestamp="2010-02-15T05:07:45Z" uid="74617" user="JohnSmith" changeset="3880242">
    <nd ref="150401018"/>
    <nd ref="186227281"/>
    <tag k="highway" v="secondary"/>
    <tag k="name" v="Dillon Road"/>
    <tag k="oneway" v="yes"/>
  </way>
  <way id="17996237" version="7" timestamp="2010-02-15T05:07:45Z" uid="74617" user="JohnSmith" changeset="3880242">
    <nd ref="186227396"/>
    <nd ref="150401018"/>
    <tag k="highway" v="secondary"/>
    <tag k="name" v="Dillon Road"/>
    <tag k="oneway" v="yes"/>
  </way>
  <way id="17996320" version="7" timestamp="2010-02-15T05:07:47Z" uid="74617" user="JohnSmith" changeset="3880242">
    <nd ref="186227779"/>
    <nd ref="150400633"/>
    <tag k="highway" v="secondary"/>
    <tag k="name" v="Payne Road"/>
    <tag k="oneway" v="yes"/>
  </way>
  <way id="17996349" version="8" timestamp="2010-02-15T05:07:47Z" uid="74617" user="JohnSmith" changeset="3880242">
    <nd ref="150400633"/>
    <nd ref="332938419"/>
    <nd ref="186227971"/>
    <tag k="highway" v="secondary"/>
    <tag k="name" v="Payne Road"/>
    <tag k="oneway" v="yes"/>
  </way>
  <way id="17996434" version="7" timestamp="2010-02-15T05:07:47Z" uid="74617" user="JohnSmith" changeset="3880242">
    <nd ref="186228431"/>
    <nd ref="186228432"/>
    <tag k="highway" v="unclassified"/>
    <tag k="maxspeed" v="50"/>
    <tag k="name" v="Payne Road"/>
    <tag k="oneway" v="yes"/>
  </way>
  <way id="17996458" version="6" timestamp="2010-02-15T05:07:47Z" uid="74617" user="JohnSmith" changeset="3880242">
    <nd ref="186228432"/>
    <nd ref="186228525"/>
    <tag k="highway" v="unclassified"/>
    <tag k="maxspeed" v="50"/>
    <tag k="name" v="Payne Road"/>
    <tag k="oneway" v="yes"/>
  </way>
  <way id="17996696" version="10" timestamp="2010-02-15T05:04:17Z" uid="74617" user="JohnSmith" changeset="3880242">
    <nd ref="186228432"/>
    <nd ref="186229808"/>
    <nd ref="186229809"/>
    <nd ref="186229810"/>
    <nd ref="186229812"/>
    <nd ref="186229813"/>
    <nd ref="186229814"/>
    <nd ref="257879589"/>
    <nd ref="257879590"/>
    <nd ref="257879591"/>
    <nd ref="257879592"/>
    <nd ref="257879593"/>
    <nd ref="257879594"/>
    <tag k="highway" v="unclassified"/>
    <tag k="maxspeed" v="50"/>
    <tag k="name" v="Payne Road"/>
  </way>
</osm>
