<?xml version='1.0' encoding='UTF-8'?>
<osm version="0.6" generator="libosmium/2.20.0">
  <way id="18027415" version="4" timestamp="2010-07-06T08:47:56Z" uid="74617" user="JohnSmith" changeset="5147679">
    <nd ref="92216234"/>
    <nd ref="186441915"/>
    <nd ref="186441916"/>
    <nd ref="186441917"/>
    <nd ref="186441918"/>
    <nd ref="186315601"/>
    <tag k="highway" v="residential"/>
    <tag k="maxspeed" v="50"/>
    <tag k="maxspeed:source" v="default residential speed limit in Australia"/>
    <tag k="name" v="Chamberlain Street"/>
  </way>
  <way id="18027710" version="5" timestamp="2009-08-09T00:29:43Z" uid="4467" user="Rosscoe" changeset="2080668"/>
  <way id="18027818" version="4" timestamp="2009-08-09T00:29:41Z" uid="4467" user="Rosscoe" changeset="2080668">
    <nd ref="185017474"/>
    <nd ref="186444017"/>
    <tag k="highway" v="residential"/>
    <tag k="name" v="Lisle Street"/>
  </way>
  <way id="18027818" version="5" timestamp="2010-02-15T07:03:27Z" uid="74617" user="JohnSmith" changeset="3880463">
    <nd ref="185017474"/>
    <nd ref="186444017"/>
    <tag k="highway" v="residential"/>
    <tag k="maxspeed" v="50"/>
    <tag k="name" v="Lisle Street"/>
  </way>
</osm>
