<?xml version='1.0' encoding='UTF-8'?>
<osm version="0.6" generator="libosmium/2.20.0">
  <way id="18062452" version="4" timestamp="2010-02-15T07:03:29Z" uid="74617" user="JohnSmith" changeset="3880463">
    <nd ref="186712103"/>
    <nd ref="186728636"/>
    <nd ref="186728638"/>
    <nd ref="186728639"/>
    <nd ref="186728641"/>
    <nd ref="186728642"/>
    <nd ref="186728643"/>
    <nd ref="186728644"/>
    <nd ref="186728646"/>
    <nd ref="186728648"/>
    <nd ref="186728649"/>
    <tag k="highway" v="residential"/>
    <tag k="maxspeed" v="50"/>
    <tag k="name" v="Brendon Street"/>
  </way>
  <way id="18062508" version="5" timestamp="2010-02-15T07:03:29Z" uid="74617" user="JohnSmith" changeset="3880463">
    <nd ref="186713129"/>
    <nd ref="186728649"/>
    <nd ref="186797329"/>
    <nd ref="186729038"/>
    <nd ref="186729039"/>
    <nd ref="186729040"/>
    <tag k="highway" v="residential"/>
    <tag k="maxspeed" v="50"/>
    <tag k="name" v="Dahl Street"/>
  </way>
  <way id="18062563" version="5" timestamp="2010-02-15T07:03:30Z" uid="74617" user="JohnSmith" changeset="3880463">
    <nd ref="186729040"/>
    <nd ref="186729411"/>
    <nd ref="186729413"/>
    <nd ref="186759468"/>
    <nd ref="186759469"/>
    <nd ref="186759470"/>
    <nd ref="186759471"/>
    <tag k="highway" v="residential"/>
    <tag k="maxspeed" v="50"/>
    <tag k="name" v="Greenhalgh Street"/>
  </way>
  <way id="18062653" version="5" timestamp="2010-02-15T07:03:31Z" uid="74617" user="JohnSmith" changeset="3880463">
    <nd ref="186728644"/>
    <nd ref="186730203"/>
    <nd ref="186730204"/>
    <nd ref="186730206"/>
    <tag k="highway" v="residential"/>
    <tag k="maxspeed" v="50"/>
    <tag k="name" v="Marchant Street"/>
  </way>
  <way id="18062668" version="5" timestamp="2010-02-15T07:03:31Z" uid="74617" user="JohnSmith" changeset="3880463">
    <nd ref="186730204"/>
    <nd ref="186730339"/>
    <tag k="highway" v="residential"/>
    <tag k="maxspeed" v="50"/>
    <tag k="name" v="Barkley Street"/>
  </way>
</osm>
