<?xml version='1.0' encoding='UTF-8'?>
<osm version="0.6" generator="libosmium/2.20.0">
  <way id="18217467" version="3" timestamp="2010-07-07T07:40:31Z" uid="74617" user="JohnSmith" changeset="5156250">
    <nd ref="187922365"/>
    <nd ref="187923442"/>
    <nd ref="187923444"/>
    <nd ref="187923445"/>
    <nd ref="187923447"/>
    <nd ref="187923448"/>
    <nd ref="187923450"/>
    <nd ref="187923451"/>
    <nd ref="187923452"/>
    <tag k="highway" v="residential"/>
    <tag k="maxspeed" v="50"/>
    <tag k="maxspeed:source" v="default residential speed limit in Australia"/>
    <tag k="name" v="Wallamoul Street"/>
    <tag k="source" v="survey"/>
  </way>
  <way id="18217604" version="2" timestamp="2010-07-07T07:41:12Z" uid="74617" user="JohnSmith" changeset="5156250">
    <nd ref="187923450"/>
    <nd ref="187925065"/>
    <nd ref="187925067"/>
    <tag k="highway" v="residential"/>
    <tag k="maxspeed" v="50"/>
    <tag k="maxspeed:source" v="default residential speed limit in Australia"/>
    <tag k="name" v="Charles Coxen Close"/>
  </way>
  <way id="18217668" version="2" timestamp="2010-07-07T07:40:22Z" uid="74617" user="JohnSmith" changeset="5156250">
    <nd ref="187923444"/>
    <nd ref="187925895"/>
    <nd ref="187925896"/>
    <nd ref="187925898"/>
    <tag k="highway" v="residential"/>
    <tag k="maxspeed" v="50"/>
    <tag k="maxspeed:source" v="default residential speed limit in Australia"/>
    <tag k="name" v="Fishermans Place"/>
    <tag k="source" v="survey"/>
  </way>
  <way id="18217739" version="2" timestamp="2010-07-07T07:39:29Z" uid="74617" user="JohnSmith" changeset="5156250">
    <nd ref="187925896"/>
    <nd ref="187926600"/>
    <nd ref="187926601"/>
    <nd ref="187926603"/>
    <tag k="highway" v="residential"/>
    <tag k="maxspeed" v="50"/>
    <tag k="maxspeed:source" v="default residential speed limit in Australia"/>
    <tag k="name" v="James Place"/>
    <tag k="source" v="survey"/>
  </way>
  <way id="18217844" version="2" timestamp="2010-07-07T07:40:59Z" uid="74617" user="JohnSmith" changeset="5156250">
    <nd ref="187927071"/>
    <nd ref="187927589"/>
    <tag k="highway" v="residential"/>
    <tag k="maxspeed" v="50"/>
    <tag k="maxspeed:source" v="default residential speed limit in Australia"/>
    <tag k="name" v="Cann Close"/>
    <tag k="source" v="survey"/>
  </way>
  <way id="18217844" version="3" timestamp="2011-01-07T10:10:05Z" uid="4467" user="Rosscoe" changeset="6890946">
    <nd ref="187927071"/>
    <nd ref="1088059022"/>
    <nd ref="187927589"/>
    <tag k="highway" v="residential"/>
    <tag k="maxspeed" v="50"/>
    <tag k="maxspeed:source" v="default residential speed limit in Australia"/>
    <tag k="name" v="Cann Close"/>
    <tag k="source" v="survey"/>
  </way>
  <way id="18217904" version="2" timestamp="2010-07-07T07:39:14Z" uid="74617" user="JohnSmith" changeset="5156250">
    <nd ref="187927645"/>
    <nd ref="187927991"/>
    <nd ref="187927992"/>
    <nd ref="187927994"/>
    <tag k="highway" v="residential"/>
    <tag k="maxspeed" v="50"/>
    <tag k="maxspeed:source" v="default residential speed limit in Australia"/>
    <tag k="name" v="Jemmy Place"/>
    <tag k="source" v="survey"/>
  </way>
  <way id="18217991" version="2" timestamp="2010-07-07T07:39:25Z" uid="74617" user="JohnSmith" changeset="5156250">
    <nd ref="187927991"/>
    <nd ref="187928854"/>
    <nd ref="187928856"/>
    <nd ref="187928857"/>
    <nd ref="187928859"/>
    <tag k="highway" v="residential"/>
    <tag k="maxspeed" v="50"/>
    <tag k="maxspeed:source" v="default residential speed limit in Australia"/>
    <tag k="name" v="Joseph Brown Place"/>
    <tag k="source" v="survey"/>
  </way>
</osm>
