<?xml version='1.0' encoding='UTF-8'?>
<osm version="0.6" generator="libosmium/2.20.0">
  <way id="18245024" version="1" timestamp="2007-12-25T05:24:06Z" uid="18775" user="drlizau" changeset="417294">
    <nd ref="188147795"/>
    <nd ref="188147818"/>
    <tag k="created_by" v="JOSM"/>
    <tag k="highway" v="residential"/>
    <tag k="name" v="Betts Street"/>
  </way>
  <way id="18245024" version="2" timestamp="2008-11-16T11:04:23Z" uid="18775" user="drlizau" changeset="756879">
    <nd ref="188147795"/>
    <nd ref="188147818"/>
    <tag k="created_by" v="JOSM"/>
    <tag k="highway" v="residential"/>
    <tag k="name" v="Betts Street"/>
  </way>
  <way id="18245024" version="3" timestamp="2008-11-16T11:32:41Z" uid="18775" user="drlizau" changeset="756879">
    <nd ref="188147795"/>
    <nd ref="188147818"/>
    <tag k="created_by" v="JOSM"/>
    <tag k="highway" v="residential"/>
    <tag k="name" v="Betts Street"/>
    <tag k="source" v="survey"/>
  </way>
  <way id="18245024" version="4" timestamp="2010-07-07T08:12:24Z" uid="74617" user="JohnSmith" changeset="5156250">
    <nd ref="188147795"/>
    <nd ref="188147818"/>
    <tag k="highway" v="residential"/>
    <tag k="maxspeed" v="50"/>
    <tag k="maxspeed:source" v="default residential speed limit in Australia"/>
    <tag k="name" v="Betts Street"/>
    <tag k="source" v="survey"/>
  </way>
  <way id="18245161" version="1" timestamp="2007-12-25T05:25:09Z" uid="18775" user="drlizau" changeset="417294">
    <nd ref="188149112"/>
    <nd ref="188149137"/>
    <nd ref="188149157"/>
    <nd ref="188149169"/>
    <nd ref="188149192"/>
    <nd ref="188149212"/>
    <nd ref="188149230"/>
    <nd ref="188149250"/>
    <nd ref="188149266"/>
    <nd ref="188147795"/>
    <tag k="created_by" v="JOSM"/>
    <tag k="highway" v="residential"/>
    <tag k="name" v="The Circle"/>
  </way>
  <way id="18245161" version="2" timestamp="2008-02-20T11:06:34Z" uid="18775" user="drlizau" changeset="166503"/>
  <way id="18245619" version="1" timestamp="2007-12-25T05:28:50Z" uid="18775" user="drlizau" changeset="417294">
    <nd ref="188154077"/>
    <nd ref="188154091"/>
    <nd ref="188154110"/>
    <nd ref="188154131"/>
    <nd ref="188154149"/>
    <nd ref="188150069"/>
    <tag k="created_by" v="JOSM"/>
    <tag k="highway" v="residential"/>
    <tag k="name" v="Konoa Street"/>
  </way>
  <way id="18245619" version="2" timestamp="2008-02-20T11:06:33Z" uid="18775" user="drlizau" changeset="166503">
    <nd ref="188154077"/>
    <nd ref="248517643"/>
    <nd ref="188154131"/>
    <nd ref="188154149"/>
    <nd ref="188150069"/>
    <tag k="created_by" v="JOSM"/>
    <tag k="highway" v="residential"/>
    <tag k="name" v="Konoa Street"/>
  </way>
  <way id="18245619" version="3" timestamp="2008-03-03T21:55:33Z" uid="18775" user="drlizau" changeset="263253">
    <nd ref="250403096"/>
    <nd ref="188154077"/>
    <nd ref="248517643"/>
    <nd ref="188154131"/>
    <nd ref="188154149"/>
    <nd ref="188150069"/>
    <tag k="created_by" v="JOSM"/>
    <tag k="highway" v="residential"/>
    <tag k="name" v="Konoa Street"/>
  </way>
  <way id="18245619" version="4" timestamp="2008-03-03T22:37:50Z" uid="18775" user="drlizau" changeset="263253">
    <nd ref="250403096"/>
    <nd ref="188154077"/>
    <nd ref="248517643"/>
    <nd ref="188154149"/>
    <nd ref="188150069"/>
    <tag k="created_by" v="JOSM"/>
    <tag k="highway" v="residential"/>
    <tag k="name" v="Konoa Street"/>
  </way>
  <way id="18245619" version="5" timestamp="2008-03-29T03:44:38Z" uid="18775" user="drlizau" changeset="419028"/>
  <way id="18245621" version="1" timestamp="2007-12-25T05:28:51Z" uid="18775" user="drlizau" changeset="417294">
    <nd ref="188154149"/>
    <nd ref="188147818"/>
    <tag k="created_by" v="JOSM"/>
    <tag k="highway" v="residential"/>
    <tag k="name" v="Kooba Street"/>
  </way>
  <way id="18245621" version="2" timestamp="2008-03-03T22:37:49Z" uid="18775" user="drlizau" changeset="263253">
    <nd ref="188147818"/>
    <nd ref="188154149"/>
    <nd ref="250416910"/>
    <nd ref="247622553"/>
    <nd ref="247622556"/>
    <tag k="created_by" v="JOSM"/>
    <tag k="highway" v="residential"/>
    <tag k="name" v="Kooba Street"/>
  </way>
  <way id="18245621" version="3" timestamp="2008-03-04T03:34:30Z" uid="18775" user="drlizau" changeset="263319">
    <nd ref="250447121"/>
    <nd ref="250447119"/>
    <nd ref="188147818"/>
    <nd ref="188154149"/>
    <nd ref="250416910"/>
    <nd ref="250447117"/>
    <nd ref="247622553"/>
    <nd ref="247622556"/>
    <tag k="created_by" v="JOSM"/>
    <tag k="highway" v="residential"/>
    <tag k="name" v="Kooba Street"/>
  </way>
  <way id="18245621" version="4" timestamp="2008-11-16T10:59:23Z" uid="18775" user="drlizau" changeset="756879">
    <nd ref="250447121"/>
    <nd ref="250447119"/>
    <nd ref="188147818"/>
    <nd ref="188154149"/>
    <nd ref="250416910"/>
    <nd ref="250447117"/>
    <nd ref="247622553"/>
    <nd ref="247622556"/>
    <tag k="created_by" v="JOSM"/>
    <tag k="highway" v="residential"/>
    <tag k="name" v="Kooba Street"/>
  </way>
  <way id="18245621" version="5" timestamp="2008-11-16T11:28:18Z" uid="18775" user="drlizau" changeset="756879">
    <nd ref="250447121"/>
    <nd ref="250447119"/>
    <nd ref="188147818"/>
    <nd ref="188154149"/>
    <nd ref="250416910"/>
    <nd ref="250447117"/>
    <nd ref="247622553"/>
    <nd ref="247622556"/>
    <tag k="created_by" v="JOSM"/>
    <tag k="highway" v="residential"/>
    <tag k="name" v="Kooba Street"/>
    <tag k="source" v="survey"/>
  </way>
  <way id="18245621" version="6" timestamp="2010-07-07T08:12:11Z" uid="74617" user="JohnSmith" changeset="5156250">
    <nd ref="250447121"/>
    <nd ref="250447119"/>
    <nd ref="188147818"/>
    <nd ref="188154149"/>
    <nd ref="250416910"/>
    <nd ref="250447117"/>
    <nd ref="247622553"/>
    <nd ref="247622556"/>
    <tag k="highway" v="residential"/>
    <tag k="maxspeed" v="50"/>
    <tag k="maxspeed:source" v="default residential speed limit in Australia"/>
    <tag k="name" v="Kooba Street"/>
    <tag k="source" v="survey"/>
  </way>
  <way id="18245621" version="7" timestamp="2010-12-20T12:29:40Z" uid="19626" user="Swamp" changeset="6715499">
    <nd ref="250447121"/>
    <nd ref="250447119"/>
    <nd ref="188147818"/>
    <nd ref="188154149"/>
    <nd ref="250416910"/>
    <nd ref="250447117"/>
    <nd ref="247622553"/>
    <nd ref="247622556"/>
    <tag k="highway" v="residential"/>
    <tag k="maxspeed" v="50"/>
    <tag k="name" v="Kooba Street"/>
    <tag k="source" v="survey"/>
  </way>
  <way id="18245626" version="1" timestamp="2007-12-25T05:28:52Z" uid="18775" user="drlizau" changeset="417294">
    <nd ref="188154077"/>
    <nd ref="188154168"/>
    <tag k="created_by" v="JOSM"/>
    <tag k="highway" v="residential"/>
    <tag k="name" v="Noorilla Street"/>
  </way>
  <way id="18245626" version="2" timestamp="2007-12-25T05:31:33Z" uid="18775" user="drlizau" changeset="417294">
    <nd ref="119046819"/>
    <nd ref="188154077"/>
    <nd ref="188154168"/>
    <tag k="created_by" v="JOSM"/>
    <tag k="highway" v="residential"/>
    <tag k="name" v="Noorilla Street"/>
  </way>
  <way id="18245626" version="3" timestamp="2008-02-14T10:41:18Z" uid="19626" user="Swamp" changeset="121791">
    <nd ref="119046819"/>
    <nd ref="247623619"/>
    <nd ref="188154077"/>
    <nd ref="188154168"/>
    <tag k="created_by" v="JOSM"/>
    <tag k="highway" v="residential"/>
    <tag k="name" v="Noorilla Street"/>
  </way>
  <way id="18245626" version="4" timestamp="2008-02-20T11:08:04Z" uid="18775" user="drlizau" changeset="166503">
    <nd ref="119046819"/>
    <nd ref="247623619"/>
    <nd ref="188154077"/>
    <nd ref="188154168"/>
    <nd ref="248517708"/>
    <tag k="created_by" v="JOSM"/>
    <tag k="highway" v="residential"/>
    <tag k="name" v="Noorilla Street"/>
  </way>
  <way id="18245626" version="5" timestamp="2008-02-20T11:09:25Z" uid="18775" user="drlizau" changeset="166503">
    <nd ref="119046819"/>
    <nd ref="247623619"/>
    <nd ref="188154077"/>
    <nd ref="188154168"/>
    <nd ref="248517747"/>
    <nd ref="248517708"/>
    <tag k="created_by" v="JOSM"/>
    <tag k="highway" v="residential"/>
    <tag k="name" v="Noorilla Street"/>
  </way>
  <way id="18245626" version="6" timestamp="2008-03-29T03:44:28Z" uid="18775" user="drlizau" changeset="419028">
    <nd ref="119046819"/>
    <nd ref="247623619"/>
    <nd ref="188154077"/>
    <nd ref="188154168"/>
    <nd ref="254530548"/>
    <nd ref="248517747"/>
    <nd ref="248517708"/>
    <tag k="created_by" v="JOSM"/>
    <tag k="highway" v="residential"/>
    <tag k="name" v="Noorilla Street"/>
  </way>
  <way id="18245626" version="7" timestamp="2008-11-16T10:59:27Z" uid="18775" user="drlizau" changeset="756879">
    <nd ref="119046819"/>
    <nd ref="247623619"/>
    <nd ref="188154077"/>
    <nd ref="188154168"/>
    <nd ref="254530548"/>
    <nd ref="248517747"/>
    <nd ref="248517708"/>
    <tag k="created_by" v="JOSM"/>
    <tag k="highway" v="residential"/>
    <tag k="name" v="Noorilla Street"/>
  </way>
  <way id="18245626" version="8" timestamp="2008-11-16T11:28:24Z" uid="18775" user="drlizau" changeset="756879">
    <nd ref="119046819"/>
    <nd ref="247623619"/>
    <nd ref="188154077"/>
    <nd ref="188154168"/>
    <nd ref="254530548"/>
    <nd ref="248517747"/>
    <nd ref="248517708"/>
    <tag k="created_by" v="JOSM"/>
    <tag k="highway" v="residential"/>
    <tag k="name" v="Noorilla Street"/>
    <tag k="source" v="survey"/>
  </way>
  <way id="18245626" version="9" timestamp="2010-07-07T08:12:16Z" uid="74617" user="JohnSmith" changeset="5156250">
    <nd ref="119046819"/>
    <nd ref="247623619"/>
    <nd ref="188154077"/>
    <nd ref="188154168"/>
    <nd ref="254530548"/>
    <nd ref="248517747"/>
    <nd ref="248517708"/>
    <tag k="highway" v="residential"/>
    <tag k="maxspeed" v="50"/>
    <tag k="maxspeed:source" v="default residential speed limit in Australia"/>
    <tag k="name" v="Noorilla Street"/>
    <tag k="source" v="survey"/>
  </way>
  <way id="18245626" version="11" timestamp="2010-12-20T12:29:56Z" uid="19626" user="Swamp" changeset="6715499">
    <nd ref="119046819"/>
    <nd ref="247623619"/>
    <nd ref="188154077"/>
    <nd ref="188154168"/>
    <nd ref="254530548"/>
    <nd ref="916469170"/>
    <nd ref="248517747"/>
    <nd ref="916469148"/>
    <nd ref="248517708"/>
    <tag k="highway" v="residential"/>
    <tag k="maxspeed" v="50"/>
    <tag k="name" v="Noorilla Street"/>
    <tag k="source" v="survey"/>
  </way>
  <way id="18245629" version="1" timestamp="2007-12-25T05:28:53Z" uid="18775" user="drlizau" changeset="417294">
    <nd ref="188154168"/>
    <nd ref="188149112"/>
    <tag k="created_by" v="JOSM"/>
    <tag k="highway" v="residential"/>
    <tag k="name" v="Nyora Street"/>
  </way>
  <way id="18245629" version="2" timestamp="2008-03-03T23:39:37Z" uid="18775" user="drlizau" changeset="263253">
    <nd ref="250403093"/>
    <nd ref="188154168"/>
    <nd ref="188149112"/>
    <tag k="created_by" v="JOSM"/>
    <tag k="highway" v="residential"/>
    <tag k="name" v="Nyora Street"/>
  </way>
  <way id="18245629" version="3" timestamp="2008-03-29T03:44:32Z" uid="18775" user="drlizau" changeset="419028">
    <nd ref="254530544"/>
    <nd ref="254530542"/>
    <nd ref="250403093"/>
    <nd ref="188154168"/>
    <nd ref="188149112"/>
    <tag k="created_by" v="JOSM"/>
    <tag k="highway" v="residential"/>
    <tag k="name" v="Nyora Street"/>
  </way>
  <way id="18245629" version="4" timestamp="2008-11-16T10:59:41Z" uid="18775" user="drlizau" changeset="756879">
    <nd ref="254530544"/>
    <nd ref="254530542"/>
    <nd ref="250403093"/>
    <nd ref="188154168"/>
    <nd ref="188149112"/>
    <tag k="created_by" v="JOSM"/>
    <tag k="highway" v="residential"/>
    <tag k="name" v="Nyora Street"/>
  </way>
  <way id="18245629" version="5" timestamp="2008-11-16T11:28:41Z" uid="18775" user="drlizau" changeset="756879">
    <nd ref="254530544"/>
    <nd ref="254530542"/>
    <nd ref="250403093"/>
    <nd ref="188154168"/>
    <nd ref="188149112"/>
    <tag k="created_by" v="JOSM"/>
    <tag k="highway" v="residential"/>
    <tag k="name" v="Nyora Street"/>
    <tag k="source" v="survey"/>
  </way>
  <way id="18245629" version="6" timestamp="2010-07-07T08:11:45Z" uid="74617" user="JohnSmith" changeset="5156250">
    <nd ref="254530544"/>
    <nd ref="254530542"/>
    <nd ref="250403093"/>
    <nd ref="188154168"/>
    <nd ref="188149112"/>
    <tag k="highway" v="residential"/>
    <tag k="maxspeed" v="50"/>
    <tag k="maxspeed:source" v="default residential speed limit in Australia"/>
    <tag k="name" v="Nyora Street"/>
    <tag k="source" v="survey"/>
  </way>
  <way id="18245629" version="7" timestamp="2010-12-20T12:29:48Z" uid="19626" user="Swamp" changeset="6715499">
    <nd ref="254530544"/>
    <nd ref="254530542"/>
    <nd ref="250403093"/>
    <nd ref="188154168"/>
    <nd ref="188149112"/>
    <tag k="highway" v="residential"/>
    <tag k="maxspeed" v="50"/>
    <tag k="name" v="Nyora Street"/>
    <tag k="source" v="survey"/>
  </way>
</osm>
