<?xml version='1.0' encoding='UTF-8'?>
<osm version="0.6" generator="libosmium/2.20.0">
  <way id="18258702" version="1" timestamp="2007-12-25T06:50:59Z" uid="18775" user="drlizau" changeset="417294">
    <nd ref="188248774"/>
    <nd ref="188248795"/>
    <nd ref="188248814"/>
    <nd ref="188248835"/>
    <nd ref="188248855"/>
    <nd ref="188248871"/>
    <nd ref="188248896"/>
    <nd ref="188248917"/>
    <nd ref="188248934"/>
    <tag k="created_by" v="JOSM"/>
    <tag k="highway" v="minor"/>
    <tag k="name" v="Robertson Street"/>
  </way>
  <way id="18258702" version="2" timestamp="2007-12-25T06:52:36Z" uid="18775" user="drlizau" changeset="417294"/>
  <way id="18258708" version="1" timestamp="2007-12-25T06:51:00Z" uid="18775" user="drlizau" changeset="417294">
    <nd ref="188248954"/>
    <nd ref="188248975"/>
    <nd ref="188248997"/>
    <nd ref="188248934"/>
    <nd ref="188249013"/>
    <nd ref="188249031"/>
    <nd ref="188249054"/>
    <nd ref="188249072"/>
    <nd ref="188249202"/>
    <nd ref="188249097"/>
    <nd ref="188249112"/>
    <nd ref="188249119"/>
    <nd ref="188249137"/>
    <nd ref="188249153"/>
    <tag k="created_by" v="JOSM"/>
    <tag k="highway" v="residential"/>
    <tag k="name" v="Nicholls Street"/>
  </way>
  <way id="18258708" version="2" timestamp="2007-12-26T02:53:21Z" uid="18775" user="drlizau" changeset="432981">
    <nd ref="188248954"/>
    <nd ref="188248975"/>
    <nd ref="188248997"/>
    <nd ref="188248934"/>
    <nd ref="188249013"/>
    <nd ref="188249031"/>
    <nd ref="188249054"/>
    <nd ref="188249072"/>
    <nd ref="188249202"/>
    <nd ref="188249097"/>
    <nd ref="188249112"/>
    <nd ref="188249119"/>
    <nd ref="188249137"/>
    <nd ref="188249153"/>
    <nd ref="189626465"/>
    <tag k="created_by" v="JOSM"/>
    <tag k="highway" v="residential"/>
    <tag k="name" v="Nicholls Street"/>
  </way>
  <way id="18258708" version="3" timestamp="2007-12-26T03:06:31Z" uid="18775" user="drlizau" changeset="432981">
    <nd ref="188248954"/>
    <nd ref="188248975"/>
    <nd ref="188248997"/>
    <nd ref="188248934"/>
    <nd ref="188249013"/>
    <nd ref="188249031"/>
    <nd ref="188249054"/>
    <nd ref="188249072"/>
    <nd ref="188249202"/>
    <nd ref="188249097"/>
    <nd ref="188249112"/>
    <nd ref="188249119"/>
    <nd ref="188249137"/>
    <nd ref="189639664"/>
    <nd ref="188249153"/>
    <nd ref="189626465"/>
    <tag k="created_by" v="JOSM"/>
    <tag k="highway" v="residential"/>
    <tag k="name" v="Nicholls Street"/>
  </way>
  <way id="18258708" version="4" timestamp="2007-12-26T04:02:34Z" uid="19626" user="Swamp" changeset="433222"/>
  <way id="18258713" version="1" timestamp="2007-12-25T06:51:01Z" uid="18775" user="drlizau" changeset="417294">
    <nd ref="188249166"/>
    <nd ref="188249185"/>
    <nd ref="188249202"/>
    <tag k="created_by" v="JOSM"/>
    <tag k="highway" v="residential"/>
    <tag k="name" v="Worfolk Place"/>
  </way>
  <way id="18258713" version="2" timestamp="2008-11-16T11:08:41Z" uid="18775" user="drlizau" changeset="756879">
    <nd ref="188249166"/>
    <nd ref="188249185"/>
    <nd ref="188249202"/>
    <tag k="created_by" v="JOSM"/>
    <tag k="highway" v="residential"/>
    <tag k="name" v="Worfolk Place"/>
  </way>
  <way id="18258713" version="3" timestamp="2008-11-16T11:36:11Z" uid="18775" user="drlizau" changeset="756879">
    <nd ref="188249166"/>
    <nd ref="188249185"/>
    <nd ref="188249202"/>
    <tag k="created_by" v="JOSM"/>
    <tag k="highway" v="residential"/>
    <tag k="name" v="Worfolk Place"/>
    <tag k="source" v="survey"/>
  </way>
  <way id="18258713" version="4" timestamp="2010-07-07T08:11:55Z" uid="74617" user="JohnSmith" changeset="5156250">
    <nd ref="188249166"/>
    <nd ref="188249185"/>
    <nd ref="188249202"/>
    <tag k="highway" v="residential"/>
    <tag k="maxspeed" v="50"/>
    <tag k="maxspeed:source" v="default residential speed limit in Australia"/>
    <tag k="name" v="Worfolk Place"/>
    <tag k="source" v="survey"/>
  </way>
  <way id="18258717" version="1" timestamp="2007-12-25T06:51:02Z" uid="18775" user="drlizau" changeset="417294">
    <nd ref="188248997"/>
    <nd ref="188249221"/>
    <nd ref="188249237"/>
    <nd ref="188249252"/>
    <nd ref="188249273"/>
    <nd ref="188249292"/>
    <nd ref="188249313"/>
    <tag k="created_by" v="JOSM"/>
    <tag k="highway" v="residential"/>
    <tag k="name" v="Powys Place"/>
  </way>
  <way id="18258717" version="2" timestamp="2008-11-16T11:08:54Z" uid="18775" user="drlizau" changeset="756879">
    <nd ref="188248997"/>
    <nd ref="188249221"/>
    <nd ref="188249237"/>
    <nd ref="188249252"/>
    <nd ref="188249273"/>
    <nd ref="188249292"/>
    <nd ref="188249313"/>
    <tag k="created_by" v="JOSM"/>
    <tag k="highway" v="residential"/>
    <tag k="name" v="Powys Place"/>
  </way>
  <way id="18258717" version="3" timestamp="2008-11-16T11:36:23Z" uid="18775" user="drlizau" changeset="756879">
    <nd ref="188248997"/>
    <nd ref="188249221"/>
    <nd ref="188249237"/>
    <nd ref="188249252"/>
    <nd ref="188249273"/>
    <nd ref="188249292"/>
    <nd ref="188249313"/>
    <tag k="created_by" v="JOSM"/>
    <tag k="highway" v="residential"/>
    <tag k="name" v="Powys Place"/>
    <tag k="source" v="survey"/>
  </way>
  <way id="18258717" version="4" timestamp="2010-07-07T08:11:40Z" uid="74617" user="JohnSmith" changeset="5156250">
    <nd ref="188248997"/>
    <nd ref="188249221"/>
    <nd ref="188249237"/>
    <nd ref="188249252"/>
    <nd ref="188249273"/>
    <nd ref="188249292"/>
    <nd ref="188249313"/>
    <tag k="highway" v="residential"/>
    <tag k="maxspeed" v="50"/>
    <tag k="maxspeed:source" v="default residential speed limit in Australia"/>
    <tag k="name" v="Powys Place"/>
    <tag k="source" v="survey"/>
  </way>
</osm>
