<?xml version='1.0' encoding='UTF-8'?>
<osm version="0.6" generator="libosmium/2.20.0">
  <way id="18368134" version="1" timestamp="2007-12-25T22:01:17Z" uid="1066" user="pavel" changeset="421816">
    <nd ref="21714168"/>
    <nd ref="189348639"/>
    <nd ref="189348648"/>
    <tag k="created_by" v="JOSM"/>
    <tag k="highway" v="residential"/>
  </way>
  <way id="18368134" version="2" timestamp="2008-09-16T10:32:53Z" uid="1066" user="pavel" changeset="646258">
    <nd ref="21714168"/>
    <nd ref="189348639"/>
    <nd ref="189348648"/>
    <tag k="created_by" v="JOSM"/>
    <tag k="highway" v="residential"/>
    <tag k="name" v="Lipského"/>
    <tag k="name:source" v="nameit/uir-adr"/>
  </way>
  <way id="18368137" version="1" timestamp="2007-12-25T22:01:18Z" uid="1066" user="pavel" changeset="421816">
    <nd ref="21714169"/>
    <nd ref="189348658"/>
    <tag k="created_by" v="JOSM"/>
    <tag k="highway" v="residential"/>
  </way>
  <way id="18368137" version="2" timestamp="2008-09-16T10:40:01Z" uid="1066" user="pavel" changeset="646258">
    <nd ref="21714169"/>
    <nd ref="189348658"/>
    <tag k="created_by" v="JOSM"/>
    <tag k="highway" v="residential"/>
    <tag k="name" v="Pražského"/>
    <tag k="name:source" v="nameit/uir-adr"/>
  </way>
  <way id="18368140" version="1" timestamp="2007-12-25T22:01:19Z" uid="1066" user="pavel" changeset="421816">
    <nd ref="25376737"/>
    <nd ref="189348678"/>
    <tag k="created_by" v="JOSM"/>
    <tag k="highway" v="residential"/>
  </way>
  <way id="18368140" version="3" timestamp="2008-09-16T10:33:42Z" uid="1066" user="pavel" changeset="646258">
    <nd ref="25376737"/>
    <nd ref="189348678"/>
    <nd ref="246697934"/>
    <nd ref="246697935"/>
    <nd ref="246697936"/>
    <tag k="created_by" v="JOSM"/>
    <tag k="highway" v="residential"/>
    <tag k="name" v="Wassermannova"/>
    <tag k="name:source" v="nameit/uir-adr"/>
  </way>
</osm>
