<?xml version='1.0' encoding='UTF-8'?>
<osm version="0.6" generator="libosmium/2.20.0">
  <way id="18544090" version="3" timestamp="2010-07-09T02:57:29Z" uid="74617" user="JohnSmith" changeset="5170739">
    <nd ref="191217601"/>
    <nd ref="191240424"/>
    <nd ref="191217617"/>
    <tag k="highway" v="residential"/>
    <tag k="maxspeed" v="50"/>
    <tag k="maxspeed:source" v="default residential speed limit in Australia"/>
    <tag k="name" v="Alice Street"/>
  </way>
  <way id="18544092" version="2" timestamp="2010-07-09T03:01:45Z" uid="74617" user="JohnSmith" changeset="5170739">
    <nd ref="191217627"/>
    <nd ref="191217640"/>
    <tag k="highway" v="residential"/>
    <tag k="maxspeed" v="50"/>
    <tag k="maxspeed:source" v="default residential speed limit in Australia"/>
    <tag k="name" v="Oberon Street"/>
  </way>
  <way id="18544094" version="3" timestamp="2010-07-09T02:55:51Z" uid="74617" user="JohnSmith" changeset="5170739">
    <nd ref="191217652"/>
    <nd ref="191240446"/>
    <nd ref="191217667"/>
    <tag k="highway" v="residential"/>
    <tag k="maxspeed" v="50"/>
    <tag k="maxspeed:source" v="default residential speed limit in Australia"/>
    <tag k="name" v="Wellington Street"/>
  </way>
  <way id="18544096" version="2" timestamp="2010-07-09T03:02:23Z" uid="74617" user="JohnSmith" changeset="5170739">
    <nd ref="191217681"/>
    <nd ref="191217692"/>
    <tag k="highway" v="residential"/>
    <tag k="maxspeed" v="50"/>
    <tag k="maxspeed:source" v="default residential speed limit in Australia"/>
    <tag k="name" v="Young Street"/>
  </way>
  <way id="18544180" version="3" timestamp="2010-07-09T03:02:24Z" uid="74617" user="JohnSmith" changeset="5170739">
    <nd ref="191218596"/>
    <nd ref="191240460"/>
    <nd ref="191218604"/>
    <tag k="highway" v="residential"/>
    <tag k="maxspeed" v="50"/>
    <tag k="maxspeed:source" v="default residential speed limit in Australia"/>
    <tag k="name" v="Nelson Street"/>
  </way>
  <way id="18544182" version="3" timestamp="2010-07-09T02:56:50Z" uid="74617" user="JohnSmith" changeset="5170739">
    <nd ref="191218613"/>
    <nd ref="191218625"/>
    <tag k="highway" v="residential"/>
    <tag k="maxspeed" v="50"/>
    <tag k="maxspeed:source" v="default residential speed limit in Australia"/>
    <tag k="name" v="King Street"/>
  </way>
  <way id="18544443" version="1" timestamp="2007-12-27T01:48:54Z" uid="4467" user="Rosscoe" changeset="434591">
    <nd ref="191217921"/>
    <nd ref="191217948"/>
    <tag k="created_by" v="JOSM"/>
    <tag k="highway" v="residential"/>
    <tag k="name" v="Badilla Crescent"/>
    <tag k="source" v="gpsdrivetrack"/>
    <tag k="surface" v="paved"/>
  </way>
  <way id="18544443" version="2" timestamp="2008-01-10T02:34:29Z" uid="4467" user="Rosscoe" changeset="589280">
    <nd ref="191217921"/>
    <nd ref="191217948"/>
    <tag k="created_by" v="JOSM"/>
    <tag k="highway" v="residential"/>
    <tag k="name" v="Badilla Crescent"/>
    <tag k="source" v="gpsdrivetrack"/>
    <tag k="surface" v="paved"/>
  </way>
  <way id="18544443" version="3" timestamp="2009-01-25T00:12:10Z" uid="4467" user="Rosscoe" changeset="832900">
    <nd ref="191217921"/>
    <nd ref="191217948"/>
    <tag k="created_by" v="JOSM"/>
    <tag k="highway" v="residential"/>
    <tag k="name" v="Badilla Crescent"/>
    <tag k="source" v="survey"/>
    <tag k="surface" v="paved"/>
  </way>
  <way id="18544449" version="1" timestamp="2007-12-27T01:48:55Z" uid="4467" user="Rosscoe" changeset="434591">
    <nd ref="191217960"/>
    <nd ref="191217981"/>
    <nd ref="191217997"/>
    <tag k="created_by" v="JOSM"/>
    <tag k="highway" v="residential"/>
    <tag k="name" v="Bode Street"/>
    <tag k="source" v="gpsdrivetrack"/>
    <tag k="surface" v="paved"/>
  </way>
  <way id="18544449" version="2" timestamp="2008-01-10T02:37:10Z" uid="4467" user="Rosscoe" changeset="589280">
    <nd ref="191217960"/>
    <nd ref="191217981"/>
    <nd ref="191217997"/>
    <tag k="created_by" v="JOSM"/>
    <tag k="highway" v="residential"/>
    <tag k="name" v="Bode Street"/>
    <tag k="source" v="gpsdrivetrack"/>
    <tag k="surface" v="paved"/>
  </way>
  <way id="18544449" version="3" timestamp="2009-01-25T00:13:24Z" uid="4467" user="Rosscoe" changeset="832900">
    <nd ref="191217960"/>
    <nd ref="191217981"/>
    <nd ref="191217997"/>
    <tag k="created_by" v="JOSM"/>
    <tag k="highway" v="residential"/>
    <tag k="name" v="Bode Street"/>
    <tag k="source" v="survey"/>
    <tag k="surface" v="paved"/>
  </way>
  <way id="18544453" version="1" timestamp="2007-12-27T01:48:56Z" uid="4467" user="Rosscoe" changeset="434591">
    <nd ref="191218014"/>
    <nd ref="191217872"/>
    <nd ref="191218026"/>
    <tag k="created_by" v="JOSM"/>
    <tag k="highway" v="residential"/>
    <tag k="name" v="Carnation Street"/>
    <tag k="source" v="gpsdrivetrack"/>
    <tag k="surface" v="paved"/>
  </way>
  <way id="18544453" version="2" timestamp="2008-01-10T02:37:03Z" uid="4467" user="Rosscoe" changeset="589280">
    <nd ref="191218014"/>
    <nd ref="191217872"/>
    <nd ref="191218026"/>
    <tag k="created_by" v="JOSM"/>
    <tag k="highway" v="residential"/>
    <tag k="name" v="Carnation Street"/>
    <tag k="source" v="gpsdrivetrack"/>
    <tag k="surface" v="paved"/>
  </way>
  <way id="18544453" version="3" timestamp="2008-10-14T22:04:17Z" uid="4467" user="Rosscoe" changeset="342472">
    <nd ref="191218014"/>
    <nd ref="191217872"/>
    <nd ref="191218026"/>
    <tag k="created_by" v="Potlatch 0.10e"/>
    <tag k="highway" v="residential"/>
    <tag k="name" v="Carnation Street"/>
    <tag k="source" v="survey"/>
    <tag k="surface" v="paved"/>
  </way>
  <way id="18544459" version="1" timestamp="2007-12-27T01:48:58Z" uid="4467" user="Rosscoe" changeset="434591">
    <nd ref="191218040"/>
    <nd ref="191221353"/>
    <tag k="created_by" v="JOSM"/>
    <tag k="highway" v="residential"/>
    <tag k="oneway" v="true"/>
    <tag k="source" v="gpsdrivetrack"/>
    <tag k="surface" v="paved"/>
  </way>
  <way id="18544459" version="2" timestamp="2008-01-10T02:36:59Z" uid="4467" user="Rosscoe" changeset="589280">
    <nd ref="191218040"/>
    <nd ref="191221353"/>
    <tag k="created_by" v="JOSM"/>
    <tag k="highway" v="residential"/>
    <tag k="oneway" v="true"/>
    <tag k="source" v="gpsdrivetrack"/>
    <tag k="surface" v="paved"/>
  </way>
  <way id="18544459" version="3" timestamp="2008-11-03T00:53:12Z" uid="4467" user="Rosscoe" changeset="667702">
    <nd ref="191218040"/>
    <nd ref="191221353"/>
    <tag k="created_by" v="JOSM"/>
    <tag k="highway" v="residential"/>
    <tag k="name" v="Chapman Street"/>
    <tag k="oneway" v="true"/>
    <tag k="source" v="survey"/>
    <tag k="surface" v="paved"/>
  </way>
  <way id="18544459" version="4" timestamp="2008-12-26T06:38:29Z" uid="4467" user="Rosscoe" changeset="607845">
    <nd ref="191218040"/>
    <nd ref="191221353"/>
    <tag k="created_by" v="JOSM"/>
    <tag k="highway" v="residential"/>
    <tag k="name" v="Chapman Street"/>
    <tag k="oneway" v="yes"/>
    <tag k="source" v="survey"/>
    <tag k="surface" v="paved"/>
  </way>
  <way id="18544459" version="5" timestamp="2009-06-18T08:25:46Z" uid="4467" user="Rosscoe" changeset="1552534">
    <nd ref="191218040"/>
    <nd ref="191221353"/>
    <tag k="created_by" v="JOSM"/>
    <tag k="highway" v="residential"/>
    <tag k="name" v="Chapman Street"/>
    <tag k="oneway" v="yes"/>
    <tag k="source" v="survey"/>
    <tag k="surface" v="paved"/>
  </way>
  <way id="18544460" version="1" timestamp="2007-12-27T01:48:59Z" uid="4467" user="Rosscoe" changeset="434591">
    <nd ref="191218070"/>
    <nd ref="191218086"/>
    <nd ref="191218107"/>
    <tag k="created_by" v="JOSM"/>
    <tag k="highway" v="residential"/>
    <tag k="name" v="Davy Avenue"/>
    <tag k="source" v="gpsdrivetrack"/>
    <tag k="surface" v="paved"/>
  </way>
  <way id="18544460" version="2" timestamp="2008-01-10T02:36:41Z" uid="4467" user="Rosscoe" changeset="589280">
    <nd ref="191218070"/>
    <nd ref="191218086"/>
    <nd ref="191218107"/>
    <tag k="created_by" v="JOSM"/>
    <tag k="highway" v="residential"/>
    <tag k="name" v="Davy Avenue"/>
    <tag k="source" v="gpsdrivetrack"/>
    <tag k="surface" v="paved"/>
  </way>
  <way id="18544460" version="3" timestamp="2009-01-25T00:13:22Z" uid="4467" user="Rosscoe" changeset="832900">
    <nd ref="191218070"/>
    <nd ref="191218086"/>
    <nd ref="191218107"/>
    <tag k="created_by" v="JOSM"/>
    <tag k="highway" v="residential"/>
    <tag k="name" v="Davy Avenue"/>
    <tag k="source" v="survey"/>
    <tag k="surface" v="paved"/>
  </way>
  <way id="18544461" version="1" timestamp="2007-12-27T01:49:00Z" uid="4467" user="Rosscoe" changeset="434591">
    <nd ref="191218125"/>
    <nd ref="191218145"/>
    <tag k="created_by" v="JOSM"/>
    <tag k="highway" v="residential"/>
    <tag k="source" v="gpsdrivetrack"/>
    <tag k="surface" v="paved"/>
  </way>
  <way id="18544461" version="2" timestamp="2008-01-10T02:36:44Z" uid="4467" user="Rosscoe" changeset="589280">
    <nd ref="191218125"/>
    <nd ref="191218145"/>
    <tag k="created_by" v="JOSM"/>
    <tag k="highway" v="residential"/>
    <tag k="source" v="gpsdrivetrack"/>
    <tag k="surface" v="paved"/>
  </way>
  <way id="18544461" version="3" timestamp="2008-11-03T00:53:38Z" uid="4467" user="Rosscoe" changeset="667702">
    <nd ref="191218125"/>
    <nd ref="191218145"/>
    <tag k="created_by" v="JOSM"/>
    <tag k="highway" v="residential"/>
    <tag k="name" v="Dobbins Lane"/>
    <tag k="source" v="survey"/>
    <tag k="surface" v="paved"/>
  </way>
  <way id="18544461" version="4" timestamp="2011-01-02T09:42:11Z" uid="4467" user="Rosscoe" changeset="6836336">
    <nd ref="178287842"/>
    <nd ref="191218145"/>
    <tag k="highway" v="residential"/>
    <tag k="name" v="Dobbins Lane"/>
    <tag k="source" v="survey"/>
    <tag k="surface" v="paved"/>
  </way>
  <way id="18544465" version="1" timestamp="2007-12-27T01:49:01Z" uid="4467" user="Rosscoe" changeset="434591">
    <nd ref="191218194"/>
    <nd ref="191218204"/>
    <tag k="created_by" v="JOSM"/>
    <tag k="highway" v="residential"/>
    <tag k="name" v="Edwards Street "/>
    <tag k="source" v="gpsdrivetrack"/>
    <tag k="surface" v="paved"/>
  </way>
  <way id="18544465" version="2" timestamp="2008-01-10T02:36:35Z" uid="4467" user="Rosscoe" changeset="589280">
    <nd ref="191218194"/>
    <nd ref="191218204"/>
    <tag k="created_by" v="JOSM"/>
    <tag k="highway" v="residential"/>
    <tag k="name" v="Edwards Street "/>
    <tag k="source" v="gpsdrivetrack"/>
    <tag k="surface" v="paved"/>
  </way>
  <way id="18544465" version="4" timestamp="2009-01-25T00:13:20Z" uid="4467" user="Rosscoe" changeset="832900">
    <nd ref="191218194"/>
    <nd ref="191218204"/>
    <tag k="created_by" v="xybot"/>
    <tag k="highway" v="residential"/>
    <tag k="name" v="Edwards Street"/>
    <tag k="source" v="survey"/>
    <tag k="surface" v="paved"/>
  </way>
  <way id="18544470" version="1" timestamp="2007-12-27T01:49:03Z" uid="4467" user="Rosscoe" changeset="434591">
    <nd ref="191218219"/>
    <nd ref="191218225"/>
    <nd ref="191218238"/>
    <tag k="created_by" v="JOSM"/>
    <tag k="highway" v="residential"/>
    <tag k="name" v="Elizabeth Street"/>
    <tag k="source" v="gpsdrivetrack"/>
    <tag k="surface" v="paved"/>
  </way>
  <way id="18544470" version="2" timestamp="2008-01-10T02:36:28Z" uid="4467" user="Rosscoe" changeset="589280">
    <nd ref="191218219"/>
    <nd ref="191218225"/>
    <nd ref="191218238"/>
    <tag k="created_by" v="JOSM"/>
    <tag k="highway" v="residential"/>
    <tag k="name" v="Elizabeth Street"/>
    <tag k="source" v="gpsdrivetrack"/>
    <tag k="surface" v="paved"/>
  </way>
  <way id="18544470" version="3" timestamp="2009-01-25T00:13:18Z" uid="4467" user="Rosscoe" changeset="832900">
    <nd ref="191218219"/>
    <nd ref="191218225"/>
    <nd ref="191218238"/>
    <tag k="created_by" v="JOSM"/>
    <tag k="highway" v="residential"/>
    <tag k="name" v="Elizabeth Street"/>
    <tag k="source" v="survey"/>
    <tag k="surface" v="paved"/>
  </way>
  <way id="18544476" version="1" timestamp="2007-12-27T01:49:04Z" uid="4467" user="Rosscoe" changeset="434591">
    <nd ref="191218248"/>
    <nd ref="191221015"/>
    <nd ref="191218622"/>
    <nd ref="191219709"/>
    <nd ref="191219937"/>
    <nd ref="191219352"/>
    <nd ref="191218107"/>
    <nd ref="191218263"/>
    <tag k="created_by" v="JOSM"/>
    <tag k="highway" v="residential"/>
    <tag k="name" v="Fuljames Street"/>
    <tag k="source" v="gpsdrivetrack"/>
    <tag k="surface" v="paved"/>
  </way>
  <way id="18544476" version="2" timestamp="2008-01-10T02:36:02Z" uid="4467" user="Rosscoe" changeset="589280">
    <nd ref="191218248"/>
    <nd ref="191221015"/>
    <nd ref="191218622"/>
    <nd ref="191219709"/>
    <nd ref="191219937"/>
    <nd ref="191219352"/>
    <nd ref="191218107"/>
    <nd ref="191218263"/>
    <tag k="created_by" v="JOSM"/>
    <tag k="highway" v="residential"/>
    <tag k="name" v="Fuljames Street"/>
    <tag k="source" v="gpsdrivetrack"/>
    <tag k="surface" v="paved"/>
  </way>
  <way id="18544476" version="3" timestamp="2008-10-14T22:04:04Z" uid="4467" user="Rosscoe" changeset="342472">
    <nd ref="191218248"/>
    <nd ref="191221015"/>
    <nd ref="191218622"/>
    <nd ref="191219709"/>
    <nd ref="191219937"/>
    <nd ref="191219352"/>
    <nd ref="191218107"/>
    <nd ref="191218263"/>
    <tag k="created_by" v="Potlatch 0.10e"/>
    <tag k="highway" v="residential"/>
    <tag k="name" v="Fuljames Street"/>
    <tag k="source" v="survey"/>
    <tag k="surface" v="paved"/>
  </way>
  <way id="18544479" version="1" timestamp="2007-12-27T01:49:06Z" uid="4467" user="Rosscoe" changeset="434591">
    <nd ref="191218622"/>
    <nd ref="191218750"/>
    <nd ref="191218645"/>
    <nd ref="191218654"/>
    <nd ref="191218678"/>
    <nd ref="191218719"/>
    <nd ref="191218750"/>
    <tag k="created_by" v="JOSM"/>
    <tag k="highway" v="residential"/>
    <tag k="name" v="Hansen Drive"/>
    <tag k="source" v="gpsdrivetrack"/>
    <tag k="surface" v="paved"/>
  </way>
  <way id="18544479" version="2" timestamp="2007-12-27T22:51:03Z" uid="4467" user="Rosscoe" changeset="445418">
    <nd ref="191218622"/>
    <nd ref="191218750"/>
    <nd ref="191218645"/>
    <tag k="created_by" v="JOSM"/>
    <tag k="highway" v="residential"/>
    <tag k="name" v="Hansen Drive"/>
    <tag k="source" v="gpsdrivetrack"/>
    <tag k="surface" v="paved"/>
  </way>
  <way id="18544479" version="3" timestamp="2008-01-10T02:36:06Z" uid="4467" user="Rosscoe" changeset="589280">
    <nd ref="191218622"/>
    <nd ref="191218750"/>
    <nd ref="191218645"/>
    <tag k="created_by" v="JOSM"/>
    <tag k="highway" v="residential"/>
    <tag k="name" v="Hansen Drive"/>
    <tag k="source" v="gpsdrivetrack"/>
    <tag k="surface" v="paved"/>
  </way>
  <way id="18544479" version="4" timestamp="2008-10-14T22:04:13Z" uid="4467" user="Rosscoe" changeset="342472">
    <nd ref="191218622"/>
    <nd ref="191218750"/>
    <nd ref="191218645"/>
    <tag k="created_by" v="Potlatch 0.10e"/>
    <tag k="highway" v="residential"/>
    <tag k="name" v="Hansen Drive"/>
    <tag k="source" v="survey"/>
    <tag k="surface" v="paved"/>
  </way>
  <way id="18544479" version="5" timestamp="2008-11-03T00:54:16Z" uid="4467" user="Rosscoe" changeset="667702">
    <nd ref="191218622"/>
    <nd ref="191218750"/>
    <nd ref="191218645"/>
    <tag k="created_by" v="Potlatch 0.10e"/>
    <tag k="highway" v="residential"/>
    <tag k="name" v="Hansen Drive"/>
    <tag k="source" v="survey"/>
    <tag k="surface" v="paved"/>
  </way>
  <way id="18544485" version="1" timestamp="2007-12-27T01:49:08Z" uid="4467" user="Rosscoe" changeset="434591">
    <nd ref="191218778"/>
    <nd ref="191218194"/>
    <nd ref="191219740"/>
    <nd ref="191218806"/>
    <tag k="created_by" v="JOSM"/>
    <tag k="highway" v="residential"/>
    <tag k="name" v="Herbert Street"/>
    <tag k="source" v="gpsdrivetrack"/>
    <tag k="surface" v="paved"/>
  </way>
  <way id="18544485" version="2" timestamp="2008-01-10T02:38:05Z" uid="4467" user="Rosscoe" changeset="589280">
    <nd ref="191218778"/>
    <nd ref="191218194"/>
    <nd ref="191219740"/>
    <nd ref="191218806"/>
    <tag k="created_by" v="JOSM"/>
    <tag k="highway" v="residential"/>
    <tag k="name" v="Herbert Street"/>
    <tag k="source" v="gpsdrivetrack"/>
    <tag k="surface" v="paved"/>
  </way>
  <way id="18544485" version="3" timestamp="2008-12-15T08:59:53Z" uid="4467" user="Rosscoe" changeset="389529">
    <nd ref="191218778"/>
    <nd ref="191218194"/>
    <nd ref="191219740"/>
    <nd ref="318866972"/>
    <tag k="created_by" v="JOSM"/>
    <tag k="highway" v="residential"/>
    <tag k="name" v="Herbert Street"/>
    <tag k="source" v="gpsdrivetrack"/>
    <tag k="surface" v="paved"/>
  </way>
  <way id="18544485" version="4" timestamp="2008-12-19T14:45:52Z" uid="4467" user="Rosscoe" changeset="478276">
    <nd ref="191218778"/>
    <nd ref="191218194"/>
    <nd ref="191219740"/>
    <nd ref="318866972"/>
    <tag k="created_by" v="Potlatch 0.10f"/>
    <tag k="highway" v="residential"/>
    <tag k="name" v="Herbert Street"/>
    <tag k="source" v="survey"/>
    <tag k="surface" v="paved"/>
  </way>
  <way id="18544488" version="1" timestamp="2007-12-27T01:49:09Z" uid="4467" user="Rosscoe" changeset="434591">
    <nd ref="191218845"/>
    <nd ref="191219404"/>
    <nd ref="191218875"/>
    <tag k="created_by" v="JOSM"/>
    <tag k="highway" v="residential"/>
    <tag k="name" v="Holmes Street"/>
    <tag k="source" v="gpsdrivetrack"/>
    <tag k="surface" v="paved"/>
  </way>
  <way id="18544488" version="2" timestamp="2008-01-10T02:37:56Z" uid="4467" user="Rosscoe" changeset="589280">
    <nd ref="191218845"/>
    <nd ref="191219404"/>
    <nd ref="191218875"/>
    <tag k="created_by" v="JOSM"/>
    <tag k="highway" v="residential"/>
    <tag k="name" v="Holmes Street"/>
    <tag k="source" v="gpsdrivetrack"/>
    <tag k="surface" v="paved"/>
  </way>
  <way id="18544488" version="3" timestamp="2009-01-25T00:13:37Z" uid="4467" user="Rosscoe" changeset="832900">
    <nd ref="191218845"/>
    <nd ref="191219404"/>
    <nd ref="191218875"/>
    <tag k="created_by" v="JOSM"/>
    <tag k="highway" v="residential"/>
    <tag k="name" v="Holmes Street"/>
    <tag k="source" v="survey"/>
    <tag k="surface" v="paved"/>
  </way>
  <way id="18544488" version="4" timestamp="2009-06-04T03:18:01Z" uid="4467" user="Rosscoe" changeset="1418127">
    <nd ref="415529995"/>
    <nd ref="191219404"/>
    <nd ref="191218875"/>
    <tag k="created_by" v="JOSM"/>
    <tag k="highway" v="residential"/>
    <tag k="name" v="Holmes Street"/>
    <tag k="source" v="survey"/>
    <tag k="surface" v="paved"/>
  </way>
  <way id="18544493" version="1" timestamp="2007-12-27T01:49:11Z" uid="4467" user="Rosscoe" changeset="434591">
    <nd ref="191218906"/>
    <nd ref="191221090"/>
    <nd ref="191218932"/>
    <tag k="created_by" v="JOSM"/>
    <tag k="highway" v="residential"/>
    <tag k="name" v="Jasmine Drive"/>
    <tag k="source" v="gpsdrivetrack"/>
    <tag k="surface" v="paved"/>
  </way>
  <way id="18544493" version="2" timestamp="2008-01-10T02:37:49Z" uid="4467" user="Rosscoe" changeset="589280">
    <nd ref="191218906"/>
    <nd ref="191221090"/>
    <nd ref="191218932"/>
    <tag k="created_by" v="JOSM"/>
    <tag k="highway" v="residential"/>
    <tag k="name" v="Jasmine Drive"/>
    <tag k="source" v="gpsdrivetrack"/>
    <tag k="surface" v="paved"/>
  </way>
  <way id="18544493" version="3" timestamp="2009-01-25T00:13:33Z" uid="4467" user="Rosscoe" changeset="832900">
    <nd ref="191218906"/>
    <nd ref="191221090"/>
    <nd ref="191218932"/>
    <tag k="created_by" v="JOSM"/>
    <tag k="highway" v="residential"/>
    <tag k="name" v="Jasmine Drive"/>
    <tag k="source" v="survey"/>
    <tag k="surface" v="paved"/>
  </way>
  <way id="18544493" version="4" timestamp="2011-01-02T09:41:48Z" uid="4467" user="Rosscoe" changeset="6836336">
    <nd ref="191218906"/>
    <nd ref="191221090"/>
    <nd ref="1078460689"/>
    <nd ref="191218932"/>
    <tag k="highway" v="residential"/>
    <tag k="name" v="Jasmine Drive"/>
    <tag k="source" v="survey"/>
    <tag k="surface" v="paved"/>
  </way>
  <way id="18544496" version="1" timestamp="2007-12-27T01:49:12Z" uid="4467" user="Rosscoe" changeset="434591">
    <nd ref="191218955"/>
    <nd ref="191218987"/>
    <tag k="created_by" v="JOSM"/>
    <tag k="highway" v="residential"/>
    <tag k="name" v="Keith Johns Drive"/>
    <tag k="source" v="gpsdrivetrack"/>
    <tag k="surface" v="paved"/>
  </way>
  <way id="18544496" version="2" timestamp="2007-12-27T22:51:12Z" uid="4467" user="Rosscoe" changeset="445418"/>
  <way id="18544499" version="1" timestamp="2007-12-27T01:49:13Z" uid="4467" user="Rosscoe" changeset="434591">
    <nd ref="191218026"/>
    <nd ref="191219336"/>
    <tag k="created_by" v="JOSM"/>
    <tag k="highway" v="residential"/>
    <tag k="name" v="Larkspur Street"/>
    <tag k="source" v="gpsdrivetrack"/>
    <tag k="surface" v="paved"/>
  </way>
  <way id="18544499" version="2" timestamp="2008-01-10T02:37:39Z" uid="4467" user="Rosscoe" changeset="589280">
    <nd ref="191218026"/>
    <nd ref="191219336"/>
    <tag k="created_by" v="JOSM"/>
    <tag k="highway" v="residential"/>
    <tag k="name" v="Larkspur Street"/>
    <tag k="source" v="gpsdrivetrack"/>
    <tag k="surface" v="paved"/>
  </way>
  <way id="18544499" version="3" timestamp="2008-10-14T22:04:36Z" uid="4467" user="Rosscoe" changeset="342472">
    <nd ref="191218026"/>
    <nd ref="191219336"/>
    <tag k="created_by" v="Potlatch 0.10e"/>
    <tag k="highway" v="residential"/>
    <tag k="name" v="Larkspur Street"/>
    <tag k="source" v="survey"/>
    <tag k="surface" v="paved"/>
  </way>
  <way id="18544503" version="1" timestamp="2007-12-27T01:49:14Z" uid="4467" user="Rosscoe" changeset="434591">
    <nd ref="191219352"/>
    <nd ref="191221251"/>
    <nd ref="191221278"/>
    <nd ref="191220955"/>
    <nd ref="191218806"/>
    <nd ref="191221325"/>
    <nd ref="191219380"/>
    <tag k="created_by" v="JOSM"/>
    <tag k="highway" v="residential"/>
    <tag k="name" v="Marathon Street"/>
    <tag k="source" v="gpsdrivetrack"/>
    <tag k="surface" v="paved"/>
  </way>
  <way id="18544503" version="2" timestamp="2008-01-10T02:37:37Z" uid="4467" user="Rosscoe" changeset="589280">
    <nd ref="191219352"/>
    <nd ref="191221251"/>
    <nd ref="191221278"/>
    <nd ref="191220955"/>
    <nd ref="191218806"/>
    <nd ref="191221325"/>
    <nd ref="191219380"/>
    <tag k="created_by" v="JOSM"/>
    <tag k="highway" v="residential"/>
    <tag k="name" v="Marathon Street"/>
    <tag k="source" v="gpsdrivetrack"/>
    <tag k="surface" v="paved"/>
  </way>
  <way id="18544503" version="3" timestamp="2008-12-19T03:12:11Z" uid="4467" user="Rosscoe" changeset="472613">
    <nd ref="191219352"/>
    <nd ref="191221251"/>
    <nd ref="191221278"/>
    <nd ref="191220955"/>
    <nd ref="191218806"/>
    <nd ref="191221325"/>
    <nd ref="319872099"/>
    <nd ref="319872098"/>
    <nd ref="191219380"/>
    <tag k="created_by" v="JOSM"/>
    <tag k="highway" v="residential"/>
    <tag k="name" v="Marathon Street"/>
    <tag k="source" v="gpsdrivetrack"/>
    <tag k="surface" v="paved"/>
  </way>
  <way id="18544503" version="4" timestamp="2009-01-25T00:13:28Z" uid="4467" user="Rosscoe" changeset="832900">
    <nd ref="191219352"/>
    <nd ref="191221251"/>
    <nd ref="191221278"/>
    <nd ref="191220955"/>
    <nd ref="191218806"/>
    <nd ref="191221325"/>
    <nd ref="319872099"/>
    <nd ref="319872098"/>
    <nd ref="191219380"/>
    <tag k="created_by" v="JOSM"/>
    <tag k="highway" v="residential"/>
    <tag k="name" v="Marathon Street"/>
    <tag k="source" v="survey"/>
    <tag k="surface" v="paved"/>
  </way>
  <way id="18544507" version="1" timestamp="2007-12-27T01:49:16Z" uid="4467" user="Rosscoe" changeset="434591">
    <nd ref="191219404"/>
    <nd ref="191219439"/>
    <nd ref="191219439"/>
    <nd ref="191219439"/>
    <nd ref="191219439"/>
    <nd ref="191219439"/>
    <nd ref="191219439"/>
    <nd ref="191219439"/>
    <nd ref="191219439"/>
    <tag k="created_by" v="JOSM"/>
    <tag k="highway" v="residential"/>
    <tag k="name" v="Pepper Street"/>
    <tag k="source" v="gpsdrivetrack"/>
    <tag k="surface" v="paved"/>
  </way>
  <way id="18544507" version="2" timestamp="2008-01-10T02:37:30Z" uid="4467" user="Rosscoe" changeset="589280">
    <nd ref="191219404"/>
    <nd ref="191219439"/>
    <nd ref="191219439"/>
    <nd ref="191219439"/>
    <nd ref="191219439"/>
    <nd ref="191219439"/>
    <nd ref="191219439"/>
    <nd ref="191219439"/>
    <nd ref="191219439"/>
    <tag k="created_by" v="JOSM"/>
    <tag k="highway" v="residential"/>
    <tag k="name" v="Pepper Street"/>
    <tag k="source" v="gpsdrivetrack"/>
    <tag k="surface" v="paved"/>
  </way>
  <way id="18544507" version="4" timestamp="2009-01-25T00:13:27Z" uid="4467" user="Rosscoe" changeset="832900">
    <nd ref="191219404"/>
    <nd ref="191219439"/>
    <tag k="created_by" v="JOSM"/>
    <tag k="highway" v="residential"/>
    <tag k="name" v="Pepper Street"/>
    <tag k="source" v="survey"/>
    <tag k="surface" v="paved"/>
  </way>
  <way id="18544510" version="1" timestamp="2007-12-27T01:49:17Z" uid="4467" user="Rosscoe" changeset="434591">
    <nd ref="191219477"/>
    <nd ref="191219507"/>
    <tag k="created_by" v="JOSM"/>
    <tag k="highway" v="residential"/>
    <tag k="name" v="Phillip Street"/>
    <tag k="source" v="gpsdrivetrack"/>
    <tag k="surface" v="paved"/>
  </way>
  <way id="18544510" version="2" timestamp="2008-01-10T02:37:19Z" uid="4467" user="Rosscoe" changeset="589280">
    <nd ref="191219477"/>
    <nd ref="191219507"/>
    <tag k="created_by" v="JOSM"/>
    <tag k="highway" v="residential"/>
    <tag k="name" v="Phillip Street"/>
    <tag k="source" v="gpsdrivetrack"/>
    <tag k="surface" v="paved"/>
  </way>
  <way id="18544510" version="3" timestamp="2009-01-25T00:13:25Z" uid="4467" user="Rosscoe" changeset="832900">
    <nd ref="191219477"/>
    <nd ref="191219507"/>
    <tag k="created_by" v="JOSM"/>
    <tag k="highway" v="residential"/>
    <tag k="name" v="Phillip Street"/>
    <tag k="source" v="survey"/>
    <tag k="surface" v="paved"/>
  </way>
  <way id="18544517" version="1" timestamp="2007-12-27T01:49:18Z" uid="4467" user="Rosscoe" changeset="434591">
    <nd ref="191219536"/>
    <nd ref="191219894"/>
    <nd ref="191219573"/>
    <tag k="created_by" v="JOSM"/>
    <tag k="highway" v="residential"/>
    <tag k="name" v="Robert Street"/>
    <tag k="source" v="gpsdrivetrack"/>
    <tag k="surface" v="paved"/>
  </way>
  <way id="18544517" version="2" timestamp="2008-01-10T02:38:48Z" uid="4467" user="Rosscoe" changeset="589280">
    <nd ref="191219536"/>
    <nd ref="191219894"/>
    <nd ref="191219573"/>
    <tag k="created_by" v="JOSM"/>
    <tag k="highway" v="residential"/>
    <tag k="name" v="Robert Street"/>
    <tag k="source" v="gpsdrivetrack"/>
    <tag k="surface" v="paved"/>
  </way>
  <way id="18544517" version="3" timestamp="2008-12-19T03:12:05Z" uid="4467" user="Rosscoe" changeset="472613">
    <nd ref="191219536"/>
    <nd ref="319872098"/>
    <nd ref="191219894"/>
    <nd ref="191219573"/>
    <tag k="created_by" v="JOSM"/>
    <tag k="highway" v="residential"/>
    <tag k="name" v="Robert Street"/>
    <tag k="source" v="gpsdrivetrack"/>
    <tag k="surface" v="paved"/>
  </way>
  <way id="18544517" version="4" timestamp="2009-01-25T00:13:51Z" uid="4467" user="Rosscoe" changeset="832900">
    <nd ref="191219536"/>
    <nd ref="319872098"/>
    <nd ref="191219894"/>
    <nd ref="191219573"/>
    <tag k="created_by" v="JOSM"/>
    <tag k="highway" v="residential"/>
    <tag k="name" v="Robert Street"/>
    <tag k="source" v="survey"/>
    <tag k="surface" v="paved"/>
  </way>
  <way id="18544520" version="1" timestamp="2007-12-27T01:49:20Z" uid="4467" user="Rosscoe" changeset="434591">
    <nd ref="191217896"/>
    <nd ref="191219336"/>
    <nd ref="191218590"/>
    <nd ref="191218608"/>
    <tag k="created_by" v="JOSM"/>
    <tag k="highway" v="residential"/>
    <tag k="name" v="Rose Street"/>
    <tag k="source" v="gpsdrivetrack"/>
    <tag k="surface" v="paved"/>
  </way>
  <way id="18544520" version="2" timestamp="2008-01-10T02:39:04Z" uid="4467" user="Rosscoe" changeset="589280">
    <nd ref="191217896"/>
    <nd ref="191219336"/>
    <nd ref="191218590"/>
    <nd ref="191218608"/>
    <tag k="created_by" v="JOSM"/>
    <tag k="highway" v="residential"/>
    <tag k="name" v="Rose Street"/>
    <tag k="source" v="gpsdrivetrack"/>
    <tag k="surface" v="paved"/>
  </way>
  <way id="18544520" version="3" timestamp="2008-10-14T22:04:31Z" uid="4467" user="Rosscoe" changeset="342472">
    <nd ref="191217896"/>
    <nd ref="191219336"/>
    <nd ref="191218590"/>
    <nd ref="191218608"/>
    <tag k="created_by" v="Potlatch 0.10e"/>
    <tag k="highway" v="residential"/>
    <tag k="name" v="Rose Street"/>
    <tag k="source" v="survey"/>
    <tag k="surface" v="paved"/>
  </way>
  <way id="18544521" version="1" timestamp="2007-12-27T01:49:21Z" uid="4467" user="Rosscoe" changeset="434591">
    <nd ref="191219611"/>
    <nd ref="191219655"/>
    <tag k="created_by" v="JOSM"/>
    <tag k="highway" v="residential"/>
    <tag k="name" v="Ryan Court"/>
    <tag k="source" v="gpsdrivetrack"/>
    <tag k="surface" v="paved"/>
  </way>
  <way id="18544521" version="2" timestamp="2008-01-10T02:38:59Z" uid="4467" user="Rosscoe" changeset="589280">
    <nd ref="191219611"/>
    <nd ref="191219655"/>
    <tag k="created_by" v="JOSM"/>
    <tag k="highway" v="residential"/>
    <tag k="name" v="Ryan Court"/>
    <tag k="source" v="gpsdrivetrack"/>
    <tag k="surface" v="paved"/>
  </way>
  <way id="18544521" version="3" timestamp="2009-01-25T00:13:54Z" uid="4467" user="Rosscoe" changeset="832900">
    <nd ref="191219611"/>
    <nd ref="191219655"/>
    <tag k="created_by" v="JOSM"/>
    <tag k="highway" v="residential"/>
    <tag k="name" v="Ryan Court"/>
    <tag k="source" v="survey"/>
    <tag k="surface" v="paved"/>
  </way>
  <way id="18544524" version="1" timestamp="2007-12-27T01:49:22Z" uid="4467" user="Rosscoe" changeset="434591">
    <nd ref="191219682"/>
    <nd ref="191219573"/>
    <nd ref="191221353"/>
    <nd ref="191217960"/>
    <nd ref="191220987"/>
    <nd ref="191217921"/>
    <nd ref="191219611"/>
    <nd ref="191219709"/>
    <tag k="created_by" v="JOSM"/>
    <tag k="highway" v="residential"/>
    <tag k="name" v="Ruge Street"/>
    <tag k="source" v="gpsdrivetrack"/>
    <tag k="surface" v="paved"/>
  </way>
  <way id="18544524" version="2" timestamp="2008-01-10T02:39:10Z" uid="4467" user="Rosscoe" changeset="589280">
    <nd ref="191219682"/>
    <nd ref="191219573"/>
    <nd ref="191221353"/>
    <nd ref="191217960"/>
    <nd ref="191220987"/>
    <nd ref="191217921"/>
    <nd ref="191219611"/>
    <nd ref="191219709"/>
    <tag k="created_by" v="JOSM"/>
    <tag k="highway" v="residential"/>
    <tag k="name" v="Ruge Street"/>
    <tag k="source" v="gpsdrivetrack"/>
    <tag k="surface" v="paved"/>
  </way>
  <way id="18544524" version="3" timestamp="2008-12-19T03:12:06Z" uid="4467" user="Rosscoe" changeset="472613">
    <nd ref="191219682"/>
    <nd ref="191219573"/>
    <nd ref="191221353"/>
    <nd ref="191217960"/>
    <nd ref="319872097"/>
    <nd ref="191220987"/>
    <nd ref="191217921"/>
    <nd ref="191219611"/>
    <nd ref="191219709"/>
    <tag k="created_by" v="JOSM"/>
    <tag k="highway" v="residential"/>
    <tag k="name" v="Ruge Street"/>
    <tag k="source" v="gpsdrivetrack"/>
    <tag k="surface" v="paved"/>
  </way>
  <way id="18544524" version="4" timestamp="2009-01-25T00:13:55Z" uid="4467" user="Rosscoe" changeset="832900">
    <nd ref="191219682"/>
    <nd ref="191219573"/>
    <nd ref="191221353"/>
    <nd ref="191217960"/>
    <nd ref="319872097"/>
    <nd ref="191220987"/>
    <nd ref="191217921"/>
    <nd ref="191219611"/>
    <nd ref="191219709"/>
    <tag k="created_by" v="JOSM"/>
    <tag k="highway" v="residential"/>
    <tag k="name" v="Ruge Street"/>
    <tag k="source" v="survey"/>
    <tag k="surface" v="paved"/>
  </way>
  <way id="18544524" version="5" timestamp="2009-06-18T08:25:45Z" uid="4467" user="Rosscoe" changeset="1552534">
    <nd ref="191219682"/>
    <nd ref="191219573"/>
    <nd ref="191221353"/>
    <nd ref="191217960"/>
    <nd ref="319872097"/>
    <nd ref="191220987"/>
    <nd ref="191217921"/>
    <nd ref="191219611"/>
    <nd ref="191219709"/>
    <tag k="created_by" v="JOSM"/>
    <tag k="highway" v="residential"/>
    <tag k="name" v="Ruge Street"/>
    <tag k="source" v="survey"/>
    <tag k="surface" v="paved"/>
  </way>
  <way id="18544526" version="1" timestamp="2007-12-27T01:49:23Z" uid="4467" user="Rosscoe" changeset="434591">
    <nd ref="191219740"/>
    <nd ref="191219773"/>
    <nd ref="191219773"/>
    <nd ref="191219773"/>
    <nd ref="191219773"/>
    <nd ref="191219773"/>
    <tag k="created_by" v="JOSM"/>
    <tag k="highway" v="residential"/>
    <tag k="name" v="Sarah Compton Lane"/>
    <tag k="source" v="gpsdrivetrack"/>
    <tag k="surface" v="paved"/>
  </way>
  <way id="18544526" version="2" timestamp="2008-01-10T02:39:14Z" uid="4467" user="Rosscoe" changeset="589280">
    <nd ref="191219740"/>
    <nd ref="191219773"/>
    <nd ref="191219773"/>
    <nd ref="191219773"/>
    <nd ref="191219773"/>
    <nd ref="191219773"/>
    <tag k="created_by" v="JOSM"/>
    <tag k="highway" v="residential"/>
    <tag k="name" v="Sarah Compton Lane"/>
    <tag k="source" v="gpsdrivetrack"/>
    <tag k="surface" v="paved"/>
  </way>
  <way id="18544526" version="4" timestamp="2009-01-25T00:13:56Z" uid="4467" user="Rosscoe" changeset="832900">
    <nd ref="191219740"/>
    <nd ref="191219773"/>
    <tag k="created_by" v="JOSM"/>
    <tag k="highway" v="residential"/>
    <tag k="name" v="Sarah Compton Lane"/>
    <tag k="source" v="survey"/>
    <tag k="surface" v="paved"/>
  </way>
  <way id="18544529" version="1" timestamp="2007-12-27T01:49:25Z" uid="4467" user="Rosscoe" changeset="434591">
    <nd ref="191219807"/>
    <nd ref="191219835"/>
    <tag k="created_by" v="JOSM"/>
    <tag k="highway" v="residential"/>
    <tag k="name" v="Settler Lane"/>
    <tag k="source" v="gpsdrivetrack"/>
    <tag k="surface" v="paved"/>
  </way>
  <way id="18544529" version="2" timestamp="2008-01-10T02:38:15Z" uid="4467" user="Rosscoe" changeset="589280">
    <nd ref="191219807"/>
    <nd ref="191219835"/>
    <tag k="created_by" v="JOSM"/>
    <tag k="highway" v="residential"/>
    <tag k="name" v="Settler Lane"/>
    <tag k="source" v="gpsdrivetrack"/>
    <tag k="surface" v="paved"/>
  </way>
  <way id="18544529" version="3" timestamp="2009-01-25T00:13:43Z" uid="4467" user="Rosscoe" changeset="832900">
    <nd ref="191219807"/>
    <nd ref="191219835"/>
    <tag k="created_by" v="JOSM"/>
    <tag k="highway" v="residential"/>
    <tag k="name" v="Settler Lane"/>
    <tag k="source" v="survey"/>
    <tag k="surface" v="paved"/>
  </way>
  <way id="18544533" version="1" timestamp="2007-12-27T01:49:26Z" uid="4467" user="Rosscoe" changeset="434591">
    <nd ref="191219857"/>
    <nd ref="191219894"/>
    <tag k="created_by" v="JOSM"/>
    <tag k="highway" v="residential"/>
    <tag k="name" v="Smith Street"/>
    <tag k="source" v="gpsdrivetrack"/>
    <tag k="surface" v="paved"/>
  </way>
  <way id="18544533" version="2" timestamp="2008-01-10T02:38:22Z" uid="4467" user="Rosscoe" changeset="589280">
    <nd ref="191219857"/>
    <nd ref="191219894"/>
    <tag k="created_by" v="JOSM"/>
    <tag k="highway" v="residential"/>
    <tag k="name" v="Smith Street"/>
    <tag k="source" v="gpsdrivetrack"/>
    <tag k="surface" v="paved"/>
  </way>
  <way id="18544533" version="3" timestamp="2009-01-25T00:13:44Z" uid="4467" user="Rosscoe" changeset="832900">
    <nd ref="191219857"/>
    <nd ref="191219894"/>
    <tag k="created_by" v="JOSM"/>
    <tag k="highway" v="residential"/>
    <tag k="name" v="Smith Street"/>
    <tag k="source" v="survey"/>
    <tag k="surface" v="paved"/>
  </way>
  <way id="18544537" version="1" timestamp="2007-12-27T01:49:28Z" uid="4467" user="Rosscoe" changeset="434591">
    <nd ref="191219937"/>
    <nd ref="191220858"/>
    <nd ref="191219981"/>
    <nd ref="191220001"/>
    <nd ref="191220027"/>
    <nd ref="191220053"/>
    <nd ref="191220091"/>
    <nd ref="191220114"/>
    <nd ref="191220159"/>
    <nd ref="191220183"/>
    <nd ref="191220209"/>
    <nd ref="191220240"/>
    <nd ref="191220266"/>
    <nd ref="191220295"/>
    <nd ref="191220323"/>
    <nd ref="191220349"/>
    <nd ref="191220370"/>
    <nd ref="191220394"/>
    <nd ref="191220425"/>
    <nd ref="191220455"/>
    <nd ref="191220484"/>
    <nd ref="191220523"/>
    <nd ref="191220555"/>
    <nd ref="191220594"/>
    <nd ref="191220620"/>
    <nd ref="191220654"/>
    <nd ref="191220681"/>
    <nd ref="191220710"/>
    <nd ref="191220737"/>
    <nd ref="191220765"/>
    <nd ref="191220798"/>
    <nd ref="191220835"/>
    <nd ref="191220858"/>
    <tag k="created_by" v="JOSM"/>
    <tag k="highway" v="residential"/>
    <tag k="name" v="Spalla Drive"/>
    <tag k="source" v="gpsdrivetrack"/>
    <tag k="surface" v="paved"/>
  </way>
  <way id="18544537" version="2" timestamp="2007-12-27T22:51:05Z" uid="4467" user="Rosscoe" changeset="445418">
    <nd ref="191219937"/>
    <nd ref="191220858"/>
    <nd ref="191219981"/>
    <nd ref="191220001"/>
    <nd ref="191220027"/>
    <nd ref="191220053"/>
    <nd ref="191220091"/>
    <nd ref="191220114"/>
    <nd ref="191220159"/>
    <nd ref="191220183"/>
    <nd ref="191220209"/>
    <nd ref="191220240"/>
    <nd ref="191220266"/>
    <nd ref="191220295"/>
    <nd ref="191220323"/>
    <nd ref="191220349"/>
    <nd ref="191220370"/>
    <nd ref="191220394"/>
    <nd ref="191220425"/>
    <tag k="created_by" v="JOSM"/>
    <tag k="highway" v="residential"/>
    <tag k="name" v="Spalla Drive"/>
    <tag k="source" v="gpsdrivetrack"/>
    <tag k="surface" v="paved"/>
  </way>
  <way id="18544537" version="3" timestamp="2008-01-10T02:38:31Z" uid="4467" user="Rosscoe" changeset="589280">
    <nd ref="191219937"/>
    <nd ref="191220858"/>
    <nd ref="191219981"/>
    <nd ref="191220001"/>
    <nd ref="191220027"/>
    <nd ref="191220053"/>
    <nd ref="191220091"/>
    <nd ref="191220114"/>
    <nd ref="191220159"/>
    <nd ref="191220183"/>
    <nd ref="191220209"/>
    <nd ref="191220240"/>
    <nd ref="191220266"/>
    <nd ref="191220295"/>
    <nd ref="191220323"/>
    <nd ref="191220349"/>
    <nd ref="191220370"/>
    <nd ref="191220394"/>
    <nd ref="191220425"/>
    <tag k="created_by" v="JOSM"/>
    <tag k="highway" v="residential"/>
    <tag k="name" v="Spalla Drive"/>
    <tag k="source" v="gpsdrivetrack"/>
    <tag k="surface" v="paved"/>
  </way>
  <way id="18544537" version="4" timestamp="2009-01-25T00:13:49Z" uid="4467" user="Rosscoe" changeset="832900">
    <nd ref="191219937"/>
    <nd ref="191220858"/>
    <nd ref="191219981"/>
    <nd ref="191220001"/>
    <nd ref="191220027"/>
    <nd ref="191220053"/>
    <nd ref="191220091"/>
    <nd ref="191220114"/>
    <nd ref="191220159"/>
    <nd ref="191220183"/>
    <nd ref="191220209"/>
    <nd ref="191220240"/>
    <nd ref="191220266"/>
    <nd ref="191220295"/>
    <nd ref="191220323"/>
    <nd ref="191220349"/>
    <nd ref="191220370"/>
    <nd ref="191220394"/>
    <nd ref="191220425"/>
    <tag k="created_by" v="JOSM"/>
    <tag k="highway" v="residential"/>
    <tag k="name" v="Spalla Drive"/>
    <tag k="source" v="survey"/>
    <tag k="surface" v="paved"/>
  </way>
  <way id="18544537" version="5" timestamp="2011-01-02T09:42:02Z" uid="4467" user="Rosscoe" changeset="6836336">
    <nd ref="191219937"/>
    <nd ref="191220858"/>
    <nd ref="191220027"/>
    <nd ref="191220053"/>
    <nd ref="191220091"/>
    <nd ref="191220114"/>
    <nd ref="191220159"/>
    <nd ref="191220183"/>
    <nd ref="191220209"/>
    <nd ref="191220240"/>
    <nd ref="191220266"/>
    <nd ref="191220295"/>
    <nd ref="191220323"/>
    <nd ref="191220349"/>
    <nd ref="191220370"/>
    <nd ref="191220394"/>
    <nd ref="191220425"/>
    <tag k="highway" v="residential"/>
    <tag k="name" v="Spalla Drive"/>
    <tag k="source" v="survey"/>
    <tag k="surface" v="paved"/>
  </way>
  <way id="18544544" version="1" timestamp="2007-12-27T01:49:29Z" uid="4467" user="Rosscoe" changeset="434591">
    <nd ref="191218219"/>
    <nd ref="191219682"/>
    <nd ref="191219507"/>
    <nd ref="191218875"/>
    <nd ref="191220882"/>
    <tag k="created_by" v="JOSM"/>
    <tag k="highway" v="residential"/>
    <tag k="name" v="Stanbury Street"/>
    <tag k="source" v="gpsdrivetrack"/>
    <tag k="surface" v="paved"/>
  </way>
  <way id="18544544" version="2" timestamp="2008-01-10T02:39:54Z" uid="4467" user="Rosscoe" changeset="589280">
    <nd ref="191218219"/>
    <nd ref="191219682"/>
    <nd ref="191219507"/>
    <nd ref="191218875"/>
    <nd ref="191220882"/>
    <tag k="created_by" v="JOSM"/>
    <tag k="highway" v="residential"/>
    <tag k="name" v="Stanbury Street"/>
    <tag k="source" v="gpsdrivetrack"/>
    <tag k="surface" v="paved"/>
  </way>
  <way id="18544544" version="3" timestamp="2009-01-25T00:14:08Z" uid="4467" user="Rosscoe" changeset="832900">
    <nd ref="191218219"/>
    <nd ref="191219682"/>
    <nd ref="191219507"/>
    <nd ref="191218875"/>
    <nd ref="191220882"/>
    <tag k="created_by" v="JOSM"/>
    <tag k="highway" v="residential"/>
    <tag k="name" v="Stanbury Street"/>
    <tag k="source" v="survey"/>
    <tag k="surface" v="paved"/>
  </way>
  <way id="18544547" version="1" timestamp="2007-12-27T01:49:30Z" uid="4467" user="Rosscoe" changeset="434591">
    <nd ref="191220928"/>
    <nd ref="191219302"/>
    <nd ref="191221294"/>
    <tag k="created_by" v="JOSM"/>
    <tag k="highway" v="residential"/>
    <tag k="source" v="gpsdrivetrack"/>
    <tag k="surface" v="paved"/>
  </way>
  <way id="18544547" version="2" timestamp="2008-01-10T02:39:46Z" uid="4467" user="Rosscoe" changeset="589280">
    <nd ref="191220928"/>
    <nd ref="191219302"/>
    <nd ref="191221294"/>
    <tag k="created_by" v="JOSM"/>
    <tag k="highway" v="residential"/>
    <tag k="source" v="gpsdrivetrack"/>
    <tag k="surface" v="paved"/>
  </way>
  <way id="18544547" version="3" timestamp="2008-11-03T00:53:14Z" uid="4467" user="Rosscoe" changeset="667702">
    <nd ref="191220928"/>
    <nd ref="191219302"/>
    <nd ref="191221294"/>
    <tag k="created_by" v="JOSM"/>
    <tag k="highway" v="residential"/>
    <tag k="name" v="Sterry Street"/>
    <tag k="source" v="survey"/>
    <tag k="surface" v="paved"/>
  </way>
  <way id="18544547" version="4" timestamp="2009-06-18T08:25:45Z" uid="4467" user="Rosscoe" changeset="1552534">
    <nd ref="191220928"/>
    <nd ref="191219302"/>
    <nd ref="191221294"/>
    <tag k="created_by" v="JOSM"/>
    <tag k="highway" v="residential"/>
    <tag k="name" v="Sterry Street"/>
    <tag k="source" v="survey"/>
    <tag k="surface" v="paved"/>
  </way>
  <way id="18544549" version="1" timestamp="2007-12-27T01:49:32Z" uid="4467" user="Rosscoe" changeset="434591">
    <nd ref="191220955"/>
    <nd ref="191220987"/>
    <tag k="created_by" v="JOSM"/>
    <tag k="highway" v="residential"/>
    <tag k="name" v="Telia Street"/>
    <tag k="source" v="gpsdrivetrack"/>
    <tag k="surface" v="paved"/>
  </way>
  <way id="18544549" version="2" timestamp="2008-01-10T02:40:03Z" uid="4467" user="Rosscoe" changeset="589280">
    <nd ref="191220955"/>
    <nd ref="191220987"/>
    <tag k="created_by" v="JOSM"/>
    <tag k="highway" v="residential"/>
    <tag k="name" v="Telia Street"/>
    <tag k="source" v="gpsdrivetrack"/>
    <tag k="surface" v="paved"/>
  </way>
  <way id="18544549" version="3" timestamp="2009-01-25T00:14:09Z" uid="4467" user="Rosscoe" changeset="832900">
    <nd ref="191220955"/>
    <nd ref="191220987"/>
    <tag k="created_by" v="JOSM"/>
    <tag k="highway" v="residential"/>
    <tag k="name" v="Telia Street"/>
    <tag k="source" v="survey"/>
    <tag k="surface" v="paved"/>
  </way>
  <way id="18544551" version="1" timestamp="2007-12-27T01:49:33Z" uid="4467" user="Rosscoe" changeset="434591">
    <nd ref="191221015"/>
    <nd ref="191221036"/>
    <nd ref="191221061"/>
    <tag k="created_by" v="JOSM"/>
    <tag k="highway" v="residential"/>
    <tag k="name" v="Trojan Court"/>
    <tag k="source" v="gpsdrivetrack"/>
    <tag k="surface" v="paved"/>
  </way>
  <way id="18544551" version="2" timestamp="2008-01-10T02:39:58Z" uid="4467" user="Rosscoe" changeset="589280">
    <nd ref="191221015"/>
    <nd ref="191221036"/>
    <nd ref="191221061"/>
    <tag k="created_by" v="JOSM"/>
    <tag k="highway" v="residential"/>
    <tag k="name" v="Trojan Court"/>
    <tag k="source" v="gpsdrivetrack"/>
    <tag k="surface" v="paved"/>
  </way>
  <way id="18544551" version="3" timestamp="2008-11-03T00:54:34Z" uid="4467" user="Rosscoe" changeset="667702">
    <nd ref="191221015"/>
    <nd ref="191221036"/>
    <nd ref="191221061"/>
    <tag k="created_by" v="JOSM"/>
    <tag k="highway" v="residential"/>
    <tag k="name" v="Trojan Court"/>
    <tag k="source" v="survey"/>
    <tag k="surface" v="paved"/>
  </way>
  <way id="18544551" version="4" timestamp="2011-01-02T09:41:18Z" uid="4467" user="Rosscoe" changeset="6836336">
    <nd ref="191221015"/>
    <nd ref="1078460798"/>
    <nd ref="1078460652"/>
    <nd ref="191221036"/>
    <nd ref="191221061"/>
    <tag k="highway" v="residential"/>
    <tag k="name" v="Trojan Court"/>
    <tag k="source" v="survey"/>
    <tag k="surface" v="paved"/>
  </way>
  <way id="18544553" version="1" timestamp="2007-12-27T01:49:34Z" uid="4467" user="Rosscoe" changeset="434591">
    <nd ref="191221090"/>
    <nd ref="191221107"/>
    <nd ref="191221128"/>
    <nd ref="191221153"/>
    <tag k="created_by" v="JOSM"/>
    <tag k="highway" v="residential"/>
    <tag k="name" v="Tulip Court"/>
    <tag k="source" v="gpsdrivetrack"/>
    <tag k="surface" v="paved"/>
  </way>
  <way id="18544553" version="2" timestamp="2008-01-10T02:40:16Z" uid="4467" user="Rosscoe" changeset="589280">
    <nd ref="191221090"/>
    <nd ref="191221107"/>
    <nd ref="191221128"/>
    <nd ref="191221153"/>
    <tag k="created_by" v="JOSM"/>
    <tag k="highway" v="residential"/>
    <tag k="name" v="Tulip Court"/>
    <tag k="source" v="gpsdrivetrack"/>
    <tag k="surface" v="paved"/>
  </way>
  <way id="18544553" version="3" timestamp="2009-01-25T00:14:17Z" uid="4467" user="Rosscoe" changeset="832900">
    <nd ref="191221090"/>
    <nd ref="191221107"/>
    <nd ref="191221128"/>
    <nd ref="191221153"/>
    <tag k="created_by" v="JOSM"/>
    <tag k="highway" v="residential"/>
    <tag k="name" v="Tulip Court"/>
    <tag k="source" v="survey"/>
    <tag k="surface" v="paved"/>
  </way>
  <way id="18544553" version="4" timestamp="2011-01-02T09:41:28Z" uid="4467" user="Rosscoe" changeset="6836336">
    <nd ref="191221090"/>
    <nd ref="1078460783"/>
    <nd ref="191221107"/>
    <nd ref="191221128"/>
    <nd ref="191221153"/>
    <tag k="highway" v="residential"/>
    <tag k="name" v="Tulip Court"/>
    <tag k="source" v="survey"/>
    <tag k="surface" v="paved"/>
  </way>
  <way id="18544556" version="1" timestamp="2007-12-27T01:49:35Z" uid="4467" user="Rosscoe" changeset="434591">
    <nd ref="191221168"/>
    <nd ref="191221195"/>
    <tag k="created_by" v="JOSM"/>
    <tag k="highway" v="residential"/>
    <tag k="name" v="Waite Street"/>
    <tag k="source" v="gpsdrivetrack"/>
    <tag k="surface" v="paved"/>
  </way>
  <way id="18544556" version="2" timestamp="2008-01-10T02:40:29Z" uid="4467" user="Rosscoe" changeset="589280">
    <nd ref="191221168"/>
    <nd ref="191221195"/>
    <tag k="created_by" v="JOSM"/>
    <tag k="highway" v="residential"/>
    <tag k="name" v="Waite Street"/>
    <tag k="source" v="gpsdrivetrack"/>
    <tag k="surface" v="paved"/>
  </way>
  <way id="18544556" version="3" timestamp="2009-01-25T00:14:18Z" uid="4467" user="Rosscoe" changeset="832900">
    <nd ref="191221168"/>
    <nd ref="191221195"/>
    <tag k="created_by" v="JOSM"/>
    <tag k="highway" v="residential"/>
    <tag k="name" v="Waite Street"/>
    <tag k="source" v="survey"/>
    <tag k="surface" v="paved"/>
  </way>
  <way id="18544558" version="1" timestamp="2007-12-27T01:49:37Z" uid="4467" user="Rosscoe" changeset="434591">
    <nd ref="191218164"/>
    <nd ref="191219536"/>
    <nd ref="191218145"/>
    <nd ref="191218171"/>
    <nd ref="191218182"/>
    <tag k="created_by" v="JOSM"/>
    <tag k="highway" v="residential"/>
    <tag k="name" v="Dobbins Lane"/>
    <tag k="source" v="gpsdrivetrack"/>
    <tag k="surface" v="paved"/>
  </way>
  <way id="18544558" version="2" timestamp="2008-01-10T02:40:22Z" uid="4467" user="Rosscoe" changeset="589280">
    <nd ref="191218164"/>
    <nd ref="191219536"/>
    <nd ref="191218145"/>
    <nd ref="191218171"/>
    <nd ref="191218182"/>
    <tag k="created_by" v="JOSM"/>
    <tag k="highway" v="residential"/>
    <tag k="name" v="Dobbins Lane"/>
    <tag k="source" v="gpsdrivetrack"/>
    <tag k="surface" v="paved"/>
  </way>
  <way id="18544558" version="3" timestamp="2008-11-03T00:53:39Z" uid="4467" user="Rosscoe" changeset="667702">
    <nd ref="191218164"/>
    <nd ref="191219536"/>
    <nd ref="191218145"/>
    <nd ref="191218171"/>
    <nd ref="191218182"/>
    <tag k="created_by" v="JOSM"/>
    <tag k="highway" v="residential"/>
    <tag k="name" v="Dobbins Lane"/>
    <tag k="source" v="survey"/>
    <tag k="surface" v="paved"/>
  </way>
  <way id="18544562" version="1" timestamp="2007-12-27T01:49:38Z" uid="4467" user="Rosscoe" changeset="434591">
    <nd ref="191219233"/>
    <nd ref="191219261"/>
    <nd ref="191219302"/>
    <tag k="created_by" v="JOSM"/>
    <tag k="highway" v="residential"/>
    <tag k="name" v="Keith Johns Drive"/>
    <tag k="source" v="gpsdrivetrack"/>
    <tag k="surface" v="paved"/>
  </way>
  <way id="18544562" version="2" timestamp="2007-12-27T22:51:06Z" uid="4467" user="Rosscoe" changeset="445418">
    <nd ref="191219233"/>
    <nd ref="191219261"/>
    <tag k="created_by" v="JOSM"/>
    <tag k="highway" v="residential"/>
    <tag k="name" v="Keith Johns Drive"/>
    <tag k="source" v="gpsdrivetrack"/>
    <tag k="surface" v="paved"/>
  </way>
  <way id="18544562" version="3" timestamp="2008-01-10T02:39:15Z" uid="4467" user="Rosscoe" changeset="589280">
    <nd ref="191219233"/>
    <nd ref="191219261"/>
    <tag k="created_by" v="JOSM"/>
    <tag k="highway" v="residential"/>
    <tag k="name" v="Keith Johns Drive"/>
    <tag k="source" v="gpsdrivetrack"/>
    <tag k="surface" v="paved"/>
  </way>
  <way id="18544562" version="4" timestamp="2009-01-25T00:13:58Z" uid="4467" user="Rosscoe" changeset="832900">
    <nd ref="191219233"/>
    <nd ref="191219261"/>
    <tag k="created_by" v="JOSM"/>
    <tag k="highway" v="residential"/>
    <tag k="name" v="Keith Johns Drive"/>
    <tag k="source" v="survey"/>
    <tag k="surface" v="paved"/>
  </way>
  <way id="18544563" version="1" timestamp="2007-12-27T01:49:39Z" uid="4467" user="Rosscoe" changeset="434591">
    <nd ref="191219013"/>
    <nd ref="191219039"/>
    <nd ref="191218987"/>
    <nd ref="191219070"/>
    <nd ref="191219100"/>
    <nd ref="191219134"/>
    <nd ref="191219168"/>
    <nd ref="191219196"/>
    <nd ref="191219261"/>
    <tag k="created_by" v="JOSM"/>
    <tag k="highway" v="residential"/>
    <tag k="name" v="Keith Johns Drive"/>
    <tag k="source" v="gpsdrivetrack"/>
    <tag k="surface" v="paved"/>
  </way>
  <way id="18544563" version="2" timestamp="2007-12-27T22:51:08Z" uid="4467" user="Rosscoe" changeset="445418">
    <nd ref="191219013"/>
    <nd ref="191218987"/>
    <tag k="created_by" v="JOSM"/>
    <tag k="highway" v="residential"/>
    <tag k="name" v="Keith Johns Drive"/>
    <tag k="source" v="gpsdrivetrack"/>
    <tag k="surface" v="paved"/>
  </way>
  <way id="18544563" version="3" timestamp="2008-01-10T02:39:16Z" uid="4467" user="Rosscoe" changeset="589280">
    <nd ref="191219013"/>
    <nd ref="191218987"/>
    <tag k="created_by" v="JOSM"/>
    <tag k="highway" v="residential"/>
    <tag k="name" v="Keith Johns Drive"/>
    <tag k="source" v="gpsdrivetrack"/>
    <tag k="surface" v="paved"/>
  </way>
  <way id="18544563" version="4" timestamp="2009-01-25T00:14:02Z" uid="4467" user="Rosscoe" changeset="832900">
    <nd ref="191219013"/>
    <nd ref="191218987"/>
    <tag k="created_by" v="JOSM"/>
    <tag k="highway" v="residential"/>
    <tag k="name" v="Keith Johns Drive"/>
    <tag k="source" v="survey"/>
    <tag k="surface" v="paved"/>
  </way>
  <way id="18544568" version="1" timestamp="2007-12-27T01:49:40Z" uid="4467" user="Rosscoe" changeset="434591">
    <nd ref="191218906"/>
    <nd ref="191218282"/>
    <nd ref="191218295"/>
    <nd ref="191218306"/>
    <nd ref="191218323"/>
    <nd ref="191218337"/>
    <nd ref="191218349"/>
    <nd ref="191218362"/>
    <nd ref="191218377"/>
    <nd ref="191218389"/>
    <nd ref="191218403"/>
    <nd ref="191218428"/>
    <nd ref="191218443"/>
    <nd ref="191218456"/>
    <nd ref="191218470"/>
    <nd ref="191218483"/>
    <nd ref="191218495"/>
    <nd ref="191218509"/>
    <nd ref="191218527"/>
    <nd ref="191218546"/>
    <nd ref="191218560"/>
    <nd ref="191218608"/>
    <nd ref="191218574"/>
    <tag k="created_by" v="JOSM"/>
    <tag k="highway" v="residential"/>
    <tag k="name" v="Gardenia Street"/>
    <tag k="source" v="gpsdrivetrack"/>
    <tag k="surface" v="paved"/>
  </way>
  <way id="18544568" version="2" timestamp="2007-12-27T22:51:09Z" uid="4467" user="Rosscoe" changeset="445418">
    <nd ref="191218574"/>
    <nd ref="191218608"/>
    <nd ref="191218560"/>
    <nd ref="191218546"/>
    <nd ref="191218527"/>
    <nd ref="191218509"/>
    <nd ref="191218495"/>
    <nd ref="191218483"/>
    <nd ref="191218470"/>
    <nd ref="191218456"/>
    <nd ref="191218443"/>
    <nd ref="191218428"/>
    <nd ref="191218403"/>
    <nd ref="191218389"/>
    <nd ref="191218377"/>
    <nd ref="191218362"/>
    <nd ref="191218349"/>
    <nd ref="191218337"/>
    <nd ref="191218323"/>
    <nd ref="191218306"/>
    <nd ref="191218295"/>
    <nd ref="191218282"/>
    <nd ref="191218906"/>
    <tag k="created_by" v="JOSM"/>
    <tag k="highway" v="residential"/>
    <tag k="name" v="Gardenia Street"/>
    <tag k="source" v="gpsdrivetrack"/>
    <tag k="surface" v="paved"/>
  </way>
  <way id="18544568" version="3" timestamp="2008-01-10T02:39:34Z" uid="4467" user="Rosscoe" changeset="589280">
    <nd ref="191218574"/>
    <nd ref="191218608"/>
    <nd ref="191218560"/>
    <nd ref="191218546"/>
    <nd ref="191218527"/>
    <nd ref="191218509"/>
    <nd ref="191218495"/>
    <nd ref="191218483"/>
    <nd ref="191218470"/>
    <nd ref="191218456"/>
    <nd ref="191218443"/>
    <nd ref="191218428"/>
    <nd ref="191218403"/>
    <nd ref="191218389"/>
    <nd ref="191218377"/>
    <nd ref="191218362"/>
    <nd ref="191218349"/>
    <nd ref="191218337"/>
    <nd ref="191218323"/>
    <nd ref="191218306"/>
    <nd ref="191218295"/>
    <nd ref="191218282"/>
    <nd ref="191218906"/>
    <tag k="created_by" v="JOSM"/>
    <tag k="highway" v="residential"/>
    <tag k="name" v="Gardenia Street"/>
    <tag k="source" v="gpsdrivetrack"/>
    <tag k="surface" v="paved"/>
  </way>
  <way id="18544568" version="4" timestamp="2009-01-25T00:14:06Z" uid="4467" user="Rosscoe" changeset="832900">
    <nd ref="191218574"/>
    <nd ref="191218608"/>
    <nd ref="191218560"/>
    <nd ref="191218546"/>
    <nd ref="191218527"/>
    <nd ref="191218509"/>
    <nd ref="191218495"/>
    <nd ref="191218483"/>
    <nd ref="191218470"/>
    <nd ref="191218456"/>
    <nd ref="191218443"/>
    <nd ref="191218428"/>
    <nd ref="191218403"/>
    <nd ref="191218389"/>
    <nd ref="191218377"/>
    <nd ref="191218362"/>
    <nd ref="191218349"/>
    <nd ref="191218337"/>
    <nd ref="191218323"/>
    <nd ref="191218306"/>
    <nd ref="191218295"/>
    <nd ref="191218282"/>
    <nd ref="191218906"/>
    <tag k="created_by" v="JOSM"/>
    <tag k="highway" v="residential"/>
    <tag k="name" v="Gardenia Street"/>
    <tag k="source" v="survey"/>
    <tag k="surface" v="paved"/>
  </way>
  <way id="18544572" version="1" timestamp="2007-12-27T01:49:42Z" uid="4467" user="Rosscoe" changeset="434591">
    <nd ref="191217896"/>
    <nd ref="191217872"/>
    <tag k="created_by" v="JOSM"/>
    <tag k="highway" v="residential"/>
    <tag k="name" v="Petunia Street"/>
    <tag k="source" v="gpsdrivetrack"/>
    <tag k="surface" v="paved"/>
  </way>
  <way id="18544572" version="2" timestamp="2008-01-10T02:39:43Z" uid="4467" user="Rosscoe" changeset="589280">
    <nd ref="191217896"/>
    <nd ref="191217872"/>
    <tag k="created_by" v="JOSM"/>
    <tag k="highway" v="residential"/>
    <tag k="name" v="Petunia Street"/>
    <tag k="source" v="gpsdrivetrack"/>
    <tag k="surface" v="paved"/>
  </way>
  <way id="18544572" version="3" timestamp="2008-10-14T22:04:25Z" uid="4467" user="Rosscoe" changeset="342472">
    <nd ref="191217896"/>
    <nd ref="191217872"/>
    <tag k="created_by" v="Potlatch 0.10e"/>
    <tag k="highway" v="residential"/>
    <tag k="name" v="Petunia Street"/>
    <tag k="source" v="survey"/>
    <tag k="surface" v="paved"/>
  </way>
  <way id="18544576" version="1" timestamp="2007-12-27T01:49:43Z" uid="4467" user="Rosscoe" changeset="434591">
    <nd ref="191221294"/>
    <nd ref="191221325"/>
    <tag k="created_by" v="JOSM"/>
    <tag k="highway" v="residential"/>
    <tag k="name" v="Florence Street"/>
    <tag k="source" v="gpsdrivetrack"/>
    <tag k="surface" v="paved"/>
  </way>
  <way id="18544576" version="2" timestamp="2008-01-10T02:41:06Z" uid="4467" user="Rosscoe" changeset="589280">
    <nd ref="191221294"/>
    <nd ref="191221325"/>
    <tag k="created_by" v="JOSM"/>
    <tag k="highway" v="residential"/>
    <tag k="name" v="Florence Street"/>
    <tag k="source" v="gpsdrivetrack"/>
    <tag k="surface" v="paved"/>
  </way>
  <way id="18544576" version="3" timestamp="2008-12-19T03:12:10Z" uid="4467" user="Rosscoe" changeset="472613">
    <nd ref="191221294"/>
    <nd ref="319872097"/>
    <nd ref="191221325"/>
    <tag k="created_by" v="JOSM"/>
    <tag k="highway" v="residential"/>
    <tag k="name" v="Florence Street"/>
    <tag k="source" v="gpsdrivetrack"/>
    <tag k="surface" v="paved"/>
  </way>
  <way id="18544576" version="4" timestamp="2009-01-25T00:14:32Z" uid="4467" user="Rosscoe" changeset="832900">
    <nd ref="191221294"/>
    <nd ref="319872097"/>
    <nd ref="191221325"/>
    <tag k="created_by" v="JOSM"/>
    <tag k="highway" v="residential"/>
    <tag k="name" v="Florence Street"/>
    <tag k="source" v="survey"/>
    <tag k="surface" v="paved"/>
  </way>
  <way id="18544576" version="5" timestamp="2009-06-18T08:25:45Z" uid="4467" user="Rosscoe" changeset="1552534">
    <nd ref="191221294"/>
    <nd ref="319872097"/>
    <nd ref="191221325"/>
    <tag k="created_by" v="JOSM"/>
    <tag k="highway" v="residential"/>
    <tag k="name" v="Florence Street"/>
    <tag k="source" v="survey"/>
    <tag k="surface" v="paved"/>
  </way>
  <way id="18544579" version="1" timestamp="2007-12-27T01:49:44Z" uid="4467" user="Rosscoe" changeset="434591">
    <nd ref="191221294"/>
    <nd ref="191218040"/>
    <tag k="created_by" v="JOSM"/>
    <tag k="highway" v="residential"/>
    <tag k="name" v="Sterry Street"/>
    <tag k="oneway" v="true"/>
    <tag k="source" v="gpsdrivetrack"/>
    <tag k="surface" v="paved"/>
  </way>
  <way id="18544579" version="2" timestamp="2008-01-10T02:41:07Z" uid="4467" user="Rosscoe" changeset="589280">
    <nd ref="191221294"/>
    <nd ref="191218040"/>
    <tag k="created_by" v="JOSM"/>
    <tag k="highway" v="residential"/>
    <tag k="name" v="Sterry Street"/>
    <tag k="oneway" v="true"/>
    <tag k="source" v="gpsdrivetrack"/>
    <tag k="surface" v="paved"/>
  </way>
  <way id="18544579" version="3" timestamp="2008-11-03T00:53:11Z" uid="4467" user="Rosscoe" changeset="667702">
    <nd ref="191221294"/>
    <nd ref="191218040"/>
    <tag k="created_by" v="JOSM"/>
    <tag k="highway" v="residential"/>
    <tag k="name" v="Sterry Street"/>
    <tag k="oneway" v="true"/>
    <tag k="source" v="survey"/>
    <tag k="surface" v="paved"/>
  </way>
  <way id="18544579" version="4" timestamp="2008-12-26T06:38:30Z" uid="4467" user="Rosscoe" changeset="607845">
    <nd ref="191221294"/>
    <nd ref="191218040"/>
    <tag k="created_by" v="JOSM"/>
    <tag k="highway" v="residential"/>
    <tag k="name" v="Sterry Street"/>
    <tag k="oneway" v="yes"/>
    <tag k="source" v="survey"/>
    <tag k="surface" v="paved"/>
  </way>
  <way id="18544579" version="5" timestamp="2009-06-18T08:25:46Z" uid="4467" user="Rosscoe" changeset="1552534">
    <nd ref="191221294"/>
    <nd ref="191218040"/>
    <tag k="created_by" v="JOSM"/>
    <tag k="highway" v="residential"/>
    <tag k="name" v="Sterry Street"/>
    <tag k="oneway" v="yes"/>
    <tag k="source" v="survey"/>
    <tag k="surface" v="paved"/>
  </way>
  <way id="18544582" version="1" timestamp="2007-12-27T01:49:45Z" uid="4467" user="Rosscoe" changeset="434591">
    <nd ref="191221353"/>
    <nd ref="191217997"/>
    <nd ref="191218164"/>
    <nd ref="191221229"/>
    <nd ref="191219807"/>
    <nd ref="191221195"/>
    <nd ref="191218054"/>
    <tag k="created_by" v="JOSM"/>
    <tag k="highway" v="residential"/>
    <tag k="name" v="Chapman Street"/>
    <tag k="source" v="gpsdrivetrack"/>
    <tag k="surface" v="paved"/>
  </way>
  <way id="18544582" version="2" timestamp="2007-12-31T00:49:53Z" uid="4467" user="Rosscoe" changeset="484538">
    <nd ref="191221353"/>
    <nd ref="191217997"/>
    <nd ref="191218164"/>
    <nd ref="150053377"/>
    <nd ref="191219807"/>
    <nd ref="191221195"/>
    <nd ref="191218054"/>
    <tag k="created_by" v="JOSM"/>
    <tag k="highway" v="residential"/>
    <tag k="name" v="Chapman Street"/>
    <tag k="source" v="gpsdrivetrack"/>
    <tag k="surface" v="paved"/>
  </way>
  <way id="18544582" version="3" timestamp="2008-01-10T02:41:03Z" uid="4467" user="Rosscoe" changeset="589280">
    <nd ref="191221353"/>
    <nd ref="191217997"/>
    <nd ref="191218164"/>
    <nd ref="150053377"/>
    <nd ref="191219807"/>
    <nd ref="191221195"/>
    <nd ref="191218054"/>
    <tag k="created_by" v="JOSM"/>
    <tag k="highway" v="residential"/>
    <tag k="name" v="Chapman Street"/>
    <tag k="source" v="gpsdrivetrack"/>
    <tag k="surface" v="paved"/>
  </way>
  <way id="18544582" version="4" timestamp="2008-12-15T09:03:02Z" uid="4467" user="Rosscoe" changeset="389529">
    <nd ref="191221353"/>
    <nd ref="191217997"/>
    <nd ref="191218164"/>
    <nd ref="318867584"/>
    <tag k="created_by" v="JOSM"/>
    <tag k="highway" v="residential"/>
    <tag k="name" v="Chapman Street"/>
    <tag k="source" v="gpsdrivetrack"/>
    <tag k="surface" v="paved"/>
  </way>
  <way id="18544582" version="5" timestamp="2008-12-19T03:12:08Z" uid="4467" user="Rosscoe" changeset="472613">
    <nd ref="191221353"/>
    <nd ref="191217997"/>
    <nd ref="319872099"/>
    <nd ref="191218164"/>
    <nd ref="318867584"/>
    <tag k="created_by" v="JOSM"/>
    <tag k="highway" v="residential"/>
    <tag k="name" v="Chapman Street"/>
    <tag k="source" v="gpsdrivetrack"/>
    <tag k="surface" v="paved"/>
  </way>
  <way id="18544582" version="6" timestamp="2008-12-19T14:45:15Z" uid="4467" user="Rosscoe" changeset="478276">
    <nd ref="191221353"/>
    <nd ref="191217997"/>
    <nd ref="319872099"/>
    <nd ref="191218164"/>
    <nd ref="318867584"/>
    <tag k="created_by" v="Potlatch 0.10f"/>
    <tag k="highway" v="residential"/>
    <tag k="name" v="Chapman Street"/>
    <tag k="source" v="survey"/>
    <tag k="surface" v="paved"/>
  </way>
  <way id="18544582" version="7" timestamp="2009-06-18T08:25:45Z" uid="4467" user="Rosscoe" changeset="1552534">
    <nd ref="191221353"/>
    <nd ref="191217997"/>
    <nd ref="319872099"/>
    <nd ref="191218164"/>
    <nd ref="318867584"/>
    <tag k="created_by" v="Potlatch 0.10f"/>
    <tag k="highway" v="residential"/>
    <tag k="name" v="Chapman Street"/>
    <tag k="source" v="survey"/>
    <tag k="surface" v="paved"/>
  </way>
</osm>
