<?xml version='1.0' encoding='UTF-8'?>
<osm version="0.6" generator="libosmium/2.20.0">
  <way id="18546087" version="2" timestamp="2008-07-05T18:39:15Z" uid="6975" user="ulfl" changeset="398437">
    <nd ref="191236171"/>
    <nd ref="191236179"/>
    <nd ref="191236182"/>
    <nd ref="191236186"/>
    <nd ref="191236191"/>
    <nd ref="191236199"/>
    <nd ref="191236210"/>
    <nd ref="191236216"/>
    <nd ref="191236226"/>
    <nd ref="191236232"/>
    <nd ref="191236240"/>
    <nd ref="191236255"/>
    <nd ref="191236273"/>
    <nd ref="191236288"/>
    <nd ref="191236305"/>
    <nd ref="191236319"/>
    <nd ref="191236334"/>
    <nd ref="191236171"/>
    <tag k="area" v="yes"/>
    <tag k="leisure" v="sports_centre"/>
    <tag k="name" v="Club de Amigos"/>
  </way>
  <way id="18546525" version="4" timestamp="2010-07-09T03:01:04Z" uid="74617" user="JohnSmith" changeset="5170739">
    <nd ref="191240170"/>
    <nd ref="721790820"/>
    <nd ref="191217640"/>
    <nd ref="191217692"/>
    <nd ref="191218625"/>
    <nd ref="191227301"/>
    <tag k="highway" v="residential"/>
    <tag k="maxspeed" v="50"/>
    <tag k="maxspeed:source" v="default residential speed limit in Australia"/>
    <tag k="name" v="Anketell Street"/>
  </way>
  <way id="18546528" version="6" timestamp="2010-07-09T02:59:38Z" uid="74617" user="JohnSmith" changeset="5170739">
    <nd ref="191240185"/>
    <nd ref="721790822"/>
    <nd ref="191240354"/>
    <nd ref="191240319"/>
    <nd ref="191240286"/>
    <nd ref="206225294"/>
    <nd ref="191240252"/>
    <nd ref="721812061"/>
    <nd ref="191240200"/>
    <nd ref="191240237"/>
    <nd ref="721812057"/>
    <nd ref="721812056"/>
    <nd ref="191240215"/>
    <tag k="highway" v="residential"/>
    <tag k="maxspeed" v="50"/>
    <tag k="maxspeed:source" v="default residential speed limit in Australia"/>
    <tag k="name" v="Berry Street"/>
  </way>
  <way id="18546531" version="4" timestamp="2010-07-09T02:55:56Z" uid="74617" user="JohnSmith" changeset="5170739">
    <nd ref="191240237"/>
    <nd ref="721812050"/>
    <nd ref="80715116"/>
    <tag k="highway" v="residential"/>
    <tag k="maxspeed" v="50"/>
    <tag k="maxspeed:source" v="default residential speed limit in Australia"/>
    <tag k="name" v="Chandos Street"/>
  </way>
  <way id="18546533" version="6" timestamp="2010-07-09T03:00:15Z" uid="74617" user="JohnSmith" changeset="5170739">
    <nd ref="191240252"/>
    <nd ref="721798988"/>
    <nd ref="721812063"/>
    <nd ref="191240264"/>
    <tag k="highway" v="residential"/>
    <tag k="maxspeed" v="50"/>
    <tag k="maxspeed:source" v="default residential speed limit in Australia"/>
    <tag k="name" v="McPherson Street"/>
  </way>
  <way id="18546534" version="5" timestamp="2010-07-09T03:02:19Z" uid="74617" user="JohnSmith" changeset="5170739">
    <nd ref="191240286"/>
    <nd ref="721792549"/>
    <nd ref="721792541"/>
    <nd ref="191240306"/>
    <tag k="highway" v="residential"/>
    <tag k="maxspeed" v="50"/>
    <tag k="maxspeed:source" v="default residential speed limit in Australia"/>
    <tag k="name" v="Ewen Street"/>
  </way>
  <way id="18546536" version="5" timestamp="2010-07-09T02:56:39Z" uid="74617" user="JohnSmith" changeset="5170739">
    <nd ref="191240319"/>
    <nd ref="721792498"/>
    <nd ref="721792502"/>
    <nd ref="191240339"/>
    <tag k="highway" v="residential"/>
    <tag k="maxspeed" v="50"/>
    <tag k="maxspeed:source" v="default residential speed limit in Australia"/>
    <tag k="name" v="Gilbert Street"/>
  </way>
  <way id="18546540" version="5" timestamp="2010-07-09T02:54:57Z" uid="74617" user="JohnSmith" changeset="5170739">
    <nd ref="191240354"/>
    <nd ref="196207093"/>
    <nd ref="721792506"/>
    <nd ref="191240372"/>
    <tag k="highway" v="residential"/>
    <tag k="maxspeed" v="50"/>
    <tag k="maxspeed:source" v="default residential speed limit in Australia"/>
    <tag k="name" v="Deakin Street"/>
  </way>
  <way id="18546585" version="12" timestamp="2008-08-14T19:06:26Z" uid="6975" user="ulfl" changeset="264731">
    <nd ref="191240984"/>
    <nd ref="244013935"/>
    <nd ref="244013936"/>
    <nd ref="191240985"/>
    <nd ref="244013937"/>
    <nd ref="244013938"/>
    <nd ref="191240986"/>
    <nd ref="244013939"/>
    <nd ref="244013940"/>
    <nd ref="191240987"/>
    <nd ref="244013941"/>
    <nd ref="244013942"/>
    <nd ref="191240984"/>
    <tag k="amenity" v="place_of_worship"/>
    <tag k="area" v="yes"/>
    <tag k="building" v="yes"/>
    <tag k="denomination" v="catholic"/>
    <tag k="name" v="Iglesia del Salvador"/>
    <tag k="religion" v="christian"/>
  </way>
  <way id="18546857" version="54" timestamp="2010-03-27T23:26:27Z" uid="20587" user="balrog-kun" changeset="4250871">
    <nd ref="137642911"/>
    <nd ref="137159618"/>
    <nd ref="375713252"/>
    <tag k="created_by" v="Potlatch 0.7b"/>
    <tag k="highway" v="motorway"/>
    <tag k="name" v="I-15"/>
    <tag k="name_1" v="Las Vegas Freeway"/>
    <tag k="oneway" v="yes"/>
    <tag k="ref" v="I 15"/>
    <tag k="tiger:cfcc" v="A15"/>
    <tag k="tiger:county" v="Clark, NV"/>
    <tag k="tiger:name_base" v="I-15"/>
    <tag k="tiger:name_base_1" v="Las Vegas"/>
    <tag k="tiger:name_type_1" v="Fwy"/>
    <tag k="tiger:separated" v="yes"/>
    <tag k="tiger:source" v="tiger_import_dch_v0.6_20070813"/>
    <tag k="tiger:tlid" v="201964565:201929240:201964561:201964567:201964570:201964571:201986225:201986352:201882005:201975374:201986227:201987855:201987856:201987811:201987814:201987817:201987820:201987823:201987826:201987829:201987832:201987835:201987838:201987841:201987844:20198"/>
  </way>
  <way id="18546864" version="19" timestamp="2009-08-11T02:03:41Z" uid="74617" user="JohnSmith" changeset="2103999">
    <nd ref="105465862"/>
    <nd ref="191243205"/>
    <nd ref="191243207"/>
    <nd ref="191243208"/>
    <nd ref="191243213"/>
    <nd ref="191243216"/>
    <nd ref="191243217"/>
    <nd ref="191243219"/>
    <nd ref="191243305"/>
    <nd ref="191244702"/>
    <tag k="highway" v="secondary"/>
    <tag k="name" v="Noosa Parade"/>
  </way>
  <way id="18546864" version="20" timestamp="2010-06-17T04:15:02Z" uid="4467" user="Rosscoe" changeset="5005916">
    <nd ref="105465862"/>
    <nd ref="191243205"/>
    <nd ref="191243207"/>
    <nd ref="774438135"/>
    <tag k="highway" v="secondary"/>
    <tag k="name" v="Noosa Parade"/>
  </way>
</osm>
