<?xml version='1.0' encoding='UTF-8'?>
<osm version="0.6" generator="libosmium/2.20.0">
  <way id="18557063" version="4" timestamp="2010-02-14T15:42:28Z" uid="74617" user="JohnSmith" changeset="3874884">
    <nd ref="191350675"/>
    <nd ref="191352086"/>
    <nd ref="191352087"/>
    <nd ref="191352088"/>
    <nd ref="191352089"/>
    <nd ref="567256653"/>
    <tag k="highway" v="residential"/>
    <tag k="maxspeed" v="50"/>
    <tag k="name" v="Toolara Street"/>
    <tag k="source" v="north end corrected using nearmap"/>
  </way>
  <way id="18557113" version="3" timestamp="2010-02-14T15:42:39Z" uid="74617" user="JohnSmith" changeset="3874884">
    <nd ref="191352087"/>
    <nd ref="191352487"/>
    <nd ref="191352488"/>
    <nd ref="191352490"/>
    <nd ref="191352491"/>
    <tag k="highway" v="residential"/>
    <tag k="maxspeed" v="50"/>
    <tag k="name" v="Trebonne Street"/>
  </way>
  <way id="18557202" version="3" timestamp="2010-02-14T15:42:25Z" uid="74617" user="JohnSmith" changeset="3874884">
    <nd ref="191350682"/>
    <nd ref="191353222"/>
    <nd ref="191353223"/>
    <nd ref="191353224"/>
    <nd ref="339049177"/>
    <nd ref="191352491"/>
    <nd ref="191353225"/>
    <nd ref="191353226"/>
    <nd ref="191353227"/>
    <nd ref="191353229"/>
    <nd ref="191353230"/>
    <nd ref="191353231"/>
    <nd ref="191353233"/>
    <nd ref="191353234"/>
    <nd ref="191353237"/>
    <nd ref="191353239"/>
    <nd ref="191353240"/>
    <nd ref="191353241"/>
    <tag k="highway" v="tertiary"/>
    <tag k="name" v="Tilquin Street"/>
  </way>
  <way id="18557364" version="4" timestamp="2010-02-14T15:42:30Z" uid="74617" user="JohnSmith" changeset="3874884">
    <nd ref="191350685"/>
    <nd ref="191354927"/>
    <nd ref="191353797"/>
    <nd ref="191353798"/>
    <tag k="highway" v="residential"/>
    <tag k="maxspeed" v="50"/>
    <tag k="name" v="Eppalong Street"/>
  </way>
  <way id="18557394" version="4" timestamp="2010-02-14T15:42:40Z" uid="74617" user="JohnSmith" changeset="3874884">
    <nd ref="191353224"/>
    <nd ref="191354742"/>
    <nd ref="191354744"/>
    <tag k="highway" v="residential"/>
    <tag k="maxspeed" v="50"/>
    <tag k="name" v="Tylaw Place"/>
  </way>
  <way id="18557420" version="3" timestamp="2010-02-14T15:42:40Z" uid="74617" user="JohnSmith" changeset="3874884">
    <nd ref="191354927"/>
    <nd ref="191355103"/>
    <nd ref="191355104"/>
    <nd ref="191355105"/>
    <tag k="highway" v="residential"/>
    <tag k="maxspeed" v="50"/>
    <tag k="name" v="Gundara Street"/>
  </way>
  <way id="18557434" version="3" timestamp="2010-02-14T15:42:40Z" uid="74617" user="JohnSmith" changeset="3874884">
    <nd ref="191355103"/>
    <nd ref="191355259"/>
    <tag k="highway" v="residential"/>
    <tag k="maxspeed" v="50"/>
    <tag k="name" v="Garran Place"/>
  </way>
  <way id="18557443" version="3" timestamp="2010-02-14T15:42:40Z" uid="74617" user="JohnSmith" changeset="3874884">
    <nd ref="191355104"/>
    <nd ref="191355333"/>
    <tag k="highway" v="residential"/>
    <tag k="maxspeed" v="50"/>
    <tag k="name" v="Kruse Place"/>
  </way>
  <way id="18557465" version="3" timestamp="2010-02-14T15:42:40Z" uid="74617" user="JohnSmith" changeset="3874884">
    <nd ref="191353797"/>
    <nd ref="191355538"/>
    <nd ref="191355539"/>
    <tag k="highway" v="residential"/>
    <tag k="maxspeed" v="50"/>
    <tag k="name" v="Narambi Street"/>
  </way>
  <way id="18557512" version="4" timestamp="2010-02-14T15:42:39Z" uid="74617" user="JohnSmith" changeset="3874884">
    <nd ref="191353226"/>
    <nd ref="339049175"/>
    <nd ref="191355833"/>
    <nd ref="191355834"/>
    <nd ref="191355836"/>
    <tag k="highway" v="residential"/>
    <tag k="maxspeed" v="50"/>
    <tag k="name" v="Tamboura Court"/>
  </way>
  <way id="18557609" version="4" timestamp="2010-02-14T15:42:39Z" uid="74617" user="JohnSmith" changeset="3874884">
    <nd ref="191353231"/>
    <nd ref="191356425"/>
    <nd ref="191356426"/>
    <nd ref="191356427"/>
    <nd ref="191356428"/>
    <tag k="highway" v="residential"/>
    <tag k="maxspeed" v="50"/>
    <tag k="name" v="Nunkeri Place"/>
  </way>
  <way id="18557685" version="5" timestamp="2010-02-14T15:42:26Z" uid="74617" user="JohnSmith" changeset="3874884">
    <nd ref="191353227"/>
    <nd ref="191357135"/>
    <nd ref="191357138"/>
    <nd ref="339049173"/>
    <nd ref="191357139"/>
    <nd ref="191357140"/>
    <nd ref="191357142"/>
    <nd ref="191357143"/>
    <nd ref="191357144"/>
    <nd ref="339049141"/>
    <nd ref="191357145"/>
    <tag k="highway" v="residential"/>
    <tag k="maxspeed" v="50"/>
    <tag k="name" v="Trawalla Street"/>
  </way>
  <way id="18557709" version="5" timestamp="2010-02-14T15:42:27Z" uid="74617" user="JohnSmith" changeset="3874884">
    <nd ref="191357145"/>
    <nd ref="191357307"/>
    <nd ref="191353239"/>
    <tag k="highway" v="residential"/>
    <tag k="maxspeed" v="50"/>
    <tag k="name" v="Yoga Street"/>
  </way>
  <way id="18557747" version="3" timestamp="2010-02-14T15:42:40Z" uid="74617" user="JohnSmith" changeset="3874884">
    <nd ref="191357135"/>
    <nd ref="191357552"/>
    <tag k="highway" v="residential"/>
    <tag k="maxspeed" v="50"/>
    <tag k="name" v="Aminya Close"/>
  </way>
  <way id="18557763" version="5" timestamp="2010-02-14T15:42:40Z" uid="74617" user="JohnSmith" changeset="3874884">
    <nd ref="191353234"/>
    <nd ref="191357681"/>
    <nd ref="191357682"/>
    <tag k="highway" v="residential"/>
    <tag k="maxspeed" v="50"/>
    <tag k="name" v="Davander Close"/>
  </way>
  <way id="18557775" version="4" timestamp="2010-02-14T15:42:39Z" uid="74617" user="JohnSmith" changeset="3874884">
    <nd ref="191353237"/>
    <nd ref="191357767"/>
    <tag k="highway" v="residential"/>
    <tag k="maxspeed" v="50"/>
    <tag k="name" v="Delmara Close"/>
  </way>
  <way id="18557958" version="6" timestamp="2010-02-14T15:42:36Z" uid="74617" user="JohnSmith" changeset="3874884">
    <nd ref="191359143"/>
    <nd ref="264831302"/>
    <nd ref="339049229"/>
    <nd ref="264831303"/>
    <nd ref="339049233"/>
    <nd ref="191359126"/>
    <nd ref="191359127"/>
    <nd ref="191359128"/>
    <nd ref="191359129"/>
    <nd ref="191359130"/>
    <nd ref="191359132"/>
    <nd ref="191359133"/>
    <nd ref="191359134"/>
    <nd ref="191359135"/>
    <nd ref="191359136"/>
    <nd ref="191359138"/>
    <nd ref="191359139"/>
    <nd ref="191359141"/>
    <nd ref="191359143"/>
    <tag k="amenity" v="school"/>
    <tag k="name" v="Saint Peter Chanel Primary School"/>
  </way>
</osm>
