<?xml version='1.0' encoding='UTF-8'?>
<osm version="0.6" generator="libosmium/2.20.0">
  <way id="18558096" version="4" timestamp="2010-02-14T15:42:44Z" uid="74617" user="JohnSmith" changeset="3874884">
    <nd ref="129837273"/>
    <nd ref="343954427"/>
    <nd ref="191359713"/>
    <nd ref="191360168"/>
    <nd ref="191360170"/>
    <nd ref="191360171"/>
    <tag k="highway" v="residential"/>
    <tag k="maxspeed" v="50"/>
    <tag k="name" v="Kilbowie Street"/>
  </way>
  <way id="18558324" version="3" timestamp="2010-02-14T15:42:44Z" uid="74617" user="JohnSmith" changeset="3874884">
    <nd ref="191360168"/>
    <nd ref="343954086"/>
    <nd ref="191361922"/>
    <nd ref="343954457"/>
    <nd ref="343954487"/>
    <nd ref="191361927"/>
    <nd ref="191361928"/>
    <nd ref="191361930"/>
    <tag k="highway" v="residential"/>
    <tag k="maxspeed" v="50"/>
    <tag k="name" v="Maddison Place"/>
  </way>
  <way id="18558351" version="4" timestamp="2010-02-14T15:42:44Z" uid="74617" user="JohnSmith" changeset="3874884">
    <nd ref="191361927"/>
    <nd ref="191362205"/>
    <nd ref="191362206"/>
    <nd ref="191362207"/>
    <nd ref="191362208"/>
    <nd ref="191362209"/>
    <nd ref="191362210"/>
    <nd ref="191362212"/>
    <nd ref="191362213"/>
    <tag k="highway" v="residential"/>
    <tag k="maxspeed" v="50"/>
    <tag k="name" v="Montrose Place"/>
  </way>
  <way id="18558388" version="3" timestamp="2010-02-14T15:42:44Z" uid="74617" user="JohnSmith" changeset="3874884">
    <nd ref="191362206"/>
    <nd ref="343954515"/>
    <nd ref="343954529"/>
    <nd ref="191362452"/>
    <tag k="highway" v="residential"/>
    <tag k="maxspeed" v="50"/>
    <tag k="name" v="Benton Close"/>
  </way>
  <way id="18558446" version="3" timestamp="2010-02-14T15:42:45Z" uid="74617" user="JohnSmith" changeset="3874884">
    <nd ref="191361922"/>
    <nd ref="191362857"/>
    <nd ref="343954500"/>
    <nd ref="343954544"/>
    <tag k="highway" v="footway"/>
  </way>
  <way id="18558587" version="4" timestamp="2010-02-14T15:42:25Z" uid="74617" user="JohnSmith" changeset="3874884">
    <nd ref="129840297"/>
    <nd ref="191363710"/>
    <nd ref="191363712"/>
    <nd ref="191363713"/>
    <nd ref="191363717"/>
    <nd ref="191363721"/>
    <nd ref="191363723"/>
    <nd ref="346073694"/>
    <nd ref="346073701"/>
    <tag k="highway" v="residential"/>
    <tag k="maxspeed" v="50"/>
    <tag k="name" v="Yarrabee Road"/>
  </way>
  <way id="18558608" version="6" timestamp="2010-02-14T15:42:45Z" uid="74617" user="JohnSmith" changeset="3874884">
    <nd ref="191363710"/>
    <nd ref="129840294"/>
    <tag k="highway" v="residential"/>
    <tag k="maxspeed" v="50"/>
    <tag k="name" v="Yarrabee Road"/>
    <tag k="oneway" v="yes"/>
  </way>
  <way id="18558811" version="10" timestamp="2010-03-27T23:26:32Z" uid="20587" user="balrog-kun" changeset="4250871">
    <nd ref="20400296"/>
    <nd ref="14940283"/>
    <nd ref="122681247"/>
    <nd ref="17597297"/>
    <nd ref="122681252"/>
    <nd ref="122681255"/>
    <nd ref="610178522"/>
    <tag k="highway" v="secondary"/>
    <tag k="lanes" v="6"/>
    <tag k="maxspeed" v="35 mph"/>
    <tag k="name" v="Alvarado Street"/>
    <tag k="ref" v="CA 2"/>
    <tag k="source" v="survey;image;usgs_imagery"/>
    <tag k="source_ref" v="AM909_DSCR0546"/>
  </way>
</osm>
