<?xml version='1.0' encoding='UTF-8'?>
<osm version="0.6" generator="libosmium/2.20.0">
  <way id="18727800" version="17" timestamp="2010-05-01T10:55:07Z" uid="151899" user="Bikeman2000" changeset="4573595">
    <nd ref="30368968"/>
    <nd ref="715195642"/>
    <nd ref="193235611"/>
    <nd ref="368890702"/>
    <nd ref="193235613"/>
    <nd ref="473713074"/>
    <tag k="highway" v="secondary"/>
    <tag k="name" v="Hofgartenstraße"/>
    <tag k="oneway" v="yes"/>
    <tag k="ref" v="L 55"/>
  </way>
  <way id="18727800" version="18" timestamp="2010-05-02T08:45:21Z" uid="151899" user="Bikeman2000" changeset="4582130">
    <nd ref="30368968"/>
    <nd ref="716674203"/>
    <nd ref="715195642"/>
    <nd ref="716674206"/>
    <nd ref="716674209"/>
    <nd ref="193235611"/>
    <nd ref="368890702"/>
    <nd ref="716674212"/>
    <nd ref="716674216"/>
    <nd ref="193235613"/>
    <nd ref="473713074"/>
    <tag k="highway" v="secondary"/>
    <tag k="name" v="Hofgartenstraße"/>
    <tag k="oneway" v="yes"/>
    <tag k="ref" v="L 55"/>
  </way>
</osm>
