<?xml version='1.0' encoding='UTF-8'?>
<osm version="0.6" generator="libosmium/2.20.0">
  <way id="18765070" version="3" timestamp="2009-07-29T23:19:16Z" uid="36809" user="pfoten_weg_!_" changeset="1980427">
    <nd ref="157431559"/>
    <nd ref="157430806"/>
    <nd ref="157430808"/>
    <nd ref="160602231"/>
    <nd ref="163929686"/>
    <tag k="discovered_by" v="RambaZamba"/>
    <tag k="highway" v="residential"/>
    <tag k="name" v="Am Wiesenhang"/>
    <tag k="source" v="survey"/>
  </way>
  <way id="18765070" version="5" timestamp="2009-08-28T21:17:24Z" uid="36809" user="pfoten_weg_!_" changeset="2295155">
    <nd ref="157431559"/>
    <nd ref="157430806"/>
    <nd ref="157430808"/>
    <nd ref="160602231"/>
    <nd ref="163929686"/>
    <tag k="discovered_by" v="RambaZamba"/>
    <tag k="highway" v="residential"/>
    <tag k="name" v="Am Wiesenhang"/>
    <tag k="source" v="survey"/>
  </way>
  <way id="18765070" version="7" timestamp="2009-08-31T17:44:44Z" uid="36809" user="pfoten_weg_!_" changeset="2328905">
    <nd ref="157431559"/>
    <nd ref="157430806"/>
    <nd ref="157430808"/>
    <nd ref="160602231"/>
    <nd ref="163929686"/>
    <tag k="highway" v="residential"/>
    <tag k="name" v="Am Wiesenhang"/>
    <tag k="source" v="survey"/>
  </way>
  <way id="18765070" version="8" timestamp="2009-10-02T18:10:43Z" uid="86259" user="hasse_osm_korinthenkacker" changeset="2715119">
    <nd ref="157431559"/>
    <nd ref="157430806"/>
    <nd ref="157430808"/>
    <nd ref="160602231"/>
    <nd ref="163929686"/>
    <tag k="highway" v="residential"/>
    <tag k="name" v="Am Wiesenhang"/>
  </way>
  <way id="18765072" version="2" timestamp="2008-12-09T11:12:54Z" uid="18775" user="drlizau" changeset="281246">
    <nd ref="193755589"/>
    <nd ref="193755602"/>
    <nd ref="193755626"/>
    <nd ref="266134309"/>
    <nd ref="193755617"/>
    <tag k="created_by" v="JOSM"/>
    <tag k="highway" v="residential"/>
    <tag k="name" v="First Street"/>
  </way>
  <way id="18765072" version="4" timestamp="2010-07-09T07:10:06Z" uid="74617" user="JohnSmith" changeset="5171447">
    <nd ref="266134309"/>
    <nd ref="193755626"/>
    <nd ref="431503142"/>
    <nd ref="193755602"/>
    <nd ref="193755589"/>
    <tag k="highway" v="residential"/>
    <tag k="maxspeed" v="50"/>
    <tag k="maxspeed:source" v="default residential speed limit in Australia"/>
    <tag k="name" v="First Street"/>
  </way>
  <way id="18765076" version="2" timestamp="2010-07-09T07:10:26Z" uid="74617" user="JohnSmith" changeset="5171447">
    <nd ref="193755564"/>
    <nd ref="193755626"/>
    <nd ref="193755580"/>
    <tag k="highway" v="residential"/>
    <tag k="maxspeed" v="50"/>
    <tag k="maxspeed:source" v="default residential speed limit in Australia"/>
    <tag k="name" v="Fourth Street"/>
  </way>
  <way id="18765078" version="2" timestamp="2010-07-09T07:10:47Z" uid="74617" user="JohnSmith" changeset="5171447">
    <nd ref="193755723"/>
    <nd ref="193755774"/>
    <nd ref="193755817"/>
    <nd ref="193755840"/>
    <tag k="highway" v="residential"/>
    <tag k="maxspeed" v="50"/>
    <tag k="maxspeed:source" v="default residential speed limit in Australia"/>
    <tag k="name" v="Kindler Avenue"/>
  </way>
  <way id="18765083" version="4" timestamp="2008-12-09T11:12:56Z" uid="18775" user="drlizau" changeset="281246">
    <nd ref="90022044"/>
    <nd ref="252688849"/>
    <nd ref="252688848"/>
    <nd ref="252688847"/>
    <nd ref="252688846"/>
    <nd ref="193755543"/>
    <nd ref="193755862"/>
    <nd ref="193755564"/>
    <nd ref="317549734"/>
    <nd ref="193755558"/>
    <tag k="created_by" v="JOSM"/>
    <tag k="highway" v="secondary"/>
    <tag k="maxspeed" v="50"/>
    <tag k="name" v="Old Kapunda Road"/>
    <tag k="source" v="survey"/>
  </way>
  <way id="18765383" version="3" timestamp="2009-07-29T23:19:01Z" uid="36809" user="pfoten_weg_!_" changeset="1980427">
    <nd ref="158220530"/>
    <nd ref="158220531"/>
    <nd ref="158220532"/>
    <nd ref="158220533"/>
    <nd ref="158220534"/>
    <nd ref="158220535"/>
    <nd ref="160613719"/>
    <nd ref="282264926"/>
    <nd ref="158220536"/>
    <nd ref="158224948"/>
    <nd ref="158220537"/>
    <tag k="discovered_by" v="RambaZamba"/>
    <tag k="highway" v="residential"/>
    <tag k="name" v="Reismühler Straße"/>
    <tag k="source" v="survey"/>
  </way>
  <way id="18765383" version="5" timestamp="2009-08-28T21:01:06Z" uid="36809" user="pfoten_weg_!_" changeset="2295155">
    <nd ref="158220530"/>
    <nd ref="158220531"/>
    <nd ref="158220532"/>
    <nd ref="158220533"/>
    <nd ref="158220534"/>
    <nd ref="158220535"/>
    <nd ref="160613719"/>
    <nd ref="282264926"/>
    <nd ref="158220536"/>
    <nd ref="158224948"/>
    <nd ref="158220537"/>
    <tag k="discovered_by" v="RambaZamba"/>
    <tag k="highway" v="residential"/>
    <tag k="name" v="Reismühler Straße"/>
    <tag k="source" v="survey"/>
  </way>
  <way id="18765383" version="7" timestamp="2009-08-31T17:45:59Z" uid="36809" user="pfoten_weg_!_" changeset="2328905">
    <nd ref="158220530"/>
    <nd ref="158220531"/>
    <nd ref="158220532"/>
    <nd ref="158220533"/>
    <nd ref="158220534"/>
    <nd ref="158220535"/>
    <nd ref="160613719"/>
    <nd ref="282264926"/>
    <nd ref="158220536"/>
    <nd ref="158224948"/>
    <nd ref="158220537"/>
    <tag k="highway" v="residential"/>
    <tag k="name" v="Reismühler Straße"/>
    <tag k="source" v="survey"/>
  </way>
  <way id="18765383" version="8" timestamp="2009-10-12T22:05:04Z" uid="36809" user="pfoten_weg_!_" changeset="2831291">
    <nd ref="158220530"/>
    <nd ref="158220531"/>
    <nd ref="158220532"/>
    <nd ref="158220533"/>
    <nd ref="158220534"/>
    <nd ref="158220535"/>
    <nd ref="160613719"/>
    <nd ref="282264926"/>
    <nd ref="158220536"/>
    <nd ref="158224948"/>
    <nd ref="158220537"/>
    <tag k="highway" v="residential"/>
    <tag k="name" v="Reismühler Straße"/>
  </way>
</osm>
