<?xml version='1.0' encoding='UTF-8'?>
<osm version="0.6" generator="libosmium/2.20.0">
  <way id="18818294" version="6" timestamp="2009-05-21T16:44:22Z" uid="9581" user="Lobelt" changeset="1278293">
    <nd ref="194387630"/>
    <nd ref="194387631"/>
    <nd ref="409107236"/>
    <nd ref="194387632"/>
    <tag k="created_by" v="Potlatch 0.10f"/>
    <tag k="highway" v="residential"/>
    <tag k="maxspeed" v="30"/>
    <tag k="name" v="Weisenheimer Straße"/>
  </way>
  <way id="18818295" version="4" timestamp="2009-05-21T16:44:22Z" uid="9581" user="Lobelt" changeset="1278293">
    <nd ref="194387633"/>
    <nd ref="194387636"/>
    <nd ref="409107259"/>
    <nd ref="409107260"/>
    <nd ref="409107261"/>
    <nd ref="409107262"/>
    <nd ref="409107263"/>
    <nd ref="409107264"/>
    <nd ref="409107266"/>
    <nd ref="409107267"/>
    <tag k="created_by" v="JOSM"/>
    <tag k="highway" v="residential"/>
    <tag k="name" v="Waldstraße"/>
  </way>
  <way id="18818482" version="5" timestamp="2009-05-21T16:44:25Z" uid="9581" user="Lobelt" changeset="1278293">
    <nd ref="194387632"/>
    <nd ref="409107285"/>
    <nd ref="194387633"/>
    <tag k="created_by" v="Potlatch 0.10f"/>
    <tag k="highway" v="residential"/>
    <tag k="maxspeed" v="6"/>
    <tag k="name" v="Weisenheimer Straße"/>
  </way>
</osm>
