<?xml version='1.0' encoding='UTF-8'?>
<osm version="0.6" generator="libosmium/2.20.0">
  <way id="18835101" version="1" timestamp="2007-12-28T23:27:38Z" uid="3451" user="sascha_silbe" changeset="466066">
    <nd ref="31881413"/>
    <nd ref="191084308"/>
    <nd ref="194612183"/>
    <nd ref="194612330"/>
    <tag k="created_by" v="JOSM"/>
    <tag k="highway" v="residential"/>
    <tag k="source" v="survey"/>
  </way>
  <way id="18835102" version="1" timestamp="2007-12-28T23:27:38Z" uid="3451" user="sascha_silbe" changeset="466066">
    <nd ref="30471017"/>
    <nd ref="194612118"/>
    <tag k="created_by" v="JOSM"/>
    <tag k="highway" v="residential"/>
    <tag k="maxspeed" v="30"/>
    <tag k="name" v="Waldweg"/>
    <tag k="source" v="survey"/>
  </way>
  <way id="18835103" version="1" timestamp="2007-12-28T23:27:39Z" uid="3451" user="sascha_silbe" changeset="466066">
    <nd ref="194611994"/>
    <nd ref="194612153"/>
    <tag k="created_by" v="JOSM"/>
    <tag k="highway" v="residential"/>
    <tag k="name" v="Waldweg"/>
    <tag k="source" v="survey"/>
  </way>
  <way id="18835104" version="1" timestamp="2007-12-28T23:27:39Z" uid="3451" user="sascha_silbe" changeset="466066">
    <nd ref="30471017"/>
    <nd ref="30471028"/>
    <nd ref="30471029"/>
    <nd ref="30471031"/>
    <nd ref="30471032"/>
    <nd ref="30471034"/>
    <tag k="created_by" v="JOSM"/>
    <tag k="highway" v="secondary"/>
    <tag k="name" v="Kinzenbacher Straße"/>
    <tag k="ref" v="L3045"/>
  </way>
  <way id="18835105" version="1" timestamp="2007-12-28T23:27:39Z" uid="3451" user="sascha_silbe" changeset="466066">
    <nd ref="194612118"/>
    <nd ref="194612298"/>
    <tag k="created_by" v="JOSM"/>
    <tag k="highway" v="residential"/>
    <tag k="name" v="Waldweg"/>
    <tag k="source" v="survey"/>
  </way>
  <way id="18835107" version="1" timestamp="2007-12-28T23:27:39Z" uid="3451" user="sascha_silbe" changeset="466066">
    <nd ref="194612344"/>
    <nd ref="194611825"/>
    <nd ref="194611973"/>
    <nd ref="194612122"/>
    <tag k="created_by" v="JOSM"/>
    <tag k="highway" v="residential"/>
    <tag k="name" v="Kantstraße"/>
    <tag k="source" v="survey"/>
  </way>
  <way id="18835108" version="1" timestamp="2007-12-28T23:27:40Z" uid="3451" user="sascha_silbe" changeset="466066">
    <nd ref="194612022"/>
    <nd ref="194612233"/>
    <nd ref="194612346"/>
    <nd ref="194611937"/>
    <nd ref="194611941"/>
    <nd ref="194612265"/>
    <nd ref="194612104"/>
    <nd ref="194612280"/>
    <nd ref="194611813"/>
    <nd ref="194611963"/>
    <nd ref="194611968"/>
    <nd ref="194612138"/>
    <tag k="created_by" v="JOSM"/>
    <tag k="highway" v="residential"/>
    <tag k="name" v="Heckwiese"/>
    <tag k="source" v="survey"/>
  </way>
  <way id="18835109" version="1" timestamp="2007-12-28T23:27:41Z" uid="3451" user="sascha_silbe" changeset="466066">
    <nd ref="194612222"/>
    <nd ref="194612336"/>
    <nd ref="194611847"/>
    <nd ref="194611982"/>
    <tag k="created_by" v="JOSM"/>
    <tag k="highway" v="residential"/>
    <tag k="name" v="Kastanienweg"/>
    <tag k="source" v="survey"/>
  </way>
  <way id="18835110" version="1" timestamp="2007-12-28T23:27:41Z" uid="3451" user="sascha_silbe" changeset="466066">
    <nd ref="194612307"/>
    <nd ref="194611831"/>
    <tag k="created_by" v="JOSM"/>
    <tag k="highway" v="residential"/>
    <tag k="maxspeed" v="30"/>
    <tag k="name" v="Hohlweg"/>
    <tag k="source" v="survey"/>
  </way>
  <way id="18835111" version="1" timestamp="2007-12-28T23:27:41Z" uid="3451" user="sascha_silbe" changeset="466066">
    <nd ref="194612291"/>
    <nd ref="194611808"/>
    <nd ref="194611954"/>
    <nd ref="194612113"/>
    <nd ref="194612275"/>
    <nd ref="194611905"/>
    <nd ref="194612291"/>
    <tag k="area" v="yes"/>
    <tag k="created_by" v="JOSM"/>
    <tag k="highway" v="residential"/>
    <tag k="name" v="Bettengraben"/>
    <tag k="source" v="survey"/>
  </way>
  <way id="18835112" version="1" timestamp="2007-12-28T23:27:42Z" uid="3451" user="sascha_silbe" changeset="466066">
    <nd ref="194611876"/>
    <nd ref="194612002"/>
    <nd ref="194612128"/>
    <nd ref="194612176"/>
    <nd ref="194612316"/>
    <tag k="created_by" v="JOSM"/>
    <tag k="highway" v="residential"/>
    <tag k="maxspeed" v="30"/>
    <tag k="name" v="Bahnhofstraße"/>
    <tag k="source" v="survey"/>
  </way>
  <way id="18835113" version="1" timestamp="2007-12-28T23:27:42Z" uid="3451" user="sascha_silbe" changeset="466066">
    <nd ref="194612212"/>
    <nd ref="194612341"/>
    <nd ref="194611887"/>
    <nd ref="194612042"/>
    <nd ref="194612057"/>
    <nd ref="194611867"/>
    <nd ref="194612265"/>
    <tag k="created_by" v="JOSM"/>
    <tag k="highway" v="residential"/>
    <tag k="name" v="Klingelgärten"/>
    <tag k="source" v="survey"/>
  </way>
  <way id="18835114" version="1" timestamp="2007-12-28T23:27:42Z" uid="3451" user="sascha_silbe" changeset="466066">
    <nd ref="194611831"/>
    <nd ref="194612159"/>
    <nd ref="194612325"/>
    <tag k="created_by" v="JOSM"/>
    <tag k="highway" v="residential"/>
    <tag k="maxspeed" v="30"/>
    <tag k="name" v="Dreihäuser Platz"/>
    <tag k="source" v="survey"/>
  </way>
  <way id="18835115" version="1" timestamp="2007-12-28T23:27:43Z" uid="3451" user="sascha_silbe" changeset="466066">
    <nd ref="194611835"/>
    <nd ref="194611978"/>
    <tag k="created_by" v="JOSM"/>
    <tag k="highway" v="residential"/>
    <tag k="name" v="Franz-Liszt-Straße"/>
    <tag k="source" v="survey"/>
  </way>
  <way id="18835116" version="1" timestamp="2007-12-28T23:27:43Z" uid="3451" user="sascha_silbe" changeset="466066">
    <nd ref="30471144"/>
    <nd ref="30471148"/>
    <nd ref="30471151"/>
    <nd ref="30471155"/>
    <nd ref="30471158"/>
    <nd ref="30471160"/>
    <nd ref="30471163"/>
    <nd ref="30471166"/>
    <nd ref="30471169"/>
    <nd ref="30471172"/>
    <nd ref="30471175"/>
    <nd ref="30471178"/>
    <tag k="created_by" v="JOSM"/>
    <tag k="highway" v="secondary"/>
    <tag k="maxspeed" v="30"/>
  </way>
  <way id="18835118" version="1" timestamp="2007-12-28T23:27:43Z" uid="3451" user="sascha_silbe" changeset="466066">
    <nd ref="194611843"/>
    <nd ref="194612034"/>
    <nd ref="194612227"/>
    <nd ref="194612340"/>
    <nd ref="194611860"/>
    <nd ref="194612005"/>
    <nd ref="194612173"/>
    <nd ref="194612320"/>
    <nd ref="194611982"/>
    <tag k="created_by" v="JOSM"/>
    <tag k="highway" v="residential"/>
    <tag k="name" v="Am Flurscheid"/>
    <tag k="source" v="survey"/>
  </way>
  <way id="18835119" version="1" timestamp="2007-12-28T23:27:43Z" uid="3451" user="sascha_silbe" changeset="466066">
    <nd ref="194612183"/>
    <nd ref="194611840"/>
    <nd ref="194612183"/>
    <nd ref="194611991"/>
    <nd ref="194612313"/>
    <tag k="created_by" v="JOSM"/>
    <tag k="highway" v="residential"/>
    <tag k="name" v="Apfelberg"/>
    <tag k="source" v="survey"/>
  </way>
  <way id="18835120" version="1" timestamp="2007-12-28T23:27:44Z" uid="3451" user="sascha_silbe" changeset="466066">
    <nd ref="194612153"/>
    <nd ref="194611829"/>
    <nd ref="194611976"/>
    <nd ref="194612134"/>
    <nd ref="194612296"/>
    <nd ref="194611802"/>
    <nd ref="194611958"/>
    <nd ref="194612064"/>
    <nd ref="194612256"/>
    <tag k="created_by" v="JOSM"/>
    <tag k="highway" v="service"/>
    <tag k="maxspeed" v="30"/>
    <tag k="name" v="Waldweg"/>
    <tag k="source" v="survey"/>
  </way>
  <way id="18835123" version="1" timestamp="2007-12-28T23:27:44Z" uid="3451" user="sascha_silbe" changeset="466066">
    <nd ref="194611819"/>
    <nd ref="194611785"/>
    <nd ref="194612046"/>
    <nd ref="194612239"/>
    <nd ref="194612344"/>
    <nd ref="194612330"/>
    <nd ref="194611881"/>
    <nd ref="194612016"/>
    <tag k="created_by" v="JOSM"/>
    <tag k="highway" v="residential"/>
    <tag k="name" v="Lessingstraße"/>
    <tag k="source" v="survey"/>
  </way>
  <way id="18835124" version="1" timestamp="2007-12-28T23:27:44Z" uid="3451" user="sascha_silbe" changeset="466066">
    <nd ref="194612144"/>
    <nd ref="30471014"/>
    <nd ref="30471015"/>
    <nd ref="30471017"/>
    <tag k="created_by" v="JOSM"/>
    <tag k="highway" v="secondary"/>
    <tag k="maxspeed" v="30"/>
    <tag k="name" v="Kinzenbacher Straße"/>
    <tag k="ref" v="L3045"/>
  </way>
  <way id="18835125" version="1" timestamp="2007-12-28T23:27:45Z" uid="3451" user="sascha_silbe" changeset="466066">
    <nd ref="194612287"/>
    <nd ref="194611797"/>
    <nd ref="194611947"/>
    <nd ref="194612053"/>
    <nd ref="194612348"/>
    <nd ref="194611973"/>
    <nd ref="194611895"/>
    <nd ref="194612028"/>
    <tag k="created_by" v="JOSM"/>
    <tag k="highway" v="residential"/>
    <tag k="name" v="Kegelbann"/>
    <tag k="source" v="survey"/>
  </way>
  <way id="18835128" version="1" timestamp="2007-12-28T23:27:45Z" uid="3451" user="sascha_silbe" changeset="466066">
    <nd ref="194612138"/>
    <nd ref="194612307"/>
    <tag k="created_by" v="JOSM"/>
    <tag k="highway" v="residential"/>
    <tag k="name" v="Hohlweg"/>
    <tag k="source" v="survey"/>
  </way>
  <way id="18835129" version="1" timestamp="2007-12-28T23:27:45Z" uid="3451" user="sascha_silbe" changeset="466066">
    <nd ref="194611999"/>
    <nd ref="194612149"/>
    <nd ref="194611835"/>
    <tag k="created_by" v="JOSM"/>
    <tag k="highway" v="residential"/>
    <tag k="name" v="Storchenweg"/>
    <tag k="source" v="survey"/>
  </way>
  <way id="18835131" version="1" timestamp="2007-12-28T23:27:46Z" uid="3451" user="sascha_silbe" changeset="466066">
    <nd ref="194611791"/>
    <nd ref="194612341"/>
    <nd ref="194611963"/>
    <tag k="created_by" v="JOSM"/>
    <tag k="highway" v="residential"/>
    <tag k="name" v="Am Wiesacker"/>
    <tag k="source" v="survey"/>
  </way>
  <way id="18835133" version="1" timestamp="2007-12-28T23:27:46Z" uid="3451" user="sascha_silbe" changeset="466066">
    <nd ref="194612128"/>
    <nd ref="194612291"/>
    <tag k="created_by" v="JOSM"/>
    <tag k="highway" v="residential"/>
    <tag k="name" v="Bettengraben"/>
    <tag k="noexit" v="yes"/>
    <tag k="source" v="survey"/>
  </way>
  <way id="18835135" version="1" timestamp="2007-12-28T23:27:46Z" uid="3451" user="sascha_silbe" changeset="466066">
    <nd ref="194612048"/>
    <nd ref="194612242"/>
    <nd ref="194612338"/>
    <nd ref="194611876"/>
    <tag k="created_by" v="JOSM"/>
    <tag k="highway" v="residential"/>
    <tag k="name" v="Bahnhofstraße"/>
    <tag k="source" v="survey"/>
  </way>
  <way id="18835136" version="1" timestamp="2007-12-28T23:27:46Z" uid="3451" user="sascha_silbe" changeset="466066">
    <nd ref="194612298"/>
    <nd ref="194611843"/>
    <nd ref="194611994"/>
    <tag k="created_by" v="JOSM"/>
    <tag k="highway" v="residential"/>
    <tag k="maxspeed" v="30"/>
    <tag k="name" v="Waldweg"/>
    <tag k="source" v="survey"/>
  </way>
  <way id="18835137" version="1" timestamp="2007-12-28T23:27:49Z" uid="3451" user="sascha_silbe" changeset="466066">
    <nd ref="194611831"/>
    <nd ref="194612212"/>
    <tag k="created_by" v="JOSM"/>
    <tag k="highway" v="residential"/>
    <tag k="maxspeed" v="30"/>
    <tag k="name" v="Klingelgärten"/>
    <tag k="source" v="survey"/>
  </way>
  <way id="18835139" version="1" timestamp="2007-12-28T23:27:49Z" uid="3451" user="sascha_silbe" changeset="466066">
    <nd ref="194612222"/>
    <nd ref="194611839"/>
    <tag k="created_by" v="JOSM"/>
    <tag k="highway" v="residential"/>
    <tag k="name" v="Ostpreußenstraße"/>
    <tag k="source" v="survey"/>
  </way>
  <way id="18835141" version="1" timestamp="2007-12-28T23:27:49Z" uid="3451" user="sascha_silbe" changeset="466066">
    <nd ref="194612325"/>
    <nd ref="194611854"/>
    <tag k="created_by" v="JOSM"/>
    <tag k="highway" v="residential"/>
    <tag k="name" v="Dreihäuser Platz"/>
    <tag k="source" v="survey"/>
  </way>
  <way id="18835143" version="1" timestamp="2007-12-28T23:27:49Z" uid="3451" user="sascha_silbe" changeset="466066">
    <nd ref="30471178"/>
    <nd ref="30471180"/>
    <nd ref="30471183"/>
    <tag k="created_by" v="JOSM"/>
    <tag k="highway" v="secondary"/>
  </way>
  <way id="18835144" version="1" timestamp="2007-12-28T23:27:50Z" uid="3451" user="sascha_silbe" changeset="466066">
    <nd ref="30471003"/>
    <nd ref="194611837"/>
    <nd ref="194611988"/>
    <nd ref="194612166"/>
    <nd ref="194612327"/>
    <nd ref="194611867"/>
    <tag k="created_by" v="JOSM"/>
    <tag k="highway" v="residential"/>
    <tag k="name" v="Am Bach"/>
    <tag k="source" v="survey"/>
  </way>
  <way id="18835145" version="1" timestamp="2007-12-28T23:27:50Z" uid="3451" user="sascha_silbe" changeset="466066">
    <nd ref="194612302"/>
    <nd ref="194611819"/>
    <nd ref="194611966"/>
    <nd ref="194612287"/>
    <nd ref="194612106"/>
    <nd ref="194612270"/>
    <tag k="created_by" v="JOSM"/>
    <tag k="highway" v="residential"/>
    <tag k="name" v="Heinestraße"/>
    <tag k="source" v="survey"/>
  </way>
  <way id="18835146" version="1" timestamp="2007-12-28T23:27:50Z" uid="3451" user="sascha_silbe" changeset="466066">
    <nd ref="194611839"/>
    <nd ref="194612350"/>
    <tag k="created_by" v="JOSM"/>
    <tag k="highway" v="residential"/>
    <tag k="source" v="survey"/>
  </way>
  <way id="18835148" version="1" timestamp="2007-12-28T23:27:51Z" uid="3451" user="sascha_silbe" changeset="466066">
    <nd ref="194612350"/>
    <nd ref="194612270"/>
    <nd ref="194612122"/>
    <nd ref="194612354"/>
    <tag k="created_by" v="JOSM"/>
    <tag k="highway" v="residential"/>
    <tag k="name" v="Büchnerstraße"/>
    <tag k="source" v="survey"/>
  </way>
  <way id="18835414" version="3" timestamp="2008-06-12T20:43:04Z" uid="36803" user="Lords" changeset="144321">
    <nd ref="194617382"/>
    <nd ref="26942932"/>
    <nd ref="26942933"/>
    <nd ref="26942934"/>
    <nd ref="26942935"/>
    <nd ref="26942936"/>
    <nd ref="26942937"/>
    <nd ref="26942938"/>
    <nd ref="26942939"/>
    <nd ref="269975823"/>
    <tag k="created_by" v="fixbot"/>
    <tag k="highway" v="motorway"/>
    <tag k="oneway" v="yes"/>
    <tag k="ref" v="A14"/>
  </way>
</osm>
