<?xml version='1.0' encoding='UTF-8'?>
<osm version="0.6" generator="libosmium/2.20.0">
  <way id="1885328" version="2" timestamp="2008-02-18T23:13:45Z" uid="7617" user="Franc" changeset="152846">
    <nd ref="8965668"/>
    <nd ref="15451391"/>
    <nd ref="8109366"/>
    <tag k="abutters" v="mixed"/>
    <tag k="created_by" v="JOSM"/>
    <tag k="highway" v="unclassified"/>
    <tag k="image" v="80n:dsc04038.jpg"/>
    <tag k="name" v="Murray Street"/>
  </way>
  <way id="1885328" version="3" timestamp="2008-05-04T22:18:30Z" uid="30201" user="rrankin" changeset="336241">
    <nd ref="26625995"/>
    <nd ref="15451391"/>
    <nd ref="8109366"/>
    <tag k="abutters" v="mixed"/>
    <tag k="created_by" v="JOSM"/>
    <tag k="highway" v="unclassified"/>
    <tag k="image" v="80n:dsc04038.jpg"/>
    <tag k="name" v="Murray Street"/>
  </way>
  <way id="1885328" version="5" timestamp="2009-12-24T12:35:27Z" uid="30201" user="rrankin" changeset="3441832">
    <nd ref="26625995"/>
    <nd ref="485519537"/>
    <nd ref="15451391"/>
    <nd ref="8109366"/>
    <tag k="abutters" v="mixed"/>
    <tag k="highway" v="unclassified"/>
    <tag k="image" v="80n:dsc04038.jpg"/>
    <tag k="name" v="Murray Street"/>
  </way>
  <way id="1885328" version="6" timestamp="2009-12-25T00:04:36Z" uid="30201" user="rrankin" changeset="3445648">
    <nd ref="26625995"/>
    <nd ref="485519537"/>
    <nd ref="15451391"/>
    <nd ref="599108541"/>
    <nd ref="8109366"/>
    <tag k="abutters" v="mixed"/>
    <tag k="highway" v="unclassified"/>
    <tag k="image" v="80n:dsc04038.jpg"/>
    <tag k="name" v="Murray Street"/>
  </way>
  <way id="1885328" version="7" timestamp="2010-01-06T00:57:53Z" uid="30201" user="rrankin" changeset="3550442">
    <nd ref="26625995"/>
    <nd ref="485519537"/>
    <nd ref="15451391"/>
    <nd ref="599108541"/>
    <nd ref="8109366"/>
    <tag k="highway" v="unclassified"/>
    <tag k="image" v="80n:dsc04038.jpg"/>
    <tag k="name" v="Murray Street"/>
  </way>
  <way id="1885329" version="2" timestamp="2008-04-16T06:15:02Z" uid="7617" user="Franc" changeset="162872">
    <nd ref="15451392"/>
    <nd ref="20958882"/>
    <nd ref="20958886"/>
    <nd ref="15451393"/>
    <nd ref="20958858"/>
    <nd ref="8109366"/>
    <nd ref="12501641"/>
    <nd ref="26627302"/>
    <nd ref="8109367"/>
    <nd ref="12501943"/>
    <tag k="created_by" v="JOSM"/>
    <tag k="highway" v="unclassified"/>
    <tag k="image" v="80n:dsc04039.jpg"/>
    <tag k="layer" v="0"/>
    <tag k="name" v="Pyrmont Street"/>
    <tag k="oneway" v="yes"/>
  </way>
  <way id="1885329" version="3" timestamp="2008-09-13T13:46:34Z" uid="7617" user="Franc" changeset="623097">
    <nd ref="15451392"/>
    <nd ref="20958882"/>
    <nd ref="20958886"/>
    <nd ref="15451393"/>
    <nd ref="20958858"/>
    <nd ref="8109366"/>
    <nd ref="296370405"/>
    <nd ref="12501641"/>
    <tag k="created_by" v="JOSM"/>
    <tag k="highway" v="unclassified"/>
    <tag k="image" v="80n:dsc04039.jpg"/>
    <tag k="layer" v="0"/>
    <tag k="name" v="Pyrmont Street"/>
    <tag k="oneway" v="yes"/>
  </way>
  <way id="1885329" version="5" timestamp="2009-12-24T12:35:27Z" uid="30201" user="rrankin" changeset="3441832">
    <nd ref="15451392"/>
    <nd ref="257878864"/>
    <nd ref="20958882"/>
    <nd ref="20958886"/>
    <nd ref="15451393"/>
    <nd ref="20958858"/>
    <nd ref="8109366"/>
    <nd ref="296370405"/>
    <nd ref="12501641"/>
    <tag k="highway" v="unclassified"/>
    <tag k="image" v="80n:dsc04039.jpg"/>
    <tag k="layer" v="0"/>
    <tag k="name" v="Pyrmont Street"/>
    <tag k="oneway" v="yes"/>
  </way>
  <way id="1885329" version="6" timestamp="2009-12-25T00:04:36Z" uid="30201" user="rrankin" changeset="3445648">
    <nd ref="15451392"/>
    <nd ref="257878864"/>
    <nd ref="20958882"/>
    <nd ref="20958886"/>
    <nd ref="15451393"/>
    <nd ref="8109366"/>
    <nd ref="296370405"/>
    <nd ref="12501641"/>
    <tag k="highway" v="unclassified"/>
    <tag k="image" v="80n:dsc04039.jpg"/>
    <tag k="layer" v="0"/>
    <tag k="name" v="Pyrmont Street"/>
    <tag k="oneway" v="yes"/>
  </way>
  <way id="1885329" version="7" timestamp="2010-04-18T14:08:02Z" uid="7617" user="Franc" changeset="4458238">
    <nd ref="15451392"/>
    <nd ref="257878864"/>
    <nd ref="20958882"/>
    <nd ref="700985645"/>
    <nd ref="20958886"/>
    <nd ref="15451393"/>
    <nd ref="8109366"/>
    <nd ref="296370405"/>
    <nd ref="12501641"/>
    <tag k="highway" v="unclassified"/>
    <tag k="image" v="80n:dsc04039.jpg"/>
    <tag k="layer" v="0"/>
    <tag k="name" v="Pyrmont Street"/>
    <tag k="oneway" v="yes"/>
  </way>
  <way id="1885333" version="2" timestamp="2007-10-24T10:59:01Z" uid="7617" user="Franc" changeset="301482">
    <nd ref="11978578"/>
    <nd ref="11981187"/>
    <nd ref="11978614"/>
    <nd ref="11982074"/>
    <nd ref="12501988"/>
    <nd ref="11982073"/>
    <nd ref="20959256"/>
    <nd ref="8109369"/>
    <tag k="created_by" v="JOSM"/>
    <tag k="highway" v="secondary"/>
    <tag k="image" v="80n:dsc04043.jpg"/>
    <tag k="name" v="William Henry Street"/>
  </way>
  <way id="1885333" version="4" timestamp="2011-05-04T10:25:46Z" uid="7617" user="Franc" changeset="8047572">
    <nd ref="11978578"/>
    <nd ref="11978614"/>
    <nd ref="11982074"/>
    <nd ref="12501988"/>
    <nd ref="11982073"/>
    <nd ref="20959256"/>
    <nd ref="8109369"/>
    <tag k="highway" v="secondary"/>
    <tag k="image" v="80n:dsc04043.jpg"/>
    <tag k="name" v="William Henry Street"/>
  </way>
  <way id="1885334" version="2" timestamp="2007-10-16T09:24:11Z" uid="7617" user="Franc" changeset="200414">
    <nd ref="8965918"/>
    <nd ref="8965922"/>
    <nd ref="26635708"/>
    <nd ref="26635702"/>
    <nd ref="8965926"/>
    <nd ref="26635705"/>
    <nd ref="26635701"/>
    <nd ref="75014895"/>
    <nd ref="8965927"/>
    <nd ref="26635710"/>
    <nd ref="75014833"/>
    <nd ref="8109369"/>
    <tag k="created_by" v="JOSM"/>
    <tag k="highway" v="secondary"/>
    <tag k="name" v="William Henry Street"/>
    <tag k="oneway" v="yes"/>
  </way>
  <way id="1885334" version="4" timestamp="2008-05-04T09:45:40Z" uid="30201" user="rrankin" changeset="331347"/>
</osm>
