<?xml version='1.0' encoding='UTF-8'?>
<osm version="0.6" generator="libosmium/2.20.0">
  <way id="18940172" version="6" timestamp="2009-09-04T21:15:04Z" uid="36809" user="pfoten_weg_!_" changeset="2374562">
    <nd ref="195989395"/>
    <nd ref="195989397"/>
    <nd ref="195989398"/>
    <nd ref="195989399"/>
    <nd ref="195989395"/>
    <tag k="building" v="yes"/>
    <tag k="name" v="Gebäude A"/>
    <tag k="operator" v="Ludwig-Maximilians-Universität, Fakultät für Chemie und Pharmazie"/>
  </way>
  <way id="18940245" version="4" timestamp="2009-09-04T21:16:40Z" uid="36809" user="pfoten_weg_!_" changeset="2374562">
    <nd ref="195990431"/>
    <nd ref="195990433"/>
    <nd ref="195990434"/>
    <nd ref="195990435"/>
    <nd ref="195990436"/>
    <nd ref="195990438"/>
    <nd ref="195990431"/>
    <tag k="building" v="yes"/>
    <tag k="name" v="ZNP"/>
    <tag k="operator" v="Ludwig-Maximilians-Universität, Zentrum für Neuropathologie und Prionenforschung"/>
  </way>
  <way id="18940337" version="3" timestamp="2008-08-06T18:48:16Z" uid="43863" user="Rundling" changeset="109919">
    <nd ref="36289786"/>
    <nd ref="195991812"/>
    <nd ref="195991815"/>
    <tag k="created_by" v="Potlatch 0.10b"/>
    <tag k="highway" v="secondary"/>
    <tag k="maxspeed" v="50"/>
    <tag k="nat_ref" v="L 262"/>
    <tag k="ref" v="L 262"/>
  </way>
  <way id="18940339" version="5" timestamp="2008-08-06T18:41:57Z" uid="43863" user="Rundling" changeset="109919">
    <nd ref="205488279"/>
    <nd ref="205488278"/>
    <nd ref="205488277"/>
    <nd ref="205488276"/>
    <tag k="created_by" v="Potlatch 0.10b"/>
    <tag k="highway" v="secondary"/>
    <tag k="ref" v="L 261"/>
  </way>
  <way id="18940340" version="3" timestamp="2009-08-26T09:59:34Z" uid="36809" user="pfoten_weg_!_" changeset="2265457">
    <nd ref="195992213"/>
    <nd ref="195992215"/>
    <nd ref="195992216"/>
    <nd ref="195992217"/>
    <nd ref="195992213"/>
    <tag k="building" v="yes"/>
  </way>
</osm>
