<?xml version='1.0' encoding='UTF-8'?>
<osm version="0.6" generator="libosmium/2.20.0">
  <way id="18951759" version="6" timestamp="2009-02-14T01:20:08Z" uid="36809" user="pfoten_weg_!_" changeset="423851">
    <nd ref="471941"/>
    <nd ref="471940"/>
    <tag k="created_by" v="RambaZamba"/>
    <tag k="highway" v="trunk"/>
    <tag k="lanes" v="4"/>
    <tag k="name" v="Brudermühlstraße"/>
    <tag k="oneway" v="yes"/>
    <tag k="ref" v="B 2 R;B 11"/>
    <tag k="source" v="survey"/>
  </way>
  <way id="18951760" version="7" timestamp="2009-02-14T01:20:09Z" uid="36809" user="pfoten_weg_!_" changeset="423851">
    <nd ref="1956218"/>
    <nd ref="147058"/>
    <tag k="bridge" v="yes"/>
    <tag k="created_by" v="RambaZamba"/>
    <tag k="highway" v="trunk"/>
    <tag k="lanes" v="4"/>
    <tag k="layer" v="1"/>
    <tag k="name" v="Brudermühlbrücke"/>
    <tag k="oneway" v="yes"/>
    <tag k="osmarender:renderName" v="no"/>
    <tag k="ref" v="B 2 R;B 11"/>
    <tag k="source" v="survey"/>
    <tag k="svg:font-size" v="0"/>
  </way>
  <way id="18951764" version="4" timestamp="2010-07-09T02:43:32Z" uid="74617" user="JohnSmith" changeset="5170713">
    <nd ref="196155333"/>
    <nd ref="196156816"/>
    <tag k="highway" v="residential"/>
    <tag k="maxspeed" v="50"/>
    <tag k="maxspeed:source" v="default residential speed limit in Australia"/>
    <tag k="name" v="Yanigin Drive"/>
  </way>
</osm>
