<?xml version='1.0' encoding='UTF-8'?>
<osm version="0.6" generator="libosmium/2.20.0">
  <way id="18967237" version="4" timestamp="2009-12-30T12:52:08Z" uid="20587" user="balrog-kun" changeset="3489553">
    <nd ref="196363899"/>
    <nd ref="196363903"/>
    <nd ref="196363907"/>
    <nd ref="196363912"/>
    <nd ref="498739325"/>
    <nd ref="196363927"/>
    <nd ref="196363917"/>
    <nd ref="196363931"/>
    <nd ref="498739327"/>
    <nd ref="196363921"/>
    <nd ref="497509982"/>
    <nd ref="179870732"/>
    <nd ref="196363899"/>
    <tag k="name" v="35"/>
    <tag k="railway" v="tram"/>
    <tag k="source" v="survey"/>
  </way>
  <way id="18967237" version="5" timestamp="2010-01-12T10:40:01Z" uid="20587" user="balrog-kun" changeset="3602063">
    <nd ref="196363899"/>
    <nd ref="196363903"/>
    <nd ref="612073100"/>
    <nd ref="196363907"/>
    <nd ref="196363912"/>
    <nd ref="498739325"/>
    <nd ref="196363927"/>
    <nd ref="612073099"/>
    <nd ref="196363917"/>
    <nd ref="196363931"/>
    <nd ref="498739327"/>
    <nd ref="196363921"/>
    <nd ref="497509982"/>
    <nd ref="179870732"/>
    <nd ref="612073104"/>
    <nd ref="196363899"/>
    <tag k="name" v="35"/>
    <tag k="railway" v="tram"/>
    <tag k="source" v="survey"/>
  </way>
  <way id="18967239" version="3" timestamp="2008-03-28T22:33:50Z" uid="20587" user="balrog-kun" changeset="415330"/>
  <way id="18967241" version="2" timestamp="2008-03-28T22:33:47Z" uid="20587" user="balrog-kun" changeset="415330">
    <nd ref="86681120"/>
    <nd ref="254508172"/>
    <nd ref="86683348"/>
    <nd ref="254508178"/>
    <nd ref="38251387"/>
    <tag k="created_by" v="JOSM"/>
    <tag k="highway" v="primary"/>
    <tag k="name" v="Juliusza Słowackiego"/>
    <tag k="oneway" v="yes"/>
  </way>
  <way id="18967241" version="6" timestamp="2009-12-30T12:51:54Z" uid="20587" user="balrog-kun" changeset="3489553">
    <nd ref="86681117"/>
    <nd ref="86681120"/>
    <nd ref="497114207"/>
    <nd ref="497114179"/>
    <nd ref="497682520"/>
    <nd ref="501567193"/>
    <nd ref="497682514"/>
    <nd ref="254508172"/>
    <nd ref="86683348"/>
    <tag k="highway" v="tertiary"/>
    <tag k="name" v="Juliusza Słowackiego"/>
  </way>
  <way id="18967241" version="7" timestamp="2010-01-12T09:34:30Z" uid="20587" user="balrog-kun" changeset="3601699">
    <nd ref="86681117"/>
    <nd ref="86681120"/>
    <nd ref="497510017"/>
    <nd ref="497510038"/>
    <nd ref="612046583"/>
    <nd ref="497114179"/>
    <nd ref="612046582"/>
    <nd ref="497682520"/>
    <nd ref="501567193"/>
    <nd ref="612046595"/>
    <nd ref="497682514"/>
    <nd ref="612046574"/>
    <nd ref="254508172"/>
    <nd ref="86683348"/>
    <tag k="highway" v="tertiary"/>
    <tag k="name" v="Juliusza Słowackiego"/>
  </way>
  <way id="18967244" version="2" timestamp="2008-03-28T23:10:28Z" uid="20587" user="balrog-kun" changeset="415330">
    <nd ref="196363965"/>
    <nd ref="196363967"/>
    <tag k="created_by" v="JOSM"/>
    <tag k="highway" v="residential"/>
    <tag k="name" v="Drohicka"/>
    <tag k="source" v="survey"/>
  </way>
  <way id="18967244" version="3" timestamp="2009-12-30T12:51:59Z" uid="20587" user="balrog-kun" changeset="3489553">
    <nd ref="196363965"/>
    <nd ref="601444726"/>
    <nd ref="196363967"/>
    <tag k="highway" v="residential"/>
    <tag k="name" v="Drohicka"/>
    <tag k="source" v="survey"/>
  </way>
  <way id="18967245" version="2" timestamp="2008-03-28T23:10:28Z" uid="20587" user="balrog-kun" changeset="415330">
    <nd ref="196363967"/>
    <nd ref="196363975"/>
    <nd ref="196363971"/>
    <nd ref="196363981"/>
    <nd ref="196363937"/>
    <tag k="created_by" v="JOSM"/>
    <tag k="highway" v="residential"/>
    <tag k="name" v="Mścisławska"/>
    <tag k="source" v="survey"/>
  </way>
  <way id="18967248" version="2" timestamp="2008-03-28T23:10:27Z" uid="20587" user="balrog-kun" changeset="415330">
    <nd ref="196363981"/>
    <nd ref="196364003"/>
    <tag k="created_by" v="JOSM"/>
    <tag k="highway" v="residential"/>
    <tag k="name" v="Bytomska"/>
    <tag k="source" v="survey"/>
  </way>
  <way id="18967251" version="3" timestamp="2009-12-30T12:51:51Z" uid="20587" user="balrog-kun" changeset="3489553">
    <nd ref="196363991"/>
    <nd ref="196364026"/>
    <nd ref="196364028"/>
    <nd ref="196364031"/>
    <nd ref="196364036"/>
    <nd ref="196364041"/>
    <nd ref="196364046"/>
    <nd ref="601444871"/>
    <nd ref="601444870"/>
    <nd ref="196364053"/>
    <tag k="highway" v="residential"/>
    <tag k="maxspeed" v="50"/>
    <tag k="name" v="Kazimierza Promyka"/>
    <tag k="note" v="TODO: oneway"/>
    <tag k="source" v="survey"/>
  </way>
  <way id="18967253" version="2" timestamp="2008-03-28T23:10:27Z" uid="20587" user="balrog-kun" changeset="415330">
    <nd ref="196364026"/>
    <nd ref="196364057"/>
    <nd ref="196364058"/>
    <nd ref="196364060"/>
    <tag k="created_by" v="JOSM"/>
    <tag k="highway" v="residential"/>
    <tag k="name" v="Mikołaja Gomółki"/>
    <tag k="source" v="survey"/>
  </way>
  <way id="18967257" version="2" timestamp="2008-03-28T23:10:27Z" uid="20587" user="balrog-kun" changeset="415330">
    <nd ref="196364046"/>
    <nd ref="196364124"/>
    <nd ref="196364105"/>
    <tag k="created_by" v="JOSM"/>
    <tag k="highway" v="residential"/>
    <tag k="name" v="Kajetana Koźmiana"/>
    <tag k="source" v="survey"/>
  </way>
  <way id="18967262" version="4" timestamp="2010-01-10T20:44:45Z" uid="20587" user="balrog-kun" changeset="3591381">
    <nd ref="196364081"/>
    <nd ref="196364086"/>
    <nd ref="611249638"/>
    <nd ref="196364071"/>
    <nd ref="196364076"/>
    <nd ref="196364058"/>
    <nd ref="196364127"/>
    <nd ref="216121973"/>
    <nd ref="196364124"/>
    <tag k="highway" v="residential"/>
    <tag k="name" v="Adolfa Dygasińskiego"/>
    <tag k="note" v="TODO: oneway"/>
    <tag k="source" v="survey"/>
  </way>
  <way id="18967266" version="2" timestamp="2008-03-28T23:10:26Z" uid="20587" user="balrog-kun" changeset="415330">
    <nd ref="196364076"/>
    <nd ref="196364134"/>
    <tag k="created_by" v="JOSM"/>
    <tag k="highway" v="residential"/>
    <tag k="name" v="Czesława Rybińskiego"/>
    <tag k="source" v="survey"/>
  </way>
  <way id="18967268" version="2" timestamp="2008-03-28T23:10:26Z" uid="20587" user="balrog-kun" changeset="415330">
    <nd ref="196364003"/>
    <nd ref="196364089"/>
    <nd ref="196363986"/>
    <nd ref="196364153"/>
    <nd ref="196364150"/>
    <nd ref="196364143"/>
    <nd ref="196364139"/>
    <nd ref="196364118"/>
    <tag k="created_by" v="JOSM"/>
    <tag k="highway" v="residential"/>
    <tag k="name" v="Tucholska"/>
    <tag k="source" v="survey"/>
  </way>
</osm>
