<?xml version='1.0' encoding='UTF-8'?>
<osm version="0.6" generator="libosmium/2.20.0">
  <way id="18986098" version="2" timestamp="2008-06-28T05:32:12Z" uid="30201" user="rrankin" changeset="323262"/>
  <way id="18986166" version="3" timestamp="2008-06-28T05:31:59Z" uid="30201" user="rrankin" changeset="323262">
    <nd ref="196606390"/>
    <nd ref="196606813"/>
    <nd ref="196607865"/>
    <nd ref="196606814"/>
    <tag k="created_by" v="Potlatch 0.6"/>
    <tag k="highway" v="residential"/>
    <tag k="name" v="See Street"/>
  </way>
  <way id="18986166" version="4" timestamp="2010-07-08T00:58:16Z" uid="74617" user="JohnSmith" changeset="5162525">
    <nd ref="196606390"/>
    <nd ref="196606813"/>
    <nd ref="196607865"/>
    <nd ref="196606814"/>
    <tag k="highway" v="residential"/>
    <tag k="maxspeed" v="50"/>
    <tag k="maxspeed:source" v="default residential speed limit in Australia"/>
    <tag k="name" v="See Street"/>
  </way>
  <way id="18986220" version="4" timestamp="2008-06-28T05:32:03Z" uid="30201" user="rrankin" changeset="323262">
    <nd ref="196606879"/>
    <nd ref="196608156"/>
    <nd ref="196606814"/>
    <nd ref="196607531"/>
    <nd ref="196607189"/>
    <tag k="abutters" v="residential"/>
    <tag k="created_by" v="Potlatch 0.6"/>
    <tag k="highway" v="residential"/>
    <tag k="name" v="MacPherson Street"/>
  </way>
  <way id="18986220" version="5" timestamp="2009-11-28T06:19:21Z" uid="30201" user="rrankin" changeset="3233694">
    <nd ref="196606879"/>
    <nd ref="196608156"/>
    <nd ref="196606814"/>
    <nd ref="196607531"/>
    <nd ref="196607189"/>
    <tag k="highway" v="residential"/>
    <tag k="name" v="MacPherson Street"/>
  </way>
  <way id="18986220" version="6" timestamp="2010-07-08T00:58:04Z" uid="74617" user="JohnSmith" changeset="5162525">
    <nd ref="196606879"/>
    <nd ref="196608156"/>
    <nd ref="196606814"/>
    <nd ref="196607531"/>
    <nd ref="196607189"/>
    <tag k="highway" v="residential"/>
    <tag k="maxspeed" v="50"/>
    <tag k="maxspeed:source" v="default residential speed limit in Australia"/>
    <tag k="name" v="MacPherson Street"/>
  </way>
  <way id="18986272" version="2" timestamp="2008-06-28T05:31:58Z" uid="30201" user="rrankin" changeset="323262">
    <nd ref="196607234"/>
    <nd ref="196607531"/>
    <tag k="created_by" v="Potlatch 0.6"/>
    <tag k="highway" v="residential"/>
    <tag k="name" v="Forsyth Street"/>
  </way>
  <way id="18986272" version="3" timestamp="2010-07-08T00:59:26Z" uid="74617" user="JohnSmith" changeset="5162525">
    <nd ref="196607234"/>
    <nd ref="196607531"/>
    <tag k="highway" v="residential"/>
    <tag k="maxspeed" v="50"/>
    <tag k="maxspeed:source" v="default residential speed limit in Australia"/>
    <tag k="name" v="Forsyth Street"/>
  </way>
  <way id="18986329" version="2" timestamp="2008-06-28T00:32:03Z" uid="30201" user="rrankin" changeset="318974">
    <nd ref="196607552"/>
    <nd ref="274142340"/>
    <nd ref="196607865"/>
    <tag k="abutters" v="residential"/>
    <tag k="created_by" v="Potlatch 0.6"/>
    <tag k="highway" v="residential"/>
  </way>
  <way id="18986329" version="3" timestamp="2008-06-28T05:32:08Z" uid="30201" user="rrankin" changeset="323262">
    <nd ref="196607552"/>
    <nd ref="274142340"/>
    <nd ref="196607865"/>
    <tag k="abutters" v="residential"/>
    <tag k="created_by" v="Potlatch 0.6"/>
    <tag k="highway" v="residential"/>
    <tag k="name" v="Stone Street"/>
  </way>
  <way id="18986329" version="4" timestamp="2009-11-28T06:19:23Z" uid="30201" user="rrankin" changeset="3233694">
    <nd ref="196607552"/>
    <nd ref="274142340"/>
    <nd ref="196607865"/>
    <tag k="highway" v="residential"/>
    <tag k="name" v="Stone Street"/>
  </way>
  <way id="18986329" version="5" timestamp="2010-07-08T00:58:17Z" uid="74617" user="JohnSmith" changeset="5162525">
    <nd ref="196607552"/>
    <nd ref="274142340"/>
    <nd ref="196607865"/>
    <tag k="highway" v="residential"/>
    <tag k="maxspeed" v="50"/>
    <tag k="maxspeed:source" v="default residential speed limit in Australia"/>
    <tag k="name" v="Stone Street"/>
  </way>
  <way id="18986347" version="2" timestamp="2008-06-28T05:32:05Z" uid="30201" user="rrankin" changeset="323262">
    <nd ref="196606813"/>
    <nd ref="196608105"/>
    <tag k="created_by" v="Potlatch 0.6"/>
    <tag k="highway" v="residential"/>
    <tag k="name" v="Angas Street"/>
  </way>
  <way id="18986347" version="3" timestamp="2010-02-27T03:11:35Z" uid="7617" user="Franc" changeset="3985431">
    <nd ref="196606813"/>
    <nd ref="654595418"/>
    <nd ref="196608105"/>
    <tag k="highway" v="residential"/>
    <tag k="name" v="Angas Street"/>
  </way>
  <way id="18986347" version="4" timestamp="2010-07-08T00:59:09Z" uid="74617" user="JohnSmith" changeset="5162525">
    <nd ref="196606813"/>
    <nd ref="654595418"/>
    <nd ref="196608105"/>
    <tag k="highway" v="residential"/>
    <tag k="maxspeed" v="50"/>
    <tag k="maxspeed:source" v="default residential speed limit in Australia"/>
    <tag k="name" v="Angas Street"/>
  </way>
  <way id="18986350" version="4" timestamp="2010-02-14T15:50:25Z" uid="74617" user="JohnSmith" changeset="3874884">
    <nd ref="80539486"/>
    <nd ref="196608117"/>
    <nd ref="196608118"/>
    <nd ref="196593726"/>
    <nd ref="196608119"/>
    <tag k="highway" v="residential"/>
    <tag k="maxspeed" v="50"/>
    <tag k="name" v="Eight Avenue"/>
  </way>
  <way id="18986415" version="2" timestamp="2008-06-28T00:31:50Z" uid="30201" user="rrankin" changeset="318974">
    <nd ref="196608156"/>
    <nd ref="274142340"/>
    <nd ref="196608700"/>
    <tag k="abutters" v="residential"/>
    <tag k="created_by" v="Potlatch 0.6"/>
    <tag k="highway" v="residential"/>
  </way>
  <way id="18986415" version="3" timestamp="2008-06-28T05:31:56Z" uid="30201" user="rrankin" changeset="323262">
    <nd ref="196608156"/>
    <nd ref="274142340"/>
    <nd ref="196608700"/>
    <tag k="abutters" v="residential"/>
    <tag k="created_by" v="Potlatch 0.6"/>
    <tag k="highway" v="service"/>
  </way>
  <way id="18986415" version="4" timestamp="2009-07-04T13:25:15Z" uid="7617" user="Franc" changeset="1729755">
    <nd ref="196608156"/>
    <nd ref="274142340"/>
    <nd ref="196608700"/>
    <tag k="abutters" v="residential"/>
    <tag k="created_by" v="Potlatch 0.6"/>
    <tag k="highway" v="service"/>
    <tag k="name" v="McPherson Lane"/>
    <tag k="source" v="survey"/>
  </way>
  <way id="18986415" version="5" timestamp="2009-11-28T06:19:20Z" uid="30201" user="rrankin" changeset="3233694">
    <nd ref="196608156"/>
    <nd ref="274142340"/>
    <nd ref="196608700"/>
    <tag k="highway" v="service"/>
    <tag k="name" v="McPherson Lane"/>
    <tag k="source" v="survey"/>
  </way>
  <way id="18986456" version="4" timestamp="2010-02-14T15:50:25Z" uid="74617" user="JohnSmith" changeset="3874884">
    <nd ref="80539482"/>
    <nd ref="196609026"/>
    <nd ref="196609027"/>
    <nd ref="336219737"/>
    <nd ref="196609029"/>
    <nd ref="196609030"/>
    <nd ref="196609031"/>
    <tag k="highway" v="residential"/>
    <tag k="maxspeed" v="50"/>
    <tag k="name" v="Emerald Street"/>
  </way>
  <way id="18986519" version="2" timestamp="2008-06-28T06:27:01Z" uid="30201" user="rrankin" changeset="323262">
    <nd ref="196608831"/>
    <nd ref="196609310"/>
    <nd ref="196607189"/>
    <nd ref="196609311"/>
    <tag k="created_by" v="Potlatch 0.6"/>
    <tag k="highway" v="residential"/>
    <tag k="name" v="Mellor Street"/>
  </way>
  <way id="18986519" version="3" timestamp="2010-07-08T01:00:22Z" uid="74617" user="JohnSmith" changeset="5162525">
    <nd ref="196608831"/>
    <nd ref="196609310"/>
    <nd ref="196607189"/>
    <nd ref="196609311"/>
    <tag k="highway" v="residential"/>
    <tag k="maxspeed" v="50"/>
    <tag k="maxspeed:source" v="default residential speed limit in Australia"/>
    <tag k="name" v="Mellor Street"/>
  </way>
  <way id="18986572" version="3" timestamp="2008-06-28T06:27:10Z" uid="30201" user="rrankin" changeset="323262">
    <nd ref="196609819"/>
    <nd ref="196609835"/>
    <nd ref="196609837"/>
    <tag k="created_by" v="Potlatch 0.6"/>
    <tag k="highway" v="residential"/>
    <tag k="name" v="Falconer Street"/>
  </way>
  <way id="18986572" version="4" timestamp="2009-07-04T13:25:15Z" uid="7617" user="Franc" changeset="1729755">
    <nd ref="196609819"/>
    <nd ref="433818673"/>
    <nd ref="196609835"/>
    <nd ref="196609837"/>
    <tag k="created_by" v="Potlatch 0.6"/>
    <tag k="highway" v="residential"/>
    <tag k="name" v="Falconer Street"/>
  </way>
  <way id="18986572" version="6" timestamp="2010-07-08T00:59:16Z" uid="74617" user="JohnSmith" changeset="5162525">
    <nd ref="196609819"/>
    <nd ref="778074740"/>
    <tag k="highway" v="residential"/>
    <tag k="maxspeed" v="50"/>
    <tag k="maxspeed:source" v="default residential speed limit in Australia"/>
    <tag k="name" v="Falconer Street"/>
  </way>
  <way id="18986588" version="2" timestamp="2008-02-12T05:18:17Z" uid="7617" user="Franc" changeset="107934">
    <nd ref="196609310"/>
    <nd ref="196609835"/>
    <tag k="created_by" v="Potlatch 0.6"/>
    <tag k="highway" v="residential"/>
  </way>
  <way id="18986588" version="3" timestamp="2008-06-28T06:27:12Z" uid="30201" user="rrankin" changeset="323262">
    <nd ref="196609310"/>
    <nd ref="196609835"/>
    <tag k="created_by" v="Potlatch 0.6"/>
    <tag k="highway" v="residential"/>
    <tag k="name" v="Mulvihill Street"/>
  </way>
  <way id="18986588" version="4" timestamp="2010-07-08T00:57:29Z" uid="74617" user="JohnSmith" changeset="5162525">
    <nd ref="196609310"/>
    <nd ref="196609835"/>
    <tag k="highway" v="residential"/>
    <tag k="maxspeed" v="50"/>
    <tag k="maxspeed:source" v="default residential speed limit in Australia"/>
    <tag k="name" v="Mulvihill Street"/>
  </way>
  <way id="18986618" version="2" timestamp="2010-02-14T15:50:26Z" uid="74617" user="JohnSmith" changeset="3874884">
    <nd ref="80532371"/>
    <nd ref="196610225"/>
    <nd ref="196610227"/>
    <nd ref="196610228"/>
    <tag k="foot" v="yes"/>
    <tag k="highway" v="footway"/>
  </way>
</osm>
