<?xml version='1.0' encoding='UTF-8'?>
<osm version="0.6" generator="libosmium/2.20.0">
  <way id="18984099" version="3" timestamp="2010-02-14T15:49:29Z" uid="74617" user="JohnSmith" changeset="3874884">
    <nd ref="196590930"/>
    <nd ref="196590932"/>
    <nd ref="196590933"/>
    <nd ref="196590934"/>
    <nd ref="196590935"/>
    <nd ref="196590936"/>
    <nd ref="196590937"/>
    <nd ref="196590938"/>
    <nd ref="196590939"/>
    <nd ref="196590941"/>
    <nd ref="196590943"/>
    <nd ref="196590944"/>
    <nd ref="196590945"/>
    <nd ref="196590946"/>
    <nd ref="196590948"/>
    <nd ref="196590949"/>
    <nd ref="196590950"/>
    <nd ref="196590951"/>
    <nd ref="196590953"/>
    <nd ref="196590954"/>
    <nd ref="196590955"/>
    <nd ref="196590956"/>
    <nd ref="196590957"/>
    <nd ref="196590958"/>
    <nd ref="196590960"/>
    <nd ref="196590961"/>
    <nd ref="196590962"/>
    <nd ref="196590964"/>
    <nd ref="196590930"/>
    <tag k="leisure" v="pitch"/>
    <tag k="name" v="Kedron Districts Football Club"/>
  </way>
  <way id="18984116" version="4" timestamp="2010-02-14T15:50:27Z" uid="74617" user="JohnSmith" changeset="3874884">
    <nd ref="80539489"/>
    <nd ref="196591110"/>
    <nd ref="196591114"/>
    <tag k="highway" v="residential"/>
    <tag k="maxspeed" v="50"/>
    <tag k="name" v="Ninth Avenue"/>
  </way>
  <way id="18984769" version="7" timestamp="2010-08-16T08:51:09Z" uid="74617" user="JohnSmith" changeset="5507246"/>
  <way id="18984825" version="2" timestamp="2008-06-28T05:32:06Z" uid="30201" user="rrankin" changeset="323262">
    <nd ref="196596175"/>
    <nd ref="196596659"/>
    <tag k="created_by" v="Potlatch 0.6"/>
    <tag k="highway" v="residential"/>
    <tag k="name" v="Porter Street"/>
  </way>
  <way id="18984825" version="4" timestamp="2009-08-15T12:20:36Z" uid="4467" user="Rosscoe" changeset="2153419"/>
  <way id="18984891" version="4" timestamp="2008-06-28T05:31:57Z" uid="30201" user="rrankin" changeset="323262">
    <nd ref="26705059"/>
    <nd ref="196697346"/>
    <nd ref="196598306"/>
    <nd ref="274205777"/>
    <tag k="abutters" v="industrial"/>
    <tag k="created_by" v="Potlatch 0.6"/>
    <tag k="highway" v="residential"/>
    <tag k="name" v="Constitution Road"/>
  </way>
  <way id="18984891" version="6" timestamp="2009-11-28T06:19:26Z" uid="30201" user="rrankin" changeset="3233694">
    <nd ref="26705059"/>
    <nd ref="196697346"/>
    <nd ref="196598306"/>
    <nd ref="274205777"/>
    <tag k="highway" v="tertiary"/>
    <tag k="name" v="Constitution Road"/>
  </way>
  <way id="18984979" version="2" timestamp="2008-06-28T05:32:09Z" uid="30201" user="rrankin" changeset="323262">
    <nd ref="196597246"/>
    <nd ref="196597761"/>
    <nd ref="196597763"/>
    <tag k="abutters" v="industrial"/>
    <tag k="created_by" v="Potlatch 0.6"/>
    <tag k="highway" v="residential"/>
    <tag k="name" v="Nancarrow Avenue"/>
  </way>
  <way id="18984979" version="3" timestamp="2008-12-14T11:40:45Z" uid="7617" user="Franc" changeset="375809">
    <nd ref="196597246"/>
    <nd ref="196597761"/>
    <nd ref="196597763"/>
    <tag k="abutters" v="industrial"/>
    <tag k="created_by" v="Potlatch 0.6"/>
    <tag k="highway" v="residential"/>
    <tag k="name" v="Nancarrow Avenue"/>
    <tag k="source" v="survey"/>
  </way>
  <way id="18984979" version="4" timestamp="2009-11-28T06:19:27Z" uid="30201" user="rrankin" changeset="3233694">
    <nd ref="196597246"/>
    <nd ref="196597761"/>
    <nd ref="196597763"/>
    <tag k="highway" v="residential"/>
    <tag k="name" v="Nancarrow Avenue"/>
    <tag k="source" v="survey"/>
  </way>
  <way id="18984979" version="5" timestamp="2010-07-08T01:00:15Z" uid="74617" user="JohnSmith" changeset="5162525">
    <nd ref="196597246"/>
    <nd ref="196597761"/>
    <nd ref="196597763"/>
    <tag k="highway" v="residential"/>
    <tag k="maxspeed" v="50"/>
    <tag k="maxspeed:source" v="default residential speed limit in Australia"/>
    <tag k="name" v="Nancarrow Avenue"/>
    <tag k="source" v="survey"/>
  </way>
</osm>
