<?xml version='1.0' encoding='UTF-8'?>
<osm version="0.6" generator="libosmium/2.20.0">
  <way id="18993116" version="5" timestamp="2010-02-14T15:50:24Z" uid="74617" user="JohnSmith" changeset="3874884">
    <nd ref="196613053"/>
    <nd ref="196658973"/>
    <nd ref="196658974"/>
    <nd ref="196658976"/>
    <nd ref="196658977"/>
    <nd ref="196658978"/>
    <nd ref="80485965"/>
    <tag k="highway" v="residential"/>
    <tag k="maxspeed" v="50"/>
    <tag k="name" v="Nieppe Street"/>
  </way>
  <way id="18993389" version="3" timestamp="2008-12-14T11:41:11Z" uid="7617" user="Franc" changeset="375809"/>
  <way id="18993404" version="3" timestamp="2008-12-14T10:19:17Z" uid="7617" user="Franc" changeset="365738">
    <nd ref="196660217"/>
    <nd ref="196660797"/>
    <nd ref="196661566"/>
    <nd ref="196660923"/>
    <nd ref="196660924"/>
    <nd ref="196660925"/>
    <nd ref="196660926"/>
    <nd ref="196660927"/>
    <nd ref="196660928"/>
    <tag k="created_by" v="Potlatch 0.6"/>
    <tag k="highway" v="residential"/>
    <tag k="name" v="Maxim Street"/>
    <tag k="source" v="survey"/>
  </way>
  <way id="18993404" version="4" timestamp="2008-12-14T11:40:41Z" uid="7617" user="Franc" changeset="375809">
    <nd ref="196660217"/>
    <nd ref="318586378"/>
    <nd ref="196660797"/>
    <nd ref="318586379"/>
    <nd ref="196661566"/>
    <nd ref="196660923"/>
    <nd ref="196660924"/>
    <nd ref="318586322"/>
    <nd ref="196660925"/>
    <nd ref="196660926"/>
    <nd ref="196660927"/>
    <nd ref="318586220"/>
    <nd ref="196660928"/>
    <tag k="created_by" v="Potlatch 0.6"/>
    <tag k="highway" v="residential"/>
    <tag k="name" v="Maxim Street"/>
    <tag k="source" v="survey"/>
  </way>
  <way id="18993404" version="5" timestamp="2010-02-27T03:53:25Z" uid="7617" user="Franc" changeset="3985516">
    <nd ref="196660217"/>
    <nd ref="654597945"/>
    <tag k="highway" v="residential"/>
    <tag k="name" v="Maxim Street"/>
    <tag k="source" v="survey"/>
  </way>
  <way id="18993404" version="6" timestamp="2010-07-08T00:57:45Z" uid="74617" user="JohnSmith" changeset="5162525">
    <nd ref="196660217"/>
    <nd ref="654597945"/>
    <tag k="highway" v="residential"/>
    <tag k="maxspeed" v="50"/>
    <tag k="maxspeed:source" v="default residential speed limit in Australia"/>
    <tag k="name" v="Maxim Street"/>
    <tag k="source" v="survey"/>
  </way>
  <way id="18993475" version="2" timestamp="2008-12-14T11:40:42Z" uid="7617" user="Franc" changeset="375809">
    <nd ref="196660924"/>
    <nd ref="196661513"/>
    <nd ref="318586200"/>
    <nd ref="318586203"/>
    <nd ref="318586209"/>
    <nd ref="318586251"/>
    <nd ref="196661514"/>
    <tag k="created_by" v="Potlatch 0.6"/>
    <tag k="highway" v="residential"/>
    <tag k="name" v="Gaza Road"/>
    <tag k="source" v="survey"/>
  </way>
  <way id="18993475" version="3" timestamp="2010-07-08T01:00:56Z" uid="74617" user="JohnSmith" changeset="5162525">
    <nd ref="196660924"/>
    <nd ref="196661513"/>
    <nd ref="318586200"/>
    <nd ref="318586203"/>
    <nd ref="318586209"/>
    <nd ref="318586251"/>
    <nd ref="196661514"/>
    <tag k="highway" v="residential"/>
    <tag k="maxspeed" v="50"/>
    <tag k="maxspeed:source" v="default residential speed limit in Australia"/>
    <tag k="name" v="Gaza Road"/>
    <tag k="source" v="survey"/>
  </way>
  <way id="18993502" version="3" timestamp="2010-02-14T15:50:25Z" uid="74617" user="JohnSmith" changeset="3874884">
    <nd ref="196653856"/>
    <nd ref="196661719"/>
    <nd ref="196661720"/>
    <nd ref="196613054"/>
    <tag k="highway" v="service"/>
    <tag k="maxspeed" v="50"/>
    <tag k="name" v="Mitchell Street"/>
  </way>
  <way id="18993507" version="4" timestamp="2010-02-14T15:50:26Z" uid="74617" user="JohnSmith" changeset="3874884">
    <nd ref="37118010"/>
    <nd ref="196661766"/>
    <nd ref="196661767"/>
    <nd ref="196661768"/>
    <tag k="highway" v="residential"/>
    <tag k="maxspeed" v="50"/>
    <tag k="name" v="Broughton Road"/>
    <tag k="oneway" v="yes"/>
  </way>
  <way id="18993507" version="5" timestamp="2010-02-26T17:45:48Z" uid="74617" user="JohnSmith" changeset="3982219"/>
  <way id="18993509" version="6" timestamp="2010-02-14T15:50:19Z" uid="74617" user="JohnSmith" changeset="3874884">
    <nd ref="196613059"/>
    <nd ref="196661780"/>
    <nd ref="452918843"/>
    <nd ref="80503078"/>
    <tag k="highway" v="residential"/>
    <tag k="maxspeed" v="50"/>
    <tag k="name" v="Somerset Road"/>
  </way>
  <way id="18993513" version="6" timestamp="2010-02-14T15:50:14Z" uid="74617" user="JohnSmith" changeset="3874884">
    <nd ref="196661768"/>
    <nd ref="196661805"/>
    <nd ref="196653855"/>
    <nd ref="196661806"/>
    <nd ref="196661810"/>
    <nd ref="196655543"/>
    <nd ref="80507604"/>
    <tag k="highway" v="residential"/>
    <tag k="maxspeed" v="50"/>
    <tag k="name" v="Broughton Road"/>
  </way>
  <way id="18993523" version="4" timestamp="2010-02-14T15:50:07Z" uid="74617" user="JohnSmith" changeset="3874884">
    <nd ref="196651969"/>
    <nd ref="196661860"/>
    <nd ref="196661861"/>
    <nd ref="79846199"/>
    <tag k="highway" v="residential"/>
    <tag k="maxspeed" v="50"/>
    <tag k="name" v="Brookfield Road"/>
    <tag k="oneway" v="yes"/>
  </way>
  <way id="18993523" version="5" timestamp="2010-08-16T08:51:08Z" uid="74617" user="JohnSmith" changeset="5507246"/>
  <way id="18993529" version="5" timestamp="2010-02-14T15:50:14Z" uid="74617" user="JohnSmith" changeset="3874884">
    <nd ref="79846202"/>
    <nd ref="196661912"/>
    <nd ref="196661914"/>
    <nd ref="196653286"/>
    <tag k="highway" v="residential"/>
    <tag k="maxspeed" v="50"/>
    <tag k="name" v="Homebush Road"/>
  </way>
  <way id="18993529" version="6" timestamp="2010-02-26T17:45:44Z" uid="74617" user="JohnSmith" changeset="3982219">
    <nd ref="79846202"/>
    <nd ref="654179525"/>
    <nd ref="654179524"/>
    <nd ref="196661912"/>
    <nd ref="196661914"/>
    <nd ref="196653286"/>
    <tag k="highway" v="residential"/>
    <tag k="maxspeed" v="50"/>
    <tag k="name" v="Homebush Road"/>
  </way>
  <way id="18993529" version="7" timestamp="2010-04-21T13:14:54Z" uid="4467" user="Rosscoe" changeset="4486342">
    <nd ref="79846202"/>
    <nd ref="654179525"/>
    <nd ref="654179524"/>
    <nd ref="703211858"/>
    <tag k="highway" v="residential"/>
    <tag k="maxspeed" v="50"/>
    <tag k="name" v="Homebush Road"/>
  </way>
  <way id="18993529" version="8" timestamp="2010-08-16T08:51:10Z" uid="74617" user="JohnSmith" changeset="5507246"/>
  <way id="18993535" version="2" timestamp="2008-12-14T11:40:36Z" uid="7617" user="Franc" changeset="375809">
    <nd ref="196661566"/>
    <nd ref="196661950"/>
    <tag k="created_by" v="Potlatch 0.6"/>
    <tag k="highway" v="residential"/>
    <tag k="name" v="Hughes Street"/>
    <tag k="source" v="survey"/>
  </way>
  <way id="18993535" version="3" timestamp="2010-02-27T03:53:26Z" uid="7617" user="Franc" changeset="3985516">
    <nd ref="196661566"/>
    <nd ref="654597957"/>
    <nd ref="196661950"/>
    <tag k="highway" v="residential"/>
    <tag k="name" v="Hughes Street"/>
    <tag k="source" v="survey"/>
  </way>
  <way id="18993535" version="4" timestamp="2010-07-08T00:58:08Z" uid="74617" user="JohnSmith" changeset="5162525">
    <nd ref="196661566"/>
    <nd ref="654597957"/>
    <nd ref="196661950"/>
    <tag k="highway" v="residential"/>
    <tag k="maxspeed" v="50"/>
    <tag k="maxspeed:source" v="default residential speed limit in Australia"/>
    <tag k="name" v="Hughes Street"/>
    <tag k="source" v="survey"/>
  </way>
  <way id="18993537" version="8" timestamp="2010-02-14T15:50:06Z" uid="74617" user="JohnSmith" changeset="3874884">
    <nd ref="196651969"/>
    <nd ref="364899419"/>
    <tag k="highway" v="residential"/>
    <tag k="maxspeed" v="50"/>
    <tag k="name" v="Brookfield Road"/>
  </way>
  <way id="18993561" version="2" timestamp="2008-12-14T11:40:29Z" uid="7617" user="Franc" changeset="375809">
    <nd ref="230712605"/>
    <nd ref="230712611"/>
    <nd ref="196660794"/>
    <nd ref="196660795"/>
    <nd ref="318586272"/>
    <nd ref="318586292"/>
    <nd ref="318586304"/>
    <nd ref="318586321"/>
    <nd ref="196662109"/>
    <tag k="created_by" v="JOSM"/>
    <tag k="highway" v="residential"/>
    <tag k="name" v="Bank Street"/>
    <tag k="source" v="survey"/>
  </way>
  <way id="18993561" version="3" timestamp="2010-02-27T03:53:25Z" uid="7617" user="Franc" changeset="3985516">
    <nd ref="230712605"/>
    <nd ref="230712611"/>
    <nd ref="196660794"/>
    <nd ref="654597958"/>
    <nd ref="196660795"/>
    <nd ref="654597959"/>
    <nd ref="318586272"/>
    <nd ref="318586292"/>
    <nd ref="318586304"/>
    <nd ref="318586321"/>
    <nd ref="196662109"/>
    <tag k="highway" v="residential"/>
    <tag k="name" v="Bank Street"/>
    <tag k="source" v="survey"/>
  </way>
  <way id="18993561" version="4" timestamp="2010-07-08T00:57:11Z" uid="74617" user="JohnSmith" changeset="5162525">
    <nd ref="230712605"/>
    <nd ref="230712611"/>
    <nd ref="196660794"/>
    <nd ref="654597958"/>
    <nd ref="196660795"/>
    <nd ref="654597959"/>
    <nd ref="318586272"/>
    <nd ref="318586292"/>
    <nd ref="318586304"/>
    <nd ref="318586321"/>
    <nd ref="196662109"/>
    <tag k="highway" v="residential"/>
    <tag k="maxspeed" v="50"/>
    <tag k="maxspeed:source" v="default residential speed limit in Australia"/>
    <tag k="name" v="Bank Street"/>
    <tag k="source" v="survey"/>
  </way>
  <way id="18993726" version="2" timestamp="2008-06-08T00:44:40Z" uid="30201" user="rrankin" changeset="93545">
    <nd ref="26400451"/>
    <nd ref="196663254"/>
    <nd ref="196663255"/>
    <nd ref="196643886"/>
    <nd ref="196663257"/>
    <nd ref="269088863"/>
    <nd ref="269088864"/>
    <nd ref="30382648"/>
    <tag k="created_by" v="Potlatch 0.6"/>
    <tag k="highway" v="tertiary"/>
  </way>
  <way id="18993780" version="2" timestamp="2010-02-14T15:50:08Z" uid="74617" user="JohnSmith" changeset="3874884">
    <nd ref="196651969"/>
    <nd ref="196663614"/>
    <tag k="highway" v="service"/>
    <tag k="maxspeed" v="50"/>
  </way>
  <way id="18993818" version="3" timestamp="2010-02-14T15:50:07Z" uid="74617" user="JohnSmith" changeset="3874884">
    <nd ref="196663824"/>
    <nd ref="196663825"/>
    <nd ref="196663827"/>
    <nd ref="196663828"/>
    <nd ref="196663829"/>
    <nd ref="196663830"/>
    <nd ref="196663831"/>
    <nd ref="196663833"/>
    <nd ref="196663834"/>
    <nd ref="196663835"/>
    <nd ref="196663836"/>
    <nd ref="196663837"/>
    <nd ref="196663824"/>
    <tag k="building" v="yes"/>
  </way>
  <way id="18993895" version="5" timestamp="2008-12-14T10:19:18Z" uid="7617" user="Franc" changeset="365738">
    <nd ref="26959227"/>
    <nd ref="196664284"/>
    <nd ref="196666626"/>
    <nd ref="196664285"/>
    <nd ref="196663257"/>
    <nd ref="196665859"/>
    <nd ref="196666295"/>
    <nd ref="196642807"/>
    <tag k="created_by" v="Potlatch 0.6"/>
    <tag k="highway" v="residential"/>
    <tag k="name" v="Mons Avenue"/>
    <tag k="source" v="survey"/>
  </way>
  <way id="18993895" version="6" timestamp="2008-12-14T11:40:42Z" uid="7617" user="Franc" changeset="375809">
    <nd ref="26959227"/>
    <nd ref="196664284"/>
    <nd ref="196666626"/>
    <nd ref="196664285"/>
    <nd ref="196663257"/>
    <nd ref="196665859"/>
    <nd ref="196642807"/>
    <tag k="created_by" v="Potlatch 0.6"/>
    <tag k="highway" v="residential"/>
    <tag k="name" v="Mons Avenue"/>
    <tag k="source" v="survey"/>
  </way>
  <way id="18993895" version="8" timestamp="2010-02-03T01:15:17Z" uid="30201" user="rrankin" changeset="3780262">
    <nd ref="581918159"/>
    <nd ref="196664284"/>
    <nd ref="196666626"/>
    <nd ref="196664285"/>
    <nd ref="627204801"/>
    <tag k="highway" v="residential"/>
    <tag k="name" v="Mons Avenue"/>
    <tag k="source" v="survey"/>
  </way>
  <way id="18993895" version="9" timestamp="2010-07-08T00:57:08Z" uid="74617" user="JohnSmith" changeset="5162525">
    <nd ref="581918159"/>
    <nd ref="196664284"/>
    <nd ref="196666626"/>
    <nd ref="196664285"/>
    <nd ref="627204801"/>
    <tag k="highway" v="residential"/>
    <tag k="maxspeed" v="50"/>
    <tag k="maxspeed:source" v="default residential speed limit in Australia"/>
    <tag k="name" v="Mons Avenue"/>
    <tag k="source" v="survey"/>
  </way>
  <way id="18993931" version="3" timestamp="2008-12-14T10:19:12Z" uid="7617" user="Franc" changeset="365738">
    <nd ref="196664285"/>
    <nd ref="196664551"/>
    <nd ref="196664961"/>
    <nd ref="30382619"/>
    <tag k="created_by" v="Potlatch 0.6"/>
    <tag k="highway" v="service"/>
    <tag k="name" v="Annie Lane"/>
    <tag k="source" v="survey"/>
  </way>
  <way id="18993978" version="3" timestamp="2008-06-08T00:44:41Z" uid="30201" user="rrankin" changeset="93545">
    <nd ref="196664551"/>
    <nd ref="269088863"/>
    <nd ref="196665886"/>
    <nd ref="196664951"/>
    <tag k="created_by" v="Potlatch 0.6"/>
    <tag k="highway" v="residential"/>
  </way>
  <way id="18993978" version="8" timestamp="2008-12-14T11:40:28Z" uid="7617" user="Franc" changeset="375809">
    <nd ref="196664551"/>
    <nd ref="269088863"/>
    <nd ref="196664951"/>
    <tag k="created_by" v="Potlatch 0.10b"/>
    <tag k="highway" v="residential"/>
    <tag k="name" v="Federal Road"/>
  </way>
  <way id="18993978" version="9" timestamp="2010-07-08T00:57:37Z" uid="74617" user="JohnSmith" changeset="5162525">
    <nd ref="196664551"/>
    <nd ref="269088863"/>
    <nd ref="196664951"/>
    <tag k="highway" v="residential"/>
    <tag k="maxspeed" v="50"/>
    <tag k="maxspeed:source" v="default residential speed limit in Australia"/>
    <tag k="name" v="Federal Road"/>
  </way>
</osm>
