<?xml version='1.0' encoding='UTF-8'?>
<osm version="0.6" generator="libosmium/2.20.0">
  <way id="18995118" version="8" timestamp="2010-07-08T00:57:12Z" uid="74617" user="JohnSmith" changeset="5162525">
    <nd ref="196670244"/>
    <nd ref="196671465"/>
    <nd ref="225702179"/>
    <tag k="highway" v="residential"/>
    <tag k="maxspeed" v="50"/>
    <tag k="maxspeed:source" v="default residential speed limit in Australia"/>
    <tag k="name" v="Lancaster Avenue"/>
  </way>
  <way id="18995205" version="2" timestamp="2008-06-21T00:16:38Z" uid="30201" user="rrankin" changeset="237952">
    <nd ref="196669157"/>
    <nd ref="196671812"/>
    <nd ref="196671813"/>
    <nd ref="196671815"/>
    <nd ref="196671816"/>
    <nd ref="196671817"/>
    <nd ref="196671819"/>
    <tag k="created_by" v="Potlatch 0.6"/>
    <tag k="highway" v="residential"/>
    <tag k="name" v="Cobham Avenue"/>
  </way>
  <way id="18995205" version="3" timestamp="2008-06-21T00:27:07Z" uid="30201" user="rrankin" changeset="237952">
    <nd ref="196671819"/>
    <nd ref="196671817"/>
    <nd ref="196671816"/>
    <tag k="created_by" v="Potlatch 0.6"/>
    <tag k="highway" v="residential"/>
    <tag k="name" v="Taylor Avenue"/>
  </way>
  <way id="18995205" version="4" timestamp="2010-02-27T05:26:50Z" uid="7617" user="Franc" changeset="3985718">
    <nd ref="196671819"/>
    <nd ref="196671817"/>
    <nd ref="654723433"/>
    <nd ref="196671816"/>
    <tag k="highway" v="residential"/>
    <tag k="name" v="Taylor Avenue"/>
  </way>
  <way id="18995205" version="5" timestamp="2010-07-08T01:01:11Z" uid="74617" user="JohnSmith" changeset="5162525">
    <nd ref="196671819"/>
    <nd ref="196671817"/>
    <nd ref="654723433"/>
    <nd ref="196671816"/>
    <tag k="highway" v="residential"/>
    <tag k="maxspeed" v="50"/>
    <tag k="maxspeed:source" v="default residential speed limit in Australia"/>
    <tag k="name" v="Taylor Avenue"/>
  </way>
  <way id="18995352" version="4" timestamp="2010-02-14T15:50:26Z" uid="74617" user="JohnSmith" changeset="3874884">
    <nd ref="196661768"/>
    <nd ref="196672817"/>
    <nd ref="37118013"/>
    <tag k="highway" v="residential"/>
    <tag k="maxspeed" v="50"/>
    <tag k="name" v="Broughton Road"/>
    <tag k="oneway" v="yes"/>
  </way>
  <way id="18995352" version="5" timestamp="2010-02-26T17:45:48Z" uid="74617" user="JohnSmith" changeset="3982219"/>
  <way id="18995353" version="2" timestamp="2008-06-21T00:27:09Z" uid="30201" user="rrankin" changeset="237952"/>
  <way id="18995552" version="4" timestamp="2010-02-14T15:50:12Z" uid="74617" user="JohnSmith" changeset="3874884">
    <nd ref="196658974"/>
    <nd ref="196673995"/>
    <nd ref="196673996"/>
    <nd ref="196673997"/>
    <tag k="highway" v="residential"/>
    <tag k="maxspeed" v="50"/>
    <tag k="name" v="Armentieres Street"/>
  </way>
  <way id="18995601" version="4" timestamp="2010-02-14T15:50:26Z" uid="74617" user="JohnSmith" changeset="3874884">
    <nd ref="196658977"/>
    <nd ref="196674286"/>
    <nd ref="196674287"/>
    <tag k="highway" v="residential"/>
    <tag k="maxspeed" v="50"/>
    <tag k="name" v="Gail Street"/>
  </way>
  <way id="18995649" version="4" timestamp="2010-02-14T15:50:19Z" uid="74617" user="JohnSmith" changeset="3874884">
    <nd ref="196673996"/>
    <nd ref="196674626"/>
    <tag k="highway" v="residential"/>
    <tag k="maxspeed" v="50"/>
    <tag k="name" v="Gourlay Street"/>
  </way>
  <way id="18995654" version="7" timestamp="2010-07-08T01:00:46Z" uid="74617" user="JohnSmith" changeset="5162525">
    <nd ref="30382652"/>
    <nd ref="196674666"/>
    <nd ref="225703230"/>
    <tag k="highway" v="residential"/>
    <tag k="maxspeed" v="50"/>
    <tag k="maxspeed:source" v="default residential speed limit in Australia"/>
    <tag k="name" v="Wharf Road"/>
  </way>
  <way id="18995976" version="5" timestamp="2010-02-14T15:49:35Z" uid="74617" user="JohnSmith" changeset="3874884">
    <nd ref="196676016"/>
    <nd ref="196677065"/>
    <tag k="highway" v="residential"/>
    <tag k="maxspeed" v="50"/>
    <tag k="name" v="Glenfern Avenue"/>
  </way>
</osm>
