<?xml version='1.0' encoding='UTF-8'?>
<osm version="0.6" generator="libosmium/2.20.0">
  <way id="18997018" version="6" timestamp="2010-02-14T15:50:16Z" uid="74617" user="JohnSmith" changeset="3874884">
    <nd ref="196677691"/>
    <nd ref="80507603"/>
    <tag k="highway" v="residential"/>
    <tag k="maxspeed" v="50"/>
    <tag k="name" v="Hutchins Street"/>
  </way>
  <way id="18997023" version="5" timestamp="2010-07-08T00:57:50Z" uid="74617" user="JohnSmith" changeset="5162525">
    <nd ref="196683712"/>
    <nd ref="267846747"/>
    <nd ref="196687690"/>
    <nd ref="196683710"/>
    <nd ref="247181881"/>
    <nd ref="247181882"/>
    <nd ref="196683709"/>
    <tag k="highway" v="residential"/>
    <tag k="maxspeed" v="50"/>
    <tag k="maxspeed:source" v="default residential speed limit in Australia"/>
    <tag k="name" v="Murdoch Street"/>
  </way>
  <way id="18997059" version="6" timestamp="2010-07-08T00:59:11Z" uid="74617" user="JohnSmith" changeset="5162525">
    <nd ref="196683916"/>
    <nd ref="196685834"/>
    <nd ref="247181878"/>
    <nd ref="585681973"/>
    <nd ref="196683013"/>
    <tag k="highway" v="residential"/>
    <tag k="maxspeed" v="50"/>
    <tag k="maxspeed:source" v="default residential speed limit in Australia"/>
    <tag k="name" v="Spofforth Street"/>
  </way>
  <way id="18997125" version="7" timestamp="2010-01-06T05:46:23Z" uid="7617" user="Franc" changeset="3551041">
    <nd ref="606307282"/>
    <nd ref="196692214"/>
    <nd ref="247181876"/>
    <nd ref="196684867"/>
    <nd ref="247181882"/>
    <nd ref="196684406"/>
    <nd ref="247181878"/>
    <nd ref="247181877"/>
    <nd ref="196684039"/>
    <tag k="highway" v="residential"/>
    <tag k="name" v="Boronia Street"/>
  </way>
  <way id="18997125" version="8" timestamp="2010-07-08T00:57:55Z" uid="74617" user="JohnSmith" changeset="5162525">
    <nd ref="606307282"/>
    <nd ref="196692214"/>
    <nd ref="247181876"/>
    <nd ref="196684867"/>
    <nd ref="247181882"/>
    <nd ref="196684406"/>
    <nd ref="247181878"/>
    <nd ref="247181877"/>
    <nd ref="196684039"/>
    <tag k="highway" v="residential"/>
    <tag k="maxspeed" v="50"/>
    <tag k="maxspeed:source" v="default residential speed limit in Australia"/>
    <tag k="name" v="Boronia Street"/>
  </way>
  <way id="18997174" version="9" timestamp="2010-01-06T05:46:24Z" uid="7617" user="Franc" changeset="3551041">
    <nd ref="246771553"/>
    <nd ref="447600269"/>
    <nd ref="606307284"/>
    <tag k="highway" v="tertiary"/>
    <tag k="name" v="Broadoaks Street"/>
    <tag k="source" v="survey"/>
  </way>
  <way id="18997219" version="3" timestamp="2010-07-08T00:59:41Z" uid="74617" user="JohnSmith" changeset="5162525">
    <nd ref="196684867"/>
    <nd ref="196684865"/>
    <tag k="highway" v="residential"/>
    <tag k="maxspeed" v="50"/>
    <tag k="maxspeed:source" v="default residential speed limit in Australia"/>
    <tag k="name" v="Boyle Street"/>
  </way>
  <way id="18997268" version="5" timestamp="2010-04-21T14:00:08Z" uid="4467" user="Rosscoe" changeset="4486583">
    <nd ref="703233150"/>
    <nd ref="80507906"/>
    <nd ref="703233155"/>
    <nd ref="80507597"/>
    <nd ref="80507598"/>
    <nd ref="80507599"/>
    <nd ref="80503083"/>
    <tag k="highway" v="tertiary"/>
    <tag k="maxspeed" v="50"/>
    <tag k="name" v="Wayland Street"/>
    <tag k="source" v="nearmap"/>
  </way>
  <way id="18997316" version="2" timestamp="2010-03-27T23:26:56Z" uid="20587" user="balrog-kun" changeset="4250871">
    <nd ref="196684761"/>
    <nd ref="122806960"/>
    <tag k="created_by" v="JOSM"/>
    <tag k="highway" v="residential"/>
    <tag k="name" v="Bradbury Road"/>
    <tag k="tiger:cfcc" v="A41"/>
    <tag k="tiger:county" v="Los Angeles, CA"/>
    <tag k="tiger:name_base" v="Bradbury"/>
    <tag k="tiger:name_type" v="Rd"/>
    <tag k="tiger:separated" v="no"/>
    <tag k="tiger:source" v="tiger_import_dch_v0.6_20070809"/>
    <tag k="tiger:tlid" v="141573249:141573257:141573264"/>
    <tag k="tiger:zip_left" v="90064"/>
    <tag k="tiger:zip_right" v="90064"/>
  </way>
  <way id="18997319" version="3" timestamp="2010-03-27T23:26:57Z" uid="20587" user="balrog-kun" changeset="4250871">
    <nd ref="122716191"/>
    <nd ref="196638649"/>
    <nd ref="196638657"/>
    <nd ref="123015492"/>
    <nd ref="123015494"/>
    <nd ref="123005015"/>
    <nd ref="122649336"/>
    <nd ref="122815057"/>
    <nd ref="123015495"/>
    <nd ref="123015496"/>
    <nd ref="276603984"/>
    <nd ref="123015497"/>
    <tag k="created_by" v="Potlatch 0.9c"/>
    <tag k="highway" v="residential"/>
    <tag k="name" v="Patricia Avenue"/>
    <tag k="tiger:cfcc" v="A41"/>
    <tag k="tiger:county" v="Los Angeles, CA"/>
    <tag k="tiger:name_base" v="Patricia"/>
    <tag k="tiger:name_type" v="Ave"/>
    <tag k="tiger:separated" v="no"/>
    <tag k="tiger:source" v="tiger_import_dch_v0.6_20070809"/>
    <tag k="tiger:tlid" v="141573596:141573466:141573475:141573219:141573221:141573228:141573234:141573238:141573267:141573271:141573274:141573275:141573287:141573289:141573160:141573162"/>
    <tag k="tiger:zip_left" v="90064"/>
    <tag k="tiger:zip_right" v="90064"/>
  </way>
  <way id="18997350" version="3" timestamp="2010-03-27T23:26:57Z" uid="20587" user="balrog-kun" changeset="4250871">
    <nd ref="196685302"/>
    <nd ref="365355709"/>
    <nd ref="122421563"/>
    <tag k="bridge" v="yes"/>
    <tag k="created_by" v="Potlatch 0.10f"/>
    <tag k="highway" v="secondary"/>
    <tag k="layer" v="2"/>
    <tag k="name" v="Overland Avenue"/>
    <tag k="tiger:cfcc" v="A41"/>
    <tag k="tiger:county" v="Los Angeles, CA"/>
    <tag k="tiger:name_base" v="Overland"/>
    <tag k="tiger:name_type" v="Ave"/>
    <tag k="tiger:separated" v="no"/>
    <tag k="tiger:source" v="tiger_import_dch_v0.6_20070809"/>
    <tag k="tiger:tlid" v="141794978:141764771:141764697:141802580:141575549:141575572:141575573:141575576:141575582:141575585:141575593:141575595:141575597:141575599:141575486:141575488:141575499:141575363:141575367:141575368:141575369:141574304:142445235:142445237:142445238:14245"/>
    <tag k="tiger:zip_left" v="90230"/>
    <tag k="tiger:zip_right" v="90230"/>
  </way>
  <way id="18997355" version="3" timestamp="2010-07-08T01:00:19Z" uid="74617" user="JohnSmith" changeset="5162525">
    <nd ref="196685617"/>
    <nd ref="267846748"/>
    <nd ref="267846765"/>
    <nd ref="196685759"/>
    <tag k="highway" v="residential"/>
    <tag k="maxspeed" v="50"/>
    <tag k="maxspeed:source" v="default residential speed limit in Australia"/>
    <tag k="name" v="Turner Street"/>
  </way>
  <way id="18997357" version="10" timestamp="2010-03-27T23:26:58Z" uid="20587" user="balrog-kun" changeset="4250871">
    <nd ref="122421563"/>
    <nd ref="122734157"/>
    <nd ref="602430491"/>
    <nd ref="122694144"/>
    <nd ref="122655751"/>
    <nd ref="122655709"/>
    <nd ref="122668892"/>
    <nd ref="122971419"/>
    <nd ref="122971422"/>
    <nd ref="122971428"/>
    <nd ref="122971431"/>
    <nd ref="122971433"/>
    <nd ref="122629823"/>
    <nd ref="122971434"/>
    <nd ref="122971438"/>
    <nd ref="122971442"/>
    <nd ref="122971444"/>
    <nd ref="601382245"/>
    <nd ref="122971446"/>
    <nd ref="122971448"/>
    <nd ref="122971450"/>
    <nd ref="122971452"/>
    <nd ref="61751261"/>
    <nd ref="339036558"/>
    <nd ref="601384561"/>
    <nd ref="122971460"/>
    <nd ref="122897590"/>
    <nd ref="122971463"/>
    <nd ref="122971468"/>
    <nd ref="122971473"/>
    <nd ref="122971476"/>
    <nd ref="122971477"/>
    <nd ref="122971479"/>
    <nd ref="122971481"/>
    <tag k="highway" v="secondary"/>
    <tag k="name" v="Overland Avenue"/>
    <tag k="tiger:cfcc" v="A41"/>
    <tag k="tiger:county" v="Los Angeles, CA"/>
    <tag k="tiger:name_base" v="Overland"/>
    <tag k="tiger:name_type" v="Ave"/>
    <tag k="tiger:separated" v="no"/>
    <tag k="tiger:source" v="tiger_import_dch_v0.6_20070809"/>
    <tag k="tiger:tlid" v="141794978:141764771:141764697:141802580:141575549:141575572:141575573:141575576:141575582:141575585:141575593:141575595:141575597:141575599:141575486:141575488:141575499:141575363:141575367:141575368:141575369:141574304:142445235:142445237:142445238:14245"/>
    <tag k="tiger:zip_left" v="90230"/>
    <tag k="tiger:zip_right" v="90230"/>
  </way>
  <way id="18997410" version="3" timestamp="2008-06-21T01:17:08Z" uid="30201" user="rrankin" changeset="237952">
    <nd ref="196685834"/>
    <nd ref="247181881"/>
    <nd ref="196686117"/>
    <tag k="created_by" v="Potlatch 0.6"/>
    <tag k="highway" v="residential"/>
    <tag k="name" v="MacCartney Street"/>
  </way>
  <way id="18997410" version="5" timestamp="2010-07-08T00:58:21Z" uid="74617" user="JohnSmith" changeset="5162525">
    <nd ref="196685834"/>
    <nd ref="247181881"/>
    <nd ref="196686117"/>
    <tag k="highway" v="residential"/>
    <tag k="maxspeed" v="50"/>
    <tag k="maxspeed:source" v="default residential speed limit in Australia"/>
    <tag k="name" v="MacCartney Street"/>
  </way>
  <way id="18997452" version="4" timestamp="2009-06-22T02:07:42Z" uid="7617" user="Franc" changeset="1589764">
    <nd ref="196686247"/>
    <nd ref="267846745"/>
    <nd ref="267846750"/>
    <nd ref="267846746"/>
    <nd ref="267846747"/>
    <tag k="created_by" v="Potlatch 0.6"/>
    <tag k="highway" v="residential"/>
    <tag k="name" v="Ermington Lane"/>
  </way>
  <way id="18997452" version="5" timestamp="2010-07-08T00:59:11Z" uid="74617" user="JohnSmith" changeset="5162525">
    <nd ref="196686247"/>
    <nd ref="267846745"/>
    <nd ref="267846750"/>
    <nd ref="267846746"/>
    <nd ref="267846747"/>
    <tag k="highway" v="residential"/>
    <tag k="maxspeed" v="50"/>
    <tag k="maxspeed:source" v="default residential speed limit in Australia"/>
    <tag k="name" v="Ermington Lane"/>
  </way>
  <way id="18997499" version="2" timestamp="2008-06-21T01:17:06Z" uid="30201" user="rrankin" changeset="237952">
    <nd ref="196686418"/>
    <nd ref="196686601"/>
    <nd ref="196686603"/>
    <nd ref="196686604"/>
    <nd ref="196686605"/>
    <tag k="created_by" v="Potlatch 0.6"/>
    <tag k="highway" v="residential"/>
    <tag k="name" v="Linden Grove"/>
  </way>
  <way id="18997499" version="3" timestamp="2009-06-22T02:07:44Z" uid="7617" user="Franc" changeset="1589764">
    <nd ref="196686418"/>
    <nd ref="427850483"/>
    <nd ref="196686601"/>
    <nd ref="196686603"/>
    <nd ref="196686604"/>
    <nd ref="427850484"/>
    <nd ref="196686605"/>
    <tag k="created_by" v="Potlatch 0.6"/>
    <tag k="highway" v="residential"/>
    <tag k="name" v="Linden Grove"/>
  </way>
  <way id="18997499" version="4" timestamp="2010-02-27T06:07:16Z" uid="7617" user="Franc" changeset="3985815">
    <nd ref="196686418"/>
    <nd ref="427850483"/>
    <nd ref="196686601"/>
    <nd ref="654784190"/>
    <nd ref="654784192"/>
    <nd ref="196686603"/>
    <nd ref="196686604"/>
    <nd ref="427850484"/>
    <nd ref="196686605"/>
    <tag k="highway" v="residential"/>
    <tag k="name" v="Linden Grove"/>
  </way>
  <way id="18997499" version="5" timestamp="2010-07-08T00:58:10Z" uid="74617" user="JohnSmith" changeset="5162525">
    <nd ref="196686418"/>
    <nd ref="427850483"/>
    <nd ref="196686601"/>
    <nd ref="654784190"/>
    <nd ref="654784192"/>
    <nd ref="196686603"/>
    <nd ref="196686604"/>
    <nd ref="427850484"/>
    <nd ref="196686605"/>
    <tag k="highway" v="residential"/>
    <tag k="maxspeed" v="50"/>
    <tag k="maxspeed:source" v="default residential speed limit in Australia"/>
    <tag k="name" v="Linden Grove"/>
  </way>
  <way id="18997514" version="2" timestamp="2008-06-21T01:17:14Z" uid="30201" user="rrankin" changeset="237952">
    <nd ref="196686603"/>
    <nd ref="196686714"/>
    <tag k="created_by" v="Potlatch 0.6"/>
    <tag k="highway" v="residential"/>
    <tag k="name" v="Linden Grove"/>
  </way>
  <way id="18997514" version="3" timestamp="2010-07-08T00:57:11Z" uid="74617" user="JohnSmith" changeset="5162525">
    <nd ref="196686603"/>
    <nd ref="196686714"/>
    <tag k="highway" v="residential"/>
    <tag k="maxspeed" v="50"/>
    <tag k="maxspeed:source" v="default residential speed limit in Australia"/>
    <tag k="name" v="Linden Grove"/>
  </way>
  <way id="18997532" version="2" timestamp="2008-06-21T01:17:11Z" uid="30201" user="rrankin" changeset="237952">
    <nd ref="196686604"/>
    <nd ref="196686868"/>
    <tag k="created_by" v="Potlatch 0.6"/>
    <tag k="highway" v="residential"/>
    <tag k="name" v="Linden Grove"/>
  </way>
  <way id="18997532" version="3" timestamp="2010-07-08T01:01:15Z" uid="74617" user="JohnSmith" changeset="5162525">
    <nd ref="196686604"/>
    <nd ref="196686868"/>
    <tag k="highway" v="residential"/>
    <tag k="maxspeed" v="50"/>
    <tag k="maxspeed:source" v="default residential speed limit in Australia"/>
    <tag k="name" v="Linden Grove"/>
  </way>
  <way id="18997535" version="3" timestamp="2010-02-14T15:49:34Z" uid="74617" user="JohnSmith" changeset="3874884">
    <nd ref="70764057"/>
    <nd ref="196677691"/>
    <nd ref="196686888"/>
    <tag k="highway" v="residential"/>
    <tag k="maxspeed" v="50"/>
    <tag k="name" v="Brockman Street"/>
  </way>
  <way id="18997560" version="3" timestamp="2010-07-08T00:58:26Z" uid="74617" user="JohnSmith" changeset="5162525">
    <nd ref="196686891"/>
    <nd ref="196687021"/>
    <nd ref="196687022"/>
    <tag k="highway" v="residential"/>
    <tag k="maxspeed" v="50"/>
    <tag k="maxspeed:source" v="default residential speed limit in Australia"/>
    <tag k="name" v="Swane Street"/>
  </way>
  <way id="18997583" version="2" timestamp="2008-06-21T01:17:05Z" uid="30201" user="rrankin" changeset="237952">
    <nd ref="196687199"/>
    <nd ref="196687021"/>
    <nd ref="196687367"/>
    <tag k="created_by" v="Potlatch 0.6"/>
    <tag k="highway" v="residential"/>
    <tag k="name" v="Jervis Street"/>
  </way>
  <way id="18997583" version="3" timestamp="2010-02-27T06:07:16Z" uid="7617" user="Franc" changeset="3985815">
    <nd ref="196687199"/>
    <nd ref="654784196"/>
    <nd ref="196687021"/>
    <nd ref="196687367"/>
    <tag k="highway" v="residential"/>
    <tag k="name" v="Jervis Street"/>
  </way>
  <way id="18997583" version="4" timestamp="2010-07-08T00:59:32Z" uid="74617" user="JohnSmith" changeset="5162525">
    <nd ref="196687199"/>
    <nd ref="654784196"/>
    <nd ref="196687021"/>
    <nd ref="196687367"/>
    <tag k="highway" v="residential"/>
    <tag k="maxspeed" v="50"/>
    <tag k="maxspeed:source" v="default residential speed limit in Australia"/>
    <tag k="name" v="Jervis Street"/>
  </way>
  <way id="18997583" version="5" timestamp="2010-12-26T11:29:16Z" uid="7617" user="Franc" changeset="6767159">
    <nd ref="196687199"/>
    <nd ref="654784196"/>
    <nd ref="1065483530"/>
    <nd ref="196687021"/>
    <nd ref="196687367"/>
    <tag k="highway" v="residential"/>
    <tag k="maxspeed" v="50"/>
    <tag k="maxspeed:source" v="default residential speed limit in Australia"/>
    <tag k="name" v="Jervis Street"/>
  </way>
  <way id="18997601" version="2" timestamp="2008-06-21T01:17:19Z" uid="30201" user="rrankin" changeset="237952"/>
  <way id="18997655" version="3" timestamp="2009-06-22T02:07:48Z" uid="7617" user="Franc" changeset="1589764"/>
  <way id="18997701" version="4" timestamp="2010-02-14T15:50:16Z" uid="74617" user="JohnSmith" changeset="3874884">
    <nd ref="80507604"/>
    <nd ref="114636644"/>
    <nd ref="196613059"/>
    <tag k="highway" v="tertiary"/>
    <tag k="name" v="Wood Street"/>
  </way>
  <way id="18997721" version="6" timestamp="2010-07-08T01:43:47Z" uid="74617" user="JohnSmith" changeset="5162525">
    <nd ref="196687935"/>
    <nd ref="247183152"/>
    <nd ref="196688073"/>
    <nd ref="196690263"/>
    <nd ref="196688074"/>
    <nd ref="196688077"/>
    <tag k="highway" v="residential"/>
    <tag k="maxspeed" v="50"/>
    <tag k="maxspeed:source" v="default residential speed limit in Australia"/>
    <tag k="name" v="Jackson Street"/>
  </way>
  <way id="18997721" version="7" timestamp="2010-12-27T10:17:26Z" uid="7617" user="Franc" changeset="6775930">
    <nd ref="196687935"/>
    <nd ref="247183152"/>
    <nd ref="1067430340"/>
    <nd ref="196688073"/>
    <nd ref="1067430714"/>
    <nd ref="196690263"/>
    <nd ref="1067430096"/>
    <nd ref="1067430341"/>
    <tag k="highway" v="residential"/>
    <tag k="maxspeed" v="50"/>
    <tag k="maxspeed:source" v="default residential speed limit in Australia"/>
    <tag k="name" v="Jackson Street"/>
  </way>
  <way id="18997739" version="5" timestamp="2010-02-14T15:50:19Z" uid="74617" user="JohnSmith" changeset="3874884">
    <nd ref="196688140"/>
    <nd ref="196674626"/>
    <nd ref="196688143"/>
    <tag k="highway" v="residential"/>
    <tag k="maxspeed" v="50"/>
    <tag k="name" v="Gourlay Street"/>
  </way>
  <way id="18997860" version="5" timestamp="2010-07-08T01:46:36Z" uid="74617" user="JohnSmith" changeset="5162525">
    <nd ref="196688443"/>
    <nd ref="196688761"/>
    <nd ref="196688762"/>
    <nd ref="196688763"/>
    <nd ref="196688764"/>
    <tag k="highway" v="residential"/>
    <tag k="maxspeed" v="50"/>
    <tag k="maxspeed:source" v="default residential speed limit in Australia"/>
    <tag k="name" v="Lindsay Avenue"/>
  </way>
  <way id="18997925" version="4" timestamp="2010-07-08T01:43:54Z" uid="74617" user="JohnSmith" changeset="5162525">
    <nd ref="196689157"/>
    <nd ref="196689156"/>
    <nd ref="196689154"/>
    <nd ref="196689152"/>
    <nd ref="196688771"/>
    <nd ref="196688761"/>
    <tag k="highway" v="residential"/>
    <tag k="maxspeed" v="50"/>
    <tag k="maxspeed:source" v="default residential speed limit in Australia"/>
    <tag k="name" v="Hilder Road"/>
  </way>
  <way id="18997925" version="5" timestamp="2010-12-26T11:29:15Z" uid="7617" user="Franc" changeset="6767159">
    <nd ref="196689157"/>
    <nd ref="196689156"/>
    <nd ref="196689154"/>
    <nd ref="1065483544"/>
    <nd ref="196689152"/>
    <nd ref="196688771"/>
    <nd ref="196688761"/>
    <tag k="highway" v="residential"/>
    <tag k="maxspeed" v="50"/>
    <tag k="maxspeed:source" v="default residential speed limit in Australia"/>
    <tag k="name" v="Hilder Road"/>
  </way>
  <way id="18997949" version="4" timestamp="2010-07-08T01:46:20Z" uid="74617" user="JohnSmith" changeset="5162525">
    <nd ref="196689177"/>
    <nd ref="60025556"/>
    <tag k="highway" v="residential"/>
    <tag k="maxspeed" v="50"/>
    <tag k="maxspeed:source" v="default residential speed limit in Australia"/>
    <tag k="name" v="South Street"/>
  </way>
  <way id="18997983" version="4" timestamp="2010-07-08T01:44:49Z" uid="74617" user="JohnSmith" changeset="5162525">
    <nd ref="196688077"/>
    <nd ref="196689538"/>
    <nd ref="196689539"/>
    <nd ref="196689540"/>
    <tag k="highway" v="residential"/>
    <tag k="maxspeed" v="50"/>
    <tag k="maxspeed:source" v="default residential speed limit in Australia"/>
    <tag k="name" v="Lister Avenue"/>
  </way>
</osm>
