<?xml version='1.0' encoding='UTF-8'?>
<osm version="0.6" generator="libosmium/2.20.0">
  <way id="18996374" version="3" timestamp="2010-02-27T06:07:15Z" uid="7617" user="Franc" changeset="3985815">
    <nd ref="196679795"/>
    <nd ref="196679796"/>
    <nd ref="196679798"/>
    <nd ref="196679799"/>
    <nd ref="196679795"/>
    <tag k="amenity" v="parking"/>
  </way>
  <way id="18996403" version="4" timestamp="2010-02-14T15:50:18Z" uid="74617" user="JohnSmith" changeset="3874884">
    <nd ref="114636641"/>
    <nd ref="196680022"/>
    <nd ref="196680023"/>
    <nd ref="196680024"/>
    <nd ref="196680025"/>
    <nd ref="196680026"/>
    <tag k="highway" v="residential"/>
    <tag k="maxspeed" v="50"/>
    <tag k="name" v="Hutchins Street"/>
  </way>
  <way id="18996712" version="5" timestamp="2010-02-27T04:11:12Z" uid="7617" user="Franc" changeset="3985554">
    <nd ref="196671473"/>
    <nd ref="654612326"/>
    <tag k="highway" v="tertiary"/>
    <tag k="name" v="Hope Street"/>
    <tag k="rcn" v="yes"/>
    <tag k="rcn_ref" v="Parramatta River"/>
    <tag k="restriction" v="school_zone"/>
  </way>
  <way id="18996712" version="6" timestamp="2010-02-27T06:07:16Z" uid="7617" user="Franc" changeset="3985815">
    <nd ref="196671473"/>
    <nd ref="654784217"/>
    <nd ref="654784200"/>
    <tag k="highway" v="tertiary"/>
    <tag k="name" v="Hope Street"/>
    <tag k="rcn" v="yes"/>
    <tag k="rcn_ref" v="Parramatta River"/>
    <tag k="restriction" v="school_zone"/>
  </way>
  <way id="18996766" version="5" timestamp="2008-06-21T01:17:05Z" uid="30201" user="rrankin" changeset="237952">
    <nd ref="196682157"/>
    <nd ref="267846751"/>
    <nd ref="196687022"/>
    <nd ref="196686605"/>
    <nd ref="196682159"/>
    <tag k="created_by" v="Potlatch 0.6"/>
    <tag k="highway" v="residential"/>
    <tag k="name" v="Hughes Avenue"/>
  </way>
  <way id="18996766" version="6" timestamp="2010-02-27T04:11:12Z" uid="7617" user="Franc" changeset="3985554">
    <nd ref="196682157"/>
    <nd ref="654612302"/>
    <tag k="highway" v="residential"/>
    <tag k="name" v="Hughes Avenue"/>
  </way>
  <way id="18996766" version="7" timestamp="2010-07-08T01:00:28Z" uid="74617" user="JohnSmith" changeset="5162525">
    <nd ref="196682157"/>
    <nd ref="654612302"/>
    <tag k="highway" v="residential"/>
    <tag k="maxspeed" v="50"/>
    <tag k="maxspeed:source" v="default residential speed limit in Australia"/>
    <tag k="name" v="Hughes Avenue"/>
  </way>
  <way id="18996832" version="10" timestamp="2010-07-08T01:00:13Z" uid="74617" user="JohnSmith" changeset="5162525">
    <nd ref="196682630"/>
    <nd ref="196683013"/>
    <nd ref="196682631"/>
    <nd ref="196682632"/>
    <tag k="highway" v="residential"/>
    <tag k="maxspeed" v="50"/>
    <tag k="maxspeed:source" v="default residential speed limit in Australia"/>
    <tag k="name" v="Gregory Street"/>
  </way>
  <way id="18996877" version="7" timestamp="2010-07-08T01:00:06Z" uid="74617" user="JohnSmith" changeset="5162525">
    <nd ref="196682631"/>
    <nd ref="585681958"/>
    <nd ref="585681962"/>
    <nd ref="247181877"/>
    <nd ref="247181879"/>
    <nd ref="196687689"/>
    <nd ref="267846764"/>
    <nd ref="196682994"/>
    <tag k="highway" v="residential"/>
    <tag k="maxspeed" v="50"/>
    <tag k="maxspeed:source" v="default residential speed limit in Australia"/>
    <tag k="name" v="Trumper Street"/>
  </way>
  <way id="18996877" version="8" timestamp="2010-12-27T10:17:05Z" uid="7617" user="Franc" changeset="6775930">
    <nd ref="196682631"/>
    <nd ref="585681958"/>
    <nd ref="585681962"/>
    <nd ref="247181877"/>
    <nd ref="247181879"/>
    <nd ref="196687689"/>
    <nd ref="267846764"/>
    <nd ref="1067430460"/>
    <nd ref="196682994"/>
    <tag k="highway" v="residential"/>
    <tag k="maxspeed" v="50"/>
    <tag k="maxspeed:source" v="default residential speed limit in Australia"/>
    <tag k="name" v="Trumper Street"/>
  </way>
  <way id="18996926" version="3" timestamp="2010-02-14T15:49:34Z" uid="74617" user="JohnSmith" changeset="3874884">
    <nd ref="70764127"/>
    <nd ref="196683233"/>
    <nd ref="196680026"/>
    <tag k="highway" v="residential"/>
    <tag k="maxspeed" v="50"/>
    <tag k="name" v="Turner Road"/>
  </way>
  <way id="18996977" version="11" timestamp="2010-07-08T00:59:02Z" uid="74617" user="JohnSmith" changeset="5162525">
    <nd ref="196683513"/>
    <nd ref="247181880"/>
    <nd ref="196685221"/>
    <nd ref="196683710"/>
    <nd ref="196685759"/>
    <nd ref="196683916"/>
    <nd ref="247181879"/>
    <nd ref="196683244"/>
    <tag k="highway" v="residential"/>
    <tag k="maxspeed" v="50"/>
    <tag k="maxspeed:source" v="default residential speed limit in Australia"/>
    <tag k="name" v="Marguerette Street"/>
  </way>
</osm>
