<?xml version='1.0' encoding='UTF-8'?>
<osm version="0.6" generator="libosmium/2.20.0">
  <way id="19015128" version="1" timestamp="2007-12-30T07:04:22Z" uid="18775" user="drlizau" changeset="482858">
    <nd ref="188131494"/>
    <nd ref="196932048"/>
    <nd ref="196932068"/>
    <tag k="created_by" v="JOSM"/>
    <tag k="highway" v="residential"/>
    <tag k="name" v="Merrowie Street"/>
  </way>
  <way id="19015128" version="2" timestamp="2008-03-03T23:22:14Z" uid="18775" user="drlizau" changeset="263253"/>
  <way id="19015130" version="1" timestamp="2007-12-30T07:04:23Z" uid="18775" user="drlizau" changeset="482858">
    <nd ref="188131494"/>
    <nd ref="196932181"/>
    <nd ref="196932204"/>
    <nd ref="196932226"/>
    <nd ref="196932251"/>
    <nd ref="134748666"/>
    <tag k="created_by" v="JOSM"/>
    <tag k="highway" v="residential"/>
    <tag k="name" v="Merrigal Street"/>
  </way>
  <way id="19015130" version="2" timestamp="2008-02-17T07:11:05Z" uid="18775" user="drlizau" changeset="137352">
    <nd ref="188131494"/>
    <nd ref="196932181"/>
    <nd ref="196932204"/>
    <nd ref="196932226"/>
    <nd ref="196932251"/>
    <nd ref="247969581"/>
    <nd ref="134748666"/>
    <tag k="created_by" v="JOSM"/>
    <tag k="highway" v="residential"/>
    <tag k="name" v="Merrigal Street"/>
  </way>
  <way id="19015130" version="3" timestamp="2008-03-03T23:22:11Z" uid="18775" user="drlizau" changeset="263253">
    <nd ref="196932402"/>
    <nd ref="196938953"/>
    <nd ref="247734471"/>
    <nd ref="188131429"/>
    <nd ref="188128556"/>
    <nd ref="196932048"/>
    <nd ref="188131494"/>
    <nd ref="196932181"/>
    <nd ref="196932204"/>
    <nd ref="196932226"/>
    <nd ref="196932251"/>
    <nd ref="247969581"/>
    <nd ref="134748666"/>
    <tag k="created_by" v="JOSM"/>
    <tag k="highway" v="residential"/>
    <tag k="name" v="Merrigal Street"/>
  </way>
  <way id="19015130" version="4" timestamp="2008-04-27T10:12:16Z" uid="19626" user="Swamp" changeset="270222">
    <nd ref="196932402"/>
    <nd ref="196938953"/>
    <nd ref="247734471"/>
    <nd ref="188131429"/>
    <nd ref="188128556"/>
    <nd ref="196932048"/>
    <nd ref="188131494"/>
    <nd ref="196932181"/>
    <nd ref="196932204"/>
    <nd ref="196932226"/>
    <nd ref="196932251"/>
    <nd ref="247969581"/>
    <nd ref="134748666"/>
    <tag k="created_by" v="JOSM"/>
    <tag k="highway" v="residential"/>
    <tag k="maxspeed" v="50"/>
    <tag k="name" v="Merrigal Street"/>
  </way>
  <way id="19015130" version="5" timestamp="2008-11-16T11:10:43Z" uid="18775" user="drlizau" changeset="756879">
    <nd ref="196932402"/>
    <nd ref="196938953"/>
    <nd ref="247734471"/>
    <nd ref="188131429"/>
    <nd ref="188128556"/>
    <nd ref="196932048"/>
    <nd ref="188131494"/>
    <nd ref="196932181"/>
    <nd ref="196932204"/>
    <nd ref="196932226"/>
    <nd ref="196932251"/>
    <nd ref="247969581"/>
    <nd ref="134748666"/>
    <tag k="created_by" v="JOSM"/>
    <tag k="highway" v="residential"/>
    <tag k="maxspeed" v="50"/>
    <tag k="name" v="Merrigal Street"/>
  </way>
  <way id="19015130" version="6" timestamp="2008-11-16T11:37:54Z" uid="18775" user="drlizau" changeset="756879">
    <nd ref="196932402"/>
    <nd ref="196938953"/>
    <nd ref="247734471"/>
    <nd ref="188131429"/>
    <nd ref="188128556"/>
    <nd ref="196932048"/>
    <nd ref="188131494"/>
    <nd ref="196932181"/>
    <nd ref="196932204"/>
    <nd ref="196932226"/>
    <nd ref="196932251"/>
    <nd ref="247969581"/>
    <nd ref="134748666"/>
    <tag k="created_by" v="JOSM"/>
    <tag k="highway" v="residential"/>
    <tag k="maxspeed" v="50"/>
    <tag k="name" v="Merrigal Street"/>
    <tag k="source" v="survey"/>
  </way>
  <way id="19015130" version="7" timestamp="2009-06-16T09:51:52Z" uid="18775" user="drlizau" changeset="1533488"/>
  <way id="19015133" version="1" timestamp="2007-12-30T07:04:24Z" uid="18775" user="drlizau" changeset="482858">
    <nd ref="196932115"/>
    <nd ref="196932276"/>
    <nd ref="196932251"/>
    <tag k="created_by" v="JOSM"/>
  </way>
  <way id="19015133" version="2" timestamp="2007-12-30T07:08:27Z" uid="18775" user="drlizau" changeset="482858">
    <nd ref="196932115"/>
    <nd ref="196932276"/>
    <nd ref="196932251"/>
    <tag k="created_by" v="JOSM"/>
    <tag k="highway" v="residential"/>
    <tag k="name" v="Coonong Street"/>
  </way>
  <way id="19015133" version="3" timestamp="2008-04-27T10:12:17Z" uid="19626" user="Swamp" changeset="270222">
    <nd ref="196932115"/>
    <nd ref="196932276"/>
    <nd ref="196932251"/>
    <tag k="created_by" v="JOSM"/>
    <tag k="highway" v="residential"/>
    <tag k="maxspeed" v="50"/>
    <tag k="name" v="Coonong Street"/>
  </way>
  <way id="19015133" version="4" timestamp="2008-11-16T11:10:48Z" uid="18775" user="drlizau" changeset="756879">
    <nd ref="196932115"/>
    <nd ref="196932276"/>
    <nd ref="196932251"/>
    <tag k="created_by" v="JOSM"/>
    <tag k="highway" v="residential"/>
    <tag k="maxspeed" v="50"/>
    <tag k="name" v="Coonong Street"/>
  </way>
  <way id="19015133" version="5" timestamp="2008-11-16T11:37:59Z" uid="18775" user="drlizau" changeset="756879">
    <nd ref="196932115"/>
    <nd ref="196932276"/>
    <nd ref="196932251"/>
    <tag k="created_by" v="JOSM"/>
    <tag k="highway" v="residential"/>
    <tag k="maxspeed" v="50"/>
    <tag k="name" v="Coonong Street"/>
    <tag k="source" v="survey"/>
  </way>
  <way id="19015133" version="6" timestamp="2009-07-25T04:16:13Z" uid="74617" user="JohnSmith" changeset="1930637">
    <nd ref="196932115"/>
    <nd ref="196932276"/>
    <nd ref="196932251"/>
    <tag k="highway" v="residential"/>
    <tag k="maxspeed" v="50"/>
    <tag k="name" v="Coonong Street"/>
    <tag k="source" v="survey"/>
  </way>
  <way id="19015135" version="1" timestamp="2007-12-30T07:04:25Z" uid="18775" user="drlizau" changeset="482858">
    <nd ref="196932276"/>
    <nd ref="196932204"/>
    <tag k="created_by" v="JOSM"/>
  </way>
  <way id="19015135" version="2" timestamp="2007-12-30T07:08:28Z" uid="18775" user="drlizau" changeset="482858">
    <nd ref="196932276"/>
    <nd ref="196932204"/>
    <tag k="created_by" v="JOSM"/>
    <tag k="highway" v="residential"/>
    <tag k="name" v="Doongara Street"/>
  </way>
  <way id="19015135" version="3" timestamp="2008-04-27T10:12:19Z" uid="19626" user="Swamp" changeset="270222">
    <nd ref="196932276"/>
    <nd ref="196932204"/>
    <tag k="created_by" v="JOSM"/>
    <tag k="highway" v="residential"/>
    <tag k="maxspeed" v="50"/>
    <tag k="name" v="Doongara Street"/>
  </way>
  <way id="19015135" version="4" timestamp="2008-11-16T11:10:55Z" uid="18775" user="drlizau" changeset="756879">
    <nd ref="196932276"/>
    <nd ref="196932204"/>
    <tag k="created_by" v="JOSM"/>
    <tag k="highway" v="residential"/>
    <tag k="maxspeed" v="50"/>
    <tag k="name" v="Doongara Street"/>
  </way>
  <way id="19015135" version="5" timestamp="2008-11-16T11:38:06Z" uid="18775" user="drlizau" changeset="756879">
    <nd ref="196932276"/>
    <nd ref="196932204"/>
    <tag k="created_by" v="JOSM"/>
    <tag k="highway" v="residential"/>
    <tag k="maxspeed" v="50"/>
    <tag k="name" v="Doongara Street"/>
    <tag k="source" v="survey"/>
  </way>
  <way id="19015135" version="6" timestamp="2009-07-25T04:16:22Z" uid="74617" user="JohnSmith" changeset="1930637">
    <nd ref="196932276"/>
    <nd ref="196932204"/>
    <tag k="highway" v="residential"/>
    <tag k="maxspeed" v="50"/>
    <tag k="name" v="Doongara Street"/>
    <tag k="source" v="survey"/>
  </way>
  <way id="19015139" version="1" timestamp="2007-12-30T07:04:26Z" uid="18775" user="drlizau" changeset="482858">
    <nd ref="196932156"/>
    <nd ref="196932181"/>
    <tag k="created_by" v="JOSM"/>
  </way>
  <way id="19015139" version="2" timestamp="2007-12-30T07:08:29Z" uid="18775" user="drlizau" changeset="482858">
    <nd ref="196932156"/>
    <nd ref="196932181"/>
    <tag k="created_by" v="JOSM"/>
    <tag k="highway" v="residential"/>
    <tag k="name" v="Bringan Street"/>
  </way>
  <way id="19015139" version="3" timestamp="2008-04-27T10:12:07Z" uid="19626" user="Swamp" changeset="270222">
    <nd ref="196932156"/>
    <nd ref="196932181"/>
    <tag k="created_by" v="JOSM"/>
    <tag k="highway" v="residential"/>
    <tag k="maxspeed" v="50"/>
    <tag k="name" v="Bringan Street"/>
  </way>
  <way id="19015139" version="4" timestamp="2008-11-16T11:07:38Z" uid="18775" user="drlizau" changeset="756879">
    <nd ref="196932156"/>
    <nd ref="196932181"/>
    <tag k="created_by" v="JOSM"/>
    <tag k="highway" v="residential"/>
    <tag k="maxspeed" v="50"/>
    <tag k="name" v="Bringan Street"/>
  </way>
  <way id="19015139" version="5" timestamp="2008-11-16T11:35:26Z" uid="18775" user="drlizau" changeset="756879">
    <nd ref="196932156"/>
    <nd ref="196932181"/>
    <tag k="created_by" v="JOSM"/>
    <tag k="highway" v="residential"/>
    <tag k="maxspeed" v="50"/>
    <tag k="name" v="Bringan Street"/>
    <tag k="source" v="survey"/>
  </way>
  <way id="19015139" version="6" timestamp="2009-07-25T04:16:24Z" uid="74617" user="JohnSmith" changeset="1930637">
    <nd ref="196932156"/>
    <nd ref="196932181"/>
    <tag k="highway" v="residential"/>
    <tag k="maxspeed" v="50"/>
    <tag k="name" v="Bringan Street"/>
    <tag k="source" v="survey"/>
  </way>
  <way id="19015142" version="1" timestamp="2007-12-30T07:04:27Z" uid="18775" user="drlizau" changeset="482858">
    <nd ref="196932226"/>
    <nd ref="196932376"/>
    <nd ref="196932304"/>
    <tag k="created_by" v="JOSM"/>
    <tag k="highway" v="residential"/>
    <tag k="name" v="Moses Street"/>
  </way>
  <way id="19015142" version="2" timestamp="2008-11-16T11:07:53Z" uid="18775" user="drlizau" changeset="756879">
    <nd ref="196932226"/>
    <nd ref="196932376"/>
    <nd ref="196932304"/>
    <tag k="created_by" v="JOSM"/>
    <tag k="highway" v="residential"/>
    <tag k="name" v="Moses Street"/>
  </way>
  <way id="19015142" version="3" timestamp="2008-11-16T11:35:36Z" uid="18775" user="drlizau" changeset="756879">
    <nd ref="196932226"/>
    <nd ref="196932376"/>
    <nd ref="196932304"/>
    <tag k="created_by" v="JOSM"/>
    <tag k="highway" v="residential"/>
    <tag k="name" v="Moses Street"/>
    <tag k="source" v="survey"/>
  </way>
  <way id="19015142" version="4" timestamp="2009-07-25T04:16:20Z" uid="74617" user="JohnSmith" changeset="1930637">
    <nd ref="196932226"/>
    <nd ref="196932376"/>
    <nd ref="196932304"/>
    <tag k="highway" v="residential"/>
    <tag k="name" v="Moses Street"/>
    <tag k="source" v="survey"/>
  </way>
  <way id="19015142" version="5" timestamp="2010-07-07T08:12:12Z" uid="74617" user="JohnSmith" changeset="5156250">
    <nd ref="196932226"/>
    <nd ref="196932376"/>
    <nd ref="196932304"/>
    <tag k="highway" v="residential"/>
    <tag k="maxspeed" v="50"/>
    <tag k="maxspeed:source" v="default residential speed limit in Australia"/>
    <tag k="name" v="Moses Street"/>
    <tag k="source" v="survey"/>
  </way>
  <way id="19015144" version="1" timestamp="2007-12-30T07:04:28Z" uid="18775" user="drlizau" changeset="482858">
    <nd ref="196932402"/>
    <nd ref="188131429"/>
    <nd ref="188131455"/>
    <nd ref="188131476"/>
    <nd ref="188128556"/>
    <nd ref="196932048"/>
    <nd ref="188131494"/>
    <tag k="created_by" v="JOSM"/>
    <tag k="highway" v="residential"/>
    <tag k="name" v="Merrigal Street"/>
  </way>
  <way id="19015144" version="2" timestamp="2007-12-30T07:09:16Z" uid="18775" user="drlizau" changeset="482858">
    <nd ref="196932402"/>
    <nd ref="196938953"/>
    <nd ref="188131429"/>
    <nd ref="188131455"/>
    <nd ref="188131476"/>
    <nd ref="188128556"/>
    <nd ref="196932048"/>
    <nd ref="188131494"/>
    <tag k="created_by" v="JOSM"/>
    <tag k="highway" v="residential"/>
    <tag k="name" v="Merrigal Street"/>
  </way>
  <way id="19015144" version="3" timestamp="2007-12-30T07:23:03Z" uid="18775" user="drlizau" changeset="482858">
    <nd ref="196932402"/>
    <nd ref="196938953"/>
    <nd ref="188131429"/>
    <nd ref="188128556"/>
    <nd ref="196932048"/>
    <nd ref="188131494"/>
    <tag k="created_by" v="JOSM"/>
    <tag k="highway" v="residential"/>
    <tag k="name" v="Merrigal Street"/>
  </way>
  <way id="19015144" version="4" timestamp="2008-02-15T11:21:17Z" uid="19626" user="Swamp" changeset="124609">
    <nd ref="196932402"/>
    <nd ref="196938953"/>
    <nd ref="247734471"/>
    <nd ref="188131429"/>
    <nd ref="188128556"/>
    <nd ref="196932048"/>
    <nd ref="188131494"/>
    <tag k="created_by" v="JOSM"/>
    <tag k="highway" v="residential"/>
    <tag k="name" v="Merrigal Street"/>
  </way>
  <way id="19015144" version="5" timestamp="2008-02-20T11:15:00Z" uid="18775" user="drlizau" changeset="166503">
    <nd ref="196934284"/>
    <nd ref="248517908"/>
    <nd ref="248517450"/>
    <nd ref="247735621"/>
    <nd ref="196932402"/>
    <tag k="created_by" v="JOSM"/>
    <tag k="highway" v="residential"/>
    <tag k="name" v="Goondooloo Street"/>
  </way>
  <way id="19015144" version="6" timestamp="2008-03-16T07:06:45Z" uid="18775" user="drlizau" changeset="335458">
    <nd ref="188162279"/>
    <nd ref="248517908"/>
    <nd ref="248517450"/>
    <nd ref="247735621"/>
    <nd ref="196932402"/>
    <tag k="created_by" v="JOSM"/>
    <tag k="highway" v="residential"/>
    <tag k="name" v="Goondooloo Street"/>
  </way>
  <way id="19015144" version="7" timestamp="2008-04-26T06:40:35Z" uid="19626" user="Swamp" changeset="261567">
    <nd ref="188162279"/>
    <nd ref="248517908"/>
    <nd ref="248517450"/>
    <nd ref="247735621"/>
    <nd ref="196932402"/>
    <tag k="created_by" v="JOSM"/>
    <tag k="highway" v="residential"/>
    <tag k="maxspeed" v="50"/>
    <tag k="name" v="Goondooloo Street"/>
  </way>
  <way id="19015144" version="8" timestamp="2008-11-16T11:08:11Z" uid="18775" user="drlizau" changeset="756879">
    <nd ref="188162279"/>
    <nd ref="248517908"/>
    <nd ref="248517450"/>
    <nd ref="247735621"/>
    <nd ref="196932402"/>
    <tag k="created_by" v="JOSM"/>
    <tag k="highway" v="residential"/>
    <tag k="maxspeed" v="50"/>
    <tag k="name" v="Goondooloo Street"/>
  </way>
  <way id="19015144" version="9" timestamp="2008-11-16T11:35:48Z" uid="18775" user="drlizau" changeset="756879">
    <nd ref="188162279"/>
    <nd ref="248517908"/>
    <nd ref="248517450"/>
    <nd ref="247735621"/>
    <nd ref="196932402"/>
    <tag k="created_by" v="JOSM"/>
    <tag k="highway" v="residential"/>
    <tag k="maxspeed" v="50"/>
    <tag k="name" v="Goondooloo Street"/>
    <tag k="source" v="survey"/>
  </way>
  <way id="19015144" version="10" timestamp="2009-06-16T09:51:51Z" uid="18775" user="drlizau" changeset="1533488">
    <nd ref="188162279"/>
    <nd ref="248517908"/>
    <nd ref="248517450"/>
    <nd ref="247735621"/>
    <nd ref="421420998"/>
    <tag k="created_by" v="JOSM"/>
    <tag k="highway" v="residential"/>
    <tag k="maxspeed" v="50"/>
    <tag k="name" v="Goondooloo Street"/>
    <tag k="source" v="survey"/>
  </way>
  <way id="19015294" version="1" timestamp="2007-12-30T07:05:47Z" uid="18775" user="drlizau" changeset="482858">
    <nd ref="196934266"/>
    <nd ref="196934284"/>
    <nd ref="196932402"/>
    <tag k="created_by" v="JOSM"/>
    <tag k="highway" v="residential"/>
    <tag k="name" v="Goondooloo Street"/>
  </way>
  <way id="19015294" version="2" timestamp="2007-12-30T07:06:41Z" uid="18775" user="drlizau" changeset="482858">
    <nd ref="188162279"/>
    <nd ref="196934284"/>
    <tag k="created_by" v="JOSM"/>
    <tag k="highway" v="residential"/>
    <tag k="name" v="Goondooloo Street"/>
  </way>
  <way id="19015294" version="3" timestamp="2007-12-30T07:07:13Z" uid="18775" user="drlizau" changeset="482858">
    <nd ref="196934284"/>
    <nd ref="188162279"/>
    <nd ref="188162306"/>
    <nd ref="196911370"/>
    <nd ref="188162324"/>
    <nd ref="188162348"/>
    <tag k="created_by" v="JOSM"/>
    <tag k="highway" v="residential"/>
    <tag k="name" v="Cutler Street"/>
  </way>
  <way id="19015294" version="4" timestamp="2008-03-03T21:57:57Z" uid="18775" user="drlizau" changeset="263253">
    <nd ref="196934284"/>
    <nd ref="188162279"/>
    <nd ref="188162306"/>
    <nd ref="196911370"/>
    <nd ref="188162324"/>
    <nd ref="188162348"/>
    <tag k="created_by" v="JOSM"/>
    <tag k="highway" v="residential"/>
    <tag k="name" v="Cutler Avenue"/>
  </way>
  <way id="19015294" version="5" timestamp="2008-03-04T03:35:52Z" uid="18775" user="drlizau" changeset="263319">
    <nd ref="196934284"/>
    <nd ref="188162279"/>
    <nd ref="188162306"/>
    <nd ref="250447215"/>
    <nd ref="196911370"/>
    <nd ref="188162324"/>
    <nd ref="188162348"/>
    <tag k="created_by" v="JOSM"/>
    <tag k="highway" v="residential"/>
    <tag k="name" v="Cutler Avenue"/>
  </way>
  <way id="19015294" version="6" timestamp="2008-03-16T07:06:48Z" uid="18775" user="drlizau" changeset="335458">
    <nd ref="188162279"/>
    <nd ref="188162306"/>
    <nd ref="250447215"/>
    <nd ref="196911370"/>
    <nd ref="188162324"/>
    <nd ref="188162348"/>
    <tag k="created_by" v="JOSM"/>
    <tag k="highway" v="residential"/>
    <tag k="name" v="Cutler Avenue"/>
  </way>
  <way id="19015294" version="7" timestamp="2008-11-16T11:03:44Z" uid="18775" user="drlizau" changeset="756879">
    <nd ref="188162279"/>
    <nd ref="188162306"/>
    <nd ref="250447215"/>
    <nd ref="196911370"/>
    <nd ref="188162324"/>
    <nd ref="188162348"/>
    <tag k="created_by" v="JOSM"/>
    <tag k="highway" v="residential"/>
    <tag k="name" v="Cutler Avenue"/>
  </way>
  <way id="19015294" version="8" timestamp="2008-11-16T11:32:17Z" uid="18775" user="drlizau" changeset="756879">
    <nd ref="188162279"/>
    <nd ref="188162306"/>
    <nd ref="250447215"/>
    <nd ref="196911370"/>
    <nd ref="188162324"/>
    <nd ref="188162348"/>
    <tag k="created_by" v="JOSM"/>
    <tag k="highway" v="residential"/>
    <tag k="name" v="Cutler Avenue"/>
    <tag k="source" v="survey"/>
  </way>
  <way id="19015294" version="9" timestamp="2009-07-25T04:16:20Z" uid="74617" user="JohnSmith" changeset="1930637">
    <nd ref="188162279"/>
    <nd ref="188162306"/>
    <nd ref="250447215"/>
    <nd ref="196911370"/>
    <nd ref="188162324"/>
    <nd ref="188162348"/>
    <tag k="highway" v="residential"/>
    <tag k="name" v="Cutler Avenue"/>
    <tag k="source" v="survey"/>
  </way>
  <way id="19015294" version="10" timestamp="2010-07-07T08:12:09Z" uid="74617" user="JohnSmith" changeset="5156250">
    <nd ref="188162279"/>
    <nd ref="188162306"/>
    <nd ref="250447215"/>
    <nd ref="196911370"/>
    <nd ref="188162324"/>
    <nd ref="188162348"/>
    <tag k="highway" v="residential"/>
    <tag k="maxspeed" v="50"/>
    <tag k="maxspeed:source" v="default residential speed limit in Australia"/>
    <tag k="name" v="Cutler Avenue"/>
    <tag k="source" v="survey"/>
  </way>
  <way id="19015389" version="2" timestamp="2010-06-29T19:15:27Z" uid="74617" user="JohnSmith" changeset="5108182">
    <nd ref="196935362"/>
    <nd ref="196935364"/>
    <nd ref="196935365"/>
    <nd ref="196935367"/>
    <nd ref="196935368"/>
    <nd ref="196935362"/>
    <tag k="fixme" v="sport=football is ambiguous, see http://wiki.osm.org/wiki/Football for more details"/>
    <tag k="sport" v="football"/>
  </way>
  <way id="19015393" version="1" timestamp="2007-12-30T07:06:37Z" uid="18775" user="drlizau" changeset="482858">
    <nd ref="196934284"/>
    <nd ref="196932402"/>
    <tag k="created_by" v="JOSM"/>
    <tag k="highway" v="residential"/>
    <tag k="name" v="Goondooloo Street"/>
  </way>
  <way id="19015393" version="2" timestamp="2008-02-15T11:43:17Z" uid="19626" user="Swamp" changeset="124609">
    <nd ref="196934284"/>
    <nd ref="247735621"/>
    <nd ref="196932402"/>
    <tag k="created_by" v="JOSM"/>
    <tag k="highway" v="residential"/>
    <tag k="name" v="Goondooloo Street"/>
  </way>
  <way id="19015393" version="3" timestamp="2008-02-20T10:59:38Z" uid="18775" user="drlizau" changeset="166503">
    <nd ref="196934284"/>
    <nd ref="248517450"/>
    <nd ref="247735621"/>
    <nd ref="196932402"/>
    <tag k="created_by" v="JOSM"/>
    <tag k="highway" v="residential"/>
    <tag k="name" v="Goondooloo Street"/>
  </way>
  <way id="19015393" version="4" timestamp="2008-02-20T11:15:02Z" uid="18775" user="drlizau" changeset="166503"/>
</osm>
