<?xml version='1.0' encoding='UTF-8'?>
<osm version="0.6" generator="libosmium/2.20.0">
  <way id="19023180" version="4" timestamp="2010-02-14T15:49:45Z" uid="74617" user="JohnSmith" changeset="3874884">
    <nd ref="79863845"/>
    <nd ref="197035011"/>
    <tag k="highway" v="residential"/>
    <tag k="maxspeed" v="50"/>
    <tag k="name" v="Roxby Street"/>
  </way>
  <way id="19023296" version="4" timestamp="2010-02-14T15:49:57Z" uid="74617" user="JohnSmith" changeset="3874884">
    <nd ref="197029007"/>
    <nd ref="197036202"/>
    <tag k="highway" v="residential"/>
    <tag k="maxspeed" v="50"/>
    <tag k="name" v="Victoria Terrace"/>
  </way>
  <way id="19023301" version="4" timestamp="2010-02-14T15:49:51Z" uid="74617" user="JohnSmith" changeset="3874884">
    <nd ref="196644345"/>
    <nd ref="196646060"/>
    <nd ref="196646925"/>
    <tag k="highway" v="residential"/>
    <tag k="maxspeed" v="50"/>
    <tag k="name" v="Hamilton Street"/>
  </way>
  <way id="19023578" version="4" timestamp="2010-02-14T15:49:41Z" uid="74617" user="JohnSmith" changeset="3874884">
    <nd ref="197040621"/>
    <nd ref="196647333"/>
    <nd ref="197040623"/>
    <nd ref="197040624"/>
    <nd ref="197040626"/>
    <nd ref="197040627"/>
    <tag k="highway" v="residential"/>
    <tag k="maxspeed" v="50"/>
    <tag k="name" v="McCord Street"/>
    <tag k="note" v="extends further S to R"/>
  </way>
  <way id="19023619" version="5" timestamp="2010-02-14T15:50:05Z" uid="74617" user="JohnSmith" changeset="3874884">
    <nd ref="79670161"/>
    <nd ref="79706336"/>
    <nd ref="79711293"/>
    <tag k="highway" v="residential"/>
    <tag k="maxspeed" v="50"/>
    <tag k="name" v="Rentoul Street"/>
  </way>
  <way id="19023676" version="4" timestamp="2010-02-14T15:49:57Z" uid="74617" user="JohnSmith" changeset="3874884">
    <nd ref="197030325"/>
    <nd ref="197043638"/>
    <tag k="highway" v="residential"/>
    <tag k="maxspeed" v="50"/>
    <tag k="name" v="Hurst Street"/>
  </way>
  <way id="19023692" version="4" timestamp="2010-02-14T15:49:55Z" uid="74617" user="JohnSmith" changeset="3874884">
    <nd ref="197036086"/>
    <nd ref="197044271"/>
    <tag k="highway" v="residential"/>
    <tag k="maxspeed" v="50"/>
    <tag k="name" v="Burnaby Terrace"/>
  </way>
  <way id="19023817" version="4" timestamp="2010-07-06T08:32:06Z" uid="74617" user="JohnSmith" changeset="5147679">
    <nd ref="196748518"/>
    <nd ref="197048482"/>
    <nd ref="197048483"/>
    <nd ref="197048484"/>
    <tag k="highway" v="residential"/>
    <tag k="maxspeed" v="50"/>
    <tag k="maxspeed:source" v="default residential speed limit in Australia"/>
    <tag k="name" v="Jacaranda Close"/>
  </way>
  <way id="19023876" version="5" timestamp="2010-02-14T15:49:53Z" uid="74617" user="JohnSmith" changeset="3874884">
    <nd ref="197036202"/>
    <nd ref="197049801"/>
    <nd ref="197049802"/>
    <nd ref="197049803"/>
    <nd ref="197049805"/>
    <tag k="highway" v="residential"/>
    <tag k="maxspeed" v="50"/>
    <tag k="name" v="Victoria Terrace"/>
    <tag k="oneway" v="yes"/>
  </way>
  <way id="19023897" version="5" timestamp="2010-02-14T15:49:53Z" uid="74617" user="JohnSmith" changeset="3874884">
    <nd ref="197044271"/>
    <nd ref="197050630"/>
    <nd ref="80857122"/>
    <nd ref="197050631"/>
    <nd ref="197023930"/>
    <tag k="highway" v="residential"/>
    <tag k="maxspeed" v="50"/>
    <tag k="name" v="Burnaby Terrace"/>
    <tag k="oneway" v="yes"/>
  </way>
  <way id="19023898" version="4" timestamp="2010-02-14T15:49:57Z" uid="74617" user="JohnSmith" changeset="3874884">
    <nd ref="197049805"/>
    <nd ref="70703183"/>
    <tag k="highway" v="residential"/>
    <tag k="maxspeed" v="50"/>
    <tag k="name" v="Victoria Terrace"/>
  </way>
  <way id="19023908" version="4" timestamp="2010-02-14T15:49:53Z" uid="74617" user="JohnSmith" changeset="3874884">
    <nd ref="197023930"/>
    <nd ref="197051135"/>
    <nd ref="197051137"/>
    <nd ref="197044271"/>
    <tag k="highway" v="residential"/>
    <tag k="maxspeed" v="50"/>
    <tag k="name" v="Burnaby Terrace"/>
    <tag k="oneway" v="yes"/>
  </way>
  <way id="19023968" version="6" timestamp="2010-02-14T15:49:54Z" uid="74617" user="JohnSmith" changeset="3874884">
    <nd ref="197049805"/>
    <nd ref="197053346"/>
    <nd ref="197053348"/>
    <nd ref="197053730"/>
    <nd ref="197036202"/>
    <tag k="highway" v="residential"/>
    <tag k="maxspeed" v="50"/>
    <tag k="name" v="Victoria Terrace"/>
    <tag k="oneway" v="yes"/>
  </way>
  <way id="19023989" version="4" timestamp="2010-02-14T15:49:57Z" uid="74617" user="JohnSmith" changeset="3874884">
    <nd ref="197053348"/>
    <nd ref="197053862"/>
    <nd ref="197049802"/>
    <tag k="highway" v="residential"/>
    <tag k="maxspeed" v="50"/>
    <tag k="name" v="Victoria Terrace"/>
    <tag k="oneway" v="yes"/>
  </way>
</osm>
