<?xml version='1.0' encoding='UTF-8'?>
<osm version="0.6" generator="libosmium/2.20.0">
  <way id="19035773" version="2" timestamp="2010-07-08T00:03:40Z" uid="74617" user="JohnSmith" changeset="5162525">
    <nd ref="197216837"/>
    <nd ref="32561754"/>
    <tag k="bridge" v="yes"/>
    <tag k="highway" v="residential"/>
    <tag k="layer" v="1"/>
    <tag k="maxspeed" v="50"/>
    <tag k="maxspeed:source" v="default residential speed limit in Australia"/>
    <tag k="name" v="Baldwin Avenue"/>
  </way>
  <way id="19035773" version="3" timestamp="2010-07-08T00:13:59Z" uid="74617" user="JohnSmith" changeset="5162525">
    <nd ref="197216837"/>
    <nd ref="32561754"/>
    <tag k="bridge" v="yes"/>
    <tag k="highway" v="residential"/>
    <tag k="layer" v="1"/>
    <tag k="maxspeed" v="50"/>
    <tag k="maxspeed:source" v="default residential speed limit in Australia"/>
    <tag k="name" v="Baldwin Avenue"/>
  </way>
  <way id="19035996" version="6" timestamp="2010-07-06T09:48:07Z" uid="74617" user="JohnSmith" changeset="5147679">
    <nd ref="193586475"/>
    <nd ref="197218307"/>
    <nd ref="193587425"/>
    <nd ref="193585265"/>
    <tag k="highway" v="residential"/>
    <tag k="maxspeed" v="50"/>
    <tag k="maxspeed:source" v="default residential speed limit in Australia"/>
    <tag k="name" v="Waratah Street"/>
  </way>
</osm>
