<?xml version='1.0' encoding='UTF-8'?>
<osm version="0.6" generator="libosmium/2.20.0">
  <way id="19158188" version="4" timestamp="2010-05-07T14:27:29Z" uid="4467" user="Rosscoe" changeset="4630526">
    <nd ref="198698739"/>
    <nd ref="198699237"/>
    <tag k="created_by" v="Potlatch 0.6"/>
    <tag k="highway" v="residential"/>
    <tag k="name" v="Dempsey Place"/>
  </way>
  <way id="19158188" version="5" timestamp="2010-07-09T17:28:23Z" uid="74617" user="JohnSmith" changeset="5175333">
    <nd ref="198698739"/>
    <nd ref="198699237"/>
    <tag k="highway" v="residential"/>
    <tag k="maxspeed" v="50"/>
    <tag k="maxspeed:source" v="default residential speed limit in Australia"/>
    <tag k="name" v="Dempsey Place"/>
  </way>
  <way id="19158702" version="11" timestamp="2010-05-08T07:57:07Z" uid="4467" user="Rosscoe" changeset="4636353">
    <nd ref="198702080"/>
    <nd ref="725935353"/>
    <nd ref="198705778"/>
    <nd ref="198703970"/>
    <nd ref="198703972"/>
    <nd ref="198703973"/>
    <nd ref="198706397"/>
    <nd ref="198703976"/>
    <nd ref="198703978"/>
    <nd ref="198703979"/>
    <nd ref="198705372"/>
    <nd ref="198703981"/>
    <nd ref="198705144"/>
    <nd ref="198703982"/>
    <nd ref="198704923"/>
    <nd ref="198703984"/>
    <nd ref="577984290"/>
    <tag k="highway" v="tertiary"/>
    <tag k="name" v="Oliphant Street"/>
  </way>
  <way id="19158765" version="3" timestamp="2010-07-09T17:21:06Z" uid="74617" user="JohnSmith" changeset="5175333">
    <nd ref="198704052"/>
    <nd ref="198704705"/>
    <nd ref="198704706"/>
    <nd ref="198704707"/>
    <tag k="highway" v="residential"/>
    <tag k="maxspeed" v="50"/>
    <tag k="maxspeed:source" v="default residential speed limit in Australia"/>
    <tag k="name" v="Lalor Road"/>
  </way>
  <way id="19158790" version="2" timestamp="2010-07-09T17:25:15Z" uid="74617" user="JohnSmith" changeset="5175333">
    <nd ref="198704706"/>
    <nd ref="198704920"/>
    <nd ref="198704921"/>
    <nd ref="198704922"/>
    <nd ref="198704923"/>
    <tag k="highway" v="residential"/>
    <tag k="maxspeed" v="50"/>
    <tag k="maxspeed:source" v="default residential speed limit in Australia"/>
    <tag k="name" v="Powederbark Bypass"/>
  </way>
  <way id="19158811" version="2" timestamp="2010-07-09T17:25:42Z" uid="74617" user="JohnSmith" changeset="5175333">
    <nd ref="198704921"/>
    <nd ref="198705129"/>
    <tag k="highway" v="residential"/>
    <tag k="maxspeed" v="50"/>
    <tag k="maxspeed:source" v="default residential speed limit in Australia"/>
    <tag k="name" v="Mirret Court"/>
  </way>
  <way id="19158843" version="2" timestamp="2010-07-09T17:27:18Z" uid="74617" user="JohnSmith" changeset="5175333">
    <nd ref="198705144"/>
    <nd ref="198705345"/>
    <tag k="highway" v="residential"/>
    <tag k="maxspeed" v="50"/>
    <tag k="maxspeed:source" v="default residential speed limit in Australia"/>
    <tag k="name" v="Greygum Rise"/>
  </way>
  <way id="19158895" version="2" timestamp="2010-07-09T17:27:22Z" uid="74617" user="JohnSmith" changeset="5175333">
    <nd ref="198705372"/>
    <nd ref="198705762"/>
    <nd ref="198705763"/>
    <tag k="highway" v="residential"/>
    <tag k="maxspeed" v="50"/>
    <tag k="maxspeed:source" v="default residential speed limit in Australia"/>
    <tag k="name" v="Needlewood Rise"/>
  </way>
  <way id="19158972" version="2" timestamp="2010-07-09T17:28:10Z" uid="74617" user="JohnSmith" changeset="5175333">
    <nd ref="198705778"/>
    <nd ref="198706353"/>
    <nd ref="198706354"/>
    <tag k="highway" v="residential"/>
    <tag k="maxspeed" v="50"/>
    <tag k="maxspeed:source" v="default residential speed limit in Australia"/>
    <tag k="name" v="Boab Cove"/>
  </way>
</osm>
