<?xml version='1.0' encoding='UTF-8'?>
<osm version="0.6" generator="libosmium/2.20.0">
  <way id="19181191" version="3" timestamp="2008-03-02T21:38:29Z" uid="7617" user="Franc" changeset="254011">
    <nd ref="31199919"/>
    <nd ref="31200033"/>
    <nd ref="31199916"/>
    <nd ref="31199920"/>
    <nd ref="31199929"/>
    <nd ref="31199940"/>
    <nd ref="250199968"/>
    <nd ref="31199922"/>
    <tag k="created_by" v="Potlatch 0.6"/>
    <tag k="highway" v="residential"/>
    <tag k="name" v="Hay Street"/>
  </way>
  <way id="19181191" version="4" timestamp="2008-03-19T11:57:52Z" uid="7617" user="Franc" changeset="351245">
    <nd ref="31199919"/>
    <nd ref="252864947"/>
    <nd ref="31200033"/>
    <nd ref="31199916"/>
    <nd ref="31199920"/>
    <nd ref="31199929"/>
    <nd ref="31199940"/>
    <nd ref="250199968"/>
    <nd ref="31199922"/>
    <tag k="created_by" v="Potlatch 0.6"/>
    <tag k="highway" v="residential"/>
    <tag k="name" v="Hay Street"/>
  </way>
  <way id="19181191" version="5" timestamp="2010-07-08T02:37:43Z" uid="74617" user="JohnSmith" changeset="5163091">
    <nd ref="31199919"/>
    <nd ref="252864947"/>
    <nd ref="31200033"/>
    <nd ref="31199916"/>
    <nd ref="31199920"/>
    <nd ref="31199929"/>
    <nd ref="31199940"/>
    <nd ref="250199968"/>
    <nd ref="31199922"/>
    <tag k="highway" v="residential"/>
    <tag k="maxspeed" v="50"/>
    <tag k="maxspeed:source" v="default residential speed limit in Australia"/>
    <tag k="name" v="Hay Street"/>
  </way>
  <way id="19181191" version="6" timestamp="2010-11-28T02:54:26Z" uid="7617" user="Franc" changeset="6475026">
    <nd ref="31199919"/>
    <nd ref="252864947"/>
    <nd ref="31200033"/>
    <nd ref="31199916"/>
    <nd ref="31199920"/>
    <nd ref="31199929"/>
    <nd ref="31199940"/>
    <nd ref="1009876212"/>
    <nd ref="1009876239"/>
    <nd ref="250199968"/>
    <nd ref="31199922"/>
    <tag k="highway" v="residential"/>
    <tag k="maxspeed" v="50"/>
    <tag k="maxspeed:source" v="default residential speed limit in Australia"/>
    <tag k="name" v="Hay Street"/>
  </way>
  <way id="19181495" version="3" timestamp="2010-02-06T04:43:17Z" uid="30201" user="rrankin" changeset="3802628">
    <nd ref="198931413"/>
    <nd ref="198932106"/>
    <nd ref="198932107"/>
    <nd ref="631371862"/>
    <nd ref="631371863"/>
    <nd ref="198932108"/>
    <tag k="highway" v="residential"/>
    <tag k="name" v="Wentworth Street"/>
  </way>
  <way id="19181495" version="4" timestamp="2010-05-30T08:34:14Z" uid="7617" user="Franc" changeset="4849455">
    <nd ref="198931413"/>
    <nd ref="198932106"/>
    <nd ref="198932107"/>
    <nd ref="631371862"/>
    <nd ref="631371863"/>
    <nd ref="758653525"/>
    <nd ref="198932108"/>
    <tag k="highway" v="residential"/>
    <tag k="name" v="Wentworth Street"/>
  </way>
  <way id="19181495" version="5" timestamp="2010-07-08T02:38:03Z" uid="74617" user="JohnSmith" changeset="5163091">
    <nd ref="198931413"/>
    <nd ref="198932106"/>
    <nd ref="198932107"/>
    <nd ref="631371862"/>
    <nd ref="631371863"/>
    <nd ref="758653525"/>
    <nd ref="198932108"/>
    <tag k="highway" v="residential"/>
    <tag k="maxspeed" v="50"/>
    <tag k="maxspeed:source" v="default residential speed limit in Australia"/>
    <tag k="name" v="Wentworth Street"/>
  </way>
  <way id="19181518" version="2" timestamp="2010-02-06T04:43:18Z" uid="30201" user="rrankin" changeset="3802628">
    <nd ref="198932106"/>
    <nd ref="631371881"/>
    <nd ref="198932375"/>
    <tag k="highway" v="residential"/>
    <tag k="name" v="Dunmore Street"/>
  </way>
  <way id="19181518" version="3" timestamp="2010-07-08T02:39:33Z" uid="74617" user="JohnSmith" changeset="5163091">
    <nd ref="198932106"/>
    <nd ref="631371881"/>
    <nd ref="198932375"/>
    <tag k="highway" v="residential"/>
    <tag k="maxspeed" v="50"/>
    <tag k="maxspeed:source" v="default residential speed limit in Australia"/>
    <tag k="name" v="Dunmore Street"/>
  </way>
  <way id="19181518" version="4" timestamp="2010-11-28T02:54:27Z" uid="7617" user="Franc" changeset="6475026">
    <nd ref="198932106"/>
    <nd ref="631371881"/>
    <nd ref="1009876257"/>
    <tag k="highway" v="residential"/>
    <tag k="maxspeed" v="50"/>
    <tag k="maxspeed:source" v="default residential speed limit in Australia"/>
    <tag k="name" v="Dunmore Street"/>
  </way>
  <way id="19181558" version="4" timestamp="2008-03-02T22:12:44Z" uid="7617" user="Franc" changeset="254011">
    <nd ref="198932693"/>
    <nd ref="198933094"/>
    <nd ref="198933097"/>
    <nd ref="211128692"/>
    <nd ref="211128209"/>
    <nd ref="198933099"/>
    <tag k="created_by" v="Potlatch 0.6a"/>
    <tag k="highway" v="residential"/>
    <tag k="name" v="Brighton Street"/>
  </way>
  <way id="19181558" version="5" timestamp="2009-12-07T05:36:42Z" uid="7617" user="Franc" changeset="3312613">
    <nd ref="198932693"/>
    <nd ref="198933094"/>
    <nd ref="198933097"/>
    <nd ref="582802017"/>
    <nd ref="211128692"/>
    <nd ref="582802066"/>
    <nd ref="211128209"/>
    <nd ref="582802073"/>
    <nd ref="198933099"/>
    <tag k="highway" v="residential"/>
    <tag k="name" v="Brighton Street"/>
  </way>
  <way id="19181558" version="6" timestamp="2009-12-20T21:20:56Z" uid="30201" user="rrankin" changeset="3417105">
    <nd ref="198932693"/>
    <nd ref="597441805"/>
    <nd ref="597441813"/>
    <tag k="highway" v="residential"/>
    <tag k="name" v="Brighton Street"/>
  </way>
  <way id="19181558" version="7" timestamp="2010-07-08T02:40:37Z" uid="74617" user="JohnSmith" changeset="5163091">
    <nd ref="198932693"/>
    <nd ref="597441805"/>
    <nd ref="597441813"/>
    <tag k="highway" v="residential"/>
    <tag k="maxspeed" v="50"/>
    <tag k="maxspeed:source" v="default residential speed limit in Australia"/>
    <tag k="name" v="Brighton Street"/>
  </way>
  <way id="19181558" version="8" timestamp="2010-11-28T02:54:23Z" uid="7617" user="Franc" changeset="6475026">
    <nd ref="198932693"/>
    <nd ref="1009876181"/>
    <tag k="highway" v="residential"/>
    <tag k="maxspeed" v="50"/>
    <tag k="maxspeed:source" v="default residential speed limit in Australia"/>
    <tag k="name" v="Brighton Street"/>
    <tag k="restriction" v="school_zone"/>
  </way>
  <way id="19181894" version="5" timestamp="2010-07-08T02:35:37Z" uid="74617" user="JohnSmith" changeset="5163091">
    <nd ref="35723978"/>
    <nd ref="198941338"/>
    <nd ref="198939795"/>
    <tag k="highway" v="residential"/>
    <tag k="maxspeed" v="50"/>
    <tag k="maxspeed:source" v="default residential speed limit in Australia"/>
    <tag k="name" v="Paisley Road"/>
  </way>
</osm>
