<?xml version='1.0' encoding='UTF-8'?>
<osm version="0.6" generator="libosmium/2.20.0">
  <way id="19225394" version="2" timestamp="2008-05-18T15:48:43Z" uid="33382" user="de_muur" changeset="475886">
    <nd ref="199559235"/>
    <nd ref="199561949"/>
    <nd ref="199561951"/>
    <nd ref="265594292"/>
    <nd ref="199561952"/>
    <nd ref="199561953"/>
    <nd ref="199561955"/>
    <nd ref="199561956"/>
    <nd ref="199561958"/>
    <nd ref="265594345"/>
    <nd ref="265594387"/>
    <nd ref="265594421"/>
    <nd ref="265594281"/>
    <tag k="created_by" v="Potlatch 0.6"/>
    <tag k="highway" v="unclassified"/>
    <tag k="name" v="Am Mühlenteich"/>
  </way>
  <way id="19225394" version="3" timestamp="2008-06-09T11:44:53Z" uid="33382" user="de_muur" changeset="106501">
    <nd ref="199559235"/>
    <nd ref="199561949"/>
    <nd ref="199561951"/>
    <nd ref="265594292"/>
    <nd ref="199561952"/>
    <nd ref="199561953"/>
    <nd ref="199561955"/>
    <nd ref="269334766"/>
    <nd ref="199561956"/>
    <nd ref="199561958"/>
    <nd ref="265594345"/>
    <nd ref="265594387"/>
    <nd ref="265594421"/>
    <nd ref="265594281"/>
    <tag k="created_by" v="Potlatch 0.6"/>
    <tag k="highway" v="unclassified"/>
    <tag k="name" v="Am Mühlenteich"/>
  </way>
  <way id="19225394" version="4" timestamp="2009-05-08T14:04:34Z" uid="33382" user="de_muur" changeset="1117858">
    <nd ref="199559235"/>
    <nd ref="199561949"/>
    <nd ref="199561951"/>
    <nd ref="265594292"/>
    <nd ref="199561952"/>
    <nd ref="199561953"/>
    <nd ref="199561955"/>
    <nd ref="269334766"/>
    <nd ref="199561956"/>
    <nd ref="199561958"/>
    <nd ref="265594345"/>
    <tag k="created_by" v="Potlatch 0.6"/>
    <tag k="highway" v="unclassified"/>
    <tag k="name" v="Am Mühlenteich"/>
  </way>
  <way id="19225394" version="6" timestamp="2009-12-26T21:21:27Z" uid="33382" user="de_muur" changeset="3458438">
    <nd ref="199559235"/>
    <nd ref="199561949"/>
    <nd ref="199561951"/>
    <nd ref="265594292"/>
    <tag k="highway" v="unclassified"/>
    <tag k="name" v="Am Mühlenteich"/>
  </way>
  <way id="19225394" version="7" timestamp="2009-12-29T21:51:34Z" uid="33382" user="de_muur" changeset="3485650">
    <nd ref="199559235"/>
    <nd ref="199561949"/>
    <nd ref="199561951"/>
    <nd ref="265594292"/>
    <tag k="highway" v="unclassified"/>
    <tag k="name" v="Am Mühlenteich"/>
    <tag k="surface" v="paved"/>
  </way>
  <way id="19225394" version="8" timestamp="2010-08-08T14:12:10Z" uid="33382" user="de_muur" changeset="5433553">
    <nd ref="199559235"/>
    <nd ref="199561949"/>
    <nd ref="199561951"/>
    <nd ref="265594292"/>
    <tag k="highway" v="residential"/>
    <tag k="name" v="Am Mühlenteich"/>
    <tag k="surface" v="paved"/>
  </way>
  <way id="19225540" version="1" timestamp="2007-12-31T18:45:02Z" uid="6454" user="B10xxx" changeset="492942">
    <nd ref="76993759"/>
    <nd ref="199563748"/>
    <tag k="created_by" v="Potlatch 0.6"/>
    <tag k="highway" v="residential"/>
  </way>
  <way id="19225680" version="3" timestamp="2008-05-04T14:00:19Z" uid="33382" user="de_muur" changeset="329490">
    <nd ref="199564267"/>
    <nd ref="199565487"/>
    <tag k="created_by" v="Potlatch 0.6"/>
    <tag k="foot" v="yes"/>
    <tag k="highway" v="residential"/>
    <tag k="name" v="Bahnhofstraße"/>
  </way>
  <way id="19225680" version="5" timestamp="2009-12-29T21:51:33Z" uid="33382" user="de_muur" changeset="3485650">
    <nd ref="199564267"/>
    <nd ref="286858127"/>
    <nd ref="199565487"/>
    <tag k="highway" v="residential"/>
    <tag k="name" v="Bahnhofstraße"/>
    <tag k="surface" v="paved"/>
  </way>
  <way id="19225680" version="6" timestamp="2010-12-30T16:50:56Z" uid="33382" user="de_muur" changeset="6811496">
    <nd ref="199564267"/>
    <nd ref="199565487"/>
    <tag k="highway" v="residential"/>
    <tag k="name" v="Bahnhofstraße"/>
    <tag k="surface" v="paved"/>
  </way>
  <way id="19225691" version="3" timestamp="2008-05-04T14:00:20Z" uid="33382" user="de_muur" changeset="329490">
    <nd ref="199565487"/>
    <nd ref="262140150"/>
    <nd ref="199565488"/>
    <tag k="bridge" v="yes"/>
    <tag k="created_by" v="Potlatch 0.6"/>
    <tag k="foot" v="yes"/>
    <tag k="highway" v="footway"/>
    <tag k="layer" v="1"/>
    <tag k="name" v="Bahnhofstraße"/>
  </way>
  <way id="19225691" version="4" timestamp="2009-12-29T21:51:33Z" uid="33382" user="de_muur" changeset="3485650">
    <nd ref="199565487"/>
    <nd ref="262140150"/>
    <nd ref="199565488"/>
    <tag k="bridge" v="yes"/>
    <tag k="highway" v="footway"/>
    <tag k="layer" v="1"/>
    <tag k="name" v="Bahnhofstraße"/>
  </way>
  <way id="19225699" version="2" timestamp="2008-05-04T14:00:21Z" uid="33382" user="de_muur" changeset="329490">
    <nd ref="199565488"/>
    <nd ref="199565489"/>
    <nd ref="199559235"/>
    <tag k="created_by" v="Potlatch 0.6"/>
    <tag k="foot" v="yes"/>
    <tag k="highway" v="residential"/>
    <tag k="name" v="Bahnhofstraße"/>
    <tag k="surface" v="paved"/>
  </way>
  <way id="19225699" version="3" timestamp="2009-09-01T13:15:53Z" uid="33382" user="de_muur" changeset="2337562">
    <nd ref="199565488"/>
    <nd ref="199565489"/>
    <nd ref="479996640"/>
    <nd ref="199559235"/>
    <tag k="foot" v="yes"/>
    <tag k="highway" v="residential"/>
    <tag k="name" v="Bahnhofstraße"/>
    <tag k="surface" v="paved"/>
  </way>
  <way id="19225699" version="4" timestamp="2009-12-26T21:21:28Z" uid="33382" user="de_muur" changeset="3458438">
    <nd ref="199565488"/>
    <nd ref="199565489"/>
    <nd ref="479996640"/>
    <nd ref="199559235"/>
    <tag k="highway" v="residential"/>
    <tag k="motor_vehicle" v="no"/>
    <tag k="name" v="Bahnhofstraße"/>
    <tag k="surface" v="paved"/>
  </way>
  <way id="19225718" version="1" timestamp="2007-12-31T18:46:19Z" uid="6454" user="B10xxx" changeset="492942">
    <nd ref="76993767"/>
    <nd ref="199565795"/>
    <nd ref="199565796"/>
    <nd ref="76960696"/>
    <nd ref="199565797"/>
    <tag k="created_by" v="Potlatch 0.6"/>
    <tag k="highway" v="residential"/>
  </way>
  <way id="19225718" version="2" timestamp="2007-12-31T18:47:25Z" uid="6454" user="B10xxx" changeset="492942">
    <nd ref="76993767"/>
    <nd ref="199565795"/>
    <nd ref="199565796"/>
    <nd ref="76960696"/>
    <nd ref="199567702"/>
    <nd ref="199565797"/>
    <tag k="created_by" v="Potlatch 0.6"/>
    <tag k="highway" v="residential"/>
  </way>
  <way id="19225718" version="3" timestamp="2007-12-31T18:49:13Z" uid="6454" user="B10xxx" changeset="492942">
    <nd ref="76993767"/>
    <nd ref="199565795"/>
    <nd ref="199565796"/>
    <nd ref="76960696"/>
    <nd ref="199567702"/>
    <tag k="created_by" v="Potlatch 0.6"/>
    <tag k="highway" v="residential"/>
  </way>
  <way id="19225872" version="1" timestamp="2007-12-31T18:47:25Z" uid="6454" user="B10xxx" changeset="492942">
    <nd ref="76984024"/>
    <nd ref="199567702"/>
    <nd ref="199567703"/>
    <tag k="created_by" v="Potlatch 0.6"/>
    <tag k="highway" v="residential"/>
  </way>
  <way id="19225978" version="1" timestamp="2007-12-31T18:48:15Z" uid="6454" user="B10xxx" changeset="492942">
    <nd ref="76993769"/>
    <nd ref="76959971"/>
    <nd ref="199569199"/>
    <nd ref="199569203"/>
    <nd ref="199569204"/>
    <tag k="created_by" v="Potlatch 0.6"/>
    <tag k="highway" v="residential"/>
  </way>
  <way id="19225978" version="2" timestamp="2007-12-31T18:51:06Z" uid="6454" user="B10xxx" changeset="492942">
    <nd ref="76993769"/>
    <nd ref="76959971"/>
    <nd ref="199569199"/>
    <nd ref="199569203"/>
    <nd ref="199569204"/>
    <tag k="created_by" v="Potlatch 0.6"/>
    <tag k="highway" v="residential"/>
  </way>
  <way id="19225982" version="11" timestamp="2008-05-18T15:48:42Z" uid="33382" user="de_muur" changeset="475886">
    <nd ref="199559235"/>
    <nd ref="199559237"/>
    <nd ref="199559238"/>
    <nd ref="199559239"/>
    <nd ref="199559240"/>
    <nd ref="199559242"/>
    <nd ref="257174740"/>
    <nd ref="199568380"/>
    <nd ref="199568382"/>
    <nd ref="265594281"/>
    <nd ref="199568386"/>
    <nd ref="199568388"/>
    <nd ref="199568390"/>
    <nd ref="199568393"/>
    <nd ref="199568395"/>
    <nd ref="199568396"/>
    <nd ref="199568397"/>
    <nd ref="265594238"/>
    <nd ref="199568398"/>
    <nd ref="199568400"/>
    <nd ref="199568401"/>
    <nd ref="199571268"/>
    <tag k="created_by" v="Potlatch 0.6"/>
    <tag k="highway" v="secondary"/>
    <tag k="maxspeed" v="50"/>
    <tag k="name" v="Schönningstedter Straße"/>
    <tag k="ref" v="L314"/>
  </way>
  <way id="19225982" version="12" timestamp="2008-05-20T19:04:14Z" uid="33382" user="de_muur" changeset="488989">
    <nd ref="199559235"/>
    <nd ref="199559237"/>
    <nd ref="199559238"/>
    <nd ref="199559239"/>
    <nd ref="199559240"/>
    <nd ref="199559242"/>
    <nd ref="257174740"/>
    <nd ref="199568380"/>
    <nd ref="199568382"/>
    <nd ref="265594281"/>
    <nd ref="199568386"/>
    <nd ref="199568388"/>
    <tag k="created_by" v="Potlatch 0.6"/>
    <tag k="highway" v="secondary"/>
    <tag k="maxspeed" v="50"/>
    <tag k="name" v="Schönningstedter Straße"/>
    <tag k="ref" v="L314"/>
  </way>
  <way id="19225982" version="14" timestamp="2008-10-03T20:34:21Z" uid="33382" user="de_muur" changeset="47569">
    <nd ref="199559235"/>
    <nd ref="301869358"/>
    <nd ref="199559237"/>
    <nd ref="199559238"/>
    <nd ref="199559239"/>
    <nd ref="199559240"/>
    <nd ref="199559242"/>
    <nd ref="301869357"/>
    <nd ref="257174740"/>
    <nd ref="199568380"/>
    <nd ref="199568382"/>
    <nd ref="265594281"/>
    <nd ref="199568386"/>
    <nd ref="199568388"/>
    <tag k="created_by" v="Potlatch 0.9c"/>
    <tag k="highway" v="secondary"/>
    <tag k="maxspeed" v="50"/>
    <tag k="name" v="Schönningstedter Straße"/>
    <tag k="ref" v="L 314"/>
  </way>
  <way id="19225982" version="15" timestamp="2008-11-10T14:20:26Z" uid="33382" user="de_muur" changeset="728102">
    <nd ref="199559235"/>
    <nd ref="301869358"/>
    <nd ref="199559237"/>
    <nd ref="311067352"/>
    <nd ref="199559238"/>
    <nd ref="199559239"/>
    <nd ref="311067334"/>
    <nd ref="199559240"/>
    <nd ref="199559242"/>
    <nd ref="301869357"/>
    <nd ref="257174740"/>
    <nd ref="199568380"/>
    <nd ref="199568382"/>
    <nd ref="265594281"/>
    <nd ref="199568386"/>
    <nd ref="199568388"/>
    <tag k="created_by" v="Potlatch 0.9c"/>
    <tag k="highway" v="secondary"/>
    <tag k="maxspeed" v="50"/>
    <tag k="name" v="Schönningstedter Straße"/>
    <tag k="ref" v="L 314"/>
  </way>
  <way id="19225982" version="16" timestamp="2009-05-08T14:04:33Z" uid="33382" user="de_muur" changeset="1117858">
    <nd ref="199559235"/>
    <nd ref="301869358"/>
    <nd ref="199559237"/>
    <nd ref="311067352"/>
    <nd ref="199559238"/>
    <nd ref="199559239"/>
    <nd ref="311067334"/>
    <nd ref="199559240"/>
    <nd ref="199559242"/>
    <nd ref="301869357"/>
    <nd ref="257174740"/>
    <nd ref="199568380"/>
    <nd ref="199568382"/>
    <nd ref="265594281"/>
    <tag k="created_by" v="Potlatch 0.9c"/>
    <tag k="highway" v="secondary"/>
    <tag k="maxspeed" v="50"/>
    <tag k="name" v="Schönningstedter Straße"/>
    <tag k="ref" v="L 314"/>
  </way>
  <way id="19225982" version="18" timestamp="2009-12-30T08:33:44Z" uid="33382" user="de_muur" changeset="3487816">
    <nd ref="199559235"/>
    <nd ref="301869358"/>
    <nd ref="199559237"/>
    <nd ref="311067352"/>
    <nd ref="199559238"/>
    <nd ref="199559239"/>
    <nd ref="311067334"/>
    <nd ref="199559240"/>
    <nd ref="199559242"/>
    <nd ref="301869357"/>
    <nd ref="257174740"/>
    <nd ref="199568380"/>
    <nd ref="199568382"/>
    <nd ref="265594281"/>
    <tag k="highway" v="secondary"/>
    <tag k="maxspeed" v="50"/>
    <tag k="name" v="Schönningstedter Straße"/>
    <tag k="ref" v="L 314"/>
    <tag k="surface" v="paved"/>
  </way>
  <way id="19225982" version="19" timestamp="2010-10-03T06:50:02Z" uid="33382" user="de_muur" changeset="5941344">
    <nd ref="199559235"/>
    <nd ref="301869358"/>
    <nd ref="199559237"/>
    <nd ref="311067352"/>
    <nd ref="199559238"/>
    <nd ref="199559239"/>
    <nd ref="311067334"/>
    <nd ref="199559240"/>
    <nd ref="199559242"/>
    <nd ref="301869357"/>
    <nd ref="257174740"/>
    <tag k="cycleway" v="track"/>
    <tag k="highway" v="secondary"/>
    <tag k="maxspeed" v="30"/>
    <tag k="name" v="Schönningstedter Straße"/>
    <tag k="ref" v="L 314"/>
    <tag k="surface" v="paved"/>
  </way>
</osm>
