<?xml version='1.0' encoding='UTF-8'?>
<osm version="0.6" generator="libosmium/2.20.0">
  <way id="19237109" version="2" timestamp="2008-09-27T05:09:03Z" uid="7617" user="Franc" changeset="703319">
    <nd ref="199705441"/>
    <nd ref="300215887"/>
    <tag k="created_by" v="Potlatch 0.6"/>
    <tag k="highway" v="residential"/>
    <tag k="name" v="Philip Street"/>
  </way>
  <way id="19237109" version="3" timestamp="2010-07-08T02:35:23Z" uid="74617" user="JohnSmith" changeset="5163091">
    <nd ref="199705441"/>
    <nd ref="300215887"/>
    <tag k="highway" v="residential"/>
    <tag k="maxspeed" v="50"/>
    <tag k="maxspeed:source" v="default residential speed limit in Australia"/>
    <tag k="name" v="Philip Street"/>
  </way>
  <way id="19237125" version="2" timestamp="2008-09-27T05:09:03Z" uid="7617" user="Franc" changeset="703319">
    <nd ref="199706126"/>
    <nd ref="300215880"/>
    <tag k="created_by" v="Potlatch 0.6"/>
    <tag k="highway" v="residential"/>
    <tag k="name" v="Roberts Street"/>
  </way>
  <way id="19237125" version="3" timestamp="2010-07-08T02:41:19Z" uid="74617" user="JohnSmith" changeset="5163091">
    <nd ref="199706126"/>
    <nd ref="300215880"/>
    <tag k="highway" v="residential"/>
    <tag k="maxspeed" v="50"/>
    <tag k="maxspeed:source" v="default residential speed limit in Australia"/>
    <tag k="name" v="Roberts Street"/>
  </way>
  <way id="19237198" version="2" timestamp="2008-09-27T05:08:58Z" uid="7617" user="Franc" changeset="703319">
    <nd ref="199707318"/>
    <nd ref="199707692"/>
    <nd ref="300215840"/>
    <tag k="created_by" v="Potlatch 0.6"/>
    <tag k="highway" v="residential"/>
    <tag k="name" v="Manson Road"/>
  </way>
  <way id="19237198" version="3" timestamp="2010-07-08T02:38:17Z" uid="74617" user="JohnSmith" changeset="5163091">
    <nd ref="199707318"/>
    <nd ref="199707692"/>
    <nd ref="300215840"/>
    <tag k="highway" v="residential"/>
    <tag k="maxspeed" v="50"/>
    <tag k="maxspeed:source" v="default residential speed limit in Australia"/>
    <tag k="name" v="Manson Road"/>
  </way>
  <way id="19237224" version="2" timestamp="2010-07-08T02:36:40Z" uid="74617" user="JohnSmith" changeset="5163091">
    <nd ref="199707735"/>
    <nd ref="199708250"/>
    <tag k="highway" v="residential"/>
    <tag k="maxspeed" v="50"/>
    <tag k="maxspeed:source" v="default residential speed limit in Australia"/>
    <tag k="name" v="Swan Avenue"/>
  </way>
  <way id="19237274" version="2" timestamp="2010-12-26T11:13:54Z" uid="7617" user="Franc" changeset="6766987"/>
  <way id="19237416" version="2" timestamp="2010-07-27T05:05:08Z" uid="4467" user="Rosscoe" changeset="5326208">
    <nd ref="199711198"/>
    <nd ref="199711551"/>
    <nd ref="199711552"/>
    <tag k="highway" v="service"/>
    <tag k="name" v="Riley Lane"/>
  </way>
  <way id="19237478" version="3" timestamp="2010-07-08T02:37:47Z" uid="74617" user="JohnSmith" changeset="5163091">
    <nd ref="199712936"/>
    <nd ref="199712781"/>
    <nd ref="199714837"/>
    <nd ref="199712937"/>
    <tag k="highway" v="residential"/>
    <tag k="maxspeed" v="50"/>
    <tag k="maxspeed:source" v="default residential speed limit in Australia"/>
    <tag k="name" v="Escher Street"/>
  </way>
  <way id="19237517" version="2" timestamp="2008-09-27T05:09:10Z" uid="7617" user="Franc" changeset="703319">
    <nd ref="199713003"/>
    <nd ref="300215777"/>
    <nd ref="20146926"/>
    <tag k="created_by" v="Potlatch 0.6"/>
    <tag k="highway" v="residential"/>
    <tag k="name" v="Escher Street"/>
  </way>
  <way id="19237517" version="3" timestamp="2008-10-02T06:41:14Z" uid="7617" user="Franc" changeset="23906">
    <nd ref="199712936"/>
    <nd ref="199713003"/>
    <tag k="created_by" v="Potlatch 0.6"/>
    <tag k="highway" v="footway"/>
  </way>
  <way id="19237527" version="2" timestamp="2010-07-08T02:38:58Z" uid="74617" user="JohnSmith" changeset="5163091">
    <nd ref="199713365"/>
    <nd ref="199713793"/>
    <nd ref="199713794"/>
    <tag k="highway" v="residential"/>
    <tag k="maxspeed" v="50"/>
    <tag k="maxspeed:source" v="default residential speed limit in Australia"/>
    <tag k="name" v="Archer Street"/>
  </way>
  <way id="19237589" version="2" timestamp="2010-07-08T02:38:45Z" uid="74617" user="JohnSmith" changeset="5163091">
    <nd ref="199713793"/>
    <nd ref="199714837"/>
    <tag k="highway" v="residential"/>
    <tag k="maxspeed" v="50"/>
    <tag k="maxspeed:source" v="default residential speed limit in Australia"/>
    <tag k="name" v="New Street"/>
  </way>
  <way id="19237650" version="3" timestamp="2008-08-11T10:03:25Z" uid="7617" user="Franc" changeset="188546">
    <nd ref="37812314"/>
    <nd ref="37812315"/>
    <nd ref="199719781"/>
    <nd ref="31427758"/>
    <nd ref="286948223"/>
    <tag k="created_by" v="Potlatch 0.6"/>
    <tag k="highway" v="residential"/>
    <tag k="name" v="Victoria Street East"/>
    <tag k="source:name" v="survey"/>
  </way>
  <way id="19237650" version="4" timestamp="2010-01-13T10:17:01Z" uid="30201" user="rrankin" changeset="3608813">
    <nd ref="612865747"/>
    <nd ref="37812315"/>
    <nd ref="199719781"/>
    <nd ref="31427758"/>
    <nd ref="286948223"/>
    <tag k="highway" v="residential"/>
    <tag k="name" v="Victoria Street East"/>
    <tag k="source:name" v="survey"/>
  </way>
  <way id="19237650" version="5" timestamp="2010-07-08T02:39:17Z" uid="74617" user="JohnSmith" changeset="5163091">
    <nd ref="612865747"/>
    <nd ref="37812315"/>
    <nd ref="199719781"/>
    <nd ref="31427758"/>
    <nd ref="286948223"/>
    <tag k="highway" v="residential"/>
    <tag k="maxspeed" v="50"/>
    <tag k="maxspeed:source" v="default residential speed limit in Australia"/>
    <tag k="name" v="Victoria Street East"/>
    <tag k="source:name" v="survey"/>
  </way>
  <way id="19237897" version="2" timestamp="2010-07-08T02:36:54Z" uid="74617" user="JohnSmith" changeset="5163091">
    <nd ref="199718414"/>
    <nd ref="199718786"/>
    <tag k="highway" v="residential"/>
    <tag k="maxspeed" v="50"/>
    <tag k="maxspeed:source" v="default residential speed limit in Australia"/>
    <tag k="name" v="Waima Street"/>
  </way>
  <way id="19237945" version="3" timestamp="2010-07-08T02:35:13Z" uid="74617" user="JohnSmith" changeset="5163091">
    <nd ref="199718814"/>
    <nd ref="199719362"/>
    <nd ref="199719363"/>
    <nd ref="199719364"/>
    <tag k="highway" v="residential"/>
    <tag k="lcn" v="yes"/>
    <tag k="maxspeed" v="50"/>
    <tag k="maxspeed:source" v="default residential speed limit in Australia"/>
    <tag k="name" v="Waima Street"/>
  </way>
  <way id="19237992" version="2" timestamp="2010-07-08T02:41:19Z" uid="74617" user="JohnSmith" changeset="5163091">
    <nd ref="199719362"/>
    <nd ref="199719781"/>
    <tag k="highway" v="residential"/>
    <tag k="maxspeed" v="50"/>
    <tag k="maxspeed:source" v="default residential speed limit in Australia"/>
    <tag k="name" v="Boronia Avenue"/>
  </way>
</osm>
