<?xml version='1.0' encoding='UTF-8'?>
<osm version="0.6" generator="libosmium/2.20.0">
  <way id="19232352" version="2" timestamp="2008-08-05T14:19:02Z" uid="43863" user="Rundling" changeset="69264">
    <nd ref="199401551"/>
    <nd ref="199645099"/>
    <nd ref="199645103"/>
    <nd ref="199645107"/>
    <nd ref="199645110"/>
    <nd ref="283641959"/>
    <nd ref="199645117"/>
    <nd ref="199645123"/>
    <nd ref="199401432"/>
    <tag k="created_by" v="Potlatch 0.10b"/>
    <tag k="highway" v="residential"/>
    <tag k="name" v="Hauenriede"/>
  </way>
  <way id="19232352" version="3" timestamp="2008-12-15T18:37:15Z" uid="43863" user="Rundling" changeset="395653">
    <nd ref="199401551"/>
    <nd ref="199645099"/>
    <nd ref="199645103"/>
    <nd ref="319022245"/>
    <nd ref="199645107"/>
    <nd ref="199645110"/>
    <nd ref="283641959"/>
    <nd ref="199645117"/>
    <nd ref="199645123"/>
    <nd ref="199401432"/>
    <tag k="created_by" v="Potlatch 0.10b"/>
    <tag k="highway" v="residential"/>
    <tag k="name" v="Hauenriede"/>
  </way>
  <way id="19232352" version="4" timestamp="2008-12-16T17:55:21Z" uid="43863" user="Rundling" changeset="424249">
    <nd ref="199401551"/>
    <nd ref="199645099"/>
    <nd ref="199645103"/>
    <nd ref="319022245"/>
    <nd ref="199645107"/>
    <nd ref="319254268"/>
    <nd ref="199645110"/>
    <nd ref="283641959"/>
    <nd ref="199645117"/>
    <nd ref="319254261"/>
    <nd ref="199645123"/>
    <nd ref="199401432"/>
    <tag k="created_by" v="Potlatch 0.10b"/>
    <tag k="highway" v="residential"/>
    <tag k="name" v="Hauenriede"/>
  </way>
  <way id="19232352" version="5" timestamp="2008-12-17T17:23:54Z" uid="43863" user="Rundling" changeset="438937">
    <nd ref="199401551"/>
    <nd ref="199645099"/>
    <nd ref="199645103"/>
    <nd ref="319022245"/>
    <nd ref="199645107"/>
    <nd ref="319254268"/>
    <nd ref="199645110"/>
    <nd ref="283641959"/>
    <nd ref="199645117"/>
    <nd ref="319254261"/>
    <nd ref="199645123"/>
    <nd ref="319547023"/>
    <nd ref="319547024"/>
    <nd ref="319547030"/>
    <nd ref="319547031"/>
    <nd ref="319547043"/>
    <nd ref="199401432"/>
    <tag k="created_by" v="Potlatch 0.10b"/>
    <tag k="highway" v="residential"/>
    <tag k="name" v="Hauenriede"/>
  </way>
  <way id="19232352" version="6" timestamp="2009-01-21T19:46:41Z" uid="43863" user="Rundling" changeset="821635">
    <nd ref="199401551"/>
    <nd ref="199645099"/>
    <nd ref="199645103"/>
    <nd ref="319022245"/>
    <nd ref="319254268"/>
    <nd ref="199645110"/>
    <nd ref="283641959"/>
    <nd ref="199645117"/>
    <nd ref="319254261"/>
    <nd ref="199645123"/>
    <nd ref="319547023"/>
    <nd ref="319547024"/>
    <nd ref="319547030"/>
    <nd ref="319547031"/>
    <nd ref="319547043"/>
    <nd ref="199401432"/>
    <tag k="created_by" v="Potlatch 0.10b"/>
    <tag k="highway" v="residential"/>
    <tag k="name" v="Hauenriede"/>
  </way>
  <way id="19232352" version="7" timestamp="2009-06-08T12:25:58Z" uid="43863" user="Rundling" changeset="1458228">
    <nd ref="199401551"/>
    <nd ref="199645099"/>
    <nd ref="199645103"/>
    <nd ref="319022245"/>
    <nd ref="319254268"/>
    <nd ref="199645110"/>
    <nd ref="283641959"/>
    <nd ref="199645117"/>
    <nd ref="319254261"/>
    <nd ref="199645123"/>
    <nd ref="319547023"/>
    <nd ref="319547024"/>
    <nd ref="319547030"/>
    <nd ref="319547031"/>
    <nd ref="319547043"/>
    <nd ref="199401432"/>
    <tag k="highway" v="residential"/>
    <tag k="name" v="Hauenriede"/>
  </way>
  <way id="19232352" version="8" timestamp="2009-07-12T11:51:39Z" uid="43863" user="Rundling" changeset="1806245">
    <nd ref="199401551"/>
    <nd ref="199645099"/>
    <nd ref="440691053"/>
    <nd ref="199645103"/>
    <nd ref="319022245"/>
    <nd ref="319254268"/>
    <nd ref="199645110"/>
    <nd ref="283641959"/>
    <nd ref="199645117"/>
    <nd ref="319254261"/>
    <nd ref="199645123"/>
    <nd ref="319547023"/>
    <nd ref="319547024"/>
    <nd ref="319547030"/>
    <nd ref="319547031"/>
    <nd ref="319547043"/>
    <nd ref="199401432"/>
    <tag k="highway" v="residential"/>
    <tag k="name" v="Hauenriede"/>
  </way>
  <way id="19232352" version="9" timestamp="2009-07-12T12:13:05Z" uid="43863" user="Rundling" changeset="1806442">
    <nd ref="199401551"/>
    <nd ref="199645099"/>
    <nd ref="440691053"/>
    <nd ref="199645103"/>
    <nd ref="319022245"/>
    <nd ref="319254268"/>
    <nd ref="440700362"/>
    <nd ref="199645110"/>
    <nd ref="283641959"/>
    <nd ref="199645117"/>
    <nd ref="319254261"/>
    <nd ref="199645123"/>
    <nd ref="319547023"/>
    <nd ref="319547024"/>
    <nd ref="319547030"/>
    <nd ref="319547031"/>
    <nd ref="319547043"/>
    <nd ref="199401432"/>
    <tag k="highway" v="residential"/>
    <tag k="name" v="Hauenriede"/>
  </way>
  <way id="19232352" version="10" timestamp="2009-07-13T03:58:14Z" uid="43863" user="Rundling" changeset="1813105">
    <nd ref="199401551"/>
    <nd ref="441042807"/>
    <nd ref="199645099"/>
    <nd ref="440691053"/>
    <nd ref="199645103"/>
    <nd ref="319022245"/>
    <nd ref="319254268"/>
    <nd ref="440700362"/>
    <nd ref="199645110"/>
    <nd ref="283641959"/>
    <nd ref="199645117"/>
    <nd ref="319254261"/>
    <nd ref="199645123"/>
    <nd ref="319547023"/>
    <nd ref="319547024"/>
    <nd ref="319547030"/>
    <nd ref="319547031"/>
    <nd ref="319547043"/>
    <nd ref="199401432"/>
    <tag k="highway" v="residential"/>
    <tag k="name" v="Hauenriede"/>
  </way>
  <way id="19232354" version="3" timestamp="2008-08-05T14:20:08Z" uid="43863" user="Rundling" changeset="69264">
    <nd ref="199645127"/>
    <nd ref="199645132"/>
    <nd ref="199645137"/>
    <nd ref="199645144"/>
    <nd ref="199645150"/>
    <nd ref="199645158"/>
    <nd ref="199645163"/>
    <nd ref="199645170"/>
    <nd ref="199645172"/>
    <nd ref="199645176"/>
    <nd ref="199645144"/>
    <tag k="created_by" v="Potlatch 0.10b"/>
    <tag k="highway" v="secondary"/>
    <tag k="name" v="Ebstorfer Straße"/>
    <tag k="ref" v="L 250"/>
  </way>
  <way id="19232354" version="4" timestamp="2008-08-12T10:24:03Z" uid="43863" user="Rundling" changeset="198414">
    <nd ref="199645127"/>
    <nd ref="199645132"/>
    <nd ref="199645137"/>
    <nd ref="287240846"/>
    <nd ref="199645144"/>
    <nd ref="199645150"/>
    <nd ref="199645158"/>
    <nd ref="199645163"/>
    <nd ref="199645170"/>
    <nd ref="199645172"/>
    <nd ref="199645176"/>
    <nd ref="199645144"/>
    <tag k="created_by" v="Potlatch 0.10b"/>
    <tag k="highway" v="secondary"/>
    <tag k="name" v="Ebstorfer Straße"/>
    <tag k="ref" v="L 250"/>
  </way>
  <way id="19232354" version="5" timestamp="2008-10-18T18:01:13Z" uid="43863" user="Rundling" changeset="424583">
    <nd ref="199645127"/>
    <nd ref="199645137"/>
    <nd ref="287240846"/>
    <nd ref="199645144"/>
    <nd ref="199645150"/>
    <nd ref="199645158"/>
    <nd ref="199645163"/>
    <nd ref="199645170"/>
    <nd ref="199645172"/>
    <nd ref="199645176"/>
    <nd ref="199645144"/>
    <tag k="created_by" v="Potlatch 0.10b"/>
    <tag k="highway" v="secondary"/>
    <tag k="name" v="Ebstorfer Straße"/>
    <tag k="ref" v="L 250"/>
  </way>
  <way id="19232354" version="6" timestamp="2008-11-23T15:23:45Z" uid="43863" user="Rundling" changeset="785099">
    <nd ref="199645127"/>
    <nd ref="199645137"/>
    <nd ref="287240846"/>
    <nd ref="199645144"/>
    <nd ref="199645150"/>
    <nd ref="199645158"/>
    <nd ref="199645163"/>
    <nd ref="313935809"/>
    <nd ref="199645170"/>
    <nd ref="199645172"/>
    <nd ref="199645176"/>
    <nd ref="199645144"/>
    <tag k="created_by" v="Potlatch 0.10b"/>
    <tag k="highway" v="secondary"/>
    <tag k="name" v="Ebstorfer Straße"/>
    <tag k="ref" v="L 250"/>
  </way>
  <way id="19232354" version="7" timestamp="2008-11-24T07:20:36Z" uid="43863" user="Rundling" changeset="786380">
    <nd ref="199645127"/>
    <nd ref="314150963"/>
    <nd ref="314150966"/>
    <nd ref="199645144"/>
    <tag k="created_by" v="Potlatch 0.10b"/>
    <tag k="highway" v="secondary"/>
    <tag k="name" v="Ebstorfer Straße"/>
    <tag k="ref" v="L 250"/>
  </way>
  <way id="19232354" version="8" timestamp="2008-12-18T19:24:45Z" uid="43863" user="Rundling" changeset="458488">
    <nd ref="199645127"/>
    <nd ref="314150963"/>
    <nd ref="319797999"/>
    <nd ref="314150966"/>
    <nd ref="199645144"/>
    <tag k="created_by" v="Potlatch 0.10b"/>
    <tag k="highway" v="secondary"/>
    <tag k="name" v="Ebstorfer Straße"/>
    <tag k="ref" v="L 250"/>
  </way>
  <way id="19232354" version="9" timestamp="2008-12-23T22:06:33Z" uid="43863" user="Rundling" changeset="574593">
    <nd ref="199645127"/>
    <nd ref="314150963"/>
    <nd ref="319797999"/>
    <nd ref="314150966"/>
    <nd ref="321367431"/>
    <nd ref="199645144"/>
    <tag k="created_by" v="Potlatch 0.10b"/>
    <tag k="highway" v="secondary"/>
    <tag k="name" v="Ebstorfer Straße"/>
    <tag k="ref" v="L 250"/>
  </way>
  <way id="19232354" version="10" timestamp="2009-01-17T14:34:39Z" uid="43863" user="Rundling" changeset="799970">
    <nd ref="199645127"/>
    <nd ref="332580741"/>
    <nd ref="314150963"/>
    <nd ref="319797999"/>
    <nd ref="314150966"/>
    <nd ref="321367431"/>
    <nd ref="199645144"/>
    <tag k="created_by" v="Potlatch 0.10b"/>
    <tag k="highway" v="secondary"/>
    <tag k="name" v="Ebstorfer Straße"/>
    <tag k="ref" v="L 250"/>
  </way>
  <way id="19232354" version="12" timestamp="2009-06-13T04:19:32Z" uid="43863" user="Rundling" changeset="1501307">
    <nd ref="352931991"/>
    <nd ref="332580741"/>
    <nd ref="314150963"/>
    <nd ref="319797999"/>
    <nd ref="314150966"/>
    <nd ref="321367431"/>
    <nd ref="199645144"/>
    <tag k="highway" v="secondary"/>
    <tag k="name" v="Ebstorfer Straße"/>
    <tag k="ref" v="L 250"/>
  </way>
  <way id="19232354" version="13" timestamp="2009-07-12T11:02:35Z" uid="43863" user="Rundling" changeset="1805769">
    <nd ref="352931991"/>
    <nd ref="332580741"/>
    <nd ref="440673403"/>
    <nd ref="314150963"/>
    <nd ref="319797999"/>
    <nd ref="314150966"/>
    <nd ref="321367431"/>
    <nd ref="199645144"/>
    <tag k="highway" v="secondary"/>
    <tag k="name" v="Ebstorfer Straße"/>
    <tag k="ref" v="L 250"/>
  </way>
  <way id="19232354" version="14" timestamp="2010-01-22T12:56:57Z" uid="43863" user="Rundling" changeset="3682902">
    <nd ref="352931991"/>
    <nd ref="332580741"/>
    <nd ref="440673403"/>
    <nd ref="314150963"/>
    <nd ref="319797999"/>
    <nd ref="321367431"/>
    <nd ref="199645144"/>
    <tag k="highway" v="secondary"/>
    <tag k="name" v="Ebstorfer Straße"/>
    <tag k="ref" v="L 250"/>
  </way>
  <way id="19232355" version="4" timestamp="2008-08-05T16:20:05Z" uid="43863" user="Rundling" changeset="80890">
    <nd ref="199645170"/>
    <nd ref="199645183"/>
    <nd ref="199645189"/>
    <nd ref="197807819"/>
    <nd ref="253582343"/>
    <tag k="created_by" v="Potlatch 0.10b"/>
    <tag k="highway" v="secondary"/>
    <tag k="name" v="Ebstorfer Straße"/>
    <tag k="ref" v="L 250"/>
  </way>
  <way id="19232355" version="6" timestamp="2008-11-23T14:49:06Z" uid="43863" user="Rundling" changeset="785099">
    <nd ref="199645170"/>
    <nd ref="286745276"/>
    <nd ref="199645183"/>
    <nd ref="286745277"/>
    <nd ref="199645189"/>
    <nd ref="313928593"/>
    <nd ref="197807819"/>
    <nd ref="253582343"/>
    <tag k="created_by" v="Potlatch 0.10b"/>
    <tag k="highway" v="secondary"/>
    <tag k="name" v="Ebstorfer Straße"/>
    <tag k="ref" v="L 250"/>
  </way>
  <way id="19232355" version="7" timestamp="2008-11-23T14:52:29Z" uid="43863" user="Rundling" changeset="785099">
    <nd ref="199645170"/>
    <nd ref="286745276"/>
    <nd ref="199645183"/>
    <nd ref="286745277"/>
    <nd ref="199645189"/>
    <nd ref="313928899"/>
    <nd ref="313928593"/>
    <nd ref="197807819"/>
    <nd ref="253582343"/>
    <tag k="created_by" v="Potlatch 0.10b"/>
    <tag k="highway" v="secondary"/>
    <tag k="name" v="Ebstorfer Straße"/>
    <tag k="ref" v="L 250"/>
  </way>
  <way id="19232355" version="8" timestamp="2008-12-23T22:09:55Z" uid="43863" user="Rundling" changeset="574593">
    <nd ref="199645170"/>
    <nd ref="286745276"/>
    <nd ref="199645183"/>
    <nd ref="286745277"/>
    <nd ref="199645189"/>
    <nd ref="321368004"/>
    <nd ref="313928593"/>
    <nd ref="321368005"/>
    <nd ref="253582343"/>
    <tag k="created_by" v="Potlatch 0.10b"/>
    <tag k="highway" v="secondary"/>
    <tag k="name" v="Ebstorfer Straße"/>
    <tag k="ref" v="L 250"/>
  </way>
  <way id="19232355" version="10" timestamp="2008-12-28T23:02:28Z" uid="43863" user="Rundling" changeset="655201">
    <nd ref="199645170"/>
    <nd ref="286745276"/>
    <nd ref="199645183"/>
    <nd ref="286745277"/>
    <nd ref="199645189"/>
    <nd ref="321368004"/>
    <nd ref="313928593"/>
    <nd ref="321368005"/>
    <nd ref="253582343"/>
    <tag k="created_by" v="Potlatch 0.10f"/>
    <tag k="highway" v="secondary"/>
    <tag k="history" v="Retrieved from v8"/>
    <tag k="name" v="Ebstorfer Straße"/>
    <tag k="ref" v="L 250"/>
  </way>
  <way id="19232355" version="11" timestamp="2009-01-15T20:59:49Z" uid="43863" user="Rundling" changeset="792363">
    <nd ref="199645170"/>
    <nd ref="286745276"/>
    <nd ref="199645183"/>
    <nd ref="332285984"/>
    <tag k="created_by" v="Potlatch 0.10f"/>
    <tag k="highway" v="secondary"/>
    <tag k="history" v="Retrieved from v8"/>
    <tag k="name" v="Ebstorfer Straße"/>
    <tag k="ref" v="L 250"/>
  </way>
  <way id="19232355" version="12" timestamp="2009-01-16T14:22:55Z" uid="43863" user="Rundling" changeset="794681">
    <nd ref="199645170"/>
    <nd ref="286745276"/>
    <nd ref="199645183"/>
    <nd ref="332285984"/>
    <nd ref="286745277"/>
    <nd ref="199645189"/>
    <nd ref="321368004"/>
    <nd ref="313928593"/>
    <nd ref="321368005"/>
    <nd ref="253582343"/>
    <tag k="created_by" v="Potlatch 0.10f"/>
    <tag k="highway" v="secondary"/>
    <tag k="history" v="Retrieved from v8"/>
    <tag k="name" v="Ebstorfer Straße"/>
    <tag k="ref" v="L 250"/>
  </way>
  <way id="19232355" version="13" timestamp="2009-01-16T17:53:41Z" uid="43863" user="Rundling" changeset="796529">
    <nd ref="199645170"/>
    <nd ref="286745276"/>
    <nd ref="199645183"/>
    <nd ref="286745277"/>
    <nd ref="321368004"/>
    <nd ref="321368005"/>
    <nd ref="253582343"/>
    <tag k="created_by" v="Potlatch 0.10f"/>
    <tag k="highway" v="secondary"/>
    <tag k="history" v="Retrieved from v8"/>
    <tag k="name" v="Ebstorfer Straße"/>
    <tag k="ref" v="L 250"/>
  </way>
  <way id="19232355" version="14" timestamp="2009-01-16T17:57:03Z" uid="43863" user="Rundling" changeset="796529">
    <nd ref="199645170"/>
    <nd ref="286745277"/>
    <nd ref="321368004"/>
    <nd ref="321368005"/>
    <nd ref="253582343"/>
    <tag k="created_by" v="Potlatch 0.10f"/>
    <tag k="highway" v="secondary"/>
    <tag k="history" v="Retrieved from v8"/>
    <tag k="name" v="Ebstorfer Straße"/>
    <tag k="ref" v="L 250"/>
  </way>
  <way id="19232355" version="16" timestamp="2009-01-27T17:35:04Z" uid="43863" user="Rundling" changeset="845097">
    <nd ref="199645170"/>
    <nd ref="338417583"/>
    <nd ref="286745277"/>
    <nd ref="321368004"/>
    <nd ref="321368005"/>
    <tag k="created_by" v="Potlatch 0.10f"/>
    <tag k="highway" v="secondary"/>
    <tag k="history" v="Retrieved from v8"/>
    <tag k="name" v="Ebstorfer Straße"/>
    <tag k="ref" v="L 250"/>
  </way>
  <way id="19232355" version="17" timestamp="2009-10-12T10:46:22Z" uid="43863" user="Rundling" changeset="2824564">
    <nd ref="199645170"/>
    <nd ref="338417583"/>
    <nd ref="286745277"/>
    <nd ref="321368004"/>
    <nd ref="321368005"/>
    <tag k="highway" v="secondary"/>
    <tag k="name" v="Ebstorfer Straße"/>
    <tag k="ref" v="L 250"/>
  </way>
  <way id="19232357" version="3" timestamp="2008-12-23T20:29:34Z" uid="43863" user="Rundling" changeset="574593">
    <nd ref="199401432"/>
    <nd ref="199645196"/>
    <nd ref="199645203"/>
    <nd ref="280966994"/>
    <nd ref="199645208"/>
    <nd ref="199645214"/>
    <nd ref="321343699"/>
    <tag k="created_by" v="JOSM"/>
    <tag k="highway" v="residential"/>
    <tag k="name" v="Nothmannstraße"/>
  </way>
  <way id="19232357" version="4" timestamp="2009-01-16T18:20:31Z" uid="43863" user="Rundling" changeset="796529">
    <nd ref="199401432"/>
    <nd ref="199645196"/>
    <nd ref="199645203"/>
    <nd ref="280966994"/>
    <nd ref="199645208"/>
    <nd ref="321343699"/>
    <tag k="created_by" v="JOSM"/>
    <tag k="highway" v="residential"/>
    <tag k="name" v="Nothmannstraße"/>
  </way>
  <way id="19232357" version="5" timestamp="2009-01-27T18:30:11Z" uid="43863" user="Rundling" changeset="845097">
    <nd ref="199401432"/>
    <nd ref="199645196"/>
    <nd ref="199645203"/>
    <nd ref="280966994"/>
    <nd ref="199645208"/>
    <nd ref="338430710"/>
    <nd ref="321343699"/>
    <tag k="created_by" v="JOSM"/>
    <tag k="highway" v="residential"/>
    <tag k="name" v="Nothmannstraße"/>
  </way>
  <way id="19232357" version="6" timestamp="2009-07-04T05:04:35Z" uid="43863" user="Rundling" changeset="1726601">
    <nd ref="199401432"/>
    <nd ref="199645196"/>
    <nd ref="199645203"/>
    <nd ref="280966994"/>
    <nd ref="199645208"/>
    <nd ref="338430710"/>
    <nd ref="433559718"/>
    <nd ref="321343699"/>
    <tag k="created_by" v="JOSM"/>
    <tag k="highway" v="residential"/>
    <tag k="name" v="Nothmannstraße"/>
  </way>
  <way id="19232360" version="2" timestamp="2008-07-10T14:00:58Z" uid="43863" user="Rundling" changeset="450220">
    <nd ref="199645221"/>
    <nd ref="199645226"/>
    <nd ref="199645230"/>
    <nd ref="199645236"/>
    <nd ref="199645240"/>
    <nd ref="199645246"/>
    <nd ref="199645172"/>
    <tag k="created_by" v="Potlatch 0.9c"/>
    <tag k="highway" v="secondary"/>
    <tag k="name" v="Kuhteichweg"/>
  </way>
  <way id="19232360" version="3" timestamp="2008-07-11T10:15:41Z" uid="43863" user="Rundling" changeset="458254">
    <nd ref="199645221"/>
    <nd ref="199645226"/>
    <nd ref="199645230"/>
    <nd ref="199645236"/>
    <nd ref="199645240"/>
    <nd ref="199645246"/>
    <nd ref="199645172"/>
    <tag k="created_by" v="Potlatch 0.9c"/>
    <tag k="highway" v="secondary"/>
    <tag k="name" v="Kuhteichweg"/>
  </way>
  <way id="19232360" version="4" timestamp="2008-08-06T17:32:21Z" uid="43863" user="Rundling" changeset="99065">
    <nd ref="199645221"/>
    <nd ref="199645226"/>
    <nd ref="199645230"/>
    <nd ref="199645236"/>
    <nd ref="199645240"/>
    <nd ref="199645246"/>
    <nd ref="199645172"/>
    <tag k="created_by" v="Potlatch 0.10b"/>
    <tag k="highway" v="tertiary"/>
    <tag k="name" v="Kuhteichweg"/>
  </way>
  <way id="19232360" version="5" timestamp="2008-08-06T17:33:25Z" uid="43863" user="Rundling" changeset="99065">
    <nd ref="199645221"/>
    <nd ref="199645226"/>
    <nd ref="199645230"/>
    <nd ref="199645236"/>
    <nd ref="199645240"/>
    <nd ref="199645246"/>
    <nd ref="199645172"/>
    <tag k="created_by" v="Potlatch 0.10b"/>
    <tag k="highway" v="residential"/>
    <tag k="name" v="Kuhteichweg"/>
  </way>
  <way id="19232360" version="7" timestamp="2008-09-01T17:53:47Z" uid="43863" user="Rundling" changeset="490817">
    <nd ref="276201011"/>
    <nd ref="199672645"/>
    <nd ref="199672651"/>
    <nd ref="199672657"/>
    <nd ref="199672664"/>
    <nd ref="286745393"/>
    <nd ref="199645221"/>
    <nd ref="286745394"/>
    <nd ref="199645226"/>
    <nd ref="199645230"/>
    <nd ref="199645236"/>
    <nd ref="199645240"/>
    <nd ref="199645246"/>
    <nd ref="199645172"/>
    <tag k="created_by" v="Potlatch 0.10b"/>
    <tag k="highway" v="residential"/>
    <tag k="name" v="Nordallee"/>
  </way>
  <way id="19232360" version="8" timestamp="2008-09-01T17:54:06Z" uid="43863" user="Rundling" changeset="490817">
    <nd ref="276201011"/>
    <nd ref="199672645"/>
    <nd ref="199672651"/>
    <nd ref="199672657"/>
    <nd ref="199672664"/>
    <nd ref="286745393"/>
    <nd ref="199645221"/>
    <nd ref="286745394"/>
    <tag k="created_by" v="Potlatch 0.10b"/>
    <tag k="highway" v="residential"/>
    <tag k="name" v="Nordallee"/>
  </way>
  <way id="19232360" version="9" timestamp="2008-10-15T11:27:14Z" uid="43863" user="Rundling" changeset="346122">
    <nd ref="276201011"/>
    <nd ref="199672645"/>
    <nd ref="199672651"/>
    <nd ref="304760329"/>
    <nd ref="199672657"/>
    <nd ref="304760337"/>
    <nd ref="199672664"/>
    <nd ref="286745393"/>
    <nd ref="199645221"/>
    <nd ref="286745394"/>
    <tag k="created_by" v="Potlatch 0.10b"/>
    <tag k="highway" v="residential"/>
    <tag k="name" v="Nordallee"/>
  </way>
  <way id="19232360" version="10" timestamp="2008-10-15T11:56:02Z" uid="43863" user="Rundling" changeset="346122">
    <nd ref="276201011"/>
    <nd ref="199672645"/>
    <nd ref="199672651"/>
    <nd ref="304760329"/>
    <nd ref="199672657"/>
    <nd ref="304760337"/>
    <nd ref="199672664"/>
    <nd ref="286745393"/>
    <nd ref="199645221"/>
    <nd ref="286745394"/>
    <tag k="created_by" v="Potlatch 0.10b"/>
    <tag k="highway" v="residential"/>
    <tag k="name" v="Nordallee"/>
    <tag k="oneway" v="no"/>
  </way>
  <way id="19232360" version="11" timestamp="2008-11-10T14:47:20Z" uid="43863" user="Rundling" changeset="730742">
    <nd ref="276201011"/>
    <nd ref="199672645"/>
    <nd ref="199672651"/>
    <nd ref="304760329"/>
    <nd ref="199672657"/>
    <nd ref="311070191"/>
    <nd ref="304760337"/>
    <nd ref="199672664"/>
    <nd ref="286745393"/>
    <nd ref="199645221"/>
    <nd ref="286745394"/>
    <tag k="created_by" v="Potlatch 0.10b"/>
    <tag k="highway" v="residential"/>
    <tag k="name" v="Nordallee"/>
    <tag k="oneway" v="no"/>
  </way>
  <way id="19232360" version="12" timestamp="2009-03-15T08:25:17Z" uid="43863" user="Rundling" changeset="810966">
    <nd ref="276201011"/>
    <nd ref="199672651"/>
    <nd ref="304760329"/>
    <nd ref="199672657"/>
    <nd ref="311070191"/>
    <nd ref="304760337"/>
    <nd ref="199672664"/>
    <nd ref="286745393"/>
    <nd ref="199645221"/>
    <nd ref="286745394"/>
    <tag k="created_by" v="Potlatch 0.10b"/>
    <tag k="highway" v="residential"/>
    <tag k="name" v="Nordallee"/>
    <tag k="oneway" v="no"/>
  </way>
  <way id="19232360" version="13" timestamp="2009-03-15T08:38:09Z" uid="43863" user="Rundling" changeset="810966">
    <nd ref="276201011"/>
    <nd ref="199672651"/>
    <nd ref="304760329"/>
    <nd ref="311070191"/>
    <nd ref="304760337"/>
    <nd ref="199645221"/>
    <nd ref="286745394"/>
    <tag k="created_by" v="Potlatch 0.10b"/>
    <tag k="highway" v="residential"/>
    <tag k="name" v="Nordallee"/>
    <tag k="oneway" v="no"/>
  </way>
  <way id="19232360" version="14" timestamp="2009-03-18T09:51:05Z" uid="43863" user="Rundling" changeset="826607">
    <nd ref="362219888"/>
    <nd ref="199672651"/>
    <nd ref="304760329"/>
    <nd ref="311070191"/>
    <nd ref="304760337"/>
    <nd ref="199645221"/>
    <nd ref="286745394"/>
    <tag k="created_by" v="Potlatch 0.10b"/>
    <tag k="highway" v="residential"/>
    <tag k="name" v="Nordallee"/>
    <tag k="oneway" v="no"/>
  </way>
  <way id="19232360" version="15" timestamp="2009-03-19T14:32:35Z" uid="43863" user="Rundling" changeset="831377">
    <nd ref="362219888"/>
    <nd ref="363623378"/>
    <nd ref="199672651"/>
    <nd ref="304760329"/>
    <nd ref="311070191"/>
    <nd ref="304760337"/>
    <nd ref="199645221"/>
    <nd ref="286745394"/>
    <tag k="created_by" v="Potlatch 0.10b"/>
    <tag k="highway" v="residential"/>
    <tag k="name" v="Nordallee"/>
    <tag k="oneway" v="no"/>
  </way>
  <way id="19232360" version="16" timestamp="2011-03-24T15:00:32Z" uid="43863" user="Rundling" changeset="7656602">
    <nd ref="1215983970"/>
    <nd ref="1215983878"/>
    <nd ref="363623378"/>
    <nd ref="199672651"/>
    <nd ref="304760329"/>
    <nd ref="311070191"/>
    <nd ref="304760337"/>
    <nd ref="199645221"/>
    <nd ref="286745394"/>
    <tag k="highway" v="residential"/>
    <tag k="name" v="Nordallee"/>
    <tag k="oneway" v="no"/>
  </way>
  <way id="19232362" version="2" timestamp="2008-12-17T17:23:54Z" uid="43863" user="Rundling" changeset="438937">
    <nd ref="199401432"/>
    <nd ref="319547047"/>
    <nd ref="319547049"/>
    <nd ref="199645254"/>
    <nd ref="199645263"/>
    <nd ref="319547050"/>
    <nd ref="199645266"/>
    <tag k="created_by" v="JOSM"/>
    <tag k="highway" v="residential"/>
    <tag k="name" v="Sternstraße"/>
  </way>
  <way id="19232362" version="3" timestamp="2009-01-16T18:20:30Z" uid="43863" user="Rundling" changeset="796529">
    <nd ref="199401432"/>
    <nd ref="319547047"/>
    <nd ref="319547049"/>
    <nd ref="199645263"/>
    <nd ref="319547050"/>
    <nd ref="199645266"/>
    <tag k="created_by" v="JOSM"/>
    <tag k="highway" v="residential"/>
    <tag k="name" v="Sternstraße"/>
  </way>
  <way id="19232362" version="4" timestamp="2009-06-03T07:52:08Z" uid="43863" user="Rundling" changeset="1410846">
    <nd ref="199401432"/>
    <nd ref="319547047"/>
    <nd ref="319547049"/>
    <nd ref="319547050"/>
    <nd ref="415275804"/>
    <tag k="created_by" v="JOSM"/>
    <tag k="highway" v="residential"/>
    <tag k="name" v="Sternstraße"/>
  </way>
  <way id="19232362" version="5" timestamp="2009-06-08T12:25:58Z" uid="43863" user="Rundling" changeset="1458228">
    <nd ref="199401432"/>
    <nd ref="319547047"/>
    <nd ref="319547049"/>
    <nd ref="319547050"/>
    <nd ref="415275804"/>
    <tag k="highway" v="residential"/>
    <tag k="name" v="Sternstraße"/>
  </way>
  <way id="19232362" version="6" timestamp="2009-07-12T04:44:21Z" uid="43863" user="Rundling" changeset="1803135">
    <nd ref="199401432"/>
    <nd ref="319547047"/>
    <nd ref="319547049"/>
    <nd ref="319547050"/>
    <nd ref="415275804"/>
    <nd ref="440322554"/>
    <tag k="highway" v="residential"/>
    <tag k="name" v="Sternstraße"/>
  </way>
  <way id="19232362" version="7" timestamp="2009-07-12T05:10:53Z" uid="43863" user="Rundling" changeset="1803205">
    <nd ref="199401432"/>
    <nd ref="319547047"/>
    <nd ref="319547049"/>
    <nd ref="319547050"/>
    <nd ref="415275804"/>
    <nd ref="440322554"/>
    <tag k="highway" v="residential"/>
    <tag k="name" v="Sternstraße"/>
  </way>
  <way id="19232362" version="8" timestamp="2010-01-24T09:56:22Z" uid="43863" user="Rundling" changeset="3698952">
    <nd ref="199401432"/>
    <nd ref="619110808"/>
    <nd ref="319547049"/>
    <nd ref="319547050"/>
    <nd ref="415275804"/>
    <nd ref="440322554"/>
    <tag k="highway" v="residential"/>
    <tag k="name" v="Sternstraße"/>
  </way>
  <way id="19232363" version="2" timestamp="2008-07-25T11:46:22Z" uid="43863" user="Rundling" changeset="588833">
    <nd ref="199645103"/>
    <nd ref="199645271"/>
    <nd ref="199645278"/>
    <nd ref="199645283"/>
    <nd ref="199645286"/>
    <nd ref="280973655"/>
    <nd ref="199645290"/>
    <nd ref="199645296"/>
    <nd ref="199645302"/>
    <nd ref="199645309"/>
    <nd ref="199645266"/>
    <tag k="created_by" v="Potlatch 0.10"/>
    <tag k="highway" v="residential"/>
    <tag k="name" v="Farinastraße"/>
  </way>
  <way id="19232363" version="3" timestamp="2008-07-25T11:46:35Z" uid="43863" user="Rundling" changeset="588833">
    <nd ref="199645103"/>
    <nd ref="199645271"/>
    <nd ref="199645278"/>
    <nd ref="199645283"/>
    <nd ref="199645286"/>
    <nd ref="280973655"/>
    <nd ref="199645290"/>
    <nd ref="199645296"/>
    <nd ref="199645302"/>
    <nd ref="199645309"/>
    <nd ref="199645266"/>
    <tag k="created_by" v="Potlatch 0.10"/>
    <tag k="highway" v="residential"/>
    <tag k="name" v="Farinastraße"/>
  </way>
  <way id="19232363" version="4" timestamp="2008-12-15T18:37:14Z" uid="43863" user="Rundling" changeset="395653">
    <nd ref="199645103"/>
    <nd ref="319022282"/>
    <nd ref="199645271"/>
    <nd ref="319022247"/>
    <nd ref="199645278"/>
    <nd ref="199645283"/>
    <nd ref="199645286"/>
    <nd ref="280973655"/>
    <nd ref="199645290"/>
    <nd ref="199645296"/>
    <nd ref="199645302"/>
    <nd ref="199645309"/>
    <nd ref="199645266"/>
    <tag k="created_by" v="Potlatch 0.10"/>
    <tag k="highway" v="residential"/>
    <tag k="name" v="Farinastraße"/>
  </way>
  <way id="19232363" version="5" timestamp="2008-12-16T17:55:21Z" uid="43863" user="Rundling" changeset="424249">
    <nd ref="199645103"/>
    <nd ref="319022282"/>
    <nd ref="199645271"/>
    <nd ref="319022247"/>
    <nd ref="199645278"/>
    <nd ref="199645283"/>
    <nd ref="280973655"/>
    <nd ref="319254257"/>
    <nd ref="199645290"/>
    <nd ref="199645296"/>
    <nd ref="319254275"/>
    <nd ref="199645302"/>
    <nd ref="199645309"/>
    <nd ref="199645266"/>
    <tag k="created_by" v="Potlatch 0.10"/>
    <tag k="highway" v="residential"/>
    <tag k="name" v="Farinastraße"/>
  </way>
  <way id="19232363" version="6" timestamp="2008-12-17T16:59:04Z" uid="43863" user="Rundling" changeset="438937">
    <nd ref="199645103"/>
    <nd ref="319022282"/>
    <nd ref="199645271"/>
    <nd ref="319022247"/>
    <nd ref="199645278"/>
    <nd ref="199645283"/>
    <nd ref="280973655"/>
    <nd ref="319254257"/>
    <nd ref="199645290"/>
    <nd ref="199645296"/>
    <nd ref="319254275"/>
    <nd ref="199645302"/>
    <nd ref="199645309"/>
    <nd ref="319543036"/>
    <nd ref="319543039"/>
    <nd ref="199645266"/>
    <tag k="created_by" v="Potlatch 0.10"/>
    <tag k="highway" v="residential"/>
    <tag k="name" v="Farinastraße"/>
  </way>
  <way id="19232363" version="7" timestamp="2008-12-17T17:23:53Z" uid="43863" user="Rundling" changeset="438937">
    <nd ref="199645103"/>
    <nd ref="319022282"/>
    <nd ref="199645271"/>
    <nd ref="319022247"/>
    <nd ref="199645278"/>
    <nd ref="199645283"/>
    <nd ref="280973655"/>
    <nd ref="319254257"/>
    <nd ref="199645290"/>
    <nd ref="199645296"/>
    <nd ref="319254275"/>
    <nd ref="199645302"/>
    <nd ref="319547019"/>
    <nd ref="319547053"/>
    <nd ref="199645309"/>
    <nd ref="319543036"/>
    <nd ref="319543039"/>
    <nd ref="199645266"/>
    <tag k="created_by" v="Potlatch 0.10"/>
    <tag k="highway" v="residential"/>
    <tag k="name" v="Farinastraße"/>
  </way>
  <way id="19232363" version="8" timestamp="2009-06-03T07:52:08Z" uid="43863" user="Rundling" changeset="1410846">
    <nd ref="199645103"/>
    <nd ref="319022282"/>
    <nd ref="199645271"/>
    <nd ref="319022247"/>
    <nd ref="199645278"/>
    <nd ref="199645283"/>
    <nd ref="280973655"/>
    <nd ref="319254257"/>
    <nd ref="199645290"/>
    <nd ref="199645296"/>
    <nd ref="319254275"/>
    <nd ref="319547019"/>
    <nd ref="319547053"/>
    <nd ref="199645309"/>
    <nd ref="319543036"/>
    <nd ref="319543039"/>
    <nd ref="415275809"/>
    <tag k="created_by" v="Potlatch 0.10"/>
    <tag k="highway" v="residential"/>
    <tag k="name" v="Farinastraße"/>
  </way>
  <way id="19232363" version="9" timestamp="2009-06-08T12:25:57Z" uid="43863" user="Rundling" changeset="1458228">
    <nd ref="199645103"/>
    <nd ref="319022282"/>
    <nd ref="199645271"/>
    <nd ref="319022247"/>
    <nd ref="199645278"/>
    <nd ref="199645283"/>
    <nd ref="280973655"/>
    <nd ref="319254257"/>
    <nd ref="199645290"/>
    <nd ref="199645296"/>
    <nd ref="319254275"/>
    <nd ref="319547019"/>
    <nd ref="319547053"/>
    <nd ref="199645309"/>
    <nd ref="319543036"/>
    <nd ref="319543039"/>
    <nd ref="415275809"/>
    <tag k="highway" v="residential"/>
    <tag k="name" v="Farinastraße"/>
  </way>
  <way id="19232363" version="10" timestamp="2009-06-22T04:25:47Z" uid="43863" user="Rundling" changeset="1590010">
    <nd ref="199645103"/>
    <nd ref="319022282"/>
    <nd ref="199645271"/>
    <nd ref="319022247"/>
    <nd ref="280973655"/>
    <nd ref="319254257"/>
    <nd ref="199645290"/>
    <nd ref="199645296"/>
    <nd ref="319254275"/>
    <nd ref="319547019"/>
    <nd ref="319547053"/>
    <nd ref="199645309"/>
    <nd ref="319543036"/>
    <nd ref="319543039"/>
    <nd ref="415275809"/>
    <tag k="highway" v="residential"/>
    <tag k="name" v="Farinastraße"/>
  </way>
  <way id="19232363" version="11" timestamp="2009-07-11T18:29:52Z" uid="43863" user="Rundling" changeset="1800248">
    <nd ref="199645103"/>
    <nd ref="319022282"/>
    <nd ref="199645271"/>
    <nd ref="319022247"/>
    <nd ref="280973655"/>
    <nd ref="319254257"/>
    <nd ref="199645290"/>
    <nd ref="199645296"/>
    <nd ref="440314078"/>
    <nd ref="319254275"/>
    <nd ref="319547019"/>
    <nd ref="319547053"/>
    <nd ref="199645309"/>
    <nd ref="319543036"/>
    <nd ref="319543039"/>
    <nd ref="415275809"/>
    <tag k="highway" v="residential"/>
    <tag k="name" v="Farinastraße"/>
  </way>
  <way id="19232363" version="12" timestamp="2009-07-12T04:44:21Z" uid="43863" user="Rundling" changeset="1803135">
    <nd ref="199645103"/>
    <nd ref="319022282"/>
    <nd ref="199645271"/>
    <nd ref="319022247"/>
    <nd ref="280973655"/>
    <nd ref="319254257"/>
    <nd ref="199645290"/>
    <nd ref="199645296"/>
    <nd ref="440314078"/>
    <nd ref="319254275"/>
    <nd ref="319547019"/>
    <nd ref="319547053"/>
    <nd ref="199645309"/>
    <nd ref="319543036"/>
    <nd ref="319543039"/>
    <nd ref="415275809"/>
    <nd ref="440322557"/>
    <tag k="highway" v="residential"/>
    <tag k="name" v="Farinastraße"/>
  </way>
  <way id="19232363" version="13" timestamp="2009-07-12T05:10:53Z" uid="43863" user="Rundling" changeset="1803205">
    <nd ref="199645103"/>
    <nd ref="319022282"/>
    <nd ref="199645271"/>
    <nd ref="319022247"/>
    <nd ref="280973655"/>
    <nd ref="319254257"/>
    <nd ref="199645290"/>
    <nd ref="199645296"/>
    <nd ref="440314078"/>
    <nd ref="319254275"/>
    <nd ref="319547019"/>
    <nd ref="319547053"/>
    <nd ref="440600959"/>
    <nd ref="440600960"/>
    <nd ref="319543039"/>
    <nd ref="415275809"/>
    <nd ref="440322557"/>
    <tag k="highway" v="residential"/>
    <tag k="name" v="Farinastraße"/>
  </way>
  <way id="19232363" version="14" timestamp="2009-07-12T05:12:11Z" uid="43863" user="Rundling" changeset="1803208">
    <nd ref="199645103"/>
    <nd ref="319022282"/>
    <nd ref="199645271"/>
    <nd ref="319022247"/>
    <nd ref="280973655"/>
    <nd ref="319254257"/>
    <nd ref="199645290"/>
    <nd ref="199645296"/>
    <nd ref="440314078"/>
    <nd ref="319254275"/>
    <nd ref="319547019"/>
    <nd ref="319547053"/>
    <nd ref="440601497"/>
    <nd ref="440600960"/>
    <nd ref="319543039"/>
    <nd ref="415275809"/>
    <nd ref="440322557"/>
    <tag k="highway" v="residential"/>
    <tag k="name" v="Farinastraße"/>
  </way>
  <way id="19232363" version="15" timestamp="2009-07-12T19:09:45Z" uid="43863" user="Rundling" changeset="1810798">
    <nd ref="199645103"/>
    <nd ref="319022282"/>
    <nd ref="199645271"/>
    <nd ref="319022247"/>
    <nd ref="280973655"/>
    <nd ref="319254257"/>
    <nd ref="199645290"/>
    <nd ref="440897429"/>
    <nd ref="199645296"/>
    <nd ref="440314078"/>
    <nd ref="319254275"/>
    <nd ref="319547019"/>
    <nd ref="319547053"/>
    <nd ref="440601497"/>
    <nd ref="440600960"/>
    <nd ref="319543039"/>
    <nd ref="415275809"/>
    <nd ref="440322557"/>
    <tag k="highway" v="residential"/>
    <tag k="name" v="Farinastraße"/>
  </way>
  <way id="19232363" version="17" timestamp="2009-09-16T13:05:16Z" uid="43863" user="Rundling" changeset="2502224">
    <nd ref="199645103"/>
    <nd ref="319022282"/>
    <nd ref="199645271"/>
    <nd ref="319022247"/>
    <nd ref="280973655"/>
    <nd ref="319254257"/>
    <nd ref="440897429"/>
    <nd ref="440314078"/>
    <nd ref="319254275"/>
    <nd ref="319547019"/>
    <nd ref="319547053"/>
    <nd ref="440601497"/>
    <nd ref="440600960"/>
    <nd ref="319543039"/>
    <nd ref="415275809"/>
    <nd ref="490981893"/>
    <tag k="highway" v="residential"/>
    <tag k="name" v="Farinastraße"/>
  </way>
  <way id="19232363" version="18" timestamp="2009-09-20T07:07:14Z" uid="43863" user="Rundling" changeset="2541557">
    <nd ref="199645103"/>
    <nd ref="319022282"/>
    <nd ref="199645271"/>
    <nd ref="319022247"/>
    <nd ref="280973655"/>
    <nd ref="319254257"/>
    <nd ref="440897429"/>
    <nd ref="440314078"/>
    <nd ref="319254275"/>
    <nd ref="319547019"/>
    <nd ref="319547053"/>
    <nd ref="440601497"/>
    <nd ref="440600960"/>
    <nd ref="319543039"/>
    <nd ref="490981893"/>
    <tag k="highway" v="residential"/>
    <tag k="name" v="Farinastraße"/>
  </way>
  <way id="19232364" version="2" timestamp="2008-12-17T17:23:53Z" uid="43863" user="Rundling" changeset="438937">
    <nd ref="199645266"/>
    <nd ref="199645322"/>
    <nd ref="199645325"/>
    <nd ref="199645332"/>
    <nd ref="199645340"/>
    <nd ref="199645137"/>
    <tag k="created_by" v="JOSM"/>
    <tag k="highway" v="residential"/>
    <tag k="name" v="Linsingenstraße"/>
  </way>
  <way id="19232364" version="3" timestamp="2008-12-18T19:24:44Z" uid="43863" user="Rundling" changeset="458488">
    <nd ref="199645266"/>
    <nd ref="199645322"/>
    <nd ref="199645325"/>
    <nd ref="199645332"/>
    <nd ref="199645340"/>
    <nd ref="319797999"/>
    <tag k="created_by" v="JOSM"/>
    <tag k="highway" v="residential"/>
    <tag k="name" v="Linsingenstraße"/>
  </way>
  <way id="19232364" version="4" timestamp="2009-01-16T18:20:30Z" uid="43863" user="Rundling" changeset="796529">
    <nd ref="199645266"/>
    <nd ref="199645322"/>
    <nd ref="199645325"/>
    <nd ref="319797999"/>
    <tag k="created_by" v="JOSM"/>
    <tag k="highway" v="residential"/>
    <tag k="name" v="Linsingenstraße"/>
  </way>
  <way id="19232364" version="5" timestamp="2009-06-03T07:52:09Z" uid="43863" user="Rundling" changeset="1410846">
    <nd ref="415275817"/>
    <nd ref="199645322"/>
    <nd ref="199645325"/>
    <nd ref="319797999"/>
    <tag k="created_by" v="JOSM"/>
    <tag k="highway" v="residential"/>
    <tag k="name" v="Linsingenstraße"/>
  </way>
  <way id="19232364" version="6" timestamp="2009-06-13T04:19:32Z" uid="43863" user="Rundling" changeset="1501307">
    <nd ref="415275817"/>
    <nd ref="199645322"/>
    <nd ref="199645325"/>
    <nd ref="319797999"/>
    <tag k="highway" v="residential"/>
    <tag k="name" v="Linsingenstraße"/>
  </way>
  <way id="19232364" version="7" timestamp="2009-07-11T20:04:02Z" uid="43863" user="Rundling" changeset="1801147">
    <nd ref="415275817"/>
    <nd ref="199645322"/>
    <nd ref="319797999"/>
    <tag k="highway" v="residential"/>
    <tag k="name" v="Linsingenstraße"/>
  </way>
  <way id="19232364" version="8" timestamp="2009-07-12T04:44:21Z" uid="43863" user="Rundling" changeset="1803135">
    <nd ref="440597650"/>
    <nd ref="415275817"/>
    <nd ref="199645322"/>
    <nd ref="319797999"/>
    <tag k="highway" v="residential"/>
    <tag k="name" v="Linsingenstraße"/>
  </way>
  <way id="19232364" version="9" timestamp="2009-07-12T05:10:53Z" uid="43863" user="Rundling" changeset="1803205">
    <nd ref="440597650"/>
    <nd ref="415275817"/>
    <nd ref="199645322"/>
    <nd ref="319797999"/>
    <tag k="highway" v="residential"/>
    <tag k="name" v="Linsingenstraße"/>
  </way>
  <way id="19232364" version="10" timestamp="2009-07-12T11:02:36Z" uid="43863" user="Rundling" changeset="1805769">
    <nd ref="440597650"/>
    <nd ref="415275817"/>
    <nd ref="199645322"/>
    <nd ref="440673410"/>
    <nd ref="319797999"/>
    <tag k="highway" v="residential"/>
    <tag k="name" v="Linsingenstraße"/>
  </way>
  <way id="19232366" version="2" timestamp="2008-08-12T10:24:26Z" uid="43863" user="Rundling" changeset="198414">
    <nd ref="199645322"/>
    <nd ref="199645344"/>
    <nd ref="287240875"/>
    <nd ref="199645350"/>
    <nd ref="199645203"/>
    <tag k="created_by" v="Potlatch 0.10b"/>
    <tag k="highway" v="residential"/>
    <tag k="name" v="Ziegelhofstraße"/>
  </way>
  <way id="19232366" version="3" timestamp="2009-01-16T20:49:52Z" uid="43863" user="Rundling" changeset="796529">
    <nd ref="199645322"/>
    <nd ref="287240875"/>
    <nd ref="199645203"/>
    <tag k="created_by" v="Potlatch 0.10b"/>
    <tag k="highway" v="residential"/>
    <tag k="name" v="Ziegelhofstraße"/>
  </way>
  <way id="19232366" version="4" timestamp="2009-06-13T04:19:32Z" uid="43863" user="Rundling" changeset="1501307">
    <nd ref="199645322"/>
    <nd ref="287240875"/>
    <nd ref="199645203"/>
    <tag k="highway" v="residential"/>
    <tag k="name" v="Ziegelhofstraße"/>
  </way>
  <way id="19232366" version="5" timestamp="2009-07-12T11:02:35Z" uid="43863" user="Rundling" changeset="1805769">
    <nd ref="199645322"/>
    <nd ref="287240875"/>
    <nd ref="199645203"/>
    <tag k="highway" v="residential"/>
    <tag k="maxspeed" v="30"/>
    <tag k="name" v="Ziegelhofstraße"/>
  </way>
</osm>
