<?xml version='1.0' encoding='UTF-8'?>
<osm version="0.6" generator="libosmium/2.20.0">
  <way id="19292752" version="1" timestamp="2008-01-01T05:08:37Z" uid="4467" user="Rosscoe" changeset="498347">
    <nd ref="148907499"/>
    <nd ref="200377385"/>
    <tag k="bridge" v="true"/>
    <tag k="created_by" v="Potlatch 0.6"/>
    <tag k="highway" v="trunk"/>
    <tag k="layer" v="1"/>
    <tag k="name" v="Bruce Highway; Nebo Road"/>
    <tag k="ref" v="A1"/>
    <tag k="source" v="gpsdrivetrack"/>
  </way>
  <way id="19292752" version="2" timestamp="2008-01-10T02:40:39Z" uid="4467" user="Rosscoe" changeset="589280">
    <nd ref="148907499"/>
    <nd ref="200377385"/>
    <tag k="bridge" v="true"/>
    <tag k="created_by" v="Potlatch 0.6"/>
    <tag k="highway" v="trunk"/>
    <tag k="layer" v="1"/>
    <tag k="name" v="Bruce Highway; Nebo Road"/>
    <tag k="ref" v="A1"/>
    <tag k="source" v="gpsdrivetrack"/>
  </way>
  <way id="19292752" version="3" timestamp="2009-01-25T00:36:38Z" uid="4467" user="Rosscoe" changeset="832900">
    <nd ref="148907499"/>
    <nd ref="200377385"/>
    <tag k="bridge" v="true"/>
    <tag k="created_by" v="Potlatch 0.6"/>
    <tag k="highway" v="trunk"/>
    <tag k="layer" v="1"/>
    <tag k="name" v="Bruce Highway; Nebo Road"/>
    <tag k="ref" v="A1"/>
    <tag k="source" v="survey"/>
  </way>
  <way id="19292752" version="4" timestamp="2009-01-25T02:39:49Z" uid="4467" user="Rosscoe" changeset="835181">
    <nd ref="148907499"/>
    <nd ref="200377385"/>
    <tag k="bridge" v="yes"/>
    <tag k="created_by" v="Potlatch 0.6"/>
    <tag k="highway" v="trunk"/>
    <tag k="layer" v="1"/>
    <tag k="name" v="Bruce Highway; Nebo Road"/>
    <tag k="osmarender:renderName" v="no"/>
    <tag k="osmarender:renderRef" v="no"/>
    <tag k="ref" v="A1"/>
    <tag k="source" v="survey"/>
  </way>
  <way id="19292752" version="5" timestamp="2009-01-25T03:17:56Z" uid="4467" user="Rosscoe" changeset="835181">
    <nd ref="148907499"/>
    <nd ref="200377385"/>
    <tag k="bridge" v="yes"/>
    <tag k="created_by" v="Potlatch 0.6"/>
    <tag k="highway" v="trunk"/>
    <tag k="layer" v="1"/>
    <tag k="maxspeed" v="60"/>
    <tag k="name" v="Bruce Highway; Nebo Road"/>
    <tag k="osmarender:renderName" v="no"/>
    <tag k="osmarender:renderRef" v="no"/>
    <tag k="ref" v="A1"/>
    <tag k="source" v="survey"/>
  </way>
  <way id="19292752" version="6" timestamp="2009-06-07T04:52:18Z" uid="4467" user="Rosscoe" changeset="1444185">
    <nd ref="148907499"/>
    <nd ref="200377385"/>
    <tag k="bridge" v="yes"/>
    <tag k="created_by" v="Potlatch 0.6"/>
    <tag k="highway" v="trunk"/>
    <tag k="layer" v="1"/>
    <tag k="maxspeed" v="60"/>
    <tag k="name" v="Bruce Highway"/>
    <tag k="osmarender:renderName" v="no"/>
    <tag k="osmarender:renderRef" v="no"/>
    <tag k="ref" v="A1"/>
    <tag k="source" v="survey"/>
    <tag k="surface" v="paved"/>
  </way>
  <way id="19292752" version="7" timestamp="2009-06-07T04:53:10Z" uid="4467" user="Rosscoe" changeset="1444186">
    <nd ref="148907499"/>
    <nd ref="200377385"/>
    <tag k="bridge" v="yes"/>
    <tag k="created_by" v="Potlatch 0.6"/>
    <tag k="highway" v="trunk"/>
    <tag k="layer" v="1"/>
    <tag k="maxspeed" v="60"/>
    <tag k="name" v="Bruce Highway"/>
    <tag k="oneway" v="yes"/>
    <tag k="osmarender:renderName" v="no"/>
    <tag k="osmarender:renderRef" v="no"/>
    <tag k="ref" v="A1"/>
    <tag k="source" v="survey"/>
    <tag k="surface" v="paved"/>
  </way>
  <way id="19292752" version="8" timestamp="2009-08-16T16:50:48Z" uid="74617" user="JohnSmith" changeset="2167873">
    <nd ref="148907499"/>
    <nd ref="200377385"/>
    <tag k="bridge" v="yes"/>
    <tag k="highway" v="trunk"/>
    <tag k="layer" v="1"/>
    <tag k="maxspeed" v="60"/>
    <tag k="oneway" v="yes"/>
    <tag k="source" v="survey"/>
  </way>
  <way id="19292752" version="9" timestamp="2009-08-17T04:30:53Z" uid="4467" user="Rosscoe" changeset="2173153">
    <nd ref="148907499"/>
    <nd ref="200377385"/>
    <tag k="bridge" v="yes"/>
    <tag k="highway" v="trunk"/>
    <tag k="layer" v="1"/>
    <tag k="maxspeed" v="60"/>
    <tag k="name" v="Nebo Road"/>
    <tag k="oneway" v="yes"/>
    <tag k="source" v="survey"/>
  </way>
  <way id="19292757" version="1" timestamp="2008-01-01T05:08:38Z" uid="4467" user="Rosscoe" changeset="498347">
    <nd ref="200377385"/>
    <nd ref="148830873"/>
    <tag k="created_by" v="Potlatch 0.6"/>
    <tag k="highway" v="trunk"/>
    <tag k="name" v="Bruce Highway; Nebo Road"/>
    <tag k="ref" v="A1"/>
    <tag k="source" v="gpsdrivetrack"/>
    <tag k="surface" v="paved"/>
  </way>
  <way id="19292757" version="2" timestamp="2008-01-09T04:38:38Z" uid="4467" user="Rosscoe" changeset="583964">
    <nd ref="200377385"/>
    <nd ref="212058917"/>
    <nd ref="148830873"/>
    <tag k="created_by" v="Potlatch 0.6"/>
    <tag k="highway" v="trunk"/>
    <tag k="name" v="Bruce Highway; Nebo Road"/>
    <tag k="ref" v="A1"/>
    <tag k="source" v="gpsdrivetrack"/>
    <tag k="surface" v="paved"/>
  </way>
  <way id="19292757" version="3" timestamp="2008-01-10T02:40:34Z" uid="4467" user="Rosscoe" changeset="589280">
    <nd ref="200377385"/>
    <nd ref="212058917"/>
    <nd ref="148830873"/>
    <tag k="created_by" v="Potlatch 0.6"/>
    <tag k="highway" v="trunk"/>
    <tag k="name" v="Bruce Highway; Nebo Road"/>
    <tag k="ref" v="A1"/>
    <tag k="source" v="gpsdrivetrack"/>
    <tag k="surface" v="paved"/>
  </way>
  <way id="19292757" version="4" timestamp="2009-01-25T00:36:36Z" uid="4467" user="Rosscoe" changeset="832900">
    <nd ref="200377385"/>
    <nd ref="212058917"/>
    <nd ref="148830873"/>
    <tag k="created_by" v="Potlatch 0.6"/>
    <tag k="highway" v="trunk"/>
    <tag k="name" v="Bruce Highway; Nebo Road"/>
    <tag k="ref" v="A1"/>
    <tag k="source" v="survey"/>
    <tag k="surface" v="paved"/>
  </way>
  <way id="19292757" version="5" timestamp="2009-01-25T03:17:55Z" uid="4467" user="Rosscoe" changeset="835181">
    <nd ref="200377385"/>
    <nd ref="212058917"/>
    <nd ref="148830873"/>
    <tag k="created_by" v="Potlatch 0.6"/>
    <tag k="highway" v="trunk"/>
    <tag k="maxspeed" v="60"/>
    <tag k="name" v="Bruce Highway; Nebo Road"/>
    <tag k="ref" v="A1"/>
    <tag k="source" v="survey"/>
    <tag k="surface" v="paved"/>
  </way>
  <way id="19292757" version="6" timestamp="2009-06-07T04:53:10Z" uid="4467" user="Rosscoe" changeset="1444186">
    <nd ref="200377385"/>
    <nd ref="212058917"/>
    <nd ref="148830873"/>
    <tag k="created_by" v="Potlatch 0.6"/>
    <tag k="highway" v="trunk"/>
    <tag k="maxspeed" v="60"/>
    <tag k="name" v="Bruce Highway"/>
    <tag k="oneway" v="yes"/>
    <tag k="ref" v="A1"/>
    <tag k="source" v="survey"/>
    <tag k="surface" v="paved"/>
  </way>
  <way id="19292757" version="7" timestamp="2009-07-11T05:36:55Z" uid="4467" user="Rosscoe" changeset="1794136">
    <nd ref="200377385"/>
    <nd ref="439987880"/>
    <nd ref="439987883"/>
    <nd ref="212058917"/>
    <nd ref="148830873"/>
    <tag k="created_by" v="Potlatch 0.6"/>
    <tag k="highway" v="trunk"/>
    <tag k="maxspeed" v="60"/>
    <tag k="name" v="Bruce Highway"/>
    <tag k="oneway" v="yes"/>
    <tag k="ref" v="A1"/>
    <tag k="source" v="survey"/>
    <tag k="surface" v="paved"/>
  </way>
  <way id="19292757" version="8" timestamp="2009-08-16T16:50:48Z" uid="74617" user="JohnSmith" changeset="2167873">
    <nd ref="200377385"/>
    <nd ref="439987880"/>
    <nd ref="439987883"/>
    <nd ref="212058917"/>
    <nd ref="148830873"/>
    <tag k="highway" v="trunk"/>
    <tag k="maxspeed" v="60"/>
    <tag k="oneway" v="yes"/>
    <tag k="source" v="survey"/>
  </way>
  <way id="19292757" version="9" timestamp="2009-08-17T04:30:54Z" uid="4467" user="Rosscoe" changeset="2173153">
    <nd ref="200377385"/>
    <nd ref="439987880"/>
    <nd ref="439987883"/>
    <nd ref="212058917"/>
    <nd ref="148830873"/>
    <tag k="highway" v="trunk"/>
    <tag k="maxspeed" v="60"/>
    <tag k="name" v="Nebo Road"/>
    <tag k="oneway" v="yes"/>
    <tag k="source" v="survey"/>
  </way>
  <way id="19292757" version="10" timestamp="2010-07-31T13:27:38Z" uid="4467" user="Rosscoe" changeset="5362638">
    <nd ref="200377385"/>
    <nd ref="439987880"/>
    <nd ref="439987883"/>
    <nd ref="212058917"/>
    <nd ref="840170759"/>
    <nd ref="148830873"/>
    <tag k="highway" v="trunk"/>
    <tag k="maxspeed" v="60"/>
    <tag k="name" v="Nebo Road"/>
    <tag k="oneway" v="yes"/>
    <tag k="source" v="survey"/>
  </way>
  <way id="19292761" version="1" timestamp="2008-01-01T05:08:39Z" uid="4467" user="Rosscoe" changeset="498347">
    <nd ref="200377337"/>
    <nd ref="200377360"/>
    <tag k="bridge" v="true"/>
    <tag k="created_by" v="JOSM"/>
    <tag k="highway" v="residential"/>
    <tag k="layer" v="1"/>
    <tag k="name" v="Archibald Street"/>
    <tag k="source" v="gpsdrivetrack"/>
  </way>
  <way id="19292761" version="2" timestamp="2008-01-09T02:10:57Z" uid="4467" user="Rosscoe" changeset="579947">
    <nd ref="200377337"/>
    <nd ref="200377360"/>
    <tag k="bridge" v="true"/>
    <tag k="created_by" v="JOSM"/>
    <tag k="highway" v="secondary"/>
    <tag k="layer" v="1"/>
    <tag k="name" v="Archibald Street"/>
    <tag k="source" v="gpsdrivetrack"/>
    <tag k="surface" v="paved"/>
  </way>
  <way id="19292761" version="3" timestamp="2008-01-10T02:40:57Z" uid="4467" user="Rosscoe" changeset="589280">
    <nd ref="200377337"/>
    <nd ref="200377360"/>
    <tag k="bridge" v="true"/>
    <tag k="created_by" v="JOSM"/>
    <tag k="highway" v="secondary"/>
    <tag k="layer" v="1"/>
    <tag k="name" v="Archibald Street"/>
    <tag k="source" v="gpsdrivetrack"/>
    <tag k="surface" v="paved"/>
  </way>
  <way id="19292761" version="4" timestamp="2009-01-25T00:36:49Z" uid="4467" user="Rosscoe" changeset="832900">
    <nd ref="200377337"/>
    <nd ref="200377360"/>
    <tag k="bridge" v="true"/>
    <tag k="created_by" v="JOSM"/>
    <tag k="highway" v="secondary"/>
    <tag k="layer" v="1"/>
    <tag k="name" v="Archibald Street"/>
    <tag k="source" v="survey"/>
    <tag k="surface" v="paved"/>
  </way>
  <way id="19292761" version="5" timestamp="2009-01-25T02:34:37Z" uid="4467" user="Rosscoe" changeset="835181">
    <nd ref="200377337"/>
    <nd ref="200377360"/>
    <tag k="bridge" v="yes"/>
    <tag k="created_by" v="JOSM"/>
    <tag k="highway" v="secondary"/>
    <tag k="layer" v="1"/>
    <tag k="name" v="Archibald Street"/>
    <tag k="source" v="survey"/>
    <tag k="surface" v="paved"/>
  </way>
  <way id="19292761" version="6" timestamp="2009-01-25T02:36:25Z" uid="4467" user="Rosscoe" changeset="835181">
    <nd ref="200377337"/>
    <nd ref="200377360"/>
    <tag k="bridge" v="yes"/>
    <tag k="created_by" v="JOSM"/>
    <tag k="highway" v="secondary"/>
    <tag k="layer" v="1"/>
    <tag k="name" v="Archibald Street"/>
    <tag k="osmarender:renderName" v="no"/>
    <tag k="osmarender:renderRef" v="no"/>
    <tag k="source" v="survey"/>
    <tag k="surface" v="paved"/>
  </way>
  <way id="19292761" version="7" timestamp="2011-05-12T08:56:25Z" uid="4467" user="Rosscoe" changeset="8119856">
    <nd ref="200377337"/>
    <nd ref="200377360"/>
    <tag k="bridge" v="yes"/>
    <tag k="highway" v="secondary"/>
    <tag k="layer" v="1"/>
    <tag k="name" v="Archibald Street"/>
    <tag k="osmarender:renderName" v="no"/>
    <tag k="osmarender:renderRef" v="no"/>
    <tag k="source" v="survey"/>
    <tag k="surface" v="paved"/>
  </way>
  <way id="19292764" version="1" timestamp="2008-01-01T05:08:40Z" uid="4467" user="Rosscoe" changeset="498347">
    <nd ref="200377360"/>
    <nd ref="148830873"/>
    <tag k="created_by" v="JOSM"/>
    <tag k="highway" v="residential"/>
    <tag k="name" v="Archibald Street"/>
    <tag k="source" v="gpsdrivetrack"/>
    <tag k="surface" v="paved"/>
  </way>
  <way id="19292764" version="2" timestamp="2008-01-09T02:10:56Z" uid="4467" user="Rosscoe" changeset="579947">
    <nd ref="200377360"/>
    <nd ref="148830873"/>
    <tag k="created_by" v="JOSM"/>
    <tag k="highway" v="secondary"/>
    <tag k="name" v="Archibald Street"/>
    <tag k="source" v="gpsdrivetrack"/>
    <tag k="surface" v="paved"/>
  </way>
  <way id="19292764" version="3" timestamp="2008-01-10T02:40:48Z" uid="4467" user="Rosscoe" changeset="589280">
    <nd ref="200377360"/>
    <nd ref="148830873"/>
    <tag k="created_by" v="JOSM"/>
    <tag k="highway" v="secondary"/>
    <tag k="name" v="Archibald Street"/>
    <tag k="source" v="gpsdrivetrack"/>
    <tag k="surface" v="paved"/>
  </way>
  <way id="19292764" version="4" timestamp="2009-01-25T00:36:47Z" uid="4467" user="Rosscoe" changeset="832900">
    <nd ref="200377360"/>
    <nd ref="148830873"/>
    <tag k="created_by" v="JOSM"/>
    <tag k="highway" v="secondary"/>
    <tag k="name" v="Archibald Street"/>
    <tag k="source" v="survey"/>
    <tag k="surface" v="paved"/>
  </way>
  <way id="19292764" version="5" timestamp="2009-07-11T05:36:56Z" uid="4467" user="Rosscoe" changeset="1794136">
    <nd ref="200377360"/>
    <nd ref="439987890"/>
    <nd ref="439987889"/>
    <nd ref="148830873"/>
    <tag k="created_by" v="JOSM"/>
    <tag k="highway" v="secondary"/>
    <tag k="name" v="Archibald Street"/>
    <tag k="source" v="survey"/>
    <tag k="surface" v="paved"/>
  </way>
  <way id="19292764" version="6" timestamp="2010-07-31T13:27:42Z" uid="4467" user="Rosscoe" changeset="5362638">
    <nd ref="200377360"/>
    <nd ref="840169355"/>
    <tag k="highway" v="secondary"/>
    <tag k="name" v="Archibald Street"/>
    <tag k="source" v="survey"/>
    <tag k="surface" v="paved"/>
  </way>
  <way id="19292771" version="1" timestamp="2008-01-01T05:08:41Z" uid="4467" user="Rosscoe" changeset="498347">
    <nd ref="150445813"/>
    <nd ref="200377422"/>
    <nd ref="200377448"/>
    <tag k="created_by" v="JOSM"/>
    <tag k="highway" v="secondary"/>
    <tag k="name" v="Paradise Street"/>
  </way>
  <way id="19292771" version="2" timestamp="2008-01-06T03:48:05Z" uid="4467" user="Rosscoe" changeset="556058">
    <nd ref="150445813"/>
    <nd ref="200377422"/>
    <nd ref="206413987"/>
    <nd ref="200377448"/>
    <tag k="created_by" v="JOSM"/>
    <tag k="highway" v="secondary"/>
    <tag k="name" v="Paradise Street"/>
  </way>
  <way id="19292771" version="3" timestamp="2008-01-06T03:50:40Z" uid="4467" user="Rosscoe" changeset="556058">
    <nd ref="150445813"/>
    <nd ref="200377422"/>
    <nd ref="206414197"/>
    <nd ref="206413987"/>
    <nd ref="200377448"/>
    <tag k="created_by" v="JOSM"/>
    <tag k="highway" v="secondary"/>
    <tag k="name" v="Paradise Street"/>
  </way>
  <way id="19292771" version="4" timestamp="2008-12-22T09:00:52Z" uid="4467" user="Rosscoe" changeset="537738">
    <nd ref="150445813"/>
    <nd ref="320844602"/>
    <tag k="created_by" v="JOSM"/>
    <tag k="highway" v="secondary"/>
    <tag k="name" v="Paradise Street"/>
    <tag k="source" v="survey"/>
    <tag k="surface" v="paved"/>
  </way>
  <way id="19292771" version="5" timestamp="2009-02-16T06:10:52Z" uid="4467" user="Rosscoe" changeset="484927">
    <nd ref="150445813"/>
    <nd ref="346057744"/>
    <nd ref="320844602"/>
    <tag k="created_by" v="JOSM"/>
    <tag k="highway" v="secondary"/>
    <tag k="name" v="Paradise Street"/>
    <tag k="source" v="survey"/>
    <tag k="surface" v="paved"/>
  </way>
  <way id="19292771" version="6" timestamp="2009-02-16T06:32:54Z" uid="4467" user="Rosscoe" changeset="484927">
    <nd ref="150445813"/>
    <nd ref="346057744"/>
    <nd ref="346070295"/>
    <nd ref="346070293"/>
    <nd ref="346070398"/>
    <nd ref="346070386"/>
    <nd ref="320844602"/>
    <tag k="created_by" v="JOSM"/>
    <tag k="highway" v="secondary"/>
    <tag k="name" v="Paradise Street"/>
    <tag k="source" v="survey"/>
    <tag k="surface" v="paved"/>
  </way>
  <way id="19292771" version="7" timestamp="2009-06-28T01:15:15Z" uid="4467" user="Rosscoe" changeset="1656111">
    <nd ref="150445813"/>
    <nd ref="346057744"/>
    <nd ref="430023877"/>
    <nd ref="346070295"/>
    <nd ref="346070293"/>
    <nd ref="346070398"/>
    <nd ref="346070386"/>
    <nd ref="320844602"/>
    <tag k="created_by" v="JOSM"/>
    <tag k="highway" v="secondary"/>
    <tag k="name" v="Paradise Street"/>
    <tag k="source" v="survey"/>
    <tag k="surface" v="paved"/>
  </way>
  <way id="19292771" version="8" timestamp="2010-08-02T01:20:47Z" uid="4467" user="Rosscoe" changeset="5376386">
    <nd ref="150445813"/>
    <nd ref="842840708"/>
    <nd ref="842840793"/>
    <nd ref="346057744"/>
    <nd ref="430023877"/>
    <nd ref="346070295"/>
    <nd ref="346070293"/>
    <nd ref="346070398"/>
    <nd ref="346070386"/>
    <nd ref="320844602"/>
    <tag k="highway" v="secondary"/>
    <tag k="name" v="Paradise Street"/>
    <tag k="source" v="survey"/>
    <tag k="surface" v="paved"/>
  </way>
  <way id="19292774" version="1" timestamp="2008-01-01T05:08:42Z" uid="4467" user="Rosscoe" changeset="498347">
    <nd ref="200377448"/>
    <nd ref="197214179"/>
    <nd ref="148812367"/>
    <tag k="created_by" v="JOSM"/>
    <tag k="highway" v="residential"/>
    <tag k="name" v="Milton Street"/>
    <tag k="source" v="gpsdrivetrack"/>
    <tag k="surface" v="paved"/>
  </way>
  <way id="19292774" version="2" timestamp="2008-01-10T02:41:49Z" uid="4467" user="Rosscoe" changeset="589280">
    <nd ref="200377448"/>
    <nd ref="197214179"/>
    <nd ref="148812367"/>
    <tag k="created_by" v="JOSM"/>
    <tag k="highway" v="residential"/>
    <tag k="name" v="Milton Street"/>
    <tag k="source" v="gpsdrivetrack"/>
    <tag k="surface" v="paved"/>
  </way>
  <way id="19292774" version="3" timestamp="2008-01-24T00:23:08Z" uid="4467" user="Rosscoe" changeset="686792">
    <nd ref="200377448"/>
    <nd ref="242842202"/>
    <nd ref="197214179"/>
    <nd ref="148812367"/>
    <tag k="created_by" v="JOSM"/>
    <tag k="highway" v="residential"/>
    <tag k="name" v="Milton Street"/>
    <tag k="source" v="gpsdrivetrack"/>
    <tag k="surface" v="paved"/>
  </way>
  <way id="19292774" version="4" timestamp="2008-01-24T00:59:43Z" uid="4467" user="Rosscoe" changeset="686792">
    <nd ref="200377448"/>
    <nd ref="242842202"/>
    <nd ref="242847392"/>
    <nd ref="197214179"/>
    <nd ref="148812367"/>
    <tag k="created_by" v="JOSM"/>
    <tag k="highway" v="residential"/>
    <tag k="name" v="Milton Street"/>
    <tag k="source" v="gpsdrivetrack"/>
    <tag k="surface" v="paved"/>
  </way>
  <way id="19292774" version="5" timestamp="2008-12-22T07:29:21Z" uid="4467" user="Rosscoe" changeset="537738">
    <nd ref="200377448"/>
    <nd ref="242842202"/>
    <tag k="created_by" v="JOSM"/>
    <tag k="highway" v="secondary"/>
    <tag k="name" v="Milton Street"/>
    <tag k="source" v="gpsdrivetrack"/>
    <tag k="surface" v="paved"/>
  </way>
  <way id="19292774" version="6" timestamp="2009-01-25T00:37:48Z" uid="4467" user="Rosscoe" changeset="832900">
    <nd ref="200377448"/>
    <nd ref="242842202"/>
    <tag k="created_by" v="JOSM"/>
    <tag k="highway" v="secondary"/>
    <tag k="name" v="Milton Street"/>
    <tag k="source" v="survey"/>
    <tag k="surface" v="paved"/>
  </way>
  <way id="19292774" version="7" timestamp="2011-05-12T08:56:51Z" uid="4467" user="Rosscoe" changeset="8119856">
    <nd ref="200377448"/>
    <nd ref="242842202"/>
    <tag k="highway" v="secondary"/>
    <tag k="name" v="Milton Street"/>
    <tag k="source" v="survey"/>
    <tag k="surface" v="paved"/>
  </way>
  <way id="19292775" version="1" timestamp="2008-01-01T05:08:43Z" uid="4467" user="Rosscoe" changeset="498347">
    <nd ref="200377486"/>
    <nd ref="200377505"/>
    <nd ref="200377534"/>
    <nd ref="200377565"/>
    <nd ref="200377589"/>
    <nd ref="200377607"/>
    <nd ref="200377486"/>
    <tag k="created_by" v="JOSM"/>
    <tag k="sport" v="multi"/>
  </way>
  <way id="19292775" version="2" timestamp="2008-01-06T03:48:04Z" uid="4467" user="Rosscoe" changeset="556058">
    <nd ref="200377486"/>
    <nd ref="200377505"/>
    <nd ref="200377565"/>
    <nd ref="200377607"/>
    <nd ref="200377486"/>
    <tag k="created_by" v="JOSM"/>
    <tag k="sport" v="hockey"/>
  </way>
  <way id="19292775" version="3" timestamp="2008-02-28T00:08:17Z" uid="4467" user="Rosscoe" changeset="222292">
    <nd ref="200377486"/>
    <nd ref="200377505"/>
    <nd ref="200377565"/>
    <nd ref="200377607"/>
    <nd ref="200377486"/>
    <tag k="area" v="yes"/>
    <tag k="created_by" v="Potlatch 0.7b"/>
    <tag k="sport" v="hockey"/>
  </way>
  <way id="19292775" version="4" timestamp="2008-12-22T08:57:10Z" uid="4467" user="Rosscoe" changeset="537738">
    <nd ref="200377486"/>
    <nd ref="200377505"/>
    <nd ref="200377565"/>
    <nd ref="200377607"/>
    <nd ref="200377486"/>
    <tag k="area" v="yes"/>
    <tag k="created_by" v="Potlatch 0.10f"/>
    <tag k="sport" v="hockey"/>
  </way>
  <way id="19292775" version="5" timestamp="2011-05-12T08:56:19Z" uid="4467" user="Rosscoe" changeset="8119856">
    <nd ref="200377486"/>
    <nd ref="200377505"/>
    <nd ref="200377565"/>
    <nd ref="200377607"/>
    <nd ref="200377486"/>
    <tag k="area" v="yes"/>
    <tag k="sport" v="hockey"/>
  </way>
  <way id="19292933" version="8" timestamp="2010-03-27T23:27:17Z" uid="20587" user="balrog-kun" changeset="4250871">
    <nd ref="267990356"/>
    <nd ref="123622910"/>
    <nd ref="267990387"/>
    <nd ref="123622909"/>
    <nd ref="267990391"/>
    <nd ref="267990390"/>
    <nd ref="123174742"/>
    <tag k="highway" v="trunk"/>
    <tag k="name" v="South la Cienega Boulevard"/>
    <tag k="oneway" v="yes"/>
    <tag k="tiger:cfcc" v="A41"/>
    <tag k="tiger:county" v="Los Angeles, CA"/>
    <tag k="tiger:name_base" v="la Cienega"/>
    <tag k="tiger:name_direction_prefix" v="S"/>
    <tag k="tiger:name_type" v="Blvd"/>
    <tag k="tiger:separated" v="no"/>
    <tag k="tiger:source" v="tiger_import_dch_v0.6_20070809"/>
    <tag k="tiger:tlid" v="141655822:141655824:142455253:142455254:141655831:141655834:142455282"/>
    <tag k="tiger:zip_left" v="90304"/>
    <tag k="tiger:zip_right" v="90250"/>
  </way>
</osm>
