<?xml version='1.0' encoding='UTF-8'?>
<osm version="0.6" generator="libosmium/2.20.0">
  <way id="19293089" version="2" timestamp="2010-05-16T12:24:44Z" uid="242497" user="cvl" changeset="4716432">
    <nd ref="200370777"/>
    <nd ref="200382114"/>
    <tag k="highway" v="residential"/>
    <tag k="name" v="Lorne Road"/>
  </way>
  <way id="19293089" version="3" timestamp="2010-07-09T17:57:57Z" uid="74617" user="JohnSmith" changeset="5175636">
    <nd ref="200370777"/>
    <nd ref="200382114"/>
    <tag k="highway" v="residential"/>
    <tag k="maxspeed" v="50"/>
    <tag k="maxspeed:source" v="default residential speed limit in Australia"/>
    <tag k="name" v="Lorne Road"/>
  </way>
  <way id="19293181" version="2" timestamp="2010-07-09T18:03:18Z" uid="74617" user="JohnSmith" changeset="5175636">
    <nd ref="200383070"/>
    <nd ref="200383607"/>
    <tag k="highway" v="residential"/>
    <tag k="maxspeed" v="50"/>
    <tag k="maxspeed:source" v="default residential speed limit in Australia"/>
    <tag k="name" v="Huntly Court"/>
  </way>
  <way id="19293228" version="2" timestamp="2010-07-09T17:56:27Z" uid="74617" user="JohnSmith" changeset="5175636">
    <nd ref="200382129"/>
    <nd ref="200382128"/>
    <nd ref="200382126"/>
    <nd ref="200382125"/>
    <nd ref="200382123"/>
    <nd ref="200382122"/>
    <nd ref="200382121"/>
    <nd ref="200382120"/>
    <nd ref="200383759"/>
    <nd ref="200382118"/>
    <nd ref="200383070"/>
    <nd ref="200382117"/>
    <nd ref="200382116"/>
    <nd ref="200382115"/>
    <nd ref="200382114"/>
    <tag k="highway" v="residential"/>
    <tag k="maxspeed" v="50"/>
    <tag k="maxspeed:source" v="default residential speed limit in Australia"/>
    <tag k="name" v="Macaulay Avenue"/>
  </way>
  <way id="19293369" version="2" timestamp="2010-07-09T18:03:11Z" uid="74617" user="JohnSmith" changeset="5175636">
    <nd ref="200385682"/>
    <nd ref="200386106"/>
    <tag k="highway" v="residential"/>
    <tag k="maxspeed" v="50"/>
    <tag k="maxspeed:source" v="default residential speed limit in Australia"/>
    <tag k="name" v="Dornoch Court"/>
  </way>
  <way id="19293383" version="7" timestamp="2010-05-16T12:24:51Z" uid="242497" user="cvl" changeset="4716432">
    <nd ref="200387265"/>
    <nd ref="736393518"/>
    <nd ref="200388997"/>
    <nd ref="200390904"/>
    <nd ref="200387237"/>
    <tag k="highway" v="residential"/>
    <tag k="name" v="Pentland Avenue"/>
  </way>
  <way id="19293383" version="8" timestamp="2010-07-09T18:01:46Z" uid="74617" user="JohnSmith" changeset="5175636">
    <nd ref="200387265"/>
    <nd ref="736393518"/>
    <nd ref="200388997"/>
    <nd ref="200390904"/>
    <nd ref="200387237"/>
    <tag k="highway" v="residential"/>
    <tag k="maxspeed" v="50"/>
    <tag k="maxspeed:source" v="default residential speed limit in Australia"/>
    <tag k="name" v="Pentland Avenue"/>
  </way>
  <way id="19293386" version="2" timestamp="2010-07-09T17:58:30Z" uid="74617" user="JohnSmith" changeset="5175636">
    <nd ref="200383759"/>
    <nd ref="200384003"/>
    <nd ref="200384005"/>
    <nd ref="200384006"/>
    <nd ref="200385682"/>
    <nd ref="200382129"/>
    <nd ref="200384124"/>
    <tag k="highway" v="residential"/>
    <tag k="maxspeed" v="50"/>
    <tag k="maxspeed:source" v="default residential speed limit in Australia"/>
    <tag k="name" v="Elderslie Way"/>
  </way>
  <way id="19293465" version="3" timestamp="2010-07-09T18:03:36Z" uid="74617" user="JohnSmith" changeset="5175636">
    <nd ref="200387237"/>
    <nd ref="200387239"/>
    <nd ref="200387240"/>
    <nd ref="200387241"/>
    <nd ref="200387242"/>
    <nd ref="200384124"/>
    <nd ref="200386195"/>
    <tag k="highway" v="residential"/>
    <tag k="maxspeed" v="50"/>
    <tag k="maxspeed:source" v="default residential speed limit in Australia"/>
    <tag k="name" v="Netherby Road"/>
  </way>
  <way id="19293605" version="5" timestamp="2010-07-09T17:58:50Z" uid="74617" user="JohnSmith" changeset="5175636">
    <nd ref="200388332"/>
    <nd ref="200796175"/>
    <nd ref="200389381"/>
    <nd ref="200388989"/>
    <nd ref="200388990"/>
    <nd ref="631686782"/>
    <nd ref="200388992"/>
    <nd ref="200388993"/>
    <nd ref="200388994"/>
    <nd ref="200388995"/>
    <nd ref="200388996"/>
    <nd ref="631686785"/>
    <nd ref="200388997"/>
    <tag k="highway" v="residential"/>
    <tag k="maxspeed" v="50"/>
    <tag k="maxspeed:source" v="default residential speed limit in Australia"/>
    <tag k="name" v="Carlyle Crescent"/>
  </way>
  <way id="19293670" version="2" timestamp="2010-07-09T17:57:04Z" uid="74617" user="JohnSmith" changeset="5175636">
    <nd ref="200389381"/>
    <nd ref="200389702"/>
    <tag k="highway" v="residential"/>
    <tag k="maxspeed" v="50"/>
    <tag k="maxspeed:source" v="default residential speed limit in Australia"/>
    <tag k="name" v="Fyne Court"/>
  </way>
  <way id="19293698" version="4" timestamp="2010-07-09T18:03:13Z" uid="74617" user="JohnSmith" changeset="5175636">
    <nd ref="200388989"/>
    <nd ref="200390224"/>
    <nd ref="200391298"/>
    <tag k="highway" v="residential"/>
    <tag k="maxspeed" v="50"/>
    <tag k="maxspeed:source" v="default residential speed limit in Australia"/>
    <tag k="name" v="Broxburn Place"/>
  </way>
  <way id="19293721" version="3" timestamp="2010-07-09T17:57:51Z" uid="74617" user="JohnSmith" changeset="5175636">
    <nd ref="200390224"/>
    <nd ref="200390547"/>
    <tag k="highway" v="residential"/>
    <tag k="maxspeed" v="50"/>
    <tag k="maxspeed:source" v="default residential speed limit in Australia"/>
    <tag k="name" v="Branton Court"/>
  </way>
  <way id="19293757" version="6" timestamp="2010-05-16T12:24:48Z" uid="242497" user="cvl" changeset="4716432">
    <nd ref="200390904"/>
    <nd ref="240616386"/>
    <nd ref="200391107"/>
    <nd ref="200391109"/>
    <nd ref="200391112"/>
    <nd ref="200392265"/>
    <nd ref="200391298"/>
    <nd ref="736393487"/>
    <nd ref="200391113"/>
    <tag k="highway" v="residential"/>
    <tag k="name" v="Aberfeldy Crescent"/>
  </way>
  <way id="19293757" version="7" timestamp="2010-07-09T17:56:14Z" uid="74617" user="JohnSmith" changeset="5175636">
    <nd ref="200390904"/>
    <nd ref="240616386"/>
    <nd ref="200391107"/>
    <nd ref="200391109"/>
    <nd ref="200391112"/>
    <nd ref="200392265"/>
    <nd ref="200391298"/>
    <nd ref="736393487"/>
    <nd ref="200391113"/>
    <tag k="highway" v="residential"/>
    <tag k="maxspeed" v="50"/>
    <tag k="maxspeed:source" v="default residential speed limit in Australia"/>
    <tag k="name" v="Aberfeldy Crescent"/>
  </way>
  <way id="19293833" version="4" timestamp="2010-05-16T12:24:47Z" uid="242497" user="cvl" changeset="4716432">
    <nd ref="200391113"/>
    <nd ref="736393465"/>
    <nd ref="200392270"/>
    <nd ref="200392271"/>
    <nd ref="200392273"/>
    <nd ref="580921320"/>
    <nd ref="200392274"/>
    <nd ref="200392275"/>
    <nd ref="200392276"/>
    <nd ref="200392265"/>
    <tag k="highway" v="residential"/>
    <tag k="name" v="Colgrave Way"/>
  </way>
  <way id="19293833" version="5" timestamp="2010-07-09T17:58:05Z" uid="74617" user="JohnSmith" changeset="5175636">
    <nd ref="200391113"/>
    <nd ref="736393465"/>
    <nd ref="200392270"/>
    <nd ref="200392271"/>
    <nd ref="200392273"/>
    <nd ref="580921320"/>
    <nd ref="200392274"/>
    <nd ref="200392275"/>
    <nd ref="200392276"/>
    <nd ref="200392265"/>
    <tag k="highway" v="residential"/>
    <tag k="maxspeed" v="50"/>
    <tag k="maxspeed:source" v="default residential speed limit in Australia"/>
    <tag k="name" v="Colgrave Way"/>
  </way>
</osm>
