<?xml version='1.0' encoding='UTF-8'?>
<osm version="0.6" generator="libosmium/2.20.0">
  <way id="19317050" version="4" timestamp="2010-02-14T17:17:17Z" uid="74617" user="JohnSmith" changeset="3875836">
    <nd ref="200691672"/>
    <nd ref="200713185"/>
    <nd ref="200713186"/>
    <nd ref="26336579"/>
    <tag k="highway" v="unclassified"/>
    <tag k="maxspeed" v="50"/>
    <tag k="name" v="Stratton Street"/>
  </way>
  <way id="19317094" version="4" timestamp="2010-02-14T17:17:17Z" uid="74617" user="JohnSmith" changeset="3875836">
    <nd ref="200691673"/>
    <nd ref="200713778"/>
    <nd ref="200713779"/>
    <nd ref="26336580"/>
    <tag k="highway" v="unclassified"/>
    <tag k="maxspeed" v="50"/>
    <tag k="name" v="Kyabra Street"/>
  </way>
  <way id="19317305" version="4" timestamp="2010-02-14T17:17:16Z" uid="74617" user="JohnSmith" changeset="3875836">
    <nd ref="200691675"/>
    <nd ref="200717008"/>
    <nd ref="200717009"/>
    <nd ref="26336581"/>
    <tag k="highway" v="unclassified"/>
    <tag k="maxspeed" v="50"/>
    <tag k="name" v="Doggett Street"/>
  </way>
  <way id="19317371" version="4" timestamp="2010-02-14T17:17:16Z" uid="74617" user="JohnSmith" changeset="3875836">
    <nd ref="200691678"/>
    <nd ref="200717945"/>
    <nd ref="200717946"/>
    <nd ref="200717948"/>
    <nd ref="26336582"/>
    <tag k="highway" v="unclassified"/>
    <tag k="maxspeed" v="50"/>
    <tag k="name" v="Masters Street"/>
  </way>
  <way id="19317373" version="5" timestamp="2010-02-14T17:17:16Z" uid="74617" user="JohnSmith" changeset="3875836">
    <nd ref="200691680"/>
    <nd ref="200717961"/>
    <nd ref="200717963"/>
    <nd ref="200717965"/>
    <nd ref="26336586"/>
    <tag k="highway" v="unclassified"/>
    <tag k="maxspeed" v="50"/>
    <tag k="name" v="Helen Street"/>
  </way>
  <way id="19317690" version="3" timestamp="2010-07-06T08:46:33Z" uid="74617" user="JohnSmith" changeset="5147679">
    <nd ref="179907364"/>
    <nd ref="189575845"/>
    <nd ref="189575874"/>
    <nd ref="189575903"/>
    <nd ref="189575985"/>
    <nd ref="189576074"/>
    <nd ref="189576161"/>
    <tag k="highway" v="residential"/>
    <tag k="maxspeed" v="50"/>
    <tag k="maxspeed:source" v="default residential speed limit in Australia"/>
    <tag k="name" v="Eva Street"/>
  </way>
  <way id="19317711" version="4" timestamp="2010-02-14T17:17:16Z" uid="74617" user="JohnSmith" changeset="3875836">
    <nd ref="200717946"/>
    <nd ref="200723187"/>
    <nd ref="200723188"/>
    <tag k="highway" v="unclassified"/>
    <tag k="maxspeed" v="50"/>
    <tag k="name" v="Wyatt Street"/>
  </way>
</osm>
