<?xml version='1.0' encoding='UTF-8'?>
<osm version="0.6" generator="libosmium/2.20.0">
  <way id="19332346" version="5" timestamp="2010-02-14T17:16:26Z" uid="74617" user="JohnSmith" changeset="3875836">
    <nd ref="26335016"/>
    <nd ref="26335017"/>
    <nd ref="200868805"/>
    <tag k="highway" v="primary"/>
    <tag k="name" v="Gregory Terrace"/>
    <tag k="ref" v="S10"/>
  </way>
  <way id="19332346" version="6" timestamp="2010-03-20T16:50:12Z" uid="74617" user="JohnSmith" changeset="4181928">
    <nd ref="26335016"/>
    <nd ref="26335017"/>
    <nd ref="200868805"/>
    <tag k="highway" v="primary"/>
    <tag k="name" v="Gregory Terrace"/>
  </way>
  <way id="19332346" version="7" timestamp="2010-03-20T17:08:27Z" uid="74617" user="JohnSmith" changeset="4182158">
    <nd ref="26335016"/>
    <nd ref="26335017"/>
    <nd ref="670642838"/>
    <nd ref="670642837"/>
    <tag k="highway" v="primary"/>
    <tag k="name" v="Gregory Terrace"/>
  </way>
  <way id="19332396" version="1" timestamp="2008-01-01T10:49:05Z" uid="7617" user="Franc" changeset="499891">
    <nd ref="199991863"/>
    <nd ref="199992034"/>
    <tag k="created_by" v="JOSM"/>
    <tag k="highway" v="residential"/>
    <tag k="source" v="survey"/>
  </way>
  <way id="19332396" version="2" timestamp="2008-02-19T11:43:21Z" uid="7617" user="Franc" changeset="158686">
    <nd ref="199991863"/>
    <nd ref="199992034"/>
    <tag k="created_by" v="JOSM"/>
    <tag k="highway" v="residential"/>
    <tag k="source" v="survey"/>
  </way>
  <way id="19332396" version="3" timestamp="2009-11-21T12:35:12Z" uid="7617" user="Franc" changeset="3175593">
    <nd ref="199991863"/>
    <nd ref="199992034"/>
    <tag k="highway" v="residential"/>
    <tag k="name" v="Melrose Parade"/>
    <tag k="source" v="survey"/>
    <tag k="source:name" v="extrapolation"/>
  </way>
  <way id="19332396" version="4" timestamp="2010-07-07T21:48:43Z" uid="74617" user="JohnSmith" changeset="5161069">
    <nd ref="199991863"/>
    <nd ref="199992034"/>
    <tag k="highway" v="residential"/>
    <tag k="maxspeed" v="50"/>
    <tag k="maxspeed:source" v="default residential speed limit in Australia"/>
    <tag k="name" v="Melrose Parade"/>
    <tag k="source" v="survey"/>
    <tag k="source:name" v="extrapolation"/>
  </way>
  <way id="19332400" version="1" timestamp="2008-01-01T10:49:06Z" uid="7617" user="Franc" changeset="499891">
    <nd ref="199992096"/>
    <nd ref="199992107"/>
    <tag k="created_by" v="JOSM"/>
    <tag k="highway" v="service"/>
    <tag k="oneway" v="yes"/>
    <tag k="source" v="yahoo_imagery"/>
  </way>
  <way id="19332404" version="1" timestamp="2008-01-01T10:49:06Z" uid="7617" user="Franc" changeset="499891">
    <nd ref="200028705"/>
    <nd ref="200028660"/>
    <nd ref="200028666"/>
    <nd ref="19172443"/>
    <tag k="created_by" v="JOSM"/>
    <tag k="highway" v="residential"/>
    <tag k="name" v="Lugar Street"/>
    <tag k="oneway" v="yes"/>
    <tag k="source" v="yahoo_imagery"/>
    <tag k="source:name" v="survey"/>
  </way>
  <way id="19332404" version="2" timestamp="2008-02-22T08:32:45Z" uid="7617" user="Franc" changeset="176531"/>
  <way id="19332668" version="6" timestamp="2010-02-15T05:08:34Z" uid="74617" user="JohnSmith" changeset="3880242">
    <nd ref="124722946"/>
    <nd ref="200881684"/>
    <nd ref="200881687"/>
    <nd ref="200881688"/>
    <nd ref="200881691"/>
    <nd ref="200881693"/>
    <nd ref="200881695"/>
    <nd ref="200881697"/>
    <nd ref="200881700"/>
    <nd ref="200881701"/>
    <nd ref="130160000"/>
    <tag k="highway" v="residential"/>
    <tag k="maxspeed" v="50"/>
    <tag k="name" v="Cecil Road"/>
  </way>
  <way id="19332778" version="4" timestamp="2010-02-15T05:09:03Z" uid="74617" user="JohnSmith" changeset="3880242">
    <nd ref="81014925"/>
    <nd ref="200883039"/>
    <tag k="highway" v="residential"/>
    <tag k="maxspeed" v="50"/>
    <tag k="name" v="Northam Avenue"/>
  </way>
  <way id="19332822" version="5" timestamp="2010-02-15T05:08:42Z" uid="74617" user="JohnSmith" changeset="3880242">
    <nd ref="200883039"/>
    <nd ref="200883526"/>
    <nd ref="200883527"/>
    <nd ref="200883528"/>
    <nd ref="200883530"/>
    <nd ref="200883532"/>
    <tag k="highway" v="residential"/>
    <tag k="maxspeed" v="50"/>
    <tag k="name" v="Northam Avenue"/>
    <tag k="oneway" v="yes"/>
  </way>
  <way id="19332873" version="5" timestamp="2010-02-15T05:08:41Z" uid="74617" user="JohnSmith" changeset="3880242">
    <nd ref="200883532"/>
    <nd ref="200884111"/>
    <nd ref="200884112"/>
    <nd ref="200884113"/>
    <nd ref="200884114"/>
    <nd ref="200883039"/>
    <tag k="highway" v="residential"/>
    <tag k="maxspeed" v="50"/>
    <tag k="name" v="Northam Avenue"/>
    <tag k="oneway" v="yes"/>
  </way>
  <way id="19332897" version="4" timestamp="2010-02-15T05:08:49Z" uid="74617" user="JohnSmith" changeset="3880242">
    <nd ref="200883532"/>
    <nd ref="200881695"/>
    <tag k="highway" v="residential"/>
    <tag k="maxspeed" v="50"/>
    <tag k="name" v="Northam Avenue"/>
  </way>
  <way id="19332942" version="4" timestamp="2010-07-03T23:11:09Z" uid="4467" user="Rosscoe" changeset="5128870">
    <nd ref="200884896"/>
    <nd ref="200884899"/>
    <nd ref="200744403"/>
    <nd ref="200755943"/>
    <nd ref="200725943"/>
    <nd ref="200884902"/>
    <nd ref="200884905"/>
    <nd ref="200751072"/>
    <nd ref="200884908"/>
    <nd ref="200743069"/>
    <nd ref="200884913"/>
    <nd ref="200884914"/>
    <nd ref="200884915"/>
    <nd ref="200819401"/>
    <nd ref="200884917"/>
    <nd ref="200884919"/>
    <nd ref="200884923"/>
    <nd ref="200884927"/>
    <tag k="highway" v="secondary"/>
    <tag k="name" v="School Street"/>
    <tag k="name_1" v="State Route 268"/>
    <tag k="old_ref_legislative" v="251"/>
    <tag k="ref" v="268"/>
    <tag k="tiger:cfcc" v="A31"/>
    <tag k="tiger:county" v="Butler, PA"/>
    <tag k="tiger:name_base" v="School"/>
    <tag k="tiger:name_base_1" v="State Route 268"/>
    <tag k="tiger:name_type" v="St"/>
    <tag k="tiger:reviewed" v="no"/>
    <tag k="tiger:separated" v="no"/>
    <tag k="tiger:source" v="tiger_import_dch_v0.6_20070829"/>
    <tag k="tiger:tlid" v="52663579:52663824:52663583"/>
    <tag k="tiger:upload_uuid" v="bulk_upload.pl-866b7548-d1f8-41ce-a146-1fbc5545abb6"/>
    <tag k="tiger:zip_left" v="16049"/>
    <tag k="tiger:zip_right" v="16049"/>
  </way>
</osm>
