<?xml version='1.0' encoding='UTF-8'?>
<osm version="0.6" generator="libosmium/2.20.0">
  <way id="19330106" version="4" timestamp="2010-07-03T22:18:41Z" uid="4467" user="Rosscoe" changeset="5128573">
    <nd ref="200853279"/>
    <nd ref="200853283"/>
    <nd ref="200853287"/>
    <nd ref="200853290"/>
    <nd ref="200853292"/>
    <nd ref="200853293"/>
    <nd ref="200853295"/>
    <nd ref="200853297"/>
    <nd ref="200853299"/>
    <nd ref="200853301"/>
    <nd ref="200753550"/>
    <tag k="highway" v="secondary"/>
    <tag k="name" v="Bruin Main Street"/>
    <tag k="name_1" v="State Route 268"/>
    <tag k="old_ref_legislative" v="251"/>
    <tag k="ref" v="268"/>
    <tag k="tiger:cfcc" v="A31"/>
    <tag k="tiger:county" v="Butler, PA"/>
    <tag k="tiger:name_base" v="Bruin Main"/>
    <tag k="tiger:name_base_1" v="State Route 268"/>
    <tag k="tiger:name_type" v="St"/>
    <tag k="tiger:reviewed" v="no"/>
    <tag k="tiger:separated" v="no"/>
    <tag k="tiger:source" v="tiger_import_dch_v0.6_20070829"/>
    <tag k="tiger:tlid" v="52691033"/>
    <tag k="tiger:upload_uuid" v="bulk_upload.pl-866b7548-d1f8-41ce-a146-1fbc5545abb6"/>
    <tag k="tiger:zip_left" v="16050"/>
    <tag k="tiger:zip_right" v="16050"/>
  </way>
  <way id="19330308" version="4" timestamp="2010-02-14T17:17:19Z" uid="74617" user="JohnSmith" changeset="3875836">
    <nd ref="72560723"/>
    <nd ref="26336881"/>
    <nd ref="320091438"/>
    <nd ref="200855504"/>
    <nd ref="200806717"/>
    <tag k="highway" v="primary"/>
    <tag k="name" v="Montpelier Road"/>
    <tag k="oneway" v="yes"/>
    <tag k="ref" v="S10"/>
  </way>
  <way id="19330308" version="5" timestamp="2010-03-20T16:50:13Z" uid="74617" user="JohnSmith" changeset="4181928">
    <nd ref="72560723"/>
    <nd ref="26336881"/>
    <nd ref="320091438"/>
    <nd ref="200855504"/>
    <nd ref="200806717"/>
    <tag k="highway" v="primary"/>
    <tag k="name" v="Montpelier Road"/>
    <tag k="oneway" v="yes"/>
  </way>
</osm>
