<?xml version='1.0' encoding='UTF-8'?>
<osm version="0.6" generator="libosmium/2.20.0">
  <way id="19335032" version="4" timestamp="2010-02-15T05:09:15Z" uid="74617" user="JohnSmith" changeset="3880242">
    <nd ref="130159522"/>
    <nd ref="200912992"/>
    <nd ref="200912995"/>
    <nd ref="200912996"/>
    <tag k="highway" v="residential"/>
    <tag k="maxspeed" v="50"/>
    <tag k="name" v="Panorama Street"/>
  </way>
  <way id="19335121" version="7" timestamp="2010-02-15T05:09:18Z" uid="74617" user="JohnSmith" changeset="3880242">
    <nd ref="200914042"/>
    <nd ref="200914392"/>
    <nd ref="200890187"/>
    <tag k="highway" v="service"/>
    <tag k="maxspeed" v="50"/>
    <tag k="name" v="Davies Road"/>
    <tag k="oneway" v="yes"/>
  </way>
  <way id="19335197" version="3" timestamp="2010-02-15T05:09:17Z" uid="74617" user="JohnSmith" changeset="3880242">
    <nd ref="200903226"/>
    <nd ref="200915864"/>
    <nd ref="200912996"/>
    <nd ref="200915865"/>
    <nd ref="200915866"/>
    <nd ref="200915867"/>
    <tag k="highway" v="residential"/>
    <tag k="maxspeed" v="50"/>
    <tag k="name" v="Milpera Street"/>
  </way>
  <way id="19335205" version="5" timestamp="2010-02-14T17:16:48Z" uid="74617" user="JohnSmith" changeset="3875836">
    <nd ref="95786505"/>
    <nd ref="95786506"/>
    <tag k="highway" v="unclassified"/>
    <tag k="maxspeed" v="50"/>
    <tag k="name" v="Edgar Street"/>
  </way>
  <way id="19335246" version="4" timestamp="2010-02-15T05:09:17Z" uid="74617" user="JohnSmith" changeset="3880242">
    <nd ref="200912995"/>
    <nd ref="200916667"/>
    <nd ref="200916668"/>
    <tag k="highway" v="residential"/>
    <tag k="maxspeed" v="50"/>
    <tag k="name" v="View Parade"/>
  </way>
  <way id="19335276" version="6" timestamp="2010-02-14T17:16:52Z" uid="74617" user="JohnSmith" changeset="3875836">
    <nd ref="95786906"/>
    <nd ref="200917058"/>
    <nd ref="200917059"/>
    <tag k="highway" v="unclassified"/>
    <tag k="maxspeed" v="50"/>
    <tag k="name" v="Pace Street"/>
  </way>
  <way id="19335343" version="9" timestamp="2010-02-15T05:09:14Z" uid="74617" user="JohnSmith" changeset="3880242">
    <nd ref="200888828"/>
    <nd ref="200914040"/>
    <nd ref="200914041"/>
    <nd ref="200914042"/>
    <nd ref="200918183"/>
    <nd ref="200918185"/>
    <nd ref="200918187"/>
    <nd ref="200918188"/>
    <nd ref="200915867"/>
    <nd ref="200918189"/>
    <nd ref="200916668"/>
    <nd ref="200918190"/>
    <nd ref="200918191"/>
    <nd ref="200918192"/>
    <nd ref="130159517"/>
    <tag k="highway" v="residential"/>
    <tag k="maxspeed" v="50"/>
    <tag k="name" v="Davies Road"/>
  </way>
  <way id="19335468" version="4" timestamp="2010-02-15T05:09:09Z" uid="74617" user="JohnSmith" changeset="3880242">
    <nd ref="200918188"/>
    <nd ref="200919417"/>
    <nd ref="200919418"/>
    <nd ref="130159735"/>
    <nd ref="130159734"/>
    <nd ref="130159733"/>
    <nd ref="130159732"/>
    <nd ref="130159731"/>
    <nd ref="130159730"/>
    <nd ref="130159729"/>
    <nd ref="130159728"/>
    <nd ref="130159727"/>
    <nd ref="130159726"/>
    <nd ref="130159725"/>
    <nd ref="130159724"/>
    <nd ref="130159723"/>
    <nd ref="130159722"/>
    <nd ref="130159721"/>
    <nd ref="130159720"/>
    <tag k="highway" v="residential"/>
    <tag k="maxspeed" v="50"/>
    <tag k="name" v="Atthow Avenue"/>
  </way>
  <way id="19335633" version="5" timestamp="2010-02-15T05:09:18Z" uid="74617" user="JohnSmith" changeset="3880242">
    <nd ref="130159516"/>
    <nd ref="200921091"/>
    <nd ref="200921094"/>
    <nd ref="200921096"/>
    <nd ref="200921098"/>
    <tag k="highway" v="residential"/>
    <tag k="maxspeed" v="50"/>
    <tag k="name" v="Jaloon Street"/>
  </way>
  <way id="19335676" version="5" timestamp="2010-02-15T05:09:08Z" uid="74617" user="JohnSmith" changeset="3880242">
    <nd ref="200921094"/>
    <nd ref="200921577"/>
    <nd ref="200921578"/>
    <nd ref="246075420"/>
    <nd ref="200921581"/>
    <nd ref="200921582"/>
    <nd ref="200921583"/>
    <tag k="highway" v="residential"/>
    <tag k="maxspeed" v="50"/>
    <tag k="name" v="Jaloon Street"/>
  </way>
  <way id="19335919" version="4" timestamp="2010-02-15T05:08:08Z" uid="74617" user="JohnSmith" changeset="3880242">
    <nd ref="124758960"/>
    <nd ref="200924141"/>
    <nd ref="200924142"/>
    <nd ref="200924143"/>
    <tag k="highway" v="residential"/>
    <tag k="maxspeed" v="50"/>
    <tag k="name" v="Outlook Crescent"/>
  </way>
</osm>
