<?xml version='1.0' encoding='UTF-8'?>
<osm version="0.6" generator="libosmium/2.20.0">
  <way id="19426517" version="3" timestamp="2009-05-25T00:43:34Z" uid="20587" user="balrog-kun" changeset="1312332">
    <nd ref="202017500"/>
    <nd ref="202017473"/>
    <nd ref="202017494"/>
    <nd ref="410795586"/>
    <nd ref="169598467"/>
    <tag k="created_by" v="Potlatch 0.7b"/>
    <tag k="highway" v="residential"/>
    <tag k="name" v="Orzechowa"/>
    <tag k="source" v="landsat"/>
  </way>
  <way id="19426540" version="5" timestamp="2010-07-06T09:51:51Z" uid="74617" user="JohnSmith" changeset="5147679">
    <nd ref="361953653"/>
    <nd ref="170867100"/>
    <nd ref="202025424"/>
    <tag k="highway" v="residential"/>
    <tag k="maxspeed" v="50"/>
    <tag k="maxspeed:source" v="default residential speed limit in Australia"/>
    <tag k="name" v="Leura Terrace"/>
  </way>
  <way id="19426833" version="4" timestamp="2010-07-06T09:51:29Z" uid="74617" user="JohnSmith" changeset="5147679">
    <nd ref="170867092"/>
    <nd ref="202028279"/>
    <nd ref="170870930"/>
    <tag k="highway" v="residential"/>
    <tag k="maxspeed" v="50"/>
    <tag k="maxspeed:source" v="default residential speed limit in Australia"/>
    <tag k="name" v="Jenolan Avenue"/>
  </way>
  <way id="19426869" version="4" timestamp="2010-07-06T09:52:08Z" uid="74617" user="JohnSmith" changeset="5147679">
    <nd ref="170869229"/>
    <nd ref="202028747"/>
    <nd ref="202028748"/>
    <nd ref="170867095"/>
    <tag k="highway" v="residential"/>
    <tag k="maxspeed" v="50"/>
    <tag k="maxspeed:source" v="default residential speed limit in Australia"/>
    <tag k="name" v="Jenolan Avenue"/>
  </way>
  <way id="19426873" version="4" timestamp="2010-07-06T09:51:50Z" uid="74617" user="JohnSmith" changeset="5147679">
    <nd ref="170864754"/>
    <nd ref="202028830"/>
    <nd ref="202028831"/>
    <tag k="highway" v="residential"/>
    <tag k="maxspeed" v="50"/>
    <tag k="maxspeed:source" v="default residential speed limit in Australia"/>
    <tag k="name" v="Elliott Street"/>
  </way>
  <way id="19426876" version="5" timestamp="2010-07-06T09:52:20Z" uid="74617" user="JohnSmith" changeset="5147679">
    <nd ref="428992499"/>
    <nd ref="428992510"/>
    <nd ref="428992519"/>
    <nd ref="170845258"/>
    <nd ref="202028867"/>
    <nd ref="202028869"/>
    <tag k="highway" v="residential"/>
    <tag k="maxspeed" v="50"/>
    <tag k="maxspeed:source" v="default residential speed limit in Australia"/>
    <tag k="name" v="Malcolm Street"/>
  </way>
  <way id="19426880" version="5" timestamp="2010-07-06T09:52:55Z" uid="74617" user="JohnSmith" changeset="5147679">
    <nd ref="170860754"/>
    <nd ref="202028941"/>
    <tag k="highway" v="residential"/>
    <tag k="maxspeed" v="50"/>
    <tag k="maxspeed:source" v="default residential speed limit in Australia"/>
    <tag k="name" v="Birkai Street"/>
  </way>
</osm>
