<?xml version='1.0' encoding='UTF-8'?>
<osm version="0.6" generator="libosmium/2.20.0">
  <way id="19693038" version="4" timestamp="2009-02-08T12:08:22Z" uid="61114" user="Trav" changeset="280751">
    <nd ref="204514001"/>
    <nd ref="204514878"/>
    <nd ref="204514004"/>
    <nd ref="204514400"/>
    <nd ref="204514005"/>
    <nd ref="31393534"/>
    <tag k="created_by" v="Merkaartor 0.13"/>
    <tag k="highway" v="residential"/>
    <tag k="name" v="Orara Road"/>
    <tag k="source:name" v="survey"/>
  </way>
  <way id="19693038" version="5" timestamp="2010-07-07T23:34:56Z" uid="74617" user="JohnSmith" changeset="5162525">
    <nd ref="204514001"/>
    <nd ref="204514878"/>
    <nd ref="204514004"/>
    <nd ref="204514400"/>
    <nd ref="204514005"/>
    <nd ref="31393534"/>
    <tag k="highway" v="residential"/>
    <tag k="maxspeed" v="50"/>
    <tag k="maxspeed:source" v="default residential speed limit in Australia"/>
    <tag k="name" v="Orara Road"/>
    <tag k="source:name" v="survey"/>
  </way>
  <way id="19693062" version="3" timestamp="2009-02-08T12:08:25Z" uid="61114" user="Trav" changeset="280751">
    <nd ref="204514399"/>
    <nd ref="204518187"/>
    <nd ref="204514400"/>
    <tag k="created_by" v="Merkaartor 0.13"/>
    <tag k="highway" v="residential"/>
    <tag k="name" v="Peronne Parade"/>
  </way>
  <way id="19693062" version="4" timestamp="2010-07-07T23:34:13Z" uid="74617" user="JohnSmith" changeset="5162525">
    <nd ref="204514399"/>
    <nd ref="204518187"/>
    <nd ref="204514400"/>
    <tag k="highway" v="residential"/>
    <tag k="maxspeed" v="50"/>
    <tag k="maxspeed:source" v="default residential speed limit in Australia"/>
    <tag k="name" v="Peronne Parade"/>
  </way>
  <way id="19693087" version="2" timestamp="2009-02-08T12:08:23Z" uid="61114" user="Trav" changeset="280751">
    <nd ref="204514877"/>
    <nd ref="204514878"/>
    <tag k="created_by" v="Merkaartor 0.13"/>
    <tag k="highway" v="residential"/>
    <tag k="name" v="Fishbourne Road"/>
    <tag k="source:name" v="survey"/>
  </way>
  <way id="19693087" version="3" timestamp="2010-07-07T23:34:22Z" uid="74617" user="JohnSmith" changeset="5162525">
    <nd ref="204514877"/>
    <nd ref="204514878"/>
    <tag k="highway" v="residential"/>
    <tag k="maxspeed" v="50"/>
    <tag k="maxspeed:source" v="default residential speed limit in Australia"/>
    <tag k="name" v="Fishbourne Road"/>
    <tag k="source:name" v="survey"/>
  </way>
  <way id="19693129" version="3" timestamp="2009-02-21T08:18:20Z" uid="61114" user="Trav" changeset="599326">
    <nd ref="204515702"/>
    <nd ref="204515704"/>
    <nd ref="204515705"/>
    <nd ref="204515707"/>
    <nd ref="204515708"/>
    <tag k="created_by" v="Merkaartor 0.13"/>
    <tag k="highway" v="service"/>
    <tag k="name" v="James Street"/>
    <tag k="note" v="Access to 7-11 James Street"/>
  </way>
  <way id="19693129" version="4" timestamp="2010-03-07T13:09:53Z" uid="7617" user="Franc" changeset="4060692">
    <nd ref="204515702"/>
    <nd ref="204515704"/>
    <nd ref="204515705"/>
    <nd ref="204515708"/>
    <tag k="highway" v="service"/>
    <tag k="name" v="James Street"/>
    <tag k="note" v="Access to 7-11 James Street"/>
    <tag k="oneway" v="yes"/>
  </way>
  <way id="19693198" version="5" timestamp="2009-02-21T08:18:19Z" uid="61114" user="Trav" changeset="599326">
    <nd ref="204516017"/>
    <nd ref="204515710"/>
    <nd ref="204516965"/>
    <tag k="created_by" v="Merkaartor 0.13"/>
    <tag k="highway" v="residential"/>
    <tag k="name" v="James Street"/>
  </way>
  <way id="19693198" version="6" timestamp="2010-03-07T13:09:54Z" uid="7617" user="Franc" changeset="4060692">
    <nd ref="662196935"/>
    <nd ref="204516017"/>
    <nd ref="204515710"/>
    <nd ref="662196933"/>
    <nd ref="204516965"/>
    <tag k="highway" v="residential"/>
    <tag k="name" v="James Street"/>
  </way>
  <way id="19693198" version="7" timestamp="2010-07-07T23:35:12Z" uid="74617" user="JohnSmith" changeset="5162525">
    <nd ref="662196935"/>
    <nd ref="204516017"/>
    <nd ref="204515710"/>
    <nd ref="662196933"/>
    <nd ref="204516965"/>
    <tag k="highway" v="residential"/>
    <tag k="maxspeed" v="50"/>
    <tag k="maxspeed:source" v="default residential speed limit in Australia"/>
    <tag k="name" v="James Street"/>
  </way>
  <way id="19693267" version="2" timestamp="2009-02-08T12:08:23Z" uid="61114" user="Trav" changeset="280751">
    <nd ref="204518061"/>
    <nd ref="204516968"/>
    <nd ref="21398706"/>
    <tag k="created_by" v="Merkaartor 0.13"/>
    <tag k="highway" v="residential"/>
    <tag k="name" v="Fishbourne Road"/>
    <tag k="source:name" v="survey"/>
  </way>
  <way id="19693267" version="3" timestamp="2010-03-07T13:09:54Z" uid="7617" user="Franc" changeset="4060692">
    <nd ref="204518061"/>
    <nd ref="204516968"/>
    <nd ref="662196940"/>
    <nd ref="21398706"/>
    <nd ref="662196942"/>
    <tag k="highway" v="residential"/>
    <tag k="name" v="Fishbourne Road"/>
    <tag k="source:name" v="survey"/>
  </way>
  <way id="19693267" version="4" timestamp="2010-07-07T23:32:31Z" uid="74617" user="JohnSmith" changeset="5162525">
    <nd ref="204518061"/>
    <nd ref="204516968"/>
    <nd ref="662196940"/>
    <nd ref="21398706"/>
    <nd ref="662196942"/>
    <tag k="highway" v="residential"/>
    <tag k="maxspeed" v="50"/>
    <tag k="maxspeed:source" v="default residential speed limit in Australia"/>
    <tag k="name" v="Fishbourne Road"/>
    <tag k="source:name" v="survey"/>
  </way>
  <way id="19693311" version="6" timestamp="2009-02-08T12:08:25Z" uid="61114" user="Trav" changeset="280751">
    <nd ref="204518187"/>
    <nd ref="204519258"/>
    <nd ref="204518061"/>
    <nd ref="204519259"/>
    <nd ref="204519262"/>
    <nd ref="204519264"/>
    <nd ref="204520023"/>
    <nd ref="204519266"/>
    <nd ref="204519269"/>
    <nd ref="204519271"/>
    <nd ref="204519273"/>
    <nd ref="204519276"/>
    <nd ref="204519277"/>
    <nd ref="204519278"/>
    <tag k="created_by" v="Merkaartor 0.13"/>
    <tag k="highway" v="residential"/>
    <tag k="name" v="Smith Avenue"/>
    <tag k="source:name" v="survey"/>
  </way>
  <way id="19693311" version="7" timestamp="2010-03-31T09:26:35Z" uid="74617" user="JohnSmith" changeset="4283704">
    <nd ref="204518187"/>
    <nd ref="204519258"/>
    <nd ref="204518061"/>
    <nd ref="204519259"/>
    <nd ref="204519262"/>
    <nd ref="204519264"/>
    <nd ref="204520023"/>
    <nd ref="204519266"/>
    <nd ref="204519269"/>
    <nd ref="204519271"/>
    <nd ref="204519273"/>
    <nd ref="204519276"/>
    <nd ref="204519277"/>
    <nd ref="204519278"/>
    <tag k="highway" v="residential"/>
    <tag k="name" v="Smith Avenue"/>
    <tag k="source:name" v="survey"/>
  </way>
  <way id="19693311" version="8" timestamp="2010-07-07T23:35:13Z" uid="74617" user="JohnSmith" changeset="5162525">
    <nd ref="204518187"/>
    <nd ref="204519258"/>
    <nd ref="204518061"/>
    <nd ref="204519259"/>
    <nd ref="204519262"/>
    <nd ref="204519264"/>
    <nd ref="204520023"/>
    <nd ref="204519266"/>
    <nd ref="204519269"/>
    <nd ref="204519271"/>
    <nd ref="204519273"/>
    <nd ref="204519276"/>
    <nd ref="204519277"/>
    <nd ref="204519278"/>
    <tag k="highway" v="residential"/>
    <tag k="maxspeed" v="50"/>
    <tag k="maxspeed:source" v="default residential speed limit in Australia"/>
    <tag k="name" v="Smith Avenue"/>
    <tag k="source:name" v="survey"/>
  </way>
  <way id="19693330" version="2" timestamp="2010-07-07T23:33:51Z" uid="74617" user="JohnSmith" changeset="5162525">
    <nd ref="204520020"/>
    <nd ref="204520021"/>
    <nd ref="204520023"/>
    <tag k="highway" v="residential"/>
    <tag k="maxspeed" v="50"/>
    <tag k="maxspeed:source" v="default residential speed limit in Australia"/>
  </way>
  <way id="19693410" version="3" timestamp="2009-02-21T08:18:19Z" uid="61114" user="Trav" changeset="599326">
    <nd ref="204521256"/>
    <nd ref="204521572"/>
    <tag k="created_by" v="Merkaartor 0.13"/>
    <tag k="highway" v="residential"/>
    <tag k="name" v="Hargraves Street"/>
    <tag k="source:name" v="survey"/>
  </way>
  <way id="19693410" version="4" timestamp="2010-07-07T23:34:26Z" uid="74617" user="JohnSmith" changeset="5162525">
    <nd ref="204521256"/>
    <nd ref="204521572"/>
    <tag k="highway" v="residential"/>
    <tag k="maxspeed" v="50"/>
    <tag k="maxspeed:source" v="default residential speed limit in Australia"/>
    <tag k="name" v="Hargraves Street"/>
    <tag k="source:name" v="survey"/>
  </way>
  <way id="19693550" version="3" timestamp="2010-03-07T11:38:59Z" uid="7617" user="Franc" changeset="4059979">
    <nd ref="99693219"/>
    <nd ref="204523644"/>
    <nd ref="662154045"/>
    <nd ref="88639321"/>
    <tag k="highway" v="secondary"/>
    <tag k="name" v="Old Pittwater Road"/>
  </way>
  <way id="19693550" version="4" timestamp="2010-03-07T13:09:54Z" uid="7617" user="Franc" changeset="4060692">
    <nd ref="99693219"/>
    <nd ref="204523644"/>
    <nd ref="662154045"/>
    <nd ref="88639321"/>
    <nd ref="662196954"/>
    <tag k="highway" v="secondary"/>
    <tag k="name" v="Old Pittwater Road"/>
  </way>
  <way id="19693686" version="5" timestamp="2009-02-21T08:18:22Z" uid="61114" user="Trav" changeset="599326">
    <nd ref="204525344"/>
    <nd ref="204527002"/>
    <nd ref="204525346"/>
    <nd ref="204527001"/>
    <nd ref="204525347"/>
    <nd ref="204526998"/>
    <nd ref="204525348"/>
    <nd ref="204526996"/>
    <nd ref="204525344"/>
    <tag k="created_by" v="Merkaartor 0.13"/>
    <tag k="highway" v="residential"/>
    <tag k="junction" v="roundabout"/>
    <tag k="name" v="Clearview Place"/>
    <tag k="source:name" v="survey"/>
  </way>
  <way id="19693686" version="6" timestamp="2010-07-07T23:35:36Z" uid="74617" user="JohnSmith" changeset="5162525">
    <nd ref="204525344"/>
    <nd ref="204527002"/>
    <nd ref="204525346"/>
    <nd ref="204527001"/>
    <nd ref="204525347"/>
    <nd ref="204526998"/>
    <nd ref="204525348"/>
    <nd ref="204526996"/>
    <nd ref="204525344"/>
    <tag k="highway" v="residential"/>
    <tag k="junction" v="roundabout"/>
    <tag k="maxspeed" v="50"/>
    <tag k="maxspeed:source" v="default residential speed limit in Australia"/>
    <tag k="name" v="Clearview Place"/>
    <tag k="source:name" v="survey"/>
  </way>
  <way id="19693819" version="2" timestamp="2009-02-21T08:18:25Z" uid="61114" user="Trav" changeset="599326">
    <nd ref="204527511"/>
    <nd ref="204527513"/>
    <tag k="created_by" v="Merkaartor 0.13"/>
    <tag k="highway" v="unclassified"/>
    <tag k="name" v="Fitzell Place"/>
    <tag k="source:name" v="survey"/>
  </way>
  <way id="19693843" version="3" timestamp="2009-02-21T08:18:25Z" uid="61114" user="Trav" changeset="599326">
    <nd ref="204527844"/>
    <nd ref="204527845"/>
    <nd ref="204527846"/>
    <nd ref="204527848"/>
    <tag k="created_by" v="Merkaartor 0.13"/>
    <tag k="highway" v="residential"/>
    <tag k="name" v="Funda Place"/>
    <tag k="source:name" v="survey"/>
  </way>
  <way id="19693843" version="4" timestamp="2010-07-07T23:34:28Z" uid="74617" user="JohnSmith" changeset="5162525">
    <nd ref="204527844"/>
    <nd ref="204527845"/>
    <nd ref="204527846"/>
    <nd ref="204527848"/>
    <tag k="highway" v="residential"/>
    <tag k="maxspeed" v="50"/>
    <tag k="maxspeed:source" v="default residential speed limit in Australia"/>
    <tag k="name" v="Funda Place"/>
    <tag k="source:name" v="survey"/>
  </way>
  <way id="19693999" version="3" timestamp="2009-02-21T08:18:26Z" uid="61114" user="Trav" changeset="599326">
    <nd ref="204529490"/>
    <nd ref="204529491"/>
    <nd ref="204529493"/>
    <nd ref="204529494"/>
    <nd ref="204529496"/>
    <nd ref="204529497"/>
    <nd ref="204529499"/>
    <nd ref="99693169"/>
    <tag k="created_by" v="Merkaartor 0.13"/>
    <tag k="highway" v="residential"/>
    <tag k="name" v="Brookvale Avenue"/>
    <tag k="source:name" v="survey"/>
  </way>
  <way id="19693999" version="4" timestamp="2010-01-23T06:01:50Z" uid="30201" user="rrankin" changeset="3689199">
    <nd ref="204529490"/>
    <nd ref="204529491"/>
    <nd ref="204529493"/>
    <nd ref="204529494"/>
    <nd ref="204529496"/>
    <nd ref="204529497"/>
    <nd ref="204529499"/>
    <nd ref="618542444"/>
    <tag k="highway" v="residential"/>
    <tag k="name" v="Brookvale Avenue"/>
    <tag k="source:name" v="survey"/>
  </way>
  <way id="19693999" version="5" timestamp="2010-07-07T23:35:02Z" uid="74617" user="JohnSmith" changeset="5162525">
    <nd ref="204529490"/>
    <nd ref="204529491"/>
    <nd ref="204529493"/>
    <nd ref="204529494"/>
    <nd ref="204529496"/>
    <nd ref="204529497"/>
    <nd ref="204529499"/>
    <nd ref="618542444"/>
    <tag k="highway" v="residential"/>
    <tag k="maxspeed" v="50"/>
    <tag k="maxspeed:source" v="default residential speed limit in Australia"/>
    <tag k="name" v="Brookvale Avenue"/>
    <tag k="source:name" v="survey"/>
  </way>
</osm>
