<?xml version='1.0' encoding='UTF-8'?>
<osm version="0.6" generator="libosmium/2.20.0">
  <way id="19697136" version="4" timestamp="2010-03-07T11:38:59Z" uid="7617" user="Franc" changeset="4059979">
    <nd ref="204543022"/>
    <nd ref="204571537"/>
    <nd ref="204571538"/>
    <nd ref="662154098"/>
    <nd ref="662154099"/>
    <tag k="highway" v="service"/>
    <tag k="oneway" v="yes"/>
  </way>
  <way id="19697136" version="5" timestamp="2010-07-27T02:12:10Z" uid="4467" user="Rosscoe" changeset="5325816"/>
  <way id="19697452" version="3" timestamp="2010-07-27T02:11:58Z" uid="4467" user="Rosscoe" changeset="5325816">
    <nd ref="204549391"/>
    <nd ref="204545760"/>
    <nd ref="204545761"/>
    <tag k="highway" v="service"/>
    <tag k="tunnel" v="yes"/>
  </way>
  <way id="19697452" version="4" timestamp="2010-07-27T02:14:52Z" uid="4467" user="Rosscoe" changeset="5325828">
    <nd ref="204549391"/>
    <nd ref="204545761"/>
    <tag k="highway" v="service"/>
    <tag k="layer" v="-1"/>
    <tag k="tunnel" v="yes"/>
  </way>
  <way id="19697538" version="1" timestamp="2008-01-03T05:10:46Z" uid="4467" user="Rosscoe" changeset="527545">
    <nd ref="148830953"/>
    <nd ref="204578494"/>
    <tag k="created_by" v="JOSM"/>
    <tag k="highway" v="primary"/>
    <tag k="name" v="Peak Downs Highway"/>
    <tag k="ref" v="70"/>
    <tag k="source" v="gpsdrivetrack"/>
    <tag k="surface" v="paved"/>
  </way>
  <way id="19697538" version="2" timestamp="2008-01-10T02:40:07Z" uid="4467" user="Rosscoe" changeset="589280">
    <nd ref="148830953"/>
    <nd ref="204578494"/>
    <tag k="created_by" v="JOSM"/>
    <tag k="highway" v="primary"/>
    <tag k="name" v="Peak Downs Highway"/>
    <tag k="ref" v="70"/>
    <tag k="source" v="gpsdrivetrack"/>
    <tag k="surface" v="paved"/>
  </way>
  <way id="19697538" version="3" timestamp="2008-10-21T00:56:50Z" uid="4467" user="Rosscoe" changeset="487146">
    <nd ref="148830953"/>
    <nd ref="204578494"/>
    <tag k="created_by" v="JOSM"/>
    <tag k="highway" v="primary"/>
    <tag k="name" v="Peak Downs Highway"/>
    <tag k="ref" v="70"/>
    <tag k="source" v="survey"/>
    <tag k="surface" v="paved"/>
  </way>
  <way id="19697538" version="4" timestamp="2008-11-17T02:36:30Z" uid="4467" user="Rosscoe" changeset="759083"/>
  <way id="19697892" version="8" timestamp="2010-03-07T11:38:58Z" uid="7617" user="Franc" changeset="4059979">
    <nd ref="204583819"/>
    <nd ref="204583820"/>
    <nd ref="204583821"/>
    <nd ref="204583822"/>
    <nd ref="204583823"/>
    <nd ref="204583824"/>
    <nd ref="204583825"/>
    <nd ref="204583826"/>
    <nd ref="204583827"/>
    <nd ref="204583829"/>
    <nd ref="204583830"/>
    <nd ref="662154102"/>
    <nd ref="204583832"/>
    <nd ref="204583834"/>
    <nd ref="204583836"/>
    <nd ref="662154082"/>
    <nd ref="204583837"/>
    <nd ref="204583838"/>
    <nd ref="204583840"/>
    <nd ref="204583819"/>
    <tag k="landuse" v="retail"/>
    <tag k="name" v="Warringah Mall"/>
  </way>
  <way id="19697892" version="9" timestamp="2010-07-27T02:11:18Z" uid="4467" user="Rosscoe" changeset="5325816">
    <nd ref="204583819"/>
    <nd ref="204583820"/>
    <nd ref="204583821"/>
    <nd ref="204583822"/>
    <nd ref="204583823"/>
    <nd ref="204583824"/>
    <nd ref="204583825"/>
    <nd ref="204583826"/>
    <nd ref="834902619"/>
    <nd ref="204583827"/>
    <nd ref="204583829"/>
    <nd ref="204583830"/>
    <nd ref="662154102"/>
    <nd ref="204583832"/>
    <nd ref="204583834"/>
    <nd ref="204583836"/>
    <nd ref="662154082"/>
    <nd ref="204583837"/>
    <nd ref="204583838"/>
    <nd ref="204583840"/>
    <nd ref="204583819"/>
    <tag k="landuse" v="retail"/>
    <tag k="name" v="Warringah Mall"/>
  </way>
</osm>
