<?xml version='1.0' encoding='UTF-8'?>
<osm version="0.6" generator="libosmium/2.20.0">
  <way id="19736080" version="2" timestamp="2011-01-11T05:07:13Z" uid="4467" user="Rosscoe" changeset="6933451">
    <nd ref="205191827"/>
    <nd ref="205191828"/>
    <nd ref="205191830"/>
    <nd ref="205191831"/>
    <nd ref="205191832"/>
    <nd ref="205191833"/>
    <nd ref="205191834"/>
    <nd ref="205191835"/>
    <nd ref="1097691733"/>
    <nd ref="1097691700"/>
    <nd ref="1097691679"/>
    <nd ref="205191837"/>
    <nd ref="205191838"/>
    <nd ref="205191839"/>
    <nd ref="205191840"/>
    <nd ref="205191842"/>
    <nd ref="205191827"/>
    <tag k="leisure" v="park"/>
    <tag k="name" v="Kumbari Park"/>
  </way>
  <way id="19736257" version="15" timestamp="2011-02-09T22:32:33Z" uid="16922" user="amai" changeset="7241203">
    <nd ref="205194321"/>
    <nd ref="205194322"/>
    <tag k="bridge" v="viaduct"/>
    <tag k="highway" v="motorway"/>
    <tag k="layer" v="3"/>
    <tag k="name" v="สะพานพระรามเก้า"/>
    <tag k="name:en" v="Rama IX Bridge"/>
    <tag k="name:th" v="สะพานพระรามเก้า"/>
    <tag k="oneway" v="yes"/>
    <tag k="toll" v="yes"/>
  </way>
  <way id="19736296" version="16" timestamp="2011-02-10T22:44:29Z" uid="16922" user="amai" changeset="7250577">
    <nd ref="205194581"/>
    <nd ref="205194583"/>
    <nd ref="359656207"/>
    <tag k="bridge" v="viaduct"/>
    <tag k="highway" v="motorway"/>
    <tag k="layer" v="2"/>
    <tag k="name" v="สะพานพระรามเก้า"/>
    <tag k="name:en" v="Rama IX Bridge"/>
    <tag k="name:th" v="สะพานพระรามเก้า"/>
    <tag k="oneway" v="yes"/>
    <tag k="toll" v="yes"/>
  </way>
  <way id="19736327" version="3" timestamp="2008-06-20T20:06:19Z" uid="34428" user="usm78-gis" changeset="250112">
    <nd ref="334394"/>
    <nd ref="334393"/>
    <nd ref="334388"/>
    <nd ref="178281757"/>
    <nd ref="334387"/>
    <nd ref="271419512"/>
    <nd ref="271419513"/>
    <nd ref="271419514"/>
    <nd ref="271419515"/>
    <nd ref="271419516"/>
    <nd ref="271419517"/>
    <nd ref="271419518"/>
    <nd ref="271419519"/>
    <nd ref="271419520"/>
    <nd ref="271419521"/>
    <tag k="created_by" v="Potlatch 0.9c"/>
    <tag k="highway" v="residential"/>
  </way>
  <way id="19736491" version="6" timestamp="2010-12-30T16:39:10Z" uid="4467" user="Rosscoe" changeset="6811377">
    <nd ref="205221155"/>
    <nd ref="205634903"/>
    <nd ref="205196761"/>
    <nd ref="205196762"/>
    <nd ref="205196763"/>
    <nd ref="571344141"/>
    <nd ref="571344139"/>
    <nd ref="571344136"/>
    <nd ref="571344150"/>
    <nd ref="571344151"/>
    <nd ref="571344152"/>
    <tag k="highway" v="secondary"/>
    <tag k="name" v="Old North Road"/>
    <tag k="oneway" v="yes"/>
    <tag k="source" v="nearmap"/>
  </way>
  <way id="19736491" version="7" timestamp="2011-01-11T05:07:07Z" uid="4467" user="Rosscoe" changeset="6933451">
    <nd ref="205221155"/>
    <nd ref="205634903"/>
    <nd ref="205196761"/>
    <nd ref="205196762"/>
    <nd ref="205196763"/>
    <nd ref="571344141"/>
    <nd ref="571344139"/>
    <nd ref="571344136"/>
    <nd ref="571344150"/>
    <nd ref="571344151"/>
    <nd ref="1097691719"/>
    <nd ref="571344152"/>
    <tag k="highway" v="secondary"/>
    <tag k="name" v="Old North Road"/>
    <tag k="oneway" v="yes"/>
    <tag k="source" v="nearmap"/>
  </way>
  <way id="19736741" version="8" timestamp="2010-12-29T23:37:16Z" uid="9581" user="Lobelt" changeset="6804759">
    <nd ref="32925922"/>
    <nd ref="1071699648"/>
    <nd ref="205198771"/>
    <nd ref="307823070"/>
    <nd ref="205198774"/>
    <nd ref="205198775"/>
    <nd ref="307823855"/>
    <nd ref="205198776"/>
    <nd ref="205198777"/>
    <nd ref="205198778"/>
    <nd ref="205198779"/>
    <nd ref="205198780"/>
    <nd ref="32925921"/>
    <tag k="highway" v="service"/>
    <tag k="oneway" v="yes"/>
    <tag k="service" v="parking_aisle"/>
  </way>
  <way id="19736854" version="2" timestamp="2009-04-13T20:19:21Z" uid="30632" user="antblant" changeset="487279">
    <nd ref="205200360"/>
    <nd ref="205200363"/>
    <nd ref="205200365"/>
    <nd ref="205200368"/>
    <nd ref="205200371"/>
    <nd ref="205200374"/>
    <nd ref="205200375"/>
    <nd ref="205200376"/>
    <nd ref="205200377"/>
    <nd ref="205200378"/>
    <nd ref="205200379"/>
    <nd ref="205200360"/>
    <tag k="created_by" v="Potlatch 0.10f"/>
    <tag k="highway" v="primary"/>
    <tag k="junction" v="roundabout"/>
    <tag k="ref" v="20"/>
  </way>
  <way id="19736860" version="2" timestamp="2009-01-03T06:10:40Z" uid="20587" user="balrog-kun" changeset="717993">
    <nd ref="258223866"/>
    <nd ref="30981149"/>
    <tag k="created_by" v="JOSM"/>
    <tag k="highway" v="primary"/>
    <tag k="is_in" v="Kościerzyna"/>
    <tag k="name" v="Wojska Polskiego"/>
    <tag k="ref" v="20"/>
  </way>
  <way id="19736879" version="3" timestamp="2010-12-30T16:45:57Z" uid="4467" user="Rosscoe" changeset="6811443">
    <nd ref="205200778"/>
    <nd ref="205200780"/>
    <nd ref="205200781"/>
    <nd ref="205200782"/>
    <nd ref="205200783"/>
    <nd ref="205200787"/>
    <nd ref="205200789"/>
    <nd ref="205200790"/>
    <nd ref="205200791"/>
    <nd ref="205200792"/>
    <nd ref="205200793"/>
    <nd ref="205200796"/>
    <nd ref="205200798"/>
    <nd ref="205200802"/>
    <nd ref="205200778"/>
    <tag k="landuse" v="retail"/>
    <tag k="name" v="Warner Village"/>
  </way>
</osm>
