<?xml version='1.0' encoding='UTF-8'?>
<osm version="0.6" generator="libosmium/2.20.0">
  <way id="19751117" version="2" timestamp="2008-07-19T14:33:49Z" uid="4667" user="MapZ" changeset="539737">
    <nd ref="205428813"/>
    <nd ref="205428846"/>
    <nd ref="205428819"/>
    <nd ref="205428816"/>
    <tag k="created_by" v="JOSM"/>
    <tag k="highway" v="residential"/>
    <tag k="name" v="Lettengasse"/>
    <tag k="postal_code" v="69469"/>
  </way>
  <way id="19751117" version="3" timestamp="2008-07-19T14:45:23Z" uid="4667" user="MapZ" changeset="539737">
    <nd ref="205428813"/>
    <nd ref="205428846"/>
    <nd ref="205428819"/>
    <nd ref="205428816"/>
    <tag k="created_by" v="JOSM"/>
    <tag k="highway" v="residential"/>
    <tag k="name" v="Lettengasse"/>
    <tag k="postal_code" v="69493"/>
  </way>
  <way id="19751118" version="2" timestamp="2008-07-19T14:33:50Z" uid="4667" user="MapZ" changeset="539737">
    <nd ref="25778421"/>
    <nd ref="205428858"/>
    <tag k="created_by" v="JOSM"/>
    <tag k="highway" v="residential"/>
    <tag k="name" v="Im Scheibling"/>
    <tag k="postal_code" v="69469"/>
  </way>
  <way id="19751118" version="3" timestamp="2008-07-19T14:45:24Z" uid="4667" user="MapZ" changeset="539737">
    <nd ref="25778421"/>
    <nd ref="205428858"/>
    <tag k="created_by" v="JOSM"/>
    <tag k="highway" v="residential"/>
    <tag k="name" v="Im Scheibling"/>
    <tag k="postal_code" v="69493"/>
  </way>
  <way id="19751119" version="2" timestamp="2008-07-19T14:45:24Z" uid="4667" user="MapZ" changeset="539737">
    <nd ref="24914627"/>
    <nd ref="205428896"/>
    <nd ref="205428892"/>
    <nd ref="205428889"/>
    <nd ref="205428887"/>
    <nd ref="205428885"/>
    <nd ref="205428881"/>
    <nd ref="205428871"/>
    <nd ref="205428868"/>
    <nd ref="205428865"/>
    <tag k="created_by" v="JOSM"/>
    <tag k="highway" v="residential"/>
    <tag k="name" v="Brunnengasse"/>
  </way>
</osm>
