<?xml version='1.0' encoding='UTF-8'?>
<osm version="0.6" generator="libosmium/2.20.0">
  <way id="19769000" version="5" timestamp="2010-07-09T03:39:06Z" uid="74617" user="JohnSmith" changeset="5170825">
    <nd ref="205807017"/>
    <nd ref="205807019"/>
    <tag k="highway" v="residential"/>
    <tag k="maxspeed" v="50"/>
    <tag k="maxspeed:source" v="default residential speed limit in Australia"/>
    <tag k="name" v="Clover Court"/>
    <tag k="source" v="yahoo"/>
    <tag k="source:name" v="survey"/>
  </way>
  <way id="19769014" version="4" timestamp="2010-07-09T03:38:07Z" uid="74617" user="JohnSmith" changeset="5170825">
    <nd ref="205807313"/>
    <nd ref="205807314"/>
    <tag k="highway" v="residential"/>
    <tag k="maxspeed" v="50"/>
    <tag k="maxspeed:source" v="default residential speed limit in Australia"/>
    <tag k="name" v="Dorset Avenue"/>
    <tag k="source" v="yahoo"/>
    <tag k="source:name" v="survey"/>
  </way>
  <way id="19769064" version="7" timestamp="2010-07-09T03:37:33Z" uid="74617" user="JohnSmith" changeset="5170825">
    <nd ref="205802221"/>
    <nd ref="205812065"/>
    <nd ref="205812063"/>
    <nd ref="205810300"/>
    <nd ref="205808653"/>
    <nd ref="205808654"/>
    <nd ref="205808656"/>
    <nd ref="205808658"/>
    <tag k="highway" v="residential"/>
    <tag k="maxspeed" v="50"/>
    <tag k="maxspeed:source" v="default residential speed limit in Australia"/>
    <tag k="name" v="Viewbank Drive"/>
    <tag k="source" v="yahoo"/>
    <tag k="source:name" v="survey"/>
  </way>
  <way id="19769144" version="4" timestamp="2010-07-09T03:38:50Z" uid="74617" user="JohnSmith" changeset="5170825">
    <nd ref="205810300"/>
    <nd ref="284553517"/>
    <tag k="highway" v="residential"/>
    <tag k="maxspeed" v="50"/>
    <tag k="maxspeed:source" v="default residential speed limit in Australia"/>
    <tag k="name" v="Cresta Court"/>
    <tag k="source" v="yahoo"/>
    <tag k="source:name" v="survey"/>
  </way>
  <way id="19769224" version="4" timestamp="2010-07-09T03:39:01Z" uid="74617" user="JohnSmith" changeset="5170825">
    <nd ref="205812063"/>
    <nd ref="284550562"/>
    <tag k="highway" v="residential"/>
    <tag k="maxspeed" v="50"/>
    <tag k="maxspeed:source" v="default residential speed limit in Australia"/>
    <tag k="name" v="Outlook Court"/>
    <tag k="source" v="yahoo"/>
    <tag k="source:name" v="survey"/>
  </way>
  <way id="19769652" version="3" timestamp="2008-04-21T01:34:30Z" uid="7617" user="Franc" changeset="208640">
    <nd ref="205824196"/>
    <nd ref="258962129"/>
    <nd ref="33380685"/>
    <tag k="created_by" v="Potlatch 0.6a"/>
    <tag k="highway" v="residential"/>
    <tag k="name" v="Ti-Tree Close"/>
    <tag k="source" v="survey"/>
  </way>
  <way id="19769652" version="4" timestamp="2010-07-08T00:04:53Z" uid="74617" user="JohnSmith" changeset="5162525">
    <nd ref="205824196"/>
    <nd ref="258962129"/>
    <nd ref="33380685"/>
    <tag k="highway" v="residential"/>
    <tag k="maxspeed" v="50"/>
    <tag k="maxspeed:source" v="default residential speed limit in Australia"/>
    <tag k="name" v="Ti-Tree Close"/>
    <tag k="source" v="survey"/>
  </way>
  <way id="19769652" version="5" timestamp="2010-07-08T00:15:43Z" uid="74617" user="JohnSmith" changeset="5162525">
    <nd ref="205824196"/>
    <nd ref="258962129"/>
    <nd ref="33380685"/>
    <tag k="highway" v="residential"/>
    <tag k="maxspeed" v="50"/>
    <tag k="maxspeed:source" v="default residential speed limit in Australia"/>
    <tag k="name" v="Ti-Tree Close"/>
    <tag k="source" v="survey"/>
  </way>
  <way id="19769975" version="2" timestamp="2009-08-04T01:41:20Z" uid="4467" user="Rosscoe" changeset="2031326">
    <nd ref="205719346"/>
    <nd ref="205831965"/>
    <tag k="highway" v="unclassified"/>
    <tag k="name" v="Church Street"/>
    <tag k="note" v="Continues over crest."/>
    <tag k="surface" v="unpaved"/>
  </way>
</osm>
