<?xml version='1.0' encoding='UTF-8'?>
<osm version="0.6" generator="libosmium/2.20.0">
  <way id="19768058" version="2" timestamp="2011-03-14T15:42:23Z" uid="4467" user="Rosscoe" changeset="7557613">
    <nd ref="205782471"/>
    <nd ref="205782443"/>
    <nd ref="205782496"/>
    <tag k="highway" v="residential"/>
    <tag k="name" v="Cliff Salisbury Court"/>
  </way>
  <way id="19768232" version="3" timestamp="2011-03-14T15:42:31Z" uid="4467" user="Rosscoe" changeset="7557613">
    <nd ref="205781531"/>
    <nd ref="614661102"/>
    <nd ref="614661108"/>
    <nd ref="205787967"/>
    <nd ref="205573090"/>
    <tag k="highway" v="residential"/>
    <tag k="name" v="Mary Ring Drive"/>
  </way>
  <way id="19768815" version="4" timestamp="2010-07-09T03:37:51Z" uid="74617" user="JohnSmith" changeset="5170825">
    <nd ref="205802482"/>
    <nd ref="205802484"/>
    <nd ref="205802202"/>
    <tag k="highway" v="residential"/>
    <tag k="maxspeed" v="50"/>
    <tag k="maxspeed:source" v="default residential speed limit in Australia"/>
    <tag k="name" v="Devon Avenue"/>
    <tag k="source" v="yahoo"/>
    <tag k="source:name" v="survey"/>
  </way>
  <way id="19768829" version="5" timestamp="2010-07-09T03:37:58Z" uid="74617" user="JohnSmith" changeset="5170825">
    <nd ref="205802934"/>
    <nd ref="205802937"/>
    <tag k="highway" v="residential"/>
    <tag k="maxspeed" v="50"/>
    <tag k="maxspeed:source" v="default residential speed limit in Australia"/>
    <tag k="name" v="Trent Close"/>
    <tag k="source" v="yahoo"/>
    <tag k="source:name" v="survey"/>
  </way>
  <way id="19768846" version="5" timestamp="2010-07-09T03:37:59Z" uid="74617" user="JohnSmith" changeset="5170825">
    <nd ref="205803474"/>
    <nd ref="205803476"/>
    <tag k="highway" v="residential"/>
    <tag k="maxspeed" v="50"/>
    <tag k="maxspeed:source" v="default residential speed limit in Australia"/>
    <tag k="name" v="Tudor Court"/>
    <tag k="source" v="yahoo"/>
    <tag k="source:name" v="survey"/>
  </way>
  <way id="19768881" version="4" timestamp="2010-07-09T03:38:36Z" uid="74617" user="JohnSmith" changeset="5170825">
    <nd ref="205804315"/>
    <nd ref="205802207"/>
    <tag k="highway" v="residential"/>
    <tag k="maxspeed" v="50"/>
    <tag k="maxspeed:source" v="default residential speed limit in Australia"/>
    <tag k="name" v="Glen Court"/>
    <tag k="source" v="yahoo"/>
    <tag k="source:name" v="survey"/>
  </way>
  <way id="19768906" version="7" timestamp="2010-07-09T03:38:49Z" uid="74617" user="JohnSmith" changeset="5170825">
    <nd ref="205804975"/>
    <nd ref="205806067"/>
    <nd ref="205804977"/>
    <tag k="highway" v="residential"/>
    <tag k="maxspeed" v="50"/>
    <tag k="maxspeed:source" v="default residential speed limit in Australia"/>
    <tag k="name" v="St Bernards Drive"/>
    <tag k="source" v="yahoo"/>
    <tag k="source:name" v="survey"/>
  </way>
  <way id="19768960" version="8" timestamp="2010-07-09T03:39:20Z" uid="74617" user="JohnSmith" changeset="5170825">
    <nd ref="205802205"/>
    <nd ref="205807019"/>
    <nd ref="205807314"/>
    <nd ref="205806067"/>
    <tag k="highway" v="residential"/>
    <tag k="maxspeed" v="50"/>
    <tag k="maxspeed:source" v="default residential speed limit in Australia"/>
    <tag k="name" v="College Parade"/>
    <tag k="source" v="yahoo"/>
    <tag k="source:name" v="survey"/>
  </way>
</osm>
