<?xml version='1.0' encoding='UTF-8'?>
<osm version="0.6" generator="libosmium/2.20.0">
  <way id="19775138" version="2" timestamp="2010-04-02T05:34:14Z" uid="74617" user="JohnSmith" changeset="4300244">
    <nd ref="170112985"/>
    <nd ref="170112986"/>
    <nd ref="170112988"/>
    <nd ref="170112989"/>
    <nd ref="205030407"/>
    <nd ref="205030424"/>
    <nd ref="170112991"/>
    <nd ref="170112993"/>
    <nd ref="205030438"/>
    <nd ref="205030452"/>
    <nd ref="170112996"/>
    <nd ref="205030481"/>
    <nd ref="170112998"/>
    <nd ref="205030513"/>
    <nd ref="205016106"/>
    <nd ref="170112999"/>
    <nd ref="170113001"/>
    <nd ref="170113002"/>
    <nd ref="170113004"/>
    <nd ref="170113005"/>
    <nd ref="205016078"/>
    <tag k="highway" v="secondary"/>
    <tag k="name" v="Mount Glorious Road"/>
  </way>
  <way id="19775140" version="2" timestamp="2010-04-02T05:34:14Z" uid="74617" user="JohnSmith" changeset="4300244">
    <nd ref="170112984"/>
    <nd ref="170112985"/>
    <tag k="bridge" v="yes"/>
    <tag k="highway" v="secondary"/>
    <tag k="layer" v="1"/>
    <tag k="name" v="Mount Glorious Road"/>
  </way>
  <way id="19775167" version="12" timestamp="2010-07-09T03:37:23Z" uid="74617" user="JohnSmith" changeset="5170825">
    <nd ref="205933461"/>
    <nd ref="205933462"/>
    <nd ref="205933463"/>
    <nd ref="205940057"/>
    <nd ref="205937079"/>
    <nd ref="205936561"/>
    <nd ref="205935545"/>
    <nd ref="205935203"/>
    <nd ref="205932923"/>
    <tag k="highway" v="residential"/>
    <tag k="maxspeed" v="50"/>
    <tag k="maxspeed:source" v="default residential speed limit in Australia"/>
    <tag k="name" v="Phillip Road"/>
    <tag k="source" v="yahoo"/>
    <tag k="source:name" v="survey"/>
  </way>
  <way id="19775315" version="11" timestamp="2010-07-09T03:39:20Z" uid="74617" user="JohnSmith" changeset="5170825">
    <nd ref="291534919"/>
    <nd ref="205935203"/>
    <nd ref="205935206"/>
    <nd ref="205946238"/>
    <nd ref="205935207"/>
    <tag k="highway" v="residential"/>
    <tag k="maxspeed" v="50"/>
    <tag k="maxspeed:source" v="default residential speed limit in Australia"/>
    <tag k="name" v="Roberts Street"/>
    <tag k="source" v="yahoo"/>
    <tag k="source:name" v="survey"/>
  </way>
  <way id="19775316" version="8" timestamp="2010-07-09T03:38:44Z" uid="74617" user="JohnSmith" changeset="5170825">
    <nd ref="305898247"/>
    <nd ref="205935545"/>
    <nd ref="205936203"/>
    <tag k="highway" v="residential"/>
    <tag k="maxspeed" v="50"/>
    <tag k="maxspeed:source" v="default residential speed limit in Australia"/>
    <tag k="name" v="Ash Grove"/>
    <tag k="source" v="yahoo"/>
    <tag k="source:name" v="survey"/>
  </way>
  <way id="19775403" version="5" timestamp="2010-07-09T03:38:41Z" uid="74617" user="JohnSmith" changeset="5170825">
    <nd ref="291535878"/>
    <nd ref="205936561"/>
    <nd ref="205936562"/>
    <tag k="highway" v="residential"/>
    <tag k="maxspeed" v="50"/>
    <tag k="maxspeed:source" v="default residential speed limit in Australia"/>
    <tag k="name" v="Ellen Avenue"/>
    <tag k="source" v="yahoo"/>
    <tag k="source:name" v="survey"/>
  </way>
  <way id="19775436" version="4" timestamp="2010-07-09T03:38:43Z" uid="74617" user="JohnSmith" changeset="5170825">
    <nd ref="205937079"/>
    <nd ref="205937080"/>
    <tag k="highway" v="residential"/>
    <tag k="maxspeed" v="50"/>
    <tag k="maxspeed:source" v="default residential speed limit in Australia"/>
    <tag k="name" v="Grant Grove"/>
    <tag k="source" v="yahoo"/>
    <tag k="source:name" v="survey"/>
  </way>
  <way id="19775464" version="9" timestamp="2010-07-09T03:38:53Z" uid="74617" user="JohnSmith" changeset="5170825">
    <nd ref="205937622"/>
    <nd ref="205937916"/>
    <nd ref="205938189"/>
    <nd ref="205940057"/>
    <nd ref="205940058"/>
    <nd ref="205940059"/>
    <nd ref="205940061"/>
    <nd ref="205940063"/>
    <nd ref="205951693"/>
    <tag k="highway" v="residential"/>
    <tag k="maxspeed" v="50"/>
    <tag k="maxspeed:source" v="default residential speed limit in Australia"/>
    <tag k="name" v="Fawkner Crescent"/>
    <tag k="source" v="yahoo"/>
    <tag k="source:name" v="survey"/>
  </way>
  <way id="19775466" version="3" timestamp="2010-03-27T23:27:33Z" uid="20587" user="balrog-kun" changeset="4250871">
    <nd ref="205937604"/>
    <nd ref="205937614"/>
    <tag k="bridge" v="yes"/>
    <tag k="highway" v="primary"/>
    <tag k="layer" v="1"/>
    <tag k="name" v="Sepulveda Boulevard"/>
    <tag k="ref" v="CA 1"/>
  </way>
  <way id="19775468" version="6" timestamp="2010-03-27T23:27:33Z" uid="20587" user="balrog-kun" changeset="4250871">
    <nd ref="205937614"/>
    <nd ref="457112558"/>
    <nd ref="123233578"/>
    <nd ref="122683122"/>
    <tag k="highway" v="primary"/>
    <tag k="name" v="Sepulveda Boulevard"/>
    <tag k="ref" v="CA 1"/>
  </way>
  <way id="19775575" version="11" timestamp="2010-07-09T03:39:18Z" uid="74617" user="JohnSmith" changeset="5170825">
    <nd ref="305898244"/>
    <nd ref="205943547"/>
    <nd ref="205941018"/>
    <nd ref="205946236"/>
    <nd ref="205940330"/>
    <tag k="highway" v="residential"/>
    <tag k="maxspeed" v="50"/>
    <tag k="maxspeed:source" v="default residential speed limit in Australia"/>
    <tag k="name" v="McPherson Street"/>
    <tag k="source" v="yahoo"/>
    <tag k="source:name" v="survey"/>
  </way>
  <way id="19775719" version="4" timestamp="2010-07-09T03:37:55Z" uid="74617" user="JohnSmith" changeset="5170825">
    <nd ref="205940059"/>
    <nd ref="205944765"/>
    <tag k="highway" v="residential"/>
    <tag k="maxspeed" v="50"/>
    <tag k="maxspeed:source" v="default residential speed limit in Australia"/>
    <tag k="name" v="Neville Street"/>
    <tag k="source" v="yahoo"/>
    <tag k="source:name" v="survey"/>
  </way>
  <way id="19775829" version="3" timestamp="2010-07-09T03:38:15Z" uid="74617" user="JohnSmith" changeset="5170825">
    <nd ref="205946236"/>
    <nd ref="205946238"/>
    <nd ref="205946239"/>
    <tag k="highway" v="residential"/>
    <tag k="maxspeed" v="50"/>
    <tag k="maxspeed:source" v="default residential speed limit in Australia"/>
    <tag k="name" v="Fawkner Crescent"/>
    <tag k="source" v="yahoo"/>
    <tag k="source:name" v="survey"/>
  </way>
  <way id="19775892" version="4" timestamp="2010-07-09T03:37:13Z" uid="74617" user="JohnSmith" changeset="5170825">
    <nd ref="205940079"/>
    <nd ref="205951233"/>
    <nd ref="205951234"/>
    <nd ref="205951235"/>
    <nd ref="205951236"/>
    <tag k="highway" v="residential"/>
    <tag k="maxspeed" v="50"/>
    <tag k="maxspeed:source" v="default residential speed limit in Australia"/>
    <tag k="name" v="Saltau Street"/>
    <tag k="source" v="yahoo"/>
    <tag k="source:name" v="survey"/>
  </way>
</osm>
