<?xml version='1.0' encoding='UTF-8'?>
<osm version="0.6" generator="libosmium/2.20.0">
  <way id="19840055" version="5" timestamp="2008-02-12T03:19:18Z" uid="7617" user="Franc" changeset="104216">
    <nd ref="207335541"/>
    <nd ref="207344998"/>
    <nd ref="207345896"/>
    <nd ref="207340482"/>
    <nd ref="207336357"/>
    <nd ref="207336358"/>
    <tag k="created_by" v="Potlatch 0.6a"/>
    <tag k="highway" v="residential"/>
    <tag k="name" v="Minna Street"/>
  </way>
  <way id="19840055" version="6" timestamp="2010-01-13T10:17:00Z" uid="30201" user="rrankin" changeset="3608813">
    <nd ref="207335541"/>
    <nd ref="207344998"/>
    <nd ref="207345896"/>
    <nd ref="207340482"/>
    <tag k="highway" v="residential"/>
    <tag k="name" v="Minna Street"/>
  </way>
  <way id="19840055" version="7" timestamp="2010-07-08T02:32:50Z" uid="74617" user="JohnSmith" changeset="5163091">
    <nd ref="207335541"/>
    <nd ref="207344998"/>
    <nd ref="207345896"/>
    <nd ref="207340482"/>
    <tag k="highway" v="residential"/>
    <tag k="maxspeed" v="50"/>
    <tag k="maxspeed:source" v="default residential speed limit in Australia"/>
    <tag k="name" v="Minna Street"/>
  </way>
  <way id="19840067" version="3" timestamp="2008-09-25T11:20:02Z" uid="30201" user="rrankin" changeset="696415">
    <nd ref="207336357"/>
    <nd ref="207338033"/>
    <nd ref="207336837"/>
    <nd ref="299690691"/>
    <tag k="created_by" v="Potlatch 0.6a"/>
    <tag k="highway" v="residential"/>
    <tag k="name" v="Angelo Street"/>
  </way>
  <way id="19840067" version="4" timestamp="2010-01-13T10:16:59Z" uid="30201" user="rrankin" changeset="3608813">
    <nd ref="207336357"/>
    <nd ref="207338033"/>
    <nd ref="207336837"/>
    <tag k="cycleway" v="lane"/>
    <tag k="highway" v="residential"/>
    <tag k="lcn" v="yes"/>
    <tag k="name" v="Angelo Street"/>
  </way>
  <way id="19840067" version="6" timestamp="2010-07-08T02:40:49Z" uid="74617" user="JohnSmith" changeset="5163091">
    <nd ref="207336357"/>
    <nd ref="207338033"/>
    <nd ref="207336837"/>
    <tag k="highway" v="residential"/>
    <tag k="lcn" v="yes"/>
    <tag k="maxspeed" v="50"/>
    <tag k="maxspeed:source" v="default residential speed limit in Australia"/>
    <tag k="name" v="Angelo Street"/>
  </way>
  <way id="19840084" version="2" timestamp="2010-01-13T10:17:00Z" uid="30201" user="rrankin" changeset="3608813">
    <nd ref="207336837"/>
    <nd ref="207337315"/>
    <tag k="cycleway" v="lane"/>
    <tag k="highway" v="residential"/>
    <tag k="lcn" v="yes"/>
    <tag k="name" v="Seale Street"/>
  </way>
  <way id="19840084" version="4" timestamp="2010-07-08T02:38:18Z" uid="74617" user="JohnSmith" changeset="5163091">
    <nd ref="207336837"/>
    <nd ref="207337315"/>
    <tag k="highway" v="residential"/>
    <tag k="lcn" v="yes"/>
    <tag k="maxspeed" v="50"/>
    <tag k="maxspeed:source" v="default residential speed limit in Australia"/>
    <tag k="name" v="Seale Street"/>
  </way>
  <way id="19840117" version="2" timestamp="2008-09-25T11:20:04Z" uid="30201" user="rrankin" changeset="696415">
    <nd ref="207337315"/>
    <nd ref="207337976"/>
    <nd ref="207337977"/>
    <nd ref="299690657"/>
    <tag k="created_by" v="Potlatch 0.6a"/>
    <tag k="highway" v="residential"/>
    <tag k="name" v="Quandong Avenue"/>
  </way>
  <way id="19840117" version="3" timestamp="2010-01-13T10:16:58Z" uid="30201" user="rrankin" changeset="3608813">
    <nd ref="207337315"/>
    <nd ref="207337976"/>
    <nd ref="207337977"/>
    <nd ref="299690657"/>
    <tag k="cycleway" v="lane"/>
    <tag k="highway" v="residential"/>
    <tag k="lcn" v="yes"/>
    <tag k="name" v="Quandong Avenue"/>
  </way>
  <way id="19840117" version="5" timestamp="2010-07-08T02:32:30Z" uid="74617" user="JohnSmith" changeset="5163091">
    <nd ref="207337315"/>
    <nd ref="207337976"/>
    <nd ref="207337977"/>
    <nd ref="694152139"/>
    <nd ref="299690657"/>
    <tag k="highway" v="residential"/>
    <tag k="lcn" v="yes"/>
    <tag k="maxspeed" v="50"/>
    <tag k="maxspeed:source" v="default residential speed limit in Australia"/>
    <tag k="name" v="Quandong Avenue"/>
  </way>
  <way id="19840117" version="6" timestamp="2010-11-27T20:57:50Z" uid="7617" user="Franc" changeset="6473275">
    <nd ref="207337315"/>
    <nd ref="207337976"/>
    <nd ref="207337977"/>
    <nd ref="1008868203"/>
    <tag k="highway" v="residential"/>
    <tag k="lcn" v="yes"/>
    <tag k="maxspeed" v="50"/>
    <tag k="maxspeed:source" v="default residential speed limit in Australia"/>
    <tag k="name" v="Quandong Avenue"/>
  </way>
  <way id="19840154" version="3" timestamp="2010-07-08T02:38:06Z" uid="74617" user="JohnSmith" changeset="5163091">
    <nd ref="207338033"/>
    <nd ref="207338863"/>
    <tag k="highway" v="residential"/>
    <tag k="maxspeed" v="50"/>
    <tag k="maxspeed:source" v="default residential speed limit in Australia"/>
    <tag k="name" v="Ireland Street"/>
    <tag k="source" v="nearmap"/>
  </way>
  <way id="19840200" version="4" timestamp="2008-09-25T11:20:16Z" uid="30201" user="rrankin" changeset="696415"/>
  <way id="19840201" version="4" timestamp="2008-05-12T20:53:04Z" uid="30201" user="rrankin" changeset="434145">
    <nd ref="207340473"/>
    <nd ref="207340482"/>
    <nd ref="207344867"/>
    <nd ref="207340515"/>
    <tag k="created_by" v="Potlatch 0.6a"/>
    <tag k="highway" v="residential"/>
    <tag k="name" v="Lindsay Street"/>
  </way>
  <way id="19840201" version="5" timestamp="2010-01-13T10:17:00Z" uid="30201" user="rrankin" changeset="3608813">
    <nd ref="207340473"/>
    <nd ref="207340482"/>
    <tag k="cycleway" v="lane"/>
    <tag k="highway" v="residential"/>
    <tag k="lcn" v="yes"/>
    <tag k="name" v="Lindsay Street"/>
  </way>
  <way id="19840201" version="7" timestamp="2010-07-08T02:33:53Z" uid="74617" user="JohnSmith" changeset="5163091">
    <nd ref="207340473"/>
    <nd ref="207340482"/>
    <tag k="highway" v="residential"/>
    <tag k="maxspeed" v="50"/>
    <tag k="maxspeed:source" v="default residential speed limit in Australia"/>
    <tag k="name" v="Lindsay Street"/>
  </way>
  <way id="19840227" version="2" timestamp="2008-09-25T11:20:01Z" uid="30201" user="rrankin" changeset="696415">
    <nd ref="207340907"/>
    <nd ref="299690726"/>
    <tag k="created_by" v="Potlatch 0.6a"/>
    <tag k="highway" v="residential"/>
    <tag k="name" v="Sunbeam Avenue"/>
  </way>
  <way id="19840227" version="3" timestamp="2010-07-08T02:35:05Z" uid="74617" user="JohnSmith" changeset="5163091">
    <nd ref="207340907"/>
    <nd ref="299690726"/>
    <tag k="highway" v="residential"/>
    <tag k="maxspeed" v="50"/>
    <tag k="maxspeed:source" v="default residential speed limit in Australia"/>
    <tag k="name" v="Sunbeam Avenue"/>
  </way>
  <way id="19840285" version="2" timestamp="2008-05-12T20:53:03Z" uid="30201" user="rrankin" changeset="434145">
    <nd ref="207340515"/>
    <nd ref="207343817"/>
    <tag k="created_by" v="Potlatch 0.6a"/>
    <tag k="highway" v="service"/>
    <tag k="name" v="Morris Lane"/>
  </way>
  <way id="19840333" version="2" timestamp="2010-07-08T02:33:13Z" uid="74617" user="JohnSmith" changeset="5163091">
    <nd ref="207343872"/>
    <nd ref="207344867"/>
    <tag k="highway" v="residential"/>
    <tag k="maxspeed" v="50"/>
    <tag k="maxspeed:source" v="default residential speed limit in Australia"/>
    <tag k="name" v="Belgrave Street"/>
  </way>
  <way id="19840365" version="2" timestamp="2010-07-08T02:35:44Z" uid="74617" user="JohnSmith" changeset="5163091">
    <nd ref="207344998"/>
    <nd ref="207345807"/>
    <nd ref="207345808"/>
    <tag k="highway" v="residential"/>
    <tag k="maxspeed" v="50"/>
    <tag k="maxspeed:source" v="default residential speed limit in Australia"/>
    <tag k="name" v="Genders Avenue"/>
  </way>
  <way id="19840386" version="2" timestamp="2010-07-08T02:37:10Z" uid="74617" user="JohnSmith" changeset="5163091">
    <nd ref="207345896"/>
    <nd ref="207346510"/>
    <tag k="highway" v="residential"/>
    <tag k="maxspeed" v="50"/>
    <tag k="maxspeed:source" v="default residential speed limit in Australia"/>
    <tag k="name" v="Genders Avenue"/>
  </way>
  <way id="19840426" version="2" timestamp="2009-04-24T23:58:04Z" uid="7617" user="Franc" changeset="935084">
    <nd ref="207346610"/>
    <nd ref="384016939"/>
    <nd ref="207347385"/>
    <tag k="created_by" v="Potlatch 0.6a"/>
    <tag k="highway" v="residential"/>
    <tag k="name" v="Arrowfield Avenue"/>
    <tag k="source" v="survey"/>
  </way>
  <way id="19840426" version="3" timestamp="2010-07-08T02:36:25Z" uid="74617" user="JohnSmith" changeset="5163091">
    <nd ref="207346610"/>
    <nd ref="384016939"/>
    <nd ref="207347385"/>
    <tag k="highway" v="residential"/>
    <tag k="maxspeed" v="50"/>
    <tag k="maxspeed:source" v="default residential speed limit in Australia"/>
    <tag k="name" v="Arrowfield Avenue"/>
    <tag k="source" v="survey"/>
  </way>
  <way id="19840426" version="4" timestamp="2010-11-27T20:46:04Z" uid="7617" user="Franc" changeset="6473168">
    <nd ref="207346610"/>
    <nd ref="207347385"/>
    <tag k="highway" v="residential"/>
    <tag k="maxspeed" v="50"/>
    <tag k="maxspeed:source" v="default residential speed limit in Australia"/>
    <tag k="name" v="Arrowfield Avenue"/>
    <tag k="source" v="survey"/>
  </way>
  <way id="19840463" version="2" timestamp="2010-07-08T02:39:36Z" uid="74617" user="JohnSmith" changeset="5163091">
    <nd ref="207348197"/>
    <nd ref="207348713"/>
    <tag k="highway" v="residential"/>
    <tag k="maxspeed" v="50"/>
    <tag k="maxspeed:source" v="default residential speed limit in Australia"/>
    <tag k="name" v="Sherars Avenue"/>
  </way>
  <way id="19840503" version="2" timestamp="2010-07-08T02:40:38Z" uid="74617" user="JohnSmith" changeset="5163091">
    <nd ref="207349259"/>
    <nd ref="207350051"/>
    <nd ref="207350053"/>
    <tag k="highway" v="residential"/>
    <tag k="maxspeed" v="50"/>
    <tag k="maxspeed:source" v="default residential speed limit in Australia"/>
    <tag k="name" v="McDonald Crescent"/>
  </way>
  <way id="19840528" version="4" timestamp="2008-09-25T11:20:13Z" uid="30201" user="rrankin" changeset="696415">
    <nd ref="207350137"/>
    <nd ref="207351686"/>
    <nd ref="207353344"/>
    <nd ref="299690768"/>
    <tag k="created_by" v="Potlatch 0.6a"/>
    <tag k="highway" v="residential"/>
    <tag k="name" v="Emu Street"/>
  </way>
  <way id="19840528" version="5" timestamp="2010-07-08T02:39:57Z" uid="74617" user="JohnSmith" changeset="5163091">
    <nd ref="207350137"/>
    <nd ref="207351686"/>
    <nd ref="207353344"/>
    <nd ref="299690768"/>
    <tag k="highway" v="residential"/>
    <tag k="maxspeed" v="50"/>
    <tag k="maxspeed:source" v="default residential speed limit in Australia"/>
    <tag k="name" v="Emu Street"/>
  </way>
  <way id="19840528" version="6" timestamp="2010-11-27T20:45:53Z" uid="7617" user="Franc" changeset="6473168">
    <nd ref="207350137"/>
    <nd ref="207351686"/>
    <nd ref="207353344"/>
    <nd ref="1008827249"/>
    <nd ref="299690768"/>
    <tag k="highway" v="residential"/>
    <tag k="maxspeed" v="50"/>
    <tag k="maxspeed:source" v="default residential speed limit in Australia"/>
    <tag k="name" v="Emu Street"/>
  </way>
  <way id="19840544" version="2" timestamp="2008-08-10T02:08:49Z" uid="7617" user="Franc" changeset="162126">
    <nd ref="60847162"/>
    <nd ref="207351680"/>
    <nd ref="207351682"/>
    <nd ref="207351686"/>
    <nd ref="207351688"/>
    <tag k="created_by" v="Potlatch 0.6a"/>
    <tag k="highway" v="residential"/>
    <tag k="name" v="Angel Road"/>
  </way>
  <way id="19840544" version="3" timestamp="2010-01-13T10:16:59Z" uid="30201" user="rrankin" changeset="3608813">
    <nd ref="60847162"/>
    <nd ref="207351680"/>
    <nd ref="207351682"/>
    <nd ref="612865670"/>
    <nd ref="207351686"/>
    <nd ref="612865668"/>
    <nd ref="207351688"/>
    <tag k="highway" v="residential"/>
    <tag k="name" v="Angel Road"/>
  </way>
  <way id="19840544" version="4" timestamp="2010-07-08T02:36:52Z" uid="74617" user="JohnSmith" changeset="5163091">
    <nd ref="60847162"/>
    <nd ref="207351680"/>
    <nd ref="207351682"/>
    <nd ref="612865670"/>
    <nd ref="207351686"/>
    <nd ref="612865668"/>
    <nd ref="207351688"/>
    <tag k="highway" v="residential"/>
    <tag k="maxspeed" v="50"/>
    <tag k="maxspeed:source" v="default residential speed limit in Australia"/>
    <tag k="name" v="Angel Road"/>
  </way>
  <way id="19840586" version="3" timestamp="2009-12-26T11:37:34Z" uid="58091" user="Andreas M" changeset="3453874"/>
  <way id="19840624" version="2" timestamp="2008-08-10T02:08:48Z" uid="7617" user="Franc" changeset="162126">
    <nd ref="207351753"/>
    <nd ref="207353341"/>
    <nd ref="207353344"/>
    <nd ref="207353346"/>
    <tag k="created_by" v="Potlatch 0.6a"/>
    <tag k="highway" v="residential"/>
    <tag k="name" v="Wonga Street"/>
  </way>
  <way id="19840624" version="3" timestamp="2010-07-08T02:38:12Z" uid="74617" user="JohnSmith" changeset="5163091">
    <nd ref="207351753"/>
    <nd ref="207353341"/>
    <nd ref="207353344"/>
    <nd ref="207353346"/>
    <tag k="highway" v="residential"/>
    <tag k="maxspeed" v="50"/>
    <tag k="maxspeed:source" v="default residential speed limit in Australia"/>
    <tag k="name" v="Wonga Street"/>
  </way>
  <way id="19840658" version="2" timestamp="2008-09-25T11:20:10Z" uid="30201" user="rrankin" changeset="696415">
    <nd ref="207353341"/>
    <nd ref="207354410"/>
    <nd ref="299690764"/>
    <tag k="created_by" v="Potlatch 0.6a"/>
    <tag k="highway" v="residential"/>
    <tag k="name" v="Willee Street"/>
  </way>
  <way id="19840658" version="3" timestamp="2010-02-15T15:08:11Z" uid="7617" user="Franc" changeset="3883912">
    <nd ref="207353341"/>
    <nd ref="207354410"/>
    <nd ref="639785697"/>
    <nd ref="639785699"/>
    <nd ref="299690764"/>
    <tag k="highway" v="residential"/>
    <tag k="name" v="Willee Street"/>
  </way>
  <way id="19840658" version="4" timestamp="2010-07-08T02:37:18Z" uid="74617" user="JohnSmith" changeset="5163091">
    <nd ref="207353341"/>
    <nd ref="207354410"/>
    <nd ref="639785697"/>
    <nd ref="639785699"/>
    <nd ref="299690764"/>
    <tag k="highway" v="residential"/>
    <tag k="maxspeed" v="50"/>
    <tag k="maxspeed:source" v="default residential speed limit in Australia"/>
    <tag k="name" v="Willee Street"/>
  </way>
  <way id="19840688" version="2" timestamp="2010-02-15T15:08:11Z" uid="7617" user="Franc" changeset="3883912">
    <nd ref="207354466"/>
    <nd ref="639785713"/>
    <nd ref="207355481"/>
    <nd ref="207354410"/>
    <tag k="highway" v="residential"/>
    <tag k="name" v="Henry Street"/>
  </way>
  <way id="19840688" version="3" timestamp="2010-07-08T02:33:46Z" uid="74617" user="JohnSmith" changeset="5163091">
    <nd ref="207354466"/>
    <nd ref="639785713"/>
    <nd ref="207355481"/>
    <nd ref="207354410"/>
    <tag k="highway" v="residential"/>
    <tag k="maxspeed" v="50"/>
    <tag k="maxspeed:source" v="default residential speed limit in Australia"/>
    <tag k="name" v="Henry Street"/>
  </way>
  <way id="19840701" version="2" timestamp="2008-09-25T11:20:15Z" uid="30201" user="rrankin" changeset="696415"/>
</osm>
