<?xml version='1.0' encoding='UTF-8'?>
<osm version="0.6" generator="libosmium/2.20.0">
  <way id="19856004" version="3" timestamp="2010-01-01T05:51:39Z" uid="74617" user="JohnSmith" changeset="3505411">
    <nd ref="207760026"/>
    <nd ref="287303234"/>
    <nd ref="287303235"/>
    <nd ref="602417508"/>
    <nd ref="287303236"/>
    <nd ref="26355751"/>
    <tag k="highway" v="motorway_link"/>
  </way>
  <way id="19856033" version="4" timestamp="2010-03-27T23:27:51Z" uid="20587" user="balrog-kun" changeset="4250871">
    <nd ref="123635024"/>
    <nd ref="207732747"/>
    <nd ref="611590661"/>
    <nd ref="611590669"/>
    <nd ref="207761373"/>
    <nd ref="611590667"/>
    <nd ref="123067220"/>
    <nd ref="611590668"/>
    <nd ref="611590662"/>
    <nd ref="612113979"/>
    <nd ref="123067442"/>
    <tag k="highway" v="secondary"/>
    <tag k="name" v="San Vicente Boulevard"/>
    <tag k="tiger:cfcc" v="A41"/>
    <tag k="tiger:county" v="Los Angeles, CA"/>
    <tag k="tiger:name_base" v="San Vicente"/>
    <tag k="tiger:name_type" v="Blvd"/>
    <tag k="tiger:separated" v="no"/>
    <tag k="tiger:source" v="tiger_import_dch_v0.6_20070809"/>
    <tag k="tiger:tlid" v="141598721:141598741"/>
    <tag k="tiger:zip_left" v="90048"/>
  </way>
  <way id="19856037" version="4" timestamp="2010-03-27T23:27:51Z" uid="20587" user="balrog-kun" changeset="4250871">
    <nd ref="123067442"/>
    <nd ref="60947761"/>
    <nd ref="611590663"/>
    <nd ref="60947762"/>
    <nd ref="611590665"/>
    <nd ref="60947763"/>
    <nd ref="60947764"/>
    <nd ref="60947765"/>
    <nd ref="60947768"/>
    <nd ref="123067223"/>
    <nd ref="611590643"/>
    <nd ref="18166094"/>
    <tag k="cycleway" v="lane"/>
    <tag k="highway" v="primary"/>
    <tag k="name" v="Venice Boulevard"/>
    <tag k="oneway" v="yes"/>
  </way>
  <way id="19856041" version="3" timestamp="2010-03-27T23:27:52Z" uid="20587" user="balrog-kun" changeset="4250871">
    <nd ref="207761434"/>
    <nd ref="122740107"/>
    <nd ref="207837846"/>
    <nd ref="122921809"/>
    <tag k="created_by" v="JOSM"/>
    <tag k="highway" v="residential"/>
    <tag k="name" v="West Boulevard"/>
    <tag k="tiger:cfcc" v="A41"/>
    <tag k="tiger:county" v="Los Angeles, CA"/>
    <tag k="tiger:name_base" v="West"/>
    <tag k="tiger:name_type" v="Blvd"/>
    <tag k="tiger:separated" v="no"/>
    <tag k="tiger:source" v="tiger_import_dch_v0.6_20070809"/>
    <tag k="tiger:tlid" v="141601906:141601911:141601859:141601870:141601876:141601738"/>
    <tag k="tiger:zip_left" v="90016"/>
    <tag k="tiger:zip_right" v="90016"/>
  </way>
  <way id="19856337" version="1" timestamp="2008-01-07T06:19:14Z" uid="8619" user="cetest" changeset="564138">
    <nd ref="207559092"/>
    <nd ref="207559093"/>
    <nd ref="207559094"/>
    <nd ref="207735304"/>
    <tag k="created_by" v="JOSM"/>
    <tag k="highway" v="residential"/>
    <tag k="name" v="Cypergras"/>
  </way>
  <way id="19856339" version="1" timestamp="2008-01-07T06:19:14Z" uid="8619" user="cetest" changeset="564138">
    <nd ref="207559060"/>
    <nd ref="207559093"/>
    <tag k="created_by" v="JOSM"/>
    <tag k="highway" v="residential"/>
    <tag k="name" v="Cypresgras"/>
  </way>
  <way id="19856340" version="1" timestamp="2008-01-07T06:19:14Z" uid="8619" user="cetest" changeset="564138">
    <nd ref="207559090"/>
    <nd ref="207771327"/>
    <nd ref="207559059"/>
    <nd ref="207771315"/>
    <nd ref="207771320"/>
    <nd ref="207771322"/>
    <nd ref="207558977"/>
    <nd ref="207771332"/>
    <nd ref="207771338"/>
    <nd ref="207559107"/>
    <tag k="created_by" v="JOSM"/>
    <tag k="highway" v="residential"/>
    <tag k="name" v="Dophei"/>
  </way>
  <way id="19856341" version="1" timestamp="2008-01-07T06:19:14Z" uid="8619" user="cetest" changeset="564138">
    <nd ref="207559106"/>
    <nd ref="207771343"/>
    <tag k="created_by" v="JOSM"/>
    <tag k="highway" v="residential"/>
    <tag k="name" v="Dophei"/>
  </way>
  <way id="19856342" version="1" timestamp="2008-01-07T06:19:15Z" uid="8619" user="cetest" changeset="564138">
    <nd ref="207558966"/>
    <nd ref="207771348"/>
    <tag k="created_by" v="JOSM"/>
    <tag k="highway" v="residential"/>
    <tag k="name" v="Rijsbes"/>
  </way>
  <way id="19856343" version="1" timestamp="2008-01-07T06:19:15Z" uid="8619" user="cetest" changeset="564138">
    <nd ref="207559108"/>
    <nd ref="207771353"/>
    <tag k="created_by" v="JOSM"/>
    <tag k="highway" v="residential"/>
    <tag k="name" v="Wollegras"/>
  </way>
  <way id="19856344" version="1" timestamp="2008-01-07T06:19:15Z" uid="8619" user="cetest" changeset="564138">
    <nd ref="207771353"/>
    <nd ref="207771359"/>
    <tag k="created_by" v="JOSM"/>
    <tag k="highway" v="cycleway"/>
  </way>
  <way id="19856345" version="1" timestamp="2008-01-07T06:19:15Z" uid="8619" user="cetest" changeset="564138">
    <nd ref="207559109"/>
    <nd ref="207771364"/>
    <nd ref="207771366"/>
    <nd ref="207559005"/>
    <tag k="created_by" v="JOSM"/>
    <tag k="highway" v="residential"/>
    <tag k="name" v="Wollegras"/>
  </way>
  <way id="19856346" version="1" timestamp="2008-01-07T06:19:15Z" uid="8619" user="cetest" changeset="564138">
    <nd ref="207771322"/>
    <nd ref="207771371"/>
    <nd ref="207771378"/>
    <nd ref="207771382"/>
    <nd ref="207559049"/>
    <tag k="created_by" v="JOSM"/>
    <tag k="highway" v="residential"/>
    <tag k="name" v="Veenpluis"/>
  </way>
  <way id="19856348" version="1" timestamp="2008-01-07T06:19:15Z" uid="8619" user="cetest" changeset="564138">
    <nd ref="207771371"/>
    <nd ref="207771386"/>
    <tag k="created_by" v="JOSM"/>
    <tag k="highway" v="residential"/>
    <tag k="name" v="Veenpluis"/>
  </way>
  <way id="19856349" version="1" timestamp="2008-01-07T06:19:16Z" uid="8619" user="cetest" changeset="564138">
    <nd ref="207559085"/>
    <nd ref="207771391"/>
    <nd ref="207771397"/>
    <tag k="created_by" v="JOSM"/>
    <tag k="highway" v="residential"/>
    <tag k="name" v="Stippelzegge"/>
  </way>
  <way id="19856350" version="1" timestamp="2008-01-07T06:19:16Z" uid="8619" user="cetest" changeset="564138">
    <nd ref="207771417"/>
    <nd ref="207190267"/>
    <nd ref="207190273"/>
    <tag k="created_by" v="JOSM"/>
    <tag k="highway" v="residential"/>
    <tag k="name" v="Veenbespad"/>
  </way>
  <way id="19856351" version="1" timestamp="2008-01-07T06:19:16Z" uid="8619" user="cetest" changeset="564138">
    <nd ref="207559098"/>
    <nd ref="207771422"/>
    <tag k="created_by" v="JOSM"/>
    <tag k="highway" v="residential"/>
    <tag k="name" v="Wollegras"/>
  </way>
  <way id="19856352" version="1" timestamp="2008-01-07T06:19:16Z" uid="8619" user="cetest" changeset="564138">
    <nd ref="207771422"/>
    <nd ref="207771427"/>
    <tag k="created_by" v="JOSM"/>
    <tag k="highway" v="cycleway"/>
  </way>
  <way id="19856353" version="1" timestamp="2008-01-07T06:19:16Z" uid="8619" user="cetest" changeset="564138">
    <nd ref="207558954"/>
    <nd ref="207737078"/>
    <nd ref="207737079"/>
    <nd ref="207737082"/>
    <nd ref="207737085"/>
    <nd ref="207737088"/>
    <nd ref="207737091"/>
    <nd ref="207737094"/>
    <nd ref="207737097"/>
    <nd ref="207559058"/>
    <tag k="created_by" v="JOSM"/>
    <tag k="highway" v="footway"/>
    <tag k="name" v="Rijsbes"/>
  </way>
  <way id="19856353" version="2" timestamp="2008-01-07T19:47:52Z" uid="8619" user="cetest" changeset="567603">
    <nd ref="207558954"/>
    <nd ref="207737078"/>
    <nd ref="207737079"/>
    <nd ref="207737082"/>
    <nd ref="207737085"/>
    <nd ref="207737088"/>
    <nd ref="207737091"/>
    <nd ref="207737094"/>
    <nd ref="207737097"/>
    <nd ref="207559057"/>
    <tag k="created_by" v="JOSM"/>
    <tag k="highway" v="footway"/>
    <tag k="name" v="Rijsbes"/>
  </way>
  <way id="19856587" version="4" timestamp="2010-07-07T08:58:26Z" uid="74617" user="JohnSmith" changeset="5156250">
    <nd ref="667175590"/>
    <nd ref="667175591"/>
    <nd ref="667175592"/>
    <nd ref="667175593"/>
    <nd ref="667175594"/>
    <nd ref="667175595"/>
    <nd ref="667175596"/>
    <nd ref="667175597"/>
    <nd ref="667175598"/>
    <nd ref="667175590"/>
    <nd ref="207778801"/>
    <nd ref="207778803"/>
    <tag k="highway" v="residential"/>
    <tag k="maxspeed" v="50"/>
    <tag k="maxspeed:source" v="default residential speed limit in Australia"/>
    <tag k="name" v="Griver Place"/>
  </way>
  <way id="19856587" version="5" timestamp="2010-07-17T00:47:03Z" uid="4467" user="Rosscoe" changeset="5238805">
    <nd ref="667175590"/>
    <nd ref="667175591"/>
    <nd ref="667175592"/>
    <nd ref="667175593"/>
    <nd ref="667175595"/>
    <nd ref="667175596"/>
    <nd ref="667175597"/>
    <nd ref="667175590"/>
    <tag k="highway" v="residential"/>
    <tag k="maxspeed" v="50"/>
    <tag k="maxspeed:source" v="default residential speed limit in Australia"/>
    <tag k="name" v="Griver Place"/>
  </way>
</osm>
