<?xml version='1.0' encoding='UTF-8'?>
<osm version="0.6" generator="libosmium/2.20.0">
  <way id="2011" version="7" timestamp="2010-03-27T07:38:30Z" uid="20587" user="balrog-kun" changeset="4244079">
    <nd ref="512126593"/>
    <nd ref="667828"/>
    <nd ref="667829"/>
    <nd ref="667830"/>
    <nd ref="667831"/>
    <nd ref="490935783"/>
    <nd ref="667832"/>
    <nd ref="667833"/>
    <nd ref="490935786"/>
    <nd ref="490935866"/>
    <nd ref="490935789"/>
    <nd ref="490935925"/>
    <nd ref="490935792"/>
    <nd ref="490935795"/>
    <nd ref="490935798"/>
    <nd ref="490935802"/>
    <nd ref="490935803"/>
    <nd ref="54484919"/>
    <tag k="highway" v="secondary"/>
    <tag k="name" v="Campus Avenue"/>
    <tag k="source" v="image;survey;usgs_imagery;yahoo_imagry"/>
    <tag k="source_ref" v="AM909_DSCN7266;AM909_DSCP0620"/>
  </way>
  <way id="2012" version="3" timestamp="2010-03-27T07:38:31Z" uid="20587" user="balrog-kun" changeset="4244079">
    <nd ref="667833"/>
    <nd ref="667838"/>
    <nd ref="667839"/>
    <nd ref="667840"/>
    <nd ref="667841"/>
    <nd ref="490935838"/>
    <nd ref="490935835"/>
    <nd ref="490935833"/>
    <nd ref="490935830"/>
    <nd ref="490935827"/>
    <nd ref="437644577"/>
    <nd ref="437644576"/>
    <nd ref="437644575"/>
    <nd ref="54484921"/>
    <nd ref="54484923"/>
    <tag k="highway" v="secondary"/>
    <tag k="name" v="East 19th Street"/>
    <tag k="name_1" v="State Highway 30"/>
    <tag k="source" v="image;survey;usgs_imagery;yahoo_imagry"/>
    <tag k="source_ref" v="AM909_DSCN7268"/>
    <tag k="tiger:cfcc" v="A31"/>
    <tag k="tiger:county" v="San Bernardino, CA"/>
    <tag k="tiger:name_base" v="19th"/>
    <tag k="tiger:name_base_1" v="State Highway 30"/>
    <tag k="tiger:name_direction_prefix" v="E"/>
    <tag k="tiger:name_type" v="St"/>
    <tag k="tiger:separated" v="no"/>
    <tag k="tiger:source" v="tiger_import_dch_v0.6_20070809"/>
    <tag k="tiger:tlid" v="144674362:145225832"/>
    <tag k="tiger:zip_left" v="91786"/>
    <tag k="tiger:zip_left_1" v="91786"/>
    <tag k="tiger:zip_right" v="91784"/>
    <tag k="tiger:zip_right_1" v="91784"/>
  </way>
  <way id="2173" version="18" timestamp="2009-10-02T19:53:31Z" uid="86259" user="hasse_osm_korinthenkacker" changeset="2716821">
    <nd ref="600415"/>
    <nd ref="297491102"/>
    <tag k="highway" v="primary"/>
    <tag k="maxspeed" v="70"/>
    <tag k="name" v="Münchner Straße"/>
    <tag k="ref" v="B 13"/>
  </way>
  <way id="2175" version="29" timestamp="2009-10-02T19:53:31Z" uid="86259" user="hasse_osm_korinthenkacker" changeset="2716821">
    <nd ref="624020"/>
    <nd ref="297490603"/>
    <nd ref="311190173"/>
    <tag k="highway" v="primary"/>
    <tag k="maxspeed" v="70"/>
    <tag k="name" v="Tegernseer Straße"/>
    <tag k="ref" v="B 13"/>
  </way>
  <way id="2177" version="20" timestamp="2009-10-23T11:38:46Z" uid="36809" user="pfoten_weg_!_" changeset="2928981">
    <nd ref="29977996"/>
    <nd ref="316749510"/>
    <nd ref="29976730"/>
    <nd ref="316749509"/>
    <nd ref="431607012"/>
    <nd ref="26238644"/>
    <nd ref="431607015"/>
    <nd ref="25843355"/>
    <nd ref="387185248"/>
    <nd ref="280297567"/>
    <nd ref="431607004"/>
    <nd ref="279337865"/>
    <nd ref="282625822"/>
    <tag k="highway" v="residential"/>
    <tag k="maxspeed" v="30"/>
    <tag k="name" v="Kreuzstraße"/>
    <tag k="postal_code" v="83624"/>
  </way>
  <way id="2178" version="36" timestamp="2009-10-02T19:53:19Z" uid="86259" user="hasse_osm_korinthenkacker" changeset="2716821">
    <nd ref="274795803"/>
    <nd ref="319743315"/>
    <nd ref="304986394"/>
    <nd ref="8284973"/>
    <tag k="highway" v="primary"/>
    <tag k="lanes" v="1"/>
    <tag k="maxspeed" v="50"/>
    <tag k="oneway" v="yes"/>
    <tag k="postal_code" v="83624"/>
  </way>
  <way id="2180" version="15" timestamp="2009-10-02T19:53:19Z" uid="86259" user="hasse_osm_korinthenkacker" changeset="2716821">
    <nd ref="14858599"/>
    <nd ref="323096841"/>
    <nd ref="444370900"/>
    <nd ref="20954548"/>
    <nd ref="323096842"/>
    <nd ref="272817745"/>
    <nd ref="323097318"/>
    <tag k="highway" v="residential"/>
    <tag k="maxspeed" v="50"/>
    <tag k="maxweight" v="7,5"/>
    <tag k="name" v="St.-Georg-Platz"/>
    <tag k="postal_code" v="83624"/>
  </way>
  <way id="2184" version="12" timestamp="2009-10-02T19:53:18Z" uid="86259" user="hasse_osm_korinthenkacker" changeset="2716821">
    <nd ref="673866"/>
    <nd ref="444676267"/>
    <nd ref="300385584"/>
    <nd ref="253629165"/>
    <nd ref="293853254"/>
    <nd ref="673870"/>
    <nd ref="295192645"/>
    <nd ref="624153"/>
    <tag k="highway" v="residential"/>
    <tag k="maxspeed" v="30"/>
    <tag k="name" v="Ludwig-Ganghofer-Straße"/>
    <tag k="postal_code" v="83624"/>
  </way>
  <way id="2185" version="29" timestamp="2009-10-02T19:53:17Z" uid="86259" user="hasse_osm_korinthenkacker" changeset="2716821">
    <nd ref="673864"/>
    <nd ref="306883451"/>
    <nd ref="271909835"/>
    <nd ref="364784489"/>
    <nd ref="271910229"/>
    <nd ref="8284979"/>
    <nd ref="271910231"/>
    <nd ref="307019996"/>
    <nd ref="293852838"/>
    <nd ref="293855041"/>
    <nd ref="275644574"/>
    <nd ref="8284981"/>
    <nd ref="269110234"/>
    <nd ref="293936082"/>
    <nd ref="250136174"/>
    <nd ref="8284982"/>
    <nd ref="390736837"/>
    <nd ref="390736838"/>
    <nd ref="364785451"/>
    <nd ref="673866"/>
    <tag k="highway" v="unclassified"/>
    <tag k="maxspeed" v="50"/>
    <tag k="name" v="Lehrer-Holl-Straße"/>
    <tag k="postal_code" v="83624"/>
  </way>
  <way id="2186" version="23" timestamp="2009-10-02T19:53:19Z" uid="86259" user="hasse_osm_korinthenkacker" changeset="2716821">
    <nd ref="271847408"/>
    <nd ref="304986377"/>
    <nd ref="8284975"/>
    <tag k="highway" v="residential"/>
    <tag k="maxspeed" v="50"/>
    <tag k="name" v="Hienlohestraße"/>
    <tag k="oneway" v="yes"/>
    <tag k="postal_code" v="83624"/>
  </way>
  <way id="2187" version="18" timestamp="2009-02-01T18:05:56Z" uid="6975" user="ulfl" changeset="27333">
    <nd ref="673869"/>
    <nd ref="287960919"/>
    <nd ref="294137125"/>
    <nd ref="271780417"/>
    <nd ref="273171788"/>
    <nd ref="673862"/>
    <tag k="highway" v="primary"/>
    <tag k="lanes" v="2"/>
    <tag k="maxspeed" v="70"/>
    <tag k="name" v="Münchner Straße"/>
    <tag k="postal_code" v="83624"/>
    <tag k="ref" v="B 13"/>
  </way>
  <way id="2780" version="2" timestamp="2008-12-14T13:15:15Z" uid="6975" user="ulfl" changeset="366940">
    <nd ref="649678"/>
    <nd ref="649679"/>
    <nd ref="649680"/>
    <nd ref="649681"/>
    <nd ref="649682"/>
    <nd ref="649683"/>
    <nd ref="649684"/>
    <tag k="highway" v="footpath"/>
    <tag k="name" v="Kauri Dam track"/>
  </way>
  <way id="2849" version="2" timestamp="2007-12-15T19:40:57Z" uid="8328" user="benpre" changeset="314664"/>
  <way id="2852" version="2" timestamp="2007-12-15T19:41:01Z" uid="8328" user="benpre" changeset="314664"/>
  <way id="2853" version="2" timestamp="2008-12-14T14:56:23Z" uid="6975" user="ulfl" changeset="375714">
    <nd ref="691991"/>
    <nd ref="691992"/>
    <tag k="highway" v="secondary"/>
    <tag k="name" v="Amherst St. (Rt. 101A)"/>
  </way>
  <way id="2854" version="2" timestamp="2007-12-15T19:40:58Z" uid="8328" user="benpre" changeset="314664"/>
  <way id="2856" version="2" timestamp="2008-12-14T14:56:28Z" uid="6975" user="ulfl" changeset="375714">
    <nd ref="691991"/>
    <nd ref="691992"/>
    <nd ref="691993"/>
    <nd ref="691994"/>
    <nd ref="691995"/>
    <nd ref="692000"/>
    <nd ref="692001"/>
    <tag k="highway" v="secondary"/>
    <tag k="name" v="Amherst St. (Route 101A)"/>
  </way>
  <way id="2858" version="2" timestamp="2007-12-15T19:40:56Z" uid="8328" user="benpre" changeset="314664"/>
</osm>
