<?xml version='1.0' encoding='UTF-8'?>
<osm version="0.6" generator="libosmium/2.20.0">
  <way id="20104101" version="7" timestamp="2010-07-08T02:32:25Z" uid="74617" user="JohnSmith" changeset="5163091">
    <nd ref="212524505"/>
    <nd ref="212527724"/>
    <nd ref="212531197"/>
    <nd ref="212531589"/>
    <nd ref="212529422"/>
    <nd ref="212525300"/>
    <nd ref="212525814"/>
    <nd ref="212525301"/>
    <tag k="highway" v="residential"/>
    <tag k="maxspeed" v="50"/>
    <tag k="maxspeed:source" v="default residential speed limit in Australia"/>
    <tag k="name" v="Balmoral Avenue"/>
  </way>
  <way id="20104101" version="8" timestamp="2010-11-28T05:40:13Z" uid="7617" user="Franc" changeset="6475372">
    <nd ref="212524505"/>
    <nd ref="212527724"/>
    <nd ref="212531197"/>
    <nd ref="1010144621"/>
    <nd ref="1010144676"/>
    <nd ref="212531589"/>
    <nd ref="212529422"/>
    <nd ref="212525300"/>
    <nd ref="212525814"/>
    <nd ref="212525301"/>
    <tag k="highway" v="residential"/>
    <tag k="maxspeed" v="50"/>
    <tag k="maxspeed:source" v="default residential speed limit in Australia"/>
    <tag k="name" v="Balmoral Avenue"/>
  </way>
  <way id="20104143" version="3" timestamp="2010-07-08T02:38:26Z" uid="74617" user="JohnSmith" changeset="5163091">
    <nd ref="212525758"/>
    <nd ref="212526223"/>
    <nd ref="212525760"/>
    <tag k="highway" v="residential"/>
    <tag k="maxspeed" v="50"/>
    <tag k="maxspeed:source" v="default residential speed limit in Australia"/>
    <tag k="name" v="Riverside Road"/>
  </way>
  <way id="20104174" version="2" timestamp="2010-07-08T02:38:34Z" uid="74617" user="JohnSmith" changeset="5163091">
    <nd ref="212525814"/>
    <nd ref="212526223"/>
    <tag k="highway" v="residential"/>
    <tag k="maxspeed" v="50"/>
    <tag k="maxspeed:source" v="default residential speed limit in Australia"/>
    <tag k="name" v="Park Street"/>
  </way>
  <way id="20104322" version="3" timestamp="2010-05-30T08:34:15Z" uid="7617" user="Franc" changeset="4849455">
    <nd ref="198932108"/>
    <nd ref="758653528"/>
    <nd ref="212528444"/>
    <nd ref="212527661"/>
    <tag k="highway" v="residential"/>
    <tag k="name" v="Melrose Street"/>
  </way>
  <way id="20104322" version="4" timestamp="2010-07-08T02:35:38Z" uid="74617" user="JohnSmith" changeset="5163091">
    <nd ref="198932108"/>
    <nd ref="758653528"/>
    <nd ref="212528444"/>
    <nd ref="212527661"/>
    <tag k="highway" v="residential"/>
    <tag k="maxspeed" v="50"/>
    <tag k="maxspeed:source" v="default residential speed limit in Australia"/>
    <tag k="name" v="Melrose Street"/>
  </way>
  <way id="20104455" version="3" timestamp="2010-02-06T04:43:17Z" uid="30201" user="rrankin" changeset="3802628">
    <nd ref="212528508"/>
    <nd ref="631371863"/>
    <tag k="highway" v="residential"/>
    <tag k="name" v="Hampton Street"/>
  </way>
  <way id="20104455" version="4" timestamp="2010-07-08T02:37:07Z" uid="74617" user="JohnSmith" changeset="5163091">
    <nd ref="212528508"/>
    <nd ref="631371863"/>
    <tag k="highway" v="residential"/>
    <tag k="maxspeed" v="50"/>
    <tag k="maxspeed:source" v="default residential speed limit in Australia"/>
    <tag k="name" v="Hampton Street"/>
  </way>
  <way id="20104535" version="2" timestamp="2010-07-08T02:38:27Z" uid="74617" user="JohnSmith" changeset="5163091">
    <nd ref="212529422"/>
    <nd ref="212530572"/>
    <nd ref="212530573"/>
    <tag k="highway" v="residential"/>
    <tag k="maxspeed" v="50"/>
    <tag k="maxspeed:source" v="default residential speed limit in Australia"/>
    <tag k="name" v="Broad Street"/>
  </way>
  <way id="20104588" version="2" timestamp="2010-07-08T02:37:09Z" uid="74617" user="JohnSmith" changeset="5163091">
    <nd ref="212531194"/>
    <nd ref="212531196"/>
    <nd ref="212531197"/>
    <nd ref="212531199"/>
    <tag k="highway" v="residential"/>
    <tag k="maxspeed" v="50"/>
    <tag k="maxspeed:source" v="default residential speed limit in Australia"/>
    <tag k="name" v="President Street"/>
  </way>
  <way id="20104588" version="3" timestamp="2010-11-28T05:40:11Z" uid="7617" user="Franc" changeset="6475372">
    <nd ref="212531194"/>
    <nd ref="212531196"/>
    <nd ref="1010144650"/>
    <nd ref="1010144629"/>
    <nd ref="1010144602"/>
    <nd ref="1010144621"/>
    <tag k="highway" v="residential"/>
    <tag k="maxspeed" v="50"/>
    <tag k="maxspeed:source" v="default residential speed limit in Australia"/>
    <tag k="name" v="President Street"/>
  </way>
  <way id="20104619" version="2" timestamp="2010-07-08T02:38:31Z" uid="74617" user="JohnSmith" changeset="5163091">
    <nd ref="212531588"/>
    <nd ref="212531589"/>
    <nd ref="212531590"/>
    <nd ref="212531591"/>
    <nd ref="212531592"/>
    <nd ref="212531593"/>
    <tag k="highway" v="residential"/>
    <tag k="maxspeed" v="50"/>
    <tag k="maxspeed:source" v="default residential speed limit in Australia"/>
    <tag k="name" v="Rosedale Crescent"/>
  </way>
  <way id="20104619" version="3" timestamp="2010-11-28T05:40:12Z" uid="7617" user="Franc" changeset="6475372">
    <nd ref="212531588"/>
    <nd ref="1010144707"/>
    <nd ref="1010144674"/>
    <nd ref="1010144696"/>
    <nd ref="212531589"/>
    <tag k="highway" v="residential"/>
    <tag k="maxspeed" v="50"/>
    <tag k="maxspeed:source" v="default residential speed limit in Australia"/>
    <tag k="name" v="Rosedale Crescent"/>
  </way>
  <way id="20104661" version="2" timestamp="2010-07-08T02:33:53Z" uid="74617" user="JohnSmith" changeset="5163091">
    <nd ref="212531638"/>
    <nd ref="212531953"/>
    <tag k="highway" v="residential"/>
    <tag k="maxspeed" v="50"/>
    <tag k="maxspeed:source" v="default residential speed limit in Australia"/>
    <tag k="name" v="President Street"/>
    <tag k="oneway" v="yes"/>
  </way>
  <way id="20104700" version="2" timestamp="2010-07-08T02:40:13Z" uid="74617" user="JohnSmith" changeset="5163091">
    <nd ref="212531986"/>
    <nd ref="212532401"/>
    <tag k="highway" v="residential"/>
    <tag k="maxspeed" v="50"/>
    <tag k="maxspeed:source" v="default residential speed limit in Australia"/>
    <tag k="name" v="Rosedale Crescent"/>
    <tag k="oneway" v="yes"/>
  </way>
  <way id="20104768" version="6" timestamp="2010-07-06T08:30:21Z" uid="74617" user="JohnSmith" changeset="5147679">
    <nd ref="47490098"/>
    <nd ref="212533151"/>
    <nd ref="212533152"/>
    <nd ref="212537218"/>
    <nd ref="212537219"/>
    <nd ref="212537221"/>
    <nd ref="212537223"/>
    <nd ref="212537226"/>
    <nd ref="212537227"/>
    <nd ref="212361125"/>
    <nd ref="212537229"/>
    <nd ref="212537230"/>
    <nd ref="212537232"/>
    <nd ref="212537233"/>
    <nd ref="212537234"/>
    <nd ref="212537235"/>
    <nd ref="212544089"/>
    <nd ref="212544091"/>
    <nd ref="212541582"/>
    <nd ref="212544092"/>
    <tag k="highway" v="residential"/>
    <tag k="maxspeed" v="50"/>
    <tag k="maxspeed:source" v="default residential speed limit in Australia"/>
    <tag k="name" v="Ashburton Street"/>
  </way>
  <way id="20104821" version="5" timestamp="2009-08-03T14:05:00Z" uid="4467" user="Rosscoe" changeset="2025851">
    <nd ref="198547217"/>
    <nd ref="200302353"/>
    <nd ref="207842395"/>
    <nd ref="200302369"/>
    <nd ref="200302375"/>
    <nd ref="200301233"/>
    <nd ref="244269072"/>
    <nd ref="206199181"/>
    <nd ref="200302391"/>
    <nd ref="200302408"/>
    <nd ref="200302422"/>
    <nd ref="200302440"/>
    <nd ref="246007529"/>
    <nd ref="246007530"/>
    <nd ref="200302025"/>
    <tag k="highway" v="cycleway"/>
    <tag k="name" v="Railway Reserve"/>
  </way>
  <way id="20104821" version="6" timestamp="2009-08-03T14:14:12Z" uid="4467" user="Rosscoe" changeset="2025941">
    <nd ref="198547217"/>
    <nd ref="200302353"/>
    <nd ref="207842395"/>
    <nd ref="200302369"/>
    <nd ref="455229460"/>
    <nd ref="200302375"/>
    <nd ref="200301233"/>
    <nd ref="244269072"/>
    <nd ref="206199181"/>
    <nd ref="200302391"/>
    <nd ref="200302408"/>
    <nd ref="200302422"/>
    <nd ref="200302440"/>
    <nd ref="246007529"/>
    <nd ref="246007530"/>
    <nd ref="200302025"/>
    <tag k="highway" v="cycleway"/>
    <tag k="name" v="Railway Reserve"/>
  </way>
  <way id="20104882" version="5" timestamp="2010-07-06T08:33:50Z" uid="74617" user="JohnSmith" changeset="5147679">
    <nd ref="212533152"/>
    <nd ref="212534183"/>
    <nd ref="212534186"/>
    <nd ref="212534187"/>
    <nd ref="212534188"/>
    <tag k="highway" v="residential"/>
    <tag k="maxspeed" v="50"/>
    <tag k="maxspeed:source" v="default residential speed limit in Australia"/>
    <tag k="name" v="Stonehenge Street"/>
  </way>
</osm>
