<?xml version='1.0' encoding='UTF-8'?>
<osm version="0.6" generator="libosmium/2.20.0">
  <way id="20106028" version="2" timestamp="2008-05-27T07:22:22Z" uid="30201" user="rrankin" changeset="530896">
    <nd ref="212543710"/>
    <nd ref="212543712"/>
    <nd ref="212543713"/>
    <nd ref="267083115"/>
    <nd ref="212543715"/>
    <nd ref="212543716"/>
    <nd ref="212543717"/>
    <nd ref="212543719"/>
    <nd ref="212543710"/>
    <tag k="created_by" v="Potlatch 0.6a"/>
    <tag k="layer" v="-1"/>
    <tag k="leisure" v="park"/>
    <tag k="name" v="Walsh Avenue Reserve"/>
  </way>
  <way id="20106154" version="5" timestamp="2010-07-06T08:32:15Z" uid="74617" user="JohnSmith" changeset="5147679">
    <nd ref="212541579"/>
    <nd ref="212544954"/>
    <nd ref="212544956"/>
    <nd ref="212544958"/>
    <nd ref="212544959"/>
    <nd ref="212544961"/>
    <tag k="highway" v="residential"/>
    <tag k="maxspeed" v="50"/>
    <tag k="maxspeed:source" v="default residential speed limit in Australia"/>
    <tag k="name" v="Tamarix Street"/>
  </way>
  <way id="20106170" version="4" timestamp="2008-05-27T07:22:25Z" uid="30201" user="rrankin" changeset="530896">
    <nd ref="60847184"/>
    <nd ref="267083118"/>
    <nd ref="32849376"/>
    <tag k="created_by" v="Potlatch 0.6a"/>
    <tag k="highway" v="primary"/>
    <tag k="name" v="Punchbowl Road"/>
  </way>
  <way id="20106242" version="2" timestamp="2008-03-04T21:49:48Z" uid="7617" user="Franc" changeset="266096">
    <nd ref="32849376"/>
    <nd ref="32849377"/>
    <nd ref="32849378"/>
    <nd ref="211111665"/>
    <nd ref="32849379"/>
    <nd ref="211106061"/>
    <nd ref="32849380"/>
    <nd ref="32849381"/>
    <nd ref="207365395"/>
    <nd ref="32849382"/>
    <nd ref="32849383"/>
    <nd ref="32849384"/>
    <nd ref="32849385"/>
    <nd ref="32849386"/>
    <nd ref="26428829"/>
    <nd ref="26428830"/>
    <nd ref="212523076"/>
    <nd ref="211118530"/>
    <nd ref="26428831"/>
    <nd ref="212524505"/>
    <nd ref="26428832"/>
    <nd ref="212527661"/>
    <nd ref="26428854"/>
    <tag k="created_by" v="Potlatch 0.6a"/>
    <tag k="highway" v="primary"/>
    <tag k="name" v="Georges River Road"/>
  </way>
  <way id="20106242" version="3" timestamp="2010-01-26T04:02:46Z" uid="30201" user="rrankin" changeset="3716588">
    <nd ref="32849376"/>
    <nd ref="32849377"/>
    <nd ref="32849378"/>
    <nd ref="211111665"/>
    <nd ref="32849379"/>
    <nd ref="211106061"/>
    <nd ref="32849381"/>
    <nd ref="207365395"/>
    <nd ref="32849383"/>
    <nd ref="32849384"/>
    <nd ref="32849385"/>
    <nd ref="32849386"/>
    <nd ref="26428829"/>
    <nd ref="212523076"/>
    <nd ref="211118530"/>
    <nd ref="212524505"/>
    <nd ref="212527661"/>
    <nd ref="26428854"/>
    <tag k="highway" v="primary"/>
    <tag k="name" v="Georges River Road"/>
  </way>
  <way id="20106242" version="6" timestamp="2011-05-01T11:08:20Z" uid="7617" user="Franc" changeset="8019962">
    <nd ref="32849377"/>
    <nd ref="1268688796"/>
    <nd ref="1268688834"/>
    <nd ref="1268688803"/>
    <nd ref="694144301"/>
    <nd ref="32849376"/>
    <tag k="highway" v="primary"/>
    <tag k="name" v="Georges River Road"/>
    <tag k="oneway" v="yes"/>
  </way>
  <way id="20106428" version="3" timestamp="2010-07-08T02:37:42Z" uid="74617" user="JohnSmith" changeset="5163091">
    <nd ref="212547425"/>
    <nd ref="158863174"/>
    <tag k="bridge" v="yes"/>
    <tag k="highway" v="residential"/>
    <tag k="layer" v="1"/>
    <tag k="maxspeed" v="50"/>
    <tag k="maxspeed:source" v="default residential speed limit in Australia"/>
    <tag k="name" v="Maria Street"/>
  </way>
  <way id="20106445" version="2" timestamp="2008-05-25T04:33:48Z" uid="30201" user="rrankin" changeset="514315">
    <nd ref="158863174"/>
    <nd ref="266727212"/>
    <nd ref="158863175"/>
    <nd ref="158877253"/>
    <nd ref="158876584"/>
    <nd ref="158877170"/>
    <nd ref="158876469"/>
    <nd ref="158863178"/>
    <tag k="created_by" v="Potlatch 0.6a"/>
    <tag k="highway" v="residential"/>
    <tag k="name" v="Maria Street"/>
  </way>
  <way id="20106445" version="3" timestamp="2010-07-08T02:37:04Z" uid="74617" user="JohnSmith" changeset="5163091">
    <nd ref="158863174"/>
    <nd ref="266727212"/>
    <nd ref="158863175"/>
    <nd ref="158877253"/>
    <nd ref="158876584"/>
    <nd ref="158877170"/>
    <nd ref="158876469"/>
    <nd ref="158863178"/>
    <tag k="highway" v="residential"/>
    <tag k="maxspeed" v="50"/>
    <tag k="maxspeed:source" v="default residential speed limit in Australia"/>
    <tag k="name" v="Maria Street"/>
  </way>
  <way id="20106605" version="2" timestamp="2010-07-08T02:39:39Z" uid="74617" user="JohnSmith" changeset="5163091">
    <nd ref="212548764"/>
    <nd ref="212549214"/>
    <tag k="highway" v="residential"/>
    <tag k="maxspeed" v="50"/>
    <tag k="maxspeed:source" v="default residential speed limit in Australia"/>
    <tag k="name" v="Excelsior Avenue"/>
  </way>
  <way id="20106652" version="2" timestamp="2010-07-08T02:37:28Z" uid="74617" user="JohnSmith" changeset="5163091">
    <nd ref="212549250"/>
    <nd ref="212549645"/>
    <nd ref="212549646"/>
    <nd ref="212549647"/>
    <nd ref="212549649"/>
    <tag k="highway" v="residential"/>
    <tag k="maxspeed" v="50"/>
    <tag k="maxspeed:source" v="default residential speed limit in Australia"/>
    <tag k="name" v="Sunlea Crescent"/>
  </way>
  <way id="20106706" version="2" timestamp="2010-07-08T02:33:11Z" uid="74617" user="JohnSmith" changeset="5163091">
    <nd ref="212549684"/>
    <nd ref="212550392"/>
    <tag k="highway" v="residential"/>
    <tag k="maxspeed" v="50"/>
    <tag k="maxspeed:source" v="default residential speed limit in Australia"/>
    <tag k="name" v="Chatfield Avenue"/>
  </way>
  <way id="20106786" version="2" timestamp="2010-07-08T02:37:08Z" uid="74617" user="JohnSmith" changeset="5163091">
    <nd ref="212550442"/>
    <nd ref="212551077"/>
    <nd ref="42329020"/>
    <tag k="highway" v="residential"/>
    <tag k="maxspeed" v="50"/>
    <tag k="maxspeed:source" v="default residential speed limit in Australia"/>
    <tag k="name" v="Birriwa Avenue"/>
  </way>
  <way id="20106854" version="2" timestamp="2010-07-08T02:40:16Z" uid="74617" user="JohnSmith" changeset="5163091">
    <nd ref="212551154"/>
    <nd ref="212551656"/>
    <nd ref="212551657"/>
    <tag k="highway" v="residential"/>
    <tag k="maxspeed" v="50"/>
    <tag k="maxspeed:source" v="default residential speed limit in Australia"/>
    <tag k="name" v="Cutbush Avenue"/>
  </way>
</osm>
