<?xml version='1.0' encoding='UTF-8'?>
<osm version="0.6" generator="libosmium/2.20.0">
  <way id="20124066" version="9" timestamp="2010-08-22T18:42:59Z" uid="4467" user="Rosscoe" changeset="5564206">
    <nd ref="293304710"/>
    <nd ref="212757182"/>
    <tag k="highway" v="primary"/>
    <tag k="name" v="West Avenue"/>
    <tag k="ref" v="US 20; NY 5"/>
    <tag k="tiger:cfcc" v="A41"/>
    <tag k="tiger:county" v="Ontario, NY"/>
    <tag k="tiger:name_base" v="West"/>
    <tag k="tiger:name_type" v="Ave"/>
    <tag k="tiger:reviewed" v="no"/>
    <tag k="tiger:separated" v="no"/>
    <tag k="tiger:source" v="tiger_import_dch_v0.6_20070829"/>
    <tag k="tiger:tlid" v="13472433:13472212:13471823:13472425:13472391:13472167:13471860:13486071:13471868:13471869:13472392:13472394:13482660:13472614:13472365:13471874:13471896"/>
    <tag k="tiger:upload_uuid" v="bulk_upload.pl-995314ec-aa6c-497f-ae64-7f4ffc142b36"/>
    <tag k="tiger:zip_left" v="14424"/>
    <tag k="tiger:zip_right" v="14424"/>
  </way>
  <way id="20124262" version="7" timestamp="2009-11-13T07:33:48Z" uid="4467" user="Rosscoe" changeset="3103962">
    <nd ref="212719588"/>
    <nd ref="562620369"/>
    <tag k="highway" v="residential"/>
    <tag k="name" v="Nixon Street"/>
  </way>
  <way id="20124998" version="2" timestamp="2010-05-09T04:25:55Z" uid="4467" user="Rosscoe" changeset="4644713">
    <nd ref="212787226"/>
    <nd ref="212784236"/>
    <nd ref="726960754"/>
    <nd ref="212787227"/>
    <tag k="highway" v="tertiary"/>
    <tag k="name" v="Collins Road"/>
  </way>
</osm>
