<?xml version='1.0' encoding='UTF-8'?>
<osm version="0.6" generator="libosmium/2.20.0">
  <way id="20140029" version="5" timestamp="2008-04-23T06:14:01Z" uid="30201" user="rrankin" changeset="238815">
    <nd ref="212962900"/>
    <nd ref="212963542"/>
    <nd ref="212963543"/>
    <nd ref="212963545"/>
    <nd ref="212963547"/>
    <nd ref="212964376"/>
    <nd ref="212963548"/>
    <nd ref="212963551"/>
    <nd ref="212964189"/>
    <nd ref="212964023"/>
    <nd ref="212963552"/>
    <nd ref="212963553"/>
    <tag k="created_by" v="Potlatch 0.8b"/>
    <tag k="highway" v="residential"/>
    <tag k="name" v="Swineborne Crescent"/>
  </way>
  <way id="20140029" version="6" timestamp="2008-04-23T06:17:00Z" uid="30201" user="rrankin" changeset="238815">
    <nd ref="212962900"/>
    <nd ref="212963542"/>
    <nd ref="212963543"/>
    <nd ref="212963545"/>
    <nd ref="212963547"/>
    <nd ref="212964376"/>
    <nd ref="212963548"/>
    <nd ref="212963551"/>
    <nd ref="212964189"/>
    <nd ref="212964023"/>
    <nd ref="212963552"/>
    <nd ref="212963553"/>
    <nd ref="212963883"/>
    <nd ref="212963885"/>
    <nd ref="212963886"/>
    <tag k="created_by" v="Potlatch 0.8b"/>
    <tag k="highway" v="residential"/>
    <tag k="name" v="Swineborne Crescent"/>
  </way>
  <way id="20140029" version="7" timestamp="2009-12-25T13:25:29Z" uid="7617" user="Franc" changeset="3448112">
    <nd ref="212962900"/>
    <nd ref="212963542"/>
    <nd ref="212963543"/>
    <nd ref="212963545"/>
    <nd ref="599228717"/>
    <nd ref="212963547"/>
    <nd ref="212964376"/>
    <nd ref="212963548"/>
    <nd ref="599228716"/>
    <nd ref="212963551"/>
    <nd ref="212964189"/>
    <nd ref="212964023"/>
    <nd ref="599228721"/>
    <nd ref="212963552"/>
    <nd ref="212963553"/>
    <nd ref="212963883"/>
    <nd ref="212963885"/>
    <nd ref="212963886"/>
    <tag k="highway" v="residential"/>
    <tag k="name" v="Swineborne Crescent"/>
  </way>
  <way id="20140029" version="8" timestamp="2010-07-07T22:31:23Z" uid="74617" user="JohnSmith" changeset="5162525">
    <nd ref="212962900"/>
    <nd ref="212963542"/>
    <nd ref="212963543"/>
    <nd ref="212963545"/>
    <nd ref="599228717"/>
    <nd ref="212963547"/>
    <nd ref="212964376"/>
    <nd ref="212963548"/>
    <nd ref="599228716"/>
    <nd ref="212963551"/>
    <nd ref="212964189"/>
    <nd ref="212964023"/>
    <nd ref="599228721"/>
    <nd ref="212963552"/>
    <nd ref="212963553"/>
    <nd ref="212963883"/>
    <nd ref="212963885"/>
    <nd ref="212963886"/>
    <tag k="highway" v="residential"/>
    <tag k="maxspeed" v="50"/>
    <tag k="maxspeed:source" v="default residential speed limit in Australia"/>
    <tag k="name" v="Swineborne Crescent"/>
  </way>
  <way id="20140054" version="3" timestamp="2008-04-23T06:16:50Z" uid="30201" user="rrankin" changeset="238815">
    <nd ref="212963879"/>
    <nd ref="212963880"/>
    <nd ref="212963882"/>
    <nd ref="212963553"/>
    <tag k="created_by" v="Potlatch 0.8b"/>
    <tag k="highway" v="residential"/>
  </way>
  <way id="20140054" version="4" timestamp="2008-04-23T06:17:27Z" uid="30201" user="rrankin" changeset="238815">
    <nd ref="212963879"/>
    <nd ref="212963880"/>
    <nd ref="212963882"/>
    <nd ref="212963553"/>
    <tag k="created_by" v="Potlatch 0.8b"/>
    <tag k="highway" v="residential"/>
    <tag k="name" v="Ibsen Place"/>
  </way>
  <way id="20140054" version="5" timestamp="2010-07-07T22:35:26Z" uid="74617" user="JohnSmith" changeset="5162525">
    <nd ref="212963879"/>
    <nd ref="212963880"/>
    <nd ref="212963882"/>
    <nd ref="212963553"/>
    <tag k="highway" v="residential"/>
    <tag k="maxspeed" v="50"/>
    <tag k="maxspeed:source" v="default residential speed limit in Australia"/>
    <tag k="name" v="Ibsen Place"/>
  </way>
  <way id="20140083" version="2" timestamp="2008-04-23T06:18:03Z" uid="30201" user="rrankin" changeset="238815">
    <nd ref="212964023"/>
    <nd ref="212964169"/>
    <tag k="created_by" v="Potlatch 0.8b"/>
    <tag k="highway" v="residential"/>
    <tag k="name" v="Gogol Place"/>
  </way>
  <way id="20140083" version="3" timestamp="2010-07-07T22:31:37Z" uid="74617" user="JohnSmith" changeset="5162525">
    <nd ref="212964023"/>
    <nd ref="212964169"/>
    <tag k="highway" v="residential"/>
    <tag k="maxspeed" v="50"/>
    <tag k="maxspeed:source" v="default residential speed limit in Australia"/>
    <tag k="name" v="Gogol Place"/>
  </way>
  <way id="20140097" version="2" timestamp="2008-04-23T06:18:26Z" uid="30201" user="rrankin" changeset="238815">
    <nd ref="212964189"/>
    <nd ref="212964348"/>
    <nd ref="212964350"/>
    <nd ref="212964352"/>
    <tag k="created_by" v="Potlatch 0.8b"/>
    <tag k="highway" v="residential"/>
    <tag k="name" v="Homer Place"/>
  </way>
  <way id="20140097" version="3" timestamp="2010-07-07T22:32:07Z" uid="74617" user="JohnSmith" changeset="5162525">
    <nd ref="212964189"/>
    <nd ref="212964348"/>
    <nd ref="212964350"/>
    <nd ref="212964352"/>
    <tag k="highway" v="residential"/>
    <tag k="maxspeed" v="50"/>
    <tag k="maxspeed:source" v="default residential speed limit in Australia"/>
    <tag k="name" v="Homer Place"/>
  </way>
  <way id="20140110" version="2" timestamp="2008-04-23T06:18:48Z" uid="30201" user="rrankin" changeset="238815">
    <nd ref="212964376"/>
    <nd ref="212964484"/>
    <nd ref="212964485"/>
    <tag k="created_by" v="Potlatch 0.8b"/>
    <tag k="highway" v="residential"/>
    <tag k="name" v="Crane Place"/>
  </way>
  <way id="20140110" version="3" timestamp="2009-12-25T13:25:26Z" uid="7617" user="Franc" changeset="3448112">
    <nd ref="212964376"/>
    <nd ref="599228718"/>
    <nd ref="212964484"/>
    <nd ref="212964485"/>
    <tag k="highway" v="residential"/>
    <tag k="name" v="Crane Place"/>
  </way>
  <way id="20140110" version="4" timestamp="2010-07-07T22:31:04Z" uid="74617" user="JohnSmith" changeset="5162525">
    <nd ref="212964376"/>
    <nd ref="599228718"/>
    <nd ref="212964484"/>
    <nd ref="212964485"/>
    <tag k="highway" v="residential"/>
    <tag k="maxspeed" v="50"/>
    <tag k="maxspeed:source" v="default residential speed limit in Australia"/>
    <tag k="name" v="Crane Place"/>
  </way>
  <way id="20140131" version="2" timestamp="2008-04-23T06:14:35Z" uid="30201" user="rrankin" changeset="238815">
    <nd ref="212964603"/>
    <nd ref="212964673"/>
    <tag k="created_by" v="Potlatch 0.8b"/>
    <tag k="highway" v="residential"/>
    <tag k="name" v="Lodge Place"/>
  </way>
  <way id="20140131" version="3" timestamp="2010-07-07T22:30:08Z" uid="74617" user="JohnSmith" changeset="5162525">
    <nd ref="212964603"/>
    <nd ref="212964673"/>
    <tag k="highway" v="residential"/>
    <tag k="maxspeed" v="50"/>
    <tag k="maxspeed:source" v="default residential speed limit in Australia"/>
    <tag k="name" v="Lodge Place"/>
  </way>
  <way id="20140193" version="2" timestamp="2009-12-25T13:25:29Z" uid="7617" user="Franc" changeset="3448112">
    <nd ref="212965175"/>
    <nd ref="599228722"/>
    <nd ref="212965177"/>
    <nd ref="212965178"/>
    <tag k="highway" v="service"/>
  </way>
  <way id="20140293" version="2" timestamp="2008-05-19T02:44:39Z" uid="30201" user="rrankin" changeset="476977">
    <nd ref="212966357"/>
    <nd ref="212966605"/>
    <nd ref="212966606"/>
    <tag k="created_by" v="Potlatch 0.6a"/>
    <tag k="highway" v="residential"/>
    <tag k="name" v="Thompson Street"/>
  </way>
  <way id="20140293" version="3" timestamp="2010-07-07T22:26:38Z" uid="74617" user="JohnSmith" changeset="5162525">
    <nd ref="212966357"/>
    <nd ref="212966605"/>
    <nd ref="212966606"/>
    <tag k="highway" v="residential"/>
    <tag k="maxspeed" v="50"/>
    <tag k="maxspeed:source" v="default residential speed limit in Australia"/>
    <tag k="name" v="Thompson Street"/>
  </way>
  <way id="20140313" version="4" timestamp="2008-05-19T02:44:40Z" uid="30201" user="rrankin" changeset="476977">
    <nd ref="212966605"/>
    <nd ref="212967355"/>
    <nd ref="212966924"/>
    <nd ref="212967170"/>
    <tag k="created_by" v="Potlatch 0.6a"/>
    <tag k="highway" v="residential"/>
    <tag k="name" v="Stevenson Street"/>
  </way>
  <way id="20140313" version="5" timestamp="2010-07-07T22:32:39Z" uid="74617" user="JohnSmith" changeset="5162525">
    <nd ref="212966605"/>
    <nd ref="212967355"/>
    <nd ref="212966924"/>
    <nd ref="212967170"/>
    <tag k="highway" v="residential"/>
    <tag k="maxspeed" v="50"/>
    <tag k="maxspeed:source" v="default residential speed limit in Australia"/>
    <tag k="name" v="Stevenson Street"/>
  </way>
  <way id="20140338" version="2" timestamp="2008-05-19T02:44:42Z" uid="30201" user="rrankin" changeset="476977"/>
  <way id="20140347" version="3" timestamp="2008-05-19T02:44:41Z" uid="30201" user="rrankin" changeset="476977">
    <nd ref="212967353"/>
    <nd ref="212967355"/>
    <tag k="created_by" v="Potlatch 0.6a"/>
    <tag k="highway" v="residential"/>
    <tag k="name" v="Binyon Close"/>
  </way>
  <way id="20140347" version="4" timestamp="2010-07-07T22:30:38Z" uid="74617" user="JohnSmith" changeset="5162525">
    <nd ref="212967353"/>
    <nd ref="212967355"/>
    <tag k="highway" v="residential"/>
    <tag k="maxspeed" v="50"/>
    <tag k="maxspeed:source" v="default residential speed limit in Australia"/>
    <tag k="name" v="Binyon Close"/>
  </way>
  <way id="20140661" version="7" timestamp="2008-02-10T11:32:02Z" uid="13367" user="nubok" changeset="89356">
    <nd ref="212976101"/>
    <nd ref="212971354"/>
    <nd ref="212971356"/>
    <tag k="created_by" v="Potlatch 0.7"/>
    <tag k="highway" v="residential"/>
    <tag k="name" v="ZschirpestraÃŸe"/>
  </way>
  <way id="20140781" version="6" timestamp="2008-10-14T15:25:30Z" uid="65847" user="LKK" changeset="325656">
    <nd ref="212972926"/>
    <nd ref="303989841"/>
    <nd ref="255649317"/>
    <nd ref="255649315"/>
    <tag k="created_by" v="Potlatch 0.9c"/>
    <tag k="foot" v="yes"/>
    <tag k="highway" v="pedestrian"/>
    <tag k="name" v="ÑƒÐ». 19Ñ‚Ð¸ Ð¤ÐµÐ²Ñ€ÑƒÐ°Ñ€Ð¸"/>
  </way>
  <way id="20140906" version="3" timestamp="2008-05-19T02:26:11Z" uid="30201" user="rrankin" changeset="476977">
    <nd ref="212972730"/>
    <nd ref="212975406"/>
    <nd ref="212975407"/>
    <nd ref="212975409"/>
    <nd ref="212975863"/>
    <nd ref="212975413"/>
    <nd ref="212975416"/>
    <nd ref="212975417"/>
    <nd ref="212975418"/>
    <nd ref="212975419"/>
    <nd ref="212975420"/>
    <nd ref="212975421"/>
    <tag k="created_by" v="Potlatch 0.6a"/>
    <tag k="highway" v="residential"/>
    <tag k="name" v="Ainsworth Crescent"/>
  </way>
  <way id="20140906" version="4" timestamp="2009-12-25T13:25:24Z" uid="7617" user="Franc" changeset="3448112">
    <nd ref="212972730"/>
    <nd ref="212975406"/>
    <nd ref="599228703"/>
    <nd ref="599228702"/>
    <nd ref="212975407"/>
    <nd ref="599228701"/>
    <nd ref="212975409"/>
    <nd ref="599228699"/>
    <nd ref="212975863"/>
    <nd ref="212975413"/>
    <nd ref="212975416"/>
    <nd ref="599228664"/>
    <nd ref="212975417"/>
    <nd ref="212975418"/>
    <nd ref="212975419"/>
    <nd ref="212975420"/>
    <nd ref="212975421"/>
    <tag k="highway" v="residential"/>
    <tag k="name" v="Ainsworth Crescent"/>
  </way>
  <way id="20140906" version="5" timestamp="2010-07-07T22:30:47Z" uid="74617" user="JohnSmith" changeset="5162525">
    <nd ref="212972730"/>
    <nd ref="212975406"/>
    <nd ref="599228703"/>
    <nd ref="599228702"/>
    <nd ref="212975407"/>
    <nd ref="599228701"/>
    <nd ref="212975409"/>
    <nd ref="599228699"/>
    <nd ref="212975863"/>
    <nd ref="212975413"/>
    <nd ref="212975416"/>
    <nd ref="599228664"/>
    <nd ref="212975417"/>
    <nd ref="212975418"/>
    <nd ref="212975419"/>
    <nd ref="212975420"/>
    <nd ref="212975421"/>
    <tag k="highway" v="residential"/>
    <tag k="maxspeed" v="50"/>
    <tag k="maxspeed:source" v="default residential speed limit in Australia"/>
    <tag k="name" v="Ainsworth Crescent"/>
  </way>
  <way id="20140923" version="4" timestamp="2010-03-15T02:39:08Z" uid="74617" user="JohnSmith" changeset="4131596"/>
  <way id="20140926" version="6" timestamp="2010-03-15T02:59:31Z" uid="74617" user="JohnSmith" changeset="4131629">
    <nd ref="111395091"/>
    <nd ref="638336610"/>
    <nd ref="212974081"/>
    <nd ref="534144732"/>
    <nd ref="212974206"/>
    <tag k="highway" v="primary"/>
    <tag k="name" v="Bradley Street"/>
  </way>
  <way id="20140941" version="4" timestamp="2008-02-10T11:31:45Z" uid="13367" user="nubok" changeset="89356"/>
  <way id="20140992" version="2" timestamp="2008-05-19T02:31:36Z" uid="30201" user="rrankin" changeset="476977"/>
</osm>
