<?xml version='1.0' encoding='UTF-8'?>
<osm version="0.6" generator="libosmium/2.20.0">
  <way id="20239340" version="4" timestamp="2010-07-08T17:02:06Z" uid="74617" user="JohnSmith" changeset="5167338">
    <nd ref="317712222"/>
    <nd ref="317712223"/>
    <nd ref="214131864"/>
    <nd ref="214131865"/>
    <nd ref="214131867"/>
    <nd ref="214131868"/>
    <tag k="highway" v="residential"/>
    <tag k="maxspeed" v="50"/>
    <tag k="maxspeed:source" v="default residential speed limit in Australia"/>
    <tag k="name" v="Verdon Street"/>
  </way>
  <way id="20239341" version="5" timestamp="2010-07-09T05:01:52Z" uid="74617" user="JohnSmith" changeset="5170972">
    <nd ref="304699972"/>
    <nd ref="214122166"/>
    <tag k="highway" v="residential"/>
    <tag k="maxspeed" v="50"/>
    <tag k="maxspeed:source" v="default residential speed limit in Australia"/>
    <tag k="name" v="Younger Court"/>
  </way>
  <way id="20239343" version="3" timestamp="2010-07-09T04:55:49Z" uid="74617" user="JohnSmith" changeset="5170972">
    <nd ref="214122288"/>
    <nd ref="214131627"/>
    <nd ref="214131652"/>
    <tag k="highway" v="residential"/>
    <tag k="maxspeed" v="50"/>
    <tag k="maxspeed:source" v="default residential speed limit in Australia"/>
    <tag k="name" v="Sylvan Court"/>
  </way>
  <way id="20239345" version="3" timestamp="2010-07-09T04:58:57Z" uid="74617" user="JohnSmith" changeset="5170972">
    <nd ref="214131680"/>
    <nd ref="214131699"/>
    <nd ref="214131724"/>
    <tag k="highway" v="residential"/>
    <tag k="maxspeed" v="50"/>
    <tag k="maxspeed:source" v="default residential speed limit in Australia"/>
    <tag k="name" v="Miller Grove"/>
  </way>
  <way id="20239346" version="3" timestamp="2010-07-09T05:01:40Z" uid="74617" user="JohnSmith" changeset="5170972">
    <nd ref="214131699"/>
    <nd ref="214131749"/>
    <nd ref="214131768"/>
    <tag k="highway" v="residential"/>
    <tag k="maxspeed" v="50"/>
    <tag k="maxspeed:source" v="default residential speed limit in Australia"/>
    <tag k="name" v="Bowen Street"/>
    <tag k="source" v="Yahoo"/>
    <tag k="source:name" v="Collins 1936"/>
  </way>
  <way id="20239347" version="3" timestamp="2010-07-09T05:03:33Z" uid="74617" user="JohnSmith" changeset="5170972">
    <nd ref="214131749"/>
    <nd ref="214131786"/>
    <tag k="highway" v="residential"/>
    <tag k="maxspeed" v="50"/>
    <tag k="maxspeed:source" v="default residential speed limit in Australia"/>
    <tag k="name" v="Henry Street"/>
  </way>
  <way id="20239349" version="5" timestamp="2010-07-09T05:01:00Z" uid="74617" user="JohnSmith" changeset="5170972">
    <nd ref="214131808"/>
    <nd ref="214131831"/>
    <nd ref="214131858"/>
    <nd ref="31477183"/>
    <tag k="highway" v="residential"/>
    <tag k="maxspeed" v="50"/>
    <tag k="maxspeed:source" v="default residential speed limit in Australia"/>
    <tag k="name" v="Nolan Avenue"/>
  </way>
  <way id="20239732" version="5" timestamp="2008-09-02T09:54:34Z" uid="18775" user="drlizau" changeset="501588">
    <nd ref="214137072"/>
    <nd ref="293114453"/>
    <nd ref="214137074"/>
    <nd ref="214137076"/>
    <nd ref="214137077"/>
    <nd ref="214137079"/>
    <nd ref="214144844"/>
    <nd ref="214144845"/>
    <nd ref="214144847"/>
    <tag k="created_by" v="Potlatch 0.6a"/>
    <tag k="highway" v="residential"/>
    <tag k="name" v="Simpson Street"/>
  </way>
  <way id="20239732" version="7" timestamp="2010-07-08T17:01:58Z" uid="74617" user="JohnSmith" changeset="5167338">
    <nd ref="214137072"/>
    <nd ref="293114453"/>
    <nd ref="214137074"/>
    <nd ref="214137076"/>
    <nd ref="214131868"/>
    <nd ref="214137077"/>
    <nd ref="214143368"/>
    <nd ref="214137079"/>
    <nd ref="214144844"/>
    <nd ref="214144845"/>
    <nd ref="214144847"/>
    <tag k="highway" v="residential"/>
    <tag k="maxspeed" v="50"/>
    <tag k="maxspeed:source" v="default residential speed limit in Australia"/>
    <tag k="name" v="Simpson Street"/>
  </way>
</osm>
