<?xml version='1.0' encoding='UTF-8'?>
<osm version="0.6" generator="libosmium/2.20.0">
  <way id="20238367" version="3" timestamp="2010-07-09T05:03:48Z" uid="74617" user="JohnSmith" changeset="5170972">
    <nd ref="214117676"/>
    <nd ref="214117696"/>
    <nd ref="214117722"/>
    <tag k="highway" v="residential"/>
    <tag k="maxspeed" v="50"/>
    <tag k="maxspeed:source" v="default residential speed limit in Australia"/>
    <tag k="name" v="Myrtle Street"/>
  </way>
  <way id="20238370" version="5" timestamp="2010-07-09T04:54:13Z" uid="74617" user="JohnSmith" changeset="5170972">
    <nd ref="214117760"/>
    <nd ref="214117783"/>
    <nd ref="214117799"/>
    <nd ref="214117823"/>
    <nd ref="214117848"/>
    <nd ref="214117696"/>
    <tag k="highway" v="residential"/>
    <tag k="maxspeed" v="50"/>
    <tag k="maxspeed:source" v="default residential speed limit in Australia"/>
    <tag k="name" v="Harrison Crescent"/>
  </way>
  <way id="20238372" version="5" timestamp="2010-07-09T05:02:11Z" uid="74617" user="JohnSmith" changeset="5170972">
    <nd ref="214117894"/>
    <nd ref="214117919"/>
    <tag k="highway" v="residential"/>
    <tag k="maxspeed" v="50"/>
    <tag k="maxspeed:source" v="default residential speed limit in Australia"/>
    <tag k="name" v="Osborne Court"/>
  </way>
  <way id="20238375" version="3" timestamp="2010-07-09T04:58:00Z" uid="74617" user="JohnSmith" changeset="5170972">
    <nd ref="214109029"/>
    <nd ref="214117937"/>
    <tag k="highway" v="residential"/>
    <tag k="maxspeed" v="50"/>
    <tag k="maxspeed:source" v="default residential speed limit in Australia"/>
    <tag k="name" v="Grattan Street"/>
  </way>
  <way id="20238376" version="4" timestamp="2010-07-09T04:57:09Z" uid="74617" user="JohnSmith" changeset="5170972">
    <nd ref="214117961"/>
    <nd ref="214117984"/>
    <nd ref="598495875"/>
    <nd ref="214118009"/>
    <tag k="highway" v="residential"/>
    <tag k="maxspeed" v="50"/>
    <tag k="maxspeed:source" v="default residential speed limit in Australia"/>
    <tag k="name" v="Pine Street"/>
  </way>
  <way id="20238377" version="3" timestamp="2010-07-09T04:59:14Z" uid="74617" user="JohnSmith" changeset="5170972">
    <nd ref="214118034"/>
    <nd ref="214117984"/>
    <nd ref="214118052"/>
    <tag k="highway" v="residential"/>
    <tag k="maxspeed" v="50"/>
    <tag k="maxspeed:source" v="default residential speed limit in Australia"/>
    <tag k="name" v="Little Church Street"/>
  </way>
  <way id="20238667" version="3" timestamp="2010-07-09T04:59:14Z" uid="74617" user="JohnSmith" changeset="5170972">
    <nd ref="214121981"/>
    <nd ref="214122087"/>
    <nd ref="214122107"/>
    <nd ref="214122128"/>
    <nd ref="214122153"/>
    <tag k="highway" v="residential"/>
    <tag k="maxspeed" v="50"/>
    <tag k="maxspeed:source" v="default residential speed limit in Australia"/>
    <tag k="name" v="Blythswood Court"/>
  </way>
  <way id="20238671" version="4" timestamp="2010-07-09T05:01:20Z" uid="74617" user="JohnSmith" changeset="5170972">
    <nd ref="214122180"/>
    <nd ref="214122197"/>
    <nd ref="214122218"/>
    <nd ref="214122245"/>
    <nd ref="214122268"/>
    <nd ref="214122280"/>
    <nd ref="214122288"/>
    <nd ref="214122309"/>
    <nd ref="214122332"/>
    <nd ref="214122350"/>
    <nd ref="214092328"/>
    <tag k="highway" v="residential"/>
    <tag k="maxspeed" v="50"/>
    <tag k="maxspeed:source" v="default residential speed limit in Australia"/>
    <tag k="name" v="Hyton Crescent"/>
  </way>
  <way id="20238673" version="3" timestamp="2010-07-09T04:53:57Z" uid="74617" user="JohnSmith" changeset="5170972">
    <nd ref="214122372"/>
    <nd ref="214122397"/>
    <tag k="highway" v="residential"/>
    <tag k="maxspeed" v="50"/>
    <tag k="maxspeed:source" v="default residential speed limit in Australia"/>
    <tag k="name" v="Berkeley Court"/>
  </way>
  <way id="20238833" version="8" timestamp="2010-07-09T05:03:19Z" uid="74617" user="JohnSmith" changeset="5170972">
    <nd ref="214124364"/>
    <nd ref="214124384"/>
    <nd ref="781115837"/>
    <nd ref="214124405"/>
    <nd ref="214092311"/>
    <tag k="highway" v="residential"/>
    <tag k="maxspeed" v="50"/>
    <tag k="maxspeed:source" v="default residential speed limit in Australia"/>
    <tag k="name" v="Finhaven Court"/>
  </way>
  <way id="20238835" version="7" timestamp="2010-07-09T04:57:12Z" uid="74617" user="JohnSmith" changeset="5170972">
    <nd ref="214124495"/>
    <nd ref="214092261"/>
    <tag k="highway" v="residential"/>
    <tag k="maxspeed" v="50"/>
    <tag k="maxspeed:source" v="default residential speed limit in Australia"/>
    <tag k="name" v="Garden Terrace"/>
  </way>
</osm>
