<?xml version='1.0' encoding='UTF-8'?>
<osm version="0.6" generator="libosmium/2.20.0">
  <way id="20240201" version="3" timestamp="2010-07-08T17:02:26Z" uid="74617" user="JohnSmith" changeset="5167338">
    <nd ref="214143368"/>
    <nd ref="214143370"/>
    <nd ref="214143371"/>
    <tag k="highway" v="residential"/>
    <tag k="maxspeed" v="50"/>
    <tag k="maxspeed:source" v="default residential speed limit in Australia"/>
    <tag k="name" v="Ferguson Street"/>
  </way>
  <way id="20240376" version="7" timestamp="2010-07-08T17:02:15Z" uid="74617" user="JohnSmith" changeset="5167338">
    <nd ref="214145883"/>
    <nd ref="214145884"/>
    <nd ref="244661910"/>
    <nd ref="214145885"/>
    <nd ref="244662960"/>
    <nd ref="214145886"/>
    <nd ref="214144847"/>
    <tag k="highway" v="residential"/>
    <tag k="maxspeed" v="50"/>
    <tag k="maxspeed:source" v="default residential speed limit in Australia"/>
    <tag k="name" v="Otway Road"/>
  </way>
  <way id="20240559" version="6" timestamp="2010-07-08T17:02:05Z" uid="74617" user="JohnSmith" changeset="5167338">
    <nd ref="214148664"/>
    <nd ref="244657974"/>
    <nd ref="244419397"/>
    <nd ref="244420581"/>
    <nd ref="214148666"/>
    <nd ref="214148668"/>
    <nd ref="214145883"/>
    <tag k="highway" v="residential"/>
    <tag k="maxspeed" v="50"/>
    <tag k="maxspeed:source" v="default residential speed limit in Australia"/>
    <tag k="name" v="Flaxman Street"/>
  </way>
  <way id="20240706" version="1" timestamp="2008-01-10T02:16:11Z" uid="4467" user="Rosscoe" changeset="589280">
    <nd ref="214150769"/>
    <nd ref="143727690"/>
    <tag k="bridge" v="true"/>
    <tag k="created_by" v="JOSM"/>
    <tag k="highway" v="trunk"/>
    <tag k="layer" v="1"/>
    <tag k="name" v="Bruce Highway"/>
    <tag k="ref" v="A1"/>
    <tag k="source" v="gpsdrivetrack"/>
  </way>
  <way id="20240706" version="2" timestamp="2008-01-10T02:42:28Z" uid="4467" user="Rosscoe" changeset="589280">
    <nd ref="214150769"/>
    <nd ref="143727690"/>
    <tag k="bridge" v="true"/>
    <tag k="created_by" v="JOSM"/>
    <tag k="highway" v="trunk"/>
    <tag k="layer" v="1"/>
    <tag k="name" v="Bruce Highway"/>
    <tag k="ref" v="A1"/>
    <tag k="source" v="gpsdrivetrack"/>
  </way>
  <way id="20240706" version="3" timestamp="2009-01-25T02:33:46Z" uid="4467" user="Rosscoe" changeset="835181">
    <nd ref="214150769"/>
    <nd ref="143727690"/>
    <tag k="bridge" v="yes"/>
    <tag k="created_by" v="JOSM"/>
    <tag k="highway" v="trunk"/>
    <tag k="layer" v="1"/>
    <tag k="name" v="Bruce Highway"/>
    <tag k="osmarender:renderName" v="no"/>
    <tag k="osmarender:renderRef" v="no"/>
    <tag k="ref" v="A1"/>
    <tag k="source" v="survey"/>
    <tag k="surface" v="paved"/>
  </way>
  <way id="20240706" version="4" timestamp="2009-08-16T17:34:45Z" uid="74617" user="JohnSmith" changeset="2168387">
    <nd ref="214150769"/>
    <nd ref="143727690"/>
    <tag k="bridge" v="yes"/>
    <tag k="highway" v="trunk"/>
    <tag k="layer" v="1"/>
    <tag k="source" v="survey"/>
  </way>
  <way id="20240711" version="1" timestamp="2008-01-10T02:16:12Z" uid="4467" user="Rosscoe" changeset="589280">
    <nd ref="143727690"/>
    <nd ref="143727732"/>
    <nd ref="143727759"/>
    <nd ref="143727783"/>
    <nd ref="143727802"/>
    <nd ref="143727880"/>
    <nd ref="143727858"/>
    <nd ref="143727648"/>
    <nd ref="143727708"/>
    <nd ref="143727675"/>
    <nd ref="197019299"/>
    <tag k="created_by" v="JOSM"/>
    <tag k="highway" v="trunk"/>
    <tag k="name" v="Bruce Highway"/>
    <tag k="ref" v="A1"/>
    <tag k="source" v="gpsdrivetrack"/>
    <tag k="surface" v="paved"/>
  </way>
  <way id="20240711" version="2" timestamp="2008-01-10T02:42:29Z" uid="4467" user="Rosscoe" changeset="589280">
    <nd ref="143727690"/>
    <nd ref="143727732"/>
    <nd ref="143727759"/>
    <nd ref="143727783"/>
    <nd ref="143727802"/>
    <nd ref="143727880"/>
    <nd ref="143727858"/>
    <nd ref="143727648"/>
    <nd ref="143727708"/>
    <nd ref="143727675"/>
    <nd ref="197019299"/>
    <tag k="created_by" v="JOSM"/>
    <tag k="highway" v="trunk"/>
    <tag k="name" v="Bruce Highway"/>
    <tag k="ref" v="A1"/>
    <tag k="source" v="gpsdrivetrack"/>
    <tag k="surface" v="paved"/>
  </way>
  <way id="20240711" version="3" timestamp="2008-05-15T02:50:26Z" uid="4467" user="Rosscoe" changeset="452476">
    <nd ref="143727690"/>
    <nd ref="143727732"/>
    <nd ref="143727759"/>
    <nd ref="143727783"/>
    <nd ref="143727802"/>
    <nd ref="143727880"/>
    <nd ref="143727858"/>
    <nd ref="143727648"/>
    <nd ref="143727708"/>
    <nd ref="143727675"/>
    <nd ref="197019299"/>
    <tag k="created_by" v="Potlatch 0.9a"/>
    <tag k="highway" v="trunk"/>
    <tag k="name" v="Bruce Highway"/>
    <tag k="ref" v="A1"/>
    <tag k="source" v="survey"/>
    <tag k="surface" v="paved"/>
  </way>
  <way id="20240711" version="4" timestamp="2009-08-16T17:34:45Z" uid="74617" user="JohnSmith" changeset="2168387">
    <nd ref="143727690"/>
    <nd ref="143727732"/>
    <nd ref="143727759"/>
    <nd ref="143727783"/>
    <nd ref="143727802"/>
    <nd ref="143727880"/>
    <nd ref="143727858"/>
    <nd ref="143727648"/>
    <nd ref="143727708"/>
    <nd ref="143727675"/>
    <nd ref="197019299"/>
    <tag k="highway" v="trunk"/>
    <tag k="source" v="survey"/>
  </way>
  <way id="20240711" version="5" timestamp="2011-01-04T17:02:04Z" uid="4467" user="Rosscoe" changeset="6862897">
    <nd ref="143727690"/>
    <nd ref="143727732"/>
    <nd ref="143727759"/>
    <nd ref="143727783"/>
    <nd ref="143727802"/>
    <nd ref="143727880"/>
    <nd ref="143727858"/>
    <nd ref="143727648"/>
    <nd ref="143727708"/>
    <nd ref="143727675"/>
    <nd ref="1082449577"/>
    <nd ref="197019299"/>
    <tag k="highway" v="trunk"/>
    <tag k="source" v="survey"/>
  </way>
</osm>
