<?xml version='1.0' encoding='UTF-8'?>
<osm version="0.6" generator="libosmium/2.20.0">
  <way id="20277455" version="14" timestamp="2008-10-10T16:43:20Z" uid="65847" user="LKK" changeset="235948">
    <nd ref="148876019"/>
    <nd ref="248903490"/>
    <nd ref="148871467"/>
    <tag k="created_by" v="Potlatch 0.9c"/>
    <tag k="highway" v="secondary"/>
    <tag k="name" v="бул. Княгиня Мария Луиза"/>
    <tag k="railway" v="tram"/>
  </way>
  <way id="20277456" version="8" timestamp="2008-10-10T16:43:22Z" uid="65847" user="LKK" changeset="235948">
    <nd ref="148871464"/>
    <nd ref="148876019"/>
    <tag k="bridge" v="yes"/>
    <tag k="created_by" v="Potlatch 0.8a"/>
    <tag k="highway" v="secondary"/>
    <tag k="layer" v="1"/>
    <tag k="name" v="бул. Княгиня Мария Луиза"/>
    <tag k="railway" v="tram"/>
  </way>
  <way id="20277473" version="8" timestamp="2010-07-25T08:46:54Z" uid="4467" user="Rosscoe" changeset="5309813"/>
  <way id="20277954" version="13" timestamp="2008-10-11T15:25:15Z" uid="65847" user="LKK" changeset="251067">
    <nd ref="243069961"/>
    <nd ref="243074007"/>
    <nd ref="243073636"/>
    <nd ref="243074462"/>
    <nd ref="214887874"/>
    <tag k="created_by" v="Potlatch 0.9c"/>
    <tag k="foot" v="yes"/>
    <tag k="highway" v="pedestrian"/>
    <tag k="name" v="ул. Пиротска"/>
  </way>
</osm>
