<?xml version='1.0' encoding='UTF-8'?>
<osm version="0.6" generator="libosmium/2.20.0">
  <way id="20330001" version="4" timestamp="2010-07-08T02:08:41Z" uid="74617" user="JohnSmith" changeset="5162525">
    <nd ref="215905992"/>
    <nd ref="215908709"/>
    <nd ref="215906457"/>
    <nd ref="215907010"/>
    <nd ref="215906458"/>
    <tag k="highway" v="residential"/>
    <tag k="maxspeed" v="50"/>
    <tag k="maxspeed:source" v="default residential speed limit in Australia"/>
    <tag k="name" v="Bibby Street"/>
  </way>
  <way id="20330027" version="2" timestamp="2010-07-07T21:35:54Z" uid="74617" user="JohnSmith" changeset="5161069">
    <nd ref="215906457"/>
    <nd ref="215906958"/>
    <tag k="highway" v="residential"/>
    <tag k="maxspeed" v="50"/>
    <tag k="maxspeed:source" v="default residential speed limit in Australia"/>
    <tag k="name" v="Paris Street"/>
  </way>
  <way id="20330041" version="2" timestamp="2010-07-08T02:07:29Z" uid="74617" user="JohnSmith" changeset="5162525">
    <nd ref="215907010"/>
    <nd ref="215907456"/>
    <tag k="highway" v="residential"/>
    <tag k="maxspeed" v="50"/>
    <tag k="maxspeed:source" v="default residential speed limit in Australia"/>
    <tag k="name" v="Plant Street"/>
  </way>
  <way id="20330096" version="3" timestamp="2010-02-23T10:59:15Z" uid="7617" user="Franc" changeset="3952179">
    <nd ref="215907705"/>
    <nd ref="651376549"/>
    <nd ref="215908309"/>
    <nd ref="215909153"/>
    <nd ref="181199473"/>
    <tag k="highway" v="residential"/>
    <tag k="name" v="Waterview Street"/>
  </way>
  <way id="20330096" version="4" timestamp="2010-07-08T02:08:07Z" uid="74617" user="JohnSmith" changeset="5162525">
    <nd ref="215907705"/>
    <nd ref="651376549"/>
    <nd ref="215908309"/>
    <nd ref="215909153"/>
    <nd ref="181199473"/>
    <tag k="highway" v="residential"/>
    <tag k="maxspeed" v="50"/>
    <tag k="maxspeed:source" v="default residential speed limit in Australia"/>
    <tag k="name" v="Waterview Street"/>
  </way>
  <way id="20330165" version="3" timestamp="2010-07-08T02:08:19Z" uid="74617" user="JohnSmith" changeset="5162525">
    <nd ref="215908709"/>
    <nd ref="215909153"/>
    <nd ref="215909758"/>
    <nd ref="215909156"/>
    <tag k="highway" v="residential"/>
    <tag k="maxspeed" v="50"/>
    <tag k="maxspeed:source" v="default residential speed limit in Australia"/>
    <tag k="name" v="Woids Avenue"/>
  </way>
  <way id="20330424" version="2" timestamp="2010-02-23T07:39:27Z" uid="7617" user="Franc" changeset="3949884">
    <nd ref="215913024"/>
    <nd ref="651272496"/>
    <tag k="highway" v="residential"/>
    <tag k="name" v="King Street"/>
    <tag k="restriction" v="school_zone"/>
  </way>
  <way id="20330424" version="3" timestamp="2010-07-08T02:12:47Z" uid="74617" user="JohnSmith" changeset="5162525">
    <nd ref="215913024"/>
    <nd ref="651272496"/>
    <tag k="highway" v="residential"/>
    <tag k="maxspeed" v="50"/>
    <tag k="maxspeed:source" v="default residential speed limit in Australia"/>
    <tag k="name" v="King Street"/>
    <tag k="restriction" v="school_zone"/>
  </way>
  <way id="20330480" version="2" timestamp="2010-07-08T02:09:35Z" uid="74617" user="JohnSmith" changeset="5162525">
    <nd ref="215914483"/>
    <nd ref="215914485"/>
    <nd ref="215914486"/>
    <tag k="highway" v="residential"/>
    <tag k="maxspeed" v="50"/>
    <tag k="maxspeed:source" v="default residential speed limit in Australia"/>
    <tag k="name" v="Rena Street"/>
  </way>
  <way id="20330545" version="4" timestamp="2009-11-30T09:37:23Z" uid="7617" user="Franc" changeset="3254049">
    <nd ref="215915233"/>
    <nd ref="215916224"/>
    <nd ref="215915704"/>
    <tag k="highway" v="residential"/>
    <tag k="name" v="Forster Stret"/>
  </way>
  <way id="20330545" version="5" timestamp="2010-02-23T10:59:14Z" uid="7617" user="Franc" changeset="3952179">
    <nd ref="215915233"/>
    <nd ref="215916224"/>
    <nd ref="651376361"/>
    <tag k="highway" v="residential"/>
    <tag k="name" v="Forster Stret"/>
    <tag k="restriction" v="school_zone"/>
  </way>
  <way id="20330545" version="6" timestamp="2010-06-02T13:34:12Z" uid="4467" user="Rosscoe" changeset="4884139">
    <nd ref="215915233"/>
    <nd ref="215916224"/>
    <nd ref="651376361"/>
    <tag k="highway" v="residential"/>
    <tag k="name" v="Forster Street"/>
    <tag k="restriction" v="school_zone"/>
  </way>
  <way id="20330545" version="7" timestamp="2010-07-07T21:29:24Z" uid="74617" user="JohnSmith" changeset="5161069">
    <nd ref="215915233"/>
    <nd ref="215916224"/>
    <nd ref="651376361"/>
    <tag k="highway" v="residential"/>
    <tag k="maxspeed" v="50"/>
    <tag k="maxspeed:source" v="default residential speed limit in Australia"/>
    <tag k="name" v="Forster Street"/>
    <tag k="restriction" v="school_zone"/>
  </way>
  <way id="20330569" version="2" timestamp="2010-07-07T21:27:56Z" uid="74617" user="JohnSmith" changeset="5161069">
    <nd ref="215915704"/>
    <nd ref="215916182"/>
    <tag k="highway" v="residential"/>
    <tag k="maxspeed" v="50"/>
    <tag k="maxspeed:source" v="default residential speed limit in Australia"/>
    <tag k="name" v="Betts Avenue"/>
  </way>
  <way id="20330615" version="3" timestamp="2009-11-30T09:37:23Z" uid="7617" user="Franc" changeset="3254049">
    <nd ref="215916224"/>
    <nd ref="215918443"/>
    <nd ref="575727075"/>
    <tag k="highway" v="residential"/>
    <tag k="name" v="Dwyer Avenue"/>
  </way>
  <way id="20330615" version="4" timestamp="2010-07-07T21:31:19Z" uid="74617" user="JohnSmith" changeset="5161069">
    <nd ref="215916224"/>
    <nd ref="215918443"/>
    <nd ref="575727075"/>
    <tag k="highway" v="residential"/>
    <tag k="maxspeed" v="50"/>
    <tag k="maxspeed:source" v="default residential speed limit in Australia"/>
    <tag k="name" v="Dwyer Avenue"/>
  </way>
  <way id="20330695" version="2" timestamp="2008-10-25T02:34:13Z" uid="7617" user="Franc" changeset="561636"/>
  <way id="20330764" version="2" timestamp="2009-11-30T09:37:26Z" uid="7617" user="Franc" changeset="3254049"/>
  <way id="20330853" version="2" timestamp="2010-07-08T02:13:25Z" uid="74617" user="JohnSmith" changeset="5162525">
    <nd ref="215920475"/>
    <nd ref="215920835"/>
    <tag k="highway" v="residential"/>
    <tag k="maxspeed" v="50"/>
    <tag k="maxspeed:source" v="default residential speed limit in Australia"/>
    <tag k="name" v="Meade Street"/>
  </way>
  <way id="20330883" version="4" timestamp="2010-04-22T13:39:39Z" uid="43967" user="railsnail" changeset="4495286">
    <nd ref="207147180"/>
    <nd ref="207147182"/>
    <tag k="bridge" v="true"/>
    <tag k="cycleway" v="track"/>
    <tag k="highway" v="tertiary"/>
    <tag k="layer" v="1"/>
    <tag k="name" v="Grafenbachstraße"/>
  </way>
  <way id="20330885" version="2" timestamp="2008-06-19T07:14:34Z" uid="43967" user="railsnail" changeset="227214">
    <nd ref="207147180"/>
    <nd ref="207147017"/>
    <nd ref="207147011"/>
    <nd ref="271280374"/>
    <nd ref="207147021"/>
    <nd ref="207147015"/>
    <nd ref="207147008"/>
    <nd ref="207147002"/>
    <nd ref="207147012"/>
    <nd ref="207145996"/>
    <nd ref="207147006"/>
    <nd ref="20824908"/>
    <tag k="created_by" v="Potlatch 0.9c"/>
    <tag k="highway" v="residential"/>
    <tag k="name" v="Grafenbachstraße"/>
  </way>
  <way id="20330885" version="4" timestamp="2009-03-18T17:03:53Z" uid="43967" user="railsnail" changeset="827132">
    <nd ref="207147180"/>
    <nd ref="207147017"/>
    <nd ref="207147011"/>
    <nd ref="271280374"/>
    <nd ref="207147021"/>
    <nd ref="207147015"/>
    <nd ref="207147008"/>
    <nd ref="207147002"/>
    <nd ref="207147012"/>
    <tag k="created_by" v="Potlatch 0.10f"/>
    <tag k="highway" v="tertiary"/>
    <tag k="name" v="Grafenbachstraße"/>
    <tag k="ref" v="L318"/>
  </way>
  <way id="20330885" version="5" timestamp="2009-03-18T17:03:56Z" uid="43967" user="railsnail" changeset="827132">
    <nd ref="207147180"/>
    <nd ref="207147017"/>
    <nd ref="207147011"/>
    <nd ref="271280374"/>
    <nd ref="207147021"/>
    <nd ref="207147015"/>
    <nd ref="207147008"/>
    <tag k="created_by" v="Potlatch 0.10f"/>
    <tag k="highway" v="tertiary"/>
    <tag k="name" v="Grafenbachstraße"/>
    <tag k="ref" v="L318"/>
  </way>
  <way id="20330886" version="2" timestamp="2008-07-31T20:17:32Z" uid="43967" user="railsnail" changeset="638362">
    <nd ref="33793742"/>
    <nd ref="282553904"/>
    <nd ref="33793748"/>
    <tag k="bridge" v="true"/>
    <tag k="created_by" v="Potlatch 0.10a"/>
    <tag k="highway" v="primary"/>
    <tag k="layer" v="1"/>
    <tag k="name" v="Felbertauernstraße"/>
    <tag k="ref" v="B108"/>
  </way>
  <way id="20330886" version="3" timestamp="2009-10-16T16:32:50Z" uid="43967" user="railsnail" changeset="2866192">
    <nd ref="33793742"/>
    <nd ref="282553904"/>
    <nd ref="533796035"/>
    <nd ref="33793748"/>
    <tag k="bridge" v="true"/>
    <tag k="highway" v="primary"/>
    <tag k="layer" v="1"/>
    <tag k="name" v="Felbertauernstraße"/>
    <tag k="ref" v="B108"/>
  </way>
  <way id="20330888" version="2" timestamp="2008-07-24T15:42:52Z" uid="43967" user="railsnail" changeset="582127">
    <nd ref="33793748"/>
    <nd ref="33793751"/>
    <nd ref="33793755"/>
    <nd ref="280745196"/>
    <nd ref="33793757"/>
    <nd ref="207149763"/>
    <nd ref="33793761"/>
    <nd ref="33793764"/>
    <nd ref="33793767"/>
    <nd ref="33793770"/>
    <nd ref="33793772"/>
    <nd ref="33793776"/>
    <tag k="created_by" v="Potlatch 0.10"/>
    <tag k="highway" v="primary"/>
    <tag k="name" v="Felbertauernstraße"/>
    <tag k="ref" v="B108"/>
  </way>
  <way id="20330888" version="3" timestamp="2009-01-09T19:26:48Z" uid="43967" user="railsnail" changeset="763383">
    <nd ref="33793748"/>
    <nd ref="33793751"/>
    <nd ref="33793755"/>
    <nd ref="280745196"/>
    <nd ref="33793757"/>
    <nd ref="207149763"/>
    <nd ref="33793761"/>
    <nd ref="33793764"/>
    <nd ref="33793767"/>
    <nd ref="33793770"/>
    <nd ref="33793772"/>
    <nd ref="33793776"/>
    <tag k="created_by" v="Potlatch 0.10f"/>
    <tag k="highway" v="primary"/>
    <tag k="is_in" v="...,Bezirk Lienz,Tirol,Österreich,Europa"/>
    <tag k="name" v="Felbertauern Bundesstraße"/>
    <tag k="note" v="imported from plan.at; (C)=CC-by-sa or oDBL; feel free to change if necessary"/>
    <tag k="plan_at:acad_id" v="lz6E5"/>
    <tag k="ref" v="108"/>
    <tag k="source" v="plan.at 2008"/>
    <tag k="uploaded_by" v="Wolfgang W. Wasserburger"/>
  </way>
  <way id="20330888" version="4" timestamp="2009-01-10T16:32:44Z" uid="43967" user="railsnail" changeset="767996">
    <nd ref="33793748"/>
    <nd ref="33793751"/>
    <nd ref="33793755"/>
    <nd ref="280745196"/>
    <nd ref="33793757"/>
    <nd ref="207149763"/>
    <nd ref="33793761"/>
    <nd ref="33793764"/>
    <nd ref="33793767"/>
    <nd ref="33793770"/>
    <nd ref="33793772"/>
    <nd ref="33793776"/>
    <tag k="addr:postcode" v="9900"/>
    <tag k="at:maxspeed" v="Ortsgebiet"/>
    <tag k="created_by" v="Potlatch 0.10f"/>
    <tag k="highway" v="primary"/>
    <tag k="is_in" v="...,Bezirk Lienz,Tirol,Österreich,Europa"/>
    <tag k="name" v="Iseltaler Straße"/>
    <tag k="note" v="imported from plan.at; (C)=CC-by-sa or oDBL; feel free to change if necessary"/>
    <tag k="plan_at:acad_id" v="lzE2"/>
    <tag k="ref" v="108"/>
    <tag k="source" v="plan.at 2008"/>
    <tag k="uploaded_by" v="Wolfgang W. Wasserburger"/>
  </way>
  <way id="20330888" version="5" timestamp="2009-01-10T16:32:51Z" uid="43967" user="railsnail" changeset="767996">
    <nd ref="33793748"/>
    <nd ref="33793751"/>
    <nd ref="33793755"/>
    <nd ref="280745196"/>
    <nd ref="33793757"/>
    <nd ref="207149763"/>
    <nd ref="33793761"/>
    <nd ref="33793764"/>
    <nd ref="33793767"/>
    <nd ref="33793770"/>
    <nd ref="33793772"/>
    <nd ref="33793776"/>
    <tag k="addr:postcode" v="9900"/>
    <tag k="at:maxspeed" v="Ortsgebiet"/>
    <tag k="created_by" v="Potlatch 0.10f"/>
    <tag k="highway" v="primary"/>
    <tag k="is_in" v="...,Bezirk Lienz,Tirol,Österreich,Europa"/>
    <tag k="name" v="Iseltaler Straße"/>
    <tag k="note" v="imported from plan.at; (C)=CC-by-sa or oDBL; feel free to change if necessary"/>
    <tag k="plan_at:acad_id" v="lzE2"/>
    <tag k="ref" v="108"/>
    <tag k="source" v="plan.at 2008"/>
    <tag k="uploaded_by" v="Wolfgang W. Wasserburger"/>
  </way>
  <way id="20330888" version="6" timestamp="2009-01-10T16:41:33Z" uid="43967" user="railsnail" changeset="767996">
    <nd ref="33793748"/>
    <nd ref="330925426"/>
    <nd ref="33793751"/>
    <nd ref="33793755"/>
    <nd ref="280745196"/>
    <nd ref="33793757"/>
    <nd ref="207149763"/>
    <nd ref="33793761"/>
    <nd ref="33793764"/>
    <nd ref="33793767"/>
    <nd ref="33793770"/>
    <nd ref="33793772"/>
    <nd ref="33793776"/>
    <tag k="addr:postcode" v="9900"/>
    <tag k="at:maxspeed" v="Ortsgebiet"/>
    <tag k="created_by" v="Potlatch 0.10f"/>
    <tag k="highway" v="primary"/>
    <tag k="is_in" v="...,Bezirk Lienz,Tirol,Österreich,Europa"/>
    <tag k="name" v="Iseltaler Straße"/>
    <tag k="note" v="imported from plan.at; (C)=CC-by-sa or oDBL; feel free to change if necessary"/>
    <tag k="plan_at:acad_id" v="lzE2"/>
    <tag k="ref" v="108"/>
    <tag k="source" v="plan.at 2008"/>
    <tag k="uploaded_by" v="Wolfgang W. Wasserburger"/>
  </way>
  <way id="20330888" version="7" timestamp="2009-01-10T16:42:03Z" uid="43967" user="railsnail" changeset="767996">
    <nd ref="33793748"/>
    <nd ref="330925426"/>
    <nd ref="33793751"/>
    <nd ref="330925634"/>
    <nd ref="33793755"/>
    <nd ref="280745196"/>
    <nd ref="33793757"/>
    <nd ref="207149763"/>
    <nd ref="33793761"/>
    <nd ref="33793764"/>
    <nd ref="33793767"/>
    <nd ref="33793770"/>
    <nd ref="33793772"/>
    <nd ref="33793776"/>
    <tag k="addr:postcode" v="9900"/>
    <tag k="at:maxspeed" v="Ortsgebiet"/>
    <tag k="created_by" v="Potlatch 0.10f"/>
    <tag k="highway" v="primary"/>
    <tag k="is_in" v="...,Bezirk Lienz,Tirol,Österreich,Europa"/>
    <tag k="name" v="Iseltaler Straße"/>
    <tag k="note" v="imported from plan.at; (C)=CC-by-sa or oDBL; feel free to change if necessary"/>
    <tag k="plan_at:acad_id" v="lzE2"/>
    <tag k="ref" v="108"/>
    <tag k="source" v="plan.at 2008"/>
    <tag k="uploaded_by" v="Wolfgang W. Wasserburger"/>
  </way>
  <way id="20330888" version="8" timestamp="2009-03-14T21:16:18Z" uid="43967" user="railsnail" changeset="808202">
    <nd ref="33793748"/>
    <nd ref="360430711"/>
    <nd ref="330925426"/>
    <nd ref="33793751"/>
    <nd ref="330925634"/>
    <nd ref="33793755"/>
    <nd ref="280745196"/>
    <nd ref="33793757"/>
    <nd ref="207149763"/>
    <nd ref="33793761"/>
    <nd ref="33793764"/>
    <nd ref="33793767"/>
    <nd ref="33793770"/>
    <nd ref="33793772"/>
    <nd ref="33793776"/>
    <tag k="addr:postcode" v="9900"/>
    <tag k="at:maxspeed" v="Ortsgebiet"/>
    <tag k="created_by" v="Potlatch 0.10f"/>
    <tag k="highway" v="primary"/>
    <tag k="is_in" v="...,Bezirk Lienz,Tirol,Österreich,Europa"/>
    <tag k="name" v="Iseltaler Straße"/>
    <tag k="note" v="imported from plan.at; (C)=CC-by-sa or oDBL; feel free to change if necessary"/>
    <tag k="plan_at:acad_id" v="lzE2"/>
    <tag k="ref" v="108"/>
    <tag k="source" v="plan.at 2008"/>
    <tag k="uploaded_by" v="Wolfgang W. Wasserburger"/>
  </way>
  <way id="20330888" version="10" timestamp="2009-10-16T16:16:10Z" uid="43967" user="railsnail" changeset="2866192">
    <nd ref="33793748"/>
    <nd ref="360430711"/>
    <nd ref="330925426"/>
    <nd ref="33793751"/>
    <nd ref="330925634"/>
    <nd ref="33793755"/>
    <nd ref="280745196"/>
    <nd ref="33793757"/>
    <nd ref="207149763"/>
    <nd ref="33793761"/>
    <nd ref="33793764"/>
    <nd ref="33793767"/>
    <nd ref="33793770"/>
    <nd ref="33793772"/>
    <nd ref="33793776"/>
    <tag k="addr:postcode" v="9900"/>
    <tag k="at:maxspeed" v="Ortsgebiet"/>
    <tag k="highway" v="primary"/>
    <tag k="is_in" v="...,Bezirk Lienz,Tirol,Österreich,Europa"/>
    <tag k="name" v="Iseltaler Straße"/>
    <tag k="note" v="imported from plan.at; (C)=CC-by-sa or oDBL; feel free to change if necessary"/>
    <tag k="plan_at:acad_id" v="lzE2"/>
    <tag k="ref" v="B108"/>
    <tag k="source" v="plan.at 2008"/>
    <tag k="uploaded_by" v="Wolfgang W. Wasserburger"/>
  </way>
  <way id="20330888" version="11" timestamp="2010-03-22T20:54:25Z" uid="43967" user="railsnail" changeset="4206822">
    <nd ref="33793748"/>
    <nd ref="360430711"/>
    <nd ref="330925426"/>
    <nd ref="33793751"/>
    <nd ref="330925634"/>
    <nd ref="33793755"/>
    <nd ref="280745196"/>
    <nd ref="33793757"/>
    <nd ref="207149763"/>
    <nd ref="33793764"/>
    <nd ref="33793767"/>
    <nd ref="33793770"/>
    <nd ref="33793772"/>
    <nd ref="33793776"/>
    <tag k="addr:postcode" v="9900"/>
    <tag k="at:maxspeed" v="Ortsgebiet"/>
    <tag k="highway" v="primary"/>
    <tag k="is_in" v="...,Bezirk Lienz,Tirol,Österreich,Europa"/>
    <tag k="name" v="Iseltaler Straße"/>
    <tag k="note" v="imported from plan.at; (C)=CC-by-sa or oDBL; feel free to change if necessary"/>
    <tag k="plan_at:acad_id" v="lzE2"/>
    <tag k="ref" v="B108"/>
    <tag k="source" v="plan.at 2008"/>
    <tag k="uploaded_by" v="Wolfgang W. Wasserburger"/>
  </way>
  <way id="20330892" version="2" timestamp="2008-11-12T21:36:55Z" uid="7617" user="Franc" changeset="738861">
    <nd ref="215921391"/>
    <nd ref="215921393"/>
    <nd ref="215921394"/>
    <nd ref="311635778"/>
    <nd ref="215921396"/>
    <nd ref="215921391"/>
    <tag k="created_by" v="Potlatch 0.6a"/>
    <tag k="leisure" v="park"/>
  </way>
  <way id="20330893" version="2" timestamp="2010-02-23T14:11:50Z" uid="43967" user="railsnail" changeset="3953762">
    <nd ref="207148040"/>
    <nd ref="207148037"/>
    <nd ref="207148031"/>
    <nd ref="207148079"/>
    <nd ref="207148078"/>
    <nd ref="207147589"/>
    <tag k="highway" v="residential"/>
  </way>
  <way id="20330893" version="4" timestamp="2010-05-28T12:43:38Z" uid="43967" user="railsnail" changeset="4830439">
    <nd ref="207148040"/>
    <nd ref="207148037"/>
    <nd ref="207148079"/>
    <nd ref="207147589"/>
    <tag k="cycleway" v="track"/>
    <tag k="foot" v="yes"/>
    <tag k="highway" v="residential"/>
    <tag k="name" v="Drautal-Radweg"/>
  </way>
  <way id="20330896" version="2" timestamp="2008-06-11T19:40:43Z" uid="43967" user="railsnail" changeset="136009">
    <nd ref="20824282"/>
    <nd ref="269755463"/>
    <nd ref="206376946"/>
    <tag k="bridge" v="true"/>
    <tag k="created_by" v="Potlatch 0.9c"/>
    <tag k="highway" v="residential"/>
    <tag k="layer" v="1"/>
  </way>
  <way id="20330896" version="3" timestamp="2009-01-09T19:50:46Z" uid="43967" user="railsnail" changeset="763383">
    <nd ref="20824282"/>
    <nd ref="269755463"/>
    <nd ref="206376946"/>
    <tag k="bridge" v="yes"/>
    <tag k="created_by" v="Potlatch 0.10f"/>
    <tag k="highway" v="residential"/>
    <tag k="layer" v="1"/>
  </way>
  <way id="20330896" version="4" timestamp="2009-01-09T19:51:18Z" uid="43967" user="railsnail" changeset="763383">
    <nd ref="20824282"/>
    <nd ref="269755463"/>
    <nd ref="206376946"/>
    <tag k="addr:postcode" v="9900"/>
    <tag k="at:maxspeed" v="Ortsgebiet"/>
    <tag k="bridge" v="yes"/>
    <tag k="created_by" v="Potlatch 0.10f"/>
    <tag k="fixme" v="check import"/>
    <tag k="highway" v="residential"/>
    <tag k="is_in" v="...,Bezirk Lienz,Tirol,Österreich,Europa"/>
    <tag k="layer" v="1"/>
    <tag k="name" v="Spitalsbrücke"/>
    <tag k="note" v="imported from plan.at; (C)=CC-by-sa or oDBL; feel free to change if necessary"/>
    <tag k="plan_at:acad_id" v="lz343"/>
    <tag k="source" v="plan.at 2008"/>
    <tag k="uploaded_by" v="Wolfgang W. Wasserburger"/>
  </way>
  <way id="20330896" version="5" timestamp="2009-01-09T19:51:48Z" uid="43967" user="railsnail" changeset="763383"/>
  <way id="20330897" version="2" timestamp="2010-05-28T12:47:12Z" uid="43967" user="railsnail" changeset="4830439">
    <nd ref="207147767"/>
    <nd ref="752777755"/>
    <nd ref="207147743"/>
    <nd ref="207147749"/>
    <nd ref="207147776"/>
    <nd ref="207147748"/>
    <tag k="highway" v="unclassified"/>
  </way>
  <way id="20330899" version="2" timestamp="2009-07-17T18:00:06Z" uid="43967" user="railsnail" changeset="1856726"/>
  <way id="20330952" version="2" timestamp="2010-07-08T02:10:54Z" uid="74617" user="JohnSmith" changeset="5162525">
    <nd ref="215863390"/>
    <nd ref="215922308"/>
    <tag k="highway" v="residential"/>
    <tag k="maxspeed" v="50"/>
    <tag k="maxspeed:source" v="default residential speed limit in Australia"/>
    <tag k="name" v="Augusta Street"/>
  </way>
</osm>
