<?xml version='1.0' encoding='UTF-8'?>
<osm version="0.6" generator="libosmium/2.20.0">
  <way id="20363642" version="2" timestamp="2009-10-11T11:22:37Z" uid="99207" user="Lar Kiesel" changeset="2813100">
    <nd ref="216441831"/>
    <nd ref="216482712"/>
    <nd ref="216482716"/>
    <nd ref="216396643"/>
    <tag k="highway" v="primary"/>
    <tag k="name" v="Roanoke Rd"/>
    <tag k="name_1" v="United States Highway 460"/>
    <tag k="name_2" v="United States Highway 11"/>
    <tag k="ref" v="US 11; US 460"/>
    <tag k="tiger:cfcc" v="A21"/>
    <tag k="tiger:county" v="Montgomery, VA"/>
    <tag k="tiger:name_base" v="Roanoke"/>
    <tag k="tiger:name_base_1" v="United States Highway 460"/>
    <tag k="tiger:name_base_2" v="United States Highway 11"/>
    <tag k="tiger:name_type" v="Rd"/>
    <tag k="tiger:reviewed" v="no"/>
    <tag k="tiger:separated" v="no"/>
    <tag k="tiger:source" v="tiger_import_dch_v0.6_20070830"/>
    <tag k="tiger:tlid" v="73620270:73620269"/>
    <tag k="tiger:upload_uuid" v="bulk_upload.pl-5c3c4605-1fee-4372-8e30-17456b233ad5"/>
  </way>
  <way id="20363699" version="2" timestamp="2009-09-08T20:34:45Z" uid="99207" user="Lar Kiesel" changeset="2418911">
    <nd ref="216483284"/>
    <nd ref="216483280"/>
    <nd ref="216483276"/>
    <nd ref="216483273"/>
    <nd ref="216483269"/>
    <nd ref="216483268"/>
    <nd ref="218265039"/>
    <tag k="bridge" v="yes"/>
    <tag k="highway" v="motorway"/>
    <tag k="name" v="Interstate Highway 81"/>
    <tag k="oneway" v="yes"/>
    <tag k="ref" v="I 81"/>
    <tag k="tiger:cfcc" v="A19"/>
    <tag k="tiger:county" v="Montgomery, VA"/>
    <tag k="tiger:name_base" v="I-81"/>
    <tag k="tiger:reviewed" v="no"/>
    <tag k="tiger:source" v="tiger_import_dch_v0.6_20070830"/>
    <tag k="tiger:tlid" v="73622193"/>
    <tag k="tiger:upload_uuid" v="bulk_upload.pl-5c3c4605-1fee-4372-8e30-17456b233ad5"/>
  </way>
  <way id="20363740" version="17" timestamp="2009-09-08T20:34:49Z" uid="99207" user="Lar Kiesel" changeset="2418911">
    <nd ref="218267305"/>
    <nd ref="216483298"/>
    <nd ref="216483304"/>
    <nd ref="216483312"/>
    <tag k="bridge" v="yes"/>
    <tag k="highway" v="motorway"/>
    <tag k="layer" v="1"/>
    <tag k="name" v="Interstate Highway 81"/>
    <tag k="oneway" v="yes"/>
    <tag k="ref" v="I 81"/>
    <tag k="tiger:cfcc" v="A15"/>
    <tag k="tiger:county" v="Montgomery, VA"/>
    <tag k="tiger:name_base" v="I-81"/>
    <tag k="tiger:reviewed" v="no"/>
    <tag k="tiger:separated" v="yes"/>
    <tag k="tiger:source" v="tiger_import_dch_v0.6_20070830"/>
    <tag k="tiger:tlid" v="73626104"/>
    <tag k="tiger:upload_uuid" v="bulk_upload.pl-5c3c4605-1fee-4372-8e30-17456b233ad5"/>
  </way>
</osm>
