<?xml version='1.0' encoding='UTF-8'?>
<osm version="0.6" generator="libosmium/2.20.0">
  <way id="20393001" version="3" timestamp="2010-02-14T17:09:17Z" uid="74617" user="JohnSmith" changeset="3875836">
    <nd ref="217158932"/>
    <nd ref="217168798"/>
    <nd ref="217168799"/>
    <tag k="highway" v="residential"/>
    <tag k="maxspeed" v="50"/>
    <tag k="surface" v="unpaved"/>
  </way>
  <way id="20393241" version="2" timestamp="2011-03-19T14:54:09Z" uid="49111" user="Markus B" changeset="7605796">
    <nd ref="217173355"/>
    <nd ref="217173378"/>
    <nd ref="1209045670"/>
    <nd ref="217173403"/>
    <nd ref="217173428"/>
    <nd ref="217173460"/>
    <nd ref="217173481"/>
    <nd ref="217173493"/>
    <nd ref="217173264"/>
    <tag k="highway" v="residential"/>
    <tag k="name" v="Lighthouse Street"/>
  </way>
  <way id="20393593" version="6" timestamp="2010-02-14T17:09:06Z" uid="74617" user="JohnSmith" changeset="3875836">
    <nd ref="217173430"/>
    <nd ref="217185957"/>
    <nd ref="217185958"/>
    <nd ref="81963506"/>
    <tag k="highway" v="unclassified"/>
    <tag k="maxspeed" v="50"/>
    <tag k="name" v="Atherton Street"/>
  </way>
  <way id="20393698" version="4" timestamp="2010-02-14T17:09:05Z" uid="74617" user="JohnSmith" changeset="3875836">
    <nd ref="217188648"/>
    <nd ref="217170911"/>
    <nd ref="217189424"/>
    <nd ref="81963505"/>
    <tag k="highway" v="residential"/>
    <tag k="maxspeed" v="50"/>
    <tag k="name" v="Annie Street"/>
  </way>
  <way id="20393953" version="5" timestamp="2010-02-14T17:09:06Z" uid="74617" user="JohnSmith" changeset="3875836">
    <nd ref="217170912"/>
    <nd ref="81963501"/>
    <tag k="highway" v="residential"/>
    <tag k="maxspeed" v="50"/>
    <tag k="name" v="Leamington Street"/>
  </way>
  <way id="20393989" version="5" timestamp="2010-02-14T17:09:09Z" uid="74617" user="JohnSmith" changeset="3875836">
    <nd ref="217156972"/>
    <nd ref="401025789"/>
    <nd ref="217197518"/>
    <nd ref="401025781"/>
    <nd ref="81963500"/>
    <tag k="highway" v="residential"/>
    <tag k="maxspeed" v="50"/>
    <tag k="name" v="Railway Street"/>
  </way>
</osm>
