<?xml version='1.0' encoding='UTF-8'?>
<osm version="0.6" generator="libosmium/2.20.0">
  <way id="20392352" version="4" timestamp="2010-02-14T17:09:10Z" uid="74617" user="JohnSmith" changeset="3875836">
    <nd ref="81333274"/>
    <nd ref="119271534"/>
    <nd ref="401025977"/>
    <nd ref="119271535"/>
    <nd ref="401025973"/>
    <nd ref="119257498"/>
    <nd ref="401026104"/>
    <nd ref="119271545"/>
    <nd ref="217148109"/>
    <nd ref="217148110"/>
    <nd ref="217155131"/>
    <nd ref="217155132"/>
    <nd ref="217155134"/>
    <tag k="highway" v="residential"/>
    <tag k="maxspeed" v="50"/>
    <tag k="name" v="Maynard Street"/>
  </way>
  <way id="20392375" version="4" timestamp="2010-02-14T17:09:18Z" uid="74617" user="JohnSmith" changeset="3875836">
    <nd ref="119257024"/>
    <nd ref="217148644"/>
    <tag k="highway" v="residential"/>
    <tag k="maxspeed" v="50"/>
    <tag k="name" v="Derelle Street"/>
  </way>
  <way id="20392501" version="4" timestamp="2010-02-14T17:09:17Z" uid="74617" user="JohnSmith" changeset="3875836">
    <nd ref="217148644"/>
    <nd ref="217153131"/>
    <tag k="highway" v="residential"/>
    <tag k="maxspeed" v="50"/>
    <tag k="name" v="Maynard Street"/>
  </way>
  <way id="20392510" version="5" timestamp="2010-02-14T17:09:10Z" uid="74617" user="JohnSmith" changeset="3875836">
    <nd ref="217150359"/>
    <nd ref="217153131"/>
    <tag k="highway" v="residential"/>
    <tag k="maxspeed" v="50"/>
    <tag k="name" v="Preston Street"/>
  </way>
  <way id="20392618" version="7" timestamp="2010-02-14T17:09:10Z" uid="74617" user="JohnSmith" changeset="3875836">
    <nd ref="217173430"/>
    <nd ref="217170911"/>
    <nd ref="217170912"/>
    <nd ref="401025801"/>
    <nd ref="119271557"/>
    <nd ref="401025795"/>
    <nd ref="217156972"/>
    <nd ref="206105815"/>
    <tag k="highway" v="residential"/>
    <tag k="maxspeed" v="50"/>
    <tag k="name" v="Leonard Street"/>
  </way>
  <way id="20392688" version="3" timestamp="2010-02-14T17:09:17Z" uid="74617" user="JohnSmith" changeset="3875836">
    <nd ref="217153131"/>
    <nd ref="217158930"/>
    <nd ref="217158932"/>
    <tag k="highway" v="service"/>
    <tag k="maxspeed" v="50"/>
  </way>
</osm>
