<?xml version='1.0' encoding='UTF-8'?>
<osm version="0.6" generator="libosmium/2.20.0">
  <way id="20401075" version="6" timestamp="2010-07-06T10:12:51Z" uid="74617" user="JohnSmith" changeset="5147679">
    <nd ref="107307534"/>
    <nd ref="777879904"/>
    <nd ref="217412914"/>
    <nd ref="217412011"/>
    <tag k="highway" v="residential"/>
    <tag k="maxspeed" v="50"/>
    <tag k="maxspeed:source" v="default residential speed limit in Australia"/>
    <tag k="name" v="McIlwraith Avenue"/>
    <tag k="oneway" v="yes"/>
  </way>
  <way id="20401102" version="6" timestamp="2010-07-06T09:58:17Z" uid="74617" user="JohnSmith" changeset="5147679">
    <nd ref="217412009"/>
    <nd ref="777879848"/>
    <nd ref="217413817"/>
    <nd ref="107307534"/>
    <tag k="highway" v="residential"/>
    <tag k="maxspeed" v="50"/>
    <tag k="maxspeed:source" v="default residential speed limit in Australia"/>
    <tag k="name" v="McIlwraith Avenue"/>
    <tag k="oneway" v="yes"/>
  </way>
  <way id="20401146" version="6" timestamp="2009-12-12T08:55:35Z" uid="4467" user="Rosscoe" changeset="3354233">
    <nd ref="293327684"/>
    <nd ref="217397684"/>
    <nd ref="217402586"/>
    <nd ref="217402588"/>
    <tag k="bicycle" v="yes"/>
    <tag k="bridge" v="yes"/>
    <tag k="cycleway" v="track"/>
    <tag k="foot" v="yes"/>
    <tag k="highway" v="cycleway"/>
    <tag k="layer" v="1"/>
    <tag k="name" v="Western Ring Road Trail"/>
    <tag k="source" v="yahoo"/>
  </way>
  <way id="20401395" version="5" timestamp="2010-07-06T10:07:28Z" uid="74617" user="JohnSmith" changeset="5147679">
    <nd ref="385281671"/>
    <nd ref="106491192"/>
    <nd ref="217423686"/>
    <nd ref="217423687"/>
    <nd ref="217423690"/>
    <nd ref="217423691"/>
    <nd ref="217423692"/>
    <nd ref="217423693"/>
    <nd ref="217423695"/>
    <nd ref="217423696"/>
    <nd ref="217423697"/>
    <nd ref="217423698"/>
    <nd ref="217423699"/>
    <nd ref="217423701"/>
    <tag k="highway" v="residential"/>
    <tag k="maxspeed" v="50"/>
    <tag k="maxspeed:source" v="default residential speed limit in Australia"/>
    <tag k="name" v="Jackson Street"/>
  </way>
  <way id="20401460" version="12" timestamp="2010-04-19T13:01:21Z" uid="4467" user="Rosscoe" changeset="4467619">
    <nd ref="106535051"/>
    <nd ref="217425809"/>
    <nd ref="222254308"/>
    <nd ref="222254309"/>
    <nd ref="222341073"/>
    <nd ref="222348286"/>
    <nd ref="222254310"/>
    <nd ref="701842198"/>
    <tag k="highway" v="residential"/>
    <tag k="name" v="Watson Street"/>
  </way>
  <way id="20401460" version="13" timestamp="2010-07-06T10:04:52Z" uid="74617" user="JohnSmith" changeset="5147679">
    <nd ref="106535051"/>
    <nd ref="217425809"/>
    <nd ref="222254308"/>
    <nd ref="222254309"/>
    <nd ref="222341073"/>
    <nd ref="222348286"/>
    <nd ref="222254310"/>
    <nd ref="701842198"/>
    <tag k="highway" v="residential"/>
    <tag k="maxspeed" v="50"/>
    <tag k="maxspeed:source" v="default residential speed limit in Australia"/>
    <tag k="name" v="Watson Street"/>
  </way>
  <way id="20401591" version="5" timestamp="2010-07-06T10:08:59Z" uid="74617" user="JohnSmith" changeset="5147679">
    <nd ref="106489904"/>
    <nd ref="217430253"/>
    <nd ref="217430254"/>
    <nd ref="392153402"/>
    <nd ref="217430255"/>
    <nd ref="217431234"/>
    <tag k="highway" v="residential"/>
    <tag k="maxspeed" v="50"/>
    <tag k="maxspeed:source" v="default residential speed limit in Australia"/>
    <tag k="name" v="Frank Street"/>
  </way>
  <way id="20401708" version="3" timestamp="2010-07-06T10:09:23Z" uid="74617" user="JohnSmith" changeset="5147679">
    <nd ref="217430254"/>
    <nd ref="106543493"/>
    <tag k="highway" v="residential"/>
    <tag k="maxspeed" v="50"/>
    <tag k="maxspeed:source" v="default residential speed limit in Australia"/>
    <tag k="name" v="Adina Street"/>
  </way>
  <way id="20401761" version="4" timestamp="2010-07-06T10:11:45Z" uid="74617" user="JohnSmith" changeset="5147679">
    <nd ref="217423693"/>
    <nd ref="217436472"/>
    <nd ref="217436473"/>
    <nd ref="217436474"/>
    <nd ref="217436475"/>
    <nd ref="217436476"/>
    <nd ref="217423701"/>
    <nd ref="217436479"/>
    <tag k="highway" v="residential"/>
    <tag k="maxspeed" v="50"/>
    <tag k="maxspeed:source" v="default residential speed limit in Australia"/>
    <tag k="name" v="Woodrow Drive"/>
  </way>
  <way id="20401794" version="4" timestamp="2010-07-06T10:11:04Z" uid="74617" user="JohnSmith" changeset="5147679">
    <nd ref="217399440"/>
    <nd ref="217387380"/>
    <tag k="highway" v="residential"/>
    <tag k="maxspeed" v="50"/>
    <tag k="maxspeed:source" v="default residential speed limit in Australia"/>
    <tag k="name" v="Thomas Street"/>
  </way>
  <way id="20401813" version="4" timestamp="2010-07-06T10:05:55Z" uid="74617" user="JohnSmith" changeset="5147679">
    <nd ref="217436476"/>
    <nd ref="106494958"/>
    <tag k="highway" v="residential"/>
    <tag k="maxspeed" v="50"/>
    <tag k="maxspeed:source" v="default residential speed limit in Australia"/>
    <tag k="name" v="Armuna Street"/>
  </way>
</osm>
