<?xml version='1.0' encoding='UTF-8'?>
<osm version="0.6" generator="libosmium/2.20.0">
  <way id="20451850" version="12" timestamp="2010-12-20T02:52:00Z" uid="6269" user="Mueck" changeset="6712500">
    <nd ref="20974032"/>
    <nd ref="30089926"/>
    <nd ref="1050566646"/>
    <nd ref="1050566688"/>
    <nd ref="20974033"/>
    <nd ref="20974034"/>
    <nd ref="25338284"/>
    <tag k="highway" v="motorway"/>
    <tag k="int_ref" v="E 234"/>
    <tag k="lanes" v="2"/>
    <tag k="maxspeed" v="120"/>
    <tag k="name" v="Bundesautobahn A 27"/>
    <tag k="note:name" v="Der reg_name, sowie ggf. der loc_name sind dem zugehörigen Wikipediaartikel entnommen."/>
    <tag k="oneway" v="yes"/>
    <tag k="ref" v="A 27"/>
    <tag k="reg_name" v="Schellfischlinie"/>
  </way>
  <way id="20451850" version="13" timestamp="2010-12-20T13:37:32Z" uid="6269" user="Mueck" changeset="6716052">
    <nd ref="20974032"/>
    <nd ref="30089926"/>
    <nd ref="1050566646"/>
    <nd ref="1050566688"/>
    <nd ref="20974033"/>
    <nd ref="1051580530"/>
    <nd ref="20974034"/>
    <nd ref="1051580842"/>
    <nd ref="1051580475"/>
    <nd ref="25338284"/>
    <tag k="highway" v="motorway"/>
    <tag k="int_ref" v="E 234"/>
    <tag k="lanes" v="2"/>
    <tag k="maxspeed" v="120"/>
    <tag k="name" v="Bundesautobahn A 27"/>
    <tag k="note:name" v="Der reg_name, sowie ggf. der loc_name sind dem zugehörigen Wikipediaartikel entnommen."/>
    <tag k="oneway" v="yes"/>
    <tag k="ref" v="A 27"/>
    <tag k="reg_name" v="Schellfischlinie"/>
  </way>
  <way id="20451854" version="11" timestamp="2010-12-20T02:52:00Z" uid="6269" user="Mueck" changeset="6712500">
    <nd ref="21112213"/>
    <nd ref="218439221"/>
    <tag k="bridge" v="yes"/>
    <tag k="highway" v="motorway"/>
    <tag k="int_ref" v="E 234"/>
    <tag k="layer" v="1"/>
    <tag k="maxspeed" v="120"/>
    <tag k="name" v="Bundesautobahn A 27"/>
    <tag k="nat_ref" v="A 27"/>
    <tag k="note:name" v="Der reg_name, sowie ggf. der loc_name sind dem zugehörigen Wikipediaartikel entnommen."/>
    <tag k="oneway" v="yes"/>
    <tag k="ref" v="A 27"/>
    <tag k="reg_name" v="Schellfischlinie"/>
  </way>
  <way id="20451866" version="6" timestamp="2010-12-20T02:52:00Z" uid="6269" user="Mueck" changeset="6712500">
    <nd ref="218439457"/>
    <nd ref="1050566664"/>
    <nd ref="45373822"/>
    <nd ref="30089929"/>
    <nd ref="30089930"/>
    <nd ref="1050566720"/>
    <nd ref="30089931"/>
    <nd ref="30089932"/>
    <nd ref="1050566729"/>
    <nd ref="1050566712"/>
    <nd ref="1050566713"/>
    <nd ref="1050566764"/>
    <nd ref="30089933"/>
    <nd ref="1050566721"/>
    <nd ref="1050566681"/>
    <nd ref="30089934"/>
    <tag k="highway" v="motorway_link"/>
    <tag k="oneway" v="yes"/>
  </way>
</osm>
