<?xml version='1.0' encoding='UTF-8'?>
<osm version="0.6" generator="libosmium/2.20.0">
  <way id="20552494" version="2" timestamp="2008-04-27T12:05:27Z" uid="19626" user="Swamp" changeset="270222">
    <nd ref="220486913"/>
    <nd ref="220487019"/>
    <tag k="created_by" v="JOSM"/>
    <tag k="highway" v="residential"/>
    <tag k="name" v="Oat Place"/>
  </way>
  <way id="20552494" version="3" timestamp="2010-07-07T09:48:07Z" uid="74617" user="JohnSmith" changeset="5156250">
    <nd ref="220486913"/>
    <nd ref="220487019"/>
    <tag k="highway" v="residential"/>
    <tag k="maxspeed" v="50"/>
    <tag k="maxspeed:source" v="default residential speed limit in Australia"/>
    <tag k="name" v="Oat Place"/>
  </way>
  <way id="20552496" version="2" timestamp="2008-03-04T09:45:27Z" uid="19626" user="Swamp" changeset="267062">
    <nd ref="220487081"/>
    <nd ref="220487161"/>
    <nd ref="220487195"/>
    <nd ref="220487232"/>
    <nd ref="220487260"/>
    <nd ref="220487161"/>
    <tag k="created_by" v="JOSM"/>
    <tag k="highway" v="residential"/>
    <tag k="name" v="Lucerne Place"/>
  </way>
  <way id="20552496" version="3" timestamp="2008-04-27T12:05:19Z" uid="19626" user="Swamp" changeset="270222">
    <nd ref="220487081"/>
    <nd ref="220487232"/>
    <tag k="created_by" v="JOSM"/>
    <tag k="highway" v="residential"/>
    <tag k="name" v="Lucerne Place"/>
  </way>
  <way id="20552496" version="4" timestamp="2010-07-07T09:48:05Z" uid="74617" user="JohnSmith" changeset="5156250">
    <nd ref="220487081"/>
    <nd ref="220487232"/>
    <tag k="highway" v="residential"/>
    <tag k="maxspeed" v="50"/>
    <tag k="maxspeed:source" v="default residential speed limit in Australia"/>
    <tag k="name" v="Lucerne Place"/>
  </way>
  <way id="20552498" version="2" timestamp="2010-07-07T09:47:48Z" uid="74617" user="JohnSmith" changeset="5156250">
    <nd ref="220408865"/>
    <nd ref="220487081"/>
    <tag k="highway" v="residential"/>
    <tag k="maxspeed" v="50"/>
    <tag k="maxspeed:source" v="default residential speed limit in Australia"/>
    <tag k="name" v="Lucerne Place"/>
    <tag k="oneway" v="yes"/>
  </way>
  <way id="20552499" version="2" timestamp="2010-07-07T09:48:02Z" uid="74617" user="JohnSmith" changeset="5156250">
    <nd ref="220487081"/>
    <nd ref="220408925"/>
    <tag k="highway" v="residential"/>
    <tag k="maxspeed" v="50"/>
    <tag k="maxspeed:source" v="default residential speed limit in Australia"/>
    <tag k="name" v="Lucerne Place"/>
    <tag k="oneway" v="yes"/>
  </way>
  <way id="20552500" version="2" timestamp="2010-07-07T09:47:53Z" uid="74617" user="JohnSmith" changeset="5156250">
    <nd ref="220408781"/>
    <nd ref="220486913"/>
    <tag k="highway" v="residential"/>
    <tag k="maxspeed" v="50"/>
    <tag k="maxspeed:source" v="default residential speed limit in Australia"/>
    <tag k="name" v="Oat Place"/>
    <tag k="oneway" v="yes"/>
  </way>
  <way id="20552501" version="2" timestamp="2010-07-07T09:48:09Z" uid="74617" user="JohnSmith" changeset="5156250">
    <nd ref="220486913"/>
    <nd ref="220408838"/>
    <tag k="highway" v="residential"/>
    <tag k="maxspeed" v="50"/>
    <tag k="maxspeed:source" v="default residential speed limit in Australia"/>
    <tag k="name" v="Oat Place"/>
    <tag k="oneway" v="yes"/>
  </way>
</osm>
