<?xml version='1.0' encoding='UTF-8'?>
<osm version="0.6" generator="libosmium/2.20.0">
  <way id="20649014" version="7" timestamp="2009-09-30T13:42:43Z" uid="36809" user="pfoten_weg_!_" changeset="2688655">
    <nd ref="221685500"/>
    <nd ref="221685521"/>
    <tag k="highway" v="residential"/>
    <tag k="name" v="Frauenberger StraÃŸe"/>
  </way>
  <way id="20649240" version="2" timestamp="2010-12-25T21:39:39Z" uid="7617" user="Franc" changeset="6763901">
    <nd ref="221686556"/>
    <nd ref="221686558"/>
    <nd ref="221686559"/>
    <nd ref="1064601559"/>
    <nd ref="1064601619"/>
    <nd ref="1064601424"/>
    <nd ref="221686561"/>
    <nd ref="1064601822"/>
    <nd ref="221686556"/>
    <tag k="leisure" v="park"/>
    <tag k="name" v="Bell Park"/>
  </way>
  <way id="20649342" version="2" timestamp="2010-07-08T02:11:31Z" uid="74617" user="JohnSmith" changeset="5162525">
    <nd ref="221687229"/>
    <nd ref="221687615"/>
    <tag k="highway" v="residential"/>
    <tag k="maxspeed" v="50"/>
    <tag k="maxspeed:source" v="default residential speed limit in Australia"/>
    <tag k="name" v="Derwent Street"/>
  </way>
  <way id="20649382" version="2" timestamp="2010-07-18T08:23:03Z" uid="30201" user="rrankin" changeset="5248739">
    <nd ref="221687646"/>
    <nd ref="221688005"/>
    <nd ref="822544111"/>
    <tag k="highway" v="service"/>
    <tag k="oneway" v="yes"/>
  </way>
  <way id="20649382" version="3" timestamp="2010-12-25T21:41:04Z" uid="7617" user="Franc" changeset="6763901">
    <nd ref="221687646"/>
    <nd ref="221688005"/>
    <nd ref="822544111"/>
    <tag k="fixme:sign:no" v="2010-12-22"/>
    <tag k="highway" v="service"/>
    <tag k="oneway" v="yes"/>
  </way>
  <way id="20649480" version="2" timestamp="2010-07-08T02:11:21Z" uid="74617" user="JohnSmith" changeset="5162525">
    <nd ref="221688313"/>
    <nd ref="221688822"/>
    <tag k="highway" v="residential"/>
    <tag k="maxspeed" v="50"/>
    <tag k="maxspeed:source" v="default residential speed limit in Australia"/>
    <tag k="name" v="Rossi Street"/>
  </way>
  <way id="20649521" version="2" timestamp="2010-07-08T02:09:26Z" uid="74617" user="JohnSmith" changeset="5162525">
    <nd ref="221688857"/>
    <nd ref="221688822"/>
    <nd ref="221689406"/>
    <tag k="highway" v="residential"/>
    <tag k="maxspeed" v="50"/>
    <tag k="maxspeed:source" v="default residential speed limit in Australia"/>
    <tag k="name" v="Kairawa Street"/>
  </way>
  <way id="20649566" version="2" timestamp="2010-07-08T02:11:11Z" uid="74617" user="JohnSmith" changeset="5162525">
    <nd ref="221689448"/>
    <nd ref="221689844"/>
    <tag k="highway" v="residential"/>
    <tag k="maxspeed" v="50"/>
    <tag k="maxspeed:source" v="default residential speed limit in Australia"/>
    <tag k="name" v="Allen Street"/>
  </way>
  <way id="20649673" version="2" timestamp="2010-07-08T02:12:13Z" uid="74617" user="JohnSmith" changeset="5162525">
    <nd ref="221689889"/>
    <nd ref="221690664"/>
    <nd ref="221690667"/>
    <tag k="highway" v="residential"/>
    <tag k="maxspeed" v="50"/>
    <tag k="maxspeed:source" v="default residential speed limit in Australia"/>
    <tag k="name" v="Grosvenor Road"/>
  </way>
  <way id="20649740" version="2" timestamp="2010-07-08T02:11:55Z" uid="74617" user="JohnSmith" changeset="5162525">
    <nd ref="221690664"/>
    <nd ref="221691150"/>
    <nd ref="221689406"/>
    <nd ref="221689844"/>
    <tag k="highway" v="residential"/>
    <tag k="maxspeed" v="50"/>
    <tag k="maxspeed:source" v="default residential speed limit in Australia"/>
    <tag k="name" v="Short Street"/>
  </way>
  <way id="20649793" version="2" timestamp="2010-12-25T21:40:29Z" uid="7617" user="Franc" changeset="6763901">
    <nd ref="221691150"/>
    <nd ref="221691631"/>
    <tag k="highway" v="service"/>
    <tag k="name" v="Short Lane"/>
    <tag k="source:name" v="survey"/>
  </way>
  <way id="20649958" version="4" timestamp="2009-02-01T18:45:56Z" uid="34428" user="usm78-gis" changeset="31975">
    <nd ref="470208"/>
    <nd ref="221693131"/>
    <nd ref="221693133"/>
    <tag k="created_by" v="Potlatch 0.6a"/>
    <tag k="highway" v="secondary"/>
    <tag k="oneway" v="yes"/>
  </way>
  <way id="20649974" version="5" timestamp="2010-04-01T12:12:38Z" uid="74617" user="JohnSmith" changeset="4293399">
    <nd ref="221692692"/>
    <nd ref="221693313"/>
    <tag k="highway" v="residential"/>
    <tag k="name" v="Tavistock Road"/>
  </way>
  <way id="20649974" version="6" timestamp="2010-07-07T21:28:16Z" uid="74617" user="JohnSmith" changeset="5161069">
    <nd ref="221692692"/>
    <nd ref="221693313"/>
    <tag k="highway" v="residential"/>
    <tag k="maxspeed" v="50"/>
    <tag k="maxspeed:source" v="default residential speed limit in Australia"/>
    <tag k="name" v="Tavistock Road"/>
  </way>
</osm>
