<?xml version='1.0' encoding='UTF-8'?>
<osm version="0.6" generator="libosmium/2.20.0">
  <way id="20659004" version="3" timestamp="2009-12-13T21:52:10Z" uid="7617" user="Franc" changeset="3367569"/>
  <way id="20659081" version="2" timestamp="2010-07-07T21:35:50Z" uid="74617" user="JohnSmith" changeset="5161069">
    <nd ref="221784209"/>
    <nd ref="221784546"/>
    <nd ref="221784548"/>
    <tag k="highway" v="residential"/>
    <tag k="maxspeed" v="50"/>
    <tag k="maxspeed:source" v="default residential speed limit in Australia"/>
    <tag k="name" v="Inala Avenue"/>
  </way>
  <way id="20659253" version="3" timestamp="2010-07-07T21:35:19Z" uid="74617" user="JohnSmith" changeset="5161069">
    <nd ref="221785172"/>
    <nd ref="221785660"/>
    <nd ref="221785663"/>
    <nd ref="221785666"/>
    <nd ref="221785669"/>
    <nd ref="221785671"/>
    <nd ref="221788488"/>
    <nd ref="221785672"/>
    <nd ref="221785673"/>
    <tag k="highway" v="residential"/>
    <tag k="maxspeed" v="50"/>
    <tag k="maxspeed:source" v="default residential speed limit in Australia"/>
    <tag k="name" v="Wentworth Avenue"/>
  </way>
  <way id="20659292" version="2" timestamp="2010-07-07T21:31:49Z" uid="74617" user="JohnSmith" changeset="5161069">
    <nd ref="221785673"/>
    <nd ref="221785907"/>
    <tag k="highway" v="residential"/>
    <tag k="maxspeed" v="50"/>
    <tag k="maxspeed:source" v="default residential speed limit in Australia"/>
    <tag k="name" v="Aveling Street"/>
  </way>
  <way id="20659292" version="3" timestamp="2010-10-04T05:33:28Z" uid="7617" user="Franc" changeset="5950430">
    <nd ref="221785673"/>
    <nd ref="937441891"/>
    <nd ref="221785907"/>
    <tag k="highway" v="residential"/>
    <tag k="maxspeed" v="50"/>
    <tag k="maxspeed:source" v="default residential speed limit in Australia"/>
    <tag k="name" v="Aveling Street"/>
  </way>
  <way id="20659349" version="3" timestamp="2009-12-12T22:54:54Z" uid="7617" user="Franc" changeset="3359436">
    <nd ref="60296072"/>
    <nd ref="588140739"/>
    <nd ref="221787356"/>
    <nd ref="221761820"/>
    <nd ref="221786507"/>
    <nd ref="221786510"/>
    <tag k="highway" v="residential"/>
    <tag k="name" v="Joseph Street"/>
  </way>
  <way id="20659349" version="4" timestamp="2010-07-07T21:36:38Z" uid="74617" user="JohnSmith" changeset="5161069">
    <nd ref="60296072"/>
    <nd ref="588140739"/>
    <nd ref="221787356"/>
    <nd ref="221761820"/>
    <nd ref="221786507"/>
    <nd ref="221786510"/>
    <tag k="highway" v="residential"/>
    <tag k="maxspeed" v="50"/>
    <tag k="maxspeed:source" v="default residential speed limit in Australia"/>
    <tag k="name" v="Joseph Street"/>
  </way>
  <way id="20659349" version="5" timestamp="2010-10-04T05:33:29Z" uid="7617" user="Franc" changeset="5950430">
    <nd ref="937441881"/>
    <nd ref="588140739"/>
    <nd ref="221787356"/>
    <nd ref="221761820"/>
    <nd ref="221786507"/>
    <nd ref="221786510"/>
    <tag k="highway" v="residential"/>
    <tag k="maxspeed" v="50"/>
    <tag k="maxspeed:source" v="default residential speed limit in Australia"/>
    <tag k="name" v="Joseph Street"/>
  </way>
  <way id="20659389" version="2" timestamp="2009-12-13T21:57:09Z" uid="7617" user="Franc" changeset="3367625">
    <nd ref="221786507"/>
    <nd ref="589043626"/>
    <nd ref="221785663"/>
    <tag k="highway" v="residential"/>
    <tag k="name" v="Lorina Avenue"/>
  </way>
  <way id="20659389" version="3" timestamp="2010-07-07T21:30:43Z" uid="74617" user="JohnSmith" changeset="5161069">
    <nd ref="221786507"/>
    <nd ref="589043626"/>
    <nd ref="221785663"/>
    <tag k="highway" v="residential"/>
    <tag k="maxspeed" v="50"/>
    <tag k="maxspeed:source" v="default residential speed limit in Australia"/>
    <tag k="name" v="Lorina Avenue"/>
  </way>
  <way id="20659437" version="2" timestamp="2010-07-07T21:29:44Z" uid="74617" user="JohnSmith" changeset="5161069">
    <nd ref="221761820"/>
    <nd ref="221785671"/>
    <tag k="highway" v="residential"/>
    <tag k="maxspeed" v="50"/>
    <tag k="maxspeed:source" v="default residential speed limit in Australia"/>
    <tag k="name" v="Grenfell Avenue"/>
  </way>
  <way id="20659560" version="2" timestamp="2010-07-07T21:29:09Z" uid="74617" user="JohnSmith" changeset="5161069">
    <nd ref="221787356"/>
    <nd ref="221788488"/>
    <tag k="highway" v="residential"/>
    <tag k="maxspeed" v="50"/>
    <tag k="maxspeed:source" v="default residential speed limit in Australia"/>
    <tag k="name" v="Empire Avenue"/>
  </way>
  <way id="20659943" version="7" timestamp="2009-08-31T21:38:11Z" uid="36809" user="pfoten_weg_!_" changeset="2331946">
    <nd ref="2039517"/>
    <nd ref="372821996"/>
    <nd ref="221814055"/>
    <nd ref="354702464"/>
    <nd ref="417676655"/>
    <tag k="highway" v="residential"/>
    <tag k="name" v="Floriansmühlstraße"/>
  </way>
  <way id="20659977" version="4" timestamp="2010-07-07T21:27:49Z" uid="74617" user="JohnSmith" changeset="5161069">
    <nd ref="221791675"/>
    <nd ref="221792317"/>
    <nd ref="221792318"/>
    <nd ref="221792320"/>
    <nd ref="221792322"/>
    <tag k="highway" v="residential"/>
    <tag k="maxspeed" v="50"/>
    <tag k="maxspeed:source" v="default residential speed limit in Australia"/>
    <tag k="name" v="Bowden Crescent"/>
  </way>
  <way id="20659977" version="5" timestamp="2011-04-25T05:58:35Z" uid="7617" user="Franc" changeset="7959352">
    <nd ref="221792317"/>
    <nd ref="1259079143"/>
    <nd ref="221792318"/>
    <nd ref="1259079258"/>
    <nd ref="221792320"/>
    <nd ref="221792322"/>
    <nd ref="221792323"/>
    <nd ref="1259079286"/>
    <nd ref="221792324"/>
    <nd ref="1259079172"/>
    <nd ref="221792317"/>
    <nd ref="1259079063"/>
    <nd ref="221791675"/>
    <tag k="highway" v="residential"/>
    <tag k="maxspeed" v="50"/>
    <tag k="maxspeed:source" v="default residential speed limit in Australia"/>
    <tag k="name" v="Bowden Crescent"/>
  </way>
</osm>
