<?xml version='1.0' encoding='UTF-8'?>
<osm version="0.6" generator="libosmium/2.20.0">
  <way id="20661132" version="2" timestamp="2010-07-07T21:35:06Z" uid="74617" user="JohnSmith" changeset="5161069">
    <nd ref="221801068"/>
    <nd ref="221802244"/>
    <tag k="highway" v="residential"/>
    <tag k="maxspeed" v="50"/>
    <tag k="maxspeed:source" v="default residential speed limit in Australia"/>
    <tag k="name" v="Tawarri Crescent"/>
  </way>
  <way id="20661167" version="2" timestamp="2010-07-07T21:34:57Z" uid="74617" user="JohnSmith" changeset="5161069">
    <nd ref="221802304"/>
    <nd ref="221802693"/>
    <tag k="highway" v="residential"/>
    <tag k="maxspeed" v="50"/>
    <tag k="maxspeed:source" v="default residential speed limit in Australia"/>
    <tag k="name" v="Riversdale Avenue"/>
  </way>
  <way id="20661298" version="2" timestamp="2010-07-07T21:36:02Z" uid="74617" user="JohnSmith" changeset="5161069">
    <nd ref="221802708"/>
    <nd ref="221803749"/>
    <tag k="highway" v="residential"/>
    <tag k="maxspeed" v="50"/>
    <tag k="maxspeed:source" v="default residential speed limit in Australia"/>
    <tag k="name" v="Coora Place"/>
  </way>
  <way id="20661576" version="4" timestamp="2010-07-07T21:27:21Z" uid="74617" user="JohnSmith" changeset="5161069">
    <nd ref="221805410"/>
    <nd ref="221805853"/>
    <tag k="highway" v="residential"/>
    <tag k="maxspeed" v="50"/>
    <tag k="maxspeed:source" v="default residential speed limit in Australia"/>
    <tag k="name" v="Rose Avenue"/>
  </way>
  <way id="20661576" version="5" timestamp="2011-03-19T02:01:27Z" uid="7617" user="Franc" changeset="7601053">
    <nd ref="221805410"/>
    <nd ref="221805853"/>
    <tag k="highway" v="residential"/>
    <tag k="maxspeed" v="50"/>
    <tag k="maxspeed:source" v="default residential speed limit in Australia"/>
    <tag k="name" v="Rose Avenue"/>
  </way>
  <way id="20661608" version="3" timestamp="2010-07-07T21:36:06Z" uid="74617" user="JohnSmith" changeset="5161069">
    <nd ref="221805854"/>
    <nd ref="221805853"/>
    <nd ref="221806104"/>
    <tag k="highway" v="residential"/>
    <tag k="maxspeed" v="50"/>
    <tag k="maxspeed:source" v="default residential speed limit in Australia"/>
    <tag k="name" v="Rose Avenue"/>
  </way>
  <way id="20661608" version="4" timestamp="2011-03-19T02:01:09Z" uid="7617" user="Franc" changeset="7601053">
    <nd ref="221805854"/>
    <nd ref="1208122362"/>
    <nd ref="1208122310"/>
    <nd ref="1208122434"/>
    <nd ref="1208122327"/>
    <nd ref="221805853"/>
    <nd ref="1208122295"/>
    <nd ref="1208122438"/>
    <nd ref="1208122502"/>
    <nd ref="1208122325"/>
    <nd ref="1208122372"/>
    <nd ref="221806104"/>
    <tag k="highway" v="residential"/>
    <tag k="maxspeed" v="50"/>
    <tag k="maxspeed:source" v="default residential speed limit in Australia"/>
    <tag k="name" v="Rose Avenue"/>
  </way>
  <way id="20661633" version="2" timestamp="2009-12-19T12:42:50Z" uid="74617" user="JohnSmith" changeset="3406531"/>
  <way id="20661635" version="2" timestamp="2009-12-19T12:42:50Z" uid="74617" user="JohnSmith" changeset="3406531"/>
  <way id="20661637" version="2" timestamp="2009-12-19T12:42:50Z" uid="74617" user="JohnSmith" changeset="3406531"/>
</osm>
