<?xml version='1.0' encoding='UTF-8'?>
<osm version="0.6" generator="libosmium/2.20.0">
  <way id="2077068" version="2" timestamp="2007-11-06T03:43:26Z" uid="7617" user="Franc" changeset="417769">
    <nd ref="8919660"/>
    <nd ref="8919661"/>
    <tag k="created_by" v="JOSM"/>
    <tag k="highway" v="primary"/>
    <tag k="image" v="80n:dsc04295.jpg"/>
    <tag k="name" v="Victoria Road"/>
    <tag k="oneway" v="yes"/>
  </way>
  <way id="2077068" version="3" timestamp="2008-04-09T11:37:04Z" uid="30201" user="rrankin" changeset="97764"/>
  <way id="2077069" version="1" timestamp="2007-09-30T06:01:45Z" uid="7617" user="Franc" changeset="537600">
    <nd ref="8919661"/>
    <nd ref="12224432"/>
    <nd ref="8919755"/>
    <tag k="created_by" v="JOSM"/>
    <tag k="highway" v="residential"/>
    <tag k="image" v="80n:dsc04296.jpg"/>
    <tag k="name" v="Wolseley Street"/>
  </way>
  <way id="2077069" version="4" timestamp="2010-07-08T01:01:13Z" uid="74617" user="JohnSmith" changeset="5162525">
    <nd ref="8919661"/>
    <nd ref="12224432"/>
    <nd ref="8919755"/>
    <tag k="highway" v="residential"/>
    <tag k="image" v="80n:dsc04296.jpg"/>
    <tag k="lcn" v="yes"/>
    <tag k="maxspeed" v="50"/>
    <tag k="maxspeed:source" v="default residential speed limit in Australia"/>
    <tag k="name" v="Wolseley Street"/>
    <tag k="source" v="survey"/>
  </way>
  <way id="2077069" version="5" timestamp="2011-02-01T04:08:55Z" uid="30201" user="rrankin" changeset="7151522">
    <nd ref="12224432"/>
    <nd ref="8919661"/>
    <tag k="highway" v="residential"/>
    <tag k="image" v="80n:dsc04296.jpg"/>
    <tag k="maxspeed" v="50"/>
    <tag k="maxspeed:source" v="default residential speed limit in Australia"/>
    <tag k="name" v="Wolseley Street"/>
    <tag k="oneway" v="yes"/>
    <tag k="source" v="survey"/>
  </way>
  <way id="2077070" version="1" timestamp="2007-09-30T06:01:52Z" uid="7617" user="Franc" changeset="537600">
    <nd ref="8919755"/>
    <nd ref="8919756"/>
    <tag k="abutters" v="residential"/>
    <tag k="created_by" v="JOSM"/>
    <tag k="highway" v="residential"/>
    <tag k="image" v="80n:dsc04296.jpg"/>
    <tag k="name" v="Wrights Road"/>
  </way>
  <way id="2077070" version="2" timestamp="2007-11-05T09:31:28Z" uid="7617" user="Franc" changeset="413403">
    <nd ref="8919757"/>
    <nd ref="8919756"/>
    <nd ref="8919755"/>
    <tag k="abutters" v="residential"/>
    <tag k="created_by" v="JOSM"/>
    <tag k="highway" v="residential"/>
    <tag k="image" v="80n:dsc04296.jpg"/>
    <tag k="name" v="Wrights Road"/>
  </way>
  <way id="2077070" version="3" timestamp="2008-04-10T23:20:55Z" uid="30201" user="rrankin" changeset="107567">
    <nd ref="8919757"/>
    <nd ref="8919756"/>
    <nd ref="8919755"/>
    <nd ref="29549139"/>
    <nd ref="29549140"/>
    <tag k="abutters" v="residential"/>
    <tag k="created_by" v="Potlatch 0.8a"/>
    <tag k="highway" v="residential"/>
    <tag k="image" v="80n:dsc04296.jpg"/>
    <tag k="name" v="Wrights Road"/>
  </way>
  <way id="2077070" version="5" timestamp="2009-12-10T05:14:45Z" uid="30201" user="rrankin" changeset="3339178">
    <nd ref="8919757"/>
    <nd ref="8919756"/>
    <nd ref="8919755"/>
    <nd ref="29549139"/>
    <nd ref="29549140"/>
    <tag k="highway" v="residential"/>
    <tag k="image" v="80n:dsc04296.jpg"/>
    <tag k="lcn" v="yes"/>
    <tag k="name" v="Wrights Road"/>
  </way>
  <way id="2077070" version="6" timestamp="2010-07-08T00:58:22Z" uid="74617" user="JohnSmith" changeset="5162525">
    <nd ref="8919757"/>
    <nd ref="8919756"/>
    <nd ref="8919755"/>
    <nd ref="29549139"/>
    <nd ref="29549140"/>
    <tag k="highway" v="residential"/>
    <tag k="image" v="80n:dsc04296.jpg"/>
    <tag k="lcn" v="yes"/>
    <tag k="maxspeed" v="50"/>
    <tag k="maxspeed:source" v="default residential speed limit in Australia"/>
    <tag k="name" v="Wrights Road"/>
  </way>
  <way id="2077070" version="7" timestamp="2011-02-05T03:51:37Z" uid="4467" user="Rosscoe" changeset="7189250">
    <nd ref="8919757"/>
    <nd ref="8919756"/>
    <nd ref="8919755"/>
    <nd ref="1136992724"/>
    <nd ref="29549139"/>
    <nd ref="29549140"/>
    <tag k="highway" v="residential"/>
    <tag k="image" v="80n:dsc04296.jpg"/>
    <tag k="lcn" v="yes"/>
    <tag k="maxspeed" v="50"/>
    <tag k="maxspeed:source" v="default residential speed limit in Australia"/>
    <tag k="name" v="Wrights Road"/>
  </way>
  <way id="2077072" version="2" timestamp="2007-11-05T09:31:27Z" uid="7617" user="Franc" changeset="413403">
    <nd ref="8919759"/>
    <nd ref="8919758"/>
    <nd ref="8919760"/>
    <tag k="created_by" v="JOSM"/>
    <tag k="highway" v="residential"/>
    <tag k="image" v="80n:dsc04297.jpg"/>
    <tag k="name" v="Wrights Road"/>
  </way>
  <way id="2077072" version="4" timestamp="2010-07-08T01:00:32Z" uid="74617" user="JohnSmith" changeset="5162525">
    <nd ref="8919759"/>
    <nd ref="8919758"/>
    <nd ref="8919760"/>
    <tag k="highway" v="residential"/>
    <tag k="image" v="80n:dsc04297.jpg"/>
    <tag k="lcn" v="yes"/>
    <tag k="maxspeed" v="50"/>
    <tag k="maxspeed:source" v="default residential speed limit in Australia"/>
    <tag k="name" v="Wrights Road"/>
  </way>
  <way id="2077073" version="1" timestamp="2007-05-24T10:19:48Z" uid="7617" user="Franc" changeset="64741">
    <nd ref="26375768"/>
    <nd ref="8919760"/>
    <nd ref="8919761"/>
    <nd ref="29549219"/>
    <nd ref="29549149"/>
    <nd ref="26376820"/>
    <tag k="abutters" v="residential"/>
    <tag k="created_by" v="Potlatch alpha"/>
    <tag k="highway" v="residential"/>
    <tag k="image" v="80n:dsc04297.jpg"/>
    <tag k="name" v="Lyons Road"/>
  </way>
  <way id="2077073" version="2" timestamp="2007-11-06T03:30:41Z" uid="7617" user="Franc" changeset="417769">
    <nd ref="26375768"/>
    <nd ref="99619419"/>
    <nd ref="8919760"/>
    <nd ref="8919761"/>
    <nd ref="29549219"/>
    <nd ref="29549149"/>
    <nd ref="26376820"/>
    <tag k="abutters" v="residential"/>
    <tag k="created_by" v="Potlatch alpha"/>
    <tag k="highway" v="residential"/>
    <tag k="image" v="80n:dsc04297.jpg"/>
    <tag k="name" v="Lyons Road"/>
  </way>
  <way id="2077073" version="4" timestamp="2009-12-10T05:14:45Z" uid="30201" user="rrankin" changeset="3339178">
    <nd ref="26375768"/>
    <nd ref="99619419"/>
    <nd ref="8919760"/>
    <nd ref="8919761"/>
    <tag k="highway" v="residential"/>
    <tag k="image" v="80n:dsc04297.jpg"/>
    <tag k="name" v="Lyons Road"/>
  </way>
  <way id="2077073" version="6" timestamp="2010-07-08T01:01:32Z" uid="74617" user="JohnSmith" changeset="5162525">
    <nd ref="26375768"/>
    <nd ref="99619419"/>
    <tag k="highway" v="residential"/>
    <tag k="image" v="80n:dsc04297.jpg"/>
    <tag k="maxspeed" v="50"/>
    <tag k="maxspeed:source" v="default residential speed limit in Australia"/>
    <tag k="name" v="Lyons Road"/>
  </way>
  <way id="2077073" version="7" timestamp="2011-02-05T03:51:36Z" uid="4467" user="Rosscoe" changeset="7189250">
    <nd ref="26375768"/>
    <nd ref="99619419"/>
    <tag k="highway" v="primary"/>
    <tag k="image" v="80n:dsc04297.jpg"/>
    <tag k="maxspeed" v="50"/>
    <tag k="maxspeed:source" v="default residential speed limit in Australia"/>
    <tag k="name" v="Lyons Road"/>
  </way>
  <way id="2077074" version="1" timestamp="2007-05-24T10:20:55Z" uid="7617" user="Franc" changeset="64741">
    <nd ref="8919761"/>
    <nd ref="8919762"/>
    <nd ref="8919763"/>
    <nd ref="29549228"/>
    <nd ref="8919764"/>
    <tag k="abutters" v="residential"/>
    <tag k="created_by" v="Potlatch alpha"/>
    <tag k="highway" v="residential"/>
    <tag k="image" v="80n:dsc04298.jpg"/>
    <tag k="name" v="Renwick Street"/>
  </way>
  <way id="2077074" version="3" timestamp="2009-12-05T20:43:08Z" uid="30201" user="rrankin" changeset="3298146">
    <nd ref="8919761"/>
    <nd ref="8919762"/>
    <nd ref="8919763"/>
    <nd ref="29549228"/>
    <nd ref="8919764"/>
    <tag k="highway" v="residential"/>
    <tag k="image" v="80n:dsc04298.jpg"/>
    <tag k="lcn" v="yes"/>
    <tag k="name" v="Renwick Street"/>
  </way>
  <way id="2077074" version="4" timestamp="2010-05-23T07:40:05Z" uid="7617" user="Franc" changeset="4780588">
    <nd ref="8919761"/>
    <nd ref="8919762"/>
    <nd ref="8919763"/>
    <nd ref="29549228"/>
    <nd ref="746209242"/>
    <nd ref="746209244"/>
    <nd ref="8919764"/>
    <tag k="highway" v="residential"/>
    <tag k="image" v="80n:dsc04298.jpg"/>
    <tag k="lcn" v="yes"/>
    <tag k="name" v="Renwick Street"/>
  </way>
  <way id="2077074" version="5" timestamp="2010-07-08T00:58:42Z" uid="74617" user="JohnSmith" changeset="5162525">
    <nd ref="8919761"/>
    <nd ref="8919762"/>
    <nd ref="8919763"/>
    <nd ref="29549228"/>
    <nd ref="746209242"/>
    <nd ref="746209244"/>
    <nd ref="8919764"/>
    <tag k="highway" v="residential"/>
    <tag k="image" v="80n:dsc04298.jpg"/>
    <tag k="lcn" v="yes"/>
    <tag k="maxspeed" v="50"/>
    <tag k="maxspeed:source" v="default residential speed limit in Australia"/>
    <tag k="name" v="Renwick Street"/>
  </way>
  <way id="2077075" version="1" timestamp="2007-05-24T10:08:46Z" uid="7617" user="Franc" changeset="64741">
    <nd ref="8919764"/>
    <nd ref="29548975"/>
    <nd ref="8919765"/>
    <tag k="created_by" v="Potlatch alpha"/>
    <tag k="highway" v="residential"/>
    <tag k="image" v="80n:dsc04299.jpg"/>
    <tag k="name" v="Park Avenue"/>
  </way>
  <way id="2077075" version="2" timestamp="2007-11-06T03:41:08Z" uid="7617" user="Franc" changeset="417769">
    <nd ref="8919764"/>
    <nd ref="29548975"/>
    <nd ref="99625747"/>
    <nd ref="8919765"/>
    <tag k="created_by" v="Potlatch alpha"/>
    <tag k="highway" v="residential"/>
    <tag k="image" v="80n:dsc04299.jpg"/>
    <tag k="name" v="Park Avenue"/>
  </way>
  <way id="2077075" version="3" timestamp="2008-10-06T08:18:57Z" uid="7617" user="Franc" changeset="105381">
    <nd ref="8919764"/>
    <nd ref="29548975"/>
    <nd ref="99625747"/>
    <nd ref="8919765"/>
    <tag k="created_by" v="Potlatch alpha"/>
    <tag k="highway" v="residential"/>
    <tag k="image" v="80n:dsc04299.jpg"/>
    <tag k="name" v="Park Avenue"/>
    <tag k="oneway" v="yes"/>
  </way>
  <way id="2077075" version="5" timestamp="2009-03-14T10:47:00Z" uid="7617" user="Franc" changeset="807256">
    <nd ref="8919764"/>
    <nd ref="29548975"/>
    <nd ref="99625747"/>
    <tag k="created_by" v="Potlatch 0.10f"/>
    <tag k="highway" v="residential"/>
    <tag k="image" v="80n:dsc04299.jpg"/>
    <tag k="lcn" v="yes"/>
    <tag k="name" v="Park Avenue"/>
    <tag k="oneway" v="yes"/>
  </way>
  <way id="2077075" version="7" timestamp="2010-05-23T07:40:06Z" uid="7617" user="Franc" changeset="4780588"/>
  <way id="2077077" version="9" timestamp="2008-04-05T00:17:11Z" uid="30201" user="rrankin" changeset="48900">
    <nd ref="69749646"/>
    <nd ref="69748768"/>
    <nd ref="8919768"/>
    <nd ref="255766057"/>
    <nd ref="84217139"/>
    <nd ref="8965583"/>
    <nd ref="8965600"/>
    <nd ref="8965601"/>
    <nd ref="77645709"/>
    <tag k="created_by" v="Potlatch alpha"/>
    <tag k="highway" v="residential"/>
    <tag k="image" v="80n:dsc04301.jpg"/>
    <tag k="name" v="Terry Street"/>
    <tag k="oneway" v="yes"/>
  </way>
  <way id="2077077" version="11" timestamp="2009-09-22T05:15:35Z" uid="4467" user="Rosscoe" changeset="2564601">
    <nd ref="69749646"/>
    <nd ref="69748768"/>
    <nd ref="376105151"/>
    <nd ref="8919768"/>
    <nd ref="255766057"/>
    <nd ref="84217139"/>
    <nd ref="8965583"/>
    <nd ref="8965600"/>
    <nd ref="8965601"/>
    <nd ref="77645709"/>
    <tag k="highway" v="residential"/>
    <tag k="image" v="80n:dsc04301.jpg"/>
    <tag k="name" v="Terry Street"/>
    <tag k="oneway" v="yes"/>
  </way>
  <way id="2077077" version="12" timestamp="2010-02-14T01:33:18Z" uid="7617" user="Franc" changeset="3870065">
    <nd ref="69749646"/>
    <nd ref="69748768"/>
    <nd ref="376105151"/>
    <nd ref="8919768"/>
    <nd ref="255766057"/>
    <nd ref="84217139"/>
    <nd ref="8965583"/>
    <nd ref="638844929"/>
    <nd ref="8965600"/>
    <nd ref="8965601"/>
    <nd ref="77645709"/>
    <tag k="highway" v="residential"/>
    <tag k="image" v="80n:dsc04301.jpg"/>
    <tag k="name" v="Terry Street"/>
    <tag k="oneway" v="yes"/>
  </way>
  <way id="2077077" version="13" timestamp="2010-07-07T22:15:40Z" uid="74617" user="JohnSmith" changeset="5161069">
    <nd ref="69749646"/>
    <nd ref="69748768"/>
    <nd ref="376105151"/>
    <nd ref="8919768"/>
    <nd ref="255766057"/>
    <nd ref="84217139"/>
    <nd ref="8965583"/>
    <nd ref="638844929"/>
    <nd ref="8965600"/>
    <nd ref="8965601"/>
    <nd ref="77645709"/>
    <tag k="highway" v="residential"/>
    <tag k="image" v="80n:dsc04301.jpg"/>
    <tag k="maxspeed" v="50"/>
    <tag k="maxspeed:source" v="default residential speed limit in Australia"/>
    <tag k="name" v="Terry Street"/>
    <tag k="oneway" v="yes"/>
  </way>
  <way id="2077077" version="15" timestamp="2011-03-26T07:37:24Z" uid="7617" user="Franc" changeset="7672617">
    <nd ref="69749646"/>
    <nd ref="69748768"/>
    <tag k="cycleway" v="lane"/>
    <tag k="highway" v="residential"/>
    <tag k="image" v="80n:dsc04301.jpg"/>
    <tag k="lcn" v="yes"/>
    <tag k="maxspeed" v="50"/>
    <tag k="maxspeed:source" v="default residential speed limit in Australia"/>
    <tag k="name" v="Terry Street"/>
    <tag k="oneway" v="yes"/>
  </way>
  <way id="2077079" version="7" timestamp="2010-02-14T01:33:15Z" uid="7617" user="Franc" changeset="3870065">
    <nd ref="8965603"/>
    <nd ref="377573474"/>
    <nd ref="244128690"/>
    <nd ref="77626805"/>
    <nd ref="638844939"/>
    <tag k="highway" v="secondary"/>
    <tag k="image" v="80n:dsc04303.jpg"/>
    <tag k="lcn" v="yes"/>
    <tag k="name" v="Darling Street"/>
    <tag k="restriction" v="school_zone"/>
  </way>
  <way id="2077079" version="8" timestamp="2010-07-08T05:45:17Z" uid="30201" user="rrankin" changeset="5163546">
    <nd ref="8965603"/>
    <nd ref="377573474"/>
    <nd ref="244128690"/>
    <nd ref="77626805"/>
    <nd ref="638844939"/>
    <tag k="highway" v="secondary"/>
    <tag k="image" v="80n:dsc04303.jpg"/>
    <tag k="lcn" v="yes"/>
    <tag k="maxspeed" v="40"/>
    <tag k="name" v="Darling Street"/>
    <tag k="restriction" v="school_zone"/>
  </way>
  <way id="2077080" version="8" timestamp="2010-02-14T01:33:21Z" uid="7617" user="Franc" changeset="3870065">
    <nd ref="8965605"/>
    <nd ref="8965606"/>
    <nd ref="8965607"/>
    <nd ref="77626760"/>
    <nd ref="8965605"/>
    <tag k="highway" v="secondary"/>
    <tag k="junction" v="roundabout"/>
    <tag k="lcn" v="yes"/>
  </way>
  <way id="2077080" version="10" timestamp="2011-03-13T03:07:00Z" uid="7617" user="Franc" changeset="7540475">
    <nd ref="8965605"/>
    <nd ref="1199570960"/>
    <nd ref="896486223"/>
    <nd ref="8965606"/>
    <nd ref="1199570906"/>
    <nd ref="896486224"/>
    <nd ref="8965607"/>
    <nd ref="896486225"/>
    <nd ref="77626760"/>
    <nd ref="1199570942"/>
    <nd ref="896486226"/>
    <nd ref="8965605"/>
    <tag k="highway" v="secondary"/>
    <tag k="junction" v="roundabout"/>
    <tag k="lcn" v="yes"/>
  </way>
  <way id="2077082" version="9" timestamp="2010-02-10T10:15:00Z" uid="7617" user="Franc" changeset="3838915">
    <nd ref="8965607"/>
    <nd ref="77626769"/>
    <nd ref="60715592"/>
    <nd ref="8965610"/>
    <nd ref="60715609"/>
    <nd ref="8965611"/>
    <nd ref="77626731"/>
    <nd ref="8965612"/>
    <nd ref="8965588"/>
    <nd ref="8965613"/>
    <nd ref="8965614"/>
    <nd ref="84049759"/>
    <nd ref="8965589"/>
    <nd ref="84049725"/>
    <nd ref="8965590"/>
    <nd ref="77626417"/>
    <nd ref="60715620"/>
    <nd ref="8965615"/>
    <nd ref="8965591"/>
    <nd ref="8965616"/>
    <nd ref="246783305"/>
    <nd ref="246783283"/>
    <nd ref="8965617"/>
    <nd ref="8965592"/>
    <nd ref="195204885"/>
    <nd ref="195204599"/>
    <nd ref="8965593"/>
    <nd ref="8965618"/>
    <nd ref="195204541"/>
    <nd ref="634867752"/>
    <tag k="highway" v="secondary"/>
    <tag k="image" v="80n:dsc04303.jpg"/>
    <tag k="lcn" v="yes"/>
    <tag k="name" v="Darling Street"/>
  </way>
  <way id="2077082" version="10" timestamp="2010-02-10T12:09:33Z" uid="7617" user="Franc" changeset="3839702">
    <nd ref="8965607"/>
    <nd ref="77626769"/>
    <nd ref="60715592"/>
    <nd ref="8965610"/>
    <nd ref="60715609"/>
    <nd ref="8965611"/>
    <nd ref="77626731"/>
    <nd ref="8965612"/>
    <nd ref="8965588"/>
    <nd ref="8965613"/>
    <nd ref="8965614"/>
    <nd ref="84049759"/>
    <nd ref="8965589"/>
    <nd ref="84049725"/>
    <nd ref="8965590"/>
    <nd ref="77626417"/>
    <nd ref="60715620"/>
    <nd ref="8965615"/>
    <nd ref="8965591"/>
    <nd ref="8965616"/>
    <nd ref="246783305"/>
    <nd ref="246783283"/>
    <nd ref="8965617"/>
    <nd ref="8965592"/>
    <nd ref="195204885"/>
    <nd ref="195204599"/>
    <nd ref="8965593"/>
    <nd ref="8965618"/>
    <nd ref="634910206"/>
    <nd ref="195204541"/>
    <nd ref="634867752"/>
    <tag k="highway" v="secondary"/>
    <tag k="image" v="80n:dsc04303.jpg"/>
    <tag k="lcn" v="yes"/>
    <tag k="name" v="Darling Street"/>
  </way>
  <way id="2077082" version="11" timestamp="2010-02-14T01:33:12Z" uid="7617" user="Franc" changeset="3870065">
    <nd ref="8965607"/>
    <nd ref="77626769"/>
    <nd ref="60715592"/>
    <nd ref="8965610"/>
    <nd ref="60715609"/>
    <nd ref="638844973"/>
    <nd ref="8965611"/>
    <nd ref="77626731"/>
    <nd ref="8965612"/>
    <nd ref="8965588"/>
    <nd ref="638844975"/>
    <nd ref="638844976"/>
    <nd ref="8965613"/>
    <nd ref="8965614"/>
    <nd ref="84049759"/>
    <nd ref="638844977"/>
    <nd ref="8965589"/>
    <nd ref="84049725"/>
    <nd ref="8965590"/>
    <nd ref="77626417"/>
    <nd ref="60715620"/>
    <nd ref="8965615"/>
    <nd ref="8965591"/>
    <nd ref="8965616"/>
    <nd ref="246783305"/>
    <nd ref="246783283"/>
    <nd ref="8965617"/>
    <nd ref="8965592"/>
    <nd ref="195204885"/>
    <nd ref="195204599"/>
    <nd ref="8965593"/>
    <nd ref="8965618"/>
    <nd ref="634910206"/>
    <nd ref="195204541"/>
    <nd ref="634867752"/>
    <tag k="highway" v="secondary"/>
    <tag k="image" v="80n:dsc04303.jpg"/>
    <tag k="lcn" v="yes"/>
    <tag k="name" v="Darling Street"/>
  </way>
  <way id="2077082" version="12" timestamp="2010-02-14T02:40:52Z" uid="7617" user="Franc" changeset="3870267">
    <nd ref="8965607"/>
    <nd ref="77626769"/>
    <nd ref="60715592"/>
    <nd ref="638866947"/>
    <nd ref="8965610"/>
    <nd ref="60715609"/>
    <nd ref="638844973"/>
    <nd ref="8965611"/>
    <nd ref="77626731"/>
    <nd ref="8965612"/>
    <nd ref="8965588"/>
    <nd ref="638844975"/>
    <nd ref="638844976"/>
    <nd ref="8965613"/>
    <nd ref="8965614"/>
    <nd ref="84049759"/>
    <nd ref="638844977"/>
    <nd ref="8965589"/>
    <nd ref="84049725"/>
    <nd ref="8965590"/>
    <nd ref="77626417"/>
    <nd ref="638866951"/>
    <nd ref="60715620"/>
    <nd ref="8965615"/>
    <nd ref="638866950"/>
    <nd ref="8965591"/>
    <nd ref="8965616"/>
    <nd ref="246783305"/>
    <nd ref="246783283"/>
    <nd ref="8965617"/>
    <nd ref="8965592"/>
    <nd ref="195204885"/>
    <nd ref="195204599"/>
    <nd ref="8965593"/>
    <nd ref="8965618"/>
    <nd ref="634910206"/>
    <nd ref="195204541"/>
    <nd ref="634867752"/>
    <tag k="highway" v="secondary"/>
    <tag k="image" v="80n:dsc04303.jpg"/>
    <tag k="lcn" v="yes"/>
    <tag k="name" v="Darling Street"/>
  </way>
  <way id="2077083" version="6" timestamp="2010-02-10T10:15:10Z" uid="7617" user="Franc" changeset="3838915">
    <nd ref="8965599"/>
    <nd ref="634867763"/>
    <nd ref="8965596"/>
    <nd ref="634867766"/>
    <nd ref="8965597"/>
    <nd ref="634867767"/>
    <nd ref="8965598"/>
    <nd ref="634867768"/>
    <nd ref="8965599"/>
    <tag k="highway" v="secondary"/>
    <tag k="junction" v="roundabout"/>
    <tag k="lcn" v="yes"/>
  </way>
  <way id="2077084" version="1" timestamp="2007-09-01T14:36:48Z" uid="7617" user="Franc" changeset="289637">
    <nd ref="8965632"/>
    <nd ref="20184240"/>
    <nd ref="20184248"/>
    <nd ref="8965636"/>
    <nd ref="8965635"/>
    <nd ref="8965634"/>
    <nd ref="8965622"/>
    <nd ref="20184253"/>
    <nd ref="20184260"/>
    <tag k="created_by" v="Potlatch alpha"/>
    <tag k="highway" v="cycleway"/>
    <tag k="image" v="80n:dsc04306.jpg"/>
  </way>
  <way id="2077084" version="4" timestamp="2008-12-24T23:53:30Z" uid="30201" user="rrankin" changeset="593277">
    <nd ref="8965632"/>
    <nd ref="321532633"/>
    <tag k="created_by" v="Potlatch 0.9a"/>
    <tag k="highway" v="cycleway"/>
    <tag k="image" v="80n:dsc04306.jpg"/>
    <tag k="lcn" v="yes"/>
  </way>
  <way id="2077088" version="5" timestamp="2008-02-18T22:58:31Z" uid="7617" user="Franc" changeset="152846">
    <nd ref="20187986"/>
    <nd ref="8965662"/>
    <nd ref="173555147"/>
    <nd ref="173550304"/>
    <nd ref="26627226"/>
    <nd ref="248219681"/>
    <nd ref="173547499"/>
    <nd ref="8965666"/>
    <tag k="created_by" v="Potlatch 0.5d"/>
    <tag k="highway" v="unclassified"/>
    <tag k="image" v="80n:dsc04312.jpg"/>
    <tag k="name" v="Miller Street"/>
  </way>
  <way id="2077089" version="2" timestamp="2008-02-18T22:58:30Z" uid="7617" user="Franc" changeset="152846">
    <nd ref="8965666"/>
    <nd ref="8965670"/>
    <tag k="created_by" v="JOSM"/>
    <tag k="highway" v="pedestrian"/>
  </way>
  <way id="2077089" version="3" timestamp="2008-04-16T05:59:09Z" uid="7617" user="Franc" changeset="162872">
    <nd ref="8965666"/>
    <nd ref="8965670"/>
    <tag k="bicycle" v="yes"/>
    <tag k="created_by" v="JOSM"/>
    <tag k="highway" v="pedestrian"/>
    <tag k="name" v="Union Street"/>
  </way>
  <way id="2077090" version="2" timestamp="2008-04-05T05:55:13Z" uid="30201" user="rrankin" changeset="50175">
    <nd ref="8965670"/>
    <nd ref="8965667"/>
    <nd ref="11978227"/>
    <nd ref="8965671"/>
    <nd ref="8965669"/>
    <tag k="created_by" v="Potlatch 0.8a"/>
    <tag k="highway" v="unclassified"/>
    <tag k="image" v="80n:dsc04313.jpg"/>
    <tag k="name" v="Union Street"/>
  </way>
  <way id="2077090" version="3" timestamp="2008-04-05T05:56:16Z" uid="30201" user="rrankin" changeset="50175">
    <nd ref="8965670"/>
    <nd ref="8965667"/>
    <tag k="created_by" v="Potlatch 0.8a"/>
    <tag k="highway" v="unclassified"/>
    <tag k="image" v="80n:dsc04313.jpg"/>
    <tag k="name" v="Union Street"/>
  </way>
  <way id="2077090" version="4" timestamp="2008-04-05T05:56:36Z" uid="30201" user="rrankin" changeset="50175">
    <nd ref="8965670"/>
    <nd ref="8965667"/>
    <tag k="created_by" v="Potlatch 0.8a"/>
    <tag k="highway" v="unclassified"/>
    <tag k="image" v="80n:dsc04313.jpg"/>
    <tag k="name" v="Union Street"/>
    <tag k="oneway" v="yes"/>
  </way>
  <way id="2077090" version="5" timestamp="2008-04-05T06:09:52Z" uid="30201" user="rrankin" changeset="50175">
    <nd ref="8965670"/>
    <nd ref="8965667"/>
    <tag k="created_by" v="Potlatch 0.8a"/>
    <tag k="cycleway" v="opposite_lane"/>
    <tag k="highway" v="unclassified"/>
    <tag k="image" v="80n:dsc04313.jpg"/>
    <tag k="name" v="Union Street"/>
    <tag k="oneway" v="yes"/>
  </way>
  <way id="2077091" version="3" timestamp="2008-05-04T22:18:37Z" uid="30201" user="rrankin" changeset="336241">
    <nd ref="8965669"/>
    <nd ref="26625995"/>
    <tag k="created_by" v="JOSM"/>
    <tag k="highway" v="secondary"/>
    <tag k="image" v="80n:dsc04316.jpg"/>
    <tag k="name" v="Pyrmont Bridge Road"/>
  </way>
  <way id="2077091" version="6" timestamp="2009-12-24T12:35:31Z" uid="30201" user="rrankin" changeset="3441832">
    <nd ref="8965669"/>
    <nd ref="598928997"/>
    <nd ref="26625995"/>
    <tag k="highway" v="secondary"/>
    <tag k="image" v="80n:dsc04316.jpg"/>
    <tag k="lcn" v="yes"/>
    <tag k="name" v="Pyrmont Bridge Road"/>
  </way>
  <way id="2077091" version="8" timestamp="2010-10-19T11:48:10Z" uid="7617" user="Franc" changeset="6097704">
    <nd ref="8965669"/>
    <nd ref="598928997"/>
    <nd ref="26625995"/>
    <tag k="highway" v="tertiary"/>
    <tag k="image" v="80n:dsc04316.jpg"/>
    <tag k="name" v="Pyrmont Bridge Road"/>
  </way>
  <way id="2077092" version="3" timestamp="2008-05-03T23:50:16Z" uid="30201" user="rrankin" changeset="326090"/>
  <way id="2077093" version="2" timestamp="2008-05-03T23:50:13Z" uid="30201" user="rrankin" changeset="326090">
    <nd ref="8965668"/>
    <nd ref="26625998"/>
    <nd ref="8965672"/>
    <nd ref="8107775"/>
    <nd ref="8965673"/>
    <tag k="created_by" v="JOSM"/>
    <tag k="foot" v="yes"/>
    <tag k="highway" v="cycleway"/>
    <tag k="layer" v="1"/>
    <tag k="name" v="Pyrmont Bridge"/>
  </way>
  <way id="2077093" version="3" timestamp="2008-05-04T22:18:35Z" uid="30201" user="rrankin" changeset="336241">
    <nd ref="26625995"/>
    <nd ref="26625998"/>
    <nd ref="8965672"/>
    <nd ref="8107775"/>
    <nd ref="8965673"/>
    <tag k="created_by" v="JOSM"/>
    <tag k="foot" v="yes"/>
    <tag k="highway" v="cycleway"/>
    <tag k="layer" v="1"/>
    <tag k="name" v="Pyrmont Bridge"/>
  </way>
  <way id="2077094" version="1" timestamp="2007-09-17T13:59:03Z" uid="7617" user="Franc" changeset="454190">
    <nd ref="8965680"/>
    <nd ref="15405030"/>
    <nd ref="15405036"/>
    <nd ref="13757741"/>
    <nd ref="13757742"/>
    <nd ref="8965678"/>
    <nd ref="8109356"/>
    <nd ref="13757738"/>
    <nd ref="13757740"/>
    <nd ref="20930431"/>
    <nd ref="14693470"/>
    <nd ref="20930186"/>
    <nd ref="13764204"/>
    <nd ref="53273597"/>
    <nd ref="13764205"/>
    <nd ref="53273593"/>
    <nd ref="26377594"/>
    <nd ref="15447245"/>
    <nd ref="8407279"/>
    <tag k="abutters" v="commercial"/>
    <tag k="created_by" v="JOSM"/>
    <tag k="highway" v="secondary"/>
    <tag k="image" v="80n:dsc04318.jpg"/>
    <tag k="name" v="Elizabeth Street"/>
  </way>
  <way id="2077095" version="1" timestamp="2007-09-26T05:15:00Z" uid="7617" user="Franc" changeset="521522">
    <nd ref="26526396"/>
    <nd ref="33364991"/>
    <nd ref="30197885"/>
    <nd ref="8965681"/>
    <nd ref="8965682"/>
    <nd ref="8965800"/>
    <nd ref="8965683"/>
    <tag k="created_by" v="Potlatch alpha"/>
    <tag k="highway" v="unclassified"/>
    <tag k="image" v="80n:dsc04320.jpg"/>
    <tag k="name" v="Phillip Street"/>
  </way>
  <way id="2077095" version="4" timestamp="2010-07-07T22:14:25Z" uid="74617" user="JohnSmith" changeset="5161069">
    <nd ref="642998199"/>
    <nd ref="33364991"/>
    <nd ref="30197885"/>
    <nd ref="8965681"/>
    <nd ref="8965682"/>
    <nd ref="8965800"/>
    <nd ref="8965683"/>
    <tag k="highway" v="residential"/>
    <tag k="image" v="80n:dsc04320.jpg"/>
    <tag k="maxspeed" v="50"/>
    <tag k="maxspeed:source" v="default residential speed limit in Australia"/>
    <tag k="name" v="Phillip Street"/>
    <tag k="source" v="nearmap"/>
  </way>
  <way id="2077095" version="5" timestamp="2010-07-27T13:37:16Z" uid="4467" user="Rosscoe" changeset="5329516">
    <nd ref="642998199"/>
    <nd ref="33364991"/>
    <nd ref="8965681"/>
    <nd ref="8965682"/>
    <nd ref="8965800"/>
    <nd ref="8965683"/>
    <tag k="highway" v="residential"/>
    <tag k="image" v="80n:dsc04320.jpg"/>
    <tag k="maxspeed" v="50"/>
    <tag k="maxspeed:source" v="default residential speed limit in Australia"/>
    <tag k="name" v="Phillip Street"/>
    <tag k="source" v="nearmap"/>
  </way>
  <way id="2077096" version="1" timestamp="2007-09-26T05:14:59Z" uid="7617" user="Franc" changeset="521522">
    <nd ref="8099466"/>
    <nd ref="8099465"/>
    <nd ref="8099464"/>
    <nd ref="8099474"/>
    <nd ref="8099475"/>
    <nd ref="8965695"/>
    <nd ref="8965685"/>
    <nd ref="33151081"/>
    <nd ref="8965686"/>
    <nd ref="8965687"/>
    <nd ref="8965693"/>
    <nd ref="8965694"/>
    <nd ref="8965688"/>
    <tag k="created_by" v="JOSM"/>
    <tag k="highway" v="footway"/>
  </way>
  <way id="2077096" version="3" timestamp="2010-01-06T00:57:53Z" uid="30201" user="rrankin" changeset="3550442">
    <nd ref="8099466"/>
    <nd ref="33553605"/>
    <nd ref="8099465"/>
    <nd ref="8099464"/>
    <nd ref="8099474"/>
    <nd ref="8099475"/>
    <nd ref="8965695"/>
    <nd ref="8965685"/>
    <nd ref="33151081"/>
    <nd ref="8965686"/>
    <nd ref="8965687"/>
    <nd ref="8965693"/>
    <nd ref="8965694"/>
    <nd ref="8965688"/>
    <tag k="highway" v="footway"/>
  </way>
  <way id="2077098" version="5" timestamp="2010-01-06T00:58:16Z" uid="30201" user="rrankin" changeset="3550442">
    <nd ref="8965697"/>
    <nd ref="573238858"/>
    <nd ref="573238859"/>
    <nd ref="573238860"/>
    <nd ref="573238254"/>
    <tag k="foot" v="yes"/>
    <tag k="highway" v="footway"/>
  </way>
  <way id="2077099" version="4" timestamp="2010-01-06T00:58:05Z" uid="30201" user="rrankin" changeset="3550442">
    <nd ref="8965700"/>
    <nd ref="573233449"/>
    <nd ref="8965803"/>
    <nd ref="573233498"/>
    <nd ref="8965802"/>
    <nd ref="8965801"/>
    <nd ref="8965702"/>
    <tag k="foot" v="yes"/>
    <tag k="highway" v="footway"/>
  </way>
  <way id="2077100" version="3" timestamp="2010-01-06T00:58:05Z" uid="30201" user="rrankin" changeset="3550442">
    <nd ref="8965704"/>
    <nd ref="8965702"/>
    <nd ref="8965705"/>
    <nd ref="8965703"/>
    <nd ref="8965704"/>
    <tag k="foot" v="yes"/>
    <tag k="highway" v="footway"/>
  </way>
  <way id="2077101" version="5" timestamp="2010-01-06T00:57:49Z" uid="30201" user="rrankin" changeset="3550442">
    <nd ref="8965704"/>
    <nd ref="8965805"/>
    <nd ref="8965706"/>
    <nd ref="8965806"/>
    <nd ref="8965707"/>
    <nd ref="8965807"/>
    <nd ref="573238249"/>
    <nd ref="8965708"/>
    <nd ref="8965808"/>
    <nd ref="8965709"/>
    <nd ref="573238250"/>
    <nd ref="8965809"/>
    <nd ref="573238080"/>
    <nd ref="573238112"/>
    <nd ref="8965810"/>
    <nd ref="8965710"/>
    <tag k="foot" v="yes"/>
    <tag k="highway" v="footway"/>
  </way>
  <way id="2077104" version="3" timestamp="2010-01-06T00:57:58Z" uid="30201" user="rrankin" changeset="3550442">
    <nd ref="15397477"/>
    <nd ref="30197884"/>
    <nd ref="33364993"/>
    <nd ref="15397468"/>
    <nd ref="15401227"/>
    <nd ref="30201119"/>
    <nd ref="15405042"/>
    <nd ref="15397462"/>
    <nd ref="13757676"/>
    <nd ref="15405039"/>
    <nd ref="13757669"/>
    <tag k="highway" v="secondary"/>
    <tag k="image" v="80n:dsc04327.jpg"/>
    <tag k="name" v="Macquarie Street"/>
  </way>
  <way id="2077104" version="4" timestamp="2010-07-27T13:35:13Z" uid="4467" user="Rosscoe" changeset="5329516">
    <nd ref="15397477"/>
    <nd ref="30197884"/>
    <nd ref="33364993"/>
    <nd ref="15397468"/>
    <nd ref="15401227"/>
    <nd ref="30201119"/>
    <nd ref="15397462"/>
    <nd ref="13757676"/>
    <nd ref="15405039"/>
    <nd ref="13757669"/>
    <tag k="highway" v="secondary"/>
    <tag k="image" v="80n:dsc04327.jpg"/>
    <tag k="name" v="Macquarie Street"/>
  </way>
  <way id="2077105" version="2" timestamp="2009-07-31T14:15:07Z" uid="4467" user="Rosscoe" changeset="1995110">
    <nd ref="8965716"/>
    <nd ref="8965800"/>
    <tag k="highway" v="unclassified"/>
    <tag k="name" v="Albert Street"/>
  </way>
  <way id="2077108" version="2" timestamp="2009-07-31T14:15:06Z" uid="4467" user="Rosscoe" changeset="1995110">
    <nd ref="8965683"/>
    <nd ref="8965823"/>
    <tag k="highway" v="unclassified"/>
    <tag k="image" v="80n:dsc04328.jpg"/>
    <tag k="name" v="Alfred Street"/>
  </way>
  <way id="2077109" version="2" timestamp="2008-09-18T11:39:18Z" uid="7617" user="Franc" changeset="659719">
    <nd ref="8965823"/>
    <nd ref="33167040"/>
    <nd ref="26358753"/>
    <nd ref="33221716"/>
    <tag k="created_by" v="JOSM"/>
    <tag k="highway" v="unclassified"/>
    <tag k="image" v="80n:dsc04329.jpg"/>
    <tag k="name" v="Young Street"/>
    <tag k="oneway" v="no"/>
  </way>
  <way id="2077109" version="3" timestamp="2009-07-31T14:15:07Z" uid="4467" user="Rosscoe" changeset="1995110">
    <nd ref="8965823"/>
    <nd ref="33167040"/>
    <nd ref="26358753"/>
    <nd ref="33221716"/>
    <tag k="highway" v="unclassified"/>
    <tag k="image" v="80n:dsc04329.jpg"/>
    <tag k="name" v="Young Street"/>
  </way>
  <way id="2077109" version="6" timestamp="2011-06-17T12:39:38Z" uid="7617" user="Franc" changeset="8464443">
    <nd ref="8965823"/>
    <nd ref="33167040"/>
    <nd ref="1328489773"/>
    <nd ref="26358753"/>
    <tag k="highway" v="unclassified"/>
    <tag k="image" v="80n:dsc04329.jpg"/>
    <tag k="name" v="Young Street"/>
  </way>
  <way id="2077110" version="3" timestamp="2008-04-06T00:57:48Z" uid="30201" user="rrankin" changeset="57592">
    <nd ref="8320045"/>
    <nd ref="8320056"/>
    <nd ref="8965836"/>
    <nd ref="255974582"/>
    <nd ref="8320046"/>
    <nd ref="8408946"/>
    <nd ref="8529949"/>
    <nd ref="20958979"/>
    <nd ref="20958980"/>
    <nd ref="20958981"/>
    <nd ref="20958982"/>
    <nd ref="20958983"/>
    <nd ref="250936316"/>
    <nd ref="20958984"/>
    <tag k="created_by" v="JOSM"/>
    <tag k="highway" v="unclassified"/>
    <tag k="image" v="80n:dsc04332.jpg"/>
    <tag k="name" v="Lower Fort Street"/>
  </way>
  <way id="2077110" version="4" timestamp="2008-04-06T01:50:36Z" uid="30201" user="rrankin" changeset="57592">
    <nd ref="8320045"/>
    <nd ref="8320056"/>
    <nd ref="8965836"/>
    <nd ref="255978756"/>
    <nd ref="255974582"/>
    <nd ref="255978759"/>
    <nd ref="8320046"/>
    <nd ref="8408946"/>
    <nd ref="8529949"/>
    <nd ref="20958979"/>
    <nd ref="20958980"/>
    <nd ref="20958981"/>
    <nd ref="20958982"/>
    <nd ref="20958983"/>
    <nd ref="250936316"/>
    <nd ref="20958984"/>
    <tag k="created_by" v="JOSM"/>
    <tag k="highway" v="unclassified"/>
    <tag k="image" v="80n:dsc04332.jpg"/>
    <tag k="name" v="Lower Fort Street"/>
  </way>
  <way id="2077110" version="5" timestamp="2008-04-06T02:18:37Z" uid="30201" user="rrankin" changeset="57592">
    <nd ref="8320045"/>
    <nd ref="8320056"/>
    <nd ref="8965836"/>
    <nd ref="255978756"/>
    <nd ref="255974582"/>
    <nd ref="255978759"/>
    <nd ref="8320046"/>
    <nd ref="8408946"/>
    <nd ref="8529949"/>
    <nd ref="20958979"/>
    <nd ref="20958980"/>
    <nd ref="20958981"/>
    <nd ref="20958982"/>
    <nd ref="20958983"/>
    <nd ref="250936316"/>
    <nd ref="20958984"/>
    <tag k="created_by" v="JOSM"/>
    <tag k="highway" v="residential"/>
    <tag k="image" v="80n:dsc04332.jpg"/>
    <tag k="name" v="Lower Fort Street"/>
  </way>
  <way id="2077110" version="6" timestamp="2008-09-16T08:44:47Z" uid="7617" user="Franc" changeset="648218">
    <nd ref="8320045"/>
    <nd ref="8320056"/>
    <nd ref="8965836"/>
    <nd ref="255978756"/>
    <nd ref="255974582"/>
    <tag k="created_by" v="JOSM"/>
    <tag k="highway" v="residential"/>
    <tag k="image" v="80n:dsc04332.jpg"/>
    <tag k="name" v="Lower Fort Street"/>
  </way>
  <way id="2077110" version="8" timestamp="2009-12-03T07:53:49Z" uid="7617" user="Franc" changeset="3278548">
    <nd ref="8320045"/>
    <nd ref="579259062"/>
    <nd ref="8320056"/>
    <nd ref="8965836"/>
    <nd ref="255978756"/>
    <nd ref="255974582"/>
    <tag k="highway" v="residential"/>
    <tag k="image" v="80n:dsc04332.jpg"/>
    <tag k="name" v="Lower Fort Street"/>
  </way>
  <way id="2077110" version="9" timestamp="2010-07-07T22:14:55Z" uid="74617" user="JohnSmith" changeset="5161069">
    <nd ref="8320045"/>
    <nd ref="579259062"/>
    <nd ref="8320056"/>
    <nd ref="8965836"/>
    <nd ref="255978756"/>
    <nd ref="255974582"/>
    <tag k="highway" v="residential"/>
    <tag k="image" v="80n:dsc04332.jpg"/>
    <tag k="maxspeed" v="50"/>
    <tag k="maxspeed:source" v="default residential speed limit in Australia"/>
    <tag k="name" v="Lower Fort Street"/>
  </way>
  <way id="2077110" version="10" timestamp="2010-07-27T14:12:32Z" uid="4467" user="Rosscoe" changeset="5329798">
    <nd ref="8320045"/>
    <nd ref="579259062"/>
    <nd ref="8320056"/>
    <nd ref="8965836"/>
    <nd ref="255974582"/>
    <tag k="highway" v="residential"/>
    <tag k="maxspeed" v="40"/>
    <tag k="name" v="Lower Fort Street"/>
    <tag k="source:maxspeed" v="nearmap"/>
  </way>
  <way id="2077111" version="1" timestamp="2007-09-26T05:14:54Z" uid="7617" user="Franc" changeset="521522">
    <nd ref="8965833"/>
    <nd ref="26526477"/>
    <nd ref="8965831"/>
    <nd ref="8965830"/>
    <tag k="created_by" v="JOSM"/>
    <tag k="highway" v="unclassified"/>
    <tag k="image" v="80n:dsc04330.jpg"/>
    <tag k="name" v="Argyle Street"/>
  </way>
  <way id="2077111" version="2" timestamp="2008-04-06T00:02:46Z" uid="30201" user="rrankin" changeset="57592">
    <nd ref="8965833"/>
    <nd ref="26526477"/>
    <nd ref="8965831"/>
    <nd ref="8965830"/>
    <tag k="created_by" v="JOSM"/>
    <tag k="highway" v="unclassified"/>
    <tag k="image" v="80n:dsc04330.jpg"/>
    <tag k="name" v="Argyle Street"/>
  </way>
  <way id="2077111" version="3" timestamp="2008-09-16T09:46:06Z" uid="7617" user="Franc" changeset="648218">
    <nd ref="8965833"/>
    <nd ref="26526477"/>
    <nd ref="8965831"/>
    <tag k="created_by" v="JOSM"/>
    <tag k="cycleway" v="opposite"/>
    <tag k="highway" v="unclassified"/>
    <tag k="image" v="80n:dsc04330.jpg"/>
    <tag k="name" v="Argyle Street"/>
    <tag k="oneway" v="yes"/>
  </way>
  <way id="2077111" version="6" timestamp="2010-07-27T13:41:11Z" uid="4467" user="Rosscoe" changeset="5329560">
    <nd ref="8965833"/>
    <nd ref="26526477"/>
    <nd ref="8965831"/>
    <tag k="highway" v="living_street"/>
    <tag k="name" v="Jack Mundy Place"/>
    <tag k="oneway" v="yes"/>
  </way>
  <way id="2077112" version="5" timestamp="2010-11-23T11:02:59Z" uid="7617" user="Franc" changeset="6438557">
    <nd ref="8588636"/>
    <nd ref="1000745043"/>
    <nd ref="8965834"/>
    <tag k="highway" v="unclassified"/>
    <tag k="image" v="80n:ds04333.jpg"/>
    <tag k="maxspeed" v="40"/>
    <tag k="name" v="Kent Street"/>
    <tag k="source:maxspeed" v="nearmap"/>
  </way>
  <way id="2077113" version="3" timestamp="2008-04-05T11:08:36Z" uid="30201" user="rrankin" changeset="56184">
    <nd ref="8588676"/>
    <nd ref="8965842"/>
    <nd ref="8965845"/>
    <nd ref="8965834"/>
    <nd ref="20958965"/>
    <nd ref="8965843"/>
    <nd ref="26358214"/>
    <nd ref="8965835"/>
    <nd ref="8965836"/>
    <tag k="created_by" v="Potlatch 0.8a"/>
    <tag k="highway" v="residential"/>
    <tag k="name" v="Windmill Street"/>
  </way>
  <way id="2077113" version="4" timestamp="2008-04-05T11:10:23Z" uid="30201" user="rrankin" changeset="56184">
    <nd ref="8588676"/>
    <nd ref="8965842"/>
    <tag k="created_by" v="Potlatch 0.8a"/>
    <tag k="highway" v="residential"/>
    <tag k="name" v="Windmill Street"/>
  </way>
  <way id="2077113" version="5" timestamp="2008-04-05T11:11:12Z" uid="30201" user="rrankin" changeset="56184">
    <nd ref="8588676"/>
    <nd ref="8965842"/>
    <tag k="bridge" v="yes"/>
    <tag k="created_by" v="Potlatch 0.8a"/>
    <tag k="highway" v="residential"/>
    <tag k="layer" v="1"/>
    <tag k="name" v="Windmill Street"/>
  </way>
  <way id="2077113" version="6" timestamp="2009-07-22T11:01:18Z" uid="7617" user="Franc" changeset="1903728">
    <nd ref="8588676"/>
    <nd ref="445401041"/>
    <tag k="created_by" v="Potlatch 0.8a"/>
    <tag k="highway" v="residential"/>
    <tag k="name" v="Windmill Street"/>
  </way>
  <way id="2077113" version="8" timestamp="2010-07-07T22:14:16Z" uid="74617" user="JohnSmith" changeset="5161069">
    <nd ref="8588676"/>
    <nd ref="445401041"/>
    <tag k="highway" v="residential"/>
    <tag k="maxspeed" v="50"/>
    <tag k="maxspeed:source" v="default residential speed limit in Australia"/>
    <tag k="name" v="Windmill Street"/>
  </way>
  <way id="2077114" version="2" timestamp="2008-08-31T23:27:04Z" uid="7617" user="Franc" changeset="481441">
    <nd ref="8320042"/>
    <nd ref="8965846"/>
    <nd ref="15406818"/>
    <nd ref="15406820"/>
    <nd ref="292761308"/>
    <nd ref="15406822"/>
    <nd ref="15406823"/>
    <nd ref="13877961"/>
    <tag k="created_by" v="JOSM"/>
    <tag k="highway" v="unclassified"/>
    <tag k="image" v="80n:dsc04334.jpg"/>
    <tag k="name" v="Napoleon Street"/>
  </way>
  <way id="2077114" version="5" timestamp="2010-04-18T12:37:09Z" uid="7617" user="Franc" changeset="4457384">
    <nd ref="8320042"/>
    <nd ref="8965846"/>
    <nd ref="700911533"/>
    <nd ref="15406818"/>
    <nd ref="700911535"/>
    <nd ref="15406820"/>
    <nd ref="700911531"/>
    <nd ref="666758840"/>
    <tag k="highway" v="residential"/>
    <tag k="image" v="80n:dsc04334.jpg"/>
    <tag k="name" v="Napoleon Street"/>
  </way>
  <way id="2077114" version="6" timestamp="2010-07-07T22:15:16Z" uid="74617" user="JohnSmith" changeset="5161069">
    <nd ref="8320042"/>
    <nd ref="8965846"/>
    <nd ref="700911533"/>
    <nd ref="15406818"/>
    <nd ref="700911535"/>
    <nd ref="15406820"/>
    <nd ref="700911531"/>
    <nd ref="666758840"/>
    <tag k="highway" v="residential"/>
    <tag k="image" v="80n:dsc04334.jpg"/>
    <tag k="maxspeed" v="50"/>
    <tag k="maxspeed:source" v="default residential speed limit in Australia"/>
    <tag k="name" v="Napoleon Street"/>
  </way>
  <way id="2077115" version="2" timestamp="2008-05-03T23:50:11Z" uid="30201" user="rrankin" changeset="326090">
    <nd ref="8099507"/>
    <nd ref="8965855"/>
    <nd ref="8409102"/>
    <nd ref="8409104"/>
    <nd ref="262067124"/>
    <nd ref="262067121"/>
    <tag k="created_by" v="JOSM"/>
    <tag k="highway" v="footway"/>
  </way>
  <way id="2077116" version="1" timestamp="2007-09-26T05:14:53Z" uid="7617" user="Franc" changeset="521522">
    <nd ref="8965847"/>
    <nd ref="26526075"/>
    <nd ref="8320040"/>
    <nd ref="13877962"/>
    <tag k="created_by" v="JOSM"/>
    <tag k="highway" v="unclassified"/>
    <tag k="image" v="80n:dsc04335.jpg"/>
    <tag k="name" v="Erskine Street"/>
  </way>
  <way id="2077117" version="2" timestamp="2007-12-16T03:31:19Z" uid="7617" user="Franc" changeset="319733">
    <nd ref="8965852"/>
    <nd ref="8965847"/>
    <nd ref="172213347"/>
    <nd ref="8965848"/>
    <tag k="created_by" v="JOSM"/>
    <tag k="highway" v="unclassified"/>
    <tag k="image" v="80n:dsc04336.jpg"/>
    <tag k="name" v="Lime Street"/>
  </way>
  <way id="2077117" version="3" timestamp="2008-09-28T06:40:10Z" uid="7617" user="Franc" changeset="709194">
    <nd ref="8965852"/>
    <nd ref="300498744"/>
    <nd ref="8965847"/>
    <nd ref="300498746"/>
    <nd ref="172213347"/>
    <nd ref="8965848"/>
    <tag k="created_by" v="JOSM"/>
    <tag k="highway" v="unclassified"/>
    <tag k="image" v="80n:dsc04336.jpg"/>
    <tag k="name" v="Lime Street"/>
  </way>
  <way id="2077117" version="6" timestamp="2010-04-15T12:55:36Z" uid="7617" user="Franc" changeset="4430672">
    <nd ref="663380199"/>
    <nd ref="663380257"/>
    <nd ref="663380258"/>
    <nd ref="663380259"/>
    <nd ref="663380260"/>
    <nd ref="663380261"/>
    <nd ref="663380262"/>
    <nd ref="663380113"/>
    <nd ref="663380218"/>
    <nd ref="8965852"/>
    <nd ref="663380263"/>
    <nd ref="300498744"/>
    <nd ref="8965847"/>
    <nd ref="300498746"/>
    <nd ref="663380264"/>
    <nd ref="697326725"/>
    <nd ref="172213347"/>
    <nd ref="8965848"/>
    <tag k="highway" v="residential"/>
    <tag k="image" v="80n:dsc04336.jpg"/>
    <tag k="name" v="Lime Street"/>
    <tag k="source" v="nearmap"/>
  </way>
  <way id="2077117" version="7" timestamp="2010-04-18T12:37:09Z" uid="7617" user="Franc" changeset="4457384">
    <nd ref="663380199"/>
    <nd ref="663380257"/>
    <nd ref="663380258"/>
    <nd ref="663380259"/>
    <nd ref="663380260"/>
    <nd ref="663380261"/>
    <nd ref="663380262"/>
    <nd ref="663380113"/>
    <nd ref="663380218"/>
    <nd ref="8965852"/>
    <nd ref="663380263"/>
    <nd ref="300498744"/>
    <nd ref="8965847"/>
    <nd ref="300498746"/>
    <nd ref="663380264"/>
    <nd ref="697326725"/>
    <nd ref="172213347"/>
    <nd ref="700911522"/>
    <nd ref="700911520"/>
    <nd ref="8965848"/>
    <tag k="highway" v="residential"/>
    <tag k="image" v="80n:dsc04336.jpg"/>
    <tag k="name" v="Lime Street"/>
    <tag k="source" v="nearmap"/>
  </way>
  <way id="2077117" version="8" timestamp="2010-07-07T22:15:23Z" uid="74617" user="JohnSmith" changeset="5161069">
    <nd ref="663380199"/>
    <nd ref="663380257"/>
    <nd ref="663380258"/>
    <nd ref="663380259"/>
    <nd ref="663380260"/>
    <nd ref="663380261"/>
    <nd ref="663380262"/>
    <nd ref="663380113"/>
    <nd ref="663380218"/>
    <nd ref="8965852"/>
    <nd ref="663380263"/>
    <nd ref="300498744"/>
    <nd ref="8965847"/>
    <nd ref="300498746"/>
    <nd ref="663380264"/>
    <nd ref="697326725"/>
    <nd ref="172213347"/>
    <nd ref="700911522"/>
    <nd ref="700911520"/>
    <nd ref="8965848"/>
    <tag k="highway" v="residential"/>
    <tag k="image" v="80n:dsc04336.jpg"/>
    <tag k="maxspeed" v="50"/>
    <tag k="maxspeed:source" v="default residential speed limit in Australia"/>
    <tag k="name" v="Lime Street"/>
    <tag k="source" v="nearmap"/>
  </way>
  <way id="2077128" version="1" timestamp="2007-09-26T05:56:44Z" uid="7617" user="Franc" changeset="521522">
    <nd ref="8965724"/>
    <nd ref="8965733"/>
    <nd ref="8965898"/>
    <nd ref="8965899"/>
    <nd ref="8965734"/>
    <tag k="abutters" v="park"/>
    <tag k="created_by" v="JOSM"/>
    <tag k="highway" v="footway"/>
  </way>
  <way id="2077128" version="4" timestamp="2010-01-06T00:58:11Z" uid="30201" user="rrankin" changeset="3550442">
    <nd ref="8965724"/>
    <nd ref="8965733"/>
    <nd ref="8965898"/>
    <nd ref="8965899"/>
    <nd ref="573237364"/>
    <nd ref="573237362"/>
    <nd ref="8965734"/>
    <tag k="highway" v="footway"/>
  </way>
  <way id="2077129" version="4" timestamp="2010-01-06T00:58:05Z" uid="30201" user="rrankin" changeset="3550442">
    <nd ref="8965701"/>
    <nd ref="573233407"/>
    <nd ref="573233413"/>
    <nd ref="8965700"/>
    <tag k="foot" v="yes"/>
    <tag k="highway" v="footway"/>
  </way>
  <way id="2077130" version="4" timestamp="2010-01-06T00:57:49Z" uid="30201" user="rrankin" changeset="3550442">
    <nd ref="8965796"/>
    <nd ref="8965795"/>
    <nd ref="8965901"/>
    <nd ref="8965902"/>
    <nd ref="8965793"/>
    <nd ref="8965903"/>
    <nd ref="8965792"/>
    <nd ref="8965905"/>
    <nd ref="8965794"/>
    <nd ref="8965906"/>
    <nd ref="8965797"/>
    <nd ref="8965798"/>
    <nd ref="8965799"/>
    <nd ref="8965732"/>
    <nd ref="8965731"/>
    <nd ref="8965729"/>
    <nd ref="8965724"/>
    <nd ref="8965725"/>
    <nd ref="8965726"/>
    <nd ref="8965728"/>
    <nd ref="8965723"/>
    <nd ref="573233717"/>
    <nd ref="8965890"/>
    <nd ref="8965701"/>
    <tag k="foot" v="yes"/>
    <tag k="highway" v="footway"/>
  </way>
  <way id="2077131" version="4" timestamp="2010-01-06T00:57:59Z" uid="30201" user="rrankin" changeset="3550442">
    <nd ref="8965701"/>
    <nd ref="8965891"/>
    <nd ref="573233262"/>
    <nd ref="8965907"/>
    <nd ref="8965720"/>
    <nd ref="8965908"/>
    <nd ref="8965909"/>
    <nd ref="8965914"/>
    <nd ref="8965721"/>
    <nd ref="8965910"/>
    <nd ref="8965911"/>
    <nd ref="8965913"/>
    <nd ref="8965912"/>
    <nd ref="8965722"/>
    <tag k="foot" v="yes"/>
    <tag k="highway" v="footway"/>
  </way>
  <way id="2077132" version="1" timestamp="2007-09-09T03:09:37Z" uid="7617" user="Franc" changeset="396695">
    <nd ref="26627329"/>
    <nd ref="8965916"/>
    <nd ref="26625787"/>
    <nd ref="8965917"/>
    <nd ref="8965995"/>
    <nd ref="8965931"/>
    <nd ref="8965918"/>
    <nd ref="8109384"/>
    <nd ref="26526585"/>
    <nd ref="8109385"/>
    <tag k="created_by" v="JOSM"/>
    <tag k="highway" v="unclassified"/>
  </way>
  <way id="2077132" version="3" timestamp="2008-05-04T09:45:26Z" uid="30201" user="rrankin" changeset="331347">
    <nd ref="8107800"/>
    <nd ref="26627329"/>
    <nd ref="8965916"/>
    <nd ref="26625787"/>
    <nd ref="8965917"/>
    <nd ref="8965995"/>
    <nd ref="8965931"/>
    <tag k="abutters" v="retail"/>
    <tag k="created_by" v="JOSM"/>
    <tag k="highway" v="unclassified"/>
    <tag k="name" v="Harbour Street"/>
    <tag k="oneway" v="yes"/>
  </way>
  <way id="2077132" version="4" timestamp="2009-08-03T21:17:21Z" uid="4467" user="Rosscoe" changeset="2030509">
    <nd ref="26627329"/>
    <nd ref="8965916"/>
    <nd ref="26625787"/>
    <nd ref="8965917"/>
    <nd ref="8965995"/>
    <nd ref="8965931"/>
    <tag k="abutters" v="retail"/>
    <tag k="highway" v="unclassified"/>
    <tag k="name" v="Harbour Street"/>
    <tag k="oneway" v="yes"/>
  </way>
  <way id="2077132" version="7" timestamp="2009-12-24T10:27:58Z" uid="30201" user="rrankin" changeset="3440994">
    <nd ref="26627329"/>
    <nd ref="8965916"/>
    <nd ref="26625787"/>
    <nd ref="8965917"/>
    <nd ref="8965995"/>
    <nd ref="8965931"/>
    <tag k="highway" v="primary"/>
    <tag k="name" v="Day Street"/>
    <tag k="oneway" v="yes"/>
  </way>
  <way id="2077132" version="8" timestamp="2009-12-25T01:01:16Z" uid="30201" user="rrankin" changeset="3445791">
    <nd ref="26627329"/>
    <nd ref="8965916"/>
    <nd ref="26625787"/>
    <nd ref="599129976"/>
    <nd ref="8965917"/>
    <nd ref="599129973"/>
    <nd ref="8965995"/>
    <nd ref="8965931"/>
    <tag k="highway" v="primary"/>
    <tag k="name" v="Day Street"/>
    <tag k="oneway" v="yes"/>
  </way>
  <way id="2077135" version="1" timestamp="2007-09-26T06:24:23Z" uid="7617" user="Franc" changeset="521522">
    <nd ref="8965924"/>
    <nd ref="15395901"/>
    <nd ref="26377604"/>
    <nd ref="8965934"/>
    <tag k="created_by" v="JOSM"/>
    <tag k="highway" v="unclassified"/>
    <tag k="image" v="80n:dsc04339.jpg"/>
    <tag k="name" v="Darling Drive"/>
  </way>
  <way id="2077135" version="2" timestamp="2008-05-04T09:45:27Z" uid="30201" user="rrankin" changeset="331347">
    <nd ref="8965924"/>
    <nd ref="15395901"/>
    <nd ref="26377604"/>
    <nd ref="8965934"/>
    <tag k="created_by" v="JOSM"/>
    <tag k="highway" v="unclassified"/>
    <tag k="image" v="80n:dsc04339.jpg"/>
    <tag k="name" v="Darling Drive"/>
    <tag k="oneway" v="yes"/>
  </way>
  <way id="2077135" version="5" timestamp="2010-07-07T22:10:42Z" uid="74617" user="JohnSmith" changeset="5161069">
    <nd ref="8965924"/>
    <nd ref="651339661"/>
    <nd ref="651339591"/>
    <nd ref="15395901"/>
    <nd ref="26377604"/>
    <nd ref="651339711"/>
    <nd ref="651339713"/>
    <nd ref="8965934"/>
    <tag k="cycleway" v="lane"/>
    <tag k="highway" v="residential"/>
    <tag k="image" v="80n:dsc04339.jpg"/>
    <tag k="lcn" v="yes"/>
    <tag k="maxspeed" v="50"/>
    <tag k="maxspeed:source" v="default residential speed limit in Australia"/>
    <tag k="name" v="Darling Drive"/>
    <tag k="oneway" v="yes"/>
  </way>
  <way id="2077135" version="6" timestamp="2010-08-20T02:58:49Z" uid="4467" user="Rosscoe" changeset="5540505">
    <nd ref="8965924"/>
    <nd ref="651339661"/>
    <nd ref="651339591"/>
    <nd ref="15395901"/>
    <nd ref="26377604"/>
    <nd ref="651339711"/>
    <nd ref="651339713"/>
    <nd ref="8965934"/>
    <tag k="cycleway" v="lane"/>
    <tag k="highway" v="residential"/>
    <tag k="image" v="80n:dsc04339.jpg"/>
    <tag k="lcn" v="yes"/>
    <tag k="maxspeed" v="50"/>
    <tag k="maxspeed:source" v="default residential speed limit in Australia"/>
    <tag k="name" v="Darling Drive"/>
    <tag k="oneway" v="yes"/>
  </way>
  <way id="2077136" version="1" timestamp="2007-06-16T03:49:52Z" uid="7617" user="Franc" changeset="97737">
    <nd ref="8965934"/>
    <nd ref="13757644"/>
    <nd ref="13757647"/>
    <nd ref="13757651"/>
    <nd ref="13757639"/>
    <nd ref="13757659"/>
    <nd ref="13757638"/>
    <tag k="created_by" v="JOSM"/>
    <tag k="highway" v="unclassified"/>
    <tag k="image" v="80n:dsc04340.jpg"/>
    <tag k="name" v="Ultimo Road"/>
  </way>
  <way id="2077136" version="2" timestamp="2008-08-30T11:39:35Z" uid="7617" user="Franc" changeset="458332">
    <nd ref="8965934"/>
    <nd ref="13757644"/>
    <nd ref="13757639"/>
    <nd ref="13757659"/>
    <nd ref="13757638"/>
    <tag k="created_by" v="JOSM"/>
    <tag k="highway" v="unclassified"/>
    <tag k="image" v="80n:dsc04340.jpg"/>
    <tag k="name" v="Ultimo Road"/>
  </way>
  <way id="2077138" version="1" timestamp="2007-09-26T05:11:46Z" uid="7617" user="Franc" changeset="521522">
    <nd ref="8965936"/>
    <nd ref="33683542"/>
    <nd ref="11978568"/>
    <nd ref="18373878"/>
    <nd ref="11978586"/>
    <nd ref="18373879"/>
    <nd ref="11978587"/>
    <nd ref="624848"/>
    <nd ref="59834136"/>
    <nd ref="12501594"/>
    <nd ref="8109391"/>
    <nd ref="8965942"/>
    <nd ref="8965937"/>
    <nd ref="32901237"/>
    <nd ref="8109388"/>
    <tag k="created_by" v="Potlatch alpha"/>
    <tag k="highway" v="primary"/>
    <tag k="image" v="80n:dsc04342.jpg"/>
    <tag k="name" v="Broadway"/>
  </way>
  <way id="2077138" version="2" timestamp="2007-10-22T09:13:36Z" uid="7617" user="Franc" changeset="287076">
    <nd ref="8965936"/>
    <nd ref="33683542"/>
    <nd ref="11978568"/>
    <tag k="created_by" v="Potlatch alpha"/>
    <tag k="highway" v="primary"/>
    <tag k="image" v="80n:dsc04342.jpg"/>
    <tag k="name" v="Broadway"/>
  </way>
  <way id="2077138" version="3" timestamp="2008-03-13T05:27:01Z" uid="7617" user="Franc" changeset="313247">
    <nd ref="8965936"/>
    <nd ref="33683542"/>
    <nd ref="11978568"/>
    <tag k="created_by" v="Potlatch alpha"/>
    <tag k="highway" v="primary"/>
    <tag k="image" v="80n:dsc04342.jpg"/>
    <tag k="name" v="Broadway"/>
    <tag k="oneway" v="yes"/>
  </way>
  <way id="2077138" version="7" timestamp="2010-04-01T17:25:23Z" uid="74617" user="JohnSmith" changeset="4295913">
    <nd ref="8965936"/>
    <nd ref="33683542"/>
    <nd ref="11978568"/>
    <tag k="highway" v="primary"/>
    <tag k="image" v="80n:dsc04342.jpg"/>
    <tag k="maxspeed" v="60"/>
    <tag k="name" v="Broadway"/>
    <tag k="oneway" v="yes"/>
  </way>
  <way id="2077139" version="1" timestamp="2007-06-16T03:49:55Z" uid="7617" user="Franc" changeset="97737">
    <nd ref="8965935"/>
    <nd ref="12501619"/>
    <nd ref="12501631"/>
    <nd ref="12501960"/>
    <nd ref="26635709"/>
    <nd ref="8109369"/>
    <tag k="created_by" v="JOSM"/>
    <tag k="highway" v="secondary"/>
    <tag k="image" v="80n:dsc04341.jpg"/>
    <tag k="name" v="Harris Street"/>
  </way>
  <way id="2077139" version="2" timestamp="2007-10-16T09:24:10Z" uid="7617" user="Franc" changeset="200414">
    <nd ref="8965935"/>
    <nd ref="12501619"/>
    <nd ref="12501631"/>
    <nd ref="12501960"/>
    <nd ref="8109369"/>
    <tag k="created_by" v="JOSM"/>
    <tag k="highway" v="secondary"/>
    <tag k="image" v="80n:dsc04341.jpg"/>
    <tag k="name" v="Harris Street"/>
  </way>
  <way id="2077141" version="2" timestamp="2007-10-25T10:09:16Z" uid="7617" user="Franc" changeset="314488">
    <nd ref="8965937"/>
    <nd ref="20930653"/>
    <nd ref="8965938"/>
    <tag k="created_by" v="JOSM"/>
    <tag k="highway" v="secondary"/>
    <tag k="name" v="Regent Street"/>
    <tag k="oneway" v="yes"/>
  </way>
  <way id="2077141" version="3" timestamp="2008-09-16T08:03:13Z" uid="7617" user="Franc" changeset="648218">
    <nd ref="8965937"/>
    <nd ref="20930653"/>
    <nd ref="297424108"/>
    <nd ref="8965938"/>
    <tag k="created_by" v="JOSM"/>
    <tag k="highway" v="secondary"/>
    <tag k="name" v="Regent Street"/>
    <tag k="oneway" v="yes"/>
  </way>
  <way id="2077141" version="4" timestamp="2008-09-28T07:31:31Z" uid="7617" user="Franc" changeset="709194">
    <nd ref="8965937"/>
    <nd ref="300503139"/>
    <nd ref="20930653"/>
    <nd ref="297424108"/>
    <nd ref="8965938"/>
    <tag k="created_by" v="JOSM"/>
    <tag k="highway" v="secondary"/>
    <tag k="name" v="Regent Street"/>
    <tag k="oneway" v="yes"/>
  </way>
  <way id="2077142" version="3" timestamp="2009-12-24T10:27:53Z" uid="30201" user="rrankin" changeset="3440994">
    <nd ref="8109396"/>
    <nd ref="8965941"/>
    <tag k="highway" v="unclassified"/>
    <tag k="image" v="80n:dsc04349.jpg"/>
    <tag k="name" v="Outram Street"/>
  </way>
  <way id="2077143" version="2" timestamp="2008-09-28T07:31:33Z" uid="7617" user="Franc" changeset="709194">
    <nd ref="8965941"/>
    <nd ref="20930652"/>
    <nd ref="300503075"/>
    <nd ref="8965942"/>
    <tag k="abutters" v="residential"/>
    <tag k="created_by" v="JOSM"/>
    <tag k="highway" v="unclassified"/>
    <tag k="image" v="80n:dsc04347.jpg"/>
    <tag k="name" v="Kensington Street"/>
  </way>
  <way id="2077143" version="4" timestamp="2009-12-24T10:27:52Z" uid="30201" user="rrankin" changeset="3440994">
    <nd ref="8965941"/>
    <nd ref="20930652"/>
    <nd ref="300503075"/>
    <nd ref="8965942"/>
    <tag k="highway" v="unclassified"/>
    <tag k="image" v="80n:dsc04347.jpg"/>
    <tag k="name" v="Kensington Street"/>
  </way>
  <way id="2077144" version="2" timestamp="2008-09-08T13:32:22Z" uid="7617" user="Franc" changeset="573936">
    <nd ref="8965941"/>
    <nd ref="8965939"/>
    <tag k="created_by" v="JOSM"/>
    <tag k="highway" v="unclassified"/>
    <tag k="image" v="80n:dsc04347.jpg"/>
    <tag k="name" v="Kensington Street"/>
  </way>
  <way id="2077144" version="4" timestamp="2009-12-25T01:01:14Z" uid="30201" user="rrankin" changeset="3445791">
    <nd ref="8965941"/>
    <nd ref="599129965"/>
    <nd ref="599129966"/>
    <nd ref="8965939"/>
    <tag k="highway" v="unclassified"/>
    <tag k="image" v="80n:dsc04347.jpg"/>
    <tag k="name" v="Kensington Street"/>
  </way>
  <way id="2077145" version="1" timestamp="2007-09-09T03:09:33Z" uid="7617" user="Franc" changeset="396695">
    <nd ref="624840"/>
    <nd ref="8965966"/>
    <nd ref="8965987"/>
    <nd ref="8965965"/>
    <nd ref="8109395"/>
    <nd ref="8965964"/>
    <nd ref="13765748"/>
    <nd ref="8965980"/>
    <nd ref="8109407"/>
    <nd ref="624848"/>
    <tag k="abutters" v="mixed"/>
    <tag k="created_by" v="JOSM"/>
    <tag k="highway" v="primary"/>
    <tag k="name" v="Abercrombie Street"/>
    <tag k="oneway" v="yes"/>
  </way>
  <way id="2077145" version="2" timestamp="2008-09-28T07:31:30Z" uid="7617" user="Franc" changeset="709194">
    <nd ref="624840"/>
    <nd ref="8965966"/>
    <nd ref="8965987"/>
    <nd ref="8965965"/>
    <nd ref="8109395"/>
    <nd ref="8965964"/>
    <nd ref="13765748"/>
    <nd ref="8965980"/>
    <nd ref="8109407"/>
    <nd ref="300503068"/>
    <nd ref="624848"/>
    <tag k="abutters" v="mixed"/>
    <tag k="created_by" v="JOSM"/>
    <tag k="highway" v="primary"/>
    <tag k="name" v="Abercrombie Street"/>
    <tag k="oneway" v="yes"/>
  </way>
  <way id="2077145" version="3" timestamp="2009-01-31T03:01:27Z" uid="7617" user="Franc" changeset="857276">
    <nd ref="624840"/>
    <nd ref="339267707"/>
    <nd ref="8965966"/>
    <nd ref="8965987"/>
    <nd ref="8965965"/>
    <nd ref="8109395"/>
    <nd ref="8965964"/>
    <nd ref="13765748"/>
    <nd ref="8965980"/>
    <nd ref="8109407"/>
    <nd ref="300503068"/>
    <nd ref="624848"/>
    <tag k="abutters" v="mixed"/>
    <tag k="created_by" v="JOSM"/>
    <tag k="highway" v="primary"/>
    <tag k="name" v="Abercrombie Street"/>
    <tag k="oneway" v="yes"/>
  </way>
  <way id="2077145" version="6" timestamp="2009-12-24T10:27:49Z" uid="30201" user="rrankin" changeset="3440994">
    <nd ref="624840"/>
    <nd ref="339267707"/>
    <nd ref="8965966"/>
    <nd ref="8965987"/>
    <nd ref="8965965"/>
    <nd ref="8109395"/>
    <nd ref="8965964"/>
    <nd ref="13765748"/>
    <nd ref="8965980"/>
    <nd ref="8109407"/>
    <nd ref="300503068"/>
    <nd ref="624848"/>
    <tag k="highway" v="primary"/>
    <tag k="name" v="Abercrombie Street"/>
    <tag k="oneway" v="yes"/>
  </way>
  <way id="2077145" version="8" timestamp="2010-04-16T14:44:00Z" uid="4467" user="Rosscoe" changeset="4439323">
    <nd ref="624840"/>
    <nd ref="339267707"/>
    <nd ref="8965966"/>
    <nd ref="8965987"/>
    <nd ref="8965965"/>
    <nd ref="698742885"/>
    <nd ref="8965964"/>
    <nd ref="13765748"/>
    <nd ref="8965980"/>
    <nd ref="8109407"/>
    <nd ref="300503068"/>
    <nd ref="624848"/>
    <tag k="highway" v="primary"/>
    <tag k="maxspeed" v="50"/>
    <tag k="name" v="Abercrombie Street"/>
    <tag k="oneway" v="yes"/>
  </way>
  <way id="2077145" version="9" timestamp="2010-09-03T10:00:49Z" uid="7617" user="Franc" changeset="5669226">
    <nd ref="624840"/>
    <nd ref="339267707"/>
    <nd ref="8965966"/>
    <nd ref="8965987"/>
    <nd ref="8965965"/>
    <nd ref="698742885"/>
    <nd ref="8965964"/>
    <nd ref="13765748"/>
    <nd ref="8965980"/>
    <nd ref="8109407"/>
    <nd ref="300503068"/>
    <tag k="highway" v="primary"/>
    <tag k="maxspeed" v="50"/>
    <tag k="name" v="Abercrombie Street"/>
    <tag k="oneway" v="yes"/>
  </way>
  <way id="2077146" version="1" timestamp="2007-09-15T13:28:00Z" uid="7617" user="Franc" changeset="437118">
    <nd ref="8965944"/>
    <nd ref="52069530"/>
    <nd ref="8965977"/>
    <nd ref="17849737"/>
    <nd ref="49176837"/>
    <nd ref="8965943"/>
    <nd ref="8965936"/>
    <tag k="abutters" v="mixed"/>
    <tag k="created_by" v="Potlatch alpha"/>
    <tag k="highway" v="primary"/>
    <tag k="name" v="City Road"/>
    <tag k="oneway" v="yes"/>
  </way>
  <way id="2077146" version="2" timestamp="2008-03-13T05:27:00Z" uid="7617" user="Franc" changeset="313247">
    <nd ref="8965944"/>
    <nd ref="52069530"/>
    <nd ref="8965977"/>
    <nd ref="17849737"/>
    <nd ref="49176837"/>
    <nd ref="8965943"/>
    <nd ref="251848917"/>
    <nd ref="8965936"/>
    <tag k="abutters" v="mixed"/>
    <tag k="created_by" v="Potlatch alpha"/>
    <tag k="highway" v="primary"/>
    <tag k="name" v="City Road"/>
    <tag k="oneway" v="yes"/>
  </way>
  <way id="2077146" version="6" timestamp="2009-12-24T10:27:44Z" uid="30201" user="rrankin" changeset="3440994">
    <nd ref="8965944"/>
    <nd ref="52069530"/>
    <nd ref="8965977"/>
    <nd ref="17849737"/>
    <nd ref="49176837"/>
    <nd ref="8965943"/>
    <nd ref="515857686"/>
    <nd ref="251848917"/>
    <nd ref="8965936"/>
    <tag k="highway" v="primary"/>
    <tag k="name" v="City Road"/>
    <tag k="oneway" v="yes"/>
    <tag k="ref" v="S54"/>
  </way>
  <way id="2077146" version="8" timestamp="2010-04-01T17:17:39Z" uid="74617" user="JohnSmith" changeset="4295913">
    <nd ref="8965944"/>
    <nd ref="52069530"/>
    <nd ref="8965977"/>
    <nd ref="17849737"/>
    <nd ref="49176837"/>
    <nd ref="8965943"/>
    <nd ref="515857686"/>
    <nd ref="251848917"/>
    <nd ref="8965936"/>
    <tag k="highway" v="primary"/>
    <tag k="maxspeed" v="60"/>
    <tag k="name" v="City Road"/>
    <tag k="oneway" v="yes"/>
  </way>
  <way id="2077147" version="1" timestamp="2007-09-15T13:42:57Z" uid="7617" user="Franc" changeset="437118">
    <nd ref="8965944"/>
    <nd ref="33683546"/>
    <nd ref="52075201"/>
    <nd ref="8965946"/>
    <nd ref="17850378"/>
    <nd ref="29824064"/>
    <nd ref="18464097"/>
    <nd ref="8965985"/>
    <nd ref="26409188"/>
    <nd ref="624840"/>
    <nd ref="31481435"/>
    <nd ref="18462879"/>
    <nd ref="8965973"/>
    <nd ref="8965989"/>
    <nd ref="20954567"/>
    <nd ref="624841"/>
    <nd ref="18825549"/>
    <nd ref="624842"/>
    <nd ref="624843"/>
    <nd ref="624844"/>
    <nd ref="624845"/>
    <nd ref="18827872"/>
    <nd ref="13886572"/>
    <nd ref="18319139"/>
    <nd ref="624846"/>
    <nd ref="13886602"/>
    <nd ref="15448412"/>
    <nd ref="624849"/>
    <nd ref="624850"/>
    <nd ref="624851"/>
    <nd ref="624852"/>
    <nd ref="624853"/>
    <nd ref="624855"/>
    <tag k="created_by" v="JOSM"/>
    <tag k="highway" v="primary"/>
    <tag k="image" v="80n:dsc04351.jpg"/>
    <tag k="name" v="Cleveland Street"/>
  </way>
  <way id="2077148" version="1" timestamp="2007-06-15T08:27:58Z" uid="7617" user="Franc" changeset="96288">
    <nd ref="17849739"/>
    <nd ref="30387796"/>
    <nd ref="8965947"/>
    <nd ref="8965978"/>
    <nd ref="8965948"/>
    <tag k="created_by" v="JOSM"/>
    <tag k="highway" v="residential"/>
    <tag k="image" v="80n:dsc04352.jpg"/>
    <tag k="name" v="Rose Street"/>
  </way>
  <way id="2077148" version="2" timestamp="2007-10-31T03:44:43Z" uid="7617" user="Franc" changeset="365765">
    <nd ref="17849739"/>
    <nd ref="93290269"/>
    <nd ref="30387796"/>
    <nd ref="8965947"/>
    <nd ref="8965978"/>
    <nd ref="93290280"/>
    <nd ref="8965948"/>
    <tag k="created_by" v="JOSM"/>
    <tag k="highway" v="residential"/>
    <tag k="image" v="80n:dsc04352.jpg"/>
    <tag k="name" v="Rose Street"/>
  </way>
  <way id="2077148" version="4" timestamp="2010-07-07T22:10:16Z" uid="74617" user="JohnSmith" changeset="5161069">
    <nd ref="17849739"/>
    <nd ref="93290269"/>
    <nd ref="30387796"/>
    <nd ref="8965947"/>
    <nd ref="8965978"/>
    <nd ref="93290280"/>
    <nd ref="8965948"/>
    <tag k="highway" v="residential"/>
    <tag k="image" v="80n:dsc04352.jpg"/>
    <tag k="maxspeed" v="50"/>
    <tag k="maxspeed:source" v="default residential speed limit in Australia"/>
    <tag k="name" v="Rose Street"/>
  </way>
  <way id="2077149" version="1" timestamp="2007-06-15T08:46:03Z" uid="7617" user="Franc" changeset="96288">
    <nd ref="17849734"/>
    <nd ref="30387797"/>
    <nd ref="18464343"/>
    <nd ref="8965948"/>
    <nd ref="8965950"/>
    <nd ref="8965951"/>
    <tag k="created_by" v="Potlatch alpha"/>
    <tag k="highway" v="residential"/>
    <tag k="image" v="80n:dsc04353.jpg"/>
    <tag k="name" v="Shepherd Street"/>
  </way>
  <way id="2077149" version="5" timestamp="2010-04-25T07:08:06Z" uid="7617" user="Franc" changeset="4518185">
    <nd ref="17849734"/>
    <nd ref="30387797"/>
    <nd ref="705792119"/>
    <nd ref="18464343"/>
    <nd ref="8965948"/>
    <tag k="highway" v="residential"/>
    <tag k="image" v="80n:dsc04353.jpg"/>
    <tag k="name" v="Shepherd Street"/>
  </way>
  <way id="2077149" version="6" timestamp="2010-07-07T22:11:32Z" uid="74617" user="JohnSmith" changeset="5161069">
    <nd ref="17849734"/>
    <nd ref="30387797"/>
    <nd ref="705792119"/>
    <nd ref="18464343"/>
    <nd ref="8965948"/>
    <tag k="highway" v="residential"/>
    <tag k="image" v="80n:dsc04353.jpg"/>
    <tag k="maxspeed" v="50"/>
    <tag k="maxspeed:source" v="default residential speed limit in Australia"/>
    <tag k="name" v="Shepherd Street"/>
  </way>
  <way id="2077150" version="1" timestamp="2007-09-15T13:28:02Z" uid="7617" user="Franc" changeset="437118">
    <nd ref="8965950"/>
    <nd ref="33683543"/>
    <tag k="created_by" v="Potlatch alpha"/>
    <tag k="highway" v="residential"/>
    <tag k="image" v="80n:dsc04353.jpg"/>
    <tag k="name" v="Knox Street"/>
  </way>
  <way id="2077150" version="2" timestamp="2007-10-22T09:25:29Z" uid="7617" user="Franc" changeset="287076">
    <nd ref="8965950"/>
    <nd ref="33683543"/>
    <tag k="created_by" v="Potlatch alpha"/>
    <tag k="highway" v="residential"/>
    <tag k="image" v="80n:dsc04353.jpg"/>
    <tag k="name" v="Knox Street"/>
    <tag k="oneway" v="yes"/>
  </way>
  <way id="2077150" version="5" timestamp="2010-04-25T07:08:06Z" uid="7617" user="Franc" changeset="4518185">
    <nd ref="8965950"/>
    <nd ref="705792121"/>
    <nd ref="705792117"/>
    <nd ref="33683543"/>
    <tag k="access" v="destination"/>
    <tag k="highway" v="residential"/>
    <tag k="image" v="80n:dsc04353.jpg"/>
    <tag k="maxspeed" v="40"/>
    <tag k="name" v="Knox Street"/>
    <tag k="oneway" v="yes"/>
  </way>
  <way id="2077150" version="6" timestamp="2010-06-24T10:32:06Z" uid="7617" user="Franc" changeset="5065038">
    <nd ref="8965950"/>
    <nd ref="705792121"/>
    <nd ref="705792117"/>
    <nd ref="33683543"/>
    <tag k="highway" v="residential"/>
    <tag k="image" v="80n:dsc04353.jpg"/>
    <tag k="maxspeed" v="40"/>
    <tag k="name" v="Knox Street"/>
    <tag k="oneway" v="yes"/>
  </way>
  <way id="2077151" version="1" timestamp="2007-06-15T08:52:18Z" uid="7617" user="Franc" changeset="96288">
    <nd ref="8965950"/>
    <nd ref="30387965"/>
    <nd ref="8965952"/>
    <tag k="created_by" v="Potlatch alpha"/>
    <tag k="highway" v="residential"/>
    <tag k="image" v="80n:dsc04354.jpg"/>
    <tag k="name" v="Grafton Street"/>
  </way>
  <way id="2077151" version="4" timestamp="2010-04-25T07:08:06Z" uid="7617" user="Franc" changeset="4518185">
    <nd ref="8965950"/>
    <nd ref="705792123"/>
    <nd ref="30387965"/>
    <nd ref="8965952"/>
    <tag k="access" v="destination"/>
    <tag k="highway" v="residential"/>
    <tag k="image" v="80n:dsc04354.jpg"/>
    <tag k="maxspeed" v="40"/>
    <tag k="name" v="Grafton Street"/>
  </way>
  <way id="2077151" version="5" timestamp="2010-06-24T10:32:05Z" uid="7617" user="Franc" changeset="5065038">
    <nd ref="8965950"/>
    <nd ref="705792123"/>
    <nd ref="30387965"/>
    <nd ref="8965952"/>
    <tag k="highway" v="residential"/>
    <tag k="image" v="80n:dsc04354.jpg"/>
    <tag k="maxspeed" v="40"/>
    <tag k="name" v="Grafton Street"/>
  </way>
  <way id="2077152" version="1" timestamp="2007-09-15T13:19:08Z" uid="7617" user="Franc" changeset="437118">
    <nd ref="18373879"/>
    <nd ref="8965952"/>
    <nd ref="8965954"/>
    <nd ref="18464349"/>
    <nd ref="8965955"/>
    <nd ref="8965958"/>
    <nd ref="8965959"/>
    <tag k="created_by" v="Potlatch alpha"/>
    <tag k="highway" v="residential"/>
    <tag k="image" v="80n:dsc04355.jpg"/>
    <tag k="name" v="Buckland Street"/>
  </way>
  <way id="2077152" version="3" timestamp="2008-08-21T12:21:59Z" uid="7617" user="Franc" changeset="355023">
    <nd ref="18373879"/>
    <nd ref="8965952"/>
    <nd ref="8965954"/>
    <nd ref="18464349"/>
    <nd ref="8965955"/>
    <nd ref="8965958"/>
    <nd ref="8965959"/>
    <tag k="created_by" v="Potlatch alpha"/>
    <tag k="highway" v="residential"/>
    <tag k="image" v="80n:dsc04355.jpg"/>
    <tag k="name" v="Buckland Street"/>
  </way>
  <way id="2077152" version="4" timestamp="2008-09-28T07:31:40Z" uid="7617" user="Franc" changeset="709194"/>
  <way id="2077153" version="1" timestamp="2007-06-15T08:52:37Z" uid="7617" user="Franc" changeset="96288">
    <nd ref="8965954"/>
    <nd ref="8965979"/>
    <nd ref="8109407"/>
    <tag k="created_by" v="Potlatch alpha"/>
    <tag k="highway" v="residential"/>
    <tag k="image" v="80n:dsc04356.jpg"/>
    <tag k="name" v="Blackfriars Street"/>
  </way>
  <way id="2077153" version="5" timestamp="2010-07-07T22:10:43Z" uid="74617" user="JohnSmith" changeset="5161069">
    <nd ref="8965954"/>
    <nd ref="8965979"/>
    <nd ref="331135148"/>
    <nd ref="8109407"/>
    <tag k="highway" v="residential"/>
    <tag k="image" v="80n:dsc04356.jpg"/>
    <tag k="maxspeed" v="50"/>
    <tag k="maxspeed:source" v="default residential speed limit in Australia"/>
    <tag k="name" v="Blackfriars Street"/>
    <tag k="source" v="survey"/>
  </way>
  <way id="2077154" version="1" timestamp="2007-06-15T08:47:27Z" uid="7617" user="Franc" changeset="96288">
    <nd ref="8965955"/>
    <nd ref="8965956"/>
    <nd ref="8965980"/>
    <tag k="created_by" v="Potlatch alpha"/>
    <tag k="highway" v="residential"/>
    <tag k="image" v="80n:dsc04358.jpg"/>
    <tag k="name" v="O&apos;Connor Street"/>
  </way>
  <way id="2077154" version="3" timestamp="2010-07-07T22:11:18Z" uid="74617" user="JohnSmith" changeset="5161069">
    <nd ref="8965955"/>
    <nd ref="8965956"/>
    <nd ref="8965980"/>
    <tag k="highway" v="residential"/>
    <tag k="image" v="80n:dsc04358.jpg"/>
    <tag k="maxspeed" v="50"/>
    <tag k="maxspeed:source" v="default residential speed limit in Australia"/>
    <tag k="name" v="O&apos;Connor Street"/>
  </way>
  <way id="2077155" version="1" timestamp="2007-09-15T13:19:07Z" uid="7617" user="Franc" changeset="437118">
    <nd ref="8965956"/>
    <nd ref="52065628"/>
    <nd ref="8965957"/>
    <tag k="created_by" v="JOSM"/>
    <tag k="highway" v="residential"/>
    <tag k="image" v="80n:dsc04359.jpg"/>
    <tag k="name" v="Smithers Street"/>
  </way>
  <way id="2077155" version="3" timestamp="2010-07-07T22:10:23Z" uid="74617" user="JohnSmith" changeset="5161069">
    <nd ref="8965956"/>
    <nd ref="52065628"/>
    <nd ref="8965957"/>
    <tag k="highway" v="residential"/>
    <tag k="image" v="80n:dsc04359.jpg"/>
    <tag k="maxspeed" v="50"/>
    <tag k="maxspeed:source" v="default residential speed limit in Australia"/>
    <tag k="name" v="Smithers Street"/>
  </way>
  <way id="2077156" version="1" timestamp="2007-06-15T08:47:27Z" uid="7617" user="Franc" changeset="96288">
    <nd ref="8965957"/>
    <nd ref="8965981"/>
    <nd ref="8965958"/>
    <tag k="created_by" v="Potlatch alpha"/>
    <tag k="highway" v="residential"/>
    <tag k="image" v="80n:dsc04360.jpg"/>
    <tag k="name" v="Levey Street"/>
  </way>
  <way id="2077156" version="3" timestamp="2010-07-07T22:10:07Z" uid="74617" user="JohnSmith" changeset="5161069">
    <nd ref="8965957"/>
    <nd ref="8965981"/>
    <nd ref="8965958"/>
    <tag k="highway" v="residential"/>
    <tag k="image" v="80n:dsc04360.jpg"/>
    <tag k="maxspeed" v="50"/>
    <tag k="maxspeed:source" v="default residential speed limit in Australia"/>
    <tag k="name" v="Levey Street"/>
  </way>
  <way id="2077157" version="3" timestamp="2010-04-16T14:44:00Z" uid="4467" user="Rosscoe" changeset="4439323">
    <nd ref="8965959"/>
    <nd ref="8965960"/>
    <nd ref="8965962"/>
    <nd ref="698742885"/>
    <tag k="highway" v="residential"/>
    <tag k="image" v="80n:dsc04361.jpg"/>
    <tag k="name" v="Myrtle Street"/>
  </way>
  <way id="2077157" version="4" timestamp="2010-04-25T07:08:06Z" uid="7617" user="Franc" changeset="4518185">
    <nd ref="8965959"/>
    <nd ref="705792099"/>
    <nd ref="705792100"/>
    <nd ref="8965960"/>
    <nd ref="8965962"/>
    <nd ref="698742885"/>
    <tag k="highway" v="residential"/>
    <tag k="image" v="80n:dsc04361.jpg"/>
    <tag k="name" v="Myrtle Street"/>
  </way>
  <way id="2077157" version="5" timestamp="2010-07-07T22:11:22Z" uid="74617" user="JohnSmith" changeset="5161069">
    <nd ref="8965959"/>
    <nd ref="705792099"/>
    <nd ref="705792100"/>
    <nd ref="8965960"/>
    <nd ref="8965962"/>
    <nd ref="698742885"/>
    <tag k="highway" v="residential"/>
    <tag k="image" v="80n:dsc04361.jpg"/>
    <tag k="maxspeed" v="50"/>
    <tag k="maxspeed:source" v="default residential speed limit in Australia"/>
    <tag k="name" v="Myrtle Street"/>
  </way>
  <way id="2077158" version="1" timestamp="2007-09-15T13:19:10Z" uid="7617" user="Franc" changeset="437118">
    <nd ref="8965963"/>
    <nd ref="8965984"/>
    <nd ref="52065621"/>
    <nd ref="8965964"/>
    <tag k="created_by" v="JOSM"/>
    <tag k="highway" v="residential"/>
    <tag k="image" v="80n:dsc04362.jpg"/>
    <tag k="name" v="Levey Street"/>
  </way>
  <way id="2077158" version="3" timestamp="2010-04-16T14:44:01Z" uid="4467" user="Rosscoe" changeset="4439323">
    <nd ref="8965963"/>
    <nd ref="8965984"/>
    <nd ref="8965964"/>
    <tag k="highway" v="residential"/>
    <tag k="image" v="80n:dsc04362.jpg"/>
    <tag k="name" v="Levey Street"/>
  </way>
  <way id="2077158" version="4" timestamp="2010-07-07T22:09:45Z" uid="74617" user="JohnSmith" changeset="5161069">
    <nd ref="8965963"/>
    <nd ref="8965984"/>
    <nd ref="8965964"/>
    <tag k="highway" v="residential"/>
    <tag k="image" v="80n:dsc04362.jpg"/>
    <tag k="maxspeed" v="50"/>
    <tag k="maxspeed:source" v="default residential speed limit in Australia"/>
    <tag k="name" v="Levey Street"/>
  </way>
  <way id="2077160" version="1" timestamp="2007-09-15T13:19:05Z" uid="7617" user="Franc" changeset="437118">
    <nd ref="8965962"/>
    <nd ref="52065614"/>
    <nd ref="8965963"/>
    <tag k="created_by" v="JOSM"/>
    <tag k="highway" v="residential"/>
    <tag k="image" v="80n:dsc04363.jpg"/>
    <tag k="name" v="Smithers Street"/>
  </way>
  <way id="2077160" version="3" timestamp="2010-04-16T14:44:00Z" uid="4467" user="Rosscoe" changeset="4439323">
    <nd ref="8965962"/>
    <nd ref="8965963"/>
    <tag k="highway" v="residential"/>
    <tag k="image" v="80n:dsc04363.jpg"/>
    <tag k="name" v="Smithers Street"/>
  </way>
  <way id="2077160" version="4" timestamp="2010-07-07T22:10:19Z" uid="74617" user="JohnSmith" changeset="5161069">
    <nd ref="8965962"/>
    <nd ref="8965963"/>
    <tag k="highway" v="residential"/>
    <tag k="image" v="80n:dsc04363.jpg"/>
    <tag k="maxspeed" v="50"/>
    <tag k="maxspeed:source" v="default residential speed limit in Australia"/>
    <tag k="name" v="Smithers Street"/>
  </way>
  <way id="2077162" version="3" timestamp="2010-07-07T22:09:56Z" uid="74617" user="JohnSmith" changeset="5161069">
    <nd ref="8965960"/>
    <nd ref="8965986"/>
    <nd ref="8965961"/>
    <nd ref="8965985"/>
    <tag k="highway" v="residential"/>
    <tag k="image" v="80n:dsc04365.jpg"/>
    <tag k="maxspeed" v="50"/>
    <tag k="maxspeed:source" v="default residential speed limit in Australia"/>
    <tag k="name" v="Wiley Street"/>
  </way>
  <way id="2077163" version="3" timestamp="2010-07-07T22:11:14Z" uid="74617" user="JohnSmith" changeset="5161069">
    <nd ref="8965986"/>
    <nd ref="8965987"/>
    <tag k="highway" v="residential"/>
    <tag k="image" v="80n:dsc04357.jpg"/>
    <tag k="maxspeed" v="50"/>
    <tag k="maxspeed:source" v="default residential speed limit in Australia"/>
    <tag k="name" v="Dangar Place"/>
  </way>
  <way id="2077164" version="3" timestamp="2010-07-07T22:11:00Z" uid="74617" user="JohnSmith" changeset="5161069">
    <nd ref="8965961"/>
    <nd ref="8965966"/>
    <tag k="highway" v="residential"/>
    <tag k="image" v="80n:dsc04367.jpg"/>
    <tag k="maxspeed" v="50"/>
    <tag k="maxspeed:source" v="default residential speed limit in Australia"/>
    <tag k="name" v="Dangar Street"/>
  </way>
  <way id="2077165" version="4" timestamp="2010-04-16T14:39:54Z" uid="4467" user="Rosscoe" changeset="4439300">
    <nd ref="8109395"/>
    <nd ref="698739391"/>
    <tag k="highway" v="residential"/>
    <tag k="image" v="80n:dsc04371.jpg"/>
    <tag k="name" v="Meagher Street"/>
  </way>
  <way id="2077165" version="5" timestamp="2010-04-16T14:44:00Z" uid="4467" user="Rosscoe" changeset="4439323">
    <nd ref="8965965"/>
    <nd ref="698739391"/>
    <tag k="highway" v="residential"/>
    <tag k="image" v="80n:dsc04371.jpg"/>
    <tag k="name" v="Meagher Street"/>
  </way>
  <way id="2077165" version="6" timestamp="2010-07-07T22:10:01Z" uid="74617" user="JohnSmith" changeset="5161069">
    <nd ref="8965965"/>
    <nd ref="698739391"/>
    <tag k="highway" v="residential"/>
    <tag k="image" v="80n:dsc04371.jpg"/>
    <tag k="maxspeed" v="50"/>
    <tag k="maxspeed:source" v="default residential speed limit in Australia"/>
    <tag k="name" v="Meagher Street"/>
  </way>
  <way id="2077167" version="4" timestamp="2010-04-16T14:39:55Z" uid="4467" user="Rosscoe" changeset="4439300">
    <nd ref="698739394"/>
    <nd ref="8965969"/>
    <nd ref="8109392"/>
    <tag k="highway" v="residential"/>
    <tag k="name" v="Meagher Street"/>
  </way>
  <way id="2077167" version="5" timestamp="2010-04-16T14:44:00Z" uid="4467" user="Rosscoe" changeset="4439323">
    <nd ref="698739394"/>
    <nd ref="698742883"/>
    <nd ref="8965969"/>
    <nd ref="8109392"/>
    <tag k="highway" v="residential"/>
    <tag k="name" v="Meagher Street"/>
  </way>
  <way id="2077167" version="6" timestamp="2010-07-07T22:09:39Z" uid="74617" user="JohnSmith" changeset="5161069">
    <nd ref="698739394"/>
    <nd ref="698742883"/>
    <nd ref="8965969"/>
    <nd ref="8109392"/>
    <tag k="highway" v="residential"/>
    <tag k="maxspeed" v="50"/>
    <tag k="maxspeed:source" v="default residential speed limit in Australia"/>
    <tag k="name" v="Meagher Street"/>
  </way>
  <way id="2077167" version="7" timestamp="2011-03-13T15:21:19Z" uid="4467" user="Rosscoe" changeset="7546162">
    <nd ref="698739394"/>
    <nd ref="698742883"/>
    <nd ref="8965969"/>
    <nd ref="8109392"/>
    <tag k="highway" v="residential"/>
    <tag k="maxspeed" v="50"/>
    <tag k="name" v="Meagher Street"/>
    <tag k="source:maxspeed" v="default residential speed limit in Australia"/>
  </way>
  <way id="2077168" version="4" timestamp="2010-04-16T14:39:55Z" uid="4467" user="Rosscoe" changeset="4439300">
    <nd ref="698739398"/>
    <nd ref="8965971"/>
    <nd ref="8965972"/>
    <tag k="highway" v="residential"/>
    <tag k="name" v="Balfour Street"/>
  </way>
  <way id="2077168" version="5" timestamp="2010-07-07T22:09:55Z" uid="74617" user="JohnSmith" changeset="5161069">
    <nd ref="698739398"/>
    <nd ref="8965971"/>
    <nd ref="8965972"/>
    <tag k="highway" v="residential"/>
    <tag k="maxspeed" v="50"/>
    <tag k="maxspeed:source" v="default residential speed limit in Australia"/>
    <tag k="name" v="Balfour Street"/>
  </way>
  <way id="2077169" version="3" timestamp="2010-07-07T22:11:13Z" uid="74617" user="JohnSmith" changeset="5161069">
    <nd ref="8965971"/>
    <nd ref="8965966"/>
    <tag k="highway" v="residential"/>
    <tag k="image" v="80n:dsc04373.jpg"/>
    <tag k="maxspeed" v="50"/>
    <tag k="maxspeed:source" v="default residential speed limit in Australia"/>
    <tag k="name" v="Bartley Street"/>
  </way>
  <way id="2077172" version="1" timestamp="2007-09-26T05:15:11Z" uid="7617" user="Franc" changeset="521522">
    <nd ref="26359191"/>
    <nd ref="8320620"/>
    <nd ref="8320622"/>
    <nd ref="8320619"/>
    <nd ref="8320617"/>
    <nd ref="8320614"/>
    <nd ref="8320611"/>
    <tag k="created_by" v="Potlatch alpha"/>
    <tag k="highway" v="motorway"/>
    <tag k="layer" v="1"/>
    <tag k="name" v="Bradfield Higway"/>
    <tag k="oneway" v="yes"/>
    <tag k="ref" v="MR2"/>
  </way>
  <way id="2077172" version="6" timestamp="2009-08-16T05:56:59Z" uid="4467" user="Rosscoe" changeset="2160391">
    <nd ref="26359191"/>
    <nd ref="244967412"/>
    <nd ref="8320620"/>
    <tag k="highway" v="motorway"/>
    <tag k="layer" v="1"/>
    <tag k="name" v="Bradfield Highway"/>
    <tag k="oneway" v="yes"/>
  </way>
  <way id="2077174" version="2" timestamp="2008-05-03T23:49:56Z" uid="30201" user="rrankin" changeset="326090">
    <nd ref="8099392"/>
    <nd ref="262067117"/>
    <tag k="created_by" v="JOSM"/>
    <tag k="highway" v="footway"/>
  </way>
  <way id="2077175" version="1" timestamp="2007-09-26T05:38:51Z" uid="7617" user="Franc" changeset="521522">
    <nd ref="13764193"/>
    <nd ref="20930476"/>
    <nd ref="8109411"/>
    <nd ref="8109410"/>
    <nd ref="8965995"/>
    <tag k="abutters" v="mixed"/>
    <tag k="created_by" v="JOSM"/>
    <tag k="highway" v="unclassified"/>
    <tag k="name" v="Liverpool Street"/>
  </way>
  <way id="2077175" version="3" timestamp="2008-08-31T08:18:19Z" uid="7617" user="Franc" changeset="469164">
    <nd ref="13764193"/>
    <nd ref="20930476"/>
    <nd ref="292464145"/>
    <nd ref="8109411"/>
    <nd ref="8109410"/>
    <nd ref="8965995"/>
    <tag k="abutters" v="mixed"/>
    <tag k="created_by" v="JOSM"/>
    <tag k="highway" v="unclassified"/>
    <tag k="name" v="Liverpool Street"/>
    <tag k="oneway" v="yes"/>
    <tag k="source" v="survey"/>
  </way>
  <way id="2077175" version="5" timestamp="2009-12-24T10:27:57Z" uid="30201" user="rrankin" changeset="3440994">
    <nd ref="13764193"/>
    <nd ref="20930476"/>
    <nd ref="292464145"/>
    <nd ref="8109411"/>
    <nd ref="8109410"/>
    <nd ref="8965995"/>
    <tag k="highway" v="unclassified"/>
    <tag k="name" v="Liverpool Street"/>
    <tag k="oneway" v="yes"/>
    <tag k="source" v="survey"/>
  </way>
  <way id="2077175" version="6" timestamp="2010-03-01T07:37:43Z" uid="7617" user="Franc" changeset="4006279">
    <nd ref="13764193"/>
    <nd ref="20930476"/>
    <nd ref="292464145"/>
    <nd ref="8109411"/>
    <nd ref="8109410"/>
    <nd ref="8965995"/>
    <nd ref="657757335"/>
    <tag k="highway" v="unclassified"/>
    <tag k="name" v="Liverpool Street"/>
    <tag k="oneway" v="yes"/>
    <tag k="source" v="survey"/>
  </way>
  <way id="2077176" version="1" timestamp="2007-08-02T14:00:49Z" uid="7617" user="Franc" changeset="184646">
    <nd ref="624848"/>
    <nd ref="32901238"/>
    <nd ref="11978590"/>
    <nd ref="12501973"/>
    <nd ref="624847"/>
    <nd ref="12501633"/>
    <nd ref="11978585"/>
    <nd ref="11978612"/>
    <nd ref="624838"/>
    <nd ref="11978614"/>
    <nd ref="12501991"/>
    <nd ref="12501976"/>
    <nd ref="13100739"/>
    <nd ref="11978198"/>
    <tag k="abutters" v="mixed"/>
    <tag k="created_by" v="Potlatch alpha"/>
    <tag k="highway" v="primary"/>
    <tag k="name" v="Wattle Street"/>
    <tag k="oneway" v="yes"/>
  </way>
  <way id="2077176" version="2" timestamp="2007-10-16T09:15:37Z" uid="7617" user="Franc" changeset="200414">
    <nd ref="624848"/>
    <nd ref="32901238"/>
    <nd ref="11978590"/>
    <nd ref="12501973"/>
    <nd ref="624847"/>
    <nd ref="12501633"/>
    <nd ref="11978585"/>
    <nd ref="11978612"/>
    <nd ref="11978614"/>
    <nd ref="12501991"/>
    <nd ref="12501976"/>
    <nd ref="13100739"/>
    <nd ref="11978198"/>
    <tag k="abutters" v="mixed"/>
    <tag k="created_by" v="Potlatch alpha"/>
    <tag k="highway" v="primary"/>
    <tag k="name" v="Wattle Street"/>
    <tag k="oneway" v="yes"/>
  </way>
  <way id="2077176" version="3" timestamp="2007-10-24T10:57:45Z" uid="7617" user="Franc" changeset="301482">
    <nd ref="624848"/>
    <nd ref="32901238"/>
    <nd ref="11978590"/>
    <nd ref="12501973"/>
    <nd ref="624847"/>
    <nd ref="12501633"/>
    <nd ref="11978585"/>
    <nd ref="11978612"/>
    <nd ref="11978614"/>
    <nd ref="12501991"/>
    <nd ref="12501976"/>
    <nd ref="13100739"/>
    <nd ref="85630798"/>
    <nd ref="85630816"/>
    <nd ref="11978198"/>
    <tag k="abutters" v="mixed"/>
    <tag k="created_by" v="Potlatch alpha"/>
    <tag k="highway" v="primary"/>
    <tag k="name" v="Wattle Street"/>
    <tag k="oneway" v="yes"/>
  </way>
  <way id="2077176" version="4" timestamp="2008-09-08T13:21:02Z" uid="7617" user="Franc" changeset="573936">
    <nd ref="624848"/>
    <nd ref="32901238"/>
    <nd ref="11978590"/>
    <nd ref="12501973"/>
    <nd ref="624847"/>
    <nd ref="12501633"/>
    <nd ref="11978585"/>
    <nd ref="11978612"/>
    <nd ref="11978614"/>
    <nd ref="12501991"/>
    <nd ref="12501976"/>
    <tag k="abutters" v="mixed"/>
    <tag k="created_by" v="Potlatch alpha"/>
    <tag k="highway" v="primary"/>
    <tag k="name" v="Wattle Street"/>
    <tag k="oneway" v="yes"/>
  </way>
  <way id="2077176" version="6" timestamp="2009-08-26T18:52:52Z" uid="7617" user="Franc" changeset="2270849">
    <nd ref="624848"/>
    <nd ref="11978590"/>
    <nd ref="12501973"/>
    <nd ref="624847"/>
    <nd ref="12501633"/>
    <nd ref="11978585"/>
    <nd ref="11978612"/>
    <nd ref="11978614"/>
    <nd ref="12501991"/>
    <nd ref="12501976"/>
    <tag k="abutters" v="mixed"/>
    <tag k="created_by" v="Potlatch alpha"/>
    <tag k="highway" v="primary"/>
    <tag k="name" v="Wattle Street"/>
    <tag k="oneway" v="yes"/>
    <tag k="source" v="survey"/>
  </way>
  <way id="2077176" version="8" timestamp="2009-12-24T10:27:42Z" uid="30201" user="rrankin" changeset="3440994">
    <nd ref="624848"/>
    <nd ref="11978590"/>
    <nd ref="12501973"/>
    <nd ref="624847"/>
    <nd ref="12501633"/>
    <nd ref="11978585"/>
    <nd ref="11978612"/>
    <nd ref="11978614"/>
    <nd ref="12501991"/>
    <nd ref="12501976"/>
    <tag k="highway" v="primary"/>
    <tag k="name" v="Wattle Street"/>
    <tag k="oneway" v="yes"/>
    <tag k="source" v="survey"/>
  </way>
  <way id="2077176" version="11" timestamp="2011-05-04T10:25:40Z" uid="7617" user="Franc" changeset="8047572">
    <nd ref="624848"/>
    <nd ref="11978590"/>
    <nd ref="12501973"/>
    <nd ref="624847"/>
    <nd ref="669404491"/>
    <nd ref="11978585"/>
    <nd ref="11978612"/>
    <tag k="highway" v="primary"/>
    <tag k="maxspeed" v="50"/>
    <tag k="name" v="Wattle Street"/>
    <tag k="oneway" v="yes"/>
    <tag k="source" v="survey"/>
  </way>
</osm>
