<?xml version='1.0' encoding='UTF-8'?>
<osm version="0.6" generator="libosmium/2.20.0">
  <way id="21357055" version="2" timestamp="2010-07-03T21:56:21Z" uid="7617" user="Franc" changeset="5128435">
    <nd ref="229706304"/>
    <nd ref="799683086"/>
    <nd ref="229706959"/>
    <tag k="highway" v="residential"/>
    <tag k="name" v="Connelly Street"/>
  </way>
  <way id="21357055" version="3" timestamp="2010-07-08T02:10:50Z" uid="74617" user="JohnSmith" changeset="5162525">
    <nd ref="229706304"/>
    <nd ref="799683086"/>
    <nd ref="229706959"/>
    <tag k="highway" v="residential"/>
    <tag k="maxspeed" v="50"/>
    <tag k="maxspeed:source" v="default residential speed limit in Australia"/>
    <tag k="name" v="Connelly Street"/>
  </way>
  <way id="21357119" version="5" timestamp="2010-07-08T02:08:41Z" uid="74617" user="JohnSmith" changeset="5162525">
    <nd ref="229702730"/>
    <nd ref="229711764"/>
    <nd ref="229710926"/>
    <nd ref="229707724"/>
    <tag k="highway" v="residential"/>
    <tag k="maxspeed" v="50"/>
    <tag k="maxspeed:source" v="default residential speed limit in Australia"/>
    <tag k="name" v="Penshurst Street"/>
    <tag k="source" v="survey"/>
  </way>
  <way id="21357200" version="5" timestamp="2009-07-25T10:58:28Z" uid="74617" user="JohnSmith" changeset="1933044"/>
  <way id="21357505" version="4" timestamp="2010-07-03T21:56:21Z" uid="7617" user="Franc" changeset="5128435">
    <nd ref="229710926"/>
    <nd ref="799683081"/>
    <nd ref="229714003"/>
    <tag k="highway" v="residential"/>
    <tag k="name" v="Austral Street"/>
    <tag k="restriction" v="school_zone"/>
  </way>
  <way id="21357505" version="5" timestamp="2010-07-08T02:09:59Z" uid="74617" user="JohnSmith" changeset="5162525">
    <nd ref="229710926"/>
    <nd ref="799683081"/>
    <nd ref="229714003"/>
    <tag k="highway" v="residential"/>
    <tag k="maxspeed" v="50"/>
    <tag k="maxspeed:source" v="default residential speed limit in Australia"/>
    <tag k="name" v="Austral Street"/>
    <tag k="restriction" v="school_zone"/>
  </way>
  <way id="21357635" version="6" timestamp="2010-07-03T21:56:15Z" uid="7617" user="Franc" changeset="5128435">
    <nd ref="229711764"/>
    <nd ref="799683057"/>
    <nd ref="229713063"/>
    <nd ref="229713064"/>
    <nd ref="241438666"/>
    <nd ref="229713066"/>
    <nd ref="241440329"/>
    <nd ref="241454301"/>
    <nd ref="241454258"/>
    <nd ref="229713067"/>
    <tag k="highway" v="residential"/>
    <tag k="name" v="Victoria Avenue"/>
  </way>
  <way id="21357635" version="7" timestamp="2010-07-08T02:08:10Z" uid="74617" user="JohnSmith" changeset="5162525">
    <nd ref="229711764"/>
    <nd ref="799683057"/>
    <nd ref="229713063"/>
    <nd ref="229713064"/>
    <nd ref="241438666"/>
    <nd ref="229713066"/>
    <nd ref="241440329"/>
    <nd ref="241454301"/>
    <nd ref="241454258"/>
    <nd ref="229713067"/>
    <tag k="highway" v="residential"/>
    <tag k="maxspeed" v="50"/>
    <tag k="maxspeed:source" v="default residential speed limit in Australia"/>
    <tag k="name" v="Victoria Avenue"/>
  </way>
  <way id="21357635" version="9" timestamp="2011-06-04T10:02:29Z" uid="7617" user="Franc" changeset="8337628">
    <nd ref="229711764"/>
    <nd ref="1207989063"/>
    <nd ref="799683057"/>
    <nd ref="229713063"/>
    <nd ref="229713064"/>
    <nd ref="241438666"/>
    <nd ref="229713066"/>
    <nd ref="241440329"/>
    <nd ref="241454301"/>
    <nd ref="241454258"/>
    <nd ref="1311675234"/>
    <nd ref="1311675286"/>
    <nd ref="229713067"/>
    <tag k="highway" v="residential"/>
    <tag k="maxspeed" v="50"/>
    <tag k="maxspeed:source" v="default residential speed limit in Australia"/>
    <tag k="name" v="Victoria Avenue"/>
  </way>
  <way id="21357735" version="2" timestamp="2010-07-03T21:56:19Z" uid="7617" user="Franc" changeset="5128435">
    <nd ref="229713871"/>
    <nd ref="799683066"/>
    <nd ref="799683063"/>
    <nd ref="229713874"/>
    <nd ref="229713877"/>
    <nd ref="229713879"/>
    <nd ref="229713871"/>
    <tag k="amenity" v="school"/>
    <tag k="name" v="Penshurst Girls High"/>
  </way>
  <way id="21357735" version="3" timestamp="2011-04-06T09:29:28Z" uid="7617" user="Franc" changeset="7782926">
    <nd ref="229713871"/>
    <nd ref="799683066"/>
    <nd ref="799683063"/>
    <nd ref="1234570492"/>
    <nd ref="1234570517"/>
    <nd ref="1234570382"/>
    <nd ref="1234570520"/>
    <nd ref="229713874"/>
    <nd ref="229713877"/>
    <nd ref="229713879"/>
    <nd ref="229713871"/>
    <tag k="amenity" v="school"/>
    <tag k="name" v="Penshurst Girls High"/>
  </way>
  <way id="21357780" version="2" timestamp="2010-07-03T21:56:21Z" uid="7617" user="Franc" changeset="5128435">
    <nd ref="229714003"/>
    <nd ref="799683090"/>
    <nd ref="799683094"/>
    <tag k="highway" v="residential"/>
    <tag k="name" v="St Georges Road"/>
    <tag k="restriction" v="school_zone"/>
  </way>
  <way id="21357780" version="3" timestamp="2010-07-08T02:09:14Z" uid="74617" user="JohnSmith" changeset="5162525">
    <nd ref="229714003"/>
    <nd ref="799683090"/>
    <nd ref="799683094"/>
    <tag k="highway" v="residential"/>
    <tag k="maxspeed" v="50"/>
    <tag k="maxspeed:source" v="default residential speed limit in Australia"/>
    <tag k="name" v="St Georges Road"/>
    <tag k="restriction" v="school_zone"/>
  </way>
  <way id="21357847" version="2" timestamp="2009-07-05T06:47:45Z" uid="74617" user="JohnSmith" changeset="1736063">
    <nd ref="229715437"/>
    <nd ref="229715441"/>
    <nd ref="229715445"/>
    <nd ref="229715452"/>
    <nd ref="229715459"/>
    <tag k="highway" v="residential"/>
    <tag k="name" v="Littleleaf Lane"/>
    <tag k="tiger:cfcc" v="A41"/>
    <tag k="tiger:county" v="Franklin, OH"/>
    <tag k="tiger:name_base" v="Littleleaf"/>
    <tag k="tiger:name_type" v="Ln"/>
    <tag k="tiger:reviewed" v="no"/>
    <tag k="tiger:separated" v="no"/>
    <tag k="tiger:source" v="tiger_import_dch_v0.6_20070829"/>
    <tag k="tiger:tlid" v="218661770"/>
    <tag k="tiger:upload_uuid" v="bulk_upload.pl-63d753e0-2788-4f03-843e-cac54639c014"/>
    <tag k="tiger:zip_left" v="43235"/>
    <tag k="tiger:zip_right" v="43235"/>
  </way>
  <way id="21357893" version="2" timestamp="2010-07-08T02:07:40Z" uid="74617" user="JohnSmith" changeset="5162525">
    <nd ref="229714867"/>
    <nd ref="229716288"/>
    <tag k="highway" v="residential"/>
    <tag k="maxspeed" v="50"/>
    <tag k="maxspeed:source" v="default residential speed limit in Australia"/>
    <tag k="name" v="Nelson Street"/>
  </way>
</osm>
