<?xml version='1.0' encoding='UTF-8'?>
<osm version="0.6" generator="libosmium/2.20.0">
  <way id="21535051" version="7" timestamp="2010-02-14T15:48:09Z" uid="74617" user="JohnSmith" changeset="3874884">
    <nd ref="231808822"/>
    <nd ref="231808827"/>
    <nd ref="231808828"/>
    <nd ref="231808830"/>
    <nd ref="231808832"/>
    <nd ref="231808833"/>
    <nd ref="231808835"/>
    <nd ref="231808837"/>
    <nd ref="231808839"/>
    <nd ref="231808822"/>
    <tag k="highway" v="tertiary"/>
    <tag k="junction" v="roundabout"/>
    <tag k="name" v="Brookside"/>
  </way>
  <way id="21535154" version="6" timestamp="2010-02-14T15:48:10Z" uid="74617" user="JohnSmith" changeset="3874884">
    <nd ref="231809591"/>
    <nd ref="231809592"/>
    <nd ref="231809594"/>
    <nd ref="231809595"/>
    <nd ref="231809596"/>
    <nd ref="231809598"/>
    <nd ref="231809599"/>
    <nd ref="231809601"/>
    <nd ref="231809602"/>
    <nd ref="231809603"/>
    <nd ref="231809887"/>
    <nd ref="231809591"/>
    <tag k="highway" v="tertiary"/>
    <tag k="junction" v="roundabout"/>
    <tag k="name" v="Brookside"/>
  </way>
  <way id="21535514" version="4" timestamp="2010-02-14T15:48:10Z" uid="74617" user="JohnSmith" changeset="3874884">
    <nd ref="231806432"/>
    <nd ref="231809602"/>
    <tag k="highway" v="tertiary"/>
    <tag k="name" v="Burwood Road"/>
    <tag k="oneway" v="yes"/>
  </way>
  <way id="21535580" version="3" timestamp="2010-02-14T15:48:10Z" uid="74617" user="JohnSmith" changeset="3874884">
    <nd ref="231809599"/>
    <nd ref="231806432"/>
    <tag k="highway" v="tertiary"/>
    <tag k="name" v="Burwood Road"/>
    <tag k="oneway" v="yes"/>
  </way>
</osm>
