<?xml version='1.0' encoding='UTF-8'?>
<osm version="0.6" generator="libosmium/2.20.0">
  <way id="21530213" version="5" timestamp="2010-03-07T08:48:27Z" uid="58091" user="Andreas M" changeset="4058292">
    <nd ref="31258176"/>
    <nd ref="251618289"/>
    <nd ref="231750559"/>
    <nd ref="231750562"/>
    <tag k="highway" v="residential"/>
    <tag k="is_in:city" v="Stockerau"/>
    <tag k="is_in:country_code" v="AT"/>
    <tag k="name" v="Judithastraße"/>
    <tag k="postal_code" v="2000"/>
  </way>
  <way id="21530428" version="7" timestamp="2010-03-07T08:48:16Z" uid="58091" user="Andreas M" changeset="4058292">
    <nd ref="144350818"/>
    <nd ref="31274246"/>
    <nd ref="31274247"/>
    <nd ref="501775209"/>
    <nd ref="31274248"/>
    <nd ref="444390414"/>
    <nd ref="31274249"/>
    <nd ref="334062775"/>
    <nd ref="31274250"/>
    <nd ref="31274251"/>
    <nd ref="31274252"/>
    <nd ref="31274253"/>
    <nd ref="31274254"/>
    <tag k="highway" v="tertiary"/>
    <tag k="is_in:city" v="Stockerau"/>
    <tag k="is_in:country_code" v="AT"/>
    <tag k="name" v="Franz-Blabolil-Promenade"/>
    <tag k="postal_code" v="2000"/>
  </way>
  <way id="21530620" version="6" timestamp="2010-07-06T08:43:18Z" uid="74617" user="JohnSmith" changeset="5147679">
    <nd ref="181237511"/>
    <nd ref="231755767"/>
    <tag k="highway" v="residential"/>
    <tag k="maxspeed" v="50"/>
    <tag k="maxspeed:source" v="default residential speed limit in Australia"/>
    <tag k="name" v="Emperor Street"/>
  </way>
  <way id="21530641" version="6" timestamp="2010-03-07T08:48:22Z" uid="58091" user="Andreas M" changeset="4058292">
    <nd ref="31274376"/>
    <nd ref="255894135"/>
    <nd ref="231755959"/>
    <tag k="highway" v="residential"/>
    <tag k="is_in:city" v="Stockerau"/>
    <tag k="is_in:country_code" v="AT"/>
    <tag k="name" v="Ernst-Vogel-Straße"/>
    <tag k="postal_code" v="2000"/>
  </way>
  <way id="21530821" version="6" timestamp="2010-03-07T08:48:20Z" uid="58091" user="Andreas M" changeset="4058292">
    <nd ref="31273694"/>
    <nd ref="31273695"/>
    <nd ref="31273696"/>
    <nd ref="31273699"/>
    <tag k="highway" v="residential"/>
    <tag k="is_in:city" v="Stockerau"/>
    <tag k="is_in:country_code" v="AT"/>
    <tag k="name" v="Leopold-Scheidl-Gasse"/>
    <tag k="postal_code" v="2000"/>
  </way>
  <way id="21530826" version="6" timestamp="2010-03-07T08:48:20Z" uid="58091" user="Andreas M" changeset="4058292">
    <nd ref="31274467"/>
    <nd ref="31275264"/>
    <nd ref="31273693"/>
    <nd ref="31273794"/>
    <nd ref="31273701"/>
    <nd ref="31273694"/>
    <tag k="highway" v="residential"/>
    <tag k="is_in:city" v="Stockerau"/>
    <tag k="is_in:country_code" v="AT"/>
    <tag k="name" v="Theresia-Pampichler-Straße"/>
    <tag k="postal_code" v="2000"/>
  </way>
</osm>
