<?xml version='1.0' encoding='UTF-8'?>
<osm version="0.6" generator="libosmium/2.20.0">
  <way id="21546090" version="4" timestamp="2010-02-14T15:48:08Z" uid="74617" user="JohnSmith" changeset="3874884">
    <nd ref="231808830"/>
    <nd ref="231877149"/>
    <nd ref="231877152"/>
    <nd ref="231877153"/>
    <nd ref="231877155"/>
    <nd ref="231877157"/>
    <nd ref="231877159"/>
    <nd ref="231877161"/>
    <tag k="highway" v="tertiary"/>
    <tag k="name" v="Brookside"/>
    <tag k="oneway" v="yes"/>
  </way>
  <way id="21546168" version="5" timestamp="2010-02-14T15:48:05Z" uid="74617" user="JohnSmith" changeset="3874884">
    <nd ref="231840603"/>
    <nd ref="231877923"/>
    <nd ref="231877925"/>
    <nd ref="231878474"/>
    <nd ref="231808827"/>
    <tag k="highway" v="tertiary"/>
    <tag k="name" v="Brookside"/>
    <tag k="oneway" v="yes"/>
  </way>
  <way id="21546364" version="4" timestamp="2010-02-14T15:48:09Z" uid="74617" user="JohnSmith" changeset="3874884">
    <nd ref="231877161"/>
    <nd ref="231879999"/>
    <nd ref="231880001"/>
    <nd ref="231880002"/>
    <nd ref="231880004"/>
    <nd ref="231880005"/>
    <nd ref="231880006"/>
    <nd ref="231880007"/>
    <nd ref="231808833"/>
    <tag k="highway" v="tertiary"/>
    <tag k="name" v="Brookside"/>
    <tag k="oneway" v="yes"/>
  </way>
  <way id="21546532" version="3" timestamp="2010-02-14T15:48:06Z" uid="74617" user="JohnSmith" changeset="3874884">
    <nd ref="231877161"/>
    <nd ref="231865444"/>
    <tag k="highway" v="tertiary"/>
    <tag k="name" v="Sussex Street"/>
  </way>
  <way id="21546753" version="6" timestamp="2010-02-14T15:48:02Z" uid="74617" user="JohnSmith" changeset="3874884">
    <nd ref="231883840"/>
    <nd ref="231883842"/>
    <tag k="highway" v="tertiary"/>
    <tag k="name" v="Blackwood Street"/>
  </way>
  <way id="21546826" version="5" timestamp="2010-02-14T15:47:32Z" uid="74617" user="JohnSmith" changeset="3874884">
    <nd ref="231819259"/>
    <nd ref="370967806"/>
    <nd ref="370967810"/>
    <nd ref="370967811"/>
    <nd ref="231861731"/>
    <nd ref="231861735"/>
    <nd ref="370967843"/>
    <nd ref="231865444"/>
    <nd ref="231884957"/>
    <nd ref="330002084"/>
    <nd ref="330001569"/>
    <nd ref="231950832"/>
    <tag k="highway" v="residential"/>
    <tag k="maxspeed" v="50"/>
    <tag k="name" v="McConaghy Street"/>
  </way>
  <way id="21546970" version="4" timestamp="2010-02-14T15:48:07Z" uid="74617" user="JohnSmith" changeset="3874884">
    <nd ref="231887080"/>
    <nd ref="231887084"/>
    <tag k="highway" v="residential"/>
    <tag k="maxspeed" v="50"/>
    <tag k="name" v="Ruby Road"/>
  </way>
</osm>
