<?xml version='1.0' encoding='UTF-8'?>
<osm version="0.6" generator="libosmium/2.20.0">
  <way id="21550027" version="2" timestamp="2010-02-14T15:48:14Z" uid="74617" user="JohnSmith" changeset="3874884">
    <nd ref="122583805"/>
    <nd ref="122583807"/>
    <nd ref="122583809"/>
    <nd ref="122583811"/>
    <nd ref="122584628"/>
    <tag k="highway" v="tertiary"/>
    <tag k="name" v="Pullen Road"/>
  </way>
  <way id="21550184" version="3" timestamp="2010-02-14T15:46:13Z" uid="74617" user="JohnSmith" changeset="3874884">
    <nd ref="122583819"/>
    <nd ref="231942647"/>
    <nd ref="231942649"/>
    <nd ref="231942652"/>
    <nd ref="231942655"/>
    <nd ref="231942656"/>
    <nd ref="231942660"/>
    <tag k="highway" v="residential"/>
    <tag k="maxspeed" v="50"/>
    <tag k="name" v="Galeola Street"/>
  </way>
  <way id="21550184" version="4" timestamp="2011-04-25T09:46:33Z" uid="4467" user="Rosscoe" changeset="7961234">
    <nd ref="122583819"/>
    <nd ref="231942647"/>
    <nd ref="231942649"/>
    <nd ref="231942652"/>
    <nd ref="231942655"/>
    <nd ref="231942656"/>
    <nd ref="231942660"/>
    <tag k="highway" v="residential"/>
    <tag k="maxspeed" v="50"/>
    <tag k="name" v="Galeola Street"/>
    <tag k="source" v="nearmap"/>
  </way>
  <way id="21550474" version="5" timestamp="2010-02-14T15:47:12Z" uid="74617" user="JohnSmith" changeset="3874884">
    <nd ref="268559708"/>
    <nd ref="231858137"/>
    <tag k="highway" v="residential"/>
    <tag k="maxspeed" v="50"/>
    <tag k="name" v="Northmore Street"/>
  </way>
  <way id="21550822" version="3" timestamp="2010-02-14T15:48:13Z" uid="74617" user="JohnSmith" changeset="3874884">
    <nd ref="231883848"/>
    <nd ref="231952538"/>
    <nd ref="231952540"/>
    <nd ref="231952541"/>
    <nd ref="231952543"/>
    <nd ref="231952547"/>
    <nd ref="231952548"/>
    <nd ref="231952551"/>
    <nd ref="231952552"/>
    <tag k="highway" v="residential"/>
    <tag k="maxspeed" v="50"/>
    <tag k="name" v="Lansvale Street"/>
  </way>
  <way id="21550953" version="4" timestamp="2010-02-14T15:46:14Z" uid="74617" user="JohnSmith" changeset="3874884">
    <nd ref="231858140"/>
    <nd ref="231938371"/>
    <nd ref="231938375"/>
    <nd ref="231954849"/>
    <nd ref="231954854"/>
    <tag k="highway" v="residential"/>
    <tag k="maxspeed" v="50"/>
    <tag k="name" v="Saint Helens Road"/>
  </way>
</osm>
