<?xml version='1.0' encoding='UTF-8'?>
<osm version="0.6" generator="libosmium/2.20.0">
  <way id="21633542" version="4" timestamp="2009-04-16T20:53:10Z" uid="30632" user="antblant" changeset="598077">
    <nd ref="232963450"/>
    <nd ref="232963455"/>
    <tag k="bridge" v="yes"/>
    <tag k="created_by" v="Potlatch 0.10f"/>
    <tag k="highway" v="primary"/>
    <tag k="layer" v="1"/>
    <tag k="name" v="Most Przemysła I"/>
    <tag k="oneway" v="yes"/>
    <tag k="ref" v="11"/>
  </way>
  <way id="21633542" version="7" timestamp="2010-03-15T23:39:25Z" uid="163746" user="anti_bot-nonsense" changeset="4139871">
    <nd ref="232963450"/>
    <nd ref="232963455"/>
    <tag k="bridge" v="yes"/>
    <tag k="highway" v="primary"/>
    <tag k="int_ref" v="E 261"/>
    <tag k="layer" v="1"/>
    <tag k="name" v="Most Przemysła I"/>
    <tag k="oneway" v="yes"/>
    <tag k="ref" v="5, 11"/>
  </way>
  <way id="21633573" version="3" timestamp="2009-01-03T11:18:22Z" uid="65847" user="LKK" changeset="725280">
    <nd ref="232965949"/>
    <nd ref="232965961"/>
    <nd ref="232965976"/>
    <nd ref="232965992"/>
    <nd ref="232966008"/>
    <nd ref="232966021"/>
    <nd ref="232966035"/>
    <nd ref="232966051"/>
    <nd ref="232966064"/>
    <nd ref="232966078"/>
    <nd ref="232966092"/>
    <nd ref="232966108"/>
    <nd ref="232966122"/>
    <nd ref="232966135"/>
    <nd ref="232966148"/>
    <nd ref="232966164"/>
    <nd ref="232966178"/>
    <nd ref="232966187"/>
    <nd ref="232966201"/>
    <nd ref="232966213"/>
    <nd ref="232966228"/>
    <nd ref="232966242"/>
    <nd ref="232966255"/>
    <nd ref="232966270"/>
    <nd ref="232966282"/>
    <nd ref="232966300"/>
    <nd ref="232966315"/>
    <nd ref="232966330"/>
    <nd ref="232966345"/>
    <nd ref="232966358"/>
    <nd ref="232966374"/>
    <nd ref="232966391"/>
    <nd ref="232966400"/>
    <nd ref="232966409"/>
    <nd ref="232966423"/>
    <nd ref="232966600"/>
    <nd ref="232966611"/>
    <nd ref="232966620"/>
    <nd ref="232966632"/>
    <nd ref="232966648"/>
    <nd ref="232966658"/>
    <nd ref="232966675"/>
    <nd ref="232966693"/>
    <nd ref="232966709"/>
    <nd ref="232966720"/>
    <nd ref="232966738"/>
    <nd ref="232966753"/>
    <nd ref="232966769"/>
    <nd ref="232966781"/>
    <nd ref="232966798"/>
    <nd ref="232966812"/>
    <nd ref="232966824"/>
    <nd ref="232966838"/>
    <nd ref="232966850"/>
    <nd ref="232966860"/>
    <nd ref="232966870"/>
    <nd ref="232966886"/>
    <nd ref="232966900"/>
    <nd ref="232966913"/>
    <nd ref="232966923"/>
    <nd ref="232966930"/>
    <nd ref="232966939"/>
    <nd ref="232966950"/>
    <nd ref="232966959"/>
    <nd ref="232966964"/>
    <nd ref="232966979"/>
    <nd ref="232966991"/>
    <nd ref="232967004"/>
    <nd ref="232967013"/>
    <nd ref="232967024"/>
    <nd ref="232967040"/>
    <nd ref="232967055"/>
    <nd ref="232967068"/>
    <nd ref="232967083"/>
    <nd ref="232967100"/>
    <nd ref="232967112"/>
    <nd ref="232967127"/>
    <nd ref="232967140"/>
    <nd ref="232967152"/>
    <nd ref="232967166"/>
    <nd ref="232967178"/>
    <nd ref="232967195"/>
    <nd ref="232965949"/>
    <tag k="created_by" v="JOSM"/>
    <tag k="landuse" v="forest"/>
  </way>
  <way id="21633588" version="3" timestamp="2010-03-15T23:39:02Z" uid="163746" user="anti_bot-nonsense" changeset="4139871">
    <nd ref="232963455"/>
    <nd ref="142376758"/>
    <nd ref="142330758"/>
    <tag k="highway" v="primary"/>
    <tag k="int_ref" v="E 261"/>
    <tag k="name" v="Hetmańska"/>
    <tag k="oneway" v="yes"/>
    <tag k="ref" v="5, 11"/>
  </way>
  <way id="21633623" version="4" timestamp="2009-04-16T20:53:03Z" uid="30632" user="antblant" changeset="598077">
    <nd ref="232967294"/>
    <nd ref="229926011"/>
    <tag k="bridge" v="yes"/>
    <tag k="created_by" v="Potlatch 0.10f"/>
    <tag k="highway" v="primary"/>
    <tag k="layer" v="1"/>
    <tag k="name" v="Most Przemysła I"/>
    <tag k="oneway" v="yes"/>
    <tag k="ref" v="11"/>
  </way>
  <way id="21633623" version="7" timestamp="2010-03-15T23:39:25Z" uid="163746" user="anti_bot-nonsense" changeset="4139871">
    <nd ref="232967294"/>
    <nd ref="229926011"/>
    <tag k="bridge" v="yes"/>
    <tag k="highway" v="primary"/>
    <tag k="int_ref" v="E 261"/>
    <tag k="layer" v="1"/>
    <tag k="name" v="Most Przemysła I"/>
    <tag k="oneway" v="yes"/>
    <tag k="ref" v="5, 11"/>
  </way>
  <way id="21633960" version="6" timestamp="2010-03-16T22:00:34Z" uid="163746" user="anti_bot-nonsense" changeset="4147354">
    <nd ref="232980577"/>
    <nd ref="317729711"/>
    <nd ref="317729725"/>
    <nd ref="232977506"/>
    <nd ref="317729726"/>
    <tag k="highway" v="primary"/>
    <tag k="name" v="Kardynała Stefana Wyszyńskiego"/>
    <tag k="oneway" v="yes"/>
  </way>
  <way id="21633966" version="4" timestamp="2008-10-08T18:44:36Z" uid="30632" user="antblant" changeset="169665">
    <nd ref="232977503"/>
    <nd ref="232980577"/>
    <tag k="created_by" v="Potlatch 0.9a"/>
    <tag k="highway" v="primary"/>
    <tag k="name" v="Most Chrobrego"/>
    <tag k="oneway" v="yes"/>
  </way>
  <way id="21633966" version="8" timestamp="2010-03-16T22:00:38Z" uid="163746" user="anti_bot-nonsense" changeset="4147354">
    <nd ref="232977503"/>
    <nd ref="232980577"/>
    <tag k="bridge" v="yes"/>
    <tag k="highway" v="primary"/>
    <tag k="name" v="Most Bolesława Chrobrego"/>
    <tag k="oneway" v="yes"/>
  </way>
  <way id="21633973" version="9" timestamp="2010-02-12T20:51:27Z" uid="20587" user="balrog-kun" changeset="3860201">
    <nd ref="126151769"/>
    <nd ref="126151758"/>
    <nd ref="126151748"/>
    <nd ref="126151735"/>
    <nd ref="126151725"/>
    <nd ref="247470559"/>
    <nd ref="126151712"/>
    <nd ref="162740647"/>
    <tag k="highway" v="primary"/>
    <tag k="name" v="Ewarysta Estkowskiego"/>
    <tag k="oneway" v="yes"/>
  </way>
  <way id="21633982" version="6" timestamp="2008-10-08T18:44:38Z" uid="30632" user="antblant" changeset="169665">
    <nd ref="232980443"/>
    <nd ref="126151769"/>
    <tag k="created_by" v="Potlatch 0.9a"/>
    <tag k="highway" v="primary"/>
    <tag k="name" v="Most Chrobrego"/>
    <tag k="oneway" v="yes"/>
  </way>
  <way id="21633982" version="10" timestamp="2010-03-16T22:00:37Z" uid="163746" user="anti_bot-nonsense" changeset="4147354">
    <nd ref="232980443"/>
    <nd ref="126151769"/>
    <tag k="bridge" v="yes"/>
    <tag k="highway" v="primary"/>
    <tag k="name" v="Most Bolesława Chrobrego"/>
    <tag k="oneway" v="yes"/>
  </way>
</osm>
