<?xml version='1.0' encoding='UTF-8'?>
<osm version="0.6" generator="libosmium/2.20.0">
  <way id="21656227" version="7" timestamp="2010-07-09T03:54:46Z" uid="74617" user="JohnSmith" changeset="5170838">
    <nd ref="233314797"/>
    <nd ref="233314893"/>
    <nd ref="364868868"/>
    <nd ref="233314914"/>
    <nd ref="233314833"/>
    <nd ref="233314809"/>
    <tag k="highway" v="residential"/>
    <tag k="maxspeed" v="50"/>
    <tag k="maxspeed:source" v="default residential speed limit in Australia"/>
    <tag k="name" v="Palmer Street"/>
  </way>
  <way id="21656227" version="8" timestamp="2011-04-23T02:57:28Z" uid="4467" user="Rosscoe" changeset="7940142">
    <nd ref="233314797"/>
    <nd ref="233314893"/>
    <nd ref="364868868"/>
    <nd ref="233314914"/>
    <nd ref="233314833"/>
    <nd ref="233314809"/>
    <tag k="highway" v="residential"/>
    <tag k="maxspeed" v="50"/>
    <tag k="name" v="Palmer Street"/>
    <tag k="source:maxspeed" v="default residential speed limit in Australia"/>
  </way>
  <way id="21656229" version="8" timestamp="2010-07-09T03:54:52Z" uid="74617" user="JohnSmith" changeset="5170838">
    <nd ref="233314833"/>
    <nd ref="233314845"/>
    <nd ref="233314824"/>
    <tag k="highway" v="residential"/>
    <tag k="maxspeed" v="50"/>
    <tag k="maxspeed:source" v="default residential speed limit in Australia"/>
    <tag k="name" v="Royal Lane"/>
    <tag k="source" v="survey"/>
  </way>
  <way id="21656229" version="9" timestamp="2011-04-23T02:57:24Z" uid="4467" user="Rosscoe" changeset="7940142">
    <nd ref="233314833"/>
    <nd ref="233314845"/>
    <nd ref="233314824"/>
    <tag k="highway" v="residential"/>
    <tag k="maxspeed" v="50"/>
    <tag k="name" v="Royal Lane"/>
    <tag k="source" v="survey"/>
    <tag k="source:maxspeed" v="default residential speed limit in Australia"/>
  </way>
  <way id="21656231" version="5" timestamp="2010-07-09T03:54:48Z" uid="74617" user="JohnSmith" changeset="5170838">
    <nd ref="233314875"/>
    <nd ref="652430419"/>
    <nd ref="652430422"/>
    <nd ref="233314890"/>
    <tag k="highway" v="residential"/>
    <tag k="maxspeed" v="50"/>
    <tag k="maxspeed:source" v="default residential speed limit in Australia"/>
    <tag k="name" v="Marion Street"/>
  </way>
  <way id="21656231" version="6" timestamp="2011-04-23T02:57:32Z" uid="4467" user="Rosscoe" changeset="7940142">
    <nd ref="233314875"/>
    <nd ref="652430419"/>
    <nd ref="652430422"/>
    <nd ref="233314890"/>
    <tag k="highway" v="residential"/>
    <tag k="maxspeed" v="50"/>
    <tag k="name" v="Marion Street"/>
    <tag k="source:maxspeed" v="default residential speed limit in Australia"/>
  </way>
  <way id="21656233" version="4" timestamp="2010-07-09T03:54:53Z" uid="74617" user="JohnSmith" changeset="5170838">
    <nd ref="233314893"/>
    <nd ref="233314910"/>
    <tag k="highway" v="residential"/>
    <tag k="maxspeed" v="50"/>
    <tag k="maxspeed:source" v="default residential speed limit in Australia"/>
    <tag k="name" v="Fleet Street"/>
    <tag k="source" v="survey"/>
  </way>
  <way id="21656233" version="5" timestamp="2011-04-23T02:57:31Z" uid="4467" user="Rosscoe" changeset="7940142">
    <nd ref="233314893"/>
    <nd ref="233314910"/>
    <tag k="highway" v="residential"/>
    <tag k="maxspeed" v="50"/>
    <tag k="name" v="Fleet Street"/>
    <tag k="source" v="survey"/>
    <tag k="source:maxspeed" v="default residential speed limit in Australia"/>
  </way>
  <way id="21656236" version="6" timestamp="2010-07-09T03:54:48Z" uid="74617" user="JohnSmith" changeset="5170838">
    <nd ref="233314923"/>
    <nd ref="233562064"/>
    <nd ref="233314919"/>
    <tag k="highway" v="residential"/>
    <tag k="maxspeed" v="50"/>
    <tag k="maxspeed:source" v="default residential speed limit in Australia"/>
    <tag k="name" v="Little Hanover Street"/>
  </way>
  <way id="21656236" version="7" timestamp="2011-04-23T02:57:28Z" uid="4467" user="Rosscoe" changeset="7940142">
    <nd ref="233314923"/>
    <nd ref="233562064"/>
    <nd ref="233314919"/>
    <tag k="highway" v="residential"/>
    <tag k="maxspeed" v="50"/>
    <tag k="name" v="Little Hanover Street"/>
    <tag k="source:maxspeed" v="default residential speed limit in Australia"/>
  </way>
  <way id="21656238" version="5" timestamp="2010-07-09T03:54:53Z" uid="74617" user="JohnSmith" changeset="5170838">
    <nd ref="363945200"/>
    <nd ref="233314936"/>
    <tag k="highway" v="residential"/>
    <tag k="maxspeed" v="50"/>
    <tag k="maxspeed:source" v="default residential speed limit in Australia"/>
    <tag k="name" v="Hanover Street"/>
    <tag k="oneway" v="yes"/>
  </way>
  <way id="21656238" version="6" timestamp="2011-04-23T02:57:36Z" uid="4467" user="Rosscoe" changeset="7940142">
    <nd ref="363945200"/>
    <nd ref="233314936"/>
    <tag k="highway" v="residential"/>
    <tag k="maxspeed" v="50"/>
    <tag k="name" v="Hanover Street"/>
    <tag k="oneway" v="yes"/>
    <tag k="source:maxspeed" v="default residential speed limit in Australia"/>
  </way>
  <way id="21656240" version="5" timestamp="2010-07-09T03:54:49Z" uid="74617" user="JohnSmith" changeset="5170838">
    <nd ref="233314999"/>
    <nd ref="372022839"/>
    <nd ref="233314981"/>
    <tag k="highway" v="residential"/>
    <tag k="maxspeed" v="50"/>
    <tag k="maxspeed:source" v="default residential speed limit in Australia"/>
    <tag k="name" v="James Street"/>
    <tag k="oneway" v="yes"/>
  </way>
  <way id="21656240" version="6" timestamp="2011-04-23T02:57:31Z" uid="4467" user="Rosscoe" changeset="7940142">
    <nd ref="233314999"/>
    <nd ref="372022839"/>
    <nd ref="233314981"/>
    <tag k="highway" v="residential"/>
    <tag k="maxspeed" v="50"/>
    <tag k="name" v="James Street"/>
    <tag k="oneway" v="yes"/>
    <tag k="source:maxspeed" v="default residential speed limit in Australia"/>
  </way>
  <way id="21656245" version="10" timestamp="2010-07-09T03:54:48Z" uid="74617" user="JohnSmith" changeset="5170838">
    <nd ref="233262544"/>
    <nd ref="361268869"/>
    <nd ref="233315048"/>
    <nd ref="361227893"/>
    <nd ref="30287462"/>
    <nd ref="361227566"/>
    <nd ref="356632899"/>
    <nd ref="233315035"/>
    <tag k="highway" v="residential"/>
    <tag k="maxspeed" v="50"/>
    <tag k="maxspeed:source" v="default residential speed limit in Australia"/>
    <tag k="name" v="Moor Street"/>
    <tag k="oneway" v="yes"/>
  </way>
  <way id="21656245" version="12" timestamp="2011-04-10T20:38:07Z" uid="4467" user="Rosscoe" changeset="7827395">
    <nd ref="233262544"/>
    <nd ref="997575994"/>
    <nd ref="361268869"/>
    <nd ref="233315048"/>
    <nd ref="361227893"/>
    <nd ref="30287462"/>
    <nd ref="361227566"/>
    <nd ref="356632899"/>
    <nd ref="233315035"/>
    <tag k="highway" v="residential"/>
    <tag k="maxspeed" v="50"/>
    <tag k="name" v="Moor Street"/>
    <tag k="oneway" v="yes"/>
    <tag k="source:maxspeed" v="default residential speed limit in Australia"/>
  </way>
  <way id="21656246" version="6" timestamp="2010-07-09T03:54:46Z" uid="74617" user="JohnSmith" changeset="5170838">
    <nd ref="291966932"/>
    <nd ref="448076961"/>
    <nd ref="549754991"/>
    <nd ref="233315115"/>
    <nd ref="549754992"/>
    <nd ref="233315063"/>
    <tag k="highway" v="residential"/>
    <tag k="maxspeed" v="50"/>
    <tag k="maxspeed:source" v="default residential speed limit in Australia"/>
    <tag k="name" v="Owen Street"/>
  </way>
  <way id="21656246" version="7" timestamp="2011-04-10T20:38:51Z" uid="4467" user="Rosscoe" changeset="7827395">
    <nd ref="291966932"/>
    <nd ref="448076961"/>
    <nd ref="549754991"/>
    <nd ref="233315115"/>
    <nd ref="549754992"/>
    <nd ref="233315063"/>
    <tag k="highway" v="residential"/>
    <tag k="maxspeed" v="50"/>
    <tag k="name" v="Owen Street"/>
    <tag k="source:maxspeed" v="default residential speed limit in Australia"/>
  </way>
  <way id="21656248" version="6" timestamp="2010-07-09T03:54:52Z" uid="74617" user="JohnSmith" changeset="5170838">
    <nd ref="233315095"/>
    <nd ref="448076959"/>
    <nd ref="549754988"/>
    <nd ref="233315133"/>
    <nd ref="549754990"/>
    <nd ref="448076960"/>
    <nd ref="291966939"/>
    <tag k="highway" v="residential"/>
    <tag k="maxspeed" v="50"/>
    <tag k="maxspeed:source" v="default residential speed limit in Australia"/>
    <tag k="name" v="Murchison Street"/>
  </way>
  <way id="21656248" version="7" timestamp="2011-04-10T20:38:35Z" uid="4467" user="Rosscoe" changeset="7827395">
    <nd ref="233315095"/>
    <nd ref="448076959"/>
    <nd ref="549754988"/>
    <nd ref="233315133"/>
    <nd ref="549754990"/>
    <nd ref="448076960"/>
    <nd ref="291966939"/>
    <tag k="highway" v="residential"/>
    <tag k="maxspeed" v="50"/>
    <tag k="name" v="Murchison Street"/>
    <tag k="source:maxspeed" v="default residential speed limit in Australia"/>
  </way>
  <way id="21656249" version="3" timestamp="2010-07-09T03:54:50Z" uid="74617" user="JohnSmith" changeset="5170838">
    <nd ref="233315115"/>
    <nd ref="233315133"/>
    <tag k="highway" v="residential"/>
    <tag k="maxspeed" v="50"/>
    <tag k="maxspeed:source" v="default residential speed limit in Australia"/>
    <tag k="name" v="Barrup Street"/>
  </way>
  <way id="21656249" version="4" timestamp="2011-04-10T20:39:19Z" uid="4467" user="Rosscoe" changeset="7827395">
    <nd ref="233315115"/>
    <nd ref="233315133"/>
    <tag k="highway" v="residential"/>
    <tag k="maxspeed" v="50"/>
    <tag k="name" v="Barrup Street"/>
    <tag k="source:maxspeed" v="default residential speed limit in Australia"/>
  </way>
  <way id="21656250" version="5" timestamp="2010-07-09T04:56:52Z" uid="74617" user="JohnSmith" changeset="5170972">
    <nd ref="233315145"/>
    <nd ref="233315158"/>
    <tag k="highway" v="residential"/>
    <tag k="maxspeed" v="50"/>
    <tag k="maxspeed:source" v="default residential speed limit in Australia"/>
    <tag k="name" v="Macarthur Place North"/>
  </way>
  <way id="21656250" version="6" timestamp="2011-04-10T20:38:10Z" uid="4467" user="Rosscoe" changeset="7827395">
    <nd ref="233315145"/>
    <nd ref="233315158"/>
    <tag k="highway" v="residential"/>
    <tag k="maxspeed" v="50"/>
    <tag k="name" v="Macarthur Place North"/>
    <tag k="source:maxspeed" v="default residential speed limit in Australia"/>
  </way>
  <way id="21656251" version="5" timestamp="2010-07-09T04:58:57Z" uid="74617" user="JohnSmith" changeset="5170972">
    <nd ref="233315192"/>
    <nd ref="598142331"/>
    <nd ref="598142327"/>
    <nd ref="598142324"/>
    <nd ref="598142319"/>
    <nd ref="598142317"/>
    <nd ref="233315178"/>
    <tag k="highway" v="residential"/>
    <tag k="maxspeed" v="50"/>
    <tag k="maxspeed:source" v="default residential speed limit in Australia"/>
    <tag k="name" v="Macarthur Place South"/>
  </way>
  <way id="21656251" version="6" timestamp="2011-04-10T20:38:56Z" uid="4467" user="Rosscoe" changeset="7827395">
    <nd ref="233315192"/>
    <nd ref="598142331"/>
    <nd ref="598142327"/>
    <nd ref="598142324"/>
    <nd ref="598142319"/>
    <nd ref="598142317"/>
    <nd ref="233315178"/>
    <tag k="highway" v="residential"/>
    <tag k="maxspeed" v="50"/>
    <tag k="name" v="Macarthur Place South"/>
    <tag k="source:maxspeed" v="default residential speed limit in Australia"/>
  </way>
  <way id="21656254" version="6" timestamp="2010-07-09T03:54:49Z" uid="74617" user="JohnSmith" changeset="5170838">
    <nd ref="233315252"/>
    <nd ref="298099373"/>
    <nd ref="233315226"/>
    <tag k="highway" v="residential"/>
    <tag k="maxspeed" v="50"/>
    <tag k="maxspeed:source" v="default residential speed limit in Australia"/>
    <tag k="name" v="Cremorne Street"/>
    <tag k="source" v="nearmap"/>
  </way>
  <way id="21656254" version="7" timestamp="2011-04-10T20:39:01Z" uid="4467" user="Rosscoe" changeset="7827395">
    <nd ref="233315252"/>
    <nd ref="298099373"/>
    <nd ref="233315226"/>
    <tag k="highway" v="residential"/>
    <tag k="maxspeed" v="50"/>
    <tag k="name" v="Cremorne Street"/>
    <tag k="source" v="nearmap"/>
    <tag k="source:maxspeed" v="default residential speed limit in Australia"/>
  </way>
  <way id="21656255" version="5" timestamp="2010-07-09T05:00:59Z" uid="74617" user="JohnSmith" changeset="5170972">
    <nd ref="233315265"/>
    <nd ref="384005174"/>
    <nd ref="233274958"/>
    <tag k="highway" v="residential"/>
    <tag k="maxspeed" v="50"/>
    <tag k="maxspeed:source" v="default residential speed limit in Australia"/>
    <tag k="name" v="Victoria Street"/>
  </way>
  <way id="21656255" version="6" timestamp="2011-04-10T20:39:43Z" uid="4467" user="Rosscoe" changeset="7827395">
    <nd ref="233315265"/>
    <nd ref="384005174"/>
    <nd ref="233274958"/>
    <tag k="highway" v="residential"/>
    <tag k="maxspeed" v="50"/>
    <tag k="name" v="Victoria Street"/>
    <tag k="source:maxspeed" v="default residential speed limit in Australia"/>
  </way>
  <way id="21656307" version="7" timestamp="2009-01-14T00:58:52Z" uid="49111" user="Markus B" changeset="786857">
    <nd ref="233316418"/>
    <nd ref="233320778"/>
    <nd ref="233316979"/>
    <nd ref="233316739"/>
    <nd ref="233316740"/>
    <nd ref="233316742"/>
    <nd ref="233316743"/>
    <nd ref="233316745"/>
    <nd ref="233316746"/>
    <nd ref="233316747"/>
    <nd ref="233316748"/>
    <nd ref="233316749"/>
    <nd ref="233316750"/>
    <nd ref="233316751"/>
    <nd ref="233316752"/>
    <nd ref="233316753"/>
    <nd ref="233316754"/>
    <nd ref="331961512"/>
    <nd ref="233316755"/>
    <nd ref="331961508"/>
    <nd ref="233316756"/>
    <nd ref="92282298"/>
    <tag k="created_by" v="Potlatch 0.8c"/>
    <tag k="highway" v="residential"/>
    <tag k="name" v="Sonnenbergstrasse"/>
  </way>
</osm>
