<?xml version='1.0' encoding='UTF-8'?>
<osm version="0.6" generator="libosmium/2.20.0">
  <way id="21720652" version="10" timestamp="2010-07-09T06:19:01Z" uid="74617" user="JohnSmith" changeset="5171134">
    <nd ref="234114968"/>
    <nd ref="316747001"/>
    <nd ref="234130397"/>
    <nd ref="234128037"/>
    <nd ref="234127721"/>
    <nd ref="234116119"/>
    <tag k="highway" v="residential"/>
    <tag k="maxspeed" v="50"/>
    <tag k="maxspeed:source" v="default residential speed limit in Australia"/>
    <tag k="name" v="Arthur Street"/>
  </way>
  <way id="21720652" version="11" timestamp="2010-12-02T04:52:45Z" uid="4467" user="Rosscoe" changeset="6511120">
    <nd ref="1015426005"/>
    <nd ref="234114968"/>
    <nd ref="316747001"/>
    <nd ref="234130397"/>
    <nd ref="234128037"/>
    <nd ref="234127721"/>
    <nd ref="234116119"/>
    <tag k="highway" v="residential"/>
    <tag k="maxspeed" v="50"/>
    <tag k="maxspeed:source" v="default residential speed limit in Australia"/>
    <tag k="name" v="Arthur Street"/>
  </way>
  <way id="21720652" version="12" timestamp="2011-03-18T15:43:21Z" uid="4467" user="Rosscoe" changeset="7596453">
    <nd ref="1015426005"/>
    <nd ref="234114968"/>
    <nd ref="316747001"/>
    <nd ref="234130397"/>
    <nd ref="234128037"/>
    <nd ref="234127721"/>
    <nd ref="234116119"/>
    <tag k="highway" v="residential"/>
    <tag k="maxspeed" v="50"/>
    <tag k="name" v="Arthur Street"/>
    <tag k="source:maxspeed" v="default residential speed limit in Australia"/>
  </way>
  <way id="21720719" version="6" timestamp="2010-07-09T06:20:34Z" uid="74617" user="JohnSmith" changeset="5171134">
    <nd ref="234116284"/>
    <nd ref="234130395"/>
    <nd ref="234116738"/>
    <tag k="highway" v="residential"/>
    <tag k="maxspeed" v="50"/>
    <tag k="maxspeed:source" v="default residential speed limit in Australia"/>
    <tag k="name" v="Ilford Road"/>
  </way>
  <way id="21720719" version="7" timestamp="2010-12-02T04:52:38Z" uid="4467" user="Rosscoe" changeset="6511120">
    <nd ref="1015425931"/>
    <nd ref="234116284"/>
    <nd ref="234130395"/>
    <nd ref="234116738"/>
    <tag k="highway" v="residential"/>
    <tag k="maxspeed" v="50"/>
    <tag k="maxspeed:source" v="default residential speed limit in Australia"/>
    <tag k="name" v="Ilford Road"/>
  </way>
  <way id="21720719" version="8" timestamp="2011-03-18T15:41:34Z" uid="4467" user="Rosscoe" changeset="7596453">
    <nd ref="1015425931"/>
    <nd ref="234116284"/>
    <nd ref="234130395"/>
    <nd ref="234116738"/>
    <tag k="highway" v="residential"/>
    <tag k="maxspeed" v="50"/>
    <tag k="name" v="Ilford Road"/>
    <tag k="source:maxspeed" v="default residential speed limit in Australia"/>
  </way>
  <way id="21720884" version="6" timestamp="2011-03-18T15:42:13Z" uid="4467" user="Rosscoe" changeset="7596453">
    <nd ref="234116995"/>
    <nd ref="234116119"/>
    <nd ref="234117981"/>
    <nd ref="233604003"/>
    <nd ref="234118619"/>
    <tag k="highway" v="residential"/>
    <tag k="maxspeed" v="50"/>
    <tag k="name" v="Dinwoodie Avenue"/>
  </way>
</osm>
