<?xml version='1.0' encoding='UTF-8'?>
<osm version="0.6" generator="libosmium/2.20.0">
  <way id="21723136" version="3" timestamp="2010-07-09T06:20:36Z" uid="74617" user="JohnSmith" changeset="5171134">
    <nd ref="234135073"/>
    <nd ref="234135655"/>
    <tag k="highway" v="residential"/>
    <tag k="maxspeed" v="50"/>
    <tag k="maxspeed:source" v="default residential speed limit in Australia"/>
    <tag k="name" v="Lovell Court"/>
  </way>
  <way id="21723158" version="5" timestamp="2010-07-07T08:43:50Z" uid="74617" user="JohnSmith" changeset="5156250">
    <nd ref="234135827"/>
    <nd ref="234135801"/>
    <nd ref="233992598"/>
    <nd ref="234135772"/>
    <nd ref="234135623"/>
    <nd ref="234135648"/>
    <nd ref="234135678"/>
    <nd ref="234135706"/>
    <nd ref="660916293"/>
    <nd ref="234135730"/>
    <nd ref="687955165"/>
    <nd ref="234135756"/>
    <tag k="highway" v="residential"/>
    <tag k="maxspeed" v="50"/>
    <tag k="maxspeed:source" v="default residential speed limit in Australia"/>
    <tag k="name" v="McClemans Street"/>
    <tag k="source" v="image"/>
  </way>
  <way id="21723235" version="8" timestamp="2010-07-09T06:20:42Z" uid="74617" user="JohnSmith" changeset="5171134">
    <nd ref="233605346"/>
    <nd ref="252185626"/>
    <nd ref="234136607"/>
    <nd ref="234136995"/>
    <nd ref="234136608"/>
    <tag k="highway" v="residential"/>
    <tag k="maxspeed" v="50"/>
    <tag k="maxspeed:source" v="default residential speed limit in Australia"/>
    <tag k="name" v="Winona Avenue"/>
  </way>
  <way id="21723269" version="4" timestamp="2009-07-25T03:54:09Z" uid="74617" user="JohnSmith" changeset="1930594">
    <nd ref="234136607"/>
    <nd ref="234136879"/>
    <tag k="highway" v="residential"/>
    <tag k="maxspeed" v="50"/>
    <tag k="name" v="Bice Street"/>
  </way>
  <way id="21723346" version="5" timestamp="2009-07-25T03:54:03Z" uid="74617" user="JohnSmith" changeset="1930594">
    <nd ref="234136995"/>
    <nd ref="234137619"/>
    <tag k="highway" v="residential"/>
    <tag k="maxspeed" v="50"/>
    <tag k="name" v="Wainwright Street"/>
  </way>
  <way id="21723822" version="3" timestamp="2010-07-09T06:23:38Z" uid="74617" user="JohnSmith" changeset="5171134">
    <nd ref="234141282"/>
    <nd ref="234141605"/>
    <tag k="highway" v="residential"/>
    <tag k="maxspeed" v="50"/>
    <tag k="maxspeed:source" v="default residential speed limit in Australia"/>
    <tag k="name" v="Gladys Street"/>
  </way>
  <way id="21723822" version="4" timestamp="2011-03-18T12:19:16Z" uid="4467" user="Rosscoe" changeset="7594760">
    <nd ref="250074266"/>
    <nd ref="234141282"/>
    <nd ref="234141605"/>
    <tag k="highway" v="residential"/>
    <tag k="maxspeed" v="50"/>
    <tag k="maxspeed:source" v="default residential speed limit in Australia"/>
    <tag k="name" v="Gladys Street"/>
  </way>
  <way id="21723822" version="5" timestamp="2011-03-18T15:43:32Z" uid="4467" user="Rosscoe" changeset="7596453">
    <nd ref="250074266"/>
    <nd ref="234141282"/>
    <nd ref="234141605"/>
    <tag k="highway" v="residential"/>
    <tag k="maxspeed" v="50"/>
    <tag k="name" v="Gladys Street"/>
    <tag k="source:maxspeed" v="default residential speed limit in Australia"/>
  </way>
  <way id="21723877" version="3" timestamp="2010-07-09T06:19:55Z" uid="74617" user="JohnSmith" changeset="5171134">
    <nd ref="234141663"/>
    <nd ref="234141605"/>
    <nd ref="250074313"/>
    <nd ref="234142397"/>
    <tag k="highway" v="residential"/>
    <tag k="maxspeed" v="50"/>
    <tag k="maxspeed:source" v="default residential speed limit in Australia"/>
    <tag k="name" v="Hilda Street"/>
  </way>
  <way id="21723877" version="4" timestamp="2011-03-18T15:41:39Z" uid="4467" user="Rosscoe" changeset="7596453">
    <nd ref="234141663"/>
    <nd ref="234141605"/>
    <nd ref="250074313"/>
    <nd ref="234142397"/>
    <tag k="highway" v="residential"/>
    <tag k="maxspeed" v="50"/>
    <tag k="name" v="Hilda Street"/>
    <tag k="source:maxspeed" v="default residential speed limit in Australia"/>
  </way>
  <way id="21723902" version="4" timestamp="2009-07-25T03:53:49Z" uid="74617" user="JohnSmith" changeset="1930594">
    <nd ref="234142397"/>
    <nd ref="310737905"/>
    <nd ref="234142704"/>
    <tag k="highway" v="residential"/>
    <tag k="name" v="Gladys Street"/>
  </way>
  <way id="21723902" version="10" timestamp="2010-07-09T06:17:42Z" uid="74617" user="JohnSmith" changeset="5171134">
    <nd ref="234142397"/>
    <nd ref="506473723"/>
    <nd ref="506473719"/>
    <nd ref="310737905"/>
    <nd ref="506474183"/>
    <nd ref="506472382"/>
    <nd ref="506474174"/>
    <nd ref="506475093"/>
    <nd ref="506474766"/>
    <nd ref="506474761"/>
    <nd ref="234142704"/>
    <tag k="highway" v="residential"/>
    <tag k="maxspeed" v="50"/>
    <tag k="maxspeed:source" v="default residential speed limit in Australia"/>
    <tag k="name" v="Gladys Street"/>
  </way>
  <way id="21723902" version="11" timestamp="2011-03-18T15:42:12Z" uid="4467" user="Rosscoe" changeset="7596453">
    <nd ref="234142397"/>
    <nd ref="506473723"/>
    <nd ref="506473719"/>
    <nd ref="310737905"/>
    <nd ref="506474183"/>
    <nd ref="506472382"/>
    <nd ref="506474174"/>
    <nd ref="506475093"/>
    <nd ref="506474766"/>
    <nd ref="506474761"/>
    <nd ref="234142704"/>
    <tag k="highway" v="residential"/>
    <tag k="maxspeed" v="50"/>
    <tag k="name" v="Gladys Street"/>
    <tag k="source:maxspeed" v="default residential speed limit in Australia"/>
  </way>
  <way id="21723957" version="16" timestamp="2009-07-25T03:54:07Z" uid="74617" user="JohnSmith" changeset="1930594">
    <nd ref="168533111"/>
    <nd ref="315756956"/>
    <nd ref="315756887"/>
    <nd ref="315755930"/>
    <nd ref="315752330"/>
    <nd ref="315755134"/>
    <nd ref="315754430"/>
    <nd ref="315753848"/>
    <nd ref="315753234"/>
    <nd ref="315752575"/>
    <nd ref="234142843"/>
    <nd ref="234145437"/>
    <nd ref="234143563"/>
    <nd ref="234143564"/>
    <nd ref="234143566"/>
    <tag k="highway" v="residential"/>
    <tag k="maxspeed" v="50"/>
    <tag k="name" v="Caulfield Avenue"/>
  </way>
  <way id="21723957" version="20" timestamp="2011-03-18T12:20:51Z" uid="4467" user="Rosscoe" changeset="7594760"/>
</osm>
