<?xml version='1.0' encoding='UTF-8'?>
<osm version="0.6" generator="libosmium/2.20.0">
  <way id="21791021" version="3" timestamp="2010-02-15T05:04:46Z" uid="74617" user="JohnSmith" changeset="3880242">
    <nd ref="58681196"/>
    <nd ref="234877660"/>
    <nd ref="234877662"/>
    <nd ref="234877665"/>
    <nd ref="234877667"/>
    <nd ref="234877668"/>
    <nd ref="234877670"/>
    <nd ref="234877672"/>
    <nd ref="234877674"/>
    <nd ref="234877676"/>
    <nd ref="234877678"/>
    <nd ref="234877680"/>
    <nd ref="234877682"/>
    <nd ref="234877683"/>
    <nd ref="234877684"/>
    <nd ref="234877687"/>
    <tag k="highway" v="residential"/>
    <tag k="maxspeed" v="50"/>
    <tag k="name" v="Sleaford Street"/>
  </way>
  <way id="21791032" version="2" timestamp="2009-09-20T07:56:59Z" uid="7617" user="Franc" changeset="2542001">
    <nd ref="234877491"/>
    <nd ref="234877742"/>
    <nd ref="234877745"/>
    <nd ref="234877746"/>
    <tag k="created_by" v="Potlatch 0.6b"/>
    <tag k="highway" v="unclassified"/>
    <tag k="name" v="Sargents Road"/>
    <tag k="oneway" v="yes"/>
    <tag k="source" v="survey"/>
  </way>
  <way id="21791126" version="3" timestamp="2009-09-20T07:56:59Z" uid="7617" user="Franc" changeset="2542001">
    <nd ref="234876526"/>
    <nd ref="234878378"/>
    <tag k="created_by" v="Potlatch 0.6b"/>
    <tag k="highway" v="unclassified"/>
    <tag k="name" v="Sargents Road"/>
    <tag k="source" v="survey"/>
  </way>
  <way id="21791208" version="4" timestamp="2009-09-20T07:56:58Z" uid="7617" user="Franc" changeset="2542001">
    <nd ref="234878378"/>
    <nd ref="234880360"/>
    <nd ref="234878945"/>
    <nd ref="234878947"/>
    <tag k="created_by" v="Potlatch 0.6b"/>
    <tag k="highway" v="unclassified"/>
    <tag k="name" v="Sargents Road"/>
    <tag k="oneway" v="yes"/>
    <tag k="source" v="survey"/>
  </way>
  <way id="21791249" version="3" timestamp="2010-02-15T05:05:42Z" uid="74617" user="JohnSmith" changeset="3880242">
    <nd ref="234841570"/>
    <nd ref="234879242"/>
    <nd ref="234879244"/>
    <nd ref="234879245"/>
    <nd ref="234879247"/>
    <nd ref="234877687"/>
    <nd ref="234879249"/>
    <nd ref="234879251"/>
    <nd ref="234879254"/>
    <nd ref="234866330"/>
    <tag k="highway" v="residential"/>
    <tag k="maxspeed" v="50"/>
    <tag k="name" v="Pontefract Street"/>
  </way>
  <way id="21791367" version="4" timestamp="2009-09-20T07:56:59Z" uid="7617" user="Franc" changeset="2542001">
    <nd ref="234880012"/>
    <nd ref="234884948"/>
    <nd ref="234880016"/>
    <nd ref="234878378"/>
    <tag k="created_by" v="Potlatch 0.6b"/>
    <tag k="highway" v="unclassified"/>
    <tag k="name" v="Sargents Road"/>
    <tag k="oneway" v="yes"/>
    <tag k="source" v="survey"/>
  </way>
  <way id="21791371" version="4" timestamp="2010-02-15T05:05:18Z" uid="74617" user="JohnSmith" changeset="3880242">
    <nd ref="234874587"/>
    <nd ref="234880049"/>
    <tag k="highway" v="residential"/>
    <tag k="maxspeed" v="50"/>
    <tag k="name" v="Bodmin Place"/>
  </way>
  <way id="21791401" version="3" timestamp="2009-09-20T07:57:00Z" uid="7617" user="Franc" changeset="2542001">
    <nd ref="234880016"/>
    <nd ref="234880358"/>
    <nd ref="234880359"/>
    <nd ref="234880360"/>
    <tag k="created_by" v="Potlatch 0.6b"/>
    <tag k="highway" v="unclassified"/>
    <tag k="name" v="Sargents Road"/>
    <tag k="oneway" v="yes"/>
    <tag k="source" v="survey"/>
  </way>
  <way id="21791484" version="4" timestamp="2009-09-20T07:56:58Z" uid="7617" user="Franc" changeset="2542001">
    <nd ref="234881315"/>
    <nd ref="234884675"/>
    <nd ref="234881316"/>
    <nd ref="234881318"/>
    <nd ref="234881320"/>
    <tag k="created_by" v="Potlatch 0.6b"/>
    <tag k="highway" v="unclassified"/>
    <tag k="name" v="Sargents Road"/>
    <tag k="source" v="survey"/>
  </way>
  <way id="21791484" version="5" timestamp="2010-09-11T05:46:45Z" uid="61114" user="Trav" changeset="5746762">
    <nd ref="234881315"/>
    <nd ref="234884675"/>
    <nd ref="234881316"/>
    <nd ref="234881318"/>
    <nd ref="234881320"/>
    <tag k="created_by" v="Potlatch 0.6b"/>
    <tag k="highway" v="unclassified"/>
    <tag k="name" v="Sargents Road"/>
    <tag k="source" v="survey"/>
    <tag k="source:name" v="survey"/>
  </way>
  <way id="21791595" version="3" timestamp="2009-09-20T07:56:57Z" uid="7617" user="Franc" changeset="2542001">
    <nd ref="234882379"/>
    <nd ref="234881315"/>
    <tag k="created_by" v="Potlatch 0.6b"/>
    <tag k="highway" v="unclassified"/>
    <tag k="name" v="Sargents Road"/>
    <tag k="oneway" v="yes"/>
    <tag k="source" v="survey"/>
  </way>
  <way id="21791637" version="3" timestamp="2009-09-20T07:56:59Z" uid="7617" user="Franc" changeset="2542001">
    <nd ref="234881315"/>
    <nd ref="234880012"/>
    <tag k="created_by" v="Potlatch 0.6b"/>
    <tag k="highway" v="unclassified"/>
    <tag k="name" v="Sargents Road"/>
    <tag k="oneway" v="yes"/>
    <tag k="source" v="survey"/>
  </way>
  <way id="21791745" version="3" timestamp="2009-09-20T07:56:59Z" uid="7617" user="Franc" changeset="2542001">
    <nd ref="234884675"/>
    <nd ref="234884947"/>
    <nd ref="234884948"/>
    <tag k="created_by" v="Potlatch 0.6b"/>
    <tag k="highway" v="unclassified"/>
    <tag k="name" v="Sargents Road"/>
    <tag k="oneway" v="yes"/>
    <tag k="source" v="survey"/>
  </way>
  <way id="21791935" version="3" timestamp="2010-09-11T05:46:44Z" uid="61114" user="Trav" changeset="5746762">
    <nd ref="234886839"/>
    <nd ref="234887192"/>
    <nd ref="234887194"/>
    <tag k="created_by" v="Potlatch 0.6b"/>
    <tag k="highway" v="unclassified"/>
    <tag k="name" v="Colyton Road"/>
    <tag k="source" v="survey"/>
    <tag k="source:name" v="survey"/>
  </way>
  <way id="21791943" version="4" timestamp="2010-02-15T05:05:41Z" uid="74617" user="JohnSmith" changeset="3880242">
    <nd ref="234841572"/>
    <nd ref="234887277"/>
    <nd ref="234887279"/>
    <nd ref="234887280"/>
    <nd ref="234887283"/>
    <nd ref="234887285"/>
    <nd ref="234887290"/>
    <nd ref="234887293"/>
    <nd ref="234887296"/>
    <nd ref="234887297"/>
    <nd ref="234887299"/>
    <nd ref="234902936"/>
    <nd ref="234902938"/>
    <tag k="highway" v="service"/>
    <tag k="maxspeed" v="50"/>
  </way>
</osm>
