<?xml version='1.0' encoding='UTF-8'?>
<osm version="0.6" generator="libosmium/2.20.0">
  <way id="21801478" version="9" timestamp="2008-07-12T06:57:10Z" uid="27600" user="Islanit" changeset="469615">
    <nd ref="162448"/>
    <nd ref="260125231"/>
    <nd ref="93117141"/>
    <tag k="created_by" v="Potlatch 0.9c"/>
    <tag k="highway" v="trunk"/>
    <tag k="name" v="Bergedorfer Straße"/>
    <tag k="oneway" v="true"/>
    <tag k="ref" v="B 5"/>
  </way>
  <way id="21801478" version="10" timestamp="2008-07-16T18:48:17Z" uid="27600" user="Islanit" changeset="507826">
    <nd ref="162448"/>
    <nd ref="260125231"/>
    <nd ref="93117141"/>
    <tag k="bicycle" v="no"/>
    <tag k="created_by" v="Potlatch 0.9c"/>
    <tag k="highway" v="trunk"/>
    <tag k="name" v="Bergedorfer Straße"/>
    <tag k="oneway" v="true"/>
    <tag k="ref" v="B 5"/>
  </way>
  <way id="21801478" version="15" timestamp="2010-01-27T11:38:32Z" uid="27600" user="Islanit" changeset="3727094">
    <nd ref="162448"/>
    <nd ref="260125231"/>
    <nd ref="93117141"/>
    <tag k="bicycle" v="no"/>
    <tag k="highway" v="trunk"/>
    <tag k="lanes" v="2"/>
    <tag k="name" v="Bergedorfer Straße"/>
    <tag k="oneway" v="yes"/>
    <tag k="ref" v="B 5"/>
  </way>
</osm>
