<?xml version='1.0' encoding='UTF-8'?>
<osm version="0.6" generator="libosmium/2.20.0">
  <way id="21836575" version="8" timestamp="2010-03-16T21:59:08Z" uid="163746" user="anti_bot-nonsense" changeset="4147354">
    <nd ref="150602206"/>
    <nd ref="150603308"/>
    <nd ref="247472138"/>
    <nd ref="148026998"/>
    <tag k="highway" v="secondary"/>
    <tag k="name" v="Królowej Jadwigi"/>
    <tag k="oneway" v="yes"/>
  </way>
  <way id="21836603" version="3" timestamp="2008-10-08T18:44:39Z" uid="30632" user="antblant" changeset="169665">
    <nd ref="150602206"/>
    <nd ref="150602207"/>
    <tag k="bridge" v="yes"/>
    <tag k="created_by" v="Potlatch 0.6b"/>
    <tag k="highway" v="secondary"/>
    <tag k="layer" v="1"/>
    <tag k="name" v="Most Królowej Jadwigi"/>
    <tag k="oneway" v="yes"/>
  </way>
  <way id="21836603" version="13" timestamp="2010-03-16T21:58:54Z" uid="163746" user="anti_bot-nonsense" changeset="4147354">
    <nd ref="150602207"/>
    <nd ref="150602206"/>
    <tag k="bridge" v="yes"/>
    <tag k="highway" v="secondary"/>
    <tag k="name" v="Most Królowej Jadwigi"/>
    <tag k="oneway" v="yes"/>
  </way>
</osm>
