<?xml version='1.0' encoding='UTF-8'?>
<osm version="0.6" generator="libosmium/2.20.0">
  <way id="21970610" version="2" timestamp="2008-03-24T20:22:11Z" uid="30974" user="no_displayname" changeset="388885">
    <nd ref="236762279"/>
    <nd ref="253835982"/>
    <nd ref="236762277"/>
    <nd ref="236762272"/>
    <nd ref="236762265"/>
    <nd ref="236762047"/>
    <tag k="created_by" v="JOSM"/>
    <tag k="highway" v="residential"/>
    <tag k="maxspeed" v="30"/>
    <tag k="name" v="Hofmannsthalweg"/>
  </way>
  <way id="21970612" version="2" timestamp="2008-03-24T20:22:11Z" uid="30974" user="no_displayname" changeset="388885">
    <nd ref="236762093"/>
    <nd ref="236762095"/>
    <nd ref="236762101"/>
    <nd ref="236762107"/>
    <nd ref="236762112"/>
    <nd ref="236762115"/>
    <nd ref="236762120"/>
    <nd ref="236762121"/>
    <nd ref="253835969"/>
    <nd ref="236762123"/>
    <tag k="created_by" v="JOSM"/>
    <tag k="highway" v="residential"/>
    <tag k="maxspeed" v="30"/>
    <tag k="name" v="Kafkaweg"/>
  </way>
  <way id="21970937" version="2" timestamp="2008-03-24T20:22:10Z" uid="30974" user="no_displayname" changeset="388885">
    <nd ref="236762286"/>
    <nd ref="253835980"/>
    <nd ref="236762272"/>
    <nd ref="236765996"/>
    <tag k="created_by" v="JOSM"/>
    <tag k="highway" v="residential"/>
    <tag k="maxspeed" v="30"/>
    <tag k="name" v="Schnitzlerweg"/>
  </way>
</osm>
