<?xml version='1.0' encoding='UTF-8'?>
<osm version="0.6" generator="libosmium/2.20.0">
  <way id="22113029" version="2" timestamp="2008-09-16T10:40:05Z" uid="1066" user="pavel" changeset="646258">
    <nd ref="237927159"/>
    <nd ref="237927307"/>
    <tag k="created_by" v="Potlatch 0.6c"/>
    <tag k="highway" v="residential"/>
    <tag k="name" v="Meskářova"/>
    <tag k="name:source" v="nameit/uir-adr"/>
  </way>
  <way id="22113090" version="3" timestamp="2009-09-17T19:07:48Z" uid="23543" user="jkjk" changeset="2515873">
    <nd ref="237863963"/>
    <nd ref="237928231"/>
    <nd ref="237928234"/>
    <nd ref="237928239"/>
    <nd ref="237928241"/>
    <nd ref="237928244"/>
    <nd ref="237928247"/>
    <nd ref="499510534"/>
    <nd ref="237928251"/>
    <nd ref="237928254"/>
    <nd ref="237928256"/>
    <nd ref="237928258"/>
    <nd ref="237928260"/>
    <nd ref="237928261"/>
    <nd ref="104125129"/>
    <nd ref="30930546"/>
    <tag k="highway" v="tertiary"/>
    <tag k="kct_blue" v="major"/>
  </way>
  <way id="22113113" version="2" timestamp="2008-09-16T10:36:06Z" uid="1066" user="pavel" changeset="646258">
    <nd ref="237928244"/>
    <nd ref="237928532"/>
    <nd ref="237864836"/>
    <tag k="created_by" v="Potlatch 0.6c"/>
    <tag k="highway" v="residential"/>
    <tag k="name" v="Dominínská"/>
    <tag k="name:source" v="nameit/uir-adr"/>
  </way>
  <way id="22113139" version="2" timestamp="2008-09-16T10:39:37Z" uid="1066" user="pavel" changeset="646258">
    <nd ref="237863964"/>
    <nd ref="237928879"/>
    <nd ref="237928882"/>
    <nd ref="237928885"/>
    <nd ref="237928888"/>
    <nd ref="237928890"/>
    <nd ref="237928532"/>
    <tag k="created_by" v="Potlatch 0.6c"/>
    <tag k="highway" v="residential"/>
    <tag k="name" v="Dominínská"/>
    <tag k="name:source" v="nameit/uir-adr"/>
  </way>
  <way id="22113187" version="2" timestamp="2008-09-16T10:39:05Z" uid="1066" user="pavel" changeset="646258">
    <nd ref="237863960"/>
    <nd ref="237929442"/>
    <nd ref="237929444"/>
    <nd ref="237929446"/>
    <nd ref="237929447"/>
    <nd ref="237929448"/>
    <nd ref="237929449"/>
    <nd ref="237929450"/>
    <tag k="created_by" v="Potlatch 0.6c"/>
    <tag k="highway" v="residential"/>
    <tag k="name" v="Ke Smíchovu"/>
    <tag k="name:source" v="nameit/uir-adr"/>
  </way>
  <way id="22113232" version="2" timestamp="2008-09-16T10:38:04Z" uid="1066" user="pavel" changeset="646258">
    <nd ref="25953697"/>
    <nd ref="237929820"/>
    <nd ref="237929821"/>
    <nd ref="237929822"/>
    <nd ref="237863960"/>
    <tag k="created_by" v="Potlatch 0.6c"/>
    <tag k="highway" v="residential"/>
    <tag k="name" v="Na Křenkově"/>
    <tag k="name:source" v="nameit/uir-adr"/>
  </way>
  <way id="22113232" version="4" timestamp="2009-09-17T19:07:50Z" uid="23543" user="jkjk" changeset="2515873">
    <nd ref="25953697"/>
    <nd ref="237929820"/>
    <nd ref="237929821"/>
    <nd ref="237929822"/>
    <nd ref="237863960"/>
    <tag k="highway" v="residential"/>
    <tag k="kct_blue" v="major"/>
    <tag k="name" v="Na Křenkově"/>
    <tag k="source:name" v="nameit/uir-adr"/>
  </way>
</osm>
