<?xml version='1.0' encoding='UTF-8'?>
<osm version="0.6" generator="libosmium/2.20.0">
  <way id="22182706" version="8" timestamp="2009-08-02T04:12:44Z" uid="20587" user="balrog-kun" changeset="2009571">
    <nd ref="299906498"/>
    <nd ref="238525637"/>
    <nd ref="238525639"/>
    <nd ref="238525640"/>
    <nd ref="299906535"/>
    <nd ref="238525642"/>
    <nd ref="452501111"/>
    <nd ref="238532959"/>
    <nd ref="238530333"/>
    <nd ref="238530639"/>
    <tag k="highway" v="tertiary"/>
    <tag k="name" v="Profesora Stanisława Kirkora"/>
  </way>
  <way id="22182875" version="4" timestamp="2009-10-11T18:27:14Z" uid="20587" user="balrog-kun" changeset="2818513">
    <nd ref="29832427"/>
    <nd ref="29832428"/>
    <tag k="bridge" v="yes"/>
    <tag k="electrified" v="contact_line"/>
    <tag k="int_ref" v="E20"/>
    <tag k="layer" v="1"/>
    <tag k="maxspeed" v="160"/>
    <tag k="name" v="Linia Warszawa-Zachodnia - Kunowice"/>
    <tag k="operator" v="PLK S.A."/>
    <tag k="railway" v="rail"/>
    <tag k="ref" v="3"/>
    <tag k="voltage" v="3000"/>
    <tag k="wikipedia" v="pl:Linia kolejowa nr 3"/>
  </way>
  <way id="22182875" version="5" timestamp="2009-11-11T11:16:27Z" uid="20587" user="balrog-kun" changeset="3089068">
    <nd ref="29832427"/>
    <nd ref="29832428"/>
    <tag k="bridge" v="yes"/>
    <tag k="electrified" v="contact_line"/>
    <tag k="layer" v="1"/>
    <tag k="maxspeed" v="160"/>
    <tag k="railway" v="rail"/>
    <tag k="voltage" v="3000"/>
  </way>
  <way id="22182903" version="2" timestamp="2009-10-11T18:27:14Z" uid="20587" user="balrog-kun" changeset="2818513">
    <nd ref="29832428"/>
    <nd ref="29832429"/>
    <nd ref="29832430"/>
    <nd ref="29832431"/>
    <nd ref="29832432"/>
    <nd ref="29832433"/>
    <nd ref="29832434"/>
    <nd ref="29832435"/>
    <nd ref="29832436"/>
    <nd ref="29832437"/>
    <tag k="electrified" v="contact_line"/>
    <tag k="int_ref" v="E20"/>
    <tag k="maxspeed" v="160"/>
    <tag k="name" v="Linia Warszawa-Zachodnia - Kunowice"/>
    <tag k="operator" v="PLK S.A."/>
    <tag k="railway" v="rail"/>
    <tag k="ref" v="3"/>
    <tag k="voltage" v="3000"/>
    <tag k="wikipedia" v="pl:Linia kolejowa nr 3"/>
  </way>
  <way id="22182903" version="3" timestamp="2009-11-11T11:16:25Z" uid="20587" user="balrog-kun" changeset="3089068">
    <nd ref="29832428"/>
    <nd ref="29832429"/>
    <nd ref="29832430"/>
    <nd ref="29832431"/>
    <nd ref="29832432"/>
    <nd ref="29832433"/>
    <nd ref="29832434"/>
    <nd ref="29832435"/>
    <nd ref="29832436"/>
    <nd ref="29832437"/>
    <tag k="electrified" v="contact_line"/>
    <tag k="maxspeed" v="160"/>
    <tag k="railway" v="rail"/>
    <tag k="voltage" v="3000"/>
  </way>
  <way id="22182959" version="6" timestamp="2009-10-11T18:27:13Z" uid="20587" user="balrog-kun" changeset="2818513">
    <nd ref="238526966"/>
    <nd ref="238526967"/>
    <tag k="bridge" v="yes"/>
    <tag k="layer" v="1"/>
    <tag k="name" v="Linia Swarzędz - Poznań Starołęka"/>
    <tag k="railway" v="rail"/>
    <tag k="ref" v="352"/>
  </way>
  <way id="22182959" version="7" timestamp="2009-11-11T11:16:27Z" uid="20587" user="balrog-kun" changeset="3089068">
    <nd ref="238526966"/>
    <nd ref="238526967"/>
    <tag k="bridge" v="yes"/>
    <tag k="layer" v="1"/>
    <tag k="railway" v="rail"/>
  </way>
  <way id="22182979" version="5" timestamp="2009-10-11T18:27:12Z" uid="20587" user="balrog-kun" changeset="2818513">
    <nd ref="238526967"/>
    <nd ref="359901372"/>
    <nd ref="359901373"/>
    <nd ref="359901374"/>
    <nd ref="359901375"/>
    <nd ref="359901376"/>
    <nd ref="359901377"/>
    <nd ref="359901378"/>
    <nd ref="359901379"/>
    <nd ref="526812887"/>
    <nd ref="526812888"/>
    <nd ref="526812889"/>
    <nd ref="526812862"/>
    <tag k="name" v="Linia Swarzędz - Poznań Starołęka"/>
    <tag k="railway" v="rail"/>
    <tag k="ref" v="352"/>
  </way>
  <way id="22182979" version="6" timestamp="2009-11-11T11:16:27Z" uid="20587" user="balrog-kun" changeset="3089068">
    <nd ref="238526967"/>
    <nd ref="359901372"/>
    <nd ref="359901373"/>
    <nd ref="359901374"/>
    <nd ref="359901375"/>
    <nd ref="359901376"/>
    <tag k="railway" v="rail"/>
  </way>
</osm>
