<?xml version='1.0' encoding='UTF-8'?>
<osm version="0.6" generator="libosmium/2.20.0">
  <way id="22262125" version="5" timestamp="2010-07-07T08:23:55Z" uid="74617" user="JohnSmith" changeset="5156250">
    <nd ref="239225675"/>
    <nd ref="239343157"/>
    <nd ref="239343194"/>
    <nd ref="239343215"/>
    <nd ref="239343235"/>
    <nd ref="239343246"/>
    <nd ref="239343267"/>
    <nd ref="239343303"/>
    <nd ref="239343323"/>
    <nd ref="239343735"/>
    <nd ref="239343775"/>
    <nd ref="239324471"/>
    <tag k="highway" v="residential"/>
    <tag k="maxspeed" v="50"/>
    <tag k="maxspeed:source" v="default residential speed limit in Australia"/>
    <tag k="name" v="Ballantyne Crescent"/>
  </way>
  <way id="22262134" version="4" timestamp="2010-07-07T08:26:07Z" uid="74617" user="JohnSmith" changeset="5156250">
    <nd ref="239343303"/>
    <nd ref="239343346"/>
    <nd ref="239343389"/>
    <nd ref="239343414"/>
    <nd ref="239343457"/>
    <nd ref="239343484"/>
    <nd ref="239343502"/>
    <nd ref="239343527"/>
    <nd ref="239343552"/>
    <nd ref="239343575"/>
    <nd ref="239343598"/>
    <nd ref="239343621"/>
    <nd ref="239343664"/>
    <nd ref="239324734"/>
    <tag k="highway" v="residential"/>
    <tag k="maxspeed" v="50"/>
    <tag k="maxspeed:source" v="default residential speed limit in Australia"/>
    <tag k="name" v="Mavis Latham Street"/>
  </way>
  <way id="22262869" version="3" timestamp="2010-07-08T00:24:36Z" uid="74617" user="JohnSmith" changeset="5162525">
    <nd ref="239349968"/>
    <nd ref="239349984"/>
    <nd ref="239350001"/>
    <tag k="highway" v="residential"/>
    <tag k="maxspeed" v="50"/>
    <tag k="maxspeed:source" v="default residential speed limit in Australia"/>
    <tag k="name" v="Jacobs Close"/>
  </way>
  <way id="22262870" version="2" timestamp="2010-06-22T09:39:28Z" uid="61114" user="Trav" changeset="5049663">
    <nd ref="239350020"/>
    <nd ref="781321100"/>
    <nd ref="781321099"/>
    <nd ref="239350054"/>
    <nd ref="239350173"/>
    <nd ref="239350037"/>
    <tag k="created_by" v="JOSM"/>
    <tag k="highway" v="residential"/>
    <tag k="name" v="Roma Street"/>
  </way>
  <way id="22262870" version="3" timestamp="2010-07-08T00:27:07Z" uid="74617" user="JohnSmith" changeset="5162525">
    <nd ref="239350020"/>
    <nd ref="781321100"/>
    <nd ref="781321099"/>
    <nd ref="239350054"/>
    <nd ref="239350173"/>
    <nd ref="239350037"/>
    <tag k="highway" v="residential"/>
    <tag k="maxspeed" v="50"/>
    <tag k="maxspeed:source" v="default residential speed limit in Australia"/>
    <tag k="name" v="Roma Street"/>
  </way>
  <way id="22262871" version="2" timestamp="2010-06-22T09:39:28Z" uid="61114" user="Trav" changeset="5049663">
    <nd ref="239350054"/>
    <nd ref="781321087"/>
    <nd ref="239350071"/>
    <tag k="created_by" v="JOSM"/>
    <tag k="highway" v="residential"/>
    <tag k="name" v="Raidell Place"/>
  </way>
  <way id="22262871" version="3" timestamp="2010-07-08T00:21:35Z" uid="74617" user="JohnSmith" changeset="5162525">
    <nd ref="239350054"/>
    <nd ref="781321087"/>
    <nd ref="239350071"/>
    <tag k="highway" v="residential"/>
    <tag k="maxspeed" v="50"/>
    <tag k="maxspeed:source" v="default residential speed limit in Australia"/>
    <tag k="name" v="Raidell Place"/>
  </way>
  <way id="22262872" version="2" timestamp="2010-06-22T09:39:29Z" uid="61114" user="Trav" changeset="5049663">
    <nd ref="239350090"/>
    <nd ref="239350108"/>
    <nd ref="239350126"/>
    <nd ref="239350555"/>
    <nd ref="781321119"/>
    <nd ref="239350144"/>
    <nd ref="239350157"/>
    <nd ref="781321114"/>
    <nd ref="239350173"/>
    <tag k="created_by" v="JOSM"/>
    <tag k="highway" v="residential"/>
    <tag k="name" v="Nirimba Avenue"/>
  </way>
  <way id="22262872" version="3" timestamp="2010-07-08T00:22:03Z" uid="74617" user="JohnSmith" changeset="5162525">
    <nd ref="239350090"/>
    <nd ref="239350108"/>
    <nd ref="239350126"/>
    <nd ref="239350555"/>
    <nd ref="781321119"/>
    <nd ref="239350144"/>
    <nd ref="239350157"/>
    <nd ref="781321114"/>
    <nd ref="239350173"/>
    <tag k="highway" v="residential"/>
    <tag k="maxspeed" v="50"/>
    <tag k="maxspeed:source" v="default residential speed limit in Australia"/>
    <tag k="name" v="Nirimba Avenue"/>
  </way>
  <way id="22262873" version="3" timestamp="2010-07-08T00:23:32Z" uid="74617" user="JohnSmith" changeset="5162525">
    <nd ref="239350191"/>
    <nd ref="567475801"/>
    <nd ref="567475802"/>
    <nd ref="567475803"/>
    <nd ref="239350460"/>
    <nd ref="239350212"/>
    <nd ref="239350229"/>
    <nd ref="239350246"/>
    <tag k="highway" v="residential"/>
    <tag k="maxspeed" v="50"/>
    <tag k="maxspeed:source" v="default residential speed limit in Australia"/>
    <tag k="name" v="Grayson Road"/>
    <tag k="source" v="nearmap"/>
  </way>
  <way id="22262874" version="4" timestamp="2010-07-08T00:25:59Z" uid="74617" user="JohnSmith" changeset="5162525">
    <nd ref="239350265"/>
    <nd ref="239350374"/>
    <nd ref="567475796"/>
    <nd ref="239350283"/>
    <nd ref="239350319"/>
    <nd ref="239350337"/>
    <nd ref="567475800"/>
    <nd ref="239350354"/>
    <tag k="highway" v="residential"/>
    <tag k="maxspeed" v="50"/>
    <tag k="maxspeed:source" v="default residential speed limit in Australia"/>
    <tag k="name" v="Grigg Avenue"/>
  </way>
  <way id="22262875" version="2" timestamp="2010-07-08T00:27:32Z" uid="74617" user="JohnSmith" changeset="5162525">
    <nd ref="239350374"/>
    <nd ref="239350383"/>
    <tag k="highway" v="residential"/>
    <tag k="maxspeed" v="50"/>
    <tag k="maxspeed:source" v="default residential speed limit in Australia"/>
    <tag k="name" v="Gregory Avenue"/>
  </way>
  <way id="22262876" version="2" timestamp="2010-07-08T00:27:52Z" uid="74617" user="JohnSmith" changeset="5162525">
    <nd ref="239350403"/>
    <nd ref="239350037"/>
    <nd ref="239350418"/>
    <nd ref="239350436"/>
    <nd ref="239350441"/>
    <nd ref="239350460"/>
    <tag k="highway" v="residential"/>
    <tag k="maxspeed" v="50"/>
    <tag k="maxspeed:source" v="default residential speed limit in Australia"/>
    <tag k="name" v="Holland Street"/>
  </way>
  <way id="22262877" version="3" timestamp="2010-07-08T00:22:30Z" uid="74617" user="JohnSmith" changeset="5162525">
    <nd ref="239350436"/>
    <nd ref="239350476"/>
    <nd ref="239350495"/>
    <nd ref="239350524"/>
    <nd ref="239350509"/>
    <tag k="highway" v="residential"/>
    <tag k="maxspeed" v="50"/>
    <tag k="maxspeed:source" v="default residential speed limit in Australia"/>
    <tag k="name" v="Narelle Street"/>
  </way>
  <way id="22262878" version="2" timestamp="2010-07-08T00:24:57Z" uid="74617" user="JohnSmith" changeset="5162525">
    <nd ref="239350524"/>
    <nd ref="239350538"/>
    <nd ref="239350555"/>
    <tag k="highway" v="residential"/>
    <tag k="maxspeed" v="50"/>
    <tag k="maxspeed:source" v="default residential speed limit in Australia"/>
    <tag k="name" v="Namoi Street"/>
  </way>
</osm>
