<?xml version='1.0' encoding='UTF-8'?>
<osm version="0.6" generator="libosmium/2.20.0">
  <way id="22396327" version="3" timestamp="2008-09-05T10:54:39Z" uid="1066" user="pavel" changeset="539695">
    <nd ref="240803376"/>
    <nd ref="240801751"/>
    <nd ref="240802270"/>
    <nd ref="240804330"/>
    <nd ref="240804320"/>
    <nd ref="240804321"/>
    <tag k="created_by" v="Potlatch 0.6c"/>
    <tag k="highway" v="residential"/>
    <tag k="name" v="Kasalick치"/>
    <tag k="name:source" v="nameit/uir-adr"/>
  </way>
  <way id="22396327" version="4" timestamp="2009-02-07T17:08:27Z" uid="1066" user="pavel" changeset="236955">
    <nd ref="240803376"/>
    <nd ref="240801751"/>
    <nd ref="240802270"/>
    <nd ref="343121825"/>
    <nd ref="240804330"/>
    <nd ref="240804320"/>
    <nd ref="240804321"/>
    <tag k="created_by" v="Potlatch 0.6c"/>
    <tag k="highway" v="residential"/>
    <tag k="name" v="Kasalick치"/>
    <tag k="name:source" v="nameit/uir-adr"/>
  </way>
  <way id="22396349" version="5" timestamp="2009-02-07T17:08:20Z" uid="1066" user="pavel" changeset="236955">
    <nd ref="240805734"/>
    <nd ref="240805735"/>
    <nd ref="343121823"/>
    <nd ref="240804321"/>
    <nd ref="343121828"/>
    <nd ref="240804322"/>
    <nd ref="240795238"/>
    <tag k="created_by" v="Potlatch 0.6c"/>
    <tag k="hgv" v="destination"/>
    <tag k="highway" v="residential"/>
    <tag k="name" v="Da코ick치"/>
  </way>
</osm>
