<?xml version='1.0' encoding='UTF-8'?>
<osm version="0.6" generator="libosmium/2.20.0">
  <way id="22529041" version="10" timestamp="2010-04-10T07:26:00Z" uid="7617" user="Franc" changeset="4379738">
    <nd ref="241647414"/>
    <nd ref="60006569"/>
    <nd ref="241647519"/>
    <nd ref="241647502"/>
    <nd ref="241647532"/>
    <nd ref="241647530"/>
    <nd ref="251793781"/>
    <nd ref="691192298"/>
    <tag k="highway" v="tertiary"/>
    <tag k="name" v="Edgbaston Road"/>
  </way>
  <way id="22529041" version="11" timestamp="2010-05-15T14:40:10Z" uid="7617" user="Franc" changeset="4706870">
    <nd ref="241647414"/>
    <nd ref="60006569"/>
    <nd ref="735109998"/>
    <tag k="highway" v="tertiary"/>
    <tag k="name" v="Edgbaston Road"/>
    <tag k="restriction" v="school_zone"/>
  </way>
  <way id="22529041" version="13" timestamp="2011-06-19T13:05:34Z" uid="7617" user="Franc" changeset="8483784"/>
  <way id="22529155" version="2" timestamp="2010-05-15T14:40:09Z" uid="7617" user="Franc" changeset="4706870">
    <nd ref="241647502"/>
    <nd ref="735109989"/>
    <nd ref="241647518"/>
    <tag k="highway" v="residential"/>
    <tag k="name" v="Hampden Street"/>
  </way>
  <way id="22529155" version="3" timestamp="2010-07-08T02:13:44Z" uid="74617" user="JohnSmith" changeset="5162525">
    <nd ref="241647502"/>
    <nd ref="735109989"/>
    <nd ref="241647518"/>
    <tag k="highway" v="residential"/>
    <tag k="maxspeed" v="50"/>
    <tag k="maxspeed:source" v="default residential speed limit in Australia"/>
    <tag k="name" v="Hampden Street"/>
  </way>
  <way id="22529302" version="2" timestamp="2010-05-15T14:40:09Z" uid="7617" user="Franc" changeset="4706870">
    <nd ref="241647519"/>
    <nd ref="735109996"/>
    <nd ref="241647520"/>
    <tag k="fixme:sign:no" v="2010-05-16"/>
    <tag k="highway" v="service"/>
    <tag k="oneway" v="yes"/>
  </way>
  <way id="22529302" version="3" timestamp="2010-11-14T06:38:02Z" uid="7617" user="Franc" changeset="6363993">
    <nd ref="241647519"/>
    <nd ref="735109996"/>
    <tag k="fixme:sign:no" v="2010-11-14"/>
    <tag k="highway" v="service"/>
    <tag k="oneway" v="yes"/>
  </way>
  <way id="22529305" version="6" timestamp="2010-04-10T07:25:58Z" uid="7617" user="Franc" changeset="4379738">
    <nd ref="241647521"/>
    <nd ref="251793682"/>
    <nd ref="251793688"/>
    <nd ref="251793742"/>
    <nd ref="241647530"/>
    <nd ref="251793776"/>
    <tag k="highway" v="residential"/>
    <tag k="name" v="Melvyn Street"/>
  </way>
  <way id="22529305" version="7" timestamp="2010-05-15T14:40:08Z" uid="7617" user="Franc" changeset="4706870">
    <nd ref="241647521"/>
    <nd ref="251793682"/>
    <nd ref="735109981"/>
    <nd ref="251793688"/>
    <nd ref="251793742"/>
    <nd ref="241647530"/>
    <nd ref="251793776"/>
    <tag k="highway" v="residential"/>
    <tag k="name" v="Melvyn Street"/>
  </way>
  <way id="22529305" version="8" timestamp="2010-07-08T02:07:08Z" uid="74617" user="JohnSmith" changeset="5162525">
    <nd ref="241647521"/>
    <nd ref="251793682"/>
    <nd ref="735109981"/>
    <nd ref="251793688"/>
    <nd ref="251793742"/>
    <nd ref="241647530"/>
    <nd ref="251793776"/>
    <tag k="highway" v="residential"/>
    <tag k="maxspeed" v="50"/>
    <tag k="maxspeed:source" v="default residential speed limit in Australia"/>
    <tag k="name" v="Melvyn Street"/>
  </way>
  <way id="22529309" version="2" timestamp="2010-05-15T14:40:08Z" uid="7617" user="Franc" changeset="4706870">
    <nd ref="241647532"/>
    <nd ref="735109982"/>
    <nd ref="241647546"/>
    <tag k="fixme:sign:no" v="2010-05-16"/>
    <tag k="highway" v="service"/>
  </way>
  <way id="22529309" version="3" timestamp="2010-11-14T06:37:09Z" uid="7617" user="Franc" changeset="6363993">
    <nd ref="241647532"/>
    <nd ref="988537982"/>
    <nd ref="241647546"/>
    <tag k="fixme:sign:no" v="2010-11-14"/>
    <tag k="highway" v="service"/>
  </way>
  <way id="22529311" version="4" timestamp="2010-04-10T06:35:49Z" uid="7617" user="Franc" changeset="4379539">
    <nd ref="241647547"/>
    <nd ref="691178439"/>
    <nd ref="241647670"/>
    <nd ref="241647767"/>
    <nd ref="241647758"/>
    <nd ref="241647671"/>
    <tag k="highway" v="residential"/>
    <tag k="name" v="Lee Avenue"/>
  </way>
  <way id="22529311" version="5" timestamp="2010-07-08T02:12:59Z" uid="74617" user="JohnSmith" changeset="5162525">
    <nd ref="241647547"/>
    <nd ref="691178439"/>
    <nd ref="241647670"/>
    <nd ref="241647767"/>
    <nd ref="241647758"/>
    <nd ref="241647671"/>
    <tag k="highway" v="residential"/>
    <tag k="maxspeed" v="50"/>
    <tag k="maxspeed:source" v="default residential speed limit in Australia"/>
    <tag k="name" v="Lee Avenue"/>
  </way>
  <way id="22529317" version="2" timestamp="2010-05-15T14:40:10Z" uid="7617" user="Franc" changeset="4706870">
    <nd ref="241647751"/>
    <nd ref="735110003"/>
    <tag k="highway" v="residential"/>
    <tag k="name" v="Frederick Avenue"/>
    <tag k="restriction" v="school_zone"/>
  </way>
  <way id="22529317" version="3" timestamp="2010-07-08T02:10:53Z" uid="74617" user="JohnSmith" changeset="5162525">
    <nd ref="241647751"/>
    <nd ref="735110003"/>
    <tag k="highway" v="residential"/>
    <tag k="maxspeed" v="50"/>
    <tag k="maxspeed:source" v="default residential speed limit in Australia"/>
    <tag k="name" v="Frederick Avenue"/>
    <tag k="restriction" v="school_zone"/>
  </way>
  <way id="22529318" version="3" timestamp="2010-04-10T06:35:53Z" uid="7617" user="Franc" changeset="4379539"/>
  <way id="22529319" version="2" timestamp="2010-04-10T06:35:41Z" uid="7617" user="Franc" changeset="4379539">
    <nd ref="241647670"/>
    <nd ref="691178445"/>
    <nd ref="241647769"/>
    <tag k="highway" v="residential"/>
    <tag k="name" v="Beresford Avenue"/>
  </way>
  <way id="22529319" version="3" timestamp="2010-07-08T02:11:52Z" uid="74617" user="JohnSmith" changeset="5162525">
    <nd ref="241647670"/>
    <nd ref="691178445"/>
    <nd ref="241647769"/>
    <tag k="highway" v="residential"/>
    <tag k="maxspeed" v="50"/>
    <tag k="maxspeed:source" v="default residential speed limit in Australia"/>
    <tag k="name" v="Beresford Avenue"/>
  </way>
  <way id="22529320" version="3" timestamp="2010-04-10T06:35:49Z" uid="7617" user="Franc" changeset="4379539">
    <nd ref="26638289"/>
    <nd ref="691178465"/>
    <nd ref="241647768"/>
    <nd ref="241647732"/>
    <tag k="highway" v="residential"/>
    <tag k="name" v="Cahill Street"/>
  </way>
  <way id="22529320" version="4" timestamp="2010-04-21T05:09:35Z" uid="4467" user="Rosscoe" changeset="4483374">
    <nd ref="26638289"/>
    <nd ref="691178465"/>
    <nd ref="241647768"/>
    <nd ref="703047370"/>
    <tag k="highway" v="residential"/>
    <tag k="name" v="Cahill Street"/>
  </way>
  <way id="22529320" version="5" timestamp="2010-07-03T21:56:29Z" uid="7617" user="Franc" changeset="5128435">
    <nd ref="26638289"/>
    <nd ref="799683596"/>
    <nd ref="691178465"/>
    <nd ref="241647768"/>
    <nd ref="703047370"/>
    <tag k="highway" v="residential"/>
    <tag k="name" v="Cahill Street"/>
  </way>
  <way id="22529320" version="6" timestamp="2010-07-08T02:12:40Z" uid="74617" user="JohnSmith" changeset="5162525">
    <nd ref="26638289"/>
    <nd ref="799683596"/>
    <nd ref="691178465"/>
    <nd ref="241647768"/>
    <nd ref="703047370"/>
    <tag k="highway" v="residential"/>
    <tag k="maxspeed" v="50"/>
    <tag k="maxspeed:source" v="default residential speed limit in Australia"/>
    <tag k="name" v="Cahill Street"/>
  </way>
  <way id="22529323" version="4" timestamp="2010-04-10T06:35:49Z" uid="7617" user="Franc" changeset="4379539">
    <nd ref="26638292"/>
    <nd ref="240313774"/>
    <nd ref="241648418"/>
    <nd ref="691178480"/>
    <nd ref="241648227"/>
    <nd ref="241647735"/>
    <tag k="highway" v="residential"/>
    <tag k="name" v="Illawarra Parade"/>
  </way>
  <way id="22529323" version="5" timestamp="2010-07-08T02:09:52Z" uid="74617" user="JohnSmith" changeset="5162525">
    <nd ref="26638292"/>
    <nd ref="240313774"/>
    <nd ref="241648418"/>
    <nd ref="691178480"/>
    <nd ref="241648227"/>
    <nd ref="241647735"/>
    <tag k="highway" v="residential"/>
    <tag k="maxspeed" v="50"/>
    <tag k="maxspeed:source" v="default residential speed limit in Australia"/>
    <tag k="name" v="Illawarra Parade"/>
  </way>
  <way id="22529325" version="3" timestamp="2008-01-27T10:29:47Z" uid="7617" user="Franc" changeset="699878">
    <nd ref="241647845"/>
    <nd ref="241648126"/>
    <nd ref="243668164"/>
    <nd ref="241648127"/>
    <nd ref="241648129"/>
    <nd ref="241648130"/>
    <nd ref="241648395"/>
    <nd ref="241648131"/>
    <nd ref="241648132"/>
    <tag k="created_by" v="Potlatch 0.6c"/>
    <tag k="highway" v="residential"/>
    <tag k="name" v="Westbrook Street"/>
  </way>
  <way id="22529325" version="5" timestamp="2010-05-15T14:40:11Z" uid="7617" user="Franc" changeset="4706870">
    <nd ref="241647845"/>
    <nd ref="735110046"/>
    <nd ref="735110011"/>
    <nd ref="241648126"/>
    <nd ref="243668164"/>
    <nd ref="241648127"/>
    <nd ref="241648129"/>
    <nd ref="241648130"/>
    <nd ref="241648395"/>
    <nd ref="241648131"/>
    <nd ref="240313638"/>
    <tag k="highway" v="residential"/>
    <tag k="name" v="Westbrook Street"/>
  </way>
  <way id="22529325" version="6" timestamp="2010-07-08T02:13:28Z" uid="74617" user="JohnSmith" changeset="5162525">
    <nd ref="241647845"/>
    <nd ref="735110046"/>
    <nd ref="735110011"/>
    <nd ref="241648126"/>
    <nd ref="243668164"/>
    <nd ref="241648127"/>
    <nd ref="241648129"/>
    <nd ref="241648130"/>
    <nd ref="241648395"/>
    <nd ref="241648131"/>
    <nd ref="240313638"/>
    <tag k="highway" v="residential"/>
    <tag k="maxspeed" v="50"/>
    <tag k="maxspeed:source" v="default residential speed limit in Australia"/>
    <tag k="name" v="Westbrook Street"/>
  </way>
  <way id="22529325" version="7" timestamp="2010-11-12T13:09:53Z" uid="7617" user="Franc" changeset="6350709">
    <nd ref="241647845"/>
    <nd ref="735110046"/>
    <nd ref="735110011"/>
    <nd ref="241648126"/>
    <nd ref="243668164"/>
    <nd ref="241648127"/>
    <nd ref="241648129"/>
    <nd ref="241648395"/>
    <nd ref="241648131"/>
    <nd ref="240313638"/>
    <tag k="highway" v="residential"/>
    <tag k="maxspeed" v="50"/>
    <tag k="maxspeed:source" v="default residential speed limit in Australia"/>
    <tag k="name" v="Westbrook Street"/>
  </way>
  <way id="22529328" version="2" timestamp="2010-07-08T02:11:34Z" uid="74617" user="JohnSmith" changeset="5162525">
    <nd ref="241648227"/>
    <nd ref="241648395"/>
    <tag k="highway" v="residential"/>
    <tag k="maxspeed" v="50"/>
    <tag k="maxspeed:source" v="default residential speed limit in Australia"/>
    <tag k="name" v="Fleming Street"/>
  </way>
  <way id="22529329" version="2" timestamp="2010-07-08T02:07:35Z" uid="74617" user="JohnSmith" changeset="5162525">
    <nd ref="241648418"/>
    <nd ref="241648131"/>
    <tag k="highway" v="residential"/>
    <tag k="maxspeed" v="50"/>
    <tag k="maxspeed:source" v="default residential speed limit in Australia"/>
    <tag k="name" v="Burrell Street"/>
  </way>
  <way id="22529330" version="4" timestamp="2010-07-08T02:12:36Z" uid="74617" user="JohnSmith" changeset="5162525">
    <nd ref="241648832"/>
    <nd ref="241649380"/>
    <nd ref="240313638"/>
    <tag k="highway" v="residential"/>
    <tag k="maxspeed" v="50"/>
    <tag k="maxspeed:source" v="default residential speed limit in Australia"/>
    <tag k="name" v="Kings Place"/>
  </way>
  <way id="22529330" version="5" timestamp="2010-09-20T08:51:57Z" uid="7617" user="Franc" changeset="5827121">
    <nd ref="241648832"/>
    <nd ref="241649380"/>
    <nd ref="919457185"/>
    <nd ref="240313638"/>
    <tag k="highway" v="residential"/>
    <tag k="maxspeed" v="50"/>
    <tag k="maxspeed:source" v="default residential speed limit in Australia"/>
    <tag k="name" v="Kings Place"/>
  </way>
  <way id="22529330" version="6" timestamp="2010-11-12T13:09:44Z" uid="7617" user="Franc" changeset="6350709">
    <nd ref="241648832"/>
    <nd ref="241649380"/>
    <nd ref="919457185"/>
    <nd ref="986536194"/>
    <nd ref="240313638"/>
    <tag k="highway" v="residential"/>
    <tag k="maxspeed" v="50"/>
    <tag k="maxspeed:source" v="default residential speed limit in Australia"/>
    <tag k="name" v="Kings Place"/>
  </way>
  <way id="22529332" version="4" timestamp="2010-07-08T02:09:34Z" uid="74617" user="JohnSmith" changeset="5162525">
    <nd ref="241649209"/>
    <nd ref="241649577"/>
    <nd ref="241648818"/>
    <tag k="highway" v="residential"/>
    <tag k="maxspeed" v="50"/>
    <tag k="maxspeed:source" v="default residential speed limit in Australia"/>
    <tag k="name" v="Maluka Place"/>
    <tag k="source" v="survey"/>
  </way>
  <way id="22529332" version="5" timestamp="2010-09-20T08:51:18Z" uid="7617" user="Franc" changeset="5827121">
    <nd ref="241649209"/>
    <nd ref="241649577"/>
    <nd ref="919457141"/>
    <nd ref="241648818"/>
    <tag k="highway" v="residential"/>
    <tag k="maxspeed" v="50"/>
    <tag k="maxspeed:source" v="default residential speed limit in Australia"/>
    <tag k="name" v="Maluka Place"/>
    <tag k="source" v="survey"/>
  </way>
  <way id="22529334" version="2" timestamp="2011-05-01T09:15:24Z" uid="7617" user="Franc" changeset="8019005">
    <nd ref="241649380"/>
    <nd ref="241649577"/>
    <tag k="fixme:sign:no" v="2011-05-01"/>
    <tag k="highway" v="service"/>
  </way>
  <way id="22529335" version="3" timestamp="2008-03-18T05:46:24Z" uid="7617" user="Franc" changeset="343791">
    <nd ref="241648818"/>
    <nd ref="241649950"/>
    <nd ref="241651826"/>
    <nd ref="241649951"/>
    <nd ref="241649952"/>
    <tag k="created_by" v="Potlatch 0.6c"/>
    <tag k="highway" v="residential"/>
    <tag k="name" v="New England Drive"/>
  </way>
  <way id="22529335" version="5" timestamp="2010-07-08T02:13:23Z" uid="74617" user="JohnSmith" changeset="5162525">
    <nd ref="241648818"/>
    <nd ref="241649950"/>
    <nd ref="241651826"/>
    <nd ref="241649951"/>
    <nd ref="241649952"/>
    <tag k="highway" v="residential"/>
    <tag k="maxspeed" v="50"/>
    <tag k="maxspeed:source" v="default residential speed limit in Australia"/>
    <tag k="name" v="New England Drive"/>
    <tag k="source" v="survey"/>
  </way>
  <way id="22529335" version="6" timestamp="2010-11-12T13:09:54Z" uid="7617" user="Franc" changeset="6350709">
    <nd ref="241648818"/>
    <nd ref="241649950"/>
    <nd ref="241651826"/>
    <nd ref="241649951"/>
    <nd ref="986536241"/>
    <nd ref="241649952"/>
    <tag k="highway" v="residential"/>
    <tag k="maxspeed" v="50"/>
    <tag k="maxspeed:source" v="default residential speed limit in Australia"/>
    <tag k="name" v="New England Drive"/>
    <tag k="source" v="survey"/>
  </way>
  <way id="22529336" version="5" timestamp="2010-07-08T02:07:19Z" uid="74617" user="JohnSmith" changeset="5162525">
    <nd ref="241649952"/>
    <nd ref="241650675"/>
    <tag k="highway" v="residential"/>
    <tag k="maxspeed" v="50"/>
    <tag k="maxspeed:source" v="default residential speed limit in Australia"/>
    <tag k="name" v="Orbell Street"/>
    <tag k="source" v="survey"/>
  </way>
  <way id="22529336" version="6" timestamp="2010-11-12T13:09:52Z" uid="7617" user="Franc" changeset="6350709">
    <nd ref="241649952"/>
    <nd ref="986536204"/>
    <nd ref="241650675"/>
    <tag k="highway" v="residential"/>
    <tag k="maxspeed" v="50"/>
    <tag k="maxspeed:source" v="default residential speed limit in Australia"/>
    <tag k="name" v="Orbell Street"/>
    <tag k="source" v="survey"/>
  </way>
  <way id="22529337" version="2" timestamp="2010-07-08T02:10:23Z" uid="74617" user="JohnSmith" changeset="5162525">
    <nd ref="241650480"/>
    <nd ref="241647740"/>
    <tag k="highway" v="residential"/>
    <tag k="maxspeed" v="50"/>
    <tag k="maxspeed:source" v="default residential speed limit in Australia"/>
    <tag k="name" v="Orbell Street"/>
  </way>
  <way id="22529338" version="2" timestamp="2008-03-18T05:46:23Z" uid="7617" user="Franc" changeset="343791">
    <nd ref="241650675"/>
    <nd ref="241650827"/>
    <tag k="created_by" v="Potlatch 0.6c"/>
    <tag k="highway" v="residential"/>
    <tag k="name" v="Orbell Street"/>
    <tag k="oneway" v="yes"/>
  </way>
  <way id="22529338" version="4" timestamp="2010-07-08T02:08:30Z" uid="74617" user="JohnSmith" changeset="5162525">
    <nd ref="241650675"/>
    <nd ref="241650827"/>
    <tag k="highway" v="residential"/>
    <tag k="maxspeed" v="50"/>
    <tag k="maxspeed:source" v="default residential speed limit in Australia"/>
    <tag k="name" v="Orbell Street"/>
    <tag k="oneway" v="yes"/>
    <tag k="source" v="survey"/>
  </way>
  <way id="22529339" version="2" timestamp="2010-05-15T14:40:11Z" uid="7617" user="Franc" changeset="4706870">
    <nd ref="241650927"/>
    <nd ref="241651191"/>
    <nd ref="241651192"/>
    <nd ref="241651193"/>
    <nd ref="241651196"/>
    <nd ref="241651197"/>
    <tag k="highway" v="residential"/>
    <tag k="name" v="Colwell Street"/>
  </way>
  <way id="22529339" version="3" timestamp="2010-07-08T02:11:21Z" uid="74617" user="JohnSmith" changeset="5162525">
    <nd ref="241650927"/>
    <nd ref="241651191"/>
    <nd ref="241651192"/>
    <nd ref="241651193"/>
    <nd ref="241651196"/>
    <nd ref="241651197"/>
    <tag k="highway" v="residential"/>
    <tag k="maxspeed" v="50"/>
    <tag k="maxspeed:source" v="default residential speed limit in Australia"/>
    <tag k="name" v="Colwell Street"/>
  </way>
  <way id="22529339" version="4" timestamp="2010-11-12T13:09:45Z" uid="7617" user="Franc" changeset="6350709">
    <nd ref="241650927"/>
    <nd ref="241651191"/>
    <nd ref="986536211"/>
    <nd ref="986536225"/>
    <nd ref="241651192"/>
    <nd ref="241651193"/>
    <nd ref="241651196"/>
    <nd ref="241651197"/>
    <tag k="highway" v="residential"/>
    <tag k="maxspeed" v="50"/>
    <tag k="maxspeed:source" v="default residential speed limit in Australia"/>
    <tag k="name" v="Colwell Street"/>
  </way>
  <way id="22529341" version="2" timestamp="2010-07-08T02:08:11Z" uid="74617" user="JohnSmith" changeset="5162525">
    <nd ref="241651192"/>
    <nd ref="241651774"/>
    <nd ref="241651775"/>
    <nd ref="241651776"/>
    <tag k="highway" v="residential"/>
    <tag k="maxspeed" v="50"/>
    <tag k="maxspeed:source" v="default residential speed limit in Australia"/>
    <tag k="name" v="Ashby Street"/>
  </way>
  <way id="22529341" version="3" timestamp="2010-11-12T13:09:49Z" uid="7617" user="Franc" changeset="6350709">
    <nd ref="241651192"/>
    <nd ref="986536238"/>
    <nd ref="241651774"/>
    <nd ref="241651775"/>
    <nd ref="241651776"/>
    <tag k="highway" v="residential"/>
    <tag k="maxspeed" v="50"/>
    <tag k="maxspeed:source" v="default residential speed limit in Australia"/>
    <tag k="name" v="Ashby Street"/>
  </way>
  <way id="22529343" version="2" timestamp="2010-07-08T02:09:18Z" uid="74617" user="JohnSmith" changeset="5162525">
    <nd ref="241651826"/>
    <nd ref="241652182"/>
    <tag k="highway" v="residential"/>
    <tag k="maxspeed" v="50"/>
    <tag k="maxspeed:source" v="default residential speed limit in Australia"/>
    <tag k="name" v="Kinsel Avenue"/>
  </way>
  <way id="22529343" version="4" timestamp="2011-05-01T09:15:31Z" uid="7617" user="Franc" changeset="8019005">
    <nd ref="241651826"/>
    <nd ref="1268524697"/>
    <nd ref="990921264"/>
    <nd ref="241652182"/>
    <tag k="highway" v="residential"/>
    <tag k="maxspeed" v="50"/>
    <tag k="maxspeed:source" v="default residential speed limit in Australia"/>
    <tag k="name" v="Kinsel Avenue"/>
  </way>
  <way id="22529347" version="3" timestamp="2010-07-08T02:10:18Z" uid="74617" user="JohnSmith" changeset="5162525">
    <nd ref="241652384"/>
    <nd ref="241652726"/>
    <nd ref="241652727"/>
    <nd ref="241652728"/>
    <nd ref="241652729"/>
    <tag k="highway" v="residential"/>
    <tag k="maxspeed" v="50"/>
    <tag k="maxspeed:source" v="default residential speed limit in Australia"/>
    <tag k="name" v="Irene Crescent"/>
  </way>
  <way id="22529347" version="4" timestamp="2010-09-19T11:20:33Z" uid="7617" user="Franc" changeset="5818777">
    <nd ref="241652384"/>
    <nd ref="918176274"/>
    <tag k="highway" v="residential"/>
    <tag k="maxspeed" v="50"/>
    <tag k="maxspeed:source" v="default residential speed limit in Australia"/>
    <tag k="name" v="Irene Crescent"/>
    <tag k="restriction" v="school_zone"/>
  </way>
  <way id="22529349" version="3" timestamp="2010-07-08T02:07:00Z" uid="74617" user="JohnSmith" changeset="5162525">
    <nd ref="241652752"/>
    <nd ref="445971964"/>
    <tag k="highway" v="residential"/>
    <tag k="maxspeed" v="50"/>
    <tag k="maxspeed:source" v="default residential speed limit in Australia"/>
    <tag k="name" v="Smiths Avenue"/>
  </way>
  <way id="22529349" version="4" timestamp="2010-09-19T11:21:00Z" uid="7617" user="Franc" changeset="5818777">
    <nd ref="241652752"/>
    <nd ref="918176193"/>
    <tag k="highway" v="residential"/>
    <tag k="maxspeed" v="50"/>
    <tag k="maxspeed:source" v="default residential speed limit in Australia"/>
    <tag k="name" v="Smiths Avenue"/>
    <tag k="restriction" v="school_zone"/>
  </way>
  <way id="22529353" version="2" timestamp="2010-07-08T02:11:49Z" uid="74617" user="JohnSmith" changeset="5162525">
    <nd ref="241653212"/>
    <nd ref="241653430"/>
    <tag k="highway" v="residential"/>
    <tag k="maxspeed" v="50"/>
    <tag k="maxspeed:source" v="default residential speed limit in Australia"/>
    <tag k="name" v="Smiths Avenue"/>
  </way>
  <way id="22529354" version="2" timestamp="2010-07-08T02:10:03Z" uid="74617" user="JohnSmith" changeset="5162525">
    <nd ref="241653591"/>
    <nd ref="241653592"/>
    <tag k="highway" v="residential"/>
    <tag k="maxspeed" v="50"/>
    <tag k="maxspeed:source" v="default residential speed limit in Australia"/>
    <tag k="name" v="Taronga Street"/>
  </way>
  <way id="22529356" version="2" timestamp="2008-03-27T23:24:16Z" uid="7617" user="Franc" changeset="409439">
    <nd ref="241653996"/>
    <nd ref="241653998"/>
    <tag k="created_by" v="Potlatch 0.6c"/>
    <tag k="highway" v="residential"/>
    <tag k="name" v="Warraba Street"/>
  </way>
  <way id="22529356" version="3" timestamp="2010-07-08T02:13:42Z" uid="74617" user="JohnSmith" changeset="5162525">
    <nd ref="241653996"/>
    <nd ref="241653998"/>
    <tag k="highway" v="residential"/>
    <tag k="maxspeed" v="50"/>
    <tag k="maxspeed:source" v="default residential speed limit in Australia"/>
    <tag k="name" v="Warraba Street"/>
  </way>
  <way id="22529371" version="2" timestamp="2008-01-31T13:28:24Z" uid="5871" user="Banny" changeset="713172"/>
  <way id="22529426" version="2" timestamp="2008-06-20T18:01:47Z" uid="27600" user="Islanit" changeset="233682">
    <nd ref="241662685"/>
    <nd ref="241662723"/>
    <nd ref="241662726"/>
    <nd ref="241662728"/>
    <tag k="created_by" v="JOSM"/>
    <tag k="highway" v="residential"/>
    <tag k="name" v="Mittelgasse"/>
  </way>
  <way id="22529609" version="5" timestamp="2009-10-20T14:20:13Z" uid="36809" user="pfoten_weg_!_" changeset="2903434">
    <nd ref="400565"/>
    <nd ref="241691538"/>
    <nd ref="241691547"/>
    <nd ref="241691556"/>
    <nd ref="241691565"/>
    <nd ref="241691669"/>
    <nd ref="241691678"/>
    <nd ref="241691687"/>
    <nd ref="241691696"/>
    <nd ref="241691704"/>
    <nd ref="241691713"/>
    <nd ref="241691724"/>
    <nd ref="241691734"/>
    <nd ref="283105755"/>
    <nd ref="260629776"/>
    <nd ref="260629775"/>
    <nd ref="260629774"/>
    <nd ref="260629773"/>
    <nd ref="260629772"/>
    <nd ref="260629771"/>
    <nd ref="260629770"/>
    <nd ref="260629769"/>
    <nd ref="260629768"/>
    <nd ref="260629625"/>
    <nd ref="281909016"/>
    <nd ref="260629624"/>
    <nd ref="260629623"/>
    <nd ref="260629622"/>
    <nd ref="260629621"/>
    <nd ref="260629620"/>
    <nd ref="260629619"/>
    <nd ref="260629618"/>
    <nd ref="260629617"/>
    <nd ref="260629616"/>
    <nd ref="260629615"/>
    <nd ref="260629614"/>
    <nd ref="260629613"/>
    <nd ref="260629612"/>
    <nd ref="260629554"/>
    <tag k="highway" v="unclassified"/>
  </way>
  <way id="22529620" version="3" timestamp="2009-10-20T14:22:47Z" uid="36809" user="pfoten_weg_!_" changeset="2903434">
    <nd ref="410721"/>
    <nd ref="241697569"/>
    <nd ref="241697579"/>
    <nd ref="241697589"/>
    <nd ref="241697598"/>
    <nd ref="420251129"/>
    <nd ref="241697607"/>
    <nd ref="241697616"/>
    <nd ref="241697625"/>
    <nd ref="241697634"/>
    <tag k="highway" v="service"/>
  </way>
</osm>
