<?xml version='1.0' encoding='UTF-8'?>
<osm version="0.6" generator="libosmium/2.20.0">
  <way id="22598018" version="6" timestamp="2010-04-05T21:23:58Z" uid="74617" user="JohnSmith" changeset="4338595">
    <nd ref="26033596"/>
    <nd ref="76460359"/>
    <tag k="bridge" v="yes"/>
    <tag k="highway" v="motorway"/>
    <tag k="lanes" v="4"/>
    <tag k="layer" v="1"/>
    <tag k="maxspeed" v="100"/>
    <tag k="name" v="CityLink"/>
    <tag k="oneway" v="yes"/>
    <tag k="source" v="yahoo"/>
    <tag k="toll" v="yes"/>
  </way>
  <way id="22598019" version="7" timestamp="2010-04-05T21:18:33Z" uid="74617" user="JohnSmith" changeset="4338595">
    <nd ref="242416872"/>
    <nd ref="26120998"/>
    <nd ref="242416387"/>
    <tag k="highway" v="motorway"/>
    <tag k="lanes" v="4"/>
    <tag k="maxspeed" v="100"/>
    <tag k="name" v="CityLink"/>
    <tag k="oneway" v="yes"/>
    <tag k="source" v="yahoo"/>
    <tag k="toll" v="yes"/>
  </way>
  <way id="22598020" version="12" timestamp="2010-04-05T21:23:58Z" uid="74617" user="JohnSmith" changeset="4338595">
    <nd ref="76460359"/>
    <nd ref="242432907"/>
    <nd ref="26033597"/>
    <nd ref="76460317"/>
    <nd ref="242433386"/>
    <nd ref="242433397"/>
    <tag k="highway" v="motorway"/>
    <tag k="lanes" v="4"/>
    <tag k="maxspeed" v="100"/>
    <tag k="name" v="CityLink"/>
    <tag k="oneway" v="yes"/>
    <tag k="source" v="yahoo"/>
    <tag k="toll" v="yes"/>
  </way>
  <way id="22598020" version="13" timestamp="2010-07-10T06:35:57Z" uid="4467" user="Rosscoe" changeset="5179611">
    <nd ref="76460359"/>
    <nd ref="76460317"/>
    <nd ref="242433386"/>
    <nd ref="242433397"/>
    <tag k="highway" v="motorway"/>
    <tag k="lanes" v="4"/>
    <tag k="maxspeed" v="100"/>
    <tag k="name" v="CityLink"/>
    <tag k="oneway" v="yes"/>
    <tag k="source" v="yahoo"/>
    <tag k="toll" v="yes"/>
  </way>
  <way id="22598021" version="8" timestamp="2010-04-05T21:18:33Z" uid="74617" user="JohnSmith" changeset="4338595">
    <nd ref="242416956"/>
    <nd ref="242416872"/>
    <tag k="bridge" v="yes"/>
    <tag k="highway" v="motorway"/>
    <tag k="lanes" v="4"/>
    <tag k="layer" v="1"/>
    <tag k="maxspeed" v="100"/>
    <tag k="name" v="CityLink"/>
    <tag k="oneway" v="yes"/>
    <tag k="source" v="yahoo"/>
    <tag k="toll" v="yes"/>
  </way>
  <way id="22598023" version="8" timestamp="2010-07-10T06:35:40Z" uid="4467" user="Rosscoe" changeset="5179611">
    <nd ref="242416911"/>
    <nd ref="809515025"/>
    <nd ref="809515212"/>
    <nd ref="809515594"/>
    <nd ref="809515044"/>
    <nd ref="242433437"/>
    <tag k="highway" v="motorway_link"/>
    <tag k="oneway" v="yes"/>
    <tag k="source" v="yahoo"/>
  </way>
  <way id="22598027" version="3" timestamp="2008-05-21T01:58:52Z" uid="30201" user="rrankin" changeset="495327">
    <nd ref="242417029"/>
    <nd ref="242417266"/>
    <nd ref="242417030"/>
    <tag k="created_by" v="Potlatch 0.9a"/>
    <tag k="highway" v="residential"/>
    <tag k="name" v="Gilbert Road"/>
  </way>
  <way id="22598027" version="4" timestamp="2010-07-08T03:30:52Z" uid="74617" user="JohnSmith" changeset="5163091">
    <nd ref="242417029"/>
    <nd ref="242417266"/>
    <nd ref="242417030"/>
    <tag k="highway" v="residential"/>
    <tag k="maxspeed" v="50"/>
    <tag k="maxspeed:source" v="default residential speed limit in Australia"/>
    <tag k="name" v="Gilbert Road"/>
  </way>
  <way id="22598028" version="9" timestamp="2008-05-21T01:40:42Z" uid="30201" user="rrankin" changeset="495327">
    <nd ref="242417031"/>
    <nd ref="242417244"/>
    <nd ref="242417236"/>
    <nd ref="242417216"/>
    <nd ref="242417245"/>
    <nd ref="242417215"/>
    <nd ref="242417213"/>
    <nd ref="242417032"/>
    <nd ref="242416180"/>
    <nd ref="242417033"/>
    <nd ref="242417034"/>
    <nd ref="242417056"/>
    <nd ref="242417035"/>
    <nd ref="242416136"/>
    <tag k="created_by" v="Potlatch 0.9a"/>
    <tag k="highway" v="residential"/>
    <tag k="name" v="Eloora Road"/>
  </way>
  <way id="22598028" version="10" timestamp="2010-05-17T03:51:59Z" uid="4467" user="Rosscoe" changeset="4725300">
    <nd ref="242417031"/>
    <nd ref="242417244"/>
    <nd ref="242417236"/>
    <nd ref="242417216"/>
    <nd ref="242417245"/>
    <nd ref="242417215"/>
    <nd ref="242417213"/>
    <nd ref="242417032"/>
    <nd ref="737105018"/>
    <tag k="highway" v="residential"/>
    <tag k="name" v="Eloora Road"/>
    <tag k="source" v="nearmap"/>
  </way>
  <way id="22598028" version="11" timestamp="2010-07-08T03:31:16Z" uid="74617" user="JohnSmith" changeset="5163091">
    <nd ref="242417031"/>
    <nd ref="242417244"/>
    <nd ref="242417236"/>
    <nd ref="242417216"/>
    <nd ref="242417245"/>
    <nd ref="242417215"/>
    <nd ref="242417213"/>
    <nd ref="242417032"/>
    <nd ref="737105018"/>
    <tag k="highway" v="residential"/>
    <tag k="maxspeed" v="50"/>
    <tag k="maxspeed:source" v="default residential speed limit in Australia"/>
    <tag k="name" v="Eloora Road"/>
    <tag k="source" v="nearmap"/>
  </way>
  <way id="22598030" version="2" timestamp="2008-05-21T02:16:00Z" uid="30201" user="rrankin" changeset="495327">
    <nd ref="242417036"/>
    <nd ref="242417056"/>
    <nd ref="242417057"/>
    <nd ref="242417058"/>
    <nd ref="242416209"/>
    <nd ref="242417059"/>
    <nd ref="242417060"/>
    <tag k="created_by" v="Potlatch 0.9a"/>
    <tag k="highway" v="residential"/>
    <tag k="name" v="Stella Street"/>
  </way>
  <way id="22598030" version="3" timestamp="2010-05-17T03:51:57Z" uid="4467" user="Rosscoe" changeset="4725300">
    <nd ref="242417036"/>
    <nd ref="737104995"/>
    <tag k="highway" v="residential"/>
    <tag k="name" v="Stella Street"/>
  </way>
  <way id="22598030" version="4" timestamp="2010-07-08T03:31:41Z" uid="74617" user="JohnSmith" changeset="5163091">
    <nd ref="242417036"/>
    <nd ref="737104995"/>
    <tag k="highway" v="residential"/>
    <tag k="maxspeed" v="50"/>
    <tag k="maxspeed:source" v="default residential speed limit in Australia"/>
    <tag k="name" v="Stella Street"/>
  </way>
  <way id="22598033" version="2" timestamp="2008-05-23T01:55:21Z" uid="30201" user="rrankin" changeset="502045">
    <nd ref="242417061"/>
    <nd ref="242417068"/>
    <nd ref="242417069"/>
    <tag k="created_by" v="Potlatch 0.6c"/>
    <tag k="highway" v="residential"/>
    <tag k="name" v="Surf Street"/>
  </way>
  <way id="22598033" version="3" timestamp="2010-07-08T03:32:52Z" uid="74617" user="JohnSmith" changeset="5163091">
    <nd ref="242417061"/>
    <nd ref="242417068"/>
    <nd ref="242417069"/>
    <tag k="highway" v="residential"/>
    <tag k="maxspeed" v="50"/>
    <tag k="maxspeed:source" v="default residential speed limit in Australia"/>
    <tag k="name" v="Surf Street"/>
  </way>
  <way id="22598034" version="3" timestamp="2008-05-21T02:22:38Z" uid="30201" user="rrankin" changeset="495327">
    <nd ref="242417070"/>
    <nd ref="242416220"/>
    <nd ref="242417035"/>
    <tag k="created_by" v="Potlatch 0.9a"/>
    <tag k="highway" v="residential"/>
    <tag k="name" v="Alfred Street"/>
  </way>
  <way id="22598034" version="4" timestamp="2010-07-08T03:32:09Z" uid="74617" user="JohnSmith" changeset="5163091">
    <nd ref="242417070"/>
    <nd ref="242416220"/>
    <nd ref="242417035"/>
    <tag k="highway" v="residential"/>
    <tag k="maxspeed" v="50"/>
    <tag k="maxspeed:source" v="default residential speed limit in Australia"/>
    <tag k="name" v="Alfred Street"/>
  </way>
  <way id="22598035" version="2" timestamp="2008-05-21T02:21:54Z" uid="30201" user="rrankin" changeset="495327">
    <nd ref="242417071"/>
    <nd ref="242417083"/>
    <nd ref="242417084"/>
    <tag k="created_by" v="Potlatch 0.9a"/>
    <tag k="highway" v="residential"/>
    <tag k="name" v="Thelma Street"/>
  </way>
  <way id="22598035" version="3" timestamp="2010-07-08T03:33:18Z" uid="74617" user="JohnSmith" changeset="5163091">
    <nd ref="242417071"/>
    <nd ref="242417083"/>
    <nd ref="242417084"/>
    <tag k="highway" v="residential"/>
    <tag k="maxspeed" v="50"/>
    <tag k="maxspeed:source" v="default residential speed limit in Australia"/>
    <tag k="name" v="Thelma Street"/>
  </way>
  <way id="22598038" version="2" timestamp="2008-05-21T02:07:30Z" uid="30201" user="rrankin" changeset="495327">
    <nd ref="242417115"/>
    <nd ref="242417125"/>
    <tag k="created_by" v="Potlatch 0.9a"/>
    <tag k="highway" v="residential"/>
    <tag k="name" v="Binburrah Avenue"/>
  </way>
  <way id="22598038" version="3" timestamp="2010-07-08T03:31:14Z" uid="74617" user="JohnSmith" changeset="5163091">
    <nd ref="242417115"/>
    <nd ref="242417125"/>
    <tag k="highway" v="residential"/>
    <tag k="maxspeed" v="50"/>
    <tag k="maxspeed:source" v="default residential speed limit in Australia"/>
    <tag k="name" v="Binburrah Avenue"/>
  </way>
  <way id="22598039" version="2" timestamp="2008-05-21T02:13:33Z" uid="30201" user="rrankin" changeset="495327">
    <nd ref="242417126"/>
    <nd ref="242417127"/>
    <nd ref="242417128"/>
    <tag k="created_by" v="Potlatch 0.9a"/>
    <tag k="highway" v="residential"/>
    <tag k="name" v="Charlton Street"/>
  </way>
  <way id="22598039" version="3" timestamp="2008-05-21T02:13:42Z" uid="30201" user="rrankin" changeset="495327">
    <nd ref="242417126"/>
    <nd ref="242417127"/>
    <nd ref="266072213"/>
    <nd ref="242417128"/>
    <tag k="created_by" v="Potlatch 0.9a"/>
    <tag k="highway" v="residential"/>
    <tag k="name" v="Charlton Street"/>
  </way>
  <way id="22598039" version="4" timestamp="2010-07-08T03:32:28Z" uid="74617" user="JohnSmith" changeset="5163091">
    <nd ref="242417126"/>
    <nd ref="242417127"/>
    <nd ref="266072213"/>
    <nd ref="242417128"/>
    <tag k="highway" v="residential"/>
    <tag k="maxspeed" v="50"/>
    <tag k="maxspeed:source" v="default residential speed limit in Australia"/>
    <tag k="name" v="Charlton Street"/>
  </way>
  <way id="22598041" version="2" timestamp="2008-05-21T01:44:29Z" uid="30201" user="rrankin" changeset="495327">
    <nd ref="242416127"/>
    <nd ref="242417131"/>
    <nd ref="242416152"/>
    <nd ref="242417132"/>
    <nd ref="242417133"/>
    <nd ref="242417134"/>
    <tag k="created_by" v="Potlatch 0.9a"/>
    <tag k="highway" v="residential"/>
    <tag k="name" v="Werrina Parade"/>
  </way>
  <way id="22598041" version="3" timestamp="2008-05-21T02:03:11Z" uid="30201" user="rrankin" changeset="495327">
    <nd ref="242416127"/>
    <nd ref="242417131"/>
    <nd ref="242416152"/>
    <tag k="created_by" v="Potlatch 0.9a"/>
    <tag k="highway" v="residential"/>
    <tag k="name" v="Werrina Parade"/>
  </way>
  <way id="22598041" version="4" timestamp="2008-05-21T02:05:04Z" uid="30201" user="rrankin" changeset="495327">
    <nd ref="242416127"/>
    <nd ref="242417131"/>
    <nd ref="242416152"/>
    <tag k="created_by" v="Potlatch 0.9a"/>
    <tag k="highway" v="residential"/>
    <tag k="name" v="Beenbah Avenue"/>
  </way>
  <way id="22598041" version="5" timestamp="2010-07-08T03:31:06Z" uid="74617" user="JohnSmith" changeset="5163091">
    <nd ref="242416127"/>
    <nd ref="242417131"/>
    <nd ref="242416152"/>
    <tag k="highway" v="residential"/>
    <tag k="maxspeed" v="50"/>
    <tag k="maxspeed:source" v="default residential speed limit in Australia"/>
    <tag k="name" v="Beenbah Avenue"/>
  </way>
  <way id="22598044" version="3" timestamp="2008-05-21T01:43:36Z" uid="30201" user="rrankin" changeset="495327">
    <nd ref="242417131"/>
    <nd ref="242417185"/>
    <nd ref="242417164"/>
    <tag k="created_by" v="Potlatch 0.9a"/>
    <tag k="highway" v="residential"/>
    <tag k="name" v="Currawong Street"/>
  </way>
  <way id="22598044" version="4" timestamp="2010-07-08T03:31:53Z" uid="74617" user="JohnSmith" changeset="5163091">
    <nd ref="242417131"/>
    <nd ref="242417185"/>
    <nd ref="242417164"/>
    <tag k="highway" v="residential"/>
    <tag k="maxspeed" v="50"/>
    <tag k="maxspeed:source" v="default residential speed limit in Australia"/>
    <tag k="name" v="Currawong Street"/>
  </way>
  <way id="22598046" version="2" timestamp="2008-05-23T02:25:46Z" uid="30201" user="rrankin" changeset="502045">
    <nd ref="242417165"/>
    <nd ref="242417185"/>
    <nd ref="242417186"/>
    <tag k="created_by" v="Potlatch 0.6c"/>
    <tag k="highway" v="residential"/>
    <tag k="name" v="Orana Avenue"/>
  </way>
  <way id="22598046" version="3" timestamp="2010-07-08T03:32:22Z" uid="74617" user="JohnSmith" changeset="5163091">
    <nd ref="242417165"/>
    <nd ref="242417185"/>
    <nd ref="242417186"/>
    <tag k="highway" v="residential"/>
    <tag k="maxspeed" v="50"/>
    <tag k="maxspeed:source" v="default residential speed limit in Australia"/>
    <tag k="name" v="Orana Avenue"/>
  </way>
  <way id="22598047" version="2" timestamp="2008-05-21T01:42:48Z" uid="30201" user="rrankin" changeset="495327">
    <nd ref="242417187"/>
    <nd ref="242417164"/>
    <nd ref="242417188"/>
    <tag k="created_by" v="Potlatch 0.9a"/>
    <tag k="highway" v="residential"/>
    <tag k="name" v="Narrawa Avenue"/>
  </way>
  <way id="22598047" version="3" timestamp="2010-07-08T03:33:32Z" uid="74617" user="JohnSmith" changeset="5163091">
    <nd ref="242417187"/>
    <nd ref="242417164"/>
    <nd ref="242417188"/>
    <tag k="highway" v="residential"/>
    <tag k="maxspeed" v="50"/>
    <tag k="maxspeed:source" v="default residential speed limit in Australia"/>
    <tag k="name" v="Narrawa Avenue"/>
  </way>
  <way id="22598050" version="2" timestamp="2008-05-21T02:01:42Z" uid="30201" user="rrankin" changeset="495327">
    <nd ref="242417189"/>
    <nd ref="242417213"/>
    <tag k="created_by" v="Potlatch 0.9a"/>
    <tag k="highway" v="residential"/>
    <tag k="name" v="Koonah Avenue"/>
  </way>
  <way id="22598050" version="3" timestamp="2008-05-21T02:01:51Z" uid="30201" user="rrankin" changeset="495327">
    <nd ref="242417189"/>
    <nd ref="266071650"/>
    <nd ref="242417213"/>
    <tag k="created_by" v="Potlatch 0.9a"/>
    <tag k="highway" v="residential"/>
    <tag k="name" v="Koonah Avenue"/>
  </way>
  <way id="22598050" version="4" timestamp="2010-07-08T03:32:44Z" uid="74617" user="JohnSmith" changeset="5163091">
    <nd ref="242417189"/>
    <nd ref="266071650"/>
    <nd ref="242417213"/>
    <tag k="highway" v="residential"/>
    <tag k="maxspeed" v="50"/>
    <tag k="maxspeed:source" v="default residential speed limit in Australia"/>
    <tag k="name" v="Koonah Avenue"/>
  </way>
  <way id="22598052" version="2" timestamp="2008-05-21T01:57:32Z" uid="30201" user="rrankin" changeset="495327">
    <nd ref="242417212"/>
    <nd ref="242417215"/>
    <tag k="created_by" v="Potlatch 0.9a"/>
    <tag k="highway" v="residential"/>
    <tag k="name" v="Moorah Avenue"/>
  </way>
  <way id="22598052" version="3" timestamp="2010-07-08T03:31:25Z" uid="74617" user="JohnSmith" changeset="5163091">
    <nd ref="242417212"/>
    <nd ref="242417215"/>
    <tag k="highway" v="residential"/>
    <tag k="maxspeed" v="50"/>
    <tag k="maxspeed:source" v="default residential speed limit in Australia"/>
    <tag k="name" v="Moorah Avenue"/>
  </way>
  <way id="22598053" version="2" timestamp="2008-05-21T01:54:51Z" uid="30201" user="rrankin" changeset="495327">
    <nd ref="242417214"/>
    <nd ref="242417216"/>
    <tag k="created_by" v="Potlatch 0.9a"/>
    <tag k="highway" v="residential"/>
    <tag k="name" v="Karooah Avenue"/>
  </way>
  <way id="22598053" version="3" timestamp="2010-07-08T03:32:39Z" uid="74617" user="JohnSmith" changeset="5163091">
    <nd ref="242417214"/>
    <nd ref="242417216"/>
    <tag k="highway" v="residential"/>
    <tag k="maxspeed" v="50"/>
    <tag k="maxspeed:source" v="default residential speed limit in Australia"/>
    <tag k="name" v="Karooah Avenue"/>
  </way>
  <way id="22598054" version="2" timestamp="2008-05-21T01:42:02Z" uid="30201" user="rrankin" changeset="495327">
    <nd ref="242417217"/>
    <nd ref="242417236"/>
    <tag k="created_by" v="Potlatch 0.9a"/>
    <tag k="highway" v="residential"/>
    <tag k="name" v="Yeddenba Avenue"/>
  </way>
  <way id="22598054" version="3" timestamp="2010-07-08T03:31:52Z" uid="74617" user="JohnSmith" changeset="5163091">
    <nd ref="242417217"/>
    <nd ref="242417236"/>
    <tag k="highway" v="residential"/>
    <tag k="maxspeed" v="50"/>
    <tag k="maxspeed:source" v="default residential speed limit in Australia"/>
    <tag k="name" v="Yeddenba Avenue"/>
  </way>
  <way id="22598055" version="4" timestamp="2010-07-07T08:32:23Z" uid="74617" user="JohnSmith" changeset="5156250">
    <nd ref="242417238"/>
    <nd ref="242417239"/>
    <nd ref="242417240"/>
    <nd ref="242417241"/>
    <nd ref="242417242"/>
    <nd ref="242417243"/>
    <tag k="highway" v="residential"/>
    <tag k="maxspeed" v="50"/>
    <tag k="maxspeed:source" v="default residential speed limit in Australia"/>
    <tag k="name" v="Bindaga Place"/>
    <tag k="source" v="image"/>
  </way>
  <way id="22598056" version="3" timestamp="2008-05-21T01:35:10Z" uid="30201" user="rrankin" changeset="495327">
    <nd ref="242417237"/>
    <nd ref="242417297"/>
    <nd ref="242417244"/>
    <tag k="created_by" v="Potlatch 0.9a"/>
    <tag k="highway" v="residential"/>
    <tag k="name" v="Yethonga Avenue"/>
  </way>
  <way id="22598056" version="4" timestamp="2010-07-08T03:33:25Z" uid="74617" user="JohnSmith" changeset="5163091">
    <nd ref="242417237"/>
    <nd ref="242417297"/>
    <nd ref="242417244"/>
    <tag k="highway" v="residential"/>
    <tag k="maxspeed" v="50"/>
    <tag k="maxspeed:source" v="default residential speed limit in Australia"/>
    <tag k="name" v="Yethonga Avenue"/>
  </way>
  <way id="22598058" version="2" timestamp="2008-05-21T01:56:21Z" uid="30201" user="rrankin" changeset="495327">
    <nd ref="242417245"/>
    <nd ref="242417265"/>
    <nd ref="242417266"/>
    <nd ref="242416214"/>
    <nd ref="242418549"/>
    <nd ref="59733914"/>
    <tag k="created_by" v="Potlatch 0.9a"/>
    <tag k="highway" v="residential"/>
    <tag k="name" v="Anzac Road"/>
  </way>
  <way id="22598058" version="3" timestamp="2010-07-08T03:30:57Z" uid="74617" user="JohnSmith" changeset="5163091">
    <nd ref="242417245"/>
    <nd ref="242417265"/>
    <nd ref="242417266"/>
    <nd ref="242416214"/>
    <nd ref="242418549"/>
    <nd ref="59733914"/>
    <tag k="highway" v="residential"/>
    <tag k="maxspeed" v="50"/>
    <tag k="maxspeed:source" v="default residential speed limit in Australia"/>
    <tag k="name" v="Anzac Road"/>
  </way>
  <way id="22598060" version="2" timestamp="2008-05-23T01:14:13Z" uid="30201" user="rrankin" changeset="502045">
    <nd ref="242416214"/>
    <nd ref="242417274"/>
    <nd ref="242417275"/>
    <nd ref="242417276"/>
    <tag k="created_by" v="Potlatch 0.6c"/>
    <tag k="highway" v="residential"/>
    <tag k="name" v="Rhodin Drive"/>
  </way>
  <way id="22598060" version="3" timestamp="2010-07-08T03:32:33Z" uid="74617" user="JohnSmith" changeset="5163091">
    <nd ref="242416214"/>
    <nd ref="242417274"/>
    <nd ref="242417275"/>
    <nd ref="242417276"/>
    <tag k="highway" v="residential"/>
    <tag k="maxspeed" v="50"/>
    <tag k="maxspeed:source" v="default residential speed limit in Australia"/>
    <tag k="name" v="Rhodin Drive"/>
  </way>
  <way id="22598062" version="2" timestamp="2008-05-23T01:14:12Z" uid="30201" user="rrankin" changeset="502045">
    <nd ref="242417291"/>
    <nd ref="242417292"/>
    <tag k="created_by" v="Potlatch 0.6c"/>
    <tag k="highway" v="residential"/>
    <tag k="name" v="Nimbin Street"/>
  </way>
  <way id="22598062" version="3" timestamp="2010-07-08T03:32:59Z" uid="74617" user="JohnSmith" changeset="5163091">
    <nd ref="242417291"/>
    <nd ref="242417292"/>
    <tag k="highway" v="residential"/>
    <tag k="maxspeed" v="50"/>
    <tag k="maxspeed:source" v="default residential speed limit in Australia"/>
    <tag k="name" v="Nimbin Street"/>
  </way>
  <way id="22598064" version="2" timestamp="2008-05-23T01:14:14Z" uid="30201" user="rrankin" changeset="502045">
    <nd ref="242417294"/>
    <nd ref="242417295"/>
    <tag k="created_by" v="Potlatch 0.6c"/>
    <tag k="highway" v="residential"/>
    <tag k="name" v="Gosford Avenue"/>
  </way>
  <way id="22598064" version="3" timestamp="2010-07-08T03:32:57Z" uid="74617" user="JohnSmith" changeset="5163091">
    <nd ref="242417294"/>
    <nd ref="242417295"/>
    <tag k="highway" v="residential"/>
    <tag k="maxspeed" v="50"/>
    <tag k="maxspeed:source" v="default residential speed limit in Australia"/>
    <tag k="name" v="Gosford Avenue"/>
  </way>
  <way id="22598065" version="2" timestamp="2008-05-21T01:26:56Z" uid="30201" user="rrankin" changeset="495327"/>
  <way id="22598068" version="2" timestamp="2008-05-21T01:28:55Z" uid="30201" user="rrankin" changeset="495327">
    <nd ref="242417297"/>
    <nd ref="242416088"/>
    <nd ref="242417319"/>
    <tag k="created_by" v="Potlatch 0.9a"/>
    <tag k="highway" v="residential"/>
    <tag k="name" v="Kulgoa Street"/>
  </way>
  <way id="22598068" version="3" timestamp="2010-07-08T03:32:07Z" uid="74617" user="JohnSmith" changeset="5163091">
    <nd ref="242417297"/>
    <nd ref="242416088"/>
    <nd ref="242417319"/>
    <tag k="highway" v="residential"/>
    <tag k="maxspeed" v="50"/>
    <tag k="maxspeed:source" v="default residential speed limit in Australia"/>
    <tag k="name" v="Kulgoa Street"/>
  </way>
  <way id="22598070" version="2" timestamp="2008-05-21T01:27:55Z" uid="30201" user="rrankin" changeset="495327">
    <nd ref="242417322"/>
    <nd ref="242417323"/>
    <nd ref="242417324"/>
    <tag k="created_by" v="Potlatch 0.9a"/>
    <tag k="highway" v="residential"/>
    <tag k="name" v="Broonarra Street"/>
  </way>
  <way id="22598070" version="3" timestamp="2010-07-08T03:32:32Z" uid="74617" user="JohnSmith" changeset="5163091">
    <nd ref="242417322"/>
    <nd ref="242417323"/>
    <nd ref="242417324"/>
    <tag k="highway" v="residential"/>
    <tag k="maxspeed" v="50"/>
    <tag k="maxspeed:source" v="default residential speed limit in Australia"/>
    <tag k="name" v="Broonarra Street"/>
  </way>
  <way id="22598071" version="2" timestamp="2008-05-23T01:14:11Z" uid="30201" user="rrankin" changeset="502045">
    <nd ref="242417325"/>
    <nd ref="242417324"/>
    <nd ref="242417326"/>
    <tag k="created_by" v="Potlatch 0.6c"/>
    <tag k="highway" v="residential"/>
    <tag k="name" v="Gosford Avenue"/>
  </way>
  <way id="22598071" version="3" timestamp="2010-07-08T03:33:42Z" uid="74617" user="JohnSmith" changeset="5163091">
    <nd ref="242417325"/>
    <nd ref="242417324"/>
    <nd ref="242417326"/>
    <tag k="highway" v="residential"/>
    <tag k="maxspeed" v="50"/>
    <tag k="maxspeed:source" v="default residential speed limit in Australia"/>
    <tag k="name" v="Gosford Avenue"/>
  </way>
  <way id="22598073" version="2" timestamp="2008-05-23T01:03:31Z" uid="30201" user="rrankin" changeset="502045">
    <nd ref="242417328"/>
    <nd ref="242417329"/>
    <tag k="created_by" v="Potlatch 0.6c"/>
    <tag k="highway" v="residential"/>
    <tag k="name" v="Park Road"/>
  </way>
  <way id="22598073" version="3" timestamp="2010-07-08T03:32:26Z" uid="74617" user="JohnSmith" changeset="5163091">
    <nd ref="242417328"/>
    <nd ref="242417329"/>
    <tag k="highway" v="residential"/>
    <tag k="maxspeed" v="50"/>
    <tag k="maxspeed:source" v="default residential speed limit in Australia"/>
    <tag k="name" v="Park Road"/>
  </way>
  <way id="22598074" version="2" timestamp="2008-05-21T01:04:31Z" uid="30201" user="rrankin" changeset="495327">
    <nd ref="242417330"/>
    <nd ref="266066725"/>
    <nd ref="242417331"/>
    <tag k="created_by" v="Potlatch 0.9a"/>
    <tag k="highway" v="residential"/>
  </way>
  <way id="22598074" version="3" timestamp="2008-05-21T01:12:24Z" uid="30201" user="rrankin" changeset="495327">
    <nd ref="242417330"/>
    <nd ref="266066725"/>
    <nd ref="242417331"/>
    <tag k="created_by" v="Potlatch 0.9a"/>
    <tag k="highway" v="residential"/>
    <tag k="name" v="Benelong Street"/>
  </way>
  <way id="22598074" version="4" timestamp="2010-07-08T03:31:38Z" uid="74617" user="JohnSmith" changeset="5163091">
    <nd ref="242417330"/>
    <nd ref="266066725"/>
    <nd ref="242417331"/>
    <tag k="highway" v="residential"/>
    <tag k="maxspeed" v="50"/>
    <tag k="maxspeed:source" v="default residential speed limit in Australia"/>
    <tag k="name" v="Benelong Street"/>
  </way>
  <way id="22598075" version="2" timestamp="2008-05-21T01:06:08Z" uid="30201" user="rrankin" changeset="495327">
    <nd ref="242417332"/>
    <nd ref="242417333"/>
    <tag k="created_by" v="Potlatch 0.9a"/>
    <tag k="highway" v="residential"/>
    <tag k="name" v="Richard Road"/>
  </way>
  <way id="22598075" version="3" timestamp="2008-05-21T01:06:24Z" uid="30201" user="rrankin" changeset="495327">
    <nd ref="242417332"/>
    <nd ref="266067074"/>
    <nd ref="242417333"/>
    <tag k="created_by" v="Potlatch 0.9a"/>
    <tag k="highway" v="residential"/>
    <tag k="name" v="Richard Road"/>
  </way>
  <way id="22598075" version="4" timestamp="2010-07-08T03:32:50Z" uid="74617" user="JohnSmith" changeset="5163091">
    <nd ref="242417332"/>
    <nd ref="266067074"/>
    <nd ref="242417333"/>
    <tag k="highway" v="residential"/>
    <tag k="maxspeed" v="50"/>
    <tag k="maxspeed:source" v="default residential speed limit in Australia"/>
    <tag k="name" v="Richard Road"/>
  </way>
  <way id="22598076" version="2" timestamp="2008-05-21T01:02:59Z" uid="30201" user="rrankin" changeset="495327">
    <nd ref="242417334"/>
    <nd ref="242417335"/>
    <tag k="created_by" v="Potlatch 0.9a"/>
    <tag k="highway" v="residential"/>
    <tag k="name" v="Yamba Street"/>
  </way>
  <way id="22598076" version="3" timestamp="2010-07-08T03:33:10Z" uid="74617" user="JohnSmith" changeset="5163091">
    <nd ref="242417334"/>
    <nd ref="242417335"/>
    <tag k="highway" v="residential"/>
    <tag k="maxspeed" v="50"/>
    <tag k="maxspeed:source" v="default residential speed limit in Australia"/>
    <tag k="name" v="Yamba Street"/>
  </way>
  <way id="22598077" version="2" timestamp="2008-05-23T01:03:32Z" uid="30201" user="rrankin" changeset="502045">
    <nd ref="242417336"/>
    <nd ref="242417337"/>
    <tag k="created_by" v="Potlatch 0.6c"/>
    <tag k="highway" v="residential"/>
    <tag k="name" v="Taylor Street"/>
  </way>
  <way id="22598077" version="3" timestamp="2010-07-08T03:31:31Z" uid="74617" user="JohnSmith" changeset="5163091">
    <nd ref="242417336"/>
    <nd ref="242417337"/>
    <tag k="highway" v="residential"/>
    <tag k="maxspeed" v="50"/>
    <tag k="maxspeed:source" v="default residential speed limit in Australia"/>
    <tag k="name" v="Taylor Street"/>
  </way>
  <way id="22598078" version="3" timestamp="2008-05-21T00:55:17Z" uid="30201" user="rrankin" changeset="495327">
    <nd ref="242417338"/>
    <nd ref="242417359"/>
    <nd ref="242417339"/>
    <tag k="created_by" v="Potlatch 0.9a"/>
    <tag k="highway" v="residential"/>
    <tag k="name" v="Fairport Avenue"/>
  </way>
  <way id="22598078" version="4" timestamp="2008-05-21T00:56:39Z" uid="30201" user="rrankin" changeset="495327">
    <nd ref="242417338"/>
    <nd ref="242417359"/>
    <nd ref="242417339"/>
    <tag k="created_by" v="Potlatch 0.9a"/>
    <tag k="highway" v="residential"/>
  </way>
  <way id="22598078" version="5" timestamp="2008-05-21T00:56:54Z" uid="30201" user="rrankin" changeset="495327">
    <nd ref="242417338"/>
    <nd ref="242417359"/>
    <nd ref="242417339"/>
    <tag k="created_by" v="Potlatch 0.9a"/>
    <tag k="highway" v="residential"/>
  </way>
  <way id="22598078" version="6" timestamp="2008-05-23T01:14:12Z" uid="30201" user="rrankin" changeset="502045">
    <nd ref="242417338"/>
    <nd ref="242417359"/>
    <nd ref="242417339"/>
    <tag k="created_by" v="Potlatch 0.9a"/>
    <tag k="highway" v="residential"/>
    <tag k="name" v="Fairport Avenue"/>
  </way>
  <way id="22598078" version="7" timestamp="2010-07-08T03:33:38Z" uid="74617" user="JohnSmith" changeset="5163091">
    <nd ref="242417338"/>
    <nd ref="242417359"/>
    <nd ref="242417339"/>
    <tag k="highway" v="residential"/>
    <tag k="maxspeed" v="50"/>
    <tag k="maxspeed:source" v="default residential speed limit in Australia"/>
    <tag k="name" v="Fairport Avenue"/>
  </way>
  <way id="22598079" version="2" timestamp="2008-05-21T00:59:20Z" uid="30201" user="rrankin" changeset="495327">
    <nd ref="242417340"/>
    <nd ref="242417341"/>
    <tag k="created_by" v="Potlatch 0.9a"/>
    <tag k="highway" v="residential"/>
    <tag k="name" v="Ocean Parade"/>
  </way>
  <way id="22598079" version="3" timestamp="2010-07-08T03:32:00Z" uid="74617" user="JohnSmith" changeset="5163091">
    <nd ref="242417340"/>
    <nd ref="242417341"/>
    <tag k="highway" v="residential"/>
    <tag k="maxspeed" v="50"/>
    <tag k="maxspeed:source" v="default residential speed limit in Australia"/>
    <tag k="name" v="Ocean Parade"/>
  </way>
  <way id="22598082" version="2" timestamp="2008-05-21T00:46:00Z" uid="30201" user="rrankin" changeset="495327">
    <nd ref="242416049"/>
    <nd ref="242417346"/>
    <nd ref="242417347"/>
    <nd ref="242417348"/>
    <nd ref="242417349"/>
    <nd ref="242417339"/>
    <nd ref="242417350"/>
    <nd ref="242417351"/>
    <nd ref="242417352"/>
    <nd ref="242417353"/>
    <nd ref="242417354"/>
    <nd ref="242417355"/>
    <nd ref="242417356"/>
    <tag k="created_by" v="Potlatch 0.9a"/>
    <tag k="highway" v="residential"/>
    <tag k="name" v="Marine Parade"/>
  </way>
  <way id="22598082" version="3" timestamp="2010-05-17T05:24:10Z" uid="4467" user="Rosscoe" changeset="4725722">
    <nd ref="242416049"/>
    <nd ref="242417346"/>
    <nd ref="242417347"/>
    <nd ref="242417348"/>
    <nd ref="242417349"/>
    <nd ref="242417339"/>
    <nd ref="242417350"/>
    <nd ref="242417351"/>
    <nd ref="242417352"/>
    <nd ref="242417353"/>
    <nd ref="242417354"/>
    <nd ref="242417355"/>
    <nd ref="737150621"/>
    <nd ref="242417356"/>
    <tag k="highway" v="residential"/>
    <tag k="name" v="Marine Parade"/>
  </way>
  <way id="22598082" version="4" timestamp="2010-07-08T03:31:46Z" uid="74617" user="JohnSmith" changeset="5163091">
    <nd ref="242416049"/>
    <nd ref="242417346"/>
    <nd ref="242417347"/>
    <nd ref="242417348"/>
    <nd ref="242417349"/>
    <nd ref="242417339"/>
    <nd ref="242417350"/>
    <nd ref="242417351"/>
    <nd ref="242417352"/>
    <nd ref="242417353"/>
    <nd ref="242417354"/>
    <nd ref="242417355"/>
    <nd ref="737150621"/>
    <nd ref="242417356"/>
    <tag k="highway" v="residential"/>
    <tag k="maxspeed" v="50"/>
    <tag k="maxspeed:source" v="default residential speed limit in Australia"/>
    <tag k="name" v="Marine Parade"/>
  </way>
  <way id="22598083" version="4" timestamp="2008-05-21T00:53:50Z" uid="30201" user="rrankin" changeset="495327">
    <nd ref="242417357"/>
    <nd ref="242417358"/>
    <nd ref="242417362"/>
    <nd ref="242417361"/>
    <nd ref="242417359"/>
    <nd ref="242417341"/>
    <nd ref="242417346"/>
    <tag k="created_by" v="Potlatch 0.9a"/>
    <tag k="highway" v="residential"/>
    <tag k="name" v="Ocean Parade"/>
  </way>
  <way id="22598083" version="5" timestamp="2008-05-21T00:59:36Z" uid="30201" user="rrankin" changeset="495327">
    <nd ref="242417357"/>
    <nd ref="242417358"/>
    <nd ref="242417362"/>
    <nd ref="242417361"/>
    <nd ref="242417359"/>
    <nd ref="242417341"/>
    <tag k="created_by" v="Potlatch 0.9a"/>
    <tag k="highway" v="residential"/>
    <tag k="name" v="Ocean Parade"/>
  </way>
  <way id="22598083" version="6" timestamp="2008-05-21T04:29:40Z" uid="30201" user="rrankin" changeset="495327">
    <nd ref="242417357"/>
    <nd ref="242417358"/>
    <nd ref="266080298"/>
    <nd ref="242417362"/>
    <nd ref="242417361"/>
    <nd ref="242417359"/>
    <nd ref="242417341"/>
    <tag k="created_by" v="Potlatch 0.9a"/>
    <tag k="highway" v="residential"/>
    <tag k="name" v="Ocean Parade"/>
  </way>
  <way id="22598083" version="7" timestamp="2008-05-21T04:33:31Z" uid="30201" user="rrankin" changeset="495327">
    <nd ref="242417357"/>
    <nd ref="266081494"/>
    <nd ref="242417358"/>
    <nd ref="266080298"/>
    <nd ref="242417362"/>
    <nd ref="242417361"/>
    <nd ref="242417359"/>
    <nd ref="242417341"/>
    <tag k="created_by" v="Potlatch 0.9a"/>
    <tag k="highway" v="residential"/>
    <tag k="name" v="Ocean Parade"/>
  </way>
  <way id="22598083" version="8" timestamp="2010-07-08T03:32:57Z" uid="74617" user="JohnSmith" changeset="5163091">
    <nd ref="242417357"/>
    <nd ref="266081494"/>
    <nd ref="242417358"/>
    <nd ref="266080298"/>
    <nd ref="242417362"/>
    <nd ref="242417361"/>
    <nd ref="242417359"/>
    <nd ref="242417341"/>
    <tag k="highway" v="residential"/>
    <tag k="maxspeed" v="50"/>
    <tag k="maxspeed:source" v="default residential speed limit in Australia"/>
    <tag k="name" v="Ocean Parade"/>
  </way>
  <way id="22598084" version="2" timestamp="2008-05-23T01:03:32Z" uid="30201" user="rrankin" changeset="502045">
    <nd ref="242417360"/>
    <nd ref="242417361"/>
    <tag k="created_by" v="Potlatch 0.6c"/>
    <tag k="highway" v="residential"/>
    <tag k="name" v="Ozone Street"/>
  </way>
  <way id="22598084" version="3" timestamp="2010-07-08T03:33:16Z" uid="74617" user="JohnSmith" changeset="5163091">
    <nd ref="242417360"/>
    <nd ref="242417361"/>
    <tag k="highway" v="residential"/>
    <tag k="maxspeed" v="50"/>
    <tag k="maxspeed:source" v="default residential speed limit in Australia"/>
    <tag k="name" v="Ozone Street"/>
  </way>
  <way id="22598085" version="2" timestamp="2008-05-21T00:54:26Z" uid="30201" user="rrankin" changeset="495327">
    <nd ref="242417362"/>
    <nd ref="242417351"/>
    <tag k="created_by" v="Potlatch 0.9a"/>
    <tag k="highway" v="residential"/>
    <tag k="name" v="Beach Street"/>
  </way>
  <way id="22598085" version="3" timestamp="2010-07-08T03:31:37Z" uid="74617" user="JohnSmith" changeset="5163091">
    <nd ref="242417362"/>
    <nd ref="242417351"/>
    <tag k="highway" v="residential"/>
    <tag k="maxspeed" v="50"/>
    <tag k="maxspeed:source" v="default residential speed limit in Australia"/>
    <tag k="name" v="Beach Street"/>
  </way>
  <way id="22598087" version="3" timestamp="2008-05-23T00:57:14Z" uid="30201" user="rrankin" changeset="502045">
    <nd ref="59733963"/>
    <nd ref="266422562"/>
    <nd ref="59733747"/>
    <tag k="created_by" v="Potlatch 0.6c"/>
    <tag k="highway" v="primary"/>
    <tag k="name" v="Coral Street"/>
  </way>
  <way id="22598087" version="4" timestamp="2010-05-17T01:35:22Z" uid="4467" user="Rosscoe" changeset="4724558">
    <nd ref="59733963"/>
    <nd ref="266422562"/>
    <nd ref="736999566"/>
    <nd ref="59733747"/>
    <tag k="highway" v="primary"/>
    <tag k="name" v="Coral Street"/>
  </way>
  <way id="22598087" version="5" timestamp="2010-05-17T05:24:09Z" uid="4467" user="Rosscoe" changeset="4725722">
    <nd ref="737150606"/>
    <nd ref="59733963"/>
    <nd ref="266422562"/>
    <nd ref="736999566"/>
    <nd ref="59733747"/>
    <tag k="highway" v="primary"/>
    <tag k="name" v="Coral Street"/>
  </way>
  <way id="22598089" version="4" timestamp="2008-05-20T03:47:46Z" uid="30201" user="rrankin" changeset="483597">
    <nd ref="59738996"/>
    <nd ref="242417539"/>
    <nd ref="242417421"/>
    <nd ref="242417422"/>
    <nd ref="242417464"/>
    <nd ref="242417423"/>
    <nd ref="242417424"/>
    <tag k="created_by" v="Potlatch 0.6c"/>
    <tag k="highway" v="residential"/>
  </way>
  <way id="22598089" version="5" timestamp="2008-05-21T04:26:06Z" uid="30201" user="rrankin" changeset="495327">
    <nd ref="59738996"/>
    <nd ref="242417539"/>
    <nd ref="242417421"/>
    <nd ref="242417422"/>
    <nd ref="242417464"/>
    <nd ref="242417423"/>
    <nd ref="242417424"/>
    <tag k="created_by" v="Potlatch 0.9a"/>
    <tag k="highway" v="residential"/>
    <tag k="name" v="Fairview Avenue"/>
  </way>
  <way id="22598089" version="7" timestamp="2010-07-08T03:33:37Z" uid="74617" user="JohnSmith" changeset="5163091">
    <nd ref="59738996"/>
    <nd ref="242417539"/>
    <nd ref="242417421"/>
    <nd ref="242417422"/>
    <nd ref="242417464"/>
    <nd ref="242417423"/>
    <nd ref="242417424"/>
    <tag k="highway" v="residential"/>
    <tag k="maxspeed" v="50"/>
    <tag k="maxspeed:source" v="default residential speed limit in Australia"/>
    <tag k="name" v="Fairview Avenue"/>
  </way>
  <way id="22598090" version="3" timestamp="2008-05-23T00:49:01Z" uid="30201" user="rrankin" changeset="502045">
    <nd ref="242417421"/>
    <nd ref="242417429"/>
    <nd ref="59733748"/>
    <tag k="created_by" v="Potlatch 0.6c"/>
    <tag k="highway" v="residential"/>
    <tag k="name" v="Torrens Avenue"/>
  </way>
  <way id="22598090" version="5" timestamp="2010-07-08T03:32:50Z" uid="74617" user="JohnSmith" changeset="5163091">
    <nd ref="242417421"/>
    <nd ref="242417429"/>
    <nd ref="59733748"/>
    <tag k="highway" v="residential"/>
    <tag k="maxspeed" v="50"/>
    <tag k="maxspeed:source" v="default residential speed limit in Australia"/>
    <tag k="name" v="Torrens Avenue"/>
    <tag k="source" v="survey"/>
  </way>
  <way id="22598091" version="2" timestamp="2008-05-23T00:49:00Z" uid="30201" user="rrankin" changeset="502045">
    <nd ref="59738997"/>
    <nd ref="242417429"/>
    <tag k="created_by" v="Potlatch 0.6c"/>
    <tag k="highway" v="residential"/>
    <tag k="name" v="Victoria Avenue"/>
  </way>
  <way id="22598091" version="3" timestamp="2008-05-23T00:57:13Z" uid="30201" user="rrankin" changeset="502045">
    <nd ref="59738997"/>
    <nd ref="266422559"/>
    <nd ref="242417429"/>
    <tag k="created_by" v="Potlatch 0.6c"/>
    <tag k="highway" v="residential"/>
    <tag k="name" v="Victoria Avenue"/>
  </way>
  <way id="22598091" version="6" timestamp="2010-07-08T03:31:11Z" uid="74617" user="JohnSmith" changeset="5163091">
    <nd ref="59738997"/>
    <nd ref="266422559"/>
    <nd ref="242417429"/>
    <tag k="highway" v="residential"/>
    <tag k="maxspeed" v="50"/>
    <tag k="maxspeed:source" v="default residential speed limit in Australia"/>
    <tag k="name" v="Victoria Avenue"/>
  </way>
  <way id="22598093" version="4" timestamp="2008-05-21T04:38:22Z" uid="30201" user="rrankin" changeset="495327">
    <nd ref="242417430"/>
    <nd ref="242417531"/>
    <nd ref="242417456"/>
    <nd ref="242417541"/>
    <nd ref="242417457"/>
    <tag k="created_by" v="Potlatch 0.9a"/>
    <tag k="highway" v="residential"/>
    <tag k="name" v="Ashton Avenue"/>
  </way>
  <way id="22598093" version="5" timestamp="2010-07-08T03:32:43Z" uid="74617" user="JohnSmith" changeset="5163091">
    <nd ref="242417430"/>
    <nd ref="242417531"/>
    <nd ref="242417456"/>
    <nd ref="242417541"/>
    <nd ref="242417457"/>
    <tag k="highway" v="residential"/>
    <tag k="maxspeed" v="50"/>
    <tag k="maxspeed:source" v="default residential speed limit in Australia"/>
    <tag k="name" v="Ashton Avenue"/>
  </way>
  <way id="22598094" version="3" timestamp="2008-05-21T04:13:31Z" uid="30201" user="rrankin" changeset="495327">
    <nd ref="59733893"/>
    <nd ref="59733898"/>
    <nd ref="59733899"/>
    <nd ref="59733900"/>
    <nd ref="242417551"/>
    <nd ref="242417676"/>
    <nd ref="242417526"/>
    <nd ref="59733901"/>
    <nd ref="242417529"/>
    <nd ref="242417456"/>
    <nd ref="242417540"/>
    <nd ref="242417422"/>
    <nd ref="59733902"/>
    <nd ref="59733911"/>
    <nd ref="242417460"/>
    <nd ref="242417480"/>
    <nd ref="242417461"/>
    <tag k="created_by" v="Potlatch 0.9a"/>
    <tag k="highway" v="residential; tertiary"/>
    <tag k="is_in" v="Australia, NSW, New South Wales, The Entrance"/>
    <tag k="name" v="Oakland Avenue"/>
    <tag k="source" v="survey"/>
  </way>
  <way id="22598094" version="4" timestamp="2008-05-21T04:13:53Z" uid="30201" user="rrankin" changeset="495327">
    <nd ref="59733893"/>
    <nd ref="59733898"/>
    <nd ref="59733899"/>
    <nd ref="59733900"/>
    <nd ref="242417551"/>
    <nd ref="242417676"/>
    <nd ref="242417526"/>
    <nd ref="59733901"/>
    <nd ref="242417529"/>
    <nd ref="242417456"/>
    <nd ref="242417540"/>
    <nd ref="242417422"/>
    <nd ref="59733902"/>
    <nd ref="59733911"/>
    <nd ref="242417460"/>
    <nd ref="242417480"/>
    <nd ref="242417461"/>
    <tag k="created_by" v="Potlatch 0.9a"/>
    <tag k="highway" v="residential"/>
    <tag k="is_in" v="Australia, NSW, New South Wales, The Entrance"/>
    <tag k="name" v="Oakland Avenue"/>
    <tag k="source" v="survey"/>
  </way>
  <way id="22598094" version="5" timestamp="2008-05-21T05:04:18Z" uid="30201" user="rrankin" changeset="495327">
    <nd ref="59733893"/>
    <nd ref="59733898"/>
    <nd ref="59733899"/>
    <nd ref="59733900"/>
    <nd ref="242417551"/>
    <nd ref="242417676"/>
    <nd ref="242417526"/>
    <nd ref="59733901"/>
    <nd ref="242417529"/>
    <nd ref="242417456"/>
    <nd ref="242417540"/>
    <nd ref="242417422"/>
    <nd ref="59733902"/>
    <nd ref="59733911"/>
    <tag k="created_by" v="Potlatch 0.9a"/>
    <tag k="highway" v="tertiary"/>
    <tag k="is_in" v="Australia, NSW, New South Wales, The Entrance"/>
    <tag k="name" v="Oakland Avenue"/>
    <tag k="source" v="survey"/>
  </way>
  <way id="22598095" version="4" timestamp="2008-05-21T04:12:21Z" uid="30201" user="rrankin" changeset="495327">
    <nd ref="242417460"/>
    <nd ref="242417472"/>
    <nd ref="242417482"/>
    <nd ref="242417463"/>
    <tag k="created_by" v="Potlatch 0.9a"/>
    <tag k="highway" v="residential"/>
    <tag k="name" v="Manning Road"/>
  </way>
  <way id="22598095" version="5" timestamp="2010-07-08T03:33:10Z" uid="74617" user="JohnSmith" changeset="5163091">
    <nd ref="242417460"/>
    <nd ref="242417472"/>
    <nd ref="242417482"/>
    <nd ref="242417463"/>
    <tag k="highway" v="residential"/>
    <tag k="maxspeed" v="50"/>
    <tag k="maxspeed:source" v="default residential speed limit in Australia"/>
    <tag k="name" v="Manning Road"/>
  </way>
  <way id="22598097" version="2" timestamp="2008-05-21T04:16:52Z" uid="30201" user="rrankin" changeset="495327">
    <nd ref="242417464"/>
    <nd ref="242417472"/>
    <tag k="created_by" v="Potlatch 0.9a"/>
    <tag k="highway" v="residential"/>
    <tag k="name" v="McGirr Avenue"/>
  </way>
  <way id="22598097" version="3" timestamp="2010-07-08T03:33:09Z" uid="74617" user="JohnSmith" changeset="5163091">
    <nd ref="242417464"/>
    <nd ref="242417472"/>
    <tag k="highway" v="residential"/>
    <tag k="maxspeed" v="50"/>
    <tag k="maxspeed:source" v="default residential speed limit in Australia"/>
    <tag k="name" v="McGirr Avenue"/>
  </way>
  <way id="22598099" version="2" timestamp="2008-05-21T04:10:09Z" uid="30201" user="rrankin" changeset="495327">
    <nd ref="242417463"/>
    <nd ref="242417475"/>
    <nd ref="242417476"/>
    <nd ref="242417477"/>
    <tag k="created_by" v="Potlatch 0.9a"/>
    <tag k="highway" v="residential"/>
  </way>
  <way id="22598099" version="3" timestamp="2008-05-21T04:10:46Z" uid="30201" user="rrankin" changeset="495327">
    <nd ref="242417463"/>
    <nd ref="242417475"/>
    <nd ref="242417476"/>
    <nd ref="242417477"/>
    <tag k="created_by" v="Potlatch 0.9a"/>
    <tag k="highway" v="residential"/>
    <tag k="name" v="Tuggerah Parade"/>
  </way>
  <way id="22598099" version="4" timestamp="2008-05-21T04:11:42Z" uid="30201" user="rrankin" changeset="495327">
    <nd ref="242417424"/>
    <nd ref="265854510"/>
    <nd ref="265854509"/>
    <nd ref="265854508"/>
    <nd ref="265854505"/>
    <nd ref="265854504"/>
    <nd ref="265854503"/>
    <nd ref="242417463"/>
    <nd ref="242417475"/>
    <nd ref="242417476"/>
    <nd ref="242417477"/>
    <tag k="created_by" v="Potlatch 0.9a"/>
    <tag k="highway" v="residential"/>
    <tag k="name" v="Tuggerah Parade"/>
  </way>
  <way id="22598099" version="5" timestamp="2008-05-21T04:23:46Z" uid="30201" user="rrankin" changeset="495327">
    <nd ref="242417424"/>
    <nd ref="265854510"/>
    <nd ref="265854509"/>
    <nd ref="265854508"/>
    <nd ref="265854505"/>
    <nd ref="265854504"/>
    <nd ref="265854503"/>
    <nd ref="242417463"/>
    <nd ref="242417475"/>
    <nd ref="242417476"/>
    <nd ref="242417477"/>
    <tag k="created_by" v="Potlatch 0.9a"/>
    <tag k="highway" v="residential"/>
    <tag k="name" v="Tuggerah Parade"/>
  </way>
  <way id="22598099" version="6" timestamp="2008-05-21T04:42:47Z" uid="30201" user="rrankin" changeset="495327">
    <nd ref="266082786"/>
    <nd ref="266082785"/>
    <nd ref="242417424"/>
    <nd ref="265854510"/>
    <nd ref="265854509"/>
    <nd ref="265854508"/>
    <nd ref="265854505"/>
    <nd ref="265854504"/>
    <nd ref="265854503"/>
    <nd ref="242417463"/>
    <nd ref="242417475"/>
    <nd ref="242417476"/>
    <nd ref="242417477"/>
    <tag k="created_by" v="Potlatch 0.9a"/>
    <tag k="highway" v="residential; service"/>
    <tag k="name" v="Tuggerah Parade; "/>
  </way>
  <way id="22598099" version="7" timestamp="2008-05-21T04:42:59Z" uid="30201" user="rrankin" changeset="495327">
    <nd ref="266082786"/>
    <nd ref="266082785"/>
    <nd ref="242417424"/>
    <nd ref="265854510"/>
    <nd ref="265854509"/>
    <nd ref="265854508"/>
    <nd ref="265854505"/>
    <nd ref="265854504"/>
    <nd ref="265854503"/>
    <nd ref="242417463"/>
    <nd ref="242417475"/>
    <nd ref="242417476"/>
    <nd ref="242417477"/>
    <tag k="created_by" v="Potlatch 0.9a"/>
    <tag k="highway" v="residential"/>
    <tag k="name" v="Tuggerah Parade; "/>
  </way>
  <way id="22598099" version="8" timestamp="2008-05-23T01:41:47Z" uid="30201" user="rrankin" changeset="502045">
    <nd ref="266082786"/>
    <nd ref="266082785"/>
    <nd ref="242417424"/>
    <nd ref="265854510"/>
    <nd ref="265854509"/>
    <nd ref="265854508"/>
    <nd ref="265854505"/>
    <nd ref="265854504"/>
    <nd ref="265854503"/>
    <nd ref="242417463"/>
    <nd ref="242417475"/>
    <nd ref="242417476"/>
    <nd ref="242417477"/>
    <tag k="created_by" v="Potlatch 0.9a"/>
    <tag k="highway" v="residential"/>
    <tag k="name" v="Tuggerah Parade"/>
  </way>
  <way id="22598099" version="10" timestamp="2010-07-08T03:33:34Z" uid="74617" user="JohnSmith" changeset="5163091">
    <nd ref="266082786"/>
    <nd ref="802716028"/>
    <nd ref="266082785"/>
    <nd ref="242417424"/>
    <nd ref="265854510"/>
    <nd ref="265854509"/>
    <nd ref="265854508"/>
    <nd ref="265854505"/>
    <nd ref="265854504"/>
    <nd ref="265854503"/>
    <nd ref="242417463"/>
    <nd ref="242417475"/>
    <nd ref="242417476"/>
    <nd ref="242417477"/>
    <tag k="highway" v="residential"/>
    <tag k="maxspeed" v="50"/>
    <tag k="maxspeed:source" v="default residential speed limit in Australia"/>
    <tag k="name" v="Tuggerah Parade"/>
    <tag k="source" v="nearmap"/>
  </way>
  <way id="22598100" version="2" timestamp="2008-05-21T04:14:50Z" uid="30201" user="rrankin" changeset="495327">
    <nd ref="242417480"/>
    <nd ref="242417481"/>
    <tag k="created_by" v="Potlatch 0.9a"/>
    <tag k="highway" v="residential"/>
    <tag k="name" v="Bent Street"/>
  </way>
  <way id="22598100" version="3" timestamp="2010-07-08T03:31:02Z" uid="74617" user="JohnSmith" changeset="5163091">
    <nd ref="242417480"/>
    <nd ref="242417481"/>
    <tag k="highway" v="residential"/>
    <tag k="maxspeed" v="50"/>
    <tag k="maxspeed:source" v="default residential speed limit in Australia"/>
    <tag k="name" v="Bent Street"/>
  </way>
  <way id="22598102" version="3" timestamp="2008-05-20T03:47:43Z" uid="30201" user="rrankin" changeset="483597">
    <nd ref="242417482"/>
    <nd ref="242417522"/>
    <nd ref="242417423"/>
    <nd ref="242417523"/>
    <nd ref="242417543"/>
    <nd ref="242417457"/>
    <nd ref="242417524"/>
    <nd ref="242417525"/>
    <nd ref="242417526"/>
    <tag k="created_by" v="Potlatch 0.6c"/>
    <tag k="highway" v="residential"/>
  </way>
  <way id="22598102" version="4" timestamp="2008-05-21T04:17:33Z" uid="30201" user="rrankin" changeset="495327">
    <nd ref="242417482"/>
    <nd ref="242417522"/>
    <nd ref="242417423"/>
    <nd ref="242417523"/>
    <nd ref="242417543"/>
    <nd ref="242417457"/>
    <nd ref="242417524"/>
    <nd ref="242417525"/>
    <nd ref="242417526"/>
    <tag k="created_by" v="Potlatch 0.9a"/>
    <tag k="highway" v="residential"/>
    <tag k="name" v="Lakeside Parade"/>
  </way>
  <way id="22598102" version="5" timestamp="2008-05-21T04:41:15Z" uid="30201" user="rrankin" changeset="495327">
    <nd ref="242417482"/>
    <nd ref="242417522"/>
    <nd ref="242417423"/>
    <nd ref="242417523"/>
    <nd ref="242417543"/>
    <nd ref="266082794"/>
    <nd ref="242417457"/>
    <nd ref="242417524"/>
    <nd ref="242417525"/>
    <nd ref="242417526"/>
    <tag k="created_by" v="Potlatch 0.9a"/>
    <tag k="highway" v="residential"/>
    <tag k="name" v="Lakeside Parade"/>
  </way>
  <way id="22598102" version="7" timestamp="2010-07-08T03:31:29Z" uid="74617" user="JohnSmith" changeset="5163091">
    <nd ref="242417482"/>
    <nd ref="242417522"/>
    <nd ref="242417423"/>
    <nd ref="242417523"/>
    <nd ref="242417543"/>
    <nd ref="266082794"/>
    <nd ref="242417457"/>
    <nd ref="242417524"/>
    <nd ref="242417525"/>
    <nd ref="242417526"/>
    <tag k="highway" v="residential"/>
    <tag k="maxspeed" v="50"/>
    <tag k="maxspeed:source" v="default residential speed limit in Australia"/>
    <tag k="name" v="Lakeside Parade"/>
  </way>
  <way id="22598103" version="2" timestamp="2008-05-23T02:21:42Z" uid="30201" user="rrankin" changeset="502045">
    <nd ref="242417524"/>
    <nd ref="242417529"/>
    <nd ref="242417530"/>
    <tag k="created_by" v="Potlatch 0.6c"/>
    <tag k="highway" v="residential"/>
    <tag k="name" v="Campbell Avenue"/>
  </way>
  <way id="22598103" version="3" timestamp="2010-07-08T03:32:42Z" uid="74617" user="JohnSmith" changeset="5163091">
    <nd ref="242417524"/>
    <nd ref="242417529"/>
    <nd ref="242417530"/>
    <tag k="highway" v="residential"/>
    <tag k="maxspeed" v="50"/>
    <tag k="maxspeed:source" v="default residential speed limit in Australia"/>
    <tag k="name" v="Campbell Avenue"/>
  </way>
  <way id="22598105" version="2" timestamp="2008-05-21T04:37:40Z" uid="30201" user="rrankin" changeset="495327">
    <nd ref="242417531"/>
    <nd ref="242417538"/>
    <nd ref="242417539"/>
    <tag k="created_by" v="Potlatch 0.9a"/>
    <tag k="highway" v="residential"/>
    <tag k="name" v="Copnor Avenue"/>
  </way>
  <way id="22598105" version="3" timestamp="2010-07-08T03:31:24Z" uid="74617" user="JohnSmith" changeset="5163091">
    <nd ref="242417531"/>
    <nd ref="242417538"/>
    <nd ref="242417539"/>
    <tag k="highway" v="residential"/>
    <tag k="maxspeed" v="50"/>
    <tag k="maxspeed:source" v="default residential speed limit in Australia"/>
    <tag k="name" v="Copnor Avenue"/>
  </way>
  <way id="22598106" version="2" timestamp="2008-05-21T04:36:44Z" uid="30201" user="rrankin" changeset="495327">
    <nd ref="242417538"/>
    <nd ref="242417540"/>
    <tag k="created_by" v="Potlatch 0.9a"/>
    <tag k="highway" v="residential"/>
    <tag k="name" v="Armidale Street"/>
  </way>
  <way id="22598106" version="3" timestamp="2010-07-08T03:33:30Z" uid="74617" user="JohnSmith" changeset="5163091">
    <nd ref="242417538"/>
    <nd ref="242417540"/>
    <tag k="highway" v="residential"/>
    <tag k="maxspeed" v="50"/>
    <tag k="maxspeed:source" v="default residential speed limit in Australia"/>
    <tag k="name" v="Armidale Street"/>
  </way>
  <way id="22598107" version="2" timestamp="2008-05-21T04:35:49Z" uid="30201" user="rrankin" changeset="495327">
    <nd ref="242417541"/>
    <nd ref="242417542"/>
    <nd ref="242417543"/>
    <tag k="created_by" v="Potlatch 0.9a"/>
    <tag k="highway" v="residential"/>
    <tag k="name" v="Duncan Street"/>
  </way>
  <way id="22598107" version="3" timestamp="2010-07-08T03:31:51Z" uid="74617" user="JohnSmith" changeset="5163091">
    <nd ref="242417541"/>
    <nd ref="242417542"/>
    <nd ref="242417543"/>
    <tag k="highway" v="residential"/>
    <tag k="maxspeed" v="50"/>
    <tag k="maxspeed:source" v="default residential speed limit in Australia"/>
    <tag k="name" v="Duncan Street"/>
  </way>
  <way id="22598111" version="2" timestamp="2008-05-23T01:41:48Z" uid="30201" user="rrankin" changeset="502045">
    <nd ref="242417544"/>
    <nd ref="242417551"/>
    <nd ref="242417552"/>
    <tag k="created_by" v="Potlatch 0.6c"/>
    <tag k="highway" v="residential"/>
    <tag k="name" v="Battley Avenue"/>
  </way>
  <way id="22598111" version="3" timestamp="2010-07-08T03:30:56Z" uid="74617" user="JohnSmith" changeset="5163091">
    <nd ref="242417544"/>
    <nd ref="242417551"/>
    <nd ref="242417552"/>
    <tag k="highway" v="residential"/>
    <tag k="maxspeed" v="50"/>
    <tag k="maxspeed:source" v="default residential speed limit in Australia"/>
    <tag k="name" v="Battley Avenue"/>
  </way>
  <way id="22598112" version="2" timestamp="2008-05-23T02:21:44Z" uid="30201" user="rrankin" changeset="502045">
    <nd ref="242417553"/>
    <nd ref="242417676"/>
    <nd ref="242417677"/>
    <tag k="created_by" v="Potlatch 0.6c"/>
    <tag k="highway" v="residential"/>
    <tag k="name" v="View Street"/>
  </way>
  <way id="22598112" version="4" timestamp="2010-07-08T03:32:35Z" uid="74617" user="JohnSmith" changeset="5163091">
    <nd ref="242417553"/>
    <nd ref="242417676"/>
    <nd ref="242417677"/>
    <tag k="highway" v="residential"/>
    <tag k="maxspeed" v="50"/>
    <tag k="maxspeed:source" v="default residential speed limit in Australia"/>
    <tag k="name" v="View Street"/>
  </way>
  <way id="22598113" version="2" timestamp="2008-05-23T01:41:48Z" uid="30201" user="rrankin" changeset="502045">
    <nd ref="59738998"/>
    <nd ref="59733900"/>
    <nd ref="242417855"/>
    <tag k="created_by" v="Potlatch 0.6c"/>
    <tag k="highway" v="residential"/>
    <tag k="name" v="Norberta Street"/>
  </way>
  <way id="22598113" version="3" timestamp="2010-07-08T03:30:53Z" uid="74617" user="JohnSmith" changeset="5163091">
    <nd ref="59738998"/>
    <nd ref="59733900"/>
    <nd ref="242417855"/>
    <tag k="highway" v="residential"/>
    <tag k="maxspeed" v="50"/>
    <tag k="maxspeed:source" v="default residential speed limit in Australia"/>
    <tag k="name" v="Norberta Street"/>
  </way>
  <way id="22598116" version="2" timestamp="2008-05-23T01:41:46Z" uid="30201" user="rrankin" changeset="502045">
    <nd ref="59733899"/>
    <nd ref="242418102"/>
    <nd ref="266425918"/>
    <nd ref="242418103"/>
    <tag k="created_by" v="Potlatch 0.6c"/>
    <tag k="highway" v="residential"/>
    <tag k="name" v="Norfolk Street"/>
  </way>
  <way id="22598116" version="3" timestamp="2010-07-08T03:31:43Z" uid="74617" user="JohnSmith" changeset="5163091">
    <nd ref="59733899"/>
    <nd ref="242418102"/>
    <nd ref="266425918"/>
    <nd ref="242418103"/>
    <tag k="highway" v="residential"/>
    <tag k="maxspeed" v="50"/>
    <tag k="maxspeed:source" v="default residential speed limit in Australia"/>
    <tag k="name" v="Norfolk Street"/>
  </way>
  <way id="22598119" version="3" timestamp="2008-05-23T02:18:00Z" uid="30201" user="rrankin" changeset="502045">
    <nd ref="242418117"/>
    <nd ref="242418547"/>
    <nd ref="242418548"/>
    <nd ref="242420467"/>
    <nd ref="242418549"/>
    <tag k="created_by" v="Potlatch 0.6c"/>
    <tag k="highway" v="residential"/>
    <tag k="name" v="Fraser Road"/>
  </way>
  <way id="22598119" version="4" timestamp="2010-07-08T03:33:22Z" uid="74617" user="JohnSmith" changeset="5163091">
    <nd ref="242418117"/>
    <nd ref="242418547"/>
    <nd ref="242418548"/>
    <nd ref="242420467"/>
    <nd ref="242418549"/>
    <tag k="highway" v="residential"/>
    <tag k="maxspeed" v="50"/>
    <tag k="maxspeed:source" v="default residential speed limit in Australia"/>
    <tag k="name" v="Fraser Road"/>
  </way>
  <way id="22598120" version="3" timestamp="2008-05-23T01:41:50Z" uid="30201" user="rrankin" changeset="502045">
    <nd ref="242418571"/>
    <nd ref="242419625"/>
    <nd ref="242418909"/>
    <nd ref="242418911"/>
    <tag k="created_by" v="Potlatch 0.6c"/>
    <tag k="highway" v="residential"/>
    <tag k="name" v="Anzac Road"/>
  </way>
  <way id="22598120" version="5" timestamp="2010-07-08T03:33:41Z" uid="74617" user="JohnSmith" changeset="5163091">
    <nd ref="242418571"/>
    <nd ref="242419625"/>
    <nd ref="242418909"/>
    <nd ref="242418911"/>
    <tag k="highway" v="residential"/>
    <tag k="maxspeed" v="50"/>
    <tag k="maxspeed:source" v="default residential speed limit in Australia"/>
    <tag k="name" v="Anzac Road"/>
  </way>
  <way id="22598121" version="2" timestamp="2008-05-23T01:41:45Z" uid="30201" user="rrankin" changeset="502045">
    <nd ref="242418909"/>
    <nd ref="242419350"/>
    <nd ref="242419352"/>
    <nd ref="242419353"/>
    <tag k="created_by" v="Potlatch 0.6c"/>
    <tag k="highway" v="residential"/>
    <tag k="name" v="Gordon Road"/>
  </way>
  <way id="22598121" version="3" timestamp="2010-07-08T03:32:05Z" uid="74617" user="JohnSmith" changeset="5163091">
    <nd ref="242418909"/>
    <nd ref="242419350"/>
    <nd ref="242419352"/>
    <nd ref="242419353"/>
    <tag k="highway" v="residential"/>
    <tag k="maxspeed" v="50"/>
    <tag k="maxspeed:source" v="default residential speed limit in Australia"/>
    <tag k="name" v="Gordon Road"/>
  </way>
  <way id="22598122" version="2" timestamp="2008-05-23T01:41:49Z" uid="30201" user="rrankin" changeset="502045">
    <nd ref="242419624"/>
    <nd ref="242419625"/>
    <tag k="created_by" v="Potlatch 0.6c"/>
    <tag k="highway" v="residential"/>
    <tag k="name" v="Gallipoli Road"/>
  </way>
  <way id="22598122" version="3" timestamp="2010-07-08T03:31:16Z" uid="74617" user="JohnSmith" changeset="5163091">
    <nd ref="242419624"/>
    <nd ref="242419625"/>
    <tag k="highway" v="residential"/>
    <tag k="maxspeed" v="50"/>
    <tag k="maxspeed:source" v="default residential speed limit in Australia"/>
    <tag k="name" v="Gallipoli Road"/>
  </way>
  <way id="22598125" version="2" timestamp="2008-05-23T02:18:02Z" uid="30201" user="rrankin" changeset="502045">
    <nd ref="242420242"/>
    <nd ref="242420467"/>
    <tag k="created_by" v="Potlatch 0.6c"/>
    <tag k="highway" v="residential"/>
    <tag k="name" v="Sutton Avenue"/>
  </way>
  <way id="22598125" version="3" timestamp="2010-07-08T03:31:10Z" uid="74617" user="JohnSmith" changeset="5163091">
    <nd ref="242420242"/>
    <nd ref="242420467"/>
    <tag k="highway" v="residential"/>
    <tag k="maxspeed" v="50"/>
    <tag k="maxspeed:source" v="default residential speed limit in Australia"/>
    <tag k="name" v="Sutton Avenue"/>
  </way>
  <way id="22598133" version="5" timestamp="2010-07-08T03:33:34Z" uid="74617" user="JohnSmith" changeset="5163091">
    <nd ref="566618611"/>
    <nd ref="566621163"/>
    <nd ref="242423461"/>
    <nd ref="242423462"/>
    <tag k="highway" v="residential"/>
    <tag k="maxspeed" v="50"/>
    <tag k="maxspeed:source" v="default residential speed limit in Australia"/>
    <tag k="name" v="Manly Parade"/>
  </way>
  <way id="22598134" version="4" timestamp="2010-07-08T03:32:47Z" uid="74617" user="JohnSmith" changeset="5163091">
    <nd ref="566618625"/>
    <nd ref="242423180"/>
    <nd ref="242423799"/>
    <tag k="highway" v="residential"/>
    <tag k="maxspeed" v="50"/>
    <tag k="maxspeed:source" v="default residential speed limit in Australia"/>
    <tag k="name" v="Bondi Road"/>
  </way>
  <way id="22598136" version="6" timestamp="2010-07-08T03:31:28Z" uid="74617" user="JohnSmith" changeset="5163091">
    <nd ref="566618635"/>
    <nd ref="566613406"/>
    <nd ref="566621171"/>
    <nd ref="242424219"/>
    <nd ref="242424220"/>
    <tag k="highway" v="residential"/>
    <tag k="maxspeed" v="50"/>
    <tag k="maxspeed:source" v="default residential speed limit in Australia"/>
    <tag k="name" v="Coogee Avenue"/>
  </way>
  <way id="22598138" version="4" timestamp="2010-07-08T03:31:56Z" uid="74617" user="JohnSmith" changeset="5163091">
    <nd ref="566618605"/>
    <nd ref="242423179"/>
    <nd ref="242424569"/>
    <tag k="highway" v="residential"/>
    <tag k="maxspeed" v="50"/>
    <tag k="maxspeed:source" v="default residential speed limit in Australia"/>
    <tag k="name" v="Florida Street"/>
  </way>
  <way id="22598139" version="5" timestamp="2010-07-08T03:33:07Z" uid="74617" user="JohnSmith" changeset="5163091">
    <nd ref="566618583"/>
    <nd ref="566621159"/>
    <nd ref="242424903"/>
    <nd ref="242424904"/>
    <tag k="highway" v="residential"/>
    <tag k="maxspeed" v="50"/>
    <tag k="maxspeed:source" v="default residential speed limit in Australia"/>
    <tag k="name" v="Stewart Street"/>
  </way>
  <way id="22598140" version="3" timestamp="2010-07-08T03:33:27Z" uid="74617" user="JohnSmith" changeset="5163091">
    <nd ref="242424954"/>
    <nd ref="242425287"/>
    <tag k="highway" v="residential"/>
    <tag k="maxspeed" v="50"/>
    <tag k="maxspeed:source" v="default residential speed limit in Australia"/>
    <tag k="name" v="Leonard Street"/>
  </way>
  <way id="22598142" version="4" timestamp="2010-07-08T03:31:01Z" uid="74617" user="JohnSmith" changeset="5163091">
    <nd ref="242425350"/>
    <nd ref="566617111"/>
    <nd ref="634061286"/>
    <tag k="highway" v="residential"/>
    <tag k="maxspeed" v="50"/>
    <tag k="maxspeed:source" v="default residential speed limit in Australia"/>
    <tag k="name" v="Link Road"/>
  </way>
  <way id="22598144" version="3" timestamp="2010-07-08T03:32:47Z" uid="74617" user="JohnSmith" changeset="5163091">
    <nd ref="242426254"/>
    <nd ref="566617108"/>
    <nd ref="566617151"/>
    <nd ref="566617196"/>
    <nd ref="242426255"/>
    <tag k="highway" v="residential"/>
    <tag k="maxspeed" v="50"/>
    <tag k="maxspeed:source" v="default residential speed limit in Australia"/>
    <tag k="name" v="Hargraves Street"/>
  </way>
  <way id="22598147" version="3" timestamp="2010-07-08T03:31:35Z" uid="74617" user="JohnSmith" changeset="5163091">
    <nd ref="242426348"/>
    <nd ref="242426716"/>
    <tag k="highway" v="residential"/>
    <tag k="maxspeed" v="50"/>
    <tag k="maxspeed:source" v="default residential speed limit in Australia"/>
    <tag k="name" v="Wyuna Avenue"/>
  </way>
  <way id="22598152" version="2" timestamp="2008-05-21T01:30:30Z" uid="30201" user="rrankin" changeset="495327">
    <nd ref="242428677"/>
    <nd ref="242429230"/>
    <nd ref="242429232"/>
    <nd ref="242429233"/>
    <nd ref="242429234"/>
    <nd ref="242429235"/>
    <tag k="created_by" v="Potlatch 0.9a"/>
    <tag k="highway" v="residential"/>
    <tag k="name" v="The Crescent"/>
  </way>
  <way id="22598152" version="3" timestamp="2010-05-17T05:08:17Z" uid="4467" user="Rosscoe" changeset="4725678">
    <nd ref="242428677"/>
    <nd ref="242429230"/>
    <tag k="highway" v="residential"/>
    <tag k="name" v="The Crescent"/>
  </way>
  <way id="22598152" version="4" timestamp="2010-05-17T05:24:14Z" uid="4467" user="Rosscoe" changeset="4725722">
    <nd ref="242428677"/>
    <nd ref="242429230"/>
    <tag k="highway" v="residential"/>
    <tag k="name" v="The Crescent"/>
    <tag k="source" v="nearmap"/>
  </way>
  <way id="22598152" version="5" timestamp="2010-07-08T03:31:01Z" uid="74617" user="JohnSmith" changeset="5163091">
    <nd ref="242428677"/>
    <nd ref="242429230"/>
    <tag k="highway" v="residential"/>
    <tag k="maxspeed" v="50"/>
    <tag k="maxspeed:source" v="default residential speed limit in Australia"/>
    <tag k="name" v="The Crescent"/>
    <tag k="source" v="nearmap"/>
  </way>
  <way id="22598153" version="2" timestamp="2008-05-21T01:30:37Z" uid="30201" user="rrankin" changeset="495327">
    <nd ref="242429230"/>
    <nd ref="242429716"/>
    <nd ref="242429718"/>
    <nd ref="242429234"/>
    <tag k="created_by" v="Potlatch 0.9a"/>
    <tag k="highway" v="residential"/>
    <tag k="name" v="The Crescent"/>
  </way>
  <way id="22598153" version="3" timestamp="2008-05-21T01:32:10Z" uid="30201" user="rrankin" changeset="495327">
    <nd ref="242429230"/>
    <nd ref="242429716"/>
    <nd ref="242429718"/>
    <nd ref="242429234"/>
    <tag k="created_by" v="Potlatch 0.9a"/>
    <tag k="highway" v="residential"/>
  </way>
  <way id="22598153" version="4" timestamp="2008-05-21T01:32:18Z" uid="30201" user="rrankin" changeset="495327">
    <nd ref="242429230"/>
    <nd ref="242429716"/>
    <nd ref="242429718"/>
    <nd ref="242429234"/>
    <tag k="created_by" v="Potlatch 0.9a"/>
    <tag k="highway" v="residential"/>
    <tag k="name" v="The Crescent"/>
  </way>
  <way id="22598153" version="5" timestamp="2010-05-17T05:08:16Z" uid="4467" user="Rosscoe" changeset="4725678">
    <nd ref="242429234"/>
    <nd ref="242429718"/>
    <nd ref="737146249"/>
    <nd ref="242429716"/>
    <nd ref="242429230"/>
    <tag k="highway" v="residential"/>
    <tag k="name" v="The Crescent"/>
  </way>
  <way id="22598153" version="6" timestamp="2010-05-17T05:24:12Z" uid="4467" user="Rosscoe" changeset="4725722">
    <nd ref="242429234"/>
    <nd ref="242429718"/>
    <nd ref="737146249"/>
    <nd ref="242429716"/>
    <nd ref="242429230"/>
    <tag k="highway" v="residential"/>
    <tag k="name" v="The Crescent"/>
    <tag k="source" v="nearmap"/>
  </way>
  <way id="22598153" version="7" timestamp="2010-07-08T03:32:17Z" uid="74617" user="JohnSmith" changeset="5163091">
    <nd ref="242429234"/>
    <nd ref="242429718"/>
    <nd ref="737146249"/>
    <nd ref="242429716"/>
    <nd ref="242429230"/>
    <tag k="highway" v="residential"/>
    <tag k="maxspeed" v="50"/>
    <tag k="maxspeed:source" v="default residential speed limit in Australia"/>
    <tag k="name" v="The Crescent"/>
    <tag k="source" v="nearmap"/>
  </way>
  <way id="22598161" version="9" timestamp="2010-04-05T21:18:35Z" uid="74617" user="JohnSmith" changeset="4338595">
    <nd ref="76460325"/>
    <nd ref="242432895"/>
    <nd ref="76460280"/>
    <nd ref="242432897"/>
    <nd ref="26121002"/>
    <nd ref="242416956"/>
    <tag k="highway" v="motorway"/>
    <tag k="lanes" v="4"/>
    <tag k="maxspeed" v="100"/>
    <tag k="name" v="CityLink"/>
    <tag k="oneway" v="yes"/>
    <tag k="source" v="yahoo"/>
    <tag k="toll" v="yes"/>
  </way>
  <way id="22598161" version="10" timestamp="2010-07-10T06:35:07Z" uid="4467" user="Rosscoe" changeset="5179611">
    <nd ref="76460325"/>
    <nd ref="242432895"/>
    <nd ref="76460280"/>
    <nd ref="242416956"/>
    <tag k="highway" v="motorway"/>
    <tag k="lanes" v="4"/>
    <tag k="maxspeed" v="100"/>
    <tag k="name" v="CityLink"/>
    <tag k="oneway" v="yes"/>
    <tag k="source" v="yahoo"/>
    <tag k="toll" v="yes"/>
  </way>
  <way id="22598162" version="7" timestamp="2010-04-05T21:18:35Z" uid="74617" user="JohnSmith" changeset="4338595">
    <nd ref="242433392"/>
    <nd ref="76460325"/>
    <tag k="bridge" v="yes"/>
    <tag k="highway" v="motorway"/>
    <tag k="lanes" v="4"/>
    <tag k="layer" v="1"/>
    <tag k="maxspeed" v="100"/>
    <tag k="name" v="CityLink"/>
    <tag k="oneway" v="yes"/>
    <tag k="source" v="yahoo"/>
    <tag k="toll" v="yes"/>
  </way>
  <way id="22598163" version="7" timestamp="2010-04-05T21:23:57Z" uid="74617" user="JohnSmith" changeset="4338595">
    <nd ref="242433398"/>
    <nd ref="76460318"/>
    <nd ref="26033598"/>
    <nd ref="76460260"/>
    <nd ref="26033599"/>
    <nd ref="76460261"/>
    <nd ref="26033600"/>
    <nd ref="76460262"/>
    <nd ref="76460263"/>
    <nd ref="76460264"/>
    <nd ref="26033617"/>
    <nd ref="26121234"/>
    <nd ref="26033636"/>
    <nd ref="26033654"/>
    <nd ref="457840488"/>
    <nd ref="76459542"/>
    <nd ref="457840490"/>
    <nd ref="76459537"/>
    <nd ref="26033775"/>
    <nd ref="76459538"/>
    <nd ref="26033776"/>
    <tag k="highway" v="motorway"/>
    <tag k="lanes" v="4"/>
    <tag k="maxspeed" v="100"/>
    <tag k="name" v="CityLink"/>
    <tag k="oneway" v="yes"/>
    <tag k="source" v="survey; yahoo"/>
    <tag k="toll" v="yes"/>
  </way>
  <way id="22598164" version="6" timestamp="2010-04-05T21:23:57Z" uid="74617" user="JohnSmith" changeset="4338595">
    <nd ref="242433397"/>
    <nd ref="242433398"/>
    <tag k="bridge" v="yes"/>
    <tag k="highway" v="motorway"/>
    <tag k="lanes" v="4"/>
    <tag k="layer" v="1"/>
    <tag k="maxspeed" v="100"/>
    <tag k="name" v="CityLink"/>
    <tag k="oneway" v="yes"/>
    <tag k="source" v="yahoo"/>
    <tag k="toll" v="yes"/>
  </way>
  <way id="22598165" version="4" timestamp="2010-07-10T06:36:20Z" uid="4467" user="Rosscoe" changeset="5179611">
    <nd ref="32886083"/>
    <nd ref="809515054"/>
    <nd ref="809515006"/>
    <tag k="highway" v="motorway_link"/>
    <tag k="oneway" v="yes"/>
    <tag k="source" v="yahoo"/>
  </way>
  <way id="22598170" version="2" timestamp="2009-08-03T19:36:25Z" uid="4467" user="Rosscoe" changeset="2029470">
    <nd ref="32886083"/>
    <nd ref="32886084"/>
    <tag k="highway" v="motorway_link"/>
    <tag k="oneway" v="yes"/>
  </way>
  <way id="22598170" version="3" timestamp="2009-08-10T01:08:12Z" uid="4467" user="Rosscoe" changeset="2092229"/>
  <way id="22598171" version="2" timestamp="2009-08-03T19:36:26Z" uid="4467" user="Rosscoe" changeset="2029470">
    <nd ref="242433397"/>
    <nd ref="242433398"/>
    <tag k="highway" v="motorway"/>
    <tag k="lanes" v="4"/>
    <tag k="name" v="CityLink"/>
    <tag k="oneway" v="yes"/>
    <tag k="ref" v="S43"/>
    <tag k="toll" v="yes"/>
  </way>
  <way id="22598171" version="3" timestamp="2009-08-10T01:08:12Z" uid="4467" user="Rosscoe" changeset="2092229"/>
  <way id="22598172" version="2" timestamp="2009-08-03T19:36:26Z" uid="4467" user="Rosscoe" changeset="2029470">
    <nd ref="242433398"/>
    <nd ref="76460318"/>
    <nd ref="26033598"/>
    <nd ref="76460260"/>
    <nd ref="26033599"/>
    <nd ref="76460261"/>
    <nd ref="26033600"/>
    <nd ref="76460262"/>
    <nd ref="76460263"/>
    <nd ref="76460264"/>
    <nd ref="26033617"/>
    <nd ref="26121234"/>
    <tag k="highway" v="motorway"/>
    <tag k="lanes" v="4"/>
    <tag k="name" v="CityLink"/>
    <tag k="oneway" v="yes"/>
    <tag k="ref" v="S43"/>
    <tag k="toll" v="yes"/>
  </way>
  <way id="22598172" version="3" timestamp="2009-08-10T01:08:12Z" uid="4467" user="Rosscoe" changeset="2092229"/>
  <way id="22598173" version="3" timestamp="2009-08-03T19:36:26Z" uid="4467" user="Rosscoe" changeset="2029470">
    <nd ref="242433392"/>
    <nd ref="76460325"/>
    <tag k="bridge" v="yes"/>
    <tag k="highway" v="motorway"/>
    <tag k="lanes" v="4"/>
    <tag k="maxspeed" v="100"/>
    <tag k="name" v="CityLink"/>
    <tag k="oneway" v="yes"/>
    <tag k="ref" v="S43"/>
    <tag k="source" v="survey"/>
    <tag k="toll" v="yes"/>
  </way>
  <way id="22598173" version="4" timestamp="2009-08-10T01:08:12Z" uid="4467" user="Rosscoe" changeset="2092229"/>
  <way id="22598174" version="3" timestamp="2009-08-03T02:49:18Z" uid="4467" user="Rosscoe" changeset="2021038">
    <nd ref="76460325"/>
    <nd ref="242432895"/>
    <nd ref="76460280"/>
    <nd ref="242432897"/>
    <nd ref="26121002"/>
    <nd ref="242416956"/>
    <tag k="highway" v="motorway"/>
    <tag k="lanes" v="4"/>
    <tag k="maxspeed" v="100"/>
    <tag k="name" v="CityLink"/>
    <tag k="oneway" v="yes"/>
    <tag k="ref" v="S43"/>
    <tag k="source" v="survey"/>
    <tag k="toll" v="yes"/>
  </way>
  <way id="22598174" version="4" timestamp="2009-08-10T01:08:11Z" uid="4467" user="Rosscoe" changeset="2092229"/>
  <way id="22598252" version="14" timestamp="2011-01-02T18:46:04Z" uid="65847" user="LKK" changeset="6841873">
    <nd ref="218005126"/>
    <nd ref="242434489"/>
    <nd ref="242434490"/>
    <nd ref="242434492"/>
    <nd ref="242434493"/>
    <nd ref="242434495"/>
    <nd ref="93528803"/>
    <nd ref="242434496"/>
    <nd ref="242434497"/>
    <nd ref="242434498"/>
    <nd ref="242434499"/>
    <nd ref="242434500"/>
    <nd ref="242434501"/>
    <nd ref="242434502"/>
    <nd ref="242434503"/>
    <nd ref="242434504"/>
    <nd ref="242434505"/>
    <nd ref="242434507"/>
    <nd ref="242434509"/>
    <nd ref="242434510"/>
    <nd ref="269466950"/>
    <nd ref="242434512"/>
    <nd ref="242434513"/>
    <nd ref="242434514"/>
    <nd ref="242434515"/>
    <nd ref="269467220"/>
    <nd ref="242434516"/>
    <nd ref="242434517"/>
    <tag k="highway" v="tertiary"/>
  </way>
  <way id="22598363" version="6" timestamp="2010-03-27T23:29:49Z" uid="20587" user="balrog-kun" changeset="4250871">
    <nd ref="53104014"/>
    <nd ref="242451274"/>
    <nd ref="53136924"/>
    <nd ref="53136925"/>
    <tag k="highway" v="unclassified"/>
    <tag k="name" v="Davis Street"/>
    <tag k="tiger:cfcc" v="A41"/>
    <tag k="tiger:county" v="Alameda, CA"/>
    <tag k="tiger:name_base" v="Davis"/>
    <tag k="tiger:name_type" v="St"/>
    <tag k="tiger:reviewed" v="no"/>
    <tag k="tiger:separated" v="no"/>
    <tag k="tiger:source" v="tiger_import_dch_v0.6_20070809"/>
    <tag k="tiger:tlid" v="125080751"/>
    <tag k="tiger:zip_left" v="94577"/>
    <tag k="tiger:zip_right" v="94577"/>
  </way>
  <way id="22598367" version="3" timestamp="2010-07-08T02:13:27Z" uid="74617" user="JohnSmith" changeset="5162525">
    <nd ref="242452736"/>
    <nd ref="242452954"/>
    <nd ref="242453281"/>
    <nd ref="242452955"/>
    <nd ref="242452956"/>
    <tag k="highway" v="residential"/>
    <tag k="maxspeed" v="50"/>
    <tag k="maxspeed:source" v="default residential speed limit in Australia"/>
    <tag k="name" v="Bungalow Road"/>
  </way>
  <way id="22598367" version="4" timestamp="2010-11-02T11:03:18Z" uid="7617" user="Franc" changeset="6266786">
    <nd ref="242452736"/>
    <nd ref="974454338"/>
    <nd ref="242452954"/>
    <nd ref="974454242"/>
    <nd ref="974454371"/>
    <nd ref="974454251"/>
    <nd ref="242453281"/>
    <nd ref="242452955"/>
    <nd ref="974454332"/>
    <nd ref="974454305"/>
    <nd ref="242452956"/>
    <tag k="highway" v="residential"/>
    <tag k="maxspeed" v="50"/>
    <tag k="maxspeed:source" v="default residential speed limit in Australia"/>
    <tag k="name" v="Bungalow Road"/>
  </way>
  <way id="22598371" version="2" timestamp="2010-07-08T02:07:34Z" uid="74617" user="JohnSmith" changeset="5162525">
    <nd ref="242453281"/>
    <nd ref="242453493"/>
    <tag k="highway" v="residential"/>
    <tag k="maxspeed" v="50"/>
    <tag k="maxspeed:source" v="default residential speed limit in Australia"/>
    <tag k="name" v="Bernice Street"/>
  </way>
  <way id="22598377" version="7" timestamp="2010-01-26T02:33:13Z" uid="30201" user="rrankin" changeset="3716457">
    <nd ref="242453506"/>
    <nd ref="620344881"/>
    <nd ref="242457735"/>
    <nd ref="620344903"/>
    <tag k="highway" v="residential"/>
    <tag k="name" v="Stoddart Street"/>
  </way>
  <way id="22598377" version="8" timestamp="2010-07-08T02:09:17Z" uid="74617" user="JohnSmith" changeset="5162525">
    <nd ref="242453506"/>
    <nd ref="620344881"/>
    <nd ref="242457735"/>
    <nd ref="620344903"/>
    <tag k="highway" v="residential"/>
    <tag k="maxspeed" v="50"/>
    <tag k="maxspeed:source" v="default residential speed limit in Australia"/>
    <tag k="name" v="Stoddart Street"/>
  </way>
  <way id="22598377" version="9" timestamp="2010-11-02T11:03:10Z" uid="7617" user="Franc" changeset="6266786">
    <nd ref="242453506"/>
    <nd ref="620344881"/>
    <nd ref="974454335"/>
    <nd ref="242457735"/>
    <nd ref="620344903"/>
    <tag k="highway" v="residential"/>
    <tag k="maxspeed" v="50"/>
    <tag k="maxspeed:source" v="default residential speed limit in Australia"/>
    <tag k="name" v="Stoddart Street"/>
  </way>
  <way id="22598380" version="5" timestamp="2010-11-02T11:11:54Z" uid="7617" user="Franc" changeset="6266849">
    <nd ref="36597651"/>
    <nd ref="974455822"/>
    <tag k="highway" v="tertiary"/>
    <tag k="name" v="Canarys Road"/>
  </way>
  <way id="22598384" version="2" timestamp="2010-04-10T10:26:02Z" uid="7617" user="Franc" changeset="4381091">
    <nd ref="36597652"/>
    <nd ref="691256530"/>
    <nd ref="242454853"/>
    <nd ref="242454855"/>
    <nd ref="242454856"/>
    <tag k="highway" v="residential"/>
    <tag k="name" v="Berring Avenue"/>
  </way>
  <way id="22598384" version="3" timestamp="2010-07-08T02:12:04Z" uid="74617" user="JohnSmith" changeset="5162525">
    <nd ref="36597652"/>
    <nd ref="691256530"/>
    <nd ref="242454853"/>
    <nd ref="242454855"/>
    <nd ref="242454856"/>
    <tag k="highway" v="residential"/>
    <tag k="maxspeed" v="50"/>
    <tag k="maxspeed:source" v="default residential speed limit in Australia"/>
    <tag k="name" v="Berring Avenue"/>
  </way>
  <way id="22598384" version="4" timestamp="2010-11-02T11:11:54Z" uid="7617" user="Franc" changeset="6266849">
    <nd ref="36597652"/>
    <nd ref="691256530"/>
    <nd ref="242454853"/>
    <nd ref="242454855"/>
    <nd ref="974455818"/>
    <nd ref="974455831"/>
    <nd ref="242454856"/>
    <tag k="highway" v="residential"/>
    <tag k="maxspeed" v="50"/>
    <tag k="maxspeed:source" v="default residential speed limit in Australia"/>
    <tag k="name" v="Berring Avenue"/>
  </way>
  <way id="22598392" version="2" timestamp="2010-07-08T02:07:51Z" uid="74617" user="JohnSmith" changeset="5162525">
    <nd ref="242454853"/>
    <nd ref="242456735"/>
    <nd ref="242456736"/>
    <nd ref="242456737"/>
    <tag k="highway" v="residential"/>
    <tag k="maxspeed" v="50"/>
    <tag k="maxspeed:source" v="default residential speed limit in Australia"/>
    <tag k="name" v="Alph Avenue"/>
  </way>
  <way id="22598393" version="2" timestamp="2010-07-08T02:10:50Z" uid="74617" user="JohnSmith" changeset="5162525">
    <nd ref="242456811"/>
    <nd ref="242457113"/>
    <nd ref="242457115"/>
    <nd ref="242457116"/>
    <nd ref="242457117"/>
    <nd ref="242457118"/>
    <tag k="highway" v="residential"/>
    <tag k="maxspeed" v="50"/>
    <tag k="maxspeed:source" v="default residential speed limit in Australia"/>
    <tag k="name" v="Nicoll Street"/>
  </way>
  <way id="22598393" version="3" timestamp="2010-11-02T13:09:15Z" uid="7617" user="Franc" changeset="6267578">
    <nd ref="242456811"/>
    <nd ref="242457113"/>
    <nd ref="242457115"/>
    <nd ref="974577836"/>
    <nd ref="242457116"/>
    <nd ref="242457117"/>
    <tag k="highway" v="residential"/>
    <tag k="maxspeed" v="50"/>
    <tag k="maxspeed:source" v="default residential speed limit in Australia"/>
    <tag k="name" v="Nicoll Street"/>
  </way>
  <way id="22598396" version="3" timestamp="2010-07-08T02:12:35Z" uid="74617" user="JohnSmith" changeset="5162525">
    <nd ref="242457129"/>
    <nd ref="242457118"/>
    <nd ref="242457461"/>
    <nd ref="242458169"/>
    <nd ref="242457462"/>
    <tag k="highway" v="residential"/>
    <tag k="maxspeed" v="50"/>
    <tag k="maxspeed:source" v="default residential speed limit in Australia"/>
    <tag k="name" v="Albion Street"/>
  </way>
  <way id="22598396" version="4" timestamp="2010-11-02T11:03:07Z" uid="7617" user="Franc" changeset="6266786">
    <nd ref="242457129"/>
    <nd ref="242457118"/>
    <nd ref="242457461"/>
    <nd ref="974454315"/>
    <tag k="highway" v="residential"/>
    <tag k="maxspeed" v="50"/>
    <tag k="maxspeed:source" v="default residential speed limit in Australia"/>
    <tag k="name" v="Albion Street"/>
  </way>
  <way id="22598398" version="2" timestamp="2010-01-26T02:33:14Z" uid="30201" user="rrankin" changeset="3716457">
    <nd ref="242457461"/>
    <nd ref="242457709"/>
    <nd ref="620344922"/>
    <nd ref="242457711"/>
    <tag k="highway" v="residential"/>
    <tag k="name" v="Sandra Crescent"/>
  </way>
  <way id="22598398" version="3" timestamp="2010-07-08T02:13:41Z" uid="74617" user="JohnSmith" changeset="5162525">
    <nd ref="242457461"/>
    <nd ref="242457709"/>
    <nd ref="620344922"/>
    <nd ref="242457711"/>
    <tag k="highway" v="residential"/>
    <tag k="maxspeed" v="50"/>
    <tag k="maxspeed:source" v="default residential speed limit in Australia"/>
    <tag k="name" v="Sandra Crescent"/>
  </way>
  <way id="22598400" version="13" timestamp="2010-03-27T23:29:50Z" uid="20587" user="balrog-kun" changeset="4250871">
    <nd ref="53104014"/>
    <nd ref="311672434"/>
    <nd ref="311672299"/>
    <tag k="highway" v="primary"/>
    <tag k="name" v="Davis Street"/>
    <tag k="oneway" v="yes"/>
    <tag k="ref" v="CA 61"/>
  </way>
  <way id="22598403" version="7" timestamp="2010-07-08T02:09:20Z" uid="74617" user="JohnSmith" changeset="5162525">
    <nd ref="242457735"/>
    <nd ref="242460229"/>
    <nd ref="242458167"/>
    <nd ref="242458169"/>
    <nd ref="242467547"/>
    <nd ref="242458734"/>
    <nd ref="242467907"/>
    <nd ref="242458554"/>
    <nd ref="242458170"/>
    <tag k="highway" v="residential"/>
    <tag k="maxspeed" v="50"/>
    <tag k="maxspeed:source" v="default residential speed limit in Australia"/>
    <tag k="name" v="Ludgate Street"/>
  </way>
  <way id="22598403" version="8" timestamp="2010-11-02T11:03:13Z" uid="7617" user="Franc" changeset="6266786">
    <nd ref="242457735"/>
    <nd ref="974454268"/>
    <nd ref="242460229"/>
    <nd ref="242458167"/>
    <nd ref="974454292"/>
    <nd ref="974454244"/>
    <nd ref="974454258"/>
    <nd ref="974454351"/>
    <nd ref="242467547"/>
    <nd ref="242458734"/>
    <nd ref="242467907"/>
    <nd ref="242458554"/>
    <nd ref="242458170"/>
    <tag k="highway" v="residential"/>
    <tag k="maxspeed" v="50"/>
    <tag k="maxspeed:source" v="default residential speed limit in Australia"/>
    <tag k="name" v="Ludgate Street"/>
  </way>
  <way id="22598403" version="9" timestamp="2010-11-02T13:09:24Z" uid="7617" user="Franc" changeset="6267578">
    <nd ref="242457735"/>
    <nd ref="974454268"/>
    <nd ref="974577845"/>
    <nd ref="242460229"/>
    <nd ref="242458167"/>
    <nd ref="974454292"/>
    <nd ref="974454244"/>
    <nd ref="974454258"/>
    <tag k="highway" v="residential"/>
    <tag k="maxspeed" v="50"/>
    <tag k="maxspeed:source" v="default residential speed limit in Australia"/>
    <tag k="name" v="Ludgate Street"/>
  </way>
  <way id="22598405" version="2" timestamp="2010-07-08T02:12:56Z" uid="74617" user="JohnSmith" changeset="5162525">
    <nd ref="242458190"/>
    <nd ref="242458551"/>
    <nd ref="242458552"/>
    <nd ref="242458553"/>
    <nd ref="242458554"/>
    <tag k="highway" v="residential"/>
    <tag k="maxspeed" v="50"/>
    <tag k="maxspeed:source" v="default residential speed limit in Australia"/>
    <tag k="name" v="Ridgewell Street"/>
  </way>
  <way id="22598405" version="3" timestamp="2010-11-02T13:09:15Z" uid="7617" user="Franc" changeset="6267578">
    <nd ref="242458190"/>
    <nd ref="242458551"/>
    <nd ref="242458552"/>
    <nd ref="974577848"/>
    <nd ref="242458553"/>
    <nd ref="242458554"/>
    <tag k="highway" v="residential"/>
    <tag k="maxspeed" v="50"/>
    <tag k="maxspeed:source" v="default residential speed limit in Australia"/>
    <tag k="name" v="Ridgewell Street"/>
  </way>
  <way id="22598407" version="2" timestamp="2010-07-08T02:07:07Z" uid="74617" user="JohnSmith" changeset="5162525">
    <nd ref="242458734"/>
    <nd ref="242458736"/>
    <tag k="highway" v="residential"/>
    <tag k="maxspeed" v="50"/>
    <tag k="maxspeed:source" v="default residential speed limit in Australia"/>
    <tag k="name" v="Westell Avenue"/>
  </way>
  <way id="22598410" version="2" timestamp="2010-07-08T02:09:03Z" uid="74617" user="JohnSmith" changeset="5162525">
    <nd ref="242459125"/>
    <nd ref="242458736"/>
    <nd ref="242459126"/>
    <tag k="highway" v="residential"/>
    <tag k="maxspeed" v="50"/>
    <tag k="maxspeed:source" v="default residential speed limit in Australia"/>
    <tag k="name" v="Keevin Street"/>
  </way>
  <way id="22598412" version="2" timestamp="2010-07-08T02:12:41Z" uid="74617" user="JohnSmith" changeset="5162525">
    <nd ref="242459143"/>
    <nd ref="242459636"/>
    <nd ref="242459637"/>
    <tag k="highway" v="residential"/>
    <tag k="maxspeed" v="50"/>
    <tag k="maxspeed:source" v="default residential speed limit in Australia"/>
    <tag k="name" v="Beverly Crescent"/>
  </way>
  <way id="22598412" version="3" timestamp="2010-11-02T11:03:19Z" uid="7617" user="Franc" changeset="6266786">
    <nd ref="242459143"/>
    <nd ref="242459636"/>
    <nd ref="974454279"/>
    <nd ref="242459637"/>
    <tag k="highway" v="residential"/>
    <tag k="maxspeed" v="50"/>
    <tag k="maxspeed:source" v="default residential speed limit in Australia"/>
    <tag k="name" v="Beverly Crescent"/>
  </way>
  <way id="22598414" version="8" timestamp="2010-11-02T11:03:17Z" uid="7617" user="Franc" changeset="6266786">
    <nd ref="242459648"/>
    <nd ref="242459840"/>
    <nd ref="242460679"/>
    <nd ref="242468813"/>
    <nd ref="974454369"/>
    <nd ref="974454240"/>
    <nd ref="242459842"/>
    <nd ref="974454289"/>
    <nd ref="242459843"/>
    <tag k="highway" v="tertiary"/>
    <tag k="name" v="Rogers Street"/>
  </way>
  <way id="22598417" version="2" timestamp="2010-07-08T02:09:51Z" uid="74617" user="JohnSmith" changeset="5162525">
    <nd ref="242460229"/>
    <nd ref="242460471"/>
    <nd ref="242460472"/>
    <tag k="highway" v="residential"/>
    <tag k="maxspeed" v="50"/>
    <tag k="maxspeed:source" v="default residential speed limit in Australia"/>
    <tag k="name" v="Maryl Avenue"/>
  </way>
  <way id="22598417" version="3" timestamp="2010-11-02T11:03:13Z" uid="7617" user="Franc" changeset="6266786">
    <nd ref="242460229"/>
    <nd ref="974454307"/>
    <nd ref="974454368"/>
    <nd ref="242460471"/>
    <nd ref="242460472"/>
    <tag k="highway" v="residential"/>
    <tag k="maxspeed" v="50"/>
    <tag k="maxspeed:source" v="default residential speed limit in Australia"/>
    <tag k="name" v="Maryl Avenue"/>
  </way>
  <way id="22598418" version="2" timestamp="2010-07-08T02:07:52Z" uid="74617" user="JohnSmith" changeset="5162525">
    <nd ref="242460471"/>
    <nd ref="242460655"/>
    <tag k="highway" v="residential"/>
    <tag k="maxspeed" v="50"/>
    <tag k="maxspeed:source" v="default residential speed limit in Australia"/>
    <tag k="name" v="Stephen Place"/>
  </way>
  <way id="22598418" version="3" timestamp="2010-11-02T11:03:20Z" uid="7617" user="Franc" changeset="6266786">
    <nd ref="242460471"/>
    <nd ref="974454404"/>
    <nd ref="242460655"/>
    <tag k="highway" v="residential"/>
    <tag k="maxspeed" v="50"/>
    <tag k="maxspeed:source" v="default residential speed limit in Australia"/>
    <tag k="name" v="Stephen Place"/>
  </way>
  <way id="22598420" version="2" timestamp="2010-07-08T02:11:35Z" uid="74617" user="JohnSmith" changeset="5162525">
    <nd ref="242460679"/>
    <nd ref="242460944"/>
    <nd ref="242460945"/>
    <nd ref="242460946"/>
    <nd ref="242460947"/>
    <nd ref="242460948"/>
    <nd ref="242460949"/>
    <nd ref="242460950"/>
    <tag k="highway" v="residential"/>
    <tag k="maxspeed" v="50"/>
    <tag k="maxspeed:source" v="default residential speed limit in Australia"/>
    <tag k="name" v="Enid Avenue"/>
  </way>
  <way id="22598423" version="2" timestamp="2010-07-08T02:08:45Z" uid="74617" user="JohnSmith" changeset="5162525">
    <nd ref="242460948"/>
    <nd ref="242461498"/>
    <nd ref="242461499"/>
    <tag k="highway" v="residential"/>
    <tag k="maxspeed" v="50"/>
    <tag k="maxspeed:source" v="default residential speed limit in Australia"/>
    <tag k="name" v="Sandoo Crescent"/>
  </way>
  <way id="22598427" version="5" timestamp="2008-02-12T05:18:18Z" uid="7617" user="Franc" changeset="107934"/>
  <way id="22598432" version="26" timestamp="2008-10-10T08:01:18Z" uid="65847" user="LKK" changeset="209907">
    <nd ref="150476505"/>
    <nd ref="245964623"/>
    <nd ref="245963828"/>
    <nd ref="249313956"/>
    <nd ref="242144668"/>
    <tag k="created_by" v="Potlatch 0.9c"/>
    <tag k="highway" v="secondary"/>
    <tag k="name" v=".  "/>
    <tag k="railway" v="tram"/>
  </way>
  <way id="22598432" version="27" timestamp="2008-10-14T21:06:58Z" uid="65847" user="LKK" changeset="339169">
    <nd ref="150476505"/>
    <nd ref="304672300"/>
    <nd ref="245964623"/>
    <nd ref="245963828"/>
    <nd ref="249313956"/>
    <nd ref="242144668"/>
    <tag k="created_by" v="Potlatch 0.9c"/>
    <tag k="highway" v="secondary"/>
    <tag k="name" v=".  "/>
    <tag k="railway" v="tram"/>
  </way>
  <way id="22598434" version="5" timestamp="2010-11-02T11:03:17Z" uid="7617" user="Franc" changeset="6266786">
    <nd ref="242462995"/>
    <nd ref="242463577"/>
    <nd ref="242466102"/>
    <nd ref="974454360"/>
    <nd ref="242467888"/>
    <nd ref="974454275"/>
    <nd ref="242467059"/>
    <nd ref="242457462"/>
    <nd ref="242459843"/>
    <tag k="highway" v="tertiary"/>
    <tag k="name" v="Dreadnought Street"/>
  </way>
  <way id="22598436" version="4" timestamp="2008-02-12T06:54:35Z" uid="7617" user="Franc" changeset="107934">
    <nd ref="242459843"/>
    <nd ref="242462288"/>
    <nd ref="192983627"/>
    <nd ref="192983685"/>
    <nd ref="192983669"/>
    <nd ref="192983704"/>
    <nd ref="192983570"/>
    <nd ref="192983606"/>
    <nd ref="192983589"/>
    <nd ref="190952165"/>
    <tag k="created_by" v="Potlatch 0.6c"/>
    <tag k="highway" v="residential"/>
    <tag k="name" v="Rogers Street"/>
    <tag k="source" v="yahoo_imagery"/>
  </way>
  <way id="22598436" version="5" timestamp="2010-07-08T02:13:07Z" uid="74617" user="JohnSmith" changeset="5162525">
    <nd ref="242459843"/>
    <nd ref="242462288"/>
    <nd ref="192983627"/>
    <nd ref="192983685"/>
    <nd ref="192983669"/>
    <nd ref="192983704"/>
    <nd ref="192983570"/>
    <nd ref="192983606"/>
    <nd ref="192983589"/>
    <nd ref="190952165"/>
    <tag k="highway" v="residential"/>
    <tag k="maxspeed" v="50"/>
    <tag k="maxspeed:source" v="default residential speed limit in Australia"/>
    <tag k="name" v="Rogers Street"/>
    <tag k="source" v="yahoo_imagery"/>
  </way>
  <way id="22598436" version="6" timestamp="2010-11-02T09:55:09Z" uid="7617" user="Franc" changeset="6266333">
    <nd ref="242459843"/>
    <nd ref="974428599"/>
    <nd ref="242462288"/>
    <nd ref="974428355"/>
    <nd ref="974428687"/>
    <nd ref="192983627"/>
    <nd ref="192983685"/>
    <nd ref="974428645"/>
    <tag k="highway" v="residential"/>
    <tag k="maxspeed" v="50"/>
    <tag k="maxspeed:source" v="default residential speed limit in Australia"/>
    <tag k="name" v="Rogers Street"/>
    <tag k="source" v="yahoo_imagery"/>
  </way>
  <way id="22598445" version="5" timestamp="2010-07-08T02:11:50Z" uid="74617" user="JohnSmith" changeset="5162525">
    <nd ref="192983570"/>
    <nd ref="242465806"/>
    <nd ref="242465808"/>
    <nd ref="242467409"/>
    <nd ref="242465809"/>
    <nd ref="242473917"/>
    <nd ref="242472773"/>
    <nd ref="242465810"/>
    <tag k="highway" v="residential"/>
    <tag k="maxspeed" v="50"/>
    <tag k="maxspeed:source" v="default residential speed limit in Australia"/>
    <tag k="name" v="Legge Street"/>
  </way>
  <way id="22598445" version="6" timestamp="2010-11-02T09:55:09Z" uid="7617" user="Franc" changeset="6266333">
    <nd ref="974428721"/>
    <nd ref="242465806"/>
    <nd ref="242465808"/>
    <nd ref="242467409"/>
    <nd ref="242465809"/>
    <nd ref="242473917"/>
    <nd ref="242472773"/>
    <nd ref="242465810"/>
    <tag k="highway" v="residential"/>
    <tag k="maxspeed" v="50"/>
    <tag k="maxspeed:source" v="default residential speed limit in Australia"/>
    <tag k="name" v="Legge Street"/>
  </way>
  <way id="22598445" version="7" timestamp="2010-11-02T11:03:19Z" uid="7617" user="Franc" changeset="6266786">
    <nd ref="974428721"/>
    <nd ref="242465806"/>
    <nd ref="242465808"/>
    <nd ref="974454336"/>
    <tag k="highway" v="residential"/>
    <tag k="maxspeed" v="50"/>
    <tag k="maxspeed:source" v="default residential speed limit in Australia"/>
    <tag k="name" v="Legge Street"/>
  </way>
  <way id="22598447" version="2" timestamp="2010-07-08T02:12:52Z" uid="74617" user="JohnSmith" changeset="5162525">
    <nd ref="242466102"/>
    <nd ref="242462562"/>
    <tag k="highway" v="residential"/>
    <tag k="maxspeed" v="50"/>
    <tag k="maxspeed:source" v="default residential speed limit in Australia"/>
    <tag k="name" v="Walter Street"/>
  </way>
  <way id="22598447" version="3" timestamp="2010-11-02T11:03:16Z" uid="7617" user="Franc" changeset="6266786">
    <nd ref="242466102"/>
    <nd ref="974454385"/>
    <nd ref="974454405"/>
    <nd ref="974454273"/>
    <nd ref="242462562"/>
    <tag k="highway" v="residential"/>
    <tag k="maxspeed" v="50"/>
    <tag k="maxspeed:source" v="default residential speed limit in Australia"/>
    <tag k="name" v="Walter Street"/>
  </way>
  <way id="22598450" version="2" timestamp="2010-07-08T02:11:00Z" uid="74617" user="JohnSmith" changeset="5162525">
    <nd ref="242462289"/>
    <nd ref="242466702"/>
    <tag k="highway" v="residential"/>
    <tag k="maxspeed" v="50"/>
    <tag k="maxspeed:source" v="default residential speed limit in Australia"/>
    <tag k="name" v="Walter Street"/>
  </way>
  <way id="22598453" version="4" timestamp="2010-07-08T02:10:48Z" uid="74617" user="JohnSmith" changeset="5162525">
    <nd ref="242466818"/>
    <nd ref="242472774"/>
    <nd ref="242466702"/>
    <nd ref="242473919"/>
    <nd ref="242467043"/>
    <tag k="highway" v="residential"/>
    <tag k="maxspeed" v="50"/>
    <tag k="maxspeed:source" v="default residential speed limit in Australia"/>
    <tag k="name" v="Flora Street"/>
  </way>
  <way id="22598453" version="5" timestamp="2010-11-02T11:03:14Z" uid="7617" user="Franc" changeset="6266786">
    <nd ref="242466818"/>
    <nd ref="242472774"/>
    <nd ref="242466702"/>
    <nd ref="242473919"/>
    <nd ref="974454243"/>
    <nd ref="242467043"/>
    <tag k="highway" v="residential"/>
    <tag k="maxspeed" v="50"/>
    <tag k="maxspeed:source" v="default residential speed limit in Australia"/>
    <tag k="name" v="Flora Street"/>
  </way>
  <way id="22598453" version="6" timestamp="2010-11-28T10:50:21Z" uid="7617" user="Franc" changeset="6476735">
    <nd ref="242466818"/>
    <nd ref="1010551450"/>
    <nd ref="242472774"/>
    <nd ref="242466702"/>
    <nd ref="242473919"/>
    <nd ref="974454243"/>
    <nd ref="242467043"/>
    <tag k="highway" v="residential"/>
    <tag k="maxspeed" v="50"/>
    <tag k="maxspeed:source" v="default residential speed limit in Australia"/>
    <tag k="name" v="Flora Street"/>
  </way>
  <way id="22598458" version="3" timestamp="2010-01-26T02:33:13Z" uid="30201" user="rrankin" changeset="3716457">
    <nd ref="242467059"/>
    <nd ref="242467408"/>
    <nd ref="242467043"/>
    <nd ref="242470302"/>
    <nd ref="242467409"/>
    <nd ref="620344992"/>
    <tag k="highway" v="residential"/>
    <tag k="name" v="Leslie Street"/>
  </way>
  <way id="22598458" version="4" timestamp="2010-07-08T02:13:39Z" uid="74617" user="JohnSmith" changeset="5162525">
    <nd ref="242467059"/>
    <nd ref="242467408"/>
    <nd ref="242467043"/>
    <nd ref="242470302"/>
    <nd ref="242467409"/>
    <nd ref="620344992"/>
    <tag k="highway" v="residential"/>
    <tag k="maxspeed" v="50"/>
    <tag k="maxspeed:source" v="default residential speed limit in Australia"/>
    <tag k="name" v="Leslie Street"/>
  </way>
  <way id="22598458" version="5" timestamp="2010-11-02T11:03:15Z" uid="7617" user="Franc" changeset="6266786">
    <nd ref="242467059"/>
    <nd ref="974454312"/>
    <nd ref="242467408"/>
    <nd ref="242467043"/>
    <nd ref="242470302"/>
    <nd ref="974454411"/>
    <nd ref="974454365"/>
    <tag k="highway" v="residential"/>
    <tag k="maxspeed" v="50"/>
    <tag k="maxspeed:source" v="default residential speed limit in Australia"/>
    <tag k="name" v="Leslie Street"/>
  </way>
  <way id="22598458" version="6" timestamp="2010-11-28T10:49:43Z" uid="7617" user="Franc" changeset="6476735">
    <nd ref="242467059"/>
    <nd ref="974454312"/>
    <nd ref="242467408"/>
    <nd ref="242467043"/>
    <nd ref="1010550962"/>
    <nd ref="242470302"/>
    <nd ref="974454411"/>
    <nd ref="974454365"/>
    <tag k="highway" v="residential"/>
    <tag k="maxspeed" v="50"/>
    <tag k="maxspeed:source" v="default residential speed limit in Australia"/>
    <tag k="name" v="Leslie Street"/>
  </way>
  <way id="22598459" version="2" timestamp="2010-07-08T02:09:47Z" uid="74617" user="JohnSmith" changeset="5162525">
    <nd ref="242467547"/>
    <nd ref="242467886"/>
    <nd ref="242467887"/>
    <nd ref="242467888"/>
    <tag k="highway" v="residential"/>
    <tag k="maxspeed" v="50"/>
    <tag k="maxspeed:source" v="default residential speed limit in Australia"/>
    <tag k="name" v="Bennett Avenue"/>
  </way>
  <way id="22598459" version="3" timestamp="2010-11-02T11:03:21Z" uid="7617" user="Franc" changeset="6266786">
    <nd ref="242467547"/>
    <nd ref="242467886"/>
    <nd ref="242467887"/>
    <nd ref="974454390"/>
    <nd ref="242467888"/>
    <tag k="highway" v="residential"/>
    <tag k="maxspeed" v="50"/>
    <tag k="maxspeed:source" v="default residential speed limit in Australia"/>
    <tag k="name" v="Bennett Avenue"/>
  </way>
  <way id="22598460" version="2" timestamp="2010-07-08T02:10:36Z" uid="74617" user="JohnSmith" changeset="5162525">
    <nd ref="242467907"/>
    <nd ref="242468233"/>
    <nd ref="242468235"/>
    <tag k="highway" v="residential"/>
    <tag k="maxspeed" v="50"/>
    <tag k="maxspeed:source" v="default residential speed limit in Australia"/>
    <tag k="name" v="Belemba Avenue"/>
  </way>
  <way id="22598460" version="3" timestamp="2010-11-02T13:09:18Z" uid="7617" user="Franc" changeset="6267578">
    <nd ref="242467907"/>
    <nd ref="974577928"/>
    <nd ref="974577983"/>
    <nd ref="974577951"/>
    <nd ref="242468233"/>
    <nd ref="974577903"/>
    <tag k="highway" v="residential"/>
    <tag k="maxspeed" v="50"/>
    <tag k="maxspeed:source" v="default residential speed limit in Australia"/>
    <tag k="name" v="Belemba Avenue"/>
  </way>
  <way id="22598461" version="2" timestamp="2010-07-08T02:13:21Z" uid="74617" user="JohnSmith" changeset="5162525">
    <nd ref="242468813"/>
    <nd ref="242469183"/>
    <nd ref="242469184"/>
    <tag k="highway" v="residential"/>
    <tag k="maxspeed" v="50"/>
    <tag k="maxspeed:source" v="default residential speed limit in Australia"/>
    <tag k="name" v="Kerry Crescent"/>
  </way>
  <way id="22598461" version="3" timestamp="2010-11-02T11:03:17Z" uid="7617" user="Franc" changeset="6266786">
    <nd ref="242468813"/>
    <nd ref="974454331"/>
    <nd ref="242469183"/>
    <nd ref="242469184"/>
    <tag k="highway" v="residential"/>
    <tag k="maxspeed" v="50"/>
    <tag k="maxspeed:source" v="default residential speed limit in Australia"/>
    <tag k="name" v="Kerry Crescent"/>
  </way>
  <way id="22598463" version="2" timestamp="2010-11-02T09:55:14Z" uid="7617" user="Franc" changeset="6266333">
    <nd ref="242469608"/>
    <nd ref="242469609"/>
    <nd ref="974428633"/>
    <nd ref="974428831"/>
    <nd ref="242469610"/>
    <nd ref="242469611"/>
    <nd ref="242469608"/>
    <tag k="amenity" v="school"/>
    <tag k="name" v="McCallums Hill Primary"/>
  </way>
  <way id="22598466" version="2" timestamp="2010-01-26T02:33:13Z" uid="30201" user="rrankin" changeset="3716457">
    <nd ref="242469631"/>
    <nd ref="620344966"/>
    <nd ref="192983627"/>
    <nd ref="242470300"/>
    <nd ref="242470301"/>
    <nd ref="242470302"/>
    <tag k="highway" v="residential"/>
    <tag k="name" v="McCallum Street"/>
  </way>
  <way id="22598466" version="3" timestamp="2010-07-08T02:12:30Z" uid="74617" user="JohnSmith" changeset="5162525">
    <nd ref="242469631"/>
    <nd ref="620344966"/>
    <nd ref="192983627"/>
    <nd ref="242470300"/>
    <nd ref="242470301"/>
    <nd ref="242470302"/>
    <tag k="highway" v="residential"/>
    <tag k="maxspeed" v="50"/>
    <tag k="maxspeed:source" v="default residential speed limit in Australia"/>
    <tag k="name" v="McCallum Street"/>
  </way>
  <way id="22598466" version="4" timestamp="2010-11-02T09:55:01Z" uid="7617" user="Franc" changeset="6266333">
    <nd ref="242469631"/>
    <nd ref="620344966"/>
    <nd ref="974428807"/>
    <tag k="highway" v="residential"/>
    <tag k="maxspeed" v="50"/>
    <tag k="maxspeed:source" v="default residential speed limit in Australia"/>
    <tag k="name" v="McCallum Street"/>
    <tag k="restriction" v="school_zone"/>
  </way>
  <way id="22598480" version="5" timestamp="2008-02-23T13:38:36Z" uid="7617" user="Franc" changeset="184727">
    <nd ref="190951979"/>
    <nd ref="242467410"/>
    <nd ref="242472512"/>
    <nd ref="242475360"/>
    <nd ref="242472513"/>
    <nd ref="242475720"/>
    <nd ref="26429114"/>
    <tag k="created_by" v="Potlatch 0.6c"/>
    <tag k="highway" v="tertiary"/>
    <tag k="name" v="Chapel Street"/>
  </way>
  <way id="22598480" version="6" timestamp="2010-01-26T02:33:17Z" uid="30201" user="rrankin" changeset="3716457">
    <nd ref="190951979"/>
    <nd ref="620344990"/>
    <tag k="highway" v="tertiary"/>
    <tag k="name" v="Chapel Street"/>
  </way>
  <way id="22598482" version="5" timestamp="2010-07-08T02:07:11Z" uid="74617" user="JohnSmith" changeset="5162525">
    <nd ref="242472513"/>
    <nd ref="242475036"/>
    <nd ref="242472773"/>
    <nd ref="242474483"/>
    <nd ref="242474254"/>
    <nd ref="242472774"/>
    <tag k="highway" v="residential"/>
    <tag k="maxspeed" v="50"/>
    <tag k="maxspeed:source" v="default residential speed limit in Australia"/>
    <tag k="name" v="Phillip Street"/>
  </way>
  <way id="22598482" version="6" timestamp="2010-11-02T11:03:05Z" uid="7617" user="Franc" changeset="6266786">
    <nd ref="242472513"/>
    <nd ref="242475036"/>
    <nd ref="242472773"/>
    <nd ref="974454324"/>
    <nd ref="242474483"/>
    <nd ref="242474254"/>
    <nd ref="242472774"/>
    <tag k="highway" v="residential"/>
    <tag k="maxspeed" v="50"/>
    <tag k="maxspeed:source" v="default residential speed limit in Australia"/>
    <tag k="name" v="Phillip Street"/>
  </way>
  <way id="22598485" version="2" timestamp="2008-03-06T07:06:49Z" uid="7617" user="Franc" changeset="273411">
    <nd ref="242473407"/>
    <nd ref="242473408"/>
    <nd ref="242473409"/>
    <nd ref="242473410"/>
    <nd ref="242473407"/>
    <tag k="created_by" v="Potlatch 0.6c"/>
    <tag k="leisure" v="park"/>
    <tag k="source" v="yahoo_imagery"/>
  </way>
  <way id="22598485" version="3" timestamp="2010-11-02T11:03:06Z" uid="7617" user="Franc" changeset="6266786">
    <nd ref="242473407"/>
    <nd ref="242473408"/>
    <nd ref="242473409"/>
    <nd ref="974454386"/>
    <nd ref="974454367"/>
    <nd ref="974454326"/>
    <nd ref="974454267"/>
    <nd ref="242473410"/>
    <nd ref="242473407"/>
    <tag k="leisure" v="park"/>
    <tag k="source" v="yahoo_imagery"/>
  </way>
  <way id="22598488" version="2" timestamp="2010-07-08T02:08:51Z" uid="74617" user="JohnSmith" changeset="5162525">
    <nd ref="242472512"/>
    <nd ref="242473917"/>
    <nd ref="242473918"/>
    <nd ref="242473919"/>
    <tag k="highway" v="residential"/>
    <tag k="maxspeed" v="50"/>
    <tag k="maxspeed:source" v="default residential speed limit in Australia"/>
    <tag k="name" v="Myers Street"/>
  </way>
  <way id="22598488" version="3" timestamp="2010-11-02T11:03:11Z" uid="7617" user="Franc" changeset="6266786">
    <nd ref="242472512"/>
    <nd ref="242473917"/>
    <nd ref="974454387"/>
    <nd ref="242473918"/>
    <nd ref="242473919"/>
    <tag k="highway" v="residential"/>
    <tag k="maxspeed" v="50"/>
    <tag k="maxspeed:source" v="default residential speed limit in Australia"/>
    <tag k="name" v="Myers Street"/>
  </way>
  <way id="22598490" version="2" timestamp="2010-07-08T02:09:56Z" uid="74617" user="JohnSmith" changeset="5162525">
    <nd ref="242473918"/>
    <nd ref="242474217"/>
    <nd ref="242474218"/>
    <nd ref="242474219"/>
    <nd ref="242474220"/>
    <tag k="highway" v="residential"/>
    <tag k="maxspeed" v="50"/>
    <tag k="maxspeed:source" v="default residential speed limit in Australia"/>
    <tag k="name" v="Lofts Avenue"/>
  </way>
  <way id="22598490" version="3" timestamp="2010-11-02T11:03:07Z" uid="7617" user="Franc" changeset="6266786">
    <nd ref="242473918"/>
    <nd ref="974454264"/>
    <nd ref="242474217"/>
    <nd ref="974454302"/>
    <nd ref="242474218"/>
    <nd ref="242474219"/>
    <nd ref="242474220"/>
    <tag k="highway" v="residential"/>
    <tag k="maxspeed" v="50"/>
    <tag k="maxspeed:source" v="default residential speed limit in Australia"/>
    <tag k="name" v="Lofts Avenue"/>
  </way>
  <way id="22598491" version="2" timestamp="2010-07-08T02:12:44Z" uid="74617" user="JohnSmith" changeset="5162525">
    <nd ref="242474254"/>
    <nd ref="242474469"/>
    <nd ref="242474470"/>
    <tag k="highway" v="residential"/>
    <tag k="maxspeed" v="50"/>
    <tag k="maxspeed:source" v="default residential speed limit in Australia"/>
    <tag k="name" v="Prestige Avenue"/>
  </way>
  <way id="22598495" version="2" timestamp="2010-07-08T02:10:45Z" uid="74617" user="JohnSmith" changeset="5162525">
    <nd ref="242474483"/>
    <nd ref="242474914"/>
    <tag k="highway" v="residential"/>
    <tag k="maxspeed" v="50"/>
    <tag k="maxspeed:source" v="default residential speed limit in Australia"/>
    <tag k="name" v="Hillview Street"/>
  </way>
  <way id="22598499" version="2" timestamp="2008-03-06T07:06:48Z" uid="7617" user="Franc" changeset="273411">
    <nd ref="242475036"/>
    <nd ref="250787259"/>
    <nd ref="242475244"/>
    <nd ref="250787260"/>
    <nd ref="242475245"/>
    <tag k="created_by" v="Potlatch 0.6c"/>
    <tag k="highway" v="residential"/>
    <tag k="name" v="Katrina Place"/>
  </way>
  <way id="22598499" version="3" timestamp="2010-07-08T02:11:38Z" uid="74617" user="JohnSmith" changeset="5162525">
    <nd ref="242475036"/>
    <nd ref="250787259"/>
    <nd ref="242475244"/>
    <nd ref="250787260"/>
    <nd ref="242475245"/>
    <tag k="highway" v="residential"/>
    <tag k="maxspeed" v="50"/>
    <tag k="maxspeed:source" v="default residential speed limit in Australia"/>
    <tag k="name" v="Katrina Place"/>
  </way>
  <way id="22598501" version="6" timestamp="2010-07-08T02:08:34Z" uid="74617" user="JohnSmith" changeset="5162525">
    <nd ref="242475360"/>
    <nd ref="242477460"/>
    <nd ref="242476520"/>
    <nd ref="192923976"/>
    <nd ref="242477295"/>
    <nd ref="242475671"/>
    <tag k="highway" v="residential"/>
    <tag k="maxspeed" v="50"/>
    <tag k="maxspeed:source" v="default residential speed limit in Australia"/>
    <tag k="name" v="Garden Street"/>
  </way>
  <way id="22598502" version="2" timestamp="2008-03-06T07:06:49Z" uid="7617" user="Franc" changeset="273411">
    <nd ref="242475720"/>
    <nd ref="242476026"/>
    <nd ref="250787261"/>
    <nd ref="242476028"/>
    <tag k="created_by" v="Potlatch 0.6c"/>
    <tag k="highway" v="residential"/>
    <tag k="name" v="Allegra Avenue"/>
  </way>
  <way id="22598502" version="3" timestamp="2010-07-08T02:13:30Z" uid="74617" user="JohnSmith" changeset="5162525">
    <nd ref="242475720"/>
    <nd ref="242476026"/>
    <nd ref="250787261"/>
    <nd ref="242476028"/>
    <tag k="highway" v="residential"/>
    <tag k="maxspeed" v="50"/>
    <tag k="maxspeed:source" v="default residential speed limit in Australia"/>
    <tag k="name" v="Allegra Avenue"/>
  </way>
  <way id="22598502" version="4" timestamp="2010-11-03T18:43:18Z" uid="7617" user="Franc" changeset="6278403">
    <nd ref="242475720"/>
    <nd ref="242476026"/>
    <nd ref="975935497"/>
    <nd ref="250787261"/>
    <nd ref="242476028"/>
    <tag k="highway" v="residential"/>
    <tag k="maxspeed" v="50"/>
    <tag k="maxspeed:source" v="default residential speed limit in Australia"/>
    <tag k="name" v="Allegra Avenue"/>
  </way>
  <way id="22598503" version="4" timestamp="2010-07-08T02:09:39Z" uid="74617" user="JohnSmith" changeset="5162525">
    <nd ref="242475671"/>
    <nd ref="242476901"/>
    <nd ref="242475674"/>
    <tag k="highway" v="residential"/>
    <tag k="maxspeed" v="50"/>
    <tag k="maxspeed:source" v="default residential speed limit in Australia"/>
    <tag k="name" v="Victory Street"/>
  </way>
  <way id="22598506" version="2" timestamp="2010-07-08T02:11:25Z" uid="74617" user="JohnSmith" changeset="5162525">
    <nd ref="242476232"/>
    <nd ref="242476519"/>
    <nd ref="242476520"/>
    <tag k="highway" v="residential"/>
    <tag k="maxspeed" v="50"/>
    <tag k="maxspeed:source" v="default residential speed limit in Australia"/>
    <tag k="name" v="Trafalgar Street"/>
  </way>
  <way id="22598506" version="3" timestamp="2010-11-03T18:43:24Z" uid="7617" user="Franc" changeset="6278403">
    <nd ref="242476232"/>
    <nd ref="242476519"/>
    <nd ref="975935493"/>
    <nd ref="242476520"/>
    <tag k="highway" v="residential"/>
    <tag k="maxspeed" v="50"/>
    <tag k="maxspeed:source" v="default residential speed limit in Australia"/>
    <tag k="name" v="Trafalgar Street"/>
  </way>
  <way id="22598509" version="2" timestamp="2010-11-03T18:43:25Z" uid="7617" user="Franc" changeset="6278403"/>
  <way id="22598512" version="2" timestamp="2010-11-03T18:43:24Z" uid="7617" user="Franc" changeset="6278403">
    <nd ref="242476026"/>
    <nd ref="975935484"/>
    <nd ref="242476519"/>
    <tag k="highway" v="service"/>
  </way>
  <way id="22598512" version="3" timestamp="2010-11-28T10:50:10Z" uid="7617" user="Franc" changeset="6476735">
    <nd ref="242476026"/>
    <nd ref="975935484"/>
    <nd ref="242476519"/>
    <tag k="highway" v="service"/>
    <tag k="name" v="Chapel Lane"/>
    <tag k="source" v="nearmap"/>
    <tag k="source:name" v="survey"/>
  </way>
  <way id="22598514" version="2" timestamp="2010-07-08T02:10:24Z" uid="74617" user="JohnSmith" changeset="5162525">
    <nd ref="242477460"/>
    <nd ref="242477694"/>
    <nd ref="242477695"/>
    <nd ref="242477696"/>
    <nd ref="242477697"/>
    <tag k="highway" v="residential"/>
    <tag k="maxspeed" v="50"/>
    <tag k="maxspeed:source" v="default residential speed limit in Australia"/>
    <tag k="name" v="Norma Avenue"/>
  </way>
  <way id="22598515" version="2" timestamp="2008-02-23T13:38:33Z" uid="7617" user="Franc" changeset="184727">
    <nd ref="242477694"/>
    <nd ref="248890239"/>
    <nd ref="242477912"/>
    <nd ref="242477913"/>
    <tag k="created_by" v="Potlatch 0.6c"/>
    <tag k="highway" v="residential"/>
    <tag k="name" v="Eleanor Avenue"/>
  </way>
  <way id="22598515" version="3" timestamp="2010-07-08T02:13:12Z" uid="74617" user="JohnSmith" changeset="5162525">
    <nd ref="242477694"/>
    <nd ref="248890239"/>
    <nd ref="242477912"/>
    <nd ref="242477913"/>
    <tag k="highway" v="residential"/>
    <tag k="maxspeed" v="50"/>
    <tag k="maxspeed:source" v="default residential speed limit in Australia"/>
    <tag k="name" v="Eleanor Avenue"/>
  </way>
  <way id="22598515" version="4" timestamp="2010-11-02T11:03:05Z" uid="7617" user="Franc" changeset="6266786">
    <nd ref="242477694"/>
    <nd ref="248890239"/>
    <nd ref="974454334"/>
    <nd ref="242477913"/>
    <tag k="highway" v="residential"/>
    <tag k="maxspeed" v="50"/>
    <tag k="maxspeed:source" v="default residential speed limit in Australia"/>
    <tag k="name" v="Eleanor Avenue"/>
  </way>
  <way id="22598875" version="4" timestamp="2010-12-26T11:10:03Z" uid="7617" user="Franc" changeset="6766987">
    <nd ref="242528542"/>
    <nd ref="1065430592"/>
    <nd ref="1065430982"/>
    <nd ref="1065430068"/>
    <nd ref="1065431674"/>
    <nd ref="1065433179"/>
    <nd ref="242528543"/>
    <nd ref="1065430357"/>
    <nd ref="1065429908"/>
    <nd ref="242528544"/>
    <nd ref="242528545"/>
    <nd ref="1065431994"/>
    <nd ref="242528546"/>
    <nd ref="1065430802"/>
    <nd ref="242528841"/>
    <nd ref="1065430738"/>
    <nd ref="242528843"/>
    <nd ref="1065431930"/>
    <nd ref="242528844"/>
    <nd ref="1065431329"/>
    <nd ref="242528845"/>
    <nd ref="1065432610"/>
    <nd ref="242528846"/>
    <nd ref="242528848"/>
    <nd ref="242528542"/>
    <tag k="amenity" v="parking"/>
    <tag k="name" v="P5"/>
  </way>
</osm>
