<?xml version='1.0' encoding='UTF-8'?>
<osm version="0.6" generator="libosmium/2.20.0">
  <way id="22632031" version="2" timestamp="2010-07-08T02:09:25Z" uid="74617" user="JohnSmith" changeset="5162525">
    <nd ref="242699112"/>
    <nd ref="242699116"/>
    <tag k="highway" v="residential"/>
    <tag k="maxspeed" v="50"/>
    <tag k="maxspeed:source" v="default residential speed limit in Australia"/>
    <tag k="name" v="Browning Avenue"/>
  </way>
  <way id="22632151" version="4" timestamp="2010-01-26T02:33:18Z" uid="30201" user="rrankin" changeset="3716457">
    <nd ref="242699117"/>
    <nd ref="242699379"/>
    <nd ref="620345130"/>
    <nd ref="242699124"/>
    <tag k="highway" v="residential"/>
    <tag k="name" v="Oneata Street"/>
  </way>
  <way id="22632151" version="5" timestamp="2010-07-08T02:12:11Z" uid="74617" user="JohnSmith" changeset="5162525">
    <nd ref="242699117"/>
    <nd ref="242699379"/>
    <nd ref="620345130"/>
    <nd ref="242699124"/>
    <tag k="highway" v="residential"/>
    <tag k="maxspeed" v="50"/>
    <tag k="maxspeed:source" v="default residential speed limit in Australia"/>
    <tag k="name" v="Oneata Street"/>
  </way>
  <way id="22632151" version="6" timestamp="2010-11-02T13:09:13Z" uid="7617" user="Franc" changeset="6267578">
    <nd ref="242699117"/>
    <nd ref="242699379"/>
    <nd ref="974577978"/>
    <tag k="highway" v="residential"/>
    <tag k="maxspeed" v="50"/>
    <tag k="maxspeed:source" v="default residential speed limit in Australia"/>
    <tag k="name" v="Oneata Street"/>
    <tag k="restriction" v="school_zone"/>
  </way>
  <way id="22632286" version="2" timestamp="2008-05-28T06:54:02Z" uid="30201" user="rrankin" changeset="541674"/>
  <way id="22632684" version="3" timestamp="2010-02-01T12:10:01Z" uid="7617" user="Franc" changeset="3766993">
    <nd ref="242699695"/>
    <nd ref="242705443"/>
    <nd ref="625393869"/>
    <nd ref="242700035"/>
    <tag k="highway" v="tertiary"/>
    <tag k="name" v="Haldon Street North"/>
  </way>
  <way id="22632762" version="5" timestamp="2010-01-26T02:33:18Z" uid="30201" user="rrankin" changeset="3716457">
    <nd ref="242696329"/>
    <nd ref="242700529"/>
    <nd ref="620345167"/>
    <tag k="highway" v="residential"/>
    <tag k="name" v="Quigg Street"/>
  </way>
  <way id="22632762" version="6" timestamp="2010-02-01T12:09:59Z" uid="7617" user="Franc" changeset="3766993">
    <nd ref="242696329"/>
    <nd ref="242700529"/>
    <nd ref="625393837"/>
    <nd ref="625393844"/>
    <nd ref="620345167"/>
    <tag k="highway" v="residential"/>
    <tag k="name" v="Quigg Street"/>
  </way>
  <way id="22632762" version="7" timestamp="2010-04-27T00:33:07Z" uid="4467" user="Rosscoe" changeset="4537449">
    <nd ref="708285503"/>
    <nd ref="242700529"/>
    <nd ref="625393837"/>
    <nd ref="625393844"/>
    <nd ref="620345167"/>
    <tag k="highway" v="residential"/>
    <tag k="name" v="Quigg Street"/>
  </way>
  <way id="22632762" version="8" timestamp="2010-07-08T02:11:29Z" uid="74617" user="JohnSmith" changeset="5162525">
    <nd ref="708285503"/>
    <nd ref="242700529"/>
    <nd ref="625393837"/>
    <nd ref="625393844"/>
    <nd ref="620345167"/>
    <tag k="highway" v="residential"/>
    <tag k="maxspeed" v="50"/>
    <tag k="maxspeed:source" v="default residential speed limit in Australia"/>
    <tag k="name" v="Quigg Street"/>
  </way>
  <way id="22632762" version="9" timestamp="2010-11-02T13:09:14Z" uid="7617" user="Franc" changeset="6267578">
    <nd ref="708285503"/>
    <nd ref="242700529"/>
    <nd ref="625393837"/>
    <nd ref="625393844"/>
    <nd ref="974577941"/>
    <nd ref="620345167"/>
    <tag k="highway" v="residential"/>
    <tag k="maxspeed" v="50"/>
    <tag k="maxspeed:source" v="default residential speed limit in Australia"/>
    <tag k="name" v="Quigg Street"/>
  </way>
  <way id="22632762" version="10" timestamp="2011-03-25T15:05:37Z" uid="4467" user="Rosscoe" changeset="7666311">
    <nd ref="708285503"/>
    <nd ref="242700529"/>
    <nd ref="625393835"/>
    <nd ref="625393837"/>
    <nd ref="625393844"/>
    <nd ref="974577941"/>
    <nd ref="620345167"/>
    <tag k="highway" v="residential"/>
    <tag k="maxspeed" v="50"/>
    <tag k="maxspeed:source" v="default residential speed limit in Australia"/>
    <tag k="name" v="Quigg Street"/>
  </way>
  <way id="22632920" version="7" timestamp="2010-01-26T02:33:18Z" uid="30201" user="rrankin" changeset="3716457">
    <nd ref="242700233"/>
    <nd ref="242700523"/>
    <nd ref="620345159"/>
    <tag k="highway" v="residential"/>
    <tag k="name" v="Gillies Street"/>
  </way>
  <way id="22632920" version="8" timestamp="2010-07-08T02:12:12Z" uid="74617" user="JohnSmith" changeset="5162525">
    <nd ref="242700233"/>
    <nd ref="242700523"/>
    <nd ref="620345159"/>
    <tag k="highway" v="residential"/>
    <tag k="maxspeed" v="50"/>
    <tag k="maxspeed:source" v="default residential speed limit in Australia"/>
    <tag k="name" v="Gillies Street"/>
  </way>
</osm>
