<?xml version='1.0' encoding='UTF-8'?>
<osm version="0.6" generator="libosmium/2.20.0">
  <way id="22679028" version="2" timestamp="2011-01-02T18:46:04Z" uid="65847" user="LKK" changeset="6841873">
    <nd ref="243285900"/>
    <nd ref="243285902"/>
    <nd ref="243285903"/>
    <nd ref="243285900"/>
    <tag k="area" v="yes"/>
    <tag k="highway" v="residential"/>
    <tag k="name" v="пл. Възраждане"/>
  </way>
  <way id="22679034" version="3" timestamp="2008-07-16T17:54:50Z" uid="13367" user="nubok" changeset="506835">
    <nd ref="243286190"/>
    <nd ref="278988745"/>
    <nd ref="243286187"/>
    <tag k="bridge" v="yes"/>
    <tag k="created_by" v="Potlatch 0.9c"/>
    <tag k="layer" v="1"/>
    <tag k="railway" v="rail"/>
  </way>
  <way id="22679298" version="2" timestamp="2008-09-16T10:34:53Z" uid="1066" user="pavel" changeset="646258">
    <nd ref="243289300"/>
    <nd ref="243289302"/>
    <nd ref="243289303"/>
    <nd ref="243289304"/>
    <nd ref="243289305"/>
    <nd ref="243289306"/>
    <nd ref="243289307"/>
    <nd ref="243289300"/>
    <tag k="created_by" v="JOSM"/>
    <tag k="highway" v="residential"/>
    <tag k="name" v="Janského"/>
    <tag k="name:source" v="nameit/uir-adr"/>
  </way>
  <way id="22679299" version="2" timestamp="2008-09-16T10:38:43Z" uid="1066" user="pavel" changeset="646258">
    <nd ref="130604131"/>
    <nd ref="243289333"/>
    <nd ref="243289334"/>
    <nd ref="243289332"/>
    <nd ref="243289300"/>
    <tag k="created_by" v="JOSM"/>
    <tag k="highway" v="residential"/>
    <tag k="name" v="Tlumačovská"/>
    <tag k="name:source" v="nameit/uir-adr"/>
  </way>
  <way id="22679300" version="2" timestamp="2008-09-16T10:38:58Z" uid="1066" user="pavel" changeset="646258">
    <nd ref="243289323"/>
    <nd ref="243289330"/>
    <nd ref="243289329"/>
    <nd ref="243289328"/>
    <tag k="created_by" v="JOSM"/>
    <tag k="highway" v="residential"/>
    <tag k="name" v="Liběšická"/>
    <tag k="name:source" v="nameit/uir-adr"/>
  </way>
  <way id="22679301" version="3" timestamp="2008-09-16T10:35:46Z" uid="1066" user="pavel" changeset="646258">
    <nd ref="21599995"/>
    <nd ref="105066093"/>
    <nd ref="243289309"/>
    <nd ref="243289310"/>
    <nd ref="243289311"/>
    <nd ref="243289312"/>
    <nd ref="250056695"/>
    <nd ref="243289313"/>
    <nd ref="243289314"/>
    <nd ref="243289315"/>
    <nd ref="243289316"/>
    <nd ref="243289317"/>
    <nd ref="243289318"/>
    <nd ref="243289319"/>
    <tag k="created_by" v="JOSM"/>
    <tag k="highway" v="residential"/>
    <tag k="name" v="Zvoncovitá"/>
    <tag k="name:source" v="nameit/uir-adr"/>
  </way>
  <way id="22679302" version="2" timestamp="2008-09-16T10:39:24Z" uid="1066" user="pavel" changeset="646258">
    <nd ref="243289321"/>
    <nd ref="243289330"/>
    <nd ref="243289325"/>
    <tag k="created_by" v="JOSM"/>
    <tag k="highway" v="residential"/>
    <tag k="name" v="Podohradská"/>
    <tag k="name:source" v="nameit/uir-adr"/>
  </way>
  <way id="22679303" version="2" timestamp="2008-09-16T10:35:51Z" uid="1066" user="pavel" changeset="646258">
    <nd ref="243289322"/>
    <nd ref="243289321"/>
    <nd ref="243289320"/>
    <nd ref="243289308"/>
    <nd ref="243289331"/>
    <tag k="created_by" v="JOSM"/>
    <tag k="highway" v="residential"/>
    <tag k="name" v="Podohradská"/>
    <tag k="name:source" v="nameit/uir-adr"/>
  </way>
  <way id="22679304" version="2" timestamp="2008-09-16T10:40:10Z" uid="1066" user="pavel" changeset="646258">
    <nd ref="243289332"/>
    <nd ref="243289326"/>
    <nd ref="243289329"/>
    <nd ref="243289308"/>
    <tag k="created_by" v="JOSM"/>
    <tag k="highway" v="residential"/>
    <tag k="name" v="Na Hvížďalce"/>
    <tag k="name:source" v="nameit/uir-adr"/>
  </way>
  <way id="22679305" version="2" timestamp="2008-09-16T10:36:22Z" uid="1066" user="pavel" changeset="646258">
    <nd ref="243289334"/>
    <nd ref="243289335"/>
    <nd ref="243289336"/>
    <tag k="created_by" v="JOSM"/>
    <tag k="highway" v="residential"/>
    <tag k="name" v="Drimlova"/>
    <tag k="name:source" v="nameit/uir-adr"/>
  </way>
  <way id="22679306" version="2" timestamp="2008-09-16T10:39:52Z" uid="1066" user="pavel" changeset="646258">
    <nd ref="243289331"/>
    <nd ref="243289328"/>
    <nd ref="243289327"/>
    <nd ref="243289333"/>
    <tag k="created_by" v="JOSM"/>
    <tag k="highway" v="residential"/>
    <tag k="name" v="Ke klubovně"/>
    <tag k="name:source" v="nameit/uir-adr"/>
  </way>
  <way id="22679307" version="2" timestamp="2008-09-16T10:36:43Z" uid="1066" user="pavel" changeset="646258">
    <nd ref="243289327"/>
    <nd ref="243289326"/>
    <nd ref="243289325"/>
    <nd ref="243289324"/>
    <tag k="created_by" v="JOSM"/>
    <tag k="highway" v="residential"/>
    <tag k="name" v="Mutěnínská"/>
    <tag k="name:source" v="nameit/uir-adr"/>
  </way>
  <way id="22679309" version="2" timestamp="2008-09-16T10:37:07Z" uid="1066" user="pavel" changeset="646258">
    <nd ref="243289324"/>
    <nd ref="243289323"/>
    <nd ref="243289322"/>
    <tag k="created_by" v="JOSM"/>
    <tag k="highway" v="residential"/>
    <tag k="name" v="Velichovská"/>
    <tag k="name:source" v="nameit/uir-adr"/>
  </way>
  <way id="22679328" version="2" timestamp="2008-09-29T21:32:08Z" uid="65847" user="LKK" changeset="721214">
    <nd ref="176701714"/>
    <nd ref="243289551"/>
    <nd ref="243289552"/>
    <nd ref="243289553"/>
    <nd ref="243289555"/>
    <nd ref="243289556"/>
    <nd ref="243289557"/>
    <nd ref="243289558"/>
    <nd ref="243289559"/>
    <nd ref="176701667"/>
    <tag k="created_by" v="JOSM"/>
    <tag k="highway" v="residential"/>
    <tag k="name" v="Fichtenweg"/>
    <tag k="oneway" v="yes"/>
  </way>
  <way id="22679339" version="2" timestamp="2008-09-16T10:34:40Z" uid="1066" user="pavel" changeset="646258">
    <nd ref="60271978"/>
    <nd ref="243289598"/>
    <nd ref="243289599"/>
    <tag k="created_by" v="JOSM"/>
    <tag k="highway" v="residential"/>
    <tag k="name" v="Milenovská"/>
    <tag k="name:source" v="nameit/uir-adr"/>
  </way>
  <way id="22679340" version="2" timestamp="2008-09-16T10:39:06Z" uid="1066" user="pavel" changeset="646258">
    <nd ref="243289601"/>
    <nd ref="243289598"/>
    <nd ref="60271920"/>
    <tag k="created_by" v="JOSM"/>
    <tag k="highway" v="residential"/>
    <tag k="name" v="Slatinová"/>
    <tag k="name:source" v="nameit/uir-adr"/>
  </way>
  <way id="22679341" version="4" timestamp="2008-09-16T10:38:49Z" uid="1066" user="pavel" changeset="646258">
    <nd ref="60272050"/>
    <nd ref="243289602"/>
    <nd ref="243289603"/>
    <nd ref="243289604"/>
    <tag k="highway" v="residential"/>
    <tag k="name" v="Smíchovská"/>
    <tag k="name:source" v="nameit/uir-adr"/>
  </way>
  <way id="22679355" version="4" timestamp="2008-01-28T20:40:05Z" uid="13367" user="nubok" changeset="705219">
    <nd ref="243289786"/>
    <nd ref="83716981"/>
    <nd ref="83716982"/>
    <nd ref="82708087"/>
    <nd ref="82708088"/>
    <nd ref="82708089"/>
    <nd ref="82708090"/>
    <nd ref="60752507"/>
    <nd ref="59978284"/>
    <nd ref="59978285"/>
    <tag k="created_by" v="Potlatch 0.6c"/>
    <tag k="railway" v="rail"/>
  </way>
  <way id="22679355" version="5" timestamp="2008-01-28T20:40:48Z" uid="13367" user="nubok" changeset="705219">
    <nd ref="243289786"/>
    <nd ref="83716981"/>
    <nd ref="83716982"/>
    <nd ref="82708087"/>
    <nd ref="82708089"/>
    <nd ref="82708090"/>
    <nd ref="60752507"/>
    <nd ref="59978284"/>
    <nd ref="59978285"/>
    <tag k="created_by" v="Potlatch 0.6c"/>
    <tag k="railway" v="rail"/>
  </way>
  <way id="22679355" version="6" timestamp="2008-01-28T20:41:10Z" uid="13367" user="nubok" changeset="705219">
    <nd ref="243289786"/>
    <nd ref="83716981"/>
    <nd ref="83716982"/>
    <nd ref="82708087"/>
    <nd ref="243884126"/>
    <nd ref="82708089"/>
    <nd ref="82708090"/>
    <nd ref="60752507"/>
    <nd ref="59978284"/>
    <nd ref="59978285"/>
    <tag k="created_by" v="Potlatch 0.6c"/>
    <tag k="railway" v="rail"/>
  </way>
  <way id="22679404" version="1" timestamp="2008-01-25T18:16:37Z" uid="3451" user="sascha_silbe" changeset="692235">
    <nd ref="243292935"/>
    <nd ref="243292934"/>
    <nd ref="243292933"/>
    <nd ref="243292932"/>
    <nd ref="243292931"/>
    <nd ref="243292936"/>
    <nd ref="243292930"/>
    <nd ref="243292929"/>
    <nd ref="243292928"/>
    <nd ref="243292927"/>
    <nd ref="28806512"/>
    <tag k="created_by" v="JOSM"/>
    <tag k="highway" v="service"/>
    <tag k="oneway" v="true"/>
    <tag k="source" v="survey"/>
  </way>
  <way id="22679411" version="2" timestamp="2008-09-14T20:59:16Z" uid="65847" user="LKK" changeset="636615">
    <nd ref="198838292"/>
    <nd ref="243293271"/>
    <nd ref="243293277"/>
    <nd ref="243293282"/>
    <nd ref="243293288"/>
    <nd ref="243293294"/>
    <nd ref="243293299"/>
    <tag k="created_by" v="JOSM"/>
    <tag k="highway" v="service"/>
  </way>
  <way id="22679412" version="2" timestamp="2008-09-14T20:59:17Z" uid="65847" user="LKK" changeset="636615">
    <nd ref="243293294"/>
    <nd ref="243293271"/>
    <tag k="created_by" v="JOSM"/>
    <tag k="highway" v="service"/>
  </way>
  <way id="22679436" version="2" timestamp="2008-09-29T21:28:56Z" uid="65847" user="LKK" changeset="721214">
    <nd ref="174951572"/>
    <nd ref="243294761"/>
    <nd ref="243294767"/>
    <nd ref="243294774"/>
    <nd ref="243294782"/>
    <nd ref="243294788"/>
    <nd ref="243294795"/>
    <nd ref="243294802"/>
    <nd ref="243294810"/>
    <nd ref="243294820"/>
    <nd ref="243294828"/>
    <nd ref="174951579"/>
    <tag k="access" v="permissive"/>
    <tag k="created_by" v="JOSM"/>
    <tag k="highway" v="unclassified"/>
    <tag k="oneway" v="yes"/>
  </way>
  <way id="22679450" version="1" timestamp="2008-01-25T18:21:29Z" uid="5871" user="Banny" changeset="692538">
    <nd ref="26151890"/>
    <nd ref="26151889"/>
    <nd ref="26151888"/>
    <nd ref="26151887"/>
    <nd ref="26151886"/>
    <nd ref="26151885"/>
    <nd ref="26151884"/>
    <nd ref="26206240"/>
    <nd ref="26151866"/>
    <nd ref="26151865"/>
    <nd ref="26151864"/>
    <nd ref="26151863"/>
    <nd ref="26151862"/>
    <nd ref="26151861"/>
    <nd ref="26151859"/>
    <nd ref="26514906"/>
    <tag k="created_by" v="JOSM"/>
    <tag k="highway" v="secondary"/>
    <tag k="name" v="Doktor-Ottmar-Kohler-Straße"/>
  </way>
  <way id="22679456" version="2" timestamp="2008-09-16T10:39:55Z" uid="1066" user="pavel" changeset="646258">
    <nd ref="243297903"/>
    <nd ref="243297907"/>
    <nd ref="243297910"/>
    <tag k="created_by" v="JOSM"/>
    <tag k="highway" v="residential"/>
    <tag k="name" v="Rotavská"/>
    <tag k="name:source" v="nameit/uir-adr"/>
  </way>
  <way id="22679466" version="3" timestamp="2008-09-16T10:33:45Z" uid="1066" user="pavel" changeset="646258">
    <nd ref="243297943"/>
    <nd ref="243297946"/>
    <nd ref="243297950"/>
    <nd ref="243297952"/>
    <nd ref="243297957"/>
    <nd ref="243297960"/>
    <nd ref="243297963"/>
    <nd ref="243297965"/>
    <nd ref="243297968"/>
    <nd ref="243297943"/>
    <nd ref="246637204"/>
    <nd ref="243297940"/>
    <nd ref="243297935"/>
    <nd ref="243297931"/>
    <nd ref="243297927"/>
    <nd ref="243299468"/>
    <nd ref="243299470"/>
    <nd ref="243299473"/>
    <nd ref="243299476"/>
    <nd ref="243299481"/>
    <tag k="created_by" v="JOSM"/>
    <tag k="highway" v="residential"/>
    <tag k="name" v="Ovčí hájek"/>
    <tag k="name:source" v="nameit/uir-adr"/>
  </way>
  <way id="22679477" version="2" timestamp="2008-09-20T18:00:19Z" uid="65847" user="LKK" changeset="671250">
    <nd ref="243301392"/>
    <nd ref="243301400"/>
    <nd ref="243301408"/>
    <nd ref="243301415"/>
    <nd ref="243301392"/>
    <tag k="access" v="private"/>
    <tag k="amenity" v="parking"/>
    <tag k="created_by" v="JOSM"/>
    <tag k="note" v="Nur für Fahrgäste mit Fahrkarte der DB"/>
  </way>
  <way id="22679478" version="2" timestamp="2008-09-14T20:59:18Z" uid="65847" user="LKK" changeset="636615">
    <nd ref="174951618"/>
    <nd ref="243301422"/>
    <tag k="created_by" v="JOSM"/>
    <tag k="highway" v="service"/>
  </way>
  <way id="22679512" version="2" timestamp="2008-09-18T15:20:26Z" uid="65847" user="LKK" changeset="658642">
    <nd ref="102368168"/>
    <nd ref="243304597"/>
    <nd ref="243304603"/>
    <nd ref="243304608"/>
    <nd ref="243304644"/>
    <nd ref="243304650"/>
    <nd ref="243304655"/>
    <nd ref="243304660"/>
    <nd ref="243304665"/>
    <tag k="access" v="private"/>
    <tag k="created_by" v="JOSM"/>
    <tag k="highway" v="service"/>
  </way>
  <way id="22679512" version="3" timestamp="2008-09-18T18:52:45Z" uid="65847" user="LKK" changeset="661838">
    <nd ref="102368168"/>
    <nd ref="297972587"/>
    <nd ref="243304597"/>
    <nd ref="243304603"/>
    <nd ref="297972600"/>
    <nd ref="243304608"/>
    <nd ref="297973016"/>
    <nd ref="243304644"/>
    <nd ref="243304650"/>
    <nd ref="243304655"/>
    <nd ref="243304660"/>
    <nd ref="243304665"/>
    <tag k="access" v="private"/>
    <tag k="created_by" v="JOSM"/>
    <tag k="highway" v="service"/>
  </way>
  <way id="22679514" version="2" timestamp="2008-09-14T18:11:47Z" uid="65847" user="LKK" changeset="630691">
    <nd ref="243304674"/>
    <nd ref="243304680"/>
    <nd ref="243304686"/>
    <nd ref="243304691"/>
    <nd ref="243304694"/>
    <nd ref="243304701"/>
    <nd ref="243304706"/>
    <nd ref="243304712"/>
    <nd ref="243304717"/>
    <nd ref="297020256"/>
    <nd ref="243304722"/>
    <nd ref="243304726"/>
    <nd ref="243304734"/>
    <nd ref="243304740"/>
    <nd ref="243304745"/>
    <nd ref="243304750"/>
    <nd ref="243304756"/>
    <nd ref="243304761"/>
    <nd ref="243304773"/>
    <nd ref="243304778"/>
    <nd ref="243304784"/>
    <nd ref="243304789"/>
    <nd ref="243304793"/>
    <nd ref="243304798"/>
    <nd ref="243304674"/>
    <tag k="access" v="private"/>
    <tag k="created_by" v="JOSM"/>
    <tag k="leisure" v="park"/>
  </way>
  <way id="22679514" version="3" timestamp="2008-09-18T15:20:33Z" uid="65847" user="LKK" changeset="658642">
    <nd ref="243304674"/>
    <nd ref="243304686"/>
    <nd ref="243304691"/>
    <nd ref="243304694"/>
    <nd ref="243304701"/>
    <nd ref="243304706"/>
    <nd ref="243304712"/>
    <nd ref="243304717"/>
    <nd ref="297020256"/>
    <nd ref="243304722"/>
    <nd ref="243304726"/>
    <nd ref="243304734"/>
    <nd ref="243304740"/>
    <nd ref="243304745"/>
    <nd ref="243304750"/>
    <nd ref="243304756"/>
    <nd ref="243304761"/>
    <nd ref="243304773"/>
    <nd ref="243304778"/>
    <nd ref="243304784"/>
    <nd ref="243304789"/>
    <nd ref="243304793"/>
    <nd ref="243304798"/>
    <nd ref="243304674"/>
    <tag k="access" v="private"/>
    <tag k="created_by" v="JOSM"/>
    <tag k="leisure" v="park"/>
  </way>
  <way id="22679514" version="4" timestamp="2008-09-19T09:24:49Z" uid="65847" user="LKK" changeset="663266">
    <nd ref="243304674"/>
    <nd ref="243304686"/>
    <nd ref="243304691"/>
    <nd ref="243304694"/>
    <nd ref="243304701"/>
    <nd ref="243304706"/>
    <nd ref="243304712"/>
    <nd ref="243304717"/>
    <nd ref="297020256"/>
    <nd ref="243304722"/>
    <nd ref="243304726"/>
    <nd ref="243304734"/>
    <nd ref="243304740"/>
    <nd ref="243304745"/>
    <nd ref="243304750"/>
    <nd ref="243304756"/>
    <nd ref="243304761"/>
    <nd ref="243304773"/>
    <nd ref="243304778"/>
    <nd ref="243304784"/>
    <nd ref="243304789"/>
    <nd ref="243304793"/>
    <nd ref="243304798"/>
    <nd ref="243304674"/>
    <tag k="access" v="private"/>
    <tag k="created_by" v="JOSM"/>
    <tag k="leisure" v="park"/>
    <tag k="name" v="Kalmenhof"/>
  </way>
  <way id="22679516" version="2" timestamp="2008-09-30T21:09:24Z" uid="67142" user="zottel" changeset="724095">
    <nd ref="243304900"/>
    <nd ref="27394283"/>
    <tag k="created_by" v="JOSM"/>
    <tag k="highway" v="unclassified"/>
    <tag k="name" v="Eppinger Linie"/>
  </way>
  <way id="22679528" version="2" timestamp="2008-09-29T14:20:45Z" uid="67142" user="zottel" changeset="716551">
    <nd ref="243307403"/>
    <nd ref="243307405"/>
    <nd ref="243307407"/>
    <nd ref="243307409"/>
    <nd ref="243307411"/>
    <nd ref="243307412"/>
    <nd ref="243307414"/>
    <nd ref="243307416"/>
    <nd ref="243307417"/>
    <nd ref="243307420"/>
    <nd ref="243307422"/>
    <nd ref="243307423"/>
    <nd ref="243307425"/>
    <nd ref="243307426"/>
    <nd ref="243307428"/>
    <nd ref="243307432"/>
    <nd ref="243307435"/>
    <nd ref="243307437"/>
    <nd ref="243307440"/>
    <nd ref="243307443"/>
    <nd ref="243307445"/>
    <nd ref="243307449"/>
    <nd ref="300876461"/>
    <nd ref="300876465"/>
    <tag k="created_by" v="JOSM"/>
    <tag k="highway" v="unclassified"/>
    <tag k="name" v="Gablonzer Straße"/>
  </way>
  <way id="22679528" version="3" timestamp="2008-09-30T21:09:21Z" uid="67142" user="zottel" changeset="724095">
    <nd ref="243307403"/>
    <nd ref="243307405"/>
    <nd ref="243307407"/>
    <nd ref="301264682"/>
    <nd ref="243307409"/>
    <nd ref="243307411"/>
    <nd ref="243307412"/>
    <nd ref="243307414"/>
    <nd ref="243307416"/>
    <nd ref="243307417"/>
    <nd ref="243307420"/>
    <nd ref="243307422"/>
    <nd ref="243307423"/>
    <nd ref="243307425"/>
    <nd ref="243307426"/>
    <nd ref="243307428"/>
    <nd ref="243307432"/>
    <nd ref="243307435"/>
    <nd ref="243307437"/>
    <nd ref="243307440"/>
    <nd ref="243307443"/>
    <nd ref="243307445"/>
    <nd ref="243307449"/>
    <nd ref="300876461"/>
    <nd ref="300876465"/>
    <tag k="created_by" v="JOSM"/>
    <tag k="highway" v="unclassified"/>
    <tag k="name" v="Gablonzer Straße"/>
  </way>
  <way id="22679529" version="2" timestamp="2008-09-29T14:20:46Z" uid="67142" user="zottel" changeset="716551">
    <nd ref="243307445"/>
    <nd ref="243307472"/>
    <nd ref="243307475"/>
    <nd ref="243307477"/>
    <nd ref="243307480"/>
    <nd ref="243307482"/>
    <nd ref="243307483"/>
    <nd ref="243307487"/>
    <nd ref="243307435"/>
    <tag k="created_by" v="JOSM"/>
    <tag k="highway" v="unclassified"/>
    <tag k="name" v="Gablonzer Straße"/>
  </way>
</osm>
