<?xml version='1.0' encoding='UTF-8'?>
<osm version="0.6" generator="libosmium/2.20.0">
  <way id="22862422" version="2" timestamp="2008-09-16T10:11:28Z" uid="1066" user="pavel" changeset="646258">
    <nd ref="25970192"/>
    <nd ref="245781947"/>
    <nd ref="245781948"/>
    <tag k="created_by" v="JOSM"/>
    <tag k="highway" v="residential"/>
    <tag k="name" v="Roztylské sady"/>
    <tag k="name:source" v="nameit/uir-adr"/>
  </way>
  <way id="22862425" version="2" timestamp="2008-09-16T10:14:34Z" uid="1066" user="pavel" changeset="646258">
    <nd ref="245577653"/>
    <nd ref="245781949"/>
    <nd ref="245781950"/>
    <nd ref="245781465"/>
    <nd ref="245781481"/>
    <nd ref="245781951"/>
    <tag k="created_by" v="JOSM"/>
    <tag k="highway" v="residential"/>
    <tag k="name" v="Roztylské sady"/>
    <tag k="name:source" v="nameit/uir-adr"/>
  </way>
  <way id="22862429" version="2" timestamp="2008-09-16T10:12:51Z" uid="1066" user="pavel" changeset="646258">
    <nd ref="245781947"/>
    <nd ref="25970185"/>
    <tag k="created_by" v="JOSM"/>
    <tag k="highway" v="residential"/>
    <tag k="name" v="Roztylské sady"/>
    <tag k="name:source" v="nameit/uir-adr"/>
  </way>
  <way id="22862433" version="2" timestamp="2008-09-16T10:14:11Z" uid="1066" user="pavel" changeset="646258">
    <nd ref="245781476"/>
    <nd ref="245781960"/>
    <nd ref="245781961"/>
    <nd ref="245781962"/>
    <nd ref="245781963"/>
    <nd ref="245781951"/>
    <nd ref="245781948"/>
    <nd ref="25970187"/>
    <tag k="created_by" v="JOSM"/>
    <tag k="highway" v="residential"/>
    <tag k="name" v="Roztylské sady"/>
    <tag k="name:source" v="nameit/uir-adr"/>
  </way>
  <way id="22862439" version="2" timestamp="2008-09-16T10:13:23Z" uid="1066" user="pavel" changeset="646258">
    <nd ref="25969361"/>
    <nd ref="245781965"/>
    <nd ref="245781966"/>
    <nd ref="703996"/>
    <tag k="created_by" v="JOSM"/>
    <tag k="highway" v="residential"/>
    <tag k="name" v="Jihozápadní V"/>
    <tag k="name:source" v="nameit/uir-adr"/>
  </way>
</osm>
