<?xml version='1.0' encoding='UTF-8'?>
<osm version="0.6" generator="libosmium/2.20.0">
  <way id="22868164" version="2" timestamp="2008-09-16T10:14:31Z" uid="1066" user="pavel" changeset="646258">
    <nd ref="245782192"/>
    <nd ref="245782326"/>
    <nd ref="245782327"/>
    <nd ref="245781960"/>
    <nd ref="245781477"/>
    <nd ref="245781469"/>
    <nd ref="245782328"/>
    <nd ref="245782329"/>
    <nd ref="245782330"/>
    <nd ref="245782331"/>
    <nd ref="245782332"/>
    <nd ref="245782333"/>
    <nd ref="245782334"/>
    <nd ref="245782335"/>
    <nd ref="245782336"/>
    <nd ref="245782337"/>
    <nd ref="245782338"/>
    <nd ref="245782339"/>
    <nd ref="245576162"/>
    <tag k="created_by" v="JOSM"/>
    <tag k="highway" v="residential"/>
    <tag k="name" v="Jihovýchodní III"/>
    <tag k="name:source" v="nameit/uir-adr"/>
  </way>
  <way id="22868166" version="2" timestamp="2008-09-30T21:04:25Z" uid="1066" user="pavel" changeset="721761">
    <nd ref="32436736"/>
    <nd ref="245782346"/>
    <nd ref="245782347"/>
    <nd ref="245782345"/>
    <nd ref="245782348"/>
    <nd ref="245782349"/>
    <nd ref="245782350"/>
    <nd ref="245782351"/>
    <nd ref="245782352"/>
    <nd ref="245782353"/>
    <nd ref="245782199"/>
    <tag k="created_by" v="JOSM"/>
    <tag k="highway" v="residential"/>
    <tag k="name" v="Jihovýchodní IX"/>
    <tag k="name:source" v="nameit/uir-adr"/>
  </way>
  <way id="22868167" version="2" timestamp="2008-09-16T10:13:58Z" uid="1066" user="pavel" changeset="646258">
    <nd ref="245782354"/>
    <nd ref="245782355"/>
    <tag k="created_by" v="JOSM"/>
    <tag k="highway" v="residential"/>
    <tag k="name" v="Jižní VII"/>
    <tag k="name:source" v="nameit/uir-adr"/>
  </way>
  <way id="22868168" version="2" timestamp="2008-09-16T10:10:49Z" uid="1066" user="pavel" changeset="646258">
    <nd ref="245781474"/>
    <nd ref="245782363"/>
    <nd ref="245782360"/>
    <nd ref="245782356"/>
    <tag k="created_by" v="JOSM"/>
    <tag k="highway" v="residential"/>
    <tag k="name" v="Jihovýchodní VII"/>
    <tag k="name:source" v="nameit/uir-adr"/>
  </way>
  <way id="22868169" version="2" timestamp="2008-09-16T10:11:24Z" uid="1066" user="pavel" changeset="646258">
    <nd ref="245782360"/>
    <nd ref="245782361"/>
    <tag k="created_by" v="JOSM"/>
    <tag k="highway" v="residential"/>
    <tag k="name" v="Jihovýchodní VII"/>
    <tag k="name:source" v="nameit/uir-adr"/>
  </way>
  <way id="22868170" version="2" timestamp="2008-09-30T21:08:35Z" uid="1066" user="pavel" changeset="721761">
    <nd ref="704017"/>
    <nd ref="245782364"/>
    <tag k="created_by" v="JOSM"/>
    <tag k="highway" v="residential"/>
    <tag k="name" v="Jihovýchodní VII"/>
    <tag k="name:source" v="nameit/uir-adr"/>
  </way>
  <way id="22868171" version="2" timestamp="2008-09-16T10:11:45Z" uid="1066" user="pavel" changeset="646258">
    <nd ref="25969015"/>
    <nd ref="245782365"/>
    <tag k="created_by" v="JOSM"/>
    <tag k="highway" v="residential"/>
    <tag k="name" v="Jihovýchodní V"/>
    <tag k="name:source" v="nameit/uir-adr"/>
  </way>
  <way id="22868172" version="2" timestamp="2008-09-16T10:14:49Z" uid="1066" user="pavel" changeset="646258">
    <nd ref="245782366"/>
    <nd ref="245782367"/>
    <tag k="created_by" v="JOSM"/>
    <tag k="highway" v="residential"/>
    <tag k="name" v="Jihovýchodní IV"/>
    <tag k="name:source" v="nameit/uir-adr"/>
  </way>
  <way id="22868173" version="2" timestamp="2008-09-30T21:04:56Z" uid="1066" user="pavel" changeset="721761">
    <nd ref="245782369"/>
    <nd ref="245782370"/>
    <nd ref="245782372"/>
    <tag k="created_by" v="JOSM"/>
    <tag k="highway" v="residential"/>
    <tag k="name" v="Boční I"/>
    <tag k="name:source" v="nameit/uir-adr"/>
  </way>
  <way id="22868174" version="2" timestamp="2008-09-16T10:14:07Z" uid="1066" user="pavel" changeset="646258">
    <nd ref="245782367"/>
    <nd ref="245782365"/>
    <nd ref="245782369"/>
    <nd ref="245781472"/>
    <nd ref="32436740"/>
    <tag k="created_by" v="JOSM"/>
    <tag k="highway" v="residential"/>
    <tag k="name" v="Jihovýchodní V"/>
    <tag k="name:source" v="nameit/uir-adr"/>
  </way>
  <way id="22868175" version="2" timestamp="2008-09-16T10:13:33Z" uid="1066" user="pavel" changeset="646258">
    <nd ref="245782356"/>
    <nd ref="245782357"/>
    <nd ref="245782358"/>
    <nd ref="245782359"/>
    <tag k="created_by" v="JOSM"/>
    <tag k="highway" v="residential"/>
    <tag k="name" v="Jihovýchodní VII"/>
    <tag k="name:source" v="nameit/uir-adr"/>
  </way>
  <way id="22868176" version="2" timestamp="2008-09-16T10:10:35Z" uid="1066" user="pavel" changeset="646258">
    <nd ref="245782361"/>
    <nd ref="245782364"/>
    <nd ref="245782362"/>
    <tag k="created_by" v="JOSM"/>
    <tag k="highway" v="residential"/>
    <tag k="name" v="Jižní nám."/>
    <tag k="name:source" v="nameit/uir-adr"/>
  </way>
  <way id="22868177" version="2" timestamp="2008-09-30T21:07:34Z" uid="1066" user="pavel" changeset="721761">
    <nd ref="245782362"/>
    <nd ref="245782363"/>
    <tag k="created_by" v="JOSM"/>
    <tag k="highway" v="residential"/>
    <tag k="name" v="Jihovýchodní VIII"/>
    <tag k="name:source" v="nameit/uir-adr"/>
  </way>
  <way id="22868182" version="2" timestamp="2008-09-16T10:14:00Z" uid="1066" user="pavel" changeset="646258">
    <nd ref="245577664"/>
    <nd ref="245782448"/>
    <nd ref="245782449"/>
    <nd ref="245782450"/>
    <nd ref="245782451"/>
    <nd ref="245782452"/>
    <nd ref="245782453"/>
    <nd ref="245782457"/>
    <nd ref="245782454"/>
    <nd ref="245782455"/>
    <nd ref="245782456"/>
    <nd ref="245781950"/>
    <tag k="created_by" v="JOSM"/>
    <tag k="highway" v="residential"/>
    <tag k="name" v="Jihozápadní I"/>
    <tag k="name:source" v="nameit/uir-adr"/>
  </way>
  <way id="22868183" version="2" timestamp="2008-09-16T10:11:22Z" uid="1066" user="pavel" changeset="646258">
    <nd ref="245782457"/>
    <nd ref="245782458"/>
    <nd ref="245782459"/>
    <nd ref="245781467"/>
    <nd ref="245781479"/>
    <nd ref="245781962"/>
    <nd ref="245782460"/>
    <nd ref="245782190"/>
    <tag k="created_by" v="JOSM"/>
    <tag k="highway" v="residential"/>
    <tag k="name" v="Jihovýchodní I"/>
    <tag k="name:source" v="nameit/uir-adr"/>
  </way>
  <way id="22868184" version="2" timestamp="2008-09-30T21:06:50Z" uid="1066" user="pavel" changeset="721761">
    <nd ref="245782460"/>
    <nd ref="245782461"/>
    <nd ref="245782327"/>
    <nd ref="245782462"/>
    <nd ref="245782463"/>
    <nd ref="32436731"/>
    <tag k="created_by" v="JOSM"/>
    <tag k="highway" v="residential"/>
    <tag k="name" v="Jižní III"/>
    <tag k="name:source" v="nameit/uir-adr"/>
  </way>
  <way id="22868185" version="2" timestamp="2008-09-30T21:06:31Z" uid="1066" user="pavel" changeset="721761">
    <nd ref="245782462"/>
    <nd ref="245782464"/>
    <tag k="created_by" v="JOSM"/>
    <tag k="highway" v="residential"/>
    <tag k="name" v="Jihovýchodní IV"/>
    <tag k="name:source" v="nameit/uir-adr"/>
  </way>
  <way id="22868186" version="2" timestamp="2008-09-30T21:04:09Z" uid="1066" user="pavel" changeset="721761">
    <nd ref="245782191"/>
    <nd ref="245782461"/>
    <nd ref="245781961"/>
    <tag k="created_by" v="JOSM"/>
    <tag k="highway" v="residential"/>
    <tag k="name" v="Jihovýchodní II"/>
    <tag k="name:source" v="nameit/uir-adr"/>
  </way>
  <way id="22868215" version="2" timestamp="2008-09-30T21:07:24Z" uid="1066" user="pavel" changeset="721761">
    <nd ref="66911861"/>
    <nd ref="245782600"/>
    <nd ref="245782601"/>
    <nd ref="245782602"/>
    <nd ref="245782603"/>
    <nd ref="245782604"/>
    <nd ref="245782605"/>
    <nd ref="245782606"/>
    <nd ref="245782607"/>
    <nd ref="245782608"/>
    <nd ref="245782609"/>
    <nd ref="245782610"/>
    <nd ref="245782611"/>
    <nd ref="688040"/>
    <tag k="created_by" v="JOSM"/>
    <tag k="highway" v="residential"/>
    <tag k="name" v="Obrovského"/>
    <tag k="name:source" v="nameit/uir-adr"/>
  </way>
  <way id="22868216" version="2" timestamp="2008-09-30T21:05:57Z" uid="1066" user="pavel" changeset="721761">
    <nd ref="245782601"/>
    <nd ref="245782612"/>
    <tag k="created_by" v="JOSM"/>
    <tag k="highway" v="residential"/>
    <tag k="name" v="Zastrčená"/>
    <tag k="name:source" v="nameit/uir-adr"/>
  </way>
  <way id="22868217" version="2" timestamp="2008-09-30T21:05:49Z" uid="1066" user="pavel" changeset="721761">
    <nd ref="245782600"/>
    <nd ref="245782613"/>
    <tag k="created_by" v="JOSM"/>
    <tag k="highway" v="residential"/>
    <tag k="name" v="Zastrčená"/>
    <tag k="name:source" v="nameit/uir-adr"/>
  </way>
  <way id="22868218" version="2" timestamp="2008-09-30T21:08:46Z" uid="1066" user="pavel" changeset="721761">
    <nd ref="245782614"/>
    <nd ref="245782615"/>
    <tag k="created_by" v="JOSM"/>
    <tag k="highway" v="residential"/>
    <tag k="name" v="Chodovecké nám."/>
    <tag k="name:source" v="nameit/uir-adr"/>
  </way>
  <way id="22868219" version="2" timestamp="2008-09-30T21:07:52Z" uid="1066" user="pavel" changeset="721761">
    <nd ref="245782616"/>
    <nd ref="245782613"/>
    <nd ref="245782612"/>
    <tag k="created_by" v="JOSM"/>
    <tag k="highway" v="residential"/>
    <tag k="name" v="Nad pahorkem"/>
    <tag k="name:source" v="nameit/uir-adr"/>
  </way>
  <way id="22868220" version="2" timestamp="2008-09-30T21:06:59Z" uid="1066" user="pavel" changeset="721761">
    <nd ref="245782615"/>
    <nd ref="245782617"/>
    <nd ref="245782618"/>
    <nd ref="245782619"/>
    <nd ref="245782620"/>
    <nd ref="245782615"/>
    <tag k="created_by" v="JOSM"/>
    <tag k="highway" v="residential"/>
    <tag k="name" v="Chodovecké nám."/>
    <tag k="name:source" v="nameit/uir-adr"/>
  </way>
  <way id="22868221" version="2" timestamp="2008-09-30T21:04:50Z" uid="1066" user="pavel" changeset="721761">
    <nd ref="245782621"/>
    <nd ref="245782622"/>
    <nd ref="245782623"/>
    <nd ref="245782624"/>
    <nd ref="245782625"/>
    <tag k="created_by" v="JOSM"/>
    <tag k="highway" v="residential"/>
    <tag k="name" v="Božkovská"/>
    <tag k="name:source" v="nameit/uir-adr"/>
  </way>
  <way id="22868221" version="4" timestamp="2009-11-17T14:27:09Z" uid="23543" user="jkjk" changeset="3141443">
    <nd ref="245782621"/>
    <nd ref="566197490"/>
    <nd ref="245782622"/>
    <nd ref="245782623"/>
    <nd ref="245782624"/>
    <nd ref="245782625"/>
    <tag k="highway" v="residential"/>
    <tag k="name" v="Božkovská"/>
    <tag k="source:name" v="nameit/uir-adr"/>
  </way>
  <way id="22868248" version="5" timestamp="2009-02-23T12:55:04Z" uid="34428" user="usm78-gis" changeset="634299"/>
  <way id="22868255" version="4" timestamp="2009-02-23T12:30:32Z" uid="34428" user="usm78-gis" changeset="634299"/>
  <way id="22868272" version="8" timestamp="2009-02-23T12:23:29Z" uid="34428" user="usm78-gis" changeset="634299"/>
  <way id="22868322" version="2" timestamp="2008-09-16T10:12:01Z" uid="1066" user="pavel" changeset="646258">
    <nd ref="25970142"/>
    <nd ref="245783228"/>
    <nd ref="245783229"/>
    <nd ref="245783230"/>
    <nd ref="245783231"/>
    <nd ref="245783232"/>
    <tag k="created_by" v="JOSM"/>
    <tag k="highway" v="residential"/>
    <tag k="name" v="Trnavská"/>
    <tag k="name:source" v="nameit/uir-adr"/>
  </way>
  <way id="22868323" version="2" timestamp="2008-09-16T10:15:02Z" uid="1066" user="pavel" changeset="646258">
    <nd ref="245783228"/>
    <nd ref="245783234"/>
    <nd ref="245783233"/>
    <tag k="created_by" v="JOSM"/>
    <tag k="highway" v="residential"/>
    <tag k="name" v="Púchovská"/>
    <tag k="name:source" v="nameit/uir-adr"/>
  </way>
  <way id="22868324" version="2" timestamp="2008-09-16T10:11:56Z" uid="1066" user="pavel" changeset="646258">
    <nd ref="245783234"/>
    <nd ref="245783232"/>
    <nd ref="245783235"/>
    <tag k="created_by" v="JOSM"/>
    <tag k="highway" v="residential"/>
    <tag k="name" v="Púchovská"/>
    <tag k="name:source" v="nameit/uir-adr"/>
  </way>
  <way id="22868325" version="2" timestamp="2008-09-16T10:15:14Z" uid="1066" user="pavel" changeset="646258">
    <nd ref="245783236"/>
    <nd ref="245783235"/>
    <nd ref="245783237"/>
    <tag k="created_by" v="JOSM"/>
    <tag k="highway" v="residential"/>
    <tag k="name" v="Kremnická"/>
    <tag k="name:source" v="nameit/uir-adr"/>
  </way>
  <way id="22868326" version="2" timestamp="2008-09-16T10:12:30Z" uid="1066" user="pavel" changeset="646258">
    <nd ref="245783239"/>
    <nd ref="245783240"/>
    <tag k="created_by" v="JOSM"/>
    <tag k="highway" v="residential"/>
    <tag k="name" v="Severozápadní I"/>
    <tag k="name:source" v="nameit/uir-adr"/>
  </way>
  <way id="22868369" version="2" timestamp="2008-09-16T10:14:59Z" uid="1066" user="pavel" changeset="646258">
    <nd ref="25970468"/>
    <nd ref="245783493"/>
    <nd ref="245783494"/>
    <nd ref="245783495"/>
    <tag k="created_by" v="JOSM"/>
    <tag k="highway" v="residential"/>
    <tag k="name" v="Na vinobraní"/>
    <tag k="name:source" v="nameit/uir-adr"/>
  </way>
  <way id="22868469" version="2" timestamp="2008-09-30T21:08:11Z" uid="1066" user="pavel" changeset="721761">
    <nd ref="67794714"/>
    <nd ref="245784169"/>
    <nd ref="245784171"/>
    <nd ref="245784161"/>
    <nd ref="67794853"/>
    <tag k="created_by" v="JOSM"/>
    <tag k="highway" v="residential"/>
    <tag k="name" v="Blažimská"/>
    <tag k="name:source" v="nameit/uir-adr"/>
  </way>
  <way id="22868492" version="4" timestamp="2009-02-23T12:10:31Z" uid="34428" user="usm78-gis" changeset="634299"/>
  <way id="22868510" version="2" timestamp="2008-09-30T21:07:34Z" uid="1066" user="pavel" changeset="721761">
    <nd ref="25919001"/>
    <nd ref="245784423"/>
    <nd ref="245784424"/>
    <nd ref="245784425"/>
    <nd ref="245784426"/>
    <nd ref="245784428"/>
    <nd ref="245784430"/>
    <nd ref="245784432"/>
    <nd ref="245784434"/>
    <nd ref="245784435"/>
    <nd ref="245784437"/>
    <nd ref="245784439"/>
    <nd ref="245784440"/>
    <nd ref="245784444"/>
    <tag k="created_by" v="JOSM"/>
    <tag k="highway" v="residential"/>
    <tag k="name" v="Hvožďanská"/>
    <tag k="name:source" v="nameit/uir-adr"/>
  </way>
  <way id="22868623" version="4" timestamp="2009-02-23T12:49:08Z" uid="34428" user="usm78-gis" changeset="634299"/>
  <way id="22868626" version="3" timestamp="2009-02-23T13:18:48Z" uid="34428" user="usm78-gis" changeset="634299"/>
  <way id="22868635" version="3" timestamp="2009-02-23T12:14:05Z" uid="34428" user="usm78-gis" changeset="634299"/>
  <way id="22868650" version="3" timestamp="2009-02-23T11:41:05Z" uid="34428" user="usm78-gis" changeset="634299"/>
  <way id="22868696" version="5" timestamp="2009-02-23T13:17:51Z" uid="34428" user="usm78-gis" changeset="634299"/>
  <way id="22868709" version="3" timestamp="2009-02-23T13:13:58Z" uid="34428" user="usm78-gis" changeset="634299"/>
  <way id="22868722" version="5" timestamp="2009-06-14T12:14:33Z" uid="43863" user="Rundling" changeset="1513525">
    <nd ref="245785980"/>
    <nd ref="245785981"/>
    <nd ref="245785982"/>
    <nd ref="245785984"/>
    <nd ref="245785985"/>
    <nd ref="245785986"/>
    <nd ref="245785987"/>
    <nd ref="245785988"/>
    <nd ref="245785989"/>
    <nd ref="245785990"/>
    <nd ref="245785991"/>
    <nd ref="245785992"/>
    <nd ref="245785993"/>
    <nd ref="245785994"/>
    <nd ref="245785995"/>
    <nd ref="245785996"/>
    <nd ref="245785997"/>
    <nd ref="245785998"/>
    <nd ref="245785999"/>
    <nd ref="245786000"/>
    <nd ref="245786001"/>
    <nd ref="245786002"/>
    <nd ref="245786003"/>
    <nd ref="245786004"/>
    <nd ref="245786005"/>
    <nd ref="245786006"/>
    <nd ref="245786007"/>
    <nd ref="245786008"/>
    <nd ref="245786009"/>
    <nd ref="245786010"/>
    <nd ref="245786011"/>
    <nd ref="245786012"/>
    <nd ref="245786013"/>
    <nd ref="245786014"/>
    <nd ref="245786015"/>
    <nd ref="245786016"/>
    <nd ref="245786017"/>
    <nd ref="245786018"/>
    <nd ref="245786019"/>
    <nd ref="245786020"/>
    <nd ref="245786021"/>
    <nd ref="245786022"/>
    <nd ref="245786023"/>
    <nd ref="245786024"/>
    <nd ref="245786025"/>
    <nd ref="245786026"/>
    <nd ref="247312754"/>
    <nd ref="245786027"/>
    <nd ref="245786028"/>
    <nd ref="245786029"/>
    <nd ref="245786030"/>
    <nd ref="245786031"/>
    <nd ref="245786032"/>
    <nd ref="245786037"/>
    <nd ref="245786038"/>
    <nd ref="245786039"/>
    <nd ref="245786040"/>
    <nd ref="245786041"/>
    <nd ref="245786042"/>
    <nd ref="245786043"/>
    <nd ref="245786044"/>
    <nd ref="245786045"/>
    <nd ref="245786046"/>
    <nd ref="245786047"/>
    <nd ref="245786048"/>
    <nd ref="245786049"/>
    <nd ref="245786050"/>
    <nd ref="245786051"/>
    <nd ref="245786052"/>
    <nd ref="245786053"/>
    <nd ref="245786054"/>
    <nd ref="245786055"/>
    <nd ref="245786056"/>
    <nd ref="245786057"/>
    <nd ref="245786058"/>
    <nd ref="245786059"/>
    <nd ref="245786060"/>
    <nd ref="245786061"/>
    <nd ref="245786062"/>
    <nd ref="245786063"/>
    <nd ref="245786064"/>
    <nd ref="245786065"/>
    <nd ref="245786066"/>
    <tag k="highway" v="secondary"/>
    <tag k="ref" v="K 1014"/>
  </way>
  <way id="22868722" version="6" timestamp="2009-06-14T12:15:37Z" uid="43863" user="Rundling" changeset="1513536">
    <nd ref="245785980"/>
    <nd ref="245785981"/>
    <nd ref="245785982"/>
    <nd ref="245785984"/>
    <nd ref="245785985"/>
    <nd ref="245785986"/>
    <nd ref="245785987"/>
    <nd ref="245785988"/>
    <nd ref="245785989"/>
    <nd ref="245785990"/>
    <nd ref="245785991"/>
    <nd ref="245785992"/>
    <nd ref="245785993"/>
    <nd ref="245785994"/>
    <nd ref="245785995"/>
    <nd ref="245785996"/>
    <nd ref="245785997"/>
    <nd ref="245785998"/>
    <nd ref="420174672"/>
    <tag k="highway" v="secondary"/>
    <tag k="ref" v="K 1014"/>
  </way>
  <way id="22868731" version="4" timestamp="2009-02-23T12:14:18Z" uid="34428" user="usm78-gis" changeset="634299"/>
  <way id="22868805" version="7" timestamp="2009-02-23T12:12:52Z" uid="34428" user="usm78-gis" changeset="634299"/>
  <way id="22868818" version="4" timestamp="2009-02-23T12:18:57Z" uid="34428" user="usm78-gis" changeset="634299"/>
  <way id="22868837" version="5" timestamp="2008-05-22T22:06:01Z" uid="34428" user="usm78-gis" changeset="506956">
    <nd ref="245786906"/>
    <nd ref="245789717"/>
    <nd ref="245787078"/>
    <nd ref="245789718"/>
    <nd ref="245789719"/>
    <nd ref="245787079"/>
    <nd ref="245787080"/>
    <nd ref="245787081"/>
    <nd ref="245789720"/>
    <nd ref="245787082"/>
    <nd ref="245789747"/>
    <nd ref="245787090"/>
    <nd ref="245787091"/>
    <nd ref="245787092"/>
    <nd ref="245789748"/>
    <nd ref="245787093"/>
    <nd ref="245787094"/>
    <nd ref="245787095"/>
    <nd ref="245787096"/>
    <nd ref="245787097"/>
    <nd ref="245787098"/>
    <tag k="created_by" v="Potlatch 0.7"/>
    <tag k="highway" v="track"/>
    <tag k="tracktype" v="grade5"/>
  </way>
  <way id="22868969" version="4" timestamp="2008-05-22T21:39:22Z" uid="34428" user="usm78-gis" changeset="506956">
    <nd ref="245788742"/>
    <nd ref="245788743"/>
    <nd ref="245788744"/>
    <nd ref="245788745"/>
    <nd ref="245788746"/>
    <nd ref="245788747"/>
    <nd ref="245788748"/>
    <nd ref="245788749"/>
    <nd ref="245788750"/>
    <nd ref="245788751"/>
    <nd ref="245788752"/>
    <nd ref="245788753"/>
    <nd ref="245788742"/>
    <tag k="building" v="yes"/>
    <tag k="created_by" v="Potlatch 0.7a"/>
    <tag k="name" v="Школа № 136"/>
  </way>
  <way id="22868979" version="5" timestamp="2008-06-22T21:03:02Z" uid="27600" user="Islanit" changeset="261806">
    <nd ref="245782227"/>
    <nd ref="245790538"/>
    <nd ref="245789009"/>
    <nd ref="245789010"/>
    <nd ref="245789011"/>
    <nd ref="245789012"/>
    <nd ref="245789013"/>
    <nd ref="245789014"/>
    <nd ref="245789015"/>
    <nd ref="245789016"/>
    <nd ref="245789017"/>
    <nd ref="245789018"/>
    <nd ref="245789019"/>
    <nd ref="245789020"/>
    <nd ref="245789021"/>
    <nd ref="245789022"/>
    <nd ref="245789023"/>
    <nd ref="245789024"/>
    <nd ref="245789025"/>
    <nd ref="245789026"/>
    <nd ref="245789027"/>
    <nd ref="245789028"/>
    <nd ref="245790489"/>
    <nd ref="245789227"/>
    <nd ref="245789228"/>
    <nd ref="245789229"/>
    <tag k="created_by" v="Potlatch 0.7"/>
    <tag k="highway" v="unclassified"/>
  </way>
  <way id="22868982" version="17" timestamp="2009-08-25T22:50:01Z" uid="36809" user="pfoten_weg_!_" changeset="2262479">
    <nd ref="245787332"/>
    <nd ref="245789029"/>
    <nd ref="245789030"/>
    <nd ref="462285414"/>
    <nd ref="245789031"/>
    <nd ref="245789032"/>
    <nd ref="245789033"/>
    <nd ref="245789034"/>
    <nd ref="245789035"/>
    <nd ref="245789036"/>
    <nd ref="245789037"/>
    <nd ref="245789038"/>
    <nd ref="245789039"/>
    <nd ref="245789040"/>
    <nd ref="245789041"/>
    <nd ref="245789042"/>
    <nd ref="245789043"/>
    <nd ref="245789044"/>
    <nd ref="245789045"/>
    <nd ref="245789046"/>
    <nd ref="245789047"/>
    <nd ref="245789048"/>
    <nd ref="245789049"/>
    <nd ref="245789050"/>
    <nd ref="245789051"/>
    <nd ref="245789052"/>
    <nd ref="245789053"/>
    <nd ref="245789054"/>
    <nd ref="245789055"/>
    <nd ref="245789056"/>
    <nd ref="245789057"/>
    <nd ref="245789058"/>
    <nd ref="245789059"/>
    <nd ref="245789060"/>
    <nd ref="245789061"/>
    <nd ref="245789062"/>
    <nd ref="245789063"/>
    <nd ref="245789064"/>
    <nd ref="245789065"/>
    <nd ref="245789066"/>
    <nd ref="245789067"/>
    <nd ref="245789068"/>
    <nd ref="245789069"/>
    <nd ref="245789070"/>
    <nd ref="245789071"/>
    <nd ref="245789072"/>
    <nd ref="251319868"/>
    <nd ref="293111750"/>
    <nd ref="245789074"/>
    <nd ref="293111751"/>
    <nd ref="245789075"/>
    <nd ref="245789076"/>
    <nd ref="245789077"/>
    <nd ref="245789078"/>
    <nd ref="245789079"/>
    <nd ref="245789080"/>
    <nd ref="245789081"/>
    <nd ref="245789082"/>
    <nd ref="245789083"/>
    <nd ref="245789084"/>
    <nd ref="245789085"/>
    <nd ref="245789086"/>
    <nd ref="245789087"/>
    <nd ref="245789088"/>
    <nd ref="245789089"/>
    <nd ref="245789090"/>
    <nd ref="245789091"/>
    <nd ref="245789092"/>
    <nd ref="245789093"/>
    <nd ref="245789094"/>
    <nd ref="245789095"/>
    <nd ref="245789096"/>
    <nd ref="245789097"/>
    <nd ref="245789098"/>
    <nd ref="355160873"/>
    <tag k="railway" v="rail"/>
  </way>
</osm>
