<?xml version='1.0' encoding='UTF-8'?>
<osm version="0.6" generator="libosmium/2.20.0">
  <way id="22866495" version="3" timestamp="2008-09-16T10:09:28Z" uid="1066" user="pavel" changeset="646258">
    <nd ref="245577117"/>
    <nd ref="245782171"/>
    <nd ref="245782172"/>
    <nd ref="245782366"/>
    <nd ref="245782173"/>
    <nd ref="245781471"/>
    <nd ref="32436727"/>
    <tag k="created_by" v="JOSM"/>
    <tag k="highway" v="residential"/>
    <tag k="name" v="Jihovýchodní IV"/>
    <tag k="name:source" v="nameit/uir-adr"/>
  </way>
  <way id="22866499" version="2" timestamp="2008-09-16T10:14:32Z" uid="1066" user="pavel" changeset="646258">
    <nd ref="245577117"/>
    <nd ref="245782174"/>
    <nd ref="245782178"/>
    <nd ref="245782175"/>
    <nd ref="25969361"/>
    <tag k="created_by" v="JOSM"/>
    <tag k="highway" v="residential"/>
    <tag k="name" v="Vestavěná"/>
    <tag k="name:source" v="nameit/uir-adr"/>
  </way>
  <way id="22866503" version="2" timestamp="2008-09-16T10:09:49Z" uid="1066" user="pavel" changeset="646258">
    <nd ref="25969361"/>
    <nd ref="245782176"/>
    <nd ref="245782177"/>
    <nd ref="245577117"/>
    <tag k="created_by" v="JOSM"/>
    <tag k="highway" v="residential"/>
    <tag k="name" v="Vestavěná"/>
    <tag k="name:source" v="nameit/uir-adr"/>
  </way>
  <way id="22866508" version="2" timestamp="2008-09-16T10:14:57Z" uid="1066" user="pavel" changeset="646258">
    <nd ref="245782178"/>
    <nd ref="245782179"/>
    <tag k="created_by" v="JOSM"/>
    <tag k="highway" v="residential"/>
    <tag k="name" v="Vestavěná"/>
    <tag k="name:source" v="nameit/uir-adr"/>
  </way>
  <way id="22866511" version="4" timestamp="2008-09-16T10:12:13Z" uid="1066" user="pavel" changeset="646258">
    <nd ref="245781957"/>
    <nd ref="245782451"/>
    <nd ref="245782333"/>
    <nd ref="245577117"/>
    <tag k="created_by" v="JOSM"/>
    <tag k="highway" v="residential"/>
    <tag k="name" v="Jižní IX"/>
    <tag k="name:source" v="nameit/uir-adr"/>
  </way>
  <way id="22866515" version="2" timestamp="2008-09-16T10:12:16Z" uid="1066" user="pavel" changeset="646258">
    <nd ref="245782183"/>
    <nd ref="245782182"/>
    <nd ref="245782181"/>
    <nd ref="245782180"/>
    <nd ref="245782171"/>
    <tag k="created_by" v="JOSM"/>
    <tag k="highway" v="residential"/>
    <tag k="name" v="Jižní nám."/>
    <tag k="name:source" v="nameit/uir-adr"/>
  </way>
  <way id="22866519" version="3" timestamp="2010-02-23T20:00:00Z" uid="23543" user="jkjk" changeset="3957736">
    <nd ref="245782185"/>
    <nd ref="245782186"/>
    <nd ref="245782188"/>
    <nd ref="245782189"/>
    <nd ref="245782190"/>
    <nd ref="245782191"/>
    <nd ref="245782192"/>
    <nd ref="245782193"/>
    <nd ref="245782194"/>
    <nd ref="245782195"/>
    <nd ref="245782200"/>
    <nd ref="245782199"/>
    <tag k="highway" v="residential"/>
    <tag k="name" v="Jižní I"/>
  </way>
  <way id="22866522" version="2" timestamp="2008-09-30T21:07:48Z" uid="1066" user="pavel" changeset="721761">
    <nd ref="704018"/>
    <nd ref="245781473"/>
    <nd ref="62137878"/>
    <nd ref="245782196"/>
    <nd ref="245782197"/>
    <nd ref="245782198"/>
    <nd ref="245782199"/>
    <tag k="created_by" v="JOSM"/>
    <tag k="highway" v="residential"/>
    <tag k="name" v="Jihovýchodní VI"/>
    <tag k="name:source" v="nameit/uir-adr"/>
  </way>
  <way id="22866527" version="2" timestamp="2008-09-30T21:08:36Z" uid="1066" user="pavel" changeset="721761">
    <nd ref="245782200"/>
    <nd ref="704021"/>
    <tag k="created_by" v="JOSM"/>
    <tag k="highway" v="residential"/>
    <tag k="name" v="Jihovýchodní IX"/>
    <tag k="name:source" v="nameit/uir-adr"/>
  </way>
  <way id="22866530" version="2" timestamp="2008-09-30T21:04:59Z" uid="1066" user="pavel" changeset="721761">
    <nd ref="245782195"/>
    <nd ref="245782201"/>
    <nd ref="62137881"/>
    <nd ref="32436747"/>
    <nd ref="245782202"/>
    <nd ref="245781473"/>
    <tag k="created_by" v="JOSM"/>
    <tag k="highway" v="residential"/>
    <tag k="name" v="Jihovýchodní VI"/>
    <tag k="name:source" v="nameit/uir-adr"/>
  </way>
  <way id="22866535" version="4" timestamp="2008-09-16T10:14:28Z" uid="1066" user="pavel" changeset="646258">
    <nd ref="245782171"/>
    <nd ref="245782184"/>
    <nd ref="245782331"/>
    <nd ref="245782453"/>
    <nd ref="245781954"/>
    <tag k="created_by" v="JOSM"/>
    <tag k="highway" v="residential"/>
    <tag k="name" v="Jižní VII"/>
    <tag k="name:source" v="nameit/uir-adr"/>
  </way>
</osm>
