<?xml version='1.0' encoding='UTF-8'?>
<osm version="0.6" generator="libosmium/2.20.0">
  <way id="22877024" version="8" timestamp="2008-09-09T11:34:18Z" uid="6269" user="Mueck" changeset="586013">
    <nd ref="245946845"/>
    <nd ref="259774381"/>
    <nd ref="248411827"/>
    <nd ref="253378723"/>
    <nd ref="245946975"/>
    <nd ref="245947010"/>
    <nd ref="245947011"/>
    <tag k="created_by" v="Potlatch 0.10b"/>
    <tag k="highway" v="tertiary"/>
    <tag k="name" v="Vieländer Weg"/>
  </way>
  <way id="22877049" version="7" timestamp="2008-09-09T11:34:38Z" uid="6269" user="Mueck" changeset="586013">
    <nd ref="245947139"/>
    <nd ref="245947140"/>
    <nd ref="248412208"/>
    <nd ref="248412206"/>
    <tag k="created_by" v="Potlatch 0.10b"/>
    <tag k="highway" v="tertiary"/>
    <tag k="name" v="Vieländer Weg"/>
  </way>
  <way id="22877049" version="12" timestamp="2010-12-19T23:53:18Z" uid="6269" user="Mueck" changeset="6711092">
    <nd ref="245947139"/>
    <nd ref="1050288989"/>
    <nd ref="1050288997"/>
    <nd ref="1050288927"/>
    <nd ref="245947140"/>
    <tag k="cycleway" v="no"/>
    <tag k="highway" v="tertiary"/>
    <tag k="maxspeed" v="50"/>
    <tag k="name" v="Vieländer Weg"/>
    <tag k="surface" v="paved"/>
  </way>
  <way id="22877050" version="7" timestamp="2008-09-09T11:34:53Z" uid="6269" user="Mueck" changeset="586013">
    <nd ref="245947011"/>
    <nd ref="259774305"/>
    <nd ref="245947141"/>
    <nd ref="245947143"/>
    <nd ref="245947139"/>
    <tag k="bridge" v="yes"/>
    <tag k="created_by" v="Potlatch 0.10b"/>
    <tag k="highway" v="tertiary"/>
    <tag k="layer" v="1"/>
    <tag k="name" v="Vieländer Weg"/>
  </way>
  <way id="22877050" version="9" timestamp="2010-12-08T01:35:11Z" uid="6269" user="Mueck" changeset="6581581">
    <nd ref="245947011"/>
    <nd ref="259774305"/>
    <nd ref="245947141"/>
    <nd ref="1027427921"/>
    <nd ref="245947143"/>
    <nd ref="245947139"/>
    <tag k="bridge" v="yes"/>
    <tag k="highway" v="tertiary"/>
    <tag k="layer" v="1"/>
    <tag k="maxspeed" v="50"/>
    <tag k="name" v="Vieländer Weg"/>
    <tag k="surface" v="paved"/>
  </way>
  <way id="22877050" version="10" timestamp="2010-12-20T15:04:16Z" uid="6269" user="Mueck" changeset="6716052">
    <nd ref="245947011"/>
    <nd ref="259774305"/>
    <nd ref="245947141"/>
    <nd ref="1051747848"/>
    <tag k="embankment" v="yes"/>
    <tag k="highway" v="tertiary"/>
    <tag k="layer" v="1"/>
    <tag k="maxspeed" v="50"/>
    <tag k="name" v="Vieländer Weg"/>
    <tag k="surface" v="paved"/>
  </way>
  <way id="22877051" version="2" timestamp="2009-06-17T22:02:54Z" uid="36809" user="pfoten_weg_!_" changeset="1550007">
    <nd ref="245944097"/>
    <nd ref="245947073"/>
    <nd ref="245947076"/>
    <nd ref="245947079"/>
    <nd ref="245947083"/>
    <nd ref="245947086"/>
    <nd ref="245947088"/>
    <nd ref="245947089"/>
    <tag k="created_by" v="RambaZamba"/>
    <tag k="highway" v="residential"/>
    <tag k="name" v="Bahnhofstraße"/>
  </way>
  <way id="22877051" version="4" timestamp="2009-08-28T22:19:49Z" uid="36809" user="pfoten_weg_!_" changeset="2295907">
    <nd ref="245944097"/>
    <nd ref="245947073"/>
    <nd ref="245947076"/>
    <nd ref="245947079"/>
    <nd ref="245947083"/>
    <nd ref="245947086"/>
    <nd ref="245947088"/>
    <nd ref="245947089"/>
    <tag k="discovered_by" v="RambaZamba"/>
    <tag k="highway" v="residential"/>
    <tag k="name" v="Bahnhofstraße"/>
    <tag k="source" v="survey"/>
  </way>
  <way id="22877051" version="6" timestamp="2009-08-31T16:45:36Z" uid="36809" user="pfoten_weg_!_" changeset="2328217">
    <nd ref="245944097"/>
    <nd ref="245947073"/>
    <nd ref="245947076"/>
    <nd ref="245947079"/>
    <nd ref="245947083"/>
    <nd ref="245947086"/>
    <nd ref="245947088"/>
    <nd ref="245947089"/>
    <tag k="highway" v="residential"/>
    <tag k="name" v="Bahnhofstraße"/>
    <tag k="source" v="survey"/>
  </way>
  <way id="22877052" version="3" timestamp="2009-06-17T22:02:59Z" uid="36809" user="pfoten_weg_!_" changeset="1550007">
    <nd ref="245944099"/>
    <nd ref="343189880"/>
    <nd ref="245947090"/>
    <nd ref="245947091"/>
    <nd ref="245947092"/>
    <nd ref="245947093"/>
    <nd ref="245947094"/>
    <nd ref="245947095"/>
    <tag k="created_by" v="RambaZamba"/>
    <tag k="highway" v="residential"/>
    <tag k="name" v="Bahnhofstraße"/>
  </way>
  <way id="22877052" version="5" timestamp="2009-08-28T22:19:19Z" uid="36809" user="pfoten_weg_!_" changeset="2295907">
    <nd ref="245944099"/>
    <nd ref="343189880"/>
    <nd ref="245947090"/>
    <nd ref="245947091"/>
    <nd ref="245947092"/>
    <nd ref="245947093"/>
    <nd ref="245947094"/>
    <nd ref="245947095"/>
    <tag k="discovered_by" v="RambaZamba"/>
    <tag k="highway" v="residential"/>
    <tag k="name" v="Bahnhofstraße"/>
    <tag k="source" v="survey"/>
  </way>
  <way id="22877052" version="7" timestamp="2009-08-31T16:45:59Z" uid="36809" user="pfoten_weg_!_" changeset="2328217">
    <nd ref="245944099"/>
    <nd ref="343189880"/>
    <nd ref="245947090"/>
    <nd ref="245947091"/>
    <nd ref="245947092"/>
    <nd ref="245947093"/>
    <nd ref="245947094"/>
    <nd ref="245947095"/>
    <tag k="highway" v="residential"/>
    <tag k="name" v="Bahnhofstraße"/>
    <tag k="source" v="survey"/>
  </way>
  <way id="22877053" version="2" timestamp="2009-06-17T22:03:00Z" uid="36809" user="pfoten_weg_!_" changeset="1550007">
    <nd ref="245947096"/>
    <nd ref="245947097"/>
    <nd ref="245947098"/>
    <nd ref="245947099"/>
    <nd ref="245947100"/>
    <nd ref="245947101"/>
    <nd ref="245947102"/>
    <nd ref="245947103"/>
    <nd ref="245947104"/>
    <nd ref="245947105"/>
    <nd ref="245947111"/>
    <nd ref="245947112"/>
    <nd ref="245947113"/>
    <nd ref="245947114"/>
    <nd ref="245947115"/>
    <tag k="created_by" v="RambaZamba"/>
    <tag k="highway" v="residential"/>
    <tag k="name" v="Bahnhofstraße"/>
  </way>
  <way id="22877053" version="4" timestamp="2009-08-28T22:19:07Z" uid="36809" user="pfoten_weg_!_" changeset="2295907">
    <nd ref="245947096"/>
    <nd ref="245947097"/>
    <nd ref="245947098"/>
    <nd ref="245947099"/>
    <nd ref="245947100"/>
    <nd ref="245947101"/>
    <nd ref="245947102"/>
    <nd ref="245947103"/>
    <nd ref="245947104"/>
    <nd ref="245947105"/>
    <nd ref="245947111"/>
    <nd ref="245947112"/>
    <nd ref="245947113"/>
    <nd ref="245947114"/>
    <nd ref="245947115"/>
    <tag k="discovered_by" v="RambaZamba"/>
    <tag k="highway" v="residential"/>
    <tag k="name" v="Bahnhofstraße"/>
    <tag k="source" v="survey"/>
  </way>
  <way id="22877053" version="6" timestamp="2009-08-31T16:45:57Z" uid="36809" user="pfoten_weg_!_" changeset="2328217">
    <nd ref="245947096"/>
    <nd ref="245947097"/>
    <nd ref="245947098"/>
    <nd ref="245947099"/>
    <nd ref="245947100"/>
    <nd ref="245947101"/>
    <nd ref="245947102"/>
    <nd ref="245947103"/>
    <nd ref="245947104"/>
    <nd ref="245947105"/>
    <nd ref="245947111"/>
    <nd ref="245947112"/>
    <nd ref="245947113"/>
    <nd ref="245947114"/>
    <nd ref="245947115"/>
    <tag k="highway" v="residential"/>
    <tag k="name" v="Bahnhofstraße"/>
    <tag k="source" v="survey"/>
  </way>
  <way id="22877054" version="2" timestamp="2009-06-17T22:02:54Z" uid="36809" user="pfoten_weg_!_" changeset="1550007">
    <nd ref="245947099"/>
    <nd ref="245947116"/>
    <nd ref="245947117"/>
    <nd ref="245947118"/>
    <nd ref="245947119"/>
    <tag k="created_by" v="RambaZamba"/>
    <tag k="highway" v="residential"/>
    <tag k="name" v="Bahnhofstraße"/>
  </way>
  <way id="22877054" version="4" timestamp="2009-08-28T22:19:03Z" uid="36809" user="pfoten_weg_!_" changeset="2295907">
    <nd ref="245947099"/>
    <nd ref="245947116"/>
    <nd ref="245947117"/>
    <nd ref="245947118"/>
    <nd ref="245947119"/>
    <tag k="discovered_by" v="RambaZamba"/>
    <tag k="highway" v="residential"/>
    <tag k="name" v="Bahnhofstraße"/>
    <tag k="source" v="survey"/>
  </way>
  <way id="22877054" version="6" timestamp="2009-08-31T16:46:27Z" uid="36809" user="pfoten_weg_!_" changeset="2328217">
    <nd ref="245947099"/>
    <nd ref="245947116"/>
    <nd ref="245947117"/>
    <nd ref="245947118"/>
    <nd ref="245947119"/>
    <tag k="highway" v="residential"/>
    <tag k="name" v="Bahnhofstraße"/>
    <tag k="source" v="survey"/>
  </way>
  <way id="22877055" version="3" timestamp="2009-06-17T22:02:59Z" uid="36809" user="pfoten_weg_!_" changeset="1550007">
    <nd ref="245947120"/>
    <nd ref="245947121"/>
    <nd ref="245947122"/>
    <nd ref="246676992"/>
    <nd ref="245947123"/>
    <nd ref="245947136"/>
    <nd ref="246676987"/>
    <nd ref="245947124"/>
    <nd ref="245947125"/>
    <nd ref="245947126"/>
    <nd ref="245947127"/>
    <nd ref="245947128"/>
    <nd ref="245947129"/>
    <nd ref="245947130"/>
    <nd ref="245947131"/>
    <nd ref="245947132"/>
    <nd ref="245947133"/>
    <nd ref="245947134"/>
    <nd ref="245947135"/>
    <tag k="created_by" v="RambaZamba"/>
    <tag k="highway" v="residential"/>
    <tag k="name" v="Schulstraße"/>
  </way>
  <way id="22877055" version="5" timestamp="2009-08-28T22:19:42Z" uid="36809" user="pfoten_weg_!_" changeset="2295907">
    <nd ref="245947120"/>
    <nd ref="245947121"/>
    <nd ref="245947122"/>
    <nd ref="246676992"/>
    <nd ref="245947123"/>
    <nd ref="245947136"/>
    <nd ref="246676987"/>
    <nd ref="245947124"/>
    <nd ref="245947125"/>
    <nd ref="245947126"/>
    <nd ref="245947127"/>
    <nd ref="245947128"/>
    <nd ref="245947129"/>
    <nd ref="245947130"/>
    <nd ref="245947131"/>
    <nd ref="245947132"/>
    <nd ref="245947133"/>
    <nd ref="245947134"/>
    <nd ref="245947135"/>
    <tag k="discovered_by" v="RambaZamba"/>
    <tag k="highway" v="residential"/>
    <tag k="name" v="Schulstraße"/>
    <tag k="source" v="survey"/>
  </way>
  <way id="22877055" version="7" timestamp="2009-08-31T16:45:29Z" uid="36809" user="pfoten_weg_!_" changeset="2328217">
    <nd ref="245947120"/>
    <nd ref="245947121"/>
    <nd ref="245947122"/>
    <nd ref="246676992"/>
    <nd ref="245947123"/>
    <nd ref="245947136"/>
    <nd ref="246676987"/>
    <nd ref="245947124"/>
    <nd ref="245947125"/>
    <nd ref="245947126"/>
    <nd ref="245947127"/>
    <nd ref="245947128"/>
    <nd ref="245947129"/>
    <nd ref="245947130"/>
    <nd ref="245947131"/>
    <nd ref="245947132"/>
    <nd ref="245947133"/>
    <nd ref="245947134"/>
    <nd ref="245947135"/>
    <tag k="highway" v="residential"/>
    <tag k="name" v="Schulstraße"/>
    <tag k="source" v="survey"/>
  </way>
  <way id="22877056" version="2" timestamp="2009-06-17T22:01:24Z" uid="36809" user="pfoten_weg_!_" changeset="1550007">
    <nd ref="245947136"/>
    <nd ref="245947137"/>
    <nd ref="245947138"/>
    <nd ref="245947142"/>
    <nd ref="245947144"/>
    <nd ref="245947145"/>
    <tag k="created_by" v="RambaZamba"/>
    <tag k="highway" v="residential"/>
    <tag k="name" v="Schulstraße"/>
  </way>
  <way id="22877056" version="4" timestamp="2009-08-28T22:19:09Z" uid="36809" user="pfoten_weg_!_" changeset="2295907">
    <nd ref="245947136"/>
    <nd ref="245947137"/>
    <nd ref="245947138"/>
    <nd ref="245947142"/>
    <nd ref="245947144"/>
    <nd ref="245947145"/>
    <tag k="discovered_by" v="RambaZamba"/>
    <tag k="highway" v="residential"/>
    <tag k="name" v="Schulstraße"/>
    <tag k="source" v="survey"/>
  </way>
  <way id="22877056" version="6" timestamp="2009-08-31T16:46:24Z" uid="36809" user="pfoten_weg_!_" changeset="2328217">
    <nd ref="245947136"/>
    <nd ref="245947137"/>
    <nd ref="245947138"/>
    <nd ref="245947142"/>
    <nd ref="245947144"/>
    <nd ref="245947145"/>
    <tag k="highway" v="residential"/>
    <tag k="name" v="Schulstraße"/>
    <tag k="source" v="survey"/>
  </way>
  <way id="22877102" version="18" timestamp="2010-12-19T23:53:19Z" uid="6269" user="Mueck" changeset="6711092">
    <nd ref="318011472"/>
    <nd ref="1050288952"/>
    <nd ref="245947140"/>
    <nd ref="245947601"/>
    <nd ref="318010982"/>
    <nd ref="245947602"/>
    <nd ref="318010846"/>
    <nd ref="318011098"/>
    <nd ref="658701498"/>
    <nd ref="1050288955"/>
    <nd ref="318009946"/>
    <nd ref="250849525"/>
    <nd ref="245947597"/>
    <nd ref="250849526"/>
    <nd ref="250849325"/>
    <tag k="highway" v="unclassified"/>
    <tag k="maxspeed" v="30"/>
    <tag k="name" v="Ringstraße"/>
    <tag k="surface" v="paved"/>
  </way>
  <way id="22877102" version="19" timestamp="2010-12-19T23:58:22Z" uid="6269" user="Mueck" changeset="6711092">
    <nd ref="318011472"/>
    <nd ref="1050288952"/>
    <nd ref="245947140"/>
    <nd ref="245947601"/>
    <nd ref="318010982"/>
    <nd ref="245947602"/>
    <nd ref="318010846"/>
    <nd ref="318011098"/>
    <nd ref="658701498"/>
    <nd ref="1050288955"/>
    <nd ref="318009946"/>
    <nd ref="250849525"/>
    <nd ref="1050297148"/>
    <nd ref="245947597"/>
    <nd ref="250849526"/>
    <nd ref="250849325"/>
    <tag k="highway" v="unclassified"/>
    <tag k="maxspeed" v="30"/>
    <tag k="name" v="Ringstraße"/>
    <tag k="surface" v="paved"/>
  </way>
  <way id="22877178" version="4" timestamp="2008-04-23T23:34:56Z" uid="6269" user="Mueck" changeset="241331">
    <nd ref="246683400"/>
    <nd ref="245948546"/>
    <nd ref="245948683"/>
    <nd ref="245948684"/>
    <nd ref="245948685"/>
    <nd ref="245948686"/>
    <nd ref="246628663"/>
    <nd ref="245948687"/>
    <nd ref="245948689"/>
    <nd ref="245948690"/>
    <nd ref="245948691"/>
    <nd ref="246683399"/>
    <tag k="created_by" v="Potlatch 0.8a"/>
    <tag k="highway" v="residential"/>
    <tag k="oneway" v="yes"/>
  </way>
  <way id="22877196" version="5" timestamp="2008-09-01T00:16:44Z" uid="6269" user="Mueck" changeset="487470">
    <nd ref="246627506"/>
    <nd ref="246627510"/>
    <tag k="created_by" v="Potlatch 0.10b"/>
    <tag k="highway" v="residential"/>
    <tag k="name" v="Waldstraße"/>
    <tag k="oneway" v="yes"/>
  </way>
  <way id="22877231" version="10" timestamp="2010-12-17T00:43:50Z" uid="6269" user="Mueck" changeset="6683028">
    <nd ref="245945966"/>
    <nd ref="1042023947"/>
    <nd ref="245945965"/>
    <nd ref="245945977"/>
    <nd ref="246099576"/>
    <nd ref="756583055"/>
    <nd ref="756583071"/>
    <nd ref="245945960"/>
    <tag k="highway" v="residential"/>
    <tag k="maxspeed" v="30"/>
    <tag k="name" v="Tannenbergstraße"/>
    <tag k="surface" v="paved"/>
  </way>
  <way id="22877249" version="11" timestamp="2010-12-17T00:43:50Z" uid="6269" user="Mueck" changeset="6683028">
    <nd ref="841989863"/>
    <nd ref="1042023965"/>
    <nd ref="1042024125"/>
    <nd ref="1042024049"/>
    <nd ref="245945966"/>
    <tag k="highway" v="residential"/>
    <tag k="maxspeed" v="30"/>
    <tag k="name" v="Allensteiner Straße"/>
    <tag k="surface" v="paved"/>
  </way>
  <way id="22877249" version="12" timestamp="2011-01-05T02:08:53Z" uid="6269" user="Mueck" changeset="6867970">
    <nd ref="841989863"/>
    <nd ref="1042023965"/>
    <nd ref="1042024125"/>
    <nd ref="1042024049"/>
    <tag k="highway" v="residential"/>
    <tag k="maxspeed" v="30"/>
    <tag k="name" v="Allensteiner Straße"/>
    <tag k="surface" v="paved"/>
  </way>
  <way id="22877249" version="13" timestamp="2011-01-05T02:09:21Z" uid="6269" user="Mueck" changeset="6867970">
    <nd ref="841989863"/>
    <nd ref="1042023965"/>
    <tag k="highway" v="residential"/>
    <tag k="maxspeed" v="30"/>
    <tag k="name" v="Allensteiner Straße"/>
    <tag k="surface" v="paved"/>
  </way>
  <way id="22877476" version="7" timestamp="2010-07-08T02:10:31Z" uid="74617" user="JohnSmith" changeset="5162525">
    <nd ref="245951786"/>
    <nd ref="245951831"/>
    <nd ref="245951893"/>
    <nd ref="245951833"/>
    <nd ref="245951788"/>
    <nd ref="245951905"/>
    <nd ref="245952103"/>
    <nd ref="245951789"/>
    <nd ref="245951790"/>
    <tag k="highway" v="residential"/>
    <tag k="maxspeed" v="50"/>
    <tag k="maxspeed:source" v="default residential speed limit in Australia"/>
    <tag k="name" v="Koala Road"/>
  </way>
  <way id="22877476" version="8" timestamp="2010-11-05T22:13:12Z" uid="7617" user="Franc" changeset="6298795">
    <nd ref="245951786"/>
    <nd ref="245951831"/>
    <nd ref="245951893"/>
    <nd ref="245951833"/>
    <nd ref="245951788"/>
    <nd ref="245951905"/>
    <nd ref="245952103"/>
    <nd ref="245951789"/>
    <nd ref="977983394"/>
    <nd ref="245951790"/>
    <tag k="highway" v="residential"/>
    <tag k="maxspeed" v="50"/>
    <tag k="maxspeed:source" v="default residential speed limit in Australia"/>
    <tag k="name" v="Koala Road"/>
  </way>
  <way id="22877477" version="4" timestamp="2010-01-10T08:04:44Z" uid="30201" user="rrankin" changeset="3584534">
    <nd ref="610758221"/>
    <nd ref="252701384"/>
    <nd ref="245951691"/>
    <tag k="highway" v="residential"/>
    <tag k="name" v="Koala Road"/>
  </way>
  <way id="22877477" version="5" timestamp="2010-07-08T02:13:17Z" uid="74617" user="JohnSmith" changeset="5162525">
    <nd ref="610758221"/>
    <nd ref="252701384"/>
    <nd ref="245951691"/>
    <tag k="highway" v="residential"/>
    <tag k="maxspeed" v="50"/>
    <tag k="maxspeed:source" v="default residential speed limit in Australia"/>
    <tag k="name" v="Koala Road"/>
  </way>
  <way id="22877480" version="4" timestamp="2010-03-31T10:28:56Z" uid="74617" user="JohnSmith" changeset="4284070">
    <nd ref="245951807"/>
    <nd ref="679066927"/>
    <nd ref="245951834"/>
    <nd ref="245951866"/>
    <nd ref="245951831"/>
    <tag k="highway" v="residential"/>
    <tag k="name" v="Plasto Street"/>
  </way>
  <way id="22877480" version="5" timestamp="2010-07-08T02:08:22Z" uid="74617" user="JohnSmith" changeset="5162525">
    <nd ref="245951807"/>
    <nd ref="679066927"/>
    <nd ref="245951834"/>
    <nd ref="245951866"/>
    <nd ref="245951831"/>
    <tag k="highway" v="residential"/>
    <tag k="maxspeed" v="50"/>
    <tag k="maxspeed:source" v="default residential speed limit in Australia"/>
    <tag k="name" v="Plasto Street"/>
  </way>
  <way id="22877481" version="5" timestamp="2010-07-08T02:11:14Z" uid="74617" user="JohnSmith" changeset="5162525">
    <nd ref="245951830"/>
    <nd ref="245951832"/>
    <nd ref="245951865"/>
    <nd ref="245951910"/>
    <nd ref="245951891"/>
    <nd ref="245951833"/>
    <tag k="highway" v="residential"/>
    <tag k="maxspeed" v="50"/>
    <tag k="maxspeed:source" v="default residential speed limit in Australia"/>
    <tag k="name" v="Pelman Avenue"/>
  </way>
  <way id="22877481" version="6" timestamp="2011-06-19T12:54:55Z" uid="7617" user="Franc" changeset="8483675">
    <nd ref="245951830"/>
    <nd ref="245951832"/>
    <tag k="highway" v="residential"/>
    <tag k="maxspeed" v="50"/>
    <tag k="maxspeed:source" v="default residential speed limit in Australia"/>
    <tag k="name" v="Pelman Avenue"/>
  </way>
  <way id="22877483" version="2" timestamp="2010-07-08T02:12:15Z" uid="74617" user="JohnSmith" changeset="5162525">
    <nd ref="245951834"/>
    <nd ref="245951865"/>
    <tag k="highway" v="residential"/>
    <tag k="maxspeed" v="50"/>
    <tag k="maxspeed:source" v="default residential speed limit in Australia"/>
    <tag k="name" v="Abel Avenue"/>
  </way>
  <way id="22877486" version="2" timestamp="2010-07-08T02:07:13Z" uid="74617" user="JohnSmith" changeset="5162525">
    <nd ref="245951890"/>
    <nd ref="245951893"/>
    <tag k="highway" v="residential"/>
    <tag k="maxspeed" v="50"/>
    <tag k="maxspeed:source" v="default residential speed limit in Australia"/>
    <tag k="name" v="Lima Street"/>
  </way>
  <way id="22877487" version="4" timestamp="2010-07-08T02:10:13Z" uid="74617" user="JohnSmith" changeset="5162525">
    <nd ref="245951894"/>
    <nd ref="245951904"/>
    <nd ref="245951950"/>
    <nd ref="245952136"/>
    <nd ref="245951905"/>
    <tag k="highway" v="residential"/>
    <tag k="maxspeed" v="50"/>
    <tag k="maxspeed:source" v="default residential speed limit in Australia"/>
    <tag k="name" v="Chaseling Street"/>
  </way>
  <way id="22877489" version="3" timestamp="2010-07-08T02:10:09Z" uid="74617" user="JohnSmith" changeset="5162525">
    <nd ref="245951950"/>
    <nd ref="245951891"/>
    <nd ref="245951890"/>
    <nd ref="245951866"/>
    <tag k="highway" v="residential"/>
    <tag k="maxspeed" v="50"/>
    <tag k="maxspeed:source" v="default residential speed limit in Australia"/>
    <tag k="name" v="Wales Street"/>
  </way>
  <way id="22877495" version="20" timestamp="2009-08-26T19:20:28Z" uid="36809" user="pfoten_weg_!_" changeset="2270948">
    <nd ref="245952000"/>
    <nd ref="462691937"/>
    <nd ref="248466537"/>
    <nd ref="292086508"/>
    <nd ref="248466538"/>
    <nd ref="248466539"/>
    <nd ref="248466540"/>
    <nd ref="427773927"/>
    <nd ref="292086675"/>
    <nd ref="248466541"/>
    <nd ref="248466542"/>
    <nd ref="248466543"/>
    <nd ref="248466544"/>
    <nd ref="248466545"/>
    <nd ref="248466546"/>
    <nd ref="248466547"/>
    <nd ref="248466548"/>
    <nd ref="248466549"/>
    <nd ref="248466550"/>
    <nd ref="292590698"/>
    <nd ref="248466551"/>
    <nd ref="248466552"/>
    <nd ref="436150419"/>
    <nd ref="436150420"/>
    <nd ref="248466553"/>
    <nd ref="248466554"/>
    <nd ref="76526996"/>
    <nd ref="436150421"/>
    <nd ref="436150422"/>
    <nd ref="76526997"/>
    <nd ref="292590674"/>
    <nd ref="436150423"/>
    <nd ref="436150424"/>
    <nd ref="436150425"/>
    <nd ref="436150426"/>
    <nd ref="76526998"/>
    <nd ref="436150614"/>
    <nd ref="76526999"/>
    <nd ref="436145563"/>
    <nd ref="76527000"/>
    <nd ref="436145564"/>
    <nd ref="436145565"/>
    <nd ref="436145566"/>
    <nd ref="436145567"/>
    <nd ref="76527001"/>
    <nd ref="292234179"/>
    <nd ref="76527002"/>
    <nd ref="76527003"/>
    <nd ref="278163173"/>
    <nd ref="436145568"/>
    <nd ref="436145569"/>
    <nd ref="436145570"/>
    <nd ref="76527005"/>
    <nd ref="436145571"/>
    <nd ref="436145572"/>
    <nd ref="436145573"/>
    <nd ref="76527006"/>
    <nd ref="436145574"/>
    <nd ref="76527007"/>
    <nd ref="332571196"/>
    <nd ref="76527008"/>
    <nd ref="436145575"/>
    <nd ref="315554955"/>
    <nd ref="76527009"/>
    <nd ref="436145576"/>
    <nd ref="436145577"/>
    <nd ref="436145578"/>
    <nd ref="332565142"/>
    <nd ref="76527010"/>
    <nd ref="76527011"/>
    <nd ref="432433066"/>
    <nd ref="432433067"/>
    <nd ref="432433068"/>
    <nd ref="76527012"/>
    <nd ref="310929452"/>
    <tag k="highway" v="tertiary"/>
    <tag k="name" v="Vagener Straße"/>
    <tag k="ref" v="RO 13"/>
  </way>
  <way id="22877509" version="2" timestamp="2008-05-25T04:10:45Z" uid="30201" user="rrankin" changeset="514315">
    <nd ref="245952125"/>
    <nd ref="245952126"/>
    <nd ref="29375502"/>
    <tag k="created_by" v="Potlatch 0.7"/>
    <tag k="highway" v="residential"/>
    <tag k="name" v="Macquarie Street"/>
  </way>
  <way id="22877509" version="3" timestamp="2010-07-08T02:09:38Z" uid="74617" user="JohnSmith" changeset="5162525">
    <nd ref="245952125"/>
    <nd ref="245952126"/>
    <nd ref="29375502"/>
    <tag k="highway" v="residential"/>
    <tag k="maxspeed" v="50"/>
    <tag k="maxspeed:source" v="default residential speed limit in Australia"/>
    <tag k="name" v="Macquarie Street"/>
  </way>
  <way id="22877509" version="4" timestamp="2010-11-05T22:12:53Z" uid="7617" user="Franc" changeset="6298795">
    <nd ref="245952125"/>
    <nd ref="245952126"/>
    <nd ref="977983526"/>
    <nd ref="29375502"/>
    <tag k="highway" v="residential"/>
    <tag k="maxspeed" v="50"/>
    <tag k="maxspeed:source" v="default residential speed limit in Australia"/>
    <tag k="name" v="Macquarie Street"/>
  </way>
  <way id="22877510" version="4" timestamp="2010-07-08T02:07:38Z" uid="74617" user="JohnSmith" changeset="5162525">
    <nd ref="245952103"/>
    <nd ref="245952149"/>
    <nd ref="245952127"/>
    <nd ref="245952128"/>
    <tag k="highway" v="residential"/>
    <tag k="maxspeed" v="50"/>
    <tag k="maxspeed:source" v="default residential speed limit in Australia"/>
    <tag k="name" v="Macquarie Street"/>
  </way>
  <way id="22877510" version="5" timestamp="2010-11-05T22:13:01Z" uid="7617" user="Franc" changeset="6298795">
    <nd ref="245952103"/>
    <nd ref="977983312"/>
    <nd ref="245952149"/>
    <nd ref="245952127"/>
    <nd ref="245952128"/>
    <tag k="highway" v="residential"/>
    <tag k="maxspeed" v="50"/>
    <tag k="maxspeed:source" v="default residential speed limit in Australia"/>
    <tag k="name" v="Macquarie Street"/>
  </way>
  <way id="22877513" version="3" timestamp="2010-07-08T02:07:23Z" uid="74617" user="JohnSmith" changeset="5162525">
    <nd ref="245952136"/>
    <nd ref="245952149"/>
    <nd ref="245952150"/>
    <nd ref="245952540"/>
    <nd ref="245952151"/>
    <tag k="highway" v="residential"/>
    <tag k="maxspeed" v="50"/>
    <tag k="maxspeed:source" v="default residential speed limit in Australia"/>
    <tag k="name" v="Skyline Street"/>
  </way>
  <way id="22877513" version="4" timestamp="2010-11-05T22:12:56Z" uid="7617" user="Franc" changeset="6298795">
    <nd ref="245952136"/>
    <nd ref="245952149"/>
    <nd ref="977983676"/>
    <tag k="highway" v="residential"/>
    <tag k="maxspeed" v="50"/>
    <tag k="maxspeed:source" v="default residential speed limit in Australia"/>
    <tag k="name" v="Skyline Street"/>
  </way>
  <way id="22877516" version="5" timestamp="2010-07-08T02:09:22Z" uid="74617" user="JohnSmith" changeset="5162525">
    <nd ref="26428516"/>
    <nd ref="245952170"/>
    <nd ref="245952150"/>
    <nd ref="245952171"/>
    <nd ref="245952183"/>
    <tag k="highway" v="residential"/>
    <tag k="maxspeed" v="50"/>
    <tag k="maxspeed:source" v="default residential speed limit in Australia"/>
    <tag k="name" v="Wangee Road"/>
  </way>
  <way id="22877516" version="6" timestamp="2010-11-05T22:12:51Z" uid="7617" user="Franc" changeset="6298795">
    <nd ref="26428516"/>
    <nd ref="977983335"/>
    <nd ref="977983587"/>
    <nd ref="245952170"/>
    <nd ref="977983247"/>
    <tag k="highway" v="residential"/>
    <tag k="maxspeed" v="50"/>
    <tag k="maxspeed:source" v="default residential speed limit in Australia"/>
    <tag k="name" v="Wangee Road"/>
  </way>
  <way id="22877524" version="2" timestamp="2008-04-22T01:27:51Z" uid="30201" user="rrankin" changeset="219241"/>
  <way id="22877537" version="3" timestamp="2010-07-08T02:07:51Z" uid="74617" user="JohnSmith" changeset="5162525">
    <nd ref="26428330"/>
    <nd ref="245952539"/>
    <nd ref="245952540"/>
    <nd ref="245952541"/>
    <tag k="highway" v="residential"/>
    <tag k="maxspeed" v="50"/>
    <tag k="maxspeed:source" v="default residential speed limit in Australia"/>
    <tag k="name" v="Wilbur Street"/>
  </way>
  <way id="22877537" version="4" timestamp="2010-11-05T22:12:56Z" uid="7617" user="Franc" changeset="6298795">
    <nd ref="26428330"/>
    <nd ref="977983317"/>
    <nd ref="977983522"/>
    <nd ref="245952539"/>
    <nd ref="245952540"/>
    <nd ref="245952541"/>
    <tag k="highway" v="residential"/>
    <tag k="maxspeed" v="50"/>
    <tag k="maxspeed:source" v="default residential speed limit in Australia"/>
    <tag k="name" v="Wilbur Street"/>
  </way>
  <way id="22877556" version="10" timestamp="2010-01-10T06:40:25Z" uid="30201" user="rrankin" changeset="3584320">
    <nd ref="242707782"/>
    <nd ref="245952869"/>
    <nd ref="245952993"/>
    <nd ref="245952963"/>
    <nd ref="610745850"/>
    <tag k="highway" v="tertiary"/>
    <tag k="lcn" v="yes"/>
    <tag k="name" v="Yangoora Road"/>
    <tag k="source" v="survey"/>
  </way>
  <way id="22877556" version="11" timestamp="2011-05-01T11:08:21Z" uid="7617" user="Franc" changeset="8019962">
    <nd ref="1268688849"/>
    <nd ref="1268688829"/>
    <tag k="highway" v="tertiary"/>
    <tag k="lcn" v="yes"/>
    <tag k="name" v="Yangoora Road"/>
    <tag k="restriction" v="school_zone"/>
    <tag k="source" v="survey"/>
  </way>
  <way id="22877559" version="2" timestamp="2010-02-01T12:10:01Z" uid="7617" user="Franc" changeset="3766993">
    <nd ref="245952838"/>
    <nd ref="625393884"/>
    <tag k="highway" v="residential"/>
    <tag k="name" v="Garrong Road"/>
    <tag k="restriction" v="school_zone"/>
  </way>
  <way id="22877559" version="3" timestamp="2010-07-08T02:08:26Z" uid="74617" user="JohnSmith" changeset="5162525">
    <nd ref="245952838"/>
    <nd ref="625393884"/>
    <tag k="highway" v="residential"/>
    <tag k="maxspeed" v="50"/>
    <tag k="maxspeed:source" v="default residential speed limit in Australia"/>
    <tag k="name" v="Garrong Road"/>
    <tag k="restriction" v="school_zone"/>
  </way>
  <way id="22877563" version="3" timestamp="2010-02-01T12:10:00Z" uid="7617" user="Franc" changeset="3766993">
    <nd ref="245952884"/>
    <nd ref="625393883"/>
    <tag k="highway" v="residential"/>
    <tag k="name" v="Yerrick Road"/>
    <tag k="restriction" v="school_zone"/>
  </way>
  <way id="22877563" version="4" timestamp="2010-07-08T02:13:05Z" uid="74617" user="JohnSmith" changeset="5162525">
    <nd ref="245952884"/>
    <nd ref="625393883"/>
    <tag k="highway" v="residential"/>
    <tag k="maxspeed" v="50"/>
    <tag k="maxspeed:source" v="default residential speed limit in Australia"/>
    <tag k="name" v="Yerrick Road"/>
    <tag k="restriction" v="school_zone"/>
  </way>
  <way id="22877577" version="2" timestamp="2008-10-24T12:53:58Z" uid="9581" user="Lobelt" changeset="551650"/>
  <way id="22877578" version="2" timestamp="2008-10-24T12:53:48Z" uid="9581" user="Lobelt" changeset="551650">
    <nd ref="245952746"/>
    <nd ref="245952710"/>
    <tag k="created_by" v="JOSM"/>
    <tag k="highway" v="footway"/>
  </way>
  <way id="22877579" version="3" timestamp="2010-02-07T18:21:38Z" uid="9581" user="Lobelt" changeset="3817320">
    <nd ref="245952811"/>
    <nd ref="282510402"/>
    <tag k="highway" v="residential"/>
    <tag k="name" v="Neue Straße"/>
  </way>
  <way id="22877587" version="2" timestamp="2010-07-08T02:13:33Z" uid="74617" user="JohnSmith" changeset="5162525">
    <nd ref="245952977"/>
    <nd ref="245952809"/>
    <tag k="highway" v="residential"/>
    <tag k="maxspeed" v="50"/>
    <tag k="maxspeed:source" v="default residential speed limit in Australia"/>
    <tag k="name" v="Barremma Road"/>
  </way>
  <way id="22877592" version="3" timestamp="2010-07-08T02:12:15Z" uid="74617" user="JohnSmith" changeset="5162525">
    <nd ref="245952993"/>
    <nd ref="245953023"/>
    <nd ref="245952994"/>
    <tag k="highway" v="residential"/>
    <tag k="maxspeed" v="50"/>
    <tag k="maxspeed:source" v="default residential speed limit in Australia"/>
    <tag k="name" v="Boorea Avenue"/>
  </way>
  <way id="22877595" version="5" timestamp="2010-02-01T13:48:04Z" uid="7617" user="Franc" changeset="3767712">
    <nd ref="245952808"/>
    <nd ref="245953030"/>
    <nd ref="245953069"/>
    <nd ref="245953021"/>
    <nd ref="625581428"/>
    <nd ref="36594104"/>
    <tag k="highway" v="residential"/>
    <tag k="name" v="Yerrick Avenue"/>
  </way>
  <way id="22877595" version="6" timestamp="2010-07-08T02:09:26Z" uid="74617" user="JohnSmith" changeset="5162525">
    <nd ref="245952808"/>
    <nd ref="245953030"/>
    <nd ref="245953069"/>
    <nd ref="245953021"/>
    <nd ref="625581428"/>
    <nd ref="36594104"/>
    <tag k="highway" v="residential"/>
    <tag k="maxspeed" v="50"/>
    <tag k="maxspeed:source" v="default residential speed limit in Australia"/>
    <tag k="name" v="Yerrick Avenue"/>
  </way>
  <way id="22877596" version="2" timestamp="2010-07-08T02:10:14Z" uid="74617" user="JohnSmith" changeset="5162525">
    <nd ref="245953021"/>
    <nd ref="245953022"/>
    <tag k="highway" v="residential"/>
    <tag k="maxspeed" v="50"/>
    <tag k="maxspeed:source" v="default residential speed limit in Australia"/>
    <tag k="name" v="Frazer Street"/>
  </way>
  <way id="22877596" version="3" timestamp="2011-05-01T11:08:17Z" uid="7617" user="Franc" changeset="8019962">
    <nd ref="245953021"/>
    <nd ref="1268688810"/>
    <nd ref="245953022"/>
    <tag k="highway" v="residential"/>
    <tag k="maxspeed" v="50"/>
    <tag k="maxspeed:source" v="default residential speed limit in Australia"/>
    <tag k="name" v="Frazer Street"/>
  </way>
  <way id="22877598" version="2" timestamp="2010-07-08T02:11:15Z" uid="74617" user="JohnSmith" changeset="5162525">
    <nd ref="245953023"/>
    <nd ref="245953030"/>
    <tag k="highway" v="residential"/>
    <tag k="maxspeed" v="50"/>
    <tag k="maxspeed:source" v="default residential speed limit in Australia"/>
    <tag k="name" v="Merrick Avenue"/>
  </way>
  <way id="22877602" version="7" timestamp="2010-07-08T02:12:11Z" uid="74617" user="JohnSmith" changeset="5162525">
    <nd ref="242705095"/>
    <nd ref="246190250"/>
    <nd ref="246190255"/>
    <nd ref="245953096"/>
    <nd ref="245953055"/>
    <tag k="highway" v="residential"/>
    <tag k="maxspeed" v="50"/>
    <tag k="maxspeed:source" v="default residential speed limit in Australia"/>
    <tag k="name" v="Benaroon Road"/>
  </way>
  <way id="22877603" version="3" timestamp="2010-07-08T02:08:17Z" uid="74617" user="JohnSmith" changeset="5162525">
    <nd ref="245953069"/>
    <nd ref="245953086"/>
    <nd ref="245953071"/>
    <tag k="highway" v="residential"/>
    <tag k="maxspeed" v="50"/>
    <tag k="maxspeed:source" v="default residential speed limit in Australia"/>
    <tag k="name" v="Pettit Avenue"/>
  </way>
  <way id="22877605" version="2" timestamp="2010-07-08T02:11:57Z" uid="74617" user="JohnSmith" changeset="5162525">
    <nd ref="245953083"/>
    <nd ref="245953084"/>
    <nd ref="245953085"/>
    <nd ref="245953086"/>
    <tag k="highway" v="residential"/>
    <tag k="maxspeed" v="50"/>
    <tag k="maxspeed:source" v="default residential speed limit in Australia"/>
    <tag k="name" v="Vivienne Avenue"/>
  </way>
  <way id="22877611" version="7" timestamp="2010-01-10T06:40:34Z" uid="30201" user="rrankin" changeset="3584320"/>
  <way id="22877627" version="2" timestamp="2010-07-08T02:38:50Z" uid="74617" user="JohnSmith" changeset="5163091">
    <nd ref="245953171"/>
    <nd ref="245953173"/>
    <nd ref="245953174"/>
    <tag k="highway" v="residential"/>
    <tag k="maxspeed" v="50"/>
    <tag k="maxspeed:source" v="default residential speed limit in Australia"/>
    <tag k="name" v="Minnie Street"/>
  </way>
  <way id="22877627" version="3" timestamp="2010-11-07T02:26:50Z" uid="7617" user="Franc" changeset="6307951">
    <nd ref="245953171"/>
    <nd ref="245953173"/>
    <nd ref="980011520"/>
    <nd ref="980011370"/>
    <nd ref="245953174"/>
    <tag k="highway" v="residential"/>
    <tag k="maxspeed" v="50"/>
    <tag k="maxspeed:source" v="default residential speed limit in Australia"/>
    <tag k="name" v="Minnie Street"/>
  </way>
  <way id="22877628" version="2" timestamp="2010-07-08T02:39:18Z" uid="74617" user="JohnSmith" changeset="5163091">
    <nd ref="245953175"/>
    <nd ref="245953174"/>
    <nd ref="245953181"/>
    <nd ref="245953182"/>
    <tag k="highway" v="residential"/>
    <tag k="maxspeed" v="50"/>
    <tag k="maxspeed:source" v="default residential speed limit in Australia"/>
    <tag k="name" v="Hugh Street"/>
  </way>
  <way id="22877628" version="3" timestamp="2010-11-07T02:26:48Z" uid="7617" user="Franc" changeset="6307951">
    <nd ref="245953175"/>
    <nd ref="245953174"/>
    <nd ref="245953181"/>
    <nd ref="980011428"/>
    <nd ref="980011471"/>
    <nd ref="245953182"/>
    <tag k="highway" v="residential"/>
    <tag k="maxspeed" v="50"/>
    <tag k="maxspeed:source" v="default residential speed limit in Australia"/>
    <tag k="name" v="Hugh Street"/>
  </way>
  <way id="22877631" version="3" timestamp="2010-01-10T06:40:20Z" uid="30201" user="rrankin" changeset="3584320">
    <nd ref="245953183"/>
    <nd ref="245953182"/>
    <nd ref="245953194"/>
    <nd ref="245953195"/>
    <nd ref="245953196"/>
    <nd ref="245953247"/>
    <nd ref="245953197"/>
    <tag k="highway" v="residential"/>
    <tag k="name" v="Knox Street"/>
  </way>
  <way id="22877631" version="4" timestamp="2010-01-31T03:41:26Z" uid="7617" user="Franc" changeset="3756241">
    <nd ref="245953183"/>
    <nd ref="245953182"/>
    <nd ref="245953194"/>
    <nd ref="623808123"/>
    <nd ref="245953195"/>
    <nd ref="245953196"/>
    <nd ref="245953247"/>
    <nd ref="245953197"/>
    <tag k="highway" v="residential"/>
    <tag k="name" v="Knox Street"/>
  </way>
  <way id="22877631" version="5" timestamp="2010-07-08T02:10:27Z" uid="74617" user="JohnSmith" changeset="5162525">
    <nd ref="245953183"/>
    <nd ref="245953182"/>
    <nd ref="245953194"/>
    <nd ref="623808123"/>
    <nd ref="245953195"/>
    <nd ref="245953196"/>
    <nd ref="245953247"/>
    <nd ref="245953197"/>
    <tag k="highway" v="residential"/>
    <tag k="maxspeed" v="50"/>
    <tag k="maxspeed:source" v="default residential speed limit in Australia"/>
    <tag k="name" v="Knox Street"/>
  </way>
  <way id="22877633" version="2" timestamp="2010-07-08T02:33:29Z" uid="74617" user="JohnSmith" changeset="5163091">
    <nd ref="245953196"/>
    <nd ref="245953199"/>
    <tag k="highway" v="residential"/>
    <tag k="maxspeed" v="50"/>
    <tag k="maxspeed:source" v="default residential speed limit in Australia"/>
    <tag k="name" v="Walker Street"/>
  </way>
  <way id="22877635" version="2" timestamp="2010-07-08T02:11:21Z" uid="74617" user="JohnSmith" changeset="5162525">
    <nd ref="245953215"/>
    <nd ref="245953246"/>
    <nd ref="245953247"/>
    <tag k="highway" v="residential"/>
    <tag k="maxspeed" v="50"/>
    <tag k="maxspeed:source" v="default residential speed limit in Australia"/>
    <tag k="name" v="Lucerne Street"/>
  </way>
  <way id="22877638" version="2" timestamp="2010-01-10T06:40:26Z" uid="30201" user="rrankin" changeset="3584320">
    <nd ref="245953246"/>
    <nd ref="610745862"/>
    <tag k="highway" v="residential"/>
    <tag k="name" v="Neale Street"/>
  </way>
  <way id="22877638" version="3" timestamp="2010-07-08T02:13:10Z" uid="74617" user="JohnSmith" changeset="5162525">
    <nd ref="245953246"/>
    <nd ref="610745862"/>
    <tag k="highway" v="residential"/>
    <tag k="maxspeed" v="50"/>
    <tag k="maxspeed:source" v="default residential speed limit in Australia"/>
    <tag k="name" v="Neale Street"/>
  </way>
  <way id="22877717" version="4" timestamp="2011-05-07T01:55:32Z" uid="23543" user="jkjk" changeset="8070214">
    <nd ref="245953400"/>
    <nd ref="245953401"/>
    <nd ref="245954870"/>
    <nd ref="245955021"/>
    <nd ref="245955022"/>
    <nd ref="1275217122"/>
    <nd ref="1275216965"/>
    <nd ref="1275216856"/>
    <nd ref="1275216817"/>
    <tag k="highway" v="trunk"/>
    <tag k="name" v="Baghdad-Karbala road"/>
  </way>
  <way id="22877739" version="9" timestamp="2008-12-01T11:52:49Z" uid="6269" user="Mueck" changeset="7888">
    <nd ref="245480665"/>
    <nd ref="245481464"/>
    <nd ref="245481465"/>
    <nd ref="245481466"/>
    <nd ref="245451428"/>
    <nd ref="245451427"/>
    <nd ref="245451426"/>
    <nd ref="245481467"/>
    <nd ref="248572330"/>
    <nd ref="245481468"/>
    <nd ref="245481469"/>
    <nd ref="245481470"/>
    <nd ref="245481471"/>
    <nd ref="245481472"/>
    <nd ref="260355252"/>
    <nd ref="245946394"/>
    <nd ref="245481473"/>
    <nd ref="260355249"/>
    <nd ref="245775871"/>
    <nd ref="245394480"/>
    <nd ref="245000221"/>
    <nd ref="50876036"/>
    <nd ref="50876039"/>
    <nd ref="50876043"/>
    <nd ref="245481474"/>
    <nd ref="245481475"/>
    <nd ref="251978716"/>
    <nd ref="245481476"/>
    <tag k="admin_level" v="8"/>
    <tag k="boundary" v="administrative"/>
    <tag k="left:city" v="Niederkassel"/>
    <tag k="left:suburb" v="Mondorf"/>
    <tag k="note" v="neuer level nach DE:Grenze"/>
    <tag k="right:city" v="Troisdorf"/>
    <tag k="right:suburb" v="Bergheim"/>
  </way>
  <way id="22877739" version="10" timestamp="2008-12-01T11:57:58Z" uid="6269" user="Mueck" changeset="7888">
    <nd ref="30457700"/>
    <nd ref="245480665"/>
    <nd ref="245480665"/>
    <nd ref="245481464"/>
    <nd ref="245481465"/>
    <nd ref="245481466"/>
    <nd ref="245451428"/>
    <nd ref="245451427"/>
    <nd ref="245451426"/>
    <nd ref="245481467"/>
    <nd ref="248572330"/>
    <nd ref="245481468"/>
    <nd ref="245481469"/>
    <nd ref="245481470"/>
    <nd ref="245481471"/>
    <nd ref="245481472"/>
    <nd ref="260355252"/>
    <nd ref="245946394"/>
    <nd ref="245481473"/>
    <nd ref="260355249"/>
    <nd ref="245775871"/>
    <nd ref="245394480"/>
    <nd ref="245000221"/>
    <nd ref="50876036"/>
    <nd ref="50876039"/>
    <nd ref="50876043"/>
    <nd ref="245481474"/>
    <nd ref="245481475"/>
    <nd ref="251978716"/>
    <nd ref="245481476"/>
    <tag k="admin_level" v="8"/>
    <tag k="boundary" v="administrative"/>
    <tag k="left:city" v="Niederkassel"/>
    <tag k="left:suburb" v="Mondorf"/>
    <tag k="note" v="neuer level nach DE:Grenze"/>
    <tag k="right:city" v="Troisdorf"/>
    <tag k="right:suburb" v="Bergheim"/>
  </way>
</osm>
