<?xml version='1.0' encoding='UTF-8'?>
<osm version="0.6" generator="libosmium/2.20.0">
  <way id="22895213" version="2" timestamp="2010-07-07T09:03:09Z" uid="74617" user="JohnSmith" changeset="5156250">
    <nd ref="33031175"/>
    <nd ref="33031866"/>
    <nd ref="33031867"/>
    <nd ref="33031868"/>
    <nd ref="33031869"/>
    <nd ref="33031870"/>
    <nd ref="33031871"/>
    <nd ref="32948154"/>
    <tag k="highway" v="residential"/>
    <tag k="maxspeed" v="50"/>
    <tag k="maxspeed:source" v="default residential speed limit in Australia"/>
    <tag k="name" v="Mugga Way"/>
  </way>
  <way id="22895234" version="1" timestamp="2008-02-07T12:48:08Z" uid="7346" user="user_7346" changeset="66739">
    <nd ref="26104475"/>
    <nd ref="246470306"/>
    <tag k="created_by" v="JOSM"/>
    <tag k="highway" v="unclassified"/>
  </way>
  <way id="22895247" version="7" timestamp="2009-08-03T13:34:22Z" uid="4467" user="Rosscoe" changeset="2025552">
    <nd ref="246111978"/>
    <nd ref="246470942"/>
    <nd ref="246470943"/>
    <nd ref="247141302"/>
    <nd ref="246470944"/>
    <nd ref="246470945"/>
    <tag k="highway" v="trunk_link"/>
    <tag k="oneway" v="yes"/>
  </way>
  <way id="22895293" version="3" timestamp="2009-06-28T23:08:37Z" uid="23543" user="jkjk" changeset="1670042">
    <nd ref="246471769"/>
    <nd ref="246471753"/>
    <nd ref="246471775"/>
    <nd ref="246471771"/>
    <nd ref="246471772"/>
    <nd ref="246471774"/>
    <nd ref="319440817"/>
    <nd ref="319440815"/>
    <nd ref="430538997"/>
    <nd ref="430538998"/>
    <nd ref="430538999"/>
    <nd ref="430538996"/>
    <tag k="created_by" v="JOSM"/>
    <tag k="highway" v="residential"/>
  </way>
  <way id="22895293" version="5" timestamp="2011-01-28T19:23:19Z" uid="23543" user="jkjk" changeset="7116048">
    <nd ref="246471769"/>
    <nd ref="1125255110"/>
    <nd ref="246471753"/>
    <nd ref="246471775"/>
    <nd ref="246471771"/>
    <nd ref="246471772"/>
    <nd ref="246471774"/>
    <nd ref="319440815"/>
    <nd ref="430538997"/>
    <nd ref="430538998"/>
    <nd ref="430538996"/>
    <tag k="highway" v="residential"/>
  </way>
  <way id="22895300" version="3" timestamp="2009-07-19T06:00:48Z" uid="7617" user="Franc" changeset="1869567">
    <nd ref="241913421"/>
    <nd ref="241913422"/>
    <nd ref="241913424"/>
    <nd ref="241913425"/>
    <nd ref="241913428"/>
    <nd ref="241914160"/>
    <nd ref="241913431"/>
    <nd ref="241914126"/>
    <nd ref="241913434"/>
    <nd ref="241913435"/>
    <nd ref="241913436"/>
    <nd ref="241913438"/>
    <nd ref="241913441"/>
    <nd ref="246471943"/>
    <nd ref="443604756"/>
    <tag k="created_by" v="Potlatch 0.10f"/>
    <tag k="highway" v="residential"/>
    <tag k="name" v="John Street"/>
  </way>
  <way id="22895300" version="4" timestamp="2010-07-08T01:43:42Z" uid="74617" user="JohnSmith" changeset="5162525">
    <nd ref="241913421"/>
    <nd ref="241913422"/>
    <nd ref="241913424"/>
    <nd ref="241913425"/>
    <nd ref="241913428"/>
    <nd ref="241914160"/>
    <nd ref="241913431"/>
    <nd ref="241914126"/>
    <nd ref="241913434"/>
    <nd ref="241913435"/>
    <nd ref="241913436"/>
    <nd ref="241913438"/>
    <nd ref="241913441"/>
    <nd ref="246471943"/>
    <nd ref="443604756"/>
    <tag k="highway" v="residential"/>
    <tag k="maxspeed" v="50"/>
    <tag k="maxspeed:source" v="default residential speed limit in Australia"/>
    <tag k="name" v="John Street"/>
  </way>
  <way id="22895302" version="3" timestamp="2010-12-27T10:17:32Z" uid="7617" user="Franc" changeset="6775930">
    <nd ref="241913441"/>
    <nd ref="55900582"/>
    <nd ref="55900583"/>
    <nd ref="1067429190"/>
    <nd ref="55900584"/>
    <nd ref="55900587"/>
    <tag k="fixme:sign:no" v="2010-12-27"/>
    <tag k="highway" v="service"/>
  </way>
  <way id="22895319" version="2" timestamp="2008-05-10T07:31:05Z" uid="6975" user="ulfl" changeset="391357">
    <nd ref="246397923"/>
    <nd ref="246472343"/>
    <nd ref="263155935"/>
    <nd ref="263155937"/>
    <tag k="created_by" v="JOSM"/>
    <tag k="highway" v="secondary"/>
  </way>
  <way id="22895420" version="10" timestamp="2008-08-14T20:12:28Z" uid="6975" user="ulfl" changeset="264731">
    <nd ref="181299199"/>
    <nd ref="181299198"/>
    <nd ref="181299197"/>
    <nd ref="181299196"/>
    <nd ref="181299195"/>
    <nd ref="181299194"/>
    <nd ref="181299193"/>
    <nd ref="181299192"/>
    <nd ref="181299191"/>
    <nd ref="181299190"/>
    <nd ref="193727302"/>
    <nd ref="181299189"/>
    <nd ref="181299188"/>
    <nd ref="181299187"/>
    <nd ref="181299186"/>
    <nd ref="181299185"/>
    <nd ref="181299395"/>
    <nd ref="181298997"/>
    <nd ref="181298996"/>
    <nd ref="181298995"/>
    <nd ref="181298994"/>
    <nd ref="181298993"/>
    <nd ref="181298992"/>
    <nd ref="181298991"/>
    <nd ref="181298990"/>
    <nd ref="181298989"/>
    <nd ref="181298988"/>
    <nd ref="181298987"/>
    <nd ref="181298986"/>
    <nd ref="181298985"/>
    <nd ref="181298984"/>
    <nd ref="181298983"/>
    <nd ref="181298982"/>
    <nd ref="181298981"/>
    <nd ref="181298980"/>
    <nd ref="181298979"/>
    <nd ref="181298978"/>
    <nd ref="181298977"/>
    <nd ref="181298976"/>
    <nd ref="181298975"/>
    <nd ref="181298974"/>
    <nd ref="181298973"/>
    <nd ref="181298972"/>
    <nd ref="181298971"/>
    <nd ref="181298970"/>
    <nd ref="181298969"/>
    <nd ref="181298968"/>
    <nd ref="181298967"/>
    <tag k="highway" v="primary"/>
    <tag k="int_ref" v="E90"/>
    <tag k="ref" v="EO20"/>
  </way>
  <way id="22895517" version="29" timestamp="2009-08-03T19:36:27Z" uid="4467" user="Rosscoe" changeset="2029470">
    <nd ref="246478765"/>
    <nd ref="246713826"/>
    <nd ref="90046125"/>
    <nd ref="246479983"/>
    <nd ref="90046116"/>
    <nd ref="246479982"/>
    <nd ref="90046099"/>
    <nd ref="90046085"/>
    <nd ref="246480032"/>
    <nd ref="90046069"/>
    <nd ref="246846883"/>
    <tag k="highway" v="trunk"/>
    <tag k="lanes" v="2"/>
    <tag k="maxspeed" v="60"/>
    <tag k="name" v="Salisbury Highway"/>
    <tag k="oneway" v="yes"/>
    <tag k="ref" v="A13"/>
    <tag k="source" v="survey"/>
  </way>
  <way id="22895542" version="5" timestamp="2010-04-02T03:53:33Z" uid="74617" user="JohnSmith" changeset="4299895">
    <nd ref="32866348"/>
    <nd ref="32866350"/>
    <nd ref="32866351"/>
    <nd ref="33861131"/>
    <nd ref="33861135"/>
    <nd ref="33861137"/>
    <nd ref="33861139"/>
    <nd ref="33861143"/>
    <nd ref="681089160"/>
    <nd ref="681089155"/>
    <tag k="highway" v="secondary"/>
    <tag k="maxspeed" v="80"/>
    <tag k="name" v="William Slim Drive"/>
    <tag k="oneway" v="yes"/>
    <tag k="source" v="yahoo_imagery"/>
  </way>
  <way id="22895569" version="26" timestamp="2010-02-15T05:23:21Z" uid="74617" user="JohnSmith" changeset="3880269">
    <nd ref="268722665"/>
    <nd ref="342973374"/>
    <nd ref="342973398"/>
    <nd ref="577454061"/>
    <tag k="highway" v="residential"/>
    <tag k="maxspeed" v="50"/>
    <tag k="name" v="Saturn Crescent"/>
  </way>
  <way id="22895569" version="27" timestamp="2010-05-05T01:04:24Z" uid="4467" user="Rosscoe" changeset="4609452">
    <nd ref="247137871"/>
    <nd ref="342973374"/>
    <nd ref="342973398"/>
    <nd ref="577454061"/>
    <tag k="highway" v="residential"/>
    <tag k="maxspeed" v="50"/>
    <tag k="name" v="Saturn Crescent"/>
  </way>
  <way id="22895570" version="4" timestamp="2010-02-15T05:22:58Z" uid="74617" user="JohnSmith" changeset="3880269">
    <nd ref="246477476"/>
    <nd ref="246477518"/>
    <nd ref="246477521"/>
    <nd ref="246477542"/>
    <nd ref="246477544"/>
    <nd ref="246477524"/>
    <nd ref="246477527"/>
    <nd ref="246477529"/>
    <nd ref="246477533"/>
    <nd ref="246477536"/>
    <nd ref="269111308"/>
    <tag k="highway" v="residential"/>
    <tag k="maxspeed" v="50"/>
    <tag k="name" v="Constellation Crescent"/>
  </way>
  <way id="22895571" version="2" timestamp="2010-02-15T05:23:13Z" uid="74617" user="JohnSmith" changeset="3880269">
    <nd ref="246477518"/>
    <nd ref="246477588"/>
    <nd ref="246477584"/>
    <nd ref="246477582"/>
    <tag k="highway" v="residential"/>
    <tag k="maxspeed" v="50"/>
    <tag k="name" v="Shuttle Place"/>
  </way>
  <way id="22895572" version="2" timestamp="2010-02-15T05:23:13Z" uid="74617" user="JohnSmith" changeset="3880269">
    <nd ref="246477579"/>
    <nd ref="246477576"/>
    <nd ref="246477572"/>
    <nd ref="246477567"/>
    <tag k="highway" v="residential"/>
    <tag k="maxspeed" v="50"/>
    <tag k="name" v="Capricorn Place"/>
  </way>
  <way id="22895573" version="2" timestamp="2010-02-15T05:23:13Z" uid="74617" user="JohnSmith" changeset="3880269">
    <nd ref="246477569"/>
    <nd ref="246477567"/>
    <tag k="highway" v="residential"/>
    <tag k="maxspeed" v="50"/>
    <tag k="name" v="Orion Place"/>
  </way>
  <way id="22895575" version="2" timestamp="2010-02-15T05:23:13Z" uid="74617" user="JohnSmith" changeset="3880269">
    <nd ref="246477567"/>
    <nd ref="246477564"/>
    <nd ref="246477527"/>
    <tag k="highway" v="residential"/>
    <tag k="maxspeed" v="50"/>
    <tag k="name" v="Orion Place"/>
  </way>
  <way id="22895576" version="3" timestamp="2010-02-15T05:23:20Z" uid="74617" user="JohnSmith" changeset="3880269">
    <nd ref="246477550"/>
    <nd ref="246477554"/>
    <nd ref="246477557"/>
    <nd ref="246477536"/>
    <tag k="highway" v="residential"/>
    <tag k="maxspeed" v="50"/>
    <tag k="name" v="Scorpio Place"/>
  </way>
  <way id="22895592" version="3" timestamp="2010-04-02T03:53:33Z" uid="74617" user="JohnSmith" changeset="4299895">
    <nd ref="12657793"/>
    <nd ref="12657799"/>
    <nd ref="33861736"/>
    <nd ref="12657802"/>
    <nd ref="12657804"/>
    <nd ref="12657805"/>
    <nd ref="681089165"/>
    <nd ref="681089167"/>
    <nd ref="681089163"/>
    <tag k="highway" v="secondary"/>
    <tag k="name" v="Gundaroo Drive"/>
    <tag k="oneway" v="yes"/>
  </way>
  <way id="22895681" version="10" timestamp="2009-08-03T19:36:30Z" uid="4467" user="Rosscoe" changeset="2029470">
    <nd ref="246436859"/>
    <nd ref="246478670"/>
    <tag k="highway" v="trunk_link"/>
    <tag k="lanes" v="2"/>
    <tag k="maxspeed" v="60"/>
    <tag k="name" v="Salisbury Highway"/>
    <tag k="oneway" v="yes"/>
    <tag k="ref" v="A13"/>
    <tag k="source" v="survey"/>
  </way>
  <way id="22895691" version="28" timestamp="2009-08-03T19:36:34Z" uid="4467" user="Rosscoe" changeset="2029470">
    <nd ref="246438892"/>
    <nd ref="246436859"/>
    <nd ref="246786218"/>
    <nd ref="246476347"/>
    <nd ref="246775917"/>
    <tag k="highway" v="trunk"/>
    <tag k="lanes" v="2"/>
    <tag k="maxspeed" v="60"/>
    <tag k="name" v="Salisbury Highway"/>
    <tag k="oneway" v="yes"/>
    <tag k="ref" v="A13"/>
    <tag k="source" v="survey"/>
  </way>
  <way id="22895693" version="11" timestamp="2009-08-03T19:36:32Z" uid="4467" user="Rosscoe" changeset="2029470">
    <nd ref="246478765"/>
    <nd ref="246438892"/>
    <tag k="highway" v="trunk_link"/>
    <tag k="lanes" v="2"/>
    <tag k="maxspeed" v="60"/>
    <tag k="name" v="Salisbury Highway"/>
    <tag k="oneway" v="yes"/>
    <tag k="ref" v="A13"/>
    <tag k="source" v="survey"/>
  </way>
  <way id="22895695" version="3" timestamp="2008-06-11T18:02:55Z" uid="27600" user="Islanit" changeset="133406">
    <nd ref="246479465"/>
    <nd ref="246479467"/>
    <nd ref="246479468"/>
    <nd ref="246479471"/>
    <nd ref="246479476"/>
    <nd ref="246479477"/>
    <nd ref="246479478"/>
    <nd ref="246479480"/>
    <nd ref="246479483"/>
    <nd ref="246479484"/>
    <nd ref="246479486"/>
    <tag k="created_by" v="JOSM"/>
    <tag k="highway" v="footway"/>
  </way>
  <way id="22895715" version="18" timestamp="2009-08-03T19:36:31Z" uid="4467" user="Rosscoe" changeset="2029470">
    <nd ref="246479850"/>
    <nd ref="246479848"/>
    <nd ref="246581089"/>
    <nd ref="246479847"/>
    <nd ref="246581088"/>
    <tag k="highway" v="trunk"/>
    <tag k="lanes" v="2"/>
    <tag k="maxspeed" v="60"/>
    <tag k="name" v="Salisbury Highway"/>
    <tag k="oneway" v="yes"/>
    <tag k="ref" v="A13"/>
    <tag k="source" v="survey"/>
  </way>
  <way id="22895750" version="7" timestamp="2010-03-27T23:30:30Z" uid="20587" user="balrog-kun" changeset="4250871">
    <nd ref="65468853"/>
    <nd ref="65662393"/>
    <nd ref="65597114"/>
    <nd ref="65420449"/>
    <tag k="created_by" v="Potlatch 0.10f"/>
    <tag k="highway" v="residential"/>
    <tag k="name" v="Margaret Street"/>
    <tag k="tiger:cfcc" v="A41"/>
    <tag k="tiger:county" v="Santa Clara, CA"/>
    <tag k="tiger:name_base" v="Margaret"/>
    <tag k="tiger:name_type" v="St"/>
    <tag k="tiger:separated" v="no"/>
    <tag k="tiger:source" v="tiger_import_dch_v0.6_20070809"/>
    <tag k="tiger:tlid" v="122909122:122909123:122909125:122908887:122908853:122908855:122908800:122908856:123177342:122908864:122908866"/>
    <tag k="tiger:zip_left" v="95112"/>
    <tag k="tiger:zip_right" v="95112"/>
  </way>
  <way id="22895756" version="11" timestamp="2009-08-03T19:36:36Z" uid="4467" user="Rosscoe" changeset="2029470">
    <nd ref="246480437"/>
    <nd ref="247379101"/>
    <nd ref="246480438"/>
    <nd ref="247735289"/>
    <nd ref="246480558"/>
    <tag k="highway" v="trunk"/>
    <tag k="lanes" v="2"/>
    <tag k="maxspeed" v="60"/>
    <tag k="name" v="John Rice Avenue"/>
    <tag k="oneway" v="yes"/>
    <tag k="ref" v="A13"/>
    <tag k="source" v="survey"/>
  </way>
  <way id="22895758" version="12" timestamp="2009-08-03T19:36:36Z" uid="4467" user="Rosscoe" changeset="2029470">
    <nd ref="247378838"/>
    <nd ref="246480730"/>
    <nd ref="247379016"/>
    <nd ref="90046020"/>
    <nd ref="246480558"/>
    <tag k="highway" v="trunk"/>
    <tag k="lanes" v="2"/>
    <tag k="maxspeed" v="60"/>
    <tag k="name" v="John Rice Avenue"/>
    <tag k="oneway" v="yes"/>
    <tag k="ref" v="A13"/>
    <tag k="source" v="survey"/>
  </way>
  <way id="22895773" version="4" timestamp="2009-12-26T06:18:16Z" uid="61114" user="Trav" changeset="3452335">
    <nd ref="246481059"/>
    <nd ref="246481148"/>
    <nd ref="246481149"/>
    <nd ref="246481150"/>
    <nd ref="246486650"/>
    <nd ref="246481151"/>
    <tag k="highway" v="residential"/>
    <tag k="name" v="Kings Road"/>
    <tag k="source:name" v="survey"/>
  </way>
  <way id="22895773" version="6" timestamp="2010-01-06T06:35:06Z" uid="30201" user="rrankin" changeset="3551129">
    <nd ref="246481059"/>
    <nd ref="606309871"/>
    <tag k="highway" v="residential"/>
    <tag k="maxspeed" v="50"/>
    <tag k="name" v="Kings Road"/>
    <tag k="source:maxspeed" v="state_limit"/>
    <tag k="source:name" v="survey"/>
  </way>
  <way id="22895776" version="4" timestamp="2009-12-17T22:39:08Z" uid="30201" user="rrankin" changeset="3397356">
    <nd ref="246481225"/>
    <nd ref="246481227"/>
    <nd ref="246481229"/>
    <nd ref="246481231"/>
    <nd ref="246481232"/>
    <nd ref="246481233"/>
    <nd ref="246481235"/>
    <nd ref="246481236"/>
    <nd ref="246481237"/>
    <nd ref="246481225"/>
    <tag k="highway" v="residential"/>
    <tag k="junction" v="roundabout"/>
    <tag k="name" v="Kings Road"/>
  </way>
  <way id="22895776" version="5" timestamp="2009-12-24T06:13:35Z" uid="7617" user="Franc" changeset="3440125">
    <nd ref="246481225"/>
    <nd ref="246481227"/>
    <nd ref="246481229"/>
    <nd ref="246481231"/>
    <nd ref="246481232"/>
    <nd ref="246481233"/>
    <nd ref="246481235"/>
    <nd ref="246481236"/>
    <nd ref="246481237"/>
    <nd ref="246481225"/>
    <tag k="highway" v="residential"/>
    <tag k="junction" v="roundabout"/>
  </way>
  <way id="22895776" version="6" timestamp="2009-12-26T06:20:21Z" uid="61114" user="Trav" changeset="3452335">
    <nd ref="246481225"/>
    <nd ref="246481227"/>
    <nd ref="599480794"/>
    <nd ref="246481229"/>
    <nd ref="246481231"/>
    <nd ref="246481232"/>
    <nd ref="246481233"/>
    <nd ref="599480791"/>
    <nd ref="246481235"/>
    <nd ref="599480792"/>
    <nd ref="246481236"/>
    <nd ref="246481237"/>
    <nd ref="246481225"/>
    <tag k="highway" v="residential"/>
    <tag k="junction" v="roundabout"/>
  </way>
  <way id="22895776" version="7" timestamp="2010-07-08T01:35:25Z" uid="74617" user="JohnSmith" changeset="5162525">
    <nd ref="246481225"/>
    <nd ref="246481227"/>
    <nd ref="599480794"/>
    <nd ref="246481229"/>
    <nd ref="246481231"/>
    <nd ref="246481232"/>
    <nd ref="246481233"/>
    <nd ref="599480791"/>
    <nd ref="246481235"/>
    <nd ref="599480792"/>
    <nd ref="246481236"/>
    <nd ref="246481237"/>
    <nd ref="246481225"/>
    <tag k="highway" v="residential"/>
    <tag k="junction" v="roundabout"/>
    <tag k="maxspeed" v="50"/>
    <tag k="maxspeed:source" v="default residential speed limit in Australia"/>
  </way>
  <way id="22895784" version="2" timestamp="2009-12-26T06:20:09Z" uid="61114" user="Trav" changeset="3452335">
    <nd ref="246481151"/>
    <nd ref="246481229"/>
    <tag k="highway" v="residential"/>
    <tag k="name" v="Kings Road"/>
    <tag k="oneway" v="yes"/>
    <tag k="source:name" v="survey"/>
  </way>
  <way id="22895786" version="4" timestamp="2009-12-26T06:20:10Z" uid="61114" user="Trav" changeset="3452335">
    <nd ref="246481225"/>
    <nd ref="246481151"/>
    <tag k="highway" v="residential"/>
    <tag k="name" v="Kings Road"/>
    <tag k="oneway" v="yes"/>
    <tag k="source:name" v="survey"/>
  </way>
  <way id="22895789" version="5" timestamp="2009-12-26T06:22:28Z" uid="61114" user="Trav" changeset="3452335">
    <nd ref="246481231"/>
    <nd ref="472266867"/>
    <nd ref="246481447"/>
    <nd ref="599481383"/>
    <nd ref="599481317"/>
    <nd ref="246481426"/>
    <tag k="highway" v="residential"/>
    <tag k="name" v="Eric Cooper Drive"/>
  </way>
  <way id="22895791" version="4" timestamp="2009-12-26T06:22:59Z" uid="61114" user="Trav" changeset="3452335"/>
  <way id="22895796" version="5" timestamp="2009-12-26T06:19:15Z" uid="61114" user="Trav" changeset="3452335">
    <nd ref="246481571"/>
    <nd ref="246481588"/>
    <nd ref="246481607"/>
    <nd ref="246481572"/>
    <nd ref="246481573"/>
    <nd ref="246481574"/>
    <nd ref="246481575"/>
    <nd ref="599480094"/>
    <nd ref="246481576"/>
    <nd ref="246481577"/>
    <nd ref="246481578"/>
    <nd ref="246481758"/>
    <nd ref="246481579"/>
    <nd ref="246481580"/>
    <nd ref="246481149"/>
    <tag k="highway" v="residential"/>
    <tag k="name" v="Beaumaris Avenue"/>
    <tag k="source:name" v="survey"/>
  </way>
  <way id="22895797" version="2" timestamp="2009-12-26T06:18:24Z" uid="61114" user="Trav" changeset="3452335">
    <nd ref="246481588"/>
    <nd ref="246481602"/>
    <tag k="highway" v="residential"/>
    <tag k="name" v="Coventry Court"/>
    <tag k="source:name" v="survey"/>
  </way>
  <way id="22895798" version="2" timestamp="2009-12-26T06:18:23Z" uid="61114" user="Trav" changeset="3452335">
    <nd ref="246481607"/>
    <nd ref="246481618"/>
    <tag k="highway" v="residential"/>
    <tag k="name" v="Northumberland Court"/>
    <tag k="source:name" v="survey"/>
  </way>
  <way id="22895808" version="2" timestamp="2009-12-26T06:18:23Z" uid="61114" user="Trav" changeset="3452335">
    <nd ref="246481741"/>
    <nd ref="246481742"/>
    <nd ref="246481743"/>
    <nd ref="246481744"/>
    <nd ref="246481576"/>
    <tag k="highway" v="residential"/>
    <tag k="name" v="Tower Court"/>
    <tag k="source:name" v="survey"/>
  </way>
  <way id="22895821" version="7" timestamp="2009-12-26T06:18:19Z" uid="61114" user="Trav" changeset="3452335">
    <nd ref="246481758"/>
    <nd ref="246482087"/>
    <nd ref="246482088"/>
    <nd ref="246482089"/>
    <nd ref="246482090"/>
    <nd ref="246482123"/>
    <nd ref="246482092"/>
    <nd ref="246482093"/>
    <nd ref="246482094"/>
    <nd ref="246482095"/>
    <nd ref="246482096"/>
    <nd ref="246482298"/>
    <nd ref="246482098"/>
    <nd ref="246482099"/>
    <nd ref="246482100"/>
    <nd ref="246482261"/>
    <nd ref="246482101"/>
    <nd ref="246482218"/>
    <nd ref="246482102"/>
    <nd ref="246482103"/>
    <nd ref="246482090"/>
    <tag k="highway" v="residential"/>
    <tag k="name" v="Powys Circuit"/>
    <tag k="source:name" v="survey"/>
  </way>
  <way id="22895828" version="3" timestamp="2009-12-26T06:18:20Z" uid="61114" user="Trav" changeset="3452335">
    <nd ref="246482123"/>
    <nd ref="246482203"/>
    <tag k="highway" v="residential"/>
    <tag k="name" v="Cheryl Place"/>
    <tag k="source:name" v="survey"/>
  </way>
  <way id="22895830" version="2" timestamp="2009-09-25T08:01:58Z" uid="4467" user="Rosscoe" changeset="2614249">
    <nd ref="79838299"/>
    <nd ref="246481593"/>
    <nd ref="246481596"/>
    <nd ref="246481599"/>
    <nd ref="246481603"/>
    <nd ref="246481608"/>
    <nd ref="246481612"/>
    <nd ref="246481616"/>
    <nd ref="246481622"/>
    <nd ref="246481625"/>
    <nd ref="246481629"/>
    <nd ref="246481632"/>
    <nd ref="246481636"/>
    <nd ref="246481640"/>
    <nd ref="246481644"/>
    <nd ref="246481647"/>
    <tag k="highway" v="residential"/>
    <tag k="name" v="Traralgon - Maffra Road"/>
    <tag k="source" v="survey"/>
    <tag k="surface" v="paved"/>
  </way>
  <way id="22895830" version="3" timestamp="2010-07-08T17:49:06Z" uid="74617" user="JohnSmith" changeset="5167338">
    <nd ref="79838299"/>
    <nd ref="246481593"/>
    <nd ref="246481596"/>
    <nd ref="246481599"/>
    <nd ref="246481603"/>
    <nd ref="246481608"/>
    <nd ref="246481612"/>
    <nd ref="246481616"/>
    <nd ref="246481622"/>
    <nd ref="246481625"/>
    <nd ref="246481629"/>
    <nd ref="246481632"/>
    <nd ref="246481636"/>
    <nd ref="246481640"/>
    <nd ref="246481644"/>
    <nd ref="246481647"/>
    <tag k="highway" v="residential"/>
    <tag k="maxspeed" v="50"/>
    <tag k="maxspeed:source" v="default residential speed limit in Australia"/>
    <tag k="name" v="Traralgon - Maffra Road"/>
    <tag k="source" v="survey"/>
    <tag k="surface" v="paved"/>
  </way>
  <way id="22895831" version="2" timestamp="2009-09-25T08:01:53Z" uid="4467" user="Rosscoe" changeset="2614249">
    <nd ref="246481652"/>
    <nd ref="246481636"/>
    <tag k="highway" v="residential"/>
    <tag k="source" v="survey"/>
    <tag k="surface" v="paved"/>
  </way>
  <way id="22895831" version="3" timestamp="2010-07-08T17:48:08Z" uid="74617" user="JohnSmith" changeset="5167338">
    <nd ref="246481652"/>
    <nd ref="246481636"/>
    <tag k="highway" v="residential"/>
    <tag k="maxspeed" v="50"/>
    <tag k="maxspeed:source" v="default residential speed limit in Australia"/>
    <tag k="source" v="survey"/>
    <tag k="surface" v="paved"/>
  </way>
  <way id="22895832" version="2" timestamp="2009-09-25T08:02:02Z" uid="4467" user="Rosscoe" changeset="2614249">
    <nd ref="246481655"/>
    <nd ref="246481658"/>
    <nd ref="246481644"/>
    <nd ref="246481663"/>
    <tag k="highway" v="residential"/>
    <tag k="name" v="Glen Elwyn Avenue"/>
    <tag k="source" v="survey"/>
    <tag k="surface" v="paved"/>
  </way>
  <way id="22895832" version="3" timestamp="2010-07-08T17:48:37Z" uid="74617" user="JohnSmith" changeset="5167338">
    <nd ref="246481655"/>
    <nd ref="246481658"/>
    <nd ref="246481644"/>
    <nd ref="246481663"/>
    <tag k="highway" v="residential"/>
    <tag k="maxspeed" v="50"/>
    <tag k="maxspeed:source" v="default residential speed limit in Australia"/>
    <tag k="name" v="Glen Elwyn Avenue"/>
    <tag k="source" v="survey"/>
    <tag k="surface" v="paved"/>
  </way>
  <way id="22895833" version="2" timestamp="2009-09-25T08:02:05Z" uid="4467" user="Rosscoe" changeset="2614249">
    <nd ref="246481666"/>
    <nd ref="246481668"/>
    <nd ref="246481671"/>
    <nd ref="246481674"/>
    <nd ref="246481678"/>
    <nd ref="246481681"/>
    <nd ref="246481655"/>
    <nd ref="246481685"/>
    <nd ref="246481688"/>
    <nd ref="246481691"/>
    <nd ref="246481694"/>
    <nd ref="246481704"/>
    <nd ref="246481714"/>
    <nd ref="246481718"/>
    <nd ref="246481720"/>
    <tag k="highway" v="residential"/>
    <tag k="name" v="Main Street"/>
    <tag k="source" v="survey"/>
    <tag k="surface" v="paved"/>
  </way>
  <way id="22895833" version="3" timestamp="2010-07-08T17:47:28Z" uid="74617" user="JohnSmith" changeset="5167338">
    <nd ref="246481666"/>
    <nd ref="246481668"/>
    <nd ref="246481671"/>
    <nd ref="246481674"/>
    <nd ref="246481678"/>
    <nd ref="246481681"/>
    <nd ref="246481655"/>
    <nd ref="246481685"/>
    <nd ref="246481688"/>
    <nd ref="246481691"/>
    <nd ref="246481694"/>
    <nd ref="246481704"/>
    <nd ref="246481714"/>
    <nd ref="246481718"/>
    <nd ref="246481720"/>
    <tag k="highway" v="residential"/>
    <tag k="maxspeed" v="50"/>
    <tag k="maxspeed:source" v="default residential speed limit in Australia"/>
    <tag k="name" v="Main Street"/>
    <tag k="source" v="survey"/>
    <tag k="surface" v="paved"/>
  </way>
  <way id="22895836" version="2" timestamp="2009-09-25T08:01:51Z" uid="4467" user="Rosscoe" changeset="2614249">
    <nd ref="246481640"/>
    <nd ref="246481724"/>
    <nd ref="246481726"/>
    <nd ref="246481730"/>
    <nd ref="246481658"/>
    <tag k="highway" v="residential"/>
    <tag k="name" v="Morrison Parade"/>
    <tag k="source" v="survey"/>
    <tag k="surface" v="paved"/>
  </way>
  <way id="22895836" version="3" timestamp="2010-07-08T17:47:44Z" uid="74617" user="JohnSmith" changeset="5167338">
    <nd ref="246481640"/>
    <nd ref="246481724"/>
    <nd ref="246481726"/>
    <nd ref="246481730"/>
    <nd ref="246481658"/>
    <tag k="highway" v="residential"/>
    <tag k="maxspeed" v="50"/>
    <tag k="maxspeed:source" v="default residential speed limit in Australia"/>
    <tag k="name" v="Morrison Parade"/>
    <tag k="source" v="survey"/>
    <tag k="surface" v="paved"/>
  </way>
  <way id="22895838" version="2" timestamp="2009-09-25T08:02:01Z" uid="4467" user="Rosscoe" changeset="2614249">
    <nd ref="246481733"/>
    <nd ref="246481738"/>
    <nd ref="246481745"/>
    <nd ref="246481749"/>
    <nd ref="246481752"/>
    <nd ref="246481755"/>
    <nd ref="246481760"/>
    <nd ref="246481766"/>
    <tag k="highway" v="residential"/>
    <tag k="name" v="Cairnbrook Road"/>
    <tag k="source" v="survey"/>
    <tag k="surface" v="paved"/>
  </way>
  <way id="22895838" version="3" timestamp="2010-07-08T17:50:29Z" uid="74617" user="JohnSmith" changeset="5167338">
    <nd ref="246481733"/>
    <nd ref="246481738"/>
    <nd ref="246481745"/>
    <nd ref="246481749"/>
    <nd ref="246481752"/>
    <nd ref="246481755"/>
    <nd ref="246481760"/>
    <nd ref="246481766"/>
    <tag k="highway" v="residential"/>
    <tag k="maxspeed" v="50"/>
    <tag k="maxspeed:source" v="default residential speed limit in Australia"/>
    <tag k="name" v="Cairnbrook Road"/>
    <tag k="source" v="survey"/>
    <tag k="surface" v="paved"/>
  </way>
  <way id="22895839" version="2" timestamp="2009-09-25T08:01:53Z" uid="4467" user="Rosscoe" changeset="2614249">
    <nd ref="246481769"/>
    <nd ref="246481774"/>
    <nd ref="246481778"/>
    <nd ref="246481781"/>
    <nd ref="246481784"/>
    <nd ref="246481787"/>
    <nd ref="246481790"/>
    <nd ref="246481794"/>
    <nd ref="246481797"/>
    <tag k="highway" v="residential"/>
    <tag k="name" v="Kyne Street"/>
    <tag k="source" v="survey"/>
    <tag k="surface" v="paved"/>
  </way>
  <way id="22895839" version="3" timestamp="2010-07-08T17:49:35Z" uid="74617" user="JohnSmith" changeset="5167338">
    <nd ref="246481769"/>
    <nd ref="246481774"/>
    <nd ref="246481778"/>
    <nd ref="246481781"/>
    <nd ref="246481784"/>
    <nd ref="246481787"/>
    <nd ref="246481790"/>
    <nd ref="246481794"/>
    <nd ref="246481797"/>
    <tag k="highway" v="residential"/>
    <tag k="maxspeed" v="50"/>
    <tag k="maxspeed:source" v="default residential speed limit in Australia"/>
    <tag k="name" v="Kyne Street"/>
    <tag k="source" v="survey"/>
    <tag k="surface" v="paved"/>
  </way>
  <way id="22895840" version="2" timestamp="2009-09-25T08:02:06Z" uid="4467" user="Rosscoe" changeset="2614249">
    <nd ref="246481794"/>
    <nd ref="246481800"/>
    <nd ref="246481804"/>
    <nd ref="246481807"/>
    <tag k="highway" v="residential"/>
    <tag k="name" v="King Road"/>
    <tag k="source" v="survey"/>
    <tag k="surface" v="paved"/>
  </way>
  <way id="22895840" version="3" timestamp="2010-07-08T17:50:55Z" uid="74617" user="JohnSmith" changeset="5167338">
    <nd ref="246481794"/>
    <nd ref="246481800"/>
    <nd ref="246481804"/>
    <nd ref="246481807"/>
    <tag k="highway" v="residential"/>
    <tag k="maxspeed" v="50"/>
    <tag k="maxspeed:source" v="default residential speed limit in Australia"/>
    <tag k="name" v="King Road"/>
    <tag k="source" v="survey"/>
    <tag k="surface" v="paved"/>
  </way>
  <way id="22895841" version="3" timestamp="2009-12-26T06:18:22Z" uid="61114" user="Trav" changeset="3452335">
    <nd ref="246482218"/>
    <nd ref="246482252"/>
    <nd ref="246482253"/>
    <tag k="highway" v="residential"/>
    <tag k="name" v="Cubby Close"/>
    <tag k="source:name" v="survey"/>
  </way>
  <way id="22895842" version="2" timestamp="2009-09-25T08:01:54Z" uid="4467" user="Rosscoe" changeset="2614249">
    <nd ref="246481774"/>
    <nd ref="246481820"/>
    <tag k="highway" v="residential"/>
    <tag k="name" v="McDonald Court"/>
    <tag k="source" v="survey"/>
    <tag k="surface" v="paved"/>
  </way>
  <way id="22895842" version="3" timestamp="2010-07-08T17:49:03Z" uid="74617" user="JohnSmith" changeset="5167338">
    <nd ref="246481774"/>
    <nd ref="246481820"/>
    <tag k="highway" v="residential"/>
    <tag k="maxspeed" v="50"/>
    <tag k="maxspeed:source" v="default residential speed limit in Australia"/>
    <tag k="name" v="McDonald Court"/>
    <tag k="source" v="survey"/>
    <tag k="surface" v="paved"/>
  </way>
  <way id="22895843" version="2" timestamp="2009-09-25T08:01:59Z" uid="4467" user="Rosscoe" changeset="2614249">
    <nd ref="246481784"/>
    <nd ref="246481824"/>
    <nd ref="246481828"/>
    <nd ref="246481831"/>
    <nd ref="246481834"/>
    <nd ref="246481842"/>
    <tag k="highway" v="residential"/>
    <tag k="ref" v="FIXME"/>
    <tag k="source" v="survey"/>
    <tag k="surface" v="paved"/>
  </way>
  <way id="22895843" version="3" timestamp="2010-07-08T17:48:06Z" uid="74617" user="JohnSmith" changeset="5167338">
    <nd ref="246481784"/>
    <nd ref="246481824"/>
    <nd ref="246481828"/>
    <nd ref="246481831"/>
    <nd ref="246481834"/>
    <nd ref="246481842"/>
    <tag k="highway" v="residential"/>
    <tag k="maxspeed" v="50"/>
    <tag k="maxspeed:source" v="default residential speed limit in Australia"/>
    <tag k="ref" v="FIXME"/>
    <tag k="source" v="survey"/>
    <tag k="surface" v="paved"/>
  </way>
  <way id="22895844" version="2" timestamp="2009-09-25T08:01:57Z" uid="4467" user="Rosscoe" changeset="2614249">
    <nd ref="246481845"/>
    <nd ref="246481848"/>
    <nd ref="246481851"/>
    <nd ref="246481856"/>
    <nd ref="246481859"/>
    <nd ref="246481864"/>
    <nd ref="246481867"/>
    <nd ref="246481870"/>
    <nd ref="246481874"/>
    <nd ref="246481878"/>
    <nd ref="246481881"/>
    <nd ref="246481883"/>
    <nd ref="246481807"/>
    <nd ref="246481887"/>
    <nd ref="246481890"/>
    <tag k="highway" v="residential"/>
    <tag k="name" v="Carey Drive"/>
    <tag k="source" v="survey"/>
    <tag k="surface" v="paved"/>
  </way>
  <way id="22895844" version="3" timestamp="2010-07-08T17:50:19Z" uid="74617" user="JohnSmith" changeset="5167338">
    <nd ref="246481845"/>
    <nd ref="246481848"/>
    <nd ref="246481851"/>
    <nd ref="246481856"/>
    <nd ref="246481859"/>
    <nd ref="246481864"/>
    <nd ref="246481867"/>
    <nd ref="246481870"/>
    <nd ref="246481874"/>
    <nd ref="246481878"/>
    <nd ref="246481881"/>
    <nd ref="246481883"/>
    <nd ref="246481807"/>
    <nd ref="246481887"/>
    <nd ref="246481890"/>
    <tag k="highway" v="residential"/>
    <tag k="maxspeed" v="50"/>
    <tag k="maxspeed:source" v="default residential speed limit in Australia"/>
    <tag k="name" v="Carey Drive"/>
    <tag k="source" v="survey"/>
    <tag k="surface" v="paved"/>
  </way>
  <way id="22895845" version="2" timestamp="2009-09-25T08:02:05Z" uid="4467" user="Rosscoe" changeset="2614249">
    <nd ref="246481890"/>
    <nd ref="246481893"/>
    <nd ref="246481898"/>
    <nd ref="246481901"/>
    <nd ref="246481905"/>
    <tag k="highway" v="residential"/>
    <tag k="name" v="Cobham Court"/>
    <tag k="source" v="survey"/>
    <tag k="surface" v="paved"/>
  </way>
  <way id="22895845" version="3" timestamp="2010-07-08T17:49:21Z" uid="74617" user="JohnSmith" changeset="5167338">
    <nd ref="246481890"/>
    <nd ref="246481893"/>
    <nd ref="246481898"/>
    <nd ref="246481901"/>
    <nd ref="246481905"/>
    <tag k="highway" v="residential"/>
    <tag k="maxspeed" v="50"/>
    <tag k="maxspeed:source" v="default residential speed limit in Australia"/>
    <tag k="name" v="Cobham Court"/>
    <tag k="source" v="survey"/>
    <tag k="surface" v="paved"/>
  </way>
  <way id="22895847" version="2" timestamp="2009-09-25T08:02:03Z" uid="4467" user="Rosscoe" changeset="2614249">
    <nd ref="246481874"/>
    <nd ref="246481911"/>
    <tag k="highway" v="residential"/>
    <tag k="name" v="Moorhouse Road"/>
    <tag k="source" v="survey"/>
    <tag k="surface" v="paved"/>
  </way>
  <way id="22895847" version="3" timestamp="2010-07-08T17:47:15Z" uid="74617" user="JohnSmith" changeset="5167338">
    <nd ref="246481874"/>
    <nd ref="246481911"/>
    <tag k="highway" v="residential"/>
    <tag k="maxspeed" v="50"/>
    <tag k="maxspeed:source" v="default residential speed limit in Australia"/>
    <tag k="name" v="Moorhouse Road"/>
    <tag k="source" v="survey"/>
    <tag k="surface" v="paved"/>
  </way>
  <way id="22895848" version="2" timestamp="2009-09-25T08:02:05Z" uid="4467" user="Rosscoe" changeset="2614249">
    <nd ref="246481870"/>
    <nd ref="246481914"/>
    <tag k="highway" v="residential"/>
    <tag k="name" v="Pratt Court"/>
    <tag k="source" v="survey"/>
    <tag k="surface" v="paved"/>
  </way>
  <way id="22895848" version="3" timestamp="2010-07-08T17:47:43Z" uid="74617" user="JohnSmith" changeset="5167338">
    <nd ref="246481870"/>
    <nd ref="246481914"/>
    <tag k="highway" v="residential"/>
    <tag k="maxspeed" v="50"/>
    <tag k="maxspeed:source" v="default residential speed limit in Australia"/>
    <tag k="name" v="Pratt Court"/>
    <tag k="source" v="survey"/>
    <tag k="surface" v="paved"/>
  </way>
  <way id="22895849" version="2" timestamp="2009-09-25T08:02:09Z" uid="4467" user="Rosscoe" changeset="2614249">
    <nd ref="246481864"/>
    <nd ref="246481917"/>
    <nd ref="246481922"/>
    <nd ref="246481924"/>
    <nd ref="246481927"/>
    <nd ref="246481932"/>
    <nd ref="246481935"/>
    <tag k="highway" v="residential"/>
    <tag k="name" v="Hambrook Road"/>
    <tag k="source" v="survey"/>
    <tag k="surface" v="paved"/>
  </way>
  <way id="22895849" version="3" timestamp="2010-07-08T17:46:42Z" uid="74617" user="JohnSmith" changeset="5167338">
    <nd ref="246481864"/>
    <nd ref="246481917"/>
    <nd ref="246481922"/>
    <nd ref="246481924"/>
    <nd ref="246481927"/>
    <nd ref="246481932"/>
    <nd ref="246481935"/>
    <tag k="highway" v="residential"/>
    <tag k="maxspeed" v="50"/>
    <tag k="maxspeed:source" v="default residential speed limit in Australia"/>
    <tag k="name" v="Hambrook Road"/>
    <tag k="source" v="survey"/>
    <tag k="surface" v="paved"/>
  </way>
  <way id="22895850" version="2" timestamp="2009-09-25T08:01:57Z" uid="4467" user="Rosscoe" changeset="2614249">
    <nd ref="246481938"/>
    <nd ref="246481942"/>
    <tag k="highway" v="residential"/>
    <tag k="source" v="survey"/>
    <tag k="surface" v="paved"/>
  </way>
  <way id="22895850" version="3" timestamp="2010-07-08T17:50:28Z" uid="74617" user="JohnSmith" changeset="5167338">
    <nd ref="246481938"/>
    <nd ref="246481942"/>
    <tag k="highway" v="residential"/>
    <tag k="maxspeed" v="50"/>
    <tag k="maxspeed:source" v="default residential speed limit in Australia"/>
    <tag k="source" v="survey"/>
    <tag k="surface" v="paved"/>
  </way>
  <way id="22895851" version="4" timestamp="2009-12-26T06:18:21Z" uid="61114" user="Trav" changeset="3452335">
    <nd ref="246482261"/>
    <nd ref="246482279"/>
    <tag k="highway" v="residential"/>
    <tag k="name" v="Hilltop Court"/>
    <tag k="source:name" v="survey"/>
  </way>
  <way id="22895852" version="2" timestamp="2009-09-25T08:02:03Z" uid="4467" user="Rosscoe" changeset="2614249">
    <nd ref="246481945"/>
    <nd ref="246481942"/>
    <nd ref="246481948"/>
    <tag k="highway" v="residential"/>
    <tag k="name" v="Cairnbrook Road"/>
    <tag k="source" v="survey"/>
    <tag k="surface" v="paved"/>
  </way>
  <way id="22895852" version="3" timestamp="2010-07-08T17:46:59Z" uid="74617" user="JohnSmith" changeset="5167338">
    <nd ref="246481945"/>
    <nd ref="246481942"/>
    <nd ref="246481948"/>
    <tag k="highway" v="residential"/>
    <tag k="maxspeed" v="50"/>
    <tag k="maxspeed:source" v="default residential speed limit in Australia"/>
    <tag k="name" v="Cairnbrook Road"/>
    <tag k="source" v="survey"/>
    <tag k="surface" v="paved"/>
  </way>
  <way id="22895854" version="2" timestamp="2009-09-25T08:02:01Z" uid="4467" user="Rosscoe" changeset="2614249">
    <nd ref="246010352"/>
    <nd ref="246481956"/>
    <nd ref="246481963"/>
    <nd ref="246010477"/>
    <tag k="highway" v="unclassified"/>
    <tag k="name" v="Bassett Lane"/>
    <tag k="source" v="survey"/>
    <tag k="surface" v="paved"/>
  </way>
  <way id="22895855" version="2" timestamp="2009-09-25T08:01:54Z" uid="4467" user="Rosscoe" changeset="2614249">
    <nd ref="246010477"/>
    <nd ref="246481953"/>
    <tag k="highway" v="unclassified"/>
    <tag k="name" v="Bassett Lane"/>
    <tag k="source" v="survey"/>
    <tag k="surface" v="unpaved"/>
  </way>
  <way id="22895856" version="2" timestamp="2009-09-25T08:02:01Z" uid="4467" user="Rosscoe" changeset="2614249">
    <nd ref="246481956"/>
    <nd ref="246481968"/>
    <nd ref="246481981"/>
    <tag k="highway" v="unclassified"/>
    <tag k="name" v="Cahills Road"/>
    <tag k="source" v="survey"/>
    <tag k="surface" v="unpaved"/>
  </way>
  <way id="22895857" version="2" timestamp="2009-09-25T08:02:07Z" uid="4467" user="Rosscoe" changeset="2614249">
    <nd ref="246481963"/>
    <nd ref="246481965"/>
    <nd ref="246481972"/>
    <nd ref="246481968"/>
    <tag k="highway" v="unclassified"/>
    <tag k="name" v="Wattle Tree Lane"/>
    <tag k="source" v="survey"/>
    <tag k="surface" v="unpaved"/>
  </way>
  <way id="22895859" version="2" timestamp="2009-09-25T08:02:00Z" uid="4467" user="Rosscoe" changeset="2614249">
    <nd ref="246481981"/>
    <nd ref="246481959"/>
    <tag k="highway" v="track"/>
    <tag k="name" v="Cahills Road"/>
    <tag k="source" v="survey"/>
    <tag k="surface" v="unpaved"/>
  </way>
  <way id="22895861" version="2" timestamp="2009-09-25T08:02:03Z" uid="4467" user="Rosscoe" changeset="2614249">
    <nd ref="246482079"/>
    <nd ref="246482085"/>
    <nd ref="246481983"/>
    <tag k="highway" v="unclassified"/>
    <tag k="name" v="Chappells Road"/>
    <tag k="source" v="survey"/>
    <tag k="surface" v="unpaved"/>
  </way>
  <way id="22895862" version="2" timestamp="2009-09-25T08:02:04Z" uid="4467" user="Rosscoe" changeset="2614249">
    <nd ref="246010474"/>
    <nd ref="246482065"/>
    <tag k="highway" v="unclassified"/>
    <tag k="name" v="Chappells Road"/>
    <tag k="source" v="survey"/>
    <tag k="surface" v="unpaved"/>
  </way>
  <way id="22895863" version="2" timestamp="2009-09-25T08:02:05Z" uid="4467" user="Rosscoe" changeset="2614249">
    <nd ref="246482059"/>
    <nd ref="246482071"/>
    <tag k="highway" v="unclassified"/>
    <tag k="name" v="Langs Road"/>
    <tag k="source" v="survey"/>
    <tag k="surface" v="unpaved"/>
  </way>
  <way id="22895864" version="2" timestamp="2009-09-25T07:08:15Z" uid="4467" user="Rosscoe" changeset="2613415">
    <nd ref="246482107"/>
    <nd ref="246482120"/>
    <nd ref="246482113"/>
    <tag k="highway" v="unclassified"/>
    <tag k="name" v="Gadd Street"/>
    <tag k="source" v="survey"/>
    <tag k="surface" v="unpaved"/>
  </way>
  <way id="22895865" version="2" timestamp="2009-09-25T07:08:17Z" uid="4467" user="Rosscoe" changeset="2613415">
    <nd ref="246482120"/>
    <nd ref="246482126"/>
    <tag k="highway" v="unclassified"/>
    <tag k="name" v="Semmens Street"/>
    <tag k="source" v="survey"/>
    <tag k="surface" v="unpaved"/>
  </way>
  <way id="22895866" version="2" timestamp="2009-09-25T07:08:17Z" uid="4467" user="Rosscoe" changeset="2613415">
    <nd ref="246482133"/>
    <nd ref="246482140"/>
    <tag k="highway" v="unclassified"/>
    <tag k="name" v="Timmins Street"/>
    <tag k="source" v="survey"/>
    <tag k="surface" v="unpaved"/>
  </way>
  <way id="22895867" version="4" timestamp="2009-12-26T06:18:47Z" uid="61114" user="Trav" changeset="3452335">
    <nd ref="246482298"/>
    <nd ref="246482328"/>
    <nd ref="599480014"/>
    <nd ref="246482329"/>
    <nd ref="246482330"/>
    <nd ref="246482331"/>
    <tag k="highway" v="residential"/>
    <tag k="name" v="Zullo Court"/>
    <tag k="source:name" v="survey"/>
  </way>
  <way id="22895868" version="2" timestamp="2009-09-25T07:08:16Z" uid="4467" user="Rosscoe" changeset="2613415">
    <nd ref="246482140"/>
    <nd ref="246482147"/>
    <nd ref="246482153"/>
    <nd ref="246482160"/>
    <nd ref="246482166"/>
    <tag k="highway" v="unclassified"/>
    <tag k="name" v="Ries Street"/>
    <tag k="source" v="survey"/>
    <tag k="surface" v="unpaved"/>
  </way>
  <way id="22895869" version="2" timestamp="2009-09-25T07:08:15Z" uid="4467" user="Rosscoe" changeset="2613415">
    <nd ref="246482166"/>
    <nd ref="246482198"/>
    <tag k="highway" v="unclassified"/>
    <tag k="source" v="survey"/>
    <tag k="surface" v="unpaved"/>
  </way>
  <way id="22895870" version="2" timestamp="2009-09-25T07:08:15Z" uid="4467" user="Rosscoe" changeset="2613415">
    <nd ref="246482166"/>
    <nd ref="246482172"/>
    <nd ref="246482177"/>
    <nd ref="246482181"/>
    <nd ref="246482184"/>
    <nd ref="246482188"/>
    <nd ref="246482191"/>
    <nd ref="246482194"/>
    <tag k="highway" v="track"/>
    <tag k="name" v="Ries Street"/>
    <tag k="source" v="survey"/>
    <tag k="surface" v="unpaved"/>
  </way>
  <way id="22895871" version="2" timestamp="2009-09-25T07:08:15Z" uid="4467" user="Rosscoe" changeset="2613415">
    <nd ref="246010473"/>
    <nd ref="246482205"/>
    <nd ref="246482215"/>
    <tag k="highway" v="unclassified"/>
    <tag k="name" v="Guyatts Road"/>
    <tag k="source" v="survey"/>
    <tag k="surface" v="unpaved"/>
  </way>
  <way id="22895874" version="2" timestamp="2009-09-25T08:02:01Z" uid="4467" user="Rosscoe" changeset="2614249">
    <nd ref="246481983"/>
    <nd ref="246481989"/>
    <nd ref="246481995"/>
    <nd ref="246482002"/>
    <nd ref="246482009"/>
    <nd ref="246482015"/>
    <nd ref="246482021"/>
    <nd ref="246482028"/>
    <nd ref="246482044"/>
    <nd ref="246482053"/>
    <nd ref="246482059"/>
    <nd ref="246010474"/>
    <tag k="highway" v="unclassified"/>
    <tag k="name" v="Chappells Road"/>
    <tag k="source" v="survey"/>
    <tag k="surface" v="paved"/>
  </way>
  <way id="22895875" version="2" timestamp="2009-12-26T06:19:01Z" uid="61114" user="Trav" changeset="3452335">
    <nd ref="246482412"/>
    <nd ref="599480049"/>
    <nd ref="246482088"/>
    <tag k="highway" v="residential"/>
    <tag k="name" v="Rochester Grove"/>
    <tag k="source:name" v="survey"/>
  </way>
  <way id="22895891" version="3" timestamp="2009-12-26T06:18:17Z" uid="61114" user="Trav" changeset="3452335">
    <nd ref="246481148"/>
    <nd ref="246482459"/>
    <tag k="highway" v="residential"/>
    <tag k="name" v="Brooke Avenue"/>
    <tag k="source:name" v="survey"/>
  </way>
  <way id="22895892" version="2" timestamp="2009-12-26T06:18:18Z" uid="61114" user="Trav" changeset="3452335">
    <nd ref="246482462"/>
    <nd ref="246482471"/>
    <tag k="highway" v="residential"/>
    <tag k="name" v="Marriot Grove"/>
    <tag k="source:name" v="survey"/>
  </way>
  <way id="22895892" version="4" timestamp="2010-01-20T01:00:04Z" uid="30201" user="rrankin" changeset="3663798">
    <nd ref="246482462"/>
    <nd ref="599479979"/>
    <nd ref="246482471"/>
    <tag k="highway" v="residential"/>
    <tag k="maxspeed" v="50"/>
    <tag k="name" v="Marriot Grove"/>
    <tag k="source:maxspeed" v="state_limit"/>
    <tag k="source:name" v="survey"/>
  </way>
  <way id="22895894" version="2" timestamp="2009-12-26T06:18:27Z" uid="61114" user="Trav" changeset="3452335">
    <nd ref="246482459"/>
    <nd ref="246482507"/>
    <nd ref="246482508"/>
    <nd ref="599479975"/>
    <nd ref="246482509"/>
    <tag k="highway" v="residential"/>
    <tag k="name" v="Hemosa Court"/>
    <tag k="source:name" v="survey"/>
  </way>
  <way id="22895895" version="2" timestamp="2009-12-26T06:18:19Z" uid="61114" user="Trav" changeset="3452335">
    <nd ref="246482508"/>
    <nd ref="246482520"/>
    <tag k="highway" v="residential"/>
    <tag k="name" v="Banjo Court"/>
    <tag k="source:name" v="survey"/>
  </way>
  <way id="22895896" version="7" timestamp="2009-07-05T13:22:30Z" uid="74617" user="JohnSmith" changeset="1739301">
    <nd ref="246482532"/>
    <nd ref="246482531"/>
    <nd ref="247853576"/>
    <nd ref="246482483"/>
    <tag k="created_by" v="Potlatch 0.7"/>
    <tag k="highway" v="trunk"/>
    <tag k="lanes" v="1"/>
    <tag k="maxspeed" v="60"/>
    <tag k="name" v="John Rice Avenue"/>
    <tag k="oneway" v="yes"/>
    <tag k="ref" v="A13"/>
  </way>
  <way id="22895903" version="13" timestamp="2009-07-05T13:22:29Z" uid="74617" user="JohnSmith" changeset="1739301">
    <nd ref="246482759"/>
    <nd ref="246482760"/>
    <nd ref="246482646"/>
    <nd ref="247853575"/>
    <nd ref="31370020"/>
    <nd ref="246483079"/>
    <nd ref="246482991"/>
    <tag k="created_by" v="Potlatch 0.7"/>
    <tag k="highway" v="trunk"/>
    <tag k="lanes" v="2"/>
    <tag k="maxspeed" v="60"/>
    <tag k="name" v="John Rice Avenue"/>
    <tag k="oneway" v="yes"/>
    <tag k="ref" v="A13"/>
    <tag k="source" v="survey"/>
  </way>
  <way id="22895937" version="11" timestamp="2009-07-05T13:22:30Z" uid="74617" user="JohnSmith" changeset="1739301">
    <nd ref="246482991"/>
    <nd ref="246482532"/>
    <tag k="created_by" v="Potlatch 0.7"/>
    <tag k="highway" v="trunk"/>
    <tag k="lanes" v="2"/>
    <tag k="maxspeed" v="60"/>
    <tag k="name" v="John Rice Avenue"/>
    <tag k="oneway" v="yes"/>
    <tag k="ref" v="A13"/>
    <tag k="source" v="survey"/>
  </way>
  <way id="22895948" version="8" timestamp="2009-12-24T02:45:24Z" uid="6975" user="ulfl" changeset="3439648">
    <nd ref="496414464"/>
    <nd ref="246483027"/>
    <tag k="highway" v="tertiary"/>
    <tag k="maxlength" v="7"/>
    <tag k="name" v="Via Liliana Rossi"/>
    <tag k="oneway" v="yes"/>
  </way>
  <way id="22895961" version="7" timestamp="2009-07-05T13:22:31Z" uid="74617" user="JohnSmith" changeset="1739301">
    <nd ref="246483148"/>
    <nd ref="246483079"/>
    <tag k="created_by" v="Potlatch 0.7"/>
    <tag k="highway" v="trunk"/>
    <tag k="lanes" v="1"/>
    <tag k="maxspeed" v="60"/>
    <tag k="name" v="John Rice Avenue"/>
    <tag k="oneway" v="yes"/>
    <tag k="ref" v="A13"/>
    <tag k="source" v="survey"/>
  </way>
  <way id="22895974" version="7" timestamp="2009-12-26T06:20:40Z" uid="61114" user="Trav" changeset="3452335">
    <nd ref="246481233"/>
    <nd ref="246483320"/>
    <nd ref="246483370"/>
    <nd ref="246483321"/>
    <nd ref="246483566"/>
    <nd ref="246483322"/>
    <nd ref="246483323"/>
    <nd ref="599480830"/>
    <nd ref="472266865"/>
    <nd ref="246483324"/>
    <nd ref="246483541"/>
    <nd ref="246483325"/>
    <tag k="highway" v="residential"/>
    <tag k="name" v="Celeste Avenue"/>
    <tag k="source:name" v="survey"/>
  </way>
  <way id="22895985" version="5" timestamp="2009-12-26T06:22:27Z" uid="61114" user="Trav" changeset="3452335">
    <nd ref="246483325"/>
    <nd ref="599480814"/>
    <nd ref="246483363"/>
    <nd ref="246483364"/>
    <nd ref="246483365"/>
    <nd ref="246483366"/>
    <nd ref="246483530"/>
    <nd ref="599481381"/>
    <nd ref="246483531"/>
    <tag k="highway" v="residential"/>
    <tag k="name" v="Octagonal Avenue"/>
    <tag k="source:name" v="survey"/>
  </way>
  <way id="22895989" version="2" timestamp="2009-12-26T06:20:32Z" uid="61114" user="Trav" changeset="3452335">
    <nd ref="246483364"/>
    <nd ref="246483401"/>
    <nd ref="599480811"/>
    <nd ref="246483403"/>
    <tag k="highway" v="residential"/>
    <tag k="name" v="Danehill Court"/>
    <tag k="source:name" v="survey"/>
  </way>
  <way id="22895991" version="2" timestamp="2009-12-26T06:23:00Z" uid="61114" user="Trav" changeset="3452335"/>
  <way id="22895996" version="2" timestamp="2009-12-26T06:20:36Z" uid="61114" user="Trav" changeset="3452335">
    <nd ref="246483541"/>
    <nd ref="246483556"/>
    <nd ref="246483557"/>
    <nd ref="246483558"/>
    <tag k="highway" v="residential"/>
    <tag k="name" v="Bentham Place"/>
    <tag k="source:name" v="survey"/>
  </way>
  <way id="22895999" version="2" timestamp="2009-12-26T06:22:31Z" uid="61114" user="Trav" changeset="3452335">
    <nd ref="246483566"/>
    <nd ref="599481395"/>
    <nd ref="246483583"/>
    <nd ref="246483585"/>
    <tag k="highway" v="residential"/>
    <tag k="name" v="Giovanna Court"/>
  </way>
</osm>
