<?xml version='1.0' encoding='UTF-8'?>
<osm version="0.6" generator="libosmium/2.20.0">
  <way id="22907057" version="3" timestamp="2009-04-25T23:20:52Z" uid="26515" user="Simon Ward" changeset="963396">
    <nd ref="246630855"/>
    <nd ref="246629799"/>
    <nd ref="246631140"/>
    <nd ref="385021158"/>
    <nd ref="246630339"/>
    <nd ref="246630996"/>
    <nd ref="246630252"/>
    <nd ref="246630915"/>
    <nd ref="246630198"/>
    <nd ref="246630863"/>
    <nd ref="246630069"/>
    <nd ref="246630035"/>
    <nd ref="246630780"/>
    <nd ref="246629961"/>
    <nd ref="246630701"/>
    <nd ref="246629914"/>
    <nd ref="246630475"/>
    <nd ref="246629907"/>
    <nd ref="246630469"/>
    <nd ref="246630344"/>
    <tag k="created_by" v="Merkaartor 0.12"/>
    <tag k="highway" v="trunk"/>
    <tag k="oneway" v="yes"/>
    <tag k="ref" v="A41"/>
  </way>
  <way id="22907127" version="8" timestamp="2011-01-05T01:29:05Z" uid="6269" user="Mueck" changeset="6867724">
    <nd ref="246628685"/>
    <nd ref="442698790"/>
    <nd ref="1083004730"/>
    <nd ref="1083004727"/>
    <nd ref="246628686"/>
    <nd ref="1083004637"/>
    <nd ref="429174108"/>
    <nd ref="429179779"/>
    <nd ref="429174111"/>
    <tag k="highway" v="residential"/>
    <tag k="maxspeed" v="30"/>
    <tag k="name" v="Wollgrasweg"/>
    <tag k="source" v="survey"/>
    <tag k="surface" v="paved"/>
  </way>
  <way id="22907143" version="8" timestamp="2011-01-05T01:29:05Z" uid="6269" user="Mueck" changeset="6867724">
    <nd ref="155288388"/>
    <nd ref="155288389"/>
    <nd ref="155288390"/>
    <nd ref="155288391"/>
    <nd ref="1083004690"/>
    <nd ref="999744560"/>
    <nd ref="246628922"/>
    <nd ref="999744564"/>
    <nd ref="1083004653"/>
    <nd ref="1083004665"/>
    <nd ref="1083004652"/>
    <nd ref="1083004750"/>
    <nd ref="246628936"/>
    <nd ref="192473486"/>
    <nd ref="1000486312"/>
    <nd ref="155285090"/>
    <tag k="highway" v="tertiary"/>
    <tag k="maxspeed" v="30"/>
    <tag k="name" v="Vorarlberger Straße"/>
    <tag k="surface" v="paved"/>
  </way>
  <way id="22907181" version="10" timestamp="2010-12-20T02:30:35Z" uid="6269" user="Mueck" changeset="6712500">
    <nd ref="246628036"/>
    <nd ref="1050539684"/>
    <nd ref="428921521"/>
    <nd ref="246628661"/>
    <nd ref="155303403"/>
    <nd ref="428921426"/>
    <nd ref="428921428"/>
    <nd ref="428921429"/>
    <nd ref="1050539526"/>
    <nd ref="428921432"/>
    <nd ref="923169435"/>
    <nd ref="428921434"/>
    <nd ref="1050539589"/>
    <nd ref="365690515"/>
    <tag k="highway" v="living_street"/>
    <tag k="name" v="Marschbrookweg"/>
    <tag k="source" v="GPS"/>
  </way>
  <way id="22907199" version="13" timestamp="2010-12-20T02:30:35Z" uid="6269" user="Mueck" changeset="6712500">
    <nd ref="155335907"/>
    <nd ref="1050539519"/>
    <nd ref="250850230"/>
    <nd ref="453638318"/>
    <nd ref="453638321"/>
    <nd ref="250850233"/>
    <nd ref="250850234"/>
    <nd ref="260545853"/>
    <nd ref="453638329"/>
    <nd ref="250850236"/>
    <nd ref="250850237"/>
    <nd ref="246628893"/>
    <nd ref="1050539688"/>
    <nd ref="260545928"/>
    <nd ref="246628894"/>
    <tag k="highway" v="unclassified"/>
    <tag k="name" v="Feldstraße"/>
    <tag k="surface" v="paved"/>
  </way>
  <way id="22907211" version="11" timestamp="2010-12-08T01:10:13Z" uid="6269" user="Mueck" changeset="6581581">
    <nd ref="246632220"/>
    <nd ref="1027386693"/>
    <nd ref="26562395"/>
    <nd ref="1027386325"/>
    <tag k="VzG" v="1740"/>
    <tag k="electrified" v="contact_line"/>
    <tag k="gauge" v="1435"/>
    <tag k="name" v="Bremerhaven-Wunstorf"/>
    <tag k="railway" v="rail"/>
    <tag k="source" v="bing"/>
  </way>
  <way id="22907211" version="12" timestamp="2010-12-08T22:44:12Z" uid="6269" user="Mueck" changeset="6590556">
    <nd ref="246632220"/>
    <nd ref="1027386693"/>
    <nd ref="26562395"/>
    <nd ref="1027386325"/>
    <tag k="VzG" v="1740"/>
    <tag k="electrified" v="contact_line"/>
    <tag k="embankment" v="yes"/>
    <tag k="gauge" v="1435"/>
    <tag k="railway" v="rail"/>
    <tag k="source" v="bing"/>
  </way>
  <way id="22907211" version="13" timestamp="2010-12-15T01:39:16Z" uid="6269" user="Mueck" changeset="6664218">
    <nd ref="246632220"/>
    <nd ref="1027386693"/>
    <nd ref="26562395"/>
    <nd ref="1027386325"/>
    <tag k="VzG" v="1740"/>
    <tag k="electrified" v="contact_line"/>
    <tag k="embankment" v="yes"/>
    <tag k="gauge" v="1435"/>
    <tag k="railway" v="rail"/>
    <tag k="source" v="bing"/>
    <tag k="usage" v="main"/>
  </way>
  <way id="22907212" version="10" timestamp="2010-12-08T01:10:13Z" uid="6269" user="Mueck" changeset="6581581">
    <nd ref="246632221"/>
    <nd ref="246632220"/>
    <tag k="VzG" v="1740"/>
    <tag k="bridge" v="yes"/>
    <tag k="electrified" v="contact_line"/>
    <tag k="gauge" v="1435"/>
    <tag k="layer" v="1"/>
    <tag k="name" v="Bremerhaven-Wunstorf"/>
    <tag k="railway" v="rail"/>
    <tag k="source" v="bing"/>
  </way>
  <way id="22907212" version="11" timestamp="2010-12-15T01:39:17Z" uid="6269" user="Mueck" changeset="6664218">
    <nd ref="246632221"/>
    <nd ref="246632220"/>
    <tag k="VzG" v="1740"/>
    <tag k="bridge" v="yes"/>
    <tag k="electrified" v="contact_line"/>
    <tag k="gauge" v="1435"/>
    <tag k="layer" v="1"/>
    <tag k="name" v="Bremerhaven-Wunstorf"/>
    <tag k="railway" v="rail"/>
    <tag k="source" v="bing"/>
    <tag k="usage" v="main"/>
  </way>
  <way id="22907220" version="8" timestamp="2010-08-18T21:44:41Z" uid="6269" user="Mueck" changeset="5531017">
    <nd ref="246632266"/>
    <nd ref="246632343"/>
    <nd ref="428919970"/>
    <nd ref="428919686"/>
    <nd ref="654040200"/>
    <nd ref="428919971"/>
    <nd ref="428919972"/>
    <nd ref="867448086"/>
    <tag k="highway" v="residential"/>
    <tag k="name" v="Georg-Büchner-Straße"/>
  </way>
  <way id="22907220" version="9" timestamp="2010-12-20T02:30:35Z" uid="6269" user="Mueck" changeset="6712500">
    <nd ref="246632266"/>
    <nd ref="246632343"/>
    <nd ref="428919970"/>
    <nd ref="1050539710"/>
    <nd ref="428919686"/>
    <nd ref="1050539637"/>
    <nd ref="654040200"/>
    <nd ref="428919971"/>
    <nd ref="428919972"/>
    <nd ref="867448086"/>
    <tag k="highway" v="residential"/>
    <tag k="name" v="Georg-Büchner-Straße"/>
  </way>
  <way id="22907264" version="5" timestamp="2011-03-21T08:50:48Z" uid="4467" user="Rosscoe" changeset="7625026">
    <nd ref="246633758"/>
    <nd ref="246633760"/>
    <nd ref="246633761"/>
    <nd ref="246633762"/>
    <nd ref="246633758"/>
    <tag k="amenity" v="school"/>
    <tag k="name" v="Salisbury East High School"/>
    <tag k="source" v="Yahoo Imagery"/>
  </way>
  <way id="22907287" version="13" timestamp="2011-03-21T08:50:44Z" uid="4467" user="Rosscoe" changeset="7625026">
    <nd ref="246441772"/>
    <nd ref="246441770"/>
    <nd ref="249453819"/>
    <nd ref="1211681413"/>
    <nd ref="1211681417"/>
    <nd ref="249453832"/>
    <nd ref="246634475"/>
    <nd ref="246634476"/>
    <nd ref="673556807"/>
    <nd ref="1037217946"/>
    <nd ref="246634477"/>
    <nd ref="246634478"/>
    <nd ref="249453889"/>
    <nd ref="1037217931"/>
    <nd ref="246634479"/>
    <nd ref="246634480"/>
    <nd ref="246634481"/>
    <nd ref="1037218027"/>
    <nd ref="246634482"/>
    <nd ref="249453984"/>
    <nd ref="249453986"/>
    <nd ref="249453909"/>
    <nd ref="249655673"/>
    <nd ref="249539344"/>
    <nd ref="246634519"/>
    <tag k="highway" v="residential"/>
    <tag k="maxspeed" v="50"/>
    <tag k="name" v="Glouster Avenue"/>
    <tag k="source" v="survey"/>
  </way>
  <way id="22907305" version="8" timestamp="2011-03-19T15:29:48Z" uid="4467" user="Rosscoe" changeset="7606154">
    <nd ref="1209100434"/>
    <nd ref="246635174"/>
    <nd ref="246634592"/>
    <nd ref="246634593"/>
    <nd ref="246634594"/>
    <nd ref="246635226"/>
    <nd ref="246634596"/>
    <nd ref="246634597"/>
    <nd ref="246634598"/>
    <nd ref="246634599"/>
    <tag k="highway" v="tertiary"/>
    <tag k="maxspeed" v="50"/>
    <tag k="name" v="Wynn Vale Drive"/>
    <tag k="source" v="survey"/>
  </way>
  <way id="22907308" version="6" timestamp="2009-01-15T17:43:30Z" uid="49111" user="Markus B" changeset="791224">
    <nd ref="246634582"/>
    <nd ref="246634605"/>
    <nd ref="246634606"/>
    <nd ref="246634607"/>
    <nd ref="246634608"/>
    <nd ref="246634609"/>
    <nd ref="246634610"/>
    <nd ref="332258439"/>
    <nd ref="246634611"/>
    <nd ref="246634612"/>
    <nd ref="246634613"/>
    <nd ref="246634614"/>
    <nd ref="332258440"/>
    <nd ref="246634615"/>
    <nd ref="246634616"/>
    <nd ref="246634617"/>
    <nd ref="332258437"/>
    <nd ref="246634618"/>
    <nd ref="332258438"/>
    <nd ref="246634619"/>
    <nd ref="246634620"/>
    <nd ref="332258328"/>
    <nd ref="246634621"/>
    <nd ref="332258327"/>
    <nd ref="332258326"/>
    <nd ref="271386217"/>
    <nd ref="332258433"/>
    <nd ref="271386218"/>
    <nd ref="332258435"/>
    <nd ref="332258434"/>
    <nd ref="271386219"/>
    <nd ref="271386220"/>
    <nd ref="271386221"/>
    <nd ref="332258428"/>
    <nd ref="332258432"/>
    <nd ref="332258427"/>
    <nd ref="271386222"/>
    <nd ref="332258429"/>
    <nd ref="271386223"/>
    <nd ref="271386224"/>
    <nd ref="332258430"/>
    <nd ref="332258426"/>
    <nd ref="332258431"/>
    <nd ref="271386225"/>
    <nd ref="271386226"/>
    <nd ref="271386227"/>
    <nd ref="332258425"/>
    <nd ref="271386228"/>
    <nd ref="271386229"/>
    <nd ref="332258424"/>
    <nd ref="271386230"/>
    <nd ref="271386231"/>
    <nd ref="271386232"/>
    <nd ref="271386239"/>
    <nd ref="271386245"/>
    <nd ref="271386253"/>
    <nd ref="271386254"/>
    <nd ref="271386255"/>
    <nd ref="271386256"/>
    <nd ref="271386257"/>
    <tag k="created_by" v="Potlatch 0.9c"/>
    <tag k="highway" v="tertiary"/>
  </way>
  <way id="22907310" version="7" timestamp="2011-03-19T15:30:51Z" uid="4467" user="Rosscoe" changeset="7606154">
    <nd ref="246634599"/>
    <nd ref="246634645"/>
    <nd ref="246634646"/>
    <nd ref="246634647"/>
    <nd ref="246634599"/>
    <tag k="highway" v="tertiary"/>
    <tag k="junction" v="roundabout"/>
    <tag k="maxspeed" v="50"/>
    <tag k="name" v="Wynn Vale Drive"/>
    <tag k="source" v="survey"/>
  </way>
  <way id="22907327" version="13" timestamp="2009-01-15T17:43:23Z" uid="49111" user="Markus B" changeset="791224">
    <nd ref="246634619"/>
    <nd ref="246634737"/>
    <nd ref="246634738"/>
    <nd ref="246634739"/>
    <nd ref="246634740"/>
    <nd ref="246634741"/>
    <nd ref="332258436"/>
    <nd ref="246634742"/>
    <nd ref="246634743"/>
    <nd ref="246634744"/>
    <nd ref="246634745"/>
    <nd ref="246634746"/>
    <nd ref="246634747"/>
    <nd ref="246634748"/>
    <nd ref="246634749"/>
    <nd ref="246634750"/>
    <nd ref="279007240"/>
    <tag k="created_by" v="Potlatch 0.9c"/>
    <tag k="highway" v="tertiary"/>
    <tag k="name" v="Etzelstrasse"/>
  </way>
  <way id="22907352" version="7" timestamp="2011-03-19T15:30:40Z" uid="4467" user="Rosscoe" changeset="7606154">
    <nd ref="246634592"/>
    <nd ref="246635049"/>
    <nd ref="246635050"/>
    <nd ref="252558703"/>
    <nd ref="246635051"/>
    <nd ref="246635052"/>
    <nd ref="246635053"/>
    <nd ref="246635054"/>
    <nd ref="246635055"/>
    <nd ref="246635056"/>
    <nd ref="246635057"/>
    <nd ref="252558715"/>
    <nd ref="252558787"/>
    <nd ref="246635058"/>
    <nd ref="246635059"/>
    <nd ref="246635060"/>
    <nd ref="246635061"/>
    <nd ref="358832473"/>
    <nd ref="57418168"/>
    <tag k="highway" v="residential"/>
    <tag k="maxspeed" v="50"/>
    <tag k="name" v="Cornwall Drive"/>
    <tag k="source" v="survey"/>
    <tag k="source_ref:name" v="http://osm.beldin.org/2009/03/dscf7937.jpg"/>
  </way>
  <way id="22907373" version="4" timestamp="2011-03-19T15:30:08Z" uid="4467" user="Rosscoe" changeset="7606154">
    <nd ref="246635226"/>
    <nd ref="246635227"/>
    <nd ref="246635228"/>
    <nd ref="246635229"/>
    <tag k="highway" v="residential"/>
    <tag k="maxspeed" v="50"/>
    <tag k="name" v="Alcazar Avenue"/>
    <tag k="source" v="yahoo"/>
  </way>
  <way id="22907422" version="2" timestamp="2008-09-16T10:38:08Z" uid="1066" user="pavel" changeset="646258">
    <nd ref="246635626"/>
    <nd ref="246635627"/>
    <nd ref="246635628"/>
    <nd ref="246635629"/>
    <nd ref="246635630"/>
    <nd ref="246635631"/>
    <nd ref="246635632"/>
    <tag k="created_by" v="JOSM"/>
    <tag k="highway" v="residential"/>
    <tag k="name" v="Řeporyjská"/>
    <tag k="name:source" v="nameit/uir-adr"/>
  </way>
  <way id="22907463" version="4" timestamp="2010-07-09T06:57:50Z" uid="74617" user="JohnSmith" changeset="5171447">
    <nd ref="246634957"/>
    <nd ref="246635965"/>
    <nd ref="246635966"/>
    <nd ref="246635967"/>
    <nd ref="246635968"/>
    <nd ref="246635969"/>
    <nd ref="246635970"/>
    <nd ref="246635971"/>
    <nd ref="246635972"/>
    <nd ref="246635973"/>
    <nd ref="246635974"/>
    <nd ref="246635975"/>
    <tag k="highway" v="residential"/>
    <tag k="maxspeed" v="50"/>
    <tag k="maxspeed:source" v="default residential speed limit in Australia"/>
    <tag k="source" v="Yahoo Imagery"/>
  </way>
  <way id="22907466" version="9" timestamp="2010-03-27T23:30:31Z" uid="20587" user="balrog-kun" changeset="4250871">
    <nd ref="122990232"/>
    <nd ref="322745238"/>
    <nd ref="122623646"/>
    <nd ref="122990238"/>
    <nd ref="122990241"/>
    <tag k="created_by" v="Potlatch 0.10f"/>
    <tag k="highway" v="pedestrian"/>
    <tag k="name" v="16th Street"/>
    <tag k="tiger:cfcc" v="A41"/>
    <tag k="tiger:county" v="Los Angeles, CA"/>
    <tag k="tiger:name_base" v="16th"/>
    <tag k="tiger:name_type" v="St"/>
    <tag k="tiger:reviewed" v="no"/>
    <tag k="tiger:separated" v="no"/>
    <tag k="tiger:source" v="tiger_import_dch_v0.6_20070809"/>
    <tag k="tiger:tlid" v="141581412:141581422"/>
    <tag k="tiger:zip_left" v="90266"/>
    <tag k="tiger:zip_right" v="90266"/>
  </way>
  <way id="22907474" version="6" timestamp="2009-08-24T07:20:36Z" uid="74617" user="JohnSmith" changeset="2240208"/>
  <way id="22907475" version="4" timestamp="2010-07-09T06:59:57Z" uid="74617" user="JohnSmith" changeset="5171447">
    <nd ref="246636014"/>
    <nd ref="246636015"/>
    <nd ref="246635966"/>
    <tag k="highway" v="residential"/>
    <tag k="maxspeed" v="50"/>
    <tag k="maxspeed:source" v="default residential speed limit in Australia"/>
    <tag k="source" v="Yahoo Imagery"/>
  </way>
  <way id="22907489" version="7" timestamp="2010-07-09T06:57:04Z" uid="74617" user="JohnSmith" changeset="5171447">
    <nd ref="246636144"/>
    <nd ref="246636143"/>
    <nd ref="246636142"/>
    <nd ref="246636141"/>
    <nd ref="246636140"/>
    <nd ref="246636153"/>
    <nd ref="246636148"/>
    <nd ref="246636139"/>
    <nd ref="246636138"/>
    <nd ref="246636137"/>
    <nd ref="246636136"/>
    <nd ref="246636070"/>
    <tag k="highway" v="residential"/>
    <tag k="maxspeed" v="50"/>
    <tag k="maxspeed:source" v="default residential speed limit in Australia"/>
    <tag k="source" v="Yahoo Imagery"/>
  </way>
  <way id="22907490" version="4" timestamp="2010-07-09T06:58:19Z" uid="74617" user="JohnSmith" changeset="5171447">
    <nd ref="246636142"/>
    <nd ref="246636145"/>
    <tag k="highway" v="residential"/>
    <tag k="maxspeed" v="50"/>
    <tag k="maxspeed:source" v="default residential speed limit in Australia"/>
    <tag k="source" v="yahoo"/>
  </way>
  <way id="22907494" version="4" timestamp="2010-07-09T06:57:53Z" uid="74617" user="JohnSmith" changeset="5171447">
    <nd ref="246636154"/>
    <nd ref="246636155"/>
    <nd ref="246636156"/>
    <nd ref="246636157"/>
    <nd ref="246636137"/>
    <tag k="highway" v="residential"/>
    <tag k="maxspeed" v="50"/>
    <tag k="maxspeed:source" v="default residential speed limit in Australia"/>
    <tag k="source" v="Yahoo Imagery"/>
  </way>
  <way id="22907536" version="6" timestamp="2009-08-24T07:20:36Z" uid="74617" user="JohnSmith" changeset="2240208"/>
  <way id="22907556" version="3" timestamp="2008-09-16T10:40:23Z" uid="1066" user="pavel" changeset="646258">
    <nd ref="176916177"/>
    <nd ref="246636668"/>
    <nd ref="246636706"/>
    <nd ref="246636669"/>
    <nd ref="246636670"/>
    <nd ref="246636671"/>
    <nd ref="246636687"/>
    <nd ref="246636688"/>
    <nd ref="246636689"/>
    <nd ref="246636690"/>
    <nd ref="246636691"/>
    <nd ref="246636981"/>
    <nd ref="246636692"/>
    <nd ref="243900620"/>
    <nd ref="243900612"/>
    <tag k="created_by" v="JOSM"/>
    <tag k="highway" v="residential"/>
    <tag k="name" v="V hůrkách"/>
    <tag k="name:source" v="nameit/uir-adr"/>
  </way>
  <way id="22907558" version="3" timestamp="2008-09-16T10:38:10Z" uid="1066" user="pavel" changeset="646258">
    <nd ref="246636670"/>
    <nd ref="246636681"/>
    <nd ref="246636682"/>
    <nd ref="246636685"/>
    <nd ref="246636686"/>
    <tag k="created_by" v="Potlatch 0.7b"/>
    <tag k="highway" v="residential"/>
    <tag k="name" v="Suchý vršek"/>
    <tag k="name:source" v="nameit/uir-adr"/>
  </way>
  <way id="22907559" version="3" timestamp="2008-09-16T10:33:54Z" uid="1066" user="pavel" changeset="646258">
    <nd ref="246636705"/>
    <nd ref="246636704"/>
    <nd ref="246636693"/>
    <nd ref="246636686"/>
    <nd ref="246636694"/>
    <nd ref="246636695"/>
    <nd ref="246636696"/>
    <nd ref="246636697"/>
    <nd ref="246636698"/>
    <nd ref="246636699"/>
    <nd ref="246636700"/>
    <nd ref="246636701"/>
    <nd ref="246636702"/>
    <nd ref="246636703"/>
    <nd ref="246636671"/>
    <tag k="created_by" v="Potlatch 0.7b"/>
    <tag k="highway" v="residential"/>
    <tag k="name" v="Suchý vršek"/>
    <tag k="name:source" v="nameit/uir-adr"/>
  </way>
  <way id="22907562" version="2" timestamp="2008-09-16T10:35:14Z" uid="1066" user="pavel" changeset="646258">
    <nd ref="246636669"/>
    <nd ref="246636672"/>
    <nd ref="246636673"/>
    <nd ref="246636674"/>
    <nd ref="246636675"/>
    <nd ref="246636676"/>
    <nd ref="246636677"/>
    <nd ref="246636678"/>
    <nd ref="246636679"/>
    <nd ref="246636680"/>
    <nd ref="246636674"/>
    <tag k="created_by" v="JOSM"/>
    <tag k="highway" v="residential"/>
    <tag k="name" v="Husníkova"/>
    <tag k="name:source" v="nameit/uir-adr"/>
  </way>
  <way id="22907565" version="2" timestamp="2008-09-16T10:38:53Z" uid="1066" user="pavel" changeset="646258">
    <nd ref="243297940"/>
    <nd ref="246636719"/>
    <tag k="created_by" v="JOSM"/>
    <tag k="highway" v="residential"/>
    <tag k="name" v="Ovčí hájek"/>
    <tag k="name:source" v="nameit/uir-adr"/>
  </way>
  <way id="22907609" version="2" timestamp="2008-09-16T10:35:18Z" uid="1066" user="pavel" changeset="646258">
    <nd ref="246636906"/>
    <nd ref="246636909"/>
    <nd ref="246636933"/>
    <nd ref="246636934"/>
    <nd ref="246636935"/>
    <nd ref="246636936"/>
    <tag k="created_by" v="JOSM"/>
    <tag k="highway" v="residential"/>
    <tag k="name" v="Petržílkova"/>
    <tag k="name:source" v="nameit/uir-adr"/>
  </way>
  <way id="22907610" version="2" timestamp="2008-09-16T10:38:42Z" uid="1066" user="pavel" changeset="646258">
    <nd ref="243899811"/>
    <nd ref="246636937"/>
    <nd ref="246636938"/>
    <nd ref="246636939"/>
    <nd ref="246636940"/>
    <nd ref="246636941"/>
    <nd ref="246636943"/>
    <nd ref="246636942"/>
    <tag k="created_by" v="JOSM"/>
    <tag k="highway" v="residential"/>
    <tag k="name" v="Volutová"/>
    <tag k="name:source" v="nameit/uir-adr"/>
  </way>
  <way id="22907611" version="2" timestamp="2008-09-16T10:34:25Z" uid="1066" user="pavel" changeset="646258">
    <nd ref="246636937"/>
    <nd ref="246636943"/>
    <nd ref="246636944"/>
    <nd ref="246636945"/>
    <nd ref="246636946"/>
    <nd ref="246636947"/>
    <nd ref="246636948"/>
    <nd ref="246636949"/>
    <nd ref="246636950"/>
    <nd ref="246636951"/>
    <nd ref="246636952"/>
    <nd ref="246636953"/>
    <nd ref="246636955"/>
    <nd ref="176916169"/>
    <tag k="created_by" v="JOSM"/>
    <tag k="highway" v="residential"/>
    <tag k="name" v="Volutová"/>
    <tag k="name:source" v="nameit/uir-adr"/>
  </way>
  <way id="22907612" version="2" timestamp="2008-09-16T10:38:35Z" uid="1066" user="pavel" changeset="646258">
    <nd ref="246636956"/>
    <nd ref="246636957"/>
    <nd ref="246636958"/>
    <nd ref="246636959"/>
    <nd ref="246636961"/>
    <nd ref="246636971"/>
    <nd ref="246636978"/>
    <nd ref="246636979"/>
    <nd ref="246636980"/>
    <nd ref="246636981"/>
    <tag k="created_by" v="JOSM"/>
    <tag k="highway" v="residential"/>
    <tag k="name" v="Petržílkova"/>
    <tag k="name:source" v="nameit/uir-adr"/>
  </way>
  <way id="22907629" version="5" timestamp="2010-07-09T06:59:06Z" uid="74617" user="JohnSmith" changeset="5171447">
    <nd ref="246637124"/>
    <nd ref="246637128"/>
    <nd ref="246637129"/>
    <tag k="highway" v="residential"/>
    <tag k="maxspeed" v="50"/>
    <tag k="maxspeed:source" v="default residential speed limit in Australia"/>
    <tag k="name" v="Courtyard Place"/>
    <tag k="source" v="yahoo"/>
  </way>
  <way id="22907633" version="4" timestamp="2010-07-09T06:59:17Z" uid="74617" user="JohnSmith" changeset="5171447">
    <nd ref="246637134"/>
    <nd ref="246637161"/>
    <nd ref="246637162"/>
    <tag k="highway" v="residential"/>
    <tag k="maxspeed" v="50"/>
    <tag k="maxspeed:source" v="default residential speed limit in Australia"/>
    <tag k="name" v="Courtyard Place"/>
    <tag k="source" v="yahoo"/>
  </way>
  <way id="22907635" version="4" timestamp="2010-07-09T06:58:06Z" uid="74617" user="JohnSmith" changeset="5171447">
    <nd ref="246637166"/>
    <nd ref="246637167"/>
    <nd ref="246637168"/>
    <tag k="highway" v="residential"/>
    <tag k="maxspeed" v="50"/>
    <tag k="maxspeed:source" v="default residential speed limit in Australia"/>
    <tag k="name" v="Courtyard Place"/>
    <tag k="source" v="yahoo"/>
  </way>
  <way id="22907639" version="2" timestamp="2008-09-16T10:33:48Z" uid="1066" user="pavel" changeset="646258">
    <nd ref="246637195"/>
    <nd ref="246637194"/>
    <nd ref="246637193"/>
    <nd ref="246637192"/>
    <nd ref="246637191"/>
    <nd ref="246637189"/>
    <nd ref="246637190"/>
    <tag k="created_by" v="JOSM"/>
    <tag k="highway" v="residential"/>
    <tag k="name" v="Běhounkova"/>
    <tag k="name:source" v="nameit/uir-adr"/>
  </way>
  <way id="22907647" version="4" timestamp="2009-08-24T07:20:36Z" uid="74617" user="JohnSmith" changeset="2240208"/>
  <way id="22907726" version="2" timestamp="2008-09-16T10:36:37Z" uid="1066" user="pavel" changeset="646258">
    <nd ref="60281922"/>
    <nd ref="246638211"/>
    <nd ref="246638220"/>
    <nd ref="246638223"/>
    <nd ref="246638252"/>
    <nd ref="246638227"/>
    <tag k="created_by" v="JOSM"/>
    <tag k="highway" v="residential"/>
    <tag k="name" v="Jindrova"/>
    <tag k="name:source" v="nameit/uir-adr"/>
  </way>
  <way id="22907727" version="2" timestamp="2008-09-16T10:40:26Z" uid="1066" user="pavel" changeset="646258">
    <nd ref="246638238"/>
    <nd ref="60281916"/>
    <nd ref="60281917"/>
    <nd ref="60281918"/>
    <tag k="created_by" v="JOSM"/>
    <tag k="highway" v="residential"/>
    <tag k="name" v="Jindrova"/>
    <tag k="name:source" v="nameit/uir-adr"/>
  </way>
  <way id="22907729" version="2" timestamp="2008-05-24T22:33:10Z" uid="1066" user="pavel" changeset="518222">
    <nd ref="266707241"/>
    <nd ref="266707240"/>
    <nd ref="266707239"/>
    <nd ref="266707238"/>
    <nd ref="266707237"/>
    <nd ref="266707236"/>
    <nd ref="266707235"/>
    <nd ref="266707234"/>
    <nd ref="266707233"/>
    <nd ref="266707232"/>
    <nd ref="266707231"/>
    <nd ref="266707230"/>
    <nd ref="266707229"/>
    <nd ref="266707147"/>
    <nd ref="266707145"/>
    <nd ref="266707141"/>
    <nd ref="266707138"/>
    <nd ref="266707132"/>
    <nd ref="266707129"/>
    <nd ref="266707126"/>
    <nd ref="266707122"/>
    <nd ref="266707118"/>
    <nd ref="266707114"/>
    <nd ref="266707111"/>
    <nd ref="266707107"/>
    <nd ref="266707104"/>
    <nd ref="266707100"/>
    <nd ref="266707095"/>
    <nd ref="266707091"/>
    <nd ref="266707087"/>
    <nd ref="266707084"/>
    <nd ref="266707080"/>
    <nd ref="266707078"/>
    <nd ref="266707077"/>
    <nd ref="266707076"/>
    <nd ref="266707075"/>
    <nd ref="266707074"/>
    <nd ref="266707073"/>
    <nd ref="266706747"/>
    <tag k="created_by" v="JOSM"/>
    <tag k="highway" v="unclassified"/>
    <tag k="kct_yellow" v="major"/>
  </way>
  <way id="22907730" version="2" timestamp="2008-09-16T10:34:12Z" uid="1066" user="pavel" changeset="646258">
    <nd ref="246638238"/>
    <nd ref="246638252"/>
    <tag k="created_by" v="JOSM"/>
    <tag k="highway" v="residential"/>
    <tag k="name" v="Jindrova"/>
    <tag k="name:source" v="nameit/uir-adr"/>
  </way>
  <way id="22907731" version="2" timestamp="2008-09-16T10:38:12Z" uid="1066" user="pavel" changeset="646258">
    <nd ref="246638227"/>
    <nd ref="246638253"/>
    <nd ref="246638254"/>
    <nd ref="246638255"/>
    <nd ref="246638256"/>
    <nd ref="246638257"/>
    <nd ref="60281911"/>
    <tag k="created_by" v="JOSM"/>
    <tag k="highway" v="residential"/>
    <tag k="name" v="Živcových"/>
    <tag k="name:source" v="nameit/uir-adr"/>
  </way>
  <way id="22907866" version="2" timestamp="2008-09-16T10:34:43Z" uid="1066" user="pavel" changeset="646258">
    <nd ref="1324063"/>
    <nd ref="25925451"/>
    <nd ref="25925457"/>
    <nd ref="246638971"/>
    <nd ref="246638972"/>
    <nd ref="246638973"/>
    <nd ref="246638974"/>
    <nd ref="246638975"/>
    <nd ref="246638976"/>
    <nd ref="246638977"/>
    <nd ref="246638978"/>
    <nd ref="246638979"/>
    <nd ref="246638980"/>
    <nd ref="246638981"/>
    <nd ref="246638982"/>
    <nd ref="246638983"/>
    <nd ref="246638984"/>
    <nd ref="246638985"/>
    <nd ref="246638986"/>
    <nd ref="246638987"/>
    <nd ref="246638988"/>
    <nd ref="30778582"/>
    <tag k="created_by" v="JOSM"/>
    <tag k="highway" v="residential"/>
    <tag k="name" v="Na pomezí"/>
    <tag k="name:source" v="nameit/uir-adr"/>
  </way>
  <way id="22907878" version="2" timestamp="2008-09-16T10:36:39Z" uid="1066" user="pavel" changeset="646258">
    <nd ref="25926026"/>
    <nd ref="246639061"/>
    <nd ref="246639062"/>
    <nd ref="246639071"/>
    <nd ref="246639063"/>
    <tag k="created_by" v="JOSM"/>
    <tag k="highway" v="residential"/>
    <tag k="name" v="Na Hutmance"/>
    <tag k="name:source" v="nameit/uir-adr"/>
  </way>
  <way id="22907879" version="2" timestamp="2008-09-16T10:40:35Z" uid="1066" user="pavel" changeset="646258">
    <nd ref="246639062"/>
    <nd ref="246639064"/>
    <tag k="created_by" v="JOSM"/>
    <tag k="highway" v="residential"/>
    <tag k="name" v="V ohybu"/>
    <tag k="name:source" v="nameit/uir-adr"/>
  </way>
  <way id="22907880" version="2" timestamp="2008-09-16T10:37:00Z" uid="1066" user="pavel" changeset="646258">
    <nd ref="246639065"/>
    <nd ref="246639064"/>
    <nd ref="246639066"/>
    <tag k="created_by" v="JOSM"/>
    <tag k="highway" v="residential"/>
    <tag k="name" v="V ohybu"/>
    <tag k="name:source" v="nameit/uir-adr"/>
  </way>
  <way id="22907881" version="2" timestamp="2008-09-16T10:34:28Z" uid="1066" user="pavel" changeset="646258">
    <nd ref="246639061"/>
    <nd ref="246639067"/>
    <nd ref="25926023"/>
    <tag k="created_by" v="JOSM"/>
    <tag k="highway" v="residential"/>
    <tag k="name" v="U Waltrovky"/>
    <tag k="name:source" v="nameit/uir-adr"/>
  </way>
</osm>
