<?xml version='1.0' encoding='UTF-8'?>
<osm version="0.6" generator="libosmium/2.20.0">
  <way id="22980010" version="4" timestamp="2009-07-26T00:20:09Z" uid="4467" user="Rosscoe" changeset="1939703">
    <nd ref="247714646"/>
    <nd ref="247714647"/>
    <nd ref="287269375"/>
    <tag k="highway" v="residential"/>
    <tag k="name" v="Acacia Avenue"/>
  </way>
  <way id="22980010" version="6" timestamp="2010-07-07T19:34:04Z" uid="74617" user="JohnSmith" changeset="5161069">
    <nd ref="247714646"/>
    <nd ref="798418264"/>
    <nd ref="247714647"/>
    <nd ref="287269375"/>
    <tag k="highway" v="residential"/>
    <tag k="maxspeed" v="50"/>
    <tag k="maxspeed:source" v="default residential speed limit in Australia"/>
    <tag k="name" v="Acacia Avenue"/>
  </way>
  <way id="22980016" version="5" timestamp="2009-07-26T00:20:42Z" uid="4467" user="Rosscoe" changeset="1939703">
    <nd ref="247714676"/>
    <nd ref="247714677"/>
    <tag k="highway" v="residential"/>
    <tag k="name" v="Orchid Avenue"/>
  </way>
  <way id="22980016" version="7" timestamp="2010-07-07T19:34:01Z" uid="74617" user="JohnSmith" changeset="5161069">
    <nd ref="247714676"/>
    <nd ref="798418276"/>
    <nd ref="247714677"/>
    <tag k="highway" v="residential"/>
    <tag k="maxspeed" v="50"/>
    <tag k="maxspeed:source" v="default residential speed limit in Australia"/>
    <tag k="name" v="Orchid Avenue"/>
  </way>
  <way id="22980038" version="5" timestamp="2010-07-07T19:27:44Z" uid="74617" user="JohnSmith" changeset="5161069">
    <nd ref="247714859"/>
    <nd ref="247714860"/>
    <nd ref="247714862"/>
    <nd ref="247714863"/>
    <tag k="highway" v="residential"/>
    <tag k="maxspeed" v="50"/>
    <tag k="maxspeed:source" v="default residential speed limit in Australia"/>
    <tag k="name" v="Waratah Avenue"/>
  </way>
  <way id="22980089" version="11" timestamp="2009-07-26T00:20:37Z" uid="4467" user="Rosscoe" changeset="1939703">
    <nd ref="247715269"/>
    <nd ref="247715270"/>
    <nd ref="247715271"/>
    <nd ref="247715272"/>
    <nd ref="247714676"/>
    <nd ref="247715273"/>
    <nd ref="249632361"/>
    <nd ref="247715274"/>
    <nd ref="247715275"/>
    <nd ref="247714646"/>
    <nd ref="247715276"/>
    <nd ref="247715277"/>
    <nd ref="247715278"/>
    <nd ref="247715279"/>
    <nd ref="247714584"/>
    <nd ref="247992732"/>
    <nd ref="247715280"/>
    <tag k="highway" v="residential"/>
    <tag k="name" v="Cedar Street"/>
  </way>
  <way id="22980089" version="13" timestamp="2010-07-07T19:28:19Z" uid="74617" user="JohnSmith" changeset="5161069">
    <nd ref="247715269"/>
    <nd ref="247715270"/>
    <nd ref="247715271"/>
    <nd ref="247715272"/>
    <nd ref="247714676"/>
    <nd ref="249632361"/>
    <nd ref="247715274"/>
    <nd ref="247714646"/>
    <nd ref="247715276"/>
    <nd ref="247715278"/>
    <nd ref="247715279"/>
    <nd ref="247714584"/>
    <nd ref="247992732"/>
    <nd ref="247715280"/>
    <tag k="highway" v="residential"/>
    <tag k="maxspeed" v="50"/>
    <tag k="maxspeed:source" v="default residential speed limit in Australia"/>
    <tag k="name" v="Cedar Street"/>
  </way>
  <way id="22980100" version="5" timestamp="2009-07-26T00:20:08Z" uid="4467" user="Rosscoe" changeset="1939703">
    <nd ref="247715615"/>
    <nd ref="247715616"/>
    <nd ref="247715617"/>
    <nd ref="247715994"/>
    <nd ref="247714863"/>
    <nd ref="247715618"/>
    <tag k="highway" v="residential"/>
    <tag k="name" v="Boronia Avenue"/>
  </way>
  <way id="22980100" version="6" timestamp="2010-03-02T00:18:17Z" uid="30201" user="rrankin" changeset="4013712">
    <nd ref="247715269"/>
    <nd ref="247715616"/>
    <nd ref="247715617"/>
    <nd ref="247715994"/>
    <nd ref="247714863"/>
    <nd ref="247715618"/>
    <tag k="highway" v="residential"/>
    <tag k="name" v="Boronia Avenue"/>
  </way>
  <way id="22980100" version="8" timestamp="2010-07-07T19:27:20Z" uid="74617" user="JohnSmith" changeset="5161069">
    <nd ref="247715269"/>
    <nd ref="247715616"/>
    <nd ref="247715994"/>
    <nd ref="247714863"/>
    <nd ref="247715618"/>
    <tag k="highway" v="residential"/>
    <tag k="maxspeed" v="50"/>
    <tag k="maxspeed:source" v="default residential speed limit in Australia"/>
    <tag k="name" v="Boronia Avenue"/>
  </way>
  <way id="22980105" version="4" timestamp="2009-07-26T00:19:48Z" uid="4467" user="Rosscoe" changeset="1939703">
    <nd ref="247715994"/>
    <nd ref="247716468"/>
    <nd ref="247715995"/>
    <tag k="highway" v="residential"/>
    <tag k="name" v="Pine Street"/>
  </way>
  <way id="22980105" version="5" timestamp="2010-07-07T19:23:51Z" uid="74617" user="JohnSmith" changeset="5161069">
    <nd ref="247715994"/>
    <nd ref="247716468"/>
    <nd ref="247715995"/>
    <tag k="highway" v="residential"/>
    <tag k="maxspeed" v="50"/>
    <tag k="maxspeed:source" v="default residential speed limit in Australia"/>
    <tag k="name" v="Pine Street"/>
  </way>
  <way id="22980107" version="5" timestamp="2010-07-09T03:50:18Z" uid="74617" user="JohnSmith" changeset="5170838">
    <nd ref="27289318"/>
    <nd ref="610708193"/>
    <nd ref="27289317"/>
    <nd ref="610708194"/>
    <nd ref="27289315"/>
    <nd ref="65446610"/>
    <tag k="highway" v="residential"/>
    <tag k="maxspeed" v="50"/>
    <tag k="maxspeed:source" v="default residential speed limit in Australia"/>
    <tag k="name" v="Leonie Avenue"/>
  </way>
  <way id="22980110" version="5" timestamp="2010-07-07T19:24:29Z" uid="74617" user="JohnSmith" changeset="5161069">
    <nd ref="247716467"/>
    <nd ref="247716468"/>
    <tag k="highway" v="residential"/>
    <tag k="maxspeed" v="50"/>
    <tag k="maxspeed:source" v="default residential speed limit in Australia"/>
    <tag k="name" v="Banksia  Avenue"/>
  </way>
  <way id="22980255" version="5" timestamp="2010-07-09T03:24:09Z" uid="74617" user="JohnSmith" changeset="5170713">
    <nd ref="247717605"/>
    <nd ref="247717606"/>
    <tag k="highway" v="residential"/>
    <tag k="maxspeed" v="50"/>
    <tag k="maxspeed:source" v="default residential speed limit in Australia"/>
    <tag k="name" v="Camden Road"/>
  </way>
  <way id="22980256" version="5" timestamp="2010-07-09T03:23:17Z" uid="74617" user="JohnSmith" changeset="5170713">
    <nd ref="31424134"/>
    <nd ref="588084273"/>
    <nd ref="247717608"/>
    <tag k="highway" v="residential"/>
    <tag k="maxspeed" v="50"/>
    <tag k="maxspeed:source" v="default residential speed limit in Australia"/>
    <tag k="name" v="Dalston Road"/>
  </way>
  <way id="22980258" version="15" timestamp="2009-12-03T16:58:52Z" uid="20587" user="balrog-kun" changeset="3281938">
    <nd ref="247717014"/>
    <nd ref="247717613"/>
    <nd ref="247717615"/>
    <nd ref="247717617"/>
    <nd ref="247717619"/>
    <nd ref="247717621"/>
    <nd ref="247717623"/>
    <nd ref="247717625"/>
    <nd ref="247717627"/>
    <nd ref="247717629"/>
    <nd ref="256260462"/>
    <nd ref="247717631"/>
    <nd ref="247717633"/>
    <nd ref="247717634"/>
    <nd ref="247717635"/>
    <nd ref="256261346"/>
    <nd ref="256261352"/>
    <nd ref="247717636"/>
    <nd ref="247717637"/>
    <nd ref="247717638"/>
    <nd ref="247717639"/>
    <nd ref="247717640"/>
    <nd ref="247717641"/>
    <nd ref="247717642"/>
    <nd ref="247717643"/>
    <nd ref="247717644"/>
    <nd ref="247717645"/>
    <nd ref="247717646"/>
    <nd ref="247717647"/>
    <nd ref="247717648"/>
    <nd ref="247717649"/>
    <nd ref="247717650"/>
    <nd ref="247717651"/>
    <nd ref="247717652"/>
    <nd ref="247717653"/>
    <nd ref="247717654"/>
    <nd ref="247717655"/>
    <nd ref="247717656"/>
    <nd ref="247717657"/>
    <nd ref="247717658"/>
    <nd ref="247717659"/>
    <nd ref="247717660"/>
    <nd ref="256261540"/>
    <nd ref="247717661"/>
    <nd ref="247717662"/>
    <nd ref="247717663"/>
    <nd ref="247717664"/>
    <nd ref="247717665"/>
    <nd ref="256262398"/>
    <nd ref="247717666"/>
    <nd ref="256262402"/>
    <nd ref="247717667"/>
    <nd ref="247717668"/>
    <nd ref="247717669"/>
    <nd ref="256262478"/>
    <nd ref="247717670"/>
    <nd ref="247717671"/>
    <nd ref="247717672"/>
    <nd ref="247717673"/>
    <nd ref="256261593"/>
    <nd ref="247717674"/>
    <nd ref="247717675"/>
    <nd ref="247717676"/>
    <nd ref="247717677"/>
    <nd ref="247717678"/>
    <nd ref="247717679"/>
    <nd ref="575699946"/>
    <nd ref="247717680"/>
    <nd ref="247717681"/>
    <nd ref="247717682"/>
    <nd ref="247717683"/>
    <nd ref="247717684"/>
    <nd ref="247717685"/>
    <nd ref="247717686"/>
    <nd ref="247717687"/>
    <nd ref="247717688"/>
    <nd ref="247717689"/>
    <tag k="highway" v="secondary"/>
    <tag k="name" v="CV-731"/>
    <tag k="ref" v="CV-731"/>
  </way>
  <way id="22980259" version="4" timestamp="2010-07-09T03:21:26Z" uid="74617" user="JohnSmith" changeset="5170713">
    <nd ref="31424131"/>
    <nd ref="247717690"/>
    <tag k="highway" v="residential"/>
    <tag k="maxspeed" v="50"/>
    <tag k="maxspeed:source" v="default residential speed limit in Australia"/>
    <tag k="name" v="Skipton Road"/>
  </way>
  <way id="22980260" version="5" timestamp="2010-07-09T03:21:56Z" uid="74617" user="JohnSmith" changeset="5170713">
    <nd ref="31424128"/>
    <nd ref="588084266"/>
    <nd ref="247717696"/>
    <tag k="highway" v="residential"/>
    <tag k="maxspeed" v="50"/>
    <tag k="maxspeed:source" v="default residential speed limit in Australia"/>
    <tag k="name" v="Preston Road"/>
  </way>
  <way id="22980262" version="7" timestamp="2010-07-09T03:18:24Z" uid="74617" user="JohnSmith" changeset="5170713">
    <nd ref="247717697"/>
    <nd ref="247717777"/>
    <nd ref="247717778"/>
    <nd ref="247718112"/>
    <nd ref="247717960"/>
    <nd ref="247717978"/>
    <nd ref="247717779"/>
    <tag k="highway" v="residential"/>
    <tag k="maxspeed" v="50"/>
    <tag k="maxspeed:source" v="default residential speed limit in Australia"/>
    <tag k="name" v="Hotham Street"/>
  </way>
  <way id="22980266" version="4" timestamp="2010-07-09T03:22:15Z" uid="74617" user="JohnSmith" changeset="5170713">
    <nd ref="247717780"/>
    <nd ref="247717800"/>
    <tag k="highway" v="residential"/>
    <tag k="maxspeed" v="50"/>
    <tag k="maxspeed:source" v="default residential speed limit in Australia"/>
    <tag k="name" v="Corr Street"/>
  </way>
  <way id="22980268" version="3" timestamp="2010-07-09T03:24:30Z" uid="74617" user="JohnSmith" changeset="5170713">
    <nd ref="247717801"/>
    <nd ref="247717802"/>
    <nd ref="247717803"/>
    <tag k="highway" v="residential"/>
    <tag k="maxspeed" v="50"/>
    <tag k="maxspeed:source" v="default residential speed limit in Australia"/>
    <tag k="name" v="Bletchley Road"/>
  </way>
  <way id="22980269" version="3" timestamp="2010-07-09T03:17:55Z" uid="74617" user="JohnSmith" changeset="5170713">
    <nd ref="247717804"/>
    <nd ref="247717805"/>
    <nd ref="247717806"/>
    <tag k="highway" v="residential"/>
    <tag k="maxspeed" v="50"/>
    <tag k="maxspeed:source" v="default residential speed limit in Australia"/>
    <tag k="name" v="Clapham Road"/>
  </way>
  <way id="22980272" version="4" timestamp="2010-07-09T03:18:07Z" uid="74617" user="JohnSmith" changeset="5170713">
    <nd ref="247717807"/>
    <nd ref="247717836"/>
    <nd ref="247717837"/>
    <nd ref="247717838"/>
    <tag k="highway" v="residential"/>
    <tag k="maxspeed" v="50"/>
    <tag k="maxspeed:source" v="default residential speed limit in Australia"/>
    <tag k="name" v="Wilbur Crescent"/>
  </way>
  <way id="22980273" version="4" timestamp="2010-07-09T03:19:49Z" uid="74617" user="JohnSmith" changeset="5170713">
    <nd ref="247717839"/>
    <nd ref="247717840"/>
    <tag k="highway" v="residential"/>
    <tag k="maxspeed" v="50"/>
    <tag k="maxspeed:source" v="default residential speed limit in Australia"/>
    <tag k="name" v="Paget Street"/>
  </way>
  <way id="22980274" version="8" timestamp="2010-07-09T03:22:58Z" uid="74617" user="JohnSmith" changeset="5170713">
    <nd ref="247717841"/>
    <nd ref="807368456"/>
    <nd ref="624790664"/>
    <nd ref="247717843"/>
    <nd ref="247717844"/>
    <nd ref="247717845"/>
    <tag k="highway" v="residential"/>
    <tag k="maxspeed" v="50"/>
    <tag k="maxspeed:source" v="default residential speed limit in Australia"/>
    <tag k="name" v="Arthur Street"/>
  </way>
  <way id="22980275" version="4" timestamp="2010-07-09T03:24:40Z" uid="74617" user="JohnSmith" changeset="5170713">
    <nd ref="247717850"/>
    <nd ref="247717851"/>
    <tag k="highway" v="residential"/>
    <tag k="maxspeed" v="50"/>
    <tag k="maxspeed:source" v="default residential speed limit in Australia"/>
    <tag k="name" v="Rugby Road"/>
  </way>
  <way id="22980283" version="3" timestamp="2010-07-09T03:18:53Z" uid="74617" user="JohnSmith" changeset="5170713">
    <nd ref="247717856"/>
    <nd ref="247717924"/>
    <nd ref="247717925"/>
    <nd ref="247717926"/>
    <tag k="highway" v="residential"/>
    <tag k="maxspeed" v="50"/>
    <tag k="maxspeed:source" v="default residential speed limit in Australia"/>
    <tag k="name" v="Neerim Grove"/>
  </way>
  <way id="22980285" version="5" timestamp="2010-07-09T03:21:07Z" uid="74617" user="JohnSmith" changeset="5170713">
    <nd ref="247717927"/>
    <nd ref="247717929"/>
    <nd ref="257849517"/>
    <nd ref="257849515"/>
    <tag k="highway" v="residential"/>
    <tag k="maxspeed" v="50"/>
    <tag k="maxspeed:source" v="default residential speed limit in Australia"/>
    <tag k="name" v="Fellows Street"/>
    <tag k="source" v="nearmap"/>
  </way>
  <way id="22980288" version="7" timestamp="2010-07-09T03:16:47Z" uid="74617" user="JohnSmith" changeset="5170713">
    <nd ref="247717938"/>
    <nd ref="247717944"/>
    <nd ref="247717942"/>
    <nd ref="247717940"/>
    <tag k="highway" v="residential"/>
    <tag k="maxspeed" v="50"/>
    <tag k="maxspeed:source" v="default residential speed limit in Australia"/>
    <tag k="name" v="Bowmore Street"/>
  </way>
  <way id="22980289" version="5" timestamp="2010-07-09T03:18:29Z" uid="74617" user="JohnSmith" changeset="5170713">
    <nd ref="247717941"/>
    <nd ref="247717942"/>
    <tag k="highway" v="residential"/>
    <tag k="maxspeed" v="50"/>
    <tag k="maxspeed:source" v="default residential speed limit in Australia"/>
    <tag k="name" v="Kelvinside Street"/>
  </way>
  <way id="22980290" version="4" timestamp="2010-07-09T03:21:33Z" uid="74617" user="JohnSmith" changeset="5170713">
    <nd ref="247717943"/>
    <nd ref="247717944"/>
    <tag k="highway" v="residential"/>
    <tag k="maxspeed" v="50"/>
    <tag k="maxspeed:source" v="default residential speed limit in Australia"/>
    <tag k="name" v="Ardgour Street"/>
  </way>
  <way id="22980291" version="4" timestamp="2010-07-09T03:23:23Z" uid="74617" user="JohnSmith" changeset="5170713">
    <nd ref="247717946"/>
    <nd ref="247717947"/>
    <tag k="highway" v="residential"/>
    <tag k="maxspeed" v="50"/>
    <tag k="maxspeed:source" v="default residential speed limit in Australia"/>
    <tag k="name" v="Callander Street"/>
  </way>
  <way id="22980293" version="5" timestamp="2010-07-09T03:17:17Z" uid="74617" user="JohnSmith" changeset="5170713">
    <nd ref="247717958"/>
    <nd ref="247717959"/>
    <tag k="highway" v="residential"/>
    <tag k="maxspeed" v="50"/>
    <tag k="maxspeed:source" v="default residential speed limit in Australia"/>
    <tag k="name" v="Dumblane Street"/>
  </way>
  <way id="22980295" version="6" timestamp="2010-07-09T03:22:03Z" uid="74617" user="JohnSmith" changeset="5170713">
    <nd ref="247717960"/>
    <nd ref="257849841"/>
    <nd ref="247717972"/>
    <tag k="highway" v="residential"/>
    <tag k="maxspeed" v="50"/>
    <tag k="maxspeed:source" v="default residential speed limit in Australia"/>
    <tag k="name" v="Ellendale Street"/>
  </way>
  <way id="22980298" version="4" timestamp="2010-07-09T03:24:11Z" uid="74617" user="JohnSmith" changeset="5170713">
    <nd ref="247717974"/>
    <nd ref="247717976"/>
    <nd ref="257849842"/>
    <nd ref="247717977"/>
    <nd ref="247717978"/>
    <tag k="highway" v="residential"/>
    <tag k="maxspeed" v="50"/>
    <tag k="maxspeed:source" v="default residential speed limit in Australia"/>
    <tag k="name" v="Fintonia Street"/>
  </way>
  <way id="22980302" version="3" timestamp="2010-07-09T03:22:54Z" uid="74617" user="JohnSmith" changeset="5170713">
    <nd ref="247717996"/>
    <nd ref="247717999"/>
    <nd ref="247718000"/>
    <nd ref="247718001"/>
    <nd ref="247718002"/>
    <nd ref="247718003"/>
    <nd ref="247718004"/>
    <tag k="highway" v="residential"/>
    <tag k="maxspeed" v="50"/>
    <tag k="maxspeed:source" v="default residential speed limit in Australia"/>
    <tag k="name" v="Argyle Close"/>
  </way>
  <way id="22980303" version="3" timestamp="2009-08-13T12:13:55Z" uid="4467" user="Rosscoe" changeset="2130661">
    <nd ref="247718005"/>
    <nd ref="247718004"/>
    <nd ref="247718006"/>
    <tag k="highway" v="residential"/>
    <tag k="name" v="Argyle Close"/>
    <tag k="osmarender:renderName" v="no"/>
  </way>
  <way id="22980303" version="4" timestamp="2010-07-09T03:24:36Z" uid="74617" user="JohnSmith" changeset="5170713">
    <nd ref="247718005"/>
    <nd ref="247718004"/>
    <nd ref="247718006"/>
    <tag k="highway" v="residential"/>
    <tag k="maxspeed" v="50"/>
    <tag k="maxspeed:source" v="default residential speed limit in Australia"/>
    <tag k="name" v="Argyle Close"/>
  </way>
  <way id="22980305" version="11" timestamp="2010-07-09T03:21:46Z" uid="74617" user="JohnSmith" changeset="5170713">
    <nd ref="247718106"/>
    <nd ref="247718107"/>
    <tag k="highway" v="residential"/>
    <tag k="maxspeed" v="50"/>
    <tag k="maxspeed:source" v="default residential speed limit in Australia"/>
    <tag k="name" v="Halliday Court"/>
  </way>
  <way id="22980311" version="2" timestamp="2008-05-17T15:53:49Z" uid="27600" user="Islanit" changeset="468393">
    <nd ref="247718012"/>
    <nd ref="247718015"/>
    <nd ref="247718016"/>
    <nd ref="247718019"/>
    <nd ref="247718020"/>
    <nd ref="247718021"/>
    <nd ref="247718061"/>
    <nd ref="247718023"/>
    <tag k="created_by" v="JOSM"/>
    <tag k="highway" v="residential"/>
  </way>
  <way id="22980317" version="2" timestamp="2008-05-17T15:53:48Z" uid="27600" user="Islanit" changeset="468393">
    <nd ref="247718045"/>
    <nd ref="247718048"/>
    <nd ref="247718050"/>
    <tag k="created_by" v="JOSM"/>
    <tag k="highway" v="steps"/>
  </way>
  <way id="22980318" version="2" timestamp="2008-05-17T15:53:48Z" uid="27600" user="Islanit" changeset="468393">
    <nd ref="247718050"/>
    <nd ref="247718052"/>
    <nd ref="247718054"/>
    <nd ref="247718055"/>
    <nd ref="247718057"/>
    <nd ref="247718058"/>
    <nd ref="247718059"/>
    <tag k="created_by" v="JOSM"/>
    <tag k="highway" v="footway"/>
  </way>
  <way id="22980326" version="9" timestamp="2010-04-19T13:39:38Z" uid="4467" user="Rosscoe" changeset="4467919">
    <nd ref="247718112"/>
    <nd ref="701857376"/>
    <tag k="highway" v="residential"/>
    <tag k="name" v="Barkly Street"/>
  </way>
  <way id="22980326" version="10" timestamp="2010-07-09T03:22:11Z" uid="74617" user="JohnSmith" changeset="5170713">
    <nd ref="247718112"/>
    <nd ref="701857376"/>
    <tag k="highway" v="residential"/>
    <tag k="maxspeed" v="50"/>
    <tag k="maxspeed:source" v="default residential speed limit in Australia"/>
    <tag k="name" v="Barkly Street"/>
  </way>
  <way id="22980333" version="3" timestamp="2010-04-19T13:39:38Z" uid="4467" user="Rosscoe" changeset="4467919">
    <nd ref="247718142"/>
    <nd ref="701857378"/>
    <tag k="highway" v="residential"/>
    <tag k="name" v="Darling Street"/>
  </way>
  <way id="22980333" version="5" timestamp="2010-07-09T03:21:42Z" uid="74617" user="JohnSmith" changeset="5170713">
    <nd ref="247718142"/>
    <nd ref="727381740"/>
    <nd ref="701857378"/>
    <tag k="highway" v="residential"/>
    <tag k="maxspeed" v="50"/>
    <tag k="maxspeed:source" v="default residential speed limit in Australia"/>
    <tag k="name" v="Darling Street"/>
  </way>
  <way id="22980336" version="7" timestamp="2010-04-19T13:39:38Z" uid="4467" user="Rosscoe" changeset="4467919">
    <nd ref="247718158"/>
    <nd ref="701857303"/>
    <tag k="highway" v="residential"/>
    <tag k="name" v="Canterbury Street"/>
  </way>
  <way id="22980336" version="8" timestamp="2010-07-09T03:21:52Z" uid="74617" user="JohnSmith" changeset="5170713">
    <nd ref="247718158"/>
    <nd ref="701857303"/>
    <tag k="highway" v="residential"/>
    <tag k="maxspeed" v="50"/>
    <tag k="maxspeed:source" v="default residential speed limit in Australia"/>
    <tag k="name" v="Canterbury Street"/>
  </way>
  <way id="22980340" version="4" timestamp="2010-04-19T13:39:38Z" uid="4467" user="Rosscoe" changeset="4467919">
    <nd ref="247718169"/>
    <nd ref="701857324"/>
    <tag k="highway" v="residential"/>
    <tag k="name" v="Bowen Street"/>
  </way>
  <way id="22980340" version="5" timestamp="2010-07-09T03:20:32Z" uid="74617" user="JohnSmith" changeset="5170713">
    <nd ref="247718169"/>
    <nd ref="701857324"/>
    <tag k="highway" v="residential"/>
    <tag k="maxspeed" v="50"/>
    <tag k="maxspeed:source" v="default residential speed limit in Australia"/>
    <tag k="name" v="Bowen Street"/>
  </way>
  <way id="22980342" version="4" timestamp="2010-04-19T13:39:37Z" uid="4467" user="Rosscoe" changeset="4467919">
    <nd ref="247718189"/>
    <nd ref="701857354"/>
    <tag k="highway" v="residential"/>
    <tag k="name" v="Normanby Street"/>
  </way>
  <way id="22980342" version="5" timestamp="2010-07-09T03:17:06Z" uid="74617" user="JohnSmith" changeset="5170713">
    <nd ref="247718189"/>
    <nd ref="701857354"/>
    <tag k="highway" v="residential"/>
    <tag k="maxspeed" v="50"/>
    <tag k="maxspeed:source" v="default residential speed limit in Australia"/>
    <tag k="name" v="Normanby Street"/>
  </way>
  <way id="22980344" version="4" timestamp="2010-04-19T13:39:37Z" uid="4467" user="Rosscoe" changeset="4467919">
    <nd ref="247718192"/>
    <nd ref="588084535"/>
    <nd ref="701857370"/>
    <tag k="highway" v="residential"/>
    <tag k="name" v="Latrobe Street"/>
  </way>
  <way id="22980344" version="5" timestamp="2010-07-09T03:24:28Z" uid="74617" user="JohnSmith" changeset="5170713">
    <nd ref="247718192"/>
    <nd ref="588084535"/>
    <nd ref="701857370"/>
    <tag k="highway" v="residential"/>
    <tag k="maxspeed" v="50"/>
    <tag k="maxspeed:source" v="default residential speed limit in Australia"/>
    <tag k="name" v="Latrobe Street"/>
  </way>
  <way id="22980346" version="8" timestamp="2010-07-09T03:20:50Z" uid="74617" user="JohnSmith" changeset="5170713">
    <nd ref="247718107"/>
    <nd ref="720556308"/>
    <nd ref="720555558"/>
    <nd ref="247718209"/>
    <tag k="highway" v="residential"/>
    <tag k="maxspeed" v="50"/>
    <tag k="maxspeed:source" v="default residential speed limit in Australia"/>
    <tag k="name" v="Kinrade Street"/>
  </way>
  <way id="22980348" version="4" timestamp="2010-07-09T03:23:11Z" uid="74617" user="JohnSmith" changeset="5170713">
    <nd ref="247718210"/>
    <nd ref="247718215"/>
    <tag k="highway" v="residential"/>
    <tag k="maxspeed" v="50"/>
    <tag k="maxspeed:source" v="default residential speed limit in Australia"/>
    <tag k="name" v="Brine Street"/>
  </way>
  <way id="22980349" version="4" timestamp="2010-07-09T03:16:35Z" uid="74617" user="JohnSmith" changeset="5170713">
    <nd ref="247718216"/>
    <nd ref="247718217"/>
    <tag k="highway" v="residential"/>
    <tag k="maxspeed" v="50"/>
    <tag k="maxspeed:source" v="default residential speed limit in Australia"/>
    <tag k="name" v="Austin Street"/>
  </way>
  <way id="22980351" version="5" timestamp="2010-07-09T03:21:22Z" uid="74617" user="JohnSmith" changeset="5170713">
    <nd ref="247718218"/>
    <nd ref="247718460"/>
    <nd ref="727383350"/>
    <nd ref="247718228"/>
    <tag k="highway" v="residential"/>
    <tag k="maxspeed" v="50"/>
    <tag k="maxspeed:source" v="default residential speed limit in Australia"/>
    <tag k="name" v="Moorookyle Avenue"/>
  </way>
  <way id="22980362" version="7" timestamp="2010-07-09T03:17:54Z" uid="74617" user="JohnSmith" changeset="5170713">
    <nd ref="247718229"/>
    <nd ref="247718461"/>
    <nd ref="727383028"/>
    <nd ref="636948552"/>
    <nd ref="247718457"/>
    <tag k="highway" v="residential"/>
    <tag k="maxspeed" v="50"/>
    <tag k="maxspeed:source" v="default residential speed limit in Australia"/>
    <tag k="name" v="Eleebana Avenue"/>
  </way>
  <way id="22980363" version="8" timestamp="2010-07-09T03:19:37Z" uid="74617" user="JohnSmith" changeset="5170713">
    <nd ref="247718461"/>
    <nd ref="247718460"/>
    <nd ref="247718459"/>
    <nd ref="247718458"/>
    <tag k="highway" v="residential"/>
    <tag k="maxspeed" v="50"/>
    <tag k="maxspeed:source" v="default residential speed limit in Australia"/>
    <tag k="name" v="Long Place"/>
    <tag k="oneway" v="yes"/>
  </way>
  <way id="22980365" version="5" timestamp="2010-07-09T03:21:55Z" uid="74617" user="JohnSmith" changeset="5170713">
    <nd ref="247718481"/>
    <nd ref="258024912"/>
    <nd ref="247718483"/>
    <tag k="highway" v="residential"/>
    <tag k="maxspeed" v="50"/>
    <tag k="maxspeed:source" v="default residential speed limit in Australia"/>
    <tag k="name" v="Julis Street"/>
  </way>
  <way id="22980367" version="4" timestamp="2010-07-09T03:18:23Z" uid="74617" user="JohnSmith" changeset="5170713">
    <nd ref="247718484"/>
    <nd ref="247718485"/>
    <tag k="highway" v="residential"/>
    <tag k="maxspeed" v="50"/>
    <tag k="maxspeed:source" v="default residential speed limit in Australia"/>
    <tag k="name" v="Jassa Street"/>
  </way>
  <way id="22980368" version="3" timestamp="2010-07-09T03:22:07Z" uid="74617" user="JohnSmith" changeset="5170713">
    <nd ref="247718486"/>
    <nd ref="247718487"/>
    <nd ref="247718488"/>
    <tag k="highway" v="residential"/>
    <tag k="maxspeed" v="50"/>
    <tag k="maxspeed:source" v="default residential speed limit in Australia"/>
    <tag k="name" v="Hallow Street"/>
  </way>
  <way id="22980369" version="5" timestamp="2010-07-09T03:23:58Z" uid="74617" user="JohnSmith" changeset="5170713">
    <nd ref="247718487"/>
    <nd ref="247718483"/>
    <nd ref="247718489"/>
    <nd ref="247718490"/>
    <nd ref="30136303"/>
    <tag k="highway" v="residential"/>
    <tag k="maxspeed" v="50"/>
    <tag k="maxspeed:source" v="default residential speed limit in Australia"/>
    <tag k="name" v="Pell Street"/>
  </way>
  <way id="22980370" version="3" timestamp="2010-07-09T03:18:32Z" uid="74617" user="JohnSmith" changeset="5170713">
    <nd ref="247718489"/>
    <nd ref="247718491"/>
    <tag k="highway" v="residential"/>
    <tag k="maxspeed" v="50"/>
    <tag k="maxspeed:source" v="default residential speed limit in Australia"/>
    <tag k="name" v="Kadir Street"/>
  </way>
  <way id="22980389" version="2" timestamp="2009-07-29T18:59:49Z" uid="59758" user="rendle" changeset="1978618">
    <nd ref="247718692"/>
    <nd ref="247718693"/>
    <nd ref="247718694"/>
    <nd ref="247718695"/>
    <nd ref="247718696"/>
    <nd ref="247718697"/>
    <nd ref="247718698"/>
    <nd ref="247718699"/>
    <nd ref="247718700"/>
    <nd ref="247718701"/>
    <nd ref="247718702"/>
    <nd ref="247718703"/>
    <nd ref="247718704"/>
    <nd ref="247718705"/>
    <nd ref="247718706"/>
    <nd ref="247718707"/>
    <nd ref="450950218"/>
    <nd ref="247718708"/>
    <nd ref="247718709"/>
    <nd ref="247718710"/>
    <nd ref="245557648"/>
    <tag k="created_by" v="Potlatch 0.7a"/>
    <tag k="highway" v="tertiary"/>
  </way>
  <way id="22980390" version="4" timestamp="2010-07-09T03:24:20Z" uid="74617" user="JohnSmith" changeset="5170713">
    <nd ref="31422715"/>
    <nd ref="31424588"/>
    <nd ref="614030350"/>
    <tag k="highway" v="residential"/>
    <tag k="maxspeed" v="50"/>
    <tag k="maxspeed:source" v="default residential speed limit in Australia"/>
    <tag k="name" v="Princess Street"/>
  </way>
  <way id="22980432" version="2" timestamp="2009-06-04T10:03:58Z" uid="74617" user="JohnSmith" changeset="1419876">
    <nd ref="415582772"/>
    <nd ref="247719254"/>
    <nd ref="247719076"/>
    <tag k="created_by" v="JOSM"/>
    <tag k="highway" v="residential"/>
    <tag k="lanes" v="1"/>
    <tag k="name" v="Hargrave Street"/>
    <tag k="source" v="survey"/>
    <tag k="surface" v="paved"/>
  </way>
  <way id="22980432" version="3" timestamp="2010-07-08T04:55:56Z" uid="74617" user="JohnSmith" changeset="5163091">
    <nd ref="415582772"/>
    <nd ref="247719254"/>
    <nd ref="247719076"/>
    <tag k="highway" v="residential"/>
    <tag k="lanes" v="1"/>
    <tag k="maxspeed" v="50"/>
    <tag k="maxspeed:source" v="default residential speed limit in Australia"/>
    <tag k="name" v="Hargrave Street"/>
    <tag k="source" v="survey"/>
    <tag k="surface" v="paved"/>
  </way>
  <way id="22980433" version="2" timestamp="2009-06-04T10:03:55Z" uid="74617" user="JohnSmith" changeset="1419876">
    <nd ref="247719083"/>
    <nd ref="415582771"/>
    <tag k="created_by" v="JOSM"/>
    <tag k="highway" v="residential"/>
    <tag k="lanes" v="1"/>
    <tag k="name" v="Mossman Street"/>
    <tag k="source" v="survey"/>
    <tag k="surface" v="paved"/>
  </way>
  <way id="22980433" version="3" timestamp="2010-07-08T04:55:47Z" uid="74617" user="JohnSmith" changeset="5163091">
    <nd ref="247719083"/>
    <nd ref="415582771"/>
    <tag k="highway" v="residential"/>
    <tag k="lanes" v="1"/>
    <tag k="maxspeed" v="50"/>
    <tag k="maxspeed:source" v="default residential speed limit in Australia"/>
    <tag k="name" v="Mossman Street"/>
    <tag k="source" v="survey"/>
    <tag k="surface" v="paved"/>
  </way>
  <way id="22980434" version="2" timestamp="2009-06-04T09:59:07Z" uid="74617" user="JohnSmith" changeset="1419852">
    <nd ref="247719077"/>
    <nd ref="247719076"/>
    <nd ref="247719078"/>
    <nd ref="247719080"/>
    <nd ref="415582482"/>
    <tag k="created_by" v="JOSM"/>
    <tag k="highway" v="residential"/>
    <tag k="lanes" v="1"/>
    <tag k="name" v="Lambs Avenue"/>
    <tag k="source" v="survey"/>
    <tag k="surface" v="paved"/>
  </way>
  <way id="22980434" version="3" timestamp="2010-07-08T04:55:05Z" uid="74617" user="JohnSmith" changeset="5163091">
    <nd ref="247719077"/>
    <nd ref="247719076"/>
    <nd ref="247719078"/>
    <nd ref="247719080"/>
    <nd ref="415582482"/>
    <tag k="highway" v="residential"/>
    <tag k="lanes" v="1"/>
    <tag k="maxspeed" v="50"/>
    <tag k="maxspeed:source" v="default residential speed limit in Australia"/>
    <tag k="name" v="Lambs Avenue"/>
    <tag k="source" v="survey"/>
    <tag k="surface" v="paved"/>
  </way>
  <way id="22980435" version="3" timestamp="2010-07-08T04:54:54Z" uid="74617" user="JohnSmith" changeset="5163091">
    <nd ref="247719076"/>
    <nd ref="247719266"/>
    <nd ref="247719123"/>
    <nd ref="247719243"/>
    <nd ref="247719159"/>
    <nd ref="247719221"/>
    <tag k="highway" v="residential"/>
    <tag k="lanes" v="1"/>
    <tag k="maxspeed" v="50"/>
    <tag k="maxspeed:source" v="default residential speed limit in Australia"/>
    <tag k="name" v="Allingham Street"/>
    <tag k="source" v="survey"/>
    <tag k="surface" v="paved"/>
  </way>
  <way id="22980436" version="2" timestamp="2010-07-08T04:55:11Z" uid="74617" user="JohnSmith" changeset="5163091">
    <nd ref="247719040"/>
    <nd ref="247719041"/>
    <nd ref="247719042"/>
    <nd ref="247719043"/>
    <nd ref="247719044"/>
    <nd ref="247719045"/>
    <nd ref="247719046"/>
    <nd ref="247719051"/>
    <nd ref="247719052"/>
    <nd ref="247719053"/>
    <nd ref="247719054"/>
    <nd ref="247719055"/>
    <nd ref="247719056"/>
    <nd ref="247719057"/>
    <nd ref="247719073"/>
    <nd ref="247719074"/>
    <tag k="highway" v="residential"/>
    <tag k="lanes" v="1"/>
    <tag k="maxspeed" v="50"/>
    <tag k="maxspeed:source" v="default residential speed limit in Australia"/>
    <tag k="name" v="Napier Crescent"/>
    <tag k="source" v="survey"/>
    <tag k="surface" v="paved"/>
  </way>
  <way id="22980553" version="5" timestamp="2010-07-09T03:49:54Z" uid="74617" user="JohnSmith" changeset="5170838">
    <nd ref="247722541"/>
    <nd ref="247722546"/>
    <nd ref="617934398"/>
    <tag k="highway" v="residential"/>
    <tag k="maxspeed" v="50"/>
    <tag k="maxspeed:source" v="default residential speed limit in Australia"/>
    <tag k="name" v="Myrtle Court"/>
  </way>
  <way id="22980683" version="1" timestamp="2008-02-15T10:40:14Z" uid="19626" user="Swamp" changeset="124609">
    <nd ref="247727120"/>
    <nd ref="247727123"/>
    <nd ref="247727126"/>
    <nd ref="247727129"/>
    <nd ref="247727131"/>
    <nd ref="247727134"/>
    <nd ref="247727137"/>
    <tag k="created_by" v="JOSM"/>
    <tag k="highway" v="residential"/>
    <tag k="name" v="Dickson Road"/>
  </way>
  <way id="22980683" version="2" timestamp="2008-02-15T10:48:07Z" uid="19626" user="Swamp" changeset="124609">
    <nd ref="247727120"/>
    <nd ref="247727123"/>
    <nd ref="247727126"/>
    <nd ref="247727129"/>
    <nd ref="247727131"/>
    <nd ref="247727134"/>
    <nd ref="247727137"/>
    <tag k="created_by" v="JOSM"/>
    <tag k="highway" v="residential"/>
    <tag k="name" v="Dickson Road"/>
  </way>
  <way id="22980683" version="3" timestamp="2008-04-26T06:40:26Z" uid="19626" user="Swamp" changeset="261567">
    <nd ref="247727120"/>
    <nd ref="247727123"/>
    <nd ref="247727126"/>
    <nd ref="247727129"/>
    <nd ref="247727131"/>
    <nd ref="247727134"/>
    <nd ref="247727137"/>
    <tag k="created_by" v="JOSM"/>
    <tag k="highway" v="residential"/>
    <tag k="maxspeed" v="50"/>
    <tag k="name" v="Dickson Road"/>
  </way>
  <way id="22980683" version="4" timestamp="2008-06-21T23:45:44Z" uid="18775" user="drlizau" changeset="260958">
    <nd ref="247727120"/>
    <nd ref="271813211"/>
    <nd ref="247727123"/>
    <nd ref="247727126"/>
    <nd ref="247727129"/>
    <nd ref="247727131"/>
    <nd ref="247727134"/>
    <nd ref="247727137"/>
    <tag k="created_by" v="JOSM"/>
    <tag k="highway" v="residential"/>
    <tag k="maxspeed" v="50"/>
    <tag k="name" v="Dickson Road"/>
  </way>
  <way id="22980683" version="5" timestamp="2008-11-16T10:59:52Z" uid="18775" user="drlizau" changeset="756879">
    <nd ref="247727120"/>
    <nd ref="271813211"/>
    <nd ref="247727123"/>
    <nd ref="247727126"/>
    <nd ref="247727129"/>
    <nd ref="247727131"/>
    <nd ref="247727134"/>
    <nd ref="247727137"/>
    <tag k="created_by" v="JOSM"/>
    <tag k="highway" v="residential"/>
    <tag k="maxspeed" v="50"/>
    <tag k="name" v="Dickson Road"/>
  </way>
  <way id="22980683" version="6" timestamp="2008-11-16T11:28:52Z" uid="18775" user="drlizau" changeset="756879">
    <nd ref="247727120"/>
    <nd ref="271813211"/>
    <nd ref="247727123"/>
    <nd ref="247727126"/>
    <nd ref="247727129"/>
    <nd ref="247727131"/>
    <nd ref="247727134"/>
    <nd ref="247727137"/>
    <tag k="created_by" v="JOSM"/>
    <tag k="highway" v="residential"/>
    <tag k="maxspeed" v="50"/>
    <tag k="name" v="Dickson Road"/>
    <tag k="source" v="survey"/>
  </way>
  <way id="22980687" version="1" timestamp="2008-02-15T10:41:15Z" uid="19626" user="Swamp" changeset="124609">
    <nd ref="247727123"/>
    <nd ref="247727277"/>
    <nd ref="247727280"/>
    <nd ref="247727283"/>
    <nd ref="247727286"/>
    <nd ref="247727289"/>
    <nd ref="247727292"/>
    <nd ref="247727295"/>
    <nd ref="247727297"/>
    <nd ref="247727126"/>
    <tag k="created_by" v="JOSM"/>
    <tag k="highway" v="residential"/>
    <tag k="name" v="Nelson drive"/>
  </way>
  <way id="22980687" version="2" timestamp="2008-02-15T10:43:02Z" uid="19626" user="Swamp" changeset="124609">
    <nd ref="247727123"/>
    <nd ref="247727277"/>
    <nd ref="247727280"/>
    <nd ref="247727283"/>
    <nd ref="247727286"/>
    <nd ref="247727289"/>
    <nd ref="247727565"/>
    <nd ref="247727292"/>
    <nd ref="247727295"/>
    <nd ref="247727297"/>
    <nd ref="247727576"/>
    <nd ref="247727126"/>
    <tag k="created_by" v="JOSM"/>
    <tag k="highway" v="residential"/>
    <tag k="name" v="Nelson drive"/>
  </way>
  <way id="22980687" version="3" timestamp="2008-02-15T10:43:24Z" uid="19626" user="Swamp" changeset="124609">
    <nd ref="247727123"/>
    <nd ref="247727648"/>
    <nd ref="247727277"/>
    <nd ref="247727280"/>
    <nd ref="247727283"/>
    <nd ref="247727286"/>
    <nd ref="247727289"/>
    <nd ref="247727565"/>
    <nd ref="247727292"/>
    <nd ref="247727295"/>
    <nd ref="247727297"/>
    <nd ref="247727576"/>
    <nd ref="247727126"/>
    <tag k="created_by" v="JOSM"/>
    <tag k="highway" v="residential"/>
    <tag k="name" v="Nelson drive"/>
  </way>
  <way id="22980687" version="4" timestamp="2008-03-03T10:01:21Z" uid="18775" user="drlizau" changeset="259431">
    <nd ref="247727123"/>
    <nd ref="247727648"/>
    <nd ref="247727277"/>
    <nd ref="247727280"/>
    <nd ref="247727283"/>
    <nd ref="247727286"/>
    <nd ref="247727289"/>
    <nd ref="247727565"/>
    <nd ref="247727292"/>
    <nd ref="247727295"/>
    <nd ref="247727297"/>
    <nd ref="247727576"/>
    <nd ref="247727126"/>
    <tag k="created_by" v="JOSM"/>
    <tag k="highway" v="residential"/>
    <tag k="name" v="Nelson Drive"/>
  </way>
  <way id="22980687" version="5" timestamp="2008-03-04T04:06:43Z" uid="18775" user="drlizau" changeset="263319">
    <nd ref="247727123"/>
    <nd ref="250449189"/>
    <nd ref="247727648"/>
    <nd ref="247727280"/>
    <nd ref="247727283"/>
    <nd ref="247727286"/>
    <nd ref="247727289"/>
    <nd ref="247727565"/>
    <nd ref="247727292"/>
    <nd ref="247727295"/>
    <nd ref="247727297"/>
    <nd ref="247727576"/>
    <nd ref="247727126"/>
    <tag k="created_by" v="JOSM"/>
    <tag k="highway" v="residential"/>
    <tag k="name" v="Nelson Drive"/>
  </way>
  <way id="22980687" version="6" timestamp="2008-04-26T06:40:25Z" uid="19626" user="Swamp" changeset="261567">
    <nd ref="247727123"/>
    <nd ref="250449189"/>
    <nd ref="247727648"/>
    <nd ref="247727280"/>
    <nd ref="247727283"/>
    <nd ref="247727286"/>
    <nd ref="247727289"/>
    <nd ref="247727565"/>
    <nd ref="247727292"/>
    <nd ref="247727295"/>
    <nd ref="247727297"/>
    <nd ref="247727576"/>
    <nd ref="247727126"/>
    <tag k="created_by" v="JOSM"/>
    <tag k="highway" v="residential"/>
    <tag k="maxspeed" v="50"/>
    <tag k="name" v="Nelson Drive"/>
  </way>
  <way id="22980687" version="7" timestamp="2008-11-16T10:59:43Z" uid="18775" user="drlizau" changeset="756879">
    <nd ref="247727123"/>
    <nd ref="250449189"/>
    <nd ref="247727648"/>
    <nd ref="247727280"/>
    <nd ref="247727283"/>
    <nd ref="247727286"/>
    <nd ref="247727289"/>
    <nd ref="247727565"/>
    <nd ref="247727292"/>
    <nd ref="247727295"/>
    <nd ref="247727297"/>
    <nd ref="247727576"/>
    <nd ref="247727126"/>
    <tag k="created_by" v="JOSM"/>
    <tag k="highway" v="residential"/>
    <tag k="maxspeed" v="50"/>
    <tag k="name" v="Nelson Drive"/>
  </way>
  <way id="22980687" version="8" timestamp="2008-11-16T11:28:43Z" uid="18775" user="drlizau" changeset="756879">
    <nd ref="247727123"/>
    <nd ref="250449189"/>
    <nd ref="247727648"/>
    <nd ref="247727280"/>
    <nd ref="247727283"/>
    <nd ref="247727286"/>
    <nd ref="247727289"/>
    <nd ref="247727565"/>
    <nd ref="247727292"/>
    <nd ref="247727295"/>
    <nd ref="247727297"/>
    <nd ref="247727576"/>
    <nd ref="247727126"/>
    <tag k="created_by" v="JOSM"/>
    <tag k="highway" v="residential"/>
    <tag k="maxspeed" v="50"/>
    <tag k="name" v="Nelson Drive"/>
    <tag k="source" v="survey"/>
  </way>
  <way id="22980702" version="1" timestamp="2008-02-15T10:43:00Z" uid="19626" user="Swamp" changeset="124609">
    <nd ref="247727565"/>
    <nd ref="247727568"/>
    <nd ref="247727571"/>
    <nd ref="247727574"/>
    <tag k="created_by" v="JOSM"/>
    <tag k="highway" v="residential"/>
    <tag k="name" v="Mardon Place"/>
  </way>
  <way id="22980702" version="2" timestamp="2008-04-26T06:40:23Z" uid="19626" user="Swamp" changeset="261567">
    <nd ref="247727565"/>
    <nd ref="247727568"/>
    <nd ref="247727571"/>
    <nd ref="247727574"/>
    <tag k="created_by" v="JOSM"/>
    <tag k="highway" v="residential"/>
    <tag k="maxspeed" v="50"/>
    <tag k="name" v="Mardon Place"/>
  </way>
  <way id="22980702" version="3" timestamp="2008-11-16T10:59:09Z" uid="18775" user="drlizau" changeset="756879">
    <nd ref="247727565"/>
    <nd ref="247727568"/>
    <nd ref="247727571"/>
    <nd ref="247727574"/>
    <tag k="created_by" v="JOSM"/>
    <tag k="highway" v="residential"/>
    <tag k="maxspeed" v="50"/>
    <tag k="name" v="Mardon Place"/>
  </way>
  <way id="22980702" version="4" timestamp="2008-11-16T11:28:10Z" uid="18775" user="drlizau" changeset="756879">
    <nd ref="247727565"/>
    <nd ref="247727568"/>
    <nd ref="247727571"/>
    <nd ref="247727574"/>
    <tag k="created_by" v="JOSM"/>
    <tag k="highway" v="residential"/>
    <tag k="maxspeed" v="50"/>
    <tag k="name" v="Mardon Place"/>
    <tag k="source" v="survey"/>
  </way>
  <way id="22980703" version="1" timestamp="2008-02-15T10:43:01Z" uid="19626" user="Swamp" changeset="124609">
    <nd ref="247727576"/>
    <nd ref="247727579"/>
    <nd ref="247727582"/>
    <tag k="created_by" v="JOSM"/>
    <tag k="highway" v="residential"/>
    <tag k="name" v="Theeuff Place"/>
  </way>
  <way id="22980703" version="2" timestamp="2008-04-26T06:40:24Z" uid="19626" user="Swamp" changeset="261567">
    <nd ref="247727576"/>
    <nd ref="247727579"/>
    <nd ref="247727582"/>
    <tag k="created_by" v="JOSM"/>
    <tag k="highway" v="residential"/>
    <tag k="maxspeed" v="50"/>
    <tag k="name" v="Theeuff Place"/>
  </way>
  <way id="22980703" version="3" timestamp="2008-11-16T10:59:11Z" uid="18775" user="drlizau" changeset="756879">
    <nd ref="247727576"/>
    <nd ref="247727579"/>
    <nd ref="247727582"/>
    <tag k="created_by" v="JOSM"/>
    <tag k="highway" v="residential"/>
    <tag k="maxspeed" v="50"/>
    <tag k="name" v="Theeuff Place"/>
  </way>
  <way id="22980703" version="4" timestamp="2008-11-16T11:28:12Z" uid="18775" user="drlizau" changeset="756879">
    <nd ref="247727576"/>
    <nd ref="247727579"/>
    <nd ref="247727582"/>
    <tag k="created_by" v="JOSM"/>
    <tag k="highway" v="residential"/>
    <tag k="maxspeed" v="50"/>
    <tag k="name" v="Theeuff Place"/>
    <tag k="source" v="survey"/>
  </way>
  <way id="22980713" version="3" timestamp="2010-07-09T06:47:32Z" uid="74617" user="JohnSmith" changeset="5171134">
    <nd ref="141859722"/>
    <nd ref="141859723"/>
    <nd ref="141859724"/>
    <nd ref="141859726"/>
    <tag k="highway" v="residential"/>
    <tag k="maxspeed" v="50"/>
    <tag k="maxspeed:source" v="default residential speed limit in Australia"/>
    <tag k="name" v="Dundee Avenue"/>
  </way>
  <way id="22980713" version="4" timestamp="2011-04-14T15:44:54Z" uid="4467" user="Rosscoe" changeset="7861959">
    <nd ref="141859722"/>
    <nd ref="141859723"/>
    <nd ref="141859724"/>
    <nd ref="1244436758"/>
    <tag k="highway" v="residential"/>
    <tag k="maxspeed" v="50"/>
    <tag k="name" v="Dundee Avenue"/>
    <tag k="source:maxspeed" v="default residential speed limit in Australia"/>
  </way>
  <way id="22980778" version="1" timestamp="2008-02-15T10:48:03Z" uid="19626" user="Swamp" changeset="124609">
    <nd ref="247727137"/>
    <nd ref="247728642"/>
    <nd ref="247728654"/>
    <nd ref="247728663"/>
    <nd ref="247728676"/>
    <nd ref="247728686"/>
    <nd ref="247728693"/>
    <nd ref="247728702"/>
    <nd ref="196932402"/>
    <tag k="created_by" v="JOSM"/>
    <tag k="highway" v="residential"/>
    <tag k="name" v="Noorla Street"/>
  </way>
  <way id="22980778" version="2" timestamp="2008-02-15T11:41:40Z" uid="19626" user="Swamp" changeset="124609"/>
  <way id="22980790" version="1" timestamp="2008-02-15T10:52:34Z" uid="19626" user="Swamp" changeset="124609">
    <nd ref="247728663"/>
    <nd ref="247729175"/>
    <nd ref="247729188"/>
    <nd ref="247729194"/>
    <nd ref="247729205"/>
    <nd ref="247729225"/>
    <nd ref="247729273"/>
    <nd ref="247729279"/>
    <nd ref="247729284"/>
    <nd ref="247729290"/>
    <nd ref="247728676"/>
    <tag k="created_by" v="JOSM"/>
    <tag k="highway" v="residential"/>
    <tag k="name" v="Parkinson Cressent"/>
  </way>
  <way id="22980790" version="2" timestamp="2008-04-26T06:40:38Z" uid="19626" user="Swamp" changeset="261567">
    <nd ref="247728663"/>
    <nd ref="247729175"/>
    <nd ref="247729188"/>
    <nd ref="247729194"/>
    <nd ref="247729205"/>
    <nd ref="247729225"/>
    <nd ref="247729273"/>
    <nd ref="247729279"/>
    <nd ref="247729284"/>
    <nd ref="247729290"/>
    <nd ref="247728676"/>
    <tag k="created_by" v="JOSM"/>
    <tag k="highway" v="residential"/>
    <tag k="maxspeed" v="50"/>
    <tag k="name" v="Parkinson Cressent"/>
  </way>
  <way id="22980790" version="3" timestamp="2008-11-16T11:09:54Z" uid="18775" user="drlizau" changeset="756879">
    <nd ref="247728663"/>
    <nd ref="247729175"/>
    <nd ref="247729188"/>
    <nd ref="247729194"/>
    <nd ref="247729205"/>
    <nd ref="247729225"/>
    <nd ref="247729273"/>
    <nd ref="247729279"/>
    <nd ref="247729284"/>
    <nd ref="247729290"/>
    <nd ref="247728676"/>
    <tag k="created_by" v="JOSM"/>
    <tag k="highway" v="residential"/>
    <tag k="maxspeed" v="50"/>
    <tag k="name" v="Parkinson Cressent"/>
  </way>
  <way id="22980790" version="4" timestamp="2008-11-16T11:37:17Z" uid="18775" user="drlizau" changeset="756879">
    <nd ref="247728663"/>
    <nd ref="247729175"/>
    <nd ref="247729188"/>
    <nd ref="247729194"/>
    <nd ref="247729205"/>
    <nd ref="247729225"/>
    <nd ref="247729273"/>
    <nd ref="247729279"/>
    <nd ref="247729284"/>
    <nd ref="247729290"/>
    <nd ref="247728676"/>
    <tag k="created_by" v="JOSM"/>
    <tag k="highway" v="residential"/>
    <tag k="maxspeed" v="50"/>
    <tag k="name" v="Parkinson Cressent"/>
    <tag k="source" v="survey"/>
  </way>
  <way id="22980791" version="1" timestamp="2008-02-15T10:52:40Z" uid="19626" user="Swamp" changeset="124609">
    <nd ref="247729175"/>
    <nd ref="247729297"/>
    <tag k="created_by" v="JOSM"/>
    <tag k="highway" v="residential"/>
    <tag k="name" v="Phillip Place"/>
  </way>
  <way id="22980791" version="2" timestamp="2008-04-26T06:40:37Z" uid="19626" user="Swamp" changeset="261567">
    <nd ref="247729175"/>
    <nd ref="247729297"/>
    <tag k="created_by" v="JOSM"/>
    <tag k="highway" v="residential"/>
    <tag k="maxspeed" v="50"/>
    <tag k="name" v="Phillip Place"/>
  </way>
  <way id="22980791" version="3" timestamp="2008-11-16T11:09:47Z" uid="18775" user="drlizau" changeset="756879">
    <nd ref="247729175"/>
    <nd ref="247729297"/>
    <tag k="created_by" v="JOSM"/>
    <tag k="highway" v="residential"/>
    <tag k="maxspeed" v="50"/>
    <tag k="name" v="Phillip Place"/>
  </way>
  <way id="22980791" version="4" timestamp="2008-11-16T11:37:09Z" uid="18775" user="drlizau" changeset="756879">
    <nd ref="247729175"/>
    <nd ref="247729297"/>
    <tag k="created_by" v="JOSM"/>
    <tag k="highway" v="residential"/>
    <tag k="maxspeed" v="50"/>
    <tag k="name" v="Phillip Place"/>
    <tag k="source" v="survey"/>
  </way>
  <way id="22980792" version="1" timestamp="2008-02-15T10:52:42Z" uid="19626" user="Swamp" changeset="124609">
    <nd ref="247729290"/>
    <nd ref="247729306"/>
    <tag k="created_by" v="JOSM"/>
    <tag k="highway" v="residential"/>
    <tag k="name" v="Porter Place"/>
  </way>
  <way id="22980792" version="2" timestamp="2008-04-26T06:40:40Z" uid="19626" user="Swamp" changeset="261567">
    <nd ref="247729290"/>
    <nd ref="247729306"/>
    <tag k="created_by" v="JOSM"/>
    <tag k="highway" v="residential"/>
    <tag k="maxspeed" v="50"/>
    <tag k="name" v="Porter Place"/>
  </way>
  <way id="22980792" version="3" timestamp="2008-11-16T11:10:01Z" uid="18775" user="drlizau" changeset="756879">
    <nd ref="247729290"/>
    <nd ref="247729306"/>
    <tag k="created_by" v="JOSM"/>
    <tag k="highway" v="residential"/>
    <tag k="maxspeed" v="50"/>
    <tag k="name" v="Porter Place"/>
  </way>
  <way id="22980792" version="4" timestamp="2008-11-16T11:37:23Z" uid="18775" user="drlizau" changeset="756879">
    <nd ref="247729290"/>
    <nd ref="247729306"/>
    <tag k="created_by" v="JOSM"/>
    <tag k="highway" v="residential"/>
    <tag k="maxspeed" v="50"/>
    <tag k="name" v="Porter Place"/>
    <tag k="source" v="survey"/>
  </way>
  <way id="22980793" version="1" timestamp="2008-02-15T10:54:32Z" uid="19626" user="Swamp" changeset="124609">
    <nd ref="247728686"/>
    <nd ref="247729544"/>
    <nd ref="247729550"/>
    <nd ref="247729556"/>
    <nd ref="247729562"/>
    <nd ref="247729568"/>
    <nd ref="247729574"/>
    <nd ref="247729580"/>
    <nd ref="247728693"/>
    <tag k="created_by" v="JOSM"/>
    <tag k="highway" v="residential"/>
    <tag k="name" v="Lawson Cressent"/>
  </way>
  <way id="22980793" version="2" timestamp="2008-03-03T10:01:20Z" uid="18775" user="drlizau" changeset="259431">
    <nd ref="247728686"/>
    <nd ref="247729544"/>
    <nd ref="247729550"/>
    <nd ref="247729556"/>
    <nd ref="247729562"/>
    <nd ref="247729568"/>
    <nd ref="247729574"/>
    <nd ref="247729580"/>
    <nd ref="247728693"/>
    <tag k="created_by" v="JOSM"/>
    <tag k="highway" v="residential"/>
    <tag k="name" v="Lawson Crescent"/>
  </way>
  <way id="22980793" version="3" timestamp="2008-04-26T06:40:39Z" uid="19626" user="Swamp" changeset="261567">
    <nd ref="247728686"/>
    <nd ref="247729544"/>
    <nd ref="247729550"/>
    <nd ref="247729556"/>
    <nd ref="247729562"/>
    <nd ref="247729568"/>
    <nd ref="247729574"/>
    <nd ref="247729580"/>
    <nd ref="247728693"/>
    <tag k="created_by" v="JOSM"/>
    <tag k="highway" v="residential"/>
    <tag k="maxspeed" v="50"/>
    <tag k="name" v="Lawson Crescent"/>
  </way>
  <way id="22980793" version="4" timestamp="2008-11-16T11:09:58Z" uid="18775" user="drlizau" changeset="756879">
    <nd ref="247728686"/>
    <nd ref="247729544"/>
    <nd ref="247729550"/>
    <nd ref="247729556"/>
    <nd ref="247729562"/>
    <nd ref="247729568"/>
    <nd ref="247729574"/>
    <nd ref="247729580"/>
    <nd ref="247728693"/>
    <tag k="created_by" v="JOSM"/>
    <tag k="highway" v="residential"/>
    <tag k="maxspeed" v="50"/>
    <tag k="name" v="Lawson Crescent"/>
  </way>
  <way id="22980793" version="5" timestamp="2008-11-16T11:37:20Z" uid="18775" user="drlizau" changeset="756879">
    <nd ref="247728686"/>
    <nd ref="247729544"/>
    <nd ref="247729550"/>
    <nd ref="247729556"/>
    <nd ref="247729562"/>
    <nd ref="247729568"/>
    <nd ref="247729574"/>
    <nd ref="247729580"/>
    <nd ref="247728693"/>
    <tag k="created_by" v="JOSM"/>
    <tag k="highway" v="residential"/>
    <tag k="maxspeed" v="50"/>
    <tag k="name" v="Lawson Crescent"/>
    <tag k="source" v="survey"/>
  </way>
  <way id="22980798" version="4" timestamp="2010-07-07T08:58:04Z" uid="74617" user="JohnSmith" changeset="5156250">
    <nd ref="43341954"/>
    <nd ref="247729663"/>
    <nd ref="247729666"/>
    <nd ref="247729669"/>
    <nd ref="664316685"/>
    <nd ref="247729672"/>
    <nd ref="247729674"/>
    <nd ref="247729677"/>
    <nd ref="247729680"/>
    <nd ref="43044851"/>
    <tag k="highway" v="residential"/>
    <tag k="maxspeed" v="50"/>
    <tag k="maxspeed:source" v="default residential speed limit in Australia"/>
    <tag k="name" v="Hannah Place"/>
  </way>
  <way id="22980800" version="6" timestamp="2010-01-23T14:12:31Z" uid="58091" user="Andreas M" changeset="3691964">
    <nd ref="477942332"/>
    <nd ref="247729767"/>
    <tag k="highway" v="residential"/>
    <tag k="name" v="Ernst-Sadil-Platz"/>
    <tag k="oneway" v="yes"/>
  </way>
  <way id="22980817" version="1" timestamp="2008-02-15T11:01:26Z" uid="19626" user="Swamp" changeset="124609">
    <nd ref="247730723"/>
    <nd ref="247730726"/>
    <nd ref="247730730"/>
    <tag k="created_by" v="JOSM"/>
    <tag k="highway" v="residential"/>
    <tag k="name" v="Cutter Avenue"/>
  </way>
  <way id="22980817" version="2" timestamp="2008-03-03T21:57:56Z" uid="18775" user="drlizau" changeset="263253">
    <nd ref="247730723"/>
    <nd ref="247730726"/>
    <nd ref="247730730"/>
    <tag k="created_by" v="JOSM"/>
    <tag k="highway" v="residential"/>
    <tag k="name" v="Cutler Avenue"/>
  </way>
  <way id="22980817" version="3" timestamp="2008-04-26T06:40:32Z" uid="19626" user="Swamp" changeset="261567">
    <nd ref="247730723"/>
    <nd ref="247730726"/>
    <nd ref="247730730"/>
    <tag k="created_by" v="JOSM"/>
    <tag k="highway" v="residential"/>
    <tag k="maxspeed" v="50"/>
    <tag k="name" v="Cutler Avenue"/>
  </way>
  <way id="22980817" version="4" timestamp="2008-11-16T11:05:05Z" uid="18775" user="drlizau" changeset="756879">
    <nd ref="247730723"/>
    <nd ref="247730726"/>
    <nd ref="247730730"/>
    <tag k="created_by" v="JOSM"/>
    <tag k="highway" v="residential"/>
    <tag k="maxspeed" v="50"/>
    <tag k="name" v="Cutler Avenue"/>
  </way>
  <way id="22980817" version="5" timestamp="2008-11-16T11:33:24Z" uid="18775" user="drlizau" changeset="756879">
    <nd ref="247730723"/>
    <nd ref="247730726"/>
    <nd ref="247730730"/>
    <tag k="created_by" v="JOSM"/>
    <tag k="highway" v="residential"/>
    <tag k="maxspeed" v="50"/>
    <tag k="name" v="Cutler Avenue"/>
    <tag k="source" v="survey"/>
  </way>
  <way id="22980818" version="1" timestamp="2008-02-15T11:01:27Z" uid="19626" user="Swamp" changeset="124609">
    <nd ref="247730730"/>
    <nd ref="247730733"/>
    <tag k="created_by" v="JOSM"/>
    <tag k="highway" v="residential"/>
    <tag k="name" v="Ortella Street"/>
  </way>
  <way id="22980818" version="2" timestamp="2008-04-26T06:40:31Z" uid="19626" user="Swamp" changeset="261567">
    <nd ref="247730730"/>
    <nd ref="247730733"/>
    <tag k="created_by" v="JOSM"/>
    <tag k="highway" v="residential"/>
    <tag k="maxspeed" v="50"/>
    <tag k="name" v="Ortella Street"/>
  </way>
  <way id="22980818" version="3" timestamp="2008-11-16T11:05:00Z" uid="18775" user="drlizau" changeset="756879">
    <nd ref="247730730"/>
    <nd ref="247730733"/>
    <tag k="created_by" v="JOSM"/>
    <tag k="highway" v="residential"/>
    <tag k="maxspeed" v="50"/>
    <tag k="name" v="Ortella Street"/>
  </way>
  <way id="22980818" version="4" timestamp="2008-11-16T11:33:19Z" uid="18775" user="drlizau" changeset="756879">
    <nd ref="247730730"/>
    <nd ref="247730733"/>
    <tag k="created_by" v="JOSM"/>
    <tag k="highway" v="residential"/>
    <tag k="maxspeed" v="50"/>
    <tag k="name" v="Ortella Street"/>
    <tag k="source" v="survey"/>
  </way>
  <way id="22980819" version="1" timestamp="2008-02-15T11:01:27Z" uid="19626" user="Swamp" changeset="124609">
    <nd ref="188162370"/>
    <nd ref="247730736"/>
    <nd ref="247730733"/>
    <tag k="created_by" v="JOSM"/>
    <tag k="highway" v="residential"/>
    <tag k="name" v="Bingue Street"/>
  </way>
  <way id="22980819" version="2" timestamp="2008-04-26T06:40:30Z" uid="19626" user="Swamp" changeset="261567">
    <nd ref="188162370"/>
    <nd ref="247730736"/>
    <nd ref="247730733"/>
    <tag k="created_by" v="JOSM"/>
    <tag k="highway" v="residential"/>
    <tag k="maxspeed" v="50"/>
    <tag k="name" v="Bingue Street"/>
  </way>
  <way id="22980819" version="3" timestamp="2008-11-16T11:04:58Z" uid="18775" user="drlizau" changeset="756879">
    <nd ref="188162370"/>
    <nd ref="247730736"/>
    <nd ref="247730733"/>
    <tag k="created_by" v="JOSM"/>
    <tag k="highway" v="residential"/>
    <tag k="maxspeed" v="50"/>
    <tag k="name" v="Bingue Street"/>
  </way>
  <way id="22980819" version="4" timestamp="2008-11-16T11:33:17Z" uid="18775" user="drlizau" changeset="756879">
    <nd ref="188162370"/>
    <nd ref="247730736"/>
    <nd ref="247730733"/>
    <tag k="created_by" v="JOSM"/>
    <tag k="highway" v="residential"/>
    <tag k="maxspeed" v="50"/>
    <tag k="name" v="Bingue Street"/>
    <tag k="source" v="survey"/>
  </way>
  <way id="22980833" version="2" timestamp="2010-06-22T04:27:29Z" uid="74617" user="JohnSmith" changeset="5047984">
    <nd ref="247731696"/>
    <nd ref="247731700"/>
    <nd ref="247731703"/>
    <nd ref="247731707"/>
    <nd ref="247731711"/>
    <nd ref="247731714"/>
    <nd ref="247731719"/>
    <nd ref="247731735"/>
    <nd ref="247731738"/>
    <nd ref="247731742"/>
    <nd ref="247731746"/>
    <nd ref="247731749"/>
    <nd ref="247731754"/>
    <nd ref="247731757"/>
    <nd ref="247731761"/>
    <nd ref="247731765"/>
    <nd ref="247731768"/>
    <nd ref="247731654"/>
    <tag k="highway" v="secondary"/>
    <tag k="name" v="Eidsvold-Theodore Road"/>
    <tag k="source" v="survey"/>
  </way>
  <way id="22980834" version="2" timestamp="2010-07-07T09:00:07Z" uid="74617" user="JohnSmith" changeset="5156250">
    <nd ref="43046353"/>
    <nd ref="43329729"/>
    <nd ref="43329731"/>
    <nd ref="43329734"/>
    <nd ref="43329736"/>
    <nd ref="43329738"/>
    <nd ref="43329739"/>
    <nd ref="43329740"/>
    <nd ref="43333726"/>
    <nd ref="43331023"/>
    <nd ref="43331026"/>
    <nd ref="43331027"/>
    <nd ref="43331029"/>
    <nd ref="43331030"/>
    <nd ref="43331746"/>
    <nd ref="43331034"/>
    <nd ref="43331035"/>
    <nd ref="43331037"/>
    <nd ref="43331038"/>
    <nd ref="43331042"/>
    <nd ref="43331043"/>
    <nd ref="43331045"/>
    <nd ref="247731929"/>
    <tag k="highway" v="residential"/>
    <tag k="maxspeed" v="50"/>
    <tag k="maxspeed:source" v="default residential speed limit in Australia"/>
    <tag k="name" v="Newdegate Street"/>
  </way>
  <way id="22980900" version="3" timestamp="2011-02-06T23:42:37Z" uid="137033" user="lubomir" changeset="7211593">
    <nd ref="247733284"/>
    <nd ref="247733285"/>
    <nd ref="247733286"/>
    <nd ref="247733287"/>
    <nd ref="247733288"/>
    <nd ref="247733289"/>
    <nd ref="247733290"/>
    <nd ref="1140060666"/>
    <nd ref="247733291"/>
    <nd ref="247733292"/>
    <nd ref="247733293"/>
    <nd ref="247733294"/>
    <nd ref="247733295"/>
    <nd ref="247733296"/>
    <nd ref="247733297"/>
    <nd ref="247733298"/>
    <nd ref="1140061152"/>
    <nd ref="247733299"/>
    <nd ref="1140060086"/>
    <nd ref="247733300"/>
    <nd ref="247733301"/>
    <nd ref="247733302"/>
    <nd ref="247733303"/>
    <nd ref="247733304"/>
    <nd ref="247733305"/>
    <nd ref="1140061490"/>
    <nd ref="921770586"/>
    <nd ref="921770748"/>
    <nd ref="247733306"/>
    <nd ref="921770509"/>
    <nd ref="921770430"/>
    <nd ref="247733307"/>
    <nd ref="921770341"/>
    <nd ref="247733308"/>
    <nd ref="247733309"/>
    <nd ref="247733310"/>
    <nd ref="247733311"/>
    <nd ref="247733312"/>
    <nd ref="247733313"/>
    <nd ref="921770215"/>
    <nd ref="247733284"/>
    <tag k="landuse" v="forest"/>
  </way>
  <way id="22980944" version="1" timestamp="2008-02-15T11:21:10Z" uid="19626" user="Swamp" changeset="124609">
    <nd ref="247734471"/>
    <nd ref="188132258"/>
    <nd ref="188133122"/>
    <nd ref="247734468"/>
    <tag k="created_by" v="JOSM"/>
    <tag k="highway" v="residential"/>
    <tag k="name" v="Brayne Road"/>
  </way>
  <way id="22980944" version="2" timestamp="2008-03-04T03:42:46Z" uid="18775" user="drlizau" changeset="263319">
    <nd ref="247734471"/>
    <nd ref="188132258"/>
    <nd ref="188133122"/>
    <nd ref="247734468"/>
    <nd ref="250447613"/>
    <nd ref="250447614"/>
    <nd ref="250447616"/>
    <nd ref="250447618"/>
    <nd ref="250447620"/>
    <nd ref="250447621"/>
    <nd ref="136349582"/>
    <tag k="created_by" v="JOSM"/>
    <tag k="highway" v="residential"/>
    <tag k="name" v="Brayne Road"/>
  </way>
  <way id="22980944" version="3" timestamp="2008-03-04T03:56:06Z" uid="18775" user="drlizau" changeset="263319">
    <nd ref="247734471"/>
    <nd ref="188132258"/>
    <nd ref="188133122"/>
    <nd ref="250448438"/>
    <nd ref="247734468"/>
    <nd ref="250447613"/>
    <nd ref="250447614"/>
    <nd ref="250447616"/>
    <nd ref="250447618"/>
    <nd ref="250447620"/>
    <nd ref="250447621"/>
    <nd ref="136349582"/>
    <tag k="created_by" v="JOSM"/>
    <tag k="highway" v="residential"/>
    <tag k="name" v="Brayne Road"/>
  </way>
  <way id="22980944" version="4" timestamp="2008-03-28T11:15:42Z" uid="19626" user="Swamp" changeset="413443">
    <nd ref="247734471"/>
    <nd ref="188132258"/>
    <nd ref="188133122"/>
    <nd ref="250448438"/>
    <nd ref="247734468"/>
    <nd ref="250447613"/>
    <nd ref="250447614"/>
    <nd ref="250447616"/>
    <nd ref="250447618"/>
    <nd ref="250447620"/>
    <nd ref="250447621"/>
    <nd ref="136349535"/>
    <tag k="created_by" v="JOSM"/>
    <tag k="highway" v="residential"/>
    <tag k="name" v="Brayne Road"/>
    <tag k="surface" v="unpaved"/>
  </way>
  <way id="22980944" version="5" timestamp="2008-11-16T11:00:11Z" uid="18775" user="drlizau" changeset="756879">
    <nd ref="247734471"/>
    <nd ref="188132258"/>
    <nd ref="188133122"/>
    <nd ref="250448438"/>
    <nd ref="247734468"/>
    <nd ref="250447613"/>
    <nd ref="250447614"/>
    <nd ref="250447616"/>
    <nd ref="250447618"/>
    <nd ref="250447620"/>
    <nd ref="250447621"/>
    <nd ref="136349535"/>
    <tag k="created_by" v="JOSM"/>
    <tag k="highway" v="residential"/>
    <tag k="name" v="Brayne Road"/>
    <tag k="surface" v="unpaved"/>
  </way>
  <way id="22980944" version="6" timestamp="2008-11-16T11:29:08Z" uid="18775" user="drlizau" changeset="756879">
    <nd ref="247734471"/>
    <nd ref="188132258"/>
    <nd ref="188133122"/>
    <nd ref="250448438"/>
    <nd ref="247734468"/>
    <nd ref="250447613"/>
    <nd ref="250447614"/>
    <nd ref="250447616"/>
    <nd ref="250447618"/>
    <nd ref="250447620"/>
    <nd ref="250447621"/>
    <nd ref="136349535"/>
    <tag k="created_by" v="JOSM"/>
    <tag k="highway" v="residential"/>
    <tag k="name" v="Brayne Road"/>
    <tag k="source" v="survey"/>
    <tag k="surface" v="unpaved"/>
  </way>
  <way id="22980944" version="7" timestamp="2009-07-19T02:20:24Z" uid="18775" user="drlizau" changeset="1868981">
    <nd ref="247734471"/>
    <nd ref="188132258"/>
    <nd ref="188133122"/>
    <nd ref="250448438"/>
    <nd ref="247734468"/>
    <tag k="highway" v="residential"/>
    <tag k="name" v="Brayne Road"/>
    <tag k="source" v="survey"/>
    <tag k="surface" v="unpaved"/>
  </way>
  <way id="22980944" version="8" timestamp="2009-07-25T22:29:36Z" uid="18775" user="drlizau" changeset="1939300">
    <nd ref="247734471"/>
    <nd ref="188132258"/>
    <nd ref="188133122"/>
    <nd ref="250448438"/>
    <nd ref="247734468"/>
    <tag k="highway" v="residential"/>
    <tag k="maxspeed" v="50"/>
    <tag k="name" v="Brayne Road"/>
    <tag k="source" v="survey"/>
  </way>
  <way id="22980998" version="1" timestamp="2008-02-15T11:26:18Z" uid="19626" user="Swamp" changeset="124609">
    <nd ref="149867843"/>
    <nd ref="188121672"/>
    <nd ref="188121657"/>
    <nd ref="188119930"/>
    <nd ref="247734811"/>
    <tag k="created_by" v="JOSM"/>
    <tag k="highway" v="residential"/>
    <tag k="name" v="Spence Road"/>
  </way>
  <way id="22980998" version="2" timestamp="2008-04-27T10:12:11Z" uid="19626" user="Swamp" changeset="270222">
    <nd ref="149867843"/>
    <nd ref="188121672"/>
    <nd ref="188121657"/>
    <nd ref="188119930"/>
    <nd ref="247734811"/>
    <tag k="created_by" v="JOSM"/>
    <tag k="highway" v="residential"/>
    <tag k="maxspeed" v="50"/>
    <tag k="name" v="Spence Road"/>
  </way>
  <way id="22980998" version="3" timestamp="2008-08-17T08:26:27Z" uid="18775" user="drlizau" changeset="296945">
    <nd ref="149867843"/>
    <nd ref="188121672"/>
    <nd ref="288677141"/>
    <nd ref="188121657"/>
    <nd ref="188119930"/>
    <nd ref="288677103"/>
    <nd ref="247734811"/>
    <tag k="created_by" v="JOSM"/>
    <tag k="highway" v="residential"/>
    <tag k="maxspeed" v="50"/>
    <tag k="name" v="Spence Road"/>
  </way>
  <way id="22980998" version="4" timestamp="2008-11-16T11:08:00Z" uid="18775" user="drlizau" changeset="756879">
    <nd ref="149867843"/>
    <nd ref="188121672"/>
    <nd ref="288677141"/>
    <nd ref="188121657"/>
    <nd ref="188119930"/>
    <nd ref="288677103"/>
    <nd ref="247734811"/>
    <tag k="created_by" v="JOSM"/>
    <tag k="highway" v="residential"/>
    <tag k="maxspeed" v="50"/>
    <tag k="name" v="Spence Road"/>
  </way>
  <way id="22980998" version="5" timestamp="2008-11-16T11:35:40Z" uid="18775" user="drlizau" changeset="756879">
    <nd ref="149867843"/>
    <nd ref="188121672"/>
    <nd ref="288677141"/>
    <nd ref="188121657"/>
    <nd ref="188119930"/>
    <nd ref="288677103"/>
    <nd ref="247734811"/>
    <tag k="created_by" v="JOSM"/>
    <tag k="highway" v="residential"/>
    <tag k="maxspeed" v="50"/>
    <tag k="name" v="Spence Road"/>
    <tag k="source" v="survey"/>
  </way>
  <way id="22980998" version="6" timestamp="2009-07-25T04:16:23Z" uid="74617" user="JohnSmith" changeset="1930637">
    <nd ref="149867843"/>
    <nd ref="188121672"/>
    <nd ref="288677141"/>
    <nd ref="188121657"/>
    <nd ref="188119930"/>
    <nd ref="288677103"/>
    <nd ref="247734811"/>
    <tag k="highway" v="residential"/>
    <tag k="maxspeed" v="50"/>
    <tag k="name" v="Spence Road"/>
    <tag k="source" v="survey"/>
  </way>
</osm>
