<?xml version='1.0' encoding='UTF-8'?>
<osm version="0.6" generator="libosmium/2.20.0">
  <way id="23123085" version="2" timestamp="2010-02-15T05:58:53Z" uid="74617" user="JohnSmith" changeset="3880328">
    <nd ref="249643986"/>
    <nd ref="249655736"/>
    <tag k="highway" v="residential"/>
    <tag k="maxspeed" v="50"/>
    <tag k="name" v="Thomas St"/>
  </way>
  <way id="23123085" version="3" timestamp="2010-06-02T07:58:21Z" uid="4467" user="Rosscoe" changeset="4881676">
    <nd ref="249643986"/>
    <nd ref="249655736"/>
    <tag k="highway" v="residential"/>
    <tag k="maxspeed" v="50"/>
    <tag k="name" v="Thomas Street"/>
  </way>
  <way id="23123086" version="4" timestamp="2010-02-15T05:58:53Z" uid="74617" user="JohnSmith" changeset="3880328">
    <nd ref="249655738"/>
    <nd ref="250246309"/>
    <nd ref="250246308"/>
    <nd ref="249655740"/>
    <tag k="highway" v="residential"/>
    <tag k="maxspeed" v="50"/>
    <tag k="name" v="Darling Street East"/>
  </way>
  <way id="23123087" version="2" timestamp="2010-02-15T05:58:53Z" uid="74617" user="JohnSmith" changeset="3880328">
    <nd ref="249655742"/>
    <nd ref="249655744"/>
    <tag k="highway" v="residential"/>
    <tag k="maxspeed" v="50"/>
    <tag k="name" v="Darling Street East"/>
  </way>
  <way id="23123092" version="7" timestamp="2011-03-21T08:50:50Z" uid="4467" user="Rosscoe" changeset="7625026">
    <nd ref="249655683"/>
    <nd ref="249655684"/>
    <nd ref="249655685"/>
    <nd ref="249655686"/>
    <nd ref="249655687"/>
    <nd ref="1211681412"/>
    <nd ref="249655688"/>
    <nd ref="249655689"/>
    <nd ref="249655690"/>
    <nd ref="249655691"/>
    <nd ref="249655692"/>
    <nd ref="269901332"/>
    <nd ref="249655693"/>
    <nd ref="249655683"/>
    <tag k="landuse" v="residential"/>
    <tag k="name" v="The Ferns Lifestyle Village"/>
    <tag k="source" v="extrapolation"/>
  </way>
  <way id="23123095" version="5" timestamp="2011-03-21T08:50:42Z" uid="4467" user="Rosscoe" changeset="7625026">
    <nd ref="249655698"/>
    <nd ref="249655699"/>
    <nd ref="673557046"/>
    <nd ref="249655700"/>
    <nd ref="249655701"/>
    <nd ref="249655702"/>
    <nd ref="673557063"/>
    <nd ref="673557075"/>
    <nd ref="249655756"/>
    <nd ref="249655704"/>
    <nd ref="673557106"/>
    <nd ref="249655705"/>
    <nd ref="673557113"/>
    <nd ref="673557116"/>
    <nd ref="249655698"/>
    <tag k="amenity" v="school"/>
    <tag k="name" v="Tyndale Christian School"/>
    <tag k="source" v="Yahoo Imagery"/>
  </way>
  <way id="23123096" version="6" timestamp="2011-03-19T09:56:01Z" uid="4467" user="Rosscoe" changeset="7602914">
    <nd ref="249655706"/>
    <nd ref="249655707"/>
    <nd ref="268020243"/>
    <nd ref="249655708"/>
    <nd ref="249655710"/>
    <nd ref="249655711"/>
    <nd ref="1208584055"/>
    <nd ref="249655712"/>
    <nd ref="249655713"/>
    <nd ref="249655714"/>
    <nd ref="1208584065"/>
    <nd ref="249655715"/>
    <nd ref="249655716"/>
    <nd ref="249655717"/>
    <nd ref="249655718"/>
    <nd ref="249655706"/>
    <tag k="landuse" v="recreation_ground"/>
    <tag k="name" v="Norwich Road Reserve"/>
  </way>
  <way id="23123098" version="3" timestamp="2010-06-29T18:31:36Z" uid="74617" user="JohnSmith" changeset="5107971">
    <nd ref="249655732"/>
    <nd ref="249655733"/>
    <nd ref="249655734"/>
    <nd ref="249655735"/>
    <nd ref="249655732"/>
    <tag k="fixme" v="sport=football is ambiguous, please use sport=[soccer|rugby_league|rugby_union|australian_football|etc] instead, see http://wiki.osm.org/wiki/Football for more details"/>
    <tag k="leisure" v="pitch"/>
    <tag k="source" v="Yahoo Imagery"/>
    <tag k="sport" v="football"/>
  </way>
  <way id="23123104" version="3" timestamp="2011-03-19T09:55:53Z" uid="4467" user="Rosscoe" changeset="7602914">
    <nd ref="249539252"/>
    <nd ref="1208584050"/>
    <tag k="highway" v="residential"/>
    <tag k="maxspeed" v="50"/>
    <tag k="name" v="Smith Road"/>
    <tag k="source" v="Yahoo Imagery"/>
  </way>
  <way id="23123185" version="8" timestamp="2008-09-25T22:20:23Z" uid="20587" user="balrog-kun" changeset="698431">
    <nd ref="249659152"/>
    <nd ref="249656810"/>
    <nd ref="249656811"/>
    <nd ref="249659006"/>
    <tag k="created_by" v="Potlatch 0.7b"/>
    <tag k="highway" v="tertiary"/>
  </way>
  <way id="23123188" version="5" timestamp="2008-09-25T22:20:23Z" uid="20587" user="balrog-kun" changeset="698431">
    <nd ref="249659115"/>
    <nd ref="249656840"/>
    <nd ref="249656841"/>
    <nd ref="249656844"/>
    <nd ref="249656845"/>
    <nd ref="249656846"/>
    <nd ref="249656847"/>
    <nd ref="249656848"/>
    <nd ref="264695595"/>
    <nd ref="249656849"/>
    <nd ref="249656850"/>
    <nd ref="249656851"/>
    <nd ref="249656852"/>
    <nd ref="249656853"/>
    <nd ref="249656854"/>
    <tag k="created_by" v="Potlatch 0.9c"/>
    <tag k="highway" v="residential"/>
  </way>
  <way id="23123188" version="6" timestamp="2008-09-25T23:35:25Z" uid="20587" user="balrog-kun" changeset="698431">
    <nd ref="249659115"/>
    <nd ref="249656840"/>
    <nd ref="249656841"/>
    <nd ref="249656844"/>
    <nd ref="249656845"/>
    <nd ref="299854798"/>
    <nd ref="299854842"/>
    <nd ref="249656846"/>
    <nd ref="299855067"/>
    <nd ref="249656847"/>
    <nd ref="299855063"/>
    <nd ref="249656848"/>
    <nd ref="264695595"/>
    <nd ref="249656849"/>
    <nd ref="249656850"/>
    <nd ref="299855097"/>
    <nd ref="249656851"/>
    <nd ref="299855016"/>
    <tag k="created_by" v="Potlatch 0.9c"/>
    <tag k="highway" v="residential"/>
  </way>
  <way id="23123188" version="7" timestamp="2008-09-26T02:30:36Z" uid="20587" user="balrog-kun" changeset="699322">
    <nd ref="249659115"/>
    <nd ref="249656840"/>
    <nd ref="249656841"/>
    <nd ref="249656844"/>
    <nd ref="249656845"/>
    <nd ref="299854798"/>
    <nd ref="299854842"/>
    <nd ref="249656846"/>
    <nd ref="299855067"/>
    <nd ref="249656847"/>
    <nd ref="299855063"/>
    <nd ref="249656848"/>
    <nd ref="264695595"/>
    <nd ref="249656849"/>
    <nd ref="249656850"/>
    <nd ref="299855097"/>
    <nd ref="249656851"/>
    <nd ref="299876238"/>
    <nd ref="299855016"/>
    <tag k="created_by" v="Potlatch 0.9c"/>
    <tag k="highway" v="residential"/>
  </way>
  <way id="23123192" version="5" timestamp="2008-09-26T02:30:36Z" uid="20587" user="balrog-kun" changeset="699322">
    <nd ref="249397153"/>
    <nd ref="249656883"/>
    <nd ref="249656884"/>
    <nd ref="299875634"/>
    <tag k="created_by" v="Potlatch 0.8"/>
    <tag k="highway" v="tertiary"/>
  </way>
  <way id="23123197" version="5" timestamp="2008-09-21T03:25:51Z" uid="20587" user="balrog-kun" changeset="672503">
    <nd ref="249656913"/>
    <nd ref="298589487"/>
    <nd ref="249656934"/>
    <nd ref="249656955"/>
    <tag k="created_by" v="Potlatch 0.8"/>
    <tag k="highway" v="motorway_link"/>
    <tag k="oneway" v="yes"/>
  </way>
  <way id="23123270" version="3" timestamp="2008-09-12T17:43:47Z" uid="20587" user="balrog-kun" changeset="614738">
    <nd ref="52158099"/>
    <nd ref="52159301"/>
    <nd ref="52157617"/>
    <nd ref="52160142"/>
    <nd ref="52158518"/>
    <nd ref="52167044"/>
    <nd ref="52162400"/>
    <tag k="created_by" v="Potlatch 0.7b"/>
    <tag k="highway" v="motorway_link"/>
    <tag k="int_ref" v="E-15"/>
    <tag k="name" v="Autopista del MediterrÃ¡neo"/>
    <tag k="oneway" v="true"/>
    <tag k="ref" v="A-7"/>
  </way>
  <way id="23123301" version="3" timestamp="2008-07-03T23:09:51Z" uid="6975" user="ulfl" changeset="386611">
    <nd ref="249657732"/>
    <nd ref="249657733"/>
    <nd ref="249657734"/>
    <nd ref="249657735"/>
    <nd ref="249657736"/>
    <nd ref="249657737"/>
    <nd ref="249657738"/>
    <nd ref="249657739"/>
    <nd ref="249657740"/>
    <nd ref="249657741"/>
    <nd ref="249657742"/>
    <nd ref="249657743"/>
    <nd ref="249657732"/>
    <tag k="amenity" v="prison"/>
    <tag k="name" v="Centro Penitenciario de Fontcalent"/>
  </way>
  <way id="23123318" version="2" timestamp="2008-10-23T14:32:39Z" uid="49111" user="Markus B" changeset="525612">
    <nd ref="249658128"/>
    <nd ref="249658130"/>
    <nd ref="249658132"/>
    <nd ref="249658134"/>
    <nd ref="249658136"/>
    <nd ref="249658138"/>
    <nd ref="249658139"/>
    <nd ref="249658141"/>
    <nd ref="249658143"/>
    <nd ref="249658145"/>
    <nd ref="249658147"/>
    <nd ref="249658149"/>
    <nd ref="249658150"/>
    <nd ref="249658152"/>
    <nd ref="249658154"/>
    <nd ref="249658156"/>
    <nd ref="249658128"/>
    <tag k="created_by" v="Potlatch 0.10e"/>
    <tag k="landuse" v="forest"/>
    <tag k="source" v="Landsat"/>
  </way>
  <way id="23123319" version="2" timestamp="2008-10-23T14:33:43Z" uid="49111" user="Markus B" changeset="525612">
    <nd ref="249658166"/>
    <nd ref="249658161"/>
    <nd ref="249658170"/>
    <nd ref="249658163"/>
    <nd ref="249658184"/>
    <nd ref="249658165"/>
    <nd ref="249658159"/>
    <nd ref="249658168"/>
    <nd ref="249658173"/>
    <nd ref="249658183"/>
    <nd ref="249658177"/>
    <nd ref="249658158"/>
    <nd ref="249658172"/>
    <nd ref="249658175"/>
    <nd ref="249658181"/>
    <nd ref="249658179"/>
    <nd ref="249658166"/>
    <tag k="created_by" v="Potlatch 0.10e"/>
    <tag k="landuse" v="forest"/>
    <tag k="source" v="Landsat"/>
  </way>
  <way id="23123321" version="2" timestamp="2008-10-23T14:33:47Z" uid="49111" user="Markus B" changeset="525612">
    <nd ref="249658223"/>
    <nd ref="249658231"/>
    <nd ref="249658233"/>
    <nd ref="249658241"/>
    <nd ref="249658234"/>
    <nd ref="249658243"/>
    <nd ref="249658246"/>
    <nd ref="249658229"/>
    <nd ref="249658238"/>
    <nd ref="249658245"/>
    <nd ref="249658248"/>
    <nd ref="249658239"/>
    <nd ref="249658227"/>
    <nd ref="249658225"/>
    <nd ref="249658250"/>
    <nd ref="249658236"/>
    <nd ref="249658223"/>
    <tag k="created_by" v="Potlatch 0.10e"/>
    <tag k="landuse" v="forest"/>
    <tag k="source" v="Landsat"/>
  </way>
  <way id="23123345" version="3" timestamp="2008-09-12T17:43:34Z" uid="20587" user="balrog-kun" changeset="614738">
    <nd ref="249658637"/>
    <nd ref="249403027"/>
    <nd ref="249403028"/>
    <nd ref="249403029"/>
    <nd ref="249403030"/>
    <nd ref="249403031"/>
    <nd ref="249403032"/>
    <nd ref="249403038"/>
    <tag k="created_by" v="Potlatch 0.7b"/>
    <tag k="highway" v="secondary_link"/>
    <tag k="oneway" v="yes"/>
  </way>
  <way id="23123353" version="3" timestamp="2008-09-26T02:30:35Z" uid="20587" user="balrog-kun" changeset="699322">
    <nd ref="249658637"/>
    <nd ref="299877239"/>
    <nd ref="249658651"/>
    <nd ref="249658652"/>
    <tag k="created_by" v="Potlatch 0.7b"/>
    <tag k="highway" v="motorway"/>
    <tag k="int_ref" v="E-15"/>
    <tag k="layer" v="1"/>
    <tag k="name" v="Autopista del MediterrÃ¡neo"/>
    <tag k="oneway" v="true"/>
    <tag k="ref" v="A-7"/>
  </way>
  <way id="23123354" version="5" timestamp="2008-09-26T02:30:35Z" uid="20587" user="balrog-kun" changeset="699322">
    <nd ref="249657656"/>
    <nd ref="247764989"/>
    <nd ref="247764990"/>
    <nd ref="247764991"/>
    <nd ref="247764992"/>
    <nd ref="247764993"/>
    <nd ref="247764994"/>
    <nd ref="247764995"/>
    <nd ref="247764996"/>
    <nd ref="247764997"/>
    <nd ref="247764998"/>
    <nd ref="247764999"/>
    <nd ref="247765000"/>
    <nd ref="247765001"/>
    <nd ref="247765002"/>
    <nd ref="247765003"/>
    <nd ref="247765004"/>
    <nd ref="299875363"/>
    <tag k="created_by" v="Potlatch 0.7b"/>
    <tag k="highway" v="motorway"/>
    <tag k="int_ref" v="E-15"/>
    <tag k="name" v="Autopista del MediterrÃ¡neo"/>
    <tag k="oneway" v="true"/>
    <tag k="ref" v="A-7"/>
  </way>
  <way id="23123356" version="2" timestamp="2008-09-24T21:48:11Z" uid="20587" user="balrog-kun" changeset="691013">
    <nd ref="249658655"/>
    <nd ref="249658656"/>
    <nd ref="249658657"/>
    <nd ref="249658658"/>
    <nd ref="249658659"/>
    <nd ref="249658660"/>
    <nd ref="249658661"/>
    <nd ref="249658662"/>
    <nd ref="249658663"/>
    <nd ref="249658664"/>
    <nd ref="249658665"/>
    <nd ref="249658666"/>
    <nd ref="249658667"/>
    <tag k="created_by" v="Potlatch 0.7b"/>
    <tag k="highway" v="motorway"/>
    <tag k="int_ref" v="E-15"/>
    <tag k="layer" v="1"/>
    <tag k="name" v="Autopista del MediterrÃ¡neo"/>
    <tag k="oneway" v="true"/>
    <tag k="ref" v="A-7"/>
  </way>
  <way id="23123356" version="3" timestamp="2008-09-26T02:30:34Z" uid="20587" user="balrog-kun" changeset="699322">
    <nd ref="249658655"/>
    <nd ref="249658656"/>
    <nd ref="249658657"/>
    <nd ref="249658658"/>
    <nd ref="249658659"/>
    <nd ref="249658660"/>
    <nd ref="249658661"/>
    <nd ref="249658662"/>
    <nd ref="299877240"/>
    <nd ref="249658663"/>
    <nd ref="249658664"/>
    <nd ref="249658665"/>
    <nd ref="249658666"/>
    <nd ref="249658667"/>
    <tag k="created_by" v="Potlatch 0.7b"/>
    <tag k="highway" v="motorway"/>
    <tag k="int_ref" v="E-15"/>
    <tag k="layer" v="1"/>
    <tag k="name" v="Autopista del MediterrÃ¡neo"/>
    <tag k="oneway" v="true"/>
    <tag k="ref" v="A-7"/>
  </way>
  <way id="23123374" version="3" timestamp="2008-09-24T21:48:09Z" uid="20587" user="balrog-kun" changeset="691013">
    <nd ref="249658667"/>
    <nd ref="249658668"/>
    <nd ref="249658923"/>
    <nd ref="249658924"/>
    <nd ref="249658925"/>
    <nd ref="249658926"/>
    <nd ref="249658927"/>
    <tag k="created_by" v="Potlatch 0.9c"/>
    <tag k="highway" v="motorway_link"/>
    <tag k="int_ref" v="E-15"/>
    <tag k="layer" v="1"/>
    <tag k="name" v="Autopista del MediterrÃ¡neo"/>
    <tag k="oneway" v="true"/>
    <tag k="ref" v="A-7"/>
  </way>
  <way id="23123379" version="2" timestamp="2008-09-25T22:20:22Z" uid="20587" user="balrog-kun" changeset="698431">
    <nd ref="299844680"/>
    <nd ref="249658951"/>
    <nd ref="249658950"/>
    <nd ref="249658949"/>
    <tag k="created_by" v="Potlatch 0.7b"/>
    <tag k="highway" v="residential"/>
    <tag k="oneway" v="yes"/>
  </way>
  <way id="23123384" version="3" timestamp="2008-09-25T22:20:28Z" uid="20587" user="balrog-kun" changeset="698431"/>
  <way id="23123387" version="2" timestamp="2008-09-12T17:43:33Z" uid="20587" user="balrog-kun" changeset="614738">
    <nd ref="249659006"/>
    <nd ref="249659112"/>
    <nd ref="249659113"/>
    <nd ref="296157728"/>
    <nd ref="249658949"/>
    <nd ref="249659114"/>
    <nd ref="249659115"/>
    <nd ref="249659116"/>
    <nd ref="249659117"/>
    <nd ref="249659119"/>
    <nd ref="296157727"/>
    <nd ref="249659120"/>
    <nd ref="249659121"/>
    <nd ref="249659006"/>
    <tag k="created_by" v="Potlatch 0.7b"/>
    <tag k="highway" v="residential"/>
    <tag k="junction" v="roundabout"/>
  </way>
  <way id="23123449" version="4" timestamp="2008-09-26T02:30:36Z" uid="20587" user="balrog-kun" changeset="699322">
    <nd ref="247765016"/>
    <nd ref="249659520"/>
    <nd ref="249659521"/>
    <nd ref="249659522"/>
    <nd ref="299875365"/>
    <nd ref="249659523"/>
    <tag k="created_by" v="Potlatch 0.10"/>
    <tag k="highway" v="motorway"/>
    <tag k="int_ref" v="E-15"/>
    <tag k="layer" v="1"/>
    <tag k="name" v="Autopista del MediterrÃ¡neo"/>
    <tag k="oneway" v="true"/>
    <tag k="ref" v="A-7"/>
  </way>
  <way id="23123530" version="2" timestamp="2008-05-17T15:53:55Z" uid="27600" user="Islanit" changeset="468393">
    <nd ref="249660420"/>
    <nd ref="249660421"/>
    <nd ref="249660422"/>
    <nd ref="249660423"/>
    <nd ref="249660424"/>
    <nd ref="249660425"/>
    <nd ref="249660426"/>
    <nd ref="249660427"/>
    <nd ref="249660428"/>
    <nd ref="249660429"/>
    <nd ref="249660420"/>
    <tag k="created_by" v="JOSM"/>
    <tag k="landuse" v="industrial"/>
  </way>
  <way id="23123603" version="3" timestamp="2010-07-07T21:13:51Z" uid="74617" user="JohnSmith" changeset="5161069">
    <nd ref="249661119"/>
    <nd ref="249661122"/>
    <nd ref="249661120"/>
    <tag k="highway" v="residential"/>
    <tag k="maxspeed" v="50"/>
    <tag k="maxspeed:source" v="default residential speed limit in Australia"/>
    <tag k="name" v="Short Street"/>
  </way>
  <way id="23123604" version="2" timestamp="2010-07-07T21:13:12Z" uid="74617" user="JohnSmith" changeset="5161069">
    <nd ref="249661122"/>
    <nd ref="249661127"/>
    <tag k="highway" v="residential"/>
    <tag k="maxspeed" v="50"/>
    <tag k="maxspeed:source" v="default residential speed limit in Australia"/>
    <tag k="name" v="Arcadia Avenue"/>
  </way>
  <way id="23123609" version="2" timestamp="2010-07-07T21:16:04Z" uid="74617" user="JohnSmith" changeset="5161069">
    <nd ref="249661133"/>
    <nd ref="249661141"/>
    <nd ref="249661142"/>
    <tag k="highway" v="residential"/>
    <tag k="maxspeed" v="50"/>
    <tag k="maxspeed:source" v="default residential speed limit in Australia"/>
    <tag k="name" v="Ambyne Street"/>
  </way>
  <way id="23123611" version="2" timestamp="2008-04-25T02:15:58Z" uid="19626" user="Swamp" changeset="249574">
    <nd ref="127612651"/>
    <nd ref="248143595"/>
    <nd ref="249661156"/>
    <nd ref="127612801"/>
    <tag k="created_by" v="JOSM"/>
    <tag k="highway" v="secondary"/>
    <tag k="name" v="Pine Avenue"/>
    <tag k="oneway" v="yes"/>
  </way>
  <way id="23123611" version="3" timestamp="2008-04-25T03:02:55Z" uid="19626" user="Swamp" changeset="249574">
    <nd ref="127612651"/>
    <nd ref="259746416"/>
    <nd ref="248143595"/>
    <nd ref="249661156"/>
    <nd ref="127612801"/>
    <tag k="created_by" v="JOSM"/>
    <tag k="highway" v="secondary"/>
    <tag k="name" v="Pine Avenue"/>
    <tag k="oneway" v="yes"/>
  </way>
  <way id="23123611" version="4" timestamp="2008-04-25T03:05:57Z" uid="19626" user="Swamp" changeset="249574">
    <nd ref="127612651"/>
    <nd ref="259746416"/>
    <nd ref="259746459"/>
    <nd ref="248143595"/>
    <nd ref="249661156"/>
    <nd ref="127612801"/>
    <tag k="created_by" v="JOSM"/>
    <tag k="highway" v="secondary"/>
    <tag k="name" v="Pine Avenue"/>
    <tag k="oneway" v="yes"/>
  </way>
  <way id="23123611" version="5" timestamp="2008-04-25T03:11:05Z" uid="19626" user="Swamp" changeset="249574">
    <nd ref="127612651"/>
    <nd ref="259746416"/>
    <nd ref="259746459"/>
    <nd ref="248143595"/>
    <nd ref="259746599"/>
    <nd ref="249661156"/>
    <nd ref="127612801"/>
    <tag k="created_by" v="JOSM"/>
    <tag k="highway" v="secondary"/>
    <tag k="name" v="Pine Avenue"/>
    <tag k="oneway" v="yes"/>
  </way>
  <way id="23123611" version="6" timestamp="2008-04-25T03:25:39Z" uid="19626" user="Swamp" changeset="249574">
    <nd ref="127612651"/>
    <nd ref="259746416"/>
    <nd ref="259746459"/>
    <nd ref="248143595"/>
    <nd ref="259746599"/>
    <nd ref="259747219"/>
    <nd ref="249661156"/>
    <nd ref="127612801"/>
    <tag k="created_by" v="JOSM"/>
    <tag k="highway" v="secondary"/>
    <tag k="name" v="Pine Avenue"/>
    <tag k="oneway" v="yes"/>
  </way>
  <way id="23123611" version="7" timestamp="2008-05-18T10:53:08Z" uid="19626" user="Swamp" changeset="474848">
    <nd ref="127612651"/>
    <nd ref="259746416"/>
    <nd ref="259746459"/>
    <nd ref="248143595"/>
    <nd ref="259746599"/>
    <nd ref="259747219"/>
    <nd ref="249661156"/>
    <nd ref="127612801"/>
    <tag k="created_by" v="JOSM"/>
    <tag k="highway" v="secondary"/>
    <tag k="maxspeed" v="50Km/h"/>
    <tag k="name" v="Pine Avenue"/>
    <tag k="oneway" v="yes"/>
  </way>
  <way id="23123611" version="8" timestamp="2009-07-23T00:56:15Z" uid="74617" user="JohnSmith" changeset="1910487">
    <nd ref="127612651"/>
    <nd ref="259746416"/>
    <nd ref="259746459"/>
    <nd ref="248143595"/>
    <nd ref="259746599"/>
    <nd ref="259747219"/>
    <nd ref="249661156"/>
    <nd ref="127612801"/>
    <tag k="highway" v="secondary"/>
    <tag k="maxspeed" v="50"/>
    <tag k="name" v="Pine Avenue"/>
    <tag k="oneway" v="yes"/>
  </way>
  <way id="23123614" version="2" timestamp="2008-04-25T02:15:59Z" uid="19626" user="Swamp" changeset="249574">
    <nd ref="249661149"/>
    <nd ref="259745372"/>
    <nd ref="127612588"/>
    <nd ref="259745374"/>
    <nd ref="127612618"/>
    <nd ref="259745376"/>
    <nd ref="127612651"/>
    <nd ref="249661151"/>
    <nd ref="249661149"/>
    <tag k="created_by" v="JOSM"/>
    <tag k="highway" v="secondary"/>
    <tag k="junction" v="roundabout"/>
    <tag k="name" v="Pine Avenue"/>
  </way>
  <way id="23123614" version="3" timestamp="2010-06-07T09:11:32Z" uid="19626" user="Swamp" changeset="4926173">
    <nd ref="249661149"/>
    <nd ref="766484285"/>
    <nd ref="259745372"/>
    <nd ref="766484284"/>
    <nd ref="127612588"/>
    <nd ref="766484286"/>
    <nd ref="259745374"/>
    <nd ref="127612618"/>
    <nd ref="766484288"/>
    <nd ref="259745376"/>
    <nd ref="766484287"/>
    <nd ref="127612651"/>
    <nd ref="249661151"/>
    <nd ref="766484283"/>
    <nd ref="249661149"/>
    <tag k="highway" v="secondary"/>
    <tag k="junction" v="roundabout"/>
    <tag k="name" v="Pine Avenue"/>
  </way>
  <way id="23123616" version="2" timestamp="2008-04-25T03:22:48Z" uid="19626" user="Swamp" changeset="249574">
    <nd ref="248349701"/>
    <nd ref="127612821"/>
    <nd ref="127617972"/>
    <tag k="created_by" v="JOSM"/>
    <tag k="highway" v="secondary"/>
    <tag k="name" v="Irrigation Way"/>
  </way>
  <way id="23123617" version="2" timestamp="2008-04-25T01:39:29Z" uid="19626" user="Swamp" changeset="249574">
    <nd ref="248349629"/>
    <nd ref="259744193"/>
    <nd ref="249661152"/>
    <nd ref="249661153"/>
    <nd ref="247998913"/>
    <tag k="created_by" v="JOSM"/>
    <tag k="highway" v="secondary"/>
    <tag k="name" v="Irrigation Way"/>
    <tag k="oneway" v="yes"/>
  </way>
  <way id="23123617" version="3" timestamp="2008-04-25T01:52:29Z" uid="19626" user="Swamp" changeset="249574">
    <nd ref="248349629"/>
    <nd ref="259744193"/>
    <nd ref="259744631"/>
    <nd ref="249661152"/>
    <nd ref="249661153"/>
    <nd ref="247998913"/>
    <tag k="created_by" v="JOSM"/>
    <tag k="highway" v="secondary"/>
    <tag k="name" v="Irrigation Way"/>
    <tag k="oneway" v="yes"/>
  </way>
  <way id="23123617" version="4" timestamp="2008-04-25T02:09:32Z" uid="19626" user="Swamp" changeset="249574">
    <nd ref="248349629"/>
    <nd ref="259744193"/>
    <nd ref="259745025"/>
    <nd ref="259744631"/>
    <nd ref="249661152"/>
    <nd ref="249661153"/>
    <nd ref="247998913"/>
    <tag k="created_by" v="JOSM"/>
    <tag k="highway" v="secondary"/>
    <tag k="name" v="Irrigation Way"/>
    <tag k="oneway" v="yes"/>
  </way>
  <way id="23123617" version="5" timestamp="2008-04-25T02:09:58Z" uid="19626" user="Swamp" changeset="249574">
    <nd ref="248349629"/>
    <nd ref="259744193"/>
    <nd ref="259745025"/>
    <nd ref="259745028"/>
    <nd ref="259744631"/>
    <nd ref="249661152"/>
    <nd ref="249661153"/>
    <nd ref="247998913"/>
    <tag k="created_by" v="JOSM"/>
    <tag k="highway" v="secondary"/>
    <tag k="name" v="Irrigation Way"/>
    <tag k="oneway" v="yes"/>
  </way>
  <way id="23123617" version="6" timestamp="2008-04-25T02:16:00Z" uid="19626" user="Swamp" changeset="249574">
    <nd ref="248349629"/>
    <nd ref="259744193"/>
    <nd ref="259745025"/>
    <nd ref="259745028"/>
    <nd ref="259744631"/>
    <nd ref="249661152"/>
    <nd ref="249661153"/>
    <nd ref="247998913"/>
    <tag k="created_by" v="JOSM"/>
    <tag k="highway" v="secondary"/>
    <tag k="name" v="Kurrajong Avenue"/>
    <tag k="oneway" v="yes"/>
  </way>
  <way id="23123618" version="2" timestamp="2008-04-25T02:16:03Z" uid="19626" user="Swamp" changeset="249574">
    <nd ref="247998901"/>
    <nd ref="249661154"/>
    <nd ref="248145616"/>
    <nd ref="248299264"/>
    <nd ref="248143605"/>
    <nd ref="248299028"/>
    <nd ref="248299035"/>
    <nd ref="248349756"/>
    <tag k="created_by" v="JOSM"/>
    <tag k="highway" v="secondary"/>
    <tag k="name" v="Kurrajong Avenue"/>
    <tag k="oneway" v="yes"/>
  </way>
  <way id="23123619" version="2" timestamp="2008-04-25T02:16:02Z" uid="19626" user="Swamp" changeset="249574">
    <nd ref="247998920"/>
    <nd ref="247998921"/>
    <nd ref="247998922"/>
    <nd ref="247998923"/>
    <nd ref="247998924"/>
    <nd ref="247998925"/>
    <nd ref="247998926"/>
    <nd ref="127612801"/>
    <nd ref="247998928"/>
    <nd ref="247998927"/>
    <nd ref="247998902"/>
    <nd ref="247998903"/>
    <nd ref="247998905"/>
    <nd ref="247998908"/>
    <nd ref="247998909"/>
    <nd ref="247998929"/>
    <nd ref="247998901"/>
    <nd ref="247998910"/>
    <nd ref="247998911"/>
    <nd ref="247998913"/>
    <nd ref="247998912"/>
    <nd ref="247998914"/>
    <nd ref="247998915"/>
    <nd ref="247998916"/>
    <nd ref="247998917"/>
    <nd ref="247998918"/>
    <nd ref="247998919"/>
    <nd ref="247998920"/>
    <tag k="created_by" v="JOSM"/>
    <tag k="highway" v="residential"/>
    <tag k="junction" v="roundabout"/>
    <tag k="name" v="Pine Avenue"/>
  </way>
  <way id="23123619" version="3" timestamp="2008-08-28T00:37:14Z" uid="18775" user="drlizau" changeset="434710">
    <nd ref="247998920"/>
    <nd ref="247998921"/>
    <nd ref="247998922"/>
    <nd ref="247998923"/>
    <nd ref="247998924"/>
    <nd ref="247998925"/>
    <nd ref="247998926"/>
    <nd ref="127612801"/>
    <nd ref="247998928"/>
    <nd ref="247998927"/>
    <nd ref="247998902"/>
    <nd ref="247998903"/>
    <nd ref="247998905"/>
    <nd ref="247998908"/>
    <nd ref="247998909"/>
    <nd ref="247998929"/>
    <nd ref="247998901"/>
    <nd ref="247998910"/>
    <nd ref="247998911"/>
    <nd ref="247998913"/>
    <nd ref="247998912"/>
    <nd ref="247998914"/>
    <nd ref="247998915"/>
    <nd ref="247998916"/>
    <nd ref="247998917"/>
    <nd ref="247998918"/>
    <nd ref="247998919"/>
    <nd ref="247998920"/>
    <tag k="created_by" v="JOSM"/>
    <tag k="highway" v="secondary"/>
    <tag k="junction" v="roundabout"/>
    <tag k="name" v="Pine Avenue"/>
  </way>
  <way id="23123620" version="2" timestamp="2008-04-25T01:16:13Z" uid="19626" user="Swamp" changeset="249574">
    <nd ref="247998920"/>
    <nd ref="249661155"/>
    <nd ref="259743459"/>
    <nd ref="249661157"/>
    <nd ref="249661151"/>
    <tag k="created_by" v="JOSM"/>
    <tag k="highway" v="secondary"/>
    <tag k="name" v="Irrigation Way"/>
    <tag k="oneway" v="yes"/>
  </way>
  <way id="23123620" version="3" timestamp="2008-04-25T02:16:04Z" uid="19626" user="Swamp" changeset="249574">
    <nd ref="247998920"/>
    <nd ref="249661155"/>
    <nd ref="259743459"/>
    <nd ref="249661157"/>
    <nd ref="249661151"/>
    <tag k="created_by" v="JOSM"/>
    <tag k="highway" v="secondary"/>
    <tag k="name" v="Pine Avenue"/>
    <tag k="oneway" v="yes"/>
  </way>
  <way id="23123620" version="4" timestamp="2008-04-25T03:17:37Z" uid="19626" user="Swamp" changeset="249574">
    <nd ref="247998920"/>
    <nd ref="249661155"/>
    <nd ref="259743459"/>
    <nd ref="249661157"/>
    <nd ref="259746798"/>
    <nd ref="249661151"/>
    <tag k="created_by" v="JOSM"/>
    <tag k="highway" v="secondary"/>
    <tag k="name" v="Pine Avenue"/>
    <tag k="oneway" v="yes"/>
  </way>
  <way id="23123620" version="5" timestamp="2008-04-25T03:22:49Z" uid="19626" user="Swamp" changeset="249574">
    <nd ref="247998920"/>
    <nd ref="249661155"/>
    <nd ref="259743459"/>
    <nd ref="249661157"/>
    <nd ref="259747045"/>
    <nd ref="259746798"/>
    <nd ref="249661151"/>
    <tag k="created_by" v="JOSM"/>
    <tag k="highway" v="secondary"/>
    <tag k="name" v="Pine Avenue"/>
    <tag k="oneway" v="yes"/>
  </way>
  <way id="23123620" version="6" timestamp="2008-04-25T03:49:12Z" uid="19626" user="Swamp" changeset="249574">
    <nd ref="247998920"/>
    <nd ref="249661155"/>
    <nd ref="259743459"/>
    <nd ref="259748348"/>
    <nd ref="249661157"/>
    <nd ref="259747045"/>
    <nd ref="259746798"/>
    <nd ref="249661151"/>
    <tag k="created_by" v="JOSM"/>
    <tag k="highway" v="secondary"/>
    <tag k="name" v="Pine Avenue"/>
    <tag k="oneway" v="yes"/>
  </way>
  <way id="23123620" version="7" timestamp="2008-05-18T10:53:20Z" uid="19626" user="Swamp" changeset="474848">
    <nd ref="247998920"/>
    <nd ref="249661155"/>
    <nd ref="259743459"/>
    <nd ref="259748348"/>
    <nd ref="249661157"/>
    <nd ref="259747045"/>
    <nd ref="259746798"/>
    <nd ref="249661151"/>
    <tag k="created_by" v="JOSM"/>
    <tag k="highway" v="secondary"/>
    <tag k="maxspeed" v="50Km/h"/>
    <tag k="name" v="Pine Avenue"/>
    <tag k="oneway" v="yes"/>
  </way>
  <way id="23123620" version="8" timestamp="2009-07-23T00:56:14Z" uid="74617" user="JohnSmith" changeset="1910487">
    <nd ref="247998920"/>
    <nd ref="249661155"/>
    <nd ref="259743459"/>
    <nd ref="259748348"/>
    <nd ref="249661157"/>
    <nd ref="259747045"/>
    <nd ref="259746798"/>
    <nd ref="249661151"/>
    <tag k="highway" v="secondary"/>
    <tag k="maxspeed" v="50"/>
    <tag k="name" v="Pine Avenue"/>
    <tag k="oneway" v="yes"/>
  </way>
  <way id="23123637" version="4" timestamp="2010-07-07T21:09:07Z" uid="74617" user="JohnSmith" changeset="5161069">
    <nd ref="249661288"/>
    <nd ref="249661401"/>
    <nd ref="249661415"/>
    <nd ref="249661361"/>
    <nd ref="249661362"/>
    <tag k="highway" v="residential"/>
    <tag k="maxspeed" v="50"/>
    <tag k="maxspeed:source" v="default residential speed limit in Australia"/>
    <tag k="name" v="Castlewood Avenue"/>
  </way>
  <way id="23123651" version="2" timestamp="2010-05-05T13:51:44Z" uid="61114" user="Trav" changeset="4613108">
    <nd ref="249661361"/>
    <nd ref="249661369"/>
    <nd ref="722424783"/>
    <tag k="created_by" v="Potlatch 0.7b"/>
    <tag k="highway" v="residential"/>
    <tag k="name" v="Church Street"/>
  </way>
  <way id="23123651" version="3" timestamp="2010-07-07T21:13:08Z" uid="74617" user="JohnSmith" changeset="5161069">
    <nd ref="249661361"/>
    <nd ref="249661369"/>
    <nd ref="722424783"/>
    <tag k="highway" v="residential"/>
    <tag k="maxspeed" v="50"/>
    <tag k="maxspeed:source" v="default residential speed limit in Australia"/>
    <tag k="name" v="Church Street"/>
  </way>
  <way id="23123653" version="2" timestamp="2010-07-07T21:10:22Z" uid="74617" user="JohnSmith" changeset="5161069">
    <nd ref="249661369"/>
    <nd ref="249661376"/>
    <tag k="highway" v="residential"/>
    <tag k="maxspeed" v="50"/>
    <tag k="maxspeed:source" v="default residential speed limit in Australia"/>
    <tag k="name" v="Fairs Avenue"/>
  </way>
  <way id="23123656" version="3" timestamp="2010-07-07T21:08:38Z" uid="74617" user="JohnSmith" changeset="5161069">
    <nd ref="249661377"/>
    <nd ref="249661402"/>
    <nd ref="249661399"/>
    <nd ref="249661400"/>
    <tag k="highway" v="residential"/>
    <tag k="maxspeed" v="50"/>
    <tag k="maxspeed:source" v="default residential speed limit in Australia"/>
    <tag k="name" v="Hyndman Parade"/>
  </way>
  <way id="23123657" version="2" timestamp="2010-07-07T21:15:43Z" uid="74617" user="JohnSmith" changeset="5161069">
    <nd ref="249661399"/>
    <nd ref="249661401"/>
    <tag k="highway" v="residential"/>
    <tag k="maxspeed" v="50"/>
    <tag k="maxspeed:source" v="default residential speed limit in Australia"/>
    <tag k="name" v="Ocean View Street"/>
  </way>
  <way id="23123662" version="2" timestamp="2010-07-07T21:13:49Z" uid="74617" user="JohnSmith" changeset="5161069">
    <nd ref="249661402"/>
    <nd ref="249661414"/>
    <nd ref="249661415"/>
    <tag k="highway" v="residential"/>
    <tag k="maxspeed" v="50"/>
    <tag k="maxspeed:source" v="default residential speed limit in Australia"/>
    <tag k="name" v="Cabramatta Road"/>
  </way>
  <way id="23123665" version="2" timestamp="2010-07-07T21:15:05Z" uid="74617" user="JohnSmith" changeset="5161069">
    <nd ref="249661414"/>
    <nd ref="249661416"/>
    <tag k="highway" v="residential"/>
    <tag k="maxspeed" v="50"/>
    <tag k="maxspeed:source" v="default residential speed limit in Australia"/>
    <tag k="name" v="Munni Street"/>
  </way>
  <way id="23123667" version="2" timestamp="2010-07-07T21:09:26Z" uid="74617" user="JohnSmith" changeset="5161069">
    <nd ref="249661432"/>
    <nd ref="249661441"/>
    <tag k="highway" v="residential"/>
    <tag k="maxspeed" v="50"/>
    <tag k="maxspeed:source" v="default residential speed limit in Australia"/>
    <tag k="name" v="Bonnieview Street"/>
  </way>
  <way id="23123686" version="2" timestamp="2010-07-07T21:14:37Z" uid="74617" user="JohnSmith" changeset="5161069">
    <nd ref="249661452"/>
    <nd ref="249661471"/>
    <tag k="highway" v="residential"/>
    <tag k="maxspeed" v="50"/>
    <tag k="maxspeed:source" v="default residential speed limit in Australia"/>
    <tag k="name" v="Craig Street"/>
  </way>
  <way id="23123689" version="3" timestamp="2010-05-07T23:00:20Z" uid="61114" user="Trav" changeset="4634895">
    <nd ref="249661473"/>
    <nd ref="249661519"/>
    <nd ref="725675734"/>
    <nd ref="249661512"/>
    <nd ref="725675731"/>
    <nd ref="725675732"/>
    <nd ref="725675729"/>
    <nd ref="249661513"/>
    <tag k="created_by" v="Potlatch 0.7b"/>
    <tag k="highway" v="residential"/>
    <tag k="name" v="Willaburra Road"/>
  </way>
  <way id="23123689" version="4" timestamp="2010-07-07T21:13:39Z" uid="74617" user="JohnSmith" changeset="5161069">
    <nd ref="249661473"/>
    <nd ref="249661519"/>
    <nd ref="725675734"/>
    <nd ref="249661512"/>
    <nd ref="725675731"/>
    <nd ref="725675732"/>
    <nd ref="725675729"/>
    <nd ref="249661513"/>
    <tag k="highway" v="residential"/>
    <tag k="maxspeed" v="50"/>
    <tag k="maxspeed:source" v="default residential speed limit in Australia"/>
    <tag k="name" v="Willaburra Road"/>
  </way>
  <way id="23123689" version="5" timestamp="2011-04-23T22:40:11Z" uid="7617" user="Franc" changeset="7948284">
    <nd ref="249661473"/>
    <nd ref="1257283314"/>
    <tag k="highway" v="residential"/>
    <tag k="maxspeed" v="50"/>
    <tag k="maxspeed:source" v="default residential speed limit in Australia"/>
    <tag k="name" v="Willaburra Road"/>
    <tag k="restriction" v="school_zone"/>
  </way>
  <way id="23123691" version="2" timestamp="2010-05-07T23:00:21Z" uid="61114" user="Trav" changeset="4634895">
    <nd ref="249661257"/>
    <nd ref="725675744"/>
    <nd ref="249661516"/>
    <nd ref="249661517"/>
    <nd ref="249661518"/>
    <nd ref="725675741"/>
    <nd ref="725675739"/>
    <nd ref="249661519"/>
    <tag k="created_by" v="Potlatch 0.7b"/>
    <tag k="highway" v="residential"/>
    <tag k="name" v="Bayview Road"/>
  </way>
  <way id="23123691" version="3" timestamp="2010-07-07T21:08:32Z" uid="74617" user="JohnSmith" changeset="5161069">
    <nd ref="249661257"/>
    <nd ref="725675744"/>
    <nd ref="249661516"/>
    <nd ref="249661517"/>
    <nd ref="249661518"/>
    <nd ref="725675741"/>
    <nd ref="725675739"/>
    <nd ref="249661519"/>
    <tag k="highway" v="residential"/>
    <tag k="maxspeed" v="50"/>
    <tag k="maxspeed:source" v="default residential speed limit in Australia"/>
    <tag k="name" v="Bayview Road"/>
  </way>
  <way id="23123691" version="4" timestamp="2011-04-23T22:40:05Z" uid="7617" user="Franc" changeset="7948284">
    <nd ref="249661257"/>
    <nd ref="725675744"/>
    <nd ref="249661517"/>
    <nd ref="249661518"/>
    <nd ref="725675741"/>
    <nd ref="725675739"/>
    <nd ref="249661519"/>
    <tag k="highway" v="residential"/>
    <tag k="maxspeed" v="50"/>
    <tag k="maxspeed:source" v="default residential speed limit in Australia"/>
    <tag k="name" v="Bayview Road"/>
  </way>
  <way id="23123694" version="2" timestamp="2010-07-07T21:11:29Z" uid="74617" user="JohnSmith" changeset="5161069">
    <nd ref="249661520"/>
    <nd ref="249661525"/>
    <nd ref="249661526"/>
    <nd ref="249661527"/>
    <nd ref="249661528"/>
    <nd ref="249661529"/>
    <tag k="highway" v="residential"/>
    <tag k="maxspeed" v="50"/>
    <tag k="maxspeed:source" v="default residential speed limit in Australia"/>
    <tag k="name" v="Wren Place"/>
  </way>
  <way id="23123694" version="3" timestamp="2010-10-03T22:50:30Z" uid="7617" user="Franc" changeset="5949519">
    <nd ref="249661520"/>
    <nd ref="937261727"/>
    <nd ref="249661527"/>
    <nd ref="249661528"/>
    <nd ref="249661529"/>
    <tag k="highway" v="residential"/>
    <tag k="maxspeed" v="50"/>
    <tag k="maxspeed:source" v="default residential speed limit in Australia"/>
    <tag k="name" v="Wren Place"/>
  </way>
  <way id="23123695" version="2" timestamp="2010-07-07T21:09:32Z" uid="74617" user="JohnSmith" changeset="5161069">
    <nd ref="249661527"/>
    <nd ref="249661531"/>
    <tag k="highway" v="residential"/>
    <tag k="maxspeed" v="50"/>
    <tag k="maxspeed:source" v="default residential speed limit in Australia"/>
    <tag k="name" v="Christolph Place"/>
  </way>
  <way id="23123712" version="2" timestamp="2011-04-21T23:00:44Z" uid="7617" user="Franc" changeset="7930043">
    <nd ref="249661570"/>
    <nd ref="249661571"/>
    <nd ref="1254688059"/>
    <nd ref="249661572"/>
    <nd ref="249661573"/>
    <nd ref="249661570"/>
    <tag k="leisure" v="park"/>
    <tag k="name" v="Burraneer Park"/>
  </way>
  <way id="23123716" version="3" timestamp="2010-07-07T21:15:52Z" uid="74617" user="JohnSmith" changeset="5161069">
    <nd ref="249661586"/>
    <nd ref="249661587"/>
    <tag k="highway" v="residential"/>
    <tag k="maxspeed" v="50"/>
    <tag k="maxspeed:source" v="default residential speed limit in Australia"/>
    <tag k="name" v="Dominic Street"/>
  </way>
  <way id="23123732" version="4" timestamp="2010-05-05T13:51:45Z" uid="61114" user="Trav" changeset="4613108"/>
  <way id="23123742" version="2" timestamp="2010-05-05T14:20:47Z" uid="61114" user="Trav" changeset="4613369">
    <nd ref="249662086"/>
    <nd ref="249662087"/>
    <nd ref="249662088"/>
    <nd ref="722455992"/>
    <nd ref="249662089"/>
    <nd ref="722455993"/>
    <nd ref="249662090"/>
    <tag k="created_by" v="Potlatch 0.7b"/>
    <tag k="highway" v="residential"/>
    <tag k="name" v="Begonia Place"/>
  </way>
  <way id="23123742" version="3" timestamp="2010-07-07T21:13:22Z" uid="74617" user="JohnSmith" changeset="5161069">
    <nd ref="249662086"/>
    <nd ref="249662087"/>
    <nd ref="249662088"/>
    <nd ref="722455992"/>
    <nd ref="249662089"/>
    <nd ref="722455993"/>
    <nd ref="249662090"/>
    <tag k="highway" v="residential"/>
    <tag k="maxspeed" v="50"/>
    <tag k="maxspeed:source" v="default residential speed limit in Australia"/>
    <tag k="name" v="Begonia Place"/>
  </way>
  <way id="23123744" version="3" timestamp="2010-07-07T21:12:26Z" uid="74617" user="JohnSmith" changeset="5161069">
    <nd ref="249662091"/>
    <nd ref="249662095"/>
    <nd ref="249662092"/>
    <nd ref="249662093"/>
    <tag k="highway" v="residential"/>
    <tag k="maxspeed" v="50"/>
    <tag k="maxspeed:source" v="default residential speed limit in Australia"/>
    <tag k="name" v="Pandala Place"/>
  </way>
  <way id="23123745" version="2" timestamp="2008-09-21T21:51:43Z" uid="30201" user="rrankin" changeset="678082">
    <nd ref="249662095"/>
    <nd ref="249662097"/>
    <tag k="created_by" v="Potlatch 0.7b"/>
    <tag k="highway" v="residential"/>
    <tag k="name" v="Pandala Place"/>
  </way>
  <way id="23123745" version="3" timestamp="2010-05-05T14:20:48Z" uid="61114" user="Trav" changeset="4613369">
    <nd ref="249662095"/>
    <nd ref="722456048"/>
    <nd ref="249662097"/>
    <tag k="created_by" v="Potlatch 0.7b"/>
    <tag k="highway" v="residential"/>
    <tag k="name" v="Pandala Place"/>
  </way>
  <way id="23123745" version="4" timestamp="2010-07-07T21:10:05Z" uid="74617" user="JohnSmith" changeset="5161069">
    <nd ref="249662095"/>
    <nd ref="722456048"/>
    <nd ref="249662097"/>
    <tag k="highway" v="residential"/>
    <tag k="maxspeed" v="50"/>
    <tag k="maxspeed:source" v="default residential speed limit in Australia"/>
    <tag k="name" v="Pandala Place"/>
  </way>
  <way id="23123750" version="2" timestamp="2010-07-07T21:08:42Z" uid="74617" user="JohnSmith" changeset="5161069">
    <nd ref="249662124"/>
    <nd ref="249662196"/>
    <tag k="highway" v="residential"/>
    <tag k="maxspeed" v="50"/>
    <tag k="maxspeed:source" v="default residential speed limit in Australia"/>
    <tag k="name" v="English Street"/>
  </way>
  <way id="23123752" version="2" timestamp="2010-05-07T23:00:12Z" uid="61114" user="Trav" changeset="4634895">
    <nd ref="249662221"/>
    <nd ref="249662222"/>
    <nd ref="725675535"/>
    <nd ref="249662223"/>
    <nd ref="249662224"/>
    <nd ref="249662225"/>
    <nd ref="249662226"/>
    <tag k="created_by" v="Potlatch 0.7b"/>
    <tag k="highway" v="residential"/>
    <tag k="name" v="Elm Street"/>
  </way>
  <way id="23123752" version="3" timestamp="2010-07-07T21:09:23Z" uid="74617" user="JohnSmith" changeset="5161069">
    <nd ref="249662221"/>
    <nd ref="249662222"/>
    <nd ref="725675535"/>
    <nd ref="249662223"/>
    <nd ref="249662224"/>
    <nd ref="249662225"/>
    <nd ref="249662226"/>
    <tag k="highway" v="residential"/>
    <tag k="maxspeed" v="50"/>
    <tag k="maxspeed:source" v="default residential speed limit in Australia"/>
    <tag k="name" v="Elm Street"/>
  </way>
  <way id="23123753" version="12" timestamp="2010-03-09T11:29:23Z" uid="30201" user="rrankin" changeset="4080158">
    <nd ref="663203949"/>
    <nd ref="249661587"/>
    <nd ref="249663302"/>
    <nd ref="249663297"/>
    <nd ref="249662561"/>
    <nd ref="249663280"/>
    <nd ref="249662869"/>
    <nd ref="249663155"/>
    <nd ref="662126047"/>
    <nd ref="249663067"/>
    <nd ref="249662944"/>
    <nd ref="249662290"/>
    <nd ref="249662291"/>
    <nd ref="249662292"/>
    <tag k="highway" v="tertiary"/>
    <tag k="name" v="Gannons Road South"/>
  </way>
  <way id="23123762" version="3" timestamp="2010-07-07T21:12:42Z" uid="74617" user="JohnSmith" changeset="5161069">
    <nd ref="249662434"/>
    <nd ref="249662470"/>
    <nd ref="249662471"/>
    <tag k="highway" v="residential"/>
    <tag k="maxspeed" v="50"/>
    <tag k="maxspeed:source" v="default residential speed limit in Australia"/>
    <tag k="name" v="Marsfield Place"/>
  </way>
  <way id="23123763" version="2" timestamp="2010-07-07T21:10:27Z" uid="74617" user="JohnSmith" changeset="5161069">
    <nd ref="249662470"/>
    <nd ref="249662556"/>
    <tag k="highway" v="residential"/>
    <tag k="maxspeed" v="50"/>
    <tag k="maxspeed:source" v="default residential speed limit in Australia"/>
    <tag k="name" v="Marsfield Place"/>
  </way>
  <way id="23123765" version="3" timestamp="2010-07-07T21:08:33Z" uid="74617" user="JohnSmith" changeset="5161069">
    <nd ref="249662561"/>
    <nd ref="249662635"/>
    <nd ref="249662636"/>
    <nd ref="249662637"/>
    <nd ref="249662638"/>
    <nd ref="249662840"/>
    <nd ref="249662639"/>
    <tag k="highway" v="residential"/>
    <tag k="maxspeed" v="50"/>
    <tag k="maxspeed:source" v="default residential speed limit in Australia"/>
    <tag k="name" v="Water Street"/>
  </way>
  <way id="23123765" version="4" timestamp="2011-04-21T23:00:48Z" uid="7617" user="Franc" changeset="7930043">
    <nd ref="249662561"/>
    <nd ref="249662635"/>
    <nd ref="1254688028"/>
    <nd ref="249662636"/>
    <nd ref="1254688201"/>
    <nd ref="249662637"/>
    <nd ref="249662638"/>
    <nd ref="249662840"/>
    <nd ref="249662639"/>
    <tag k="highway" v="residential"/>
    <tag k="maxspeed" v="50"/>
    <tag k="maxspeed:source" v="default residential speed limit in Australia"/>
    <tag k="name" v="Water Street"/>
  </way>
  <way id="23123767" version="3" timestamp="2010-07-07T21:12:19Z" uid="74617" user="JohnSmith" changeset="5161069">
    <nd ref="249662635"/>
    <nd ref="249662700"/>
    <nd ref="249662701"/>
    <nd ref="249662702"/>
    <nd ref="249662840"/>
    <nd ref="249662841"/>
    <nd ref="249662842"/>
    <nd ref="249662843"/>
    <tag k="highway" v="residential"/>
    <tag k="maxspeed" v="50"/>
    <tag k="maxspeed:source" v="default residential speed limit in Australia"/>
    <tag k="name" v="Grandview Parade"/>
  </way>
  <way id="23123767" version="4" timestamp="2011-04-21T23:00:36Z" uid="7617" user="Franc" changeset="7930043">
    <nd ref="249662635"/>
    <nd ref="1254687991"/>
    <nd ref="249662700"/>
    <nd ref="1254688118"/>
    <nd ref="249662701"/>
    <nd ref="249662702"/>
    <nd ref="1254688084"/>
    <nd ref="249662840"/>
    <nd ref="1254688044"/>
    <nd ref="249662841"/>
    <nd ref="1254688312"/>
    <nd ref="249662842"/>
    <nd ref="1254688042"/>
    <nd ref="1254688062"/>
    <nd ref="249662843"/>
    <tag k="highway" v="residential"/>
    <tag k="maxspeed" v="50"/>
    <tag k="maxspeed:source" v="default residential speed limit in Australia"/>
    <tag k="name" v="Grandview Parade"/>
  </way>
  <way id="23123779" version="5" timestamp="2010-07-07T21:12:22Z" uid="74617" user="JohnSmith" changeset="5161069">
    <nd ref="249662869"/>
    <nd ref="249663016"/>
    <nd ref="249662940"/>
    <nd ref="249663014"/>
    <nd ref="662126071"/>
    <nd ref="249662941"/>
    <nd ref="249662942"/>
    <nd ref="249662943"/>
    <nd ref="249662944"/>
    <tag k="highway" v="residential"/>
    <tag k="maxspeed" v="50"/>
    <tag k="maxspeed:source" v="default residential speed limit in Australia"/>
    <tag k="name" v="Fernleigh Road"/>
  </way>
  <way id="23123779" version="6" timestamp="2011-04-21T23:00:56Z" uid="7617" user="Franc" changeset="7930043">
    <nd ref="249662869"/>
    <nd ref="1254688037"/>
    <nd ref="249663016"/>
    <nd ref="249662940"/>
    <nd ref="249663014"/>
    <nd ref="662126071"/>
    <nd ref="249662941"/>
    <nd ref="249662942"/>
    <nd ref="249662943"/>
    <nd ref="249662944"/>
    <tag k="highway" v="residential"/>
    <tag k="maxspeed" v="50"/>
    <tag k="maxspeed:source" v="default residential speed limit in Australia"/>
    <tag k="name" v="Fernleigh Road"/>
  </way>
  <way id="23123781" version="2" timestamp="2010-07-07T21:09:37Z" uid="74617" user="JohnSmith" changeset="5161069">
    <nd ref="249662942"/>
    <nd ref="249662974"/>
    <tag k="highway" v="residential"/>
    <tag k="maxspeed" v="50"/>
    <tag k="maxspeed:source" v="default residential speed limit in Australia"/>
    <tag k="name" v="Akira Place"/>
  </way>
  <way id="23123782" version="3" timestamp="2010-07-07T21:15:43Z" uid="74617" user="JohnSmith" changeset="5161069">
    <nd ref="249663013"/>
    <nd ref="249662974"/>
    <nd ref="249662992"/>
    <tag k="highway" v="residential"/>
    <tag k="maxspeed" v="50"/>
    <tag k="maxspeed:source" v="default residential speed limit in Australia"/>
    <tag k="name" v="Akira Place"/>
  </way>
  <way id="23123798" version="2" timestamp="2010-07-07T21:12:11Z" uid="74617" user="JohnSmith" changeset="5161069">
    <nd ref="249663016"/>
    <nd ref="249663021"/>
    <tag k="highway" v="residential"/>
    <tag k="maxspeed" v="50"/>
    <tag k="maxspeed:source" v="default residential speed limit in Australia"/>
    <tag k="name" v="Coonabarabran Place"/>
  </way>
  <way id="23123801" version="2" timestamp="2010-07-07T21:10:53Z" uid="74617" user="JohnSmith" changeset="5161069">
    <nd ref="249663067"/>
    <nd ref="249663074"/>
    <tag k="highway" v="residential"/>
    <tag k="maxspeed" v="50"/>
    <tag k="maxspeed:source" v="default residential speed limit in Australia"/>
    <tag k="name" v="Homer Place"/>
  </way>
  <way id="23123802" version="3" timestamp="2010-07-07T21:08:14Z" uid="74617" user="JohnSmith" changeset="5161069">
    <nd ref="249662291"/>
    <nd ref="249663079"/>
    <tag k="highway" v="residential"/>
    <tag k="maxspeed" v="50"/>
    <tag k="maxspeed:source" v="default residential speed limit in Australia"/>
    <tag k="name" v="Irwine Road"/>
  </way>
  <way id="23123804" version="2" timestamp="2010-07-07T21:14:42Z" uid="74617" user="JohnSmith" changeset="5161069">
    <nd ref="249663079"/>
    <nd ref="249663084"/>
    <nd ref="249663085"/>
    <nd ref="249663086"/>
    <nd ref="249663087"/>
    <tag k="highway" v="residential"/>
    <tag k="maxspeed" v="50"/>
    <tag k="maxspeed:source" v="default residential speed limit in Australia"/>
    <tag k="name" v="Cumbee Lane"/>
  </way>
  <way id="23123815" version="2" timestamp="2010-07-07T21:11:22Z" uid="74617" user="JohnSmith" changeset="5161069">
    <nd ref="249663155"/>
    <nd ref="249663164"/>
    <nd ref="249663165"/>
    <nd ref="249663166"/>
    <nd ref="249663167"/>
    <nd ref="249663168"/>
    <tag k="highway" v="residential"/>
    <tag k="maxspeed" v="50"/>
    <tag k="maxspeed:source" v="default residential speed limit in Australia"/>
    <tag k="name" v="Yeramba Avenue"/>
  </way>
  <way id="23123815" version="3" timestamp="2011-04-21T23:00:47Z" uid="7617" user="Franc" changeset="7930043">
    <nd ref="249663155"/>
    <nd ref="249663164"/>
    <nd ref="1254688022"/>
    <nd ref="249663165"/>
    <nd ref="249663166"/>
    <nd ref="249663167"/>
    <nd ref="249663168"/>
    <tag k="highway" v="residential"/>
    <tag k="maxspeed" v="50"/>
    <tag k="maxspeed:source" v="default residential speed limit in Australia"/>
    <tag k="name" v="Yeramba Avenue"/>
  </way>
  <way id="23123821" version="5" timestamp="2010-07-07T21:14:11Z" uid="74617" user="JohnSmith" changeset="5161069">
    <nd ref="249663279"/>
    <nd ref="29266014"/>
    <nd ref="249764708"/>
    <nd ref="249663289"/>
    <nd ref="249764287"/>
    <nd ref="249663290"/>
    <nd ref="249663291"/>
    <nd ref="249663292"/>
    <nd ref="249663293"/>
    <nd ref="35435300"/>
    <tag k="highway" v="residential"/>
    <tag k="maxspeed" v="50"/>
    <tag k="maxspeed:source" v="default residential speed limit in Australia"/>
    <tag k="name" v="Parthena Street"/>
  </way>
  <way id="23123821" version="6" timestamp="2011-04-21T23:00:49Z" uid="7617" user="Franc" changeset="7930043">
    <nd ref="249663279"/>
    <nd ref="29266014"/>
    <nd ref="1254688052"/>
    <nd ref="249764708"/>
    <nd ref="249663289"/>
    <nd ref="1254688290"/>
    <nd ref="249764287"/>
    <nd ref="249663290"/>
    <nd ref="249663291"/>
    <nd ref="249663292"/>
    <nd ref="249663293"/>
    <nd ref="35435300"/>
    <tag k="highway" v="residential"/>
    <tag k="maxspeed" v="50"/>
    <tag k="maxspeed:source" v="default residential speed limit in Australia"/>
    <tag k="name" v="Parthena Street"/>
  </way>
  <way id="23123826" version="3" timestamp="2010-07-07T21:08:46Z" uid="74617" user="JohnSmith" changeset="5161069">
    <nd ref="249663294"/>
    <nd ref="249663300"/>
    <nd ref="249663295"/>
    <nd ref="249663296"/>
    <nd ref="249663297"/>
    <tag k="highway" v="residential"/>
    <tag k="maxspeed" v="50"/>
    <tag k="maxspeed:source" v="default residential speed limit in Australia"/>
    <tag k="name" v="Rawson Parade"/>
  </way>
  <way id="23123826" version="4" timestamp="2011-04-21T23:00:49Z" uid="7617" user="Franc" changeset="7930043">
    <nd ref="249663294"/>
    <nd ref="1254688311"/>
    <nd ref="249663300"/>
    <nd ref="249663295"/>
    <nd ref="249663296"/>
    <nd ref="249663297"/>
    <tag k="highway" v="residential"/>
    <tag k="maxspeed" v="50"/>
    <tag k="maxspeed:source" v="default residential speed limit in Australia"/>
    <tag k="name" v="Rawson Parade"/>
  </way>
  <way id="23123827" version="2" timestamp="2010-07-07T21:15:50Z" uid="74617" user="JohnSmith" changeset="5161069">
    <nd ref="249663295"/>
    <nd ref="249663298"/>
    <nd ref="249663299"/>
    <tag k="highway" v="residential"/>
    <tag k="maxspeed" v="50"/>
    <tag k="maxspeed:source" v="default residential speed limit in Australia"/>
    <tag k="name" v="Verbena Place"/>
  </way>
  <way id="23123827" version="3" timestamp="2011-04-21T23:00:44Z" uid="7617" user="Franc" changeset="7930043">
    <nd ref="249663295"/>
    <nd ref="249663298"/>
    <nd ref="1254688027"/>
    <nd ref="249663299"/>
    <tag k="highway" v="residential"/>
    <tag k="maxspeed" v="50"/>
    <tag k="maxspeed:source" v="default residential speed limit in Australia"/>
    <tag k="name" v="Verbena Place"/>
  </way>
  <way id="23123828" version="2" timestamp="2010-07-07T21:15:29Z" uid="74617" user="JohnSmith" changeset="5161069">
    <nd ref="249663300"/>
    <nd ref="249663301"/>
    <tag k="highway" v="residential"/>
    <tag k="maxspeed" v="50"/>
    <tag k="maxspeed:source" v="default residential speed limit in Australia"/>
    <tag k="name" v="Bungarn Place"/>
  </way>
  <way id="23123828" version="3" timestamp="2011-04-21T23:00:47Z" uid="7617" user="Franc" changeset="7930043">
    <nd ref="249663300"/>
    <nd ref="1254687988"/>
    <nd ref="249663301"/>
    <tag k="highway" v="residential"/>
    <tag k="maxspeed" v="50"/>
    <tag k="maxspeed:source" v="default residential speed limit in Australia"/>
    <tag k="name" v="Bungarn Place"/>
  </way>
  <way id="23123829" version="2" timestamp="2010-07-07T21:13:17Z" uid="74617" user="JohnSmith" changeset="5161069">
    <nd ref="249663302"/>
    <nd ref="249663306"/>
    <tag k="highway" v="residential"/>
    <tag k="maxspeed" v="50"/>
    <tag k="maxspeed:source" v="default residential speed limit in Australia"/>
    <tag k="name" v="Balyata Avenue"/>
  </way>
  <way id="23123830" version="4" timestamp="2010-03-09T11:29:27Z" uid="30201" user="rrankin" changeset="4080158">
    <nd ref="249661587"/>
    <nd ref="663203942"/>
    <nd ref="249663307"/>
    <nd ref="249663309"/>
    <nd ref="249663308"/>
    <nd ref="249663663"/>
    <nd ref="249663664"/>
    <nd ref="249663665"/>
    <tag k="highway" v="residential"/>
    <tag k="name" v="Northcote Avenue"/>
  </way>
  <way id="23123830" version="5" timestamp="2010-07-07T21:09:46Z" uid="74617" user="JohnSmith" changeset="5161069">
    <nd ref="249661587"/>
    <nd ref="663203942"/>
    <nd ref="249663307"/>
    <nd ref="249663309"/>
    <nd ref="249663308"/>
    <nd ref="249663663"/>
    <nd ref="249663664"/>
    <nd ref="249663665"/>
    <tag k="highway" v="residential"/>
    <tag k="maxspeed" v="50"/>
    <tag k="maxspeed:source" v="default residential speed limit in Australia"/>
    <tag k="name" v="Northcote Avenue"/>
  </way>
  <way id="23123830" version="6" timestamp="2011-04-21T23:00:34Z" uid="7617" user="Franc" changeset="7930043">
    <nd ref="249661587"/>
    <nd ref="663203942"/>
    <nd ref="249663307"/>
    <nd ref="249663309"/>
    <nd ref="1254688000"/>
    <nd ref="249663308"/>
    <nd ref="249663663"/>
    <nd ref="249663664"/>
    <nd ref="1254688076"/>
    <tag k="highway" v="residential"/>
    <tag k="maxspeed" v="50"/>
    <tag k="maxspeed:source" v="default residential speed limit in Australia"/>
    <tag k="name" v="Northcote Avenue"/>
  </way>
  <way id="23123832" version="2" timestamp="2010-07-07T21:10:45Z" uid="74617" user="JohnSmith" changeset="5161069">
    <nd ref="249663309"/>
    <nd ref="249663310"/>
    <tag k="highway" v="residential"/>
    <tag k="maxspeed" v="50"/>
    <tag k="maxspeed:source" v="default residential speed limit in Australia"/>
    <tag k="name" v="Nemesia Avenue"/>
  </way>
  <way id="23123834" version="3" timestamp="2008-03-03T10:17:45Z" uid="7617" user="Franc" changeset="258045">
    <nd ref="249663317"/>
    <nd ref="249663310"/>
    <nd ref="249663313"/>
    <tag k="created_by" v="Potlatch 0.7b"/>
    <tag k="highway" v="residential"/>
    <tag k="name" v="Nemesia Avenue"/>
  </way>
  <way id="23123834" version="4" timestamp="2010-07-07T21:15:08Z" uid="74617" user="JohnSmith" changeset="5161069">
    <nd ref="249663317"/>
    <nd ref="249663310"/>
    <nd ref="249663313"/>
    <tag k="highway" v="residential"/>
    <tag k="maxspeed" v="50"/>
    <tag k="maxspeed:source" v="default residential speed limit in Australia"/>
    <tag k="name" v="Nemesia Avenue"/>
  </way>
  <way id="23123834" version="5" timestamp="2011-04-21T23:00:41Z" uid="7617" user="Franc" changeset="7930043">
    <nd ref="249663317"/>
    <nd ref="1254688153"/>
    <nd ref="249663310"/>
    <nd ref="1254687985"/>
    <nd ref="249663313"/>
    <tag k="highway" v="residential"/>
    <tag k="maxspeed" v="50"/>
    <tag k="maxspeed:source" v="default residential speed limit in Australia"/>
    <tag k="name" v="Nemesia Avenue"/>
  </way>
  <way id="23123841" version="2" timestamp="2010-07-07T21:11:27Z" uid="74617" user="JohnSmith" changeset="5161069">
    <nd ref="249663343"/>
    <nd ref="249663344"/>
    <nd ref="249663345"/>
    <nd ref="249663346"/>
    <nd ref="249663347"/>
    <tag k="highway" v="residential"/>
    <tag k="maxspeed" v="50"/>
    <tag k="maxspeed:source" v="default residential speed limit in Australia"/>
    <tag k="name" v="Woodward Avenue"/>
  </way>
  <way id="23123861" version="3" timestamp="2010-05-05T13:51:43Z" uid="61114" user="Trav" changeset="4613108">
    <nd ref="249663391"/>
    <nd ref="249764744"/>
    <nd ref="249663402"/>
    <nd ref="722424722"/>
    <nd ref="722424801"/>
    <nd ref="249663403"/>
    <tag k="created_by" v="Potlatch 0.7b"/>
    <tag k="highway" v="residential"/>
    <tag k="name" v="Oleander Parade"/>
  </way>
  <way id="23123861" version="4" timestamp="2010-07-07T21:09:19Z" uid="74617" user="JohnSmith" changeset="5161069">
    <nd ref="249663391"/>
    <nd ref="249764744"/>
    <nd ref="249663402"/>
    <nd ref="722424722"/>
    <nd ref="722424801"/>
    <nd ref="249663403"/>
    <tag k="highway" v="residential"/>
    <tag k="maxspeed" v="50"/>
    <tag k="maxspeed:source" v="default residential speed limit in Australia"/>
    <tag k="name" v="Oleander Parade"/>
  </way>
  <way id="23123865" version="4" timestamp="2010-03-29T10:50:23Z" uid="20587" user="balrog-kun" changeset="4266090">
    <nd ref="65518630"/>
    <nd ref="249663451"/>
    <nd ref="368384614"/>
    <tag k="highway" v="unclassified"/>
    <tag k="name" v="Northwestern Parkway"/>
    <tag k="tiger:cfcc" v="A41"/>
    <tag k="tiger:county" v="Santa Clara, CA"/>
    <tag k="tiger:name_base" v="Northwestern"/>
    <tag k="tiger:name_type" v="Pky"/>
    <tag k="tiger:separated" v="no"/>
    <tag k="tiger:source" v="tiger_import_dch_v0.6_20070809"/>
    <tag k="tiger:tlid" v="123180421:123176491"/>
    <tag k="tiger:zip_left" v="95051"/>
    <tag k="tiger:zip_right" v="95051"/>
  </way>
  <way id="23123866" version="4" timestamp="2010-05-05T13:33:14Z" uid="61114" user="Trav" changeset="4612961">
    <nd ref="249663453"/>
    <nd ref="722392980"/>
    <nd ref="249663568"/>
    <nd ref="722392983"/>
    <nd ref="249663454"/>
    <nd ref="249663455"/>
    <nd ref="249663467"/>
    <nd ref="249663456"/>
    <nd ref="249663457"/>
    <tag k="created_by" v="Potlatch 0.7b"/>
    <tag k="highway" v="residential"/>
    <tag k="name" v="Yathong Road South"/>
  </way>
  <way id="23123866" version="5" timestamp="2010-05-05T13:51:43Z" uid="61114" user="Trav" changeset="4613108">
    <nd ref="249663453"/>
    <nd ref="722392980"/>
    <nd ref="249663568"/>
    <nd ref="722392983"/>
    <nd ref="249663454"/>
    <nd ref="722424819"/>
    <nd ref="249663455"/>
    <nd ref="249663467"/>
    <nd ref="249663456"/>
    <nd ref="249663457"/>
    <tag k="created_by" v="Potlatch 0.7b"/>
    <tag k="highway" v="residential"/>
    <tag k="name" v="Yathong Road South"/>
  </way>
  <way id="23123866" version="6" timestamp="2010-07-07T21:10:46Z" uid="74617" user="JohnSmith" changeset="5161069">
    <nd ref="249663453"/>
    <nd ref="722392980"/>
    <nd ref="249663568"/>
    <nd ref="722392983"/>
    <nd ref="249663454"/>
    <nd ref="722424819"/>
    <nd ref="249663455"/>
    <nd ref="249663467"/>
    <nd ref="249663456"/>
    <nd ref="249663457"/>
    <tag k="highway" v="residential"/>
    <tag k="maxspeed" v="50"/>
    <tag k="maxspeed:source" v="default residential speed limit in Australia"/>
    <tag k="name" v="Yathong Road South"/>
  </way>
  <way id="23123869" version="2" timestamp="2010-05-05T13:33:26Z" uid="61114" user="Trav" changeset="4612961">
    <nd ref="249663456"/>
    <nd ref="249663462"/>
    <nd ref="722393668"/>
    <nd ref="722393665"/>
    <nd ref="249663463"/>
    <nd ref="249663464"/>
    <nd ref="249663465"/>
    <nd ref="722393660"/>
    <nd ref="33013303"/>
    <tag k="created_by" v="Potlatch 0.7b"/>
    <tag k="highway" v="residential"/>
    <tag k="name" v="Holly Stret"/>
  </way>
  <way id="23123869" version="3" timestamp="2010-06-02T13:34:35Z" uid="4467" user="Rosscoe" changeset="4884139">
    <nd ref="249663456"/>
    <nd ref="249663462"/>
    <nd ref="722393668"/>
    <nd ref="722393665"/>
    <nd ref="249663463"/>
    <nd ref="249663464"/>
    <nd ref="249663465"/>
    <nd ref="722393660"/>
    <nd ref="33013303"/>
    <tag k="created_by" v="Potlatch 0.7b"/>
    <tag k="highway" v="residential"/>
    <tag k="name" v="Holly Street"/>
  </way>
  <way id="23123869" version="4" timestamp="2010-07-07T21:15:51Z" uid="74617" user="JohnSmith" changeset="5161069">
    <nd ref="249663456"/>
    <nd ref="249663462"/>
    <nd ref="722393668"/>
    <nd ref="722393665"/>
    <nd ref="249663463"/>
    <nd ref="249663464"/>
    <nd ref="249663465"/>
    <nd ref="722393660"/>
    <nd ref="33013303"/>
    <tag k="highway" v="residential"/>
    <tag k="maxspeed" v="50"/>
    <tag k="maxspeed:source" v="default residential speed limit in Australia"/>
    <tag k="name" v="Holly Street"/>
  </way>
  <way id="23123877" version="3" timestamp="2010-07-07T21:10:39Z" uid="74617" user="JohnSmith" changeset="5161069">
    <nd ref="249663467"/>
    <nd ref="249663532"/>
    <nd ref="249663536"/>
    <tag k="highway" v="residential"/>
    <tag k="maxspeed" v="50"/>
    <tag k="maxspeed:source" v="default residential speed limit in Australia"/>
    <tag k="name" v="Whitewood Place"/>
  </way>
  <way id="23123881" version="2" timestamp="2010-07-07T21:15:54Z" uid="74617" user="JohnSmith" changeset="5161069">
    <nd ref="249663532"/>
    <nd ref="249663537"/>
    <tag k="highway" v="residential"/>
    <tag k="maxspeed" v="50"/>
    <tag k="maxspeed:source" v="default residential speed limit in Australia"/>
    <tag k="name" v="Whitewood Place"/>
  </way>
  <way id="23123892" version="2" timestamp="2008-03-03T10:15:25Z" uid="7617" user="Franc" changeset="258045">
    <nd ref="249663568"/>
    <nd ref="249663570"/>
    <nd ref="249663571"/>
    <tag k="created_by" v="Potlatch 0.7b"/>
    <tag k="highway" v="residential"/>
    <tag k="name" v="Banksia Road"/>
  </way>
  <way id="23123892" version="3" timestamp="2010-05-05T13:33:14Z" uid="61114" user="Trav" changeset="4612961">
    <nd ref="249663568"/>
    <nd ref="722393011"/>
    <nd ref="722393004"/>
    <nd ref="249663570"/>
    <nd ref="722393032"/>
    <nd ref="249663571"/>
    <tag k="created_by" v="Potlatch 0.7b"/>
    <tag k="highway" v="residential"/>
    <tag k="name" v="Banksia Road"/>
  </way>
  <way id="23123892" version="4" timestamp="2010-05-06T00:22:55Z" uid="61114" user="Trav" changeset="4618146">
    <nd ref="249663568"/>
    <nd ref="722393011"/>
    <nd ref="722393004"/>
    <nd ref="249663570"/>
    <nd ref="722393032"/>
    <nd ref="723401086"/>
    <nd ref="249663571"/>
    <tag k="created_by" v="Potlatch 0.7b"/>
    <tag k="highway" v="residential"/>
    <tag k="name" v="Banksia Road"/>
  </way>
  <way id="23123892" version="5" timestamp="2010-07-07T21:09:13Z" uid="74617" user="JohnSmith" changeset="5161069">
    <nd ref="249663568"/>
    <nd ref="722393011"/>
    <nd ref="722393004"/>
    <nd ref="249663570"/>
    <nd ref="722393032"/>
    <nd ref="723401086"/>
    <nd ref="249663571"/>
    <tag k="highway" v="residential"/>
    <tag k="maxspeed" v="50"/>
    <tag k="maxspeed:source" v="default residential speed limit in Australia"/>
    <tag k="name" v="Banksia Road"/>
  </way>
  <way id="23123893" version="12" timestamp="2010-03-12T02:07:52Z" uid="30201" user="rrankin" changeset="4103099">
    <nd ref="59958152"/>
    <nd ref="249765406"/>
    <nd ref="249765070"/>
    <nd ref="249765397"/>
    <nd ref="17918043"/>
    <tag k="highway" v="tertiary"/>
    <tag k="name" v="Cawarra Road"/>
    <tag k="source" v="survey"/>
  </way>
  <way id="23123893" version="13" timestamp="2010-05-05T13:33:16Z" uid="61114" user="Trav" changeset="4612961">
    <nd ref="59958152"/>
    <nd ref="249765406"/>
    <nd ref="249765070"/>
    <nd ref="249765397"/>
    <nd ref="17918043"/>
    <tag k="highway" v="tertiary"/>
    <tag k="name" v="Cawarra Road"/>
    <tag k="source" v="nearmap"/>
  </way>
  <way id="23123893" version="14" timestamp="2011-01-04T11:46:35Z" uid="7617" user="Franc" changeset="6859657">
    <nd ref="59958152"/>
    <nd ref="249765406"/>
    <nd ref="1081972188"/>
    <tag k="highway" v="tertiary"/>
    <tag k="name" v="Cawarra Road"/>
    <tag k="source" v="nearmap"/>
  </way>
  <way id="23123897" version="3" timestamp="2010-05-05T14:20:49Z" uid="61114" user="Trav" changeset="4613369">
    <nd ref="249663592"/>
    <nd ref="249663605"/>
    <nd ref="249663595"/>
    <nd ref="722456121"/>
    <nd ref="249663596"/>
    <nd ref="722456122"/>
    <nd ref="249663597"/>
    <tag k="created_by" v="Potlatch 0.7b"/>
    <tag k="highway" v="residential"/>
    <tag k="name" v="Robin Place"/>
  </way>
  <way id="23123897" version="4" timestamp="2010-07-07T21:12:24Z" uid="74617" user="JohnSmith" changeset="5161069">
    <nd ref="249663592"/>
    <nd ref="249663605"/>
    <nd ref="249663595"/>
    <nd ref="722456121"/>
    <nd ref="249663596"/>
    <nd ref="722456122"/>
    <nd ref="249663597"/>
    <tag k="highway" v="residential"/>
    <tag k="maxspeed" v="50"/>
    <tag k="maxspeed:source" v="default residential speed limit in Australia"/>
    <tag k="name" v="Robin Place"/>
  </way>
  <way id="23123899" version="2" timestamp="2010-07-07T21:16:05Z" uid="74617" user="JohnSmith" changeset="5161069">
    <nd ref="249663605"/>
    <nd ref="249663608"/>
    <tag k="highway" v="residential"/>
    <tag k="maxspeed" v="50"/>
    <tag k="maxspeed:source" v="default residential speed limit in Australia"/>
    <tag k="name" v="Robin Place"/>
  </way>
  <way id="23123903" version="1" timestamp="2008-02-29T09:12:19Z" uid="7617" user="Franc" changeset="229386">
    <nd ref="249663618"/>
    <nd ref="30202639"/>
    <nd ref="30202640"/>
    <nd ref="30202641"/>
    <nd ref="30202642"/>
    <tag k="created_by" v="JOSM"/>
    <tag k="highway" v="service"/>
    <tag k="name" v="Yaralla Lane"/>
    <tag k="source" v="survey"/>
  </way>
  <way id="23123903" version="3" timestamp="2010-06-10T10:24:23Z" uid="7617" user="Franc" changeset="4952787">
    <nd ref="249663618"/>
    <nd ref="30202640"/>
    <nd ref="30202642"/>
    <tag k="highway" v="service"/>
    <tag k="name" v="Yaralla Lane"/>
    <tag k="source" v="survey"/>
  </way>
  <way id="23123904" version="1" timestamp="2008-02-29T09:12:19Z" uid="7617" user="Franc" changeset="229386">
    <nd ref="249663619"/>
    <nd ref="249663621"/>
    <nd ref="249663620"/>
    <nd ref="17852484"/>
    <tag k="created_by" v="JOSM"/>
    <tag k="highway" v="service"/>
    <tag k="source" v="survey"/>
  </way>
  <way id="23123904" version="2" timestamp="2008-08-10T10:11:29Z" uid="7617" user="Franc" changeset="171973">
    <nd ref="249663619"/>
    <nd ref="249663621"/>
    <nd ref="249663620"/>
    <nd ref="286667303"/>
    <nd ref="17852484"/>
    <tag k="created_by" v="JOSM"/>
    <tag k="highway" v="service"/>
    <tag k="name" v="Bruce Lane"/>
    <tag k="source" v="survey"/>
    <tag k="source:name" v="historical"/>
    <tag k="source_ref:name" v="http://www.sl.nsw.gov.au/online/maps.cfm"/>
  </way>
  <way id="23123905" version="1" timestamp="2008-02-29T09:12:20Z" uid="7617" user="Franc" changeset="229386">
    <nd ref="249663621"/>
    <nd ref="249663622"/>
    <tag k="created_by" v="JOSM"/>
    <tag k="highway" v="service"/>
    <tag k="name" v="Bucknell Lane"/>
    <tag k="source" v="survey"/>
  </way>
  <way id="23123906" version="1" timestamp="2008-02-29T09:12:21Z" uid="7617" user="Franc" changeset="229386">
    <nd ref="44793892"/>
    <nd ref="249663623"/>
    <tag k="created_by" v="JOSM"/>
    <tag k="highway" v="service"/>
    <tag k="name" v="Little Queen Street"/>
    <tag k="oneway" v="yes"/>
    <tag k="source" v="survey"/>
  </way>
  <way id="23123907" version="1" timestamp="2008-02-29T09:12:22Z" uid="7617" user="Franc" changeset="229386">
    <nd ref="249663624"/>
    <nd ref="249663627"/>
    <nd ref="249663625"/>
    <tag k="created_by" v="JOSM"/>
    <tag k="highway" v="unclassified"/>
    <tag k="name" v="Elizabeth Street"/>
    <tag k="source" v="survey"/>
  </way>
  <way id="23123907" version="2" timestamp="2008-03-01T01:02:23Z" uid="7617" user="Franc" changeset="237129">
    <nd ref="249761416"/>
    <nd ref="249663627"/>
    <nd ref="249663625"/>
    <tag k="created_by" v="JOSM"/>
    <tag k="highway" v="unclassified"/>
    <tag k="name" v="Elizabeth Street"/>
    <tag k="source" v="survey"/>
  </way>
  <way id="23123908" version="1" timestamp="2008-02-29T09:12:23Z" uid="7617" user="Franc" changeset="229386">
    <nd ref="46523841"/>
    <nd ref="249663625"/>
    <tag k="created_by" v="Potlatch alpha"/>
    <tag k="highway" v="pedestrian"/>
    <tag k="name" v="Elizabeth Street"/>
  </way>
  <way id="23123908" version="2" timestamp="2008-03-01T01:02:22Z" uid="7617" user="Franc" changeset="237129">
    <nd ref="46523841"/>
    <nd ref="249663625"/>
    <tag k="created_by" v="Potlatch alpha"/>
    <tag k="highway" v="pedestrian"/>
  </way>
  <way id="23123908" version="3" timestamp="2008-05-26T10:01:18Z" uid="30201" user="rrankin" changeset="523263">
    <nd ref="46523841"/>
    <nd ref="249663625"/>
    <tag k="created_by" v="Potlatch alpha"/>
    <tag k="highway" v="footway"/>
  </way>
  <way id="23123908" version="5" timestamp="2010-03-01T06:13:03Z" uid="7617" user="Franc" changeset="4005992"/>
  <way id="23123910" version="1" timestamp="2008-02-29T09:12:24Z" uid="7617" user="Franc" changeset="229386">
    <nd ref="249663626"/>
    <nd ref="249663627"/>
    <tag k="created_by" v="JOSM"/>
    <tag k="highway" v="service"/>
    <tag k="name" v="Aylesbury Street"/>
    <tag k="source" v="survey"/>
  </way>
  <way id="23123911" version="1" timestamp="2008-02-29T09:12:24Z" uid="7617" user="Franc" changeset="229386">
    <nd ref="249663629"/>
    <nd ref="249663630"/>
    <nd ref="249527755"/>
    <nd ref="249663636"/>
    <nd ref="52648572"/>
    <nd ref="15162351"/>
    <nd ref="52648530"/>
    <nd ref="15162328"/>
    <nd ref="10283592"/>
    <tag k="created_by" v="Potlatch 0.7b"/>
    <tag k="highway" v="unclassified"/>
    <tag k="name" v="Church Street"/>
    <tag k="source:name" v="survey"/>
  </way>
  <way id="23123911" version="4" timestamp="2009-11-25T12:41:06Z" uid="7617" user="Franc" changeset="3211848">
    <nd ref="249663629"/>
    <nd ref="249663630"/>
    <nd ref="249527755"/>
    <nd ref="249663636"/>
    <nd ref="52648572"/>
    <nd ref="15162351"/>
    <nd ref="52648530"/>
    <nd ref="570757512"/>
    <nd ref="15162328"/>
    <nd ref="305516177"/>
    <nd ref="10283592"/>
    <tag k="highway" v="unclassified"/>
    <tag k="name" v="Church Street"/>
    <tag k="source:name" v="survey"/>
  </way>
  <way id="23123911" version="5" timestamp="2010-03-01T06:13:01Z" uid="7617" user="Franc" changeset="4005992">
    <nd ref="249663629"/>
    <nd ref="249663630"/>
    <nd ref="249527755"/>
    <nd ref="249663636"/>
    <nd ref="52648572"/>
    <nd ref="15162351"/>
    <nd ref="52648530"/>
    <nd ref="570757512"/>
    <nd ref="15162328"/>
    <nd ref="657653898"/>
    <nd ref="305516177"/>
    <nd ref="10283592"/>
    <tag k="highway" v="unclassified"/>
    <tag k="name" v="Church Street"/>
    <tag k="source:name" v="survey"/>
  </way>
  <way id="23123911" version="6" timestamp="2010-04-25T07:08:03Z" uid="7617" user="Franc" changeset="4518185">
    <nd ref="249663629"/>
    <nd ref="249663630"/>
    <nd ref="249527755"/>
    <nd ref="249663636"/>
    <nd ref="52648572"/>
    <nd ref="15162351"/>
    <nd ref="52648530"/>
    <nd ref="570757512"/>
    <nd ref="15162328"/>
    <nd ref="657653898"/>
    <nd ref="305516177"/>
    <nd ref="705792063"/>
    <nd ref="10283592"/>
    <tag k="highway" v="unclassified"/>
    <tag k="name" v="Church Street"/>
    <tag k="source:name" v="survey"/>
  </way>
  <way id="23123912" version="1" timestamp="2008-02-29T09:12:25Z" uid="7617" user="Franc" changeset="229386">
    <nd ref="12050174"/>
    <nd ref="249663629"/>
    <tag k="created_by" v="JOSM"/>
    <tag k="highway" v="residential"/>
    <tag k="name" v="Church Street"/>
    <tag k="oneway" v="yes"/>
    <tag k="source" v="survey"/>
  </way>
  <way id="23123912" version="3" timestamp="2010-03-01T06:13:03Z" uid="7617" user="Franc" changeset="4005992">
    <nd ref="12050174"/>
    <nd ref="657653906"/>
    <nd ref="249663629"/>
    <tag k="highway" v="service"/>
    <tag k="name" v="Church Street"/>
    <tag k="oneway" v="yes"/>
    <tag k="source" v="survey"/>
  </way>
  <way id="23123913" version="1" timestamp="2008-02-29T09:12:26Z" uid="7617" user="Franc" changeset="229386">
    <nd ref="249663630"/>
    <nd ref="249663631"/>
    <nd ref="249663632"/>
    <tag k="created_by" v="JOSM"/>
    <tag k="highway" v="residential"/>
    <tag k="name" v="Rochester Street"/>
    <tag k="source" v="survey"/>
  </way>
  <way id="23123913" version="3" timestamp="2010-07-07T22:10:30Z" uid="74617" user="JohnSmith" changeset="5161069">
    <nd ref="249663630"/>
    <nd ref="249663631"/>
    <nd ref="249663632"/>
    <tag k="highway" v="residential"/>
    <tag k="maxspeed" v="50"/>
    <tag k="maxspeed:source" v="default residential speed limit in Australia"/>
    <tag k="name" v="Rochester Street"/>
    <tag k="source" v="survey"/>
  </way>
  <way id="23123914" version="1" timestamp="2008-02-29T09:12:27Z" uid="7617" user="Franc" changeset="229386">
    <nd ref="249663632"/>
    <nd ref="249663633"/>
    <nd ref="249663634"/>
    <tag k="created_by" v="JOSM"/>
    <tag k="highway" v="residential"/>
    <tag k="source" v="survey"/>
  </way>
  <way id="23123914" version="2" timestamp="2008-08-12T11:56:17Z" uid="7617" user="Franc" changeset="205802">
    <nd ref="249663632"/>
    <nd ref="249663633"/>
    <nd ref="249663634"/>
    <tag k="created_by" v="JOSM"/>
    <tag k="highway" v="residential"/>
    <tag k="name" v="Fitzgerald Street"/>
    <tag k="source" v="survey"/>
    <tag k="source:name" v="historical"/>
    <tag k="source_ref:name" v="http://www.sl.nsw.gov.au/online/maps.cfm"/>
  </way>
  <way id="23123914" version="4" timestamp="2010-04-15T12:55:37Z" uid="7617" user="Franc" changeset="4430672"/>
  <way id="23123915" version="1" timestamp="2008-02-29T09:12:28Z" uid="7617" user="Franc" changeset="229386">
    <nd ref="249663634"/>
    <nd ref="249527755"/>
    <tag k="created_by" v="JOSM"/>
    <tag k="highway" v="residential"/>
    <tag k="name" v="Brown Street"/>
    <tag k="source" v="survey"/>
  </way>
  <way id="23123915" version="3" timestamp="2010-04-15T12:55:35Z" uid="7617" user="Franc" changeset="4430672">
    <nd ref="697326721"/>
    <nd ref="697326720"/>
    <nd ref="249663634"/>
    <tag k="highway" v="pedestrian"/>
    <tag k="source" v="nearmap"/>
  </way>
  <way id="23123916" version="1" timestamp="2008-02-29T09:12:28Z" uid="7617" user="Franc" changeset="229386">
    <nd ref="249663636"/>
    <nd ref="52648663"/>
    <nd ref="36513650"/>
    <tag k="created_by" v="JOSM"/>
    <tag k="highway" v="residential"/>
    <tag k="name" v="Raper Street"/>
    <tag k="source" v="yahoo_imagery"/>
    <tag k="source:name" v="survey"/>
  </way>
  <way id="23123916" version="3" timestamp="2010-07-07T22:09:51Z" uid="74617" user="JohnSmith" changeset="5161069">
    <nd ref="249663636"/>
    <nd ref="52648663"/>
    <nd ref="36513650"/>
    <tag k="highway" v="residential"/>
    <tag k="maxspeed" v="50"/>
    <tag k="maxspeed:source" v="default residential speed limit in Australia"/>
    <tag k="name" v="Raper Street"/>
    <tag k="source" v="yahoo_imagery"/>
    <tag k="source:name" v="survey"/>
  </way>
  <way id="23123917" version="1" timestamp="2008-02-29T09:12:29Z" uid="7617" user="Franc" changeset="229386">
    <nd ref="249663637"/>
    <nd ref="249663638"/>
    <tag k="created_by" v="JOSM"/>
    <tag k="highway" v="residential"/>
    <tag k="name" v="Chalder Street"/>
    <tag k="source" v="yahoo_imagery"/>
    <tag k="source:name" v="survey"/>
  </way>
  <way id="23123917" version="2" timestamp="2008-12-24T23:53:32Z" uid="30201" user="rrankin" changeset="593277">
    <nd ref="249663637"/>
    <nd ref="62740114"/>
    <nd ref="249663638"/>
    <tag k="created_by" v="JOSM"/>
    <tag k="highway" v="residential"/>
    <tag k="name" v="Chalder Street"/>
    <tag k="source" v="yahoo_imagery"/>
    <tag k="source:name" v="survey"/>
  </way>
  <way id="23123917" version="4" timestamp="2010-07-07T22:11:09Z" uid="74617" user="JohnSmith" changeset="5161069">
    <nd ref="249663637"/>
    <nd ref="62740114"/>
    <nd ref="249663638"/>
    <tag k="highway" v="residential"/>
    <tag k="maxspeed" v="50"/>
    <tag k="maxspeed:source" v="default residential speed limit in Australia"/>
    <tag k="name" v="Chalder Street"/>
    <tag k="source" v="yahoo_imagery"/>
    <tag k="source:name" v="survey"/>
  </way>
  <way id="23123918" version="1" timestamp="2008-02-29T09:12:30Z" uid="7617" user="Franc" changeset="229386">
    <nd ref="249663639"/>
    <nd ref="249663640"/>
    <tag k="created_by" v="JOSM"/>
    <tag k="highway" v="unclassified"/>
    <tag k="name" v="Stephen Street"/>
    <tag k="source" v="survey"/>
  </way>
  <way id="23123918" version="5" timestamp="2011-05-03T10:28:21Z" uid="7617" user="Franc" changeset="8038186">
    <nd ref="249663639"/>
    <nd ref="249663640"/>
    <tag k="highway" v="unclassified"/>
    <tag k="name" v="Stephen Street"/>
    <tag k="source" v="survey"/>
  </way>
  <way id="23123919" version="1" timestamp="2008-02-29T09:12:31Z" uid="7617" user="Franc" changeset="229386">
    <nd ref="249663640"/>
    <nd ref="36514565"/>
    <tag k="created_by" v="JOSM"/>
    <tag k="highway" v="unclassified"/>
    <tag k="name" v="Victoria Street"/>
    <tag k="source" v="survey"/>
  </way>
  <way id="23123919" version="3" timestamp="2008-12-24T23:53:33Z" uid="30201" user="rrankin" changeset="593277">
    <nd ref="249663640"/>
    <nd ref="298098893"/>
    <nd ref="36514565"/>
    <tag k="created_by" v="Potlatch 0.10b"/>
    <tag k="highway" v="unclassified"/>
    <tag k="name" v="Victoria Street"/>
    <tag k="source" v="survey"/>
  </way>
  <way id="23123920" version="2" timestamp="2010-07-07T21:15:17Z" uid="74617" user="JohnSmith" changeset="5161069">
    <nd ref="249663653"/>
    <nd ref="249663659"/>
    <tag k="highway" v="residential"/>
    <tag k="maxspeed" v="50"/>
    <tag k="maxspeed:source" v="default residential speed limit in Australia"/>
    <tag k="name" v="Dudley Avenue"/>
  </way>
  <way id="23123939" version="2" timestamp="2010-07-07T21:09:10Z" uid="74617" user="JohnSmith" changeset="5161069">
    <nd ref="249663716"/>
    <nd ref="249663749"/>
    <nd ref="249663750"/>
    <tag k="highway" v="residential"/>
    <tag k="maxspeed" v="50"/>
    <tag k="maxspeed:source" v="default residential speed limit in Australia"/>
    <tag k="name" v="Actinotus Avenue"/>
  </way>
  <way id="23123939" version="3" timestamp="2011-04-21T23:00:38Z" uid="7617" user="Franc" changeset="7930043">
    <nd ref="249663716"/>
    <nd ref="249663749"/>
    <nd ref="1254688259"/>
    <tag k="highway" v="residential"/>
    <tag k="maxspeed" v="50"/>
    <tag k="maxspeed:source" v="default residential speed limit in Australia"/>
    <tag k="name" v="Actinotus Avenue"/>
  </way>
</osm>
