<?xml version='1.0' encoding='UTF-8'?>
<osm version="0.6" generator="libosmium/2.20.0">
  <way id="23207031" version="3" timestamp="2010-06-29T19:11:38Z" uid="74617" user="JohnSmith" changeset="5108182">
    <nd ref="251020704"/>
    <nd ref="251020705"/>
    <nd ref="251020706"/>
    <nd ref="251020708"/>
    <nd ref="251020704"/>
    <tag k="fixme" v="sport=football is ambiguous, see http://wiki.osm.org/wiki/Football for more details"/>
    <tag k="leisure" v="pitch"/>
    <tag k="sport" v="football"/>
  </way>
  <way id="23207340" version="3" timestamp="2009-02-23T12:54:24Z" uid="34428" user="usm78-gis" changeset="634299"/>
  <way id="23207341" version="2" timestamp="2009-02-23T12:12:37Z" uid="34428" user="usm78-gis" changeset="634299"/>
  <way id="23207344" version="3" timestamp="2008-05-20T15:09:15Z" uid="34428" user="usm78-gis" changeset="485514">
    <nd ref="251024439"/>
    <nd ref="251024440"/>
    <tag k="created_by" v="JOSM"/>
    <tag k="highway" v="residential"/>
    <tag k="name" v="Победы ул."/>
    <tag k="oneway" v="yes"/>
  </way>
  <way id="23207479" version="2" timestamp="2008-07-07T02:34:15Z" uid="6975" user="ulfl" changeset="415781">
    <nd ref="251027148"/>
    <nd ref="251027150"/>
    <tag k="highway" v="tertiary"/>
    <tag k="name" v="Rue Docteur Dubard"/>
    <tag k="noexit" v="yes"/>
  </way>
  <way id="23207501" version="3" timestamp="2008-07-07T02:34:16Z" uid="6975" user="ulfl" changeset="415781">
    <nd ref="251027600"/>
    <nd ref="251027601"/>
    <nd ref="251027602"/>
    <tag k="name" v="Impasse des Longènes"/>
    <tag k="noexit" v="yes"/>
  </way>
  <way id="23207503" version="2" timestamp="2008-07-07T02:34:17Z" uid="6975" user="ulfl" changeset="415781">
    <nd ref="251027598"/>
    <nd ref="251027607"/>
    <nd ref="251027608"/>
    <nd ref="251027609"/>
    <tag k="highway" v="unclassified"/>
    <tag k="noexit" v="yes"/>
  </way>
  <way id="23207504" version="3" timestamp="2008-07-07T02:34:16Z" uid="6975" user="ulfl" changeset="415781">
    <nd ref="251027609"/>
    <nd ref="251027610"/>
    <tag k="highway" v="residential"/>
    <tag k="noexit" v="yes"/>
    <tag k="surface" v="unpaved"/>
  </way>
  <way id="23207662" version="6" timestamp="2009-10-03T09:04:38Z" uid="12188" user="Babis" changeset="2721095">
    <nd ref="97823582"/>
    <nd ref="97823647"/>
    <nd ref="97823727"/>
    <nd ref="97823729"/>
    <nd ref="97823733"/>
    <nd ref="97823737"/>
    <nd ref="97823741"/>
    <nd ref="97864291"/>
    <tag k="layer" v="-1"/>
    <tag k="railway" v="subway"/>
  </way>
  <way id="23207727" version="4" timestamp="2010-01-02T17:43:07Z" uid="12188" user="Babis" changeset="3520627">
    <nd ref="251030030"/>
    <nd ref="251030192"/>
    <nd ref="360104952"/>
    <nd ref="251030193"/>
    <nd ref="251030209"/>
    <nd ref="251030210"/>
    <nd ref="251030211"/>
    <tag k="highway" v="residential"/>
    <tag k="name" v="Αρχιμήδους"/>
    <tag k="name:en" v="Archimidus"/>
  </way>
  <way id="23207778" version="3" timestamp="2009-04-16T09:46:28Z" uid="12188" user="Babis" changeset="578233">
    <nd ref="36410489"/>
    <nd ref="251030614"/>
    <nd ref="251030615"/>
    <nd ref="251030616"/>
    <nd ref="251030617"/>
    <nd ref="251030618"/>
    <tag k="created_by" v="Potlatch 0.10f"/>
    <tag k="highway" v="residential"/>
    <tag k="name" v="Πάτμου"/>
    <tag k="name:en" v="Patmoy"/>
  </way>
  <way id="23207785" version="2" timestamp="2009-04-16T09:45:03Z" uid="12188" user="Babis" changeset="578233">
    <nd ref="251030619"/>
    <nd ref="251030670"/>
    <nd ref="251030671"/>
    <tag k="created_by" v="Potlatch 0.10f"/>
    <tag k="highway" v="residential"/>
    <tag k="name" v="Καζάλα"/>
    <tag k="name:en" v="Kazala"/>
  </way>
  <way id="23207787" version="4" timestamp="2009-04-16T09:47:03Z" uid="12188" user="Babis" changeset="578233">
    <nd ref="251030672"/>
    <nd ref="251030615"/>
    <nd ref="251030673"/>
    <nd ref="251074935"/>
    <tag k="created_by" v="Potlatch 0.10f"/>
    <tag k="highway" v="residential"/>
    <tag k="name" v="Μακεδονίας"/>
    <tag k="name:en" v="Makedonias"/>
  </way>
  <way id="23207814" version="3" timestamp="2009-12-27T09:46:32Z" uid="12188" user="Babis" changeset="3460907">
    <nd ref="250727061"/>
    <nd ref="251030743"/>
    <nd ref="251030837"/>
    <nd ref="251030539"/>
    <nd ref="251030797"/>
    <nd ref="251030799"/>
    <tag k="highway" v="residential"/>
    <tag k="name" v="Μεταμορφώσεως"/>
    <tag k="name:en" v="Metamorfoseos"/>
  </way>
  <way id="23207814" version="4" timestamp="2009-12-27T09:46:42Z" uid="12188" user="Babis" changeset="3460907"/>
  <way id="23207986" version="3" timestamp="2010-03-22T05:40:34Z" uid="20587" user="balrog-kun" changeset="4199043">
    <nd ref="251032503"/>
    <nd ref="251032360"/>
    <nd ref="251032504"/>
    <nd ref="251032505"/>
    <nd ref="251032506"/>
    <tag k="highway" v="residential"/>
    <tag k="name" v="Northwest Station Place"/>
  </way>
</osm>
