<?xml version='1.0' encoding='UTF-8'?>
<osm version="0.6" generator="libosmium/2.20.0">
  <way id="23385033" version="4" timestamp="2008-07-03T22:24:05Z" uid="6975" user="ulfl" changeset="386611">
    <nd ref="253201038"/>
    <nd ref="253201039"/>
    <nd ref="253201040"/>
    <nd ref="253201041"/>
    <nd ref="253201038"/>
    <tag k="car_repair" v="yes"/>
    <tag k="landuse" v="retail"/>
    <tag k="name" v="Hyundai"/>
    <tag k="shop" v="car"/>
  </way>
  <way id="23385057" version="11" timestamp="2008-11-26T01:59:12Z" uid="6975" user="ulfl" changeset="794829">
    <nd ref="505234"/>
    <nd ref="505233"/>
    <tag k="bridge" v="yes"/>
    <tag k="highway" v="secondary"/>
    <tag k="layer" v="1"/>
    <tag k="name" v="Route de Crissier"/>
    <tag k="nat_ref" v="135"/>
    <tag k="oneway" v="yes"/>
    <tag k="rcrc_ref" v="179a"/>
  </way>
  <way id="23385058" version="11" timestamp="2008-11-26T01:59:10Z" uid="6975" user="ulfl" changeset="794829">
    <nd ref="253090245"/>
    <nd ref="60437930"/>
    <nd ref="253200580"/>
    <nd ref="505235"/>
    <nd ref="505234"/>
    <tag k="highway" v="secondary"/>
    <tag k="name" v="Route de Crissier"/>
    <tag k="nat_ref" v="135"/>
    <tag k="oneway" v="yes"/>
    <tag k="rcrc_ref" v="179a"/>
  </way>
  <way id="23385061" version="11" timestamp="2008-11-26T01:59:18Z" uid="6975" user="ulfl" changeset="794829">
    <nd ref="253090193"/>
    <nd ref="253090194"/>
    <tag k="bridge" v="yes"/>
    <tag k="highway" v="secondary"/>
    <tag k="layer" v="1"/>
    <tag k="name" v="Route de Crissier"/>
    <tag k="nat_ref" v="135"/>
    <tag k="oneway" v="yes"/>
    <tag k="rcrc_ref" v="179a"/>
  </way>
  <way id="23385062" version="17" timestamp="2008-11-26T01:59:17Z" uid="6975" user="ulfl" changeset="794829">
    <nd ref="253090194"/>
    <nd ref="253200708"/>
    <nd ref="253090122"/>
    <nd ref="253200966"/>
    <tag k="highway" v="secondary"/>
    <tag k="name" v="Route de Crissier"/>
    <tag k="nat_ref" v="135"/>
    <tag k="oneway" v="yes"/>
    <tag k="rcrc_ref" v="179a"/>
  </way>
  <way id="23385302" version="1" timestamp="2008-03-21T16:11:10Z" uid="8619" user="cetest" changeset="364186">
    <nd ref="253203279"/>
    <nd ref="253203281"/>
    <nd ref="253203283"/>
    <nd ref="253203284"/>
    <nd ref="253203279"/>
    <tag k="building" v="yes"/>
    <tag k="created_by" v="JOSM"/>
  </way>
  <way id="23385303" version="1" timestamp="2008-03-21T16:11:10Z" uid="8619" user="cetest" changeset="364186">
    <nd ref="253203286"/>
    <nd ref="253203287"/>
    <nd ref="253203289"/>
    <nd ref="253203291"/>
    <nd ref="253203286"/>
    <tag k="building" v="yes"/>
    <tag k="created_by" v="JOSM"/>
  </way>
  <way id="23385304" version="1" timestamp="2008-03-21T16:11:10Z" uid="8619" user="cetest" changeset="364186">
    <nd ref="253203298"/>
    <nd ref="253203296"/>
    <nd ref="253203292"/>
    <nd ref="253203294"/>
    <nd ref="253203298"/>
    <tag k="building" v="yes"/>
    <tag k="created_by" v="JOSM"/>
  </way>
  <way id="23385305" version="1" timestamp="2008-03-21T16:11:10Z" uid="8619" user="cetest" changeset="364186">
    <nd ref="253203300"/>
    <nd ref="253203301"/>
    <nd ref="253203303"/>
    <nd ref="253203305"/>
    <nd ref="253203300"/>
    <tag k="building" v="yes"/>
    <tag k="created_by" v="JOSM"/>
  </way>
  <way id="23385306" version="1" timestamp="2008-03-21T16:11:11Z" uid="8619" user="cetest" changeset="364186">
    <nd ref="253203311"/>
    <nd ref="253203313"/>
    <nd ref="253203309"/>
    <nd ref="253203307"/>
    <nd ref="253203311"/>
    <tag k="building" v="yes"/>
    <tag k="created_by" v="JOSM"/>
  </way>
  <way id="23385307" version="1" timestamp="2008-03-21T16:11:11Z" uid="8619" user="cetest" changeset="364186">
    <nd ref="253203315"/>
    <nd ref="253203316"/>
    <nd ref="253203318"/>
    <nd ref="253203320"/>
    <nd ref="253203321"/>
    <nd ref="253203323"/>
    <nd ref="253203325"/>
    <nd ref="253203326"/>
    <nd ref="253203328"/>
    <nd ref="253203330"/>
    <nd ref="253203332"/>
    <nd ref="253203333"/>
    <nd ref="253203336"/>
    <nd ref="253203338"/>
    <nd ref="253203339"/>
    <nd ref="253203315"/>
    <tag k="building" v="yes"/>
    <tag k="created_by" v="JOSM"/>
  </way>
  <way id="23385336" version="2" timestamp="2009-05-04T15:56:40Z" uid="10712" user="Kraeml" changeset="1076374">
    <nd ref="32709241"/>
    <nd ref="32709242"/>
    <nd ref="390389381"/>
    <nd ref="32709243"/>
    <tag k="created_by" v="JOSM"/>
    <tag k="highway" v="service"/>
    <tag k="name" v="Kohlbuckweg"/>
  </way>
  <way id="23385430" version="2" timestamp="2008-05-08T16:40:21Z" uid="20587" user="balrog-kun" changeset="365483">
    <nd ref="253205292"/>
    <nd ref="262833446"/>
    <nd ref="32552930"/>
    <tag k="bridge" v="yes"/>
    <tag k="created_by" v="JOSM"/>
    <tag k="highway" v="secondary"/>
    <tag k="layer" v="1"/>
    <tag k="name" v="Most Księcia Józefa Poniatowskiego"/>
    <tag k="oneway" v="yes"/>
  </way>
  <way id="23385430" version="3" timestamp="2008-07-24T13:46:56Z" uid="20587" user="balrog-kun" changeset="582294">
    <nd ref="253205292"/>
    <nd ref="262833446"/>
    <nd ref="32552930"/>
    <tag k="bridge" v="yes"/>
    <tag k="created_by" v="JOSM"/>
    <tag k="highway" v="construction"/>
    <tag k="layer" v="1"/>
    <tag k="name" v="Most Księcia Józefa Poniatowskiego"/>
    <tag k="oneway" v="yes"/>
  </way>
  <way id="23385430" version="5" timestamp="2008-10-30T12:55:47Z" uid="20587" user="balrog-kun" changeset="630541">
    <nd ref="253205292"/>
    <nd ref="262833446"/>
    <nd ref="32552930"/>
    <tag k="bridge" v="yes"/>
    <tag k="highway" v="primary"/>
    <tag k="name" v="Most Księcia Józefa Poniatowskiego"/>
    <tag k="oneway" v="yes"/>
    <tag k="ref" v="631"/>
  </way>
  <way id="23385430" version="6" timestamp="2009-01-14T11:21:47Z" uid="20587" user="balrog-kun" changeset="787609">
    <nd ref="253205292"/>
    <nd ref="262833446"/>
    <nd ref="32552930"/>
    <tag k="bridge" v="yes"/>
    <tag k="highway" v="primary"/>
    <tag k="name" v="Most Księcia Józefa Poniatowskiego"/>
    <tag k="old_name" v="Most Mikołajewski"/>
    <tag k="oneway" v="yes"/>
    <tag k="ref" v="631"/>
    <tag k="wikipedia" v="pl:Most Poniatowskiego"/>
  </way>
  <way id="23385430" version="8" timestamp="2009-02-09T02:53:41Z" uid="20587" user="balrog-kun" changeset="294990">
    <nd ref="253205292"/>
    <nd ref="262833446"/>
    <nd ref="32552930"/>
    <tag k="bridge" v="yes"/>
    <tag k="created_by" v="Merkaartor 0.12"/>
    <tag k="highway" v="secondary"/>
    <tag k="name" v="Most Księcia Józefa Poniatowskiego"/>
    <tag k="old_name" v="Most Mikołajewski"/>
    <tag k="oneway" v="yes"/>
    <tag k="ref" v="631"/>
    <tag k="wikipedia" v="Poniatowski Bridge"/>
  </way>
  <way id="23385430" version="9" timestamp="2009-11-12T16:47:56Z" uid="20587" user="balrog-kun" changeset="3099613">
    <nd ref="253205292"/>
    <nd ref="561243584"/>
    <nd ref="262833446"/>
    <nd ref="32552930"/>
    <tag k="bridge" v="yes"/>
    <tag k="highway" v="secondary"/>
    <tag k="name" v="Most Księcia Józefa Poniatowskiego"/>
    <tag k="old_name" v="Most Mikołajewski"/>
    <tag k="oneway" v="yes"/>
    <tag k="ref" v="631"/>
    <tag k="wikipedia" v="Poniatowski Bridge"/>
  </way>
  <way id="23385430" version="10" timestamp="2010-01-21T13:29:36Z" uid="20587" user="balrog-kun" changeset="3674588">
    <nd ref="253205292"/>
    <nd ref="561243584"/>
    <nd ref="262833446"/>
    <nd ref="32552930"/>
    <tag k="bridge" v="yes"/>
    <tag k="highway" v="secondary"/>
    <tag k="maxweight" v="2.5"/>
    <tag k="name" v="Most Księcia Józefa Poniatowskiego"/>
    <tag k="name:en" v="Poniatowski Bridge"/>
    <tag k="old_name" v="Most Mikołajewski"/>
    <tag k="oneway" v="yes"/>
    <tag k="ref" v="631"/>
    <tag k="wikipedia" v="Poniatowski Bridge"/>
  </way>
  <way id="23385430" version="11" timestamp="2010-05-01T17:19:47Z" uid="20587" user="balrog-kun" changeset="4577369">
    <nd ref="253205292"/>
    <nd ref="561243584"/>
    <nd ref="262833446"/>
    <nd ref="32552930"/>
    <tag k="bridge" v="yes"/>
    <tag k="highway" v="secondary"/>
    <tag k="lanes" v="2"/>
    <tag k="maxweight" v="2.5"/>
    <tag k="name" v="Most Księcia Józefa Poniatowskiego"/>
    <tag k="name:en" v="Poniatowski Bridge"/>
    <tag k="old_name" v="Most Mikołajewski"/>
    <tag k="oneway" v="yes"/>
    <tag k="ref" v="631"/>
    <tag k="wikipedia" v="Poniatowski Bridge"/>
  </way>
  <way id="23385564" version="9" timestamp="2011-05-05T13:36:06Z" uid="115477" user="wowik" changeset="8056985">
    <nd ref="96929803"/>
    <nd ref="1273063547"/>
    <tag k="cladr:code" v="77000000000331300"/>
    <tag k="cladr:name" v="Ивана Франко"/>
    <tag k="cladr:suffix" v="Улица"/>
    <tag k="highway" v="tertiary"/>
    <tag k="name" v="улица Ивана Франко"/>
    <tag k="omkum:code" v="29540"/>
    <tag k="omkum:old_name" v="Московская улица (1960 г.)"/>
    <tag k="sorting_name" v="Франко  Ивана  улица"/>
  </way>
  <way id="23385567" version="14" timestamp="2010-02-12T12:13:57Z" uid="115477" user="wowik" changeset="3855809">
    <nd ref="96929804"/>
    <nd ref="96929807"/>
    <nd ref="637004651"/>
    <nd ref="96929808"/>
    <nd ref="390460893"/>
    <nd ref="96929809"/>
    <nd ref="390460897"/>
    <nd ref="529257976"/>
    <nd ref="529257962"/>
    <nd ref="96929811"/>
    <nd ref="96929812"/>
    <nd ref="96929813"/>
    <nd ref="96929815"/>
    <tag k="addr:postcode" v="121355"/>
    <tag k="cladr:code" v="77000000000128800"/>
    <tag k="cladr:name" v="Житомирская"/>
    <tag k="cladr:suffix" v="Улица"/>
    <tag k="highway" v="tertiary"/>
    <tag k="name" v="Житомирская улица"/>
    <tag k="omkum:code" v="07450"/>
    <tag k="omkum:old_name" v="Некрасовская улица (Кунцево) (1960 г.)"/>
    <tag k="sorting_name" v="Житомирская  улица"/>
  </way>
  <way id="23385714" version="2" timestamp="2008-06-13T14:24:31Z" uid="10712" user="Kraeml" changeset="150993">
    <nd ref="253208811"/>
    <nd ref="253208093"/>
    <nd ref="270106604"/>
    <nd ref="253208814"/>
    <tag k="created_by" v="JOSM"/>
    <tag k="highway" v="track"/>
    <tag k="surface" v="unpaved"/>
    <tag k="tracktype" v="grade4"/>
  </way>
  <way id="23385714" version="3" timestamp="2009-05-04T15:56:40Z" uid="10712" user="Kraeml" changeset="1076374">
    <nd ref="390389381"/>
    <nd ref="390389378"/>
    <nd ref="390389376"/>
    <nd ref="253208811"/>
    <nd ref="390389383"/>
    <nd ref="253208093"/>
    <nd ref="270106604"/>
    <nd ref="253208814"/>
    <tag k="created_by" v="JOSM"/>
    <tag k="highway" v="track"/>
    <tag k="surface" v="unpaved"/>
    <tag k="tracktype" v="grade4"/>
  </way>
  <way id="23385714" version="4" timestamp="2009-05-04T17:45:06Z" uid="10712" user="Kraeml" changeset="1077758">
    <nd ref="390389381"/>
    <nd ref="390389378"/>
    <nd ref="390389376"/>
    <nd ref="253208811"/>
    <nd ref="390389383"/>
    <nd ref="253208093"/>
    <nd ref="270106604"/>
    <nd ref="253208814"/>
    <tag k="created_by" v="JOSM"/>
    <tag k="highway" v="track"/>
    <tag k="mtb:scale" v="0"/>
    <tag k="surface" v="unpaved"/>
    <tag k="tracktype" v="grade4"/>
  </way>
  <way id="23385714" version="5" timestamp="2009-05-04T17:47:44Z" uid="10712" user="Kraeml" changeset="1077797">
    <nd ref="390389381"/>
    <nd ref="390389378"/>
    <nd ref="390389376"/>
    <nd ref="253208811"/>
    <nd ref="390389383"/>
    <nd ref="253208093"/>
    <nd ref="270106604"/>
    <nd ref="253208814"/>
    <tag k="created_by" v="JOSM"/>
    <tag k="highway" v="path"/>
    <tag k="mtb:scale" v="0"/>
    <tag k="surface" v="unpaved"/>
    <tag k="tracktype" v="grade4"/>
  </way>
  <way id="23385715" version="3" timestamp="2008-07-10T21:00:18Z" uid="10712" user="Kraeml" changeset="453067">
    <nd ref="253208814"/>
    <nd ref="253208817"/>
    <nd ref="253208820"/>
    <nd ref="253208824"/>
    <nd ref="253208827"/>
    <nd ref="253209419"/>
    <nd ref="253209421"/>
    <nd ref="253209427"/>
    <nd ref="253209428"/>
    <nd ref="253209429"/>
    <tag k="created_by" v="JOSM"/>
    <tag k="highway" v="footway"/>
    <tag k="surface" v="unpaved"/>
    <tag k="tracktype" v="grade5"/>
  </way>
  <way id="23385715" version="4" timestamp="2009-05-04T15:56:40Z" uid="10712" user="Kraeml" changeset="1076374">
    <nd ref="253208814"/>
    <nd ref="253208817"/>
    <nd ref="253208820"/>
    <nd ref="253208824"/>
    <nd ref="253208827"/>
    <nd ref="253209419"/>
    <nd ref="253209421"/>
    <nd ref="253209427"/>
    <nd ref="253209428"/>
    <nd ref="253209429"/>
    <tag k="bicycle" v="yes"/>
    <tag k="created_by" v="JOSM"/>
    <tag k="highway" v="footway"/>
    <tag k="surface" v="unpaved"/>
    <tag k="tracktype" v="grade5"/>
  </way>
  <way id="23385715" version="5" timestamp="2009-05-04T17:47:44Z" uid="10712" user="Kraeml" changeset="1077797">
    <nd ref="253208814"/>
    <nd ref="253208817"/>
    <nd ref="253208820"/>
    <nd ref="253208824"/>
    <nd ref="253208827"/>
    <nd ref="253209419"/>
    <nd ref="253209421"/>
    <nd ref="253209427"/>
    <nd ref="253209428"/>
    <nd ref="253209429"/>
    <tag k="bicycle" v="yes"/>
    <tag k="created_by" v="JOSM"/>
    <tag k="highway" v="path"/>
    <tag k="surface" v="unpaved"/>
    <tag k="tracktype" v="grade5"/>
  </way>
  <way id="23385715" version="6" timestamp="2009-05-04T17:57:00Z" uid="10712" user="Kraeml" changeset="1077914">
    <nd ref="253208814"/>
    <nd ref="253208817"/>
    <nd ref="253208820"/>
    <nd ref="253208824"/>
    <nd ref="253208827"/>
    <nd ref="253209419"/>
    <nd ref="253209421"/>
    <nd ref="253209427"/>
    <nd ref="253209428"/>
    <nd ref="253209429"/>
    <tag k="bicycle" v="yes"/>
    <tag k="created_by" v="JOSM"/>
    <tag k="highway" v="path"/>
    <tag k="mtb:scale" v="0"/>
    <tag k="surface" v="unpaved"/>
    <tag k="tracktype" v="grade5"/>
  </way>
  <way id="23385981" version="3" timestamp="2009-05-04T17:57:00Z" uid="10712" user="Kraeml" changeset="1077914">
    <nd ref="253209429"/>
    <nd ref="60219825"/>
    <tag k="created_by" v="JOSM"/>
    <tag k="highway" v="path"/>
    <tag k="mtb:scale" v="0"/>
    <tag k="tracktype" v="grade2"/>
  </way>
  <way id="23385992" version="2" timestamp="2009-05-04T17:57:00Z" uid="10712" user="Kraeml" changeset="1077914">
    <nd ref="60219825"/>
    <nd ref="253210655"/>
    <nd ref="253210658"/>
    <tag k="created_by" v="JOSM"/>
    <tag k="highway" v="path"/>
    <tag k="mtb:scale" v="0"/>
    <tag k="tracktype" v="grade2"/>
  </way>
  <way id="23385993" version="9" timestamp="2009-07-28T09:04:40Z" uid="115477" user="wowik" changeset="1962913">
    <nd ref="253181036"/>
    <nd ref="253211220"/>
    <nd ref="253211222"/>
    <nd ref="253211223"/>
    <nd ref="253211224"/>
    <nd ref="253211225"/>
    <nd ref="253211226"/>
    <nd ref="449615801"/>
    <nd ref="253211227"/>
    <tag k="boat" v="no"/>
    <tag k="created_by" v="Potlatch 0.7b"/>
    <tag k="waterway" v="drain"/>
  </way>
  <way id="23385993" version="10" timestamp="2009-07-28T09:18:46Z" uid="115477" user="wowik" changeset="1962913"/>
</osm>
