<?xml version='1.0' encoding='UTF-8'?>
<osm version="0.6" generator="libosmium/2.20.0">
  <way id="23467022" version="1" timestamp="2008-03-26T19:33:57Z" uid="18775" user="drlizau" changeset="399550">
    <nd ref="253991400"/>
    <nd ref="254047863"/>
    <nd ref="254047033"/>
    <nd ref="253898741"/>
    <tag k="created_by" v="JOSM"/>
    <tag k="highway" v="residential"/>
    <tag k="name" v="Lamrock Street"/>
  </way>
  <way id="23467024" version="1" timestamp="2008-03-26T19:33:58Z" uid="18775" user="drlizau" changeset="399550">
    <nd ref="254047819"/>
    <nd ref="254135743"/>
    <nd ref="254135744"/>
    <nd ref="254135746"/>
    <nd ref="254135747"/>
    <nd ref="254135748"/>
    <tag k="created_by" v="JOSM"/>
    <tag k="highway" v="residential"/>
    <tag k="name" v="Mulga Place"/>
  </way>
  <way id="23467026" version="1" timestamp="2008-03-26T19:33:59Z" uid="18775" user="drlizau" changeset="399550">
    <nd ref="253991399"/>
    <nd ref="254135753"/>
    <tag k="created_by" v="JOSM"/>
    <tag k="highway" v="residential"/>
    <tag k="name" v="Bottlebrush Drive"/>
  </way>
  <way id="23467027" version="1" timestamp="2008-03-26T19:34:00Z" uid="18775" user="drlizau" changeset="399550">
    <nd ref="254135754"/>
    <nd ref="254135753"/>
    <nd ref="254135756"/>
    <nd ref="254135760"/>
    <tag k="created_by" v="JOSM"/>
    <tag k="highway" v="residential"/>
    <tag k="name" v="Acacia Drive"/>
  </way>
  <way id="23467027" version="2" timestamp="2008-03-26T20:02:32Z" uid="18775" user="drlizau" changeset="399550">
    <nd ref="254135754"/>
    <nd ref="254143080"/>
    <nd ref="254135753"/>
    <nd ref="254135756"/>
    <nd ref="254143088"/>
    <nd ref="254135760"/>
    <tag k="created_by" v="JOSM"/>
    <tag k="highway" v="residential"/>
    <tag k="name" v="Acacia Drive"/>
  </way>
  <way id="23467199" version="1" timestamp="2008-03-26T19:40:25Z" uid="8619" user="cetest" changeset="400722">
    <nd ref="44732925"/>
    <nd ref="44730105"/>
    <nd ref="254137241"/>
    <nd ref="44729556"/>
    <tag k="AND:importance_level" v="5"/>
    <tag k="AND_nosr_r" v="15078121"/>
    <tag k="created_by" v="JOSM"/>
    <tag k="highway" v="unclassified"/>
    <tag k="name" v="Dasstraat"/>
  </way>
  <way id="23467200" version="1" timestamp="2008-03-26T19:40:25Z" uid="8619" user="cetest" changeset="400722">
    <nd ref="44729556"/>
    <nd ref="44730109"/>
    <tag k="AND:importance_level" v="5"/>
    <tag k="AND_nosr_r" v="15078125"/>
    <tag k="created_by" v="JOSM"/>
    <tag k="highway" v="unclassified"/>
    <tag k="name" v="Fretstraat"/>
  </way>
  <way id="23467201" version="1" timestamp="2008-03-26T19:40:26Z" uid="8619" user="cetest" changeset="400722">
    <nd ref="254137244"/>
    <nd ref="254137247"/>
    <nd ref="254137248"/>
    <nd ref="254137249"/>
    <nd ref="254137250"/>
    <nd ref="254137244"/>
    <tag k="created_by" v="JOSM"/>
    <tag k="landuse" v="residential"/>
  </way>
  <way id="23467201" version="2" timestamp="2008-06-16T17:13:42Z" uid="8619" user="cetest" changeset="185063">
    <nd ref="254137244"/>
    <nd ref="254137247"/>
    <nd ref="254137248"/>
    <nd ref="254137250"/>
    <nd ref="254137244"/>
    <tag k="created_by" v="JOSM"/>
    <tag k="landuse" v="residential"/>
  </way>
  <way id="23467328" version="3" timestamp="2009-05-01T09:44:38Z" uid="85955" user="Gerd Höweler" changeset="1034726">
    <nd ref="254138489"/>
    <nd ref="26109559"/>
    <tag k="bridge" v="yes"/>
    <tag k="created_by" v="Potlatch 0.6c"/>
    <tag k="electrified" v="contact_line"/>
    <tag k="layer" v="1"/>
    <tag k="railway" v="rail"/>
  </way>
  <way id="23467332" version="8" timestamp="2010-02-13T18:20:55Z" uid="85955" user="Gerd Höweler" changeset="3867211">
    <nd ref="242498068"/>
    <nd ref="358195453"/>
    <nd ref="330693007"/>
    <nd ref="638613630"/>
    <tag k="highway" v="residential"/>
    <tag k="name" v="Jerrendorfweg"/>
  </way>
  <way id="23467525" version="2" timestamp="2008-06-23T18:57:26Z" uid="27600" user="Islanit" changeset="274556">
    <nd ref="29580209"/>
    <nd ref="254140208"/>
    <nd ref="254140210"/>
    <nd ref="254140213"/>
    <nd ref="254140214"/>
    <nd ref="254140215"/>
    <nd ref="254140216"/>
    <nd ref="254140217"/>
    <nd ref="49192581"/>
    <tag k="created_by" v="JOSM"/>
    <tag k="highway" v="footway"/>
  </way>
  <way id="23467527" version="2" timestamp="2008-06-23T18:57:26Z" uid="27600" user="Islanit" changeset="274556">
    <nd ref="254140230"/>
    <nd ref="254140234"/>
    <nd ref="254140239"/>
    <nd ref="254140246"/>
    <nd ref="254140247"/>
    <nd ref="49192510"/>
    <nd ref="254140248"/>
    <nd ref="254140249"/>
    <nd ref="254140250"/>
    <nd ref="254140252"/>
    <nd ref="254140254"/>
    <nd ref="254140257"/>
    <nd ref="254140262"/>
    <nd ref="254140263"/>
    <nd ref="254140264"/>
    <nd ref="254140266"/>
    <nd ref="254140268"/>
    <nd ref="254140271"/>
    <nd ref="49192534"/>
    <tag k="created_by" v="JOSM"/>
    <tag k="highway" v="footway"/>
  </way>
  <way id="23467802" version="1" timestamp="2008-03-26T20:02:23Z" uid="18775" user="drlizau" changeset="399550">
    <nd ref="254143080"/>
    <nd ref="254143094"/>
    <nd ref="254143106"/>
    <nd ref="254143085"/>
    <tag k="created_by" v="JOSM"/>
    <tag k="highway" v="residential"/>
    <tag k="name" v="Echidna Place"/>
  </way>
  <way id="23467804" version="1" timestamp="2008-03-26T20:02:24Z" uid="18775" user="drlizau" changeset="399550">
    <nd ref="254143088"/>
    <nd ref="254143092"/>
    <tag k="created_by" v="JOSM"/>
    <tag k="highway" v="residential"/>
    <tag k="name" v="Belah Place"/>
  </way>
  <way id="23467806" version="1" timestamp="2008-03-26T20:02:25Z" uid="18775" user="drlizau" changeset="399550">
    <nd ref="254143094"/>
    <nd ref="254143096"/>
    <tag k="created_by" v="JOSM"/>
    <tag k="highway" v="residential"/>
    <tag k="name" v="Baldry Place"/>
  </way>
  <way id="23467808" version="1" timestamp="2008-03-26T20:02:26Z" uid="18775" user="drlizau" changeset="399550">
    <nd ref="254143106"/>
    <nd ref="254143109"/>
    <tag k="created_by" v="JOSM"/>
    <tag k="highway" v="residential"/>
    <tag k="name" v="Bilby Close"/>
  </way>
  <way id="23467812" version="1" timestamp="2008-03-26T20:02:26Z" uid="18775" user="drlizau" changeset="399550">
    <nd ref="254143111"/>
    <nd ref="254143114"/>
    <nd ref="254143116"/>
    <nd ref="254143119"/>
    <nd ref="254143124"/>
    <nd ref="254143134"/>
    <nd ref="254143146"/>
    <tag k="created_by" v="JOSM"/>
    <tag k="highway" v="residential"/>
    <tag k="name" v="Wattle Drive"/>
  </way>
  <way id="23467815" version="1" timestamp="2008-03-26T20:02:27Z" uid="18775" user="drlizau" changeset="399550">
    <nd ref="254143124"/>
    <nd ref="254143152"/>
    <tag k="created_by" v="JOSM"/>
    <tag k="highway" v="residential"/>
    <tag k="name" v="Box Place"/>
  </way>
  <way id="23467817" version="1" timestamp="2008-03-26T20:02:28Z" uid="18775" user="drlizau" changeset="399550">
    <nd ref="254143134"/>
    <nd ref="254143154"/>
    <nd ref="254143157"/>
    <nd ref="254143165"/>
    <nd ref="254143166"/>
    <nd ref="254143168"/>
    <nd ref="254143175"/>
    <nd ref="254143176"/>
    <nd ref="254143179"/>
    <nd ref="254143186"/>
    <nd ref="254143119"/>
    <tag k="created_by" v="JOSM"/>
    <tag k="highway" v="residential"/>
    <tag k="name" v="Kurrajong Circle"/>
  </way>
  <way id="23467819" version="1" timestamp="2008-03-26T20:02:29Z" uid="18775" user="drlizau" changeset="399550">
    <nd ref="254143114"/>
    <nd ref="254143187"/>
    <nd ref="254143189"/>
    <nd ref="254143190"/>
    <nd ref="254143191"/>
    <nd ref="254143193"/>
    <nd ref="254143194"/>
    <nd ref="254143195"/>
    <nd ref="254143197"/>
    <tag k="created_by" v="JOSM"/>
    <tag k="highway" v="residential"/>
    <tag k="name" v="Yarran Circuit"/>
  </way>
  <way id="23467821" version="1" timestamp="2008-03-26T20:02:30Z" uid="18775" user="drlizau" changeset="399550">
    <nd ref="254143191"/>
    <nd ref="254143198"/>
    <nd ref="254143200"/>
    <nd ref="254143205"/>
    <nd ref="254143206"/>
    <nd ref="254143209"/>
    <nd ref="254143189"/>
    <tag k="created_by" v="JOSM"/>
    <tag k="highway" v="residential"/>
    <tag k="name" v="Wilga Crescent"/>
  </way>
  <way id="23467859" version="14" timestamp="2010-05-01T13:37:19Z" uid="151899" user="Bikeman2000" changeset="4575036">
    <nd ref="303625499"/>
    <nd ref="254143370"/>
    <nd ref="254144279"/>
    <nd ref="254143371"/>
    <nd ref="254143372"/>
    <nd ref="332557040"/>
    <nd ref="254143373"/>
    <nd ref="332557042"/>
    <nd ref="254143374"/>
    <nd ref="715418943"/>
    <nd ref="259225077"/>
    <nd ref="303625500"/>
    <tag k="highway" v="residential"/>
    <tag k="name" v="Liststraße"/>
  </way>
  <way id="23467861" version="7" timestamp="2010-05-01T13:37:05Z" uid="151899" user="Bikeman2000" changeset="4575036">
    <nd ref="254143377"/>
    <nd ref="715418590"/>
    <nd ref="254143376"/>
    <nd ref="254155289"/>
    <tag k="highway" v="residential"/>
    <tag k="name" v="Mercedesstraße"/>
    <tag k="oneway" v="yes"/>
  </way>
  <way id="23467863" version="4" timestamp="2010-05-01T13:37:04Z" uid="151899" user="Bikeman2000" changeset="4575036">
    <nd ref="254143380"/>
    <nd ref="715418488"/>
    <nd ref="254143379"/>
    <nd ref="715418495"/>
    <nd ref="254143378"/>
    <nd ref="254143377"/>
    <nd ref="715418516"/>
    <nd ref="715418521"/>
    <nd ref="254143382"/>
    <nd ref="715418531"/>
    <nd ref="715418536"/>
    <nd ref="90461095"/>
    <nd ref="90461091"/>
    <nd ref="715418543"/>
    <nd ref="90461087"/>
    <nd ref="715418548"/>
    <nd ref="303625501"/>
    <nd ref="715418550"/>
    <nd ref="254143380"/>
    <tag k="highway" v="residential"/>
    <tag k="junction" v="roundabout"/>
    <tag k="name" v="Mercedesstraße"/>
  </way>
</osm>
