<?xml version='1.0' encoding='UTF-8'?>
<osm version="0.6" generator="libosmium/2.20.0">
  <way id="23468106" version="2" timestamp="2008-09-25T15:37:57Z" uid="49111" user="Markus B" changeset="695225">
    <nd ref="254146057"/>
    <nd ref="254146058"/>
    <nd ref="254146059"/>
    <nd ref="254146060"/>
    <nd ref="254146061"/>
    <nd ref="254146062"/>
    <nd ref="254146063"/>
    <nd ref="254146064"/>
    <nd ref="254146065"/>
    <nd ref="254146066"/>
    <nd ref="254146067"/>
    <nd ref="254146068"/>
    <nd ref="254146069"/>
    <nd ref="254146070"/>
    <nd ref="254146071"/>
    <nd ref="254146072"/>
    <nd ref="254146073"/>
    <nd ref="254146057"/>
    <tag k="created_by" v="Potlatch 0.10b"/>
    <tag k="landuse" v="forest"/>
  </way>
  <way id="23468205" version="1" timestamp="2008-03-26T20:12:45Z" uid="18775" user="drlizau" changeset="399550">
    <nd ref="254047040"/>
    <nd ref="254146658"/>
    <tag k="created_by" v="JOSM"/>
    <tag k="highway" v="residential"/>
    <tag k="name" v="Rosewood Place"/>
  </way>
  <way id="23468206" version="1" timestamp="2008-03-26T20:12:46Z" uid="18775" user="drlizau" changeset="399550">
    <nd ref="254146664"/>
    <nd ref="254146668"/>
    <tag k="created_by" v="JOSM"/>
    <tag k="highway" v="residential"/>
    <tag k="name" v="Mahpong Place"/>
  </way>
  <way id="23468207" version="1" timestamp="2008-03-26T20:12:47Z" uid="18775" user="drlizau" changeset="399550">
    <nd ref="253898995"/>
    <nd ref="254146672"/>
    <nd ref="254146715"/>
    <nd ref="254146730"/>
    <tag k="created_by" v="JOSM"/>
    <tag k="highway" v="residential"/>
    <tag k="name" v="Second Street"/>
  </way>
  <way id="23468209" version="1" timestamp="2008-03-26T20:12:48Z" uid="18775" user="drlizau" changeset="399550">
    <nd ref="254146715"/>
    <nd ref="254146731"/>
    <tag k="created_by" v="JOSM"/>
    <tag k="highway" v="residential"/>
    <tag k="name" v="Carr Street"/>
  </way>
  <way id="23468212" version="1" timestamp="2008-03-26T20:12:49Z" uid="18775" user="drlizau" changeset="399550">
    <nd ref="254146672"/>
    <nd ref="254146732"/>
    <tag k="created_by" v="JOSM"/>
    <tag k="highway" v="residential"/>
    <tag k="name" v="Cowper Street"/>
  </way>
  <way id="23468213" version="1" timestamp="2008-03-26T20:12:50Z" uid="18775" user="drlizau" changeset="399550">
    <nd ref="253899125"/>
    <nd ref="254146733"/>
    <nd ref="254146735"/>
    <nd ref="254146737"/>
    <nd ref="254146738"/>
    <nd ref="254146756"/>
    <nd ref="254146757"/>
    <nd ref="254146758"/>
    <nd ref="254146762"/>
    <tag k="created_by" v="JOSM"/>
    <tag k="highway" v="residential"/>
    <tag k="name" v="Tindera Street"/>
  </way>
  <way id="23468215" version="1" timestamp="2008-03-26T20:12:51Z" uid="18775" user="drlizau" changeset="399550">
    <nd ref="254146758"/>
    <nd ref="254146763"/>
    <tag k="created_by" v="JOSM"/>
    <tag k="highway" v="residential"/>
    <tag k="name" v="Brigalow Place"/>
  </way>
  <way id="23468216" version="1" timestamp="2008-03-26T20:12:52Z" uid="18775" user="drlizau" changeset="399550">
    <nd ref="254146738"/>
    <nd ref="254146766"/>
    <nd ref="254146770"/>
    <tag k="created_by" v="JOSM"/>
    <tag k="highway" v="residential"/>
  </way>
  <way id="23468216" version="2" timestamp="2008-03-29T07:46:15Z" uid="18775" user="drlizau" changeset="419028">
    <nd ref="254146738"/>
    <nd ref="254146766"/>
    <nd ref="254146770"/>
    <tag k="created_by" v="JOSM"/>
    <tag k="highway" v="residential"/>
    <tag k="name" v="Cypress Place"/>
  </way>
  <way id="23468217" version="1" timestamp="2008-03-26T20:12:53Z" uid="18775" user="drlizau" changeset="399550">
    <nd ref="254146771"/>
    <nd ref="254146773"/>
    <nd ref="254146776"/>
    <nd ref="254146777"/>
    <nd ref="254146762"/>
    <tag k="created_by" v="JOSM"/>
    <tag k="highway" v="residential"/>
    <tag k="name" v="Belagoy Street"/>
  </way>
  <way id="23468218" version="1" timestamp="2008-03-26T20:12:54Z" uid="18775" user="drlizau" changeset="399550">
    <nd ref="254146786"/>
    <nd ref="254146788"/>
    <nd ref="254146789"/>
    <nd ref="254146793"/>
    <nd ref="254146794"/>
    <nd ref="254146806"/>
    <nd ref="254146814"/>
    <nd ref="254146815"/>
    <nd ref="254146817"/>
    <nd ref="254146762"/>
    <tag k="created_by" v="JOSM"/>
    <tag k="highway" v="unclassified"/>
    <tag k="name" v="Knight Drive"/>
  </way>
  <way id="23468219" version="1" timestamp="2008-03-26T20:12:55Z" uid="18775" user="drlizau" changeset="399550">
    <nd ref="254146777"/>
    <nd ref="254146820"/>
    <nd ref="254146826"/>
    <nd ref="254146827"/>
    <nd ref="254146831"/>
    <nd ref="254146833"/>
    <nd ref="254146832"/>
    <tag k="created_by" v="JOSM"/>
    <tag k="highway" v="residential"/>
    <tag k="name" v="Jones Drive"/>
  </way>
  <way id="23468220" version="1" timestamp="2008-03-26T20:12:55Z" uid="18775" user="drlizau" changeset="399550">
    <nd ref="254146833"/>
    <nd ref="254146839"/>
    <nd ref="254146840"/>
    <nd ref="254146841"/>
    <nd ref="254146843"/>
    <nd ref="254146847"/>
    <nd ref="254146860"/>
    <nd ref="254146863"/>
    <nd ref="254146826"/>
    <tag k="created_by" v="JOSM"/>
    <tag k="highway" v="residential"/>
    <tag k="name" v="Jandra Place"/>
  </way>
  <way id="23468267" version="5" timestamp="2009-02-13T13:36:56Z" uid="9581" user="Lobelt" changeset="399324">
    <nd ref="266008561"/>
    <nd ref="254147136"/>
    <nd ref="254147137"/>
    <nd ref="254147141"/>
    <nd ref="254147146"/>
    <nd ref="344895757"/>
    <tag k="created_by" v="Potlatch 0.8"/>
    <tag k="highway" v="residential"/>
    <tag k="name" v="Pappelweg"/>
  </way>
  <way id="23468451" version="5" timestamp="2008-06-09T06:55:53Z" uid="9581" user="Lobelt" changeset="105018">
    <nd ref="98697523"/>
    <nd ref="266008561"/>
    <nd ref="98697524"/>
    <nd ref="98697525"/>
    <nd ref="269301032"/>
    <nd ref="98697526"/>
    <tag k="created_by" v="Potlatch 0.8"/>
    <tag k="highway" v="secondary"/>
    <tag k="name" v="Hoyerswerdaer Straße"/>
    <tag k="ref" v="S121"/>
  </way>
  <way id="23468451" version="6" timestamp="2009-02-13T13:36:56Z" uid="9581" user="Lobelt" changeset="399324">
    <nd ref="98697523"/>
    <nd ref="344895776"/>
    <nd ref="266008561"/>
    <nd ref="98697524"/>
    <nd ref="344895758"/>
    <nd ref="98697525"/>
    <nd ref="269301032"/>
    <nd ref="98697526"/>
    <tag k="created_by" v="Potlatch 0.8"/>
    <tag k="highway" v="secondary"/>
    <tag k="name" v="Hoyerswerdaer Straße"/>
    <tag k="ref" v="S121"/>
  </way>
  <way id="23468552" version="7" timestamp="2010-09-22T21:07:51Z" uid="6269" user="Mueck" changeset="5849335">
    <nd ref="278136465"/>
    <nd ref="254149808"/>
    <nd ref="254149809"/>
    <nd ref="254149810"/>
    <nd ref="254149812"/>
    <nd ref="254149813"/>
    <nd ref="254149815"/>
    <nd ref="254149816"/>
    <nd ref="254149817"/>
    <nd ref="311146137"/>
    <nd ref="254149819"/>
    <nd ref="254149820"/>
    <nd ref="311146140"/>
    <nd ref="324024472"/>
    <nd ref="254149824"/>
    <nd ref="254149825"/>
    <nd ref="254149843"/>
    <nd ref="254149844"/>
    <nd ref="254149826"/>
    <tag k="highway" v="cycleway"/>
    <tag k="name" v="Kappelwiesenweg"/>
  </way>
  <way id="23468552" version="8" timestamp="2010-09-23T00:13:15Z" uid="6269" user="Mueck" changeset="5850370">
    <nd ref="278136465"/>
    <nd ref="254149808"/>
    <nd ref="254149809"/>
    <nd ref="254149810"/>
    <nd ref="254149812"/>
    <nd ref="254149813"/>
    <nd ref="254149815"/>
    <nd ref="254149816"/>
    <nd ref="254149817"/>
    <nd ref="311146137"/>
    <nd ref="254149819"/>
    <nd ref="254149820"/>
    <nd ref="311146140"/>
    <nd ref="324024472"/>
    <nd ref="254149824"/>
    <nd ref="254149825"/>
    <nd ref="254149843"/>
    <nd ref="254149844"/>
    <nd ref="254149826"/>
    <tag k="highway" v="track"/>
    <tag k="name" v="Kappelwiesenweg"/>
    <tag k="surface" v="compacted"/>
    <tag k="tracktype" v="grade2"/>
  </way>
  <way id="23468552" version="9" timestamp="2010-10-12T11:55:13Z" uid="6269" user="Mueck" changeset="6020120">
    <nd ref="278136465"/>
    <nd ref="254149808"/>
    <nd ref="254149809"/>
    <nd ref="254149810"/>
    <nd ref="254149812"/>
    <nd ref="254149813"/>
    <nd ref="254149815"/>
    <tag k="highway" v="track"/>
    <tag k="name" v="Kappelwiesenweg"/>
    <tag k="surface" v="compacted"/>
    <tag k="tracktype" v="grade2"/>
  </way>
  <way id="23468552" version="10" timestamp="2010-10-12T11:55:34Z" uid="6269" user="Mueck" changeset="6020120">
    <nd ref="278136465"/>
    <nd ref="254149808"/>
    <nd ref="254149809"/>
    <nd ref="254149810"/>
    <nd ref="254149812"/>
    <nd ref="254149813"/>
    <nd ref="254149815"/>
    <tag k="highway" v="track"/>
    <tag k="name" v="Kappelwiesenweg"/>
    <tag k="smoothness" v="good"/>
    <tag k="surface" v="asphalt"/>
    <tag k="tracktype" v="grade1"/>
  </way>
  <way id="23468558" version="5" timestamp="2010-04-25T14:15:48Z" uid="6269" user="Mueck" changeset="4521899">
    <nd ref="254149833"/>
    <nd ref="254149834"/>
    <tag k="bridge" v="yes"/>
    <tag k="highway" v="cycleway"/>
    <tag k="layer" v="1"/>
    <tag k="tracktype" v="grade1"/>
  </way>
  <way id="23468564" version="4" timestamp="2008-08-11T12:27:25Z" uid="6269" user="Mueck" changeset="188275">
    <nd ref="252406595"/>
    <nd ref="252406592"/>
    <tag k="bridge" v="true"/>
    <tag k="created_by" v="Potlatch 0.10b"/>
    <tag k="highway" v="tertiary"/>
    <tag k="layer" v="1"/>
  </way>
  <way id="23468566" version="3" timestamp="2008-08-11T12:27:50Z" uid="6269" user="Mueck" changeset="188275">
    <nd ref="252406592"/>
    <nd ref="252406590"/>
    <nd ref="252406588"/>
    <nd ref="252406586"/>
    <tag k="created_by" v="Potlatch 0.10b"/>
    <tag k="highway" v="tertiary"/>
    <tag k="note" v="im SHP des NVK: III"/>
  </way>
  <way id="23468623" version="3" timestamp="2009-02-13T13:36:57Z" uid="9581" user="Lobelt" changeset="399324">
    <nd ref="98697514"/>
    <nd ref="98697515"/>
    <nd ref="98697517"/>
    <nd ref="344895840"/>
    <nd ref="98697518"/>
    <nd ref="98697519"/>
    <nd ref="98697520"/>
    <nd ref="98697522"/>
    <nd ref="98697523"/>
    <tag k="created_by" v="Potlatch 0.8"/>
    <tag k="highway" v="secondary"/>
    <tag k="name" v="Nieskyer Straße"/>
    <tag k="ref" v="S121"/>
  </way>
  <way id="23468988" version="1" timestamp="2008-03-26T20:30:14Z" uid="30632" user="antblant" changeset="403965">
    <nd ref="254069253"/>
    <nd ref="254069251"/>
    <nd ref="254069248"/>
    <nd ref="254069246"/>
    <nd ref="254069300"/>
    <nd ref="254069540"/>
    <tag k="UMP_Level" v="2"/>
    <tag k="created_by" v="Potlatch 0.8"/>
    <tag k="highway" v="secondary"/>
    <tag k="name" v="Pomorska"/>
    <tag k="source" v="UMP-PL, ./UMP-Szczecin/src/SZCZECIN.ulice.txt"/>
  </way>
  <way id="23468988" version="2" timestamp="2008-03-26T20:30:40Z" uid="30632" user="antblant" changeset="403965">
    <nd ref="254069253"/>
    <nd ref="254069251"/>
    <nd ref="254069248"/>
    <nd ref="254069246"/>
    <nd ref="254069300"/>
    <nd ref="254069540"/>
    <tag k="created_by" v="Potlatch 0.8"/>
    <tag k="highway" v="secondary"/>
    <tag k="name" v="Pomorska"/>
    <tag k="oneway" v="yes"/>
    <tag k="source" v="UMP-PL, ./UMP-Szczecin/src/SZCZECIN.ulice.txt"/>
  </way>
  <way id="23468988" version="3" timestamp="2008-03-29T16:41:49Z" uid="30632" user="antblant" changeset="418032">
    <nd ref="254069253"/>
    <nd ref="254069251"/>
    <nd ref="254069248"/>
    <nd ref="254069246"/>
    <nd ref="254069300"/>
    <nd ref="254069540"/>
    <tag k="created_by" v="Potlatch 0.8"/>
    <tag k="highway" v="secondary"/>
    <tag k="name" v="Pomorska"/>
    <tag k="oneway" v="yes"/>
    <tag k="source" v="UMP-PL, ./UMP-Szczecin/src/SZCZECIN.ulice.txt"/>
  </way>
  <way id="23468988" version="5" timestamp="2009-11-03T01:50:15Z" uid="36809" user="pfoten_weg_!_" changeset="3021530">
    <nd ref="254069253"/>
    <nd ref="254069251"/>
    <nd ref="254069248"/>
    <nd ref="254069246"/>
    <nd ref="254069300"/>
    <nd ref="254069540"/>
    <tag k="highway" v="tertiary"/>
    <tag k="name" v="Pomorska"/>
    <tag k="oneway" v="yes"/>
    <tag k="source" v="UMP-PL, ./UMP-Szczecin/src/SZCZECIN.ulice.txt"/>
  </way>
</osm>
