<?xml version='1.0' encoding='UTF-8'?>
<osm version="0.6" generator="libosmium/2.20.0">
  <way id="23551042" version="3" timestamp="2011-05-18T21:14:20Z" uid="88880" user="firsttimelinux" changeset="8185187">
    <nd ref="255016437"/>
    <nd ref="255016457"/>
    <nd ref="255016459"/>
    <nd ref="323712259"/>
    <nd ref="255016460"/>
    <nd ref="255016461"/>
    <nd ref="255016463"/>
    <nd ref="255016464"/>
    <nd ref="255016465"/>
    <nd ref="255016466"/>
    <nd ref="255016468"/>
    <nd ref="1290974164"/>
    <nd ref="255016469"/>
    <tag k="name" v="Hägis;Freienalp-Unterwasser"/>
    <tag k="piste:difficulty" v="intermediate"/>
    <tag k="piste:type" v="downhill"/>
    <tag k="ref" v="7;16"/>
  </way>
  <way id="23551045" version="4" timestamp="2011-05-18T21:14:19Z" uid="88880" user="firsttimelinux" changeset="8185187">
    <nd ref="255016629"/>
    <nd ref="255016630"/>
    <nd ref="1290974272"/>
    <tag k="name" v="Schwendi;Iltios-Wildhaus"/>
    <tag k="piste:difficulty" v="easy"/>
    <tag k="piste:type" v="downhill"/>
    <tag k="ref" v="29;31"/>
  </way>
  <way id="23551062" version="2" timestamp="2009-09-25T15:07:14Z" uid="36809" user="pfoten_weg_!_" changeset="2620894">
    <nd ref="255016693"/>
    <nd ref="255016696"/>
    <nd ref="255016694"/>
    <nd ref="255016698"/>
    <tag k="highway" v="residential"/>
    <tag k="name" v="Słoneczna"/>
    <tag k="source" v="UMP-PL, ./UMP-Szczecin/src/NOWE_WARPNO.ulice.txt"/>
  </way>
  <way id="23551063" version="2" timestamp="2009-10-21T23:36:39Z" uid="36809" user="pfoten_weg_!_" changeset="2917554">
    <nd ref="255016669"/>
    <nd ref="255016699"/>
    <tag k="highway" v="residential"/>
    <tag k="source" v="UMP-PL, ./UMP-Szczecin/src/NOWE_WARPNO.ulice.txt"/>
  </way>
  <way id="23551064" version="2" timestamp="2009-10-21T23:36:40Z" uid="36809" user="pfoten_weg_!_" changeset="2917554">
    <nd ref="255016669"/>
    <nd ref="255016670"/>
    <tag k="highway" v="residential"/>
    <tag k="source" v="UMP-PL, ./UMP-Szczecin/src/NOWE_WARPNO.ulice.txt"/>
  </way>
  <way id="23551065" version="2" timestamp="2009-09-25T15:07:15Z" uid="36809" user="pfoten_weg_!_" changeset="2620894">
    <nd ref="255016714"/>
    <nd ref="255016711"/>
    <tag k="highway" v="footway"/>
    <tag k="source" v="UMP-PL, ./UMP-Szczecin/src/NOWE_WARPNO.ulice.txt"/>
  </way>
  <way id="23551066" version="2" timestamp="2009-09-25T15:07:16Z" uid="36809" user="pfoten_weg_!_" changeset="2620894">
    <nd ref="255016688"/>
    <nd ref="255016691"/>
    <nd ref="255016690"/>
    <nd ref="255016693"/>
    <nd ref="255016692"/>
    <tag k="highway" v="residential"/>
    <tag k="source" v="UMP-PL, ./UMP-Szczecin/src/NOWE_WARPNO.ulice.txt"/>
  </way>
  <way id="23551067" version="2" timestamp="2009-10-21T23:36:40Z" uid="36809" user="pfoten_weg_!_" changeset="2917554">
    <nd ref="255016668"/>
    <nd ref="255016708"/>
    <nd ref="255016669"/>
    <tag k="highway" v="residential"/>
    <tag k="source" v="UMP-PL, ./UMP-Szczecin/src/NOWE_WARPNO.ulice.txt"/>
  </way>
  <way id="23551068" version="2" timestamp="2009-10-21T23:36:39Z" uid="36809" user="pfoten_weg_!_" changeset="2917554">
    <nd ref="255016666"/>
    <nd ref="255016667"/>
    <nd ref="255016668"/>
    <tag k="highway" v="residential"/>
    <tag k="name" v="Tadeusza Kościuszki"/>
    <tag k="source" v="UMP-PL, ./UMP-Szczecin/src/NOWE_WARPNO.ulice.txt"/>
  </way>
  <way id="23551069" version="2" timestamp="2008-10-24T08:45:30Z" uid="36809" user="pfoten_weg_!_" changeset="550116">
    <nd ref="254700456"/>
    <nd ref="255016718"/>
    <nd ref="255016717"/>
    <nd ref="255016716"/>
    <nd ref="255016697"/>
    <nd ref="255016702"/>
    <nd ref="255016692"/>
    <tag k="created_by" v="JOSM"/>
    <tag k="highway" v="secondary"/>
    <tag k="name" v="Wojska Polskiego"/>
    <tag k="ref" v="114"/>
    <tag k="source" v="UMP-PL, ./UMP-Szczecin/src/NOWE_WARPNO.ulice.txt"/>
  </way>
  <way id="23551069" version="3" timestamp="2009-10-21T23:36:44Z" uid="36809" user="pfoten_weg_!_" changeset="2917554">
    <nd ref="254700456"/>
    <nd ref="255016718"/>
    <nd ref="255016717"/>
    <nd ref="255016716"/>
    <nd ref="255016697"/>
    <nd ref="255016702"/>
    <nd ref="255016692"/>
    <tag k="highway" v="secondary"/>
    <tag k="name" v="Wojska Polskiego"/>
    <tag k="ref" v="114"/>
    <tag k="source" v="UMP-PL, ./UMP-Szczecin/src/NOWE_WARPNO.ulice.txt"/>
  </way>
  <way id="23551070" version="3" timestamp="2009-10-21T23:36:45Z" uid="36809" user="pfoten_weg_!_" changeset="2917554">
    <nd ref="255016692"/>
    <nd ref="415140197"/>
    <nd ref="255016701"/>
    <nd ref="255016702"/>
    <tag k="highway" v="residential"/>
    <tag k="name" v="Polna"/>
    <tag k="source" v="UMP-PL, ./UMP-Szczecin/src/NOWE_WARPNO.ulice.txt"/>
  </way>
  <way id="23551071" version="2" timestamp="2009-09-25T15:07:15Z" uid="36809" user="pfoten_weg_!_" changeset="2620894">
    <nd ref="255016688"/>
    <nd ref="255016715"/>
    <tag k="highway" v="residential"/>
    <tag k="source" v="UMP-PL, ./UMP-Szczecin/src/NOWE_WARPNO.ulice.txt"/>
  </way>
  <way id="23551072" version="2" timestamp="2009-10-21T23:36:42Z" uid="36809" user="pfoten_weg_!_" changeset="2917554">
    <nd ref="255016675"/>
    <nd ref="255016676"/>
    <tag k="highway" v="residential"/>
    <tag k="source" v="UMP-PL, ./UMP-Szczecin/src/NOWE_WARPNO.ulice.txt"/>
  </way>
  <way id="23551073" version="2" timestamp="2009-09-25T15:07:19Z" uid="36809" user="pfoten_weg_!_" changeset="2620894">
    <nd ref="255016694"/>
    <nd ref="255016697"/>
    <tag k="highway" v="residential"/>
    <tag k="name" v="Krótka"/>
    <tag k="source" v="UMP-PL, ./UMP-Szczecin/src/NOWE_WARPNO.ulice.txt"/>
  </way>
  <way id="23551074" version="2" timestamp="2009-09-25T15:07:18Z" uid="36809" user="pfoten_weg_!_" changeset="2620894">
    <nd ref="255016689"/>
    <nd ref="255016722"/>
    <nd ref="255016714"/>
    <nd ref="255016721"/>
    <nd ref="255016688"/>
    <tag k="highway" v="residential"/>
    <tag k="name" v="Wiejska"/>
    <tag k="source" v="UMP-PL, ./UMP-Szczecin/src/NOWE_WARPNO.ulice.txt"/>
  </way>
  <way id="23551075" version="2" timestamp="2009-10-21T23:36:41Z" uid="36809" user="pfoten_weg_!_" changeset="2917554">
    <nd ref="255016671"/>
    <nd ref="255016672"/>
    <nd ref="255016673"/>
    <nd ref="255016674"/>
    <tag k="highway" v="residential"/>
    <tag k="name" v="Władysława Reymonta"/>
    <tag k="source" v="UMP-PL, ./UMP-Szczecin/src/NOWE_WARPNO.ulice.txt"/>
  </way>
  <way id="23551076" version="2" timestamp="2009-09-25T15:07:18Z" uid="36809" user="pfoten_weg_!_" changeset="2620894">
    <nd ref="255016683"/>
    <nd ref="255016700"/>
    <nd ref="255016705"/>
    <nd ref="255016706"/>
    <nd ref="255016703"/>
    <nd ref="255016704"/>
    <nd ref="255016709"/>
    <nd ref="255016689"/>
    <tag k="highway" v="footway"/>
    <tag k="source" v="UMP-PL, ./UMP-Szczecin/src/NOWE_WARPNO.ulice.txt"/>
  </way>
  <way id="23551077" version="2" timestamp="2009-10-21T23:36:35Z" uid="36809" user="pfoten_weg_!_" changeset="2917554">
    <nd ref="255016674"/>
    <nd ref="255016680"/>
    <nd ref="255016683"/>
    <nd ref="255016682"/>
    <tag k="highway" v="residential"/>
    <tag k="name" v="Welletów"/>
    <tag k="source" v="UMP-PL, ./UMP-Szczecin/src/NOWE_WARPNO.ulice.txt"/>
  </way>
  <way id="23551078" version="2" timestamp="2009-09-25T15:07:17Z" uid="36809" user="pfoten_weg_!_" changeset="2620894">
    <nd ref="255016698"/>
    <nd ref="255016720"/>
    <nd ref="255016718"/>
    <tag k="highway" v="residential"/>
    <tag k="source" v="UMP-PL, ./UMP-Szczecin/src/NOWE_WARPNO.ulice.txt"/>
  </way>
  <way id="23551079" version="2" timestamp="2009-10-21T23:36:41Z" uid="36809" user="pfoten_weg_!_" changeset="2917554">
    <nd ref="255016699"/>
    <nd ref="255016666"/>
    <tag k="highway" v="residential"/>
    <tag k="source" v="UMP-PL, ./UMP-Szczecin/src/NOWE_WARPNO.ulice.txt"/>
  </way>
  <way id="23551080" version="2" timestamp="2009-10-21T23:36:36Z" uid="36809" user="pfoten_weg_!_" changeset="2917554">
    <nd ref="255016677"/>
    <nd ref="255016678"/>
    <nd ref="255016679"/>
    <nd ref="255016680"/>
    <nd ref="255016681"/>
    <tag k="highway" v="residential"/>
    <tag k="source" v="UMP-PL, ./UMP-Szczecin/src/NOWE_WARPNO.ulice.txt"/>
  </way>
  <way id="23551081" version="2" timestamp="2009-10-21T23:36:51Z" uid="36809" user="pfoten_weg_!_" changeset="2917554">
    <nd ref="255016684"/>
    <nd ref="255016719"/>
    <nd ref="255016726"/>
    <nd ref="255016725"/>
    <nd ref="255016724"/>
    <tag k="highway" v="residential"/>
    <tag k="name" v="Mylna"/>
    <tag k="source" v="UMP-PL, ./UMP-Szczecin/src/NOWE_WARPNO.ulice.txt"/>
  </way>
  <way id="23551082" version="2" timestamp="2009-10-21T23:36:42Z" uid="36809" user="pfoten_weg_!_" changeset="2917554">
    <nd ref="255016708"/>
    <nd ref="255016713"/>
    <tag k="highway" v="footway"/>
    <tag k="source" v="UMP-PL, ./UMP-Szczecin/src/NOWE_WARPNO.ulice.txt"/>
  </way>
  <way id="23551083" version="2" timestamp="2009-10-21T23:36:36Z" uid="36809" user="pfoten_weg_!_" changeset="2917554">
    <nd ref="255016692"/>
    <nd ref="255016723"/>
    <nd ref="255016730"/>
    <nd ref="255016715"/>
    <nd ref="255016711"/>
    <nd ref="255016686"/>
    <nd ref="255016707"/>
    <nd ref="255016729"/>
    <nd ref="255016724"/>
    <nd ref="255016685"/>
    <nd ref="255016728"/>
    <nd ref="255016682"/>
    <nd ref="255016679"/>
    <nd ref="255016673"/>
    <nd ref="255016666"/>
    <tag k="highway" v="secondary"/>
    <tag k="name" v="Tadeusza Kościuszki"/>
    <tag k="ref" v="114"/>
    <tag k="source" v="UMP-PL, ./UMP-Szczecin/src/NOWE_WARPNO.ulice.txt"/>
  </way>
  <way id="23551084" version="2" timestamp="2009-09-25T15:07:22Z" uid="36809" user="pfoten_weg_!_" changeset="2620894">
    <nd ref="255016687"/>
    <nd ref="255016686"/>
    <nd ref="255016689"/>
    <tag k="highway" v="residential"/>
    <tag k="name" v="Dworcowa"/>
    <tag k="source" v="UMP-PL, ./UMP-Szczecin/src/NOWE_WARPNO.ulice.txt"/>
  </way>
  <way id="23551085" version="2" timestamp="2009-09-25T15:07:20Z" uid="36809" user="pfoten_weg_!_" changeset="2620894">
    <nd ref="255016704"/>
    <nd ref="255016710"/>
    <nd ref="255016707"/>
    <tag k="highway" v="footway"/>
    <tag k="source" v="UMP-PL, ./UMP-Szczecin/src/NOWE_WARPNO.ulice.txt"/>
  </way>
  <way id="23551086" version="2" timestamp="2009-10-21T23:36:35Z" uid="36809" user="pfoten_weg_!_" changeset="2917554">
    <nd ref="255016699"/>
    <nd ref="255016672"/>
    <nd ref="255016676"/>
    <nd ref="255016678"/>
    <nd ref="255016727"/>
    <nd ref="255016728"/>
    <tag k="highway" v="residential"/>
    <tag k="name" v="Warszawska"/>
    <tag k="source" v="UMP-PL, ./UMP-Szczecin/src/NOWE_WARPNO.ulice.txt"/>
  </way>
  <way id="23551087" version="2" timestamp="2009-10-21T23:36:51Z" uid="36809" user="pfoten_weg_!_" changeset="2917554">
    <nd ref="255016685"/>
    <nd ref="255016684"/>
    <tag k="highway" v="residential"/>
    <tag k="name" v="Rybacka"/>
    <tag k="source" v="UMP-PL, ./UMP-Szczecin/src/NOWE_WARPNO.ulice.txt"/>
  </way>
  <way id="23551115" version="1" timestamp="2008-03-30T22:52:34Z" uid="17602" user="B10xyz" changeset="430953">
    <nd ref="255016893"/>
    <nd ref="248157853"/>
    <tag k="created_by" v="JOSM"/>
    <tag k="highway" v="footway"/>
    <tag k="name" v="CORTE DE LA VIDA"/>
  </way>
  <way id="23551115" version="3" timestamp="2009-03-16T14:51:55Z" uid="17602" user="B10xyz" changeset="819601">
    <nd ref="255016893"/>
    <nd ref="248157853"/>
    <tag k="highway" v="footway"/>
    <tag k="name" v="CORTE DE LA VIDA"/>
  </way>
  <way id="23551115" version="4" timestamp="2009-07-10T23:19:21Z" uid="17602" user="B10xyz" changeset="1793392">
    <nd ref="255016893"/>
    <nd ref="248157853"/>
    <tag k="highway" v="footway"/>
    <tag k="visible_name" v="CORTE DE LA VIDA"/>
  </way>
  <way id="23551115" version="5" timestamp="2009-11-17T18:10:32Z" uid="17602" user="B10xyz" changeset="3143268">
    <nd ref="255016893"/>
    <nd ref="248157853"/>
    <nd ref="566307065"/>
    <nd ref="566307040"/>
    <nd ref="255016131"/>
    <nd ref="566307097"/>
    <nd ref="566307113"/>
    <nd ref="566307108"/>
    <nd ref="255016893"/>
    <tag k="area" v="yes"/>
    <tag k="highway" v="pedestrian"/>
    <tag k="svg:bezier" v="no"/>
    <tag k="visible_name" v="CORTE DE LA VIDA"/>
  </way>
  <way id="23551116" version="1" timestamp="2008-03-30T22:52:34Z" uid="17602" user="B10xyz" changeset="430953">
    <nd ref="255016894"/>
    <nd ref="248157854"/>
    <nd ref="248157855"/>
    <tag k="created_by" v="JOSM"/>
    <tag k="highway" v="footway"/>
  </way>
  <way id="23551116" version="2" timestamp="2008-03-30T23:14:55Z" uid="17602" user="B10xyz" changeset="430953">
    <nd ref="255016894"/>
    <nd ref="248157854"/>
    <nd ref="255018136"/>
    <nd ref="248157855"/>
    <tag k="created_by" v="JOSM"/>
    <tag k="highway" v="footway"/>
  </way>
  <way id="23551116" version="4" timestamp="2009-03-16T14:51:57Z" uid="17602" user="B10xyz" changeset="819601">
    <nd ref="255016894"/>
    <nd ref="248157854"/>
    <nd ref="255018136"/>
    <nd ref="248157855"/>
    <tag k="highway" v="footway"/>
  </way>
  <way id="23551116" version="5" timestamp="2009-11-17T18:10:32Z" uid="17602" user="B10xyz" changeset="3143268">
    <nd ref="566307050"/>
    <nd ref="566307101"/>
    <nd ref="255016894"/>
    <nd ref="248157854"/>
    <nd ref="566307126"/>
    <nd ref="255018136"/>
    <nd ref="248157855"/>
    <tag k="highway" v="footway"/>
    <tag k="visible_name" v="CALLE DE L&apos;OGIO"/>
  </way>
  <way id="23551144" version="2" timestamp="2008-07-03T23:54:09Z" uid="6975" user="ulfl" changeset="386611">
    <nd ref="255017012"/>
    <nd ref="255017013"/>
    <tag k="highway" v="living_street"/>
  </way>
  <way id="23551236" version="1" timestamp="2008-03-30T23:14:54Z" uid="17602" user="B10xyz" changeset="430953">
    <nd ref="255018136"/>
    <nd ref="255018138"/>
    <tag k="created_by" v="JOSM"/>
    <tag k="highway" v="footway"/>
    <tag k="name" v="SOTOPORTEGO ERIZZO"/>
  </way>
  <way id="23551236" version="3" timestamp="2009-03-16T14:52:19Z" uid="17602" user="B10xyz" changeset="819601">
    <nd ref="255018136"/>
    <nd ref="255018138"/>
    <tag k="highway" v="footway"/>
    <tag k="name" v="SOTOPORTEGO ERIZZO"/>
  </way>
  <way id="23551236" version="4" timestamp="2009-07-10T23:19:33Z" uid="17602" user="B10xyz" changeset="1793392">
    <nd ref="255018136"/>
    <nd ref="255018138"/>
    <tag k="highway" v="footway"/>
    <tag k="visible_name" v="SOTOPORTEGO ERIZZO"/>
  </way>
  <way id="23551236" version="5" timestamp="2009-11-17T18:10:23Z" uid="17602" user="B10xyz" changeset="3143268">
    <nd ref="255018136"/>
    <nd ref="255018138"/>
    <tag k="highway" v="footway"/>
    <tag k="note" v="3132 CS"/>
    <tag k="visible_name" v="SOTOPORTEGO ERIZZO"/>
  </way>
  <way id="23551281" version="1" timestamp="2008-03-30T23:26:04Z" uid="30632" user="antblant" changeset="438409">
    <nd ref="255018537"/>
    <nd ref="255018807"/>
    <tag k="created_by" v="JOSM"/>
    <tag k="highway" v="residential"/>
    <tag k="name" v="Młodych Techników"/>
    <tag k="source" v="UMP-PL, ./UMP-Szczecin/src/PYRZYCE.ulice.txt"/>
  </way>
  <way id="23551281" version="2" timestamp="2009-11-03T15:13:35Z" uid="36809" user="pfoten_weg_!_" changeset="3025069">
    <nd ref="255018537"/>
    <nd ref="255018807"/>
    <tag k="highway" v="residential"/>
    <tag k="name" v="Młodych Techników"/>
    <tag k="source" v="UMP-PL, ./UMP-Szczecin/src/PYRZYCE.ulice.txt"/>
  </way>
  <way id="23551282" version="1" timestamp="2008-03-30T23:26:04Z" uid="30632" user="antblant" changeset="438409">
    <nd ref="255018548"/>
    <nd ref="255018674"/>
    <nd ref="255018697"/>
    <tag k="created_by" v="JOSM"/>
    <tag k="highway" v="residential"/>
    <tag k="name" v="Słoneczna"/>
    <tag k="source" v="UMP-PL, ./UMP-Szczecin/src/PYRZYCE.ulice.txt"/>
  </way>
  <way id="23551282" version="2" timestamp="2009-11-03T15:15:05Z" uid="36809" user="pfoten_weg_!_" changeset="3025069">
    <nd ref="255018548"/>
    <nd ref="255018674"/>
    <nd ref="255018697"/>
    <tag k="highway" v="residential"/>
    <tag k="name" v="Słoneczna"/>
    <tag k="source" v="UMP-PL, ./UMP-Szczecin/src/PYRZYCE.ulice.txt"/>
  </way>
  <way id="23551283" version="1" timestamp="2008-03-30T23:26:04Z" uid="30632" user="antblant" changeset="438409">
    <nd ref="255018604"/>
    <nd ref="255018819"/>
    <nd ref="255018818"/>
    <nd ref="255018821"/>
    <nd ref="255018820"/>
    <nd ref="255018823"/>
    <nd ref="255018822"/>
    <nd ref="255018825"/>
    <nd ref="255018824"/>
    <nd ref="255018827"/>
    <nd ref="255018826"/>
    <nd ref="255018829"/>
    <nd ref="255018828"/>
    <nd ref="255018831"/>
    <nd ref="255018544"/>
    <tag k="created_by" v="JOSM"/>
    <tag k="highway" v="residential"/>
    <tag k="name" v="Henryka Sienkiewicza"/>
    <tag k="source" v="UMP-PL, ./UMP-Szczecin/src/PYRZYCE.ulice.txt"/>
  </way>
  <way id="23551283" version="2" timestamp="2009-11-03T15:14:01Z" uid="36809" user="pfoten_weg_!_" changeset="3025069">
    <nd ref="255018604"/>
    <nd ref="255018819"/>
    <nd ref="255018818"/>
    <nd ref="255018821"/>
    <nd ref="255018820"/>
    <nd ref="255018823"/>
    <nd ref="255018822"/>
    <nd ref="255018825"/>
    <nd ref="255018824"/>
    <nd ref="255018827"/>
    <nd ref="255018826"/>
    <nd ref="255018829"/>
    <nd ref="255018828"/>
    <nd ref="255018831"/>
    <nd ref="255018544"/>
    <tag k="highway" v="residential"/>
    <tag k="name" v="Henryka Sienkiewicza"/>
    <tag k="source" v="UMP-PL, ./UMP-Szczecin/src/PYRZYCE.ulice.txt"/>
  </way>
  <way id="23551284" version="1" timestamp="2008-03-30T23:26:05Z" uid="30632" user="antblant" changeset="438409">
    <nd ref="255018772"/>
    <nd ref="255018769"/>
    <tag k="created_by" v="JOSM"/>
    <tag k="highway" v="service"/>
    <tag k="name" v="Adama Mickiewicza"/>
    <tag k="source" v="UMP-PL, ./UMP-Szczecin/src/PYRZYCE.ulice.txt"/>
  </way>
  <way id="23551284" version="2" timestamp="2009-11-03T15:14:28Z" uid="36809" user="pfoten_weg_!_" changeset="3025069">
    <nd ref="255018772"/>
    <nd ref="255018769"/>
    <tag k="highway" v="service"/>
    <tag k="name" v="Adama Mickiewicza"/>
    <tag k="source" v="UMP-PL, ./UMP-Szczecin/src/PYRZYCE.ulice.txt"/>
  </way>
  <way id="23551285" version="1" timestamp="2008-03-30T23:26:05Z" uid="30632" user="antblant" changeset="438409">
    <nd ref="255018625"/>
    <nd ref="255018642"/>
    <tag k="created_by" v="JOSM"/>
    <tag k="highway" v="residential"/>
    <tag k="name" v="1 Maja"/>
    <tag k="source" v="UMP-PL, ./UMP-Szczecin/src/PYRZYCE.ulice.txt"/>
  </way>
  <way id="23551285" version="2" timestamp="2009-11-03T15:14:44Z" uid="36809" user="pfoten_weg_!_" changeset="3025069">
    <nd ref="255018625"/>
    <nd ref="255018642"/>
    <tag k="highway" v="residential"/>
    <tag k="name" v="1 Maja"/>
    <tag k="source" v="UMP-PL, ./UMP-Szczecin/src/PYRZYCE.ulice.txt"/>
  </way>
  <way id="23551286" version="1" timestamp="2008-03-30T23:26:06Z" uid="30632" user="antblant" changeset="438409">
    <nd ref="255018974"/>
    <nd ref="255018975"/>
    <nd ref="255018980"/>
    <nd ref="255018981"/>
    <nd ref="255018978"/>
    <nd ref="255018979"/>
    <nd ref="255018971"/>
    <nd ref="255018671"/>
    <tag k="created_by" v="JOSM"/>
    <tag k="highway" v="residential"/>
    <tag k="source" v="UMP-PL, ./UMP-Szczecin/src/PYRZYCE.ulice.txt"/>
  </way>
  <way id="23551286" version="2" timestamp="2009-11-03T15:15:08Z" uid="36809" user="pfoten_weg_!_" changeset="3025069">
    <nd ref="255018974"/>
    <nd ref="255018975"/>
    <nd ref="255018980"/>
    <nd ref="255018981"/>
    <nd ref="255018978"/>
    <nd ref="255018979"/>
    <nd ref="255018971"/>
    <nd ref="255018671"/>
    <tag k="highway" v="residential"/>
    <tag k="source" v="UMP-PL, ./UMP-Szczecin/src/PYRZYCE.ulice.txt"/>
  </way>
  <way id="23551287" version="1" timestamp="2008-03-30T23:26:06Z" uid="30632" user="antblant" changeset="438409">
    <nd ref="255018476"/>
    <nd ref="255018477"/>
    <nd ref="255018478"/>
    <nd ref="255018479"/>
    <tag k="created_by" v="JOSM"/>
    <tag k="highway" v="secondary"/>
    <tag k="name" v="Warszawska"/>
    <tag k="ref" v="122"/>
    <tag k="source" v="UMP-PL, ./UMP-Szczecin/src/PYRZYCE.ulice.txt"/>
  </way>
  <way id="23551287" version="2" timestamp="2009-11-03T15:14:29Z" uid="36809" user="pfoten_weg_!_" changeset="3025069">
    <nd ref="255018476"/>
    <nd ref="255018477"/>
    <nd ref="255018478"/>
    <nd ref="255018479"/>
    <tag k="highway" v="secondary"/>
    <tag k="name" v="Warszawska"/>
    <tag k="ref" v="122"/>
    <tag k="source" v="UMP-PL, ./UMP-Szczecin/src/PYRZYCE.ulice.txt"/>
  </way>
  <way id="23551288" version="1" timestamp="2008-03-30T23:26:07Z" uid="30632" user="antblant" changeset="438409">
    <nd ref="255018562"/>
    <nd ref="255018797"/>
    <nd ref="255018798"/>
    <nd ref="255018803"/>
    <nd ref="255018804"/>
    <nd ref="255018801"/>
    <nd ref="255018802"/>
    <tag k="created_by" v="JOSM"/>
    <tag k="highway" v="residential"/>
    <tag k="source" v="UMP-PL, ./UMP-Szczecin/src/PYRZYCE.ulice.txt"/>
  </way>
  <way id="23551288" version="2" timestamp="2009-11-03T15:13:36Z" uid="36809" user="pfoten_weg_!_" changeset="3025069">
    <nd ref="255018562"/>
    <nd ref="255018797"/>
    <nd ref="255018798"/>
    <nd ref="255018803"/>
    <nd ref="255018804"/>
    <nd ref="255018801"/>
    <nd ref="255018802"/>
    <tag k="highway" v="residential"/>
    <tag k="source" v="UMP-PL, ./UMP-Szczecin/src/PYRZYCE.ulice.txt"/>
  </way>
  <way id="23551288" version="3" timestamp="2010-05-03T10:44:20Z" uid="30632" user="antblant" changeset="4593563">
    <nd ref="255018562"/>
    <nd ref="255018797"/>
    <nd ref="255018798"/>
    <nd ref="255018803"/>
    <nd ref="255018804"/>
    <nd ref="255018801"/>
    <nd ref="718560354"/>
    <nd ref="255018802"/>
    <tag k="highway" v="residential"/>
    <tag k="source" v="UMP-PL, ./UMP-Szczecin/src/PYRZYCE.ulice.txt"/>
  </way>
  <way id="23551289" version="1" timestamp="2008-03-30T23:26:07Z" uid="30632" user="antblant" changeset="438409">
    <nd ref="255018674"/>
    <nd ref="255018698"/>
    <nd ref="255018602"/>
    <tag k="created_by" v="JOSM"/>
    <tag k="highway" v="residential"/>
    <tag k="name" v="Słoneczna"/>
    <tag k="source" v="UMP-PL, ./UMP-Szczecin/src/PYRZYCE.ulice.txt"/>
  </way>
  <way id="23551289" version="2" timestamp="2009-11-03T15:15:06Z" uid="36809" user="pfoten_weg_!_" changeset="3025069">
    <nd ref="255018674"/>
    <nd ref="255018698"/>
    <nd ref="255018602"/>
    <tag k="highway" v="residential"/>
    <tag k="name" v="Słoneczna"/>
    <tag k="source" v="UMP-PL, ./UMP-Szczecin/src/PYRZYCE.ulice.txt"/>
  </way>
  <way id="23551290" version="1" timestamp="2008-03-30T23:26:08Z" uid="30632" user="antblant" changeset="438409">
    <nd ref="255018516"/>
    <nd ref="255018830"/>
    <nd ref="255018922"/>
    <nd ref="255018923"/>
    <tag k="created_by" v="JOSM"/>
    <tag k="highway" v="residential"/>
    <tag k="name" v="Młyńska"/>
    <tag k="source" v="UMP-PL, ./UMP-Szczecin/src/PYRZYCE.ulice.txt"/>
  </way>
  <way id="23551290" version="2" timestamp="2009-11-03T15:14:30Z" uid="36809" user="pfoten_weg_!_" changeset="3025069">
    <nd ref="255018516"/>
    <nd ref="255018830"/>
    <nd ref="255018922"/>
    <nd ref="255018923"/>
    <tag k="highway" v="residential"/>
    <tag k="name" v="Młyńska"/>
    <tag k="source" v="UMP-PL, ./UMP-Szczecin/src/PYRZYCE.ulice.txt"/>
  </way>
  <way id="23551290" version="3" timestamp="2010-05-03T12:43:03Z" uid="30632" user="antblant" changeset="4594441"/>
  <way id="23551291" version="1" timestamp="2008-03-30T23:26:08Z" uid="30632" user="antblant" changeset="438409">
    <nd ref="255018774"/>
    <nd ref="255018771"/>
    <tag k="created_by" v="JOSM"/>
    <tag k="highway" v="service"/>
    <tag k="name" v="Adama Mickiewicza"/>
    <tag k="source" v="UMP-PL, ./UMP-Szczecin/src/PYRZYCE.ulice.txt"/>
  </way>
  <way id="23551291" version="2" timestamp="2009-11-03T15:14:29Z" uid="36809" user="pfoten_weg_!_" changeset="3025069">
    <nd ref="255018774"/>
    <nd ref="255018771"/>
    <tag k="highway" v="service"/>
    <tag k="name" v="Adama Mickiewicza"/>
    <tag k="source" v="UMP-PL, ./UMP-Szczecin/src/PYRZYCE.ulice.txt"/>
  </way>
  <way id="23551292" version="1" timestamp="2008-03-30T23:26:09Z" uid="30632" user="antblant" changeset="438409">
    <nd ref="255018596"/>
    <nd ref="255018629"/>
    <nd ref="255018628"/>
    <nd ref="255018627"/>
    <nd ref="255018626"/>
    <tag k="created_by" v="JOSM"/>
    <tag k="highway" v="residential"/>
    <tag k="name" v="Krótka"/>
    <tag k="source" v="UMP-PL, ./UMP-Szczecin/src/PYRZYCE.ulice.txt"/>
  </way>
  <way id="23551292" version="2" timestamp="2009-11-03T15:14:49Z" uid="36809" user="pfoten_weg_!_" changeset="3025069">
    <nd ref="255018596"/>
    <nd ref="255018629"/>
    <nd ref="255018628"/>
    <nd ref="255018627"/>
    <nd ref="255018626"/>
    <tag k="highway" v="residential"/>
    <tag k="name" v="Krótka"/>
    <tag k="source" v="UMP-PL, ./UMP-Szczecin/src/PYRZYCE.ulice.txt"/>
  </way>
  <way id="23551293" version="1" timestamp="2008-03-30T23:26:09Z" uid="30632" user="antblant" changeset="438409">
    <nd ref="255018551"/>
    <nd ref="255018984"/>
    <nd ref="255018983"/>
    <nd ref="255018982"/>
    <nd ref="255018989"/>
    <nd ref="255018988"/>
    <nd ref="255018987"/>
    <nd ref="255018986"/>
    <nd ref="255018976"/>
    <nd ref="255018977"/>
    <nd ref="255018974"/>
    <tag k="created_by" v="JOSM"/>
    <tag k="highway" v="residential"/>
    <tag k="source" v="UMP-PL, ./UMP-Szczecin/src/PYRZYCE.ulice.txt"/>
  </way>
  <way id="23551293" version="2" timestamp="2009-11-03T15:15:08Z" uid="36809" user="pfoten_weg_!_" changeset="3025069">
    <nd ref="255018551"/>
    <nd ref="255018984"/>
    <nd ref="255018983"/>
    <nd ref="255018982"/>
    <nd ref="255018989"/>
    <nd ref="255018988"/>
    <nd ref="255018987"/>
    <nd ref="255018986"/>
    <nd ref="255018976"/>
    <nd ref="255018977"/>
    <nd ref="255018974"/>
    <tag k="highway" v="residential"/>
    <tag k="source" v="UMP-PL, ./UMP-Szczecin/src/PYRZYCE.ulice.txt"/>
  </way>
  <way id="23551293" version="3" timestamp="2010-12-25T13:28:19Z" uid="30632" user="antblant" changeset="6760865">
    <nd ref="255018551"/>
    <nd ref="255018984"/>
    <nd ref="255018983"/>
    <nd ref="1063999065"/>
    <nd ref="255018982"/>
    <nd ref="255018989"/>
    <nd ref="255018988"/>
    <nd ref="255018987"/>
    <nd ref="255018986"/>
    <nd ref="255018976"/>
    <nd ref="255018977"/>
    <nd ref="255018974"/>
    <tag k="highway" v="residential"/>
    <tag k="source" v="UMP-PL, ./UMP-Szczecin/src/PYRZYCE.ulice.txt"/>
  </way>
  <way id="23551294" version="1" timestamp="2008-03-30T23:26:09Z" uid="30632" user="antblant" changeset="438409">
    <nd ref="255018481"/>
    <nd ref="255018482"/>
    <nd ref="255018491"/>
    <nd ref="255018505"/>
    <nd ref="255018506"/>
    <nd ref="255018507"/>
    <tag k="created_by" v="JOSM"/>
    <tag k="highway" v="primary"/>
    <tag k="name" v="Bogusława X"/>
    <tag k="ref" v="3"/>
    <tag k="source" v="UMP-PL, ./UMP-Szczecin/src/PYRZYCE.ulice.txt"/>
  </way>
  <way id="23551294" version="2" timestamp="2008-03-30T23:32:07Z" uid="30632" user="antblant" changeset="438409">
    <nd ref="255018481"/>
    <nd ref="255018482"/>
    <nd ref="255018491"/>
    <nd ref="255018505"/>
    <nd ref="255018506"/>
    <nd ref="255018507"/>
    <tag k="created_by" v="Potlatch 0.8a"/>
    <tag k="highway" v="primary"/>
    <tag k="int_ref" v="E65"/>
    <tag k="name" v="Bogusława X"/>
    <tag k="ref" v="3"/>
    <tag k="source" v="UMP-PL, ./UMP-Szczecin/src/PYRZYCE.ulice.txt"/>
  </way>
  <way id="23551294" version="3" timestamp="2008-09-19T02:50:55Z" uid="30632" user="antblant" changeset="662817">
    <nd ref="255018481"/>
    <nd ref="255018482"/>
    <nd ref="255018491"/>
    <nd ref="255018505"/>
    <nd ref="255018506"/>
    <nd ref="255018507"/>
    <tag k="created_by" v="Potlatch 0.10b"/>
    <tag k="highway" v="primary"/>
    <tag k="name" v="Bogusława X"/>
    <tag k="ref" v="3"/>
    <tag k="source" v="UMP-PL, ./UMP-Szczecin/src/PYRZYCE.ulice.txt"/>
  </way>
  <way id="23551294" version="5" timestamp="2009-11-03T14:48:46Z" uid="36809" user="pfoten_weg_!_" changeset="3025069">
    <nd ref="255018481"/>
    <nd ref="255018482"/>
    <nd ref="255018491"/>
    <nd ref="255018505"/>
    <nd ref="255018506"/>
    <nd ref="255018507"/>
    <tag k="highway" v="primary"/>
    <tag k="int_ref" v="E 65"/>
    <tag k="name" v="Bogusława X"/>
    <tag k="ref" v="3"/>
    <tag k="source" v="UMP-PL, ./UMP-Szczecin/src/PYRZYCE.ulice.txt"/>
  </way>
  <way id="23551294" version="6" timestamp="2010-05-03T11:21:41Z" uid="30632" user="antblant" changeset="4593823">
    <nd ref="255018481"/>
    <nd ref="255018482"/>
    <nd ref="718595140"/>
    <nd ref="255018491"/>
    <nd ref="255018505"/>
    <nd ref="718595132"/>
    <nd ref="255018507"/>
    <tag k="highway" v="primary"/>
    <tag k="int_ref" v="E 65"/>
    <tag k="name" v="Bogusława X"/>
    <tag k="ref" v="3"/>
    <tag k="source" v="UMP-PL, ./UMP-Szczecin/src/PYRZYCE.ulice.txt"/>
  </way>
  <way id="23551294" version="7" timestamp="2010-05-03T13:14:23Z" uid="30632" user="antblant" changeset="4594743">
    <nd ref="255018481"/>
    <nd ref="255018482"/>
    <nd ref="718595140"/>
    <nd ref="255018491"/>
    <nd ref="255018505"/>
    <nd ref="718595132"/>
    <nd ref="718692797"/>
    <nd ref="255018733"/>
    <tag k="highway" v="primary"/>
    <tag k="int_ref" v="E 65"/>
    <tag k="name" v="Bogusława X"/>
    <tag k="ref" v="3"/>
    <tag k="source" v="UMP-PL, ./UMP-Szczecin/src/PYRZYCE.ulice.txt"/>
  </way>
  <way id="23551294" version="8" timestamp="2010-12-19T09:34:54Z" uid="30632" user="antblant" changeset="6703615">
    <nd ref="255018481"/>
    <nd ref="255018482"/>
    <nd ref="718595140"/>
    <nd ref="255018491"/>
    <nd ref="255018505"/>
    <nd ref="718595132"/>
    <nd ref="718692797"/>
    <nd ref="255018733"/>
    <tag k="highway" v="tertiary"/>
    <tag k="name" v="Bogusława X"/>
    <tag k="source" v="UMP-PL, ./UMP-Szczecin/src/PYRZYCE.ulice.txt"/>
  </way>
  <way id="23551295" version="1" timestamp="2008-03-30T23:26:10Z" uid="30632" user="antblant" changeset="438409">
    <nd ref="255018894"/>
    <nd ref="255018630"/>
    <nd ref="255018909"/>
    <nd ref="255018869"/>
    <nd ref="255018879"/>
    <nd ref="255018866"/>
    <nd ref="255018867"/>
    <nd ref="255018931"/>
    <nd ref="255018591"/>
    <nd ref="255018932"/>
    <nd ref="255018929"/>
    <nd ref="255018930"/>
    <nd ref="255018927"/>
    <nd ref="255018928"/>
    <nd ref="255018924"/>
    <nd ref="255018926"/>
    <nd ref="255018855"/>
    <nd ref="255018517"/>
    <nd ref="255018854"/>
    <nd ref="255018853"/>
    <nd ref="255018852"/>
    <nd ref="255018851"/>
    <nd ref="255018850"/>
    <nd ref="255018849"/>
    <nd ref="255018848"/>
    <nd ref="255018865"/>
    <nd ref="255018864"/>
    <tag k="created_by" v="JOSM"/>
    <tag k="highway" v="service"/>
    <tag k="name" v="Wały Chrobrego"/>
    <tag k="source" v="UMP-PL, ./UMP-Szczecin/src/PYRZYCE.ulice.txt"/>
  </way>
  <way id="23551295" version="3" timestamp="2009-11-03T15:14:03Z" uid="36809" user="pfoten_weg_!_" changeset="3025069">
    <nd ref="255018894"/>
    <nd ref="255018630"/>
    <nd ref="255018909"/>
    <nd ref="255018869"/>
    <nd ref="255018879"/>
    <nd ref="255018866"/>
    <nd ref="255018867"/>
    <nd ref="255018931"/>
    <nd ref="255018591"/>
    <nd ref="255018932"/>
    <nd ref="255018929"/>
    <nd ref="255018930"/>
    <nd ref="255018927"/>
    <nd ref="255018928"/>
    <nd ref="255018924"/>
    <nd ref="255018926"/>
    <nd ref="255018855"/>
    <nd ref="255018517"/>
    <nd ref="255018854"/>
    <nd ref="255018853"/>
    <nd ref="255018852"/>
    <nd ref="255018851"/>
    <nd ref="255018850"/>
    <nd ref="255018849"/>
    <nd ref="255018848"/>
    <nd ref="255018865"/>
    <nd ref="255018864"/>
    <tag k="highway" v="service"/>
    <tag k="name" v="Wały Bolesława Chrobrego"/>
    <tag k="source" v="UMP-PL, ./UMP-Szczecin/src/PYRZYCE.ulice.txt"/>
  </way>
  <way id="23551295" version="4" timestamp="2010-05-03T11:43:40Z" uid="30632" user="antblant" changeset="4593823"/>
  <way id="23551296" version="1" timestamp="2008-03-30T23:26:10Z" uid="30632" user="antblant" changeset="438409">
    <nd ref="255018563"/>
    <nd ref="255018799"/>
    <nd ref="255018800"/>
    <tag k="created_by" v="JOSM"/>
    <tag k="highway" v="residential"/>
    <tag k="source" v="UMP-PL, ./UMP-Szczecin/src/PYRZYCE.ulice.txt"/>
  </way>
  <way id="23551296" version="2" timestamp="2009-11-03T15:14:14Z" uid="36809" user="pfoten_weg_!_" changeset="3025069">
    <nd ref="255018563"/>
    <nd ref="255018799"/>
    <nd ref="255018800"/>
    <tag k="highway" v="residential"/>
    <tag k="source" v="UMP-PL, ./UMP-Szczecin/src/PYRZYCE.ulice.txt"/>
  </way>
  <way id="23551296" version="3" timestamp="2011-04-11T20:55:23Z" uid="23543" user="jkjk" changeset="7837485">
    <nd ref="255018563"/>
    <nd ref="255018799"/>
    <nd ref="1241295794"/>
    <nd ref="255018800"/>
    <tag k="highway" v="residential"/>
    <tag k="source" v="UMP-PL, ./UMP-Szczecin/src/PYRZYCE.ulice.txt"/>
  </way>
  <way id="23551297" version="1" timestamp="2008-03-30T23:26:10Z" uid="30632" user="antblant" changeset="438409">
    <nd ref="255018805"/>
    <nd ref="255018574"/>
    <tag k="created_by" v="JOSM"/>
    <tag k="highway" v="unclassified"/>
    <tag k="source" v="UMP-PL, ./UMP-Szczecin/src/PYRZYCE.ulice.txt"/>
    <tag k="surface" v="unpaved"/>
  </way>
  <way id="23551297" version="2" timestamp="2009-11-03T15:14:21Z" uid="36809" user="pfoten_weg_!_" changeset="3025069">
    <nd ref="255018805"/>
    <nd ref="255018574"/>
    <tag k="highway" v="unclassified"/>
    <tag k="source" v="UMP-PL, ./UMP-Szczecin/src/PYRZYCE.ulice.txt"/>
    <tag k="surface" v="unpaved"/>
  </way>
  <way id="23551298" version="1" timestamp="2008-03-30T23:26:11Z" uid="30632" user="antblant" changeset="438409">
    <nd ref="255018603"/>
    <nd ref="255018694"/>
    <tag k="created_by" v="JOSM"/>
    <tag k="highway" v="residential"/>
    <tag k="source" v="UMP-PL, ./UMP-Szczecin/src/PYRZYCE.ulice.txt"/>
  </way>
  <way id="23551298" version="2" timestamp="2009-11-03T15:14:59Z" uid="36809" user="pfoten_weg_!_" changeset="3025069">
    <nd ref="255018603"/>
    <nd ref="255018694"/>
    <tag k="highway" v="residential"/>
    <tag k="source" v="UMP-PL, ./UMP-Szczecin/src/PYRZYCE.ulice.txt"/>
  </way>
  <way id="23551299" version="1" timestamp="2008-03-30T23:26:11Z" uid="30632" user="antblant" changeset="438409">
    <nd ref="255018634"/>
    <nd ref="255018995"/>
    <nd ref="255018994"/>
    <nd ref="255018985"/>
    <nd ref="255018717"/>
    <tag k="created_by" v="JOSM"/>
    <tag k="highway" v="residential"/>
    <tag k="name" v="Różana"/>
    <tag k="source" v="UMP-PL, ./UMP-Szczecin/src/PYRZYCE.ulice.txt"/>
  </way>
  <way id="23551299" version="2" timestamp="2009-11-03T15:13:50Z" uid="36809" user="pfoten_weg_!_" changeset="3025069">
    <nd ref="255018634"/>
    <nd ref="255018995"/>
    <nd ref="255018994"/>
    <nd ref="255018985"/>
    <nd ref="255018717"/>
    <tag k="highway" v="residential"/>
    <tag k="name" v="Różana"/>
    <tag k="source" v="UMP-PL, ./UMP-Szczecin/src/PYRZYCE.ulice.txt"/>
  </way>
  <way id="23551300" version="1" timestamp="2008-03-30T23:26:12Z" uid="30632" user="antblant" changeset="438409">
    <nd ref="255018583"/>
    <nd ref="255018617"/>
    <nd ref="255018616"/>
    <nd ref="255018618"/>
    <nd ref="255018632"/>
    <nd ref="255018631"/>
    <nd ref="255018630"/>
    <nd ref="255018567"/>
    <tag k="created_by" v="JOSM"/>
    <tag k="highway" v="residential"/>
    <tag k="name" v="Jana Kilińskiego"/>
    <tag k="source" v="UMP-PL, ./UMP-Szczecin/src/PYRZYCE.ulice.txt"/>
  </way>
  <way id="23551300" version="2" timestamp="2009-11-03T15:14:40Z" uid="36809" user="pfoten_weg_!_" changeset="3025069">
    <nd ref="255018583"/>
    <nd ref="255018617"/>
    <nd ref="255018616"/>
    <nd ref="255018618"/>
    <nd ref="255018632"/>
    <nd ref="255018631"/>
    <nd ref="255018630"/>
    <nd ref="255018567"/>
    <tag k="highway" v="residential"/>
    <tag k="name" v="Jana Kilińskiego"/>
    <tag k="source" v="UMP-PL, ./UMP-Szczecin/src/PYRZYCE.ulice.txt"/>
  </way>
  <way id="23551301" version="1" timestamp="2008-03-30T23:26:12Z" uid="30632" user="antblant" changeset="438409">
    <nd ref="255018606"/>
    <nd ref="255018863"/>
    <nd ref="255018862"/>
    <nd ref="255018670"/>
    <tag k="created_by" v="JOSM"/>
    <tag k="highway" v="residential"/>
    <tag k="name" v="Rolna"/>
    <tag k="source" v="UMP-PL, ./UMP-Szczecin/src/PYRZYCE.ulice.txt"/>
  </way>
  <way id="23551301" version="2" timestamp="2009-11-03T15:14:58Z" uid="36809" user="pfoten_weg_!_" changeset="3025069">
    <nd ref="255018606"/>
    <nd ref="255018863"/>
    <nd ref="255018862"/>
    <nd ref="255018670"/>
    <tag k="highway" v="residential"/>
    <tag k="name" v="Rolna"/>
    <tag k="source" v="UMP-PL, ./UMP-Szczecin/src/PYRZYCE.ulice.txt"/>
  </way>
  <way id="23551302" version="1" timestamp="2008-03-30T23:26:12Z" uid="30632" user="antblant" changeset="438409">
    <nd ref="255018570"/>
    <nd ref="255018770"/>
    <nd ref="255018767"/>
    <nd ref="255018768"/>
    <nd ref="255018765"/>
    <nd ref="255018751"/>
    <nd ref="255018766"/>
    <tag k="created_by" v="JOSM"/>
    <tag k="highway" v="residential"/>
    <tag k="name" v="Cmentarna"/>
    <tag k="source" v="UMP-PL, ./UMP-Szczecin/src/PYRZYCE.ulice.txt"/>
  </way>
  <way id="23551302" version="2" timestamp="2009-11-03T15:14:11Z" uid="36809" user="pfoten_weg_!_" changeset="3025069">
    <nd ref="255018570"/>
    <nd ref="255018770"/>
    <nd ref="255018767"/>
    <nd ref="255018768"/>
    <nd ref="255018765"/>
    <nd ref="255018751"/>
    <nd ref="255018766"/>
    <tag k="highway" v="residential"/>
    <tag k="name" v="Cmentarna"/>
    <tag k="source" v="UMP-PL, ./UMP-Szczecin/src/PYRZYCE.ulice.txt"/>
  </way>
  <way id="23551302" version="3" timestamp="2010-05-03T11:21:41Z" uid="30632" user="antblant" changeset="4593823">
    <nd ref="255018570"/>
    <nd ref="255018770"/>
    <nd ref="255018767"/>
    <nd ref="255018768"/>
    <nd ref="255018765"/>
    <nd ref="255018751"/>
    <nd ref="718595136"/>
    <nd ref="255018766"/>
    <tag k="highway" v="residential"/>
    <tag k="name" v="Cmentarna"/>
    <tag k="source" v="UMP-PL, ./UMP-Szczecin/src/PYRZYCE.ulice.txt"/>
  </way>
  <way id="23551302" version="4" timestamp="2011-04-11T20:55:12Z" uid="23543" user="jkjk" changeset="7837485">
    <nd ref="255018570"/>
    <nd ref="255018770"/>
    <nd ref="255018767"/>
    <nd ref="255018768"/>
    <nd ref="255018765"/>
    <nd ref="255018751"/>
    <nd ref="718595136"/>
    <nd ref="1241295654"/>
    <nd ref="255018766"/>
    <tag k="highway" v="residential"/>
    <tag k="name" v="Cmentarna"/>
    <tag k="source" v="UMP-PL, ./UMP-Szczecin/src/PYRZYCE.ulice.txt"/>
  </way>
  <way id="23551303" version="1" timestamp="2008-03-30T23:26:13Z" uid="30632" user="antblant" changeset="438409">
    <nd ref="255018808"/>
    <nd ref="255018576"/>
    <tag k="created_by" v="JOSM"/>
    <tag k="highway" v="unclassified"/>
    <tag k="source" v="UMP-PL, ./UMP-Szczecin/src/PYRZYCE.ulice.txt"/>
    <tag k="surface" v="unpaved"/>
  </way>
  <way id="23551303" version="2" timestamp="2009-11-03T15:14:20Z" uid="36809" user="pfoten_weg_!_" changeset="3025069">
    <nd ref="255018808"/>
    <nd ref="255018576"/>
    <tag k="highway" v="unclassified"/>
    <tag k="source" v="UMP-PL, ./UMP-Szczecin/src/PYRZYCE.ulice.txt"/>
    <tag k="surface" v="unpaved"/>
  </way>
  <way id="23551304" version="1" timestamp="2008-03-30T23:26:13Z" uid="30632" user="antblant" changeset="438409">
    <nd ref="255018695"/>
    <nd ref="255018701"/>
    <nd ref="255018566"/>
    <tag k="created_by" v="JOSM"/>
    <tag k="highway" v="residential"/>
    <tag k="name" v="Głowackiego"/>
    <tag k="source" v="UMP-PL, ./UMP-Szczecin/src/PYRZYCE.ulice.txt"/>
  </way>
  <way id="23551304" version="3" timestamp="2009-11-03T15:13:52Z" uid="36809" user="pfoten_weg_!_" changeset="3025069">
    <nd ref="255018695"/>
    <nd ref="255018701"/>
    <nd ref="255018566"/>
    <tag k="highway" v="residential"/>
    <tag k="name" v="Wojciecha Bartosza Głowackiego"/>
    <tag k="source" v="UMP-PL, ./UMP-Szczecin/src/PYRZYCE.ulice.txt"/>
  </way>
  <way id="23551304" version="4" timestamp="2010-05-03T11:21:43Z" uid="30632" user="antblant" changeset="4593823">
    <nd ref="255018695"/>
    <nd ref="718595134"/>
    <nd ref="255018701"/>
    <nd ref="255018566"/>
    <tag k="highway" v="residential"/>
    <tag k="name" v="Wojciecha Bartosza Głowackiego"/>
    <tag k="source" v="UMP-PL, ./UMP-Szczecin/src/PYRZYCE.ulice.txt"/>
  </way>
  <way id="23551305" version="1" timestamp="2008-03-30T23:26:14Z" uid="30632" user="antblant" changeset="438409">
    <nd ref="255018780"/>
    <nd ref="255018997"/>
    <nd ref="255018990"/>
    <nd ref="255018747"/>
    <tag k="created_by" v="JOSM"/>
    <tag k="highway" v="residential"/>
    <tag k="name" v="Księcia Józefa Poniatowskiego"/>
    <tag k="source" v="UMP-PL, ./UMP-Szczecin/src/PYRZYCE.ulice.txt"/>
  </way>
  <way id="23551305" version="2" timestamp="2009-11-03T15:14:34Z" uid="36809" user="pfoten_weg_!_" changeset="3025069">
    <nd ref="255018780"/>
    <nd ref="255018997"/>
    <nd ref="255018990"/>
    <nd ref="255018747"/>
    <tag k="highway" v="residential"/>
    <tag k="name" v="Księcia Józefa Poniatowskiego"/>
    <tag k="source" v="UMP-PL, ./UMP-Szczecin/src/PYRZYCE.ulice.txt"/>
  </way>
  <way id="23551306" version="1" timestamp="2008-03-30T23:26:14Z" uid="30632" user="antblant" changeset="438409">
    <nd ref="255018592"/>
    <nd ref="255018618"/>
    <tag k="created_by" v="JOSM"/>
    <tag k="highway" v="residential"/>
    <tag k="name" v="Bankowa"/>
    <tag k="source" v="UMP-PL, ./UMP-Szczecin/src/PYRZYCE.ulice.txt"/>
  </way>
  <way id="23551306" version="2" timestamp="2009-11-03T15:14:50Z" uid="36809" user="pfoten_weg_!_" changeset="3025069">
    <nd ref="255018592"/>
    <nd ref="255018618"/>
    <tag k="highway" v="residential"/>
    <tag k="name" v="Bankowa"/>
    <tag k="source" v="UMP-PL, ./UMP-Szczecin/src/PYRZYCE.ulice.txt"/>
  </way>
  <way id="23551307" version="1" timestamp="2008-03-30T23:26:14Z" uid="30632" user="antblant" changeset="438409">
    <nd ref="255018604"/>
    <nd ref="255018605"/>
    <nd ref="255018543"/>
    <nd ref="255018602"/>
    <nd ref="255018603"/>
    <nd ref="255018600"/>
    <nd ref="255018601"/>
    <nd ref="255018614"/>
    <nd ref="255018615"/>
    <nd ref="255018612"/>
    <nd ref="255018613"/>
    <nd ref="255018610"/>
    <nd ref="255018611"/>
    <nd ref="255018608"/>
    <nd ref="255018609"/>
    <nd ref="255018623"/>
    <nd ref="255018607"/>
    <nd ref="255018622"/>
    <nd ref="255018621"/>
    <nd ref="255018620"/>
    <nd ref="255018619"/>
    <tag k="created_by" v="JOSM"/>
    <tag k="highway" v="residential"/>
    <tag k="name" v="Staromiejska"/>
    <tag k="source" v="UMP-PL, ./UMP-Szczecin/src/PYRZYCE.ulice.txt"/>
  </way>
  <way id="23551307" version="2" timestamp="2009-11-03T15:15:00Z" uid="36809" user="pfoten_weg_!_" changeset="3025069">
    <nd ref="255018604"/>
    <nd ref="255018605"/>
    <nd ref="255018543"/>
    <nd ref="255018602"/>
    <nd ref="255018603"/>
    <nd ref="255018600"/>
    <nd ref="255018601"/>
    <nd ref="255018614"/>
    <nd ref="255018615"/>
    <nd ref="255018612"/>
    <nd ref="255018613"/>
    <nd ref="255018610"/>
    <nd ref="255018611"/>
    <nd ref="255018608"/>
    <nd ref="255018609"/>
    <nd ref="255018623"/>
    <nd ref="255018607"/>
    <nd ref="255018622"/>
    <nd ref="255018621"/>
    <nd ref="255018620"/>
    <nd ref="255018619"/>
    <tag k="highway" v="residential"/>
    <tag k="name" v="Staromiejska"/>
    <tag k="source" v="UMP-PL, ./UMP-Szczecin/src/PYRZYCE.ulice.txt"/>
  </way>
  <way id="23551308" version="1" timestamp="2008-03-30T23:26:15Z" uid="30632" user="antblant" changeset="438409">
    <nd ref="255018766"/>
    <nd ref="255018815"/>
    <nd ref="255018809"/>
    <nd ref="255018812"/>
    <nd ref="255018784"/>
    <nd ref="255018783"/>
    <nd ref="255018782"/>
    <nd ref="255018781"/>
    <tag k="created_by" v="JOSM"/>
    <tag k="highway" v="residential"/>
    <tag k="name" v="Przyszłości"/>
    <tag k="source" v="UMP-PL, ./UMP-Szczecin/src/PYRZYCE.ulice.txt"/>
  </way>
  <way id="23551308" version="2" timestamp="2009-11-03T15:14:12Z" uid="36809" user="pfoten_weg_!_" changeset="3025069">
    <nd ref="255018766"/>
    <nd ref="255018815"/>
    <nd ref="255018809"/>
    <nd ref="255018812"/>
    <nd ref="255018784"/>
    <nd ref="255018783"/>
    <nd ref="255018782"/>
    <nd ref="255018781"/>
    <tag k="highway" v="residential"/>
    <tag k="name" v="Przyszłości"/>
    <tag k="source" v="UMP-PL, ./UMP-Szczecin/src/PYRZYCE.ulice.txt"/>
  </way>
  <way id="23551309" version="1" timestamp="2008-03-30T23:26:16Z" uid="30632" user="antblant" changeset="438409">
    <nd ref="255018653"/>
    <nd ref="255018654"/>
    <nd ref="255018655"/>
    <nd ref="255018656"/>
    <nd ref="255018657"/>
    <nd ref="255018658"/>
    <tag k="created_by" v="JOSM"/>
    <tag k="highway" v="residential"/>
    <tag k="name" v="2 Marca"/>
    <tag k="source" v="UMP-PL, ./UMP-Szczecin/src/PYRZYCE.ulice.txt"/>
  </way>
  <way id="23551309" version="2" timestamp="2009-11-03T15:14:41Z" uid="36809" user="pfoten_weg_!_" changeset="3025069">
    <nd ref="255018653"/>
    <nd ref="255018654"/>
    <nd ref="255018655"/>
    <nd ref="255018656"/>
    <nd ref="255018657"/>
    <nd ref="255018658"/>
    <tag k="highway" v="residential"/>
    <tag k="name" v="2 Marca"/>
    <tag k="source" v="UMP-PL, ./UMP-Szczecin/src/PYRZYCE.ulice.txt"/>
  </way>
  <way id="23551309" version="3" timestamp="2010-05-03T13:14:22Z" uid="30632" user="antblant" changeset="4594743">
    <nd ref="255018653"/>
    <nd ref="255018654"/>
    <nd ref="255018655"/>
    <nd ref="255018656"/>
    <nd ref="255018657"/>
    <nd ref="718692840"/>
    <tag k="highway" v="residential"/>
    <tag k="name" v="2 Marca"/>
    <tag k="source" v="UMP-PL, ./UMP-Szczecin/src/PYRZYCE.ulice.txt"/>
  </way>
  <way id="23551309" version="4" timestamp="2010-05-03T13:54:37Z" uid="30632" user="antblant" changeset="4595091">
    <nd ref="255018653"/>
    <nd ref="255018654"/>
    <nd ref="255018655"/>
    <nd ref="255018656"/>
    <nd ref="255018657"/>
    <nd ref="718692840"/>
    <tag k="highway" v="residential"/>
    <tag k="name" v="2 Marca"/>
    <tag k="source" v="UMP-PL, ./UMP-Szczecin/src/PYRZYCE.ulice.txt"/>
  </way>
  <way id="23551310" version="1" timestamp="2008-03-30T23:26:16Z" uid="30632" user="antblant" changeset="438409">
    <nd ref="255018594"/>
    <nd ref="255018861"/>
    <nd ref="255018860"/>
    <nd ref="255018676"/>
    <tag k="created_by" v="JOSM"/>
    <tag k="highway" v="residential"/>
    <tag k="name" v="Owocowa"/>
    <tag k="source" v="UMP-PL, ./UMP-Szczecin/src/PYRZYCE.ulice.txt"/>
  </way>
  <way id="23551310" version="2" timestamp="2009-11-03T15:13:51Z" uid="36809" user="pfoten_weg_!_" changeset="3025069">
    <nd ref="255018594"/>
    <nd ref="255018861"/>
    <nd ref="255018860"/>
    <nd ref="255018676"/>
    <tag k="highway" v="residential"/>
    <tag k="name" v="Owocowa"/>
    <tag k="source" v="UMP-PL, ./UMP-Szczecin/src/PYRZYCE.ulice.txt"/>
  </way>
  <way id="23551311" version="1" timestamp="2008-03-30T23:26:16Z" uid="30632" user="antblant" changeset="438409">
    <nd ref="255018733"/>
    <nd ref="255018745"/>
    <nd ref="255018746"/>
    <nd ref="255018744"/>
    <nd ref="255018507"/>
    <tag k="created_by" v="JOSM"/>
    <tag k="highway" v="residential"/>
    <tag k="name" v="Dworcowa"/>
    <tag k="source" v="UMP-PL, ./UMP-Szczecin/src/PYRZYCE.ulice.txt"/>
  </way>
  <way id="23551311" version="2" timestamp="2009-11-03T15:14:33Z" uid="36809" user="pfoten_weg_!_" changeset="3025069">
    <nd ref="255018733"/>
    <nd ref="255018745"/>
    <nd ref="255018746"/>
    <nd ref="255018744"/>
    <nd ref="255018507"/>
    <tag k="highway" v="residential"/>
    <tag k="name" v="Dworcowa"/>
    <tag k="source" v="UMP-PL, ./UMP-Szczecin/src/PYRZYCE.ulice.txt"/>
  </way>
  <way id="23551311" version="3" timestamp="2010-05-03T13:14:24Z" uid="30632" user="antblant" changeset="4594743">
    <nd ref="255018733"/>
    <nd ref="718692844"/>
    <nd ref="255018745"/>
    <nd ref="255018746"/>
    <nd ref="255018744"/>
    <nd ref="718692809"/>
    <nd ref="718692797"/>
    <tag k="highway" v="residential"/>
    <tag k="name" v="Dworcowa"/>
    <tag k="source" v="UMP-PL, ./UMP-Szczecin/src/PYRZYCE.ulice.txt"/>
  </way>
  <way id="23551312" version="1" timestamp="2008-03-30T23:26:17Z" uid="30632" user="antblant" changeset="438409">
    <nd ref="255018599"/>
    <nd ref="255018591"/>
    <nd ref="255018594"/>
    <nd ref="255018593"/>
    <nd ref="255018606"/>
    <nd ref="255018607"/>
    <tag k="created_by" v="JOSM"/>
    <tag k="highway" v="residential"/>
    <tag k="name" v="Górna"/>
    <tag k="source" v="UMP-PL, ./UMP-Szczecin/src/PYRZYCE.ulice.txt"/>
  </way>
  <way id="23551312" version="2" timestamp="2009-11-03T15:13:54Z" uid="36809" user="pfoten_weg_!_" changeset="3025069">
    <nd ref="255018599"/>
    <nd ref="255018591"/>
    <nd ref="255018594"/>
    <nd ref="255018593"/>
    <nd ref="255018606"/>
    <nd ref="255018607"/>
    <tag k="highway" v="residential"/>
    <tag k="name" v="Górna"/>
    <tag k="source" v="UMP-PL, ./UMP-Szczecin/src/PYRZYCE.ulice.txt"/>
  </way>
  <way id="23551313" version="1" timestamp="2008-03-30T23:26:17Z" uid="30632" user="antblant" changeset="438409">
    <nd ref="255018806"/>
    <nd ref="255018805"/>
    <nd ref="255018814"/>
    <nd ref="255018808"/>
    <nd ref="255018807"/>
    <tag k="created_by" v="JOSM"/>
    <tag k="highway" v="unclassified"/>
    <tag k="name" v="Juliusza Słowackiego"/>
    <tag k="source" v="UMP-PL, ./UMP-Szczecin/src/PYRZYCE.ulice.txt"/>
    <tag k="surface" v="unpaved"/>
  </way>
  <way id="23551313" version="2" timestamp="2009-11-03T15:13:34Z" uid="36809" user="pfoten_weg_!_" changeset="3025069">
    <nd ref="255018806"/>
    <nd ref="255018805"/>
    <nd ref="255018814"/>
    <nd ref="255018808"/>
    <nd ref="255018807"/>
    <tag k="highway" v="unclassified"/>
    <tag k="name" v="Juliusza Słowackiego"/>
    <tag k="source" v="UMP-PL, ./UMP-Szczecin/src/PYRZYCE.ulice.txt"/>
    <tag k="surface" v="unpaved"/>
  </way>
  <way id="23551314" version="1" timestamp="2008-03-30T23:26:17Z" uid="30632" user="antblant" changeset="438409">
    <nd ref="255018616"/>
    <nd ref="255018521"/>
    <tag k="created_by" v="JOSM"/>
    <tag k="highway" v="residential"/>
    <tag k="name" v="Plac Ratuszowy"/>
    <tag k="source" v="UMP-PL, ./UMP-Szczecin/src/PYRZYCE.ulice.txt"/>
  </way>
  <way id="23551314" version="2" timestamp="2009-11-03T15:14:51Z" uid="36809" user="pfoten_weg_!_" changeset="3025069">
    <nd ref="255018616"/>
    <nd ref="255018521"/>
    <tag k="highway" v="residential"/>
    <tag k="name" v="Plac Ratuszowy"/>
    <tag k="source" v="UMP-PL, ./UMP-Szczecin/src/PYRZYCE.ulice.txt"/>
  </way>
  <way id="23551314" version="3" timestamp="2010-05-03T12:43:02Z" uid="30632" user="antblant" changeset="4594441">
    <nd ref="255018616"/>
    <nd ref="718674228"/>
    <nd ref="255018521"/>
    <tag k="highway" v="residential"/>
    <tag k="name" v="Plac Ratuszowy"/>
    <tag k="source" v="UMP-PL, ./UMP-Szczecin/src/PYRZYCE.ulice.txt"/>
  </way>
  <way id="23551314" version="4" timestamp="2010-05-03T13:54:39Z" uid="30632" user="antblant" changeset="4595091">
    <nd ref="255018616"/>
    <nd ref="718773631"/>
    <nd ref="718674228"/>
    <nd ref="255018521"/>
    <tag k="highway" v="residential"/>
    <tag k="name" v="Plac Ratuszowy"/>
    <tag k="source" v="UMP-PL, ./UMP-Szczecin/src/PYRZYCE.ulice.txt"/>
  </way>
  <way id="23551315" version="1" timestamp="2008-03-30T23:26:18Z" uid="30632" user="antblant" changeset="438409">
    <nd ref="255018610"/>
    <nd ref="255018858"/>
    <nd ref="255018856"/>
    <nd ref="255018957"/>
    <nd ref="255018958"/>
    <nd ref="255018959"/>
    <nd ref="255018960"/>
    <nd ref="255018953"/>
    <tag k="created_by" v="JOSM"/>
    <tag k="highway" v="residential"/>
    <tag k="name" v="Polna"/>
    <tag k="source" v="UMP-PL, ./UMP-Szczecin/src/PYRZYCE.ulice.txt"/>
  </way>
  <way id="23551315" version="2" timestamp="2009-11-03T15:15:03Z" uid="36809" user="pfoten_weg_!_" changeset="3025069">
    <nd ref="255018610"/>
    <nd ref="255018858"/>
    <nd ref="255018856"/>
    <nd ref="255018957"/>
    <nd ref="255018958"/>
    <nd ref="255018959"/>
    <nd ref="255018960"/>
    <nd ref="255018953"/>
    <tag k="highway" v="residential"/>
    <tag k="name" v="Polna"/>
    <tag k="source" v="UMP-PL, ./UMP-Szczecin/src/PYRZYCE.ulice.txt"/>
  </way>
  <way id="23551316" version="1" timestamp="2008-03-30T23:26:18Z" uid="30632" user="antblant" changeset="438409">
    <nd ref="255018724"/>
    <nd ref="255018750"/>
    <nd ref="255018749"/>
    <nd ref="255018748"/>
    <nd ref="255018747"/>
    <nd ref="255018746"/>
    <tag k="created_by" v="JOSM"/>
    <tag k="highway" v="residential"/>
    <tag k="name" v="Tadeusza Rejtana"/>
    <tag k="source" v="UMP-PL, ./UMP-Szczecin/src/PYRZYCE.ulice.txt"/>
  </way>
  <way id="23551316" version="2" timestamp="2009-11-03T15:14:35Z" uid="36809" user="pfoten_weg_!_" changeset="3025069">
    <nd ref="255018724"/>
    <nd ref="255018750"/>
    <nd ref="255018749"/>
    <nd ref="255018748"/>
    <nd ref="255018747"/>
    <nd ref="255018746"/>
    <tag k="highway" v="residential"/>
    <tag k="name" v="Tadeusza Rejtana"/>
    <tag k="source" v="UMP-PL, ./UMP-Szczecin/src/PYRZYCE.ulice.txt"/>
  </way>
  <way id="23551317" version="1" timestamp="2008-03-30T23:26:19Z" uid="30632" user="antblant" changeset="438409">
    <nd ref="255018590"/>
    <nd ref="255018599"/>
    <nd ref="255018598"/>
    <nd ref="255018592"/>
    <tag k="created_by" v="JOSM"/>
    <tag k="highway" v="residential"/>
    <tag k="name" v="Jana Dąbrowskiego"/>
    <tag k="source" v="UMP-PL, ./UMP-Szczecin/src/PYRZYCE.ulice.txt"/>
  </way>
  <way id="23551317" version="2" timestamp="2009-11-03T15:14:51Z" uid="36809" user="pfoten_weg_!_" changeset="3025069">
    <nd ref="255018590"/>
    <nd ref="255018599"/>
    <nd ref="255018598"/>
    <nd ref="255018592"/>
    <tag k="highway" v="residential"/>
    <tag k="name" v="Jana Dąbrowskiego"/>
    <tag k="source" v="UMP-PL, ./UMP-Szczecin/src/PYRZYCE.ulice.txt"/>
  </way>
  <way id="23551318" version="1" timestamp="2008-03-30T23:26:19Z" uid="30632" user="antblant" changeset="438409">
    <nd ref="255018609"/>
    <nd ref="255018954"/>
    <nd ref="255018955"/>
    <nd ref="255018956"/>
    <nd ref="255018593"/>
    <tag k="created_by" v="JOSM"/>
    <tag k="highway" v="residential"/>
    <tag k="source" v="UMP-PL, ./UMP-Szczecin/src/PYRZYCE.ulice.txt"/>
  </way>
  <way id="23551318" version="2" timestamp="2009-11-03T15:15:02Z" uid="36809" user="pfoten_weg_!_" changeset="3025069">
    <nd ref="255018609"/>
    <nd ref="255018954"/>
    <nd ref="255018955"/>
    <nd ref="255018956"/>
    <nd ref="255018593"/>
    <tag k="highway" v="residential"/>
    <tag k="source" v="UMP-PL, ./UMP-Szczecin/src/PYRZYCE.ulice.txt"/>
  </way>
  <way id="23551319" version="1" timestamp="2008-03-30T23:26:19Z" uid="30632" user="antblant" changeset="438409">
    <nd ref="255018577"/>
    <nd ref="255018778"/>
    <nd ref="255018775"/>
    <nd ref="255018776"/>
    <nd ref="255018773"/>
    <tag k="created_by" v="JOSM"/>
    <tag k="highway" v="residential"/>
    <tag k="name" v="Adama Mickiewicza"/>
    <tag k="source" v="UMP-PL, ./UMP-Szczecin/src/PYRZYCE.ulice.txt"/>
  </way>
  <way id="23551319" version="2" timestamp="2009-11-03T15:14:22Z" uid="36809" user="pfoten_weg_!_" changeset="3025069">
    <nd ref="255018577"/>
    <nd ref="255018778"/>
    <nd ref="255018775"/>
    <nd ref="255018776"/>
    <nd ref="255018773"/>
    <tag k="highway" v="residential"/>
    <tag k="name" v="Adama Mickiewicza"/>
    <tag k="source" v="UMP-PL, ./UMP-Szczecin/src/PYRZYCE.ulice.txt"/>
  </way>
  <way id="23551320" version="1" timestamp="2008-03-30T23:26:20Z" uid="30632" user="antblant" changeset="438409">
    <nd ref="255018792"/>
    <nd ref="255018791"/>
    <nd ref="255018790"/>
    <nd ref="255018789"/>
    <tag k="created_by" v="JOSM"/>
    <tag k="highway" v="service"/>
    <tag k="name" v="Adama Mickiewicza"/>
    <tag k="source" v="UMP-PL, ./UMP-Szczecin/src/PYRZYCE.ulice.txt"/>
  </way>
  <way id="23551320" version="2" timestamp="2009-11-03T15:14:24Z" uid="36809" user="pfoten_weg_!_" changeset="3025069">
    <nd ref="255018792"/>
    <nd ref="255018791"/>
    <nd ref="255018790"/>
    <nd ref="255018789"/>
    <tag k="highway" v="service"/>
    <tag k="name" v="Adama Mickiewicza"/>
    <tag k="source" v="UMP-PL, ./UMP-Szczecin/src/PYRZYCE.ulice.txt"/>
  </way>
  <way id="23551321" version="1" timestamp="2008-03-30T23:26:20Z" uid="30632" user="antblant" changeset="438409">
    <nd ref="255018619"/>
    <nd ref="255018659"/>
    <nd ref="255018660"/>
    <nd ref="255018661"/>
    <nd ref="255018681"/>
    <nd ref="255018680"/>
    <nd ref="255018679"/>
    <nd ref="255018678"/>
    <nd ref="255018685"/>
    <nd ref="255018684"/>
    <nd ref="255018683"/>
    <nd ref="255018682"/>
    <nd ref="255018673"/>
    <nd ref="255018672"/>
    <nd ref="255018671"/>
    <tag k="created_by" v="JOSM"/>
    <tag k="highway" v="residential"/>
    <tag k="name" v="Ciepłownicza"/>
    <tag k="source" v="UMP-PL, ./UMP-Szczecin/src/PYRZYCE.ulice.txt"/>
  </way>
  <way id="23551321" version="2" timestamp="2009-11-03T15:13:57Z" uid="36809" user="pfoten_weg_!_" changeset="3025069">
    <nd ref="255018619"/>
    <nd ref="255018659"/>
    <nd ref="255018660"/>
    <nd ref="255018661"/>
    <nd ref="255018681"/>
    <nd ref="255018680"/>
    <nd ref="255018679"/>
    <nd ref="255018678"/>
    <nd ref="255018685"/>
    <nd ref="255018684"/>
    <nd ref="255018683"/>
    <nd ref="255018682"/>
    <nd ref="255018673"/>
    <nd ref="255018672"/>
    <nd ref="255018671"/>
    <tag k="highway" v="residential"/>
    <tag k="name" v="Ciepłownicza"/>
    <tag k="source" v="UMP-PL, ./UMP-Szczecin/src/PYRZYCE.ulice.txt"/>
  </way>
  <way id="23551321" version="3" timestamp="2010-05-03T13:54:39Z" uid="30632" user="antblant" changeset="4595091">
    <nd ref="255018619"/>
    <nd ref="255018659"/>
    <nd ref="255018660"/>
    <nd ref="255018661"/>
    <nd ref="255018681"/>
    <nd ref="255018680"/>
    <nd ref="255018679"/>
    <nd ref="718773604"/>
    <nd ref="255018678"/>
    <nd ref="255018685"/>
    <nd ref="255018684"/>
    <nd ref="255018683"/>
    <nd ref="255018682"/>
    <nd ref="255018673"/>
    <nd ref="255018672"/>
    <nd ref="255018671"/>
    <tag k="highway" v="residential"/>
    <tag k="name" v="Ciepłownicza"/>
    <tag k="source" v="UMP-PL, ./UMP-Szczecin/src/PYRZYCE.ulice.txt"/>
  </way>
  <way id="23551322" version="1" timestamp="2008-03-30T23:26:20Z" uid="30632" user="antblant" changeset="438409">
    <nd ref="255018523"/>
    <nd ref="255018631"/>
    <nd ref="255018972"/>
    <nd ref="255018969"/>
    <nd ref="255018970"/>
    <nd ref="255018973"/>
    <nd ref="255018592"/>
    <tag k="created_by" v="JOSM"/>
    <tag k="highway" v="residential"/>
    <tag k="name" v="Jana Dąbrowskiego"/>
    <tag k="source" v="UMP-PL, ./UMP-Szczecin/src/PYRZYCE.ulice.txt"/>
  </way>
  <way id="23551322" version="2" timestamp="2009-11-03T15:14:42Z" uid="36809" user="pfoten_weg_!_" changeset="3025069">
    <nd ref="255018523"/>
    <nd ref="255018631"/>
    <nd ref="255018972"/>
    <nd ref="255018969"/>
    <nd ref="255018970"/>
    <nd ref="255018973"/>
    <nd ref="255018592"/>
    <tag k="highway" v="residential"/>
    <tag k="name" v="Jana Dąbrowskiego"/>
    <tag k="source" v="UMP-PL, ./UMP-Szczecin/src/PYRZYCE.ulice.txt"/>
  </way>
  <way id="23551322" version="3" timestamp="2010-05-03T12:49:39Z" uid="30632" user="antblant" changeset="4594441">
    <nd ref="255018523"/>
    <nd ref="718675984"/>
    <nd ref="255018631"/>
    <nd ref="255018972"/>
    <nd ref="255018969"/>
    <nd ref="255018970"/>
    <nd ref="255018973"/>
    <nd ref="255018592"/>
    <tag k="highway" v="residential"/>
    <tag k="name" v="Jana Dąbrowskiego"/>
    <tag k="source" v="UMP-PL, ./UMP-Szczecin/src/PYRZYCE.ulice.txt"/>
  </way>
  <way id="23551323" version="1" timestamp="2008-03-30T23:26:21Z" uid="30632" user="antblant" changeset="438409">
    <nd ref="255018590"/>
    <nd ref="255018589"/>
    <nd ref="255018584"/>
    <nd ref="255018583"/>
    <nd ref="255018518"/>
    <nd ref="255018586"/>
    <nd ref="255018585"/>
    <nd ref="255018596"/>
    <nd ref="255018595"/>
    <tag k="created_by" v="JOSM"/>
    <tag k="highway" v="residential"/>
    <tag k="name" v="Zabytkowa"/>
    <tag k="source" v="UMP-PL, ./UMP-Szczecin/src/PYRZYCE.ulice.txt"/>
  </way>
  <way id="23551323" version="2" timestamp="2009-11-03T15:14:42Z" uid="36809" user="pfoten_weg_!_" changeset="3025069">
    <nd ref="255018590"/>
    <nd ref="255018589"/>
    <nd ref="255018584"/>
    <nd ref="255018583"/>
    <nd ref="255018518"/>
    <nd ref="255018586"/>
    <nd ref="255018585"/>
    <nd ref="255018596"/>
    <nd ref="255018595"/>
    <tag k="highway" v="residential"/>
    <tag k="name" v="Zabytkowa"/>
    <tag k="source" v="UMP-PL, ./UMP-Szczecin/src/PYRZYCE.ulice.txt"/>
  </way>
  <way id="23551323" version="3" timestamp="2010-05-03T11:21:40Z" uid="30632" user="antblant" changeset="4593823">
    <nd ref="255018590"/>
    <nd ref="255018589"/>
    <nd ref="255018584"/>
    <nd ref="255018583"/>
    <nd ref="255018518"/>
    <nd ref="255018586"/>
    <nd ref="255018596"/>
    <nd ref="255018595"/>
    <tag k="highway" v="residential"/>
    <tag k="name" v="Zabytkowa"/>
    <tag k="source" v="UMP-PL, ./UMP-Szczecin/src/PYRZYCE.ulice.txt"/>
  </way>
  <way id="23551323" version="4" timestamp="2010-05-03T11:43:39Z" uid="30632" user="antblant" changeset="4593823">
    <nd ref="255018590"/>
    <nd ref="255018589"/>
    <nd ref="255018584"/>
    <nd ref="255018583"/>
    <nd ref="718627240"/>
    <nd ref="255018518"/>
    <nd ref="255018586"/>
    <nd ref="255018596"/>
    <nd ref="255018595"/>
    <tag k="highway" v="residential"/>
    <tag k="name" v="Zabytkowa"/>
    <tag k="source" v="UMP-PL, ./UMP-Szczecin/src/PYRZYCE.ulice.txt"/>
  </way>
  <way id="23551323" version="5" timestamp="2010-05-03T12:43:01Z" uid="30632" user="antblant" changeset="4594441">
    <nd ref="255018590"/>
    <nd ref="255018589"/>
    <nd ref="255018584"/>
    <nd ref="255018583"/>
    <nd ref="718627240"/>
    <nd ref="255018518"/>
    <nd ref="718674142"/>
    <nd ref="255018586"/>
    <nd ref="255018596"/>
    <nd ref="255018595"/>
    <tag k="highway" v="residential"/>
    <tag k="name" v="Zabytkowa"/>
    <tag k="source" v="UMP-PL, ./UMP-Szczecin/src/PYRZYCE.ulice.txt"/>
  </way>
  <way id="23551324" version="1" timestamp="2008-03-30T23:26:21Z" uid="30632" user="antblant" changeset="438409">
    <nd ref="255018965"/>
    <nd ref="255018966"/>
    <nd ref="255018967"/>
    <nd ref="255018735"/>
    <tag k="created_by" v="JOSM"/>
    <tag k="highway" v="residential"/>
    <tag k="name" v="Żwirki i Wigury"/>
    <tag k="source" v="UMP-PL, ./UMP-Szczecin/src/PYRZYCE.ulice.txt"/>
  </way>
  <way id="23551324" version="3" timestamp="2009-11-03T15:14:36Z" uid="36809" user="pfoten_weg_!_" changeset="3025069">
    <nd ref="255018965"/>
    <nd ref="255018966"/>
    <nd ref="255018967"/>
    <nd ref="255018735"/>
    <tag k="highway" v="residential"/>
    <tag k="name" v="Franciszka Żwirki i Stanisława Wigury"/>
    <tag k="source" v="UMP-PL, ./UMP-Szczecin/src/PYRZYCE.ulice.txt"/>
  </way>
  <way id="23551325" version="1" timestamp="2008-03-30T23:26:22Z" uid="30632" user="antblant" changeset="438409">
    <nd ref="255018721"/>
    <nd ref="255018743"/>
    <nd ref="255018742"/>
    <nd ref="255018779"/>
    <nd ref="255018780"/>
    <nd ref="255018777"/>
    <nd ref="255018746"/>
    <tag k="created_by" v="JOSM"/>
    <tag k="highway" v="residential"/>
    <tag k="name" v="Dworcowa"/>
    <tag k="source" v="UMP-PL, ./UMP-Szczecin/src/PYRZYCE.ulice.txt"/>
  </way>
  <way id="23551325" version="2" timestamp="2009-11-03T15:14:37Z" uid="36809" user="pfoten_weg_!_" changeset="3025069">
    <nd ref="255018721"/>
    <nd ref="255018743"/>
    <nd ref="255018742"/>
    <nd ref="255018779"/>
    <nd ref="255018780"/>
    <nd ref="255018777"/>
    <nd ref="255018746"/>
    <tag k="highway" v="residential"/>
    <tag k="name" v="Dworcowa"/>
    <tag k="source" v="UMP-PL, ./UMP-Szczecin/src/PYRZYCE.ulice.txt"/>
  </way>
  <way id="23551326" version="1" timestamp="2008-03-30T23:26:22Z" uid="30632" user="antblant" changeset="438409">
    <nd ref="255018788"/>
    <nd ref="255018787"/>
    <nd ref="255018786"/>
    <nd ref="255018785"/>
    <tag k="created_by" v="JOSM"/>
    <tag k="highway" v="service"/>
    <tag k="name" v="Adama Mickiewicza"/>
    <tag k="source" v="UMP-PL, ./UMP-Szczecin/src/PYRZYCE.ulice.txt"/>
  </way>
  <way id="23551326" version="2" timestamp="2009-11-03T15:14:23Z" uid="36809" user="pfoten_weg_!_" changeset="3025069">
    <nd ref="255018788"/>
    <nd ref="255018787"/>
    <nd ref="255018786"/>
    <nd ref="255018785"/>
    <tag k="highway" v="service"/>
    <tag k="name" v="Adama Mickiewicza"/>
    <tag k="source" v="UMP-PL, ./UMP-Szczecin/src/PYRZYCE.ulice.txt"/>
  </way>
  <way id="23551327" version="1" timestamp="2008-03-30T23:26:22Z" uid="30632" user="antblant" changeset="438409">
    <nd ref="255018619"/>
    <nd ref="255018670"/>
    <nd ref="255018677"/>
    <nd ref="255018676"/>
    <nd ref="255018665"/>
    <nd ref="255018675"/>
    <nd ref="255018568"/>
    <tag k="created_by" v="JOSM"/>
    <tag k="highway" v="residential"/>
    <tag k="name" v="Poznańska"/>
    <tag k="source" v="UMP-PL, ./UMP-Szczecin/src/PYRZYCE.ulice.txt"/>
  </way>
  <way id="23551327" version="2" timestamp="2009-11-03T15:13:56Z" uid="36809" user="pfoten_weg_!_" changeset="3025069">
    <nd ref="255018619"/>
    <nd ref="255018670"/>
    <nd ref="255018677"/>
    <nd ref="255018676"/>
    <nd ref="255018665"/>
    <nd ref="255018675"/>
    <nd ref="255018568"/>
    <tag k="highway" v="residential"/>
    <tag k="name" v="Poznańska"/>
    <tag k="source" v="UMP-PL, ./UMP-Szczecin/src/PYRZYCE.ulice.txt"/>
  </way>
  <way id="23551328" version="1" timestamp="2008-03-30T23:26:23Z" uid="30632" user="antblant" changeset="438409">
    <nd ref="255018807"/>
    <nd ref="255018832"/>
    <nd ref="255018588"/>
    <tag k="created_by" v="JOSM"/>
    <tag k="highway" v="residential"/>
    <tag k="name" v="Juliusza Słowackiego"/>
    <tag k="source" v="UMP-PL, ./UMP-Szczecin/src/PYRZYCE.ulice.txt"/>
  </way>
  <way id="23551328" version="2" timestamp="2009-11-03T15:14:15Z" uid="36809" user="pfoten_weg_!_" changeset="3025069">
    <nd ref="255018807"/>
    <nd ref="255018832"/>
    <nd ref="255018588"/>
    <tag k="highway" v="residential"/>
    <tag k="name" v="Juliusza Słowackiego"/>
    <tag k="source" v="UMP-PL, ./UMP-Szczecin/src/PYRZYCE.ulice.txt"/>
  </way>
  <way id="23551329" version="1" timestamp="2008-03-30T23:26:23Z" uid="30632" user="antblant" changeset="438409">
    <nd ref="255018586"/>
    <nd ref="255018666"/>
    <nd ref="255018667"/>
    <nd ref="255018668"/>
    <nd ref="255018669"/>
    <tag k="created_by" v="JOSM"/>
    <tag k="highway" v="residential"/>
    <tag k="source" v="UMP-PL, ./UMP-Szczecin/src/PYRZYCE.ulice.txt"/>
  </way>
  <way id="23551329" version="2" timestamp="2009-11-03T15:14:46Z" uid="36809" user="pfoten_weg_!_" changeset="3025069">
    <nd ref="255018586"/>
    <nd ref="255018666"/>
    <nd ref="255018667"/>
    <nd ref="255018668"/>
    <nd ref="255018669"/>
    <tag k="highway" v="residential"/>
    <tag k="source" v="UMP-PL, ./UMP-Szczecin/src/PYRZYCE.ulice.txt"/>
  </way>
  <way id="23551330" version="1" timestamp="2008-03-30T23:26:23Z" uid="30632" user="antblant" changeset="438409">
    <nd ref="255018966"/>
    <nd ref="255018968"/>
    <nd ref="255018961"/>
    <nd ref="255018962"/>
    <tag k="created_by" v="JOSM"/>
    <tag k="highway" v="residential"/>
    <tag k="name" v="Żwirki i Wigury"/>
    <tag k="source" v="UMP-PL, ./UMP-Szczecin/src/PYRZYCE.ulice.txt"/>
  </way>
  <way id="23551330" version="3" timestamp="2009-11-03T15:14:39Z" uid="36809" user="pfoten_weg_!_" changeset="3025069">
    <nd ref="255018966"/>
    <nd ref="255018968"/>
    <nd ref="255018961"/>
    <nd ref="255018962"/>
    <tag k="highway" v="residential"/>
    <tag k="name" v="Franciszka Żwirki i Stanisława Wigury"/>
    <tag k="source" v="UMP-PL, ./UMP-Szczecin/src/PYRZYCE.ulice.txt"/>
  </way>
  <way id="23551331" version="1" timestamp="2008-03-30T23:26:24Z" uid="30632" user="antblant" changeset="438409">
    <nd ref="255018704"/>
    <nd ref="255018689"/>
    <tag k="created_by" v="JOSM"/>
    <tag k="highway" v="residential"/>
    <tag k="source" v="UMP-PL, ./UMP-Szczecin/src/PYRZYCE.ulice.txt"/>
  </way>
  <way id="23551331" version="2" timestamp="2009-11-03T15:15:04Z" uid="36809" user="pfoten_weg_!_" changeset="3025069">
    <nd ref="255018704"/>
    <nd ref="255018689"/>
    <tag k="highway" v="residential"/>
    <tag k="source" v="UMP-PL, ./UMP-Szczecin/src/PYRZYCE.ulice.txt"/>
  </way>
  <way id="23551332" version="1" timestamp="2008-03-30T23:26:24Z" uid="30632" user="antblant" changeset="438409">
    <nd ref="255018569"/>
    <nd ref="255018562"/>
    <nd ref="255018563"/>
    <nd ref="255018564"/>
    <nd ref="255018565"/>
    <nd ref="255018574"/>
    <nd ref="255018575"/>
    <nd ref="255018576"/>
    <nd ref="255018577"/>
    <nd ref="255018570"/>
    <nd ref="255018571"/>
    <nd ref="255018572"/>
    <nd ref="255018573"/>
    <nd ref="255018588"/>
    <nd ref="255018587"/>
    <nd ref="255018525"/>
    <tag k="created_by" v="JOSM"/>
    <tag k="highway" v="secondary"/>
    <tag k="name" v="Adama Mickiewicza"/>
    <tag k="ref" v="122"/>
    <tag k="source" v="UMP-PL, ./UMP-Szczecin/src/PYRZYCE.ulice.txt"/>
  </way>
  <way id="23551332" version="2" timestamp="2008-04-14T14:27:11Z" uid="30632" user="antblant" changeset="147527">
    <nd ref="254690252"/>
    <nd ref="255018562"/>
    <nd ref="255018563"/>
    <nd ref="255018564"/>
    <nd ref="255018565"/>
    <nd ref="255018574"/>
    <nd ref="255018575"/>
    <nd ref="255018576"/>
    <nd ref="255018577"/>
    <nd ref="255018570"/>
    <nd ref="255018571"/>
    <nd ref="255018572"/>
    <nd ref="255018573"/>
    <nd ref="255018588"/>
    <nd ref="255018587"/>
    <nd ref="255018525"/>
    <tag k="created_by" v="JOSM"/>
    <tag k="highway" v="secondary"/>
    <tag k="name" v="Adama Mickiewicza"/>
    <tag k="ref" v="122"/>
    <tag k="source" v="UMP-PL, ./UMP-Szczecin/src/PYRZYCE.ulice.txt"/>
  </way>
  <way id="23551332" version="4" timestamp="2010-05-03T10:44:32Z" uid="30632" user="antblant" changeset="4593563">
    <nd ref="254690252"/>
    <nd ref="534612114"/>
    <nd ref="718560497"/>
    <nd ref="255018562"/>
    <nd ref="255018563"/>
    <nd ref="255018564"/>
    <nd ref="255018565"/>
    <nd ref="255018574"/>
    <nd ref="255018575"/>
    <nd ref="255018576"/>
    <nd ref="255018577"/>
    <nd ref="255018570"/>
    <nd ref="255018571"/>
    <nd ref="255018572"/>
    <nd ref="255018573"/>
    <nd ref="255018588"/>
    <nd ref="255018587"/>
    <nd ref="255018525"/>
    <tag k="highway" v="secondary"/>
    <tag k="name" v="Adama Mickiewicza"/>
    <tag k="ref" v="122"/>
    <tag k="source" v="UMP-PL, ./UMP-Szczecin/src/PYRZYCE.ulice.txt"/>
  </way>
  <way id="23551332" version="5" timestamp="2010-05-03T11:21:42Z" uid="30632" user="antblant" changeset="4593823">
    <nd ref="254690252"/>
    <nd ref="534612114"/>
    <nd ref="718560497"/>
    <nd ref="255018562"/>
    <nd ref="255018563"/>
    <nd ref="255018564"/>
    <nd ref="718595119"/>
    <nd ref="255018565"/>
    <nd ref="255018574"/>
    <nd ref="255018575"/>
    <nd ref="255018576"/>
    <nd ref="255018577"/>
    <nd ref="255018570"/>
    <nd ref="718595078"/>
    <nd ref="255018571"/>
    <nd ref="718595073"/>
    <nd ref="255018572"/>
    <nd ref="255018573"/>
    <nd ref="255018588"/>
    <nd ref="255018587"/>
    <nd ref="718595128"/>
    <nd ref="255018525"/>
    <tag k="highway" v="secondary"/>
    <tag k="name" v="Adama Mickiewicza"/>
    <tag k="ref" v="122"/>
    <tag k="source" v="UMP-PL, ./UMP-Szczecin/src/PYRZYCE.ulice.txt"/>
  </way>
  <way id="23551332" version="6" timestamp="2010-05-03T12:43:01Z" uid="30632" user="antblant" changeset="4594441">
    <nd ref="254690252"/>
    <nd ref="534612114"/>
    <nd ref="718560497"/>
    <nd ref="255018562"/>
    <nd ref="255018563"/>
    <nd ref="255018564"/>
    <nd ref="718595119"/>
    <nd ref="255018565"/>
    <nd ref="255018574"/>
    <nd ref="255018575"/>
    <nd ref="255018576"/>
    <nd ref="255018577"/>
    <nd ref="255018570"/>
    <nd ref="718595078"/>
    <nd ref="255018571"/>
    <nd ref="718595073"/>
    <nd ref="255018572"/>
    <nd ref="255018573"/>
    <nd ref="255018588"/>
    <nd ref="255018587"/>
    <nd ref="718595128"/>
    <nd ref="718674238"/>
    <nd ref="718674190"/>
    <nd ref="255018525"/>
    <tag k="highway" v="secondary"/>
    <tag k="name" v="Adama Mickiewicza"/>
    <tag k="ref" v="122"/>
    <tag k="source" v="UMP-PL, ./UMP-Szczecin/src/PYRZYCE.ulice.txt"/>
  </way>
  <way id="23551333" version="1" timestamp="2008-03-30T23:26:24Z" uid="30632" user="antblant" changeset="438409">
    <nd ref="255018796"/>
    <nd ref="255018795"/>
    <nd ref="255018794"/>
    <nd ref="255018793"/>
    <tag k="created_by" v="JOSM"/>
    <tag k="highway" v="service"/>
    <tag k="name" v="Adama Mickiewicza"/>
    <tag k="source" v="UMP-PL, ./UMP-Szczecin/src/PYRZYCE.ulice.txt"/>
  </way>
  <way id="23551333" version="2" timestamp="2009-11-03T15:14:25Z" uid="36809" user="pfoten_weg_!_" changeset="3025069">
    <nd ref="255018796"/>
    <nd ref="255018795"/>
    <nd ref="255018794"/>
    <nd ref="255018793"/>
    <tag k="highway" v="service"/>
    <tag k="name" v="Adama Mickiewicza"/>
    <tag k="source" v="UMP-PL, ./UMP-Szczecin/src/PYRZYCE.ulice.txt"/>
  </way>
  <way id="23551334" version="1" timestamp="2008-03-30T23:26:25Z" uid="30632" user="antblant" changeset="438409">
    <nd ref="255018668"/>
    <nd ref="255018627"/>
    <nd ref="255018650"/>
    <tag k="created_by" v="JOSM"/>
    <tag k="highway" v="residential"/>
    <tag k="source" v="UMP-PL, ./UMP-Szczecin/src/PYRZYCE.ulice.txt"/>
  </way>
  <way id="23551334" version="2" timestamp="2009-11-03T15:14:45Z" uid="36809" user="pfoten_weg_!_" changeset="3025069">
    <nd ref="255018668"/>
    <nd ref="255018627"/>
    <nd ref="255018650"/>
    <tag k="highway" v="residential"/>
    <tag k="source" v="UMP-PL, ./UMP-Szczecin/src/PYRZYCE.ulice.txt"/>
  </way>
  <way id="23551336" version="1" timestamp="2008-03-30T23:26:25Z" uid="30632" user="antblant" changeset="438409">
    <nd ref="255018735"/>
    <nd ref="255018963"/>
    <tag k="created_by" v="JOSM"/>
    <tag k="highway" v="residential"/>
    <tag k="name" v="Magazynowa"/>
    <tag k="source" v="UMP-PL, ./UMP-Szczecin/src/PYRZYCE.ulice.txt"/>
  </way>
  <way id="23551336" version="2" timestamp="2009-11-03T15:14:54Z" uid="36809" user="pfoten_weg_!_" changeset="3025069">
    <nd ref="255018735"/>
    <nd ref="255018963"/>
    <tag k="highway" v="residential"/>
    <tag k="name" v="Magazynowa"/>
    <tag k="source" v="UMP-PL, ./UMP-Szczecin/src/PYRZYCE.ulice.txt"/>
  </way>
  <way id="23551337" version="1" timestamp="2008-03-30T23:26:26Z" uid="30632" user="antblant" changeset="438409">
    <nd ref="255018704"/>
    <nd ref="255018706"/>
    <nd ref="255018705"/>
    <tag k="created_by" v="JOSM"/>
    <tag k="highway" v="residential"/>
    <tag k="name" v="Willowa"/>
    <tag k="source" v="UMP-PL, ./UMP-Szczecin/src/PYRZYCE.ulice.txt"/>
  </way>
  <way id="23551337" version="2" timestamp="2009-11-03T15:13:58Z" uid="36809" user="pfoten_weg_!_" changeset="3025069">
    <nd ref="255018704"/>
    <nd ref="255018706"/>
    <nd ref="255018705"/>
    <tag k="highway" v="residential"/>
    <tag k="name" v="Willowa"/>
    <tag k="source" v="UMP-PL, ./UMP-Szczecin/src/PYRZYCE.ulice.txt"/>
  </way>
  <way id="23551338" version="1" timestamp="2008-03-30T23:26:26Z" uid="30632" user="antblant" changeset="438409">
    <nd ref="255018510"/>
    <nd ref="255018567"/>
    <nd ref="255018568"/>
    <tag k="created_by" v="JOSM"/>
    <tag k="highway" v="residential"/>
    <tag k="name" v="Plac Wolności"/>
    <tag k="source" v="UMP-PL, ./UMP-Szczecin/src/PYRZYCE.ulice.txt"/>
  </way>
  <way id="23551338" version="4" timestamp="2009-11-03T15:14:52Z" uid="36809" user="pfoten_weg_!_" changeset="3025069">
    <nd ref="255018510"/>
    <nd ref="255018567"/>
    <nd ref="255018568"/>
    <tag k="highway" v="residential"/>
    <tag k="name" v="Plac Wolności"/>
    <tag k="source" v="UMP-PL, ./UMP-Szczecin/src/PYRZYCE.ulice.txt"/>
  </way>
  <way id="23551339" version="1" timestamp="2008-03-30T23:26:27Z" uid="30632" user="antblant" changeset="438409">
    <nd ref="255018566"/>
    <nd ref="255018964"/>
    <nd ref="255018938"/>
    <nd ref="255018937"/>
    <nd ref="255018940"/>
    <nd ref="255018505"/>
    <tag k="created_by" v="JOSM"/>
    <tag k="highway" v="residential"/>
    <tag k="name" v="Gabriela Narutowicza"/>
    <tag k="source" v="UMP-PL, ./UMP-Szczecin/src/PYRZYCE.ulice.txt"/>
  </way>
  <way id="23551339" version="2" timestamp="2009-11-03T15:14:54Z" uid="36809" user="pfoten_weg_!_" changeset="3025069">
    <nd ref="255018566"/>
    <nd ref="255018964"/>
    <nd ref="255018938"/>
    <nd ref="255018937"/>
    <nd ref="255018940"/>
    <nd ref="255018505"/>
    <tag k="highway" v="residential"/>
    <tag k="name" v="Gabriela Narutowicza"/>
    <tag k="source" v="UMP-PL, ./UMP-Szczecin/src/PYRZYCE.ulice.txt"/>
  </way>
  <way id="23551340" version="1" timestamp="2008-03-30T23:26:27Z" uid="30632" user="antblant" changeset="438409">
    <nd ref="255018491"/>
    <nd ref="255018730"/>
    <nd ref="255018731"/>
    <nd ref="255018724"/>
    <nd ref="255018725"/>
    <nd ref="255018726"/>
    <nd ref="255018727"/>
    <nd ref="255018720"/>
    <nd ref="255018721"/>
    <nd ref="255018722"/>
    <nd ref="255018723"/>
    <nd ref="255018763"/>
    <nd ref="255018762"/>
    <nd ref="255018761"/>
    <nd ref="255018760"/>
    <nd ref="255018757"/>
    <nd ref="255018754"/>
    <nd ref="255018751"/>
    <tag k="created_by" v="JOSM"/>
    <tag k="highway" v="residential"/>
    <tag k="name" v="Tadeusza Kościuszki"/>
    <tag k="source" v="UMP-PL, ./UMP-Szczecin/src/PYRZYCE.ulice.txt"/>
  </way>
  <way id="23551340" version="2" timestamp="2009-11-03T15:14:13Z" uid="36809" user="pfoten_weg_!_" changeset="3025069">
    <nd ref="255018491"/>
    <nd ref="255018730"/>
    <nd ref="255018731"/>
    <nd ref="255018724"/>
    <nd ref="255018725"/>
    <nd ref="255018726"/>
    <nd ref="255018727"/>
    <nd ref="255018720"/>
    <nd ref="255018721"/>
    <nd ref="255018722"/>
    <nd ref="255018723"/>
    <nd ref="255018763"/>
    <nd ref="255018762"/>
    <nd ref="255018761"/>
    <nd ref="255018760"/>
    <nd ref="255018757"/>
    <nd ref="255018754"/>
    <nd ref="255018751"/>
    <tag k="highway" v="residential"/>
    <tag k="name" v="Tadeusza Kościuszki"/>
    <tag k="source" v="UMP-PL, ./UMP-Szczecin/src/PYRZYCE.ulice.txt"/>
  </way>
  <way id="23551340" version="3" timestamp="2010-05-03T11:21:42Z" uid="30632" user="antblant" changeset="4593823">
    <nd ref="255018491"/>
    <nd ref="718595064"/>
    <nd ref="255018731"/>
    <nd ref="255018724"/>
    <nd ref="255018725"/>
    <nd ref="255018726"/>
    <nd ref="255018727"/>
    <nd ref="255018720"/>
    <nd ref="255018721"/>
    <nd ref="255018722"/>
    <nd ref="255018723"/>
    <nd ref="255018763"/>
    <nd ref="255018762"/>
    <nd ref="255018761"/>
    <nd ref="255018760"/>
    <nd ref="255018757"/>
    <nd ref="255018754"/>
    <nd ref="255018751"/>
    <tag k="highway" v="residential"/>
    <tag k="name" v="Tadeusza Kościuszki"/>
    <tag k="source" v="UMP-PL, ./UMP-Szczecin/src/PYRZYCE.ulice.txt"/>
  </way>
  <way id="23551340" version="4" timestamp="2010-05-03T13:14:24Z" uid="30632" user="antblant" changeset="4594743">
    <nd ref="255018491"/>
    <nd ref="718692776"/>
    <nd ref="718595064"/>
    <nd ref="255018731"/>
    <nd ref="718692835"/>
    <nd ref="255018724"/>
    <nd ref="255018725"/>
    <nd ref="255018726"/>
    <nd ref="255018727"/>
    <nd ref="255018720"/>
    <nd ref="255018721"/>
    <nd ref="255018722"/>
    <nd ref="255018723"/>
    <nd ref="255018763"/>
    <nd ref="255018762"/>
    <nd ref="255018761"/>
    <nd ref="255018760"/>
    <nd ref="255018757"/>
    <nd ref="255018754"/>
    <nd ref="255018751"/>
    <tag k="highway" v="residential"/>
    <tag k="name" v="Tadeusza Kościuszki"/>
    <tag k="source" v="UMP-PL, ./UMP-Szczecin/src/PYRZYCE.ulice.txt"/>
  </way>
  <way id="23551341" version="1" timestamp="2008-03-30T23:26:28Z" uid="30632" user="antblant" changeset="438409">
    <nd ref="255018839"/>
    <nd ref="255018840"/>
    <tag k="created_by" v="JOSM"/>
    <tag k="highway" v="service"/>
    <tag k="name" v="Adama Mickiewicza"/>
    <tag k="source" v="UMP-PL, ./UMP-Szczecin/src/PYRZYCE.ulice.txt"/>
  </way>
  <way id="23551341" version="2" timestamp="2009-11-03T15:14:17Z" uid="36809" user="pfoten_weg_!_" changeset="3025069">
    <nd ref="255018839"/>
    <nd ref="255018840"/>
    <tag k="highway" v="service"/>
    <tag k="name" v="Adama Mickiewicza"/>
    <tag k="source" v="UMP-PL, ./UMP-Szczecin/src/PYRZYCE.ulice.txt"/>
  </way>
  <way id="23551342" version="1" timestamp="2008-03-30T23:26:28Z" uid="30632" user="antblant" changeset="438409">
    <nd ref="255018667"/>
    <nd ref="255018628"/>
    <tag k="created_by" v="JOSM"/>
    <tag k="highway" v="residential"/>
    <tag k="source" v="UMP-PL, ./UMP-Szczecin/src/PYRZYCE.ulice.txt"/>
  </way>
  <way id="23551342" version="2" timestamp="2009-11-03T15:14:47Z" uid="36809" user="pfoten_weg_!_" changeset="3025069">
    <nd ref="255018667"/>
    <nd ref="255018628"/>
    <tag k="highway" v="residential"/>
    <tag k="source" v="UMP-PL, ./UMP-Szczecin/src/PYRZYCE.ulice.txt"/>
  </way>
  <way id="23551343" version="1" timestamp="2008-03-30T23:26:28Z" uid="30632" user="antblant" changeset="438409">
    <nd ref="255018553"/>
    <nd ref="255018552"/>
    <nd ref="255018551"/>
    <nd ref="255018550"/>
    <nd ref="255018557"/>
    <nd ref="255018556"/>
    <nd ref="255018555"/>
    <nd ref="255018554"/>
    <nd ref="255018561"/>
    <nd ref="255018560"/>
    <nd ref="255018559"/>
    <nd ref="255018558"/>
    <nd ref="255018566"/>
    <nd ref="255018512"/>
    <tag k="created_by" v="JOSM"/>
    <tag k="highway" v="secondary"/>
    <tag k="name" v="Stargardzka"/>
    <tag k="ref" v="106"/>
    <tag k="source" v="UMP-PL, ./UMP-Szczecin/src/PYRZYCE.ulice.txt"/>
  </way>
  <way id="23551343" version="2" timestamp="2008-04-14T14:27:12Z" uid="30632" user="antblant" changeset="147527">
    <nd ref="254699415"/>
    <nd ref="255018552"/>
    <nd ref="255018551"/>
    <nd ref="255018550"/>
    <nd ref="255018557"/>
    <nd ref="255018556"/>
    <nd ref="255018555"/>
    <nd ref="255018554"/>
    <nd ref="255018561"/>
    <nd ref="255018560"/>
    <nd ref="255018559"/>
    <nd ref="255018558"/>
    <nd ref="255018566"/>
    <nd ref="255018512"/>
    <tag k="created_by" v="JOSM"/>
    <tag k="highway" v="secondary"/>
    <tag k="name" v="Stargardzka"/>
    <tag k="ref" v="106"/>
    <tag k="source" v="UMP-PL, ./UMP-Szczecin/src/PYRZYCE.ulice.txt"/>
  </way>
  <way id="23551343" version="3" timestamp="2009-11-03T14:48:43Z" uid="36809" user="pfoten_weg_!_" changeset="3025069">
    <nd ref="254699415"/>
    <nd ref="255018552"/>
    <nd ref="255018551"/>
    <nd ref="255018550"/>
    <nd ref="255018557"/>
    <nd ref="255018556"/>
    <nd ref="255018555"/>
    <nd ref="255018554"/>
    <nd ref="255018561"/>
    <nd ref="255018560"/>
    <nd ref="255018559"/>
    <nd ref="255018558"/>
    <nd ref="255018566"/>
    <nd ref="255018512"/>
    <tag k="highway" v="secondary"/>
    <tag k="name" v="Stargardzka"/>
    <tag k="ref" v="106"/>
    <tag k="source" v="UMP-PL, ./UMP-Szczecin/src/PYRZYCE.ulice.txt"/>
  </way>
  <way id="23551343" version="4" timestamp="2010-05-03T11:21:42Z" uid="30632" user="antblant" changeset="4593823">
    <nd ref="254699415"/>
    <nd ref="255018552"/>
    <nd ref="255018551"/>
    <nd ref="255018550"/>
    <nd ref="255018557"/>
    <nd ref="255018556"/>
    <nd ref="255018555"/>
    <nd ref="255018554"/>
    <nd ref="255018561"/>
    <nd ref="718595090"/>
    <nd ref="718595143"/>
    <nd ref="255018559"/>
    <nd ref="255018558"/>
    <nd ref="255018566"/>
    <nd ref="255018512"/>
    <tag k="highway" v="secondary"/>
    <tag k="name" v="Stargardzka"/>
    <tag k="ref" v="106"/>
    <tag k="source" v="UMP-PL, ./UMP-Szczecin/src/PYRZYCE.ulice.txt"/>
  </way>
  <way id="23551343" version="5" timestamp="2010-05-03T13:54:38Z" uid="30632" user="antblant" changeset="4595091">
    <nd ref="254699415"/>
    <nd ref="255018552"/>
    <nd ref="255018551"/>
    <nd ref="255018550"/>
    <nd ref="255018557"/>
    <nd ref="255018556"/>
    <nd ref="255018555"/>
    <nd ref="255018554"/>
    <nd ref="255018561"/>
    <nd ref="718773582"/>
    <tag k="highway" v="secondary"/>
    <tag k="name" v="Stargardzka"/>
    <tag k="ref" v="106"/>
    <tag k="source" v="UMP-PL, ./UMP-Szczecin/src/PYRZYCE.ulice.txt"/>
  </way>
  <way id="23551343" version="6" timestamp="2010-05-03T14:27:46Z" uid="30632" user="antblant" changeset="4595384">
    <nd ref="254699415"/>
    <nd ref="718835352"/>
    <nd ref="255018552"/>
    <nd ref="718835284"/>
    <nd ref="255018551"/>
    <nd ref="255018550"/>
    <nd ref="255018557"/>
    <nd ref="255018556"/>
    <nd ref="718835430"/>
    <nd ref="255018555"/>
    <nd ref="255018554"/>
    <nd ref="255018561"/>
    <nd ref="718773582"/>
    <tag k="highway" v="secondary"/>
    <tag k="name" v="Stargardzka"/>
    <tag k="ref" v="106"/>
    <tag k="source" v="UMP-PL, ./UMP-Szczecin/src/PYRZYCE.ulice.txt"/>
  </way>
  <way id="23551344" version="1" timestamp="2008-03-30T23:26:29Z" uid="30632" user="antblant" changeset="438409">
    <nd ref="255018940"/>
    <nd ref="255018939"/>
    <tag k="created_by" v="JOSM"/>
    <tag k="highway" v="residential"/>
    <tag k="source" v="UMP-PL, ./UMP-Szczecin/src/PYRZYCE.ulice.txt"/>
  </way>
  <way id="23551344" version="2" timestamp="2009-11-03T15:14:55Z" uid="36809" user="pfoten_weg_!_" changeset="3025069">
    <nd ref="255018940"/>
    <nd ref="255018939"/>
    <tag k="highway" v="residential"/>
    <tag k="source" v="UMP-PL, ./UMP-Szczecin/src/PYRZYCE.ulice.txt"/>
  </way>
  <way id="23551345" version="1" timestamp="2008-03-30T23:26:29Z" uid="30632" user="antblant" changeset="438409">
    <nd ref="255018507"/>
    <nd ref="255018733"/>
    <nd ref="255018735"/>
    <nd ref="255018738"/>
    <nd ref="255018741"/>
    <nd ref="255018728"/>
    <nd ref="255018729"/>
    <tag k="created_by" v="JOSM"/>
    <tag k="highway" v="primary"/>
    <tag k="name" v="Szczecińska"/>
    <tag k="ref" v="3"/>
    <tag k="source" v="UMP-PL, ./UMP-Szczecin/src/PYRZYCE.ulice.txt"/>
  </way>
  <way id="23551345" version="2" timestamp="2008-03-30T23:32:17Z" uid="30632" user="antblant" changeset="438409">
    <nd ref="255018507"/>
    <nd ref="255018733"/>
    <nd ref="255018735"/>
    <nd ref="255018738"/>
    <nd ref="255018741"/>
    <nd ref="255018728"/>
    <nd ref="255018729"/>
    <tag k="created_by" v="Potlatch 0.8a"/>
    <tag k="highway" v="primary"/>
    <tag k="int_ref" v="E65"/>
    <tag k="name" v="Szczecińska"/>
    <tag k="ref" v="3"/>
    <tag k="source" v="UMP-PL, ./UMP-Szczecin/src/PYRZYCE.ulice.txt"/>
  </way>
  <way id="23551345" version="3" timestamp="2008-04-14T14:27:13Z" uid="30632" user="antblant" changeset="147527">
    <nd ref="255018507"/>
    <nd ref="255018733"/>
    <nd ref="255018735"/>
    <nd ref="255018738"/>
    <nd ref="255018741"/>
    <nd ref="255018728"/>
    <nd ref="254715963"/>
    <tag k="created_by" v="Potlatch 0.8a"/>
    <tag k="highway" v="primary"/>
    <tag k="int_ref" v="E65"/>
    <tag k="name" v="Szczecińska"/>
    <tag k="ref" v="3"/>
    <tag k="source" v="UMP-PL, ./UMP-Szczecin/src/PYRZYCE.ulice.txt"/>
  </way>
  <way id="23551345" version="4" timestamp="2008-09-19T02:50:25Z" uid="30632" user="antblant" changeset="662817">
    <nd ref="255018507"/>
    <nd ref="255018733"/>
    <nd ref="255018735"/>
    <nd ref="255018738"/>
    <nd ref="255018741"/>
    <nd ref="255018728"/>
    <nd ref="254715963"/>
    <tag k="created_by" v="Potlatch 0.10b"/>
    <tag k="highway" v="primary"/>
    <tag k="name" v="Szczecińska"/>
    <tag k="ref" v="3"/>
    <tag k="source" v="UMP-PL, ./UMP-Szczecin/src/PYRZYCE.ulice.txt"/>
  </way>
  <way id="23551345" version="6" timestamp="2009-11-03T14:48:48Z" uid="36809" user="pfoten_weg_!_" changeset="3025069">
    <nd ref="255018507"/>
    <nd ref="255018733"/>
    <nd ref="255018735"/>
    <nd ref="255018738"/>
    <nd ref="255018741"/>
    <nd ref="255018728"/>
    <nd ref="254715963"/>
    <tag k="highway" v="primary"/>
    <tag k="int_ref" v="E 65"/>
    <tag k="name" v="Szczecińska"/>
    <tag k="ref" v="3"/>
    <tag k="source" v="UMP-PL, ./UMP-Szczecin/src/PYRZYCE.ulice.txt"/>
  </way>
  <way id="23551345" version="7" timestamp="2010-05-03T11:21:41Z" uid="30632" user="antblant" changeset="4593823">
    <nd ref="255018507"/>
    <nd ref="255018733"/>
    <nd ref="718595123"/>
    <nd ref="255018735"/>
    <nd ref="255018738"/>
    <nd ref="718595063"/>
    <nd ref="718595107"/>
    <nd ref="718595115"/>
    <nd ref="255018741"/>
    <nd ref="255018728"/>
    <nd ref="254715963"/>
    <tag k="highway" v="primary"/>
    <tag k="int_ref" v="E 65"/>
    <tag k="name" v="Szczecińska"/>
    <tag k="ref" v="3"/>
    <tag k="source" v="UMP-PL, ./UMP-Szczecin/src/PYRZYCE.ulice.txt"/>
  </way>
  <way id="23551345" version="8" timestamp="2010-05-03T13:14:23Z" uid="30632" user="antblant" changeset="4594743">
    <nd ref="255018733"/>
    <nd ref="718595123"/>
    <nd ref="255018735"/>
    <nd ref="255018738"/>
    <nd ref="718595063"/>
    <nd ref="718595107"/>
    <nd ref="718595115"/>
    <nd ref="255018741"/>
    <nd ref="255018728"/>
    <nd ref="254715963"/>
    <tag k="highway" v="primary"/>
    <tag k="int_ref" v="E 65"/>
    <tag k="name" v="Szczecińska"/>
    <tag k="ref" v="3"/>
    <tag k="source" v="UMP-PL, ./UMP-Szczecin/src/PYRZYCE.ulice.txt"/>
  </way>
  <way id="23551345" version="9" timestamp="2010-12-19T09:34:53Z" uid="30632" user="antblant" changeset="6703615">
    <nd ref="255018733"/>
    <nd ref="718595123"/>
    <nd ref="255018735"/>
    <nd ref="255018738"/>
    <nd ref="718595063"/>
    <nd ref="718595107"/>
    <nd ref="718595115"/>
    <nd ref="255018741"/>
    <nd ref="255018728"/>
    <nd ref="254715963"/>
    <tag k="highway" v="tertiary"/>
    <tag k="name" v="Szczecińska"/>
    <tag k="source" v="UMP-PL, ./UMP-Szczecin/src/PYRZYCE.ulice.txt"/>
  </way>
  <way id="23551346" version="1" timestamp="2008-03-30T23:26:29Z" uid="30632" user="antblant" changeset="438409">
    <nd ref="255018770"/>
    <nd ref="255018833"/>
    <nd ref="255018773"/>
    <nd ref="255018834"/>
    <nd ref="255018835"/>
    <nd ref="255018836"/>
    <nd ref="255018837"/>
    <nd ref="255018838"/>
    <tag k="created_by" v="JOSM"/>
    <tag k="highway" v="residential"/>
    <tag k="name" v="Basenowa"/>
    <tag k="source" v="UMP-PL, ./UMP-Szczecin/src/PYRZYCE.ulice.txt"/>
  </way>
  <way id="23551346" version="2" timestamp="2009-11-03T15:14:26Z" uid="36809" user="pfoten_weg_!_" changeset="3025069">
    <nd ref="255018770"/>
    <nd ref="255018833"/>
    <nd ref="255018773"/>
    <nd ref="255018834"/>
    <nd ref="255018835"/>
    <nd ref="255018836"/>
    <nd ref="255018837"/>
    <nd ref="255018838"/>
    <tag k="highway" v="residential"/>
    <tag k="name" v="Basenowa"/>
    <tag k="source" v="UMP-PL, ./UMP-Szczecin/src/PYRZYCE.ulice.txt"/>
  </way>
  <way id="23551347" version="1" timestamp="2008-03-30T23:26:30Z" uid="30632" user="antblant" changeset="438409">
    <nd ref="255018666"/>
    <nd ref="255018629"/>
    <tag k="created_by" v="JOSM"/>
    <tag k="highway" v="residential"/>
    <tag k="source" v="UMP-PL, ./UMP-Szczecin/src/PYRZYCE.ulice.txt"/>
  </way>
  <way id="23551347" version="2" timestamp="2009-11-03T15:14:48Z" uid="36809" user="pfoten_weg_!_" changeset="3025069">
    <nd ref="255018666"/>
    <nd ref="255018629"/>
    <tag k="highway" v="residential"/>
    <tag k="source" v="UMP-PL, ./UMP-Szczecin/src/PYRZYCE.ulice.txt"/>
  </way>
  <way id="23551348" version="1" timestamp="2008-03-30T23:26:30Z" uid="30632" user="antblant" changeset="438409">
    <nd ref="255018478"/>
    <nd ref="255018544"/>
    <nd ref="255018545"/>
    <nd ref="255018542"/>
    <nd ref="255018543"/>
    <nd ref="255018549"/>
    <nd ref="255018548"/>
    <nd ref="255018547"/>
    <nd ref="255018546"/>
    <tag k="created_by" v="JOSM"/>
    <tag k="highway" v="secondary"/>
    <tag k="name" v="Warszawska"/>
    <tag k="ref" v="122"/>
    <tag k="source" v="UMP-PL, ./UMP-Szczecin/src/PYRZYCE.ulice.txt"/>
  </way>
  <way id="23551348" version="2" timestamp="2008-04-14T14:27:13Z" uid="30632" user="antblant" changeset="147527">
    <nd ref="255018478"/>
    <nd ref="255018544"/>
    <nd ref="255018545"/>
    <nd ref="255018542"/>
    <nd ref="255018543"/>
    <nd ref="255018549"/>
    <nd ref="255018548"/>
    <nd ref="255018547"/>
    <nd ref="254708839"/>
    <tag k="created_by" v="JOSM"/>
    <tag k="highway" v="secondary"/>
    <tag k="name" v="Warszawska"/>
    <tag k="ref" v="122"/>
    <tag k="source" v="UMP-PL, ./UMP-Szczecin/src/PYRZYCE.ulice.txt"/>
  </way>
  <way id="23551348" version="4" timestamp="2009-11-03T15:13:59Z" uid="36809" user="pfoten_weg_!_" changeset="3025069">
    <nd ref="255018478"/>
    <nd ref="255018544"/>
    <nd ref="255018545"/>
    <nd ref="255018542"/>
    <nd ref="255018543"/>
    <nd ref="255018549"/>
    <nd ref="255018548"/>
    <nd ref="255018547"/>
    <nd ref="430385658"/>
    <nd ref="430385656"/>
    <nd ref="254708839"/>
    <tag k="highway" v="secondary"/>
    <tag k="name" v="Warszawska"/>
    <tag k="ref" v="122"/>
    <tag k="source" v="UMP-PL, ./UMP-Szczecin/src/PYRZYCE.ulice.txt"/>
  </way>
  <way id="23551349" version="1" timestamp="2008-03-30T23:26:30Z" uid="30632" user="antblant" changeset="438409">
    <nd ref="255018529"/>
    <nd ref="255018528"/>
    <nd ref="255018532"/>
    <nd ref="255018533"/>
    <nd ref="255018530"/>
    <nd ref="255018531"/>
    <nd ref="255018536"/>
    <nd ref="255018537"/>
    <nd ref="255018534"/>
    <nd ref="255018535"/>
    <nd ref="255018540"/>
    <nd ref="255018541"/>
    <nd ref="255018479"/>
    <nd ref="255018538"/>
    <nd ref="255018476"/>
    <nd ref="255018539"/>
    <nd ref="255018527"/>
    <tag k="created_by" v="JOSM"/>
    <tag k="highway" v="primary"/>
    <tag k="name" v="Lipiańska"/>
    <tag k="ref" v="3"/>
    <tag k="source" v="UMP-PL, ./UMP-Szczecin/src/PYRZYCE.ulice.txt"/>
  </way>
  <way id="23551349" version="2" timestamp="2008-03-30T23:31:29Z" uid="30632" user="antblant" changeset="438409">
    <nd ref="255018529"/>
    <nd ref="255018528"/>
    <nd ref="255018532"/>
    <nd ref="255018533"/>
    <nd ref="255018530"/>
    <nd ref="255018531"/>
    <nd ref="255018536"/>
    <nd ref="255018537"/>
    <nd ref="255018534"/>
    <nd ref="255018535"/>
    <nd ref="255018540"/>
    <nd ref="255018541"/>
    <nd ref="255018479"/>
    <nd ref="255018538"/>
    <nd ref="255018476"/>
    <nd ref="255018539"/>
    <nd ref="255018527"/>
    <tag k="created_by" v="Potlatch 0.8a"/>
    <tag k="highway" v="primary"/>
    <tag k="int_ref" v="E65"/>
    <tag k="name" v="Lipiańska"/>
    <tag k="ref" v="3"/>
    <tag k="source" v="UMP-PL, ./UMP-Szczecin/src/PYRZYCE.ulice.txt"/>
  </way>
  <way id="23551349" version="3" timestamp="2008-04-14T14:27:13Z" uid="30632" user="antblant" changeset="147527">
    <nd ref="254723626"/>
    <nd ref="255018528"/>
    <nd ref="255018532"/>
    <nd ref="255018533"/>
    <nd ref="255018530"/>
    <nd ref="255018531"/>
    <nd ref="255018536"/>
    <nd ref="255018537"/>
    <nd ref="255018534"/>
    <nd ref="255018535"/>
    <nd ref="255018540"/>
    <nd ref="255018541"/>
    <nd ref="255018479"/>
    <nd ref="255018538"/>
    <nd ref="255018476"/>
    <nd ref="255018539"/>
    <nd ref="255018527"/>
    <tag k="created_by" v="Potlatch 0.8a"/>
    <tag k="highway" v="primary"/>
    <tag k="int_ref" v="E65"/>
    <tag k="name" v="Lipiańska"/>
    <tag k="ref" v="3"/>
    <tag k="source" v="UMP-PL, ./UMP-Szczecin/src/PYRZYCE.ulice.txt"/>
  </way>
  <way id="23551349" version="4" timestamp="2008-09-19T02:51:34Z" uid="30632" user="antblant" changeset="662817">
    <nd ref="254723626"/>
    <nd ref="255018528"/>
    <nd ref="255018532"/>
    <nd ref="255018533"/>
    <nd ref="255018530"/>
    <nd ref="255018531"/>
    <nd ref="255018536"/>
    <nd ref="255018537"/>
    <nd ref="255018534"/>
    <nd ref="255018535"/>
    <nd ref="255018540"/>
    <nd ref="255018541"/>
    <nd ref="255018479"/>
    <nd ref="255018538"/>
    <nd ref="255018476"/>
    <nd ref="255018539"/>
    <nd ref="255018527"/>
    <tag k="created_by" v="Potlatch 0.10b"/>
    <tag k="highway" v="primary"/>
    <tag k="name" v="Lipiańska"/>
    <tag k="ref" v="3"/>
    <tag k="source" v="UMP-PL, ./UMP-Szczecin/src/PYRZYCE.ulice.txt"/>
  </way>
  <way id="23551349" version="6" timestamp="2009-11-03T14:48:48Z" uid="36809" user="pfoten_weg_!_" changeset="3025069">
    <nd ref="254723626"/>
    <nd ref="255018528"/>
    <nd ref="255018532"/>
    <nd ref="255018533"/>
    <nd ref="255018530"/>
    <nd ref="255018531"/>
    <nd ref="255018536"/>
    <nd ref="255018537"/>
    <nd ref="255018534"/>
    <nd ref="255018535"/>
    <nd ref="255018540"/>
    <nd ref="255018541"/>
    <nd ref="255018479"/>
    <nd ref="255018538"/>
    <nd ref="255018476"/>
    <nd ref="255018539"/>
    <nd ref="255018527"/>
    <tag k="highway" v="primary"/>
    <tag k="int_ref" v="E 65"/>
    <tag k="name" v="Lipiańska"/>
    <tag k="ref" v="3"/>
    <tag k="source" v="UMP-PL, ./UMP-Szczecin/src/PYRZYCE.ulice.txt"/>
  </way>
  <way id="23551349" version="7" timestamp="2010-05-03T12:43:01Z" uid="30632" user="antblant" changeset="4594441">
    <nd ref="254723626"/>
    <nd ref="255018528"/>
    <nd ref="255018532"/>
    <nd ref="255018533"/>
    <nd ref="255018530"/>
    <nd ref="255018531"/>
    <nd ref="255018536"/>
    <nd ref="255018537"/>
    <nd ref="255018534"/>
    <nd ref="255018535"/>
    <nd ref="255018540"/>
    <nd ref="255018541"/>
    <nd ref="718674169"/>
    <nd ref="255018479"/>
    <nd ref="255018538"/>
    <nd ref="255018476"/>
    <nd ref="718674247"/>
    <nd ref="255018539"/>
    <nd ref="255018527"/>
    <tag k="highway" v="primary"/>
    <tag k="int_ref" v="E 65"/>
    <tag k="name" v="Lipiańska"/>
    <tag k="ref" v="3"/>
    <tag k="source" v="UMP-PL, ./UMP-Szczecin/src/PYRZYCE.ulice.txt"/>
  </way>
  <way id="23551349" version="8" timestamp="2010-12-19T09:35:07Z" uid="30632" user="antblant" changeset="6703615">
    <nd ref="254723626"/>
    <nd ref="255018528"/>
    <nd ref="255018532"/>
    <nd ref="255018533"/>
    <nd ref="255018530"/>
    <nd ref="255018531"/>
    <nd ref="255018536"/>
    <nd ref="255018537"/>
    <nd ref="255018534"/>
    <nd ref="255018535"/>
    <nd ref="255018540"/>
    <nd ref="255018541"/>
    <nd ref="718674169"/>
    <nd ref="255018479"/>
    <nd ref="255018538"/>
    <nd ref="255018476"/>
    <nd ref="718674247"/>
    <nd ref="255018539"/>
    <nd ref="255018527"/>
    <tag k="highway" v="tertiary"/>
    <tag k="name" v="Lipiańska"/>
    <tag k="source" v="UMP-PL, ./UMP-Szczecin/src/PYRZYCE.ulice.txt"/>
  </way>
  <way id="23551350" version="1" timestamp="2008-03-30T23:26:31Z" uid="30632" user="antblant" changeset="438409">
    <nd ref="255018778"/>
    <nd ref="255018788"/>
    <nd ref="255018785"/>
    <nd ref="255018772"/>
    <nd ref="255018792"/>
    <nd ref="255018789"/>
    <nd ref="255018774"/>
    <nd ref="255018796"/>
    <nd ref="255018793"/>
    <nd ref="255018839"/>
    <nd ref="255018575"/>
    <tag k="created_by" v="JOSM"/>
    <tag k="highway" v="residential"/>
    <tag k="name" v="Adama Mickiewicza"/>
    <tag k="source" v="UMP-PL, ./UMP-Szczecin/src/PYRZYCE.ulice.txt"/>
  </way>
  <way id="23551350" version="2" timestamp="2009-11-03T15:14:19Z" uid="36809" user="pfoten_weg_!_" changeset="3025069">
    <nd ref="255018778"/>
    <nd ref="255018788"/>
    <nd ref="255018785"/>
    <nd ref="255018772"/>
    <nd ref="255018792"/>
    <nd ref="255018789"/>
    <nd ref="255018774"/>
    <nd ref="255018796"/>
    <nd ref="255018793"/>
    <nd ref="255018839"/>
    <nd ref="255018575"/>
    <tag k="highway" v="residential"/>
    <tag k="name" v="Adama Mickiewicza"/>
    <tag k="source" v="UMP-PL, ./UMP-Szczecin/src/PYRZYCE.ulice.txt"/>
  </way>
  <way id="23551351" version="1" timestamp="2008-03-30T23:26:31Z" uid="30632" user="antblant" changeset="438409">
    <nd ref="255018523"/>
    <nd ref="255018641"/>
    <nd ref="255018649"/>
    <nd ref="255018625"/>
    <nd ref="255018643"/>
    <tag k="created_by" v="JOSM"/>
    <tag k="highway" v="residential"/>
    <tag k="name" v="Szkolna"/>
    <tag k="source" v="UMP-PL, ./UMP-Szczecin/src/PYRZYCE.ulice.txt"/>
  </way>
  <way id="23551351" version="2" timestamp="2009-11-03T15:14:43Z" uid="36809" user="pfoten_weg_!_" changeset="3025069">
    <nd ref="255018523"/>
    <nd ref="255018641"/>
    <nd ref="255018649"/>
    <nd ref="255018625"/>
    <nd ref="255018643"/>
    <tag k="highway" v="residential"/>
    <tag k="name" v="Szkolna"/>
    <tag k="source" v="UMP-PL, ./UMP-Szczecin/src/PYRZYCE.ulice.txt"/>
  </way>
  <way id="23551351" version="3" timestamp="2010-05-03T12:49:39Z" uid="30632" user="antblant" changeset="4594441">
    <nd ref="255018523"/>
    <nd ref="718675974"/>
    <nd ref="255018641"/>
    <nd ref="255018649"/>
    <nd ref="255018625"/>
    <nd ref="255018643"/>
    <tag k="highway" v="residential"/>
    <tag k="name" v="Szkolna"/>
    <tag k="source" v="UMP-PL, ./UMP-Szczecin/src/PYRZYCE.ulice.txt"/>
  </way>
  <way id="23551351" version="4" timestamp="2010-05-03T13:14:25Z" uid="30632" user="antblant" changeset="4594743">
    <nd ref="255018523"/>
    <nd ref="718675974"/>
    <nd ref="255018641"/>
    <nd ref="255018649"/>
    <nd ref="255018625"/>
    <nd ref="718692840"/>
    <nd ref="255018643"/>
    <tag k="highway" v="residential"/>
    <tag k="name" v="Szkolna"/>
    <tag k="source" v="UMP-PL, ./UMP-Szczecin/src/PYRZYCE.ulice.txt"/>
  </way>
  <way id="23551351" version="5" timestamp="2010-05-03T13:54:40Z" uid="30632" user="antblant" changeset="4595091">
    <nd ref="255018523"/>
    <nd ref="718675974"/>
    <nd ref="255018641"/>
    <nd ref="255018649"/>
    <nd ref="255018625"/>
    <nd ref="718692840"/>
    <nd ref="255018643"/>
    <tag k="highway" v="residential"/>
    <tag k="name" v="Szkolna"/>
    <tag k="oneway" v="yes"/>
    <tag k="source" v="UMP-PL, ./UMP-Szczecin/src/PYRZYCE.ulice.txt"/>
  </way>
  <way id="23551352" version="1" timestamp="2008-03-30T23:26:32Z" uid="30632" user="antblant" changeset="438409">
    <nd ref="255018507"/>
    <nd ref="255018939"/>
    <tag k="created_by" v="JOSM"/>
    <tag k="highway" v="residential"/>
    <tag k="name" v="Pod Lipami"/>
    <tag k="source" v="UMP-PL, ./UMP-Szczecin/src/PYRZYCE.ulice.txt"/>
  </way>
  <way id="23551352" version="2" timestamp="2009-11-03T15:14:57Z" uid="36809" user="pfoten_weg_!_" changeset="3025069">
    <nd ref="255018507"/>
    <nd ref="255018939"/>
    <tag k="highway" v="residential"/>
    <tag k="name" v="Pod Lipami"/>
    <tag k="source" v="UMP-PL, ./UMP-Szczecin/src/PYRZYCE.ulice.txt"/>
  </way>
  <way id="23551352" version="3" timestamp="2010-05-03T13:14:25Z" uid="30632" user="antblant" changeset="4594743"/>
  <way id="23551353" version="1" timestamp="2008-03-30T23:26:32Z" uid="30632" user="antblant" changeset="438409">
    <nd ref="255018568"/>
    <nd ref="255018690"/>
    <nd ref="255018691"/>
    <nd ref="255018716"/>
    <nd ref="255018715"/>
    <nd ref="255018718"/>
    <nd ref="255018693"/>
    <tag k="created_by" v="JOSM"/>
    <tag k="highway" v="residential"/>
    <tag k="name" v="Jana Pawla II"/>
    <tag k="source" v="UMP-PL, ./UMP-Szczecin/src/PYRZYCE.ulice.txt"/>
  </way>
  <way id="23551353" version="3" timestamp="2009-11-03T15:14:38Z" uid="36809" user="pfoten_weg_!_" changeset="3025069">
    <nd ref="255018568"/>
    <nd ref="255018690"/>
    <nd ref="255018691"/>
    <nd ref="255018716"/>
    <nd ref="255018715"/>
    <nd ref="255018718"/>
    <nd ref="255018693"/>
    <tag k="highway" v="residential"/>
    <tag k="name" v="Jana Pawła II"/>
    <tag k="source" v="UMP-PL, ./UMP-Szczecin/src/PYRZYCE.ulice.txt"/>
  </way>
  <way id="23551354" version="1" timestamp="2008-03-30T23:26:32Z" uid="30632" user="antblant" changeset="438409">
    <nd ref="255018514"/>
    <nd ref="255018522"/>
    <nd ref="255018525"/>
    <nd ref="255018524"/>
    <nd ref="255018527"/>
    <nd ref="255018526"/>
    <nd ref="255018514"/>
    <tag k="created_by" v="JOSM"/>
    <tag k="highway" v="0xc"/>
    <tag k="junction" v="roundabout"/>
    <tag k="source" v="UMP-PL, ./UMP-Szczecin/src/PYRZYCE.ulice.txt"/>
  </way>
  <way id="23551354" version="2" timestamp="2008-09-19T02:51:27Z" uid="30632" user="antblant" changeset="662817">
    <nd ref="255018514"/>
    <nd ref="255018522"/>
    <nd ref="255018525"/>
    <nd ref="255018524"/>
    <nd ref="255018527"/>
    <nd ref="255018526"/>
    <nd ref="255018514"/>
    <tag k="created_by" v="Potlatch 0.10b"/>
    <tag k="highway" v="primary"/>
    <tag k="junction" v="roundabout"/>
    <tag k="ref" v="3"/>
    <tag k="source" v="UMP-PL, ./UMP-Szczecin/src/PYRZYCE.ulice.txt"/>
  </way>
  <way id="23551354" version="4" timestamp="2009-11-03T14:48:50Z" uid="36809" user="pfoten_weg_!_" changeset="3025069">
    <nd ref="255018514"/>
    <nd ref="255018522"/>
    <nd ref="255018525"/>
    <nd ref="255018524"/>
    <nd ref="255018527"/>
    <nd ref="255018526"/>
    <nd ref="255018514"/>
    <tag k="highway" v="primary"/>
    <tag k="int_ref" v="E 65"/>
    <tag k="junction" v="roundabout"/>
    <tag k="ref" v="3"/>
    <tag k="source" v="UMP-PL, ./UMP-Szczecin/src/PYRZYCE.ulice.txt"/>
  </way>
  <way id="23551354" version="5" timestamp="2010-12-19T09:34:38Z" uid="30632" user="antblant" changeset="6703615">
    <nd ref="255018514"/>
    <nd ref="255018522"/>
    <nd ref="255018525"/>
    <nd ref="255018524"/>
    <nd ref="255018527"/>
    <nd ref="255018526"/>
    <nd ref="255018514"/>
    <tag k="highway" v="tertiary"/>
    <tag k="junction" v="roundabout"/>
    <tag k="source" v="UMP-PL, ./UMP-Szczecin/src/PYRZYCE.ulice.txt"/>
  </way>
  <way id="23551355" version="1" timestamp="2008-03-30T23:26:33Z" uid="30632" user="antblant" changeset="438409">
    <nd ref="255018775"/>
    <nd ref="255018841"/>
    <nd ref="255018842"/>
    <nd ref="255018843"/>
    <nd ref="255018778"/>
    <tag k="created_by" v="JOSM"/>
    <tag k="highway" v="service"/>
    <tag k="name" v="Adama Mickiewicza"/>
    <tag k="source" v="UMP-PL, ./UMP-Szczecin/src/PYRZYCE.ulice.txt"/>
  </way>
  <way id="23551355" version="2" timestamp="2009-11-03T15:14:27Z" uid="36809" user="pfoten_weg_!_" changeset="3025069">
    <nd ref="255018775"/>
    <nd ref="255018841"/>
    <nd ref="255018842"/>
    <nd ref="255018843"/>
    <nd ref="255018778"/>
    <tag k="highway" v="service"/>
    <tag k="name" v="Adama Mickiewicza"/>
    <tag k="source" v="UMP-PL, ./UMP-Szczecin/src/PYRZYCE.ulice.txt"/>
  </way>
  <way id="23551356" version="1" timestamp="2008-03-30T23:26:33Z" uid="30632" user="antblant" changeset="438409">
    <nd ref="255018643"/>
    <nd ref="255018626"/>
    <nd ref="255018642"/>
    <nd ref="255018520"/>
    <tag k="created_by" v="JOSM"/>
    <tag k="highway" v="residential"/>
    <tag k="name" v="Księcia Barnima I"/>
    <tag k="source" v="UMP-PL, ./UMP-Szczecin/src/PYRZYCE.ulice.txt"/>
  </way>
  <way id="23551356" version="2" timestamp="2009-11-03T15:14:43Z" uid="36809" user="pfoten_weg_!_" changeset="3025069">
    <nd ref="255018643"/>
    <nd ref="255018626"/>
    <nd ref="255018642"/>
    <nd ref="255018520"/>
    <tag k="highway" v="residential"/>
    <tag k="name" v="Księcia Barnima I"/>
    <tag k="source" v="UMP-PL, ./UMP-Szczecin/src/PYRZYCE.ulice.txt"/>
  </way>
  <way id="23551356" version="3" timestamp="2010-05-03T12:43:01Z" uid="30632" user="antblant" changeset="4594441">
    <nd ref="255018643"/>
    <nd ref="255018626"/>
    <nd ref="255018642"/>
    <nd ref="718674173"/>
    <nd ref="255018520"/>
    <tag k="highway" v="residential"/>
    <tag k="name" v="Księcia Barnima I"/>
    <tag k="source" v="UMP-PL, ./UMP-Szczecin/src/PYRZYCE.ulice.txt"/>
  </way>
  <way id="23551356" version="4" timestamp="2010-05-03T13:54:38Z" uid="30632" user="antblant" changeset="4595091">
    <nd ref="255018643"/>
    <nd ref="255018626"/>
    <nd ref="255018642"/>
    <nd ref="718674173"/>
    <nd ref="255018520"/>
    <tag k="highway" v="residential"/>
    <tag k="name" v="Księcia Barnima I"/>
    <tag k="oneway" v="yes"/>
    <tag k="source" v="UMP-PL, ./UMP-Szczecin/src/PYRZYCE.ulice.txt"/>
  </way>
  <way id="23551357" version="1" timestamp="2008-03-30T23:26:34Z" uid="30632" user="antblant" changeset="438409">
    <nd ref="255018939"/>
    <nd ref="255018934"/>
    <nd ref="255018933"/>
    <nd ref="255018936"/>
    <nd ref="255018935"/>
    <nd ref="255018947"/>
    <nd ref="255018946"/>
    <nd ref="255018951"/>
    <nd ref="255018938"/>
    <tag k="created_by" v="JOSM"/>
    <tag k="highway" v="residential"/>
    <tag k="name" v="Pod Lipami"/>
    <tag k="source" v="UMP-PL, ./UMP-Szczecin/src/PYRZYCE.ulice.txt"/>
  </way>
  <way id="23551357" version="2" timestamp="2009-11-03T15:14:56Z" uid="36809" user="pfoten_weg_!_" changeset="3025069">
    <nd ref="255018939"/>
    <nd ref="255018934"/>
    <nd ref="255018933"/>
    <nd ref="255018936"/>
    <nd ref="255018935"/>
    <nd ref="255018947"/>
    <nd ref="255018946"/>
    <nd ref="255018951"/>
    <nd ref="255018938"/>
    <tag k="highway" v="residential"/>
    <tag k="name" v="Pod Lipami"/>
    <tag k="source" v="UMP-PL, ./UMP-Szczecin/src/PYRZYCE.ulice.txt"/>
  </way>
  <way id="23551357" version="3" timestamp="2010-05-03T13:14:24Z" uid="30632" user="antblant" changeset="4594743">
    <nd ref="255018938"/>
    <nd ref="255018951"/>
    <nd ref="255018946"/>
    <nd ref="255018947"/>
    <nd ref="255018935"/>
    <nd ref="255018936"/>
    <nd ref="255018933"/>
    <nd ref="255018934"/>
    <nd ref="255018939"/>
    <nd ref="255018733"/>
    <tag k="highway" v="residential"/>
    <tag k="name" v="Pod Lipami"/>
    <tag k="source" v="UMP-PL, ./UMP-Szczecin/src/PYRZYCE.ulice.txt"/>
  </way>
  <way id="23551358" version="1" timestamp="2008-03-30T23:26:34Z" uid="30632" user="antblant" changeset="438409">
    <nd ref="255018702"/>
    <nd ref="255018699"/>
    <nd ref="255018700"/>
    <nd ref="255018688"/>
    <nd ref="255018689"/>
    <nd ref="255018686"/>
    <nd ref="255018687"/>
    <nd ref="255018692"/>
    <nd ref="255018693"/>
    <nd ref="255018559"/>
    <tag k="created_by" v="JOSM"/>
    <tag k="highway" v="residential"/>
    <tag k="name" v="Ogrodowa"/>
    <tag k="source" v="UMP-PL, ./UMP-Szczecin/src/PYRZYCE.ulice.txt"/>
  </way>
  <way id="23551358" version="2" timestamp="2009-11-03T15:14:00Z" uid="36809" user="pfoten_weg_!_" changeset="3025069">
    <nd ref="255018702"/>
    <nd ref="255018699"/>
    <nd ref="255018700"/>
    <nd ref="255018688"/>
    <nd ref="255018689"/>
    <nd ref="255018686"/>
    <nd ref="255018687"/>
    <nd ref="255018692"/>
    <nd ref="255018693"/>
    <nd ref="255018559"/>
    <tag k="highway" v="residential"/>
    <tag k="name" v="Ogrodowa"/>
    <tag k="source" v="UMP-PL, ./UMP-Szczecin/src/PYRZYCE.ulice.txt"/>
  </way>
  <way id="23551359" version="1" timestamp="2008-03-30T23:26:34Z" uid="30632" user="antblant" changeset="438409">
    <nd ref="255018514"/>
    <nd ref="255018517"/>
    <nd ref="255018516"/>
    <nd ref="255018519"/>
    <nd ref="255018518"/>
    <nd ref="255018521"/>
    <nd ref="255018520"/>
    <nd ref="255018523"/>
    <nd ref="255018508"/>
    <tag k="created_by" v="JOSM"/>
    <tag k="highway" v="primary"/>
    <tag k="name" v="1 Maja"/>
    <tag k="ref" v="3"/>
    <tag k="source" v="UMP-PL, ./UMP-Szczecin/src/PYRZYCE.ulice.txt"/>
  </way>
  <way id="23551359" version="2" timestamp="2008-03-30T23:31:59Z" uid="30632" user="antblant" changeset="438409">
    <nd ref="255018514"/>
    <nd ref="255018517"/>
    <nd ref="255018516"/>
    <nd ref="255018519"/>
    <nd ref="255018518"/>
    <nd ref="255018521"/>
    <nd ref="255018520"/>
    <nd ref="255018523"/>
    <nd ref="255018508"/>
    <tag k="created_by" v="Potlatch 0.8a"/>
    <tag k="highway" v="primary"/>
    <tag k="int_ref" v="E65"/>
    <tag k="name" v="1 Maja"/>
    <tag k="ref" v="3"/>
    <tag k="source" v="UMP-PL, ./UMP-Szczecin/src/PYRZYCE.ulice.txt"/>
  </way>
  <way id="23551359" version="3" timestamp="2008-09-19T02:51:16Z" uid="30632" user="antblant" changeset="662817">
    <nd ref="255018514"/>
    <nd ref="255018517"/>
    <nd ref="255018516"/>
    <nd ref="255018519"/>
    <nd ref="255018518"/>
    <nd ref="255018521"/>
    <nd ref="255018520"/>
    <nd ref="255018523"/>
    <nd ref="255018508"/>
    <tag k="created_by" v="Potlatch 0.10b"/>
    <tag k="highway" v="primary"/>
    <tag k="name" v="1 Maja"/>
    <tag k="ref" v="3"/>
    <tag k="source" v="UMP-PL, ./UMP-Szczecin/src/PYRZYCE.ulice.txt"/>
  </way>
  <way id="23551359" version="5" timestamp="2009-11-03T14:48:52Z" uid="36809" user="pfoten_weg_!_" changeset="3025069">
    <nd ref="255018514"/>
    <nd ref="255018517"/>
    <nd ref="255018516"/>
    <nd ref="255018519"/>
    <nd ref="255018518"/>
    <nd ref="255018521"/>
    <nd ref="255018520"/>
    <nd ref="255018523"/>
    <nd ref="255018508"/>
    <tag k="highway" v="primary"/>
    <tag k="int_ref" v="E 65"/>
    <tag k="name" v="1 Maja"/>
    <tag k="ref" v="3"/>
    <tag k="source" v="UMP-PL, ./UMP-Szczecin/src/PYRZYCE.ulice.txt"/>
  </way>
  <way id="23551359" version="6" timestamp="2010-05-03T11:21:43Z" uid="30632" user="antblant" changeset="4593823">
    <nd ref="255018514"/>
    <nd ref="255018517"/>
    <nd ref="255018516"/>
    <nd ref="255018519"/>
    <nd ref="255018518"/>
    <nd ref="255018521"/>
    <nd ref="255018520"/>
    <nd ref="718595088"/>
    <nd ref="255018523"/>
    <nd ref="255018508"/>
    <tag k="highway" v="primary"/>
    <tag k="int_ref" v="E 65"/>
    <tag k="name" v="1 Maja"/>
    <tag k="ref" v="3"/>
    <tag k="source" v="UMP-PL, ./UMP-Szczecin/src/PYRZYCE.ulice.txt"/>
  </way>
  <way id="23551359" version="7" timestamp="2010-05-03T11:43:39Z" uid="30632" user="antblant" changeset="4593823">
    <nd ref="255018514"/>
    <nd ref="255018517"/>
    <nd ref="255018516"/>
    <nd ref="255018519"/>
    <nd ref="255018518"/>
    <nd ref="718627242"/>
    <nd ref="255018521"/>
    <nd ref="255018520"/>
    <nd ref="718595088"/>
    <nd ref="255018523"/>
    <nd ref="255018508"/>
    <tag k="highway" v="primary"/>
    <tag k="int_ref" v="E 65"/>
    <tag k="name" v="1 Maja"/>
    <tag k="ref" v="3"/>
    <tag k="source" v="UMP-PL, ./UMP-Szczecin/src/PYRZYCE.ulice.txt"/>
  </way>
  <way id="23551359" version="8" timestamp="2010-05-03T12:43:02Z" uid="30632" user="antblant" changeset="4594441">
    <nd ref="255018514"/>
    <nd ref="255018517"/>
    <nd ref="718674154"/>
    <nd ref="255018516"/>
    <nd ref="255018519"/>
    <nd ref="255018518"/>
    <nd ref="718627242"/>
    <nd ref="255018521"/>
    <nd ref="255018520"/>
    <nd ref="718595088"/>
    <nd ref="255018523"/>
    <nd ref="255018508"/>
    <tag k="highway" v="primary"/>
    <tag k="int_ref" v="E 65"/>
    <tag k="name" v="1 Maja"/>
    <tag k="ref" v="3"/>
    <tag k="source" v="UMP-PL, ./UMP-Szczecin/src/PYRZYCE.ulice.txt"/>
  </way>
  <way id="23551359" version="9" timestamp="2010-05-03T13:54:40Z" uid="30632" user="antblant" changeset="4595091">
    <nd ref="255018514"/>
    <nd ref="255018517"/>
    <nd ref="718674154"/>
    <nd ref="255018516"/>
    <nd ref="255018519"/>
    <nd ref="255018518"/>
    <nd ref="718627242"/>
    <nd ref="255018521"/>
    <nd ref="255018520"/>
    <nd ref="718773635"/>
    <nd ref="718595088"/>
    <nd ref="255018523"/>
    <nd ref="255018508"/>
    <tag k="highway" v="primary"/>
    <tag k="int_ref" v="E 65"/>
    <tag k="name" v="1 Maja"/>
    <tag k="ref" v="3"/>
    <tag k="source" v="UMP-PL, ./UMP-Szczecin/src/PYRZYCE.ulice.txt"/>
  </way>
  <way id="23551359" version="10" timestamp="2010-12-19T09:35:43Z" uid="30632" user="antblant" changeset="6703615">
    <nd ref="255018514"/>
    <nd ref="255018517"/>
    <nd ref="718674154"/>
    <nd ref="255018516"/>
    <nd ref="255018519"/>
    <nd ref="255018518"/>
    <nd ref="718627242"/>
    <nd ref="255018521"/>
    <nd ref="255018520"/>
    <nd ref="718773635"/>
    <nd ref="718595088"/>
    <nd ref="255018523"/>
    <nd ref="255018508"/>
    <tag k="highway" v="tertiary"/>
    <tag k="name" v="1 Maja"/>
    <tag k="source" v="UMP-PL, ./UMP-Szczecin/src/PYRZYCE.ulice.txt"/>
  </way>
  <way id="23551360" version="1" timestamp="2008-03-30T23:26:35Z" uid="30632" user="antblant" changeset="438409">
    <nd ref="255018741"/>
    <nd ref="255018949"/>
    <nd ref="255018942"/>
    <nd ref="255018941"/>
    <nd ref="255018944"/>
    <nd ref="255018943"/>
    <nd ref="255018993"/>
    <nd ref="255018992"/>
    <nd ref="255018991"/>
    <tag k="created_by" v="JOSM"/>
    <tag k="highway" v="residential"/>
    <tag k="name" v="Równa"/>
    <tag k="source" v="UMP-PL, ./UMP-Szczecin/src/PYRZYCE.ulice.txt"/>
  </way>
  <way id="23551360" version="2" timestamp="2009-11-03T15:13:38Z" uid="36809" user="pfoten_weg_!_" changeset="3025069">
    <nd ref="255018741"/>
    <nd ref="255018949"/>
    <nd ref="255018942"/>
    <nd ref="255018941"/>
    <nd ref="255018944"/>
    <nd ref="255018943"/>
    <nd ref="255018993"/>
    <nd ref="255018992"/>
    <nd ref="255018991"/>
    <tag k="highway" v="residential"/>
    <tag k="name" v="Równa"/>
    <tag k="source" v="UMP-PL, ./UMP-Szczecin/src/PYRZYCE.ulice.txt"/>
  </way>
  <way id="23551361" version="1" timestamp="2008-03-30T23:26:35Z" uid="30632" user="antblant" changeset="438409">
    <nd ref="255018688"/>
    <nd ref="255018704"/>
    <nd ref="255018703"/>
    <nd ref="255018718"/>
    <nd ref="255018558"/>
    <tag k="created_by" v="JOSM"/>
    <tag k="highway" v="residential"/>
    <tag k="name" v="Wojska Polskiego"/>
    <tag k="source" v="UMP-PL, ./UMP-Szczecin/src/PYRZYCE.ulice.txt"/>
  </way>
  <way id="23551361" version="2" timestamp="2009-11-03T15:14:08Z" uid="36809" user="pfoten_weg_!_" changeset="3025069">
    <nd ref="255018688"/>
    <nd ref="255018704"/>
    <nd ref="255018703"/>
    <nd ref="255018718"/>
    <nd ref="255018558"/>
    <tag k="highway" v="residential"/>
    <tag k="name" v="Wojska Polskiego"/>
    <tag k="source" v="UMP-PL, ./UMP-Szczecin/src/PYRZYCE.ulice.txt"/>
  </way>
  <way id="23551362" version="1" timestamp="2008-03-30T23:26:35Z" uid="30632" user="antblant" changeset="438409">
    <nd ref="255018477"/>
    <nd ref="255018844"/>
    <nd ref="255018845"/>
    <nd ref="255018846"/>
    <nd ref="255018847"/>
    <nd ref="255018817"/>
    <nd ref="255018816"/>
    <tag k="created_by" v="JOSM"/>
    <tag k="highway" v="residential"/>
    <tag k="name" v="Władysława Sikorskiego"/>
    <tag k="source" v="UMP-PL, ./UMP-Szczecin/src/PYRZYCE.ulice.txt"/>
  </way>
  <way id="23551362" version="3" timestamp="2009-11-03T15:14:07Z" uid="36809" user="pfoten_weg_!_" changeset="3025069">
    <nd ref="255018477"/>
    <nd ref="255018844"/>
    <nd ref="255018845"/>
    <nd ref="255018846"/>
    <nd ref="255018847"/>
    <nd ref="255018817"/>
    <nd ref="255018816"/>
    <tag k="highway" v="residential"/>
    <tag k="name" v="Generała Władysława Sikorskiego"/>
    <tag k="source" v="UMP-PL, ./UMP-Szczecin/src/PYRZYCE.ulice.txt"/>
  </way>
  <way id="23551363" version="1" timestamp="2008-03-30T23:26:36Z" uid="30632" user="antblant" changeset="438409">
    <nd ref="255018643"/>
    <nd ref="255018651"/>
    <nd ref="255018650"/>
    <nd ref="255018653"/>
    <nd ref="255018595"/>
    <tag k="created_by" v="JOSM"/>
    <tag k="highway" v="residential"/>
    <tag k="name" v="Szkolna"/>
    <tag k="source" v="UMP-PL, ./UMP-Szczecin/src/PYRZYCE.ulice.txt"/>
  </way>
  <way id="23551363" version="2" timestamp="2009-11-03T15:14:44Z" uid="36809" user="pfoten_weg_!_" changeset="3025069">
    <nd ref="255018643"/>
    <nd ref="255018651"/>
    <nd ref="255018650"/>
    <nd ref="255018653"/>
    <nd ref="255018595"/>
    <tag k="highway" v="residential"/>
    <tag k="name" v="Szkolna"/>
    <tag k="source" v="UMP-PL, ./UMP-Szczecin/src/PYRZYCE.ulice.txt"/>
  </way>
  <way id="23551364" version="1" timestamp="2008-03-30T23:26:36Z" uid="30632" user="antblant" changeset="438409">
    <nd ref="255018508"/>
    <nd ref="255018509"/>
    <nd ref="255018510"/>
    <nd ref="255018511"/>
    <nd ref="255018512"/>
    <nd ref="255018513"/>
    <nd ref="255018481"/>
    <nd ref="255018515"/>
    <nd ref="255018508"/>
    <tag k="created_by" v="JOSM"/>
    <tag k="highway" v="0xc"/>
    <tag k="junction" v="roundabout"/>
    <tag k="source" v="UMP-PL, ./UMP-Szczecin/src/PYRZYCE.ulice.txt"/>
  </way>
  <way id="23551364" version="2" timestamp="2008-03-30T23:32:49Z" uid="30632" user="antblant" changeset="438409">
    <nd ref="255018508"/>
    <nd ref="255018509"/>
    <nd ref="255018510"/>
    <nd ref="255018511"/>
    <nd ref="255018512"/>
    <nd ref="255018513"/>
    <nd ref="255018481"/>
    <nd ref="255018515"/>
    <nd ref="255018508"/>
    <tag k="created_by" v="Potlatch 0.8a"/>
    <tag k="highway" v="primary"/>
    <tag k="int_ref" v="E65"/>
    <tag k="junction" v="roundabout"/>
    <tag k="ref" v="3"/>
    <tag k="source" v="UMP-PL, ./UMP-Szczecin/src/PYRZYCE.ulice.txt"/>
  </way>
  <way id="23551364" version="3" timestamp="2008-09-19T02:51:04Z" uid="30632" user="antblant" changeset="662817">
    <nd ref="255018508"/>
    <nd ref="255018509"/>
    <nd ref="255018510"/>
    <nd ref="255018511"/>
    <nd ref="255018512"/>
    <nd ref="255018513"/>
    <nd ref="255018481"/>
    <nd ref="255018515"/>
    <nd ref="255018508"/>
    <tag k="created_by" v="Potlatch 0.10b"/>
    <tag k="highway" v="primary"/>
    <tag k="junction" v="roundabout"/>
    <tag k="ref" v="3"/>
    <tag k="source" v="UMP-PL, ./UMP-Szczecin/src/PYRZYCE.ulice.txt"/>
  </way>
  <way id="23551364" version="5" timestamp="2009-11-03T14:48:52Z" uid="36809" user="pfoten_weg_!_" changeset="3025069">
    <nd ref="255018508"/>
    <nd ref="255018509"/>
    <nd ref="255018510"/>
    <nd ref="255018511"/>
    <nd ref="255018512"/>
    <nd ref="255018513"/>
    <nd ref="255018481"/>
    <nd ref="255018515"/>
    <nd ref="255018508"/>
    <tag k="highway" v="primary"/>
    <tag k="int_ref" v="E 65"/>
    <tag k="junction" v="roundabout"/>
    <tag k="ref" v="3"/>
    <tag k="source" v="UMP-PL, ./UMP-Szczecin/src/PYRZYCE.ulice.txt"/>
  </way>
  <way id="23551364" version="6" timestamp="2010-12-19T09:34:43Z" uid="30632" user="antblant" changeset="6703615">
    <nd ref="255018508"/>
    <nd ref="255018509"/>
    <nd ref="255018510"/>
    <nd ref="255018511"/>
    <nd ref="255018512"/>
    <nd ref="255018513"/>
    <nd ref="255018481"/>
    <nd ref="255018515"/>
    <nd ref="255018508"/>
    <tag k="highway" v="tertiary"/>
    <tag k="junction" v="roundabout"/>
    <tag k="source" v="UMP-PL, ./UMP-Szczecin/src/PYRZYCE.ulice.txt"/>
  </way>
  <way id="23551365" version="1" timestamp="2008-03-30T23:26:36Z" uid="30632" user="antblant" changeset="438409">
    <nd ref="255018990"/>
    <nd ref="255018998"/>
    <nd ref="255018750"/>
    <tag k="created_by" v="JOSM"/>
    <tag k="highway" v="residential"/>
    <tag k="name" v="Księcia Józefa Poniatowskiego"/>
    <tag k="source" v="UMP-PL, ./UMP-Szczecin/src/PYRZYCE.ulice.txt"/>
  </way>
  <way id="23551365" version="2" timestamp="2009-11-03T15:14:38Z" uid="36809" user="pfoten_weg_!_" changeset="3025069">
    <nd ref="255018990"/>
    <nd ref="255018998"/>
    <nd ref="255018750"/>
    <tag k="highway" v="residential"/>
    <tag k="name" v="Księcia Józefa Poniatowskiego"/>
    <tag k="source" v="UMP-PL, ./UMP-Szczecin/src/PYRZYCE.ulice.txt"/>
  </way>
  <way id="23551366" version="1" timestamp="2008-03-30T23:26:37Z" uid="30632" user="antblant" changeset="438409">
    <nd ref="255018716"/>
    <nd ref="255018717"/>
    <nd ref="255018702"/>
    <nd ref="255018652"/>
    <nd ref="255018712"/>
    <nd ref="255018711"/>
    <nd ref="255018714"/>
    <nd ref="255018713"/>
    <nd ref="255018708"/>
    <nd ref="255018707"/>
    <nd ref="255018710"/>
    <nd ref="255018709"/>
    <tag k="created_by" v="JOSM"/>
    <tag k="highway" v="residential"/>
    <tag k="name" v="Niepodległości"/>
    <tag k="source" v="UMP-PL, ./UMP-Szczecin/src/PYRZYCE.ulice.txt"/>
  </way>
  <way id="23551366" version="2" timestamp="2009-11-03T15:14:08Z" uid="36809" user="pfoten_weg_!_" changeset="3025069">
    <nd ref="255018716"/>
    <nd ref="255018717"/>
    <nd ref="255018702"/>
    <nd ref="255018652"/>
    <nd ref="255018712"/>
    <nd ref="255018711"/>
    <nd ref="255018714"/>
    <nd ref="255018713"/>
    <nd ref="255018708"/>
    <nd ref="255018707"/>
    <nd ref="255018710"/>
    <nd ref="255018709"/>
    <tag k="highway" v="residential"/>
    <tag k="name" v="Niepodległości"/>
    <tag k="source" v="UMP-PL, ./UMP-Szczecin/src/PYRZYCE.ulice.txt"/>
  </way>
  <way id="23551366" version="3" timestamp="2010-05-03T13:54:39Z" uid="30632" user="antblant" changeset="4595091">
    <nd ref="255018716"/>
    <nd ref="255018717"/>
    <nd ref="255018702"/>
    <nd ref="255018652"/>
    <nd ref="255018712"/>
    <nd ref="255018711"/>
    <nd ref="255018714"/>
    <nd ref="718773659"/>
    <nd ref="255018713"/>
    <nd ref="255018708"/>
    <nd ref="255018707"/>
    <nd ref="255018710"/>
    <nd ref="255018709"/>
    <tag k="highway" v="residential"/>
    <tag k="name" v="Niepodległości"/>
    <tag k="source" v="UMP-PL, ./UMP-Szczecin/src/PYRZYCE.ulice.txt"/>
  </way>
  <way id="23551367" version="1" timestamp="2008-03-30T23:26:37Z" uid="30632" user="antblant" changeset="438409">
    <nd ref="255018832"/>
    <nd ref="255018540"/>
    <tag k="created_by" v="JOSM"/>
    <tag k="highway" v="residential"/>
    <tag k="name" v="Sportowa"/>
    <tag k="source" v="UMP-PL, ./UMP-Szczecin/src/PYRZYCE.ulice.txt"/>
  </way>
  <way id="23551367" version="2" timestamp="2009-11-03T15:14:32Z" uid="36809" user="pfoten_weg_!_" changeset="3025069">
    <nd ref="255018832"/>
    <nd ref="255018540"/>
    <tag k="highway" v="residential"/>
    <tag k="name" v="Sportowa"/>
    <tag k="source" v="UMP-PL, ./UMP-Szczecin/src/PYRZYCE.ulice.txt"/>
  </way>
  <way id="23551367" version="3" timestamp="2010-05-03T12:43:02Z" uid="30632" user="antblant" changeset="4594441">
    <nd ref="718674231"/>
    <nd ref="718674235"/>
    <nd ref="718674182"/>
    <nd ref="718674250"/>
    <nd ref="718674226"/>
    <nd ref="718674280"/>
    <nd ref="718674206"/>
    <nd ref="718674156"/>
    <nd ref="718674219"/>
    <nd ref="718674275"/>
    <nd ref="718674231"/>
    <tag k="area" v="yes"/>
    <tag k="highway" v="pedestrian"/>
  </way>
  <way id="23551368" version="1" timestamp="2008-03-30T23:26:38Z" uid="30632" user="antblant" changeset="438409">
    <nd ref="255018652"/>
    <nd ref="255018634"/>
    <nd ref="255018633"/>
    <nd ref="255018636"/>
    <nd ref="255018635"/>
    <nd ref="255018638"/>
    <nd ref="255018637"/>
    <nd ref="255018640"/>
    <nd ref="255018639"/>
    <nd ref="255018662"/>
    <nd ref="255018663"/>
    <nd ref="255018664"/>
    <nd ref="255018665"/>
    <tag k="created_by" v="JOSM"/>
    <tag k="highway" v="residential"/>
    <tag k="name" v="Kwiatowa"/>
    <tag k="source" v="UMP-PL, ./UMP-Szczecin/src/PYRZYCE.ulice.txt"/>
  </way>
  <way id="23551368" version="2" timestamp="2009-11-03T15:14:05Z" uid="36809" user="pfoten_weg_!_" changeset="3025069">
    <nd ref="255018652"/>
    <nd ref="255018634"/>
    <nd ref="255018633"/>
    <nd ref="255018636"/>
    <nd ref="255018635"/>
    <nd ref="255018638"/>
    <nd ref="255018637"/>
    <nd ref="255018640"/>
    <nd ref="255018639"/>
    <nd ref="255018662"/>
    <nd ref="255018663"/>
    <nd ref="255018664"/>
    <nd ref="255018665"/>
    <tag k="highway" v="residential"/>
    <tag k="name" v="Kwiatowa"/>
    <tag k="source" v="UMP-PL, ./UMP-Szczecin/src/PYRZYCE.ulice.txt"/>
  </way>
  <way id="23551545" version="3" timestamp="2008-05-11T14:34:48Z" uid="8328" user="benpre" changeset="418237">
    <nd ref="254084920"/>
    <nd ref="254084919"/>
    <tag k="created_by" v="Potlatch 0.8a"/>
    <tag k="highway" v="unclassified"/>
    <tag k="name" v="Via Sant&apos;Euplio"/>
    <tag k="tunnel" v="yes"/>
  </way>
  <way id="23551648" version="3" timestamp="2010-04-07T12:42:02Z" uid="20587" user="balrog-kun" changeset="4353646">
    <nd ref="255021518"/>
    <nd ref="255021519"/>
    <nd ref="255021520"/>
    <nd ref="255021521"/>
    <nd ref="255021522"/>
    <tag k="created_by" v="Potlatch 0.8a"/>
    <tag k="highway" v="residential"/>
    <tag k="name" v="Turrett Hill Drive"/>
  </way>
  <way id="23551658" version="3" timestamp="2010-04-07T12:42:02Z" uid="20587" user="balrog-kun" changeset="4353646">
    <nd ref="255021683"/>
    <nd ref="255021684"/>
    <tag k="created_by" v="Potlatch 0.8a"/>
    <tag k="highway" v="residential"/>
    <tag k="name" v="Tiffany Green Drive"/>
  </way>
  <way id="23551663" version="3" timestamp="2010-04-07T12:42:02Z" uid="20587" user="balrog-kun" changeset="4353646">
    <nd ref="255021712"/>
    <nd ref="255021707"/>
    <nd ref="255021708"/>
    <nd ref="255021709"/>
    <nd ref="255021710"/>
    <nd ref="255021711"/>
    <nd ref="235853730"/>
    <tag k="created_by" v="Potlatch 0.8a"/>
    <tag k="highway" v="residential"/>
    <tag k="name" v="Overlyn Place"/>
  </way>
  <way id="23551679" version="3" timestamp="2010-04-07T12:42:02Z" uid="20587" user="balrog-kun" changeset="4353646">
    <nd ref="255021828"/>
    <nd ref="255021829"/>
    <nd ref="255021830"/>
    <nd ref="255021831"/>
    <nd ref="255021832"/>
    <tag k="created_by" v="Potlatch 0.8a"/>
    <tag k="highway" v="residential"/>
    <tag k="name" v="Avalon Oaks Place"/>
  </way>
  <way id="23551680" version="3" timestamp="2010-04-07T12:42:03Z" uid="20587" user="balrog-kun" changeset="4353646">
    <nd ref="255021834"/>
    <nd ref="255021835"/>
    <nd ref="255021836"/>
    <nd ref="255021837"/>
    <nd ref="255021838"/>
    <nd ref="255021839"/>
    <nd ref="255021840"/>
    <nd ref="255021828"/>
    <tag k="created_by" v="Potlatch 0.8a"/>
    <tag k="highway" v="residential"/>
    <tag k="name" v="Avalon Oaks Court"/>
  </way>
  <way id="23551691" version="8" timestamp="2010-04-07T12:42:03Z" uid="20587" user="balrog-kun" changeset="4353646">
    <nd ref="255021868"/>
    <nd ref="255021869"/>
    <nd ref="255021870"/>
    <nd ref="255021871"/>
    <nd ref="255021872"/>
    <nd ref="255021873"/>
    <nd ref="255021874"/>
    <nd ref="255021875"/>
    <nd ref="255021876"/>
    <nd ref="255021877"/>
    <nd ref="255021878"/>
    <nd ref="255021879"/>
    <nd ref="255022145"/>
    <nd ref="255021880"/>
    <nd ref="255021900"/>
    <nd ref="255021881"/>
    <tag k="created_by" v="Potlatch 0.8a"/>
    <tag k="highway" v="residential"/>
    <tag k="name" v="North Crescendo Path Place"/>
  </way>
  <way id="23551693" version="2" timestamp="2010-04-07T12:42:03Z" uid="20587" user="balrog-kun" changeset="4353646">
    <nd ref="255021885"/>
    <nd ref="255021886"/>
    <nd ref="255021887"/>
    <nd ref="255021888"/>
    <nd ref="255021889"/>
    <nd ref="255021890"/>
    <nd ref="255021891"/>
    <nd ref="255021892"/>
    <nd ref="255021893"/>
    <nd ref="255021894"/>
    <nd ref="255021895"/>
    <nd ref="255021896"/>
    <nd ref="255021897"/>
    <nd ref="255021898"/>
    <nd ref="255021899"/>
    <nd ref="255021900"/>
    <tag k="created_by" v="Potlatch 0.8a"/>
    <tag k="highway" v="residential"/>
    <tag k="name" v="South Crescendo Path Place"/>
  </way>
  <way id="23551697" version="2" timestamp="2010-04-07T12:42:03Z" uid="20587" user="balrog-kun" changeset="4353646">
    <nd ref="255021943"/>
    <nd ref="255021944"/>
    <nd ref="255021945"/>
    <nd ref="255021946"/>
    <nd ref="255021947"/>
    <nd ref="255021948"/>
    <tag k="created_by" v="Potlatch 0.8a"/>
    <tag k="highway" v="residential"/>
    <tag k="name" v="Dulcimer Woods Place"/>
  </way>
  <way id="23551700" version="3" timestamp="2010-04-07T12:42:04Z" uid="20587" user="balrog-kun" changeset="4353646">
    <nd ref="255021996"/>
    <nd ref="255021998"/>
    <nd ref="255022000"/>
    <nd ref="235875172"/>
    <tag k="created_by" v="Potlatch 0.8a"/>
    <tag k="highway" v="residential"/>
    <tag k="name" v="Dulcimer Woods Place"/>
  </way>
  <way id="23551702" version="3" timestamp="2010-04-07T12:42:04Z" uid="20587" user="balrog-kun" changeset="4353646">
    <nd ref="255022133"/>
    <nd ref="255022134"/>
    <nd ref="255022135"/>
    <nd ref="255022136"/>
    <nd ref="255022137"/>
    <nd ref="255022138"/>
    <nd ref="255022139"/>
    <nd ref="255022140"/>
    <nd ref="255022141"/>
    <nd ref="255022142"/>
    <nd ref="255022143"/>
    <nd ref="255022144"/>
    <nd ref="255022145"/>
    <tag k="created_by" v="Potlatch 0.8a"/>
    <tag k="highway" v="residential"/>
    <tag k="name" v="Andante Trail Place"/>
  </way>
  <way id="23551711" version="6" timestamp="2010-04-07T12:42:04Z" uid="20587" user="balrog-kun" changeset="4353646">
    <nd ref="255022209"/>
    <nd ref="255022370"/>
    <nd ref="255022210"/>
    <nd ref="255022313"/>
    <nd ref="255022211"/>
    <nd ref="255022212"/>
    <nd ref="255022213"/>
    <nd ref="255022279"/>
    <nd ref="255022214"/>
    <nd ref="255022215"/>
    <nd ref="255022216"/>
    <nd ref="255022217"/>
    <nd ref="255022218"/>
    <nd ref="255022219"/>
    <nd ref="255022220"/>
    <nd ref="255022221"/>
    <nd ref="255022222"/>
    <nd ref="255022223"/>
    <nd ref="255022224"/>
    <nd ref="255022225"/>
    <nd ref="255022226"/>
    <nd ref="255022227"/>
    <nd ref="255022228"/>
    <nd ref="255022219"/>
    <tag k="created_by" v="Potlatch 0.8a"/>
    <tag k="highway" v="residential"/>
    <tag k="name" v="Tapestry Forest Place"/>
  </way>
  <way id="23551714" version="3" timestamp="2010-04-07T12:42:04Z" uid="20587" user="balrog-kun" changeset="4353646">
    <nd ref="255022261"/>
    <nd ref="255022262"/>
    <nd ref="255022263"/>
    <nd ref="255022264"/>
    <nd ref="255022265"/>
    <nd ref="255022266"/>
    <nd ref="255022267"/>
    <nd ref="255022268"/>
    <nd ref="255022261"/>
    <nd ref="255022278"/>
    <nd ref="255022279"/>
    <tag k="created_by" v="Potlatch 0.8a"/>
    <tag k="highway" v="residential"/>
    <tag k="name" v="Dragon Hill Place"/>
  </way>
  <way id="23551718" version="2" timestamp="2010-04-07T12:42:05Z" uid="20587" user="balrog-kun" changeset="4353646">
    <nd ref="255022303"/>
    <nd ref="255022304"/>
    <nd ref="255022305"/>
    <nd ref="255022306"/>
    <nd ref="255022307"/>
    <nd ref="255022308"/>
    <nd ref="255022309"/>
    <nd ref="255022310"/>
    <nd ref="255022311"/>
    <nd ref="255022312"/>
    <nd ref="255022303"/>
    <nd ref="255022313"/>
    <tag k="created_by" v="Potlatch 0.8a"/>
    <tag k="highway" v="residential"/>
    <tag k="name" v="Jester Oaks Place"/>
  </way>
  <way id="23551720" version="2" timestamp="2010-04-07T12:42:05Z" uid="20587" user="balrog-kun" changeset="4353646">
    <nd ref="255022323"/>
    <nd ref="255022324"/>
    <nd ref="255022325"/>
    <tag k="created_by" v="Potlatch 0.8a"/>
    <tag k="highway" v="residential"/>
    <tag k="name" v="Court Dale Drive"/>
  </way>
  <way id="23551725" version="5" timestamp="2010-04-07T12:42:08Z" uid="20587" user="balrog-kun" changeset="4353646">
    <nd ref="255022366"/>
    <nd ref="255022367"/>
    <nd ref="255022368"/>
    <nd ref="255022369"/>
    <nd ref="255022508"/>
    <nd ref="255022370"/>
    <nd ref="255022371"/>
    <tag k="created_by" v="Potlatch 0.8a"/>
    <tag k="highway" v="residential"/>
    <tag k="name" v="Tapestry Park Drive"/>
  </way>
  <way id="23551726" version="4" timestamp="2010-04-07T12:42:10Z" uid="20587" user="balrog-kun" changeset="4353646">
    <nd ref="255022508"/>
    <nd ref="255022417"/>
    <nd ref="255022209"/>
    <nd ref="255022418"/>
    <nd ref="255022420"/>
    <nd ref="255022421"/>
    <tag k="created_by" v="Potlatch 0.8a"/>
    <tag k="highway" v="residential"/>
    <tag k="name" v="Tapestry Park Drive"/>
  </way>
  <way id="23551737" version="3" timestamp="2010-04-07T12:42:10Z" uid="20587" user="balrog-kun" changeset="4353646">
    <nd ref="255022541"/>
    <nd ref="255022542"/>
    <nd ref="255022543"/>
    <nd ref="255022544"/>
    <nd ref="255022545"/>
    <nd ref="255022546"/>
    <nd ref="255022325"/>
    <nd ref="255022547"/>
    <nd ref="255022548"/>
    <nd ref="255022549"/>
    <nd ref="255022550"/>
    <nd ref="255022551"/>
    <nd ref="255022366"/>
    <tag k="created_by" v="Potlatch 0.8a"/>
    <tag k="highway" v="residential"/>
    <tag k="name" v="East Tapestry Park Circle"/>
  </way>
  <way id="23551741" version="2" timestamp="2010-04-07T12:42:10Z" uid="20587" user="balrog-kun" changeset="4353646">
    <nd ref="255022630"/>
    <nd ref="255022631"/>
    <nd ref="255022632"/>
    <nd ref="255022633"/>
    <nd ref="255022634"/>
    <nd ref="255022635"/>
    <nd ref="255022636"/>
    <nd ref="255022637"/>
    <nd ref="255022638"/>
    <nd ref="255022639"/>
    <nd ref="255022541"/>
    <tag k="created_by" v="Potlatch 0.8a"/>
    <tag k="highway" v="residential"/>
    <tag k="name" v="West Tapestry Park Circle"/>
  </way>
  <way id="23551752" version="2" timestamp="2010-04-07T12:42:11Z" uid="20587" user="balrog-kun" changeset="4353646">
    <nd ref="255022971"/>
    <nd ref="255022972"/>
    <nd ref="255022973"/>
    <nd ref="255022974"/>
    <nd ref="255022975"/>
    <nd ref="255022976"/>
    <nd ref="255022977"/>
    <nd ref="255022978"/>
    <nd ref="255022979"/>
    <nd ref="255022980"/>
    <nd ref="255022971"/>
    <nd ref="255022981"/>
    <nd ref="255022982"/>
    <nd ref="255022983"/>
    <nd ref="255022984"/>
    <nd ref="255022985"/>
    <nd ref="255022986"/>
    <nd ref="255022987"/>
    <nd ref="255022988"/>
    <nd ref="255022989"/>
    <nd ref="255022990"/>
    <nd ref="255022991"/>
    <nd ref="255022637"/>
    <tag k="created_by" v="Potlatch 0.8a"/>
    <tag k="highway" v="residential"/>
    <tag k="name" v="Silver Lute Place"/>
  </way>
  <way id="23551758" version="2" timestamp="2010-04-07T12:42:11Z" uid="20587" user="balrog-kun" changeset="4353646">
    <nd ref="255023049"/>
    <nd ref="255023050"/>
    <tag k="created_by" v="Potlatch 0.8a"/>
    <tag k="highway" v="residential"/>
    <tag k="name" v="Cantwell Forest Drive"/>
  </way>
  <way id="23551760" version="2" timestamp="2010-04-07T12:42:11Z" uid="20587" user="balrog-kun" changeset="4353646">
    <nd ref="255023054"/>
    <nd ref="255023025"/>
    <tag k="created_by" v="Potlatch 0.8a"/>
    <tag k="highway" v="residential"/>
    <tag k="name" v="Cantwell Forest Drive"/>
  </way>
  <way id="23551763" version="5" timestamp="2010-04-07T12:42:11Z" uid="20587" user="balrog-kun" changeset="4353646">
    <nd ref="255023065"/>
    <nd ref="255023066"/>
    <nd ref="255023067"/>
    <nd ref="255023068"/>
    <nd ref="255023069"/>
    <nd ref="255023070"/>
    <nd ref="255023071"/>
    <nd ref="255023072"/>
    <nd ref="255023073"/>
    <nd ref="255023065"/>
    <nd ref="255023074"/>
    <nd ref="255023075"/>
    <nd ref="255023200"/>
    <nd ref="255023076"/>
    <nd ref="255023049"/>
    <nd ref="255023054"/>
    <tag k="created_by" v="Potlatch 0.8a"/>
    <tag k="highway" v="residential"/>
    <tag k="name" v="North Emory Bend Place"/>
  </way>
  <way id="23551766" version="3" timestamp="2010-04-07T12:42:12Z" uid="20587" user="balrog-kun" changeset="4353646">
    <nd ref="255023138"/>
    <nd ref="255023140"/>
    <nd ref="255023141"/>
    <nd ref="255023142"/>
    <nd ref="255023143"/>
    <nd ref="255023144"/>
    <nd ref="255023145"/>
    <nd ref="255023146"/>
    <nd ref="255023147"/>
    <nd ref="255023148"/>
    <nd ref="255023149"/>
    <nd ref="255023150"/>
    <nd ref="255023151"/>
    <nd ref="255023152"/>
    <nd ref="255023189"/>
    <nd ref="255023153"/>
    <nd ref="255023054"/>
    <tag k="created_by" v="Potlatch 0.8a"/>
    <tag k="highway" v="residential"/>
    <tag k="name" v="South Emory Bend Place"/>
  </way>
  <way id="23551814" version="3" timestamp="2010-04-07T12:42:12Z" uid="20587" user="balrog-kun" changeset="4353646">
    <nd ref="255023178"/>
    <nd ref="255023179"/>
    <nd ref="255023180"/>
    <nd ref="255023181"/>
    <nd ref="255023182"/>
    <nd ref="255023183"/>
    <nd ref="255023184"/>
    <nd ref="255023185"/>
    <nd ref="255023186"/>
    <nd ref="255023187"/>
    <nd ref="255023188"/>
    <nd ref="255023189"/>
    <tag k="created_by" v="Potlatch 0.8a"/>
    <tag k="highway" v="residential"/>
    <tag k="name" v="Etonshire Court"/>
  </way>
  <way id="23551841" version="3" timestamp="2008-09-14T13:49:29Z" uid="6975" user="ulfl" changeset="640534">
    <nd ref="255022808"/>
    <nd ref="255022812"/>
    <nd ref="255022819"/>
    <nd ref="255022818"/>
    <nd ref="255022817"/>
    <nd ref="255022809"/>
    <nd ref="255022810"/>
    <nd ref="255022814"/>
    <nd ref="255022816"/>
    <nd ref="255022815"/>
    <nd ref="255022813"/>
    <nd ref="255022811"/>
    <nd ref="255022808"/>
    <tag k="building" v="yes"/>
    <tag k="name" v="Anger 1"/>
    <tag k="shop" v="shopping_center"/>
  </way>
  <way id="23551851" version="2" timestamp="2010-04-07T12:42:12Z" uid="20587" user="balrog-kun" changeset="4353646">
    <nd ref="255023193"/>
    <nd ref="255023194"/>
    <nd ref="255023195"/>
    <nd ref="255023196"/>
    <nd ref="255023197"/>
    <nd ref="255023198"/>
    <nd ref="255023199"/>
    <nd ref="255023200"/>
    <tag k="created_by" v="Potlatch 0.8a"/>
    <tag k="highway" v="residential"/>
    <tag k="name" v="Dunwood Springs Court"/>
  </way>
  <way id="23551875" version="4" timestamp="2010-04-07T12:42:12Z" uid="20587" user="balrog-kun" changeset="4353646">
    <nd ref="255023217"/>
    <nd ref="255023218"/>
    <nd ref="255023219"/>
    <nd ref="255023220"/>
    <nd ref="255023221"/>
    <nd ref="255023222"/>
    <nd ref="255023223"/>
    <nd ref="255023224"/>
    <nd ref="255023225"/>
    <nd ref="255023226"/>
    <nd ref="255023227"/>
    <nd ref="255023228"/>
    <nd ref="255023229"/>
    <nd ref="255023230"/>
    <nd ref="255023231"/>
    <nd ref="255023232"/>
    <nd ref="255023233"/>
    <nd ref="255023234"/>
    <nd ref="255023235"/>
    <nd ref="255023236"/>
    <nd ref="255023237"/>
    <nd ref="255023238"/>
    <nd ref="255023239"/>
    <nd ref="255023240"/>
    <nd ref="255023241"/>
    <nd ref="255023242"/>
    <nd ref="255023243"/>
    <nd ref="255023244"/>
    <nd ref="255023245"/>
    <nd ref="255023246"/>
    <nd ref="255023247"/>
    <nd ref="255023248"/>
    <nd ref="255023249"/>
    <nd ref="255023250"/>
    <nd ref="255023251"/>
    <nd ref="255023252"/>
    <nd ref="255023253"/>
    <nd ref="255023254"/>
    <nd ref="317509055"/>
    <tag k="created_by" v="Potlatch 0.10f"/>
    <tag k="highway" v="residential"/>
    <tag k="name" v="Lake Woodlands Drive"/>
  </way>
  <way id="23551975" version="20" timestamp="2010-05-26T04:29:55Z" uid="4467" user="Rosscoe" changeset="4809656">
    <nd ref="255023900"/>
    <nd ref="304955843"/>
    <nd ref="311404663"/>
    <nd ref="21643786"/>
    <nd ref="311405946"/>
    <nd ref="311407764"/>
    <nd ref="311407840"/>
    <nd ref="311409369"/>
    <nd ref="21643700"/>
    <tag k="highway" v="primary"/>
    <tag k="maxspeed" v="60"/>
    <tag k="name" v="Burke Road"/>
    <tag k="railway" v="tram"/>
    <tag k="source" v="nearmap"/>
  </way>
  <way id="23551977" version="5" timestamp="2010-05-26T04:29:41Z" uid="4467" user="Rosscoe" changeset="4809656">
    <nd ref="255023899"/>
    <nd ref="255023900"/>
    <tag k="bridge" v="yes"/>
    <tag k="highway" v="primary"/>
    <tag k="layer" v="1"/>
    <tag k="maxspeed" v="60"/>
    <tag k="name" v="Burke Road"/>
    <tag k="railway" v="tram"/>
    <tag k="source" v="nearmap"/>
  </way>
</osm>
