<?xml version='1.0' encoding='UTF-8'?>
<osm version="0.6" generator="libosmium/2.20.0">
  <way id="23572033" version="3" timestamp="2008-07-07T02:33:35Z" uid="6975" user="ulfl" changeset="415781">
    <nd ref="255278410"/>
    <nd ref="255278411"/>
    <nd ref="255278412"/>
    <nd ref="255278413"/>
    <nd ref="255278415"/>
    <nd ref="255278299"/>
    <tag k="highway" v="residential"/>
    <tag k="name" v="Kusevägen"/>
    <tag k="noexit" v="yes"/>
  </way>
  <way id="23572039" version="4" timestamp="2008-07-07T02:33:32Z" uid="6975" user="ulfl" changeset="415781">
    <nd ref="255278434"/>
    <nd ref="255278435"/>
    <nd ref="255278436"/>
    <nd ref="255278437"/>
    <nd ref="255278438"/>
    <nd ref="255278439"/>
    <nd ref="255278440"/>
    <nd ref="255278441"/>
    <tag k="highway" v="residential"/>
    <tag k="name" v="Klenätvägen"/>
    <tag k="noexit" v="yes"/>
  </way>
  <way id="23572046" version="3" timestamp="2008-04-02T13:47:14Z" uid="30632" user="antblant" changeset="12999">
    <nd ref="255278505"/>
    <nd ref="254067254"/>
    <tag k="created_by" v="Potlatch 0.8a"/>
    <tag k="highway" v="residential"/>
    <tag k="name" v="Frańciszka Tarczyńskiego"/>
  </way>
  <way id="23572046" version="4" timestamp="2008-04-19T20:47:37Z" uid="30632" user="antblant" changeset="198306">
    <nd ref="255278505"/>
    <nd ref="254067254"/>
    <tag k="created_by" v="Potlatch 0.8a"/>
    <tag k="highway" v="residential"/>
    <tag k="name" v="Frańciszka Tarczyńskiego"/>
  </way>
  <way id="23572046" version="5" timestamp="2008-12-11T13:03:40Z" uid="30632" user="antblant" changeset="317698">
    <nd ref="255278505"/>
    <nd ref="254067254"/>
    <tag k="created_by" v="Potlatch 0.8a"/>
    <tag k="highway" v="residential"/>
    <tag k="name" v="Frańciszka Tarczyńskiego"/>
  </way>
  <way id="23572046" version="6" timestamp="2009-11-03T01:43:51Z" uid="36809" user="pfoten_weg_!_" changeset="3021530">
    <nd ref="255278505"/>
    <nd ref="254067254"/>
    <tag k="highway" v="residential"/>
    <tag k="name" v="Frańciszka Tarczyńskiego"/>
  </way>
  <way id="23572046" version="7" timestamp="2010-03-22T19:36:46Z" uid="20587" user="balrog-kun" changeset="4205915">
    <nd ref="255278505"/>
    <nd ref="254067254"/>
    <tag k="highway" v="residential"/>
    <tag k="name" v="Franciszka Tarczyńskiego"/>
  </way>
  <way id="23572134" version="5" timestamp="2008-07-07T02:33:47Z" uid="6975" user="ulfl" changeset="415781">
    <nd ref="255279260"/>
    <nd ref="255279261"/>
    <nd ref="255279262"/>
    <nd ref="255279545"/>
    <nd ref="255279263"/>
    <nd ref="255279264"/>
    <nd ref="255279265"/>
    <nd ref="255279266"/>
    <tag k="highway" v="residential"/>
    <tag k="name" v="Saffransvägen"/>
    <tag k="noexit" v="yes"/>
  </way>
  <way id="23572171" version="23" timestamp="2010-04-17T06:52:46Z" uid="4467" user="Rosscoe" changeset="4444858">
    <nd ref="699572004"/>
    <nd ref="430085178"/>
    <nd ref="268626096"/>
    <nd ref="268623927"/>
    <nd ref="430085180"/>
    <nd ref="553017384"/>
    <nd ref="699571988"/>
    <tag k="highway" v="secondary"/>
    <tag k="name" v="Kooyong Road"/>
  </way>
  <way id="23572213" version="4" timestamp="2008-07-07T02:33:37Z" uid="6975" user="ulfl" changeset="415781">
    <nd ref="255279600"/>
    <nd ref="255279601"/>
    <nd ref="255279602"/>
    <nd ref="255279603"/>
    <nd ref="255279604"/>
    <nd ref="255279605"/>
    <nd ref="255279606"/>
    <nd ref="255279607"/>
    <nd ref="255279608"/>
    <nd ref="255279609"/>
    <tag k="highway" v="residential"/>
    <tag k="name" v="Formbrödsvägen"/>
    <tag k="noexit" v="yes"/>
  </way>
  <way id="23572241" version="5" timestamp="2008-07-07T02:33:31Z" uid="6975" user="ulfl" changeset="415781">
    <nd ref="255279881"/>
    <nd ref="255279882"/>
    <nd ref="255280053"/>
    <nd ref="255279884"/>
    <nd ref="255279886"/>
    <nd ref="255279887"/>
    <tag k="highway" v="residential"/>
    <tag k="name" v="Kexvägen"/>
    <tag k="noexit" v="yes"/>
  </way>
  <way id="23572262" version="5" timestamp="2008-07-07T02:33:42Z" uid="6975" user="ulfl" changeset="415781">
    <nd ref="255280198"/>
    <nd ref="255280310"/>
    <nd ref="255280048"/>
    <nd ref="255280049"/>
    <nd ref="255280050"/>
    <nd ref="255280051"/>
    <nd ref="255280052"/>
    <nd ref="255280053"/>
    <tag k="highway" v="residential"/>
    <tag k="name" v="Kexvägen"/>
    <tag k="noexit" v="yes"/>
  </way>
  <way id="23572301" version="3" timestamp="2008-07-07T02:33:15Z" uid="6975" user="ulfl" changeset="415781">
    <nd ref="255280049"/>
    <nd ref="255280309"/>
    <nd ref="255280310"/>
    <tag k="highway" v="residential"/>
    <tag k="name" v="Kexvägen"/>
    <tag k="noexit" v="yes"/>
  </way>
  <way id="23572328" version="3" timestamp="2008-07-07T02:33:40Z" uid="6975" user="ulfl" changeset="415781">
    <nd ref="255280863"/>
    <nd ref="255280864"/>
    <nd ref="255280865"/>
    <nd ref="255280866"/>
    <nd ref="255280867"/>
    <nd ref="255280868"/>
    <tag k="highway" v="residential"/>
    <tag k="name" v="Krokanvägen"/>
    <tag k="noexit" v="yes"/>
  </way>
  <way id="23572453" version="2" timestamp="2008-07-07T00:35:43Z" uid="6975" user="ulfl" changeset="415781">
    <nd ref="255282200"/>
    <nd ref="255282201"/>
    <nd ref="255282202"/>
    <nd ref="255282203"/>
    <nd ref="255282200"/>
    <tag k="leisure" v="playground"/>
  </way>
  <way id="23572514" version="7" timestamp="2010-07-09T21:09:16Z" uid="74617" user="JohnSmith" changeset="5176956">
    <nd ref="255279523"/>
    <nd ref="268627055"/>
    <nd ref="255279426"/>
    <tag k="highway" v="residential"/>
    <tag k="maxspeed" v="50"/>
    <tag k="maxspeed:source" v="default residential speed limit in Australia"/>
    <tag k="name" v="Newey Street"/>
  </way>
  <way id="23572515" version="6" timestamp="2010-07-09T21:14:12Z" uid="74617" user="JohnSmith" changeset="5176956">
    <nd ref="255279523"/>
    <nd ref="640765249"/>
    <nd ref="255279542"/>
    <nd ref="640765250"/>
    <nd ref="255279520"/>
    <nd ref="640765252"/>
    <nd ref="255279521"/>
    <nd ref="640765254"/>
    <nd ref="255279523"/>
    <tag k="highway" v="residential"/>
    <tag k="junction" v="roundabout"/>
    <tag k="maxspeed" v="50"/>
    <tag k="maxspeed:source" v="default residential speed limit in Australia"/>
  </way>
</osm>
