<?xml version='1.0' encoding='UTF-8'?>
<osm version="0.6" generator="libosmium/2.20.0">
  <way id="23586000" version="1" timestamp="2008-04-02T16:59:04Z" uid="30632" user="antblant" changeset="13973">
    <nd ref="255407699"/>
    <nd ref="255408051"/>
    <nd ref="255408042"/>
    <nd ref="255408049"/>
    <nd ref="255408040"/>
    <nd ref="255408041"/>
    <tag k="created_by" v="JOSM"/>
    <tag k="highway" v="residential"/>
    <tag k="name" v="Piastowska"/>
    <tag k="source" v="UMP-PL, ./UMP-Szczecin/src/MIEDZYZDROJE.ulice.txt"/>
  </way>
  <way id="23586000" version="2" timestamp="2009-10-08T22:00:47Z" uid="179968" user="Ich_hasse_doitsche_OSM-Korinthenkacker" changeset="2788120">
    <nd ref="255407699"/>
    <nd ref="255408051"/>
    <nd ref="255408042"/>
    <nd ref="255408049"/>
    <nd ref="255408040"/>
    <nd ref="255408041"/>
    <tag k="highway" v="residential"/>
    <tag k="name" v="Piastowska"/>
    <tag k="source" v="UMP-PL, ./UMP-Szczecin/src/MIEDZYZDROJE.ulice.txt"/>
  </way>
  <way id="23586001" version="1" timestamp="2008-04-02T16:59:04Z" uid="30632" user="antblant" changeset="13973">
    <nd ref="255408181"/>
    <nd ref="255408160"/>
    <tag k="created_by" v="JOSM"/>
    <tag k="highway" v="unclassified"/>
    <tag k="source" v="UMP-PL, ./UMP-Szczecin/src/MIEDZYZDROJE.ulice.txt"/>
    <tag k="surface" v="unpaved"/>
  </way>
  <way id="23586001" version="2" timestamp="2009-03-14T12:51:05Z" uid="30632" user="antblant" changeset="805210">
    <nd ref="255408181"/>
    <nd ref="255408160"/>
    <tag k="created_by" v="JOSM"/>
    <tag k="highway" v="track"/>
    <tag k="source" v="UMP-PL, ./UMP-Szczecin/src/MIEDZYZDROJE.ulice.txt"/>
    <tag k="surface" v="unpaved"/>
  </way>
  <way id="23586001" version="3" timestamp="2009-10-08T22:00:48Z" uid="179968" user="Ich_hasse_doitsche_OSM-Korinthenkacker" changeset="2788120">
    <nd ref="255408181"/>
    <nd ref="255408160"/>
    <tag k="highway" v="track"/>
    <tag k="source" v="UMP-PL, ./UMP-Szczecin/src/MIEDZYZDROJE.ulice.txt"/>
    <tag k="surface" v="unpaved"/>
  </way>
  <way id="23586002" version="1" timestamp="2008-04-02T16:59:04Z" uid="30632" user="antblant" changeset="13973">
    <nd ref="255407733"/>
    <nd ref="255407734"/>
    <tag k="created_by" v="JOSM"/>
    <tag k="highway" v="residential"/>
    <tag k="source" v="UMP-PL, ./UMP-Szczecin/src/MIEDZYZDROJE.ulice.txt"/>
  </way>
  <way id="23586002" version="2" timestamp="2009-10-08T22:00:46Z" uid="179968" user="Ich_hasse_doitsche_OSM-Korinthenkacker" changeset="2788120">
    <nd ref="255407733"/>
    <nd ref="255407734"/>
    <tag k="highway" v="residential"/>
    <tag k="source" v="UMP-PL, ./UMP-Szczecin/src/MIEDZYZDROJE.ulice.txt"/>
  </way>
  <way id="23586003" version="1" timestamp="2008-04-02T16:59:05Z" uid="30632" user="antblant" changeset="13973">
    <nd ref="255407693"/>
    <nd ref="255407858"/>
    <nd ref="255407855"/>
    <nd ref="255407853"/>
    <nd ref="255407850"/>
    <tag k="created_by" v="JOSM"/>
    <tag k="highway" v="residential"/>
    <tag k="name" v="Mieszka I"/>
    <tag k="source" v="UMP-PL, ./UMP-Szczecin/src/MIEDZYZDROJE.ulice.txt"/>
  </way>
  <way id="23586003" version="2" timestamp="2009-10-08T22:00:46Z" uid="179968" user="Ich_hasse_doitsche_OSM-Korinthenkacker" changeset="2788120">
    <nd ref="255407693"/>
    <nd ref="255407858"/>
    <nd ref="255407855"/>
    <nd ref="255407853"/>
    <nd ref="255407850"/>
    <tag k="highway" v="residential"/>
    <tag k="name" v="Mieszka I"/>
    <tag k="source" v="UMP-PL, ./UMP-Szczecin/src/MIEDZYZDROJE.ulice.txt"/>
  </way>
  <way id="23586004" version="1" timestamp="2008-04-02T16:59:05Z" uid="30632" user="antblant" changeset="13973">
    <nd ref="255407970"/>
    <nd ref="255407969"/>
    <nd ref="255407967"/>
    <nd ref="255408050"/>
    <nd ref="255408001"/>
    <tag k="created_by" v="JOSM"/>
    <tag k="highway" v="residential"/>
    <tag k="name" v="Słowiańska"/>
    <tag k="source" v="UMP-PL, ./UMP-Szczecin/src/MIEDZYZDROJE.ulice.txt"/>
  </way>
  <way id="23586004" version="2" timestamp="2009-10-08T22:00:45Z" uid="179968" user="Ich_hasse_doitsche_OSM-Korinthenkacker" changeset="2788120">
    <nd ref="255407970"/>
    <nd ref="255407969"/>
    <nd ref="255407967"/>
    <nd ref="255408050"/>
    <nd ref="255408001"/>
    <tag k="highway" v="residential"/>
    <tag k="name" v="Słowiańska"/>
    <tag k="source" v="UMP-PL, ./UMP-Szczecin/src/MIEDZYZDROJE.ulice.txt"/>
  </way>
  <way id="23586033" version="4" timestamp="2008-05-11T14:43:36Z" uid="8328" user="benpre" changeset="418237">
    <nd ref="255408565"/>
    <nd ref="255408568"/>
    <nd ref="255408570"/>
    <nd ref="255408573"/>
    <nd ref="255408575"/>
    <nd ref="255408577"/>
    <tag k="created_by" v="Potlatch 0.8a"/>
    <tag k="foot" v="yes"/>
    <tag k="highway" v="footway"/>
  </way>
  <way id="23586148" version="3" timestamp="2009-01-03T13:35:18Z" uid="58091" user="Andreas M" changeset="721411"/>
  <way id="23586150" version="6" timestamp="2009-01-03T13:35:17Z" uid="58091" user="Andreas M" changeset="721411"/>
  <way id="23586323" version="1" timestamp="2008-04-02T17:36:36Z" uid="30632" user="antblant" changeset="13973">
    <nd ref="255411079"/>
    <nd ref="255410718"/>
    <tag k="created_by" v="JOSM"/>
    <tag k="highway" v="residential"/>
    <tag k="name" v="Kazimierza Wielkiego"/>
    <tag k="source" v="UMP-PL, ./UMP-Szczecin/src/NOWOGARD.ulice.txt"/>
  </way>
  <way id="23586323" version="2" timestamp="2009-10-21T18:26:03Z" uid="36809" user="pfoten_weg_!_" changeset="2915027">
    <nd ref="255411079"/>
    <nd ref="255410718"/>
    <tag k="highway" v="residential"/>
    <tag k="name" v="Kazimierza Wielkiego"/>
    <tag k="source" v="UMP-PL, ./UMP-Szczecin/src/NOWOGARD.ulice.txt"/>
  </way>
  <way id="23586324" version="1" timestamp="2008-04-02T17:36:36Z" uid="30632" user="antblant" changeset="13973">
    <nd ref="255410798"/>
    <nd ref="255411262"/>
    <nd ref="255411264"/>
    <nd ref="255411259"/>
    <nd ref="255410678"/>
    <tag k="created_by" v="JOSM"/>
    <tag k="highway" v="residential"/>
    <tag k="name" v="Stefana Żeromskiego"/>
    <tag k="source" v="UMP-PL, ./UMP-Szczecin/src/NOWOGARD.ulice.txt"/>
  </way>
  <way id="23586324" version="2" timestamp="2009-10-21T18:26:01Z" uid="36809" user="pfoten_weg_!_" changeset="2915027">
    <nd ref="255410798"/>
    <nd ref="255411262"/>
    <nd ref="255411264"/>
    <nd ref="255411259"/>
    <nd ref="255410678"/>
    <tag k="highway" v="residential"/>
    <tag k="name" v="Stefana Żeromskiego"/>
    <tag k="source" v="UMP-PL, ./UMP-Szczecin/src/NOWOGARD.ulice.txt"/>
  </way>
  <way id="23586325" version="1" timestamp="2008-04-02T17:36:36Z" uid="30632" user="antblant" changeset="13973">
    <nd ref="255411490"/>
    <nd ref="255411487"/>
    <nd ref="255410681"/>
    <tag k="created_by" v="JOSM"/>
    <tag k="highway" v="residential"/>
    <tag k="source" v="UMP-PL, ./UMP-Szczecin/src/NOWOGARD.ulice.txt"/>
  </way>
  <way id="23586325" version="2" timestamp="2009-10-21T18:26:00Z" uid="36809" user="pfoten_weg_!_" changeset="2915027">
    <nd ref="255411490"/>
    <nd ref="255411487"/>
    <nd ref="255410681"/>
    <tag k="highway" v="residential"/>
    <tag k="source" v="UMP-PL, ./UMP-Szczecin/src/NOWOGARD.ulice.txt"/>
  </way>
  <way id="23586326" version="1" timestamp="2008-04-02T17:36:36Z" uid="30632" user="antblant" changeset="13973">
    <nd ref="255411078"/>
    <nd ref="255410716"/>
    <tag k="created_by" v="JOSM"/>
    <tag k="highway" v="residential"/>
    <tag k="name" v="Ludwika Waryńskiego"/>
    <tag k="source" v="UMP-PL, ./UMP-Szczecin/src/NOWOGARD.ulice.txt"/>
  </way>
  <way id="23586326" version="2" timestamp="2009-10-21T18:25:58Z" uid="36809" user="pfoten_weg_!_" changeset="2915027">
    <nd ref="255411078"/>
    <nd ref="255410716"/>
    <tag k="highway" v="residential"/>
    <tag k="name" v="Ludwika Waryńskiego"/>
    <tag k="source" v="UMP-PL, ./UMP-Szczecin/src/NOWOGARD.ulice.txt"/>
  </way>
  <way id="23586327" version="1" timestamp="2008-04-02T17:36:37Z" uid="30632" user="antblant" changeset="13973">
    <nd ref="255411043"/>
    <nd ref="255411260"/>
    <tag k="created_by" v="JOSM"/>
    <tag k="highway" v="residential"/>
    <tag k="source" v="UMP-PL, ./UMP-Szczecin/src/NOWOGARD.ulice.txt"/>
  </way>
  <way id="23586327" version="2" timestamp="2009-10-21T18:25:55Z" uid="36809" user="pfoten_weg_!_" changeset="2915027">
    <nd ref="255411043"/>
    <nd ref="255411260"/>
    <tag k="highway" v="residential"/>
    <tag k="source" v="UMP-PL, ./UMP-Szczecin/src/NOWOGARD.ulice.txt"/>
  </way>
  <way id="23586328" version="1" timestamp="2008-04-02T17:36:37Z" uid="30632" user="antblant" changeset="13973">
    <nd ref="255411489"/>
    <nd ref="255411490"/>
    <nd ref="255411494"/>
    <tag k="created_by" v="JOSM"/>
    <tag k="highway" v="residential"/>
    <tag k="name" v="Łąkowa"/>
    <tag k="source" v="UMP-PL, ./UMP-Szczecin/src/NOWOGARD.ulice.txt"/>
  </way>
  <way id="23586328" version="2" timestamp="2009-10-21T18:25:54Z" uid="36809" user="pfoten_weg_!_" changeset="2915027">
    <nd ref="255411489"/>
    <nd ref="255411490"/>
    <nd ref="255411494"/>
    <tag k="highway" v="residential"/>
    <tag k="name" v="Łąkowa"/>
    <tag k="source" v="UMP-PL, ./UMP-Szczecin/src/NOWOGARD.ulice.txt"/>
  </way>
  <way id="23586329" version="1" timestamp="2008-04-02T17:36:37Z" uid="30632" user="antblant" changeset="13973">
    <nd ref="255410713"/>
    <nd ref="255411076"/>
    <tag k="created_by" v="JOSM"/>
    <tag k="highway" v="residential"/>
    <tag k="name" v="Pocztowa"/>
    <tag k="source" v="UMP-PL, ./UMP-Szczecin/src/NOWOGARD.ulice.txt"/>
  </way>
  <way id="23586329" version="2" timestamp="2009-10-21T18:25:50Z" uid="36809" user="pfoten_weg_!_" changeset="2915027">
    <nd ref="255410713"/>
    <nd ref="255411076"/>
    <tag k="highway" v="residential"/>
    <tag k="name" v="Pocztowa"/>
    <tag k="source" v="UMP-PL, ./UMP-Szczecin/src/NOWOGARD.ulice.txt"/>
  </way>
  <way id="23586330" version="1" timestamp="2008-04-02T17:36:37Z" uid="30632" user="antblant" changeset="13973">
    <nd ref="255411179"/>
    <nd ref="255411189"/>
    <nd ref="255411194"/>
    <nd ref="255411193"/>
    <nd ref="255411255"/>
    <nd ref="255411181"/>
    <nd ref="255411257"/>
    <nd ref="255411252"/>
    <nd ref="255411254"/>
    <tag k="created_by" v="JOSM"/>
    <tag k="highway" v="residential"/>
    <tag k="name" v="Promenada"/>
    <tag k="source" v="UMP-PL, ./UMP-Szczecin/src/NOWOGARD.ulice.txt"/>
  </way>
  <way id="23586330" version="2" timestamp="2009-10-21T18:25:48Z" uid="36809" user="pfoten_weg_!_" changeset="2915027">
    <nd ref="255411179"/>
    <nd ref="255411189"/>
    <nd ref="255411194"/>
    <nd ref="255411193"/>
    <nd ref="255411255"/>
    <nd ref="255411181"/>
    <nd ref="255411257"/>
    <nd ref="255411252"/>
    <nd ref="255411254"/>
    <tag k="highway" v="residential"/>
    <tag k="name" v="Promenada"/>
    <tag k="source" v="UMP-PL, ./UMP-Szczecin/src/NOWOGARD.ulice.txt"/>
  </way>
  <way id="23586331" version="1" timestamp="2008-04-02T17:36:37Z" uid="30632" user="antblant" changeset="13973">
    <nd ref="255410686"/>
    <nd ref="255411492"/>
    <nd ref="255411497"/>
    <tag k="created_by" v="JOSM"/>
    <tag k="highway" v="residential"/>
    <tag k="source" v="UMP-PL, ./UMP-Szczecin/src/NOWOGARD.ulice.txt"/>
  </way>
  <way id="23586331" version="2" timestamp="2009-10-21T18:25:47Z" uid="36809" user="pfoten_weg_!_" changeset="2915027">
    <nd ref="255410686"/>
    <nd ref="255411492"/>
    <nd ref="255411497"/>
    <tag k="highway" v="residential"/>
    <tag k="source" v="UMP-PL, ./UMP-Szczecin/src/NOWOGARD.ulice.txt"/>
  </way>
  <way id="23586332" version="1" timestamp="2008-04-02T17:36:38Z" uid="30632" user="antblant" changeset="13973">
    <nd ref="255411074"/>
    <nd ref="255410722"/>
    <tag k="created_by" v="JOSM"/>
    <tag k="highway" v="residential"/>
    <tag k="name" v="Jana Kilińskiego"/>
    <tag k="source" v="UMP-PL, ./UMP-Szczecin/src/NOWOGARD.ulice.txt"/>
  </way>
  <way id="23586332" version="2" timestamp="2009-10-21T18:25:46Z" uid="36809" user="pfoten_weg_!_" changeset="2915027">
    <nd ref="255411074"/>
    <nd ref="255410722"/>
    <tag k="highway" v="residential"/>
    <tag k="name" v="Jana Kilińskiego"/>
    <tag k="source" v="UMP-PL, ./UMP-Szczecin/src/NOWOGARD.ulice.txt"/>
  </way>
  <way id="23586333" version="1" timestamp="2008-04-02T17:36:38Z" uid="30632" user="antblant" changeset="13973">
    <nd ref="255411081"/>
    <nd ref="255411249"/>
    <nd ref="255411250"/>
    <nd ref="255411038"/>
    <nd ref="255411051"/>
    <nd ref="255411246"/>
    <nd ref="255411247"/>
    <nd ref="255410817"/>
    <nd ref="255411269"/>
    <nd ref="255411283"/>
    <nd ref="255411265"/>
    <nd ref="255411267"/>
    <nd ref="255410798"/>
    <tag k="created_by" v="JOSM"/>
    <tag k="highway" v="residential"/>
    <tag k="name" v="Stefana Żeromskiego"/>
    <tag k="source" v="UMP-PL, ./UMP-Szczecin/src/NOWOGARD.ulice.txt"/>
  </way>
  <way id="23586333" version="2" timestamp="2009-10-21T18:25:44Z" uid="36809" user="pfoten_weg_!_" changeset="2915027">
    <nd ref="255411081"/>
    <nd ref="255411249"/>
    <nd ref="255411250"/>
    <nd ref="255411038"/>
    <nd ref="255411051"/>
    <nd ref="255411246"/>
    <nd ref="255411247"/>
    <nd ref="255410817"/>
    <nd ref="255411269"/>
    <nd ref="255411283"/>
    <nd ref="255411265"/>
    <nd ref="255411267"/>
    <nd ref="255410798"/>
    <tag k="highway" v="residential"/>
    <tag k="name" v="Stefana Żeromskiego"/>
    <tag k="source" v="UMP-PL, ./UMP-Szczecin/src/NOWOGARD.ulice.txt"/>
  </way>
  <way id="23586334" version="1" timestamp="2008-04-02T17:36:38Z" uid="30632" user="antblant" changeset="13973">
    <nd ref="255411495"/>
    <nd ref="255411474"/>
    <nd ref="255411472"/>
    <nd ref="255411477"/>
    <nd ref="255411476"/>
    <nd ref="255411481"/>
    <tag k="created_by" v="JOSM"/>
    <tag k="highway" v="residential"/>
    <tag k="name" v="Światowida"/>
    <tag k="source" v="UMP-PL, ./UMP-Szczecin/src/NOWOGARD.ulice.txt"/>
  </way>
  <way id="23586334" version="2" timestamp="2009-10-21T18:25:43Z" uid="36809" user="pfoten_weg_!_" changeset="2915027">
    <nd ref="255411495"/>
    <nd ref="255411474"/>
    <nd ref="255411472"/>
    <nd ref="255411477"/>
    <nd ref="255411476"/>
    <nd ref="255411481"/>
    <tag k="highway" v="residential"/>
    <tag k="name" v="Światowida"/>
    <tag k="source" v="UMP-PL, ./UMP-Szczecin/src/NOWOGARD.ulice.txt"/>
  </way>
  <way id="23586335" version="1" timestamp="2008-04-02T17:36:38Z" uid="30632" user="antblant" changeset="13973">
    <nd ref="255410973"/>
    <nd ref="255411226"/>
    <nd ref="255411224"/>
    <nd ref="255411222"/>
    <nd ref="255411221"/>
    <tag k="created_by" v="JOSM"/>
    <tag k="highway" v="residential"/>
    <tag k="name" v="Stefana Czarneckiego"/>
    <tag k="source" v="UMP-PL, ./UMP-Szczecin/src/NOWOGARD.ulice.txt"/>
  </way>
  <way id="23586335" version="2" timestamp="2009-10-21T18:25:42Z" uid="36809" user="pfoten_weg_!_" changeset="2915027">
    <nd ref="255410973"/>
    <nd ref="255411226"/>
    <nd ref="255411224"/>
    <nd ref="255411222"/>
    <nd ref="255411221"/>
    <tag k="highway" v="residential"/>
    <tag k="name" v="Stefana Czarneckiego"/>
    <tag k="source" v="UMP-PL, ./UMP-Szczecin/src/NOWOGARD.ulice.txt"/>
  </way>
  <way id="23586336" version="1" timestamp="2008-04-02T17:36:38Z" uid="30632" user="antblant" changeset="13973">
    <nd ref="255411073"/>
    <nd ref="255411071"/>
    <nd ref="255411070"/>
    <nd ref="255411037"/>
    <nd ref="255411068"/>
    <nd ref="255411066"/>
    <nd ref="255411065"/>
    <nd ref="255411086"/>
    <nd ref="255411114"/>
    <nd ref="255411115"/>
    <nd ref="255411063"/>
    <tag k="created_by" v="JOSM"/>
    <tag k="highway" v="residential"/>
    <tag k="name" v="Nadtorowa"/>
    <tag k="source" v="UMP-PL, ./UMP-Szczecin/src/NOWOGARD.ulice.txt"/>
  </way>
  <way id="23586336" version="2" timestamp="2009-10-21T18:26:24Z" uid="36809" user="pfoten_weg_!_" changeset="2915027">
    <nd ref="255411073"/>
    <nd ref="255411071"/>
    <nd ref="255411070"/>
    <nd ref="255411037"/>
    <nd ref="255411068"/>
    <nd ref="255411066"/>
    <nd ref="255411065"/>
    <nd ref="255411086"/>
    <nd ref="255411114"/>
    <nd ref="255411115"/>
    <nd ref="255411063"/>
    <tag k="highway" v="residential"/>
    <tag k="name" v="Nadtorowa"/>
    <tag k="source" v="UMP-PL, ./UMP-Szczecin/src/NOWOGARD.ulice.txt"/>
  </way>
  <way id="23586337" version="1" timestamp="2008-04-02T17:36:39Z" uid="30632" user="antblant" changeset="13973">
    <nd ref="255410801"/>
    <nd ref="255411384"/>
    <nd ref="255411374"/>
    <nd ref="255411376"/>
    <nd ref="255411396"/>
    <nd ref="255411399"/>
    <tag k="created_by" v="JOSM"/>
    <tag k="highway" v="residential"/>
    <tag k="name" v="Ogrodowa"/>
    <tag k="source" v="UMP-PL, ./UMP-Szczecin/src/NOWOGARD.ulice.txt"/>
  </way>
  <way id="23586337" version="2" timestamp="2009-10-21T18:26:25Z" uid="36809" user="pfoten_weg_!_" changeset="2915027">
    <nd ref="255410801"/>
    <nd ref="255411384"/>
    <nd ref="255411374"/>
    <nd ref="255411376"/>
    <nd ref="255411396"/>
    <nd ref="255411399"/>
    <tag k="highway" v="residential"/>
    <tag k="name" v="Ogrodowa"/>
    <tag k="source" v="UMP-PL, ./UMP-Szczecin/src/NOWOGARD.ulice.txt"/>
  </way>
  <way id="23586338" version="1" timestamp="2008-04-02T17:36:39Z" uid="30632" user="antblant" changeset="13973">
    <nd ref="255411219"/>
    <nd ref="255411244"/>
    <nd ref="255411226"/>
    <tag k="created_by" v="JOSM"/>
    <tag k="highway" v="residential"/>
    <tag k="name" v="Kardynała Stefana Wyszyńskiego"/>
    <tag k="source" v="UMP-PL, ./UMP-Szczecin/src/NOWOGARD.ulice.txt"/>
  </way>
  <way id="23586338" version="2" timestamp="2009-10-21T18:26:26Z" uid="36809" user="pfoten_weg_!_" changeset="2915027">
    <nd ref="255411219"/>
    <nd ref="255411244"/>
    <nd ref="255411226"/>
    <tag k="highway" v="residential"/>
    <tag k="name" v="Kardynała Stefana Wyszyńskiego"/>
    <tag k="source" v="UMP-PL, ./UMP-Szczecin/src/NOWOGARD.ulice.txt"/>
  </way>
  <way id="23586339" version="1" timestamp="2008-04-02T17:36:39Z" uid="30632" user="antblant" changeset="13973">
    <nd ref="255411086"/>
    <nd ref="255411110"/>
    <nd ref="255411112"/>
    <nd ref="255411107"/>
    <nd ref="255410709"/>
    <tag k="created_by" v="JOSM"/>
    <tag k="highway" v="residential"/>
    <tag k="name" v="Batalionów Chłopskich"/>
    <tag k="source" v="UMP-PL, ./UMP-Szczecin/src/NOWOGARD.ulice.txt"/>
  </way>
  <way id="23586339" version="2" timestamp="2009-10-21T18:26:27Z" uid="36809" user="pfoten_weg_!_" changeset="2915027">
    <nd ref="255411086"/>
    <nd ref="255411110"/>
    <nd ref="255411112"/>
    <nd ref="255411107"/>
    <nd ref="255410709"/>
    <tag k="highway" v="residential"/>
    <tag k="name" v="Batalionów Chłopskich"/>
    <tag k="source" v="UMP-PL, ./UMP-Szczecin/src/NOWOGARD.ulice.txt"/>
  </way>
  <way id="23586339" version="3" timestamp="2011-01-04T18:58:00Z" uid="30632" user="antblant" changeset="6864262">
    <nd ref="255411086"/>
    <nd ref="1082638147"/>
    <nd ref="255411110"/>
    <nd ref="255411112"/>
    <nd ref="255411107"/>
    <nd ref="255410709"/>
    <tag k="highway" v="residential"/>
    <tag k="name" v="Batalionów Chłopskich"/>
    <tag k="source" v="UMP-PL, ./UMP-Szczecin/src/NOWOGARD.ulice.txt"/>
  </way>
  <way id="23586340" version="1" timestamp="2008-04-02T17:36:39Z" uid="30632" user="antblant" changeset="13973">
    <nd ref="255411384"/>
    <nd ref="255411387"/>
    <nd ref="255410803"/>
    <tag k="created_by" v="JOSM"/>
    <tag k="highway" v="residential"/>
    <tag k="name" v="Kwietniowa"/>
    <tag k="source" v="UMP-PL, ./UMP-Szczecin/src/NOWOGARD.ulice.txt"/>
  </way>
  <way id="23586340" version="2" timestamp="2009-10-21T18:26:17Z" uid="36809" user="pfoten_weg_!_" changeset="2915027">
    <nd ref="255411384"/>
    <nd ref="255411387"/>
    <nd ref="255410803"/>
    <tag k="highway" v="residential"/>
    <tag k="name" v="Kwietniowa"/>
    <tag k="source" v="UMP-PL, ./UMP-Szczecin/src/NOWOGARD.ulice.txt"/>
  </way>
  <way id="23586341" version="1" timestamp="2008-04-02T17:36:40Z" uid="30632" user="antblant" changeset="13973">
    <nd ref="255411231"/>
    <nd ref="255411229"/>
    <tag k="created_by" v="JOSM"/>
    <tag k="highway" v="residential"/>
    <tag k="name" v="Osiedlowa"/>
    <tag k="source" v="UMP-PL, ./UMP-Szczecin/src/NOWOGARD.ulice.txt"/>
  </way>
  <way id="23586341" version="2" timestamp="2009-10-21T18:26:18Z" uid="36809" user="pfoten_weg_!_" changeset="2915027">
    <nd ref="255411231"/>
    <nd ref="255411229"/>
    <tag k="highway" v="residential"/>
    <tag k="name" v="Osiedlowa"/>
    <tag k="source" v="UMP-PL, ./UMP-Szczecin/src/NOWOGARD.ulice.txt"/>
  </way>
  <way id="23586342" version="1" timestamp="2008-04-02T17:36:40Z" uid="30632" user="antblant" changeset="13973">
    <nd ref="255411109"/>
    <nd ref="255411083"/>
    <nd ref="255411047"/>
    <tag k="created_by" v="JOSM"/>
    <tag k="highway" v="residential"/>
    <tag k="name" v="Władysława Reymonta"/>
    <tag k="source" v="UMP-PL, ./UMP-Szczecin/src/NOWOGARD.ulice.txt"/>
  </way>
  <way id="23586342" version="2" timestamp="2009-10-21T18:26:19Z" uid="36809" user="pfoten_weg_!_" changeset="2915027">
    <nd ref="255411109"/>
    <nd ref="255411083"/>
    <nd ref="255411047"/>
    <tag k="highway" v="residential"/>
    <tag k="name" v="Władysława Reymonta"/>
    <tag k="source" v="UMP-PL, ./UMP-Szczecin/src/NOWOGARD.ulice.txt"/>
  </way>
  <way id="23586343" version="1" timestamp="2008-04-02T17:36:40Z" uid="30632" user="antblant" changeset="13973">
    <nd ref="255411396"/>
    <nd ref="255410791"/>
    <tag k="created_by" v="JOSM"/>
    <tag k="highway" v="residential"/>
    <tag k="name" v="Ogrodowa"/>
    <tag k="source" v="UMP-PL, ./UMP-Szczecin/src/NOWOGARD.ulice.txt"/>
  </way>
  <way id="23586343" version="2" timestamp="2009-10-21T18:26:22Z" uid="36809" user="pfoten_weg_!_" changeset="2915027">
    <nd ref="255411396"/>
    <nd ref="255410791"/>
    <tag k="highway" v="residential"/>
    <tag k="name" v="Ogrodowa"/>
    <tag k="source" v="UMP-PL, ./UMP-Szczecin/src/NOWOGARD.ulice.txt"/>
  </way>
  <way id="23586344" version="1" timestamp="2008-04-02T17:36:40Z" uid="30632" user="antblant" changeset="13973">
    <nd ref="255411175"/>
    <nd ref="255411228"/>
    <tag k="created_by" v="JOSM"/>
    <tag k="highway" v="residential"/>
    <tag k="name" v="Plac Szarych Szeregów"/>
    <tag k="source" v="UMP-PL, ./UMP-Szczecin/src/NOWOGARD.ulice.txt"/>
  </way>
  <way id="23586344" version="2" timestamp="2009-10-21T18:26:11Z" uid="36809" user="pfoten_weg_!_" changeset="2915027">
    <nd ref="255411175"/>
    <nd ref="255411228"/>
    <tag k="highway" v="residential"/>
    <tag k="name" v="Plac Szarych Szeregów"/>
    <tag k="source" v="UMP-PL, ./UMP-Szczecin/src/NOWOGARD.ulice.txt"/>
  </way>
  <way id="23586345" version="1" timestamp="2008-04-02T17:36:40Z" uid="30632" user="antblant" changeset="13973">
    <nd ref="255411050"/>
    <nd ref="255411068"/>
    <tag k="created_by" v="JOSM"/>
    <tag k="highway" v="residential"/>
    <tag k="name" v="Polna"/>
    <tag k="source" v="UMP-PL, ./UMP-Szczecin/src/NOWOGARD.ulice.txt"/>
  </way>
  <way id="23586345" version="2" timestamp="2009-10-21T18:26:12Z" uid="36809" user="pfoten_weg_!_" changeset="2915027">
    <nd ref="255411050"/>
    <nd ref="255411068"/>
    <tag k="highway" v="residential"/>
    <tag k="name" v="Polna"/>
    <tag k="source" v="UMP-PL, ./UMP-Szczecin/src/NOWOGARD.ulice.txt"/>
  </way>
  <way id="23586346" version="1" timestamp="2008-04-02T17:36:40Z" uid="30632" user="antblant" changeset="13973">
    <nd ref="255411391"/>
    <nd ref="255411487"/>
    <nd ref="255411485"/>
    <tag k="created_by" v="JOSM"/>
    <tag k="highway" v="residential"/>
    <tag k="name" v="Krótka"/>
    <tag k="source" v="UMP-PL, ./UMP-Szczecin/src/NOWOGARD.ulice.txt"/>
  </way>
  <way id="23586346" version="2" timestamp="2009-10-21T18:26:14Z" uid="36809" user="pfoten_weg_!_" changeset="2915027">
    <nd ref="255411391"/>
    <nd ref="255411487"/>
    <nd ref="255411485"/>
    <tag k="highway" v="residential"/>
    <tag k="name" v="Krótka"/>
    <tag k="source" v="UMP-PL, ./UMP-Szczecin/src/NOWOGARD.ulice.txt"/>
  </way>
  <way id="23586347" version="1" timestamp="2008-04-02T17:36:41Z" uid="30632" user="antblant" changeset="13973">
    <nd ref="255411267"/>
    <nd ref="255411469"/>
    <nd ref="255411471"/>
    <nd ref="255411446"/>
    <nd ref="255411448"/>
    <nd ref="255410816"/>
    <tag k="created_by" v="JOSM"/>
    <tag k="highway" v="residential"/>
    <tag k="name" v="Zaciszna"/>
    <tag k="source" v="UMP-PL, ./UMP-Szczecin/src/NOWOGARD.ulice.txt"/>
  </way>
  <way id="23586347" version="2" timestamp="2009-10-21T18:26:16Z" uid="36809" user="pfoten_weg_!_" changeset="2915027">
    <nd ref="255411267"/>
    <nd ref="255411469"/>
    <nd ref="255411471"/>
    <nd ref="255411446"/>
    <nd ref="255411448"/>
    <nd ref="255410816"/>
    <tag k="highway" v="residential"/>
    <tag k="name" v="Zaciszna"/>
    <tag k="source" v="UMP-PL, ./UMP-Szczecin/src/NOWOGARD.ulice.txt"/>
  </way>
  <way id="23586348" version="1" timestamp="2008-04-02T17:36:41Z" uid="30632" user="antblant" changeset="13973">
    <nd ref="255410718"/>
    <nd ref="255411104"/>
    <tag k="created_by" v="JOSM"/>
    <tag k="highway" v="residential"/>
    <tag k="name" v="Fabryczna"/>
    <tag k="source" v="UMP-PL, ./UMP-Szczecin/src/NOWOGARD.ulice.txt"/>
  </way>
  <way id="23586348" version="2" timestamp="2009-10-21T18:26:04Z" uid="36809" user="pfoten_weg_!_" changeset="2915027">
    <nd ref="255410718"/>
    <nd ref="255411104"/>
    <tag k="highway" v="residential"/>
    <tag k="name" v="Fabryczna"/>
    <tag k="source" v="UMP-PL, ./UMP-Szczecin/src/NOWOGARD.ulice.txt"/>
  </way>
  <way id="23586349" version="1" timestamp="2008-04-02T17:36:41Z" uid="30632" user="antblant" changeset="13973">
    <nd ref="255411244"/>
    <nd ref="255410974"/>
    <tag k="created_by" v="JOSM"/>
    <tag k="highway" v="residential"/>
    <tag k="name" v="Kościelna"/>
    <tag k="source" v="UMP-PL, ./UMP-Szczecin/src/NOWOGARD.ulice.txt"/>
  </way>
  <way id="23586349" version="2" timestamp="2009-10-21T18:26:08Z" uid="36809" user="pfoten_weg_!_" changeset="2915027">
    <nd ref="255411244"/>
    <nd ref="255410974"/>
    <tag k="highway" v="residential"/>
    <tag k="name" v="Kościelna"/>
    <tag k="source" v="UMP-PL, ./UMP-Szczecin/src/NOWOGARD.ulice.txt"/>
  </way>
  <way id="23586350" version="1" timestamp="2008-04-02T17:36:41Z" uid="30632" user="antblant" changeset="13973">
    <nd ref="255411449"/>
    <nd ref="255411451"/>
    <nd ref="255411453"/>
    <nd ref="255411454"/>
    <nd ref="255410694"/>
    <tag k="created_by" v="JOSM"/>
    <tag k="highway" v="residential"/>
    <tag k="name" v="Radosława"/>
    <tag k="source" v="UMP-PL, ./UMP-Szczecin/src/NOWOGARD.ulice.txt"/>
  </way>
  <way id="23586350" version="2" timestamp="2009-10-21T18:26:10Z" uid="36809" user="pfoten_weg_!_" changeset="2915027">
    <nd ref="255411449"/>
    <nd ref="255411451"/>
    <nd ref="255411453"/>
    <nd ref="255411454"/>
    <nd ref="255410694"/>
    <tag k="highway" v="residential"/>
    <tag k="name" v="Radosława"/>
    <tag k="source" v="UMP-PL, ./UMP-Szczecin/src/NOWOGARD.ulice.txt"/>
  </way>
  <way id="23586352" version="1" timestamp="2008-04-02T17:36:41Z" uid="30632" user="antblant" changeset="13973">
    <nd ref="255411106"/>
    <nd ref="255410715"/>
    <tag k="created_by" v="JOSM"/>
    <tag k="highway" v="residential"/>
    <tag k="name" v="Zielona"/>
    <tag k="source" v="UMP-PL, ./UMP-Szczecin/src/NOWOGARD.ulice.txt"/>
  </way>
  <way id="23586352" version="2" timestamp="2009-10-21T18:26:37Z" uid="36809" user="pfoten_weg_!_" changeset="2915027">
    <nd ref="255411106"/>
    <nd ref="255410715"/>
    <tag k="highway" v="residential"/>
    <tag k="name" v="Zielona"/>
    <tag k="source" v="UMP-PL, ./UMP-Szczecin/src/NOWOGARD.ulice.txt"/>
  </way>
  <way id="23586353" version="1" timestamp="2008-04-02T17:36:42Z" uid="30632" user="antblant" changeset="13973">
    <nd ref="255411241"/>
    <nd ref="255411239"/>
    <nd ref="255411179"/>
    <tag k="created_by" v="JOSM"/>
    <tag k="highway" v="unclassified"/>
    <tag k="name" v="Plac Szarych Szeregów"/>
    <tag k="source" v="UMP-PL, ./UMP-Szczecin/src/NOWOGARD.ulice.txt"/>
    <tag k="surface" v="unpaved"/>
  </way>
  <way id="23586353" version="2" timestamp="2009-10-21T18:26:37Z" uid="36809" user="pfoten_weg_!_" changeset="2915027">
    <nd ref="255411241"/>
    <nd ref="255411239"/>
    <nd ref="255411179"/>
    <tag k="highway" v="unclassified"/>
    <tag k="name" v="Plac Szarych Szeregów"/>
    <tag k="source" v="UMP-PL, ./UMP-Szczecin/src/NOWOGARD.ulice.txt"/>
    <tag k="surface" v="unpaved"/>
  </way>
  <way id="23586354" version="1" timestamp="2008-04-02T17:36:42Z" uid="30632" user="antblant" changeset="13973">
    <nd ref="255411112"/>
    <nd ref="255411456"/>
    <nd ref="255411458"/>
    <nd ref="255410706"/>
    <tag k="created_by" v="JOSM"/>
    <tag k="highway" v="residential"/>
    <tag k="name" v="Rzeszowskiego"/>
    <tag k="source" v="UMP-PL, ./UMP-Szczecin/src/NOWOGARD.ulice.txt"/>
  </way>
  <way id="23586354" version="2" timestamp="2009-10-21T18:26:39Z" uid="36809" user="pfoten_weg_!_" changeset="2915027">
    <nd ref="255411112"/>
    <nd ref="255411456"/>
    <nd ref="255411458"/>
    <nd ref="255410706"/>
    <tag k="highway" v="residential"/>
    <tag k="name" v="Rzeszowskiego"/>
    <tag k="source" v="UMP-PL, ./UMP-Szczecin/src/NOWOGARD.ulice.txt"/>
  </way>
  <way id="23586355" version="1" timestamp="2008-04-02T17:36:42Z" uid="30632" user="antblant" changeset="13973">
    <nd ref="255410979"/>
    <nd ref="255411101"/>
    <nd ref="255411102"/>
    <nd ref="255411097"/>
    <nd ref="255411099"/>
    <nd ref="255411094"/>
    <tag k="created_by" v="JOSM"/>
    <tag k="highway" v="residential"/>
    <tag k="name" v="Leśna"/>
    <tag k="source" v="UMP-PL, ./UMP-Szczecin/src/NOWOGARD.ulice.txt"/>
  </way>
  <way id="23586355" version="2" timestamp="2009-10-21T18:26:38Z" uid="36809" user="pfoten_weg_!_" changeset="2915027">
    <nd ref="255410979"/>
    <nd ref="255411101"/>
    <nd ref="255411102"/>
    <nd ref="255411097"/>
    <nd ref="255411099"/>
    <nd ref="255411094"/>
    <tag k="highway" v="residential"/>
    <tag k="name" v="Leśna"/>
    <tag k="source" v="UMP-PL, ./UMP-Szczecin/src/NOWOGARD.ulice.txt"/>
  </way>
  <way id="23586356" version="1" timestamp="2008-04-02T17:36:42Z" uid="30632" user="antblant" changeset="13973">
    <nd ref="255411221"/>
    <nd ref="255411242"/>
    <nd ref="255411241"/>
    <tag k="created_by" v="JOSM"/>
    <tag k="highway" v="residential"/>
    <tag k="source" v="UMP-PL, ./UMP-Szczecin/src/NOWOGARD.ulice.txt"/>
  </way>
  <way id="23586356" version="2" timestamp="2009-10-21T18:26:35Z" uid="36809" user="pfoten_weg_!_" changeset="2915027">
    <nd ref="255411221"/>
    <nd ref="255411242"/>
    <nd ref="255411241"/>
    <tag k="highway" v="residential"/>
    <tag k="source" v="UMP-PL, ./UMP-Szczecin/src/NOWOGARD.ulice.txt"/>
  </way>
  <way id="23586357" version="1" timestamp="2008-04-02T17:36:42Z" uid="30632" user="antblant" changeset="13973">
    <nd ref="255411549"/>
    <nd ref="255411547"/>
    <nd ref="255411216"/>
    <nd ref="255411545"/>
    <nd ref="255411544"/>
    <tag k="created_by" v="JOSM"/>
    <tag k="highway" v="residential"/>
    <tag k="name" v="Jana Dąbrowskiego"/>
    <tag k="source" v="UMP-PL, ./UMP-Szczecin/src/NOWOGARD.ulice.txt"/>
  </way>
  <way id="23586357" version="2" timestamp="2009-10-21T18:26:34Z" uid="36809" user="pfoten_weg_!_" changeset="2915027">
    <nd ref="255411549"/>
    <nd ref="255411547"/>
    <nd ref="255411216"/>
    <nd ref="255411545"/>
    <nd ref="255411544"/>
    <tag k="highway" v="residential"/>
    <tag k="name" v="Jana Dąbrowskiego"/>
    <tag k="source" v="UMP-PL, ./UMP-Szczecin/src/NOWOGARD.ulice.txt"/>
  </way>
  <way id="23586357" version="3" timestamp="2011-02-06T15:00:52Z" uid="30632" user="antblant" changeset="7204624">
    <nd ref="1139216427"/>
    <nd ref="255411547"/>
    <nd ref="255411216"/>
    <nd ref="255411545"/>
    <nd ref="255411544"/>
    <tag k="highway" v="residential"/>
    <tag k="name" v="Jana Dąbrowskiego"/>
    <tag k="source" v="UMP-PL, ./UMP-Szczecin/src/NOWOGARD.ulice.txt"/>
  </way>
  <way id="23586358" version="1" timestamp="2008-04-02T17:36:43Z" uid="30632" user="antblant" changeset="13973">
    <nd ref="255411101"/>
    <nd ref="255411094"/>
    <nd ref="255410977"/>
    <tag k="created_by" v="JOSM"/>
    <tag k="highway" v="residential"/>
    <tag k="name" v="Leśna"/>
    <tag k="source" v="UMP-PL, ./UMP-Szczecin/src/NOWOGARD.ulice.txt"/>
  </way>
  <way id="23586358" version="2" timestamp="2009-10-21T18:26:36Z" uid="36809" user="pfoten_weg_!_" changeset="2915027">
    <nd ref="255411101"/>
    <nd ref="255411094"/>
    <nd ref="255410977"/>
    <tag k="highway" v="residential"/>
    <tag k="name" v="Leśna"/>
    <tag k="source" v="UMP-PL, ./UMP-Szczecin/src/NOWOGARD.ulice.txt"/>
  </way>
  <way id="23586359" version="1" timestamp="2008-04-02T17:36:43Z" uid="30632" user="antblant" changeset="13973">
    <nd ref="255411228"/>
    <nd ref="255411219"/>
    <tag k="created_by" v="JOSM"/>
    <tag k="highway" v="residential"/>
    <tag k="name" v="Stolarska"/>
    <tag k="source" v="UMP-PL, ./UMP-Szczecin/src/NOWOGARD.ulice.txt"/>
  </way>
  <way id="23586359" version="2" timestamp="2009-10-21T18:26:36Z" uid="36809" user="pfoten_weg_!_" changeset="2915027">
    <nd ref="255411228"/>
    <nd ref="255411219"/>
    <tag k="highway" v="residential"/>
    <tag k="name" v="Stolarska"/>
    <tag k="source" v="UMP-PL, ./UMP-Szczecin/src/NOWOGARD.ulice.txt"/>
  </way>
  <way id="23586360" version="1" timestamp="2008-04-02T17:36:43Z" uid="30632" user="antblant" changeset="13973">
    <nd ref="255410683"/>
    <nd ref="255411472"/>
    <tag k="created_by" v="JOSM"/>
    <tag k="highway" v="residential"/>
    <tag k="name" v="Gryfitów"/>
    <tag k="source" v="UMP-PL, ./UMP-Szczecin/src/NOWOGARD.ulice.txt"/>
  </way>
  <way id="23586360" version="2" timestamp="2009-10-21T18:26:32Z" uid="36809" user="pfoten_weg_!_" changeset="2915027">
    <nd ref="255410683"/>
    <nd ref="255411472"/>
    <tag k="highway" v="residential"/>
    <tag k="name" v="Gryfitów"/>
    <tag k="source" v="UMP-PL, ./UMP-Szczecin/src/NOWOGARD.ulice.txt"/>
  </way>
  <way id="23586361" version="1" timestamp="2008-04-02T17:36:43Z" uid="30632" user="antblant" changeset="13973">
    <nd ref="255411219"/>
    <nd ref="255411178"/>
    <nd ref="255411128"/>
    <tag k="created_by" v="JOSM"/>
    <tag k="highway" v="residential"/>
    <tag k="name" v="Kardynała Stefana Wyszyńskiego"/>
    <tag k="source" v="UMP-PL, ./UMP-Szczecin/src/NOWOGARD.ulice.txt"/>
  </way>
  <way id="23586361" version="2" timestamp="2009-10-21T18:26:32Z" uid="36809" user="pfoten_weg_!_" changeset="2915027">
    <nd ref="255411219"/>
    <nd ref="255411178"/>
    <nd ref="255411128"/>
    <tag k="highway" v="residential"/>
    <tag k="name" v="Kardynała Stefana Wyszyńskiego"/>
    <tag k="source" v="UMP-PL, ./UMP-Szczecin/src/NOWOGARD.ulice.txt"/>
  </way>
  <way id="23586362" version="1" timestamp="2008-04-02T17:36:43Z" uid="30632" user="antblant" changeset="13973">
    <nd ref="255410820"/>
    <nd ref="255410811"/>
    <nd ref="255411096"/>
    <nd ref="255411091"/>
    <nd ref="255411092"/>
    <nd ref="255411146"/>
    <nd ref="255410699"/>
    <tag k="created_by" v="JOSM"/>
    <tag k="highway" v="secondary"/>
    <tag k="name" v="Siedemsetlecia"/>
    <tag k="ref" v="106"/>
    <tag k="source" v="UMP-PL, ./UMP-Szczecin/src/NOWOGARD.ulice.txt"/>
  </way>
  <way id="23586362" version="2" timestamp="2009-10-21T18:26:34Z" uid="36809" user="pfoten_weg_!_" changeset="2915027">
    <nd ref="255410820"/>
    <nd ref="255410811"/>
    <nd ref="255411096"/>
    <nd ref="255411091"/>
    <nd ref="255411092"/>
    <nd ref="255411146"/>
    <nd ref="255410699"/>
    <tag k="highway" v="secondary"/>
    <tag k="name" v="Siedemsetlecia"/>
    <tag k="ref" v="106"/>
    <tag k="source" v="UMP-PL, ./UMP-Szczecin/src/NOWOGARD.ulice.txt"/>
  </way>
  <way id="23586362" version="3" timestamp="2011-01-04T18:57:58Z" uid="30632" user="antblant" changeset="6864262">
    <nd ref="255410820"/>
    <nd ref="255410811"/>
    <nd ref="1082638082"/>
    <nd ref="255411096"/>
    <nd ref="255411091"/>
    <nd ref="255411092"/>
    <nd ref="255411146"/>
    <nd ref="255410699"/>
    <tag k="highway" v="secondary"/>
    <tag k="name" v="Siedemsetlecia"/>
    <tag k="ref" v="106"/>
    <tag k="source" v="UMP-PL, ./UMP-Szczecin/src/NOWOGARD.ulice.txt"/>
  </way>
  <way id="23586363" version="1" timestamp="2008-04-02T17:36:44Z" uid="30632" user="antblant" changeset="13973">
    <nd ref="255411477"/>
    <nd ref="255411479"/>
    <nd ref="255411484"/>
    <nd ref="255411482"/>
    <tag k="created_by" v="JOSM"/>
    <tag k="highway" v="residential"/>
    <tag k="name" v="Gryfitów"/>
    <tag k="source" v="UMP-PL, ./UMP-Szczecin/src/NOWOGARD.ulice.txt"/>
  </way>
  <way id="23586363" version="2" timestamp="2009-10-21T18:26:33Z" uid="36809" user="pfoten_weg_!_" changeset="2915027">
    <nd ref="255411477"/>
    <nd ref="255411479"/>
    <nd ref="255411484"/>
    <nd ref="255411482"/>
    <tag k="highway" v="residential"/>
    <tag k="name" v="Gryfitów"/>
    <tag k="source" v="UMP-PL, ./UMP-Szczecin/src/NOWOGARD.ulice.txt"/>
  </way>
  <way id="23586364" version="1" timestamp="2008-04-02T17:36:44Z" uid="30632" user="antblant" changeset="13973">
    <nd ref="255411226"/>
    <nd ref="255411237"/>
    <nd ref="255410971"/>
    <tag k="created_by" v="JOSM"/>
    <tag k="highway" v="residential"/>
    <tag k="name" v="Plac Wolności"/>
    <tag k="source" v="UMP-PL, ./UMP-Szczecin/src/NOWOGARD.ulice.txt"/>
  </way>
  <way id="23586364" version="4" timestamp="2009-10-21T18:26:30Z" uid="36809" user="pfoten_weg_!_" changeset="2915027">
    <nd ref="255411226"/>
    <nd ref="255411237"/>
    <nd ref="255410971"/>
    <tag k="highway" v="residential"/>
    <tag k="name" v="Plac Wolności"/>
    <tag k="source" v="UMP-PL, ./UMP-Szczecin/src/NOWOGARD.ulice.txt"/>
  </way>
  <way id="23586365" version="1" timestamp="2008-04-02T17:36:44Z" uid="30632" user="antblant" changeset="13973">
    <nd ref="255410764"/>
    <nd ref="255411148"/>
    <nd ref="255410983"/>
    <nd ref="255411143"/>
    <nd ref="255411145"/>
    <tag k="created_by" v="JOSM"/>
    <tag k="highway" v="residential"/>
    <tag k="name" v="Józefa Wybickiego"/>
    <tag k="source" v="UMP-PL, ./UMP-Szczecin/src/NOWOGARD.ulice.txt"/>
  </way>
  <way id="23586365" version="3" timestamp="2009-10-21T18:26:29Z" uid="36809" user="pfoten_weg_!_" changeset="2915027">
    <nd ref="255410764"/>
    <nd ref="255411148"/>
    <nd ref="255410983"/>
    <nd ref="255411143"/>
    <nd ref="255411145"/>
    <tag k="highway" v="residential"/>
    <tag k="name" v="Generała Józefa Wybickiego"/>
    <tag k="source" v="UMP-PL, ./UMP-Szczecin/src/NOWOGARD.ulice.txt"/>
  </way>
  <way id="23586366" version="1" timestamp="2008-04-02T17:36:44Z" uid="30632" user="antblant" changeset="13973">
    <nd ref="255410800"/>
    <nd ref="255411482"/>
    <nd ref="255411459"/>
    <nd ref="255411461"/>
    <nd ref="255411463"/>
    <tag k="created_by" v="JOSM"/>
    <tag k="highway" v="residential"/>
    <tag k="name" v="Jana Pawła II"/>
    <tag k="source" v="UMP-PL, ./UMP-Szczecin/src/NOWOGARD.ulice.txt"/>
  </way>
  <way id="23586366" version="2" timestamp="2009-10-21T18:26:31Z" uid="36809" user="pfoten_weg_!_" changeset="2915027">
    <nd ref="255410800"/>
    <nd ref="255411482"/>
    <nd ref="255411459"/>
    <nd ref="255411461"/>
    <nd ref="255411463"/>
    <tag k="highway" v="residential"/>
    <tag k="name" v="Jana Pawła II"/>
    <tag k="source" v="UMP-PL, ./UMP-Szczecin/src/NOWOGARD.ulice.txt"/>
  </way>
  <way id="23586367" version="1" timestamp="2008-04-02T17:36:44Z" uid="30632" user="antblant" changeset="13973">
    <nd ref="255411228"/>
    <nd ref="255411224"/>
    <tag k="created_by" v="JOSM"/>
    <tag k="highway" v="residential"/>
    <tag k="name" v="Luboszan"/>
    <tag k="source" v="UMP-PL, ./UMP-Szczecin/src/NOWOGARD.ulice.txt"/>
  </way>
  <way id="23586367" version="2" timestamp="2009-10-21T18:26:31Z" uid="36809" user="pfoten_weg_!_" changeset="2915027">
    <nd ref="255411228"/>
    <nd ref="255411224"/>
    <tag k="highway" v="residential"/>
    <tag k="name" v="Luboszan"/>
    <tag k="source" v="UMP-PL, ./UMP-Szczecin/src/NOWOGARD.ulice.txt"/>
  </way>
  <way id="23586368" version="1" timestamp="2008-04-02T17:36:45Z" uid="30632" user="antblant" changeset="13973">
    <nd ref="255410982"/>
    <nd ref="255411153"/>
    <nd ref="255411145"/>
    <tag k="created_by" v="JOSM"/>
    <tag k="highway" v="residential"/>
    <tag k="name" v="Stanisława Staszica"/>
    <tag k="source" v="UMP-PL, ./UMP-Szczecin/src/NOWOGARD.ulice.txt"/>
  </way>
  <way id="23586368" version="2" timestamp="2009-10-21T18:26:48Z" uid="36809" user="pfoten_weg_!_" changeset="2915027">
    <nd ref="255410982"/>
    <nd ref="255411153"/>
    <nd ref="255411145"/>
    <tag k="highway" v="residential"/>
    <tag k="name" v="Stanisława Staszica"/>
    <tag k="source" v="UMP-PL, ./UMP-Szczecin/src/NOWOGARD.ulice.txt"/>
  </way>
  <way id="23586369" version="1" timestamp="2008-04-02T17:36:45Z" uid="30632" user="antblant" changeset="13973">
    <nd ref="255411464"/>
    <nd ref="255411466"/>
    <nd ref="255411468"/>
    <nd ref="255410706"/>
    <tag k="created_by" v="JOSM"/>
    <tag k="highway" v="residential"/>
    <tag k="name" v="Dworcowa"/>
    <tag k="source" v="UMP-PL, ./UMP-Szczecin/src/NOWOGARD.ulice.txt"/>
  </way>
  <way id="23586369" version="2" timestamp="2009-10-21T18:26:49Z" uid="36809" user="pfoten_weg_!_" changeset="2915027">
    <nd ref="255411464"/>
    <nd ref="255411466"/>
    <nd ref="255411468"/>
    <nd ref="255410706"/>
    <tag k="highway" v="residential"/>
    <tag k="name" v="Dworcowa"/>
    <tag k="source" v="UMP-PL, ./UMP-Szczecin/src/NOWOGARD.ulice.txt"/>
  </way>
  <way id="23586370" version="1" timestamp="2008-04-02T17:36:45Z" uid="30632" user="antblant" changeset="13973">
    <nd ref="255411219"/>
    <nd ref="255410964"/>
    <tag k="created_by" v="JOSM"/>
    <tag k="highway" v="residential"/>
    <tag k="name" v="Stolarska"/>
    <tag k="source" v="UMP-PL, ./UMP-Szczecin/src/NOWOGARD.ulice.txt"/>
  </way>
  <way id="23586370" version="2" timestamp="2009-10-21T18:26:47Z" uid="36809" user="pfoten_weg_!_" changeset="2915027">
    <nd ref="255411219"/>
    <nd ref="255410964"/>
    <tag k="highway" v="residential"/>
    <tag k="name" v="Stolarska"/>
    <tag k="source" v="UMP-PL, ./UMP-Szczecin/src/NOWOGARD.ulice.txt"/>
  </way>
  <way id="23586371" version="1" timestamp="2008-04-02T17:36:45Z" uid="30632" user="antblant" changeset="13973">
    <nd ref="255411153"/>
    <nd ref="255411154"/>
    <nd ref="255411149"/>
    <nd ref="255410969"/>
    <tag k="created_by" v="JOSM"/>
    <tag k="highway" v="residential"/>
    <tag k="name" v="Cypriana Kamila Norwida"/>
    <tag k="source" v="UMP-PL, ./UMP-Szczecin/src/NOWOGARD.ulice.txt"/>
  </way>
  <way id="23586371" version="2" timestamp="2009-10-21T18:26:47Z" uid="36809" user="pfoten_weg_!_" changeset="2915027">
    <nd ref="255411153"/>
    <nd ref="255411154"/>
    <nd ref="255411149"/>
    <nd ref="255410969"/>
    <tag k="highway" v="residential"/>
    <tag k="name" v="Cypriana Kamila Norwida"/>
    <tag k="source" v="UMP-PL, ./UMP-Szczecin/src/NOWOGARD.ulice.txt"/>
  </way>
  <way id="23586372" version="1" timestamp="2008-04-02T17:36:45Z" uid="30632" user="antblant" changeset="13973">
    <nd ref="255410991"/>
    <nd ref="255411007"/>
    <nd ref="255411032"/>
    <nd ref="255411030"/>
    <nd ref="255411035"/>
    <nd ref="255411033"/>
    <nd ref="255411025"/>
    <nd ref="255410748"/>
    <tag k="created_by" v="JOSM"/>
    <tag k="highway" v="residential"/>
    <tag k="name" v="Wiejska"/>
    <tag k="source" v="UMP-PL, ./UMP-Szczecin/src/NOWOGARD.ulice.txt"/>
  </way>
  <way id="23586372" version="2" timestamp="2009-10-21T18:26:51Z" uid="36809" user="pfoten_weg_!_" changeset="2915027">
    <nd ref="255410991"/>
    <nd ref="255411007"/>
    <nd ref="255411032"/>
    <nd ref="255411030"/>
    <nd ref="255411035"/>
    <nd ref="255411033"/>
    <nd ref="255411025"/>
    <nd ref="255410748"/>
    <tag k="highway" v="residential"/>
    <tag k="name" v="Wiejska"/>
    <tag k="source" v="UMP-PL, ./UMP-Szczecin/src/NOWOGARD.ulice.txt"/>
  </way>
  <way id="23586373" version="1" timestamp="2008-04-02T17:36:46Z" uid="30632" user="antblant" changeset="13973">
    <nd ref="255410973"/>
    <nd ref="255410971"/>
    <tag k="created_by" v="JOSM"/>
    <tag k="highway" v="primary"/>
    <tag k="name" v="Plac Wolności"/>
    <tag k="ref" v="6"/>
    <tag k="source" v="UMP-PL, ./UMP-Szczecin/src/NOWOGARD.ulice.txt"/>
  </way>
  <way id="23586373" version="5" timestamp="2009-10-21T18:26:52Z" uid="36809" user="pfoten_weg_!_" changeset="2915027">
    <nd ref="255410973"/>
    <nd ref="255410971"/>
    <tag k="highway" v="primary"/>
    <tag k="int_ref" v="E 28"/>
    <tag k="name" v="Plac Wolności"/>
    <tag k="ref" v="6"/>
    <tag k="source" v="UMP-PL, ./UMP-Szczecin/src/NOWOGARD.ulice.txt"/>
  </way>
  <way id="23586374" version="1" timestamp="2008-04-02T17:36:46Z" uid="30632" user="antblant" changeset="13973">
    <nd ref="255411122"/>
    <nd ref="255411120"/>
    <tag k="created_by" v="JOSM"/>
    <tag k="highway" v="residential"/>
    <tag k="source" v="UMP-PL, ./UMP-Szczecin/src/NOWOGARD.ulice.txt"/>
  </way>
  <way id="23586374" version="5" timestamp="2009-10-21T18:26:50Z" uid="36809" user="pfoten_weg_!_" changeset="2915027">
    <nd ref="255411122"/>
    <nd ref="255411120"/>
    <nd ref="378331377"/>
    <nd ref="378331378"/>
    <nd ref="378331379"/>
    <nd ref="378331384"/>
    <nd ref="378331388"/>
    <nd ref="378331395"/>
    <nd ref="378331403"/>
    <tag k="highway" v="track"/>
    <tag k="source" v="UMP-PL, ./UMP-Szczecin/src/NOWOGARD.ulice.txt"/>
    <tag k="tracktype" v="grade3"/>
  </way>
  <way id="23586375" version="1" timestamp="2008-04-02T17:36:46Z" uid="30632" user="antblant" changeset="13973">
    <nd ref="255411526"/>
    <nd ref="255411507"/>
    <nd ref="255411502"/>
    <nd ref="255411504"/>
    <nd ref="255411499"/>
    <nd ref="255411500"/>
    <tag k="created_by" v="JOSM"/>
    <tag k="highway" v="residential"/>
    <tag k="name" v="Monte Cassino"/>
    <tag k="source" v="UMP-PL, ./UMP-Szczecin/src/NOWOGARD.ulice.txt"/>
  </way>
  <way id="23586375" version="2" timestamp="2009-10-21T18:26:51Z" uid="36809" user="pfoten_weg_!_" changeset="2915027">
    <nd ref="255411526"/>
    <nd ref="255411507"/>
    <nd ref="255411502"/>
    <nd ref="255411504"/>
    <nd ref="255411499"/>
    <nd ref="255411500"/>
    <tag k="highway" v="residential"/>
    <tag k="name" v="Monte Cassino"/>
    <tag k="source" v="UMP-PL, ./UMP-Szczecin/src/NOWOGARD.ulice.txt"/>
  </way>
  <way id="23586376" version="1" timestamp="2008-04-02T17:36:46Z" uid="30632" user="antblant" changeset="13973">
    <nd ref="255410971"/>
    <nd ref="255411288"/>
    <tag k="created_by" v="JOSM"/>
    <tag k="highway" v="residential"/>
    <tag k="name" v="Obrodytów"/>
    <tag k="source" v="UMP-PL, ./UMP-Szczecin/src/NOWOGARD.ulice.txt"/>
  </way>
  <way id="23586376" version="2" timestamp="2008-11-05T00:53:51Z" uid="30632" user="antblant" changeset="687931">
    <nd ref="255410971"/>
    <nd ref="255411288"/>
    <tag k="created_by" v="Potlatch 0.10f"/>
    <tag k="highway" v="residential"/>
    <tag k="name" v="Obodrytów"/>
    <tag k="source" v="UMP-PL, ./UMP-Szczecin/src/NOWOGARD.ulice.txt"/>
  </way>
  <way id="23586376" version="3" timestamp="2009-10-21T18:26:42Z" uid="36809" user="pfoten_weg_!_" changeset="2915027">
    <nd ref="255410971"/>
    <nd ref="255411288"/>
    <tag k="highway" v="residential"/>
    <tag k="name" v="Obodrytów"/>
    <tag k="source" v="UMP-PL, ./UMP-Szczecin/src/NOWOGARD.ulice.txt"/>
  </way>
  <way id="23586377" version="1" timestamp="2008-04-02T17:36:46Z" uid="30632" user="antblant" changeset="13973">
    <nd ref="255410996"/>
    <nd ref="255410989"/>
    <nd ref="255410986"/>
    <nd ref="255410987"/>
    <nd ref="255410993"/>
    <nd ref="255410995"/>
    <nd ref="255410990"/>
    <nd ref="255410784"/>
    <tag k="created_by" v="JOSM"/>
    <tag k="highway" v="residential"/>
    <tag k="name" v="Lipowa"/>
    <tag k="source" v="UMP-PL, ./UMP-Szczecin/src/NOWOGARD.ulice.txt"/>
  </way>
  <way id="23586377" version="2" timestamp="2009-10-21T18:26:43Z" uid="36809" user="pfoten_weg_!_" changeset="2915027">
    <nd ref="255410996"/>
    <nd ref="255410989"/>
    <nd ref="255410986"/>
    <nd ref="255410987"/>
    <nd ref="255410993"/>
    <nd ref="255410995"/>
    <nd ref="255410990"/>
    <nd ref="255410784"/>
    <tag k="highway" v="residential"/>
    <tag k="name" v="Lipowa"/>
    <tag k="source" v="UMP-PL, ./UMP-Szczecin/src/NOWOGARD.ulice.txt"/>
  </way>
  <way id="23586378" version="1" timestamp="2008-04-02T17:36:47Z" uid="30632" user="antblant" changeset="13973">
    <nd ref="255410739"/>
    <nd ref="255410968"/>
    <nd ref="255410966"/>
    <nd ref="255410964"/>
    <nd ref="255410976"/>
    <nd ref="255410974"/>
    <nd ref="255410973"/>
    <tag k="created_by" v="JOSM"/>
    <tag k="highway" v="primary"/>
    <tag k="name" v="Warszawska"/>
    <tag k="ref" v="6"/>
    <tag k="source" v="UMP-PL, ./UMP-Szczecin/src/NOWOGARD.ulice.txt"/>
  </way>
  <way id="23586378" version="3" timestamp="2009-10-21T18:26:39Z" uid="36809" user="pfoten_weg_!_" changeset="2915027">
    <nd ref="255410739"/>
    <nd ref="255410968"/>
    <nd ref="255410966"/>
    <nd ref="255410964"/>
    <nd ref="255410976"/>
    <nd ref="255410974"/>
    <nd ref="255410973"/>
    <tag k="highway" v="primary"/>
    <tag k="int_ref" v="E 28"/>
    <tag k="name" v="Warszawska"/>
    <tag k="ref" v="6"/>
    <tag k="source" v="UMP-PL, ./UMP-Szczecin/src/NOWOGARD.ulice.txt"/>
  </way>
  <way id="23586379" version="1" timestamp="2008-04-02T17:36:47Z" uid="30632" user="antblant" changeset="13973">
    <nd ref="255410744"/>
    <nd ref="255411163"/>
    <nd ref="255411165"/>
    <tag k="created_by" v="JOSM"/>
    <tag k="highway" v="residential"/>
    <tag k="name" v="Plac Ofiar Katynia"/>
    <tag k="source" v="UMP-PL, ./UMP-Szczecin/src/NOWOGARD.ulice.txt"/>
  </way>
  <way id="23586379" version="2" timestamp="2009-10-21T18:26:41Z" uid="36809" user="pfoten_weg_!_" changeset="2915027">
    <nd ref="255410744"/>
    <nd ref="255411163"/>
    <nd ref="255411165"/>
    <tag k="highway" v="residential"/>
    <tag k="name" v="Plac Ofiar Katynia"/>
    <tag k="source" v="UMP-PL, ./UMP-Szczecin/src/NOWOGARD.ulice.txt"/>
  </way>
  <way id="23586380" version="1" timestamp="2008-04-02T17:36:47Z" uid="30632" user="antblant" changeset="13973">
    <nd ref="255411138"/>
    <nd ref="255411512"/>
    <nd ref="255411513"/>
    <nd ref="255411509"/>
    <nd ref="255411510"/>
    <nd ref="255411505"/>
    <nd ref="255411199"/>
    <tag k="created_by" v="JOSM"/>
    <tag k="highway" v="residential"/>
    <tag k="source" v="UMP-PL, ./UMP-Szczecin/src/NOWOGARD.ulice.txt"/>
  </way>
  <way id="23586380" version="2" timestamp="2009-10-21T18:26:46Z" uid="36809" user="pfoten_weg_!_" changeset="2915027">
    <nd ref="255411138"/>
    <nd ref="255411512"/>
    <nd ref="255411513"/>
    <nd ref="255411509"/>
    <nd ref="255411510"/>
    <nd ref="255411505"/>
    <nd ref="255411199"/>
    <tag k="highway" v="residential"/>
    <tag k="source" v="UMP-PL, ./UMP-Szczecin/src/NOWOGARD.ulice.txt"/>
  </way>
  <way id="23586381" version="1" timestamp="2008-04-02T17:36:47Z" uid="30632" user="antblant" changeset="13973">
    <nd ref="255411289"/>
    <nd ref="255410973"/>
    <tag k="created_by" v="JOSM"/>
    <tag k="highway" v="residential"/>
    <tag k="name" v="Sadowa"/>
    <tag k="source" v="UMP-PL, ./UMP-Szczecin/src/NOWOGARD.ulice.txt"/>
  </way>
  <way id="23586381" version="2" timestamp="2009-10-21T18:26:46Z" uid="36809" user="pfoten_weg_!_" changeset="2915027">
    <nd ref="255411289"/>
    <nd ref="255410973"/>
    <tag k="highway" v="residential"/>
    <tag k="name" v="Sadowa"/>
    <tag k="source" v="UMP-PL, ./UMP-Szczecin/src/NOWOGARD.ulice.txt"/>
  </way>
  <way id="23586382" version="1" timestamp="2008-04-02T17:36:48Z" uid="30632" user="antblant" changeset="13973">
    <nd ref="255410778"/>
    <nd ref="255410996"/>
    <nd ref="255410998"/>
    <nd ref="255411005"/>
    <nd ref="255411007"/>
    <nd ref="255411002"/>
    <nd ref="255411004"/>
    <nd ref="255410988"/>
    <tag k="created_by" v="JOSM"/>
    <tag k="highway" v="residential"/>
    <tag k="name" v="Grota-Roweckiego"/>
    <tag k="source" v="UMP-PL, ./UMP-Szczecin/src/NOWOGARD.ulice.txt"/>
  </way>
  <way id="23586382" version="3" timestamp="2009-10-21T18:26:44Z" uid="36809" user="pfoten_weg_!_" changeset="2915027">
    <nd ref="255410778"/>
    <nd ref="255410996"/>
    <nd ref="255410998"/>
    <nd ref="255411005"/>
    <nd ref="255411007"/>
    <nd ref="255411002"/>
    <nd ref="255411004"/>
    <nd ref="255410988"/>
    <tag k="highway" v="residential"/>
    <tag k="name" v="Generała Stefana &quot;Grota&quot; Roweckiego"/>
    <tag k="source" v="UMP-PL, ./UMP-Szczecin/src/NOWOGARD.ulice.txt"/>
  </way>
  <way id="23586384" version="1" timestamp="2008-04-02T17:36:48Z" uid="30632" user="antblant" changeset="13973">
    <nd ref="255410779"/>
    <nd ref="255411017"/>
    <nd ref="255410991"/>
    <nd ref="255411015"/>
    <tag k="created_by" v="JOSM"/>
    <tag k="highway" v="residential"/>
    <tag k="name" v="Roosevelta"/>
    <tag k="source" v="UMP-PL, ./UMP-Szczecin/src/NOWOGARD.ulice.txt"/>
  </way>
  <way id="23586384" version="2" timestamp="2009-10-21T18:27:04Z" uid="36809" user="pfoten_weg_!_" changeset="2915027">
    <nd ref="255410779"/>
    <nd ref="255411017"/>
    <nd ref="255410991"/>
    <nd ref="255411015"/>
    <tag k="highway" v="residential"/>
    <tag k="name" v="Roosevelta"/>
    <tag k="source" v="UMP-PL, ./UMP-Szczecin/src/NOWOGARD.ulice.txt"/>
  </way>
  <way id="23586385" version="1" timestamp="2008-04-02T17:36:48Z" uid="30632" user="antblant" changeset="13973">
    <nd ref="255411151"/>
    <nd ref="255411166"/>
    <nd ref="255411168"/>
    <nd ref="255410988"/>
    <tag k="created_by" v="JOSM"/>
    <tag k="highway" v="residential"/>
    <tag k="name" v="Macieja Rataja"/>
    <tag k="source" v="UMP-PL, ./UMP-Szczecin/src/NOWOGARD.ulice.txt"/>
  </way>
  <way id="23586385" version="2" timestamp="2009-10-21T18:27:04Z" uid="36809" user="pfoten_weg_!_" changeset="2915027">
    <nd ref="255411151"/>
    <nd ref="255411166"/>
    <nd ref="255411168"/>
    <nd ref="255410988"/>
    <tag k="highway" v="residential"/>
    <tag k="name" v="Macieja Rataja"/>
    <tag k="source" v="UMP-PL, ./UMP-Szczecin/src/NOWOGARD.ulice.txt"/>
  </way>
  <way id="23586386" version="1" timestamp="2008-04-02T17:36:48Z" uid="30632" user="antblant" changeset="13973">
    <nd ref="255411136"/>
    <nd ref="255411526"/>
    <nd ref="255411524"/>
    <nd ref="255411523"/>
    <nd ref="255411521"/>
    <nd ref="255411522"/>
    <nd ref="255411518"/>
    <nd ref="255411520"/>
    <nd ref="255411515"/>
    <nd ref="255411517"/>
    <tag k="created_by" v="JOSM"/>
    <tag k="highway" v="residential"/>
    <tag k="source" v="UMP-PL, ./UMP-Szczecin/src/NOWOGARD.ulice.txt"/>
  </way>
  <way id="23586386" version="2" timestamp="2009-10-21T18:27:00Z" uid="36809" user="pfoten_weg_!_" changeset="2915027">
    <nd ref="255411136"/>
    <nd ref="255411526"/>
    <nd ref="255411524"/>
    <nd ref="255411523"/>
    <nd ref="255411521"/>
    <nd ref="255411522"/>
    <nd ref="255411518"/>
    <nd ref="255411520"/>
    <nd ref="255411515"/>
    <nd ref="255411517"/>
    <tag k="highway" v="residential"/>
    <tag k="source" v="UMP-PL, ./UMP-Szczecin/src/NOWOGARD.ulice.txt"/>
  </way>
  <way id="23586387" version="1" timestamp="2008-04-02T17:36:48Z" uid="30632" user="antblant" changeset="13973">
    <nd ref="255411301"/>
    <nd ref="255411302"/>
    <nd ref="255411288"/>
    <nd ref="255411289"/>
    <tag k="created_by" v="JOSM"/>
    <tag k="highway" v="residential"/>
    <tag k="name" v="5 Marca"/>
    <tag k="source" v="UMP-PL, ./UMP-Szczecin/src/NOWOGARD.ulice.txt"/>
  </way>
  <way id="23586387" version="2" timestamp="2009-10-21T18:26:59Z" uid="36809" user="pfoten_weg_!_" changeset="2915027">
    <nd ref="255411301"/>
    <nd ref="255411302"/>
    <nd ref="255411288"/>
    <nd ref="255411289"/>
    <tag k="highway" v="residential"/>
    <tag k="name" v="5 Marca"/>
    <tag k="source" v="UMP-PL, ./UMP-Szczecin/src/NOWOGARD.ulice.txt"/>
  </way>
  <way id="23586388" version="1" timestamp="2008-04-02T17:36:49Z" uid="30632" user="antblant" changeset="13973">
    <nd ref="255410971"/>
    <nd ref="255411000"/>
    <nd ref="255411001"/>
    <nd ref="255410699"/>
    <tag k="created_by" v="JOSM"/>
    <tag k="highway" v="primary"/>
    <tag k="name" v="Siedemsetlecia"/>
    <tag k="ref" v="6"/>
    <tag k="source" v="UMP-PL, ./UMP-Szczecin/src/NOWOGARD.ulice.txt"/>
  </way>
  <way id="23586388" version="3" timestamp="2009-10-21T18:27:08Z" uid="36809" user="pfoten_weg_!_" changeset="2915027">
    <nd ref="255410971"/>
    <nd ref="255411000"/>
    <nd ref="255411001"/>
    <nd ref="255410699"/>
    <tag k="highway" v="primary"/>
    <tag k="int_ref" v="E 28"/>
    <tag k="name" v="Siedemsetlecia"/>
    <tag k="ref" v="6"/>
    <tag k="source" v="UMP-PL, ./UMP-Szczecin/src/NOWOGARD.ulice.txt"/>
  </way>
  <way id="23586389" version="1" timestamp="2008-04-02T17:36:49Z" uid="30632" user="antblant" changeset="13973">
    <nd ref="255410776"/>
    <nd ref="255410989"/>
    <nd ref="255411021"/>
    <nd ref="255411029"/>
    <nd ref="255411027"/>
    <nd ref="255411032"/>
    <tag k="created_by" v="JOSM"/>
    <tag k="highway" v="residential"/>
    <tag k="name" v="Świerkowa"/>
    <tag k="source" v="UMP-PL, ./UMP-Szczecin/src/NOWOGARD.ulice.txt"/>
  </way>
  <way id="23586389" version="2" timestamp="2009-10-21T18:27:06Z" uid="36809" user="pfoten_weg_!_" changeset="2915027">
    <nd ref="255410776"/>
    <nd ref="255410989"/>
    <nd ref="255411021"/>
    <nd ref="255411029"/>
    <nd ref="255411027"/>
    <nd ref="255411032"/>
    <tag k="highway" v="residential"/>
    <tag k="name" v="Świerkowa"/>
    <tag k="source" v="UMP-PL, ./UMP-Szczecin/src/NOWOGARD.ulice.txt"/>
  </way>
  <way id="23586390" version="1" timestamp="2008-04-02T17:36:49Z" uid="30632" user="antblant" changeset="13973">
    <nd ref="255411002"/>
    <nd ref="255411151"/>
    <nd ref="255411159"/>
    <nd ref="255411161"/>
    <nd ref="255411156"/>
    <nd ref="255411157"/>
    <nd ref="255410746"/>
    <tag k="created_by" v="JOSM"/>
    <tag k="highway" v="residential"/>
    <tag k="name" v="Kosynierów"/>
    <tag k="source" v="UMP-PL, ./UMP-Szczecin/src/NOWOGARD.ulice.txt"/>
  </way>
  <way id="23586390" version="2" timestamp="2009-10-21T18:27:05Z" uid="36809" user="pfoten_weg_!_" changeset="2915027">
    <nd ref="255411002"/>
    <nd ref="255411151"/>
    <nd ref="255411159"/>
    <nd ref="255411161"/>
    <nd ref="255411156"/>
    <nd ref="255411157"/>
    <nd ref="255410746"/>
    <tag k="highway" v="residential"/>
    <tag k="name" v="Kosynierów"/>
    <tag k="source" v="UMP-PL, ./UMP-Szczecin/src/NOWOGARD.ulice.txt"/>
  </way>
  <way id="23586391" version="1" timestamp="2008-04-02T17:36:49Z" uid="30632" user="antblant" changeset="13973">
    <nd ref="255411214"/>
    <nd ref="255411529"/>
    <tag k="created_by" v="JOSM"/>
    <tag k="highway" v="residential"/>
    <tag k="source" v="UMP-PL, ./UMP-Szczecin/src/NOWOGARD.ulice.txt"/>
  </way>
  <way id="23586391" version="2" timestamp="2009-10-21T18:27:05Z" uid="36809" user="pfoten_weg_!_" changeset="2915027">
    <nd ref="255411214"/>
    <nd ref="255411529"/>
    <tag k="highway" v="residential"/>
    <tag k="source" v="UMP-PL, ./UMP-Szczecin/src/NOWOGARD.ulice.txt"/>
  </way>
  <way id="23586392" version="1" timestamp="2008-04-02T17:36:49Z" uid="30632" user="antblant" changeset="13973">
    <nd ref="255411305"/>
    <nd ref="255411304"/>
    <nd ref="255411311"/>
    <nd ref="255411307"/>
    <nd ref="255411299"/>
    <nd ref="255411297"/>
    <nd ref="255411302"/>
    <tag k="created_by" v="JOSM"/>
    <tag k="highway" v="residential"/>
    <tag k="source" v="UMP-PL, ./UMP-Szczecin/src/NOWOGARD.ulice.txt"/>
  </way>
  <way id="23586392" version="2" timestamp="2009-10-21T18:26:56Z" uid="36809" user="pfoten_weg_!_" changeset="2915027">
    <nd ref="255411305"/>
    <nd ref="255411304"/>
    <nd ref="255411311"/>
    <nd ref="255411307"/>
    <nd ref="255411299"/>
    <nd ref="255411297"/>
    <nd ref="255411302"/>
    <tag k="highway" v="residential"/>
    <tag k="source" v="UMP-PL, ./UMP-Szczecin/src/NOWOGARD.ulice.txt"/>
  </way>
  <way id="23586393" version="1" timestamp="2008-04-02T17:36:50Z" uid="30632" user="antblant" changeset="13973">
    <nd ref="255411175"/>
    <nd ref="255411173"/>
    <nd ref="255411178"/>
    <nd ref="255410968"/>
    <tag k="created_by" v="JOSM"/>
    <tag k="highway" v="residential"/>
    <tag k="name" v="Blacharska"/>
    <tag k="source" v="UMP-PL, ./UMP-Szczecin/src/NOWOGARD.ulice.txt"/>
  </way>
  <way id="23586393" version="2" timestamp="2009-10-21T18:26:55Z" uid="36809" user="pfoten_weg_!_" changeset="2915027">
    <nd ref="255411175"/>
    <nd ref="255411173"/>
    <nd ref="255411178"/>
    <nd ref="255410968"/>
    <tag k="highway" v="residential"/>
    <tag k="name" v="Blacharska"/>
    <tag k="source" v="UMP-PL, ./UMP-Szczecin/src/NOWOGARD.ulice.txt"/>
  </way>
  <way id="23586394" version="1" timestamp="2008-04-02T17:36:50Z" uid="30632" user="antblant" changeset="13973">
    <nd ref="255411021"/>
    <nd ref="255411008"/>
    <nd ref="255411013"/>
    <nd ref="255410998"/>
    <nd ref="255411017"/>
    <tag k="created_by" v="JOSM"/>
    <tag k="highway" v="residential"/>
    <tag k="name" v="Dębowa"/>
    <tag k="source" v="UMP-PL, ./UMP-Szczecin/src/NOWOGARD.ulice.txt"/>
  </way>
  <way id="23586394" version="2" timestamp="2009-10-21T18:26:55Z" uid="36809" user="pfoten_weg_!_" changeset="2915027">
    <nd ref="255411021"/>
    <nd ref="255411008"/>
    <nd ref="255411013"/>
    <nd ref="255410998"/>
    <nd ref="255411017"/>
    <tag k="highway" v="residential"/>
    <tag k="name" v="Dębowa"/>
    <tag k="source" v="UMP-PL, ./UMP-Szczecin/src/NOWOGARD.ulice.txt"/>
  </way>
  <way id="23586395" version="1" timestamp="2008-04-02T17:36:50Z" uid="30632" user="antblant" changeset="13973">
    <nd ref="255410810"/>
    <nd ref="255410822"/>
    <nd ref="255410824"/>
    <nd ref="255410840"/>
    <nd ref="255410839"/>
    <nd ref="255410844"/>
    <nd ref="255410842"/>
    <nd ref="255410834"/>
    <nd ref="255410832"/>
    <nd ref="255410837"/>
    <nd ref="255410835"/>
    <nd ref="255410853"/>
    <nd ref="255410852"/>
    <nd ref="255410857"/>
    <nd ref="255410855"/>
    <nd ref="255410847"/>
    <nd ref="255410845"/>
    <nd ref="255410850"/>
    <nd ref="255410848"/>
    <nd ref="255410868"/>
    <nd ref="255410870"/>
    <nd ref="255410865"/>
    <nd ref="255410867"/>
    <nd ref="255410862"/>
    <nd ref="255410863"/>
    <nd ref="255410858"/>
    <nd ref="255410860"/>
    <nd ref="255410881"/>
    <nd ref="255410883"/>
    <nd ref="255410878"/>
    <nd ref="255410880"/>
    <nd ref="255410875"/>
    <nd ref="255410876"/>
    <nd ref="255410871"/>
    <nd ref="255410873"/>
    <nd ref="255410896"/>
    <nd ref="255410895"/>
    <nd ref="255410893"/>
    <nd ref="255410891"/>
    <nd ref="255410890"/>
    <nd ref="255410888"/>
    <nd ref="255410886"/>
    <nd ref="255410885"/>
    <nd ref="255410910"/>
    <nd ref="255410908"/>
    <nd ref="255410907"/>
    <nd ref="255410905"/>
    <nd ref="255410904"/>
    <nd ref="255410902"/>
    <nd ref="255410899"/>
    <nd ref="255410898"/>
    <nd ref="255410927"/>
    <nd ref="255410925"/>
    <nd ref="255410930"/>
    <nd ref="255410928"/>
    <nd ref="255410933"/>
    <nd ref="255410931"/>
    <nd ref="255410936"/>
    <nd ref="255410935"/>
    <nd ref="255410913"/>
    <nd ref="255410912"/>
    <nd ref="255410917"/>
    <nd ref="255410915"/>
    <nd ref="255410920"/>
    <nd ref="255410918"/>
    <nd ref="255410923"/>
    <nd ref="255410922"/>
    <nd ref="255410951"/>
    <nd ref="255410953"/>
    <nd ref="255410954"/>
    <nd ref="255410956"/>
    <nd ref="255410958"/>
    <nd ref="255410959"/>
    <nd ref="255410961"/>
    <nd ref="255410963"/>
    <nd ref="255410938"/>
    <nd ref="255410940"/>
    <nd ref="255410941"/>
    <nd ref="255410943"/>
    <nd ref="255410945"/>
    <nd ref="255410946"/>
    <nd ref="255410948"/>
    <nd ref="255410950"/>
    <tag k="created_by" v="JOSM"/>
    <tag k="highway" v="tertiary"/>
    <tag k="source" v="UMP-PL, ./UMP-Szczecin/src/NOWOGARD.ulice.txt"/>
  </way>
  <way id="23586395" version="3" timestamp="2009-10-21T18:26:53Z" uid="36809" user="pfoten_weg_!_" changeset="2915027">
    <nd ref="255410810"/>
    <nd ref="255410822"/>
    <nd ref="255410824"/>
    <nd ref="255410840"/>
    <nd ref="255410839"/>
    <nd ref="255410844"/>
    <nd ref="255410842"/>
    <nd ref="255410834"/>
    <nd ref="255410832"/>
    <nd ref="255410837"/>
    <nd ref="255410835"/>
    <nd ref="255410853"/>
    <nd ref="255410852"/>
    <nd ref="255410857"/>
    <nd ref="255410855"/>
    <nd ref="255410847"/>
    <nd ref="255410845"/>
    <nd ref="255410850"/>
    <nd ref="255410848"/>
    <nd ref="255410868"/>
    <nd ref="255410870"/>
    <nd ref="255410865"/>
    <nd ref="255410867"/>
    <nd ref="255410862"/>
    <nd ref="255410863"/>
    <nd ref="255410858"/>
    <nd ref="255410860"/>
    <nd ref="255410881"/>
    <nd ref="255410883"/>
    <nd ref="255410878"/>
    <nd ref="255410880"/>
    <nd ref="255410875"/>
    <nd ref="255410876"/>
    <nd ref="255410871"/>
    <nd ref="255410873"/>
    <nd ref="255410896"/>
    <nd ref="255410895"/>
    <nd ref="255410893"/>
    <nd ref="255410891"/>
    <nd ref="255410890"/>
    <nd ref="255410888"/>
    <nd ref="255410886"/>
    <nd ref="254691697"/>
    <nd ref="255410910"/>
    <nd ref="255410908"/>
    <nd ref="255410907"/>
    <nd ref="255410905"/>
    <nd ref="255410904"/>
    <nd ref="255410902"/>
    <nd ref="255410899"/>
    <nd ref="255410898"/>
    <nd ref="255410927"/>
    <nd ref="255410925"/>
    <nd ref="255410930"/>
    <nd ref="255410928"/>
    <nd ref="255410933"/>
    <nd ref="255410931"/>
    <nd ref="255410936"/>
    <nd ref="255410935"/>
    <nd ref="255410913"/>
    <nd ref="255410912"/>
    <nd ref="255410917"/>
    <nd ref="255410915"/>
    <nd ref="255410920"/>
    <nd ref="255410918"/>
    <nd ref="255410923"/>
    <nd ref="255410922"/>
    <nd ref="255410951"/>
    <nd ref="255410953"/>
    <nd ref="255410954"/>
    <nd ref="255410956"/>
    <nd ref="255410958"/>
    <nd ref="255410959"/>
    <nd ref="255410961"/>
    <nd ref="255410963"/>
    <nd ref="255410938"/>
    <nd ref="255410940"/>
    <nd ref="255410941"/>
    <nd ref="255410943"/>
    <nd ref="255410945"/>
    <nd ref="255410946"/>
    <nd ref="255410948"/>
    <nd ref="254723006"/>
    <tag k="highway" v="tertiary"/>
    <tag k="source" v="UMP-PL, ./UMP-Szczecin/src/NOWOGARD.ulice.txt"/>
  </way>
  <way id="23586395" version="4" timestamp="2011-03-07T21:07:34Z" uid="30632" user="antblant" changeset="7488875">
    <nd ref="255410810"/>
    <nd ref="255410822"/>
    <nd ref="255410824"/>
    <nd ref="255410840"/>
    <nd ref="255410839"/>
    <nd ref="255410844"/>
    <nd ref="255410842"/>
    <nd ref="255410834"/>
    <nd ref="255410832"/>
    <nd ref="255410837"/>
    <nd ref="255410835"/>
    <nd ref="255410853"/>
    <nd ref="255410852"/>
    <nd ref="255410857"/>
    <nd ref="255410855"/>
    <nd ref="255410847"/>
    <nd ref="255410845"/>
    <nd ref="255410850"/>
    <nd ref="255410848"/>
    <nd ref="255410868"/>
    <nd ref="255410870"/>
    <nd ref="255410865"/>
    <nd ref="255410867"/>
    <nd ref="255410862"/>
    <nd ref="255410863"/>
    <nd ref="255410858"/>
    <nd ref="255410860"/>
    <nd ref="255410881"/>
    <nd ref="255410883"/>
    <nd ref="1191608025"/>
    <nd ref="255410878"/>
    <nd ref="255410880"/>
    <nd ref="255410875"/>
    <nd ref="255410876"/>
    <nd ref="255410871"/>
    <nd ref="255410873"/>
    <nd ref="255410896"/>
    <nd ref="255410895"/>
    <nd ref="255410893"/>
    <nd ref="255410891"/>
    <nd ref="255410890"/>
    <nd ref="255410888"/>
    <nd ref="255410886"/>
    <nd ref="254691697"/>
    <nd ref="255410910"/>
    <nd ref="255410908"/>
    <nd ref="255410907"/>
    <nd ref="255410905"/>
    <nd ref="255410904"/>
    <nd ref="255410902"/>
    <nd ref="255410899"/>
    <nd ref="255410898"/>
    <nd ref="255410927"/>
    <nd ref="255410925"/>
    <nd ref="255410930"/>
    <nd ref="255410928"/>
    <nd ref="255410933"/>
    <nd ref="255410931"/>
    <nd ref="255410936"/>
    <nd ref="255410935"/>
    <nd ref="255410913"/>
    <nd ref="255410912"/>
    <nd ref="255410917"/>
    <nd ref="255410915"/>
    <nd ref="255410920"/>
    <nd ref="255410918"/>
    <nd ref="255410923"/>
    <nd ref="255410922"/>
    <nd ref="255410951"/>
    <nd ref="255410953"/>
    <nd ref="255410954"/>
    <nd ref="255410956"/>
    <nd ref="255410958"/>
    <nd ref="255410959"/>
    <nd ref="255410961"/>
    <nd ref="255410963"/>
    <nd ref="255410938"/>
    <nd ref="255410940"/>
    <nd ref="255410941"/>
    <nd ref="255410943"/>
    <nd ref="255410945"/>
    <nd ref="255410946"/>
    <nd ref="255410948"/>
    <nd ref="254723006"/>
    <tag k="highway" v="tertiary"/>
    <tag k="source" v="UMP-PL, ./UMP-Szczecin/src/NOWOGARD.ulice.txt"/>
  </way>
  <way id="23586395" version="5" timestamp="2011-03-07T23:30:18Z" uid="30632" user="antblant" changeset="7490121">
    <nd ref="255410810"/>
    <nd ref="255410822"/>
    <nd ref="255410824"/>
    <nd ref="255410840"/>
    <nd ref="255410839"/>
    <nd ref="255410844"/>
    <nd ref="255410842"/>
    <nd ref="255410834"/>
    <nd ref="255410832"/>
    <nd ref="255410837"/>
    <nd ref="255410835"/>
    <nd ref="255410853"/>
    <nd ref="255410852"/>
    <nd ref="255410857"/>
    <nd ref="255410855"/>
    <nd ref="255410847"/>
    <nd ref="255410845"/>
    <nd ref="255410850"/>
    <nd ref="255410848"/>
    <nd ref="255410868"/>
    <nd ref="255410870"/>
    <nd ref="255410865"/>
    <nd ref="255410867"/>
    <nd ref="255410862"/>
    <nd ref="255410863"/>
    <nd ref="255410858"/>
    <nd ref="255410860"/>
    <nd ref="255410881"/>
    <nd ref="255410883"/>
    <nd ref="1191608025"/>
    <nd ref="255410878"/>
    <nd ref="255410880"/>
    <nd ref="255410875"/>
    <nd ref="255410876"/>
    <nd ref="255410871"/>
    <nd ref="255410873"/>
    <nd ref="255410896"/>
    <nd ref="255410895"/>
    <nd ref="255410893"/>
    <nd ref="255410891"/>
    <nd ref="255410890"/>
    <nd ref="255410888"/>
    <nd ref="255410886"/>
    <nd ref="254691697"/>
    <nd ref="255410910"/>
    <nd ref="255410908"/>
    <nd ref="255410907"/>
    <nd ref="255410905"/>
    <nd ref="255410904"/>
    <nd ref="255410902"/>
    <nd ref="255410899"/>
    <nd ref="255410898"/>
    <nd ref="255410927"/>
    <nd ref="255410925"/>
    <nd ref="255410930"/>
    <nd ref="255410928"/>
    <nd ref="255410933"/>
    <nd ref="255410931"/>
    <nd ref="255410936"/>
    <nd ref="255410935"/>
    <nd ref="255410913"/>
    <nd ref="255410912"/>
    <nd ref="255410917"/>
    <nd ref="1191879453"/>
    <nd ref="255410915"/>
    <nd ref="255410920"/>
    <nd ref="255410918"/>
    <nd ref="255410923"/>
    <nd ref="255410922"/>
    <nd ref="255410951"/>
    <nd ref="255410953"/>
    <nd ref="255410954"/>
    <nd ref="255410956"/>
    <nd ref="255410958"/>
    <nd ref="255410959"/>
    <nd ref="255410961"/>
    <nd ref="255410963"/>
    <nd ref="255410938"/>
    <nd ref="255410940"/>
    <nd ref="255410941"/>
    <nd ref="255410943"/>
    <nd ref="255410945"/>
    <nd ref="255410946"/>
    <nd ref="255410948"/>
    <nd ref="254723006"/>
    <tag k="highway" v="tertiary"/>
    <tag k="source" v="UMP-PL, ./UMP-Szczecin/src/NOWOGARD.ulice.txt"/>
  </way>
  <way id="23586395" version="6" timestamp="2011-03-08T21:24:41Z" uid="30632" user="antblant" changeset="7498703">
    <nd ref="255410810"/>
    <nd ref="255410822"/>
    <nd ref="255410824"/>
    <nd ref="255410840"/>
    <nd ref="255410839"/>
    <nd ref="255410844"/>
    <nd ref="255410842"/>
    <nd ref="255410834"/>
    <nd ref="255410832"/>
    <nd ref="255410837"/>
    <nd ref="255410835"/>
    <nd ref="255410853"/>
    <nd ref="255410852"/>
    <nd ref="255410857"/>
    <nd ref="255410855"/>
    <nd ref="255410847"/>
    <nd ref="255410845"/>
    <nd ref="255410850"/>
    <nd ref="255410848"/>
    <nd ref="255410868"/>
    <nd ref="255410870"/>
    <nd ref="255410865"/>
    <nd ref="255410867"/>
    <nd ref="255410862"/>
    <nd ref="255410863"/>
    <nd ref="255410858"/>
    <nd ref="255410860"/>
    <nd ref="255410881"/>
    <nd ref="255410883"/>
    <nd ref="1191608025"/>
    <nd ref="255410878"/>
    <nd ref="255410880"/>
    <nd ref="255410875"/>
    <nd ref="255410876"/>
    <nd ref="255410871"/>
    <nd ref="255410873"/>
    <nd ref="255410896"/>
    <nd ref="255410895"/>
    <nd ref="255410893"/>
    <nd ref="255410891"/>
    <tag k="highway" v="tertiary"/>
    <tag k="source" v="UMP-PL, ./UMP-Szczecin/src/NOWOGARD.ulice.txt"/>
  </way>
  <way id="23586396" version="1" timestamp="2008-04-02T17:36:51Z" uid="30632" user="antblant" changeset="13973">
    <nd ref="255411232"/>
    <nd ref="255411330"/>
    <nd ref="255411334"/>
    <nd ref="255411336"/>
    <nd ref="255411236"/>
    <tag k="created_by" v="JOSM"/>
    <tag k="highway" v="residential"/>
    <tag k="source" v="UMP-PL, ./UMP-Szczecin/src/NOWOGARD.ulice.txt"/>
  </way>
  <way id="23586396" version="2" timestamp="2009-10-21T18:26:58Z" uid="36809" user="pfoten_weg_!_" changeset="2915027">
    <nd ref="255411232"/>
    <nd ref="255411330"/>
    <nd ref="255411334"/>
    <nd ref="255411336"/>
    <nd ref="255411236"/>
    <tag k="highway" v="residential"/>
    <tag k="source" v="UMP-PL, ./UMP-Szczecin/src/NOWOGARD.ulice.txt"/>
  </way>
  <way id="23586398" version="1" timestamp="2008-04-02T17:36:52Z" uid="30632" user="antblant" changeset="13973">
    <nd ref="255410749"/>
    <nd ref="255411544"/>
    <nd ref="255411532"/>
    <nd ref="255411530"/>
    <nd ref="255411537"/>
    <tag k="created_by" v="JOSM"/>
    <tag k="highway" v="unclassified"/>
    <tag k="name" v="Władysława Sikorskiego"/>
    <tag k="source" v="UMP-PL, ./UMP-Szczecin/src/NOWOGARD.ulice.txt"/>
    <tag k="surface" v="unpaved"/>
  </way>
  <way id="23586398" version="3" timestamp="2009-10-21T18:26:57Z" uid="36809" user="pfoten_weg_!_" changeset="2915027">
    <nd ref="255410749"/>
    <nd ref="255411544"/>
    <nd ref="255411532"/>
    <nd ref="255411530"/>
    <nd ref="255411537"/>
    <tag k="highway" v="unclassified"/>
    <tag k="name" v="Generała Władysława Sikorskiego"/>
    <tag k="source" v="UMP-PL, ./UMP-Szczecin/src/NOWOGARD.ulice.txt"/>
    <tag k="surface" v="unpaved"/>
  </way>
  <way id="23586399" version="1" timestamp="2008-04-02T17:36:52Z" uid="30632" user="antblant" changeset="13973">
    <nd ref="255410753"/>
    <nd ref="255411216"/>
    <nd ref="255411218"/>
    <nd ref="255411171"/>
    <nd ref="255411170"/>
    <nd ref="255411135"/>
    <tag k="created_by" v="JOSM"/>
    <tag k="highway" v="residential"/>
    <tag k="name" v="Romualda Traugutta"/>
    <tag k="source" v="UMP-PL, ./UMP-Szczecin/src/NOWOGARD.ulice.txt"/>
  </way>
  <way id="23586399" version="2" timestamp="2009-10-21T18:26:57Z" uid="36809" user="pfoten_weg_!_" changeset="2915027">
    <nd ref="255410753"/>
    <nd ref="255411216"/>
    <nd ref="255411218"/>
    <nd ref="255411171"/>
    <nd ref="255411170"/>
    <nd ref="255411135"/>
    <tag k="highway" v="residential"/>
    <tag k="name" v="Romualda Traugutta"/>
    <tag k="source" v="UMP-PL, ./UMP-Szczecin/src/NOWOGARD.ulice.txt"/>
  </way>
  <way id="23586400" version="1" timestamp="2008-04-02T17:36:52Z" uid="30632" user="antblant" changeset="13973">
    <nd ref="255411005"/>
    <nd ref="255411020"/>
    <nd ref="255411018"/>
    <nd ref="255411010"/>
    <nd ref="255411027"/>
    <tag k="created_by" v="JOSM"/>
    <tag k="highway" v="residential"/>
    <tag k="name" v="Jesionowa"/>
    <tag k="source" v="UMP-PL, ./UMP-Szczecin/src/NOWOGARD.ulice.txt"/>
  </way>
  <way id="23586400" version="2" timestamp="2009-10-21T18:27:18Z" uid="36809" user="pfoten_weg_!_" changeset="2915027">
    <nd ref="255411005"/>
    <nd ref="255411020"/>
    <nd ref="255411018"/>
    <nd ref="255411010"/>
    <nd ref="255411027"/>
    <tag k="highway" v="residential"/>
    <tag k="name" v="Jesionowa"/>
    <tag k="source" v="UMP-PL, ./UMP-Szczecin/src/NOWOGARD.ulice.txt"/>
  </way>
  <way id="23586401" version="1" timestamp="2008-04-02T17:36:53Z" uid="30632" user="antblant" changeset="13973">
    <nd ref="255410829"/>
    <nd ref="255410820"/>
    <nd ref="255410827"/>
    <tag k="created_by" v="JOSM"/>
    <tag k="highway" v="tertiary"/>
    <tag k="name" v="15 Lutego"/>
    <tag k="source" v="UMP-PL, ./UMP-Szczecin/src/NOWOGARD.ulice.txt"/>
  </way>
  <way id="23586401" version="2" timestamp="2009-10-21T18:27:19Z" uid="36809" user="pfoten_weg_!_" changeset="2915027">
    <nd ref="255410829"/>
    <nd ref="255410820"/>
    <nd ref="255410827"/>
    <tag k="highway" v="tertiary"/>
    <tag k="name" v="15 Lutego"/>
    <tag k="source" v="UMP-PL, ./UMP-Szczecin/src/NOWOGARD.ulice.txt"/>
  </way>
  <way id="23586402" version="1" timestamp="2008-04-02T17:36:53Z" uid="30632" user="antblant" changeset="13973">
    <nd ref="255411236"/>
    <nd ref="255411234"/>
    <nd ref="255411229"/>
    <nd ref="255411000"/>
    <tag k="created_by" v="JOSM"/>
    <tag k="highway" v="residential"/>
    <tag k="name" v="Lunatyków"/>
    <tag k="source" v="UMP-PL, ./UMP-Szczecin/src/NOWOGARD.ulice.txt"/>
  </way>
  <way id="23586402" version="2" timestamp="2008-11-05T00:47:15Z" uid="30632" user="antblant" changeset="687931">
    <nd ref="255411236"/>
    <nd ref="255411234"/>
    <nd ref="255411229"/>
    <nd ref="255411000"/>
    <tag k="created_by" v="Potlatch 0.10f"/>
    <tag k="highway" v="residential"/>
    <tag k="name" v="Lutyków"/>
    <tag k="source" v="UMP-PL, ./UMP-Szczecin/src/NOWOGARD.ulice.txt"/>
  </way>
  <way id="23586402" version="3" timestamp="2009-10-21T18:27:20Z" uid="36809" user="pfoten_weg_!_" changeset="2915027">
    <nd ref="255411236"/>
    <nd ref="255411234"/>
    <nd ref="255411229"/>
    <nd ref="255411000"/>
    <tag k="highway" v="residential"/>
    <tag k="name" v="Lutyków"/>
    <tag k="source" v="UMP-PL, ./UMP-Szczecin/src/NOWOGARD.ulice.txt"/>
  </way>
  <way id="23586403" version="1" timestamp="2008-04-02T17:36:53Z" uid="30632" user="antblant" changeset="13973">
    <nd ref="255411545"/>
    <nd ref="255411535"/>
    <nd ref="255411534"/>
    <nd ref="255411539"/>
    <tag k="created_by" v="JOSM"/>
    <tag k="highway" v="residential"/>
    <tag k="name" v="Wileńska"/>
    <tag k="source" v="UMP-PL, ./UMP-Szczecin/src/NOWOGARD.ulice.txt"/>
  </way>
  <way id="23586403" version="2" timestamp="2009-10-21T18:27:21Z" uid="36809" user="pfoten_weg_!_" changeset="2915027">
    <nd ref="255411545"/>
    <nd ref="255411535"/>
    <nd ref="255411534"/>
    <nd ref="255411539"/>
    <tag k="highway" v="residential"/>
    <tag k="name" v="Wileńska"/>
    <tag k="source" v="UMP-PL, ./UMP-Szczecin/src/NOWOGARD.ulice.txt"/>
  </way>
  <way id="23586404" version="1" timestamp="2008-04-02T17:36:53Z" uid="30632" user="antblant" changeset="13973">
    <nd ref="255410746"/>
    <nd ref="255411212"/>
    <nd ref="255411213"/>
    <nd ref="255411214"/>
    <nd ref="255411125"/>
    <tag k="created_by" v="JOSM"/>
    <tag k="highway" v="residential"/>
    <tag k="name" v="Józefa Piłsudskiego"/>
    <tag k="source" v="UMP-PL, ./UMP-Szczecin/src/NOWOGARD.ulice.txt"/>
  </way>
  <way id="23586404" version="3" timestamp="2009-10-21T18:27:22Z" uid="36809" user="pfoten_weg_!_" changeset="2915027">
    <nd ref="255410746"/>
    <nd ref="255411212"/>
    <nd ref="255411213"/>
    <nd ref="255411214"/>
    <nd ref="255411125"/>
    <tag k="highway" v="residential"/>
    <tag k="name" v="Marszałka Józefa Piłsudskiego"/>
    <tag k="source" v="UMP-PL, ./UMP-Szczecin/src/NOWOGARD.ulice.txt"/>
  </way>
  <way id="23586404" version="4" timestamp="2011-02-06T15:00:52Z" uid="30632" user="antblant" changeset="7204624">
    <nd ref="255410746"/>
    <nd ref="255411212"/>
    <nd ref="1139216427"/>
    <nd ref="255411213"/>
    <nd ref="255411214"/>
    <nd ref="255411125"/>
    <tag k="highway" v="residential"/>
    <tag k="name" v="Marszałka Józefa Piłsudskiego"/>
    <tag k="source" v="UMP-PL, ./UMP-Szczecin/src/NOWOGARD.ulice.txt"/>
  </way>
  <way id="23586405" version="1" timestamp="2008-04-02T17:36:53Z" uid="30632" user="antblant" changeset="13973">
    <nd ref="255410981"/>
    <nd ref="255410980"/>
    <nd ref="255410979"/>
    <nd ref="255410977"/>
    <nd ref="255410985"/>
    <nd ref="255410984"/>
    <nd ref="255410983"/>
    <nd ref="255410982"/>
    <nd ref="255410969"/>
    <nd ref="255410771"/>
    <tag k="created_by" v="JOSM"/>
    <tag k="highway" v="residential"/>
    <tag k="name" v="Józefa Bema"/>
    <tag k="source" v="UMP-PL, ./UMP-Szczecin/src/NOWOGARD.ulice.txt"/>
  </way>
  <way id="23586405" version="3" timestamp="2009-10-21T18:27:22Z" uid="36809" user="pfoten_weg_!_" changeset="2915027">
    <nd ref="255410981"/>
    <nd ref="255410980"/>
    <nd ref="255410979"/>
    <nd ref="255410977"/>
    <nd ref="255410985"/>
    <nd ref="255410984"/>
    <nd ref="255410983"/>
    <nd ref="255410982"/>
    <nd ref="255410969"/>
    <nd ref="255410771"/>
    <tag k="highway" v="residential"/>
    <tag k="name" v="Generała Józefa Bema"/>
    <tag k="source" v="UMP-PL, ./UMP-Szczecin/src/NOWOGARD.ulice.txt"/>
  </way>
  <way id="23586406" version="1" timestamp="2008-04-02T17:36:54Z" uid="30632" user="antblant" changeset="13973">
    <nd ref="255411020"/>
    <nd ref="255411013"/>
    <tag k="created_by" v="JOSM"/>
    <tag k="highway" v="residential"/>
    <tag k="name" v="Brzozowa"/>
    <tag k="source" v="UMP-PL, ./UMP-Szczecin/src/NOWOGARD.ulice.txt"/>
  </way>
  <way id="23586406" version="2" timestamp="2009-10-21T18:27:23Z" uid="36809" user="pfoten_weg_!_" changeset="2915027">
    <nd ref="255411020"/>
    <nd ref="255411013"/>
    <tag k="highway" v="residential"/>
    <tag k="name" v="Brzozowa"/>
    <tag k="source" v="UMP-PL, ./UMP-Szczecin/src/NOWOGARD.ulice.txt"/>
  </way>
  <way id="23586407" version="1" timestamp="2008-04-02T17:36:54Z" uid="30632" user="antblant" changeset="13973">
    <nd ref="255410786"/>
    <nd ref="255411360"/>
    <nd ref="255411363"/>
    <nd ref="255411367"/>
    <nd ref="255411343"/>
    <nd ref="255411347"/>
    <nd ref="255411351"/>
    <nd ref="255411354"/>
    <nd ref="255411292"/>
    <nd ref="255411291"/>
    <nd ref="255411296"/>
    <nd ref="255411294"/>
    <nd ref="255411286"/>
    <nd ref="255411284"/>
    <tag k="created_by" v="JOSM"/>
    <tag k="highway" v="residential"/>
    <tag k="name" v="Zamkowa"/>
    <tag k="source" v="UMP-PL, ./UMP-Szczecin/src/NOWOGARD.ulice.txt"/>
  </way>
  <way id="23586407" version="2" timestamp="2009-10-21T18:27:24Z" uid="36809" user="pfoten_weg_!_" changeset="2915027">
    <nd ref="255410786"/>
    <nd ref="255411360"/>
    <nd ref="255411363"/>
    <nd ref="255411367"/>
    <nd ref="255411343"/>
    <nd ref="255411347"/>
    <nd ref="255411351"/>
    <nd ref="255411354"/>
    <nd ref="255411292"/>
    <nd ref="255411291"/>
    <nd ref="255411296"/>
    <nd ref="255411294"/>
    <nd ref="255411286"/>
    <nd ref="255411284"/>
    <tag k="highway" v="residential"/>
    <tag k="name" v="Zamkowa"/>
    <tag k="source" v="UMP-PL, ./UMP-Szczecin/src/NOWOGARD.ulice.txt"/>
  </way>
  <way id="23586408" version="1" timestamp="2008-04-02T17:36:54Z" uid="30632" user="antblant" changeset="13973">
    <nd ref="255411170"/>
    <nd ref="255411539"/>
    <nd ref="255411537"/>
    <tag k="created_by" v="JOSM"/>
    <tag k="highway" v="residential"/>
    <tag k="name" v="Leopolda Okulickiego"/>
    <tag k="source" v="UMP-PL, ./UMP-Szczecin/src/NOWOGARD.ulice.txt"/>
  </way>
  <way id="23586408" version="2" timestamp="2009-10-21T18:27:08Z" uid="36809" user="pfoten_weg_!_" changeset="2915027">
    <nd ref="255411170"/>
    <nd ref="255411539"/>
    <nd ref="255411537"/>
    <tag k="highway" v="residential"/>
    <tag k="name" v="Leopolda Okulickiego"/>
    <tag k="source" v="UMP-PL, ./UMP-Szczecin/src/NOWOGARD.ulice.txt"/>
  </way>
  <way id="23586409" version="1" timestamp="2008-04-02T17:36:54Z" uid="30632" user="antblant" changeset="13973">
    <nd ref="255411118"/>
    <nd ref="255411165"/>
    <nd ref="255411117"/>
    <nd ref="255411128"/>
    <nd ref="255411127"/>
    <nd ref="255411125"/>
    <nd ref="255411123"/>
    <nd ref="255411135"/>
    <nd ref="255411133"/>
    <nd ref="255411132"/>
    <nd ref="255411130"/>
    <nd ref="255411141"/>
    <nd ref="255411140"/>
    <nd ref="255411138"/>
    <nd ref="255411136"/>
    <nd ref="255411196"/>
    <nd ref="255411198"/>
    <nd ref="255411199"/>
    <nd ref="255411201"/>
    <nd ref="255411203"/>
    <nd ref="255411204"/>
    <nd ref="255411206"/>
    <nd ref="255411208"/>
    <nd ref="255411209"/>
    <nd ref="255411210"/>
    <nd ref="255411211"/>
    <nd ref="255411122"/>
    <tag k="created_by" v="JOSM"/>
    <tag k="highway" v="residential"/>
    <tag k="name" v="Wojska Polskiego"/>
    <tag k="source" v="UMP-PL, ./UMP-Szczecin/src/NOWOGARD.ulice.txt"/>
  </way>
  <way id="23586409" version="2" timestamp="2009-10-21T18:27:09Z" uid="36809" user="pfoten_weg_!_" changeset="2915027">
    <nd ref="255411118"/>
    <nd ref="255411165"/>
    <nd ref="255411117"/>
    <nd ref="255411128"/>
    <nd ref="255411127"/>
    <nd ref="255411125"/>
    <nd ref="255411123"/>
    <nd ref="255411135"/>
    <nd ref="255411133"/>
    <nd ref="255411132"/>
    <nd ref="255411130"/>
    <nd ref="255411141"/>
    <nd ref="255411140"/>
    <nd ref="255411138"/>
    <nd ref="255411136"/>
    <nd ref="255411196"/>
    <nd ref="255411198"/>
    <nd ref="255411199"/>
    <nd ref="255411201"/>
    <nd ref="255411203"/>
    <nd ref="255411204"/>
    <nd ref="255411206"/>
    <nd ref="255411208"/>
    <nd ref="255411209"/>
    <nd ref="255411210"/>
    <nd ref="255411211"/>
    <nd ref="255411122"/>
    <tag k="highway" v="residential"/>
    <tag k="name" v="Wojska Polskiego"/>
    <tag k="source" v="UMP-PL, ./UMP-Szczecin/src/NOWOGARD.ulice.txt"/>
  </way>
  <way id="23586410" version="1" timestamp="2008-04-02T17:36:55Z" uid="30632" user="antblant" changeset="13973">
    <nd ref="255410676"/>
    <nd ref="255410819"/>
    <nd ref="255410820"/>
    <tag k="created_by" v="JOSM"/>
    <tag k="highway" v="secondary"/>
    <tag k="name" v="Bohaterów Warszawy"/>
    <tag k="ref" v="106"/>
    <tag k="source" v="UMP-PL, ./UMP-Szczecin/src/NOWOGARD.ulice.txt"/>
  </way>
  <way id="23586410" version="2" timestamp="2009-10-21T18:27:10Z" uid="36809" user="pfoten_weg_!_" changeset="2915027">
    <nd ref="255410676"/>
    <nd ref="255410819"/>
    <nd ref="255410820"/>
    <tag k="highway" v="secondary"/>
    <tag k="name" v="Bohaterów Warszawy"/>
    <tag k="ref" v="106"/>
    <tag k="source" v="UMP-PL, ./UMP-Szczecin/src/NOWOGARD.ulice.txt"/>
  </way>
  <way id="23586411" version="1" timestamp="2008-04-02T17:36:55Z" uid="30632" user="antblant" changeset="13973">
    <nd ref="255411010"/>
    <nd ref="255411008"/>
    <tag k="created_by" v="JOSM"/>
    <tag k="highway" v="residential"/>
    <tag k="name" v="Jodłowa"/>
    <tag k="source" v="UMP-PL, ./UMP-Szczecin/src/NOWOGARD.ulice.txt"/>
  </way>
  <way id="23586411" version="2" timestamp="2009-10-21T18:27:11Z" uid="36809" user="pfoten_weg_!_" changeset="2915027">
    <nd ref="255411010"/>
    <nd ref="255411008"/>
    <tag k="highway" v="residential"/>
    <tag k="name" v="Jodłowa"/>
    <tag k="source" v="UMP-PL, ./UMP-Szczecin/src/NOWOGARD.ulice.txt"/>
  </way>
  <way id="23586412" version="1" timestamp="2008-04-02T17:36:55Z" uid="30632" user="antblant" changeset="13973">
    <nd ref="255410711"/>
    <nd ref="255411340"/>
    <nd ref="255411314"/>
    <nd ref="255411318"/>
    <nd ref="255411232"/>
    <nd ref="255411322"/>
    <nd ref="255411326"/>
    <nd ref="255411357"/>
    <nd ref="255411231"/>
    <tag k="created_by" v="JOSM"/>
    <tag k="highway" v="residential"/>
    <tag k="name" v="Zielona"/>
    <tag k="source" v="UMP-PL, ./UMP-Szczecin/src/NOWOGARD.ulice.txt"/>
  </way>
  <way id="23586412" version="2" timestamp="2009-10-21T18:27:12Z" uid="36809" user="pfoten_weg_!_" changeset="2915027">
    <nd ref="255410711"/>
    <nd ref="255411340"/>
    <nd ref="255411314"/>
    <nd ref="255411318"/>
    <nd ref="255411232"/>
    <nd ref="255411322"/>
    <nd ref="255411326"/>
    <nd ref="255411357"/>
    <nd ref="255411231"/>
    <tag k="highway" v="residential"/>
    <tag k="name" v="Zielona"/>
    <tag k="source" v="UMP-PL, ./UMP-Szczecin/src/NOWOGARD.ulice.txt"/>
  </way>
  <way id="23586413" version="1" timestamp="2008-04-02T17:36:55Z" uid="30632" user="antblant" changeset="13973">
    <nd ref="255411547"/>
    <nd ref="255411542"/>
    <nd ref="255411540"/>
    <tag k="created_by" v="JOSM"/>
    <tag k="highway" v="residential"/>
    <tag k="name" v="Jana Dąbrowskiego"/>
    <tag k="source" v="UMP-PL, ./UMP-Szczecin/src/NOWOGARD.ulice.txt"/>
  </way>
  <way id="23586413" version="2" timestamp="2009-10-21T18:27:13Z" uid="36809" user="pfoten_weg_!_" changeset="2915027">
    <nd ref="255411547"/>
    <nd ref="255411542"/>
    <nd ref="255411540"/>
    <tag k="highway" v="residential"/>
    <tag k="name" v="Jana Dąbrowskiego"/>
    <tag k="source" v="UMP-PL, ./UMP-Szczecin/src/NOWOGARD.ulice.txt"/>
  </way>
  <way id="23586414" version="1" timestamp="2008-04-02T17:36:55Z" uid="30632" user="antblant" changeset="13973">
    <nd ref="255411091"/>
    <nd ref="255411415"/>
    <nd ref="255411380"/>
    <nd ref="255410704"/>
    <tag k="created_by" v="JOSM"/>
    <tag k="highway" v="residential"/>
    <tag k="name" v="Bankowa"/>
    <tag k="source" v="UMP-PL, ./UMP-Szczecin/src/NOWOGARD.ulice.txt"/>
  </way>
  <way id="23586414" version="2" timestamp="2009-10-21T18:27:14Z" uid="36809" user="pfoten_weg_!_" changeset="2915027">
    <nd ref="255411091"/>
    <nd ref="255411415"/>
    <nd ref="255411380"/>
    <nd ref="255410704"/>
    <tag k="highway" v="residential"/>
    <tag k="name" v="Bankowa"/>
    <tag k="source" v="UMP-PL, ./UMP-Szczecin/src/NOWOGARD.ulice.txt"/>
  </way>
  <way id="23586415" version="1" timestamp="2008-04-02T17:36:56Z" uid="30632" user="antblant" changeset="13973">
    <nd ref="255411063"/>
    <nd ref="255411060"/>
    <nd ref="255411051"/>
    <nd ref="255411053"/>
    <tag k="created_by" v="JOSM"/>
    <tag k="highway" v="residential"/>
    <tag k="name" v="Henryka Sienkiewicza"/>
    <tag k="source" v="UMP-PL, ./UMP-Szczecin/src/NOWOGARD.ulice.txt"/>
  </way>
  <way id="23586415" version="2" timestamp="2009-10-21T18:27:14Z" uid="36809" user="pfoten_weg_!_" changeset="2915027">
    <nd ref="255411063"/>
    <nd ref="255411060"/>
    <nd ref="255411051"/>
    <nd ref="255411053"/>
    <tag k="highway" v="residential"/>
    <tag k="name" v="Henryka Sienkiewicza"/>
    <tag k="source" v="UMP-PL, ./UMP-Szczecin/src/NOWOGARD.ulice.txt"/>
  </way>
  <way id="23586416" version="1" timestamp="2008-04-02T17:36:56Z" uid="30632" user="antblant" changeset="13973">
    <nd ref="255410796"/>
    <nd ref="255410795"/>
    <nd ref="255410793"/>
    <nd ref="255410791"/>
    <nd ref="255410803"/>
    <nd ref="255410801"/>
    <nd ref="255410800"/>
    <nd ref="255410798"/>
    <nd ref="255410676"/>
    <tag k="created_by" v="JOSM"/>
    <tag k="highway" v="secondary"/>
    <tag k="name" v="Stanisława Augusta Poniatowskiego"/>
    <tag k="ref" v="106"/>
    <tag k="source" v="UMP-PL, ./UMP-Szczecin/src/NOWOGARD.ulice.txt"/>
  </way>
  <way id="23586416" version="2" timestamp="2009-10-21T18:27:32Z" uid="36809" user="pfoten_weg_!_" changeset="2915027">
    <nd ref="255410796"/>
    <nd ref="255410795"/>
    <nd ref="255410793"/>
    <nd ref="255410791"/>
    <nd ref="255410803"/>
    <nd ref="255410801"/>
    <nd ref="255410800"/>
    <nd ref="255410798"/>
    <nd ref="255410676"/>
    <tag k="highway" v="secondary"/>
    <tag k="name" v="Stanisława Augusta Poniatowskiego"/>
    <tag k="ref" v="106"/>
    <tag k="source" v="UMP-PL, ./UMP-Szczecin/src/NOWOGARD.ulice.txt"/>
  </way>
  <way id="23586417" version="1" timestamp="2008-04-02T17:36:56Z" uid="30632" user="antblant" changeset="13973">
    <nd ref="255411156"/>
    <nd ref="255411184"/>
    <tag k="created_by" v="JOSM"/>
    <tag k="highway" v="unclassified"/>
    <tag k="name" v="Racławicka"/>
    <tag k="source" v="UMP-PL, ./UMP-Szczecin/src/NOWOGARD.ulice.txt"/>
    <tag k="surface" v="unpaved"/>
  </way>
  <way id="23586417" version="2" timestamp="2009-10-21T18:27:31Z" uid="36809" user="pfoten_weg_!_" changeset="2915027">
    <nd ref="255411156"/>
    <nd ref="255411184"/>
    <tag k="highway" v="unclassified"/>
    <tag k="name" v="Racławicka"/>
    <tag k="source" v="UMP-PL, ./UMP-Szczecin/src/NOWOGARD.ulice.txt"/>
    <tag k="surface" v="unpaved"/>
  </way>
  <way id="23586418" version="1" timestamp="2008-04-02T17:36:57Z" uid="30632" user="antblant" changeset="13973">
    <nd ref="255411418"/>
    <nd ref="255411413"/>
    <tag k="created_by" v="JOSM"/>
    <tag k="highway" v="residential"/>
    <tag k="source" v="UMP-PL, ./UMP-Szczecin/src/NOWOGARD.ulice.txt"/>
  </way>
  <way id="23586418" version="2" timestamp="2009-10-21T18:27:33Z" uid="36809" user="pfoten_weg_!_" changeset="2915027">
    <nd ref="255411418"/>
    <nd ref="255411413"/>
    <tag k="highway" v="residential"/>
    <tag k="source" v="UMP-PL, ./UMP-Szczecin/src/NOWOGARD.ulice.txt"/>
  </way>
  <way id="23586419" version="1" timestamp="2008-04-02T17:36:57Z" uid="30632" user="antblant" changeset="13973">
    <nd ref="255410814"/>
    <nd ref="255411011"/>
    <nd ref="255411058"/>
    <nd ref="255411060"/>
    <nd ref="255411061"/>
    <tag k="created_by" v="JOSM"/>
    <tag k="highway" v="residential"/>
    <tag k="name" v="Młynarska"/>
    <tag k="source" v="UMP-PL, ./UMP-Szczecin/src/NOWOGARD.ulice.txt"/>
  </way>
  <way id="23586419" version="2" timestamp="2009-10-21T18:27:32Z" uid="36809" user="pfoten_weg_!_" changeset="2915027">
    <nd ref="255410814"/>
    <nd ref="255411011"/>
    <nd ref="255411058"/>
    <nd ref="255411060"/>
    <nd ref="255411061"/>
    <tag k="highway" v="residential"/>
    <tag k="name" v="Młynarska"/>
    <tag k="source" v="UMP-PL, ./UMP-Szczecin/src/NOWOGARD.ulice.txt"/>
  </way>
  <way id="23586421" version="1" timestamp="2008-04-02T17:36:57Z" uid="30632" user="antblant" changeset="13973">
    <nd ref="255410763"/>
    <nd ref="255410764"/>
    <nd ref="255410773"/>
    <nd ref="255410774"/>
    <nd ref="255410769"/>
    <nd ref="255410771"/>
    <nd ref="255410781"/>
    <nd ref="255410779"/>
    <nd ref="255410778"/>
    <nd ref="255410776"/>
    <nd ref="255410790"/>
    <nd ref="255410788"/>
    <nd ref="255410786"/>
    <nd ref="255410784"/>
    <nd ref="255410739"/>
    <tag k="created_by" v="JOSM"/>
    <tag k="highway" v="primary"/>
    <tag k="name" v="Armii Krajowej"/>
    <tag k="ref" v="6"/>
    <tag k="source" v="UMP-PL, ./UMP-Szczecin/src/NOWOGARD.ulice.txt"/>
  </way>
  <way id="23586421" version="3" timestamp="2009-10-21T18:27:34Z" uid="36809" user="pfoten_weg_!_" changeset="2915027">
    <nd ref="255410763"/>
    <nd ref="255410764"/>
    <nd ref="255410773"/>
    <nd ref="255410774"/>
    <nd ref="255410769"/>
    <nd ref="255410771"/>
    <nd ref="255410781"/>
    <nd ref="255410779"/>
    <nd ref="255410778"/>
    <nd ref="255410776"/>
    <nd ref="255410790"/>
    <nd ref="255410788"/>
    <nd ref="255410786"/>
    <nd ref="255410784"/>
    <nd ref="255410739"/>
    <tag k="highway" v="primary"/>
    <tag k="int_ref" v="E 28"/>
    <tag k="name" v="Armii Krajowej"/>
    <tag k="ref" v="6"/>
    <tag k="source" v="UMP-PL, ./UMP-Szczecin/src/NOWOGARD.ulice.txt"/>
  </way>
  <way id="23586422" version="1" timestamp="2008-04-02T17:36:57Z" uid="30632" user="antblant" changeset="13973">
    <nd ref="255411125"/>
    <nd ref="255411179"/>
    <tag k="created_by" v="JOSM"/>
    <tag k="highway" v="residential"/>
    <tag k="name" v="Szkolna"/>
    <tag k="source" v="UMP-PL, ./UMP-Szczecin/src/NOWOGARD.ulice.txt"/>
  </way>
  <way id="23586422" version="2" timestamp="2009-10-21T18:27:36Z" uid="36809" user="pfoten_weg_!_" changeset="2915027">
    <nd ref="255411125"/>
    <nd ref="255411179"/>
    <tag k="highway" v="residential"/>
    <tag k="name" v="Szkolna"/>
    <tag k="source" v="UMP-PL, ./UMP-Szczecin/src/NOWOGARD.ulice.txt"/>
  </way>
  <way id="23586423" version="1" timestamp="2008-04-02T17:36:57Z" uid="30632" user="antblant" changeset="13973">
    <nd ref="255411247"/>
    <nd ref="255411011"/>
    <tag k="created_by" v="JOSM"/>
    <tag k="highway" v="residential"/>
    <tag k="name" v="Magazynowa"/>
    <tag k="source" v="UMP-PL, ./UMP-Szczecin/src/NOWOGARD.ulice.txt"/>
  </way>
  <way id="23586423" version="2" timestamp="2009-10-21T18:27:35Z" uid="36809" user="pfoten_weg_!_" changeset="2915027">
    <nd ref="255411247"/>
    <nd ref="255411011"/>
    <tag k="highway" v="residential"/>
    <tag k="name" v="Magazynowa"/>
    <tag k="source" v="UMP-PL, ./UMP-Szczecin/src/NOWOGARD.ulice.txt"/>
  </way>
  <way id="23586424" version="1" timestamp="2008-04-02T17:36:58Z" uid="30632" user="antblant" changeset="13973">
    <nd ref="255410811"/>
    <nd ref="255410825"/>
    <nd ref="255410827"/>
    <nd ref="255410813"/>
    <nd ref="255410829"/>
    <nd ref="255410830"/>
    <nd ref="255410819"/>
    <tag k="created_by" v="JOSM"/>
    <tag k="highway" v="tertiary"/>
    <tag k="name" v="15 Lutego"/>
    <tag k="source" v="UMP-PL, ./UMP-Szczecin/src/NOWOGARD.ulice.txt"/>
  </way>
  <way id="23586424" version="2" timestamp="2009-10-21T18:27:27Z" uid="36809" user="pfoten_weg_!_" changeset="2915027">
    <nd ref="255410811"/>
    <nd ref="255410825"/>
    <nd ref="255410827"/>
    <nd ref="255410813"/>
    <nd ref="255410829"/>
    <nd ref="255410830"/>
    <nd ref="255410819"/>
    <tag k="highway" v="tertiary"/>
    <tag k="name" v="15 Lutego"/>
    <tag k="source" v="UMP-PL, ./UMP-Szczecin/src/NOWOGARD.ulice.txt"/>
  </way>
  <way id="23586425" version="1" timestamp="2008-04-02T17:36:58Z" uid="30632" user="antblant" changeset="13973">
    <nd ref="255411038"/>
    <nd ref="255411055"/>
    <tag k="created_by" v="JOSM"/>
    <tag k="highway" v="residential"/>
    <tag k="name" v="Juliusza Słowackiego"/>
    <tag k="source" v="UMP-PL, ./UMP-Szczecin/src/NOWOGARD.ulice.txt"/>
  </way>
  <way id="23586425" version="2" timestamp="2009-10-21T18:27:25Z" uid="36809" user="pfoten_weg_!_" changeset="2915027">
    <nd ref="255411038"/>
    <nd ref="255411055"/>
    <tag k="highway" v="residential"/>
    <tag k="name" v="Juliusza Słowackiego"/>
    <tag k="source" v="UMP-PL, ./UMP-Szczecin/src/NOWOGARD.ulice.txt"/>
  </way>
  <way id="23586426" version="1" timestamp="2008-04-02T17:36:58Z" uid="30632" user="antblant" changeset="13973">
    <nd ref="255411132"/>
    <nd ref="255411181"/>
    <tag k="created_by" v="JOSM"/>
    <tag k="highway" v="residential"/>
    <tag k="source" v="UMP-PL, ./UMP-Szczecin/src/NOWOGARD.ulice.txt"/>
  </way>
  <way id="23586426" version="2" timestamp="2009-10-21T18:27:29Z" uid="36809" user="pfoten_weg_!_" changeset="2915027">
    <nd ref="255411132"/>
    <nd ref="255411181"/>
    <tag k="highway" v="residential"/>
    <tag k="source" v="UMP-PL, ./UMP-Szczecin/src/NOWOGARD.ulice.txt"/>
  </way>
  <way id="23586427" version="1" timestamp="2008-04-02T17:36:58Z" uid="30632" user="antblant" changeset="13973">
    <nd ref="255411246"/>
    <nd ref="255411058"/>
    <tag k="created_by" v="JOSM"/>
    <tag k="highway" v="residential"/>
    <tag k="name" v="Warcka"/>
    <tag k="source" v="UMP-PL, ./UMP-Szczecin/src/NOWOGARD.ulice.txt"/>
  </way>
  <way id="23586427" version="2" timestamp="2009-10-21T18:27:28Z" uid="36809" user="pfoten_weg_!_" changeset="2915027">
    <nd ref="255411246"/>
    <nd ref="255411058"/>
    <tag k="highway" v="residential"/>
    <tag k="name" v="Warcka"/>
    <tag k="source" v="UMP-PL, ./UMP-Szczecin/src/NOWOGARD.ulice.txt"/>
  </way>
  <way id="23586428" version="1" timestamp="2008-04-02T17:36:58Z" uid="30632" user="antblant" changeset="13973">
    <nd ref="255410813"/>
    <nd ref="255410814"/>
    <nd ref="255410816"/>
    <nd ref="255410817"/>
    <nd ref="255410804"/>
    <nd ref="255410807"/>
    <nd ref="255410810"/>
    <tag k="created_by" v="JOSM"/>
    <tag k="highway" v="tertiary"/>
    <tag k="name" v="15 Lutego"/>
    <tag k="source" v="UMP-PL, ./UMP-Szczecin/src/NOWOGARD.ulice.txt"/>
  </way>
  <way id="23586428" version="2" timestamp="2009-10-21T18:27:30Z" uid="36809" user="pfoten_weg_!_" changeset="2915027">
    <nd ref="255410813"/>
    <nd ref="255410814"/>
    <nd ref="255410816"/>
    <nd ref="255410817"/>
    <nd ref="255410804"/>
    <nd ref="255410807"/>
    <nd ref="255410810"/>
    <tag k="highway" v="tertiary"/>
    <tag k="name" v="15 Lutego"/>
    <tag k="source" v="UMP-PL, ./UMP-Szczecin/src/NOWOGARD.ulice.txt"/>
  </way>
  <way id="23586429" version="1" timestamp="2008-04-02T17:36:59Z" uid="30632" user="antblant" changeset="13973">
    <nd ref="255410804"/>
    <nd ref="255411053"/>
    <nd ref="255411055"/>
    <nd ref="255411056"/>
    <nd ref="255411045"/>
    <nd ref="255411047"/>
    <nd ref="255411048"/>
    <nd ref="255411050"/>
    <nd ref="255411037"/>
    <tag k="created_by" v="JOSM"/>
    <tag k="highway" v="residential"/>
    <tag k="source" v="UMP-PL, ./UMP-Szczecin/src/NOWOGARD.ulice.txt"/>
  </way>
  <way id="23586429" version="2" timestamp="2009-10-21T18:27:29Z" uid="36809" user="pfoten_weg_!_" changeset="2915027">
    <nd ref="255410804"/>
    <nd ref="255411053"/>
    <nd ref="255411055"/>
    <nd ref="255411056"/>
    <nd ref="255411045"/>
    <nd ref="255411047"/>
    <nd ref="255411048"/>
    <nd ref="255411050"/>
    <nd ref="255411037"/>
    <tag k="highway" v="residential"/>
    <tag k="source" v="UMP-PL, ./UMP-Szczecin/src/NOWOGARD.ulice.txt"/>
  </way>
  <way id="23586431" version="1" timestamp="2008-04-02T17:36:59Z" uid="30632" user="antblant" changeset="13973">
    <nd ref="255411157"/>
    <nd ref="255411176"/>
    <tag k="created_by" v="JOSM"/>
    <tag k="highway" v="residential"/>
    <tag k="name" v="Bartosza Głowackiego"/>
    <tag k="source" v="UMP-PL, ./UMP-Szczecin/src/NOWOGARD.ulice.txt"/>
  </way>
  <way id="23586431" version="3" timestamp="2009-10-21T18:27:31Z" uid="36809" user="pfoten_weg_!_" changeset="2915027">
    <nd ref="255411157"/>
    <nd ref="255411176"/>
    <tag k="highway" v="residential"/>
    <tag k="name" v="Wojciecha Bartosza Głowackiego"/>
    <tag k="source" v="UMP-PL, ./UMP-Szczecin/src/NOWOGARD.ulice.txt"/>
  </way>
  <way id="23586432" version="1" timestamp="2008-04-02T17:36:59Z" uid="30632" user="antblant" changeset="13973">
    <nd ref="255411289"/>
    <nd ref="255411443"/>
    <tag k="created_by" v="JOSM"/>
    <tag k="highway" v="residential"/>
    <tag k="name" v="Sadowa"/>
    <tag k="source" v="UMP-PL, ./UMP-Szczecin/src/NOWOGARD.ulice.txt"/>
  </way>
  <way id="23586432" version="2" timestamp="2009-10-21T18:24:53Z" uid="36809" user="pfoten_weg_!_" changeset="2915027">
    <nd ref="255411289"/>
    <nd ref="255411443"/>
    <tag k="highway" v="residential"/>
    <tag k="name" v="Sadowa"/>
    <tag k="source" v="UMP-PL, ./UMP-Szczecin/src/NOWOGARD.ulice.txt"/>
  </way>
  <way id="23586433" version="1" timestamp="2008-04-02T17:36:59Z" uid="30632" user="antblant" changeset="13973">
    <nd ref="255411175"/>
    <nd ref="255411179"/>
    <tag k="created_by" v="JOSM"/>
    <tag k="highway" v="residential"/>
    <tag k="name" v="Plac Szarych Szeregów"/>
    <tag k="source" v="UMP-PL, ./UMP-Szczecin/src/NOWOGARD.ulice.txt"/>
  </way>
  <way id="23586433" version="2" timestamp="2009-10-21T18:24:52Z" uid="36809" user="pfoten_weg_!_" changeset="2915027">
    <nd ref="255411175"/>
    <nd ref="255411179"/>
    <tag k="highway" v="residential"/>
    <tag k="name" v="Plac Szarych Szeregów"/>
    <tag k="source" v="UMP-PL, ./UMP-Szczecin/src/NOWOGARD.ulice.txt"/>
  </way>
  <way id="23586434" version="1" timestamp="2008-04-02T17:36:59Z" uid="30632" user="antblant" changeset="13973">
    <nd ref="255411048"/>
    <nd ref="255411084"/>
    <tag k="created_by" v="JOSM"/>
    <tag k="highway" v="residential"/>
    <tag k="name" v="Jana Kochanowskiego"/>
    <tag k="source" v="UMP-PL, ./UMP-Szczecin/src/NOWOGARD.ulice.txt"/>
  </way>
  <way id="23586434" version="2" timestamp="2009-10-21T18:24:51Z" uid="36809" user="pfoten_weg_!_" changeset="2915027">
    <nd ref="255411048"/>
    <nd ref="255411084"/>
    <tag k="highway" v="residential"/>
    <tag k="name" v="Jana Kochanowskiego"/>
    <tag k="source" v="UMP-PL, ./UMP-Szczecin/src/NOWOGARD.ulice.txt"/>
  </way>
  <way id="23586435" version="1" timestamp="2008-04-02T17:37:00Z" uid="30632" user="antblant" changeset="13973">
    <nd ref="255410676"/>
    <nd ref="255410678"/>
    <nd ref="255410679"/>
    <nd ref="255410681"/>
    <nd ref="255410683"/>
    <nd ref="255410686"/>
    <nd ref="255410689"/>
    <nd ref="255410691"/>
    <nd ref="255410692"/>
    <nd ref="255410694"/>
    <nd ref="255410696"/>
    <nd ref="255410698"/>
    <tag k="created_by" v="JOSM"/>
    <tag k="highway" v="secondary"/>
    <tag k="name" v="Bohaterów Warszawy"/>
    <tag k="ref" v="144"/>
    <tag k="source" v="UMP-PL, ./UMP-Szczecin/src/NOWOGARD.ulice.txt"/>
  </way>
  <way id="23586435" version="2" timestamp="2009-10-21T18:24:50Z" uid="36809" user="pfoten_weg_!_" changeset="2915027">
    <nd ref="255410676"/>
    <nd ref="255410678"/>
    <nd ref="255410679"/>
    <nd ref="255410681"/>
    <nd ref="255410683"/>
    <nd ref="255410686"/>
    <nd ref="255410689"/>
    <nd ref="255410691"/>
    <nd ref="255410692"/>
    <nd ref="255410694"/>
    <nd ref="255410696"/>
    <nd ref="255410698"/>
    <tag k="highway" v="secondary"/>
    <tag k="name" v="Bohaterów Warszawy"/>
    <tag k="ref" v="144"/>
    <tag k="source" v="UMP-PL, ./UMP-Szczecin/src/NOWOGARD.ulice.txt"/>
  </way>
  <way id="23586436" version="1" timestamp="2008-04-02T17:37:00Z" uid="30632" user="antblant" changeset="13973">
    <nd ref="255410964"/>
    <nd ref="255411438"/>
    <nd ref="255411436"/>
    <nd ref="255411435"/>
    <nd ref="255411433"/>
    <nd ref="255411444"/>
    <nd ref="255411289"/>
    <tag k="created_by" v="JOSM"/>
    <tag k="highway" v="residential"/>
    <tag k="name" v="Kowalska"/>
    <tag k="source" v="UMP-PL, ./UMP-Szczecin/src/NOWOGARD.ulice.txt"/>
  </way>
  <way id="23586436" version="2" timestamp="2009-10-21T18:24:50Z" uid="36809" user="pfoten_weg_!_" changeset="2915027">
    <nd ref="255410964"/>
    <nd ref="255411438"/>
    <nd ref="255411436"/>
    <nd ref="255411435"/>
    <nd ref="255411433"/>
    <nd ref="255411444"/>
    <nd ref="255411289"/>
    <tag k="highway" v="residential"/>
    <tag k="name" v="Kowalska"/>
    <tag k="source" v="UMP-PL, ./UMP-Szczecin/src/NOWOGARD.ulice.txt"/>
  </way>
  <way id="23586437" version="1" timestamp="2008-04-02T17:37:00Z" uid="30632" user="antblant" changeset="13973">
    <nd ref="255411176"/>
    <nd ref="255411191"/>
    <nd ref="255410754"/>
    <tag k="created_by" v="JOSM"/>
    <tag k="highway" v="residential"/>
    <tag k="name" v="Macieja Rataja"/>
    <tag k="source" v="UMP-PL, ./UMP-Szczecin/src/NOWOGARD.ulice.txt"/>
  </way>
  <way id="23586437" version="2" timestamp="2009-10-21T18:24:49Z" uid="36809" user="pfoten_weg_!_" changeset="2915027">
    <nd ref="255411176"/>
    <nd ref="255411191"/>
    <nd ref="255410754"/>
    <tag k="highway" v="residential"/>
    <tag k="name" v="Macieja Rataja"/>
    <tag k="source" v="UMP-PL, ./UMP-Szczecin/src/NOWOGARD.ulice.txt"/>
  </way>
  <way id="23586438" version="1" timestamp="2008-04-02T17:37:00Z" uid="30632" user="antblant" changeset="13973">
    <nd ref="255411041"/>
    <nd ref="255411043"/>
    <nd ref="255411089"/>
    <nd ref="255411045"/>
    <nd ref="255411061"/>
    <nd ref="255411088"/>
    <nd ref="255411086"/>
    <tag k="created_by" v="JOSM"/>
    <tag k="highway" v="residential"/>
    <tag k="name" v="Cmentarna"/>
    <tag k="source" v="UMP-PL, ./UMP-Szczecin/src/NOWOGARD.ulice.txt"/>
  </way>
  <way id="23586438" version="2" timestamp="2009-10-21T18:24:48Z" uid="36809" user="pfoten_weg_!_" changeset="2915027">
    <nd ref="255411041"/>
    <nd ref="255411043"/>
    <nd ref="255411089"/>
    <nd ref="255411045"/>
    <nd ref="255411061"/>
    <nd ref="255411088"/>
    <nd ref="255411086"/>
    <tag k="highway" v="residential"/>
    <tag k="name" v="Cmentarna"/>
    <tag k="source" v="UMP-PL, ./UMP-Szczecin/src/NOWOGARD.ulice.txt"/>
  </way>
  <way id="23586439" version="1" timestamp="2008-04-02T17:37:01Z" uid="30632" user="antblant" changeset="13973">
    <nd ref="255411427"/>
    <nd ref="255411410"/>
    <nd ref="255411412"/>
    <nd ref="255411403"/>
    <nd ref="255411406"/>
    <nd ref="255411417"/>
    <nd ref="255411418"/>
    <nd ref="255411425"/>
    <tag k="created_by" v="JOSM"/>
    <tag k="highway" v="residential"/>
    <tag k="name" v="Górna"/>
    <tag k="source" v="UMP-PL, ./UMP-Szczecin/src/NOWOGARD.ulice.txt"/>
  </way>
  <way id="23586439" version="2" timestamp="2009-10-21T18:24:48Z" uid="36809" user="pfoten_weg_!_" changeset="2915027">
    <nd ref="255411427"/>
    <nd ref="255411410"/>
    <nd ref="255411412"/>
    <nd ref="255411403"/>
    <nd ref="255411406"/>
    <nd ref="255411417"/>
    <nd ref="255411418"/>
    <nd ref="255411425"/>
    <tag k="highway" v="residential"/>
    <tag k="name" v="Górna"/>
    <tag k="source" v="UMP-PL, ./UMP-Szczecin/src/NOWOGARD.ulice.txt"/>
  </way>
  <way id="23586440" version="1" timestamp="2008-04-02T17:37:01Z" uid="30632" user="antblant" changeset="13973">
    <nd ref="255411141"/>
    <nd ref="255411554"/>
    <tag k="created_by" v="JOSM"/>
    <tag k="highway" v="residential"/>
    <tag k="source" v="UMP-PL, ./UMP-Szczecin/src/NOWOGARD.ulice.txt"/>
  </way>
  <way id="23586440" version="2" timestamp="2009-10-21T18:25:08Z" uid="36809" user="pfoten_weg_!_" changeset="2915027">
    <nd ref="255411141"/>
    <nd ref="255411554"/>
    <tag k="highway" v="residential"/>
    <tag k="source" v="UMP-PL, ./UMP-Szczecin/src/NOWOGARD.ulice.txt"/>
  </way>
  <way id="23586441" version="1" timestamp="2008-04-02T17:37:01Z" uid="30632" user="antblant" changeset="13973">
    <nd ref="255411183"/>
    <nd ref="255411188"/>
    <nd ref="255411184"/>
    <nd ref="255411186"/>
    <nd ref="255411176"/>
    <tag k="created_by" v="JOSM"/>
    <tag k="highway" v="unclassified"/>
    <tag k="name" v="Macieja Rataja"/>
    <tag k="source" v="UMP-PL, ./UMP-Szczecin/src/NOWOGARD.ulice.txt"/>
    <tag k="surface" v="unpaved"/>
  </way>
  <way id="23586441" version="2" timestamp="2009-10-21T18:25:07Z" uid="36809" user="pfoten_weg_!_" changeset="2915027">
    <nd ref="255411183"/>
    <nd ref="255411188"/>
    <nd ref="255411184"/>
    <nd ref="255411186"/>
    <nd ref="255411176"/>
    <tag k="highway" v="unclassified"/>
    <tag k="name" v="Macieja Rataja"/>
    <tag k="source" v="UMP-PL, ./UMP-Szczecin/src/NOWOGARD.ulice.txt"/>
    <tag k="surface" v="unpaved"/>
  </way>
  <way id="23586442" version="1" timestamp="2008-04-02T17:37:01Z" uid="30632" user="antblant" changeset="13973">
    <nd ref="255410739"/>
    <nd ref="255410723"/>
    <nd ref="255410744"/>
    <nd ref="255410743"/>
    <nd ref="255410748"/>
    <nd ref="255410746"/>
    <nd ref="255410753"/>
    <nd ref="255410754"/>
    <nd ref="255410749"/>
    <nd ref="255410751"/>
    <nd ref="255410759"/>
    <nd ref="255410761"/>
    <nd ref="255410756"/>
    <nd ref="255410758"/>
    <nd ref="255410766"/>
    <nd ref="255410768"/>
    <tag k="created_by" v="JOSM"/>
    <tag k="highway" v="secondary"/>
    <tag k="name" v="Tadeusza Kościuszki"/>
    <tag k="ref" v="106"/>
    <tag k="source" v="UMP-PL, ./UMP-Szczecin/src/NOWOGARD.ulice.txt"/>
  </way>
  <way id="23586442" version="2" timestamp="2009-10-21T18:25:04Z" uid="36809" user="pfoten_weg_!_" changeset="2915027">
    <nd ref="255410739"/>
    <nd ref="255410723"/>
    <nd ref="255410744"/>
    <nd ref="255410743"/>
    <nd ref="255410748"/>
    <nd ref="255410746"/>
    <nd ref="255410753"/>
    <nd ref="255410754"/>
    <nd ref="255410749"/>
    <nd ref="255410751"/>
    <nd ref="255410759"/>
    <nd ref="255410761"/>
    <nd ref="255410756"/>
    <nd ref="255410758"/>
    <nd ref="255410766"/>
    <nd ref="255410768"/>
    <tag k="highway" v="secondary"/>
    <tag k="name" v="Tadeusza Kościuszki"/>
    <tag k="ref" v="106"/>
    <tag k="source" v="UMP-PL, ./UMP-Szczecin/src/NOWOGARD.ulice.txt"/>
  </way>
  <way id="23586444" version="1" timestamp="2008-04-02T17:37:02Z" uid="30632" user="antblant" changeset="13973">
    <nd ref="255411056"/>
    <nd ref="255411081"/>
    <tag k="created_by" v="JOSM"/>
    <tag k="highway" v="residential"/>
    <tag k="name" v="Jana Kasprowicza"/>
    <tag k="source" v="UMP-PL, ./UMP-Szczecin/src/NOWOGARD.ulice.txt"/>
  </way>
  <way id="23586444" version="2" timestamp="2009-10-21T18:25:01Z" uid="36809" user="pfoten_weg_!_" changeset="2915027">
    <nd ref="255411056"/>
    <nd ref="255411081"/>
    <tag k="highway" v="residential"/>
    <tag k="name" v="Jana Kasprowicza"/>
    <tag k="source" v="UMP-PL, ./UMP-Szczecin/src/NOWOGARD.ulice.txt"/>
  </way>
  <way id="23586445" version="1" timestamp="2008-04-02T17:37:02Z" uid="30632" user="antblant" changeset="13973">
    <nd ref="255411092"/>
    <nd ref="255411301"/>
    <nd ref="255411441"/>
    <nd ref="255411439"/>
    <nd ref="255411425"/>
    <nd ref="255411423"/>
    <nd ref="255411422"/>
    <nd ref="255411420"/>
    <nd ref="255411431"/>
    <nd ref="255411430"/>
    <nd ref="255411428"/>
    <tag k="created_by" v="JOSM"/>
    <tag k="highway" v="residential"/>
    <tag k="name" v="Dąbrowszczaków"/>
    <tag k="source" v="UMP-PL, ./UMP-Szczecin/src/NOWOGARD.ulice.txt"/>
  </way>
  <way id="23586445" version="2" timestamp="2009-10-21T18:24:59Z" uid="36809" user="pfoten_weg_!_" changeset="2915027">
    <nd ref="255411092"/>
    <nd ref="255411301"/>
    <nd ref="255411441"/>
    <nd ref="255411439"/>
    <nd ref="255411425"/>
    <nd ref="255411423"/>
    <nd ref="255411422"/>
    <nd ref="255411420"/>
    <nd ref="255411431"/>
    <nd ref="255411430"/>
    <nd ref="255411428"/>
    <tag k="highway" v="residential"/>
    <tag k="name" v="Dąbrowszczaków"/>
    <tag k="source" v="UMP-PL, ./UMP-Szczecin/src/NOWOGARD.ulice.txt"/>
  </way>
  <way id="23586445" version="3" timestamp="2011-01-04T18:57:57Z" uid="30632" user="antblant" changeset="6864262">
    <nd ref="255411092"/>
    <nd ref="255411301"/>
    <nd ref="255411441"/>
    <nd ref="255411439"/>
    <nd ref="1082637953"/>
    <nd ref="255411425"/>
    <nd ref="255411423"/>
    <nd ref="255411422"/>
    <nd ref="255411420"/>
    <nd ref="255411431"/>
    <nd ref="255411430"/>
    <nd ref="255411428"/>
    <tag k="highway" v="residential"/>
    <tag k="name" v="Dąbrowszczaków"/>
    <tag k="source" v="UMP-PL, ./UMP-Szczecin/src/NOWOGARD.ulice.txt"/>
  </way>
  <way id="23586446" version="1" timestamp="2008-04-02T17:37:02Z" uid="30632" user="antblant" changeset="13973">
    <nd ref="255411521"/>
    <nd ref="255411552"/>
    <nd ref="255411550"/>
    <tag k="created_by" v="JOSM"/>
    <tag k="highway" v="residential"/>
    <tag k="source" v="UMP-PL, ./UMP-Szczecin/src/NOWOGARD.ulice.txt"/>
  </way>
  <way id="23586446" version="2" timestamp="2009-10-21T18:24:59Z" uid="36809" user="pfoten_weg_!_" changeset="2915027">
    <nd ref="255411521"/>
    <nd ref="255411552"/>
    <nd ref="255411550"/>
    <tag k="highway" v="residential"/>
    <tag k="source" v="UMP-PL, ./UMP-Szczecin/src/NOWOGARD.ulice.txt"/>
  </way>
  <way id="23586447" version="1" timestamp="2008-04-02T17:37:02Z" uid="30632" user="antblant" changeset="13973">
    <nd ref="255411004"/>
    <nd ref="255411166"/>
    <nd ref="255411183"/>
    <tag k="created_by" v="JOSM"/>
    <tag k="highway" v="residential"/>
    <tag k="name" v="Macieja Rataja"/>
    <tag k="source" v="UMP-PL, ./UMP-Szczecin/src/NOWOGARD.ulice.txt"/>
  </way>
  <way id="23586447" version="2" timestamp="2009-10-21T18:24:57Z" uid="36809" user="pfoten_weg_!_" changeset="2915027">
    <nd ref="255411004"/>
    <nd ref="255411166"/>
    <nd ref="255411183"/>
    <tag k="highway" v="residential"/>
    <tag k="name" v="Macieja Rataja"/>
    <tag k="source" v="UMP-PL, ./UMP-Szczecin/src/NOWOGARD.ulice.txt"/>
  </way>
  <way id="23586448" version="1" timestamp="2008-04-02T17:37:03Z" uid="30632" user="antblant" changeset="13973">
    <nd ref="255410699"/>
    <nd ref="255410701"/>
    <nd ref="255410703"/>
    <nd ref="255410704"/>
    <nd ref="255410708"/>
    <nd ref="255410706"/>
    <nd ref="255410711"/>
    <nd ref="255410709"/>
    <nd ref="255410715"/>
    <nd ref="255410713"/>
    <nd ref="255410718"/>
    <nd ref="255410716"/>
    <nd ref="255410722"/>
    <nd ref="255410720"/>
    <tag k="created_by" v="JOSM"/>
    <tag k="highway" v="primary"/>
    <tag k="name" v="3 Maja"/>
    <tag k="ref" v="6"/>
    <tag k="source" v="UMP-PL, ./UMP-Szczecin/src/NOWOGARD.ulice.txt"/>
  </way>
  <way id="23586448" version="2" timestamp="2008-04-02T19:35:32Z" uid="30632" user="antblant" changeset="20284">
    <nd ref="255410699"/>
    <nd ref="255410701"/>
    <nd ref="255410703"/>
    <nd ref="255410704"/>
    <nd ref="255410708"/>
    <nd ref="255410706"/>
    <nd ref="255410711"/>
    <nd ref="255410709"/>
    <nd ref="255410715"/>
    <nd ref="255410713"/>
    <nd ref="255410718"/>
    <nd ref="255410716"/>
    <nd ref="255410722"/>
    <nd ref="254716982"/>
    <tag k="created_by" v="Potlatch 0.8a"/>
    <tag k="highway" v="primary"/>
    <tag k="name" v="3 Maja"/>
    <tag k="ref" v="6"/>
    <tag k="source" v="UMP-PL, ./UMP-Szczecin/src/NOWOGARD.ulice.txt"/>
  </way>
  <way id="23586448" version="4" timestamp="2009-10-21T18:25:15Z" uid="36809" user="pfoten_weg_!_" changeset="2915027">
    <nd ref="255410699"/>
    <nd ref="255410701"/>
    <nd ref="255410703"/>
    <nd ref="255410704"/>
    <nd ref="255410708"/>
    <nd ref="255410706"/>
    <nd ref="255410711"/>
    <nd ref="255410709"/>
    <nd ref="255410715"/>
    <nd ref="255410713"/>
    <nd ref="255410718"/>
    <nd ref="255410716"/>
    <nd ref="255410722"/>
    <nd ref="254716982"/>
    <tag k="highway" v="primary"/>
    <tag k="int_ref" v="E 28"/>
    <tag k="name" v="3 Maja"/>
    <tag k="ref" v="6"/>
    <tag k="source" v="UMP-PL, ./UMP-Szczecin/src/NOWOGARD.ulice.txt"/>
  </way>
  <way id="23586449" version="1" timestamp="2008-04-02T17:37:03Z" uid="30632" user="antblant" changeset="13973">
    <nd ref="255411083"/>
    <nd ref="255411089"/>
    <tag k="created_by" v="JOSM"/>
    <tag k="highway" v="residential"/>
    <tag k="name" v="Mikołaja Reja"/>
    <tag k="source" v="UMP-PL, ./UMP-Szczecin/src/NOWOGARD.ulice.txt"/>
  </way>
  <way id="23586449" version="2" timestamp="2009-10-21T18:25:17Z" uid="36809" user="pfoten_weg_!_" changeset="2915027">
    <nd ref="255411083"/>
    <nd ref="255411089"/>
    <tag k="highway" v="residential"/>
    <tag k="name" v="Mikołaja Reja"/>
    <tag k="source" v="UMP-PL, ./UMP-Szczecin/src/NOWOGARD.ulice.txt"/>
  </way>
  <way id="23586462" version="10" timestamp="2010-07-09T21:04:53Z" uid="74617" user="JohnSmith" changeset="5176956">
    <nd ref="268627407"/>
    <nd ref="268627498"/>
    <nd ref="268626430"/>
    <nd ref="255279520"/>
    <tag k="highway" v="residential"/>
    <tag k="maxspeed" v="50"/>
    <tag k="maxspeed:source" v="default residential speed limit in Australia"/>
    <tag k="name" v="Newey Street"/>
  </way>
  <way id="23586629" version="6" timestamp="2010-07-09T20:55:10Z" uid="74617" user="JohnSmith" changeset="5176956">
    <nd ref="255279426"/>
    <nd ref="640765255"/>
    <nd ref="255279702"/>
    <nd ref="640765257"/>
    <nd ref="640765259"/>
    <nd ref="640765262"/>
    <nd ref="640765264"/>
    <nd ref="255279704"/>
    <nd ref="640765265"/>
    <nd ref="640765266"/>
    <nd ref="255279426"/>
    <tag k="highway" v="residential"/>
    <tag k="junction" v="roundabout"/>
    <tag k="maxspeed" v="50"/>
    <tag k="maxspeed:source" v="default residential speed limit in Australia"/>
  </way>
  <way id="23586634" version="6" timestamp="2010-07-09T21:07:02Z" uid="74617" user="JohnSmith" changeset="5176956">
    <nd ref="255279704"/>
    <nd ref="255279705"/>
    <nd ref="255279706"/>
    <tag k="highway" v="residential"/>
    <tag k="maxspeed" v="50"/>
    <tag k="maxspeed:source" v="default residential speed limit in Australia"/>
    <tag k="name" v="Acton Avenue"/>
  </way>
  <way id="23586644" version="9" timestamp="2010-07-09T20:59:50Z" uid="74617" user="JohnSmith" changeset="5176956">
    <nd ref="255279706"/>
    <nd ref="255279707"/>
    <nd ref="255279708"/>
    <nd ref="430085089"/>
    <nd ref="59241751"/>
    <tag k="highway" v="residential"/>
    <tag k="maxspeed" v="50"/>
    <tag k="maxspeed:source" v="default residential speed limit in Australia"/>
    <tag k="name" v="Cleaver Terrace"/>
  </way>
  <way id="23586646" version="4" timestamp="2010-07-09T21:12:49Z" uid="74617" user="JohnSmith" changeset="5176956">
    <nd ref="255279708"/>
    <nd ref="268627684"/>
    <nd ref="255279709"/>
    <tag k="highway" v="residential"/>
    <tag k="maxspeed" v="50"/>
    <tag k="maxspeed:source" v="default residential speed limit in Australia"/>
    <tag k="name" v="Hampden Road"/>
  </way>
  <way id="23586682" version="6" timestamp="2008-07-07T01:45:25Z" uid="6975" user="ulfl" changeset="415781">
    <nd ref="252920350"/>
    <nd ref="255414182"/>
    <nd ref="255414179"/>
    <nd ref="255414176"/>
    <nd ref="255414138"/>
    <nd ref="255414136"/>
    <nd ref="255414133"/>
    <nd ref="255418790"/>
    <nd ref="255414131"/>
    <nd ref="255414127"/>
    <nd ref="255414124"/>
    <nd ref="255414120"/>
    <nd ref="255414118"/>
    <nd ref="255414115"/>
    <nd ref="255414113"/>
    <nd ref="255414111"/>
    <nd ref="255414107"/>
    <tag k="highway" v="residential"/>
    <tag k="maxweight" v="3,5"/>
    <tag k="name" v="Winzerschulgasse"/>
  </way>
  <way id="23586922" version="2" timestamp="2009-03-03T20:28:32Z" uid="1066" user="pavel" changeset="729965">
    <nd ref="255416524"/>
    <nd ref="355291137"/>
    <nd ref="255416525"/>
    <tag k="created_by" v="JOSM"/>
    <tag k="highway" v="footway"/>
  </way>
</osm>
