<?xml version='1.0' encoding='UTF-8'?>
<osm version="0.6" generator="libosmium/2.20.0">
  <way id="23583122" version="5" timestamp="2010-04-02T17:12:39Z" uid="20587" user="balrog-kun" changeset="4304500">
    <nd ref="33515804"/>
    <nd ref="33515803"/>
    <nd ref="33515802"/>
    <nd ref="33515801"/>
    <nd ref="33515800"/>
    <nd ref="33515799"/>
    <nd ref="33515798"/>
    <nd ref="33515797"/>
    <tag k="bridge" v="yes"/>
    <tag k="created_by" v="JOSM"/>
    <tag k="highway" v="residential"/>
    <tag k="layer" v="4"/>
    <tag k="name" v="East 34th Street"/>
    <tag k="tiger:cfcc" v="A41"/>
    <tag k="tiger:county" v="Pierce, WA"/>
    <tag k="tiger:name_base" v="34th"/>
    <tag k="tiger:name_direction_prefix" v="E"/>
    <tag k="tiger:separated" v="no"/>
    <tag k="tiger:source" v="tiger_import_dch_v0.6_20070830"/>
    <tag k="tiger:tlid" v="184626944:184626945:184626947:184626646:184626719:184626721:184626272:184626284:184626292:184626916:184626922:184626923:184720806"/>
    <tag k="tiger:zip_left" v="98404"/>
    <tag k="tiger:zip_right" v="98404"/>
  </way>
  <way id="23583123" version="3" timestamp="2010-04-02T17:12:40Z" uid="20587" user="balrog-kun" changeset="4304500">
    <nd ref="33515797"/>
    <nd ref="33515796"/>
    <nd ref="33515795"/>
    <nd ref="33515794"/>
    <nd ref="33515793"/>
    <nd ref="33515792"/>
    <nd ref="249770399"/>
    <nd ref="33515791"/>
    <nd ref="110858336"/>
    <tag k="created_by" v="JOSM"/>
    <tag k="highway" v="residential"/>
    <tag k="layer" v="4"/>
    <tag k="name" v="East 34th Street"/>
    <tag k="tiger:cfcc" v="A41"/>
    <tag k="tiger:county" v="Pierce, WA"/>
    <tag k="tiger:name_base" v="34th"/>
    <tag k="tiger:name_direction_prefix" v="E"/>
    <tag k="tiger:reviewed" v="no"/>
    <tag k="tiger:separated" v="no"/>
    <tag k="tiger:source" v="tiger_import_dch_v0.6_20070830"/>
    <tag k="tiger:tlid" v="184626944:184626945:184626947:184626646:184626719:184626721:184626272:184626284:184626292:184626916:184626922:184626923:184720806"/>
    <tag k="tiger:zip_left" v="98404"/>
    <tag k="tiger:zip_right" v="98404"/>
  </way>
  <way id="23583151" version="1" timestamp="2008-04-02T12:27:13Z" uid="8619" user="cetest" changeset="16181">
    <nd ref="44573721"/>
    <nd ref="255380710"/>
    <tag k="created_by" v="JOSM"/>
    <tag k="highway" v="unclassified"/>
  </way>
  <way id="23583156" version="1" timestamp="2008-04-02T12:27:32Z" uid="8619" user="cetest" changeset="16181">
    <nd ref="255380743"/>
    <nd ref="255380741"/>
    <nd ref="255380742"/>
    <tag k="created_by" v="JOSM"/>
    <tag k="highway" v="track"/>
  </way>
  <way id="23583341" version="6" timestamp="2010-06-29T20:48:20Z" uid="74617" user="JohnSmith" changeset="5109183">
    <nd ref="255382229"/>
    <nd ref="255382230"/>
    <nd ref="255382231"/>
    <nd ref="255382232"/>
    <nd ref="255382233"/>
    <nd ref="255382234"/>
    <nd ref="255382235"/>
    <nd ref="255382236"/>
    <nd ref="255382229"/>
    <tag k="fixme" v="sport=rugby is ambiguous, see http://wiki.osm.org/wiki/Tag:sport%3Drugby for more details"/>
    <tag k="leisure" v="pitch"/>
    <tag k="sport" v="rugby"/>
  </way>
  <way id="23583784" version="6" timestamp="2009-12-09T23:23:29Z" uid="30201" user="rrankin" changeset="3338190">
    <nd ref="255387073"/>
    <nd ref="255524379"/>
    <nd ref="255387072"/>
    <nd ref="255387066"/>
    <nd ref="255387096"/>
    <nd ref="255387065"/>
    <nd ref="255387097"/>
    <nd ref="255387059"/>
    <nd ref="255387005"/>
    <nd ref="255386995"/>
    <tag k="highway" v="residential"/>
    <tag k="name" v="Heseltine Place"/>
    <tag k="source" v="survey"/>
  </way>
  <way id="23583784" version="7" timestamp="2010-01-08T23:41:50Z" uid="7617" user="Franc" changeset="3574697"/>
  <way id="23583785" version="4" timestamp="2009-12-09T23:23:29Z" uid="30201" user="rrankin" changeset="3338190">
    <nd ref="255387072"/>
    <nd ref="255387098"/>
    <nd ref="257065626"/>
    <nd ref="255387133"/>
    <tag k="highway" v="residential"/>
    <tag k="name" v="Warrell Court"/>
    <tag k="source" v="survey"/>
  </way>
  <way id="23583785" version="5" timestamp="2010-01-08T23:41:50Z" uid="7617" user="Franc" changeset="3574697">
    <nd ref="255387072"/>
    <nd ref="255387098"/>
    <nd ref="609967692"/>
    <nd ref="257065626"/>
    <nd ref="255387133"/>
    <tag k="highway" v="residential"/>
    <tag k="name" v="Warrell Court"/>
    <tag k="source" v="survey"/>
  </way>
  <way id="23583785" version="6" timestamp="2010-07-07T22:58:24Z" uid="74617" user="JohnSmith" changeset="5162525">
    <nd ref="255387072"/>
    <nd ref="255387098"/>
    <nd ref="609967692"/>
    <nd ref="257065626"/>
    <nd ref="255387133"/>
    <tag k="highway" v="residential"/>
    <tag k="maxspeed" v="50"/>
    <tag k="maxspeed:source" v="default residential speed limit in Australia"/>
    <tag k="name" v="Warrell Court"/>
    <tag k="source" v="survey"/>
  </way>
  <way id="23583786" version="5" timestamp="2009-12-09T23:23:27Z" uid="30201" user="rrankin" changeset="3338190">
    <nd ref="255387084"/>
    <nd ref="258827259"/>
    <nd ref="255387085"/>
    <tag k="highway" v="track"/>
    <tag k="name" v="Melville Road"/>
    <tag k="source" v="survey"/>
    <tag k="tracktype" v="grade1"/>
  </way>
  <way id="23583787" version="6" timestamp="2009-12-09T23:23:28Z" uid="30201" user="rrankin" changeset="3338190">
    <nd ref="255524363"/>
    <nd ref="255387073"/>
    <nd ref="255387084"/>
    <nd ref="255988979"/>
    <nd ref="255988968"/>
    <nd ref="255988956"/>
    <nd ref="255988945"/>
    <nd ref="255988933"/>
    <nd ref="255989218"/>
    <nd ref="255988922"/>
    <tag k="highway" v="residential"/>
    <tag k="name" v="Hamrun Circuit"/>
    <tag k="source" v="survey"/>
  </way>
  <way id="23583787" version="7" timestamp="2010-01-08T23:41:49Z" uid="7617" user="Franc" changeset="3574697">
    <nd ref="609967677"/>
    <nd ref="255387073"/>
    <nd ref="255387084"/>
    <nd ref="255988979"/>
    <nd ref="255988968"/>
    <nd ref="255988956"/>
    <nd ref="255988945"/>
    <nd ref="255988933"/>
    <nd ref="255989218"/>
    <nd ref="255988922"/>
    <tag k="highway" v="residential"/>
    <tag k="name" v="Hamrun Circuit"/>
    <tag k="source" v="survey"/>
  </way>
  <way id="23583787" version="8" timestamp="2010-07-07T22:59:30Z" uid="74617" user="JohnSmith" changeset="5162525">
    <nd ref="609967677"/>
    <nd ref="255387073"/>
    <nd ref="255387084"/>
    <nd ref="255988979"/>
    <nd ref="255988968"/>
    <nd ref="255988956"/>
    <nd ref="255988945"/>
    <nd ref="255988933"/>
    <nd ref="255989218"/>
    <nd ref="255988922"/>
    <tag k="highway" v="residential"/>
    <tag k="maxspeed" v="50"/>
    <tag k="maxspeed:source" v="default residential speed limit in Australia"/>
    <tag k="name" v="Hamrun Circuit"/>
    <tag k="source" v="survey"/>
  </way>
  <way id="23583787" version="9" timestamp="2010-09-12T05:37:26Z" uid="61114" user="Trav" changeset="5755757">
    <nd ref="609967677"/>
    <nd ref="255387073"/>
    <nd ref="255387084"/>
    <nd ref="255988979"/>
    <nd ref="255988968"/>
    <nd ref="255988956"/>
    <nd ref="255988945"/>
    <nd ref="255988933"/>
    <nd ref="255989218"/>
    <nd ref="255988922"/>
    <tag k="highway" v="residential"/>
    <tag k="maxspeed" v="50"/>
    <tag k="maxspeed:source" v="default residential speed limit in Australia"/>
    <tag k="name" v="Hamrun Circuit"/>
    <tag k="source" v="survey"/>
    <tag k="source:name" v="survey"/>
  </way>
  <way id="23583788" version="4" timestamp="2009-12-21T10:33:00Z" uid="30201" user="rrankin" changeset="3419021">
    <nd ref="255387134"/>
    <nd ref="255387139"/>
    <tag k="highway" v="residential"/>
    <tag k="name" v="Star Lane"/>
    <tag k="oneway" v="yes"/>
    <tag k="source" v="survey"/>
  </way>
  <way id="23583788" version="5" timestamp="2010-07-07T23:00:23Z" uid="74617" user="JohnSmith" changeset="5162525">
    <nd ref="255387134"/>
    <nd ref="255387139"/>
    <tag k="highway" v="residential"/>
    <tag k="maxspeed" v="50"/>
    <tag k="maxspeed:source" v="default residential speed limit in Australia"/>
    <tag k="name" v="Star Lane"/>
    <tag k="oneway" v="yes"/>
    <tag k="source" v="survey"/>
  </way>
  <way id="23583789" version="11" timestamp="2009-12-21T10:33:06Z" uid="30201" user="rrankin" changeset="3419021">
    <nd ref="59964453"/>
    <nd ref="255524323"/>
    <tag k="highway" v="secondary"/>
    <tag k="layer" v="2"/>
    <tag k="name" v="Francis Road"/>
    <tag k="source" v="survey"/>
  </way>
  <way id="23583789" version="12" timestamp="2010-02-01T04:08:30Z" uid="30201" user="rrankin" changeset="3764953">
    <nd ref="59964453"/>
    <nd ref="625010312"/>
    <tag k="highway" v="secondary"/>
    <tag k="layer" v="2"/>
    <tag k="name" v="Francis Road"/>
    <tag k="source" v="survey"/>
  </way>
  <way id="23583790" version="5" timestamp="2009-12-21T10:32:59Z" uid="30201" user="rrankin" changeset="3419021">
    <nd ref="255387141"/>
    <nd ref="255387142"/>
    <nd ref="255387204"/>
    <nd ref="255387144"/>
    <nd ref="255387145"/>
    <nd ref="255387176"/>
    <nd ref="255387177"/>
    <nd ref="255387178"/>
    <nd ref="256221791"/>
    <tag k="highway" v="residential"/>
    <tag k="name" v="Nicolaidis Crescent"/>
    <tag k="source" v="survey"/>
  </way>
  <way id="23583790" version="6" timestamp="2010-07-07T23:01:21Z" uid="74617" user="JohnSmith" changeset="5162525">
    <nd ref="255387141"/>
    <nd ref="255387142"/>
    <nd ref="255387204"/>
    <nd ref="255387144"/>
    <nd ref="255387145"/>
    <nd ref="255387176"/>
    <nd ref="255387177"/>
    <nd ref="255387178"/>
    <nd ref="256221791"/>
    <tag k="highway" v="residential"/>
    <tag k="maxspeed" v="50"/>
    <tag k="maxspeed:source" v="default residential speed limit in Australia"/>
    <tag k="name" v="Nicolaidis Crescent"/>
    <tag k="source" v="survey"/>
  </way>
  <way id="23583791" version="3" timestamp="2009-12-21T10:33:00Z" uid="30201" user="rrankin" changeset="3419021">
    <nd ref="255387204"/>
    <nd ref="255387205"/>
    <tag k="highway" v="residential"/>
    <tag k="name" v="Chios Place"/>
    <tag k="source" v="survey"/>
  </way>
  <way id="23583791" version="4" timestamp="2010-07-07T23:04:33Z" uid="74617" user="JohnSmith" changeset="5162525">
    <nd ref="255387204"/>
    <nd ref="255387205"/>
    <tag k="highway" v="residential"/>
    <tag k="maxspeed" v="50"/>
    <tag k="maxspeed:source" v="default residential speed limit in Australia"/>
    <tag k="name" v="Chios Place"/>
    <tag k="source" v="survey"/>
  </way>
  <way id="23583792" version="4" timestamp="2009-12-21T10:32:59Z" uid="30201" user="rrankin" changeset="3419021">
    <nd ref="255387178"/>
    <nd ref="256221798"/>
    <nd ref="255387218"/>
    <tag k="highway" v="residential"/>
    <tag k="name" v="Regan Place"/>
    <tag k="source" v="survey"/>
  </way>
  <way id="23583792" version="5" timestamp="2010-07-07T23:01:18Z" uid="74617" user="JohnSmith" changeset="5162525">
    <nd ref="255387178"/>
    <nd ref="256221798"/>
    <nd ref="255387218"/>
    <tag k="highway" v="residential"/>
    <tag k="maxspeed" v="50"/>
    <tag k="maxspeed:source" v="default residential speed limit in Australia"/>
    <tag k="name" v="Regan Place"/>
    <tag k="source" v="survey"/>
  </way>
  <way id="23583793" version="4" timestamp="2009-12-21T10:32:59Z" uid="30201" user="rrankin" changeset="3419021">
    <nd ref="256221798"/>
    <nd ref="255387219"/>
    <tag k="highway" v="residential"/>
    <tag k="name" v="Regan Place"/>
    <tag k="source" v="survey"/>
  </way>
  <way id="23583793" version="5" timestamp="2010-01-09T00:14:51Z" uid="7617" user="Franc" changeset="3574832"/>
  <way id="23583794" version="7" timestamp="2009-12-21T10:32:59Z" uid="30201" user="rrankin" changeset="3419021">
    <nd ref="257315432"/>
    <nd ref="257315573"/>
    <nd ref="257315597"/>
    <nd ref="257315842"/>
    <nd ref="257315652"/>
    <nd ref="257315674"/>
    <nd ref="257315726"/>
    <nd ref="257315775"/>
    <nd ref="261690325"/>
    <nd ref="255387141"/>
    <nd ref="271055118"/>
    <nd ref="327773666"/>
    <tag k="highway" v="residential"/>
    <tag k="name" v="Charlotte Road"/>
    <tag k="source" v="survey"/>
  </way>
  <way id="23583794" version="8" timestamp="2010-01-09T05:51:01Z" uid="7617" user="Franc" changeset="3575533">
    <nd ref="257315432"/>
    <nd ref="257315573"/>
    <nd ref="257315597"/>
    <nd ref="257315842"/>
    <nd ref="257315652"/>
    <nd ref="257315674"/>
    <nd ref="257315726"/>
    <nd ref="610192685"/>
    <nd ref="257315775"/>
    <nd ref="261690325"/>
    <nd ref="255387141"/>
    <nd ref="271055118"/>
    <nd ref="327773666"/>
    <tag k="highway" v="residential"/>
    <tag k="name" v="Charlotte Road"/>
    <tag k="source" v="survey"/>
  </way>
  <way id="23583794" version="9" timestamp="2010-02-01T04:08:29Z" uid="30201" user="rrankin" changeset="3764953">
    <nd ref="257315432"/>
    <nd ref="257315573"/>
    <nd ref="625010257"/>
    <tag k="highway" v="residential"/>
    <tag k="name" v="Charlotte Road"/>
    <tag k="source" v="survey"/>
  </way>
  <way id="23583794" version="10" timestamp="2010-07-07T23:02:21Z" uid="74617" user="JohnSmith" changeset="5162525">
    <nd ref="257315432"/>
    <nd ref="257315573"/>
    <nd ref="625010257"/>
    <tag k="highway" v="residential"/>
    <tag k="maxspeed" v="50"/>
    <tag k="maxspeed:source" v="default residential speed limit in Australia"/>
    <tag k="name" v="Charlotte Road"/>
    <tag k="source" v="survey"/>
  </way>
  <way id="23583794" version="11" timestamp="2010-09-12T05:37:28Z" uid="61114" user="Trav" changeset="5755757">
    <nd ref="257315432"/>
    <nd ref="257315573"/>
    <nd ref="625010257"/>
    <tag k="highway" v="residential"/>
    <tag k="maxspeed" v="50"/>
    <tag k="maxspeed:source" v="default residential speed limit in Australia"/>
    <tag k="name" v="Charlotte Road"/>
    <tag k="source" v="survey"/>
    <tag k="source:name" v="survey"/>
  </way>
  <way id="23583800" version="2" timestamp="2008-06-09T06:55:54Z" uid="9581" user="Lobelt" changeset="105018"/>
  <way id="23583812" version="4" timestamp="2010-07-06T18:58:31Z" uid="74617" user="JohnSmith" changeset="5152225">
    <nd ref="255387404"/>
    <nd ref="255387405"/>
    <nd ref="255387406"/>
    <nd ref="255387407"/>
    <tag k="cycleway" v="lane"/>
    <tag k="highway" v="residential"/>
    <tag k="maxspeed" v="50"/>
    <tag k="maxspeed:source" v="default residential speed limit in Australia"/>
    <tag k="name" v="Allen Street"/>
    <tag k="rcn" v="yes"/>
  </way>
  <way id="23583813" version="3" timestamp="2010-07-06T18:52:35Z" uid="74617" user="JohnSmith" changeset="5152225">
    <nd ref="255387411"/>
    <nd ref="255387410"/>
    <nd ref="255387412"/>
    <nd ref="255387413"/>
    <nd ref="255387414"/>
    <nd ref="255387415"/>
    <tag k="highway" v="residential"/>
    <tag k="maxspeed" v="50"/>
    <tag k="maxspeed:source" v="default residential speed limit in Australia"/>
    <tag k="name" v="George Street"/>
  </way>
  <way id="23583814" version="4" timestamp="2010-07-06T18:56:29Z" uid="74617" user="JohnSmith" changeset="5152225">
    <nd ref="255387415"/>
    <nd ref="245143880"/>
    <nd ref="612811745"/>
    <tag k="highway" v="residential"/>
    <tag k="maxspeed" v="50"/>
    <tag k="maxspeed:source" v="default residential speed limit in Australia"/>
    <tag k="name" v="Bryce Street"/>
  </way>
  <way id="23583815" version="3" timestamp="2010-07-06T18:50:48Z" uid="74617" user="JohnSmith" changeset="5152225">
    <nd ref="255387418"/>
    <nd ref="255387419"/>
    <nd ref="255387420"/>
    <nd ref="255387421"/>
    <nd ref="255387422"/>
    <nd ref="255387423"/>
    <tag k="highway" v="residential"/>
    <tag k="maxspeed" v="50"/>
    <tag k="maxspeed:source" v="default residential speed limit in Australia"/>
    <tag k="name" v="Seaview Terrace"/>
  </way>
  <way id="23583817" version="4" timestamp="2010-07-06T18:51:37Z" uid="74617" user="JohnSmith" changeset="5152225">
    <nd ref="255387437"/>
    <nd ref="255387438"/>
    <nd ref="255387414"/>
    <nd ref="255387439"/>
    <nd ref="255387440"/>
    <nd ref="255387420"/>
    <tag k="highway" v="residential"/>
    <tag k="maxspeed" v="50"/>
    <tag k="maxspeed:source" v="default residential speed limit in Australia"/>
    <tag k="name" v="Roderick Street"/>
  </way>
  <way id="23583818" version="3" timestamp="2010-07-06T18:55:39Z" uid="74617" user="JohnSmith" changeset="5152225">
    <nd ref="255387441"/>
    <nd ref="255387413"/>
    <nd ref="255387443"/>
    <nd ref="255387444"/>
    <nd ref="255387421"/>
    <tag k="highway" v="residential"/>
    <tag k="maxspeed" v="50"/>
    <tag k="maxspeed:source" v="default residential speed limit in Australia"/>
    <tag k="name" v="Nothling Street"/>
  </way>
  <way id="23583819" version="3" timestamp="2010-07-06T18:49:54Z" uid="74617" user="JohnSmith" changeset="5152225">
    <nd ref="255387416"/>
    <nd ref="255387440"/>
    <nd ref="255387444"/>
    <nd ref="255387445"/>
    <tag k="highway" v="residential"/>
    <tag k="maxspeed" v="50"/>
    <tag k="maxspeed:source" v="default residential speed limit in Australia"/>
    <tag k="name" v="Campbell Street"/>
  </way>
  <way id="23583820" version="3" timestamp="2010-07-06T18:53:20Z" uid="74617" user="JohnSmith" changeset="5152225">
    <nd ref="255387446"/>
    <nd ref="255387447"/>
    <tag k="highway" v="residential"/>
    <tag k="maxspeed" v="50"/>
    <tag k="maxspeed:source" v="default residential speed limit in Australia"/>
    <tag k="name" v="Eva Street"/>
  </way>
  <way id="23583821" version="3" timestamp="2010-07-06T18:48:23Z" uid="74617" user="JohnSmith" changeset="5152225">
    <nd ref="255387447"/>
    <nd ref="255387448"/>
    <nd ref="255387408"/>
    <nd ref="255387424"/>
    <tag k="highway" v="residential"/>
    <tag k="maxspeed" v="50"/>
    <tag k="maxspeed:source" v="default residential speed limit in Australia"/>
    <tag k="name" v="Lyon Street"/>
  </way>
  <way id="23583822" version="4" timestamp="2010-05-12T08:33:53Z" uid="4467" user="Rosscoe" changeset="4675230">
    <nd ref="255387449"/>
    <nd ref="255387448"/>
    <nd ref="255387450"/>
    <nd ref="255387412"/>
    <nd ref="255387451"/>
    <nd ref="245143877"/>
    <nd ref="255387452"/>
    <nd ref="255387445"/>
    <nd ref="255387453"/>
    <nd ref="255387422"/>
    <nd ref="255387454"/>
    <nd ref="255387455"/>
    <nd ref="730606176"/>
    <nd ref="255387456"/>
    <nd ref="255387457"/>
    <nd ref="255387458"/>
    <tag k="highway" v="residential"/>
    <tag k="name" v="Grigor Street"/>
  </way>
  <way id="23583822" version="5" timestamp="2010-07-06T18:51:07Z" uid="74617" user="JohnSmith" changeset="5152225">
    <nd ref="255387449"/>
    <nd ref="255387448"/>
    <nd ref="255387450"/>
    <nd ref="255387412"/>
    <nd ref="255387451"/>
    <nd ref="245143877"/>
    <nd ref="255387452"/>
    <nd ref="255387445"/>
    <nd ref="255387453"/>
    <nd ref="255387422"/>
    <nd ref="255387454"/>
    <nd ref="255387455"/>
    <nd ref="730606176"/>
    <nd ref="255387456"/>
    <nd ref="255387457"/>
    <nd ref="255387458"/>
    <tag k="highway" v="residential"/>
    <tag k="maxspeed" v="50"/>
    <tag k="maxspeed:source" v="default residential speed limit in Australia"/>
    <tag k="name" v="Grigor Street"/>
  </way>
  <way id="23583823" version="3" timestamp="2010-07-06T18:59:06Z" uid="74617" user="JohnSmith" changeset="5152225">
    <nd ref="255387451"/>
    <nd ref="255387427"/>
    <tag k="highway" v="residential"/>
    <tag k="maxspeed" v="50"/>
    <tag k="maxspeed:source" v="default residential speed limit in Australia"/>
    <tag k="name" v="Roslin STreet"/>
  </way>
  <way id="23583824" version="3" timestamp="2010-07-06T18:59:34Z" uid="74617" user="JohnSmith" changeset="5152225">
    <nd ref="255387464"/>
    <nd ref="255387465"/>
    <nd ref="255387466"/>
    <tag k="highway" v="residential"/>
    <tag k="maxspeed" v="50"/>
    <tag k="maxspeed:source" v="default residential speed limit in Australia"/>
    <tag k="name" v="Gemson Crescent"/>
  </way>
  <way id="23583825" version="3" timestamp="2010-07-06T18:54:05Z" uid="74617" user="JohnSmith" changeset="5152225">
    <nd ref="255387453"/>
    <nd ref="255387431"/>
    <tag k="highway" v="residential"/>
    <tag k="maxspeed" v="50"/>
    <tag k="maxspeed:source" v="default residential speed limit in Australia"/>
    <tag k="name" v="Derby Road"/>
  </way>
  <way id="23583826" version="3" timestamp="2010-07-06T18:57:33Z" uid="74617" user="JohnSmith" changeset="5152225">
    <nd ref="255387452"/>
    <nd ref="255387430"/>
    <tag k="highway" v="residential"/>
    <tag k="maxspeed" v="50"/>
    <tag k="maxspeed:source" v="default residential speed limit in Australia"/>
    <tag k="name" v="Gladstone Parade"/>
  </way>
  <way id="23583827" version="3" timestamp="2010-07-06T18:51:45Z" uid="74617" user="JohnSmith" changeset="5152225">
    <nd ref="255387467"/>
    <nd ref="255387455"/>
    <nd ref="255387433"/>
    <tag k="highway" v="residential"/>
    <tag k="maxspeed" v="50"/>
    <tag k="maxspeed:source" v="default residential speed limit in Australia"/>
    <tag k="name" v="Windsor Avenue"/>
  </way>
  <way id="23583828" version="3" timestamp="2010-05-12T08:33:53Z" uid="4467" user="Rosscoe" changeset="4675230">
    <nd ref="730606177"/>
    <nd ref="255387470"/>
    <nd ref="730606176"/>
    <tag k="highway" v="residential"/>
    <tag k="name" v="Bennett Street"/>
  </way>
  <way id="23583828" version="4" timestamp="2010-07-06T18:55:45Z" uid="74617" user="JohnSmith" changeset="5152225">
    <nd ref="730606177"/>
    <nd ref="255387470"/>
    <nd ref="730606176"/>
    <tag k="highway" v="residential"/>
    <tag k="maxspeed" v="50"/>
    <tag k="maxspeed:source" v="default residential speed limit in Australia"/>
    <tag k="name" v="Bennett Street"/>
  </way>
  <way id="23583829" version="3" timestamp="2010-05-12T08:33:52Z" uid="4467" user="Rosscoe" changeset="4675230">
    <nd ref="255387473"/>
    <nd ref="255387474"/>
    <nd ref="255387467"/>
    <nd ref="730606185"/>
    <nd ref="730606197"/>
    <tag k="highway" v="residential"/>
    <tag k="name" v="Moffat Street"/>
  </way>
  <way id="23583829" version="4" timestamp="2010-07-06T18:49:59Z" uid="74617" user="JohnSmith" changeset="5152225">
    <nd ref="255387473"/>
    <nd ref="255387474"/>
    <nd ref="255387467"/>
    <nd ref="730606185"/>
    <nd ref="730606197"/>
    <tag k="highway" v="residential"/>
    <tag k="maxspeed" v="50"/>
    <tag k="maxspeed:source" v="default residential speed limit in Australia"/>
    <tag k="name" v="Moffat Street"/>
  </way>
  <way id="23583830" version="4" timestamp="2010-05-12T08:33:54Z" uid="4467" user="Rosscoe" changeset="4675230">
    <nd ref="255387419"/>
    <nd ref="255387477"/>
    <nd ref="255387478"/>
    <nd ref="413309272"/>
    <nd ref="255387479"/>
    <nd ref="730606189"/>
    <nd ref="255387480"/>
    <nd ref="255387475"/>
    <tag k="highway" v="residential"/>
    <tag k="name" v="Queen of Colonies Parade"/>
  </way>
  <way id="23583830" version="5" timestamp="2010-07-06T18:53:27Z" uid="74617" user="JohnSmith" changeset="5152225">
    <nd ref="255387419"/>
    <nd ref="255387477"/>
    <nd ref="255387478"/>
    <nd ref="413309272"/>
    <nd ref="255387479"/>
    <nd ref="730606189"/>
    <nd ref="255387480"/>
    <nd ref="255387475"/>
    <tag k="highway" v="residential"/>
    <tag k="maxspeed" v="50"/>
    <tag k="maxspeed:source" v="default residential speed limit in Australia"/>
    <tag k="name" v="Queen of Colonies Parade"/>
  </way>
  <way id="23583854" version="7" timestamp="2010-05-12T08:33:54Z" uid="4467" user="Rosscoe" changeset="4675230">
    <nd ref="255387406"/>
    <nd ref="255387424"/>
    <nd ref="255388577"/>
    <nd ref="255387425"/>
    <nd ref="278083923"/>
    <nd ref="255387426"/>
    <nd ref="255387411"/>
    <nd ref="255387464"/>
    <nd ref="255387427"/>
    <nd ref="255387428"/>
    <nd ref="255387429"/>
    <nd ref="255387430"/>
    <nd ref="617005052"/>
    <nd ref="255387431"/>
    <nd ref="255387423"/>
    <nd ref="730606191"/>
    <tag k="highway" v="residential"/>
    <tag k="name" v="William Street"/>
  </way>
  <way id="23583854" version="8" timestamp="2010-07-06T18:57:19Z" uid="74617" user="JohnSmith" changeset="5152225">
    <nd ref="255387406"/>
    <nd ref="255387424"/>
    <nd ref="255388577"/>
    <nd ref="255387425"/>
    <nd ref="278083923"/>
    <nd ref="255387426"/>
    <nd ref="255387411"/>
    <nd ref="255387464"/>
    <nd ref="255387427"/>
    <nd ref="255387428"/>
    <nd ref="255387429"/>
    <nd ref="255387430"/>
    <nd ref="617005052"/>
    <nd ref="255387431"/>
    <nd ref="255387423"/>
    <nd ref="730606191"/>
    <tag k="highway" v="residential"/>
    <tag k="maxspeed" v="50"/>
    <tag k="maxspeed:source" v="default residential speed limit in Australia"/>
    <tag k="name" v="William Street"/>
  </way>
  <way id="23583855" version="2" timestamp="2010-07-06T18:51:30Z" uid="74617" user="JohnSmith" changeset="5152225">
    <nd ref="255387436"/>
    <nd ref="255387747"/>
    <tag k="highway" v="residential"/>
    <tag k="maxspeed" v="50"/>
    <tag k="maxspeed:source" v="default residential speed limit in Australia"/>
  </way>
  <way id="23583856" version="3" timestamp="2010-07-06T18:52:03Z" uid="74617" user="JohnSmith" changeset="5152225">
    <nd ref="255387457"/>
    <nd ref="255387435"/>
    <tag k="highway" v="residential"/>
    <tag k="maxspeed" v="50"/>
    <tag k="maxspeed:source" v="default residential speed limit in Australia"/>
    <tag k="name" v="Wellington Parade"/>
  </way>
  <way id="23583857" version="3" timestamp="2010-07-06T18:59:54Z" uid="74617" user="JohnSmith" changeset="5152225">
    <nd ref="255387751"/>
    <nd ref="255387759"/>
    <nd ref="255387760"/>
    <nd ref="255387761"/>
    <tag k="highway" v="residential"/>
    <tag k="maxspeed" v="50"/>
    <tag k="maxspeed:source" v="default residential speed limit in Australia"/>
    <tag k="name" v="Stewart Way"/>
  </way>
  <way id="23583858" version="3" timestamp="2010-07-06T18:50:16Z" uid="74617" user="JohnSmith" changeset="5152225">
    <nd ref="255387484"/>
    <nd ref="255387762"/>
    <nd ref="255387472"/>
    <nd ref="255387752"/>
    <nd ref="255387763"/>
    <nd ref="255387764"/>
    <tag k="highway" v="residential"/>
    <tag k="maxspeed" v="50"/>
    <tag k="maxspeed:source" v="default residential speed limit in Australia"/>
    <tag k="name" v="Alfred Street"/>
  </way>
  <way id="23583859" version="3" timestamp="2010-07-06T18:58:03Z" uid="74617" user="JohnSmith" changeset="5152225">
    <nd ref="255387763"/>
    <nd ref="255387765"/>
    <tag k="highway" v="residential"/>
    <tag k="maxspeed" v="50"/>
    <tag k="maxspeed:source" v="default residential speed limit in Australia"/>
    <tag k="name" v="Acacia Avenue"/>
  </way>
  <way id="23583860" version="3" timestamp="2010-07-06T18:48:53Z" uid="74617" user="JohnSmith" changeset="5152225">
    <nd ref="255387486"/>
    <nd ref="255387767"/>
    <tag k="highway" v="residential"/>
    <tag k="maxspeed" v="50"/>
    <tag k="maxspeed:source" v="default residential speed limit in Australia"/>
    <tag k="name" v="Edridge Street"/>
  </way>
  <way id="23583883" version="4" timestamp="2010-07-06T18:50:58Z" uid="74617" user="JohnSmith" changeset="5152225">
    <nd ref="255388022"/>
    <nd ref="255388023"/>
    <tag k="highway" v="residential"/>
    <tag k="maxspeed" v="50"/>
    <tag k="maxspeed:source" v="default residential speed limit in Australia"/>
    <tag k="name" v="Elm Street"/>
  </way>
  <way id="23583884" version="3" timestamp="2010-07-06T18:54:58Z" uid="74617" user="JohnSmith" changeset="5152225">
    <nd ref="255388024"/>
    <nd ref="255388025"/>
    <tag k="highway" v="residential"/>
    <tag k="maxspeed" v="50"/>
    <tag k="maxspeed:source" v="default residential speed limit in Australia"/>
    <tag k="name" v="Grevillia Court"/>
  </way>
  <way id="23583885" version="3" timestamp="2010-07-06T18:49:28Z" uid="74617" user="JohnSmith" changeset="5152225">
    <nd ref="255388026"/>
    <nd ref="255388027"/>
    <tag k="highway" v="residential"/>
    <tag k="maxspeed" v="50"/>
    <tag k="maxspeed:source" v="default residential speed limit in Australia"/>
    <tag k="name" v="Melaleuca Street"/>
  </way>
  <way id="23583886" version="6" timestamp="2010-07-06T18:52:24Z" uid="74617" user="JohnSmith" changeset="5152225">
    <nd ref="255388028"/>
    <nd ref="617005049"/>
    <nd ref="255388029"/>
    <nd ref="255388026"/>
    <tag k="highway" v="residential"/>
    <tag k="maxspeed" v="50"/>
    <tag k="maxspeed:source" v="default residential speed limit in Australia"/>
    <tag k="name" v="Boronia Court"/>
  </way>
  <way id="23583887" version="3" timestamp="2010-07-06T18:47:39Z" uid="74617" user="JohnSmith" changeset="5152225">
    <nd ref="255388034"/>
    <nd ref="255388035"/>
    <tag k="highway" v="residential"/>
    <tag k="maxspeed" v="50"/>
    <tag k="maxspeed:source" v="default residential speed limit in Australia"/>
    <tag k="name" v="Prior Street"/>
  </way>
  <way id="23583888" version="3" timestamp="2010-07-06T18:48:11Z" uid="74617" user="JohnSmith" changeset="5152225">
    <nd ref="255388036"/>
    <nd ref="255388039"/>
    <nd ref="255388040"/>
    <tag k="highway" v="residential"/>
    <tag k="maxspeed" v="50"/>
    <tag k="maxspeed:source" v="default residential speed limit in Australia"/>
    <tag k="name" v="Jackman Street"/>
  </way>
  <way id="23583889" version="3" timestamp="2010-07-06T18:55:31Z" uid="74617" user="JohnSmith" changeset="5152225">
    <nd ref="255388037"/>
    <nd ref="255388041"/>
    <tag k="highway" v="residential"/>
    <tag k="maxspeed" v="50"/>
    <tag k="maxspeed:source" v="default residential speed limit in Australia"/>
    <tag k="name" v="Lethbridge Court"/>
  </way>
  <way id="23583890" version="4" timestamp="2010-07-06T18:58:54Z" uid="74617" user="JohnSmith" changeset="5152225">
    <nd ref="255388038"/>
    <nd ref="255388042"/>
    <tag k="highway" v="residential"/>
    <tag k="maxspeed" v="50"/>
    <tag k="maxspeed:source" v="default residential speed limit in Australia"/>
    <tag k="name" v="Samuel Court"/>
  </way>
  <way id="23583891" version="3" timestamp="2010-07-06T18:53:03Z" uid="74617" user="JohnSmith" changeset="5152225">
    <nd ref="255387483"/>
    <nd ref="255387468"/>
    <nd ref="255388050"/>
    <nd ref="255387471"/>
    <tag k="highway" v="residential"/>
    <tag k="maxspeed" v="50"/>
    <tag k="maxspeed:source" v="default residential speed limit in Australia"/>
    <tag k="name" v="Simpson Street"/>
  </way>
  <way id="23583892" version="3" timestamp="2010-07-06T18:56:40Z" uid="74617" user="JohnSmith" changeset="5152225">
    <nd ref="255388050"/>
    <nd ref="255387762"/>
    <tag k="highway" v="residential"/>
    <tag k="maxspeed" v="50"/>
    <tag k="maxspeed:source" v="default residential speed limit in Australia"/>
    <tag k="name" v="Barr Avenue"/>
  </way>
  <way id="23583910" version="5" timestamp="2010-07-06T18:50:28Z" uid="74617" user="JohnSmith" changeset="5152225">
    <nd ref="255387766"/>
    <nd ref="277849790"/>
    <nd ref="255387753"/>
    <nd ref="255387765"/>
    <nd ref="255388289"/>
    <nd ref="255388290"/>
    <tag k="highway" v="residential"/>
    <tag k="maxspeed" v="50"/>
    <tag k="maxspeed:source" v="default residential speed limit in Australia"/>
    <tag k="name" v="King Street"/>
  </way>
  <way id="23583939" version="3" timestamp="2010-07-06T18:57:32Z" uid="74617" user="JohnSmith" changeset="5152225">
    <nd ref="255388290"/>
    <nd ref="255388447"/>
    <nd ref="255388448"/>
    <nd ref="255388449"/>
    <nd ref="255388444"/>
    <nd ref="255388450"/>
    <tag k="highway" v="residential"/>
    <tag k="maxspeed" v="50"/>
    <tag k="maxspeed:source" v="default residential speed limit in Australia"/>
    <tag k="name" v="Ernest Street"/>
  </way>
  <way id="23583940" version="3" timestamp="2010-07-06T18:48:38Z" uid="74617" user="JohnSmith" changeset="5152225">
    <nd ref="255388289"/>
    <nd ref="255388451"/>
    <nd ref="255388452"/>
    <nd ref="255388453"/>
    <nd ref="255388454"/>
    <nd ref="255388455"/>
    <tag k="highway" v="residential"/>
    <tag k="maxspeed" v="50"/>
    <tag k="maxspeed:source" v="default residential speed limit in Australia"/>
    <tag k="name" v="Banksia Street"/>
  </way>
  <way id="23583941" version="6" timestamp="2010-07-06T18:55:45Z" uid="74617" user="JohnSmith" changeset="5152225">
    <nd ref="255388446"/>
    <nd ref="504893098"/>
    <nd ref="255388456"/>
    <nd ref="255388457"/>
    <nd ref="255388458"/>
    <nd ref="255387758"/>
    <nd ref="255388459"/>
    <nd ref="255388460"/>
    <nd ref="255388445"/>
    <nd ref="255388461"/>
    <nd ref="255388462"/>
    <nd ref="255388463"/>
    <nd ref="255388464"/>
    <nd ref="255388450"/>
    <tag k="highway" v="residential"/>
    <tag k="maxspeed" v="50"/>
    <tag k="maxspeed:source" v="default residential speed limit in Australia"/>
    <tag k="name" v="Esplanade Headland"/>
    <tag k="rcn" v="yes"/>
  </way>
  <way id="23583950" version="5" timestamp="2010-07-06T18:54:01Z" uid="74617" user="JohnSmith" changeset="5152225">
    <nd ref="255388577"/>
    <nd ref="255388573"/>
    <nd ref="278083950"/>
    <nd ref="255388578"/>
    <tag k="highway" v="residential"/>
    <tag k="maxspeed" v="50"/>
    <tag k="maxspeed:source" v="default residential speed limit in Australia"/>
    <tag k="name" v="Ulm Street South"/>
    <tag k="source" v="yahoo_imagery"/>
  </way>
  <way id="23583953" version="4" timestamp="2010-07-06T18:56:33Z" uid="74617" user="JohnSmith" changeset="5152225">
    <nd ref="255388580"/>
    <nd ref="255388581"/>
    <nd ref="255388582"/>
    <nd ref="277851230"/>
    <nd ref="277851262"/>
    <tag k="highway" v="residential"/>
    <tag k="maxspeed" v="50"/>
    <tag k="maxspeed:source" v="default residential speed limit in Australia"/>
    <tag k="name" v="Fairlie Crescent"/>
    <tag k="source" v="yahoo_imagery"/>
  </way>
  <way id="23583954" version="2" timestamp="2010-07-06T18:47:32Z" uid="74617" user="JohnSmith" changeset="5152225">
    <nd ref="255388581"/>
    <nd ref="255388584"/>
    <tag k="highway" v="residential"/>
    <tag k="maxspeed" v="50"/>
    <tag k="maxspeed:source" v="default residential speed limit in Australia"/>
    <tag k="source" v="yahoo_imagery"/>
  </way>
  <way id="23583992" version="5" timestamp="2008-10-28T13:05:01Z" uid="9581" user="Lobelt" changeset="612164">
    <nd ref="98697554"/>
    <nd ref="98697555"/>
    <nd ref="98697556"/>
    <nd ref="98697557"/>
    <nd ref="98697558"/>
    <nd ref="98697559"/>
    <nd ref="98697560"/>
    <nd ref="98697561"/>
    <nd ref="98697562"/>
    <nd ref="98697563"/>
    <nd ref="308226763"/>
    <nd ref="98697564"/>
    <nd ref="98697565"/>
    <nd ref="98697566"/>
    <nd ref="98697567"/>
    <nd ref="98697568"/>
    <nd ref="98697569"/>
    <nd ref="98697570"/>
    <nd ref="98697571"/>
    <nd ref="98697573"/>
    <tag k="created_by" v="Potlatch 0.8a"/>
    <tag k="highway" v="secondary"/>
    <tag k="ref" v="S153"/>
  </way>
  <way id="23583995" version="4" timestamp="2008-06-30T09:03:29Z" uid="9581" user="Lobelt" changeset="341887">
    <nd ref="98697573"/>
    <nd ref="98697574"/>
    <nd ref="98697575"/>
    <nd ref="98697576"/>
    <nd ref="98697577"/>
    <nd ref="98697578"/>
    <nd ref="98697580"/>
    <nd ref="98697581"/>
    <nd ref="98697582"/>
    <nd ref="98697583"/>
    <tag k="created_by" v="Potlatch 0.9c"/>
    <tag k="highway" v="secondary"/>
    <tag k="name" v="Robert-Koch-StraÃŸe"/>
    <tag k="ref" v="S131"/>
  </way>
</osm>
