<?xml version='1.0' encoding='UTF-8'?>
<osm version="0.6" generator="libosmium/2.20.0">
  <way id="23584000" version="3" timestamp="2008-10-28T13:05:02Z" uid="9581" user="Lobelt" changeset="612164">
    <nd ref="103714118"/>
    <nd ref="103714120"/>
    <nd ref="308226889"/>
    <nd ref="308226857"/>
    <nd ref="103714121"/>
    <nd ref="103714123"/>
    <nd ref="103714124"/>
    <nd ref="103714125"/>
    <nd ref="103714126"/>
    <nd ref="103714127"/>
    <nd ref="103714128"/>
    <nd ref="103714129"/>
    <nd ref="103714131"/>
    <nd ref="98697573"/>
    <tag k="created_by" v="Potlatch 0.8a"/>
    <tag k="highway" v="secondary"/>
    <tag k="name" v="Ziegeleistraße"/>
    <tag k="ref" v="S131"/>
  </way>
  <way id="23584013" version="4" timestamp="2008-06-30T08:46:29Z" uid="9581" user="Lobelt" changeset="341887">
    <nd ref="98697592"/>
    <nd ref="98697593"/>
    <nd ref="98697594"/>
    <nd ref="103771601"/>
    <nd ref="98697595"/>
    <nd ref="98697596"/>
    <nd ref="98697597"/>
    <nd ref="274863762"/>
    <nd ref="98697598"/>
    <nd ref="98697599"/>
    <nd ref="98697600"/>
    <tag k="created_by" v="Potlatch 0.8a"/>
    <tag k="highway" v="secondary"/>
    <tag k="ref" v="S131"/>
  </way>
  <way id="23584030" version="2" timestamp="2008-07-03T23:37:57Z" uid="6975" user="ulfl" changeset="386611">
    <nd ref="255389783"/>
    <nd ref="255389784"/>
    <nd ref="255389785"/>
    <nd ref="255389786"/>
    <nd ref="255389783"/>
    <tag k="amenity" v="bus_station"/>
    <tag k="area" v="yes"/>
    <tag k="name" v="Autogara Obor"/>
  </way>
  <way id="23584031" version="3" timestamp="2008-06-30T08:46:29Z" uid="9581" user="Lobelt" changeset="341887">
    <nd ref="98697600"/>
    <nd ref="274864009"/>
    <nd ref="98697601"/>
    <nd ref="36599783"/>
    <tag k="created_by" v="Potlatch 0.8a"/>
    <tag k="highway" v="secondary"/>
    <tag k="name" v="Rietschener Straße"/>
    <tag k="ref" v="S131"/>
  </way>
  <way id="23584031" version="4" timestamp="2008-06-30T09:06:00Z" uid="9581" user="Lobelt" changeset="341887">
    <nd ref="98697600"/>
    <nd ref="274864009"/>
    <tag k="created_by" v="Potlatch 0.9c"/>
    <tag k="highway" v="secondary"/>
    <tag k="name" v="Rietschener Straße"/>
    <tag k="ref" v="S131"/>
  </way>
  <way id="23584040" version="2" timestamp="2008-07-06T21:01:39Z" uid="6975" user="ulfl" changeset="415781">
    <nd ref="255389926"/>
    <nd ref="255389927"/>
    <nd ref="255389928"/>
    <nd ref="255389929"/>
    <nd ref="255389926"/>
    <tag k="building" v="yes"/>
    <tag k="name" v="ex Palazzo Lancia"/>
  </way>
  <way id="23584083" version="2" timestamp="2008-08-18T08:55:03Z" uid="9581" user="Lobelt" changeset="305395">
    <nd ref="85788143"/>
    <nd ref="85788144"/>
    <nd ref="85788145"/>
    <nd ref="85788147"/>
    <nd ref="85788149"/>
    <nd ref="85788150"/>
    <nd ref="85788151"/>
    <nd ref="152441665"/>
    <nd ref="152441669"/>
    <nd ref="152441674"/>
    <nd ref="289023828"/>
    <nd ref="152441678"/>
    <nd ref="152441682"/>
    <nd ref="152441688"/>
    <nd ref="152441693"/>
    <nd ref="152441700"/>
    <nd ref="152441703"/>
    <nd ref="152441706"/>
    <nd ref="152441712"/>
    <nd ref="152441717"/>
    <nd ref="152441723"/>
    <nd ref="152441728"/>
    <nd ref="152441733"/>
    <nd ref="152441738"/>
    <nd ref="152441745"/>
    <nd ref="152441748"/>
    <nd ref="152441752"/>
    <nd ref="152441757"/>
    <nd ref="152441761"/>
    <nd ref="152441768"/>
    <nd ref="152441775"/>
    <nd ref="152441780"/>
    <nd ref="152441004"/>
    <tag k="created_by" v="Potlatch 0.8a"/>
    <tag k="highway" v="secondary"/>
    <tag k="ref" v="L61"/>
  </way>
  <way id="23584083" version="4" timestamp="2010-01-30T18:32:27Z" uid="9581" user="Lobelt" changeset="3753568">
    <nd ref="85788143"/>
    <nd ref="623494481"/>
    <tag k="highway" v="secondary"/>
    <tag k="ref" v="L 61"/>
  </way>
  <way id="23584084" version="4" timestamp="2010-01-30T18:32:26Z" uid="9581" user="Lobelt" changeset="3753568">
    <nd ref="85788140"/>
    <nd ref="85788141"/>
    <nd ref="246223414"/>
    <nd ref="174738193"/>
    <nd ref="623494495"/>
    <nd ref="85788142"/>
    <nd ref="623494493"/>
    <nd ref="85788143"/>
    <tag k="highway" v="secondary"/>
    <tag k="name" v="Saadower Hauptstraße"/>
    <tag k="ref" v="L 61"/>
  </way>
  <way id="23584116" version="3" timestamp="2009-10-14T00:02:36Z" uid="36809" user="pfoten_weg_!_" changeset="2841284">
    <nd ref="255390499"/>
    <nd ref="255390500"/>
    <nd ref="255390501"/>
    <nd ref="255390502"/>
    <nd ref="255390499"/>
    <tag k="amenity" v="parking"/>
    <tag k="area" v="yes"/>
  </way>
  <way id="23584123" version="3" timestamp="2009-10-14T00:02:33Z" uid="36809" user="pfoten_weg_!_" changeset="2841284">
    <nd ref="255390536"/>
    <nd ref="255390563"/>
    <nd ref="255391089"/>
    <nd ref="255390562"/>
    <tag k="highway" v="service"/>
  </way>
  <way id="23584154" version="4" timestamp="2009-10-14T00:04:10Z" uid="36809" user="pfoten_weg_!_" changeset="2841284">
    <nd ref="244061032"/>
    <nd ref="244061031"/>
    <nd ref="244061034"/>
    <nd ref="255390677"/>
    <nd ref="244061055"/>
    <nd ref="244061058"/>
    <nd ref="244061052"/>
    <nd ref="244061032"/>
    <tag k="area" v="yes"/>
    <tag k="highway" v="pedestrian"/>
    <tag k="merano:way_id" v="532"/>
    <tag k="name" v="Sandplatz / Piazza Della Rena"/>
    <tag k="name:de" v="Sandplatz"/>
    <tag k="name:it" v="Piazza Della Rena"/>
  </way>
  <way id="23584218" version="2" timestamp="2009-10-14T00:03:12Z" uid="36809" user="pfoten_weg_!_" changeset="2841284">
    <nd ref="255391088"/>
    <nd ref="255390536"/>
    <tag k="highway" v="service"/>
    <tag k="oneway" v="yes"/>
  </way>
  <way id="23584219" version="2" timestamp="2009-10-14T00:02:36Z" uid="36809" user="pfoten_weg_!_" changeset="2841284">
    <nd ref="255390536"/>
    <nd ref="255390537"/>
    <tag k="highway" v="service"/>
  </way>
  <way id="23584220" version="2" timestamp="2009-10-14T00:03:11Z" uid="36809" user="pfoten_weg_!_" changeset="2841284">
    <nd ref="255391089"/>
    <nd ref="255391090"/>
    <tag k="highway" v="service"/>
    <tag k="oneway" v="yes"/>
  </way>
  <way id="23584315" version="7" timestamp="2010-07-09T08:04:43Z" uid="74617" user="JohnSmith" changeset="5171412">
    <nd ref="255391219"/>
    <nd ref="255391279"/>
    <nd ref="255391217"/>
    <nd ref="454334922"/>
    <nd ref="255391216"/>
    <nd ref="255391215"/>
    <nd ref="255391214"/>
    <nd ref="255391213"/>
    <nd ref="262086719"/>
    <tag k="highway" v="residential"/>
    <tag k="maxspeed" v="50"/>
    <tag k="maxspeed:source" v="default residential speed limit in Australia"/>
    <tag k="name" v="Selway Road"/>
  </way>
  <way id="23584316" version="2" timestamp="2010-07-09T08:06:14Z" uid="74617" user="JohnSmith" changeset="5171412">
    <nd ref="255391227"/>
    <nd ref="255391211"/>
    <tag k="highway" v="residential"/>
    <tag k="maxspeed" v="50"/>
    <tag k="maxspeed:source" v="default residential speed limit in Australia"/>
    <tag k="name" v="Selway Place"/>
  </way>
  <way id="23584319" version="12" timestamp="2010-04-19T07:36:11Z" uid="4467" user="Rosscoe" changeset="4465456">
    <nd ref="255391217"/>
    <nd ref="255391235"/>
    <nd ref="255391278"/>
    <nd ref="255391240"/>
    <nd ref="255391243"/>
    <nd ref="255391245"/>
    <nd ref="255391246"/>
    <nd ref="255391247"/>
    <nd ref="255391227"/>
    <nd ref="255391248"/>
    <nd ref="255391306"/>
    <nd ref="701728428"/>
    <tag k="highway" v="residential"/>
    <tag k="name" v="Bateman Road"/>
  </way>
  <way id="23584319" version="13" timestamp="2010-07-09T08:01:30Z" uid="74617" user="JohnSmith" changeset="5171412">
    <nd ref="255391217"/>
    <nd ref="255391235"/>
    <nd ref="255391278"/>
    <nd ref="255391240"/>
    <nd ref="255391243"/>
    <nd ref="255391245"/>
    <nd ref="255391246"/>
    <nd ref="255391247"/>
    <nd ref="255391227"/>
    <nd ref="255391248"/>
    <nd ref="255391306"/>
    <nd ref="701728428"/>
    <tag k="highway" v="residential"/>
    <tag k="maxspeed" v="50"/>
    <tag k="maxspeed:source" v="default residential speed limit in Australia"/>
    <tag k="name" v="Bateman Road"/>
  </way>
  <way id="23584325" version="2" timestamp="2010-07-09T07:59:24Z" uid="74617" user="JohnSmith" changeset="5171412">
    <nd ref="255391247"/>
    <nd ref="255391254"/>
    <nd ref="255391261"/>
    <nd ref="255391262"/>
    <nd ref="255391263"/>
    <nd ref="255391264"/>
    <tag k="highway" v="residential"/>
    <tag k="maxspeed" v="50"/>
    <tag k="maxspeed:source" v="default residential speed limit in Australia"/>
    <tag k="name" v="Adamson Road"/>
  </way>
  <way id="23584329" version="3" timestamp="2010-07-09T08:07:34Z" uid="74617" user="JohnSmith" changeset="5171412">
    <nd ref="255391262"/>
    <nd ref="255391265"/>
    <nd ref="255391266"/>
    <nd ref="255391275"/>
    <nd ref="255391278"/>
    <tag k="highway" v="residential"/>
    <tag k="maxspeed" v="50"/>
    <tag k="maxspeed:source" v="default residential speed limit in Australia"/>
    <tag k="name" v="Durant Way"/>
  </way>
  <way id="23584330" version="2" timestamp="2010-07-09T07:56:48Z" uid="74617" user="JohnSmith" changeset="5171412">
    <nd ref="255391279"/>
    <nd ref="255391280"/>
    <nd ref="255391281"/>
    <nd ref="255391286"/>
    <tag k="highway" v="residential"/>
    <tag k="maxspeed" v="50"/>
    <tag k="maxspeed:source" v="default residential speed limit in Australia"/>
    <tag k="name" v="Cambey Way"/>
  </way>
  <way id="23584331" version="2" timestamp="2010-07-09T07:59:54Z" uid="74617" user="JohnSmith" changeset="5171412">
    <nd ref="255391293"/>
    <nd ref="255391294"/>
    <nd ref="255391295"/>
    <nd ref="255391296"/>
    <nd ref="255391261"/>
    <tag k="highway" v="residential"/>
    <tag k="maxspeed" v="50"/>
    <tag k="maxspeed:source" v="default residential speed limit in Australia"/>
    <tag k="name" v="Rivett Way"/>
  </way>
  <way id="23584333" version="21" timestamp="2010-04-19T07:36:12Z" uid="4467" user="Rosscoe" changeset="4465456">
    <nd ref="255391340"/>
    <nd ref="255391339"/>
    <nd ref="255391219"/>
    <nd ref="255391327"/>
    <nd ref="255391286"/>
    <nd ref="255391301"/>
    <nd ref="290337283"/>
    <nd ref="255391264"/>
    <nd ref="290338721"/>
    <nd ref="255391293"/>
    <nd ref="290341156"/>
    <nd ref="255391297"/>
    <nd ref="255391302"/>
    <nd ref="701728416"/>
    <tag k="highway" v="tertiary"/>
    <tag k="name" v="Moolyeen Road"/>
  </way>
  <way id="23584334" version="2" timestamp="2010-07-09T07:54:11Z" uid="74617" user="JohnSmith" changeset="5171412">
    <nd ref="255391254"/>
    <nd ref="255391305"/>
    <nd ref="255391306"/>
    <tag k="highway" v="residential"/>
    <tag k="maxspeed" v="50"/>
    <tag k="maxspeed:source" v="default residential speed limit in Australia"/>
    <tag k="name" v="Reddington Way"/>
  </way>
  <way id="23584336" version="5" timestamp="2010-07-09T17:25:07Z" uid="74617" user="JohnSmith" changeset="5175333">
    <nd ref="255099772"/>
    <nd ref="255391702"/>
    <nd ref="255391343"/>
    <nd ref="255391344"/>
    <nd ref="255391345"/>
    <nd ref="255391346"/>
    <nd ref="255391350"/>
    <nd ref="255391351"/>
    <nd ref="255391352"/>
    <nd ref="255391353"/>
    <nd ref="255391354"/>
    <nd ref="255391355"/>
    <nd ref="297658569"/>
    <tag k="highway" v="residential"/>
    <tag k="maxspeed" v="50"/>
    <tag k="maxspeed:source" v="default residential speed limit in Australia"/>
    <tag k="name" v="Parkside Avenue"/>
  </way>
  <way id="23584337" version="2" timestamp="2010-07-09T17:26:41Z" uid="74617" user="JohnSmith" changeset="5175333">
    <nd ref="255391343"/>
    <nd ref="255391536"/>
    <nd ref="255391579"/>
    <nd ref="255391250"/>
    <nd ref="255391589"/>
    <tag k="highway" v="residential"/>
    <tag k="maxspeed" v="50"/>
    <tag k="maxspeed:source" v="default residential speed limit in Australia"/>
    <tag k="name" v="Regent Avenue"/>
  </way>
  <way id="23584338" version="2" timestamp="2010-07-09T17:28:14Z" uid="74617" user="JohnSmith" changeset="5175333">
    <nd ref="255391346"/>
    <nd ref="255391601"/>
    <nd ref="255391610"/>
    <nd ref="255391621"/>
    <nd ref="255391631"/>
    <tag k="highway" v="residential"/>
    <tag k="maxspeed" v="50"/>
    <tag k="maxspeed:source" v="default residential speed limit in Australia"/>
    <tag k="name" v="Brian Avenue"/>
  </way>
  <way id="23584339" version="2" timestamp="2010-07-09T17:21:40Z" uid="74617" user="JohnSmith" changeset="5175333">
    <nd ref="255391350"/>
    <nd ref="255391649"/>
    <nd ref="255391657"/>
    <nd ref="255391658"/>
    <tag k="highway" v="residential"/>
    <tag k="maxspeed" v="50"/>
    <tag k="maxspeed:source" v="default residential speed limit in Australia"/>
    <tag k="name" v="Shirley Avenue"/>
  </way>
  <way id="23584340" version="10" timestamp="2010-04-19T07:56:44Z" uid="4467" user="Rosscoe" changeset="4465588">
    <nd ref="255391660"/>
    <nd ref="255391662"/>
    <nd ref="255391663"/>
    <nd ref="297658638"/>
    <nd ref="255391664"/>
    <nd ref="255391353"/>
    <nd ref="255391665"/>
    <nd ref="701732186"/>
    <tag k="highway" v="residential"/>
    <tag k="name" v="Canning Avenue"/>
  </way>
  <way id="23584340" version="11" timestamp="2010-07-09T17:23:49Z" uid="74617" user="JohnSmith" changeset="5175333">
    <nd ref="255391660"/>
    <nd ref="255391662"/>
    <nd ref="255391663"/>
    <nd ref="297658638"/>
    <nd ref="255391664"/>
    <nd ref="255391353"/>
    <nd ref="255391665"/>
    <nd ref="701732186"/>
    <tag k="highway" v="residential"/>
    <tag k="maxspeed" v="50"/>
    <tag k="maxspeed:source" v="default residential speed limit in Australia"/>
    <tag k="name" v="Canning Avenue"/>
  </way>
  <way id="23584341" version="2" timestamp="2010-07-09T17:25:33Z" uid="74617" user="JohnSmith" changeset="5175333">
    <nd ref="255391386"/>
    <nd ref="255391674"/>
    <nd ref="255391345"/>
    <tag k="highway" v="residential"/>
    <tag k="maxspeed" v="50"/>
    <tag k="maxspeed:source" v="default residential speed limit in Australia"/>
    <tag k="name" v="Fry Street"/>
  </way>
  <way id="23584342" version="3" timestamp="2010-07-09T17:27:05Z" uid="74617" user="JohnSmith" changeset="5175333">
    <nd ref="255391674"/>
    <nd ref="255391681"/>
    <nd ref="255391683"/>
    <nd ref="255391684"/>
    <nd ref="255391685"/>
    <nd ref="255391665"/>
    <tag k="highway" v="residential"/>
    <tag k="maxspeed" v="50"/>
    <tag k="maxspeed:source" v="default residential speed limit in Australia"/>
    <tag k="name" v="Lakeside Terrace"/>
  </way>
  <way id="23584343" version="2" timestamp="2010-07-09T17:19:53Z" uid="74617" user="JohnSmith" changeset="5175333">
    <nd ref="255391351"/>
    <nd ref="255391686"/>
    <nd ref="255391687"/>
    <nd ref="255391689"/>
    <tag k="highway" v="residential"/>
    <tag k="maxspeed" v="50"/>
    <tag k="maxspeed:source" v="default residential speed limit in Australia"/>
    <tag k="name" v="Hesford Avenue"/>
  </way>
  <way id="23584345" version="7" timestamp="2010-07-09T17:20:14Z" uid="74617" user="JohnSmith" changeset="5175333">
    <nd ref="296059322"/>
    <nd ref="255391690"/>
    <nd ref="255391689"/>
    <nd ref="293153729"/>
    <tag k="highway" v="residential"/>
    <tag k="maxspeed" v="50"/>
    <tag k="maxspeed:source" v="default residential speed limit in Australia"/>
    <tag k="name" v="Curruthers Road"/>
  </way>
  <way id="23584421" version="3" timestamp="2009-10-08T22:10:15Z" uid="179968" user="Ich_hasse_doitsche_OSM-Korinthenkacker" changeset="2788120">
    <nd ref="255080321"/>
    <nd ref="255392341"/>
    <tag k="highway" v="residential"/>
    <tag k="name" v="Heinrich-Heine-Straße"/>
  </way>
  <way id="23584423" version="2" timestamp="2008-07-05T11:24:31Z" uid="6975" user="ulfl" changeset="398437">
    <nd ref="255392345"/>
    <nd ref="255392346"/>
    <nd ref="255392347"/>
    <nd ref="255392348"/>
    <nd ref="255392345"/>
    <tag k="leisure" v="miniature_golf"/>
  </way>
  <way id="23584533" version="1" timestamp="2008-04-02T14:34:41Z" uid="30632" user="antblant" changeset="12999">
    <nd ref="254069682"/>
    <nd ref="254067028"/>
    <nd ref="255393539"/>
    <tag k="created_by" v="Potlatch 0.8a"/>
    <tag k="highway" v="residential"/>
    <tag k="name" v="Michała Drzymały"/>
  </way>
  <way id="23584533" version="2" timestamp="2008-04-19T20:51:09Z" uid="30632" user="antblant" changeset="198306">
    <nd ref="254069682"/>
    <nd ref="254067028"/>
    <nd ref="255393539"/>
    <tag k="created_by" v="Potlatch 0.8a"/>
    <tag k="highway" v="residential"/>
    <tag k="name" v="Michała Drzymały"/>
  </way>
  <way id="23584533" version="5" timestamp="2009-11-03T01:40:45Z" uid="36809" user="pfoten_weg_!_" changeset="3021530">
    <nd ref="254069682"/>
    <nd ref="254067028"/>
    <nd ref="255393539"/>
    <tag k="highway" v="residential"/>
    <tag k="name" v="Michała Drzymały"/>
  </way>
  <way id="23584551" version="1" timestamp="2008-04-02T14:35:29Z" uid="30632" user="antblant" changeset="12999">
    <nd ref="254067059"/>
    <nd ref="255393823"/>
    <tag k="created_by" v="Potlatch 0.8a"/>
  </way>
  <way id="23584551" version="2" timestamp="2008-04-02T14:35:50Z" uid="30632" user="antblant" changeset="12999">
    <nd ref="254067059"/>
    <nd ref="255393823"/>
    <tag k="created_by" v="Potlatch 0.8a"/>
    <tag k="highway" v="residential"/>
    <tag k="name" v="Michała Drzymały"/>
  </way>
  <way id="23584551" version="3" timestamp="2008-04-19T20:50:51Z" uid="30632" user="antblant" changeset="198306">
    <nd ref="254067059"/>
    <nd ref="255393823"/>
    <tag k="created_by" v="Potlatch 0.8a"/>
    <tag k="highway" v="residential"/>
    <tag k="name" v="Michała Drzymały"/>
  </way>
  <way id="23584551" version="4" timestamp="2009-11-03T01:45:13Z" uid="36809" user="pfoten_weg_!_" changeset="3021530">
    <nd ref="254067059"/>
    <nd ref="255393823"/>
    <tag k="highway" v="residential"/>
    <tag k="name" v="Michała Drzymały"/>
  </way>
  <way id="23584814" version="4" timestamp="2008-06-24T15:57:29Z" uid="9581" user="Lobelt" changeset="284309">
    <nd ref="33682858"/>
    <nd ref="33682859"/>
    <nd ref="33682860"/>
    <nd ref="33682861"/>
    <nd ref="33682862"/>
    <nd ref="33682863"/>
    <tag k="created_by" v="JOSM"/>
    <tag k="highway" v="tertiary"/>
    <tag k="rcn_ref" v="Saale"/>
  </way>
  <way id="23584814" version="5" timestamp="2008-07-01T11:37:30Z" uid="9581" user="Lobelt" changeset="354745">
    <nd ref="33682858"/>
    <nd ref="33682859"/>
    <nd ref="33682860"/>
    <nd ref="33682861"/>
    <nd ref="33682862"/>
    <nd ref="33682863"/>
    <tag k="created_by" v="Potlatch 0.9c"/>
    <tag k="highway" v="tertiary"/>
  </way>
  <way id="23584815" version="2" timestamp="2008-06-24T15:57:27Z" uid="9581" user="Lobelt" changeset="284309">
    <nd ref="33682863"/>
    <nd ref="33682864"/>
    <tag k="created_by" v="JOSM"/>
    <tag k="highway" v="secondary"/>
  </way>
  <way id="23584815" version="3" timestamp="2009-09-01T17:02:08Z" uid="9581" user="Lobelt" changeset="2339964">
    <nd ref="33682863"/>
    <nd ref="480254321"/>
    <nd ref="33682864"/>
    <tag k="created_by" v="JOSM"/>
    <tag k="highway" v="secondary"/>
  </way>
  <way id="23584906" version="11" timestamp="2009-03-03T04:43:24Z" uid="68769" user="david lynch" changeset="728805"/>
  <way id="23584915" version="12" timestamp="2009-03-03T04:43:19Z" uid="68769" user="david lynch" changeset="728805">
    <nd ref="245809215"/>
    <nd ref="258047962"/>
    <tag k="created_by" v="Potlatch 0.10b"/>
    <tag k="highway" v="primary"/>
    <tag k="ref" v="A721"/>
  </way>
  <way id="23584920" version="4" timestamp="2009-03-03T04:43:13Z" uid="68769" user="david lynch" changeset="728805">
    <nd ref="255398059"/>
    <nd ref="255398072"/>
    <nd ref="255398060"/>
    <nd ref="255398061"/>
    <nd ref="255398062"/>
    <nd ref="255398069"/>
    <nd ref="255398063"/>
    <nd ref="255398064"/>
    <nd ref="255398065"/>
    <nd ref="255398161"/>
    <nd ref="255398059"/>
    <tag k="created_by" v="Potlatch 0.8a"/>
    <tag k="highway" v="primary"/>
    <tag k="junction" v="roundabout"/>
    <tag k="oneway" v="yes"/>
  </way>
  <way id="23584925" version="9" timestamp="2009-03-03T04:43:18Z" uid="68769" user="david lynch" changeset="728805">
    <nd ref="255398161"/>
    <nd ref="255398160"/>
    <nd ref="255398159"/>
    <nd ref="255398158"/>
    <nd ref="255398157"/>
    <nd ref="255398156"/>
    <nd ref="255398155"/>
    <nd ref="355082465"/>
    <nd ref="255398154"/>
    <nd ref="255398153"/>
    <nd ref="255398152"/>
    <nd ref="282292046"/>
    <nd ref="291729405"/>
    <tag k="created_by" v="Potlatch 0.10b"/>
    <tag k="highway" v="primary"/>
    <tag k="name" v="Motherwell Road"/>
    <tag k="oneway" v="yes"/>
    <tag k="ref" v="A721"/>
  </way>
  <way id="23584948" version="4" timestamp="2008-07-05T23:21:21Z" uid="6975" user="ulfl" changeset="404092">
    <nd ref="33116451"/>
    <nd ref="33116452"/>
    <tag k="bridge" v="yes"/>
    <tag k="highway" v="primary"/>
    <tag k="junction" v="roundabout"/>
    <tag k="layer" v="1"/>
    <tag k="name" v="Preston Road"/>
    <tag k="oneway" v="true"/>
    <tag k="ref" v="A6"/>
  </way>
  <way id="23584959" version="3" timestamp="2008-07-05T23:21:28Z" uid="6975" user="ulfl" changeset="404092">
    <nd ref="33116450"/>
    <nd ref="33116414"/>
    <tag k="bridge" v="yes"/>
    <tag k="highway" v="primary"/>
    <tag k="junction" v="roundabout"/>
    <tag k="layer" v="1"/>
    <tag k="name" v="Preston Road"/>
    <tag k="oneway" v="true"/>
    <tag k="ref" v="A6"/>
  </way>
</osm>
