<?xml version='1.0' encoding='UTF-8'?>
<osm version="0.6" generator="libosmium/2.20.0">
  <way id="23622000" version="1" timestamp="2008-04-05T15:18:53Z" uid="30632" user="antblant" changeset="56221">
    <nd ref="255883037"/>
    <nd ref="255883038"/>
    <nd ref="255883039"/>
    <nd ref="255883049"/>
    <nd ref="255883048"/>
    <nd ref="255883051"/>
    <nd ref="255883050"/>
    <nd ref="255883045"/>
    <nd ref="255883044"/>
    <nd ref="255883047"/>
    <nd ref="255883046"/>
    <tag k="created_by" v="JOSM"/>
    <tag k="highway" v="residential"/>
    <tag k="name" v="Kolejowa"/>
    <tag k="source" v="UMP-PL, ./UMP-Szczecin/src/PLOTY.ulice.txt"/>
  </way>
  <way id="23622000" version="2" timestamp="2009-11-03T13:40:09Z" uid="36809" user="pfoten_weg_!_" changeset="3023908">
    <nd ref="255883037"/>
    <nd ref="255883038"/>
    <nd ref="255883039"/>
    <nd ref="255883049"/>
    <nd ref="255883048"/>
    <nd ref="255883051"/>
    <nd ref="255883050"/>
    <nd ref="255883045"/>
    <nd ref="255883044"/>
    <nd ref="255883047"/>
    <nd ref="255883046"/>
    <tag k="highway" v="residential"/>
    <tag k="name" v="Kolejowa"/>
    <tag k="source" v="UMP-PL, ./UMP-Szczecin/src/PLOTY.ulice.txt"/>
  </way>
  <way id="23622001" version="1" timestamp="2008-04-05T15:18:53Z" uid="30632" user="antblant" changeset="56221">
    <nd ref="255883099"/>
    <nd ref="255883098"/>
    <nd ref="255883116"/>
    <nd ref="255883117"/>
    <nd ref="255883118"/>
    <nd ref="255883066"/>
    <nd ref="255883073"/>
    <tag k="created_by" v="JOSM"/>
    <tag k="highway" v="secondary"/>
    <tag k="name" v="Przodowników Pracy"/>
    <tag k="ref" v="109"/>
    <tag k="source" v="UMP-PL, ./UMP-Szczecin/src/PLOTY.ulice.txt"/>
  </way>
  <way id="23622001" version="2" timestamp="2009-11-03T13:41:47Z" uid="36809" user="pfoten_weg_!_" changeset="3023908">
    <nd ref="255883099"/>
    <nd ref="255883098"/>
    <nd ref="255883116"/>
    <nd ref="255883117"/>
    <nd ref="255883118"/>
    <nd ref="255883066"/>
    <nd ref="255883073"/>
    <tag k="highway" v="secondary"/>
    <tag k="name" v="Przodowników Pracy"/>
    <tag k="ref" v="109"/>
    <tag k="source" v="UMP-PL, ./UMP-Szczecin/src/PLOTY.ulice.txt"/>
  </way>
  <way id="23622002" version="1" timestamp="2008-04-05T15:18:53Z" uid="30632" user="antblant" changeset="56221">
    <nd ref="255883073"/>
    <nd ref="255883070"/>
    <nd ref="255883071"/>
    <nd ref="255883068"/>
    <nd ref="255883069"/>
    <nd ref="255883067"/>
    <nd ref="255882977"/>
    <tag k="created_by" v="JOSM"/>
    <tag k="highway" v="residential"/>
    <tag k="name" v="Jedności Narodowej"/>
    <tag k="source" v="UMP-PL, ./UMP-Szczecin/src/PLOTY.ulice.txt"/>
  </way>
  <way id="23622002" version="2" timestamp="2009-11-03T13:41:01Z" uid="36809" user="pfoten_weg_!_" changeset="3023908">
    <nd ref="255883073"/>
    <nd ref="255883070"/>
    <nd ref="255883071"/>
    <nd ref="255883068"/>
    <nd ref="255883069"/>
    <nd ref="255883067"/>
    <nd ref="255882977"/>
    <tag k="highway" v="residential"/>
    <tag k="name" v="Jedności Narodowej"/>
    <tag k="source" v="UMP-PL, ./UMP-Szczecin/src/PLOTY.ulice.txt"/>
  </way>
  <way id="23622003" version="1" timestamp="2008-04-05T15:18:53Z" uid="30632" user="antblant" changeset="56221">
    <nd ref="255882977"/>
    <nd ref="255882984"/>
    <nd ref="255882983"/>
    <nd ref="255882987"/>
    <nd ref="255882988"/>
    <nd ref="255882985"/>
    <nd ref="255882986"/>
    <tag k="created_by" v="JOSM"/>
    <tag k="highway" v="residential"/>
    <tag k="name" v="Tadeusza Kościuszki"/>
    <tag k="source" v="UMP-PL, ./UMP-Szczecin/src/PLOTY.ulice.txt"/>
  </way>
  <way id="23622003" version="2" timestamp="2009-11-03T13:41:02Z" uid="36809" user="pfoten_weg_!_" changeset="3023908">
    <nd ref="255882977"/>
    <nd ref="255882984"/>
    <nd ref="255882983"/>
    <nd ref="255882987"/>
    <nd ref="255882988"/>
    <nd ref="255882985"/>
    <nd ref="255882986"/>
    <tag k="highway" v="residential"/>
    <tag k="name" v="Tadeusza Kościuszki"/>
    <tag k="source" v="UMP-PL, ./UMP-Szczecin/src/PLOTY.ulice.txt"/>
  </way>
  <way id="23622004" version="1" timestamp="2008-04-05T15:18:54Z" uid="30632" user="antblant" changeset="56221">
    <nd ref="255883004"/>
    <nd ref="255883003"/>
    <nd ref="255882997"/>
    <tag k="created_by" v="JOSM"/>
    <tag k="highway" v="residential"/>
    <tag k="name" v="Fryderyka Chopina"/>
    <tag k="source" v="UMP-PL, ./UMP-Szczecin/src/PLOTY.ulice.txt"/>
  </way>
  <way id="23622004" version="2" timestamp="2009-11-03T13:40:11Z" uid="36809" user="pfoten_weg_!_" changeset="3023908">
    <nd ref="255883004"/>
    <nd ref="255883003"/>
    <nd ref="255882997"/>
    <tag k="highway" v="residential"/>
    <tag k="name" v="Fryderyka Chopina"/>
    <tag k="source" v="UMP-PL, ./UMP-Szczecin/src/PLOTY.ulice.txt"/>
  </way>
  <way id="23622005" version="1" timestamp="2008-04-05T15:18:54Z" uid="30632" user="antblant" changeset="56221">
    <nd ref="255883121"/>
    <nd ref="255883135"/>
    <nd ref="255883134"/>
    <tag k="created_by" v="JOSM"/>
    <tag k="highway" v="residential"/>
    <tag k="name" v="Spokojna"/>
    <tag k="source" v="UMP-PL, ./UMP-Szczecin/src/PLOTY.ulice.txt"/>
  </way>
  <way id="23622005" version="2" timestamp="2009-11-03T13:40:52Z" uid="36809" user="pfoten_weg_!_" changeset="3023908">
    <nd ref="255883121"/>
    <nd ref="255883135"/>
    <nd ref="255883134"/>
    <tag k="highway" v="residential"/>
    <tag k="name" v="Spokojna"/>
    <tag k="source" v="UMP-PL, ./UMP-Szczecin/src/PLOTY.ulice.txt"/>
  </way>
  <way id="23622006" version="1" timestamp="2008-04-05T15:18:54Z" uid="30632" user="antblant" changeset="56221">
    <nd ref="255883158"/>
    <nd ref="255883185"/>
    <tag k="created_by" v="JOSM"/>
    <tag k="highway" v="residential"/>
    <tag k="name" v="Lipowa"/>
    <tag k="source" v="UMP-PL, ./UMP-Szczecin/src/PLOTY.ulice.txt"/>
  </way>
  <way id="23622006" version="2" timestamp="2009-11-03T13:40:11Z" uid="36809" user="pfoten_weg_!_" changeset="3023908">
    <nd ref="255883158"/>
    <nd ref="255883185"/>
    <tag k="highway" v="residential"/>
    <tag k="name" v="Lipowa"/>
    <tag k="source" v="UMP-PL, ./UMP-Szczecin/src/PLOTY.ulice.txt"/>
  </way>
  <way id="23622007" version="1" timestamp="2008-04-05T15:18:54Z" uid="30632" user="antblant" changeset="56221">
    <nd ref="255883037"/>
    <nd ref="255883062"/>
    <nd ref="255883063"/>
    <nd ref="255883060"/>
    <nd ref="255883061"/>
    <nd ref="255883074"/>
    <nd ref="255883075"/>
    <nd ref="255883072"/>
    <tag k="created_by" v="JOSM"/>
    <tag k="highway" v="residential"/>
    <tag k="name" v="Ogrodowa"/>
    <tag k="source" v="UMP-PL, ./UMP-Szczecin/src/PLOTY.ulice.txt"/>
  </way>
  <way id="23622007" version="2" timestamp="2009-11-03T13:41:03Z" uid="36809" user="pfoten_weg_!_" changeset="3023908">
    <nd ref="255883037"/>
    <nd ref="255883062"/>
    <nd ref="255883063"/>
    <nd ref="255883060"/>
    <nd ref="255883061"/>
    <nd ref="255883074"/>
    <nd ref="255883075"/>
    <nd ref="255883072"/>
    <tag k="highway" v="residential"/>
    <tag k="name" v="Ogrodowa"/>
    <tag k="source" v="UMP-PL, ./UMP-Szczecin/src/PLOTY.ulice.txt"/>
  </way>
  <way id="23622008" version="1" timestamp="2008-04-05T15:18:54Z" uid="30632" user="antblant" changeset="56221">
    <nd ref="255883002"/>
    <nd ref="255883000"/>
    <nd ref="255883001"/>
    <tag k="created_by" v="JOSM"/>
    <tag k="highway" v="residential"/>
    <tag k="name" v="Stefana Batorego"/>
    <tag k="source" v="UMP-PL, ./UMP-Szczecin/src/PLOTY.ulice.txt"/>
  </way>
  <way id="23622008" version="2" timestamp="2009-11-03T13:41:55Z" uid="36809" user="pfoten_weg_!_" changeset="3023908">
    <nd ref="255883002"/>
    <nd ref="255883000"/>
    <nd ref="255883001"/>
    <tag k="highway" v="residential"/>
    <tag k="name" v="Stefana Batorego"/>
    <tag k="source" v="UMP-PL, ./UMP-Szczecin/src/PLOTY.ulice.txt"/>
  </way>
  <way id="23622009" version="1" timestamp="2008-04-05T15:18:54Z" uid="30632" user="antblant" changeset="56221">
    <nd ref="255882972"/>
    <nd ref="255882957"/>
    <tag k="created_by" v="JOSM"/>
    <tag k="highway" v="tertiary"/>
    <tag k="source" v="UMP-PL, ./UMP-Szczecin/src/PLOTY.ulice.txt"/>
  </way>
  <way id="23622009" version="2" timestamp="2009-11-03T13:41:40Z" uid="36809" user="pfoten_weg_!_" changeset="3023908">
    <nd ref="255882972"/>
    <nd ref="255882957"/>
    <tag k="highway" v="tertiary"/>
    <tag k="source" v="UMP-PL, ./UMP-Szczecin/src/PLOTY.ulice.txt"/>
  </way>
  <way id="23622010" version="1" timestamp="2008-04-05T15:18:55Z" uid="30632" user="antblant" changeset="56221">
    <nd ref="255883122"/>
    <nd ref="255883133"/>
    <nd ref="255883132"/>
    <nd ref="255883139"/>
    <nd ref="255883113"/>
    <tag k="created_by" v="JOSM"/>
    <tag k="highway" v="residential"/>
    <tag k="name" v="Piaskowa"/>
    <tag k="source" v="UMP-PL, ./UMP-Szczecin/src/PLOTY.ulice.txt"/>
  </way>
  <way id="23622010" version="2" timestamp="2009-11-03T13:40:54Z" uid="36809" user="pfoten_weg_!_" changeset="3023908">
    <nd ref="255883122"/>
    <nd ref="255883133"/>
    <nd ref="255883132"/>
    <nd ref="255883139"/>
    <nd ref="255883113"/>
    <tag k="highway" v="residential"/>
    <tag k="name" v="Piaskowa"/>
    <tag k="source" v="UMP-PL, ./UMP-Szczecin/src/PLOTY.ulice.txt"/>
  </way>
  <way id="23622011" version="1" timestamp="2008-04-05T15:18:55Z" uid="30632" user="antblant" changeset="56221">
    <nd ref="255883157"/>
    <nd ref="255883156"/>
    <nd ref="255883160"/>
    <tag k="created_by" v="JOSM"/>
    <tag k="highway" v="residential"/>
    <tag k="name" v="Klonowa"/>
    <tag k="source" v="UMP-PL, ./UMP-Szczecin/src/PLOTY.ulice.txt"/>
  </way>
  <way id="23622011" version="2" timestamp="2009-11-03T13:40:13Z" uid="36809" user="pfoten_weg_!_" changeset="3023908">
    <nd ref="255883157"/>
    <nd ref="255883156"/>
    <nd ref="255883160"/>
    <tag k="highway" v="residential"/>
    <tag k="name" v="Klonowa"/>
    <tag k="source" v="UMP-PL, ./UMP-Szczecin/src/PLOTY.ulice.txt"/>
  </way>
  <way id="23622012" version="1" timestamp="2008-04-05T15:18:55Z" uid="30632" user="antblant" changeset="56221">
    <nd ref="255882987"/>
    <nd ref="255882991"/>
    <nd ref="255882992"/>
    <tag k="created_by" v="JOSM"/>
    <tag k="highway" v="residential"/>
    <tag k="name" v="Piastowa"/>
    <tag k="source" v="UMP-PL, ./UMP-Szczecin/src/PLOTY.ulice.txt"/>
  </way>
  <way id="23622012" version="2" timestamp="2009-11-03T13:41:05Z" uid="36809" user="pfoten_weg_!_" changeset="3023908">
    <nd ref="255882987"/>
    <nd ref="255882991"/>
    <nd ref="255882992"/>
    <tag k="highway" v="residential"/>
    <tag k="name" v="Piastowa"/>
    <tag k="source" v="UMP-PL, ./UMP-Szczecin/src/PLOTY.ulice.txt"/>
  </way>
  <way id="23622013" version="1" timestamp="2008-04-05T15:18:55Z" uid="30632" user="antblant" changeset="56221">
    <nd ref="255882996"/>
    <nd ref="255882994"/>
    <nd ref="255882938"/>
    <tag k="created_by" v="JOSM"/>
    <tag k="highway" v="residential"/>
    <tag k="name" v="Mikołaja Kopernika"/>
    <tag k="source" v="UMP-PL, ./UMP-Szczecin/src/PLOTY.ulice.txt"/>
  </way>
  <way id="23622013" version="2" timestamp="2009-11-03T13:41:12Z" uid="36809" user="pfoten_weg_!_" changeset="3023908">
    <nd ref="255882996"/>
    <nd ref="255882994"/>
    <nd ref="255882938"/>
    <tag k="highway" v="residential"/>
    <tag k="name" v="Mikołaja Kopernika"/>
    <tag k="source" v="UMP-PL, ./UMP-Szczecin/src/PLOTY.ulice.txt"/>
  </way>
  <way id="23622014" version="1" timestamp="2008-04-05T15:18:55Z" uid="30632" user="antblant" changeset="56221">
    <nd ref="255883067"/>
    <nd ref="255883064"/>
    <nd ref="255883059"/>
    <nd ref="255883057"/>
    <nd ref="255883065"/>
    <nd ref="255883042"/>
    <nd ref="255883037"/>
    <tag k="created_by" v="JOSM"/>
    <tag k="highway" v="residential"/>
    <tag k="name" v="Polna"/>
    <tag k="source" v="UMP-PL, ./UMP-Szczecin/src/PLOTY.ulice.txt"/>
  </way>
  <way id="23622014" version="2" timestamp="2009-11-03T13:41:15Z" uid="36809" user="pfoten_weg_!_" changeset="3023908">
    <nd ref="255883067"/>
    <nd ref="255883064"/>
    <nd ref="255883059"/>
    <nd ref="255883057"/>
    <nd ref="255883065"/>
    <nd ref="255883042"/>
    <nd ref="255883037"/>
    <tag k="highway" v="residential"/>
    <tag k="name" v="Polna"/>
    <tag k="source" v="UMP-PL, ./UMP-Szczecin/src/PLOTY.ulice.txt"/>
  </way>
  <way id="23622015" version="1" timestamp="2008-04-05T15:18:56Z" uid="30632" user="antblant" changeset="56221">
    <nd ref="255883187"/>
    <nd ref="255883181"/>
    <nd ref="255883156"/>
    <nd ref="255883182"/>
    <tag k="created_by" v="JOSM"/>
    <tag k="highway" v="residential"/>
    <tag k="name" v="Topolowa"/>
    <tag k="source" v="UMP-PL, ./UMP-Szczecin/src/PLOTY.ulice.txt"/>
  </way>
  <way id="23622015" version="2" timestamp="2009-11-03T13:40:13Z" uid="36809" user="pfoten_weg_!_" changeset="3023908">
    <nd ref="255883187"/>
    <nd ref="255883181"/>
    <nd ref="255883156"/>
    <nd ref="255883182"/>
    <tag k="highway" v="residential"/>
    <tag k="name" v="Topolowa"/>
    <tag k="source" v="UMP-PL, ./UMP-Szczecin/src/PLOTY.ulice.txt"/>
  </way>
  <way id="23622016" version="1" timestamp="2008-04-05T15:18:56Z" uid="30632" user="antblant" changeset="56221">
    <nd ref="255883108"/>
    <nd ref="255883138"/>
    <nd ref="255883137"/>
    <tag k="created_by" v="JOSM"/>
    <tag k="highway" v="residential"/>
    <tag k="name" v="Marii Skłodowskiej-Curie"/>
    <tag k="source" v="UMP-PL, ./UMP-Szczecin/src/PLOTY.ulice.txt"/>
  </way>
  <way id="23622016" version="2" timestamp="2009-11-03T13:41:00Z" uid="36809" user="pfoten_weg_!_" changeset="3023908">
    <nd ref="255883108"/>
    <nd ref="255883138"/>
    <nd ref="255883137"/>
    <tag k="highway" v="residential"/>
    <tag k="name" v="Marii Skłodowskiej-Curie"/>
    <tag k="source" v="UMP-PL, ./UMP-Szczecin/src/PLOTY.ulice.txt"/>
  </way>
  <way id="23622017" version="1" timestamp="2008-04-05T15:18:56Z" uid="30632" user="antblant" changeset="56221">
    <nd ref="255882975"/>
    <nd ref="255882989"/>
    <nd ref="255882990"/>
    <nd ref="255882995"/>
    <nd ref="255882996"/>
    <nd ref="255882993"/>
    <tag k="created_by" v="JOSM"/>
    <tag k="highway" v="residential"/>
    <tag k="name" v="Jana III Sobieskiego"/>
    <tag k="source" v="UMP-PL, ./UMP-Szczecin/src/PLOTY.ulice.txt"/>
  </way>
  <way id="23622017" version="2" timestamp="2009-11-03T13:41:23Z" uid="36809" user="pfoten_weg_!_" changeset="3023908">
    <nd ref="255882975"/>
    <nd ref="255882989"/>
    <nd ref="255882990"/>
    <nd ref="255882995"/>
    <nd ref="255882996"/>
    <nd ref="255882993"/>
    <tag k="highway" v="residential"/>
    <tag k="name" v="Jana III Sobieskiego"/>
    <tag k="source" v="UMP-PL, ./UMP-Szczecin/src/PLOTY.ulice.txt"/>
  </way>
  <way id="23622018" version="1" timestamp="2008-04-05T15:18:56Z" uid="30632" user="antblant" changeset="56221">
    <nd ref="255882999"/>
    <nd ref="255883000"/>
    <nd ref="255882997"/>
    <nd ref="255882998"/>
    <tag k="created_by" v="JOSM"/>
    <tag k="highway" v="residential"/>
    <tag k="name" v="Jana Matejki"/>
    <tag k="source" v="UMP-PL, ./UMP-Szczecin/src/PLOTY.ulice.txt"/>
  </way>
  <way id="23622018" version="2" timestamp="2009-11-03T13:42:01Z" uid="36809" user="pfoten_weg_!_" changeset="3023908">
    <nd ref="255882999"/>
    <nd ref="255883000"/>
    <nd ref="255882997"/>
    <nd ref="255882998"/>
    <tag k="highway" v="residential"/>
    <tag k="name" v="Jana Matejki"/>
    <tag k="source" v="UMP-PL, ./UMP-Szczecin/src/PLOTY.ulice.txt"/>
  </way>
  <way id="23622019" version="1" timestamp="2008-04-05T15:18:56Z" uid="30632" user="antblant" changeset="56221">
    <nd ref="255883059"/>
    <nd ref="255883058"/>
    <nd ref="255883053"/>
    <nd ref="255883052"/>
    <nd ref="255883055"/>
    <nd ref="255883054"/>
    <nd ref="255883066"/>
    <tag k="created_by" v="JOSM"/>
    <tag k="highway" v="residential"/>
    <tag k="name" v="Słoneczna"/>
    <tag k="source" v="UMP-PL, ./UMP-Szczecin/src/PLOTY.ulice.txt"/>
  </way>
  <way id="23622019" version="2" timestamp="2009-11-03T13:41:08Z" uid="36809" user="pfoten_weg_!_" changeset="3023908">
    <nd ref="255883059"/>
    <nd ref="255883058"/>
    <nd ref="255883053"/>
    <nd ref="255883052"/>
    <nd ref="255883055"/>
    <nd ref="255883054"/>
    <nd ref="255883066"/>
    <tag k="highway" v="residential"/>
    <tag k="name" v="Słoneczna"/>
    <tag k="source" v="UMP-PL, ./UMP-Szczecin/src/PLOTY.ulice.txt"/>
  </way>
  <way id="23622020" version="1" timestamp="2008-04-05T15:18:57Z" uid="30632" user="antblant" changeset="56221">
    <nd ref="255883186"/>
    <nd ref="255883187"/>
    <nd ref="255883188"/>
    <tag k="created_by" v="JOSM"/>
    <tag k="highway" v="residential"/>
    <tag k="name" v="Olchowa"/>
    <tag k="source" v="UMP-PL, ./UMP-Szczecin/src/PLOTY.ulice.txt"/>
  </way>
  <way id="23622020" version="2" timestamp="2009-11-03T13:40:20Z" uid="36809" user="pfoten_weg_!_" changeset="3023908">
    <nd ref="255883186"/>
    <nd ref="255883187"/>
    <nd ref="255883188"/>
    <tag k="highway" v="residential"/>
    <tag k="name" v="Olchowa"/>
    <tag k="source" v="UMP-PL, ./UMP-Szczecin/src/PLOTY.ulice.txt"/>
  </way>
  <way id="23622021" version="1" timestamp="2008-04-05T15:18:57Z" uid="30632" user="antblant" changeset="56221">
    <nd ref="255883133"/>
    <nd ref="255883136"/>
    <nd ref="255883127"/>
    <tag k="created_by" v="JOSM"/>
    <tag k="highway" v="residential"/>
    <tag k="name" v="Łukasiewicza"/>
    <tag k="source" v="UMP-PL, ./UMP-Szczecin/src/PLOTY.ulice.txt"/>
  </way>
  <way id="23622021" version="3" timestamp="2009-11-03T13:40:59Z" uid="36809" user="pfoten_weg_!_" changeset="3023908">
    <nd ref="255883133"/>
    <nd ref="255883136"/>
    <nd ref="255883127"/>
    <tag k="highway" v="residential"/>
    <tag k="name" v="Ignacego Łukasiewicza"/>
    <tag k="source" v="UMP-PL, ./UMP-Szczecin/src/PLOTY.ulice.txt"/>
  </way>
  <way id="23622022" version="1" timestamp="2008-04-05T15:18:57Z" uid="30632" user="antblant" changeset="56221">
    <nd ref="255883126"/>
    <nd ref="255883125"/>
    <nd ref="255883134"/>
    <nd ref="255883124"/>
    <nd ref="255883115"/>
    <tag k="created_by" v="JOSM"/>
    <tag k="highway" v="residential"/>
    <tag k="name" v="Jesionowa"/>
    <tag k="source" v="UMP-PL, ./UMP-Szczecin/src/PLOTY.ulice.txt"/>
  </way>
  <way id="23622022" version="2" timestamp="2009-11-03T13:40:58Z" uid="36809" user="pfoten_weg_!_" changeset="3023908">
    <nd ref="255883126"/>
    <nd ref="255883125"/>
    <nd ref="255883134"/>
    <nd ref="255883124"/>
    <nd ref="255883115"/>
    <tag k="highway" v="residential"/>
    <tag k="name" v="Jesionowa"/>
    <tag k="source" v="UMP-PL, ./UMP-Szczecin/src/PLOTY.ulice.txt"/>
  </way>
  <way id="23622023" version="1" timestamp="2008-04-05T15:18:57Z" uid="30632" user="antblant" changeset="56221">
    <nd ref="255883076"/>
    <nd ref="255883184"/>
    <nd ref="255883177"/>
    <nd ref="255883087"/>
    <tag k="created_by" v="JOSM"/>
    <tag k="highway" v="residential"/>
    <tag k="name" v="Mikołaja Reja"/>
    <tag k="source" v="UMP-PL, ./UMP-Szczecin/src/PLOTY.ulice.txt"/>
  </way>
  <way id="23622023" version="2" timestamp="2009-11-03T13:40:19Z" uid="36809" user="pfoten_weg_!_" changeset="3023908">
    <nd ref="255883076"/>
    <nd ref="255883184"/>
    <nd ref="255883177"/>
    <nd ref="255883087"/>
    <tag k="highway" v="residential"/>
    <tag k="name" v="Mikołaja Reja"/>
    <tag k="source" v="UMP-PL, ./UMP-Szczecin/src/PLOTY.ulice.txt"/>
  </way>
  <way id="23622024" version="1" timestamp="2008-04-05T15:18:57Z" uid="30632" user="antblant" changeset="56221">
    <nd ref="255883089"/>
    <nd ref="255883088"/>
    <nd ref="255883087"/>
    <nd ref="255882998"/>
    <nd ref="255883091"/>
    <nd ref="255883086"/>
    <nd ref="255883085"/>
    <nd ref="255883084"/>
    <tag k="created_by" v="JOSM"/>
    <tag k="highway" v="residential"/>
    <tag k="name" v="Juliusza Słowackiego"/>
    <tag k="source" v="UMP-PL, ./UMP-Szczecin/src/PLOTY.ulice.txt"/>
  </way>
  <way id="23622024" version="2" timestamp="2009-11-03T13:40:18Z" uid="36809" user="pfoten_weg_!_" changeset="3023908">
    <nd ref="255883089"/>
    <nd ref="255883088"/>
    <nd ref="255883087"/>
    <nd ref="255882998"/>
    <nd ref="255883091"/>
    <nd ref="255883086"/>
    <nd ref="255883085"/>
    <nd ref="255883084"/>
    <tag k="highway" v="residential"/>
    <tag k="name" v="Juliusza Słowackiego"/>
    <tag k="source" v="UMP-PL, ./UMP-Szczecin/src/PLOTY.ulice.txt"/>
  </way>
  <way id="23622025" version="1" timestamp="2008-04-05T15:18:58Z" uid="30632" user="antblant" changeset="56221">
    <nd ref="255883007"/>
    <nd ref="255883009"/>
    <tag k="created_by" v="JOSM"/>
    <tag k="highway" v="residential"/>
    <tag k="name" v="Cicha"/>
    <tag k="source" v="UMP-PL, ./UMP-Szczecin/src/PLOTY.ulice.txt"/>
  </way>
  <way id="23622025" version="2" timestamp="2009-11-03T13:40:58Z" uid="36809" user="pfoten_weg_!_" changeset="3023908">
    <nd ref="255883007"/>
    <nd ref="255883009"/>
    <tag k="highway" v="residential"/>
    <tag k="name" v="Cicha"/>
    <tag k="source" v="UMP-PL, ./UMP-Szczecin/src/PLOTY.ulice.txt"/>
  </way>
  <way id="23622026" version="1" timestamp="2008-04-05T15:18:58Z" uid="30632" user="antblant" changeset="56221">
    <nd ref="255882953"/>
    <nd ref="255882955"/>
    <nd ref="255882957"/>
    <nd ref="255882958"/>
    <nd ref="255882959"/>
    <nd ref="255882960"/>
    <nd ref="255882964"/>
    <nd ref="255882966"/>
    <nd ref="255882935"/>
    <nd ref="255882965"/>
    <nd ref="255882968"/>
    <nd ref="255882967"/>
    <nd ref="255882970"/>
    <nd ref="255882969"/>
    <nd ref="255882972"/>
    <nd ref="255882971"/>
    <nd ref="255882974"/>
    <nd ref="255882953"/>
    <tag k="created_by" v="JOSM"/>
    <tag k="highway" v="primary"/>
    <tag k="name" v="I Armii Wojska Polskiego"/>
    <tag k="ref" v="6"/>
    <tag k="source" v="UMP-PL, ./UMP-Szczecin/src/PLOTY.ulice.txt"/>
  </way>
  <way id="23622026" version="2" timestamp="2008-04-05T15:22:43Z" uid="30632" user="antblant" changeset="56221">
    <nd ref="255882953"/>
    <nd ref="255882955"/>
    <nd ref="255882957"/>
    <nd ref="255882958"/>
    <nd ref="255882959"/>
    <nd ref="255882960"/>
    <nd ref="255882964"/>
    <nd ref="255882966"/>
    <nd ref="255882935"/>
    <tag k="created_by" v="Potlatch 0.8a"/>
    <tag k="highway" v="primary"/>
    <tag k="name" v="I Armii Wojska Polskiego"/>
    <tag k="ref" v="6"/>
    <tag k="source" v="UMP-PL, ./UMP-Szczecin/src/PLOTY.ulice.txt"/>
  </way>
  <way id="23622026" version="3" timestamp="2008-04-05T15:22:53Z" uid="30632" user="antblant" changeset="56221">
    <nd ref="255882953"/>
    <nd ref="255882955"/>
    <nd ref="255882957"/>
    <nd ref="255882958"/>
    <nd ref="255882959"/>
    <nd ref="255882960"/>
    <nd ref="255882964"/>
    <nd ref="255882966"/>
    <nd ref="255882935"/>
    <tag k="created_by" v="Potlatch 0.8a"/>
    <tag k="highway" v="primary"/>
    <tag k="name" v="I Armii Wojska Polskiego"/>
    <tag k="oneway" v="yes"/>
    <tag k="ref" v="6"/>
    <tag k="source" v="UMP-PL, ./UMP-Szczecin/src/PLOTY.ulice.txt"/>
  </way>
  <way id="23622026" version="5" timestamp="2009-11-03T13:40:45Z" uid="36809" user="pfoten_weg_!_" changeset="3023908">
    <nd ref="255882953"/>
    <nd ref="255882955"/>
    <nd ref="255882957"/>
    <nd ref="255882958"/>
    <nd ref="255882959"/>
    <nd ref="255882960"/>
    <nd ref="255882964"/>
    <nd ref="255882966"/>
    <nd ref="255882935"/>
    <tag k="highway" v="primary"/>
    <tag k="int_ref" v="E 28"/>
    <tag k="name" v="I Armii Wojska Polskiego"/>
    <tag k="oneway" v="yes"/>
    <tag k="ref" v="6"/>
    <tag k="source" v="UMP-PL, ./UMP-Szczecin/src/PLOTY.ulice.txt"/>
  </way>
  <way id="23622027" version="1" timestamp="2008-04-05T15:18:58Z" uid="30632" user="antblant" changeset="56221">
    <nd ref="255882939"/>
    <nd ref="255883131"/>
    <nd ref="255883130"/>
    <nd ref="255883126"/>
    <tag k="created_by" v="JOSM"/>
    <tag k="highway" v="residential"/>
    <tag k="name" v="Władysława Reymonta"/>
    <tag k="source" v="UMP-PL, ./UMP-Szczecin/src/PLOTY.ulice.txt"/>
  </way>
  <way id="23622027" version="2" timestamp="2009-11-03T13:40:46Z" uid="36809" user="pfoten_weg_!_" changeset="3023908">
    <nd ref="255882939"/>
    <nd ref="255883131"/>
    <nd ref="255883130"/>
    <nd ref="255883126"/>
    <tag k="highway" v="residential"/>
    <tag k="name" v="Władysława Reymonta"/>
    <tag k="source" v="UMP-PL, ./UMP-Szczecin/src/PLOTY.ulice.txt"/>
  </way>
  <way id="23622028" version="1" timestamp="2008-04-05T15:18:58Z" uid="30632" user="antblant" changeset="56221">
    <nd ref="255883183"/>
    <nd ref="255883158"/>
    <nd ref="255883157"/>
    <nd ref="255883186"/>
    <nd ref="255883106"/>
    <tag k="created_by" v="JOSM"/>
    <tag k="highway" v="residential"/>
    <tag k="name" v="Wiejska"/>
    <tag k="source" v="UMP-PL, ./UMP-Szczecin/src/PLOTY.ulice.txt"/>
  </way>
  <way id="23622028" version="2" timestamp="2009-11-03T13:42:00Z" uid="36809" user="pfoten_weg_!_" changeset="3023908">
    <nd ref="255883183"/>
    <nd ref="255883158"/>
    <nd ref="255883157"/>
    <nd ref="255883186"/>
    <nd ref="255883106"/>
    <tag k="highway" v="residential"/>
    <tag k="name" v="Wiejska"/>
    <tag k="source" v="UMP-PL, ./UMP-Szczecin/src/PLOTY.ulice.txt"/>
  </way>
  <way id="23622029" version="1" timestamp="2008-04-05T15:18:59Z" uid="30632" user="antblant" changeset="56221">
    <nd ref="255883048"/>
    <nd ref="255883090"/>
    <nd ref="255883074"/>
    <tag k="created_by" v="JOSM"/>
    <tag k="highway" v="unclassified"/>
    <tag k="name" v="Strumykowa"/>
    <tag k="source" v="UMP-PL, ./UMP-Szczecin/src/PLOTY.ulice.txt"/>
    <tag k="surface" v="unpaved"/>
  </way>
  <way id="23622029" version="2" timestamp="2009-11-03T13:41:07Z" uid="36809" user="pfoten_weg_!_" changeset="3023908">
    <nd ref="255883048"/>
    <nd ref="255883090"/>
    <nd ref="255883074"/>
    <tag k="highway" v="unclassified"/>
    <tag k="name" v="Strumykowa"/>
    <tag k="source" v="UMP-PL, ./UMP-Szczecin/src/PLOTY.ulice.txt"/>
    <tag k="surface" v="unpaved"/>
  </way>
  <way id="23622030" version="1" timestamp="2008-04-05T15:18:59Z" uid="30632" user="antblant" changeset="56221">
    <nd ref="255883020"/>
    <nd ref="255883018"/>
    <nd ref="255883016"/>
    <nd ref="255882951"/>
    <nd ref="255883014"/>
    <nd ref="255883030"/>
    <nd ref="255883008"/>
    <nd ref="255883032"/>
    <nd ref="255883020"/>
    <tag k="created_by" v="JOSM"/>
    <tag k="highway" v="0xc"/>
    <tag k="junction" v="roundabout"/>
    <tag k="source" v="UMP-PL, ./UMP-Szczecin/src/PLOTY.ulice.txt"/>
  </way>
  <way id="23622030" version="2" timestamp="2008-04-05T15:21:43Z" uid="30632" user="antblant" changeset="56221">
    <nd ref="255883020"/>
    <nd ref="255883018"/>
    <nd ref="255883016"/>
    <nd ref="255882951"/>
    <nd ref="255883014"/>
    <nd ref="255883030"/>
    <nd ref="255883008"/>
    <nd ref="255883032"/>
    <nd ref="255883020"/>
    <tag k="created_by" v="Potlatch 0.8a"/>
    <tag k="highway" v="secondary"/>
    <tag k="junction" v="roundabout"/>
    <tag k="source" v="UMP-PL, ./UMP-Szczecin/src/PLOTY.ulice.txt"/>
  </way>
  <way id="23622030" version="3" timestamp="2008-04-05T15:22:01Z" uid="30632" user="antblant" changeset="56221">
    <nd ref="255883020"/>
    <nd ref="255883018"/>
    <nd ref="255883016"/>
    <nd ref="255882951"/>
    <nd ref="255883014"/>
    <nd ref="255883030"/>
    <nd ref="255883008"/>
    <nd ref="255883032"/>
    <nd ref="255883020"/>
    <tag k="created_by" v="Potlatch 0.8a"/>
    <tag k="highway" v="secondary"/>
    <tag k="junction" v="roundabout"/>
    <tag k="oneway" v="yes"/>
    <tag k="ref" v="152"/>
    <tag k="source" v="UMP-PL, ./UMP-Szczecin/src/PLOTY.ulice.txt"/>
  </way>
  <way id="23622030" version="4" timestamp="2009-11-03T13:40:56Z" uid="36809" user="pfoten_weg_!_" changeset="3023908">
    <nd ref="255883020"/>
    <nd ref="255883018"/>
    <nd ref="255883016"/>
    <nd ref="255882951"/>
    <nd ref="255883014"/>
    <nd ref="255883030"/>
    <nd ref="255883008"/>
    <nd ref="255883032"/>
    <nd ref="255883020"/>
    <tag k="highway" v="secondary"/>
    <tag k="junction" v="roundabout"/>
    <tag k="oneway" v="yes"/>
    <tag k="ref" v="152"/>
    <tag k="source" v="UMP-PL, ./UMP-Szczecin/src/PLOTY.ulice.txt"/>
  </way>
  <way id="23622031" version="1" timestamp="2008-04-05T15:18:59Z" uid="30632" user="antblant" changeset="56221">
    <nd ref="255882965"/>
    <nd ref="255882973"/>
    <nd ref="255882947"/>
    <nd ref="255882976"/>
    <nd ref="255882967"/>
    <tag k="created_by" v="JOSM"/>
    <tag k="highway" v="secondary"/>
    <tag k="source" v="UMP-PL, ./UMP-Szczecin/src/PLOTY.ulice.txt"/>
  </way>
  <way id="23622031" version="2" timestamp="2009-11-03T13:41:33Z" uid="36809" user="pfoten_weg_!_" changeset="3023908">
    <nd ref="255882965"/>
    <nd ref="255882973"/>
    <nd ref="255882947"/>
    <nd ref="255882976"/>
    <nd ref="255882967"/>
    <tag k="highway" v="secondary"/>
    <tag k="source" v="UMP-PL, ./UMP-Szczecin/src/PLOTY.ulice.txt"/>
  </way>
  <way id="23622032" version="1" timestamp="2008-04-05T15:18:59Z" uid="30632" user="antblant" changeset="56221">
    <nd ref="255883086"/>
    <nd ref="255883180"/>
    <nd ref="255883173"/>
    <nd ref="255883174"/>
    <tag k="created_by" v="JOSM"/>
    <tag k="highway" v="residential"/>
    <tag k="name" v="Jana Kochanowskiego"/>
    <tag k="source" v="UMP-PL, ./UMP-Szczecin/src/PLOTY.ulice.txt"/>
  </way>
  <way id="23622032" version="2" timestamp="2009-11-03T13:40:28Z" uid="36809" user="pfoten_weg_!_" changeset="3023908">
    <nd ref="255883086"/>
    <nd ref="255883180"/>
    <nd ref="255883173"/>
    <nd ref="255883174"/>
    <tag k="highway" v="residential"/>
    <tag k="name" v="Jana Kochanowskiego"/>
    <tag k="source" v="UMP-PL, ./UMP-Szczecin/src/PLOTY.ulice.txt"/>
  </way>
  <way id="23622033" version="1" timestamp="2008-04-05T15:18:59Z" uid="30632" user="antblant" changeset="56221">
    <nd ref="255883126"/>
    <nd ref="255883129"/>
    <tag k="created_by" v="JOSM"/>
    <tag k="highway" v="residential"/>
    <tag k="name" v="Władysława Reymonta"/>
    <tag k="source" v="UMP-PL, ./UMP-Szczecin/src/PLOTY.ulice.txt"/>
  </way>
  <way id="23622033" version="2" timestamp="2009-11-03T13:41:01Z" uid="36809" user="pfoten_weg_!_" changeset="3023908">
    <nd ref="255883126"/>
    <nd ref="255883129"/>
    <tag k="highway" v="residential"/>
    <tag k="name" v="Władysława Reymonta"/>
    <tag k="source" v="UMP-PL, ./UMP-Szczecin/src/PLOTY.ulice.txt"/>
  </way>
  <way id="23622034" version="1" timestamp="2008-04-05T15:19:00Z" uid="30632" user="antblant" changeset="56221">
    <nd ref="255883008"/>
    <nd ref="255883007"/>
    <nd ref="255883006"/>
    <nd ref="255883005"/>
    <tag k="created_by" v="JOSM"/>
    <tag k="highway" v="residential"/>
    <tag k="name" v="Jana Paderewskiego"/>
    <tag k="source" v="UMP-PL, ./UMP-Szczecin/src/PLOTY.ulice.txt"/>
  </way>
  <way id="23622034" version="2" timestamp="2009-11-03T13:40:47Z" uid="36809" user="pfoten_weg_!_" changeset="3023908">
    <nd ref="255883008"/>
    <nd ref="255883007"/>
    <nd ref="255883006"/>
    <nd ref="255883005"/>
    <tag k="highway" v="residential"/>
    <tag k="name" v="Jana Paderewskiego"/>
    <tag k="source" v="UMP-PL, ./UMP-Szczecin/src/PLOTY.ulice.txt"/>
  </way>
  <way id="23622035" version="1" timestamp="2008-04-05T15:19:00Z" uid="30632" user="antblant" changeset="56221">
    <nd ref="255882970"/>
    <nd ref="255882959"/>
    <tag k="created_by" v="JOSM"/>
    <tag k="highway" v="tertiary"/>
    <tag k="source" v="UMP-PL, ./UMP-Szczecin/src/PLOTY.ulice.txt"/>
  </way>
  <way id="23622035" version="2" timestamp="2009-11-03T13:41:35Z" uid="36809" user="pfoten_weg_!_" changeset="3023908">
    <nd ref="255882970"/>
    <nd ref="255882959"/>
    <tag k="highway" v="tertiary"/>
    <tag k="source" v="UMP-PL, ./UMP-Szczecin/src/PLOTY.ulice.txt"/>
  </way>
  <way id="23622036" version="1" timestamp="2008-04-05T15:19:00Z" uid="30632" user="antblant" changeset="56221">
    <nd ref="255883082"/>
    <nd ref="255883081"/>
    <nd ref="255883080"/>
    <nd ref="255883079"/>
    <nd ref="255883078"/>
    <nd ref="255883077"/>
    <nd ref="255883076"/>
    <nd ref="255883091"/>
    <tag k="created_by" v="JOSM"/>
    <tag k="highway" v="residential"/>
    <tag k="name" v="Bolesława Prusa"/>
    <tag k="source" v="UMP-PL, ./UMP-Szczecin/src/PLOTY.ulice.txt"/>
  </way>
  <way id="23622036" version="2" timestamp="2009-11-03T13:40:24Z" uid="36809" user="pfoten_weg_!_" changeset="3023908">
    <nd ref="255883082"/>
    <nd ref="255883081"/>
    <nd ref="255883080"/>
    <nd ref="255883079"/>
    <nd ref="255883078"/>
    <nd ref="255883077"/>
    <nd ref="255883076"/>
    <nd ref="255883091"/>
    <tag k="highway" v="residential"/>
    <tag k="name" v="Bolesława Prusa"/>
    <tag k="source" v="UMP-PL, ./UMP-Szczecin/src/PLOTY.ulice.txt"/>
  </way>
  <way id="23622037" version="1" timestamp="2008-04-05T15:19:00Z" uid="30632" user="antblant" changeset="56221">
    <nd ref="255883003"/>
    <nd ref="255883178"/>
    <nd ref="255883179"/>
    <tag k="created_by" v="JOSM"/>
    <tag k="highway" v="residential"/>
    <tag k="name" v="Stanisława Moniuszki"/>
    <tag k="source" v="UMP-PL, ./UMP-Szczecin/src/PLOTY.ulice.txt"/>
  </way>
  <way id="23622037" version="2" timestamp="2009-11-03T13:42:03Z" uid="36809" user="pfoten_weg_!_" changeset="3023908">
    <nd ref="255883003"/>
    <nd ref="255883178"/>
    <nd ref="255883179"/>
    <tag k="highway" v="residential"/>
    <tag k="name" v="Stanisława Moniuszki"/>
    <tag k="source" v="UMP-PL, ./UMP-Szczecin/src/PLOTY.ulice.txt"/>
  </way>
  <way id="23622038" version="1" timestamp="2008-04-05T15:19:00Z" uid="30632" user="antblant" changeset="56221">
    <nd ref="255883128"/>
    <nd ref="255883150"/>
    <nd ref="255883151"/>
    <nd ref="255883148"/>
    <nd ref="255883149"/>
    <nd ref="255883002"/>
    <nd ref="255883004"/>
    <nd ref="255883084"/>
    <nd ref="255883154"/>
    <nd ref="255883103"/>
    <nd ref="255883155"/>
    <nd ref="255883099"/>
    <tag k="created_by" v="JOSM"/>
    <tag k="highway" v="secondary"/>
    <tag k="name" v="Jagiellonów"/>
    <tag k="ref" v="109"/>
    <tag k="source" v="UMP-PL, ./UMP-Szczecin/src/PLOTY.ulice.txt"/>
  </way>
  <way id="23622038" version="2" timestamp="2008-04-05T15:21:17Z" uid="30632" user="antblant" changeset="56221">
    <nd ref="254708476"/>
    <nd ref="255883150"/>
    <nd ref="255883151"/>
    <nd ref="255883148"/>
    <nd ref="255883149"/>
    <nd ref="255883002"/>
    <nd ref="255883004"/>
    <nd ref="255883084"/>
    <nd ref="255883154"/>
    <nd ref="255883103"/>
    <nd ref="255883155"/>
    <nd ref="255883099"/>
    <tag k="created_by" v="Potlatch 0.8a"/>
    <tag k="highway" v="secondary"/>
    <tag k="name" v="Jagiellonów"/>
    <tag k="ref" v="109"/>
    <tag k="source" v="UMP-PL, ./UMP-Szczecin/src/PLOTY.ulice.txt"/>
  </way>
  <way id="23622038" version="3" timestamp="2009-11-03T13:40:22Z" uid="36809" user="pfoten_weg_!_" changeset="3023908">
    <nd ref="254708476"/>
    <nd ref="255883150"/>
    <nd ref="255883151"/>
    <nd ref="255883148"/>
    <nd ref="255883149"/>
    <nd ref="255883002"/>
    <nd ref="255883004"/>
    <nd ref="255883084"/>
    <nd ref="255883154"/>
    <nd ref="255883103"/>
    <nd ref="255883155"/>
    <nd ref="255883099"/>
    <tag k="highway" v="secondary"/>
    <tag k="name" v="Jagiellonów"/>
    <tag k="ref" v="109"/>
    <tag k="source" v="UMP-PL, ./UMP-Szczecin/src/PLOTY.ulice.txt"/>
  </way>
  <way id="23622039" version="1" timestamp="2008-04-05T15:19:01Z" uid="30632" user="antblant" changeset="56221">
    <nd ref="255883006"/>
    <nd ref="255883012"/>
    <nd ref="255883011"/>
    <nd ref="255883010"/>
    <tag k="created_by" v="JOSM"/>
    <tag k="highway" v="residential"/>
    <tag k="name" v="Podgórna"/>
    <tag k="source" v="UMP-PL, ./UMP-Szczecin/src/PLOTY.ulice.txt"/>
  </way>
  <way id="23622039" version="2" timestamp="2009-11-03T13:41:00Z" uid="36809" user="pfoten_weg_!_" changeset="3023908">
    <nd ref="255883006"/>
    <nd ref="255883012"/>
    <nd ref="255883011"/>
    <nd ref="255883010"/>
    <tag k="highway" v="residential"/>
    <tag k="name" v="Podgórna"/>
    <tag k="source" v="UMP-PL, ./UMP-Szczecin/src/PLOTY.ulice.txt"/>
  </way>
  <way id="23622040" version="1" timestamp="2008-04-05T15:19:01Z" uid="30632" user="antblant" changeset="56221">
    <nd ref="255882975"/>
    <nd ref="255882980"/>
    <nd ref="255882977"/>
    <tag k="created_by" v="JOSM"/>
    <tag k="highway" v="residential"/>
    <tag k="name" v="Jedności Narodowej"/>
    <tag k="source" v="UMP-PL, ./UMP-Szczecin/src/PLOTY.ulice.txt"/>
  </way>
  <way id="23622040" version="2" timestamp="2009-11-03T13:41:24Z" uid="36809" user="pfoten_weg_!_" changeset="3023908">
    <nd ref="255882975"/>
    <nd ref="255882980"/>
    <nd ref="255882977"/>
    <tag k="highway" v="residential"/>
    <tag k="name" v="Jedności Narodowej"/>
    <tag k="source" v="UMP-PL, ./UMP-Szczecin/src/PLOTY.ulice.txt"/>
  </way>
  <way id="23622041" version="1" timestamp="2008-04-05T15:19:01Z" uid="30632" user="antblant" changeset="56221">
    <nd ref="255882993"/>
    <nd ref="255883083"/>
    <tag k="created_by" v="JOSM"/>
    <tag k="highway" v="residential"/>
    <tag k="name" v="Grabowa"/>
    <tag k="source" v="UMP-PL, ./UMP-Szczecin/src/PLOTY.ulice.txt"/>
  </way>
  <way id="23622041" version="2" timestamp="2009-11-03T13:41:29Z" uid="36809" user="pfoten_weg_!_" changeset="3023908">
    <nd ref="255882993"/>
    <nd ref="255883083"/>
    <tag k="highway" v="residential"/>
    <tag k="name" v="Grabowa"/>
    <tag k="source" v="UMP-PL, ./UMP-Szczecin/src/PLOTY.ulice.txt"/>
  </way>
  <way id="23622060" version="4" timestamp="2010-01-31T22:53:39Z" uid="20587" user="balrog-kun" changeset="3764164">
    <nd ref="305397170"/>
    <nd ref="624783077"/>
    <nd ref="305397164"/>
    <nd ref="624783060"/>
    <nd ref="305397157"/>
    <nd ref="368368437"/>
    <nd ref="335389765"/>
    <nd ref="305397143"/>
    <nd ref="305397131"/>
    <nd ref="305397136"/>
    <nd ref="255883306"/>
    <nd ref="255883291"/>
    <nd ref="255883304"/>
    <nd ref="255883292"/>
    <nd ref="255883293"/>
    <nd ref="255883294"/>
    <nd ref="255883295"/>
    <nd ref="255883303"/>
    <nd ref="255883302"/>
    <nd ref="255883301"/>
    <nd ref="255883300"/>
    <tag k="highway" v="residential"/>
    <tag k="name" v="Calle de Cebreros"/>
  </way>
  <way id="23622103" version="1" timestamp="2008-04-05T15:22:43Z" uid="30632" user="antblant" changeset="56221">
    <nd ref="255882935"/>
    <nd ref="255882965"/>
    <nd ref="255882968"/>
    <nd ref="255882967"/>
    <nd ref="255882970"/>
    <nd ref="255882969"/>
    <nd ref="255882972"/>
    <nd ref="255882971"/>
    <nd ref="255882974"/>
    <nd ref="255882953"/>
    <tag k="created_by" v="Potlatch 0.8a"/>
    <tag k="highway" v="primary"/>
    <tag k="name" v="I Armii Wojska Polskiego"/>
    <tag k="ref" v="6"/>
    <tag k="source" v="UMP-PL, ./UMP-Szczecin/src/PLOTY.ulice.txt"/>
  </way>
  <way id="23622103" version="2" timestamp="2008-04-05T15:22:59Z" uid="30632" user="antblant" changeset="56221">
    <nd ref="255882935"/>
    <nd ref="255882965"/>
    <nd ref="255882968"/>
    <nd ref="255882967"/>
    <nd ref="255882970"/>
    <nd ref="255882969"/>
    <nd ref="255882972"/>
    <nd ref="255882971"/>
    <nd ref="255882974"/>
    <nd ref="255882953"/>
    <tag k="created_by" v="Potlatch 0.8a"/>
    <tag k="highway" v="primary"/>
    <tag k="name" v="I Armii Wojska Polskiego"/>
    <tag k="oneway" v="yes"/>
    <tag k="ref" v="6"/>
    <tag k="source" v="UMP-PL, ./UMP-Szczecin/src/PLOTY.ulice.txt"/>
  </way>
  <way id="23622103" version="4" timestamp="2009-11-03T13:40:48Z" uid="36809" user="pfoten_weg_!_" changeset="3023908">
    <nd ref="255882935"/>
    <nd ref="255882965"/>
    <nd ref="255882968"/>
    <nd ref="255882967"/>
    <nd ref="255882970"/>
    <nd ref="255882969"/>
    <nd ref="255882972"/>
    <nd ref="255882971"/>
    <nd ref="255882974"/>
    <nd ref="255882953"/>
    <tag k="highway" v="primary"/>
    <tag k="int_ref" v="E 28"/>
    <tag k="name" v="I Armii Wojska Polskiego"/>
    <tag k="oneway" v="yes"/>
    <tag k="ref" v="6"/>
    <tag k="source" v="UMP-PL, ./UMP-Szczecin/src/PLOTY.ulice.txt"/>
  </way>
  <way id="23622114" version="2" timestamp="2009-05-11T17:06:35Z" uid="9581" user="Lobelt" changeset="1154920">
    <nd ref="255883628"/>
    <nd ref="255883629"/>
    <nd ref="255883630"/>
    <nd ref="255883631"/>
    <nd ref="255883632"/>
    <nd ref="255883633"/>
    <nd ref="255883634"/>
    <nd ref="255883635"/>
    <nd ref="393904005"/>
    <tag k="created_by" v="JOSM"/>
    <tag k="highway" v="track"/>
  </way>
  <way id="23622115" version="2" timestamp="2009-05-11T17:06:35Z" uid="9581" user="Lobelt" changeset="1154920">
    <nd ref="255883585"/>
    <nd ref="255883638"/>
    <nd ref="255883639"/>
    <nd ref="255883640"/>
    <nd ref="255883641"/>
    <nd ref="255883642"/>
    <nd ref="255883643"/>
    <nd ref="255883644"/>
    <nd ref="255883645"/>
    <nd ref="255883646"/>
    <tag k="created_by" v="JOSM"/>
    <tag k="highway" v="track"/>
  </way>
  <way id="23622161" version="4" timestamp="2008-10-04T12:42:08Z" uid="65847" user="LKK" changeset="56561">
    <nd ref="255883904"/>
    <nd ref="256113252"/>
    <nd ref="256113251"/>
    <nd ref="256113250"/>
    <nd ref="256113249"/>
    <nd ref="256113248"/>
    <nd ref="256113247"/>
    <nd ref="256113246"/>
    <nd ref="256113244"/>
    <nd ref="256113243"/>
    <nd ref="256113242"/>
    <nd ref="256113241"/>
    <nd ref="256113239"/>
    <nd ref="256113238"/>
    <nd ref="256113236"/>
    <nd ref="256113235"/>
    <nd ref="256113233"/>
    <tag k="bicycle" v="yes"/>
    <tag k="created_by" v="JOSM"/>
    <tag k="foot" v="yes"/>
    <tag k="goods" v="no"/>
    <tag k="highway" v="track"/>
    <tag k="horse" v="yes"/>
    <tag k="motorcar" v="no"/>
    <tag k="motorcycle" v="no"/>
    <tag k="surface" v="unpaved"/>
    <tag k="tracktype" v="grade4"/>
  </way>
  <way id="23622197" version="6" timestamp="2009-12-07T00:15:15Z" uid="200463" user="harmagedon" changeset="3311752">
    <nd ref="255884179"/>
    <nd ref="349272616"/>
    <nd ref="255884109"/>
    <nd ref="255884110"/>
    <nd ref="255884111"/>
    <nd ref="255884112"/>
    <nd ref="255884113"/>
    <nd ref="255884114"/>
    <nd ref="255884115"/>
    <nd ref="255884072"/>
    <nd ref="255884073"/>
    <tag k="highway" v="unclassified"/>
  </way>
  <way id="23622227" version="20" timestamp="2010-03-22T05:41:24Z" uid="20587" user="balrog-kun" changeset="4199043">
    <nd ref="37448839"/>
    <nd ref="249111162"/>
    <nd ref="249110870"/>
    <nd ref="274841110"/>
    <nd ref="40381232"/>
    <nd ref="274841109"/>
    <nd ref="274841108"/>
    <nd ref="40504855"/>
    <nd ref="40504849"/>
    <nd ref="40504846"/>
    <nd ref="40504843"/>
    <nd ref="40504841"/>
    <nd ref="40399621"/>
    <tag k="comment" v="Named after Sam Baldock."/>
    <tag k="highway" v="motorway"/>
    <tag k="maxspeed" v="55 mph"/>
    <tag k="name" v="Baldock Freeway"/>
    <tag k="name_1" v="Pacific Highway"/>
    <tag k="name_2" v="Baldock Freeway"/>
    <tag k="oneway" v="yes"/>
    <tag k="ref" v="I 5"/>
    <tag k="source:name" v="ODOT"/>
    <tag k="tiger:cfcc" v="A15"/>
    <tag k="tiger:county" v="Multnomah, OR"/>
    <tag k="tiger:name_base" v="I-5"/>
    <tag k="tiger:name_base_1" v="Pacific"/>
    <tag k="tiger:name_base_2" v="Baldock"/>
    <tag k="tiger:separated" v="yes"/>
    <tag k="tiger:source" v="tiger_import_dch_v0.6_20070808"/>
    <tag k="tiger:tlid" v="157570820:157570822:157587657:157587658:157587666:157587667:157570712:157570713:157570718:157570719:157562561:157587900:157507790"/>
  </way>
  <way id="23622228" version="16" timestamp="2010-03-22T05:41:25Z" uid="20587" user="balrog-kun" changeset="4199043">
    <nd ref="40504704"/>
    <nd ref="40504697"/>
    <tag k="comment" v="Named after Sam Baldock."/>
    <tag k="highway" v="motorway"/>
    <tag k="maxspeed" v="55 mph"/>
    <tag k="name" v="Baldock Freeway"/>
    <tag k="name_1" v="Pacific Highway"/>
    <tag k="name_2" v="Baldock Freeway"/>
    <tag k="oneway" v="yes"/>
    <tag k="ref" v="I 5"/>
    <tag k="source:name" v="ODOT"/>
    <tag k="tiger:cfcc" v="A15"/>
    <tag k="tiger:county" v="Multnomah, OR"/>
    <tag k="tiger:name_base" v="I-5"/>
    <tag k="tiger:name_base_1" v="Pacific"/>
    <tag k="tiger:name_base_2" v="Baldock"/>
    <tag k="tiger:separated" v="yes"/>
    <tag k="tiger:source" v="tiger_import_dch_v0.6_20070808"/>
    <tag k="tiger:tlid" v="157570820:157570822:157587657:157587658:157587666:157587667:157570712:157570713:157570718:157570719:157562561:157587900:157507790"/>
  </way>
  <way id="23622236" version="15" timestamp="2010-03-22T05:41:25Z" uid="20587" user="balrog-kun" changeset="4199043">
    <nd ref="40506391"/>
    <nd ref="40506396"/>
    <tag k="comment" v="Named after Sam Baldock."/>
    <tag k="highway" v="motorway"/>
    <tag k="maxspeed" v="55 mph"/>
    <tag k="name" v="Baldock Freeway"/>
    <tag k="name_1" v="Baldock Freeway"/>
    <tag k="name_2" v="Pacific Highway"/>
    <tag k="oneway" v="yes"/>
    <tag k="ref" v="I 5"/>
    <tag k="source:name" v="ODOT"/>
    <tag k="tiger:cfcc" v="A15"/>
    <tag k="tiger:county" v="Multnomah, OR"/>
    <tag k="tiger:name_base" v="I-5"/>
    <tag k="tiger:name_base_1" v="Baldock"/>
    <tag k="tiger:name_base_2" v="Pacific"/>
    <tag k="tiger:separated" v="yes"/>
    <tag k="tiger:source" v="tiger_import_dch_v0.6_20070808"/>
    <tag k="tiger:tlid" v="157603289:157524643:157524810:157524812:157524644:157557790:157559070:157603400:157524856:157554606:157565075:157525136:157525137:157525358:157603612:157525139:157603401:157524866"/>
  </way>
  <way id="23622240" version="4" timestamp="2008-09-09T18:32:29Z" uid="65847" user="LKK" changeset="585165">
    <nd ref="255884354"/>
    <nd ref="255884355"/>
    <nd ref="255884357"/>
    <nd ref="265653265"/>
    <nd ref="265653267"/>
    <nd ref="265653270"/>
    <nd ref="265653272"/>
    <nd ref="265653275"/>
    <nd ref="265653277"/>
    <nd ref="265653280"/>
    <nd ref="265653282"/>
    <nd ref="265653285"/>
    <nd ref="265653287"/>
    <nd ref="265653290"/>
    <nd ref="265653293"/>
    <nd ref="265653295"/>
    <nd ref="265653299"/>
    <nd ref="266611844"/>
    <tag k="created_by" v="JOSM"/>
    <tag k="waterway" v="stream"/>
  </way>
  <way id="23622240" version="5" timestamp="2008-09-09T21:39:39Z" uid="65847" user="LKK" changeset="591544">
    <nd ref="255884354"/>
    <nd ref="255884355"/>
    <nd ref="255884357"/>
    <nd ref="265653265"/>
    <nd ref="265653267"/>
    <nd ref="265653270"/>
    <nd ref="265653272"/>
    <nd ref="265653275"/>
    <nd ref="265653277"/>
    <nd ref="265653280"/>
    <nd ref="265653282"/>
    <nd ref="265653285"/>
    <nd ref="265653287"/>
    <nd ref="265653290"/>
    <nd ref="265653293"/>
    <nd ref="265653295"/>
    <nd ref="265653299"/>
    <nd ref="266611844"/>
    <tag k="created_by" v="Potlatch 0.10b"/>
    <tag k="waterway" v="stream"/>
  </way>
  <way id="23622255" version="6" timestamp="2009-12-07T00:16:16Z" uid="200463" user="harmagedon" changeset="3311752">
    <nd ref="75686163"/>
    <nd ref="255884596"/>
    <nd ref="255884774"/>
    <nd ref="255884682"/>
    <nd ref="292725651"/>
    <tag k="highway" v="primary_link"/>
    <tag k="oneway" v="yes"/>
  </way>
  <way id="23622275" version="3" timestamp="2008-09-10T21:59:04Z" uid="65847" user="LKK" changeset="601246">
    <nd ref="255884807"/>
    <nd ref="255884806"/>
    <nd ref="255884805"/>
    <nd ref="255884804"/>
    <nd ref="255884803"/>
    <nd ref="255884802"/>
    <nd ref="255884801"/>
    <nd ref="255884799"/>
    <nd ref="255884798"/>
    <nd ref="255884797"/>
    <nd ref="255884796"/>
    <nd ref="255884795"/>
    <nd ref="255884794"/>
    <tag k="created_by" v="JOSM"/>
    <tag k="waterway" v="stream"/>
  </way>
  <way id="23622444" version="8" timestamp="2008-07-06T22:11:31Z" uid="6975" user="ulfl" changeset="415781">
    <nd ref="255886023"/>
    <nd ref="255886141"/>
    <nd ref="9100187"/>
    <tag k="construction" v="secondary"/>
    <tag k="highway" v="construction"/>
    <tag k="layer" v="-1"/>
    <tag k="tunnel" v="yes"/>
  </way>
  <way id="23622513" version="11" timestamp="2008-07-07T02:46:24Z" uid="6975" user="ulfl" changeset="415781">
    <nd ref="255887168"/>
    <nd ref="255887169"/>
    <tag k="highway" v="residential"/>
    <tag k="name" v="Ross Rd"/>
  </way>
  <way id="23622515" version="4" timestamp="2011-03-04T20:15:39Z" uid="9581" user="Lobelt" changeset="7457626">
    <nd ref="255887195"/>
    <nd ref="85735137"/>
    <nd ref="1186316547"/>
    <nd ref="255887194"/>
    <tag k="bicycle" v="yes"/>
    <tag k="foot" v="yes"/>
    <tag k="highway" v="footway"/>
    <tag k="name" v="Schreberweg"/>
  </way>
  <way id="23622518" version="1" timestamp="2008-04-05T15:58:03Z" uid="8619" user="cetest" changeset="52003">
    <nd ref="45035868"/>
    <nd ref="45036241"/>
    <tag k="created_by" v="JOSM"/>
    <tag k="highway" v="cycleway"/>
  </way>
  <way id="23622519" version="1" timestamp="2008-04-05T15:58:04Z" uid="8619" user="cetest" changeset="52003">
    <nd ref="45035868"/>
    <nd ref="45036880"/>
    <nd ref="45037595"/>
    <tag k="AND_nosr_r" v="15129507"/>
    <tag k="created_by" v="JOSM"/>
    <tag k="highway" v="cycleway"/>
  </way>
  <way id="23622525" version="9" timestamp="2009-12-06T23:32:59Z" uid="200463" user="harmagedon" changeset="3311555">
    <nd ref="255887357"/>
    <nd ref="255887364"/>
    <tag k="bridge" v="yes"/>
    <tag k="highway" v="primary"/>
    <tag k="layer" v="1"/>
    <tag k="ref" v="B 137"/>
  </way>
  <way id="23622533" version="7" timestamp="2009-12-06T23:32:58Z" uid="200463" user="harmagedon" changeset="3311555">
    <nd ref="255887455"/>
    <nd ref="255885959"/>
    <tag k="bridge" v="yes"/>
    <tag k="highway" v="primary"/>
    <tag k="layer" v="1"/>
    <tag k="ref" v="B 137"/>
  </way>
  <way id="23622618" version="5" timestamp="2008-06-23T18:57:21Z" uid="27600" user="Islanit" changeset="274556">
    <nd ref="255888810"/>
    <nd ref="255888811"/>
    <nd ref="261218203"/>
    <nd ref="255888812"/>
    <nd ref="261219130"/>
    <nd ref="255888813"/>
    <nd ref="255888814"/>
    <nd ref="255888815"/>
    <nd ref="261223126"/>
    <nd ref="255888817"/>
    <nd ref="21486758"/>
    <nd ref="255888818"/>
    <nd ref="35511272"/>
    <nd ref="255888819"/>
    <nd ref="255888820"/>
    <nd ref="35291765"/>
    <nd ref="21486817"/>
    <nd ref="21486743"/>
    <tag k="created_by" v="Potlatch 0.8c"/>
    <tag k="highway" v="secondary"/>
    <tag k="name" v="Puchstraße"/>
  </way>
  <way id="23622719" version="1" timestamp="2008-04-05T16:13:35Z" uid="30632" user="antblant" changeset="56221">
    <nd ref="255890400"/>
    <nd ref="255890452"/>
    <nd ref="255890454"/>
    <nd ref="255890455"/>
    <nd ref="255890456"/>
    <nd ref="255890457"/>
    <nd ref="255890399"/>
    <nd ref="255890459"/>
    <nd ref="255890398"/>
    <nd ref="255890460"/>
    <nd ref="255890461"/>
    <nd ref="255890450"/>
    <tag k="created_by" v="JOSM"/>
    <tag k="highway" v="residential"/>
    <tag k="name" v="Okrężna"/>
    <tag k="source" v="UMP-PL, ./UMP-Szczecin/src/BARLINEK.ulice.txt"/>
  </way>
  <way id="23622720" version="1" timestamp="2008-04-05T16:13:35Z" uid="30632" user="antblant" changeset="56221">
    <nd ref="255890278"/>
    <nd ref="255890389"/>
    <nd ref="255890308"/>
    <nd ref="255890372"/>
    <nd ref="255890296"/>
    <tag k="created_by" v="JOSM"/>
    <tag k="highway" v="residential"/>
    <tag k="name" v="Jana Matejki"/>
    <tag k="source" v="UMP-PL, ./UMP-Szczecin/src/BARLINEK.ulice.txt"/>
  </way>
  <way id="23622721" version="1" timestamp="2008-04-05T16:13:36Z" uid="30632" user="antblant" changeset="56221">
    <nd ref="255890489"/>
    <nd ref="255890490"/>
    <nd ref="255890507"/>
    <tag k="created_by" v="JOSM"/>
    <tag k="highway" v="residential"/>
    <tag k="name" v="Wodna"/>
    <tag k="source" v="UMP-PL, ./UMP-Szczecin/src/BARLINEK.ulice.txt"/>
  </way>
  <way id="23622722" version="1" timestamp="2008-04-05T16:13:36Z" uid="30632" user="antblant" changeset="56221">
    <nd ref="255890147"/>
    <nd ref="255890400"/>
    <nd ref="255890399"/>
    <tag k="created_by" v="JOSM"/>
    <tag k="highway" v="residential"/>
    <tag k="name" v="Jasna"/>
    <tag k="source" v="UMP-PL, ./UMP-Szczecin/src/BARLINEK.ulice.txt"/>
  </way>
  <way id="23622723" version="1" timestamp="2008-04-05T16:13:36Z" uid="30632" user="antblant" changeset="56221">
    <nd ref="255890252"/>
    <nd ref="255890261"/>
    <nd ref="255890259"/>
    <nd ref="255890253"/>
    <tag k="created_by" v="JOSM"/>
    <tag k="highway" v="residential"/>
    <tag k="name" v="Dworcowa"/>
    <tag k="source" v="UMP-PL, ./UMP-Szczecin/src/BARLINEK.ulice.txt"/>
  </way>
  <way id="23622725" version="1" timestamp="2008-04-05T16:13:36Z" uid="30632" user="antblant" changeset="56221">
    <nd ref="255890047"/>
    <nd ref="255890140"/>
    <nd ref="255890138"/>
    <nd ref="255890142"/>
    <nd ref="255890121"/>
    <tag k="created_by" v="JOSM"/>
    <tag k="highway" v="residential"/>
    <tag k="source" v="UMP-PL, ./UMP-Szczecin/src/BARLINEK.ulice.txt"/>
  </way>
  <way id="23622726" version="1" timestamp="2008-04-05T16:13:36Z" uid="30632" user="antblant" changeset="56221">
    <nd ref="255890409"/>
    <nd ref="255890408"/>
    <nd ref="255890407"/>
    <nd ref="255890406"/>
    <nd ref="255890450"/>
    <nd ref="255890451"/>
    <nd ref="255890143"/>
    <tag k="created_by" v="JOSM"/>
    <tag k="highway" v="residential"/>
    <tag k="name" v="Długa"/>
    <tag k="source" v="UMP-PL, ./UMP-Szczecin/src/BARLINEK.ulice.txt"/>
  </way>
  <way id="23622727" version="1" timestamp="2008-04-05T16:13:37Z" uid="30632" user="antblant" changeset="56221">
    <nd ref="255890319"/>
    <nd ref="255890371"/>
    <nd ref="255890369"/>
    <nd ref="255890368"/>
    <nd ref="255890367"/>
    <nd ref="255890366"/>
    <nd ref="255890291"/>
    <nd ref="255890364"/>
    <tag k="created_by" v="JOSM"/>
    <tag k="highway" v="residential"/>
    <tag k="name" v="Kręta"/>
    <tag k="source" v="UMP-PL, ./UMP-Szczecin/src/BARLINEK.ulice.txt"/>
  </way>
  <way id="23622728" version="1" timestamp="2008-04-05T16:13:37Z" uid="30632" user="antblant" changeset="56221">
    <nd ref="255890084"/>
    <nd ref="255890434"/>
    <nd ref="255890489"/>
    <nd ref="255890083"/>
    <tag k="created_by" v="JOSM"/>
    <tag k="highway" v="residential"/>
    <tag k="name" v="Rynek"/>
    <tag k="source" v="UMP-PL, ./UMP-Szczecin/src/BARLINEK.ulice.txt"/>
  </way>
  <way id="23622729" version="1" timestamp="2008-04-05T16:13:37Z" uid="30632" user="antblant" changeset="56221">
    <nd ref="255890383"/>
    <nd ref="255890401"/>
    <nd ref="255890058"/>
    <tag k="created_by" v="JOSM"/>
    <tag k="highway" v="residential"/>
    <tag k="source" v="UMP-PL, ./UMP-Szczecin/src/BARLINEK.ulice.txt"/>
  </way>
  <way id="23622730" version="1" timestamp="2008-04-05T16:13:37Z" uid="30632" user="antblant" changeset="56221">
    <nd ref="255890240"/>
    <nd ref="255890241"/>
    <nd ref="255890266"/>
    <nd ref="255890265"/>
    <nd ref="255890263"/>
    <nd ref="255890262"/>
    <nd ref="255890271"/>
    <nd ref="255890270"/>
    <nd ref="255890268"/>
    <nd ref="255890267"/>
    <nd ref="255890256"/>
    <nd ref="255890254"/>
    <nd ref="255890253"/>
    <nd ref="255890166"/>
    <tag k="created_by" v="JOSM"/>
    <tag k="highway" v="residential"/>
    <tag k="name" v="Św. Bonifacego"/>
    <tag k="source" v="UMP-PL, ./UMP-Szczecin/src/BARLINEK.ulice.txt"/>
  </way>
  <way id="23622730" version="2" timestamp="2011-04-11T20:54:51Z" uid="23543" user="jkjk" changeset="7837485">
    <nd ref="255890240"/>
    <nd ref="255890241"/>
    <nd ref="255890266"/>
    <nd ref="255890265"/>
    <nd ref="255890263"/>
    <nd ref="255890262"/>
    <nd ref="255890271"/>
    <nd ref="1241295880"/>
    <nd ref="255890270"/>
    <nd ref="255890268"/>
    <nd ref="255890267"/>
    <nd ref="255890256"/>
    <nd ref="255890254"/>
    <nd ref="255890253"/>
    <nd ref="255890166"/>
    <tag k="highway" v="residential"/>
    <tag k="name" v="Św. Bonifacego"/>
    <tag k="source" v="UMP-PL, ./UMP-Szczecin/src/BARLINEK.ulice.txt"/>
  </way>
  <way id="23622731" version="1" timestamp="2008-04-05T16:13:37Z" uid="30632" user="antblant" changeset="56221">
    <nd ref="255890527"/>
    <nd ref="255890521"/>
    <nd ref="255890519"/>
    <nd ref="255890523"/>
    <nd ref="255890522"/>
    <nd ref="255890560"/>
    <nd ref="255890558"/>
    <nd ref="255890524"/>
    <nd ref="255890557"/>
    <nd ref="255890556"/>
    <nd ref="255890565"/>
    <nd ref="255890563"/>
    <nd ref="255890562"/>
    <nd ref="255890561"/>
    <nd ref="255890555"/>
    <nd ref="255890508"/>
    <tag k="created_by" v="JOSM"/>
    <tag k="highway" v="residential"/>
    <tag k="name" v="Zielna"/>
    <tag k="source" v="UMP-PL, ./UMP-Szczecin/src/BARLINEK.ulice.txt"/>
  </way>
  <way id="23622732" version="1" timestamp="2008-04-05T16:13:38Z" uid="30632" user="antblant" changeset="56221">
    <nd ref="255890039"/>
    <nd ref="255890141"/>
    <nd ref="255890130"/>
    <nd ref="255890122"/>
    <nd ref="255890128"/>
    <nd ref="255890126"/>
    <nd ref="255890137"/>
    <nd ref="255890136"/>
    <tag k="created_by" v="JOSM"/>
    <tag k="highway" v="secondary"/>
    <tag k="name" v="Do Lipian"/>
    <tag k="ref" v="154"/>
    <tag k="source" v="UMP-PL, ./UMP-Szczecin/src/BARLINEK.ulice.txt"/>
  </way>
  <way id="23622732" version="2" timestamp="2008-04-05T16:14:33Z" uid="30632" user="antblant" changeset="56221">
    <nd ref="255890039"/>
    <nd ref="255890141"/>
    <nd ref="255890130"/>
    <nd ref="255890122"/>
    <nd ref="255890128"/>
    <nd ref="255890126"/>
    <nd ref="255890137"/>
    <nd ref="254719536"/>
    <tag k="created_by" v="Potlatch 0.8a"/>
    <tag k="highway" v="secondary"/>
    <tag k="name" v="Do Lipian"/>
    <tag k="ref" v="154"/>
    <tag k="source" v="UMP-PL, ./UMP-Szczecin/src/BARLINEK.ulice.txt"/>
  </way>
  <way id="23622732" version="3" timestamp="2008-11-27T17:08:44Z" uid="30632" user="antblant" changeset="800405">
    <nd ref="255890039"/>
    <nd ref="255890141"/>
    <nd ref="255890130"/>
    <nd ref="255890122"/>
    <nd ref="255890128"/>
    <nd ref="255890126"/>
    <nd ref="255890137"/>
    <nd ref="254719536"/>
    <tag k="created_by" v="Potlatch 0.10f"/>
    <tag k="highway" v="secondary"/>
    <tag k="name" v="Szosa Do Lipian"/>
    <tag k="ref" v="154"/>
    <tag k="source" v="UMP-PL, ./UMP-Szczecin/src/BARLINEK.ulice.txt"/>
  </way>
  <way id="23622733" version="1" timestamp="2008-04-05T16:13:38Z" uid="30632" user="antblant" changeset="56221">
    <nd ref="255890167"/>
    <nd ref="255890331"/>
    <nd ref="255890164"/>
    <tag k="created_by" v="JOSM"/>
    <tag k="highway" v="residential"/>
    <tag k="name" v="Ogrodowa"/>
    <tag k="source" v="UMP-PL, ./UMP-Szczecin/src/BARLINEK.ulice.txt"/>
  </way>
  <way id="23622734" version="1" timestamp="2008-04-05T16:13:38Z" uid="30632" user="antblant" changeset="56221">
    <nd ref="255890405"/>
    <nd ref="255890404"/>
    <nd ref="255890403"/>
    <nd ref="255890402"/>
    <tag k="created_by" v="JOSM"/>
    <tag k="highway" v="residential"/>
    <tag k="name" v="Stodolna"/>
    <tag k="source" v="UMP-PL, ./UMP-Szczecin/src/BARLINEK.ulice.txt"/>
  </way>
  <way id="23622735" version="1" timestamp="2008-04-05T16:13:38Z" uid="30632" user="antblant" changeset="56221">
    <nd ref="255890465"/>
    <nd ref="255890466"/>
    <nd ref="255890467"/>
    <nd ref="255890469"/>
    <nd ref="255890430"/>
    <tag k="created_by" v="JOSM"/>
    <tag k="highway" v="residential"/>
    <tag k="name" v="Podwale"/>
    <tag k="source" v="UMP-PL, ./UMP-Szczecin/src/BARLINEK.ulice.txt"/>
  </way>
  <way id="23622736" version="1" timestamp="2008-04-05T16:13:39Z" uid="30632" user="antblant" changeset="56221">
    <nd ref="255890364"/>
    <nd ref="255890363"/>
    <nd ref="255890362"/>
    <nd ref="255890361"/>
    <nd ref="255890359"/>
    <nd ref="255890358"/>
    <nd ref="255890289"/>
    <tag k="created_by" v="JOSM"/>
    <tag k="highway" v="residential"/>
    <tag k="name" v="Słoneczna"/>
    <tag k="source" v="UMP-PL, ./UMP-Szczecin/src/BARLINEK.ulice.txt"/>
  </way>
  <way id="23622737" version="1" timestamp="2008-04-05T16:13:39Z" uid="30632" user="antblant" changeset="56221">
    <nd ref="255890524"/>
    <nd ref="255890528"/>
    <tag k="created_by" v="JOSM"/>
    <tag k="highway" v="residential"/>
    <tag k="name" v="Zielna"/>
    <tag k="source" v="UMP-PL, ./UMP-Szczecin/src/BARLINEK.ulice.txt"/>
  </way>
  <way id="23622738" version="1" timestamp="2008-04-05T16:13:39Z" uid="30632" user="antblant" changeset="56221">
    <nd ref="255890126"/>
    <nd ref="255890127"/>
    <nd ref="255890118"/>
    <tag k="created_by" v="JOSM"/>
    <tag k="highway" v="residential"/>
    <tag k="name" v="Okrętowa"/>
    <tag k="source" v="UMP-PL, ./UMP-Szczecin/src/BARLINEK.ulice.txt"/>
  </way>
  <way id="23622739" version="1" timestamp="2008-04-05T16:13:39Z" uid="30632" user="antblant" changeset="56221">
    <nd ref="255890203"/>
    <nd ref="255890239"/>
    <tag k="created_by" v="JOSM"/>
    <tag k="highway" v="residential"/>
    <tag k="name" v="Henryka Sienkiewicza"/>
    <tag k="source" v="UMP-PL, ./UMP-Szczecin/src/BARLINEK.ulice.txt"/>
  </way>
  <way id="23622740" version="1" timestamp="2008-04-05T16:13:39Z" uid="30632" user="antblant" changeset="56221">
    <nd ref="255890508"/>
    <nd ref="255890504"/>
    <nd ref="255890505"/>
    <nd ref="255890502"/>
    <nd ref="255890410"/>
    <nd ref="255890295"/>
    <nd ref="255890503"/>
    <nd ref="255890499"/>
    <nd ref="255890500"/>
    <nd ref="255890479"/>
    <nd ref="255890478"/>
    <nd ref="255890276"/>
    <tag k="created_by" v="JOSM"/>
    <tag k="highway" v="residential"/>
    <tag k="name" v="Zielna"/>
    <tag k="source" v="UMP-PL, ./UMP-Szczecin/src/BARLINEK.ulice.txt"/>
  </way>
  <way id="23622741" version="1" timestamp="2008-04-05T16:13:40Z" uid="30632" user="antblant" changeset="56221">
    <nd ref="255890398"/>
    <nd ref="255890400"/>
    <tag k="created_by" v="JOSM"/>
    <tag k="highway" v="residential"/>
    <tag k="source" v="UMP-PL, ./UMP-Szczecin/src/BARLINEK.ulice.txt"/>
  </way>
  <way id="23622742" version="1" timestamp="2008-04-05T16:13:40Z" uid="30632" user="antblant" changeset="56221">
    <nd ref="255890151"/>
    <nd ref="255890462"/>
    <nd ref="255890464"/>
    <tag k="created_by" v="JOSM"/>
    <tag k="highway" v="residential"/>
    <tag k="name" v="Kwiatowa"/>
    <tag k="source" v="UMP-PL, ./UMP-Szczecin/src/BARLINEK.ulice.txt"/>
  </way>
  <way id="23622743" version="1" timestamp="2008-04-05T16:13:40Z" uid="30632" user="antblant" changeset="56221">
    <nd ref="255890357"/>
    <nd ref="255890355"/>
    <nd ref="255890354"/>
    <nd ref="255890371"/>
    <tag k="created_by" v="JOSM"/>
    <tag k="highway" v="residential"/>
    <tag k="name" v="Spokojna"/>
    <tag k="source" v="UMP-PL, ./UMP-Szczecin/src/BARLINEK.ulice.txt"/>
  </way>
  <way id="23622744" version="1" timestamp="2008-04-05T16:13:40Z" uid="30632" user="antblant" changeset="56221">
    <nd ref="255890353"/>
    <nd ref="255890517"/>
    <nd ref="255890510"/>
    <nd ref="255890509"/>
    <nd ref="255890513"/>
    <nd ref="255890512"/>
    <nd ref="255890526"/>
    <nd ref="255890508"/>
    <tag k="created_by" v="JOSM"/>
    <tag k="highway" v="residential"/>
    <tag k="name" v="Fabryczna"/>
    <tag k="source" v="UMP-PL, ./UMP-Szczecin/src/BARLINEK.ulice.txt"/>
  </way>
  <way id="23622745" version="1" timestamp="2008-04-05T16:13:41Z" uid="30632" user="antblant" changeset="56221">
    <nd ref="255890053"/>
    <nd ref="255890119"/>
    <nd ref="255890121"/>
    <nd ref="255890122"/>
    <tag k="created_by" v="JOSM"/>
    <tag k="highway" v="residential"/>
    <tag k="name" v="Przemysłowa"/>
    <tag k="source" v="UMP-PL, ./UMP-Szczecin/src/BARLINEK.ulice.txt"/>
  </way>
  <way id="23622746" version="1" timestamp="2008-04-05T16:13:41Z" uid="30632" user="antblant" changeset="56221">
    <nd ref="255890247"/>
    <nd ref="255890236"/>
    <nd ref="255890238"/>
    <nd ref="255890250"/>
    <tag k="created_by" v="JOSM"/>
    <tag k="highway" v="residential"/>
    <tag k="name" v="Papugi"/>
    <tag k="source" v="UMP-PL, ./UMP-Szczecin/src/BARLINEK.ulice.txt"/>
  </way>
  <way id="23622747" version="1" timestamp="2008-04-05T16:13:41Z" uid="30632" user="antblant" changeset="56221">
    <nd ref="255890235"/>
    <nd ref="255890234"/>
    <tag k="created_by" v="JOSM"/>
    <tag k="highway" v="residential"/>
    <tag k="name" v="Leśna"/>
    <tag k="source" v="UMP-PL, ./UMP-Szczecin/src/BARLINEK.ulice.txt"/>
  </way>
  <way id="23622748" version="1" timestamp="2008-04-05T16:13:41Z" uid="30632" user="antblant" changeset="56221">
    <nd ref="255890074"/>
    <nd ref="255890096"/>
    <nd ref="255890095"/>
    <nd ref="255890094"/>
    <nd ref="255890093"/>
    <nd ref="255890101"/>
    <nd ref="255890100"/>
    <tag k="created_by" v="JOSM"/>
    <tag k="highway" v="residential"/>
    <tag k="name" v="Szpitalna"/>
    <tag k="source" v="UMP-PL, ./UMP-Szczecin/src/BARLINEK.ulice.txt"/>
  </way>
  <way id="23622749" version="1" timestamp="2008-04-05T16:13:41Z" uid="30632" user="antblant" changeset="56221">
    <nd ref="255890432"/>
    <nd ref="255890091"/>
    <tag k="created_by" v="JOSM"/>
    <tag k="highway" v="residential"/>
    <tag k="name" v="Szewska"/>
    <tag k="source" v="UMP-PL, ./UMP-Szczecin/src/BARLINEK.ulice.txt"/>
  </way>
  <way id="23622750" version="1" timestamp="2008-04-05T16:13:42Z" uid="30632" user="antblant" changeset="56221">
    <nd ref="255890282"/>
    <nd ref="255890333"/>
    <nd ref="255890334"/>
    <nd ref="255890325"/>
    <tag k="created_by" v="JOSM"/>
    <tag k="highway" v="residential"/>
    <tag k="name" v="Tunelowa"/>
    <tag k="source" v="UMP-PL, ./UMP-Szczecin/src/BARLINEK.ulice.txt"/>
  </way>
  <way id="23622751" version="1" timestamp="2008-04-05T16:13:42Z" uid="30632" user="antblant" changeset="56221">
    <nd ref="255890493"/>
    <nd ref="255890476"/>
    <nd ref="255890475"/>
    <nd ref="255890474"/>
    <nd ref="255890489"/>
    <tag k="created_by" v="JOSM"/>
    <tag k="highway" v="residential"/>
    <tag k="name" v="Jana Paderewskiego"/>
    <tag k="source" v="UMP-PL, ./UMP-Szczecin/src/BARLINEK.ulice.txt"/>
  </way>
  <way id="23622752" version="1" timestamp="2008-04-05T16:13:42Z" uid="30632" user="antblant" changeset="56221">
    <nd ref="255890421"/>
    <nd ref="255890422"/>
    <nd ref="255890419"/>
    <nd ref="255890420"/>
    <nd ref="255890426"/>
    <nd ref="255890427"/>
    <nd ref="255890424"/>
    <nd ref="255890415"/>
    <tag k="created_by" v="JOSM"/>
    <tag k="highway" v="residential"/>
    <tag k="name" v="Widok"/>
    <tag k="source" v="UMP-PL, ./UMP-Szczecin/src/BARLINEK.ulice.txt"/>
  </way>
  <way id="23622753" version="1" timestamp="2008-04-05T16:13:42Z" uid="30632" user="antblant" changeset="56221">
    <nd ref="255890233"/>
    <nd ref="255890234"/>
    <nd ref="255890093"/>
    <tag k="created_by" v="JOSM"/>
    <tag k="highway" v="residential"/>
    <tag k="name" v="Boczna"/>
    <tag k="source" v="UMP-PL, ./UMP-Szczecin/src/BARLINEK.ulice.txt"/>
  </way>
  <way id="23622754" version="1" timestamp="2008-04-05T16:13:42Z" uid="30632" user="antblant" changeset="56221">
    <nd ref="255890099"/>
    <nd ref="255890098"/>
    <nd ref="255890107"/>
    <nd ref="255890105"/>
    <nd ref="255890104"/>
    <nd ref="255890103"/>
    <nd ref="255890113"/>
    <nd ref="255890114"/>
    <nd ref="255890116"/>
    <nd ref="255890117"/>
    <nd ref="255890108"/>
    <nd ref="255890109"/>
    <nd ref="255890110"/>
    <nd ref="255890112"/>
    <nd ref="255890123"/>
    <nd ref="255890125"/>
    <tag k="created_by" v="JOSM"/>
    <tag k="highway" v="residential"/>
    <tag k="name" v="Sportowa"/>
    <tag k="source" v="UMP-PL, ./UMP-Szczecin/src/BARLINEK.ulice.txt"/>
  </way>
  <way id="23622755" version="1" timestamp="2008-04-05T16:13:43Z" uid="30632" user="antblant" changeset="56221">
    <nd ref="255890090"/>
    <nd ref="255890429"/>
    <tag k="created_by" v="JOSM"/>
    <tag k="highway" v="residential"/>
    <tag k="name" v="Chmielna"/>
    <tag k="source" v="UMP-PL, ./UMP-Szczecin/src/BARLINEK.ulice.txt"/>
  </way>
  <way id="23622756" version="1" timestamp="2008-04-05T16:13:43Z" uid="30632" user="antblant" changeset="56221">
    <nd ref="255890301"/>
    <nd ref="255890326"/>
    <nd ref="255890328"/>
    <nd ref="255890308"/>
    <nd ref="255890329"/>
    <nd ref="255890048"/>
    <tag k="created_by" v="JOSM"/>
    <tag k="highway" v="residential"/>
    <tag k="name" v="Mikołaja Kopernika"/>
    <tag k="source" v="UMP-PL, ./UMP-Szczecin/src/BARLINEK.ulice.txt"/>
  </way>
  <way id="23622757" version="1" timestamp="2008-04-05T16:13:43Z" uid="30632" user="antblant" changeset="56221">
    <nd ref="255890031"/>
    <nd ref="255890472"/>
    <nd ref="255890471"/>
    <nd ref="255890470"/>
    <nd ref="255890488"/>
    <nd ref="255890487"/>
    <nd ref="255890486"/>
    <tag k="created_by" v="JOSM"/>
    <tag k="highway" v="residential"/>
    <tag k="name" v="31 Stycznia"/>
    <tag k="source" v="UMP-PL, ./UMP-Szczecin/src/BARLINEK.ulice.txt"/>
  </way>
  <way id="23622758" version="1" timestamp="2008-04-05T16:13:43Z" uid="30632" user="antblant" changeset="56221">
    <nd ref="255890410"/>
    <nd ref="255890411"/>
    <nd ref="255890416"/>
    <nd ref="255890417"/>
    <nd ref="255890414"/>
    <nd ref="255890415"/>
    <nd ref="255890413"/>
    <tag k="created_by" v="JOSM"/>
    <tag k="highway" v="residential"/>
    <tag k="name" v="Kombatantów"/>
    <tag k="source" v="UMP-PL, ./UMP-Szczecin/src/BARLINEK.ulice.txt"/>
  </way>
  <way id="23622759" version="1" timestamp="2008-04-05T16:13:44Z" uid="30632" user="antblant" changeset="56221">
    <nd ref="255890067"/>
    <nd ref="255890069"/>
    <nd ref="255890075"/>
    <nd ref="255890076"/>
    <nd ref="255890072"/>
    <nd ref="255890074"/>
    <nd ref="255890080"/>
    <nd ref="255890081"/>
    <nd ref="255890067"/>
    <tag k="created_by" v="JOSM"/>
    <tag k="highway" v="0xc"/>
    <tag k="junction" v="roundabout"/>
    <tag k="source" v="UMP-PL, ./UMP-Szczecin/src/BARLINEK.ulice.txt"/>
  </way>
  <way id="23622759" version="2" timestamp="2008-04-05T16:17:26Z" uid="30632" user="antblant" changeset="56221">
    <nd ref="255890067"/>
    <nd ref="255890069"/>
    <nd ref="255890075"/>
    <nd ref="255890076"/>
    <nd ref="255890072"/>
    <nd ref="255890074"/>
    <nd ref="255890080"/>
    <nd ref="255890081"/>
    <nd ref="255890067"/>
    <tag k="created_by" v="Potlatch 0.8a"/>
    <tag k="highway" v="secondary"/>
    <tag k="junction" v="roundabout"/>
    <tag k="source" v="UMP-PL, ./UMP-Szczecin/src/BARLINEK.ulice.txt"/>
  </way>
  <way id="23622759" version="3" timestamp="2008-04-05T16:17:44Z" uid="30632" user="antblant" changeset="56221">
    <nd ref="255890067"/>
    <nd ref="255890069"/>
    <nd ref="255890075"/>
    <nd ref="255890076"/>
    <nd ref="255890072"/>
    <nd ref="255890074"/>
    <nd ref="255890080"/>
    <nd ref="255890081"/>
    <nd ref="255890067"/>
    <tag k="created_by" v="Potlatch 0.8a"/>
    <tag k="highway" v="secondary"/>
    <tag k="junction" v="roundabout"/>
    <tag k="oneway" v="yes"/>
    <tag k="ref" v="151"/>
    <tag k="source" v="UMP-PL, ./UMP-Szczecin/src/BARLINEK.ulice.txt"/>
  </way>
  <way id="23622760" version="1" timestamp="2008-04-05T16:13:44Z" uid="30632" user="antblant" changeset="56221">
    <nd ref="255890165"/>
    <nd ref="255890095"/>
    <nd ref="255890247"/>
    <nd ref="255890248"/>
    <nd ref="255890249"/>
    <nd ref="255890250"/>
    <nd ref="255890205"/>
    <tag k="created_by" v="JOSM"/>
    <tag k="highway" v="residential"/>
    <tag k="name" v="Lipowa"/>
    <tag k="source" v="UMP-PL, ./UMP-Szczecin/src/BARLINEK.ulice.txt"/>
  </way>
  <way id="23622761" version="1" timestamp="2008-04-05T16:13:44Z" uid="30632" user="antblant" changeset="56221">
    <nd ref="255890434"/>
    <nd ref="255890432"/>
    <nd ref="255890485"/>
    <nd ref="255890484"/>
    <tag k="created_by" v="JOSM"/>
    <tag k="highway" v="residential"/>
    <tag k="name" v="Sądowa"/>
    <tag k="source" v="UMP-PL, ./UMP-Szczecin/src/BARLINEK.ulice.txt"/>
  </way>
  <way id="23622762" version="1" timestamp="2008-04-05T16:13:44Z" uid="30632" user="antblant" changeset="56221">
    <nd ref="255890421"/>
    <nd ref="255890395"/>
    <nd ref="255890393"/>
    <nd ref="255890425"/>
    <tag k="created_by" v="JOSM"/>
    <tag k="highway" v="residential"/>
    <tag k="source" v="UMP-PL, ./UMP-Szczecin/src/BARLINEK.ulice.txt"/>
  </way>
  <way id="23622763" version="1" timestamp="2008-04-05T16:13:45Z" uid="30632" user="antblant" changeset="56221">
    <nd ref="255890437"/>
    <nd ref="255890083"/>
    <tag k="created_by" v="JOSM"/>
    <tag k="highway" v="residential"/>
    <tag k="name" v="Kozia"/>
    <tag k="source" v="UMP-PL, ./UMP-Szczecin/src/BARLINEK.ulice.txt"/>
  </way>
  <way id="23622764" version="1" timestamp="2008-04-05T16:13:45Z" uid="30632" user="antblant" changeset="56221">
    <nd ref="255890278"/>
    <nd ref="255890320"/>
    <nd ref="255890321"/>
    <nd ref="255890322"/>
    <nd ref="255890043"/>
    <tag k="created_by" v="JOSM"/>
    <tag k="highway" v="residential"/>
    <tag k="name" v="Wojciecha Kossaka"/>
    <tag k="source" v="UMP-PL, ./UMP-Szczecin/src/BARLINEK.ulice.txt"/>
  </way>
  <way id="23622765" version="1" timestamp="2008-04-05T16:13:45Z" uid="30632" user="antblant" changeset="56221">
    <nd ref="255890069"/>
    <nd ref="255890078"/>
    <nd ref="255890079"/>
    <nd ref="255890085"/>
    <nd ref="255890086"/>
    <nd ref="255890083"/>
    <nd ref="255890084"/>
    <nd ref="255890091"/>
    <nd ref="255890090"/>
    <nd ref="255890089"/>
    <nd ref="255890088"/>
    <nd ref="255890031"/>
    <tag k="created_by" v="JOSM"/>
    <tag k="highway" v="secondary"/>
    <tag k="name" v="Niepodległości"/>
    <tag k="ref" v="151"/>
    <tag k="source" v="UMP-PL, ./UMP-Szczecin/src/BARLINEK.ulice.txt"/>
  </way>
  <way id="23622766" version="1" timestamp="2008-04-05T16:13:45Z" uid="30632" user="antblant" changeset="56221">
    <nd ref="255890166"/>
    <nd ref="255890245"/>
    <nd ref="255890101"/>
    <tag k="created_by" v="JOSM"/>
    <tag k="highway" v="residential"/>
    <tag k="name" v="Adama Mickiewicza"/>
    <tag k="source" v="UMP-PL, ./UMP-Szczecin/src/BARLINEK.ulice.txt"/>
  </way>
  <way id="23622767" version="1" timestamp="2008-04-05T16:13:46Z" uid="30632" user="antblant" changeset="56221">
    <nd ref="255890085"/>
    <nd ref="255890475"/>
    <tag k="created_by" v="JOSM"/>
    <tag k="highway" v="residential"/>
    <tag k="name" v="Staromiejska"/>
    <tag k="source" v="UMP-PL, ./UMP-Szczecin/src/BARLINEK.ulice.txt"/>
  </way>
  <way id="23622768" version="1" timestamp="2008-04-05T16:13:46Z" uid="30632" user="antblant" changeset="56221">
    <nd ref="255890425"/>
    <nd ref="255890397"/>
    <nd ref="255890396"/>
    <nd ref="255890413"/>
    <tag k="created_by" v="JOSM"/>
    <tag k="highway" v="residential"/>
    <tag k="name" v="11 Listopada"/>
    <tag k="source" v="UMP-PL, ./UMP-Szczecin/src/BARLINEK.ulice.txt"/>
  </way>
  <way id="23622769" version="1" timestamp="2008-04-05T16:13:46Z" uid="30632" user="antblant" changeset="56221">
    <nd ref="255890431"/>
    <nd ref="255890435"/>
    <nd ref="255890434"/>
    <tag k="created_by" v="JOSM"/>
    <tag k="highway" v="residential"/>
    <tag k="name" v="Wylotowa"/>
    <tag k="source" v="UMP-PL, ./UMP-Szczecin/src/BARLINEK.ulice.txt"/>
  </way>
  <way id="23622770" version="1" timestamp="2008-04-05T16:13:46Z" uid="30632" user="antblant" changeset="56221">
    <nd ref="255890322"/>
    <nd ref="255890324"/>
    <nd ref="255890373"/>
    <nd ref="255890329"/>
    <tag k="created_by" v="JOSM"/>
    <tag k="highway" v="residential"/>
    <tag k="name" v="Wojciecha Kossaka"/>
    <tag k="source" v="UMP-PL, ./UMP-Szczecin/src/BARLINEK.ulice.txt"/>
  </way>
  <way id="23622771" version="1" timestamp="2008-04-05T16:13:47Z" uid="30632" user="antblant" changeset="56221">
    <nd ref="255890084"/>
    <nd ref="255890441"/>
    <tag k="created_by" v="JOSM"/>
    <tag k="highway" v="residential"/>
    <tag k="name" v="Różana"/>
    <tag k="source" v="UMP-PL, ./UMP-Szczecin/src/BARLINEK.ulice.txt"/>
  </way>
  <way id="23622772" version="1" timestamp="2008-04-05T16:13:47Z" uid="30632" user="antblant" changeset="56221">
    <nd ref="255890302"/>
    <nd ref="255890301"/>
    <tag k="created_by" v="JOSM"/>
    <tag k="highway" v="residential"/>
    <tag k="source" v="UMP-PL, ./UMP-Szczecin/src/BARLINEK.ulice.txt"/>
  </way>
  <way id="23622773" version="1" timestamp="2008-04-05T16:13:47Z" uid="30632" user="antblant" changeset="56221">
    <nd ref="255890435"/>
    <nd ref="255890483"/>
    <nd ref="255890481"/>
    <nd ref="255890480"/>
    <tag k="created_by" v="JOSM"/>
    <tag k="highway" v="residential"/>
    <tag k="name" v="Grodzka"/>
    <tag k="source" v="UMP-PL, ./UMP-Szczecin/src/BARLINEK.ulice.txt"/>
  </way>
  <way id="23622774" version="1" timestamp="2008-04-05T16:13:47Z" uid="30632" user="antblant" changeset="56221">
    <nd ref="255890380"/>
    <nd ref="255890377"/>
    <nd ref="255890378"/>
    <nd ref="255890052"/>
    <tag k="created_by" v="JOSM"/>
    <tag k="highway" v="residential"/>
    <tag k="name" v="Stanisława Wyspiańskiego"/>
    <tag k="source" v="UMP-PL, ./UMP-Szczecin/src/BARLINEK.ulice.txt"/>
  </way>
  <way id="23622775" version="1" timestamp="2008-04-05T16:13:47Z" uid="30632" user="antblant" changeset="56221">
    <nd ref="255890081"/>
    <nd ref="255890182"/>
    <nd ref="255890067"/>
    <tag k="created_by" v="JOSM"/>
    <tag k="highway" v="secondary"/>
    <tag k="name" v="1 Maja"/>
    <tag k="ref" v="151"/>
    <tag k="source" v="UMP-PL, ./UMP-Szczecin/src/BARLINEK.ulice.txt"/>
  </way>
  <way id="23622776" version="1" timestamp="2008-04-05T16:13:47Z" uid="30632" user="antblant" changeset="56221">
    <nd ref="255890039"/>
    <nd ref="255890041"/>
    <nd ref="255890042"/>
    <nd ref="255890043"/>
    <nd ref="255890044"/>
    <nd ref="255890046"/>
    <nd ref="255890048"/>
    <nd ref="255890047"/>
    <nd ref="255890051"/>
    <nd ref="255890049"/>
    <nd ref="255890053"/>
    <nd ref="255890052"/>
    <nd ref="255890056"/>
    <nd ref="255890055"/>
    <nd ref="255890058"/>
    <tag k="created_by" v="JOSM"/>
    <tag k="highway" v="tertiary"/>
    <tag k="name" v="Szosowa"/>
    <tag k="source" v="UMP-PL, ./UMP-Szczecin/src/BARLINEK.ulice.txt"/>
  </way>
  <way id="23622777" version="1" timestamp="2008-04-05T16:13:48Z" uid="30632" user="antblant" changeset="56221">
    <nd ref="255890436"/>
    <nd ref="255890086"/>
    <tag k="created_by" v="JOSM"/>
    <tag k="highway" v="residential"/>
    <tag k="name" v="Odrzańska"/>
    <tag k="source" v="UMP-PL, ./UMP-Szczecin/src/BARLINEK.ulice.txt"/>
  </way>
  <way id="23622778" version="1" timestamp="2008-04-05T16:13:48Z" uid="30632" user="antblant" changeset="56221">
    <nd ref="255890304"/>
    <nd ref="255890303"/>
    <tag k="created_by" v="JOSM"/>
    <tag k="highway" v="residential"/>
    <tag k="source" v="UMP-PL, ./UMP-Szczecin/src/BARLINEK.ulice.txt"/>
  </way>
  <way id="23622779" version="1" timestamp="2008-04-05T16:13:48Z" uid="30632" user="antblant" changeset="56221">
    <nd ref="255890090"/>
    <nd ref="255890484"/>
    <nd ref="255890480"/>
    <nd ref="255890534"/>
    <tag k="created_by" v="JOSM"/>
    <tag k="highway" v="residential"/>
    <tag k="name" v="Armii Krajowej"/>
    <tag k="source" v="UMP-PL, ./UMP-Szczecin/src/BARLINEK.ulice.txt"/>
  </way>
  <way id="23622780" version="1" timestamp="2008-04-05T16:13:48Z" uid="30632" user="antblant" changeset="56221">
    <nd ref="255890386"/>
    <nd ref="255890380"/>
    <nd ref="255890381"/>
    <nd ref="255890056"/>
    <tag k="created_by" v="JOSM"/>
    <tag k="highway" v="residential"/>
    <tag k="name" v="Stanisława Moniuszki"/>
    <tag k="source" v="UMP-PL, ./UMP-Szczecin/src/BARLINEK.ulice.txt"/>
  </way>
  <way id="23622781" version="1" timestamp="2008-04-05T16:13:48Z" uid="30632" user="antblant" changeset="56221">
    <nd ref="255890100"/>
    <nd ref="255890203"/>
    <nd ref="255890202"/>
    <nd ref="255890242"/>
    <nd ref="255890243"/>
    <nd ref="255890244"/>
    <nd ref="255890169"/>
    <tag k="created_by" v="JOSM"/>
    <tag k="highway" v="residential"/>
    <tag k="name" v="Juliusza Słowackiego"/>
    <tag k="source" v="UMP-PL, ./UMP-Szczecin/src/BARLINEK.ulice.txt"/>
  </way>
  <way id="23622783" version="1" timestamp="2008-04-05T16:13:49Z" uid="30632" user="antblant" changeset="56221">
    <nd ref="255890057"/>
    <nd ref="255890061"/>
    <nd ref="255890060"/>
    <nd ref="255890063"/>
    <nd ref="255890062"/>
    <nd ref="255890066"/>
    <nd ref="255890065"/>
    <nd ref="255890070"/>
    <nd ref="255890071"/>
    <tag k="created_by" v="JOSM"/>
    <tag k="highway" v="tertiary"/>
    <tag k="name" v="Myśliborska"/>
    <tag k="source" v="UMP-PL, ./UMP-Szczecin/src/BARLINEK.ulice.txt"/>
  </way>
  <way id="23622784" version="1" timestamp="2008-04-05T16:13:49Z" uid="30632" user="antblant" changeset="56221">
    <nd ref="255890536"/>
    <nd ref="255890537"/>
    <nd ref="255890538"/>
    <nd ref="255890529"/>
    <nd ref="255890531"/>
    <tag k="created_by" v="JOSM"/>
    <tag k="highway" v="residential"/>
    <tag k="name" v="Zaułek"/>
    <tag k="source" v="UMP-PL, ./UMP-Szczecin/src/BARLINEK.ulice.txt"/>
  </way>
  <way id="23622785" version="1" timestamp="2008-04-05T16:13:49Z" uid="30632" user="antblant" changeset="56221">
    <nd ref="255890382"/>
    <nd ref="255890375"/>
    <nd ref="255890376"/>
    <nd ref="255890412"/>
    <nd ref="255890413"/>
    <tag k="created_by" v="JOSM"/>
    <tag k="highway" v="residential"/>
    <tag k="source" v="UMP-PL, ./UMP-Szczecin/src/BARLINEK.ulice.txt"/>
  </way>
  <way id="23622786" version="1" timestamp="2008-04-05T16:13:49Z" uid="30632" user="antblant" changeset="56221">
    <nd ref="255890444"/>
    <nd ref="255890442"/>
    <nd ref="255890446"/>
    <tag k="created_by" v="JOSM"/>
    <tag k="highway" v="residential"/>
    <tag k="name" v="Podwale"/>
    <tag k="source" v="UMP-PL, ./UMP-Szczecin/src/BARLINEK.ulice.txt"/>
  </way>
  <way id="23622787" version="1" timestamp="2008-04-05T16:13:50Z" uid="30632" user="antblant" changeset="56221">
    <nd ref="255890294"/>
    <nd ref="255890303"/>
    <nd ref="255890302"/>
    <nd ref="255890292"/>
    <nd ref="255890296"/>
    <nd ref="255890051"/>
    <tag k="created_by" v="JOSM"/>
    <tag k="highway" v="residential"/>
    <tag k="name" v="Tadeusza Kościuszki"/>
    <tag k="source" v="UMP-PL, ./UMP-Szczecin/src/BARLINEK.ulice.txt"/>
  </way>
  <way id="23622788" version="1" timestamp="2008-04-05T16:13:50Z" uid="30632" user="antblant" changeset="56221">
    <nd ref="255890024"/>
    <nd ref="255890026"/>
    <nd ref="255890027"/>
    <nd ref="255890028"/>
    <nd ref="255890030"/>
    <tag k="created_by" v="JOSM"/>
    <tag k="highway" v="residential"/>
    <tag k="source" v="UMP-PL, ./UMP-Szczecin/src/BARLINEK.ulice.txt"/>
  </way>
  <way id="23622789" version="1" timestamp="2008-04-05T16:13:50Z" uid="30632" user="antblant" changeset="56221">
    <nd ref="255890214"/>
    <nd ref="255890194"/>
    <nd ref="255890198"/>
    <nd ref="255890197"/>
    <nd ref="255890201"/>
    <nd ref="255890199"/>
    <tag k="created_by" v="JOSM"/>
    <tag k="highway" v="residential"/>
    <tag k="name" v="Władysława Łokietka"/>
    <tag k="source" v="UMP-PL, ./UMP-Szczecin/src/BARLINEK.ulice.txt"/>
  </way>
  <way id="23622790" version="1" timestamp="2008-04-05T16:13:50Z" uid="30632" user="antblant" changeset="56221">
    <nd ref="255890507"/>
    <nd ref="255890431"/>
    <nd ref="255890532"/>
    <nd ref="255890536"/>
    <nd ref="255890534"/>
    <nd ref="255890533"/>
    <nd ref="255890471"/>
    <tag k="created_by" v="JOSM"/>
    <tag k="highway" v="residential"/>
    <tag k="name" v="Jeziorna"/>
    <tag k="source" v="UMP-PL, ./UMP-Szczecin/src/BARLINEK.ulice.txt"/>
  </way>
  <way id="23622791" version="1" timestamp="2008-04-05T16:13:50Z" uid="30632" user="antblant" changeset="56221">
    <nd ref="255890378"/>
    <nd ref="255890390"/>
    <tag k="created_by" v="JOSM"/>
    <tag k="highway" v="residential"/>
    <tag k="source" v="UMP-PL, ./UMP-Szczecin/src/BARLINEK.ulice.txt"/>
  </way>
  <way id="23622792" version="1" timestamp="2008-04-05T16:13:51Z" uid="30632" user="antblant" changeset="56221">
    <nd ref="255890091"/>
    <nd ref="255890440"/>
    <tag k="created_by" v="JOSM"/>
    <tag k="highway" v="residential"/>
    <tag k="name" v="Armii Polskiej"/>
    <tag k="source" v="UMP-PL, ./UMP-Szczecin/src/BARLINEK.ulice.txt"/>
  </way>
  <way id="23622793" version="1" timestamp="2008-04-05T16:13:51Z" uid="30632" user="antblant" changeset="56221">
    <nd ref="255890295"/>
    <nd ref="255890336"/>
    <nd ref="255890340"/>
    <nd ref="255890350"/>
    <nd ref="255890353"/>
    <nd ref="255890330"/>
    <nd ref="255890331"/>
    <tag k="created_by" v="JOSM"/>
    <tag k="highway" v="residential"/>
    <tag k="name" v="Ogrodowa"/>
    <tag k="source" v="UMP-PL, ./UMP-Szczecin/src/BARLINEK.ulice.txt"/>
  </way>
  <way id="23622793" version="2" timestamp="2011-04-11T20:55:02Z" uid="23543" user="jkjk" changeset="7837485">
    <nd ref="255890295"/>
    <nd ref="255890336"/>
    <nd ref="255890340"/>
    <nd ref="255890350"/>
    <nd ref="255890353"/>
    <nd ref="1241295981"/>
    <nd ref="255890330"/>
    <nd ref="255890331"/>
    <tag k="highway" v="residential"/>
    <tag k="name" v="Ogrodowa"/>
    <tag k="source" v="UMP-PL, ./UMP-Szczecin/src/BARLINEK.ulice.txt"/>
  </way>
  <way id="23622794" version="1" timestamp="2008-04-05T16:13:51Z" uid="30632" user="antblant" changeset="56221">
    <nd ref="255890031"/>
    <nd ref="255890032"/>
    <nd ref="255890036"/>
    <nd ref="255890037"/>
    <nd ref="255890038"/>
    <nd ref="255890039"/>
    <tag k="created_by" v="JOSM"/>
    <tag k="highway" v="secondary"/>
    <tag k="name" v="31 Stycznia"/>
    <tag k="ref" v="154"/>
    <tag k="source" v="UMP-PL, ./UMP-Szczecin/src/BARLINEK.ulice.txt"/>
  </way>
  <way id="23622794" version="3" timestamp="2011-04-11T20:55:32Z" uid="23543" user="jkjk" changeset="7837485">
    <nd ref="255890031"/>
    <nd ref="534612044"/>
    <nd ref="255890032"/>
    <nd ref="255890036"/>
    <nd ref="255890037"/>
    <nd ref="1241295552"/>
    <nd ref="255890038"/>
    <nd ref="255890039"/>
    <tag k="highway" v="secondary"/>
    <tag k="name" v="31 Stycznia"/>
    <tag k="ref" v="154"/>
    <tag k="source" v="UMP-PL, ./UMP-Szczecin/src/BARLINEK.ulice.txt"/>
  </way>
  <way id="23622795" version="1" timestamp="2008-04-05T16:13:51Z" uid="30632" user="antblant" changeset="56221">
    <nd ref="255890207"/>
    <nd ref="255890214"/>
    <nd ref="255890210"/>
    <nd ref="255890231"/>
    <nd ref="255890226"/>
    <nd ref="255890195"/>
    <nd ref="255890105"/>
    <tag k="created_by" v="JOSM"/>
    <tag k="highway" v="residential"/>
    <tag k="name" v="Stefana Flukowskiego"/>
    <tag k="source" v="UMP-PL, ./UMP-Szczecin/src/BARLINEK.ulice.txt"/>
  </way>
  <way id="23622796" version="1" timestamp="2008-04-05T16:13:51Z" uid="30632" user="antblant" changeset="56221">
    <nd ref="255890180"/>
    <nd ref="255890179"/>
    <nd ref="255890178"/>
    <nd ref="255890177"/>
    <nd ref="255890175"/>
    <nd ref="255890174"/>
    <nd ref="255890193"/>
    <nd ref="255890192"/>
    <nd ref="255890190"/>
    <nd ref="255890189"/>
    <nd ref="255890188"/>
    <nd ref="255890187"/>
    <nd ref="255890185"/>
    <nd ref="255890184"/>
    <nd ref="255890099"/>
    <nd ref="255890206"/>
    <nd ref="255890205"/>
    <nd ref="255890208"/>
    <nd ref="255890072"/>
    <tag k="created_by" v="JOSM"/>
    <tag k="highway" v="secondary"/>
    <tag k="name" v="Strzelecka"/>
    <tag k="ref" v="156"/>
    <tag k="source" v="UMP-PL, ./UMP-Szczecin/src/BARLINEK.ulice.txt"/>
  </way>
  <way id="23622797" version="1" timestamp="2008-04-05T16:13:52Z" uid="30632" user="antblant" changeset="56221">
    <nd ref="255890088"/>
    <nd ref="255890445"/>
    <nd ref="255890449"/>
    <nd ref="255890465"/>
    <tag k="created_by" v="JOSM"/>
    <tag k="highway" v="residential"/>
    <tag k="name" v="Górna"/>
    <tag k="source" v="UMP-PL, ./UMP-Szczecin/src/BARLINEK.ulice.txt"/>
  </way>
  <way id="23622798" version="1" timestamp="2008-04-05T16:13:52Z" uid="30632" user="antblant" changeset="56221">
    <nd ref="255890183"/>
    <nd ref="255890258"/>
    <nd ref="255890257"/>
    <nd ref="255890285"/>
    <nd ref="255890286"/>
    <nd ref="255890282"/>
    <nd ref="255890446"/>
    <nd ref="255890284"/>
    <nd ref="255890290"/>
    <nd ref="255890291"/>
    <nd ref="255890287"/>
    <nd ref="255890289"/>
    <nd ref="255890275"/>
    <nd ref="255890276"/>
    <nd ref="255890272"/>
    <nd ref="255890273"/>
    <nd ref="255890280"/>
    <nd ref="255890281"/>
    <tag k="created_by" v="JOSM"/>
    <tag k="highway" v="residential"/>
    <tag k="name" v="Tunelowa"/>
    <tag k="source" v="UMP-PL, ./UMP-Szczecin/src/BARLINEK.ulice.txt"/>
  </way>
  <way id="23622799" version="1" timestamp="2008-04-05T16:13:52Z" uid="30632" user="antblant" changeset="56221">
    <nd ref="255890474"/>
    <nd ref="255890549"/>
    <nd ref="255890490"/>
    <tag k="created_by" v="JOSM"/>
    <tag k="highway" v="residential"/>
    <tag k="name" v="Kościelna"/>
    <tag k="source" v="UMP-PL, ./UMP-Szczecin/src/BARLINEK.ulice.txt"/>
  </way>
  <way id="23622800" version="1" timestamp="2008-04-05T16:13:52Z" uid="30632" user="antblant" changeset="56221">
    <nd ref="255890369"/>
    <nd ref="255890391"/>
    <nd ref="255890392"/>
    <nd ref="255890389"/>
    <tag k="created_by" v="JOSM"/>
    <tag k="highway" v="residential"/>
    <tag k="source" v="UMP-PL, ./UMP-Szczecin/src/BARLINEK.ulice.txt"/>
  </way>
  <way id="23622801" version="1" timestamp="2008-04-05T16:13:53Z" uid="30632" user="antblant" changeset="56221">
    <nd ref="255890167"/>
    <nd ref="255890164"/>
    <nd ref="255890165"/>
    <nd ref="255890183"/>
    <nd ref="255890182"/>
    <tag k="created_by" v="JOSM"/>
    <tag k="highway" v="secondary"/>
    <tag k="name" v="1 Maja"/>
    <tag k="ref" v="151"/>
    <tag k="source" v="UMP-PL, ./UMP-Szczecin/src/BARLINEK.ulice.txt"/>
  </way>
  <way id="23622802" version="1" timestamp="2008-04-05T16:13:53Z" uid="30632" user="antblant" changeset="56221">
    <nd ref="255890089"/>
    <nd ref="255890465"/>
    <tag k="created_by" v="JOSM"/>
    <tag k="highway" v="residential"/>
    <tag k="name" v="Żabia"/>
    <tag k="source" v="UMP-PL, ./UMP-Szczecin/src/BARLINEK.ulice.txt"/>
  </way>
  <way id="23622803" version="1" timestamp="2008-04-05T16:13:53Z" uid="30632" user="antblant" changeset="56221">
    <nd ref="255890277"/>
    <nd ref="255890278"/>
    <tag k="created_by" v="JOSM"/>
    <tag k="highway" v="residential"/>
    <tag k="name" v="Jana Kasprowicza"/>
    <tag k="source" v="UMP-PL, ./UMP-Szczecin/src/BARLINEK.ulice.txt"/>
  </way>
  <way id="23622804" version="1" timestamp="2008-04-05T16:13:53Z" uid="30632" user="antblant" changeset="56221">
    <nd ref="255890079"/>
    <nd ref="255890476"/>
    <nd ref="255890551"/>
    <tag k="created_by" v="JOSM"/>
    <tag k="highway" v="residential"/>
    <tag k="name" v="Szkolna"/>
    <tag k="source" v="UMP-PL, ./UMP-Szczecin/src/BARLINEK.ulice.txt"/>
  </way>
  <way id="23622805" version="1" timestamp="2008-04-05T16:13:53Z" uid="30632" user="antblant" changeset="56221">
    <nd ref="255890328"/>
    <nd ref="255890292"/>
    <tag k="created_by" v="JOSM"/>
    <tag k="highway" v="residential"/>
    <tag k="name" v="Działkowa"/>
    <tag k="source" v="UMP-PL, ./UMP-Szczecin/src/BARLINEK.ulice.txt"/>
  </way>
  <way id="23622806" version="1" timestamp="2008-04-05T16:13:54Z" uid="30632" user="antblant" changeset="56221">
    <nd ref="255890160"/>
    <nd ref="255890156"/>
    <nd ref="255890157"/>
    <nd ref="255890154"/>
    <nd ref="255890155"/>
    <nd ref="255890171"/>
    <nd ref="255890173"/>
    <nd ref="255890169"/>
    <nd ref="255890170"/>
    <nd ref="255890166"/>
    <nd ref="255890167"/>
    <tag k="created_by" v="JOSM"/>
    <tag k="highway" v="secondary"/>
    <tag k="name" v="Pełczycka"/>
    <tag k="ref" v="151"/>
    <tag k="source" v="UMP-PL, ./UMP-Szczecin/src/BARLINEK.ulice.txt"/>
  </way>
  <way id="23622807" version="1" timestamp="2008-04-05T16:13:54Z" uid="30632" user="antblant" changeset="56221">
    <nd ref="255890208"/>
    <nd ref="255890552"/>
    <nd ref="255890553"/>
    <nd ref="255890544"/>
    <nd ref="255890546"/>
    <nd ref="255890547"/>
    <nd ref="255890548"/>
    <nd ref="255890507"/>
    <tag k="created_by" v="JOSM"/>
    <tag k="highway" v="residential"/>
    <tag k="name" v="Parkowa"/>
    <tag k="source" v="UMP-PL, ./UMP-Szczecin/src/BARLINEK.ulice.txt"/>
  </way>
  <way id="23622808" version="1" timestamp="2008-04-05T16:13:54Z" uid="30632" user="antblant" changeset="56221">
    <nd ref="255890049"/>
    <nd ref="255890390"/>
    <nd ref="255890304"/>
    <nd ref="255890387"/>
    <nd ref="255890388"/>
    <nd ref="255890385"/>
    <nd ref="255890386"/>
    <nd ref="255890382"/>
    <nd ref="255890383"/>
    <tag k="created_by" v="JOSM"/>
    <tag k="highway" v="residential"/>
    <tag k="name" v="Fryderyka Chopina"/>
    <tag k="source" v="UMP-PL, ./UMP-Szczecin/src/BARLINEK.ulice.txt"/>
  </way>
  <way id="23622810" version="1" timestamp="2008-04-05T16:13:54Z" uid="30632" user="antblant" changeset="56221">
    <nd ref="255890436"/>
    <nd ref="255890494"/>
    <nd ref="255890495"/>
    <nd ref="255890078"/>
    <nd ref="255890491"/>
    <nd ref="255890493"/>
    <tag k="created_by" v="JOSM"/>
    <tag k="highway" v="residential"/>
    <tag k="name" v="Górna"/>
    <tag k="source" v="UMP-PL, ./UMP-Szczecin/src/BARLINEK.ulice.txt"/>
  </way>
  <way id="23622811" version="1" timestamp="2008-04-05T16:13:55Z" uid="30632" user="antblant" changeset="56221">
    <nd ref="255890280"/>
    <nd ref="255890316"/>
    <nd ref="255890311"/>
    <nd ref="255890273"/>
    <tag k="created_by" v="JOSM"/>
    <tag k="highway" v="residential"/>
    <tag k="name" v="Władysława Jagiełły"/>
    <tag k="source" v="UMP-PL, ./UMP-Szczecin/src/BARLINEK.ulice.txt"/>
  </way>
  <way id="23622812" version="1" timestamp="2008-04-05T16:13:55Z" uid="30632" user="antblant" changeset="56221">
    <nd ref="255890031"/>
    <nd ref="255890402"/>
    <nd ref="255890150"/>
    <nd ref="255890148"/>
    <nd ref="255890152"/>
    <nd ref="255890151"/>
    <nd ref="255890145"/>
    <nd ref="255890143"/>
    <nd ref="255890147"/>
    <nd ref="255890146"/>
    <nd ref="255890161"/>
    <nd ref="255890162"/>
    <nd ref="255890057"/>
    <nd ref="255890158"/>
    <tag k="created_by" v="JOSM"/>
    <tag k="highway" v="secondary"/>
    <tag k="name" v="Gorzowska"/>
    <tag k="ref" v="151"/>
    <tag k="source" v="UMP-PL, ./UMP-Szczecin/src/BARLINEK.ulice.txt"/>
  </way>
  <way id="23622812" version="2" timestamp="2009-11-02T11:43:53Z" uid="30632" user="antblant" changeset="3015603">
    <nd ref="255890031"/>
    <nd ref="255890402"/>
    <nd ref="255890150"/>
    <nd ref="255890148"/>
    <nd ref="255890152"/>
    <nd ref="255890151"/>
    <nd ref="255890145"/>
    <nd ref="255890143"/>
    <nd ref="255890147"/>
    <nd ref="255890146"/>
    <nd ref="255890161"/>
    <nd ref="255890162"/>
    <nd ref="255890057"/>
    <nd ref="255890158"/>
    <tag k="highway" v="secondary"/>
    <tag k="name" v="Gorzowska"/>
    <tag k="ref" v="151"/>
    <tag k="source" v="UMP-PL, ./UMP-Szczecin/src/BARLINEK.ulice.txt"/>
  </way>
  <way id="23622813" version="1" timestamp="2008-04-05T16:13:55Z" uid="30632" user="antblant" changeset="56221">
    <nd ref="255890103"/>
    <nd ref="255890516"/>
    <nd ref="255890514"/>
    <nd ref="255890518"/>
    <tag k="created_by" v="JOSM"/>
    <tag k="highway" v="residential"/>
    <tag k="name" v="Poziomkowa"/>
    <tag k="source" v="UMP-PL, ./UMP-Szczecin/src/BARLINEK.ulice.txt"/>
  </way>
  <way id="23622814" version="1" timestamp="2008-04-05T16:13:55Z" uid="30632" user="antblant" changeset="56221">
    <nd ref="255890372"/>
    <nd ref="255890047"/>
    <tag k="created_by" v="JOSM"/>
    <tag k="highway" v="residential"/>
    <tag k="source" v="UMP-PL, ./UMP-Szczecin/src/BARLINEK.ulice.txt"/>
  </way>
  <way id="23622815" version="1" timestamp="2008-04-05T16:13:56Z" uid="30632" user="antblant" changeset="56221">
    <nd ref="255890465"/>
    <nd ref="255890429"/>
    <nd ref="255890447"/>
    <nd ref="255890497"/>
    <nd ref="255890440"/>
    <nd ref="255890498"/>
    <nd ref="255890441"/>
    <nd ref="255890437"/>
    <nd ref="255890436"/>
    <tag k="created_by" v="JOSM"/>
    <tag k="highway" v="residential"/>
    <tag k="name" v="Górna"/>
    <tag k="source" v="UMP-PL, ./UMP-Szczecin/src/BARLINEK.ulice.txt"/>
  </way>
  <way id="23622816" version="1" timestamp="2008-04-05T16:13:56Z" uid="30632" user="antblant" changeset="56221">
    <nd ref="255890272"/>
    <nd ref="255890319"/>
    <nd ref="255890317"/>
    <nd ref="255890307"/>
    <nd ref="255890306"/>
    <nd ref="255890310"/>
    <nd ref="255890308"/>
    <tag k="created_by" v="JOSM"/>
    <tag k="highway" v="residential"/>
    <tag k="name" v="Podgórna"/>
    <tag k="source" v="UMP-PL, ./UMP-Szczecin/src/BARLINEK.ulice.txt"/>
  </way>
</osm>
