<?xml version='1.0' encoding='UTF-8'?>
<osm version="0.6" generator="libosmium/2.20.0">
  <way id="23660025" version="1" timestamp="2008-04-07T22:47:44Z" uid="30201" user="rrankin" changeset="81433">
    <nd ref="256340959"/>
    <nd ref="256340960"/>
    <nd ref="256340961"/>
    <nd ref="256340962"/>
    <nd ref="256340959"/>
    <tag k="created_by" v="JOSM"/>
    <tag k="natural" v="land"/>
    <tag k="source" v="yahoo"/>
  </way>
  <way id="23660026" version="1" timestamp="2008-04-07T22:47:45Z" uid="30201" user="rrankin" changeset="81433">
    <nd ref="256340963"/>
    <nd ref="256340964"/>
    <nd ref="256340965"/>
    <nd ref="256340966"/>
    <nd ref="256340967"/>
    <nd ref="256340963"/>
    <tag k="created_by" v="JOSM"/>
    <tag k="natural" v="land"/>
    <tag k="source" v="yahoo"/>
  </way>
  <way id="23660205" version="1" timestamp="2008-04-07T23:04:59Z" uid="30201" user="rrankin" changeset="81433">
    <nd ref="33605660"/>
    <nd ref="33558633"/>
    <nd ref="33607007"/>
    <nd ref="33564682"/>
    <nd ref="33607842"/>
    <nd ref="33565628"/>
    <nd ref="33566267"/>
    <nd ref="33609750"/>
    <nd ref="33566927"/>
    <nd ref="33611736"/>
    <nd ref="33568614"/>
    <nd ref="33612686"/>
    <nd ref="33600241"/>
    <nd ref="33613148"/>
    <nd ref="33603524"/>
    <nd ref="33555551"/>
    <nd ref="33605991"/>
    <nd ref="33559181"/>
    <nd ref="33607229"/>
    <nd ref="241894150"/>
    <nd ref="33565131"/>
    <nd ref="33608171"/>
    <nd ref="33566000"/>
    <nd ref="33566494"/>
    <nd ref="33611200"/>
    <nd ref="33567717"/>
    <nd ref="33611883"/>
    <nd ref="33568709"/>
    <nd ref="33612827"/>
    <nd ref="33599417"/>
    <nd ref="33612679"/>
    <nd ref="33600233"/>
    <nd ref="33613538"/>
    <nd ref="33554859"/>
    <nd ref="33604416"/>
    <nd ref="33556631"/>
    <nd ref="33606293"/>
    <nd ref="33559684"/>
    <nd ref="33607358"/>
    <nd ref="33565261"/>
    <nd ref="33608377"/>
    <nd ref="33608949"/>
    <nd ref="33566834"/>
    <nd ref="33611634"/>
    <nd ref="33568471"/>
    <nd ref="33612101"/>
    <nd ref="33600131"/>
    <nd ref="33613353"/>
    <nd ref="33554768"/>
    <nd ref="33604573"/>
    <nd ref="33557229"/>
    <nd ref="33606459"/>
    <nd ref="33560110"/>
    <nd ref="33607512"/>
    <nd ref="33565386"/>
    <nd ref="33608783"/>
    <nd ref="33609018"/>
    <nd ref="33566632"/>
    <nd ref="33611143"/>
    <nd ref="33568204"/>
    <nd ref="33611876"/>
    <nd ref="33568716"/>
    <nd ref="33612483"/>
    <nd ref="33600053"/>
    <nd ref="33613192"/>
    <nd ref="33601931"/>
    <nd ref="33603342"/>
    <nd ref="33555326"/>
    <nd ref="33605884"/>
    <nd ref="33558974"/>
    <nd ref="33607198"/>
    <nd ref="33565118"/>
    <nd ref="33608071"/>
    <nd ref="33565882"/>
    <nd ref="33566276"/>
    <nd ref="33608107"/>
    <nd ref="33565130"/>
    <nd ref="33607242"/>
    <nd ref="33557704"/>
    <nd ref="33605116"/>
    <nd ref="33554933"/>
    <nd ref="33613595"/>
    <nd ref="33600407"/>
    <nd ref="33612823"/>
    <nd ref="33568745"/>
    <nd ref="33611907"/>
    <nd ref="33616960"/>
    <nd ref="33616959"/>
    <nd ref="33567788"/>
    <nd ref="33611317"/>
    <nd ref="33616957"/>
    <nd ref="33616958"/>
    <nd ref="33566475"/>
    <nd ref="33565987"/>
    <nd ref="33608686"/>
    <nd ref="33565428"/>
    <nd ref="33607451"/>
    <nd ref="33560159"/>
    <nd ref="33606977"/>
    <nd ref="33558206"/>
    <nd ref="33605654"/>
    <nd ref="33555090"/>
    <nd ref="33602613"/>
    <nd ref="33601238"/>
    <nd ref="33613037"/>
    <nd ref="33599109"/>
    <nd ref="33612471"/>
    <nd ref="33568468"/>
    <nd ref="33611643"/>
    <nd ref="33566836"/>
    <nd ref="33608991"/>
    <nd ref="33608573"/>
    <nd ref="33565328"/>
    <nd ref="33607441"/>
    <nd ref="33558831"/>
    <nd ref="33605705"/>
    <nd ref="33555188"/>
    <nd ref="33602636"/>
    <nd ref="33601591"/>
    <nd ref="33613089"/>
    <nd ref="33599515"/>
    <nd ref="33612218"/>
    <nd ref="33568681"/>
    <nd ref="33611854"/>
    <nd ref="33567632"/>
    <nd ref="33608996"/>
    <nd ref="33566493"/>
    <nd ref="33566064"/>
    <nd ref="33608206"/>
    <nd ref="33565155"/>
    <nd ref="33607728"/>
    <nd ref="33564408"/>
    <nd ref="33557681"/>
    <nd ref="33604757"/>
    <nd ref="33554845"/>
    <nd ref="33613556"/>
    <nd ref="33600262"/>
    <nd ref="33612670"/>
    <nd ref="33568596"/>
    <nd ref="33611471"/>
    <nd ref="33568373"/>
    <nd ref="33609573"/>
    <nd ref="33566791"/>
    <nd ref="33565508"/>
    <nd ref="33608860"/>
    <nd ref="33565245"/>
    <nd ref="33606075"/>
    <nd ref="33559556"/>
    <nd ref="33606469"/>
    <nd ref="33556372"/>
    <nd ref="33613270"/>
    <nd ref="33602468"/>
    <nd ref="33612452"/>
    <tag k="created_by" v="Potlatch 0.8a"/>
    <tag k="name" v="Sussex Inlet"/>
    <tag k="natural" v="coastline"/>
    <tag k="source" v="Dshpak_landsat_lakes"/>
  </way>
  <way id="23660205" version="2" timestamp="2008-04-08T06:40:41Z" uid="30201" user="rrankin" changeset="82618"/>
  <way id="23660272" version="6" timestamp="2010-07-24T11:29:34Z" uid="16922" user="amai" changeset="5303144">
    <nd ref="256340829"/>
    <nd ref="256343372"/>
    <nd ref="256343373"/>
    <nd ref="256343374"/>
    <nd ref="256343375"/>
    <nd ref="831175313"/>
    <nd ref="269278438"/>
    <nd ref="256343376"/>
    <nd ref="256343377"/>
    <nd ref="256343379"/>
    <tag k="highway" v="secondary"/>
  </way>
  <way id="23660314" version="1" timestamp="2008-04-07T23:12:43Z" uid="30632" user="antblant" changeset="89404">
    <nd ref="256343661"/>
    <nd ref="256343731"/>
    <nd ref="256343719"/>
    <nd ref="256343724"/>
    <nd ref="256343708"/>
    <nd ref="256343713"/>
    <nd ref="256343769"/>
    <nd ref="256343765"/>
    <tag k="created_by" v="JOSM"/>
    <tag k="highway" v="residential"/>
    <tag k="name" v="Romualda Traugutta"/>
    <tag k="source" v="UMP-PL, ./UMP-Szczecin/src/KARLINO.ulice.txt"/>
  </way>
  <way id="23660315" version="1" timestamp="2008-04-07T23:12:43Z" uid="30632" user="antblant" changeset="89404">
    <nd ref="256343680"/>
    <nd ref="256343947"/>
    <nd ref="256343945"/>
    <tag k="created_by" v="JOSM"/>
    <tag k="highway" v="residential"/>
    <tag k="name" v="Przyjaźni"/>
    <tag k="source" v="UMP-PL, ./UMP-Szczecin/src/KARLINO.ulice.txt"/>
  </way>
  <way id="23660316" version="1" timestamp="2008-04-07T23:12:44Z" uid="30632" user="antblant" changeset="89404">
    <nd ref="256343832"/>
    <nd ref="256343829"/>
    <nd ref="256343918"/>
    <nd ref="256343923"/>
    <nd ref="256343808"/>
    <tag k="created_by" v="JOSM"/>
    <tag k="highway" v="residential"/>
    <tag k="name" v="Jaworskiej"/>
    <tag k="source" v="UMP-PL, ./UMP-Szczecin/src/KARLINO.ulice.txt"/>
  </way>
  <way id="23660317" version="1" timestamp="2008-04-07T23:12:44Z" uid="30632" user="antblant" changeset="89404">
    <nd ref="256343638"/>
    <nd ref="256343636"/>
    <nd ref="256343586"/>
    <tag k="created_by" v="JOSM"/>
    <tag k="highway" v="residential"/>
    <tag k="name" v="Krótka"/>
    <tag k="source" v="UMP-PL, ./UMP-Szczecin/src/KARLINO.ulice.txt"/>
  </way>
  <way id="23660318" version="1" timestamp="2008-04-07T23:12:44Z" uid="30632" user="antblant" changeset="89404">
    <nd ref="256343589"/>
    <nd ref="256343665"/>
    <nd ref="256343666"/>
    <nd ref="256343659"/>
    <nd ref="256343660"/>
    <nd ref="256343661"/>
    <tag k="created_by" v="JOSM"/>
    <tag k="highway" v="residential"/>
    <tag k="name" v="Wojska Polskiego"/>
    <tag k="source" v="UMP-PL, ./UMP-Szczecin/src/KARLINO.ulice.txt"/>
  </way>
  <way id="23660319" version="1" timestamp="2008-04-07T23:12:45Z" uid="30632" user="antblant" changeset="89404">
    <nd ref="256343674"/>
    <nd ref="256343789"/>
    <nd ref="256343786"/>
    <tag k="created_by" v="JOSM"/>
    <tag k="highway" v="residential"/>
    <tag k="name" v="4 Marca"/>
    <tag k="source" v="UMP-PL, ./UMP-Szczecin/src/KARLINO.ulice.txt"/>
  </way>
  <way id="23660320" version="1" timestamp="2008-04-07T23:12:45Z" uid="30632" user="antblant" changeset="89404">
    <nd ref="256343558"/>
    <nd ref="256343577"/>
    <nd ref="256343597"/>
    <tag k="created_by" v="JOSM"/>
    <tag k="highway" v="tertiary"/>
    <tag k="name" v="Tysiąclecia Państwa Polskiego"/>
    <tag k="source" v="UMP-PL, ./UMP-Szczecin/src/KARLINO.ulice.txt"/>
  </way>
  <way id="23660321" version="1" timestamp="2008-04-07T23:12:45Z" uid="30632" user="antblant" changeset="89404">
    <nd ref="256343665"/>
    <nd ref="256343678"/>
    <nd ref="256343666"/>
    <tag k="created_by" v="JOSM"/>
    <tag k="highway" v="residential"/>
    <tag k="name" v="Stanisława Moniuszki"/>
    <tag k="source" v="UMP-PL, ./UMP-Szczecin/src/KARLINO.ulice.txt"/>
  </way>
  <way id="23660322" version="1" timestamp="2008-04-07T23:12:46Z" uid="30632" user="antblant" changeset="89404">
    <nd ref="256343927"/>
    <nd ref="256343932"/>
    <nd ref="256343865"/>
    <nd ref="256343868"/>
    <tag k="created_by" v="JOSM"/>
    <tag k="highway" v="secondary"/>
    <tag k="name" v="Kołobrzeska"/>
    <tag k="ref" v="163"/>
    <tag k="source" v="UMP-PL, ./UMP-Szczecin/src/KARLINO.ulice.txt"/>
  </way>
  <way id="23660322" version="2" timestamp="2008-04-07T23:31:55Z" uid="30632" user="antblant" changeset="89404">
    <nd ref="256343927"/>
    <nd ref="256343932"/>
    <nd ref="256343865"/>
    <nd ref="256343868"/>
    <tag k="created_by" v="Potlatch 0.8a"/>
    <tag k="highway" v="secondary"/>
    <tag k="name" v="Kołobrzeska"/>
    <tag k="ref" v="163"/>
    <tag k="source" v="UMP-PL, ./UMP-Szczecin/src/KARLINO.ulice.txt"/>
  </way>
  <way id="23660322" version="3" timestamp="2010-03-11T19:42:21Z" uid="30632" user="antblant" changeset="4100685">
    <nd ref="256343927"/>
    <nd ref="256343932"/>
    <nd ref="256343865"/>
    <nd ref="254721558"/>
    <tag k="highway" v="secondary"/>
    <tag k="name" v="Kołobrzeska"/>
    <tag k="ref" v="163"/>
    <tag k="source" v="UMP-PL, ./UMP-Szczecin/src/KARLINO.ulice.txt"/>
  </way>
  <way id="23660324" version="1" timestamp="2008-04-07T23:12:46Z" uid="30632" user="antblant" changeset="89404">
    <nd ref="256343581"/>
    <nd ref="256343607"/>
    <nd ref="256343635"/>
    <nd ref="256343634"/>
    <nd ref="256343620"/>
    <nd ref="256343650"/>
    <nd ref="256343619"/>
    <nd ref="256343649"/>
    <nd ref="256343648"/>
    <nd ref="256343638"/>
    <nd ref="256343643"/>
    <nd ref="256343631"/>
    <tag k="created_by" v="JOSM"/>
    <tag k="highway" v="residential"/>
    <tag k="name" v="Okrzei"/>
    <tag k="source" v="UMP-PL, ./UMP-Szczecin/src/KARLINO.ulice.txt"/>
  </way>
  <way id="23660326" version="1" timestamp="2008-04-07T23:12:46Z" uid="30632" user="antblant" changeset="89404">
    <nd ref="256343663"/>
    <nd ref="256343664"/>
    <tag k="created_by" v="JOSM"/>
    <tag k="highway" v="residential"/>
    <tag k="name" v="Ludwika Waryńskiego"/>
    <tag k="source" v="UMP-PL, ./UMP-Szczecin/src/KARLINO.ulice.txt"/>
  </way>
  <way id="23660327" version="1" timestamp="2008-04-07T23:12:46Z" uid="30632" user="antblant" changeset="89404">
    <nd ref="256343668"/>
    <nd ref="256343776"/>
    <tag k="created_by" v="JOSM"/>
    <tag k="highway" v="residential"/>
    <tag k="name" v="Spokojna"/>
    <tag k="source" v="UMP-PL, ./UMP-Szczecin/src/KARLINO.ulice.txt"/>
  </way>
  <way id="23660329" version="1" timestamp="2008-04-07T23:12:47Z" uid="30632" user="antblant" changeset="89404">
    <nd ref="256343558"/>
    <nd ref="256343597"/>
    <nd ref="256343596"/>
    <nd ref="256343599"/>
    <nd ref="256343598"/>
    <nd ref="256343601"/>
    <nd ref="256343600"/>
    <nd ref="256343604"/>
    <nd ref="256343605"/>
    <nd ref="256343602"/>
    <nd ref="256343603"/>
    <nd ref="256343608"/>
    <nd ref="256343609"/>
    <nd ref="256343606"/>
    <tag k="created_by" v="JOSM"/>
    <tag k="highway" v="tertiary"/>
    <tag k="name" v="Szczecińska"/>
    <tag k="source" v="UMP-PL, ./UMP-Szczecin/src/KARLINO.ulice.txt"/>
  </way>
  <way id="23660329" version="2" timestamp="2008-04-07T23:31:32Z" uid="30632" user="antblant" changeset="89404">
    <nd ref="256343558"/>
    <nd ref="256343597"/>
    <nd ref="256343596"/>
    <nd ref="256343599"/>
    <nd ref="256343598"/>
    <nd ref="256343601"/>
    <nd ref="256343600"/>
    <nd ref="256343604"/>
    <nd ref="256343605"/>
    <nd ref="256343602"/>
    <nd ref="256343603"/>
    <nd ref="256343608"/>
    <nd ref="256343609"/>
    <nd ref="254696213"/>
    <tag k="created_by" v="Potlatch 0.8a"/>
    <tag k="highway" v="tertiary"/>
    <tag k="name" v="Szczecińska"/>
    <tag k="source" v="UMP-PL, ./UMP-Szczecin/src/KARLINO.ulice.txt"/>
  </way>
  <way id="23660330" version="1" timestamp="2008-04-07T23:12:47Z" uid="30632" user="antblant" changeset="89404">
    <nd ref="256343631"/>
    <nd ref="256343889"/>
    <nd ref="256343895"/>
    <nd ref="256343943"/>
    <nd ref="256343941"/>
    <nd ref="256343939"/>
    <tag k="created_by" v="JOSM"/>
    <tag k="highway" v="residential"/>
    <tag k="name" v="Bogusława X"/>
    <tag k="source" v="UMP-PL, ./UMP-Szczecin/src/KARLINO.ulice.txt"/>
  </way>
  <way id="23660331" version="1" timestamp="2008-04-07T23:12:47Z" uid="30632" user="antblant" changeset="89404">
    <nd ref="256343569"/>
    <nd ref="256343927"/>
    <nd ref="256343873"/>
    <nd ref="256343568"/>
    <tag k="created_by" v="JOSM"/>
    <tag k="highway" v="secondary"/>
    <tag k="name" v="Kołobrzeska"/>
    <tag k="ref" v="163"/>
    <tag k="source" v="UMP-PL, ./UMP-Szczecin/src/KARLINO.ulice.txt"/>
  </way>
  <way id="23660331" version="2" timestamp="2009-11-02T11:54:46Z" uid="30632" user="antblant" changeset="3015667">
    <nd ref="256343569"/>
    <nd ref="256343927"/>
    <tag k="highway" v="secondary"/>
    <tag k="name" v="Kołobrzeska"/>
    <tag k="oneway" v="yes"/>
    <tag k="ref" v="163"/>
    <tag k="source" v="UMP-PL, ./UMP-Szczecin/src/KARLINO.ulice.txt"/>
  </way>
  <way id="23660332" version="1" timestamp="2008-04-07T23:12:48Z" uid="30632" user="antblant" changeset="89404">
    <nd ref="256343750"/>
    <nd ref="256343754"/>
    <nd ref="256343747"/>
    <nd ref="256343765"/>
    <tag k="created_by" v="JOSM"/>
    <tag k="highway" v="residential"/>
    <tag k="name" v="Parkowa"/>
    <tag k="source" v="UMP-PL, ./UMP-Szczecin/src/KARLINO.ulice.txt"/>
  </way>
  <way id="23660333" version="1" timestamp="2008-04-07T23:12:48Z" uid="30632" user="antblant" changeset="89404">
    <nd ref="256343575"/>
    <nd ref="256343622"/>
    <nd ref="256343633"/>
    <nd ref="256343632"/>
    <tag k="created_by" v="JOSM"/>
    <tag k="highway" v="secondary"/>
    <tag k="ref" v="163"/>
    <tag k="source" v="UMP-PL, ./UMP-Szczecin/src/KARLINO.ulice.txt"/>
  </way>
  <way id="23660333" version="2" timestamp="2008-04-07T23:31:49Z" uid="30632" user="antblant" changeset="89404">
    <nd ref="256343575"/>
    <nd ref="256343622"/>
    <nd ref="256343633"/>
    <nd ref="256343632"/>
    <tag k="created_by" v="Potlatch 0.8a"/>
    <tag k="highway" v="secondary"/>
    <tag k="ref" v="163"/>
    <tag k="source" v="UMP-PL, ./UMP-Szczecin/src/KARLINO.ulice.txt"/>
  </way>
  <way id="23660333" version="3" timestamp="2010-03-11T19:42:22Z" uid="30632" user="antblant" changeset="4100685">
    <nd ref="256343575"/>
    <nd ref="256343622"/>
    <nd ref="256343633"/>
    <nd ref="254700595"/>
    <tag k="highway" v="secondary"/>
    <tag k="ref" v="163"/>
    <tag k="source" v="UMP-PL, ./UMP-Szczecin/src/KARLINO.ulice.txt"/>
  </way>
  <way id="23660334" version="1" timestamp="2008-04-07T23:12:48Z" uid="30632" user="antblant" changeset="89404">
    <nd ref="256343667"/>
    <nd ref="256343772"/>
    <nd ref="256343837"/>
    <nd ref="256343832"/>
    <tag k="created_by" v="JOSM"/>
    <tag k="highway" v="residential"/>
    <tag k="name" v="Walki Młodych"/>
    <tag k="source" v="UMP-PL, ./UMP-Szczecin/src/KARLINO.ulice.txt"/>
  </way>
  <way id="23660335" version="1" timestamp="2008-04-07T23:12:49Z" uid="30632" user="antblant" changeset="89404">
    <nd ref="256343682"/>
    <nd ref="256343681"/>
    <nd ref="256343676"/>
    <nd ref="256343675"/>
    <nd ref="256343630"/>
    <nd ref="256343678"/>
    <tag k="created_by" v="JOSM"/>
    <tag k="highway" v="residential"/>
    <tag k="name" v="Stanisława Moniuszki"/>
    <tag k="source" v="UMP-PL, ./UMP-Szczecin/src/KARLINO.ulice.txt"/>
  </way>
  <way id="23660337" version="1" timestamp="2008-04-07T23:12:49Z" uid="30632" user="antblant" changeset="89404">
    <nd ref="256343568"/>
    <nd ref="256343569"/>
    <nd ref="256343571"/>
    <nd ref="256343575"/>
    <tag k="created_by" v="JOSM"/>
    <tag k="highway" v="secondary"/>
    <tag k="name" v="Koszalińska"/>
    <tag k="ref" v="163"/>
    <tag k="source" v="UMP-PL, ./UMP-Szczecin/src/KARLINO.ulice.txt"/>
  </way>
  <way id="23660338" version="1" timestamp="2008-04-07T23:12:50Z" uid="30632" user="antblant" changeset="89404">
    <nd ref="256343631"/>
    <nd ref="256343937"/>
    <nd ref="256343949"/>
    <tag k="created_by" v="JOSM"/>
    <tag k="highway" v="residential"/>
    <tag k="name" v="Nadbrzeżna"/>
    <tag k="source" v="UMP-PL, ./UMP-Szczecin/src/KARLINO.ulice.txt"/>
  </way>
  <way id="23660339" version="1" timestamp="2008-04-07T23:12:50Z" uid="30632" user="antblant" changeset="89404">
    <nd ref="256343595"/>
    <nd ref="256343878"/>
    <nd ref="256343881"/>
    <nd ref="256343886"/>
    <tag k="created_by" v="JOSM"/>
    <tag k="highway" v="residential"/>
    <tag k="name" v="Dworcowa"/>
    <tag k="source" v="UMP-PL, ./UMP-Szczecin/src/KARLINO.ulice.txt"/>
  </way>
  <way id="23660340" version="1" timestamp="2008-04-07T23:12:50Z" uid="30632" user="antblant" changeset="89404">
    <nd ref="256343731"/>
    <nd ref="256343761"/>
    <nd ref="256343757"/>
    <nd ref="256343754"/>
    <tag k="created_by" v="JOSM"/>
    <tag k="highway" v="residential"/>
    <tag k="name" v="Stanisława Brzóski"/>
    <tag k="source" v="UMP-PL, ./UMP-Szczecin/src/KARLINO.ulice.txt"/>
  </way>
  <way id="23660341" version="1" timestamp="2008-04-07T23:12:51Z" uid="30632" user="antblant" changeset="89404">
    <nd ref="256343631"/>
    <nd ref="256343591"/>
    <nd ref="256343630"/>
    <tag k="created_by" v="JOSM"/>
    <tag k="highway" v="residential"/>
    <tag k="name" v="Stroma"/>
    <tag k="source" v="UMP-PL, ./UMP-Szczecin/src/KARLINO.ulice.txt"/>
  </way>
  <way id="23660342" version="1" timestamp="2008-04-07T23:12:51Z" uid="30632" user="antblant" changeset="89404">
    <nd ref="256343772"/>
    <nd ref="256343848"/>
    <nd ref="256343845"/>
    <nd ref="256343855"/>
    <nd ref="256343852"/>
    <tag k="created_by" v="JOSM"/>
    <tag k="highway" v="residential"/>
    <tag k="name" v="Niepodległości"/>
    <tag k="source" v="UMP-PL, ./UMP-Szczecin/src/KARLINO.ulice.txt"/>
  </way>
  <way id="23660343" version="1" timestamp="2008-04-07T23:12:51Z" uid="30632" user="antblant" changeset="89404">
    <nd ref="256343661"/>
    <nd ref="256343662"/>
    <nd ref="256343672"/>
    <nd ref="256343671"/>
    <nd ref="256343674"/>
    <nd ref="256343673"/>
    <nd ref="256343668"/>
    <nd ref="256343667"/>
    <nd ref="256343670"/>
    <nd ref="256343669"/>
    <nd ref="256343680"/>
    <nd ref="256343679"/>
    <tag k="created_by" v="JOSM"/>
    <tag k="highway" v="residential"/>
    <tag k="name" v="Tadeusza Kościuszki"/>
    <tag k="source" v="UMP-PL, ./UMP-Szczecin/src/KARLINO.ulice.txt"/>
  </way>
  <way id="23660344" version="1" timestamp="2008-04-07T23:12:52Z" uid="30632" user="antblant" changeset="89404">
    <nd ref="256343577"/>
    <nd ref="256343579"/>
    <nd ref="256343581"/>
    <nd ref="256343583"/>
    <nd ref="256343584"/>
    <nd ref="256343585"/>
    <nd ref="256343587"/>
    <nd ref="256343586"/>
    <nd ref="256343589"/>
    <nd ref="256343588"/>
    <nd ref="256343591"/>
    <nd ref="256343590"/>
    <nd ref="256343593"/>
    <nd ref="256343592"/>
    <nd ref="256343595"/>
    <nd ref="256343594"/>
    <nd ref="256343568"/>
    <tag k="created_by" v="JOSM"/>
    <tag k="highway" v="tertiary"/>
    <tag k="name" v="Koszalińska"/>
    <tag k="source" v="UMP-PL, ./UMP-Szczecin/src/KARLINO.ulice.txt"/>
  </way>
  <way id="23660345" version="1" timestamp="2008-04-07T23:12:52Z" uid="30632" user="antblant" changeset="89404">
    <nd ref="256343620"/>
    <nd ref="256343583"/>
    <nd ref="256343621"/>
    <nd ref="256343618"/>
    <tag k="created_by" v="JOSM"/>
    <tag k="highway" v="residential"/>
    <tag k="name" v="Wigury"/>
    <tag k="source" v="UMP-PL, ./UMP-Szczecin/src/KARLINO.ulice.txt"/>
  </way>
  <way id="23660346" version="1" timestamp="2008-04-07T23:12:52Z" uid="30632" user="antblant" changeset="89404">
    <nd ref="256343671"/>
    <nd ref="256343699"/>
    <nd ref="256343690"/>
    <nd ref="256343694"/>
    <nd ref="256343685"/>
    <tag k="created_by" v="JOSM"/>
    <tag k="highway" v="residential"/>
    <tag k="name" v="Słoneczna"/>
    <tag k="source" v="UMP-PL, ./UMP-Szczecin/src/KARLINO.ulice.txt"/>
  </way>
  <way id="23660347" version="1" timestamp="2008-04-07T23:12:53Z" uid="30632" user="antblant" changeset="89404">
    <nd ref="256343861"/>
    <nd ref="256343858"/>
    <nd ref="256343808"/>
    <nd ref="256343806"/>
    <nd ref="256343816"/>
    <nd ref="256343812"/>
    <tag k="created_by" v="JOSM"/>
    <tag k="highway" v="residential"/>
    <tag k="name" v="Ignacego Krasickiego"/>
    <tag k="source" v="UMP-PL, ./UMP-Szczecin/src/KARLINO.ulice.txt"/>
  </way>
  <way id="23660348" version="1" timestamp="2008-04-07T23:12:53Z" uid="30632" user="antblant" changeset="89404">
    <nd ref="256343652"/>
    <nd ref="256343653"/>
    <nd ref="256343651"/>
    <nd ref="256343577"/>
    <tag k="created_by" v="JOSM"/>
    <tag k="highway" v="residential"/>
    <tag k="name" v="Plac Kościelny"/>
    <tag k="source" v="UMP-PL, ./UMP-Szczecin/src/KARLINO.ulice.txt"/>
  </way>
  <way id="23660349" version="1" timestamp="2008-04-07T23:12:53Z" uid="30632" user="antblant" changeset="89404">
    <nd ref="256343659"/>
    <nd ref="256343743"/>
    <nd ref="256343803"/>
    <tag k="created_by" v="JOSM"/>
    <tag k="highway" v="residential"/>
    <tag k="name" v="Pe�ki"/>
    <tag k="source" v="UMP-PL, ./UMP-Szczecin/src/KARLINO.ulice.txt"/>
  </way>
  <way id="23660350" version="1" timestamp="2008-04-07T23:12:54Z" uid="30632" user="antblant" changeset="89404">
    <nd ref="256343619"/>
    <nd ref="256343629"/>
    <nd ref="256343627"/>
    <nd ref="256343623"/>
    <tag k="created_by" v="JOSM"/>
    <tag k="highway" v="residential"/>
    <tag k="name" v="Szymanowskiego"/>
    <tag k="source" v="UMP-PL, ./UMP-Szczecin/src/KARLINO.ulice.txt"/>
  </way>
  <way id="23660351" version="1" timestamp="2008-04-07T23:12:54Z" uid="30632" user="antblant" changeset="89404">
    <nd ref="256343676"/>
    <nd ref="256343677"/>
    <nd ref="256343701"/>
    <nd ref="256343704"/>
    <nd ref="256343696"/>
    <tag k="created_by" v="JOSM"/>
    <tag k="highway" v="residential"/>
    <tag k="name" v="Ogrodowa"/>
    <tag k="source" v="UMP-PL, ./UMP-Szczecin/src/KARLINO.ulice.txt"/>
  </way>
  <way id="23660352" version="1" timestamp="2008-04-07T23:12:54Z" uid="30632" user="antblant" changeset="89404">
    <nd ref="256343832"/>
    <nd ref="256343823"/>
    <nd ref="256343820"/>
    <nd ref="256343806"/>
    <tag k="created_by" v="JOSM"/>
    <tag k="highway" v="residential"/>
    <tag k="name" v="Sawickiej"/>
    <tag k="source" v="UMP-PL, ./UMP-Szczecin/src/KARLINO.ulice.txt"/>
  </way>
  <way id="23660354" version="1" timestamp="2008-04-07T23:12:54Z" uid="30632" user="antblant" changeset="89404">
    <nd ref="256343558"/>
    <nd ref="256343559"/>
    <nd ref="256343560"/>
    <nd ref="256343562"/>
    <nd ref="256343566"/>
    <nd ref="256343567"/>
    <tag k="created_by" v="JOSM"/>
    <tag k="highway" v="tertiary"/>
    <tag k="name" v="Białogardzka"/>
    <tag k="source" v="UMP-PL, ./UMP-Szczecin/src/KARLINO.ulice.txt"/>
  </way>
  <way id="23660354" version="2" timestamp="2008-04-07T23:31:21Z" uid="30632" user="antblant" changeset="89404">
    <nd ref="256343558"/>
    <nd ref="256343559"/>
    <nd ref="256343560"/>
    <nd ref="256343562"/>
    <nd ref="256343566"/>
    <nd ref="254721570"/>
    <tag k="created_by" v="Potlatch 0.8a"/>
    <tag k="highway" v="tertiary"/>
    <tag k="name" v="Białogardzka"/>
    <tag k="source" v="UMP-PL, ./UMP-Szczecin/src/KARLINO.ulice.txt"/>
  </way>
  <way id="23660355" version="1" timestamp="2008-04-07T23:12:55Z" uid="30632" user="antblant" changeset="89404">
    <nd ref="256343618"/>
    <nd ref="256343655"/>
    <nd ref="256343656"/>
    <nd ref="256343657"/>
    <nd ref="256343658"/>
    <nd ref="256343651"/>
    <tag k="created_by" v="JOSM"/>
    <tag k="highway" v="residential"/>
    <tag k="name" v="Bolesława Prusa"/>
    <tag k="source" v="UMP-PL, ./UMP-Szczecin/src/KARLINO.ulice.txt"/>
  </way>
  <way id="23660356" version="1" timestamp="2008-04-07T23:12:55Z" uid="30632" user="antblant" changeset="89404">
    <nd ref="256343743"/>
    <nd ref="256343724"/>
    <tag k="created_by" v="JOSM"/>
    <tag k="highway" v="residential"/>
    <tag k="name" v="Fryderyka Chopina"/>
    <tag k="source" v="UMP-PL, ./UMP-Szczecin/src/KARLINO.ulice.txt"/>
  </way>
  <way id="23660357" version="1" timestamp="2008-04-07T23:12:55Z" uid="30632" user="antblant" changeset="89404">
    <nd ref="256343607"/>
    <nd ref="256343613"/>
    <nd ref="256343617"/>
    <nd ref="256343610"/>
    <nd ref="256343611"/>
    <tag k="created_by" v="JOSM"/>
    <tag k="highway" v="residential"/>
    <tag k="name" v="Marii Konopnickiej"/>
    <tag k="source" v="UMP-PL, ./UMP-Szczecin/src/KARLINO.ulice.txt"/>
  </way>
  <way id="23660358" version="1" timestamp="2008-04-07T23:12:56Z" uid="30632" user="antblant" changeset="89404">
    <nd ref="256343829"/>
    <nd ref="256343826"/>
    <nd ref="256343900"/>
    <tag k="created_by" v="JOSM"/>
    <tag k="highway" v="residential"/>
    <tag k="name" v="Jedności"/>
    <tag k="source" v="UMP-PL, ./UMP-Szczecin/src/KARLINO.ulice.txt"/>
  </way>
  <way id="23660359" version="1" timestamp="2008-04-07T23:12:56Z" uid="30632" user="antblant" changeset="89404">
    <nd ref="256343673"/>
    <nd ref="256343687"/>
    <nd ref="256343740"/>
    <nd ref="256343727"/>
    <nd ref="256343696"/>
    <nd ref="256343675"/>
    <tag k="created_by" v="JOSM"/>
    <tag k="highway" v="residential"/>
    <tag k="name" v="Bolesława Chrobrego"/>
    <tag k="source" v="UMP-PL, ./UMP-Szczecin/src/KARLINO.ulice.txt"/>
  </way>
  <way id="23660360" version="1" timestamp="2008-04-07T23:12:56Z" uid="30632" user="antblant" changeset="89404">
    <nd ref="256343803"/>
    <nd ref="256343800"/>
    <nd ref="256343621"/>
    <tag k="created_by" v="JOSM"/>
    <tag k="highway" v="residential"/>
    <tag k="source" v="UMP-PL, ./UMP-Szczecin/src/KARLINO.ulice.txt"/>
  </way>
  <way id="23660361" version="1" timestamp="2008-04-07T23:12:56Z" uid="30632" user="antblant" changeset="89404">
    <nd ref="256343663"/>
    <nd ref="256343596"/>
    <tag k="created_by" v="JOSM"/>
    <tag k="highway" v="residential"/>
    <tag k="name" v="Spichrzowa"/>
    <tag k="source" v="UMP-PL, ./UMP-Szczecin/src/KARLINO.ulice.txt"/>
  </way>
  <way id="23660362" version="1" timestamp="2008-04-07T23:12:57Z" uid="30632" user="antblant" changeset="89404">
    <nd ref="256343610"/>
    <nd ref="256343579"/>
    <tag k="created_by" v="JOSM"/>
    <tag k="highway" v="residential"/>
    <tag k="name" v="Żwirki"/>
    <tag k="source" v="UMP-PL, ./UMP-Szczecin/src/KARLINO.ulice.txt"/>
  </way>
  <way id="23660364" version="1" timestamp="2008-04-07T23:12:57Z" uid="30632" user="antblant" changeset="89404">
    <nd ref="256343904"/>
    <nd ref="256343909"/>
    <nd ref="256343913"/>
    <nd ref="256343832"/>
    <tag k="created_by" v="JOSM"/>
    <tag k="highway" v="residential"/>
    <tag k="name" v="Wolności"/>
    <tag k="source" v="UMP-PL, ./UMP-Szczecin/src/KARLINO.ulice.txt"/>
  </way>
  <way id="23660365" version="1" timestamp="2008-04-07T23:12:57Z" uid="30632" user="antblant" changeset="89404">
    <nd ref="256343687"/>
    <nd ref="256343736"/>
    <nd ref="256343699"/>
    <tag k="created_by" v="JOSM"/>
    <tag k="highway" v="residential"/>
    <tag k="name" v="Słoneczna"/>
    <tag k="source" v="UMP-PL, ./UMP-Szczecin/src/KARLINO.ulice.txt"/>
  </way>
  <way id="23660366" version="1" timestamp="2008-04-07T23:12:58Z" uid="30632" user="antblant" changeset="89404">
    <nd ref="256343747"/>
    <nd ref="256343797"/>
    <nd ref="256343793"/>
    <tag k="created_by" v="JOSM"/>
    <tag k="highway" v="residential"/>
    <tag k="name" v="Spacerowa"/>
    <tag k="source" v="UMP-PL, ./UMP-Szczecin/src/KARLINO.ulice.txt"/>
  </way>
  <way id="23660367" version="1" timestamp="2008-04-07T23:12:58Z" uid="30632" user="antblant" changeset="89404">
    <nd ref="256343577"/>
    <nd ref="256343654"/>
    <nd ref="256343663"/>
    <tag k="created_by" v="JOSM"/>
    <tag k="highway" v="residential"/>
    <tag k="name" v="Ludwika Waryńskiego"/>
    <tag k="source" v="UMP-PL, ./UMP-Szczecin/src/KARLINO.ulice.txt"/>
  </way>
  <way id="23660605" version="1" timestamp="2008-04-07T23:31:37Z" uid="30201" user="rrankin" changeset="81433">
    <nd ref="256345850"/>
    <nd ref="256345860"/>
    <nd ref="256345862"/>
    <nd ref="256345870"/>
    <nd ref="256345851"/>
    <nd ref="256345865"/>
    <nd ref="256345852"/>
    <nd ref="256345875"/>
    <tag k="FIXME" v="ent not seen"/>
    <tag k="created_by" v="JOSM"/>
    <tag k="highway" v="residential"/>
  </way>
  <way id="23660605" version="2" timestamp="2008-04-10T03:07:19Z" uid="30201" user="rrankin" changeset="99098">
    <nd ref="256345850"/>
    <nd ref="256345860"/>
    <nd ref="256345862"/>
    <nd ref="256345870"/>
    <nd ref="256345851"/>
    <nd ref="256345865"/>
    <nd ref="256345852"/>
    <tag k="FIXME" v="ent not seen"/>
    <tag k="created_by" v="JOSM"/>
    <tag k="highway" v="residential"/>
    <tag k="name" v="Macgibbon Parade"/>
  </way>
  <way id="23660605" version="3" timestamp="2010-07-07T10:30:21Z" uid="74617" user="JohnSmith" changeset="5157498">
    <nd ref="256345850"/>
    <nd ref="256345860"/>
    <nd ref="256345862"/>
    <nd ref="256345870"/>
    <nd ref="256345851"/>
    <nd ref="256345865"/>
    <nd ref="256345852"/>
    <tag k="FIXME" v="ent not seen"/>
    <tag k="highway" v="residential"/>
    <tag k="maxspeed" v="50"/>
    <tag k="maxspeed:source" v="default residential speed limit in Australia"/>
    <tag k="name" v="Macgibbon Parade"/>
  </way>
  <way id="23660606" version="1" timestamp="2008-04-07T23:31:38Z" uid="30201" user="rrankin" changeset="81433">
    <nd ref="256345853"/>
    <nd ref="256345859"/>
    <nd ref="256345854"/>
    <nd ref="256345866"/>
    <nd ref="256345869"/>
    <nd ref="256345867"/>
    <nd ref="256345868"/>
    <tag k="FIXME" v="end not seen"/>
    <tag k="created_by" v="JOSM"/>
    <tag k="highway" v="residential"/>
  </way>
  <way id="23660606" version="2" timestamp="2008-04-10T02:56:19Z" uid="30201" user="rrankin" changeset="99098">
    <nd ref="256345853"/>
    <nd ref="256345859"/>
    <nd ref="256345854"/>
    <tag k="FIXME" v="end not seen"/>
    <tag k="created_by" v="JOSM"/>
    <tag k="highway" v="residential"/>
    <tag k="name" v="Woodhill Street"/>
  </way>
  <way id="23660606" version="3" timestamp="2010-07-07T10:29:21Z" uid="74617" user="JohnSmith" changeset="5157498">
    <nd ref="256345853"/>
    <nd ref="256345859"/>
    <nd ref="256345854"/>
    <tag k="FIXME" v="end not seen"/>
    <tag k="highway" v="residential"/>
    <tag k="maxspeed" v="50"/>
    <tag k="maxspeed:source" v="default residential speed limit in Australia"/>
    <tag k="name" v="Woodhill Street"/>
  </way>
  <way id="23660607" version="1" timestamp="2008-04-07T23:31:39Z" uid="30201" user="rrankin" changeset="81433">
    <nd ref="256345855"/>
    <nd ref="256345858"/>
    <nd ref="256345861"/>
    <nd ref="256345856"/>
    <tag k="created_by" v="JOSM"/>
    <tag k="highway" v="residential"/>
  </way>
  <way id="23660607" version="2" timestamp="2008-04-10T02:56:17Z" uid="30201" user="rrankin" changeset="99098">
    <nd ref="256345855"/>
    <nd ref="256345858"/>
    <nd ref="256345861"/>
    <nd ref="256345856"/>
    <tag k="created_by" v="JOSM"/>
    <tag k="highway" v="residential"/>
    <tag k="name" v="Mernie Street"/>
  </way>
  <way id="23660607" version="3" timestamp="2010-07-07T10:30:54Z" uid="74617" user="JohnSmith" changeset="5157498">
    <nd ref="256345855"/>
    <nd ref="256345858"/>
    <nd ref="256345861"/>
    <nd ref="256345856"/>
    <tag k="highway" v="residential"/>
    <tag k="maxspeed" v="50"/>
    <tag k="maxspeed:source" v="default residential speed limit in Australia"/>
    <tag k="name" v="Mernie Street"/>
  </way>
  <way id="23660608" version="1" timestamp="2008-04-07T23:31:39Z" uid="30201" user="rrankin" changeset="81433">
    <nd ref="256345858"/>
    <nd ref="256345859"/>
    <nd ref="256345860"/>
    <tag k="created_by" v="JOSM"/>
    <tag k="highway" v="residential"/>
  </way>
  <way id="23660608" version="2" timestamp="2008-04-10T02:56:18Z" uid="30201" user="rrankin" changeset="99098">
    <nd ref="256345858"/>
    <nd ref="256345859"/>
    <nd ref="256345860"/>
    <tag k="created_by" v="JOSM"/>
    <tag k="highway" v="residential"/>
    <tag k="name" v="Tibbles Avenue"/>
  </way>
  <way id="23660608" version="3" timestamp="2010-07-07T10:31:15Z" uid="74617" user="JohnSmith" changeset="5157498">
    <nd ref="256345858"/>
    <nd ref="256345859"/>
    <nd ref="256345860"/>
    <tag k="highway" v="residential"/>
    <tag k="maxspeed" v="50"/>
    <tag k="maxspeed:source" v="default residential speed limit in Australia"/>
    <tag k="name" v="Tibbles Avenue"/>
  </way>
  <way id="23660609" version="1" timestamp="2008-04-07T23:31:40Z" uid="30201" user="rrankin" changeset="81433">
    <nd ref="256345861"/>
    <nd ref="256345854"/>
    <nd ref="256345862"/>
    <tag k="created_by" v="JOSM"/>
    <tag k="highway" v="residential"/>
  </way>
  <way id="23660609" version="2" timestamp="2008-04-10T02:56:19Z" uid="30201" user="rrankin" changeset="99098">
    <nd ref="256345861"/>
    <nd ref="256345854"/>
    <nd ref="256345862"/>
    <tag k="created_by" v="JOSM"/>
    <tag k="highway" v="residential"/>
    <tag k="name" v="Christiansen Avenue"/>
  </way>
  <way id="23660609" version="3" timestamp="2008-04-27T08:14:15Z" uid="30201" user="rrankin" changeset="264419">
    <nd ref="256345861"/>
    <nd ref="260114548"/>
    <nd ref="256345854"/>
    <nd ref="256345862"/>
    <tag k="created_by" v="JOSM"/>
    <tag k="highway" v="residential"/>
    <tag k="name" v="Christiansen Avenue"/>
  </way>
  <way id="23660609" version="4" timestamp="2010-07-07T10:32:34Z" uid="74617" user="JohnSmith" changeset="5157498">
    <nd ref="256345861"/>
    <nd ref="260114548"/>
    <nd ref="256345854"/>
    <nd ref="256345862"/>
    <tag k="highway" v="residential"/>
    <tag k="maxspeed" v="50"/>
    <tag k="maxspeed:source" v="default residential speed limit in Australia"/>
    <tag k="name" v="Christiansen Avenue"/>
  </way>
  <way id="23660610" version="1" timestamp="2008-04-07T23:31:41Z" uid="30201" user="rrankin" changeset="81433">
    <nd ref="256345863"/>
    <nd ref="256345871"/>
    <nd ref="256345851"/>
    <tag k="created_by" v="JOSM"/>
    <tag k="highway" v="residential"/>
  </way>
  <way id="23660610" version="2" timestamp="2008-04-10T02:56:20Z" uid="30201" user="rrankin" changeset="99098">
    <nd ref="256345863"/>
    <nd ref="256345871"/>
    <nd ref="256345851"/>
    <tag k="created_by" v="JOSM"/>
    <tag k="highway" v="residential"/>
    <tag k="name" v="Fitzpatrick Street"/>
  </way>
  <way id="23660610" version="3" timestamp="2008-04-27T08:14:14Z" uid="30201" user="rrankin" changeset="264419">
    <nd ref="256345863"/>
    <nd ref="260114545"/>
    <nd ref="256345871"/>
    <nd ref="260114544"/>
    <nd ref="256345851"/>
    <tag k="created_by" v="JOSM"/>
    <tag k="highway" v="residential"/>
    <tag k="name" v="Fitzpatrick Street"/>
  </way>
  <way id="23660610" version="4" timestamp="2010-07-07T10:31:44Z" uid="74617" user="JohnSmith" changeset="5157498">
    <nd ref="256345863"/>
    <nd ref="260114545"/>
    <nd ref="256345871"/>
    <nd ref="260114544"/>
    <nd ref="256345851"/>
    <tag k="highway" v="residential"/>
    <tag k="maxspeed" v="50"/>
    <tag k="maxspeed:source" v="default residential speed limit in Australia"/>
    <tag k="name" v="Fitzpatrick Street"/>
  </way>
  <way id="23660611" version="1" timestamp="2008-04-07T23:31:41Z" uid="30201" user="rrankin" changeset="81433">
    <nd ref="256345874"/>
    <nd ref="256345864"/>
    <nd ref="256345877"/>
    <nd ref="256345872"/>
    <nd ref="256345865"/>
    <tag k="created_by" v="JOSM"/>
    <tag k="highway" v="residential"/>
  </way>
  <way id="23660611" version="2" timestamp="2008-04-10T02:56:22Z" uid="30201" user="rrankin" changeset="99098">
    <nd ref="256660739"/>
    <nd ref="256660738"/>
    <nd ref="256345874"/>
    <nd ref="256345864"/>
    <nd ref="256345877"/>
    <nd ref="256345872"/>
    <nd ref="256345865"/>
    <tag k="FIXME" v="end not seen"/>
    <tag k="created_by" v="JOSM"/>
    <tag k="highway" v="residential"/>
    <tag k="name" v="Prentice Avenue"/>
  </way>
  <way id="23660611" version="3" timestamp="2008-04-27T08:14:14Z" uid="30201" user="rrankin" changeset="264419">
    <nd ref="260114565"/>
    <nd ref="260114630"/>
    <nd ref="260114625"/>
    <nd ref="260114614"/>
    <nd ref="260114573"/>
    <nd ref="260114570"/>
    <nd ref="260114566"/>
    <nd ref="260114565"/>
    <nd ref="256660739"/>
    <nd ref="256660738"/>
    <nd ref="256345874"/>
    <nd ref="260114563"/>
    <nd ref="256345864"/>
    <nd ref="256345877"/>
    <nd ref="256345872"/>
    <nd ref="256345865"/>
    <tag k="FIXME" v="end not seen"/>
    <tag k="created_by" v="JOSM"/>
    <tag k="highway" v="residential"/>
    <tag k="name" v="Prentice Avenue"/>
  </way>
  <way id="23660611" version="4" timestamp="2010-07-07T10:29:44Z" uid="74617" user="JohnSmith" changeset="5157498">
    <nd ref="260114565"/>
    <nd ref="260114630"/>
    <nd ref="260114625"/>
    <nd ref="260114614"/>
    <nd ref="260114573"/>
    <nd ref="260114570"/>
    <nd ref="260114566"/>
    <nd ref="260114565"/>
    <nd ref="256660739"/>
    <nd ref="256660738"/>
    <nd ref="256345874"/>
    <nd ref="260114563"/>
    <nd ref="256345864"/>
    <nd ref="256345877"/>
    <nd ref="256345872"/>
    <nd ref="256345865"/>
    <tag k="FIXME" v="end not seen"/>
    <tag k="highway" v="residential"/>
    <tag k="maxspeed" v="50"/>
    <tag k="maxspeed:source" v="default residential speed limit in Australia"/>
    <tag k="name" v="Prentice Avenue"/>
  </way>
  <way id="23660612" version="1" timestamp="2008-04-07T23:31:42Z" uid="30201" user="rrankin" changeset="81433">
    <nd ref="256345869"/>
    <nd ref="256345870"/>
    <tag k="created_by" v="JOSM"/>
    <tag k="highway" v="residential"/>
  </way>
  <way id="23660612" version="2" timestamp="2010-07-07T10:30:11Z" uid="74617" user="JohnSmith" changeset="5157498">
    <nd ref="256345869"/>
    <nd ref="256345870"/>
    <tag k="highway" v="residential"/>
    <tag k="maxspeed" v="50"/>
    <tag k="maxspeed:source" v="default residential speed limit in Australia"/>
  </way>
  <way id="23660613" version="1" timestamp="2008-04-07T23:31:43Z" uid="30201" user="rrankin" changeset="81433">
    <nd ref="256345871"/>
    <nd ref="256345872"/>
    <nd ref="256345873"/>
    <tag k="FIXME" v="end not seen"/>
    <tag k="created_by" v="JOSM"/>
    <tag k="highway" v="residential"/>
  </way>
  <way id="23660613" version="2" timestamp="2008-04-27T08:14:13Z" uid="30201" user="rrankin" changeset="264419">
    <nd ref="256345871"/>
    <nd ref="256345872"/>
    <nd ref="256345873"/>
    <nd ref="260114562"/>
    <tag k="FIXME" v="end not seen"/>
    <tag k="created_by" v="JOSM"/>
    <tag k="highway" v="residential"/>
  </way>
  <way id="23660613" version="3" timestamp="2010-07-07T10:31:37Z" uid="74617" user="JohnSmith" changeset="5157498">
    <nd ref="256345871"/>
    <nd ref="256345872"/>
    <nd ref="256345873"/>
    <nd ref="260114562"/>
    <tag k="FIXME" v="end not seen"/>
    <tag k="highway" v="residential"/>
    <tag k="maxspeed" v="50"/>
    <tag k="maxspeed:source" v="default residential speed limit in Australia"/>
  </way>
  <way id="23660614" version="1" timestamp="2008-04-07T23:31:44Z" uid="30201" user="rrankin" changeset="81433">
    <nd ref="256345876"/>
    <nd ref="256345863"/>
    <nd ref="256345877"/>
    <tag k="FIXME" v="ebd not seen"/>
    <tag k="created_by" v="JOSM"/>
    <tag k="highway" v="residential"/>
  </way>
  <way id="23660614" version="2" timestamp="2008-04-10T02:56:21Z" uid="30201" user="rrankin" changeset="99098">
    <nd ref="256345876"/>
    <nd ref="256345863"/>
    <nd ref="256345877"/>
    <tag k="FIXME" v="ebd not seen"/>
    <tag k="created_by" v="JOSM"/>
    <tag k="highway" v="residential"/>
    <tag k="name" v="Beths Street"/>
  </way>
  <way id="23660614" version="3" timestamp="2008-04-27T08:14:12Z" uid="30201" user="rrankin" changeset="264419">
    <nd ref="260114560"/>
    <nd ref="256345876"/>
    <nd ref="256345863"/>
    <nd ref="256345877"/>
    <tag k="FIXME" v="ebd not seen"/>
    <tag k="created_by" v="JOSM"/>
    <tag k="highway" v="residential"/>
    <tag k="name" v="Beths Street"/>
  </way>
  <way id="23660614" version="4" timestamp="2010-07-07T10:30:46Z" uid="74617" user="JohnSmith" changeset="5157498">
    <nd ref="260114560"/>
    <nd ref="256345876"/>
    <nd ref="256345863"/>
    <nd ref="256345877"/>
    <tag k="FIXME" v="ebd not seen"/>
    <tag k="highway" v="residential"/>
    <tag k="maxspeed" v="50"/>
    <tag k="maxspeed:source" v="default residential speed limit in Australia"/>
    <tag k="name" v="Beths Street"/>
  </way>
  <way id="23660790" version="3" timestamp="2009-10-13T23:58:34Z" uid="36809" user="pfoten_weg_!_" changeset="2841284">
    <nd ref="244060037"/>
    <nd ref="244060040"/>
    <tag k="highway" v="unclassified"/>
    <tag k="merano:way_id" v="436"/>
    <tag k="name" v="Pfarrgasse / Via Parrocchia"/>
    <tag k="name:de" v="Pfarrgasse"/>
    <tag k="name:it" v="Via Parrocchia"/>
  </way>
  <way id="23660791" version="2" timestamp="2009-10-13T23:54:59Z" uid="36809" user="pfoten_weg_!_" changeset="2841284">
    <nd ref="244043662"/>
    <nd ref="244059987"/>
    <nd ref="244048747"/>
    <nd ref="244060020"/>
    <nd ref="244044845"/>
    <nd ref="244060010"/>
    <nd ref="244060012"/>
    <nd ref="244060037"/>
    <nd ref="244060038"/>
    <nd ref="244060052"/>
    <nd ref="244046049"/>
    <nd ref="256347321"/>
    <tag k="highway" v="tertiary"/>
    <tag k="merano:way_id" v="436"/>
    <tag k="name" v="Pfarrgasse / Via Parrocchia"/>
    <tag k="name:de" v="Pfarrgasse"/>
    <tag k="name:it" v="Via Parrocchia"/>
  </way>
  <way id="23660908" version="1" timestamp="2008-04-08T00:00:34Z" uid="20587" user="balrog-kun" changeset="88411">
    <nd ref="256347927"/>
    <nd ref="256347929"/>
    <nd ref="256347932"/>
    <nd ref="256347933"/>
    <nd ref="256347927"/>
    <tag k="amenity" v="parking"/>
    <tag k="created_by" v="JOSM"/>
  </way>
  <way id="23660909" version="1" timestamp="2008-04-08T00:00:35Z" uid="20587" user="balrog-kun" changeset="88411">
    <nd ref="256347936"/>
    <nd ref="256347937"/>
    <nd ref="255152511"/>
    <tag k="created_by" v="JOSM"/>
    <tag k="highway" v="footway"/>
  </way>
  <way id="23660910" version="1" timestamp="2008-04-08T00:00:35Z" uid="20587" user="balrog-kun" changeset="88411">
    <nd ref="256347938"/>
    <nd ref="255152602"/>
    <tag k="created_by" v="JOSM"/>
    <tag k="highway" v="pedestrian"/>
  </way>
  <way id="23660910" version="2" timestamp="2008-07-30T04:15:24Z" uid="20587" user="balrog-kun" changeset="629518">
    <nd ref="256347938"/>
    <nd ref="255152602"/>
    <tag k="created_by" v="JOSM"/>
    <tag k="highway" v="pedestrian"/>
    <tag k="name" v="Dziekania"/>
  </way>
  <way id="23660910" version="3" timestamp="2009-02-15T08:17:29Z" uid="20587" user="balrog-kun" changeset="446565">
    <nd ref="256347938"/>
    <nd ref="255152602"/>
    <tag k="created_by" v="JOSM"/>
    <tag k="highway" v="pedestrian"/>
    <tag k="name" v="Dziekania"/>
    <tag k="wikipedia" v="pl:Ulica Dziekania w Warszawie"/>
  </way>
  <way id="23660911" version="1" timestamp="2008-04-08T00:00:35Z" uid="20587" user="balrog-kun" changeset="88411">
    <nd ref="256347944"/>
    <nd ref="256347971"/>
    <nd ref="256347945"/>
    <tag k="created_by" v="JOSM"/>
    <tag k="highway" v="pedestrian"/>
    <tag k="name" v="Piwna"/>
  </way>
  <way id="23660911" version="2" timestamp="2008-07-30T03:17:17Z" uid="20587" user="balrog-kun" changeset="629518">
    <nd ref="256347944"/>
    <nd ref="256347971"/>
    <nd ref="256347945"/>
    <tag k="created_by" v="JOSM"/>
    <tag k="highway" v="pedestrian"/>
    <tag k="name" v="Piwna"/>
    <tag k="surface" v="cobblestone"/>
  </way>
  <way id="23660911" version="3" timestamp="2009-02-15T08:17:28Z" uid="20587" user="balrog-kun" changeset="446565">
    <nd ref="256347944"/>
    <nd ref="256347971"/>
    <nd ref="256347945"/>
    <tag k="created_by" v="JOSM"/>
    <tag k="highway" v="pedestrian"/>
    <tag k="name" v="Piwna"/>
    <tag k="surface" v="cobblestone"/>
    <tag k="wikipedia" v="pl:Ulica Piwna w Warszawie"/>
  </way>
  <way id="23660911" version="4" timestamp="2009-07-25T20:19:38Z" uid="20587" user="balrog-kun" changeset="1938453">
    <nd ref="256347944"/>
    <nd ref="447986143"/>
    <nd ref="447986141"/>
    <nd ref="256347971"/>
    <nd ref="256347945"/>
    <tag k="highway" v="pedestrian"/>
    <tag k="name" v="Piwna"/>
    <tag k="surface" v="cobblestone"/>
    <tag k="wikipedia" v="pl:Ulica Piwna w Warszawie"/>
  </way>
  <way id="23660911" version="5" timestamp="2009-07-25T22:08:07Z" uid="20587" user="balrog-kun" changeset="1939203">
    <nd ref="256347944"/>
    <nd ref="447986143"/>
    <nd ref="447986141"/>
    <nd ref="256347971"/>
    <nd ref="448025946"/>
    <nd ref="256347945"/>
    <tag k="highway" v="pedestrian"/>
    <tag k="name" v="Piwna"/>
    <tag k="surface" v="cobblestone"/>
    <tag k="wikipedia" v="pl:Ulica Piwna w Warszawie"/>
  </way>
  <way id="23660912" version="1" timestamp="2008-04-08T00:00:36Z" uid="20587" user="balrog-kun" changeset="88411">
    <nd ref="256347946"/>
    <nd ref="256347947"/>
    <nd ref="256347948"/>
    <nd ref="32572873"/>
    <nd ref="256347946"/>
    <tag k="area" v="yes"/>
    <tag k="created_by" v="JOSM"/>
    <tag k="highway" v="pedestrian"/>
  </way>
  <way id="23660912" version="2" timestamp="2008-05-02T00:26:55Z" uid="20587" user="balrog-kun" changeset="310806">
    <nd ref="256347946"/>
    <nd ref="256347947"/>
    <nd ref="256347948"/>
    <nd ref="32572873"/>
    <nd ref="256347946"/>
    <tag k="area" v="yes"/>
    <tag k="created_by" v="JOSM"/>
    <tag k="highway" v="pedestrian"/>
    <tag k="name" v="Rynek Starego Miasta"/>
    <tag k="name:en" v="Old Town market place"/>
  </way>
  <way id="23660912" version="3" timestamp="2008-07-30T03:17:18Z" uid="20587" user="balrog-kun" changeset="629518">
    <nd ref="256347946"/>
    <nd ref="256347947"/>
    <nd ref="256347948"/>
    <nd ref="32572873"/>
    <nd ref="256347946"/>
    <tag k="area" v="yes"/>
    <tag k="created_by" v="JOSM"/>
    <tag k="highway" v="pedestrian"/>
    <tag k="name" v="Rynek Starego Miasta"/>
    <tag k="name:en" v="Old Town market place"/>
    <tag k="surface" v="cobblestone"/>
  </way>
  <way id="23660912" version="4" timestamp="2009-01-11T09:39:21Z" uid="20587" user="balrog-kun" changeset="770650">
    <nd ref="256347946"/>
    <nd ref="256347947"/>
    <nd ref="256347948"/>
    <nd ref="32572873"/>
    <nd ref="256347946"/>
    <tag k="area" v="yes"/>
    <tag k="created_by" v="JOSM"/>
    <tag k="highway" v="pedestrian"/>
    <tag k="loc_name" v="Starówka"/>
    <tag k="name" v="Rynek Starego Miasta"/>
    <tag k="name:en" v="Old Town market place"/>
    <tag k="name:es" v="Plaza del Mercado"/>
    <tag k="surface" v="cobblestone"/>
    <tag k="wikipedia" v="Old Town Market Place, Warsaw"/>
  </way>
  <way id="23660913" version="1" timestamp="2008-04-08T00:00:36Z" uid="20587" user="balrog-kun" changeset="88411">
    <nd ref="256347947"/>
    <nd ref="256347949"/>
    <tag k="created_by" v="JOSM"/>
    <tag k="highway" v="pedestrian"/>
  </way>
  <way id="23660913" version="2" timestamp="2008-05-01T15:47:21Z" uid="20587" user="balrog-kun" changeset="299566">
    <nd ref="256347947"/>
    <nd ref="256347949"/>
    <nd ref="261028020"/>
    <tag k="created_by" v="JOSM"/>
    <tag k="highway" v="pedestrian"/>
  </way>
  <way id="23660913" version="3" timestamp="2008-07-30T03:17:18Z" uid="20587" user="balrog-kun" changeset="629518">
    <nd ref="256347946"/>
    <nd ref="256347947"/>
    <nd ref="256347949"/>
    <nd ref="261028020"/>
    <tag k="created_by" v="JOSM"/>
    <tag k="highway" v="pedestrian"/>
    <tag k="name" v="Barssa"/>
    <tag k="source" v="historical"/>
  </way>
  <way id="23660913" version="4" timestamp="2008-07-30T04:15:26Z" uid="20587" user="balrog-kun" changeset="629518">
    <nd ref="256347946"/>
    <nd ref="256347947"/>
    <tag k="created_by" v="JOSM"/>
    <tag k="highway" v="pedestrian"/>
    <tag k="name" v="Barssa"/>
    <tag k="source" v="historical"/>
  </way>
  <way id="23660914" version="1" timestamp="2008-04-08T00:00:36Z" uid="20587" user="balrog-kun" changeset="88411">
    <nd ref="32572881"/>
    <nd ref="256347950"/>
    <nd ref="256347951"/>
    <nd ref="256347952"/>
    <nd ref="255152601"/>
    <nd ref="32572877"/>
    <nd ref="32572881"/>
    <tag k="area" v="yes"/>
    <tag k="created_by" v="JOSM"/>
    <tag k="highway" v="pedestrian"/>
    <tag k="name" v="Plac Zamkowy"/>
  </way>
  <way id="23660914" version="2" timestamp="2009-02-15T07:04:43Z" uid="20587" user="balrog-kun" changeset="446565">
    <nd ref="32572881"/>
    <nd ref="256347950"/>
    <nd ref="256347951"/>
    <nd ref="256347952"/>
    <nd ref="255152601"/>
    <nd ref="32572877"/>
    <nd ref="32572881"/>
    <tag k="area" v="yes"/>
    <tag k="created_by" v="JOSM"/>
    <tag k="highway" v="pedestrian"/>
    <tag k="name" v="Plac Zamkowy"/>
    <tag k="name:en" v="Castle Square"/>
    <tag k="unesco_ref" v="30"/>
    <tag k="wikipedia" v="pl:Castle Square, Warsaw"/>
  </way>
  <way id="23660914" version="3" timestamp="2009-05-24T17:13:10Z" uid="20587" user="balrog-kun" changeset="1308578">
    <nd ref="32572881"/>
    <nd ref="256347950"/>
    <nd ref="256347951"/>
    <nd ref="410654017"/>
    <nd ref="256347952"/>
    <nd ref="255152601"/>
    <nd ref="32572877"/>
    <nd ref="32572881"/>
    <tag k="area" v="yes"/>
    <tag k="created_by" v="JOSM"/>
    <tag k="highway" v="pedestrian"/>
    <tag k="name" v="Plac Zamkowy"/>
    <tag k="name:en" v="Castle Square"/>
    <tag k="unesco_ref" v="30"/>
    <tag k="wikipedia" v="pl:Castle Square, Warsaw"/>
  </way>
  <way id="23660915" version="1" timestamp="2008-04-08T00:00:37Z" uid="20587" user="balrog-kun" changeset="88411">
    <nd ref="256347954"/>
    <nd ref="256347997"/>
    <nd ref="119902592"/>
    <nd ref="256347973"/>
    <nd ref="32572879"/>
    <nd ref="256347955"/>
    <nd ref="256347956"/>
    <tag k="created_by" v="JOSM"/>
    <tag k="highway" v="tertiary"/>
    <tag k="name" v="Mostowa"/>
  </way>
  <way id="23660915" version="2" timestamp="2008-04-08T00:45:40Z" uid="20587" user="balrog-kun" changeset="88411">
    <nd ref="256347954"/>
    <nd ref="256347997"/>
    <nd ref="119902592"/>
    <nd ref="256347973"/>
    <nd ref="32572879"/>
    <nd ref="256347955"/>
    <nd ref="256347956"/>
    <tag k="created_by" v="JOSM"/>
    <tag k="highway" v="tertiary"/>
    <tag k="name" v="Mostowa"/>
    <tag k="surface" v="cobblestone"/>
  </way>
  <way id="23660915" version="3" timestamp="2008-07-30T03:17:17Z" uid="20587" user="balrog-kun" changeset="629518">
    <nd ref="256347954"/>
    <nd ref="256347997"/>
    <nd ref="119902592"/>
    <nd ref="256347973"/>
    <tag k="created_by" v="JOSM"/>
    <tag k="highway" v="tertiary"/>
    <tag k="name" v="Boleść"/>
    <tag k="surface" v="cobblestone"/>
  </way>
  <way id="23660915" version="4" timestamp="2009-02-15T07:36:05Z" uid="20587" user="balrog-kun" changeset="446565">
    <nd ref="256347954"/>
    <nd ref="256347997"/>
    <nd ref="119902592"/>
    <nd ref="256347973"/>
    <tag k="created_by" v="JOSM"/>
    <tag k="highway" v="tertiary"/>
    <tag k="name" v="Boleść"/>
    <tag k="surface" v="cobblestone"/>
    <tag k="wikipedia" v="pl:Ulica Boleść w Warszawie"/>
  </way>
  <way id="23660916" version="1" timestamp="2008-04-08T00:00:37Z" uid="20587" user="balrog-kun" changeset="88411">
    <nd ref="256347957"/>
    <nd ref="256347958"/>
    <nd ref="256347959"/>
    <nd ref="256347954"/>
    <tag k="created_by" v="JOSM"/>
    <tag k="highway" v="tertiary"/>
    <tag k="name" v="Mostowa"/>
    <tag k="oneway" v="yes"/>
  </way>
  <way id="23660917" version="1" timestamp="2008-04-08T00:00:38Z" uid="20587" user="balrog-kun" changeset="88411">
    <nd ref="256347954"/>
    <nd ref="256347960"/>
    <nd ref="256347961"/>
    <nd ref="256347962"/>
    <tag k="created_by" v="JOSM"/>
    <tag k="highway" v="tertiary"/>
    <tag k="name" v="Mostowa"/>
    <tag k="oneway" v="yes"/>
  </way>
  <way id="23660918" version="1" timestamp="2008-04-08T00:00:38Z" uid="20587" user="balrog-kun" changeset="88411">
    <nd ref="256347965"/>
    <nd ref="256347966"/>
    <nd ref="256347967"/>
    <nd ref="256347968"/>
    <nd ref="256347969"/>
    <nd ref="256347965"/>
    <nd ref="256347964"/>
    <nd ref="256347963"/>
    <nd ref="32572874"/>
    <nd ref="256347953"/>
    <nd ref="32572879"/>
    <tag k="created_by" v="JOSM"/>
    <tag k="highway" v="pedestrian"/>
    <tag k="name" v="Brzozowa"/>
    <tag k="surface" v="cobblestone"/>
  </way>
  <way id="23660918" version="2" timestamp="2008-07-30T03:17:17Z" uid="20587" user="balrog-kun" changeset="629518">
    <nd ref="256347965"/>
    <nd ref="256347966"/>
    <nd ref="256347967"/>
    <nd ref="256347968"/>
    <nd ref="256347969"/>
    <nd ref="256347965"/>
    <nd ref="256347964"/>
    <nd ref="256347963"/>
    <nd ref="32572874"/>
    <nd ref="256347953"/>
    <nd ref="282141270"/>
    <nd ref="32572879"/>
    <tag k="created_by" v="JOSM"/>
    <tag k="highway" v="service"/>
    <tag k="name" v="Brzozowa"/>
    <tag k="surface" v="cobblestone"/>
  </way>
  <way id="23660918" version="3" timestamp="2008-08-06T15:25:01Z" uid="20587" user="balrog-kun" changeset="105965">
    <nd ref="256347965"/>
    <nd ref="256347966"/>
    <nd ref="256347967"/>
    <nd ref="256347968"/>
    <nd ref="256347969"/>
    <nd ref="256347965"/>
    <nd ref="256347964"/>
    <nd ref="256347963"/>
    <nd ref="32572874"/>
    <nd ref="285133793"/>
    <nd ref="285133798"/>
    <nd ref="256347953"/>
    <nd ref="282141270"/>
    <nd ref="32572879"/>
    <tag k="created_by" v="JOSM"/>
    <tag k="highway" v="service"/>
    <tag k="name" v="Brzozowa"/>
    <tag k="surface" v="cobblestone"/>
  </way>
  <way id="23660918" version="4" timestamp="2009-02-15T07:36:04Z" uid="20587" user="balrog-kun" changeset="446565">
    <nd ref="256347965"/>
    <nd ref="256347966"/>
    <nd ref="256347967"/>
    <nd ref="256347968"/>
    <nd ref="256347969"/>
    <nd ref="256347965"/>
    <nd ref="256347964"/>
    <nd ref="256347963"/>
    <nd ref="32572874"/>
    <nd ref="285133793"/>
    <nd ref="285133798"/>
    <nd ref="256347953"/>
    <nd ref="282141270"/>
    <nd ref="32572879"/>
    <tag k="created_by" v="JOSM"/>
    <tag k="highway" v="service"/>
    <tag k="name" v="Brzozowa"/>
    <tag k="surface" v="cobblestone"/>
    <tag k="wikipedia" v="pl:Ulica Brzozowa w Warszawie"/>
  </way>
  <way id="23660918" version="5" timestamp="2009-08-06T00:42:33Z" uid="20587" user="balrog-kun" changeset="2051553">
    <nd ref="256347965"/>
    <nd ref="457281544"/>
    <nd ref="256347966"/>
    <nd ref="256347967"/>
    <nd ref="256347968"/>
    <nd ref="256347969"/>
    <nd ref="256347965"/>
    <nd ref="256347964"/>
    <nd ref="256347963"/>
    <nd ref="32572874"/>
    <nd ref="285133793"/>
    <nd ref="285133798"/>
    <nd ref="256347953"/>
    <nd ref="282141270"/>
    <nd ref="32572879"/>
    <tag k="highway" v="service"/>
    <tag k="name" v="Brzozowa"/>
    <tag k="surface" v="cobblestone"/>
    <tag k="wikipedia" v="pl:Ulica Brzozowa w Warszawie"/>
  </way>
  <way id="23660919" version="1" timestamp="2008-04-08T00:00:38Z" uid="20587" user="balrog-kun" changeset="88411">
    <nd ref="255152602"/>
    <nd ref="256347939"/>
    <nd ref="256347940"/>
    <nd ref="256347941"/>
    <nd ref="256347942"/>
    <tag k="created_by" v="JOSM"/>
    <tag k="highway" v="pedestrian"/>
    <tag k="name" v="Jezuicka"/>
  </way>
  <way id="23660919" version="2" timestamp="2008-07-30T04:15:24Z" uid="20587" user="balrog-kun" changeset="629518">
    <nd ref="255152601"/>
    <nd ref="255152602"/>
    <nd ref="256347939"/>
    <tag k="created_by" v="JOSM"/>
    <tag k="highway" v="pedestrian"/>
    <tag k="name" v="Kanonia"/>
  </way>
  <way id="23660919" version="3" timestamp="2009-02-15T08:17:33Z" uid="20587" user="balrog-kun" changeset="446565">
    <nd ref="255152601"/>
    <nd ref="255152602"/>
    <nd ref="256347939"/>
    <tag k="created_by" v="JOSM"/>
    <tag k="highway" v="pedestrian"/>
    <tag k="name" v="Kanonia"/>
    <tag k="wikipedia" v="pl:Ulica Kanonia w Warszawie"/>
  </way>
  <way id="23660920" version="1" timestamp="2008-04-08T00:00:39Z" uid="20587" user="balrog-kun" changeset="88411">
    <nd ref="32572877"/>
    <nd ref="255152601"/>
    <nd ref="255152602"/>
    <tag k="created_by" v="JOSM"/>
    <tag k="highway" v="pedestrian"/>
  </way>
  <way id="23660920" version="2" timestamp="2008-07-30T04:15:27Z" uid="20587" user="balrog-kun" changeset="629518">
    <nd ref="32572877"/>
    <nd ref="255152601"/>
    <tag k="created_by" v="JOSM"/>
    <tag k="highway" v="pedestrian"/>
  </way>
  <way id="23660921" version="1" timestamp="2008-04-08T00:00:39Z" uid="20587" user="balrog-kun" changeset="88411">
    <nd ref="256347970"/>
    <nd ref="256347971"/>
    <nd ref="256347972"/>
    <tag k="created_by" v="JOSM"/>
    <tag k="highway" v="pedestrian"/>
    <tag k="name" v="Zapiecek"/>
  </way>
  <way id="23660921" version="2" timestamp="2008-05-01T15:47:22Z" uid="20587" user="balrog-kun" changeset="299566">
    <nd ref="256347970"/>
    <nd ref="256347971"/>
    <nd ref="256347972"/>
    <nd ref="261027975"/>
    <nd ref="261027997"/>
    <nd ref="261027977"/>
    <tag k="created_by" v="JOSM"/>
    <tag k="highway" v="pedestrian"/>
    <tag k="name" v="Zapiecek"/>
  </way>
  <way id="23660921" version="3" timestamp="2008-07-30T03:17:19Z" uid="20587" user="balrog-kun" changeset="629518">
    <nd ref="256347970"/>
    <nd ref="256347971"/>
    <nd ref="256347972"/>
    <nd ref="261027975"/>
    <nd ref="261027997"/>
    <tag k="created_by" v="JOSM"/>
    <tag k="highway" v="pedestrian"/>
    <tag k="name" v="Zapiecek"/>
    <tag k="surface" v="cobblestone"/>
  </way>
  <way id="23660921" version="4" timestamp="2009-02-15T08:17:29Z" uid="20587" user="balrog-kun" changeset="446565">
    <nd ref="256347970"/>
    <nd ref="256347971"/>
    <nd ref="256347972"/>
    <nd ref="261027975"/>
    <nd ref="261027997"/>
    <tag k="created_by" v="JOSM"/>
    <tag k="highway" v="pedestrian"/>
    <tag k="name" v="Zapiecek"/>
    <tag k="surface" v="cobblestone"/>
    <tag k="wikipedia" v="pl:Ulica Zapiecek w Warszawie"/>
  </way>
  <way id="23660922" version="1" timestamp="2008-04-08T00:00:39Z" uid="20587" user="balrog-kun" changeset="88411">
    <nd ref="256347973"/>
    <nd ref="256347974"/>
    <tag k="created_by" v="JOSM"/>
    <tag k="highway" v="tertiary"/>
  </way>
  <way id="23660922" version="2" timestamp="2008-07-30T03:17:18Z" uid="20587" user="balrog-kun" changeset="629518">
    <nd ref="256347973"/>
    <nd ref="282141268"/>
    <nd ref="256347974"/>
    <nd ref="282141521"/>
    <nd ref="282141523"/>
    <nd ref="282141524"/>
    <nd ref="282141525"/>
    <tag k="created_by" v="JOSM"/>
    <tag k="highway" v="residential"/>
    <tag k="name" v="Bugaj"/>
  </way>
  <way id="23660922" version="3" timestamp="2009-01-11T09:39:21Z" uid="20587" user="balrog-kun" changeset="770650">
    <nd ref="256347973"/>
    <nd ref="282141268"/>
    <nd ref="256347974"/>
    <nd ref="282141521"/>
    <nd ref="282141523"/>
    <nd ref="282141524"/>
    <nd ref="331143210"/>
    <nd ref="282141525"/>
    <tag k="created_by" v="JOSM"/>
    <tag k="highway" v="residential"/>
    <tag k="name" v="Bugaj"/>
  </way>
  <way id="23660922" version="4" timestamp="2009-02-15T07:36:06Z" uid="20587" user="balrog-kun" changeset="446565">
    <nd ref="256347973"/>
    <nd ref="282141268"/>
    <nd ref="256347974"/>
    <nd ref="282141521"/>
    <nd ref="282141523"/>
    <nd ref="282141524"/>
    <nd ref="331143210"/>
    <nd ref="282141525"/>
    <tag k="created_by" v="JOSM"/>
    <tag k="highway" v="residential"/>
    <tag k="name" v="Bugaj"/>
    <tag k="wikipedia" v="pl:Ulica Bugaj w Warszawie"/>
  </way>
  <way id="23660923" version="1" timestamp="2008-04-08T00:00:40Z" uid="20587" user="balrog-kun" changeset="88411">
    <nd ref="256347975"/>
    <nd ref="256347976"/>
    <nd ref="256347977"/>
    <nd ref="256347978"/>
    <nd ref="256347979"/>
    <nd ref="256347980"/>
    <nd ref="256347981"/>
    <nd ref="256347982"/>
    <nd ref="256347959"/>
    <tag k="created_by" v="JOSM"/>
    <tag k="highway" v="cycleway"/>
  </way>
  <way id="23660923" version="2" timestamp="2008-08-06T00:49:55Z" uid="20587" user="balrog-kun" changeset="96107">
    <nd ref="284008766"/>
    <nd ref="254504848"/>
    <nd ref="284008765"/>
    <nd ref="284008764"/>
    <nd ref="284008762"/>
    <nd ref="251852561"/>
    <nd ref="284008761"/>
    <tag k="created_by" v="JOSM"/>
    <tag k="highway" v="cycleway"/>
  </way>
  <way id="23660924" version="1" timestamp="2008-04-08T00:00:40Z" uid="20587" user="balrog-kun" changeset="88411">
    <nd ref="256347959"/>
    <nd ref="256347960"/>
    <nd ref="256347983"/>
    <nd ref="256347984"/>
    <nd ref="256348006"/>
    <nd ref="256347985"/>
    <nd ref="256347986"/>
    <nd ref="256347987"/>
    <nd ref="256347988"/>
    <nd ref="256347989"/>
    <nd ref="256347990"/>
    <nd ref="256347991"/>
    <nd ref="256347992"/>
    <nd ref="256347993"/>
    <nd ref="256348011"/>
    <nd ref="256348012"/>
    <nd ref="256348013"/>
    <nd ref="256348014"/>
    <tag k="created_by" v="JOSM"/>
    <tag k="highway" v="cycleway"/>
  </way>
  <way id="23660924" version="2" timestamp="2010-05-27T12:17:27Z" uid="20587" user="balrog-kun" changeset="4821472">
    <nd ref="256347959"/>
    <nd ref="256347960"/>
    <nd ref="256347983"/>
    <nd ref="256347984"/>
    <nd ref="256348006"/>
    <nd ref="256347985"/>
    <nd ref="256347986"/>
    <nd ref="256347987"/>
    <nd ref="256347988"/>
    <nd ref="256347989"/>
    <nd ref="256347990"/>
    <nd ref="256347991"/>
    <nd ref="256347992"/>
    <nd ref="256347993"/>
    <nd ref="256348011"/>
    <nd ref="256348012"/>
    <nd ref="256348013"/>
    <nd ref="256348014"/>
    <nd ref="750715974"/>
    <nd ref="750714721"/>
    <nd ref="750714428"/>
    <nd ref="750714807"/>
    <nd ref="750714804"/>
    <nd ref="750715154"/>
    <nd ref="750715921"/>
    <nd ref="750714644"/>
    <nd ref="750715009"/>
    <nd ref="750715346"/>
    <nd ref="750715700"/>
    <nd ref="750714462"/>
    <nd ref="750714858"/>
    <nd ref="750715216"/>
    <nd ref="750714940"/>
    <tag k="highway" v="cycleway"/>
  </way>
  <way id="23660925" version="1" timestamp="2008-04-08T00:00:40Z" uid="20587" user="balrog-kun" changeset="88411">
    <nd ref="256347977"/>
    <nd ref="256347997"/>
    <tag k="created_by" v="JOSM"/>
    <tag k="highway" v="footway"/>
  </way>
  <way id="23660926" version="1" timestamp="2008-04-08T00:00:41Z" uid="20587" user="balrog-kun" changeset="88411">
    <nd ref="256347999"/>
    <nd ref="256347984"/>
    <nd ref="256347998"/>
    <tag k="created_by" v="JOSM"/>
    <tag k="highway" v="service"/>
  </way>
  <way id="23660926" version="2" timestamp="2010-05-27T12:18:09Z" uid="20587" user="balrog-kun" changeset="4821472">
    <nd ref="256347999"/>
    <nd ref="256347984"/>
    <nd ref="256347998"/>
    <tag k="highway" v="service"/>
    <tag k="lanes" v="1"/>
    <tag k="oneway" v="yes"/>
  </way>
  <way id="23660927" version="1" timestamp="2008-04-08T00:00:41Z" uid="20587" user="balrog-kun" changeset="88411">
    <nd ref="256348000"/>
    <nd ref="256348001"/>
    <nd ref="256348002"/>
    <nd ref="256347999"/>
    <nd ref="256348000"/>
    <tag k="amenity" v="parking"/>
    <tag k="created_by" v="JOSM"/>
  </way>
  <way id="23660928" version="1" timestamp="2008-04-08T00:00:41Z" uid="20587" user="balrog-kun" changeset="88411">
    <nd ref="256348003"/>
    <nd ref="256348004"/>
    <nd ref="256348005"/>
    <nd ref="256348006"/>
    <tag k="created_by" v="JOSM"/>
    <tag k="highway" v="cycleway"/>
  </way>
  <way id="23660928" version="2" timestamp="2008-07-30T03:17:20Z" uid="20587" user="balrog-kun" changeset="629518">
    <nd ref="256347983"/>
    <nd ref="256348004"/>
    <nd ref="256348005"/>
    <nd ref="256348006"/>
    <tag k="created_by" v="JOSM"/>
    <tag k="highway" v="cycleway"/>
  </way>
  <way id="23660929" version="1" timestamp="2008-04-08T00:00:41Z" uid="20587" user="balrog-kun" changeset="88411">
    <nd ref="251853440"/>
    <nd ref="256348008"/>
    <nd ref="35966384"/>
    <tag k="created_by" v="JOSM"/>
    <tag k="highway" v="service"/>
    <tag k="oneway" v="yes"/>
  </way>
  <way id="23660930" version="1" timestamp="2008-04-08T00:00:42Z" uid="20587" user="balrog-kun" changeset="88411">
    <nd ref="256348008"/>
    <nd ref="256348009"/>
    <nd ref="256348010"/>
    <nd ref="35966384"/>
    <tag k="created_by" v="JOSM"/>
    <tag k="highway" v="service"/>
    <tag k="oneway" v="yes"/>
  </way>
  <way id="23660931" version="1" timestamp="2008-04-08T00:00:42Z" uid="20587" user="balrog-kun" changeset="88411">
    <nd ref="224818852"/>
    <nd ref="224818803"/>
    <tag k="created_by" v="Potlatch 0.6a"/>
    <tag k="highway" v="residential"/>
    <tag k="name" v="Sowia"/>
  </way>
  <way id="23660931" version="2" timestamp="2009-02-15T06:41:13Z" uid="20587" user="balrog-kun" changeset="446565">
    <nd ref="224818852"/>
    <nd ref="345516596"/>
    <nd ref="345516594"/>
    <nd ref="224818803"/>
    <tag k="created_by" v="Potlatch 0.6a"/>
    <tag k="highway" v="residential"/>
    <tag k="name" v="Sowia"/>
  </way>
  <way id="23660996" version="1" timestamp="2008-04-08T00:21:53Z" uid="20587" user="balrog-kun" changeset="88411">
    <nd ref="256348411"/>
    <nd ref="255066750"/>
    <tag k="created_by" v="JOSM"/>
    <tag k="highway" v="construction"/>
    <tag k="name" v="Olszowa"/>
  </way>
  <way id="23660996" version="4" timestamp="2010-10-05T13:37:16Z" uid="20587" user="balrog-kun" changeset="5961352">
    <nd ref="256348411"/>
    <nd ref="255066750"/>
    <nd ref="938505010"/>
    <nd ref="938504814"/>
    <nd ref="255066749"/>
    <tag k="highway" v="residential"/>
    <tag k="landuse" v="1.5"/>
    <tag k="name" v="Olszowa"/>
  </way>
  <way id="23660996" version="5" timestamp="2011-01-24T14:55:03Z" uid="20587" user="balrog-kun" changeset="7073235">
    <nd ref="256348411"/>
    <nd ref="255066750"/>
    <nd ref="938505010"/>
    <nd ref="938504814"/>
    <nd ref="255066749"/>
    <tag k="highway" v="residential"/>
    <tag k="lanes" v="1.5"/>
    <tag k="name" v="Olszowa"/>
  </way>
  <way id="23660997" version="1" timestamp="2008-04-08T00:21:54Z" uid="20587" user="balrog-kun" changeset="88411">
    <nd ref="255066750"/>
    <nd ref="255066749"/>
    <tag k="created_by" v="JOSM"/>
    <tag k="highway" v="residential"/>
    <tag k="name" v="Olszowa"/>
  </way>
  <way id="23660997" version="2" timestamp="2010-10-05T13:37:21Z" uid="20587" user="balrog-kun" changeset="5961352"/>
  <way id="23660998" version="1" timestamp="2008-04-08T00:21:54Z" uid="20587" user="balrog-kun" changeset="88411">
    <nd ref="256348412"/>
    <nd ref="256348413"/>
    <nd ref="256348414"/>
    <nd ref="256348415"/>
    <nd ref="256348416"/>
    <nd ref="256348417"/>
    <tag k="created_by" v="JOSM"/>
    <tag k="highway" v="residential"/>
  </way>
  <way id="23660998" version="2" timestamp="2008-10-26T03:05:42Z" uid="20587" user="balrog-kun" changeset="576102">
    <nd ref="256348412"/>
    <nd ref="256348413"/>
    <nd ref="307577050"/>
    <nd ref="256348414"/>
    <nd ref="307577049"/>
    <nd ref="256348415"/>
    <nd ref="256348416"/>
    <nd ref="256348417"/>
    <tag k="created_by" v="JOSM"/>
    <tag k="highway" v="residential"/>
  </way>
  <way id="23660999" version="1" timestamp="2008-04-08T00:21:54Z" uid="20587" user="balrog-kun" changeset="88411">
    <nd ref="119831110"/>
    <nd ref="256348418"/>
    <nd ref="256348420"/>
    <tag k="created_by" v="JOSM"/>
    <tag k="highway" v="residential"/>
  </way>
</osm>
