<?xml version='1.0' encoding='UTF-8'?>
<osm version="0.6" generator="libosmium/2.20.0">
  <way id="2371682" version="5" timestamp="2010-07-06T17:17:22Z" uid="74617" user="JohnSmith" changeset="5152225">
    <nd ref="10293534"/>
    <nd ref="10293535"/>
    <nd ref="10293540"/>
    <nd ref="10293541"/>
    <tag k="highway" v="residential"/>
    <tag k="maxspeed" v="50"/>
    <tag k="maxspeed:source" v="default residential speed limit in Australia"/>
    <tag k="name" v="Shearwater Esplanade"/>
  </way>
  <way id="2371687" version="5" timestamp="2010-05-28T08:18:10Z" uid="4467" user="Rosscoe" changeset="4828439">
    <nd ref="10293540"/>
    <nd ref="10293579"/>
    <nd ref="10293625"/>
    <nd ref="10293548"/>
    <nd ref="10293549"/>
    <nd ref="10293552"/>
    <tag k="highway" v="residential"/>
    <tag k="name" v="Runaway Bay Avenue"/>
  </way>
  <way id="2371687" version="6" timestamp="2010-07-06T17:19:00Z" uid="74617" user="JohnSmith" changeset="5152225">
    <nd ref="10293540"/>
    <nd ref="10293579"/>
    <nd ref="10293625"/>
    <nd ref="10293548"/>
    <nd ref="10293549"/>
    <nd ref="10293552"/>
    <tag k="highway" v="residential"/>
    <tag k="maxspeed" v="50"/>
    <tag k="maxspeed:source" v="default residential speed limit in Australia"/>
    <tag k="name" v="Runaway Bay Avenue"/>
  </way>
  <way id="2371698" version="4" timestamp="2010-07-06T17:14:49Z" uid="74617" user="JohnSmith" changeset="5152225">
    <nd ref="10293603"/>
    <nd ref="10293610"/>
    <nd ref="10293615"/>
    <nd ref="10293619"/>
    <nd ref="10293620"/>
    <nd ref="10293624"/>
    <nd ref="10293621"/>
    <nd ref="10293622"/>
    <nd ref="10293623"/>
    <tag k="highway" v="residential"/>
    <tag k="maxspeed" v="50"/>
    <tag k="maxspeed:source" v="default residential speed limit in Australia"/>
    <tag k="name" v="Daru Avenue"/>
  </way>
  <way id="2371700" version="4" timestamp="2010-06-01T02:59:20Z" uid="4467" user="Rosscoe" changeset="4871181">
    <nd ref="10293615"/>
    <nd ref="10293616"/>
    <nd ref="10293617"/>
    <tag k="created_by" v="Potlatch alpha"/>
    <tag k="highway" v="residential"/>
    <tag k="name" v="Salamau Street"/>
  </way>
  <way id="2371700" version="5" timestamp="2010-07-06T17:13:31Z" uid="74617" user="JohnSmith" changeset="5152225">
    <nd ref="10293615"/>
    <nd ref="10293616"/>
    <nd ref="10293617"/>
    <tag k="highway" v="residential"/>
    <tag k="maxspeed" v="50"/>
    <tag k="maxspeed:source" v="default residential speed limit in Australia"/>
    <tag k="name" v="Salamau Street"/>
  </way>
  <way id="2371704" version="4" timestamp="2010-05-28T08:18:19Z" uid="4467" user="Rosscoe" changeset="4828439">
    <nd ref="10293632"/>
    <nd ref="10293630"/>
    <nd ref="10293535"/>
    <tag k="highway" v="residential"/>
    <tag k="name" v="Sandakan Avenue"/>
  </way>
  <way id="2371704" version="5" timestamp="2010-07-06T17:13:01Z" uid="74617" user="JohnSmith" changeset="5152225">
    <nd ref="10293632"/>
    <nd ref="10293630"/>
    <nd ref="10293535"/>
    <tag k="highway" v="residential"/>
    <tag k="maxspeed" v="50"/>
    <tag k="maxspeed:source" v="default residential speed limit in Australia"/>
    <tag k="name" v="Sandakan Avenue"/>
  </way>
  <way id="2371709" version="8" timestamp="2010-05-28T08:12:35Z" uid="4467" user="Rosscoe" changeset="4828403">
    <nd ref="10293561"/>
    <nd ref="10293558"/>
    <nd ref="10293562"/>
    <nd ref="10293552"/>
    <nd ref="303903231"/>
    <nd ref="86208966"/>
    <nd ref="10293565"/>
    <nd ref="752236166"/>
    <nd ref="10293570"/>
    <nd ref="752236229"/>
    <nd ref="10293566"/>
    <nd ref="10293571"/>
    <tag k="highway" v="residential"/>
    <tag k="name" v="Markham Avenue"/>
  </way>
  <way id="2371709" version="9" timestamp="2010-07-06T17:15:18Z" uid="74617" user="JohnSmith" changeset="5152225">
    <nd ref="10293561"/>
    <nd ref="10293558"/>
    <nd ref="10293562"/>
    <nd ref="10293552"/>
    <nd ref="303903231"/>
    <nd ref="86208966"/>
    <nd ref="10293565"/>
    <nd ref="752236166"/>
    <nd ref="10293570"/>
    <nd ref="752236229"/>
    <nd ref="10293566"/>
    <nd ref="10293571"/>
    <tag k="highway" v="residential"/>
    <tag k="maxspeed" v="50"/>
    <tag k="maxspeed:source" v="default residential speed limit in Australia"/>
    <tag k="name" v="Markham Avenue"/>
  </way>
  <way id="2371711" version="4" timestamp="2010-07-06T17:13:51Z" uid="74617" user="JohnSmith" changeset="5152225">
    <nd ref="10293579"/>
    <nd ref="10293578"/>
    <nd ref="10293577"/>
    <nd ref="10293574"/>
    <tag k="highway" v="residential"/>
    <tag k="maxspeed" v="50"/>
    <tag k="maxspeed:source" v="default residential speed limit in Australia"/>
    <tag k="name" v="Huon Crescent"/>
  </way>
  <way id="2371713" version="4" timestamp="2010-05-28T08:13:12Z" uid="4467" user="Rosscoe" changeset="4828403">
    <nd ref="10293569"/>
    <nd ref="10293570"/>
    <tag k="highway" v="residential"/>
    <tag k="name" v="Goroka Place"/>
    <tag k="source" v="nearmap"/>
  </way>
  <way id="2371713" version="5" timestamp="2010-07-06T17:19:48Z" uid="74617" user="JohnSmith" changeset="5152225">
    <nd ref="10293569"/>
    <nd ref="10293570"/>
    <tag k="highway" v="residential"/>
    <tag k="maxspeed" v="50"/>
    <tag k="maxspeed:source" v="default residential speed limit in Australia"/>
    <tag k="name" v="Goroka Place"/>
    <tag k="source" v="nearmap"/>
  </way>
</osm>
