<?xml version='1.0' encoding='UTF-8'?>
<osm version="0.6" generator="libosmium/2.20.0">
  <way id="23718006" version="8" timestamp="2010-04-17T13:03:01Z" uid="4467" user="Rosscoe" changeset="4447495">
    <nd ref="256836591"/>
    <nd ref="699723880"/>
    <tag k="highway" v="residential"/>
    <tag k="name" v="Roslyn Street"/>
  </way>
  <way id="23718006" version="10" timestamp="2010-07-09T05:17:51Z" uid="74617" user="JohnSmith" changeset="5170986">
    <nd ref="256836591"/>
    <nd ref="699723880"/>
    <tag k="highway" v="residential"/>
    <tag k="lanes" v="2"/>
    <tag k="maxspeed" v="50"/>
    <tag k="maxspeed:source" v="default residential speed limit in Australia"/>
    <tag k="name" v="Roslyn Street"/>
    <tag k="surface" v="paved"/>
  </way>
  <way id="23718051" version="1" timestamp="2008-04-11T07:28:06Z" uid="30201" user="rrankin" changeset="109031">
    <nd ref="256834752"/>
    <nd ref="256837231"/>
    <nd ref="256834845"/>
    <tag k="created_by" v="JOSM"/>
    <tag k="waterway" v="river"/>
  </way>
  <way id="23718051" version="2" timestamp="2008-04-13T10:56:34Z" uid="30201" user="rrankin" changeset="133061"/>
  <way id="23718074" version="8" timestamp="2010-07-09T05:17:47Z" uid="74617" user="JohnSmith" changeset="5170986">
    <nd ref="256836809"/>
    <nd ref="440543065"/>
    <nd ref="256836811"/>
    <nd ref="256837343"/>
    <nd ref="440546652"/>
    <nd ref="256837344"/>
    <nd ref="256837345"/>
    <nd ref="266294419"/>
    <tag k="highway" v="residential"/>
    <tag k="lanes" v="2"/>
    <tag k="maxspeed" v="50"/>
    <tag k="maxspeed:source" v="default residential speed limit in Australia"/>
    <tag k="name" v="Patterson Avenue"/>
    <tag k="surface" v="paved"/>
  </way>
  <way id="23718081" version="9" timestamp="2010-07-09T05:14:27Z" uid="74617" user="JohnSmith" changeset="5170986">
    <nd ref="256837375"/>
    <nd ref="256837384"/>
    <nd ref="256837385"/>
    <nd ref="660911851"/>
    <nd ref="256837628"/>
    <nd ref="256837640"/>
    <nd ref="256837645"/>
    <nd ref="256837386"/>
    <tag k="highway" v="residential"/>
    <tag k="lanes" v="2"/>
    <tag k="maxspeed" v="50"/>
    <tag k="maxspeed:source" v="default residential speed limit in Australia"/>
    <tag k="name" v="Daniel Street"/>
    <tag k="surface" v="paved"/>
  </way>
  <way id="23718084" version="7" timestamp="2010-04-17T13:03:01Z" uid="4467" user="Rosscoe" changeset="4447495">
    <nd ref="256837385"/>
    <nd ref="699723881"/>
    <tag k="highway" v="residential"/>
    <tag k="name" v="Meldan Street"/>
  </way>
  <way id="23718084" version="9" timestamp="2010-07-09T05:17:20Z" uid="74617" user="JohnSmith" changeset="5170986">
    <nd ref="256837385"/>
    <nd ref="699723881"/>
    <tag k="highway" v="residential"/>
    <tag k="lanes" v="2"/>
    <tag k="maxspeed" v="50"/>
    <tag k="maxspeed:source" v="default residential speed limit in Australia"/>
    <tag k="name" v="Meldan Street"/>
    <tag k="surface" v="paved"/>
  </way>
  <way id="23718097" version="5" timestamp="2010-07-09T05:19:22Z" uid="74617" user="JohnSmith" changeset="5170986">
    <nd ref="266276544"/>
    <nd ref="256837477"/>
    <nd ref="256837476"/>
    <nd ref="256837475"/>
    <nd ref="440545590"/>
    <nd ref="256837474"/>
    <nd ref="256837473"/>
    <nd ref="256837472"/>
    <nd ref="256837501"/>
    <tag k="highway" v="residential"/>
    <tag k="lanes" v="2"/>
    <tag k="maxspeed" v="50"/>
    <tag k="maxspeed:source" v="default residential speed limit in Australia"/>
    <tag k="name" v="Varcoe Close"/>
    <tag k="surface" v="paved"/>
  </way>
  <way id="23718122" version="7" timestamp="2010-07-09T05:16:31Z" uid="74617" user="JohnSmith" changeset="5170986">
    <nd ref="256837627"/>
    <nd ref="256837653"/>
    <nd ref="660911850"/>
    <nd ref="256837628"/>
    <tag k="highway" v="residential"/>
    <tag k="lanes" v="2"/>
    <tag k="maxspeed" v="50"/>
    <tag k="maxspeed:source" v="default residential speed limit in Australia"/>
    <tag k="name" v="Faelen Street"/>
    <tag k="surface" v="paved"/>
  </way>
  <way id="23718127" version="6" timestamp="2010-07-09T05:16:04Z" uid="74617" user="JohnSmith" changeset="5170986">
    <nd ref="256837639"/>
    <nd ref="256837652"/>
    <nd ref="256837640"/>
    <tag k="highway" v="residential"/>
    <tag k="lanes" v="2"/>
    <tag k="maxspeed" v="50"/>
    <tag k="maxspeed:source" v="default residential speed limit in Australia"/>
    <tag k="name" v="Monica Street"/>
    <tag k="surface" v="paved"/>
  </way>
  <way id="23718129" version="5" timestamp="2010-07-09T05:17:32Z" uid="74617" user="JohnSmith" changeset="5170986">
    <nd ref="256837644"/>
    <nd ref="256837646"/>
    <nd ref="256837645"/>
    <tag k="highway" v="residential"/>
    <tag k="lanes" v="2"/>
    <tag k="maxspeed" v="50"/>
    <tag k="maxspeed:source" v="default residential speed limit in Australia"/>
    <tag k="name" v="Kildare Street"/>
    <tag k="surface" v="paved"/>
  </way>
  <way id="23718272" version="3" timestamp="2009-10-05T13:15:18Z" uid="49111" user="Markus B" changeset="2749857">
    <nd ref="256838771"/>
    <nd ref="256838772"/>
    <nd ref="256838773"/>
    <nd ref="256838774"/>
    <nd ref="256838775"/>
    <nd ref="456911998"/>
    <nd ref="256838776"/>
    <nd ref="256838771"/>
    <tag k="addr:housenumber" v="58"/>
    <tag k="addr:street" v="Holstenkamp"/>
    <tag k="building" v="yes"/>
    <tag k="name" v="A. W. Niemeyer"/>
  </way>
  <way id="23718378" version="3" timestamp="2010-07-09T03:24:12Z" uid="74617" user="JohnSmith" changeset="5170713">
    <nd ref="210353330"/>
    <nd ref="256839811"/>
    <tag k="highway" v="residential"/>
    <tag k="maxspeed" v="50"/>
    <tag k="maxspeed:source" v="default residential speed limit in Australia"/>
    <tag k="name" v="Rose Street"/>
  </way>
  <way id="23718431" version="5" timestamp="2010-07-09T03:19:43Z" uid="74617" user="JohnSmith" changeset="5170713">
    <nd ref="210353257"/>
    <nd ref="256840104"/>
    <nd ref="659631462"/>
    <nd ref="256840012"/>
    <tag k="highway" v="residential"/>
    <tag k="maxspeed" v="50"/>
    <tag k="maxspeed:source" v="default residential speed limit in Australia"/>
    <tag k="name" v="Densham Road"/>
  </way>
  <way id="23718436" version="8" timestamp="2010-04-26T23:27:56Z" uid="4467" user="Rosscoe" changeset="4537270">
    <nd ref="210358378"/>
    <nd ref="708267956"/>
    <tag k="highway" v="residential"/>
    <tag k="is_in" v="Armadale,Victoria,Australia"/>
    <tag k="maxspeed" v="50"/>
    <tag k="name" v="Northcote Road"/>
    <tag k="postal_code" v="3143"/>
  </way>
  <way id="23718477" version="3" timestamp="2010-04-26T23:27:53Z" uid="4467" user="Rosscoe" changeset="4537270">
    <nd ref="708267948"/>
    <nd ref="225375357"/>
    <tag k="highway" v="residential"/>
    <tag k="is_in" v="Armadale,Victoria,Australia"/>
    <tag k="maxspeed" v="50"/>
    <tag k="name" v="Elm Grove"/>
    <tag k="postal_code" v="3143"/>
  </way>
  <way id="23718535" version="3" timestamp="2010-07-09T04:54:10Z" uid="74617" user="JohnSmith" changeset="5170972">
    <nd ref="256841004"/>
    <nd ref="256841005"/>
    <tag k="highway" v="residential"/>
    <tag k="maxspeed" v="50"/>
    <tag k="maxspeed:source" v="default residential speed limit in Australia"/>
  </way>
  <way id="23718592" version="7" timestamp="2011-03-14T15:26:34Z" uid="4467" user="Rosscoe" changeset="7557457">
    <nd ref="460411020"/>
    <nd ref="256841665"/>
    <nd ref="256841667"/>
    <nd ref="256841668"/>
    <tag k="highway" v="residential"/>
    <tag k="is_in" v="Toorak,Victoria,Australia"/>
    <tag k="maxspeed" v="50"/>
    <tag k="name" v="Carters Avenue"/>
    <tag k="postal_code" v="3142"/>
  </way>
  <way id="23718625" version="7" timestamp="2010-07-09T03:16:56Z" uid="74617" user="JohnSmith" changeset="5170713">
    <nd ref="256841951"/>
    <nd ref="331385954"/>
    <nd ref="570572963"/>
    <nd ref="570484072"/>
    <tag k="highway" v="residential"/>
    <tag k="maxspeed" v="50"/>
    <tag k="maxspeed:source" v="default residential speed limit in Australia"/>
    <tag k="name" v="Wynnstay Road"/>
    <tag k="source" v="Yahoo"/>
  </way>
  <way id="23718645" version="3" timestamp="2010-07-09T03:18:50Z" uid="74617" user="JohnSmith" changeset="5170713">
    <nd ref="256842059"/>
    <nd ref="256842064"/>
    <tag k="highway" v="residential"/>
    <tag k="maxspeed" v="50"/>
    <tag k="maxspeed:source" v="default residential speed limit in Australia"/>
    <tag k="name" v="Banole Avenue"/>
  </way>
  <way id="23718655" version="4" timestamp="2011-03-09T04:51:18Z" uid="4467" user="Rosscoe" changeset="7500625">
    <nd ref="256842109"/>
    <nd ref="256842130"/>
    <nd ref="256842135"/>
    <tag k="highway" v="residential"/>
    <tag k="is_in" v="Prahran,Victoria,Australia"/>
    <tag k="maxspeed" v="50"/>
    <tag k="name" v="Closeburn Avenue"/>
    <tag k="postal_code" v="3181"/>
  </way>
  <way id="23718668" version="8" timestamp="2011-03-09T04:51:29Z" uid="4467" user="Rosscoe" changeset="7500625">
    <nd ref="256842201"/>
    <nd ref="256842266"/>
    <nd ref="256842340"/>
    <nd ref="256842204"/>
    <nd ref="256842203"/>
    <tag k="highway" v="residential"/>
    <tag k="is_in" v="Prahran,Victoria,Australia"/>
    <tag k="maxspeed" v="50"/>
    <tag k="name" v="Irving Avenue"/>
    <tag k="postal_code" v="3181"/>
  </way>
  <way id="23718677" version="3" timestamp="2011-03-09T04:51:35Z" uid="4467" user="Rosscoe" changeset="7500625">
    <nd ref="256842266"/>
    <nd ref="256842267"/>
    <tag k="highway" v="residential"/>
    <tag k="is_in" v="Prahran,Victoria,Australia"/>
    <tag k="maxspeed" v="50"/>
    <tag k="name" v="Vail Street"/>
    <tag k="postal_code" v="3181"/>
  </way>
  <way id="23718800" version="2" timestamp="2008-12-21T21:13:10Z" uid="27600" user="Islanit" changeset="526803">
    <nd ref="256843122"/>
    <nd ref="256843564"/>
    <nd ref="256843565"/>
    <nd ref="256843566"/>
    <nd ref="256843567"/>
    <nd ref="256843568"/>
    <nd ref="256843569"/>
    <nd ref="270250072"/>
    <tag k="created_by" v="Potlatch 0.8a"/>
  </way>
  <way id="23718970" version="2" timestamp="2009-12-21T15:14:29Z" uid="4467" user="Rosscoe" changeset="3420963">
    <nd ref="256845339"/>
    <nd ref="256845340"/>
    <nd ref="597697903"/>
    <nd ref="256845341"/>
    <nd ref="597697934"/>
    <nd ref="597697933"/>
    <nd ref="256845342"/>
    <nd ref="256845343"/>
    <nd ref="597697937"/>
    <nd ref="597697938"/>
    <nd ref="597697930"/>
    <nd ref="597697931"/>
    <nd ref="597697916"/>
    <nd ref="597697914"/>
    <nd ref="256845344"/>
    <nd ref="256845339"/>
    <tag k="power" v="sub_station"/>
    <tag k="source" v="nearmap"/>
  </way>
</osm>
