<?xml version='1.0' encoding='UTF-8'?>
<osm version="0.6" generator="libosmium/2.20.0">
  <way id="23753030" version="11" timestamp="2009-09-23T13:31:53Z" uid="9581" user="Lobelt" changeset="2595487">
    <nd ref="257362652"/>
    <nd ref="506209961"/>
    <tag k="highway" v="secondary"/>
    <tag k="name" v="Schellingstraße"/>
  </way>
  <way id="23753135" version="1" timestamp="2008-04-13T13:43:20Z" uid="30632" user="antblant" changeset="130030">
    <nd ref="257363913"/>
    <nd ref="257364380"/>
    <nd ref="257364383"/>
    <nd ref="257364361"/>
    <nd ref="257364365"/>
    <nd ref="257364300"/>
    <nd ref="257364248"/>
    <tag k="created_by" v="JOSM"/>
    <tag k="highway" v="residential"/>
    <tag k="name" v="Staromiejska"/>
    <tag k="source" v="UMP-PL, ./UMP-Szczecin/src/RECZ.ulice.txt"/>
  </way>
  <way id="23753136" version="1" timestamp="2008-04-13T13:43:21Z" uid="30632" user="antblant" changeset="130030">
    <nd ref="257363803"/>
    <nd ref="257363806"/>
    <tag k="created_by" v="JOSM"/>
    <tag k="highway" v="residential"/>
    <tag k="name" v="Trzebin"/>
    <tag k="source" v="UMP-PL, ./UMP-Szczecin/src/RECZ.ulice.txt"/>
  </way>
  <way id="23753137" version="1" timestamp="2008-04-13T13:43:21Z" uid="30632" user="antblant" changeset="130030">
    <nd ref="257364132"/>
    <nd ref="257364147"/>
    <nd ref="257364150"/>
    <nd ref="257364152"/>
    <nd ref="257364111"/>
    <tag k="created_by" v="JOSM"/>
    <tag k="highway" v="residential"/>
    <tag k="name" v="Polna"/>
    <tag k="source" v="UMP-PL, ./UMP-Szczecin/src/RECZ.ulice.txt"/>
  </way>
  <way id="23753138" version="1" timestamp="2008-04-13T13:43:21Z" uid="30632" user="antblant" changeset="130030">
    <nd ref="257364303"/>
    <nd ref="257364298"/>
    <nd ref="257364297"/>
    <nd ref="257364374"/>
    <nd ref="257364376"/>
    <nd ref="257364178"/>
    <tag k="created_by" v="JOSM"/>
    <tag k="highway" v="residential"/>
    <tag k="source" v="UMP-PL, ./UMP-Szczecin/src/RECZ.ulice.txt"/>
  </way>
  <way id="23753139" version="1" timestamp="2008-04-13T13:43:22Z" uid="30632" user="antblant" changeset="130030">
    <nd ref="257363800"/>
    <nd ref="257363801"/>
    <nd ref="257363815"/>
    <tag k="created_by" v="JOSM"/>
    <tag k="highway" v="residential"/>
    <tag k="name" v="Szumin"/>
    <tag k="source" v="UMP-PL, ./UMP-Szczecin/src/RECZ.ulice.txt"/>
  </way>
  <way id="23753140" version="1" timestamp="2008-04-13T13:43:22Z" uid="30632" user="antblant" changeset="130030">
    <nd ref="257363717"/>
    <nd ref="257364156"/>
    <nd ref="257364229"/>
    <nd ref="257364226"/>
    <tag k="created_by" v="JOSM"/>
    <tag k="highway" v="residential"/>
    <tag k="source" v="UMP-PL, ./UMP-Szczecin/src/RECZ.ulice.txt"/>
  </way>
  <way id="23753141" version="1" timestamp="2008-04-13T13:43:23Z" uid="30632" user="antblant" changeset="130030">
    <nd ref="257364097"/>
    <nd ref="257364094"/>
    <nd ref="257364102"/>
    <nd ref="257364099"/>
    <nd ref="257364107"/>
    <nd ref="257364104"/>
    <nd ref="257364159"/>
    <nd ref="257364162"/>
    <nd ref="257364165"/>
    <nd ref="257364168"/>
    <nd ref="257364171"/>
    <nd ref="257364174"/>
    <nd ref="257364178"/>
    <nd ref="257363735"/>
    <tag k="created_by" v="JOSM"/>
    <tag k="highway" v="tertiary"/>
    <tag k="name" v="Lubanowska"/>
    <tag k="source" v="UMP-PL, ./UMP-Szczecin/src/RECZ.ulice.txt"/>
  </way>
  <way id="23753142" version="1" timestamp="2008-04-13T13:43:23Z" uid="30632" user="antblant" changeset="130030">
    <nd ref="257363740"/>
    <nd ref="257363818"/>
    <nd ref="257363808"/>
    <nd ref="257363811"/>
    <nd ref="257363825"/>
    <nd ref="257363828"/>
    <nd ref="257363821"/>
    <tag k="created_by" v="JOSM"/>
    <tag k="highway" v="residential"/>
    <tag k="name" v="Owocowa"/>
    <tag k="source" v="UMP-PL, ./UMP-Szczecin/src/RECZ.ulice.txt"/>
  </way>
  <way id="23753143" version="1" timestamp="2008-04-13T13:43:23Z" uid="30632" user="antblant" changeset="130030">
    <nd ref="257364300"/>
    <nd ref="257364309"/>
    <nd ref="257364303"/>
    <nd ref="257363764"/>
    <nd ref="257364295"/>
    <nd ref="257364293"/>
    <nd ref="257363928"/>
    <tag k="created_by" v="JOSM"/>
    <tag k="highway" v="residential"/>
    <tag k="name" v="Stefana Czarnieckiego"/>
    <tag k="source" v="UMP-PL, ./UMP-Szczecin/src/RECZ.ulice.txt"/>
  </way>
  <way id="23753144" version="1" timestamp="2008-04-13T13:43:24Z" uid="30632" user="antblant" changeset="130030">
    <nd ref="257363747"/>
    <nd ref="257363823"/>
    <nd ref="257363836"/>
    <nd ref="257363850"/>
    <tag k="created_by" v="JOSM"/>
    <tag k="highway" v="residential"/>
    <tag k="name" v="Lipowa"/>
    <tag k="source" v="UMP-PL, ./UMP-Szczecin/src/RECZ.ulice.txt"/>
  </way>
  <way id="23753145" version="1" timestamp="2008-04-13T13:43:24Z" uid="30632" user="antblant" changeset="130030">
    <nd ref="257364180"/>
    <nd ref="257364135"/>
    <nd ref="257364138"/>
    <nd ref="257364141"/>
    <nd ref="257364143"/>
    <nd ref="257363928"/>
    <tag k="created_by" v="JOSM"/>
    <tag k="highway" v="unclassified"/>
    <tag k="name" v="Wolności"/>
    <tag k="source" v="UMP-PL, ./UMP-Szczecin/src/RECZ.ulice.txt"/>
    <tag k="surface" v="unpaved"/>
  </way>
  <way id="23753147" version="1" timestamp="2008-04-13T13:43:24Z" uid="30632" user="antblant" changeset="130030">
    <nd ref="257364014"/>
    <nd ref="257364302"/>
    <tag k="created_by" v="JOSM"/>
    <tag k="highway" v="residential"/>
    <tag k="source" v="UMP-PL, ./UMP-Szczecin/src/RECZ.ulice.txt"/>
  </way>
  <way id="23753148" version="1" timestamp="2008-04-13T13:43:25Z" uid="30632" user="antblant" changeset="130030">
    <nd ref="257363946"/>
    <nd ref="257364005"/>
    <tag k="created_by" v="JOSM"/>
    <tag k="highway" v="residential"/>
    <tag k="name" v="Rynek"/>
    <tag k="source" v="UMP-PL, ./UMP-Szczecin/src/RECZ.ulice.txt"/>
  </way>
  <way id="23753149" version="1" timestamp="2008-04-13T13:43:25Z" uid="30632" user="antblant" changeset="130030">
    <nd ref="257363712"/>
    <nd ref="257363714"/>
    <tag k="created_by" v="JOSM"/>
    <tag k="highway" v="secondary"/>
    <tag k="name" v="Stargardzka"/>
    <tag k="ref" v="151"/>
    <tag k="source" v="UMP-PL, ./UMP-Szczecin/src/RECZ.ulice.txt"/>
  </way>
  <way id="23753150" version="1" timestamp="2008-04-13T13:43:28Z" uid="30632" user="antblant" changeset="130030">
    <nd ref="257364214"/>
    <nd ref="257364211"/>
    <nd ref="257364195"/>
    <nd ref="257364274"/>
    <nd ref="257364278"/>
    <nd ref="257364269"/>
    <nd ref="257364272"/>
    <tag k="created_by" v="JOSM"/>
    <tag k="highway" v="residential"/>
    <tag k="name" v="Juliusza Słowackiego"/>
    <tag k="source" v="UMP-PL, ./UMP-Szczecin/src/RECZ.ulice.txt"/>
  </way>
  <way id="23753151" version="1" timestamp="2008-04-13T13:43:29Z" uid="30632" user="antblant" changeset="130030">
    <nd ref="257363943"/>
    <nd ref="257363956"/>
    <nd ref="257364286"/>
    <tag k="created_by" v="JOSM"/>
    <tag k="highway" v="residential"/>
    <tag k="source" v="UMP-PL, ./UMP-Szczecin/src/RECZ.ulice.txt"/>
  </way>
  <way id="23753152" version="1" timestamp="2008-04-13T13:43:29Z" uid="30632" user="antblant" changeset="130030">
    <nd ref="257363717"/>
    <nd ref="257363719"/>
    <nd ref="257363722"/>
    <nd ref="257363724"/>
    <nd ref="257363726"/>
    <nd ref="257363729"/>
    <nd ref="257363731"/>
    <nd ref="257363735"/>
    <tag k="created_by" v="JOSM"/>
    <tag k="highway" v="tertiary"/>
    <tag k="name" v="Kolejowa"/>
    <tag k="source" v="UMP-PL, ./UMP-Szczecin/src/RECZ.ulice.txt"/>
  </way>
  <way id="23753153" version="1" timestamp="2008-04-13T13:43:29Z" uid="30632" user="antblant" changeset="130030">
    <nd ref="257364288"/>
    <nd ref="257364291"/>
    <tag k="created_by" v="JOSM"/>
    <tag k="highway" v="residential"/>
    <tag k="name" v="Cicha"/>
    <tag k="source" v="UMP-PL, ./UMP-Szczecin/src/RECZ.ulice.txt"/>
  </way>
  <way id="23753154" version="1" timestamp="2008-04-13T13:43:30Z" uid="30632" user="antblant" changeset="130030">
    <nd ref="257363737"/>
    <nd ref="257363740"/>
    <nd ref="257363745"/>
    <nd ref="257363747"/>
    <nd ref="257363749"/>
    <nd ref="257363752"/>
    <nd ref="257363757"/>
    <nd ref="257363755"/>
    <nd ref="257363762"/>
    <nd ref="257363760"/>
    <nd ref="257363772"/>
    <nd ref="257363764"/>
    <tag k="created_by" v="JOSM"/>
    <tag k="highway" v="residential"/>
    <tag k="name" v="Wolności"/>
    <tag k="source" v="UMP-PL, ./UMP-Szczecin/src/RECZ.ulice.txt"/>
  </way>
  <way id="23753155" version="1" timestamp="2008-04-13T13:43:30Z" uid="30632" user="antblant" changeset="130030">
    <nd ref="257364119"/>
    <nd ref="257364223"/>
    <nd ref="257364220"/>
    <nd ref="257364242"/>
    <nd ref="257364239"/>
    <nd ref="257364235"/>
    <nd ref="257364233"/>
    <tag k="created_by" v="JOSM"/>
    <tag k="highway" v="residential"/>
    <tag k="name" v="Mikołaja Reja"/>
    <tag k="source" v="UMP-PL, ./UMP-Szczecin/src/RECZ.ulice.txt"/>
  </way>
  <way id="23753156" version="1" timestamp="2008-04-13T13:43:30Z" uid="30632" user="antblant" changeset="130030">
    <nd ref="257364322"/>
    <nd ref="257364061"/>
    <tag k="created_by" v="JOSM"/>
    <tag k="highway" v="residential"/>
    <tag k="source" v="UMP-PL, ./UMP-Szczecin/src/RECZ.ulice.txt"/>
  </way>
  <way id="23753157" version="1" timestamp="2008-04-13T13:43:31Z" uid="30632" user="antblant" changeset="130030">
    <nd ref="257363779"/>
    <nd ref="257363776"/>
    <nd ref="257363783"/>
    <nd ref="257363781"/>
    <nd ref="257363788"/>
    <nd ref="257363786"/>
    <nd ref="257363793"/>
    <nd ref="257363790"/>
    <nd ref="257363798"/>
    <nd ref="257363795"/>
    <tag k="created_by" v="JOSM"/>
    <tag k="highway" v="residential"/>
    <tag k="name" v="Leśna"/>
    <tag k="source" v="UMP-PL, ./UMP-Szczecin/src/RECZ.ulice.txt"/>
  </way>
  <way id="23753158" version="1" timestamp="2008-04-13T13:43:31Z" uid="30632" user="antblant" changeset="130030">
    <nd ref="257364193"/>
    <nd ref="257364190"/>
    <nd ref="257364186"/>
    <nd ref="257364184"/>
    <nd ref="257364217"/>
    <nd ref="257364214"/>
    <nd ref="257364223"/>
    <tag k="created_by" v="JOSM"/>
    <tag k="highway" v="residential"/>
    <tag k="name" v="Marii Konopnickiej"/>
    <tag k="source" v="UMP-PL, ./UMP-Szczecin/src/RECZ.ulice.txt"/>
  </way>
  <way id="23753159" version="1" timestamp="2008-04-13T13:43:31Z" uid="30632" user="antblant" changeset="130030">
    <nd ref="257363913"/>
    <nd ref="257364367"/>
    <nd ref="257364370"/>
    <nd ref="257364350"/>
    <nd ref="257364302"/>
    <nd ref="257364352"/>
    <nd ref="257364329"/>
    <tag k="created_by" v="JOSM"/>
    <tag k="highway" v="residential"/>
    <tag k="name" v="Murarska"/>
    <tag k="source" v="UMP-PL, ./UMP-Szczecin/src/RECZ.ulice.txt"/>
  </way>
  <way id="23753160" version="1" timestamp="2008-04-13T13:43:32Z" uid="30632" user="antblant" changeset="130030">
    <nd ref="257363969"/>
    <nd ref="257364263"/>
    <nd ref="257364266"/>
    <nd ref="257364257"/>
    <nd ref="257364259"/>
    <nd ref="257364325"/>
    <nd ref="257364322"/>
    <nd ref="257364331"/>
    <nd ref="257364329"/>
    <tag k="created_by" v="JOSM"/>
    <tag k="highway" v="residential"/>
    <tag k="name" v="Murarska"/>
    <tag k="source" v="UMP-PL, ./UMP-Szczecin/src/RECZ.ulice.txt"/>
  </way>
  <way id="23753162" version="1" timestamp="2008-04-13T13:43:35Z" uid="30632" user="antblant" changeset="130030">
    <nd ref="257364034"/>
    <nd ref="257364036"/>
    <nd ref="257364029"/>
    <nd ref="257363712"/>
    <nd ref="257364031"/>
    <nd ref="257364024"/>
    <nd ref="257364027"/>
    <nd ref="257364061"/>
    <nd ref="257364041"/>
    <nd ref="257364058"/>
    <nd ref="257364055"/>
    <nd ref="257364053"/>
    <nd ref="257363717"/>
    <tag k="created_by" v="JOSM"/>
    <tag k="highway" v="primary"/>
    <tag k="name" v="Poromenada"/>
    <tag k="ref" v="10"/>
    <tag k="source" v="UMP-PL, ./UMP-Szczecin/src/RECZ.ulice.txt"/>
  </way>
  <way id="23753162" version="2" timestamp="2008-11-05T01:13:20Z" uid="30632" user="antblant" changeset="687931">
    <nd ref="257364034"/>
    <nd ref="257364036"/>
    <nd ref="257364029"/>
    <nd ref="257363712"/>
    <nd ref="257364031"/>
    <nd ref="257364024"/>
    <nd ref="257364027"/>
    <nd ref="257364061"/>
    <nd ref="257364041"/>
    <nd ref="257364058"/>
    <nd ref="257364055"/>
    <nd ref="257364053"/>
    <nd ref="257363717"/>
    <tag k="created_by" v="Potlatch 0.10f"/>
    <tag k="highway" v="primary"/>
    <tag k="name" v="Promenada"/>
    <tag k="ref" v="10"/>
    <tag k="source" v="UMP-PL, ./UMP-Szczecin/src/RECZ.ulice.txt"/>
  </way>
  <way id="23753162" version="3" timestamp="2011-01-04T20:45:11Z" uid="30632" user="antblant" changeset="6865560">
    <nd ref="257364034"/>
    <nd ref="257364036"/>
    <nd ref="257364029"/>
    <nd ref="257363712"/>
    <tag k="highway" v="primary"/>
    <tag k="name" v="Promenada"/>
    <tag k="ref" v="10"/>
    <tag k="source" v="UMP-PL, ./UMP-Szczecin/src/RECZ.ulice.txt"/>
  </way>
  <way id="23753163" version="1" timestamp="2008-04-13T13:43:36Z" uid="30632" user="antblant" changeset="130030">
    <nd ref="257363735"/>
    <nd ref="257363913"/>
    <nd ref="257363915"/>
    <nd ref="257363938"/>
    <nd ref="257363941"/>
    <nd ref="257363943"/>
    <nd ref="257363946"/>
    <nd ref="257363931"/>
    <nd ref="257363932"/>
    <nd ref="257363933"/>
    <nd ref="257363936"/>
    <nd ref="257363969"/>
    <nd ref="257363858"/>
    <tag k="created_by" v="JOSM"/>
    <tag k="highway" v="tertiary"/>
    <tag k="name" v="Środkowa"/>
    <tag k="source" v="UMP-PL, ./UMP-Szczecin/src/RECZ.ulice.txt"/>
  </way>
  <way id="23753164" version="1" timestamp="2008-04-13T13:43:36Z" uid="30632" user="antblant" changeset="130030">
    <nd ref="257364005"/>
    <nd ref="257364355"/>
    <nd ref="257363987"/>
    <nd ref="257364358"/>
    <nd ref="257364335"/>
    <nd ref="257364338"/>
    <nd ref="257363936"/>
    <tag k="created_by" v="JOSM"/>
    <tag k="highway" v="residential"/>
    <tag k="name" v="Ratuszowa"/>
    <tag k="source" v="UMP-PL, ./UMP-Szczecin/src/RECZ.ulice.txt"/>
  </way>
  <way id="23753165" version="1" timestamp="2008-04-13T13:43:36Z" uid="30632" user="antblant" changeset="130030">
    <nd ref="257363949"/>
    <nd ref="257364281"/>
    <nd ref="257364248"/>
    <tag k="created_by" v="JOSM"/>
    <tag k="highway" v="residential"/>
    <tag k="name" v="Nowomiejska"/>
    <tag k="source" v="UMP-PL, ./UMP-Szczecin/src/RECZ.ulice.txt"/>
  </way>
  <way id="23753166" version="1" timestamp="2008-04-13T13:43:37Z" uid="30632" user="antblant" changeset="130030">
    <nd ref="257364051"/>
    <nd ref="257364048"/>
    <nd ref="257364046"/>
    <nd ref="257364043"/>
    <nd ref="257363858"/>
    <tag k="created_by" v="JOSM"/>
    <tag k="highway" v="secondary"/>
    <tag k="name" v="Stargardzka"/>
    <tag k="ref" v="151"/>
    <tag k="source" v="UMP-PL, ./UMP-Szczecin/src/RECZ.ulice.txt"/>
  </way>
  <way id="23753167" version="1" timestamp="2008-04-13T13:43:37Z" uid="30632" user="antblant" changeset="130030">
    <nd ref="257363915"/>
    <nd ref="257363966"/>
    <nd ref="257363974"/>
    <nd ref="257363971"/>
    <nd ref="257363951"/>
    <nd ref="257363949"/>
    <nd ref="257363964"/>
    <nd ref="257363956"/>
    <nd ref="257363994"/>
    <nd ref="257363990"/>
    <nd ref="257364002"/>
    <nd ref="257363936"/>
    <tag k="created_by" v="JOSM"/>
    <tag k="highway" v="residential"/>
    <tag k="name" v="Tylna"/>
    <tag k="source" v="UMP-PL, ./UMP-Szczecin/src/RECZ.ulice.txt"/>
  </way>
  <way id="23753168" version="1" timestamp="2008-04-13T13:43:37Z" uid="30632" user="antblant" changeset="130030">
    <nd ref="257363932"/>
    <nd ref="257363994"/>
    <tag k="created_by" v="JOSM"/>
    <tag k="highway" v="residential"/>
    <tag k="name" v="Kościelna"/>
    <tag k="source" v="UMP-PL, ./UMP-Szczecin/src/RECZ.ulice.txt"/>
  </way>
  <way id="23753169" version="1" timestamp="2008-04-13T13:43:38Z" uid="30632" user="antblant" changeset="130030">
    <nd ref="257363915"/>
    <nd ref="257363985"/>
    <nd ref="257364019"/>
    <nd ref="257364022"/>
    <nd ref="257364014"/>
    <nd ref="257364017"/>
    <nd ref="257364009"/>
    <nd ref="257364012"/>
    <nd ref="257364005"/>
    <tag k="created_by" v="JOSM"/>
    <tag k="highway" v="residential"/>
    <tag k="name" v="Ratuszowa"/>
    <tag k="source" v="UMP-PL, ./UMP-Szczecin/src/RECZ.ulice.txt"/>
  </way>
  <way id="23753170" version="1" timestamp="2008-04-13T13:43:38Z" uid="30632" user="antblant" changeset="130030">
    <nd ref="257363998"/>
    <nd ref="257363982"/>
    <nd ref="257363980"/>
    <nd ref="257363969"/>
    <tag k="created_by" v="JOSM"/>
    <tag k="highway" v="residential"/>
    <tag k="name" v="Murarska"/>
    <tag k="source" v="UMP-PL, ./UMP-Szczecin/src/RECZ.ulice.txt"/>
  </way>
  <way id="23753171" version="1" timestamp="2008-04-13T13:43:38Z" uid="30632" user="antblant" changeset="130030">
    <nd ref="257364082"/>
    <nd ref="257364233"/>
    <nd ref="257364253"/>
    <nd ref="257364244"/>
    <nd ref="257364055"/>
    <tag k="created_by" v="JOSM"/>
    <tag k="highway" v="residential"/>
    <tag k="name" v="Henryka Sienkiewicza"/>
    <tag k="source" v="UMP-PL, ./UMP-Szczecin/src/RECZ.ulice.txt"/>
  </way>
  <way id="23753172" version="1" timestamp="2008-04-13T13:43:39Z" uid="30632" user="antblant" changeset="130030">
    <nd ref="257363990"/>
    <nd ref="257364250"/>
    <nd ref="257363998"/>
    <tag k="created_by" v="JOSM"/>
    <tag k="highway" v="residential"/>
    <tag k="name" v="Kościelna"/>
    <tag k="source" v="UMP-PL, ./UMP-Szczecin/src/RECZ.ulice.txt"/>
  </way>
  <way id="23753173" version="1" timestamp="2008-04-13T13:43:39Z" uid="30632" user="antblant" changeset="130030">
    <nd ref="257364007"/>
    <nd ref="257364039"/>
    <nd ref="257364041"/>
    <tag k="created_by" v="JOSM"/>
    <tag k="highway" v="residential"/>
    <tag k="source" v="UMP-PL, ./UMP-Szczecin/src/RECZ.ulice.txt"/>
  </way>
  <way id="23753174" version="1" timestamp="2008-04-13T13:43:39Z" uid="30632" user="antblant" changeset="130030">
    <nd ref="257363987"/>
    <nd ref="257363931"/>
    <tag k="created_by" v="JOSM"/>
    <tag k="highway" v="residential"/>
    <tag k="name" v="Kościelna"/>
    <tag k="source" v="UMP-PL, ./UMP-Szczecin/src/RECZ.ulice.txt"/>
  </way>
  <way id="23753176" version="1" timestamp="2008-04-13T13:43:40Z" uid="30632" user="antblant" changeset="130030">
    <nd ref="257364281"/>
    <nd ref="257364286"/>
    <nd ref="257364250"/>
    <tag k="created_by" v="JOSM"/>
    <tag k="highway" v="residential"/>
    <tag k="name" v="Staromiejska"/>
    <tag k="source" v="UMP-PL, ./UMP-Szczecin/src/RECZ.ulice.txt"/>
  </way>
  <way id="23753177" version="1" timestamp="2008-04-13T13:43:40Z" uid="30632" user="antblant" changeset="130030">
    <nd ref="257364358"/>
    <nd ref="257364325"/>
    <tag k="created_by" v="JOSM"/>
    <tag k="highway" v="residential"/>
    <tag k="source" v="UMP-PL, ./UMP-Szczecin/src/RECZ.ulice.txt"/>
  </way>
  <way id="23753178" version="1" timestamp="2008-04-13T13:43:40Z" uid="30632" user="antblant" changeset="130030">
    <nd ref="257364168"/>
    <nd ref="257364341"/>
    <nd ref="257364346"/>
    <nd ref="257364180"/>
    <tag k="created_by" v="JOSM"/>
    <tag k="highway" v="unclassified"/>
    <tag k="source" v="UMP-PL, ./UMP-Szczecin/src/RECZ.ulice.txt"/>
    <tag k="surface" v="unpaved"/>
  </way>
  <way id="23753179" version="1" timestamp="2008-04-13T13:43:41Z" uid="30632" user="antblant" changeset="130030">
    <nd ref="257364027"/>
    <nd ref="257364313"/>
    <tag k="created_by" v="JOSM"/>
    <tag k="highway" v="residential"/>
    <tag k="name" v="Zielna"/>
    <tag k="source" v="UMP-PL, ./UMP-Szczecin/src/RECZ.ulice.txt"/>
  </way>
  <way id="23753180" version="1" timestamp="2008-04-13T13:43:41Z" uid="30632" user="antblant" changeset="130030">
    <nd ref="257364069"/>
    <nd ref="257364064"/>
    <nd ref="257364114"/>
    <nd ref="257364111"/>
    <nd ref="257364119"/>
    <nd ref="257364117"/>
    <nd ref="257364126"/>
    <nd ref="257364123"/>
    <nd ref="257364053"/>
    <nd ref="257363724"/>
    <tag k="created_by" v="JOSM"/>
    <tag k="highway" v="residential"/>
    <tag k="name" v="Srebrna"/>
    <tag k="source" v="UMP-PL, ./UMP-Szczecin/src/RECZ.ulice.txt"/>
  </way>
  <way id="23753181" version="1" timestamp="2008-04-13T13:43:41Z" uid="30632" user="antblant" changeset="130030">
    <nd ref="257363745"/>
    <nd ref="257363831"/>
    <nd ref="257363833"/>
    <nd ref="257363866"/>
    <nd ref="257363861"/>
    <tag k="created_by" v="JOSM"/>
    <tag k="highway" v="residential"/>
    <tag k="name" v="Różana"/>
    <tag k="source" v="UMP-PL, ./UMP-Szczecin/src/RECZ.ulice.txt"/>
  </way>
  <way id="23753182" version="1" timestamp="2008-04-13T13:43:42Z" uid="30632" user="antblant" changeset="130030">
    <nd ref="257364024"/>
    <nd ref="257364313"/>
    <nd ref="257364007"/>
    <nd ref="257364072"/>
    <nd ref="257364272"/>
    <nd ref="257364193"/>
    <nd ref="257364311"/>
    <nd ref="257364320"/>
    <nd ref="257364316"/>
    <nd ref="257364288"/>
    <nd ref="257364064"/>
    <tag k="created_by" v="JOSM"/>
    <tag k="highway" v="residential"/>
    <tag k="name" v="Podgórna"/>
    <tag k="source" v="UMP-PL, ./UMP-Szczecin/src/RECZ.ulice.txt"/>
  </way>
  <way id="23753183" version="1" timestamp="2008-04-13T13:43:42Z" uid="30632" user="antblant" changeset="130030">
    <nd ref="257363717"/>
    <nd ref="257364132"/>
    <nd ref="257364128"/>
    <nd ref="257364092"/>
    <nd ref="257364090"/>
    <tag k="created_by" v="JOSM"/>
    <tag k="highway" v="primary"/>
    <tag k="name" v="Kolejowa"/>
    <tag k="ref" v="10"/>
    <tag k="source" v="UMP-PL, ./UMP-Szczecin/src/RECZ.ulice.txt"/>
  </way>
  <way id="23753185" version="1" timestamp="2008-04-13T13:43:42Z" uid="30632" user="antblant" changeset="130030">
    <nd ref="257363858"/>
    <nd ref="257363850"/>
    <nd ref="257363853"/>
    <nd ref="257363883"/>
    <nd ref="257363878"/>
    <nd ref="257363874"/>
    <nd ref="257363861"/>
    <nd ref="257363869"/>
    <nd ref="257363737"/>
    <nd ref="257363779"/>
    <nd ref="257363896"/>
    <nd ref="257363893"/>
    <nd ref="257363800"/>
    <nd ref="257363891"/>
    <nd ref="257363803"/>
    <nd ref="257363886"/>
    <nd ref="257363905"/>
    <tag k="created_by" v="JOSM"/>
    <tag k="highway" v="secondary"/>
    <tag k="name" v="Choszczeńska"/>
    <tag k="ref" v="151"/>
    <tag k="source" v="UMP-PL, ./UMP-Szczecin/src/RECZ.ulice.txt"/>
  </way>
  <way id="23753185" version="2" timestamp="2008-04-13T13:45:39Z" uid="30632" user="antblant" changeset="130030">
    <nd ref="257363858"/>
    <nd ref="257363850"/>
    <nd ref="257363853"/>
    <nd ref="257363883"/>
    <nd ref="257363878"/>
    <nd ref="257363874"/>
    <nd ref="257363861"/>
    <nd ref="257363869"/>
    <nd ref="257363737"/>
    <nd ref="257363779"/>
    <nd ref="257363896"/>
    <nd ref="257363893"/>
    <nd ref="257363800"/>
    <nd ref="257363891"/>
    <nd ref="257363803"/>
    <nd ref="257363886"/>
    <nd ref="254718381"/>
    <tag k="created_by" v="Potlatch 0.8a"/>
    <tag k="highway" v="secondary"/>
    <tag k="name" v="Choszczeńska"/>
    <tag k="ref" v="151"/>
    <tag k="source" v="UMP-PL, ./UMP-Szczecin/src/RECZ.ulice.txt"/>
  </way>
  <way id="23753186" version="1" timestamp="2008-04-13T13:43:43Z" uid="30632" user="antblant" changeset="130030">
    <nd ref="257364029"/>
    <nd ref="257363714"/>
    <nd ref="257364051"/>
    <nd ref="257364087"/>
    <nd ref="257364031"/>
    <tag k="created_by" v="JOSM"/>
    <tag k="highway" v="secondary"/>
    <tag k="name" v="Stargardzka"/>
    <tag k="ref" v="151"/>
    <tag k="source" v="UMP-PL, ./UMP-Szczecin/src/RECZ.ulice.txt"/>
  </way>
  <way id="23753186" version="2" timestamp="2011-01-04T20:45:12Z" uid="30632" user="antblant" changeset="6865560">
    <nd ref="257364029"/>
    <nd ref="257363714"/>
    <tag k="highway" v="secondary"/>
    <tag k="name" v="Stargardzka"/>
    <tag k="source" v="UMP-PL, ./UMP-Szczecin/src/RECZ.ulice.txt"/>
  </way>
  <way id="23753188" version="1" timestamp="2008-04-13T13:43:43Z" uid="30632" user="antblant" changeset="130030">
    <nd ref="257363749"/>
    <nd ref="257363903"/>
    <nd ref="257363901"/>
    <nd ref="257363898"/>
    <nd ref="257363918"/>
    <nd ref="257363926"/>
    <nd ref="257363928"/>
    <tag k="created_by" v="JOSM"/>
    <tag k="highway" v="residential"/>
    <tag k="name" v="Wolności"/>
    <tag k="source" v="UMP-PL, ./UMP-Szczecin/src/RECZ.ulice.txt"/>
  </way>
  <way id="23753189" version="1" timestamp="2008-04-13T13:43:44Z" uid="30632" user="antblant" changeset="130030">
    <nd ref="257363964"/>
    <nd ref="257363941"/>
    <nd ref="257364009"/>
    <tag k="created_by" v="JOSM"/>
    <tag k="highway" v="residential"/>
    <tag k="source" v="UMP-PL, ./UMP-Szczecin/src/RECZ.ulice.txt"/>
  </way>
  <way id="23753191" version="1" timestamp="2008-04-13T13:43:44Z" uid="30632" user="antblant" changeset="130030">
    <nd ref="257364058"/>
    <nd ref="257364082"/>
    <nd ref="257364079"/>
    <nd ref="257364077"/>
    <nd ref="257364074"/>
    <nd ref="257364072"/>
    <tag k="created_by" v="JOSM"/>
    <tag k="highway" v="residential"/>
    <tag k="name" v="Jana Kochanowskiego"/>
    <tag k="source" v="UMP-PL, ./UMP-Szczecin/src/RECZ.ulice.txt"/>
  </way>
  <way id="23753193" version="1" timestamp="2008-04-13T13:43:44Z" uid="30632" user="antblant" changeset="130030">
    <nd ref="257363930"/>
    <nd ref="257363908"/>
    <nd ref="257363910"/>
    <nd ref="257363903"/>
    <tag k="created_by" v="JOSM"/>
    <tag k="highway" v="residential"/>
    <tag k="name" v="Wysoka"/>
    <tag k="source" v="UMP-PL, ./UMP-Szczecin/src/RECZ.ulice.txt"/>
  </way>
  <way id="23753194" version="1" timestamp="2008-04-13T13:43:45Z" uid="30632" user="antblant" changeset="130030">
    <nd ref="257364012"/>
    <nd ref="257363943"/>
    <tag k="created_by" v="JOSM"/>
    <tag k="highway" v="residential"/>
    <tag k="name" v="Rynek"/>
    <tag k="source" v="UMP-PL, ./UMP-Szczecin/src/RECZ.ulice.txt"/>
  </way>
  <way id="23753339" version="9" timestamp="2010-12-14T00:45:22Z" uid="6269" user="Mueck" changeset="6654514">
    <nd ref="257366225"/>
    <nd ref="1037931481"/>
    <nd ref="259775894"/>
    <nd ref="565632369"/>
    <nd ref="259775895"/>
    <nd ref="565632312"/>
    <nd ref="259777212"/>
    <nd ref="1037931464"/>
    <nd ref="259777213"/>
    <nd ref="1037931422"/>
    <nd ref="259777214"/>
    <nd ref="259775899"/>
    <tag k="cycleway" v="lane"/>
    <tag k="highway" v="unclassified"/>
    <tag k="maxspeed" v="50"/>
    <tag k="name" v="Riedemannstraße"/>
    <tag k="surface" v="paved"/>
  </way>
  <way id="23753340" version="4" timestamp="2009-09-22T20:50:42Z" uid="9581" user="Lobelt" changeset="2576459">
    <nd ref="257366212"/>
    <nd ref="253835202"/>
    <nd ref="48054364"/>
    <tag k="railway" v="rail"/>
  </way>
  <way id="23753396" version="3" timestamp="2009-09-25T07:08:00Z" uid="4467" user="Rosscoe" changeset="2613415">
    <nd ref="130098532"/>
    <nd ref="130098533"/>
    <nd ref="130098534"/>
    <nd ref="130098535"/>
    <nd ref="130098536"/>
    <nd ref="130098537"/>
    <nd ref="130098538"/>
    <nd ref="130098539"/>
    <nd ref="130098436"/>
    <nd ref="130098540"/>
    <nd ref="130098541"/>
    <nd ref="130098542"/>
    <nd ref="130098543"/>
    <nd ref="130098544"/>
    <nd ref="130098564"/>
    <nd ref="130098565"/>
    <nd ref="130098566"/>
    <nd ref="130098567"/>
    <nd ref="130098568"/>
    <nd ref="130098569"/>
    <nd ref="130098570"/>
    <nd ref="130098571"/>
    <nd ref="130098572"/>
    <nd ref="130098573"/>
    <nd ref="130098574"/>
    <nd ref="130098575"/>
    <nd ref="130098576"/>
    <nd ref="130098577"/>
    <nd ref="130098578"/>
    <nd ref="130098579"/>
    <nd ref="130098580"/>
    <nd ref="130098581"/>
    <nd ref="130098582"/>
    <nd ref="130098583"/>
    <nd ref="130098584"/>
    <nd ref="130098585"/>
    <nd ref="130098590"/>
    <nd ref="130098599"/>
    <nd ref="130098602"/>
    <nd ref="130098603"/>
    <nd ref="130098604"/>
    <nd ref="130098605"/>
    <nd ref="130098606"/>
    <nd ref="130098607"/>
    <nd ref="130098608"/>
    <nd ref="130098609"/>
    <nd ref="130098610"/>
    <nd ref="130098611"/>
    <nd ref="130098615"/>
    <nd ref="130098616"/>
    <nd ref="130098622"/>
    <nd ref="130098221"/>
    <nd ref="130098623"/>
    <nd ref="130098624"/>
    <nd ref="130098625"/>
    <nd ref="130098626"/>
    <nd ref="130098627"/>
    <nd ref="130098628"/>
    <nd ref="130098629"/>
    <tag k="highway" v="track"/>
    <tag k="name" v="South Boundary Track"/>
    <tag k="source" v="survey"/>
    <tag k="surface" v="unpaved"/>
  </way>
  <way id="23753408" version="6" timestamp="2009-09-22T19:03:15Z" uid="9581" user="Lobelt" changeset="2575489">
    <nd ref="257366847"/>
    <nd ref="48055309"/>
    <nd ref="121914350"/>
    <nd ref="121914351"/>
    <nd ref="121914352"/>
    <nd ref="121914353"/>
    <nd ref="121914354"/>
    <nd ref="121914357"/>
    <nd ref="121914358"/>
    <nd ref="121914360"/>
    <nd ref="121914363"/>
    <nd ref="505782962"/>
    <nd ref="258592862"/>
    <tag k="layer" v="1"/>
    <tag k="railway" v="rail"/>
  </way>
  <way id="23753408" version="7" timestamp="2009-09-22T20:40:39Z" uid="9581" user="Lobelt" changeset="2576235">
    <nd ref="257366847"/>
    <nd ref="505818060"/>
    <nd ref="121914350"/>
    <nd ref="505818097"/>
    <nd ref="121914351"/>
    <nd ref="505818098"/>
    <nd ref="505818106"/>
    <nd ref="505818107"/>
    <nd ref="121914352"/>
    <nd ref="121914353"/>
    <nd ref="505818099"/>
    <nd ref="121914354"/>
    <nd ref="505818100"/>
    <nd ref="121914357"/>
    <nd ref="121914358"/>
    <nd ref="121914360"/>
    <nd ref="505818005"/>
    <nd ref="505818003"/>
    <nd ref="505818001"/>
    <nd ref="505817983"/>
    <nd ref="121914363"/>
    <nd ref="505782962"/>
    <nd ref="258592862"/>
    <tag k="layer" v="1"/>
    <tag k="railway" v="rail"/>
  </way>
  <way id="23753408" version="8" timestamp="2009-09-22T20:50:42Z" uid="9581" user="Lobelt" changeset="2576459">
    <nd ref="257366847"/>
    <nd ref="505818060"/>
    <nd ref="121914350"/>
    <nd ref="505818097"/>
    <nd ref="121914351"/>
    <nd ref="505818098"/>
    <nd ref="505818106"/>
    <nd ref="505818107"/>
    <nd ref="121914352"/>
    <nd ref="121914353"/>
    <nd ref="505818099"/>
    <nd ref="121914354"/>
    <nd ref="505818100"/>
    <nd ref="121914357"/>
    <nd ref="121914358"/>
    <nd ref="121914360"/>
    <nd ref="505818005"/>
    <nd ref="505818003"/>
    <nd ref="505818001"/>
    <nd ref="505817983"/>
    <nd ref="121914363"/>
    <nd ref="505782962"/>
    <nd ref="258592862"/>
    <tag k="railway" v="rail"/>
  </way>
  <way id="23753517" version="2" timestamp="2009-09-25T07:26:28Z" uid="4467" user="Rosscoe" changeset="2613553">
    <nd ref="257367763"/>
    <nd ref="257367765"/>
    <nd ref="254394042"/>
    <tag k="highway" v="footway"/>
    <tag k="source" v="survey"/>
    <tag k="surface" v="unpaved"/>
  </way>
  <way id="23753524" version="1" timestamp="2008-04-13T14:00:57Z" uid="30632" user="antblant" changeset="130030">
    <nd ref="257367779"/>
    <nd ref="257367780"/>
    <nd ref="257367781"/>
    <nd ref="257367782"/>
    <nd ref="257367783"/>
    <nd ref="257367784"/>
    <nd ref="257367766"/>
    <nd ref="257367785"/>
    <nd ref="257367787"/>
    <nd ref="257367786"/>
    <nd ref="257367789"/>
    <nd ref="257367788"/>
    <nd ref="257367791"/>
    <nd ref="257367790"/>
    <tag k="created_by" v="JOSM"/>
    <tag k="highway" v="tertiary"/>
    <tag k="name" v="Jedności Narodowej"/>
    <tag k="source" v="UMP-PL, ./UMP-Szczecin/src/RESKO.ulice.txt"/>
  </way>
  <way id="23753524" version="2" timestamp="2009-11-03T13:30:55Z" uid="36809" user="pfoten_weg_!_" changeset="3023908">
    <nd ref="257367779"/>
    <nd ref="257367780"/>
    <nd ref="257367781"/>
    <nd ref="257367782"/>
    <nd ref="257367783"/>
    <nd ref="257367784"/>
    <nd ref="257367766"/>
    <nd ref="257367785"/>
    <nd ref="257367787"/>
    <nd ref="257367786"/>
    <nd ref="257367789"/>
    <nd ref="257367788"/>
    <nd ref="257367791"/>
    <nd ref="257367790"/>
    <tag k="highway" v="tertiary"/>
    <tag k="name" v="Jedności Narodowej"/>
    <tag k="source" v="UMP-PL, ./UMP-Szczecin/src/RESKO.ulice.txt"/>
  </way>
  <way id="23753525" version="1" timestamp="2008-04-13T14:00:57Z" uid="30632" user="antblant" changeset="130030">
    <nd ref="257367900"/>
    <nd ref="257367894"/>
    <tag k="created_by" v="JOSM"/>
    <tag k="highway" v="service"/>
    <tag k="source" v="UMP-PL, ./UMP-Szczecin/src/RESKO.ulice.txt"/>
  </way>
  <way id="23753525" version="2" timestamp="2009-11-03T13:31:23Z" uid="36809" user="pfoten_weg_!_" changeset="3023908">
    <nd ref="257367900"/>
    <nd ref="257367894"/>
    <tag k="highway" v="service"/>
    <tag k="source" v="UMP-PL, ./UMP-Szczecin/src/RESKO.ulice.txt"/>
  </way>
  <way id="23753526" version="1" timestamp="2008-04-13T14:00:58Z" uid="30632" user="antblant" changeset="130030">
    <nd ref="257367782"/>
    <nd ref="257368070"/>
    <nd ref="257368098"/>
    <tag k="created_by" v="JOSM"/>
    <tag k="highway" v="residential"/>
    <tag k="name" v="Parkowa"/>
    <tag k="source" v="UMP-PL, ./UMP-Szczecin/src/RESKO.ulice.txt"/>
  </way>
  <way id="23753526" version="2" timestamp="2009-11-03T13:31:43Z" uid="36809" user="pfoten_weg_!_" changeset="3023908">
    <nd ref="257367782"/>
    <nd ref="257368070"/>
    <nd ref="257368098"/>
    <tag k="highway" v="residential"/>
    <tag k="name" v="Parkowa"/>
    <tag k="source" v="UMP-PL, ./UMP-Szczecin/src/RESKO.ulice.txt"/>
  </way>
  <way id="23753528" version="1" timestamp="2008-04-13T14:00:58Z" uid="30632" user="antblant" changeset="130030">
    <nd ref="257367766"/>
    <nd ref="257367771"/>
    <nd ref="257367772"/>
    <nd ref="257367773"/>
    <nd ref="257367774"/>
    <nd ref="257367775"/>
    <nd ref="257367776"/>
    <nd ref="257367777"/>
    <nd ref="257367778"/>
    <tag k="created_by" v="JOSM"/>
    <tag k="highway" v="tertiary"/>
    <tag k="name" v="Stefana Żeromskiego"/>
    <tag k="source" v="UMP-PL, ./UMP-Szczecin/src/RESKO.ulice.txt"/>
  </way>
  <way id="23753528" version="2" timestamp="2008-04-13T14:02:40Z" uid="30632" user="antblant" changeset="130030">
    <nd ref="257367766"/>
    <nd ref="257367771"/>
    <nd ref="257367772"/>
    <nd ref="257367773"/>
    <nd ref="257367774"/>
    <nd ref="257367775"/>
    <nd ref="257367776"/>
    <nd ref="257367777"/>
    <nd ref="254710124"/>
    <tag k="created_by" v="Potlatch 0.8a"/>
    <tag k="highway" v="tertiary"/>
    <tag k="name" v="Stefana Żeromskiego"/>
    <tag k="source" v="UMP-PL, ./UMP-Szczecin/src/RESKO.ulice.txt"/>
  </way>
  <way id="23753528" version="3" timestamp="2009-11-03T13:30:56Z" uid="36809" user="pfoten_weg_!_" changeset="3023908">
    <nd ref="257367766"/>
    <nd ref="257367771"/>
    <nd ref="257367772"/>
    <nd ref="257367773"/>
    <nd ref="257367774"/>
    <nd ref="257367775"/>
    <nd ref="257367776"/>
    <nd ref="257367777"/>
    <nd ref="254710124"/>
    <tag k="highway" v="tertiary"/>
    <tag k="name" v="Stefana Żeromskiego"/>
    <tag k="source" v="UMP-PL, ./UMP-Szczecin/src/RESKO.ulice.txt"/>
  </way>
  <way id="23753529" version="1" timestamp="2008-04-13T14:00:58Z" uid="30632" user="antblant" changeset="130030">
    <nd ref="257367901"/>
    <nd ref="257367915"/>
    <nd ref="257367897"/>
    <nd ref="257367916"/>
    <nd ref="257367913"/>
    <nd ref="257367914"/>
    <nd ref="257367911"/>
    <nd ref="257367912"/>
    <nd ref="257367909"/>
    <nd ref="257367910"/>
    <tag k="created_by" v="JOSM"/>
    <tag k="highway" v="residential"/>
    <tag k="name" v="Wolności"/>
    <tag k="source" v="UMP-PL, ./UMP-Szczecin/src/RESKO.ulice.txt"/>
  </way>
  <way id="23753529" version="2" timestamp="2009-11-03T13:31:24Z" uid="36809" user="pfoten_weg_!_" changeset="3023908">
    <nd ref="257367901"/>
    <nd ref="257367915"/>
    <nd ref="257367897"/>
    <nd ref="257367916"/>
    <nd ref="257367913"/>
    <nd ref="257367914"/>
    <nd ref="257367911"/>
    <nd ref="257367912"/>
    <nd ref="257367909"/>
    <nd ref="257367910"/>
    <tag k="highway" v="residential"/>
    <tag k="name" v="Wolności"/>
    <tag k="source" v="UMP-PL, ./UMP-Szczecin/src/RESKO.ulice.txt"/>
  </way>
  <way id="23753530" version="1" timestamp="2008-04-13T14:00:59Z" uid="30632" user="antblant" changeset="130030">
    <nd ref="257368084"/>
    <nd ref="257368097"/>
    <tag k="created_by" v="JOSM"/>
    <tag k="highway" v="residential"/>
    <tag k="name" v="Hanki Sawickiej"/>
    <tag k="source" v="UMP-PL, ./UMP-Szczecin/src/RESKO.ulice.txt"/>
  </way>
  <way id="23753530" version="2" timestamp="2009-11-03T13:31:47Z" uid="36809" user="pfoten_weg_!_" changeset="3023908">
    <nd ref="257368084"/>
    <nd ref="257368097"/>
    <tag k="highway" v="residential"/>
    <tag k="name" v="Hanki Sawickiej"/>
    <tag k="source" v="UMP-PL, ./UMP-Szczecin/src/RESKO.ulice.txt"/>
  </way>
  <way id="23753531" version="1" timestamp="2008-04-13T14:00:59Z" uid="30632" user="antblant" changeset="130030">
    <nd ref="257367784"/>
    <nd ref="257367901"/>
    <nd ref="257367985"/>
    <nd ref="257367986"/>
    <tag k="created_by" v="JOSM"/>
    <tag k="highway" v="residential"/>
    <tag k="name" v="Zachodnia"/>
    <tag k="source" v="UMP-PL, ./UMP-Szczecin/src/RESKO.ulice.txt"/>
  </way>
  <way id="23753531" version="2" timestamp="2009-11-03T13:31:06Z" uid="36809" user="pfoten_weg_!_" changeset="3023908">
    <nd ref="257367784"/>
    <nd ref="257367901"/>
    <nd ref="257367985"/>
    <nd ref="257367986"/>
    <tag k="highway" v="residential"/>
    <tag k="name" v="Zachodnia"/>
    <tag k="source" v="UMP-PL, ./UMP-Szczecin/src/RESKO.ulice.txt"/>
  </way>
  <way id="23753532" version="1" timestamp="2008-04-13T14:00:59Z" uid="30632" user="antblant" changeset="130030">
    <nd ref="257367871"/>
    <nd ref="257368067"/>
    <nd ref="257367858"/>
    <nd ref="257368068"/>
    <nd ref="257367850"/>
    <tag k="created_by" v="JOSM"/>
    <tag k="highway" v="residential"/>
    <tag k="name" v="Krakowska"/>
    <tag k="source" v="UMP-PL, ./UMP-Szczecin/src/RESKO.ulice.txt"/>
  </way>
  <way id="23753532" version="2" timestamp="2009-11-03T13:31:30Z" uid="36809" user="pfoten_weg_!_" changeset="3023908">
    <nd ref="257367871"/>
    <nd ref="257368067"/>
    <nd ref="257367858"/>
    <nd ref="257368068"/>
    <nd ref="257367850"/>
    <tag k="highway" v="residential"/>
    <tag k="name" v="Krakowska"/>
    <tag k="source" v="UMP-PL, ./UMP-Szczecin/src/RESKO.ulice.txt"/>
  </way>
  <way id="23753533" version="1" timestamp="2008-04-13T14:01:00Z" uid="30632" user="antblant" changeset="130030">
    <nd ref="257368128"/>
    <nd ref="257368021"/>
    <tag k="created_by" v="JOSM"/>
    <tag k="highway" v="unclassified"/>
    <tag k="name" v="Henryka Sucharskiego"/>
    <tag k="source" v="UMP-PL, ./UMP-Szczecin/src/RESKO.ulice.txt"/>
    <tag k="surface" v="unpaved"/>
  </way>
  <way id="23753533" version="2" timestamp="2009-11-03T13:32:17Z" uid="36809" user="pfoten_weg_!_" changeset="3023908">
    <nd ref="257368128"/>
    <nd ref="257368021"/>
    <tag k="highway" v="unclassified"/>
    <tag k="name" v="Henryka Sucharskiego"/>
    <tag k="source" v="UMP-PL, ./UMP-Szczecin/src/RESKO.ulice.txt"/>
    <tag k="surface" v="unpaved"/>
  </way>
  <way id="23753534" version="1" timestamp="2008-04-13T14:01:00Z" uid="30632" user="antblant" changeset="130030">
    <nd ref="257367796"/>
    <nd ref="257367799"/>
    <nd ref="257367798"/>
    <nd ref="257367827"/>
    <nd ref="257367802"/>
    <nd ref="257367833"/>
    <nd ref="257367834"/>
    <nd ref="257367831"/>
    <nd ref="257367832"/>
    <nd ref="257367837"/>
    <nd ref="257367838"/>
    <nd ref="257367779"/>
    <nd ref="257367835"/>
    <nd ref="257367836"/>
    <nd ref="257367841"/>
    <nd ref="257367842"/>
    <nd ref="257367839"/>
    <nd ref="257367840"/>
    <nd ref="257367845"/>
    <nd ref="257367846"/>
    <nd ref="257367843"/>
    <nd ref="257367844"/>
    <nd ref="257367793"/>
    <tag k="created_by" v="JOSM"/>
    <tag k="highway" v="secondary"/>
    <tag k="name" v="Wojska Polskiego"/>
    <tag k="ref" v="152"/>
    <tag k="source" v="UMP-PL, ./UMP-Szczecin/src/RESKO.ulice.txt"/>
  </way>
  <way id="23753534" version="2" timestamp="2009-11-03T13:31:08Z" uid="36809" user="pfoten_weg_!_" changeset="3023908">
    <nd ref="257367796"/>
    <nd ref="257367799"/>
    <nd ref="257367798"/>
    <nd ref="257367827"/>
    <nd ref="257367802"/>
    <nd ref="257367833"/>
    <nd ref="257367834"/>
    <nd ref="257367831"/>
    <nd ref="257367832"/>
    <nd ref="257367837"/>
    <nd ref="257367838"/>
    <nd ref="257367779"/>
    <nd ref="257367835"/>
    <nd ref="257367836"/>
    <nd ref="257367841"/>
    <nd ref="257367842"/>
    <nd ref="257367839"/>
    <nd ref="257367840"/>
    <nd ref="257367845"/>
    <nd ref="257367846"/>
    <nd ref="257367843"/>
    <nd ref="257367844"/>
    <nd ref="257367793"/>
    <tag k="highway" v="secondary"/>
    <tag k="name" v="Wojska Polskiego"/>
    <tag k="ref" v="152"/>
    <tag k="source" v="UMP-PL, ./UMP-Szczecin/src/RESKO.ulice.txt"/>
  </way>
  <way id="23753535" version="1" timestamp="2008-04-13T14:01:01Z" uid="30632" user="antblant" changeset="130030">
    <nd ref="257367983"/>
    <nd ref="257367984"/>
    <nd ref="257367980"/>
    <nd ref="257367982"/>
    <nd ref="257367928"/>
    <nd ref="257367952"/>
    <nd ref="257367787"/>
    <tag k="created_by" v="JOSM"/>
    <tag k="highway" v="residential"/>
    <tag k="name" v="Polna"/>
    <tag k="source" v="UMP-PL, ./UMP-Szczecin/src/RESKO.ulice.txt"/>
  </way>
  <way id="23753535" version="2" timestamp="2009-11-03T13:30:57Z" uid="36809" user="pfoten_weg_!_" changeset="3023908">
    <nd ref="257367983"/>
    <nd ref="257367984"/>
    <nd ref="257367980"/>
    <nd ref="257367982"/>
    <nd ref="257367928"/>
    <nd ref="257367952"/>
    <nd ref="257367787"/>
    <tag k="highway" v="residential"/>
    <tag k="name" v="Polna"/>
    <tag k="source" v="UMP-PL, ./UMP-Szczecin/src/RESKO.ulice.txt"/>
  </way>
  <way id="23753536" version="1" timestamp="2008-04-13T14:01:01Z" uid="30632" user="antblant" changeset="130030">
    <nd ref="257367874"/>
    <nd ref="257368069"/>
    <nd ref="257367782"/>
    <tag k="created_by" v="JOSM"/>
    <tag k="highway" v="residential"/>
    <tag k="name" v="Młyńska"/>
    <tag k="source" v="UMP-PL, ./UMP-Szczecin/src/RESKO.ulice.txt"/>
  </way>
  <way id="23753536" version="2" timestamp="2009-11-03T13:31:14Z" uid="36809" user="pfoten_weg_!_" changeset="3023908">
    <nd ref="257367874"/>
    <nd ref="257368069"/>
    <nd ref="257367782"/>
    <tag k="highway" v="residential"/>
    <tag k="name" v="Młyńska"/>
    <tag k="source" v="UMP-PL, ./UMP-Szczecin/src/RESKO.ulice.txt"/>
  </way>
  <way id="23753538" version="1" timestamp="2008-04-13T14:01:01Z" uid="30632" user="antblant" changeset="130030">
    <nd ref="257367909"/>
    <nd ref="257368131"/>
    <tag k="created_by" v="JOSM"/>
    <tag k="highway" v="residential"/>
    <tag k="name" v="Leśna"/>
    <tag k="source" v="UMP-PL, ./UMP-Szczecin/src/RESKO.ulice.txt"/>
  </way>
  <way id="23753538" version="2" timestamp="2009-11-03T13:31:26Z" uid="36809" user="pfoten_weg_!_" changeset="3023908">
    <nd ref="257367909"/>
    <nd ref="257368131"/>
    <tag k="highway" v="residential"/>
    <tag k="name" v="Leśna"/>
    <tag k="source" v="UMP-PL, ./UMP-Szczecin/src/RESKO.ulice.txt"/>
  </way>
  <way id="23753539" version="1" timestamp="2008-04-13T14:01:02Z" uid="30632" user="antblant" changeset="130030">
    <nd ref="257367793"/>
    <nd ref="257367792"/>
    <nd ref="257367795"/>
    <nd ref="257367794"/>
    <nd ref="257367797"/>
    <tag k="created_by" v="JOSM"/>
    <tag k="highway" v="secondary"/>
    <tag k="name" v="Fryderyka Chopina"/>
    <tag k="ref" v="152"/>
    <tag k="source" v="UMP-PL, ./UMP-Szczecin/src/RESKO.ulice.txt"/>
  </way>
  <way id="23753539" version="2" timestamp="2009-11-03T13:32:20Z" uid="36809" user="pfoten_weg_!_" changeset="3023908">
    <nd ref="257367793"/>
    <nd ref="257367792"/>
    <nd ref="257367795"/>
    <nd ref="257367794"/>
    <nd ref="257367797"/>
    <tag k="highway" v="secondary"/>
    <tag k="name" v="Fryderyka Chopina"/>
    <tag k="ref" v="152"/>
    <tag k="source" v="UMP-PL, ./UMP-Szczecin/src/RESKO.ulice.txt"/>
  </way>
  <way id="23753540" version="1" timestamp="2008-04-13T14:01:02Z" uid="30632" user="antblant" changeset="130030">
    <nd ref="257367873"/>
    <nd ref="257367781"/>
    <tag k="created_by" v="JOSM"/>
    <tag k="highway" v="residential"/>
    <tag k="name" v="Okrzei"/>
    <tag k="source" v="UMP-PL, ./UMP-Szczecin/src/RESKO.ulice.txt"/>
  </way>
  <way id="23753540" version="3" timestamp="2009-11-03T13:31:10Z" uid="36809" user="pfoten_weg_!_" changeset="3023908">
    <nd ref="257367873"/>
    <nd ref="257367781"/>
    <tag k="highway" v="residential"/>
    <tag k="name" v="Stefana Okrzei"/>
    <tag k="source" v="UMP-PL, ./UMP-Szczecin/src/RESKO.ulice.txt"/>
  </way>
  <way id="23753541" version="1" timestamp="2008-04-13T14:01:02Z" uid="30632" user="antblant" changeset="130030">
    <nd ref="257368123"/>
    <nd ref="257368120"/>
    <nd ref="257368121"/>
    <tag k="created_by" v="JOSM"/>
    <tag k="highway" v="residential"/>
    <tag k="name" v="Browarna"/>
    <tag k="source" v="UMP-PL, ./UMP-Szczecin/src/RESKO.ulice.txt"/>
  </way>
  <way id="23753541" version="2" timestamp="2009-11-03T13:31:02Z" uid="36809" user="pfoten_weg_!_" changeset="3023908">
    <nd ref="257368123"/>
    <nd ref="257368120"/>
    <nd ref="257368121"/>
    <tag k="highway" v="residential"/>
    <tag k="name" v="Browarna"/>
    <tag k="source" v="UMP-PL, ./UMP-Szczecin/src/RESKO.ulice.txt"/>
  </way>
  <way id="23753542" version="1" timestamp="2008-04-13T14:01:03Z" uid="30632" user="antblant" changeset="130030">
    <nd ref="257367766"/>
    <nd ref="257367884"/>
    <nd ref="257367885"/>
    <nd ref="257367886"/>
    <nd ref="257367896"/>
    <nd ref="257367895"/>
    <nd ref="257367898"/>
    <nd ref="257367897"/>
    <tag k="created_by" v="JOSM"/>
    <tag k="highway" v="residential"/>
    <tag k="name" v="Mariana Buczka"/>
    <tag k="source" v="UMP-PL, ./UMP-Szczecin/src/RESKO.ulice.txt"/>
  </way>
  <way id="23753542" version="2" timestamp="2009-11-03T13:31:11Z" uid="36809" user="pfoten_weg_!_" changeset="3023908">
    <nd ref="257367766"/>
    <nd ref="257367884"/>
    <nd ref="257367885"/>
    <nd ref="257367886"/>
    <nd ref="257367896"/>
    <nd ref="257367895"/>
    <nd ref="257367898"/>
    <nd ref="257367897"/>
    <tag k="highway" v="residential"/>
    <tag k="name" v="Mariana Buczka"/>
    <tag k="source" v="UMP-PL, ./UMP-Szczecin/src/RESKO.ulice.txt"/>
  </way>
  <way id="23753543" version="1" timestamp="2008-04-13T14:01:03Z" uid="30632" user="antblant" changeset="130030">
    <nd ref="257367790"/>
    <nd ref="257368126"/>
    <nd ref="257368127"/>
    <tag k="created_by" v="JOSM"/>
    <tag k="highway" v="residential"/>
    <tag k="name" v="Kolejowa"/>
    <tag k="source" v="UMP-PL, ./UMP-Szczecin/src/RESKO.ulice.txt"/>
  </way>
  <way id="23753543" version="2" timestamp="2009-11-03T13:31:04Z" uid="36809" user="pfoten_weg_!_" changeset="3023908">
    <nd ref="257367790"/>
    <nd ref="257368126"/>
    <nd ref="257368127"/>
    <tag k="highway" v="residential"/>
    <tag k="name" v="Kolejowa"/>
    <tag k="source" v="UMP-PL, ./UMP-Szczecin/src/RESKO.ulice.txt"/>
  </way>
  <way id="23753544" version="1" timestamp="2008-04-13T14:01:04Z" uid="30632" user="antblant" changeset="130030">
    <nd ref="257367886"/>
    <nd ref="257367892"/>
    <nd ref="257367891"/>
    <nd ref="257367894"/>
    <nd ref="257367893"/>
    <nd ref="257367906"/>
    <nd ref="257367905"/>
    <nd ref="257367777"/>
    <tag k="created_by" v="JOSM"/>
    <tag k="highway" v="residential"/>
    <tag k="name" v="Bolesława Prusa"/>
    <tag k="source" v="UMP-PL, ./UMP-Szczecin/src/RESKO.ulice.txt"/>
  </way>
  <way id="23753544" version="2" timestamp="2009-11-03T13:30:58Z" uid="36809" user="pfoten_weg_!_" changeset="3023908">
    <nd ref="257367886"/>
    <nd ref="257367892"/>
    <nd ref="257367891"/>
    <nd ref="257367894"/>
    <nd ref="257367893"/>
    <nd ref="257367906"/>
    <nd ref="257367905"/>
    <nd ref="257367777"/>
    <tag k="highway" v="residential"/>
    <tag k="name" v="Bolesława Prusa"/>
    <tag k="source" v="UMP-PL, ./UMP-Szczecin/src/RESKO.ulice.txt"/>
  </way>
  <way id="23753545" version="1" timestamp="2008-04-13T14:01:04Z" uid="30632" user="antblant" changeset="130030">
    <nd ref="257368097"/>
    <nd ref="257368096"/>
    <nd ref="257368095"/>
    <nd ref="257368102"/>
    <nd ref="257368101"/>
    <nd ref="257367864"/>
    <tag k="created_by" v="JOSM"/>
    <tag k="highway" v="residential"/>
    <tag k="name" v="Sportowa"/>
    <tag k="source" v="UMP-PL, ./UMP-Szczecin/src/RESKO.ulice.txt"/>
  </way>
  <way id="23753545" version="2" timestamp="2009-11-03T13:31:51Z" uid="36809" user="pfoten_weg_!_" changeset="3023908">
    <nd ref="257368097"/>
    <nd ref="257368096"/>
    <nd ref="257368095"/>
    <nd ref="257368102"/>
    <nd ref="257368101"/>
    <nd ref="257367864"/>
    <tag k="highway" v="residential"/>
    <tag k="name" v="Sportowa"/>
    <tag k="source" v="UMP-PL, ./UMP-Szczecin/src/RESKO.ulice.txt"/>
  </way>
  <way id="23753546" version="1" timestamp="2008-04-13T14:01:04Z" uid="30632" user="antblant" changeset="130030">
    <nd ref="257367774"/>
    <nd ref="257367908"/>
    <nd ref="257367907"/>
    <nd ref="257367900"/>
    <nd ref="257367899"/>
    <nd ref="257367904"/>
    <nd ref="257367905"/>
    <tag k="created_by" v="JOSM"/>
    <tag k="highway" v="service"/>
    <tag k="source" v="UMP-PL, ./UMP-Szczecin/src/RESKO.ulice.txt"/>
  </way>
  <way id="23753546" version="2" timestamp="2009-11-03T13:31:27Z" uid="36809" user="pfoten_weg_!_" changeset="3023908">
    <nd ref="257367774"/>
    <nd ref="257367908"/>
    <nd ref="257367907"/>
    <nd ref="257367900"/>
    <nd ref="257367899"/>
    <nd ref="257367904"/>
    <nd ref="257367905"/>
    <tag k="highway" v="service"/>
    <tag k="source" v="UMP-PL, ./UMP-Szczecin/src/RESKO.ulice.txt"/>
  </way>
  <way id="23753547" version="1" timestamp="2008-04-13T14:01:05Z" uid="30632" user="antblant" changeset="130030">
    <nd ref="257368100"/>
    <nd ref="257368099"/>
    <nd ref="257368090"/>
    <nd ref="257368089"/>
    <nd ref="257368088"/>
    <nd ref="257368087"/>
    <nd ref="257367831"/>
    <nd ref="257368094"/>
    <nd ref="257368093"/>
    <nd ref="257368092"/>
    <nd ref="257368091"/>
    <nd ref="257368122"/>
    <nd ref="257367874"/>
    <tag k="created_by" v="JOSM"/>
    <tag k="highway" v="residential"/>
    <tag k="name" v="Nadrzeczna"/>
    <tag k="source" v="UMP-PL, ./UMP-Szczecin/src/RESKO.ulice.txt"/>
  </way>
  <way id="23753547" version="2" timestamp="2009-11-03T13:31:16Z" uid="36809" user="pfoten_weg_!_" changeset="3023908">
    <nd ref="257368100"/>
    <nd ref="257368099"/>
    <nd ref="257368090"/>
    <nd ref="257368089"/>
    <nd ref="257368088"/>
    <nd ref="257368087"/>
    <nd ref="257367831"/>
    <nd ref="257368094"/>
    <nd ref="257368093"/>
    <nd ref="257368092"/>
    <nd ref="257368091"/>
    <nd ref="257368122"/>
    <nd ref="257367874"/>
    <tag k="highway" v="residential"/>
    <tag k="name" v="Nadrzeczna"/>
    <tag k="source" v="UMP-PL, ./UMP-Szczecin/src/RESKO.ulice.txt"/>
  </way>
  <way id="23753548" version="1" timestamp="2008-04-13T14:01:05Z" uid="30632" user="antblant" changeset="130030">
    <nd ref="257367848"/>
    <nd ref="257367870"/>
    <nd ref="257367869"/>
    <tag k="created_by" v="JOSM"/>
    <tag k="highway" v="residential"/>
    <tag k="name" v="Śląska"/>
    <tag k="source" v="UMP-PL, ./UMP-Szczecin/src/RESKO.ulice.txt"/>
  </way>
  <way id="23753548" version="2" timestamp="2009-11-03T13:32:15Z" uid="36809" user="pfoten_weg_!_" changeset="3023908">
    <nd ref="257367848"/>
    <nd ref="257367870"/>
    <nd ref="257367869"/>
    <tag k="highway" v="residential"/>
    <tag k="name" v="Śląska"/>
    <tag k="source" v="UMP-PL, ./UMP-Szczecin/src/RESKO.ulice.txt"/>
  </way>
  <way id="23753549" version="1" timestamp="2008-04-13T14:01:05Z" uid="30632" user="antblant" changeset="130030">
    <nd ref="257367875"/>
    <nd ref="257368114"/>
    <nd ref="257368110"/>
    <nd ref="257368112"/>
    <nd ref="257367836"/>
    <tag k="created_by" v="JOSM"/>
    <tag k="highway" v="residential"/>
    <tag k="name" v="Krzywa"/>
    <tag k="source" v="UMP-PL, ./UMP-Szczecin/src/RESKO.ulice.txt"/>
  </way>
  <way id="23753549" version="2" timestamp="2009-11-03T13:32:02Z" uid="36809" user="pfoten_weg_!_" changeset="3023908">
    <nd ref="257367875"/>
    <nd ref="257368114"/>
    <nd ref="257368110"/>
    <nd ref="257368112"/>
    <nd ref="257367836"/>
    <tag k="highway" v="residential"/>
    <tag k="name" v="Krzywa"/>
    <tag k="source" v="UMP-PL, ./UMP-Szczecin/src/RESKO.ulice.txt"/>
  </way>
  <way id="23753550" version="1" timestamp="2008-04-13T14:01:06Z" uid="30632" user="antblant" changeset="130030">
    <nd ref="257367794"/>
    <nd ref="257368021"/>
    <nd ref="257368020"/>
    <nd ref="257368056"/>
    <nd ref="257368054"/>
    <tag k="created_by" v="JOSM"/>
    <tag k="highway" v="unclassified"/>
    <tag k="name" v="Henryka Sucharskiego"/>
    <tag k="source" v="UMP-PL, ./UMP-Szczecin/src/RESKO.ulice.txt"/>
    <tag k="surface" v="unpaved"/>
  </way>
  <way id="23753550" version="2" timestamp="2009-11-03T13:32:21Z" uid="36809" user="pfoten_weg_!_" changeset="3023908">
    <nd ref="257367794"/>
    <nd ref="257368021"/>
    <nd ref="257368020"/>
    <nd ref="257368056"/>
    <nd ref="257368054"/>
    <tag k="highway" v="unclassified"/>
    <tag k="name" v="Henryka Sucharskiego"/>
    <tag k="source" v="UMP-PL, ./UMP-Szczecin/src/RESKO.ulice.txt"/>
    <tag k="surface" v="unpaved"/>
  </way>
  <way id="23753551" version="1" timestamp="2008-04-13T14:01:06Z" uid="30632" user="antblant" changeset="130030">
    <nd ref="257367864"/>
    <nd ref="257368053"/>
    <nd ref="257368041"/>
    <nd ref="257368071"/>
    <nd ref="257368079"/>
    <nd ref="257368081"/>
    <nd ref="257368082"/>
    <nd ref="257368083"/>
    <nd ref="257367851"/>
    <tag k="created_by" v="JOSM"/>
    <tag k="highway" v="residential"/>
    <tag k="name" v="Olsztyńska"/>
    <tag k="source" v="UMP-PL, ./UMP-Szczecin/src/RESKO.ulice.txt"/>
  </way>
  <way id="23753551" version="2" timestamp="2009-11-03T13:31:34Z" uid="36809" user="pfoten_weg_!_" changeset="3023908">
    <nd ref="257367864"/>
    <nd ref="257368053"/>
    <nd ref="257368041"/>
    <nd ref="257368071"/>
    <nd ref="257368079"/>
    <nd ref="257368081"/>
    <nd ref="257368082"/>
    <nd ref="257368083"/>
    <nd ref="257367851"/>
    <tag k="highway" v="residential"/>
    <tag k="name" v="Olsztyńska"/>
    <tag k="source" v="UMP-PL, ./UMP-Szczecin/src/RESKO.ulice.txt"/>
  </way>
  <way id="23753552" version="1" timestamp="2008-04-13T14:01:06Z" uid="30632" user="antblant" changeset="130030">
    <nd ref="257367851"/>
    <nd ref="257367871"/>
    <tag k="created_by" v="JOSM"/>
    <tag k="highway" v="residential"/>
    <tag k="name" v="Adama Mickiewicza"/>
    <tag k="source" v="UMP-PL, ./UMP-Szczecin/src/RESKO.ulice.txt"/>
  </way>
  <way id="23753552" version="2" timestamp="2009-11-03T13:31:36Z" uid="36809" user="pfoten_weg_!_" changeset="3023908">
    <nd ref="257367851"/>
    <nd ref="257367871"/>
    <tag k="highway" v="residential"/>
    <tag k="name" v="Adama Mickiewicza"/>
    <tag k="source" v="UMP-PL, ./UMP-Szczecin/src/RESKO.ulice.txt"/>
  </way>
  <way id="23753553" version="1" timestamp="2008-04-13T14:01:07Z" uid="30632" user="antblant" changeset="130030">
    <nd ref="257368113"/>
    <nd ref="257368063"/>
    <tag k="created_by" v="JOSM"/>
    <tag k="highway" v="residential"/>
    <tag k="name" v="Kościelna"/>
    <tag k="source" v="UMP-PL, ./UMP-Szczecin/src/RESKO.ulice.txt"/>
  </way>
  <way id="23753553" version="2" timestamp="2009-11-03T13:31:38Z" uid="36809" user="pfoten_weg_!_" changeset="3023908">
    <nd ref="257368113"/>
    <nd ref="257368063"/>
    <tag k="highway" v="residential"/>
    <tag k="name" v="Kościelna"/>
    <tag k="source" v="UMP-PL, ./UMP-Szczecin/src/RESKO.ulice.txt"/>
  </way>
  <way id="23753554" version="1" timestamp="2008-04-13T14:01:07Z" uid="30632" user="antblant" changeset="130030">
    <nd ref="257368058"/>
    <nd ref="257368020"/>
    <tag k="created_by" v="JOSM"/>
    <tag k="highway" v="unclassified"/>
    <tag k="name" v="Henryka Sucharskiego"/>
    <tag k="source" v="UMP-PL, ./UMP-Szczecin/src/RESKO.ulice.txt"/>
    <tag k="surface" v="unpaved"/>
  </way>
  <way id="23753554" version="2" timestamp="2009-11-03T13:32:24Z" uid="36809" user="pfoten_weg_!_" changeset="3023908">
    <nd ref="257368058"/>
    <nd ref="257368020"/>
    <tag k="highway" v="unclassified"/>
    <tag k="name" v="Henryka Sucharskiego"/>
    <tag k="source" v="UMP-PL, ./UMP-Szczecin/src/RESKO.ulice.txt"/>
    <tag k="surface" v="unpaved"/>
  </way>
  <way id="23753555" version="1" timestamp="2008-04-13T14:01:07Z" uid="30632" user="antblant" changeset="130030">
    <nd ref="257368084"/>
    <nd ref="257368085"/>
    <nd ref="257368086"/>
    <nd ref="257367865"/>
    <tag k="created_by" v="JOSM"/>
    <tag k="highway" v="residential"/>
    <tag k="name" v="Bohaterów Monte Cassino"/>
    <tag k="source" v="UMP-PL, ./UMP-Szczecin/src/RESKO.ulice.txt"/>
  </way>
  <way id="23753555" version="2" timestamp="2009-11-03T13:31:54Z" uid="36809" user="pfoten_weg_!_" changeset="3023908">
    <nd ref="257368084"/>
    <nd ref="257368085"/>
    <nd ref="257368086"/>
    <nd ref="257367865"/>
    <tag k="highway" v="residential"/>
    <tag k="name" v="Bohaterów Monte Cassino"/>
    <tag k="source" v="UMP-PL, ./UMP-Szczecin/src/RESKO.ulice.txt"/>
  </way>
  <way id="23753556" version="1" timestamp="2008-04-13T14:01:08Z" uid="30632" user="antblant" changeset="130030">
    <nd ref="257368022"/>
    <nd ref="257368057"/>
    <nd ref="257368060"/>
    <nd ref="257368059"/>
    <nd ref="257367795"/>
    <tag k="created_by" v="JOSM"/>
    <tag k="highway" v="residential"/>
    <tag k="name" v="Górna"/>
    <tag k="source" v="UMP-PL, ./UMP-Szczecin/src/RESKO.ulice.txt"/>
  </way>
  <way id="23753556" version="2" timestamp="2009-11-03T13:32:23Z" uid="36809" user="pfoten_weg_!_" changeset="3023908">
    <nd ref="257368022"/>
    <nd ref="257368057"/>
    <nd ref="257368060"/>
    <nd ref="257368059"/>
    <nd ref="257367795"/>
    <tag k="highway" v="residential"/>
    <tag k="name" v="Górna"/>
    <tag k="source" v="UMP-PL, ./UMP-Szczecin/src/RESKO.ulice.txt"/>
  </way>
  <way id="23753557" version="1" timestamp="2008-04-13T14:01:08Z" uid="30632" user="antblant" changeset="130030">
    <nd ref="257367845"/>
    <nd ref="257368030"/>
    <nd ref="257368028"/>
    <nd ref="257368033"/>
    <nd ref="257368031"/>
    <nd ref="257368036"/>
    <nd ref="257368034"/>
    <tag k="created_by" v="JOSM"/>
    <tag k="highway" v="residential"/>
    <tag k="name" v="Tadeusza Kościuszki"/>
    <tag k="source" v="UMP-PL, ./UMP-Szczecin/src/RESKO.ulice.txt"/>
  </way>
  <way id="23753557" version="2" timestamp="2009-11-03T13:32:04Z" uid="36809" user="pfoten_weg_!_" changeset="3023908">
    <nd ref="257367845"/>
    <nd ref="257368030"/>
    <nd ref="257368028"/>
    <nd ref="257368033"/>
    <nd ref="257368031"/>
    <nd ref="257368036"/>
    <nd ref="257368034"/>
    <tag k="highway" v="residential"/>
    <tag k="name" v="Tadeusza Kościuszki"/>
    <tag k="source" v="UMP-PL, ./UMP-Szczecin/src/RESKO.ulice.txt"/>
  </way>
  <way id="23753558" version="1" timestamp="2008-04-13T14:01:08Z" uid="30632" user="antblant" changeset="130030">
    <nd ref="257367875"/>
    <nd ref="257367887"/>
    <nd ref="257367888"/>
    <nd ref="257367889"/>
    <nd ref="257367832"/>
    <nd ref="257367890"/>
    <nd ref="257367883"/>
    <nd ref="257367874"/>
    <tag k="created_by" v="JOSM"/>
    <tag k="highway" v="residential"/>
    <tag k="name" v="Wąska"/>
    <tag k="source" v="UMP-PL, ./UMP-Szczecin/src/RESKO.ulice.txt"/>
  </way>
  <way id="23753558" version="2" timestamp="2009-11-03T13:31:19Z" uid="36809" user="pfoten_weg_!_" changeset="3023908">
    <nd ref="257367875"/>
    <nd ref="257367887"/>
    <nd ref="257367888"/>
    <nd ref="257367889"/>
    <nd ref="257367832"/>
    <nd ref="257367890"/>
    <nd ref="257367883"/>
    <nd ref="257367874"/>
    <tag k="highway" v="residential"/>
    <tag k="name" v="Wąska"/>
    <tag k="source" v="UMP-PL, ./UMP-Szczecin/src/RESKO.ulice.txt"/>
  </way>
  <way id="23753559" version="1" timestamp="2008-04-13T14:01:09Z" uid="30632" user="antblant" changeset="130030">
    <nd ref="257367991"/>
    <nd ref="257368106"/>
    <nd ref="257368103"/>
    <nd ref="257368104"/>
    <tag k="created_by" v="JOSM"/>
    <tag k="highway" v="residential"/>
    <tag k="name" v="Podgórna"/>
    <tag k="source" v="UMP-PL, ./UMP-Szczecin/src/RESKO.ulice.txt"/>
  </way>
  <way id="23753559" version="2" timestamp="2009-11-03T13:31:20Z" uid="36809" user="pfoten_weg_!_" changeset="3023908">
    <nd ref="257367991"/>
    <nd ref="257368106"/>
    <nd ref="257368103"/>
    <nd ref="257368104"/>
    <tag k="highway" v="residential"/>
    <tag k="name" v="Podgórna"/>
    <tag k="source" v="UMP-PL, ./UMP-Szczecin/src/RESKO.ulice.txt"/>
  </way>
  <way id="23753560" version="1" timestamp="2008-04-13T14:01:09Z" uid="30632" user="antblant" changeset="130030">
    <nd ref="257367843"/>
    <nd ref="257368062"/>
    <nd ref="257368061"/>
    <tag k="created_by" v="JOSM"/>
    <tag k="highway" v="residential"/>
    <tag k="name" v="Dworcowa"/>
    <tag k="source" v="UMP-PL, ./UMP-Szczecin/src/RESKO.ulice.txt"/>
  </way>
  <way id="23753560" version="2" timestamp="2009-11-03T13:32:25Z" uid="36809" user="pfoten_weg_!_" changeset="3023908">
    <nd ref="257367843"/>
    <nd ref="257368062"/>
    <nd ref="257368061"/>
    <tag k="highway" v="residential"/>
    <tag k="name" v="Dworcowa"/>
    <tag k="source" v="UMP-PL, ./UMP-Szczecin/src/RESKO.ulice.txt"/>
  </way>
  <way id="23753561" version="1" timestamp="2008-04-13T14:01:09Z" uid="30632" user="antblant" changeset="130030">
    <nd ref="257368033"/>
    <nd ref="257367842"/>
    <tag k="created_by" v="JOSM"/>
    <tag k="highway" v="residential"/>
    <tag k="name" v="1 Maja"/>
    <tag k="source" v="UMP-PL, ./UMP-Szczecin/src/RESKO.ulice.txt"/>
  </way>
  <way id="23753561" version="2" timestamp="2009-11-03T13:32:08Z" uid="36809" user="pfoten_weg_!_" changeset="3023908">
    <nd ref="257368033"/>
    <nd ref="257367842"/>
    <tag k="highway" v="residential"/>
    <tag k="name" v="1 Maja"/>
    <tag k="source" v="UMP-PL, ./UMP-Szczecin/src/RESKO.ulice.txt"/>
  </way>
  <way id="23753562" version="1" timestamp="2008-04-13T14:01:10Z" uid="30632" user="antblant" changeset="130030">
    <nd ref="257367868"/>
    <nd ref="257367879"/>
    <nd ref="257367880"/>
    <nd ref="257367881"/>
    <nd ref="257367882"/>
    <nd ref="257367837"/>
    <nd ref="257367872"/>
    <nd ref="257367873"/>
    <nd ref="257367874"/>
    <tag k="created_by" v="JOSM"/>
    <tag k="highway" v="residential"/>
    <tag k="name" v="Dąbrowszczaków"/>
    <tag k="source" v="UMP-PL, ./UMP-Szczecin/src/RESKO.ulice.txt"/>
  </way>
  <way id="23753562" version="2" timestamp="2009-11-03T13:31:21Z" uid="36809" user="pfoten_weg_!_" changeset="3023908">
    <nd ref="257367868"/>
    <nd ref="257367879"/>
    <nd ref="257367880"/>
    <nd ref="257367881"/>
    <nd ref="257367882"/>
    <nd ref="257367837"/>
    <nd ref="257367872"/>
    <nd ref="257367873"/>
    <nd ref="257367874"/>
    <tag k="highway" v="residential"/>
    <tag k="name" v="Dąbrowszczaków"/>
    <tag k="source" v="UMP-PL, ./UMP-Szczecin/src/RESKO.ulice.txt"/>
  </way>
  <way id="23753563" version="1" timestamp="2008-04-13T14:01:10Z" uid="30632" user="antblant" changeset="130030">
    <nd ref="257367790"/>
    <nd ref="257368123"/>
    <nd ref="257368124"/>
    <nd ref="257368125"/>
    <nd ref="257368105"/>
    <tag k="created_by" v="JOSM"/>
    <tag k="highway" v="tertiary"/>
    <tag k="name" v="Szpitalna"/>
    <tag k="source" v="UMP-PL, ./UMP-Szczecin/src/RESKO.ulice.txt"/>
  </way>
  <way id="23753563" version="2" timestamp="2008-04-13T14:02:52Z" uid="30632" user="antblant" changeset="130030">
    <nd ref="257367790"/>
    <nd ref="257368123"/>
    <nd ref="257368124"/>
    <nd ref="257368125"/>
    <nd ref="254697968"/>
    <tag k="created_by" v="Potlatch 0.8a"/>
    <tag k="highway" v="tertiary"/>
    <tag k="name" v="Szpitalna"/>
    <tag k="source" v="UMP-PL, ./UMP-Szczecin/src/RESKO.ulice.txt"/>
  </way>
  <way id="23753563" version="3" timestamp="2009-11-03T13:31:05Z" uid="36809" user="pfoten_weg_!_" changeset="3023908">
    <nd ref="257367790"/>
    <nd ref="257368123"/>
    <nd ref="257368124"/>
    <nd ref="257368125"/>
    <nd ref="254697968"/>
    <tag k="highway" v="tertiary"/>
    <tag k="name" v="Szpitalna"/>
    <tag k="source" v="UMP-PL, ./UMP-Szczecin/src/RESKO.ulice.txt"/>
  </way>
  <way id="23753564" version="1" timestamp="2008-04-13T14:01:10Z" uid="30632" user="antblant" changeset="130030">
    <nd ref="257367867"/>
    <nd ref="257368130"/>
    <nd ref="257368129"/>
    <nd ref="257368132"/>
    <nd ref="257367849"/>
    <tag k="created_by" v="JOSM"/>
    <tag k="highway" v="unclassified"/>
    <tag k="name" v="Jana Kilińskiego"/>
    <tag k="source" v="UMP-PL, ./UMP-Szczecin/src/RESKO.ulice.txt"/>
    <tag k="surface" v="unpaved"/>
  </way>
  <way id="23753564" version="2" timestamp="2009-11-03T13:32:16Z" uid="36809" user="pfoten_weg_!_" changeset="3023908">
    <nd ref="257367867"/>
    <nd ref="257368130"/>
    <nd ref="257368129"/>
    <nd ref="257368132"/>
    <nd ref="257367849"/>
    <tag k="highway" v="unclassified"/>
    <tag k="name" v="Jana Kilińskiego"/>
    <tag k="source" v="UMP-PL, ./UMP-Szczecin/src/RESKO.ulice.txt"/>
    <tag k="surface" v="unpaved"/>
  </way>
  <way id="23753565" version="1" timestamp="2008-04-13T14:01:11Z" uid="30632" user="antblant" changeset="130030">
    <nd ref="257367860"/>
    <nd ref="257367858"/>
    <nd ref="257367852"/>
    <tag k="created_by" v="JOSM"/>
    <tag k="highway" v="residential"/>
    <tag k="name" v="Poznańska"/>
    <tag k="source" v="UMP-PL, ./UMP-Szczecin/src/RESKO.ulice.txt"/>
  </way>
  <way id="23753565" version="2" timestamp="2009-11-03T13:31:39Z" uid="36809" user="pfoten_weg_!_" changeset="3023908">
    <nd ref="257367860"/>
    <nd ref="257367858"/>
    <nd ref="257367852"/>
    <tag k="highway" v="residential"/>
    <tag k="name" v="Poznańska"/>
    <tag k="source" v="UMP-PL, ./UMP-Szczecin/src/RESKO.ulice.txt"/>
  </way>
  <way id="23753566" version="1" timestamp="2008-04-13T14:01:11Z" uid="30632" user="antblant" changeset="130030">
    <nd ref="257367779"/>
    <nd ref="257368019"/>
    <nd ref="257367879"/>
    <tag k="created_by" v="JOSM"/>
    <tag k="highway" v="residential"/>
    <tag k="name" v="Szczecińska"/>
    <tag k="source" v="UMP-PL, ./UMP-Szczecin/src/RESKO.ulice.txt"/>
  </way>
  <way id="23753566" version="2" timestamp="2009-11-03T13:32:07Z" uid="36809" user="pfoten_weg_!_" changeset="3023908">
    <nd ref="257367779"/>
    <nd ref="257368019"/>
    <nd ref="257367879"/>
    <tag k="highway" v="residential"/>
    <tag k="name" v="Szczecińska"/>
    <tag k="source" v="UMP-PL, ./UMP-Szczecin/src/RESKO.ulice.txt"/>
  </way>
  <way id="23753567" version="1" timestamp="2008-04-13T14:01:11Z" uid="30632" user="antblant" changeset="130030">
    <nd ref="257367840"/>
    <nd ref="257368041"/>
    <tag k="created_by" v="JOSM"/>
    <tag k="highway" v="residential"/>
    <tag k="name" v="Mikołaja Kopernika"/>
    <tag k="source" v="UMP-PL, ./UMP-Szczecin/src/RESKO.ulice.txt"/>
  </way>
  <way id="23753567" version="2" timestamp="2009-11-03T13:31:42Z" uid="36809" user="pfoten_weg_!_" changeset="3023908">
    <nd ref="257367840"/>
    <nd ref="257368041"/>
    <tag k="highway" v="residential"/>
    <tag k="name" v="Mikołaja Kopernika"/>
    <tag k="source" v="UMP-PL, ./UMP-Szczecin/src/RESKO.ulice.txt"/>
  </way>
  <way id="23753568" version="1" timestamp="2008-04-13T14:01:12Z" uid="30632" user="antblant" changeset="130030">
    <nd ref="257368027"/>
    <nd ref="257368100"/>
    <nd ref="257367875"/>
    <nd ref="257367868"/>
    <nd ref="257368136"/>
    <nd ref="257367835"/>
    <tag k="created_by" v="JOSM"/>
    <tag k="highway" v="tertiary"/>
    <tag k="name" v="Bohaterów Warszawy"/>
    <tag k="source" v="UMP-PL, ./UMP-Szczecin/src/RESKO.ulice.txt"/>
  </way>
  <way id="23753568" version="2" timestamp="2009-11-03T13:32:00Z" uid="36809" user="pfoten_weg_!_" changeset="3023908">
    <nd ref="257368027"/>
    <nd ref="257368100"/>
    <nd ref="257367875"/>
    <nd ref="257367868"/>
    <nd ref="257368136"/>
    <nd ref="257367835"/>
    <tag k="highway" v="tertiary"/>
    <tag k="name" v="Bohaterów Warszawy"/>
    <tag k="source" v="UMP-PL, ./UMP-Szczecin/src/RESKO.ulice.txt"/>
  </way>
  <way id="23753569" version="1" timestamp="2008-04-13T14:01:12Z" uid="30632" user="antblant" changeset="130030">
    <nd ref="257367846"/>
    <nd ref="257367850"/>
    <nd ref="257367849"/>
    <nd ref="257367848"/>
    <nd ref="257367847"/>
    <tag k="created_by" v="JOSM"/>
    <tag k="highway" v="residential"/>
    <tag k="name" v="Gdańska"/>
    <tag k="source" v="UMP-PL, ./UMP-Szczecin/src/RESKO.ulice.txt"/>
  </way>
  <way id="23753569" version="2" timestamp="2009-11-03T13:31:33Z" uid="36809" user="pfoten_weg_!_" changeset="3023908">
    <nd ref="257367846"/>
    <nd ref="257367850"/>
    <nd ref="257367849"/>
    <nd ref="257367848"/>
    <nd ref="257367847"/>
    <tag k="highway" v="residential"/>
    <tag k="name" v="Gdańska"/>
    <tag k="source" v="UMP-PL, ./UMP-Szczecin/src/RESKO.ulice.txt"/>
  </way>
  <way id="23753570" version="1" timestamp="2008-04-13T14:01:12Z" uid="30632" user="antblant" changeset="130030">
    <nd ref="257367838"/>
    <nd ref="257367880"/>
    <tag k="created_by" v="JOSM"/>
    <tag k="highway" v="residential"/>
    <tag k="name" v="Środkowa"/>
    <tag k="source" v="UMP-PL, ./UMP-Szczecin/src/RESKO.ulice.txt"/>
  </way>
  <way id="23753570" version="2" timestamp="2009-11-03T13:31:57Z" uid="36809" user="pfoten_weg_!_" changeset="3023908">
    <nd ref="257367838"/>
    <nd ref="257367880"/>
    <tag k="highway" v="residential"/>
    <tag k="name" v="Środkowa"/>
    <tag k="source" v="UMP-PL, ./UMP-Szczecin/src/RESKO.ulice.txt"/>
  </way>
  <way id="23753571" version="1" timestamp="2008-04-13T14:01:13Z" uid="30632" user="antblant" changeset="130030">
    <nd ref="257367847"/>
    <nd ref="257368064"/>
    <nd ref="257368065"/>
    <nd ref="257368066"/>
    <tag k="created_by" v="JOSM"/>
    <tag k="highway" v="unclassified"/>
    <tag k="name" v="Gdańska"/>
    <tag k="source" v="UMP-PL, ./UMP-Szczecin/src/RESKO.ulice.txt"/>
    <tag k="surface" v="unpaved"/>
  </way>
  <way id="23753571" version="2" timestamp="2009-11-03T13:32:11Z" uid="36809" user="pfoten_weg_!_" changeset="3023908">
    <nd ref="257367847"/>
    <nd ref="257368064"/>
    <nd ref="257368065"/>
    <nd ref="257368066"/>
    <tag k="highway" v="unclassified"/>
    <tag k="name" v="Gdańska"/>
    <tag k="source" v="UMP-PL, ./UMP-Szczecin/src/RESKO.ulice.txt"/>
    <tag k="surface" v="unpaved"/>
  </way>
  <way id="23753572" version="1" timestamp="2008-04-13T14:01:15Z" uid="30632" user="antblant" changeset="130030">
    <nd ref="257367802"/>
    <nd ref="257368018"/>
    <nd ref="257367996"/>
    <nd ref="257367991"/>
    <nd ref="257367990"/>
    <nd ref="257367989"/>
    <nd ref="257367988"/>
    <nd ref="257367987"/>
    <nd ref="257368027"/>
    <tag k="created_by" v="JOSM"/>
    <tag k="highway" v="tertiary"/>
    <tag k="name" v="Stodolna"/>
    <tag k="source" v="UMP-PL, ./UMP-Szczecin/src/RESKO.ulice.txt"/>
  </way>
  <way id="23753572" version="2" timestamp="2009-11-03T13:31:10Z" uid="36809" user="pfoten_weg_!_" changeset="3023908">
    <nd ref="257367802"/>
    <nd ref="257368018"/>
    <nd ref="257367996"/>
    <nd ref="257367991"/>
    <nd ref="257367990"/>
    <nd ref="257367989"/>
    <nd ref="257367988"/>
    <nd ref="257367987"/>
    <nd ref="257368027"/>
    <tag k="highway" v="tertiary"/>
    <tag k="name" v="Stodolna"/>
    <tag k="source" v="UMP-PL, ./UMP-Szczecin/src/RESKO.ulice.txt"/>
  </way>
  <way id="23753573" version="1" timestamp="2008-04-13T14:01:15Z" uid="30632" user="antblant" changeset="130030">
    <nd ref="257367780"/>
    <nd ref="257368084"/>
    <nd ref="257368063"/>
    <nd ref="257367835"/>
    <tag k="created_by" v="JOSM"/>
    <tag k="highway" v="residential"/>
    <tag k="name" v="Rynek"/>
    <tag k="source" v="UMP-PL, ./UMP-Szczecin/src/RESKO.ulice.txt"/>
  </way>
  <way id="23753573" version="2" timestamp="2009-11-03T13:31:31Z" uid="36809" user="pfoten_weg_!_" changeset="3023908">
    <nd ref="257367780"/>
    <nd ref="257368084"/>
    <nd ref="257368063"/>
    <nd ref="257367835"/>
    <tag k="highway" v="residential"/>
    <tag k="name" v="Rynek"/>
    <tag k="source" v="UMP-PL, ./UMP-Szczecin/src/RESKO.ulice.txt"/>
  </way>
  <way id="23753574" version="1" timestamp="2008-04-13T14:01:16Z" uid="30632" user="antblant" changeset="130030">
    <nd ref="257368135"/>
    <nd ref="257368138"/>
    <nd ref="257368137"/>
    <nd ref="257368034"/>
    <nd ref="257368027"/>
    <tag k="created_by" v="JOSM"/>
    <tag k="highway" v="tertiary"/>
    <tag k="name" v="Kołobrzeska"/>
    <tag k="source" v="UMP-PL, ./UMP-Szczecin/src/RESKO.ulice.txt"/>
  </way>
  <way id="23753574" version="2" timestamp="2009-11-03T13:31:55Z" uid="36809" user="pfoten_weg_!_" changeset="3023908">
    <nd ref="257368135"/>
    <nd ref="257368138"/>
    <nd ref="257368137"/>
    <nd ref="257368034"/>
    <nd ref="257368027"/>
    <tag k="highway" v="tertiary"/>
    <tag k="name" v="Kołobrzeska"/>
    <tag k="source" v="UMP-PL, ./UMP-Szczecin/src/RESKO.ulice.txt"/>
  </way>
  <way id="23753575" version="1" timestamp="2008-04-13T14:01:16Z" uid="30632" user="antblant" changeset="130030">
    <nd ref="257367841"/>
    <nd ref="257367866"/>
    <nd ref="257367865"/>
    <nd ref="257367864"/>
    <tag k="created_by" v="JOSM"/>
    <tag k="highway" v="residential"/>
    <tag k="name" v="1 Maja"/>
    <tag k="source" v="UMP-PL, ./UMP-Szczecin/src/RESKO.ulice.txt"/>
  </way>
  <way id="23753575" version="2" timestamp="2009-11-03T13:31:48Z" uid="36809" user="pfoten_weg_!_" changeset="3023908">
    <nd ref="257367841"/>
    <nd ref="257367866"/>
    <nd ref="257367865"/>
    <nd ref="257367864"/>
    <tag k="highway" v="residential"/>
    <tag k="name" v="1 Maja"/>
    <tag k="source" v="UMP-PL, ./UMP-Szczecin/src/RESKO.ulice.txt"/>
  </way>
  <way id="23753576" version="1" timestamp="2008-04-13T14:01:16Z" uid="30632" user="antblant" changeset="130030">
    <nd ref="257367792"/>
    <nd ref="257368026"/>
    <nd ref="257368025"/>
    <nd ref="257368024"/>
    <nd ref="257368023"/>
    <nd ref="257368022"/>
    <tag k="created_by" v="JOSM"/>
    <tag k="highway" v="residential"/>
    <tag k="name" v="Jana Dzierżonia"/>
    <tag k="source" v="UMP-PL, ./UMP-Szczecin/src/RESKO.ulice.txt"/>
  </way>
  <way id="23753576" version="2" timestamp="2009-11-03T13:32:19Z" uid="36809" user="pfoten_weg_!_" changeset="3023908">
    <nd ref="257367792"/>
    <nd ref="257368026"/>
    <nd ref="257368025"/>
    <nd ref="257368024"/>
    <nd ref="257368023"/>
    <nd ref="257368022"/>
    <tag k="highway" v="residential"/>
    <tag k="name" v="Jana Dzierżonia"/>
    <tag k="source" v="UMP-PL, ./UMP-Szczecin/src/RESKO.ulice.txt"/>
  </way>
  <way id="23753577" version="1" timestamp="2008-04-13T14:01:17Z" uid="30632" user="antblant" changeset="130030">
    <nd ref="257368079"/>
    <nd ref="257367871"/>
    <tag k="created_by" v="JOSM"/>
    <tag k="highway" v="unclassified"/>
    <tag k="name" v="Krakowska"/>
    <tag k="source" v="UMP-PL, ./UMP-Szczecin/src/RESKO.ulice.txt"/>
    <tag k="surface" v="unpaved"/>
  </way>
  <way id="23753577" version="2" timestamp="2009-11-03T13:31:49Z" uid="36809" user="pfoten_weg_!_" changeset="3023908">
    <nd ref="257368079"/>
    <nd ref="257367871"/>
    <tag k="highway" v="unclassified"/>
    <tag k="name" v="Krakowska"/>
    <tag k="source" v="UMP-PL, ./UMP-Szczecin/src/RESKO.ulice.txt"/>
    <tag k="surface" v="unpaved"/>
  </way>
  <way id="23753578" version="1" timestamp="2008-04-13T14:01:17Z" uid="30632" user="antblant" changeset="130030">
    <nd ref="257367851"/>
    <nd ref="257367852"/>
    <nd ref="257367847"/>
    <nd ref="257367867"/>
    <tag k="created_by" v="JOSM"/>
    <tag k="highway" v="residential"/>
    <tag k="name" v="Kielecka"/>
    <tag k="source" v="UMP-PL, ./UMP-Szczecin/src/RESKO.ulice.txt"/>
  </way>
  <way id="23753578" version="2" timestamp="2009-11-03T13:32:13Z" uid="36809" user="pfoten_weg_!_" changeset="3023908">
    <nd ref="257367851"/>
    <nd ref="257367852"/>
    <nd ref="257367847"/>
    <nd ref="257367867"/>
    <tag k="highway" v="residential"/>
    <tag k="name" v="Kielecka"/>
    <tag k="source" v="UMP-PL, ./UMP-Szczecin/src/RESKO.ulice.txt"/>
  </way>
  <way id="23753579" version="1" timestamp="2008-04-13T14:01:18Z" uid="30632" user="antblant" changeset="130030">
    <nd ref="257368112"/>
    <nd ref="257368136"/>
    <tag k="created_by" v="JOSM"/>
    <tag k="highway" v="residential"/>
    <tag k="name" v="Krótka"/>
    <tag k="source" v="UMP-PL, ./UMP-Szczecin/src/RESKO.ulice.txt"/>
  </way>
  <way id="23753579" version="2" timestamp="2009-11-03T13:32:01Z" uid="36809" user="pfoten_weg_!_" changeset="3023908">
    <nd ref="257368112"/>
    <nd ref="257368136"/>
    <tag k="highway" v="residential"/>
    <tag k="name" v="Krótka"/>
    <tag k="source" v="UMP-PL, ./UMP-Szczecin/src/RESKO.ulice.txt"/>
  </way>
  <way id="23753679" version="10" timestamp="2011-06-03T07:19:41Z" uid="59758" user="rendle" changeset="8326544"/>
  <way id="23753817" version="2" timestamp="2008-05-05T14:42:18Z" uid="33382" user="de_muur" changeset="344251">
    <nd ref="257371547"/>
    <nd ref="257371548"/>
    <nd ref="257371549"/>
    <nd ref="257371550"/>
    <nd ref="257371551"/>
    <nd ref="257371552"/>
    <tag k="created_by" v="Potlatch 0.8c"/>
    <tag k="highway" v="residential"/>
  </way>
  <way id="23753817" version="3" timestamp="2008-06-09T11:45:13Z" uid="33382" user="de_muur" changeset="106501">
    <nd ref="257371547"/>
    <nd ref="257371548"/>
    <nd ref="257371549"/>
    <nd ref="257371550"/>
    <nd ref="257371551"/>
    <nd ref="257371552"/>
    <tag k="created_by" v="Potlatch 0.8c"/>
    <tag k="highway" v="residential"/>
    <tag k="name" v="Am Schlossteich"/>
    <tag k="surface" v="paved"/>
  </way>
  <way id="23753817" version="4" timestamp="2008-11-07T07:39:49Z" uid="33382" user="de_muur" changeset="703873">
    <nd ref="257371547"/>
    <nd ref="257371548"/>
    <nd ref="257371549"/>
    <nd ref="257371550"/>
    <nd ref="310344234"/>
    <tag k="created_by" v="Potlatch 0.8c"/>
    <tag k="highway" v="residential"/>
    <tag k="name" v="Am Schlossteich"/>
    <tag k="surface" v="paved"/>
  </way>
  <way id="23753817" version="6" timestamp="2009-12-30T13:12:22Z" uid="33382" user="de_muur" changeset="3489740">
    <nd ref="257371547"/>
    <nd ref="257371548"/>
    <tag k="highway" v="residential"/>
    <tag k="name" v="Am Schlossteich"/>
    <tag k="surface" v="paved"/>
  </way>
  <way id="23753817" version="7" timestamp="2010-12-29T17:12:35Z" uid="33382" user="de_muur" changeset="6800921">
    <nd ref="257371547"/>
    <nd ref="1071142822"/>
    <nd ref="310901833"/>
    <tag k="highway" v="residential"/>
    <tag k="name" v="Am Schlossteich"/>
    <tag k="surface" v="paved"/>
  </way>
  <way id="23753818" version="2" timestamp="2008-05-19T19:22:12Z" uid="33382" user="de_muur" changeset="482513"/>
  <way id="23753836" version="1" timestamp="2008-04-13T14:16:13Z" uid="30632" user="antblant" changeset="130030">
    <nd ref="257371698"/>
    <nd ref="257371709"/>
    <nd ref="257371708"/>
    <nd ref="257371711"/>
    <nd ref="257371710"/>
    <nd ref="257371705"/>
    <nd ref="257371693"/>
    <nd ref="257371688"/>
    <nd ref="257371704"/>
    <nd ref="257371707"/>
    <nd ref="257371687"/>
    <nd ref="257371706"/>
    <nd ref="257371744"/>
    <nd ref="257371760"/>
    <nd ref="257371716"/>
    <nd ref="257371690"/>
    <tag k="created_by" v="JOSM"/>
    <tag k="highway" v="secondary"/>
    <tag k="name" v="Jagiellońska"/>
    <tag k="ref" v="151"/>
    <tag k="source" v="UMP-PL, ./UMP-Szczecin/src/WEGORZYNO.ulice.txt"/>
  </way>
  <way id="23753836" version="2" timestamp="2008-04-13T14:17:34Z" uid="30632" user="antblant" changeset="130030">
    <nd ref="254708838"/>
    <nd ref="257371709"/>
    <nd ref="257371708"/>
    <nd ref="257371711"/>
    <nd ref="257371710"/>
    <nd ref="257371705"/>
    <nd ref="257371693"/>
    <nd ref="257371688"/>
    <nd ref="257371704"/>
    <nd ref="257371707"/>
    <nd ref="257371687"/>
    <nd ref="257371706"/>
    <nd ref="257371744"/>
    <nd ref="257371760"/>
    <nd ref="257371716"/>
    <nd ref="257371690"/>
    <tag k="created_by" v="Potlatch 0.8a"/>
    <tag k="highway" v="secondary"/>
    <tag k="name" v="Jagiellońska"/>
    <tag k="ref" v="151"/>
    <tag k="source" v="UMP-PL, ./UMP-Szczecin/src/WEGORZYNO.ulice.txt"/>
  </way>
  <way id="23753837" version="1" timestamp="2008-04-13T14:16:13Z" uid="30632" user="antblant" changeset="130030">
    <nd ref="257371825"/>
    <nd ref="257371826"/>
    <nd ref="257371827"/>
    <nd ref="257371671"/>
    <nd ref="257371679"/>
    <nd ref="257371837"/>
    <nd ref="257371686"/>
    <tag k="created_by" v="JOSM"/>
    <tag k="highway" v="tertiary"/>
    <tag k="name" v="Runowska"/>
    <tag k="source" v="UMP-PL, ./UMP-Szczecin/src/WEGORZYNO.ulice.txt"/>
  </way>
  <way id="23753838" version="1" timestamp="2008-04-13T14:16:14Z" uid="30632" user="antblant" changeset="130030">
    <nd ref="257371589"/>
    <nd ref="257371607"/>
    <nd ref="257371612"/>
    <nd ref="257371598"/>
    <tag k="created_by" v="JOSM"/>
    <tag k="highway" v="tertiary"/>
    <tag k="source" v="UMP-PL, ./UMP-Szczecin/src/WEGORZYNO.ulice.txt"/>
  </way>
  <way id="23753839" version="1" timestamp="2008-04-13T14:16:14Z" uid="30632" user="antblant" changeset="130030">
    <nd ref="257371815"/>
    <nd ref="257371814"/>
    <nd ref="257371817"/>
    <nd ref="257371816"/>
    <nd ref="257371803"/>
    <nd ref="257371802"/>
    <tag k="created_by" v="JOSM"/>
    <tag k="highway" v="residential"/>
    <tag k="name" v="Pionierów"/>
    <tag k="source" v="UMP-PL, ./UMP-Szczecin/src/WEGORZYNO.ulice.txt"/>
  </way>
  <way id="23753840" version="1" timestamp="2008-04-13T14:16:14Z" uid="30632" user="antblant" changeset="130030">
    <nd ref="257371684"/>
    <nd ref="257371685"/>
    <nd ref="257371686"/>
    <tag k="created_by" v="JOSM"/>
    <tag k="highway" v="residential"/>
    <tag k="name" v="Nowy Świat"/>
    <tag k="source" v="UMP-PL, ./UMP-Szczecin/src/WEGORZYNO.ulice.txt"/>
  </way>
  <way id="23753841" version="1" timestamp="2008-04-13T14:16:15Z" uid="30632" user="antblant" changeset="130030">
    <nd ref="257371690"/>
    <nd ref="257371691"/>
    <nd ref="257371701"/>
    <nd ref="257371700"/>
    <nd ref="257371703"/>
    <nd ref="257371702"/>
    <nd ref="257371697"/>
    <nd ref="257371696"/>
    <nd ref="257371699"/>
    <nd ref="257371601"/>
    <tag k="created_by" v="JOSM"/>
    <tag k="highway" v="secondary"/>
    <tag k="name" v="Grunwaldzka"/>
    <tag k="ref" v="151"/>
    <tag k="source" v="UMP-PL, ./UMP-Szczecin/src/WEGORZYNO.ulice.txt"/>
  </way>
  <way id="23753842" version="1" timestamp="2008-04-13T14:16:15Z" uid="30632" user="antblant" changeset="130030">
    <nd ref="257371690"/>
    <nd ref="257371836"/>
    <nd ref="257371825"/>
    <nd ref="257371624"/>
    <nd ref="257371691"/>
    <tag k="created_by" v="JOSM"/>
    <tag k="highway" v="tertiary"/>
    <tag k="name" v="Runowska"/>
    <tag k="source" v="UMP-PL, ./UMP-Szczecin/src/WEGORZYNO.ulice.txt"/>
  </way>
  <way id="23753843" version="1" timestamp="2008-04-13T14:16:16Z" uid="30632" user="antblant" changeset="130030">
    <nd ref="257371601"/>
    <nd ref="257371611"/>
    <tag k="created_by" v="JOSM"/>
    <tag k="highway" v="primary"/>
    <tag k="name" v="Rynek"/>
    <tag k="ref" v="20"/>
    <tag k="source" v="UMP-PL, ./UMP-Szczecin/src/WEGORZYNO.ulice.txt"/>
  </way>
  <way id="23753844" version="1" timestamp="2008-04-13T14:16:16Z" uid="30632" user="antblant" changeset="130030">
    <nd ref="257371701"/>
    <nd ref="257371811"/>
    <nd ref="257371810"/>
    <nd ref="257371813"/>
    <nd ref="257371812"/>
    <nd ref="257371702"/>
    <tag k="created_by" v="JOSM"/>
    <tag k="highway" v="residential"/>
    <tag k="name" v="Łąkowa"/>
    <tag k="source" v="UMP-PL, ./UMP-Szczecin/src/WEGORZYNO.ulice.txt"/>
  </way>
  <way id="23753845" version="1" timestamp="2008-04-13T14:16:16Z" uid="30632" user="antblant" changeset="130030">
    <nd ref="257371687"/>
    <nd ref="257371680"/>
    <nd ref="257371681"/>
    <tag k="created_by" v="JOSM"/>
    <tag k="highway" v="residential"/>
    <tag k="name" v="Mikołaja Kopernika"/>
    <tag k="source" v="UMP-PL, ./UMP-Szczecin/src/WEGORZYNO.ulice.txt"/>
  </way>
  <way id="23753847" version="1" timestamp="2008-04-13T14:16:17Z" uid="30632" user="antblant" changeset="130030">
    <nd ref="257371802"/>
    <nd ref="257371616"/>
    <tag k="created_by" v="JOSM"/>
    <tag k="highway" v="unclassified"/>
    <tag k="name" v="Pionierów"/>
    <tag k="source" v="UMP-PL, ./UMP-Szczecin/src/WEGORZYNO.ulice.txt"/>
    <tag k="surface" v="unpaved"/>
  </way>
  <way id="23753848" version="1" timestamp="2008-04-13T14:16:17Z" uid="30632" user="antblant" changeset="130030">
    <nd ref="257371780"/>
    <nd ref="257371801"/>
    <nd ref="257371800"/>
    <nd ref="257371706"/>
    <tag k="created_by" v="JOSM"/>
    <tag k="highway" v="residential"/>
    <tag k="name" v="Kolejowa"/>
    <tag k="source" v="UMP-PL, ./UMP-Szczecin/src/WEGORZYNO.ulice.txt"/>
  </way>
  <way id="23753849" version="1" timestamp="2008-04-13T14:16:17Z" uid="30632" user="antblant" changeset="130030">
    <nd ref="257371604"/>
    <nd ref="257371603"/>
    <nd ref="257371606"/>
    <nd ref="257371605"/>
    <tag k="created_by" v="JOSM"/>
    <tag k="highway" v="primary"/>
    <tag k="name" v="Strzelecka"/>
    <tag k="ref" v="20"/>
    <tag k="source" v="UMP-PL, ./UMP-Szczecin/src/WEGORZYNO.ulice.txt"/>
  </way>
  <way id="23753849" version="2" timestamp="2008-04-13T14:17:23Z" uid="30632" user="antblant" changeset="130030">
    <nd ref="254719462"/>
    <nd ref="257371603"/>
    <nd ref="257371606"/>
    <nd ref="257371605"/>
    <tag k="created_by" v="Potlatch 0.8a"/>
    <tag k="highway" v="primary"/>
    <tag k="name" v="Strzelecka"/>
    <tag k="ref" v="20"/>
    <tag k="source" v="UMP-PL, ./UMP-Szczecin/src/WEGORZYNO.ulice.txt"/>
  </way>
  <way id="23753850" version="1" timestamp="2008-04-13T14:16:18Z" uid="30632" user="antblant" changeset="130030">
    <nd ref="257371805"/>
    <nd ref="257371809"/>
    <nd ref="257371803"/>
    <nd ref="257371585"/>
    <tag k="created_by" v="JOSM"/>
    <tag k="highway" v="residential"/>
    <tag k="name" v="Zamkowa"/>
    <tag k="source" v="UMP-PL, ./UMP-Szczecin/src/WEGORZYNO.ulice.txt"/>
  </way>
  <way id="23753851" version="1" timestamp="2008-04-13T14:16:18Z" uid="30632" user="antblant" changeset="130030">
    <nd ref="257371671"/>
    <nd ref="257371670"/>
    <nd ref="257371669"/>
    <nd ref="257371668"/>
    <nd ref="257371675"/>
    <nd ref="257371674"/>
    <nd ref="257371673"/>
    <nd ref="257371672"/>
    <nd ref="257371679"/>
    <tag k="created_by" v="JOSM"/>
    <tag k="highway" v="residential"/>
    <tag k="name" v="Osiedle Czterdziestolecia PRL"/>
    <tag k="source" v="UMP-PL, ./UMP-Szczecin/src/WEGORZYNO.ulice.txt"/>
  </way>
  <way id="23753852" version="1" timestamp="2008-04-13T14:16:19Z" uid="30632" user="antblant" changeset="130030">
    <nd ref="257371719"/>
    <nd ref="257371714"/>
    <nd ref="257371715"/>
    <nd ref="257371712"/>
    <nd ref="257371713"/>
    <nd ref="257371778"/>
    <nd ref="257371779"/>
    <nd ref="257371776"/>
    <nd ref="257371777"/>
    <nd ref="257371774"/>
    <nd ref="257371775"/>
    <nd ref="257371772"/>
    <nd ref="257371773"/>
    <nd ref="257371792"/>
    <nd ref="257371791"/>
    <nd ref="257371790"/>
    <nd ref="257371789"/>
    <nd ref="257371788"/>
    <nd ref="257371787"/>
    <nd ref="257371781"/>
    <nd ref="257371690"/>
    <tag k="created_by" v="JOSM"/>
    <tag k="highway" v="residential"/>
    <tag k="name" v="Tadeusza Kościuszki"/>
    <tag k="source" v="UMP-PL, ./UMP-Szczecin/src/WEGORZYNO.ulice.txt"/>
  </way>
  <way id="23753853" version="1" timestamp="2008-04-13T14:16:19Z" uid="30632" user="antblant" changeset="130030">
    <nd ref="257371600"/>
    <nd ref="257371608"/>
    <nd ref="257371592"/>
    <tag k="created_by" v="JOSM"/>
    <tag k="highway" v="primary"/>
    <tag k="name" v="Strzelecka"/>
    <tag k="ref" v="20"/>
    <tag k="source" v="UMP-PL, ./UMP-Szczecin/src/WEGORZYNO.ulice.txt"/>
  </way>
  <way id="23753853" version="2" timestamp="2009-04-13T18:21:09Z" uid="30632" user="antblant" changeset="487279">
    <nd ref="257371600"/>
    <nd ref="257371608"/>
    <tag k="created_by" v="Potlatch 0.10f"/>
    <tag k="highway" v="primary"/>
    <tag k="name" v="Strzelecka"/>
    <tag k="oneway" v="yes"/>
    <tag k="ref" v="20"/>
    <tag k="source" v="UMP-PL, ./UMP-Szczecin/src/WEGORZYNO.ulice.txt"/>
  </way>
  <way id="23753854" version="1" timestamp="2008-04-13T14:16:19Z" uid="30632" user="antblant" changeset="130030">
    <nd ref="257371814"/>
    <nd ref="257371805"/>
    <nd ref="257371804"/>
    <nd ref="257371807"/>
    <nd ref="257371806"/>
    <tag k="created_by" v="JOSM"/>
    <tag k="highway" v="residential"/>
    <tag k="source" v="UMP-PL, ./UMP-Szczecin/src/WEGORZYNO.ulice.txt"/>
  </way>
  <way id="23753855" version="1" timestamp="2008-04-13T14:16:20Z" uid="30632" user="antblant" changeset="130030">
    <nd ref="257371672"/>
    <nd ref="257371678"/>
    <nd ref="257371677"/>
    <nd ref="257371676"/>
    <nd ref="257371670"/>
    <tag k="created_by" v="JOSM"/>
    <tag k="highway" v="residential"/>
    <tag k="name" v="Osiedle Czterdziestolecia PRL"/>
    <tag k="source" v="UMP-PL, ./UMP-Szczecin/src/WEGORZYNO.ulice.txt"/>
  </way>
  <way id="23753856" version="1" timestamp="2008-04-13T14:16:20Z" uid="30632" user="antblant" changeset="130030">
    <nd ref="257371592"/>
    <nd ref="257371593"/>
    <nd ref="257371594"/>
    <nd ref="257371595"/>
    <nd ref="257371596"/>
    <nd ref="257371598"/>
    <nd ref="257371597"/>
    <nd ref="257371600"/>
    <nd ref="257371592"/>
    <tag k="created_by" v="JOSM"/>
    <tag k="highway" v="0xc"/>
    <tag k="junction" v="roundabout"/>
    <tag k="source" v="UMP-PL, ./UMP-Szczecin/src/WEGORZYNO.ulice.txt"/>
  </way>
  <way id="23753856" version="2" timestamp="2008-04-13T14:18:05Z" uid="30632" user="antblant" changeset="130030">
    <nd ref="257371592"/>
    <nd ref="257371593"/>
    <nd ref="257371594"/>
    <nd ref="257371595"/>
    <nd ref="257371596"/>
    <nd ref="257371598"/>
    <nd ref="257371597"/>
    <nd ref="257371600"/>
    <nd ref="257371592"/>
    <tag k="created_by" v="Potlatch 0.8a"/>
    <tag k="highway" v="primary"/>
    <tag k="junction" v="roundabout"/>
    <tag k="oneway" v="yes"/>
    <tag k="source" v="UMP-PL, ./UMP-Szczecin/src/WEGORZYNO.ulice.txt"/>
  </way>
  <way id="23753856" version="3" timestamp="2009-04-13T18:21:24Z" uid="30632" user="antblant" changeset="487279">
    <nd ref="257371592"/>
    <nd ref="257371593"/>
    <nd ref="257371594"/>
    <nd ref="257371595"/>
    <nd ref="257371596"/>
    <nd ref="257371598"/>
    <nd ref="257371597"/>
    <nd ref="257371600"/>
    <nd ref="257371592"/>
    <tag k="created_by" v="Potlatch 0.10f"/>
    <tag k="highway" v="primary"/>
    <tag k="junction" v="roundabout"/>
    <tag k="oneway" v="yes"/>
    <tag k="ref" v="20"/>
    <tag k="source" v="UMP-PL, ./UMP-Szczecin/src/WEGORZYNO.ulice.txt"/>
  </way>
  <way id="23753857" version="1" timestamp="2008-04-13T14:16:20Z" uid="30632" user="antblant" changeset="130030">
    <nd ref="257371693"/>
    <nd ref="257371694"/>
    <tag k="created_by" v="JOSM"/>
    <tag k="highway" v="residential"/>
    <tag k="name" v="Adama Mickiewicza"/>
    <tag k="source" v="UMP-PL, ./UMP-Szczecin/src/WEGORZYNO.ulice.txt"/>
  </way>
  <way id="23753858" version="1" timestamp="2008-04-13T14:16:21Z" uid="30632" user="antblant" changeset="130030">
    <nd ref="257371611"/>
    <nd ref="257371799"/>
    <nd ref="257371808"/>
    <nd ref="257371828"/>
    <nd ref="257371829"/>
    <nd ref="257371815"/>
    <nd ref="257371806"/>
    <nd ref="257371619"/>
    <nd ref="257371614"/>
    <nd ref="257371830"/>
    <nd ref="257371831"/>
    <nd ref="257371832"/>
    <nd ref="257371833"/>
    <nd ref="257371834"/>
    <nd ref="257371835"/>
    <nd ref="257371819"/>
    <tag k="created_by" v="JOSM"/>
    <tag k="highway" v="primary"/>
    <tag k="name" v="Drawska"/>
    <tag k="ref" v="20"/>
    <tag k="source" v="UMP-PL, ./UMP-Szczecin/src/WEGORZYNO.ulice.txt"/>
  </way>
  <way id="23753859" version="1" timestamp="2008-04-13T14:16:21Z" uid="30632" user="antblant" changeset="130030">
    <nd ref="257371619"/>
    <nd ref="257371620"/>
    <nd ref="257371625"/>
    <nd ref="257371626"/>
    <nd ref="257371623"/>
    <tag k="created_by" v="JOSM"/>
    <tag k="highway" v="residential"/>
    <tag k="name" v="Zielona"/>
    <tag k="source" v="UMP-PL, ./UMP-Szczecin/src/WEGORZYNO.ulice.txt"/>
  </way>
  <way id="23753861" version="1" timestamp="2008-04-13T14:16:21Z" uid="30632" user="antblant" changeset="130030">
    <nd ref="257371799"/>
    <nd ref="257371798"/>
    <tag k="created_by" v="JOSM"/>
    <tag k="highway" v="residential"/>
    <tag k="name" v="Szkolna"/>
    <tag k="source" v="UMP-PL, ./UMP-Szczecin/src/WEGORZYNO.ulice.txt"/>
  </way>
  <way id="23753862" version="1" timestamp="2008-04-13T14:16:22Z" uid="30632" user="antblant" changeset="130030">
    <nd ref="257371577"/>
    <nd ref="257371599"/>
    <nd ref="257371602"/>
    <nd ref="257371601"/>
    <tag k="created_by" v="JOSM"/>
    <tag k="highway" v="primary"/>
    <tag k="name" v="Grunwaldzka"/>
    <tag k="ref" v="20"/>
    <tag k="source" v="UMP-PL, ./UMP-Szczecin/src/WEGORZYNO.ulice.txt"/>
  </way>
  <way id="23753862" version="2" timestamp="2011-01-04T20:45:15Z" uid="30632" user="antblant" changeset="6865560">
    <nd ref="257371577"/>
    <nd ref="257371599"/>
    <nd ref="257371602"/>
    <nd ref="257371601"/>
    <tag k="highway" v="primary"/>
    <tag k="name" v="Grunwaldzka"/>
    <tag k="ref" v="20;151"/>
    <tag k="source" v="UMP-PL, ./UMP-Szczecin/src/WEGORZYNO.ulice.txt"/>
  </way>
  <way id="23753863" version="1" timestamp="2008-04-13T14:16:22Z" uid="30632" user="antblant" changeset="130030">
    <nd ref="257371687"/>
    <nd ref="257371682"/>
    <nd ref="257371683"/>
    <nd ref="257371692"/>
    <tag k="created_by" v="JOSM"/>
    <tag k="highway" v="residential"/>
    <tag k="name" v="Boczna"/>
    <tag k="source" v="UMP-PL, ./UMP-Szczecin/src/WEGORZYNO.ulice.txt"/>
  </way>
  <way id="23753864" version="1" timestamp="2008-04-13T14:16:23Z" uid="30632" user="antblant" changeset="130030">
    <nd ref="257371608"/>
    <nd ref="257371820"/>
    <nd ref="257371822"/>
    <nd ref="257371823"/>
    <nd ref="257371824"/>
    <nd ref="257371577"/>
    <tag k="created_by" v="JOSM"/>
    <tag k="highway" v="primary"/>
    <tag k="name" v="Strzelecka"/>
    <tag k="ref" v="20"/>
    <tag k="source" v="UMP-PL, ./UMP-Szczecin/src/WEGORZYNO.ulice.txt"/>
  </way>
  <way id="23753865" version="1" timestamp="2008-04-13T14:16:23Z" uid="30632" user="antblant" changeset="130030">
    <nd ref="257371624"/>
    <nd ref="257371629"/>
    <nd ref="257371630"/>
    <nd ref="257371627"/>
    <nd ref="257371628"/>
    <nd ref="257371662"/>
    <nd ref="257371648"/>
    <nd ref="257371635"/>
    <nd ref="257371631"/>
    <tag k="created_by" v="JOSM"/>
    <tag k="highway" v="residential"/>
    <tag k="name" v="3 Maja"/>
    <tag k="source" v="UMP-PL, ./UMP-Szczecin/src/WEGORZYNO.ulice.txt"/>
  </way>
  <way id="23753866" version="1" timestamp="2008-04-13T14:16:23Z" uid="30632" user="antblant" changeset="130030">
    <nd ref="257371800"/>
    <nd ref="257371760"/>
    <tag k="created_by" v="JOSM"/>
    <tag k="highway" v="residential"/>
    <tag k="name" v="Przemysłowa"/>
    <tag k="source" v="UMP-PL, ./UMP-Szczecin/src/WEGORZYNO.ulice.txt"/>
  </way>
  <way id="23753867" version="1" timestamp="2008-04-13T14:16:24Z" uid="30632" user="antblant" changeset="130030">
    <nd ref="257371594"/>
    <nd ref="257371605"/>
    <nd ref="257371595"/>
    <tag k="created_by" v="JOSM"/>
    <tag k="highway" v="primary"/>
    <tag k="name" v="Strzelecka"/>
    <tag k="ref" v="20"/>
    <tag k="source" v="UMP-PL, ./UMP-Szczecin/src/WEGORZYNO.ulice.txt"/>
  </way>
  <way id="23753867" version="2" timestamp="2009-04-13T18:21:01Z" uid="30632" user="antblant" changeset="487279">
    <nd ref="257371594"/>
    <nd ref="257371605"/>
    <nd ref="257371595"/>
    <tag k="created_by" v="Potlatch 0.10f"/>
    <tag k="highway" v="primary"/>
    <tag k="name" v="Strzelecka"/>
    <tag k="oneway" v="yes"/>
    <tag k="ref" v="20"/>
    <tag k="source" v="UMP-PL, ./UMP-Szczecin/src/WEGORZYNO.ulice.txt"/>
  </way>
  <way id="23753867" version="3" timestamp="2009-04-13T18:21:18Z" uid="30632" user="antblant" changeset="487279">
    <nd ref="257371594"/>
    <nd ref="257371605"/>
    <tag k="created_by" v="Potlatch 0.10f"/>
    <tag k="highway" v="primary"/>
    <tag k="name" v="Strzelecka"/>
    <tag k="oneway" v="yes"/>
    <tag k="ref" v="20"/>
    <tag k="source" v="UMP-PL, ./UMP-Szczecin/src/WEGORZYNO.ulice.txt"/>
  </way>
  <way id="23753868" version="1" timestamp="2008-04-13T14:16:24Z" uid="30632" user="antblant" changeset="130030">
    <nd ref="257371688"/>
    <nd ref="257371689"/>
    <tag k="created_by" v="JOSM"/>
    <tag k="highway" v="residential"/>
    <tag k="name" v="Juliusza Słowackiego"/>
    <tag k="source" v="UMP-PL, ./UMP-Szczecin/src/WEGORZYNO.ulice.txt"/>
  </way>
  <way id="23753869" version="1" timestamp="2008-04-13T14:16:25Z" uid="30632" user="antblant" changeset="130030">
    <nd ref="257371614"/>
    <nd ref="257371613"/>
    <nd ref="257371617"/>
    <nd ref="257371618"/>
    <nd ref="257371615"/>
    <nd ref="257371616"/>
    <nd ref="257371621"/>
    <tag k="created_by" v="JOSM"/>
    <tag k="highway" v="tertiary"/>
    <tag k="name" v="Południowa"/>
    <tag k="source" v="UMP-PL, ./UMP-Szczecin/src/WEGORZYNO.ulice.txt"/>
  </way>
  <way id="23753870" version="1" timestamp="2008-04-13T14:16:25Z" uid="30632" user="antblant" changeset="130030">
    <nd ref="257371611"/>
    <nd ref="257371796"/>
    <nd ref="257371794"/>
    <nd ref="257371793"/>
    <nd ref="257371697"/>
    <tag k="created_by" v="JOSM"/>
    <tag k="highway" v="residential"/>
    <tag k="name" v="Sosnowskiego"/>
    <tag k="source" v="UMP-PL, ./UMP-Szczecin/src/WEGORZYNO.ulice.txt"/>
  </way>
  <way id="23753871" version="1" timestamp="2008-04-13T14:16:25Z" uid="30632" user="antblant" changeset="130030">
    <nd ref="257371577"/>
    <nd ref="257371582"/>
    <nd ref="257371583"/>
    <nd ref="257371584"/>
    <nd ref="257371585"/>
    <nd ref="257371586"/>
    <nd ref="257371587"/>
    <nd ref="257371588"/>
    <nd ref="257371589"/>
    <nd ref="257371590"/>
    <nd ref="257371591"/>
    <tag k="created_by" v="JOSM"/>
    <tag k="highway" v="secondary"/>
    <tag k="name" v="Podgórna"/>
    <tag k="ref" v="151"/>
    <tag k="source" v="UMP-PL, ./UMP-Szczecin/src/WEGORZYNO.ulice.txt"/>
  </way>
  <way id="23753872" version="1" timestamp="2008-04-13T14:16:26Z" uid="30632" user="antblant" changeset="130030">
    <nd ref="257371587"/>
    <nd ref="257371621"/>
    <nd ref="257371586"/>
    <tag k="created_by" v="JOSM"/>
    <tag k="highway" v="tertiary"/>
    <tag k="name" v="Południowa"/>
    <tag k="source" v="UMP-PL, ./UMP-Szczecin/src/WEGORZYNO.ulice.txt"/>
  </way>
  <way id="23753873" version="1" timestamp="2008-04-13T14:16:26Z" uid="30632" user="antblant" changeset="130030">
    <nd ref="257371693"/>
    <nd ref="257371695"/>
    <tag k="created_by" v="JOSM"/>
    <tag k="highway" v="residential"/>
    <tag k="name" v="Matejki"/>
    <tag k="source" v="UMP-PL, ./UMP-Szczecin/src/WEGORZYNO.ulice.txt"/>
  </way>
  <way id="23753874" version="1" timestamp="2008-04-13T14:16:27Z" uid="30632" user="antblant" changeset="130030">
    <nd ref="257371618"/>
    <nd ref="257371622"/>
    <nd ref="257371619"/>
    <tag k="created_by" v="JOSM"/>
    <tag k="highway" v="residential"/>
    <tag k="source" v="UMP-PL, ./UMP-Szczecin/src/WEGORZYNO.ulice.txt"/>
  </way>
  <way id="23753875" version="1" timestamp="2008-04-13T14:16:27Z" uid="30632" user="antblant" changeset="130030">
    <nd ref="257371798"/>
    <nd ref="257371599"/>
    <nd ref="257371797"/>
    <tag k="created_by" v="JOSM"/>
    <tag k="highway" v="residential"/>
    <tag k="name" v="2 Marca"/>
    <tag k="source" v="UMP-PL, ./UMP-Szczecin/src/WEGORZYNO.ulice.txt"/>
  </way>
</osm>
