<?xml version='1.0' encoding='UTF-8'?>
<osm version="0.6" generator="libosmium/2.20.0">
  <way id="23752058" version="1" timestamp="2008-04-13T12:55:22Z" uid="30632" user="antblant" changeset="130030">
    <nd ref="257354137"/>
    <nd ref="257354159"/>
    <tag k="created_by" v="JOSM"/>
    <tag k="highway" v="residential"/>
    <tag k="source" v="UMP-PL, ./UMP-Szczecin/src/LOBEZ.ulice.txt"/>
  </way>
  <way id="23752059" version="1" timestamp="2008-04-13T12:55:23Z" uid="30632" user="antblant" changeset="130030">
    <nd ref="257354315"/>
    <nd ref="257354339"/>
    <nd ref="257354350"/>
    <nd ref="257354349"/>
    <tag k="created_by" v="JOSM"/>
    <tag k="highway" v="residential"/>
    <tag k="name" v="Stanisława Dubois"/>
    <tag k="source" v="UMP-PL, ./UMP-Szczecin/src/LOBEZ.ulice.txt"/>
  </way>
  <way id="23752060" version="1" timestamp="2008-04-13T12:55:23Z" uid="30632" user="antblant" changeset="130030">
    <nd ref="257353926"/>
    <nd ref="257354089"/>
    <nd ref="257354092"/>
    <nd ref="257354091"/>
    <nd ref="257353638"/>
    <tag k="created_by" v="JOSM"/>
    <tag k="highway" v="residential"/>
    <tag k="name" v="Cicha"/>
    <tag k="source" v="UMP-PL, ./UMP-Szczecin/src/LOBEZ.ulice.txt"/>
  </way>
  <way id="23752061" version="1" timestamp="2008-04-13T12:55:23Z" uid="30632" user="antblant" changeset="130030">
    <nd ref="257354167"/>
    <nd ref="257354176"/>
    <nd ref="257354177"/>
    <nd ref="257354202"/>
    <tag k="created_by" v="JOSM"/>
    <tag k="highway" v="residential"/>
    <tag k="name" v="Trzydziestolecia PRL"/>
    <tag k="source" v="UMP-PL, ./UMP-Szczecin/src/LOBEZ.ulice.txt"/>
  </way>
  <way id="23752062" version="1" timestamp="2008-04-13T12:55:26Z" uid="30632" user="antblant" changeset="130030">
    <nd ref="257353635"/>
    <nd ref="257354094"/>
    <nd ref="257354093"/>
    <nd ref="257354096"/>
    <tag k="created_by" v="JOSM"/>
    <tag k="highway" v="residential"/>
    <tag k="name" v="Kościelna"/>
    <tag k="source" v="UMP-PL, ./UMP-Szczecin/src/LOBEZ.ulice.txt"/>
  </way>
  <way id="23752063" version="1" timestamp="2008-04-13T12:55:26Z" uid="30632" user="antblant" changeset="130030">
    <nd ref="257354165"/>
    <nd ref="257354178"/>
    <nd ref="257353694"/>
    <tag k="created_by" v="JOSM"/>
    <tag k="highway" v="residential"/>
    <tag k="source" v="UMP-PL, ./UMP-Szczecin/src/LOBEZ.ulice.txt"/>
  </way>
  <way id="23752064" version="1" timestamp="2008-04-13T12:55:26Z" uid="30632" user="antblant" changeset="130030">
    <nd ref="257353961"/>
    <nd ref="257353926"/>
    <nd ref="257354090"/>
    <nd ref="257353723"/>
    <tag k="created_by" v="JOSM"/>
    <tag k="highway" v="residential"/>
    <tag k="name" v="Władysława Sikorskiego"/>
    <tag k="source" v="UMP-PL, ./UMP-Szczecin/src/LOBEZ.ulice.txt"/>
  </way>
  <way id="23752064" version="3" timestamp="2011-02-06T13:54:41Z" uid="30632" user="antblant" changeset="7203898">
    <nd ref="257353649"/>
    <nd ref="257353926"/>
    <nd ref="257354090"/>
    <nd ref="257353723"/>
    <tag k="highway" v="residential"/>
    <tag k="name" v="Generała Władysława Sikorskiego"/>
    <tag k="source" v="UMP-PL, ./UMP-Szczecin/src/LOBEZ.ulice.txt"/>
  </way>
  <way id="23752065" version="1" timestamp="2008-04-13T12:55:27Z" uid="30632" user="antblant" changeset="130030">
    <nd ref="257354145"/>
    <nd ref="257354180"/>
    <nd ref="257354170"/>
    <nd ref="257354172"/>
    <nd ref="257354174"/>
    <nd ref="257354175"/>
    <nd ref="257354227"/>
    <nd ref="257354226"/>
    <nd ref="257354122"/>
    <tag k="created_by" v="JOSM"/>
    <tag k="highway" v="residential"/>
    <tag k="name" v="Czcibora"/>
    <tag k="source" v="UMP-PL, ./UMP-Szczecin/src/LOBEZ.ulice.txt"/>
  </way>
  <way id="23752066" version="1" timestamp="2008-04-13T12:55:27Z" uid="30632" user="antblant" changeset="130030">
    <nd ref="257354090"/>
    <nd ref="257353791"/>
    <tag k="created_by" v="JOSM"/>
    <tag k="highway" v="residential"/>
    <tag k="source" v="UMP-PL, ./UMP-Szczecin/src/LOBEZ.ulice.txt"/>
  </way>
  <way id="23752068" version="1" timestamp="2008-04-13T12:55:28Z" uid="30632" user="antblant" changeset="130030">
    <nd ref="257353705"/>
    <nd ref="257353882"/>
    <nd ref="257353864"/>
    <nd ref="257353843"/>
    <nd ref="257353838"/>
    <nd ref="257353827"/>
    <nd ref="257353820"/>
    <nd ref="257353808"/>
    <tag k="created_by" v="JOSM"/>
    <tag k="highway" v="residential"/>
    <tag k="name" v="Juliusza Słowackiego"/>
    <tag k="source" v="UMP-PL, ./UMP-Szczecin/src/LOBEZ.ulice.txt"/>
  </way>
  <way id="23752069" version="1" timestamp="2008-04-13T12:55:28Z" uid="30632" user="antblant" changeset="130030">
    <nd ref="257354136"/>
    <nd ref="257354202"/>
    <nd ref="257354164"/>
    <nd ref="257354165"/>
    <nd ref="257354184"/>
    <tag k="created_by" v="JOSM"/>
    <tag k="highway" v="residential"/>
    <tag k="name" v="Podmiejska"/>
    <tag k="source" v="UMP-PL, ./UMP-Szczecin/src/LOBEZ.ulice.txt"/>
  </way>
  <way id="23752070" version="1" timestamp="2008-04-13T12:55:28Z" uid="30632" user="antblant" changeset="130030">
    <nd ref="257353552"/>
    <nd ref="257353553"/>
    <nd ref="257353554"/>
    <nd ref="257353555"/>
    <nd ref="257353556"/>
    <nd ref="257353557"/>
    <tag k="created_by" v="JOSM"/>
    <tag k="highway" v="secondary"/>
    <tag k="name" v="Obrońców Stalingradu"/>
    <tag k="ref" v="151"/>
    <tag k="source" v="UMP-PL, ./UMP-Szczecin/src/LOBEZ.ulice.txt"/>
  </way>
  <way id="23752070" version="2" timestamp="2011-01-04T20:21:25Z" uid="30632" user="antblant" changeset="6865244">
    <nd ref="257353552"/>
    <nd ref="257353553"/>
    <nd ref="257353554"/>
    <nd ref="257353555"/>
    <nd ref="257353556"/>
    <nd ref="257353557"/>
    <tag k="highway" v="secondary"/>
    <tag k="name" v="Obrońców Stalingradu"/>
    <tag k="ref" v="148;151"/>
    <tag k="source" v="UMP-PL, ./UMP-Szczecin/src/LOBEZ.ulice.txt"/>
  </way>
  <way id="23752071" version="1" timestamp="2008-04-13T12:55:29Z" uid="30632" user="antblant" changeset="130030">
    <nd ref="257353864"/>
    <nd ref="257353708"/>
    <nd ref="257354058"/>
    <nd ref="257354035"/>
    <nd ref="257354017"/>
    <nd ref="257354007"/>
    <nd ref="257353983"/>
    <nd ref="257353965"/>
    <nd ref="257353592"/>
    <tag k="created_by" v="JOSM"/>
    <tag k="highway" v="residential"/>
    <tag k="name" v="Fryderyka Chopina"/>
    <tag k="source" v="UMP-PL, ./UMP-Szczecin/src/LOBEZ.ulice.txt"/>
  </way>
  <way id="23752072" version="1" timestamp="2008-04-13T12:55:29Z" uid="30632" user="antblant" changeset="130030">
    <nd ref="257354157"/>
    <nd ref="257354193"/>
    <nd ref="257354123"/>
    <nd ref="257354197"/>
    <tag k="created_by" v="JOSM"/>
    <tag k="highway" v="residential"/>
    <tag k="name" v="Księcia Warcisława"/>
    <tag k="source" v="UMP-PL, ./UMP-Szczecin/src/LOBEZ.ulice.txt"/>
  </way>
  <way id="23752073" version="1" timestamp="2008-04-13T12:55:29Z" uid="30632" user="antblant" changeset="130030">
    <nd ref="257353558"/>
    <nd ref="257353559"/>
    <nd ref="257353552"/>
    <nd ref="257353560"/>
    <nd ref="257353561"/>
    <nd ref="257353562"/>
    <nd ref="257353563"/>
    <nd ref="257353580"/>
    <nd ref="257353558"/>
    <tag k="created_by" v="JOSM"/>
    <tag k="highway" v="0xc"/>
    <tag k="junction" v="roundabout"/>
    <tag k="source" v="UMP-PL, ./UMP-Szczecin/src/LOBEZ.ulice.txt"/>
  </way>
  <way id="23752073" version="2" timestamp="2008-09-03T10:03:28Z" uid="30632" user="antblant" changeset="515077">
    <nd ref="257353558"/>
    <nd ref="257353559"/>
    <nd ref="257353552"/>
    <nd ref="257353560"/>
    <nd ref="257353561"/>
    <nd ref="257353562"/>
    <nd ref="257353563"/>
    <nd ref="257353580"/>
    <nd ref="257353558"/>
    <tag k="created_by" v="Potlatch 0.10b"/>
    <tag k="highway" v="secondary"/>
    <tag k="junction" v="roundabout"/>
    <tag k="oneway" v="yes"/>
    <tag k="source" v="UMP-PL, ./UMP-Szczecin/src/LOBEZ.ulice.txt"/>
  </way>
  <way id="23752074" version="1" timestamp="2008-04-13T12:55:30Z" uid="30632" user="antblant" changeset="130030">
    <nd ref="257353710"/>
    <nd ref="257353705"/>
    <nd ref="257353770"/>
    <nd ref="257353791"/>
    <nd ref="257353723"/>
    <nd ref="257353748"/>
    <nd ref="257353715"/>
    <nd ref="257353716"/>
    <nd ref="257353713"/>
    <nd ref="257353714"/>
    <nd ref="257353904"/>
    <tag k="created_by" v="JOSM"/>
    <tag k="highway" v="residential"/>
    <tag k="name" v="Wojska Polskiego"/>
    <tag k="source" v="UMP-PL, ./UMP-Szczecin/src/LOBEZ.ulice.txt"/>
  </way>
  <way id="23752075" version="1" timestamp="2008-04-13T12:55:30Z" uid="30632" user="antblant" changeset="130030">
    <nd ref="257354165"/>
    <nd ref="257354198"/>
    <nd ref="257354135"/>
    <tag k="created_by" v="JOSM"/>
    <tag k="highway" v="residential"/>
    <tag k="name" v="Kamienna"/>
    <tag k="source" v="UMP-PL, ./UMP-Szczecin/src/LOBEZ.ulice.txt"/>
  </way>
  <way id="23752076" version="1" timestamp="2008-04-13T12:55:30Z" uid="30632" user="antblant" changeset="130030">
    <nd ref="257353561"/>
    <nd ref="257353581"/>
    <nd ref="257353582"/>
    <nd ref="257353583"/>
    <nd ref="257353586"/>
    <tag k="created_by" v="JOSM"/>
    <tag k="highway" v="tertiary"/>
    <tag k="name" v="Józefa Ignacego Kraszewskiego"/>
    <tag k="source" v="UMP-PL, ./UMP-Szczecin/src/LOBEZ.ulice.txt"/>
  </way>
  <way id="23752077" version="1" timestamp="2008-04-13T12:55:31Z" uid="30632" user="antblant" changeset="130030">
    <nd ref="257353648"/>
    <nd ref="257353770"/>
    <nd ref="257353882"/>
    <tag k="created_by" v="JOSM"/>
    <tag k="highway" v="residential"/>
    <tag k="name" v="Henryka Sienkiewicza"/>
    <tag k="source" v="UMP-PL, ./UMP-Szczecin/src/LOBEZ.ulice.txt"/>
  </way>
  <way id="23752078" version="1" timestamp="2008-04-13T12:55:31Z" uid="30632" user="antblant" changeset="130030">
    <nd ref="257353692"/>
    <nd ref="257354198"/>
    <tag k="created_by" v="JOSM"/>
    <tag k="highway" v="residential"/>
    <tag k="name" v="Przechodnia"/>
    <tag k="source" v="UMP-PL, ./UMP-Szczecin/src/LOBEZ.ulice.txt"/>
  </way>
  <way id="23752079" version="1" timestamp="2008-04-13T12:55:32Z" uid="30632" user="antblant" changeset="130030">
    <nd ref="257354124"/>
    <nd ref="257354156"/>
    <tag k="created_by" v="JOSM"/>
    <tag k="highway" v="residential"/>
    <tag k="name" v="Księcia Bogusława"/>
    <tag k="source" v="UMP-PL, ./UMP-Szczecin/src/LOBEZ.ulice.txt"/>
  </way>
  <way id="23752080" version="1" timestamp="2008-04-13T12:55:32Z" uid="30632" user="antblant" changeset="130030">
    <nd ref="257353709"/>
    <nd ref="257353601"/>
    <tag k="created_by" v="JOSM"/>
    <tag k="highway" v="residential"/>
    <tag k="source" v="UMP-PL, ./UMP-Szczecin/src/LOBEZ.ulice.txt"/>
  </way>
  <way id="23752082" version="1" timestamp="2008-04-13T12:55:32Z" uid="30632" user="antblant" changeset="130030">
    <nd ref="257354117"/>
    <nd ref="257354199"/>
    <tag k="created_by" v="JOSM"/>
    <tag k="highway" v="residential"/>
    <tag k="name" v="Księcia Racibora"/>
    <tag k="source" v="UMP-PL, ./UMP-Szczecin/src/LOBEZ.ulice.txt"/>
  </way>
  <way id="23752083" version="1" timestamp="2008-04-13T12:55:33Z" uid="30632" user="antblant" changeset="130030">
    <nd ref="257353647"/>
    <nd ref="257353710"/>
    <nd ref="257353706"/>
    <nd ref="257353708"/>
    <nd ref="257353704"/>
    <tag k="created_by" v="JOSM"/>
    <tag k="highway" v="residential"/>
    <tag k="name" v="Marii Konopnickiej"/>
    <tag k="source" v="UMP-PL, ./UMP-Szczecin/src/LOBEZ.ulice.txt"/>
  </way>
  <way id="23752084" version="1" timestamp="2008-04-13T12:55:33Z" uid="30632" user="antblant" changeset="130030">
    <nd ref="257354118"/>
    <nd ref="257354200"/>
    <tag k="created_by" v="JOSM"/>
    <tag k="highway" v="residential"/>
    <tag k="name" v="Anny Jagiellonki"/>
    <tag k="source" v="UMP-PL, ./UMP-Szczecin/src/LOBEZ.ulice.txt"/>
  </way>
  <way id="23752085" version="1" timestamp="2008-04-13T12:55:33Z" uid="30632" user="antblant" changeset="130030">
    <nd ref="257353686"/>
    <nd ref="257353685"/>
    <nd ref="257353701"/>
    <nd ref="257353700"/>
    <nd ref="257353703"/>
    <nd ref="257353702"/>
    <nd ref="257353697"/>
    <nd ref="257353696"/>
    <nd ref="257353683"/>
    <nd ref="257353603"/>
    <nd ref="257353699"/>
    <nd ref="257353698"/>
    <nd ref="257353635"/>
    <tag k="created_by" v="JOSM"/>
    <tag k="highway" v="secondary"/>
    <tag k="name" v="Józefa Bema"/>
    <tag k="ref" v="148"/>
    <tag k="source" v="UMP-PL, ./UMP-Szczecin/src/LOBEZ.ulice.txt"/>
  </way>
  <way id="23752086" version="1" timestamp="2008-04-13T12:55:34Z" uid="30632" user="antblant" changeset="130030">
    <nd ref="257354119"/>
    <nd ref="257354201"/>
    <tag k="created_by" v="JOSM"/>
    <tag k="highway" v="residential"/>
    <tag k="name" v="Władysława Łokietka"/>
    <tag k="source" v="UMP-PL, ./UMP-Szczecin/src/LOBEZ.ulice.txt"/>
  </way>
  <way id="23752087" version="1" timestamp="2008-04-13T12:55:34Z" uid="30632" user="antblant" changeset="130030">
    <nd ref="257353699"/>
    <nd ref="257353711"/>
    <nd ref="257353712"/>
    <nd ref="257353617"/>
    <tag k="created_by" v="JOSM"/>
    <tag k="highway" v="residential"/>
    <tag k="name" v="Okopowa"/>
    <tag k="source" v="UMP-PL, ./UMP-Szczecin/src/LOBEZ.ulice.txt"/>
  </way>
  <way id="23752088" version="1" timestamp="2008-04-13T12:55:35Z" uid="30632" user="antblant" changeset="130030">
    <nd ref="257353605"/>
    <nd ref="257353650"/>
    <nd ref="257353612"/>
    <tag k="created_by" v="JOSM"/>
    <tag k="highway" v="tertiary"/>
    <tag k="name" v="Kwiatowa"/>
    <tag k="source" v="UMP-PL, ./UMP-Szczecin/src/LOBEZ.ulice.txt"/>
  </way>
  <way id="23752089" version="1" timestamp="2008-04-13T12:55:35Z" uid="30632" user="antblant" changeset="130030">
    <nd ref="257353683"/>
    <nd ref="257354138"/>
    <nd ref="257354139"/>
    <nd ref="257354167"/>
    <nd ref="257354166"/>
    <tag k="created_by" v="JOSM"/>
    <tag k="highway" v="residential"/>
    <tag k="name" v="Jana Kilińskiego"/>
    <tag k="source" v="UMP-PL, ./UMP-Szczecin/src/LOBEZ.ulice.txt"/>
  </way>
  <way id="23752090" version="1" timestamp="2008-04-13T12:55:35Z" uid="30632" user="antblant" changeset="130030">
    <nd ref="257353657"/>
    <nd ref="257353673"/>
    <nd ref="257353678"/>
    <nd ref="257353693"/>
    <nd ref="257353692"/>
    <nd ref="257353695"/>
    <nd ref="257353694"/>
    <nd ref="257353684"/>
    <nd ref="257353683"/>
    <tag k="created_by" v="JOSM"/>
    <tag k="highway" v="secondary"/>
    <tag k="name" v="Armii Krajowej"/>
    <tag k="ref" v="147"/>
    <tag k="source" v="UMP-PL, ./UMP-Szczecin/src/LOBEZ.ulice.txt"/>
  </way>
  <way id="23752090" version="2" timestamp="2008-04-13T12:56:45Z" uid="30632" user="antblant" changeset="130030">
    <nd ref="254689937"/>
    <nd ref="257353673"/>
    <nd ref="257353678"/>
    <nd ref="257353693"/>
    <nd ref="257353692"/>
    <nd ref="257353695"/>
    <nd ref="257353694"/>
    <nd ref="257353684"/>
    <nd ref="257353683"/>
    <tag k="created_by" v="Potlatch 0.8a"/>
    <tag k="highway" v="secondary"/>
    <tag k="name" v="Armii Krajowej"/>
    <tag k="ref" v="147"/>
    <tag k="source" v="UMP-PL, ./UMP-Szczecin/src/LOBEZ.ulice.txt"/>
  </way>
  <way id="23752091" version="1" timestamp="2008-04-13T12:55:36Z" uid="30632" user="antblant" changeset="130030">
    <nd ref="257354139"/>
    <nd ref="257354169"/>
    <nd ref="257354168"/>
    <nd ref="257354163"/>
    <nd ref="257354162"/>
    <nd ref="257354165"/>
    <tag k="created_by" v="JOSM"/>
    <tag k="highway" v="residential"/>
    <tag k="name" v="Jana Kilińskiego"/>
    <tag k="source" v="UMP-PL, ./UMP-Szczecin/src/LOBEZ.ulice.txt"/>
  </way>
  <way id="23752092" version="1" timestamp="2008-04-13T12:55:36Z" uid="30632" user="antblant" changeset="130030">
    <nd ref="257353682"/>
    <nd ref="257353592"/>
    <tag k="created_by" v="JOSM"/>
    <tag k="highway" v="tertiary"/>
    <tag k="name" v="Siewna"/>
    <tag k="source" v="UMP-PL, ./UMP-Szczecin/src/LOBEZ.ulice.txt"/>
  </way>
  <way id="23752093" version="1" timestamp="2008-04-13T12:55:36Z" uid="30632" user="antblant" changeset="130030">
    <nd ref="257354164"/>
    <nd ref="257354141"/>
    <tag k="created_by" v="JOSM"/>
    <tag k="highway" v="residential"/>
    <tag k="name" v="Pomorska"/>
    <tag k="source" v="UMP-PL, ./UMP-Szczecin/src/LOBEZ.ulice.txt"/>
  </way>
  <way id="23752094" version="1" timestamp="2008-04-13T12:55:37Z" uid="30632" user="antblant" changeset="130030">
    <nd ref="257353612"/>
    <nd ref="257353682"/>
    <tag k="created_by" v="JOSM"/>
    <tag k="highway" v="tertiary"/>
    <tag k="name" v="Ogrodowa"/>
    <tag k="source" v="UMP-PL, ./UMP-Szczecin/src/LOBEZ.ulice.txt"/>
  </way>
  <way id="23752096" version="1" timestamp="2008-04-13T12:55:37Z" uid="30632" user="antblant" changeset="130030">
    <nd ref="257354134"/>
    <nd ref="257354159"/>
    <nd ref="257354158"/>
    <nd ref="257354161"/>
    <nd ref="257354160"/>
    <nd ref="257354155"/>
    <nd ref="257354154"/>
    <nd ref="257354157"/>
    <tag k="created_by" v="JOSM"/>
    <tag k="highway" v="residential"/>
    <tag k="name" v="Bolesława Krzywoustego"/>
    <tag k="source" v="UMP-PL, ./UMP-Szczecin/src/LOBEZ.ulice.txt"/>
  </way>
  <way id="23752097" version="1" timestamp="2008-04-13T12:55:38Z" uid="30632" user="antblant" changeset="130030">
    <nd ref="257353606"/>
    <nd ref="257353614"/>
    <nd ref="257353615"/>
    <nd ref="257353556"/>
    <tag k="created_by" v="JOSM"/>
    <tag k="highway" v="secondary"/>
    <tag k="name" v="Tadeusza Kościuszki"/>
    <tag k="source" v="UMP-PL, ./UMP-Szczecin/src/LOBEZ.ulice.txt"/>
  </way>
  <way id="23752097" version="2" timestamp="2011-01-04T20:21:23Z" uid="30632" user="antblant" changeset="6865244">
    <nd ref="257353606"/>
    <nd ref="257353614"/>
    <nd ref="257353615"/>
    <nd ref="257353556"/>
    <tag k="highway" v="residential"/>
    <tag k="name" v="Tadeusza Kościuszki"/>
    <tag k="source" v="UMP-PL, ./UMP-Szczecin/src/LOBEZ.ulice.txt"/>
  </way>
  <way id="23752098" version="1" timestamp="2008-04-13T12:55:38Z" uid="30632" user="antblant" changeset="130030">
    <nd ref="257353586"/>
    <nd ref="257354280"/>
    <nd ref="257354281"/>
    <nd ref="257354278"/>
    <nd ref="257354279"/>
    <nd ref="257354284"/>
    <nd ref="257354285"/>
    <nd ref="257353604"/>
    <nd ref="257353602"/>
    <tag k="created_by" v="JOSM"/>
    <tag k="highway" v="tertiary"/>
    <tag k="name" v="Segala"/>
    <tag k="source" v="UMP-PL, ./UMP-Szczecin/src/LOBEZ.ulice.txt"/>
  </way>
  <way id="23752099" version="1" timestamp="2008-04-13T12:55:39Z" uid="30632" user="antblant" changeset="130030">
    <nd ref="257354203"/>
    <nd ref="257353706"/>
    <tag k="created_by" v="JOSM"/>
    <tag k="highway" v="residential"/>
    <tag k="source" v="UMP-PL, ./UMP-Szczecin/src/LOBEZ.ulice.txt"/>
  </way>
  <way id="23752100" version="1" timestamp="2008-04-13T12:55:39Z" uid="30632" user="antblant" changeset="130030">
    <nd ref="257353693"/>
    <nd ref="257354137"/>
    <nd ref="257354134"/>
    <nd ref="257354135"/>
    <nd ref="257354140"/>
    <nd ref="257354141"/>
    <nd ref="257354146"/>
    <tag k="created_by" v="JOSM"/>
    <tag k="highway" v="residential"/>
    <tag k="name" v="Bolesława Chrobrego"/>
    <tag k="source" v="UMP-PL, ./UMP-Szczecin/src/LOBEZ.ulice.txt"/>
  </way>
  <way id="23752101" version="1" timestamp="2008-04-13T12:55:39Z" uid="30632" user="antblant" changeset="130030">
    <nd ref="257353557"/>
    <nd ref="257353611"/>
    <nd ref="257353616"/>
    <nd ref="257353617"/>
    <nd ref="257353600"/>
    <tag k="created_by" v="JOSM"/>
    <tag k="highway" v="tertiary"/>
    <tag k="name" v="Adama Mickiewicza"/>
    <tag k="source" v="UMP-PL, ./UMP-Szczecin/src/LOBEZ.ulice.txt"/>
  </way>
  <way id="23752102" version="1" timestamp="2008-04-13T12:55:40Z" uid="30632" user="antblant" changeset="130030">
    <nd ref="257354241"/>
    <nd ref="257354239"/>
    <nd ref="257354228"/>
    <nd ref="257354233"/>
    <nd ref="257353748"/>
    <tag k="created_by" v="JOSM"/>
    <tag k="highway" v="residential"/>
    <tag k="source" v="UMP-PL, ./UMP-Szczecin/src/LOBEZ.ulice.txt"/>
  </way>
  <way id="23752103" version="1" timestamp="2008-04-13T12:55:40Z" uid="30632" user="antblant" changeset="130030">
    <nd ref="257354251"/>
    <nd ref="257354242"/>
    <nd ref="257353704"/>
    <tag k="created_by" v="JOSM"/>
    <tag k="highway" v="unclassified"/>
    <tag k="name" v="Zielona"/>
    <tag k="source" v="UMP-PL, ./UMP-Szczecin/src/LOBEZ.ulice.txt"/>
    <tag k="surface" v="unpaved"/>
  </way>
  <way id="23752104" version="1" timestamp="2008-04-13T12:55:40Z" uid="30632" user="antblant" changeset="130030">
    <nd ref="257353673"/>
    <nd ref="257354119"/>
    <nd ref="257354118"/>
    <nd ref="257354117"/>
    <nd ref="257354124"/>
    <nd ref="257354123"/>
    <nd ref="257354122"/>
    <nd ref="257354121"/>
    <nd ref="257354144"/>
    <nd ref="257354145"/>
    <nd ref="257354142"/>
    <nd ref="257354143"/>
    <nd ref="257354152"/>
    <nd ref="257354153"/>
    <nd ref="257354146"/>
    <nd ref="257354147"/>
    <nd ref="257354136"/>
    <tag k="created_by" v="JOSM"/>
    <tag k="highway" v="residential"/>
    <tag k="name" v="Mieszka I"/>
    <tag k="source" v="UMP-PL, ./UMP-Szczecin/src/LOBEZ.ulice.txt"/>
  </way>
  <way id="23752105" version="1" timestamp="2008-04-13T12:55:41Z" uid="30632" user="antblant" changeset="130030">
    <nd ref="257353623"/>
    <nd ref="257353622"/>
    <nd ref="257353629"/>
    <nd ref="257353628"/>
    <nd ref="257353627"/>
    <nd ref="257353626"/>
    <nd ref="257353633"/>
    <nd ref="257353584"/>
    <nd ref="257353624"/>
    <tag k="created_by" v="JOSM"/>
    <tag k="highway" v="secondary"/>
    <tag k="name" v="Drawska"/>
    <tag k="ref" v="148"/>
    <tag k="source" v="UMP-PL, ./UMP-Szczecin/src/LOBEZ.ulice.txt"/>
  </way>
  <way id="23752106" version="1" timestamp="2008-04-13T12:55:41Z" uid="30632" user="antblant" changeset="130030">
    <nd ref="257354240"/>
    <nd ref="257354241"/>
    <nd ref="257354238"/>
    <tag k="created_by" v="JOSM"/>
    <tag k="highway" v="residential"/>
    <tag k="name" v="Słoneczna"/>
    <tag k="source" v="UMP-PL, ./UMP-Szczecin/src/LOBEZ.ulice.txt"/>
  </way>
  <way id="23752107" version="1" timestamp="2008-04-13T12:55:42Z" uid="30632" user="antblant" changeset="130030">
    <nd ref="257354283"/>
    <nd ref="257354288"/>
    <nd ref="257354289"/>
    <nd ref="257354286"/>
    <nd ref="257354287"/>
    <nd ref="257354296"/>
    <nd ref="257354297"/>
    <nd ref="257354294"/>
    <tag k="created_by" v="JOSM"/>
    <tag k="highway" v="residential"/>
    <tag k="name" v="Strumykowa"/>
    <tag k="source" v="UMP-PL, ./UMP-Szczecin/src/LOBEZ.ulice.txt"/>
  </way>
  <way id="23752108" version="1" timestamp="2008-04-13T12:55:42Z" uid="30632" user="antblant" changeset="130030">
    <nd ref="257353610"/>
    <nd ref="257354133"/>
    <nd ref="257354132"/>
    <nd ref="257354131"/>
    <nd ref="257354129"/>
    <nd ref="257354120"/>
    <nd ref="257353709"/>
    <tag k="created_by" v="JOSM"/>
    <tag k="highway" v="residential"/>
    <tag k="name" v="Komuny Paryskiej"/>
    <tag k="source" v="UMP-PL, ./UMP-Szczecin/src/LOBEZ.ulice.txt"/>
  </way>
  <way id="23752109" version="1" timestamp="2008-04-13T12:55:42Z" uid="30632" user="antblant" changeset="130030">
    <nd ref="257353620"/>
    <nd ref="257353621"/>
    <nd ref="257353618"/>
    <nd ref="257353619"/>
    <nd ref="257353625"/>
    <nd ref="257353624"/>
    <tag k="created_by" v="JOSM"/>
    <tag k="highway" v="secondary"/>
    <tag k="name" v="Szosa Świdwińska"/>
    <tag k="ref" v="151"/>
    <tag k="source" v="UMP-PL, ./UMP-Szczecin/src/LOBEZ.ulice.txt"/>
  </way>
  <way id="23752109" version="2" timestamp="2008-04-13T12:57:05Z" uid="30632" user="antblant" changeset="130030">
    <nd ref="254716830"/>
    <nd ref="257353621"/>
    <nd ref="257353618"/>
    <nd ref="257353619"/>
    <nd ref="257353625"/>
    <nd ref="257353624"/>
    <tag k="created_by" v="Potlatch 0.8a"/>
    <tag k="highway" v="secondary"/>
    <tag k="name" v="Szosa Świdwińska"/>
    <tag k="ref" v="151"/>
    <tag k="source" v="UMP-PL, ./UMP-Szczecin/src/LOBEZ.ulice.txt"/>
  </way>
  <way id="23752110" version="1" timestamp="2008-04-13T12:55:43Z" uid="30632" user="antblant" changeset="130030">
    <nd ref="257354243"/>
    <nd ref="257354205"/>
    <tag k="created_by" v="JOSM"/>
    <tag k="highway" v="residential"/>
    <tag k="source" v="UMP-PL, ./UMP-Szczecin/src/LOBEZ.ulice.txt"/>
  </way>
  <way id="23752111" version="1" timestamp="2008-04-13T12:55:43Z" uid="30632" user="antblant" changeset="130030">
    <nd ref="257353586"/>
    <nd ref="257354282"/>
    <tag k="created_by" v="JOSM"/>
    <tag k="highway" v="residential"/>
    <tag k="name" v="Józefa Ignacego Kraszewskiego"/>
    <tag k="source" v="UMP-PL, ./UMP-Szczecin/src/LOBEZ.ulice.txt"/>
  </way>
  <way id="23752112" version="1" timestamp="2008-04-13T12:55:43Z" uid="30632" user="antblant" changeset="130030">
    <nd ref="257353711"/>
    <nd ref="257354087"/>
    <nd ref="257354125"/>
    <nd ref="257353634"/>
    <tag k="created_by" v="JOSM"/>
    <tag k="highway" v="residential"/>
    <tag k="name" v="Głowackiego"/>
    <tag k="source" v="UMP-PL, ./UMP-Szczecin/src/LOBEZ.ulice.txt"/>
  </way>
  <way id="23752113" version="1" timestamp="2008-04-13T12:55:44Z" uid="30632" user="antblant" changeset="130030">
    <nd ref="257353635"/>
    <nd ref="257353634"/>
    <nd ref="257353557"/>
    <tag k="created_by" v="JOSM"/>
    <tag k="highway" v="secondary"/>
    <tag k="name" v="Kościelna"/>
    <tag k="ref" v="148"/>
    <tag k="source" v="UMP-PL, ./UMP-Szczecin/src/LOBEZ.ulice.txt"/>
  </way>
  <way id="23752114" version="1" timestamp="2008-04-13T12:55:44Z" uid="30632" user="antblant" changeset="130030">
    <nd ref="257354126"/>
    <nd ref="257354125"/>
    <nd ref="257353611"/>
    <tag k="created_by" v="JOSM"/>
    <tag k="highway" v="residential"/>
    <tag k="name" v="Szkolna"/>
    <tag k="source" v="UMP-PL, ./UMP-Szczecin/src/LOBEZ.ulice.txt"/>
  </way>
  <way id="23752115" version="1" timestamp="2008-04-13T12:55:45Z" uid="30632" user="antblant" changeset="130030">
    <nd ref="257354259"/>
    <nd ref="257354258"/>
    <nd ref="257354265"/>
    <nd ref="257354264"/>
    <nd ref="257354263"/>
    <nd ref="257354262"/>
    <nd ref="257354273"/>
    <nd ref="257354272"/>
    <tag k="created_by" v="JOSM"/>
    <tag k="highway" v="residential"/>
    <tag k="name" v="Odnoga Węgorzyńska"/>
    <tag k="source" v="UMP-PL, ./UMP-Szczecin/src/LOBEZ.ulice.txt"/>
  </way>
  <way id="23752116" version="1" timestamp="2008-04-13T12:55:45Z" uid="30632" user="antblant" changeset="130030">
    <nd ref="257353983"/>
    <nd ref="257354254"/>
    <nd ref="257354255"/>
    <tag k="created_by" v="JOSM"/>
    <tag k="highway" v="residential"/>
    <tag k="name" v="Stanisława Moniuszki"/>
    <tag k="source" v="UMP-PL, ./UMP-Szczecin/src/LOBEZ.ulice.txt"/>
  </way>
  <way id="23752117" version="1" timestamp="2008-04-13T12:55:45Z" uid="30632" user="antblant" changeset="130030">
    <nd ref="257353632"/>
    <nd ref="257353631"/>
    <nd ref="257353630"/>
    <nd ref="257353637"/>
    <nd ref="257353636"/>
    <nd ref="257353592"/>
    <tag k="created_by" v="JOSM"/>
    <tag k="highway" v="residential"/>
    <tag k="name" v="Spokojna"/>
    <tag k="source" v="UMP-PL, ./UMP-Szczecin/src/LOBEZ.ulice.txt"/>
  </way>
  <way id="23752117" version="2" timestamp="2008-04-13T12:56:48Z" uid="30632" user="antblant" changeset="130030">
    <nd ref="254707783"/>
    <nd ref="257353631"/>
    <nd ref="257353630"/>
    <nd ref="257353637"/>
    <nd ref="257353636"/>
    <nd ref="257353592"/>
    <tag k="created_by" v="Potlatch 0.8a"/>
    <tag k="highway" v="residential"/>
    <tag k="name" v="Spokojna"/>
    <tag k="source" v="UMP-PL, ./UMP-Szczecin/src/LOBEZ.ulice.txt"/>
  </way>
  <way id="23752118" version="1" timestamp="2008-04-13T12:55:46Z" uid="30632" user="antblant" changeset="130030">
    <nd ref="257354128"/>
    <nd ref="257353614"/>
    <tag k="created_by" v="JOSM"/>
    <tag k="highway" v="residential"/>
    <tag k="name" v="Krótka"/>
    <tag k="source" v="UMP-PL, ./UMP-Szczecin/src/LOBEZ.ulice.txt"/>
  </way>
  <way id="23752119" version="1" timestamp="2008-04-13T12:55:46Z" uid="30632" user="antblant" changeset="130030">
    <nd ref="257354282"/>
    <nd ref="257354294"/>
    <nd ref="257354295"/>
    <nd ref="257354261"/>
    <nd ref="257354260"/>
    <tag k="created_by" v="JOSM"/>
    <tag k="highway" v="residential"/>
    <tag k="name" v="Podgórna"/>
    <tag k="source" v="UMP-PL, ./UMP-Szczecin/src/LOBEZ.ulice.txt"/>
  </way>
  <way id="23752120" version="1" timestamp="2008-04-13T12:55:47Z" uid="30632" user="antblant" changeset="130030">
    <nd ref="257353983"/>
    <nd ref="257354216"/>
    <nd ref="257354215"/>
    <nd ref="257354205"/>
    <nd ref="257354204"/>
    <nd ref="257354203"/>
    <nd ref="257354256"/>
    <nd ref="257354257"/>
    <nd ref="257354035"/>
    <tag k="created_by" v="JOSM"/>
    <tag k="highway" v="residential"/>
    <tag k="name" v="Elizy Orzeszkowej"/>
    <tag k="source" v="UMP-PL, ./UMP-Szczecin/src/LOBEZ.ulice.txt"/>
  </way>
  <way id="23752121" version="1" timestamp="2008-04-13T12:55:47Z" uid="30632" user="antblant" changeset="130030">
    <nd ref="257353624"/>
    <nd ref="257353680"/>
    <nd ref="257353681"/>
    <nd ref="257353558"/>
    <tag k="created_by" v="JOSM"/>
    <tag k="highway" v="secondary"/>
    <tag k="name" v="Adama Rapackiego"/>
    <tag k="ref" v="151"/>
    <tag k="source" v="UMP-PL, ./UMP-Szczecin/src/LOBEZ.ulice.txt"/>
  </way>
  <way id="23752121" version="2" timestamp="2011-01-04T20:21:27Z" uid="30632" user="antblant" changeset="6865244">
    <nd ref="257353624"/>
    <nd ref="257353680"/>
    <nd ref="257353681"/>
    <nd ref="257353558"/>
    <tag k="highway" v="secondary"/>
    <tag k="name" v="Adama Rapackiego"/>
    <tag k="ref" v="148;151"/>
    <tag k="source" v="UMP-PL, ./UMP-Szczecin/src/LOBEZ.ulice.txt"/>
  </way>
  <way id="23752122" version="1" timestamp="2008-04-13T12:55:47Z" uid="30632" user="antblant" changeset="130030">
    <nd ref="257353609"/>
    <nd ref="257354106"/>
    <nd ref="257354107"/>
    <nd ref="257354108"/>
    <nd ref="257354128"/>
    <nd ref="257354127"/>
    <tag k="created_by" v="JOSM"/>
    <tag k="highway" v="residential"/>
    <tag k="name" v="Przyrzeczna"/>
    <tag k="source" v="UMP-PL, ./UMP-Szczecin/src/LOBEZ.ulice.txt"/>
  </way>
  <way id="23752124" version="1" timestamp="2008-04-13T12:55:52Z" uid="30632" user="antblant" changeset="130030">
    <nd ref="257354058"/>
    <nd ref="257354244"/>
    <nd ref="257354251"/>
    <tag k="created_by" v="JOSM"/>
    <tag k="highway" v="residential"/>
    <tag k="name" v="Zielona"/>
    <tag k="source" v="UMP-PL, ./UMP-Szczecin/src/LOBEZ.ulice.txt"/>
  </way>
  <way id="23752125" version="1" timestamp="2008-04-13T12:55:52Z" uid="30632" user="antblant" changeset="130030">
    <nd ref="257354282"/>
    <nd ref="257354266"/>
    <nd ref="257354277"/>
    <nd ref="257354276"/>
    <nd ref="257354259"/>
    <nd ref="257354275"/>
    <nd ref="257354274"/>
    <tag k="created_by" v="JOSM"/>
    <tag k="highway" v="residential"/>
    <tag k="name" v="Węgorzyńska"/>
    <tag k="source" v="UMP-PL, ./UMP-Szczecin/src/LOBEZ.ulice.txt"/>
  </way>
  <way id="23752126" version="1" timestamp="2008-04-13T12:55:53Z" uid="30632" user="antblant" changeset="130030">
    <nd ref="257353557"/>
    <nd ref="257353644"/>
    <nd ref="257353613"/>
    <nd ref="257353610"/>
    <nd ref="257353607"/>
    <nd ref="257353602"/>
    <nd ref="257353647"/>
    <nd ref="257353648"/>
    <nd ref="257353649"/>
    <nd ref="257353638"/>
    <nd ref="257353639"/>
    <nd ref="257353640"/>
    <nd ref="257353641"/>
    <nd ref="257353679"/>
    <tag k="created_by" v="JOSM"/>
    <tag k="highway" v="secondary"/>
    <tag k="name" v="Niepodległości"/>
    <tag k="ref" v="151"/>
    <tag k="source" v="UMP-PL, ./UMP-Szczecin/src/LOBEZ.ulice.txt"/>
  </way>
  <way id="23752128" version="1" timestamp="2008-04-13T12:55:53Z" uid="30632" user="antblant" changeset="130030">
    <nd ref="257354114"/>
    <nd ref="257354097"/>
    <nd ref="257354098"/>
    <nd ref="257354099"/>
    <nd ref="257354104"/>
    <nd ref="257353697"/>
    <nd ref="257354105"/>
    <nd ref="257353694"/>
    <tag k="created_by" v="JOSM"/>
    <tag k="highway" v="residential"/>
    <tag k="name" v="Przemysłowa"/>
    <tag k="source" v="UMP-PL, ./UMP-Szczecin/src/LOBEZ.ulice.txt"/>
  </way>
  <way id="23752129" version="1" timestamp="2008-04-13T12:55:54Z" uid="30632" user="antblant" changeset="130030">
    <nd ref="257354254"/>
    <nd ref="257354252"/>
    <nd ref="257354253"/>
    <tag k="created_by" v="JOSM"/>
    <tag k="highway" v="residential"/>
    <tag k="name" v="Karola Szymanowskiego"/>
    <tag k="source" v="UMP-PL, ./UMP-Szczecin/src/LOBEZ.ulice.txt"/>
  </way>
  <way id="23752130" version="1" timestamp="2008-04-13T12:55:54Z" uid="30632" user="antblant" changeset="130030">
    <nd ref="257354264"/>
    <nd ref="257354267"/>
    <tag k="created_by" v="JOSM"/>
    <tag k="highway" v="residential"/>
    <tag k="name" v="Łąkowa"/>
    <tag k="source" v="UMP-PL, ./UMP-Szczecin/src/LOBEZ.ulice.txt"/>
  </way>
  <way id="23752131" version="1" timestamp="2008-04-13T12:55:55Z" uid="30632" user="antblant" changeset="130030">
    <nd ref="257354320"/>
    <nd ref="257354325"/>
    <nd ref="257354326"/>
    <nd ref="257354327"/>
    <nd ref="257354328"/>
    <nd ref="257354329"/>
    <nd ref="257354335"/>
    <nd ref="257354336"/>
    <nd ref="257354337"/>
    <tag k="created_by" v="JOSM"/>
    <tag k="highway" v="residential"/>
    <tag k="source" v="UMP-PL, ./UMP-Szczecin/src/LOBEZ.ulice.txt"/>
  </way>
  <way id="23752131" version="2" timestamp="2008-04-13T12:57:09Z" uid="30632" user="antblant" changeset="130030">
    <nd ref="257354320"/>
    <nd ref="257354325"/>
    <nd ref="257354326"/>
    <nd ref="257354327"/>
    <nd ref="257354328"/>
    <nd ref="257354329"/>
    <nd ref="257354335"/>
    <nd ref="257354336"/>
    <nd ref="257354337"/>
    <tag k="created_by" v="Potlatch 0.8a"/>
    <tag k="highway" v="residential"/>
    <tag k="source" v="UMP-PL, ./UMP-Szczecin/src/LOBEZ.ulice.txt"/>
  </way>
  <way id="23752132" version="1" timestamp="2008-04-13T12:55:55Z" uid="30632" user="antblant" changeset="130030">
    <nd ref="257354096"/>
    <nd ref="257354112"/>
    <tag k="created_by" v="JOSM"/>
    <tag k="highway" v="residential"/>
    <tag k="source" v="UMP-PL, ./UMP-Szczecin/src/LOBEZ.ulice.txt"/>
  </way>
  <way id="23752133" version="1" timestamp="2008-04-13T12:55:55Z" uid="30632" user="antblant" changeset="130030">
    <nd ref="257353556"/>
    <nd ref="257354115"/>
    <tag k="created_by" v="JOSM"/>
    <tag k="highway" v="residential"/>
    <tag k="name" v="Browarna"/>
    <tag k="source" v="UMP-PL, ./UMP-Szczecin/src/LOBEZ.ulice.txt"/>
  </way>
  <way id="23752134" version="1" timestamp="2008-04-13T12:55:56Z" uid="30632" user="antblant" changeset="130030">
    <nd ref="257353563"/>
    <nd ref="257353590"/>
    <nd ref="257353593"/>
    <nd ref="257353589"/>
    <tag k="created_by" v="JOSM"/>
    <tag k="highway" v="residential"/>
    <tag k="name" v="Obrońców Stalingradu"/>
    <tag k="source" v="UMP-PL, ./UMP-Szczecin/src/LOBEZ.ulice.txt"/>
  </way>
  <way id="23752136" version="1" timestamp="2008-04-13T12:55:56Z" uid="30632" user="antblant" changeset="130030">
    <nd ref="257353626"/>
    <nd ref="257354314"/>
    <nd ref="257354315"/>
    <nd ref="257354316"/>
    <nd ref="257354317"/>
    <nd ref="257354318"/>
    <nd ref="257354319"/>
    <nd ref="257354320"/>
    <tag k="created_by" v="JOSM"/>
    <tag k="highway" v="residential"/>
    <tag k="name" v="Hanki Sawickiej"/>
    <tag k="source" v="UMP-PL, ./UMP-Szczecin/src/LOBEZ.ulice.txt"/>
  </way>
  <way id="23752137" version="1" timestamp="2008-04-13T12:55:56Z" uid="30632" user="antblant" changeset="130030">
    <nd ref="257353703"/>
    <nd ref="257354219"/>
    <nd ref="257354217"/>
    <tag k="created_by" v="JOSM"/>
    <tag k="highway" v="residential"/>
    <tag k="name" v="Rolna"/>
    <tag k="source" v="UMP-PL, ./UMP-Szczecin/src/LOBEZ.ulice.txt"/>
  </way>
  <way id="23752138" version="1" timestamp="2008-04-13T12:55:57Z" uid="30632" user="antblant" changeset="130030">
    <nd ref="257353698"/>
    <nd ref="257354094"/>
    <nd ref="257354115"/>
    <nd ref="257354111"/>
    <nd ref="257354116"/>
    <tag k="created_by" v="JOSM"/>
    <tag k="highway" v="residential"/>
    <tag k="name" v="Józefa Bema"/>
    <tag k="source" v="UMP-PL, ./UMP-Szczecin/src/LOBEZ.ulice.txt"/>
  </way>
  <way id="23752139" version="1" timestamp="2008-04-13T12:55:57Z" uid="30632" user="antblant" changeset="130030">
    <nd ref="257353584"/>
    <nd ref="257353589"/>
    <nd ref="257353588"/>
    <nd ref="257353591"/>
    <nd ref="257353583"/>
    <tag k="created_by" v="JOSM"/>
    <tag k="highway" v="residential"/>
    <tag k="name" v="Kolejowa"/>
    <tag k="source" v="UMP-PL, ./UMP-Szczecin/src/LOBEZ.ulice.txt"/>
  </way>
  <way id="23752140" version="1" timestamp="2008-04-13T12:55:57Z" uid="30632" user="antblant" changeset="130030">
    <nd ref="257353704"/>
    <nd ref="257353843"/>
    <tag k="created_by" v="JOSM"/>
    <tag k="highway" v="residential"/>
    <tag k="name" v="Mikołaja Kopernika"/>
    <tag k="source" v="UMP-PL, ./UMP-Szczecin/src/LOBEZ.ulice.txt"/>
  </way>
  <way id="23752142" version="1" timestamp="2008-04-13T12:55:58Z" uid="30632" user="antblant" changeset="130030">
    <nd ref="257354338"/>
    <nd ref="257354302"/>
    <nd ref="257354303"/>
    <nd ref="257354305"/>
    <nd ref="257354304"/>
    <nd ref="257354307"/>
    <nd ref="257354306"/>
    <nd ref="257354309"/>
    <nd ref="257354308"/>
    <nd ref="257354311"/>
    <nd ref="257354300"/>
    <tag k="created_by" v="JOSM"/>
    <tag k="highway" v="residential"/>
    <tag k="name" v="Hanki Sawickiej"/>
    <tag k="source" v="UMP-PL, ./UMP-Szczecin/src/LOBEZ.ulice.txt"/>
  </way>
  <way id="23752143" version="1" timestamp="2008-04-13T12:55:59Z" uid="30632" user="antblant" changeset="130030">
    <nd ref="257353555"/>
    <nd ref="257354110"/>
    <nd ref="257354111"/>
    <nd ref="257354112"/>
    <nd ref="257354113"/>
    <nd ref="257354114"/>
    <tag k="created_by" v="JOSM"/>
    <tag k="highway" v="residential"/>
    <tag k="name" v="Boczna"/>
    <tag k="source" v="UMP-PL, ./UMP-Szczecin/src/LOBEZ.ulice.txt"/>
  </way>
  <way id="23752144" version="1" timestamp="2008-04-13T12:55:59Z" uid="30632" user="antblant" changeset="130030">
    <nd ref="257353602"/>
    <nd ref="257353605"/>
    <tag k="created_by" v="JOSM"/>
    <tag k="highway" v="tertiary"/>
    <tag k="name" v="Segala"/>
    <tag k="source" v="UMP-PL, ./UMP-Szczecin/src/LOBEZ.ulice.txt"/>
  </way>
  <way id="23752145" version="1" timestamp="2008-04-13T12:55:59Z" uid="30632" user="antblant" changeset="130030">
    <nd ref="257354096"/>
    <nd ref="257354113"/>
    <tag k="created_by" v="JOSM"/>
    <tag k="highway" v="residential"/>
    <tag k="name" v="Kościelna"/>
    <tag k="source" v="UMP-PL, ./UMP-Szczecin/src/LOBEZ.ulice.txt"/>
  </way>
  <way id="23752146" version="1" timestamp="2008-04-13T12:56:00Z" uid="30632" user="antblant" changeset="130030">
    <nd ref="257354317"/>
    <nd ref="257354338"/>
    <nd ref="257354299"/>
    <nd ref="257354298"/>
    <nd ref="257354301"/>
    <nd ref="257354300"/>
    <nd ref="257354303"/>
    <tag k="created_by" v="JOSM"/>
    <tag k="highway" v="residential"/>
    <tag k="name" v="Hanki Sawickiej"/>
    <tag k="source" v="UMP-PL, ./UMP-Szczecin/src/LOBEZ.ulice.txt"/>
  </way>
  <way id="23752147" version="1" timestamp="2008-04-13T12:56:00Z" uid="30632" user="antblant" changeset="130030">
    <nd ref="257353644"/>
    <nd ref="257353615"/>
    <tag k="created_by" v="JOSM"/>
    <tag k="highway" v="residential"/>
    <tag k="name" v="Plac 3 Marca"/>
    <tag k="source" v="UMP-PL, ./UMP-Szczecin/src/LOBEZ.ulice.txt"/>
  </way>
  <way id="23752148" version="1" timestamp="2008-04-13T12:56:00Z" uid="30632" user="antblant" changeset="130030">
    <nd ref="257353592"/>
    <nd ref="257353599"/>
    <nd ref="257353594"/>
    <nd ref="257353601"/>
    <nd ref="257353600"/>
    <nd ref="257353603"/>
    <tag k="created_by" v="JOSM"/>
    <tag k="highway" v="tertiary"/>
    <tag k="name" v="Spokojna"/>
    <tag k="source" v="UMP-PL, ./UMP-Szczecin/src/LOBEZ.ulice.txt"/>
  </way>
  <way id="23752150" version="1" timestamp="2008-04-13T12:56:01Z" uid="30632" user="antblant" changeset="130030">
    <nd ref="257354109"/>
    <nd ref="257353644"/>
    <tag k="created_by" v="JOSM"/>
    <tag k="highway" v="residential"/>
    <tag k="name" v="Murarska"/>
    <tag k="source" v="UMP-PL, ./UMP-Szczecin/src/LOBEZ.ulice.txt"/>
  </way>
  <way id="23752151" version="1" timestamp="2008-04-13T12:56:01Z" uid="30632" user="antblant" changeset="130030">
    <nd ref="257354313"/>
    <nd ref="257354351"/>
    <nd ref="257354352"/>
    <nd ref="257354382"/>
    <nd ref="257354383"/>
    <nd ref="257354380"/>
    <nd ref="257354381"/>
    <tag k="created_by" v="JOSM"/>
    <tag k="highway" v="residential"/>
    <tag k="source" v="UMP-PL, ./UMP-Szczecin/src/LOBEZ.ulice.txt"/>
  </way>
  <way id="23752152" version="1" timestamp="2008-04-13T12:56:01Z" uid="30632" user="antblant" changeset="130030">
    <nd ref="257353700"/>
    <nd ref="257354222"/>
    <nd ref="257354221"/>
    <nd ref="257354220"/>
    <nd ref="257353685"/>
    <tag k="created_by" v="JOSM"/>
    <tag k="highway" v="residential"/>
    <tag k="name" v="Nowe Osiedle"/>
    <tag k="source" v="UMP-PL, ./UMP-Szczecin/src/LOBEZ.ulice.txt"/>
  </way>
  <way id="23752153" version="1" timestamp="2008-04-13T12:56:02Z" uid="30632" user="antblant" changeset="130030">
    <nd ref="257353608"/>
    <nd ref="257353607"/>
    <nd ref="257353612"/>
    <tag k="created_by" v="JOSM"/>
    <tag k="highway" v="residential"/>
    <tag k="name" v="Ogrodowa"/>
    <tag k="source" v="UMP-PL, ./UMP-Szczecin/src/LOBEZ.ulice.txt"/>
  </way>
  <way id="23752154" version="1" timestamp="2008-04-13T12:56:02Z" uid="30632" user="antblant" changeset="130030">
    <nd ref="257354088"/>
    <nd ref="257354087"/>
    <nd ref="257353616"/>
    <nd ref="257354109"/>
    <tag k="created_by" v="JOSM"/>
    <tag k="highway" v="residential"/>
    <tag k="name" v="Budowlana"/>
    <tag k="source" v="UMP-PL, ./UMP-Szczecin/src/LOBEZ.ulice.txt"/>
  </way>
  <way id="23752155" version="1" timestamp="2008-04-13T12:56:03Z" uid="30632" user="antblant" changeset="130030">
    <nd ref="257354319"/>
    <nd ref="257354310"/>
    <nd ref="257354313"/>
    <nd ref="257354312"/>
    <nd ref="257354357"/>
    <nd ref="257354358"/>
    <nd ref="257354355"/>
    <nd ref="257354356"/>
    <nd ref="257354353"/>
    <nd ref="257354354"/>
    <tag k="created_by" v="JOSM"/>
    <tag k="highway" v="residential"/>
    <tag k="source" v="UMP-PL, ./UMP-Szczecin/src/LOBEZ.ulice.txt"/>
  </way>
  <way id="23752156" version="1" timestamp="2008-04-13T12:56:03Z" uid="30632" user="antblant" changeset="130030">
    <nd ref="257354140"/>
    <nd ref="257354225"/>
    <nd ref="257354224"/>
    <nd ref="257354223"/>
    <tag k="created_by" v="JOSM"/>
    <tag k="highway" v="residential"/>
    <tag k="name" v="Borków"/>
    <tag k="source" v="UMP-PL, ./UMP-Szczecin/src/LOBEZ.ulice.txt"/>
  </way>
  <way id="23752157" version="1" timestamp="2008-04-13T12:56:04Z" uid="30632" user="antblant" changeset="130030">
    <nd ref="257353604"/>
    <nd ref="257353608"/>
    <nd ref="257353609"/>
    <nd ref="257353606"/>
    <tag k="created_by" v="JOSM"/>
    <tag k="highway" v="residential"/>
    <tag k="name" v="Tadeusza Kościuszki"/>
    <tag k="source" v="UMP-PL, ./UMP-Szczecin/src/LOBEZ.ulice.txt"/>
  </way>
  <way id="23752158" version="1" timestamp="2008-04-13T12:56:04Z" uid="30632" user="antblant" changeset="130030">
    <nd ref="257353617"/>
    <nd ref="257353709"/>
    <nd ref="257354083"/>
    <nd ref="257354086"/>
    <nd ref="257354085"/>
    <nd ref="257353682"/>
    <tag k="created_by" v="JOSM"/>
    <tag k="highway" v="residential"/>
    <tag k="name" v="Ogrodowa"/>
    <tag k="source" v="UMP-PL, ./UMP-Szczecin/src/LOBEZ.ulice.txt"/>
  </way>
  <way id="23752159" version="1" timestamp="2008-04-13T12:56:04Z" uid="30632" user="antblant" changeset="130030">
    <nd ref="257354104"/>
    <nd ref="257354219"/>
    <nd ref="257354218"/>
    <tag k="created_by" v="JOSM"/>
    <tag k="highway" v="residential"/>
    <tag k="name" v="Polna"/>
    <tag k="source" v="UMP-PL, ./UMP-Szczecin/src/LOBEZ.ulice.txt"/>
  </way>
  <way id="23752160" version="1" timestamp="2008-04-13T12:56:05Z" uid="30632" user="antblant" changeset="130030">
    <nd ref="257353625"/>
    <nd ref="257354348"/>
    <nd ref="257354345"/>
    <nd ref="257354344"/>
    <nd ref="257354343"/>
    <nd ref="257354314"/>
    <nd ref="257354342"/>
    <nd ref="257354341"/>
    <nd ref="257354340"/>
    <nd ref="257353629"/>
    <tag k="created_by" v="JOSM"/>
    <tag k="highway" v="residential"/>
    <tag k="name" v="Ignacego Krasickiego"/>
    <tag k="source" v="UMP-PL, ./UMP-Szczecin/src/LOBEZ.ulice.txt"/>
  </way>
  <way id="23752161" version="1" timestamp="2008-04-13T12:56:05Z" uid="30632" user="antblant" changeset="130030">
    <nd ref="257353610"/>
    <nd ref="257353609"/>
    <tag k="created_by" v="JOSM"/>
    <tag k="highway" v="residential"/>
    <tag k="name" v="Komuny Paryskiej"/>
    <tag k="source" v="UMP-PL, ./UMP-Szczecin/src/LOBEZ.ulice.txt"/>
  </way>
  <way id="23752162" version="1" timestamp="2008-04-13T12:56:05Z" uid="30632" user="antblant" changeset="130030">
    <nd ref="257353699"/>
    <nd ref="257354095"/>
    <nd ref="257354082"/>
    <nd ref="257354070"/>
    <nd ref="257354084"/>
    <nd ref="257354096"/>
    <tag k="created_by" v="JOSM"/>
    <tag k="highway" v="residential"/>
    <tag k="name" v="Północna"/>
    <tag k="source" v="UMP-PL, ./UMP-Szczecin/src/LOBEZ.ulice.txt"/>
  </way>
  <way id="23752163" version="1" timestamp="2008-04-13T12:56:06Z" uid="30632" user="antblant" changeset="130030">
    <nd ref="257353701"/>
    <nd ref="257354221"/>
    <tag k="created_by" v="JOSM"/>
    <tag k="highway" v="residential"/>
    <tag k="source" v="UMP-PL, ./UMP-Szczecin/src/LOBEZ.ulice.txt"/>
  </way>
  <way id="23752164" version="1" timestamp="2008-04-13T12:56:06Z" uid="30632" user="antblant" changeset="130030">
    <nd ref="257354372"/>
    <nd ref="257354379"/>
    <nd ref="257354359"/>
    <nd ref="257354360"/>
    <nd ref="257354316"/>
    <tag k="created_by" v="JOSM"/>
    <tag k="highway" v="residential"/>
    <tag k="name" v="Wojcelska"/>
    <tag k="source" v="UMP-PL, ./UMP-Szczecin/src/LOBEZ.ulice.txt"/>
  </way>
  <way id="23752165" version="1" timestamp="2008-04-13T12:56:07Z" uid="30632" user="antblant" changeset="130030">
    <nd ref="257353606"/>
    <nd ref="257353613"/>
    <tag k="created_by" v="JOSM"/>
    <tag k="highway" v="secondary"/>
    <tag k="name" v="Krótka"/>
    <tag k="source" v="UMP-PL, ./UMP-Szczecin/src/LOBEZ.ulice.txt"/>
  </way>
  <way id="23752165" version="2" timestamp="2011-01-04T20:21:29Z" uid="30632" user="antblant" changeset="6865244">
    <nd ref="257353606"/>
    <nd ref="257353613"/>
    <tag k="highway" v="residential"/>
    <tag k="name" v="Krótka"/>
    <tag k="source" v="UMP-PL, ./UMP-Szczecin/src/LOBEZ.ulice.txt"/>
  </way>
  <way id="23752234" version="8" timestamp="2009-09-22T19:03:15Z" uid="9581" user="Lobelt" changeset="2575489">
    <nd ref="434291982"/>
    <nd ref="434291978"/>
    <nd ref="434291979"/>
    <nd ref="434291975"/>
    <nd ref="434291974"/>
    <nd ref="434291971"/>
    <nd ref="434291972"/>
    <nd ref="434291973"/>
    <nd ref="29333429"/>
    <nd ref="29333428"/>
    <nd ref="29333426"/>
    <nd ref="135155038"/>
    <nd ref="29333424"/>
    <nd ref="29333422"/>
    <nd ref="29333419"/>
    <nd ref="29333414"/>
    <nd ref="29333413"/>
    <nd ref="29333443"/>
    <nd ref="29333442"/>
    <nd ref="29333441"/>
    <nd ref="29333440"/>
    <nd ref="29333439"/>
    <nd ref="29333438"/>
    <nd ref="29333437"/>
    <nd ref="29333436"/>
    <nd ref="29333435"/>
    <nd ref="257355652"/>
    <nd ref="257355653"/>
    <nd ref="257355654"/>
    <nd ref="257355655"/>
    <nd ref="257355656"/>
    <nd ref="257355657"/>
    <nd ref="257355658"/>
    <nd ref="257355659"/>
    <nd ref="257355660"/>
    <nd ref="257355661"/>
    <nd ref="257355662"/>
    <nd ref="257355663"/>
    <nd ref="257355664"/>
    <nd ref="257355665"/>
    <nd ref="257355666"/>
    <nd ref="257355667"/>
    <nd ref="257355668"/>
    <nd ref="257355669"/>
    <nd ref="257355629"/>
    <nd ref="257355630"/>
    <nd ref="257355631"/>
    <nd ref="257355632"/>
    <nd ref="257355633"/>
    <nd ref="257355634"/>
    <nd ref="257355635"/>
    <nd ref="257355636"/>
    <nd ref="257355637"/>
    <nd ref="505782579"/>
    <nd ref="257355638"/>
    <nd ref="505782588"/>
    <nd ref="505782591"/>
    <nd ref="257355639"/>
    <nd ref="505782595"/>
    <nd ref="257355640"/>
    <nd ref="505782602"/>
    <nd ref="257355641"/>
    <nd ref="505782605"/>
    <nd ref="257355642"/>
    <nd ref="505782607"/>
    <nd ref="257355643"/>
    <nd ref="257355644"/>
    <nd ref="505782614"/>
    <nd ref="257355645"/>
    <nd ref="257355646"/>
    <nd ref="257355647"/>
    <nd ref="257355648"/>
    <nd ref="257355649"/>
    <nd ref="257355650"/>
    <nd ref="257355651"/>
    <nd ref="29333434"/>
    <nd ref="29333433"/>
    <nd ref="266178768"/>
    <nd ref="29333432"/>
    <nd ref="29333431"/>
    <nd ref="29333430"/>
    <nd ref="434291982"/>
    <tag k="landuse" v="forest"/>
    <tag k="name" v="Stadtwald"/>
    <tag k="source" v="landsat"/>
  </way>
  <way id="23752234" version="9" timestamp="2009-09-23T13:32:05Z" uid="9581" user="Lobelt" changeset="2595487">
    <nd ref="434291982"/>
    <nd ref="434291978"/>
    <nd ref="434291979"/>
    <nd ref="434291975"/>
    <nd ref="434291974"/>
    <nd ref="434291971"/>
    <nd ref="434291972"/>
    <nd ref="434291973"/>
    <nd ref="506209944"/>
    <nd ref="506210040"/>
    <nd ref="29333429"/>
    <nd ref="506210038"/>
    <nd ref="506210037"/>
    <nd ref="29333428"/>
    <nd ref="29333426"/>
    <nd ref="135155038"/>
    <nd ref="29333424"/>
    <nd ref="29333422"/>
    <nd ref="29333419"/>
    <nd ref="29333414"/>
    <nd ref="29333413"/>
    <nd ref="29333443"/>
    <nd ref="29333442"/>
    <nd ref="29333441"/>
    <nd ref="29333440"/>
    <nd ref="29333439"/>
    <nd ref="29333438"/>
    <nd ref="29333437"/>
    <nd ref="29333436"/>
    <nd ref="29333435"/>
    <nd ref="257355652"/>
    <nd ref="257355653"/>
    <nd ref="257355654"/>
    <nd ref="257355655"/>
    <nd ref="257355656"/>
    <nd ref="257355657"/>
    <nd ref="257355658"/>
    <nd ref="257355659"/>
    <nd ref="257355660"/>
    <nd ref="257355661"/>
    <nd ref="257355662"/>
    <nd ref="257355663"/>
    <nd ref="257355664"/>
    <nd ref="257355665"/>
    <nd ref="257355666"/>
    <nd ref="257355667"/>
    <nd ref="257355668"/>
    <nd ref="257355669"/>
    <nd ref="257355629"/>
    <nd ref="257355630"/>
    <nd ref="257355631"/>
    <nd ref="257355632"/>
    <nd ref="257355633"/>
    <nd ref="257355634"/>
    <nd ref="257355635"/>
    <nd ref="257355636"/>
    <nd ref="257355637"/>
    <nd ref="505782579"/>
    <nd ref="257355638"/>
    <nd ref="505782588"/>
    <nd ref="505782591"/>
    <nd ref="257355639"/>
    <nd ref="505782595"/>
    <nd ref="257355640"/>
    <nd ref="505782602"/>
    <nd ref="257355641"/>
    <nd ref="505782605"/>
    <nd ref="257355642"/>
    <nd ref="505782607"/>
    <nd ref="257355643"/>
    <nd ref="257355644"/>
    <nd ref="505782614"/>
    <nd ref="257355645"/>
    <nd ref="257355646"/>
    <nd ref="257355647"/>
    <nd ref="257355648"/>
    <nd ref="257355649"/>
    <nd ref="257355650"/>
    <nd ref="257355651"/>
    <nd ref="29333434"/>
    <nd ref="29333433"/>
    <nd ref="266178768"/>
    <nd ref="29333432"/>
    <nd ref="29333431"/>
    <nd ref="29333430"/>
    <nd ref="434291982"/>
    <tag k="landuse" v="forest"/>
    <tag k="name" v="Stadtwald"/>
    <tag k="source" v="landsat"/>
  </way>
  <way id="23752242" version="1" timestamp="2008-04-13T13:03:55Z" uid="30632" user="antblant" changeset="130030">
    <nd ref="257355800"/>
    <nd ref="257355801"/>
    <tag k="created_by" v="JOSM"/>
    <tag k="highway" v="residential"/>
    <tag k="name" v="Uzdrowiskowa"/>
    <tag k="source" v="UMP-PL, ./UMP-Szczecin/src/TRZCINSKO-ZDROJ.ulice.txt"/>
  </way>
  <way id="23752243" version="1" timestamp="2008-04-13T13:03:55Z" uid="30632" user="antblant" changeset="130030">
    <nd ref="257355872"/>
    <nd ref="257355869"/>
    <nd ref="257355882"/>
    <nd ref="257355881"/>
    <nd ref="257355884"/>
    <nd ref="257355883"/>
    <nd ref="257355878"/>
    <tag k="created_by" v="JOSM"/>
    <tag k="highway" v="residential"/>
    <tag k="name" v="Aleja Róż"/>
    <tag k="source" v="UMP-PL, ./UMP-Szczecin/src/TRZCINSKO-ZDROJ.ulice.txt"/>
  </way>
  <way id="23752244" version="1" timestamp="2008-04-13T13:03:55Z" uid="30632" user="antblant" changeset="130030">
    <nd ref="257355760"/>
    <nd ref="257355761"/>
    <nd ref="257355762"/>
    <nd ref="257355763"/>
    <tag k="created_by" v="JOSM"/>
    <tag k="highway" v="tertiary"/>
    <tag k="source" v="UMP-PL, ./UMP-Szczecin/src/TRZCINSKO-ZDROJ.ulice.txt"/>
  </way>
  <way id="23752245" version="1" timestamp="2008-04-13T13:03:56Z" uid="30632" user="antblant" changeset="130030">
    <nd ref="257355798"/>
    <nd ref="257355799"/>
    <tag k="created_by" v="JOSM"/>
    <tag k="highway" v="residential"/>
    <tag k="name" v="Słoneczna"/>
    <tag k="source" v="UMP-PL, ./UMP-Szczecin/src/TRZCINSKO-ZDROJ.ulice.txt"/>
  </way>
  <way id="23752246" version="1" timestamp="2008-04-13T13:03:56Z" uid="30632" user="antblant" changeset="130030">
    <nd ref="257355868"/>
    <nd ref="257355862"/>
    <nd ref="257355768"/>
    <tag k="created_by" v="JOSM"/>
    <tag k="highway" v="tertiary"/>
    <tag k="name" v="Chojnicka"/>
    <tag k="source" v="UMP-PL, ./UMP-Szczecin/src/TRZCINSKO-ZDROJ.ulice.txt"/>
  </way>
  <way id="23752247" version="1" timestamp="2008-04-13T13:03:57Z" uid="30632" user="antblant" changeset="130030">
    <nd ref="257355764"/>
    <nd ref="257355765"/>
    <nd ref="257355766"/>
    <nd ref="257355767"/>
    <nd ref="257355768"/>
    <tag k="created_by" v="JOSM"/>
    <tag k="highway" v="primary"/>
    <tag k="name" v="Chojnicka"/>
    <tag k="ref" v="26"/>
    <tag k="source" v="UMP-PL, ./UMP-Szczecin/src/TRZCINSKO-ZDROJ.ulice.txt"/>
  </way>
  <way id="23752248" version="1" timestamp="2008-04-13T13:03:57Z" uid="30632" user="antblant" changeset="130030">
    <nd ref="257355804"/>
    <nd ref="257355805"/>
    <tag k="created_by" v="JOSM"/>
    <tag k="highway" v="residential"/>
    <tag k="name" v="Jeziorna"/>
    <tag k="source" v="UMP-PL, ./UMP-Szczecin/src/TRZCINSKO-ZDROJ.ulice.txt"/>
  </way>
  <way id="23752249" version="1" timestamp="2008-04-13T13:03:57Z" uid="30632" user="antblant" changeset="130030">
    <nd ref="257355870"/>
    <nd ref="257355871"/>
    <tag k="created_by" v="JOSM"/>
    <tag k="highway" v="residential"/>
    <tag k="name" v="Murarska"/>
    <tag k="source" v="UMP-PL, ./UMP-Szczecin/src/TRZCINSKO-ZDROJ.ulice.txt"/>
  </way>
  <way id="23752250" version="1" timestamp="2008-04-13T13:03:57Z" uid="30632" user="antblant" changeset="130030">
    <nd ref="257355885"/>
    <nd ref="257355773"/>
    <tag k="created_by" v="JOSM"/>
    <tag k="highway" v="residential"/>
    <tag k="source" v="UMP-PL, ./UMP-Szczecin/src/TRZCINSKO-ZDROJ.ulice.txt"/>
  </way>
  <way id="23752251" version="1" timestamp="2008-04-13T13:03:58Z" uid="30632" user="antblant" changeset="130030">
    <nd ref="257355768"/>
    <nd ref="257355769"/>
    <nd ref="257355770"/>
    <nd ref="257355771"/>
    <nd ref="257355772"/>
    <nd ref="257355773"/>
    <nd ref="257355774"/>
    <tag k="created_by" v="JOSM"/>
    <tag k="highway" v="primary"/>
    <tag k="name" v="Aleja Wolności"/>
    <tag k="ref" v="26"/>
    <tag k="source" v="UMP-PL, ./UMP-Szczecin/src/TRZCINSKO-ZDROJ.ulice.txt"/>
  </way>
  <way id="23752252" version="1" timestamp="2008-04-13T13:03:58Z" uid="30632" user="antblant" changeset="130030">
    <nd ref="257355801"/>
    <nd ref="257355802"/>
    <nd ref="257355803"/>
    <nd ref="257355796"/>
    <nd ref="257355808"/>
    <nd ref="257355809"/>
    <nd ref="257355806"/>
    <tag k="created_by" v="JOSM"/>
    <tag k="highway" v="unclassified"/>
    <tag k="source" v="UMP-PL, ./UMP-Szczecin/src/TRZCINSKO-ZDROJ.ulice.txt"/>
    <tag k="surface" v="unpaved"/>
  </way>
  <way id="23752253" version="1" timestamp="2008-04-13T13:03:58Z" uid="30632" user="antblant" changeset="130030">
    <nd ref="257355865"/>
    <nd ref="257355792"/>
    <nd ref="257355876"/>
    <nd ref="257355869"/>
    <tag k="created_by" v="JOSM"/>
    <tag k="highway" v="residential"/>
    <tag k="name" v="Wodna"/>
    <tag k="source" v="UMP-PL, ./UMP-Szczecin/src/TRZCINSKO-ZDROJ.ulice.txt"/>
  </way>
  <way id="23752254" version="1" timestamp="2008-04-13T13:03:59Z" uid="30632" user="antblant" changeset="130030">
    <nd ref="257355886"/>
    <nd ref="257355877"/>
    <tag k="created_by" v="JOSM"/>
    <tag k="highway" v="residential"/>
    <tag k="source" v="UMP-PL, ./UMP-Szczecin/src/TRZCINSKO-ZDROJ.ulice.txt"/>
  </way>
  <way id="23752255" version="1" timestamp="2008-04-13T13:03:59Z" uid="30632" user="antblant" changeset="130030">
    <nd ref="257355774"/>
    <nd ref="257355775"/>
    <tag k="created_by" v="JOSM"/>
    <tag k="highway" v="residential"/>
    <tag k="name" v="Ceglana"/>
    <tag k="source" v="UMP-PL, ./UMP-Szczecin/src/TRZCINSKO-ZDROJ.ulice.txt"/>
  </way>
  <way id="23752255" version="2" timestamp="2011-04-11T20:55:02Z" uid="23543" user="jkjk" changeset="7837485">
    <nd ref="257355774"/>
    <nd ref="1241295469"/>
    <nd ref="257355775"/>
    <tag k="highway" v="residential"/>
    <tag k="name" v="Ceglana"/>
    <tag k="source" v="UMP-PL, ./UMP-Szczecin/src/TRZCINSKO-ZDROJ.ulice.txt"/>
  </way>
  <way id="23752256" version="1" timestamp="2008-04-13T13:03:59Z" uid="30632" user="antblant" changeset="130030">
    <nd ref="257355807"/>
    <nd ref="257355812"/>
    <nd ref="257355813"/>
    <nd ref="257355794"/>
    <nd ref="257355800"/>
    <nd ref="257355805"/>
    <nd ref="257355798"/>
    <nd ref="257355810"/>
    <nd ref="257355811"/>
    <nd ref="257355818"/>
    <nd ref="257355817"/>
    <nd ref="257355815"/>
    <tag k="created_by" v="JOSM"/>
    <tag k="highway" v="tertiary"/>
    <tag k="name" v="Cmentarna"/>
    <tag k="source" v="UMP-PL, ./UMP-Szczecin/src/TRZCINSKO-ZDROJ.ulice.txt"/>
  </way>
  <way id="23752257" version="1" timestamp="2008-04-13T13:04:00Z" uid="30632" user="antblant" changeset="130030">
    <nd ref="257355851"/>
    <nd ref="257355785"/>
    <tag k="created_by" v="JOSM"/>
    <tag k="highway" v="residential"/>
    <tag k="name" v="Kościelna"/>
    <tag k="source" v="UMP-PL, ./UMP-Szczecin/src/TRZCINSKO-ZDROJ.ulice.txt"/>
  </way>
  <way id="23752258" version="1" timestamp="2008-04-13T13:04:00Z" uid="30632" user="antblant" changeset="130030">
    <nd ref="257355815"/>
    <nd ref="257355889"/>
    <nd ref="257355887"/>
    <tag k="created_by" v="JOSM"/>
    <tag k="highway" v="residential"/>
    <tag k="name" v="Młyńska"/>
    <tag k="source" v="UMP-PL, ./UMP-Szczecin/src/TRZCINSKO-ZDROJ.ulice.txt"/>
  </way>
  <way id="23752259" version="1" timestamp="2008-04-13T13:04:00Z" uid="30632" user="antblant" changeset="130030">
    <nd ref="257355774"/>
    <nd ref="257355778"/>
    <nd ref="257355760"/>
    <nd ref="257355777"/>
    <tag k="created_by" v="JOSM"/>
    <tag k="highway" v="primary"/>
    <tag k="name" v="Dworcowa"/>
    <tag k="ref" v="26"/>
    <tag k="source" v="UMP-PL, ./UMP-Szczecin/src/TRZCINSKO-ZDROJ.ulice.txt"/>
  </way>
  <way id="23752260" version="1" timestamp="2008-04-13T13:04:01Z" uid="30632" user="antblant" changeset="130030">
    <nd ref="257355768"/>
    <nd ref="257355814"/>
    <nd ref="257355822"/>
    <nd ref="257355821"/>
    <nd ref="257355820"/>
    <nd ref="257355819"/>
    <nd ref="257355815"/>
    <tag k="created_by" v="JOSM"/>
    <tag k="highway" v="residential"/>
    <tag k="name" v="Aleja Wolności"/>
    <tag k="source" v="UMP-PL, ./UMP-Szczecin/src/TRZCINSKO-ZDROJ.ulice.txt"/>
  </way>
  <way id="23752261" version="1" timestamp="2008-04-13T13:04:01Z" uid="30632" user="antblant" changeset="130030">
    <nd ref="257355861"/>
    <nd ref="257355851"/>
    <tag k="created_by" v="JOSM"/>
    <tag k="highway" v="residential"/>
    <tag k="name" v="Krótka"/>
    <tag k="source" v="UMP-PL, ./UMP-Szczecin/src/TRZCINSKO-ZDROJ.ulice.txt"/>
  </way>
  <way id="23752262" version="1" timestamp="2008-04-13T13:04:02Z" uid="30632" user="antblant" changeset="130030">
    <nd ref="257355868"/>
    <nd ref="257355898"/>
    <nd ref="257355875"/>
    <nd ref="257355870"/>
    <nd ref="257355896"/>
    <nd ref="257355886"/>
    <nd ref="257355885"/>
    <nd ref="257355774"/>
    <nd ref="257355877"/>
    <tag k="created_by" v="JOSM"/>
    <tag k="highway" v="residential"/>
    <tag k="name" v="9 Maja"/>
    <tag k="source" v="UMP-PL, ./UMP-Szczecin/src/TRZCINSKO-ZDROJ.ulice.txt"/>
  </way>
  <way id="23752263" version="1" timestamp="2008-04-13T13:04:02Z" uid="30632" user="antblant" changeset="130030">
    <nd ref="257355761"/>
    <nd ref="257355780"/>
    <nd ref="257355779"/>
    <nd ref="257355782"/>
    <tag k="created_by" v="JOSM"/>
    <tag k="highway" v="residential"/>
    <tag k="name" v="Polna"/>
    <tag k="source" v="UMP-PL, ./UMP-Szczecin/src/TRZCINSKO-ZDROJ.ulice.txt"/>
  </way>
  <way id="23752264" version="1" timestamp="2008-04-13T13:04:02Z" uid="30632" user="antblant" changeset="130030">
    <nd ref="257355818"/>
    <nd ref="257355839"/>
    <nd ref="257355837"/>
    <nd ref="257355832"/>
    <nd ref="257355825"/>
    <tag k="created_by" v="JOSM"/>
    <tag k="highway" v="residential"/>
    <tag k="source" v="UMP-PL, ./UMP-Szczecin/src/TRZCINSKO-ZDROJ.ulice.txt"/>
  </way>
  <way id="23752265" version="1" timestamp="2008-04-13T13:04:03Z" uid="30632" user="antblant" changeset="130030">
    <nd ref="257355819"/>
    <nd ref="257355861"/>
    <nd ref="257355862"/>
    <nd ref="257355863"/>
    <nd ref="257355864"/>
    <nd ref="257355873"/>
    <nd ref="257355874"/>
    <nd ref="257355875"/>
    <tag k="created_by" v="JOSM"/>
    <tag k="highway" v="residential"/>
    <tag k="name" v="Henryka Sienkiewicza"/>
    <tag k="source" v="UMP-PL, ./UMP-Szczecin/src/TRZCINSKO-ZDROJ.ulice.txt"/>
  </way>
  <way id="23752266" version="1" timestamp="2008-04-13T13:04:03Z" uid="30632" user="antblant" changeset="130030">
    <nd ref="257355867"/>
    <nd ref="257355891"/>
    <nd ref="257355795"/>
    <nd ref="257355866"/>
    <tag k="created_by" v="JOSM"/>
    <tag k="highway" v="residential"/>
    <tag k="name" v="Rynek"/>
    <tag k="source" v="UMP-PL, ./UMP-Szczecin/src/TRZCINSKO-ZDROJ.ulice.txt"/>
  </way>
  <way id="23752268" version="1" timestamp="2008-04-13T13:04:03Z" uid="30632" user="antblant" changeset="130030">
    <nd ref="257355781"/>
    <nd ref="257355784"/>
    <nd ref="257355783"/>
    <nd ref="257355791"/>
    <nd ref="257355785"/>
    <nd ref="257355793"/>
    <nd ref="257355792"/>
    <nd ref="257355795"/>
    <tag k="created_by" v="JOSM"/>
    <tag k="highway" v="residential"/>
    <tag k="name" v="2 Lutego"/>
    <tag k="source" v="UMP-PL, ./UMP-Szczecin/src/TRZCINSKO-ZDROJ.ulice.txt"/>
  </way>
  <way id="23752269" version="1" timestamp="2008-04-13T13:04:04Z" uid="30632" user="antblant" changeset="130030">
    <nd ref="257355811"/>
    <nd ref="257355855"/>
    <nd ref="257355854"/>
    <nd ref="257355853"/>
    <tag k="created_by" v="JOSM"/>
    <tag k="highway" v="residential"/>
    <tag k="name" v="Adama Mickiewicza"/>
    <tag k="source" v="UMP-PL, ./UMP-Szczecin/src/TRZCINSKO-ZDROJ.ulice.txt"/>
  </way>
  <way id="23752270" version="1" timestamp="2008-04-13T13:04:04Z" uid="30632" user="antblant" changeset="130030">
    <nd ref="257355815"/>
    <nd ref="257355781"/>
    <nd ref="257355851"/>
    <nd ref="257355865"/>
    <nd ref="257355866"/>
    <nd ref="257355867"/>
    <nd ref="257355868"/>
    <tag k="created_by" v="JOSM"/>
    <tag k="highway" v="tertiary"/>
    <tag k="name" v="Tadeusza Kościuszki"/>
    <tag k="source" v="UMP-PL, ./UMP-Szczecin/src/TRZCINSKO-ZDROJ.ulice.txt"/>
  </way>
  <way id="23752271" version="1" timestamp="2008-04-13T13:04:04Z" uid="30632" user="antblant" changeset="130030">
    <nd ref="257355794"/>
    <nd ref="257355797"/>
    <nd ref="257355796"/>
    <tag k="created_by" v="JOSM"/>
    <tag k="highway" v="residential"/>
    <tag k="name" v="Okólna"/>
    <tag k="source" v="UMP-PL, ./UMP-Szczecin/src/TRZCINSKO-ZDROJ.ulice.txt"/>
  </way>
  <way id="23752272" version="1" timestamp="2008-04-13T13:04:05Z" uid="30632" user="antblant" changeset="130030">
    <nd ref="257355877"/>
    <nd ref="257355880"/>
    <nd ref="257355879"/>
    <nd ref="257355893"/>
    <nd ref="257355891"/>
    <tag k="created_by" v="JOSM"/>
    <tag k="highway" v="residential"/>
    <tag k="name" v="Sojuszników"/>
    <tag k="source" v="UMP-PL, ./UMP-Szczecin/src/TRZCINSKO-ZDROJ.ulice.txt"/>
  </way>
  <way id="23752284" version="10" timestamp="2010-03-16T21:58:51Z" uid="163746" user="anti_bot-nonsense" changeset="4147354">
    <nd ref="162642831"/>
    <nd ref="392248019"/>
    <nd ref="392248488"/>
    <nd ref="257356014"/>
    <nd ref="392250155"/>
    <nd ref="257356015"/>
    <nd ref="392248383"/>
    <nd ref="257356016"/>
    <nd ref="392248340"/>
    <nd ref="257356017"/>
    <tag k="highway" v="tertiary"/>
    <tag k="name" v="Generała Stanisława Maczka"/>
  </way>
  <way id="23752285" version="7" timestamp="2010-03-16T22:32:54Z" uid="163746" user="anti_bot-nonsense" changeset="4147654">
    <nd ref="255851193"/>
    <nd ref="392248934"/>
    <nd ref="392248837"/>
    <nd ref="257356017"/>
    <tag k="highway" v="tertiary"/>
    <tag k="name" v="Piątkowska"/>
  </way>
  <way id="23752286" version="7" timestamp="2009-08-02T04:12:42Z" uid="20587" user="balrog-kun" changeset="2009571">
    <nd ref="257356018"/>
    <nd ref="257935396"/>
    <nd ref="257356021"/>
    <nd ref="257935454"/>
    <nd ref="257356022"/>
    <nd ref="257356023"/>
    <nd ref="314888883"/>
    <nd ref="257356053"/>
    <nd ref="257356024"/>
    <nd ref="314888884"/>
    <nd ref="314888885"/>
    <nd ref="314888886"/>
    <nd ref="314888887"/>
    <nd ref="257356025"/>
    <nd ref="258615449"/>
    <nd ref="258615447"/>
    <nd ref="257356026"/>
    <tag k="highway" v="tertiary"/>
    <tag k="name" v="Literacka"/>
  </way>
  <way id="23752287" version="6" timestamp="2009-08-07T21:58:14Z" uid="20587" user="balrog-kun" changeset="2070641">
    <nd ref="258038447"/>
    <nd ref="314888864"/>
    <nd ref="314888865"/>
    <nd ref="258038446"/>
    <nd ref="258038440"/>
    <nd ref="258615448"/>
    <nd ref="258615441"/>
    <nd ref="258038436"/>
    <nd ref="258038435"/>
    <nd ref="314888861"/>
    <nd ref="258038434"/>
    <nd ref="258038433"/>
    <nd ref="258038432"/>
    <nd ref="314888874"/>
    <nd ref="257356022"/>
    <tag k="highway" v="residential"/>
    <tag k="name" v="Melchiora Wańkowicza"/>
  </way>
  <way id="23752288" version="4" timestamp="2010-03-16T22:47:59Z" uid="163746" user="anti_bot-nonsense" changeset="4147795">
    <nd ref="257356040"/>
    <nd ref="257935420"/>
    <nd ref="257935421"/>
    <nd ref="257935422"/>
    <nd ref="257356045"/>
    <nd ref="257935439"/>
    <nd ref="257356046"/>
    <nd ref="257935426"/>
    <nd ref="257356047"/>
    <nd ref="257935440"/>
    <nd ref="257356048"/>
    <nd ref="258615436"/>
    <nd ref="257935441"/>
    <nd ref="257935434"/>
    <nd ref="257356049"/>
    <nd ref="257935442"/>
    <nd ref="257356050"/>
    <nd ref="257356045"/>
    <tag k="highway" v="residential"/>
    <tag k="name" v="Wergiliusza"/>
  </way>
  <way id="23752289" version="3" timestamp="2010-03-16T22:48:01Z" uid="163746" user="anti_bot-nonsense" changeset="4147795">
    <nd ref="257356040"/>
    <nd ref="257935444"/>
    <nd ref="257356051"/>
    <nd ref="257935443"/>
    <nd ref="257356052"/>
    <nd ref="257935447"/>
    <nd ref="257356036"/>
    <tag k="highway" v="residential"/>
    <tag k="name" v="Wergiliusza"/>
  </way>
  <way id="23752290" version="2" timestamp="2009-08-07T21:58:13Z" uid="20587" user="balrog-kun" changeset="2070641">
    <nd ref="257356053"/>
    <nd ref="314888915"/>
    <nd ref="257356054"/>
    <nd ref="257356055"/>
    <nd ref="257356057"/>
    <nd ref="257356024"/>
    <tag k="highway" v="residential"/>
    <tag k="name" v="Witolda Gombrowicza"/>
  </way>
  <way id="23752291" version="2" timestamp="2009-08-07T21:58:14Z" uid="20587" user="balrog-kun" changeset="2070641">
    <nd ref="314889984"/>
    <nd ref="257356058"/>
    <nd ref="257356059"/>
    <nd ref="257356060"/>
    <nd ref="257356061"/>
    <nd ref="257356054"/>
    <tag k="highway" v="residential"/>
    <tag k="name" v="Witolda Gombrowicza"/>
  </way>
  <way id="23752292" version="2" timestamp="2010-03-16T22:47:09Z" uid="163746" user="anti_bot-nonsense" changeset="4147795">
    <nd ref="257356062"/>
    <nd ref="257356055"/>
    <tag k="highway" v="residential"/>
    <tag k="name" v="Witolda Gombrowicza"/>
  </way>
  <way id="23752293" version="12" timestamp="2010-03-26T01:08:04Z" uid="163746" user="anti_bot-nonsense" changeset="4234454">
    <nd ref="257356063"/>
    <nd ref="471944918"/>
    <tag k="highway" v="tertiary"/>
    <tag k="name" v="Chojnicka"/>
  </way>
  <way id="23752294" version="4" timestamp="2010-03-26T01:09:01Z" uid="163746" user="anti_bot-nonsense" changeset="4234454">
    <nd ref="257356069"/>
    <nd ref="257356070"/>
    <nd ref="257356071"/>
    <nd ref="471948037"/>
    <nd ref="471948021"/>
    <nd ref="257356073"/>
    <nd ref="257356074"/>
    <tag k="highway" v="residential"/>
    <tag k="name" v="Wilków Morskich"/>
  </way>
  <way id="23752295" version="7" timestamp="2010-03-26T01:11:47Z" uid="163746" user="anti_bot-nonsense" changeset="4234454">
    <nd ref="314889391"/>
    <nd ref="257350953"/>
    <nd ref="257350954"/>
    <nd ref="450583818"/>
    <nd ref="257350955"/>
    <nd ref="257436131"/>
    <nd ref="450583819"/>
    <nd ref="303224129"/>
    <nd ref="257350956"/>
    <nd ref="192811228"/>
    <tag k="highway" v="tertiary"/>
    <tag k="name" v="Psarskie"/>
  </way>
  <way id="23752296" version="7" timestamp="2010-03-16T22:32:54Z" uid="163746" user="anti_bot-nonsense" changeset="4147654">
    <nd ref="162666837"/>
    <nd ref="402311539"/>
    <nd ref="257356079"/>
    <nd ref="402325966"/>
    <nd ref="259806308"/>
    <nd ref="166689305"/>
    <tag k="highway" v="tertiary"/>
    <tag k="name" v="Wojska Polskiego"/>
    <tag k="oneway" v="true"/>
  </way>
  <way id="23752296" version="8" timestamp="2010-07-24T02:32:45Z" uid="20587" user="balrog-kun" changeset="5300444">
    <nd ref="162666837"/>
    <nd ref="402311539"/>
    <nd ref="257356079"/>
    <nd ref="402325966"/>
    <nd ref="259806308"/>
    <nd ref="166689305"/>
    <tag k="highway" v="tertiary"/>
    <tag k="maxweight" v="16"/>
    <tag k="name" v="Wojska Polskiego"/>
    <tag k="oneway" v="true"/>
  </way>
  <way id="23752336" version="1" timestamp="2008-04-13T13:09:25Z" uid="30632" user="antblant" changeset="130030">
    <nd ref="257356807"/>
    <nd ref="257356806"/>
    <nd ref="257356805"/>
    <nd ref="257356819"/>
    <nd ref="257356801"/>
    <tag k="created_by" v="JOSM"/>
    <tag k="highway" v="residential"/>
    <tag k="source" v="UMP-PL, ./UMP-Szczecin/src/POGORZELICA.ulice.txt"/>
  </way>
  <way id="23752336" version="2" timestamp="2009-11-03T13:46:30Z" uid="36809" user="pfoten_weg_!_" changeset="3023908">
    <nd ref="257356807"/>
    <nd ref="257356806"/>
    <nd ref="257356805"/>
    <nd ref="257356819"/>
    <nd ref="257356801"/>
    <tag k="highway" v="residential"/>
    <tag k="source" v="UMP-PL, ./UMP-Szczecin/src/POGORZELICA.ulice.txt"/>
  </way>
  <way id="23752337" version="1" timestamp="2008-04-13T13:09:26Z" uid="30632" user="antblant" changeset="130030">
    <nd ref="257356790"/>
    <nd ref="257356804"/>
    <tag k="created_by" v="JOSM"/>
    <tag k="highway" v="residential"/>
    <tag k="source" v="UMP-PL, ./UMP-Szczecin/src/POGORZELICA.ulice.txt"/>
  </way>
  <way id="23752337" version="2" timestamp="2009-11-03T13:46:54Z" uid="36809" user="pfoten_weg_!_" changeset="3023908">
    <nd ref="257356790"/>
    <nd ref="257356804"/>
    <tag k="highway" v="residential"/>
    <tag k="source" v="UMP-PL, ./UMP-Szczecin/src/POGORZELICA.ulice.txt"/>
  </way>
  <way id="23752338" version="1" timestamp="2008-04-13T13:09:26Z" uid="30632" user="antblant" changeset="130030">
    <nd ref="257356795"/>
    <nd ref="257356791"/>
    <nd ref="257356788"/>
    <nd ref="257356793"/>
    <tag k="created_by" v="JOSM"/>
    <tag k="highway" v="residential"/>
    <tag k="source" v="UMP-PL, ./UMP-Szczecin/src/POGORZELICA.ulice.txt"/>
  </way>
  <way id="23752338" version="2" timestamp="2009-11-03T13:46:53Z" uid="36809" user="pfoten_weg_!_" changeset="3023908">
    <nd ref="257356795"/>
    <nd ref="257356791"/>
    <nd ref="257356788"/>
    <nd ref="257356793"/>
    <tag k="highway" v="residential"/>
    <tag k="source" v="UMP-PL, ./UMP-Szczecin/src/POGORZELICA.ulice.txt"/>
  </way>
  <way id="23752339" version="1" timestamp="2008-04-13T13:09:26Z" uid="30632" user="antblant" changeset="130030">
    <nd ref="257356840"/>
    <nd ref="257356820"/>
    <tag k="created_by" v="JOSM"/>
    <tag k="highway" v="residential"/>
    <tag k="name" v="Ogrodowa"/>
    <tag k="source" v="UMP-PL, ./UMP-Szczecin/src/POGORZELICA.ulice.txt"/>
  </way>
  <way id="23752339" version="2" timestamp="2009-11-03T13:46:47Z" uid="36809" user="pfoten_weg_!_" changeset="3023908">
    <nd ref="257356840"/>
    <nd ref="257356820"/>
    <tag k="highway" v="residential"/>
    <tag k="name" v="Ogrodowa"/>
    <tag k="source" v="UMP-PL, ./UMP-Szczecin/src/POGORZELICA.ulice.txt"/>
  </way>
  <way id="23752340" version="1" timestamp="2008-04-13T13:09:27Z" uid="30632" user="antblant" changeset="130030">
    <nd ref="257356774"/>
    <nd ref="257356779"/>
    <tag k="created_by" v="JOSM"/>
    <tag k="highway" v="residential"/>
    <tag k="name" v="Stanisława Sołdka"/>
    <tag k="source" v="UMP-PL, ./UMP-Szczecin/src/POGORZELICA.ulice.txt"/>
  </way>
  <way id="23752340" version="2" timestamp="2009-11-03T13:46:56Z" uid="36809" user="pfoten_weg_!_" changeset="3023908">
    <nd ref="257356774"/>
    <nd ref="257356779"/>
    <tag k="highway" v="residential"/>
    <tag k="name" v="Stanisława Sołdka"/>
    <tag k="source" v="UMP-PL, ./UMP-Szczecin/src/POGORZELICA.ulice.txt"/>
  </way>
  <way id="23752341" version="1" timestamp="2008-04-13T13:09:27Z" uid="30632" user="antblant" changeset="130030">
    <nd ref="257356784"/>
    <nd ref="257356800"/>
    <nd ref="257356809"/>
    <nd ref="257356821"/>
    <nd ref="257356820"/>
    <nd ref="257356832"/>
    <nd ref="257356833"/>
    <nd ref="257356834"/>
    <nd ref="257356835"/>
    <nd ref="257356824"/>
    <nd ref="257356829"/>
    <nd ref="257356830"/>
    <nd ref="257356831"/>
    <nd ref="257356837"/>
    <tag k="created_by" v="JOSM"/>
    <tag k="highway" v="residential"/>
    <tag k="name" v="Leśna"/>
    <tag k="source" v="UMP-PL, ./UMP-Szczecin/src/POGORZELICA.ulice.txt"/>
  </way>
  <way id="23752341" version="2" timestamp="2009-11-03T13:46:32Z" uid="36809" user="pfoten_weg_!_" changeset="3023908">
    <nd ref="257356784"/>
    <nd ref="257356800"/>
    <nd ref="257356809"/>
    <nd ref="257356821"/>
    <nd ref="257356820"/>
    <nd ref="257356832"/>
    <nd ref="257356833"/>
    <nd ref="257356834"/>
    <nd ref="257356835"/>
    <nd ref="257356824"/>
    <nd ref="257356829"/>
    <nd ref="257356830"/>
    <nd ref="257356831"/>
    <nd ref="257356837"/>
    <tag k="highway" v="residential"/>
    <tag k="name" v="Leśna"/>
    <tag k="source" v="UMP-PL, ./UMP-Szczecin/src/POGORZELICA.ulice.txt"/>
  </way>
  <way id="23752342" version="1" timestamp="2008-04-13T13:09:27Z" uid="30632" user="antblant" changeset="130030">
    <nd ref="257356806"/>
    <nd ref="257356803"/>
    <tag k="created_by" v="JOSM"/>
    <tag k="highway" v="residential"/>
    <tag k="source" v="UMP-PL, ./UMP-Szczecin/src/POGORZELICA.ulice.txt"/>
  </way>
  <way id="23752342" version="2" timestamp="2009-11-03T13:46:48Z" uid="36809" user="pfoten_weg_!_" changeset="3023908">
    <nd ref="257356806"/>
    <nd ref="257356803"/>
    <tag k="highway" v="residential"/>
    <tag k="source" v="UMP-PL, ./UMP-Szczecin/src/POGORZELICA.ulice.txt"/>
  </way>
  <way id="23752343" version="1" timestamp="2008-04-13T13:09:28Z" uid="30632" user="antblant" changeset="130030">
    <nd ref="257356771"/>
    <nd ref="257356774"/>
    <tag k="created_by" v="JOSM"/>
    <tag k="highway" v="residential"/>
    <tag k="name" v="Leonida Teligi"/>
    <tag k="source" v="UMP-PL, ./UMP-Szczecin/src/POGORZELICA.ulice.txt"/>
  </way>
  <way id="23752343" version="2" timestamp="2009-11-03T13:33:18Z" uid="36809" user="pfoten_weg_!_" changeset="3023908">
    <nd ref="257356771"/>
    <nd ref="257356774"/>
    <tag k="highway" v="residential"/>
    <tag k="name" v="Leonida Teligi"/>
    <tag k="source" v="UMP-PL, ./UMP-Szczecin/src/POGORZELICA.ulice.txt"/>
  </way>
  <way id="23752344" version="1" timestamp="2008-04-13T13:09:28Z" uid="30632" user="antblant" changeset="130030">
    <nd ref="257356773"/>
    <nd ref="257356788"/>
    <nd ref="257356794"/>
    <tag k="created_by" v="JOSM"/>
    <tag k="highway" v="residential"/>
    <tag k="name" v="Bursztynowa"/>
    <tag k="source" v="UMP-PL, ./UMP-Szczecin/src/POGORZELICA.ulice.txt"/>
  </way>
  <way id="23752344" version="2" timestamp="2009-11-03T13:46:57Z" uid="36809" user="pfoten_weg_!_" changeset="3023908">
    <nd ref="257356773"/>
    <nd ref="257356788"/>
    <nd ref="257356794"/>
    <tag k="highway" v="residential"/>
    <tag k="name" v="Bursztynowa"/>
    <tag k="source" v="UMP-PL, ./UMP-Szczecin/src/POGORZELICA.ulice.txt"/>
  </way>
  <way id="23752345" version="1" timestamp="2008-04-13T13:09:28Z" uid="30632" user="antblant" changeset="130030">
    <nd ref="257356776"/>
    <nd ref="257356771"/>
    <tag k="created_by" v="JOSM"/>
    <tag k="highway" v="residential"/>
    <tag k="name" v="Plażowa"/>
    <tag k="source" v="UMP-PL, ./UMP-Szczecin/src/POGORZELICA.ulice.txt"/>
  </way>
  <way id="23752345" version="2" timestamp="2009-11-03T13:39:28Z" uid="36809" user="pfoten_weg_!_" changeset="3023908">
    <nd ref="257356776"/>
    <nd ref="257356771"/>
    <tag k="highway" v="residential"/>
    <tag k="name" v="Plażowa"/>
    <tag k="source" v="UMP-PL, ./UMP-Szczecin/src/POGORZELICA.ulice.txt"/>
  </way>
  <way id="23752347" version="1" timestamp="2008-04-13T13:09:29Z" uid="30632" user="antblant" changeset="130030">
    <nd ref="257356810"/>
    <nd ref="257356823"/>
    <tag k="created_by" v="JOSM"/>
    <tag k="highway" v="residential"/>
    <tag k="name" v="Wrzosowa"/>
    <tag k="source" v="UMP-PL, ./UMP-Szczecin/src/POGORZELICA.ulice.txt"/>
  </way>
  <way id="23752347" version="2" timestamp="2009-11-03T13:46:37Z" uid="36809" user="pfoten_weg_!_" changeset="3023908">
    <nd ref="257356810"/>
    <nd ref="257356823"/>
    <tag k="highway" v="residential"/>
    <tag k="name" v="Wrzosowa"/>
    <tag k="source" v="UMP-PL, ./UMP-Szczecin/src/POGORZELICA.ulice.txt"/>
  </way>
  <way id="23752348" version="1" timestamp="2008-04-13T13:09:29Z" uid="30632" user="antblant" changeset="130030">
    <nd ref="257356812"/>
    <nd ref="257356810"/>
    <tag k="created_by" v="JOSM"/>
    <tag k="highway" v="residential"/>
    <tag k="name" v="Sosnowa"/>
    <tag k="source" v="UMP-PL, ./UMP-Szczecin/src/POGORZELICA.ulice.txt"/>
  </way>
  <way id="23752348" version="2" timestamp="2009-11-03T13:47:00Z" uid="36809" user="pfoten_weg_!_" changeset="3023908">
    <nd ref="257356812"/>
    <nd ref="257356810"/>
    <tag k="highway" v="residential"/>
    <tag k="name" v="Sosnowa"/>
    <tag k="source" v="UMP-PL, ./UMP-Szczecin/src/POGORZELICA.ulice.txt"/>
  </way>
  <way id="23752349" version="1" timestamp="2008-04-13T13:09:30Z" uid="30632" user="antblant" changeset="130030">
    <nd ref="257356715"/>
    <nd ref="257356729"/>
    <nd ref="257356730"/>
    <nd ref="257356731"/>
    <nd ref="257356732"/>
    <nd ref="257356728"/>
    <nd ref="257356733"/>
    <nd ref="257356735"/>
    <nd ref="257356734"/>
    <nd ref="257356737"/>
    <nd ref="257356736"/>
    <nd ref="257356754"/>
    <nd ref="257356738"/>
    <nd ref="257356771"/>
    <nd ref="257356770"/>
    <nd ref="257356773"/>
    <nd ref="257356772"/>
    <tag k="created_by" v="JOSM"/>
    <tag k="highway" v="tertiary"/>
    <tag k="name" v="Wojska Polskiego"/>
    <tag k="source" v="UMP-PL, ./UMP-Szczecin/src/POGORZELICA.ulice.txt"/>
  </way>
  <way id="23752349" version="2" timestamp="2009-11-02T12:00:37Z" uid="30632" user="antblant" changeset="3015723">
    <nd ref="255759167"/>
    <nd ref="257356729"/>
    <nd ref="257356730"/>
    <nd ref="257356731"/>
    <nd ref="257356732"/>
    <nd ref="257356728"/>
    <nd ref="257356733"/>
    <nd ref="257356735"/>
    <nd ref="257356734"/>
    <nd ref="257356737"/>
    <nd ref="257356736"/>
    <nd ref="257356754"/>
    <nd ref="257356738"/>
    <nd ref="257356771"/>
    <nd ref="257356770"/>
    <nd ref="257356773"/>
    <nd ref="257356772"/>
    <tag k="highway" v="tertiary"/>
    <tag k="name" v="Wojska Polskiego"/>
    <tag k="source" v="UMP-PL, ./UMP-Szczecin/src/POGORZELICA.ulice.txt"/>
  </way>
  <way id="23752350" version="1" timestamp="2008-04-13T13:09:30Z" uid="30632" user="antblant" changeset="130030">
    <nd ref="257356789"/>
    <nd ref="257356803"/>
    <nd ref="257356801"/>
    <nd ref="257356800"/>
    <tag k="created_by" v="JOSM"/>
    <tag k="highway" v="residential"/>
    <tag k="name" v="Leśników"/>
    <tag k="source" v="UMP-PL, ./UMP-Szczecin/src/POGORZELICA.ulice.txt"/>
  </way>
  <way id="23752350" version="2" timestamp="2009-11-03T13:46:39Z" uid="36809" user="pfoten_weg_!_" changeset="3023908">
    <nd ref="257356789"/>
    <nd ref="257356803"/>
    <nd ref="257356801"/>
    <nd ref="257356800"/>
    <tag k="highway" v="residential"/>
    <tag k="name" v="Leśników"/>
    <tag k="source" v="UMP-PL, ./UMP-Szczecin/src/POGORZELICA.ulice.txt"/>
  </way>
  <way id="23752351" version="1" timestamp="2008-04-13T13:09:30Z" uid="30632" user="antblant" changeset="130030">
    <nd ref="257356797"/>
    <nd ref="257356789"/>
    <tag k="created_by" v="JOSM"/>
    <tag k="highway" v="residential"/>
    <tag k="name" v="Morska"/>
    <tag k="source" v="UMP-PL, ./UMP-Szczecin/src/POGORZELICA.ulice.txt"/>
  </way>
  <way id="23752351" version="2" timestamp="2009-11-03T13:46:59Z" uid="36809" user="pfoten_weg_!_" changeset="3023908">
    <nd ref="257356797"/>
    <nd ref="257356789"/>
    <tag k="highway" v="residential"/>
    <tag k="name" v="Morska"/>
    <tag k="source" v="UMP-PL, ./UMP-Szczecin/src/POGORZELICA.ulice.txt"/>
  </way>
  <way id="23752352" version="1" timestamp="2008-04-13T13:09:31Z" uid="30632" user="antblant" changeset="130030">
    <nd ref="257356785"/>
    <nd ref="257356838"/>
    <nd ref="257356839"/>
    <nd ref="257356840"/>
    <nd ref="257356836"/>
    <tag k="created_by" v="JOSM"/>
    <tag k="highway" v="residential"/>
    <tag k="source" v="UMP-PL, ./UMP-Szczecin/src/POGORZELICA.ulice.txt"/>
  </way>
  <way id="23752352" version="2" timestamp="2009-11-03T13:46:49Z" uid="36809" user="pfoten_weg_!_" changeset="3023908">
    <nd ref="257356785"/>
    <nd ref="257356838"/>
    <nd ref="257356839"/>
    <nd ref="257356840"/>
    <nd ref="257356836"/>
    <tag k="highway" v="residential"/>
    <tag k="source" v="UMP-PL, ./UMP-Szczecin/src/POGORZELICA.ulice.txt"/>
  </way>
  <way id="23752353" version="1" timestamp="2008-04-13T13:09:31Z" uid="30632" user="antblant" changeset="130030">
    <nd ref="257356772"/>
    <nd ref="257356783"/>
    <nd ref="257356789"/>
    <nd ref="257356790"/>
    <nd ref="257356787"/>
    <tag k="created_by" v="JOSM"/>
    <tag k="highway" v="residential"/>
    <tag k="name" v="Wojska Polskiego"/>
    <tag k="source" v="UMP-PL, ./UMP-Szczecin/src/POGORZELICA.ulice.txt"/>
  </way>
  <way id="23752353" version="2" timestamp="2009-11-03T13:47:01Z" uid="36809" user="pfoten_weg_!_" changeset="3023908">
    <nd ref="257356772"/>
    <nd ref="257356783"/>
    <nd ref="257356789"/>
    <nd ref="257356790"/>
    <nd ref="257356787"/>
    <tag k="highway" v="residential"/>
    <tag k="name" v="Wojska Polskiego"/>
    <tag k="source" v="UMP-PL, ./UMP-Szczecin/src/POGORZELICA.ulice.txt"/>
  </way>
  <way id="23752354" version="1" timestamp="2008-04-13T13:09:31Z" uid="30632" user="antblant" changeset="130030">
    <nd ref="257356809"/>
    <nd ref="257356823"/>
    <nd ref="257356822"/>
    <tag k="created_by" v="JOSM"/>
    <tag k="highway" v="residential"/>
    <tag k="source" v="UMP-PL, ./UMP-Szczecin/src/POGORZELICA.ulice.txt"/>
  </way>
  <way id="23752354" version="2" timestamp="2009-11-03T13:46:51Z" uid="36809" user="pfoten_weg_!_" changeset="3023908">
    <nd ref="257356809"/>
    <nd ref="257356823"/>
    <nd ref="257356822"/>
    <tag k="highway" v="residential"/>
    <tag k="source" v="UMP-PL, ./UMP-Szczecin/src/POGORZELICA.ulice.txt"/>
  </way>
  <way id="23752355" version="1" timestamp="2008-04-13T13:09:32Z" uid="30632" user="antblant" changeset="130030">
    <nd ref="257356711"/>
    <nd ref="257356712"/>
    <nd ref="257356713"/>
    <nd ref="257356714"/>
    <nd ref="257356715"/>
    <nd ref="257356716"/>
    <nd ref="257356717"/>
    <nd ref="257356725"/>
    <nd ref="257356726"/>
    <nd ref="257356727"/>
    <nd ref="257356728"/>
    <tag k="created_by" v="JOSM"/>
    <tag k="highway" v="residential"/>
    <tag k="name" v="Rzeczna"/>
    <tag k="source" v="UMP-PL, ./UMP-Szczecin/src/POGORZELICA.ulice.txt"/>
  </way>
  <way id="23752355" version="2" timestamp="2009-11-02T12:00:37Z" uid="30632" user="antblant" changeset="3015723">
    <nd ref="257356711"/>
    <nd ref="257356712"/>
    <nd ref="257356713"/>
    <nd ref="257356714"/>
    <nd ref="255759167"/>
    <nd ref="257356716"/>
    <nd ref="257356717"/>
    <nd ref="257356725"/>
    <nd ref="257356726"/>
    <nd ref="257356727"/>
    <nd ref="257356728"/>
    <tag k="highway" v="residential"/>
    <tag k="name" v="Rzeczna"/>
    <tag k="source" v="UMP-PL, ./UMP-Szczecin/src/POGORZELICA.ulice.txt"/>
  </way>
  <way id="23752356" version="1" timestamp="2008-04-13T13:09:32Z" uid="30632" user="antblant" changeset="130030">
    <nd ref="257356808"/>
    <nd ref="257356770"/>
    <tag k="created_by" v="JOSM"/>
    <tag k="highway" v="residential"/>
    <tag k="name" v="Sztormowa"/>
    <tag k="source" v="UMP-PL, ./UMP-Szczecin/src/POGORZELICA.ulice.txt"/>
  </way>
  <way id="23752356" version="2" timestamp="2009-11-03T13:33:19Z" uid="36809" user="pfoten_weg_!_" changeset="3023908">
    <nd ref="257356808"/>
    <nd ref="257356770"/>
    <tag k="highway" v="residential"/>
    <tag k="name" v="Sztormowa"/>
    <tag k="source" v="UMP-PL, ./UMP-Szczecin/src/POGORZELICA.ulice.txt"/>
  </way>
  <way id="23752357" version="1" timestamp="2008-04-13T13:09:32Z" uid="30632" user="antblant" changeset="130030">
    <nd ref="257356798"/>
    <nd ref="257356783"/>
    <nd ref="257356799"/>
    <nd ref="257356796"/>
    <tag k="created_by" v="JOSM"/>
    <tag k="highway" v="residential"/>
    <tag k="source" v="UMP-PL, ./UMP-Szczecin/src/POGORZELICA.ulice.txt"/>
  </way>
  <way id="23752357" version="2" timestamp="2009-11-03T13:47:05Z" uid="36809" user="pfoten_weg_!_" changeset="3023908">
    <nd ref="257356798"/>
    <nd ref="257356783"/>
    <nd ref="257356799"/>
    <nd ref="257356796"/>
    <tag k="highway" v="residential"/>
    <tag k="source" v="UMP-PL, ./UMP-Szczecin/src/POGORZELICA.ulice.txt"/>
  </way>
  <way id="23752358" version="1" timestamp="2008-04-13T13:09:33Z" uid="30632" user="antblant" changeset="130030">
    <nd ref="257356782"/>
    <nd ref="257356840"/>
    <tag k="created_by" v="JOSM"/>
    <tag k="highway" v="residential"/>
    <tag k="name" v="Spokojna"/>
    <tag k="source" v="UMP-PL, ./UMP-Szczecin/src/POGORZELICA.ulice.txt"/>
  </way>
  <way id="23752358" version="2" timestamp="2009-11-02T12:00:37Z" uid="30632" user="antblant" changeset="3015723">
    <nd ref="254712787"/>
    <nd ref="257356840"/>
    <tag k="highway" v="residential"/>
    <tag k="name" v="Spokojna"/>
    <tag k="source" v="UMP-PL, ./UMP-Szczecin/src/POGORZELICA.ulice.txt"/>
  </way>
  <way id="23752359" version="1" timestamp="2008-04-13T13:09:33Z" uid="30632" user="antblant" changeset="130030">
    <nd ref="257356772"/>
    <nd ref="257356779"/>
    <nd ref="257356777"/>
    <nd ref="257356781"/>
    <nd ref="257356780"/>
    <nd ref="257356784"/>
    <nd ref="257356785"/>
    <nd ref="257356782"/>
    <tag k="created_by" v="JOSM"/>
    <tag k="highway" v="tertiary"/>
    <tag k="name" v="Słoneczna"/>
    <tag k="source" v="UMP-PL, ./UMP-Szczecin/src/POGORZELICA.ulice.txt"/>
  </way>
  <way id="23752359" version="2" timestamp="2009-11-02T12:00:37Z" uid="30632" user="antblant" changeset="3015723">
    <nd ref="257356772"/>
    <nd ref="257356779"/>
    <nd ref="257356777"/>
    <nd ref="257356781"/>
    <nd ref="257356780"/>
    <nd ref="257356784"/>
    <nd ref="257356785"/>
    <nd ref="254712787"/>
    <tag k="highway" v="tertiary"/>
    <tag k="name" v="Słoneczna"/>
    <tag k="source" v="UMP-PL, ./UMP-Szczecin/src/POGORZELICA.ulice.txt"/>
  </way>
  <way id="23752629" version="4" timestamp="2008-06-24T15:04:39Z" uid="9581" user="Lobelt" changeset="284309">
    <nd ref="257359238"/>
    <nd ref="257359239"/>
    <nd ref="257359240"/>
    <nd ref="257359241"/>
    <nd ref="257359242"/>
    <nd ref="257359243"/>
    <nd ref="257359244"/>
    <nd ref="257359245"/>
    <nd ref="257359246"/>
    <nd ref="257359247"/>
    <nd ref="257359248"/>
    <nd ref="257359249"/>
    <nd ref="257359250"/>
    <nd ref="257359251"/>
    <nd ref="257359252"/>
    <nd ref="257359253"/>
    <nd ref="257359254"/>
    <nd ref="257359255"/>
    <nd ref="257359256"/>
    <nd ref="257359257"/>
    <nd ref="257359258"/>
    <nd ref="257359259"/>
    <nd ref="257359260"/>
    <nd ref="257359261"/>
    <nd ref="257359262"/>
    <nd ref="257359263"/>
    <nd ref="257359264"/>
    <nd ref="257359265"/>
    <nd ref="257359266"/>
    <nd ref="257359267"/>
    <nd ref="257359268"/>
    <nd ref="257359269"/>
    <nd ref="257359270"/>
    <nd ref="257359271"/>
    <nd ref="257359272"/>
    <nd ref="257359273"/>
    <nd ref="257359274"/>
    <nd ref="257359275"/>
    <nd ref="257359276"/>
    <nd ref="257359277"/>
    <nd ref="257359278"/>
    <nd ref="257359279"/>
    <nd ref="257359280"/>
    <nd ref="257359281"/>
    <nd ref="257359282"/>
    <nd ref="257359283"/>
    <nd ref="257359284"/>
    <nd ref="257359285"/>
    <nd ref="257359286"/>
    <nd ref="257359287"/>
    <nd ref="257359288"/>
    <nd ref="257359289"/>
    <nd ref="257359290"/>
    <nd ref="257359291"/>
    <nd ref="257056584"/>
    <nd ref="257056585"/>
    <nd ref="257056586"/>
    <nd ref="257056587"/>
    <nd ref="257056588"/>
    <nd ref="257056589"/>
    <nd ref="257056590"/>
    <nd ref="257359292"/>
    <nd ref="257359293"/>
    <nd ref="257359294"/>
    <nd ref="257359295"/>
    <nd ref="257359296"/>
    <nd ref="257359297"/>
    <nd ref="257359298"/>
    <nd ref="257359299"/>
    <nd ref="257359300"/>
    <nd ref="257359301"/>
    <nd ref="257359302"/>
    <nd ref="257359303"/>
    <nd ref="257359304"/>
    <nd ref="257359305"/>
    <nd ref="257359306"/>
    <nd ref="257359307"/>
    <nd ref="257359308"/>
    <nd ref="257359309"/>
    <nd ref="257359310"/>
    <nd ref="257359311"/>
    <nd ref="121979942"/>
    <nd ref="121979943"/>
    <nd ref="121979944"/>
    <nd ref="121979945"/>
    <nd ref="121979946"/>
    <nd ref="121979947"/>
    <nd ref="121979948"/>
    <nd ref="121979949"/>
    <nd ref="121979950"/>
    <nd ref="121979951"/>
    <nd ref="121979952"/>
    <nd ref="121979953"/>
    <nd ref="257359312"/>
    <nd ref="257359313"/>
    <nd ref="257359314"/>
    <nd ref="257359315"/>
    <nd ref="257359316"/>
    <nd ref="257359317"/>
    <nd ref="121979959"/>
    <nd ref="257359318"/>
    <nd ref="257359319"/>
    <nd ref="257359320"/>
    <nd ref="267368703"/>
    <nd ref="257359321"/>
    <nd ref="121979962"/>
    <nd ref="257359322"/>
    <nd ref="257359323"/>
    <nd ref="257359324"/>
    <nd ref="257359325"/>
    <nd ref="257359326"/>
    <nd ref="257359327"/>
    <nd ref="257359328"/>
    <nd ref="257359329"/>
    <nd ref="257359330"/>
    <nd ref="257359331"/>
    <nd ref="257359332"/>
    <nd ref="82498043"/>
    <nd ref="121979967"/>
    <nd ref="121979966"/>
    <nd ref="257359333"/>
    <nd ref="257359334"/>
    <nd ref="257359335"/>
    <nd ref="257359336"/>
    <nd ref="257359337"/>
    <nd ref="257359338"/>
    <nd ref="257359339"/>
    <nd ref="257359340"/>
    <nd ref="257359341"/>
    <nd ref="94861973"/>
    <nd ref="94861978"/>
    <nd ref="94861983"/>
    <nd ref="94861989"/>
    <nd ref="94861993"/>
    <nd ref="94861995"/>
    <nd ref="94862001"/>
    <nd ref="257359342"/>
    <nd ref="257359343"/>
    <nd ref="257359344"/>
    <nd ref="257359345"/>
    <nd ref="257359346"/>
    <nd ref="257359347"/>
    <nd ref="257359348"/>
    <nd ref="257359349"/>
    <nd ref="257359350"/>
    <nd ref="257359351"/>
    <nd ref="257359238"/>
    <tag k="created_by" v="Potlatch 0.8a"/>
    <tag k="landuse" v="forest"/>
    <tag k="natural" v="wood"/>
    <tag k="source" v="landsat"/>
  </way>
  <way id="23752629" version="14" timestamp="2009-01-26T18:03:47Z" uid="9581" user="Lobelt" changeset="840178">
    <nd ref="257359248"/>
    <nd ref="257359349"/>
    <nd ref="337770885"/>
    <nd ref="337770881"/>
    <nd ref="337770877"/>
    <nd ref="257359350"/>
    <nd ref="257359351"/>
    <nd ref="257359238"/>
    <nd ref="257359239"/>
    <nd ref="257359240"/>
    <nd ref="337770889"/>
    <nd ref="337770916"/>
    <nd ref="337770894"/>
    <nd ref="337770900"/>
    <nd ref="337770904"/>
    <nd ref="337770909"/>
    <nd ref="337770921"/>
    <nd ref="257359241"/>
    <nd ref="257359242"/>
    <nd ref="337770926"/>
    <nd ref="257359243"/>
    <nd ref="337770930"/>
    <nd ref="337770935"/>
    <nd ref="337770940"/>
    <nd ref="337770944"/>
    <nd ref="257359244"/>
    <nd ref="257359245"/>
    <nd ref="337770962"/>
    <nd ref="337770957"/>
    <nd ref="337770952"/>
    <nd ref="337770948"/>
    <nd ref="337770966"/>
    <nd ref="337770978"/>
    <nd ref="337770975"/>
    <nd ref="337770970"/>
    <nd ref="257359246"/>
    <nd ref="337770982"/>
    <nd ref="257359247"/>
    <nd ref="257359248"/>
    <tag k="created_by" v="Potlatch 0.10c"/>
    <tag k="landuse" v="forest"/>
    <tag k="source" v="landsat"/>
    <tag k="wood" v="mixed"/>
  </way>
  <way id="23752819" version="53" timestamp="2009-10-08T11:57:11Z" uid="20587" user="balrog-kun" changeset="2782033">
    <nd ref="257362299"/>
    <nd ref="257361368"/>
    <nd ref="257361369"/>
    <nd ref="257361370"/>
    <nd ref="257361371"/>
    <nd ref="257361372"/>
    <nd ref="257361373"/>
    <nd ref="257361374"/>
    <nd ref="257361375"/>
    <nd ref="257361378"/>
    <nd ref="257361381"/>
    <nd ref="257361387"/>
    <nd ref="257361388"/>
    <nd ref="257361393"/>
    <nd ref="257361403"/>
    <nd ref="257361406"/>
    <nd ref="257361407"/>
    <nd ref="257361409"/>
    <nd ref="257361411"/>
    <nd ref="257361412"/>
    <nd ref="257361413"/>
    <nd ref="257361419"/>
    <nd ref="257361420"/>
    <nd ref="257361421"/>
    <nd ref="257361422"/>
    <nd ref="257361423"/>
    <nd ref="257361425"/>
    <nd ref="257361426"/>
    <nd ref="257361427"/>
    <nd ref="257361428"/>
    <nd ref="257361429"/>
    <nd ref="257361430"/>
    <nd ref="257361431"/>
    <nd ref="257361432"/>
    <nd ref="257361433"/>
    <nd ref="257361434"/>
    <nd ref="257361435"/>
    <nd ref="499718733"/>
    <nd ref="257361436"/>
    <nd ref="257361437"/>
    <nd ref="257361438"/>
    <nd ref="257361449"/>
    <nd ref="257361450"/>
    <nd ref="257361451"/>
    <nd ref="257361452"/>
    <nd ref="257361455"/>
    <nd ref="257361456"/>
    <nd ref="257361457"/>
    <nd ref="257361458"/>
    <nd ref="257361459"/>
    <nd ref="257361460"/>
    <nd ref="257361461"/>
    <nd ref="257361463"/>
    <nd ref="257361465"/>
    <nd ref="371526749"/>
    <nd ref="257361467"/>
    <nd ref="371526737"/>
    <nd ref="257361472"/>
    <nd ref="371526727"/>
    <nd ref="257361476"/>
    <nd ref="257361477"/>
    <nd ref="257361478"/>
    <nd ref="257361479"/>
    <nd ref="257361487"/>
    <nd ref="239586876"/>
    <nd ref="239586878"/>
    <nd ref="239586879"/>
    <nd ref="371520595"/>
    <nd ref="239586880"/>
    <nd ref="239586882"/>
    <nd ref="239586883"/>
    <nd ref="239586886"/>
    <nd ref="239586888"/>
    <nd ref="239586890"/>
    <nd ref="239586892"/>
    <nd ref="239586896"/>
    <nd ref="239586898"/>
    <nd ref="239586900"/>
    <nd ref="371520590"/>
    <nd ref="239586904"/>
    <nd ref="239586905"/>
    <nd ref="239586907"/>
    <nd ref="239586909"/>
    <nd ref="239586910"/>
    <nd ref="239586911"/>
    <nd ref="407641653"/>
    <nd ref="371520587"/>
    <nd ref="290432338"/>
    <nd ref="239586917"/>
    <nd ref="358909594"/>
    <nd ref="290432337"/>
    <nd ref="290432336"/>
    <nd ref="290432335"/>
    <nd ref="239586920"/>
    <nd ref="239586921"/>
    <nd ref="239586922"/>
    <nd ref="514113094"/>
    <nd ref="514113097"/>
    <nd ref="514113095"/>
    <nd ref="477084687"/>
    <nd ref="239586929"/>
    <nd ref="357992737"/>
    <nd ref="239586930"/>
    <nd ref="476142323"/>
    <nd ref="357866284"/>
    <nd ref="357866744"/>
    <nd ref="482837646"/>
    <nd ref="357866429"/>
    <nd ref="257363834"/>
    <tag k="highway" v="trunk"/>
    <tag k="int_ref" v="AH12"/>
    <tag k="lanes" v="4"/>
    <tag k="name" v="ถนนมิตรภาพ"/>
    <tag k="name:en" v="Mittraphap Road"/>
    <tag k="name:th" v="ถนนมิตรภาพ"/>
    <tag k="ref" v="2"/>
    <tag k="source" v="GPS"/>
  </way>
  <way id="23752848" version="1" timestamp="2008-04-13T13:33:30Z" uid="30632" user="antblant" changeset="130030">
    <nd ref="257361332"/>
    <nd ref="257361491"/>
    <tag k="created_by" v="JOSM"/>
    <tag k="highway" v="residential"/>
    <tag k="name" v="Mikołaja Kopernika"/>
    <tag k="source" v="UMP-PL, ./UMP-Szczecin/src/TRZEBIATOW.ulice.txt"/>
  </way>
  <way id="23752848" version="2" timestamp="2009-11-03T13:48:21Z" uid="36809" user="pfoten_weg_!_" changeset="3023908">
    <nd ref="257361332"/>
    <nd ref="257361491"/>
    <tag k="highway" v="residential"/>
    <tag k="name" v="Mikołaja Kopernika"/>
    <tag k="source" v="UMP-PL, ./UMP-Szczecin/src/TRZEBIATOW.ulice.txt"/>
  </way>
  <way id="23752849" version="1" timestamp="2008-04-13T13:33:30Z" uid="30632" user="antblant" changeset="130030">
    <nd ref="257361860"/>
    <nd ref="257361844"/>
    <nd ref="257361851"/>
    <nd ref="257361837"/>
    <nd ref="257361839"/>
    <nd ref="257361832"/>
    <nd ref="257361835"/>
    <nd ref="257361922"/>
    <nd ref="257361925"/>
    <nd ref="257361918"/>
    <nd ref="257361664"/>
    <tag k="created_by" v="JOSM"/>
    <tag k="highway" v="residential"/>
    <tag k="name" v="Dąbrówki"/>
    <tag k="source" v="UMP-PL, ./UMP-Szczecin/src/TRZEBIATOW.ulice.txt"/>
  </way>
  <way id="23752849" version="2" timestamp="2009-11-03T13:47:37Z" uid="36809" user="pfoten_weg_!_" changeset="3023908">
    <nd ref="257361860"/>
    <nd ref="257361844"/>
    <nd ref="257361851"/>
    <nd ref="257361837"/>
    <nd ref="257361839"/>
    <nd ref="257361832"/>
    <nd ref="257361835"/>
    <nd ref="257361922"/>
    <nd ref="257361925"/>
    <nd ref="257361918"/>
    <nd ref="257361664"/>
    <tag k="highway" v="residential"/>
    <tag k="name" v="Dąbrówki"/>
    <tag k="source" v="UMP-PL, ./UMP-Szczecin/src/TRZEBIATOW.ulice.txt"/>
  </way>
  <way id="23752850" version="1" timestamp="2008-04-13T13:33:31Z" uid="30632" user="antblant" changeset="130030">
    <nd ref="257361983"/>
    <nd ref="257361862"/>
    <tag k="created_by" v="JOSM"/>
    <tag k="highway" v="unclassified"/>
    <tag k="name" v="Kwiatowa"/>
    <tag k="source" v="UMP-PL, ./UMP-Szczecin/src/TRZEBIATOW.ulice.txt"/>
    <tag k="surface" v="unpaved"/>
  </way>
  <way id="23752850" version="2" timestamp="2009-11-03T13:45:48Z" uid="36809" user="pfoten_weg_!_" changeset="3023908">
    <nd ref="257361983"/>
    <nd ref="257361862"/>
    <tag k="highway" v="unclassified"/>
    <tag k="name" v="Kwiatowa"/>
    <tag k="source" v="UMP-PL, ./UMP-Szczecin/src/TRZEBIATOW.ulice.txt"/>
    <tag k="surface" v="unpaved"/>
  </way>
  <way id="23752851" version="1" timestamp="2008-04-13T13:33:31Z" uid="30632" user="antblant" changeset="130030">
    <nd ref="257361526"/>
    <nd ref="257361528"/>
    <nd ref="257361653"/>
    <tag k="created_by" v="JOSM"/>
    <tag k="highway" v="residential"/>
    <tag k="name" v="Pusta"/>
    <tag k="source" v="UMP-PL, ./UMP-Szczecin/src/TRZEBIATOW.ulice.txt"/>
  </way>
  <way id="23752851" version="2" timestamp="2009-11-03T13:44:40Z" uid="36809" user="pfoten_weg_!_" changeset="3023908">
    <nd ref="257361526"/>
    <nd ref="257361528"/>
    <nd ref="257361653"/>
    <tag k="highway" v="residential"/>
    <tag k="name" v="Pusta"/>
    <tag k="source" v="UMP-PL, ./UMP-Szczecin/src/TRZEBIATOW.ulice.txt"/>
  </way>
  <way id="23752853" version="1" timestamp="2008-04-13T13:33:31Z" uid="30632" user="antblant" changeset="130030">
    <nd ref="257361492"/>
    <nd ref="257361356"/>
    <tag k="created_by" v="JOSM"/>
    <tag k="highway" v="residential"/>
    <tag k="name" v="Henryka Sienkiewicza"/>
    <tag k="source" v="UMP-PL, ./UMP-Szczecin/src/TRZEBIATOW.ulice.txt"/>
  </way>
  <way id="23752853" version="2" timestamp="2009-11-03T13:47:14Z" uid="36809" user="pfoten_weg_!_" changeset="3023908">
    <nd ref="257361492"/>
    <nd ref="257361356"/>
    <tag k="highway" v="residential"/>
    <tag k="name" v="Henryka Sienkiewicza"/>
    <tag k="source" v="UMP-PL, ./UMP-Szczecin/src/TRZEBIATOW.ulice.txt"/>
  </way>
  <way id="23752854" version="1" timestamp="2008-04-13T13:33:32Z" uid="30632" user="antblant" changeset="130030">
    <nd ref="257361518"/>
    <nd ref="257361920"/>
    <nd ref="257361932"/>
    <nd ref="257361934"/>
    <tag k="created_by" v="JOSM"/>
    <tag k="highway" v="residential"/>
    <tag k="name" v="1 Maja"/>
    <tag k="source" v="UMP-PL, ./UMP-Szczecin/src/TRZEBIATOW.ulice.txt"/>
  </way>
  <way id="23752854" version="2" timestamp="2009-11-03T13:47:48Z" uid="36809" user="pfoten_weg_!_" changeset="3023908">
    <nd ref="257361518"/>
    <nd ref="257361920"/>
    <nd ref="257361932"/>
    <nd ref="257361934"/>
    <tag k="highway" v="residential"/>
    <tag k="name" v="1 Maja"/>
    <tag k="source" v="UMP-PL, ./UMP-Szczecin/src/TRZEBIATOW.ulice.txt"/>
  </way>
  <way id="23752855" version="1" timestamp="2008-04-13T13:33:32Z" uid="30632" user="antblant" changeset="130030">
    <nd ref="257361788"/>
    <nd ref="257361981"/>
    <nd ref="257361988"/>
    <nd ref="257361986"/>
    <nd ref="257362018"/>
    <nd ref="257362019"/>
    <nd ref="257361826"/>
    <tag k="created_by" v="JOSM"/>
    <tag k="highway" v="unclassified"/>
    <tag k="source" v="UMP-PL, ./UMP-Szczecin/src/TRZEBIATOW.ulice.txt"/>
    <tag k="surface" v="unpaved"/>
  </way>
  <way id="23752855" version="2" timestamp="2009-11-03T13:45:13Z" uid="36809" user="pfoten_weg_!_" changeset="3023908">
    <nd ref="257361788"/>
    <nd ref="257361981"/>
    <nd ref="257361988"/>
    <nd ref="257361986"/>
    <nd ref="257362018"/>
    <nd ref="257362019"/>
    <nd ref="257361826"/>
    <tag k="highway" v="unclassified"/>
    <tag k="source" v="UMP-PL, ./UMP-Szczecin/src/TRZEBIATOW.ulice.txt"/>
    <tag k="surface" v="unpaved"/>
  </way>
  <way id="23752856" version="1" timestamp="2008-04-13T13:33:33Z" uid="30632" user="antblant" changeset="130030">
    <nd ref="257361257"/>
    <nd ref="257361656"/>
    <nd ref="257361526"/>
    <nd ref="257361659"/>
    <nd ref="257361661"/>
    <nd ref="257361664"/>
    <tag k="created_by" v="JOSM"/>
    <tag k="highway" v="residential"/>
    <tag k="name" v="Ogrodowa"/>
    <tag k="source" v="UMP-PL, ./UMP-Szczecin/src/TRZEBIATOW.ulice.txt"/>
  </way>
  <way id="23752856" version="2" timestamp="2009-11-03T13:47:36Z" uid="36809" user="pfoten_weg_!_" changeset="3023908">
    <nd ref="257361257"/>
    <nd ref="257361656"/>
    <nd ref="257361526"/>
    <nd ref="257361659"/>
    <nd ref="257361661"/>
    <nd ref="257361664"/>
    <tag k="highway" v="residential"/>
    <tag k="name" v="Ogrodowa"/>
    <tag k="source" v="UMP-PL, ./UMP-Szczecin/src/TRZEBIATOW.ulice.txt"/>
  </way>
  <way id="23752857" version="1" timestamp="2008-04-13T13:33:33Z" uid="30632" user="antblant" changeset="130030">
    <nd ref="257361489"/>
    <nd ref="257361490"/>
    <nd ref="257361508"/>
    <nd ref="257361509"/>
    <nd ref="257361506"/>
    <nd ref="257361507"/>
    <tag k="created_by" v="JOSM"/>
    <tag k="highway" v="tertiary"/>
    <tag k="name" v="Sarnia"/>
    <tag k="source" v="UMP-PL, ./UMP-Szczecin/src/TRZEBIATOW.ulice.txt"/>
  </way>
  <way id="23752857" version="2" timestamp="2009-11-03T13:47:12Z" uid="36809" user="pfoten_weg_!_" changeset="3023908">
    <nd ref="257361489"/>
    <nd ref="257361490"/>
    <nd ref="257361508"/>
    <nd ref="257361509"/>
    <nd ref="257361506"/>
    <nd ref="257361507"/>
    <tag k="highway" v="tertiary"/>
    <tag k="name" v="Sarnia"/>
    <tag k="source" v="UMP-PL, ./UMP-Szczecin/src/TRZEBIATOW.ulice.txt"/>
  </way>
  <way id="23752858" version="16" timestamp="2009-09-23T13:31:55Z" uid="9581" user="Lobelt" changeset="2595487">
    <nd ref="257361777"/>
    <nd ref="274241646"/>
    <tag k="bicycle" v="yes"/>
    <tag k="bridge" v="yes"/>
    <tag k="foot" v="yes"/>
    <tag k="highway" v="footway"/>
    <tag k="layer" v="1"/>
    <tag k="name" v="Untermhäuser Brücke"/>
    <tag k="ncn" v="yes"/>
    <tag k="ncn_ref" v="D4"/>
    <tag k="rcn" v="yes"/>
    <tag k="rcn_ref" v="ThSK"/>
  </way>
  <way id="23752859" version="1" timestamp="2008-04-13T13:33:33Z" uid="30632" user="antblant" changeset="130030">
    <nd ref="257361516"/>
    <nd ref="257361928"/>
    <nd ref="257361930"/>
    <tag k="created_by" v="JOSM"/>
    <tag k="highway" v="residential"/>
    <tag k="name" v="Nadbrzeżna"/>
    <tag k="source" v="UMP-PL, ./UMP-Szczecin/src/TRZEBIATOW.ulice.txt"/>
  </way>
  <way id="23752859" version="2" timestamp="2009-11-03T13:47:57Z" uid="36809" user="pfoten_weg_!_" changeset="3023908">
    <nd ref="257361516"/>
    <nd ref="257361928"/>
    <nd ref="257361930"/>
    <tag k="highway" v="residential"/>
    <tag k="name" v="Nadbrzeżna"/>
    <tag k="source" v="UMP-PL, ./UMP-Szczecin/src/TRZEBIATOW.ulice.txt"/>
  </way>
  <way id="23752860" version="1" timestamp="2008-04-13T13:33:34Z" uid="30632" user="antblant" changeset="130030">
    <nd ref="257361631"/>
    <nd ref="257361680"/>
    <nd ref="257361686"/>
    <nd ref="257361689"/>
    <tag k="created_by" v="JOSM"/>
    <tag k="highway" v="residential"/>
    <tag k="name" v="Stanisława Augusta Poniatowskiego"/>
    <tag k="source" v="UMP-PL, ./UMP-Szczecin/src/TRZEBIATOW.ulice.txt"/>
  </way>
  <way id="23752860" version="2" timestamp="2009-11-03T13:47:36Z" uid="36809" user="pfoten_weg_!_" changeset="3023908">
    <nd ref="257361631"/>
    <nd ref="257361680"/>
    <nd ref="257361686"/>
    <nd ref="257361689"/>
    <tag k="highway" v="residential"/>
    <tag k="name" v="Stanisława Augusta Poniatowskiego"/>
    <tag k="source" v="UMP-PL, ./UMP-Szczecin/src/TRZEBIATOW.ulice.txt"/>
  </way>
  <way id="23752861" version="1" timestamp="2008-04-13T13:33:34Z" uid="30632" user="antblant" changeset="130030">
    <nd ref="257361405"/>
    <nd ref="257361512"/>
    <nd ref="257361513"/>
    <tag k="created_by" v="JOSM"/>
    <tag k="highway" v="residential"/>
    <tag k="name" v="Pocztowa"/>
    <tag k="source" v="UMP-PL, ./UMP-Szczecin/src/TRZEBIATOW.ulice.txt"/>
  </way>
  <way id="23752861" version="2" timestamp="2009-11-03T13:48:10Z" uid="36809" user="pfoten_weg_!_" changeset="3023908">
    <nd ref="257361405"/>
    <nd ref="257361512"/>
    <nd ref="257361513"/>
    <tag k="highway" v="residential"/>
    <tag k="name" v="Pocztowa"/>
    <tag k="source" v="UMP-PL, ./UMP-Szczecin/src/TRZEBIATOW.ulice.txt"/>
  </way>
  <way id="23752862" version="1" timestamp="2008-04-13T13:33:34Z" uid="30632" user="antblant" changeset="130030">
    <nd ref="257361471"/>
    <nd ref="257361941"/>
    <tag k="created_by" v="JOSM"/>
    <tag k="highway" v="residential"/>
    <tag k="name" v="Ignacego Daszyńskiego"/>
    <tag k="source" v="UMP-PL, ./UMP-Szczecin/src/TRZEBIATOW.ulice.txt"/>
  </way>
  <way id="23752862" version="2" timestamp="2009-11-03T13:47:56Z" uid="36809" user="pfoten_weg_!_" changeset="3023908">
    <nd ref="257361471"/>
    <nd ref="257361941"/>
    <tag k="highway" v="residential"/>
    <tag k="name" v="Ignacego Daszyńskiego"/>
    <tag k="source" v="UMP-PL, ./UMP-Szczecin/src/TRZEBIATOW.ulice.txt"/>
  </way>
  <way id="23752863" version="1" timestamp="2008-04-13T13:33:35Z" uid="30632" user="antblant" changeset="130030">
    <nd ref="257361692"/>
    <nd ref="257361648"/>
    <nd ref="257361650"/>
    <tag k="created_by" v="JOSM"/>
    <tag k="highway" v="residential"/>
    <tag k="name" v="Ciasna"/>
    <tag k="source" v="UMP-PL, ./UMP-Szczecin/src/TRZEBIATOW.ulice.txt"/>
  </way>
  <way id="23752863" version="2" timestamp="2009-11-03T13:47:54Z" uid="36809" user="pfoten_weg_!_" changeset="3023908">
    <nd ref="257361692"/>
    <nd ref="257361648"/>
    <nd ref="257361650"/>
    <tag k="highway" v="residential"/>
    <tag k="name" v="Ciasna"/>
    <tag k="source" v="UMP-PL, ./UMP-Szczecin/src/TRZEBIATOW.ulice.txt"/>
  </way>
  <way id="23752864" version="1" timestamp="2008-04-13T13:33:35Z" uid="30632" user="antblant" changeset="130030">
    <nd ref="257361510"/>
    <nd ref="257361513"/>
    <nd ref="257361511"/>
    <tag k="created_by" v="JOSM"/>
    <tag k="highway" v="residential"/>
    <tag k="name" v="Kręta"/>
    <tag k="source" v="UMP-PL, ./UMP-Szczecin/src/TRZEBIATOW.ulice.txt"/>
  </way>
  <way id="23752864" version="2" timestamp="2009-11-03T13:47:21Z" uid="36809" user="pfoten_weg_!_" changeset="3023908">
    <nd ref="257361510"/>
    <nd ref="257361513"/>
    <nd ref="257361511"/>
    <tag k="highway" v="residential"/>
    <tag k="name" v="Kręta"/>
    <tag k="source" v="UMP-PL, ./UMP-Szczecin/src/TRZEBIATOW.ulice.txt"/>
  </way>
  <way id="23752865" version="1" timestamp="2008-04-13T13:33:35Z" uid="30632" user="antblant" changeset="130030">
    <nd ref="257361447"/>
    <nd ref="257361599"/>
    <nd ref="257361598"/>
    <nd ref="257361634"/>
    <nd ref="257361633"/>
    <nd ref="257361636"/>
    <nd ref="257361635"/>
    <nd ref="257361638"/>
    <nd ref="257361637"/>
    <nd ref="257361642"/>
    <nd ref="257361639"/>
    <nd ref="257361617"/>
    <nd ref="257361607"/>
    <nd ref="257361628"/>
    <tag k="created_by" v="JOSM"/>
    <tag k="highway" v="secondary"/>
    <tag k="name" v="Parkowa"/>
    <tag k="ref" v="102"/>
    <tag k="source" v="UMP-PL, ./UMP-Szczecin/src/TRZEBIATOW.ulice.txt"/>
  </way>
  <way id="23752865" version="2" timestamp="2008-04-13T13:34:45Z" uid="30632" user="antblant" changeset="130030">
    <nd ref="257361447"/>
    <nd ref="257361599"/>
    <nd ref="257361598"/>
    <nd ref="257361634"/>
    <nd ref="257361633"/>
    <nd ref="257361636"/>
    <nd ref="257361635"/>
    <nd ref="257361638"/>
    <nd ref="257361637"/>
    <nd ref="257361642"/>
    <nd ref="257361639"/>
    <nd ref="257361617"/>
    <nd ref="257361607"/>
    <nd ref="254713078"/>
    <tag k="created_by" v="Potlatch 0.8a"/>
    <tag k="highway" v="secondary"/>
    <tag k="name" v="Parkowa"/>
    <tag k="ref" v="102"/>
    <tag k="source" v="UMP-PL, ./UMP-Szczecin/src/TRZEBIATOW.ulice.txt"/>
  </way>
  <way id="23752865" version="3" timestamp="2009-11-03T13:47:06Z" uid="36809" user="pfoten_weg_!_" changeset="3023908">
    <nd ref="257361447"/>
    <nd ref="257361599"/>
    <nd ref="257361598"/>
    <nd ref="257361634"/>
    <nd ref="257361633"/>
    <nd ref="257361636"/>
    <nd ref="257361635"/>
    <nd ref="257361638"/>
    <nd ref="257361637"/>
    <nd ref="257361642"/>
    <nd ref="257361639"/>
    <nd ref="257361617"/>
    <nd ref="257361607"/>
    <nd ref="254713078"/>
    <tag k="highway" v="secondary"/>
    <tag k="name" v="Parkowa"/>
    <tag k="ref" v="102"/>
    <tag k="source" v="UMP-PL, ./UMP-Szczecin/src/TRZEBIATOW.ulice.txt"/>
  </way>
  <way id="23752866" version="1" timestamp="2008-04-13T13:33:36Z" uid="30632" user="antblant" changeset="130030">
    <nd ref="257361788"/>
    <nd ref="257361874"/>
    <nd ref="257361880"/>
    <nd ref="257361866"/>
    <tag k="created_by" v="JOSM"/>
    <tag k="highway" v="residential"/>
    <tag k="name" v="8 Marca"/>
    <tag k="source" v="UMP-PL, ./UMP-Szczecin/src/TRZEBIATOW.ulice.txt"/>
  </way>
  <way id="23752866" version="2" timestamp="2009-11-03T13:45:52Z" uid="36809" user="pfoten_weg_!_" changeset="3023908">
    <nd ref="257361788"/>
    <nd ref="257361874"/>
    <nd ref="257361880"/>
    <nd ref="257361866"/>
    <tag k="highway" v="residential"/>
    <tag k="name" v="8 Marca"/>
    <tag k="source" v="UMP-PL, ./UMP-Szczecin/src/TRZEBIATOW.ulice.txt"/>
  </way>
  <way id="23752867" version="1" timestamp="2008-04-13T13:33:36Z" uid="30632" user="antblant" changeset="130030">
    <nd ref="257361492"/>
    <nd ref="257361517"/>
    <nd ref="257361516"/>
    <tag k="created_by" v="JOSM"/>
    <tag k="highway" v="tertiary"/>
    <tag k="name" v="Henryka Sienkiewicza"/>
    <tag k="source" v="UMP-PL, ./UMP-Szczecin/src/TRZEBIATOW.ulice.txt"/>
  </way>
  <way id="23752867" version="2" timestamp="2009-11-03T13:48:23Z" uid="36809" user="pfoten_weg_!_" changeset="3023908">
    <nd ref="257361492"/>
    <nd ref="257361517"/>
    <nd ref="257361516"/>
    <tag k="highway" v="tertiary"/>
    <tag k="name" v="Henryka Sienkiewicza"/>
    <tag k="source" v="UMP-PL, ./UMP-Szczecin/src/TRZEBIATOW.ulice.txt"/>
  </way>
  <way id="23752868" version="1" timestamp="2008-04-13T13:33:36Z" uid="30632" user="antblant" changeset="130030">
    <nd ref="257361627"/>
    <nd ref="257361630"/>
    <nd ref="257361629"/>
    <nd ref="257361632"/>
    <nd ref="257361631"/>
    <nd ref="257361670"/>
    <nd ref="257361672"/>
    <nd ref="257361675"/>
    <nd ref="257361678"/>
    <tag k="created_by" v="JOSM"/>
    <tag k="highway" v="residential"/>
    <tag k="name" v="Sportowa"/>
    <tag k="source" v="UMP-PL, ./UMP-Szczecin/src/TRZEBIATOW.ulice.txt"/>
  </way>
  <way id="23752868" version="2" timestamp="2009-11-03T13:47:38Z" uid="36809" user="pfoten_weg_!_" changeset="3023908">
    <nd ref="257361627"/>
    <nd ref="257361630"/>
    <nd ref="257361629"/>
    <nd ref="257361632"/>
    <nd ref="257361631"/>
    <nd ref="257361670"/>
    <nd ref="257361672"/>
    <nd ref="257361675"/>
    <nd ref="257361678"/>
    <tag k="highway" v="residential"/>
    <tag k="name" v="Sportowa"/>
    <tag k="source" v="UMP-PL, ./UMP-Szczecin/src/TRZEBIATOW.ulice.txt"/>
  </way>
  <way id="23752869" version="1" timestamp="2008-04-13T13:33:37Z" uid="30632" user="antblant" changeset="130030">
    <nd ref="257361872"/>
    <nd ref="257361763"/>
    <nd ref="257361862"/>
    <nd ref="257361788"/>
    <nd ref="257361864"/>
    <tag k="created_by" v="JOSM"/>
    <tag k="highway" v="residential"/>
    <tag k="name" v="Nowotki"/>
    <tag k="source" v="UMP-PL, ./UMP-Szczecin/src/TRZEBIATOW.ulice.txt"/>
  </way>
  <way id="23752869" version="2" timestamp="2009-11-03T13:44:50Z" uid="36809" user="pfoten_weg_!_" changeset="3023908">
    <nd ref="257361872"/>
    <nd ref="257361763"/>
    <nd ref="257361862"/>
    <nd ref="257361788"/>
    <nd ref="257361864"/>
    <tag k="highway" v="residential"/>
    <tag k="name" v="Nowotki"/>
    <tag k="source" v="UMP-PL, ./UMP-Szczecin/src/TRZEBIATOW.ulice.txt"/>
  </way>
  <way id="23752870" version="1" timestamp="2008-04-13T13:33:37Z" uid="30632" user="antblant" changeset="130030">
    <nd ref="257361507"/>
    <nd ref="257361515"/>
    <tag k="created_by" v="JOSM"/>
    <tag k="highway" v="residential"/>
    <tag k="name" v="Przejazdowa"/>
    <tag k="source" v="UMP-PL, ./UMP-Szczecin/src/TRZEBIATOW.ulice.txt"/>
  </way>
  <way id="23752870" version="2" timestamp="2009-11-03T13:48:51Z" uid="36809" user="pfoten_weg_!_" changeset="3023908">
    <nd ref="257361507"/>
    <nd ref="257361515"/>
    <tag k="highway" v="residential"/>
    <tag k="name" v="Przejazdowa"/>
    <tag k="source" v="UMP-PL, ./UMP-Szczecin/src/TRZEBIATOW.ulice.txt"/>
  </way>
  <way id="23752871" version="1" timestamp="2008-04-13T13:33:38Z" uid="30632" user="antblant" changeset="130030">
    <nd ref="257361605"/>
    <nd ref="257361603"/>
    <tag k="created_by" v="JOSM"/>
    <tag k="highway" v="residential"/>
    <tag k="name" v="Lipowa"/>
    <tag k="source" v="UMP-PL, ./UMP-Szczecin/src/TRZEBIATOW.ulice.txt"/>
  </way>
  <way id="23752871" version="2" timestamp="2009-11-03T13:48:11Z" uid="36809" user="pfoten_weg_!_" changeset="3023908">
    <nd ref="257361605"/>
    <nd ref="257361603"/>
    <tag k="highway" v="residential"/>
    <tag k="name" v="Lipowa"/>
    <tag k="source" v="UMP-PL, ./UMP-Szczecin/src/TRZEBIATOW.ulice.txt"/>
  </way>
  <way id="23752872" version="1" timestamp="2008-04-13T13:33:38Z" uid="30632" user="antblant" changeset="130030">
    <nd ref="257361648"/>
    <nd ref="257361656"/>
    <tag k="created_by" v="JOSM"/>
    <tag k="highway" v="residential"/>
    <tag k="name" v="Spokojna"/>
    <tag k="source" v="UMP-PL, ./UMP-Szczecin/src/TRZEBIATOW.ulice.txt"/>
  </way>
  <way id="23752872" version="2" timestamp="2009-11-03T13:47:55Z" uid="36809" user="pfoten_weg_!_" changeset="3023908">
    <nd ref="257361648"/>
    <nd ref="257361656"/>
    <tag k="highway" v="residential"/>
    <tag k="name" v="Spokojna"/>
    <tag k="source" v="UMP-PL, ./UMP-Szczecin/src/TRZEBIATOW.ulice.txt"/>
  </way>
  <way id="23752873" version="1" timestamp="2008-04-13T13:33:38Z" uid="30632" user="antblant" changeset="130030">
    <nd ref="257361514"/>
    <nd ref="257361525"/>
    <nd ref="257361260"/>
    <tag k="created_by" v="JOSM"/>
    <tag k="highway" v="residential"/>
    <tag k="name" v="Polna"/>
    <tag k="source" v="UMP-PL, ./UMP-Szczecin/src/TRZEBIATOW.ulice.txt"/>
  </way>
  <way id="23752873" version="2" timestamp="2009-11-03T13:47:49Z" uid="36809" user="pfoten_weg_!_" changeset="3023908">
    <nd ref="257361514"/>
    <nd ref="257361525"/>
    <nd ref="257361260"/>
    <tag k="highway" v="residential"/>
    <tag k="name" v="Polna"/>
    <tag k="source" v="UMP-PL, ./UMP-Szczecin/src/TRZEBIATOW.ulice.txt"/>
  </way>
  <way id="23752874" version="1" timestamp="2008-04-13T13:33:39Z" uid="30632" user="antblant" changeset="130030">
    <nd ref="257361546"/>
    <nd ref="257361602"/>
    <nd ref="257361601"/>
    <nd ref="257361600"/>
    <nd ref="257361582"/>
    <tag k="created_by" v="JOSM"/>
    <tag k="highway" v="residential"/>
    <tag k="name" v="Kozia"/>
    <tag k="source" v="UMP-PL, ./UMP-Szczecin/src/TRZEBIATOW.ulice.txt"/>
  </way>
  <way id="23752874" version="2" timestamp="2009-11-03T13:48:39Z" uid="36809" user="pfoten_weg_!_" changeset="3023908">
    <nd ref="257361546"/>
    <nd ref="257361602"/>
    <nd ref="257361601"/>
    <nd ref="257361600"/>
    <nd ref="257361582"/>
    <tag k="highway" v="residential"/>
    <tag k="name" v="Kozia"/>
    <tag k="source" v="UMP-PL, ./UMP-Szczecin/src/TRZEBIATOW.ulice.txt"/>
  </way>
  <way id="23752875" version="1" timestamp="2008-04-13T13:33:39Z" uid="30632" user="antblant" changeset="130030">
    <nd ref="257361695"/>
    <nd ref="257361857"/>
    <nd ref="257361860"/>
    <nd ref="257361853"/>
    <nd ref="257361855"/>
    <tag k="created_by" v="JOSM"/>
    <tag k="highway" v="residential"/>
    <tag k="name" v="Plac Lipowy"/>
    <tag k="source" v="UMP-PL, ./UMP-Szczecin/src/TRZEBIATOW.ulice.txt"/>
  </way>
  <way id="23752875" version="2" timestamp="2009-11-03T13:47:58Z" uid="36809" user="pfoten_weg_!_" changeset="3023908">
    <nd ref="257361695"/>
    <nd ref="257361857"/>
    <nd ref="257361860"/>
    <nd ref="257361853"/>
    <nd ref="257361855"/>
    <tag k="highway" v="residential"/>
    <tag k="name" v="Plac Lipowy"/>
    <tag k="source" v="UMP-PL, ./UMP-Szczecin/src/TRZEBIATOW.ulice.txt"/>
  </way>
  <way id="23752876" version="1" timestamp="2008-04-13T13:33:39Z" uid="30632" user="antblant" changeset="130030">
    <nd ref="257361763"/>
    <nd ref="257361766"/>
    <nd ref="257361830"/>
    <nd ref="257361828"/>
    <tag k="created_by" v="JOSM"/>
    <tag k="highway" v="residential"/>
    <tag k="name" v="Okrzei"/>
    <tag k="source" v="UMP-PL, ./UMP-Szczecin/src/TRZEBIATOW.ulice.txt"/>
  </way>
  <way id="23752876" version="3" timestamp="2009-11-03T13:44:48Z" uid="36809" user="pfoten_weg_!_" changeset="3023908">
    <nd ref="257361763"/>
    <nd ref="257361766"/>
    <nd ref="257361830"/>
    <nd ref="257361828"/>
    <tag k="highway" v="residential"/>
    <tag k="name" v="Stefana Okrzei"/>
    <tag k="source" v="UMP-PL, ./UMP-Szczecin/src/TRZEBIATOW.ulice.txt"/>
  </way>
  <way id="23752877" version="1" timestamp="2008-04-13T13:33:40Z" uid="30632" user="antblant" changeset="130030">
    <nd ref="257361546"/>
    <nd ref="257361534"/>
    <tag k="created_by" v="JOSM"/>
    <tag k="highway" v="residential"/>
    <tag k="name" v="Lipowa"/>
    <tag k="source" v="UMP-PL, ./UMP-Szczecin/src/TRZEBIATOW.ulice.txt"/>
  </way>
  <way id="23752877" version="2" timestamp="2009-11-03T13:48:37Z" uid="36809" user="pfoten_weg_!_" changeset="3023908">
    <nd ref="257361546"/>
    <nd ref="257361534"/>
    <tag k="highway" v="residential"/>
    <tag k="name" v="Lipowa"/>
    <tag k="source" v="UMP-PL, ./UMP-Szczecin/src/TRZEBIATOW.ulice.txt"/>
  </way>
  <way id="23752879" version="1" timestamp="2008-04-13T13:33:40Z" uid="30632" user="antblant" changeset="130030">
    <nd ref="257361828"/>
    <nd ref="257361826"/>
    <tag k="created_by" v="JOSM"/>
    <tag k="highway" v="residential"/>
    <tag k="name" v="Żabia"/>
    <tag k="source" v="UMP-PL, ./UMP-Szczecin/src/TRZEBIATOW.ulice.txt"/>
  </way>
  <way id="23752879" version="2" timestamp="2009-11-03T13:45:51Z" uid="36809" user="pfoten_weg_!_" changeset="3023908">
    <nd ref="257361828"/>
    <nd ref="257361826"/>
    <tag k="highway" v="residential"/>
    <tag k="name" v="Żabia"/>
    <tag k="source" v="UMP-PL, ./UMP-Szczecin/src/TRZEBIATOW.ulice.txt"/>
  </way>
  <way id="23752880" version="1" timestamp="2008-04-13T13:33:40Z" uid="30632" user="antblant" changeset="130030">
    <nd ref="257361534"/>
    <nd ref="257361605"/>
    <tag k="created_by" v="JOSM"/>
    <tag k="highway" v="residential"/>
    <tag k="name" v="Lipowa"/>
    <tag k="source" v="UMP-PL, ./UMP-Szczecin/src/TRZEBIATOW.ulice.txt"/>
  </way>
  <way id="23752880" version="2" timestamp="2009-11-03T13:47:20Z" uid="36809" user="pfoten_weg_!_" changeset="3023908">
    <nd ref="257361534"/>
    <nd ref="257361605"/>
    <tag k="highway" v="residential"/>
    <tag k="name" v="Lipowa"/>
    <tag k="source" v="UMP-PL, ./UMP-Szczecin/src/TRZEBIATOW.ulice.txt"/>
  </way>
  <way id="23752881" version="1" timestamp="2008-04-13T13:33:41Z" uid="30632" user="antblant" changeset="130030">
    <nd ref="257361257"/>
    <nd ref="257361258"/>
    <nd ref="257361259"/>
    <nd ref="257361260"/>
    <nd ref="257361261"/>
    <tag k="created_by" v="JOSM"/>
    <tag k="highway" v="secondary"/>
    <tag k="name" v="Zagórska"/>
    <tag k="ref" v="109"/>
    <tag k="source" v="UMP-PL, ./UMP-Szczecin/src/TRZEBIATOW.ulice.txt"/>
  </way>
  <way id="23752881" version="2" timestamp="2009-11-03T13:44:45Z" uid="36809" user="pfoten_weg_!_" changeset="3023908">
    <nd ref="257361257"/>
    <nd ref="257361258"/>
    <nd ref="257361259"/>
    <nd ref="257361260"/>
    <nd ref="257361261"/>
    <tag k="highway" v="secondary"/>
    <tag k="name" v="Zagórska"/>
    <tag k="ref" v="109"/>
    <tag k="source" v="UMP-PL, ./UMP-Szczecin/src/TRZEBIATOW.ulice.txt"/>
  </way>
  <way id="23752882" version="1" timestamp="2008-04-13T13:33:41Z" uid="30632" user="antblant" changeset="130030">
    <nd ref="257361828"/>
    <nd ref="257361824"/>
    <nd ref="257361822"/>
    <nd ref="257361820"/>
    <nd ref="257361806"/>
    <tag k="created_by" v="JOSM"/>
    <tag k="highway" v="residential"/>
    <tag k="name" v="Wolności"/>
    <tag k="source" v="UMP-PL, ./UMP-Szczecin/src/TRZEBIATOW.ulice.txt"/>
  </way>
  <way id="23752882" version="2" timestamp="2009-11-03T13:45:50Z" uid="36809" user="pfoten_weg_!_" changeset="3023908">
    <nd ref="257361828"/>
    <nd ref="257361824"/>
    <nd ref="257361822"/>
    <nd ref="257361820"/>
    <nd ref="257361806"/>
    <tag k="highway" v="residential"/>
    <tag k="name" v="Wolności"/>
    <tag k="source" v="UMP-PL, ./UMP-Szczecin/src/TRZEBIATOW.ulice.txt"/>
  </way>
  <way id="23752884" version="1" timestamp="2008-04-13T13:33:41Z" uid="30632" user="antblant" changeset="130030">
    <nd ref="257361582"/>
    <nd ref="257361606"/>
    <tag k="created_by" v="JOSM"/>
    <tag k="highway" v="residential"/>
    <tag k="name" v="Kręta"/>
    <tag k="source" v="UMP-PL, ./UMP-Szczecin/src/TRZEBIATOW.ulice.txt"/>
  </way>
  <way id="23752884" version="2" timestamp="2009-11-03T13:48:34Z" uid="36809" user="pfoten_weg_!_" changeset="3023908">
    <nd ref="257361582"/>
    <nd ref="257361606"/>
    <tag k="highway" v="residential"/>
    <tag k="name" v="Kręta"/>
    <tag k="source" v="UMP-PL, ./UMP-Szczecin/src/TRZEBIATOW.ulice.txt"/>
  </way>
  <way id="23752885" version="1" timestamp="2008-04-13T13:33:42Z" uid="30632" user="antblant" changeset="130030">
    <nd ref="257361262"/>
    <nd ref="257361263"/>
    <nd ref="257361264"/>
    <nd ref="257361265"/>
    <nd ref="257361266"/>
    <nd ref="257361267"/>
    <nd ref="257361268"/>
    <nd ref="257361269"/>
    <nd ref="257361270"/>
    <nd ref="257361271"/>
    <nd ref="257361272"/>
    <tag k="created_by" v="JOSM"/>
    <tag k="highway" v="residential"/>
    <tag k="name" v="Słoneczna"/>
    <tag k="source" v="UMP-PL, ./UMP-Szczecin/src/TRZEBIATOW.ulice.txt"/>
  </way>
  <way id="23752885" version="2" timestamp="2009-11-03T13:44:41Z" uid="36809" user="pfoten_weg_!_" changeset="3023908">
    <nd ref="257361262"/>
    <nd ref="257361263"/>
    <nd ref="257361264"/>
    <nd ref="257361265"/>
    <nd ref="257361266"/>
    <nd ref="257361267"/>
    <nd ref="257361268"/>
    <nd ref="257361269"/>
    <nd ref="257361270"/>
    <nd ref="257361271"/>
    <nd ref="257361272"/>
    <tag k="highway" v="residential"/>
    <tag k="name" v="Słoneczna"/>
    <tag k="source" v="UMP-PL, ./UMP-Szczecin/src/TRZEBIATOW.ulice.txt"/>
  </way>
  <way id="23752886" version="1" timestamp="2008-04-13T13:33:42Z" uid="30632" user="antblant" changeset="130030">
    <nd ref="257361806"/>
    <nd ref="257361800"/>
    <nd ref="257361826"/>
    <nd ref="257361763"/>
    <nd ref="257361798"/>
    <nd ref="257361796"/>
    <nd ref="257361794"/>
    <nd ref="257361792"/>
    <nd ref="257361262"/>
    <nd ref="257361743"/>
    <nd ref="257361791"/>
    <nd ref="257361790"/>
    <nd ref="257361789"/>
    <nd ref="257361507"/>
    <tag k="created_by" v="JOSM"/>
    <tag k="highway" v="tertiary"/>
    <tag k="name" v="Jana Kilińskiego"/>
    <tag k="source" v="UMP-PL, ./UMP-Szczecin/src/TRZEBIATOW.ulice.txt"/>
  </way>
  <way id="23752886" version="2" timestamp="2009-11-03T13:44:43Z" uid="36809" user="pfoten_weg_!_" changeset="3023908">
    <nd ref="257361806"/>
    <nd ref="257361800"/>
    <nd ref="257361826"/>
    <nd ref="257361763"/>
    <nd ref="257361798"/>
    <nd ref="257361796"/>
    <nd ref="257361794"/>
    <nd ref="257361792"/>
    <nd ref="257361262"/>
    <nd ref="257361743"/>
    <nd ref="257361791"/>
    <nd ref="257361790"/>
    <nd ref="257361789"/>
    <nd ref="257361507"/>
    <tag k="highway" v="tertiary"/>
    <tag k="name" v="Jana Kilińskiego"/>
    <tag k="source" v="UMP-PL, ./UMP-Szczecin/src/TRZEBIATOW.ulice.txt"/>
  </way>
  <way id="23752887" version="1" timestamp="2008-04-13T13:33:42Z" uid="30632" user="antblant" changeset="130030">
    <nd ref="257361356"/>
    <nd ref="257361546"/>
    <tag k="created_by" v="JOSM"/>
    <tag k="highway" v="residential"/>
    <tag k="name" v="Kozia"/>
    <tag k="source" v="UMP-PL, ./UMP-Szczecin/src/TRZEBIATOW.ulice.txt"/>
  </way>
  <way id="23752887" version="2" timestamp="2009-11-03T13:48:36Z" uid="36809" user="pfoten_weg_!_" changeset="3023908">
    <nd ref="257361356"/>
    <nd ref="257361546"/>
    <tag k="highway" v="residential"/>
    <tag k="name" v="Kozia"/>
    <tag k="source" v="UMP-PL, ./UMP-Szczecin/src/TRZEBIATOW.ulice.txt"/>
  </way>
  <way id="23752888" version="1" timestamp="2008-04-13T13:33:43Z" uid="30632" user="antblant" changeset="130030">
    <nd ref="257361274"/>
    <nd ref="257361273"/>
    <nd ref="257361276"/>
    <nd ref="257361275"/>
    <nd ref="257361280"/>
    <nd ref="257361277"/>
    <tag k="created_by" v="JOSM"/>
    <tag k="highway" v="residential"/>
    <tag k="name" v="Morska"/>
    <tag k="source" v="UMP-PL, ./UMP-Szczecin/src/TRZEBIATOW.ulice.txt"/>
  </way>
  <way id="23752888" version="2" timestamp="2009-11-03T13:48:33Z" uid="36809" user="pfoten_weg_!_" changeset="3023908">
    <nd ref="257361274"/>
    <nd ref="257361273"/>
    <nd ref="257361276"/>
    <nd ref="257361275"/>
    <nd ref="257361280"/>
    <nd ref="257361277"/>
    <tag k="highway" v="residential"/>
    <tag k="name" v="Morska"/>
    <tag k="source" v="UMP-PL, ./UMP-Szczecin/src/TRZEBIATOW.ulice.txt"/>
  </way>
  <way id="23752889" version="1" timestamp="2008-04-13T13:33:43Z" uid="30632" user="antblant" changeset="130030">
    <nd ref="257361405"/>
    <nd ref="257361488"/>
    <tag k="created_by" v="JOSM"/>
    <tag k="highway" v="secondary"/>
    <tag k="name" v="Wincentego Witosa"/>
    <tag k="ref" v="102"/>
    <tag k="source" v="UMP-PL, ./UMP-Szczecin/src/TRZEBIATOW.ulice.txt"/>
  </way>
  <way id="23752889" version="3" timestamp="2009-11-03T13:48:11Z" uid="36809" user="pfoten_weg_!_" changeset="3023908">
    <nd ref="257361405"/>
    <nd ref="257361488"/>
    <tag k="highway" v="secondary"/>
    <tag k="name" v="Wincentego Witosa"/>
    <tag k="ref" v="102, 109"/>
    <tag k="source" v="UMP-PL, ./UMP-Szczecin/src/TRZEBIATOW.ulice.txt"/>
  </way>
  <way id="23752890" version="1" timestamp="2008-04-13T13:33:43Z" uid="30632" user="antblant" changeset="130030">
    <nd ref="257361560"/>
    <nd ref="257361739"/>
    <nd ref="257361742"/>
    <nd ref="257361741"/>
    <tag k="created_by" v="JOSM"/>
    <tag k="highway" v="residential"/>
    <tag k="name" v="Nowa"/>
    <tag k="source" v="UMP-PL, ./UMP-Szczecin/src/TRZEBIATOW.ulice.txt"/>
  </way>
  <way id="23752890" version="2" timestamp="2009-11-03T13:47:18Z" uid="36809" user="pfoten_weg_!_" changeset="3023908">
    <nd ref="257361560"/>
    <nd ref="257361739"/>
    <nd ref="257361742"/>
    <nd ref="257361741"/>
    <tag k="highway" v="residential"/>
    <tag k="name" v="Nowa"/>
    <tag k="source" v="UMP-PL, ./UMP-Szczecin/src/TRZEBIATOW.ulice.txt"/>
  </way>
  <way id="23752891" version="1" timestamp="2008-04-13T13:33:44Z" uid="30632" user="antblant" changeset="130030">
    <nd ref="257361284"/>
    <nd ref="257361283"/>
    <tag k="created_by" v="JOSM"/>
    <tag k="highway" v="tertiary"/>
    <tag k="name" v="Rynek"/>
    <tag k="source" v="UMP-PL, ./UMP-Szczecin/src/TRZEBIATOW.ulice.txt"/>
  </way>
  <way id="23752891" version="2" timestamp="2009-11-03T13:48:22Z" uid="36809" user="pfoten_weg_!_" changeset="3023908">
    <nd ref="257361284"/>
    <nd ref="257361283"/>
    <tag k="highway" v="tertiary"/>
    <tag k="name" v="Rynek"/>
    <tag k="source" v="UMP-PL, ./UMP-Szczecin/src/TRZEBIATOW.ulice.txt"/>
  </way>
  <way id="23752892" version="1" timestamp="2008-04-13T13:33:44Z" uid="30632" user="antblant" changeset="130030">
    <nd ref="257361534"/>
    <nd ref="257361582"/>
    <tag k="created_by" v="JOSM"/>
    <tag k="highway" v="residential"/>
    <tag k="name" v="Szkolna"/>
    <tag k="source" v="UMP-PL, ./UMP-Szczecin/src/TRZEBIATOW.ulice.txt"/>
  </way>
  <way id="23752892" version="2" timestamp="2009-11-03T13:48:30Z" uid="36809" user="pfoten_weg_!_" changeset="3023908">
    <nd ref="257361534"/>
    <nd ref="257361582"/>
    <tag k="highway" v="residential"/>
    <tag k="name" v="Szkolna"/>
    <tag k="source" v="UMP-PL, ./UMP-Szczecin/src/TRZEBIATOW.ulice.txt"/>
  </way>
  <way id="23752893" version="1" timestamp="2008-04-13T13:33:45Z" uid="30632" user="antblant" changeset="130030">
    <nd ref="257361782"/>
    <nd ref="257361785"/>
    <nd ref="257361786"/>
    <nd ref="257361787"/>
    <nd ref="257361776"/>
    <nd ref="257361779"/>
    <nd ref="257361780"/>
    <nd ref="257361781"/>
    <nd ref="257361557"/>
    <tag k="created_by" v="JOSM"/>
    <tag k="highway" v="residential"/>
    <tag k="name" v="Śluzowa"/>
    <tag k="source" v="UMP-PL, ./UMP-Szczecin/src/TRZEBIATOW.ulice.txt"/>
  </way>
  <way id="23752893" version="2" timestamp="2009-11-03T13:47:15Z" uid="36809" user="pfoten_weg_!_" changeset="3023908">
    <nd ref="257361782"/>
    <nd ref="257361785"/>
    <nd ref="257361786"/>
    <nd ref="257361787"/>
    <nd ref="257361776"/>
    <nd ref="257361779"/>
    <nd ref="257361780"/>
    <nd ref="257361781"/>
    <nd ref="257361557"/>
    <tag k="highway" v="residential"/>
    <tag k="name" v="Śluzowa"/>
    <tag k="source" v="UMP-PL, ./UMP-Szczecin/src/TRZEBIATOW.ulice.txt"/>
  </way>
  <way id="23752894" version="1" timestamp="2008-04-13T13:33:45Z" uid="30632" user="antblant" changeset="130030">
    <nd ref="257361287"/>
    <nd ref="257361285"/>
    <nd ref="257361306"/>
    <nd ref="257361295"/>
    <nd ref="257361356"/>
    <nd ref="257361332"/>
    <nd ref="257361283"/>
    <tag k="created_by" v="JOSM"/>
    <tag k="highway" v="secondary"/>
    <tag k="name" v="Juliusza Słowackiego"/>
    <tag k="ref" v="102"/>
    <tag k="source" v="UMP-PL, ./UMP-Szczecin/src/TRZEBIATOW.ulice.txt"/>
  </way>
  <way id="23752894" version="3" timestamp="2009-11-03T13:47:16Z" uid="36809" user="pfoten_weg_!_" changeset="3023908">
    <nd ref="257361287"/>
    <nd ref="257361285"/>
    <nd ref="257361306"/>
    <nd ref="257361295"/>
    <nd ref="257361356"/>
    <nd ref="257361332"/>
    <nd ref="257361283"/>
    <tag k="highway" v="secondary"/>
    <tag k="name" v="Juliusza Słowackiego"/>
    <tag k="ref" v="102, 109"/>
    <tag k="source" v="UMP-PL, ./UMP-Szczecin/src/TRZEBIATOW.ulice.txt"/>
  </way>
  <way id="23752895" version="1" timestamp="2008-04-13T13:33:46Z" uid="30632" user="antblant" changeset="130030">
    <nd ref="257361277"/>
    <nd ref="257361590"/>
    <nd ref="257361587"/>
    <nd ref="257361585"/>
    <nd ref="257361583"/>
    <tag k="created_by" v="JOSM"/>
    <tag k="highway" v="residential"/>
    <tag k="name" v="Białoboki"/>
    <tag k="source" v="UMP-PL, ./UMP-Szczecin/src/TRZEBIATOW.ulice.txt"/>
  </way>
  <way id="23752895" version="2" timestamp="2009-11-03T13:48:32Z" uid="36809" user="pfoten_weg_!_" changeset="3023908">
    <nd ref="257361277"/>
    <nd ref="257361590"/>
    <nd ref="257361587"/>
    <nd ref="257361585"/>
    <nd ref="257361583"/>
    <tag k="highway" v="residential"/>
    <tag k="name" v="Białoboki"/>
    <tag k="source" v="UMP-PL, ./UMP-Szczecin/src/TRZEBIATOW.ulice.txt"/>
  </way>
  <way id="23752898" version="1" timestamp="2008-04-13T13:33:46Z" uid="30632" user="antblant" changeset="130030">
    <nd ref="257361516"/>
    <nd ref="257361769"/>
    <nd ref="257361771"/>
    <nd ref="257361774"/>
    <nd ref="257361786"/>
    <tag k="created_by" v="JOSM"/>
    <tag k="highway" v="residential"/>
    <tag k="name" v="Nadbrzeżna"/>
    <tag k="source" v="UMP-PL, ./UMP-Szczecin/src/TRZEBIATOW.ulice.txt"/>
  </way>
  <way id="23752898" version="2" timestamp="2009-11-03T13:47:30Z" uid="36809" user="pfoten_weg_!_" changeset="3023908">
    <nd ref="257361516"/>
    <nd ref="257361769"/>
    <nd ref="257361771"/>
    <nd ref="257361774"/>
    <nd ref="257361786"/>
    <tag k="highway" v="residential"/>
    <tag k="name" v="Nadbrzeżna"/>
    <tag k="source" v="UMP-PL, ./UMP-Szczecin/src/TRZEBIATOW.ulice.txt"/>
  </way>
  <way id="23752900" version="1" timestamp="2008-04-13T13:33:46Z" uid="30632" user="antblant" changeset="130030">
    <nd ref="257361405"/>
    <nd ref="257361385"/>
    <tag k="created_by" v="JOSM"/>
    <tag k="highway" v="tertiary"/>
    <tag k="name" v="Rynek"/>
    <tag k="source" v="UMP-PL, ./UMP-Szczecin/src/TRZEBIATOW.ulice.txt"/>
  </way>
  <way id="23752900" version="2" timestamp="2009-11-03T13:48:00Z" uid="36809" user="pfoten_weg_!_" changeset="3023908">
    <nd ref="257361405"/>
    <nd ref="257361385"/>
    <tag k="highway" v="tertiary"/>
    <tag k="name" v="Rynek"/>
    <tag k="source" v="UMP-PL, ./UMP-Szczecin/src/TRZEBIATOW.ulice.txt"/>
  </way>
  <way id="23752901" version="1" timestamp="2008-04-13T13:33:47Z" uid="30632" user="antblant" changeset="130030">
    <nd ref="257361283"/>
    <nd ref="257361405"/>
    <tag k="created_by" v="JOSM"/>
    <tag k="highway" v="secondary"/>
    <tag k="name" v="Rynek"/>
    <tag k="ref" v="102"/>
    <tag k="source" v="UMP-PL, ./UMP-Szczecin/src/TRZEBIATOW.ulice.txt"/>
  </way>
  <way id="23752901" version="3" timestamp="2009-11-03T13:48:01Z" uid="36809" user="pfoten_weg_!_" changeset="3023908">
    <nd ref="257361283"/>
    <nd ref="257361405"/>
    <tag k="highway" v="secondary"/>
    <tag k="name" v="Rynek"/>
    <tag k="ref" v="102, 109"/>
    <tag k="source" v="UMP-PL, ./UMP-Szczecin/src/TRZEBIATOW.ulice.txt"/>
  </way>
  <way id="23752902" version="1" timestamp="2008-04-13T13:33:47Z" uid="30632" user="antblant" changeset="130030">
    <nd ref="257361769"/>
    <nd ref="257361775"/>
    <nd ref="257361761"/>
    <nd ref="257361762"/>
    <nd ref="257361776"/>
    <tag k="created_by" v="JOSM"/>
    <tag k="highway" v="residential"/>
    <tag k="name" v="Rybia"/>
    <tag k="source" v="UMP-PL, ./UMP-Szczecin/src/TRZEBIATOW.ulice.txt"/>
  </way>
  <way id="23752902" version="2" timestamp="2009-11-03T13:47:32Z" uid="36809" user="pfoten_weg_!_" changeset="3023908">
    <nd ref="257361769"/>
    <nd ref="257361775"/>
    <nd ref="257361761"/>
    <nd ref="257361762"/>
    <nd ref="257361776"/>
    <tag k="highway" v="residential"/>
    <tag k="name" v="Rybia"/>
    <tag k="source" v="UMP-PL, ./UMP-Szczecin/src/TRZEBIATOW.ulice.txt"/>
  </way>
  <way id="23752903" version="1" timestamp="2008-04-13T13:33:47Z" uid="30632" user="antblant" changeset="130030">
    <nd ref="257361471"/>
    <nd ref="257361488"/>
    <nd ref="257361424"/>
    <nd ref="257361447"/>
    <tag k="created_by" v="JOSM"/>
    <tag k="highway" v="secondary"/>
    <tag k="name" v="Tadeusza Kosciuszki"/>
    <tag k="ref" v="102"/>
    <tag k="source" v="UMP-PL, ./UMP-Szczecin/src/TRZEBIATOW.ulice.txt"/>
  </way>
  <way id="23752903" version="5" timestamp="2009-11-03T13:48:14Z" uid="36809" user="pfoten_weg_!_" changeset="3023908">
    <nd ref="257361471"/>
    <nd ref="257361488"/>
    <tag k="highway" v="secondary"/>
    <tag k="name" v="Tadeusza Kościuszki"/>
    <tag k="ref" v="102, 109"/>
    <tag k="source" v="UMP-PL, ./UMP-Szczecin/src/TRZEBIATOW.ulice.txt"/>
  </way>
  <way id="23752904" version="1" timestamp="2008-04-13T13:33:48Z" uid="30632" user="antblant" changeset="130030">
    <nd ref="257361306"/>
    <nd ref="257361535"/>
    <nd ref="257361536"/>
    <nd ref="257361537"/>
    <nd ref="257361546"/>
    <tag k="created_by" v="JOSM"/>
    <tag k="highway" v="residential"/>
    <tag k="name" v="Łukowa"/>
    <tag k="source" v="UMP-PL, ./UMP-Szczecin/src/TRZEBIATOW.ulice.txt"/>
  </way>
  <way id="23752904" version="2" timestamp="2009-11-03T13:48:44Z" uid="36809" user="pfoten_weg_!_" changeset="3023908">
    <nd ref="257361306"/>
    <nd ref="257361535"/>
    <nd ref="257361536"/>
    <nd ref="257361537"/>
    <nd ref="257361546"/>
    <tag k="highway" v="residential"/>
    <tag k="name" v="Łukowa"/>
    <tag k="source" v="UMP-PL, ./UMP-Szczecin/src/TRZEBIATOW.ulice.txt"/>
  </way>
  <way id="23752905" version="1" timestamp="2008-04-13T13:33:48Z" uid="30632" user="antblant" changeset="130030">
    <nd ref="257361717"/>
    <nd ref="257361916"/>
    <nd ref="257361914"/>
    <nd ref="257361716"/>
    <tag k="created_by" v="JOSM"/>
    <tag k="highway" v="residential"/>
    <tag k="name" v="Stefana Żeromskiego"/>
    <tag k="source" v="UMP-PL, ./UMP-Szczecin/src/TRZEBIATOW.ulice.txt"/>
  </way>
  <way id="23752905" version="2" timestamp="2009-11-03T13:49:07Z" uid="36809" user="pfoten_weg_!_" changeset="3023908">
    <nd ref="257361717"/>
    <nd ref="257361916"/>
    <nd ref="257361914"/>
    <nd ref="257361716"/>
    <tag k="highway" v="residential"/>
    <tag k="name" v="Stefana Żeromskiego"/>
    <tag k="source" v="UMP-PL, ./UMP-Szczecin/src/TRZEBIATOW.ulice.txt"/>
  </way>
  <way id="23752906" version="1" timestamp="2008-04-13T13:33:48Z" uid="30632" user="antblant" changeset="130030">
    <nd ref="257361560"/>
    <nd ref="257361782"/>
    <nd ref="257361895"/>
    <nd ref="257361893"/>
    <nd ref="257361287"/>
    <tag k="created_by" v="JOSM"/>
    <tag k="highway" v="secondary"/>
    <tag k="name" v="Mostowa"/>
    <tag k="ref" v="102"/>
    <tag k="source" v="UMP-PL, ./UMP-Szczecin/src/TRZEBIATOW.ulice.txt"/>
  </way>
  <way id="23752906" version="3" timestamp="2009-11-03T13:47:26Z" uid="36809" user="pfoten_weg_!_" changeset="3023908">
    <nd ref="257361560"/>
    <nd ref="257361782"/>
    <nd ref="257361895"/>
    <nd ref="257361893"/>
    <nd ref="257361287"/>
    <tag k="highway" v="secondary"/>
    <tag k="name" v="Mostowa"/>
    <tag k="ref" v="102, 109"/>
    <tag k="source" v="UMP-PL, ./UMP-Szczecin/src/TRZEBIATOW.ulice.txt"/>
  </way>
  <way id="23752907" version="1" timestamp="2008-04-13T13:33:49Z" uid="30632" user="antblant" changeset="130030">
    <nd ref="257361727"/>
    <nd ref="257361734"/>
    <nd ref="257361740"/>
    <tag k="created_by" v="JOSM"/>
    <tag k="highway" v="residential"/>
    <tag k="name" v="Rolnicza"/>
    <tag k="source" v="UMP-PL, ./UMP-Szczecin/src/TRZEBIATOW.ulice.txt"/>
  </way>
  <way id="23752907" version="2" timestamp="2009-11-03T13:49:19Z" uid="36809" user="pfoten_weg_!_" changeset="3023908">
    <nd ref="257361727"/>
    <nd ref="257361734"/>
    <nd ref="257361740"/>
    <tag k="highway" v="residential"/>
    <tag k="name" v="Rolnicza"/>
    <tag k="source" v="UMP-PL, ./UMP-Szczecin/src/TRZEBIATOW.ulice.txt"/>
  </way>
  <way id="23752908" version="1" timestamp="2008-04-13T13:33:49Z" uid="30632" user="antblant" changeset="130030">
    <nd ref="257361332"/>
    <nd ref="257361534"/>
    <tag k="created_by" v="JOSM"/>
    <tag k="highway" v="residential"/>
    <tag k="name" v="Jana Pawła II"/>
    <tag k="source" v="UMP-PL, ./UMP-Szczecin/src/TRZEBIATOW.ulice.txt"/>
  </way>
  <way id="23752908" version="2" timestamp="2009-11-03T13:47:27Z" uid="36809" user="pfoten_weg_!_" changeset="3023908">
    <nd ref="257361332"/>
    <nd ref="257361534"/>
    <tag k="highway" v="residential"/>
    <tag k="name" v="Jana Pawła II"/>
    <tag k="source" v="UMP-PL, ./UMP-Szczecin/src/TRZEBIATOW.ulice.txt"/>
  </way>
  <way id="23752909" version="1" timestamp="2008-04-13T13:33:49Z" uid="30632" user="antblant" changeset="130030">
    <nd ref="257361895"/>
    <nd ref="257361905"/>
    <nd ref="257361903"/>
    <nd ref="257361900"/>
    <tag k="created_by" v="JOSM"/>
    <tag k="highway" v="residential"/>
    <tag k="name" v="Strumykowa"/>
    <tag k="source" v="UMP-PL, ./UMP-Szczecin/src/TRZEBIATOW.ulice.txt"/>
  </way>
  <way id="23752909" version="2" timestamp="2009-11-03T13:47:29Z" uid="36809" user="pfoten_weg_!_" changeset="3023908">
    <nd ref="257361895"/>
    <nd ref="257361905"/>
    <nd ref="257361903"/>
    <nd ref="257361900"/>
    <tag k="highway" v="residential"/>
    <tag k="name" v="Strumykowa"/>
    <tag k="source" v="UMP-PL, ./UMP-Szczecin/src/TRZEBIATOW.ulice.txt"/>
  </way>
  <way id="23752910" version="1" timestamp="2008-04-13T13:33:50Z" uid="30632" user="antblant" changeset="130030">
    <nd ref="257361709"/>
    <nd ref="257361707"/>
    <tag k="created_by" v="JOSM"/>
    <tag k="highway" v="residential"/>
    <tag k="name" v="Adama Mickiewicza"/>
    <tag k="source" v="UMP-PL, ./UMP-Szczecin/src/TRZEBIATOW.ulice.txt"/>
  </way>
  <way id="23752910" version="2" timestamp="2009-11-03T13:47:39Z" uid="36809" user="pfoten_weg_!_" changeset="3023908">
    <nd ref="257361709"/>
    <nd ref="257361707"/>
    <tag k="highway" v="residential"/>
    <tag k="name" v="Adama Mickiewicza"/>
    <tag k="source" v="UMP-PL, ./UMP-Szczecin/src/TRZEBIATOW.ulice.txt"/>
  </way>
  <way id="23752911" version="1" timestamp="2008-04-13T13:33:50Z" uid="30632" user="antblant" changeset="130030">
    <nd ref="257361743"/>
    <nd ref="257361754"/>
    <nd ref="257361746"/>
    <nd ref="257361745"/>
    <nd ref="257361751"/>
    <nd ref="257361736"/>
    <tag k="created_by" v="JOSM"/>
    <tag k="highway" v="residential"/>
    <tag k="name" v="Małej Kolejki"/>
    <tag k="source" v="UMP-PL, ./UMP-Szczecin/src/TRZEBIATOW.ulice.txt"/>
  </way>
  <way id="23752911" version="2" timestamp="2009-11-03T13:49:10Z" uid="36809" user="pfoten_weg_!_" changeset="3023908">
    <nd ref="257361743"/>
    <nd ref="257361754"/>
    <nd ref="257361746"/>
    <nd ref="257361745"/>
    <nd ref="257361751"/>
    <nd ref="257361736"/>
    <tag k="highway" v="residential"/>
    <tag k="name" v="Małej Kolejki"/>
    <tag k="source" v="UMP-PL, ./UMP-Szczecin/src/TRZEBIATOW.ulice.txt"/>
  </way>
  <way id="23752912" version="1" timestamp="2008-04-13T13:33:51Z" uid="30632" user="antblant" changeset="130030">
    <nd ref="257361516"/>
    <nd ref="257361545"/>
    <nd ref="257361555"/>
    <nd ref="257361554"/>
    <nd ref="257361557"/>
    <nd ref="257361556"/>
    <nd ref="257361551"/>
    <nd ref="257361547"/>
    <tag k="created_by" v="JOSM"/>
    <tag k="highway" v="tertiary"/>
    <tag k="name" v="Dworcowa"/>
    <tag k="source" v="UMP-PL, ./UMP-Szczecin/src/TRZEBIATOW.ulice.txt"/>
  </way>
  <way id="23752912" version="2" timestamp="2009-11-03T13:47:22Z" uid="36809" user="pfoten_weg_!_" changeset="3023908">
    <nd ref="257361516"/>
    <nd ref="257361545"/>
    <nd ref="257361555"/>
    <nd ref="257361554"/>
    <nd ref="257361557"/>
    <nd ref="257361556"/>
    <nd ref="257361551"/>
    <nd ref="257361547"/>
    <tag k="highway" v="tertiary"/>
    <tag k="name" v="Dworcowa"/>
    <tag k="source" v="UMP-PL, ./UMP-Szczecin/src/TRZEBIATOW.ulice.txt"/>
  </way>
  <way id="23752913" version="1" timestamp="2008-04-13T13:33:51Z" uid="30632" user="antblant" changeset="130030">
    <nd ref="257361893"/>
    <nd ref="257361891"/>
    <nd ref="257361907"/>
    <tag k="created_by" v="JOSM"/>
    <tag k="highway" v="residential"/>
    <tag k="name" v="Mostowa"/>
    <tag k="source" v="UMP-PL, ./UMP-Szczecin/src/TRZEBIATOW.ulice.txt"/>
  </way>
  <way id="23752913" version="2" timestamp="2009-11-03T13:48:42Z" uid="36809" user="pfoten_weg_!_" changeset="3023908">
    <nd ref="257361893"/>
    <nd ref="257361891"/>
    <nd ref="257361907"/>
    <tag k="highway" v="residential"/>
    <tag k="name" v="Mostowa"/>
    <tag k="source" v="UMP-PL, ./UMP-Szczecin/src/TRZEBIATOW.ulice.txt"/>
  </way>
  <way id="23752914" version="1" timestamp="2008-04-13T13:33:52Z" uid="30632" user="antblant" changeset="130030">
    <nd ref="257361714"/>
    <nd ref="257361909"/>
    <nd ref="257361989"/>
    <nd ref="257361990"/>
    <tag k="created_by" v="JOSM"/>
    <tag k="highway" v="unclassified"/>
    <tag k="name" v="Osiedlowa"/>
    <tag k="source" v="UMP-PL, ./UMP-Szczecin/src/TRZEBIATOW.ulice.txt"/>
    <tag k="surface" v="unpaved"/>
  </way>
  <way id="23752914" version="2" timestamp="2009-11-03T13:49:05Z" uid="36809" user="pfoten_weg_!_" changeset="3023908">
    <nd ref="257361714"/>
    <nd ref="257361909"/>
    <nd ref="257361989"/>
    <nd ref="257361990"/>
    <tag k="highway" v="unclassified"/>
    <tag k="name" v="Osiedlowa"/>
    <tag k="source" v="UMP-PL, ./UMP-Szczecin/src/TRZEBIATOW.ulice.txt"/>
    <tag k="surface" v="unpaved"/>
  </way>
  <way id="23752915" version="1" timestamp="2008-04-13T13:33:52Z" uid="30632" user="antblant" changeset="130030">
    <nd ref="257361748"/>
    <nd ref="257361747"/>
    <nd ref="257361266"/>
    <nd ref="257361750"/>
    <nd ref="257361749"/>
    <nd ref="257361744"/>
    <tag k="created_by" v="JOSM"/>
    <tag k="highway" v="residential"/>
    <tag k="name" v="Dolna"/>
    <tag k="source" v="UMP-PL, ./UMP-Szczecin/src/TRZEBIATOW.ulice.txt"/>
  </way>
  <way id="23752915" version="2" timestamp="2009-11-03T13:49:01Z" uid="36809" user="pfoten_weg_!_" changeset="3023908">
    <nd ref="257361748"/>
    <nd ref="257361747"/>
    <nd ref="257361266"/>
    <nd ref="257361750"/>
    <nd ref="257361749"/>
    <nd ref="257361744"/>
    <tag k="highway" v="residential"/>
    <tag k="name" v="Dolna"/>
    <tag k="source" v="UMP-PL, ./UMP-Szczecin/src/TRZEBIATOW.ulice.txt"/>
  </way>
  <way id="23752916" version="1" timestamp="2008-04-13T13:33:52Z" uid="30632" user="antblant" changeset="130030">
    <nd ref="257361547"/>
    <nd ref="257361515"/>
    <nd ref="257361548"/>
    <nd ref="257361549"/>
    <nd ref="257361542"/>
    <nd ref="257361543"/>
    <nd ref="257361544"/>
    <tag k="created_by" v="JOSM"/>
    <tag k="highway" v="tertiary"/>
    <tag k="name" v="Torowa"/>
    <tag k="source" v="UMP-PL, ./UMP-Szczecin/src/TRZEBIATOW.ulice.txt"/>
  </way>
  <way id="23752916" version="2" timestamp="2009-11-03T13:47:24Z" uid="36809" user="pfoten_weg_!_" changeset="3023908">
    <nd ref="257361547"/>
    <nd ref="257361515"/>
    <nd ref="257361548"/>
    <nd ref="257361549"/>
    <nd ref="257361542"/>
    <nd ref="257361543"/>
    <nd ref="257361544"/>
    <tag k="highway" v="tertiary"/>
    <tag k="name" v="Torowa"/>
    <tag k="source" v="UMP-PL, ./UMP-Szczecin/src/TRZEBIATOW.ulice.txt"/>
  </way>
  <way id="23752919" version="1" timestamp="2008-04-13T13:33:53Z" uid="30632" user="antblant" changeset="130030">
    <nd ref="257361512"/>
    <nd ref="257361424"/>
    <tag k="created_by" v="JOSM"/>
    <tag k="highway" v="residential"/>
    <tag k="name" v="Lipowa"/>
    <tag k="source" v="UMP-PL, ./UMP-Szczecin/src/TRZEBIATOW.ulice.txt"/>
  </way>
  <way id="23752919" version="2" timestamp="2009-11-03T13:48:12Z" uid="36809" user="pfoten_weg_!_" changeset="3023908">
    <nd ref="257361512"/>
    <nd ref="257361424"/>
    <tag k="highway" v="residential"/>
    <tag k="name" v="Lipowa"/>
    <tag k="source" v="UMP-PL, ./UMP-Szczecin/src/TRZEBIATOW.ulice.txt"/>
  </way>
  <way id="23752921" version="1" timestamp="2008-04-13T13:33:53Z" uid="30632" user="antblant" changeset="130030">
    <nd ref="257361752"/>
    <nd ref="257361912"/>
    <nd ref="257361735"/>
    <tag k="created_by" v="JOSM"/>
    <tag k="highway" v="residential"/>
    <tag k="source" v="UMP-PL, ./UMP-Szczecin/src/TRZEBIATOW.ulice.txt"/>
  </way>
  <way id="23752921" version="2" timestamp="2009-11-03T13:48:54Z" uid="36809" user="pfoten_weg_!_" changeset="3023908">
    <nd ref="257361752"/>
    <nd ref="257361912"/>
    <nd ref="257361735"/>
    <tag k="highway" v="residential"/>
    <tag k="source" v="UMP-PL, ./UMP-Szczecin/src/TRZEBIATOW.ulice.txt"/>
  </way>
  <way id="23752922" version="1" timestamp="2008-04-13T13:33:53Z" uid="30632" user="antblant" changeset="130030">
    <nd ref="257361760"/>
    <nd ref="257361754"/>
    <nd ref="257361264"/>
    <tag k="created_by" v="JOSM"/>
    <tag k="highway" v="residential"/>
    <tag k="name" v="Środkowa"/>
    <tag k="source" v="UMP-PL, ./UMP-Szczecin/src/TRZEBIATOW.ulice.txt"/>
  </way>
  <way id="23752922" version="2" timestamp="2009-11-03T13:48:52Z" uid="36809" user="pfoten_weg_!_" changeset="3023908">
    <nd ref="257361760"/>
    <nd ref="257361754"/>
    <nd ref="257361264"/>
    <tag k="highway" v="residential"/>
    <tag k="name" v="Środkowa"/>
    <tag k="source" v="UMP-PL, ./UMP-Szczecin/src/TRZEBIATOW.ulice.txt"/>
  </way>
  <way id="23752924" version="1" timestamp="2008-04-13T13:33:54Z" uid="30632" user="antblant" changeset="130030">
    <nd ref="257361572"/>
    <nd ref="257361272"/>
    <nd ref="257361573"/>
    <nd ref="257361570"/>
    <nd ref="257361571"/>
    <nd ref="257361568"/>
    <nd ref="257361563"/>
    <tag k="created_by" v="JOSM"/>
    <tag k="highway" v="residential"/>
    <tag k="name" v="Słoneczna"/>
    <tag k="source" v="UMP-PL, ./UMP-Szczecin/src/TRZEBIATOW.ulice.txt"/>
  </way>
  <way id="23752924" version="2" timestamp="2009-11-03T13:44:53Z" uid="36809" user="pfoten_weg_!_" changeset="3023908">
    <nd ref="257361572"/>
    <nd ref="257361272"/>
    <nd ref="257361573"/>
    <nd ref="257361570"/>
    <nd ref="257361571"/>
    <nd ref="257361568"/>
    <nd ref="257361563"/>
    <tag k="highway" v="residential"/>
    <tag k="name" v="Słoneczna"/>
    <tag k="source" v="UMP-PL, ./UMP-Szczecin/src/TRZEBIATOW.ulice.txt"/>
  </way>
  <way id="23752925" version="1" timestamp="2008-04-13T13:33:54Z" uid="30632" user="antblant" changeset="130030">
    <nd ref="257361720"/>
    <nd ref="257361752"/>
    <nd ref="257361751"/>
    <tag k="created_by" v="JOSM"/>
    <tag k="highway" v="residential"/>
    <tag k="name" v="3 Maja"/>
    <tag k="source" v="UMP-PL, ./UMP-Szczecin/src/TRZEBIATOW.ulice.txt"/>
  </way>
  <way id="23752925" version="2" timestamp="2009-11-03T13:48:59Z" uid="36809" user="pfoten_weg_!_" changeset="3023908">
    <nd ref="257361720"/>
    <nd ref="257361752"/>
    <nd ref="257361751"/>
    <tag k="highway" v="residential"/>
    <tag k="name" v="3 Maja"/>
    <tag k="source" v="UMP-PL, ./UMP-Szczecin/src/TRZEBIATOW.ulice.txt"/>
  </way>
  <way id="23752926" version="1" timestamp="2008-04-13T13:33:54Z" uid="30632" user="antblant" changeset="130030">
    <nd ref="257361548"/>
    <nd ref="257362006"/>
    <nd ref="257362007"/>
    <nd ref="257362008"/>
    <tag k="created_by" v="JOSM"/>
    <tag k="highway" v="residential"/>
    <tag k="name" v="Rzeźnicka"/>
    <tag k="source" v="UMP-PL, ./UMP-Szczecin/src/TRZEBIATOW.ulice.txt"/>
  </way>
  <way id="23752926" version="2" timestamp="2009-11-03T13:48:56Z" uid="36809" user="pfoten_weg_!_" changeset="3023908">
    <nd ref="257361548"/>
    <nd ref="257362006"/>
    <nd ref="257362007"/>
    <nd ref="257362008"/>
    <tag k="highway" v="residential"/>
    <tag k="name" v="Rzeźnicka"/>
    <tag k="source" v="UMP-PL, ./UMP-Szczecin/src/TRZEBIATOW.ulice.txt"/>
  </way>
  <way id="23752927" version="1" timestamp="2008-04-13T13:33:55Z" uid="30632" user="antblant" changeset="130030">
    <nd ref="257361941"/>
    <nd ref="257361944"/>
    <nd ref="257361937"/>
    <nd ref="257361939"/>
    <tag k="created_by" v="JOSM"/>
    <tag k="highway" v="residential"/>
    <tag k="name" v="Wąska"/>
    <tag k="source" v="UMP-PL, ./UMP-Szczecin/src/TRZEBIATOW.ulice.txt"/>
  </way>
  <way id="23752927" version="2" timestamp="2009-11-03T13:48:00Z" uid="36809" user="pfoten_weg_!_" changeset="3023908">
    <nd ref="257361941"/>
    <nd ref="257361944"/>
    <nd ref="257361937"/>
    <nd ref="257361939"/>
    <tag k="highway" v="residential"/>
    <tag k="name" v="Wąska"/>
    <tag k="source" v="UMP-PL, ./UMP-Szczecin/src/TRZEBIATOW.ulice.txt"/>
  </way>
  <way id="23752928" version="1" timestamp="2008-04-13T13:33:55Z" uid="30632" user="antblant" changeset="130030">
    <nd ref="257361550"/>
    <nd ref="257361553"/>
    <nd ref="257361552"/>
    <nd ref="257361563"/>
    <nd ref="257361562"/>
    <nd ref="257361489"/>
    <nd ref="257361565"/>
    <nd ref="257361564"/>
    <nd ref="257361559"/>
    <nd ref="257361558"/>
    <nd ref="257361544"/>
    <nd ref="257361561"/>
    <nd ref="257361560"/>
    <tag k="created_by" v="JOSM"/>
    <tag k="highway" v="secondary"/>
    <tag k="name" v="Kołobrzeska"/>
    <tag k="ref" v="102"/>
    <tag k="source" v="UMP-PL, ./UMP-Szczecin/src/TRZEBIATOW.ulice.txt"/>
  </way>
  <way id="23752928" version="2" timestamp="2008-04-13T13:35:04Z" uid="30632" user="antblant" changeset="130030">
    <nd ref="254712785"/>
    <nd ref="257361553"/>
    <nd ref="257361552"/>
    <nd ref="257361563"/>
    <nd ref="257361562"/>
    <nd ref="257361489"/>
    <nd ref="257361565"/>
    <nd ref="257361564"/>
    <nd ref="257361559"/>
    <nd ref="257361558"/>
    <nd ref="257361544"/>
    <nd ref="257361561"/>
    <nd ref="257361560"/>
    <tag k="created_by" v="Potlatch 0.8a"/>
    <tag k="highway" v="secondary"/>
    <tag k="name" v="Kołobrzeska"/>
    <tag k="ref" v="102"/>
    <tag k="source" v="UMP-PL, ./UMP-Szczecin/src/TRZEBIATOW.ulice.txt"/>
  </way>
  <way id="23752928" version="3" timestamp="2009-11-03T13:44:55Z" uid="36809" user="pfoten_weg_!_" changeset="3023908">
    <nd ref="254712785"/>
    <nd ref="257361553"/>
    <nd ref="257361552"/>
    <nd ref="257361563"/>
    <nd ref="257361562"/>
    <nd ref="257361489"/>
    <nd ref="257361565"/>
    <nd ref="257361564"/>
    <nd ref="257361559"/>
    <nd ref="257361558"/>
    <nd ref="257361544"/>
    <nd ref="257361561"/>
    <nd ref="257361560"/>
    <tag k="highway" v="secondary"/>
    <tag k="name" v="Kołobrzeska"/>
    <tag k="ref" v="102"/>
    <tag k="source" v="UMP-PL, ./UMP-Szczecin/src/TRZEBIATOW.ulice.txt"/>
  </way>
  <way id="23752929" version="1" timestamp="2008-04-13T13:33:55Z" uid="30632" user="antblant" changeset="130030">
    <nd ref="257361737"/>
    <nd ref="257361717"/>
    <nd ref="257361715"/>
    <tag k="created_by" v="JOSM"/>
    <tag k="highway" v="residential"/>
    <tag k="name" v="Mariana Buczka"/>
    <tag k="source" v="UMP-PL, ./UMP-Szczecin/src/TRZEBIATOW.ulice.txt"/>
  </way>
  <way id="23752929" version="2" timestamp="2009-11-03T13:49:11Z" uid="36809" user="pfoten_weg_!_" changeset="3023908">
    <nd ref="257361737"/>
    <nd ref="257361717"/>
    <nd ref="257361715"/>
    <tag k="highway" v="residential"/>
    <tag k="name" v="Mariana Buczka"/>
    <tag k="source" v="UMP-PL, ./UMP-Szczecin/src/TRZEBIATOW.ulice.txt"/>
  </way>
  <way id="23752930" version="1" timestamp="2008-04-13T13:33:56Z" uid="30632" user="antblant" changeset="130030">
    <nd ref="257361272"/>
    <nd ref="257361991"/>
    <nd ref="257362002"/>
    <nd ref="257362003"/>
    <nd ref="257362004"/>
    <nd ref="257362005"/>
    <tag k="created_by" v="JOSM"/>
    <tag k="highway" v="unclassified"/>
    <tag k="name" v="Radosna"/>
    <tag k="source" v="UMP-PL, ./UMP-Szczecin/src/TRZEBIATOW.ulice.txt"/>
    <tag k="surface" v="unpaved"/>
  </way>
  <way id="23752930" version="2" timestamp="2009-11-03T13:45:00Z" uid="36809" user="pfoten_weg_!_" changeset="3023908">
    <nd ref="257361272"/>
    <nd ref="257361991"/>
    <nd ref="257362002"/>
    <nd ref="257362003"/>
    <nd ref="257362004"/>
    <nd ref="257362005"/>
    <tag k="highway" v="unclassified"/>
    <tag k="name" v="Radosna"/>
    <tag k="source" v="UMP-PL, ./UMP-Szczecin/src/TRZEBIATOW.ulice.txt"/>
    <tag k="surface" v="unpaved"/>
  </way>
  <way id="23752931" version="1" timestamp="2008-04-13T13:33:56Z" uid="30632" user="antblant" changeset="130030">
    <nd ref="257361941"/>
    <nd ref="257361948"/>
    <nd ref="257361889"/>
    <nd ref="257361886"/>
    <nd ref="257361694"/>
    <tag k="created_by" v="JOSM"/>
    <tag k="highway" v="residential"/>
    <tag k="name" v="Wąska"/>
    <tag k="source" v="UMP-PL, ./UMP-Szczecin/src/TRZEBIATOW.ulice.txt"/>
  </way>
  <way id="23752931" version="2" timestamp="2009-11-03T13:48:04Z" uid="36809" user="pfoten_weg_!_" changeset="3023908">
    <nd ref="257361941"/>
    <nd ref="257361948"/>
    <nd ref="257361889"/>
    <nd ref="257361886"/>
    <nd ref="257361694"/>
    <tag k="highway" v="residential"/>
    <tag k="name" v="Wąska"/>
    <tag k="source" v="UMP-PL, ./UMP-Szczecin/src/TRZEBIATOW.ulice.txt"/>
  </way>
  <way id="23752932" version="1" timestamp="2008-04-13T13:33:57Z" uid="30632" user="antblant" changeset="130030">
    <nd ref="257361575"/>
    <nd ref="257361597"/>
    <nd ref="257361594"/>
    <nd ref="257361592"/>
    <nd ref="257361274"/>
    <nd ref="257361569"/>
    <tag k="created_by" v="JOSM"/>
    <tag k="highway" v="secondary"/>
    <tag k="name" v="Połwiejska"/>
    <tag k="ref" v="109"/>
    <tag k="source" v="UMP-PL, ./UMP-Szczecin/src/TRZEBIATOW.ulice.txt"/>
  </way>
  <way id="23752932" version="2" timestamp="2008-11-05T01:12:23Z" uid="30632" user="antblant" changeset="687931">
    <nd ref="257361575"/>
    <nd ref="257361597"/>
    <nd ref="257361594"/>
    <nd ref="257361592"/>
    <nd ref="257361274"/>
    <nd ref="257361569"/>
    <tag k="created_by" v="Potlatch 0.10f"/>
    <tag k="highway" v="secondary"/>
    <tag k="name" v="Półwiejska"/>
    <tag k="ref" v="109"/>
    <tag k="source" v="UMP-PL, ./UMP-Szczecin/src/TRZEBIATOW.ulice.txt"/>
  </way>
  <way id="23752932" version="3" timestamp="2009-11-03T13:48:46Z" uid="36809" user="pfoten_weg_!_" changeset="3023908">
    <nd ref="257361575"/>
    <nd ref="257361597"/>
    <nd ref="257361594"/>
    <nd ref="257361592"/>
    <nd ref="257361274"/>
    <nd ref="257361569"/>
    <tag k="highway" v="secondary"/>
    <tag k="name" v="Półwiejska"/>
    <tag k="ref" v="109"/>
    <tag k="source" v="UMP-PL, ./UMP-Szczecin/src/TRZEBIATOW.ulice.txt"/>
  </way>
  <way id="23752933" version="1" timestamp="2008-04-13T13:33:57Z" uid="30632" user="antblant" changeset="130030">
    <nd ref="257361506"/>
    <nd ref="257361715"/>
    <nd ref="257361712"/>
    <nd ref="257361713"/>
    <nd ref="257361718"/>
    <nd ref="257361720"/>
    <nd ref="257361716"/>
    <nd ref="257361738"/>
    <tag k="created_by" v="JOSM"/>
    <tag k="highway" v="residential"/>
    <tag k="name" v="Krolowej Jadwigi"/>
    <tag k="source" v="UMP-PL, ./UMP-Szczecin/src/TRZEBIATOW.ulice.txt"/>
  </way>
  <way id="23752933" version="3" timestamp="2009-11-03T13:49:13Z" uid="36809" user="pfoten_weg_!_" changeset="3023908">
    <nd ref="257361506"/>
    <nd ref="257361715"/>
    <nd ref="257361712"/>
    <nd ref="257361713"/>
    <nd ref="257361718"/>
    <nd ref="257361720"/>
    <nd ref="257361716"/>
    <nd ref="257361738"/>
    <tag k="highway" v="residential"/>
    <tag k="name" v="Królowej Jadwigi"/>
    <tag k="source" v="UMP-PL, ./UMP-Szczecin/src/TRZEBIATOW.ulice.txt"/>
  </way>
  <way id="23752934" version="1" timestamp="2008-04-13T13:33:57Z" uid="30632" user="antblant" changeset="130030">
    <nd ref="257361882"/>
    <nd ref="257361898"/>
    <nd ref="257361946"/>
    <nd ref="257361447"/>
    <tag k="created_by" v="JOSM"/>
    <tag k="highway" v="residential"/>
    <tag k="name" v="Pietruszkowa"/>
    <tag k="source" v="UMP-PL, ./UMP-Szczecin/src/TRZEBIATOW.ulice.txt"/>
  </way>
  <way id="23752934" version="2" timestamp="2009-11-03T13:48:18Z" uid="36809" user="pfoten_weg_!_" changeset="3023908">
    <nd ref="257361882"/>
    <nd ref="257361898"/>
    <nd ref="257361946"/>
    <nd ref="257361447"/>
    <tag k="highway" v="residential"/>
    <tag k="name" v="Pietruszkowa"/>
    <tag k="source" v="UMP-PL, ./UMP-Szczecin/src/TRZEBIATOW.ulice.txt"/>
  </way>
  <way id="23752935" version="1" timestamp="2008-04-13T13:33:58Z" uid="30632" user="antblant" changeset="130030">
    <nd ref="257361707"/>
    <nd ref="257362017"/>
    <nd ref="257361957"/>
    <nd ref="257361632"/>
    <tag k="created_by" v="JOSM"/>
    <tag k="highway" v="residential"/>
    <tag k="name" v="Adama Mickiewicza"/>
    <tag k="source" v="UMP-PL, ./UMP-Szczecin/src/TRZEBIATOW.ulice.txt"/>
  </way>
  <way id="23752935" version="2" timestamp="2009-11-03T13:47:44Z" uid="36809" user="pfoten_weg_!_" changeset="3023908">
    <nd ref="257361707"/>
    <nd ref="257362017"/>
    <nd ref="257361957"/>
    <nd ref="257361632"/>
    <tag k="highway" v="residential"/>
    <tag k="name" v="Adama Mickiewicza"/>
    <tag k="source" v="UMP-PL, ./UMP-Szczecin/src/TRZEBIATOW.ulice.txt"/>
  </way>
  <way id="23752936" version="1" timestamp="2008-04-13T13:33:58Z" uid="30632" user="antblant" changeset="130030">
    <nd ref="257361569"/>
    <nd ref="257361566"/>
    <nd ref="257361567"/>
    <nd ref="257361580"/>
    <nd ref="257361581"/>
    <nd ref="257361578"/>
    <nd ref="257361579"/>
    <nd ref="257361576"/>
    <nd ref="257361577"/>
    <nd ref="257361574"/>
    <nd ref="257361560"/>
    <tag k="created_by" v="JOSM"/>
    <tag k="highway" v="secondary"/>
    <tag k="name" v="Podmiejska"/>
    <tag k="ref" v="109"/>
    <tag k="source" v="UMP-PL, ./UMP-Szczecin/src/TRZEBIATOW.ulice.txt"/>
  </way>
  <way id="23752936" version="2" timestamp="2008-04-13T13:36:08Z" uid="30632" user="antblant" changeset="130030">
    <nd ref="257361569"/>
    <nd ref="257361566"/>
    <nd ref="257361567"/>
    <nd ref="257361580"/>
    <nd ref="257361581"/>
    <nd ref="257361578"/>
    <nd ref="257361579"/>
    <nd ref="257361576"/>
    <nd ref="257361577"/>
    <nd ref="257361574"/>
    <nd ref="257361560"/>
    <tag k="created_by" v="Potlatch 0.8a"/>
    <tag k="highway" v="secondary"/>
    <tag k="name" v="Podmiejska"/>
    <tag k="ref" v="109"/>
    <tag k="source" v="UMP-PL, ./UMP-Szczecin/src/TRZEBIATOW.ulice.txt"/>
  </way>
  <way id="23752936" version="3" timestamp="2009-11-03T13:47:32Z" uid="36809" user="pfoten_weg_!_" changeset="3023908">
    <nd ref="257361569"/>
    <nd ref="257361566"/>
    <nd ref="257361567"/>
    <nd ref="257361580"/>
    <nd ref="257361581"/>
    <nd ref="257361578"/>
    <nd ref="257361579"/>
    <nd ref="257361576"/>
    <nd ref="257361577"/>
    <nd ref="257361574"/>
    <nd ref="257361560"/>
    <tag k="highway" v="secondary"/>
    <tag k="name" v="Podmiejska"/>
    <tag k="ref" v="109"/>
    <tag k="source" v="UMP-PL, ./UMP-Szczecin/src/TRZEBIATOW.ulice.txt"/>
  </way>
  <way id="23752937" version="1" timestamp="2008-04-13T13:33:58Z" uid="30632" user="antblant" changeset="130030">
    <nd ref="257361489"/>
    <nd ref="257361737"/>
    <nd ref="257361738"/>
    <nd ref="257361735"/>
    <nd ref="257361736"/>
    <nd ref="257361714"/>
    <nd ref="257361268"/>
    <tag k="created_by" v="JOSM"/>
    <tag k="highway" v="residential"/>
    <tag k="name" v="Jana Kasprowicza"/>
    <tag k="source" v="UMP-PL, ./UMP-Szczecin/src/TRZEBIATOW.ulice.txt"/>
  </way>
  <way id="23752937" version="2" timestamp="2009-11-03T13:47:34Z" uid="36809" user="pfoten_weg_!_" changeset="3023908">
    <nd ref="257361489"/>
    <nd ref="257361737"/>
    <nd ref="257361738"/>
    <nd ref="257361735"/>
    <nd ref="257361736"/>
    <nd ref="257361714"/>
    <nd ref="257361268"/>
    <tag k="highway" v="residential"/>
    <tag k="name" v="Jana Kasprowicza"/>
    <tag k="source" v="UMP-PL, ./UMP-Szczecin/src/TRZEBIATOW.ulice.txt"/>
  </way>
  <way id="23752938" version="1" timestamp="2008-04-13T13:33:59Z" uid="30632" user="antblant" changeset="130030">
    <nd ref="257361695"/>
    <nd ref="257361884"/>
    <nd ref="257361696"/>
    <nd ref="257361882"/>
    <tag k="created_by" v="JOSM"/>
    <tag k="highway" v="residential"/>
    <tag k="name" v="Żołwia"/>
    <tag k="source" v="UMP-PL, ./UMP-Szczecin/src/TRZEBIATOW.ulice.txt"/>
  </way>
  <way id="23752938" version="2" timestamp="2008-11-17T14:28:09Z" uid="30632" user="antblant" changeset="761717">
    <nd ref="257361695"/>
    <nd ref="257361884"/>
    <nd ref="257361696"/>
    <nd ref="257361882"/>
    <tag k="created_by" v="Potlatch 0.10f"/>
    <tag k="highway" v="residential"/>
    <tag k="name" v="Żółwia"/>
    <tag k="source" v="UMP-PL, ./UMP-Szczecin/src/TRZEBIATOW.ulice.txt"/>
  </way>
  <way id="23752938" version="3" timestamp="2009-11-03T13:48:03Z" uid="36809" user="pfoten_weg_!_" changeset="3023908">
    <nd ref="257361695"/>
    <nd ref="257361884"/>
    <nd ref="257361696"/>
    <nd ref="257361882"/>
    <tag k="highway" v="residential"/>
    <tag k="name" v="Żółwia"/>
    <tag k="source" v="UMP-PL, ./UMP-Szczecin/src/TRZEBIATOW.ulice.txt"/>
  </way>
  <way id="23752939" version="1" timestamp="2008-04-13T13:33:59Z" uid="30632" user="antblant" changeset="130030">
    <nd ref="257361882"/>
    <nd ref="257362009"/>
    <nd ref="257362010"/>
    <nd ref="257362011"/>
    <nd ref="257362012"/>
    <nd ref="257362016"/>
    <nd ref="257361706"/>
    <nd ref="257361670"/>
    <tag k="created_by" v="JOSM"/>
    <tag k="highway" v="residential"/>
    <tag k="name" v="Ludwika Waryńskiego"/>
    <tag k="source" v="UMP-PL, ./UMP-Szczecin/src/TRZEBIATOW.ulice.txt"/>
  </way>
  <way id="23752939" version="2" timestamp="2009-11-03T13:47:42Z" uid="36809" user="pfoten_weg_!_" changeset="3023908">
    <nd ref="257361882"/>
    <nd ref="257362009"/>
    <nd ref="257362010"/>
    <nd ref="257362011"/>
    <nd ref="257362012"/>
    <nd ref="257362016"/>
    <nd ref="257361706"/>
    <nd ref="257361670"/>
    <tag k="highway" v="residential"/>
    <tag k="name" v="Ludwika Waryńskiego"/>
    <tag k="source" v="UMP-PL, ./UMP-Szczecin/src/TRZEBIATOW.ulice.txt"/>
  </way>
  <way id="23752940" version="1" timestamp="2008-04-13T13:33:59Z" uid="30632" user="antblant" changeset="130030">
    <nd ref="257361702"/>
    <nd ref="257361961"/>
    <nd ref="257361630"/>
    <tag k="created_by" v="JOSM"/>
    <tag k="highway" v="residential"/>
    <tag k="name" v="Cicha"/>
    <tag k="source" v="UMP-PL, ./UMP-Szczecin/src/TRZEBIATOW.ulice.txt"/>
  </way>
  <way id="23752940" version="2" timestamp="2009-11-03T13:47:43Z" uid="36809" user="pfoten_weg_!_" changeset="3023908">
    <nd ref="257361702"/>
    <nd ref="257361961"/>
    <nd ref="257361630"/>
    <tag k="highway" v="residential"/>
    <tag k="name" v="Cicha"/>
    <tag k="source" v="UMP-PL, ./UMP-Szczecin/src/TRZEBIATOW.ulice.txt"/>
  </way>
  <way id="23752941" version="1" timestamp="2008-04-13T13:34:00Z" uid="30632" user="antblant" changeset="130030">
    <nd ref="257361517"/>
    <nd ref="257361939"/>
    <tag k="created_by" v="JOSM"/>
    <tag k="highway" v="residential"/>
    <tag k="name" v="Wąska"/>
    <tag k="source" v="UMP-PL, ./UMP-Szczecin/src/TRZEBIATOW.ulice.txt"/>
  </way>
  <way id="23752941" version="2" timestamp="2009-11-03T13:48:26Z" uid="36809" user="pfoten_weg_!_" changeset="3023908">
    <nd ref="257361517"/>
    <nd ref="257361939"/>
    <tag k="highway" v="residential"/>
    <tag k="name" v="Wąska"/>
    <tag k="source" v="UMP-PL, ./UMP-Szczecin/src/TRZEBIATOW.ulice.txt"/>
  </way>
  <way id="23752942" version="1" timestamp="2008-04-13T13:34:00Z" uid="30632" user="antblant" changeset="130030">
    <nd ref="257361700"/>
    <nd ref="257361727"/>
    <tag k="created_by" v="JOSM"/>
    <tag k="highway" v="residential"/>
    <tag k="name" v="Piaskowa"/>
    <tag k="source" v="UMP-PL, ./UMP-Szczecin/src/TRZEBIATOW.ulice.txt"/>
  </way>
  <way id="23752942" version="2" timestamp="2009-11-03T13:49:24Z" uid="36809" user="pfoten_weg_!_" changeset="3023908">
    <nd ref="257361700"/>
    <nd ref="257361727"/>
    <tag k="highway" v="residential"/>
    <tag k="name" v="Piaskowa"/>
    <tag k="source" v="UMP-PL, ./UMP-Szczecin/src/TRZEBIATOW.ulice.txt"/>
  </way>
  <way id="23752943" version="1" timestamp="2008-04-13T13:34:01Z" uid="30632" user="antblant" changeset="130030">
    <nd ref="257361259"/>
    <nd ref="257361529"/>
    <nd ref="257361528"/>
    <tag k="created_by" v="JOSM"/>
    <tag k="highway" v="residential"/>
    <tag k="name" v="Władysława Jagiełły"/>
    <tag k="source" v="UMP-PL, ./UMP-Szczecin/src/TRZEBIATOW.ulice.txt"/>
  </way>
  <way id="23752943" version="2" timestamp="2009-11-03T13:47:43Z" uid="36809" user="pfoten_weg_!_" changeset="3023908">
    <nd ref="257361259"/>
    <nd ref="257361529"/>
    <nd ref="257361528"/>
    <tag k="highway" v="residential"/>
    <tag k="name" v="Władysława Jagiełły"/>
    <tag k="source" v="UMP-PL, ./UMP-Szczecin/src/TRZEBIATOW.ulice.txt"/>
  </way>
  <way id="23752944" version="1" timestamp="2008-04-13T13:34:01Z" uid="30632" user="antblant" changeset="130030">
    <nd ref="257361672"/>
    <nd ref="257361955"/>
    <tag k="created_by" v="JOSM"/>
    <tag k="highway" v="unclassified"/>
    <tag k="name" v="Leśna"/>
    <tag k="source" v="UMP-PL, ./UMP-Szczecin/src/TRZEBIATOW.ulice.txt"/>
    <tag k="surface" v="unpaved"/>
  </way>
  <way id="23752944" version="2" timestamp="2009-11-03T13:47:53Z" uid="36809" user="pfoten_weg_!_" changeset="3023908">
    <nd ref="257361672"/>
    <nd ref="257361955"/>
    <tag k="highway" v="unclassified"/>
    <tag k="name" v="Leśna"/>
    <tag k="source" v="UMP-PL, ./UMP-Szczecin/src/TRZEBIATOW.ulice.txt"/>
    <tag k="surface" v="unpaved"/>
  </way>
  <way id="23752945" version="1" timestamp="2008-04-13T13:34:01Z" uid="30632" user="antblant" changeset="130030">
    <nd ref="257361488"/>
    <nd ref="257361953"/>
    <tag k="created_by" v="JOSM"/>
    <tag k="highway" v="residential"/>
    <tag k="name" v="Wincentego Witosa"/>
    <tag k="source" v="UMP-PL, ./UMP-Szczecin/src/TRZEBIATOW.ulice.txt"/>
  </way>
  <way id="23752945" version="2" timestamp="2009-11-03T13:48:16Z" uid="36809" user="pfoten_weg_!_" changeset="3023908">
    <nd ref="257361488"/>
    <nd ref="257361953"/>
    <tag k="highway" v="residential"/>
    <tag k="name" v="Wincentego Witosa"/>
    <tag k="source" v="UMP-PL, ./UMP-Szczecin/src/TRZEBIATOW.ulice.txt"/>
  </way>
  <way id="23752946" version="1" timestamp="2008-04-13T13:34:02Z" uid="30632" user="antblant" changeset="130030">
    <nd ref="257361701"/>
    <nd ref="257361726"/>
    <tag k="created_by" v="JOSM"/>
    <tag k="highway" v="residential"/>
    <tag k="name" v="Wiejska"/>
    <tag k="source" v="UMP-PL, ./UMP-Szczecin/src/TRZEBIATOW.ulice.txt"/>
  </way>
  <way id="23752946" version="2" timestamp="2009-11-03T13:49:21Z" uid="36809" user="pfoten_weg_!_" changeset="3023908">
    <nd ref="257361701"/>
    <nd ref="257361726"/>
    <tag k="highway" v="residential"/>
    <tag k="name" v="Wiejska"/>
    <tag k="source" v="UMP-PL, ./UMP-Szczecin/src/TRZEBIATOW.ulice.txt"/>
  </way>
  <way id="23752947" version="1" timestamp="2008-04-13T13:34:02Z" uid="30632" user="antblant" changeset="130030">
    <nd ref="257361524"/>
    <nd ref="257361519"/>
    <nd ref="257361518"/>
    <tag k="created_by" v="JOSM"/>
    <tag k="highway" v="residential"/>
    <tag k="name" v="Łąkowa"/>
    <tag k="source" v="UMP-PL, ./UMP-Szczecin/src/TRZEBIATOW.ulice.txt"/>
  </way>
  <way id="23752947" version="2" timestamp="2009-11-03T13:47:09Z" uid="36809" user="pfoten_weg_!_" changeset="3023908">
    <nd ref="257361524"/>
    <nd ref="257361519"/>
    <nd ref="257361518"/>
    <tag k="highway" v="residential"/>
    <tag k="name" v="Łąkowa"/>
    <tag k="source" v="UMP-PL, ./UMP-Szczecin/src/TRZEBIATOW.ulice.txt"/>
  </way>
  <way id="23752948" version="1" timestamp="2008-04-13T13:34:02Z" uid="30632" user="antblant" changeset="130030">
    <nd ref="257361953"/>
    <nd ref="257361694"/>
    <tag k="created_by" v="JOSM"/>
    <tag k="highway" v="residential"/>
    <tag k="name" v="Wąska"/>
    <tag k="source" v="UMP-PL, ./UMP-Szczecin/src/TRZEBIATOW.ulice.txt"/>
  </way>
  <way id="23752948" version="2" timestamp="2009-11-03T13:48:17Z" uid="36809" user="pfoten_weg_!_" changeset="3023908">
    <nd ref="257361953"/>
    <nd ref="257361694"/>
    <tag k="highway" v="residential"/>
    <tag k="name" v="Wąska"/>
    <tag k="source" v="UMP-PL, ./UMP-Szczecin/src/TRZEBIATOW.ulice.txt"/>
  </way>
  <way id="23752949" version="1" timestamp="2008-04-13T13:34:03Z" uid="30632" user="antblant" changeset="130030">
    <nd ref="257361959"/>
    <nd ref="257361964"/>
    <nd ref="257361970"/>
    <nd ref="257361538"/>
    <tag k="created_by" v="JOSM"/>
    <tag k="highway" v="residential"/>
    <tag k="name" v="Rzemieślnicza"/>
    <tag k="source" v="UMP-PL, ./UMP-Szczecin/src/TRZEBIATOW.ulice.txt"/>
  </way>
  <way id="23752949" version="2" timestamp="2009-11-03T13:47:51Z" uid="36809" user="pfoten_weg_!_" changeset="3023908">
    <nd ref="257361959"/>
    <nd ref="257361964"/>
    <nd ref="257361970"/>
    <nd ref="257361538"/>
    <tag k="highway" v="residential"/>
    <tag k="name" v="Rzemieślnicza"/>
    <tag k="source" v="UMP-PL, ./UMP-Szczecin/src/TRZEBIATOW.ulice.txt"/>
  </way>
  <way id="23752950" version="1" timestamp="2008-04-13T13:34:03Z" uid="30632" user="antblant" changeset="130030">
    <nd ref="257361558"/>
    <nd ref="257361701"/>
    <nd ref="257361700"/>
    <nd ref="257361698"/>
    <nd ref="257361733"/>
    <nd ref="257361734"/>
    <tag k="created_by" v="JOSM"/>
    <tag k="highway" v="residential"/>
    <tag k="name" v="Piaskowa"/>
    <tag k="source" v="UMP-PL, ./UMP-Szczecin/src/TRZEBIATOW.ulice.txt"/>
  </way>
  <way id="23752950" version="2" timestamp="2009-11-03T13:49:23Z" uid="36809" user="pfoten_weg_!_" changeset="3023908">
    <nd ref="257361558"/>
    <nd ref="257361701"/>
    <nd ref="257361700"/>
    <nd ref="257361698"/>
    <nd ref="257361733"/>
    <nd ref="257361734"/>
    <tag k="highway" v="residential"/>
    <tag k="name" v="Piaskowa"/>
    <tag k="source" v="UMP-PL, ./UMP-Szczecin/src/TRZEBIATOW.ulice.txt"/>
  </way>
  <way id="23752951" version="1" timestamp="2008-04-13T13:34:03Z" uid="30632" user="antblant" changeset="130030">
    <nd ref="257361526"/>
    <nd ref="257361527"/>
    <nd ref="257361529"/>
    <tag k="created_by" v="JOSM"/>
    <tag k="highway" v="residential"/>
    <tag k="name" v="Strusia"/>
    <tag k="source" v="UMP-PL, ./UMP-Szczecin/src/TRZEBIATOW.ulice.txt"/>
  </way>
  <way id="23752951" version="2" timestamp="2009-11-03T13:47:55Z" uid="36809" user="pfoten_weg_!_" changeset="3023908">
    <nd ref="257361526"/>
    <nd ref="257361527"/>
    <nd ref="257361529"/>
    <tag k="highway" v="residential"/>
    <tag k="name" v="Strusia"/>
    <tag k="source" v="UMP-PL, ./UMP-Szczecin/src/TRZEBIATOW.ulice.txt"/>
  </way>
  <way id="23752953" version="1" timestamp="2008-04-13T13:34:06Z" uid="30632" user="antblant" changeset="130030">
    <nd ref="257361953"/>
    <nd ref="257361950"/>
    <nd ref="257361946"/>
    <tag k="created_by" v="JOSM"/>
    <tag k="highway" v="residential"/>
    <tag k="name" v="Wąska"/>
    <tag k="source" v="UMP-PL, ./UMP-Szczecin/src/TRZEBIATOW.ulice.txt"/>
  </way>
  <way id="23752953" version="2" timestamp="2009-11-03T13:48:15Z" uid="36809" user="pfoten_weg_!_" changeset="3023908">
    <nd ref="257361953"/>
    <nd ref="257361950"/>
    <nd ref="257361946"/>
    <tag k="highway" v="residential"/>
    <tag k="name" v="Wąska"/>
    <tag k="source" v="UMP-PL, ./UMP-Szczecin/src/TRZEBIATOW.ulice.txt"/>
  </way>
  <way id="23752954" version="1" timestamp="2008-04-13T13:34:06Z" uid="30632" user="antblant" changeset="130030">
    <nd ref="257361530"/>
    <nd ref="257361959"/>
    <nd ref="257361966"/>
    <tag k="created_by" v="JOSM"/>
    <tag k="highway" v="residential"/>
    <tag k="name" v="Grzybowa"/>
    <tag k="source" v="UMP-PL, ./UMP-Szczecin/src/TRZEBIATOW.ulice.txt"/>
  </way>
  <way id="23752954" version="2" timestamp="2009-11-03T13:47:50Z" uid="36809" user="pfoten_weg_!_" changeset="3023908">
    <nd ref="257361530"/>
    <nd ref="257361959"/>
    <nd ref="257361966"/>
    <tag k="highway" v="residential"/>
    <tag k="name" v="Grzybowa"/>
    <tag k="source" v="UMP-PL, ./UMP-Szczecin/src/TRZEBIATOW.ulice.txt"/>
  </way>
  <way id="23752954" version="3" timestamp="2011-02-06T14:40:23Z" uid="30632" user="antblant" changeset="7204364">
    <nd ref="257361530"/>
    <nd ref="257361959"/>
    <nd ref="257361532"/>
    <tag k="highway" v="residential"/>
    <tag k="name" v="Grzybowa"/>
    <tag k="source" v="UMP-PL, ./UMP-Szczecin/src/TRZEBIATOW.ulice.txt"/>
  </way>
  <way id="23752955" version="1" timestamp="2008-04-13T13:34:06Z" uid="30632" user="antblant" changeset="130030">
    <nd ref="257361695"/>
    <nd ref="257361711"/>
    <nd ref="257361667"/>
    <nd ref="257361702"/>
    <nd ref="257361650"/>
    <nd ref="257361627"/>
    <nd ref="257361257"/>
    <tag k="created_by" v="JOSM"/>
    <tag k="highway" v="secondary"/>
    <tag k="name" v="II Pułku Ułanów"/>
    <tag k="ref" v="103"/>
    <tag k="source" v="UMP-PL, ./UMP-Szczecin/src/TRZEBIATOW.ulice.txt"/>
  </way>
  <way id="23752955" version="3" timestamp="2009-11-03T13:47:40Z" uid="36809" user="pfoten_weg_!_" changeset="3023908">
    <nd ref="257361695"/>
    <nd ref="257361711"/>
    <nd ref="257361667"/>
    <nd ref="257361702"/>
    <nd ref="257361650"/>
    <nd ref="257361627"/>
    <nd ref="257361257"/>
    <tag k="highway" v="secondary"/>
    <tag k="name" v="II Pułku Ułanów"/>
    <tag k="ref" v="103, 109"/>
    <tag k="source" v="UMP-PL, ./UMP-Szczecin/src/TRZEBIATOW.ulice.txt"/>
  </way>
  <way id="23752956" version="1" timestamp="2008-04-13T13:34:07Z" uid="30632" user="antblant" changeset="130030">
    <nd ref="257361258"/>
    <nd ref="257361527"/>
    <tag k="created_by" v="JOSM"/>
    <tag k="highway" v="residential"/>
    <tag k="name" v="Mała"/>
    <tag k="source" v="UMP-PL, ./UMP-Szczecin/src/TRZEBIATOW.ulice.txt"/>
  </way>
  <way id="23752956" version="2" timestamp="2009-11-03T13:47:41Z" uid="36809" user="pfoten_weg_!_" changeset="3023908">
    <nd ref="257361258"/>
    <nd ref="257361527"/>
    <tag k="highway" v="residential"/>
    <tag k="name" v="Mała"/>
    <tag k="source" v="UMP-PL, ./UMP-Szczecin/src/TRZEBIATOW.ulice.txt"/>
  </way>
  <way id="23752957" version="1" timestamp="2008-04-13T13:34:07Z" uid="30632" user="antblant" changeset="130030">
    <nd ref="257361695"/>
    <nd ref="257361694"/>
    <nd ref="257361471"/>
    <nd ref="257361385"/>
    <tag k="created_by" v="JOSM"/>
    <tag k="highway" v="secondary"/>
    <tag k="name" v="Wojska Polskiego"/>
    <tag k="source" v="UMP-PL, ./UMP-Szczecin/src/TRZEBIATOW.ulice.txt"/>
  </way>
  <way id="23752957" version="4" timestamp="2009-11-03T13:48:02Z" uid="36809" user="pfoten_weg_!_" changeset="3023908">
    <nd ref="257361695"/>
    <nd ref="257361694"/>
    <nd ref="257361471"/>
    <tag k="highway" v="secondary"/>
    <tag k="name" v="Wojska Polskiego"/>
    <tag k="ref" v="103, 109"/>
    <tag k="source" v="UMP-PL, ./UMP-Szczecin/src/TRZEBIATOW.ulice.txt"/>
  </way>
  <way id="23752958" version="1" timestamp="2008-04-13T13:34:07Z" uid="30632" user="antblant" changeset="130030">
    <nd ref="257361705"/>
    <nd ref="257361675"/>
    <tag k="created_by" v="JOSM"/>
    <tag k="highway" v="unclassified"/>
    <tag k="name" v="Przyłączna"/>
    <tag k="source" v="UMP-PL, ./UMP-Szczecin/src/TRZEBIATOW.ulice.txt"/>
    <tag k="surface" v="unpaved"/>
  </way>
  <way id="23752958" version="2" timestamp="2009-11-03T13:47:52Z" uid="36809" user="pfoten_weg_!_" changeset="3023908">
    <nd ref="257361705"/>
    <nd ref="257361675"/>
    <tag k="highway" v="unclassified"/>
    <tag k="name" v="Przyłączna"/>
    <tag k="source" v="UMP-PL, ./UMP-Szczecin/src/TRZEBIATOW.ulice.txt"/>
    <tag k="surface" v="unpaved"/>
  </way>
  <way id="23752959" version="1" timestamp="2008-04-13T13:34:08Z" uid="30632" user="antblant" changeset="130030">
    <nd ref="257361937"/>
    <nd ref="257361284"/>
    <tag k="created_by" v="JOSM"/>
    <tag k="highway" v="residential"/>
    <tag k="name" v="Wodna"/>
    <tag k="source" v="UMP-PL, ./UMP-Szczecin/src/TRZEBIATOW.ulice.txt"/>
  </way>
  <way id="23752959" version="2" timestamp="2009-11-03T13:48:25Z" uid="36809" user="pfoten_weg_!_" changeset="3023908">
    <nd ref="257361937"/>
    <nd ref="257361284"/>
    <tag k="highway" v="residential"/>
    <tag k="name" v="Wodna"/>
    <tag k="source" v="UMP-PL, ./UMP-Szczecin/src/TRZEBIATOW.ulice.txt"/>
  </way>
  <way id="23752960" version="1" timestamp="2008-04-13T13:34:08Z" uid="30632" user="antblant" changeset="130030">
    <nd ref="257361519"/>
    <nd ref="257361530"/>
    <nd ref="257361538"/>
    <tag k="created_by" v="JOSM"/>
    <tag k="highway" v="residential"/>
    <tag k="name" v="Żytnia"/>
    <tag k="source" v="UMP-PL, ./UMP-Szczecin/src/TRZEBIATOW.ulice.txt"/>
  </way>
  <way id="23752960" version="2" timestamp="2009-11-03T13:47:51Z" uid="36809" user="pfoten_weg_!_" changeset="3023908">
    <nd ref="257361519"/>
    <nd ref="257361530"/>
    <nd ref="257361538"/>
    <tag k="highway" v="residential"/>
    <tag k="name" v="Żytnia"/>
    <tag k="source" v="UMP-PL, ./UMP-Szczecin/src/TRZEBIATOW.ulice.txt"/>
  </way>
  <way id="23752961" version="1" timestamp="2008-04-13T13:34:08Z" uid="30632" user="antblant" changeset="130030">
    <nd ref="257361689"/>
    <nd ref="257361697"/>
    <nd ref="257361696"/>
    <tag k="created_by" v="JOSM"/>
    <tag k="highway" v="residential"/>
    <tag k="name" v="Pietruszkowa"/>
    <tag k="source" v="UMP-PL, ./UMP-Szczecin/src/TRZEBIATOW.ulice.txt"/>
  </way>
  <way id="23752961" version="2" timestamp="2009-11-03T13:48:05Z" uid="36809" user="pfoten_weg_!_" changeset="3023908">
    <nd ref="257361689"/>
    <nd ref="257361697"/>
    <nd ref="257361696"/>
    <tag k="highway" v="residential"/>
    <tag k="name" v="Pietruszkowa"/>
    <tag k="source" v="UMP-PL, ./UMP-Szczecin/src/TRZEBIATOW.ulice.txt"/>
  </way>
  <way id="23752963" version="1" timestamp="2008-04-13T13:34:09Z" uid="30632" user="antblant" changeset="130030">
    <nd ref="257361697"/>
    <nd ref="257362010"/>
    <tag k="created_by" v="JOSM"/>
    <tag k="highway" v="residential"/>
    <tag k="name" v="Mleczna"/>
    <tag k="source" v="UMP-PL, ./UMP-Szczecin/src/TRZEBIATOW.ulice.txt"/>
  </way>
  <way id="23752963" version="2" timestamp="2009-11-03T13:47:46Z" uid="36809" user="pfoten_weg_!_" changeset="3023908">
    <nd ref="257361697"/>
    <nd ref="257362010"/>
    <tag k="highway" v="residential"/>
    <tag k="name" v="Mleczna"/>
    <tag k="source" v="UMP-PL, ./UMP-Szczecin/src/TRZEBIATOW.ulice.txt"/>
  </way>
  <way id="23752964" version="1" timestamp="2008-04-13T13:34:09Z" uid="30632" user="antblant" changeset="130030">
    <nd ref="257361944"/>
    <nd ref="257361385"/>
    <tag k="created_by" v="JOSM"/>
    <tag k="highway" v="residential"/>
    <tag k="name" v="Zjazdowa"/>
    <tag k="source" v="UMP-PL, ./UMP-Szczecin/src/TRZEBIATOW.ulice.txt"/>
  </way>
  <way id="23752964" version="2" timestamp="2009-11-03T13:48:26Z" uid="36809" user="pfoten_weg_!_" changeset="3023908">
    <nd ref="257361944"/>
    <nd ref="257361385"/>
    <tag k="highway" v="residential"/>
    <tag k="name" v="Zjazdowa"/>
    <tag k="source" v="UMP-PL, ./UMP-Szczecin/src/TRZEBIATOW.ulice.txt"/>
  </way>
  <way id="23752965" version="1" timestamp="2008-04-13T13:34:09Z" uid="30632" user="antblant" changeset="130030">
    <nd ref="257361533"/>
    <nd ref="257361514"/>
    <nd ref="257361532"/>
    <nd ref="257361518"/>
    <nd ref="257361531"/>
    <nd ref="257361257"/>
    <tag k="created_by" v="JOSM"/>
    <tag k="highway" v="secondary"/>
    <tag k="name" v="Kamieniecka"/>
    <tag k="ref" v="103"/>
    <tag k="source" v="UMP-PL, ./UMP-Szczecin/src/TRZEBIATOW.ulice.txt"/>
  </way>
  <way id="23752965" version="2" timestamp="2009-11-03T13:45:02Z" uid="36809" user="pfoten_weg_!_" changeset="3023908">
    <nd ref="257361533"/>
    <nd ref="257361514"/>
    <nd ref="257361532"/>
    <nd ref="257361518"/>
    <nd ref="257361531"/>
    <nd ref="257361257"/>
    <tag k="highway" v="secondary"/>
    <tag k="name" v="Kamieniecka"/>
    <tag k="ref" v="103"/>
    <tag k="source" v="UMP-PL, ./UMP-Szczecin/src/TRZEBIATOW.ulice.txt"/>
  </way>
  <way id="23752966" version="1" timestamp="2008-04-13T13:34:10Z" uid="30632" user="antblant" changeset="130030">
    <nd ref="257361711"/>
    <nd ref="257361710"/>
    <nd ref="257361709"/>
    <nd ref="257361708"/>
    <nd ref="257361689"/>
    <tag k="created_by" v="JOSM"/>
    <tag k="highway" v="residential"/>
    <tag k="name" v="Mleczna"/>
    <tag k="source" v="UMP-PL, ./UMP-Szczecin/src/TRZEBIATOW.ulice.txt"/>
  </way>
  <way id="23752966" version="2" timestamp="2009-11-03T13:48:08Z" uid="36809" user="pfoten_weg_!_" changeset="3023908">
    <nd ref="257361711"/>
    <nd ref="257361710"/>
    <nd ref="257361709"/>
    <nd ref="257361708"/>
    <nd ref="257361689"/>
    <tag k="highway" v="residential"/>
    <tag k="name" v="Mleczna"/>
    <tag k="source" v="UMP-PL, ./UMP-Szczecin/src/TRZEBIATOW.ulice.txt"/>
  </way>
  <way id="23752967" version="1" timestamp="2008-04-13T13:34:10Z" uid="30632" user="antblant" changeset="130030">
    <nd ref="257361424"/>
    <nd ref="257361950"/>
    <tag k="created_by" v="JOSM"/>
    <tag k="highway" v="residential"/>
    <tag k="name" v="Lipowa"/>
    <tag k="source" v="UMP-PL, ./UMP-Szczecin/src/TRZEBIATOW.ulice.txt"/>
  </way>
  <way id="23752967" version="2" timestamp="2009-11-03T13:48:19Z" uid="36809" user="pfoten_weg_!_" changeset="3023908">
    <nd ref="257361424"/>
    <nd ref="257361950"/>
    <tag k="highway" v="residential"/>
    <tag k="name" v="Lipowa"/>
    <tag k="source" v="UMP-PL, ./UMP-Szczecin/src/TRZEBIATOW.ulice.txt"/>
  </way>
  <way id="23752968" version="1" timestamp="2008-04-13T13:34:10Z" uid="30632" user="antblant" changeset="130030">
    <nd ref="257361541"/>
    <nd ref="257361979"/>
    <nd ref="257361977"/>
    <nd ref="257361285"/>
    <tag k="created_by" v="JOSM"/>
    <tag k="highway" v="tertiary"/>
    <tag k="source" v="UMP-PL, ./UMP-Szczecin/src/TRZEBIATOW.ulice.txt"/>
  </way>
  <way id="23752968" version="2" timestamp="2009-11-03T13:48:47Z" uid="36809" user="pfoten_weg_!_" changeset="3023908">
    <nd ref="257361541"/>
    <nd ref="257361979"/>
    <nd ref="257361977"/>
    <nd ref="257361285"/>
    <tag k="highway" v="tertiary"/>
    <tag k="source" v="UMP-PL, ./UMP-Szczecin/src/TRZEBIATOW.ulice.txt"/>
  </way>
  <way id="23752969" version="1" timestamp="2008-04-13T13:34:11Z" uid="30632" user="antblant" changeset="130030">
    <nd ref="257361284"/>
    <nd ref="257361491"/>
    <nd ref="257361492"/>
    <nd ref="257361539"/>
    <nd ref="257361540"/>
    <nd ref="257361541"/>
    <nd ref="257361287"/>
    <tag k="created_by" v="JOSM"/>
    <tag k="highway" v="secondary"/>
    <tag k="name" v="Wojska Polskiego"/>
    <tag k="ref" v="102"/>
    <tag k="source" v="UMP-PL, ./UMP-Szczecin/src/TRZEBIATOW.ulice.txt"/>
  </way>
  <way id="23752969" version="3" timestamp="2009-11-03T13:47:35Z" uid="36809" user="pfoten_weg_!_" changeset="3023908">
    <nd ref="257361284"/>
    <nd ref="257361491"/>
    <nd ref="257361492"/>
    <nd ref="257361539"/>
    <nd ref="257361540"/>
    <nd ref="257361541"/>
    <nd ref="257361287"/>
    <tag k="highway" v="secondary"/>
    <tag k="name" v="Wojska Polskiego"/>
    <tag k="ref" v="102, 109"/>
    <tag k="source" v="UMP-PL, ./UMP-Szczecin/src/TRZEBIATOW.ulice.txt"/>
  </way>
  <way id="23752970" version="1" timestamp="2008-04-13T13:34:11Z" uid="30632" user="antblant" changeset="130030">
    <nd ref="257361667"/>
    <nd ref="257361707"/>
    <nd ref="257361680"/>
    <nd ref="257361706"/>
    <nd ref="257361705"/>
    <nd ref="257361704"/>
    <tag k="created_by" v="JOSM"/>
    <tag k="highway" v="residential"/>
    <tag k="name" v="Muzealna"/>
    <tag k="source" v="UMP-PL, ./UMP-Szczecin/src/TRZEBIATOW.ulice.txt"/>
  </way>
  <way id="23752970" version="2" timestamp="2009-11-03T13:47:47Z" uid="36809" user="pfoten_weg_!_" changeset="3023908">
    <nd ref="257361667"/>
    <nd ref="257361707"/>
    <nd ref="257361680"/>
    <nd ref="257361706"/>
    <nd ref="257361705"/>
    <nd ref="257361704"/>
    <tag k="highway" v="residential"/>
    <tag k="name" v="Muzealna"/>
    <tag k="source" v="UMP-PL, ./UMP-Szczecin/src/TRZEBIATOW.ulice.txt"/>
  </way>
  <way id="23752971" version="1" timestamp="2008-04-13T13:34:11Z" uid="30632" user="antblant" changeset="130030">
    <nd ref="257361491"/>
    <nd ref="257361939"/>
    <tag k="created_by" v="JOSM"/>
    <tag k="highway" v="residential"/>
    <tag k="name" v="Mikołaja Kopernika"/>
    <tag k="source" v="UMP-PL, ./UMP-Szczecin/src/TRZEBIATOW.ulice.txt"/>
  </way>
  <way id="23752971" version="2" timestamp="2009-11-03T13:48:28Z" uid="36809" user="pfoten_weg_!_" changeset="3023908">
    <nd ref="257361491"/>
    <nd ref="257361939"/>
    <tag k="highway" v="residential"/>
    <tag k="name" v="Mikołaja Kopernika"/>
    <tag k="source" v="UMP-PL, ./UMP-Szczecin/src/TRZEBIATOW.ulice.txt"/>
  </way>
  <way id="23752972" version="1" timestamp="2008-04-13T13:34:12Z" uid="30632" user="antblant" changeset="130030">
    <nd ref="257361762"/>
    <nd ref="257361968"/>
    <nd ref="257361975"/>
    <nd ref="257361973"/>
    <nd ref="257361545"/>
    <tag k="created_by" v="JOSM"/>
    <tag k="highway" v="residential"/>
    <tag k="source" v="UMP-PL, ./UMP-Szczecin/src/TRZEBIATOW.ulice.txt"/>
  </way>
  <way id="23752972" version="2" timestamp="2009-11-03T13:49:15Z" uid="36809" user="pfoten_weg_!_" changeset="3023908">
    <nd ref="257361762"/>
    <nd ref="257361968"/>
    <nd ref="257361975"/>
    <nd ref="257361973"/>
    <nd ref="257361545"/>
    <tag k="highway" v="residential"/>
    <tag k="source" v="UMP-PL, ./UMP-Szczecin/src/TRZEBIATOW.ulice.txt"/>
  </way>
  <way id="23752973" version="1" timestamp="2008-04-13T13:34:12Z" uid="30632" user="antblant" changeset="130030">
    <nd ref="257361385"/>
    <nd ref="257361284"/>
    <tag k="created_by" v="JOSM"/>
    <tag k="highway" v="secondary"/>
    <tag k="name" v="Rynek"/>
    <tag k="ref" v="102"/>
    <tag k="source" v="UMP-PL, ./UMP-Szczecin/src/TRZEBIATOW.ulice.txt"/>
  </way>
  <way id="23752973" version="3" timestamp="2009-11-03T13:48:27Z" uid="36809" user="pfoten_weg_!_" changeset="3023908">
    <nd ref="257361385"/>
    <nd ref="257361284"/>
    <tag k="highway" v="secondary"/>
    <tag k="name" v="Rynek"/>
    <tag k="ref" v="102, 109"/>
    <tag k="source" v="UMP-PL, ./UMP-Szczecin/src/TRZEBIATOW.ulice.txt"/>
  </way>
</osm>
