<?xml version='1.0' encoding='UTF-8'?>
<osm version="0.6" generator="libosmium/2.20.0">
  <way id="23822157" version="2" timestamp="2008-07-07T02:37:59Z" uid="6975" user="ulfl" changeset="415781">
    <nd ref="258184180"/>
    <nd ref="258184183"/>
    <nd ref="256875218"/>
    <tag k="highway" v="primary"/>
    <tag k="name" v="Bothwell Road"/>
    <tag k="note" v="old A74"/>
    <tag k="ref" v="A723"/>
  </way>
  <way id="23822327" version="2" timestamp="2008-07-07T02:38:00Z" uid="6975" user="ulfl" changeset="415781">
    <nd ref="258184612"/>
    <nd ref="258184613"/>
    <nd ref="258184614"/>
    <nd ref="258184615"/>
    <nd ref="258184616"/>
    <nd ref="258184617"/>
    <nd ref="258184618"/>
    <nd ref="258184180"/>
    <tag k="highway" v="primary"/>
    <tag k="name" v="Hamilton Road"/>
    <tag k="note" v="old A74"/>
    <tag k="ref" v="A723"/>
  </way>
  <way id="23822813" version="7" timestamp="2010-03-14T20:55:11Z" uid="163746" user="anti_bot-nonsense" changeset="4128666">
    <nd ref="194757926"/>
    <nd ref="194760122"/>
    <nd ref="301008080"/>
    <nd ref="194760124"/>
    <nd ref="194760127"/>
    <nd ref="194760128"/>
    <nd ref="194760067"/>
    <tag k="highway" v="tertiary"/>
    <tag k="name" v="Romana Dmowskiego"/>
  </way>
</osm>
