<?xml version='1.0' encoding='UTF-8'?>
<osm version="0.6" generator="libosmium/2.20.0">
  <way id="23898082" version="2" timestamp="2010-07-09T07:58:34Z" uid="74617" user="JohnSmith" changeset="5171412">
    <nd ref="259026911"/>
    <nd ref="259026910"/>
    <tag k="highway" v="residential"/>
    <tag k="maxspeed" v="50"/>
    <tag k="maxspeed:source" v="default residential speed limit in Australia"/>
    <tag k="name" v="Daly Court"/>
  </way>
  <way id="23898083" version="4" timestamp="2010-07-09T08:01:13Z" uid="74617" user="JohnSmith" changeset="5171412">
    <nd ref="259026912"/>
    <nd ref="259026913"/>
    <nd ref="267830374"/>
    <nd ref="267830373"/>
    <nd ref="259026921"/>
    <nd ref="267830396"/>
    <tag k="highway" v="residential"/>
    <tag k="maxspeed" v="50"/>
    <tag k="maxspeed:source" v="default residential speed limit in Australia"/>
    <tag k="name" v="Stallwood Gardens"/>
  </way>
  <way id="23898084" version="2" timestamp="2010-07-09T08:02:05Z" uid="74617" user="JohnSmith" changeset="5171412">
    <nd ref="259026915"/>
    <nd ref="259026921"/>
    <tag k="highway" v="residential"/>
    <tag k="maxspeed" v="50"/>
    <tag k="maxspeed:source" v="default residential speed limit in Australia"/>
    <tag k="name" v="Mifflin Place"/>
  </way>
  <way id="23898085" version="3" timestamp="2010-07-09T08:06:55Z" uid="74617" user="JohnSmith" changeset="5171412">
    <nd ref="259026941"/>
    <nd ref="259026961"/>
    <nd ref="259026953"/>
    <nd ref="443127484"/>
    <nd ref="259026954"/>
    <tag k="highway" v="residential"/>
    <tag k="maxspeed" v="50"/>
    <tag k="maxspeed:source" v="default residential speed limit in Australia"/>
    <tag k="name" v="Collett Way"/>
  </way>
  <way id="23898086" version="2" timestamp="2010-07-09T07:56:08Z" uid="74617" user="JohnSmith" changeset="5171412">
    <nd ref="259026955"/>
    <nd ref="259026956"/>
    <nd ref="259026957"/>
    <nd ref="259026960"/>
    <nd ref="259026953"/>
    <tag k="highway" v="residential"/>
    <tag k="maxspeed" v="50"/>
    <tag k="maxspeed:source" v="default residential speed limit in Australia"/>
    <tag k="name" v="Collett Way"/>
  </way>
  <way id="23898087" version="3" timestamp="2010-07-09T07:59:21Z" uid="74617" user="JohnSmith" changeset="5171412">
    <nd ref="259026958"/>
    <nd ref="259026960"/>
    <tag k="highway" v="residential"/>
    <tag k="maxspeed" v="50"/>
    <tag k="maxspeed:source" v="default residential speed limit in Australia"/>
    <tag k="name" v="Ashton Place"/>
  </way>
  <way id="23898088" version="2" timestamp="2010-07-09T07:54:07Z" uid="74617" user="JohnSmith" changeset="5171412">
    <nd ref="259026961"/>
    <nd ref="259026962"/>
    <nd ref="259026963"/>
    <nd ref="259026964"/>
    <nd ref="259026966"/>
    <tag k="highway" v="residential"/>
    <tag k="maxspeed" v="50"/>
    <tag k="maxspeed:source" v="default residential speed limit in Australia"/>
    <tag k="name" v="Bryne Place"/>
  </way>
  <way id="23898094" version="3" timestamp="2010-07-09T08:00:34Z" uid="74617" user="JohnSmith" changeset="5171412">
    <nd ref="259026967"/>
    <nd ref="259026968"/>
    <nd ref="443127485"/>
    <nd ref="31128656"/>
    <tag k="highway" v="residential"/>
    <tag k="maxspeed" v="50"/>
    <tag k="maxspeed:source" v="default residential speed limit in Australia"/>
    <tag k="name" v="Chalmers Place"/>
  </way>
  <way id="23898095" version="10" timestamp="2010-05-12T08:51:19Z" uid="4467" user="Rosscoe" changeset="4675315">
    <nd ref="30742293"/>
    <nd ref="713004150"/>
    <nd ref="259186730"/>
    <nd ref="259186734"/>
    <nd ref="730616182"/>
    <tag k="highway" v="tertiary"/>
    <tag k="maxspeed" v="50"/>
    <tag k="name" v="Findlay Road"/>
    <tag k="source" v="survey"/>
  </way>
  <way id="23898096" version="3" timestamp="2010-04-27T06:39:31Z" uid="4467" user="Rosscoe" changeset="4538302">
    <nd ref="31128752"/>
    <nd ref="247737012"/>
    <nd ref="247737011"/>
    <nd ref="247737013"/>
    <nd ref="257905482"/>
    <nd ref="247737005"/>
    <nd ref="247737014"/>
    <nd ref="247737015"/>
    <nd ref="247737016"/>
    <nd ref="247737025"/>
    <nd ref="247737017"/>
    <nd ref="247737018"/>
    <nd ref="247737019"/>
    <nd ref="247737020"/>
    <nd ref="247737021"/>
    <nd ref="247737022"/>
    <tag k="highway" v="tertiary"/>
    <tag k="maxspeed" v="50"/>
    <tag k="name" v="Benningfield Road"/>
  </way>
  <way id="23898097" version="10" timestamp="2010-05-12T08:51:20Z" uid="4467" user="Rosscoe" changeset="4675315">
    <nd ref="259027055"/>
    <nd ref="730616170"/>
    <nd ref="444492289"/>
    <nd ref="259027060"/>
    <nd ref="259027066"/>
    <nd ref="259027073"/>
    <nd ref="267887550"/>
    <nd ref="267887526"/>
    <nd ref="259186487"/>
    <nd ref="259027078"/>
    <nd ref="259027085"/>
    <nd ref="258842242"/>
    <nd ref="259027089"/>
    <nd ref="259027090"/>
    <nd ref="259027290"/>
    <nd ref="259027091"/>
    <nd ref="259186475"/>
    <nd ref="259027092"/>
    <nd ref="259027093"/>
    <nd ref="259027094"/>
    <nd ref="259027095"/>
    <nd ref="259186353"/>
    <nd ref="259027096"/>
    <nd ref="259027097"/>
    <nd ref="259027098"/>
    <nd ref="267830401"/>
    <nd ref="259027099"/>
    <nd ref="259186304"/>
    <nd ref="729585903"/>
    <nd ref="259027106"/>
    <tag k="highway" v="tertiary"/>
    <tag k="maxspeed" v="50"/>
    <tag k="name" v="Aulberry Parade"/>
    <tag k="source" v="survey"/>
  </way>
  <way id="23898100" version="5" timestamp="2010-07-09T07:56:45Z" uid="74617" user="JohnSmith" changeset="5171412">
    <nd ref="259027109"/>
    <nd ref="267830363"/>
    <nd ref="259027110"/>
    <nd ref="259027111"/>
    <nd ref="31128642"/>
    <tag k="highway" v="residential"/>
    <tag k="maxspeed" v="50"/>
    <tag k="maxspeed:source" v="default residential speed limit in Australia"/>
    <tag k="name" v="Lowrie Grove"/>
    <tag k="source" v="survey"/>
  </way>
  <way id="23898122" version="2" timestamp="2010-07-09T07:58:53Z" uid="74617" user="JohnSmith" changeset="5171412">
    <nd ref="259027299"/>
    <nd ref="259027300"/>
    <nd ref="259027297"/>
    <tag k="highway" v="residential"/>
    <tag k="maxspeed" v="50"/>
    <tag k="maxspeed:source" v="default residential speed limit in Australia"/>
    <tag k="name" v="Vinten Rise"/>
  </way>
  <way id="23898162" version="4" timestamp="2010-07-09T06:38:43Z" uid="74617" user="JohnSmith" changeset="5171128">
    <nd ref="246956068"/>
    <nd ref="259028042"/>
    <nd ref="259027576"/>
    <nd ref="392519311"/>
    <nd ref="259027577"/>
    <nd ref="259027578"/>
    <nd ref="259027579"/>
    <nd ref="259027580"/>
    <tag k="highway" v="residential"/>
    <tag k="maxspeed" v="50"/>
    <tag k="maxspeed:source" v="default residential speed limit in Australia"/>
    <tag k="name" v="Wittenoom Street"/>
  </way>
  <way id="23898166" version="4" timestamp="2010-07-09T06:38:34Z" uid="74617" user="JohnSmith" changeset="5171128">
    <nd ref="259027579"/>
    <nd ref="581917118"/>
    <nd ref="290924846"/>
    <tag k="highway" v="residential"/>
    <tag k="maxspeed" v="50"/>
    <tag k="maxspeed:source" v="default residential speed limit in Australia"/>
    <tag k="name" v="Marsh Road"/>
  </way>
  <way id="23898182" version="6" timestamp="2010-07-09T06:38:37Z" uid="74617" user="JohnSmith" changeset="5171128">
    <nd ref="259027883"/>
    <nd ref="259028041"/>
    <nd ref="392519283"/>
    <nd ref="259027903"/>
    <nd ref="259027904"/>
    <tag k="highway" v="residential"/>
    <tag k="maxspeed" v="50"/>
    <tag k="maxspeed:source" v="default residential speed limit in Australia"/>
    <tag k="name" v="Venn Street"/>
  </way>
  <way id="23898190" version="7" timestamp="2010-07-09T06:38:18Z" uid="74617" user="JohnSmith" changeset="5171128">
    <nd ref="259027905"/>
    <nd ref="582869585"/>
    <nd ref="259028040"/>
    <nd ref="392519284"/>
    <nd ref="259027933"/>
    <nd ref="259027934"/>
    <tag k="highway" v="residential"/>
    <tag k="maxspeed" v="50"/>
    <tag k="maxspeed:source" v="default residential speed limit in Australia"/>
    <tag k="name" v="Clifton Street"/>
  </way>
  <way id="23898192" version="5" timestamp="2010-07-09T06:38:48Z" uid="74617" user="JohnSmith" changeset="5171128">
    <nd ref="83326142"/>
    <nd ref="259028039"/>
    <nd ref="259028040"/>
    <nd ref="259028041"/>
    <nd ref="259028042"/>
    <nd ref="290923568"/>
    <tag k="highway" v="residential"/>
    <tag k="maxspeed" v="50"/>
    <tag k="maxspeed:source" v="default residential speed limit in Australia"/>
    <tag k="name" v="Steere Street"/>
  </way>
  <way id="23898193" version="5" timestamp="2010-07-09T06:38:35Z" uid="74617" user="JohnSmith" changeset="5171128">
    <nd ref="259028039"/>
    <nd ref="392519285"/>
    <nd ref="259028084"/>
    <nd ref="259028085"/>
    <tag k="highway" v="residential"/>
    <tag k="maxspeed" v="50"/>
    <tag k="maxspeed:source" v="default residential speed limit in Australia"/>
    <tag k="name" v="Bunbury Street"/>
  </way>
  <way id="23898204" version="9" timestamp="2010-07-09T06:38:21Z" uid="74617" user="JohnSmith" changeset="5171128">
    <nd ref="290923174"/>
    <nd ref="485633683"/>
    <nd ref="259028116"/>
    <tag k="highway" v="residential"/>
    <tag k="maxspeed" v="50"/>
    <tag k="maxspeed:source" v="default residential speed limit in Australia"/>
    <tag k="name" v="Penderton Street"/>
  </way>
  <way id="23898212" version="7" timestamp="2010-07-09T06:38:48Z" uid="74617" user="JohnSmith" changeset="5171128">
    <nd ref="282615495"/>
    <nd ref="282615496"/>
    <nd ref="386284661"/>
    <tag k="highway" v="residential"/>
    <tag k="maxspeed" v="50"/>
    <tag k="maxspeed:source" v="default residential speed limit in Australia"/>
    <tag k="name" v="Booth Street"/>
  </way>
  <way id="23898357" version="2" timestamp="2010-06-29T19:11:49Z" uid="74617" user="JohnSmith" changeset="5108182">
    <nd ref="259029546"/>
    <nd ref="259029547"/>
    <nd ref="259029548"/>
    <nd ref="259029550"/>
    <nd ref="259029546"/>
    <tag k="fixme" v="sport=football is ambiguous, see http://wiki.osm.org/wiki/Football for more details"/>
    <tag k="sport" v="football"/>
  </way>
  <way id="23898358" version="3" timestamp="2009-11-12T01:52:37Z" uid="36809" user="pfoten_weg_!_" changeset="3095145">
    <nd ref="259029544"/>
    <nd ref="259029558"/>
    <nd ref="259029559"/>
    <nd ref="259029560"/>
    <nd ref="259029561"/>
    <nd ref="259029562"/>
    <tag k="highway" v="residential"/>
  </way>
  <way id="23898390" version="4" timestamp="2009-02-12T13:48:54Z" uid="9581" user="Lobelt" changeset="375801">
    <nd ref="344640382"/>
    <nd ref="344640381"/>
    <nd ref="259025482"/>
    <nd ref="320169522"/>
    <nd ref="259025481"/>
    <nd ref="259025480"/>
    <nd ref="259025479"/>
    <nd ref="259025478"/>
    <tag k="created_by" v="JOSM"/>
    <tag k="highway" v="residential"/>
    <tag k="name" v="Hohe Straße"/>
  </way>
  <way id="23898505" version="3" timestamp="2010-07-07T22:15:29Z" uid="74617" user="JohnSmith" changeset="5161069">
    <nd ref="26359021"/>
    <nd ref="18375404"/>
    <tag k="highway" v="residential"/>
    <tag k="maxspeed" v="50"/>
    <tag k="maxspeed:source" v="default residential speed limit in Australia"/>
    <tag k="name" v="Middle Street"/>
    <tag k="oneway" v="yes"/>
    <tag k="source:name" v="historical"/>
  </way>
  <way id="23898509" version="4" timestamp="2008-07-07T00:27:26Z" uid="6975" user="ulfl" changeset="415781">
    <nd ref="240357694"/>
    <nd ref="240357695"/>
    <nd ref="240357696"/>
    <nd ref="32902756"/>
    <tag k="highway" v="primary"/>
    <tag k="lanes" v="2"/>
    <tag k="oneway" v="yes"/>
    <tag k="ref" v="N15"/>
  </way>
</osm>
