<?xml version='1.0' encoding='UTF-8'?>
<osm version="0.6" generator="libosmium/2.20.0">
  <way id="23911002" version="3" timestamp="2010-07-09T02:46:43Z" uid="74617" user="JohnSmith" changeset="5170713">
    <nd ref="259171963"/>
    <nd ref="259171979"/>
    <nd ref="259171980"/>
    <nd ref="259171981"/>
    <nd ref="259172023"/>
    <nd ref="259171982"/>
    <tag k="highway" v="residential"/>
    <tag k="maxspeed" v="50"/>
    <tag k="maxspeed:source" v="default residential speed limit in Australia"/>
    <tag k="name" v="Thomas Street"/>
  </way>
  <way id="23911005" version="4" timestamp="2010-07-09T02:53:20Z" uid="74617" user="JohnSmith" changeset="5170713">
    <nd ref="259171985"/>
    <nd ref="259171998"/>
    <nd ref="259172022"/>
    <nd ref="259171986"/>
    <nd ref="259171987"/>
    <nd ref="259171988"/>
    <nd ref="259171989"/>
    <nd ref="32998918"/>
    <tag k="highway" v="residential"/>
    <tag k="maxspeed" v="50"/>
    <tag k="maxspeed:source" v="default residential speed limit in Australia"/>
    <tag k="name" v="Stuart Street"/>
  </way>
  <way id="23911007" version="2" timestamp="2010-07-09T02:47:25Z" uid="74617" user="JohnSmith" changeset="5170713">
    <nd ref="259171989"/>
    <nd ref="259171994"/>
    <tag k="highway" v="residential"/>
    <tag k="maxspeed" v="50"/>
    <tag k="maxspeed:source" v="default residential speed limit in Australia"/>
    <tag k="name" v="Kirk Street"/>
  </way>
  <way id="23911008" version="4" timestamp="2008-11-07T13:19:53Z" uid="9581" user="Lobelt" changeset="702853"/>
  <way id="23911009" version="2" timestamp="2010-07-09T02:48:41Z" uid="74617" user="JohnSmith" changeset="5170713">
    <nd ref="259171997"/>
    <nd ref="259171998"/>
    <tag k="highway" v="residential"/>
    <tag k="maxspeed" v="50"/>
    <tag k="maxspeed:source" v="default residential speed limit in Australia"/>
    <tag k="name" v="Hellyer Street"/>
  </way>
  <way id="23911011" version="4" timestamp="2010-04-02T17:14:46Z" uid="20587" user="balrog-kun" changeset="4304500">
    <nd ref="110531110"/>
    <nd ref="110902858"/>
    <nd ref="110930661"/>
    <tag k="created_by" v="JOSM"/>
    <tag k="highway" v="residential"/>
    <tag k="name" v="98th Street South"/>
    <tag k="tiger:cfcc" v="A41"/>
    <tag k="tiger:county" v="Pierce, WA"/>
    <tag k="tiger:name_base" v="98th"/>
    <tag k="tiger:name_direction_suffix" v="S"/>
    <tag k="tiger:separated" v="no"/>
    <tag k="tiger:source" v="tiger_import_dch_v0.6_20070830"/>
    <tag k="tiger:tlid" v="184628918:184658221:184628218"/>
    <tag k="tiger:zip_left" v="98444"/>
    <tag k="tiger:zip_right" v="98444"/>
  </way>
  <way id="23911014" version="2" timestamp="2010-07-09T02:51:45Z" uid="74617" user="JohnSmith" changeset="5170713">
    <nd ref="259172022"/>
    <nd ref="259172023"/>
    <tag k="highway" v="residential"/>
    <tag k="maxspeed" v="50"/>
    <tag k="maxspeed:source" v="default residential speed limit in Australia"/>
    <tag k="name" v="Hellyer Street"/>
  </way>
  <way id="23911015" version="1" timestamp="2008-04-22T11:21:50Z" uid="30201" user="rrankin" changeset="223258">
    <nd ref="259095876"/>
    <nd ref="259172016"/>
    <nd ref="259172017"/>
    <nd ref="259172018"/>
    <nd ref="259095897"/>
    <tag k="created_by" v="JOSM"/>
    <tag k="highway" v="residential"/>
  </way>
  <way id="23911015" version="2" timestamp="2008-04-23T05:08:24Z" uid="30201" user="rrankin" changeset="238815">
    <nd ref="259095876"/>
    <nd ref="259172016"/>
    <nd ref="259172017"/>
    <nd ref="259172018"/>
    <nd ref="259095897"/>
    <tag k="created_by" v="JOSM"/>
    <tag k="highway" v="residential"/>
    <tag k="name" v="Unsworth Street"/>
  </way>
  <way id="23911015" version="3" timestamp="2010-07-07T22:31:04Z" uid="74617" user="JohnSmith" changeset="5162525">
    <nd ref="259095876"/>
    <nd ref="259172016"/>
    <nd ref="259172017"/>
    <nd ref="259172018"/>
    <nd ref="259095897"/>
    <tag k="highway" v="residential"/>
    <tag k="maxspeed" v="50"/>
    <tag k="maxspeed:source" v="default residential speed limit in Australia"/>
    <tag k="name" v="Unsworth Street"/>
  </way>
  <way id="23911016" version="1" timestamp="2008-04-22T11:21:51Z" uid="30201" user="rrankin" changeset="223258">
    <nd ref="259172017"/>
    <nd ref="259172019"/>
    <tag k="created_by" v="JOSM"/>
    <tag k="highway" v="residential"/>
  </way>
  <way id="23911016" version="2" timestamp="2008-04-23T00:24:47Z" uid="30201" user="rrankin" changeset="238815">
    <nd ref="259172017"/>
    <nd ref="259172019"/>
    <tag k="created_by" v="Potlatch 0.8b"/>
    <tag k="highway" v="residential"/>
    <tag k="name" v="Reach Close"/>
  </way>
  <way id="23911016" version="4" timestamp="2010-07-07T22:31:38Z" uid="74617" user="JohnSmith" changeset="5162525">
    <nd ref="259172017"/>
    <nd ref="259172019"/>
    <tag k="highway" v="residential"/>
    <tag k="maxspeed" v="50"/>
    <tag k="maxspeed:source" v="default residential speed limit in Australia"/>
    <tag k="name" v="Reach Close"/>
  </way>
  <way id="23911017" version="1" timestamp="2008-04-22T11:21:52Z" uid="30201" user="rrankin" changeset="223258">
    <nd ref="259172016"/>
    <nd ref="259172020"/>
    <nd ref="259172021"/>
    <nd ref="259172024"/>
    <nd ref="259172025"/>
    <nd ref="259172026"/>
    <nd ref="259172027"/>
    <nd ref="259172028"/>
    <tag k="created_by" v="JOSM"/>
    <tag k="highway" v="residential"/>
  </way>
  <way id="23911017" version="2" timestamp="2008-04-23T00:24:14Z" uid="30201" user="rrankin" changeset="238815">
    <nd ref="259172016"/>
    <nd ref="259172020"/>
    <nd ref="259172021"/>
    <nd ref="259172024"/>
    <nd ref="259172025"/>
    <nd ref="259172026"/>
    <nd ref="259172027"/>
    <nd ref="259172028"/>
    <tag k="created_by" v="Potlatch 0.8b"/>
    <tag k="highway" v="residential"/>
    <tag k="name" v="Ilford Place"/>
  </way>
  <way id="23911017" version="3" timestamp="2010-07-07T22:33:42Z" uid="74617" user="JohnSmith" changeset="5162525">
    <nd ref="259172016"/>
    <nd ref="259172020"/>
    <nd ref="259172021"/>
    <nd ref="259172024"/>
    <nd ref="259172025"/>
    <nd ref="259172026"/>
    <nd ref="259172027"/>
    <nd ref="259172028"/>
    <tag k="highway" v="residential"/>
    <tag k="maxspeed" v="50"/>
    <tag k="maxspeed:source" v="default residential speed limit in Australia"/>
    <tag k="name" v="Ilford Place"/>
  </way>
  <way id="23911019" version="1" timestamp="2008-04-22T11:21:53Z" uid="30201" user="rrankin" changeset="223258">
    <nd ref="259095866"/>
    <nd ref="259172029"/>
    <tag k="created_by" v="JOSM"/>
    <tag k="highway" v="residential"/>
  </way>
  <way id="23911019" version="2" timestamp="2008-04-22T23:35:00Z" uid="30201" user="rrankin" changeset="238815">
    <nd ref="259095866"/>
    <nd ref="259172029"/>
    <tag k="created_by" v="Potlatch 0.8b"/>
    <tag k="highway" v="residential"/>
    <tag k="name" v="Horn Close"/>
  </way>
  <way id="23911019" version="4" timestamp="2010-07-07T22:29:43Z" uid="74617" user="JohnSmith" changeset="5162525">
    <nd ref="259095866"/>
    <nd ref="259172029"/>
    <tag k="highway" v="residential"/>
    <tag k="maxspeed" v="50"/>
    <tag k="maxspeed:source" v="default residential speed limit in Australia"/>
    <tag k="name" v="Horn Close"/>
  </way>
  <way id="23911020" version="1" timestamp="2008-04-22T11:21:53Z" uid="30201" user="rrankin" changeset="223258">
    <nd ref="259095868"/>
    <nd ref="259172030"/>
    <tag k="created_by" v="JOSM"/>
    <tag k="highway" v="residential"/>
  </way>
  <way id="23911020" version="2" timestamp="2008-04-22T23:36:19Z" uid="30201" user="rrankin" changeset="238815">
    <nd ref="259095868"/>
    <nd ref="259172030"/>
    <tag k="created_by" v="Potlatch 0.8b"/>
    <tag k="highway" v="residential"/>
    <tag k="name" v="Gouda Close"/>
  </way>
  <way id="23911020" version="4" timestamp="2009-12-20T03:29:46Z" uid="7617" user="Franc" changeset="3411233">
    <nd ref="259095868"/>
    <nd ref="596964687"/>
    <nd ref="259172030"/>
    <tag k="highway" v="residential"/>
    <tag k="name" v="Gouda Close"/>
  </way>
  <way id="23911020" version="5" timestamp="2010-07-07T22:30:12Z" uid="74617" user="JohnSmith" changeset="5162525">
    <nd ref="259095868"/>
    <nd ref="596964687"/>
    <nd ref="259172030"/>
    <tag k="highway" v="residential"/>
    <tag k="maxspeed" v="50"/>
    <tag k="maxspeed:source" v="default residential speed limit in Australia"/>
    <tag k="name" v="Gouda Close"/>
  </way>
  <way id="23911021" version="1" timestamp="2008-04-22T11:21:54Z" uid="30201" user="rrankin" changeset="223258">
    <nd ref="259172031"/>
    <nd ref="259172032"/>
    <nd ref="259172033"/>
    <tag k="created_by" v="JOSM"/>
    <tag k="highway" v="residential"/>
  </way>
  <way id="23911021" version="2" timestamp="2008-04-22T23:59:42Z" uid="30201" user="rrankin" changeset="238815">
    <nd ref="259172031"/>
    <nd ref="259172032"/>
    <nd ref="259172033"/>
    <tag k="created_by" v="Potlatch 0.8b"/>
    <tag k="highway" v="residential"/>
    <tag k="name" v="Perceval Close"/>
  </way>
  <way id="23911021" version="4" timestamp="2010-07-07T22:32:21Z" uid="74617" user="JohnSmith" changeset="5162525">
    <nd ref="259172031"/>
    <nd ref="259172032"/>
    <nd ref="259172033"/>
    <tag k="highway" v="residential"/>
    <tag k="maxspeed" v="50"/>
    <tag k="maxspeed:source" v="default residential speed limit in Australia"/>
    <tag k="name" v="Perceval Close"/>
  </way>
  <way id="23911022" version="1" timestamp="2008-04-22T11:21:55Z" uid="30201" user="rrankin" changeset="223258">
    <nd ref="259172034"/>
    <nd ref="259172035"/>
    <nd ref="259172036"/>
    <tag k="created_by" v="JOSM"/>
    <tag k="highway" v="residential"/>
  </way>
  <way id="23911022" version="2" timestamp="2008-04-23T00:08:57Z" uid="30201" user="rrankin" changeset="238815">
    <nd ref="259172034"/>
    <nd ref="259172035"/>
    <nd ref="259172036"/>
    <tag k="created_by" v="Potlatch 0.8b"/>
    <tag k="highway" v="residential"/>
    <tag k="name" v="Rutar Place"/>
  </way>
  <way id="23911022" version="4" timestamp="2009-12-20T11:16:49Z" uid="7617" user="Franc" changeset="3412608">
    <nd ref="259172034"/>
    <nd ref="597188188"/>
    <nd ref="597188189"/>
    <nd ref="259172035"/>
    <nd ref="597188209"/>
    <nd ref="259172036"/>
    <tag k="highway" v="residential"/>
    <tag k="name" v="Rutar Place"/>
  </way>
  <way id="23911022" version="5" timestamp="2010-07-07T22:35:36Z" uid="74617" user="JohnSmith" changeset="5162525">
    <nd ref="259172034"/>
    <nd ref="597188188"/>
    <nd ref="597188189"/>
    <nd ref="259172035"/>
    <nd ref="597188209"/>
    <nd ref="259172036"/>
    <tag k="highway" v="residential"/>
    <tag k="maxspeed" v="50"/>
    <tag k="maxspeed:source" v="default residential speed limit in Australia"/>
    <tag k="name" v="Rutar Place"/>
  </way>
  <way id="23911037" version="2" timestamp="2010-07-09T02:43:25Z" uid="74617" user="JohnSmith" changeset="5170713">
    <nd ref="259172385"/>
    <nd ref="259172387"/>
    <nd ref="259172388"/>
    <tag k="highway" v="residential"/>
    <tag k="maxspeed" v="50"/>
    <tag k="maxspeed:source" v="default residential speed limit in Australia"/>
    <tag k="name" v="Stella Avenue"/>
  </way>
  <way id="23911045" version="4" timestamp="2010-07-09T03:36:48Z" uid="74617" user="JohnSmith" changeset="5170838">
    <nd ref="259172432"/>
    <nd ref="417826447"/>
    <nd ref="259172461"/>
    <nd ref="259172462"/>
    <nd ref="259172469"/>
    <nd ref="259172463"/>
    <tag k="highway" v="residential"/>
    <tag k="maxspeed" v="50"/>
    <tag k="maxspeed:source" v="default residential speed limit in Australia"/>
    <tag k="name" v="Baldwin Avenue"/>
  </way>
  <way id="23911046" version="3" timestamp="2010-07-09T03:37:33Z" uid="74617" user="JohnSmith" changeset="5170838">
    <nd ref="259172464"/>
    <nd ref="259172465"/>
    <nd ref="259172461"/>
    <tag k="highway" v="residential"/>
    <tag k="maxspeed" v="50"/>
    <tag k="maxspeed:source" v="default residential speed limit in Australia"/>
    <tag k="name" v="Rex Court"/>
  </way>
  <way id="23911047" version="2" timestamp="2010-07-09T03:38:09Z" uid="74617" user="JohnSmith" changeset="5170838">
    <nd ref="259172467"/>
    <nd ref="259172468"/>
    <nd ref="259172469"/>
    <tag k="highway" v="residential"/>
    <tag k="maxspeed" v="50"/>
    <tag k="maxspeed:source" v="default residential speed limit in Australia"/>
    <tag k="name" v="Avard Court"/>
  </way>
  <way id="23911051" version="2" timestamp="2010-07-09T03:36:29Z" uid="74617" user="JohnSmith" changeset="5170838">
    <nd ref="259172488"/>
    <nd ref="259172489"/>
    <tag k="highway" v="residential"/>
    <tag k="maxspeed" v="50"/>
    <tag k="maxspeed:source" v="default residential speed limit in Australia"/>
    <tag k="name" v="Marlborough Court"/>
  </way>
  <way id="23911055" version="2" timestamp="2010-07-09T03:38:57Z" uid="74617" user="JohnSmith" changeset="5170838">
    <nd ref="259172660"/>
    <nd ref="259172662"/>
    <tag k="highway" v="residential"/>
    <tag k="maxspeed" v="50"/>
    <tag k="maxspeed:source" v="default residential speed limit in Australia"/>
    <tag k="name" v="Kalimna Avenue"/>
  </way>
  <way id="23911057" version="2" timestamp="2010-07-09T03:39:58Z" uid="74617" user="JohnSmith" changeset="5170838">
    <nd ref="259172691"/>
    <nd ref="259172726"/>
    <nd ref="259172727"/>
    <nd ref="259172728"/>
    <tag k="highway" v="residential"/>
    <tag k="maxspeed" v="50"/>
    <tag k="maxspeed:source" v="default residential speed limit in Australia"/>
    <tag k="name" v="David Street"/>
  </way>
  <way id="23911059" version="4" timestamp="2010-07-09T03:37:31Z" uid="74617" user="JohnSmith" changeset="5170838">
    <nd ref="259172729"/>
    <nd ref="259172733"/>
    <nd ref="259172734"/>
    <nd ref="259172735"/>
    <nd ref="259172982"/>
    <nd ref="259172736"/>
    <nd ref="259173033"/>
    <nd ref="259172737"/>
    <nd ref="259172738"/>
    <tag k="highway" v="residential"/>
    <tag k="maxspeed" v="50"/>
    <tag k="maxspeed:source" v="default residential speed limit in Australia"/>
    <tag k="name" v="Birrong Avenue"/>
  </way>
  <way id="23911062" version="2" timestamp="2010-07-09T03:39:11Z" uid="74617" user="JohnSmith" changeset="5170838">
    <nd ref="259172764"/>
    <nd ref="259172765"/>
    <nd ref="259172734"/>
    <tag k="highway" v="residential"/>
    <tag k="maxspeed" v="50"/>
    <tag k="maxspeed:source" v="default residential speed limit in Australia"/>
    <tag k="name" v="Miranda Court"/>
  </way>
  <way id="23911065" version="2" timestamp="2010-07-09T03:37:07Z" uid="74617" user="JohnSmith" changeset="5170838">
    <nd ref="259172768"/>
    <nd ref="259172769"/>
    <nd ref="259172770"/>
    <tag k="highway" v="residential"/>
    <tag k="maxspeed" v="50"/>
    <tag k="maxspeed:source" v="default residential speed limit in Australia"/>
    <tag k="name" v="Narrabeen Court"/>
  </way>
  <way id="23911070" version="3" timestamp="2010-07-09T03:39:55Z" uid="74617" user="JohnSmith" changeset="5170838">
    <nd ref="259172771"/>
    <nd ref="259172960"/>
    <nd ref="259172939"/>
    <nd ref="259172940"/>
    <nd ref="259172941"/>
    <nd ref="259172942"/>
    <nd ref="259172769"/>
    <tag k="highway" v="residential"/>
    <tag k="maxspeed" v="50"/>
    <tag k="maxspeed:source" v="default residential speed limit in Australia"/>
    <tag k="name" v="Collaroy Crescent"/>
  </way>
  <way id="23911074" version="2" timestamp="2010-07-09T03:38:37Z" uid="74617" user="JohnSmith" changeset="5170838">
    <nd ref="259172959"/>
    <nd ref="259172960"/>
    <tag k="highway" v="residential"/>
    <tag k="maxspeed" v="50"/>
    <tag k="maxspeed:source" v="default residential speed limit in Australia"/>
    <tag k="name" v="Kirrawee Court"/>
  </way>
  <way id="23911078" version="4" timestamp="2010-07-09T03:37:03Z" uid="74617" user="JohnSmith" changeset="5170838">
    <nd ref="259172980"/>
    <nd ref="259172981"/>
    <nd ref="259172987"/>
    <nd ref="259173023"/>
    <nd ref="259172982"/>
    <tag k="highway" v="residential"/>
    <tag k="maxspeed" v="50"/>
    <tag k="maxspeed:source" v="default residential speed limit in Australia"/>
    <tag k="name" v="Armadale Avenue"/>
  </way>
  <way id="23911081" version="2" timestamp="2010-07-09T03:38:53Z" uid="74617" user="JohnSmith" changeset="5170838">
    <nd ref="259172984"/>
    <nd ref="259172985"/>
    <nd ref="259172986"/>
    <nd ref="259172987"/>
    <tag k="highway" v="residential"/>
    <tag k="maxspeed" v="50"/>
    <tag k="maxspeed:source" v="default residential speed limit in Australia"/>
    <tag k="name" v="Bristol Court"/>
  </way>
  <way id="23911085" version="2" timestamp="2010-07-09T03:37:27Z" uid="74617" user="JohnSmith" changeset="5170838">
    <nd ref="259172988"/>
    <nd ref="259173023"/>
    <tag k="highway" v="residential"/>
    <tag k="maxspeed" v="50"/>
    <tag k="maxspeed:source" v="default residential speed limit in Australia"/>
    <tag k="name" v="Sussex Street"/>
  </way>
  <way id="23911088" version="2" timestamp="2010-07-09T03:39:08Z" uid="74617" user="JohnSmith" changeset="5170838">
    <nd ref="259173032"/>
    <nd ref="259173033"/>
    <tag k="highway" v="residential"/>
    <tag k="maxspeed" v="50"/>
    <tag k="maxspeed:source" v="default residential speed limit in Australia"/>
    <tag k="name" v="Greenglade Court"/>
  </way>
  <way id="23911210" version="2" timestamp="2010-07-09T02:49:00Z" uid="74617" user="JohnSmith" changeset="5170713">
    <nd ref="259173807"/>
    <nd ref="259173808"/>
    <tag k="highway" v="residential"/>
    <tag k="maxspeed" v="50"/>
    <tag k="maxspeed:source" v="default residential speed limit in Australia"/>
    <tag k="name" v="French Street"/>
  </way>
  <way id="23911218" version="5" timestamp="2010-07-09T02:50:08Z" uid="74617" user="JohnSmith" changeset="5170713">
    <nd ref="259173998"/>
    <nd ref="259173807"/>
    <nd ref="259174283"/>
    <nd ref="259174266"/>
    <nd ref="259173999"/>
    <nd ref="259174194"/>
    <nd ref="259174000"/>
    <tag k="highway" v="residential"/>
    <tag k="maxspeed" v="50"/>
    <tag k="maxspeed:source" v="default residential speed limit in Australia"/>
    <tag k="name" v="Leman Crescent"/>
  </way>
  <way id="23911221" version="2" timestamp="2010-07-09T02:43:57Z" uid="74617" user="JohnSmith" changeset="5170713">
    <nd ref="259174001"/>
    <nd ref="259173998"/>
    <tag k="highway" v="residential"/>
    <tag k="maxspeed" v="50"/>
    <tag k="maxspeed:source" v="default residential speed limit in Australia"/>
    <tag k="name" v="Briggs Crescent"/>
  </way>
  <way id="23911230" version="3" timestamp="2010-07-09T02:52:30Z" uid="74617" user="JohnSmith" changeset="5170713">
    <nd ref="259174034"/>
    <nd ref="259174058"/>
    <nd ref="259174059"/>
    <nd ref="259173998"/>
    <tag k="highway" v="residential"/>
    <tag k="maxspeed" v="50"/>
    <tag k="maxspeed:source" v="default residential speed limit in Australia"/>
    <tag k="name" v="Cumberland Avenue"/>
  </way>
  <way id="23911245" version="7" timestamp="2010-07-09T02:45:29Z" uid="74617" user="JohnSmith" changeset="5170713">
    <nd ref="259174144"/>
    <nd ref="259174190"/>
    <nd ref="259174489"/>
    <nd ref="259174432"/>
    <nd ref="616941711"/>
    <nd ref="259174360"/>
    <nd ref="259174313"/>
    <nd ref="259174191"/>
    <nd ref="259174192"/>
    <tag k="highway" v="residential"/>
    <tag k="maxspeed" v="50"/>
    <tag k="maxspeed:source" v="default residential speed limit in Australia"/>
    <tag k="name" v="Mons Parade"/>
  </way>
  <way id="23911249" version="3" timestamp="2010-07-09T02:48:20Z" uid="74617" user="JohnSmith" changeset="5170713">
    <nd ref="259174194"/>
    <nd ref="460339779"/>
    <tag k="highway" v="residential"/>
    <tag k="maxspeed" v="50"/>
    <tag k="maxspeed:source" v="default residential speed limit in Australia"/>
    <tag k="name" v="Callaghan Street"/>
  </way>
  <way id="23911253" version="2" timestamp="2010-07-09T02:46:24Z" uid="74617" user="JohnSmith" changeset="5170713">
    <nd ref="259174265"/>
    <nd ref="259174266"/>
    <tag k="highway" v="residential"/>
    <tag k="maxspeed" v="50"/>
    <tag k="maxspeed:source" v="default residential speed limit in Australia"/>
    <tag k="name" v="Blaby Street"/>
  </way>
  <way id="23911254" version="2" timestamp="2010-07-09T02:51:16Z" uid="74617" user="JohnSmith" changeset="5170713">
    <nd ref="259174282"/>
    <nd ref="259174283"/>
    <tag k="highway" v="residential"/>
    <tag k="maxspeed" v="50"/>
    <tag k="maxspeed:source" v="default residential speed limit in Australia"/>
    <tag k="name" v="Wigstone Street"/>
  </way>
  <way id="23911257" version="2" timestamp="2010-07-09T02:52:40Z" uid="74617" user="JohnSmith" changeset="5170713">
    <nd ref="259174312"/>
    <nd ref="259174313"/>
    <tag k="highway" v="residential"/>
    <tag k="maxspeed" v="50"/>
    <tag k="maxspeed:source" v="default residential speed limit in Australia"/>
    <tag k="name" v="Briggs Crescent"/>
  </way>
  <way id="23911261" version="3" timestamp="2010-07-09T02:50:22Z" uid="74617" user="JohnSmith" changeset="5170713">
    <nd ref="259174359"/>
    <nd ref="259174360"/>
    <tag k="highway" v="residential"/>
    <tag k="maxspeed" v="50"/>
    <tag k="maxspeed:source" v="default residential speed limit in Australia"/>
    <tag k="name" v="Pau Street"/>
  </way>
  <way id="23911264" version="2" timestamp="2010-07-09T02:44:01Z" uid="74617" user="JohnSmith" changeset="5170713">
    <nd ref="259174431"/>
    <nd ref="259174432"/>
    <tag k="highway" v="residential"/>
    <tag k="maxspeed" v="50"/>
    <tag k="maxspeed:source" v="default residential speed limit in Australia"/>
    <tag k="name" v="Roberts Street"/>
  </way>
  <way id="23911309" version="6" timestamp="2008-07-07T02:25:12Z" uid="6975" user="ulfl" changeset="415781">
    <nd ref="198225328"/>
    <nd ref="259174544"/>
    <nd ref="259174543"/>
    <nd ref="259174542"/>
    <nd ref="259174541"/>
    <nd ref="259174540"/>
    <nd ref="259174539"/>
    <nd ref="259174538"/>
    <nd ref="14571305"/>
    <tag k="highway" v="motorway_link"/>
    <tag k="nat_ref" v="A4"/>
    <tag k="oneway" v="yes"/>
  </way>
  <way id="23911325" version="4" timestamp="2010-07-09T02:45:50Z" uid="74617" user="JohnSmith" changeset="5170713">
    <nd ref="259174634"/>
    <nd ref="618530762"/>
    <nd ref="259174756"/>
    <nd ref="259174646"/>
    <nd ref="259174647"/>
    <tag k="highway" v="residential"/>
    <tag k="maxspeed" v="50"/>
    <tag k="maxspeed:source" v="default residential speed limit in Australia"/>
    <tag k="name" v="Bowman Street"/>
  </way>
  <way id="23911332" version="5" timestamp="2010-07-08T20:18:47Z" uid="74617" user="JohnSmith" changeset="5168688">
    <nd ref="259174755"/>
    <nd ref="618544089"/>
    <nd ref="259174822"/>
    <nd ref="259174776"/>
    <nd ref="259174756"/>
    <tag k="highway" v="residential"/>
    <tag k="maxspeed" v="50"/>
    <tag k="maxspeed:source" v="default residential speed limit in Australia"/>
    <tag k="name" v="Marshall Street"/>
  </way>
  <way id="23911342" version="3" timestamp="2010-07-09T02:48:23Z" uid="74617" user="JohnSmith" changeset="5170713">
    <nd ref="259174776"/>
    <nd ref="259174823"/>
    <nd ref="259174784"/>
    <tag k="highway" v="residential"/>
    <tag k="maxspeed" v="50"/>
    <tag k="maxspeed:source" v="default residential speed limit in Australia"/>
    <tag k="name" v="Smith Street"/>
  </way>
  <way id="23911343" version="3" timestamp="2008-07-07T02:25:12Z" uid="6975" user="ulfl" changeset="415781">
    <nd ref="14571274"/>
    <nd ref="259174795"/>
    <nd ref="259174796"/>
    <nd ref="259174797"/>
    <nd ref="259174798"/>
    <nd ref="259174799"/>
    <nd ref="259174800"/>
    <nd ref="259174801"/>
    <nd ref="259174802"/>
    <nd ref="259174803"/>
    <tag k="highway" v="motorway_link"/>
    <tag k="nat_ref" v="A4"/>
    <tag k="oneway" v="yes"/>
  </way>
  <way id="23911345" version="6" timestamp="2011-04-12T21:53:31Z" uid="9581" user="Lobelt" changeset="7847292">
    <nd ref="259174809"/>
    <nd ref="260272796"/>
    <nd ref="420482718"/>
    <nd ref="420482719"/>
    <nd ref="259174811"/>
    <nd ref="420482715"/>
    <nd ref="420482720"/>
    <nd ref="259174812"/>
    <nd ref="259174813"/>
    <nd ref="1242574040"/>
    <nd ref="259174814"/>
    <nd ref="1242575625"/>
    <nd ref="259174818"/>
    <nd ref="259174819"/>
    <nd ref="1242575012"/>
    <nd ref="1242574238"/>
    <nd ref="259174815"/>
    <nd ref="259174816"/>
    <tag k="highway" v="tertiary"/>
    <tag k="ref" v="K 55"/>
  </way>
  <way id="23911346" version="4" timestamp="2010-07-09T02:51:38Z" uid="74617" user="JohnSmith" changeset="5170713">
    <nd ref="259174821"/>
    <nd ref="259174956"/>
    <nd ref="259174822"/>
    <tag k="highway" v="residential"/>
    <tag k="maxspeed" v="50"/>
    <tag k="maxspeed:source" v="default residential speed limit in Australia"/>
    <tag k="name" v="Jeffers Street"/>
  </way>
  <way id="23911346" version="5" timestamp="2011-03-23T23:33:50Z" uid="4467" user="Rosscoe" changeset="7651743">
    <nd ref="259174821"/>
    <nd ref="1215501767"/>
    <nd ref="259174956"/>
    <nd ref="259174822"/>
    <tag k="highway" v="residential"/>
    <tag k="maxspeed" v="50"/>
    <tag k="maxspeed:source" v="default residential speed limit in Australia"/>
    <tag k="name" v="Jeffers Street"/>
  </way>
  <way id="23911350" version="3" timestamp="2010-07-09T02:49:22Z" uid="74617" user="JohnSmith" changeset="5170713">
    <nd ref="259174823"/>
    <nd ref="259174956"/>
    <nd ref="259174957"/>
    <tag k="highway" v="residential"/>
    <tag k="maxspeed" v="50"/>
    <tag k="maxspeed:source" v="default residential speed limit in Australia"/>
    <tag k="name" v="Terry Street"/>
  </way>
  <way id="23911350" version="4" timestamp="2011-03-23T23:33:47Z" uid="4467" user="Rosscoe" changeset="7651743">
    <nd ref="259174823"/>
    <nd ref="259174956"/>
    <nd ref="259174957"/>
    <nd ref="611937085"/>
    <nd ref="1215501849"/>
    <tag k="highway" v="residential"/>
    <tag k="maxspeed" v="50"/>
    <tag k="maxspeed:source" v="default residential speed limit in Australia"/>
    <tag k="name" v="Terry Street"/>
  </way>
  <way id="23911400" version="7" timestamp="2010-07-08T20:18:27Z" uid="74617" user="JohnSmith" changeset="5168688">
    <nd ref="259175488"/>
    <nd ref="618544372"/>
    <nd ref="618544373"/>
    <nd ref="618544340"/>
    <nd ref="259175486"/>
    <nd ref="618530364"/>
    <nd ref="259174755"/>
    <nd ref="259174957"/>
    <nd ref="259175485"/>
    <nd ref="259175225"/>
    <tag k="highway" v="residential"/>
    <tag k="maxspeed" v="50"/>
    <tag k="maxspeed:source" v="default residential speed limit in Australia"/>
    <tag k="name" v="Princes Highway Service Road"/>
    <tag k="oneway" v="yes"/>
  </way>
  <way id="23911400" version="8" timestamp="2011-03-23T23:33:37Z" uid="4467" user="Rosscoe" changeset="7651743">
    <nd ref="259175488"/>
    <nd ref="618544372"/>
    <nd ref="618544373"/>
    <nd ref="618544340"/>
    <nd ref="259175486"/>
    <nd ref="618530364"/>
    <nd ref="259174755"/>
    <nd ref="259174957"/>
    <nd ref="259175485"/>
    <nd ref="1215501817"/>
    <nd ref="1215501774"/>
    <tag k="highway" v="residential"/>
    <tag k="maxspeed" v="50"/>
    <tag k="maxspeed:source" v="default residential speed limit in Australia"/>
    <tag k="name" v="Princes Highway Service Road"/>
    <tag k="oneway" v="yes"/>
  </way>
  <way id="23911410" version="15" timestamp="2010-07-08T20:16:18Z" uid="74617" user="JohnSmith" changeset="5168688">
    <nd ref="268547173"/>
    <nd ref="618530313"/>
    <nd ref="611937070"/>
    <nd ref="268547172"/>
    <nd ref="618530316"/>
    <nd ref="268547171"/>
    <nd ref="618530245"/>
    <nd ref="618530229"/>
    <tag k="highway" v="residential"/>
    <tag k="maxspeed" v="50"/>
    <tag k="maxspeed:source" v="default residential speed limit in Australia"/>
    <tag k="name" v="Ryder Street"/>
  </way>
  <way id="23911413" version="7" timestamp="2010-07-08T20:19:03Z" uid="74617" user="JohnSmith" changeset="5168688">
    <nd ref="611937071"/>
    <nd ref="618534977"/>
    <nd ref="618534980"/>
    <nd ref="259175692"/>
    <nd ref="618534986"/>
    <nd ref="618534989"/>
    <nd ref="611917703"/>
    <nd ref="259175694"/>
    <tag k="highway" v="residential"/>
    <tag k="maxspeed" v="50"/>
    <tag k="maxspeed:source" v="default residential speed limit in Australia"/>
    <tag k="name" v="Langold Court"/>
  </way>
  <way id="23911418" version="15" timestamp="2010-07-08T20:18:15Z" uid="74617" user="JohnSmith" changeset="5168688">
    <nd ref="67348908"/>
    <nd ref="259176685"/>
    <nd ref="259176631"/>
    <nd ref="259175737"/>
    <nd ref="259177171"/>
    <nd ref="259177656"/>
    <nd ref="259176044"/>
    <nd ref="259175738"/>
    <nd ref="259176373"/>
    <nd ref="259175902"/>
    <nd ref="259175777"/>
    <nd ref="618530243"/>
    <tag k="highway" v="residential"/>
    <tag k="maxspeed" v="50"/>
    <tag k="maxspeed:source" v="default residential speed limit in Australia"/>
    <tag k="name" v="Liege Avenue"/>
  </way>
  <way id="23911418" version="16" timestamp="2011-03-24T00:10:05Z" uid="4467" user="Rosscoe" changeset="7651939">
    <nd ref="67348908"/>
    <nd ref="259176685"/>
    <nd ref="259176631"/>
    <nd ref="259175737"/>
    <nd ref="259177171"/>
    <nd ref="259177656"/>
    <nd ref="1215535797"/>
    <nd ref="259175738"/>
    <nd ref="259176373"/>
    <nd ref="1215535848"/>
    <nd ref="259175902"/>
    <nd ref="259175777"/>
    <nd ref="1215535819"/>
    <nd ref="618530243"/>
    <tag k="highway" v="residential"/>
    <tag k="maxspeed" v="50"/>
    <tag k="maxspeed:source" v="default residential speed limit in Australia"/>
    <tag k="name" v="Liege Avenue"/>
  </way>
  <way id="23911420" version="3" timestamp="2010-07-09T02:52:03Z" uid="74617" user="JohnSmith" changeset="5170713">
    <nd ref="259175756"/>
    <nd ref="618530790"/>
    <nd ref="618530791"/>
    <nd ref="618530792"/>
    <nd ref="618530793"/>
    <nd ref="618530794"/>
    <nd ref="618530795"/>
    <tag k="highway" v="residential"/>
    <tag k="maxspeed" v="50"/>
    <tag k="maxspeed:source" v="default residential speed limit in Australia"/>
    <tag k="name" v="Wachter Court"/>
  </way>
  <way id="23911422" version="2" timestamp="2010-07-09T03:37:30Z" uid="74617" user="JohnSmith" changeset="5170838">
    <nd ref="259175776"/>
    <nd ref="259175777"/>
    <tag k="highway" v="residential"/>
    <tag k="maxspeed" v="50"/>
    <tag k="maxspeed:source" v="default residential speed limit in Australia"/>
    <tag k="name" v="Sadie Court"/>
  </way>
  <way id="23911434" version="2" timestamp="2010-07-09T03:38:35Z" uid="74617" user="JohnSmith" changeset="5170838">
    <nd ref="259175901"/>
    <nd ref="259175902"/>
    <tag k="highway" v="residential"/>
    <tag k="maxspeed" v="50"/>
    <tag k="maxspeed:source" v="default residential speed limit in Australia"/>
    <tag k="name" v="Maxine Court"/>
  </way>
  <way id="23911441" version="2" timestamp="2010-07-09T02:53:24Z" uid="74617" user="JohnSmith" changeset="5170713">
    <nd ref="259175935"/>
    <nd ref="259175936"/>
    <nd ref="259175937"/>
    <nd ref="259175938"/>
    <tag k="highway" v="residential"/>
    <tag k="maxspeed" v="50"/>
    <tag k="maxspeed:source" v="default residential speed limit in Australia"/>
    <tag k="name" v="Cleal Court"/>
  </way>
  <way id="23911446" version="9" timestamp="2010-07-09T02:43:17Z" uid="74617" user="JohnSmith" changeset="5170713">
    <nd ref="259174000"/>
    <nd ref="259176043"/>
    <nd ref="259175938"/>
    <nd ref="259176289"/>
    <nd ref="259176044"/>
    <nd ref="259177501"/>
    <nd ref="259176444"/>
    <nd ref="618540529"/>
    <nd ref="259176285"/>
    <tag k="highway" v="residential"/>
    <tag k="maxspeed" v="50"/>
    <tag k="maxspeed:source" v="default residential speed limit in Australia"/>
    <tag k="name" v="Joffre Street"/>
  </way>
  <way id="23911446" version="10" timestamp="2011-03-24T00:10:13Z" uid="4467" user="Rosscoe" changeset="7651939">
    <nd ref="259174000"/>
    <nd ref="259176043"/>
    <nd ref="259175938"/>
    <nd ref="259176289"/>
    <nd ref="1215535779"/>
    <nd ref="259175738"/>
    <tag k="highway" v="residential"/>
    <tag k="maxspeed" v="50"/>
    <tag k="maxspeed:source" v="default residential speed limit in Australia"/>
    <tag k="name" v="Joffre Street"/>
  </way>
  <way id="23911449" version="7" timestamp="2011-04-20T16:38:42Z" uid="9581" user="Lobelt" changeset="7917746">
    <nd ref="259176070"/>
    <nd ref="259176071"/>
    <nd ref="259176072"/>
    <nd ref="1252610440"/>
    <nd ref="1252611053"/>
    <nd ref="259176073"/>
    <nd ref="259176074"/>
    <nd ref="1252610153"/>
    <nd ref="259176075"/>
    <nd ref="259176076"/>
    <nd ref="1252610874"/>
    <nd ref="1252609981"/>
    <nd ref="259176077"/>
    <nd ref="259176078"/>
    <nd ref="259176079"/>
    <nd ref="1252610472"/>
    <nd ref="259176080"/>
    <nd ref="1252611088"/>
    <nd ref="259176081"/>
    <nd ref="1252610057"/>
    <nd ref="259176082"/>
    <nd ref="259176083"/>
    <nd ref="1252610545"/>
    <nd ref="259176084"/>
    <nd ref="259176085"/>
    <nd ref="259176086"/>
    <nd ref="1252611231"/>
    <nd ref="1252610326"/>
    <nd ref="259176087"/>
    <nd ref="259176088"/>
    <nd ref="259176089"/>
    <nd ref="1252611026"/>
    <nd ref="259176090"/>
    <nd ref="259176091"/>
    <nd ref="410688636"/>
    <nd ref="259176092"/>
    <nd ref="259176093"/>
    <nd ref="259176094"/>
    <nd ref="259176095"/>
    <nd ref="410688621"/>
    <nd ref="357228847"/>
    <nd ref="259176096"/>
    <nd ref="259176097"/>
    <nd ref="259176098"/>
    <nd ref="1252610753"/>
    <nd ref="259176099"/>
    <nd ref="259176100"/>
    <tag k="highway" v="tertiary"/>
    <tag k="ref" v="K 30"/>
  </way>
  <way id="23911458" version="13" timestamp="2010-07-09T03:37:22Z" uid="74617" user="JohnSmith" changeset="5170838">
    <nd ref="259176060"/>
    <nd ref="618540539"/>
    <nd ref="618540537"/>
    <nd ref="618540538"/>
    <nd ref="618540535"/>
    <nd ref="259176686"/>
    <nd ref="618540536"/>
    <nd ref="259176632"/>
    <nd ref="259177142"/>
    <nd ref="259177187"/>
    <nd ref="611917882"/>
    <nd ref="259176285"/>
    <nd ref="259176341"/>
    <nd ref="611917704"/>
    <nd ref="259176286"/>
    <tag k="highway" v="residential"/>
    <tag k="maxspeed" v="50"/>
    <tag k="maxspeed:source" v="default residential speed limit in Australia"/>
    <tag k="name" v="Cyril Grove"/>
  </way>
  <way id="23911459" version="3" timestamp="2010-07-09T02:45:31Z" uid="74617" user="JohnSmith" changeset="5170713">
    <nd ref="259176289"/>
    <nd ref="259176340"/>
    <nd ref="259176290"/>
    <tag k="highway" v="residential"/>
    <tag k="maxspeed" v="50"/>
    <tag k="maxspeed:source" v="default residential speed limit in Australia"/>
    <tag k="name" v="Namur Street"/>
  </way>
  <way id="23911467" version="2" timestamp="2010-07-09T02:49:13Z" uid="74617" user="JohnSmith" changeset="5170713">
    <nd ref="259176336"/>
    <nd ref="259176337"/>
    <nd ref="259176338"/>
    <nd ref="259176339"/>
    <nd ref="259176340"/>
    <tag k="highway" v="residential"/>
    <tag k="maxspeed" v="50"/>
    <tag k="maxspeed:source" v="default residential speed limit in Australia"/>
    <tag k="name" v="Mama Court"/>
  </way>
  <way id="23911474" version="2" timestamp="2010-07-09T03:39:02Z" uid="74617" user="JohnSmith" changeset="5170838">
    <nd ref="259176341"/>
    <nd ref="259176373"/>
    <tag k="highway" v="residential"/>
    <tag k="maxspeed" v="50"/>
    <tag k="maxspeed:source" v="default residential speed limit in Australia"/>
    <tag k="name" v="Claudia Street"/>
  </way>
  <way id="23911482" version="2" timestamp="2010-07-09T03:39:48Z" uid="74617" user="JohnSmith" changeset="5170838">
    <nd ref="259176442"/>
    <nd ref="259176443"/>
    <nd ref="259176444"/>
    <tag k="highway" v="residential"/>
    <tag k="maxspeed" v="50"/>
    <tag k="maxspeed:source" v="default residential speed limit in Australia"/>
    <tag k="name" v="Ada Court"/>
  </way>
  <way id="23911490" version="2" timestamp="2010-07-09T02:45:38Z" uid="74617" user="JohnSmith" changeset="5170713">
    <nd ref="259176488"/>
    <nd ref="259176489"/>
    <tag k="highway" v="residential"/>
    <tag k="maxspeed" v="50"/>
    <tag k="maxspeed:source" v="default residential speed limit in Australia"/>
    <tag k="name" v="Wilela Court"/>
  </way>
  <way id="23911500" version="5" timestamp="2010-07-09T02:53:29Z" uid="74617" user="JohnSmith" changeset="5170713">
    <nd ref="259176630"/>
    <nd ref="259177706"/>
    <nd ref="259177141"/>
    <nd ref="259177742"/>
    <nd ref="259176631"/>
    <nd ref="259176632"/>
    <tag k="highway" v="residential"/>
    <tag k="maxspeed" v="50"/>
    <tag k="maxspeed:source" v="default residential speed limit in Australia"/>
    <tag k="name" v="Jellicoe Street"/>
  </way>
  <way id="23911505" version="3" timestamp="2010-07-09T03:39:28Z" uid="74617" user="JohnSmith" changeset="5170838">
    <nd ref="259176684"/>
    <nd ref="259176685"/>
    <tag k="highway" v="residential"/>
    <tag k="maxspeed" v="50"/>
    <tag k="maxspeed:source" v="default residential speed limit in Australia"/>
    <tag k="name" v="Logan Court"/>
  </way>
  <way id="23911512" version="3" timestamp="2010-07-09T03:39:44Z" uid="74617" user="JohnSmith" changeset="5170838">
    <nd ref="259176686"/>
    <nd ref="259176975"/>
    <nd ref="259176685"/>
    <tag k="highway" v="residential"/>
    <tag k="maxspeed" v="50"/>
    <tag k="maxspeed:source" v="default residential speed limit in Australia"/>
    <tag k="name" v="Blamey Street"/>
  </way>
  <way id="23911515" version="2" timestamp="2010-07-09T02:44:44Z" uid="74617" user="JohnSmith" changeset="5170713">
    <nd ref="259176986"/>
    <nd ref="259176987"/>
    <nd ref="259176988"/>
    <tag k="highway" v="residential"/>
    <tag k="maxspeed" v="50"/>
    <tag k="maxspeed:source" v="default residential speed limit in Australia"/>
    <tag k="name" v="Eden Court"/>
  </way>
  <way id="23911521" version="4" timestamp="2008-07-05T16:31:23Z" uid="6975" user="ulfl" changeset="398437">
    <nd ref="259177115"/>
    <nd ref="259177116"/>
    <nd ref="259177117"/>
    <nd ref="259177118"/>
    <nd ref="259177119"/>
    <nd ref="259177120"/>
    <nd ref="259177121"/>
    <nd ref="259177122"/>
    <nd ref="259177123"/>
    <nd ref="259177124"/>
    <nd ref="259177125"/>
    <nd ref="259177126"/>
    <nd ref="259177127"/>
    <nd ref="259177128"/>
    <nd ref="259177129"/>
    <nd ref="259177130"/>
    <nd ref="259177131"/>
    <nd ref="259177132"/>
    <nd ref="259177133"/>
    <nd ref="259177134"/>
    <nd ref="259177135"/>
    <nd ref="259177136"/>
    <nd ref="259177137"/>
    <nd ref="259177138"/>
    <nd ref="259177115"/>
    <tag k="name" v="Valdelagrana"/>
    <tag k="natural" v="beach"/>
  </way>
  <way id="23911522" version="2" timestamp="2010-07-09T02:48:25Z" uid="74617" user="JohnSmith" changeset="5170713">
    <nd ref="259176989"/>
    <nd ref="259177139"/>
    <nd ref="259177140"/>
    <nd ref="259177141"/>
    <tag k="highway" v="residential"/>
    <tag k="maxspeed" v="50"/>
    <tag k="maxspeed:source" v="default residential speed limit in Australia"/>
    <tag k="name" v="Pamela Street"/>
  </way>
  <way id="23911526" version="2" timestamp="2010-07-09T02:46:31Z" uid="74617" user="JohnSmith" changeset="5170713">
    <nd ref="259177142"/>
    <nd ref="259177170"/>
    <nd ref="259177171"/>
    <tag k="highway" v="residential"/>
    <tag k="maxspeed" v="50"/>
    <tag k="maxspeed:source" v="default residential speed limit in Australia"/>
    <tag k="name" v="Lee Street"/>
  </way>
  <way id="23911534" version="2" timestamp="2010-07-09T03:37:32Z" uid="74617" user="JohnSmith" changeset="5170838">
    <nd ref="259177187"/>
    <nd ref="259177500"/>
    <nd ref="259177501"/>
    <tag k="highway" v="residential"/>
    <tag k="maxspeed" v="50"/>
    <tag k="maxspeed:source" v="default residential speed limit in Australia"/>
    <tag k="name" v="Alma Crescent"/>
  </way>
  <way id="23911541" version="3" timestamp="2010-07-09T02:46:50Z" uid="74617" user="JohnSmith" changeset="5170713">
    <nd ref="259177656"/>
    <nd ref="259177724"/>
    <nd ref="259177705"/>
    <tag k="highway" v="residential"/>
    <tag k="maxspeed" v="50"/>
    <tag k="maxspeed:source" v="default residential speed limit in Australia"/>
    <tag k="name" v="Holmes Street"/>
  </way>
  <way id="23911545" version="2" timestamp="2010-07-09T02:53:06Z" uid="74617" user="JohnSmith" changeset="5170713">
    <nd ref="259177706"/>
    <nd ref="259177705"/>
    <nd ref="259177723"/>
    <tag k="highway" v="residential"/>
    <tag k="maxspeed" v="50"/>
    <tag k="maxspeed:source" v="default residential speed limit in Australia"/>
    <tag k="name" v="Carter Street"/>
  </way>
  <way id="23911548" version="2" timestamp="2010-07-09T02:48:00Z" uid="74617" user="JohnSmith" changeset="5170713">
    <nd ref="259177724"/>
    <nd ref="259177742"/>
    <tag k="highway" v="residential"/>
    <tag k="maxspeed" v="50"/>
    <tag k="maxspeed:source" v="default residential speed limit in Australia"/>
    <tag k="name" v="Raven Street"/>
  </way>
  <way id="23911559" version="3" timestamp="2010-07-09T03:39:07Z" uid="74617" user="JohnSmith" changeset="5170838">
    <nd ref="259177892"/>
    <nd ref="611918818"/>
    <nd ref="259177893"/>
    <tag k="highway" v="residential"/>
    <tag k="maxspeed" v="50"/>
    <tag k="maxspeed:source" v="default residential speed limit in Australia"/>
    <tag k="name" v="Rolex Court"/>
  </way>
  <way id="23911561" version="3" timestamp="2010-07-09T03:40:07Z" uid="74617" user="JohnSmith" changeset="5170838">
    <nd ref="259177897"/>
    <nd ref="259177898"/>
    <nd ref="259178009"/>
    <nd ref="259177899"/>
    <tag k="highway" v="residential"/>
    <tag k="maxspeed" v="50"/>
    <tag k="maxspeed:source" v="default residential speed limit in Australia"/>
    <tag k="name" v="Dallimore Court"/>
  </way>
  <way id="23911569" version="2" timestamp="2010-07-09T03:37:23Z" uid="74617" user="JohnSmith" changeset="5170838">
    <nd ref="259178007"/>
    <nd ref="259178008"/>
    <nd ref="259178009"/>
    <tag k="highway" v="residential"/>
    <tag k="maxspeed" v="50"/>
    <tag k="maxspeed:source" v="default residential speed limit in Australia"/>
    <tag k="name" v="Winston Court"/>
  </way>
  <way id="23911675" version="3" timestamp="2010-07-09T03:39:36Z" uid="74617" user="JohnSmith" changeset="5170838">
    <nd ref="259178989"/>
    <nd ref="259179400"/>
    <nd ref="259178990"/>
    <tag k="highway" v="residential"/>
    <tag k="maxspeed" v="50"/>
    <tag k="maxspeed:source" v="default residential speed limit in Australia"/>
    <tag k="name" v="Belfort Street"/>
  </way>
  <way id="23911677" version="4" timestamp="2010-07-09T03:37:02Z" uid="74617" user="JohnSmith" changeset="5170838">
    <nd ref="259178995"/>
    <nd ref="611918475"/>
    <nd ref="259180493"/>
    <nd ref="259178989"/>
    <tag k="highway" v="residential"/>
    <tag k="maxspeed" v="50"/>
    <tag k="maxspeed:source" v="default residential speed limit in Australia"/>
    <tag k="name" v="Lorraine Street"/>
  </way>
  <way id="23911701" version="7" timestamp="2010-04-26T05:43:38Z" uid="4467" user="Rosscoe" changeset="4528463">
    <nd ref="259179399"/>
    <nd ref="259179400"/>
    <nd ref="259179401"/>
    <nd ref="706931093"/>
    <tag k="highway" v="residential"/>
    <tag k="name" v="Birdwood Avenue"/>
  </way>
  <way id="23911701" version="8" timestamp="2010-07-09T03:38:14Z" uid="74617" user="JohnSmith" changeset="5170838">
    <nd ref="259179399"/>
    <nd ref="259179400"/>
    <nd ref="259179401"/>
    <nd ref="706931093"/>
    <tag k="highway" v="residential"/>
    <tag k="maxspeed" v="50"/>
    <tag k="maxspeed:source" v="default residential speed limit in Australia"/>
    <tag k="name" v="Birdwood Avenue"/>
  </way>
  <way id="23911702" version="7" timestamp="2010-06-29T19:11:27Z" uid="74617" user="JohnSmith" changeset="5108182">
    <nd ref="259179403"/>
    <nd ref="259179404"/>
    <nd ref="259179405"/>
    <nd ref="259179406"/>
    <nd ref="259179403"/>
    <tag k="fixme" v="sport=football is ambiguous, see http://wiki.osm.org/wiki/Football for more details"/>
    <tag k="leisure" v="pitch"/>
    <tag k="operator" v="BremervÃ¶rder SC"/>
    <tag k="sport" v="football"/>
  </way>
  <way id="23911717" version="11" timestamp="2010-04-26T08:39:40Z" uid="4467" user="Rosscoe" changeset="4529525">
    <nd ref="67348922"/>
    <nd ref="67348923"/>
    <nd ref="67348924"/>
    <nd ref="67348925"/>
    <nd ref="259185050"/>
    <nd ref="707026349"/>
    <tag k="highway" v="tertiary"/>
    <tag k="name" v="Foster Street"/>
  </way>
  <way id="23911808" version="13" timestamp="2010-07-09T03:39:32Z" uid="74617" user="JohnSmith" changeset="5170838">
    <nd ref="259180168"/>
    <nd ref="259180490"/>
    <nd ref="259180491"/>
    <nd ref="259180958"/>
    <nd ref="259180807"/>
    <nd ref="259181021"/>
    <nd ref="259180492"/>
    <nd ref="259181366"/>
    <nd ref="259180612"/>
    <nd ref="259181401"/>
    <nd ref="259180593"/>
    <nd ref="612756453"/>
    <nd ref="259181441"/>
    <nd ref="259180531"/>
    <nd ref="259180493"/>
    <tag k="highway" v="residential"/>
    <tag k="maxspeed" v="50"/>
    <tag k="maxspeed:source" v="default residential speed limit in Australia"/>
    <tag k="name" v="King George Parade"/>
  </way>
  <way id="23911823" version="2" timestamp="2010-07-09T03:36:56Z" uid="74617" user="JohnSmith" changeset="5170838">
    <nd ref="259180531"/>
    <nd ref="259180512"/>
    <tag k="highway" v="residential"/>
    <tag k="maxspeed" v="50"/>
    <tag k="maxspeed:source" v="default residential speed limit in Australia"/>
    <tag k="name" v="Alsace Street"/>
  </way>
  <way id="23911826" version="3" timestamp="2010-07-09T03:38:48Z" uid="74617" user="JohnSmith" changeset="5170838">
    <nd ref="259180574"/>
    <nd ref="259180593"/>
    <tag k="highway" v="residential"/>
    <tag k="maxspeed" v="50"/>
    <tag k="maxspeed:source" v="default residential speed limit in Australia"/>
    <tag k="name" v="Goldlang Street"/>
  </way>
  <way id="23911828" version="2" timestamp="2010-07-09T03:39:48Z" uid="74617" user="JohnSmith" changeset="5170838">
    <nd ref="259180612"/>
    <nd ref="259180613"/>
    <tag k="highway" v="residential"/>
    <tag k="maxspeed" v="50"/>
    <tag k="maxspeed:source" v="default residential speed limit in Australia"/>
    <tag k="name" v="Wallace Avenue"/>
  </way>
  <way id="23911836" version="2" timestamp="2010-07-09T03:36:51Z" uid="74617" user="JohnSmith" changeset="5170838">
    <nd ref="259180492"/>
    <nd ref="259180756"/>
    <tag k="highway" v="residential"/>
    <tag k="maxspeed" v="50"/>
    <tag k="maxspeed:source" v="default residential speed limit in Australia"/>
    <tag k="name" v="Elray Avenue"/>
  </way>
  <way id="23911841" version="3" timestamp="2010-07-09T03:39:45Z" uid="74617" user="JohnSmith" changeset="5170838">
    <nd ref="259180757"/>
    <nd ref="259180889"/>
    <nd ref="259180807"/>
    <tag k="highway" v="residential"/>
    <tag k="maxspeed" v="50"/>
    <tag k="maxspeed:source" v="default residential speed limit in Australia"/>
    <tag k="name" v="Ray Street"/>
  </way>
  <way id="23911843" version="2" timestamp="2010-07-09T03:37:13Z" uid="74617" user="JohnSmith" changeset="5170838">
    <nd ref="259180808"/>
    <nd ref="259180855"/>
    <nd ref="259180856"/>
    <tag k="highway" v="residential"/>
    <tag k="maxspeed" v="50"/>
    <tag k="maxspeed:source" v="default residential speed limit in Australia"/>
    <tag k="name" v="Carmen Street"/>
  </way>
  <way id="23911870" version="2" timestamp="2010-07-09T03:37:49Z" uid="74617" user="JohnSmith" changeset="5170838">
    <nd ref="259180889"/>
    <nd ref="259180856"/>
    <tag k="highway" v="residential"/>
    <tag k="maxspeed" v="50"/>
    <tag k="maxspeed:source" v="default residential speed limit in Australia"/>
    <tag k="name" v="Maurice Street"/>
  </way>
  <way id="23911881" version="2" timestamp="2010-07-09T03:38:08Z" uid="74617" user="JohnSmith" changeset="5170838">
    <nd ref="259180958"/>
    <nd ref="259180856"/>
    <tag k="highway" v="residential"/>
    <tag k="maxspeed" v="50"/>
    <tag k="maxspeed:source" v="default residential speed limit in Australia"/>
    <tag k="name" v="Queen Street"/>
  </way>
  <way id="23911885" version="4" timestamp="2010-07-09T03:36:26Z" uid="74617" user="JohnSmith" changeset="5170838">
    <nd ref="259181018"/>
    <nd ref="259181019"/>
    <nd ref="259181033"/>
    <nd ref="259181050"/>
    <nd ref="259181020"/>
    <tag k="highway" v="residential"/>
    <tag k="maxspeed" v="50"/>
    <tag k="maxspeed:source" v="default residential speed limit in Australia"/>
    <tag k="name" v="Edgewood Road"/>
  </way>
  <way id="23911889" version="2" timestamp="2010-07-09T03:38:55Z" uid="74617" user="JohnSmith" changeset="5170838">
    <nd ref="259181021"/>
    <nd ref="259181032"/>
    <nd ref="259181033"/>
    <tag k="highway" v="residential"/>
    <tag k="maxspeed" v="50"/>
    <tag k="maxspeed:source" v="default residential speed limit in Australia"/>
    <tag k="name" v="Ray Street"/>
  </way>
  <way id="23911893" version="3" timestamp="2010-07-09T03:37:29Z" uid="74617" user="JohnSmith" changeset="5170838">
    <nd ref="259181050"/>
    <nd ref="259181288"/>
    <nd ref="259181059"/>
    <tag k="highway" v="residential"/>
    <tag k="maxspeed" v="50"/>
    <tag k="maxspeed:source" v="default residential speed limit in Australia"/>
    <tag k="name" v="Ray Street"/>
  </way>
  <way id="23911899" version="2" timestamp="2010-07-09T03:37:04Z" uid="74617" user="JohnSmith" changeset="5170838">
    <nd ref="259181286"/>
    <nd ref="259181287"/>
    <nd ref="259181288"/>
    <tag k="highway" v="residential"/>
    <tag k="maxspeed" v="50"/>
    <tag k="maxspeed:source" v="default residential speed limit in Australia"/>
    <tag k="name" v="Elletson Court"/>
  </way>
  <way id="23911913" version="3" timestamp="2010-07-09T03:37:43Z" uid="74617" user="JohnSmith" changeset="5170838">
    <nd ref="259181346"/>
    <nd ref="259181347"/>
    <nd ref="259181059"/>
    <nd ref="448183785"/>
    <tag k="highway" v="residential"/>
    <tag k="maxspeed" v="50"/>
    <tag k="maxspeed:source" v="default residential speed limit in Australia"/>
    <tag k="name" v="Sutherland Road"/>
  </way>
  <way id="23911926" version="2" timestamp="2010-07-09T03:37:40Z" uid="74617" user="JohnSmith" changeset="5170838">
    <nd ref="259181400"/>
    <nd ref="259181401"/>
    <tag k="highway" v="residential"/>
    <tag k="maxspeed" v="50"/>
    <tag k="maxspeed:source" v="default residential speed limit in Australia"/>
    <tag k="name" v="Corvi Court"/>
  </way>
  <way id="23911928" version="2" timestamp="2010-07-09T03:38:50Z" uid="74617" user="JohnSmith" changeset="5170838">
    <nd ref="259181440"/>
    <nd ref="259181441"/>
    <tag k="highway" v="residential"/>
    <tag k="maxspeed" v="50"/>
    <tag k="maxspeed:source" v="default residential speed limit in Australia"/>
    <tag k="name" v="Jolly Street"/>
  </way>
  <way id="23911941" version="7" timestamp="2010-04-26T05:43:45Z" uid="4467" user="Rosscoe" changeset="4528463">
    <nd ref="259181462"/>
    <nd ref="259181610"/>
    <nd ref="259181611"/>
    <nd ref="259181612"/>
    <nd ref="259181613"/>
    <nd ref="259181614"/>
    <nd ref="259181615"/>
    <nd ref="259182538"/>
    <nd ref="259181616"/>
    <nd ref="259181617"/>
    <nd ref="259181618"/>
    <nd ref="706930983"/>
    <tag k="highway" v="tertiary"/>
    <tag k="name" v="Jones Road"/>
  </way>
  <way id="23911980" version="2" timestamp="2010-07-09T03:37:49Z" uid="74617" user="JohnSmith" changeset="5170838">
    <nd ref="259181715"/>
    <nd ref="259182351"/>
    <tag k="highway" v="residential"/>
    <tag k="maxspeed" v="50"/>
    <tag k="maxspeed:source" v="default residential speed limit in Australia"/>
    <tag k="name" v="Campbell Street"/>
  </way>
  <way id="23911985" version="3" timestamp="2010-07-09T03:36:43Z" uid="74617" user="JohnSmith" changeset="5170838">
    <nd ref="259182351"/>
    <nd ref="259181440"/>
    <nd ref="259182426"/>
    <nd ref="259182427"/>
    <nd ref="612756241"/>
    <nd ref="259182428"/>
    <tag k="highway" v="residential"/>
    <tag k="maxspeed" v="50"/>
    <tag k="maxspeed:source" v="default residential speed limit in Australia"/>
    <tag k="name" v="Lexton Avenue"/>
  </way>
  <way id="23911996" version="3" timestamp="2010-07-09T03:39:22Z" uid="74617" user="JohnSmith" changeset="5170838">
    <nd ref="259182536"/>
    <nd ref="259182537"/>
    <nd ref="259182538"/>
    <nd ref="612756451"/>
    <nd ref="132144304"/>
    <nd ref="259181346"/>
    <nd ref="259182428"/>
    <tag k="highway" v="residential"/>
    <tag k="maxspeed" v="50"/>
    <tag k="maxspeed:source" v="default residential speed limit in Australia"/>
    <tag k="name" v="Rylands Road"/>
  </way>
</osm>
