<?xml version='1.0' encoding='UTF-8'?>
<osm version="0.6" generator="libosmium/2.20.0">
  <way id="23925018" version="2" timestamp="2010-07-09T03:36:30Z" uid="74617" user="JohnSmith" changeset="5170838">
    <nd ref="259403383"/>
    <nd ref="259403839"/>
    <nd ref="259403840"/>
    <nd ref="259403359"/>
    <tag k="highway" v="residential"/>
    <tag k="maxspeed" v="50"/>
    <tag k="maxspeed:source" v="default residential speed limit in Australia"/>
    <tag k="name" v="Wooltana Road"/>
  </way>
  <way id="23925039" version="2" timestamp="2010-07-09T03:37:29Z" uid="74617" user="JohnSmith" changeset="5170838">
    <nd ref="259403909"/>
    <nd ref="259403910"/>
    <nd ref="259403911"/>
    <tag k="highway" v="residential"/>
    <tag k="maxspeed" v="50"/>
    <tag k="maxspeed:source" v="default residential speed limit in Australia"/>
    <tag k="name" v="Ratcliffe Court"/>
  </way>
  <way id="23925041" version="1" timestamp="2008-04-23T07:04:15Z" uid="30201" user="rrankin" changeset="238815">
    <nd ref="259403068"/>
    <nd ref="259403921"/>
    <nd ref="259403922"/>
    <tag k="created_by" v="Potlatch 0.8b"/>
    <tag k="highway" v="residential"/>
    <tag k="name" v="Leonello Place"/>
  </way>
  <way id="23925041" version="2" timestamp="2010-07-07T22:36:00Z" uid="74617" user="JohnSmith" changeset="5162525">
    <nd ref="259403068"/>
    <nd ref="259403921"/>
    <nd ref="259403922"/>
    <tag k="highway" v="residential"/>
    <tag k="maxspeed" v="50"/>
    <tag k="maxspeed:source" v="default residential speed limit in Australia"/>
    <tag k="name" v="Leonello Place"/>
  </way>
  <way id="23925042" version="2" timestamp="2010-07-09T03:39:09Z" uid="74617" user="JohnSmith" changeset="5170838">
    <nd ref="259403923"/>
    <nd ref="259403356"/>
    <tag k="highway" v="residential"/>
    <tag k="maxspeed" v="50"/>
    <tag k="maxspeed:source" v="default residential speed limit in Australia"/>
    <tag k="name" v="Aubin Court"/>
  </way>
  <way id="23925045" version="3" timestamp="2010-07-09T03:37:03Z" uid="74617" user="JohnSmith" changeset="5170838">
    <nd ref="259403960"/>
    <nd ref="259404006"/>
    <nd ref="259403961"/>
    <nd ref="259403962"/>
    <nd ref="259403963"/>
    <nd ref="259403352"/>
    <tag k="highway" v="residential"/>
    <tag k="maxspeed" v="50"/>
    <tag k="maxspeed:source" v="default residential speed limit in Australia"/>
    <tag k="name" v="Claremont Crescent"/>
  </way>
  <way id="23925047" version="3" timestamp="2010-07-09T03:38:18Z" uid="74617" user="JohnSmith" changeset="5170838">
    <nd ref="259166821"/>
    <nd ref="259404006"/>
    <nd ref="259404120"/>
    <nd ref="259404007"/>
    <tag k="highway" v="residential"/>
    <tag k="maxspeed" v="50"/>
    <tag k="maxspeed:source" v="default residential speed limit in Australia"/>
    <tag k="name" v="Thurbro Drive"/>
  </way>
  <way id="23925049" version="1" timestamp="2008-04-23T07:05:23Z" uid="30201" user="rrankin" changeset="238815">
    <nd ref="259403066"/>
    <nd ref="259404064"/>
    <tag k="created_by" v="Potlatch 0.8b"/>
    <tag k="highway" v="residential"/>
  </way>
  <way id="23925049" version="2" timestamp="2008-04-23T07:05:32Z" uid="30201" user="rrankin" changeset="238815">
    <nd ref="259403066"/>
    <nd ref="259404064"/>
    <tag k="created_by" v="Potlatch 0.8b"/>
    <tag k="highway" v="residential"/>
    <tag k="name" v="Duardo Street"/>
  </way>
  <way id="23925049" version="3" timestamp="2010-07-07T22:33:17Z" uid="74617" user="JohnSmith" changeset="5162525">
    <nd ref="259403066"/>
    <nd ref="259404064"/>
    <tag k="highway" v="residential"/>
    <tag k="maxspeed" v="50"/>
    <tag k="maxspeed:source" v="default residential speed limit in Australia"/>
    <tag k="name" v="Duardo Street"/>
  </way>
  <way id="23925057" version="2" timestamp="2010-07-09T03:38:05Z" uid="74617" user="JohnSmith" changeset="5170838">
    <nd ref="259404118"/>
    <nd ref="259404119"/>
    <nd ref="259404120"/>
    <tag k="highway" v="residential"/>
    <tag k="maxspeed" v="50"/>
    <tag k="maxspeed:source" v="default residential speed limit in Australia"/>
    <tag k="name" v="Sheaman Court"/>
  </way>
  <way id="23925061" version="3" timestamp="2010-07-09T03:40:10Z" uid="74617" user="JohnSmith" changeset="5170838">
    <nd ref="259404151"/>
    <nd ref="259404120"/>
    <tag k="highway" v="residential"/>
    <tag k="maxspeed" v="50"/>
    <tag k="maxspeed:source" v="default residential speed limit in Australia"/>
    <tag k="name" v="McMahen Street"/>
  </way>
  <way id="23925065" version="3" timestamp="2010-07-09T03:38:52Z" uid="74617" user="JohnSmith" changeset="5170838">
    <nd ref="259404177"/>
    <nd ref="259404007"/>
    <nd ref="259404267"/>
    <nd ref="259404178"/>
    <nd ref="259404179"/>
    <nd ref="259404180"/>
    <tag k="highway" v="residential"/>
    <tag k="maxspeed" v="50"/>
    <tag k="maxspeed:source" v="default residential speed limit in Australia"/>
    <tag k="name" v="Springside Crescent"/>
  </way>
  <way id="23925067" version="1" timestamp="2008-04-23T07:06:41Z" uid="30201" user="rrankin" changeset="238815">
    <nd ref="259403064"/>
    <nd ref="259404181"/>
    <nd ref="259404182"/>
    <tag k="created_by" v="Potlatch 0.8b"/>
    <tag k="highway" v="residential"/>
    <tag k="name" v="Cashman Place"/>
  </way>
  <way id="23925067" version="2" timestamp="2009-12-20T04:22:36Z" uid="7617" user="Franc" changeset="3411323">
    <nd ref="259403064"/>
    <nd ref="597015743"/>
    <nd ref="259404181"/>
    <nd ref="259404182"/>
    <tag k="highway" v="residential"/>
    <tag k="name" v="Cashman Place"/>
  </way>
  <way id="23925067" version="3" timestamp="2009-12-20T21:07:43Z" uid="7617" user="Franc" changeset="3417014">
    <nd ref="259403064"/>
    <nd ref="597015743"/>
    <nd ref="259404181"/>
    <nd ref="597440268"/>
    <nd ref="259404182"/>
    <tag k="highway" v="residential"/>
    <tag k="name" v="Cashman Place"/>
  </way>
  <way id="23925067" version="4" timestamp="2010-07-07T22:34:52Z" uid="74617" user="JohnSmith" changeset="5162525">
    <nd ref="259403064"/>
    <nd ref="597015743"/>
    <nd ref="259404181"/>
    <nd ref="597440268"/>
    <nd ref="259404182"/>
    <tag k="highway" v="residential"/>
    <tag k="maxspeed" v="50"/>
    <tag k="maxspeed:source" v="default residential speed limit in Australia"/>
    <tag k="name" v="Cashman Place"/>
  </way>
  <way id="23925070" version="2" timestamp="2010-07-09T03:38:02Z" uid="74617" user="JohnSmith" changeset="5170838">
    <nd ref="259404265"/>
    <nd ref="259404266"/>
    <nd ref="259404267"/>
    <tag k="highway" v="residential"/>
    <tag k="maxspeed" v="50"/>
    <tag k="maxspeed:source" v="default residential speed limit in Australia"/>
    <tag k="name" v="Malcolm Crescent"/>
  </way>
  <way id="23925073" version="3" timestamp="2010-07-09T03:39:35Z" uid="74617" user="JohnSmith" changeset="5170838">
    <nd ref="259404271"/>
    <nd ref="259404272"/>
    <nd ref="259404273"/>
    <tag k="highway" v="residential"/>
    <tag k="maxspeed" v="50"/>
    <tag k="maxspeed:source" v="default residential speed limit in Australia"/>
    <tag k="name" v="Maralinga Avenue"/>
  </way>
  <way id="23925074" version="2" timestamp="2010-07-09T03:40:07Z" uid="74617" user="JohnSmith" changeset="5170838">
    <nd ref="259404350"/>
    <nd ref="259404351"/>
    <tag k="highway" v="residential"/>
    <tag k="maxspeed" v="50"/>
    <tag k="maxspeed:source" v="default residential speed limit in Australia"/>
    <tag k="name" v="Mahala Court"/>
  </way>
  <way id="23925087" version="1" timestamp="2008-04-23T07:08:09Z" uid="30201" user="rrankin" changeset="238815">
    <nd ref="259403063"/>
    <nd ref="259404401"/>
    <tag k="created_by" v="Potlatch 0.8b"/>
    <tag k="highway" v="residential"/>
    <tag k="name" v="Lee Close"/>
  </way>
  <way id="23925087" version="2" timestamp="2010-07-07T22:29:51Z" uid="74617" user="JohnSmith" changeset="5162525">
    <nd ref="259403063"/>
    <nd ref="259404401"/>
    <tag k="highway" v="residential"/>
    <tag k="maxspeed" v="50"/>
    <tag k="maxspeed:source" v="default residential speed limit in Australia"/>
    <tag k="name" v="Lee Close"/>
  </way>
  <way id="23925088" version="1" timestamp="2008-04-23T07:08:15Z" uid="30201" user="rrankin" changeset="238815">
    <nd ref="259403065"/>
    <nd ref="259404402"/>
    <tag k="created_by" v="Potlatch 0.8b"/>
    <tag k="highway" v="residential"/>
    <tag k="name" v="Abbott Close"/>
  </way>
  <way id="23925088" version="2" timestamp="2010-07-07T22:32:40Z" uid="74617" user="JohnSmith" changeset="5162525">
    <nd ref="259403065"/>
    <nd ref="259404402"/>
    <tag k="highway" v="residential"/>
    <tag k="maxspeed" v="50"/>
    <tag k="maxspeed:source" v="default residential speed limit in Australia"/>
    <tag k="name" v="Abbott Close"/>
  </way>
  <way id="23925093" version="1" timestamp="2008-04-23T07:09:52Z" uid="30201" user="rrankin" changeset="238815">
    <nd ref="259403062"/>
    <nd ref="259404540"/>
    <nd ref="259404541"/>
    <nd ref="259404542"/>
    <nd ref="259404543"/>
    <nd ref="259404544"/>
    <nd ref="259404545"/>
    <nd ref="259404546"/>
    <tag k="created_by" v="Potlatch 0.8b"/>
    <tag k="highway" v="residential"/>
    <tag k="name" v="Condello Crescent"/>
  </way>
  <way id="23925093" version="2" timestamp="2009-12-20T04:22:36Z" uid="7617" user="Franc" changeset="3411323">
    <nd ref="259403062"/>
    <nd ref="259404540"/>
    <nd ref="597015751"/>
    <nd ref="259404541"/>
    <nd ref="597015750"/>
    <nd ref="259404542"/>
    <nd ref="259404543"/>
    <nd ref="259404544"/>
    <nd ref="259404545"/>
    <nd ref="259404546"/>
    <tag k="highway" v="residential"/>
    <tag k="name" v="Condello Crescent"/>
  </way>
  <way id="23925093" version="3" timestamp="2009-12-20T21:07:43Z" uid="7617" user="Franc" changeset="3417014">
    <nd ref="259403062"/>
    <nd ref="259404540"/>
    <nd ref="597015751"/>
    <nd ref="259404541"/>
    <nd ref="597015750"/>
    <nd ref="259404542"/>
    <nd ref="259404543"/>
    <nd ref="259404544"/>
    <nd ref="597440266"/>
    <nd ref="597440265"/>
    <nd ref="259404545"/>
    <nd ref="597440267"/>
    <nd ref="259404546"/>
    <tag k="highway" v="residential"/>
    <tag k="name" v="Condello Crescent"/>
  </way>
  <way id="23925093" version="4" timestamp="2010-07-07T22:33:11Z" uid="74617" user="JohnSmith" changeset="5162525">
    <nd ref="259403062"/>
    <nd ref="259404540"/>
    <nd ref="597015751"/>
    <nd ref="259404541"/>
    <nd ref="597015750"/>
    <nd ref="259404542"/>
    <nd ref="259404543"/>
    <nd ref="259404544"/>
    <nd ref="597440266"/>
    <nd ref="597440265"/>
    <nd ref="259404545"/>
    <nd ref="597440267"/>
    <nd ref="259404546"/>
    <tag k="highway" v="residential"/>
    <tag k="maxspeed" v="50"/>
    <tag k="maxspeed:source" v="default residential speed limit in Australia"/>
    <tag k="name" v="Condello Crescent"/>
  </way>
  <way id="23925100" version="1" timestamp="2008-04-23T07:10:25Z" uid="30201" user="rrankin" changeset="238815">
    <nd ref="259404545"/>
    <nd ref="259404595"/>
    <tag k="created_by" v="Potlatch 0.8b"/>
    <tag k="highway" v="residential"/>
    <tag k="name" v="Condello Crescent"/>
  </way>
  <way id="23925100" version="2" timestamp="2010-07-07T22:26:45Z" uid="74617" user="JohnSmith" changeset="5162525">
    <nd ref="259404545"/>
    <nd ref="259404595"/>
    <tag k="highway" v="residential"/>
    <tag k="maxspeed" v="50"/>
    <tag k="maxspeed:source" v="default residential speed limit in Australia"/>
    <tag k="name" v="Condello Crescent"/>
  </way>
  <way id="23925101" version="16" timestamp="2010-04-26T08:39:14Z" uid="4467" user="Rosscoe" changeset="4529525">
    <nd ref="319116085"/>
    <nd ref="319123009"/>
    <nd ref="369680078"/>
    <tag k="highway" v="secondary"/>
    <tag k="name" v="Hammond Road"/>
    <tag k="source" v="nearmap"/>
  </way>
  <way id="23925103" version="1" timestamp="2008-04-23T07:11:37Z" uid="30201" user="rrankin" changeset="238815">
    <nd ref="259173000"/>
    <nd ref="259404628"/>
    <nd ref="259404629"/>
    <tag k="created_by" v="Potlatch 0.8b"/>
    <tag k="highway" v="residential"/>
    <tag k="name" v="Merceri Place"/>
  </way>
  <way id="23925103" version="2" timestamp="2008-04-23T07:11:51Z" uid="30201" user="rrankin" changeset="238815">
    <nd ref="259173000"/>
    <nd ref="259404628"/>
    <nd ref="259404629"/>
    <tag k="created_by" v="Potlatch 0.8b"/>
    <tag k="highway" v="residential"/>
    <tag k="name" v="Marceri Place"/>
  </way>
  <way id="23925103" version="3" timestamp="2010-07-07T22:35:33Z" uid="74617" user="JohnSmith" changeset="5162525">
    <nd ref="259173000"/>
    <nd ref="259404628"/>
    <nd ref="259404629"/>
    <tag k="highway" v="residential"/>
    <tag k="maxspeed" v="50"/>
    <tag k="maxspeed:source" v="default residential speed limit in Australia"/>
    <tag k="name" v="Marceri Place"/>
  </way>
  <way id="23925108" version="6" timestamp="2010-05-25T09:22:26Z" uid="4467" user="Rosscoe" changeset="4801798">
    <nd ref="259404712"/>
    <nd ref="631466352"/>
    <nd ref="631466313"/>
    <nd ref="30428823"/>
    <tag k="highway" v="unclassified"/>
    <tag k="name" v="Carroll Lane"/>
  </way>
  <way id="23925142" version="8" timestamp="2010-05-25T09:23:22Z" uid="4467" user="Rosscoe" changeset="4801798">
    <nd ref="369673153"/>
    <nd ref="259404937"/>
    <nd ref="259404888"/>
    <nd ref="259404973"/>
    <nd ref="259404889"/>
    <nd ref="259405370"/>
    <nd ref="259404946"/>
    <nd ref="747728290"/>
    <nd ref="259404890"/>
    <tag k="highway" v="residential"/>
    <tag k="name" v="Attenborough Street"/>
  </way>
  <way id="23925142" version="9" timestamp="2010-07-09T03:36:27Z" uid="74617" user="JohnSmith" changeset="5170838">
    <nd ref="369673153"/>
    <nd ref="259404937"/>
    <nd ref="259404888"/>
    <nd ref="259404973"/>
    <nd ref="259404889"/>
    <nd ref="259405370"/>
    <nd ref="259404946"/>
    <nd ref="747728290"/>
    <nd ref="259404890"/>
    <tag k="highway" v="residential"/>
    <tag k="maxspeed" v="50"/>
    <tag k="maxspeed:source" v="default residential speed limit in Australia"/>
    <tag k="name" v="Attenborough Street"/>
  </way>
  <way id="23925145" version="2" timestamp="2010-07-09T03:38:20Z" uid="74617" user="JohnSmith" changeset="5170838">
    <nd ref="259404936"/>
    <nd ref="259404937"/>
    <tag k="highway" v="residential"/>
    <tag k="maxspeed" v="50"/>
    <tag k="maxspeed:source" v="default residential speed limit in Australia"/>
    <tag k="name" v="Short Street"/>
  </way>
  <way id="23925146" version="3" timestamp="2010-07-09T03:38:56Z" uid="74617" user="JohnSmith" changeset="5170838">
    <nd ref="259404938"/>
    <nd ref="259404936"/>
    <nd ref="259404946"/>
    <tag k="highway" v="residential"/>
    <tag k="maxspeed" v="50"/>
    <tag k="maxspeed:source" v="default residential speed limit in Australia"/>
    <tag k="name" v="Wauchope Lane"/>
  </way>
  <way id="23925150" version="2" timestamp="2010-07-09T03:37:30Z" uid="74617" user="JohnSmith" changeset="5170838">
    <nd ref="259404960"/>
    <nd ref="259404961"/>
    <tag k="highway" v="residential"/>
    <tag k="maxspeed" v="50"/>
    <tag k="maxspeed:source" v="default residential speed limit in Australia"/>
    <tag k="name" v="Verey Court"/>
  </way>
  <way id="23925157" version="2" timestamp="2010-07-09T03:37:46Z" uid="74617" user="JohnSmith" changeset="5170838">
    <nd ref="259404971"/>
    <nd ref="259404972"/>
    <nd ref="259404973"/>
    <tag k="highway" v="residential"/>
    <tag k="maxspeed" v="50"/>
    <tag k="maxspeed:source" v="default residential speed limit in Australia"/>
    <tag k="name" v="Damien Court"/>
  </way>
  <way id="23925178" version="2" timestamp="2010-07-09T03:38:33Z" uid="74617" user="JohnSmith" changeset="5170838">
    <nd ref="259405368"/>
    <nd ref="259405369"/>
    <nd ref="259405370"/>
    <tag k="highway" v="residential"/>
    <tag k="maxspeed" v="50"/>
    <tag k="maxspeed:source" v="default residential speed limit in Australia"/>
    <tag k="name" v="Paul Court"/>
  </way>
  <way id="23925183" version="6" timestamp="2010-05-25T09:08:38Z" uid="4467" user="Rosscoe" changeset="4801669">
    <nd ref="319117646"/>
    <nd ref="30428817"/>
    <nd ref="747719147"/>
    <nd ref="259405433"/>
    <nd ref="259405472"/>
    <nd ref="259405410"/>
    <nd ref="259405411"/>
    <nd ref="259405412"/>
    <nd ref="259405413"/>
    <nd ref="259405414"/>
    <tag k="highway" v="residential"/>
    <tag k="name" v="Sinclair Road"/>
  </way>
  <way id="23925183" version="7" timestamp="2010-07-09T03:37:40Z" uid="74617" user="JohnSmith" changeset="5170838">
    <nd ref="319117646"/>
    <nd ref="30428817"/>
    <nd ref="747719147"/>
    <nd ref="259405433"/>
    <nd ref="259405472"/>
    <nd ref="259405410"/>
    <nd ref="259405411"/>
    <nd ref="259405412"/>
    <nd ref="259405413"/>
    <nd ref="259405414"/>
    <tag k="highway" v="residential"/>
    <tag k="maxspeed" v="50"/>
    <tag k="maxspeed:source" v="default residential speed limit in Australia"/>
    <tag k="name" v="Sinclair Road"/>
  </way>
  <way id="23925186" version="3" timestamp="2010-07-09T03:37:01Z" uid="74617" user="JohnSmith" changeset="5170838">
    <nd ref="259405417"/>
    <nd ref="259405412"/>
    <tag k="highway" v="residential"/>
    <tag k="maxspeed" v="50"/>
    <tag k="maxspeed:source" v="default residential speed limit in Australia"/>
    <tag k="name" v="Wayne Court"/>
  </way>
  <way id="23925187" version="2" timestamp="2010-07-09T03:37:43Z" uid="74617" user="JohnSmith" changeset="5170838">
    <nd ref="259405432"/>
    <nd ref="259405433"/>
    <tag k="highway" v="residential"/>
    <tag k="maxspeed" v="50"/>
    <tag k="maxspeed:source" v="default residential speed limit in Australia"/>
    <tag k="name" v="Miles Road"/>
  </way>
  <way id="23925190" version="2" timestamp="2010-07-09T03:39:22Z" uid="74617" user="JohnSmith" changeset="5170838">
    <nd ref="259405459"/>
    <nd ref="259405460"/>
    <tag k="highway" v="residential"/>
    <tag k="maxspeed" v="50"/>
    <tag k="maxspeed:source" v="default residential speed limit in Australia"/>
    <tag k="name" v="Tharle Street"/>
  </way>
  <way id="23925195" version="2" timestamp="2010-07-09T03:38:32Z" uid="74617" user="JohnSmith" changeset="5170838">
    <nd ref="259405472"/>
    <nd ref="259405459"/>
    <nd ref="259405607"/>
    <tag k="highway" v="residential"/>
    <tag k="maxspeed" v="50"/>
    <tag k="maxspeed:source" v="default residential speed limit in Australia"/>
    <tag k="name" v="Bramley Street"/>
  </way>
  <way id="23925203" version="11" timestamp="2009-10-05T16:40:27Z" uid="164966" user="linuss1" changeset="2752167">
    <nd ref="21534741"/>
    <nd ref="260343090"/>
    <nd ref="391071914"/>
    <nd ref="521825802"/>
    <nd ref="74990787"/>
    <tag k="highway" v="primary"/>
    <tag k="name" v="Rolandstraße"/>
    <tag k="ref" v="B 431"/>
  </way>
  <way id="23925212" version="2" timestamp="2008-09-14T21:47:46Z" uid="6975" user="ulfl" changeset="640534">
    <nd ref="259406002"/>
    <nd ref="259406003"/>
    <nd ref="259406004"/>
    <nd ref="259406005"/>
    <nd ref="259406006"/>
    <nd ref="259406007"/>
    <nd ref="259406002"/>
    <tag k="building" v="yes"/>
  </way>
  <way id="23925218" version="2" timestamp="2008-09-14T21:47:56Z" uid="6975" user="ulfl" changeset="640534">
    <nd ref="259406271"/>
    <nd ref="259406272"/>
    <nd ref="259406273"/>
    <nd ref="259406274"/>
    <nd ref="259406275"/>
    <nd ref="259406276"/>
    <nd ref="259406277"/>
    <nd ref="259406278"/>
    <nd ref="259406279"/>
    <nd ref="259406271"/>
    <tag k="building" v="yes"/>
  </way>
  <way id="23925246" version="59" timestamp="2010-03-27T23:37:22Z" uid="20587" user="balrog-kun" changeset="4250871">
    <nd ref="65331705"/>
    <nd ref="259406616"/>
    <nd ref="317152305"/>
    <nd ref="259406617"/>
    <tag k="bridge" v="yes"/>
    <tag k="highway" v="motorway"/>
    <tag k="layer" v="2"/>
    <tag k="name" v="Southern Embarcadero Freeway"/>
    <tag k="oneway" v="yes"/>
    <tag k="ref" v="I 280"/>
    <tag k="tiger:cfcc" v="A15"/>
    <tag k="tiger:county" v="San Francisco, CA"/>
    <tag k="tiger:name_base" v="I-280"/>
    <tag k="tiger:separated" v="yes"/>
    <tag k="tiger:source" v="tiger_import_dch_v0.6_20070809"/>
    <tag k="tiger:tlid" v="192285601:192286042:192286045:192286096:19229:192291758:192293436:192294571:192294572:192294574:192296915:192296916:192296955:192296957:192296959:192296960:192297159:192297160:192297183:192297184:192297329:192297330:192297331:192297332:192297333:192297335"/>
  </way>
  <way id="23925278" version="4" timestamp="2010-03-27T23:37:24Z" uid="20587" user="balrog-kun" changeset="4250871">
    <nd ref="65326511"/>
    <nd ref="65326513"/>
    <tag k="highway" v="residential"/>
    <tag k="name" v="Still Street"/>
    <tag k="tiger:cfcc" v="A41"/>
    <tag k="tiger:county" v="San Francisco, CA"/>
    <tag k="tiger:name_base" v="Still"/>
    <tag k="tiger:name_type" v="St"/>
    <tag k="tiger:separated" v="no"/>
    <tag k="tiger:source" v="tiger_import_dch_v0.6_20070809"/>
    <tag k="tiger:tlid" v="192300147:192300068:192300148"/>
    <tag k="tiger:zip_left" v="94112"/>
    <tag k="tiger:zip_right" v="94112"/>
  </way>
  <way id="23925304" version="4" timestamp="2010-07-07T10:38:10Z" uid="74617" user="JohnSmith" changeset="5157498">
    <nd ref="256369611"/>
    <nd ref="256369452"/>
    <nd ref="256372915"/>
    <nd ref="256369532"/>
    <tag k="highway" v="residential"/>
    <tag k="maxspeed" v="50"/>
    <tag k="maxspeed:source" v="default residential speed limit in Australia"/>
  </way>
  <way id="23925304" version="5" timestamp="2010-07-19T12:28:14Z" uid="7617" user="Franc" changeset="5260633">
    <nd ref="256369611"/>
    <nd ref="256369452"/>
    <nd ref="256372915"/>
    <nd ref="256369532"/>
    <tag k="highway" v="residential"/>
    <tag k="maxspeed" v="50"/>
    <tag k="maxspeed:source" v="default residential speed limit in Australia"/>
    <tag k="name" v="The Gullies Road"/>
    <tag k="source:name" v="survey"/>
  </way>
  <way id="23925305" version="5" timestamp="2010-07-17T05:09:34Z" uid="7617" user="Franc" changeset="5239318">
    <nd ref="256369532"/>
    <nd ref="256368967"/>
    <nd ref="256369363"/>
    <nd ref="256374873"/>
    <nd ref="256370151"/>
    <nd ref="256370120"/>
    <nd ref="256369771"/>
    <nd ref="256368338"/>
    <nd ref="256375824"/>
    <nd ref="256373815"/>
    <nd ref="256369800"/>
    <nd ref="256374706"/>
    <nd ref="256372855"/>
    <nd ref="256368957"/>
    <nd ref="256369589"/>
    <nd ref="256373154"/>
    <nd ref="256368861"/>
    <nd ref="256372822"/>
    <nd ref="256372821"/>
    <nd ref="256369755"/>
    <nd ref="256369325"/>
    <nd ref="256370176"/>
    <nd ref="256375997"/>
    <nd ref="256369938"/>
    <nd ref="256369737"/>
    <nd ref="256372677"/>
    <nd ref="256370023"/>
    <nd ref="256368778"/>
    <nd ref="256374829"/>
    <nd ref="256372776"/>
    <nd ref="256368390"/>
    <nd ref="256369818"/>
    <nd ref="256368784"/>
    <nd ref="256368868"/>
    <nd ref="256375084"/>
    <nd ref="256374938"/>
    <nd ref="256370203"/>
    <nd ref="256368838"/>
    <nd ref="256369372"/>
    <nd ref="256370169"/>
    <nd ref="256375628"/>
    <nd ref="256370261"/>
    <nd ref="256373661"/>
    <tag k="highway" v="unclassified"/>
    <tag k="surface" v="unpaved"/>
  </way>
  <way id="23925416" version="2" timestamp="2008-07-06T21:01:40Z" uid="6975" user="ulfl" changeset="415781">
    <nd ref="259407978"/>
    <nd ref="259407979"/>
    <nd ref="259407980"/>
    <nd ref="259407981"/>
    <nd ref="259407982"/>
    <nd ref="259407983"/>
    <nd ref="259407984"/>
    <nd ref="259407985"/>
    <nd ref="259407986"/>
    <nd ref="259407987"/>
    <nd ref="259407988"/>
    <nd ref="259407989"/>
    <nd ref="259407978"/>
    <tag k="building" v="yes"/>
  </way>
  <way id="23925444" version="3" timestamp="2008-07-06T21:01:45Z" uid="6975" user="ulfl" changeset="415781">
    <nd ref="259408150"/>
    <nd ref="259408151"/>
    <nd ref="259408152"/>
    <nd ref="259408153"/>
    <nd ref="259408154"/>
    <nd ref="259408155"/>
    <nd ref="259408156"/>
    <nd ref="259408157"/>
    <nd ref="259408158"/>
    <nd ref="259408159"/>
    <nd ref="259408160"/>
    <nd ref="259408161"/>
    <nd ref="259408150"/>
    <tag k="building" v="yes"/>
  </way>
  <way id="23925448" version="2" timestamp="2008-07-06T21:01:43Z" uid="6975" user="ulfl" changeset="415781">
    <nd ref="259408196"/>
    <nd ref="259408197"/>
    <nd ref="259408198"/>
    <nd ref="259408199"/>
    <nd ref="259408196"/>
    <tag k="building" v="yes"/>
  </way>
  <way id="23925452" version="2" timestamp="2008-07-06T21:01:41Z" uid="6975" user="ulfl" changeset="415781">
    <nd ref="259408204"/>
    <nd ref="259408205"/>
    <nd ref="259408206"/>
    <nd ref="259408207"/>
    <nd ref="259408204"/>
    <tag k="building" v="yes"/>
  </way>
  <way id="23925467" version="4" timestamp="2011-01-09T17:33:18Z" uid="33382" user="de_muur" changeset="6917986">
    <nd ref="259408305"/>
    <nd ref="1094692623"/>
    <nd ref="295219471"/>
    <nd ref="1014210182"/>
    <nd ref="259408306"/>
    <nd ref="259408307"/>
    <nd ref="267325019"/>
    <nd ref="267325020"/>
    <nd ref="267325154"/>
    <tag k="highway" v="residential"/>
    <tag k="name" v="Buesstraße"/>
  </way>
  <way id="23925467" version="5" timestamp="2011-01-10T15:10:39Z" uid="33382" user="de_muur" changeset="6927212">
    <nd ref="259408305"/>
    <nd ref="1094692623"/>
    <nd ref="295219471"/>
    <nd ref="1014210182"/>
    <nd ref="259408306"/>
    <nd ref="259408307"/>
    <nd ref="267325019"/>
    <nd ref="267325020"/>
    <nd ref="1096430931"/>
    <nd ref="267325154"/>
    <tag k="highway" v="residential"/>
    <tag k="name" v="Buesstraße"/>
  </way>
  <way id="23925469" version="3" timestamp="2010-01-17T14:14:30Z" uid="33382" user="de_muur" changeset="3641374">
    <nd ref="257745234"/>
    <nd ref="257745080"/>
    <tag k="bicycle" v="yes"/>
    <tag k="highway" v="footway"/>
  </way>
  <way id="23925486" version="3" timestamp="2010-07-09T03:08:32Z" uid="74617" user="JohnSmith" changeset="5170713">
    <nd ref="259408403"/>
    <nd ref="259408404"/>
    <nd ref="623033450"/>
    <tag k="highway" v="residential"/>
    <tag k="maxspeed" v="50"/>
    <tag k="maxspeed:source" v="default residential speed limit in Australia"/>
    <tag k="name" v="Junction Road"/>
  </way>
  <way id="23925506" version="2" timestamp="2010-07-09T03:07:05Z" uid="74617" user="JohnSmith" changeset="5170713">
    <nd ref="259408405"/>
    <nd ref="259408403"/>
    <tag k="highway" v="residential"/>
    <tag k="maxspeed" v="50"/>
    <tag k="maxspeed:source" v="default residential speed limit in Australia"/>
    <tag k="name" v="Grange Road"/>
  </way>
  <way id="23925548" version="3" timestamp="2010-07-09T02:53:19Z" uid="74617" user="JohnSmith" changeset="5170713">
    <nd ref="259408755"/>
    <nd ref="259408756"/>
    <nd ref="198492470"/>
    <tag k="highway" v="residential"/>
    <tag k="maxspeed" v="50"/>
    <tag k="maxspeed:source" v="default residential speed limit in Australia"/>
    <tag k="name" v="Chisholm Court"/>
  </way>
  <way id="23925552" version="2" timestamp="2010-07-09T02:43:31Z" uid="74617" user="JohnSmith" changeset="5170713">
    <nd ref="259408785"/>
    <nd ref="259408786"/>
    <nd ref="259408787"/>
    <nd ref="259408788"/>
    <tag k="highway" v="residential"/>
    <tag k="maxspeed" v="50"/>
    <tag k="maxspeed:source" v="default residential speed limit in Australia"/>
    <tag k="name" v="Casey Close"/>
  </way>
  <way id="23925560" version="2" timestamp="2010-07-09T02:47:01Z" uid="74617" user="JohnSmith" changeset="5170713">
    <nd ref="259408819"/>
    <nd ref="259408820"/>
    <nd ref="259408821"/>
    <nd ref="259408822"/>
    <nd ref="259408823"/>
    <tag k="highway" v="residential"/>
    <tag k="maxspeed" v="50"/>
    <tag k="maxspeed:source" v="default residential speed limit in Australia"/>
    <tag k="name" v="Montclair Close"/>
  </way>
  <way id="23925563" version="3" timestamp="2010-07-09T02:44:37Z" uid="74617" user="JohnSmith" changeset="5170713">
    <nd ref="259408834"/>
    <nd ref="259408856"/>
    <nd ref="198492462"/>
    <tag k="highway" v="residential"/>
    <tag k="maxspeed" v="50"/>
    <tag k="maxspeed:source" v="default residential speed limit in Australia"/>
    <tag k="name" v="Lalor Court"/>
  </way>
  <way id="23925569" version="2" timestamp="2010-07-09T02:44:03Z" uid="74617" user="JohnSmith" changeset="5170713">
    <nd ref="259408853"/>
    <nd ref="259408854"/>
    <nd ref="259408855"/>
    <nd ref="259408856"/>
    <tag k="highway" v="residential"/>
    <tag k="maxspeed" v="50"/>
    <tag k="maxspeed:source" v="default residential speed limit in Australia"/>
    <tag k="name" v="Holt Court"/>
  </way>
  <way id="23925584" version="2" timestamp="2010-07-09T02:45:55Z" uid="74617" user="JohnSmith" changeset="5170713">
    <nd ref="259408961"/>
    <nd ref="259408962"/>
    <nd ref="259408963"/>
    <nd ref="259408964"/>
    <tag k="highway" v="residential"/>
    <tag k="maxspeed" v="50"/>
    <tag k="maxspeed:source" v="default residential speed limit in Australia"/>
    <tag k="name" v="Jolimont Place"/>
  </way>
  <way id="23925587" version="24" timestamp="2010-03-27T23:37:24Z" uid="20587" user="balrog-kun" changeset="4250871">
    <nd ref="65320356"/>
    <nd ref="302963429"/>
    <nd ref="313889736"/>
    <nd ref="302963432"/>
    <nd ref="65320358"/>
    <nd ref="302964631"/>
    <nd ref="65320361"/>
    <nd ref="302964632"/>
    <nd ref="65320363"/>
    <nd ref="302964633"/>
    <nd ref="65320372"/>
    <nd ref="65320374"/>
    <nd ref="65320375"/>
    <nd ref="302964634"/>
    <nd ref="65320376"/>
    <nd ref="302964635"/>
    <nd ref="302964636"/>
    <nd ref="302912887"/>
    <nd ref="65320377"/>
    <nd ref="65320380"/>
    <nd ref="65320382"/>
    <nd ref="258924399"/>
    <nd ref="258924396"/>
    <tag k="highway" v="primary"/>
    <tag k="name" v="Great Highway"/>
    <tag k="oneway" v="yes"/>
    <tag k="tiger:cfcc" v="A45"/>
    <tag k="tiger:county" v="San Francisco, CA"/>
    <tag k="tiger:name_base" v="Great"/>
    <tag k="tiger:name_type" v="Hwy"/>
    <tag k="tiger:separated" v="yes"/>
    <tag k="tiger:source" v="tiger_import_dch_v0.6_20070809"/>
    <tag k="tiger:tlid" v="192299212:192276629:192276620:192299804:192299805:192302127"/>
    <tag k="tiger:zip_left" v="94132"/>
  </way>
  <way id="23925605" version="4" timestamp="2010-07-09T02:44:55Z" uid="74617" user="JohnSmith" changeset="5170713">
    <nd ref="259409048"/>
    <nd ref="259409071"/>
    <nd ref="259409072"/>
    <nd ref="259409073"/>
    <nd ref="259409074"/>
    <nd ref="259409075"/>
    <nd ref="259409076"/>
    <nd ref="259409077"/>
    <nd ref="259409078"/>
    <nd ref="259409120"/>
    <nd ref="259409079"/>
    <nd ref="259409080"/>
    <nd ref="259409081"/>
    <nd ref="259409082"/>
    <nd ref="259409107"/>
    <nd ref="259409083"/>
    <nd ref="259409084"/>
    <tag k="highway" v="residential"/>
    <tag k="maxspeed" v="50"/>
    <tag k="maxspeed:source" v="default residential speed limit in Australia"/>
    <tag k="name" v="Wheatland Crescent"/>
  </way>
  <way id="23925608" version="2" timestamp="2010-07-09T02:47:46Z" uid="74617" user="JohnSmith" changeset="5170713">
    <nd ref="259409105"/>
    <nd ref="259409106"/>
    <nd ref="259409107"/>
    <tag k="highway" v="residential"/>
    <tag k="maxspeed" v="50"/>
    <tag k="maxspeed:source" v="default residential speed limit in Australia"/>
    <tag k="name" v="Blythe Court"/>
  </way>
  <way id="23925611" version="2" timestamp="2010-07-09T02:45:15Z" uid="74617" user="JohnSmith" changeset="5170713">
    <nd ref="259409117"/>
    <nd ref="259409118"/>
    <nd ref="259409119"/>
    <nd ref="259409120"/>
    <tag k="highway" v="residential"/>
    <tag k="maxspeed" v="50"/>
    <tag k="maxspeed:source" v="default residential speed limit in Australia"/>
    <tag k="name" v="Evelyn Court"/>
  </way>
  <way id="23925618" version="2" timestamp="2010-07-09T02:43:48Z" uid="74617" user="JohnSmith" changeset="5170713">
    <nd ref="259409177"/>
    <nd ref="259409071"/>
    <tag k="highway" v="residential"/>
    <tag k="maxspeed" v="50"/>
    <tag k="maxspeed:source" v="default residential speed limit in Australia"/>
    <tag k="name" v="Juan Court"/>
  </way>
  <way id="23925623" version="5" timestamp="2010-07-09T02:44:30Z" uid="74617" user="JohnSmith" changeset="5170713">
    <nd ref="259409072"/>
    <nd ref="259409199"/>
    <nd ref="259409200"/>
    <nd ref="259409260"/>
    <nd ref="259409201"/>
    <nd ref="259409202"/>
    <nd ref="259409203"/>
    <nd ref="259409549"/>
    <nd ref="259409204"/>
    <nd ref="259409205"/>
    <nd ref="259409206"/>
    <nd ref="259409461"/>
    <nd ref="259409207"/>
    <nd ref="259409208"/>
    <tag k="highway" v="residential"/>
    <tag k="maxspeed" v="50"/>
    <tag k="maxspeed:source" v="default residential speed limit in Australia"/>
    <tag k="name" v="Caruna Drive"/>
  </way>
  <way id="23925627" version="4" timestamp="2010-07-09T02:49:57Z" uid="74617" user="JohnSmith" changeset="5170713">
    <nd ref="259409461"/>
    <nd ref="259409462"/>
    <nd ref="259409463"/>
    <nd ref="259409464"/>
    <nd ref="259409465"/>
    <nd ref="259409551"/>
    <nd ref="259409254"/>
    <nd ref="259409255"/>
    <nd ref="259409256"/>
    <nd ref="259409257"/>
    <nd ref="259409258"/>
    <nd ref="259409260"/>
    <tag k="highway" v="residential"/>
    <tag k="maxspeed" v="50"/>
    <tag k="maxspeed:source" v="default residential speed limit in Australia"/>
    <tag k="name" v="Aisha Crescent"/>
  </way>
  <way id="23925631" version="2" timestamp="2010-07-09T02:48:04Z" uid="74617" user="JohnSmith" changeset="5170713">
    <nd ref="259409355"/>
    <nd ref="259409256"/>
    <tag k="highway" v="residential"/>
    <tag k="maxspeed" v="50"/>
    <tag k="maxspeed:source" v="default residential speed limit in Australia"/>
    <tag k="name" v="Ryan Mews"/>
  </way>
  <way id="23925644" version="13" timestamp="2010-03-27T23:37:25Z" uid="20587" user="balrog-kun" changeset="4250871">
    <nd ref="65580675"/>
    <nd ref="553500933"/>
    <nd ref="553500934"/>
    <nd ref="65593508"/>
    <nd ref="553500949"/>
    <nd ref="65629971"/>
    <nd ref="65629973"/>
    <nd ref="553500953"/>
    <nd ref="553500955"/>
    <nd ref="553500956"/>
    <nd ref="553500966"/>
    <nd ref="65629978"/>
    <tag k="highway" v="secondary"/>
    <tag k="name" v="North Shoreline Boulevard"/>
    <tag k="name_1" v="Stierlin Road"/>
    <tag k="tiger:cfcc" v="A41"/>
    <tag k="tiger:county" v="Santa Clara, CA"/>
    <tag k="tiger:name_base" v="Shoreline"/>
    <tag k="tiger:name_base_1" v="Stierlin"/>
    <tag k="tiger:name_direction_prefix" v="N"/>
    <tag k="tiger:name_type" v="Blvd"/>
    <tag k="tiger:name_type_1" v="Rd"/>
    <tag k="tiger:separated" v="no"/>
    <tag k="tiger:source" v="tiger_import_dch_v0.6_20070809"/>
    <tag k="tiger:tlid" v="122954676:122954677:122954772:122954777:122954778:122954678:123176236:122954790:122954792:123176243:123176163:123010692:123015466:122990821:123002475:123002488:123004359"/>
    <tag k="tiger:zip_left" v="94043"/>
    <tag k="tiger:zip_right" v="94043"/>
  </way>
  <way id="23925645" version="2" timestamp="2010-07-09T02:41:56Z" uid="74617" user="JohnSmith" changeset="5170713">
    <nd ref="259409549"/>
    <nd ref="259409550"/>
    <nd ref="259409551"/>
    <tag k="highway" v="residential"/>
    <tag k="maxspeed" v="50"/>
    <tag k="maxspeed:source" v="default residential speed limit in Australia"/>
    <tag k="name" v="Julius Avenue"/>
  </way>
  <way id="23925649" version="2" timestamp="2010-07-09T02:44:29Z" uid="74617" user="JohnSmith" changeset="5170713">
    <nd ref="259409571"/>
    <nd ref="259409572"/>
    <nd ref="259409573"/>
    <tag k="highway" v="residential"/>
    <tag k="maxspeed" v="50"/>
    <tag k="maxspeed:source" v="default residential speed limit in Australia"/>
    <tag k="name" v="Lakeland Court"/>
  </way>
  <way id="23925652" version="2" timestamp="2010-07-09T02:52:37Z" uid="74617" user="JohnSmith" changeset="5170713">
    <nd ref="259409615"/>
    <nd ref="259409617"/>
    <nd ref="259409618"/>
    <nd ref="259409619"/>
    <tag k="highway" v="residential"/>
    <tag k="maxspeed" v="50"/>
    <tag k="maxspeed:source" v="default residential speed limit in Australia"/>
    <tag k="name" v="Nickson Close"/>
  </way>
  <way id="23925663" version="2" timestamp="2010-07-09T02:54:09Z" uid="74617" user="JohnSmith" changeset="5170713">
    <nd ref="259409674"/>
    <nd ref="259409675"/>
    <tag k="highway" v="residential"/>
    <tag k="maxspeed" v="50"/>
    <tag k="maxspeed:source" v="default residential speed limit in Australia"/>
    <tag k="name" v="Chaldron Place"/>
  </way>
  <way id="23925668" version="2" timestamp="2010-07-09T02:50:09Z" uid="74617" user="JohnSmith" changeset="5170713">
    <nd ref="259409691"/>
    <nd ref="259409692"/>
    <nd ref="259409693"/>
    <tag k="highway" v="residential"/>
    <tag k="maxspeed" v="50"/>
    <tag k="maxspeed:source" v="default residential speed limit in Australia"/>
    <tag k="name" v="Newbridge Close"/>
  </way>
  <way id="23925673" version="2" timestamp="2010-07-09T02:45:57Z" uid="74617" user="JohnSmith" changeset="5170713">
    <nd ref="259409710"/>
    <nd ref="259409711"/>
    <nd ref="259409712"/>
    <nd ref="259409713"/>
    <nd ref="259409714"/>
    <nd ref="259409715"/>
    <nd ref="259409716"/>
    <nd ref="259409717"/>
    <tag k="highway" v="residential"/>
    <tag k="maxspeed" v="50"/>
    <tag k="maxspeed:source" v="default residential speed limit in Australia"/>
    <tag k="name" v="Higgins Close"/>
  </way>
  <way id="23925698" version="2" timestamp="2008-07-05T18:42:17Z" uid="6975" user="ulfl" changeset="398437">
    <nd ref="259409915"/>
    <nd ref="259409914"/>
    <nd ref="259409913"/>
    <nd ref="259409912"/>
    <nd ref="259409915"/>
    <tag k="sport" v="tennis"/>
  </way>
  <way id="23925727" version="2" timestamp="2010-07-09T02:46:25Z" uid="74617" user="JohnSmith" changeset="5170713">
    <nd ref="259410076"/>
    <nd ref="259410078"/>
    <nd ref="259410079"/>
    <tag k="highway" v="residential"/>
    <tag k="maxspeed" v="50"/>
    <tag k="maxspeed:source" v="default residential speed limit in Australia"/>
    <tag k="name" v="Lumeah Court"/>
  </way>
  <way id="23925729" version="5" timestamp="2009-05-31T22:18:05Z" uid="20587" user="balrog-kun" changeset="1374292">
    <nd ref="259410040"/>
    <nd ref="259410096"/>
    <nd ref="259410097"/>
    <nd ref="259410098"/>
    <nd ref="259410099"/>
    <nd ref="259411367"/>
    <nd ref="259411368"/>
    <nd ref="259411369"/>
    <nd ref="259411371"/>
    <nd ref="413738716"/>
    <nd ref="259411372"/>
    <tag k="highway" v="residential"/>
    <tag k="name" v="Kuchy"/>
    <tag k="source" v="GPS"/>
  </way>
  <way id="23925729" version="6" timestamp="2009-06-05T14:13:18Z" uid="20587" user="balrog-kun" changeset="1429641">
    <nd ref="259410040"/>
    <nd ref="259410096"/>
    <nd ref="259410097"/>
    <nd ref="259410098"/>
    <nd ref="259410099"/>
    <nd ref="259411367"/>
    <nd ref="415971399"/>
    <nd ref="259411368"/>
    <nd ref="259411369"/>
    <nd ref="259411371"/>
    <nd ref="413738716"/>
    <nd ref="259411372"/>
    <tag k="highway" v="residential"/>
    <tag k="name" v="Kolejowa"/>
    <tag k="source" v="GPS"/>
  </way>
  <way id="23925734" version="2" timestamp="2008-06-20T22:15:32Z" uid="34428" user="usm78-gis" changeset="250112"/>
  <way id="23925739" version="2" timestamp="2010-07-09T02:46:19Z" uid="74617" user="JohnSmith" changeset="5170713">
    <nd ref="259410260"/>
    <nd ref="259410261"/>
    <tag k="highway" v="residential"/>
    <tag k="maxspeed" v="50"/>
    <tag k="maxspeed:source" v="default residential speed limit in Australia"/>
    <tag k="name" v="Emma Place"/>
  </way>
  <way id="23925741" version="2" timestamp="2010-07-09T02:49:41Z" uid="74617" user="JohnSmith" changeset="5170713">
    <nd ref="259410264"/>
    <nd ref="259410265"/>
    <tag k="highway" v="residential"/>
    <tag k="maxspeed" v="50"/>
    <tag k="maxspeed:source" v="default residential speed limit in Australia"/>
    <tag k="name" v="Gail Court"/>
  </way>
  <way id="23925751" version="5" timestamp="2010-07-09T02:45:30Z" uid="74617" user="JohnSmith" changeset="5170713">
    <nd ref="259410353"/>
    <nd ref="259410354"/>
    <nd ref="259410355"/>
    <nd ref="259410356"/>
    <nd ref="259410357"/>
    <nd ref="259410469"/>
    <nd ref="259410358"/>
    <nd ref="259410573"/>
    <nd ref="259410359"/>
    <nd ref="259410360"/>
    <nd ref="259410619"/>
    <nd ref="259410361"/>
    <nd ref="137133112"/>
    <tag k="highway" v="residential"/>
    <tag k="maxspeed" v="50"/>
    <tag k="maxspeed:source" v="default residential speed limit in Australia"/>
    <tag k="name" v="Christina Terrace"/>
  </way>
  <way id="23925758" version="4" timestamp="2010-07-09T02:46:39Z" uid="74617" user="JohnSmith" changeset="5170713">
    <nd ref="259410455"/>
    <nd ref="259410457"/>
    <nd ref="259410519"/>
    <nd ref="259410459"/>
    <nd ref="259410521"/>
    <nd ref="259410461"/>
    <nd ref="259410463"/>
    <nd ref="259410465"/>
    <tag k="highway" v="residential"/>
    <tag k="maxspeed" v="50"/>
    <tag k="maxspeed:source" v="default residential speed limit in Australia"/>
    <tag k="name" v="Greenwoods Close"/>
  </way>
  <way id="23925758" version="5" timestamp="2011-02-26T04:03:09Z" uid="4467" user="Rosscoe" changeset="7396401">
    <nd ref="259410455"/>
    <nd ref="259410457"/>
    <nd ref="259410519"/>
    <nd ref="259410459"/>
    <nd ref="259410521"/>
    <nd ref="1173865770"/>
    <nd ref="259410461"/>
    <nd ref="1173865773"/>
    <nd ref="259410463"/>
    <nd ref="259410465"/>
    <tag k="highway" v="residential"/>
    <tag k="maxspeed" v="50"/>
    <tag k="maxspeed:source" v="default residential speed limit in Australia"/>
    <tag k="name" v="Greenwoods Close"/>
  </way>
  <way id="23925760" version="3" timestamp="2010-07-09T02:45:34Z" uid="74617" user="JohnSmith" changeset="5170713">
    <nd ref="259410468"/>
    <nd ref="259410469"/>
    <tag k="highway" v="residential"/>
    <tag k="maxspeed" v="50"/>
    <tag k="maxspeed:source" v="default residential speed limit in Australia"/>
    <tag k="name" v="Rex Place"/>
  </way>
  <way id="23925761" version="2" timestamp="2010-07-09T02:48:10Z" uid="74617" user="JohnSmith" changeset="5170713">
    <nd ref="259410470"/>
    <nd ref="259410471"/>
    <nd ref="259410472"/>
    <nd ref="259410473"/>
    <nd ref="259410474"/>
    <nd ref="259410261"/>
    <nd ref="259410475"/>
    <nd ref="259410476"/>
    <nd ref="259410265"/>
    <nd ref="259410477"/>
    <nd ref="137133110"/>
    <tag k="highway" v="residential"/>
    <tag k="maxspeed" v="50"/>
    <tag k="maxspeed:source" v="default residential speed limit in Australia"/>
    <tag k="name" v="Fernhill Drive"/>
  </way>
  <way id="23925765" version="2" timestamp="2010-07-09T02:46:12Z" uid="74617" user="JohnSmith" changeset="5170713">
    <nd ref="259410512"/>
    <nd ref="259410513"/>
    <nd ref="259410455"/>
    <tag k="highway" v="residential"/>
    <tag k="maxspeed" v="50"/>
    <tag k="maxspeed:source" v="default residential speed limit in Australia"/>
    <tag k="name" v="Leckenheath Court"/>
  </way>
  <way id="23925765" version="3" timestamp="2011-02-26T04:03:08Z" uid="4467" user="Rosscoe" changeset="7396401">
    <nd ref="259410512"/>
    <nd ref="1173865776"/>
    <nd ref="259410513"/>
    <nd ref="259410455"/>
    <tag k="highway" v="residential"/>
    <tag k="maxspeed" v="50"/>
    <tag k="maxspeed:source" v="default residential speed limit in Australia"/>
    <tag k="name" v="Leckenheath Court"/>
  </way>
  <way id="23925768" version="2" timestamp="2008-06-20T17:44:25Z" uid="27600" user="Islanit" changeset="233682">
    <nd ref="60366801"/>
    <nd ref="259409252"/>
    <nd ref="259409253"/>
    <nd ref="259409259"/>
    <nd ref="259409261"/>
    <nd ref="259409262"/>
    <nd ref="259409263"/>
    <nd ref="259409266"/>
    <nd ref="259409268"/>
    <nd ref="259409321"/>
    <nd ref="259409323"/>
    <nd ref="259409326"/>
    <nd ref="259409327"/>
    <nd ref="259409328"/>
    <tag k="created_by" v="JOSM"/>
    <tag k="highway" v="primary"/>
    <tag k="ref" v="B83"/>
  </way>
  <way id="23925770" version="3" timestamp="2008-06-20T17:44:23Z" uid="27600" user="Islanit" changeset="233682">
    <nd ref="259409329"/>
    <nd ref="259409330"/>
    <nd ref="259409331"/>
    <nd ref="259409332"/>
    <nd ref="265624404"/>
    <nd ref="259409333"/>
    <nd ref="259409334"/>
    <nd ref="259409343"/>
    <nd ref="259409349"/>
    <nd ref="259409350"/>
    <nd ref="259409351"/>
    <nd ref="259409352"/>
    <nd ref="259409353"/>
    <nd ref="259409354"/>
    <nd ref="259409356"/>
    <nd ref="259409357"/>
    <nd ref="259409358"/>
    <nd ref="259409359"/>
    <nd ref="259409360"/>
    <nd ref="259409361"/>
    <nd ref="259409364"/>
    <nd ref="259409368"/>
    <nd ref="259409369"/>
    <nd ref="259409370"/>
    <nd ref="259409398"/>
    <nd ref="259409403"/>
    <nd ref="259409405"/>
    <nd ref="259409406"/>
    <nd ref="259409407"/>
    <nd ref="259409409"/>
    <nd ref="259409410"/>
    <nd ref="259409412"/>
    <nd ref="259409413"/>
    <nd ref="259409446"/>
    <nd ref="259409447"/>
    <nd ref="259409449"/>
    <nd ref="259409450"/>
    <nd ref="259409451"/>
    <nd ref="259409456"/>
    <nd ref="259409457"/>
    <nd ref="259014562"/>
    <tag k="created_by" v="JOSM"/>
    <tag k="highway" v="primary"/>
    <tag k="ref" v="B83"/>
  </way>
  <way id="23925772" version="2" timestamp="2010-07-09T02:47:25Z" uid="74617" user="JohnSmith" changeset="5170713">
    <nd ref="259410518"/>
    <nd ref="259410519"/>
    <tag k="highway" v="residential"/>
    <tag k="maxspeed" v="50"/>
    <tag k="maxspeed:source" v="default residential speed limit in Australia"/>
    <tag k="name" v="Downland Place"/>
  </way>
  <way id="23925773" version="2" timestamp="2010-07-09T02:50:06Z" uid="74617" user="JohnSmith" changeset="5170713">
    <nd ref="259410520"/>
    <nd ref="259410521"/>
    <tag k="highway" v="residential"/>
    <tag k="maxspeed" v="50"/>
    <tag k="maxspeed:source" v="default residential speed limit in Australia"/>
    <tag k="name" v="Verdant Place"/>
  </way>
  <way id="23925776" version="2" timestamp="2010-07-09T02:50:28Z" uid="74617" user="JohnSmith" changeset="5170713">
    <nd ref="259410531"/>
    <nd ref="259410461"/>
    <tag k="highway" v="residential"/>
    <tag k="maxspeed" v="50"/>
    <tag k="maxspeed:source" v="default residential speed limit in Australia"/>
    <tag k="name" v="Kingsmead Court"/>
  </way>
  <way id="23925778" version="2" timestamp="2010-07-09T02:45:13Z" uid="74617" user="JohnSmith" changeset="5170713">
    <nd ref="259410541"/>
    <nd ref="259410463"/>
    <tag k="highway" v="residential"/>
    <tag k="maxspeed" v="50"/>
    <tag k="maxspeed:source" v="default residential speed limit in Australia"/>
    <tag k="name" v="Hamlet Place"/>
  </way>
  <way id="23925783" version="2" timestamp="2010-07-09T05:14:21Z" uid="74617" user="JohnSmith" changeset="5170972">
    <nd ref="259410572"/>
    <nd ref="259410573"/>
    <tag k="highway" v="residential"/>
    <tag k="maxspeed" v="50"/>
    <tag k="maxspeed:source" v="default residential speed limit in Australia"/>
    <tag k="name" v="Donna Close"/>
  </way>
  <way id="23925790" version="2" timestamp="2010-07-09T05:14:19Z" uid="74617" user="JohnSmith" changeset="5170972">
    <nd ref="259410618"/>
    <nd ref="259410619"/>
    <tag k="highway" v="residential"/>
    <tag k="maxspeed" v="50"/>
    <tag k="maxspeed:source" v="default residential speed limit in Australia"/>
    <tag k="name" v="Ruby Place"/>
  </way>
  <way id="23925795" version="5" timestamp="2010-07-09T05:14:22Z" uid="74617" user="JohnSmith" changeset="5170972">
    <nd ref="259410645"/>
    <nd ref="259410646"/>
    <nd ref="259410647"/>
    <nd ref="259410951"/>
    <nd ref="259410648"/>
    <nd ref="259410843"/>
    <nd ref="259410649"/>
    <nd ref="259410650"/>
    <nd ref="259410651"/>
    <nd ref="259410652"/>
    <nd ref="259410757"/>
    <nd ref="259410653"/>
    <nd ref="259410654"/>
    <tag k="highway" v="residential"/>
    <tag k="maxspeed" v="50"/>
    <tag k="maxspeed:source" v="default residential speed limit in Australia"/>
    <tag k="name" v="Golfwood Close"/>
  </way>
  <way id="23925798" version="2" timestamp="2010-07-09T05:14:14Z" uid="74617" user="JohnSmith" changeset="5170972">
    <nd ref="259410754"/>
    <nd ref="259410755"/>
    <nd ref="259410756"/>
    <nd ref="259410757"/>
    <tag k="highway" v="residential"/>
    <tag k="maxspeed" v="50"/>
    <tag k="maxspeed:source" v="default residential speed limit in Australia"/>
    <tag k="name" v="Lee Andy Court"/>
  </way>
  <way id="23925817" version="2" timestamp="2010-07-09T05:14:24Z" uid="74617" user="JohnSmith" changeset="5170972">
    <nd ref="259410833"/>
    <nd ref="259410834"/>
    <nd ref="259410756"/>
    <tag k="highway" v="residential"/>
    <tag k="maxspeed" v="50"/>
    <tag k="maxspeed:source" v="default residential speed limit in Australia"/>
    <tag k="name" v="McGregor Court"/>
  </way>
  <way id="23925819" version="2" timestamp="2010-07-09T05:14:13Z" uid="74617" user="JohnSmith" changeset="5170972">
    <nd ref="259410842"/>
    <nd ref="259410843"/>
    <tag k="highway" v="residential"/>
    <tag k="maxspeed" v="50"/>
    <tag k="maxspeed:source" v="default residential speed limit in Australia"/>
    <tag k="name" v="Kimber Court"/>
  </way>
  <way id="23925824" version="2" timestamp="2010-07-09T05:14:06Z" uid="74617" user="JohnSmith" changeset="5170972">
    <nd ref="259410950"/>
    <nd ref="259410951"/>
    <tag k="highway" v="residential"/>
    <tag k="maxspeed" v="50"/>
    <tag k="maxspeed:source" v="default residential speed limit in Australia"/>
    <tag k="name" v="Willy Court"/>
  </way>
  <way id="23925828" version="2" timestamp="2010-05-26T04:52:39Z" uid="4467" user="Rosscoe" changeset="4809736">
    <nd ref="259411068"/>
    <nd ref="259411069"/>
    <nd ref="259411070"/>
    <tag k="highway" v="residential"/>
    <tag k="name" v="Cannery Place"/>
    <tag k="source" v="nearmap"/>
  </way>
  <way id="23925828" version="3" timestamp="2010-07-09T05:14:11Z" uid="74617" user="JohnSmith" changeset="5170972">
    <nd ref="259411068"/>
    <nd ref="259411069"/>
    <nd ref="259411070"/>
    <tag k="highway" v="residential"/>
    <tag k="maxspeed" v="50"/>
    <tag k="maxspeed:source" v="default residential speed limit in Australia"/>
    <tag k="name" v="Cannery Place"/>
    <tag k="source" v="nearmap"/>
  </way>
  <way id="23925835" version="2" timestamp="2010-07-09T05:14:18Z" uid="74617" user="JohnSmith" changeset="5170972">
    <nd ref="259411139"/>
    <nd ref="259411140"/>
    <tag k="highway" v="residential"/>
    <tag k="maxspeed" v="50"/>
    <tag k="maxspeed:source" v="default residential speed limit in Australia"/>
    <tag k="name" v="Greenview Close"/>
  </way>
  <way id="23925837" version="5" timestamp="2010-07-06T08:35:58Z" uid="74617" user="JohnSmith" changeset="5147679">
    <nd ref="258729841"/>
    <nd ref="258729842"/>
    <nd ref="258729843"/>
    <nd ref="258729844"/>
    <tag k="highway" v="residential"/>
    <tag k="maxspeed" v="50"/>
    <tag k="maxspeed:source" v="default residential speed limit in Australia"/>
    <tag k="name" v="Crompton Street"/>
  </way>
  <way id="23925849" version="2" timestamp="2010-02-15T05:04:24Z" uid="74617" user="JohnSmith" changeset="3880242">
    <nd ref="150413115"/>
    <nd ref="259411137"/>
    <nd ref="259411138"/>
    <nd ref="259411141"/>
    <nd ref="259411142"/>
    <nd ref="259411143"/>
    <nd ref="259411144"/>
    <nd ref="259411145"/>
    <nd ref="259411146"/>
    <tag k="highway" v="residential"/>
    <tag k="maxspeed" v="50"/>
    <tag k="name" v="Kookaburra Street"/>
  </way>
  <way id="23925850" version="2" timestamp="2010-02-15T05:04:24Z" uid="74617" user="JohnSmith" changeset="3880242">
    <nd ref="150413117"/>
    <nd ref="259411147"/>
    <nd ref="259411148"/>
    <nd ref="259411159"/>
    <tag k="highway" v="service"/>
    <tag k="maxspeed" v="50"/>
  </way>
  <way id="23925853" version="2" timestamp="2010-05-26T04:52:57Z" uid="4467" user="Rosscoe" changeset="4809736">
    <nd ref="259411183"/>
    <nd ref="259411184"/>
    <nd ref="259411185"/>
    <nd ref="259411186"/>
    <tag k="highway" v="residential"/>
    <tag k="name" v="Marjorie Avenue"/>
    <tag k="source" v="nearmap"/>
  </way>
  <way id="23925853" version="3" timestamp="2010-07-09T05:14:14Z" uid="74617" user="JohnSmith" changeset="5170972">
    <nd ref="259411183"/>
    <nd ref="259411184"/>
    <nd ref="259411185"/>
    <nd ref="259411186"/>
    <tag k="highway" v="residential"/>
    <tag k="maxspeed" v="50"/>
    <tag k="maxspeed:source" v="default residential speed limit in Australia"/>
    <tag k="name" v="Marjorie Avenue"/>
    <tag k="source" v="nearmap"/>
  </way>
  <way id="23925859" version="8" timestamp="2010-05-26T04:52:49Z" uid="4467" user="Rosscoe" changeset="4809736">
    <nd ref="259411194"/>
    <nd ref="259411299"/>
    <nd ref="259412138"/>
    <nd ref="259411263"/>
    <nd ref="259412365"/>
    <nd ref="259411251"/>
    <nd ref="469770654"/>
    <nd ref="259412180"/>
    <nd ref="481751552"/>
    <nd ref="137133117"/>
    <tag k="highway" v="residential"/>
    <tag k="name" v="Marcus Road"/>
  </way>
  <way id="23925859" version="9" timestamp="2010-07-09T05:14:12Z" uid="74617" user="JohnSmith" changeset="5170972">
    <nd ref="259411194"/>
    <nd ref="259411299"/>
    <nd ref="259412138"/>
    <nd ref="259411263"/>
    <nd ref="259412365"/>
    <nd ref="259411251"/>
    <nd ref="469770654"/>
    <nd ref="259412180"/>
    <nd ref="481751552"/>
    <nd ref="137133117"/>
    <tag k="highway" v="residential"/>
    <tag k="maxspeed" v="50"/>
    <tag k="maxspeed:source" v="default residential speed limit in Australia"/>
    <tag k="name" v="Marcus Road"/>
  </way>
  <way id="23925863" version="2" timestamp="2010-07-09T05:14:16Z" uid="74617" user="JohnSmith" changeset="5170972">
    <nd ref="259411251"/>
    <nd ref="259411261"/>
    <nd ref="259411262"/>
    <nd ref="259411263"/>
    <tag k="highway" v="residential"/>
    <tag k="maxspeed" v="50"/>
    <tag k="maxspeed:source" v="default residential speed limit in Australia"/>
    <tag k="name" v="Kathrin Avenue"/>
  </way>
  <way id="23925869" version="2" timestamp="2010-07-09T05:14:18Z" uid="74617" user="JohnSmith" changeset="5170972">
    <nd ref="259411297"/>
    <nd ref="259411298"/>
    <nd ref="259411299"/>
    <tag k="highway" v="residential"/>
    <tag k="maxspeed" v="50"/>
    <tag k="maxspeed:source" v="default residential speed limit in Australia"/>
    <tag k="name" v="Woodland Court"/>
  </way>
  <way id="23925869" version="3" timestamp="2011-02-26T04:03:07Z" uid="4467" user="Rosscoe" changeset="7396401">
    <nd ref="259411297"/>
    <nd ref="1173865768"/>
    <nd ref="259411298"/>
    <nd ref="259411299"/>
    <tag k="highway" v="residential"/>
    <tag k="maxspeed" v="50"/>
    <tag k="maxspeed:source" v="default residential speed limit in Australia"/>
    <tag k="name" v="Woodland Court"/>
  </way>
  <way id="23925872" version="3" timestamp="2010-07-09T05:14:09Z" uid="74617" user="JohnSmith" changeset="5170972">
    <nd ref="259411361"/>
    <nd ref="259411362"/>
    <nd ref="259411363"/>
    <nd ref="259411518"/>
    <nd ref="259411364"/>
    <nd ref="259411365"/>
    <tag k="highway" v="residential"/>
    <tag k="maxspeed" v="50"/>
    <tag k="maxspeed:source" v="default residential speed limit in Australia"/>
    <tag k="name" v="Toorak Drive"/>
  </way>
  <way id="23925873" version="3" timestamp="2009-05-31T22:18:03Z" uid="20587" user="balrog-kun" changeset="1374292">
    <nd ref="259411374"/>
    <nd ref="259411381"/>
    <nd ref="370919574"/>
    <nd ref="259411382"/>
    <nd ref="259410073"/>
    <tag k="created_by" v="Merkaartor 0.13"/>
    <tag k="highway" v="residential"/>
    <tag k="name" v="Szkolna"/>
    <tag k="source" v="image (Yahoo)"/>
  </way>
  <way id="23925873" version="4" timestamp="2009-06-05T14:13:08Z" uid="20587" user="balrog-kun" changeset="1429641">
    <nd ref="259411374"/>
    <nd ref="259411381"/>
    <nd ref="370919574"/>
    <nd ref="259411382"/>
    <nd ref="415971419"/>
    <nd ref="259410073"/>
    <tag k="created_by" v="Merkaartor 0.13"/>
    <tag k="highway" v="tertiary"/>
    <tag k="name" v="Szkolna"/>
    <tag k="source" v="image (Yahoo)"/>
  </way>
  <way id="23925874" version="3" timestamp="2009-05-31T22:18:03Z" uid="20587" user="balrog-kun" changeset="1374292">
    <nd ref="259411372"/>
    <nd ref="380228369"/>
    <nd ref="413738710"/>
    <nd ref="413738711"/>
    <nd ref="413738714"/>
    <nd ref="259411381"/>
    <nd ref="413738689"/>
    <nd ref="413738688"/>
    <nd ref="259411383"/>
    <nd ref="413738685"/>
    <nd ref="413738680"/>
    <nd ref="259411385"/>
    <nd ref="259411408"/>
    <nd ref="259411386"/>
    <tag k="highway" v="residential"/>
    <tag k="source" v="image (Yahoo)"/>
  </way>
  <way id="23925874" version="4" timestamp="2009-06-05T14:13:09Z" uid="20587" user="balrog-kun" changeset="1429641">
    <nd ref="259411372"/>
    <nd ref="380228369"/>
    <nd ref="413738710"/>
    <nd ref="413738711"/>
    <nd ref="413738714"/>
    <nd ref="259411381"/>
    <nd ref="413738689"/>
    <nd ref="413738688"/>
    <nd ref="259411383"/>
    <nd ref="413738685"/>
    <nd ref="413738680"/>
    <nd ref="259411385"/>
    <nd ref="259411408"/>
    <nd ref="259411386"/>
    <tag k="highway" v="residential"/>
    <tag k="name" v="Kolejowa"/>
    <tag k="source" v="image (Yahoo)"/>
  </way>
  <way id="23925874" version="5" timestamp="2009-06-05T15:09:13Z" uid="20587" user="balrog-kun" changeset="1430032">
    <nd ref="259411372"/>
    <nd ref="380228369"/>
    <nd ref="413738710"/>
    <nd ref="413738711"/>
    <nd ref="413738714"/>
    <nd ref="259411381"/>
    <nd ref="413738689"/>
    <nd ref="413738688"/>
    <nd ref="259411383"/>
    <nd ref="413738685"/>
    <nd ref="415983255"/>
    <nd ref="413738680"/>
    <nd ref="259411385"/>
    <nd ref="259411408"/>
    <nd ref="259411386"/>
    <tag k="highway" v="residential"/>
    <tag k="name" v="Kolejowa"/>
    <tag k="source" v="image (Yahoo)"/>
  </way>
  <way id="23925875" version="2" timestamp="2009-05-31T22:18:03Z" uid="20587" user="balrog-kun" changeset="1374292">
    <nd ref="259410073"/>
    <nd ref="413738697"/>
    <nd ref="259411393"/>
    <nd ref="413738690"/>
    <nd ref="259411394"/>
    <nd ref="413738683"/>
    <nd ref="259411410"/>
    <nd ref="259411395"/>
    <nd ref="259411396"/>
    <nd ref="259411397"/>
    <nd ref="259411392"/>
    <tag k="created_by" v="JOSM"/>
    <tag k="highway" v="residential"/>
    <tag k="name" v="11 Listopada"/>
    <tag k="source" v="Yahoo (image)"/>
  </way>
  <way id="23925876" version="2" timestamp="2009-05-31T22:18:03Z" uid="20587" user="balrog-kun" changeset="1374292">
    <nd ref="259411408"/>
    <nd ref="413738684"/>
    <nd ref="259411407"/>
    <nd ref="259411406"/>
    <nd ref="259411405"/>
    <nd ref="413738678"/>
    <nd ref="259411404"/>
    <nd ref="259411395"/>
    <nd ref="259411403"/>
    <nd ref="259411401"/>
    <nd ref="413738705"/>
    <nd ref="259411398"/>
    <nd ref="413738589"/>
    <tag k="created_by" v="JOSM"/>
    <tag k="highway" v="residential"/>
    <tag k="name" v="3 Maja"/>
    <tag k="source" v="image (Yahoo)"/>
  </way>
  <way id="23925877" version="2" timestamp="2009-05-31T22:18:05Z" uid="20587" user="balrog-kun" changeset="1374292"/>
  <way id="23925878" version="2" timestamp="2010-07-09T05:14:20Z" uid="74617" user="JohnSmith" changeset="5170972">
    <nd ref="259411517"/>
    <nd ref="259411518"/>
    <tag k="highway" v="residential"/>
    <tag k="maxspeed" v="50"/>
    <tag k="maxspeed:source" v="default residential speed limit in Australia"/>
    <tag k="name" v="Shepherd Court"/>
  </way>
  <way id="23925887" version="2" timestamp="2010-07-09T05:14:24Z" uid="74617" user="JohnSmith" changeset="5170972">
    <nd ref="259411555"/>
    <nd ref="259411556"/>
    <tag k="highway" v="residential"/>
    <tag k="maxspeed" v="50"/>
    <tag k="maxspeed:source" v="default residential speed limit in Australia"/>
    <tag k="name" v="Tarnook Court"/>
  </way>
  <way id="23925892" version="2" timestamp="2010-07-09T05:14:17Z" uid="74617" user="JohnSmith" changeset="5170972">
    <nd ref="259411591"/>
    <nd ref="259411592"/>
    <nd ref="259411593"/>
    <tag k="highway" v="residential"/>
    <tag k="maxspeed" v="50"/>
    <tag k="maxspeed:source" v="default residential speed limit in Australia"/>
    <tag k="name" v="Mungari Street"/>
  </way>
  <way id="23925892" version="3" timestamp="2011-02-26T04:03:09Z" uid="4467" user="Rosscoe" changeset="7396401">
    <nd ref="259411591"/>
    <nd ref="259411593"/>
    <tag k="highway" v="residential"/>
    <tag k="maxspeed" v="50"/>
    <tag k="maxspeed:source" v="default residential speed limit in Australia"/>
    <tag k="name" v="Mungari Street"/>
  </way>
  <way id="23925896" version="3" timestamp="2010-07-09T05:14:23Z" uid="74617" user="JohnSmith" changeset="5170972">
    <nd ref="259411362"/>
    <nd ref="259411556"/>
    <nd ref="259411601"/>
    <nd ref="259411629"/>
    <nd ref="259411593"/>
    <nd ref="259411602"/>
    <tag k="highway" v="residential"/>
    <tag k="maxspeed" v="50"/>
    <tag k="maxspeed:source" v="default residential speed limit in Australia"/>
    <tag k="name" v="Wolbers Road"/>
  </way>
  <way id="23925896" version="4" timestamp="2011-02-26T04:03:10Z" uid="4467" user="Rosscoe" changeset="7396401">
    <nd ref="259411362"/>
    <nd ref="1173865769"/>
    <nd ref="259411556"/>
    <nd ref="259411601"/>
    <nd ref="259411629"/>
    <nd ref="259411593"/>
    <nd ref="259411602"/>
    <tag k="highway" v="residential"/>
    <tag k="maxspeed" v="50"/>
    <tag k="maxspeed:source" v="default residential speed limit in Australia"/>
    <tag k="name" v="Wolbers Road"/>
  </way>
  <way id="23925900" version="3" timestamp="2010-07-09T05:14:10Z" uid="74617" user="JohnSmith" changeset="5170972">
    <nd ref="259411603"/>
    <nd ref="259411627"/>
    <nd ref="259411639"/>
    <nd ref="259411628"/>
    <nd ref="259411629"/>
    <tag k="highway" v="residential"/>
    <tag k="maxspeed" v="50"/>
    <tag k="maxspeed:source" v="default residential speed limit in Australia"/>
    <tag k="name" v="Seaton Drive"/>
  </way>
  <way id="23925902" version="2" timestamp="2010-07-09T05:14:17Z" uid="74617" user="JohnSmith" changeset="5170972">
    <nd ref="259411638"/>
    <nd ref="259411639"/>
    <tag k="highway" v="residential"/>
    <tag k="maxspeed" v="50"/>
    <tag k="maxspeed:source" v="default residential speed limit in Australia"/>
    <tag k="name" v="Nambrok Close"/>
  </way>
  <way id="23925902" version="3" timestamp="2011-02-26T04:03:08Z" uid="4467" user="Rosscoe" changeset="7396401">
    <nd ref="259411638"/>
    <nd ref="1173865774"/>
    <nd ref="259411639"/>
    <tag k="highway" v="residential"/>
    <tag k="maxspeed" v="50"/>
    <tag k="maxspeed:source" v="default residential speed limit in Australia"/>
    <tag k="name" v="Nambrok Close"/>
  </way>
  <way id="23925944" version="2" timestamp="2010-07-09T05:14:08Z" uid="74617" user="JohnSmith" changeset="5170972">
    <nd ref="259412000"/>
    <nd ref="259411627"/>
    <tag k="highway" v="residential"/>
    <tag k="maxspeed" v="50"/>
    <tag k="maxspeed:source" v="default residential speed limit in Australia"/>
    <tag k="name" v="Picola Court"/>
  </way>
  <way id="23925951" version="3" timestamp="2010-07-09T05:14:13Z" uid="74617" user="JohnSmith" changeset="5170972">
    <nd ref="259412136"/>
    <nd ref="259412137"/>
    <nd ref="259412163"/>
    <nd ref="259412138"/>
    <tag k="highway" v="residential"/>
    <tag k="maxspeed" v="50"/>
    <tag k="maxspeed:source" v="default residential speed limit in Australia"/>
    <tag k="name" v="Hillingdon Court"/>
  </way>
  <way id="23925955" version="2" timestamp="2010-07-09T05:14:22Z" uid="74617" user="JohnSmith" changeset="5170972">
    <nd ref="259412161"/>
    <nd ref="259412162"/>
    <nd ref="259412163"/>
    <tag k="highway" v="residential"/>
    <tag k="maxspeed" v="50"/>
    <tag k="maxspeed:source" v="default residential speed limit in Australia"/>
    <tag k="name" v="Wendon Court"/>
  </way>
  <way id="23925959" version="2" timestamp="2010-07-09T05:14:09Z" uid="74617" user="JohnSmith" changeset="5170972">
    <nd ref="259412177"/>
    <nd ref="259412178"/>
    <nd ref="259412179"/>
    <nd ref="259412180"/>
    <tag k="highway" v="residential"/>
    <tag k="maxspeed" v="50"/>
    <tag k="maxspeed:source" v="default residential speed limit in Australia"/>
    <tag k="name" v="St Marks Close"/>
  </way>
  <way id="23925969" version="2" timestamp="2010-07-09T05:14:14Z" uid="74617" user="JohnSmith" changeset="5170972">
    <nd ref="259412304"/>
    <nd ref="259412305"/>
    <tag k="highway" v="residential"/>
    <tag k="maxspeed" v="50"/>
    <tag k="maxspeed:source" v="default residential speed limit in Australia"/>
    <tag k="name" v="Pethybridge Close"/>
  </way>
  <way id="23925982" version="3" timestamp="2010-07-09T05:14:22Z" uid="74617" user="JohnSmith" changeset="5170972">
    <nd ref="259412359"/>
    <nd ref="259412360"/>
    <nd ref="259412731"/>
    <nd ref="259412361"/>
    <nd ref="259412362"/>
    <nd ref="259412363"/>
    <nd ref="259412364"/>
    <nd ref="259412365"/>
    <tag k="highway" v="residential"/>
    <tag k="maxspeed" v="50"/>
    <tag k="maxspeed:source" v="default residential speed limit in Australia"/>
    <tag k="name" v="Kingswood Drive"/>
  </way>
  <way id="23925985" version="2" timestamp="2010-07-09T05:14:19Z" uid="74617" user="JohnSmith" changeset="5170972">
    <nd ref="259412526"/>
    <nd ref="259412527"/>
    <tag k="highway" v="residential"/>
    <tag k="maxspeed" v="50"/>
    <tag k="maxspeed:source" v="default residential speed limit in Australia"/>
    <tag k="name" v="Bogey Court"/>
  </way>
  <way id="23925997" version="3" timestamp="2010-07-09T05:14:15Z" uid="74617" user="JohnSmith" changeset="5170972">
    <nd ref="137133118"/>
    <nd ref="259412617"/>
    <nd ref="259412618"/>
    <nd ref="259412631"/>
    <nd ref="259412619"/>
    <nd ref="259412359"/>
    <nd ref="259412620"/>
    <tag k="highway" v="residential"/>
    <tag k="maxspeed" v="50"/>
    <tag k="maxspeed:source" v="default residential speed limit in Australia"/>
    <tag k="name" v="Harley Street"/>
  </way>
</osm>
