<?xml version='1.0' encoding='UTF-8'?>
<osm version="0.6" generator="libosmium/2.20.0">
  <way id="24122049" version="3" timestamp="2011-03-08T11:49:12Z" uid="4467" user="Rosscoe" changeset="7493210">
    <nd ref="1192546036"/>
    <nd ref="261393675"/>
    <nd ref="261393676"/>
    <nd ref="261393677"/>
    <nd ref="261393679"/>
    <nd ref="31563313"/>
    <tag k="highway" v="secondary"/>
    <tag k="name" v="Narre Warren - Cranbourne Road"/>
    <tag k="oneway" v="yes"/>
    <tag k="ref" v="C404"/>
  </way>
  <way id="24122053" version="2" timestamp="2011-03-08T11:49:14Z" uid="4467" user="Rosscoe" changeset="7493210">
    <nd ref="31563313"/>
    <nd ref="261393680"/>
    <nd ref="261393681"/>
    <nd ref="261393682"/>
    <nd ref="261393684"/>
    <nd ref="261392665"/>
    <tag k="highway" v="secondary"/>
    <tag k="name" v="Narre Warren - Cranbourne Road"/>
    <tag k="oneway" v="yes"/>
    <tag k="ref" v="C404"/>
  </way>
  <way id="24122072" version="3" timestamp="2010-04-06T06:46:25Z" uid="74617" user="JohnSmith" changeset="4340624">
    <nd ref="261392658"/>
    <nd ref="261393996"/>
    <nd ref="261393997"/>
    <nd ref="261393998"/>
    <nd ref="261394000"/>
    <tag k="highway" v="secondary"/>
    <tag k="name" v="Thompsons Road"/>
    <tag k="oneway" v="yes"/>
  </way>
  <way id="24122072" version="4" timestamp="2011-03-08T11:49:04Z" uid="4467" user="Rosscoe" changeset="7493210">
    <nd ref="1192546041"/>
    <nd ref="261393996"/>
    <nd ref="261393997"/>
    <nd ref="261393998"/>
    <nd ref="261394000"/>
    <tag k="highway" v="secondary"/>
    <tag k="name" v="Thompsons Road"/>
    <tag k="oneway" v="yes"/>
  </way>
  <way id="24122110" version="2" timestamp="2010-04-06T06:46:25Z" uid="74617" user="JohnSmith" changeset="4340624">
    <nd ref="261394000"/>
    <nd ref="261394001"/>
    <nd ref="261394002"/>
    <nd ref="261394003"/>
    <nd ref="261394004"/>
    <nd ref="261392661"/>
    <tag k="highway" v="secondary"/>
    <tag k="name" v="Thompsons Road"/>
    <tag k="oneway" v="yes"/>
  </way>
  <way id="24122110" version="3" timestamp="2011-03-08T11:49:11Z" uid="4467" user="Rosscoe" changeset="7493210">
    <nd ref="261394000"/>
    <nd ref="261394001"/>
    <nd ref="261394002"/>
    <nd ref="261394003"/>
    <nd ref="261394004"/>
    <nd ref="261392661"/>
    <tag k="highway" v="secondary"/>
    <tag k="name" v="Thompsons Road"/>
    <tag k="oneway" v="yes"/>
  </way>
  <way id="24122166" version="13" timestamp="2010-04-06T06:46:23Z" uid="74617" user="JohnSmith" changeset="4340624">
    <nd ref="261392665"/>
    <nd ref="261394664"/>
    <nd ref="261394666"/>
    <nd ref="261394667"/>
    <nd ref="623639654"/>
    <nd ref="316885268"/>
    <nd ref="622107177"/>
    <nd ref="316885403"/>
    <nd ref="651217796"/>
    <nd ref="651217797"/>
    <nd ref="316885404"/>
    <nd ref="316885549"/>
    <nd ref="261395501"/>
    <nd ref="261395502"/>
    <nd ref="153868475"/>
    <tag k="highway" v="secondary"/>
    <tag k="name" v="Thompsons Road"/>
    <tag k="oneway" v="yes"/>
  </way>
  <way id="24122166" version="14" timestamp="2011-03-08T11:49:18Z" uid="4467" user="Rosscoe" changeset="7493210">
    <nd ref="1192546040"/>
    <nd ref="261394664"/>
    <nd ref="261394666"/>
    <nd ref="261394667"/>
    <nd ref="623639654"/>
    <nd ref="316885268"/>
    <nd ref="622107177"/>
    <nd ref="316885403"/>
    <nd ref="651217796"/>
    <nd ref="651217797"/>
    <nd ref="316885404"/>
    <nd ref="316885549"/>
    <nd ref="261395501"/>
    <nd ref="261395502"/>
    <nd ref="153868475"/>
    <tag k="highway" v="secondary"/>
    <tag k="name" v="Thompsons Road"/>
    <tag k="oneway" v="yes"/>
  </way>
  <way id="24122168" version="4" timestamp="2010-04-06T06:46:25Z" uid="74617" user="JohnSmith" changeset="4340624">
    <nd ref="261394668"/>
    <nd ref="288984960"/>
    <nd ref="261394670"/>
    <nd ref="598331866"/>
    <nd ref="261394671"/>
    <nd ref="261394672"/>
    <nd ref="261392654"/>
    <tag k="highway" v="secondary"/>
    <tag k="name" v="Thompsons Road"/>
    <tag k="oneway" v="yes"/>
  </way>
  <way id="24122289" version="9" timestamp="2010-04-06T06:46:22Z" uid="74617" user="JohnSmith" changeset="4340624">
    <nd ref="261395425"/>
    <nd ref="258981960"/>
    <nd ref="319430856"/>
    <nd ref="651217798"/>
    <nd ref="258980784"/>
    <nd ref="258979957"/>
    <nd ref="258979397"/>
    <nd ref="258978755"/>
    <nd ref="623639660"/>
    <nd ref="31603821"/>
    <nd ref="261394668"/>
    <tag k="highway" v="secondary"/>
    <tag k="name" v="Thompsons Road"/>
  </way>
  <way id="24122289" version="10" timestamp="2011-03-15T10:49:53Z" uid="4467" user="Rosscoe" changeset="7564986">
    <nd ref="261395425"/>
    <nd ref="258981960"/>
    <nd ref="319430856"/>
    <nd ref="651217798"/>
    <nd ref="258980784"/>
    <nd ref="258979957"/>
    <nd ref="258979397"/>
    <nd ref="258978755"/>
    <nd ref="623639660"/>
    <nd ref="31603821"/>
    <nd ref="261394668"/>
    <tag k="highway" v="secondary"/>
    <tag k="name" v="Thompsons Road"/>
    <tag k="oneway" v="yes"/>
  </way>
  <way id="24122459" version="7" timestamp="2010-04-06T06:46:25Z" uid="74617" user="JohnSmith" changeset="4340624">
    <nd ref="261396875"/>
    <nd ref="650000732"/>
    <nd ref="650000733"/>
    <nd ref="650000734"/>
    <nd ref="261396876"/>
    <nd ref="674758004"/>
    <nd ref="261396363"/>
    <tag k="highway" v="primary"/>
    <tag k="name" v="Thompsons Road"/>
    <tag k="oneway" v="yes"/>
  </way>
  <way id="24122459" version="8" timestamp="2010-12-31T13:15:06Z" uid="4467" user="Rosscoe" changeset="6819526">
    <nd ref="261396875"/>
    <nd ref="1075249372"/>
    <nd ref="1075249361"/>
    <nd ref="650000732"/>
    <nd ref="650000733"/>
    <nd ref="650000734"/>
    <nd ref="261396876"/>
    <nd ref="674758004"/>
    <nd ref="261396363"/>
    <tag k="highway" v="primary"/>
    <tag k="name" v="Thompsons Road"/>
    <tag k="oneway" v="yes"/>
  </way>
  <way id="24122459" version="9" timestamp="2011-03-15T10:50:28Z" uid="4467" user="Rosscoe" changeset="7564986"/>
  <way id="24122511" version="18" timestamp="2010-04-06T06:46:24Z" uid="74617" user="JohnSmith" changeset="4340624">
    <nd ref="31603302"/>
    <nd ref="594018724"/>
    <nd ref="594018735"/>
    <nd ref="594158198"/>
    <nd ref="594158203"/>
    <nd ref="594157378"/>
    <nd ref="594158290"/>
    <nd ref="594267755"/>
    <nd ref="594304687"/>
    <nd ref="594157381"/>
    <nd ref="594289431"/>
    <nd ref="594158208"/>
    <nd ref="594158215"/>
    <nd ref="261397490"/>
    <nd ref="298589040"/>
    <tag k="highway" v="primary"/>
    <tag k="name" v="Thompsons Road"/>
  </way>
  <way id="24122511" version="19" timestamp="2010-05-02T02:09:37Z" uid="4467" user="Rosscoe" changeset="4580853">
    <nd ref="31603302"/>
    <nd ref="594018724"/>
    <nd ref="594018735"/>
    <nd ref="594158198"/>
    <nd ref="594158203"/>
    <nd ref="594157378"/>
    <nd ref="594158290"/>
    <nd ref="594267755"/>
    <nd ref="594304687"/>
    <nd ref="594157381"/>
    <nd ref="594289431"/>
    <nd ref="594158208"/>
    <nd ref="594158215"/>
    <nd ref="261397490"/>
    <nd ref="716109046"/>
    <tag k="highway" v="primary"/>
    <tag k="name" v="Thompsons Road"/>
  </way>
  <way id="24122511" version="21" timestamp="2011-03-15T10:50:09Z" uid="4467" user="Rosscoe" changeset="7564986">
    <nd ref="31603302"/>
    <nd ref="594018724"/>
    <nd ref="594018735"/>
    <nd ref="594158198"/>
    <nd ref="594158203"/>
    <nd ref="594157378"/>
    <nd ref="594267755"/>
    <nd ref="594304687"/>
    <nd ref="594289431"/>
    <nd ref="594158208"/>
    <nd ref="594158215"/>
    <nd ref="261397490"/>
    <nd ref="716109046"/>
    <tag k="highway" v="primary"/>
    <tag k="maxspeed" v="80"/>
    <tag k="name" v="Thompsons Road"/>
  </way>
  <way id="24122515" version="33" timestamp="2011-03-15T10:49:07Z" uid="4467" user="Rosscoe" changeset="7564986">
    <nd ref="1202889428"/>
    <nd ref="594025808"/>
    <nd ref="261399396"/>
    <nd ref="261397659"/>
    <nd ref="594025093"/>
    <nd ref="594017552"/>
    <nd ref="594025122"/>
    <tag k="highway" v="trunk"/>
    <tag k="lanes" v="2"/>
    <tag k="maxspeed" v="100"/>
    <tag k="name" v="Western Port Highway"/>
    <tag k="oneway" v="yes"/>
  </way>
  <way id="24122574" version="7" timestamp="2011-03-15T10:50:02Z" uid="4467" user="Rosscoe" changeset="7564986">
    <nd ref="1202889428"/>
    <nd ref="594030315"/>
    <nd ref="594030318"/>
    <nd ref="594030322"/>
    <nd ref="1202889590"/>
    <nd ref="261398568"/>
    <nd ref="594030331"/>
    <nd ref="594030346"/>
    <nd ref="594030351"/>
    <nd ref="594030355"/>
    <nd ref="261398572"/>
    <nd ref="1202889725"/>
    <nd ref="594030361"/>
    <nd ref="594030366"/>
    <nd ref="594030370"/>
    <nd ref="1202889643"/>
    <nd ref="261398575"/>
    <nd ref="594030377"/>
    <nd ref="594030382"/>
    <nd ref="594030387"/>
    <nd ref="594030392"/>
    <nd ref="261398565"/>
    <nd ref="1202889428"/>
    <tag k="highway" v="trunk"/>
    <tag k="junction" v="roundabout"/>
    <tag k="source" v="nearmap"/>
  </way>
  <way id="24122577" version="4" timestamp="2010-07-09T03:49:46Z" uid="74617" user="JohnSmith" changeset="5170838">
    <nd ref="31476628"/>
    <nd ref="261398596"/>
    <nd ref="261398598"/>
    <tag k="highway" v="residential"/>
    <tag k="maxspeed" v="50"/>
    <tag k="maxspeed:source" v="default residential speed limit in Australia"/>
    <tag k="name" v="North Road"/>
    <tag k="oneway" v="yes"/>
  </way>
  <way id="24122646" version="6" timestamp="2011-03-15T10:49:31Z" uid="4467" user="Rosscoe" changeset="7564986">
    <nd ref="1202889725"/>
    <nd ref="261399127"/>
    <nd ref="594027191"/>
    <nd ref="261399128"/>
    <tag k="highway" v="trunk"/>
    <tag k="lanes" v="2"/>
    <tag k="maxspeed" v="100"/>
    <tag k="name" v="Western Port Highway"/>
    <tag k="oneway" v="yes"/>
  </way>
  <way id="24122737" version="4" timestamp="2010-07-09T03:49:06Z" uid="74617" user="JohnSmith" changeset="5170838">
    <nd ref="617934404"/>
    <nd ref="261399838"/>
    <nd ref="261399839"/>
    <tag k="highway" v="residential"/>
    <tag k="maxspeed" v="50"/>
    <tag k="maxspeed:source" v="default residential speed limit in Australia"/>
    <tag k="name" v="Germain Street"/>
  </way>
  <way id="24122770" version="5" timestamp="2010-04-06T06:46:24Z" uid="74617" user="JohnSmith" changeset="4340624">
    <nd ref="261398575"/>
    <nd ref="261400149"/>
    <nd ref="261400150"/>
    <nd ref="31603302"/>
    <tag k="highway" v="primary"/>
    <tag k="name" v="Thompsons Road"/>
    <tag k="oneway" v="yes"/>
  </way>
  <way id="24122770" version="6" timestamp="2011-03-15T10:50:20Z" uid="4467" user="Rosscoe" changeset="7564986">
    <nd ref="261398575"/>
    <nd ref="261400149"/>
    <nd ref="261400150"/>
    <nd ref="31603302"/>
    <tag k="highway" v="primary"/>
    <tag k="name" v="Thompsons Road"/>
    <tag k="oneway" v="yes"/>
  </way>
  <way id="24122778" version="6" timestamp="2010-04-06T06:46:23Z" uid="74617" user="JohnSmith" changeset="4340624">
    <nd ref="31603302"/>
    <nd ref="261400151"/>
    <nd ref="261400152"/>
    <nd ref="594026773"/>
    <nd ref="261398565"/>
    <tag k="highway" v="primary"/>
    <tag k="name" v="Thompsons Road"/>
    <tag k="oneway" v="yes"/>
  </way>
  <way id="24122818" version="7" timestamp="2010-04-06T06:46:25Z" uid="74617" user="JohnSmith" changeset="4340624">
    <nd ref="261398568"/>
    <nd ref="261400679"/>
    <nd ref="261400680"/>
    <nd ref="261400681"/>
    <nd ref="31603297"/>
    <tag k="highway" v="primary"/>
    <tag k="name" v="Thompsons Road"/>
    <tag k="oneway" v="yes"/>
  </way>
  <way id="24122818" version="8" timestamp="2011-03-15T10:49:39Z" uid="4467" user="Rosscoe" changeset="7564986">
    <nd ref="261398568"/>
    <nd ref="261400679"/>
    <nd ref="261400680"/>
    <nd ref="261400681"/>
    <nd ref="31603297"/>
    <tag k="highway" v="primary"/>
    <tag k="name" v="Thompsons Road"/>
    <tag k="oneway" v="yes"/>
  </way>
  <way id="24122838" version="3" timestamp="2010-04-06T06:46:24Z" uid="74617" user="JohnSmith" changeset="4340624">
    <nd ref="31603297"/>
    <nd ref="261400489"/>
    <nd ref="261400487"/>
    <nd ref="261398572"/>
    <tag k="highway" v="primary"/>
    <tag k="name" v="Thompsons Road"/>
    <tag k="oneway" v="yes"/>
  </way>
  <way id="24122838" version="4" timestamp="2011-03-15T10:50:08Z" uid="4467" user="Rosscoe" changeset="7564986">
    <nd ref="31603297"/>
    <nd ref="261400489"/>
    <nd ref="261400487"/>
    <nd ref="261398572"/>
    <tag k="highway" v="primary"/>
    <tag k="name" v="Thompsons Road"/>
    <tag k="oneway" v="yes"/>
  </way>
</osm>
