<?xml version='1.0' encoding='UTF-8'?>
<osm version="0.6" generator="libosmium/2.20.0">
  <way id="24222010" version="4" timestamp="2010-02-15T12:15:06Z" uid="74617" user="JohnSmith" changeset="3882541">
    <nd ref="262264507"/>
    <nd ref="508115602"/>
    <tag k="highway" v="residential"/>
    <tag k="maxspeed" v="50"/>
    <tag k="name" v="Adrian Street"/>
  </way>
  <way id="24222020" version="8" timestamp="2010-02-15T12:16:13Z" uid="74617" user="JohnSmith" changeset="3882541">
    <nd ref="178165017"/>
    <nd ref="508112736"/>
    <nd ref="508112569"/>
    <tag k="highway" v="residential"/>
    <tag k="maxspeed" v="50"/>
    <tag k="name" v="Muriel Avenue"/>
  </way>
  <way id="24222026" version="8" timestamp="2010-02-15T12:16:14Z" uid="74617" user="JohnSmith" changeset="3882541">
    <nd ref="262264511"/>
    <nd ref="262264920"/>
    <nd ref="508112736"/>
    <tag k="highway" v="residential"/>
    <tag k="maxspeed" v="50"/>
    <tag k="name" v="Killarney Avenue"/>
  </way>
  <way id="24222029" version="4" timestamp="2010-02-15T12:15:06Z" uid="74617" user="JohnSmith" changeset="3882541">
    <nd ref="262264932"/>
    <nd ref="534605980"/>
    <tag k="highway" v="residential"/>
    <tag k="maxspeed" v="50"/>
    <tag k="name" v="Andes Street"/>
  </way>
  <way id="24222031" version="10" timestamp="2010-02-15T12:13:43Z" uid="74617" user="JohnSmith" changeset="3882541">
    <nd ref="262265073"/>
    <nd ref="262265086"/>
    <nd ref="262265093"/>
    <nd ref="262264957"/>
    <nd ref="508111799"/>
    <nd ref="262264956"/>
    <nd ref="534605958"/>
    <nd ref="304232450"/>
    <nd ref="262264955"/>
    <nd ref="304232470"/>
    <nd ref="534605980"/>
    <nd ref="262264954"/>
    <nd ref="262264506"/>
    <tag k="highway" v="residential"/>
    <tag k="maxspeed" v="50"/>
    <tag k="name" v="Greta Street"/>
  </way>
  <way id="24222034" version="3" timestamp="2010-04-03T04:00:09Z" uid="20587" user="balrog-kun" changeset="4309442">
    <nd ref="262264993"/>
    <nd ref="262264999"/>
    <nd ref="174748172"/>
    <nd ref="174748175"/>
    <nd ref="174748188"/>
    <nd ref="174748191"/>
    <nd ref="174748197"/>
    <tag k="created_by" v="Potlatch 0.8c"/>
    <tag k="highway" v="secondary"/>
    <tag k="name" v="East Rim Drive"/>
    <tag k="name_1" v="State Route 64"/>
    <tag k="name_2" v="State Highway 64"/>
    <tag k="ref" v="AZ 64"/>
    <tag k="tiger:cfcc" v="A31"/>
    <tag k="tiger:county" v="Coconino, AZ"/>
    <tag k="tiger:name_base" v="East Rim"/>
    <tag k="tiger:name_base_1" v="State Route 64"/>
    <tag k="tiger:name_base_2" v="State Highway 64"/>
    <tag k="tiger:name_type" v="Dr"/>
    <tag k="tiger:separated" v="no"/>
    <tag k="tiger:source" v="tiger_import_dch_v0.6_20070809"/>
    <tag k="tiger:tlid" v="188945990:188977950:188871037:188870843:188870849:188945991:188871075"/>
  </way>
  <way id="24222035" version="4" timestamp="2010-02-15T12:16:13Z" uid="74617" user="JohnSmith" changeset="3882541">
    <nd ref="508111799"/>
    <nd ref="262264510"/>
    <tag k="highway" v="residential"/>
    <tag k="maxspeed" v="50"/>
    <tag k="name" v="Sue Street"/>
  </way>
  <way id="24222036" version="5" timestamp="2010-02-15T12:16:13Z" uid="74617" user="JohnSmith" changeset="3882541">
    <nd ref="262264508"/>
    <nd ref="534605958"/>
    <tag k="highway" v="residential"/>
    <tag k="maxspeed" v="50"/>
    <tag k="name" v="Mercia Street"/>
  </way>
  <way id="24222037" version="5" timestamp="2010-02-15T12:13:43Z" uid="74617" user="JohnSmith" changeset="3882541">
    <nd ref="262264994"/>
    <nd ref="303705372"/>
    <nd ref="269654677"/>
    <nd ref="262264955"/>
    <tag k="highway" v="residential"/>
    <tag k="maxspeed" v="50"/>
    <tag k="name" v="Atlanta Street"/>
  </way>
  <way id="24222039" version="4" timestamp="2010-02-15T12:16:13Z" uid="74617" user="JohnSmith" changeset="3882541">
    <nd ref="262265013"/>
    <nd ref="178186097"/>
    <tag k="highway" v="residential"/>
    <tag k="maxspeed" v="50"/>
    <tag k="name" v="Delsia Street"/>
  </way>
  <way id="24222040" version="4" timestamp="2010-02-15T12:16:13Z" uid="74617" user="JohnSmith" changeset="3882541">
    <nd ref="262265021"/>
    <nd ref="499961803"/>
    <tag k="highway" v="residential"/>
    <tag k="maxspeed" v="50"/>
    <tag k="name" v="Verdant Street"/>
  </way>
  <way id="24222041" version="4" timestamp="2010-02-15T12:16:13Z" uid="74617" user="JohnSmith" changeset="3882541">
    <nd ref="262265033"/>
    <nd ref="178186099"/>
    <tag k="highway" v="residential"/>
    <tag k="maxspeed" v="50"/>
    <tag k="name" v="Greenside Street"/>
  </way>
  <way id="24222044" version="4" timestamp="2010-02-15T12:16:13Z" uid="74617" user="JohnSmith" changeset="3882541">
    <nd ref="262265058"/>
    <nd ref="262264956"/>
    <tag k="highway" v="residential"/>
    <tag k="maxspeed" v="50"/>
    <tag k="name" v="Estelle Street"/>
  </way>
  <way id="24222053" version="4" timestamp="2010-02-15T12:13:42Z" uid="74617" user="JohnSmith" changeset="3882541">
    <nd ref="269654677"/>
    <nd ref="303705369"/>
    <nd ref="262265021"/>
    <nd ref="262265058"/>
    <nd ref="262265084"/>
    <nd ref="262265086"/>
    <tag k="highway" v="residential"/>
    <tag k="maxspeed" v="50"/>
    <tag k="name" v="Rickston Street"/>
  </way>
  <way id="24222069" version="4" timestamp="2010-02-15T12:16:14Z" uid="74617" user="JohnSmith" changeset="3882541">
    <nd ref="178186701"/>
    <nd ref="178484772"/>
    <tag k="highway" v="residential"/>
    <tag k="maxspeed" v="50"/>
    <tag k="name" v="Fisher Street"/>
  </way>
  <way id="24222071" version="6" timestamp="2010-02-15T12:16:14Z" uid="74617" user="JohnSmith" changeset="3882541">
    <nd ref="269654556"/>
    <nd ref="508106394"/>
    <nd ref="178485316"/>
    <tag k="highway" v="residential"/>
    <tag k="maxspeed" v="50"/>
    <tag k="name" v="Peranga Street"/>
  </way>
  <way id="24222071" version="7" timestamp="2010-07-10T14:16:02Z" uid="4467" user="Rosscoe" changeset="5182915">
    <nd ref="269654556"/>
    <nd ref="810073779"/>
    <nd ref="508106394"/>
    <nd ref="178485316"/>
    <tag k="highway" v="residential"/>
    <tag k="maxspeed" v="50"/>
    <tag k="name" v="Peranga Street"/>
  </way>
  <way id="24222073" version="5" timestamp="2010-02-15T12:15:43Z" uid="74617" user="JohnSmith" changeset="3882541">
    <nd ref="508106394"/>
    <nd ref="262265138"/>
    <nd ref="262265139"/>
    <nd ref="262265140"/>
    <nd ref="178485318"/>
    <tag k="highway" v="residential"/>
    <tag k="maxspeed" v="50"/>
    <tag k="name" v="Bird Street"/>
  </way>
  <way id="24222078" version="7" timestamp="2010-02-15T12:15:04Z" uid="74617" user="JohnSmith" changeset="3882541">
    <nd ref="262265168"/>
    <nd ref="508125075"/>
    <nd ref="508124446"/>
    <nd ref="508125811"/>
    <tag k="highway" v="residential"/>
    <tag k="maxspeed" v="50"/>
    <tag k="name" v="Boondara Street"/>
  </way>
  <way id="24222079" version="5" timestamp="2010-02-15T12:15:06Z" uid="74617" user="JohnSmith" changeset="3882541">
    <nd ref="262264504"/>
    <nd ref="508125811"/>
    <nd ref="508125104"/>
    <nd ref="262265182"/>
    <nd ref="262265183"/>
    <tag k="highway" v="residential"/>
    <tag k="maxspeed" v="50"/>
    <tag k="name" v="Ringara Street"/>
  </way>
  <way id="24222079" version="6" timestamp="2010-03-21T04:52:51Z" uid="74617" user="JohnSmith" changeset="4187295">
    <nd ref="262264504"/>
    <nd ref="508125811"/>
    <nd ref="508125104"/>
    <nd ref="671142299"/>
    <nd ref="671142300"/>
    <nd ref="262265182"/>
    <nd ref="671142298"/>
    <nd ref="262265183"/>
    <tag k="highway" v="residential"/>
    <tag k="maxspeed" v="50"/>
    <tag k="name" v="Ringara Street"/>
  </way>
  <way id="24222081" version="4" timestamp="2010-02-15T12:15:06Z" uid="74617" user="JohnSmith" changeset="3882541">
    <nd ref="262265174"/>
    <nd ref="508124446"/>
    <tag k="highway" v="residential"/>
    <tag k="maxspeed" v="50"/>
    <tag k="name" v="Iluka Street"/>
  </way>
  <way id="24222082" version="5" timestamp="2010-02-15T12:15:04Z" uid="74617" user="JohnSmith" changeset="3882541">
    <nd ref="508125075"/>
    <nd ref="262265177"/>
    <nd ref="508125104"/>
    <tag k="highway" v="residential"/>
    <tag k="maxspeed" v="50"/>
    <tag k="name" v="Yaringa Street"/>
  </way>
  <way id="24222085" version="3" timestamp="2010-02-15T12:13:42Z" uid="74617" user="JohnSmith" changeset="3882541">
    <nd ref="262265184"/>
    <nd ref="262264135"/>
    <tag k="highway" v="residential"/>
    <tag k="maxspeed" v="50"/>
    <tag k="name" v="Woolford Place"/>
  </way>
  <way id="24222131" version="4" timestamp="2010-09-18T19:52:22Z" uid="9581" user="Lobelt" changeset="5814541">
    <nd ref="549265609"/>
    <nd ref="262265543"/>
    <nd ref="262265544"/>
    <nd ref="262265545"/>
    <nd ref="262265546"/>
    <nd ref="549265614"/>
    <nd ref="262265547"/>
    <nd ref="262265548"/>
    <nd ref="262265549"/>
    <nd ref="262262394"/>
    <nd ref="262265550"/>
    <nd ref="262265551"/>
    <nd ref="262265552"/>
    <nd ref="262262393"/>
    <nd ref="262265553"/>
    <nd ref="262265554"/>
    <nd ref="262265555"/>
    <nd ref="262265556"/>
    <nd ref="262265559"/>
    <nd ref="262265560"/>
    <nd ref="262265561"/>
    <nd ref="262265562"/>
    <nd ref="262265563"/>
    <nd ref="560737348"/>
    <tag k="bicycle" v="yes"/>
    <tag k="highway" v="footway"/>
  </way>
  <way id="24222150" version="5" timestamp="2010-02-15T12:14:49Z" uid="74617" user="JohnSmith" changeset="3882541">
    <nd ref="262265644"/>
    <nd ref="262265645"/>
    <nd ref="262265646"/>
    <nd ref="262265647"/>
    <nd ref="262265638"/>
    <nd ref="508216399"/>
    <nd ref="262265639"/>
    <nd ref="178184007"/>
    <tag k="highway" v="residential"/>
    <tag k="maxspeed" v="50"/>
    <tag k="name" v="Graduate Street"/>
  </way>
  <way id="24222154" version="4" timestamp="2010-02-15T12:14:57Z" uid="74617" user="JohnSmith" changeset="3882541">
    <nd ref="262265682"/>
    <nd ref="262265683"/>
    <nd ref="416774125"/>
    <nd ref="262265684"/>
    <nd ref="262265685"/>
    <nd ref="262265686"/>
    <nd ref="262265644"/>
    <nd ref="262265681"/>
    <nd ref="262265680"/>
    <nd ref="262265679"/>
    <nd ref="262265678"/>
    <nd ref="262265677"/>
    <nd ref="262265676"/>
    <nd ref="262265675"/>
    <nd ref="262265674"/>
    <nd ref="499959846"/>
    <tag k="highway" v="residential"/>
    <tag k="maxspeed" v="50"/>
    <tag k="name" v="Catamaran Street"/>
  </way>
  <way id="24222159" version="3" timestamp="2010-02-15T12:14:59Z" uid="74617" user="JohnSmith" changeset="3882541">
    <nd ref="262265713"/>
    <nd ref="262265714"/>
    <nd ref="262265682"/>
    <tag k="highway" v="residential"/>
    <tag k="maxspeed" v="50"/>
    <tag k="name" v="Denise Street"/>
  </way>
  <way id="24222160" version="9" timestamp="2010-02-15T12:13:41Z" uid="74617" user="JohnSmith" changeset="3882541">
    <nd ref="262265717"/>
    <nd ref="561187849"/>
    <nd ref="371577680"/>
    <nd ref="371577683"/>
    <nd ref="371577687"/>
    <nd ref="561187853"/>
    <nd ref="262265718"/>
    <nd ref="262265804"/>
    <nd ref="262265719"/>
    <nd ref="561188077"/>
    <nd ref="262265720"/>
    <tag k="highway" v="residential"/>
    <tag k="maxspeed" v="50"/>
    <tag k="name" v="Merlina Street"/>
  </way>
  <way id="24222161" version="6" timestamp="2010-02-15T12:15:57Z" uid="74617" user="JohnSmith" changeset="3882541">
    <nd ref="371580133"/>
    <nd ref="371581471"/>
    <nd ref="371581475"/>
    <nd ref="371581477"/>
    <nd ref="371581788"/>
    <tag k="highway" v="residential"/>
    <tag k="maxspeed" v="50"/>
    <tag k="name" v="Attey Street"/>
  </way>
  <way id="24222163" version="5" timestamp="2010-02-15T12:15:59Z" uid="74617" user="JohnSmith" changeset="3882541">
    <nd ref="371583895"/>
    <nd ref="508137472"/>
    <tag k="highway" v="residential"/>
    <tag k="maxspeed" v="50"/>
    <tag k="name" v="Selcroft Street"/>
  </way>
  <way id="24222166" version="4" timestamp="2010-02-15T12:15:58Z" uid="74617" user="JohnSmith" changeset="3882541">
    <nd ref="262265734"/>
    <nd ref="508137472"/>
    <nd ref="262265735"/>
    <tag k="highway" v="residential"/>
    <tag k="maxspeed" v="50"/>
    <tag k="name" v="Rosedene Street"/>
  </way>
  <way id="24222168" version="8" timestamp="2010-02-15T12:16:00Z" uid="74617" user="JohnSmith" changeset="3882541">
    <nd ref="371581619"/>
    <nd ref="371581786"/>
    <tag k="highway" v="residential"/>
    <tag k="maxspeed" v="50"/>
    <tag k="name" v="Lenora Street"/>
  </way>
  <way id="24222170" version="8" timestamp="2010-02-15T12:16:00Z" uid="74617" user="JohnSmith" changeset="3882541">
    <nd ref="262265720"/>
    <nd ref="561188076"/>
    <nd ref="371581619"/>
    <nd ref="371581477"/>
    <tag k="highway" v="residential"/>
    <tag k="maxspeed" v="50"/>
    <tag k="name" v="Sunstone Street"/>
  </way>
  <way id="24222173" version="3" timestamp="2010-02-15T12:16:00Z" uid="74617" user="JohnSmith" changeset="3882541">
    <nd ref="262265778"/>
    <nd ref="262265719"/>
    <tag k="highway" v="residential"/>
    <tag k="maxspeed" v="50"/>
    <tag k="name" v="Lyrian Street"/>
  </way>
  <way id="24222175" version="3" timestamp="2010-02-15T12:15:59Z" uid="74617" user="JohnSmith" changeset="3882541">
    <nd ref="262265803"/>
    <nd ref="262265804"/>
    <tag k="highway" v="residential"/>
    <tag k="maxspeed" v="50"/>
    <tag k="name" v="Lorelei Street"/>
  </way>
  <way id="24222181" version="16" timestamp="2009-07-22T16:20:49Z" uid="74617" user="JohnSmith" changeset="1906563">
    <nd ref="264196864"/>
    <nd ref="262265807"/>
    <nd ref="262265806"/>
    <nd ref="262265800"/>
    <nd ref="362328094"/>
    <nd ref="262265797"/>
    <nd ref="262265855"/>
    <nd ref="262265795"/>
    <nd ref="361099366"/>
    <nd ref="362328156"/>
    <nd ref="361100092"/>
    <tag k="highway" v="tertiary"/>
    <tag k="name" v="Lake Albert Road"/>
  </way>
  <way id="24222181" version="18" timestamp="2010-07-24T18:40:55Z" uid="74617" user="JohnSmith" changeset="5306152">
    <nd ref="264196864"/>
    <nd ref="262265807"/>
    <nd ref="831704090"/>
    <nd ref="262265806"/>
    <nd ref="831704095"/>
    <nd ref="831704049"/>
    <nd ref="262265800"/>
    <nd ref="831704064"/>
    <nd ref="831704041"/>
    <nd ref="362328094"/>
    <nd ref="262265797"/>
    <nd ref="262265855"/>
    <nd ref="361099366"/>
    <nd ref="362328156"/>
    <nd ref="361100092"/>
    <tag k="highway" v="tertiary"/>
    <tag k="name" v="Lake Albert Road"/>
  </way>
  <way id="24222181" version="19" timestamp="2010-07-24T18:56:01Z" uid="74617" user="JohnSmith" changeset="5306255">
    <nd ref="264196864"/>
    <nd ref="831714738"/>
    <nd ref="262265807"/>
    <nd ref="831714733"/>
    <nd ref="831704090"/>
    <nd ref="262265806"/>
    <nd ref="831704095"/>
    <nd ref="831704049"/>
    <nd ref="262265800"/>
    <nd ref="831704064"/>
    <nd ref="831704041"/>
    <nd ref="362328094"/>
    <nd ref="262265797"/>
    <nd ref="262265855"/>
    <nd ref="361099366"/>
    <nd ref="362328156"/>
    <nd ref="361100092"/>
    <tag k="highway" v="tertiary"/>
    <tag k="name" v="Lake Albert Road"/>
  </way>
  <way id="24222183" version="7" timestamp="2009-07-22T16:21:09Z" uid="74617" user="JohnSmith" changeset="1906563">
    <nd ref="262265800"/>
    <nd ref="362328039"/>
    <nd ref="362328366"/>
    <nd ref="262265814"/>
    <nd ref="362328007"/>
    <nd ref="262265816"/>
    <nd ref="262265817"/>
    <nd ref="262265818"/>
    <nd ref="262265822"/>
    <nd ref="362328195"/>
    <nd ref="262265843"/>
    <nd ref="262265829"/>
    <nd ref="264196859"/>
    <nd ref="262265830"/>
    <nd ref="362328343"/>
    <nd ref="362328228"/>
    <nd ref="262265831"/>
    <tag k="highway" v="residential"/>
    <tag k="name" v="Eastlake Drive"/>
  </way>
  <way id="24222183" version="9" timestamp="2010-07-07T08:05:47Z" uid="74617" user="JohnSmith" changeset="5156250">
    <nd ref="262265800"/>
    <nd ref="362328039"/>
    <nd ref="362328366"/>
    <nd ref="262265814"/>
    <nd ref="362328007"/>
    <nd ref="262265816"/>
    <nd ref="262265817"/>
    <nd ref="262265818"/>
    <nd ref="262265822"/>
    <nd ref="362328195"/>
    <nd ref="458831504"/>
    <nd ref="262265843"/>
    <nd ref="262265829"/>
    <nd ref="264196859"/>
    <nd ref="262265830"/>
    <nd ref="362328343"/>
    <nd ref="362328228"/>
    <nd ref="262265831"/>
    <tag k="highway" v="residential"/>
    <tag k="maxspeed" v="50"/>
    <tag k="maxspeed:source" v="default residential speed limit in Australia"/>
    <tag k="name" v="Eastlake Drive"/>
  </way>
  <way id="24222183" version="10" timestamp="2010-07-24T18:40:54Z" uid="74617" user="JohnSmith" changeset="5306152">
    <nd ref="262265800"/>
    <nd ref="362328039"/>
    <nd ref="362328366"/>
    <nd ref="831704092"/>
    <nd ref="262265814"/>
    <nd ref="362328007"/>
    <nd ref="262265816"/>
    <nd ref="831704104"/>
    <nd ref="262265817"/>
    <nd ref="831704094"/>
    <nd ref="262265818"/>
    <nd ref="262265822"/>
    <nd ref="362328195"/>
    <nd ref="458831504"/>
    <nd ref="831704084"/>
    <nd ref="262265843"/>
    <nd ref="262265829"/>
    <nd ref="831704047"/>
    <nd ref="264196859"/>
    <nd ref="262265830"/>
    <nd ref="362328343"/>
    <nd ref="362328228"/>
    <nd ref="262265831"/>
    <tag k="highway" v="residential"/>
    <tag k="maxspeed" v="50"/>
    <tag k="maxspeed:source" v="default residential speed limit in Australia"/>
    <tag k="name" v="Eastlake Drive"/>
  </way>
  <way id="24222184" version="4" timestamp="2009-07-22T16:21:48Z" uid="74617" user="JohnSmith" changeset="1906563">
    <nd ref="262265843"/>
    <nd ref="262265844"/>
    <tag k="highway" v="residential"/>
    <tag k="name" v="Ontario Drive"/>
  </way>
  <way id="24222184" version="5" timestamp="2010-07-07T08:07:56Z" uid="74617" user="JohnSmith" changeset="5156250">
    <nd ref="262265843"/>
    <nd ref="262265844"/>
    <tag k="highway" v="residential"/>
    <tag k="maxspeed" v="50"/>
    <tag k="maxspeed:source" v="default residential speed limit in Australia"/>
    <tag k="name" v="Ontario Drive"/>
  </way>
  <way id="24222184" version="6" timestamp="2010-07-24T18:40:54Z" uid="74617" user="JohnSmith" changeset="5306152">
    <nd ref="262265843"/>
    <nd ref="831704038"/>
    <nd ref="831704066"/>
    <nd ref="262265844"/>
    <tag k="highway" v="residential"/>
    <tag k="maxspeed" v="50"/>
    <tag k="maxspeed:source" v="default residential speed limit in Australia"/>
    <tag k="name" v="Ontario Drive"/>
  </way>
  <way id="24222185" version="6" timestamp="2009-07-22T16:21:32Z" uid="74617" user="JohnSmith" changeset="1906563">
    <nd ref="262265855"/>
    <nd ref="362328118"/>
    <nd ref="262265859"/>
    <nd ref="262265863"/>
    <nd ref="262265866"/>
    <nd ref="262265869"/>
    <nd ref="262265870"/>
    <nd ref="262265871"/>
    <nd ref="262265872"/>
    <nd ref="262265874"/>
    <nd ref="262936387"/>
    <nd ref="262265877"/>
    <nd ref="262265878"/>
    <nd ref="262265879"/>
    <nd ref="262265880"/>
    <nd ref="262265881"/>
    <nd ref="262265884"/>
    <tag k="highway" v="residential"/>
    <tag k="name" v="Lakeside Drive"/>
  </way>
  <way id="24222185" version="7" timestamp="2010-07-07T08:05:59Z" uid="74617" user="JohnSmith" changeset="5156250">
    <nd ref="262265855"/>
    <nd ref="362328118"/>
    <nd ref="262265859"/>
    <nd ref="262265863"/>
    <nd ref="262265866"/>
    <nd ref="262265869"/>
    <nd ref="262265870"/>
    <nd ref="262265871"/>
    <nd ref="262265872"/>
    <nd ref="262265874"/>
    <nd ref="262936387"/>
    <nd ref="262265877"/>
    <nd ref="262265878"/>
    <nd ref="262265879"/>
    <nd ref="262265880"/>
    <nd ref="262265881"/>
    <nd ref="262265884"/>
    <tag k="highway" v="residential"/>
    <tag k="maxspeed" v="50"/>
    <tag k="maxspeed:source" v="default residential speed limit in Australia"/>
    <tag k="name" v="Lakeside Drive"/>
  </way>
  <way id="24222185" version="8" timestamp="2010-07-22T11:41:08Z" uid="74617" user="JohnSmith" changeset="5286573">
    <nd ref="262265855"/>
    <nd ref="362328118"/>
    <nd ref="262265859"/>
    <nd ref="262265863"/>
    <nd ref="828667371"/>
    <nd ref="262265866"/>
    <nd ref="828667386"/>
    <nd ref="262265869"/>
    <nd ref="262265870"/>
    <nd ref="828667353"/>
    <nd ref="828667380"/>
    <nd ref="262265871"/>
    <nd ref="828667338"/>
    <nd ref="262265872"/>
    <nd ref="262265874"/>
    <nd ref="262936387"/>
    <nd ref="262265877"/>
    <nd ref="262265878"/>
    <nd ref="828667427"/>
    <nd ref="262265879"/>
    <nd ref="828667337"/>
    <nd ref="828667374"/>
    <nd ref="828667333"/>
    <nd ref="262265880"/>
    <nd ref="828667370"/>
    <nd ref="262265881"/>
    <nd ref="828667391"/>
    <nd ref="828667355"/>
    <nd ref="828667317"/>
    <nd ref="262265884"/>
    <nd ref="828667402"/>
    <nd ref="828667316"/>
    <tag k="highway" v="residential"/>
    <tag k="maxspeed" v="50"/>
    <tag k="maxspeed:source" v="default residential speed limit in Australia"/>
    <tag k="name" v="Lakeside Drive"/>
  </way>
  <way id="24222191" version="6" timestamp="2010-02-15T12:15:57Z" uid="74617" user="JohnSmith" changeset="3882541">
    <nd ref="262266043"/>
    <nd ref="529710003"/>
    <nd ref="508138597"/>
    <nd ref="508138227"/>
    <nd ref="262265841"/>
    <nd ref="262265885"/>
    <nd ref="262265886"/>
    <nd ref="262265887"/>
    <tag k="highway" v="residential"/>
    <tag k="maxspeed" v="50"/>
    <tag k="name" v="Tantani Street"/>
  </way>
  <way id="24222194" version="5" timestamp="2010-02-15T12:15:59Z" uid="74617" user="JohnSmith" changeset="3882541">
    <nd ref="262265947"/>
    <nd ref="371577387"/>
    <nd ref="371577391"/>
    <nd ref="371577394"/>
    <nd ref="371580137"/>
    <tag k="highway" v="residential"/>
    <tag k="maxspeed" v="50"/>
    <tag k="name" v="Coolview Street"/>
  </way>
  <way id="24222196" version="6" timestamp="2010-02-15T12:13:41Z" uid="74617" user="JohnSmith" changeset="3882541">
    <nd ref="371576324"/>
    <nd ref="262265947"/>
    <nd ref="371577680"/>
    <tag k="highway" v="residential"/>
    <tag k="maxspeed" v="50"/>
    <tag k="name" v="Sebastian Street"/>
  </way>
  <way id="24222204" version="5" timestamp="2010-02-15T12:15:57Z" uid="74617" user="JohnSmith" changeset="3882541">
    <nd ref="371579718"/>
    <nd ref="371577391"/>
    <tag k="highway" v="residential"/>
    <tag k="maxspeed" v="50"/>
    <tag k="name" v="Nairana Street"/>
  </way>
  <way id="24222205" version="6" timestamp="2010-02-15T12:15:59Z" uid="74617" user="JohnSmith" changeset="3882541">
    <nd ref="371577394"/>
    <nd ref="371577687"/>
    <tag k="highway" v="residential"/>
    <tag k="maxspeed" v="50"/>
    <tag k="name" v="Marberry Street"/>
  </way>
  <way id="24222209" version="5" timestamp="2010-02-15T12:16:00Z" uid="74617" user="JohnSmith" changeset="3882541">
    <nd ref="371577387"/>
    <nd ref="371577683"/>
    <tag k="highway" v="residential"/>
    <tag k="maxspeed" v="50"/>
    <tag k="name" v="Senga Street"/>
  </way>
  <way id="24222210" version="4" timestamp="2009-07-22T16:21:27Z" uid="74617" user="JohnSmith" changeset="1906563">
    <nd ref="252813469"/>
    <nd ref="252813546"/>
    <nd ref="262266032"/>
    <nd ref="252813544"/>
    <nd ref="252813543"/>
    <nd ref="252813542"/>
    <nd ref="252813540"/>
    <nd ref="252813539"/>
    <nd ref="252813538"/>
    <nd ref="252813537"/>
    <nd ref="252813529"/>
    <nd ref="252813519"/>
    <nd ref="252813518"/>
    <nd ref="252813517"/>
    <nd ref="252813516"/>
    <nd ref="252813515"/>
    <nd ref="252813514"/>
    <nd ref="252813513"/>
    <nd ref="252813512"/>
    <nd ref="252813508"/>
    <nd ref="252813507"/>
    <nd ref="252813504"/>
    <nd ref="252813501"/>
    <nd ref="331158098"/>
    <nd ref="252813480"/>
    <nd ref="252813478"/>
    <nd ref="252813474"/>
    <nd ref="252813472"/>
    <nd ref="252813471"/>
    <nd ref="252813470"/>
    <nd ref="252813469"/>
    <tag k="name" v="Lake Albert"/>
    <tag k="natural" v="water"/>
  </way>
  <way id="24222210" version="5" timestamp="2010-07-25T04:56:33Z" uid="74617" user="JohnSmith" changeset="5308817">
    <nd ref="252813469"/>
    <nd ref="252813546"/>
    <nd ref="262266032"/>
    <nd ref="252813544"/>
    <nd ref="252813543"/>
    <nd ref="252813542"/>
    <nd ref="252813540"/>
    <nd ref="252813539"/>
    <nd ref="252813538"/>
    <nd ref="252813537"/>
    <nd ref="252813529"/>
    <nd ref="252813519"/>
    <nd ref="252813518"/>
    <nd ref="252813517"/>
    <nd ref="252813516"/>
    <nd ref="252813515"/>
    <nd ref="252813514"/>
    <nd ref="252813513"/>
    <nd ref="252813512"/>
    <nd ref="252813508"/>
    <nd ref="252813507"/>
    <nd ref="252813504"/>
    <nd ref="832356130"/>
    <nd ref="832356136"/>
    <nd ref="832356143"/>
    <nd ref="832356131"/>
    <nd ref="252813501"/>
    <nd ref="832356123"/>
    <nd ref="832356133"/>
    <nd ref="832356122"/>
    <nd ref="331158098"/>
    <nd ref="252813480"/>
    <nd ref="252813478"/>
    <nd ref="252813474"/>
    <nd ref="252813472"/>
    <nd ref="252813471"/>
    <nd ref="252813470"/>
    <nd ref="252813469"/>
    <tag k="name" v="Lake Albert"/>
    <tag k="natural" v="water"/>
  </way>
  <way id="24222210" version="6" timestamp="2010-07-25T05:10:27Z" uid="74617" user="JohnSmith" changeset="5308849">
    <nd ref="252813469"/>
    <nd ref="252813546"/>
    <nd ref="262266032"/>
    <nd ref="252813544"/>
    <nd ref="252813543"/>
    <nd ref="252813542"/>
    <nd ref="252813540"/>
    <nd ref="252813539"/>
    <nd ref="252813538"/>
    <nd ref="252813537"/>
    <nd ref="252813529"/>
    <nd ref="252813519"/>
    <nd ref="832357377"/>
    <nd ref="832357372"/>
    <nd ref="832357381"/>
    <nd ref="252813518"/>
    <nd ref="832357379"/>
    <nd ref="832357371"/>
    <nd ref="252813517"/>
    <nd ref="252813516"/>
    <nd ref="832357380"/>
    <nd ref="252813515"/>
    <nd ref="252813514"/>
    <nd ref="252813513"/>
    <nd ref="832357378"/>
    <nd ref="252813512"/>
    <nd ref="252813508"/>
    <nd ref="252813507"/>
    <nd ref="252813504"/>
    <nd ref="832356130"/>
    <nd ref="832356136"/>
    <nd ref="832356143"/>
    <nd ref="832356131"/>
    <nd ref="252813501"/>
    <nd ref="832356123"/>
    <nd ref="832356133"/>
    <nd ref="832356122"/>
    <nd ref="331158098"/>
    <nd ref="252813480"/>
    <nd ref="252813478"/>
    <nd ref="252813474"/>
    <nd ref="252813472"/>
    <nd ref="252813471"/>
    <nd ref="252813470"/>
    <nd ref="252813469"/>
    <tag k="name" v="Lake Albert"/>
    <tag k="natural" v="water"/>
  </way>
  <way id="24222210" version="7" timestamp="2011-01-04T10:39:31Z" uid="30201" user="rrankin" changeset="6859059">
    <nd ref="252813469"/>
    <nd ref="252813546"/>
    <nd ref="262266032"/>
    <nd ref="252813544"/>
    <nd ref="252813543"/>
    <nd ref="252813542"/>
    <nd ref="252813540"/>
    <nd ref="252813539"/>
    <nd ref="252813538"/>
    <nd ref="252813537"/>
    <nd ref="252813529"/>
    <nd ref="252813519"/>
    <nd ref="832357377"/>
    <nd ref="832357372"/>
    <nd ref="832357381"/>
    <nd ref="252813518"/>
    <nd ref="832357379"/>
    <nd ref="832357371"/>
    <nd ref="252813517"/>
    <nd ref="252813516"/>
    <nd ref="832357380"/>
    <nd ref="252813515"/>
    <nd ref="252813514"/>
    <nd ref="252813513"/>
    <nd ref="832357378"/>
    <nd ref="252813512"/>
    <nd ref="252813508"/>
    <nd ref="252813507"/>
    <nd ref="252813504"/>
    <nd ref="1081900598"/>
    <nd ref="1081900574"/>
    <nd ref="1081900650"/>
    <nd ref="1081900503"/>
    <nd ref="1081900661"/>
    <nd ref="1081900477"/>
    <nd ref="1081900557"/>
    <nd ref="832356130"/>
    <nd ref="832356136"/>
    <nd ref="832356143"/>
    <nd ref="1081900628"/>
    <nd ref="832356131"/>
    <nd ref="1081900682"/>
    <nd ref="252813501"/>
    <nd ref="832356123"/>
    <nd ref="832356133"/>
    <nd ref="832356122"/>
    <nd ref="331158098"/>
    <nd ref="252813480"/>
    <nd ref="252813478"/>
    <nd ref="252813474"/>
    <nd ref="252813472"/>
    <nd ref="252813471"/>
    <nd ref="252813470"/>
    <nd ref="252813469"/>
    <tag k="name" v="Lake Albert"/>
    <tag k="natural" v="water"/>
  </way>
  <way id="24222212" version="7" timestamp="2010-02-15T12:15:58Z" uid="74617" user="JohnSmith" changeset="3882541">
    <nd ref="262265994"/>
    <nd ref="371577813"/>
    <nd ref="371578869"/>
    <nd ref="508138227"/>
    <tag k="highway" v="residential"/>
    <tag k="maxspeed" v="50"/>
    <tag k="name" v="Tarooko Street"/>
  </way>
  <way id="24222223" version="8" timestamp="2010-02-15T12:13:43Z" uid="74617" user="JohnSmith" changeset="3882541">
    <nd ref="262266043"/>
    <nd ref="262266044"/>
    <nd ref="262266045"/>
    <nd ref="262266046"/>
    <nd ref="561187838"/>
    <nd ref="262266047"/>
    <nd ref="262266038"/>
    <tag k="highway" v="residential"/>
    <tag k="maxspeed" v="50"/>
    <tag k="name" v="Talwong Street"/>
  </way>
  <way id="24222250" version="4" timestamp="2010-02-15T12:14:58Z" uid="74617" user="JohnSmith" changeset="3882541">
    <nd ref="262266219"/>
    <nd ref="529709982"/>
    <nd ref="262265675"/>
    <tag k="highway" v="residential"/>
    <tag k="maxspeed" v="50"/>
    <tag k="name" v="Mizzen Street"/>
  </way>
  <way id="24222251" version="6" timestamp="2010-02-15T12:14:59Z" uid="74617" user="JohnSmith" changeset="3882541">
    <nd ref="262266220"/>
    <nd ref="508218293"/>
    <nd ref="262265678"/>
    <tag k="highway" v="residential"/>
    <tag k="maxspeed" v="50"/>
    <tag k="name" v="Mariner Street"/>
  </way>
  <way id="24222252" version="4" timestamp="2010-02-15T12:14:59Z" uid="74617" user="JohnSmith" changeset="3882541">
    <nd ref="262266222"/>
    <nd ref="262266223"/>
    <nd ref="262266224"/>
    <nd ref="262266225"/>
    <nd ref="262266226"/>
    <nd ref="508218293"/>
    <tag k="highway" v="residential"/>
    <tag k="maxspeed" v="50"/>
    <tag k="name" v="Sloop Street"/>
  </way>
  <way id="24222254" version="4" timestamp="2010-02-15T12:14:59Z" uid="74617" user="JohnSmith" changeset="3882541">
    <nd ref="262265638"/>
    <nd ref="262266242"/>
    <nd ref="262266243"/>
    <tag k="highway" v="residential"/>
    <tag k="maxspeed" v="50"/>
    <tag k="name" v="Meltemi Street"/>
  </way>
  <way id="24222259" version="3" timestamp="2010-02-15T12:14:57Z" uid="74617" user="JohnSmith" changeset="3882541">
    <nd ref="262266266"/>
    <nd ref="262266267"/>
    <nd ref="262266268"/>
    <tag k="highway" v="residential"/>
    <tag k="maxspeed" v="50"/>
    <tag k="name" v="Calloway Place"/>
  </way>
  <way id="24222265" version="4" timestamp="2010-02-15T12:15:00Z" uid="74617" user="JohnSmith" changeset="3882541">
    <nd ref="262266293"/>
    <nd ref="262268633"/>
    <tag k="highway" v="residential"/>
    <tag k="maxspeed" v="50"/>
    <tag k="name" v="Teraglin Street"/>
  </way>
  <way id="24222271" version="3" timestamp="2010-02-15T12:15:02Z" uid="74617" user="JohnSmith" changeset="3882541">
    <nd ref="262266413"/>
    <nd ref="262266304"/>
    <tag k="highway" v="residential"/>
    <tag k="maxspeed" v="50"/>
    <tag k="name" v="Moray Close"/>
  </way>
  <way id="24222273" version="3" timestamp="2010-02-15T12:15:01Z" uid="74617" user="JohnSmith" changeset="3882541">
    <nd ref="262266414"/>
    <nd ref="262266415"/>
    <nd ref="262266301"/>
    <tag k="highway" v="residential"/>
    <tag k="maxspeed" v="50"/>
    <tag k="name" v="Coral Close"/>
  </way>
  <way id="24222304" version="15" timestamp="2011-03-24T14:51:32Z" uid="4467" user="Rosscoe" changeset="7656534">
    <nd ref="97775854"/>
    <nd ref="262266768"/>
    <nd ref="262266767"/>
    <nd ref="262266766"/>
    <nd ref="262266765"/>
    <nd ref="262266764"/>
    <nd ref="262266763"/>
    <nd ref="262266762"/>
    <nd ref="1215973737"/>
    <nd ref="262266761"/>
    <nd ref="1215973772"/>
    <nd ref="262267154"/>
    <nd ref="262266760"/>
    <nd ref="508240749"/>
    <nd ref="262266758"/>
    <nd ref="262266757"/>
    <nd ref="262266756"/>
    <nd ref="262266755"/>
    <nd ref="630280196"/>
    <nd ref="262266754"/>
    <nd ref="630280233"/>
    <nd ref="630280230"/>
    <tag k="highway" v="tertiary"/>
    <tag k="name" v="Randall Road"/>
    <tag k="oneway" v="yes"/>
  </way>
  <way id="24222351" version="4" timestamp="2010-02-15T12:15:50Z" uid="74617" user="JohnSmith" changeset="3882541">
    <nd ref="262267070"/>
    <nd ref="262267071"/>
    <nd ref="262267072"/>
    <nd ref="262267073"/>
    <nd ref="262267074"/>
    <nd ref="262267075"/>
    <nd ref="262267076"/>
    <nd ref="262267077"/>
    <nd ref="262267078"/>
    <nd ref="262267079"/>
    <nd ref="262267080"/>
    <nd ref="262266768"/>
    <nd ref="262266788"/>
    <tag k="highway" v="residential"/>
    <tag k="maxspeed" v="50"/>
    <tag k="name" v="Network Drive"/>
  </way>
  <way id="24222355" version="10" timestamp="2010-02-15T12:15:54Z" uid="74617" user="JohnSmith" changeset="3882541">
    <nd ref="262266928"/>
    <nd ref="262266929"/>
    <nd ref="530256812"/>
    <nd ref="262266930"/>
    <nd ref="530256815"/>
    <nd ref="262266931"/>
    <nd ref="262266932"/>
    <nd ref="262266933"/>
    <nd ref="530256820"/>
    <nd ref="262266934"/>
    <nd ref="262266935"/>
    <nd ref="262266936"/>
    <nd ref="262266937"/>
    <nd ref="262266938"/>
    <nd ref="262266939"/>
    <nd ref="371593996"/>
    <nd ref="262266940"/>
    <nd ref="262266941"/>
    <nd ref="262266942"/>
    <nd ref="262266943"/>
    <nd ref="262266944"/>
    <nd ref="262266945"/>
    <nd ref="262266946"/>
    <nd ref="508240749"/>
    <nd ref="262266798"/>
    <tag k="highway" v="residential"/>
    <tag k="maxspeed" v="50"/>
    <tag k="name" v="Plaza Street"/>
  </way>
  <way id="24222355" version="11" timestamp="2010-03-21T04:37:25Z" uid="74617" user="JohnSmith" changeset="4187262">
    <nd ref="671140080"/>
    <nd ref="262266928"/>
    <nd ref="262266929"/>
    <nd ref="530256812"/>
    <nd ref="262266930"/>
    <nd ref="530256815"/>
    <nd ref="262266931"/>
    <nd ref="262266932"/>
    <nd ref="262266933"/>
    <nd ref="530256820"/>
    <nd ref="262266934"/>
    <nd ref="262266935"/>
    <nd ref="262266936"/>
    <nd ref="262266937"/>
    <nd ref="262266938"/>
    <nd ref="262266939"/>
    <nd ref="371593996"/>
    <nd ref="262266940"/>
    <nd ref="262266941"/>
    <nd ref="262266942"/>
    <nd ref="262266943"/>
    <nd ref="262266944"/>
    <nd ref="262266945"/>
    <nd ref="262266946"/>
    <nd ref="508240749"/>
    <nd ref="262266798"/>
    <tag k="highway" v="residential"/>
    <tag k="maxspeed" v="50"/>
    <tag k="name" v="Plaza Street"/>
  </way>
  <way id="24222358" version="7" timestamp="2010-02-15T12:15:53Z" uid="74617" user="JohnSmith" changeset="3882541">
    <nd ref="371552291"/>
    <nd ref="262266789"/>
    <nd ref="262266767"/>
    <tag k="highway" v="residential"/>
    <tag k="maxspeed" v="50"/>
    <tag k="name" v="Iffley Street"/>
  </way>
  <way id="24222376" version="6" timestamp="2010-02-15T12:15:47Z" uid="74617" user="JohnSmith" changeset="3882541">
    <nd ref="264438880"/>
    <nd ref="264438754"/>
    <nd ref="262266799"/>
    <nd ref="262266758"/>
    <tag k="highway" v="residential"/>
    <tag k="maxspeed" v="50"/>
    <tag k="name" v="Gateway Street"/>
  </way>
  <way id="24222377" version="7" timestamp="2010-02-15T12:15:47Z" uid="74617" user="JohnSmith" changeset="3882541">
    <nd ref="262267160"/>
    <nd ref="264438844"/>
    <nd ref="264438852"/>
    <nd ref="508242307"/>
    <nd ref="262266801"/>
    <nd ref="262266756"/>
    <tag k="highway" v="residential"/>
    <tag k="maxspeed" v="50"/>
    <tag k="name" v="Duval Street"/>
  </way>
  <way id="24222378" version="6" timestamp="2010-02-15T12:15:44Z" uid="74617" user="JohnSmith" changeset="3882541">
    <nd ref="309334994"/>
    <nd ref="309334995"/>
    <nd ref="309334996"/>
    <nd ref="309334997"/>
    <nd ref="630280164"/>
    <nd ref="309334998"/>
    <nd ref="630280161"/>
    <nd ref="630280159"/>
    <nd ref="309335000"/>
    <nd ref="309335001"/>
    <nd ref="262267161"/>
    <nd ref="630280183"/>
    <nd ref="262266755"/>
    <nd ref="262266803"/>
    <tag k="highway" v="residential"/>
    <tag k="maxspeed" v="50"/>
    <tag k="name" v="Sorrento Street"/>
  </way>
  <way id="24222382" version="6" timestamp="2010-02-15T12:15:44Z" uid="74617" user="JohnSmith" changeset="3882541">
    <nd ref="262267177"/>
    <nd ref="264438901"/>
    <nd ref="264438896"/>
    <nd ref="262267705"/>
    <nd ref="264438880"/>
    <nd ref="264438742"/>
    <nd ref="264438767"/>
    <tag k="highway" v="residential"/>
    <tag k="maxspeed" v="50"/>
    <tag k="name" v="Brockworth Street"/>
  </way>
  <way id="24222393" version="6" timestamp="2010-02-15T12:15:48Z" uid="74617" user="JohnSmith" changeset="3882541">
    <nd ref="264438780"/>
    <nd ref="371597660"/>
    <nd ref="371597359"/>
    <tag k="highway" v="residential"/>
    <tag k="maxspeed" v="50"/>
    <tag k="name" v="Bushing Street"/>
  </way>
  <way id="24222395" version="4" timestamp="2010-02-15T12:16:10Z" uid="74617" user="JohnSmith" changeset="3882541">
    <nd ref="262267345"/>
    <nd ref="264438901"/>
    <tag k="highway" v="residential"/>
    <tag k="maxspeed" v="50"/>
    <tag k="name" v="Donbeth Street"/>
  </way>
  <way id="24222397" version="4" timestamp="2010-02-15T12:16:02Z" uid="74617" user="JohnSmith" changeset="3882541">
    <nd ref="262267434"/>
    <nd ref="264438896"/>
    <tag k="highway" v="residential"/>
    <tag k="maxspeed" v="50"/>
    <tag k="name" v="Edwin Street"/>
  </way>
  <way id="24222399" version="8" timestamp="2010-02-15T12:15:47Z" uid="74617" user="JohnSmith" changeset="3882541">
    <nd ref="262267595"/>
    <nd ref="264438797"/>
    <nd ref="264438788"/>
    <nd ref="264438767"/>
    <nd ref="264438780"/>
    <nd ref="529787460"/>
    <tag k="highway" v="residential"/>
    <tag k="maxspeed" v="50"/>
    <tag k="name" v="Jayben Street"/>
  </way>
  <way id="24222400" version="8" timestamp="2010-02-15T12:16:01Z" uid="74617" user="JohnSmith" changeset="3882541">
    <nd ref="371597660"/>
    <nd ref="529787176"/>
    <tag k="highway" v="residential"/>
    <tag k="maxspeed" v="50"/>
    <tag k="name" v="Drysdale St"/>
  </way>
  <way id="24222400" version="9" timestamp="2010-06-01T14:14:56Z" uid="4467" user="Rosscoe" changeset="4874893">
    <nd ref="371597660"/>
    <nd ref="529787176"/>
    <tag k="highway" v="residential"/>
    <tag k="maxspeed" v="50"/>
    <tag k="name" v="Drysdale Street"/>
  </way>
  <way id="24222402" version="5" timestamp="2010-02-15T12:15:56Z" uid="74617" user="JohnSmith" changeset="3882541">
    <nd ref="262267616"/>
    <nd ref="371597932"/>
    <tag k="highway" v="residential"/>
    <tag k="maxspeed" v="50"/>
    <tag k="name" v="Duncroft St"/>
  </way>
  <way id="24222402" version="6" timestamp="2010-06-01T14:15:09Z" uid="4467" user="Rosscoe" changeset="4874893">
    <nd ref="262267616"/>
    <nd ref="371597932"/>
    <tag k="highway" v="residential"/>
    <tag k="maxspeed" v="50"/>
    <tag k="name" v="Duncroft Street"/>
  </way>
  <way id="24222405" version="1" timestamp="2008-05-05T06:38:24Z" uid="30201" user="rrankin" changeset="340106">
    <nd ref="257676971"/>
    <nd ref="262267601"/>
    <nd ref="262267602"/>
    <nd ref="262267608"/>
    <nd ref="262267604"/>
    <nd ref="262267605"/>
    <nd ref="262267606"/>
    <tag k="created_by" v="JOSM"/>
    <tag k="highway" v="residential"/>
  </way>
  <way id="24222405" version="2" timestamp="2008-05-08T00:33:41Z" uid="30201" user="rrankin" changeset="361247">
    <nd ref="257676971"/>
    <nd ref="262267601"/>
    <nd ref="262267602"/>
    <nd ref="262267608"/>
    <nd ref="262267604"/>
    <nd ref="262267605"/>
    <nd ref="262267606"/>
    <tag k="created_by" v="Potlatch 0.8c"/>
    <tag k="highway" v="residential"/>
    <tag k="name" v="Tweed Court"/>
  </way>
  <way id="24222405" version="3" timestamp="2010-07-04T08:44:56Z" uid="7617" user="Franc" changeset="5130720">
    <nd ref="257676971"/>
    <nd ref="262267601"/>
    <nd ref="262267602"/>
    <nd ref="262267608"/>
    <nd ref="262267604"/>
    <nd ref="262267605"/>
    <tag k="highway" v="residential"/>
    <tag k="name" v="Tweed Court"/>
  </way>
  <way id="24222405" version="4" timestamp="2010-07-08T01:54:34Z" uid="74617" user="JohnSmith" changeset="5162525">
    <nd ref="257676971"/>
    <nd ref="262267601"/>
    <nd ref="262267602"/>
    <nd ref="262267608"/>
    <nd ref="262267604"/>
    <nd ref="262267605"/>
    <tag k="highway" v="residential"/>
    <tag k="maxspeed" v="50"/>
    <tag k="maxspeed:source" v="default residential speed limit in Australia"/>
    <tag k="name" v="Tweed Court"/>
  </way>
  <way id="24222406" version="1" timestamp="2008-05-05T06:38:25Z" uid="30201" user="rrankin" changeset="340106">
    <nd ref="262267605"/>
    <nd ref="262267607"/>
    <tag k="created_by" v="JOSM"/>
    <tag k="highway" v="residential"/>
  </way>
  <way id="24222406" version="2" timestamp="2008-05-08T00:33:45Z" uid="30201" user="rrankin" changeset="361247">
    <nd ref="262267605"/>
    <nd ref="262267607"/>
    <tag k="created_by" v="Potlatch 0.8c"/>
    <tag k="highway" v="residential"/>
    <tag k="name" v="Tweed Court"/>
  </way>
  <way id="24222406" version="3" timestamp="2010-07-04T08:44:57Z" uid="7617" user="Franc" changeset="5130720">
    <nd ref="262267607"/>
    <nd ref="262267605"/>
    <nd ref="262267606"/>
    <tag k="highway" v="residential"/>
    <tag k="name" v="Tweed Court"/>
  </way>
  <way id="24222406" version="4" timestamp="2010-07-08T01:58:16Z" uid="74617" user="JohnSmith" changeset="5162525">
    <nd ref="262267607"/>
    <nd ref="262267605"/>
    <nd ref="262267606"/>
    <tag k="highway" v="residential"/>
    <tag k="maxspeed" v="50"/>
    <tag k="maxspeed:source" v="default residential speed limit in Australia"/>
    <tag k="name" v="Tweed Court"/>
  </way>
  <way id="24222407" version="1" timestamp="2008-05-05T06:38:25Z" uid="30201" user="rrankin" changeset="340106">
    <nd ref="262267608"/>
    <nd ref="262267609"/>
    <nd ref="262267610"/>
    <nd ref="262267611"/>
    <tag k="created_by" v="JOSM"/>
    <tag k="highway" v="residential"/>
  </way>
  <way id="24222407" version="2" timestamp="2008-05-08T00:35:28Z" uid="30201" user="rrankin" changeset="361247">
    <nd ref="262267608"/>
    <nd ref="262267609"/>
    <nd ref="262267610"/>
    <nd ref="262267611"/>
    <tag k="created_by" v="Potlatch 0.8c"/>
    <tag k="highway" v="residential"/>
    <tag k="name" v="Sandover Court"/>
  </way>
  <way id="24222407" version="3" timestamp="2010-07-08T02:00:49Z" uid="74617" user="JohnSmith" changeset="5162525">
    <nd ref="262267608"/>
    <nd ref="262267609"/>
    <nd ref="262267610"/>
    <nd ref="262267611"/>
    <tag k="highway" v="residential"/>
    <tag k="maxspeed" v="50"/>
    <tag k="maxspeed:source" v="default residential speed limit in Australia"/>
    <tag k="name" v="Sandover Court"/>
  </way>
  <way id="24222408" version="1" timestamp="2008-05-05T06:38:26Z" uid="30201" user="rrankin" changeset="340106">
    <nd ref="262267612"/>
    <nd ref="262267613"/>
    <nd ref="262267614"/>
    <nd ref="262267617"/>
    <nd ref="262267618"/>
    <nd ref="262267619"/>
    <nd ref="262267620"/>
    <nd ref="262267621"/>
    <tag k="created_by" v="JOSM"/>
    <tag k="highway" v="residential"/>
  </way>
  <way id="24222408" version="2" timestamp="2008-05-08T00:31:22Z" uid="30201" user="rrankin" changeset="361247">
    <nd ref="262267612"/>
    <nd ref="262267613"/>
    <nd ref="262267614"/>
    <nd ref="262267617"/>
    <nd ref="262267618"/>
    <nd ref="262267619"/>
    <nd ref="262267620"/>
    <nd ref="262267621"/>
    <tag k="created_by" v="Potlatch 0.8c"/>
    <tag k="highway" v="residential"/>
    <tag k="name" v="Burdekin Court"/>
  </way>
  <way id="24222408" version="3" timestamp="2010-07-04T08:44:54Z" uid="7617" user="Franc" changeset="5130720">
    <nd ref="262267612"/>
    <nd ref="262267613"/>
    <nd ref="800123267"/>
    <nd ref="262267614"/>
    <nd ref="262267617"/>
    <nd ref="262267618"/>
    <nd ref="262267619"/>
    <nd ref="262267620"/>
    <nd ref="800123361"/>
    <nd ref="262267621"/>
    <tag k="highway" v="residential"/>
    <tag k="name" v="Burdekin Court"/>
  </way>
  <way id="24222408" version="4" timestamp="2010-07-08T02:01:27Z" uid="74617" user="JohnSmith" changeset="5162525">
    <nd ref="262267612"/>
    <nd ref="262267613"/>
    <nd ref="800123267"/>
    <nd ref="262267614"/>
    <nd ref="262267617"/>
    <nd ref="262267618"/>
    <nd ref="262267619"/>
    <nd ref="262267620"/>
    <nd ref="800123361"/>
    <nd ref="262267621"/>
    <tag k="highway" v="residential"/>
    <tag k="maxspeed" v="50"/>
    <tag k="maxspeed:source" v="default residential speed limit in Australia"/>
    <tag k="name" v="Burdekin Court"/>
  </way>
  <way id="24222409" version="1" timestamp="2008-05-05T06:38:27Z" uid="30201" user="rrankin" changeset="340106">
    <nd ref="262267622"/>
    <nd ref="262267623"/>
    <nd ref="262267624"/>
    <nd ref="257676678"/>
    <nd ref="257676566"/>
    <nd ref="262267625"/>
    <nd ref="262267627"/>
    <nd ref="262267626"/>
    <tag k="created_by" v="JOSM"/>
    <tag k="highway" v="residential"/>
  </way>
  <way id="24222409" version="2" timestamp="2008-05-06T23:46:27Z" uid="30201" user="rrankin" changeset="352779">
    <nd ref="262267622"/>
    <nd ref="262267623"/>
    <nd ref="262267624"/>
    <nd ref="257676678"/>
    <nd ref="257676566"/>
    <nd ref="262267625"/>
    <nd ref="262267627"/>
    <nd ref="262267626"/>
    <tag k="created_by" v="Potlatch 0.8c"/>
    <tag k="highway" v="residential"/>
    <tag k="name" v="Birdwood Avenue"/>
  </way>
  <way id="24222409" version="3" timestamp="2008-05-09T02:14:17Z" uid="30201" user="rrankin" changeset="369654">
    <nd ref="262267622"/>
    <nd ref="262267623"/>
    <nd ref="262267624"/>
    <nd ref="257676678"/>
    <nd ref="257676566"/>
    <nd ref="262267625"/>
    <nd ref="262267627"/>
    <nd ref="262906824"/>
    <nd ref="262267626"/>
    <tag k="created_by" v="Potlatch 0.8c"/>
    <tag k="highway" v="residential"/>
    <tag k="name" v="Birdwood Avenue"/>
  </way>
  <way id="24222409" version="4" timestamp="2010-07-04T08:44:54Z" uid="7617" user="Franc" changeset="5130720">
    <nd ref="262267622"/>
    <nd ref="262267623"/>
    <nd ref="800123246"/>
    <nd ref="262267624"/>
    <nd ref="257676678"/>
    <nd ref="257676566"/>
    <nd ref="262267625"/>
    <nd ref="262267627"/>
    <nd ref="262906824"/>
    <nd ref="262267626"/>
    <tag k="highway" v="residential"/>
    <tag k="name" v="Birdwood Avenue"/>
  </way>
  <way id="24222409" version="5" timestamp="2010-07-08T01:52:58Z" uid="74617" user="JohnSmith" changeset="5162525">
    <nd ref="262267622"/>
    <nd ref="262267623"/>
    <nd ref="800123246"/>
    <nd ref="262267624"/>
    <nd ref="257676678"/>
    <nd ref="257676566"/>
    <nd ref="262267625"/>
    <nd ref="262267627"/>
    <nd ref="262906824"/>
    <nd ref="262267626"/>
    <tag k="highway" v="residential"/>
    <tag k="maxspeed" v="50"/>
    <tag k="maxspeed:source" v="default residential speed limit in Australia"/>
    <tag k="name" v="Birdwood Avenue"/>
  </way>
  <way id="24222410" version="1" timestamp="2008-05-05T06:38:28Z" uid="30201" user="rrankin" changeset="340106">
    <nd ref="262267627"/>
    <nd ref="262267628"/>
    <nd ref="262267629"/>
    <nd ref="257676560"/>
    <tag k="created_by" v="JOSM"/>
    <tag k="highway" v="residential"/>
  </way>
  <way id="24222410" version="2" timestamp="2008-05-09T02:14:18Z" uid="30201" user="rrankin" changeset="369654">
    <nd ref="262267627"/>
    <nd ref="262267628"/>
    <nd ref="262267629"/>
    <nd ref="257676560"/>
    <tag k="created_by" v="JOSM"/>
    <tag k="highway" v="residential"/>
    <tag k="name" v="Monash Avenue"/>
  </way>
  <way id="24222410" version="3" timestamp="2010-07-04T08:44:59Z" uid="7617" user="Franc" changeset="5130720">
    <nd ref="262267627"/>
    <nd ref="262267628"/>
    <nd ref="262267629"/>
    <nd ref="800123372"/>
    <nd ref="257676560"/>
    <tag k="highway" v="residential"/>
    <tag k="name" v="Monash Avenue"/>
  </way>
  <way id="24222410" version="4" timestamp="2010-07-08T01:56:51Z" uid="74617" user="JohnSmith" changeset="5162525">
    <nd ref="262267627"/>
    <nd ref="262267628"/>
    <nd ref="262267629"/>
    <nd ref="800123372"/>
    <nd ref="257676560"/>
    <tag k="highway" v="residential"/>
    <tag k="maxspeed" v="50"/>
    <tag k="maxspeed:source" v="default residential speed limit in Australia"/>
    <tag k="name" v="Monash Avenue"/>
  </way>
  <way id="24222411" version="1" timestamp="2008-05-05T06:38:28Z" uid="30201" user="rrankin" changeset="340106">
    <nd ref="262267625"/>
    <nd ref="262267630"/>
    <tag k="created_by" v="JOSM"/>
    <tag k="highway" v="residential"/>
  </way>
  <way id="24222411" version="2" timestamp="2008-05-06T23:45:30Z" uid="30201" user="rrankin" changeset="352779">
    <nd ref="262267625"/>
    <nd ref="262267630"/>
    <tag k="created_by" v="Potlatch 0.8c"/>
    <tag k="highway" v="residential"/>
    <tag k="name" v="Glasgow Street"/>
  </way>
  <way id="24222411" version="3" timestamp="2010-07-08T01:58:51Z" uid="74617" user="JohnSmith" changeset="5162525">
    <nd ref="262267625"/>
    <nd ref="262267630"/>
    <tag k="highway" v="residential"/>
    <tag k="maxspeed" v="50"/>
    <tag k="maxspeed:source" v="default residential speed limit in Australia"/>
    <tag k="name" v="Glasgow Street"/>
  </way>
  <way id="24222412" version="1" timestamp="2008-05-05T06:38:29Z" uid="30201" user="rrankin" changeset="340106">
    <nd ref="262267631"/>
    <nd ref="262267632"/>
    <nd ref="262267635"/>
    <nd ref="262267630"/>
    <nd ref="262267636"/>
    <nd ref="262267637"/>
    <nd ref="262267638"/>
    <nd ref="262267639"/>
    <nd ref="262267640"/>
    <tag k="created_by" v="JOSM"/>
    <tag k="highway" v="residential"/>
  </way>
  <way id="24222412" version="2" timestamp="2008-05-06T23:44:09Z" uid="30201" user="rrankin" changeset="352779">
    <nd ref="262267631"/>
    <nd ref="262267632"/>
    <nd ref="262267635"/>
    <nd ref="262267630"/>
    <nd ref="262267636"/>
    <nd ref="262267637"/>
    <nd ref="262267638"/>
    <nd ref="262267639"/>
    <nd ref="262267640"/>
    <tag k="created_by" v="Potlatch 0.8c"/>
    <tag k="highway" v="residential"/>
    <tag k="name" v="Anzac Mews"/>
  </way>
  <way id="24222412" version="3" timestamp="2010-07-04T08:44:54Z" uid="7617" user="Franc" changeset="5130720">
    <nd ref="262267631"/>
    <nd ref="800123327"/>
    <nd ref="262267632"/>
    <nd ref="262267635"/>
    <nd ref="262267630"/>
    <nd ref="262267636"/>
    <nd ref="800123326"/>
    <nd ref="262267637"/>
    <nd ref="262267638"/>
    <nd ref="262267639"/>
    <nd ref="262267640"/>
    <tag k="highway" v="residential"/>
    <tag k="name" v="Anzac Mews"/>
  </way>
  <way id="24222412" version="4" timestamp="2010-07-08T01:59:38Z" uid="74617" user="JohnSmith" changeset="5162525">
    <nd ref="262267631"/>
    <nd ref="800123327"/>
    <nd ref="262267632"/>
    <nd ref="262267635"/>
    <nd ref="262267630"/>
    <nd ref="262267636"/>
    <nd ref="800123326"/>
    <nd ref="262267637"/>
    <nd ref="262267638"/>
    <nd ref="262267639"/>
    <nd ref="262267640"/>
    <tag k="highway" v="residential"/>
    <tag k="maxspeed" v="50"/>
    <tag k="maxspeed:source" v="default residential speed limit in Australia"/>
    <tag k="name" v="Anzac Mews"/>
  </way>
  <way id="24222417" version="5" timestamp="2010-02-15T12:15:47Z" uid="74617" user="JohnSmith" changeset="3882541">
    <nd ref="264438742"/>
    <nd ref="264438724"/>
    <nd ref="264438740"/>
    <tag k="highway" v="residential"/>
    <tag k="maxspeed" v="50"/>
    <tag k="name" v="Rosier Street"/>
  </way>
  <way id="24222418" version="4" timestamp="2010-02-15T12:15:47Z" uid="74617" user="JohnSmith" changeset="3882541">
    <nd ref="262267659"/>
    <nd ref="264438724"/>
    <tag k="highway" v="residential"/>
    <tag k="maxspeed" v="50"/>
    <tag k="name" v="Sandies Place"/>
  </way>
  <way id="24222419" version="4" timestamp="2010-02-15T12:16:01Z" uid="74617" user="JohnSmith" changeset="3882541">
    <nd ref="262267661"/>
    <nd ref="264438797"/>
    <tag k="highway" v="residential"/>
    <tag k="maxspeed" v="50"/>
    <tag k="name" v="Hardwick Street"/>
  </way>
  <way id="24222424" version="4" timestamp="2010-02-15T12:16:06Z" uid="74617" user="JohnSmith" changeset="3882541">
    <nd ref="262267710"/>
    <nd ref="508242701"/>
    <tag k="highway" v="residential"/>
    <tag k="maxspeed" v="50"/>
    <tag k="name" v="Ashlar Court"/>
  </way>
  <way id="24222428" version="5" timestamp="2010-02-15T12:15:44Z" uid="74617" user="JohnSmith" changeset="3882541">
    <nd ref="264438852"/>
    <nd ref="508244722"/>
    <tag k="highway" v="residential"/>
    <tag k="maxspeed" v="50"/>
    <tag k="name" v="Winston Street"/>
  </way>
  <way id="24222432" version="4" timestamp="2010-02-15T12:16:02Z" uid="74617" user="JohnSmith" changeset="3882541">
    <nd ref="262267771"/>
    <nd ref="262267772"/>
    <tag k="highway" v="residential"/>
    <tag k="maxspeed" v="50"/>
    <tag k="name" v="Tal Street"/>
  </way>
  <way id="24222438" version="4" timestamp="2010-02-15T12:16:01Z" uid="74617" user="JohnSmith" changeset="3882541">
    <nd ref="262267705"/>
    <nd ref="262267803"/>
    <nd ref="262267804"/>
    <nd ref="262267805"/>
    <nd ref="262267595"/>
    <tag k="highway" v="residential"/>
    <tag k="maxspeed" v="50"/>
    <tag k="name" v="Hellyer Street"/>
  </way>
  <way id="24222443" version="4" timestamp="2010-02-15T12:16:01Z" uid="74617" user="JohnSmith" changeset="3882541">
    <nd ref="262267824"/>
    <nd ref="262267825"/>
    <nd ref="262267826"/>
    <nd ref="264438788"/>
    <tag k="highway" v="residential"/>
    <tag k="maxspeed" v="50"/>
    <tag k="name" v="Pavlu Street"/>
  </way>
  <way id="24222444" version="6" timestamp="2010-02-15T12:15:56Z" uid="74617" user="JohnSmith" changeset="3882541">
    <nd ref="262267831"/>
    <nd ref="262267832"/>
    <nd ref="262267833"/>
    <nd ref="262266941"/>
    <tag k="highway" v="residential"/>
    <tag k="maxspeed" v="50"/>
    <tag k="name" v="Ringtail Place"/>
  </way>
  <way id="24222454" version="1" timestamp="2008-05-05T06:41:50Z" uid="30201" user="rrankin" changeset="340106">
    <nd ref="262267862"/>
    <nd ref="262267861"/>
    <nd ref="262267859"/>
    <nd ref="262267858"/>
    <nd ref="262267857"/>
    <nd ref="257675075"/>
    <tag k="created_by" v="JOSM"/>
    <tag k="waterway" v="stream"/>
  </way>
  <way id="24222456" version="5" timestamp="2010-02-15T12:15:53Z" uid="74617" user="JohnSmith" changeset="3882541">
    <nd ref="371552767"/>
    <nd ref="371592660"/>
    <tag k="highway" v="residential"/>
    <tag k="maxspeed" v="50"/>
    <tag k="name" v="Dalkerry Street"/>
  </way>
  <way id="24222461" version="9" timestamp="2010-02-15T12:15:50Z" uid="74617" user="JohnSmith" changeset="3882541">
    <nd ref="371592555"/>
    <nd ref="371592660"/>
    <nd ref="371552580"/>
    <nd ref="97776566"/>
    <tag k="highway" v="residential"/>
    <tag k="maxspeed" v="50"/>
    <tag k="name" v="Bonniebrae Street"/>
  </way>
  <way id="24222499" version="7" timestamp="2010-02-15T12:15:00Z" uid="74617" user="JohnSmith" changeset="3882541">
    <nd ref="178184003"/>
    <nd ref="499961464"/>
    <nd ref="508194667"/>
    <nd ref="262268071"/>
    <tag k="highway" v="residential"/>
    <tag k="maxspeed" v="50"/>
    <tag k="name" v="Audell Street"/>
  </way>
  <way id="24222502" version="16" timestamp="2011-04-26T06:50:39Z" uid="20587" user="balrog-kun" changeset="7971427">
    <nd ref="65286270"/>
    <nd ref="667193740"/>
    <nd ref="667193741"/>
    <nd ref="300763143"/>
    <nd ref="262268049"/>
    <tag k="bridge" v="yes"/>
    <tag k="highway" v="motorway_link"/>
    <tag k="layer" v="1"/>
    <tag k="maxspeed" v="25mph"/>
    <tag k="name" v="Fremont Street Offramp"/>
    <tag k="oneway" v="yes"/>
  </way>
  <way id="24222507" version="9" timestamp="2010-02-15T12:15:01Z" uid="74617" user="JohnSmith" changeset="3882541">
    <nd ref="508194667"/>
    <nd ref="262268060"/>
    <nd ref="561187836"/>
    <nd ref="262268061"/>
    <nd ref="561187834"/>
    <nd ref="262268062"/>
    <nd ref="262268063"/>
    <tag k="highway" v="residential"/>
    <tag k="maxspeed" v="50"/>
    <tag k="name" v="Barramay Street"/>
  </way>
  <way id="24222531" version="7" timestamp="2010-02-15T12:15:02Z" uid="74617" user="JohnSmith" changeset="3882541">
    <nd ref="263642434"/>
    <nd ref="178184008"/>
    <tag k="highway" v="residential"/>
    <tag k="maxspeed" v="50"/>
    <tag k="name" v="Mulder Street"/>
  </way>
  <way id="24222531" version="8" timestamp="2010-04-23T08:04:51Z" uid="4467" user="Rosscoe" changeset="4501407">
    <nd ref="704318647"/>
    <nd ref="178184008"/>
    <tag k="highway" v="residential"/>
    <tag k="maxspeed" v="50"/>
    <tag k="name" v="Mulder Street"/>
  </way>
  <way id="24222543" version="4" timestamp="2010-02-15T12:15:02Z" uid="74617" user="JohnSmith" changeset="3882541">
    <nd ref="262268338"/>
    <nd ref="371575778"/>
    <nd ref="262268339"/>
    <tag k="highway" v="residential"/>
    <tag k="maxspeed" v="50"/>
    <tag k="name" v="Lapworth Place"/>
  </way>
  <way id="24222545" version="5" timestamp="2010-02-15T12:15:01Z" uid="74617" user="JohnSmith" changeset="3882541">
    <nd ref="263642434"/>
    <nd ref="262268354"/>
    <nd ref="371575778"/>
    <tag k="highway" v="residential"/>
    <tag k="maxspeed" v="50"/>
    <tag k="name" v="Lapworth Place"/>
  </way>
  <way id="24222545" version="6" timestamp="2010-04-23T08:04:50Z" uid="4467" user="Rosscoe" changeset="4501407">
    <nd ref="262268354"/>
    <nd ref="371575778"/>
    <tag k="highway" v="residential"/>
    <tag k="maxspeed" v="50"/>
    <tag k="name" v="Lapworth Place"/>
  </way>
  <way id="24222547" version="7" timestamp="2010-02-15T12:15:00Z" uid="74617" user="JohnSmith" changeset="3882541">
    <nd ref="499961464"/>
    <nd ref="262268045"/>
    <nd ref="262268046"/>
    <nd ref="561187832"/>
    <nd ref="262268047"/>
    <nd ref="263642408"/>
    <nd ref="262268356"/>
    <nd ref="262268357"/>
    <nd ref="262268358"/>
    <nd ref="262268359"/>
    <nd ref="263642434"/>
    <nd ref="262268361"/>
    <nd ref="262268360"/>
    <tag k="highway" v="residential"/>
    <tag k="maxspeed" v="50"/>
    <tag k="name" v="Robtrish Street"/>
  </way>
  <way id="24222547" version="9" timestamp="2010-04-23T08:04:52Z" uid="4467" user="Rosscoe" changeset="4501407">
    <nd ref="499961464"/>
    <nd ref="696320058"/>
    <nd ref="262268045"/>
    <nd ref="262268046"/>
    <nd ref="561187832"/>
    <nd ref="262268047"/>
    <tag k="highway" v="residential"/>
    <tag k="maxspeed" v="50"/>
    <tag k="name" v="Robtrish Street"/>
  </way>
  <way id="24222559" version="3" timestamp="2010-02-15T12:15:02Z" uid="74617" user="JohnSmith" changeset="3882541">
    <nd ref="262268440"/>
    <nd ref="416774117"/>
    <nd ref="262268417"/>
    <tag k="highway" v="residential"/>
    <tag k="maxspeed" v="50"/>
    <tag k="name" v="Marlin Place"/>
  </way>
  <way id="24222562" version="5" timestamp="2010-02-15T12:15:02Z" uid="74617" user="JohnSmith" changeset="3882541">
    <nd ref="178183996"/>
    <nd ref="262268449"/>
    <nd ref="262268450"/>
    <nd ref="262268451"/>
    <nd ref="262268452"/>
    <nd ref="262268453"/>
    <nd ref="262268454"/>
    <nd ref="262268455"/>
    <nd ref="262266306"/>
    <nd ref="262268418"/>
    <nd ref="262268417"/>
    <nd ref="178184004"/>
    <tag k="highway" v="residential"/>
    <tag k="maxspeed" v="50"/>
    <tag k="name" v="Trevally Crescent"/>
  </way>
  <way id="24222564" version="4" timestamp="2010-02-15T12:14:49Z" uid="74617" user="JohnSmith" changeset="3882541">
    <nd ref="508213943"/>
    <nd ref="262268474"/>
    <nd ref="262268667"/>
    <nd ref="262268476"/>
    <nd ref="262268477"/>
    <nd ref="262268478"/>
    <nd ref="262268479"/>
    <nd ref="262268480"/>
    <nd ref="262266289"/>
    <nd ref="262266268"/>
    <nd ref="262266290"/>
    <nd ref="262266291"/>
    <nd ref="262266292"/>
    <nd ref="262266293"/>
    <nd ref="262266299"/>
    <nd ref="262266300"/>
    <nd ref="262266301"/>
    <nd ref="262266302"/>
    <nd ref="262266303"/>
    <nd ref="262266304"/>
    <nd ref="262266305"/>
    <nd ref="262266306"/>
    <tag k="highway" v="residential"/>
    <tag k="maxspeed" v="50"/>
    <tag k="name" v="Amberjack Street"/>
  </way>
  <way id="24222564" version="5" timestamp="2010-03-21T04:52:50Z" uid="74617" user="JohnSmith" changeset="4187295">
    <nd ref="508213943"/>
    <nd ref="262268474"/>
    <nd ref="671142286"/>
    <nd ref="262268667"/>
    <nd ref="262268476"/>
    <nd ref="262268477"/>
    <nd ref="262268478"/>
    <nd ref="262268479"/>
    <nd ref="262268480"/>
    <nd ref="262266289"/>
    <nd ref="262266268"/>
    <nd ref="262266290"/>
    <nd ref="262266291"/>
    <nd ref="262266292"/>
    <nd ref="262266293"/>
    <nd ref="262266299"/>
    <nd ref="262266300"/>
    <nd ref="262266301"/>
    <nd ref="262266302"/>
    <nd ref="262266303"/>
    <nd ref="262266304"/>
    <nd ref="262266305"/>
    <nd ref="262266306"/>
    <tag k="highway" v="residential"/>
    <tag k="maxspeed" v="50"/>
    <tag k="name" v="Amberjack Street"/>
  </way>
  <way id="24222566" version="2" timestamp="2009-03-27T21:18:28Z" uid="16922" user="amai" changeset="863422">
    <nd ref="262268519"/>
    <nd ref="262268569"/>
    <nd ref="262268568"/>
    <nd ref="262268567"/>
    <nd ref="262268566"/>
    <nd ref="262268565"/>
    <nd ref="262268564"/>
    <nd ref="262268563"/>
    <nd ref="262268562"/>
    <nd ref="262268561"/>
    <nd ref="262268560"/>
    <nd ref="262268559"/>
    <nd ref="262268558"/>
    <nd ref="262268557"/>
    <nd ref="262268556"/>
    <nd ref="262268555"/>
    <nd ref="262268554"/>
    <nd ref="262268553"/>
    <nd ref="262268552"/>
    <nd ref="262268551"/>
    <nd ref="262268550"/>
    <nd ref="262268549"/>
    <nd ref="262268548"/>
    <nd ref="262268547"/>
    <nd ref="262268546"/>
    <nd ref="262268545"/>
    <nd ref="262268544"/>
    <nd ref="262268543"/>
    <nd ref="262268542"/>
    <nd ref="262268541"/>
    <nd ref="262268540"/>
    <nd ref="262268539"/>
    <nd ref="262268538"/>
    <nd ref="262268537"/>
    <nd ref="262268536"/>
    <nd ref="262268535"/>
    <nd ref="262268533"/>
    <nd ref="262268531"/>
    <nd ref="262268530"/>
    <nd ref="262268529"/>
    <nd ref="262268528"/>
    <nd ref="262268527"/>
    <nd ref="262268526"/>
    <nd ref="262268525"/>
    <nd ref="262268524"/>
    <nd ref="262268523"/>
    <nd ref="262268522"/>
    <nd ref="262268521"/>
    <nd ref="262268520"/>
    <nd ref="262268519"/>
    <tag k="created_by" v="Potlatch 0.10f"/>
    <tag k="natural" v="water"/>
  </way>
  <way id="24222566" version="3" timestamp="2009-04-02T21:54:43Z" uid="16922" user="amai" changeset="72829">
    <nd ref="262268519"/>
    <nd ref="262268569"/>
    <nd ref="262268568"/>
    <nd ref="262268567"/>
    <nd ref="262268566"/>
    <nd ref="262268565"/>
    <nd ref="262268564"/>
    <nd ref="262268563"/>
    <nd ref="262268562"/>
    <nd ref="262268561"/>
    <nd ref="262268560"/>
    <nd ref="262268559"/>
    <nd ref="262268558"/>
    <nd ref="262268557"/>
    <nd ref="262268556"/>
    <nd ref="262268555"/>
    <nd ref="262268554"/>
    <nd ref="262268553"/>
    <nd ref="262268552"/>
    <nd ref="262268551"/>
    <nd ref="262268550"/>
    <nd ref="262268549"/>
    <nd ref="262268548"/>
    <nd ref="262268547"/>
    <nd ref="262268546"/>
    <nd ref="262268545"/>
    <nd ref="262268544"/>
    <nd ref="262268543"/>
    <nd ref="262268542"/>
    <nd ref="262268541"/>
    <nd ref="262268540"/>
    <nd ref="262268539"/>
    <nd ref="262268538"/>
    <nd ref="262268537"/>
    <nd ref="262268536"/>
    <nd ref="262268535"/>
    <nd ref="262268533"/>
    <nd ref="262268531"/>
    <nd ref="262268530"/>
    <nd ref="262268529"/>
    <nd ref="262268528"/>
    <nd ref="262268527"/>
    <nd ref="262268526"/>
    <nd ref="262268525"/>
    <nd ref="262268524"/>
    <nd ref="262268523"/>
    <nd ref="262268522"/>
    <nd ref="262268521"/>
    <nd ref="262268520"/>
    <nd ref="262268519"/>
    <tag k="created_by" v="Potlatch 0.10f"/>
    <tag k="natural" v="water"/>
  </way>
  <way id="24222567" version="5" timestamp="2010-02-15T12:14:58Z" uid="74617" user="JohnSmith" changeset="3882541">
    <nd ref="508208437"/>
    <nd ref="416774093"/>
    <nd ref="416774091"/>
    <nd ref="508209102"/>
    <nd ref="262266290"/>
    <tag k="highway" v="residential"/>
    <tag k="maxspeed" v="50"/>
    <tag k="name" v="Bajimba Street"/>
  </way>
  <way id="24222567" version="6" timestamp="2010-03-21T04:52:50Z" uid="74617" user="JohnSmith" changeset="4187295">
    <nd ref="508208437"/>
    <nd ref="671142289"/>
    <nd ref="671142288"/>
    <nd ref="416774093"/>
    <nd ref="416774091"/>
    <nd ref="508209102"/>
    <nd ref="262266290"/>
    <tag k="highway" v="residential"/>
    <tag k="maxspeed" v="50"/>
    <tag k="name" v="Bajimba Street"/>
  </way>
  <way id="24222569" version="4" timestamp="2010-02-15T12:14:58Z" uid="74617" user="JohnSmith" changeset="3882541">
    <nd ref="262266291"/>
    <nd ref="508207521"/>
    <tag k="highway" v="residential"/>
    <tag k="maxspeed" v="50"/>
    <tag k="name" v="Tarwhine Street"/>
  </way>
  <way id="24222569" version="5" timestamp="2010-03-21T04:52:50Z" uid="74617" user="JohnSmith" changeset="4187295">
    <nd ref="262266291"/>
    <nd ref="671142290"/>
    <nd ref="671142292"/>
    <nd ref="508207521"/>
    <tag k="highway" v="residential"/>
    <tag k="maxspeed" v="50"/>
    <tag k="name" v="Tarwhine Street"/>
  </way>
  <way id="24222570" version="7" timestamp="2010-02-15T12:14:49Z" uid="74617" user="JohnSmith" changeset="3882541">
    <nd ref="262266292"/>
    <nd ref="262268674"/>
    <nd ref="262268622"/>
    <nd ref="178181818"/>
    <tag k="highway" v="residential"/>
    <tag k="maxspeed" v="50"/>
    <tag k="name" v="Barramundi Street"/>
  </way>
  <way id="24222570" version="8" timestamp="2010-03-21T04:52:50Z" uid="74617" user="JohnSmith" changeset="4187295">
    <nd ref="262266292"/>
    <nd ref="262268674"/>
    <nd ref="262268622"/>
    <nd ref="178181818"/>
    <nd ref="671142293"/>
    <tag k="highway" v="residential"/>
    <tag k="maxspeed" v="50"/>
    <tag k="name" v="Barramundi Street"/>
  </way>
  <way id="24222571" version="3" timestamp="2010-02-15T12:14:49Z" uid="74617" user="JohnSmith" changeset="3882541">
    <nd ref="262268633"/>
    <nd ref="262268622"/>
    <tag k="highway" v="residential"/>
    <tag k="maxspeed" v="50"/>
    <tag k="name" v="Tuna Street"/>
  </way>
  <way id="24222579" version="6" timestamp="2010-02-15T12:14:57Z" uid="74617" user="JohnSmith" changeset="3882541">
    <nd ref="262268667"/>
    <nd ref="262268668"/>
    <nd ref="262268669"/>
    <nd ref="262268670"/>
    <nd ref="508208437"/>
    <nd ref="262268671"/>
    <nd ref="508207521"/>
    <nd ref="262268672"/>
    <nd ref="262268673"/>
    <nd ref="262268674"/>
    <tag k="highway" v="residential"/>
    <tag k="maxspeed" v="50"/>
    <tag k="name" v="Mackrel Street"/>
  </way>
  <way id="24222582" version="5" timestamp="2010-02-15T12:14:59Z" uid="74617" user="JohnSmith" changeset="3882541">
    <nd ref="262268698"/>
    <nd ref="508209536"/>
    <nd ref="508209102"/>
    <tag k="highway" v="residential"/>
    <tag k="maxspeed" v="50"/>
    <tag k="name" v="Toulby Street"/>
  </way>
  <way id="24222585" version="4" timestamp="2010-02-15T12:14:58Z" uid="74617" user="JohnSmith" changeset="3882541">
    <nd ref="262268726"/>
    <nd ref="262268727"/>
    <nd ref="262268728"/>
    <nd ref="508209536"/>
    <tag k="highway" v="residential"/>
    <tag k="maxspeed" v="50"/>
    <tag k="name" v="Whiting Place"/>
  </way>
  <way id="24222587" version="3" timestamp="2010-02-15T12:14:47Z" uid="74617" user="JohnSmith" changeset="3882541">
    <nd ref="416774028"/>
    <nd ref="416774027"/>
    <nd ref="416774026"/>
    <nd ref="416774025"/>
    <nd ref="416774024"/>
    <nd ref="416774023"/>
    <nd ref="416774022"/>
    <nd ref="416774021"/>
    <nd ref="416774020"/>
    <nd ref="416774019"/>
    <nd ref="416774018"/>
    <nd ref="416774017"/>
    <nd ref="416774016"/>
    <nd ref="416774015"/>
    <nd ref="416774014"/>
    <tag k="highway" v="residential"/>
    <tag k="maxspeed" v="50"/>
    <tag k="name" v="Rowland Avenue"/>
  </way>
  <way id="24222589" version="4" timestamp="2010-02-15T12:14:36Z" uid="74617" user="JohnSmith" changeset="3882541">
    <nd ref="262268762"/>
    <nd ref="499959768"/>
    <nd ref="262268763"/>
    <tag k="highway" v="residential"/>
    <tag k="maxspeed" v="50"/>
    <tag k="name" v="Caringbah Street"/>
  </way>
  <way id="24222594" version="4" timestamp="2010-02-15T12:14:36Z" uid="74617" user="JohnSmith" changeset="3882541">
    <nd ref="262268776"/>
    <nd ref="499959768"/>
    <tag k="highway" v="residential"/>
    <tag k="maxspeed" v="50"/>
    <tag k="name" v="Cannes Street"/>
  </way>
  <way id="24222596" version="5" timestamp="2010-02-15T12:14:36Z" uid="74617" user="JohnSmith" changeset="3882541">
    <nd ref="499959789"/>
    <nd ref="262268781"/>
    <tag k="highway" v="residential"/>
    <tag k="maxspeed" v="50"/>
    <tag k="name" v="Cammeray Court"/>
  </way>
  <way id="24222598" version="5" timestamp="2010-02-15T12:14:49Z" uid="74617" user="JohnSmith" changeset="3882541">
    <nd ref="262268781"/>
    <nd ref="262268782"/>
    <nd ref="416774072"/>
    <nd ref="416774073"/>
    <nd ref="416774074"/>
    <nd ref="416774075"/>
    <tag k="highway" v="residential"/>
    <tag k="maxspeed" v="50"/>
    <tag k="name" v="Colette Street"/>
  </way>
  <way id="24222601" version="5" timestamp="2010-02-15T12:14:36Z" uid="74617" user="JohnSmith" changeset="3882541">
    <nd ref="262265183"/>
    <nd ref="416774134"/>
    <nd ref="416774143"/>
    <nd ref="499964010"/>
    <nd ref="262268799"/>
    <nd ref="178183997"/>
    <tag k="highway" v="residential"/>
    <tag k="maxspeed" v="50"/>
    <tag k="name" v="Radford Road"/>
  </way>
  <way id="24222601" version="6" timestamp="2010-03-21T04:52:52Z" uid="74617" user="JohnSmith" changeset="4187295"/>
  <way id="24222603" version="4" timestamp="2010-02-15T12:15:06Z" uid="74617" user="JohnSmith" changeset="3882541">
    <nd ref="262268808"/>
    <nd ref="499964010"/>
    <tag k="highway" v="residential"/>
    <tag k="maxspeed" v="50"/>
    <tag k="name" v="Tabitha Street"/>
  </way>
  <way id="24222604" version="3" timestamp="2010-02-15T12:14:36Z" uid="74617" user="JohnSmith" changeset="3882541">
    <nd ref="262268830"/>
    <nd ref="262268808"/>
    <tag k="highway" v="residential"/>
    <tag k="maxspeed" v="50"/>
    <tag k="name" v="Tanya Street"/>
  </way>
  <way id="24222629" version="3" timestamp="2009-02-23T12:12:48Z" uid="34428" user="usm78-gis" changeset="634299"/>
  <way id="24222651" version="2" timestamp="2009-02-23T12:14:41Z" uid="34428" user="usm78-gis" changeset="634299"/>
  <way id="24222665" version="11" timestamp="2010-03-12T08:47:55Z" uid="27600" user="Islanit" changeset="4104344">
    <nd ref="31905054"/>
    <nd ref="262269649"/>
    <nd ref="301690796"/>
    <nd ref="301690797"/>
    <nd ref="301690798"/>
    <nd ref="301690799"/>
    <nd ref="301690800"/>
    <nd ref="301690801"/>
    <tag k="highway" v="residential"/>
    <tag k="maxspeed" v="30"/>
    <tag k="name" v="Hasselbusch"/>
    <tag k="surface" v="cobblestone"/>
  </way>
  <way id="24222665" version="12" timestamp="2010-03-12T08:48:03Z" uid="27600" user="Islanit" changeset="4104344">
    <nd ref="31905054"/>
    <nd ref="262269649"/>
    <nd ref="301690796"/>
    <nd ref="301690797"/>
    <nd ref="301690798"/>
    <nd ref="301690799"/>
    <nd ref="301690800"/>
    <nd ref="301690801"/>
    <nd ref="301690802"/>
    <nd ref="301690786"/>
    <tag k="highway" v="residential"/>
    <tag k="maxspeed" v="30"/>
    <tag k="name" v="Hasselbusch"/>
    <tag k="surface" v="cobblestone"/>
  </way>
  <way id="24222674" version="2" timestamp="2010-03-27T23:38:43Z" uid="20587" user="balrog-kun" changeset="4250871">
    <nd ref="53083621"/>
    <nd ref="53083623"/>
    <tag k="created_by" v="Potlatch 0.8c"/>
    <tag k="highway" v="residential"/>
    <tag k="name" v="Ohanneson Road"/>
    <tag k="tiger:cfcc" v="A41"/>
    <tag k="tiger:county" v="Alameda, CA"/>
    <tag k="tiger:name_base" v="Ohanneson"/>
    <tag k="tiger:name_type" v="Rd"/>
    <tag k="tiger:reviewed" v="no"/>
    <tag k="tiger:separated" v="no"/>
    <tag k="tiger:source" v="tiger_import_dch_v0.6_20070809"/>
    <tag k="tiger:tlid" v="125010866"/>
  </way>
  <way id="24222720" version="4" timestamp="2008-07-07T23:47:03Z" uid="6975" user="ulfl" changeset="429882">
    <nd ref="262270634"/>
    <nd ref="262270635"/>
    <nd ref="262270636"/>
    <nd ref="262270134"/>
    <tag k="highway" v="residential"/>
    <tag k="is_in" v="Europe Germany Deutschland Drensteinfurt"/>
    <tag k="name" v="Marienstrae"/>
    <tag k="source" v="survey"/>
  </way>
  <way id="24222721" version="4" timestamp="2008-07-07T23:47:04Z" uid="6975" user="ulfl" changeset="429882">
    <nd ref="262270136"/>
    <nd ref="262270137"/>
    <nd ref="262270138"/>
    <nd ref="262270139"/>
    <nd ref="262270140"/>
    <nd ref="262270141"/>
    <nd ref="262270142"/>
    <nd ref="262270143"/>
    <nd ref="262270144"/>
    <nd ref="262270145"/>
    <nd ref="262270146"/>
    <nd ref="262270147"/>
    <nd ref="262270148"/>
    <nd ref="262270134"/>
    <tag k="highway" v="residential"/>
    <tag k="is_in" v="Europe Germany Deutschland Drensteinfurt"/>
    <tag k="name" v="Josefstrae"/>
    <tag k="source" v="survey"/>
  </way>
  <way id="24222729" version="5" timestamp="2008-07-07T23:46:59Z" uid="6975" user="ulfl" changeset="429882">
    <nd ref="262270134"/>
    <nd ref="262270135"/>
    <nd ref="265599342"/>
    <nd ref="265599343"/>
    <nd ref="265599344"/>
    <nd ref="265599345"/>
    <nd ref="271383008"/>
    <nd ref="265599346"/>
    <nd ref="271383009"/>
    <tag k="highway" v="residential"/>
    <tag k="is_in" v="Europe Germany Deutschland Drensteinfurt"/>
    <tag k="name" v="Landsbergstrae"/>
    <tag k="source" v="survey"/>
  </way>
  <way id="24222798" version="2" timestamp="2009-02-23T13:20:51Z" uid="34428" user="usm78-gis" changeset="634299"/>
  <way id="24222837" version="2" timestamp="2008-11-11T22:19:35Z" uid="36809" user="pfoten_weg_!_" changeset="736643">
    <nd ref="262271697"/>
    <nd ref="262271696"/>
    <nd ref="262271695"/>
    <nd ref="262271698"/>
    <tag k="created_by" v="JOSM"/>
    <tag k="fixme" v="Straenname fehlt"/>
    <tag k="highway" v="residential"/>
    <tag k="name" v="NoName"/>
  </way>
  <way id="24222837" version="3" timestamp="2008-11-11T23:15:03Z" uid="36809" user="pfoten_weg_!_" changeset="736643">
    <nd ref="262271697"/>
    <nd ref="262271696"/>
    <nd ref="262271695"/>
    <nd ref="262271698"/>
    <tag k="created_by" v="JOSM"/>
    <tag k="fixme" v="Straenname fehlt"/>
    <tag k="highway" v="residential"/>
    <tag k="layer" v="0"/>
    <tag k="name" v="NoName"/>
  </way>
  <way id="24222837" version="5" timestamp="2009-10-12T21:50:12Z" uid="36809" user="pfoten_weg_!_" changeset="2831247">
    <nd ref="262271697"/>
    <nd ref="262271696"/>
    <nd ref="262271695"/>
    <nd ref="262271698"/>
    <tag k="highway" v="residential"/>
    <tag k="layer" v="0"/>
    <tag k="name" v="Nepomukweg"/>
  </way>
  <way id="24222838" version="2" timestamp="2009-10-12T21:50:12Z" uid="36809" user="pfoten_weg_!_" changeset="2831247">
    <nd ref="262271698"/>
    <nd ref="262271694"/>
    <tag k="bridge" v="yes"/>
    <tag k="highway" v="footway"/>
    <tag k="layer" v="1"/>
  </way>
  <way id="24222839" version="2" timestamp="2009-10-12T21:50:11Z" uid="36809" user="pfoten_weg_!_" changeset="2831247">
    <nd ref="262271691"/>
    <nd ref="262271692"/>
    <nd ref="262271693"/>
    <nd ref="262271694"/>
    <tag k="highway" v="footway"/>
  </way>
  <way id="24222855" version="3" timestamp="2009-12-09T18:02:48Z" uid="200463" user="harmagedon" changeset="3335395">
    <nd ref="70798927"/>
    <nd ref="262271888"/>
    <nd ref="262271889"/>
    <tag k="highway" v="footway"/>
  </way>
  <way id="24222856" version="2" timestamp="2009-12-09T18:02:43Z" uid="200463" user="harmagedon" changeset="3335395">
    <nd ref="70798928"/>
    <nd ref="262271891"/>
    <tag k="highway" v="footway"/>
  </way>
  <way id="24222907" version="3" timestamp="2009-12-09T20:29:32Z" uid="200463" user="harmagedon" changeset="3336536">
    <nd ref="262272730"/>
    <nd ref="262272735"/>
    <nd ref="262272736"/>
    <nd ref="262272737"/>
    <nd ref="262272738"/>
    <tag k="highway" v="service"/>
  </way>
  <way id="24222913" version="3" timestamp="2009-08-26T14:14:06Z" uid="36809" user="pfoten_weg_!_" changeset="2267796">
    <nd ref="262272709"/>
    <nd ref="262272758"/>
    <nd ref="262272759"/>
    <nd ref="443366116"/>
    <nd ref="262189938"/>
    <tag k="highway" v="service"/>
  </way>
  <way id="24222914" version="6" timestamp="2009-10-20T14:26:51Z" uid="36809" user="pfoten_weg_!_" changeset="2903434">
    <nd ref="262272702"/>
    <nd ref="262272703"/>
    <tag k="bridge" v="yes"/>
    <tag k="highway" v="service"/>
    <tag k="layer" v="1"/>
  </way>
  <way id="24222925" version="3" timestamp="2009-11-10T13:41:43Z" uid="23543" user="jkjk" changeset="3082104">
    <nd ref="262272822"/>
    <nd ref="254660660"/>
    <tag k="highway" v="footway"/>
    <tag k="kct_green" v="major"/>
  </way>
  <way id="24222929" version="3" timestamp="2009-12-09T18:02:44Z" uid="200463" user="harmagedon" changeset="3335395">
    <nd ref="262271889"/>
    <nd ref="262271891"/>
    <nd ref="270091266"/>
    <nd ref="262271892"/>
    <tag k="highway" v="steps"/>
  </way>
  <way id="24222973" version="8" timestamp="2011-03-18T02:54:06Z" uid="20587" user="balrog-kun" changeset="7591739">
    <nd ref="262273644"/>
    <nd ref="262273645"/>
    <nd ref="262273646"/>
    <nd ref="262273647"/>
    <nd ref="262273644"/>
    <tag k="addr:state" v="CA"/>
    <tag k="building" v="yes"/>
    <tag k="building:height" v="260 m"/>
    <tag k="ele" v="5"/>
    <tag k="gnis:county_name" v="San Francisco"/>
    <tag k="gnis:feature_id" v="1655569"/>
    <tag k="gnis:import_uuid" v="57871b70-0100-4405-bb30-88b2e001a944"/>
    <tag k="gnis:reviewed" v="no"/>
    <tag k="name" v="Transamerica Pyramid"/>
    <tag k="source" v="USGS Geonames"/>
  </way>
</osm>
