<?xml version='1.0' encoding='UTF-8'?>
<osm version="0.6" generator="libosmium/2.20.0">
  <way id="24318013" version="3" timestamp="2008-08-23T04:46:04Z" uid="30201" user="rrankin" changeset="373650">
    <nd ref="34917726"/>
    <nd ref="263682719"/>
    <tag k="created_by" v="Potlatch 0.9"/>
    <tag k="highway" v="residential"/>
    <tag k="name" v="George Street"/>
  </way>
  <way id="24318013" version="5" timestamp="2010-02-22T03:44:26Z" uid="30201" user="rrankin" changeset="3940724">
    <nd ref="34917726"/>
    <nd ref="263682719"/>
    <nd ref="649992867"/>
    <tag k="highway" v="residential"/>
    <tag k="name" v="George Street"/>
  </way>
  <way id="24318013" version="6" timestamp="2010-07-07T19:55:52Z" uid="74617" user="JohnSmith" changeset="5161069">
    <nd ref="34917726"/>
    <nd ref="263682719"/>
    <nd ref="649992867"/>
    <tag k="highway" v="residential"/>
    <tag k="maxspeed" v="50"/>
    <tag k="maxspeed:source" v="default residential speed limit in Australia"/>
    <tag k="name" v="George Street"/>
  </way>
  <way id="24318025" version="3" timestamp="2010-03-27T13:32:31Z" uid="33382" user="de_muur" changeset="4246485">
    <nd ref="31196482"/>
    <nd ref="263682763"/>
    <nd ref="263682764"/>
    <nd ref="263682765"/>
    <nd ref="263682766"/>
    <nd ref="263760039"/>
    <nd ref="263760040"/>
    <nd ref="263760041"/>
    <nd ref="263760044"/>
    <nd ref="263760045"/>
    <nd ref="263760048"/>
    <nd ref="263760049"/>
    <nd ref="263760050"/>
    <nd ref="263760053"/>
    <tag k="highway" v="residential"/>
    <tag k="name" v="Hillerser Weg"/>
    <tag k="source" v="yahoo"/>
    <tag k="surface" v="paved"/>
  </way>
  <way id="24318025" version="4" timestamp="2010-03-27T13:49:43Z" uid="33382" user="de_muur" changeset="4246601">
    <nd ref="31196482"/>
    <nd ref="263682763"/>
    <nd ref="263682764"/>
    <nd ref="263682765"/>
    <tag k="highway" v="residential"/>
    <tag k="name" v="Am Schwarzen Meer"/>
    <tag k="surface" v="paved"/>
  </way>
  <way id="24318026" version="3" timestamp="2010-03-27T13:32:31Z" uid="33382" user="de_muur" changeset="4246485">
    <nd ref="263682765"/>
    <nd ref="263682767"/>
    <nd ref="263682768"/>
    <tag k="highway" v="residential"/>
    <tag k="source" v="yahoo"/>
    <tag k="surface" v="paved"/>
  </way>
  <way id="24318032" version="6" timestamp="2008-08-23T04:44:19Z" uid="30201" user="rrankin" changeset="373650">
    <nd ref="263682759"/>
    <nd ref="263682802"/>
    <nd ref="274245254"/>
    <nd ref="263682803"/>
    <nd ref="275493880"/>
    <nd ref="263682961"/>
    <tag k="created_by" v="Potlatch 0.9"/>
    <tag k="highway" v="residential"/>
    <tag k="name" v="Kenny Street"/>
  </way>
  <way id="24318032" version="7" timestamp="2008-08-23T07:47:16Z" uid="30201" user="rrankin" changeset="374079">
    <nd ref="263682759"/>
    <nd ref="263682802"/>
    <nd ref="274245254"/>
    <nd ref="290334381"/>
    <nd ref="263682803"/>
    <nd ref="275493880"/>
    <nd ref="263682961"/>
    <tag k="created_by" v="Potlatch 0.9"/>
    <tag k="highway" v="residential"/>
    <tag k="name" v="Kenny Street"/>
  </way>
  <way id="24318032" version="10" timestamp="2010-02-22T03:44:26Z" uid="30201" user="rrankin" changeset="3940724">
    <nd ref="263682759"/>
    <nd ref="645177496"/>
    <nd ref="645177501"/>
    <nd ref="645177504"/>
    <nd ref="645177508"/>
    <nd ref="263682802"/>
    <nd ref="645177516"/>
    <nd ref="645177521"/>
    <nd ref="649992833"/>
    <tag k="highway" v="residential"/>
    <tag k="name" v="Kenny Street"/>
  </way>
  <way id="24318032" version="11" timestamp="2010-07-07T19:57:56Z" uid="74617" user="JohnSmith" changeset="5161069">
    <nd ref="263682759"/>
    <nd ref="645177496"/>
    <nd ref="645177501"/>
    <nd ref="645177504"/>
    <nd ref="645177508"/>
    <nd ref="263682802"/>
    <nd ref="645177516"/>
    <nd ref="645177521"/>
    <nd ref="649992833"/>
    <tag k="highway" v="residential"/>
    <tag k="maxspeed" v="50"/>
    <tag k="maxspeed:source" v="default residential speed limit in Australia"/>
    <tag k="name" v="Kenny Street"/>
  </way>
  <way id="24318032" version="12" timestamp="2011-01-12T04:02:10Z" uid="4467" user="Rosscoe" changeset="6943922">
    <nd ref="263682759"/>
    <nd ref="645177496"/>
    <nd ref="645177501"/>
    <nd ref="645177504"/>
    <nd ref="645177508"/>
    <nd ref="263682802"/>
    <nd ref="1099108584"/>
    <nd ref="645177516"/>
    <nd ref="649992833"/>
    <tag k="highway" v="residential"/>
    <tag k="maxspeed" v="50"/>
    <tag k="maxspeed:source" v="default residential speed limit in Australia"/>
    <tag k="name" v="Kenny Street"/>
  </way>
  <way id="24318043" version="3" timestamp="2010-03-27T13:49:43Z" uid="33382" user="de_muur" changeset="4246601">
    <nd ref="28095180"/>
    <nd ref="292610535"/>
    <nd ref="263682844"/>
    <nd ref="263682843"/>
    <tag k="highway" v="residential"/>
  </way>
  <way id="24318043" version="4" timestamp="2010-07-15T20:05:34Z" uid="33382" user="de_muur" changeset="5229931">
    <nd ref="28095180"/>
    <nd ref="292610535"/>
    <nd ref="263682844"/>
    <nd ref="263682843"/>
    <nd ref="819455115"/>
    <tag k="highway" v="residential"/>
    <tag k="surface" v="paved"/>
  </way>
  <way id="24318043" version="5" timestamp="2010-07-16T15:33:33Z" uid="33382" user="de_muur" changeset="5235649">
    <nd ref="28095180"/>
    <nd ref="292610535"/>
    <nd ref="263682844"/>
    <nd ref="263682843"/>
    <nd ref="819455115"/>
    <tag k="highway" v="residential"/>
    <tag k="maxspeed" v="30"/>
    <tag k="surface" v="paved"/>
  </way>
  <way id="24318064" version="3" timestamp="2008-08-23T04:45:00Z" uid="30201" user="rrankin" changeset="373650">
    <nd ref="263682803"/>
    <nd ref="263682918"/>
    <tag k="created_by" v="Potlatch 0.9"/>
    <tag k="highway" v="residential"/>
    <tag k="name" v="Finlayson Street"/>
  </way>
  <way id="24318064" version="5" timestamp="2010-07-07T19:53:37Z" uid="74617" user="JohnSmith" changeset="5161069">
    <nd ref="263682803"/>
    <nd ref="263682918"/>
    <tag k="highway" v="residential"/>
    <tag k="maxspeed" v="50"/>
    <tag k="maxspeed:source" v="default residential speed limit in Australia"/>
    <tag k="name" v="Finlayson Street"/>
  </way>
  <way id="24318079" version="5" timestamp="2008-08-23T04:44:45Z" uid="30201" user="rrankin" changeset="373650">
    <nd ref="263682961"/>
    <nd ref="263682964"/>
    <tag k="created_by" v="Potlatch 0.9"/>
    <tag k="highway" v="residential"/>
    <tag k="name" v="Fox Avenue"/>
  </way>
  <way id="24318079" version="7" timestamp="2010-07-07T19:55:17Z" uid="74617" user="JohnSmith" changeset="5161069">
    <nd ref="263682961"/>
    <nd ref="637577570"/>
    <nd ref="637577572"/>
    <nd ref="637577575"/>
    <nd ref="263682964"/>
    <tag k="highway" v="residential"/>
    <tag k="maxspeed" v="50"/>
    <tag k="maxspeed:source" v="default residential speed limit in Australia"/>
    <tag k="name" v="Fox Avenue"/>
  </way>
  <way id="24318082" version="2" timestamp="2010-07-06T08:36:14Z" uid="74617" user="JohnSmith" changeset="5147679">
    <nd ref="206231276"/>
    <nd ref="206231627"/>
    <tag k="highway" v="residential"/>
    <tag k="maxspeed" v="50"/>
    <tag k="maxspeed:source" v="default residential speed limit in Australia"/>
    <tag k="name" v="Luxford Street"/>
  </way>
  <way id="24318094" version="2" timestamp="2008-07-08T23:32:55Z" uid="6975" user="ulfl" changeset="443284">
    <nd ref="263683031"/>
    <nd ref="263683032"/>
    <tag k="access" v="private"/>
    <tag k="highway" v="unclassified"/>
  </way>
  <way id="24318106" version="3" timestamp="2008-08-23T04:48:13Z" uid="30201" user="rrankin" changeset="373650">
    <nd ref="108291828"/>
    <nd ref="108292010"/>
    <tag k="created_by" v="Potlatch 0.9"/>
    <tag k="highway" v="tertiary"/>
    <tag k="name" v="Bridge Street"/>
    <tag k="source" v="survey"/>
  </way>
  <way id="24318111" version="5" timestamp="2008-08-23T04:48:26Z" uid="30201" user="rrankin" changeset="373650">
    <nd ref="263683104"/>
    <nd ref="263683115"/>
    <nd ref="263683201"/>
    <nd ref="263683202"/>
    <tag k="created_by" v="Potlatch 0.9"/>
    <tag k="highway" v="residential"/>
    <tag k="name" v="Wonson Avenue"/>
  </way>
  <way id="24318111" version="6" timestamp="2010-07-07T19:56:35Z" uid="74617" user="JohnSmith" changeset="5161069">
    <nd ref="263683104"/>
    <nd ref="263683115"/>
    <nd ref="263683201"/>
    <nd ref="263683202"/>
    <tag k="highway" v="residential"/>
    <tag k="maxspeed" v="50"/>
    <tag k="maxspeed:source" v="default residential speed limit in Australia"/>
    <tag k="name" v="Wonson Avenue"/>
  </way>
  <way id="24318129" version="5" timestamp="2008-08-23T04:48:43Z" uid="30201" user="rrankin" changeset="373650">
    <nd ref="263683266"/>
    <nd ref="263683267"/>
    <nd ref="263683268"/>
    <nd ref="263683209"/>
    <tag k="created_by" v="Potlatch 0.9"/>
    <tag k="highway" v="residential"/>
    <tag k="name" v="Television Avenue"/>
  </way>
  <way id="24318129" version="9" timestamp="2010-07-07T19:56:37Z" uid="74617" user="JohnSmith" changeset="5161069">
    <nd ref="263683266"/>
    <nd ref="780842436"/>
    <nd ref="263683267"/>
    <nd ref="263683268"/>
    <nd ref="303483994"/>
    <nd ref="303484009"/>
    <nd ref="303483982"/>
    <nd ref="303483987"/>
    <tag k="highway" v="residential"/>
    <tag k="maxspeed" v="50"/>
    <tag k="maxspeed:source" v="default residential speed limit in Australia"/>
    <tag k="name" v="Television Avenue"/>
    <tag k="source" v="GPS"/>
  </way>
  <way id="24318141" version="4" timestamp="2008-08-23T04:48:59Z" uid="30201" user="rrankin" changeset="373650">
    <nd ref="263683209"/>
    <nd ref="263683202"/>
    <nd ref="263683210"/>
    <tag k="created_by" v="Potlatch 0.9"/>
    <tag k="highway" v="residential"/>
    <tag k="name" v="Robertson Street"/>
  </way>
  <way id="24318145" version="2" timestamp="2008-07-04T08:08:31Z" uid="6975" user="ulfl" changeset="389415">
    <nd ref="263683285"/>
    <nd ref="263683286"/>
    <nd ref="263683287"/>
    <nd ref="263683288"/>
    <nd ref="263683289"/>
    <nd ref="263683290"/>
    <nd ref="263683291"/>
    <nd ref="263683285"/>
    <tag k="building" v="yes"/>
    <tag k="name" v="Römerpassage"/>
    <tag k="shop" v="mall"/>
  </way>
  <way id="24318200" version="2" timestamp="2009-10-01T19:18:56Z" uid="86259" user="hasse_osm_korinthenkacker" changeset="2704245">
    <nd ref="263683627"/>
    <nd ref="263683630"/>
    <nd ref="263683629"/>
    <nd ref="263683628"/>
    <nd ref="263683627"/>
    <tag k="highway" v="secondary"/>
    <tag k="junction" v="roundabout"/>
  </way>
  <way id="24318201" version="6" timestamp="2009-10-01T19:18:56Z" uid="86259" user="hasse_osm_korinthenkacker" changeset="2704245">
    <nd ref="263683629"/>
    <nd ref="429818239"/>
    <nd ref="130182576"/>
    <nd ref="130182581"/>
    <nd ref="130182571"/>
    <nd ref="280299092"/>
    <nd ref="130182572"/>
    <nd ref="278752949"/>
    <nd ref="130182580"/>
    <nd ref="278757036"/>
    <nd ref="130182579"/>
    <tag k="highway" v="secondary"/>
    <tag k="name" v="Vlothoer Straße"/>
    <tag k="ref" v="L 535"/>
  </way>
  <way id="24318219" version="6" timestamp="2008-12-14T14:56:23Z" uid="6975" user="ulfl" changeset="375714">
    <nd ref="255232161"/>
    <nd ref="255232162"/>
    <nd ref="306665101"/>
    <nd ref="255232150"/>
    <nd ref="2195948"/>
    <tag k="highway" v="tertiary"/>
    <tag k="name" v="Diemtigtalstrasse"/>
  </way>
  <way id="24318221" version="4" timestamp="2010-07-06T08:33:12Z" uid="74617" user="JohnSmith" changeset="5147679">
    <nd ref="206236262"/>
    <nd ref="206236014"/>
    <nd ref="206236263"/>
    <nd ref="206235545"/>
    <nd ref="206236264"/>
    <tag k="highway" v="residential"/>
    <tag k="maxspeed" v="50"/>
    <tag k="maxspeed:source" v="default residential speed limit in Australia"/>
    <tag k="name" v="Waratah Avenue"/>
  </way>
  <way id="24318234" version="4" timestamp="2008-08-23T04:40:07Z" uid="30201" user="rrankin" changeset="373650">
    <nd ref="263683835"/>
    <nd ref="263683266"/>
    <nd ref="263683836"/>
    <nd ref="263683837"/>
    <nd ref="263683838"/>
    <nd ref="263683839"/>
    <tag k="created_by" v="Potlatch 0.9"/>
    <tag k="highway" v="residential"/>
    <tag k="name" v="The Avenue"/>
  </way>
  <way id="24318234" version="8" timestamp="2010-07-07T19:56:03Z" uid="74617" user="JohnSmith" changeset="5161069">
    <nd ref="303477434"/>
    <nd ref="303477470"/>
    <nd ref="263683835"/>
    <nd ref="263683266"/>
    <nd ref="780842419"/>
    <nd ref="263683836"/>
    <nd ref="780842424"/>
    <nd ref="263683837"/>
    <nd ref="263683838"/>
    <nd ref="108305752"/>
    <tag k="highway" v="residential"/>
    <tag k="maxspeed" v="50"/>
    <tag k="maxspeed:source" v="default residential speed limit in Australia"/>
    <tag k="name" v="The Avenue"/>
    <tag k="source" v="GPS"/>
  </way>
  <way id="24318240" version="4" timestamp="2008-08-23T04:40:55Z" uid="30201" user="rrankin" changeset="373650">
    <nd ref="263683841"/>
    <nd ref="263683889"/>
    <nd ref="263683890"/>
    <nd ref="263683928"/>
    <nd ref="263683891"/>
    <tag k="created_by" v="Potlatch 0.9"/>
    <tag k="highway" v="residential"/>
    <tag k="name" v="Ocean Street"/>
  </way>
  <way id="24318240" version="8" timestamp="2010-07-07T19:56:37Z" uid="74617" user="JohnSmith" changeset="5161069">
    <nd ref="303477421"/>
    <nd ref="303477423"/>
    <nd ref="303479416"/>
    <nd ref="263683890"/>
    <nd ref="263683928"/>
    <nd ref="263683891"/>
    <nd ref="303477427"/>
    <nd ref="303477430"/>
    <nd ref="303477432"/>
    <nd ref="303477434"/>
    <nd ref="303477437"/>
    <nd ref="303477461"/>
    <nd ref="303477439"/>
    <nd ref="303477446"/>
    <nd ref="108291745"/>
    <tag k="highway" v="residential"/>
    <tag k="maxspeed" v="50"/>
    <tag k="maxspeed:source" v="default residential speed limit in Australia"/>
    <tag k="name" v="Ocean Street"/>
    <tag k="source" v="GPS"/>
  </way>
  <way id="24318241" version="3" timestamp="2009-06-20T20:41:58Z" uid="55964" user="Evan Sebire" changeset="1578508">
    <nd ref="262556307"/>
    <nd ref="1017471"/>
    <nd ref="1017475"/>
    <nd ref="427123649"/>
    <nd ref="263681019"/>
    <nd ref="427138936"/>
    <nd ref="1017477"/>
    <nd ref="427138844"/>
    <nd ref="263681015"/>
    <nd ref="263681016"/>
    <nd ref="1017480"/>
    <nd ref="263681017"/>
    <nd ref="1017485"/>
    <nd ref="263680997"/>
    <nd ref="1017489"/>
    <nd ref="2195993"/>
    <tag k="highway" v="secondary"/>
  </way>
  <way id="24318241" version="4" timestamp="2009-06-20T20:58:11Z" uid="55964" user="Evan Sebire" changeset="1578647">
    <nd ref="262556307"/>
    <nd ref="427143895"/>
    <nd ref="1017471"/>
    <nd ref="1017475"/>
    <nd ref="427123649"/>
    <nd ref="263681019"/>
    <nd ref="427138936"/>
    <nd ref="1017477"/>
    <nd ref="427138844"/>
    <nd ref="263681015"/>
    <nd ref="263681016"/>
    <nd ref="1017480"/>
    <nd ref="263681017"/>
    <nd ref="1017485"/>
    <nd ref="263680997"/>
    <nd ref="1017489"/>
    <nd ref="2195993"/>
    <tag k="highway" v="secondary"/>
  </way>
  <way id="24318241" version="5" timestamp="2009-06-20T21:06:11Z" uid="55964" user="Evan Sebire" changeset="1578714">
    <nd ref="262556307"/>
    <nd ref="427143895"/>
    <nd ref="1017471"/>
    <nd ref="1017475"/>
    <nd ref="427123649"/>
    <nd ref="263681019"/>
    <nd ref="427138936"/>
    <nd ref="1017477"/>
    <nd ref="427138844"/>
    <nd ref="263681015"/>
    <nd ref="263681016"/>
    <nd ref="1017480"/>
    <nd ref="427144991"/>
    <nd ref="263681017"/>
    <nd ref="1017485"/>
    <nd ref="427145009"/>
    <nd ref="263680997"/>
    <nd ref="1017489"/>
    <nd ref="2195993"/>
    <tag k="highway" v="secondary"/>
  </way>
  <way id="24318257" version="3" timestamp="2008-08-23T04:41:24Z" uid="30201" user="rrankin" changeset="373650">
    <nd ref="263683928"/>
    <nd ref="263684038"/>
    <tag k="created_by" v="Potlatch 0.9"/>
    <tag k="highway" v="residential"/>
    <tag k="name" v="Prospect Street"/>
  </way>
  <way id="24318257" version="6" timestamp="2010-07-07T19:54:51Z" uid="74617" user="JohnSmith" changeset="5161069">
    <nd ref="263683928"/>
    <nd ref="263684038"/>
    <tag k="highway" v="residential"/>
    <tag k="maxspeed" v="50"/>
    <tag k="maxspeed:source" v="default residential speed limit in Australia"/>
    <tag k="name" v="Prospect Street"/>
    <tag k="source" v="GPS"/>
  </way>
  <way id="24318338" version="3" timestamp="2008-07-07T00:31:59Z" uid="6975" user="ulfl" changeset="415781">
    <nd ref="263684388"/>
    <nd ref="262779631"/>
    <nd ref="263684389"/>
    <tag k="layer" v="3"/>
    <tag k="ope" v="DBEnergie"/>
    <tag k="power" v="line"/>
  </way>
  <way id="24318429" version="4" timestamp="2008-07-04T07:58:00Z" uid="6975" user="ulfl" changeset="389415">
    <nd ref="263685059"/>
    <nd ref="263685060"/>
    <nd ref="263685061"/>
    <nd ref="263685062"/>
    <nd ref="263685059"/>
    <tag k="building" v="yes"/>
    <tag k="name" v="C&amp;amp;A"/>
    <tag k="shop" v="clothes"/>
  </way>
  <way id="24318605" version="13" timestamp="2009-04-28T14:07:50Z" uid="30632" user="antblant" changeset="1004318">
    <nd ref="263686394"/>
    <nd ref="263686395"/>
    <nd ref="331264935"/>
    <nd ref="263686397"/>
    <nd ref="263686398"/>
    <nd ref="263686399"/>
    <nd ref="263686400"/>
    <nd ref="263686401"/>
    <nd ref="331267475"/>
    <nd ref="171347555"/>
    <tag k="created_by" v="Potlatch 0.10f"/>
    <tag k="highway" v="primary"/>
    <tag k="name" v="Kolejowa"/>
    <tag k="oneway" v="yes"/>
    <tag k="ref" v="94"/>
  </way>
  <way id="24318605" version="14" timestamp="2009-04-28T14:45:29Z" uid="30632" user="antblant" changeset="1004887">
    <nd ref="263686394"/>
    <nd ref="263686395"/>
    <nd ref="331264935"/>
    <nd ref="263686397"/>
    <nd ref="263686398"/>
    <nd ref="263686399"/>
    <nd ref="263686400"/>
    <nd ref="263686401"/>
    <tag k="created_by" v="Potlatch 0.10f"/>
    <tag k="highway" v="primary"/>
    <tag k="name" v="Kolejowa"/>
    <tag k="oneway" v="yes"/>
    <tag k="ref" v="94"/>
  </way>
  <way id="24318618" version="2" timestamp="2008-07-04T09:28:57Z" uid="6975" user="ulfl" changeset="389415">
    <nd ref="253092569"/>
    <nd ref="253092570"/>
    <nd ref="118267341"/>
    <nd ref="254949807"/>
    <tag k="highway" v="track"/>
    <tag k="tracktype" v="grade4"/>
  </way>
  <way id="24318620" version="4" timestamp="2009-04-28T14:07:53Z" uid="30632" user="antblant" changeset="1004318">
    <nd ref="263686428"/>
    <nd ref="263686485"/>
    <nd ref="263686395"/>
    <tag k="created_by" v="Potlatch 0.9a"/>
    <tag k="highway" v="primary"/>
    <tag k="name" v="Kolejowa"/>
    <tag k="oneway" v="yes"/>
    <tag k="ref" v="94"/>
  </way>
  <way id="24318644" version="2" timestamp="2008-07-04T08:08:30Z" uid="6975" user="ulfl" changeset="389415">
    <nd ref="263686652"/>
    <nd ref="263686653"/>
    <nd ref="263686654"/>
    <nd ref="263686655"/>
    <nd ref="263686652"/>
    <tag k="building" v="yes"/>
    <tag k="shop" v="mall"/>
  </way>
  <way id="24318651" version="2" timestamp="2008-07-04T07:35:57Z" uid="6975" user="ulfl" changeset="389415">
    <nd ref="263686697"/>
    <nd ref="263686700"/>
    <nd ref="263686703"/>
    <nd ref="263686701"/>
    <nd ref="263686702"/>
    <tag k="highway" v="track"/>
    <tag k="noexit" v="yes"/>
    <tag k="surface" v="unpaved"/>
    <tag k="tracktype" v="grade4"/>
  </way>
  <way id="24318693" version="9" timestamp="2009-04-28T14:08:40Z" uid="30632" user="antblant" changeset="1004318">
    <nd ref="171288270"/>
    <nd ref="263687008"/>
    <nd ref="263687009"/>
    <nd ref="263686401"/>
    <tag k="created_by" v="Potlatch 0.10f"/>
    <tag k="highway" v="primary"/>
    <tag k="name" v="Powstańców Warszawskich"/>
    <tag k="oneway" v="yes"/>
    <tag k="ref" v="94"/>
  </way>
  <way id="24318693" version="10" timestamp="2009-04-28T14:51:37Z" uid="30632" user="antblant" changeset="1004887">
    <nd ref="171288270"/>
    <nd ref="263687008"/>
    <nd ref="263687009"/>
    <nd ref="263686401"/>
    <tag k="created_by" v="Potlatch 0.10f"/>
    <tag k="highway" v="primary"/>
    <tag k="name" v="Powstańców Warszawskich"/>
    <tag k="oneway" v="yes"/>
  </way>
  <way id="24318706" version="4" timestamp="2008-10-23T16:36:21Z" uid="6975" user="ulfl" changeset="530870">
    <nd ref="263687105"/>
    <nd ref="263687106"/>
    <tag k="bridge" v="yes"/>
    <tag k="description" v="Ridspår (Horse track). F.d. djursholmsbanan"/>
    <tag k="foot" v="yes"/>
    <tag k="highway" v="bridleway"/>
    <tag k="level" v="1"/>
    <tag k="name" v="Djursholmsbanan"/>
  </way>
  <way id="24318742" version="12" timestamp="2009-04-28T14:03:29Z" uid="30632" user="antblant" changeset="1004318">
    <nd ref="263687251"/>
    <nd ref="263687252"/>
    <nd ref="263687253"/>
    <nd ref="331242869"/>
    <nd ref="331242870"/>
    <nd ref="171288270"/>
    <tag k="created_by" v="Potlatch 0.10f"/>
    <tag k="highway" v="primary"/>
    <tag k="name" v="Józefa Kwietniewskiego"/>
    <tag k="oneway" v="yes"/>
    <tag k="ref" v="94"/>
  </way>
  <way id="24318761" version="9" timestamp="2009-04-28T14:08:54Z" uid="30632" user="antblant" changeset="1004318">
    <nd ref="263687357"/>
    <nd ref="263687358"/>
    <nd ref="263687498"/>
    <nd ref="263687251"/>
    <nd ref="331262919"/>
    <nd ref="331262957"/>
    <nd ref="297720847"/>
    <tag k="created_by" v="Potlatch 0.10f"/>
    <tag k="highway" v="primary"/>
    <tag k="name" v="Marszałka Józefa Piłsudskiego"/>
    <tag k="oneway" v="yes"/>
    <tag k="ref" v="94"/>
  </way>
  <way id="24318761" version="10" timestamp="2009-04-28T14:50:26Z" uid="30632" user="antblant" changeset="1004887">
    <nd ref="263687357"/>
    <nd ref="263687358"/>
    <nd ref="263687498"/>
    <nd ref="263687251"/>
    <tag k="created_by" v="Potlatch 0.10f"/>
    <tag k="highway" v="primary"/>
    <tag k="name" v="Marszałka Józefa Piłsudskiego"/>
    <tag k="oneway" v="yes"/>
    <tag k="ref" v="94"/>
  </way>
  <way id="24318766" version="9" timestamp="2009-04-28T14:09:03Z" uid="30632" user="antblant" changeset="1004318">
    <nd ref="171347555"/>
    <nd ref="263687384"/>
    <nd ref="263687383"/>
    <nd ref="330040339"/>
    <nd ref="330040341"/>
    <nd ref="330040343"/>
    <nd ref="330040344"/>
    <tag k="created_by" v="Potlatch 0.10c"/>
    <tag k="highway" v="primary"/>
    <tag k="name" v="Karola Miarki"/>
    <tag k="oneway" v="yes"/>
    <tag k="ref" v="94"/>
  </way>
  <way id="24318766" version="10" timestamp="2009-04-28T14:45:42Z" uid="30632" user="antblant" changeset="1004887">
    <nd ref="171347555"/>
    <nd ref="263687384"/>
    <nd ref="263687383"/>
    <nd ref="330040339"/>
    <tag k="created_by" v="Potlatch 0.10c"/>
    <tag k="highway" v="primary"/>
    <tag k="name" v="Karola Miarki"/>
    <tag k="oneway" v="yes"/>
    <tag k="ref" v="94"/>
  </way>
  <way id="24318791" version="3" timestamp="2010-02-09T02:07:31Z" uid="74617" user="JohnSmith" changeset="3828705">
    <nd ref="263687577"/>
    <nd ref="263687592"/>
    <tag k="highway" v="residential"/>
    <tag k="maxspeed" v="50"/>
    <tag k="name" v="Allen Street"/>
  </way>
  <way id="24318860" version="4" timestamp="2008-11-18T17:32:59Z" uid="33382" user="de_muur" changeset="764658">
    <nd ref="21524144"/>
    <nd ref="313024855"/>
    <tag k="highway" v="secondary"/>
    <tag k="name" v="Achimer Straße"/>
    <tag k="note" v="TODO: recheck names and position"/>
    <tag k="ref" v="L 167"/>
  </way>
  <way id="24318860" version="5" timestamp="2010-07-11T12:41:45Z" uid="33382" user="de_muur" changeset="5189989">
    <nd ref="21524144"/>
    <nd ref="313024855"/>
    <tag k="highway" v="secondary"/>
    <tag k="maxspeed" v="50"/>
    <tag k="name" v="Achimer Straße"/>
    <tag k="ref" v="L 167"/>
    <tag k="surface" v="paved"/>
  </way>
  <way id="24318883" version="5" timestamp="2008-07-06T20:16:11Z" uid="6975" user="ulfl" changeset="415781">
    <nd ref="263688272"/>
    <nd ref="263688273"/>
    <nd ref="275610102"/>
    <nd ref="263688274"/>
    <nd ref="263688275"/>
    <nd ref="263688276"/>
    <nd ref="264911867"/>
    <nd ref="263688277"/>
    <nd ref="263688278"/>
    <nd ref="263688279"/>
    <nd ref="263688280"/>
    <nd ref="263688281"/>
    <tag k="agricultural" v="yes"/>
    <tag k="highway" v="track"/>
    <tag k="motorcar" v="no"/>
    <tag k="tracktype" v="grade5"/>
  </way>
  <way id="24318892" version="21" timestamp="2010-09-24T20:09:37Z" uid="33382" user="de_muur" changeset="5866108">
    <nd ref="30421520"/>
    <nd ref="471177939"/>
    <nd ref="357473932"/>
    <nd ref="357478843"/>
    <nd ref="357469746"/>
    <nd ref="356931880"/>
    <nd ref="356932159"/>
    <nd ref="30421521"/>
    <nd ref="924526373"/>
    <nd ref="357468279"/>
    <nd ref="357466639"/>
    <nd ref="226080866"/>
    <nd ref="357458829"/>
    <nd ref="357458218"/>
    <nd ref="357456872"/>
    <nd ref="357458248"/>
    <nd ref="30421522"/>
    <nd ref="717651060"/>
    <nd ref="250670385"/>
    <tag k="cycleway" v="track"/>
    <tag k="highway" v="secondary"/>
    <tag k="maxspeed" v="50"/>
    <tag k="name" v="Quelkhorner Landstraße"/>
    <tag k="ref" v="L 154"/>
    <tag k="surface" v="paved"/>
  </way>
  <way id="24318892" version="22" timestamp="2010-09-25T15:23:32Z" uid="33382" user="de_muur" changeset="5871859">
    <nd ref="30421520"/>
    <nd ref="471177939"/>
    <nd ref="357473932"/>
    <nd ref="357478843"/>
    <nd ref="357469746"/>
    <tag k="cycleway" v="track"/>
    <tag k="highway" v="secondary"/>
    <tag k="maxspeed" v="50"/>
    <tag k="name" v="Quelkhorner Landstraße"/>
    <tag k="ref" v="L 154"/>
    <tag k="surface" v="paved"/>
  </way>
  <way id="24318893" version="7" timestamp="2009-06-28T05:04:33Z" uid="33382" user="de_muur" changeset="1658694"/>
  <way id="24318900" version="2" timestamp="2010-07-25T09:34:13Z" uid="9581" user="Lobelt" changeset="5310113">
    <nd ref="262837828"/>
    <nd ref="262837829"/>
    <nd ref="262837830"/>
    <nd ref="262837831"/>
    <nd ref="262837832"/>
    <nd ref="262837833"/>
    <nd ref="262837834"/>
    <nd ref="262837835"/>
    <nd ref="262837836"/>
    <nd ref="262837837"/>
    <nd ref="262837838"/>
    <nd ref="262837839"/>
    <nd ref="262837358"/>
    <tag k="railway" v="rail"/>
  </way>
  <way id="24318900" version="3" timestamp="2010-07-25T10:01:33Z" uid="9581" user="Lobelt" changeset="5310310">
    <nd ref="262837828"/>
    <nd ref="262837829"/>
    <nd ref="262837830"/>
    <nd ref="262837831"/>
    <nd ref="262837832"/>
    <nd ref="262837833"/>
    <tag k="railway" v="rail"/>
  </way>
  <way id="24318903" version="3" timestamp="2010-07-25T10:01:33Z" uid="9581" user="Lobelt" changeset="5310310">
    <nd ref="262838508"/>
    <nd ref="832451636"/>
    <nd ref="832451586"/>
    <nd ref="262837828"/>
    <tag k="railway" v="rail"/>
    <tag k="tunnel" v="yes"/>
  </way>
  <way id="24318914" version="14" timestamp="2009-04-28T14:09:08Z" uid="30632" user="antblant" changeset="1004318">
    <nd ref="263688721"/>
    <nd ref="263688722"/>
    <nd ref="263688799"/>
    <nd ref="300521536"/>
    <nd ref="300521537"/>
    <nd ref="300520959"/>
    <nd ref="263688789"/>
    <nd ref="263688723"/>
    <nd ref="263688725"/>
    <nd ref="263688717"/>
    <nd ref="263688718"/>
    <nd ref="300519366"/>
    <nd ref="263687382"/>
    <tag k="created_by" v="Potlatch 0.10c"/>
    <tag k="highway" v="primary"/>
    <tag k="name" v="Siemianowicka"/>
    <tag k="ref" v="94"/>
  </way>
  <way id="24318932" version="13" timestamp="2009-04-28T14:54:15Z" uid="30632" user="antblant" changeset="1004887">
    <nd ref="263688789"/>
    <nd ref="263689004"/>
    <nd ref="300521403"/>
    <nd ref="263688790"/>
    <nd ref="263688865"/>
    <nd ref="263688804"/>
    <nd ref="263688799"/>
    <tag k="created_by" v="Potlatch 0.10c"/>
    <tag k="highway" v="primary"/>
    <tag k="name" v="Siemianowicka"/>
    <tag k="ref" v="94"/>
  </way>
  <way id="24318932" version="14" timestamp="2009-04-28T14:55:07Z" uid="30632" user="antblant" changeset="1004887">
    <nd ref="263688789"/>
    <nd ref="263689004"/>
    <nd ref="300521403"/>
    <nd ref="263688790"/>
    <nd ref="263688865"/>
    <nd ref="263688804"/>
    <nd ref="263688799"/>
    <tag k="created_by" v="Potlatch 0.10c"/>
    <tag k="highway" v="primary"/>
    <tag k="name" v="Siemianowicka"/>
  </way>
  <way id="24318939" version="2" timestamp="2010-07-25T10:01:37Z" uid="9581" user="Lobelt" changeset="5310310">
    <nd ref="262838485"/>
    <nd ref="262838486"/>
    <nd ref="262838487"/>
    <nd ref="262838488"/>
    <nd ref="262838489"/>
    <nd ref="262838490"/>
    <nd ref="262838491"/>
    <nd ref="262838492"/>
    <nd ref="262838493"/>
    <nd ref="262838494"/>
    <nd ref="262838495"/>
    <nd ref="262838496"/>
    <nd ref="262838497"/>
    <nd ref="262838498"/>
    <nd ref="262838499"/>
    <nd ref="262838500"/>
    <nd ref="262838501"/>
    <tag k="railway" v="rail"/>
  </way>
  <way id="24318940" version="4" timestamp="2010-07-25T10:01:32Z" uid="9581" user="Lobelt" changeset="5310310">
    <nd ref="262840634"/>
    <nd ref="549306748"/>
    <nd ref="832451426"/>
    <nd ref="832451714"/>
    <nd ref="832451514"/>
    <nd ref="262838485"/>
    <tag k="railway" v="rail"/>
    <tag k="tunnel" v="yes"/>
  </way>
  <way id="24318943" version="9" timestamp="2009-06-29T13:46:40Z" uid="33382" user="de_muur" changeset="1677413">
    <nd ref="30441636"/>
    <nd ref="300527260"/>
    <nd ref="30441637"/>
    <nd ref="30441638"/>
    <nd ref="430768000"/>
    <nd ref="30441639"/>
    <nd ref="30441640"/>
    <nd ref="30441641"/>
    <nd ref="30441642"/>
    <nd ref="30441643"/>
    <nd ref="37913988"/>
    <nd ref="30441644"/>
    <nd ref="37913982"/>
    <nd ref="30441645"/>
    <nd ref="30441646"/>
    <nd ref="30441647"/>
    <nd ref="30441648"/>
    <nd ref="30441649"/>
    <nd ref="30441650"/>
    <nd ref="30441651"/>
    <nd ref="393977574"/>
    <tag k="created_by" v="Potlatch 0.10c"/>
    <tag k="highway" v="tertiary"/>
    <tag k="maxspeed" v="80"/>
    <tag k="ref" v="K 113"/>
  </way>
  <way id="24318943" version="12" timestamp="2010-07-11T07:01:41Z" uid="33382" user="de_muur" changeset="5187250">
    <nd ref="30441636"/>
    <nd ref="300527260"/>
    <nd ref="30441637"/>
    <nd ref="30441638"/>
    <nd ref="430768000"/>
    <nd ref="30441639"/>
    <nd ref="30441640"/>
    <nd ref="469390321"/>
    <nd ref="469390323"/>
    <nd ref="811019856"/>
    <tag k="highway" v="tertiary"/>
    <tag k="maxspeed" v="50"/>
    <tag k="name" v="Tarmstedter Straße"/>
    <tag k="ref" v="K 113"/>
    <tag k="surface" v="paved"/>
  </way>
  <way id="24318956" version="3" timestamp="2009-07-26T00:19:31Z" uid="4467" user="Rosscoe" changeset="1939703">
    <nd ref="263688811"/>
    <nd ref="263688881"/>
    <tag k="highway" v="residential"/>
    <tag k="name" v="Adelaide Place"/>
  </way>
  <way id="24318956" version="4" timestamp="2010-07-07T19:25:36Z" uid="74617" user="JohnSmith" changeset="5161069">
    <nd ref="263688811"/>
    <nd ref="263688881"/>
    <tag k="highway" v="residential"/>
    <tag k="maxspeed" v="50"/>
    <tag k="maxspeed:source" v="default residential speed limit in Australia"/>
    <tag k="name" v="Adelaide Place"/>
  </way>
  <way id="24318957" version="10" timestamp="2009-10-07T16:26:35Z" uid="86259" user="hasse_osm_korinthenkacker" changeset="2773374">
    <nd ref="30441656"/>
    <nd ref="30441655"/>
    <nd ref="30441654"/>
    <nd ref="30441653"/>
    <nd ref="30441652"/>
    <nd ref="393977574"/>
    <tag k="highway" v="tertiary"/>
    <tag k="maxspeed" v="50"/>
    <tag k="name" v="Wilstedter Straße"/>
    <tag k="ref" v="K 113"/>
  </way>
  <way id="24318957" version="12" timestamp="2010-07-11T07:01:42Z" uid="33382" user="de_muur" changeset="5187250">
    <nd ref="392855743"/>
    <nd ref="30441656"/>
    <nd ref="30441655"/>
    <nd ref="30441654"/>
    <nd ref="30441653"/>
    <nd ref="30441652"/>
    <tag k="highway" v="tertiary"/>
    <tag k="maxspeed" v="50"/>
    <tag k="name" v="Wilstedter Straße"/>
    <tag k="ref" v="K 113"/>
    <tag k="surface" v="paved"/>
  </way>
  <way id="24318961" version="3" timestamp="2009-07-26T00:20:42Z" uid="4467" user="Rosscoe" changeset="1939703">
    <nd ref="263688882"/>
    <nd ref="263688913"/>
    <nd ref="263688914"/>
    <tag k="highway" v="residential"/>
    <tag k="name" v="Wilson Street"/>
  </way>
  <way id="24318961" version="4" timestamp="2010-05-12T09:24:14Z" uid="4467" user="Rosscoe" changeset="4675520">
    <nd ref="263688882"/>
    <nd ref="263688913"/>
    <nd ref="263688914"/>
    <tag k="highway" v="residential"/>
    <tag k="name" v="Wilson Street"/>
    <tag k="source" v="nearmap"/>
  </way>
  <way id="24318961" version="5" timestamp="2010-07-07T19:26:55Z" uid="74617" user="JohnSmith" changeset="5161069">
    <nd ref="263688882"/>
    <nd ref="263688913"/>
    <nd ref="263688914"/>
    <tag k="highway" v="residential"/>
    <tag k="maxspeed" v="50"/>
    <tag k="maxspeed:source" v="default residential speed limit in Australia"/>
    <tag k="name" v="Wilson Street"/>
    <tag k="source" v="nearmap"/>
  </way>
  <way id="24318973" version="9" timestamp="2011-05-11T15:44:53Z" uid="33382" user="de_muur" changeset="8113487">
    <nd ref="30466688"/>
    <nd ref="395251695"/>
    <nd ref="30459614"/>
    <nd ref="393968037"/>
    <nd ref="30459613"/>
    <nd ref="30459612"/>
    <nd ref="1280359111"/>
    <nd ref="30465881"/>
    <tag k="cycleway" v="track"/>
    <tag k="highway" v="secondary"/>
    <tag k="maxspeed" v="50"/>
    <tag k="name" v="Zevener Straße"/>
    <tag k="ref" v="L 122"/>
    <tag k="surface" v="paved"/>
  </way>
  <way id="24318973" version="10" timestamp="2011-05-11T16:46:41Z" uid="33382" user="de_muur" changeset="8113949">
    <nd ref="30466688"/>
    <nd ref="395251695"/>
    <nd ref="30459614"/>
    <tag k="cycleway" v="track"/>
    <tag k="highway" v="secondary"/>
    <tag k="maxspeed" v="50"/>
    <tag k="name" v="Zevener Straße"/>
    <tag k="ref" v="L 122"/>
    <tag k="surface" v="paved"/>
  </way>
  <way id="24318974" version="12" timestamp="2011-05-11T15:35:57Z" uid="33382" user="de_muur" changeset="8113423">
    <nd ref="30465876"/>
    <nd ref="30465875"/>
    <nd ref="30465874"/>
    <nd ref="30465873"/>
    <nd ref="30465872"/>
    <nd ref="30465871"/>
    <nd ref="30465870"/>
    <nd ref="1280353986"/>
    <tag k="cycleway" v="track"/>
    <tag k="highway" v="secondary"/>
    <tag k="ref" v="L 122"/>
    <tag k="surface" v="paved"/>
  </way>
  <way id="24318987" version="5" timestamp="2010-07-25T09:34:12Z" uid="9581" user="Lobelt" changeset="5310113">
    <nd ref="260143739"/>
    <nd ref="260143740"/>
    <nd ref="260143741"/>
    <nd ref="260143742"/>
    <nd ref="260143743"/>
    <nd ref="260143744"/>
    <nd ref="260143745"/>
    <nd ref="260143746"/>
    <nd ref="260143747"/>
    <nd ref="832435030"/>
    <nd ref="832435019"/>
    <nd ref="260145395"/>
    <nd ref="691112188"/>
    <nd ref="260145396"/>
    <nd ref="832435052"/>
    <nd ref="260145397"/>
    <nd ref="260145398"/>
    <nd ref="260145399"/>
    <nd ref="832435087"/>
    <nd ref="260145400"/>
    <nd ref="260145401"/>
    <tag k="railway" v="rail"/>
  </way>
  <way id="24318988" version="10" timestamp="2011-05-08T18:09:29Z" uid="33382" user="de_muur" changeset="8085629">
    <nd ref="30459621"/>
    <nd ref="30459622"/>
    <nd ref="30459623"/>
    <nd ref="30459624"/>
    <nd ref="30459625"/>
    <nd ref="30459626"/>
    <nd ref="30459627"/>
    <nd ref="30459628"/>
    <nd ref="951976282"/>
    <nd ref="30459629"/>
    <nd ref="30459630"/>
    <nd ref="30459631"/>
    <nd ref="941772888"/>
    <nd ref="30459632"/>
    <nd ref="30459633"/>
    <nd ref="1194029961"/>
    <nd ref="1194029958"/>
    <nd ref="30459634"/>
    <nd ref="30459635"/>
    <nd ref="316223436"/>
    <nd ref="30459636"/>
    <nd ref="30459637"/>
    <nd ref="30459638"/>
    <nd ref="30459639"/>
    <tag k="highway" v="tertiary"/>
    <tag k="maxspeed" v="70"/>
    <tag k="ref" v="K 148"/>
    <tag k="surface" v="paved"/>
  </way>
  <way id="24318988" version="11" timestamp="2011-05-11T18:16:09Z" uid="33382" user="de_muur" changeset="8114813">
    <nd ref="30459621"/>
    <nd ref="30459622"/>
    <nd ref="30459623"/>
    <nd ref="30459624"/>
    <nd ref="30459625"/>
    <nd ref="30459626"/>
    <nd ref="30459627"/>
    <nd ref="30459628"/>
    <nd ref="951976282"/>
    <tag k="cycleway" v="track"/>
    <tag k="highway" v="tertiary"/>
    <tag k="maxspeed" v="70"/>
    <tag k="ref" v="K 148"/>
    <tag k="surface" v="paved"/>
  </way>
  <way id="24318997" version="4" timestamp="2010-07-25T09:34:18Z" uid="9581" user="Lobelt" changeset="5310113"/>
</osm>
