<?xml version='1.0' encoding='UTF-8'?>
<osm version="0.6" generator="libosmium/2.20.0">
  <way id="24323052" version="2" timestamp="2010-03-27T23:39:36Z" uid="20587" user="balrog-kun" changeset="4250871">
    <nd ref="87545753"/>
    <nd ref="87545756"/>
    <nd ref="87493890"/>
    <nd ref="87545758"/>
    <nd ref="87545760"/>
    <tag k="created_by" v="Potlatch 0.9"/>
    <tag k="highway" v="residential"/>
    <tag k="name" v="North Cornelia Avenue"/>
    <tag k="tiger:cfcc" v="A45"/>
    <tag k="tiger:county" v="Fresno, CA"/>
    <tag k="tiger:name_base" v="Cornelia"/>
    <tag k="tiger:name_direction_prefix" v="N"/>
    <tag k="tiger:name_type" v="Ave"/>
    <tag k="tiger:reviewed" v="no"/>
    <tag k="tiger:separated" v="yes"/>
    <tag k="tiger:source" v="tiger_import_dch_v0.6_20070809"/>
    <tag k="tiger:tlid" v="197565762:197565764:197599484:197565772:197611843:197565852:197565853:197565854:197565462:197565765"/>
    <tag k="tiger:zip_left" v="93722"/>
    <tag k="tiger:zip_right" v="93722"/>
  </way>
  <way id="24323059" version="1" timestamp="2008-05-11T14:31:02Z" uid="31796" user="bjt" changeset="415907">
    <nd ref="263732130"/>
    <nd ref="263732132"/>
    <nd ref="263732134"/>
    <nd ref="263732137"/>
    <nd ref="263732140"/>
    <nd ref="263735490"/>
    <nd ref="263735494"/>
    <nd ref="263732065"/>
    <tag k="created_by" v="JOSM"/>
    <tag k="highway" v="residential"/>
    <tag k="name" v="Mittelstraße"/>
  </way>
  <way id="24323060" version="1" timestamp="2008-05-11T14:31:03Z" uid="31796" user="bjt" changeset="415907">
    <nd ref="263732067"/>
    <nd ref="263735495"/>
    <nd ref="263735499"/>
    <tag k="created_by" v="JOSM"/>
    <tag k="highway" v="residential"/>
    <tag k="name" v="Casinostraße"/>
    <tag k="oneway" v="yes"/>
  </way>
  <way id="24323061" version="1" timestamp="2008-05-11T14:31:03Z" uid="31796" user="bjt" changeset="415907">
    <nd ref="263735499"/>
    <nd ref="263735494"/>
    <tag k="created_by" v="JOSM"/>
    <tag k="highway" v="residential"/>
    <tag k="oneway" v="yes"/>
  </way>
  <way id="24323062" version="1" timestamp="2008-05-11T14:31:03Z" uid="31796" user="bjt" changeset="415907">
    <nd ref="263735499"/>
    <nd ref="263735501"/>
    <tag k="created_by" v="JOSM"/>
    <tag k="highway" v="residential"/>
    <tag k="name" v="Casinostraße"/>
  </way>
  <way id="24323128" version="1" timestamp="2008-05-11T14:34:43Z" uid="31796" user="bjt" changeset="415907">
    <nd ref="263737963"/>
    <nd ref="263737966"/>
    <tag k="created_by" v="JOSM"/>
    <tag k="highway" v="footway"/>
    <tag k="name" v="Mühlenweg"/>
  </way>
  <way id="24323129" version="1" timestamp="2008-05-11T14:34:43Z" uid="31796" user="bjt" changeset="415907">
    <nd ref="263737966"/>
    <nd ref="263737971"/>
    <nd ref="263737974"/>
    <tag k="created_by" v="JOSM"/>
    <tag k="highway" v="residential"/>
    <tag k="name" v="Mühlenweg"/>
  </way>
  <way id="24323130" version="1" timestamp="2008-05-11T14:34:43Z" uid="31796" user="bjt" changeset="415907">
    <nd ref="263737974"/>
    <nd ref="263732125"/>
    <tag k="created_by" v="JOSM"/>
    <tag k="highway" v="service"/>
    <tag k="name" v="Mühlenweg"/>
  </way>
  <way id="24323152" version="1" timestamp="2008-05-11T14:36:08Z" uid="31796" user="bjt" changeset="415907">
    <nd ref="263732073"/>
    <nd ref="263732019"/>
    <tag k="created_by" v="JOSM"/>
    <tag k="highway" v="residential"/>
    <tag k="name" v="Enkircher Straße"/>
  </way>
  <way id="24323189" version="10" timestamp="2009-10-21T22:58:16Z" uid="36809" user="pfoten_weg_!_" changeset="2917503">
    <nd ref="73668284"/>
    <nd ref="257597449"/>
    <nd ref="30779722"/>
    <nd ref="300345049"/>
    <nd ref="201654025"/>
    <nd ref="30779724"/>
    <nd ref="289724727"/>
    <tag k="highway" v="secondary"/>
    <tag k="maxspeed" v="50"/>
    <tag k="name" v="Münchner Straße"/>
    <tag k="ref" v="St 2078"/>
  </way>
  <way id="24323190" version="6" timestamp="2009-10-21T22:58:46Z" uid="36809" user="pfoten_weg_!_" changeset="2917503">
    <nd ref="263740914"/>
    <nd ref="263740917"/>
    <nd ref="263740920"/>
    <nd ref="263740922"/>
    <nd ref="271410857"/>
    <nd ref="263740926"/>
    <tag k="highway" v="service"/>
    <tag k="maxspeed" v="30"/>
    <tag k="name" v="Schulstraße"/>
    <tag k="noexit" v="yes"/>
  </way>
  <way id="24323195" version="3" timestamp="2009-10-21T22:58:47Z" uid="36809" user="pfoten_weg_!_" changeset="2917503">
    <nd ref="263740926"/>
    <nd ref="262368682"/>
    <tag k="foot" v="yes"/>
    <tag k="highway" v="cycleway"/>
    <tag k="name" v="Schulstraße"/>
  </way>
  <way id="24323296" version="14" timestamp="2009-10-21T22:57:37Z" uid="36809" user="pfoten_weg_!_" changeset="2917503">
    <nd ref="263743998"/>
    <nd ref="11588507"/>
    <nd ref="278391065"/>
    <nd ref="241595430"/>
    <tag k="fixme" v="check maxspeed value"/>
    <tag k="highway" v="secondary"/>
    <tag k="lanes" v="2"/>
    <tag k="maxspeed" v="100"/>
    <tag k="ref" v="St 2078"/>
  </way>
  <way id="24323357" version="1" timestamp="2008-05-11T14:45:04Z" uid="31796" user="bjt" changeset="415907">
    <nd ref="263732019"/>
    <nd ref="263744450"/>
    <nd ref="263744453"/>
    <nd ref="263744454"/>
    <nd ref="263744457"/>
    <nd ref="263744459"/>
    <tag k="created_by" v="JOSM"/>
    <tag k="highway" v="residential"/>
    <tag k="name" v="Wolferweg"/>
  </way>
  <way id="24323358" version="1" timestamp="2008-05-11T14:45:04Z" uid="31796" user="bjt" changeset="415907">
    <nd ref="263744459"/>
    <nd ref="263744461"/>
    <nd ref="263744464"/>
    <nd ref="263744465"/>
    <nd ref="263744469"/>
    <nd ref="263744470"/>
    <tag k="created_by" v="JOSM"/>
    <tag k="highway" v="service"/>
    <tag k="tracktype" v="grade3"/>
  </way>
  <way id="24323359" version="1" timestamp="2008-05-11T14:45:04Z" uid="31796" user="bjt" changeset="415907">
    <nd ref="263744470"/>
    <nd ref="263744473"/>
    <nd ref="263744474"/>
    <nd ref="263744477"/>
    <nd ref="263744479"/>
    <nd ref="263744481"/>
    <nd ref="263744484"/>
    <nd ref="263744485"/>
    <nd ref="263744488"/>
    <tag k="created_by" v="JOSM"/>
    <tag k="highway" v="footway"/>
  </way>
  <way id="24323360" version="1" timestamp="2008-05-11T14:45:04Z" uid="31796" user="bjt" changeset="415907">
    <nd ref="263744488"/>
    <nd ref="263744490"/>
    <nd ref="263744492"/>
    <tag k="created_by" v="JOSM"/>
    <tag k="highway" v="residential"/>
    <tag k="name" v="Am Goldbach"/>
  </way>
  <way id="24323360" version="2" timestamp="2008-05-11T14:53:44Z" uid="31796" user="bjt" changeset="415907">
    <nd ref="263744488"/>
    <nd ref="263744490"/>
    <nd ref="263744492"/>
    <nd ref="263749123"/>
    <tag k="created_by" v="JOSM"/>
    <tag k="highway" v="residential"/>
    <tag k="name" v="Am Goldbach"/>
  </way>
  <way id="24323362" version="1" timestamp="2008-05-11T14:45:05Z" uid="31796" user="bjt" changeset="415907">
    <nd ref="263744492"/>
    <nd ref="263744495"/>
    <nd ref="263744496"/>
    <nd ref="263744500"/>
    <nd ref="263744501"/>
    <tag k="created_by" v="JOSM"/>
    <tag k="highway" v="track"/>
    <tag k="name" v="Am Goldbach"/>
    <tag k="tracktype" v="grade3"/>
  </way>
  <way id="24323518" version="1" timestamp="2008-05-11T14:53:43Z" uid="31796" user="bjt" changeset="415907">
    <nd ref="33745989"/>
    <nd ref="33745990"/>
    <nd ref="33745992"/>
    <nd ref="33745993"/>
    <nd ref="33745994"/>
    <nd ref="33745996"/>
    <nd ref="33745997"/>
    <nd ref="33745999"/>
    <nd ref="33746000"/>
    <nd ref="33746002"/>
    <nd ref="33746003"/>
    <tag k="created_by" v="Tways 0.2"/>
    <tag k="fixme" v="yes"/>
    <tag k="highway" v="unclassified"/>
  </way>
  <way id="24323519" version="1" timestamp="2008-05-11T14:53:43Z" uid="31796" user="bjt" changeset="415907">
    <nd ref="33745989"/>
    <nd ref="263749123"/>
    <nd ref="263749125"/>
    <nd ref="263749127"/>
    <nd ref="263749129"/>
    <nd ref="263749131"/>
    <nd ref="263749133"/>
    <nd ref="263749135"/>
    <nd ref="263749139"/>
    <nd ref="263749140"/>
    <nd ref="263749143"/>
    <nd ref="263749145"/>
    <nd ref="263749147"/>
    <nd ref="263749149"/>
    <nd ref="263749152"/>
    <nd ref="263749155"/>
    <nd ref="263749156"/>
    <nd ref="263749159"/>
    <nd ref="263749161"/>
    <tag k="created_by" v="JOSM"/>
    <tag k="highway" v="primary"/>
  </way>
  <way id="24323519" version="3" timestamp="2008-09-27T16:19:38Z" uid="31796" user="bjt" changeset="704884"/>
  <way id="24323520" version="1" timestamp="2008-05-11T14:53:43Z" uid="31796" user="bjt" changeset="415907">
    <nd ref="263732073"/>
    <nd ref="263749163"/>
    <nd ref="263749165"/>
    <nd ref="263749167"/>
    <nd ref="263749170"/>
    <nd ref="263749172"/>
    <nd ref="263749174"/>
    <nd ref="263749163"/>
    <tag k="created_by" v="JOSM"/>
    <tag k="highway" v="service"/>
  </way>
  <way id="24323521" version="1" timestamp="2008-05-11T14:53:44Z" uid="31796" user="bjt" changeset="415907">
    <nd ref="263749167"/>
    <nd ref="263749176"/>
    <nd ref="263749178"/>
    <nd ref="263749182"/>
    <nd ref="263749184"/>
    <nd ref="263749161"/>
    <tag k="created_by" v="JOSM"/>
    <tag k="highway" v="service"/>
  </way>
  <way id="24323521" version="2" timestamp="2008-09-27T16:19:37Z" uid="31796" user="bjt" changeset="704884">
    <nd ref="263749167"/>
    <nd ref="263749176"/>
    <nd ref="263749178"/>
    <nd ref="263749182"/>
    <nd ref="263749184"/>
    <nd ref="300371317"/>
    <nd ref="263749161"/>
    <tag k="created_by" v="JOSM"/>
    <tag k="highway" v="service"/>
  </way>
  <way id="24323522" version="2" timestamp="2008-06-23T14:45:53Z" uid="27600" user="Islanit" changeset="270634">
    <nd ref="263749444"/>
    <nd ref="263749445"/>
    <nd ref="263749446"/>
    <nd ref="263749447"/>
    <nd ref="263749449"/>
    <nd ref="263749450"/>
    <nd ref="263749451"/>
    <nd ref="263749454"/>
    <nd ref="263749455"/>
    <nd ref="263749458"/>
    <nd ref="263749459"/>
    <nd ref="263749460"/>
    <nd ref="263749461"/>
    <nd ref="263749462"/>
    <nd ref="263749463"/>
    <nd ref="263749464"/>
    <nd ref="263749465"/>
    <tag k="created_by" v="Potlatch 0.9"/>
    <tag k="highway" v="tertiary"/>
  </way>
  <way id="24323803" version="2" timestamp="2010-03-27T13:32:30Z" uid="33382" user="de_muur" changeset="4246485">
    <nd ref="263682768"/>
    <nd ref="263756859"/>
    <nd ref="263756861"/>
    <nd ref="263756863"/>
    <nd ref="263756865"/>
    <nd ref="263756867"/>
    <tag k="highway" v="unclassified"/>
    <tag k="name" v="Am Schwarzen Meer"/>
    <tag k="source" v="yahoo"/>
    <tag k="surface" v="paved"/>
  </way>
  <way id="24323804" version="2" timestamp="2010-03-27T13:32:31Z" uid="33382" user="de_muur" changeset="4246485">
    <nd ref="263756867"/>
    <nd ref="263756872"/>
    <nd ref="263756874"/>
    <nd ref="263756875"/>
    <nd ref="263756878"/>
    <nd ref="263756880"/>
    <tag k="highway" v="unclassified"/>
    <tag k="name" v="Heerweg"/>
    <tag k="surface" v="paved"/>
  </way>
  <way id="24323808" version="2" timestamp="2008-05-22T19:33:47Z" uid="33382" user="de_muur" changeset="501131">
    <nd ref="263756887"/>
    <nd ref="263756893"/>
    <nd ref="263756895"/>
    <nd ref="263756897"/>
    <nd ref="263756901"/>
    <tag k="created_by" v="JOSM"/>
    <tag k="highway" v="unclassified"/>
    <tag k="source" v="yahoo"/>
  </way>
  <way id="24323809" version="2" timestamp="2008-05-22T19:33:48Z" uid="33382" user="de_muur" changeset="501131">
    <nd ref="263756902"/>
    <nd ref="263756906"/>
    <nd ref="263756909"/>
    <nd ref="263756911"/>
    <nd ref="31196494"/>
    <tag k="created_by" v="JOSM"/>
    <tag k="highway" v="unclassified"/>
    <tag k="surface" v="paved"/>
  </way>
  <way id="24323809" version="3" timestamp="2010-03-27T13:20:35Z" uid="33382" user="de_muur" changeset="4246398">
    <nd ref="263756902"/>
    <nd ref="263756906"/>
    <nd ref="263756909"/>
    <nd ref="263756911"/>
    <nd ref="31196494"/>
    <tag k="highway" v="unclassified"/>
    <tag k="name" v="Fuchsberg"/>
    <tag k="surface" v="paved"/>
  </way>
  <way id="24323813" version="1" timestamp="2008-05-11T15:09:27Z" uid="31796" user="bjt" changeset="415907">
    <nd ref="263756879"/>
    <nd ref="263756882"/>
    <nd ref="263756886"/>
    <tag k="created_by" v="JOSM"/>
    <tag k="highway" v="residential"/>
    <tag k="name" v="Schwanenstraße"/>
  </way>
  <way id="24323814" version="1" timestamp="2008-05-11T15:09:27Z" uid="31796" user="bjt" changeset="415907">
    <nd ref="75540281"/>
    <nd ref="75540276"/>
    <nd ref="75540274"/>
    <nd ref="263485189"/>
    <nd ref="263485348"/>
    <nd ref="75540271"/>
    <nd ref="75540269"/>
    <nd ref="75540266"/>
    <nd ref="263485119"/>
    <nd ref="75540262"/>
    <nd ref="75540255"/>
    <nd ref="75540248"/>
    <nd ref="263756886"/>
    <tag k="created_by" v="Potlatch 0.5"/>
    <tag k="highway" v="primary"/>
    <tag k="name" v="Wilhelmstraße"/>
    <tag k="note" v="FIXME ref=B53 ?"/>
    <tag k="ref" v="B53"/>
  </way>
  <way id="24323815" version="1" timestamp="2008-05-11T15:09:28Z" uid="31796" user="bjt" changeset="415907">
    <nd ref="263756886"/>
    <nd ref="75540244"/>
    <nd ref="263756899"/>
    <nd ref="75540240"/>
    <nd ref="263756944"/>
    <nd ref="75540234"/>
    <nd ref="75540224"/>
    <nd ref="75535527"/>
    <nd ref="263756991"/>
    <nd ref="75535523"/>
    <tag k="created_by" v="Potlatch 0.5"/>
    <tag k="highway" v="primary"/>
    <tag k="note" v="FIXME ref=B53 ?"/>
    <tag k="ref" v="B53"/>
  </way>
  <way id="24323815" version="2" timestamp="2008-05-11T15:15:52Z" uid="31796" user="bjt" changeset="415907">
    <nd ref="263756886"/>
    <nd ref="75540244"/>
    <nd ref="263756899"/>
    <nd ref="75540240"/>
    <tag k="created_by" v="Potlatch 0.5"/>
    <tag k="highway" v="primary"/>
    <tag k="name" v="Alte Marktstraße"/>
    <tag k="note" v="FIXME ref=B53 ?"/>
    <tag k="ref" v="B53"/>
  </way>
  <way id="24323816" version="1" timestamp="2008-05-11T15:09:28Z" uid="31796" user="bjt" changeset="415907">
    <nd ref="263756890"/>
    <nd ref="263756894"/>
    <nd ref="75540240"/>
    <tag k="created_by" v="JOSM"/>
    <tag k="highway" v="residential"/>
    <tag k="name" v="Marktstraße"/>
    <tag k="oneway" v="yes"/>
  </way>
  <way id="24323817" version="1" timestamp="2008-05-11T15:09:28Z" uid="31796" user="bjt" changeset="415907">
    <nd ref="263756882"/>
    <nd ref="263756894"/>
    <tag k="created_by" v="JOSM"/>
    <tag k="highway" v="residential"/>
    <tag k="name" v="Ludwigstraße"/>
  </way>
  <way id="24323818" version="1" timestamp="2008-05-11T15:09:28Z" uid="31796" user="bjt" changeset="415907">
    <nd ref="263756899"/>
    <nd ref="263756903"/>
    <nd ref="263756908"/>
    <nd ref="263756912"/>
    <nd ref="263756916"/>
    <tag k="created_by" v="JOSM"/>
    <tag k="highway" v="residential"/>
    <tag k="name" v="Ginsterberg"/>
  </way>
  <way id="24323819" version="1" timestamp="2008-05-11T15:09:29Z" uid="31796" user="bjt" changeset="415907">
    <nd ref="263756918"/>
    <nd ref="263756922"/>
    <nd ref="263756926"/>
    <nd ref="263756930"/>
    <nd ref="263756931"/>
    <tag k="created_by" v="JOSM"/>
    <tag k="highway" v="living_street"/>
    <tag k="name" v="Marktplatz"/>
  </way>
  <way id="24323820" version="1" timestamp="2008-05-11T15:09:29Z" uid="31796" user="bjt" changeset="415907">
    <nd ref="263756930"/>
    <nd ref="263756903"/>
    <nd ref="263756935"/>
    <nd ref="263756936"/>
    <nd ref="263756939"/>
    <nd ref="263756941"/>
    <tag k="created_by" v="JOSM"/>
    <tag k="highway" v="residential"/>
  </way>
  <way id="24323821" version="1" timestamp="2008-05-11T15:09:29Z" uid="31796" user="bjt" changeset="415907">
    <nd ref="263756950"/>
    <nd ref="263756977"/>
    <nd ref="263756980"/>
    <nd ref="263756981"/>
    <tag k="created_by" v="JOSM"/>
    <tag k="highway" v="residential"/>
    <tag k="name" v="Hofstraße"/>
  </way>
  <way id="24323822" version="1" timestamp="2008-05-11T15:09:30Z" uid="31796" user="bjt" changeset="415907">
    <nd ref="263756966"/>
    <nd ref="263756984"/>
    <nd ref="263756985"/>
    <tag k="created_by" v="JOSM"/>
    <tag k="highway" v="residential"/>
    <tag k="name" v="Luisenstraße"/>
  </way>
  <way id="24323823" version="1" timestamp="2008-05-11T15:09:30Z" uid="31796" user="bjt" changeset="415907">
    <nd ref="263756988"/>
    <nd ref="263756984"/>
    <nd ref="263756991"/>
    <tag k="created_by" v="JOSM"/>
    <tag k="highway" v="residential"/>
    <tag k="name" v="Rottmannstraße"/>
  </way>
  <way id="24323881" version="2" timestamp="2008-07-03T22:46:24Z" uid="6975" user="ulfl" changeset="386611">
    <nd ref="263759479"/>
    <nd ref="263759481"/>
    <nd ref="263759482"/>
    <nd ref="263759483"/>
    <nd ref="263759479"/>
    <tag k="amenity" v="bus_station"/>
    <tag k="name" v="Tramplein"/>
  </way>
  <way id="24323896" version="1" timestamp="2008-05-11T15:15:52Z" uid="31796" user="bjt" changeset="415907">
    <nd ref="75540240"/>
    <nd ref="263756944"/>
    <tag k="created_by" v="Potlatch 0.5"/>
    <tag k="highway" v="primary"/>
    <tag k="name" v="Marktplatz"/>
    <tag k="note" v="FIXME ref=B53 ?"/>
    <tag k="ref" v="B53"/>
  </way>
  <way id="24323897" version="1" timestamp="2008-05-11T15:15:52Z" uid="31796" user="bjt" changeset="415907">
    <nd ref="263756944"/>
    <nd ref="75540234"/>
    <nd ref="75540224"/>
    <nd ref="75535527"/>
    <nd ref="263756991"/>
    <nd ref="75535523"/>
    <tag k="created_by" v="Potlatch 0.5"/>
    <tag k="highway" v="primary"/>
    <tag k="name" v="Bahnstraße"/>
    <tag k="note" v="FIXME ref=B53 ?"/>
    <tag k="ref" v="B53"/>
  </way>
  <way id="24323904" version="2" timestamp="2008-05-22T19:33:48Z" uid="33382" user="de_muur" changeset="501131">
    <nd ref="31196499"/>
    <nd ref="266386593"/>
    <nd ref="266386592"/>
    <nd ref="266386591"/>
    <nd ref="266386590"/>
    <nd ref="266386589"/>
    <nd ref="266386588"/>
    <nd ref="263760057"/>
    <nd ref="263760054"/>
    <nd ref="263760058"/>
    <nd ref="263760036"/>
    <nd ref="263760035"/>
    <nd ref="263756901"/>
    <tag k="created_by" v="JOSM"/>
    <tag k="highway" v="unclassified"/>
    <tag k="surface" v="paved"/>
  </way>
  <way id="24323904" version="3" timestamp="2010-03-26T19:31:44Z" uid="33382" user="de_muur" changeset="4241104">
    <nd ref="31196499"/>
    <nd ref="266386593"/>
    <nd ref="266386592"/>
    <tag k="highway" v="residential"/>
    <tag k="surface" v="paved"/>
  </way>
</osm>
