<?xml version='1.0' encoding='UTF-8'?>
<osm version="0.6" generator="libosmium/2.20.0">
  <way id="24548137" version="3" timestamp="2009-07-14T18:01:24Z" uid="59758" user="rendle" changeset="1829109">
    <nd ref="266908594"/>
    <nd ref="306268667"/>
    <nd ref="266908595"/>
    <nd ref="266908596"/>
    <nd ref="441867871"/>
    <tag k="created_by" v="JOSM"/>
    <tag k="highway" v="residential"/>
  </way>
  <way id="24548197" version="4" timestamp="2010-03-22T05:42:05Z" uid="20587" user="balrog-kun" changeset="4199043">
    <nd ref="38806906"/>
    <nd ref="266908883"/>
    <tag k="created_by" v="Potlatch 0.9a"/>
    <tag k="highway" v="residential"/>
    <tag k="name" v="Southeast Englewood Street"/>
    <tag k="name_1" v="Southeast Englewood Drive"/>
    <tag k="tiger:cfcc" v="A41"/>
    <tag k="tiger:county" v="Washington, OR"/>
    <tag k="tiger:name_base" v="Englewood"/>
    <tag k="tiger:name_base_1" v="Englewood"/>
    <tag k="tiger:name_direction_prefix" v="SE"/>
    <tag k="tiger:name_direction_prefix_1" v="SE"/>
    <tag k="tiger:reviewed" v="no"/>
    <tag k="tiger:separated" v="no"/>
    <tag k="tiger:source" v="tiger_import_dch_v0.6_20070808"/>
    <tag k="tiger:tlid" v="158179456"/>
    <tag k="tiger:zip_left" v="97123"/>
    <tag k="tiger:zip_right" v="97123"/>
  </way>
  <way id="24548241" version="1" timestamp="2008-05-26T04:28:51Z" uid="30201" user="rrankin" changeset="522692">
    <nd ref="266909965"/>
    <nd ref="266909966"/>
    <tag k="highway" v="residential"/>
    <tag k="name" v="Hawkins Circuit"/>
  </way>
  <way id="24548241" version="2" timestamp="2010-07-08T02:39:55Z" uid="74617" user="JohnSmith" changeset="5163091">
    <nd ref="266909965"/>
    <nd ref="266909966"/>
    <tag k="highway" v="residential"/>
    <tag k="maxspeed" v="50"/>
    <tag k="maxspeed:source" v="default residential speed limit in Australia"/>
    <tag k="name" v="Hawkins Circuit"/>
  </way>
  <way id="24548242" version="1" timestamp="2008-05-26T04:28:52Z" uid="30201" user="rrankin" changeset="522692">
    <nd ref="266909968"/>
    <nd ref="266909966"/>
    <nd ref="266909969"/>
    <tag k="highway" v="residential"/>
    <tag k="name" v="Hawkins Circuit"/>
  </way>
  <way id="24548242" version="2" timestamp="2010-02-04T15:16:23Z" uid="7617" user="Franc" changeset="3791011">
    <nd ref="266909968"/>
    <nd ref="629024520"/>
    <nd ref="266909966"/>
    <nd ref="629024545"/>
    <nd ref="266909969"/>
    <tag k="highway" v="residential"/>
    <tag k="name" v="Hawkins Circuit"/>
  </way>
  <way id="24548242" version="3" timestamp="2010-07-08T02:34:14Z" uid="74617" user="JohnSmith" changeset="5163091">
    <nd ref="266909968"/>
    <nd ref="629024520"/>
    <nd ref="266909966"/>
    <nd ref="629024545"/>
    <nd ref="266909969"/>
    <tag k="highway" v="residential"/>
    <tag k="maxspeed" v="50"/>
    <tag k="maxspeed:source" v="default residential speed limit in Australia"/>
    <tag k="name" v="Hawkins Circuit"/>
  </way>
  <way id="24548243" version="1" timestamp="2008-05-26T04:28:53Z" uid="30201" user="rrankin" changeset="522692">
    <nd ref="29375475"/>
    <nd ref="266909970"/>
    <tag k="highway" v="residential"/>
    <tag k="name" v="David Street"/>
  </way>
  <way id="24548243" version="2" timestamp="2010-02-04T15:16:23Z" uid="7617" user="Franc" changeset="3791011">
    <nd ref="29375475"/>
    <nd ref="629024546"/>
    <tag k="highway" v="residential"/>
    <tag k="name" v="David Street"/>
    <tag k="restriction" v="school_zone"/>
  </way>
  <way id="24548243" version="3" timestamp="2010-07-08T02:36:27Z" uid="74617" user="JohnSmith" changeset="5163091">
    <nd ref="29375475"/>
    <nd ref="629024546"/>
    <tag k="highway" v="residential"/>
    <tag k="maxspeed" v="50"/>
    <tag k="maxspeed:source" v="default residential speed limit in Australia"/>
    <tag k="name" v="David Street"/>
    <tag k="restriction" v="school_zone"/>
  </way>
  <way id="24548244" version="1" timestamp="2008-05-26T04:28:53Z" uid="30201" user="rrankin" changeset="522692">
    <nd ref="29375476"/>
    <nd ref="266909971"/>
    <nd ref="266909972"/>
    <tag k="highway" v="residential"/>
    <tag k="name" v="Ivy Street"/>
  </way>
  <way id="24548244" version="2" timestamp="2010-07-08T02:37:00Z" uid="74617" user="JohnSmith" changeset="5163091">
    <nd ref="29375476"/>
    <nd ref="266909971"/>
    <nd ref="266909972"/>
    <tag k="highway" v="residential"/>
    <tag k="maxspeed" v="50"/>
    <tag k="maxspeed:source" v="default residential speed limit in Australia"/>
    <tag k="name" v="Ivy Street"/>
  </way>
  <way id="24548245" version="1" timestamp="2008-05-26T04:28:54Z" uid="30201" user="rrankin" changeset="522692">
    <nd ref="266909973"/>
    <nd ref="266909974"/>
    <tag k="highway" v="residential"/>
    <tag k="name" v="Shannon Street"/>
  </way>
  <way id="24548245" version="2" timestamp="2010-07-08T02:38:42Z" uid="74617" user="JohnSmith" changeset="5163091">
    <nd ref="266909973"/>
    <nd ref="266909974"/>
    <tag k="highway" v="residential"/>
    <tag k="maxspeed" v="50"/>
    <tag k="maxspeed:source" v="default residential speed limit in Australia"/>
    <tag k="name" v="Shannon Street"/>
  </way>
  <way id="24548246" version="1" timestamp="2008-05-26T04:28:55Z" uid="30201" user="rrankin" changeset="522692">
    <nd ref="29375478"/>
    <nd ref="229196030"/>
    <nd ref="266909975"/>
    <nd ref="266909976"/>
    <tag k="highway" v="residential"/>
    <tag k="name" v="Russell Street"/>
  </way>
  <way id="24548246" version="2" timestamp="2010-01-10T06:40:27Z" uid="30201" user="rrankin" changeset="3584320">
    <nd ref="29375478"/>
    <nd ref="610745961"/>
    <tag k="highway" v="residential"/>
    <tag k="name" v="Russell Street"/>
  </way>
  <way id="24548246" version="3" timestamp="2010-07-08T02:32:21Z" uid="74617" user="JohnSmith" changeset="5163091">
    <nd ref="29375478"/>
    <nd ref="610745961"/>
    <tag k="highway" v="residential"/>
    <tag k="maxspeed" v="50"/>
    <tag k="maxspeed:source" v="default residential speed limit in Australia"/>
    <tag k="name" v="Russell Street"/>
  </way>
  <way id="24548247" version="1" timestamp="2008-05-26T04:28:56Z" uid="30201" user="rrankin" changeset="522692">
    <nd ref="29375480"/>
    <nd ref="266909977"/>
    <tag k="highway" v="residential"/>
    <tag k="name" v="Buckland Street"/>
  </way>
  <way id="24548247" version="2" timestamp="2010-07-08T02:34:55Z" uid="74617" user="JohnSmith" changeset="5163091">
    <nd ref="29375480"/>
    <nd ref="266909977"/>
    <tag k="highway" v="residential"/>
    <tag k="maxspeed" v="50"/>
    <tag k="maxspeed:source" v="default residential speed limit in Australia"/>
    <tag k="name" v="Buckland Street"/>
  </way>
  <way id="24548248" version="1" timestamp="2008-05-26T04:28:57Z" uid="30201" user="rrankin" changeset="522692">
    <nd ref="266909978"/>
    <nd ref="266909979"/>
    <tag k="highway" v="residential"/>
    <tag k="name" v="Latvia Avenue"/>
  </way>
  <way id="24548248" version="2" timestamp="2010-07-08T02:35:32Z" uid="74617" user="JohnSmith" changeset="5163091">
    <nd ref="266909978"/>
    <nd ref="266909979"/>
    <tag k="highway" v="residential"/>
    <tag k="maxspeed" v="50"/>
    <tag k="maxspeed:source" v="default residential speed limit in Australia"/>
    <tag k="name" v="Latvia Avenue"/>
  </way>
  <way id="24548248" version="3" timestamp="2010-11-05T22:12:59Z" uid="7617" user="Franc" changeset="6298795">
    <nd ref="266909978"/>
    <nd ref="977983482"/>
    <nd ref="266909979"/>
    <tag k="highway" v="residential"/>
    <tag k="maxspeed" v="50"/>
    <tag k="maxspeed:source" v="default residential speed limit in Australia"/>
    <tag k="name" v="Latvia Avenue"/>
  </way>
  <way id="24548249" version="1" timestamp="2008-05-26T04:28:58Z" uid="30201" user="rrankin" changeset="522692">
    <nd ref="29375473"/>
    <nd ref="266909982"/>
    <nd ref="266909991"/>
    <nd ref="29375452"/>
    <nd ref="266909980"/>
    <nd ref="36539157"/>
    <nd ref="266909981"/>
    <tag k="highway" v="residential"/>
    <tag k="name" v="Shellcote Road"/>
  </way>
  <way id="24548249" version="2" timestamp="2010-07-08T02:37:29Z" uid="74617" user="JohnSmith" changeset="5163091">
    <nd ref="29375473"/>
    <nd ref="266909982"/>
    <nd ref="266909991"/>
    <nd ref="29375452"/>
    <nd ref="266909980"/>
    <nd ref="36539157"/>
    <nd ref="266909981"/>
    <tag k="highway" v="residential"/>
    <tag k="maxspeed" v="50"/>
    <tag k="maxspeed:source" v="default residential speed limit in Australia"/>
    <tag k="name" v="Shellcote Road"/>
  </way>
  <way id="24548250" version="1" timestamp="2008-05-26T04:28:59Z" uid="30201" user="rrankin" changeset="522692">
    <nd ref="266909982"/>
    <nd ref="266909983"/>
    <nd ref="266909984"/>
    <nd ref="266909985"/>
    <nd ref="266909986"/>
    <nd ref="266909988"/>
    <nd ref="266909989"/>
    <tag k="highway" v="residential"/>
    <tag k="name" v="Lockwood Avenue"/>
  </way>
  <way id="24548250" version="2" timestamp="2010-07-08T02:40:20Z" uid="74617" user="JohnSmith" changeset="5163091">
    <nd ref="266909982"/>
    <nd ref="266909983"/>
    <nd ref="266909984"/>
    <nd ref="266909985"/>
    <nd ref="266909986"/>
    <nd ref="266909988"/>
    <nd ref="266909989"/>
    <tag k="highway" v="residential"/>
    <tag k="maxspeed" v="50"/>
    <tag k="maxspeed:source" v="default residential speed limit in Australia"/>
    <tag k="name" v="Lockwood Avenue"/>
  </way>
  <way id="24548251" version="1" timestamp="2008-05-26T04:29:00Z" uid="30201" user="rrankin" changeset="522692">
    <nd ref="266909985"/>
    <nd ref="266909990"/>
    <tag k="highway" v="residential"/>
    <tag k="name" v="Lockwood Avenue"/>
  </way>
  <way id="24548251" version="2" timestamp="2010-07-08T02:33:06Z" uid="74617" user="JohnSmith" changeset="5163091">
    <nd ref="266909985"/>
    <nd ref="266909990"/>
    <tag k="highway" v="residential"/>
    <tag k="maxspeed" v="50"/>
    <tag k="maxspeed:source" v="default residential speed limit in Australia"/>
    <tag k="name" v="Lockwood Avenue"/>
  </way>
  <way id="24548252" version="1" timestamp="2008-05-26T04:29:00Z" uid="30201" user="rrankin" changeset="522692">
    <nd ref="266909991"/>
    <nd ref="266909992"/>
    <nd ref="266909993"/>
    <nd ref="266909994"/>
    <nd ref="266909995"/>
    <tag k="highway" v="residential"/>
    <tag k="name" v="Lawson Place"/>
  </way>
  <way id="24548252" version="2" timestamp="2010-07-08T02:33:48Z" uid="74617" user="JohnSmith" changeset="5163091">
    <nd ref="266909991"/>
    <nd ref="266909992"/>
    <nd ref="266909993"/>
    <nd ref="266909994"/>
    <nd ref="266909995"/>
    <tag k="highway" v="residential"/>
    <tag k="maxspeed" v="50"/>
    <tag k="maxspeed:source" v="default residential speed limit in Australia"/>
    <tag k="name" v="Lawson Place"/>
  </way>
  <way id="24548253" version="1" timestamp="2008-05-26T04:29:01Z" uid="30201" user="rrankin" changeset="522692">
    <nd ref="266909993"/>
    <nd ref="266909996"/>
    <nd ref="266909997"/>
    <tag k="highway" v="residential"/>
    <tag k="name" v="Diane Close"/>
  </way>
  <way id="24548253" version="2" timestamp="2010-07-08T02:36:01Z" uid="74617" user="JohnSmith" changeset="5163091">
    <nd ref="266909993"/>
    <nd ref="266909996"/>
    <nd ref="266909997"/>
    <tag k="highway" v="residential"/>
    <tag k="maxspeed" v="50"/>
    <tag k="maxspeed:source" v="default residential speed limit in Australia"/>
    <tag k="name" v="Diane Close"/>
  </way>
  <way id="24548258" version="10" timestamp="2010-03-22T05:42:05Z" uid="20587" user="balrog-kun" changeset="4199043">
    <nd ref="38763992"/>
    <nd ref="38747518"/>
    <nd ref="38763994"/>
    <nd ref="38763996"/>
    <nd ref="38763997"/>
    <nd ref="38763999"/>
    <nd ref="38764001"/>
    <nd ref="38764002"/>
    <nd ref="38753319"/>
    <nd ref="38764004"/>
    <nd ref="38764006"/>
    <nd ref="265329861"/>
    <nd ref="38764008"/>
    <nd ref="38764009"/>
    <nd ref="38760556"/>
    <nd ref="38748651"/>
    <nd ref="38764012"/>
    <nd ref="38764013"/>
    <nd ref="38736320"/>
    <nd ref="266910070"/>
    <nd ref="266910071"/>
    <nd ref="266910072"/>
    <nd ref="266910073"/>
    <nd ref="266910074"/>
    <tag k="created_by" v="Potlatch 0.9a"/>
    <tag k="highway" v="residential"/>
    <tag k="name" v="Southeast Walnut Street"/>
    <tag k="tiger:cfcc" v="A41"/>
    <tag k="tiger:county" v="Washington, OR"/>
    <tag k="tiger:name_base" v="Walnut"/>
    <tag k="tiger:name_direction_prefix" v="SE"/>
    <tag k="tiger:reviewed" v="no"/>
    <tag k="tiger:separated" v="no"/>
    <tag k="tiger:source" v="tiger_import_dch_v0.6_20070808"/>
    <tag k="tiger:tlid" v="158179172:158179173:158178913:158178917:158178918:158179093:158179094:158178840:158178845:158178896:158179100:158178819:158178824:158179112:158179113:158178100:158178114:158225105:158225106"/>
    <tag k="tiger:zip_left" v="97123"/>
    <tag k="tiger:zip_right" v="97123"/>
  </way>
  <way id="24548259" version="3" timestamp="2010-03-22T05:42:06Z" uid="20587" user="balrog-kun" changeset="4199043">
    <nd ref="38764015"/>
    <nd ref="38764017"/>
    <tag k="created_by" v="Potlatch 0.9a"/>
    <tag k="highway" v="residential"/>
    <tag k="name" v="Southeast Walnut Street"/>
    <tag k="tiger:cfcc" v="A41"/>
    <tag k="tiger:county" v="Washington, OR"/>
    <tag k="tiger:name_base" v="Walnut"/>
    <tag k="tiger:name_direction_prefix" v="SE"/>
    <tag k="tiger:reviewed" v="no"/>
    <tag k="tiger:separated" v="no"/>
    <tag k="tiger:source" v="tiger_import_dch_v0.6_20070808"/>
    <tag k="tiger:tlid" v="158179172:158179173:158178913:158178917:158178918:158179093:158179094:158178840:158178845:158178896:158179100:158178819:158178824:158179112:158179113:158178100:158178114:158225105:158225106"/>
    <tag k="tiger:zip_left" v="97123"/>
    <tag k="tiger:zip_right" v="97123"/>
  </way>
  <way id="24548282" version="12" timestamp="2010-06-26T14:16:35Z" uid="4467" user="Rosscoe" changeset="5081355">
    <nd ref="27605798"/>
    <nd ref="271291737"/>
    <nd ref="27420732"/>
    <nd ref="271291718"/>
    <nd ref="27420731"/>
    <nd ref="271291754"/>
    <nd ref="29191847"/>
    <tag k="highway" v="primary"/>
    <tag k="name" v="Police Road"/>
    <tag k="oneway" v="yes"/>
    <tag k="ref" v="S16"/>
  </way>
  <way id="24548282" version="16" timestamp="2011-03-06T02:53:46Z" uid="4467" user="Rosscoe" changeset="7469549">
    <nd ref="27605798"/>
    <nd ref="1188521035"/>
    <nd ref="1188521041"/>
    <nd ref="271291737"/>
    <nd ref="27420732"/>
    <tag k="highway" v="secondary"/>
    <tag k="name" v="Police Road"/>
    <tag k="oneway" v="yes"/>
    <tag k="ref" v="S 16"/>
  </way>
  <way id="24548288" version="2" timestamp="2010-07-09T03:39:03Z" uid="74617" user="JohnSmith" changeset="5170838">
    <nd ref="137126737"/>
    <nd ref="259145995"/>
    <nd ref="259144494"/>
    <nd ref="259144501"/>
    <nd ref="259145959"/>
    <nd ref="259144468"/>
    <nd ref="42453333"/>
    <nd ref="259144375"/>
    <nd ref="259155669"/>
    <nd ref="259155951"/>
    <nd ref="259144335"/>
    <nd ref="259155477"/>
    <nd ref="137126738"/>
    <tag k="highway" v="residential"/>
    <tag k="maxspeed" v="50"/>
    <tag k="maxspeed:source" v="default residential speed limit in Australia"/>
    <tag k="name" v="Harold Road"/>
  </way>
  <way id="24548288" version="3" timestamp="2010-07-18T05:21:16Z" uid="4467" user="Rosscoe" changeset="5247951"/>
  <way id="24548313" version="7" timestamp="2009-09-03T05:20:00Z" uid="20587" user="balrog-kun" changeset="2355667"/>
  <way id="24548407" version="1" timestamp="2008-05-26T05:39:13Z" uid="30201" user="rrankin" changeset="523263">
    <nd ref="29375477"/>
    <nd ref="29375453"/>
    <nd ref="266911031"/>
    <nd ref="266911030"/>
    <tag k="highway" v="residential"/>
    <tag k="name" v="Tennyson Road"/>
  </way>
  <way id="24548407" version="2" timestamp="2010-01-10T06:40:29Z" uid="30201" user="rrankin" changeset="3584320">
    <nd ref="29375477"/>
    <nd ref="610745907"/>
    <tag k="highway" v="residential"/>
    <tag k="name" v="Tennyson Road"/>
  </way>
  <way id="24548407" version="3" timestamp="2010-07-08T02:35:58Z" uid="74617" user="JohnSmith" changeset="5163091">
    <nd ref="29375477"/>
    <nd ref="610745907"/>
    <tag k="highway" v="residential"/>
    <tag k="maxspeed" v="50"/>
    <tag k="maxspeed:source" v="default residential speed limit in Australia"/>
    <tag k="name" v="Tennyson Road"/>
  </way>
  <way id="24548408" version="1" timestamp="2008-05-26T05:39:13Z" uid="30201" user="rrankin" changeset="523263">
    <nd ref="266911031"/>
    <nd ref="266911032"/>
    <nd ref="266911033"/>
    <nd ref="266911034"/>
    <nd ref="266911035"/>
    <tag k="highway" v="residential"/>
    <tag k="name" v="Peter Crescent"/>
  </way>
  <way id="24548408" version="2" timestamp="2010-07-08T02:36:41Z" uid="74617" user="JohnSmith" changeset="5163091">
    <nd ref="266911031"/>
    <nd ref="266911032"/>
    <nd ref="266911033"/>
    <nd ref="266911034"/>
    <nd ref="266911035"/>
    <tag k="highway" v="residential"/>
    <tag k="maxspeed" v="50"/>
    <tag k="maxspeed:source" v="default residential speed limit in Australia"/>
    <tag k="name" v="Peter Crescent"/>
  </way>
  <way id="24548409" version="1" timestamp="2008-05-26T05:39:14Z" uid="30201" user="rrankin" changeset="523263">
    <nd ref="266911036"/>
    <nd ref="266911037"/>
    <nd ref="29375454"/>
    <nd ref="266911038"/>
    <nd ref="266911048"/>
    <nd ref="29375481"/>
    <tag k="highway" v="residential"/>
    <tag k="name" v="Caedigan Road"/>
  </way>
  <way id="24548409" version="2" timestamp="2010-07-08T02:38:24Z" uid="74617" user="JohnSmith" changeset="5163091">
    <nd ref="266911036"/>
    <nd ref="266911037"/>
    <nd ref="29375454"/>
    <nd ref="266911038"/>
    <nd ref="266911048"/>
    <nd ref="29375481"/>
    <tag k="highway" v="residential"/>
    <tag k="maxspeed" v="50"/>
    <tag k="maxspeed:source" v="default residential speed limit in Australia"/>
    <tag k="name" v="Caedigan Road"/>
  </way>
  <way id="24548410" version="1" timestamp="2008-05-26T05:39:15Z" uid="30201" user="rrankin" changeset="523263">
    <nd ref="266911038"/>
    <nd ref="266911039"/>
    <nd ref="266911043"/>
    <tag k="highway" v="residential"/>
    <tag k="name" v="Charmane Avenue"/>
  </way>
  <way id="24548410" version="2" timestamp="2010-02-04T15:16:23Z" uid="7617" user="Franc" changeset="3791011">
    <nd ref="266911038"/>
    <nd ref="629024506"/>
    <nd ref="266911039"/>
    <nd ref="629024507"/>
    <nd ref="266911043"/>
    <tag k="highway" v="residential"/>
    <tag k="name" v="Charmane Avenue"/>
  </way>
  <way id="24548410" version="3" timestamp="2010-07-08T02:41:13Z" uid="74617" user="JohnSmith" changeset="5163091">
    <nd ref="266911038"/>
    <nd ref="629024506"/>
    <nd ref="266911039"/>
    <nd ref="629024507"/>
    <nd ref="266911043"/>
    <tag k="highway" v="residential"/>
    <tag k="maxspeed" v="50"/>
    <tag k="maxspeed:source" v="default residential speed limit in Australia"/>
    <tag k="name" v="Charmane Avenue"/>
  </way>
  <way id="24548411" version="1" timestamp="2008-05-26T05:39:16Z" uid="30201" user="rrankin" changeset="523263">
    <nd ref="266911039"/>
    <nd ref="266911040"/>
    <nd ref="266911041"/>
    <nd ref="266911042"/>
    <tag k="highway" v="residential"/>
    <tag k="name" v="Rosalie Crescent"/>
  </way>
  <way id="24548411" version="2" timestamp="2010-07-08T02:34:28Z" uid="74617" user="JohnSmith" changeset="5163091">
    <nd ref="266911039"/>
    <nd ref="266911040"/>
    <nd ref="266911041"/>
    <nd ref="266911042"/>
    <tag k="highway" v="residential"/>
    <tag k="maxspeed" v="50"/>
    <tag k="maxspeed:source" v="default residential speed limit in Australia"/>
    <tag k="name" v="Rosalie Crescent"/>
  </way>
  <way id="24548412" version="1" timestamp="2008-05-26T05:39:17Z" uid="30201" user="rrankin" changeset="523263">
    <nd ref="29375479"/>
    <nd ref="266911045"/>
    <nd ref="266911044"/>
    <tag k="highway" v="residential"/>
    <tag k="name" v="Reid Avenue"/>
  </way>
  <way id="24548412" version="2" timestamp="2010-07-08T02:35:02Z" uid="74617" user="JohnSmith" changeset="5163091">
    <nd ref="29375479"/>
    <nd ref="266911045"/>
    <nd ref="266911044"/>
    <tag k="highway" v="residential"/>
    <tag k="maxspeed" v="50"/>
    <tag k="maxspeed:source" v="default residential speed limit in Australia"/>
    <tag k="name" v="Reid Avenue"/>
  </way>
  <way id="24548413" version="1" timestamp="2008-05-26T05:39:18Z" uid="30201" user="rrankin" changeset="523263">
    <nd ref="266911045"/>
    <nd ref="266911046"/>
    <tag k="highway" v="residential"/>
    <tag k="name" v="Beryl Place"/>
  </way>
  <way id="24548413" version="2" timestamp="2010-07-08T02:37:07Z" uid="74617" user="JohnSmith" changeset="5163091">
    <nd ref="266911045"/>
    <nd ref="266911046"/>
    <tag k="highway" v="residential"/>
    <tag k="maxspeed" v="50"/>
    <tag k="maxspeed:source" v="default residential speed limit in Australia"/>
    <tag k="name" v="Beryl Place"/>
  </way>
  <way id="24548414" version="1" timestamp="2008-05-26T05:39:19Z" uid="30201" user="rrankin" changeset="523263">
    <nd ref="29375474"/>
    <nd ref="266911047"/>
    <tag k="highway" v="residential"/>
    <tag k="name" v="Solomon Court"/>
  </way>
  <way id="24548414" version="2" timestamp="2010-07-08T02:40:03Z" uid="74617" user="JohnSmith" changeset="5163091">
    <nd ref="29375474"/>
    <nd ref="266911047"/>
    <tag k="highway" v="residential"/>
    <tag k="maxspeed" v="50"/>
    <tag k="maxspeed:source" v="default residential speed limit in Australia"/>
    <tag k="name" v="Solomon Court"/>
  </way>
  <way id="24548415" version="1" timestamp="2008-05-26T05:39:19Z" uid="30201" user="rrankin" changeset="523263">
    <nd ref="266911048"/>
    <nd ref="266911049"/>
    <nd ref="266911050"/>
    <nd ref="266911051"/>
    <tag k="highway" v="residential"/>
    <tag k="name" v="Gilliver Crescent"/>
  </way>
  <way id="24548415" version="2" timestamp="2010-07-08T02:32:30Z" uid="74617" user="JohnSmith" changeset="5163091">
    <nd ref="266911048"/>
    <nd ref="266911049"/>
    <nd ref="266911050"/>
    <nd ref="266911051"/>
    <tag k="highway" v="residential"/>
    <tag k="maxspeed" v="50"/>
    <tag k="maxspeed:source" v="default residential speed limit in Australia"/>
    <tag k="name" v="Gilliver Crescent"/>
  </way>
  <way id="24548416" version="1" timestamp="2008-05-26T05:39:20Z" uid="30201" user="rrankin" changeset="523263">
    <nd ref="266911052"/>
    <nd ref="266911053"/>
    <nd ref="266911056"/>
    <nd ref="266911057"/>
    <nd ref="266911058"/>
    <tag k="highway" v="residential"/>
    <tag k="name" v="Riga Avenue"/>
  </way>
  <way id="24548416" version="2" timestamp="2010-07-08T02:36:50Z" uid="74617" user="JohnSmith" changeset="5163091">
    <nd ref="266911052"/>
    <nd ref="266911053"/>
    <nd ref="266911056"/>
    <nd ref="266911057"/>
    <nd ref="266911058"/>
    <tag k="highway" v="residential"/>
    <tag k="maxspeed" v="50"/>
    <tag k="maxspeed:source" v="default residential speed limit in Australia"/>
    <tag k="name" v="Riga Avenue"/>
  </way>
  <way id="24548417" version="1" timestamp="2008-05-26T05:39:21Z" uid="30201" user="rrankin" changeset="523263">
    <nd ref="266911037"/>
    <nd ref="266911056"/>
    <tag k="highway" v="residential"/>
    <tag k="name" v="Riga Avenue"/>
  </way>
  <way id="24548417" version="2" timestamp="2010-07-08T02:38:32Z" uid="74617" user="JohnSmith" changeset="5163091">
    <nd ref="266911037"/>
    <nd ref="266911056"/>
    <tag k="highway" v="residential"/>
    <tag k="maxspeed" v="50"/>
    <tag k="maxspeed:source" v="default residential speed limit in Australia"/>
    <tag k="name" v="Riga Avenue"/>
  </way>
  <way id="24548418" version="1" timestamp="2008-05-26T05:39:22Z" uid="30201" user="rrankin" changeset="523263">
    <nd ref="266911059"/>
    <nd ref="266911060"/>
    <nd ref="266911061"/>
    <nd ref="266911062"/>
    <tag k="highway" v="residential"/>
    <tag k="name" v="Lauma Avenue"/>
  </way>
  <way id="24548418" version="2" timestamp="2010-07-08T02:41:21Z" uid="74617" user="JohnSmith" changeset="5163091">
    <nd ref="266911059"/>
    <nd ref="266911060"/>
    <nd ref="266911061"/>
    <nd ref="266911062"/>
    <tag k="highway" v="residential"/>
    <tag k="maxspeed" v="50"/>
    <tag k="maxspeed:source" v="default residential speed limit in Australia"/>
    <tag k="name" v="Lauma Avenue"/>
  </way>
  <way id="24548419" version="1" timestamp="2008-05-26T05:39:22Z" uid="30201" user="rrankin" changeset="523263">
    <nd ref="266911061"/>
    <nd ref="266911063"/>
    <tag k="highway" v="residential"/>
    <tag k="name" v="Lauma Avenue"/>
  </way>
  <way id="24548419" version="2" timestamp="2010-07-08T02:34:44Z" uid="74617" user="JohnSmith" changeset="5163091">
    <nd ref="266911061"/>
    <nd ref="266911063"/>
    <tag k="highway" v="residential"/>
    <tag k="maxspeed" v="50"/>
    <tag k="maxspeed:source" v="default residential speed limit in Australia"/>
    <tag k="name" v="Lauma Avenue"/>
  </way>
  <way id="24548420" version="1" timestamp="2008-05-26T05:39:23Z" uid="30201" user="rrankin" changeset="523263">
    <nd ref="19126857"/>
    <nd ref="266606031"/>
    <nd ref="29375455"/>
    <nd ref="266911064"/>
    <nd ref="29375482"/>
    <tag k="highway" v="residential"/>
    <tag k="name" v="Northcote Road"/>
  </way>
  <way id="24548420" version="2" timestamp="2010-01-10T06:40:28Z" uid="30201" user="rrankin" changeset="3584320">
    <nd ref="19126857"/>
    <nd ref="610745892"/>
    <tag k="highway" v="residential"/>
    <tag k="name" v="Northcote Road"/>
  </way>
  <way id="24548420" version="3" timestamp="2010-07-08T02:35:13Z" uid="74617" user="JohnSmith" changeset="5163091">
    <nd ref="19126857"/>
    <nd ref="610745892"/>
    <tag k="highway" v="residential"/>
    <tag k="maxspeed" v="50"/>
    <tag k="maxspeed:source" v="default residential speed limit in Australia"/>
    <tag k="name" v="Northcote Road"/>
  </way>
  <way id="24548421" version="1" timestamp="2008-05-26T05:39:24Z" uid="30201" user="rrankin" changeset="523263">
    <nd ref="266911064"/>
    <nd ref="266911065"/>
    <nd ref="266911066"/>
    <nd ref="266911067"/>
    <tag k="highway" v="residential"/>
    <tag k="name" v="Narella Crescent"/>
  </way>
  <way id="24548421" version="2" timestamp="2010-07-08T02:37:14Z" uid="74617" user="JohnSmith" changeset="5163091">
    <nd ref="266911064"/>
    <nd ref="266911065"/>
    <nd ref="266911066"/>
    <nd ref="266911067"/>
    <tag k="highway" v="residential"/>
    <tag k="maxspeed" v="50"/>
    <tag k="maxspeed:source" v="default residential speed limit in Australia"/>
    <tag k="name" v="Narella Crescent"/>
  </way>
  <way id="24548422" version="1" timestamp="2008-05-26T05:39:25Z" uid="30201" user="rrankin" changeset="523263">
    <nd ref="266911068"/>
    <nd ref="266911069"/>
    <nd ref="266911070"/>
    <nd ref="266911071"/>
    <nd ref="266911072"/>
    <nd ref="266911073"/>
    <tag k="highway" v="residential"/>
    <tag k="name" v="Illawong Crescent"/>
  </way>
  <way id="24548422" version="2" timestamp="2010-01-10T08:17:49Z" uid="30201" user="rrankin" changeset="3584585">
    <nd ref="266911068"/>
    <nd ref="610760473"/>
    <nd ref="266911069"/>
    <nd ref="266911070"/>
    <nd ref="266911071"/>
    <nd ref="266911072"/>
    <nd ref="266911073"/>
    <tag k="highway" v="residential"/>
    <tag k="name" v="Illawong Crescent"/>
  </way>
  <way id="24548422" version="3" timestamp="2010-02-04T15:16:24Z" uid="7617" user="Franc" changeset="3791011">
    <nd ref="266911068"/>
    <nd ref="610760473"/>
    <nd ref="266911069"/>
    <nd ref="629024479"/>
    <nd ref="266911070"/>
    <nd ref="629024482"/>
    <nd ref="266911071"/>
    <nd ref="266911072"/>
    <nd ref="266911073"/>
    <tag k="highway" v="residential"/>
    <tag k="name" v="Illawong Crescent"/>
  </way>
  <way id="24548422" version="4" timestamp="2010-07-08T02:40:11Z" uid="74617" user="JohnSmith" changeset="5163091">
    <nd ref="266911068"/>
    <nd ref="610760473"/>
    <nd ref="266911069"/>
    <nd ref="629024479"/>
    <nd ref="266911070"/>
    <nd ref="629024482"/>
    <nd ref="266911071"/>
    <nd ref="266911072"/>
    <nd ref="266911073"/>
    <tag k="highway" v="residential"/>
    <tag k="maxspeed" v="50"/>
    <tag k="maxspeed:source" v="default residential speed limit in Australia"/>
    <tag k="name" v="Illawong Crescent"/>
  </way>
  <way id="24548423" version="1" timestamp="2008-05-26T05:39:26Z" uid="30201" user="rrankin" changeset="523263">
    <nd ref="266911069"/>
    <nd ref="266911074"/>
    <nd ref="266911075"/>
    <nd ref="266911076"/>
    <nd ref="266911077"/>
    <tag k="highway" v="residential"/>
    <tag k="name" v="Merrett Crescent"/>
  </way>
  <way id="24548423" version="2" timestamp="2010-02-04T15:16:23Z" uid="7617" user="Franc" changeset="3791011">
    <nd ref="266911069"/>
    <nd ref="266911074"/>
    <nd ref="629024481"/>
    <nd ref="266911075"/>
    <nd ref="629024480"/>
    <nd ref="266911076"/>
    <nd ref="266911077"/>
    <tag k="highway" v="residential"/>
    <tag k="name" v="Merrett Crescent"/>
  </way>
  <way id="24548423" version="3" timestamp="2010-07-08T02:32:40Z" uid="74617" user="JohnSmith" changeset="5163091">
    <nd ref="266911069"/>
    <nd ref="266911074"/>
    <nd ref="629024481"/>
    <nd ref="266911075"/>
    <nd ref="629024480"/>
    <nd ref="266911076"/>
    <nd ref="266911077"/>
    <tag k="highway" v="residential"/>
    <tag k="maxspeed" v="50"/>
    <tag k="maxspeed:source" v="default residential speed limit in Australia"/>
    <tag k="name" v="Merrett Crescent"/>
  </way>
  <way id="24548459" version="13" timestamp="2010-03-22T05:42:06Z" uid="20587" user="balrog-kun" changeset="4199043">
    <nd ref="38779020"/>
    <nd ref="38779018"/>
    <nd ref="38779016"/>
    <nd ref="38779015"/>
    <nd ref="38755854"/>
    <nd ref="38779012"/>
    <nd ref="266930136"/>
    <nd ref="266930137"/>
    <nd ref="38779010"/>
    <nd ref="38779008"/>
    <nd ref="38776284"/>
    <nd ref="266930432"/>
    <nd ref="38779006"/>
    <nd ref="38758207"/>
    <nd ref="266930438"/>
    <nd ref="266930439"/>
    <nd ref="38779004"/>
    <nd ref="38779003"/>
    <nd ref="38779001"/>
    <nd ref="38778999"/>
    <nd ref="38776297"/>
    <nd ref="38778997"/>
    <nd ref="38771561"/>
    <nd ref="38778994"/>
    <nd ref="38778992"/>
    <nd ref="38778989"/>
    <nd ref="38778987"/>
    <nd ref="38778985"/>
    <nd ref="266911337"/>
    <nd ref="38778983"/>
    <nd ref="38778981"/>
    <nd ref="38742377"/>
    <tag k="created_by" v="Potlatch 0.9a"/>
    <tag k="highway" v="residential"/>
    <tag k="name" v="Northeast Estate Drive"/>
    <tag k="tiger:cfcc" v="A41"/>
    <tag k="tiger:county" v="Washington, OR"/>
    <tag k="tiger:name_base" v="Estate"/>
    <tag k="tiger:name_direction_prefix" v="NE"/>
    <tag k="tiger:reviewed" v="no"/>
    <tag k="tiger:separated" v="no"/>
    <tag k="tiger:source" v="tiger_import_dch_v0.6_20070808"/>
    <tag k="tiger:tlid" v="158210281:158210282:158210284:158210287:158210290:158210291:158210297:158210257"/>
  </way>
  <way id="24548485" version="7" timestamp="2009-07-25T04:15:59Z" uid="74617" user="JohnSmith" changeset="1930637">
    <nd ref="266911852"/>
    <nd ref="266911853"/>
    <nd ref="266911547"/>
    <nd ref="266911548"/>
    <nd ref="266911549"/>
    <tag k="highway" v="motorway_link"/>
    <tag k="name" v="EastLink Onramp"/>
    <tag k="oneway" v="yes"/>
    <tag k="toll" v="yes"/>
  </way>
  <way id="24548485" version="10" timestamp="2011-03-22T12:09:52Z" uid="4467" user="Rosscoe" changeset="7636455"/>
  <way id="24548498" version="7" timestamp="2009-07-25T04:16:00Z" uid="74617" user="JohnSmith" changeset="1930637">
    <nd ref="266911541"/>
    <nd ref="266911542"/>
    <nd ref="266911543"/>
    <nd ref="266911544"/>
    <nd ref="266911891"/>
    <tag k="highway" v="motorway_link"/>
    <tag k="name" v="Police Road Offramp"/>
    <tag k="oneway" v="yes"/>
  </way>
  <way id="24548498" version="10" timestamp="2011-03-22T12:09:52Z" uid="4467" user="Rosscoe" changeset="7636455"/>
  <way id="24548511" version="9" timestamp="2009-07-25T04:16:03Z" uid="74617" user="JohnSmith" changeset="1930637">
    <nd ref="266914809"/>
    <nd ref="266911503"/>
    <nd ref="266911630"/>
    <nd ref="266911504"/>
    <nd ref="266911505"/>
    <nd ref="266911506"/>
    <nd ref="266911507"/>
    <nd ref="266911508"/>
    <nd ref="266911509"/>
    <nd ref="266911989"/>
    <tag k="highway" v="motorway_link"/>
    <tag k="name" v="Monash Freeway Onramp"/>
    <tag k="oneway" v="yes"/>
  </way>
  <way id="24548516" version="8" timestamp="2009-07-25T04:15:52Z" uid="74617" user="JohnSmith" changeset="1930637">
    <nd ref="273689414"/>
    <nd ref="273689476"/>
    <nd ref="266911541"/>
    <nd ref="266911540"/>
    <nd ref="266914809"/>
    <nd ref="266911539"/>
    <nd ref="275175944"/>
    <tag k="highway" v="motorway"/>
    <tag k="maxspeed" v="100"/>
    <tag k="name" v="EastLink"/>
    <tag k="oneway" v="yes"/>
    <tag k="ref" v="M3"/>
    <tag k="toll" v="yes"/>
  </way>
  <way id="24548516" version="9" timestamp="2010-04-05T08:41:18Z" uid="74617" user="JohnSmith" changeset="4330247">
    <nd ref="273689414"/>
    <nd ref="273689476"/>
    <nd ref="266911541"/>
    <nd ref="266911540"/>
    <nd ref="266914809"/>
    <nd ref="266911539"/>
    <nd ref="275175944"/>
    <tag k="highway" v="motorway"/>
    <tag k="maxspeed" v="100"/>
    <tag k="name" v="EastLink"/>
    <tag k="oneway" v="yes"/>
    <tag k="toll" v="yes"/>
  </way>
  <way id="24548530" version="3" timestamp="2008-07-05T23:21:27Z" uid="6975" user="ulfl" changeset="404092">
    <nd ref="266910850"/>
    <nd ref="266910851"/>
    <nd ref="266910852"/>
    <nd ref="266910853"/>
    <nd ref="266911997"/>
    <nd ref="266911996"/>
    <nd ref="266910850"/>
    <tag k="amenity" v="parking"/>
    <tag k="layer" v="1"/>
    <tag k="name" v="Technologiezentrum Eisenstadt"/>
  </way>
  <way id="24548535" version="3" timestamp="2008-07-05T23:21:19Z" uid="6975" user="ulfl" changeset="404092">
    <nd ref="259443356"/>
    <nd ref="267020244"/>
    <nd ref="266910849"/>
    <nd ref="266910848"/>
    <nd ref="266910845"/>
    <nd ref="266910846"/>
    <nd ref="266910847"/>
    <nd ref="266910848"/>
    <tag k="highway" v="service"/>
    <tag k="layer" v="2"/>
    <tag k="name" v="Technologie Zentrum Parkplatz"/>
  </way>
  <way id="24548580" version="6" timestamp="2011-03-22T12:09:37Z" uid="4467" user="Rosscoe" changeset="7636455">
    <nd ref="266911630"/>
    <nd ref="266911477"/>
    <nd ref="266911476"/>
    <nd ref="266911475"/>
    <tag k="highway" v="motorway_link"/>
    <tag k="name" v="Monash Freeway Onramp"/>
    <tag k="oneway" v="yes"/>
  </way>
  <way id="24548610" version="4" timestamp="2010-06-29T19:12:46Z" uid="74617" user="JohnSmith" changeset="5108182">
    <nd ref="266912689"/>
    <nd ref="266912690"/>
    <nd ref="266912691"/>
    <nd ref="266912692"/>
    <nd ref="266912689"/>
    <tag k="fixme" v="sport=football is ambiguous, see http://wiki.osm.org/wiki/Football for more details"/>
    <tag k="leisure" v="pitch"/>
    <tag k="size" v="small"/>
    <tag k="sport" v="football"/>
    <tag k="surface" v="synthetic grass"/>
  </way>
  <way id="24548627" version="3" timestamp="2010-04-04T23:24:01Z" uid="74617" user="JohnSmith" changeset="4327637">
    <nd ref="27166770"/>
    <nd ref="27166791"/>
    <tag k="highway" v="motorway"/>
    <tag k="maxspeed" v="100"/>
    <tag k="name" v="Monash Freeway"/>
    <tag k="oneway" v="yes"/>
    <tag k="ref" v="M1"/>
  </way>
  <way id="24548627" version="4" timestamp="2010-04-05T08:31:31Z" uid="74617" user="JohnSmith" changeset="4330247">
    <nd ref="27166770"/>
    <nd ref="27166791"/>
    <tag k="highway" v="motorway"/>
    <tag k="maxspeed" v="100"/>
    <tag k="name" v="Monash Freeway"/>
    <tag k="oneway" v="yes"/>
  </way>
  <way id="24548630" version="4" timestamp="2010-04-04T23:24:00Z" uid="74617" user="JohnSmith" changeset="4327637">
    <nd ref="27166796"/>
    <nd ref="27166770"/>
    <tag k="bridge" v="yes"/>
    <tag k="highway" v="motorway"/>
    <tag k="layer" v="1"/>
    <tag k="maxspeed" v="100"/>
    <tag k="name" v="Monash Freeway"/>
    <tag k="oneway" v="yes"/>
    <tag k="ref" v="M1"/>
  </way>
  <way id="24548630" version="5" timestamp="2010-04-05T08:31:14Z" uid="74617" user="JohnSmith" changeset="4330247">
    <nd ref="27166796"/>
    <nd ref="27166770"/>
    <tag k="bridge" v="yes"/>
    <tag k="highway" v="motorway"/>
    <tag k="layer" v="1"/>
    <tag k="maxspeed" v="100"/>
    <tag k="name" v="Monash Freeway"/>
    <tag k="oneway" v="yes"/>
  </way>
  <way id="24548631" version="8" timestamp="2010-04-04T23:24:05Z" uid="74617" user="JohnSmith" changeset="4327637">
    <nd ref="27166799"/>
    <nd ref="32313302"/>
    <nd ref="266912853"/>
    <nd ref="266915051"/>
    <tag k="highway" v="motorway"/>
    <tag k="maxspeed" v="100"/>
    <tag k="name" v="Monash Freeway"/>
    <tag k="oneway" v="yes"/>
    <tag k="ref" v="M1"/>
  </way>
  <way id="24548631" version="9" timestamp="2010-04-05T08:31:32Z" uid="74617" user="JohnSmith" changeset="4330247">
    <nd ref="27166799"/>
    <nd ref="32313302"/>
    <nd ref="266912853"/>
    <nd ref="266915051"/>
    <tag k="highway" v="motorway"/>
    <tag k="maxspeed" v="100"/>
    <tag k="name" v="Monash Freeway"/>
    <tag k="oneway" v="yes"/>
  </way>
  <way id="24548632" version="4" timestamp="2010-04-04T23:24:05Z" uid="74617" user="JohnSmith" changeset="4327637">
    <nd ref="27166795"/>
    <nd ref="27166799"/>
    <tag k="bridge" v="yes"/>
    <tag k="highway" v="motorway"/>
    <tag k="layer" v="1"/>
    <tag k="maxspeed" v="100"/>
    <tag k="name" v="Monash Freeway"/>
    <tag k="oneway" v="yes"/>
    <tag k="ref" v="M1"/>
  </way>
  <way id="24548632" version="5" timestamp="2010-04-05T08:31:32Z" uid="74617" user="JohnSmith" changeset="4330247">
    <nd ref="27166795"/>
    <nd ref="27166799"/>
    <tag k="bridge" v="yes"/>
    <tag k="highway" v="motorway"/>
    <tag k="layer" v="1"/>
    <tag k="maxspeed" v="100"/>
    <tag k="name" v="Monash Freeway"/>
    <tag k="oneway" v="yes"/>
  </way>
  <way id="24548655" version="5" timestamp="2010-04-04T23:24:05Z" uid="74617" user="JohnSmith" changeset="4327637">
    <nd ref="266912866"/>
    <nd ref="266912871"/>
    <tag k="bridge" v="yes"/>
    <tag k="highway" v="motorway"/>
    <tag k="layer" v="1"/>
    <tag k="maxspeed" v="100"/>
    <tag k="name" v="Monash Freeway"/>
    <tag k="oneway" v="yes"/>
    <tag k="ref" v="M1"/>
  </way>
  <way id="24548655" version="6" timestamp="2010-04-05T08:31:33Z" uid="74617" user="JohnSmith" changeset="4330247">
    <nd ref="266912866"/>
    <nd ref="266912871"/>
    <tag k="bridge" v="yes"/>
    <tag k="highway" v="motorway"/>
    <tag k="layer" v="1"/>
    <tag k="maxspeed" v="100"/>
    <tag k="name" v="Monash Freeway"/>
    <tag k="oneway" v="yes"/>
  </way>
  <way id="24548658" version="5" timestamp="2010-04-04T23:24:05Z" uid="74617" user="JohnSmith" changeset="4327637">
    <nd ref="266912871"/>
    <nd ref="27166803"/>
    <tag k="highway" v="motorway"/>
    <tag k="maxspeed" v="100"/>
    <tag k="name" v="Monash Freeway"/>
    <tag k="oneway" v="yes"/>
    <tag k="ref" v="M1"/>
  </way>
  <way id="24548658" version="6" timestamp="2010-04-05T08:31:33Z" uid="74617" user="JohnSmith" changeset="4330247">
    <nd ref="266912871"/>
    <nd ref="27166803"/>
    <tag k="highway" v="motorway"/>
    <tag k="maxspeed" v="100"/>
    <tag k="name" v="Monash Freeway"/>
    <tag k="oneway" v="yes"/>
  </way>
  <way id="24548659" version="4" timestamp="2010-04-04T23:24:04Z" uid="74617" user="JohnSmith" changeset="4327637">
    <nd ref="266912872"/>
    <nd ref="266912877"/>
    <tag k="bridge" v="yes"/>
    <tag k="highway" v="motorway"/>
    <tag k="layer" v="1"/>
    <tag k="maxspeed" v="100"/>
    <tag k="name" v="Monash Freeway"/>
    <tag k="oneway" v="yes"/>
    <tag k="ref" v="M1"/>
  </way>
  <way id="24548659" version="5" timestamp="2010-04-05T08:31:33Z" uid="74617" user="JohnSmith" changeset="4330247">
    <nd ref="266912872"/>
    <nd ref="266912877"/>
    <tag k="bridge" v="yes"/>
    <tag k="highway" v="motorway"/>
    <tag k="layer" v="1"/>
    <tag k="maxspeed" v="100"/>
    <tag k="name" v="Monash Freeway"/>
    <tag k="oneway" v="yes"/>
  </way>
  <way id="24548661" version="5" timestamp="2010-04-04T23:24:05Z" uid="74617" user="JohnSmith" changeset="4327637">
    <nd ref="266912877"/>
    <nd ref="266915044"/>
    <tag k="highway" v="motorway"/>
    <tag k="maxspeed" v="100"/>
    <tag k="name" v="Monash Freeway"/>
    <tag k="oneway" v="yes"/>
    <tag k="ref" v="M1"/>
  </way>
  <way id="24548661" version="6" timestamp="2010-04-05T08:31:32Z" uid="74617" user="JohnSmith" changeset="4330247">
    <nd ref="266912877"/>
    <nd ref="266915044"/>
    <tag k="highway" v="motorway"/>
    <tag k="maxspeed" v="100"/>
    <tag k="name" v="Monash Freeway"/>
    <tag k="oneway" v="yes"/>
  </way>
  <way id="24548662" version="6" timestamp="2010-03-22T05:42:07Z" uid="20587" user="balrog-kun" changeset="4199043">
    <nd ref="38771942"/>
    <nd ref="301087488"/>
    <nd ref="38747513"/>
    <nd ref="38833394"/>
    <nd ref="38833397"/>
    <nd ref="38786879"/>
    <nd ref="38833400"/>
    <nd ref="38828854"/>
    <nd ref="38753316"/>
    <nd ref="38807699"/>
    <nd ref="38774551"/>
    <nd ref="266912879"/>
    <nd ref="266912880"/>
    <nd ref="266912881"/>
    <nd ref="266912882"/>
    <nd ref="266912883"/>
    <tag k="created_by" v="Potlatch 0.10f"/>
    <tag k="highway" v="residential"/>
    <tag k="name" v="Southeast Washington Street"/>
    <tag k="oneway" v="yes"/>
  </way>
  <way id="24548679" version="4" timestamp="2010-03-22T05:42:07Z" uid="20587" user="balrog-kun" changeset="4199043">
    <nd ref="266912908"/>
    <nd ref="266912937"/>
    <nd ref="266912938"/>
    <nd ref="266912939"/>
    <tag k="created_by" v="Potlatch 0.10f"/>
    <tag k="highway" v="residential"/>
    <tag k="name" v="Southeast Washington Street"/>
    <tag k="oneway" v="yes"/>
  </way>
  <way id="24548684" version="6" timestamp="2010-03-22T05:42:08Z" uid="20587" user="balrog-kun" changeset="4199043">
    <nd ref="334057763"/>
    <nd ref="334057765"/>
    <nd ref="334057889"/>
    <nd ref="334057766"/>
    <nd ref="334057768"/>
    <tag k="access" v="no"/>
    <tag k="emergency" v="yes"/>
    <tag k="highway" v="residential"/>
    <tag k="name" v="Southeast Washington Street"/>
  </way>
  <way id="24548704" version="1" timestamp="2008-05-26T06:20:22Z" uid="30201" user="rrankin" changeset="523263">
    <nd ref="29375498"/>
    <nd ref="266913144"/>
    <nd ref="266913146"/>
    <nd ref="266913150"/>
    <tag k="highway" v="residential"/>
    <tag k="name" v="Pandora Street"/>
  </way>
  <way id="24548704" version="2" timestamp="2010-07-08T02:40:09Z" uid="74617" user="JohnSmith" changeset="5163091">
    <nd ref="29375498"/>
    <nd ref="266913144"/>
    <nd ref="266913146"/>
    <nd ref="266913150"/>
    <tag k="highway" v="residential"/>
    <tag k="maxspeed" v="50"/>
    <tag k="maxspeed:source" v="default residential speed limit in Australia"/>
    <tag k="name" v="Pandora Street"/>
  </way>
  <way id="24548704" version="3" timestamp="2010-11-05T22:13:23Z" uid="7617" user="Franc" changeset="6298795">
    <nd ref="29375498"/>
    <nd ref="977983379"/>
    <tag k="highway" v="residential"/>
    <tag k="maxspeed" v="50"/>
    <tag k="maxspeed:source" v="default residential speed limit in Australia"/>
    <tag k="name" v="Pandora Street"/>
  </way>
  <way id="24548705" version="1" timestamp="2008-05-26T06:20:23Z" uid="30201" user="rrankin" changeset="523263">
    <nd ref="266913149"/>
    <nd ref="266913147"/>
    <nd ref="266913148"/>
    <nd ref="29375497"/>
    <tag k="highway" v="residential"/>
    <tag k="name" v="Tempe Street"/>
  </way>
  <way id="24548705" version="2" timestamp="2010-07-08T02:32:38Z" uid="74617" user="JohnSmith" changeset="5163091">
    <nd ref="266913149"/>
    <nd ref="266913147"/>
    <nd ref="266913148"/>
    <nd ref="29375497"/>
    <tag k="highway" v="residential"/>
    <tag k="maxspeed" v="50"/>
    <tag k="maxspeed:source" v="default residential speed limit in Australia"/>
    <tag k="name" v="Tempe Street"/>
  </way>
  <way id="24548705" version="3" timestamp="2010-11-05T22:12:56Z" uid="7617" user="Franc" changeset="6298795">
    <nd ref="266913149"/>
    <nd ref="266913147"/>
    <nd ref="977983323"/>
    <tag k="highway" v="residential"/>
    <tag k="maxspeed" v="50"/>
    <tag k="maxspeed:source" v="default residential speed limit in Australia"/>
    <tag k="name" v="Tempe Street"/>
  </way>
  <way id="24548707" version="1" timestamp="2008-05-26T06:20:24Z" uid="30201" user="rrankin" changeset="523263">
    <nd ref="266913151"/>
    <nd ref="266913152"/>
    <nd ref="266913153"/>
    <nd ref="266913154"/>
    <nd ref="266913155"/>
    <nd ref="266913156"/>
    <nd ref="266909975"/>
    <tag k="highway" v="residential"/>
    <tag k="name" v="Rea Street"/>
  </way>
  <way id="24548707" version="2" timestamp="2010-07-08T02:38:31Z" uid="74617" user="JohnSmith" changeset="5163091">
    <nd ref="266913151"/>
    <nd ref="266913152"/>
    <nd ref="266913153"/>
    <nd ref="266913154"/>
    <nd ref="266913155"/>
    <nd ref="266913156"/>
    <nd ref="266909975"/>
    <tag k="highway" v="residential"/>
    <tag k="maxspeed" v="50"/>
    <tag k="maxspeed:source" v="default residential speed limit in Australia"/>
    <tag k="name" v="Rea Street"/>
  </way>
  <way id="24548707" version="3" timestamp="2010-11-05T22:13:13Z" uid="7617" user="Franc" changeset="6298795">
    <nd ref="266913151"/>
    <nd ref="977983608"/>
    <nd ref="977983347"/>
    <nd ref="266913152"/>
    <nd ref="266913153"/>
    <nd ref="266913154"/>
    <nd ref="266913155"/>
    <nd ref="977983683"/>
    <nd ref="266913156"/>
    <nd ref="266909975"/>
    <tag k="highway" v="residential"/>
    <tag k="maxspeed" v="50"/>
    <tag k="maxspeed:source" v="default residential speed limit in Australia"/>
    <tag k="name" v="Rea Street"/>
  </way>
  <way id="24548709" version="1" timestamp="2008-05-26T06:20:25Z" uid="30201" user="rrankin" changeset="523263">
    <nd ref="266913157"/>
    <nd ref="266913159"/>
    <nd ref="266913158"/>
    <tag k="highway" v="residential"/>
    <tag k="name" v="Karuah Street"/>
  </way>
  <way id="24548709" version="2" timestamp="2010-07-08T02:40:33Z" uid="74617" user="JohnSmith" changeset="5163091">
    <nd ref="266913157"/>
    <nd ref="266913159"/>
    <nd ref="266913158"/>
    <tag k="highway" v="residential"/>
    <tag k="maxspeed" v="50"/>
    <tag k="maxspeed:source" v="default residential speed limit in Australia"/>
    <tag k="name" v="Karuah Street"/>
  </way>
  <way id="24548710" version="1" timestamp="2008-05-26T06:20:25Z" uid="30201" user="rrankin" changeset="523263">
    <nd ref="266913159"/>
    <nd ref="266913160"/>
    <tag k="highway" v="service"/>
  </way>
  <way id="24548710" version="2" timestamp="2010-11-05T22:13:08Z" uid="7617" user="Franc" changeset="6298795">
    <nd ref="266913159"/>
    <nd ref="266913160"/>
    <tag k="highway" v="service"/>
    <tag k="service" v="parking_aisle"/>
  </way>
  <way id="24548711" version="1" timestamp="2008-05-26T06:20:26Z" uid="30201" user="rrankin" changeset="523263">
    <nd ref="266913161"/>
    <nd ref="266913163"/>
    <tag k="highway" v="residential"/>
    <tag k="name" v="Valencia Street"/>
  </way>
  <way id="24548711" version="2" timestamp="2010-07-08T02:37:13Z" uid="74617" user="JohnSmith" changeset="5163091">
    <nd ref="266913161"/>
    <nd ref="266913163"/>
    <tag k="highway" v="residential"/>
    <tag k="maxspeed" v="50"/>
    <tag k="maxspeed:source" v="default residential speed limit in Australia"/>
    <tag k="name" v="Valencia Street"/>
  </way>
  <way id="24548712" version="1" timestamp="2008-05-26T06:20:27Z" uid="30201" user="rrankin" changeset="523263">
    <nd ref="229198931"/>
    <nd ref="266913164"/>
    <nd ref="266913165"/>
    <nd ref="266913166"/>
    <nd ref="266913171"/>
    <tag k="highway" v="residential"/>
    <tag k="name" v="Hewitt Street"/>
  </way>
  <way id="24548712" version="2" timestamp="2010-07-08T02:37:45Z" uid="74617" user="JohnSmith" changeset="5163091">
    <nd ref="229198931"/>
    <nd ref="266913164"/>
    <nd ref="266913165"/>
    <nd ref="266913166"/>
    <nd ref="266913171"/>
    <tag k="highway" v="residential"/>
    <tag k="maxspeed" v="50"/>
    <tag k="maxspeed:source" v="default residential speed limit in Australia"/>
    <tag k="name" v="Hewitt Street"/>
  </way>
  <way id="24548714" version="1" timestamp="2008-05-26T06:20:28Z" uid="30201" user="rrankin" changeset="523263">
    <nd ref="266913166"/>
    <nd ref="266913177"/>
    <tag k="highway" v="residential"/>
    <tag k="name" v="Wolli Place"/>
  </way>
  <way id="24548714" version="2" timestamp="2010-07-08T02:33:26Z" uid="74617" user="JohnSmith" changeset="5163091">
    <nd ref="266913166"/>
    <nd ref="266913177"/>
    <tag k="highway" v="residential"/>
    <tag k="maxspeed" v="50"/>
    <tag k="maxspeed:source" v="default residential speed limit in Australia"/>
    <tag k="name" v="Wolli Place"/>
  </way>
  <way id="24548715" version="1" timestamp="2008-05-26T06:20:29Z" uid="30201" user="rrankin" changeset="523263">
    <nd ref="266913183"/>
    <nd ref="266913186"/>
    <nd ref="266913187"/>
    <nd ref="266913188"/>
    <nd ref="266913189"/>
    <nd ref="266913156"/>
    <tag k="highway" v="residential"/>
    <tag k="name" v="Cowl Street"/>
  </way>
  <way id="24548715" version="2" timestamp="2010-07-08T02:35:48Z" uid="74617" user="JohnSmith" changeset="5163091">
    <nd ref="266913183"/>
    <nd ref="266913186"/>
    <nd ref="266913187"/>
    <nd ref="266913188"/>
    <nd ref="266913189"/>
    <nd ref="266913156"/>
    <tag k="highway" v="residential"/>
    <tag k="maxspeed" v="50"/>
    <tag k="maxspeed:source" v="default residential speed limit in Australia"/>
    <tag k="name" v="Cowl Street"/>
  </way>
  <way id="24548715" version="3" timestamp="2010-11-05T22:13:20Z" uid="7617" user="Franc" changeset="6298795">
    <nd ref="266913183"/>
    <nd ref="977983400"/>
    <nd ref="977983272"/>
    <nd ref="266913186"/>
    <nd ref="266913187"/>
    <nd ref="977983658"/>
    <nd ref="266913188"/>
    <nd ref="977983442"/>
    <nd ref="266913189"/>
    <nd ref="266913156"/>
    <tag k="highway" v="residential"/>
    <tag k="maxspeed" v="50"/>
    <tag k="maxspeed:source" v="default residential speed limit in Australia"/>
    <tag k="name" v="Cowl Street"/>
  </way>
  <way id="24548717" version="7" timestamp="2008-09-16T10:14:17Z" uid="1066" user="pavel" changeset="646258">
    <nd ref="266913412"/>
    <nd ref="29745904"/>
    <tag k="created_by" v="Potlatch 0.9c"/>
    <tag k="highway" v="residential"/>
    <tag k="name" v="Na hebenech I"/>
    <tag k="name:source" v="nameit/uir-adr"/>
    <tag k="oneway" v="yes"/>
  </way>
  <way id="24548718" version="7" timestamp="2008-09-16T10:11:00Z" uid="1066" user="pavel" changeset="646258">
    <nd ref="266913412"/>
    <nd ref="266913209"/>
    <nd ref="266913210"/>
    <nd ref="266913211"/>
    <nd ref="266913616"/>
    <tag k="created_by" v="Potlatch 0.9a"/>
    <tag k="highway" v="residential"/>
    <tag k="name" v="Na hebenech I"/>
    <tag k="name:source" v="nameit/uir-adr"/>
  </way>
  <way id="24548738" version="5" timestamp="2008-11-09T00:20:03Z" uid="68769" user="david lynch" changeset="720676">
    <nd ref="266913266"/>
    <nd ref="266913267"/>
    <nd ref="266913268"/>
    <nd ref="266913269"/>
    <nd ref="266913326"/>
    <nd ref="266913270"/>
    <nd ref="266913271"/>
    <nd ref="266913272"/>
    <nd ref="266913273"/>
    <nd ref="266913274"/>
    <nd ref="152901888"/>
    <tag k="created_by" v="Potlatch 0.10f"/>
    <tag k="highway" v="tertiary"/>
  </way>
  <way id="24548765" version="7" timestamp="2010-04-26T05:43:43Z" uid="4467" user="Rosscoe" changeset="4528463">
    <nd ref="266912958"/>
    <nd ref="258843257"/>
    <nd ref="703550641"/>
    <nd ref="706931086"/>
    <tag k="highway" v="tertiary"/>
    <tag k="name" v="Browns Road"/>
  </way>
  <way id="24548780" version="2" timestamp="2008-07-10T01:23:27Z" uid="6975" user="ulfl" changeset="448234">
    <nd ref="257085530"/>
    <nd ref="266914190"/>
    <nd ref="266914191"/>
    <nd ref="266914192"/>
    <nd ref="257085514"/>
    <nd ref="257085530"/>
    <tag k="landuse" v="basin"/>
  </way>
  <way id="24548807" version="3" timestamp="2010-04-04T23:24:03Z" uid="74617" user="JohnSmith" changeset="4327637">
    <nd ref="27166806"/>
    <nd ref="266912028"/>
    <nd ref="27166804"/>
    <tag k="bridge" v="yes"/>
    <tag k="highway" v="motorway"/>
    <tag k="layer" v="1"/>
    <tag k="maxspeed" v="100"/>
    <tag k="name" v="Monash Freeway"/>
    <tag k="oneway" v="yes"/>
    <tag k="ref" v="M1"/>
  </way>
  <way id="24548807" version="4" timestamp="2010-04-05T08:31:34Z" uid="74617" user="JohnSmith" changeset="4330247">
    <nd ref="27166806"/>
    <nd ref="266912028"/>
    <nd ref="27166804"/>
    <tag k="bridge" v="yes"/>
    <tag k="highway" v="motorway"/>
    <tag k="layer" v="1"/>
    <tag k="maxspeed" v="100"/>
    <tag k="name" v="Monash Freeway"/>
    <tag k="oneway" v="yes"/>
  </way>
  <way id="24548808" version="2" timestamp="2010-04-04T23:24:04Z" uid="74617" user="JohnSmith" changeset="4327637">
    <nd ref="27166804"/>
    <nd ref="266912872"/>
    <tag k="highway" v="motorway"/>
    <tag k="maxspeed" v="100"/>
    <tag k="name" v="Monash Freeway"/>
    <tag k="oneway" v="yes"/>
    <tag k="ref" v="M1"/>
  </way>
  <way id="24548808" version="3" timestamp="2010-04-05T08:31:34Z" uid="74617" user="JohnSmith" changeset="4330247">
    <nd ref="27166804"/>
    <nd ref="266912872"/>
    <tag k="highway" v="motorway"/>
    <tag k="maxspeed" v="100"/>
    <tag k="name" v="Monash Freeway"/>
    <tag k="oneway" v="yes"/>
  </way>
  <way id="24548810" version="4" timestamp="2010-04-04T23:24:04Z" uid="74617" user="JohnSmith" changeset="4327637">
    <nd ref="27166805"/>
    <nd ref="266911991"/>
    <nd ref="266911956"/>
    <nd ref="27166876"/>
    <nd ref="27166910"/>
    <nd ref="27167388"/>
    <tag k="highway" v="motorway"/>
    <tag k="maxspeed" v="100"/>
    <tag k="name" v="Monash Freeway"/>
    <tag k="oneway" v="yes"/>
    <tag k="ref" v="M1"/>
  </way>
  <way id="24548810" version="5" timestamp="2010-04-05T08:31:35Z" uid="74617" user="JohnSmith" changeset="4330247">
    <nd ref="27166805"/>
    <nd ref="266911991"/>
    <nd ref="266911956"/>
    <nd ref="27166876"/>
    <nd ref="27166910"/>
    <nd ref="27167388"/>
    <tag k="highway" v="motorway"/>
    <tag k="maxspeed" v="100"/>
    <tag k="name" v="Monash Freeway"/>
    <tag k="oneway" v="yes"/>
  </way>
  <way id="24548811" version="2" timestamp="2010-04-04T23:24:04Z" uid="74617" user="JohnSmith" changeset="4327637">
    <nd ref="27166803"/>
    <nd ref="27166805"/>
    <tag k="bridge" v="yes"/>
    <tag k="highway" v="motorway"/>
    <tag k="layer" v="1"/>
    <tag k="maxspeed" v="100"/>
    <tag k="name" v="Monash Freeway"/>
    <tag k="oneway" v="yes"/>
    <tag k="ref" v="M1"/>
  </way>
  <way id="24548811" version="3" timestamp="2010-04-05T08:31:35Z" uid="74617" user="JohnSmith" changeset="4330247">
    <nd ref="27166803"/>
    <nd ref="27166805"/>
    <tag k="bridge" v="yes"/>
    <tag k="highway" v="motorway"/>
    <tag k="layer" v="1"/>
    <tag k="maxspeed" v="100"/>
    <tag k="name" v="Monash Freeway"/>
    <tag k="oneway" v="yes"/>
  </way>
  <way id="24548823" version="6" timestamp="2010-04-05T08:31:33Z" uid="74617" user="JohnSmith" changeset="4330247">
    <nd ref="266915051"/>
    <nd ref="266915052"/>
    <nd ref="266912866"/>
    <tag k="bridge" v="yes"/>
    <tag k="highway" v="motorway"/>
    <tag k="layer" v="1"/>
    <tag k="maxspeed" v="100"/>
    <tag k="name" v="Monash Freeway"/>
    <tag k="oneway" v="yes"/>
  </way>
  <way id="24548825" version="4" timestamp="2010-04-04T23:24:05Z" uid="74617" user="JohnSmith" changeset="4327637">
    <nd ref="266915044"/>
    <nd ref="266915045"/>
    <tag k="bridge" v="yes"/>
    <tag k="highway" v="motorway"/>
    <tag k="layer" v="1"/>
    <tag k="maxspeed" v="100"/>
    <tag k="name" v="Monash Freeway"/>
    <tag k="oneway" v="yes"/>
    <tag k="ref" v="M1"/>
  </way>
  <way id="24548825" version="5" timestamp="2010-04-05T08:31:33Z" uid="74617" user="JohnSmith" changeset="4330247">
    <nd ref="266915044"/>
    <nd ref="266915045"/>
    <tag k="bridge" v="yes"/>
    <tag k="highway" v="motorway"/>
    <tag k="layer" v="1"/>
    <tag k="maxspeed" v="100"/>
    <tag k="name" v="Monash Freeway"/>
    <tag k="oneway" v="yes"/>
  </way>
  <way id="24548842" version="4" timestamp="2009-07-25T04:16:02Z" uid="74617" user="JohnSmith" changeset="1930637">
    <nd ref="266915278"/>
    <nd ref="266915279"/>
    <tag k="cycleway" v="track"/>
    <tag k="foot" v="yes"/>
    <tag k="highway" v="cycleway"/>
    <tag k="layer" v="-1"/>
    <tag k="name" v="EastLink Trail"/>
    <tag k="surface" v="paved"/>
    <tag k="tunnel" v="yes"/>
  </way>
  <way id="24548843" version="3" timestamp="2009-07-25T04:15:59Z" uid="74617" user="JohnSmith" changeset="1930637">
    <nd ref="246523437"/>
    <nd ref="266915281"/>
    <nd ref="266915282"/>
    <nd ref="266915283"/>
    <nd ref="266915284"/>
    <nd ref="266915278"/>
    <tag k="cycleway" v="track"/>
    <tag k="foot" v="yes"/>
    <tag k="highway" v="cycleway"/>
    <tag k="name" v="EastLink Trail"/>
    <tag k="surface" v="paved"/>
  </way>
  <way id="24548844" version="3" timestamp="2010-04-04T23:24:05Z" uid="74617" user="JohnSmith" changeset="4327637">
    <nd ref="266915045"/>
    <nd ref="266912629"/>
    <nd ref="27166796"/>
    <tag k="highway" v="motorway"/>
    <tag k="maxspeed" v="100"/>
    <tag k="name" v="Monash Freeway"/>
    <tag k="oneway" v="yes"/>
    <tag k="ref" v="M1"/>
  </way>
  <way id="24548844" version="4" timestamp="2010-04-05T08:31:35Z" uid="74617" user="JohnSmith" changeset="4330247">
    <nd ref="266915045"/>
    <nd ref="266912629"/>
    <nd ref="27166796"/>
    <tag k="highway" v="motorway"/>
    <tag k="maxspeed" v="100"/>
    <tag k="name" v="Monash Freeway"/>
    <tag k="oneway" v="yes"/>
  </way>
  <way id="24548848" version="6" timestamp="2008-12-22T13:48:36Z" uid="43863" user="Rundling" changeset="547748"/>
  <way id="24548850" version="4" timestamp="2009-07-25T04:16:00Z" uid="74617" user="JohnSmith" changeset="1930637">
    <nd ref="266915357"/>
    <nd ref="266911891"/>
    <tag k="highway" v="primary"/>
    <tag k="name" v="Police Road"/>
    <tag k="ref" v="S16"/>
  </way>
  <way id="24548851" version="4" timestamp="2009-07-25T04:16:09Z" uid="74617" user="JohnSmith" changeset="1930637">
    <nd ref="266915374"/>
    <nd ref="266915357"/>
    <tag k="bridge" v="yes"/>
    <tag k="highway" v="primary"/>
    <tag k="layer" v="1"/>
    <tag k="name" v="Police Road"/>
    <tag k="ref" v="S16"/>
  </way>
  <way id="24548852" version="8" timestamp="2008-12-22T13:48:36Z" uid="43863" user="Rundling" changeset="547748"/>
  <way id="24548854" version="3" timestamp="2009-07-25T04:15:55Z" uid="74617" user="JohnSmith" changeset="1930637">
    <nd ref="266911891"/>
    <nd ref="27420730"/>
    <tag k="highway" v="secondary"/>
    <tag k="name" v="Police Road"/>
  </way>
  <way id="24548857" version="6" timestamp="2009-07-25T04:16:01Z" uid="74617" user="JohnSmith" changeset="1930637">
    <nd ref="266915753"/>
    <nd ref="246974564"/>
    <nd ref="246974565"/>
    <nd ref="246974566"/>
    <nd ref="246974568"/>
    <nd ref="246974569"/>
    <nd ref="246974570"/>
    <nd ref="246974571"/>
    <nd ref="246974572"/>
    <nd ref="266915784"/>
    <nd ref="266915783"/>
    <nd ref="246974573"/>
    <nd ref="266915765"/>
    <nd ref="246974574"/>
    <nd ref="246974575"/>
    <nd ref="246974681"/>
    <nd ref="246974682"/>
    <nd ref="246974683"/>
    <tag k="highway" v="residential"/>
    <tag k="name" v="Blanton Drive"/>
  </way>
  <way id="24548857" version="11" timestamp="2010-04-27T06:39:24Z" uid="4467" user="Rosscoe" changeset="4538302">
    <nd ref="266915753"/>
    <nd ref="246974564"/>
    <nd ref="597972814"/>
    <nd ref="597972801"/>
    <nd ref="613216938"/>
    <nd ref="613217867"/>
    <nd ref="597972730"/>
    <nd ref="246974565"/>
    <nd ref="246974568"/>
    <nd ref="597973025"/>
    <nd ref="246974569"/>
    <nd ref="246974571"/>
    <nd ref="246974572"/>
    <nd ref="266915784"/>
    <nd ref="266915783"/>
    <nd ref="246974573"/>
    <nd ref="597973030"/>
    <nd ref="266915765"/>
    <nd ref="597973033"/>
    <nd ref="246974574"/>
    <nd ref="246974575"/>
    <nd ref="246974681"/>
    <nd ref="246974682"/>
    <nd ref="246974683"/>
    <tag k="highway" v="residential"/>
    <tag k="name" v="Blanton Drive"/>
    <tag k="source" v="survey"/>
  </way>
  <way id="24548857" version="12" timestamp="2010-07-08T20:19:39Z" uid="74617" user="JohnSmith" changeset="5168688">
    <nd ref="266915753"/>
    <nd ref="246974564"/>
    <nd ref="597972814"/>
    <nd ref="597972801"/>
    <nd ref="613216938"/>
    <nd ref="613217867"/>
    <nd ref="597972730"/>
    <nd ref="246974565"/>
    <nd ref="246974568"/>
    <nd ref="597973025"/>
    <nd ref="246974569"/>
    <nd ref="246974571"/>
    <nd ref="246974572"/>
    <nd ref="266915784"/>
    <nd ref="266915783"/>
    <nd ref="246974573"/>
    <nd ref="597973030"/>
    <nd ref="266915765"/>
    <nd ref="597973033"/>
    <nd ref="246974574"/>
    <nd ref="246974575"/>
    <nd ref="246974681"/>
    <nd ref="246974682"/>
    <nd ref="246974683"/>
    <tag k="highway" v="residential"/>
    <tag k="maxspeed" v="50"/>
    <tag k="maxspeed:source" v="default residential speed limit in Australia"/>
    <tag k="name" v="Blanton Drive"/>
    <tag k="source" v="survey"/>
  </way>
  <way id="24548857" version="13" timestamp="2011-03-22T12:09:44Z" uid="4467" user="Rosscoe" changeset="7636455">
    <nd ref="266915753"/>
    <nd ref="246974564"/>
    <nd ref="597972814"/>
    <nd ref="597972801"/>
    <nd ref="613216938"/>
    <nd ref="613217867"/>
    <nd ref="597972730"/>
    <nd ref="246974565"/>
    <nd ref="1213130034"/>
    <tag k="highway" v="residential"/>
    <tag k="maxspeed" v="50"/>
    <tag k="name" v="Blanton Drive"/>
    <tag k="source" v="survey"/>
    <tag k="source:maxspeed" v="default residential speed limit in Australia"/>
  </way>
  <way id="24548875" version="5" timestamp="2009-07-25T04:15:59Z" uid="74617" user="JohnSmith" changeset="1930637">
    <nd ref="266915826"/>
    <nd ref="266915835"/>
    <nd ref="266915827"/>
    <tag k="highway" v="residential"/>
    <tag k="name" v="Police Road"/>
  </way>
  <way id="24548875" version="7" timestamp="2010-07-08T20:15:16Z" uid="74617" user="JohnSmith" changeset="5168688">
    <nd ref="266915826"/>
    <nd ref="266915835"/>
    <nd ref="597972775"/>
    <nd ref="266915827"/>
    <tag k="highway" v="residential"/>
    <tag k="maxspeed" v="50"/>
    <tag k="maxspeed:source" v="default residential speed limit in Australia"/>
    <tag k="name" v="Police Road"/>
  </way>
  <way id="24548875" version="8" timestamp="2011-03-22T12:09:39Z" uid="4467" user="Rosscoe" changeset="7636455">
    <nd ref="266915826"/>
    <nd ref="266915835"/>
    <nd ref="597972775"/>
    <nd ref="266915827"/>
    <tag k="highway" v="residential"/>
    <tag k="maxspeed" v="50"/>
    <tag k="name" v="Police Road"/>
    <tag k="source:maxspeed" v="default residential speed limit in Australia"/>
  </way>
  <way id="24548880" version="3" timestamp="2009-07-25T04:16:01Z" uid="74617" user="JohnSmith" changeset="1930637">
    <nd ref="266915835"/>
    <nd ref="266915883"/>
    <nd ref="266915884"/>
    <nd ref="266915885"/>
    <nd ref="266915886"/>
    <nd ref="266915887"/>
    <nd ref="266915888"/>
    <nd ref="266915889"/>
    <tag k="highway" v="residential"/>
    <tag k="name" v="Snowy Street"/>
  </way>
  <way id="24548880" version="4" timestamp="2010-07-08T20:17:10Z" uid="74617" user="JohnSmith" changeset="5168688">
    <nd ref="266915835"/>
    <nd ref="266915883"/>
    <nd ref="266915884"/>
    <nd ref="266915885"/>
    <nd ref="266915886"/>
    <nd ref="266915887"/>
    <nd ref="266915888"/>
    <nd ref="266915889"/>
    <tag k="highway" v="residential"/>
    <tag k="maxspeed" v="50"/>
    <tag k="maxspeed:source" v="default residential speed limit in Australia"/>
    <tag k="name" v="Snowy Street"/>
  </way>
  <way id="24548880" version="5" timestamp="2011-03-22T12:09:40Z" uid="4467" user="Rosscoe" changeset="7636455">
    <nd ref="266915835"/>
    <nd ref="266915883"/>
    <nd ref="266915884"/>
    <nd ref="266915885"/>
    <nd ref="266915886"/>
    <nd ref="266915887"/>
    <nd ref="266915888"/>
    <nd ref="266915889"/>
    <tag k="highway" v="residential"/>
    <tag k="maxspeed" v="50"/>
    <tag k="name" v="Snowy Street"/>
    <tag k="source:maxspeed" v="default residential speed limit in Australia"/>
  </way>
  <way id="24548910" version="2" timestamp="2009-07-25T04:15:56Z" uid="74617" user="JohnSmith" changeset="1930637">
    <nd ref="246974309"/>
    <nd ref="266916104"/>
    <tag k="highway" v="secondary"/>
  </way>
  <way id="24548910" version="6" timestamp="2011-03-22T12:09:38Z" uid="4467" user="Rosscoe" changeset="7636455">
    <nd ref="27420742"/>
    <nd ref="246974309"/>
    <nd ref="246974562"/>
    <nd ref="266916111"/>
    <nd ref="246974563"/>
    <nd ref="266915753"/>
    <nd ref="266915529"/>
    <nd ref="266915530"/>
    <tag k="highway" v="residential"/>
    <tag k="maxspeed" v="50"/>
    <tag k="name" v="Police Road"/>
    <tag k="source:maxspeed" v="default residential speed limit in Australia"/>
  </way>
  <way id="24548917" version="5" timestamp="2011-01-18T00:09:13Z" uid="23543" user="jkjk" changeset="7006076">
    <nd ref="266916388"/>
    <nd ref="266916297"/>
    <nd ref="266916298"/>
    <nd ref="266916390"/>
    <nd ref="266916391"/>
    <nd ref="672310108"/>
    <tag k="highway" v="secondary"/>
    <tag k="ref" v="S106"/>
  </way>
  <way id="24548928" version="19" timestamp="2010-04-06T01:52:27Z" uid="74617" user="JohnSmith" changeset="4340057">
    <nd ref="259022010"/>
    <nd ref="360554138"/>
    <nd ref="360554217"/>
    <nd ref="132155057"/>
    <nd ref="360554225"/>
    <nd ref="360554115"/>
    <nd ref="360554297"/>
    <nd ref="282410003"/>
    <nd ref="282410047"/>
    <nd ref="360554353"/>
    <nd ref="360551184"/>
    <tag k="cycleway" v="lane"/>
    <tag k="highway" v="trunk"/>
    <tag k="name" v="Stud Road"/>
    <tag k="oneway" v="yes"/>
  </way>
  <way id="24548928" version="20" timestamp="2011-01-06T14:58:44Z" uid="4467" user="Rosscoe" changeset="6883292">
    <nd ref="259022010"/>
    <nd ref="360554138"/>
    <nd ref="360554217"/>
    <nd ref="132155057"/>
    <nd ref="360554225"/>
    <nd ref="360554115"/>
    <nd ref="1085861303"/>
    <nd ref="360554297"/>
    <nd ref="282410003"/>
    <nd ref="282410047"/>
    <nd ref="360554353"/>
    <nd ref="360551184"/>
    <tag k="cycleway" v="lane"/>
    <tag k="highway" v="trunk"/>
    <tag k="name" v="Stud Road"/>
    <tag k="oneway" v="yes"/>
  </way>
  <way id="24548929" version="6" timestamp="2010-04-06T01:52:25Z" uid="74617" user="JohnSmith" changeset="4340057">
    <nd ref="259022011"/>
    <nd ref="360553864"/>
    <nd ref="132163671"/>
    <nd ref="132163669"/>
    <nd ref="266916594"/>
    <nd ref="266916595"/>
    <nd ref="266916596"/>
    <nd ref="266916652"/>
    <nd ref="132163668"/>
    <nd ref="266916651"/>
    <tag k="cycleway" v="lane"/>
    <tag k="highway" v="trunk"/>
    <tag k="name" v="Stud Road"/>
    <tag k="oneway" v="yes"/>
  </way>
  <way id="24548943" version="6" timestamp="2010-04-06T01:52:26Z" uid="74617" user="JohnSmith" changeset="4340057">
    <nd ref="266916651"/>
    <nd ref="132163667"/>
    <tag k="bridge" v="yes"/>
    <tag k="cycleway" v="lane"/>
    <tag k="highway" v="trunk"/>
    <tag k="layer" v="1"/>
    <tag k="name" v="Stud Road"/>
    <tag k="oneway" v="yes"/>
  </way>
  <way id="24548974" version="5" timestamp="2010-04-06T01:52:25Z" uid="74617" user="JohnSmith" changeset="4340057">
    <nd ref="266916700"/>
    <nd ref="27162061"/>
    <nd ref="266916717"/>
    <nd ref="27162060"/>
    <nd ref="266916567"/>
    <nd ref="266916568"/>
    <nd ref="266916569"/>
    <nd ref="266916515"/>
    <nd ref="360553848"/>
    <nd ref="259022010"/>
    <tag k="cycleway" v="lane"/>
    <tag k="highway" v="trunk"/>
    <tag k="name" v="Stud Road"/>
    <tag k="oneway" v="yes"/>
  </way>
  <way id="24548986" version="6" timestamp="2010-04-06T01:52:25Z" uid="74617" user="JohnSmith" changeset="4340057">
    <nd ref="132163667"/>
    <nd ref="293567228"/>
    <nd ref="598922511"/>
    <nd ref="293567221"/>
    <tag k="cycleway" v="lane"/>
    <tag k="highway" v="trunk"/>
    <tag k="name" v="Stud Road"/>
    <tag k="oneway" v="yes"/>
  </way>
  <way id="24548987" version="4" timestamp="2010-04-06T01:52:25Z" uid="74617" user="JohnSmith" changeset="4340057">
    <nd ref="132147289"/>
    <nd ref="266916700"/>
    <tag k="bridge" v="yes"/>
    <tag k="cycleway" v="lane"/>
    <tag k="highway" v="trunk"/>
    <tag k="layer" v="1"/>
    <tag k="name" v="Stud Road"/>
    <tag k="oneway" v="yes"/>
  </way>
  <way id="24548994" version="4" timestamp="2010-04-06T01:52:16Z" uid="74617" user="JohnSmith" changeset="4340057">
    <nd ref="132163647"/>
    <nd ref="205498141"/>
    <nd ref="205498069"/>
    <nd ref="29698918"/>
    <nd ref="263704033"/>
    <nd ref="132147942"/>
    <nd ref="293567309"/>
    <nd ref="132146350"/>
    <nd ref="293567302"/>
    <nd ref="132147946"/>
    <nd ref="132147948"/>
    <nd ref="132147284"/>
    <tag k="highway" v="trunk"/>
    <tag k="name" v="Stud Road"/>
    <tag k="oneway" v="yes"/>
  </way>
  <way id="24548994" version="6" timestamp="2011-03-22T11:51:35Z" uid="4467" user="Rosscoe" changeset="7636321">
    <nd ref="132163647"/>
    <nd ref="1213102876"/>
    <nd ref="1213102920"/>
    <nd ref="205498141"/>
    <nd ref="1213102834"/>
    <nd ref="1213102842"/>
    <nd ref="205498069"/>
    <nd ref="1213102854"/>
    <nd ref="29698918"/>
    <nd ref="1213102791"/>
    <nd ref="1213102746"/>
    <nd ref="263704033"/>
    <nd ref="132147942"/>
    <nd ref="691083853"/>
    <nd ref="293567309"/>
    <nd ref="132146350"/>
    <nd ref="293567302"/>
    <nd ref="691083505"/>
    <nd ref="691083498"/>
    <nd ref="132147946"/>
    <nd ref="132147948"/>
    <nd ref="132147284"/>
    <tag k="highway" v="trunk"/>
    <tag k="name" v="Stud Road"/>
    <tag k="oneway" v="yes"/>
  </way>
</osm>
