<?xml version='1.0' encoding='UTF-8'?>
<osm version="0.6" generator="libosmium/2.20.0">
  <way id="24588013" version="2" timestamp="2010-04-03T16:49:10Z" uid="20587" user="balrog-kun" changeset="4312936">
    <nd ref="267293659"/>
    <nd ref="267293660"/>
    <tag k="highway" v="residential"/>
    <tag k="name" v="West Darkwood Court"/>
  </way>
  <way id="24588047" version="19" timestamp="2010-03-03T16:31:28Z" uid="23543" user="jkjk" changeset="4026256">
    <nd ref="303534160"/>
    <nd ref="267293821"/>
    <nd ref="659819336"/>
    <nd ref="267293907"/>
    <nd ref="267293822"/>
    <nd ref="267293823"/>
    <nd ref="267293828"/>
    <nd ref="267293824"/>
    <nd ref="267293868"/>
    <nd ref="267293825"/>
    <nd ref="267293826"/>
    <nd ref="267293930"/>
    <nd ref="267293827"/>
    <nd ref="267548063"/>
    <nd ref="267548067"/>
    <nd ref="267548072"/>
    <nd ref="267548076"/>
    <nd ref="267548080"/>
    <nd ref="267548081"/>
    <nd ref="267548082"/>
    <nd ref="267548083"/>
    <nd ref="513759144"/>
    <nd ref="267548086"/>
    <nd ref="267548087"/>
    <nd ref="267548088"/>
    <nd ref="267548089"/>
    <nd ref="267548090"/>
    <nd ref="267548091"/>
    <nd ref="267548092"/>
    <nd ref="267548093"/>
    <nd ref="267548094"/>
    <nd ref="365593606"/>
    <nd ref="267548095"/>
    <nd ref="365595171"/>
    <nd ref="365595169"/>
    <nd ref="365595170"/>
    <nd ref="267548096"/>
    <nd ref="267548097"/>
    <nd ref="267548098"/>
    <nd ref="267548099"/>
    <nd ref="365595530"/>
    <nd ref="513774431"/>
    <nd ref="267548100"/>
    <nd ref="267548101"/>
    <nd ref="513774436"/>
    <nd ref="267548102"/>
    <nd ref="267548103"/>
    <nd ref="330757961"/>
    <nd ref="267548104"/>
    <nd ref="267548105"/>
    <nd ref="365595176"/>
    <nd ref="267548106"/>
    <nd ref="267548107"/>
    <tag k="highway" v="primary"/>
    <tag k="oneway" v="yes"/>
    <tag k="ref" v="150"/>
  </way>
  <way id="24588081" version="17" timestamp="2010-03-18T22:05:22Z" uid="20587" user="balrog-kun" changeset="4165927">
    <nd ref="65332806"/>
    <nd ref="65317943"/>
    <nd ref="552853360"/>
    <nd ref="552853367"/>
    <nd ref="65303544"/>
    <nd ref="65330491"/>
    <nd ref="65319944"/>
    <nd ref="65332815"/>
    <nd ref="65332818"/>
    <nd ref="65295311"/>
    <nd ref="65307381"/>
    <nd ref="65332833"/>
    <nd ref="65332836"/>
    <nd ref="669137840"/>
    <nd ref="65332839"/>
    <tag k="highway" v="residential"/>
    <tag k="name" v="Powell Street"/>
    <tag k="railway" v="tram"/>
    <tag k="tiger:cfcc" v="A41"/>
    <tag k="tiger:county" v="San Francisco, CA"/>
    <tag k="tiger:name_base" v="Powell"/>
    <tag k="tiger:name_type" v="St"/>
    <tag k="tiger:separated" v="no"/>
    <tag k="tiger:source" v="tiger_import_dch_v0.6_20070809"/>
    <tag k="tiger:tlid" v="192280357:192280359:192280344:192280361:192280363:192280365:192280421:192280426:192280443:192280444:192280447:192280507:192280794:192280800:192280797:192280802:192291998:192280509:192280418:192291905"/>
    <tag k="tiger:zip_left" v="94133"/>
    <tag k="tiger:zip_right" v="94133"/>
  </way>
  <way id="24588130" version="6" timestamp="2009-07-26T00:21:09Z" uid="4467" user="Rosscoe" changeset="1939703">
    <nd ref="267294489"/>
    <nd ref="267294478"/>
    <nd ref="267294482"/>
    <nd ref="267294483"/>
    <nd ref="267294484"/>
    <nd ref="267294485"/>
    <nd ref="267294486"/>
    <nd ref="267294483"/>
    <tag k="highway" v="residential"/>
    <tag k="name" v="Sunset Avenue"/>
  </way>
  <way id="24588130" version="7" timestamp="2010-03-06T05:54:11Z" uid="30201" user="rrankin" changeset="4046750">
    <nd ref="267294489"/>
    <nd ref="267294478"/>
    <nd ref="267294482"/>
    <nd ref="267294483"/>
    <nd ref="267294484"/>
    <nd ref="660941812"/>
    <nd ref="660941811"/>
    <nd ref="267294485"/>
    <nd ref="267294486"/>
    <nd ref="267294483"/>
    <tag k="highway" v="residential"/>
    <tag k="name" v="Sunset Avenue"/>
  </way>
  <way id="24588130" version="8" timestamp="2010-07-07T19:27:44Z" uid="74617" user="JohnSmith" changeset="5161069">
    <nd ref="267294489"/>
    <nd ref="267294478"/>
    <nd ref="267294482"/>
    <nd ref="267294483"/>
    <nd ref="267294484"/>
    <nd ref="660941812"/>
    <nd ref="660941811"/>
    <nd ref="267294485"/>
    <nd ref="267294486"/>
    <nd ref="267294483"/>
    <tag k="highway" v="residential"/>
    <tag k="maxspeed" v="50"/>
    <tag k="maxspeed:source" v="default residential speed limit in Australia"/>
    <tag k="name" v="Sunset Avenue"/>
  </way>
  <way id="24588131" version="6" timestamp="2009-07-26T00:20:10Z" uid="4467" user="Rosscoe" changeset="1939703">
    <nd ref="267294491"/>
    <nd ref="275518738"/>
    <nd ref="267294496"/>
    <nd ref="287494935"/>
    <nd ref="267294492"/>
    <nd ref="267294493"/>
    <nd ref="267294494"/>
    <tag k="highway" v="residential"/>
    <tag k="name" v="Jason Avenue"/>
  </way>
  <way id="24588131" version="8" timestamp="2010-07-07T19:28:16Z" uid="74617" user="JohnSmith" changeset="5161069">
    <nd ref="267294491"/>
    <nd ref="275518738"/>
    <nd ref="267294496"/>
    <nd ref="287494935"/>
    <nd ref="267294492"/>
    <nd ref="267294493"/>
    <nd ref="248835522"/>
    <tag k="highway" v="residential"/>
    <tag k="maxspeed" v="50"/>
    <tag k="maxspeed:source" v="default residential speed limit in Australia"/>
    <tag k="name" v="Jason Avenue"/>
  </way>
  <way id="24588132" version="7" timestamp="2009-07-26T00:20:34Z" uid="4467" user="Rosscoe" changeset="1939703">
    <nd ref="267294496"/>
    <nd ref="267294515"/>
    <nd ref="287494936"/>
    <nd ref="267294525"/>
    <nd ref="267294516"/>
    <tag k="highway" v="residential"/>
    <tag k="name" v="Edward Street"/>
  </way>
  <way id="24588132" version="8" timestamp="2010-07-07T19:27:29Z" uid="74617" user="JohnSmith" changeset="5161069">
    <nd ref="267294496"/>
    <nd ref="267294515"/>
    <nd ref="287494936"/>
    <nd ref="267294525"/>
    <nd ref="267294516"/>
    <tag k="highway" v="residential"/>
    <tag k="maxspeed" v="50"/>
    <tag k="maxspeed:source" v="default residential speed limit in Australia"/>
    <tag k="name" v="Edward Street"/>
  </way>
  <way id="24588133" version="6" timestamp="2009-07-26T00:20:40Z" uid="4467" user="Rosscoe" changeset="1939703">
    <nd ref="267294571"/>
    <nd ref="267294516"/>
    <nd ref="267294526"/>
    <nd ref="267294705"/>
    <nd ref="267294527"/>
    <nd ref="267294528"/>
    <nd ref="267294529"/>
    <nd ref="267294530"/>
    <nd ref="267294531"/>
    <tag k="highway" v="residential"/>
    <tag k="name" v="Bass Street"/>
  </way>
  <way id="24588133" version="7" timestamp="2010-07-07T19:27:58Z" uid="74617" user="JohnSmith" changeset="5161069">
    <nd ref="267294571"/>
    <nd ref="267294516"/>
    <nd ref="267294526"/>
    <nd ref="267294705"/>
    <nd ref="267294527"/>
    <nd ref="267294528"/>
    <nd ref="267294529"/>
    <nd ref="267294530"/>
    <nd ref="267294531"/>
    <tag k="highway" v="residential"/>
    <tag k="maxspeed" v="50"/>
    <tag k="maxspeed:source" v="default residential speed limit in Australia"/>
    <tag k="name" v="Bass Street"/>
  </way>
  <way id="24588134" version="4" timestamp="2009-07-26T00:20:15Z" uid="4467" user="Rosscoe" changeset="1939703">
    <nd ref="267294531"/>
    <nd ref="267294525"/>
    <tag k="highway" v="residential"/>
    <tag k="name" v="Doone Street"/>
  </way>
  <way id="24588134" version="5" timestamp="2010-07-07T19:25:55Z" uid="74617" user="JohnSmith" changeset="5161069">
    <nd ref="267294531"/>
    <nd ref="267294525"/>
    <tag k="highway" v="residential"/>
    <tag k="maxspeed" v="50"/>
    <tag k="maxspeed:source" v="default residential speed limit in Australia"/>
    <tag k="name" v="Doone Street"/>
  </way>
  <way id="24588136" version="3" timestamp="2009-07-26T00:19:53Z" uid="4467" user="Rosscoe" changeset="1939703">
    <nd ref="267294700"/>
    <nd ref="267294701"/>
    <nd ref="267294703"/>
    <nd ref="267294704"/>
    <nd ref="267294705"/>
    <tag k="highway" v="residential"/>
    <tag k="name" v="Flinders Close"/>
  </way>
  <way id="24588136" version="5" timestamp="2010-07-07T19:27:59Z" uid="74617" user="JohnSmith" changeset="5161069">
    <nd ref="267294700"/>
    <nd ref="267294705"/>
    <tag k="highway" v="residential"/>
    <tag k="maxspeed" v="50"/>
    <tag k="maxspeed:source" v="default residential speed limit in Australia"/>
    <tag k="name" v="Flinders Close"/>
  </way>
  <way id="24588138" version="3" timestamp="2009-07-26T00:20:14Z" uid="4467" user="Rosscoe" changeset="1939703">
    <nd ref="267294793"/>
    <nd ref="267294831"/>
    <tag k="highway" v="residential"/>
    <tag k="name" v="Iluka Road"/>
  </way>
  <way id="24588138" version="4" timestamp="2010-07-07T19:26:56Z" uid="74617" user="JohnSmith" changeset="5161069">
    <nd ref="267294793"/>
    <nd ref="267294831"/>
    <tag k="highway" v="residential"/>
    <tag k="maxspeed" v="50"/>
    <tag k="maxspeed:source" v="default residential speed limit in Australia"/>
    <tag k="name" v="Iluka Road"/>
  </way>
  <way id="24588139" version="3" timestamp="2009-07-26T00:19:44Z" uid="4467" user="Rosscoe" changeset="1939703">
    <nd ref="267294836"/>
    <nd ref="267294890"/>
    <tag k="highway" v="residential"/>
    <tag k="name" v="Beach Road"/>
  </way>
  <way id="24588139" version="4" timestamp="2010-07-07T19:27:32Z" uid="74617" user="JohnSmith" changeset="5161069">
    <nd ref="267294836"/>
    <nd ref="267294890"/>
    <tag k="highway" v="residential"/>
    <tag k="maxspeed" v="50"/>
    <tag k="maxspeed:source" v="default residential speed limit in Australia"/>
    <tag k="name" v="Beach Road"/>
  </way>
  <way id="24588140" version="3" timestamp="2009-07-26T00:19:31Z" uid="4467" user="Rosscoe" changeset="1939703">
    <nd ref="267294894"/>
    <nd ref="267294944"/>
    <nd ref="267294945"/>
    <nd ref="267294946"/>
    <nd ref="267294947"/>
    <tag k="highway" v="residential"/>
    <tag k="name" v="Shell Cove Road"/>
  </way>
  <way id="24588140" version="4" timestamp="2010-07-07T19:26:30Z" uid="74617" user="JohnSmith" changeset="5161069">
    <nd ref="267294894"/>
    <nd ref="267294944"/>
    <nd ref="267294945"/>
    <nd ref="267294946"/>
    <nd ref="267294947"/>
    <tag k="highway" v="residential"/>
    <tag k="maxspeed" v="50"/>
    <tag k="maxspeed:source" v="default residential speed limit in Australia"/>
    <tag k="name" v="Shell Cove Road"/>
  </way>
  <way id="24588141" version="5" timestamp="2009-07-26T00:20:31Z" uid="4467" user="Rosscoe" changeset="1939703">
    <nd ref="225075536"/>
    <nd ref="225075554"/>
    <nd ref="225075574"/>
    <nd ref="248501462"/>
    <nd ref="225075590"/>
    <nd ref="225075609"/>
    <nd ref="225075632"/>
    <nd ref="225075650"/>
    <nd ref="225075664"/>
    <nd ref="225075681"/>
    <nd ref="248501473"/>
    <nd ref="373848291"/>
    <tag k="highway" v="tertiary"/>
    <tag k="name" v="Bass Point Tourist Road"/>
    <tag k="source" v="survey"/>
  </way>
  <way id="24588142" version="4" timestamp="2009-07-26T00:20:40Z" uid="4467" user="Rosscoe" changeset="1939703">
    <nd ref="267295249"/>
    <nd ref="267295250"/>
    <tag k="highway" v="residential"/>
    <tag k="name" v="Gardeners Crescent"/>
  </way>
  <way id="24588142" version="5" timestamp="2010-05-12T09:24:11Z" uid="4467" user="Rosscoe" changeset="4675520">
    <nd ref="267295249"/>
    <nd ref="730659712"/>
    <nd ref="267295250"/>
    <tag k="highway" v="residential"/>
    <tag k="name" v="Gardeners Crescent"/>
    <tag k="source" v="nearmap"/>
  </way>
  <way id="24588142" version="6" timestamp="2010-07-07T19:24:42Z" uid="74617" user="JohnSmith" changeset="5161069">
    <nd ref="267295249"/>
    <nd ref="730659712"/>
    <nd ref="267295250"/>
    <tag k="highway" v="residential"/>
    <tag k="maxspeed" v="50"/>
    <tag k="maxspeed:source" v="default residential speed limit in Australia"/>
    <tag k="name" v="Gardeners Crescent"/>
    <tag k="source" v="nearmap"/>
  </way>
  <way id="24588143" version="4" timestamp="2009-07-26T00:20:23Z" uid="4467" user="Rosscoe" changeset="1939703">
    <nd ref="267295335"/>
    <nd ref="267295336"/>
    <tag k="highway" v="residential"/>
    <tag k="name" v="Surf Road"/>
  </way>
  <way id="24588143" version="5" timestamp="2010-07-07T19:25:29Z" uid="74617" user="JohnSmith" changeset="5161069">
    <nd ref="267295335"/>
    <nd ref="267295336"/>
    <tag k="highway" v="residential"/>
    <tag k="maxspeed" v="50"/>
    <tag k="maxspeed:source" v="default residential speed limit in Australia"/>
    <tag k="name" v="Surf Road"/>
  </way>
  <way id="24588224" version="4" timestamp="2009-07-26T00:20:43Z" uid="4467" user="Rosscoe" changeset="1939703">
    <nd ref="248501584"/>
    <nd ref="265018537"/>
    <tag k="highway" v="residential"/>
    <tag k="name" v="College Avenue"/>
  </way>
  <way id="24588224" version="5" timestamp="2010-03-01T11:44:23Z" uid="30201" user="rrankin" changeset="4007824">
    <nd ref="248501584"/>
    <nd ref="658051830"/>
    <nd ref="265018537"/>
    <tag k="highway" v="residential"/>
    <tag k="name" v="College Avenue"/>
  </way>
  <way id="24588224" version="6" timestamp="2010-03-02T05:01:22Z" uid="30201" user="rrankin" changeset="4014285">
    <nd ref="248501584"/>
    <nd ref="658977157"/>
    <nd ref="658051830"/>
    <nd ref="265018537"/>
    <tag k="highway" v="residential"/>
    <tag k="name" v="College Avenue"/>
  </way>
  <way id="24588224" version="7" timestamp="2010-07-07T19:27:09Z" uid="74617" user="JohnSmith" changeset="5161069">
    <nd ref="248501584"/>
    <nd ref="658977157"/>
    <nd ref="658051830"/>
    <nd ref="265018537"/>
    <tag k="highway" v="residential"/>
    <tag k="maxspeed" v="50"/>
    <tag k="maxspeed:source" v="default residential speed limit in Australia"/>
    <tag k="name" v="College Avenue"/>
  </way>
  <way id="24588240" version="6" timestamp="2010-03-27T23:40:37Z" uid="20587" user="balrog-kun" changeset="4250871">
    <nd ref="65358837"/>
    <nd ref="267297183"/>
    <nd ref="65430211"/>
    <nd ref="65430215"/>
    <nd ref="262910175"/>
    <tag k="created_by" v="Potlatch 0.10b"/>
    <tag k="highway" v="residential"/>
    <tag k="name" v="Clark Drive"/>
    <tag k="tiger:cfcc" v="A41"/>
    <tag k="tiger:county" v="San Mateo, CA"/>
    <tag k="tiger:name_base" v="Clark"/>
    <tag k="tiger:name_type" v="Dr"/>
    <tag k="tiger:separated" v="no"/>
    <tag k="tiger:source" v="tiger_import_dch_v0.6_20070809"/>
    <tag k="tiger:tlid" v="192402446:192402447:192376965:192377025:192377413:192376990"/>
    <tag k="tiger:zip_left" v="94402"/>
    <tag k="tiger:zip_right" v="94402"/>
  </way>
  <way id="24588242" version="4" timestamp="2010-03-27T23:40:37Z" uid="20587" user="balrog-kun" changeset="4250871">
    <nd ref="65358830"/>
    <nd ref="65441740"/>
    <nd ref="65441742"/>
    <nd ref="65441745"/>
    <nd ref="65441746"/>
    <tag k="created_by" v="Potlatch 0.9b"/>
    <tag k="highway" v="residential"/>
    <tag k="name" v="Dorchester Road"/>
    <tag k="tiger:cfcc" v="A41"/>
    <tag k="tiger:county" v="San Mateo, CA"/>
    <tag k="tiger:name_base" v="Dorchester"/>
    <tag k="tiger:name_type" v="Rd"/>
    <tag k="tiger:separated" v="no"/>
    <tag k="tiger:source" v="tiger_import_dch_v0.6_20070809"/>
    <tag k="tiger:tlid" v="192402444:192402445:192402436:192402437"/>
    <tag k="tiger:zip_left" v="94402"/>
    <tag k="tiger:zip_right" v="94402"/>
  </way>
  <way id="24588246" version="2" timestamp="2010-12-14T10:32:27Z" uid="171838" user="argrath" changeset="6656646">
    <nd ref="267297190"/>
    <nd ref="267297191"/>
    <nd ref="267297192"/>
    <nd ref="267297193"/>
    <nd ref="267297194"/>
    <nd ref="267297195"/>
    <nd ref="267297196"/>
    <nd ref="267297197"/>
    <nd ref="267297199"/>
    <nd ref="267297198"/>
    <nd ref="267297200"/>
    <tag k="KSJ2:INT" v="2"/>
    <tag k="KSJ2:INT_label" v="JR在来線"/>
    <tag k="KSJ2:LIN" v="関西空港線"/>
    <tag k="KSJ2:OPC" v="西日本旅客鉄道"/>
    <tag k="KSJ2:RAC" v="11"/>
    <tag k="KSJ2:RAC_label" v="普通鉄道JR"/>
    <tag k="name" v="JR関西空港線"/>
    <tag k="name:ja" v="JR関西空港線"/>
    <tag k="note" v="National-Land Numerical Information (Railway) 2007, MLIT Japan"/>
    <tag k="note:ja" v="国土数値情報（鉄道データ）平成19年　国土交通省"/>
    <tag k="operator" v="西日本旅客鉄道"/>
    <tag k="operator:ja" v="西日本旅客鉄道"/>
    <tag k="railway" v="rail"/>
    <tag k="source" v="KSJ2"/>
    <tag k="source_ref" v="http://nlftp.mlit.go.jp/ksj/jpgis/datalist/KsjTmplt-N02-v1_1.html"/>
    <tag k="tunnel" v="yes"/>
  </way>
  <way id="24588247" version="2" timestamp="2010-12-14T10:32:28Z" uid="171838" user="argrath" changeset="6656646">
    <nd ref="267297200"/>
    <nd ref="267297202"/>
    <nd ref="267297201"/>
    <tag k="name" v="JR関西空港線"/>
    <tag k="name:ja" v="JR関西空港線"/>
    <tag k="operator" v="西日本旅客鉄道"/>
    <tag k="operator:ja" v="西日本旅客鉄道"/>
    <tag k="railway" v="rail"/>
    <tag k="source" v="Bing"/>
  </way>
  <way id="24588252" version="4" timestamp="2008-08-22T06:05:36Z" uid="30201" user="rrankin" changeset="369548">
    <nd ref="248503376"/>
    <nd ref="267297426"/>
    <tag k="created_by" v="Potlatch 0.9b"/>
    <tag k="highway" v="residential"/>
    <tag k="name" v="Spoonbill Place"/>
  </way>
  <way id="24588252" version="6" timestamp="2010-07-07T19:32:33Z" uid="74617" user="JohnSmith" changeset="5161069">
    <nd ref="248503376"/>
    <nd ref="267297426"/>
    <tag k="highway" v="residential"/>
    <tag k="maxspeed" v="50"/>
    <tag k="maxspeed:source" v="default residential speed limit in Australia"/>
    <tag k="name" v="Spoonbill Place"/>
  </way>
  <way id="24588253" version="5" timestamp="2010-03-27T23:40:38Z" uid="20587" user="balrog-kun" changeset="4250871">
    <nd ref="267297428"/>
    <nd ref="259165838"/>
    <tag k="created_by" v="Potlatch 0.10f"/>
    <tag k="highway" v="residential"/>
    <tag k="name" v="Warren Road"/>
    <tag k="tiger:cfcc" v="A41"/>
    <tag k="tiger:county" v="San Mateo, CA"/>
    <tag k="tiger:name_base" v="Warren"/>
    <tag k="tiger:name_type" v="Rd"/>
    <tag k="tiger:separated" v="no"/>
    <tag k="tiger:source" v="tiger_import_dch_v0.6_20070809"/>
    <tag k="tiger:tlid" v="192377403:192377405"/>
    <tag k="tiger:zip_left" v="94401"/>
    <tag k="tiger:zip_right" v="94401"/>
  </way>
  <way id="24588254" version="5" timestamp="2010-03-27T23:40:38Z" uid="20587" user="balrog-kun" changeset="4250871">
    <nd ref="267297429"/>
    <nd ref="296878347"/>
    <nd ref="267297430"/>
    <nd ref="267297428"/>
    <tag k="created_by" v="Potlatch 0.10b"/>
    <tag k="highway" v="residential"/>
    <tag k="name" v="Warren Road"/>
    <tag k="oneway" v="yes"/>
    <tag k="tiger:cfcc" v="A41"/>
    <tag k="tiger:county" v="San Mateo, CA"/>
    <tag k="tiger:name_base" v="Warren"/>
    <tag k="tiger:name_type" v="Rd"/>
    <tag k="tiger:separated" v="no"/>
    <tag k="tiger:source" v="tiger_import_dch_v0.6_20070809"/>
    <tag k="tiger:tlid" v="192377403:192377405"/>
    <tag k="tiger:zip_left" v="94401"/>
    <tag k="tiger:zip_right" v="94401"/>
  </way>
  <way id="24588255" version="3" timestamp="2010-03-27T23:40:38Z" uid="20587" user="balrog-kun" changeset="4250871">
    <nd ref="267297428"/>
    <nd ref="267297434"/>
    <nd ref="267297435"/>
    <nd ref="267297429"/>
    <tag k="created_by" v="Potlatch 0.9b"/>
    <tag k="highway" v="residential"/>
    <tag k="name" v="Warren Road"/>
    <tag k="oneway" v="yes"/>
  </way>
  <way id="24588257" version="2" timestamp="2010-02-13T02:20:29Z" uid="7617" user="Franc" changeset="3861793">
    <nd ref="248606467"/>
    <nd ref="637968486"/>
    <nd ref="267297436"/>
    <tag k="highway" v="residential"/>
    <tag k="name" v="Johnston Avenue"/>
  </way>
  <way id="24588257" version="3" timestamp="2010-07-07T19:34:06Z" uid="74617" user="JohnSmith" changeset="5161069">
    <nd ref="248606467"/>
    <nd ref="637968486"/>
    <nd ref="267297436"/>
    <tag k="highway" v="residential"/>
    <tag k="maxspeed" v="50"/>
    <tag k="maxspeed:source" v="default residential speed limit in Australia"/>
    <tag k="name" v="Johnston Avenue"/>
  </way>
  <way id="24588258" version="2" timestamp="2010-02-13T02:20:29Z" uid="7617" user="Franc" changeset="3861793">
    <nd ref="248606431"/>
    <nd ref="637968494"/>
    <nd ref="248606432"/>
    <nd ref="637968492"/>
    <nd ref="637968490"/>
    <nd ref="248606433"/>
    <nd ref="248606434"/>
    <nd ref="637968457"/>
    <nd ref="248606435"/>
    <nd ref="637968459"/>
    <nd ref="248606436"/>
    <nd ref="637968461"/>
    <nd ref="637968462"/>
    <nd ref="637968478"/>
    <tag k="highway" v="residential"/>
    <tag k="name" v="Riverside Cresent"/>
  </way>
  <way id="24588258" version="3" timestamp="2010-07-07T19:32:26Z" uid="74617" user="JohnSmith" changeset="5161069">
    <nd ref="248606431"/>
    <nd ref="637968494"/>
    <nd ref="248606432"/>
    <nd ref="637968492"/>
    <nd ref="637968490"/>
    <nd ref="248606433"/>
    <nd ref="248606434"/>
    <nd ref="637968457"/>
    <nd ref="248606435"/>
    <nd ref="637968459"/>
    <nd ref="248606436"/>
    <nd ref="637968461"/>
    <nd ref="637968462"/>
    <nd ref="637968478"/>
    <tag k="highway" v="residential"/>
    <tag k="maxspeed" v="50"/>
    <tag k="maxspeed:source" v="default residential speed limit in Australia"/>
    <tag k="name" v="Riverside Cresent"/>
  </way>
  <way id="24588274" version="4" timestamp="2010-07-09T05:12:29Z" uid="74617" user="JohnSmith" changeset="5170986">
    <nd ref="109516094"/>
    <nd ref="109516331"/>
    <nd ref="610282193"/>
    <nd ref="610286070"/>
    <tag k="highway" v="residential"/>
    <tag k="maxspeed" v="50"/>
    <tag k="maxspeed:source" v="default residential speed limit in Australia"/>
    <tag k="name" v="Church Road"/>
  </way>
  <way id="24588278" version="18" timestamp="2011-01-15T14:01:58Z" uid="4467" user="Rosscoe" changeset="6977206">
    <nd ref="105008398"/>
    <nd ref="320401204"/>
    <nd ref="773160632"/>
    <nd ref="773160668"/>
    <nd ref="402509372"/>
    <nd ref="105043061"/>
    <nd ref="105043062"/>
    <nd ref="536340288"/>
    <nd ref="105043063"/>
    <nd ref="444086543"/>
    <nd ref="544321536"/>
    <nd ref="444086574"/>
    <nd ref="527875557"/>
    <nd ref="544317095"/>
    <nd ref="105043064"/>
    <nd ref="527873465"/>
    <nd ref="527875550"/>
    <nd ref="527872502"/>
    <tag k="cycleway" v="lane"/>
    <tag k="highway" v="primary"/>
    <tag k="is_in" v="Templestowe,Victoria,Australia"/>
    <tag k="lanes" v="2"/>
    <tag k="maxspeed" v="70"/>
    <tag k="name" v="Reynolds Road"/>
    <tag k="oneway" v="yes"/>
    <tag k="postal_code" v="3106"/>
  </way>
  <way id="24588285" version="4" timestamp="2010-04-06T07:30:28Z" uid="74617" user="JohnSmith" changeset="4340624">
    <nd ref="105534780"/>
    <nd ref="105538893"/>
    <nd ref="105534789"/>
    <nd ref="105534790"/>
    <nd ref="118426621"/>
    <nd ref="105534791"/>
    <nd ref="105534792"/>
    <nd ref="225470980"/>
    <tag k="highway" v="primary"/>
    <tag k="name" v="Williamsons Road"/>
    <tag k="oneway" v="yes"/>
    <tag k="source" v="survey"/>
  </way>
  <way id="24588288" version="8" timestamp="2010-04-06T07:30:29Z" uid="74617" user="JohnSmith" changeset="4340624">
    <nd ref="104991451"/>
    <nd ref="105007496"/>
    <nd ref="536436560"/>
    <tag k="highway" v="primary"/>
    <tag k="name" v="Williamsons Road"/>
    <tag k="oneway" v="yes"/>
    <tag k="ref" v="42;47"/>
    <tag k="source" v="survey"/>
  </way>
  <way id="24588288" version="9" timestamp="2010-04-06T07:37:16Z" uid="74617" user="JohnSmith" changeset="4340624">
    <nd ref="104991451"/>
    <nd ref="105007496"/>
    <nd ref="536436560"/>
    <tag k="highway" v="primary"/>
    <tag k="name" v="Williamsons Road"/>
    <tag k="oneway" v="yes"/>
    <tag k="ref" v="S42"/>
    <tag k="source" v="survey"/>
  </way>
  <way id="24588292" version="5" timestamp="2008-08-21T01:30:14Z" uid="30201" user="rrankin" changeset="356651">
    <nd ref="267299131"/>
    <nd ref="267298535"/>
    <nd ref="248607419"/>
    <tag k="created_by" v="Potlatch 0.9b"/>
    <tag k="highway" v="residential"/>
    <tag k="name" v="Sussex Lane"/>
  </way>
  <way id="24588292" version="6" timestamp="2010-03-22T06:36:21Z" uid="30201" user="rrankin" changeset="4199376">
    <nd ref="267299131"/>
    <nd ref="248607419"/>
    <tag k="highway" v="residential"/>
    <tag k="name" v="Sussex Lane"/>
  </way>
  <way id="24588293" version="6" timestamp="2008-08-21T01:30:16Z" uid="30201" user="rrankin" changeset="356651">
    <nd ref="267299132"/>
    <nd ref="267299131"/>
    <tag k="created_by" v="Potlatch 0.9b"/>
    <tag k="highway" v="residential"/>
    <tag k="name" v="Jaspers Lane"/>
  </way>
  <way id="24588426" version="6" timestamp="2008-06-04T08:13:07Z" uid="33633" user="Elena" changeset="43797">
    <nd ref="267301786"/>
    <nd ref="267301787"/>
    <nd ref="267301788"/>
    <nd ref="267301789"/>
    <nd ref="267301790"/>
    <nd ref="267301791"/>
    <nd ref="267301792"/>
    <nd ref="267301793"/>
    <nd ref="267301794"/>
    <nd ref="267301795"/>
    <nd ref="267301796"/>
    <nd ref="267301797"/>
    <nd ref="267301798"/>
    <nd ref="267301799"/>
    <nd ref="267301800"/>
    <nd ref="267301801"/>
    <nd ref="267301802"/>
    <nd ref="267301803"/>
    <nd ref="267301804"/>
    <nd ref="267301805"/>
    <nd ref="267301806"/>
    <nd ref="267301807"/>
    <nd ref="267301808"/>
    <nd ref="267301809"/>
    <nd ref="267301810"/>
    <nd ref="267301811"/>
    <nd ref="267301812"/>
    <nd ref="267301813"/>
    <nd ref="267301814"/>
    <nd ref="267301815"/>
    <nd ref="267301816"/>
    <nd ref="267301817"/>
    <nd ref="267301818"/>
    <nd ref="267301819"/>
    <nd ref="267301820"/>
    <nd ref="267301821"/>
    <nd ref="267301822"/>
    <nd ref="267301823"/>
    <nd ref="267301824"/>
    <nd ref="267301825"/>
    <nd ref="267301826"/>
    <nd ref="267301827"/>
    <nd ref="267301828"/>
    <nd ref="267301829"/>
    <nd ref="267301830"/>
    <nd ref="267301831"/>
    <nd ref="267301832"/>
    <nd ref="267301833"/>
    <nd ref="267301781"/>
    <tag k="created_by" v="Potlatch 0.9c"/>
    <tag k="name" v="Дніпро"/>
    <tag k="waterway" v="river"/>
  </way>
  <way id="24588998" version="4" timestamp="2008-10-11T19:15:24Z" uid="65847" user="LKK" changeset="265008">
    <nd ref="267309381"/>
    <nd ref="267309382"/>
    <nd ref="303811634"/>
    <tag k="bicycle" v="permissive"/>
    <tag k="created_by" v="Potlatch 0.9b"/>
    <tag k="highway" v="footway"/>
  </way>
</osm>
