<?xml version='1.0' encoding='UTF-8'?>
<osm version="0.6" generator="libosmium/2.20.0">
  <way id="24745005" version="4" timestamp="2010-02-15T12:10:39Z" uid="74617" user="JohnSmith" changeset="3882541">
    <nd ref="268926029"/>
    <nd ref="268925433"/>
    <nd ref="268926031"/>
    <nd ref="268926032"/>
    <nd ref="268926033"/>
    <nd ref="268926034"/>
    <nd ref="268926035"/>
    <nd ref="268925327"/>
    <tag k="highway" v="residential"/>
    <tag k="maxspeed" v="50"/>
    <tag k="name" v="Drake Street"/>
  </way>
  <way id="24745008" version="2" timestamp="2010-07-07T08:03:43Z" uid="74617" user="JohnSmith" changeset="5156250">
    <nd ref="268924951"/>
    <nd ref="268926091"/>
    <nd ref="268926092"/>
    <nd ref="268926093"/>
    <nd ref="268926094"/>
    <tag k="highway" v="residential"/>
    <tag k="maxspeed" v="50"/>
    <tag k="maxspeed:source" v="default residential speed limit in Australia"/>
    <tag k="name" v="Murmuba Close"/>
  </way>
  <way id="24745010" version="4" timestamp="2010-02-15T12:12:36Z" uid="74617" user="JohnSmith" changeset="3882541">
    <nd ref="268925306"/>
    <nd ref="268926143"/>
    <nd ref="268926144"/>
    <nd ref="268925307"/>
    <tag k="highway" v="residential"/>
    <tag k="maxspeed" v="50"/>
    <tag k="name" v="Thrush Court"/>
  </way>
  <way id="24745013" version="3" timestamp="2010-02-15T12:12:37Z" uid="74617" user="JohnSmith" changeset="3882541">
    <nd ref="268925339"/>
    <nd ref="268926163"/>
    <nd ref="268926031"/>
    <tag k="highway" v="residential"/>
    <tag k="maxspeed" v="50"/>
    <tag k="name" v="Goose Street"/>
  </way>
  <way id="24745032" version="2" timestamp="2010-07-07T08:03:46Z" uid="74617" user="JohnSmith" changeset="5156250">
    <nd ref="268926264"/>
    <nd ref="268926304"/>
    <tag k="highway" v="residential"/>
    <tag k="maxspeed" v="50"/>
    <tag k="maxspeed:source" v="default residential speed limit in Australia"/>
    <tag k="name" v="Coron Court"/>
  </way>
  <way id="24745037" version="2" timestamp="2010-07-07T08:02:06Z" uid="74617" user="JohnSmith" changeset="5156250">
    <nd ref="268924946"/>
    <nd ref="268926328"/>
    <nd ref="268926329"/>
    <tag k="highway" v="residential"/>
    <tag k="maxspeed" v="50"/>
    <tag k="maxspeed:source" v="default residential speed limit in Australia"/>
    <tag k="name" v="Bobra Glen"/>
  </way>
  <way id="24745041" version="2" timestamp="2010-07-07T08:03:04Z" uid="74617" user="JohnSmith" changeset="5156250">
    <nd ref="268924953"/>
    <nd ref="268926343"/>
    <nd ref="268926344"/>
    <nd ref="268926345"/>
    <tag k="highway" v="residential"/>
    <tag k="maxspeed" v="50"/>
    <tag k="maxspeed:source" v="default residential speed limit in Australia"/>
    <tag k="name" v="Walgooan Way"/>
  </way>
  <way id="24745045" version="2" timestamp="2010-07-07T08:01:00Z" uid="74617" user="JohnSmith" changeset="5156250">
    <nd ref="268926330"/>
    <nd ref="268926401"/>
    <tag k="highway" v="residential"/>
    <tag k="maxspeed" v="50"/>
    <tag k="maxspeed:source" v="default residential speed limit in Australia"/>
    <tag k="name" v="Colli Close"/>
  </way>
  <way id="24745051" version="2" timestamp="2010-07-07T08:03:24Z" uid="74617" user="JohnSmith" changeset="5156250">
    <nd ref="268926415"/>
    <nd ref="268926419"/>
    <nd ref="268926420"/>
    <nd ref="268926421"/>
    <tag k="highway" v="residential"/>
    <tag k="maxspeed" v="50"/>
    <tag k="maxspeed:source" v="default residential speed limit in Australia"/>
    <tag k="name" v="Glendale Crescent"/>
  </way>
  <way id="24745060" version="2" timestamp="2010-07-07T08:02:43Z" uid="74617" user="JohnSmith" changeset="5156250">
    <nd ref="268924957"/>
    <nd ref="268926448"/>
    <nd ref="268926449"/>
    <nd ref="268926450"/>
    <tag k="highway" v="residential"/>
    <tag k="maxspeed" v="50"/>
    <tag k="maxspeed:source" v="default residential speed limit in Australia"/>
    <tag k="name" v="Namoi Glen"/>
  </way>
  <way id="24745064" version="3" timestamp="2010-07-07T08:00:33Z" uid="74617" user="JohnSmith" changeset="5156250">
    <nd ref="268926454"/>
    <nd ref="268926494"/>
    <nd ref="268926495"/>
    <nd ref="268926496"/>
    <nd ref="268926497"/>
    <nd ref="268926498"/>
    <nd ref="268926499"/>
    <tag k="highway" v="residential"/>
    <tag k="maxspeed" v="50"/>
    <tag k="maxspeed:source" v="default residential speed limit in Australia"/>
    <tag k="name" v="Binya Place"/>
  </way>
  <way id="24745065" version="2" timestamp="2010-07-07T08:01:04Z" uid="74617" user="JohnSmith" changeset="5156250">
    <nd ref="268926498"/>
    <nd ref="268926504"/>
    <nd ref="268926505"/>
    <nd ref="268926506"/>
    <tag k="highway" v="residential"/>
    <tag k="maxspeed" v="50"/>
    <tag k="maxspeed:source" v="default residential speed limit in Australia"/>
    <tag k="name" v="Nelshaby Court"/>
  </way>
  <way id="24745087" version="5" timestamp="2010-07-07T08:01:31Z" uid="74617" user="JohnSmith" changeset="5156250">
    <nd ref="268926720"/>
    <nd ref="268924958"/>
    <nd ref="268926721"/>
    <nd ref="268926722"/>
    <nd ref="268926723"/>
    <nd ref="268926724"/>
    <nd ref="268926725"/>
    <nd ref="268926726"/>
    <nd ref="268926727"/>
    <nd ref="268926728"/>
    <nd ref="268926729"/>
    <nd ref="268926730"/>
    <nd ref="268926731"/>
    <nd ref="268926732"/>
    <nd ref="268926733"/>
    <nd ref="268926734"/>
    <nd ref="268926735"/>
    <nd ref="268926736"/>
    <nd ref="268926737"/>
    <nd ref="268926738"/>
    <nd ref="268926739"/>
    <nd ref="268926740"/>
    <nd ref="268928448"/>
    <nd ref="268926741"/>
    <nd ref="268926742"/>
    <nd ref="268926743"/>
    <nd ref="268926744"/>
    <nd ref="268926745"/>
    <nd ref="268926746"/>
    <nd ref="268926747"/>
    <nd ref="268926748"/>
    <nd ref="268926749"/>
    <nd ref="268926750"/>
    <nd ref="268926751"/>
    <nd ref="268926752"/>
    <nd ref="268926723"/>
    <tag k="highway" v="residential"/>
    <tag k="maxspeed" v="50"/>
    <tag k="maxspeed:source" v="default residential speed limit in Australia"/>
    <tag k="name" v="Yamble Drive"/>
  </way>
  <way id="24745106" version="3" timestamp="2010-02-15T12:10:38Z" uid="74617" user="JohnSmith" changeset="3882541">
    <nd ref="268926869"/>
    <nd ref="268926870"/>
    <nd ref="268926871"/>
    <nd ref="253122471"/>
    <tag k="highway" v="residential"/>
    <tag k="maxspeed" v="50"/>
    <tag k="name" v="Kefford Street"/>
  </way>
  <way id="24745108" version="4" timestamp="2010-02-15T12:16:46Z" uid="74617" user="JohnSmith" changeset="3882541">
    <nd ref="569894751"/>
    <nd ref="253122961"/>
    <nd ref="268926871"/>
    <nd ref="253123028"/>
    <tag k="highway" v="residential"/>
    <tag k="maxspeed" v="50"/>
    <tag k="name" v="Warner Street"/>
  </way>
  <way id="24745110" version="5" timestamp="2010-02-15T12:17:52Z" uid="74617" user="JohnSmith" changeset="3882541">
    <nd ref="569894756"/>
    <nd ref="253122960"/>
    <nd ref="268926870"/>
    <tag k="highway" v="residential"/>
    <tag k="maxspeed" v="50"/>
    <tag k="name" v="Kelso Street"/>
  </way>
  <way id="24745111" version="2" timestamp="2010-07-07T08:01:17Z" uid="74617" user="JohnSmith" changeset="5156250">
    <nd ref="268926723"/>
    <nd ref="268926877"/>
    <nd ref="268926878"/>
    <nd ref="268926879"/>
    <nd ref="268926880"/>
    <nd ref="268926881"/>
    <nd ref="268926882"/>
    <nd ref="268926883"/>
    <nd ref="268926884"/>
    <nd ref="268926885"/>
    <nd ref="268926886"/>
    <nd ref="268926723"/>
    <tag k="highway" v="residential"/>
    <tag k="maxspeed" v="50"/>
    <tag k="maxspeed:source" v="default residential speed limit in Australia"/>
    <tag k="name" v="Gin Gin Crescent"/>
  </way>
  <way id="24745113" version="4" timestamp="2010-02-15T12:17:51Z" uid="74617" user="JohnSmith" changeset="3882541">
    <nd ref="268926890"/>
    <nd ref="569894764"/>
    <tag k="highway" v="residential"/>
    <tag k="maxspeed" v="50"/>
    <tag k="name" v="Sheena Street"/>
  </way>
  <way id="24745114" version="2" timestamp="2010-07-07T08:02:12Z" uid="74617" user="JohnSmith" changeset="5156250">
    <nd ref="268924947"/>
    <nd ref="268926891"/>
    <nd ref="268926892"/>
    <tag k="highway" v="residential"/>
    <tag k="maxspeed" v="50"/>
    <tag k="maxspeed:source" v="default residential speed limit in Australia"/>
    <tag k="name" v="Narragal Court"/>
  </way>
  <way id="24745115" version="3" timestamp="2010-02-15T12:17:51Z" uid="74617" user="JohnSmith" changeset="3882541">
    <nd ref="253123033"/>
    <nd ref="268926894"/>
    <nd ref="253122956"/>
    <tag k="highway" v="residential"/>
    <tag k="maxspeed" v="50"/>
    <tag k="name" v="Plumer Street"/>
  </way>
  <way id="24745117" version="4" timestamp="2010-02-15T12:17:54Z" uid="74617" user="JohnSmith" changeset="3882541">
    <nd ref="268926895"/>
    <nd ref="268926896"/>
    <nd ref="569894960"/>
    <tag k="highway" v="residential"/>
    <tag k="maxspeed" v="50"/>
    <tag k="name" v="Aminta Street"/>
  </way>
  <way id="24745118" version="3" timestamp="2010-06-01T13:59:12Z" uid="4467" user="Rosscoe" changeset="4874805">
    <nd ref="268926907"/>
    <nd ref="268926892"/>
    <nd ref="268926909"/>
    <nd ref="268926910"/>
    <tag k="created_by" v="Potlatch 0.9c"/>
    <tag k="highway" v="residential"/>
    <tag k="name" v="Tindara Avenue"/>
  </way>
  <way id="24745118" version="4" timestamp="2010-07-07T08:03:38Z" uid="74617" user="JohnSmith" changeset="5156250">
    <nd ref="268926907"/>
    <nd ref="268926892"/>
    <nd ref="268926909"/>
    <nd ref="268926910"/>
    <tag k="highway" v="residential"/>
    <tag k="maxspeed" v="50"/>
    <tag k="maxspeed:source" v="default residential speed limit in Australia"/>
    <tag k="name" v="Tindara Avenue"/>
  </way>
  <way id="24745123" version="5" timestamp="2010-02-15T12:13:18Z" uid="74617" user="JohnSmith" changeset="3882541">
    <nd ref="268926930"/>
    <nd ref="268926972"/>
    <nd ref="268926931"/>
    <nd ref="584389149"/>
    <tag k="highway" v="residential"/>
    <tag k="maxspeed" v="50"/>
    <tag k="name" v="Leonard Street"/>
  </way>
  <way id="24745126" version="3" timestamp="2010-02-15T12:13:18Z" uid="74617" user="JohnSmith" changeset="3882541">
    <nd ref="253122472"/>
    <nd ref="268926971"/>
    <nd ref="268926972"/>
    <tag k="highway" v="residential"/>
    <tag k="maxspeed" v="50"/>
    <tag k="name" v="Stuart Street"/>
  </way>
  <way id="24745128" version="3" timestamp="2010-02-15T12:13:17Z" uid="74617" user="JohnSmith" changeset="3882541">
    <nd ref="268927012"/>
    <nd ref="268926971"/>
    <nd ref="268927013"/>
    <tag k="highway" v="residential"/>
    <tag k="maxspeed" v="50"/>
    <tag k="name" v="Charles Canty Drive"/>
  </way>
  <way id="24745129" version="2" timestamp="2010-07-07T08:03:58Z" uid="74617" user="JohnSmith" changeset="5156250">
    <nd ref="268926909"/>
    <nd ref="268927019"/>
    <nd ref="268927020"/>
    <nd ref="268927021"/>
    <tag k="highway" v="residential"/>
    <tag k="maxspeed" v="50"/>
    <tag k="maxspeed:source" v="default residential speed limit in Australia"/>
    <tag k="name" v="Gibingbell Close"/>
  </way>
  <way id="24745132" version="4" timestamp="2010-02-15T12:11:21Z" uid="74617" user="JohnSmith" changeset="3882541">
    <nd ref="253122433"/>
    <nd ref="268927030"/>
    <nd ref="584389109"/>
    <nd ref="268927031"/>
    <nd ref="268927032"/>
    <nd ref="268927033"/>
    <nd ref="584389114"/>
    <nd ref="584389115"/>
    <nd ref="584389116"/>
    <nd ref="268927034"/>
    <nd ref="268927035"/>
    <nd ref="268927036"/>
    <tag k="highway" v="residential"/>
    <tag k="maxspeed" v="50"/>
    <tag k="name" v="Queensbury Court"/>
  </way>
  <way id="24745136" version="2" timestamp="2010-07-07T08:02:16Z" uid="74617" user="JohnSmith" changeset="5156250">
    <nd ref="268927065"/>
    <nd ref="268926910"/>
    <nd ref="268927066"/>
    <nd ref="268927067"/>
    <nd ref="268927068"/>
    <nd ref="268927069"/>
    <tag k="highway" v="residential"/>
    <tag k="maxspeed" v="50"/>
    <tag k="maxspeed:source" v="default residential speed limit in Australia"/>
    <tag k="name" v="Dandaloo Way"/>
  </way>
  <way id="24745137" version="17" timestamp="2010-07-09T20:56:54Z" uid="74617" user="JohnSmith" changeset="5176956">
    <nd ref="268922373"/>
    <nd ref="269102168"/>
    <nd ref="269102376"/>
    <nd ref="269102187"/>
    <nd ref="269102340"/>
    <nd ref="269102190"/>
    <nd ref="268927070"/>
    <nd ref="269102449"/>
    <nd ref="268927071"/>
    <nd ref="269102426"/>
    <nd ref="269102428"/>
    <nd ref="269102430"/>
    <nd ref="268920577"/>
    <nd ref="269102773"/>
    <nd ref="269102556"/>
    <nd ref="269102781"/>
    <nd ref="269102766"/>
    <nd ref="269102783"/>
    <nd ref="60944898"/>
    <tag k="highway" v="residential"/>
    <tag k="maxspeed" v="50"/>
    <tag k="maxspeed:source" v="default residential speed limit in Australia"/>
    <tag k="name" v="Keymer Street"/>
  </way>
  <way id="24745137" version="18" timestamp="2011-04-23T02:21:20Z" uid="4467" user="Rosscoe" changeset="7940061">
    <nd ref="268922373"/>
    <nd ref="269102168"/>
    <nd ref="269102376"/>
    <nd ref="269102187"/>
    <nd ref="269102340"/>
    <nd ref="269102190"/>
    <nd ref="1256283842"/>
    <tag k="highway" v="residential"/>
    <tag k="maxspeed" v="50"/>
    <tag k="maxspeed:source" v="default residential speed limit in Australia"/>
    <tag k="name" v="Keymer Street"/>
  </way>
  <way id="24745138" version="3" timestamp="2010-02-15T12:13:17Z" uid="74617" user="JohnSmith" changeset="3882541">
    <nd ref="268927073"/>
    <nd ref="268927074"/>
    <nd ref="268927075"/>
    <nd ref="268927076"/>
    <nd ref="268927077"/>
    <nd ref="268927078"/>
    <nd ref="268927060"/>
    <tag k="highway" v="residential"/>
    <tag k="maxspeed" v="50"/>
    <tag k="name" v="Grosvenor Court"/>
  </way>
  <way id="24745143" version="2" timestamp="2010-07-07T08:01:38Z" uid="74617" user="JohnSmith" changeset="5156250">
    <nd ref="268927072"/>
    <nd ref="268927097"/>
    <tag k="highway" v="residential"/>
    <tag k="maxspeed" v="50"/>
    <tag k="maxspeed:source" v="default residential speed limit in Australia"/>
    <tag k="name" v="Dyum Place"/>
  </way>
  <way id="24745172" version="2" timestamp="2010-07-07T08:02:33Z" uid="74617" user="JohnSmith" changeset="5156250">
    <nd ref="268927066"/>
    <nd ref="268927239"/>
    <tag k="highway" v="residential"/>
    <tag k="maxspeed" v="50"/>
    <tag k="maxspeed:source" v="default residential speed limit in Australia"/>
    <tag k="name" v="Reka Way"/>
  </way>
  <way id="24745174" version="3" timestamp="2010-07-07T08:03:44Z" uid="74617" user="JohnSmith" changeset="5156250">
    <nd ref="268926721"/>
    <nd ref="268927243"/>
    <nd ref="21681316"/>
    <tag k="highway" v="residential"/>
    <tag k="maxspeed" v="50"/>
    <tag k="maxspeed:source" v="default residential speed limit in Australia"/>
    <tag k="name" v="Wahlooga Way"/>
  </way>
  <way id="24745175" version="3" timestamp="2010-02-15T12:13:13Z" uid="74617" user="JohnSmith" changeset="3882541">
    <nd ref="251748181"/>
    <nd ref="268927244"/>
    <nd ref="268927245"/>
    <nd ref="268927246"/>
    <nd ref="268927247"/>
    <nd ref="268927248"/>
    <nd ref="263220008"/>
    <nd ref="268927098"/>
    <nd ref="268927099"/>
    <nd ref="268927100"/>
    <nd ref="268927101"/>
    <nd ref="268927102"/>
    <nd ref="634174416"/>
    <nd ref="268927092"/>
    <nd ref="268927093"/>
    <nd ref="268927084"/>
    <nd ref="584389126"/>
    <nd ref="268927085"/>
    <nd ref="268927086"/>
    <nd ref="584389130"/>
    <nd ref="268927087"/>
    <nd ref="268927056"/>
    <nd ref="268927057"/>
    <nd ref="268927058"/>
    <nd ref="268927059"/>
    <nd ref="268927060"/>
    <nd ref="268927061"/>
    <nd ref="268927062"/>
    <nd ref="268927063"/>
    <nd ref="253122435"/>
    <tag k="highway" v="residential"/>
    <tag k="maxspeed" v="50"/>
    <tag k="name" v="Montgomery Drive"/>
  </way>
  <way id="24745175" version="4" timestamp="2010-04-24T15:11:40Z" uid="4467" user="Rosscoe" changeset="4512737">
    <nd ref="251748181"/>
    <nd ref="268927244"/>
    <nd ref="268927245"/>
    <nd ref="268927246"/>
    <nd ref="268927247"/>
    <nd ref="268927248"/>
    <nd ref="263220008"/>
    <nd ref="268927098"/>
    <nd ref="268927099"/>
    <nd ref="268927100"/>
    <nd ref="268927101"/>
    <nd ref="268927102"/>
    <nd ref="634174416"/>
    <nd ref="268927092"/>
    <nd ref="268927093"/>
    <nd ref="705213401"/>
    <tag k="highway" v="residential"/>
    <tag k="maxspeed" v="50"/>
    <tag k="name" v="Montgomery Drive"/>
  </way>
  <way id="24745175" version="5" timestamp="2010-04-24T15:16:50Z" uid="4467" user="Rosscoe" changeset="4512764">
    <nd ref="251748181"/>
    <nd ref="268927244"/>
    <nd ref="268927245"/>
    <nd ref="268927246"/>
    <nd ref="268927247"/>
    <nd ref="268927248"/>
    <nd ref="263220008"/>
    <nd ref="268927098"/>
    <nd ref="268927099"/>
    <nd ref="268927100"/>
    <nd ref="268927101"/>
    <nd ref="268927102"/>
    <nd ref="634174416"/>
    <nd ref="705218856"/>
    <nd ref="268927092"/>
    <nd ref="268927093"/>
    <nd ref="705213401"/>
    <tag k="highway" v="residential"/>
    <tag k="maxspeed" v="50"/>
    <tag k="name" v="Montgomery Drive"/>
  </way>
  <way id="24745177" version="3" timestamp="2010-07-07T08:00:58Z" uid="74617" user="JohnSmith" changeset="5156250">
    <nd ref="268927243"/>
    <nd ref="268927249"/>
    <nd ref="268927250"/>
    <tag k="highway" v="residential"/>
    <tag k="maxspeed" v="50"/>
    <tag k="maxspeed:source" v="default residential speed limit in Australia"/>
    <tag k="name" v="Cooringa Court"/>
  </way>
  <way id="24745178" version="3" timestamp="2010-02-15T12:13:16Z" uid="74617" user="JohnSmith" changeset="3882541">
    <nd ref="268927251"/>
    <nd ref="268927252"/>
    <nd ref="268927101"/>
    <tag k="highway" v="residential"/>
    <tag k="maxspeed" v="50"/>
    <tag k="name" v="Wembley Court"/>
  </way>
  <way id="24745184" version="3" timestamp="2010-02-15T12:13:15Z" uid="74617" user="JohnSmith" changeset="3882541">
    <nd ref="268927247"/>
    <nd ref="268927379"/>
    <nd ref="268927380"/>
    <nd ref="268927381"/>
    <nd ref="268927382"/>
    <nd ref="268927383"/>
    <nd ref="268927384"/>
    <nd ref="268927385"/>
    <nd ref="268927386"/>
    <nd ref="268927387"/>
    <nd ref="268927388"/>
    <nd ref="268927389"/>
    <nd ref="268927390"/>
    <nd ref="268927391"/>
    <nd ref="268927392"/>
    <nd ref="268927393"/>
    <nd ref="268927394"/>
    <nd ref="268927395"/>
    <nd ref="268927396"/>
    <nd ref="268927397"/>
    <nd ref="268927398"/>
    <nd ref="268927399"/>
    <nd ref="268927400"/>
    <nd ref="268927092"/>
    <tag k="highway" v="residential"/>
    <tag k="maxspeed" v="50"/>
    <tag k="name" v="Caledonian Crescent"/>
  </way>
  <way id="24745186" version="3" timestamp="2010-02-15T12:13:16Z" uid="74617" user="JohnSmith" changeset="3882541">
    <nd ref="268927401"/>
    <nd ref="268927402"/>
    <nd ref="268927403"/>
    <nd ref="268927404"/>
    <nd ref="268927405"/>
    <nd ref="268927400"/>
    <tag k="highway" v="residential"/>
    <tag k="maxspeed" v="50"/>
    <tag k="name" v="Pembroke Court"/>
  </way>
  <way id="24745190" version="3" timestamp="2010-02-15T12:11:21Z" uid="74617" user="JohnSmith" changeset="3882541">
    <nd ref="268927409"/>
    <nd ref="268927410"/>
    <nd ref="268927411"/>
    <nd ref="268927412"/>
    <nd ref="268927413"/>
    <nd ref="268927414"/>
    <nd ref="268927415"/>
    <nd ref="268927416"/>
    <nd ref="268927394"/>
    <tag k="highway" v="residential"/>
    <tag k="maxspeed" v="50"/>
    <tag k="name" v="Middleton Court"/>
  </way>
  <way id="24745191" version="3" timestamp="2010-02-15T12:13:15Z" uid="74617" user="JohnSmith" changeset="3882541">
    <nd ref="268927426"/>
    <nd ref="268927427"/>
    <nd ref="268927428"/>
    <nd ref="268927429"/>
    <nd ref="268927430"/>
    <nd ref="268927390"/>
    <tag k="highway" v="residential"/>
    <tag k="maxspeed" v="50"/>
    <tag k="name" v="Stonebridge Street"/>
  </way>
  <way id="24745195" version="3" timestamp="2010-02-15T12:13:16Z" uid="74617" user="JohnSmith" changeset="3882541">
    <nd ref="268927501"/>
    <nd ref="268927502"/>
    <nd ref="268927503"/>
    <nd ref="268927504"/>
    <nd ref="268927505"/>
    <nd ref="268927387"/>
    <tag k="highway" v="residential"/>
    <tag k="maxspeed" v="50"/>
    <tag k="name" v="Kingsbury Court"/>
  </way>
  <way id="24745197" version="3" timestamp="2010-02-15T12:13:15Z" uid="74617" user="JohnSmith" changeset="3882541">
    <nd ref="268927550"/>
    <nd ref="268927551"/>
    <nd ref="268927552"/>
    <nd ref="268927553"/>
    <nd ref="268927554"/>
    <nd ref="268927383"/>
    <tag k="highway" v="residential"/>
    <tag k="maxspeed" v="50"/>
    <tag k="name" v="Cromwell Court"/>
  </way>
  <way id="24745200" version="2" timestamp="2010-07-07T08:01:26Z" uid="74617" user="JohnSmith" changeset="5156250">
    <nd ref="21681332"/>
    <nd ref="268927763"/>
    <tag k="highway" v="residential"/>
    <tag k="maxspeed" v="50"/>
    <tag k="maxspeed:source" v="default residential speed limit in Australia"/>
    <tag k="name" v="Yakatoon Court"/>
  </way>
  <way id="24745201" version="4" timestamp="2010-02-15T12:12:35Z" uid="74617" user="JohnSmith" changeset="3882541">
    <nd ref="268927764"/>
    <nd ref="268927765"/>
    <nd ref="268927766"/>
    <nd ref="268927767"/>
    <nd ref="268927769"/>
    <nd ref="253122232"/>
    <tag k="highway" v="residential"/>
    <tag k="maxspeed" v="50"/>
    <tag k="name" v="Andamooka Place"/>
  </way>
  <way id="24745202" version="1" timestamp="2008-06-07T08:46:32Z" uid="36803" user="Lords" changeset="89396">
    <nd ref="268927418"/>
    <nd ref="268927476"/>
    <nd ref="268927421"/>
    <nd ref="268927419"/>
    <tag k="created_by" v="JOSM"/>
    <tag k="highway" v="residential"/>
    <tag k="name" v="Am schwarzen Weg"/>
  </way>
  <way id="24745203" version="1" timestamp="2008-06-07T08:46:32Z" uid="36803" user="Lords" changeset="89396">
    <nd ref="268927419"/>
    <nd ref="268927475"/>
    <nd ref="268927420"/>
    <tag k="created_by" v="JOSM"/>
    <tag k="highway" v="residential"/>
    <tag k="name" v="Am Steinbruch"/>
  </way>
  <way id="24745204" version="1" timestamp="2008-06-07T08:46:32Z" uid="36803" user="Lords" changeset="89396">
    <nd ref="268927421"/>
    <nd ref="268927481"/>
    <nd ref="268927422"/>
    <nd ref="268927423"/>
    <nd ref="268927424"/>
    <nd ref="268927425"/>
    <nd ref="268927431"/>
    <nd ref="268927432"/>
    <nd ref="268927433"/>
    <nd ref="268927434"/>
    <nd ref="268927435"/>
    <nd ref="268927436"/>
    <nd ref="268927437"/>
    <nd ref="268927438"/>
    <nd ref="268927455"/>
    <nd ref="268927472"/>
    <nd ref="268927473"/>
    <nd ref="268927474"/>
    <nd ref="268927475"/>
    <tag k="created_by" v="JOSM"/>
    <tag k="highway" v="residential"/>
    <tag k="name" v="Parkweg"/>
  </way>
  <way id="24745206" version="1" timestamp="2008-06-07T08:46:33Z" uid="36803" user="Lords" changeset="89396">
    <nd ref="268927476"/>
    <nd ref="268927492"/>
    <nd ref="268927477"/>
    <nd ref="268927478"/>
    <nd ref="268927479"/>
    <nd ref="268927480"/>
    <nd ref="268927483"/>
    <nd ref="268927481"/>
    <tag k="created_by" v="JOSM"/>
    <tag k="highway" v="residential"/>
    <tag k="name" v="Parkweg"/>
  </way>
  <way id="24745207" version="1" timestamp="2008-06-07T08:46:34Z" uid="36803" user="Lords" changeset="89396">
    <nd ref="268927483"/>
    <nd ref="268927491"/>
    <nd ref="268927492"/>
    <tag k="created_by" v="JOSM"/>
    <tag k="highway" v="residential"/>
    <tag k="name" v="Parkweg"/>
  </way>
  <way id="24745208" version="1" timestamp="2008-06-07T08:46:34Z" uid="36803" user="Lords" changeset="89396">
    <nd ref="268927493"/>
    <nd ref="268927495"/>
    <nd ref="268927498"/>
    <nd ref="268927494"/>
    <tag k="created_by" v="JOSM"/>
    <tag k="highway" v="residential"/>
    <tag k="name" v="Mölbitzer Weg"/>
  </way>
  <way id="24745209" version="1" timestamp="2008-06-07T08:46:34Z" uid="36803" user="Lords" changeset="89396">
    <nd ref="268927495"/>
    <nd ref="268927496"/>
    <nd ref="268927497"/>
    <tag k="created_by" v="JOSM"/>
    <tag k="highway" v="residential"/>
    <tag k="name" v="Mölbitzer Weg"/>
  </way>
  <way id="24745210" version="4" timestamp="2010-02-15T12:12:35Z" uid="74617" user="JohnSmith" changeset="3882541">
    <nd ref="584393643"/>
    <nd ref="584393645"/>
    <nd ref="268927780"/>
    <nd ref="268927765"/>
    <tag k="highway" v="residential"/>
    <tag k="maxspeed" v="50"/>
    <tag k="name" v="Amber Place"/>
  </way>
  <way id="24745211" version="1" timestamp="2008-06-07T08:46:35Z" uid="36803" user="Lords" changeset="89396">
    <nd ref="268927498"/>
    <nd ref="268927499"/>
    <nd ref="268927500"/>
    <nd ref="268927506"/>
    <tag k="created_by" v="JOSM"/>
    <tag k="highway" v="residential"/>
    <tag k="name" v="Schulstraße"/>
  </way>
  <way id="24745212" version="1" timestamp="2008-06-07T08:46:35Z" uid="36803" user="Lords" changeset="89396">
    <nd ref="268927508"/>
    <nd ref="268927509"/>
    <nd ref="268927510"/>
    <nd ref="268927511"/>
    <nd ref="268927540"/>
    <tag k="created_by" v="JOSM"/>
    <tag k="highway" v="residential"/>
    <tag k="name" v="Straße des Friedens"/>
  </way>
  <way id="24745213" version="1" timestamp="2008-06-07T08:46:35Z" uid="36803" user="Lords" changeset="89396">
    <nd ref="268927509"/>
    <nd ref="268927512"/>
    <nd ref="268927513"/>
    <nd ref="268927514"/>
    <nd ref="268927541"/>
    <tag k="created_by" v="JOSM"/>
    <tag k="highway" v="residential"/>
    <tag k="name" v="Franz-Dietze-Weg"/>
  </way>
  <way id="24745214" version="1" timestamp="2008-06-07T08:46:36Z" uid="36803" user="Lords" changeset="89396">
    <nd ref="268927515"/>
    <nd ref="268927547"/>
    <nd ref="268927516"/>
    <nd ref="268927537"/>
    <nd ref="268927541"/>
    <nd ref="268927540"/>
    <nd ref="268927538"/>
    <nd ref="268927539"/>
    <nd ref="33172997"/>
    <tag k="created_by" v="JOSM"/>
    <tag k="highway" v="residential"/>
    <tag k="name" v="Droyssiger Weg"/>
  </way>
  <way id="24745214" version="2" timestamp="2008-06-11T15:19:24Z" uid="36803" user="Lords" changeset="134458">
    <nd ref="268927515"/>
    <nd ref="269707797"/>
    <nd ref="268927547"/>
    <nd ref="268927516"/>
    <nd ref="268927537"/>
    <nd ref="268927541"/>
    <nd ref="268927540"/>
    <nd ref="268927538"/>
    <nd ref="268927539"/>
    <nd ref="33172997"/>
    <tag k="created_by" v="JOSM"/>
    <tag k="highway" v="residential"/>
    <tag k="name" v="Droyssiger Weg"/>
  </way>
  <way id="24745215" version="1" timestamp="2008-06-07T08:46:36Z" uid="36803" user="Lords" changeset="89396">
    <nd ref="268927539"/>
    <nd ref="268927543"/>
    <nd ref="268927542"/>
    <tag k="created_by" v="JOSM"/>
    <tag k="highway" v="residential"/>
    <tag k="name" v="Droyssiger Weg"/>
  </way>
  <way id="24745216" version="1" timestamp="2008-06-07T08:46:36Z" uid="36803" user="Lords" changeset="89396">
    <nd ref="268927543"/>
    <nd ref="268927544"/>
    <tag k="created_by" v="JOSM"/>
    <tag k="highway" v="residential"/>
    <tag k="name" v="Droyssiger Weg"/>
  </way>
  <way id="24745217" version="1" timestamp="2008-06-07T08:46:37Z" uid="36803" user="Lords" changeset="89396">
    <nd ref="268927545"/>
    <nd ref="268927546"/>
    <nd ref="268927547"/>
    <tag k="created_by" v="JOSM"/>
  </way>
  <way id="24745218" version="1" timestamp="2008-06-07T08:46:37Z" uid="36803" user="Lords" changeset="89396">
    <nd ref="265046718"/>
    <nd ref="265046720"/>
    <nd ref="265046721"/>
    <nd ref="268927548"/>
    <tag k="created_by" v="Potlatch 0.9a"/>
    <tag k="highway" v="unclassified"/>
    <tag k="name" v="Thomas-Müntzer-Straße"/>
  </way>
  <way id="24745219" version="1" timestamp="2008-06-07T08:46:37Z" uid="36803" user="Lords" changeset="89396">
    <nd ref="268927639"/>
    <nd ref="268927661"/>
    <nd ref="268927681"/>
    <tag k="created_by" v="Potlatch 0.9a"/>
    <tag k="highway" v="unclassified"/>
    <tag k="name" v="Thomas-Müntzer-Straße"/>
  </way>
  <way id="24745220" version="1" timestamp="2008-06-07T08:46:38Z" uid="36803" user="Lords" changeset="89396">
    <nd ref="268927681"/>
    <nd ref="268927548"/>
    <nd ref="268927549"/>
    <nd ref="268927555"/>
    <nd ref="268927563"/>
    <nd ref="268927591"/>
    <nd ref="268927616"/>
    <nd ref="268927710"/>
    <tag k="created_by" v="Potlatch 0.9a"/>
    <tag k="highway" v="unclassified"/>
    <tag k="name" v="Thomas-Müntzer-Straße"/>
  </way>
  <way id="24745221" version="1" timestamp="2008-06-07T08:46:38Z" uid="36803" user="Lords" changeset="89396">
    <nd ref="31077762"/>
    <nd ref="265046574"/>
    <nd ref="31077763"/>
    <nd ref="248844219"/>
    <nd ref="31077764"/>
    <nd ref="31077765"/>
    <nd ref="31077766"/>
    <nd ref="31077767"/>
    <nd ref="31077768"/>
    <tag k="created_by" v="Potlatch 0.9a"/>
    <tag k="railway" v="rail"/>
  </way>
  <way id="24745222" version="1" timestamp="2008-06-07T08:46:38Z" uid="36803" user="Lords" changeset="89396">
    <nd ref="268927707"/>
    <nd ref="268927709"/>
    <tag k="bridge" v="yes"/>
    <tag k="created_by" v="Potlatch 0.9a"/>
    <tag k="layer" v="1"/>
    <tag k="railway" v="rail"/>
  </way>
  <way id="24745223" version="1" timestamp="2008-06-07T08:46:39Z" uid="36803" user="Lords" changeset="89396">
    <nd ref="268927709"/>
    <nd ref="31077762"/>
    <tag k="created_by" v="Potlatch 0.9a"/>
    <tag k="railway" v="rail"/>
  </way>
  <way id="24745224" version="1" timestamp="2008-06-07T08:46:39Z" uid="36803" user="Lords" changeset="89396">
    <nd ref="268927616"/>
    <nd ref="268927711"/>
    <nd ref="268927712"/>
    <nd ref="268927713"/>
    <nd ref="268927714"/>
    <nd ref="268927715"/>
    <nd ref="268927716"/>
    <nd ref="268927717"/>
    <nd ref="268927718"/>
    <nd ref="268927719"/>
    <nd ref="268927720"/>
    <nd ref="268927721"/>
    <nd ref="268927722"/>
    <nd ref="268927723"/>
    <nd ref="268927724"/>
    <tag k="created_by" v="JOSM"/>
    <tag k="highway" v="secondary"/>
    <tag k="name" v="Köthener Landstraße"/>
    <tag k="ref" v="L 143"/>
  </way>
  <way id="24745225" version="1" timestamp="2008-06-07T08:46:40Z" uid="36803" user="Lords" changeset="89396">
    <nd ref="268927725"/>
    <nd ref="268927726"/>
    <nd ref="268927727"/>
    <tag k="created_by" v="JOSM"/>
    <tag k="highway" v="secondary"/>
    <tag k="name" v="Köthener Landstraße"/>
    <tag k="ref" v="L 143"/>
  </way>
  <way id="24745226" version="1" timestamp="2008-06-07T08:46:40Z" uid="36803" user="Lords" changeset="89396">
    <nd ref="268927724"/>
    <nd ref="268927725"/>
    <tag k="bridge" v="true"/>
    <tag k="created_by" v="JOSM"/>
    <tag k="highway" v="secondary"/>
    <tag k="layer" v="-1"/>
    <tag k="name" v="Köthener Landstraße"/>
    <tag k="ref" v="L 143"/>
  </way>
  <way id="24745227" version="1" timestamp="2008-06-07T08:46:41Z" uid="36803" user="Lords" changeset="89396">
    <nd ref="268927751"/>
    <nd ref="268927752"/>
    <nd ref="268927753"/>
    <nd ref="268927754"/>
    <nd ref="268927755"/>
    <nd ref="268927756"/>
    <nd ref="268927757"/>
    <nd ref="268927758"/>
    <nd ref="268927759"/>
    <nd ref="268927760"/>
    <nd ref="268927761"/>
    <nd ref="268927762"/>
    <nd ref="268927768"/>
    <nd ref="268927770"/>
    <nd ref="268927771"/>
    <nd ref="268927772"/>
    <tag k="created_by" v="JOSM"/>
    <tag k="highway" v="secondary"/>
    <tag k="ref" v="L 143"/>
  </way>
  <way id="24745228" version="1" timestamp="2008-06-07T08:46:41Z" uid="36803" user="Lords" changeset="89396">
    <nd ref="268927727"/>
    <nd ref="268927728"/>
    <nd ref="268927729"/>
    <nd ref="268927730"/>
    <nd ref="268927731"/>
    <nd ref="268927732"/>
    <nd ref="268927733"/>
    <nd ref="268927734"/>
    <nd ref="268927735"/>
    <nd ref="268927736"/>
    <nd ref="268927737"/>
    <nd ref="268927738"/>
    <nd ref="268927739"/>
    <nd ref="268927740"/>
    <nd ref="268927741"/>
    <nd ref="268927742"/>
    <nd ref="268927743"/>
    <nd ref="268927744"/>
    <nd ref="268927745"/>
    <nd ref="268927746"/>
    <nd ref="268927747"/>
    <nd ref="268927748"/>
    <nd ref="268927749"/>
    <nd ref="268927750"/>
    <nd ref="268927751"/>
    <tag k="created_by" v="JOSM"/>
    <tag k="highway" v="secondary"/>
    <tag k="name" v="Zörbiger Landstraße"/>
    <tag k="ref" v="L 143"/>
  </way>
  <way id="24745231" version="3" timestamp="2010-02-15T12:11:22Z" uid="74617" user="JohnSmith" changeset="3882541">
    <nd ref="268927841"/>
    <nd ref="268927842"/>
    <nd ref="268927843"/>
    <nd ref="268927844"/>
    <nd ref="268927845"/>
    <nd ref="268927846"/>
    <nd ref="268927847"/>
    <nd ref="268927848"/>
    <nd ref="268927993"/>
    <nd ref="268927849"/>
    <nd ref="268927850"/>
    <nd ref="268927851"/>
    <nd ref="268927852"/>
    <nd ref="268927854"/>
    <nd ref="268927856"/>
    <nd ref="268927857"/>
    <nd ref="268927858"/>
    <nd ref="268927859"/>
    <nd ref="251748166"/>
    <tag k="highway" v="residential"/>
    <tag k="maxspeed" v="50"/>
  </way>
  <way id="24745232" version="2" timestamp="2010-02-15T12:13:05Z" uid="74617" user="JohnSmith" changeset="3882541">
    <nd ref="268927909"/>
    <nd ref="268927910"/>
    <nd ref="268927911"/>
    <nd ref="268927854"/>
    <tag k="highway" v="residential"/>
    <tag k="maxspeed" v="50"/>
  </way>
  <way id="24745233" version="2" timestamp="2010-02-15T12:13:05Z" uid="74617" user="JohnSmith" changeset="3882541">
    <nd ref="268927935"/>
    <nd ref="268927936"/>
    <nd ref="268927937"/>
    <nd ref="268927910"/>
    <tag k="highway" v="residential"/>
    <tag k="maxspeed" v="50"/>
  </way>
  <way id="24745234" version="2" timestamp="2010-07-07T08:01:29Z" uid="74617" user="JohnSmith" changeset="5156250">
    <nd ref="268927781"/>
    <nd ref="268927986"/>
    <nd ref="268927988"/>
    <nd ref="268927990"/>
    <nd ref="268927992"/>
    <nd ref="268927994"/>
    <nd ref="268927995"/>
    <nd ref="268927996"/>
    <nd ref="268927998"/>
    <nd ref="268927999"/>
    <nd ref="268928000"/>
    <tag k="highway" v="residential"/>
    <tag k="maxspeed" v="50"/>
    <tag k="maxspeed:source" v="default residential speed limit in Australia"/>
    <tag k="name" v="Narooma Drive"/>
  </way>
  <way id="24745235" version="2" timestamp="2010-02-15T12:12:35Z" uid="74617" user="JohnSmith" changeset="3882541">
    <nd ref="268927987"/>
    <nd ref="268927989"/>
    <nd ref="268927991"/>
    <nd ref="268927993"/>
    <tag k="highway" v="residential"/>
    <tag k="maxspeed" v="50"/>
  </way>
  <way id="24745262" version="2" timestamp="2010-07-07T08:00:57Z" uid="74617" user="JohnSmith" changeset="5156250">
    <nd ref="267618230"/>
    <nd ref="268928122"/>
    <nd ref="268928123"/>
    <nd ref="268928124"/>
    <nd ref="268928125"/>
    <nd ref="268928126"/>
    <nd ref="268928127"/>
    <nd ref="268928128"/>
    <nd ref="268928129"/>
    <nd ref="268928131"/>
    <nd ref="268928132"/>
    <nd ref="268927994"/>
    <tag k="highway" v="residential"/>
    <tag k="maxspeed" v="50"/>
    <tag k="maxspeed:source" v="default residential speed limit in Australia"/>
    <tag k="name" v="Bulgoon Srescent"/>
  </way>
  <way id="24745264" version="4" timestamp="2010-02-15T12:13:17Z" uid="74617" user="JohnSmith" changeset="3882541">
    <nd ref="268928153"/>
    <nd ref="268928154"/>
    <nd ref="268928155"/>
    <nd ref="268928156"/>
    <nd ref="584389034"/>
    <nd ref="268928157"/>
    <nd ref="584389038"/>
    <nd ref="268927087"/>
    <tag k="highway" v="residential"/>
    <tag k="maxspeed" v="50"/>
    <tag k="name" v="Bethnal Court"/>
  </way>
  <way id="24745267" version="4" timestamp="2010-02-15T12:13:17Z" uid="74617" user="JohnSmith" changeset="3882541">
    <nd ref="268928167"/>
    <nd ref="268928168"/>
    <nd ref="268928169"/>
    <nd ref="268927085"/>
    <tag k="highway" v="residential"/>
    <tag k="maxspeed" v="50"/>
    <tag k="name" v="Euston Court"/>
  </way>
  <way id="24745268" version="2" timestamp="2010-07-07T08:02:16Z" uid="74617" user="JohnSmith" changeset="5156250">
    <nd ref="268928128"/>
    <nd ref="268928170"/>
    <nd ref="268928171"/>
    <nd ref="268928172"/>
    <tag k="highway" v="residential"/>
    <tag k="maxspeed" v="50"/>
    <tag k="maxspeed:source" v="default residential speed limit in Australia"/>
    <tag k="name" v="Tinbin Way"/>
  </way>
  <way id="24745271" version="5" timestamp="2010-02-15T12:11:22Z" uid="74617" user="JohnSmith" changeset="3882541">
    <nd ref="253122426"/>
    <nd ref="584391081"/>
    <nd ref="268928173"/>
    <nd ref="584390977"/>
    <nd ref="268928283"/>
    <nd ref="268928284"/>
    <nd ref="268928285"/>
    <nd ref="268928286"/>
    <nd ref="268928287"/>
    <nd ref="268928288"/>
    <nd ref="268928289"/>
    <nd ref="268928290"/>
    <nd ref="268928291"/>
    <nd ref="268928292"/>
    <nd ref="268928293"/>
    <nd ref="584388998"/>
    <nd ref="268928294"/>
    <nd ref="268928295"/>
    <nd ref="268928296"/>
    <nd ref="268928297"/>
    <nd ref="268928298"/>
    <nd ref="268928299"/>
    <nd ref="268928300"/>
    <nd ref="268927084"/>
    <tag k="highway" v="residential"/>
    <tag k="maxspeed" v="50"/>
    <tag k="name" v="Chesterfield Crescent"/>
  </way>
  <way id="24745271" version="6" timestamp="2010-04-24T15:11:34Z" uid="4467" user="Rosscoe" changeset="4512737">
    <nd ref="253122426"/>
    <nd ref="584391081"/>
    <nd ref="268928173"/>
    <nd ref="584390977"/>
    <nd ref="268928283"/>
    <nd ref="268928284"/>
    <nd ref="268928285"/>
    <nd ref="268928286"/>
    <nd ref="268928287"/>
    <nd ref="268928288"/>
    <nd ref="268928289"/>
    <nd ref="268928290"/>
    <nd ref="268928291"/>
    <nd ref="268928292"/>
    <nd ref="268928293"/>
    <nd ref="584388998"/>
    <nd ref="268928294"/>
    <nd ref="268928295"/>
    <nd ref="268928296"/>
    <nd ref="268928297"/>
    <nd ref="268928298"/>
    <nd ref="268928299"/>
    <nd ref="268928300"/>
    <nd ref="705213328"/>
    <tag k="highway" v="residential"/>
    <tag k="maxspeed" v="50"/>
    <tag k="name" v="Chesterfield Crescent"/>
  </way>
  <way id="24745272" version="2" timestamp="2010-07-07T08:03:40Z" uid="74617" user="JohnSmith" changeset="5156250">
    <nd ref="268928174"/>
    <nd ref="268928301"/>
    <nd ref="268928302"/>
    <nd ref="268928303"/>
    <nd ref="268928304"/>
    <nd ref="268928305"/>
    <nd ref="268928306"/>
    <tag k="highway" v="residential"/>
    <tag k="maxspeed" v="50"/>
    <tag k="maxspeed:source" v="default residential speed limit in Australia"/>
    <tag k="name" v="Kiah Close"/>
  </way>
  <way id="24745275" version="4" timestamp="2010-02-15T12:13:18Z" uid="74617" user="JohnSmith" changeset="3882541">
    <nd ref="268928330"/>
    <nd ref="268928331"/>
    <nd ref="584389051"/>
    <nd ref="584389054"/>
    <nd ref="268928287"/>
    <tag k="highway" v="residential"/>
    <tag k="maxspeed" v="50"/>
    <tag k="name" v="Pembury Court"/>
  </way>
  <way id="24745283" version="4" timestamp="2010-02-15T12:11:23Z" uid="74617" user="JohnSmith" changeset="3882541">
    <nd ref="268928348"/>
    <nd ref="268928349"/>
    <nd ref="268928350"/>
    <nd ref="268928351"/>
    <nd ref="584389065"/>
    <nd ref="268928352"/>
    <nd ref="584389069"/>
    <nd ref="268928290"/>
    <tag k="highway" v="residential"/>
    <tag k="maxspeed" v="50"/>
    <tag k="name" v="Mornington Court"/>
  </way>
  <way id="24745286" version="5" timestamp="2010-02-15T12:11:23Z" uid="74617" user="JohnSmith" changeset="3882541">
    <nd ref="268928389"/>
    <nd ref="584391007"/>
    <nd ref="584391009"/>
    <nd ref="584391012"/>
    <nd ref="584391014"/>
    <nd ref="584391016"/>
    <nd ref="584391018"/>
    <nd ref="584391024"/>
    <nd ref="584391027"/>
    <nd ref="268928373"/>
    <nd ref="268928374"/>
    <nd ref="268928293"/>
    <tag k="highway" v="residential"/>
    <tag k="maxspeed" v="50"/>
    <tag k="name" v="Lords Street"/>
  </way>
  <way id="24745287" version="2" timestamp="2010-07-07T08:01:08Z" uid="74617" user="JohnSmith" changeset="5156250">
    <nd ref="268928323"/>
    <nd ref="268928375"/>
    <nd ref="268928376"/>
    <tag k="highway" v="residential"/>
    <tag k="maxspeed" v="50"/>
    <tag k="maxspeed:source" v="default residential speed limit in Australia"/>
    <tag k="name" v="Tathra Glen"/>
  </way>
  <way id="24745291" version="4" timestamp="2010-02-15T12:12:37Z" uid="74617" user="JohnSmith" changeset="3882541">
    <nd ref="268928389"/>
    <nd ref="584390986"/>
    <nd ref="268928390"/>
    <nd ref="268928391"/>
    <nd ref="584390989"/>
    <nd ref="268928392"/>
    <nd ref="268928393"/>
    <nd ref="584390996"/>
    <nd ref="268928394"/>
    <nd ref="268928395"/>
    <nd ref="268928396"/>
    <nd ref="268928173"/>
    <tag k="highway" v="residential"/>
    <tag k="maxspeed" v="50"/>
    <tag k="name" v="Dalston Street"/>
  </way>
  <way id="24745292" version="5" timestamp="2010-02-15T12:12:37Z" uid="74617" user="JohnSmith" changeset="3882541">
    <nd ref="584391038"/>
    <nd ref="268928397"/>
    <nd ref="268928394"/>
    <tag k="highway" v="residential"/>
    <tag k="maxspeed" v="50"/>
    <tag k="name" v="Eastcote Lane"/>
  </way>
  <way id="24745293" version="2" timestamp="2010-07-07T08:02:52Z" uid="74617" user="JohnSmith" changeset="5156250">
    <nd ref="268928384"/>
    <nd ref="268928399"/>
    <nd ref="268928400"/>
    <nd ref="268928401"/>
    <nd ref="268928402"/>
    <tag k="highway" v="residential"/>
    <tag k="maxspeed" v="50"/>
    <tag k="maxspeed:source" v="default residential speed limit in Australia"/>
    <tag k="name" v="Coonawarra Court"/>
  </way>
  <way id="24745294" version="4" timestamp="2010-02-15T12:11:23Z" uid="74617" user="JohnSmith" changeset="3882541">
    <nd ref="584388948"/>
    <nd ref="268928403"/>
    <nd ref="268928404"/>
    <nd ref="584388950"/>
    <nd ref="268928405"/>
    <nd ref="268928406"/>
    <nd ref="268928407"/>
    <nd ref="584388958"/>
    <nd ref="268928296"/>
    <tag k="highway" v="residential"/>
    <tag k="maxspeed" v="50"/>
    <tag k="name" v="Coventry Court"/>
  </way>
  <way id="24745295" version="1" timestamp="2008-06-07T08:49:40Z" uid="30201" user="rrankin" changeset="81397">
    <nd ref="247041029"/>
    <nd ref="247041030"/>
    <tag k="bridge" v="yes"/>
    <tag k="created_by" v="JOSM"/>
    <tag k="highway" v="motorway"/>
    <tag k="lanes" v="3"/>
    <tag k="layer" v="1"/>
    <tag k="name" v="Western Motorway"/>
    <tag k="oneway" v="yes"/>
    <tag k="ref" v="MR4"/>
    <tag k="toll" v="yes"/>
  </way>
  <way id="24745295" version="4" timestamp="2010-03-07T06:18:36Z" uid="7617" user="Franc" changeset="4057533">
    <nd ref="247041029"/>
    <nd ref="247041030"/>
    <tag k="bicycle" v="no"/>
    <tag k="bridge" v="yes"/>
    <tag k="highway" v="motorway"/>
    <tag k="lanes" v="3"/>
    <tag k="layer" v="1"/>
    <tag k="maxspeed" v="signals"/>
    <tag k="name" v="Western Motorway"/>
    <tag k="oneway" v="yes"/>
    <tag k="ref" v="MR4"/>
  </way>
  <way id="24745295" version="5" timestamp="2010-04-01T07:39:40Z" uid="74617" user="JohnSmith" changeset="4291360">
    <nd ref="247041029"/>
    <nd ref="247041030"/>
    <tag k="bicycle" v="no"/>
    <tag k="bridge" v="yes"/>
    <tag k="highway" v="motorway"/>
    <tag k="lanes" v="3"/>
    <tag k="layer" v="1"/>
    <tag k="maxspeed" v="signals"/>
    <tag k="oneway" v="yes"/>
  </way>
  <way id="24745296" version="4" timestamp="2010-02-15T12:11:23Z" uid="74617" user="JohnSmith" changeset="3882541">
    <nd ref="268928408"/>
    <nd ref="268928409"/>
    <nd ref="268928410"/>
    <nd ref="268928407"/>
    <tag k="highway" v="residential"/>
    <tag k="maxspeed" v="50"/>
    <tag k="name" v="Folkestone Court"/>
  </way>
  <way id="24745301" version="5" timestamp="2010-07-08T19:58:21Z" uid="74617" user="JohnSmith" changeset="5168688">
    <nd ref="268928416"/>
    <nd ref="268928548"/>
    <nd ref="268928481"/>
    <nd ref="268928437"/>
    <nd ref="268928438"/>
    <tag k="highway" v="residential"/>
    <tag k="maxspeed" v="50"/>
    <tag k="maxspeed:source" v="default residential speed limit in Australia"/>
    <tag k="name" v="Falconer Road"/>
  </way>
  <way id="24745303" version="5" timestamp="2010-07-08T19:53:14Z" uid="74617" user="JohnSmith" changeset="5168688">
    <nd ref="268928439"/>
    <nd ref="613297081"/>
    <nd ref="613297100"/>
    <nd ref="268928438"/>
    <tag k="highway" v="residential"/>
    <tag k="maxspeed" v="50"/>
    <tag k="maxspeed:source" v="default residential speed limit in Australia"/>
    <tag k="name" v="Janville Street"/>
  </way>
  <way id="24745303" version="6" timestamp="2010-08-17T04:00:08Z" uid="4467" user="Rosscoe" changeset="5514333">
    <nd ref="613297134"/>
    <nd ref="268928439"/>
    <nd ref="864279773"/>
    <nd ref="268928438"/>
    <tag k="highway" v="residential"/>
    <tag k="maxspeed" v="50"/>
    <tag k="maxspeed:source" v="default residential speed limit in Australia"/>
    <tag k="name" v="Janville Street"/>
  </way>
  <way id="24745305" version="2" timestamp="2010-07-07T08:03:02Z" uid="74617" user="JohnSmith" changeset="5156250">
    <nd ref="268926729"/>
    <nd ref="268928448"/>
    <nd ref="268928449"/>
    <nd ref="268928450"/>
    <nd ref="21681253"/>
    <tag k="highway" v="residential"/>
    <tag k="maxspeed" v="50"/>
    <tag k="maxspeed:source" v="default residential speed limit in Australia"/>
    <tag k="name" v="Kuringai Way"/>
  </way>
  <way id="24745308" version="3" timestamp="2010-02-15T12:17:20Z" uid="74617" user="JohnSmith" changeset="3882541">
    <nd ref="268928465"/>
    <nd ref="268928466"/>
    <nd ref="268928467"/>
    <nd ref="268928468"/>
    <nd ref="268928469"/>
    <nd ref="268928470"/>
    <nd ref="268928471"/>
    <nd ref="268928472"/>
    <nd ref="268928473"/>
    <nd ref="268928474"/>
    <nd ref="268928475"/>
    <nd ref="268928476"/>
    <nd ref="268928477"/>
    <nd ref="268928478"/>
    <nd ref="268928479"/>
    <nd ref="253122799"/>
    <tag k="highway" v="residential"/>
    <tag k="maxspeed" v="50"/>
    <tag k="name" v="Spurs Drive"/>
  </way>
  <way id="24745309" version="3" timestamp="2010-02-15T12:17:21Z" uid="74617" user="JohnSmith" changeset="3882541">
    <nd ref="268928480"/>
    <nd ref="268928466"/>
    <tag k="highway" v="residential"/>
    <tag k="maxspeed" v="50"/>
    <tag k="name" v="Grenaid Court"/>
  </way>
  <way id="24745313" version="3" timestamp="2010-02-15T12:17:19Z" uid="74617" user="JohnSmith" changeset="3882541">
    <nd ref="268928469"/>
    <nd ref="268928528"/>
    <nd ref="268928529"/>
    <nd ref="268928530"/>
    <nd ref="268928531"/>
    <nd ref="268928532"/>
    <nd ref="268928533"/>
    <nd ref="268928534"/>
    <nd ref="268928535"/>
    <nd ref="268928536"/>
    <nd ref="268928474"/>
    <tag k="highway" v="residential"/>
    <tag k="maxspeed" v="50"/>
    <tag k="name" v="Skinnder Avenue"/>
  </way>
  <way id="24745315" version="3" timestamp="2010-02-15T12:17:21Z" uid="74617" user="JohnSmith" changeset="3882541">
    <nd ref="268928540"/>
    <nd ref="268928541"/>
    <nd ref="268928533"/>
    <tag k="highway" v="residential"/>
    <tag k="maxspeed" v="50"/>
    <tag k="name" v="Beldale Court"/>
  </way>
  <way id="24745316" version="3" timestamp="2010-07-08T19:53:37Z" uid="74617" user="JohnSmith" changeset="5168688">
    <nd ref="268928481"/>
    <nd ref="268928543"/>
    <nd ref="268928544"/>
    <nd ref="268928545"/>
    <nd ref="268928546"/>
    <nd ref="268928547"/>
    <nd ref="268928548"/>
    <tag k="highway" v="residential"/>
    <tag k="maxspeed" v="50"/>
    <tag k="maxspeed:source" v="default residential speed limit in Australia"/>
    <tag k="name" v="Unavale Crescent"/>
  </way>
  <way id="24745317" version="3" timestamp="2010-02-15T12:17:20Z" uid="74617" user="JohnSmith" changeset="3882541">
    <nd ref="268928549"/>
    <nd ref="268928550"/>
    <nd ref="268928534"/>
    <tag k="highway" v="residential"/>
    <tag k="maxspeed" v="50"/>
    <tag k="name" v="Arwon Court"/>
  </way>
  <way id="24745320" version="3" timestamp="2010-02-15T12:17:20Z" uid="74617" user="JohnSmith" changeset="3882541">
    <nd ref="268928599"/>
    <nd ref="268928600"/>
    <nd ref="253122894"/>
    <tag k="highway" v="residential"/>
    <tag k="maxspeed" v="50"/>
    <tag k="name" v="Gunsynd Court"/>
  </way>
  <way id="24745326" version="3" timestamp="2010-02-15T12:17:20Z" uid="74617" user="JohnSmith" changeset="3882541">
    <nd ref="268928628"/>
    <nd ref="268928629"/>
    <nd ref="268928630"/>
    <nd ref="268928631"/>
    <nd ref="253122897"/>
    <tag k="highway" v="residential"/>
    <tag k="maxspeed" v="50"/>
    <tag k="name" v="Burwana Place"/>
  </way>
  <way id="24745327" version="2" timestamp="2010-07-07T08:00:50Z" uid="74617" user="JohnSmith" changeset="5156250">
    <nd ref="268928542"/>
    <nd ref="268928633"/>
    <nd ref="268928634"/>
    <nd ref="268928635"/>
    <nd ref="268928636"/>
    <tag k="highway" v="residential"/>
    <tag k="maxspeed" v="50"/>
    <tag k="maxspeed:source" v="default residential speed limit in Australia"/>
    <tag k="name" v="Kanandah Court"/>
  </way>
  <way id="24745338" version="3" timestamp="2010-02-15T12:17:13Z" uid="74617" user="JohnSmith" changeset="3882541">
    <nd ref="268928710"/>
    <nd ref="268928711"/>
    <nd ref="268928712"/>
    <nd ref="268928713"/>
    <nd ref="268928714"/>
    <nd ref="268928715"/>
    <nd ref="268928716"/>
    <nd ref="268928717"/>
    <nd ref="268928718"/>
    <nd ref="268928719"/>
    <nd ref="253122895"/>
    <tag k="highway" v="residential"/>
    <tag k="maxspeed" v="50"/>
    <tag k="name" v="Prunda Cct"/>
  </way>
  <way id="24745338" version="4" timestamp="2010-05-28T07:10:03Z" uid="4467" user="Rosscoe" changeset="4828080">
    <nd ref="268928710"/>
    <nd ref="268928711"/>
    <nd ref="268928712"/>
    <nd ref="268928713"/>
    <nd ref="268928714"/>
    <nd ref="268928715"/>
    <nd ref="268928716"/>
    <nd ref="268928717"/>
    <nd ref="268928718"/>
    <nd ref="268928719"/>
    <nd ref="253122895"/>
    <tag k="highway" v="residential"/>
    <tag k="maxspeed" v="50"/>
    <tag k="name" v="Prunda Circuit"/>
  </way>
  <way id="24745339" version="10" timestamp="2010-07-08T19:50:17Z" uid="74617" user="JohnSmith" changeset="5168688">
    <nd ref="268928632"/>
    <nd ref="268928738"/>
    <nd ref="268930760"/>
    <nd ref="268928794"/>
    <nd ref="268930937"/>
    <nd ref="268928909"/>
    <nd ref="268931101"/>
    <nd ref="268928720"/>
    <tag k="highway" v="residential"/>
    <tag k="maxspeed" v="50"/>
    <tag k="maxspeed:source" v="default residential speed limit in Australia"/>
    <tag k="name" v="Browning Road"/>
  </way>
  <way id="24745344" version="4" timestamp="2010-02-15T12:17:13Z" uid="74617" user="JohnSmith" changeset="3882541">
    <nd ref="253122900"/>
    <nd ref="268928730"/>
    <nd ref="268928731"/>
    <nd ref="268928732"/>
    <nd ref="268928733"/>
    <nd ref="268928734"/>
    <nd ref="268928757"/>
    <nd ref="268928756"/>
    <nd ref="268928755"/>
    <nd ref="268928754"/>
    <nd ref="268928753"/>
    <tag k="highway" v="residential"/>
    <tag k="maxspeed" v="50"/>
    <tag k="name" v="Archer Place"/>
  </way>
  <way id="24745346" version="3" timestamp="2010-07-08T19:54:52Z" uid="74617" user="JohnSmith" changeset="5168688">
    <nd ref="268928545"/>
    <nd ref="268928738"/>
    <tag k="highway" v="residential"/>
    <tag k="maxspeed" v="50"/>
    <tag k="maxspeed:source" v="default residential speed limit in Australia"/>
    <tag k="name" v="Barbara Avenue"/>
  </way>
  <way id="24745350" version="2" timestamp="2010-02-15T12:17:21Z" uid="74617" user="JohnSmith" changeset="3882541">
    <nd ref="268928762"/>
    <nd ref="253122902"/>
    <tag k="highway" v="residential"/>
    <tag k="maxspeed" v="50"/>
  </way>
  <way id="24745353" version="2" timestamp="2010-02-15T12:17:21Z" uid="74617" user="JohnSmith" changeset="3882541">
    <nd ref="268928780"/>
    <nd ref="268928781"/>
    <nd ref="253122905"/>
    <tag k="highway" v="residential"/>
    <tag k="maxspeed" v="50"/>
  </way>
  <way id="24745356" version="2" timestamp="2010-07-07T08:01:37Z" uid="74617" user="JohnSmith" changeset="5156250">
    <nd ref="267620742"/>
    <nd ref="268928796"/>
    <nd ref="268928797"/>
    <nd ref="268928799"/>
    <nd ref="268928800"/>
    <nd ref="268928801"/>
    <nd ref="268928802"/>
    <tag k="highway" v="residential"/>
    <tag k="maxspeed" v="50"/>
    <tag k="maxspeed:source" v="default residential speed limit in Australia"/>
    <tag k="name" v="Langi Place"/>
  </way>
  <way id="24745359" version="3" timestamp="2010-07-08T20:00:56Z" uid="74617" user="JohnSmith" changeset="5168688">
    <nd ref="268928794"/>
    <nd ref="268928808"/>
    <tag k="highway" v="residential"/>
    <tag k="maxspeed" v="50"/>
    <tag k="maxspeed:source" v="default residential speed limit in Australia"/>
    <tag k="name" v="Davey Street"/>
  </way>
  <way id="24745360" version="3" timestamp="2010-02-15T12:17:19Z" uid="74617" user="JohnSmith" changeset="3882541">
    <nd ref="253122802"/>
    <nd ref="268928809"/>
    <nd ref="268928810"/>
    <nd ref="268928811"/>
    <nd ref="268928812"/>
    <nd ref="268928813"/>
    <nd ref="268928814"/>
    <nd ref="268928815"/>
    <nd ref="253122896"/>
    <tag k="highway" v="residential"/>
    <tag k="maxspeed" v="50"/>
    <tag k="name" v="Datrello Drive"/>
  </way>
  <way id="24745362" version="3" timestamp="2010-02-15T12:17:20Z" uid="74617" user="JohnSmith" changeset="3882541">
    <nd ref="268928816"/>
    <nd ref="268928817"/>
    <nd ref="268928811"/>
    <tag k="highway" v="residential"/>
    <tag k="maxspeed" v="50"/>
    <tag k="name" v="Rosedale Court"/>
  </way>
  <way id="24745363" version="4" timestamp="2010-02-15T12:17:20Z" uid="74617" user="JohnSmith" changeset="3882541">
    <nd ref="268928812"/>
    <nd ref="268928836"/>
    <nd ref="268928837"/>
    <nd ref="268928819"/>
    <nd ref="268928820"/>
    <nd ref="253122893"/>
    <tag k="highway" v="residential"/>
    <tag k="maxspeed" v="50"/>
    <tag k="name" v="Biscay Street"/>
  </way>
  <way id="24745369" version="3" timestamp="2010-02-15T12:17:19Z" uid="74617" user="JohnSmith" changeset="3882541">
    <nd ref="268928843"/>
    <nd ref="268928844"/>
    <nd ref="268928845"/>
    <nd ref="268928846"/>
    <nd ref="268928819"/>
    <tag k="highway" v="residential"/>
    <tag k="maxspeed" v="50"/>
    <tag k="name" v="Aureo Court"/>
  </way>
  <way id="24745371" version="2" timestamp="2010-07-07T08:03:28Z" uid="74617" user="JohnSmith" changeset="5156250">
    <nd ref="267620746"/>
    <nd ref="268928848"/>
    <nd ref="268928849"/>
    <nd ref="268928850"/>
    <nd ref="268928851"/>
    <nd ref="268928852"/>
    <tag k="highway" v="residential"/>
    <tag k="maxspeed" v="50"/>
    <tag k="maxspeed:source" v="default residential speed limit in Australia"/>
    <tag k="name" v="Wirree Drive"/>
  </way>
  <way id="24745373" version="6" timestamp="2010-07-08T19:57:40Z" uid="74617" user="JohnSmith" changeset="5168688">
    <nd ref="268928835"/>
    <nd ref="626326751"/>
    <nd ref="268928866"/>
    <nd ref="268929118"/>
    <nd ref="266490978"/>
    <nd ref="268928857"/>
    <nd ref="268928858"/>
    <nd ref="268928859"/>
    <nd ref="268928860"/>
    <nd ref="268928720"/>
    <tag k="highway" v="residential"/>
    <tag k="maxspeed" v="50"/>
    <tag k="maxspeed:source" v="default residential speed limit in Australia"/>
    <tag k="name" v="Rose Avenue"/>
  </way>
  <way id="24745373" version="7" timestamp="2011-03-13T01:53:26Z" uid="4467" user="Rosscoe" changeset="7540264"/>
  <way id="24745374" version="2" timestamp="2010-02-15T12:17:13Z" uid="74617" user="JohnSmith" changeset="3882541">
    <nd ref="268928861"/>
    <nd ref="268928862"/>
    <nd ref="253122812"/>
    <tag k="highway" v="residential"/>
    <tag k="maxspeed" v="50"/>
  </way>
  <way id="24745376" version="3" timestamp="2010-02-15T12:17:13Z" uid="74617" user="JohnSmith" changeset="3882541">
    <nd ref="268928868"/>
    <nd ref="268928861"/>
    <nd ref="268928869"/>
    <nd ref="268928870"/>
    <nd ref="268928871"/>
    <nd ref="268928872"/>
    <nd ref="268928873"/>
    <nd ref="268928874"/>
    <nd ref="268928875"/>
    <nd ref="268928876"/>
    <nd ref="268928877"/>
    <nd ref="268928878"/>
    <nd ref="268928879"/>
    <nd ref="253122909"/>
    <tag k="highway" v="residential"/>
    <tag k="maxspeed" v="50"/>
    <tag k="name" v="Redgrove Avenue"/>
  </way>
  <way id="24745381" version="3" timestamp="2010-02-15T12:17:21Z" uid="74617" user="JohnSmith" changeset="3882541">
    <nd ref="268928886"/>
    <nd ref="268928887"/>
    <nd ref="268928888"/>
    <nd ref="268928889"/>
    <nd ref="268928878"/>
    <tag k="highway" v="residential"/>
    <tag k="maxspeed" v="50"/>
    <tag k="name" v="Eastern Court"/>
  </way>
  <way id="24745384" version="3" timestamp="2010-02-15T12:17:21Z" uid="74617" user="JohnSmith" changeset="3882541">
    <nd ref="268928894"/>
    <nd ref="268928895"/>
    <nd ref="268928896"/>
    <nd ref="268928897"/>
    <nd ref="268928898"/>
    <nd ref="268928899"/>
    <nd ref="268928900"/>
    <nd ref="268928901"/>
    <nd ref="253122913"/>
    <tag k="highway" v="residential"/>
    <tag k="maxspeed" v="50"/>
    <tag k="name" v="Paige Court"/>
  </way>
  <way id="24745385" version="4" timestamp="2010-07-08T19:57:27Z" uid="74617" user="JohnSmith" changeset="5168688">
    <nd ref="268928866"/>
    <nd ref="268928902"/>
    <nd ref="268928903"/>
    <nd ref="268928904"/>
    <nd ref="268928905"/>
    <nd ref="268928906"/>
    <nd ref="268928907"/>
    <nd ref="268928935"/>
    <nd ref="268928908"/>
    <nd ref="268928909"/>
    <tag k="highway" v="residential"/>
    <tag k="maxspeed" v="50"/>
    <tag k="maxspeed:source" v="default residential speed limit in Australia"/>
    <tag k="name" v="Faraday Street"/>
  </way>
  <way id="24745398" version="4" timestamp="2010-02-15T12:17:21Z" uid="74617" user="JohnSmith" changeset="3882541">
    <nd ref="253122919"/>
    <nd ref="268928954"/>
    <nd ref="569894754"/>
    <nd ref="253125821"/>
    <tag k="highway" v="residential"/>
    <tag k="maxspeed" v="50"/>
    <tag k="name" v="Nelson Road"/>
  </way>
  <way id="24745401" version="3" timestamp="2010-02-15T12:17:22Z" uid="74617" user="JohnSmith" changeset="3882541">
    <nd ref="268928959"/>
    <nd ref="268928954"/>
    <tag k="highway" v="residential"/>
    <tag k="maxspeed" v="50"/>
    <tag k="name" v="Massip Court"/>
  </way>
  <way id="24745404" version="3" timestamp="2010-07-08T19:57:53Z" uid="74617" user="JohnSmith" changeset="5168688">
    <nd ref="268928935"/>
    <nd ref="268928963"/>
    <nd ref="268928964"/>
    <tag k="highway" v="residential"/>
    <tag k="maxspeed" v="50"/>
    <tag k="maxspeed:source" v="default residential speed limit in Australia"/>
    <tag k="name" v="Gaynor Court"/>
  </way>
  <way id="24745406" version="3" timestamp="2010-07-07T08:01:05Z" uid="74617" user="JohnSmith" changeset="5156250">
    <nd ref="268928893"/>
    <nd ref="268928968"/>
    <nd ref="268929127"/>
    <nd ref="268928969"/>
    <nd ref="268928970"/>
    <tag k="highway" v="residential"/>
    <tag k="maxspeed" v="50"/>
    <tag k="maxspeed:source" v="default residential speed limit in Australia"/>
    <tag k="name" v="North Head Road"/>
  </way>
  <way id="24745407" version="4" timestamp="2010-02-15T12:17:21Z" uid="74617" user="JohnSmith" changeset="3882541">
    <nd ref="268929039"/>
    <nd ref="268929040"/>
    <nd ref="268928971"/>
    <nd ref="573039093"/>
    <nd ref="253122919"/>
    <tag k="highway" v="residential"/>
    <tag k="maxspeed" v="50"/>
  </way>
  <way id="24745409" version="3" timestamp="2010-07-07T08:00:56Z" uid="74617" user="JohnSmith" changeset="5156250">
    <nd ref="268928968"/>
    <nd ref="268928997"/>
    <tag k="highway" v="residential"/>
    <tag k="maxspeed" v="50"/>
    <tag k="maxspeed:source" v="default residential speed limit in Australia"/>
    <tag k="name" v="Brunswick Street"/>
  </way>
  <way id="24745432" version="3" timestamp="2010-07-07T08:01:07Z" uid="74617" user="JohnSmith" changeset="5156250">
    <nd ref="268929059"/>
    <nd ref="268928997"/>
    <nd ref="268929060"/>
    <tag k="highway" v="residential"/>
    <tag k="maxspeed" v="50"/>
    <tag k="maxspeed:source" v="default residential speed limit in Australia"/>
    <tag k="name" v="Short Street"/>
  </way>
  <way id="24745442" version="3" timestamp="2010-02-15T12:16:52Z" uid="74617" user="JohnSmith" changeset="3882541">
    <nd ref="268913047"/>
    <nd ref="268929106"/>
    <nd ref="268929107"/>
    <nd ref="268929108"/>
    <nd ref="268929109"/>
    <nd ref="268929039"/>
    <tag k="highway" v="residential"/>
    <tag k="maxspeed" v="50"/>
    <tag k="name" v="Collingwood Road"/>
  </way>
  <way id="24745448" version="3" timestamp="2010-07-07T08:03:25Z" uid="74617" user="JohnSmith" changeset="5156250">
    <nd ref="268929125"/>
    <nd ref="268929126"/>
    <nd ref="268929127"/>
    <nd ref="268929196"/>
    <nd ref="268929129"/>
    <tag k="highway" v="residential"/>
    <tag k="maxspeed" v="50"/>
    <tag k="maxspeed:source" v="default residential speed limit in Australia"/>
    <tag k="name" v="Riversea Lane"/>
  </way>
  <way id="24745456" version="2" timestamp="2010-07-07T08:02:18Z" uid="74617" user="JohnSmith" changeset="5156250">
    <nd ref="268929195"/>
    <nd ref="268929196"/>
    <nd ref="268929199"/>
    <tag k="highway" v="residential"/>
    <tag k="maxspeed" v="50"/>
    <tag k="maxspeed:source" v="default residential speed limit in Australia"/>
    <tag k="name" v="Dolphin Lane"/>
  </way>
  <way id="24745466" version="5" timestamp="2010-02-15T12:17:25Z" uid="74617" user="JohnSmith" changeset="3882541">
    <nd ref="268929108"/>
    <nd ref="569079862"/>
    <nd ref="268929211"/>
    <nd ref="268929264"/>
    <nd ref="268929265"/>
    <tag k="highway" v="residential"/>
    <tag k="maxspeed" v="50"/>
    <tag k="name" v="High Road"/>
  </way>
  <way id="24745471" version="3" timestamp="2010-07-08T20:01:46Z" uid="74617" user="JohnSmith" changeset="5168688">
    <nd ref="268929118"/>
    <nd ref="268929292"/>
    <nd ref="268929293"/>
    <nd ref="268929294"/>
    <tag k="highway" v="residential"/>
    <tag k="maxspeed" v="50"/>
    <tag k="maxspeed:source" v="default residential speed limit in Australia"/>
    <tag k="name" v="Laurel Avenue"/>
  </way>
  <way id="24745474" version="2" timestamp="2010-07-08T19:39:47Z" uid="74617" user="JohnSmith" changeset="5168688">
    <nd ref="268929263"/>
    <nd ref="268929310"/>
    <tag k="highway" v="residential"/>
    <tag k="maxspeed" v="50"/>
    <tag k="maxspeed:source" v="default residential speed limit in Australia"/>
  </way>
  <way id="24745482" version="6" timestamp="2010-07-07T08:04:01Z" uid="74617" user="JohnSmith" changeset="5156250">
    <nd ref="267620864"/>
    <nd ref="268929428"/>
    <nd ref="267620863"/>
    <nd ref="268929402"/>
    <nd ref="268929342"/>
    <nd ref="268929386"/>
    <nd ref="268929343"/>
    <tag k="highway" v="residential"/>
    <tag k="maxspeed" v="50"/>
    <tag k="maxspeed:source" v="default residential speed limit in Australia"/>
    <tag k="name" v="The Esplanade"/>
  </way>
  <way id="24745483" version="8" timestamp="2010-02-15T12:16:52Z" uid="74617" user="JohnSmith" changeset="3882541">
    <nd ref="268929109"/>
    <nd ref="564583053"/>
    <nd ref="268929169"/>
    <nd ref="268929345"/>
    <nd ref="569079873"/>
    <nd ref="268929346"/>
    <nd ref="569079897"/>
    <nd ref="268929347"/>
    <tag k="highway" v="residential"/>
    <tag k="maxspeed" v="50"/>
    <tag k="name" v="Hardy Road"/>
  </way>
  <way id="24745483" version="9" timestamp="2010-04-24T15:16:49Z" uid="4467" user="Rosscoe" changeset="4512764">
    <nd ref="268929109"/>
    <nd ref="564583053"/>
    <nd ref="705218869"/>
    <tag k="highway" v="residential"/>
    <tag k="maxspeed" v="50"/>
    <tag k="name" v="Hardy Road"/>
  </way>
  <way id="24745493" version="2" timestamp="2010-07-08T19:38:44Z" uid="74617" user="JohnSmith" changeset="5168688">
    <nd ref="268929344"/>
    <nd ref="268929399"/>
    <tag k="highway" v="residential"/>
    <tag k="maxspeed" v="50"/>
    <tag k="maxspeed:source" v="default residential speed limit in Australia"/>
  </way>
  <way id="24745497" version="3" timestamp="2010-02-15T12:17:30Z" uid="74617" user="JohnSmith" changeset="3882541">
    <nd ref="268929413"/>
    <nd ref="268929414"/>
    <nd ref="268929442"/>
    <nd ref="268929441"/>
    <tag k="highway" v="residential"/>
    <tag k="maxspeed" v="50"/>
    <tag k="name" v="Paul Street"/>
  </way>
  <way id="24745500" version="3" timestamp="2010-02-15T12:17:30Z" uid="74617" user="JohnSmith" changeset="3882541">
    <nd ref="268929431"/>
    <nd ref="268929432"/>
    <nd ref="268929414"/>
    <tag k="highway" v="residential"/>
    <tag k="maxspeed" v="50"/>
    <tag k="name" v="Tonita Court"/>
  </way>
  <way id="24745504" version="2" timestamp="2010-07-08T19:45:29Z" uid="74617" user="JohnSmith" changeset="5168688">
    <nd ref="268929443"/>
    <nd ref="268929444"/>
    <nd ref="268929445"/>
    <nd ref="268929399"/>
    <nd ref="268929446"/>
    <nd ref="268929447"/>
    <nd ref="268929448"/>
    <nd ref="268929449"/>
    <tag k="highway" v="residential"/>
    <tag k="maxspeed" v="50"/>
    <tag k="maxspeed:source" v="default residential speed limit in Australia"/>
  </way>
  <way id="24745507" version="3" timestamp="2008-08-08T20:15:58Z" uid="16922" user="amai" changeset="140856">
    <nd ref="2454693"/>
    <nd ref="2454695"/>
    <tag k="bridge" v="yes"/>
    <tag k="created_by" v="Potlatch 0.10b"/>
    <tag k="highway" v="trunk"/>
    <tag k="layer" v="1"/>
    <tag k="oneway" v="yes"/>
    <tag k="ref" v="B 45"/>
  </way>
  <way id="24745508" version="3" timestamp="2008-08-08T20:15:50Z" uid="16922" user="amai" changeset="140856">
    <nd ref="27141272"/>
    <nd ref="27141273"/>
    <tag k="bridge" v="yes"/>
    <tag k="created_by" v="Potlatch 0.10b"/>
    <tag k="highway" v="trunk"/>
    <tag k="lanes" v="2"/>
    <tag k="layer" v="1"/>
    <tag k="oneway" v="yes"/>
    <tag k="ref" v="B 45"/>
  </way>
  <way id="24745511" version="2" timestamp="2010-02-15T12:17:25Z" uid="74617" user="JohnSmith" changeset="3882541">
    <nd ref="268929551"/>
    <nd ref="268913053"/>
    <tag k="highway" v="residential"/>
    <tag k="maxspeed" v="50"/>
  </way>
  <way id="24745512" version="4" timestamp="2010-07-07T08:03:20Z" uid="74617" user="JohnSmith" changeset="5156250">
    <nd ref="268928970"/>
    <nd ref="268929552"/>
    <tag k="highway" v="residential"/>
    <tag k="maxspeed" v="50"/>
    <tag k="maxspeed:source" v="default residential speed limit in Australia"/>
  </way>
  <way id="24745513" version="2" timestamp="2010-02-15T12:17:26Z" uid="74617" user="JohnSmith" changeset="3882541">
    <nd ref="268929553"/>
    <nd ref="268913051"/>
    <tag k="highway" v="residential"/>
    <tag k="maxspeed" v="50"/>
  </way>
  <way id="24745548" version="11" timestamp="2010-07-08T19:39:59Z" uid="74617" user="JohnSmith" changeset="5168688">
    <nd ref="268929686"/>
    <nd ref="268929800"/>
    <nd ref="268929814"/>
    <nd ref="268929821"/>
    <nd ref="268929728"/>
    <nd ref="268929729"/>
    <nd ref="268929730"/>
    <nd ref="268929755"/>
    <nd ref="268929731"/>
    <nd ref="268929911"/>
    <nd ref="268930041"/>
    <nd ref="614126789"/>
    <nd ref="268929732"/>
    <nd ref="614126790"/>
    <nd ref="614126791"/>
    <nd ref="614126792"/>
    <nd ref="268929733"/>
    <nd ref="268929734"/>
    <nd ref="268929735"/>
    <tag k="highway" v="residential"/>
    <tag k="maxspeed" v="50"/>
    <tag k="maxspeed:source" v="default residential speed limit in Australia"/>
    <tag k="name" v="Farnham Road"/>
  </way>
  <way id="24745549" version="3" timestamp="2010-02-15T12:16:53Z" uid="74617" user="JohnSmith" changeset="3882541">
    <nd ref="268929831"/>
    <nd ref="268929832"/>
    <nd ref="268929833"/>
    <nd ref="268929736"/>
    <nd ref="268913054"/>
    <tag k="highway" v="residential"/>
    <tag k="maxspeed" v="50"/>
  </way>
  <way id="24745551" version="2" timestamp="2010-02-15T12:17:26Z" uid="74617" user="JohnSmith" changeset="3882541">
    <nd ref="268929737"/>
    <nd ref="268913052"/>
    <tag k="highway" v="residential"/>
    <tag k="maxspeed" v="50"/>
  </way>
  <way id="24745553" version="5" timestamp="2010-02-15T12:16:53Z" uid="74617" user="JohnSmith" changeset="3882541">
    <nd ref="268929901"/>
    <nd ref="268929942"/>
    <nd ref="268929951"/>
    <nd ref="268929944"/>
    <nd ref="268929744"/>
    <nd ref="268913043"/>
    <tag k="highway" v="residential"/>
    <tag k="maxspeed" v="50"/>
    <tag k="name" v="Duck Street"/>
  </way>
  <way id="24745555" version="6" timestamp="2010-07-08T19:52:53Z" uid="74617" user="JohnSmith" changeset="5168688">
    <nd ref="268929743"/>
    <nd ref="268929792"/>
    <nd ref="268929801"/>
    <nd ref="268929815"/>
    <nd ref="268929753"/>
    <nd ref="268929754"/>
    <nd ref="268929755"/>
    <tag k="highway" v="residential"/>
    <tag k="maxspeed" v="50"/>
    <tag k="maxspeed:source" v="default residential speed limit in Australia"/>
    <tag k="name" v="Sinclair Road"/>
  </way>
  <way id="24745555" version="7" timestamp="2011-03-13T01:53:22Z" uid="4467" user="Rosscoe" changeset="7540264">
    <nd ref="268929743"/>
    <nd ref="268929792"/>
    <nd ref="268929801"/>
    <nd ref="268929815"/>
    <nd ref="268929753"/>
    <nd ref="268929754"/>
    <nd ref="268929755"/>
    <tag k="highway" v="residential"/>
    <tag k="maxspeed" v="50"/>
    <tag k="maxspeed:source" v="default residential speed limit in Australia"/>
    <tag k="name" v="Sinclair Road"/>
  </way>
  <way id="24745558" version="3" timestamp="2010-07-08T19:45:47Z" uid="74617" user="JohnSmith" changeset="5168688">
    <nd ref="268929792"/>
    <nd ref="268929800"/>
    <tag k="highway" v="residential"/>
    <tag k="maxspeed" v="50"/>
    <tag k="maxspeed:source" v="default residential speed limit in Australia"/>
    <tag k="name" v="Bertram Road"/>
  </way>
  <way id="24745559" version="4" timestamp="2010-02-15T12:17:10Z" uid="74617" user="JohnSmith" changeset="3882541">
    <nd ref="268929802"/>
    <nd ref="268929803"/>
    <nd ref="268929797"/>
    <tag k="highway" v="residential"/>
    <tag k="maxspeed" v="50"/>
    <tag k="name" v="Admiral Court"/>
  </way>
  <way id="24745561" version="3" timestamp="2010-07-08T19:50:20Z" uid="74617" user="JohnSmith" changeset="5168688">
    <nd ref="268929801"/>
    <nd ref="268929814"/>
    <tag k="highway" v="residential"/>
    <tag k="maxspeed" v="50"/>
    <tag k="maxspeed:source" v="default residential speed limit in Australia"/>
    <tag k="name" v="Kenneth Road"/>
  </way>
  <way id="24745562" version="3" timestamp="2010-02-15T12:16:53Z" uid="74617" user="JohnSmith" changeset="3882541">
    <nd ref="268929816"/>
    <nd ref="268929817"/>
    <nd ref="268929818"/>
    <nd ref="268929819"/>
    <nd ref="268929726"/>
    <nd ref="268929727"/>
    <nd ref="268913055"/>
    <tag k="highway" v="residential"/>
    <tag k="maxspeed" v="50"/>
    <tag k="name" v="Bauhinia Street"/>
  </way>
  <way id="24745564" version="3" timestamp="2010-07-08T19:56:31Z" uid="74617" user="JohnSmith" changeset="5168688">
    <nd ref="268929815"/>
    <nd ref="268929821"/>
    <tag k="highway" v="residential"/>
    <tag k="maxspeed" v="50"/>
    <tag k="maxspeed:source" v="default residential speed limit in Australia"/>
    <tag k="name" v="Percival Street"/>
  </way>
  <way id="24745566" version="3" timestamp="2010-02-15T12:16:53Z" uid="74617" user="JohnSmith" changeset="3882541">
    <nd ref="268929826"/>
    <nd ref="268929816"/>
    <nd ref="268929827"/>
    <nd ref="268929828"/>
    <nd ref="268929829"/>
    <nd ref="268929830"/>
    <tag k="highway" v="residential"/>
    <tag k="maxspeed" v="50"/>
    <tag k="name" v="Fuchsia Court"/>
  </way>
  <way id="24745569" version="3" timestamp="2010-02-15T12:17:18Z" uid="74617" user="JohnSmith" changeset="3882541">
    <nd ref="268929873"/>
    <nd ref="268929874"/>
    <nd ref="268929831"/>
    <nd ref="268929875"/>
    <nd ref="268929827"/>
    <tag k="highway" v="residential"/>
    <tag k="maxspeed" v="50"/>
    <tag k="name" v="Lobelia Street"/>
  </way>
  <way id="24745571" version="3" timestamp="2010-02-15T12:17:18Z" uid="74617" user="JohnSmith" changeset="3882541">
    <nd ref="268929876"/>
    <nd ref="268929833"/>
    <tag k="highway" v="residential"/>
    <tag k="maxspeed" v="50"/>
    <tag k="name" v="Goldcrest Court"/>
  </way>
  <way id="24745573" version="3" timestamp="2010-02-15T12:17:26Z" uid="74617" user="JohnSmith" changeset="3882541">
    <nd ref="268929901"/>
    <nd ref="268929902"/>
    <nd ref="268929903"/>
    <nd ref="268929737"/>
    <nd ref="268929904"/>
    <nd ref="268929905"/>
    <nd ref="268929906"/>
    <nd ref="268929907"/>
    <nd ref="268929908"/>
    <nd ref="268929909"/>
    <nd ref="268929910"/>
    <nd ref="268929894"/>
    <nd ref="268929895"/>
    <nd ref="268929896"/>
    <nd ref="268929877"/>
    <nd ref="268929878"/>
    <nd ref="268929879"/>
    <nd ref="268929736"/>
    <tag k="highway" v="residential"/>
    <tag k="maxspeed" v="50"/>
    <tag k="name" v="Cresthill Street"/>
  </way>
  <way id="24745575" version="2" timestamp="2010-02-15T12:16:53Z" uid="74617" user="JohnSmith" changeset="3882541">
    <nd ref="268929891"/>
    <nd ref="268929892"/>
    <nd ref="268929893"/>
    <nd ref="268929877"/>
    <tag k="highway" v="residential"/>
    <tag k="maxspeed" v="50"/>
  </way>
  <way id="24745582" version="3" timestamp="2010-02-15T12:17:18Z" uid="74617" user="JohnSmith" changeset="3882541">
    <nd ref="268929950"/>
    <nd ref="268929951"/>
    <tag k="highway" v="residential"/>
    <tag k="maxspeed" v="50"/>
    <tag k="name" v="Palgold Court"/>
  </way>
  <way id="24745585" version="4" timestamp="2010-07-08T20:01:28Z" uid="74617" user="JohnSmith" changeset="5168688">
    <nd ref="268929911"/>
    <nd ref="268929970"/>
    <nd ref="268929971"/>
    <nd ref="268930016"/>
    <nd ref="268929972"/>
    <tag k="highway" v="residential"/>
    <tag k="maxspeed" v="50"/>
    <tag k="maxspeed:source" v="default residential speed limit in Australia"/>
  </way>
  <way id="24745586" version="3" timestamp="2010-02-15T12:17:17Z" uid="74617" user="JohnSmith" changeset="3882541">
    <nd ref="268929973"/>
    <nd ref="268929944"/>
    <tag k="highway" v="residential"/>
    <tag k="maxspeed" v="50"/>
    <tag k="name" v="Lapidus Street"/>
  </way>
  <way id="24745589" version="3" timestamp="2010-02-15T12:16:53Z" uid="74617" user="JohnSmith" changeset="3882541">
    <nd ref="268929910"/>
    <nd ref="268929993"/>
    <nd ref="268929992"/>
    <nd ref="268929991"/>
    <nd ref="268929990"/>
    <nd ref="268930024"/>
    <nd ref="268930025"/>
    <nd ref="268930026"/>
    <nd ref="268930027"/>
    <nd ref="268930028"/>
    <nd ref="268930029"/>
    <nd ref="268930030"/>
    <nd ref="268929987"/>
    <nd ref="268929988"/>
    <nd ref="268929989"/>
    <nd ref="268929901"/>
    <tag k="highway" v="residential"/>
    <tag k="maxspeed" v="50"/>
    <tag k="name" v="Leilani Drive"/>
  </way>
  <way id="24745594" version="3" timestamp="2010-02-15T12:17:17Z" uid="74617" user="JohnSmith" changeset="3882541">
    <nd ref="268929989"/>
    <nd ref="268929990"/>
    <tag k="highway" v="residential"/>
    <tag k="maxspeed" v="50"/>
    <tag k="name" v="Johnston Avenue"/>
  </way>
  <way id="24745596" version="2" timestamp="2010-07-08T20:00:38Z" uid="74617" user="JohnSmith" changeset="5168688">
    <nd ref="268929972"/>
    <nd ref="268930012"/>
    <nd ref="268930013"/>
    <nd ref="268930014"/>
    <tag k="highway" v="residential"/>
    <tag k="maxspeed" v="50"/>
    <tag k="maxspeed:source" v="default residential speed limit in Australia"/>
  </way>
  <way id="24745597" version="3" timestamp="2010-02-15T12:17:17Z" uid="74617" user="JohnSmith" changeset="3882541">
    <nd ref="268930015"/>
    <nd ref="268929987"/>
    <tag k="highway" v="residential"/>
    <tag k="maxspeed" v="50"/>
    <tag k="name" v="Major Court"/>
  </way>
  <way id="24745598" version="2" timestamp="2010-07-08T19:54:13Z" uid="74617" user="JohnSmith" changeset="5168688">
    <nd ref="268930016"/>
    <nd ref="268930021"/>
    <tag k="highway" v="residential"/>
    <tag k="maxspeed" v="50"/>
    <tag k="maxspeed:source" v="default residential speed limit in Australia"/>
  </way>
  <way id="24745606" version="2" timestamp="2010-07-08T19:51:54Z" uid="74617" user="JohnSmith" changeset="5168688">
    <nd ref="268930041"/>
    <nd ref="268930076"/>
    <nd ref="268930077"/>
    <nd ref="268930078"/>
    <tag k="highway" v="residential"/>
    <tag k="maxspeed" v="50"/>
    <tag k="maxspeed:source" v="default residential speed limit in Australia"/>
  </way>
  <way id="24745626" version="3" timestamp="2009-02-08T15:54:06Z" uid="49111" user="Markus B" changeset="271257">
    <nd ref="268930229"/>
    <nd ref="268930231"/>
    <nd ref="268930232"/>
    <nd ref="268930233"/>
    <nd ref="268930234"/>
    <nd ref="268930235"/>
    <nd ref="268930236"/>
    <nd ref="268930237"/>
    <nd ref="268930238"/>
    <nd ref="268930239"/>
    <nd ref="268930241"/>
    <nd ref="268930242"/>
    <nd ref="268930243"/>
    <nd ref="268930244"/>
    <nd ref="268930245"/>
    <nd ref="268930246"/>
    <nd ref="268930247"/>
    <nd ref="268930248"/>
    <nd ref="268930249"/>
    <nd ref="268930250"/>
    <nd ref="268930251"/>
    <nd ref="268930252"/>
    <nd ref="268930253"/>
    <nd ref="268930229"/>
    <tag k="created_by" v="Potlatch 0.10f"/>
    <tag k="landuse" v="forest"/>
  </way>
  <way id="24745627" version="10" timestamp="2010-07-08T19:52:28Z" uid="74617" user="JohnSmith" changeset="5168688">
    <nd ref="268930191"/>
    <nd ref="268930604"/>
    <nd ref="268930883"/>
    <nd ref="268930306"/>
    <nd ref="268931086"/>
    <nd ref="268931206"/>
    <nd ref="266491274"/>
    <nd ref="268930258"/>
    <nd ref="268930259"/>
    <nd ref="268929735"/>
    <nd ref="614126542"/>
    <nd ref="614126576"/>
    <nd ref="614126573"/>
    <tag k="highway" v="residential"/>
    <tag k="maxspeed" v="50"/>
    <tag k="maxspeed:source" v="default residential speed limit in Australia"/>
    <tag k="name" v="Devenish Road"/>
  </way>
  <way id="24745633" version="4" timestamp="2010-07-08T19:52:02Z" uid="74617" user="JohnSmith" changeset="5168688">
    <nd ref="268930304"/>
    <nd ref="268930331"/>
    <nd ref="268930305"/>
    <tag k="highway" v="residential"/>
    <tag k="maxspeed" v="50"/>
    <tag k="maxspeed:source" v="default residential speed limit in Australia"/>
    <tag k="name" v="Beilby Street"/>
  </way>
  <way id="24745635" version="4" timestamp="2010-07-08T19:58:42Z" uid="74617" user="JohnSmith" changeset="5168688">
    <nd ref="268930306"/>
    <nd ref="268930412"/>
    <nd ref="268930331"/>
    <tag k="highway" v="residential"/>
    <tag k="maxspeed" v="50"/>
    <tag k="maxspeed:source" v="default residential speed limit in Australia"/>
    <tag k="name" v="Rourke Street"/>
  </way>
  <way id="24745643" version="2" timestamp="2010-07-07T08:03:33Z" uid="74617" user="JohnSmith" changeset="5156250">
    <nd ref="268930302"/>
    <nd ref="268930400"/>
    <tag k="highway" v="residential"/>
    <tag k="maxspeed" v="50"/>
    <tag k="maxspeed:source" v="default residential speed limit in Australia"/>
    <tag k="name" v="Kulgan Court"/>
  </way>
  <way id="24745645" version="4" timestamp="2010-02-15T12:17:32Z" uid="74617" user="JohnSmith" changeset="3882541">
    <nd ref="253125850"/>
    <nd ref="268930401"/>
    <tag k="highway" v="residential"/>
    <tag k="maxspeed" v="50"/>
    <tag k="name" v="Belia Street"/>
  </way>
  <way id="24745647" version="4" timestamp="2010-07-08T20:01:20Z" uid="74617" user="JohnSmith" changeset="5168688">
    <nd ref="268930387"/>
    <nd ref="268930402"/>
    <nd ref="268930403"/>
    <nd ref="268930404"/>
    <nd ref="268930538"/>
    <nd ref="268930405"/>
    <nd ref="268930406"/>
    <nd ref="268930407"/>
    <nd ref="268930410"/>
    <nd ref="268930412"/>
    <tag k="highway" v="residential"/>
    <tag k="maxspeed" v="50"/>
    <tag k="maxspeed:source" v="default residential speed limit in Australia"/>
    <tag k="name" v="McComb Crescent"/>
  </way>
  <way id="24745649" version="4" timestamp="2010-02-15T12:16:47Z" uid="74617" user="JohnSmith" changeset="3882541">
    <nd ref="268930431"/>
    <nd ref="268930401"/>
    <nd ref="268930432"/>
    <nd ref="268930433"/>
    <tag k="highway" v="residential"/>
    <tag k="maxspeed" v="50"/>
    <tag k="name" v="Ashley Court"/>
  </way>
  <way id="24745651" version="4" timestamp="2010-02-15T12:17:22Z" uid="74617" user="JohnSmith" changeset="3882541">
    <nd ref="268930459"/>
    <nd ref="584503024"/>
    <nd ref="268930460"/>
    <nd ref="268930461"/>
    <nd ref="268930462"/>
    <nd ref="268930463"/>
    <nd ref="268930464"/>
    <nd ref="268930432"/>
    <tag k="highway" v="residential"/>
    <tag k="maxspeed" v="50"/>
    <tag k="name" v="Goodall Street"/>
  </way>
  <way id="24745658" version="5" timestamp="2010-02-15T12:17:22Z" uid="74617" user="JohnSmith" changeset="3882541">
    <nd ref="268930482"/>
    <nd ref="268930541"/>
    <nd ref="268930484"/>
    <nd ref="268930463"/>
    <tag k="highway" v="residential"/>
    <tag k="maxspeed" v="50"/>
    <tag k="name" v="Isobell court"/>
  </way>
  <way id="24745664" version="4" timestamp="2010-07-08T19:52:11Z" uid="74617" user="JohnSmith" changeset="5168688">
    <nd ref="268930537"/>
    <nd ref="268930538"/>
    <nd ref="268930539"/>
    <tag k="highway" v="residential"/>
    <tag k="maxspeed" v="50"/>
    <tag k="maxspeed:source" v="default residential speed limit in Australia"/>
    <tag k="name" v="Cadle Court"/>
  </way>
  <way id="24745665" version="3" timestamp="2010-02-15T12:17:22Z" uid="74617" user="JohnSmith" changeset="3882541">
    <nd ref="268930540"/>
    <nd ref="268930541"/>
    <tag k="highway" v="residential"/>
    <tag k="maxspeed" v="50"/>
    <tag k="name" v="Daphne Street"/>
  </way>
  <way id="24745667" version="5" timestamp="2010-02-15T12:16:48Z" uid="74617" user="JohnSmith" changeset="3882541">
    <nd ref="584503009"/>
    <nd ref="584503058"/>
    <nd ref="584503060"/>
    <nd ref="584503063"/>
    <nd ref="584503065"/>
    <nd ref="584503067"/>
    <nd ref="268930542"/>
    <nd ref="584502992"/>
    <nd ref="268930540"/>
    <nd ref="584503002"/>
    <nd ref="268930544"/>
    <tag k="highway" v="residential"/>
    <tag k="maxspeed" v="50"/>
    <tag k="name" v="Janelle Court"/>
  </way>
  <way id="24745668" version="3" timestamp="2010-02-15T12:17:32Z" uid="74617" user="JohnSmith" changeset="3882541">
    <nd ref="268930545"/>
    <nd ref="253126302"/>
    <tag k="highway" v="residential"/>
    <tag k="maxspeed" v="50"/>
    <tag k="name" v="Day Court"/>
  </way>
  <way id="24745670" version="2" timestamp="2010-07-07T08:00:35Z" uid="74617" user="JohnSmith" changeset="5156250">
    <nd ref="21681260"/>
    <nd ref="268930573"/>
    <tag k="highway" v="residential"/>
    <tag k="maxspeed" v="50"/>
    <tag k="maxspeed:source" v="default residential speed limit in Australia"/>
    <tag k="name" v="Portla Way"/>
  </way>
  <way id="24745672" version="4" timestamp="2010-02-15T12:18:00Z" uid="74617" user="JohnSmith" changeset="3882541">
    <nd ref="268930576"/>
    <nd ref="268930577"/>
    <nd ref="253126932"/>
    <tag k="highway" v="residential"/>
    <tag k="maxspeed" v="50"/>
    <tag k="name" v="Burgess Court"/>
  </way>
  <way id="24745676" version="4" timestamp="2010-02-15T12:16:48Z" uid="74617" user="JohnSmith" changeset="3882541">
    <nd ref="268930598"/>
    <nd ref="268930599"/>
    <nd ref="268930600"/>
    <nd ref="268930601"/>
    <nd ref="268930606"/>
    <nd ref="253126295"/>
    <tag k="highway" v="residential"/>
    <tag k="maxspeed" v="50"/>
    <tag k="name" v="Wallace Street"/>
  </way>
  <way id="24745678" version="3" timestamp="2010-02-15T12:17:32Z" uid="74617" user="JohnSmith" changeset="3882541">
    <nd ref="268930605"/>
    <nd ref="268930606"/>
    <tag k="highway" v="residential"/>
    <tag k="maxspeed" v="50"/>
    <tag k="name" v="Horton Place"/>
  </way>
  <way id="24745679" version="2" timestamp="2010-07-07T08:03:51Z" uid="74617" user="JohnSmith" changeset="5156250">
    <nd ref="268930607"/>
    <nd ref="268930608"/>
    <nd ref="268930573"/>
    <nd ref="268930609"/>
    <nd ref="268930610"/>
    <nd ref="268930611"/>
    <nd ref="268930612"/>
    <tag k="highway" v="residential"/>
    <tag k="maxspeed" v="50"/>
    <tag k="maxspeed:source" v="default residential speed limit in Australia"/>
    <tag k="name" v="Nargoon Court"/>
  </way>
  <way id="24745681" version="3" timestamp="2010-02-15T12:16:47Z" uid="74617" user="JohnSmith" changeset="3882541">
    <nd ref="253126306"/>
    <nd ref="268930613"/>
    <nd ref="268930614"/>
    <nd ref="268930615"/>
    <nd ref="268930616"/>
    <nd ref="268930617"/>
    <nd ref="268930601"/>
    <tag k="highway" v="residential"/>
    <tag k="maxspeed" v="50"/>
    <tag k="name" v="Turner Crescent"/>
  </way>
  <way id="24745686" version="3" timestamp="2010-02-15T12:16:47Z" uid="74617" user="JohnSmith" changeset="3882541">
    <nd ref="268930676"/>
    <nd ref="268930677"/>
    <nd ref="268930643"/>
    <nd ref="268930651"/>
    <tag k="highway" v="residential"/>
    <tag k="maxspeed" v="50"/>
    <tag k="name" v="Kerridge Court"/>
  </way>
  <way id="24745687" version="5" timestamp="2010-07-08T19:52:20Z" uid="74617" user="JohnSmith" changeset="5168688">
    <nd ref="268930604"/>
    <nd ref="268930745"/>
    <nd ref="268930747"/>
    <nd ref="268930748"/>
    <nd ref="268930821"/>
    <nd ref="268930810"/>
    <nd ref="268930750"/>
    <nd ref="268930752"/>
    <nd ref="268930754"/>
    <nd ref="268930756"/>
    <nd ref="268930758"/>
    <nd ref="268930760"/>
    <tag k="highway" v="residential"/>
    <tag k="maxspeed" v="50"/>
    <tag k="maxspeed:source" v="default residential speed limit in Australia"/>
    <tag k="name" v="Haering Road"/>
  </way>
  <way id="24745690" version="4" timestamp="2010-02-15T12:18:02Z" uid="74617" user="JohnSmith" changeset="3882541">
    <nd ref="268930865"/>
    <nd ref="268930788"/>
    <tag k="highway" v="residential"/>
    <tag k="maxspeed" v="50"/>
    <tag k="name" v="Lang Street"/>
  </way>
  <way id="24745692" version="3" timestamp="2010-07-08T19:58:15Z" uid="74617" user="JohnSmith" changeset="5168688">
    <nd ref="268930785"/>
    <nd ref="268930809"/>
    <nd ref="268930810"/>
    <tag k="highway" v="residential"/>
    <tag k="maxspeed" v="50"/>
    <tag k="maxspeed:source" v="default residential speed limit in Australia"/>
    <tag k="name" v="Wills Street"/>
  </way>
  <way id="24745693" version="3" timestamp="2010-02-15T12:18:01Z" uid="74617" user="JohnSmith" changeset="3882541">
    <nd ref="253125725"/>
    <nd ref="268930816"/>
    <tag k="highway" v="residential"/>
    <tag k="maxspeed" v="50"/>
    <tag k="name" v="Matilda Street"/>
  </way>
  <way id="24745694" version="3" timestamp="2010-02-15T12:18:00Z" uid="74617" user="JohnSmith" changeset="3882541">
    <nd ref="268930826"/>
    <nd ref="253125727"/>
    <tag k="highway" v="residential"/>
    <tag k="maxspeed" v="50"/>
    <tag k="name" v="Alice Street"/>
  </way>
  <way id="24745695" version="3" timestamp="2010-07-08T19:54:54Z" uid="74617" user="JohnSmith" changeset="5168688">
    <nd ref="268930821"/>
    <nd ref="268930828"/>
    <tag k="highway" v="residential"/>
    <tag k="maxspeed" v="50"/>
    <tag k="maxspeed:source" v="default residential speed limit in Australia"/>
    <tag k="name" v="Jaffa Court"/>
  </way>
  <way id="24745697" version="2" timestamp="2010-07-07T08:39:08Z" uid="74617" user="JohnSmith" changeset="5156250">
    <nd ref="268930645"/>
    <nd ref="268930646"/>
    <nd ref="268930647"/>
    <nd ref="268930648"/>
    <nd ref="268930649"/>
    <nd ref="268930646"/>
    <tag k="highway" v="residential"/>
    <tag k="maxspeed" v="50"/>
    <tag k="maxspeed:source" v="default residential speed limit in Australia"/>
    <tag k="name" v="Yuille Place"/>
  </way>
  <way id="24745698" version="2" timestamp="2010-07-07T08:35:27Z" uid="74617" user="JohnSmith" changeset="5156250">
    <nd ref="89696319"/>
    <nd ref="268930652"/>
    <nd ref="268930653"/>
    <nd ref="268930654"/>
    <nd ref="268930655"/>
    <nd ref="268930652"/>
    <tag k="highway" v="residential"/>
    <tag k="maxspeed" v="50"/>
    <tag k="maxspeed:source" v="default residential speed limit in Australia"/>
    <tag k="name" v="Cory Place"/>
  </way>
  <way id="24745699" version="2" timestamp="2010-07-07T08:40:01Z" uid="74617" user="JohnSmith" changeset="5156250">
    <nd ref="89696316"/>
    <nd ref="268930656"/>
    <nd ref="268930657"/>
    <nd ref="268930673"/>
    <nd ref="268930678"/>
    <nd ref="268930656"/>
    <tag k="highway" v="residential"/>
    <tag k="maxspeed" v="50"/>
    <tag k="maxspeed:source" v="default residential speed limit in Australia"/>
    <tag k="name" v="Landale Place"/>
  </way>
  <way id="24745700" version="2" timestamp="2010-07-07T08:39:50Z" uid="74617" user="JohnSmith" changeset="5156250">
    <nd ref="268930679"/>
    <nd ref="268930680"/>
    <nd ref="268930681"/>
    <nd ref="268930733"/>
    <nd ref="268930769"/>
    <nd ref="268930680"/>
    <tag k="highway" v="residential"/>
    <tag k="maxspeed" v="50"/>
    <tag k="maxspeed:source" v="default residential speed limit in Australia"/>
    <tag k="name" v="Arkell Place"/>
  </way>
  <way id="24745701" version="2" timestamp="2010-07-07T08:36:28Z" uid="74617" user="JohnSmith" changeset="5156250">
    <nd ref="89696309"/>
    <nd ref="268930770"/>
    <nd ref="268930771"/>
    <nd ref="268930773"/>
    <nd ref="268930774"/>
    <nd ref="268930770"/>
    <tag k="highway" v="residential"/>
    <tag k="maxspeed" v="50"/>
    <tag k="maxspeed:source" v="default residential speed limit in Australia"/>
    <tag k="name" v="Phillimore Place"/>
  </way>
  <way id="24745703" version="3" timestamp="2010-07-07T08:38:03Z" uid="74617" user="JohnSmith" changeset="5156250">
    <nd ref="268930776"/>
    <nd ref="268930777"/>
    <nd ref="268930778"/>
    <nd ref="268930783"/>
    <nd ref="268930777"/>
    <tag k="highway" v="residential"/>
    <tag k="maxspeed" v="50"/>
    <tag k="maxspeed:source" v="default residential speed limit in Australia"/>
    <tag k="name" v="Lackey Place"/>
  </way>
  <way id="24745704" version="2" timestamp="2010-07-07T08:37:35Z" uid="74617" user="JohnSmith" changeset="5156250">
    <nd ref="89696304"/>
    <nd ref="268930784"/>
    <nd ref="268930786"/>
    <nd ref="268930787"/>
    <nd ref="268930789"/>
    <nd ref="268930784"/>
    <tag k="highway" v="residential"/>
    <tag k="maxspeed" v="50"/>
    <tag k="maxspeed:source" v="default residential speed limit in Australia"/>
    <tag k="name" v="Waterfield Place"/>
  </way>
  <way id="24745705" version="2" timestamp="2010-07-07T08:33:41Z" uid="74617" user="JohnSmith" changeset="5156250">
    <nd ref="89697017"/>
    <nd ref="268930791"/>
    <nd ref="268930792"/>
    <nd ref="268930797"/>
    <nd ref="268930799"/>
    <nd ref="268930800"/>
    <nd ref="268930792"/>
    <tag k="highway" v="residential"/>
    <tag k="maxspeed" v="50"/>
    <tag k="maxspeed:source" v="default residential speed limit in Australia"/>
    <tag k="name" v="McQuade Close"/>
  </way>
  <way id="24745706" version="2" timestamp="2010-07-07T08:38:53Z" uid="74617" user="JohnSmith" changeset="5156250">
    <nd ref="268930791"/>
    <nd ref="268930801"/>
    <nd ref="268930808"/>
    <nd ref="268930811"/>
    <nd ref="268930812"/>
    <nd ref="268930813"/>
    <nd ref="268930814"/>
    <nd ref="268930815"/>
    <nd ref="268930817"/>
    <nd ref="268930813"/>
    <tag k="highway" v="residential"/>
    <tag k="maxspeed" v="50"/>
    <tag k="maxspeed:source" v="default residential speed limit in Australia"/>
    <tag k="name" v="McQuade Close"/>
  </way>
  <way id="24745707" version="2" timestamp="2010-07-07T08:35:12Z" uid="74617" user="JohnSmith" changeset="5156250">
    <nd ref="89697013"/>
    <nd ref="268930818"/>
    <nd ref="268930819"/>
    <nd ref="268930820"/>
    <nd ref="268930822"/>
    <nd ref="268930823"/>
    <nd ref="268930819"/>
    <tag k="highway" v="residential"/>
    <tag k="maxspeed" v="50"/>
    <tag k="maxspeed:source" v="default residential speed limit in Australia"/>
    <tag k="name" v="Napthali Close"/>
  </way>
  <way id="24745709" version="2" timestamp="2010-07-07T08:39:38Z" uid="74617" user="JohnSmith" changeset="5156250">
    <nd ref="268930818"/>
    <nd ref="268930824"/>
    <nd ref="268930825"/>
    <nd ref="268930827"/>
    <nd ref="268930829"/>
    <nd ref="268930830"/>
    <nd ref="268930831"/>
    <nd ref="268930832"/>
    <nd ref="268930829"/>
    <tag k="highway" v="residential"/>
    <tag k="maxspeed" v="50"/>
    <tag k="maxspeed:source" v="default residential speed limit in Australia"/>
    <tag k="name" v="Napthali Close"/>
  </way>
  <way id="24745710" version="3" timestamp="2010-02-15T12:18:01Z" uid="74617" user="JohnSmith" changeset="3882541">
    <nd ref="253125096"/>
    <nd ref="268930826"/>
    <nd ref="268930790"/>
    <nd ref="268930816"/>
    <nd ref="253125355"/>
    <tag k="highway" v="residential"/>
    <tag k="maxspeed" v="50"/>
    <tag k="name" v="Burnett Street"/>
  </way>
  <way id="24745712" version="3" timestamp="2010-02-15T12:17:47Z" uid="74617" user="JohnSmith" changeset="3882541">
    <nd ref="268930858"/>
    <nd ref="268930788"/>
    <nd ref="253125352"/>
    <tag k="highway" v="residential"/>
    <tag k="maxspeed" v="50"/>
    <tag k="name" v="Frederick Street"/>
  </way>
  <way id="24745718" version="4" timestamp="2010-07-08T19:52:30Z" uid="74617" user="JohnSmith" changeset="5168688">
    <nd ref="268930883"/>
    <nd ref="268930891"/>
    <tag k="highway" v="residential"/>
    <tag k="maxspeed" v="50"/>
    <tag k="maxspeed:source" v="default residential speed limit in Australia"/>
    <tag k="name" v="Murene Court"/>
  </way>
  <way id="24745729" version="4" timestamp="2010-02-15T12:17:54Z" uid="74617" user="JohnSmith" changeset="3882541">
    <nd ref="268930944"/>
    <nd ref="268930973"/>
    <nd ref="268930946"/>
    <nd ref="268930947"/>
    <nd ref="253125354"/>
    <tag k="highway" v="residential"/>
    <tag k="maxspeed" v="50"/>
    <tag k="name" v="Manor Drive"/>
  </way>
  <way id="24745730" version="6" timestamp="2008-10-03T12:12:28Z" uid="43863" user="Rundling" changeset="40919">
    <nd ref="268930948"/>
    <nd ref="271028175"/>
    <nd ref="271028178"/>
    <nd ref="268930949"/>
    <nd ref="268930950"/>
    <nd ref="268930951"/>
    <nd ref="268930952"/>
    <nd ref="268930953"/>
    <nd ref="268930954"/>
    <nd ref="268930955"/>
    <nd ref="268930956"/>
    <nd ref="268930957"/>
    <nd ref="268930958"/>
    <nd ref="268930959"/>
    <nd ref="268930961"/>
    <nd ref="268930962"/>
    <nd ref="268930963"/>
    <nd ref="268930964"/>
    <nd ref="268930965"/>
    <nd ref="268930966"/>
    <nd ref="268930967"/>
    <nd ref="268930968"/>
    <nd ref="268930969"/>
    <nd ref="268930970"/>
    <nd ref="271028176"/>
    <nd ref="268930948"/>
    <tag k="created_by" v="Potlatch 0.9c"/>
    <tag k="name" v="Südbad - Badestrand"/>
    <tag k="natural" v="beach"/>
  </way>
  <way id="24745732" version="3" timestamp="2010-02-15T12:17:54Z" uid="74617" user="JohnSmith" changeset="3882541">
    <nd ref="584503088"/>
    <nd ref="584503085"/>
    <nd ref="584503083"/>
    <nd ref="268930971"/>
    <nd ref="268930972"/>
    <nd ref="268930973"/>
    <tag k="highway" v="residential"/>
    <tag k="maxspeed" v="50"/>
    <tag k="name" v="Bertson Crescent"/>
  </way>
  <way id="24745734" version="5" timestamp="2010-07-08T20:00:48Z" uid="74617" user="JohnSmith" changeset="5168688">
    <nd ref="268930937"/>
    <nd ref="268930986"/>
    <tag k="highway" v="residential"/>
    <tag k="maxspeed" v="50"/>
    <tag k="maxspeed:source" v="default residential speed limit in Australia"/>
    <tag k="name" v="Catesby Court"/>
  </way>
  <way id="24745765" version="4" timestamp="2010-02-15T12:17:54Z" uid="74617" user="JohnSmith" changeset="3882541">
    <nd ref="268931087"/>
    <nd ref="268931073"/>
    <tag k="highway" v="residential"/>
    <tag k="maxspeed" v="50"/>
    <tag k="name" v="Tiffany Court"/>
  </way>
  <way id="24745766" version="2" timestamp="2010-07-07T08:03:47Z" uid="74617" user="JohnSmith" changeset="5156250">
    <nd ref="268930610"/>
    <nd ref="268931094"/>
    <tag k="highway" v="residential"/>
    <tag k="maxspeed" v="50"/>
    <tag k="maxspeed:source" v="default residential speed limit in Australia"/>
    <tag k="name" v="Ulpirra Court"/>
  </way>
  <way id="24745767" version="3" timestamp="2010-07-08T19:53:11Z" uid="74617" user="JohnSmith" changeset="5168688">
    <nd ref="268931086"/>
    <nd ref="268931101"/>
    <tag k="highway" v="residential"/>
    <tag k="maxspeed" v="50"/>
    <tag k="maxspeed:source" v="default residential speed limit in Australia"/>
    <tag k="name" v="Duncan Avenue"/>
  </way>
  <way id="24745768" version="3" timestamp="2009-12-18T19:45:17Z" uid="9581" user="Lobelt" changeset="3402858">
    <nd ref="268931088"/>
    <nd ref="268931089"/>
    <nd ref="268931090"/>
    <nd ref="268931091"/>
    <nd ref="268931092"/>
    <nd ref="268931093"/>
    <nd ref="268931095"/>
    <nd ref="268931096"/>
    <nd ref="268931097"/>
    <nd ref="268931098"/>
    <nd ref="268931099"/>
    <nd ref="268931100"/>
    <nd ref="268931088"/>
    <tag k="natural" v="water"/>
  </way>
  <way id="24745769" version="4" timestamp="2010-02-15T12:17:54Z" uid="74617" user="JohnSmith" changeset="3882541">
    <nd ref="268931102"/>
    <nd ref="268931074"/>
    <tag k="highway" v="residential"/>
    <tag k="maxspeed" v="50"/>
    <tag k="name" v="Emma Court"/>
  </way>
  <way id="24745772" version="4" timestamp="2010-02-15T12:17:54Z" uid="74617" user="JohnSmith" changeset="3882541">
    <nd ref="268931128"/>
    <nd ref="268931130"/>
    <tag k="highway" v="residential"/>
    <tag k="maxspeed" v="50"/>
    <tag k="name" v="Warlow Close"/>
  </way>
  <way id="24745774" version="2" timestamp="2010-07-08T19:53:58Z" uid="74617" user="JohnSmith" changeset="5168688">
    <nd ref="268931131"/>
    <nd ref="268931203"/>
    <nd ref="268931204"/>
    <nd ref="268931205"/>
    <nd ref="268931206"/>
    <tag k="highway" v="residential"/>
    <tag k="maxspeed" v="50"/>
    <tag k="maxspeed:source" v="default residential speed limit in Australia"/>
  </way>
  <way id="24745782" version="3" timestamp="2010-02-15T12:17:54Z" uid="74617" user="JohnSmith" changeset="3882541">
    <nd ref="268931209"/>
    <nd ref="268931210"/>
    <nd ref="268931211"/>
    <nd ref="268931212"/>
    <nd ref="268931213"/>
    <nd ref="268931130"/>
    <nd ref="268930946"/>
    <tag k="highway" v="residential"/>
    <tag k="maxspeed" v="50"/>
    <tag k="name" v="Famham Street"/>
  </way>
  <way id="24745790" version="3" timestamp="2010-07-07T08:01:02Z" uid="74617" user="JohnSmith" changeset="5156250">
    <nd ref="21681266"/>
    <nd ref="268930612"/>
    <nd ref="268931217"/>
    <nd ref="268931218"/>
    <nd ref="268931219"/>
    <nd ref="268931220"/>
    <nd ref="268931221"/>
    <nd ref="268931222"/>
    <nd ref="268931223"/>
    <tag k="highway" v="residential"/>
    <tag k="maxspeed" v="50"/>
    <tag k="maxspeed:source" v="default residential speed limit in Australia"/>
    <tag k="name" v="Aloota Crescent"/>
  </way>
  <way id="24745794" version="4" timestamp="2010-02-15T12:17:55Z" uid="74617" user="JohnSmith" changeset="3882541">
    <nd ref="253123043"/>
    <nd ref="584510165"/>
    <nd ref="268931248"/>
    <nd ref="268931249"/>
    <nd ref="268931250"/>
    <nd ref="268931251"/>
    <nd ref="268931076"/>
    <nd ref="584503556"/>
    <nd ref="268931075"/>
    <nd ref="268931074"/>
    <nd ref="268931073"/>
    <nd ref="268931072"/>
    <nd ref="268930944"/>
    <nd ref="268931071"/>
    <nd ref="268931070"/>
    <nd ref="268931069"/>
    <nd ref="584503098"/>
    <nd ref="584503095"/>
    <nd ref="584503093"/>
    <nd ref="584503090"/>
    <nd ref="584503088"/>
    <tag k="highway" v="residential"/>
    <tag k="maxspeed" v="50"/>
    <tag k="name" v="Belford Drive"/>
  </way>
  <way id="24745795" version="4" timestamp="2010-02-15T12:17:55Z" uid="74617" user="JohnSmith" changeset="3882541">
    <nd ref="268931258"/>
    <nd ref="268931251"/>
    <tag k="highway" v="residential"/>
    <tag k="maxspeed" v="50"/>
    <tag k="name" v="Ronald Court"/>
  </way>
  <way id="24745797" version="5" timestamp="2010-02-15T12:17:55Z" uid="74617" user="JohnSmith" changeset="3882541">
    <nd ref="268931347"/>
    <nd ref="615481194"/>
    <nd ref="268931348"/>
    <nd ref="615481201"/>
    <nd ref="268931349"/>
    <nd ref="268931350"/>
    <nd ref="615481198"/>
    <nd ref="268931351"/>
    <nd ref="615481202"/>
    <nd ref="268931352"/>
    <tag k="highway" v="residential"/>
    <tag k="maxspeed" v="50"/>
    <tag k="name" v="Laurance Court"/>
  </way>
  <way id="24745801" version="3" timestamp="2010-07-07T08:03:34Z" uid="74617" user="JohnSmith" changeset="5156250">
    <nd ref="268931389"/>
    <nd ref="268931413"/>
    <nd ref="268931414"/>
    <nd ref="268931416"/>
    <tag k="highway" v="residential"/>
    <tag k="maxspeed" v="50"/>
    <tag k="maxspeed:source" v="default residential speed limit in Australia"/>
    <tag k="name" v="Terrara Court"/>
  </way>
  <way id="24745802" version="2" timestamp="2010-07-07T08:00:31Z" uid="74617" user="JohnSmith" changeset="5156250">
    <nd ref="268931219"/>
    <nd ref="268931428"/>
    <nd ref="268931429"/>
    <nd ref="268931430"/>
    <nd ref="268931431"/>
    <nd ref="268931432"/>
    <tag k="highway" v="residential"/>
    <tag k="maxspeed" v="50"/>
    <tag k="maxspeed:source" v="default residential speed limit in Australia"/>
    <tag k="name" v="Woggon Terrace"/>
  </way>
  <way id="24745805" version="2" timestamp="2010-07-08T19:52:49Z" uid="74617" user="JohnSmith" changeset="5168688">
    <nd ref="268931434"/>
    <nd ref="268931525"/>
    <nd ref="268931526"/>
    <nd ref="268931527"/>
    <tag k="highway" v="residential"/>
    <tag k="maxspeed" v="50"/>
    <tag k="maxspeed:source" v="default residential speed limit in Australia"/>
  </way>
  <way id="24745806" version="4" timestamp="2010-02-15T12:17:52Z" uid="74617" user="JohnSmith" changeset="3882541">
    <nd ref="268931549"/>
    <nd ref="569894951"/>
    <nd ref="569894955"/>
    <tag k="highway" v="residential"/>
    <tag k="maxspeed" v="50"/>
    <tag k="name" v="Gilchrist Street"/>
    <tag k="source" v="nearmap"/>
  </way>
  <way id="24745807" version="5" timestamp="2010-07-07T08:02:28Z" uid="74617" user="JohnSmith" changeset="5156250">
    <nd ref="21681269"/>
    <nd ref="268931587"/>
    <tag k="highway" v="residential"/>
    <tag k="maxspeed" v="50"/>
    <tag k="maxspeed:source" v="default residential speed limit in Australia"/>
    <tag k="name" v="Wilpy Place"/>
  </way>
  <way id="24745809" version="3" timestamp="2010-02-15T12:17:50Z" uid="74617" user="JohnSmith" changeset="3882541">
    <nd ref="268931549"/>
    <nd ref="268931679"/>
    <nd ref="268931678"/>
    <nd ref="268931677"/>
    <nd ref="268931676"/>
    <nd ref="268931675"/>
    <nd ref="584503564"/>
    <nd ref="268931674"/>
    <nd ref="268931673"/>
    <nd ref="268931625"/>
    <nd ref="268931626"/>
    <nd ref="268931627"/>
    <nd ref="268931628"/>
    <nd ref="268931629"/>
    <nd ref="268931630"/>
    <nd ref="268931631"/>
    <nd ref="268931550"/>
    <tag k="highway" v="residential"/>
    <tag k="maxspeed" v="50"/>
    <tag k="name" v="Schonrock Street"/>
  </way>
  <way id="24745812" version="2" timestamp="2010-06-29T19:07:51Z" uid="74617" user="JohnSmith" changeset="5108182">
    <nd ref="268931422"/>
    <nd ref="268931423"/>
    <nd ref="268931424"/>
    <nd ref="268931426"/>
    <nd ref="268931427"/>
    <nd ref="268931433"/>
    <nd ref="268931436"/>
    <nd ref="268931437"/>
    <nd ref="268931442"/>
    <nd ref="268931463"/>
    <nd ref="268931465"/>
    <nd ref="268931468"/>
    <nd ref="268931482"/>
    <nd ref="268931476"/>
    <nd ref="268931473"/>
    <nd ref="268931470"/>
    <nd ref="268931477"/>
    <nd ref="268931481"/>
    <nd ref="268931471"/>
    <nd ref="268931478"/>
    <nd ref="268931474"/>
    <nd ref="268931469"/>
    <nd ref="268931479"/>
    <nd ref="268931475"/>
    <nd ref="268931472"/>
    <nd ref="268931467"/>
    <nd ref="268931466"/>
    <nd ref="268931483"/>
    <nd ref="268931485"/>
    <nd ref="268931410"/>
    <nd ref="268931411"/>
    <nd ref="268931412"/>
    <nd ref="268931415"/>
    <nd ref="268931418"/>
    <nd ref="268931419"/>
    <nd ref="268931420"/>
    <nd ref="268931422"/>
    <tag k="fixme" v="sport=football is ambiguous, see http://wiki.osm.org/wiki/Football for more details"/>
    <tag k="leisure" v="pitch"/>
    <tag k="sport" v="football"/>
  </way>
  <way id="24745813" version="2" timestamp="2010-06-29T19:16:29Z" uid="74617" user="JohnSmith" changeset="5108182">
    <nd ref="268931486"/>
    <nd ref="268931489"/>
    <nd ref="268931490"/>
    <nd ref="268931487"/>
    <nd ref="268931486"/>
    <tag k="fixme" v="sport=football is ambiguous, see http://wiki.osm.org/wiki/Football for more details"/>
    <tag k="leisure" v="pitch"/>
    <tag k="sport" v="football"/>
  </way>
  <way id="24745814" version="2" timestamp="2010-06-29T19:05:19Z" uid="74617" user="JohnSmith" changeset="5108182">
    <nd ref="268931491"/>
    <nd ref="268931494"/>
    <nd ref="268931496"/>
    <nd ref="268931493"/>
    <nd ref="268931491"/>
    <tag k="fixme" v="sport=football is ambiguous, see http://wiki.osm.org/wiki/Football for more details"/>
    <tag k="leisure" v="pitch"/>
    <tag k="sport" v="football"/>
  </way>
  <way id="24745825" version="3" timestamp="2011-02-07T20:42:34Z" uid="9581" user="Lobelt" changeset="7220679">
    <nd ref="266536297"/>
    <nd ref="268931617"/>
    <nd ref="433781032"/>
    <tag k="highway" v="residential"/>
  </way>
  <way id="24745827" version="3" timestamp="2010-02-15T12:17:55Z" uid="74617" user="JohnSmith" changeset="3882541">
    <nd ref="268931656"/>
    <nd ref="268931657"/>
    <nd ref="268931625"/>
    <tag k="highway" v="residential"/>
    <tag k="maxspeed" v="50"/>
    <tag k="name" v="Hodges Close"/>
  </way>
  <way id="24745829" version="5" timestamp="2010-02-15T12:17:52Z" uid="74617" user="JohnSmith" changeset="3882541">
    <nd ref="268926894"/>
    <nd ref="268926906"/>
    <nd ref="569894944"/>
    <nd ref="569894949"/>
    <nd ref="569894950"/>
    <nd ref="268931549"/>
    <tag k="highway" v="residential"/>
    <tag k="maxspeed" v="50"/>
    <tag k="name" v="Hillcrest Street"/>
  </way>
  <way id="24745833" version="2" timestamp="2010-06-01T08:08:26Z" uid="4467" user="Rosscoe" changeset="4872520">
    <nd ref="21681270"/>
    <nd ref="268931708"/>
    <nd ref="268931709"/>
    <nd ref="268931710"/>
    <nd ref="268931711"/>
    <nd ref="268931712"/>
    <nd ref="268931713"/>
    <nd ref="268931714"/>
    <nd ref="268931715"/>
    <nd ref="268931716"/>
    <nd ref="268931717"/>
    <nd ref="268931718"/>
    <nd ref="268931708"/>
    <tag k="created_by" v="Potlatch 0.9c"/>
    <tag k="highway" v="residential"/>
    <tag k="name" v="Mundurra Avenue"/>
  </way>
  <way id="24745833" version="3" timestamp="2010-07-07T08:03:55Z" uid="74617" user="JohnSmith" changeset="5156250">
    <nd ref="21681270"/>
    <nd ref="268931708"/>
    <nd ref="268931709"/>
    <nd ref="268931710"/>
    <nd ref="268931711"/>
    <nd ref="268931712"/>
    <nd ref="268931713"/>
    <nd ref="268931714"/>
    <nd ref="268931715"/>
    <nd ref="268931716"/>
    <nd ref="268931717"/>
    <nd ref="268931718"/>
    <nd ref="268931708"/>
    <tag k="highway" v="residential"/>
    <tag k="maxspeed" v="50"/>
    <tag k="maxspeed:source" v="default residential speed limit in Australia"/>
    <tag k="name" v="Mundurra Avenue"/>
  </way>
  <way id="24745835" version="7" timestamp="2010-02-15T12:17:53Z" uid="74617" user="JohnSmith" changeset="3882541">
    <nd ref="638869331"/>
    <nd ref="638871422"/>
    <nd ref="268931801"/>
    <nd ref="268931800"/>
    <nd ref="638869324"/>
    <nd ref="268931799"/>
    <nd ref="268931798"/>
    <nd ref="268931737"/>
    <nd ref="268931738"/>
    <nd ref="638869310"/>
    <nd ref="268931739"/>
    <nd ref="638869309"/>
    <nd ref="569894766"/>
    <tag k="highway" v="residential"/>
    <tag k="maxspeed" v="50"/>
    <tag k="name" v="Heritage Drive"/>
  </way>
  <way id="24745836" version="3" timestamp="2010-06-01T08:08:30Z" uid="4467" user="Rosscoe" changeset="4872520">
    <nd ref="268931721"/>
    <nd ref="268931742"/>
    <nd ref="268931743"/>
    <nd ref="268931745"/>
    <nd ref="268931746"/>
    <nd ref="268931747"/>
    <tag k="created_by" v="Potlatch 0.9c"/>
    <tag k="highway" v="residential"/>
    <tag k="name" v="Nandroya Avenue"/>
  </way>
  <way id="24745836" version="4" timestamp="2010-07-07T08:01:07Z" uid="74617" user="JohnSmith" changeset="5156250">
    <nd ref="268931721"/>
    <nd ref="268931742"/>
    <nd ref="268931743"/>
    <nd ref="268931745"/>
    <nd ref="268931746"/>
    <nd ref="268931747"/>
    <tag k="highway" v="residential"/>
    <tag k="maxspeed" v="50"/>
    <tag k="maxspeed:source" v="default residential speed limit in Australia"/>
    <tag k="name" v="Nandroya Avenue"/>
  </way>
  <way id="24745837" version="3" timestamp="2010-07-07T08:01:41Z" uid="74617" user="JohnSmith" changeset="5156250">
    <nd ref="268931745"/>
    <nd ref="268931750"/>
    <tag k="highway" v="residential"/>
    <tag k="maxspeed" v="50"/>
    <tag k="maxspeed:source" v="default residential speed limit in Australia"/>
    <tag k="name" v="Jumbunna Place"/>
  </way>
  <way id="24745840" version="6" timestamp="2010-02-15T12:17:53Z" uid="74617" user="JohnSmith" changeset="3882541">
    <nd ref="268931797"/>
    <nd ref="638871415"/>
    <nd ref="638869322"/>
    <nd ref="268931737"/>
    <tag k="highway" v="residential"/>
    <tag k="maxspeed" v="50"/>
  </way>
  <way id="24745841" version="2" timestamp="2010-07-07T08:02:46Z" uid="74617" user="JohnSmith" changeset="5156250">
    <nd ref="268931742"/>
    <nd ref="268931904"/>
    <nd ref="268931905"/>
    <tag k="highway" v="residential"/>
    <tag k="maxspeed" v="50"/>
    <tag k="maxspeed:source" v="default residential speed limit in Australia"/>
    <tag k="name" v="Paldi Court"/>
  </way>
  <way id="24745883" version="4" timestamp="2010-02-15T12:17:53Z" uid="74617" user="JohnSmith" changeset="3882541">
    <nd ref="268932010"/>
    <nd ref="638869342"/>
    <nd ref="638869343"/>
    <nd ref="638869333"/>
    <nd ref="638869334"/>
    <nd ref="638869336"/>
    <nd ref="638869335"/>
    <nd ref="268932010"/>
    <tag k="highway" v="residential"/>
    <tag k="maxspeed" v="50"/>
    <tag k="name" v="Kerby Place"/>
  </way>
  <way id="24745885" version="4" timestamp="2010-02-15T12:17:53Z" uid="74617" user="JohnSmith" changeset="3882541">
    <nd ref="638869337"/>
    <nd ref="638869338"/>
    <nd ref="638869323"/>
    <nd ref="268931923"/>
    <tag k="highway" v="residential"/>
    <tag k="maxspeed" v="50"/>
    <tag k="name" v="Bahr Place"/>
  </way>
  <way id="24745891" version="2" timestamp="2010-07-07T08:01:24Z" uid="74617" user="JohnSmith" changeset="5156250">
    <nd ref="21681284"/>
    <nd ref="268932231"/>
    <nd ref="268932232"/>
    <tag k="highway" v="residential"/>
    <tag k="maxspeed" v="50"/>
    <tag k="maxspeed:source" v="default residential speed limit in Australia"/>
    <tag k="name" v="Yoorana Glen"/>
  </way>
  <way id="24745893" version="2" timestamp="2010-07-07T08:01:47Z" uid="74617" user="JohnSmith" changeset="5156250">
    <nd ref="21681290"/>
    <nd ref="268932249"/>
    <tag k="highway" v="residential"/>
    <tag k="maxspeed" v="50"/>
    <tag k="maxspeed:source" v="default residential speed limit in Australia"/>
    <tag k="name" v="Gooloo Court"/>
  </way>
  <way id="24745898" version="5" timestamp="2010-02-15T12:17:49Z" uid="74617" user="JohnSmith" changeset="3882541">
    <nd ref="638869332"/>
    <nd ref="268931921"/>
    <nd ref="268932313"/>
    <nd ref="268932312"/>
    <nd ref="268932311"/>
    <nd ref="268932310"/>
    <nd ref="268932309"/>
    <nd ref="638869355"/>
    <nd ref="268932308"/>
    <nd ref="268932307"/>
    <nd ref="268932306"/>
    <nd ref="268932305"/>
    <nd ref="268932304"/>
    <nd ref="268932264"/>
    <nd ref="268932265"/>
    <nd ref="638869401"/>
    <nd ref="268932266"/>
    <nd ref="268932267"/>
    <nd ref="638869400"/>
    <nd ref="268932268"/>
    <nd ref="268932269"/>
    <nd ref="268932270"/>
    <nd ref="638869398"/>
    <nd ref="638869397"/>
    <nd ref="268932271"/>
    <nd ref="268932272"/>
    <nd ref="268932273"/>
    <nd ref="638869396"/>
    <nd ref="268932274"/>
    <nd ref="638869371"/>
    <nd ref="268932275"/>
    <nd ref="638869379"/>
    <nd ref="268932276"/>
    <nd ref="638869370"/>
    <nd ref="268932277"/>
    <nd ref="503106281"/>
    <nd ref="268932278"/>
    <nd ref="268932279"/>
    <nd ref="268932280"/>
    <nd ref="268932281"/>
    <nd ref="268932282"/>
    <nd ref="638869356"/>
    <nd ref="268932283"/>
    <nd ref="638869315"/>
    <nd ref="268932284"/>
    <nd ref="638869314"/>
    <nd ref="268932285"/>
    <nd ref="638869312"/>
    <nd ref="638869320"/>
    <nd ref="638869313"/>
    <nd ref="638869319"/>
    <nd ref="268931928"/>
    <nd ref="638869311"/>
    <nd ref="268931926"/>
    <nd ref="268931924"/>
    <nd ref="268931923"/>
    <nd ref="268931922"/>
    <nd ref="638869329"/>
    <tag k="highway" v="residential"/>
    <tag k="maxspeed" v="50"/>
    <tag k="name" v="Hiliards Park Drive"/>
  </way>
  <way id="24745899" version="5" timestamp="2010-07-07T08:00:47Z" uid="74617" user="JohnSmith" changeset="5156250">
    <nd ref="21681300"/>
    <nd ref="268932287"/>
    <nd ref="268932288"/>
    <tag k="highway" v="residential"/>
    <tag k="maxspeed" v="50"/>
    <tag k="maxspeed:source" v="default residential speed limit in Australia"/>
  </way>
  <way id="24745905" version="3" timestamp="2010-07-07T08:02:02Z" uid="74617" user="JohnSmith" changeset="5156250">
    <nd ref="21681302"/>
    <nd ref="268932330"/>
    <nd ref="268932331"/>
    <nd ref="268932332"/>
    <nd ref="268932333"/>
    <nd ref="268932334"/>
    <nd ref="268932335"/>
    <nd ref="268932336"/>
    <nd ref="268932337"/>
    <nd ref="268932338"/>
    <nd ref="268932339"/>
    <nd ref="268932340"/>
    <tag k="highway" v="residential"/>
    <tag k="maxspeed" v="50"/>
    <tag k="maxspeed:source" v="default residential speed limit in Australia"/>
    <tag k="name" v="Matong Drive"/>
  </way>
  <way id="24745906" version="3" timestamp="2010-07-07T08:02:36Z" uid="74617" user="JohnSmith" changeset="5156250">
    <nd ref="268932335"/>
    <nd ref="268932343"/>
    <tag k="highway" v="residential"/>
    <tag k="maxspeed" v="50"/>
    <tag k="maxspeed:source" v="default residential speed limit in Australia"/>
    <tag k="name" v="Boolee Court"/>
  </way>
  <way id="24745907" version="4" timestamp="2010-02-15T12:17:54Z" uid="74617" user="JohnSmith" changeset="3882541">
    <nd ref="268932347"/>
    <nd ref="268932348"/>
    <nd ref="638869352"/>
    <nd ref="638869351"/>
    <nd ref="268932311"/>
    <tag k="highway" v="residential"/>
    <tag k="maxspeed" v="50"/>
    <tag k="name" v="Wedd Close"/>
  </way>
  <way id="24745909" version="4" timestamp="2010-02-15T12:17:56Z" uid="74617" user="JohnSmith" changeset="3882541">
    <nd ref="268932359"/>
    <nd ref="268932360"/>
    <nd ref="638869357"/>
    <nd ref="268932281"/>
    <tag k="highway" v="residential"/>
    <tag k="maxspeed" v="50"/>
    <tag k="name" v="Corey Close"/>
  </way>
  <way id="24745910" version="3" timestamp="2010-06-01T08:05:57Z" uid="4467" user="Rosscoe" changeset="4872520">
    <nd ref="268932334"/>
    <nd ref="268932362"/>
    <nd ref="268932363"/>
    <nd ref="268932364"/>
    <tag k="created_by" v="Potlatch 0.9c"/>
    <tag k="highway" v="residential"/>
    <tag k="name" v="Gilba Avenue"/>
  </way>
  <way id="24745910" version="4" timestamp="2010-07-07T08:03:58Z" uid="74617" user="JohnSmith" changeset="5156250">
    <nd ref="268932334"/>
    <nd ref="268932362"/>
    <nd ref="268932363"/>
    <nd ref="268932364"/>
    <tag k="highway" v="residential"/>
    <tag k="maxspeed" v="50"/>
    <tag k="maxspeed:source" v="default residential speed limit in Australia"/>
    <tag k="name" v="Gilba Avenue"/>
  </way>
  <way id="24745912" version="4" timestamp="2010-02-15T12:17:56Z" uid="74617" user="JohnSmith" changeset="3882541">
    <nd ref="638869382"/>
    <nd ref="638869381"/>
    <nd ref="638869380"/>
    <nd ref="638869362"/>
    <nd ref="268932276"/>
    <tag k="highway" v="residential"/>
    <tag k="maxspeed" v="50"/>
    <tag k="name" v="Wagan Place"/>
  </way>
  <way id="24745917" version="4" timestamp="2010-02-15T12:17:50Z" uid="74617" user="JohnSmith" changeset="3882541">
    <nd ref="268932386"/>
    <nd ref="268932387"/>
    <nd ref="638869350"/>
    <nd ref="268932388"/>
    <nd ref="268932306"/>
    <tag k="highway" v="residential"/>
    <tag k="maxspeed" v="50"/>
    <tag k="name" v="Veitch Close"/>
  </way>
  <way id="24745919" version="4" timestamp="2010-02-15T12:17:56Z" uid="74617" user="JohnSmith" changeset="3882541">
    <nd ref="268932406"/>
    <nd ref="638869389"/>
    <nd ref="268932407"/>
    <nd ref="268932408"/>
    <nd ref="268932264"/>
    <tag k="highway" v="residential"/>
    <tag k="maxspeed" v="50"/>
    <tag k="name" v="Willard Close"/>
  </way>
  <way id="24745920" version="4" timestamp="2010-02-15T12:17:56Z" uid="74617" user="JohnSmith" changeset="3882541">
    <nd ref="268932410"/>
    <nd ref="638869393"/>
    <nd ref="638869394"/>
    <nd ref="268932411"/>
    <nd ref="268932272"/>
    <tag k="highway" v="residential"/>
    <tag k="maxspeed" v="50"/>
    <tag k="name" v="Hurst Close"/>
  </way>
  <way id="24745927" version="2" timestamp="2010-07-07T08:01:52Z" uid="74617" user="JohnSmith" changeset="5156250">
    <nd ref="21681304"/>
    <nd ref="268932515"/>
    <tag k="highway" v="residential"/>
    <tag k="maxspeed" v="50"/>
    <tag k="maxspeed:source" v="default residential speed limit in Australia"/>
    <tag k="name" v="Baleemo Drive"/>
  </way>
  <way id="24745942" version="3" timestamp="2010-02-15T12:17:23Z" uid="74617" user="JohnSmith" changeset="3882541">
    <nd ref="268932744"/>
    <nd ref="268932745"/>
    <nd ref="268932746"/>
    <nd ref="268932747"/>
    <nd ref="268932748"/>
    <nd ref="97591737"/>
    <tag k="highway" v="residential"/>
    <tag k="maxspeed" v="50"/>
    <tag k="name" v="Estelle Street"/>
  </way>
  <way id="24745942" version="4" timestamp="2010-03-21T05:29:11Z" uid="74617" user="JohnSmith" changeset="4187388">
    <nd ref="268932744"/>
    <nd ref="268932745"/>
    <nd ref="268932746"/>
    <nd ref="671147911"/>
    <nd ref="268932747"/>
    <nd ref="268932748"/>
    <nd ref="97591737"/>
    <nd ref="671147915"/>
    <tag k="highway" v="residential"/>
    <tag k="maxspeed" v="50"/>
    <tag k="name" v="Estelle Street"/>
  </way>
  <way id="24745945" version="3" timestamp="2010-02-15T12:17:23Z" uid="74617" user="JohnSmith" changeset="3882541">
    <nd ref="268932754"/>
    <nd ref="268932755"/>
    <nd ref="268932756"/>
    <nd ref="268932757"/>
    <tag k="highway" v="residential"/>
    <tag k="maxspeed" v="50"/>
    <tag k="name" v="Keppell Street"/>
  </way>
  <way id="24745945" version="4" timestamp="2010-03-21T05:29:11Z" uid="74617" user="JohnSmith" changeset="4187388">
    <nd ref="268932754"/>
    <nd ref="671147907"/>
    <nd ref="268932755"/>
    <nd ref="268932756"/>
    <nd ref="268932757"/>
    <nd ref="97590915"/>
    <tag k="highway" v="residential"/>
    <tag k="maxspeed" v="50"/>
    <tag k="name" v="Keppell Street"/>
  </way>
  <way id="24745946" version="3" timestamp="2010-02-15T12:17:27Z" uid="74617" user="JohnSmith" changeset="3882541">
    <nd ref="268932758"/>
    <nd ref="268932756"/>
    <tag k="highway" v="residential"/>
    <tag k="maxspeed" v="50"/>
    <tag k="name" v="Myra Street"/>
  </way>
  <way id="24745950" version="3" timestamp="2010-02-15T12:17:28Z" uid="74617" user="JohnSmith" changeset="3882541">
    <nd ref="268932824"/>
    <nd ref="268932748"/>
    <tag k="highway" v="residential"/>
    <tag k="maxspeed" v="50"/>
  </way>
  <way id="24745950" version="4" timestamp="2010-03-21T05:29:12Z" uid="74617" user="JohnSmith" changeset="4187388">
    <nd ref="268932824"/>
    <nd ref="671147913"/>
    <nd ref="268932748"/>
    <tag k="highway" v="residential"/>
    <tag k="maxspeed" v="50"/>
  </way>
  <way id="24745954" version="3" timestamp="2010-02-15T12:17:28Z" uid="74617" user="JohnSmith" changeset="3882541">
    <nd ref="268932833"/>
    <nd ref="268932834"/>
    <nd ref="268932747"/>
    <tag k="highway" v="residential"/>
    <tag k="maxspeed" v="50"/>
    <tag k="name" v="Holloway Street"/>
  </way>
  <way id="24745955" version="4" timestamp="2010-02-15T12:17:23Z" uid="74617" user="JohnSmith" changeset="3882541">
    <nd ref="268932843"/>
    <nd ref="268932844"/>
    <nd ref="268932845"/>
    <nd ref="268932846"/>
    <nd ref="268932847"/>
    <nd ref="268932848"/>
    <nd ref="268932849"/>
    <nd ref="268932850"/>
    <nd ref="268932851"/>
    <nd ref="268932852"/>
    <nd ref="268932835"/>
    <nd ref="268932836"/>
    <nd ref="268932745"/>
    <tag k="highway" v="residential"/>
    <tag k="maxspeed" v="50"/>
    <tag k="name" v="Juanita Street"/>
  </way>
  <way id="24745955" version="5" timestamp="2010-03-21T05:29:11Z" uid="74617" user="JohnSmith" changeset="4187388">
    <nd ref="268932843"/>
    <nd ref="268932844"/>
    <nd ref="268932845"/>
    <nd ref="268932846"/>
    <nd ref="268932847"/>
    <nd ref="268932848"/>
    <nd ref="268932849"/>
    <nd ref="268932850"/>
    <nd ref="268932851"/>
    <nd ref="268932852"/>
    <nd ref="268932835"/>
    <nd ref="268932836"/>
    <nd ref="671147909"/>
    <nd ref="268932745"/>
    <tag k="highway" v="residential"/>
    <tag k="maxspeed" v="50"/>
    <tag k="name" v="Juanita Street"/>
  </way>
  <way id="24745959" version="3" timestamp="2010-02-15T12:17:28Z" uid="74617" user="JohnSmith" changeset="3882541">
    <nd ref="268932909"/>
    <nd ref="268932910"/>
    <nd ref="268932850"/>
    <tag k="highway" v="residential"/>
    <tag k="maxspeed" v="50"/>
    <tag k="name" v="Waterview Place"/>
  </way>
  <way id="24745966" version="2" timestamp="2010-02-15T12:17:28Z" uid="74617" user="JohnSmith" changeset="3882541">
    <nd ref="268932924"/>
    <nd ref="268932845"/>
    <tag k="highway" v="residential"/>
    <tag k="maxspeed" v="50"/>
  </way>
  <way id="24745970" version="3" timestamp="2010-02-15T12:17:25Z" uid="74617" user="JohnSmith" changeset="3882541">
    <nd ref="268932932"/>
    <nd ref="268932754"/>
    <nd ref="268932933"/>
    <tag k="highway" v="residential"/>
    <tag k="maxspeed" v="50"/>
    <tag k="name" v="Napier Street"/>
  </way>
  <way id="24745974" version="4" timestamp="2010-02-15T12:17:29Z" uid="74617" user="JohnSmith" changeset="3882541">
    <nd ref="268933048"/>
    <nd ref="268932843"/>
    <nd ref="268933049"/>
    <nd ref="268933050"/>
    <nd ref="268933051"/>
    <nd ref="268933052"/>
    <nd ref="268933053"/>
    <nd ref="268933091"/>
    <nd ref="268933054"/>
    <nd ref="268933055"/>
    <nd ref="268933056"/>
    <nd ref="268933057"/>
    <tag k="highway" v="residential"/>
    <tag k="maxspeed" v="50"/>
    <tag k="name" v="MacGregor Drive"/>
  </way>
  <way id="24745974" version="5" timestamp="2010-03-21T05:29:12Z" uid="74617" user="JohnSmith" changeset="4187388">
    <nd ref="268933048"/>
    <nd ref="268932843"/>
    <nd ref="268933049"/>
    <nd ref="268933050"/>
    <nd ref="268933051"/>
    <nd ref="268933052"/>
    <nd ref="268933053"/>
    <nd ref="268933091"/>
    <nd ref="268933054"/>
    <nd ref="268933055"/>
    <nd ref="268933056"/>
    <nd ref="268933057"/>
    <nd ref="565329648"/>
    <tag k="highway" v="residential"/>
    <tag k="maxspeed" v="50"/>
    <tag k="name" v="MacGregor Drive"/>
  </way>
  <way id="24745975" version="4" timestamp="2010-02-15T12:17:29Z" uid="74617" user="JohnSmith" changeset="3882541">
    <nd ref="268933058"/>
    <nd ref="268933059"/>
    <nd ref="268933049"/>
    <tag k="highway" v="residential"/>
    <tag k="maxspeed" v="50"/>
    <tag k="name" v="Finnegan Court"/>
  </way>
  <way id="24745977" version="2" timestamp="2010-02-15T12:17:28Z" uid="74617" user="JohnSmith" changeset="3882541">
    <nd ref="268933062"/>
    <nd ref="268933063"/>
    <nd ref="268933054"/>
    <tag k="highway" v="residential"/>
    <tag k="maxspeed" v="50"/>
  </way>
  <way id="24745977" version="4" timestamp="2010-06-14T04:13:53Z" uid="4467" user="Rosscoe" changeset="4984711">
    <nd ref="268933062"/>
    <nd ref="268933063"/>
    <nd ref="268933054"/>
    <tag k="highway" v="residential"/>
    <tag k="maxspeed" v="50"/>
    <tag k="name" v="Finnegan Court"/>
  </way>
  <way id="24745979" version="5" timestamp="2009-12-18T19:45:16Z" uid="9581" user="Lobelt" changeset="3402858">
    <nd ref="302620913"/>
    <nd ref="287698975"/>
    <tag k="highway" v="track"/>
    <tag k="tracktype" v="grade2"/>
  </way>
  <way id="24745983" version="3" timestamp="2010-02-15T12:17:29Z" uid="74617" user="JohnSmith" changeset="3882541">
    <nd ref="268933085"/>
    <nd ref="268933086"/>
    <nd ref="268933087"/>
    <nd ref="268933088"/>
    <nd ref="268933055"/>
    <tag k="highway" v="residential"/>
    <tag k="maxspeed" v="50"/>
    <tag k="name" v="Edwardson Court"/>
  </way>
  <way id="24745984" version="2" timestamp="2010-02-15T12:17:28Z" uid="74617" user="JohnSmith" changeset="3882541">
    <nd ref="268933089"/>
    <nd ref="268933090"/>
    <nd ref="268933091"/>
    <tag k="highway" v="residential"/>
    <tag k="maxspeed" v="50"/>
  </way>
  <way id="24745992" version="3" timestamp="2010-02-15T12:17:32Z" uid="74617" user="JohnSmith" changeset="3882541">
    <nd ref="268933184"/>
    <nd ref="569078443"/>
    <nd ref="253174858"/>
    <tag k="highway" v="residential"/>
    <tag k="maxspeed" v="50"/>
  </way>
</osm>
