<?xml version='1.0' encoding='UTF-8'?>
<osm version="0.6" generator="libosmium/2.20.0">
  <way id="24802025" version="1" timestamp="2008-06-10T05:04:32Z" uid="40373" user="Daguru" changeset="116673">
    <nd ref="269461456"/>
    <nd ref="269461459"/>
    <tag k="bridge" v="yes"/>
    <tag k="created_by" v="JOSM"/>
    <tag k="highway" v="secondary"/>
    <tag k="layer" v="1"/>
    <tag k="name" v="Flaesheimer Damm"/>
  </way>
  <way id="24802026" version="1" timestamp="2008-06-10T05:04:33Z" uid="40373" user="Daguru" changeset="116673">
    <nd ref="269461459"/>
    <nd ref="34284292"/>
    <nd ref="34284289"/>
    <nd ref="34284287"/>
    <nd ref="34284284"/>
    <tag k="created_by" v="JOSM"/>
    <tag k="highway" v="secondary"/>
    <tag k="name" v="Flaesheimer Damm"/>
  </way>
  <way id="24802026" version="2" timestamp="2008-06-14T04:46:45Z" uid="40373" user="Daguru" changeset="155121">
    <nd ref="269461459"/>
    <nd ref="34284292"/>
    <nd ref="270219751"/>
    <nd ref="34284289"/>
    <nd ref="34284287"/>
    <nd ref="34284284"/>
    <tag k="created_by" v="JOSM"/>
    <tag k="highway" v="secondary"/>
    <tag k="name" v="Flaesheimer Damm"/>
  </way>
  <way id="24802026" version="3" timestamp="2008-06-15T04:36:57Z" uid="40373" user="Daguru" changeset="166919">
    <nd ref="269461459"/>
    <nd ref="34284292"/>
    <nd ref="270406119"/>
    <nd ref="270219751"/>
    <nd ref="34284289"/>
    <nd ref="34284287"/>
    <nd ref="34284284"/>
    <tag k="created_by" v="JOSM"/>
    <tag k="highway" v="secondary"/>
    <tag k="name" v="Flaesheimer Damm"/>
  </way>
  <way id="24802027" version="1" timestamp="2008-06-10T05:04:33Z" uid="40373" user="Daguru" changeset="116673">
    <nd ref="269461462"/>
    <nd ref="269461465"/>
    <tag k="bridge" v="yes"/>
    <tag k="created_by" v="JOSM"/>
    <tag k="highway" v="secondary"/>
    <tag k="layer" v="1"/>
    <tag k="name" v="Flaesheimer Damm"/>
  </way>
  <way id="24802028" version="1" timestamp="2008-06-10T05:04:33Z" uid="40373" user="Daguru" changeset="116673">
    <nd ref="269461465"/>
    <nd ref="269461456"/>
    <tag k="created_by" v="JOSM"/>
    <tag k="highway" v="secondary"/>
    <tag k="name" v="Flaesheimer Damm"/>
  </way>
  <way id="24802029" version="1" timestamp="2008-06-10T05:04:33Z" uid="40373" user="Daguru" changeset="116673">
    <nd ref="34284327"/>
    <nd ref="269461468"/>
    <tag k="bridge" v="yes"/>
    <tag k="created_by" v="JOSM"/>
    <tag k="highway" v="secondary"/>
    <tag k="layer" v="1"/>
    <tag k="name" v="Flaesheimer Straße"/>
  </way>
  <way id="24802030" version="1" timestamp="2008-06-10T05:04:34Z" uid="40373" user="Daguru" changeset="116673">
    <nd ref="269461468"/>
    <nd ref="34284330"/>
    <nd ref="34284332"/>
    <nd ref="34284335"/>
    <nd ref="34284338"/>
    <nd ref="34284340"/>
    <nd ref="34284344"/>
    <nd ref="34284346"/>
    <nd ref="34284349"/>
    <nd ref="34284353"/>
    <tag k="created_by" v="JOSM"/>
    <tag k="highway" v="secondary"/>
    <tag k="name" v="Flaesheimer Straße"/>
  </way>
  <way id="24802032" version="4" timestamp="2010-03-27T23:41:37Z" uid="20587" user="balrog-kun" changeset="4250871">
    <nd ref="14941346"/>
    <nd ref="269461498"/>
    <tag k="bridge" v="yes"/>
    <tag k="created_by" v="Potlatch 0.10f"/>
    <tag k="highway" v="primary"/>
    <tag k="layer" v="1"/>
    <tag k="name" v="Mission Road"/>
  </way>
  <way id="24802043" version="4" timestamp="2010-03-27T23:41:37Z" uid="20587" user="balrog-kun" changeset="4250871">
    <nd ref="18882222"/>
    <nd ref="269461616"/>
    <nd ref="269461617"/>
    <nd ref="269461618"/>
    <nd ref="269461619"/>
    <nd ref="269461620"/>
    <nd ref="269461621"/>
    <nd ref="269461622"/>
    <nd ref="269461623"/>
    <nd ref="269461624"/>
    <nd ref="269461625"/>
    <nd ref="269461626"/>
    <nd ref="269461590"/>
    <tag k="created_by" v="Potlatch 0.10f"/>
    <tag k="highway" v="secondary"/>
    <tag k="name" v="Valley Boulevard"/>
    <tag k="oneway" v="yes"/>
  </way>
  <way id="24802049" version="6" timestamp="2010-03-27T23:41:38Z" uid="20587" user="balrog-kun" changeset="4250871">
    <nd ref="269461631"/>
    <nd ref="269461634"/>
    <nd ref="269461635"/>
    <nd ref="269461636"/>
    <nd ref="269461637"/>
    <nd ref="269461622"/>
    <tag k="created_by" v="Potlatch 0.10f"/>
    <tag k="highway" v="secondary"/>
    <tag k="name" v="Valley Boulevard"/>
    <tag k="oneway" v="yes"/>
  </way>
  <way id="24802053" version="5" timestamp="2010-03-27T23:41:38Z" uid="20587" user="balrog-kun" changeset="4250871">
    <nd ref="14943097"/>
    <nd ref="604238745"/>
    <nd ref="269461647"/>
    <nd ref="269461648"/>
    <nd ref="269461649"/>
    <nd ref="269461650"/>
    <nd ref="269461651"/>
    <nd ref="269461646"/>
    <nd ref="32274966"/>
    <nd ref="15717618"/>
    <nd ref="604238744"/>
    <nd ref="14941489"/>
    <tag k="highway" v="tertiary"/>
    <tag k="name" v="Eastlake Street"/>
  </way>
  <way id="24802062" version="4" timestamp="2010-03-27T23:41:38Z" uid="20587" user="balrog-kun" changeset="4250871">
    <nd ref="269462039"/>
    <nd ref="269462054"/>
    <nd ref="269462053"/>
    <tag k="highway" v="primary_link"/>
    <tag k="name" v="Valley Boulevard Access"/>
    <tag k="oneway" v="yes"/>
  </way>
  <way id="24802160" version="7" timestamp="2009-08-08T14:50:22Z" uid="64977" user="CLoeser" changeset="2076434">
    <nd ref="269463312"/>
    <nd ref="269463313"/>
    <nd ref="321604600"/>
    <nd ref="269463314"/>
    <nd ref="321604597"/>
    <nd ref="281587361"/>
    <tag k="access" v="agricultural / forestry"/>
    <tag k="created_by" v="Potlatch 0.10b"/>
    <tag k="highway" v="track"/>
  </way>
  <way id="24802161" version="7" timestamp="2010-06-22T06:10:24Z" uid="64977" user="CLoeser" changeset="5048500">
    <nd ref="281585417"/>
    <nd ref="281587721"/>
    <nd ref="281586821"/>
    <nd ref="281585419"/>
    <nd ref="281587723"/>
    <nd ref="281585421"/>
    <nd ref="281587724"/>
    <nd ref="269428362"/>
    <nd ref="269428363"/>
    <nd ref="269428364"/>
    <tag k="highway" v="track"/>
    <tag k="name" v="Obere Bachstraße"/>
    <tag k="postal_code" v="17509"/>
  </way>
  <way id="24802191" version="5" timestamp="2009-08-20T18:31:55Z" uid="64977" user="CLoeser" changeset="2215480">
    <nd ref="269462679"/>
    <nd ref="269463603"/>
    <nd ref="281604002"/>
    <nd ref="281604004"/>
    <nd ref="281604005"/>
    <nd ref="281604006"/>
    <nd ref="281604007"/>
    <nd ref="281604008"/>
    <nd ref="281604009"/>
    <nd ref="281604011"/>
    <tag k="created_by" v="Potlatch 0.10b"/>
    <tag k="highway" v="track"/>
    <tag k="surface" v="sand"/>
    <tag k="tracktype" v="grade5"/>
  </way>
  <way id="24802298" version="3" timestamp="2009-07-25T17:31:03Z" uid="74617" user="JohnSmith" changeset="1936615">
    <nd ref="269465221"/>
    <nd ref="269465222"/>
    <nd ref="269465223"/>
    <nd ref="269465224"/>
    <tag k="highway" v="residential"/>
    <tag k="maxspeed" v="50"/>
    <tag k="name" v="Palmgate Terrace"/>
    <tag k="source" v="survey"/>
    <tag k="surface" v="paved"/>
  </way>
  <way id="24802299" version="3" timestamp="2009-07-25T17:31:03Z" uid="74617" user="JohnSmith" changeset="1936615">
    <nd ref="269465225"/>
    <nd ref="269465226"/>
    <nd ref="269465227"/>
    <nd ref="269465228"/>
    <nd ref="269465229"/>
    <tag k="highway" v="residential"/>
    <tag k="maxspeed" v="50"/>
    <tag k="name" v="Elenbrae Court"/>
    <tag k="source" v="survey"/>
    <tag k="surface" v="paved"/>
  </way>
  <way id="24802300" version="3" timestamp="2009-07-25T17:31:02Z" uid="74617" user="JohnSmith" changeset="1936615">
    <nd ref="60124627"/>
    <nd ref="269465230"/>
    <tag k="highway" v="residential"/>
    <tag k="maxspeed" v="50"/>
    <tag k="name" v="Themi Place"/>
    <tag k="source" v="survey"/>
    <tag k="surface" v="paved"/>
  </way>
  <way id="24802301" version="4" timestamp="2009-07-25T17:31:03Z" uid="74617" user="JohnSmith" changeset="1936615">
    <nd ref="60124629"/>
    <nd ref="269465231"/>
    <nd ref="269465232"/>
    <tag k="highway" v="residential"/>
    <tag k="maxspeed" v="50"/>
    <tag k="name" v="Durack Place"/>
    <tag k="source" v="survey"/>
    <tag k="surface" v="paved"/>
  </way>
  <way id="24802302" version="3" timestamp="2009-07-25T17:31:02Z" uid="74617" user="JohnSmith" changeset="1936615">
    <nd ref="60124633"/>
    <nd ref="269465233"/>
    <nd ref="269465234"/>
    <tag k="highway" v="residential"/>
    <tag k="maxspeed" v="50"/>
    <tag k="name" v="Cable Close"/>
    <tag k="source" v="survey"/>
    <tag k="surface" v="paved"/>
  </way>
  <way id="24802304" version="4" timestamp="2009-07-25T17:31:03Z" uid="74617" user="JohnSmith" changeset="1936615">
    <nd ref="269465235"/>
    <nd ref="269465236"/>
    <nd ref="269465237"/>
    <nd ref="269465238"/>
    <tag k="highway" v="residential"/>
    <tag k="maxspeed" v="50"/>
    <tag k="name" v="Napier Place"/>
    <tag k="source" v="survey"/>
    <tag k="surface" v="paved"/>
  </way>
  <way id="24802305" version="3" timestamp="2009-07-25T17:31:03Z" uid="74617" user="JohnSmith" changeset="1936615">
    <nd ref="269465239"/>
    <nd ref="269465247"/>
    <nd ref="269465248"/>
    <tag k="highway" v="residential"/>
    <tag k="maxspeed" v="50"/>
    <tag k="name" v="Emerald Court"/>
    <tag k="source" v="survey"/>
    <tag k="surface" v="paved"/>
  </way>
  <way id="24802306" version="4" timestamp="2009-07-25T17:31:02Z" uid="74617" user="JohnSmith" changeset="1936615">
    <nd ref="269465249"/>
    <nd ref="269465250"/>
    <nd ref="269465251"/>
    <tag k="highway" v="residential"/>
    <tag k="maxspeed" v="50"/>
    <tag k="name" v="Wyndham Court"/>
    <tag k="source" v="survey"/>
    <tag k="surface" v="paved"/>
  </way>
  <way id="24802307" version="4" timestamp="2009-07-25T17:30:55Z" uid="74617" user="JohnSmith" changeset="1936615">
    <nd ref="269465255"/>
    <nd ref="269465257"/>
    <tag k="highway" v="residential"/>
    <tag k="maxspeed" v="50"/>
    <tag k="name" v="Dampier Close"/>
    <tag k="source" v="survey"/>
    <tag k="surface" v="paved"/>
  </way>
  <way id="24802308" version="4" timestamp="2009-07-25T17:31:02Z" uid="74617" user="JohnSmith" changeset="1936615">
    <nd ref="269465258"/>
    <nd ref="269465259"/>
    <nd ref="269465260"/>
    <tag k="highway" v="residential"/>
    <tag k="maxspeed" v="50"/>
    <tag k="name" v="Broome Terrace"/>
    <tag k="source" v="survey"/>
    <tag k="surface" v="paved"/>
  </way>
  <way id="24802309" version="4" timestamp="2009-07-25T17:31:04Z" uid="74617" user="JohnSmith" changeset="1936615">
    <nd ref="269465259"/>
    <nd ref="269465261"/>
    <tag k="highway" v="residential"/>
    <tag k="maxspeed" v="50"/>
    <tag k="name" v="Roebuck Bay"/>
    <tag k="source" v="survey"/>
    <tag k="surface" v="paved"/>
  </way>
  <way id="24802310" version="4" timestamp="2009-07-25T17:30:56Z" uid="74617" user="JohnSmith" changeset="1936615">
    <nd ref="60124579"/>
    <nd ref="269465262"/>
    <nd ref="269465263"/>
    <nd ref="269465264"/>
    <nd ref="269465266"/>
    <nd ref="269465267"/>
    <tag k="highway" v="residential"/>
    <tag k="maxspeed" v="50"/>
    <tag k="name" v="Nugong Place"/>
    <tag k="source" v="survey"/>
    <tag k="surface" v="paved"/>
  </way>
  <way id="24802311" version="4" timestamp="2009-07-25T17:30:59Z" uid="74617" user="JohnSmith" changeset="1936615">
    <nd ref="269465266"/>
    <nd ref="269465268"/>
    <nd ref="269465269"/>
    <nd ref="269465270"/>
    <nd ref="269465271"/>
    <nd ref="269465272"/>
    <tag k="highway" v="residential"/>
    <tag k="maxspeed" v="50"/>
    <tag k="name" v="Parslow Court"/>
    <tag k="source" v="survey"/>
    <tag k="surface" v="paved"/>
  </way>
  <way id="24802313" version="4" timestamp="2009-07-25T17:30:55Z" uid="74617" user="JohnSmith" changeset="1936615">
    <nd ref="269465273"/>
    <nd ref="269465274"/>
    <nd ref="269465275"/>
    <nd ref="269465276"/>
    <nd ref="269465277"/>
    <tag k="highway" v="residential"/>
    <tag k="maxspeed" v="50"/>
    <tag k="name" v="Michelle Court"/>
    <tag k="source" v="survey"/>
    <tag k="surface" v="paved"/>
  </way>
  <way id="24802314" version="4" timestamp="2009-07-25T17:30:57Z" uid="74617" user="JohnSmith" changeset="1936615">
    <nd ref="60124576"/>
    <nd ref="269465278"/>
    <tag k="highway" v="residential"/>
    <tag k="maxspeed" v="50"/>
    <tag k="name" v="Claire Court"/>
    <tag k="source" v="survey"/>
    <tag k="surface" v="paved"/>
  </way>
  <way id="24802315" version="4" timestamp="2009-07-25T17:31:02Z" uid="74617" user="JohnSmith" changeset="1936615">
    <nd ref="60124577"/>
    <nd ref="269465279"/>
    <nd ref="269465280"/>
    <tag k="highway" v="residential"/>
    <tag k="maxspeed" v="50"/>
    <tag k="name" v="Birregun Court"/>
    <tag k="source" v="survey"/>
    <tag k="surface" v="paved"/>
  </way>
  <way id="24802316" version="4" timestamp="2009-07-25T17:30:59Z" uid="74617" user="JohnSmith" changeset="1936615">
    <nd ref="60124575"/>
    <nd ref="269465281"/>
    <tag k="highway" v="residential"/>
    <tag k="maxspeed" v="50"/>
    <tag k="name" v="David Court"/>
    <tag k="source" v="survey"/>
    <tag k="surface" v="paved"/>
  </way>
  <way id="24802317" version="4" timestamp="2009-07-25T17:30:58Z" uid="74617" user="JohnSmith" changeset="1936615">
    <nd ref="60124573"/>
    <nd ref="269465282"/>
    <nd ref="269465283"/>
    <nd ref="269465309"/>
    <nd ref="269465310"/>
    <nd ref="269465312"/>
    <tag k="highway" v="residential"/>
    <tag k="maxspeed" v="50"/>
    <tag k="name" v="Sandalwood Court"/>
    <tag k="source" v="survey"/>
    <tag k="surface" v="paved"/>
  </way>
  <way id="24802317" version="5" timestamp="2010-04-19T07:07:22Z" uid="4467" user="Rosscoe" changeset="4465305">
    <nd ref="701722496"/>
    <nd ref="269465282"/>
    <nd ref="269465283"/>
    <nd ref="269465309"/>
    <nd ref="269465310"/>
    <nd ref="269465312"/>
    <tag k="highway" v="residential"/>
    <tag k="maxspeed" v="50"/>
    <tag k="name" v="Sandalwood Court"/>
    <tag k="source" v="survey"/>
    <tag k="surface" v="paved"/>
  </way>
  <way id="24802318" version="4" timestamp="2009-07-25T17:31:00Z" uid="74617" user="JohnSmith" changeset="1936615">
    <nd ref="60124582"/>
    <nd ref="269465313"/>
    <nd ref="269465314"/>
    <tag k="highway" v="residential"/>
    <tag k="maxspeed" v="50"/>
    <tag k="name" v="Selma Court"/>
    <tag k="source" v="survey"/>
    <tag k="surface" v="paved"/>
  </way>
  <way id="24802319" version="4" timestamp="2009-07-25T17:30:54Z" uid="74617" user="JohnSmith" changeset="1936615">
    <nd ref="60124583"/>
    <nd ref="269465315"/>
    <tag k="highway" v="residential"/>
    <tag k="maxspeed" v="50"/>
    <tag k="name" v="Everard Court"/>
    <tag k="source" v="survey"/>
    <tag k="surface" v="paved"/>
  </way>
  <way id="24802320" version="4" timestamp="2009-07-25T17:31:00Z" uid="74617" user="JohnSmith" changeset="1936615">
    <nd ref="60124585"/>
    <nd ref="269465316"/>
    <nd ref="269465317"/>
    <tag k="highway" v="residential"/>
    <tag k="maxspeed" v="50"/>
    <tag k="name" v="Ellery Place"/>
    <tag k="source" v="survey"/>
    <tag k="surface" v="paved"/>
  </way>
  <way id="24802321" version="4" timestamp="2009-07-25T17:30:58Z" uid="74617" user="JohnSmith" changeset="1936615">
    <nd ref="60124586"/>
    <nd ref="269465318"/>
    <nd ref="269465319"/>
    <nd ref="269465320"/>
    <tag k="highway" v="residential"/>
    <tag k="maxspeed" v="50"/>
    <tag k="name" v="Alpine Close"/>
    <tag k="source" v="survey"/>
    <tag k="surface" v="paved"/>
  </way>
  <way id="24802322" version="4" timestamp="2009-07-25T17:30:56Z" uid="74617" user="JohnSmith" changeset="1936615">
    <nd ref="269465321"/>
    <nd ref="269465322"/>
    <nd ref="269465323"/>
    <nd ref="269465324"/>
    <tag k="highway" v="residential"/>
    <tag k="maxspeed" v="50"/>
    <tag k="name" v="Bendock Court"/>
    <tag k="source" v="survey"/>
    <tag k="surface" v="paved"/>
  </way>
  <way id="24802323" version="4" timestamp="2009-07-25T17:31:00Z" uid="74617" user="JohnSmith" changeset="1936615">
    <nd ref="60124587"/>
    <nd ref="269465325"/>
    <nd ref="269465330"/>
    <nd ref="269465331"/>
    <nd ref="269465332"/>
    <tag k="highway" v="residential"/>
    <tag k="maxspeed" v="50"/>
    <tag k="name" v="Selwyn Place"/>
    <tag k="source" v="survey"/>
    <tag k="surface" v="paved"/>
  </way>
  <way id="24802324" version="4" timestamp="2009-07-25T17:30:58Z" uid="74617" user="JohnSmith" changeset="1936615">
    <nd ref="60124589"/>
    <nd ref="269465333"/>
    <nd ref="269465334"/>
    <nd ref="269465335"/>
    <tag k="highway" v="residential"/>
    <tag k="maxspeed" v="50"/>
    <tag k="name" v="Boola Court"/>
    <tag k="source" v="survey"/>
    <tag k="surface" v="paved"/>
  </way>
  <way id="24802325" version="4" timestamp="2009-07-25T17:30:59Z" uid="74617" user="JohnSmith" changeset="1936615">
    <nd ref="60124588"/>
    <nd ref="269465336"/>
    <nd ref="269465337"/>
    <nd ref="269465338"/>
    <tag k="highway" v="residential"/>
    <tag k="maxspeed" v="50"/>
    <tag k="name" v="Walhalla Close"/>
    <tag k="source" v="survey"/>
    <tag k="surface" v="paved"/>
  </way>
  <way id="24802326" version="4" timestamp="2009-07-25T17:31:00Z" uid="74617" user="JohnSmith" changeset="1936615">
    <nd ref="269465339"/>
    <nd ref="269465341"/>
    <tag k="highway" v="residential"/>
    <tag k="maxspeed" v="50"/>
    <tag k="name" v="Maryvale Court"/>
    <tag k="source" v="survey"/>
    <tag k="surface" v="paved"/>
  </way>
  <way id="24802327" version="4" timestamp="2009-07-25T17:30:57Z" uid="74617" user="JohnSmith" changeset="1936615">
    <nd ref="269465347"/>
    <nd ref="269465348"/>
    <nd ref="269465399"/>
    <tag k="highway" v="residential"/>
    <tag k="maxspeed" v="50"/>
    <tag k="name" v="Buller Court"/>
    <tag k="source" v="survey"/>
    <tag k="surface" v="paved"/>
  </way>
  <way id="24802328" version="4" timestamp="2009-07-25T17:31:00Z" uid="74617" user="JohnSmith" changeset="1936615">
    <nd ref="269465425"/>
    <nd ref="269465426"/>
    <tag k="highway" v="residential"/>
    <tag k="maxspeed" v="50"/>
    <tag k="name" v="Bindi Close"/>
    <tag k="source" v="survey"/>
    <tag k="surface" v="paved"/>
  </way>
  <way id="24802331" version="3" timestamp="2009-07-25T17:31:01Z" uid="74617" user="JohnSmith" changeset="1936615">
    <nd ref="269465430"/>
    <nd ref="269465431"/>
    <tag k="highway" v="residential"/>
    <tag k="maxspeed" v="50"/>
    <tag k="name" v="Hillcrest Court"/>
    <tag k="source" v="survey"/>
    <tag k="surface" v="paved"/>
  </way>
  <way id="24802332" version="4" timestamp="2009-07-25T17:30:59Z" uid="74617" user="JohnSmith" changeset="1936615">
    <nd ref="60124592"/>
    <nd ref="269465432"/>
    <nd ref="269465433"/>
    <nd ref="269465434"/>
    <tag k="highway" v="residential"/>
    <tag k="maxspeed" v="50"/>
    <tag k="name" v="Springfield Court"/>
    <tag k="source" v="survey"/>
    <tag k="surface" v="paved"/>
  </way>
  <way id="24802333" version="4" timestamp="2009-07-25T17:30:55Z" uid="74617" user="JohnSmith" changeset="1936615">
    <nd ref="60124591"/>
    <nd ref="269465435"/>
    <nd ref="269465436"/>
    <tag k="highway" v="residential"/>
    <tag k="maxspeed" v="50"/>
    <tag k="name" v="Merindah Court"/>
    <tag k="source" v="survey"/>
    <tag k="surface" v="paved"/>
  </way>
  <way id="24802334" version="4" timestamp="2009-07-25T17:31:00Z" uid="74617" user="JohnSmith" changeset="1936615">
    <nd ref="60124593"/>
    <nd ref="269465437"/>
    <nd ref="269465438"/>
    <nd ref="269465439"/>
    <tag k="highway" v="residential"/>
    <tag k="maxspeed" v="50"/>
    <tag k="name" v="Greendale Court"/>
    <tag k="source" v="survey"/>
    <tag k="surface" v="paved"/>
  </way>
  <way id="24802335" version="4" timestamp="2009-07-25T17:30:59Z" uid="74617" user="JohnSmith" changeset="1936615">
    <nd ref="60124597"/>
    <nd ref="269465440"/>
    <nd ref="269465441"/>
    <nd ref="269465442"/>
    <nd ref="269465443"/>
    <tag k="highway" v="residential"/>
    <tag k="maxspeed" v="50"/>
    <tag k="name" v="Farina Court"/>
    <tag k="source" v="survey"/>
    <tag k="surface" v="paved"/>
  </way>
  <way id="24802336" version="4" timestamp="2009-07-25T17:30:58Z" uid="74617" user="JohnSmith" changeset="1936615">
    <nd ref="269465444"/>
    <nd ref="269465445"/>
    <nd ref="269465446"/>
    <tag k="highway" v="residential"/>
    <tag k="maxspeed" v="50"/>
    <tag k="name" v="Sunset Place"/>
    <tag k="source" v="survey"/>
    <tag k="surface" v="paved"/>
  </way>
  <way id="24802337" version="4" timestamp="2009-07-25T17:30:57Z" uid="74617" user="JohnSmith" changeset="1936615">
    <nd ref="269465447"/>
    <nd ref="269465448"/>
    <tag k="highway" v="residential"/>
    <tag k="maxspeed" v="50"/>
    <tag k="name" v="Cloverlea Court"/>
    <tag k="source" v="survey"/>
    <tag k="surface" v="paved"/>
  </way>
  <way id="24802338" version="4" timestamp="2009-07-25T17:30:57Z" uid="74617" user="JohnSmith" changeset="1936615">
    <nd ref="269465449"/>
    <nd ref="269465450"/>
    <tag k="highway" v="residential"/>
    <tag k="is_in" v="Traralgon"/>
    <tag k="maxspeed" v="50"/>
    <tag k="name" v="Greenvalley Court"/>
    <tag k="source" v="survey"/>
    <tag k="surface" v="paved"/>
  </way>
  <way id="24802339" version="3" timestamp="2009-07-25T17:30:58Z" uid="74617" user="JohnSmith" changeset="1936615">
    <nd ref="269465451"/>
    <nd ref="269465452"/>
    <tag k="highway" v="residential"/>
    <tag k="is_in" v="Traralgon"/>
    <tag k="maxspeed" v="50"/>
    <tag k="name" v="Catherine Court"/>
    <tag k="source" v="survey"/>
    <tag k="surface" v="paved"/>
  </way>
  <way id="24802340" version="4" timestamp="2009-07-25T17:30:57Z" uid="74617" user="JohnSmith" changeset="1936615">
    <nd ref="269465453"/>
    <nd ref="269465454"/>
    <nd ref="269465455"/>
    <tag k="highway" v="residential"/>
    <tag k="is_in" v="Traralgon"/>
    <tag k="maxspeed" v="50"/>
    <tag k="name" v="Patrica Court"/>
    <tag k="source" v="survey"/>
    <tag k="surface" v="paved"/>
  </way>
  <way id="24802341" version="3" timestamp="2009-07-25T17:31:00Z" uid="74617" user="JohnSmith" changeset="1936615">
    <nd ref="269465456"/>
    <nd ref="269465457"/>
    <tag k="highway" v="residential"/>
    <tag k="is_in" v="Traralgon"/>
    <tag k="maxspeed" v="50"/>
    <tag k="name" v="Bernadette Court"/>
    <tag k="source" v="survey"/>
    <tag k="surface" v="paved"/>
  </way>
  <way id="24802344" version="3" timestamp="2009-07-25T17:31:01Z" uid="74617" user="JohnSmith" changeset="1936615">
    <nd ref="269465458"/>
    <nd ref="269465459"/>
    <tag k="highway" v="residential"/>
    <tag k="is_in" v="Traralgon"/>
    <tag k="maxspeed" v="50"/>
    <tag k="name" v="Josephine Court"/>
    <tag k="source" v="survey"/>
    <tag k="surface" v="paved"/>
  </way>
  <way id="24802347" version="3" timestamp="2009-07-25T17:28:05Z" uid="74617" user="JohnSmith" changeset="1936579">
    <nd ref="269465460"/>
    <nd ref="269465461"/>
    <nd ref="269465462"/>
    <nd ref="269465463"/>
    <nd ref="269465464"/>
    <tag k="access" v="private"/>
    <tag k="highway" v="residential"/>
    <tag k="is_in" v="Traralgon"/>
    <tag k="maxspeed" v="15"/>
    <tag k="name" v="Dale Court"/>
    <tag k="source" v="survey"/>
    <tag k="surface" v="paved"/>
  </way>
  <way id="24802348" version="3" timestamp="2009-07-25T17:28:15Z" uid="74617" user="JohnSmith" changeset="1936585">
    <nd ref="269465465"/>
    <nd ref="269465466"/>
    <nd ref="269465467"/>
    <nd ref="269465468"/>
    <nd ref="269465469"/>
    <nd ref="269465470"/>
    <tag k="access" v="private"/>
    <tag k="highway" v="residential"/>
    <tag k="is_in" v="Traralgon"/>
    <tag k="maxspeed" v="15"/>
    <tag k="name" v="Gavin Close"/>
    <tag k="source" v="survey"/>
    <tag k="surface" v="paved"/>
  </way>
  <way id="24802349" version="3" timestamp="2009-07-25T17:30:56Z" uid="74617" user="JohnSmith" changeset="1936615">
    <nd ref="269465471"/>
    <nd ref="269465472"/>
    <nd ref="269465473"/>
    <nd ref="269465474"/>
    <tag k="highway" v="residential"/>
    <tag k="is_in" v="Traralgon"/>
    <tag k="maxspeed" v="50"/>
    <tag k="name" v="West Court"/>
    <tag k="source" v="survey"/>
    <tag k="surface" v="paved"/>
  </way>
  <way id="24802350" version="3" timestamp="2009-07-25T17:30:56Z" uid="74617" user="JohnSmith" changeset="1936615">
    <nd ref="60199865"/>
    <nd ref="269465475"/>
    <nd ref="269465476"/>
    <tag k="highway" v="residential"/>
    <tag k="is_in" v="Traralgon"/>
    <tag k="maxspeed" v="50"/>
    <tag k="name" v="Felicity Court"/>
    <tag k="source" v="survey"/>
    <tag k="surface" v="paved"/>
  </way>
  <way id="24802351" version="3" timestamp="2009-07-25T17:30:57Z" uid="74617" user="JohnSmith" changeset="1936615">
    <nd ref="60199870"/>
    <nd ref="269465477"/>
    <nd ref="269465478"/>
    <nd ref="269465479"/>
    <nd ref="269465480"/>
    <nd ref="269465481"/>
    <nd ref="269465482"/>
    <tag k="highway" v="residential"/>
    <tag k="is_in" v="Traralgon"/>
    <tag k="maxspeed" v="50"/>
    <tag k="name" v="Huntingfield Close"/>
    <tag k="source" v="survey"/>
    <tag k="surface" v="paved"/>
  </way>
  <way id="24802353" version="3" timestamp="2009-07-25T17:30:59Z" uid="74617" user="JohnSmith" changeset="1936615">
    <nd ref="269465477"/>
    <nd ref="269465483"/>
    <tag k="highway" v="residential"/>
    <tag k="is_in" v="Traralgon"/>
    <tag k="maxspeed" v="50"/>
    <tag k="name" v="Saville Court"/>
    <tag k="source" v="survey"/>
    <tag k="surface" v="paved"/>
  </way>
  <way id="24802354" version="3" timestamp="2009-07-25T17:31:04Z" uid="74617" user="JohnSmith" changeset="1936615">
    <nd ref="60199872"/>
    <nd ref="269465484"/>
    <tag k="highway" v="residential"/>
    <tag k="is_in" v="Traralgon"/>
    <tag k="maxspeed" v="50"/>
    <tag k="name" v="McClure Court"/>
    <tag k="source" v="survey"/>
    <tag k="surface" v="paved"/>
  </way>
  <way id="24802355" version="3" timestamp="2009-07-25T17:31:04Z" uid="74617" user="JohnSmith" changeset="1936615">
    <nd ref="60199875"/>
    <nd ref="269465485"/>
    <nd ref="269465486"/>
    <nd ref="269465487"/>
    <tag k="highway" v="residential"/>
    <tag k="is_in" v="Traralgon"/>
    <tag k="maxspeed" v="50"/>
    <tag k="name" v="Como Court"/>
    <tag k="source" v="survey"/>
    <tag k="surface" v="paved"/>
  </way>
  <way id="24802357" version="3" timestamp="2009-07-25T17:31:04Z" uid="74617" user="JohnSmith" changeset="1936615">
    <nd ref="269465492"/>
    <nd ref="269465493"/>
    <nd ref="269465494"/>
    <nd ref="269465491"/>
    <tag k="highway" v="residential"/>
    <tag k="is_in" v="Traralgon"/>
    <tag k="maxspeed" v="50"/>
    <tag k="source" v="survey"/>
    <tag k="surface" v="paved"/>
  </way>
  <way id="24802407" version="5" timestamp="2010-02-27T13:39:12Z" uid="7617" user="Franc" changeset="3988585">
    <nd ref="60291924"/>
    <nd ref="655167295"/>
    <nd ref="655167294"/>
    <nd ref="655167293"/>
    <nd ref="28179902"/>
    <nd ref="60291925"/>
    <nd ref="28179904"/>
    <nd ref="592847533"/>
    <nd ref="28179907"/>
    <tag k="highway" v="residential"/>
    <tag k="name" v="Cocos Avenue"/>
    <tag k="source" v="Yahoo Imagery"/>
  </way>
  <way id="24802407" version="6" timestamp="2010-07-08T00:25:35Z" uid="74617" user="JohnSmith" changeset="5162525">
    <nd ref="60291924"/>
    <nd ref="655167295"/>
    <nd ref="655167294"/>
    <nd ref="655167293"/>
    <nd ref="28179902"/>
    <nd ref="60291925"/>
    <nd ref="28179904"/>
    <nd ref="592847533"/>
    <nd ref="28179907"/>
    <tag k="highway" v="residential"/>
    <tag k="maxspeed" v="50"/>
    <tag k="maxspeed:source" v="default residential speed limit in Australia"/>
    <tag k="name" v="Cocos Avenue"/>
    <tag k="source" v="Yahoo Imagery"/>
  </way>
  <way id="24802488" version="3" timestamp="2008-12-14T11:40:43Z" uid="7617" user="Franc" changeset="375809">
    <nd ref="269466949"/>
    <nd ref="28179586"/>
    <nd ref="27028534"/>
    <nd ref="27028533"/>
    <nd ref="27028532"/>
    <nd ref="27028531"/>
    <nd ref="26958224"/>
    <nd ref="27028521"/>
    <nd ref="27028520"/>
    <nd ref="27028260"/>
    <nd ref="26958322"/>
    <nd ref="26958321"/>
    <nd ref="26958320"/>
    <nd ref="26959010"/>
    <nd ref="26959008"/>
    <nd ref="26959230"/>
    <nd ref="60284986"/>
    <nd ref="26959229"/>
    <nd ref="318586367"/>
    <nd ref="26959228"/>
    <nd ref="318586370"/>
    <nd ref="26400451"/>
    <tag k="created_by" v="Potlatch 0.10"/>
    <tag k="highway" v="residential"/>
    <tag k="name" v="Chatham Road"/>
  </way>
  <way id="24802488" version="6" timestamp="2010-02-03T01:15:11Z" uid="30201" user="rrankin" changeset="3780262">
    <nd ref="269466949"/>
    <nd ref="28179586"/>
    <nd ref="27028534"/>
    <nd ref="27028533"/>
    <nd ref="27028532"/>
    <nd ref="27028531"/>
    <nd ref="26958224"/>
    <nd ref="27028521"/>
    <nd ref="27028520"/>
    <nd ref="27028260"/>
    <nd ref="576883462"/>
    <nd ref="26958322"/>
    <nd ref="26958321"/>
    <nd ref="26958320"/>
    <nd ref="26959010"/>
    <nd ref="26959008"/>
    <nd ref="627204834"/>
    <tag k="highway" v="residential"/>
    <tag k="name" v="Chatham Road"/>
  </way>
  <way id="24802488" version="9" timestamp="2010-05-09T09:39:51Z" uid="7617" user="Franc" changeset="4646306"/>
  <way id="24802526" version="2" timestamp="2010-07-09T07:14:11Z" uid="74617" user="JohnSmith" changeset="5171447">
    <nd ref="269467213"/>
    <nd ref="269467214"/>
    <nd ref="269467215"/>
    <nd ref="269467216"/>
    <nd ref="269467040"/>
    <tag k="highway" v="residential"/>
    <tag k="maxspeed" v="50"/>
    <tag k="maxspeed:source" v="default residential speed limit in Australia"/>
    <tag k="name" v="Sixth Street"/>
  </way>
  <way id="24802538" version="2" timestamp="2010-07-09T07:14:11Z" uid="74617" user="JohnSmith" changeset="5171447">
    <nd ref="269467259"/>
    <nd ref="269467213"/>
    <tag k="highway" v="residential"/>
    <tag k="maxspeed" v="50"/>
    <tag k="maxspeed:source" v="default residential speed limit in Australia"/>
    <tag k="name" v="South Terrace"/>
  </way>
  <way id="24802687" version="3" timestamp="2008-08-10T06:17:46Z" uid="17602" user="B10xyz" changeset="163046">
    <nd ref="269468305"/>
    <nd ref="269468306"/>
    <nd ref="269468307"/>
    <nd ref="269468308"/>
    <nd ref="269468309"/>
    <nd ref="269468310"/>
    <nd ref="269468311"/>
    <nd ref="269468312"/>
    <nd ref="269468313"/>
    <nd ref="269468564"/>
    <nd ref="269468314"/>
    <nd ref="269468315"/>
    <nd ref="269468316"/>
    <nd ref="269468317"/>
    <tag k="created_by" v="Potlatch 0.9c"/>
    <tag k="highway" v="residential"/>
  </way>
  <way id="24802701" version="3" timestamp="2010-07-08T00:22:32Z" uid="74617" user="JohnSmith" changeset="5162525">
    <nd ref="26957454"/>
    <nd ref="60295619"/>
    <nd ref="26957455"/>
    <nd ref="26957457"/>
    <tag k="highway" v="residential"/>
    <tag k="maxspeed" v="50"/>
    <tag k="maxspeed:source" v="default residential speed limit in Australia"/>
    <tag k="name" v="Warrington Avenue"/>
    <tag k="source" v="Yahoo Imagery"/>
  </way>
  <way id="24802721" version="3" timestamp="2008-08-10T06:17:45Z" uid="17602" user="B10xyz" changeset="163046">
    <nd ref="269468564"/>
    <nd ref="269468565"/>
    <nd ref="269468566"/>
    <nd ref="269468567"/>
    <nd ref="269468568"/>
    <nd ref="269468569"/>
    <nd ref="269468570"/>
    <nd ref="269468571"/>
    <nd ref="269468572"/>
    <nd ref="269468573"/>
    <nd ref="269468574"/>
    <nd ref="269468575"/>
    <nd ref="269468576"/>
    <nd ref="269468577"/>
    <nd ref="269468578"/>
    <nd ref="269468579"/>
    <nd ref="269468580"/>
    <nd ref="269468581"/>
    <nd ref="269468582"/>
    <nd ref="269468583"/>
    <nd ref="269468584"/>
    <nd ref="269468585"/>
    <nd ref="269468586"/>
    <nd ref="269468587"/>
    <nd ref="269468588"/>
    <nd ref="269468589"/>
    <nd ref="269468590"/>
    <nd ref="269468591"/>
    <nd ref="269468592"/>
    <nd ref="269468593"/>
    <nd ref="269468594"/>
    <nd ref="269468595"/>
    <nd ref="269468596"/>
    <nd ref="269468597"/>
    <nd ref="269468598"/>
    <nd ref="269468599"/>
    <nd ref="269468600"/>
    <nd ref="269468601"/>
    <nd ref="269468602"/>
    <nd ref="269468603"/>
    <nd ref="269468604"/>
    <nd ref="269468605"/>
    <nd ref="269468606"/>
    <nd ref="269468607"/>
    <nd ref="269468608"/>
    <nd ref="269468609"/>
    <nd ref="269468610"/>
    <nd ref="269468611"/>
    <nd ref="269468612"/>
    <nd ref="269468613"/>
    <nd ref="269468614"/>
    <nd ref="269468615"/>
    <nd ref="269468616"/>
    <nd ref="269468617"/>
    <nd ref="269468618"/>
    <nd ref="269468619"/>
    <nd ref="269468620"/>
    <nd ref="269468621"/>
    <nd ref="269468622"/>
    <nd ref="269468623"/>
    <nd ref="269468624"/>
    <nd ref="269468625"/>
    <nd ref="269468626"/>
    <nd ref="269468627"/>
    <nd ref="269468628"/>
    <nd ref="269468629"/>
    <nd ref="269468630"/>
    <nd ref="269468631"/>
    <nd ref="269468632"/>
    <nd ref="269468633"/>
    <nd ref="269468634"/>
    <nd ref="269468635"/>
    <nd ref="269468636"/>
    <nd ref="269468637"/>
    <nd ref="269468638"/>
    <nd ref="269468639"/>
    <nd ref="269468640"/>
    <nd ref="269468641"/>
    <nd ref="269468642"/>
    <nd ref="269468643"/>
    <nd ref="269468644"/>
    <nd ref="269468645"/>
    <nd ref="269468646"/>
    <nd ref="269468647"/>
    <nd ref="269468648"/>
    <nd ref="269468649"/>
    <nd ref="269468650"/>
    <nd ref="269468651"/>
    <nd ref="269468652"/>
    <nd ref="269468653"/>
    <nd ref="269468654"/>
    <nd ref="269468655"/>
    <nd ref="269468656"/>
    <nd ref="269468657"/>
    <nd ref="269468658"/>
    <nd ref="269468659"/>
    <nd ref="269468660"/>
    <nd ref="269468661"/>
    <nd ref="26596694"/>
    <tag k="created_by" v="Potlatch 0.9c"/>
    <tag k="highway" v="tertiary"/>
  </way>
  <way id="24802723" version="5" timestamp="2009-04-04T09:16:40Z" uid="64977" user="CLoeser" changeset="160679">
    <nd ref="269468678"/>
    <nd ref="293061725"/>
    <nd ref="292574663"/>
    <nd ref="269468679"/>
    <nd ref="269468680"/>
    <nd ref="344598556"/>
    <nd ref="269468681"/>
    <nd ref="269468682"/>
    <nd ref="269468683"/>
    <nd ref="269468684"/>
    <nd ref="344598545"/>
    <nd ref="369675549"/>
    <nd ref="269468685"/>
    <nd ref="269468686"/>
    <nd ref="269468687"/>
    <nd ref="269468688"/>
    <nd ref="269468689"/>
    <nd ref="344598540"/>
    <nd ref="269468690"/>
    <nd ref="269468691"/>
    <tag k="created_by" v="Potlatch 0.10f"/>
    <tag k="highway" v="residential"/>
    <tag k="name" v="Dubnaring"/>
  </way>
  <way id="24802778" version="4" timestamp="2010-06-22T06:10:25Z" uid="64977" user="CLoeser" changeset="5048500">
    <nd ref="269469341"/>
    <nd ref="269469342"/>
    <nd ref="269469343"/>
    <nd ref="269469344"/>
    <nd ref="269469345"/>
    <tag k="highway" v="track"/>
    <tag k="name" v="Untere Bachstraße"/>
  </way>
</osm>
