<?xml version='1.0' encoding='UTF-8'?>
<osm version="0.6" generator="libosmium/2.20.0">
  <way id="24835118" version="5" timestamp="2010-07-08T20:19:06Z" uid="74617" user="JohnSmith" changeset="5168688">
    <nd ref="269803260"/>
    <nd ref="627249791"/>
    <nd ref="627249792"/>
    <nd ref="269803261"/>
    <nd ref="269803262"/>
    <nd ref="627249779"/>
    <nd ref="269803259"/>
    <tag k="highway" v="residential"/>
    <tag k="maxspeed" v="50"/>
    <tag k="maxspeed:source" v="default residential speed limit in Australia"/>
    <tag k="name" v="Hartington Drive"/>
    <tag k="oneway" v="yes"/>
  </way>
  <way id="24835120" version="4" timestamp="2010-07-08T20:17:15Z" uid="74617" user="JohnSmith" changeset="5168688">
    <nd ref="269803259"/>
    <nd ref="627249780"/>
    <nd ref="269803263"/>
    <nd ref="269803264"/>
    <nd ref="627249793"/>
    <nd ref="269803265"/>
    <tag k="highway" v="residential"/>
    <tag k="maxspeed" v="50"/>
    <tag k="maxspeed:source" v="default residential speed limit in Australia"/>
    <tag k="name" v="Hartington Drive"/>
    <tag k="oneway" v="yes"/>
  </way>
  <way id="24835126" version="4" timestamp="2010-07-08T20:19:27Z" uid="74617" user="JohnSmith" changeset="5168688">
    <nd ref="65766786"/>
    <nd ref="202617267"/>
    <nd ref="65766788"/>
    <nd ref="65766789"/>
    <nd ref="65766791"/>
    <nd ref="65768189"/>
    <nd ref="65766792"/>
    <nd ref="65766793"/>
    <nd ref="65766794"/>
    <nd ref="65767660"/>
    <nd ref="65766796"/>
    <nd ref="65766797"/>
    <nd ref="65766798"/>
    <nd ref="65766799"/>
    <nd ref="65766801"/>
    <nd ref="65766802"/>
    <nd ref="65766803"/>
    <nd ref="148838885"/>
    <nd ref="148838927"/>
    <nd ref="269803506"/>
    <nd ref="65766805"/>
    <tag k="highway" v="residential"/>
    <tag k="maxspeed" v="50"/>
    <tag k="maxspeed:source" v="default residential speed limit in Australia"/>
    <tag k="name" v="Milpera Crescent"/>
  </way>
  <way id="24835213" version="25" timestamp="2010-04-28T04:40:51Z" uid="4467" user="Rosscoe" changeset="4546446">
    <nd ref="269804253"/>
    <nd ref="39506943"/>
    <nd ref="303459388"/>
    <nd ref="39506944"/>
    <nd ref="107211877"/>
    <nd ref="39506945"/>
    <nd ref="608956421"/>
    <nd ref="595494158"/>
    <nd ref="608956412"/>
    <nd ref="608956413"/>
    <nd ref="608956414"/>
    <nd ref="608956415"/>
    <nd ref="608717775"/>
    <nd ref="608718494"/>
    <nd ref="608717836"/>
    <nd ref="608718480"/>
    <nd ref="608719933"/>
    <nd ref="608717450"/>
    <nd ref="257712298"/>
    <nd ref="272615275"/>
    <nd ref="272615404"/>
    <nd ref="608727909"/>
    <nd ref="608720010"/>
    <nd ref="26921983"/>
    <nd ref="565958807"/>
    <nd ref="565958958"/>
    <nd ref="565953626"/>
    <nd ref="26921982"/>
    <nd ref="565952364"/>
    <nd ref="303459238"/>
    <nd ref="565952699"/>
    <nd ref="565946341"/>
    <nd ref="26921980"/>
    <nd ref="33555474"/>
    <nd ref="247513200"/>
    <nd ref="323610530"/>
    <nd ref="247512911"/>
    <nd ref="30029774"/>
    <nd ref="247512641"/>
    <nd ref="59950658"/>
    <nd ref="247512869"/>
    <nd ref="59950659"/>
    <nd ref="59950660"/>
    <nd ref="33555630"/>
    <nd ref="595494168"/>
    <nd ref="247512140"/>
    <nd ref="610258842"/>
    <nd ref="610261217"/>
    <nd ref="27125080"/>
    <tag k="highway" v="primary"/>
    <tag k="lanes" v="2"/>
    <tag k="maxspeed" v="80"/>
    <tag k="name" v="High Street Road"/>
    <tag k="oneway" v="yes"/>
  </way>
  <way id="24835213" version="26" timestamp="2011-02-16T14:27:49Z" uid="4467" user="Rosscoe" changeset="7304347">
    <nd ref="269804253"/>
    <nd ref="303459388"/>
    <nd ref="39506944"/>
    <nd ref="107211877"/>
    <nd ref="39506945"/>
    <nd ref="608956421"/>
    <nd ref="595494158"/>
    <nd ref="608956412"/>
    <nd ref="608956413"/>
    <nd ref="608956414"/>
    <nd ref="608956415"/>
    <nd ref="608718494"/>
    <nd ref="608717836"/>
    <nd ref="608718480"/>
    <nd ref="608719933"/>
    <nd ref="257712298"/>
    <nd ref="272615275"/>
    <nd ref="272615404"/>
    <nd ref="608727909"/>
    <nd ref="608720010"/>
    <nd ref="26921983"/>
    <nd ref="565958807"/>
    <nd ref="565958958"/>
    <nd ref="565953626"/>
    <nd ref="26921982"/>
    <nd ref="565952364"/>
    <nd ref="303459238"/>
    <nd ref="565952699"/>
    <nd ref="565946341"/>
    <nd ref="26921980"/>
    <nd ref="1156331018"/>
    <nd ref="33555474"/>
    <nd ref="247513200"/>
    <nd ref="323610530"/>
    <nd ref="247512911"/>
    <nd ref="30029774"/>
    <nd ref="247512641"/>
    <nd ref="59950658"/>
    <nd ref="247512869"/>
    <nd ref="59950659"/>
    <nd ref="33555630"/>
    <nd ref="595494168"/>
    <nd ref="247512140"/>
    <nd ref="610261217"/>
    <nd ref="27125080"/>
    <nd ref="59950807"/>
    <tag k="highway" v="primary"/>
    <tag k="lanes" v="2"/>
    <tag k="maxspeed" v="80"/>
    <tag k="name" v="High Street Road"/>
    <tag k="oneway" v="yes"/>
  </way>
  <way id="24835215" version="6" timestamp="2009-08-13T13:16:34Z" uid="4467" user="Rosscoe" changeset="2131403">
    <nd ref="269804254"/>
    <nd ref="39503815"/>
    <nd ref="39503816"/>
    <nd ref="26921710"/>
    <nd ref="39505768"/>
    <nd ref="27381460"/>
    <nd ref="27381973"/>
    <nd ref="27381459"/>
    <nd ref="27381971"/>
    <nd ref="27381458"/>
    <nd ref="27381970"/>
    <nd ref="27381455"/>
    <nd ref="27381972"/>
    <nd ref="27381454"/>
    <nd ref="101993956"/>
    <nd ref="101993213"/>
    <nd ref="27381872"/>
    <tag k="highway" v="primary"/>
    <tag k="is_in" v="Glen Waverley,Victoria,Australia"/>
    <tag k="name" v="High Street Road"/>
    <tag k="oneway" v="yes"/>
    <tag k="postal_code" v="3150"/>
    <tag k="ref" v="S24"/>
  </way>
  <way id="24835215" version="9" timestamp="2011-02-16T14:28:35Z" uid="4467" user="Rosscoe" changeset="7304347">
    <nd ref="269804254"/>
    <nd ref="39503815"/>
    <nd ref="39503816"/>
    <nd ref="26921710"/>
    <nd ref="39505768"/>
    <nd ref="27381460"/>
    <nd ref="594316568"/>
    <nd ref="1156331020"/>
    <nd ref="27381973"/>
    <nd ref="594316579"/>
    <nd ref="27381459"/>
    <nd ref="27381971"/>
    <nd ref="594316458"/>
    <nd ref="27381458"/>
    <nd ref="27381970"/>
    <nd ref="594316471"/>
    <nd ref="27381455"/>
    <nd ref="593536668"/>
    <nd ref="27381972"/>
    <nd ref="27381454"/>
    <nd ref="101993956"/>
    <nd ref="101993213"/>
    <nd ref="27381872"/>
    <tag k="highway" v="primary"/>
    <tag k="is_in" v="Glen Waverley,Victoria,Australia"/>
    <tag k="name" v="High Street Road"/>
    <tag k="oneway" v="yes"/>
    <tag k="postal_code" v="3150"/>
    <tag k="ref" v="S24"/>
  </way>
  <way id="24835275" version="11" timestamp="2010-04-06T03:49:17Z" uid="74617" user="JohnSmith" changeset="4340174">
    <nd ref="107162847"/>
    <nd ref="273309300"/>
    <nd ref="597974309"/>
    <nd ref="269805669"/>
    <nd ref="305591047"/>
    <nd ref="269805682"/>
    <nd ref="275173959"/>
    <tag k="highway" v="trunk"/>
    <tag k="name" v="Wellington Road"/>
    <tag k="oneway" v="yes"/>
  </way>
  <way id="24835275" version="12" timestamp="2011-03-05T11:43:30Z" uid="4467" user="Rosscoe" changeset="7462200">
    <nd ref="107162847"/>
    <nd ref="273309300"/>
    <nd ref="597974309"/>
    <nd ref="269805669"/>
    <nd ref="305591047"/>
    <nd ref="269805682"/>
    <nd ref="275173959"/>
    <tag k="highway" v="trunk"/>
    <tag k="name" v="Wellington Road"/>
    <tag k="oneway" v="yes"/>
    <tag k="source" v="nearmap"/>
  </way>
  <way id="24835287" version="4" timestamp="2009-07-25T04:16:05Z" uid="74617" user="JohnSmith" changeset="1930637">
    <nd ref="246523437"/>
    <nd ref="246523438"/>
    <nd ref="246523439"/>
    <nd ref="246523440"/>
    <nd ref="246523441"/>
    <nd ref="246523442"/>
    <nd ref="246523443"/>
    <nd ref="246523444"/>
    <nd ref="246523445"/>
    <nd ref="309846268"/>
    <nd ref="246523446"/>
    <nd ref="246523447"/>
    <nd ref="246523448"/>
    <nd ref="246523449"/>
    <nd ref="246523450"/>
    <tag k="cycleway" v="track"/>
    <tag k="foot" v="yes"/>
    <tag k="highway" v="cycleway"/>
    <tag k="name" v="Dandenong Creek Trail"/>
    <tag k="surface" v="unpaved"/>
  </way>
  <way id="24835291" version="3" timestamp="2009-07-25T04:15:55Z" uid="74617" user="JohnSmith" changeset="1930637">
    <nd ref="266915279"/>
    <nd ref="269805781"/>
    <nd ref="269805782"/>
    <nd ref="269805783"/>
    <nd ref="269805784"/>
    <nd ref="269805785"/>
    <nd ref="269805786"/>
    <nd ref="269805787"/>
    <nd ref="269805788"/>
    <nd ref="269805789"/>
    <nd ref="269805790"/>
    <nd ref="269805779"/>
    <tag k="cycleway" v="track"/>
    <tag k="foot" v="yes"/>
    <tag k="highway" v="cycleway"/>
    <tag k="name" v="EastLink Trail"/>
    <tag k="surface" v="paved"/>
  </way>
  <way id="24835304" version="7" timestamp="2010-04-26T08:39:10Z" uid="4467" user="Rosscoe" changeset="4529525">
    <nd ref="269805867"/>
    <nd ref="611915726"/>
    <nd ref="611915701"/>
    <nd ref="269805866"/>
    <tag k="bridge" v="yes"/>
    <tag k="foot" v="yes"/>
    <tag k="highway" v="cycleway"/>
    <tag k="layer" v="1"/>
    <tag k="name" v="EastLink Trail"/>
    <tag k="source" v="nearmap"/>
    <tag k="surface" v="paved"/>
  </way>
  <way id="24835355" version="9" timestamp="2010-07-28T09:19:21Z" uid="4467" user="Rosscoe" changeset="5336198"/>
  <way id="24835368" version="3" timestamp="2010-04-05T09:18:50Z" uid="74617" user="JohnSmith" changeset="4330247">
    <nd ref="269806848"/>
    <nd ref="29901823"/>
    <tag k="bridge" v="yes"/>
    <tag k="highway" v="motorway"/>
    <tag k="layer" v="1"/>
    <tag k="name" v="South Gippsland Freeway"/>
    <tag k="oneway" v="yes"/>
  </way>
  <way id="24835369" version="3" timestamp="2010-04-05T09:18:51Z" uid="74617" user="JohnSmith" changeset="4330247">
    <nd ref="29901823"/>
    <nd ref="29901824"/>
    <nd ref="269806852"/>
    <nd ref="29901825"/>
    <nd ref="29901826"/>
    <nd ref="29901827"/>
    <nd ref="29901828"/>
    <nd ref="29901829"/>
    <nd ref="29901830"/>
    <nd ref="29901831"/>
    <nd ref="267981897"/>
    <tag k="highway" v="motorway"/>
    <tag k="name" v="South Gippsland Freeway"/>
    <tag k="oneway" v="yes"/>
  </way>
  <way id="24835370" version="4" timestamp="2010-04-04T23:23:52Z" uid="74617" user="JohnSmith" changeset="4327637">
    <nd ref="269806853"/>
    <nd ref="269806845"/>
    <tag k="bridge" v="yes"/>
    <tag k="highway" v="motorway"/>
    <tag k="layer" v="1"/>
    <tag k="name" v="Monash Freeway"/>
    <tag k="oneway" v="yes"/>
    <tag k="ref" v="M1"/>
  </way>
  <way id="24835370" version="5" timestamp="2010-04-05T08:30:28Z" uid="74617" user="JohnSmith" changeset="4330247">
    <nd ref="269806853"/>
    <nd ref="269806845"/>
    <tag k="bridge" v="yes"/>
    <tag k="highway" v="motorway"/>
    <tag k="layer" v="1"/>
    <tag k="name" v="Monash Freeway"/>
    <tag k="oneway" v="yes"/>
  </way>
  <way id="24835371" version="3" timestamp="2010-04-04T23:23:51Z" uid="74617" user="JohnSmith" changeset="4327637">
    <nd ref="269806854"/>
    <nd ref="49309833"/>
    <tag k="bridge" v="yes"/>
    <tag k="highway" v="motorway"/>
    <tag k="layer" v="1"/>
    <tag k="name" v="Monash Freeway"/>
    <tag k="oneway" v="yes"/>
    <tag k="ref" v="M1"/>
  </way>
  <way id="24835371" version="4" timestamp="2010-04-05T08:30:28Z" uid="74617" user="JohnSmith" changeset="4330247">
    <nd ref="269806854"/>
    <nd ref="49309833"/>
    <tag k="bridge" v="yes"/>
    <tag k="highway" v="motorway"/>
    <tag k="layer" v="1"/>
    <tag k="name" v="Monash Freeway"/>
    <tag k="oneway" v="yes"/>
  </way>
  <way id="24835372" version="2" timestamp="2010-04-04T23:23:52Z" uid="74617" user="JohnSmith" changeset="4327637">
    <nd ref="269806845"/>
    <nd ref="269806846"/>
    <nd ref="31562678"/>
    <nd ref="31562679"/>
    <nd ref="59608773"/>
    <tag k="highway" v="motorway"/>
    <tag k="name" v="Monash Freeway"/>
    <tag k="oneway" v="yes"/>
    <tag k="ref" v="M1"/>
  </way>
  <way id="24835372" version="3" timestamp="2010-04-05T08:30:27Z" uid="74617" user="JohnSmith" changeset="4330247">
    <nd ref="269806845"/>
    <nd ref="269806846"/>
    <nd ref="31562678"/>
    <nd ref="31562679"/>
    <nd ref="59608773"/>
    <tag k="highway" v="motorway"/>
    <tag k="name" v="Monash Freeway"/>
    <tag k="oneway" v="yes"/>
  </way>
  <way id="24835373" version="3" timestamp="2010-04-04T23:23:51Z" uid="74617" user="JohnSmith" changeset="4327637">
    <nd ref="49309833"/>
    <nd ref="29901912"/>
    <tag k="highway" v="motorway"/>
    <tag k="name" v="Monash Freeway"/>
    <tag k="oneway" v="yes"/>
    <tag k="ref" v="M1"/>
  </way>
  <way id="24835373" version="4" timestamp="2010-04-05T08:30:28Z" uid="74617" user="JohnSmith" changeset="4330247">
    <nd ref="49309833"/>
    <nd ref="29901912"/>
    <tag k="highway" v="motorway"/>
    <tag k="name" v="Monash Freeway"/>
    <tag k="oneway" v="yes"/>
  </way>
  <way id="24835374" version="4" timestamp="2010-04-05T09:18:50Z" uid="74617" user="JohnSmith" changeset="4330247">
    <nd ref="269806855"/>
    <nd ref="269806856"/>
    <tag k="bridge" v="yes"/>
    <tag k="highway" v="motorway"/>
    <tag k="layer" v="1"/>
    <tag k="name" v="South Gippsland Freeway"/>
    <tag k="oneway" v="yes"/>
  </way>
  <way id="24835375" version="3" timestamp="2010-04-05T09:18:50Z" uid="74617" user="JohnSmith" changeset="4330247">
    <nd ref="269806856"/>
    <nd ref="29901912"/>
    <tag k="highway" v="motorway"/>
    <tag k="name" v="South Gippsland Freeway"/>
    <tag k="oneway" v="yes"/>
  </way>
  <way id="24835378" version="26" timestamp="2010-04-26T08:39:35Z" uid="4467" user="Rosscoe" changeset="4529525">
    <nd ref="618553677"/>
    <nd ref="618553687"/>
    <nd ref="618553682"/>
    <nd ref="618553690"/>
    <nd ref="618553691"/>
    <tag k="bicycle" v="yes"/>
    <tag k="cycleway" v="track"/>
    <tag k="foot" v="yes"/>
    <tag k="highway" v="cycleway"/>
    <tag k="name" v="Dandenong Creek Trail"/>
    <tag k="surface" v="paved"/>
  </way>
  <way id="24835383" version="3" timestamp="2010-05-25T14:31:57Z" uid="4467" user="Rosscoe" changeset="4804183">
    <nd ref="269806951"/>
    <nd ref="269806990"/>
    <nd ref="747860073"/>
    <nd ref="747860072"/>
    <nd ref="269806989"/>
    <nd ref="269806988"/>
    <nd ref="269806987"/>
    <nd ref="269806986"/>
    <nd ref="269806994"/>
    <nd ref="269806993"/>
    <nd ref="269806992"/>
    <tag k="name" v="Dandenong Creek"/>
    <tag k="waterway" v="stream"/>
  </way>
  <way id="24835395" version="6" timestamp="2009-08-10T00:36:59Z" uid="4467" user="Rosscoe" changeset="2092145">
    <nd ref="269807058"/>
    <nd ref="269807059"/>
    <nd ref="269807060"/>
    <nd ref="269807061"/>
    <nd ref="269807062"/>
    <nd ref="269807041"/>
    <nd ref="269807063"/>
    <nd ref="269807064"/>
    <nd ref="269807065"/>
    <nd ref="269807066"/>
    <nd ref="269807067"/>
    <nd ref="269807068"/>
    <nd ref="269807069"/>
    <nd ref="269807070"/>
    <nd ref="269807071"/>
    <nd ref="269807072"/>
    <nd ref="269807073"/>
    <nd ref="269807074"/>
    <nd ref="269807075"/>
    <nd ref="269807076"/>
    <nd ref="269807077"/>
    <nd ref="269807078"/>
    <nd ref="269807079"/>
    <nd ref="269807080"/>
    <nd ref="269807082"/>
    <nd ref="269807083"/>
    <nd ref="269807084"/>
    <nd ref="269807085"/>
    <nd ref="269807086"/>
    <nd ref="269807087"/>
    <nd ref="269807088"/>
    <nd ref="396720053"/>
    <nd ref="269807089"/>
    <nd ref="269807058"/>
    <tag k="sport" v="canoe; rowing"/>
    <tag k="waterway" v="riverbank"/>
  </way>
  <way id="24835589" version="4" timestamp="2011-06-11T18:04:26Z" uid="9581" user="Lobelt" changeset="8408213">
    <nd ref="269814451"/>
    <nd ref="460352824"/>
    <nd ref="460352823"/>
    <nd ref="460352822"/>
    <nd ref="460352821"/>
    <nd ref="460352820"/>
    <nd ref="460352819"/>
    <nd ref="460352818"/>
    <nd ref="460352817"/>
    <nd ref="460352816"/>
    <nd ref="460352815"/>
    <nd ref="460352814"/>
    <nd ref="460352813"/>
    <nd ref="460352812"/>
    <nd ref="460352811"/>
    <nd ref="269814448"/>
    <nd ref="269814445"/>
    <nd ref="269814442"/>
    <nd ref="269814439"/>
    <nd ref="269814436"/>
    <nd ref="269814433"/>
    <nd ref="269814430"/>
    <tag k="name" v="京广线"/>
    <tag k="name:en" v="Jingguang Line"/>
    <tag k="name:zh" v="京广线"/>
    <tag k="railway" v="rail"/>
  </way>
  <way id="24835589" version="5" timestamp="2011-06-13T20:02:23Z" uid="9581" user="Lobelt" changeset="8430900">
    <nd ref="269814451"/>
    <nd ref="460352824"/>
    <nd ref="460352823"/>
    <nd ref="460352822"/>
    <nd ref="460352821"/>
    <nd ref="460352820"/>
    <nd ref="460352819"/>
    <nd ref="460352818"/>
    <nd ref="460352817"/>
    <nd ref="460352816"/>
    <nd ref="460352815"/>
    <nd ref="460352814"/>
    <nd ref="460352813"/>
    <nd ref="460352812"/>
    <nd ref="460352811"/>
    <nd ref="269814448"/>
    <nd ref="269814445"/>
    <nd ref="269814442"/>
    <nd ref="269814439"/>
    <nd ref="269814436"/>
    <nd ref="1324225596"/>
    <nd ref="1324223903"/>
    <tag k="name" v="京广线"/>
    <tag k="name:en" v="Jingguang Line"/>
    <tag k="name:zh" v="京广线"/>
    <tag k="railway" v="rail"/>
  </way>
</osm>
