<?xml version='1.0' encoding='UTF-8'?>
<osm version="0.6" generator="libosmium/2.20.0">
  <way id="24905004" version="2" timestamp="2010-04-06T14:35:30Z" uid="20587" user="balrog-kun" changeset="4342997">
    <nd ref="123424753"/>
    <nd ref="123424755"/>
    <nd ref="123424256"/>
    <tag k="created_by" v="Potlatch 0.9c"/>
    <tag k="highway" v="residential"/>
    <tag k="name" v="Riverview Avenue"/>
    <tag k="tiger:cfcc" v="A41"/>
    <tag k="tiger:county" v="Wyandotte, KS"/>
    <tag k="tiger:name_base" v="Riverview"/>
    <tag k="tiger:name_type" v="Ave"/>
    <tag k="tiger:reviewed" v="no"/>
    <tag k="tiger:separated" v="no"/>
    <tag k="tiger:source" v="tiger_import_dch_v0.6_20070812"/>
    <tag k="tiger:tlid" v="91153823:91136689:91136693:91136696:91136698"/>
  </way>
  <way id="24905005" version="4" timestamp="2010-04-06T14:35:30Z" uid="20587" user="balrog-kun" changeset="4342997">
    <nd ref="123424749"/>
    <nd ref="123424751"/>
    <nd ref="123424753"/>
    <tag k="created_by" v="xybot"/>
    <tag k="highway" v="residential"/>
    <tag k="layer" v="1"/>
    <tag k="name" v="Riverview Avenue"/>
    <tag k="tiger:cfcc" v="A41"/>
    <tag k="tiger:county" v="Wyandotte, KS"/>
    <tag k="tiger:name_base" v="Riverview"/>
    <tag k="tiger:name_type" v="Ave"/>
    <tag k="tiger:reviewed" v="no"/>
    <tag k="tiger:separated" v="no"/>
    <tag k="tiger:source" v="tiger_import_dch_v0.6_20070812"/>
    <tag k="tiger:tlid" v="91153823:91136689:91136693:91136696:91136698"/>
  </way>
  <way id="24905006" version="6" timestamp="2009-09-30T15:25:10Z" uid="36809" user="pfoten_weg_!_" changeset="2689341">
    <nd ref="270594603"/>
    <nd ref="270594604"/>
    <nd ref="270594605"/>
    <nd ref="270594606"/>
    <nd ref="270594607"/>
    <nd ref="270594608"/>
    <nd ref="270594609"/>
    <nd ref="270594610"/>
    <tag k="highway" v="residential"/>
    <tag k="name" v="Schulanger"/>
  </way>
  <way id="24905019" version="2" timestamp="2010-04-06T14:35:30Z" uid="20587" user="balrog-kun" changeset="4342997">
    <nd ref="270594681"/>
    <nd ref="123400411"/>
    <nd ref="123331054"/>
    <nd ref="123400414"/>
    <nd ref="123400415"/>
    <nd ref="123400417"/>
    <nd ref="123400420"/>
    <nd ref="123400421"/>
    <nd ref="123400422"/>
    <nd ref="123400424"/>
    <nd ref="123400327"/>
    <tag k="created_by" v="Potlatch 0.9c"/>
    <tag k="highway" v="residential"/>
    <tag k="name" v="North 118th Street"/>
    <tag k="name_1" v="North 118 Street"/>
    <tag k="tiger:cfcc" v="A41"/>
    <tag k="tiger:county" v="Wyandotte, KS"/>
    <tag k="tiger:name_base" v="118th"/>
    <tag k="tiger:name_base_1" v="118"/>
    <tag k="tiger:name_direction_prefix" v="N"/>
    <tag k="tiger:name_direction_prefix_1" v="N"/>
    <tag k="tiger:name_type" v="St"/>
    <tag k="tiger:name_type_1" v="St"/>
    <tag k="tiger:reviewed" v="no"/>
    <tag k="tiger:separated" v="no"/>
    <tag k="tiger:source" v="tiger_import_dch_v0.6_20070812"/>
    <tag k="tiger:tlid" v="91150762:91159398:91159399:91131891:91150760:91150757:91150758"/>
    <tag k="tiger:zip_left" v="66012"/>
    <tag k="tiger:zip_right" v="66012"/>
  </way>
  <way id="24905020" version="3" timestamp="2010-04-06T14:35:31Z" uid="20587" user="balrog-kun" changeset="4342997">
    <nd ref="270594682"/>
    <nd ref="270594681"/>
    <tag k="created_by" v="Potlatch 0.9c"/>
    <tag k="highway" v="residential"/>
    <tag k="layer" v="-1"/>
    <tag k="name" v="North 118th Street"/>
    <tag k="name_1" v="North 118 Street"/>
    <tag k="tiger:cfcc" v="A41"/>
    <tag k="tiger:county" v="Wyandotte, KS"/>
    <tag k="tiger:name_base" v="118th"/>
    <tag k="tiger:name_base_1" v="118"/>
    <tag k="tiger:name_direction_prefix" v="N"/>
    <tag k="tiger:name_direction_prefix_1" v="N"/>
    <tag k="tiger:name_type" v="St"/>
    <tag k="tiger:name_type_1" v="St"/>
    <tag k="tiger:reviewed" v="no"/>
    <tag k="tiger:separated" v="no"/>
    <tag k="tiger:source" v="tiger_import_dch_v0.6_20070812"/>
    <tag k="tiger:tlid" v="91150762:91159398:91159399:91131891:91150760:91150757:91150758"/>
    <tag k="tiger:zip_left" v="66012"/>
    <tag k="tiger:zip_right" v="66012"/>
  </way>
  <way id="24905085" version="1" timestamp="2008-06-15T21:50:57Z" uid="34428" user="usm78-gis" changeset="183944">
    <nd ref="270595605"/>
    <nd ref="270595606"/>
    <nd ref="270595607"/>
    <tag k="created_by" v="Potlatch 0.9c"/>
    <tag k="highway" v="residential"/>
  </way>
  <way id="24905085" version="2" timestamp="2009-05-03T10:53:38Z" uid="34428" user="usm78-gis" changeset="1059244">
    <nd ref="270595559"/>
    <nd ref="270595606"/>
    <nd ref="270595607"/>
    <tag k="created_by" v="Potlatch 0.9c"/>
    <tag k="highway" v="residential"/>
  </way>
  <way id="24905100" version="3" timestamp="2009-09-30T15:24:44Z" uid="36809" user="pfoten_weg_!_" changeset="2689341">
    <nd ref="270595835"/>
    <nd ref="270595836"/>
    <nd ref="270595837"/>
    <tag k="highway" v="residential"/>
    <tag k="name" v="Hofmark"/>
  </way>
  <way id="24905101" version="1" timestamp="2008-06-15T21:53:00Z" uid="34428" user="usm78-gis" changeset="183944">
    <nd ref="270595560"/>
    <nd ref="270595838"/>
    <tag k="created_by" v="Potlatch 0.9c"/>
    <tag k="highway" v="residential"/>
  </way>
  <way id="24905124" version="1" timestamp="2008-06-15T21:53:48Z" uid="34428" user="usm78-gis" changeset="183944">
    <nd ref="270596087"/>
    <nd ref="270596109"/>
    <tag k="created_by" v="Potlatch 0.9c"/>
    <tag k="highway" v="residential"/>
  </way>
  <way id="24905152" version="1" timestamp="2008-06-15T21:55:48Z" uid="34428" user="usm78-gis" changeset="183944">
    <nd ref="270596169"/>
    <nd ref="270596170"/>
    <nd ref="270596171"/>
    <nd ref="270596172"/>
    <nd ref="270596173"/>
    <nd ref="270596174"/>
    <nd ref="270596175"/>
    <nd ref="270596176"/>
    <nd ref="270596177"/>
    <nd ref="270596178"/>
    <nd ref="270596179"/>
    <nd ref="270596180"/>
    <nd ref="270596181"/>
    <nd ref="270596182"/>
    <nd ref="270596183"/>
    <nd ref="270596184"/>
    <nd ref="270596185"/>
    <nd ref="270596186"/>
    <nd ref="270596187"/>
    <tag k="created_by" v="Potlatch 0.9c"/>
    <tag k="foot" v="yes"/>
    <tag k="highway" v="footway"/>
  </way>
  <way id="24905152" version="3" timestamp="2009-02-23T13:20:45Z" uid="34428" user="usm78-gis" changeset="634299"/>
  <way id="24905166" version="1" timestamp="2008-06-15T21:56:58Z" uid="34428" user="usm78-gis" changeset="183944">
    <nd ref="16820301"/>
    <nd ref="270596322"/>
    <nd ref="270596323"/>
    <nd ref="270596324"/>
    <nd ref="270596325"/>
    <nd ref="270596326"/>
    <tag k="created_by" v="Potlatch 0.9c"/>
    <tag k="highway" v="residential"/>
  </way>
  <way id="24905168" version="1" timestamp="2008-06-15T21:57:06Z" uid="34428" user="usm78-gis" changeset="183944">
    <nd ref="270596327"/>
    <nd ref="270596357"/>
    <nd ref="270596358"/>
    <tag k="created_by" v="Potlatch 0.9c"/>
    <tag k="highway" v="residential"/>
  </way>
  <way id="24905186" version="1" timestamp="2008-06-15T21:58:35Z" uid="34428" user="usm78-gis" changeset="183944">
    <nd ref="131700020"/>
    <nd ref="270596621"/>
    <nd ref="10982200"/>
    <tag k="created_by" v="Potlatch 0.9c"/>
    <tag k="highway" v="unclassified"/>
  </way>
  <way id="24905226" version="1" timestamp="2008-06-15T22:00:55Z" uid="34428" user="usm78-gis" changeset="183944">
    <nd ref="237732"/>
    <nd ref="270597223"/>
    <nd ref="270597224"/>
    <nd ref="270597225"/>
    <tag k="created_by" v="Potlatch 0.9c"/>
    <tag k="highway" v="service"/>
  </way>
  <way id="24905227" version="2" timestamp="2010-04-06T14:35:31Z" uid="20587" user="balrog-kun" changeset="4342997">
    <nd ref="119971551"/>
    <nd ref="119921428"/>
    <nd ref="119971554"/>
    <nd ref="119971556"/>
    <nd ref="119971559"/>
    <nd ref="119971561"/>
    <nd ref="119971565"/>
    <nd ref="119971569"/>
    <nd ref="119971572"/>
    <nd ref="119971575"/>
    <nd ref="119971579"/>
    <nd ref="119971582"/>
    <nd ref="119971587"/>
    <tag k="created_by" v="Potlatch 0.9c"/>
    <tag k="highway" v="residential"/>
    <tag k="name" v="East 1200 Road"/>
    <tag k="tiger:cfcc" v="A41"/>
    <tag k="tiger:county" v="Douglas, KS"/>
    <tag k="tiger:name_base" v="1200"/>
    <tag k="tiger:name_direction_prefix" v="E"/>
    <tag k="tiger:name_type" v="Rd"/>
    <tag k="tiger:reviewed" v="no"/>
    <tag k="tiger:separated" v="no"/>
    <tag k="tiger:source" v="tiger_import_dch_v0.6_20070812"/>
    <tag k="tiger:tlid" v="17692459:17686931"/>
    <tag k="tiger:zip_left" v="66049"/>
    <tag k="tiger:zip_right" v="66044"/>
  </way>
  <way id="24905228" version="5" timestamp="2010-04-06T14:35:32Z" uid="20587" user="balrog-kun" changeset="4342997">
    <nd ref="119971544"/>
    <nd ref="119971551"/>
    <tag k="created_by" v="xybot"/>
    <tag k="highway" v="residential"/>
    <tag k="layer" v="1"/>
    <tag k="name" v="East 1200 Road"/>
    <tag k="tiger:cfcc" v="A41"/>
    <tag k="tiger:county" v="Douglas, KS"/>
    <tag k="tiger:name_base" v="1200"/>
    <tag k="tiger:name_direction_prefix" v="E"/>
    <tag k="tiger:name_type" v="Rd"/>
    <tag k="tiger:reviewed" v="no"/>
    <tag k="tiger:separated" v="no"/>
    <tag k="tiger:source" v="tiger_import_dch_v0.6_20070812"/>
    <tag k="tiger:tlid" v="17692459:17686931"/>
    <tag k="tiger:zip_left" v="66049"/>
    <tag k="tiger:zip_right" v="66044"/>
  </way>
  <way id="24905229" version="3" timestamp="2009-03-09T19:26:27Z" uid="12188" user="Babis" changeset="770984">
    <nd ref="270597227"/>
    <nd ref="270597243"/>
    <nd ref="270597244"/>
    <nd ref="270597306"/>
    <nd ref="270597245"/>
    <nd ref="270597246"/>
    <nd ref="270597247"/>
    <tag k="created_by" v="Potlatch 0.10f"/>
    <tag k="highway" v="residential"/>
    <tag k="name" v="Menelaou"/>
  </way>
  <way id="24905229" version="4" timestamp="2009-03-09T19:29:03Z" uid="12188" user="Babis" changeset="770984">
    <nd ref="270597227"/>
    <nd ref="270597243"/>
    <nd ref="270597244"/>
    <nd ref="270597306"/>
    <nd ref="270597245"/>
    <nd ref="270597246"/>
    <nd ref="358103771"/>
    <nd ref="270597247"/>
    <tag k="created_by" v="Potlatch 0.10f"/>
    <tag k="highway" v="residential"/>
    <tag k="name" v="Menelaou"/>
  </way>
  <way id="24905229" version="5" timestamp="2009-03-22T16:51:44Z" uid="12188" user="Babis" changeset="843412">
    <nd ref="364752560"/>
    <nd ref="270597244"/>
    <nd ref="270597306"/>
    <nd ref="270597245"/>
    <nd ref="270597246"/>
    <nd ref="358103771"/>
    <nd ref="270597247"/>
    <tag k="created_by" v="Potlatch 0.10f"/>
    <tag k="highway" v="residential"/>
    <tag k="name" v="Menelaou"/>
  </way>
  <way id="24905229" version="6" timestamp="2009-03-22T16:52:53Z" uid="12188" user="Babis" changeset="843412">
    <nd ref="364752560"/>
    <nd ref="270597244"/>
    <nd ref="270597306"/>
    <nd ref="270597245"/>
    <nd ref="270597246"/>
    <nd ref="358103771"/>
    <nd ref="270597247"/>
    <tag k="created_by" v="Potlatch 0.10f"/>
    <tag k="highway" v="residential"/>
    <tag k="name" v="Μενελάου"/>
    <tag k="name:en" v="Memelaou"/>
  </way>
  <way id="24905229" version="7" timestamp="2009-03-22T16:58:13Z" uid="12188" user="Babis" changeset="843412">
    <nd ref="364752560"/>
    <nd ref="364754400"/>
    <nd ref="270597244"/>
    <nd ref="270597306"/>
    <nd ref="270597245"/>
    <nd ref="270597246"/>
    <nd ref="358103771"/>
    <nd ref="270597247"/>
    <tag k="created_by" v="Potlatch 0.10f"/>
    <tag k="highway" v="residential"/>
    <tag k="name" v="Μενελάου"/>
    <tag k="name:en" v="Memelaou"/>
  </way>
  <way id="24905229" version="8" timestamp="2009-03-29T09:05:08Z" uid="12188" user="Babis" changeset="867754">
    <nd ref="364752560"/>
    <nd ref="364754400"/>
    <nd ref="270597244"/>
    <nd ref="270597306"/>
    <nd ref="270597245"/>
    <nd ref="270597246"/>
    <nd ref="358103771"/>
    <nd ref="270597247"/>
    <tag k="created_by" v="Potlatch 0.10f"/>
    <tag k="highway" v="residential"/>
    <tag k="name" v="Μενελάου"/>
    <tag k="name:en" v="Memelaou"/>
    <tag k="source" v="GPS"/>
  </way>
  <way id="24905230" version="4" timestamp="2010-04-02T17:16:14Z" uid="20587" user="balrog-kun" changeset="4304500">
    <nd ref="270597229"/>
    <nd ref="53234578"/>
    <nd ref="270603150"/>
    <nd ref="53126664"/>
    <tag k="created_by" v="JOSM"/>
    <tag k="highway" v="residential"/>
    <tag k="name" v="14th Avenue Southwest"/>
    <tag k="tiger:cfcc" v="A41"/>
    <tag k="tiger:county" v="King, WA"/>
    <tag k="tiger:name_base" v="14th"/>
    <tag k="tiger:name_direction_suffix" v="SW"/>
    <tag k="tiger:separated" v="no"/>
    <tag k="tiger:source" v="tiger_import_dch_v0.6_20070830"/>
    <tag k="tiger:tlid" v="186648254:186648256:186702605"/>
    <tag k="tiger:zip_left" v="98023"/>
    <tag k="tiger:zip_right" v="98023"/>
  </way>
  <way id="24905231" version="3" timestamp="2010-04-02T17:16:14Z" uid="20587" user="balrog-kun" changeset="4304500">
    <nd ref="53234580"/>
    <nd ref="53234579"/>
    <tag k="created_by" v="JOSM"/>
    <tag k="highway" v="residential"/>
    <tag k="name" v="14th Avenue Southwest"/>
    <tag k="tiger:cfcc" v="A41"/>
    <tag k="tiger:county" v="King, WA"/>
    <tag k="tiger:name_base" v="14th"/>
    <tag k="tiger:name_direction_suffix" v="SW"/>
    <tag k="tiger:separated" v="no"/>
    <tag k="tiger:source" v="tiger_import_dch_v0.6_20070830"/>
    <tag k="tiger:tlid" v="186702605:186648254:186648256"/>
    <tag k="tiger:zip_left" v="98023"/>
    <tag k="tiger:zip_right" v="98023"/>
  </way>
  <way id="24905233" version="2" timestamp="2009-03-09T19:25:57Z" uid="12188" user="Babis" changeset="770984">
    <nd ref="270597255"/>
    <nd ref="270597272"/>
    <nd ref="270597273"/>
    <nd ref="270597274"/>
    <nd ref="270597275"/>
    <nd ref="270597246"/>
    <nd ref="270597276"/>
    <nd ref="270597277"/>
    <nd ref="270597278"/>
    <nd ref="270597279"/>
    <nd ref="270467243"/>
    <tag k="created_by" v="Potlatch 0.10f"/>
    <tag k="highway" v="residential"/>
    <tag k="name" v="Samou"/>
  </way>
  <way id="24905233" version="3" timestamp="2009-03-22T17:14:56Z" uid="12188" user="Babis" changeset="843412">
    <nd ref="270597255"/>
    <nd ref="270597272"/>
    <nd ref="270597273"/>
    <nd ref="270597274"/>
    <nd ref="270597275"/>
    <nd ref="270597246"/>
    <nd ref="270597276"/>
    <nd ref="270597277"/>
    <nd ref="270597278"/>
    <nd ref="270597279"/>
    <nd ref="270467243"/>
    <tag k="created_by" v="Potlatch 0.10f"/>
    <tag k="highway" v="residential"/>
    <tag k="name" v="Σάμου"/>
    <tag k="name:en" v="Samou"/>
  </way>
  <way id="24905234" version="5" timestamp="2009-03-22T17:05:43Z" uid="12188" user="Babis" changeset="843412">
    <nd ref="270597280"/>
    <nd ref="270597365"/>
    <nd ref="270597283"/>
    <nd ref="270597244"/>
    <nd ref="270597284"/>
    <nd ref="270597285"/>
    <nd ref="364756895"/>
    <nd ref="270467237"/>
    <nd ref="270597288"/>
    <nd ref="270599065"/>
    <nd ref="270597289"/>
    <tag k="created_by" v="Potlatch 0.10f"/>
    <tag k="highway" v="residential"/>
  </way>
  <way id="24905234" version="6" timestamp="2009-03-22T17:06:03Z" uid="12188" user="Babis" changeset="843412">
    <nd ref="270597280"/>
    <nd ref="270597365"/>
    <nd ref="270597283"/>
    <nd ref="270597244"/>
    <nd ref="270597284"/>
    <nd ref="364757148"/>
    <nd ref="270597285"/>
    <nd ref="364756895"/>
    <nd ref="270467237"/>
    <nd ref="270597288"/>
    <nd ref="270599065"/>
    <nd ref="270597289"/>
    <tag k="created_by" v="Potlatch 0.10f"/>
    <tag k="highway" v="residential"/>
  </way>
  <way id="24905234" version="7" timestamp="2009-03-22T17:13:34Z" uid="12188" user="Babis" changeset="843412">
    <nd ref="270597280"/>
    <nd ref="270597365"/>
    <nd ref="270597283"/>
    <nd ref="270597244"/>
    <nd ref="270597284"/>
    <nd ref="364757148"/>
    <nd ref="270597285"/>
    <nd ref="364756895"/>
    <nd ref="270467237"/>
    <nd ref="270597288"/>
    <nd ref="270599065"/>
    <nd ref="270597289"/>
    <tag k="created_by" v="Potlatch 0.10f"/>
    <tag k="highway" v="residential"/>
    <tag k="name" v="Ψηλορείτη"/>
    <tag k="name:en" v="Psiloriti"/>
  </way>
  <way id="24905234" version="8" timestamp="2009-04-03T16:17:33Z" uid="12188" user="Babis" changeset="132690">
    <nd ref="270597280"/>
    <nd ref="270597365"/>
    <nd ref="270597283"/>
    <nd ref="270597244"/>
    <nd ref="270597284"/>
    <nd ref="364757148"/>
    <nd ref="270597285"/>
    <nd ref="364756895"/>
    <nd ref="270467237"/>
    <nd ref="270597288"/>
    <nd ref="270599065"/>
    <nd ref="270597289"/>
    <tag k="created_by" v="Potlatch 0.10f"/>
    <tag k="highway" v="residential"/>
    <tag k="name" v="Ψηλορείτη"/>
    <tag k="name:en" v="Psiloriti"/>
  </way>
  <way id="24905234" version="9" timestamp="2009-04-03T16:17:39Z" uid="12188" user="Babis" changeset="132690">
    <nd ref="270597280"/>
    <nd ref="270597365"/>
    <nd ref="270597283"/>
    <nd ref="270597244"/>
    <nd ref="270597284"/>
    <nd ref="364757148"/>
    <nd ref="270597285"/>
    <nd ref="364756895"/>
    <nd ref="270467237"/>
    <nd ref="270597288"/>
    <nd ref="270599065"/>
    <nd ref="270597289"/>
    <tag k="created_by" v="Potlatch 0.10f"/>
    <tag k="highway" v="residential"/>
    <tag k="name" v="Ψηλορείτη"/>
    <tag k="name:en" v="Psiloriti"/>
  </way>
  <way id="24905236" version="1" timestamp="2008-06-15T22:01:54Z" uid="34428" user="usm78-gis" changeset="183944">
    <nd ref="270597286"/>
    <nd ref="270597298"/>
    <nd ref="270597299"/>
    <nd ref="270597300"/>
    <tag k="created_by" v="Potlatch 0.9c"/>
    <tag k="highway" v="unclassified"/>
  </way>
  <way id="24905237" version="3" timestamp="2009-03-09T19:34:46Z" uid="12188" user="Babis" changeset="770984">
    <nd ref="270597297"/>
    <nd ref="270597304"/>
    <nd ref="270597335"/>
    <nd ref="270597305"/>
    <nd ref="270597306"/>
    <nd ref="270597307"/>
    <nd ref="270597308"/>
    <nd ref="270597309"/>
    <nd ref="270597310"/>
    <nd ref="270467238"/>
    <tag k="created_by" v="Potlatch 0.10f"/>
    <tag k="highway" v="residential"/>
    <tag k="name" v="Dilou"/>
  </way>
  <way id="24905237" version="4" timestamp="2009-03-22T17:14:00Z" uid="12188" user="Babis" changeset="843412">
    <nd ref="270597297"/>
    <nd ref="270597304"/>
    <nd ref="270597335"/>
    <nd ref="270597305"/>
    <nd ref="270597306"/>
    <nd ref="270597307"/>
    <nd ref="270597308"/>
    <nd ref="270597309"/>
    <nd ref="270597310"/>
    <nd ref="270467238"/>
    <tag k="created_by" v="Potlatch 0.10f"/>
    <tag k="highway" v="residential"/>
    <tag k="name" v="Δήλου"/>
    <tag k="name:en" v="Dilou"/>
  </way>
  <way id="24905237" version="5" timestamp="2009-03-22T17:25:27Z" uid="12188" user="Babis" changeset="843412">
    <nd ref="270597297"/>
    <nd ref="270597304"/>
    <nd ref="270597335"/>
    <nd ref="270597305"/>
    <nd ref="270597306"/>
    <nd ref="270597307"/>
    <nd ref="270597308"/>
    <nd ref="270597309"/>
    <nd ref="270597310"/>
    <nd ref="270467238"/>
    <nd ref="270599067"/>
    <nd ref="270599075"/>
    <tag k="created_by" v="Potlatch 0.10f"/>
    <tag k="highway" v="residential"/>
    <tag k="name" v="Δήλου"/>
    <tag k="name:en" v="Dilou"/>
  </way>
  <way id="24905238" version="2" timestamp="2009-03-21T11:22:02Z" uid="12188" user="Babis" changeset="838946">
    <nd ref="364337328"/>
    <nd ref="364337315"/>
    <nd ref="364337314"/>
    <tag k="created_by" v="Potlatch 0.10f"/>
    <tag k="highway" v="residential"/>
    <tag k="name" v="Αργοναυτών"/>
    <tag k="source" v="GPS"/>
  </way>
  <way id="24905238" version="3" timestamp="2009-09-26T16:22:24Z" uid="12188" user="Babis" changeset="2643128">
    <nd ref="508788323"/>
    <nd ref="364337315"/>
    <nd ref="364337314"/>
    <tag k="highway" v="residential"/>
    <tag k="name" v="Αργοναυτών"/>
    <tag k="source" v="GPS"/>
  </way>
  <way id="24905240" version="2" timestamp="2009-03-09T19:24:35Z" uid="12188" user="Babis" changeset="770984">
    <nd ref="270597327"/>
    <nd ref="270597328"/>
    <nd ref="270597329"/>
    <nd ref="270597313"/>
    <nd ref="270597330"/>
    <nd ref="270597283"/>
    <nd ref="270597305"/>
    <nd ref="270597331"/>
    <nd ref="270597332"/>
    <nd ref="270597333"/>
    <nd ref="270597275"/>
    <nd ref="358101432"/>
    <nd ref="358101433"/>
    <nd ref="358101435"/>
    <nd ref="358101436"/>
    <nd ref="358101438"/>
    <tag k="created_by" v="Potlatch 0.10f"/>
    <tag k="highway" v="residential"/>
  </way>
  <way id="24905240" version="3" timestamp="2009-03-09T19:25:34Z" uid="12188" user="Babis" changeset="770984">
    <nd ref="270597327"/>
    <nd ref="270597328"/>
    <nd ref="270597329"/>
    <nd ref="270597313"/>
    <nd ref="270597330"/>
    <nd ref="270597283"/>
    <nd ref="270597305"/>
    <nd ref="270597331"/>
    <nd ref="270597332"/>
    <nd ref="270597333"/>
    <nd ref="270597275"/>
    <nd ref="358102020"/>
    <nd ref="358101432"/>
    <nd ref="358101433"/>
    <nd ref="358101435"/>
    <nd ref="358101436"/>
    <nd ref="358101438"/>
    <tag k="created_by" v="Potlatch 0.10f"/>
    <tag k="highway" v="residential"/>
  </way>
  <way id="24905240" version="4" timestamp="2009-03-09T19:29:02Z" uid="12188" user="Babis" changeset="770984">
    <nd ref="270597327"/>
    <nd ref="270597328"/>
    <nd ref="270597329"/>
    <nd ref="270597313"/>
    <nd ref="270597330"/>
    <nd ref="270597283"/>
    <nd ref="270597305"/>
    <nd ref="270597331"/>
    <nd ref="270597332"/>
    <nd ref="270597333"/>
    <nd ref="270597275"/>
    <nd ref="358103773"/>
    <nd ref="358102020"/>
    <nd ref="358101432"/>
    <nd ref="358101433"/>
    <nd ref="358101435"/>
    <nd ref="358101436"/>
    <nd ref="358101438"/>
    <tag k="created_by" v="Potlatch 0.10f"/>
    <tag k="highway" v="residential"/>
  </way>
  <way id="24905240" version="5" timestamp="2009-03-22T16:57:21Z" uid="12188" user="Babis" changeset="843412">
    <nd ref="270597327"/>
    <nd ref="270597328"/>
    <nd ref="270597329"/>
    <nd ref="270597313"/>
    <nd ref="270597330"/>
    <nd ref="270597283"/>
    <nd ref="270597305"/>
    <nd ref="270597331"/>
    <nd ref="270597332"/>
    <nd ref="270597333"/>
    <nd ref="270597275"/>
    <nd ref="358103773"/>
    <nd ref="358102020"/>
    <nd ref="358101432"/>
    <nd ref="358101433"/>
    <nd ref="358101435"/>
    <nd ref="358101436"/>
    <nd ref="358101438"/>
    <tag k="created_by" v="Potlatch 0.10f"/>
    <tag k="highway" v="residential"/>
    <tag k="name" v="Χανίων"/>
    <tag k="name:en" v="Hanion"/>
  </way>
  <way id="24905240" version="6" timestamp="2009-03-22T17:00:04Z" uid="12188" user="Babis" changeset="843412">
    <nd ref="270597327"/>
    <nd ref="364754963"/>
    <nd ref="270597328"/>
    <nd ref="270597329"/>
    <nd ref="270597313"/>
    <nd ref="270597330"/>
    <nd ref="270597283"/>
    <nd ref="270597305"/>
    <nd ref="270597331"/>
    <nd ref="270597332"/>
    <nd ref="270597333"/>
    <nd ref="270597275"/>
    <nd ref="358103773"/>
    <nd ref="358102020"/>
    <nd ref="358101432"/>
    <nd ref="358101433"/>
    <nd ref="358101435"/>
    <nd ref="358101436"/>
    <nd ref="358101438"/>
    <tag k="created_by" v="Potlatch 0.10f"/>
    <tag k="highway" v="residential"/>
    <tag k="name" v="Χανίων"/>
    <tag k="name:en" v="Hanion"/>
  </way>
  <way id="24905240" version="7" timestamp="2009-03-22T17:09:52Z" uid="12188" user="Babis" changeset="843412">
    <nd ref="270597327"/>
    <nd ref="364758661"/>
    <nd ref="364754963"/>
    <nd ref="270597328"/>
    <nd ref="270597329"/>
    <nd ref="270597313"/>
    <nd ref="270597330"/>
    <nd ref="270597283"/>
    <nd ref="270597305"/>
    <nd ref="270597331"/>
    <nd ref="270597332"/>
    <nd ref="270597333"/>
    <nd ref="270597275"/>
    <nd ref="358103773"/>
    <nd ref="358102020"/>
    <nd ref="358101432"/>
    <nd ref="358101433"/>
    <nd ref="358101435"/>
    <nd ref="358101436"/>
    <nd ref="358101438"/>
    <tag k="created_by" v="Potlatch 0.10f"/>
    <tag k="highway" v="residential"/>
    <tag k="name" v="Χανίων"/>
    <tag k="name:en" v="Hanion"/>
  </way>
  <way id="24905240" version="8" timestamp="2009-03-22T17:10:18Z" uid="12188" user="Babis" changeset="843412">
    <nd ref="270597327"/>
    <nd ref="364758852"/>
    <nd ref="364758661"/>
    <nd ref="364754963"/>
    <nd ref="270597328"/>
    <nd ref="270597329"/>
    <nd ref="270597313"/>
    <nd ref="270597330"/>
    <nd ref="270597283"/>
    <nd ref="270597305"/>
    <nd ref="270597331"/>
    <nd ref="270597332"/>
    <nd ref="270597333"/>
    <nd ref="270597275"/>
    <nd ref="358103773"/>
    <nd ref="358102020"/>
    <nd ref="358101432"/>
    <nd ref="358101433"/>
    <nd ref="358101435"/>
    <nd ref="358101436"/>
    <nd ref="358101438"/>
    <tag k="created_by" v="Potlatch 0.10f"/>
    <tag k="highway" v="residential"/>
    <tag k="name" v="Χανίων"/>
    <tag k="name:en" v="Hanion"/>
  </way>
  <way id="24905240" version="9" timestamp="2009-03-29T08:58:21Z" uid="12188" user="Babis" changeset="867754">
    <nd ref="270597327"/>
    <nd ref="364758852"/>
    <nd ref="364758661"/>
    <nd ref="364754963"/>
    <nd ref="270597328"/>
    <nd ref="270597329"/>
    <nd ref="270597313"/>
    <nd ref="270597330"/>
    <nd ref="270597283"/>
    <nd ref="270597305"/>
    <nd ref="270597331"/>
    <nd ref="270597332"/>
    <nd ref="270597333"/>
    <nd ref="270597275"/>
    <nd ref="358103773"/>
    <nd ref="358102020"/>
    <nd ref="366797116"/>
    <nd ref="358101432"/>
    <nd ref="358101433"/>
    <nd ref="358101435"/>
    <nd ref="358101436"/>
    <nd ref="358101438"/>
    <tag k="created_by" v="Potlatch 0.10f"/>
    <tag k="highway" v="residential"/>
    <tag k="name" v="Χανίων"/>
    <tag k="name:en" v="Hanion"/>
  </way>
  <way id="24905244" version="2" timestamp="2009-03-22T17:17:24Z" uid="12188" user="Babis" changeset="843412">
    <nd ref="270597335"/>
    <nd ref="270597365"/>
    <nd ref="270597311"/>
    <tag k="created_by" v="Potlatch 0.10f"/>
    <tag k="highway" v="residential"/>
    <tag k="name" v="Βασ. Τσουκαλά"/>
    <tag k="name:en" v="Vas. Tsoukala"/>
    <tag k="source" v="GPS"/>
  </way>
  <way id="24905286" version="3" timestamp="2009-04-16T10:26:44Z" uid="12188" user="Babis" changeset="578233">
    <nd ref="270467906"/>
    <nd ref="270597498"/>
    <nd ref="270597500"/>
    <nd ref="270597502"/>
    <nd ref="270597504"/>
    <nd ref="270597506"/>
    <nd ref="270597676"/>
    <nd ref="270597508"/>
    <nd ref="270467905"/>
    <tag k="created_by" v="Potlatch 0.10f"/>
    <tag k="highway" v="residential"/>
    <tag k="name" v="Κίμωνος"/>
    <tag k="name:en" v="Kimonos"/>
  </way>
  <way id="24905289" version="2" timestamp="2009-04-16T10:37:05Z" uid="12188" user="Babis" changeset="578233">
    <nd ref="270597498"/>
    <nd ref="270597527"/>
    <nd ref="270597528"/>
    <nd ref="270597529"/>
    <nd ref="270597530"/>
    <nd ref="270597531"/>
    <nd ref="270597532"/>
    <nd ref="270597533"/>
    <nd ref="270467016"/>
    <nd ref="270597534"/>
    <nd ref="270597535"/>
    <tag k="created_by" v="Potlatch 0.10f"/>
    <tag k="highway" v="residential"/>
    <tag k="name" v="Αγαμέμνωνος"/>
    <tag k="name:en" v="Agamemnonos"/>
  </way>
  <way id="24905291" version="1" timestamp="2008-06-15T22:04:27Z" uid="34428" user="usm78-gis" changeset="183944">
    <nd ref="324905"/>
    <nd ref="10591932"/>
    <tag k="created_by" v="Potlatch 0.9c"/>
    <tag k="highway" v="secondary"/>
  </way>
  <way id="24905293" version="1" timestamp="2008-06-15T22:04:36Z" uid="34428" user="usm78-gis" changeset="183944">
    <nd ref="270597301"/>
    <nd ref="270597607"/>
    <nd ref="270597608"/>
    <tag k="created_by" v="Potlatch 0.9c"/>
    <tag k="highway" v="unclassified"/>
  </way>
  <way id="24905296" version="2" timestamp="2009-04-16T10:36:26Z" uid="12188" user="Babis" changeset="578233">
    <nd ref="270597642"/>
    <nd ref="270597654"/>
    <nd ref="270597655"/>
    <nd ref="270597656"/>
    <nd ref="270597657"/>
    <nd ref="270597658"/>
    <tag k="created_by" v="Potlatch 0.10f"/>
    <tag k="highway" v="residential"/>
    <tag k="name" v="Επίκουρου"/>
    <tag k="name:en" v="Epikourou"/>
  </way>
  <way id="24905298" version="2" timestamp="2009-04-16T10:27:30Z" uid="12188" user="Babis" changeset="578233">
    <nd ref="270597661"/>
    <nd ref="270597673"/>
    <tag k="created_by" v="Potlatch 0.10f"/>
    <tag k="highway" v="residential"/>
    <tag k="name" v="Πάρου"/>
    <tag k="name:en" v="Parou"/>
  </way>
  <way id="24905299" version="3" timestamp="2009-04-12T17:42:21Z" uid="12188" user="Babis" changeset="447991">
    <nd ref="373386141"/>
    <nd ref="270467029"/>
    <nd ref="270597676"/>
    <tag k="created_by" v="Potlatch 0.10f"/>
    <tag k="highway" v="residential"/>
  </way>
  <way id="24905299" version="4" timestamp="2010-01-08T09:07:39Z" uid="12188" user="Babis" changeset="3568364">
    <nd ref="373386141"/>
    <nd ref="270467029"/>
    <nd ref="270597676"/>
    <tag k="highway" v="residential"/>
    <tag k="name" v="Αχχιλέως"/>
    <tag k="name:en" v="Ahhileos"/>
  </way>
  <way id="24905306" version="2" timestamp="2009-04-16T10:39:36Z" uid="12188" user="Babis" changeset="578233">
    <nd ref="270467908"/>
    <nd ref="270597818"/>
    <nd ref="270597819"/>
    <nd ref="270597821"/>
    <nd ref="270597822"/>
    <nd ref="36451547"/>
    <tag k="created_by" v="Potlatch 0.10f"/>
    <tag k="highway" v="residential"/>
    <tag k="name" v="Σιμωνίδου"/>
    <tag k="name:en" v="Simonidou"/>
  </way>
  <way id="24905316" version="4" timestamp="2009-04-16T10:40:22Z" uid="12188" user="Babis" changeset="578233">
    <nd ref="270597853"/>
    <nd ref="270597895"/>
    <nd ref="270597877"/>
    <nd ref="270597928"/>
    <nd ref="270597929"/>
    <nd ref="270597930"/>
    <nd ref="270597931"/>
    <nd ref="270597932"/>
    <nd ref="270597933"/>
    <nd ref="270597934"/>
    <nd ref="270597935"/>
    <tag k="created_by" v="Potlatch 0.10f"/>
    <tag k="highway" v="residential"/>
    <tag k="name" v="Τυρταίου"/>
    <tag k="name:en" v="Tirteou"/>
  </way>
  <way id="24905316" version="5" timestamp="2009-04-16T10:40:50Z" uid="12188" user="Babis" changeset="578233">
    <nd ref="270597853"/>
    <nd ref="270597895"/>
    <nd ref="270597877"/>
    <nd ref="270597928"/>
    <nd ref="270597929"/>
    <nd ref="270597930"/>
    <nd ref="270597931"/>
    <nd ref="270597932"/>
    <tag k="created_by" v="Potlatch 0.10f"/>
    <tag k="highway" v="residential"/>
    <tag k="name" v="Τυρταίου"/>
    <tag k="name:en" v="Tirteou"/>
  </way>
  <way id="24905319" version="3" timestamp="2010-01-08T09:03:11Z" uid="12188" user="Babis" changeset="3568364"/>
  <way id="24905327" version="2" timestamp="2010-01-08T08:59:36Z" uid="12188" user="Babis" changeset="3568364">
    <nd ref="270597934"/>
    <nd ref="270597936"/>
    <tag k="highway" v="residential"/>
    <tag k="name" v="Αγησιλάου"/>
    <tag k="name:en" v="Agisilaou"/>
  </way>
  <way id="24905335" version="1" timestamp="2008-06-15T22:07:48Z" uid="34428" user="usm78-gis" changeset="183944">
    <nd ref="270598125"/>
    <nd ref="270598159"/>
    <nd ref="270598160"/>
    <nd ref="270598161"/>
    <nd ref="270598162"/>
    <nd ref="270598163"/>
    <nd ref="270598164"/>
    <nd ref="270598165"/>
    <nd ref="270598166"/>
    <nd ref="270598167"/>
    <tag k="created_by" v="Potlatch 0.9c"/>
    <tag k="railway" v="rail"/>
  </way>
  <way id="24905336" version="21" timestamp="2010-03-27T23:41:53Z" uid="20587" user="balrog-kun" changeset="4250871">
    <nd ref="123136970"/>
    <nd ref="268289329"/>
    <nd ref="268289356"/>
    <nd ref="268289360"/>
    <nd ref="268289365"/>
    <nd ref="268284093"/>
    <nd ref="268526948"/>
    <nd ref="268526920"/>
    <nd ref="268284094"/>
    <nd ref="268374042"/>
    <nd ref="268374050"/>
    <nd ref="123504717"/>
    <nd ref="266468095"/>
    <nd ref="123504718"/>
    <nd ref="354983259"/>
    <nd ref="354983260"/>
    <nd ref="266468096"/>
    <nd ref="268374033"/>
    <nd ref="268374028"/>
    <nd ref="268374029"/>
    <nd ref="268374030"/>
    <nd ref="268374035"/>
    <nd ref="268374036"/>
    <nd ref="268374037"/>
    <nd ref="268374038"/>
    <nd ref="123337795"/>
    <nd ref="455602426"/>
    <nd ref="270598183"/>
    <tag k="highway" v="secondary"/>
    <tag k="name" v="Walnut Grove Avenue"/>
    <tag k="source" v="survey;image;usgs_imagery"/>
    <tag k="source_ref" v="AM909_DSCQ1049"/>
    <tag k="tiger:county" v="Los Angeles, CA"/>
    <tag k="tiger:zip_right" v="91776"/>
  </way>
  <way id="24905338" version="3" timestamp="2009-03-29T09:24:56Z" uid="12188" user="Babis" changeset="867754">
    <nd ref="270598171"/>
    <nd ref="270598172"/>
    <nd ref="270598203"/>
    <nd ref="270598173"/>
    <nd ref="270598174"/>
    <nd ref="270598175"/>
    <nd ref="270598176"/>
    <nd ref="250806634"/>
    <tag k="created_by" v="Potlatch 0.10f"/>
    <tag k="highway" v="residential"/>
    <tag k="name" v="Σπάρτης"/>
    <tag k="name:en" v="Spartis"/>
  </way>
  <way id="24905340" version="3" timestamp="2009-03-23T08:26:48Z" uid="12188" user="Babis" changeset="847820">
    <nd ref="36163125"/>
    <nd ref="270598193"/>
    <nd ref="270598194"/>
    <nd ref="270598177"/>
    <nd ref="270598195"/>
    <nd ref="270598196"/>
    <tag k="created_by" v="Potlatch 0.10f"/>
    <tag k="highway" v="residential"/>
  </way>
  <way id="24905340" version="4" timestamp="2009-09-12T17:37:54Z" uid="12188" user="Babis" changeset="2460572">
    <nd ref="36163125"/>
    <nd ref="270598193"/>
    <nd ref="270598194"/>
    <nd ref="270598177"/>
    <tag k="highway" v="residential"/>
  </way>
  <way id="24905340" version="5" timestamp="2009-09-12T17:38:58Z" uid="12188" user="Babis" changeset="2460572">
    <nd ref="36163125"/>
    <nd ref="270598193"/>
    <nd ref="270598194"/>
    <nd ref="270598177"/>
    <tag k="highway" v="residential"/>
    <tag k="name" v="Μεσσολογγίου"/>
    <tag k="name:en" v="Messssologiou"/>
  </way>
  <way id="24905340" version="6" timestamp="2009-09-12T17:42:10Z" uid="12188" user="Babis" changeset="2460608">
    <nd ref="270467702"/>
    <nd ref="270467719"/>
    <nd ref="270467720"/>
    <nd ref="270467526"/>
    <nd ref="270467562"/>
    <nd ref="36163065"/>
    <nd ref="36163212"/>
    <nd ref="36163211"/>
    <nd ref="494334819"/>
    <nd ref="36163125"/>
    <nd ref="270598193"/>
    <nd ref="270598194"/>
    <nd ref="270598177"/>
    <tag k="highway" v="residential"/>
    <tag k="name" v="Μεσσολογγίου; Μεσσσολογγίου"/>
    <tag k="name:en" v="Messssologiou; Messologiou"/>
  </way>
  <way id="24905340" version="7" timestamp="2010-01-08T09:03:42Z" uid="12188" user="Babis" changeset="3568364">
    <nd ref="270597895"/>
    <nd ref="609003305"/>
    <nd ref="609003306"/>
    <nd ref="609003307"/>
    <nd ref="270467702"/>
    <nd ref="270467719"/>
    <nd ref="270467720"/>
    <nd ref="270467526"/>
    <nd ref="270467562"/>
    <nd ref="36163065"/>
    <nd ref="36163212"/>
    <nd ref="36163211"/>
    <nd ref="494334819"/>
    <nd ref="36163125"/>
    <nd ref="270598193"/>
    <nd ref="270598194"/>
    <nd ref="270598177"/>
    <tag k="highway" v="residential"/>
    <tag k="name" v="Μεσσολογγίου; Μεσσσολογγίου"/>
    <tag k="name:en" v="Messssologiou; Messologiou"/>
  </way>
  <way id="24905343" version="5" timestamp="2009-03-29T09:28:20Z" uid="12188" user="Babis" changeset="867754">
    <nd ref="270598173"/>
    <nd ref="271813288"/>
    <nd ref="270598194"/>
    <nd ref="270598228"/>
    <nd ref="270598205"/>
    <tag k="created_by" v="Potlatch 0.10f"/>
    <tag k="highway" v="residential"/>
    <tag k="name" v="Φραγκούλη"/>
    <tag k="name:en" v="Fragouli"/>
  </way>
  <way id="24905344" version="3" timestamp="2009-09-12T17:37:45Z" uid="12188" user="Babis" changeset="2460572">
    <nd ref="270598206"/>
    <nd ref="270598229"/>
    <nd ref="270598212"/>
    <nd ref="270598177"/>
    <tag k="highway" v="residential"/>
    <tag k="name" v="Ρόδου"/>
    <tag k="name:en" v="Rodou"/>
  </way>
  <way id="24905345" version="2" timestamp="2010-04-06T14:35:32Z" uid="20587" user="balrog-kun" changeset="4342997">
    <nd ref="270598224"/>
    <nd ref="119997301"/>
    <nd ref="119997304"/>
    <nd ref="119897986"/>
    <nd ref="119997308"/>
    <nd ref="119997310"/>
    <nd ref="119997313"/>
    <nd ref="119997317"/>
    <nd ref="119997319"/>
    <nd ref="119958384"/>
    <nd ref="119997320"/>
    <nd ref="119997322"/>
    <nd ref="119997324"/>
    <nd ref="119997327"/>
    <tag k="created_by" v="Potlatch 0.9c"/>
    <tag k="highway" v="residential"/>
    <tag k="name" v="North Iowa Street"/>
    <tag k="name_1" v="East 1300 Road"/>
    <tag k="tiger:cfcc" v="A41"/>
    <tag k="tiger:county" v="Douglas, KS"/>
    <tag k="tiger:name_base" v="Iowa"/>
    <tag k="tiger:name_base_1" v="1300"/>
    <tag k="tiger:name_direction_prefix" v="N"/>
    <tag k="tiger:name_direction_prefix_1" v="E"/>
    <tag k="tiger:name_type" v="St"/>
    <tag k="tiger:name_type_1" v="Rd"/>
    <tag k="tiger:reviewed" v="no"/>
    <tag k="tiger:separated" v="no"/>
    <tag k="tiger:source" v="tiger_import_dch_v0.6_20070812"/>
    <tag k="tiger:tlid" v="17705126:17705128:17705129"/>
  </way>
  <way id="24905346" version="4" timestamp="2010-04-06T14:35:32Z" uid="20587" user="balrog-kun" changeset="4342997">
    <nd ref="119997299"/>
    <nd ref="270598224"/>
    <tag k="created_by" v="xybot"/>
    <tag k="highway" v="residential"/>
    <tag k="layer" v="1"/>
    <tag k="name" v="North Iowa Street"/>
    <tag k="name_1" v="East 1300 Road"/>
    <tag k="tiger:cfcc" v="A41"/>
    <tag k="tiger:county" v="Douglas, KS"/>
    <tag k="tiger:name_base" v="Iowa"/>
    <tag k="tiger:name_base_1" v="1300"/>
    <tag k="tiger:name_direction_prefix" v="N"/>
    <tag k="tiger:name_direction_prefix_1" v="E"/>
    <tag k="tiger:name_type" v="St"/>
    <tag k="tiger:name_type_1" v="Rd"/>
    <tag k="tiger:reviewed" v="no"/>
    <tag k="tiger:separated" v="no"/>
    <tag k="tiger:source" v="tiger_import_dch_v0.6_20070812"/>
    <tag k="tiger:tlid" v="17705126:17705128:17705129"/>
  </way>
  <way id="24905347" version="2" timestamp="2009-03-29T09:29:23Z" uid="12188" user="Babis" changeset="867754">
    <nd ref="270598227"/>
    <nd ref="270598228"/>
    <nd ref="270598229"/>
    <tag k="created_by" v="Potlatch 0.10f"/>
    <tag k="highway" v="residential"/>
    <tag k="name" v="Αγίου Παντελεήμονος"/>
    <tag k="name:en" v="Agiou Panteleimonos"/>
  </way>
  <way id="24905349" version="8" timestamp="2009-02-23T13:28:27Z" uid="34428" user="usm78-gis" changeset="634299"/>
  <way id="24905353" version="3" timestamp="2009-03-09T19:21:49Z" uid="12188" user="Babis" changeset="770984">
    <nd ref="358100244"/>
    <nd ref="270598287"/>
    <nd ref="270598465"/>
    <nd ref="270598372"/>
    <tag k="created_by" v="Potlatch 0.10f"/>
    <tag k="highway" v="residential"/>
    <tag k="name" v="Papanikolaou"/>
  </way>
  <way id="24905353" version="4" timestamp="2009-03-09T19:22:49Z" uid="12188" user="Babis" changeset="770984">
    <nd ref="358100244"/>
    <nd ref="358100702"/>
    <nd ref="270598287"/>
    <nd ref="270598465"/>
    <nd ref="270598372"/>
    <tag k="created_by" v="Potlatch 0.10f"/>
    <tag k="highway" v="residential"/>
    <tag k="name" v="Papanikolaou"/>
  </way>
  <way id="24905353" version="5" timestamp="2009-04-12T15:22:14Z" uid="12188" user="Babis" changeset="439595">
    <nd ref="358100244"/>
    <nd ref="358100702"/>
    <nd ref="270598287"/>
    <nd ref="270598465"/>
    <nd ref="270598372"/>
    <tag k="created_by" v="Potlatch 0.10f"/>
    <tag k="highway" v="residential"/>
    <tag k="name" v="Παπανικολάου"/>
    <tag k="name:en" v="Papanikolaou"/>
  </way>
  <way id="24905355" version="6" timestamp="2009-03-24T17:07:34Z" uid="12188" user="Babis" changeset="852625">
    <nd ref="270598418"/>
    <nd ref="270598372"/>
    <nd ref="270598675"/>
    <nd ref="270598563"/>
    <nd ref="270598571"/>
    <nd ref="270598420"/>
    <tag k="created_by" v="Potlatch 0.10f"/>
    <tag k="highway" v="residential"/>
    <tag k="name" v="Παπαδήμα"/>
    <tag k="name:en" v="Papadima"/>
  </way>
  <way id="24905376" version="3" timestamp="2009-03-24T17:05:40Z" uid="12188" user="Babis" changeset="852625">
    <nd ref="270598465"/>
    <nd ref="270598526"/>
    <nd ref="270598527"/>
    <nd ref="270598528"/>
    <nd ref="270598529"/>
    <nd ref="270598530"/>
    <nd ref="270598531"/>
    <nd ref="270598560"/>
    <nd ref="270598532"/>
    <tag k="created_by" v="Potlatch 0.10f"/>
    <tag k="highway" v="residential"/>
    <tag k="name" v="Παπαζαχαρίου"/>
    <tag k="name:en" v="Papazaharioiu"/>
  </way>
  <way id="24905398" version="6" timestamp="2009-03-24T17:06:46Z" uid="12188" user="Babis" changeset="852625">
    <nd ref="270598669"/>
    <nd ref="270598702"/>
    <nd ref="270598566"/>
    <nd ref="270598673"/>
    <nd ref="270598674"/>
    <nd ref="270598372"/>
    <nd ref="270598533"/>
    <nd ref="270598534"/>
    <nd ref="270598535"/>
    <nd ref="270598536"/>
    <nd ref="270598537"/>
    <nd ref="270598572"/>
    <nd ref="270598538"/>
    <nd ref="36163023"/>
    <tag k="created_by" v="Potlatch 0.10f"/>
    <tag k="highway" v="residential"/>
    <tag k="name" v="Σοφούλη Θεμιστοκλή"/>
    <tag k="name:en" v="Sofouli Themistokli"/>
  </way>
  <way id="24905405" version="2" timestamp="2009-03-09T19:20:11Z" uid="12188" user="Babis" changeset="770984"/>
  <way id="24905407" version="2" timestamp="2009-03-19T19:37:26Z" uid="12188" user="Babis" changeset="832589">
    <nd ref="356645760"/>
    <nd ref="363836777"/>
    <nd ref="270598559"/>
    <nd ref="270598560"/>
    <tag k="created_by" v="Potlatch 0.10f"/>
    <tag k="highway" v="residential"/>
  </way>
  <way id="24905407" version="3" timestamp="2009-03-19T19:40:36Z" uid="12188" user="Babis" changeset="832589">
    <nd ref="356645760"/>
    <nd ref="363836777"/>
    <nd ref="270598559"/>
    <nd ref="270598560"/>
    <tag k="created_by" v="Potlatch 0.10f"/>
    <tag k="highway" v="residential"/>
    <tag k="name" v="Ηλιοπούλου Ουρανίας"/>
    <tag k="source" v="Yahoo"/>
  </way>
  <way id="24905410" version="4" timestamp="2009-03-07T11:57:15Z" uid="12188" user="Babis" changeset="749423">
    <nd ref="356650472"/>
    <nd ref="270598561"/>
    <nd ref="270598531"/>
    <nd ref="270598537"/>
    <nd ref="270598563"/>
    <nd ref="270598585"/>
    <nd ref="270598564"/>
    <tag k="created_by" v="Potlatch 0.10f"/>
    <tag k="highway" v="residential"/>
  </way>
  <way id="24905410" version="5" timestamp="2009-03-19T19:35:26Z" uid="12188" user="Babis" changeset="832589">
    <nd ref="356650472"/>
    <nd ref="363835956"/>
    <nd ref="270598561"/>
    <nd ref="270598531"/>
    <nd ref="270598537"/>
    <nd ref="270598563"/>
    <nd ref="270598585"/>
    <nd ref="270598564"/>
    <tag k="created_by" v="Potlatch 0.10f"/>
    <tag k="highway" v="residential"/>
  </way>
  <way id="24905410" version="6" timestamp="2010-01-08T09:05:00Z" uid="12188" user="Babis" changeset="3568364">
    <nd ref="356650472"/>
    <nd ref="363835956"/>
    <nd ref="270598561"/>
    <nd ref="270598531"/>
    <nd ref="270598537"/>
    <nd ref="270598563"/>
    <nd ref="270598585"/>
    <nd ref="270598564"/>
    <tag k="highway" v="residential"/>
    <tag k="name" v="Παρνασσού"/>
    <tag k="name:en" v="Parnassou"/>
  </way>
  <way id="24905412" version="6" timestamp="2009-03-24T17:09:37Z" uid="12188" user="Babis" changeset="852625">
    <nd ref="270598294"/>
    <nd ref="270598565"/>
    <nd ref="270598566"/>
    <nd ref="270598677"/>
    <nd ref="270598564"/>
    <nd ref="270598568"/>
    <nd ref="270467911"/>
    <tag k="created_by" v="Potlatch 0.10f"/>
    <tag k="highway" v="residential"/>
    <tag k="name" v="Κονδύλη Γεωργίου"/>
    <tag k="name:en" v="Kndili Georgiou"/>
  </way>
  <way id="24905414" version="2" timestamp="2009-04-16T10:44:33Z" uid="12188" user="Babis" changeset="578233">
    <nd ref="270598568"/>
    <nd ref="270598570"/>
    <nd ref="270598571"/>
    <nd ref="270598572"/>
    <tag k="created_by" v="Potlatch 0.10f"/>
    <tag k="highway" v="residential"/>
    <tag k="name" v="Παπασκρέκα"/>
    <tag k="name:en" v="Papaskreka"/>
  </way>
  <way id="24905416" version="23" timestamp="2010-03-27T23:41:54Z" uid="20587" user="balrog-kun" changeset="4250871">
    <nd ref="339047305"/>
    <nd ref="339047290"/>
    <tag k="bridge" v="yes"/>
    <tag k="highway" v="primary"/>
    <tag k="lanes" v="2"/>
    <tag k="maxspeed" v="45"/>
    <tag k="name" v="Las Tunas Drive"/>
  </way>
  <way id="24905419" version="4" timestamp="2009-04-03T16:12:34Z" uid="12188" user="Babis" changeset="132690">
    <nd ref="270598570"/>
    <nd ref="270598585"/>
    <nd ref="270598676"/>
    <nd ref="270598673"/>
    <nd ref="270598586"/>
    <tag k="created_by" v="Potlatch 0.10f"/>
    <tag k="highway" v="residential"/>
    <tag k="name" v="Πία Αθανασίου"/>
    <tag k="name:en" v="Pia Athanasiou"/>
  </way>
  <way id="24905422" version="3" timestamp="2009-04-03T16:15:07Z" uid="12188" user="Babis" changeset="132690">
    <nd ref="270598288"/>
    <nd ref="270598418"/>
    <nd ref="270598586"/>
    <nd ref="270598565"/>
    <nd ref="270598650"/>
    <nd ref="270598651"/>
    <nd ref="270598652"/>
    <nd ref="270598653"/>
    <nd ref="270598655"/>
    <nd ref="270598654"/>
    <tag k="created_by" v="Potlatch 0.10f"/>
    <tag k="highway" v="residential"/>
    <tag k="name" v="Ασημακοπούλου"/>
    <tag k="name:en" v="Asimakopoulou"/>
  </way>
  <way id="24905423" version="1" timestamp="2008-06-15T22:11:50Z" uid="34428" user="usm78-gis" changeset="183944">
    <nd ref="270598656"/>
    <nd ref="21729965"/>
    <nd ref="327898"/>
    <nd ref="306413"/>
    <tag k="created_by" v="Potlatch 0.9c"/>
    <tag k="highway" v="residential"/>
    <tag k="name" v="Мичуринская ул."/>
  </way>
  <way id="24905423" version="2" timestamp="2009-02-23T13:10:42Z" uid="34428" user="usm78-gis" changeset="634299"/>
  <way id="24905426" version="1" timestamp="2008-06-15T22:11:53Z" uid="34428" user="usm78-gis" changeset="183944">
    <nd ref="270598657"/>
    <nd ref="270598656"/>
    <tag k="created_by" v="Potlatch 0.9c"/>
    <tag k="highway" v="residential"/>
    <tag k="name" v="Мичуринская ул."/>
  </way>
  <way id="24905427" version="6" timestamp="2009-03-24T17:11:15Z" uid="12188" user="Babis" changeset="852625">
    <nd ref="270598652"/>
    <nd ref="270598668"/>
    <nd ref="270598753"/>
    <nd ref="270598669"/>
    <nd ref="270598756"/>
    <nd ref="270598758"/>
    <nd ref="270598670"/>
    <nd ref="270467909"/>
    <tag k="created_by" v="Potlatch 0.10f"/>
    <tag k="highway" v="residential"/>
    <tag k="name" v="Μάρκου Μπότσαρη"/>
    <tag k="name:en" v="Markou Mpotsari"/>
  </way>
  <way id="24905427" version="7" timestamp="2009-03-25T06:18:34Z" uid="12188" user="Babis" changeset="855585">
    <nd ref="270598652"/>
    <nd ref="270598668"/>
    <nd ref="365494949"/>
    <nd ref="270598753"/>
    <nd ref="270598669"/>
    <nd ref="270598756"/>
    <nd ref="270598758"/>
    <nd ref="270598670"/>
    <nd ref="270467909"/>
    <tag k="created_by" v="Potlatch 0.10f"/>
    <tag k="highway" v="residential"/>
    <tag k="name" v="Μάρκου Μπότσαρη"/>
    <tag k="name:en" v="Markou Mpotsari"/>
  </way>
  <way id="24905429" version="1" timestamp="2008-06-15T22:11:58Z" uid="34428" user="usm78-gis" changeset="183944">
    <nd ref="21729967"/>
    <nd ref="270598657"/>
    <tag k="created_by" v="Potlatch 0.9c"/>
    <tag k="highway" v="residential"/>
    <tag k="name" v="Мичуринская ул."/>
  </way>
  <way id="24905431" version="3" timestamp="2010-01-08T09:05:39Z" uid="12188" user="Babis" changeset="3568364">
    <nd ref="270598675"/>
    <nd ref="270598676"/>
    <nd ref="270598677"/>
    <nd ref="270598703"/>
    <nd ref="270598670"/>
    <tag k="highway" v="residential"/>
    <tag k="name" v="Μεσοχώρας"/>
    <tag k="name:en" v="Mesohoras"/>
  </way>
  <way id="24905432" version="1" timestamp="2008-06-15T22:12:32Z" uid="34428" user="usm78-gis" changeset="183944">
    <nd ref="21730056"/>
    <nd ref="270598678"/>
    <tag k="created_by" v="Potlatch 0.9c"/>
    <tag k="highway" v="secondary"/>
  </way>
  <way id="24905437" version="2" timestamp="2009-03-24T17:10:32Z" uid="12188" user="Babis" changeset="852625">
    <nd ref="270598295"/>
    <nd ref="270598651"/>
    <nd ref="270598702"/>
    <nd ref="270598703"/>
    <nd ref="270467910"/>
    <tag k="created_by" v="Potlatch 0.10f"/>
    <tag k="highway" v="residential"/>
    <tag k="name" v="Παπαναστασίου Αλεξάνδρου"/>
    <tag k="name:en" v="Papanastsiou Alexandrou"/>
  </way>
  <way id="24905439" version="7" timestamp="2009-03-22T17:24:18Z" uid="12188" user="Babis" changeset="843412">
    <nd ref="270467907"/>
    <nd ref="270598759"/>
    <nd ref="270598757"/>
    <nd ref="270598754"/>
    <nd ref="270598751"/>
    <nd ref="270598720"/>
    <nd ref="270598721"/>
    <nd ref="270598722"/>
    <nd ref="270598979"/>
    <nd ref="270598723"/>
    <tag k="created_by" v="Potlatch 0.10f"/>
    <tag k="highway" v="residential"/>
    <tag k="name" v="Ασπροποτάμου"/>
    <tag k="name:en" v="Aspropotamou"/>
  </way>
  <way id="24905439" version="8" timestamp="2009-03-25T06:18:39Z" uid="12188" user="Babis" changeset="855585">
    <nd ref="270467907"/>
    <nd ref="270598759"/>
    <nd ref="270598757"/>
    <nd ref="270598754"/>
    <nd ref="365494948"/>
    <nd ref="270598751"/>
    <nd ref="270598720"/>
    <nd ref="270598721"/>
    <nd ref="270598722"/>
    <nd ref="270598979"/>
    <nd ref="270598723"/>
    <tag k="created_by" v="Potlatch 0.10f"/>
    <tag k="highway" v="residential"/>
    <tag k="name" v="Ασπροποτάμου"/>
    <tag k="name:en" v="Aspropotamou"/>
  </way>
  <way id="24905443" version="4" timestamp="2010-01-08T09:06:37Z" uid="12188" user="Babis" changeset="3568364">
    <nd ref="270598668"/>
    <nd ref="270598751"/>
    <nd ref="270598841"/>
    <nd ref="270598887"/>
    <nd ref="270598752"/>
    <tag k="highway" v="residential"/>
    <tag k="name" v="Γυφτάκη"/>
    <tag k="name:en" v="Giftaki"/>
  </way>
  <way id="24905444" version="1" timestamp="2008-06-15T22:13:45Z" uid="34428" user="usm78-gis" changeset="183944">
    <nd ref="223585"/>
    <nd ref="223584"/>
    <nd ref="223583"/>
    <nd ref="223582"/>
    <nd ref="211600475"/>
    <nd ref="223581"/>
    <nd ref="223580"/>
    <nd ref="327855"/>
    <tag k="created_by" v="Potlatch 0.9c"/>
    <tag k="highway" v="residential"/>
    <tag k="name" v="р. Карповки наб."/>
  </way>
  <way id="24905445" version="4" timestamp="2009-03-25T06:15:32Z" uid="12188" user="Babis" changeset="855585">
    <nd ref="270598753"/>
    <nd ref="270598754"/>
    <nd ref="270598755"/>
    <nd ref="270598844"/>
    <nd ref="270598900"/>
    <nd ref="270467904"/>
    <tag k="created_by" v="Potlatch 0.10f"/>
    <tag k="highway" v="residential"/>
    <tag k="name" v="Παππά Ευθυμίου"/>
    <tag k="name:en" v="Pappa Efthimiou"/>
  </way>
  <way id="24905446" version="2" timestamp="2009-03-25T06:16:37Z" uid="12188" user="Babis" changeset="855585">
    <nd ref="270598756"/>
    <nd ref="270598757"/>
    <tag k="created_by" v="Potlatch 0.10f"/>
    <tag k="highway" v="residential"/>
    <tag k="name" v="Βαρναβά"/>
    <tag k="name:en" v="Varnava"/>
  </way>
  <way id="24905447" version="4" timestamp="2009-03-25T06:15:51Z" uid="12188" user="Babis" changeset="855585">
    <nd ref="270598758"/>
    <nd ref="270598763"/>
    <nd ref="270598759"/>
    <nd ref="270598837"/>
    <nd ref="270598839"/>
    <tag k="created_by" v="Potlatch 0.10f"/>
    <tag k="highway" v="residential"/>
    <tag k="name" v="Παλατζά"/>
  </way>
  <way id="24905449" version="1" timestamp="2008-06-15T22:14:02Z" uid="34428" user="usm78-gis" changeset="183944">
    <nd ref="276734"/>
    <nd ref="21730077"/>
    <nd ref="21730076"/>
    <nd ref="21730075"/>
    <nd ref="21730074"/>
    <nd ref="21730073"/>
    <nd ref="21730061"/>
    <nd ref="21730062"/>
    <nd ref="21730063"/>
    <nd ref="21730064"/>
    <nd ref="223579"/>
    <nd ref="21730065"/>
    <nd ref="21730066"/>
    <nd ref="21730067"/>
    <nd ref="21730068"/>
    <nd ref="21746449"/>
    <nd ref="21746450"/>
    <nd ref="21746451"/>
    <nd ref="21746452"/>
    <nd ref="21746453"/>
    <nd ref="21746454"/>
    <nd ref="21746455"/>
    <nd ref="233454"/>
    <tag k="created_by" v="Potlatch 0.9c"/>
    <tag k="highway" v="residential"/>
    <tag k="name" v="р. Карповки наб."/>
  </way>
  <way id="24905449" version="2" timestamp="2008-07-17T16:24:03Z" uid="34428" user="usm78-gis" changeset="515423">
    <nd ref="276734"/>
    <nd ref="21730077"/>
    <nd ref="21730076"/>
    <nd ref="21730075"/>
    <nd ref="21730074"/>
    <nd ref="21730073"/>
    <nd ref="21730061"/>
    <nd ref="21730062"/>
    <nd ref="21730063"/>
    <nd ref="21730064"/>
    <nd ref="223579"/>
    <nd ref="21730065"/>
    <nd ref="21730066"/>
    <nd ref="21730067"/>
    <nd ref="21730068"/>
    <nd ref="21746449"/>
    <nd ref="21746450"/>
    <nd ref="21746451"/>
    <nd ref="21746452"/>
    <nd ref="21746453"/>
    <nd ref="21746454"/>
    <nd ref="21746455"/>
    <nd ref="233454"/>
    <tag k="created_by" v="Potlatch 0.9c"/>
    <tag k="highway" v="residential"/>
    <tag k="name" v="р. Карповки наб."/>
  </way>
  <way id="24905451" version="2" timestamp="2009-03-25T06:19:41Z" uid="12188" user="Babis" changeset="855585">
    <nd ref="270598763"/>
    <nd ref="270598767"/>
    <nd ref="270598768"/>
    <nd ref="270598769"/>
    <tag k="created_by" v="Potlatch 0.10f"/>
    <tag k="highway" v="residential"/>
    <tag k="name" v="Λειβανάτων"/>
    <tag k="name:en" v="Livanaton"/>
  </way>
  <way id="24905457" version="5" timestamp="2009-03-22T17:00:00Z" uid="12188" user="Babis" changeset="843412"/>
  <way id="24905461" version="3" timestamp="2009-03-22T17:23:22Z" uid="12188" user="Babis" changeset="843412">
    <nd ref="270598845"/>
    <nd ref="270598844"/>
    <nd ref="270598877"/>
    <nd ref="270598752"/>
    <nd ref="270598743"/>
    <tag k="created_by" v="Potlatch 0.10f"/>
    <tag k="highway" v="residential"/>
    <tag k="name" v="Πηνείου"/>
    <tag k="name:en" v="Piniou"/>
  </way>
  <way id="24905467" version="2" timestamp="2009-03-22T17:23:27Z" uid="12188" user="Babis" changeset="843412">
    <nd ref="270598887"/>
    <nd ref="270598888"/>
    <nd ref="270598889"/>
    <nd ref="270598890"/>
    <tag k="created_by" v="Potlatch 0.10f"/>
    <tag k="highway" v="residential"/>
    <tag k="name" v="Οίτης"/>
    <tag k="name:en" v="Itis"/>
  </way>
  <way id="24905469" version="5" timestamp="2009-03-22T17:21:18Z" uid="12188" user="Babis" changeset="843412">
    <nd ref="270467234"/>
    <nd ref="270598981"/>
    <nd ref="270598998"/>
    <nd ref="270598899"/>
    <nd ref="270598919"/>
    <nd ref="270598900"/>
    <tag k="created_by" v="Potlatch 0.10f"/>
    <tag k="highway" v="residential"/>
    <tag k="name" v="Λευκών Ορέων"/>
    <tag k="name:en" v="Lefkon Oreon"/>
  </way>
  <way id="24905470" version="2" timestamp="2009-03-22T17:22:16Z" uid="12188" user="Babis" changeset="843412">
    <nd ref="270467902"/>
    <nd ref="270598912"/>
    <nd ref="270598913"/>
    <tag k="created_by" v="Potlatch 0.10f"/>
    <tag k="highway" v="residential"/>
    <tag k="name" v="Σούδας"/>
    <tag k="name:en" v="Soudas"/>
  </way>
  <way id="24905473" version="2" timestamp="2009-03-22T17:30:02Z" uid="12188" user="Babis" changeset="843412">
    <nd ref="270598916"/>
    <nd ref="270598912"/>
    <nd ref="270598919"/>
    <nd ref="270598752"/>
    <nd ref="270598887"/>
    <nd ref="270598841"/>
    <nd ref="270598751"/>
    <nd ref="270598668"/>
    <tag k="created_by" v="Potlatch 0.10f"/>
    <tag k="highway" v="residential"/>
    <tag k="name" v="Γυφτάκη"/>
    <tag k="name:en" v="Giftaki"/>
  </way>
  <way id="24905473" version="3" timestamp="2009-04-12T17:40:26Z" uid="12188" user="Babis" changeset="447991">
    <nd ref="373384252"/>
    <nd ref="270598912"/>
    <nd ref="270598919"/>
    <nd ref="270598752"/>
    <nd ref="270598887"/>
    <nd ref="270598841"/>
    <nd ref="270598751"/>
    <nd ref="270598668"/>
    <tag k="created_by" v="Potlatch 0.10f"/>
    <tag k="highway" v="residential"/>
    <tag k="name" v="Γυφτάκη"/>
    <tag k="name:en" v="Giftaki"/>
  </way>
  <way id="24905496" version="2" timestamp="2009-03-22T17:19:31Z" uid="12188" user="Babis" changeset="843412">
    <nd ref="270598979"/>
    <nd ref="270598980"/>
    <nd ref="270598981"/>
    <nd ref="270598982"/>
    <tag k="created_by" v="Potlatch 0.10f"/>
    <tag k="highway" v="residential"/>
    <tag k="name" v="Κακαβιάς"/>
    <tag k="name:en" v="Kakavias"/>
  </way>
  <way id="24905496" version="3" timestamp="2009-04-12T17:41:14Z" uid="12188" user="Babis" changeset="447991">
    <nd ref="270598979"/>
    <nd ref="270598980"/>
    <nd ref="270598981"/>
    <nd ref="373384221"/>
    <tag k="created_by" v="Potlatch 0.10f"/>
    <tag k="highway" v="residential"/>
    <tag k="name" v="Κακαβιάς"/>
    <tag k="name:en" v="Kakavias"/>
  </way>
  <way id="24905497" version="2" timestamp="2009-03-22T17:20:15Z" uid="12188" user="Babis" changeset="843412">
    <nd ref="270598983"/>
    <nd ref="270598998"/>
    <nd ref="270598842"/>
    <nd ref="270598722"/>
    <tag k="created_by" v="Potlatch 0.10f"/>
    <tag k="highway" v="residential"/>
    <tag k="name" v="Πωγωνίου"/>
    <tag k="name:en" v="Pogoniou"/>
  </way>
  <way id="24905497" version="3" timestamp="2009-04-12T17:41:02Z" uid="12188" user="Babis" changeset="447991">
    <nd ref="373384224"/>
    <nd ref="270598998"/>
    <nd ref="270598842"/>
    <nd ref="270598722"/>
    <tag k="created_by" v="Potlatch 0.10f"/>
    <tag k="highway" v="residential"/>
    <tag k="name" v="Πωγωνίου"/>
    <tag k="name:en" v="Pogoniou"/>
  </way>
  <way id="24905498" version="2" timestamp="2009-04-03T16:17:13Z" uid="12188" user="Babis" changeset="132690">
    <nd ref="270599001"/>
    <nd ref="270599023"/>
    <nd ref="270599024"/>
    <nd ref="270599025"/>
    <tag k="created_by" v="Potlatch 0.10f"/>
    <tag k="highway" v="residential"/>
  </way>
  <way id="24905498" version="3" timestamp="2009-04-03T16:18:29Z" uid="12188" user="Babis" changeset="132690">
    <nd ref="270599001"/>
    <nd ref="270599023"/>
    <nd ref="270599024"/>
    <nd ref="270599025"/>
    <tag k="created_by" v="Potlatch 0.10f"/>
    <tag k="highway" v="residential"/>
    <tag k="name" v="Βαμβακάρη Μάρκου"/>
    <tag k="name:en" v="Vamvakari Markou"/>
  </way>
  <way id="24905499" version="1" timestamp="2008-06-15T22:16:53Z" uid="34428" user="usm78-gis" changeset="183944">
    <nd ref="270599029"/>
    <nd ref="183792095"/>
    <nd ref="183792096"/>
    <nd ref="26086016"/>
    <nd ref="259119"/>
    <nd ref="25716578"/>
    <nd ref="25716577"/>
    <nd ref="25716576"/>
    <nd ref="25716573"/>
    <nd ref="25716574"/>
    <nd ref="25716148"/>
    <nd ref="21730114"/>
    <nd ref="21730111"/>
    <tag k="created_by" v="Potlatch 0.9c"/>
    <tag k="highway" v="residential"/>
    <tag k="name" v="Земледельческая ул."/>
  </way>
  <way id="24905499" version="2" timestamp="2008-06-15T22:16:56Z" uid="34428" user="usm78-gis" changeset="183944">
    <nd ref="270599029"/>
    <nd ref="183792095"/>
    <tag k="created_by" v="Potlatch 0.9c"/>
    <tag k="highway" v="residential"/>
    <tag k="name" v="Земледельческая ул."/>
  </way>
  <way id="24905501" version="1" timestamp="2008-06-15T22:16:56Z" uid="34428" user="usm78-gis" changeset="183944">
    <nd ref="183792095"/>
    <nd ref="183792096"/>
    <nd ref="26086016"/>
    <nd ref="259119"/>
    <nd ref="25716578"/>
    <nd ref="25716577"/>
    <nd ref="25716576"/>
    <nd ref="25716573"/>
    <nd ref="25716574"/>
    <nd ref="25716148"/>
    <nd ref="21730114"/>
    <nd ref="21730111"/>
    <tag k="created_by" v="Potlatch 0.9c"/>
    <tag k="highway" v="residential"/>
    <tag k="name" v="Земледельческая ул."/>
  </way>
  <way id="24905501" version="3" timestamp="2009-02-23T12:45:19Z" uid="34428" user="usm78-gis" changeset="634299"/>
  <way id="24905502" version="2" timestamp="2009-03-22T17:26:36Z" uid="12188" user="Babis" changeset="843412">
    <nd ref="270597288"/>
    <nd ref="270599067"/>
    <tag k="created_by" v="Potlatch 0.10f"/>
    <tag k="highway" v="residential"/>
  </way>
  <way id="24905502" version="3" timestamp="2010-01-08T09:09:07Z" uid="12188" user="Babis" changeset="3568364">
    <nd ref="270597288"/>
    <nd ref="270599067"/>
    <tag k="highway" v="residential"/>
    <tag k="name" v="Ιθάκης"/>
  </way>
  <way id="24905502" version="4" timestamp="2010-01-08T09:09:34Z" uid="12188" user="Babis" changeset="3568364">
    <nd ref="270597288"/>
    <nd ref="270599067"/>
    <tag k="highway" v="residential"/>
    <tag k="name" v="Ιθάκης"/>
    <tag k="name:en" v="Ithakis"/>
  </way>
  <way id="24905503" version="1" timestamp="2008-06-15T22:17:05Z" uid="34428" user="usm78-gis" changeset="183944">
    <nd ref="270599076"/>
    <nd ref="270599029"/>
    <tag k="created_by" v="Potlatch 0.9c"/>
    <tag k="highway" v="residential"/>
    <tag k="name" v="Земледельческая ул."/>
  </way>
  <way id="24905504" version="2" timestamp="2009-03-22T17:26:15Z" uid="12188" user="Babis" changeset="843412"/>
  <way id="24905506" version="1" timestamp="2008-06-15T22:17:23Z" uid="34428" user="usm78-gis" changeset="183944">
    <nd ref="98179952"/>
    <nd ref="98179954"/>
    <nd ref="236712"/>
    <tag k="created_by" v="Potlatch 0.9c"/>
    <tag k="highway" v="residential"/>
  </way>
  <way id="24905506" version="2" timestamp="2008-06-15T22:17:40Z" uid="34428" user="usm78-gis" changeset="183944">
    <nd ref="98179952"/>
    <nd ref="98179954"/>
    <nd ref="270599099"/>
    <tag k="created_by" v="Potlatch 0.9c"/>
    <tag k="highway" v="residential"/>
  </way>
  <way id="24905506" version="3" timestamp="2008-06-15T22:17:43Z" uid="34428" user="usm78-gis" changeset="183944">
    <nd ref="98179952"/>
    <nd ref="98179954"/>
    <tag k="created_by" v="Potlatch 0.9c"/>
    <tag k="highway" v="residential"/>
  </way>
  <way id="24905507" version="3" timestamp="2009-04-12T17:41:07Z" uid="12188" user="Babis" changeset="447991">
    <nd ref="373384280"/>
    <nd ref="270599087"/>
    <nd ref="270599104"/>
    <nd ref="270599088"/>
    <nd ref="270599089"/>
    <nd ref="270599090"/>
    <tag k="created_by" v="Potlatch 0.10f"/>
    <tag k="highway" v="residential"/>
  </way>
  <way id="24905507" version="4" timestamp="2009-04-16T11:28:10Z" uid="12188" user="Babis" changeset="578233">
    <nd ref="373384280"/>
    <nd ref="270599087"/>
    <nd ref="270599104"/>
    <nd ref="270599088"/>
    <nd ref="270599089"/>
    <nd ref="270599090"/>
    <tag k="created_by" v="Potlatch 0.10f"/>
    <tag k="highway" v="residential"/>
    <tag k="name" v="Σερίφου"/>
    <tag k="name:en" v="Serifou"/>
  </way>
  <way id="24905507" version="5" timestamp="2009-06-08T07:16:24Z" uid="12188" user="Babis" changeset="1455871">
    <nd ref="373384280"/>
    <nd ref="270599087"/>
    <nd ref="270599104"/>
    <nd ref="417282393"/>
    <nd ref="270599088"/>
    <nd ref="270599089"/>
    <nd ref="270599090"/>
    <tag k="created_by" v="Potlatch 0.10f"/>
    <tag k="highway" v="residential"/>
    <tag k="name" v="Σερίφου"/>
    <tag k="name:en" v="Serifou"/>
  </way>
  <way id="24905507" version="6" timestamp="2009-06-08T07:16:39Z" uid="12188" user="Babis" changeset="1455871">
    <nd ref="373384280"/>
    <nd ref="270599087"/>
    <nd ref="270599104"/>
    <nd ref="417282393"/>
    <nd ref="417282403"/>
    <nd ref="270599088"/>
    <nd ref="270599089"/>
    <nd ref="270599090"/>
    <tag k="created_by" v="Potlatch 0.10f"/>
    <tag k="highway" v="residential"/>
    <tag k="name" v="Σερίφου"/>
    <tag k="name:en" v="Serifou"/>
  </way>
  <way id="24905507" version="7" timestamp="2009-06-08T07:19:11Z" uid="12188" user="Babis" changeset="1455871">
    <nd ref="373384280"/>
    <nd ref="270599087"/>
    <nd ref="270599104"/>
    <nd ref="417282393"/>
    <nd ref="417282403"/>
    <nd ref="417282696"/>
    <nd ref="270599088"/>
    <nd ref="270599089"/>
    <nd ref="270599090"/>
    <tag k="created_by" v="Potlatch 0.10f"/>
    <tag k="highway" v="residential"/>
    <tag k="name" v="Σερίφου"/>
    <tag k="name:en" v="Serifou"/>
  </way>
  <way id="24905508" version="1" timestamp="2008-06-15T22:17:26Z" uid="34428" user="usm78-gis" changeset="183944">
    <nd ref="270599086"/>
    <nd ref="98179952"/>
    <tag k="created_by" v="Potlatch 0.9c"/>
    <tag k="highway" v="residential"/>
  </way>
  <way id="24905510" version="3" timestamp="2009-04-16T11:29:21Z" uid="12188" user="Babis" changeset="578233">
    <nd ref="270599088"/>
    <nd ref="270599116"/>
    <nd ref="270599096"/>
    <nd ref="270599097"/>
    <tag k="created_by" v="Potlatch 0.10f"/>
    <tag k="highway" v="residential"/>
    <tag k="name" v="Καλαμίδα"/>
    <tag k="name:en" v="Kalamida"/>
  </way>
  <way id="24905510" version="4" timestamp="2009-06-08T07:19:55Z" uid="12188" user="Babis" changeset="1455871">
    <nd ref="417282767"/>
    <nd ref="270599088"/>
    <nd ref="270599116"/>
    <nd ref="270599096"/>
    <nd ref="270599097"/>
    <tag k="created_by" v="Potlatch 0.10f"/>
    <tag k="highway" v="residential"/>
    <tag k="name" v="Καλαμίδα"/>
    <tag k="name:en" v="Kalamida"/>
  </way>
  <way id="24905511" version="1" timestamp="2008-06-15T22:17:40Z" uid="34428" user="usm78-gis" changeset="183944">
    <nd ref="270599099"/>
    <nd ref="236712"/>
    <tag k="created_by" v="Potlatch 0.9c"/>
    <tag k="highway" v="residential"/>
  </way>
  <way id="24905512" version="2" timestamp="2009-04-12T17:41:23Z" uid="12188" user="Babis" changeset="447991">
    <nd ref="270599100"/>
    <nd ref="270599101"/>
    <nd ref="270599096"/>
    <nd ref="270599102"/>
    <nd ref="373384287"/>
    <tag k="created_by" v="Potlatch 0.10f"/>
    <tag k="highway" v="residential"/>
  </way>
  <way id="24905512" version="3" timestamp="2009-04-16T11:27:14Z" uid="12188" user="Babis" changeset="578233">
    <nd ref="270599100"/>
    <nd ref="270599101"/>
    <nd ref="270599096"/>
    <nd ref="270599102"/>
    <nd ref="373384287"/>
    <tag k="created_by" v="Potlatch 0.10f"/>
    <tag k="highway" v="residential"/>
    <tag k="name" v="Κιλκίς"/>
    <tag k="name:en" v="Kilkis"/>
  </way>
  <way id="24905513" version="1" timestamp="2008-06-15T22:17:43Z" uid="34428" user="usm78-gis" changeset="183944">
    <nd ref="98179954"/>
    <nd ref="270599099"/>
    <tag k="created_by" v="Potlatch 0.9c"/>
    <tag k="highway" v="residential"/>
  </way>
  <way id="24905515" version="5" timestamp="2009-04-16T11:28:38Z" uid="12188" user="Babis" changeset="578233">
    <nd ref="270599104"/>
    <nd ref="270599115"/>
    <nd ref="270599102"/>
    <nd ref="270599154"/>
    <nd ref="270599164"/>
    <nd ref="270467034"/>
    <tag k="created_by" v="Potlatch 0.10f"/>
    <tag k="highway" v="residential"/>
    <tag k="name" v="Μιαούλη"/>
    <tag k="name:en" v="Miaouliu"/>
  </way>
  <way id="24905516" version="2" timestamp="2009-04-12T17:40:56Z" uid="12188" user="Babis" changeset="447991">
    <nd ref="373384283"/>
    <nd ref="270599115"/>
    <nd ref="270599116"/>
    <tag k="created_by" v="Potlatch 0.10f"/>
    <tag k="highway" v="residential"/>
  </way>
  <way id="24905516" version="3" timestamp="2009-04-16T11:27:36Z" uid="12188" user="Babis" changeset="578233">
    <nd ref="373384283"/>
    <nd ref="270599115"/>
    <nd ref="270599116"/>
    <tag k="created_by" v="Potlatch 0.10f"/>
    <tag k="highway" v="residential"/>
    <tag k="name" v="Κάλβου Ανδρέα"/>
  </way>
  <way id="24905517" version="1" timestamp="2008-06-15T22:18:01Z" uid="34428" user="usm78-gis" changeset="183944">
    <nd ref="270599121"/>
    <nd ref="25718189"/>
    <nd ref="236715"/>
    <tag k="created_by" v="Potlatch 0.9c"/>
    <tag k="highway" v="secondary"/>
  </way>
  <way id="24905520" version="4" timestamp="2009-04-12T15:47:24Z" uid="12188" user="Babis" changeset="439595">
    <nd ref="270599087"/>
    <nd ref="270599146"/>
    <nd ref="270599147"/>
    <nd ref="270599148"/>
    <nd ref="270599149"/>
    <nd ref="270599150"/>
    <nd ref="278345736"/>
    <nd ref="278345770"/>
    <nd ref="278345841"/>
    <nd ref="36231616"/>
    <tag k="created_by" v="Potlatch 0.10f"/>
    <tag k="highway" v="residential"/>
    <tag k="name" v="Μανδηλαρά Νικηφόρου"/>
    <tag k="name:en" v="Mandilara Nikiforou"/>
  </way>
  <way id="24905520" version="5" timestamp="2009-04-12T18:16:03Z" uid="12188" user="Babis" changeset="447991"/>
  <way id="24905523" version="2" timestamp="2009-04-12T17:40:34Z" uid="12188" user="Babis" changeset="447991">
    <nd ref="373384293"/>
    <nd ref="270599154"/>
    <nd ref="270599097"/>
    <nd ref="270599155"/>
    <tag k="created_by" v="Potlatch 0.10f"/>
    <tag k="highway" v="residential"/>
  </way>
  <way id="24905523" version="3" timestamp="2009-04-16T11:26:37Z" uid="12188" user="Babis" changeset="578233">
    <nd ref="373384293"/>
    <nd ref="270599154"/>
    <nd ref="270599097"/>
    <nd ref="270599155"/>
    <tag k="created_by" v="Potlatch 0.10f"/>
    <tag k="highway" v="residential"/>
    <tag k="name" v="Σκοπέλου"/>
    <tag k="name:en" v="Skopoelou"/>
  </way>
  <way id="24905525" version="3" timestamp="2009-04-12T17:40:28Z" uid="12188" user="Babis" changeset="447991">
    <nd ref="373384299"/>
    <nd ref="270599633"/>
    <nd ref="270599164"/>
    <nd ref="270599165"/>
    <tag k="created_by" v="Potlatch 0.10f"/>
    <tag k="highway" v="residential"/>
  </way>
  <way id="24905525" version="4" timestamp="2009-04-16T11:26:05Z" uid="12188" user="Babis" changeset="578233">
    <nd ref="373384299"/>
    <nd ref="270599633"/>
    <nd ref="270599164"/>
    <nd ref="270599165"/>
    <tag k="created_by" v="Potlatch 0.10f"/>
    <tag k="highway" v="residential"/>
    <tag k="name" v="Κυπρίων Αγωνιστών"/>
    <tag k="name:en" v="Kiprion Agoniston"/>
  </way>
  <way id="24905525" version="5" timestamp="2009-06-08T07:33:33Z" uid="12188" user="Babis" changeset="1455993">
    <nd ref="373384299"/>
    <nd ref="270599633"/>
    <nd ref="270599164"/>
    <nd ref="417284356"/>
    <nd ref="270599165"/>
    <tag k="created_by" v="Potlatch 0.10f"/>
    <tag k="highway" v="residential"/>
    <tag k="name" v="Κυπρίων Αγωνιστών"/>
    <tag k="name:en" v="Kiprion Agoniston"/>
  </way>
  <way id="24905528" version="3" timestamp="2009-04-12T17:39:46Z" uid="12188" user="Babis" changeset="447991">
    <nd ref="373384313"/>
    <nd ref="270599193"/>
    <nd ref="270599194"/>
    <nd ref="270599195"/>
    <nd ref="270599196"/>
    <nd ref="270599288"/>
    <nd ref="270599197"/>
    <tag k="created_by" v="Potlatch 0.10f"/>
    <tag k="highway" v="residential"/>
  </way>
  <way id="24905528" version="4" timestamp="2009-06-08T07:25:46Z" uid="12188" user="Babis" changeset="1455929">
    <nd ref="373384313"/>
    <nd ref="270599193"/>
    <nd ref="270599194"/>
    <nd ref="270599195"/>
    <tag k="created_by" v="Potlatch 0.10f"/>
    <tag k="highway" v="residential"/>
  </way>
  <way id="24905528" version="5" timestamp="2009-06-08T07:26:19Z" uid="12188" user="Babis" changeset="1455929">
    <nd ref="373384313"/>
    <nd ref="270599193"/>
    <nd ref="270599194"/>
    <nd ref="270599195"/>
    <tag k="created_by" v="Potlatch 0.10f"/>
    <tag k="highway" v="residential"/>
    <tag k="name" v="Αμφιτρύτης"/>
    <tag k="name:en" v="Amfitritis"/>
  </way>
  <way id="24905531" version="1" timestamp="2008-06-15T22:19:24Z" uid="34428" user="usm78-gis" changeset="183944">
    <nd ref="270599254"/>
    <nd ref="270599255"/>
    <nd ref="270599256"/>
    <nd ref="270599258"/>
    <nd ref="270599254"/>
    <tag k="building" v="yes"/>
    <tag k="created_by" v="Potlatch 0.9c"/>
  </way>
  <way id="24905534" version="2" timestamp="2009-04-12T17:40:16Z" uid="12188" user="Babis" changeset="447991">
    <nd ref="270599269"/>
    <nd ref="270599283"/>
    <nd ref="270599284"/>
    <nd ref="270599285"/>
    <nd ref="270599286"/>
    <nd ref="270599288"/>
    <nd ref="373385252"/>
    <tag k="created_by" v="Potlatch 0.10f"/>
    <tag k="highway" v="residential"/>
  </way>
  <way id="24905534" version="3" timestamp="2009-06-08T07:25:32Z" uid="12188" user="Babis" changeset="1455929">
    <nd ref="270599269"/>
    <nd ref="270599283"/>
    <nd ref="270599284"/>
    <nd ref="270599285"/>
    <nd ref="270599286"/>
    <nd ref="270599288"/>
    <nd ref="373385252"/>
    <tag k="created_by" v="Potlatch 0.10f"/>
    <tag k="highway" v="residential"/>
    <tag k="nam,e:en" v="Panos"/>
    <tag k="name" v="Πανώς"/>
  </way>
  <way id="24905537" version="1" timestamp="2008-06-15T22:19:59Z" uid="34428" user="usm78-gis" changeset="183944">
    <nd ref="270599378"/>
    <nd ref="270599379"/>
    <nd ref="270599380"/>
    <nd ref="270599382"/>
    <nd ref="270599378"/>
    <tag k="building" v="yes"/>
    <tag k="created_by" v="Potlatch 0.9c"/>
  </way>
  <way id="24905539" version="3" timestamp="2009-04-12T17:40:11Z" uid="12188" user="Babis" changeset="447991">
    <nd ref="373385327"/>
    <nd ref="270599196"/>
    <nd ref="270599424"/>
    <nd ref="270599426"/>
    <nd ref="270599427"/>
    <nd ref="270599428"/>
    <nd ref="270599429"/>
    <nd ref="270599430"/>
    <tag k="created_by" v="Potlatch 0.10f"/>
    <tag k="highway" v="residential"/>
  </way>
  <way id="24905539" version="4" timestamp="2009-06-08T07:22:35Z" uid="12188" user="Babis" changeset="1455929">
    <nd ref="373385327"/>
    <nd ref="270599196"/>
    <nd ref="270599424"/>
    <tag k="created_by" v="Potlatch 0.10f"/>
    <tag k="highway" v="residential"/>
  </way>
  <way id="24905539" version="5" timestamp="2009-06-08T07:23:29Z" uid="12188" user="Babis" changeset="1455929"/>
  <way id="24905540" version="2" timestamp="2009-06-08T07:23:30Z" uid="12188" user="Babis" changeset="1455929">
    <nd ref="373385327"/>
    <nd ref="270599196"/>
    <nd ref="270599424"/>
    <nd ref="270599495"/>
    <nd ref="270599496"/>
    <nd ref="270599497"/>
    <tag k="created_by" v="Potlatch 0.9c; Potlatch 0.10f"/>
    <tag k="highway" v="residential"/>
    <tag k="name" v="Μπιζανίου"/>
    <tag k="name:en" v="Mpizaniou"/>
  </way>
  <way id="24905541" version="5" timestamp="2009-04-16T11:24:44Z" uid="12188" user="Babis" changeset="578233">
    <nd ref="270599495"/>
    <nd ref="270599532"/>
    <nd ref="270599430"/>
    <nd ref="377867088"/>
    <nd ref="270599431"/>
    <tag k="created_by" v="Potlatch 0.10f"/>
    <tag k="highway" v="residential"/>
  </way>
  <way id="24905541" version="6" timestamp="2009-04-16T11:31:57Z" uid="12188" user="Babis" changeset="578233">
    <nd ref="270599495"/>
    <nd ref="270599532"/>
    <nd ref="270599430"/>
    <nd ref="377867088"/>
    <nd ref="270599431"/>
    <tag k="created_by" v="Potlatch 0.10f"/>
    <tag k="highway" v="residential"/>
    <tag k="name" v="Σουλίου"/>
    <tag k="name:en" v="Souliou"/>
  </way>
  <way id="24905544" version="5" timestamp="2010-04-06T14:35:33Z" uid="20587" user="balrog-kun" changeset="4342997">
    <nd ref="120041593"/>
    <nd ref="120041595"/>
    <tag k="created_by" v="xybot"/>
    <tag k="highway" v="residential"/>
    <tag k="layer" v="1"/>
    <tag k="name" v="North Michigan Street"/>
    <tag k="tiger:cfcc" v="A41"/>
    <tag k="tiger:county" v="Douglas, KS"/>
    <tag k="tiger:name_base" v="Michigan"/>
    <tag k="tiger:name_direction_prefix" v="N"/>
    <tag k="tiger:name_type" v="St"/>
    <tag k="tiger:reviewed" v="no"/>
    <tag k="tiger:separated" v="no"/>
    <tag k="tiger:source" v="tiger_import_dch_v0.6_20070812"/>
    <tag k="tiger:tlid" v="17683635:17683637:17689817:17683632:17705162:17705164:17705165:17686804:17698965:17690505"/>
    <tag k="tiger:zip_left" v="66044"/>
    <tag k="tiger:zip_right" v="66044"/>
  </way>
  <way id="24905546" version="2" timestamp="2009-06-08T07:28:49Z" uid="12188" user="Babis" changeset="1455929"/>
  <way id="24905548" version="2" timestamp="2010-04-06T14:35:33Z" uid="20587" user="balrog-kun" changeset="4342997">
    <nd ref="120041595"/>
    <nd ref="119899623"/>
    <nd ref="120041598"/>
    <nd ref="120041601"/>
    <nd ref="120041604"/>
    <nd ref="119908091"/>
    <nd ref="120041606"/>
    <nd ref="119946344"/>
    <nd ref="120041609"/>
    <nd ref="120041613"/>
    <nd ref="120041622"/>
    <nd ref="119946465"/>
    <nd ref="120041625"/>
    <nd ref="120039790"/>
    <nd ref="119927865"/>
    <nd ref="120041629"/>
    <nd ref="120012672"/>
    <nd ref="119906556"/>
    <nd ref="119914834"/>
    <nd ref="119908263"/>
    <nd ref="119971066"/>
    <tag k="created_by" v="Potlatch 0.9c"/>
    <tag k="highway" v="residential"/>
    <tag k="name" v="North Michigan Street"/>
    <tag k="tiger:cfcc" v="A41"/>
    <tag k="tiger:county" v="Douglas, KS"/>
    <tag k="tiger:name_base" v="Michigan"/>
    <tag k="tiger:name_direction_prefix" v="N"/>
    <tag k="tiger:name_type" v="St"/>
    <tag k="tiger:reviewed" v="no"/>
    <tag k="tiger:separated" v="no"/>
    <tag k="tiger:source" v="tiger_import_dch_v0.6_20070812"/>
    <tag k="tiger:tlid" v="17683635:17683637:17689817:17683632:17705162:17705164:17705165:17686804:17698965:17690505"/>
    <tag k="tiger:zip_left" v="66044"/>
    <tag k="tiger:zip_right" v="66044"/>
  </way>
  <way id="24905552" version="2" timestamp="2010-01-08T09:08:21Z" uid="12188" user="Babis" changeset="3568364">
    <nd ref="270467032"/>
    <nd ref="270599633"/>
    <tag k="highway" v="residential"/>
    <tag k="name" v="Σαραντάπορου"/>
    <tag k="name:en" v="Sarantaporou"/>
  </way>
  <way id="24905565" version="2" timestamp="2009-06-08T08:34:54Z" uid="12188" user="Babis" changeset="1456412">
    <nd ref="270599741"/>
    <nd ref="270599833"/>
    <nd ref="270599834"/>
    <nd ref="270599835"/>
    <tag k="created_by" v="Potlatch 0.9c"/>
    <tag k="highway" v="residential"/>
  </way>
  <way id="24905565" version="3" timestamp="2009-06-08T08:35:27Z" uid="12188" user="Babis" changeset="1456412">
    <nd ref="270599741"/>
    <nd ref="270599833"/>
    <nd ref="270599834"/>
    <nd ref="270599835"/>
    <tag k="created_by" v="Potlatch 0.9c"/>
    <tag k="highway" v="residential"/>
    <tag k="name" v="Τερψιχώρης"/>
    <tag k="name:en" v="Terpsihoris"/>
  </way>
  <way id="24905568" version="5" timestamp="2009-09-12T17:20:48Z" uid="12188" user="Babis" changeset="2460358">
    <nd ref="36437796"/>
    <nd ref="270600533"/>
    <nd ref="270601060"/>
    <nd ref="270601039"/>
    <nd ref="270600971"/>
    <nd ref="270600950"/>
    <nd ref="270600525"/>
    <nd ref="270600937"/>
    <nd ref="269613052"/>
    <nd ref="269613004"/>
    <nd ref="270600672"/>
    <nd ref="269613024"/>
    <nd ref="270599841"/>
    <nd ref="270599882"/>
    <nd ref="270600074"/>
    <nd ref="270600261"/>
    <nd ref="270599895"/>
    <nd ref="270599883"/>
    <tag k="highway" v="residential"/>
    <tag k="name" v="Κυθηρείων"/>
    <tag k="name:en" v="Kithirion"/>
  </way>
  <way id="24905575" version="1" timestamp="2008-06-15T22:22:36Z" uid="17602" user="B10xyz" changeset="179150">
    <nd ref="269226821"/>
    <nd ref="269226164"/>
    <tag k="created_by" v="JOSM"/>
    <tag k="highway" v="pedestrian"/>
    <tag k="name" v="George-Marshall-Str."/>
  </way>
  <way id="24905576" version="1" timestamp="2008-06-15T22:22:36Z" uid="17602" user="B10xyz" changeset="179150">
    <nd ref="270600070"/>
    <nd ref="270592523"/>
    <tag k="created_by" v="JOSM"/>
    <tag k="highway" v="track"/>
  </way>
  <way id="24905576" version="2" timestamp="2008-06-18T21:17:23Z" uid="17602" user="B10xyz" changeset="219178">
    <nd ref="270600070"/>
    <nd ref="270592523"/>
    <tag k="created_by" v="JOSM"/>
    <tag k="highway" v="track"/>
    <tag k="name" v="Loh"/>
  </way>
  <way id="24905577" version="1" timestamp="2008-06-15T22:22:37Z" uid="17602" user="B10xyz" changeset="179150">
    <nd ref="270600075"/>
    <nd ref="270591967"/>
    <tag k="created_by" v="JOSM"/>
    <tag k="highway" v="residential"/>
    <tag k="noexit" v="yes"/>
  </way>
  <way id="24905578" version="1" timestamp="2008-06-15T22:22:37Z" uid="17602" user="B10xyz" changeset="179150">
    <nd ref="270600078"/>
    <nd ref="31359628"/>
    <tag k="created_by" v="JOSM"/>
    <tag k="highway" v="unclassified"/>
    <tag k="oneway" v="yes"/>
  </way>
  <way id="24905579" version="1" timestamp="2008-06-15T22:22:38Z" uid="17602" user="B10xyz" changeset="179150">
    <nd ref="267044839"/>
    <nd ref="33153952"/>
    <nd ref="267046764"/>
    <nd ref="267046765"/>
    <nd ref="267046766"/>
    <tag k="created_by" v="Potlatch 0.9b"/>
    <tag k="oneway" v="yes"/>
  </way>
  <way id="24905580" version="1" timestamp="2008-06-15T22:22:38Z" uid="17602" user="B10xyz" changeset="179150">
    <nd ref="33153952"/>
    <nd ref="267046767"/>
    <nd ref="267046768"/>
    <nd ref="267046769"/>
    <tag k="created_by" v="Potlatch 0.9b"/>
    <tag k="highway" v="residential"/>
    <tag k="oneway" v="yes"/>
  </way>
  <way id="24905588" version="4" timestamp="2009-06-10T04:04:04Z" uid="20587" user="balrog-kun" changeset="1473633">
    <nd ref="270599281"/>
    <nd ref="270599292"/>
    <nd ref="417884694"/>
    <nd ref="270599325"/>
    <nd ref="270599327"/>
    <nd ref="270599331"/>
    <nd ref="270599332"/>
    <nd ref="270599333"/>
    <nd ref="270599334"/>
    <nd ref="270599335"/>
    <nd ref="270599342"/>
    <nd ref="270599343"/>
    <nd ref="270599344"/>
    <nd ref="270599345"/>
    <nd ref="270599355"/>
    <nd ref="270599357"/>
    <nd ref="270599363"/>
    <nd ref="270599365"/>
    <nd ref="270599366"/>
    <nd ref="270599368"/>
    <nd ref="270599395"/>
    <nd ref="270599400"/>
    <nd ref="270599402"/>
    <nd ref="270599405"/>
    <nd ref="270599422"/>
    <nd ref="270599434"/>
    <tag k="highway" v="tertiary"/>
  </way>
  <way id="24905589" version="3" timestamp="2009-06-10T04:04:04Z" uid="20587" user="balrog-kun" changeset="1473633">
    <nd ref="270599434"/>
    <nd ref="270599436"/>
    <nd ref="270599438"/>
    <nd ref="270599441"/>
    <nd ref="270599442"/>
    <nd ref="270599444"/>
    <nd ref="270599445"/>
    <nd ref="270599449"/>
    <nd ref="270599453"/>
    <nd ref="270599454"/>
    <nd ref="270599462"/>
    <nd ref="270599475"/>
    <nd ref="270599489"/>
    <nd ref="270599508"/>
    <nd ref="270599510"/>
    <nd ref="270599512"/>
    <nd ref="270599514"/>
    <nd ref="270599520"/>
    <nd ref="270599522"/>
    <nd ref="270599620"/>
    <nd ref="270599623"/>
    <nd ref="270599625"/>
    <nd ref="270599626"/>
    <nd ref="417884706"/>
    <nd ref="270599629"/>
    <nd ref="270599630"/>
    <nd ref="270599631"/>
    <nd ref="270599632"/>
    <nd ref="270599646"/>
    <nd ref="270599647"/>
    <nd ref="270599650"/>
    <nd ref="270599651"/>
    <nd ref="270599655"/>
    <nd ref="270599661"/>
    <nd ref="270599662"/>
    <tag k="highway" v="tertiary"/>
  </way>
  <way id="24905590" version="3" timestamp="2009-06-10T04:04:04Z" uid="20587" user="balrog-kun" changeset="1473633">
    <nd ref="270599662"/>
    <nd ref="270599686"/>
    <nd ref="270599688"/>
    <nd ref="270599691"/>
    <nd ref="270599696"/>
    <nd ref="270599699"/>
    <nd ref="270599702"/>
    <nd ref="270599707"/>
    <nd ref="270599709"/>
    <nd ref="270599712"/>
    <nd ref="270599714"/>
    <nd ref="270599717"/>
    <nd ref="270599724"/>
    <nd ref="417884703"/>
    <nd ref="270599737"/>
    <nd ref="270599744"/>
    <nd ref="270599785"/>
    <nd ref="270599788"/>
    <nd ref="270599789"/>
    <nd ref="270599790"/>
    <nd ref="270599791"/>
    <nd ref="270599795"/>
    <nd ref="270599796"/>
    <tag k="highway" v="tertiary"/>
  </way>
  <way id="24905598" version="4" timestamp="2009-03-21T11:14:31Z" uid="12188" user="Babis" changeset="838946">
    <nd ref="270600226"/>
    <nd ref="270600258"/>
    <nd ref="270600249"/>
    <nd ref="364336553"/>
    <nd ref="270599842"/>
    <nd ref="270600250"/>
    <tag k="created_by" v="Potlatch 0.10f"/>
    <tag k="highway" v="residential"/>
  </way>
  <way id="24905598" version="5" timestamp="2009-09-12T17:21:19Z" uid="12188" user="Babis" changeset="2460358"/>
  <way id="24905599" version="1" timestamp="2008-06-15T22:23:22Z" uid="34428" user="usm78-gis" changeset="183944">
    <nd ref="26562615"/>
    <nd ref="270600251"/>
    <nd ref="270600252"/>
    <nd ref="270600253"/>
    <nd ref="270600254"/>
    <nd ref="270600255"/>
    <nd ref="270600256"/>
    <nd ref="270600257"/>
    <tag k="created_by" v="Potlatch 0.9c"/>
    <tag k="railway" v="rail"/>
  </way>
  <way id="24905604" version="2" timestamp="2009-06-08T08:37:30Z" uid="12188" user="Babis" changeset="1456412">
    <nd ref="270599836"/>
    <nd ref="270600263"/>
    <nd ref="270600265"/>
    <nd ref="270600266"/>
    <tag k="created_by" v="Potlatch 0.9c"/>
    <tag k="highway" v="residential"/>
    <tag k="name" v="Πολυτίμης"/>
    <tag k="name:en" v="Politimis"/>
  </way>
  <way id="24905623" version="4" timestamp="2009-06-08T07:55:02Z" uid="12188" user="Babis" changeset="1456112">
    <nd ref="270600269"/>
    <nd ref="270600413"/>
    <nd ref="270600414"/>
    <nd ref="270600415"/>
    <nd ref="270600266"/>
    <nd ref="270600420"/>
    <nd ref="270600422"/>
    <nd ref="270600423"/>
    <nd ref="270600424"/>
    <nd ref="270600425"/>
    <nd ref="270600426"/>
    <nd ref="270600427"/>
    <nd ref="270600428"/>
    <nd ref="270600429"/>
    <tag k="created_by" v="Potlatch 0.9c"/>
    <tag k="highway" v="residential"/>
    <tag k="name" v="Στυμφαλίας"/>
    <tag k="name:en" v="Stimfalias"/>
  </way>
  <way id="24905633" version="8" timestamp="2009-06-08T08:39:09Z" uid="12188" user="Babis" changeset="1456412">
    <nd ref="36437796"/>
    <nd ref="270600533"/>
    <nd ref="270601060"/>
    <nd ref="270601039"/>
    <nd ref="270600971"/>
    <nd ref="270600950"/>
    <nd ref="270600525"/>
    <nd ref="270600937"/>
    <nd ref="269613052"/>
    <nd ref="269613004"/>
    <nd ref="270600672"/>
    <nd ref="269613024"/>
    <tag k="created_by" v="Potlatch 0.9c"/>
    <tag k="highway" v="residential"/>
    <tag k="name" v="Κυθηρείων"/>
    <tag k="name:en" v="Kithirion"/>
  </way>
  <way id="24905633" version="9" timestamp="2009-09-12T17:20:48Z" uid="12188" user="Babis" changeset="2460358"/>
  <way id="24905638" version="2" timestamp="2009-06-08T08:40:26Z" uid="12188" user="Babis" changeset="1456412">
    <nd ref="270600543"/>
    <nd ref="270600552"/>
    <nd ref="270600553"/>
    <tag k="created_by" v="Potlatch 0.9c"/>
    <tag k="highway" v="residential"/>
    <tag k="name" v="Σκανδείας"/>
    <tag k="name:en" v="Skandias"/>
  </way>
  <way id="24905640" version="2" timestamp="2009-06-08T08:38:19Z" uid="12188" user="Babis" changeset="1456412">
    <nd ref="270600555"/>
    <nd ref="270600561"/>
    <nd ref="270599838"/>
    <tag k="created_by" v="Potlatch 0.9c"/>
    <tag k="highway" v="residential"/>
    <tag k="name" v="Ανεμώνων"/>
    <tag k="name:en" v="Anemonon"/>
  </way>
  <way id="24905643" version="4" timestamp="2009-06-08T08:36:33Z" uid="12188" user="Babis" changeset="1456412">
    <nd ref="270600415"/>
    <nd ref="270600588"/>
    <nd ref="270600625"/>
    <nd ref="270600607"/>
    <nd ref="270599834"/>
    <tag k="created_by" v="Potlatch 0.9c"/>
    <tag k="highway" v="residential"/>
    <tag k="name" v="Θέτιδος"/>
    <tag k="name:en" v="Thetidos"/>
  </way>
  <way id="24905646" version="2" timestamp="2009-06-08T08:34:40Z" uid="12188" user="Babis" changeset="1456412">
    <nd ref="270600607"/>
    <nd ref="270600621"/>
    <tag k="created_by" v="Potlatch 0.9c"/>
    <tag k="highway" v="residential"/>
    <tag k="name" v="Χαρίτων"/>
    <tag k="name;en" v="Hariton"/>
  </way>
  <way id="24905648" version="2" timestamp="2009-06-08T08:34:14Z" uid="12188" user="Babis" changeset="1456412">
    <nd ref="270600625"/>
    <nd ref="270600655"/>
    <tag k="created_by" v="Potlatch 0.9c"/>
    <tag k="highway" v="residential"/>
    <tag k="name" v="Λητούς"/>
    <tag k="name;en" v="Litous"/>
  </way>
  <way id="24905656" version="4" timestamp="2009-04-12T19:44:21Z" uid="12188" user="Babis" changeset="447991">
    <nd ref="270600693"/>
    <nd ref="269613030"/>
    <tag k="created_by" v="Potlatch 0.10f"/>
    <tag k="highway" v="residential"/>
  </way>
  <way id="24905657" version="3" timestamp="2009-06-10T04:05:34Z" uid="20587" user="balrog-kun" changeset="1473633"/>
  <way id="24905663" version="1" timestamp="2008-06-15T22:26:49Z" uid="34428" user="usm78-gis" changeset="183944">
    <nd ref="270600872"/>
    <nd ref="270600875"/>
    <nd ref="270600877"/>
    <nd ref="270600879"/>
    <nd ref="270600881"/>
    <nd ref="270600883"/>
    <nd ref="270600885"/>
    <nd ref="270600887"/>
    <nd ref="270600889"/>
    <nd ref="270600891"/>
    <nd ref="270600893"/>
    <nd ref="270600897"/>
    <nd ref="270600899"/>
    <nd ref="270600901"/>
    <nd ref="270600903"/>
    <nd ref="270600905"/>
    <nd ref="270600907"/>
    <nd ref="270600908"/>
    <nd ref="270600909"/>
    <nd ref="270600910"/>
    <nd ref="270600911"/>
    <nd ref="270600912"/>
    <nd ref="270600913"/>
    <nd ref="270600914"/>
    <nd ref="270600915"/>
    <nd ref="270600916"/>
    <nd ref="270600917"/>
    <nd ref="270600918"/>
    <nd ref="270600919"/>
    <nd ref="270600920"/>
    <nd ref="270600921"/>
    <nd ref="270600922"/>
    <nd ref="270600923"/>
    <nd ref="270600924"/>
    <nd ref="270600925"/>
    <nd ref="270600926"/>
    <nd ref="270600927"/>
    <nd ref="270600928"/>
    <nd ref="270600929"/>
    <nd ref="270600930"/>
    <nd ref="270600931"/>
    <nd ref="213396120"/>
    <tag k="created_by" v="Potlatch 0.9c"/>
    <tag k="highway" v="unclassified"/>
  </way>
  <way id="24905670" version="2" timestamp="2009-06-08T07:43:10Z" uid="12188" user="Babis" changeset="1455993">
    <nd ref="270600951"/>
    <nd ref="270600971"/>
    <nd ref="270600425"/>
    <nd ref="316443947"/>
    <tag k="created_by" v="Potlatch 0.9c"/>
    <tag k="highway" v="residential"/>
    <tag k="name" v="Κασσιόπης"/>
    <tag k="name:en" v="Kassiopis"/>
  </way>
  <way id="24905672" version="3" timestamp="2009-04-12T19:40:37Z" uid="12188" user="Babis" changeset="447991"/>
  <way id="24905673" version="1" timestamp="2008-06-15T22:27:37Z" uid="34428" user="usm78-gis" changeset="183944">
    <nd ref="98223014"/>
    <nd ref="270600997"/>
    <nd ref="270600998"/>
    <nd ref="270600999"/>
    <nd ref="270601000"/>
    <nd ref="270601001"/>
    <nd ref="270601002"/>
    <nd ref="270601003"/>
    <nd ref="270601004"/>
    <nd ref="270601005"/>
    <nd ref="270601006"/>
    <nd ref="270601007"/>
    <nd ref="270601008"/>
    <nd ref="270601009"/>
    <nd ref="270601010"/>
    <nd ref="270601011"/>
    <nd ref="270601012"/>
    <nd ref="270601013"/>
    <nd ref="270601014"/>
    <nd ref="270601015"/>
    <nd ref="270601016"/>
    <nd ref="270601017"/>
    <nd ref="270601018"/>
    <nd ref="270601019"/>
    <nd ref="270601020"/>
    <nd ref="270601021"/>
    <nd ref="270601022"/>
    <nd ref="270601023"/>
    <nd ref="270601024"/>
    <nd ref="270601025"/>
    <tag k="created_by" v="Potlatch 0.9c"/>
    <tag k="highway" v="residential"/>
  </way>
  <way id="24905673" version="2" timestamp="2009-02-23T12:26:39Z" uid="34428" user="usm78-gis" changeset="634299"/>
  <way id="24905679" version="1" timestamp="2008-06-15T22:28:02Z" uid="34428" user="usm78-gis" changeset="183944">
    <nd ref="270601007"/>
    <nd ref="270601063"/>
    <nd ref="270601064"/>
    <nd ref="270601065"/>
    <nd ref="270601066"/>
    <nd ref="270601067"/>
    <nd ref="270601068"/>
    <nd ref="270601069"/>
    <nd ref="270601070"/>
    <nd ref="270601071"/>
    <nd ref="270601072"/>
    <nd ref="270601073"/>
    <nd ref="270601074"/>
    <nd ref="270601075"/>
    <nd ref="270601076"/>
    <nd ref="270601077"/>
    <nd ref="270601078"/>
    <nd ref="270601079"/>
    <nd ref="270601080"/>
    <nd ref="270601081"/>
    <nd ref="80059587"/>
    <tag k="created_by" v="Potlatch 0.9c"/>
    <tag k="highway" v="residential"/>
  </way>
  <way id="24905688" version="5" timestamp="2009-02-23T12:26:25Z" uid="34428" user="usm78-gis" changeset="634299"/>
  <way id="24905689" version="3" timestamp="2009-02-23T13:32:03Z" uid="34428" user="usm78-gis" changeset="634299"/>
  <way id="24905697" version="2" timestamp="2009-09-17T15:37:09Z" uid="12188" user="Babis" changeset="2513544">
    <nd ref="270601186"/>
    <nd ref="270601189"/>
    <nd ref="270601190"/>
    <nd ref="270601191"/>
    <tag k="highway" v="residential"/>
    <tag k="name" v="Ανοίξεως"/>
    <tag k="name:en" v="Anixeos"/>
  </way>
  <way id="24905698" version="1" timestamp="2008-06-15T22:29:39Z" uid="34428" user="usm78-gis" changeset="183944">
    <nd ref="270600883"/>
    <nd ref="270601194"/>
    <nd ref="270601195"/>
    <nd ref="270601196"/>
    <nd ref="270601197"/>
    <nd ref="270601198"/>
    <nd ref="270601199"/>
    <nd ref="270601200"/>
    <nd ref="270601201"/>
    <nd ref="270601202"/>
    <nd ref="270601203"/>
    <nd ref="270601204"/>
    <nd ref="270601205"/>
    <tag k="created_by" v="Potlatch 0.9c"/>
    <tag k="highway" v="unclassified"/>
  </way>
  <way id="24905699" version="2" timestamp="2009-09-17T15:38:38Z" uid="12188" user="Babis" changeset="2513544">
    <nd ref="270601211"/>
    <nd ref="270601216"/>
    <tag k="highway" v="residential"/>
    <tag k="name" v="Νάξου"/>
    <tag k="name:en" v="Naxou"/>
  </way>
  <way id="24905700" version="2" timestamp="2009-09-17T15:38:13Z" uid="12188" user="Babis" changeset="2513544">
    <nd ref="270601218"/>
    <nd ref="270601229"/>
    <tag k="highway" v="residential"/>
    <tag k="name" v="Ναυπάκτου"/>
    <tag k="name:en" v="Nafpaktou"/>
  </way>
  <way id="24905701" version="2" timestamp="2009-09-17T15:37:44Z" uid="12188" user="Babis" changeset="2513544">
    <nd ref="270601275"/>
    <nd ref="270601282"/>
    <nd ref="270601284"/>
    <nd ref="270601285"/>
    <tag k="highway" v="residential"/>
    <tag k="name" v="Σπάρτης"/>
    <tag k="name:en" v="Spartis"/>
  </way>
  <way id="24905728" version="5" timestamp="2009-11-14T10:40:35Z" uid="12188" user="Babis" changeset="3111945">
    <nd ref="270601370"/>
    <nd ref="270601403"/>
    <nd ref="270601404"/>
    <nd ref="270601904"/>
    <nd ref="270601372"/>
    <nd ref="270601405"/>
    <nd ref="270601406"/>
    <nd ref="270601407"/>
    <nd ref="270601373"/>
    <nd ref="270601408"/>
    <nd ref="270601375"/>
    <nd ref="270601409"/>
    <nd ref="270601410"/>
    <nd ref="270601411"/>
    <nd ref="270601412"/>
    <nd ref="270601413"/>
    <nd ref="270601370"/>
    <tag k="highway" v="residential"/>
    <tag k="name" v="Θεσμοφοριών"/>
    <tag k="name:en" v="Thesmoforion"/>
  </way>
  <way id="24905737" version="1" timestamp="2008-06-15T22:31:00Z" uid="34428" user="usm78-gis" changeset="183944">
    <nd ref="270601374"/>
    <nd ref="270601395"/>
    <nd ref="270601396"/>
    <nd ref="270601397"/>
    <nd ref="270601398"/>
    <nd ref="270601399"/>
    <nd ref="270601400"/>
    <nd ref="270601401"/>
    <tag k="created_by" v="Potlatch 0.9c"/>
    <tag k="highway" v="service"/>
  </way>
  <way id="24905769" version="1" timestamp="2008-06-15T22:32:08Z" uid="34428" user="usm78-gis" changeset="183944">
    <nd ref="270601479"/>
    <nd ref="270601529"/>
    <nd ref="270601530"/>
    <nd ref="270601531"/>
    <nd ref="270601532"/>
    <nd ref="270601533"/>
    <nd ref="270601534"/>
    <nd ref="270601536"/>
    <nd ref="25532564"/>
    <tag k="created_by" v="Potlatch 0.9c"/>
    <tag k="highway" v="residential"/>
  </way>
  <way id="24905769" version="2" timestamp="2010-04-07T21:45:10Z" uid="34428" user="usm78-gis" changeset="4359274">
    <nd ref="270601479"/>
    <nd ref="270601529"/>
    <nd ref="270601530"/>
    <nd ref="270601531"/>
    <nd ref="270601532"/>
    <tag k="highway" v="residential"/>
  </way>
  <way id="24905769" version="3" timestamp="2010-04-07T21:45:20Z" uid="34428" user="usm78-gis" changeset="4359274">
    <nd ref="270601479"/>
    <nd ref="270601529"/>
    <nd ref="270601530"/>
    <nd ref="270601531"/>
    <nd ref="270601532"/>
    <nd ref="687949380"/>
    <nd ref="450202646"/>
    <tag k="highway" v="residential"/>
  </way>
  <way id="24905771" version="3" timestamp="2008-07-07T08:46:17Z" uid="6975" user="ulfl" changeset="418206">
    <nd ref="270601539"/>
    <nd ref="270601537"/>
    <nd ref="270601540"/>
    <nd ref="270692975"/>
    <nd ref="270692976"/>
    <nd ref="270692977"/>
    <nd ref="270692978"/>
    <nd ref="270692979"/>
    <tag k="highway" v="unclassified"/>
    <tag k="name" v="Cross Lane"/>
  </way>
  <way id="24905794" version="1" timestamp="2008-06-15T22:32:52Z" uid="34428" user="usm78-gis" changeset="183944">
    <nd ref="25532421"/>
    <nd ref="270601811"/>
    <nd ref="270601812"/>
    <nd ref="270601813"/>
    <nd ref="270601814"/>
    <nd ref="270601815"/>
    <nd ref="270601816"/>
    <nd ref="270601818"/>
    <nd ref="270601819"/>
    <nd ref="270601820"/>
    <nd ref="270601821"/>
    <nd ref="270601822"/>
    <nd ref="270601823"/>
    <nd ref="270601824"/>
    <nd ref="270601825"/>
    <tag k="created_by" v="Potlatch 0.9c"/>
    <tag k="highway" v="residential"/>
  </way>
  <way id="24905794" version="3" timestamp="2010-04-07T21:50:07Z" uid="34428" user="usm78-gis" changeset="4359274">
    <nd ref="25532421"/>
    <nd ref="270601812"/>
    <tag k="highway" v="residential"/>
  </way>
  <way id="24905798" version="8" timestamp="2009-12-09T20:25:36Z" uid="200463" user="harmagedon" changeset="3336536">
    <nd ref="264771710"/>
    <nd ref="264771711"/>
    <nd ref="278730111"/>
    <nd ref="264771713"/>
    <nd ref="293428406"/>
    <nd ref="264771715"/>
    <nd ref="264771716"/>
    <tag k="highway" v="secondary"/>
    <tag k="name" v="Leutersdorfer Straße"/>
    <tag k="ref" v="S 141"/>
  </way>
  <way id="24905802" version="11" timestamp="2009-11-14T11:24:06Z" uid="12188" user="Babis" changeset="3112148">
    <nd ref="270601752"/>
    <nd ref="270601853"/>
    <nd ref="270601854"/>
    <nd ref="270601855"/>
    <nd ref="270601856"/>
    <tag k="highway" v="residential"/>
  </way>
  <way id="24905802" version="12" timestamp="2009-11-14T11:25:29Z" uid="12188" user="Babis" changeset="3112148">
    <nd ref="270601752"/>
    <nd ref="270601853"/>
    <nd ref="270601854"/>
    <tag k="highway" v="residential"/>
  </way>
  <way id="24905802" version="13" timestamp="2009-11-14T11:26:19Z" uid="12188" user="Babis" changeset="3112148">
    <nd ref="270601752"/>
    <nd ref="270601853"/>
    <nd ref="270601854"/>
    <nd ref="270602379"/>
    <tag k="highway" v="residential"/>
  </way>
  <way id="24905806" version="2" timestamp="2009-11-14T11:27:50Z" uid="12188" user="Babis" changeset="3112148">
    <nd ref="270601372"/>
    <nd ref="270601924"/>
    <nd ref="270601836"/>
    <nd ref="270601855"/>
    <nd ref="270601926"/>
    <nd ref="270601927"/>
    <tag k="highway" v="residential"/>
    <tag k="name" v="Λάμπρου Κατσώνη"/>
    <tag k="name:en" v="Lamprou Katsoni"/>
  </way>
  <way id="24905808" version="6" timestamp="2010-04-06T14:35:34Z" uid="20587" user="balrog-kun" changeset="4342997">
    <nd ref="119927448"/>
    <nd ref="120037433"/>
    <nd ref="120037437"/>
    <nd ref="120037441"/>
    <nd ref="120037444"/>
    <nd ref="119900565"/>
    <nd ref="119900556"/>
    <nd ref="428637672"/>
    <nd ref="120037449"/>
    <nd ref="119905237"/>
    <nd ref="270601928"/>
    <nd ref="120019870"/>
    <nd ref="120019872"/>
    <nd ref="120019874"/>
    <nd ref="120019877"/>
    <nd ref="120019879"/>
    <nd ref="119900524"/>
    <nd ref="119921371"/>
    <tag k="highway" v="primary"/>
    <tag k="name" v="North 3rd Street"/>
    <tag k="name_1" v="North 2nd Street"/>
    <tag k="ref" v="US 40; US 59"/>
    <tag k="tiger:cfcc" v="A21"/>
    <tag k="tiger:county" v="Douglas, KS"/>
    <tag k="tiger:name_base" v="3rd"/>
    <tag k="tiger:name_base_1" v="2nd"/>
    <tag k="tiger:name_direction_prefix" v="N"/>
    <tag k="tiger:name_direction_prefix_1" v="N"/>
    <tag k="tiger:name_type" v="St"/>
    <tag k="tiger:name_type_1" v="St"/>
    <tag k="tiger:reviewed" v="no"/>
    <tag k="tiger:separated" v="no"/>
    <tag k="tiger:source" v="tiger_import_dch_v0.6_20070812"/>
    <tag k="tiger:tlid" v="17683578; 17683560:17689896"/>
    <tag k="tiger:zip_left" v="66049"/>
    <tag k="tiger:zip_right" v="66049"/>
  </way>
  <way id="24905818" version="5" timestamp="2009-11-14T11:23:15Z" uid="12188" user="Babis" changeset="3112148"/>
  <way id="24905835" version="3" timestamp="2009-11-14T11:22:16Z" uid="12188" user="Babis" changeset="3112148">
    <nd ref="270602563"/>
    <nd ref="270601856"/>
    <tag k="highway" v="residential"/>
  </way>
  <way id="24905835" version="4" timestamp="2009-11-14T11:22:30Z" uid="12188" user="Babis" changeset="3112148">
    <nd ref="563704316"/>
    <nd ref="270601856"/>
    <tag k="highway" v="residential"/>
  </way>
  <way id="24905835" version="5" timestamp="2009-11-14T11:22:55Z" uid="12188" user="Babis" changeset="3112148">
    <nd ref="563704316"/>
    <nd ref="563704496"/>
    <nd ref="270601856"/>
    <tag k="highway" v="residential"/>
  </way>
  <way id="24905835" version="6" timestamp="2009-11-14T11:23:15Z" uid="12188" user="Babis" changeset="3112148">
    <nd ref="563704316"/>
    <nd ref="563704496"/>
    <nd ref="270601856"/>
    <nd ref="270602092"/>
    <nd ref="270601693"/>
    <nd ref="270602109"/>
    <nd ref="270602091"/>
    <nd ref="270602090"/>
    <nd ref="270602089"/>
    <nd ref="270602088"/>
    <nd ref="270602048"/>
    <tag k="highway" v="residential"/>
    <tag k="name" v="Γερουλάνου"/>
    <tag k="name:en" v="Geroulanou"/>
    <tag k="oneway" v="no"/>
  </way>
  <way id="24905849" version="2" timestamp="2009-11-14T11:26:18Z" uid="12188" user="Babis" changeset="3112148"/>
  <way id="24905859" version="3" timestamp="2009-06-10T04:03:57Z" uid="20587" user="balrog-kun" changeset="1473633">
    <nd ref="270600218"/>
    <nd ref="270601846"/>
    <nd ref="270601849"/>
    <nd ref="270601850"/>
    <nd ref="270601852"/>
    <nd ref="270601862"/>
    <nd ref="270601865"/>
    <nd ref="270601905"/>
    <nd ref="417892729"/>
    <nd ref="270601907"/>
    <nd ref="270601908"/>
    <nd ref="270601935"/>
    <nd ref="270601936"/>
    <nd ref="270601948"/>
    <nd ref="270601950"/>
    <nd ref="270601951"/>
    <nd ref="270601953"/>
    <nd ref="270601954"/>
    <nd ref="270601956"/>
    <nd ref="270601957"/>
    <nd ref="270601959"/>
    <tag k="highway" v="unclassified"/>
  </way>
  <way id="24905862" version="3" timestamp="2009-06-10T04:03:57Z" uid="20587" user="balrog-kun" changeset="1473633">
    <nd ref="270602164"/>
    <nd ref="270602165"/>
    <nd ref="270602167"/>
    <nd ref="270602169"/>
    <nd ref="270602170"/>
    <nd ref="270602172"/>
    <nd ref="270602173"/>
    <nd ref="270602174"/>
    <nd ref="270602176"/>
    <nd ref="270602177"/>
    <tag k="highway" v="unclassified"/>
  </way>
  <way id="24905872" version="5" timestamp="2009-06-08T08:10:14Z" uid="12188" user="Babis" changeset="1456233">
    <nd ref="270602758"/>
    <nd ref="270602760"/>
    <nd ref="270602761"/>
    <nd ref="270602762"/>
    <nd ref="270602763"/>
    <nd ref="312854347"/>
    <nd ref="36437789"/>
    <nd ref="270602764"/>
    <nd ref="270602765"/>
    <nd ref="270602766"/>
    <nd ref="270602767"/>
    <nd ref="270602768"/>
    <nd ref="270602769"/>
    <tag k="created_by" v="Merkaartor 0.12"/>
    <tag k="highway" v="residential"/>
    <tag k="name" v="Νικηφόρου Βρετάκου"/>
    <tag k="name:en" v="Nikiforou Vretakou"/>
  </way>
  <way id="24905872" version="7" timestamp="2009-11-13T20:03:14Z" uid="12188" user="Babis" changeset="3108431">
    <nd ref="270602758"/>
    <nd ref="270602760"/>
    <nd ref="270602761"/>
    <nd ref="270602762"/>
    <nd ref="270602763"/>
    <nd ref="312854347"/>
    <nd ref="36437789"/>
    <nd ref="270602764"/>
    <nd ref="270602765"/>
    <nd ref="270602766"/>
    <nd ref="270602767"/>
    <nd ref="270602768"/>
    <nd ref="270602769"/>
    <tag k="highway" v="residential"/>
    <tag k="name" v="Νικηφόρου Βρετάκου"/>
    <tag k="name:en" v="Nikiforou Vretakou"/>
  </way>
  <way id="24905872" version="8" timestamp="2009-11-14T11:16:15Z" uid="12188" user="Babis" changeset="3112148">
    <nd ref="270602758"/>
    <nd ref="270602760"/>
    <nd ref="270602761"/>
    <nd ref="270602762"/>
    <nd ref="270602763"/>
    <nd ref="312854347"/>
    <nd ref="36437789"/>
    <nd ref="270602764"/>
    <nd ref="270602765"/>
    <nd ref="270602766"/>
    <tag k="highway" v="residential"/>
    <tag k="name" v="Νικηφόρου Βρετάκου"/>
    <tag k="name:en" v="Nikiforou Vretakou"/>
  </way>
  <way id="24905872" version="9" timestamp="2009-11-14T11:17:06Z" uid="12188" user="Babis" changeset="3112148">
    <nd ref="270602758"/>
    <nd ref="270602760"/>
    <nd ref="270602761"/>
    <nd ref="270602762"/>
    <nd ref="270602763"/>
    <nd ref="312854347"/>
    <nd ref="36437789"/>
    <nd ref="270602764"/>
    <nd ref="270602765"/>
    <nd ref="270602766"/>
    <tag k="highway" v="residential"/>
    <tag k="name" v="Ζαλόγγου"/>
    <tag k="name:en" v="Zalongou"/>
  </way>
  <way id="24905872" version="10" timestamp="2009-11-14T11:21:16Z" uid="12188" user="Babis" changeset="3112148">
    <nd ref="270602758"/>
    <nd ref="270602760"/>
    <nd ref="270602761"/>
    <nd ref="270602762"/>
    <nd ref="270602763"/>
    <nd ref="312854347"/>
    <nd ref="563704088"/>
    <nd ref="36437789"/>
    <nd ref="270602764"/>
    <nd ref="270602765"/>
    <nd ref="270602766"/>
    <tag k="highway" v="residential"/>
    <tag k="name" v="Ζαλόγγου"/>
    <tag k="name:en" v="Zalongou"/>
  </way>
  <way id="24905888" version="3" timestamp="2009-03-25T07:23:09Z" uid="12188" user="Babis" changeset="855585">
    <nd ref="270602978"/>
    <nd ref="270602980"/>
    <nd ref="270602981"/>
    <nd ref="36437790"/>
    <nd ref="36438227"/>
    <tag k="created_by" v="Potlatch 0.10f"/>
    <tag k="highway" v="residential"/>
  </way>
  <way id="24905888" version="4" timestamp="2009-11-14T11:22:41Z" uid="12188" user="Babis" changeset="3112148">
    <nd ref="563704331"/>
    <nd ref="270602978"/>
    <nd ref="270602980"/>
    <nd ref="270602981"/>
    <nd ref="36437790"/>
    <nd ref="36438227"/>
    <tag k="highway" v="residential"/>
  </way>
  <way id="24905899" version="3" timestamp="2009-11-14T11:24:17Z" uid="12188" user="Babis" changeset="3112148">
    <nd ref="270603041"/>
    <nd ref="270601859"/>
    <nd ref="270603042"/>
    <nd ref="270603043"/>
    <nd ref="270603079"/>
    <nd ref="270602981"/>
    <tag k="highway" v="residential"/>
  </way>
  <way id="24905908" version="3" timestamp="2009-11-14T11:22:55Z" uid="12188" user="Babis" changeset="3112148">
    <nd ref="270601858"/>
    <nd ref="270603240"/>
    <nd ref="270603242"/>
    <nd ref="270603243"/>
    <nd ref="270603187"/>
    <nd ref="563704490"/>
    <nd ref="270603244"/>
    <nd ref="270603245"/>
    <nd ref="270603246"/>
    <nd ref="270603247"/>
    <tag k="highway" v="residential"/>
    <tag k="name" v="Κοιμήσεως Θεοτόκου"/>
    <tag k="name:en" v="Kimiseos Theotokou"/>
  </way>
  <way id="24905928" version="5" timestamp="2010-04-06T14:35:34Z" uid="20587" user="balrog-kun" changeset="4342997">
    <nd ref="270603321"/>
    <nd ref="270603322"/>
    <tag k="created_by" v="xybot"/>
    <tag k="highway" v="residential"/>
    <tag k="layer" v="1"/>
    <tag k="name" v="North 7th St; East 1500 Road"/>
    <tag k="name_1" v="East 1500 Road"/>
    <tag k="tiger:cfcc" v="A41"/>
    <tag k="tiger:county" v="Douglas, KS"/>
    <tag k="tiger:name_base" v="7th; 1500"/>
    <tag k="tiger:name_base_1" v="1500"/>
    <tag k="tiger:name_direction_prefix" v="N; E"/>
    <tag k="tiger:name_direction_prefix_1" v="E"/>
    <tag k="tiger:name_type" v="St; Rd"/>
    <tag k="tiger:name_type_1" v="Rd"/>
    <tag k="tiger:reviewed" v="no"/>
    <tag k="tiger:separated" v="no"/>
    <tag k="tiger:source" v="tiger_import_dch_v0.6_20070812"/>
    <tag k="tiger:tlid" v="17695837; 17685255"/>
    <tag k="tiger:zip_left" v="66044"/>
    <tag k="tiger:zip_right" v="66044"/>
  </way>
  <way id="24905953" version="2" timestamp="2010-04-06T14:35:35Z" uid="20587" user="balrog-kun" changeset="4342997">
    <nd ref="270603322"/>
    <nd ref="119905327"/>
    <nd ref="119921384"/>
    <nd ref="119945867"/>
    <tag k="created_by" v="Potlatch 0.9c"/>
    <tag k="highway" v="residential"/>
    <tag k="name" v="North 7th St; East 1500 Road"/>
    <tag k="name_1" v="East 1500 Road"/>
    <tag k="tiger:cfcc" v="A41"/>
    <tag k="tiger:county" v="Douglas, KS"/>
    <tag k="tiger:name_base" v="7th; 1500"/>
    <tag k="tiger:name_base_1" v="1500"/>
    <tag k="tiger:name_direction_prefix" v="N; E"/>
    <tag k="tiger:name_direction_prefix_1" v="E"/>
    <tag k="tiger:name_type" v="St; Rd"/>
    <tag k="tiger:name_type_1" v="Rd"/>
    <tag k="tiger:reviewed" v="no"/>
    <tag k="tiger:separated" v="no"/>
    <tag k="tiger:source" v="tiger_import_dch_v0.6_20070812"/>
    <tag k="tiger:tlid" v="17695837; 17685255"/>
    <tag k="tiger:zip_left" v="66044"/>
    <tag k="tiger:zip_right" v="66044"/>
  </way>
  <way id="24905961" version="2" timestamp="2009-08-20T09:10:09Z" uid="74617" user="JohnSmith" changeset="2209824">
    <nd ref="270603208"/>
    <nd ref="270603166"/>
    <nd ref="270603177"/>
    <nd ref="270603162"/>
    <tag k="highway" v="primary"/>
    <tag k="maxspeed" v="60"/>
    <tag k="name" v="Horrcks Road"/>
    <tag k="source" v="survey"/>
  </way>
  <way id="24905963" version="2" timestamp="2009-08-20T09:10:09Z" uid="74617" user="JohnSmith" changeset="2209824">
    <nd ref="270603162"/>
    <nd ref="249338818"/>
    <nd ref="249338819"/>
    <nd ref="249338820"/>
    <nd ref="249338821"/>
    <nd ref="249338822"/>
    <nd ref="249338823"/>
    <nd ref="249338824"/>
    <nd ref="249338825"/>
    <nd ref="249338826"/>
    <nd ref="249338827"/>
    <nd ref="249338828"/>
    <nd ref="249338829"/>
    <nd ref="249338830"/>
    <nd ref="249338831"/>
    <nd ref="249338832"/>
    <nd ref="249338833"/>
    <nd ref="249338834"/>
    <nd ref="249338835"/>
    <nd ref="249338836"/>
    <nd ref="249338837"/>
    <nd ref="249338838"/>
    <nd ref="249338839"/>
    <nd ref="249338840"/>
    <nd ref="249338841"/>
    <nd ref="249338842"/>
    <nd ref="249338843"/>
    <nd ref="249338844"/>
    <nd ref="249338845"/>
    <nd ref="249338846"/>
    <nd ref="249338847"/>
    <nd ref="249338848"/>
    <nd ref="249338849"/>
    <nd ref="249338850"/>
    <nd ref="249338851"/>
    <nd ref="249338852"/>
    <nd ref="249338853"/>
    <nd ref="249338854"/>
    <nd ref="249338855"/>
    <nd ref="249338856"/>
    <nd ref="249338776"/>
    <tag k="highway" v="primary"/>
    <tag k="maxspeed" v="110"/>
    <tag k="name" v="Spalding Road"/>
    <tag k="source" v="survey"/>
  </way>
  <way id="24905976" version="4" timestamp="2009-06-08T08:08:34Z" uid="12188" user="Babis" changeset="1456233">
    <nd ref="270602766"/>
    <nd ref="270603906"/>
    <nd ref="270603905"/>
    <nd ref="270603420"/>
    <tag k="created_by" v="Potlatch 0.9c"/>
    <tag k="highway" v="residential"/>
    <tag k="name" v="Ελύτη Οδυσσέα"/>
    <tag k="name:en" v="Eliti Odisea"/>
  </way>
  <way id="24905997" version="6" timestamp="2010-04-02T17:16:15Z" uid="20587" user="balrog-kun" changeset="4304500">
    <nd ref="53104682"/>
    <nd ref="53104680"/>
    <nd ref="53104677"/>
    <nd ref="53104675"/>
    <nd ref="272553722"/>
    <nd ref="53104671"/>
    <nd ref="53104667"/>
    <nd ref="53104665"/>
    <nd ref="53104663"/>
    <nd ref="272552037"/>
    <nd ref="272552045"/>
    <nd ref="272552029"/>
    <nd ref="272552047"/>
    <nd ref="272552040"/>
    <nd ref="272552049"/>
    <nd ref="53104661"/>
    <nd ref="272552052"/>
    <nd ref="272552042"/>
    <nd ref="272552027"/>
    <nd ref="270603507"/>
    <nd ref="270603508"/>
    <tag k="created_by" v="JOSM"/>
    <tag k="highway" v="residential"/>
    <tag k="name" v="16th Avenue Southwest"/>
    <tag k="tiger:cfcc" v="A41"/>
    <tag k="tiger:county" v="King, WA"/>
    <tag k="tiger:name_base" v="16th"/>
    <tag k="tiger:name_direction_suffix" v="SW"/>
    <tag k="tiger:separated" v="no"/>
    <tag k="tiger:source" v="tiger_import_dch_v0.6_20070830"/>
    <tag k="tiger:tlid" v="186714074"/>
  </way>
  <way id="24905999" version="3" timestamp="2009-03-25T07:25:51Z" uid="12188" user="Babis" changeset="855585">
    <nd ref="270603439"/>
    <nd ref="270603510"/>
    <nd ref="270603669"/>
    <nd ref="270603512"/>
    <nd ref="270603513"/>
    <nd ref="270603514"/>
    <nd ref="270603515"/>
    <nd ref="270603516"/>
    <nd ref="270602769"/>
    <nd ref="270603517"/>
    <tag k="created_by" v="Potlatch 0.10f"/>
    <tag k="highway" v="residential"/>
    <tag k="name" v="Επτανήσου"/>
    <tag k="name:en" v="Eptanisou"/>
  </way>
  <way id="24905999" version="4" timestamp="2009-04-12T17:24:05Z" uid="12188" user="Babis" changeset="447991">
    <nd ref="270603439"/>
    <nd ref="270603510"/>
    <nd ref="270603669"/>
    <nd ref="270603512"/>
    <nd ref="270603513"/>
    <nd ref="270603514"/>
    <nd ref="270603515"/>
    <nd ref="270603516"/>
    <nd ref="270602769"/>
    <tag k="created_by" v="Potlatch 0.10f"/>
    <tag k="highway" v="residential"/>
    <tag k="name" v="Επτανήσου"/>
    <tag k="name:en" v="Eptanisou"/>
  </way>
</osm>
