<?xml version='1.0' encoding='UTF-8'?>
<osm version="0.6" generator="libosmium/2.20.0">
  <way id="25085433" version="3" timestamp="2010-04-03T04:00:29Z" uid="20587" user="balrog-kun" changeset="4309442">
    <nd ref="273000993"/>
    <nd ref="273000997"/>
    <tag k="bridge" v="yes"/>
    <tag k="highway" v="secondary"/>
    <tag k="layer" v="2"/>
    <tag k="name" v="Hipkoe Drive"/>
    <tag k="tiger:cfcc" v="A41"/>
    <tag k="tiger:county" v="Navajo, AZ"/>
    <tag k="tiger:name_base" v="Hipkoe"/>
    <tag k="tiger:name_type" v="Dr"/>
    <tag k="tiger:separated" v="no"/>
    <tag k="tiger:source" v="tiger_import_dch_v0.6_20070809"/>
    <tag k="tiger:tlid" v="172492270:172492442:172492445:172491167"/>
    <tag k="tiger:zip_left" v="86047"/>
    <tag k="tiger:zip_right" v="86047"/>
  </way>
  <way id="25085434" version="3" timestamp="2010-04-03T04:00:30Z" uid="20587" user="balrog-kun" changeset="4309442">
    <nd ref="175636052"/>
    <nd ref="175636050"/>
    <nd ref="175636048"/>
    <nd ref="272991370"/>
    <nd ref="175636046"/>
    <nd ref="175564720"/>
    <tag k="highway" v="residential"/>
    <tag k="name" v="Hipkoe Drive"/>
    <tag k="tiger:cfcc" v="A41"/>
    <tag k="tiger:county" v="Navajo, AZ"/>
    <tag k="tiger:name_base" v="Hipkoe"/>
    <tag k="tiger:name_type" v="Dr"/>
    <tag k="tiger:separated" v="no"/>
    <tag k="tiger:source" v="tiger_import_dch_v0.6_20070809"/>
    <tag k="tiger:tlid" v="172492270:172492442:172492445:172491167"/>
    <tag k="tiger:zip_left" v="86047"/>
    <tag k="tiger:zip_right" v="86047"/>
  </way>
  <way id="25085522" version="1" timestamp="2008-06-25T04:41:06Z" uid="30201" user="rrankin" changeset="290148">
    <nd ref="273002253"/>
    <nd ref="273002261"/>
    <tag k="highway" v="residential"/>
    <tag k="name" v="Banool Street"/>
    <tag k="source" v="yahoo"/>
  </way>
  <way id="25085522" version="2" timestamp="2009-12-22T09:49:37Z" uid="7617" user="Franc" changeset="3425720">
    <nd ref="273002253"/>
    <nd ref="273002261"/>
    <tag k="highway" v="residential"/>
    <tag k="name" v="Banool Street"/>
    <tag k="source" v="nearmap"/>
  </way>
  <way id="25085522" version="3" timestamp="2010-07-08T01:54:21Z" uid="74617" user="JohnSmith" changeset="5162525">
    <nd ref="273002253"/>
    <nd ref="273002261"/>
    <tag k="highway" v="residential"/>
    <tag k="maxspeed" v="50"/>
    <tag k="maxspeed:source" v="default residential speed limit in Australia"/>
    <tag k="name" v="Banool Street"/>
    <tag k="source" v="nearmap"/>
  </way>
  <way id="25085523" version="1" timestamp="2008-06-25T04:41:07Z" uid="30201" user="rrankin" changeset="290148">
    <nd ref="273002268"/>
    <nd ref="273002276"/>
    <tag k="highway" v="residential"/>
    <tag k="name" v="Moora Street"/>
    <tag k="source" v="yahoo"/>
  </way>
  <way id="25085523" version="2" timestamp="2009-12-22T08:15:53Z" uid="7617" user="Franc" changeset="3425286">
    <nd ref="273002268"/>
    <nd ref="273002276"/>
    <tag k="highway" v="residential"/>
    <tag k="name" v="Moora Street"/>
    <tag k="source" v="nearmap"/>
  </way>
  <way id="25085523" version="3" timestamp="2010-07-08T01:56:34Z" uid="74617" user="JohnSmith" changeset="5162525">
    <nd ref="273002268"/>
    <nd ref="273002276"/>
    <tag k="highway" v="residential"/>
    <tag k="maxspeed" v="50"/>
    <tag k="maxspeed:source" v="default residential speed limit in Australia"/>
    <tag k="name" v="Moora Street"/>
    <tag k="source" v="nearmap"/>
  </way>
  <way id="25085524" version="1" timestamp="2008-06-25T04:41:08Z" uid="30201" user="rrankin" changeset="290148">
    <nd ref="273002283"/>
    <nd ref="273002356"/>
    <nd ref="273002341"/>
    <nd ref="272977146"/>
    <nd ref="273002290"/>
    <nd ref="273002296"/>
    <tag k="highway" v="residential"/>
    <tag k="name" v="Virgil Avenue"/>
    <tag k="source" v="yahoo"/>
  </way>
  <way id="25085524" version="2" timestamp="2008-06-25T06:49:43Z" uid="30201" user="rrankin" changeset="290148">
    <nd ref="273002283"/>
    <nd ref="273056521"/>
    <nd ref="273002356"/>
    <nd ref="273002341"/>
    <nd ref="272977146"/>
    <nd ref="273002290"/>
    <nd ref="273002296"/>
    <tag k="highway" v="residential"/>
    <tag k="name" v="Virgil Avenue"/>
    <tag k="source" v="yahoo"/>
  </way>
  <way id="25085524" version="3" timestamp="2008-06-25T07:12:58Z" uid="30201" user="rrankin" changeset="290148">
    <nd ref="273002283"/>
    <nd ref="273067147"/>
    <nd ref="273067007"/>
    <nd ref="273067136"/>
    <nd ref="273066997"/>
    <nd ref="273066983"/>
    <nd ref="273056521"/>
    <nd ref="273067074"/>
    <nd ref="273002356"/>
    <nd ref="273067059"/>
    <nd ref="273002341"/>
    <nd ref="273067044"/>
    <nd ref="272977146"/>
    <nd ref="273002290"/>
    <nd ref="273002296"/>
    <tag k="highway" v="residential"/>
    <tag k="name" v="Virgil Avenue"/>
    <tag k="source" v="yahoo"/>
  </way>
  <way id="25085524" version="4" timestamp="2009-12-22T08:15:53Z" uid="7617" user="Franc" changeset="3425286">
    <nd ref="273002283"/>
    <nd ref="273067147"/>
    <nd ref="273067007"/>
    <nd ref="273067136"/>
    <nd ref="273066997"/>
    <nd ref="273066983"/>
    <nd ref="273056521"/>
    <nd ref="273067074"/>
    <nd ref="273002356"/>
    <nd ref="273067059"/>
    <nd ref="273002341"/>
    <nd ref="273067044"/>
    <nd ref="598066734"/>
    <tag k="highway" v="residential"/>
    <tag k="name" v="Virgil Avenue"/>
    <tag k="source" v="yahoo"/>
  </way>
  <way id="25085524" version="5" timestamp="2010-07-08T01:57:10Z" uid="74617" user="JohnSmith" changeset="5162525">
    <nd ref="273002283"/>
    <nd ref="273067147"/>
    <nd ref="273067007"/>
    <nd ref="273067136"/>
    <nd ref="273066997"/>
    <nd ref="273066983"/>
    <nd ref="273056521"/>
    <nd ref="273067074"/>
    <nd ref="273002356"/>
    <nd ref="273067059"/>
    <nd ref="273002341"/>
    <nd ref="273067044"/>
    <nd ref="598066734"/>
    <tag k="highway" v="residential"/>
    <tag k="maxspeed" v="50"/>
    <tag k="maxspeed:source" v="default residential speed limit in Australia"/>
    <tag k="name" v="Virgil Avenue"/>
    <tag k="source" v="yahoo"/>
  </way>
  <way id="25085525" version="1" timestamp="2008-06-25T04:41:09Z" uid="30201" user="rrankin" changeset="290148">
    <nd ref="273002303"/>
    <nd ref="273002309"/>
    <tag k="highway" v="residential"/>
    <tag k="name" v="Biara Street"/>
    <tag k="source" v="yahoo"/>
  </way>
  <way id="25085525" version="2" timestamp="2008-06-25T04:48:08Z" uid="30201" user="rrankin" changeset="290148">
    <nd ref="273002303"/>
    <nd ref="273005662"/>
    <nd ref="273002309"/>
    <tag k="highway" v="residential"/>
    <tag k="name" v="Biara Street"/>
    <tag k="source" v="yahoo"/>
  </way>
  <way id="25085525" version="3" timestamp="2009-12-22T08:15:53Z" uid="7617" user="Franc" changeset="3425286">
    <nd ref="273002303"/>
    <nd ref="273005662"/>
    <nd ref="273002309"/>
    <tag k="highway" v="residential"/>
    <tag k="name" v="Biara Street"/>
    <tag k="source" v="nearmap"/>
  </way>
  <way id="25085525" version="4" timestamp="2010-07-08T01:59:20Z" uid="74617" user="JohnSmith" changeset="5162525">
    <nd ref="273002303"/>
    <nd ref="273005662"/>
    <nd ref="273002309"/>
    <tag k="highway" v="residential"/>
    <tag k="maxspeed" v="50"/>
    <tag k="maxspeed:source" v="default residential speed limit in Australia"/>
    <tag k="name" v="Biara Street"/>
    <tag k="source" v="nearmap"/>
  </way>
  <way id="25085526" version="1" timestamp="2008-06-25T04:41:10Z" uid="30201" user="rrankin" changeset="290148">
    <nd ref="273002316"/>
    <nd ref="273002348"/>
    <nd ref="273002363"/>
    <nd ref="273002325"/>
    <nd ref="273002333"/>
    <tag k="highway" v="service"/>
    <tag k="source" v="yahoo"/>
  </way>
  <way id="25085526" version="2" timestamp="2008-06-25T06:49:44Z" uid="30201" user="rrankin" changeset="290148">
    <nd ref="273002316"/>
    <nd ref="273002348"/>
    <nd ref="273002363"/>
    <nd ref="273056515"/>
    <nd ref="273002325"/>
    <nd ref="273002333"/>
    <tag k="highway" v="service"/>
    <tag k="source" v="yahoo"/>
  </way>
  <way id="25085526" version="3" timestamp="2008-06-25T07:12:59Z" uid="30201" user="rrankin" changeset="290148">
    <nd ref="273002316"/>
    <nd ref="273002348"/>
    <nd ref="273002363"/>
    <nd ref="273056515"/>
    <nd ref="273067029"/>
    <nd ref="273002325"/>
    <nd ref="273002333"/>
    <tag k="highway" v="service"/>
    <tag k="source" v="yahoo"/>
  </way>
  <way id="25085526" version="4" timestamp="2009-12-22T08:15:57Z" uid="7617" user="Franc" changeset="3425286">
    <nd ref="273002316"/>
    <nd ref="273002348"/>
    <nd ref="273002363"/>
    <nd ref="598066699"/>
    <nd ref="273056515"/>
    <nd ref="273067029"/>
    <nd ref="273002325"/>
    <nd ref="273002333"/>
    <tag k="highway" v="service"/>
    <tag k="source" v="yahoo"/>
  </way>
  <way id="25085527" version="1" timestamp="2008-06-25T04:41:10Z" uid="30201" user="rrankin" changeset="290148">
    <nd ref="273002341"/>
    <nd ref="273002348"/>
    <tag k="highway" v="residential"/>
    <tag k="name" v="Weemala Street"/>
    <tag k="source" v="yahoo"/>
  </way>
  <way id="25085527" version="2" timestamp="2009-12-22T08:15:54Z" uid="7617" user="Franc" changeset="3425286">
    <nd ref="273002341"/>
    <nd ref="273002348"/>
    <tag k="highway" v="residential"/>
    <tag k="name" v="Weemala Street"/>
    <tag k="source" v="nearmap"/>
  </way>
  <way id="25085527" version="3" timestamp="2010-07-08T01:54:52Z" uid="74617" user="JohnSmith" changeset="5162525">
    <nd ref="273002341"/>
    <nd ref="273002348"/>
    <tag k="highway" v="residential"/>
    <tag k="maxspeed" v="50"/>
    <tag k="maxspeed:source" v="default residential speed limit in Australia"/>
    <tag k="name" v="Weemala Street"/>
    <tag k="source" v="nearmap"/>
  </way>
  <way id="25085529" version="1" timestamp="2008-06-25T04:41:11Z" uid="30201" user="rrankin" changeset="290148">
    <nd ref="273002356"/>
    <nd ref="273002363"/>
    <nd ref="273002370"/>
    <tag k="highway" v="residential"/>
    <tag k="name" v="Bent Street"/>
    <tag k="source" v="yahoo"/>
  </way>
  <way id="25085529" version="2" timestamp="2008-06-25T07:13:00Z" uid="30201" user="rrankin" changeset="290148">
    <nd ref="273002356"/>
    <nd ref="273067015"/>
    <nd ref="273002363"/>
    <nd ref="273002370"/>
    <tag k="highway" v="residential"/>
    <tag k="name" v="Bent Street"/>
    <tag k="source" v="yahoo"/>
  </way>
  <way id="25085529" version="3" timestamp="2009-12-21T23:58:22Z" uid="7617" user="Franc" changeset="3424105">
    <nd ref="273002356"/>
    <nd ref="273067015"/>
    <nd ref="273002363"/>
    <nd ref="597929042"/>
    <nd ref="273002370"/>
    <tag k="highway" v="residential"/>
    <tag k="name" v="Bent Street"/>
    <tag k="source" v="yahoo"/>
  </way>
  <way id="25085529" version="4" timestamp="2009-12-22T10:18:50Z" uid="7617" user="Franc" changeset="3425898">
    <nd ref="273002356"/>
    <nd ref="273067015"/>
    <nd ref="273002363"/>
    <nd ref="597929042"/>
    <nd ref="273002370"/>
    <tag k="highway" v="residential"/>
    <tag k="name" v="Bent Street"/>
    <tag k="source" v="nearmap"/>
  </way>
  <way id="25085529" version="5" timestamp="2010-07-08T01:57:39Z" uid="74617" user="JohnSmith" changeset="5162525">
    <nd ref="273002356"/>
    <nd ref="273067015"/>
    <nd ref="273002363"/>
    <nd ref="597929042"/>
    <nd ref="273002370"/>
    <tag k="highway" v="residential"/>
    <tag k="maxspeed" v="50"/>
    <tag k="maxspeed:source" v="default residential speed limit in Australia"/>
    <tag k="name" v="Bent Street"/>
    <tag k="source" v="nearmap"/>
  </way>
  <way id="25085695" version="7" timestamp="2009-03-10T19:22:30Z" uid="6975" user="ulfl" changeset="777500">
    <nd ref="94059744"/>
    <nd ref="325907776"/>
    <nd ref="325907767"/>
    <nd ref="325907747"/>
    <nd ref="325907733"/>
    <nd ref="26897888"/>
    <nd ref="26897889"/>
    <nd ref="275361424"/>
    <nd ref="26897890"/>
    <tag k="created_by" v="Potlatch 0.9c"/>
    <tag k="highway" v="primary"/>
    <tag k="name" v="Münchener Straße"/>
    <tag k="oneway" v="true"/>
    <tag k="ref" v="B 8"/>
  </way>
  <way id="25085764" version="1" timestamp="2008-06-25T04:48:01Z" uid="30201" user="rrankin" changeset="290148">
    <nd ref="273005638"/>
    <nd ref="273005700"/>
    <nd ref="273005669"/>
    <nd ref="273005655"/>
    <nd ref="273005647"/>
    <tag k="highway" v="residential"/>
    <tag k="name" v="Curtis Road"/>
    <tag k="source" v="yahoo"/>
  </way>
  <way id="25085764" version="2" timestamp="2009-12-22T08:15:52Z" uid="7617" user="Franc" changeset="3425286">
    <nd ref="273005638"/>
    <nd ref="273005700"/>
    <nd ref="598066667"/>
    <nd ref="273005669"/>
    <nd ref="273005655"/>
    <nd ref="598066784"/>
    <nd ref="273005647"/>
    <tag k="highway" v="residential"/>
    <tag k="name" v="Curtis Road"/>
    <tag k="source" v="yahoo"/>
  </way>
  <way id="25085764" version="3" timestamp="2010-07-08T01:52:43Z" uid="74617" user="JohnSmith" changeset="5162525">
    <nd ref="273005638"/>
    <nd ref="273005700"/>
    <nd ref="598066667"/>
    <nd ref="273005669"/>
    <nd ref="273005655"/>
    <nd ref="598066784"/>
    <nd ref="273005647"/>
    <tag k="highway" v="residential"/>
    <tag k="maxspeed" v="50"/>
    <tag k="maxspeed:source" v="default residential speed limit in Australia"/>
    <tag k="name" v="Curtis Road"/>
    <tag k="source" v="yahoo"/>
  </way>
  <way id="25085765" version="1" timestamp="2008-06-25T04:48:02Z" uid="30201" user="rrankin" changeset="290148">
    <nd ref="273005655"/>
    <nd ref="273005662"/>
    <tag k="highway" v="residential"/>
    <tag k="name" v="Wingara Street"/>
    <tag k="source" v="yahoo"/>
  </way>
  <way id="25085765" version="2" timestamp="2009-12-22T08:15:58Z" uid="7617" user="Franc" changeset="3425286">
    <nd ref="273005655"/>
    <nd ref="273005662"/>
    <tag k="highway" v="residential"/>
    <tag k="name" v="Wingara Street"/>
    <tag k="source" v="nearmap"/>
  </way>
  <way id="25085765" version="3" timestamp="2010-07-08T01:54:57Z" uid="74617" user="JohnSmith" changeset="5162525">
    <nd ref="273005655"/>
    <nd ref="273005662"/>
    <tag k="highway" v="residential"/>
    <tag k="maxspeed" v="50"/>
    <tag k="maxspeed:source" v="default residential speed limit in Australia"/>
    <tag k="name" v="Wingara Street"/>
    <tag k="source" v="nearmap"/>
  </way>
  <way id="25085766" version="1" timestamp="2008-06-25T04:48:03Z" uid="30201" user="rrankin" changeset="290148">
    <nd ref="273005669"/>
    <nd ref="273005686"/>
    <nd ref="273005678"/>
    <tag k="highway" v="residential"/>
    <tag k="name" v="Ashton Avenue"/>
    <tag k="source" v="yahoo"/>
  </way>
  <way id="25085766" version="2" timestamp="2009-12-22T08:15:58Z" uid="7617" user="Franc" changeset="3425286">
    <nd ref="273005669"/>
    <nd ref="273005686"/>
    <nd ref="598066744"/>
    <nd ref="273005678"/>
    <tag k="highway" v="residential"/>
    <tag k="name" v="Ashton Avenue"/>
    <tag k="source" v="nearmap"/>
  </way>
  <way id="25085766" version="3" timestamp="2010-07-08T01:58:37Z" uid="74617" user="JohnSmith" changeset="5162525">
    <nd ref="273005669"/>
    <nd ref="273005686"/>
    <nd ref="598066744"/>
    <nd ref="273005678"/>
    <tag k="highway" v="residential"/>
    <tag k="maxspeed" v="50"/>
    <tag k="maxspeed:source" v="default residential speed limit in Australia"/>
    <tag k="name" v="Ashton Avenue"/>
    <tag k="source" v="nearmap"/>
  </way>
  <way id="25085768" version="1" timestamp="2008-06-25T04:48:04Z" uid="30201" user="rrankin" changeset="290148">
    <nd ref="273005686"/>
    <nd ref="273005693"/>
    <tag k="highway" v="residential"/>
    <tag k="name" v="Peek Place"/>
    <tag k="source" v="yahoo"/>
  </way>
  <way id="25085768" version="2" timestamp="2009-12-22T08:15:59Z" uid="7617" user="Franc" changeset="3425286">
    <nd ref="273005686"/>
    <nd ref="273005693"/>
    <tag k="highway" v="residential"/>
    <tag k="name" v="Peek Place"/>
    <tag k="source" v="nearmap"/>
  </way>
  <way id="25085768" version="3" timestamp="2010-07-08T02:01:53Z" uid="74617" user="JohnSmith" changeset="5162525">
    <nd ref="273005686"/>
    <nd ref="273005693"/>
    <tag k="highway" v="residential"/>
    <tag k="maxspeed" v="50"/>
    <tag k="maxspeed:source" v="default residential speed limit in Australia"/>
    <tag k="name" v="Peek Place"/>
    <tag k="source" v="nearmap"/>
  </way>
  <way id="25085770" version="1" timestamp="2008-06-25T04:48:06Z" uid="30201" user="rrankin" changeset="290148">
    <nd ref="273005700"/>
    <nd ref="273005707"/>
    <nd ref="273005714"/>
    <nd ref="273005719"/>
    <tag k="highway" v="residential"/>
    <tag k="name" v="Larkview Avenue"/>
    <tag k="source" v="yahoo"/>
  </way>
  <way id="25085770" version="2" timestamp="2009-12-22T08:15:53Z" uid="7617" user="Franc" changeset="3425286">
    <nd ref="273005700"/>
    <nd ref="598066666"/>
    <nd ref="598066668"/>
    <nd ref="273005707"/>
    <nd ref="598066664"/>
    <nd ref="598066665"/>
    <nd ref="273005714"/>
    <nd ref="273005719"/>
    <tag k="highway" v="residential"/>
    <tag k="name" v="Larkview Avenue"/>
    <tag k="source" v="yahoo"/>
  </way>
  <way id="25085770" version="3" timestamp="2010-07-08T01:57:16Z" uid="74617" user="JohnSmith" changeset="5162525">
    <nd ref="273005700"/>
    <nd ref="598066666"/>
    <nd ref="598066668"/>
    <nd ref="273005707"/>
    <nd ref="598066664"/>
    <nd ref="598066665"/>
    <nd ref="273005714"/>
    <nd ref="273005719"/>
    <tag k="highway" v="residential"/>
    <tag k="maxspeed" v="50"/>
    <tag k="maxspeed:source" v="default residential speed limit in Australia"/>
    <tag k="name" v="Larkview Avenue"/>
    <tag k="source" v="yahoo"/>
  </way>
</osm>
