<?xml version='1.0' encoding='UTF-8'?>
<osm version="0.6" generator="libosmium/2.20.0">
  <way id="25084081" version="2" timestamp="2010-03-27T23:43:27Z" uid="20587" user="balrog-kun" changeset="4250871">
    <nd ref="87525867"/>
    <nd ref="87549635"/>
    <nd ref="87586512"/>
    <nd ref="87480243"/>
    <nd ref="87530903"/>
    <nd ref="87509153"/>
    <tag k="created_by" v="Potlatch 0.9c"/>
    <tag k="highway" v="residential"/>
    <tag k="name" v="Celeste Avenue"/>
    <tag k="tiger:cfcc" v="A41"/>
    <tag k="tiger:county" v="Fresno, CA"/>
    <tag k="tiger:name_base" v="Celeste"/>
    <tag k="tiger:name_type" v="Ave"/>
    <tag k="tiger:reviewed" v="no"/>
    <tag k="tiger:separated" v="no"/>
    <tag k="tiger:source" v="tiger_import_dch_v0.6_20070809"/>
    <tag k="tiger:tlid" v="197620087:197620088:197607134:197584612:197607191:197607192"/>
  </way>
  <way id="25084084" version="5" timestamp="2010-03-27T23:43:27Z" uid="20587" user="balrog-kun" changeset="4250871">
    <nd ref="272978286"/>
    <nd ref="272978393"/>
    <tag k="created_by" v="Potlatch 0.9c"/>
    <tag k="highway" v="residential"/>
    <tag k="name" v="Celeste Avenue"/>
    <tag k="tiger:cfcc" v="A41"/>
    <tag k="tiger:county" v="Fresno, CA"/>
    <tag k="tiger:name_base" v="Celeste"/>
    <tag k="tiger:name_type" v="Ave"/>
    <tag k="tiger:reviewed" v="no"/>
    <tag k="tiger:separated" v="no"/>
    <tag k="tiger:source" v="tiger_import_dch_v0.6_20070809"/>
    <tag k="tiger:tlid" v="197620087:197620088:197607134:197584612:197607191:197607192"/>
  </way>
  <way id="25084300" version="3" timestamp="2008-12-29T03:39:20Z" uid="30201" user="rrankin" changeset="654635">
    <nd ref="272981779"/>
    <nd ref="272982223"/>
    <nd ref="272981858"/>
    <nd ref="272981859"/>
    <tag k="created_by" v="Potlatch 0.9c"/>
    <tag k="highway" v="residential"/>
    <tag k="name" v="Calabro Avenue"/>
  </way>
  <way id="25084300" version="5" timestamp="2010-07-07T22:25:13Z" uid="74617" user="JohnSmith" changeset="5162525">
    <nd ref="272981779"/>
    <nd ref="272982223"/>
    <nd ref="272981858"/>
    <nd ref="672660523"/>
    <nd ref="272981859"/>
    <tag k="highway" v="residential"/>
    <tag k="maxspeed" v="50"/>
    <tag k="maxspeed:source" v="default residential speed limit in Australia"/>
    <tag k="name" v="Calabro Avenue"/>
  </way>
  <way id="25084314" version="2" timestamp="2008-12-29T03:39:12Z" uid="30201" user="rrankin" changeset="654635">
    <nd ref="272981858"/>
    <nd ref="272982217"/>
    <tag k="created_by" v="Potlatch 0.9c"/>
    <tag k="highway" v="residential"/>
    <tag k="name" v="William Street"/>
  </way>
  <way id="25084314" version="3" timestamp="2010-07-07T22:30:39Z" uid="74617" user="JohnSmith" changeset="5162525">
    <nd ref="272981858"/>
    <nd ref="272982217"/>
    <tag k="highway" v="residential"/>
    <tag k="maxspeed" v="50"/>
    <tag k="maxspeed:source" v="default residential speed limit in Australia"/>
    <tag k="name" v="William Street"/>
  </way>
  <way id="25084317" version="2" timestamp="2008-12-29T03:39:13Z" uid="30201" user="rrankin" changeset="654635">
    <nd ref="272982223"/>
    <nd ref="272982253"/>
    <tag k="created_by" v="Potlatch 0.9c"/>
    <tag k="highway" v="residential"/>
    <tag k="name" v="Thelma Street"/>
  </way>
  <way id="25084317" version="3" timestamp="2010-07-07T22:35:09Z" uid="74617" user="JohnSmith" changeset="5162525">
    <nd ref="272982223"/>
    <nd ref="272982253"/>
    <tag k="highway" v="residential"/>
    <tag k="maxspeed" v="50"/>
    <tag k="maxspeed:source" v="default residential speed limit in Australia"/>
    <tag k="name" v="Thelma Street"/>
  </way>
  <way id="25084329" version="2" timestamp="2008-09-11T05:21:27Z" uid="30201" user="rrankin" changeset="606668">
    <nd ref="272982322"/>
    <nd ref="288324305"/>
    <nd ref="272982410"/>
    <tag k="created_by" v="Potlatch 0.9c"/>
    <tag k="highway" v="residential"/>
  </way>
  <way id="25084329" version="3" timestamp="2008-12-29T03:39:18Z" uid="30201" user="rrankin" changeset="654635">
    <nd ref="272982322"/>
    <nd ref="288324305"/>
    <nd ref="272982410"/>
    <tag k="created_by" v="Potlatch 0.9c"/>
    <tag k="highway" v="residential"/>
    <tag k="name" v="Wonga Road"/>
  </way>
  <way id="25084329" version="4" timestamp="2010-07-07T22:33:08Z" uid="74617" user="JohnSmith" changeset="5162525">
    <nd ref="272982322"/>
    <nd ref="288324305"/>
    <nd ref="272982410"/>
    <tag k="highway" v="residential"/>
    <tag k="maxspeed" v="50"/>
    <tag k="maxspeed:source" v="default residential speed limit in Australia"/>
    <tag k="name" v="Wonga Road"/>
  </way>
  <way id="25084344" version="2" timestamp="2008-09-11T05:40:11Z" uid="30201" user="rrankin" changeset="606668">
    <nd ref="272982322"/>
    <nd ref="272982599"/>
    <nd ref="272982600"/>
    <nd ref="272982601"/>
    <nd ref="272982602"/>
    <nd ref="272982603"/>
    <nd ref="36401464"/>
    <tag k="created_by" v="Potlatch 0.9c"/>
    <tag k="highway" v="residential"/>
  </way>
  <way id="25084344" version="3" timestamp="2008-10-24T09:00:48Z" uid="30201" user="rrankin" changeset="553095">
    <nd ref="272982322"/>
    <nd ref="272982599"/>
    <nd ref="272982600"/>
    <nd ref="272982601"/>
    <nd ref="272982602"/>
    <nd ref="288327890"/>
    <nd ref="36401464"/>
    <tag k="created_by" v="Potlatch 0.9c"/>
    <tag k="highway" v="residential"/>
  </way>
  <way id="25084344" version="4" timestamp="2008-12-29T00:39:58Z" uid="30201" user="rrankin" changeset="654635">
    <nd ref="272982322"/>
    <nd ref="272982599"/>
    <nd ref="272982600"/>
    <nd ref="272982601"/>
    <nd ref="272982602"/>
    <nd ref="288327890"/>
    <nd ref="36401464"/>
    <tag k="created_by" v="Potlatch 0.9c"/>
    <tag k="highway" v="residential"/>
    <tag k="name" v="Wonga Road"/>
  </way>
  <way id="25084344" version="5" timestamp="2010-07-07T22:25:04Z" uid="74617" user="JohnSmith" changeset="5162525">
    <nd ref="272982322"/>
    <nd ref="272982599"/>
    <nd ref="272982600"/>
    <nd ref="272982601"/>
    <nd ref="272982602"/>
    <nd ref="288327890"/>
    <nd ref="36401464"/>
    <tag k="highway" v="residential"/>
    <tag k="maxspeed" v="50"/>
    <tag k="maxspeed:source" v="default residential speed limit in Australia"/>
    <tag k="name" v="Wonga Road"/>
  </way>
  <way id="25084344" version="6" timestamp="2010-07-24T13:44:44Z" uid="30201" user="rrankin" changeset="5304046">
    <nd ref="272982322"/>
    <nd ref="272982599"/>
    <nd ref="272982600"/>
    <nd ref="272982601"/>
    <nd ref="831307039"/>
    <tag k="highway" v="residential"/>
    <tag k="maxspeed" v="50"/>
    <tag k="maxspeed:source" v="default residential speed limit in Australia"/>
    <tag k="name" v="Wonga Road"/>
  </way>
  <way id="25084375" version="4" timestamp="2008-09-11T05:21:33Z" uid="30201" user="rrankin" changeset="606668">
    <nd ref="36400232"/>
    <nd ref="288326488"/>
    <nd ref="288325796"/>
    <nd ref="288325769"/>
    <nd ref="272983096"/>
    <tag k="created_by" v="Potlatch 0.10b"/>
    <tag k="highway" v="residential"/>
  </way>
  <way id="25084375" version="5" timestamp="2008-12-29T00:39:52Z" uid="30201" user="rrankin" changeset="654635">
    <nd ref="36400232"/>
    <nd ref="288326488"/>
    <nd ref="288325796"/>
    <nd ref="288325769"/>
    <nd ref="272983096"/>
    <tag k="created_by" v="Potlatch 0.10b"/>
    <tag k="highway" v="residential"/>
    <tag k="name" v="Reiley Street"/>
  </way>
  <way id="25084375" version="6" timestamp="2010-06-29T12:41:54Z" uid="7617" user="Franc" changeset="5105665">
    <nd ref="36400232"/>
    <nd ref="795791409"/>
    <tag k="highway" v="residential"/>
    <tag k="name" v="Reiley Street"/>
  </way>
  <way id="25084375" version="7" timestamp="2010-07-07T22:28:41Z" uid="74617" user="JohnSmith" changeset="5162525">
    <nd ref="36400232"/>
    <nd ref="795791409"/>
    <tag k="highway" v="residential"/>
    <tag k="maxspeed" v="50"/>
    <tag k="maxspeed:source" v="default residential speed limit in Australia"/>
    <tag k="name" v="Reiley Street"/>
  </way>
  <way id="25084391" version="3" timestamp="2008-12-28T23:46:12Z" uid="30201" user="rrankin" changeset="654635">
    <nd ref="286726038"/>
    <nd ref="286726031"/>
    <nd ref="272983312"/>
    <nd ref="272983384"/>
    <tag k="created_by" v="Potlatch 0.10b"/>
    <tag k="highway" v="residential"/>
    <tag k="name" v="Lyn Parade"/>
  </way>
  <way id="25084391" version="4" timestamp="2010-01-10T00:17:34Z" uid="30201" user="rrankin" changeset="3583634">
    <nd ref="286726038"/>
    <nd ref="286726031"/>
    <nd ref="272983312"/>
    <nd ref="272983384"/>
    <nd ref="610642429"/>
    <nd ref="610642430"/>
    <nd ref="610642312"/>
    <nd ref="610642307"/>
    <nd ref="610642302"/>
    <nd ref="610642311"/>
    <nd ref="610642303"/>
    <tag k="highway" v="residential"/>
    <tag k="name" v="Lyn Parade"/>
  </way>
  <way id="25084391" version="5" timestamp="2010-05-23T03:05:00Z" uid="7617" user="Franc" changeset="4779729">
    <nd ref="286726038"/>
    <nd ref="286726031"/>
    <nd ref="272983312"/>
    <nd ref="272983384"/>
    <nd ref="610642429"/>
    <nd ref="610642430"/>
    <nd ref="746015319"/>
    <nd ref="610642312"/>
    <nd ref="610642307"/>
    <nd ref="610642302"/>
    <nd ref="610642311"/>
    <nd ref="610642303"/>
    <tag k="highway" v="residential"/>
    <tag k="name" v="Lyn Parade"/>
  </way>
  <way id="25084391" version="6" timestamp="2010-07-07T22:34:37Z" uid="74617" user="JohnSmith" changeset="5162525">
    <nd ref="286726038"/>
    <nd ref="286726031"/>
    <nd ref="272983312"/>
    <nd ref="272983384"/>
    <nd ref="610642429"/>
    <nd ref="610642430"/>
    <nd ref="746015319"/>
    <nd ref="610642312"/>
    <nd ref="610642307"/>
    <nd ref="610642302"/>
    <nd ref="610642311"/>
    <nd ref="610642303"/>
    <tag k="highway" v="residential"/>
    <tag k="maxspeed" v="50"/>
    <tag k="maxspeed:source" v="default residential speed limit in Australia"/>
    <tag k="name" v="Lyn Parade"/>
  </way>
  <way id="25084661" version="8" timestamp="2010-04-14T20:26:44Z" uid="115477" user="wowik" changeset="4426112">
    <nd ref="273104832"/>
    <nd ref="697059237"/>
    <nd ref="272988522"/>
    <nd ref="272988523"/>
    <nd ref="272988524"/>
    <nd ref="272988526"/>
    <nd ref="272988527"/>
    <nd ref="676546568"/>
    <nd ref="272988528"/>
    <nd ref="676546569"/>
    <nd ref="272613234"/>
    <tag k="addr:postcode" v="119049"/>
    <tag k="cladr:code" v="77000000000163100"/>
    <tag k="cladr:name" v="Крымская"/>
    <tag k="cladr:suffix" v="Набережная"/>
    <tag k="highway" v="tertiary"/>
    <tag k="name" v="Крымская набережная"/>
    <tag k="omkum:code" v="12500"/>
    <tag k="sorting_name" v="Крымская  набережная"/>
  </way>
  <way id="25084671" version="10" timestamp="2011-04-04T19:37:03Z" uid="115477" user="wowik" changeset="7768600">
    <nd ref="272613234"/>
    <nd ref="287862099"/>
    <nd ref="1232846615"/>
    <nd ref="272613220"/>
    <tag k="addr:postcode" v="119180"/>
    <tag k="cladr:code" v="77000000000320700"/>
    <tag k="cladr:name" v="Якиманская"/>
    <tag k="cladr:suffix" v="Набережная"/>
    <tag k="highway" v="tertiary"/>
    <tag k="name" v="Якиманская набережная"/>
    <tag k="omkum:code" v="32390"/>
    <tag k="oneway" v="yes"/>
    <tag k="sorting_name" v="Якиманская  набережная"/>
  </way>
  <way id="25084736" version="2" timestamp="2008-07-07T19:25:57Z" uid="6975" user="ulfl" changeset="420350">
    <nd ref="146312119"/>
    <nd ref="272989313"/>
    <nd ref="272989318"/>
    <nd ref="272989320"/>
    <nd ref="272989322"/>
    <nd ref="272989324"/>
    <nd ref="272989325"/>
    <nd ref="272989326"/>
    <nd ref="272989330"/>
    <nd ref="272989333"/>
    <tag k="highway" v="primary"/>
    <tag k="name" v="Provincial Highway 6"/>
    <tag k="ref" v="6"/>
  </way>
</osm>
