<?xml version='1.0' encoding='UTF-8'?>
<osm version="0.6" generator="libosmium/2.20.0">
  <way id="25120205" version="2" timestamp="2008-06-26T22:14:32Z" uid="6975" user="ulfl" changeset="308273">
    <nd ref="272048843"/>
    <nd ref="272048845"/>
    <tag k="highway" v="footway"/>
  </way>
  <way id="25120206" version="2" timestamp="2008-06-26T22:13:11Z" uid="6975" user="ulfl" changeset="308273">
    <nd ref="273500779"/>
    <nd ref="273500782"/>
    <nd ref="272048841"/>
    <tag k="highway" v="residential"/>
    <tag k="maxspeed" v="30"/>
    <tag k="name" v="Herbartstrasse"/>
  </way>
  <way id="25120206" version="3" timestamp="2008-06-26T22:14:32Z" uid="6975" user="ulfl" changeset="308273">
    <nd ref="272048838"/>
    <nd ref="272048843"/>
    <nd ref="272048841"/>
    <tag k="highway" v="residential"/>
    <tag k="maxspeed" v="30"/>
    <tag k="name" v="Herbartstrasse"/>
  </way>
  <way id="25120207" version="2" timestamp="2008-06-26T22:14:32Z" uid="6975" user="ulfl" changeset="308273">
    <nd ref="273500794"/>
    <nd ref="272048863"/>
    <nd ref="27131589"/>
    <tag k="cycleway" v="opposite"/>
    <tag k="highway" v="pedestrian"/>
    <tag k="name" v="Schützenstrasse"/>
  </way>
  <way id="25120207" version="3" timestamp="2008-06-26T22:19:49Z" uid="6975" user="ulfl" changeset="308273">
    <nd ref="272048865"/>
    <nd ref="272048863"/>
    <nd ref="27131589"/>
    <tag k="cycleway" v="opposite"/>
    <tag k="highway" v="pedestrian"/>
    <tag k="name" v="Schützenstrasse"/>
  </way>
  <way id="25120207" version="4" timestamp="2008-06-26T22:27:37Z" uid="6975" user="ulfl" changeset="308273"/>
  <way id="25120208" version="2" timestamp="2008-06-26T22:19:48Z" uid="6975" user="ulfl" changeset="308273">
    <nd ref="272048880"/>
    <nd ref="272048882"/>
    <nd ref="272048884"/>
    <nd ref="272048865"/>
    <tag k="bicycle" v="yes"/>
    <tag k="highway" v="pedestrian"/>
    <tag k="name" v="Hintere Bleiweißstrasse"/>
  </way>
  <way id="25120208" version="3" timestamp="2008-06-26T22:25:06Z" uid="6975" user="ulfl" changeset="308273"/>
  <way id="25120209" version="2" timestamp="2008-06-26T22:14:31Z" uid="6975" user="ulfl" changeset="308273">
    <nd ref="272048826"/>
    <nd ref="272048838"/>
    <nd ref="272048840"/>
    <tag k="highway" v="residential"/>
    <tag k="maxspeed" v="30"/>
    <tag k="name" v="Herbartstraße"/>
  </way>
  <way id="25120209" version="3" timestamp="2008-11-16T18:46:47Z" uid="6975" user="ulfl" changeset="756560"/>
  <way id="25120210" version="2" timestamp="2008-06-26T22:19:48Z" uid="6975" user="ulfl" changeset="308273">
    <nd ref="272048869"/>
    <nd ref="272048871"/>
    <tag k="bicycle" v="yes"/>
    <tag k="highway" v="pedestrian"/>
    <tag k="name" v="Andreasstrasse"/>
  </way>
  <way id="25120212" version="2" timestamp="2008-06-26T22:13:10Z" uid="6975" user="ulfl" changeset="308273">
    <nd ref="272048848"/>
    <nd ref="27591551"/>
    <tag k="cycleway" v="opposite_track"/>
  </way>
  <way id="25120213" version="2" timestamp="2008-06-26T22:14:31Z" uid="6975" user="ulfl" changeset="308273">
    <nd ref="273500790"/>
    <nd ref="273500797"/>
    <nd ref="273500791"/>
    <nd ref="273500792"/>
    <nd ref="272048863"/>
    <tag k="cycleway" v="opposite"/>
    <tag k="highway" v="pedestrian"/>
    <tag k="name" v="Holzstrasse"/>
  </way>
  <way id="25120213" version="3" timestamp="2008-06-26T22:16:08Z" uid="6975" user="ulfl" changeset="308273">
    <nd ref="273500790"/>
    <nd ref="273500797"/>
    <nd ref="272048860"/>
    <nd ref="272048861"/>
    <nd ref="272048863"/>
    <tag k="cycleway" v="opposite"/>
    <tag k="highway" v="pedestrian"/>
    <tag k="name" v="Holzstrasse"/>
  </way>
  <way id="25120213" version="4" timestamp="2008-06-26T22:19:48Z" uid="6975" user="ulfl" changeset="308273">
    <nd ref="272048857"/>
    <nd ref="272048871"/>
    <nd ref="272048860"/>
    <nd ref="272048861"/>
    <nd ref="272048863"/>
    <tag k="cycleway" v="opposite"/>
    <tag k="highway" v="pedestrian"/>
    <tag k="name" v="Holzstrasse"/>
  </way>
  <way id="25120213" version="5" timestamp="2008-06-26T22:27:03Z" uid="6975" user="ulfl" changeset="308273"/>
  <way id="25120215" version="2" timestamp="2008-06-26T22:13:10Z" uid="6975" user="ulfl" changeset="308273">
    <nd ref="273500785"/>
    <nd ref="272048851"/>
    <tag k="bicycle" v="yes"/>
    <tag k="highway" v="footway"/>
  </way>
  <way id="25120215" version="3" timestamp="2008-06-26T22:14:31Z" uid="6975" user="ulfl" changeset="308273">
    <nd ref="272048850"/>
    <nd ref="272048851"/>
    <tag k="bicycle" v="yes"/>
    <tag k="highway" v="footway"/>
  </way>
  <way id="25120216" version="2" timestamp="2008-06-26T22:19:48Z" uid="6975" user="ulfl" changeset="308273">
    <nd ref="27591534"/>
    <nd ref="272048884"/>
    <nd ref="27591530"/>
    <tag k="bicycle" v="yes"/>
    <tag k="highway" v="footway"/>
    <tag k="name" v="Agathenweg"/>
  </way>
  <way id="25120216" version="3" timestamp="2008-06-26T22:25:06Z" uid="6975" user="ulfl" changeset="308273"/>
  <way id="25120217" version="2" timestamp="2008-06-26T22:19:48Z" uid="6975" user="ulfl" changeset="308273">
    <nd ref="272048853"/>
    <nd ref="272048855"/>
    <tag k="highway" v="footway"/>
  </way>
  <way id="25120217" version="3" timestamp="2008-06-26T22:28:07Z" uid="6975" user="ulfl" changeset="308273"/>
  <way id="25120218" version="2" timestamp="2008-06-26T22:13:10Z" uid="6975" user="ulfl" changeset="308273">
    <nd ref="272456888"/>
    <nd ref="273471119"/>
    <tag k="bicycle" v="yes"/>
    <tag k="highway" v="footway"/>
  </way>
  <way id="25120219" version="2" timestamp="2008-06-26T22:19:49Z" uid="6975" user="ulfl" changeset="308273">
    <nd ref="27560144"/>
    <nd ref="27560164"/>
    <nd ref="27558504"/>
    <nd ref="27591096"/>
    <nd ref="27591099"/>
    <nd ref="27560201"/>
    <nd ref="27591544"/>
    <nd ref="27591107"/>
    <nd ref="272048853"/>
    <nd ref="27560128"/>
    <tag k="created_by" v="JOSM"/>
    <tag k="highway" v="residential"/>
    <tag k="maxspeed" v="30"/>
    <tag k="name" v="Siegfriedstraße"/>
  </way>
  <way id="25120221" version="2" timestamp="2008-11-15T18:21:00Z" uid="6975" user="ulfl" changeset="751487">
    <nd ref="27591082"/>
    <nd ref="27322881"/>
    <tag k="created_by" v="Potlatch 0.9c"/>
    <tag k="highway" v="residential"/>
    <tag k="maxspeed" v="30"/>
    <tag k="name" v="Holzgartenstraße"/>
  </way>
  <way id="25120307" version="1" timestamp="2008-06-26T20:41:38Z" uid="48039" user="crististm" changeset="306981">
    <nd ref="273492194"/>
    <nd ref="273501897"/>
    <nd ref="273492142"/>
    <tag k="created_by" v="Potlatch 0.9c"/>
  </way>
  <way id="25120307" version="2" timestamp="2008-06-26T20:41:58Z" uid="48039" user="crististm" changeset="306981">
    <nd ref="273492194"/>
    <nd ref="273501897"/>
    <nd ref="273492142"/>
    <tag k="created_by" v="Potlatch 0.9c"/>
    <tag k="highway" v="residential"/>
  </way>
  <way id="25120310" version="1" timestamp="2008-06-26T20:41:49Z" uid="48039" user="crististm" changeset="306981">
    <nd ref="273491185"/>
    <nd ref="273491758"/>
    <tag k="created_by" v="Potlatch 0.9c"/>
  </way>
  <way id="25120310" version="2" timestamp="2008-06-26T20:42:07Z" uid="48039" user="crististm" changeset="306981">
    <nd ref="273491185"/>
    <nd ref="273491758"/>
    <tag k="created_by" v="Potlatch 0.9c"/>
    <tag k="highway" v="residential"/>
  </way>
  <way id="25120440" version="5" timestamp="2010-04-02T17:16:39Z" uid="20587" user="balrog-kun" changeset="4304500">
    <nd ref="53167068"/>
    <nd ref="273505425"/>
    <nd ref="273505407"/>
    <nd ref="273505422"/>
    <nd ref="273505408"/>
    <nd ref="273505420"/>
    <nd ref="53167065"/>
    <nd ref="273505418"/>
    <nd ref="273505409"/>
    <nd ref="273505415"/>
    <nd ref="53167063"/>
    <nd ref="273505410"/>
    <nd ref="273505414"/>
    <nd ref="53167061"/>
    <nd ref="273505413"/>
    <nd ref="273505412"/>
    <nd ref="273505411"/>
    <nd ref="53167059"/>
    <nd ref="53167058"/>
    <nd ref="53167056"/>
    <nd ref="273508534"/>
    <nd ref="273508535"/>
    <nd ref="273503172"/>
    <nd ref="273508547"/>
    <nd ref="273508537"/>
    <nd ref="273508544"/>
    <nd ref="273508533"/>
    <nd ref="273508542"/>
    <nd ref="273508538"/>
    <nd ref="273508540"/>
    <nd ref="273503169"/>
    <nd ref="53187079"/>
    <nd ref="53084585"/>
    <tag k="created_by" v="JOSM"/>
    <tag k="highway" v="residential"/>
    <tag k="name" v="South 332nd Place"/>
    <tag k="tiger:cfcc" v="A41"/>
    <tag k="tiger:county" v="King, WA"/>
    <tag k="tiger:name_base" v="332nd"/>
    <tag k="tiger:name_direction_prefix" v="S"/>
    <tag k="tiger:separated" v="no"/>
    <tag k="tiger:source" v="tiger_import_dch_v0.6_20070830"/>
    <tag k="tiger:tlid" v="186651491"/>
    <tag k="tiger:zip_left" v="98003"/>
  </way>
  <way id="25120441" version="1" timestamp="2008-06-26T20:48:19Z" uid="20587" user="balrog-kun" changeset="304048">
    <nd ref="273503164"/>
    <nd ref="273503174"/>
    <nd ref="273503171"/>
    <nd ref="273503166"/>
    <nd ref="273503168"/>
    <nd ref="273503173"/>
    <nd ref="273503175"/>
    <nd ref="273503170"/>
    <nd ref="273503164"/>
    <tag k="building" v="yes"/>
    <tag k="created_by" v="JOSM"/>
    <tag k="name" v="Muzeum Ziemi PAN"/>
    <tag k="name:en" v="Geological Museum of Polish Academy of Sciences"/>
    <tag k="ref" v="Aleja Na Skarpie 27"/>
    <tag k="tourism" v="museum"/>
  </way>
  <way id="25120441" version="2" timestamp="2008-07-31T14:21:40Z" uid="20587" user="balrog-kun" changeset="633394">
    <nd ref="273503164"/>
    <nd ref="273503174"/>
    <nd ref="273503171"/>
    <nd ref="273503166"/>
    <nd ref="273503168"/>
    <nd ref="273503173"/>
    <nd ref="273503175"/>
    <nd ref="273503170"/>
    <nd ref="273503164"/>
    <tag k="addr:housenumber" v="27"/>
    <tag k="addr:street" v="Aleja Na Skarpie"/>
    <tag k="building" v="yes"/>
    <tag k="created_by" v="JOSM"/>
    <tag k="name" v="Muzeum Ziemi PAN"/>
    <tag k="name:en" v="Geological Museum of Polish Academy of Sciences"/>
    <tag k="tourism" v="museum"/>
  </way>
  <way id="25120441" version="3" timestamp="2008-10-07T17:06:36Z" uid="20587" user="balrog-kun" changeset="135180">
    <nd ref="273503164"/>
    <nd ref="273503174"/>
    <nd ref="273503171"/>
    <nd ref="273503166"/>
    <nd ref="273503168"/>
    <nd ref="273503173"/>
    <nd ref="273503175"/>
    <nd ref="273503170"/>
    <nd ref="273503164"/>
    <tag k="addr:street" v="Aleja Na Skarpie"/>
    <tag k="building" v="yes"/>
    <tag k="created_by" v="JOSM"/>
    <tag k="name" v="Muzeum Ziemi PAN"/>
    <tag k="name:en" v="Geological Museum of Polish Academy of Sciences"/>
    <tag k="tourism" v="museum"/>
  </way>
  <way id="25120441" version="4" timestamp="2008-10-07T18:06:46Z" uid="20587" user="balrog-kun" changeset="135180">
    <nd ref="273503164"/>
    <nd ref="273503174"/>
    <nd ref="273503171"/>
    <nd ref="273503166"/>
    <nd ref="273503168"/>
    <nd ref="273503173"/>
    <nd ref="273503175"/>
    <nd ref="273503170"/>
    <nd ref="273503164"/>
    <tag k="addr:housenumber" v="27"/>
    <tag k="addr:street" v="Aleja Na Skarpie"/>
    <tag k="building" v="yes"/>
    <tag k="created_by" v="JOSM"/>
    <tag k="name" v="Muzeum Ziemi PAN"/>
    <tag k="name:en" v="Geological Museum of Polish Academy of Sciences"/>
    <tag k="tourism" v="museum"/>
  </way>
  <way id="25120443" version="1" timestamp="2008-06-26T20:48:20Z" uid="20587" user="balrog-kun" changeset="304048">
    <nd ref="273503177"/>
    <nd ref="273503182"/>
    <nd ref="273503180"/>
    <nd ref="273503184"/>
    <nd ref="273503183"/>
    <nd ref="273503179"/>
    <nd ref="273503176"/>
    <nd ref="273503185"/>
    <nd ref="273503178"/>
    <nd ref="273503187"/>
    <nd ref="273503191"/>
    <nd ref="273503189"/>
    <nd ref="273503177"/>
    <tag k="building" v="yes"/>
    <tag k="created_by" v="JOSM"/>
    <tag k="name" v="Muzeum Ziemi PAN"/>
    <tag k="name:en" v="Geological Museum of Polish Academy of Sciences"/>
    <tag k="ref" v="Aleja Na Skarpie 20/26"/>
    <tag k="tourism" v="museum"/>
  </way>
  <way id="25120443" version="2" timestamp="2008-07-31T14:21:40Z" uid="20587" user="balrog-kun" changeset="633394">
    <nd ref="273503177"/>
    <nd ref="273503182"/>
    <nd ref="273503180"/>
    <nd ref="273503184"/>
    <nd ref="273503183"/>
    <nd ref="273503179"/>
    <nd ref="273503176"/>
    <nd ref="273503185"/>
    <nd ref="273503178"/>
    <nd ref="273503187"/>
    <nd ref="273503191"/>
    <nd ref="273503189"/>
    <nd ref="273503177"/>
    <tag k="addr:housenumber" v="20/26"/>
    <tag k="addr:street" v="Aleja Na Skarpie"/>
    <tag k="building" v="yes"/>
    <tag k="created_by" v="JOSM"/>
    <tag k="name" v="Muzeum Ziemi PAN"/>
    <tag k="name:en" v="Geological Museum of Polish Academy of Sciences"/>
    <tag k="tourism" v="museum"/>
  </way>
  <way id="25120443" version="3" timestamp="2008-10-07T17:06:37Z" uid="20587" user="balrog-kun" changeset="135180">
    <nd ref="273503177"/>
    <nd ref="273503182"/>
    <nd ref="273503180"/>
    <nd ref="273503184"/>
    <nd ref="273503183"/>
    <nd ref="273503179"/>
    <nd ref="273503176"/>
    <nd ref="273503185"/>
    <nd ref="273503178"/>
    <nd ref="273503187"/>
    <nd ref="273503191"/>
    <nd ref="273503189"/>
    <nd ref="273503177"/>
    <tag k="addr:street" v="Aleja Na Skarpie"/>
    <tag k="building" v="yes"/>
    <tag k="created_by" v="JOSM"/>
    <tag k="name" v="Muzeum Ziemi PAN"/>
    <tag k="name:en" v="Geological Museum of Polish Academy of Sciences"/>
    <tag k="tourism" v="museum"/>
  </way>
  <way id="25120443" version="4" timestamp="2008-10-07T18:06:48Z" uid="20587" user="balrog-kun" changeset="135180">
    <nd ref="273503177"/>
    <nd ref="273503182"/>
    <nd ref="273503180"/>
    <nd ref="273503184"/>
    <nd ref="273503183"/>
    <nd ref="273503179"/>
    <nd ref="273503176"/>
    <nd ref="273503185"/>
    <nd ref="273503178"/>
    <nd ref="273503187"/>
    <nd ref="273503191"/>
    <nd ref="273503189"/>
    <nd ref="273503177"/>
    <tag k="addr:housenumber" v="20/26"/>
    <tag k="addr:street" v="Aleja Na Skarpie"/>
    <tag k="building" v="yes"/>
    <tag k="created_by" v="JOSM"/>
    <tag k="name" v="Muzeum Ziemi PAN"/>
    <tag k="name:en" v="Geological Museum of Polish Academy of Sciences"/>
    <tag k="tourism" v="museum"/>
  </way>
  <way id="25120444" version="1" timestamp="2008-06-26T20:48:20Z" uid="20587" user="balrog-kun" changeset="304048">
    <nd ref="273503192"/>
    <nd ref="273503194"/>
    <nd ref="273503195"/>
    <nd ref="273503197"/>
    <nd ref="273503192"/>
    <tag k="building" v="yes"/>
    <tag k="created_by" v="JOSM"/>
    <tag k="name" v="Wydział Konsularny Ambasady Rosji w Polsce"/>
    <tag k="name:en" v="Embassy of the Russian Federation"/>
    <tag k="ref" v="Belwederska 25c"/>
  </way>
  <way id="25120444" version="3" timestamp="2008-07-31T14:21:39Z" uid="20587" user="balrog-kun" changeset="633394">
    <nd ref="273503192"/>
    <nd ref="273503194"/>
    <nd ref="273503195"/>
    <nd ref="273503197"/>
    <nd ref="273503192"/>
    <tag k="addr:housenumber" v="25c"/>
    <tag k="addr:street" v="Belwederska"/>
    <tag k="building" v="yes"/>
    <tag k="created_by" v="Potlatch 0.10"/>
    <tag k="name" v="Embassy of the Russian Federation"/>
  </way>
  <way id="25120444" version="4" timestamp="2008-08-10T19:24:50Z" uid="20587" user="balrog-kun" changeset="173836">
    <nd ref="273503192"/>
    <nd ref="273503194"/>
    <nd ref="273503195"/>
    <nd ref="273503197"/>
    <nd ref="273503192"/>
    <tag k="addr:housenumber" v="25c"/>
    <tag k="addr:street" v="Belwederska"/>
    <tag k="building" v="yes"/>
    <tag k="name" v="Embassy of the Russian Federation"/>
  </way>
  <way id="25120444" version="5" timestamp="2008-12-20T20:34:45Z" uid="20587" user="balrog-kun" changeset="497707">
    <nd ref="273503192"/>
    <nd ref="273503194"/>
    <nd ref="273503195"/>
    <nd ref="273503197"/>
    <nd ref="273503192"/>
    <tag k="addr:housenumber" v="25c"/>
    <tag k="addr:street" v="Belwederska"/>
    <tag k="amenity" v="embassy"/>
    <tag k="building" v="yes"/>
    <tag k="name" v="Ambasada Federacji Rosyjskiej"/>
    <tag k="name:en" v="Embassy of the Russian Federation"/>
    <tag k="name:es" v="Embajada de la Federación Rusa"/>
    <tag k="name:ru" v="Посольство России в Польше"/>
  </way>
  <way id="25120444" version="10" timestamp="2009-01-21T14:22:20Z" uid="20587" user="balrog-kun" changeset="821206"/>
  <way id="25120446" version="1" timestamp="2008-06-26T20:48:20Z" uid="20587" user="balrog-kun" changeset="304048">
    <nd ref="273503198"/>
    <nd ref="273503199"/>
    <nd ref="273503200"/>
    <nd ref="273503201"/>
    <nd ref="273503202"/>
    <nd ref="273503203"/>
    <nd ref="273503198"/>
    <tag k="building" v="yes"/>
    <tag k="created_by" v="JOSM"/>
    <tag k="name" v="Ambdasada Królestwa Hiszpanii"/>
    <tag k="name:en" v="Embassy of the Kingdom of Spain"/>
    <tag k="ref" v="Myśliwiecka 4"/>
  </way>
  <way id="25120446" version="2" timestamp="2008-07-31T14:21:39Z" uid="20587" user="balrog-kun" changeset="633394">
    <nd ref="273503198"/>
    <nd ref="273503199"/>
    <nd ref="273503200"/>
    <nd ref="273503201"/>
    <nd ref="273503202"/>
    <nd ref="273503203"/>
    <nd ref="273503198"/>
    <tag k="addr:housenumber" v="4"/>
    <tag k="addr:street" v="Myśliwiecka"/>
    <tag k="building" v="yes"/>
    <tag k="created_by" v="JOSM"/>
    <tag k="name" v="Ambdasada Królestwa Hiszpanii"/>
    <tag k="name:en" v="Embassy of the Kingdom of Spain"/>
  </way>
  <way id="25120446" version="3" timestamp="2008-12-20T20:34:46Z" uid="20587" user="balrog-kun" changeset="497707">
    <nd ref="273503198"/>
    <nd ref="273503199"/>
    <nd ref="273503200"/>
    <nd ref="273503201"/>
    <nd ref="273503202"/>
    <nd ref="273503203"/>
    <nd ref="273503198"/>
    <tag k="addr:housenumber" v="4"/>
    <tag k="addr:postcode" v="00-459"/>
    <tag k="addr:street" v="Myśliwiecka"/>
    <tag k="amenity" v="embassy"/>
    <tag k="building" v="yes"/>
    <tag k="created_by" v="JOSM"/>
    <tag k="name" v="Ambdasada Królestwa Hiszpanii"/>
    <tag k="name:en" v="Embassy of the Kingdom of Spain"/>
    <tag k="name:es" v="Embajada del Reino de España"/>
  </way>
  <way id="25120664" version="7" timestamp="2009-10-30T04:04:29Z" uid="36809" user="pfoten_weg_!_" changeset="2986526">
    <nd ref="272448863"/>
    <nd ref="272448864"/>
    <nd ref="272448865"/>
    <tag k="bridge" v="yes"/>
    <tag k="highway" v="track"/>
    <tag k="layer" v="1"/>
    <tag k="tracktype" v="grade2"/>
  </way>
  <way id="25120667" version="9" timestamp="2009-10-30T04:04:03Z" uid="36809" user="pfoten_weg_!_" changeset="2986526">
    <nd ref="272448865"/>
    <nd ref="272448866"/>
    <nd ref="272448867"/>
    <nd ref="272448868"/>
    <nd ref="272448869"/>
    <nd ref="272448870"/>
    <nd ref="272448871"/>
    <nd ref="272448872"/>
    <nd ref="272448873"/>
    <nd ref="272448874"/>
    <nd ref="272448875"/>
    <nd ref="272448876"/>
    <nd ref="272448877"/>
    <nd ref="272448878"/>
    <nd ref="272448879"/>
    <nd ref="272448880"/>
    <nd ref="272448881"/>
    <nd ref="272448882"/>
    <nd ref="272448883"/>
    <nd ref="272448884"/>
    <nd ref="272448885"/>
    <nd ref="272448886"/>
    <nd ref="272448887"/>
    <nd ref="272448888"/>
    <nd ref="272448889"/>
    <nd ref="272448890"/>
    <nd ref="272448891"/>
    <nd ref="272448892"/>
    <nd ref="272448893"/>
    <nd ref="272448894"/>
    <nd ref="272448895"/>
    <nd ref="272448896"/>
    <nd ref="272448897"/>
    <nd ref="272448898"/>
    <nd ref="272448916"/>
    <nd ref="272448899"/>
    <nd ref="272448900"/>
    <nd ref="272448901"/>
    <nd ref="272448902"/>
    <nd ref="272448903"/>
    <nd ref="272448904"/>
    <nd ref="272448905"/>
    <nd ref="272450810"/>
    <nd ref="272450811"/>
    <nd ref="272450812"/>
    <nd ref="272450813"/>
    <nd ref="272450814"/>
    <nd ref="272450815"/>
    <nd ref="272450816"/>
    <nd ref="272450817"/>
    <nd ref="272450818"/>
    <nd ref="272450819"/>
    <nd ref="272450820"/>
    <nd ref="272450821"/>
    <nd ref="272450822"/>
    <nd ref="272450823"/>
    <nd ref="272450824"/>
    <nd ref="272450825"/>
    <nd ref="272450826"/>
    <nd ref="272450827"/>
    <nd ref="272450828"/>
    <nd ref="272450829"/>
    <nd ref="272450830"/>
    <nd ref="272450831"/>
    <nd ref="272450832"/>
    <nd ref="272450833"/>
    <nd ref="272450834"/>
    <nd ref="272450835"/>
    <nd ref="272450836"/>
    <nd ref="272450837"/>
    <nd ref="272450838"/>
    <nd ref="272450839"/>
    <nd ref="304488923"/>
    <tag k="highway" v="track"/>
    <tag k="tracktype" v="grade2"/>
  </way>
  <way id="25120682" version="4" timestamp="2009-10-30T04:04:29Z" uid="36809" user="pfoten_weg_!_" changeset="2986526">
    <nd ref="273505903"/>
    <nd ref="273505951"/>
    <nd ref="273505952"/>
    <tag k="waterway" v="stream"/>
  </way>
  <way id="25120686" version="1" timestamp="2008-06-26T21:01:15Z" uid="30201" user="rrankin" changeset="304582">
    <nd ref="272866954"/>
    <nd ref="272653346"/>
    <nd ref="272866944"/>
    <nd ref="273505908"/>
    <nd ref="272653374"/>
    <nd ref="272864314"/>
    <nd ref="272864316"/>
    <nd ref="272864311"/>
    <nd ref="272653419"/>
    <nd ref="272653446"/>
    <nd ref="272653396"/>
    <nd ref="272653351"/>
    <tag k="highway" v="residential"/>
    <tag k="name" v="George Road"/>
    <tag k="source" v="yahoo"/>
  </way>
  <way id="25120686" version="3" timestamp="2010-02-20T04:08:43Z" uid="7617" user="Franc" changeset="3920464">
    <nd ref="272866954"/>
    <nd ref="272653346"/>
    <nd ref="647594687"/>
    <tag k="highway" v="residential"/>
    <tag k="name" v="George Road"/>
    <tag k="source" v="nearmap"/>
  </way>
  <way id="25120686" version="4" timestamp="2010-07-08T03:19:04Z" uid="74617" user="JohnSmith" changeset="5163091">
    <nd ref="272866954"/>
    <nd ref="272653346"/>
    <nd ref="647594687"/>
    <tag k="highway" v="residential"/>
    <tag k="maxspeed" v="50"/>
    <tag k="maxspeed:source" v="default residential speed limit in Australia"/>
    <tag k="name" v="George Road"/>
    <tag k="source" v="nearmap"/>
  </way>
  <way id="25120687" version="1" timestamp="2008-06-26T21:01:16Z" uid="30201" user="rrankin" changeset="304582">
    <nd ref="273505901"/>
    <nd ref="273505904"/>
    <tag k="highway" v="residential"/>
    <tag k="name" v="David Street"/>
    <tag k="source" v="yahoo"/>
  </way>
  <way id="25120687" version="2" timestamp="2010-07-08T03:19:59Z" uid="74617" user="JohnSmith" changeset="5163091">
    <nd ref="273505901"/>
    <nd ref="273505904"/>
    <tag k="highway" v="residential"/>
    <tag k="maxspeed" v="50"/>
    <tag k="maxspeed:source" v="default residential speed limit in Australia"/>
    <tag k="name" v="David Street"/>
    <tag k="source" v="yahoo"/>
  </way>
  <way id="25120689" version="1" timestamp="2008-06-26T21:01:16Z" uid="30201" user="rrankin" changeset="304582">
    <nd ref="273505908"/>
    <nd ref="273505912"/>
    <nd ref="273505915"/>
    <tag k="highway" v="residential"/>
    <tag k="name" v="Mayne Street"/>
    <tag k="source" v="yahoo"/>
  </way>
  <way id="25120689" version="2" timestamp="2010-07-08T03:19:58Z" uid="74617" user="JohnSmith" changeset="5163091">
    <nd ref="273505908"/>
    <nd ref="273505912"/>
    <nd ref="273505915"/>
    <tag k="highway" v="residential"/>
    <tag k="maxspeed" v="50"/>
    <tag k="maxspeed:source" v="default residential speed limit in Australia"/>
    <tag k="name" v="Mayne Street"/>
    <tag k="source" v="yahoo"/>
  </way>
  <way id="25120690" version="1" timestamp="2008-06-26T21:01:17Z" uid="30201" user="rrankin" changeset="304582">
    <nd ref="273505912"/>
    <nd ref="273505921"/>
    <tag k="highway" v="residential"/>
    <tag k="name" v="Mayne Street"/>
    <tag k="source" v="yahoo"/>
  </way>
  <way id="25120690" version="2" timestamp="2010-07-08T03:19:24Z" uid="74617" user="JohnSmith" changeset="5163091">
    <nd ref="273505912"/>
    <nd ref="273505921"/>
    <tag k="highway" v="residential"/>
    <tag k="maxspeed" v="50"/>
    <tag k="maxspeed:source" v="default residential speed limit in Australia"/>
    <tag k="name" v="Mayne Street"/>
    <tag k="source" v="yahoo"/>
  </way>
  <way id="25120692" version="1" timestamp="2008-06-26T21:01:18Z" uid="30201" user="rrankin" changeset="304582">
    <nd ref="273505925"/>
    <nd ref="273505929"/>
    <tag k="highway" v="residential"/>
    <tag k="name" v="Rose Street"/>
    <tag k="source" v="yahoo"/>
  </way>
  <way id="25120692" version="2" timestamp="2010-07-08T03:18:23Z" uid="74617" user="JohnSmith" changeset="5163091">
    <nd ref="273505925"/>
    <nd ref="273505929"/>
    <tag k="highway" v="residential"/>
    <tag k="maxspeed" v="50"/>
    <tag k="maxspeed:source" v="default residential speed limit in Australia"/>
    <tag k="name" v="Rose Street"/>
    <tag k="source" v="yahoo"/>
  </way>
  <way id="25120693" version="1" timestamp="2008-06-26T21:01:19Z" uid="30201" user="rrankin" changeset="304582">
    <nd ref="273102068"/>
    <nd ref="105264109"/>
    <tag k="highway" v="unsurfaced"/>
  </way>
  <way id="25120693" version="2" timestamp="2009-08-04T01:55:59Z" uid="4467" user="Rosscoe" changeset="2031354">
    <nd ref="273102068"/>
    <nd ref="105264109"/>
    <tag k="highway" v="unclassified"/>
    <tag k="surface" v="unpaved"/>
  </way>
  <way id="25120693" version="3" timestamp="2010-04-04T08:55:23Z" uid="61114" user="Trav" changeset="4320307">
    <nd ref="273102068"/>
    <nd ref="105264109"/>
    <tag k="highway" v="unclassified"/>
    <tag k="name" v="Rose Street"/>
    <tag k="source:name" v="survey"/>
    <tag k="surface" v="unpaved"/>
  </way>
  <way id="25120694" version="1" timestamp="2008-06-26T21:01:19Z" uid="30201" user="rrankin" changeset="304582">
    <nd ref="273102068"/>
    <nd ref="273102072"/>
    <nd ref="272866954"/>
    <tag k="highway" v="residential"/>
    <tag k="name" v="Earle Street"/>
    <tag k="source" v="yahoo"/>
  </way>
  <way id="25120694" version="2" timestamp="2010-07-08T03:18:43Z" uid="74617" user="JohnSmith" changeset="5163091">
    <nd ref="273102068"/>
    <nd ref="273102072"/>
    <nd ref="272866954"/>
    <tag k="highway" v="residential"/>
    <tag k="maxspeed" v="50"/>
    <tag k="maxspeed:source" v="default residential speed limit in Australia"/>
    <tag k="name" v="Earle Street"/>
    <tag k="source" v="yahoo"/>
  </way>
  <way id="25120695" version="1" timestamp="2008-06-26T21:01:20Z" uid="30201" user="rrankin" changeset="304582">
    <nd ref="273505973"/>
    <nd ref="273505968"/>
    <nd ref="273505966"/>
    <nd ref="273505964"/>
    <nd ref="273505961"/>
    <nd ref="273505959"/>
    <nd ref="273505957"/>
    <nd ref="273505954"/>
    <nd ref="273505949"/>
    <nd ref="273505947"/>
    <nd ref="273505943"/>
    <nd ref="273505939"/>
    <nd ref="273505938"/>
    <nd ref="273505936"/>
    <nd ref="273505933"/>
    <nd ref="273505931"/>
    <nd ref="273102070"/>
    <tag k="highway" v="unclassified"/>
    <tag k="name" v="Argyle Reach Road"/>
    <tag k="source" v="yahoo"/>
    <tag k="surface" v="unpaved"/>
  </way>
  <way id="25120696" version="1" timestamp="2008-06-26T21:01:21Z" uid="30201" user="rrankin" changeset="304582">
    <nd ref="273102070"/>
    <nd ref="273102071"/>
    <nd ref="273102069"/>
    <nd ref="273102068"/>
    <tag k="highway" v="unclassified"/>
    <tag k="name" v="Argyle Reach Road"/>
    <tag k="source" v="yahoo"/>
    <tag k="surface" v="paved"/>
  </way>
  <way id="25120723" version="3" timestamp="2009-08-26T14:17:31Z" uid="36809" user="pfoten_weg_!_" changeset="2267796">
    <nd ref="269055862"/>
    <nd ref="273506461"/>
    <nd ref="273506462"/>
    <nd ref="273506465"/>
    <tag k="highway" v="residential"/>
    <tag k="name" v="Heideweg"/>
    <tag k="surface" v="unpaved"/>
    <tag k="tracktype" v="grade3"/>
  </way>
  <way id="25120725" version="2" timestamp="2009-10-12T21:28:38Z" uid="36809" user="pfoten_weg_!_" changeset="2831103">
    <nd ref="269055882"/>
    <nd ref="273506466"/>
    <nd ref="273506467"/>
    <nd ref="273506469"/>
    <nd ref="273506472"/>
    <nd ref="273506473"/>
    <nd ref="273506475"/>
    <nd ref="273506476"/>
    <nd ref="273506477"/>
    <nd ref="273506479"/>
    <nd ref="273506480"/>
    <nd ref="273506482"/>
    <nd ref="273506483"/>
    <nd ref="269090564"/>
    <tag k="highway" v="track"/>
    <tag k="layer" v="0"/>
    <tag k="tracktype" v="grade5"/>
  </way>
  <way id="25120727" version="2" timestamp="2009-10-12T21:28:38Z" uid="36809" user="pfoten_weg_!_" changeset="2831103">
    <nd ref="273506486"/>
    <nd ref="273506484"/>
    <nd ref="269090555"/>
    <nd ref="269090554"/>
    <nd ref="269090553"/>
    <nd ref="269090552"/>
    <nd ref="269090551"/>
    <nd ref="269090549"/>
    <nd ref="273506487"/>
    <nd ref="269217857"/>
    <tag k="highway" v="residential"/>
    <tag k="name" v="Alpenweg"/>
  </way>
  <way id="25120729" version="2" timestamp="2009-10-12T21:28:11Z" uid="36809" user="pfoten_weg_!_" changeset="2831103">
    <nd ref="269217857"/>
    <nd ref="269217866"/>
    <nd ref="269217872"/>
    <tag k="highway" v="unclassified"/>
    <tag k="name" v="Alpenweg"/>
  </way>
  <way id="25120730" version="3" timestamp="2009-10-12T21:28:11Z" uid="36809" user="pfoten_weg_!_" changeset="2831103">
    <nd ref="269055882"/>
    <nd ref="272451311"/>
    <nd ref="272451312"/>
    <nd ref="264664522"/>
    <nd ref="287964044"/>
    <tag k="highway" v="residential"/>
    <tag k="name" v="Am Birkenmoor"/>
    <tag k="tracktype" v="grade1"/>
  </way>
  <way id="25120731" version="2" timestamp="2009-10-12T21:28:39Z" uid="36809" user="pfoten_weg_!_" changeset="2831103">
    <nd ref="269090497"/>
    <nd ref="269090496"/>
    <nd ref="269090495"/>
    <nd ref="269090494"/>
    <nd ref="264664519"/>
    <nd ref="264664520"/>
    <nd ref="269055882"/>
    <tag k="highway" v="residential"/>
    <tag k="name" v="Untere Alpe"/>
    <tag k="tracktype" v="grade1"/>
  </way>
  <way id="25120935" version="3" timestamp="2008-08-12T09:34:07Z" uid="6269" user="Mueck" changeset="200178">
    <nd ref="273508152"/>
    <nd ref="273508153"/>
    <nd ref="273508154"/>
    <nd ref="273508155"/>
    <nd ref="273508156"/>
    <nd ref="273508157"/>
    <nd ref="273508158"/>
    <nd ref="281596139"/>
    <nd ref="273508159"/>
    <nd ref="273508166"/>
    <nd ref="281596142"/>
    <nd ref="273508177"/>
    <tag k="created_by" v="Potlatch 0.10b"/>
    <tag k="highway" v="residential"/>
  </way>
  <way id="25120935" version="4" timestamp="2008-08-12T09:34:14Z" uid="6269" user="Mueck" changeset="200178">
    <nd ref="273508152"/>
    <nd ref="273508153"/>
    <nd ref="273508154"/>
    <nd ref="273508155"/>
    <nd ref="273508156"/>
    <nd ref="273508157"/>
    <nd ref="273508158"/>
    <nd ref="281596139"/>
    <nd ref="273508159"/>
    <nd ref="273508166"/>
    <nd ref="281596142"/>
    <nd ref="273508177"/>
    <nd ref="281596155"/>
    <nd ref="281596156"/>
    <nd ref="276675331"/>
    <tag k="created_by" v="Potlatch 0.10b"/>
    <tag k="highway" v="tertiary"/>
  </way>
</osm>
