<?xml version='1.0' encoding='UTF-8'?>
<osm version="0.6" generator="libosmium/2.20.0">
  <way id="25125077" version="8" timestamp="2010-03-27T23:43:35Z" uid="20587" user="balrog-kun" changeset="4250871">
    <nd ref="122847371"/>
    <nd ref="122847374"/>
    <nd ref="122847376"/>
    <nd ref="122847379"/>
    <nd ref="122847382"/>
    <nd ref="122847385"/>
    <nd ref="122847388"/>
    <nd ref="273615470"/>
    <nd ref="122847393"/>
    <nd ref="542590121"/>
    <nd ref="122847394"/>
    <nd ref="122847397"/>
    <nd ref="122847400"/>
    <nd ref="542590360"/>
    <nd ref="122732423"/>
    <nd ref="122847403"/>
    <nd ref="122847405"/>
    <nd ref="122640363"/>
    <nd ref="122815678"/>
    <nd ref="122847407"/>
    <nd ref="122847410"/>
    <nd ref="122847412"/>
    <nd ref="542597348"/>
    <nd ref="122847414"/>
    <nd ref="122633628"/>
    <nd ref="122847417"/>
    <nd ref="122847295"/>
    <nd ref="375810738"/>
    <nd ref="375810739"/>
    <nd ref="375810742"/>
    <nd ref="122847297"/>
    <nd ref="122847299"/>
    <nd ref="122847302"/>
    <nd ref="122847305"/>
    <nd ref="122847307"/>
    <nd ref="122847311"/>
    <nd ref="122847314"/>
    <nd ref="122847316"/>
    <nd ref="122847320"/>
    <nd ref="122847322"/>
    <nd ref="122671313"/>
    <nd ref="122847324"/>
    <nd ref="122847326"/>
    <nd ref="122847328"/>
    <nd ref="122847330"/>
    <nd ref="122847332"/>
    <nd ref="122847333"/>
    <nd ref="122587315"/>
    <nd ref="122847336"/>
    <nd ref="122847338"/>
    <nd ref="122847341"/>
    <nd ref="122847344"/>
    <nd ref="122847345"/>
    <nd ref="122847346"/>
    <nd ref="122847348"/>
    <tag k="highway" v="tertiary"/>
    <tag k="name" v="Bellaire Avenue"/>
    <tag k="source" v="Yahoo"/>
    <tag k="source:highway" v="NavigateLA"/>
    <tag k="tiger:cfcc" v="A41"/>
    <tag k="tiger:county" v="Los Angeles, CA"/>
    <tag k="tiger:name_base" v="Bellaire"/>
    <tag k="tiger:name_type" v="Ave"/>
    <tag k="tiger:reviewed" v="no"/>
    <tag k="tiger:separated" v="no"/>
    <tag k="tiger:source" v="tiger_import_dch_v0.6_20070809"/>
    <tag k="tiger:tlid" v="141563254:141563263:141563283; 141552358:141552367:141552368:141552572:141552584:141552588:141552491:141552606:141552616:141552618:141552619:141552621:141563099:141563102:141563104:141764084:141563110:141563113:141552624"/>
    <tag k="tiger:zip_left" v="91606; 91605"/>
    <tag k="tiger:zip_right" v="91606; 91605"/>
  </way>
  <way id="25125097" version="16" timestamp="2010-03-27T23:43:36Z" uid="20587" user="balrog-kun" changeset="4250871">
    <nd ref="273616338"/>
    <nd ref="273616829"/>
    <nd ref="273616830"/>
    <nd ref="273616831"/>
    <nd ref="316543080"/>
    <nd ref="273616704"/>
    <nd ref="273616522"/>
    <nd ref="273616523"/>
    <nd ref="273616524"/>
    <nd ref="122639045"/>
    <nd ref="123364429"/>
    <nd ref="122910681"/>
    <nd ref="123324301"/>
    <nd ref="378124332"/>
    <nd ref="378124618"/>
    <nd ref="123364430"/>
    <nd ref="123364433"/>
    <nd ref="122990784"/>
    <nd ref="123143681"/>
    <nd ref="374402360"/>
    <nd ref="123031539"/>
    <nd ref="123364435"/>
    <nd ref="123301256"/>
    <nd ref="123364437"/>
    <nd ref="123093478"/>
    <nd ref="123231054"/>
    <nd ref="123364439"/>
    <nd ref="123364443"/>
    <nd ref="370951297"/>
    <nd ref="370951298"/>
    <nd ref="370951299"/>
    <nd ref="370951300"/>
    <nd ref="370951301"/>
    <nd ref="370951302"/>
    <nd ref="370951303"/>
    <nd ref="370951304"/>
    <nd ref="370951305"/>
    <nd ref="370951306"/>
    <nd ref="370951307"/>
    <nd ref="370951308"/>
    <nd ref="370951309"/>
    <nd ref="370951310"/>
    <nd ref="370951311"/>
    <nd ref="370951312"/>
    <nd ref="370951313"/>
    <nd ref="370951314"/>
    <nd ref="122993060"/>
    <tag k="highway" v="residential"/>
    <tag k="name" v="Chandler Boulevard"/>
    <tag k="tiger:cfcc" v="A45"/>
    <tag k="tiger:county" v="Los Angeles, CA"/>
    <tag k="tiger:name_base" v="Chandler"/>
    <tag k="tiger:name_type" v="Blvd"/>
    <tag k="tiger:separated" v="yes"/>
    <tag k="tiger:source" v="tiger_import_dch_v0.6_20070809"/>
    <tag k="tiger:tlid" v="141804560:141561565:141561571:141561572:141561847:141561849:141561853:141561861:141561867:141563415:141561868:141561584"/>
  </way>
  <way id="25125113" version="3" timestamp="2010-03-27T23:43:36Z" uid="20587" user="balrog-kun" changeset="4250871">
    <nd ref="273615873"/>
    <nd ref="273616094"/>
    <tag k="bridge" v="yes"/>
    <tag k="created_by" v="Potlatch 0.9c"/>
    <tag k="highway" v="tertiary"/>
    <tag k="name" v="Chandler Boulevard"/>
    <tag k="tiger:cfcc" v="A45"/>
  </way>
  <way id="25125123" version="2" timestamp="2010-03-27T23:43:37Z" uid="20587" user="balrog-kun" changeset="4250871">
    <nd ref="273616094"/>
    <nd ref="123340928"/>
    <nd ref="273616338"/>
    <tag k="created_by" v="Potlatch 0.9c"/>
    <tag k="highway" v="tertiary"/>
    <tag k="name" v="Chandler Boulevard"/>
    <tag k="tiger:cfcc" v="A45"/>
  </way>
  <way id="25125160" version="35" timestamp="2010-03-27T23:43:37Z" uid="20587" user="balrog-kun" changeset="4250871">
    <nd ref="122732441"/>
    <nd ref="122732444"/>
    <nd ref="122732446"/>
    <nd ref="122732450"/>
    <nd ref="29409685"/>
    <nd ref="122732456"/>
    <nd ref="122732457"/>
    <nd ref="122643329"/>
    <nd ref="122732458"/>
    <nd ref="122732459"/>
    <nd ref="122714576"/>
    <nd ref="122732461"/>
    <nd ref="122732463"/>
    <nd ref="122732465"/>
    <nd ref="122732468"/>
    <nd ref="122732470"/>
    <nd ref="122732471"/>
    <nd ref="122703596"/>
    <nd ref="122732473"/>
    <nd ref="122732475"/>
    <nd ref="122732477"/>
    <nd ref="122732479"/>
    <nd ref="122732480"/>
    <nd ref="122727940"/>
    <tag k="created_by" v="Potlatch 0.10f"/>
    <tag k="highway" v="primary"/>
    <tag k="name" v="Burbank Boulevard"/>
    <tag k="source" v="Yahoo"/>
    <tag k="source:highway" v="NavigateLA"/>
    <tag k="tiger:cfcc" v="A41"/>
    <tag k="tiger:county" v="Los Angeles, CA"/>
    <tag k="tiger:name_base" v="Burbank"/>
    <tag k="tiger:name_type" v="Blvd"/>
    <tag k="tiger:separated" v="no"/>
    <tag k="tiger:source" v="tiger_import_dch_v0.6_20070809"/>
    <tag k="tiger:tlid" v="141554910:142040346:142040344:142040345:141554969:142049051:142049052:141555825:141763695"/>
    <tag k="tiger:zip_left" v="91356"/>
    <tag k="tiger:zip_right" v="91356"/>
  </way>
  <way id="25125218" version="4" timestamp="2010-03-27T23:43:37Z" uid="20587" user="balrog-kun" changeset="4250871">
    <nd ref="273618871"/>
    <nd ref="273619075"/>
    <nd ref="273619076"/>
    <nd ref="273619077"/>
    <nd ref="273619078"/>
    <nd ref="273619079"/>
    <tag k="bridge" v="yes"/>
    <tag k="created_by" v="Potlatch 0.10f"/>
    <tag k="highway" v="tertiary"/>
    <tag k="name" v="Coldwater Canyon Avenue"/>
    <tag k="tiger:cfcc" v="A41"/>
  </way>
  <way id="25125223" version="6" timestamp="2010-03-27T23:43:37Z" uid="20587" user="balrog-kun" changeset="4250871">
    <nd ref="273619079"/>
    <nd ref="273619243"/>
    <nd ref="273619178"/>
    <nd ref="273619142"/>
    <tag k="bridge" v="yes"/>
    <tag k="created_by" v="Potlatch 0.10f"/>
    <tag k="highway" v="tertiary"/>
    <tag k="name" v="Coldwater Canyon Avenue"/>
    <tag k="tiger:cfcc" v="A41"/>
    <tag k="tiger:zip_left" v="91607"/>
    <tag k="tiger:zip_right" v="91607"/>
  </way>
  <way id="25125381" version="1" timestamp="2008-06-27T04:24:06Z" uid="20587" user="balrog-kun" changeset="308026">
    <nd ref="273624108"/>
    <nd ref="273624112"/>
    <nd ref="273624114"/>
    <nd ref="273624117"/>
    <nd ref="273624119"/>
    <nd ref="273624120"/>
    <nd ref="273624125"/>
    <nd ref="273624127"/>
    <nd ref="273624108"/>
    <tag k="building" v="yes"/>
    <tag k="created_by" v="JOSM"/>
    <tag k="ref" v="Aleja Niepodległości 27"/>
  </way>
  <way id="25125381" version="2" timestamp="2008-07-31T14:21:49Z" uid="20587" user="balrog-kun" changeset="633394">
    <nd ref="273624108"/>
    <nd ref="273624112"/>
    <nd ref="273624114"/>
    <nd ref="273624117"/>
    <nd ref="273624119"/>
    <nd ref="273624120"/>
    <nd ref="273624125"/>
    <nd ref="273624127"/>
    <nd ref="273624108"/>
    <tag k="addr:housenumber" v="27"/>
    <tag k="addr:street" v="Aleja Niepodległości"/>
    <tag k="building" v="yes"/>
    <tag k="created_by" v="JOSM"/>
  </way>
  <way id="25125381" version="3" timestamp="2009-02-02T00:36:07Z" uid="20587" user="balrog-kun" changeset="47521">
    <nd ref="273624108"/>
    <nd ref="273624112"/>
    <nd ref="273624114"/>
    <nd ref="273624117"/>
    <nd ref="273624119"/>
    <nd ref="273624120"/>
    <nd ref="273624125"/>
    <nd ref="273624127"/>
    <nd ref="273624108"/>
    <tag k="addr:housenumber" v="27"/>
    <tag k="addr:street" v="Aleja Niepodległości"/>
    <tag k="building" v="yes"/>
    <tag k="building:levels" v="3"/>
    <tag k="created_by" v="JOSM"/>
  </way>
  <way id="25125382" version="1" timestamp="2008-06-27T04:24:06Z" uid="20587" user="balrog-kun" changeset="308026">
    <nd ref="273624136"/>
    <nd ref="273624137"/>
    <nd ref="273624140"/>
    <nd ref="273624142"/>
    <nd ref="273624136"/>
    <tag k="building" v="yes"/>
    <tag k="created_by" v="JOSM"/>
  </way>
  <way id="25125382" version="2" timestamp="2009-06-21T10:00:38Z" uid="20587" user="balrog-kun" changeset="1581238">
    <nd ref="273624136"/>
    <nd ref="273624137"/>
    <nd ref="273624140"/>
    <nd ref="273624142"/>
    <nd ref="273624136"/>
    <tag k="addr:housenumber" v="20"/>
    <tag k="addr:street" v="Domaniewska"/>
    <tag k="building" v="yes"/>
    <tag k="created_by" v="JOSM"/>
  </way>
  <way id="25125383" version="1" timestamp="2008-06-27T04:24:06Z" uid="20587" user="balrog-kun" changeset="308026">
    <nd ref="273624143"/>
    <nd ref="273624146"/>
    <nd ref="273624147"/>
    <nd ref="273624149"/>
    <nd ref="273624143"/>
    <tag k="building" v="yes"/>
    <tag k="created_by" v="JOSM"/>
    <tag k="name" v="Były Instytut Hematologii i Transfuzjologii i Powiatowa stacja sanitarno-epidemiologiczna"/>
    <tag k="note" v="Obecnie Chocimska 5"/>
  </way>
  <way id="25125383" version="2" timestamp="2009-02-02T00:36:09Z" uid="20587" user="balrog-kun" changeset="47521">
    <nd ref="273624143"/>
    <nd ref="273624146"/>
    <nd ref="273624147"/>
    <nd ref="273624149"/>
    <nd ref="273624143"/>
    <tag k="addr:housenumber" v="20"/>
    <tag k="addr:street" v="Aleja Niepodległości"/>
    <tag k="building" v="yes"/>
    <tag k="building:levels" v="5"/>
    <tag k="created_by" v="JOSM"/>
    <tag k="name" v="Były Instytut Hematologii i Transfuzjologii i Powiatowa stacja sanitarno-epidemiologiczna"/>
    <tag k="note" v="Obecnie Chocimska 5"/>
  </way>
  <way id="25125384" version="1" timestamp="2008-06-27T04:24:07Z" uid="20587" user="balrog-kun" changeset="308026">
    <nd ref="273624153"/>
    <nd ref="273624155"/>
    <nd ref="273624157"/>
    <nd ref="273624159"/>
    <nd ref="273624161"/>
    <nd ref="273624164"/>
    <nd ref="273624167"/>
    <nd ref="273624171"/>
    <nd ref="273624173"/>
    <nd ref="273624153"/>
    <tag k="created_by" v="JOSM"/>
    <tag k="leisure" v="park"/>
    <tag k="name" v="III Ogród Jordanowski"/>
  </way>
  <way id="25125385" version="1" timestamp="2008-06-27T04:24:07Z" uid="20587" user="balrog-kun" changeset="308026">
    <nd ref="273624176"/>
    <nd ref="273624178"/>
    <tag k="created_by" v="JOSM"/>
    <tag k="highway" v="footway"/>
  </way>
  <way id="25125409" version="1" timestamp="2008-06-27T04:25:41Z" uid="30201" user="rrankin" changeset="307545">
    <nd ref="273624705"/>
    <nd ref="273624709"/>
    <nd ref="273624713"/>
    <nd ref="273624717"/>
    <nd ref="273624724"/>
    <tag k="highway" v="residential"/>
    <tag k="name" v="Vulgilbar Avenue"/>
    <tag k="source" v="yahoo"/>
  </way>
  <way id="25125409" version="2" timestamp="2009-12-22T21:58:12Z" uid="7617" user="Franc" changeset="3430601">
    <nd ref="273624705"/>
    <nd ref="273624709"/>
    <nd ref="273624713"/>
    <nd ref="598315322"/>
    <nd ref="273624717"/>
    <nd ref="273624724"/>
    <tag k="highway" v="residential"/>
    <tag k="name" v="Vulgilbar Avenue"/>
    <tag k="source" v="nearmap"/>
  </way>
  <way id="25125409" version="3" timestamp="2010-07-08T01:55:35Z" uid="74617" user="JohnSmith" changeset="5162525">
    <nd ref="273624705"/>
    <nd ref="273624709"/>
    <nd ref="273624713"/>
    <nd ref="598315322"/>
    <nd ref="273624717"/>
    <nd ref="273624724"/>
    <tag k="highway" v="residential"/>
    <tag k="maxspeed" v="50"/>
    <tag k="maxspeed:source" v="default residential speed limit in Australia"/>
    <tag k="name" v="Vulgilbar Avenue"/>
    <tag k="source" v="nearmap"/>
  </way>
  <way id="25125410" version="1" timestamp="2008-06-27T04:25:42Z" uid="30201" user="rrankin" changeset="307545">
    <nd ref="273624731"/>
    <nd ref="273624736"/>
    <nd ref="273624742"/>
    <nd ref="273624749"/>
    <nd ref="273624754"/>
    <nd ref="273624731"/>
    <tag k="highway" v="residential"/>
    <tag k="junction" v="roundabout"/>
    <tag k="name" v="Gundaroo Street"/>
    <tag k="source" v="yahoo"/>
  </way>
  <way id="25125410" version="2" timestamp="2009-12-22T21:58:13Z" uid="7617" user="Franc" changeset="3430601">
    <nd ref="273624731"/>
    <nd ref="273624736"/>
    <nd ref="598315314"/>
    <nd ref="273624742"/>
    <nd ref="273624749"/>
    <nd ref="598315317"/>
    <nd ref="598315319"/>
    <nd ref="273624754"/>
    <nd ref="598315316"/>
    <nd ref="273624731"/>
    <tag k="highway" v="residential"/>
    <tag k="junction" v="roundabout"/>
    <tag k="source" v="nearmap"/>
  </way>
  <way id="25125410" version="3" timestamp="2010-07-08T01:59:21Z" uid="74617" user="JohnSmith" changeset="5162525">
    <nd ref="273624731"/>
    <nd ref="273624736"/>
    <nd ref="598315314"/>
    <nd ref="273624742"/>
    <nd ref="273624749"/>
    <nd ref="598315317"/>
    <nd ref="598315319"/>
    <nd ref="273624754"/>
    <nd ref="598315316"/>
    <nd ref="273624731"/>
    <tag k="highway" v="residential"/>
    <tag k="junction" v="roundabout"/>
    <tag k="maxspeed" v="50"/>
    <tag k="maxspeed:source" v="default residential speed limit in Australia"/>
    <tag k="source" v="nearmap"/>
  </way>
  <way id="25125412" version="1" timestamp="2008-06-27T04:25:43Z" uid="30201" user="rrankin" changeset="307545">
    <nd ref="273624762"/>
    <nd ref="273624768"/>
    <nd ref="273624742"/>
    <tag k="highway" v="residential"/>
    <tag k="name" v="Gundaroo Street"/>
    <tag k="source" v="yahoo"/>
  </way>
  <way id="25125412" version="2" timestamp="2009-12-22T21:58:13Z" uid="7617" user="Franc" changeset="3430601">
    <nd ref="273624762"/>
    <nd ref="273624768"/>
    <nd ref="598315315"/>
    <nd ref="273624742"/>
    <tag k="highway" v="residential"/>
    <tag k="name" v="Gundaroo Street"/>
    <tag k="source" v="nearmap"/>
  </way>
  <way id="25125412" version="3" timestamp="2010-07-08T02:02:22Z" uid="74617" user="JohnSmith" changeset="5162525">
    <nd ref="273624762"/>
    <nd ref="273624768"/>
    <nd ref="598315315"/>
    <nd ref="273624742"/>
    <tag k="highway" v="residential"/>
    <tag k="maxspeed" v="50"/>
    <tag k="maxspeed:source" v="default residential speed limit in Australia"/>
    <tag k="name" v="Gundaroo Street"/>
    <tag k="source" v="nearmap"/>
  </way>
  <way id="25125413" version="1" timestamp="2008-06-27T04:25:44Z" uid="30201" user="rrankin" changeset="307545">
    <nd ref="273624768"/>
    <nd ref="273624773"/>
    <tag k="highway" v="residential"/>
    <tag k="name" v="Gundaroo Street"/>
    <tag k="source" v="yahoo"/>
  </way>
  <way id="25125413" version="2" timestamp="2009-12-22T21:58:13Z" uid="7617" user="Franc" changeset="3430601">
    <nd ref="273624768"/>
    <nd ref="273624773"/>
    <tag k="highway" v="residential"/>
    <tag k="name" v="Gundaroo Street"/>
    <tag k="source" v="nearmap"/>
  </way>
  <way id="25125413" version="3" timestamp="2010-07-08T01:53:58Z" uid="74617" user="JohnSmith" changeset="5162525">
    <nd ref="273624768"/>
    <nd ref="273624773"/>
    <tag k="highway" v="residential"/>
    <tag k="maxspeed" v="50"/>
    <tag k="maxspeed:source" v="default residential speed limit in Australia"/>
    <tag k="name" v="Gundaroo Street"/>
    <tag k="source" v="nearmap"/>
  </way>
  <way id="25125414" version="1" timestamp="2008-06-27T04:25:45Z" uid="30201" user="rrankin" changeset="307545">
    <nd ref="273624780"/>
    <nd ref="273624773"/>
    <nd ref="273624786"/>
    <tag k="highway" v="residential"/>
    <tag k="name" v="Gundaroo Street"/>
    <tag k="source" v="yahoo"/>
  </way>
  <way id="25125414" version="2" timestamp="2009-12-22T21:58:13Z" uid="7617" user="Franc" changeset="3430601">
    <nd ref="273624780"/>
    <nd ref="273624773"/>
    <nd ref="273624786"/>
    <tag k="highway" v="residential"/>
    <tag k="name" v="Gundaroo Street"/>
    <tag k="source" v="nearmap"/>
  </way>
  <way id="25125414" version="3" timestamp="2010-07-08T01:57:42Z" uid="74617" user="JohnSmith" changeset="5162525">
    <nd ref="273624780"/>
    <nd ref="273624773"/>
    <nd ref="273624786"/>
    <tag k="highway" v="residential"/>
    <tag k="maxspeed" v="50"/>
    <tag k="maxspeed:source" v="default residential speed limit in Australia"/>
    <tag k="name" v="Gundaroo Street"/>
    <tag k="source" v="nearmap"/>
  </way>
  <way id="25125415" version="1" timestamp="2008-06-27T04:25:45Z" uid="30201" user="rrankin" changeset="307545">
    <nd ref="273624754"/>
    <nd ref="273624794"/>
    <nd ref="273624992"/>
    <tag k="highway" v="residential"/>
    <tag k="name" v="Gundaroo Street"/>
    <tag k="source" v="yahoo"/>
  </way>
  <way id="25125415" version="2" timestamp="2009-12-22T21:58:11Z" uid="7617" user="Franc" changeset="3430601">
    <nd ref="273624754"/>
    <nd ref="273624794"/>
    <tag k="highway" v="residential"/>
    <tag k="name" v="Gundaroo Street"/>
    <tag k="source" v="nearmap"/>
  </way>
  <way id="25125415" version="3" timestamp="2010-07-08T02:00:03Z" uid="74617" user="JohnSmith" changeset="5162525">
    <nd ref="273624754"/>
    <nd ref="273624794"/>
    <tag k="highway" v="residential"/>
    <tag k="maxspeed" v="50"/>
    <tag k="maxspeed:source" v="default residential speed limit in Australia"/>
    <tag k="name" v="Gundaroo Street"/>
    <tag k="source" v="nearmap"/>
  </way>
  <way id="25125417" version="1" timestamp="2008-06-27T04:25:46Z" uid="30201" user="rrankin" changeset="307545">
    <nd ref="273624731"/>
    <nd ref="273624806"/>
    <nd ref="273624799"/>
    <nd ref="36539088"/>
    <nd ref="273624802"/>
    <tag k="highway" v="residential"/>
    <tag k="name" v="Derribong Street"/>
    <tag k="source" v="yahoo"/>
  </way>
  <way id="25125417" version="2" timestamp="2009-12-22T21:58:12Z" uid="7617" user="Franc" changeset="3430601">
    <nd ref="273624731"/>
    <nd ref="598315312"/>
    <nd ref="273624806"/>
    <nd ref="273624799"/>
    <nd ref="36539088"/>
    <nd ref="273624802"/>
    <tag k="highway" v="residential"/>
    <tag k="name" v="Derribong Street"/>
    <tag k="source" v="nearmap"/>
  </way>
  <way id="25125417" version="3" timestamp="2010-07-08T01:52:10Z" uid="74617" user="JohnSmith" changeset="5162525">
    <nd ref="273624731"/>
    <nd ref="598315312"/>
    <nd ref="273624806"/>
    <nd ref="273624799"/>
    <nd ref="36539088"/>
    <nd ref="273624802"/>
    <tag k="highway" v="residential"/>
    <tag k="maxspeed" v="50"/>
    <tag k="maxspeed:source" v="default residential speed limit in Australia"/>
    <tag k="name" v="Derribong Street"/>
    <tag k="source" v="nearmap"/>
  </way>
  <way id="25125418" version="1" timestamp="2008-06-27T04:25:47Z" uid="30201" user="rrankin" changeset="307545">
    <nd ref="273624806"/>
    <nd ref="273624816"/>
    <nd ref="273624849"/>
    <nd ref="273624949"/>
    <nd ref="273624963"/>
    <nd ref="273624856"/>
    <nd ref="273624885"/>
    <nd ref="273624811"/>
    <nd ref="273546577"/>
    <tag k="highway" v="residential"/>
    <tag k="name" v="Yunga Burra Street"/>
    <tag k="source" v="yahoo"/>
  </way>
  <way id="25125418" version="2" timestamp="2009-12-22T21:58:12Z" uid="7617" user="Franc" changeset="3430601">
    <nd ref="273624806"/>
    <nd ref="273624816"/>
    <nd ref="273624849"/>
    <nd ref="273624949"/>
    <nd ref="598315342"/>
    <nd ref="273624963"/>
    <nd ref="273624856"/>
    <nd ref="273624885"/>
    <nd ref="598315345"/>
    <nd ref="598315346"/>
    <nd ref="273624811"/>
    <nd ref="273546577"/>
    <tag k="highway" v="residential"/>
    <tag k="name" v="Yunga Burra Street"/>
    <tag k="source" v="nearmap"/>
  </way>
  <way id="25125418" version="3" timestamp="2010-07-08T01:56:13Z" uid="74617" user="JohnSmith" changeset="5162525">
    <nd ref="273624806"/>
    <nd ref="273624816"/>
    <nd ref="273624849"/>
    <nd ref="273624949"/>
    <nd ref="598315342"/>
    <nd ref="273624963"/>
    <nd ref="273624856"/>
    <nd ref="273624885"/>
    <nd ref="598315345"/>
    <nd ref="598315346"/>
    <nd ref="273624811"/>
    <nd ref="273546577"/>
    <tag k="highway" v="residential"/>
    <tag k="maxspeed" v="50"/>
    <tag k="maxspeed:source" v="default residential speed limit in Australia"/>
    <tag k="name" v="Yunga Burra Street"/>
    <tag k="source" v="nearmap"/>
  </way>
  <way id="25125419" version="1" timestamp="2008-06-27T04:25:48Z" uid="30201" user="rrankin" changeset="307545">
    <nd ref="273624816"/>
    <nd ref="273624822"/>
    <nd ref="273624830"/>
    <nd ref="273624836"/>
    <nd ref="273624842"/>
    <nd ref="273624849"/>
    <tag k="highway" v="residential"/>
    <tag k="name" v="Yunga Burra Street"/>
    <tag k="source" v="yahoo"/>
  </way>
  <way id="25125419" version="2" timestamp="2009-12-22T21:58:12Z" uid="7617" user="Franc" changeset="3430601">
    <nd ref="273624816"/>
    <nd ref="273624822"/>
    <nd ref="598315258"/>
    <nd ref="273624830"/>
    <nd ref="273624836"/>
    <nd ref="598315330"/>
    <nd ref="273624842"/>
    <nd ref="273624849"/>
    <tag k="highway" v="residential"/>
    <tag k="name" v="Yunga Burra Street"/>
    <tag k="source" v="yahoo"/>
  </way>
  <way id="25125419" version="3" timestamp="2009-12-23T00:41:51Z" uid="7617" user="Franc" changeset="3431378">
    <nd ref="273624816"/>
    <nd ref="273624822"/>
    <nd ref="598315258"/>
    <nd ref="273624830"/>
    <nd ref="273624836"/>
    <nd ref="598315330"/>
    <nd ref="273624842"/>
    <nd ref="273624849"/>
    <tag k="highway" v="residential"/>
    <tag k="name" v="Yunga Burra Street"/>
    <tag k="source" v="nearmap"/>
  </way>
  <way id="25125419" version="4" timestamp="2010-07-08T01:58:14Z" uid="74617" user="JohnSmith" changeset="5162525">
    <nd ref="273624816"/>
    <nd ref="273624822"/>
    <nd ref="598315258"/>
    <nd ref="273624830"/>
    <nd ref="273624836"/>
    <nd ref="598315330"/>
    <nd ref="273624842"/>
    <nd ref="273624849"/>
    <tag k="highway" v="residential"/>
    <tag k="maxspeed" v="50"/>
    <tag k="maxspeed:source" v="default residential speed limit in Australia"/>
    <tag k="name" v="Yunga Burra Street"/>
    <tag k="source" v="nearmap"/>
  </way>
  <way id="25125420" version="1" timestamp="2008-06-27T04:25:49Z" uid="30201" user="rrankin" changeset="307545">
    <nd ref="273624856"/>
    <nd ref="273624861"/>
    <nd ref="273624867"/>
    <nd ref="273624872"/>
    <nd ref="273624878"/>
    <nd ref="273624885"/>
    <tag k="highway" v="residential"/>
    <tag k="name" v="Yunga Burra Street"/>
    <tag k="source" v="yahoo"/>
  </way>
  <way id="25125420" version="2" timestamp="2009-12-22T21:58:13Z" uid="7617" user="Franc" changeset="3430601">
    <nd ref="273624856"/>
    <nd ref="273624861"/>
    <nd ref="598315333"/>
    <nd ref="273624867"/>
    <nd ref="273624872"/>
    <nd ref="598315347"/>
    <nd ref="273624878"/>
    <nd ref="273624885"/>
    <tag k="highway" v="residential"/>
    <tag k="name" v="Yunga Burra Street"/>
    <tag k="source" v="nearmap"/>
  </way>
  <way id="25125420" version="3" timestamp="2010-07-08T01:58:48Z" uid="74617" user="JohnSmith" changeset="5162525">
    <nd ref="273624856"/>
    <nd ref="273624861"/>
    <nd ref="598315333"/>
    <nd ref="273624867"/>
    <nd ref="273624872"/>
    <nd ref="598315347"/>
    <nd ref="273624878"/>
    <nd ref="273624885"/>
    <tag k="highway" v="residential"/>
    <tag k="maxspeed" v="50"/>
    <tag k="maxspeed:source" v="default residential speed limit in Australia"/>
    <tag k="name" v="Yunga Burra Street"/>
    <tag k="source" v="nearmap"/>
  </way>
  <way id="25125421" version="1" timestamp="2008-06-27T04:25:50Z" uid="30201" user="rrankin" changeset="307545">
    <nd ref="273546522"/>
    <nd ref="273624893"/>
    <tag k="highway" v="residential"/>
    <tag k="name" v="Camira Street"/>
    <tag k="source" v="yahoo"/>
  </way>
  <way id="25125421" version="2" timestamp="2009-12-22T09:49:34Z" uid="7617" user="Franc" changeset="3425720">
    <nd ref="273546522"/>
    <nd ref="598104627"/>
    <nd ref="273624893"/>
    <tag k="highway" v="residential"/>
    <tag k="name" v="Camira Street"/>
    <tag k="source" v="nearmap"/>
  </way>
  <way id="25125421" version="3" timestamp="2010-07-08T02:01:25Z" uid="74617" user="JohnSmith" changeset="5162525">
    <nd ref="273546522"/>
    <nd ref="598104627"/>
    <nd ref="273624893"/>
    <tag k="highway" v="residential"/>
    <tag k="maxspeed" v="50"/>
    <tag k="maxspeed:source" v="default residential speed limit in Australia"/>
    <tag k="name" v="Camira Street"/>
    <tag k="source" v="nearmap"/>
  </way>
  <way id="25125422" version="1" timestamp="2008-06-27T04:25:51Z" uid="30201" user="rrankin" changeset="307545">
    <nd ref="273624899"/>
    <nd ref="273309111"/>
    <nd ref="273624904"/>
    <nd ref="273624913"/>
    <nd ref="273624942"/>
    <nd ref="273624956"/>
    <nd ref="273624985"/>
    <nd ref="273624920"/>
    <nd ref="273624927"/>
    <nd ref="273624935"/>
    <tag k="highway" v="residential"/>
    <tag k="name" v="Goonda Street"/>
    <tag k="source" v="yahoo"/>
  </way>
  <way id="25125422" version="2" timestamp="2009-12-22T21:58:10Z" uid="7617" user="Franc" changeset="3430601">
    <nd ref="273624899"/>
    <nd ref="273309111"/>
    <nd ref="273624904"/>
    <nd ref="598315328"/>
    <nd ref="273624913"/>
    <nd ref="273624942"/>
    <nd ref="273624956"/>
    <nd ref="273624985"/>
    <nd ref="273624920"/>
    <nd ref="273624927"/>
    <nd ref="273624935"/>
    <tag k="highway" v="residential"/>
    <tag k="name" v="Goonda Street"/>
    <tag k="source" v="yahoo"/>
  </way>
  <way id="25125422" version="3" timestamp="2009-12-23T00:41:50Z" uid="7617" user="Franc" changeset="3431378">
    <nd ref="273624899"/>
    <nd ref="273309111"/>
    <nd ref="273624904"/>
    <nd ref="598315328"/>
    <nd ref="273624913"/>
    <nd ref="273624942"/>
    <nd ref="273624956"/>
    <nd ref="273624985"/>
    <nd ref="273624920"/>
    <nd ref="273624927"/>
    <nd ref="273624935"/>
    <tag k="highway" v="residential"/>
    <tag k="name" v="Goonda Street"/>
    <tag k="source" v="nearmap"/>
  </way>
  <way id="25125422" version="4" timestamp="2010-01-06T05:46:21Z" uid="7617" user="Franc" changeset="3551041">
    <nd ref="273624899"/>
    <nd ref="606307217"/>
    <tag k="highway" v="residential"/>
    <tag k="name" v="Goonda Street"/>
    <tag k="source" v="nearmap"/>
  </way>
  <way id="25125422" version="5" timestamp="2010-07-08T01:54:32Z" uid="74617" user="JohnSmith" changeset="5162525">
    <nd ref="273624899"/>
    <nd ref="606307217"/>
    <tag k="highway" v="residential"/>
    <tag k="maxspeed" v="50"/>
    <tag k="maxspeed:source" v="default residential speed limit in Australia"/>
    <tag k="name" v="Goonda Street"/>
    <tag k="source" v="nearmap"/>
  </way>
  <way id="25125423" version="1" timestamp="2008-06-27T04:25:52Z" uid="30201" user="rrankin" changeset="307545">
    <nd ref="273624942"/>
    <nd ref="273624794"/>
    <nd ref="273624949"/>
    <tag k="highway" v="residential"/>
    <tag k="name" v="Coolalie Street"/>
    <tag k="source" v="yahoo"/>
  </way>
  <way id="25125423" version="2" timestamp="2009-12-22T21:58:12Z" uid="7617" user="Franc" changeset="3430601">
    <nd ref="273624942"/>
    <nd ref="598315350"/>
    <nd ref="273624794"/>
    <nd ref="273624949"/>
    <tag k="highway" v="residential"/>
    <tag k="name" v="Coolalie Street"/>
    <tag k="source" v="nearmap"/>
  </way>
  <way id="25125423" version="3" timestamp="2010-07-08T01:56:50Z" uid="74617" user="JohnSmith" changeset="5162525">
    <nd ref="273624942"/>
    <nd ref="598315350"/>
    <nd ref="273624794"/>
    <nd ref="273624949"/>
    <tag k="highway" v="residential"/>
    <tag k="maxspeed" v="50"/>
    <tag k="maxspeed:source" v="default residential speed limit in Australia"/>
    <tag k="name" v="Coolalie Street"/>
    <tag k="source" v="nearmap"/>
  </way>
  <way id="25125424" version="1" timestamp="2008-06-27T04:25:52Z" uid="30201" user="rrankin" changeset="307545">
    <nd ref="273624956"/>
    <nd ref="273624968"/>
    <nd ref="273624963"/>
    <tag k="highway" v="residential"/>
    <tag k="name" v="Kungala Street"/>
    <tag k="source" v="yahoo"/>
  </way>
  <way id="25125424" version="2" timestamp="2009-12-22T21:58:11Z" uid="7617" user="Franc" changeset="3430601">
    <nd ref="273624956"/>
    <nd ref="273624968"/>
    <nd ref="273624963"/>
    <tag k="highway" v="residential"/>
    <tag k="name" v="Kungala Street"/>
    <tag k="source" v="nearmap"/>
  </way>
  <way id="25125424" version="3" timestamp="2010-07-08T01:59:47Z" uid="74617" user="JohnSmith" changeset="5162525">
    <nd ref="273624956"/>
    <nd ref="273624968"/>
    <nd ref="273624963"/>
    <tag k="highway" v="residential"/>
    <tag k="maxspeed" v="50"/>
    <tag k="maxspeed:source" v="default residential speed limit in Australia"/>
    <tag k="name" v="Kungala Street"/>
    <tag k="source" v="nearmap"/>
  </way>
  <way id="25125425" version="1" timestamp="2008-06-27T04:25:53Z" uid="30201" user="rrankin" changeset="307545">
    <nd ref="273624968"/>
    <nd ref="273624971"/>
    <tag k="highway" v="residential"/>
    <tag k="name" v="Gundaroo Street"/>
    <tag k="source" v="yahoo"/>
  </way>
  <way id="25125425" version="2" timestamp="2010-07-08T02:02:09Z" uid="74617" user="JohnSmith" changeset="5162525">
    <nd ref="273624968"/>
    <nd ref="273624971"/>
    <tag k="highway" v="residential"/>
    <tag k="maxspeed" v="50"/>
    <tag k="maxspeed:source" v="default residential speed limit in Australia"/>
    <tag k="name" v="Gundaroo Street"/>
    <tag k="source" v="yahoo"/>
  </way>
  <way id="25125426" version="1" timestamp="2008-06-27T04:25:54Z" uid="30201" user="rrankin" changeset="307545">
    <nd ref="273624978"/>
    <nd ref="273309109"/>
    <nd ref="273624985"/>
    <tag k="highway" v="residential"/>
    <tag k="name" v="Warilda Street"/>
    <tag k="source" v="yahoo"/>
  </way>
  <way id="25125426" version="2" timestamp="2009-12-22T22:52:17Z" uid="7617" user="Franc" changeset="3430918">
    <nd ref="273624978"/>
    <nd ref="273309109"/>
    <nd ref="273624985"/>
    <tag k="highway" v="residential"/>
    <tag k="name" v="Warilda Street"/>
    <tag k="source" v="nearmap"/>
  </way>
  <way id="25125426" version="3" timestamp="2010-01-06T05:46:21Z" uid="7617" user="Franc" changeset="3551041">
    <nd ref="273624978"/>
    <nd ref="606307209"/>
    <tag k="highway" v="residential"/>
    <tag k="name" v="Warilda Street"/>
    <tag k="source" v="nearmap"/>
  </way>
  <way id="25125426" version="4" timestamp="2010-07-08T01:55:20Z" uid="74617" user="JohnSmith" changeset="5162525">
    <nd ref="273624978"/>
    <nd ref="606307209"/>
    <tag k="highway" v="residential"/>
    <tag k="maxspeed" v="50"/>
    <tag k="maxspeed:source" v="default residential speed limit in Australia"/>
    <tag k="name" v="Warilda Street"/>
    <tag k="source" v="nearmap"/>
  </way>
  <way id="25125428" version="1" timestamp="2008-06-27T04:25:55Z" uid="30201" user="rrankin" changeset="307545">
    <nd ref="273624999"/>
    <nd ref="273546509"/>
    <tag k="highway" v="residential"/>
    <tag k="name" v="Killanoola Street"/>
    <tag k="source" v="yahoo"/>
  </way>
  <way id="25125428" version="2" timestamp="2010-07-08T01:58:03Z" uid="74617" user="JohnSmith" changeset="5162525">
    <nd ref="273624999"/>
    <nd ref="273546509"/>
    <tag k="highway" v="residential"/>
    <tag k="maxspeed" v="50"/>
    <tag k="maxspeed:source" v="default residential speed limit in Australia"/>
    <tag k="name" v="Killanoola Street"/>
    <tag k="source" v="yahoo"/>
  </way>
  <way id="25125539" version="4" timestamp="2010-03-27T23:43:37Z" uid="20587" user="balrog-kun" changeset="4250871">
    <nd ref="49463438"/>
    <nd ref="49647378"/>
    <nd ref="49647380"/>
    <nd ref="49647381"/>
    <nd ref="49647383"/>
    <nd ref="48959495"/>
    <nd ref="49647386"/>
    <nd ref="49647388"/>
    <nd ref="49647390"/>
    <nd ref="49647392"/>
    <nd ref="49647394"/>
    <nd ref="49309725"/>
    <nd ref="655435966"/>
    <nd ref="273627026"/>
    <nd ref="273627556"/>
    <nd ref="655435967"/>
    <nd ref="273627557"/>
    <tag k="cycleway" v="lane"/>
    <tag k="highway" v="residential"/>
    <tag k="name" v="Voight Drive"/>
    <tag k="name_1" v="Old Miramar Road"/>
    <tag k="tiger:cfcc" v="A41"/>
    <tag k="tiger:county" v="San Diego, CA"/>
    <tag k="tiger:name_base" v="Voight"/>
    <tag k="tiger:name_base_1" v="Old Miramar"/>
    <tag k="tiger:name_type" v="Dr"/>
    <tag k="tiger:name_type_1" v="Rd"/>
    <tag k="tiger:reviewed" v="no"/>
    <tag k="tiger:separated" v="no"/>
    <tag k="tiger:source" v="tiger_import_dch_v0.6_20070809"/>
    <tag k="tiger:tlid" v="195675525:195680975:195686382:195686383"/>
    <tag k="tiger:zip_left" v="92037"/>
    <tag k="tiger:zip_right" v="92037"/>
  </way>
  <way id="25125547" version="9" timestamp="2010-04-26T19:17:17Z" uid="9581" user="Lobelt" changeset="4535020">
    <nd ref="248016333"/>
    <nd ref="273625748"/>
    <tag k="highway" v="track"/>
    <tag k="motorcar" v="yes"/>
    <tag k="tracktype" v="grade1"/>
  </way>
  <way id="25125629" version="1" timestamp="2008-06-27T04:33:59Z" uid="30201" user="rrankin" changeset="307545">
    <nd ref="273546583"/>
    <nd ref="273629410"/>
    <nd ref="273629415"/>
    <nd ref="273629423"/>
    <nd ref="273629428"/>
    <nd ref="273546545"/>
    <nd ref="273629435"/>
    <nd ref="273629442"/>
    <nd ref="273629446"/>
    <tag k="highway" v="residential"/>
    <tag k="name" v="Mundamatta Street"/>
    <tag k="source" v="yahoo"/>
  </way>
  <way id="25125629" version="2" timestamp="2009-12-22T08:41:39Z" uid="7617" user="Franc" changeset="3425369">
    <nd ref="273546583"/>
    <nd ref="273629410"/>
    <nd ref="273629415"/>
    <nd ref="273629423"/>
    <nd ref="273629428"/>
    <nd ref="598073149"/>
    <nd ref="273546545"/>
    <nd ref="273629435"/>
    <nd ref="273629442"/>
    <nd ref="273629446"/>
    <tag k="highway" v="residential"/>
    <tag k="name" v="Mundamatta Street"/>
    <tag k="source" v="yahoo"/>
  </way>
  <way id="25125629" version="3" timestamp="2010-07-08T02:01:04Z" uid="74617" user="JohnSmith" changeset="5162525">
    <nd ref="273546583"/>
    <nd ref="273629410"/>
    <nd ref="273629415"/>
    <nd ref="273629423"/>
    <nd ref="273629428"/>
    <nd ref="598073149"/>
    <nd ref="273546545"/>
    <nd ref="273629435"/>
    <nd ref="273629442"/>
    <nd ref="273629446"/>
    <tag k="highway" v="residential"/>
    <tag k="maxspeed" v="50"/>
    <tag k="maxspeed:source" v="default residential speed limit in Australia"/>
    <tag k="name" v="Mundamatta Street"/>
    <tag k="source" v="yahoo"/>
  </way>
  <way id="25125630" version="1" timestamp="2008-06-27T04:34:00Z" uid="30201" user="rrankin" changeset="307545">
    <nd ref="273546542"/>
    <nd ref="273629478"/>
    <nd ref="273629485"/>
    <nd ref="273546489"/>
    <tag k="highway" v="residential"/>
    <tag k="name" v="Indlebar Street"/>
    <tag k="source" v="yahoo"/>
  </way>
  <way id="25125630" version="2" timestamp="2009-12-22T08:41:40Z" uid="7617" user="Franc" changeset="3425369">
    <nd ref="273546542"/>
    <nd ref="598073218"/>
    <nd ref="273629478"/>
    <nd ref="598073236"/>
    <nd ref="598073242"/>
    <nd ref="273629485"/>
    <nd ref="598073257"/>
    <nd ref="273546489"/>
    <tag k="highway" v="residential"/>
    <tag k="name" v="Indlebar Street"/>
    <tag k="source" v="nearmap"/>
  </way>
  <way id="25125630" version="3" timestamp="2010-07-08T01:54:15Z" uid="74617" user="JohnSmith" changeset="5162525">
    <nd ref="273546542"/>
    <nd ref="598073218"/>
    <nd ref="273629478"/>
    <nd ref="598073236"/>
    <nd ref="598073242"/>
    <nd ref="273629485"/>
    <nd ref="598073257"/>
    <nd ref="273546489"/>
    <tag k="highway" v="residential"/>
    <tag k="maxspeed" v="50"/>
    <tag k="maxspeed:source" v="default residential speed limit in Australia"/>
    <tag k="name" v="Indlebar Street"/>
    <tag k="source" v="nearmap"/>
  </way>
  <way id="25125631" version="1" timestamp="2008-06-27T04:34:01Z" uid="30201" user="rrankin" changeset="307545">
    <nd ref="273629491"/>
    <nd ref="273629496"/>
    <nd ref="273629505"/>
    <nd ref="273629510"/>
    <nd ref="273629517"/>
    <nd ref="273629522"/>
    <nd ref="273629545"/>
    <tag k="highway" v="residential"/>
    <tag k="name" v="Goonaroi Street"/>
    <tag k="source" v="yahoo"/>
  </way>
  <way id="25125631" version="2" timestamp="2010-07-08T01:56:27Z" uid="74617" user="JohnSmith" changeset="5162525">
    <nd ref="273629491"/>
    <nd ref="273629496"/>
    <nd ref="273629505"/>
    <nd ref="273629510"/>
    <nd ref="273629517"/>
    <nd ref="273629522"/>
    <nd ref="273629545"/>
    <tag k="highway" v="residential"/>
    <tag k="maxspeed" v="50"/>
    <tag k="maxspeed:source" v="default residential speed limit in Australia"/>
    <tag k="name" v="Goonaroi Street"/>
    <tag k="source" v="yahoo"/>
  </way>
  <way id="25125633" version="1" timestamp="2008-06-27T04:34:01Z" uid="30201" user="rrankin" changeset="307545">
    <nd ref="273629537"/>
    <nd ref="273629435"/>
    <tag k="highway" v="residential"/>
    <tag k="name" v="Goonaroi Street"/>
    <tag k="source" v="yahoo"/>
  </way>
  <way id="25125633" version="2" timestamp="2010-07-08T01:55:14Z" uid="74617" user="JohnSmith" changeset="5162525">
    <nd ref="273629537"/>
    <nd ref="273629435"/>
    <tag k="highway" v="residential"/>
    <tag k="maxspeed" v="50"/>
    <tag k="maxspeed:source" v="default residential speed limit in Australia"/>
    <tag k="name" v="Goonaroi Street"/>
    <tag k="source" v="yahoo"/>
  </way>
  <way id="25125634" version="1" timestamp="2008-06-27T04:34:02Z" uid="30201" user="rrankin" changeset="307545">
    <nd ref="273546484"/>
    <nd ref="273629537"/>
    <tag k="highway" v="residential"/>
    <tag k="name" v="Nurragi Street"/>
    <tag k="source" v="yahoo"/>
  </way>
  <way id="25125634" version="2" timestamp="2010-07-08T01:58:58Z" uid="74617" user="JohnSmith" changeset="5162525">
    <nd ref="273546484"/>
    <nd ref="273629537"/>
    <tag k="highway" v="residential"/>
    <tag k="maxspeed" v="50"/>
    <tag k="maxspeed:source" v="default residential speed limit in Australia"/>
    <tag k="name" v="Nurragi Street"/>
    <tag k="source" v="yahoo"/>
  </way>
  <way id="25125635" version="1" timestamp="2008-06-27T04:34:03Z" uid="30201" user="rrankin" changeset="307545">
    <nd ref="273629553"/>
    <nd ref="273629558"/>
    <nd ref="273629565"/>
    <nd ref="273629573"/>
    <tag k="highway" v="residential"/>
    <tag k="name" v="Garrawille Street"/>
    <tag k="source" v="yahoo"/>
  </way>
  <way id="25125635" version="2" timestamp="2009-12-22T09:49:35Z" uid="7617" user="Franc" changeset="3425720">
    <nd ref="273629553"/>
    <nd ref="273629558"/>
    <nd ref="273629565"/>
    <nd ref="273629573"/>
    <tag k="highway" v="residential"/>
    <tag k="name" v="Garrawille Street"/>
    <tag k="source" v="nearmap"/>
  </way>
  <way id="25125635" version="3" timestamp="2010-07-08T02:01:31Z" uid="74617" user="JohnSmith" changeset="5162525">
    <nd ref="273629553"/>
    <nd ref="273629558"/>
    <nd ref="273629565"/>
    <nd ref="273629573"/>
    <tag k="highway" v="residential"/>
    <tag k="maxspeed" v="50"/>
    <tag k="maxspeed:source" v="default residential speed limit in Australia"/>
    <tag k="name" v="Garrawille Street"/>
    <tag k="source" v="nearmap"/>
  </way>
  <way id="25125663" version="2" timestamp="2009-06-05T04:50:14Z" uid="74617" user="JohnSmith" changeset="1426104">
    <nd ref="273630039"/>
    <nd ref="273630040"/>
    <nd ref="273630041"/>
    <nd ref="273630042"/>
    <nd ref="273630043"/>
    <nd ref="273630044"/>
    <nd ref="273630045"/>
    <nd ref="273630046"/>
    <nd ref="273630047"/>
    <nd ref="273630048"/>
    <nd ref="273630050"/>
    <nd ref="273630051"/>
    <nd ref="273630052"/>
    <nd ref="273630053"/>
    <nd ref="273630054"/>
    <nd ref="273630055"/>
    <nd ref="273630056"/>
    <nd ref="273630058"/>
    <nd ref="273630059"/>
    <nd ref="273630060"/>
    <nd ref="273630062"/>
    <nd ref="273630063"/>
    <nd ref="273630064"/>
    <nd ref="273630065"/>
    <nd ref="273630066"/>
    <nd ref="273630067"/>
    <nd ref="273630068"/>
    <nd ref="273630069"/>
    <nd ref="273630070"/>
    <nd ref="273630071"/>
    <nd ref="273630072"/>
    <nd ref="273630073"/>
    <nd ref="273630074"/>
    <nd ref="273630075"/>
    <nd ref="273630076"/>
    <nd ref="273630077"/>
    <nd ref="273630079"/>
    <nd ref="273630080"/>
    <nd ref="273630081"/>
    <nd ref="273630082"/>
    <nd ref="273630083"/>
    <nd ref="273630084"/>
    <nd ref="273630085"/>
    <nd ref="273630086"/>
    <nd ref="273630087"/>
    <nd ref="273630088"/>
    <nd ref="273630089"/>
    <nd ref="273630090"/>
    <nd ref="273630091"/>
    <nd ref="273630092"/>
    <nd ref="273630093"/>
    <nd ref="273630094"/>
    <nd ref="273630095"/>
    <nd ref="273630097"/>
    <nd ref="273630098"/>
    <tag k="highway" v="unclassified"/>
    <tag k="name" v="Nymboida River Road"/>
  </way>
</osm>
