<?xml version='1.0' encoding='UTF-8'?>
<osm version="0.6" generator="libosmium/2.20.0">
  <way id="25172141" version="9" timestamp="2010-03-27T23:43:42Z" uid="20587" user="balrog-kun" changeset="4250871">
    <nd ref="274398257"/>
    <nd ref="436645460"/>
    <nd ref="274398258"/>
    <nd ref="667744233"/>
    <nd ref="667744234"/>
    <nd ref="667744235"/>
    <nd ref="667744236"/>
    <nd ref="667744237"/>
    <tag k="highway" v="residential"/>
    <tag k="name" v="Bay Street"/>
  </way>
  <way id="25172170" version="3" timestamp="2008-07-04T07:48:28Z" uid="6975" user="ulfl" changeset="389415">
    <nd ref="258419724"/>
    <nd ref="274398482"/>
    <nd ref="274398483"/>
    <nd ref="274399305"/>
    <nd ref="274398484"/>
    <nd ref="274398486"/>
    <nd ref="274398488"/>
    <nd ref="274398491"/>
    <nd ref="274398569"/>
    <nd ref="274398493"/>
    <nd ref="274398496"/>
    <tag k="highway" v="unclassified"/>
    <tag k="oneway" v="yes"/>
  </way>
  <way id="25172172" version="2" timestamp="2008-07-04T07:48:23Z" uid="6975" user="ulfl" changeset="389415">
    <nd ref="274398493"/>
    <nd ref="274398499"/>
    <nd ref="274398503"/>
    <nd ref="274398506"/>
    <nd ref="274398509"/>
    <nd ref="274398513"/>
    <nd ref="274398516"/>
    <nd ref="274398519"/>
    <nd ref="274398522"/>
    <nd ref="274398525"/>
    <nd ref="274398528"/>
    <nd ref="274398529"/>
    <nd ref="274398530"/>
    <nd ref="274398531"/>
    <nd ref="274398532"/>
    <nd ref="274398533"/>
    <nd ref="274398534"/>
    <nd ref="274398539"/>
    <nd ref="274398544"/>
    <tag k="highway" v="unclassified"/>
    <tag k="oneway" v="yes"/>
  </way>
  <way id="25172173" version="2" timestamp="2008-07-04T07:48:21Z" uid="6975" user="ulfl" changeset="389415">
    <nd ref="274398547"/>
    <nd ref="274398550"/>
    <nd ref="274398552"/>
    <nd ref="274398554"/>
    <nd ref="274398557"/>
    <nd ref="274398560"/>
    <nd ref="274398563"/>
    <nd ref="274398565"/>
    <nd ref="274398568"/>
    <nd ref="274398569"/>
    <tag k="highway" v="unclassified"/>
    <tag k="oneway" v="yes"/>
  </way>
  <way id="25172185" version="9" timestamp="2010-03-27T23:43:42Z" uid="20587" user="balrog-kun" changeset="4250871">
    <nd ref="667744237"/>
    <nd ref="667744242"/>
    <nd ref="667744243"/>
    <nd ref="667744244"/>
    <nd ref="667744245"/>
    <nd ref="274398266"/>
    <nd ref="274398267"/>
    <tag k="highway" v="residential"/>
    <tag k="name" v="Cedar Street"/>
  </way>
  <way id="25172201" version="2" timestamp="2010-03-27T23:43:42Z" uid="20587" user="balrog-kun" changeset="4250871">
    <nd ref="274398269"/>
    <nd ref="274398784"/>
    <tag k="created_by" v="Potlatch 0.9c"/>
    <tag k="highway" v="residential"/>
    <tag k="name" v="7th Street"/>
  </way>
  <way id="25172214" version="2" timestamp="2010-03-27T23:43:43Z" uid="20587" user="balrog-kun" changeset="4250871">
    <nd ref="274398784"/>
    <nd ref="274399108"/>
    <tag k="created_by" v="Potlatch 0.9c"/>
    <tag k="highway" v="residential"/>
    <tag k="name" v="Bay Street"/>
  </way>
  <way id="25172217" version="2" timestamp="2010-03-27T23:43:43Z" uid="20587" user="balrog-kun" changeset="4250871">
    <nd ref="274399108"/>
    <nd ref="274398271"/>
    <tag k="created_by" v="Potlatch 0.9c"/>
    <tag k="highway" v="residential"/>
    <tag k="name" v="5th Street"/>
  </way>
  <way id="25172220" version="2" timestamp="2008-07-04T07:48:27Z" uid="6975" user="ulfl" changeset="389415">
    <nd ref="274398491"/>
    <nd ref="274399210"/>
    <nd ref="274399215"/>
    <nd ref="274399221"/>
    <nd ref="274399228"/>
    <nd ref="274399234"/>
    <nd ref="274399239"/>
    <nd ref="274399243"/>
    <nd ref="274399246"/>
    <nd ref="274399250"/>
    <nd ref="274399254"/>
    <nd ref="274399257"/>
    <nd ref="274399263"/>
    <nd ref="274399267"/>
    <nd ref="274399272"/>
    <nd ref="274399278"/>
    <nd ref="274399283"/>
    <nd ref="274399286"/>
    <nd ref="274399291"/>
    <nd ref="274399295"/>
    <nd ref="274399298"/>
    <nd ref="274399302"/>
    <nd ref="274399305"/>
    <tag k="highway" v="unclassified"/>
    <tag k="oneway" v="yes"/>
  </way>
  <way id="25172245" version="2" timestamp="2010-03-27T23:43:43Z" uid="20587" user="balrog-kun" changeset="4250871">
    <nd ref="274398268"/>
    <nd ref="274398269"/>
    <nd ref="274398270"/>
    <nd ref="274398271"/>
    <tag k="created_by" v="Potlatch 0.9c"/>
    <tag k="highway" v="residential"/>
    <tag k="name" v="Cedar Street"/>
  </way>
  <way id="25172247" version="3" timestamp="2010-03-27T23:43:43Z" uid="20587" user="balrog-kun" changeset="4250871">
    <nd ref="274398267"/>
    <nd ref="274398268"/>
    <tag k="bridge" v="yes"/>
    <tag k="created_by" v="Potlatch 0.9c"/>
    <tag k="highway" v="residential"/>
    <tag k="name" v="Cedar Street"/>
  </way>
  <way id="25172285" version="1" timestamp="2008-06-28T23:49:25Z" uid="30201" user="rrankin" changeset="328644">
    <nd ref="274400157"/>
    <nd ref="267181201"/>
    <tag k="highway" v="residential"/>
    <tag k="name" v="Mongomery Avenue"/>
    <tag k="source" v="yahoo"/>
  </way>
  <way id="25172285" version="2" timestamp="2009-12-27T12:52:47Z" uid="7617" user="Franc" changeset="3462352">
    <nd ref="274400157"/>
    <nd ref="599970306"/>
    <tag k="highway" v="residential"/>
    <tag k="name" v="Mongomery Avenue"/>
    <tag k="source" v="yahoo"/>
  </way>
  <way id="25172285" version="3" timestamp="2010-07-08T02:00:25Z" uid="74617" user="JohnSmith" changeset="5162525">
    <nd ref="274400157"/>
    <nd ref="599970306"/>
    <tag k="highway" v="residential"/>
    <tag k="maxspeed" v="50"/>
    <tag k="maxspeed:source" v="default residential speed limit in Australia"/>
    <tag k="name" v="Mongomery Avenue"/>
    <tag k="source" v="yahoo"/>
  </way>
  <way id="25172286" version="1" timestamp="2008-06-28T23:49:26Z" uid="30201" user="rrankin" changeset="328644">
    <nd ref="274400158"/>
    <nd ref="274400162"/>
    <tag k="highway" v="residential"/>
    <tag k="name" v="Ostend Street"/>
    <tag k="source" v="yahoo"/>
  </way>
  <way id="25172286" version="2" timestamp="2010-07-08T01:53:40Z" uid="74617" user="JohnSmith" changeset="5162525">
    <nd ref="274400158"/>
    <nd ref="274400162"/>
    <tag k="highway" v="residential"/>
    <tag k="maxspeed" v="50"/>
    <tag k="maxspeed:source" v="default residential speed limit in Australia"/>
    <tag k="name" v="Ostend Street"/>
    <tag k="source" v="yahoo"/>
  </way>
  <way id="25172287" version="1" timestamp="2008-06-28T23:49:26Z" uid="30201" user="rrankin" changeset="328644">
    <nd ref="274400166"/>
    <nd ref="274400168"/>
    <tag k="highway" v="residential"/>
    <tag k="name" v="Maubeuge Street"/>
    <tag k="source" v="yahoo"/>
  </way>
  <way id="25172287" version="2" timestamp="2010-07-08T01:55:55Z" uid="74617" user="JohnSmith" changeset="5162525">
    <nd ref="274400166"/>
    <nd ref="274400168"/>
    <tag k="highway" v="residential"/>
    <tag k="maxspeed" v="50"/>
    <tag k="maxspeed:source" v="default residential speed limit in Australia"/>
    <tag k="name" v="Maubeuge Street"/>
    <tag k="source" v="yahoo"/>
  </way>
  <way id="25172288" version="1" timestamp="2008-06-28T23:49:27Z" uid="30201" user="rrankin" changeset="328644">
    <nd ref="274400169"/>
    <nd ref="274400170"/>
    <tag k="highway" v="residential"/>
    <tag k="name" v="Namur Street"/>
    <tag k="source" v="yahoo"/>
  </way>
  <way id="25172288" version="2" timestamp="2010-07-08T01:58:37Z" uid="74617" user="JohnSmith" changeset="5162525">
    <nd ref="274400169"/>
    <nd ref="274400170"/>
    <tag k="highway" v="residential"/>
    <tag k="maxspeed" v="50"/>
    <tag k="maxspeed:source" v="default residential speed limit in Australia"/>
    <tag k="name" v="Namur Street"/>
    <tag k="source" v="yahoo"/>
  </way>
  <way id="25172289" version="1" timestamp="2008-06-28T23:49:28Z" uid="30201" user="rrankin" changeset="328644">
    <nd ref="274400174"/>
    <nd ref="274400200"/>
    <tag k="highway" v="residential"/>
    <tag k="name" v="Dixmude Street"/>
    <tag k="source" v="yahoo"/>
  </way>
  <way id="25172289" version="2" timestamp="2010-07-08T02:01:17Z" uid="74617" user="JohnSmith" changeset="5162525">
    <nd ref="274400174"/>
    <nd ref="274400200"/>
    <tag k="highway" v="residential"/>
    <tag k="maxspeed" v="50"/>
    <tag k="maxspeed:source" v="default residential speed limit in Australia"/>
    <tag k="name" v="Dixmude Street"/>
    <tag k="source" v="yahoo"/>
  </way>
  <way id="25172290" version="1" timestamp="2008-06-28T23:49:28Z" uid="30201" user="rrankin" changeset="328644">
    <nd ref="274400204"/>
    <nd ref="274400207"/>
    <nd ref="274400211"/>
    <nd ref="274400216"/>
    <nd ref="274400200"/>
    <tag k="highway" v="residential"/>
    <tag k="name" v="MacKay Road"/>
    <tag k="source" v="yahoo"/>
  </way>
  <way id="25172290" version="2" timestamp="2010-07-08T01:54:25Z" uid="74617" user="JohnSmith" changeset="5162525">
    <nd ref="274400204"/>
    <nd ref="274400207"/>
    <nd ref="274400211"/>
    <nd ref="274400216"/>
    <nd ref="274400200"/>
    <tag k="highway" v="residential"/>
    <tag k="maxspeed" v="50"/>
    <tag k="maxspeed:source" v="default residential speed limit in Australia"/>
    <tag k="name" v="MacKay Road"/>
    <tag k="source" v="yahoo"/>
  </way>
  <way id="25172291" version="1" timestamp="2008-06-28T23:49:29Z" uid="30201" user="rrankin" changeset="328644">
    <nd ref="274400216"/>
    <nd ref="274400221"/>
    <tag k="highway" v="residential"/>
    <tag k="name" v="Flaherty Boulevard"/>
    <tag k="source" v="yahoo"/>
  </way>
  <way id="25172291" version="2" timestamp="2010-07-08T01:56:39Z" uid="74617" user="JohnSmith" changeset="5162525">
    <nd ref="274400216"/>
    <nd ref="274400221"/>
    <tag k="highway" v="residential"/>
    <tag k="maxspeed" v="50"/>
    <tag k="maxspeed:source" v="default residential speed limit in Australia"/>
    <tag k="name" v="Flaherty Boulevard"/>
    <tag k="source" v="yahoo"/>
  </way>
  <way id="25172292" version="1" timestamp="2008-06-28T23:49:30Z" uid="30201" user="rrankin" changeset="328644">
    <nd ref="274400225"/>
    <nd ref="274400229"/>
    <nd ref="274400252"/>
    <nd ref="274400248"/>
    <nd ref="274400265"/>
    <nd ref="274400260"/>
    <nd ref="274400207"/>
    <tag k="highway" v="residential"/>
    <tag k="name" v="Bennett Road"/>
    <tag k="source" v="yahoo"/>
  </way>
  <way id="25172292" version="2" timestamp="2010-07-08T01:57:16Z" uid="74617" user="JohnSmith" changeset="5162525">
    <nd ref="274400225"/>
    <nd ref="274400229"/>
    <nd ref="274400252"/>
    <nd ref="274400248"/>
    <nd ref="274400265"/>
    <nd ref="274400260"/>
    <nd ref="274400207"/>
    <tag k="highway" v="residential"/>
    <tag k="maxspeed" v="50"/>
    <tag k="maxspeed:source" v="default residential speed limit in Australia"/>
    <tag k="name" v="Bennett Road"/>
    <tag k="source" v="yahoo"/>
  </way>
  <way id="25172293" version="1" timestamp="2008-06-28T23:49:31Z" uid="30201" user="rrankin" changeset="328644">
    <nd ref="274400252"/>
    <nd ref="274400256"/>
    <tag k="highway" v="residential"/>
    <tag k="name" v="Clyde Street"/>
    <tag k="source" v="yahoo"/>
  </way>
  <way id="25172293" version="2" timestamp="2010-07-08T01:59:27Z" uid="74617" user="JohnSmith" changeset="5162525">
    <nd ref="274400252"/>
    <nd ref="274400256"/>
    <tag k="highway" v="residential"/>
    <tag k="maxspeed" v="50"/>
    <tag k="maxspeed:source" v="default residential speed limit in Australia"/>
    <tag k="name" v="Clyde Street"/>
    <tag k="source" v="yahoo"/>
  </way>
  <way id="25172297" version="1" timestamp="2008-06-28T23:49:34Z" uid="30201" user="rrankin" changeset="328644">
    <nd ref="274400260"/>
    <nd ref="274400263"/>
    <tag k="highway" v="residential"/>
    <tag k="name" v="Morshead Crescent"/>
    <tag k="source" v="yahoo"/>
  </way>
  <way id="25172297" version="2" timestamp="2010-07-08T01:57:47Z" uid="74617" user="JohnSmith" changeset="5162525">
    <nd ref="274400260"/>
    <nd ref="274400263"/>
    <tag k="highway" v="residential"/>
    <tag k="maxspeed" v="50"/>
    <tag k="maxspeed:source" v="default residential speed limit in Australia"/>
    <tag k="name" v="Morshead Crescent"/>
    <tag k="source" v="yahoo"/>
  </way>
  <way id="25172308" version="5" timestamp="2010-03-27T23:43:43Z" uid="20587" user="balrog-kun" changeset="4250871">
    <nd ref="668555460"/>
    <nd ref="668555461"/>
    <nd ref="668555463"/>
    <nd ref="668555466"/>
    <nd ref="668555469"/>
    <nd ref="668555471"/>
    <nd ref="668555473"/>
    <nd ref="668555476"/>
    <nd ref="274400430"/>
    <nd ref="668555325"/>
    <nd ref="668555326"/>
    <nd ref="668555327"/>
    <nd ref="274400431"/>
    <nd ref="274400432"/>
    <nd ref="668555328"/>
    <nd ref="274400433"/>
    <nd ref="274400434"/>
    <nd ref="274400435"/>
    <nd ref="274400436"/>
    <nd ref="274400437"/>
    <nd ref="274400438"/>
    <nd ref="274400439"/>
    <tag k="highway" v="unclassified"/>
    <tag k="name" v="Petroleum Street"/>
  </way>
  <way id="25172388" version="4" timestamp="2008-08-21T11:33:21Z" uid="7617" user="Franc" changeset="355023">
    <nd ref="289888001"/>
    <nd ref="274401485"/>
    <nd ref="274401486"/>
    <nd ref="274401487"/>
    <tag k="created_by" v="Potlatch 0.9c"/>
    <tag k="highway" v="service"/>
    <tag k="name" v="Thompson Lane"/>
  </way>
  <way id="25172410" version="3" timestamp="2010-03-27T23:43:44Z" uid="20587" user="balrog-kun" changeset="4250871">
    <nd ref="53097552"/>
    <nd ref="53064017"/>
    <tag k="created_by" v="Potlatch 0.9c"/>
    <tag k="highway" v="residential"/>
    <tag k="name" v="West 12th Street"/>
  </way>
  <way id="25172465" version="8" timestamp="2010-03-27T23:43:44Z" uid="20587" user="balrog-kun" changeset="4250871">
    <nd ref="274402727"/>
    <nd ref="274402729"/>
    <nd ref="274402730"/>
    <nd ref="417729675"/>
    <nd ref="417729260"/>
    <nd ref="417729674"/>
    <nd ref="274402731"/>
    <nd ref="274402733"/>
    <tag k="created_by" v="Potlatch 0.9c"/>
    <tag k="highway" v="residential"/>
    <tag k="name" v="West 18th Street"/>
  </way>
  <way id="25172539" version="2" timestamp="2010-03-27T23:43:44Z" uid="20587" user="balrog-kun" changeset="4250871">
    <nd ref="274404023"/>
    <nd ref="274404024"/>
    <tag k="created_by" v="Potlatch 0.9c"/>
    <tag k="highway" v="residential"/>
    <tag k="name" v="West 20th Street"/>
  </way>
  <way id="25172668" version="3" timestamp="2010-03-27T23:43:44Z" uid="20587" user="balrog-kun" changeset="4250871">
    <nd ref="53034692"/>
    <nd ref="274405649"/>
    <nd ref="53034690"/>
    <tag k="highway" v="residential"/>
    <tag k="name" v="Africa Street"/>
  </way>
  <way id="25172675" version="1" timestamp="2008-06-29T00:10:14Z" uid="30201" user="rrankin" changeset="328644">
    <nd ref="267181294"/>
    <nd ref="267314338"/>
    <nd ref="274393915"/>
    <nd ref="274393905"/>
    <nd ref="274393848"/>
    <nd ref="274393840"/>
    <nd ref="274393827"/>
    <nd ref="274400157"/>
    <nd ref="274400158"/>
    <nd ref="267181308"/>
    <nd ref="274400166"/>
    <nd ref="274400169"/>
    <nd ref="274400174"/>
    <nd ref="267181312"/>
    <nd ref="274400225"/>
    <nd ref="267181309"/>
    <tag k="created_by" v="Potlatch 0.9b"/>
    <tag k="highway" v="secondary"/>
    <tag k="name" v="Clyde Street"/>
  </way>
  <way id="25172675" version="2" timestamp="2008-06-29T02:23:56Z" uid="30201" user="rrankin" changeset="328644">
    <nd ref="267181294"/>
    <nd ref="267314338"/>
    <nd ref="274393915"/>
    <nd ref="274393905"/>
    <nd ref="274393848"/>
    <nd ref="274393840"/>
    <nd ref="274393827"/>
    <nd ref="274400157"/>
    <nd ref="274400158"/>
    <nd ref="267181308"/>
    <nd ref="274400166"/>
    <nd ref="274400169"/>
    <nd ref="274400174"/>
    <nd ref="267181312"/>
    <nd ref="274400225"/>
    <nd ref="274441345"/>
    <nd ref="267181309"/>
    <tag k="created_by" v="Potlatch 0.9b"/>
    <tag k="highway" v="secondary"/>
    <tag k="name" v="Clyde Street"/>
  </way>
  <way id="25172675" version="3" timestamp="2009-12-27T03:56:02Z" uid="7617" user="Franc" changeset="3460048">
    <nd ref="267181294"/>
    <nd ref="267314338"/>
    <nd ref="274393915"/>
    <nd ref="274393905"/>
    <nd ref="274393848"/>
    <nd ref="274393840"/>
    <nd ref="274393827"/>
    <nd ref="274400157"/>
    <nd ref="274400158"/>
    <nd ref="267181308"/>
    <nd ref="274400166"/>
    <nd ref="274400169"/>
    <nd ref="274400174"/>
    <nd ref="267181312"/>
    <nd ref="274400225"/>
    <nd ref="274441345"/>
    <nd ref="599892951"/>
    <nd ref="267181309"/>
    <tag k="highway" v="secondary"/>
    <tag k="name" v="Clyde Street"/>
  </way>
  <way id="25172676" version="1" timestamp="2008-06-29T00:10:15Z" uid="30201" user="rrankin" changeset="328644">
    <nd ref="274405783"/>
    <nd ref="274405784"/>
    <tag k="highway" v="secondary"/>
    <tag k="name" v="Excelscior Street"/>
    <tag k="source" v="yahoo"/>
  </way>
  <way id="25172676" version="2" timestamp="2008-06-29T01:03:03Z" uid="30201" user="rrankin" changeset="328644">
    <nd ref="274405783"/>
    <nd ref="274405784"/>
    <tag k="highway" v="secondary"/>
    <tag k="name" v="Excelsior Street"/>
    <tag k="source" v="yahoo"/>
  </way>
  <way id="25172676" version="3" timestamp="2008-06-29T01:13:22Z" uid="30201" user="rrankin" changeset="328644">
    <nd ref="274405783"/>
    <nd ref="274421599"/>
    <nd ref="274405784"/>
    <tag k="highway" v="secondary"/>
    <tag k="name" v="Excelsior Street"/>
    <tag k="source" v="yahoo"/>
  </way>
  <way id="25172676" version="4" timestamp="2008-06-29T01:26:30Z" uid="30201" user="rrankin" changeset="328644">
    <nd ref="274405783"/>
    <nd ref="274421599"/>
    <nd ref="274424579"/>
    <nd ref="274405784"/>
    <tag k="highway" v="secondary"/>
    <tag k="name" v="Excelsior Street"/>
    <tag k="source" v="yahoo"/>
  </way>
  <way id="25172676" version="5" timestamp="2009-12-27T09:06:01Z" uid="7617" user="Franc" changeset="3460729">
    <nd ref="274405783"/>
    <nd ref="274421599"/>
    <nd ref="274424579"/>
    <nd ref="599914560"/>
    <tag k="highway" v="secondary"/>
    <tag k="name" v="Excelsior Street"/>
    <tag k="source" v="nearmap"/>
  </way>
  <way id="25172676" version="6" timestamp="2011-04-10T14:30:04Z" uid="7617" user="Franc" changeset="7823401">
    <nd ref="274405783"/>
    <nd ref="1239898741"/>
    <tag k="highway" v="secondary"/>
    <tag k="name" v="Excelsior Street"/>
    <tag k="source" v="nearmap"/>
  </way>
  <way id="25172754" version="2" timestamp="2008-09-16T10:09:45Z" uid="1066" user="pavel" changeset="646258">
    <nd ref="32948660"/>
    <nd ref="274406627"/>
    <nd ref="274406628"/>
    <nd ref="32948315"/>
    <tag k="highway" v="residential"/>
    <tag k="name" v="Čestmírova"/>
    <tag k="name:source" v="nameit/uir-adr"/>
  </way>
  <way id="25172755" version="2" timestamp="2008-09-16T10:12:58Z" uid="1066" user="pavel" changeset="646258">
    <nd ref="274406627"/>
    <nd ref="274406629"/>
    <nd ref="32948316"/>
    <tag k="highway" v="residential"/>
    <tag k="name" v="Rostislavova"/>
    <tag k="name:source" v="nameit/uir-adr"/>
  </way>
  <way id="25172756" version="2" timestamp="2008-09-16T10:10:47Z" uid="1066" user="pavel" changeset="646258">
    <nd ref="274406630"/>
    <nd ref="274406631"/>
    <tag k="highway" v="residential"/>
    <tag k="name" v="U Pernštejnských"/>
    <tag k="name:source" v="nameit/uir-adr"/>
  </way>
  <way id="25172757" version="2" timestamp="2008-09-16T10:13:40Z" uid="1066" user="pavel" changeset="646258">
    <nd ref="274406631"/>
    <nd ref="274406632"/>
    <tag k="highway" v="residential"/>
    <tag k="name" v="Družstevní"/>
    <tag k="name:source" v="nameit/uir-adr"/>
  </way>
  <way id="25172863" version="13" timestamp="2010-03-27T23:43:44Z" uid="20587" user="balrog-kun" changeset="4250871">
    <nd ref="414549143"/>
    <nd ref="414549374"/>
    <nd ref="414549375"/>
    <nd ref="53069735"/>
    <tag k="highway" v="tertiary"/>
    <tag k="name" v="Middle Harbor Road"/>
    <tag k="oneway" v="yes"/>
  </way>
  <way id="25172901" version="2" timestamp="2008-09-04T23:25:25Z" uid="1066" user="pavel" changeset="533817">
    <nd ref="26424307"/>
    <nd ref="274408696"/>
    <nd ref="274408698"/>
    <tag k="highway" v="residential"/>
    <tag k="name" v="Čermákova"/>
    <tag k="name:source" v="nameit/uir-adr"/>
  </way>
  <way id="25172924" version="5" timestamp="2010-03-27T23:43:45Z" uid="20587" user="balrog-kun" changeset="4250871">
    <nd ref="274409191"/>
    <nd ref="274409192"/>
    <nd ref="274409193"/>
    <nd ref="443030254"/>
    <nd ref="442375283"/>
    <nd ref="414550174"/>
    <nd ref="274409194"/>
    <tag k="created_by" v="Potlatch 0.9c"/>
    <tag k="highway" v="unclassified"/>
    <tag k="name" v="K Street"/>
  </way>
</osm>
