<?xml version='1.0' encoding='UTF-8'?>
<osm version="0.6" generator="libosmium/2.20.0">
  <way id="25244098" version="4" timestamp="2009-02-14T01:20:40Z" uid="36809" user="pfoten_weg_!_" changeset="423851">
    <nd ref="21151012"/>
    <nd ref="147061"/>
    <tag k="created_by" v="RambaZamba"/>
    <tag k="highway" v="trunk"/>
    <tag k="layer" v="-1"/>
    <tag k="name" v="BrudermÃ¼hltunnel"/>
    <tag k="oneway" v="yes"/>
    <tag k="osmarender:renderName" v="no"/>
    <tag k="ref" v="B 2 R;B 11"/>
    <tag k="source" v="survey"/>
    <tag k="svg:font-size" v="0"/>
    <tag k="tunnel" v="yes"/>
  </way>
  <way id="25244211" version="6" timestamp="2009-02-14T01:20:40Z" uid="36809" user="pfoten_weg_!_" changeset="423851">
    <nd ref="27399419"/>
    <nd ref="274305860"/>
    <nd ref="21151034"/>
    <nd ref="21151036"/>
    <tag k="created_by" v="RambaZamba"/>
    <tag k="highway" v="trunk_link"/>
    <tag k="oneway" v="yes"/>
    <tag k="ref" v="B 2 R;B 11"/>
    <tag k="source" v="survey"/>
  </way>
  <way id="25244211" version="11" timestamp="2009-09-01T10:57:36Z" uid="36809" user="pfoten_weg_!_" changeset="2335754">
    <nd ref="27399419"/>
    <nd ref="274305860"/>
    <nd ref="21151034"/>
    <tag k="highway" v="primary_link"/>
    <tag k="oneway" v="yes"/>
    <tag k="ref" v="B 11"/>
    <tag k="source" v="survey"/>
  </way>
  <way id="25244625" version="4" timestamp="2010-04-05T08:41:22Z" uid="74617" user="JohnSmith" changeset="4330247">
    <nd ref="266310673"/>
    <nd ref="268154383"/>
    <tag k="bridge" v="yes"/>
    <tag k="highway" v="motorway"/>
    <tag k="layer" v="1"/>
    <tag k="maxspeed" v="100"/>
    <tag k="name" v="EastLink"/>
    <tag k="oneway" v="yes"/>
    <tag k="toll" v="yes"/>
  </way>
  <way id="25244671" version="4" timestamp="2008-07-08T00:27:52Z" uid="6975" user="ulfl" changeset="429882">
    <nd ref="275162613"/>
    <nd ref="275162614"/>
    <nd ref="275162615"/>
    <nd ref="275162412"/>
    <tag k="foot" v="yes"/>
    <tag k="highway" v="footway"/>
    <tag k="tracktype" v="grade5"/>
  </way>
</osm>
