<?xml version='1.0' encoding='UTF-8'?>
<osm version="0.6" generator="libosmium/2.20.0">
  <way id="25252075" version="3" timestamp="2009-02-16T10:43:48Z" uid="9581" user="Lobelt" changeset="476707">
    <nd ref="10938583"/>
    <nd ref="10938572"/>
    <nd ref="346137445"/>
    <nd ref="275205362"/>
    <nd ref="10938482"/>
    <nd ref="10938481"/>
    <nd ref="27138823"/>
    <nd ref="10938464"/>
    <nd ref="10938456"/>
    <nd ref="10938451"/>
    <nd ref="10938053"/>
    <nd ref="27148430"/>
    <nd ref="25313136"/>
    <tag k="bicycle" v="no"/>
    <tag k="created_by" v="Potlatch 0.9c"/>
    <tag k="foot" v="no"/>
    <tag k="highway" v="motorway"/>
    <tag k="horse" v="no"/>
    <tag k="lanes" v="3"/>
    <tag k="motorcar" v="yes"/>
    <tag k="oneway" v="yes"/>
    <tag k="osmarender:renderName" v="no"/>
    <tag k="ref" v="A 4"/>
  </way>
  <way id="25252104" version="2" timestamp="2009-02-16T10:43:47Z" uid="9581" user="Lobelt" changeset="476707">
    <nd ref="541294"/>
    <nd ref="346137438"/>
    <nd ref="251887492"/>
    <nd ref="346137441"/>
    <nd ref="541295"/>
    <nd ref="346137444"/>
    <nd ref="541296"/>
    <nd ref="115286475"/>
    <tag k="bicycle" v="no"/>
    <tag k="created_by" v="Potlatch 0.9c"/>
    <tag k="foot" v="no"/>
    <tag k="highway" v="motorway"/>
    <tag k="horse" v="no"/>
    <tag k="lanes" v="3"/>
    <tag k="motorcar" v="yes"/>
    <tag k="oneway" v="yes"/>
    <tag k="ref" v="A 4"/>
  </way>
  <way id="25252108" version="3" timestamp="2009-02-16T10:43:46Z" uid="9581" user="Lobelt" changeset="476707">
    <nd ref="541293"/>
    <nd ref="346137430"/>
    <nd ref="346137433"/>
    <nd ref="346137435"/>
    <nd ref="541294"/>
    <tag k="bicycle" v="no"/>
    <tag k="bridge" v="yes"/>
    <tag k="created_by" v="Potlatch 0.9c"/>
    <tag k="foot" v="no"/>
    <tag k="highway" v="motorway"/>
    <tag k="horse" v="no"/>
    <tag k="lanes" v="3"/>
    <tag k="layer" v="2"/>
    <tag k="motorcar" v="yes"/>
    <tag k="oneway" v="yes"/>
    <tag k="ref" v="A 4"/>
  </way>
  <way id="25252186" version="3" timestamp="2009-02-16T10:43:46Z" uid="9581" user="Lobelt" changeset="476707">
    <nd ref="10938586"/>
    <nd ref="346137434"/>
    <nd ref="346137431"/>
    <nd ref="346137428"/>
    <nd ref="10938583"/>
    <tag k="bicycle" v="no"/>
    <tag k="bridge" v="yes"/>
    <tag k="created_by" v="Potlatch 0.9c"/>
    <tag k="foot" v="no"/>
    <tag k="highway" v="motorway"/>
    <tag k="horse" v="no"/>
    <tag k="lanes" v="3"/>
    <tag k="layer" v="2"/>
    <tag k="motorcar" v="yes"/>
    <tag k="oneway" v="yes"/>
    <tag k="osmarender:renderName" v="no"/>
    <tag k="ref" v="A 4"/>
  </way>
  <way id="25252282" version="8" timestamp="2010-07-09T20:53:34Z" uid="74617" user="JohnSmith" changeset="5176956">
    <nd ref="275204337"/>
    <nd ref="600398747"/>
    <nd ref="275199662"/>
    <nd ref="600398748"/>
    <nd ref="275199537"/>
    <nd ref="275204473"/>
    <nd ref="275204474"/>
    <nd ref="275204475"/>
    <tag k="highway" v="residential"/>
    <tag k="maxspeed" v="50"/>
    <tag k="maxspeed:source" v="default residential speed limit in Australia"/>
    <tag k="name" v="Clune Avenue"/>
  </way>
  <way id="25252293" version="6" timestamp="2010-07-09T21:13:47Z" uid="74617" user="JohnSmith" changeset="5176956">
    <nd ref="275204479"/>
    <nd ref="275204478"/>
    <nd ref="600398745"/>
    <nd ref="275204476"/>
    <nd ref="275204475"/>
    <nd ref="275204480"/>
    <nd ref="275204481"/>
    <nd ref="275204482"/>
    <nd ref="275204483"/>
    <nd ref="275204484"/>
    <nd ref="275204485"/>
    <tag k="highway" v="residential"/>
    <tag k="maxspeed" v="50"/>
    <tag k="maxspeed:source" v="default residential speed limit in Australia"/>
    <tag k="name" v="Gibney Vista"/>
  </way>
  <way id="25252361" version="5" timestamp="2010-07-09T21:06:45Z" uid="74617" user="JohnSmith" changeset="5176956">
    <nd ref="275198569"/>
    <nd ref="600398729"/>
    <nd ref="275198568"/>
    <nd ref="275198570"/>
    <nd ref="275198571"/>
    <nd ref="275198573"/>
    <nd ref="275198574"/>
    <nd ref="275198575"/>
    <nd ref="275198577"/>
    <nd ref="275198578"/>
    <nd ref="275198579"/>
    <tag k="highway" v="residential"/>
    <tag k="maxspeed" v="50"/>
    <tag k="maxspeed:source" v="default residential speed limit in Australia"/>
    <tag k="name" v="Tara Vista"/>
  </way>
  <way id="25252398" version="4" timestamp="2010-07-09T21:13:39Z" uid="74617" user="JohnSmith" changeset="5176956">
    <nd ref="275204958"/>
    <nd ref="275204980"/>
    <tag k="highway" v="residential"/>
    <tag k="maxspeed" v="50"/>
    <tag k="maxspeed:source" v="default residential speed limit in Australia"/>
    <tag k="name" v="Rosmunde Court"/>
  </way>
  <way id="25252650" version="4" timestamp="2010-05-02T09:20:40Z" uid="151899" user="Bikeman2000" changeset="4582538">
    <nd ref="253900706"/>
    <nd ref="253900811"/>
    <nd ref="253900705"/>
    <nd ref="253900815"/>
    <nd ref="253900704"/>
    <nd ref="716743839"/>
    <nd ref="47947809"/>
    <tag k="highway" v="primary"/>
    <tag k="maxspeed" v="50"/>
    <tag k="name" v="LindemannstraÃŸe"/>
    <tag k="oneway" v="yes"/>
    <tag k="ref" v="B 8"/>
    <tag k="sidewalk" v="righ"/>
  </way>
  <way id="25252678" version="5" timestamp="2010-05-02T09:31:23Z" uid="151899" user="Bikeman2000" changeset="4582630">
    <nd ref="47947789"/>
    <nd ref="716751793"/>
    <nd ref="716751796"/>
    <nd ref="716751799"/>
    <nd ref="253237091"/>
    <tag k="highway" v="primary"/>
    <tag k="name" v="Brehmplatz"/>
    <tag k="oneway" v="yes"/>
    <tag k="ref" v="B 8"/>
  </way>
  <way id="25252761" version="5" timestamp="2010-07-09T21:00:02Z" uid="74617" user="JohnSmith" changeset="5176956">
    <nd ref="275206530"/>
    <nd ref="462087216"/>
    <tag k="highway" v="residential"/>
    <tag k="maxspeed" v="50"/>
    <tag k="maxspeed:source" v="default residential speed limit in Australia"/>
    <tag k="name" v="Kerr Street"/>
  </way>
  <way id="25252913" version="3" timestamp="2010-07-09T21:12:48Z" uid="74617" user="JohnSmith" changeset="5176956">
    <nd ref="275207266"/>
    <nd ref="275207267"/>
    <tag k="highway" v="residential"/>
    <tag k="maxspeed" v="50"/>
    <tag k="maxspeed:source" v="default residential speed limit in Australia"/>
    <tag k="name" v="Nicholson Street"/>
  </way>
</osm>
