<?xml version='1.0' encoding='UTF-8'?>
<osm version="0.6" generator="libosmium/2.20.0">
  <way id="25262001" version="4" timestamp="2010-07-09T22:13:51Z" uid="74617" user="JohnSmith" changeset="5176956">
    <nd ref="275274951"/>
    <nd ref="637053475"/>
    <nd ref="275274952"/>
    <nd ref="275274953"/>
    <nd ref="275274954"/>
    <tag k="highway" v="residential"/>
    <tag k="maxspeed" v="50"/>
    <tag k="maxspeed:source" v="default residential speed limit in Australia"/>
    <tag k="name" v="Bethwin Circuit"/>
  </way>
  <way id="25262052" version="3" timestamp="2010-07-09T06:53:29Z" uid="74617" user="JohnSmith" changeset="5171412">
    <nd ref="261607622"/>
    <nd ref="275275109"/>
    <nd ref="275275110"/>
    <nd ref="275275112"/>
    <nd ref="275275113"/>
    <nd ref="275275114"/>
    <nd ref="275275115"/>
    <tag k="highway" v="residential"/>
    <tag k="maxspeed" v="50"/>
    <tag k="maxspeed:source" v="default residential speed limit in Australia"/>
    <tag k="name" v="Mangles Street"/>
  </way>
  <way id="25262066" version="3" timestamp="2010-07-09T06:58:00Z" uid="74617" user="JohnSmith" changeset="5171412">
    <nd ref="275275109"/>
    <nd ref="275275181"/>
    <nd ref="275275182"/>
    <nd ref="275275183"/>
    <nd ref="275275184"/>
    <nd ref="275275185"/>
    <nd ref="275275186"/>
    <tag k="highway" v="residential"/>
    <tag k="maxspeed" v="50"/>
    <tag k="maxspeed:source" v="default residential speed limit in Australia"/>
    <tag k="name" v="Welch Way"/>
  </way>
  <way id="25262090" version="4" timestamp="2010-07-09T07:04:02Z" uid="74617" user="JohnSmith" changeset="5171412">
    <nd ref="275275304"/>
    <nd ref="275275322"/>
    <nd ref="275275323"/>
    <tag k="highway" v="residential"/>
    <tag k="maxspeed" v="50"/>
    <tag k="maxspeed:source" v="default residential speed limit in Australia"/>
    <tag k="name" v="Murphy Way"/>
  </way>
  <way id="25262222" version="3" timestamp="2008-08-12T19:09:38Z" uid="6975" user="ulfl" changeset="223340">
    <nd ref="275274337"/>
    <nd ref="277492205"/>
    <nd ref="275274336"/>
    <tag k="created_by" v="Potlatch 0.9c"/>
    <tag k="name" v="Lechfall"/>
    <tag k="note" v="FIXME: the weir is in fact before the &quot;foot bridge&quot;, not behind it"/>
    <tag k="waterway" v="weir"/>
  </way>
  <way id="25262224" version="3" timestamp="2010-07-09T07:01:49Z" uid="74617" user="JohnSmith" changeset="5171412">
    <nd ref="275277092"/>
    <nd ref="275277093"/>
    <nd ref="275277094"/>
    <nd ref="275275323"/>
    <nd ref="275277095"/>
    <nd ref="275277096"/>
    <nd ref="275277099"/>
    <nd ref="275277100"/>
    <tag k="highway" v="residential"/>
    <tag k="maxspeed" v="50"/>
    <tag k="maxspeed:source" v="default residential speed limit in Australia"/>
    <tag k="name" v="Studzor Street"/>
  </way>
  <way id="25262238" version="6" timestamp="2010-07-09T22:14:41Z" uid="74617" user="JohnSmith" changeset="5176956">
    <nd ref="275277279"/>
    <nd ref="275277245"/>
    <nd ref="275277246"/>
    <nd ref="275278027"/>
    <nd ref="275277974"/>
    <nd ref="275278031"/>
    <nd ref="275277982"/>
    <nd ref="275278092"/>
    <nd ref="275277247"/>
    <nd ref="275277248"/>
    <nd ref="275278021"/>
    <nd ref="275277249"/>
    <nd ref="275277250"/>
    <nd ref="275277251"/>
    <tag k="highway" v="residential"/>
    <tag k="maxspeed" v="50"/>
    <tag k="maxspeed:source" v="default residential speed limit in Australia"/>
    <tag k="name" v="Dellamarta Road"/>
  </way>
  <way id="25262239" version="4" timestamp="2010-07-09T07:01:03Z" uid="74617" user="JohnSmith" changeset="5171412">
    <nd ref="275277095"/>
    <nd ref="275277256"/>
    <nd ref="275277257"/>
    <nd ref="275277269"/>
    <nd ref="275277258"/>
    <tag k="highway" v="residential"/>
    <tag k="maxspeed" v="50"/>
    <tag k="maxspeed:source" v="default residential speed limit in Australia"/>
    <tag k="name" v="McCormick Street"/>
  </way>
  <way id="25262241" version="2" timestamp="2010-07-09T06:58:59Z" uid="74617" user="JohnSmith" changeset="5171412">
    <nd ref="275277267"/>
    <nd ref="275277268"/>
    <nd ref="275277269"/>
    <tag k="highway" v="residential"/>
    <tag k="maxspeed" v="50"/>
    <tag k="maxspeed:source" v="default residential speed limit in Australia"/>
  </way>
  <way id="25262243" version="4" timestamp="2010-07-09T06:53:15Z" uid="74617" user="JohnSmith" changeset="5171412">
    <nd ref="275277268"/>
    <nd ref="275277274"/>
    <tag k="highway" v="residential"/>
    <tag k="maxspeed" v="50"/>
    <tag k="maxspeed:source" v="default residential speed limit in Australia"/>
    <tag k="name" v="Ledger Street"/>
  </way>
  <way id="25262244" version="2" timestamp="2010-07-09T22:14:43Z" uid="74617" user="JohnSmith" changeset="5176956">
    <nd ref="275277277"/>
    <nd ref="275277278"/>
    <nd ref="275277279"/>
    <nd ref="275277280"/>
    <tag k="highway" v="residential"/>
    <tag k="maxspeed" v="50"/>
    <tag k="maxspeed:source" v="default residential speed limit in Australia"/>
    <tag k="name" v="Lumsden Road"/>
  </way>
  <way id="25262249" version="4" timestamp="2010-07-09T07:03:29Z" uid="74617" user="JohnSmith" changeset="5171412">
    <nd ref="261607624"/>
    <nd ref="275277320"/>
    <nd ref="275277321"/>
    <nd ref="275277323"/>
    <tag k="highway" v="residential"/>
    <tag k="maxspeed" v="50"/>
    <tag k="maxspeed:source" v="default residential speed limit in Australia"/>
    <tag k="name" v="Bates Way"/>
    <tag k="source" v="http://www.nearmap.com/kh/zxy=!,!,!"/>
  </way>
  <way id="25262298" version="3" timestamp="2010-07-09T22:13:44Z" uid="74617" user="JohnSmith" changeset="5176956">
    <nd ref="275277870"/>
    <nd ref="275277366"/>
    <nd ref="275277872"/>
    <nd ref="275277873"/>
    <nd ref="275277874"/>
    <nd ref="275277875"/>
    <nd ref="275277964"/>
    <tag k="highway" v="residential"/>
    <tag k="maxspeed" v="50"/>
    <tag k="maxspeed:source" v="default residential speed limit in Australia"/>
    <tag k="name" v="Uppill Place"/>
  </way>
  <way id="25262299" version="2" timestamp="2010-07-09T22:15:20Z" uid="74617" user="JohnSmith" changeset="5176956">
    <nd ref="275277051"/>
    <nd ref="275277959"/>
    <nd ref="275277960"/>
    <nd ref="275277961"/>
    <nd ref="275277962"/>
    <nd ref="275277963"/>
    <nd ref="275277964"/>
    <nd ref="275277965"/>
    <tag k="highway" v="residential"/>
    <tag k="maxspeed" v="50"/>
    <tag k="maxspeed:source" v="default residential speed limit in Australia"/>
    <tag k="name" v="O&apos;Connor Way"/>
  </way>
  <way id="25262301" version="5" timestamp="2010-07-09T22:11:48Z" uid="74617" user="JohnSmith" changeset="5176956">
    <nd ref="275277975"/>
    <nd ref="275277974"/>
    <tag k="highway" v="residential"/>
    <tag k="maxspeed" v="50"/>
    <tag k="maxspeed:source" v="default residential speed limit in Australia"/>
    <tag k="name" v="Arrigo Street"/>
  </way>
  <way id="25262302" version="5" timestamp="2010-07-09T22:15:00Z" uid="74617" user="JohnSmith" changeset="5176956">
    <nd ref="275277053"/>
    <nd ref="275277982"/>
    <tag k="highway" v="residential"/>
    <tag k="maxspeed" v="50"/>
    <tag k="maxspeed:source" v="default residential speed limit in Australia"/>
    <tag k="name" v="Glossop Street"/>
  </way>
  <way id="25262306" version="2" timestamp="2010-07-09T22:14:33Z" uid="74617" user="JohnSmith" changeset="5176956">
    <nd ref="275278021"/>
    <nd ref="275278022"/>
    <tag k="highway" v="residential"/>
    <tag k="maxspeed" v="50"/>
    <tag k="maxspeed:source" v="default residential speed limit in Australia"/>
    <tag k="name" v="Dobbins Street"/>
  </way>
  <way id="25262307" version="2" timestamp="2010-07-09T22:11:51Z" uid="74617" user="JohnSmith" changeset="5176956">
    <nd ref="275277202"/>
    <nd ref="275278027"/>
    <tag k="highway" v="residential"/>
    <tag k="maxspeed" v="50"/>
    <tag k="maxspeed:source" v="default residential speed limit in Australia"/>
    <tag k="name" v="Chocolich Street"/>
  </way>
  <way id="25262308" version="3" timestamp="2010-07-09T22:15:02Z" uid="74617" user="JohnSmith" changeset="5176956">
    <nd ref="275278031"/>
    <nd ref="275278032"/>
    <tag k="highway" v="residential"/>
    <tag k="maxspeed" v="50"/>
    <tag k="maxspeed:source" v="default residential speed limit in Australia"/>
    <tag k="name" v="Ismail Street"/>
  </way>
  <way id="25262316" version="3" timestamp="2010-07-09T22:13:02Z" uid="74617" user="JohnSmith" changeset="5176956">
    <nd ref="275278093"/>
    <nd ref="275278092"/>
    <tag k="highway" v="residential"/>
    <tag k="maxspeed" v="50"/>
    <tag k="maxspeed:source" v="default residential speed limit in Australia"/>
    <tag k="name" v="Irwin Road"/>
  </way>
  <way id="25262349" version="4" timestamp="2010-07-09T22:12:54Z" uid="74617" user="JohnSmith" changeset="5176956">
    <nd ref="275278459"/>
    <nd ref="275278844"/>
    <nd ref="275278460"/>
    <tag k="highway" v="residential"/>
    <tag k="maxspeed" v="50"/>
    <tag k="maxspeed:source" v="default residential speed limit in Australia"/>
    <tag k="name" v="Lindsay Road"/>
  </way>
  <way id="25262353" version="4" timestamp="2010-07-09T22:12:29Z" uid="74617" user="JohnSmith" changeset="5176956">
    <nd ref="275278531"/>
    <nd ref="275278854"/>
    <tag k="highway" v="residential"/>
    <tag k="maxspeed" v="50"/>
    <tag k="maxspeed:source" v="default residential speed limit in Australia"/>
    <tag k="name" v="Mackie Street"/>
  </way>
  <way id="25262362" version="4" timestamp="2010-07-09T22:14:18Z" uid="74617" user="JohnSmith" changeset="5176956">
    <nd ref="275278615"/>
    <nd ref="275278886"/>
    <tag k="highway" v="residential"/>
    <tag k="maxspeed" v="50"/>
    <tag k="maxspeed:source" v="default residential speed limit in Australia"/>
    <tag k="name" v="Nevin Street"/>
  </way>
  <way id="25262384" version="2" timestamp="2010-07-09T22:12:51Z" uid="74617" user="JohnSmith" changeset="5176956">
    <nd ref="275278706"/>
    <nd ref="275278707"/>
    <tag k="highway" v="residential"/>
    <tag k="maxspeed" v="50"/>
    <tag k="maxspeed:source" v="default residential speed limit in Australia"/>
    <tag k="name" v="Pappas Street"/>
  </way>
  <way id="25262385" version="5" timestamp="2008-10-01T02:46:53Z" uid="36809" user="pfoten_weg_!_" changeset="5644">
    <nd ref="275278712"/>
    <nd ref="275278713"/>
    <nd ref="275278717"/>
    <nd ref="279253185"/>
    <tag k="created_by" v="RambaZamba"/>
    <tag k="highway" v="path"/>
    <tag k="source" v="survey"/>
    <tag k="surface" v="unpaved"/>
  </way>
  <way id="25262385" version="7" timestamp="2009-06-08T13:40:13Z" uid="36809" user="pfoten_weg_!_" changeset="1458869">
    <nd ref="275278712"/>
    <nd ref="275278713"/>
    <nd ref="275278717"/>
    <nd ref="279253185"/>
    <tag k="created_by" v="RambaZamba"/>
    <tag k="highway" v="path"/>
    <tag k="source" v="survey"/>
    <tag k="surface" v="unpaved"/>
  </way>
  <way id="25262385" version="9" timestamp="2009-09-01T10:47:19Z" uid="36809" user="pfoten_weg_!_" changeset="2335754">
    <nd ref="275278712"/>
    <nd ref="275278713"/>
    <nd ref="275278717"/>
    <nd ref="279253185"/>
    <tag k="highway" v="path"/>
    <tag k="source" v="survey"/>
    <tag k="surface" v="unpaved"/>
  </way>
  <way id="25262385" version="10" timestamp="2009-10-13T23:47:23Z" uid="36809" user="pfoten_weg_!_" changeset="2841273">
    <nd ref="275278712"/>
    <nd ref="275278713"/>
    <nd ref="275278717"/>
    <nd ref="279253185"/>
    <tag k="highway" v="path"/>
    <tag k="surface" v="unpaved"/>
  </way>
  <way id="25262394" version="4" timestamp="2010-07-09T22:12:04Z" uid="74617" user="JohnSmith" changeset="5176956">
    <nd ref="275278842"/>
    <nd ref="275278843"/>
    <nd ref="275278854"/>
    <nd ref="275278706"/>
    <nd ref="275278886"/>
    <nd ref="275278844"/>
    <tag k="highway" v="residential"/>
    <tag k="maxspeed" v="50"/>
    <tag k="maxspeed:source" v="default residential speed limit in Australia"/>
    <tag k="name" v="Baretta Road"/>
  </way>
  <way id="25262418" version="5" timestamp="2010-07-09T22:11:51Z" uid="74617" user="JohnSmith" changeset="5176956">
    <nd ref="275279048"/>
    <nd ref="275279049"/>
    <nd ref="275279012"/>
    <nd ref="275279013"/>
    <nd ref="275278459"/>
    <nd ref="275279516"/>
    <nd ref="275278707"/>
    <nd ref="275279435"/>
    <nd ref="275279014"/>
    <nd ref="275278842"/>
    <nd ref="275279015"/>
    <nd ref="275279016"/>
    <tag k="highway" v="residential"/>
    <tag k="maxspeed" v="50"/>
    <tag k="maxspeed:source" v="default residential speed limit in Australia"/>
    <tag k="name" v="Berriman Drive"/>
  </way>
  <way id="25262461" version="4" timestamp="2010-05-07T23:21:23Z" uid="4467" user="Rosscoe" changeset="4634949">
    <nd ref="275279272"/>
    <nd ref="275279345"/>
    <nd ref="275279274"/>
    <nd ref="275279275"/>
    <nd ref="275279276"/>
    <tag k="created_by" v="Potlatch 0.9c"/>
    <tag k="highway" v="residential"/>
    <tag k="name" v="Windsor Road"/>
  </way>
  <way id="25262461" version="5" timestamp="2010-07-09T22:15:04Z" uid="74617" user="JohnSmith" changeset="5176956">
    <nd ref="275279272"/>
    <nd ref="275279345"/>
    <nd ref="275279274"/>
    <nd ref="275279275"/>
    <nd ref="275279276"/>
    <tag k="highway" v="residential"/>
    <tag k="maxspeed" v="50"/>
    <tag k="maxspeed:source" v="default residential speed limit in Australia"/>
    <tag k="name" v="Windsor Road"/>
  </way>
  <way id="25262475" version="7" timestamp="2010-05-12T14:10:15Z" uid="4467" user="Rosscoe" changeset="4677489">
    <nd ref="275279341"/>
    <nd ref="275279343"/>
    <nd ref="730915839"/>
    <nd ref="730915824"/>
    <tag k="highway" v="residential"/>
    <tag k="name" v="Lancaster Road"/>
    <tag k="source" v="nearmap"/>
  </way>
  <way id="25262475" version="8" timestamp="2010-07-09T22:13:12Z" uid="74617" user="JohnSmith" changeset="5176956">
    <nd ref="275279341"/>
    <nd ref="275279343"/>
    <nd ref="730915839"/>
    <nd ref="730915824"/>
    <tag k="highway" v="residential"/>
    <tag k="maxspeed" v="50"/>
    <tag k="maxspeed:source" v="default residential speed limit in Australia"/>
    <tag k="name" v="Lancaster Road"/>
    <tag k="source" v="nearmap"/>
  </way>
  <way id="25262494" version="3" timestamp="2010-07-09T22:11:56Z" uid="74617" user="JohnSmith" changeset="5176956">
    <nd ref="275279435"/>
    <nd ref="275279434"/>
    <tag k="highway" v="residential"/>
    <tag k="maxspeed" v="50"/>
    <tag k="maxspeed:source" v="default residential speed limit in Australia"/>
    <tag k="name" v="Garino Rise"/>
  </way>
  <way id="25262504" version="2" timestamp="2010-07-09T22:12:59Z" uid="74617" user="JohnSmith" changeset="5176956">
    <nd ref="275279515"/>
    <nd ref="275279516"/>
    <tag k="highway" v="residential"/>
    <tag k="maxspeed" v="50"/>
    <tag k="maxspeed:source" v="default residential speed limit in Australia"/>
    <tag k="name" v="Edison Rise"/>
  </way>
  <way id="25262520" version="2" timestamp="2010-07-09T22:12:14Z" uid="74617" user="JohnSmith" changeset="5176956">
    <nd ref="275279652"/>
    <nd ref="275279653"/>
    <nd ref="275279654"/>
    <nd ref="275279655"/>
    <nd ref="275279656"/>
    <tag k="highway" v="residential"/>
    <tag k="maxspeed" v="50"/>
    <tag k="maxspeed:source" v="default residential speed limit in Australia"/>
    <tag k="name" v="Bombardier Road"/>
  </way>
  <way id="25262529" version="2" timestamp="2010-07-09T22:14:54Z" uid="74617" user="JohnSmith" changeset="5176956">
    <nd ref="275279723"/>
    <nd ref="275279724"/>
    <nd ref="275279725"/>
    <nd ref="275279726"/>
    <nd ref="275279727"/>
    <nd ref="275279653"/>
    <tag k="highway" v="residential"/>
    <tag k="maxspeed" v="50"/>
    <tag k="maxspeed:source" v="default residential speed limit in Australia"/>
    <tag k="name" v="Bessemer Way"/>
  </way>
  <way id="25262545" version="2" timestamp="2010-05-12T14:10:14Z" uid="4467" user="Rosscoe" changeset="4677489">
    <nd ref="275279807"/>
    <nd ref="730915828"/>
    <nd ref="730915832"/>
    <tag k="highway" v="residential"/>
    <tag k="name" v="Automotive Drive"/>
  </way>
  <way id="25262545" version="3" timestamp="2010-07-09T22:14:05Z" uid="74617" user="JohnSmith" changeset="5176956">
    <nd ref="275279807"/>
    <nd ref="730915828"/>
    <nd ref="730915832"/>
    <tag k="highway" v="residential"/>
    <tag k="maxspeed" v="50"/>
    <tag k="maxspeed:source" v="default residential speed limit in Australia"/>
    <tag k="name" v="Automotive Drive"/>
  </way>
  <way id="25262563" version="4" timestamp="2010-05-12T14:10:15Z" uid="4467" user="Rosscoe" changeset="4677489">
    <nd ref="730915845"/>
    <nd ref="730915823"/>
    <nd ref="730915844"/>
    <nd ref="275279906"/>
    <nd ref="730915816"/>
    <nd ref="730915835"/>
    <tag k="highway" v="residential"/>
    <tag k="name" v="Motor Parade"/>
    <tag k="source" v="nearmap"/>
  </way>
  <way id="25262563" version="5" timestamp="2010-07-09T22:13:36Z" uid="74617" user="JohnSmith" changeset="5176956">
    <nd ref="730915845"/>
    <nd ref="730915823"/>
    <nd ref="730915844"/>
    <nd ref="275279906"/>
    <nd ref="730915816"/>
    <nd ref="730915835"/>
    <tag k="highway" v="residential"/>
    <tag k="maxspeed" v="50"/>
    <tag k="maxspeed:source" v="default residential speed limit in Australia"/>
    <tag k="name" v="Motor Parade"/>
    <tag k="source" v="nearmap"/>
  </way>
  <way id="25262591" version="2" timestamp="2010-05-12T14:10:15Z" uid="4467" user="Rosscoe" changeset="4677489">
    <nd ref="275280088"/>
    <nd ref="730915840"/>
    <tag k="highway" v="residential"/>
    <tag k="name" v="Pembroke Road"/>
    <tag k="source" v="nearmap"/>
  </way>
  <way id="25262591" version="3" timestamp="2010-07-09T22:12:09Z" uid="74617" user="JohnSmith" changeset="5176956">
    <nd ref="275280088"/>
    <nd ref="730915840"/>
    <tag k="highway" v="residential"/>
    <tag k="maxspeed" v="50"/>
    <tag k="maxspeed:source" v="default residential speed limit in Australia"/>
    <tag k="name" v="Pembroke Road"/>
    <tag k="source" v="nearmap"/>
  </way>
  <way id="25262607" version="3" timestamp="2010-07-09T22:15:24Z" uid="74617" user="JohnSmith" changeset="5176956">
    <nd ref="275280172"/>
    <nd ref="560057074"/>
    <nd ref="275280173"/>
    <tag k="highway" v="residential"/>
    <tag k="maxspeed" v="50"/>
    <tag k="maxspeed:source" v="default residential speed limit in Australia"/>
    <tag k="name" v="Buffalo Avenue"/>
  </way>
  <way id="25262632" version="2" timestamp="2009-03-29T20:49:32Z" uid="34428" user="usm78-gis" changeset="867546">
    <nd ref="275280319"/>
    <nd ref="275280320"/>
    <tag k="created_by" v="Potlatch 0.10f"/>
    <tag k="highway" v="footway"/>
  </way>
  <way id="25262685" version="3" timestamp="2008-07-07T08:48:33Z" uid="6975" user="ulfl" changeset="418206">
    <nd ref="275280803"/>
    <nd ref="275280799"/>
    <tag k="bridge" v="yes"/>
    <tag k="foot" v="yes"/>
    <tag k="highway" v="cycleway"/>
    <tag k="layer" v="1"/>
  </way>
  <way id="25262776" version="6" timestamp="2010-05-07T23:19:02Z" uid="4467" user="Rosscoe" changeset="4634949">
    <nd ref="274956436"/>
    <nd ref="275281376"/>
    <nd ref="275281377"/>
    <nd ref="275281517"/>
    <nd ref="275281518"/>
    <nd ref="275281379"/>
    <nd ref="275281137"/>
    <tag k="created_by" v="Potlatch 0.9c"/>
    <tag k="highway" v="primary"/>
    <tag k="name" v="Gnangara Road"/>
    <tag k="ref" v="S83"/>
  </way>
</osm>
