<?xml version='1.0' encoding='UTF-8'?>
<osm version="0.6" generator="libosmium/2.20.0">
  <way id="25288448" version="5" timestamp="2009-02-14T01:20:40Z" uid="36809" user="pfoten_weg_!_" changeset="423851">
    <nd ref="21151027"/>
    <nd ref="275450871"/>
    <nd ref="275450869"/>
    <nd ref="275450870"/>
    <tag k="created_by" v="RambaZamba"/>
    <tag k="highway" v="trunk_link"/>
    <tag k="oneway" v="yes"/>
    <tag k="ref" v="B 2 R;B 11"/>
    <tag k="source" v="survey"/>
  </way>
  <way id="25288448" version="9" timestamp="2009-09-01T10:36:28Z" uid="36809" user="pfoten_weg_!_" changeset="2335754">
    <nd ref="21151027"/>
    <nd ref="275450871"/>
    <nd ref="275450869"/>
    <nd ref="275450870"/>
    <tag k="highway" v="primary_link"/>
    <tag k="oneway" v="yes"/>
    <tag k="ref" v="B 11"/>
    <tag k="source" v="survey"/>
  </way>
  <way id="25288451" version="7" timestamp="2009-09-04T21:17:22Z" uid="36809" user="pfoten_weg_!_" changeset="2374562">
    <nd ref="274305789"/>
    <nd ref="274305790"/>
    <nd ref="274305791"/>
    <nd ref="274305792"/>
    <nd ref="274305796"/>
    <nd ref="274305797"/>
    <nd ref="274305798"/>
    <nd ref="274305799"/>
    <nd ref="274305800"/>
    <nd ref="274305801"/>
    <nd ref="274305802"/>
    <nd ref="274305803"/>
    <nd ref="274305804"/>
    <nd ref="274305805"/>
    <nd ref="274305806"/>
    <tag k="cycleway" v="track"/>
    <tag k="foot" v="yes"/>
    <tag k="highway" v="cycleway"/>
    <tag k="layer" v="-1"/>
  </way>
  <way id="25288456" version="5" timestamp="2009-02-14T01:20:41Z" uid="36809" user="pfoten_weg_!_" changeset="423851">
    <nd ref="21151027"/>
    <nd ref="277475939"/>
    <nd ref="21151029"/>
    <nd ref="247005107"/>
    <tag k="created_by" v="RambaZamba"/>
    <tag k="highway" v="primary"/>
    <tag k="name" v="Plinganserstraße"/>
    <tag k="oneway" v="yes"/>
    <tag k="ref" v="B 11"/>
    <tag k="source" v="survey"/>
  </way>
  <way id="25288456" version="8" timestamp="2009-09-01T10:47:45Z" uid="36809" user="pfoten_weg_!_" changeset="2335754">
    <nd ref="21151027"/>
    <nd ref="277475939"/>
    <nd ref="21151029"/>
    <nd ref="247005107"/>
    <tag k="highway" v="primary"/>
    <tag k="name" v="Plinganserstraße"/>
    <tag k="oneway" v="yes"/>
    <tag k="source" v="survey"/>
  </way>
  <way id="25288457" version="3" timestamp="2009-02-14T01:20:41Z" uid="36809" user="pfoten_weg_!_" changeset="423851">
    <nd ref="254087928"/>
    <nd ref="26514733"/>
    <nd ref="21151027"/>
    <tag k="created_by" v="RambaZamba"/>
    <tag k="cycleway" v="track"/>
    <tag k="highway" v="primary"/>
    <tag k="name" v="Plinganserstraße"/>
    <tag k="oneway" v="yes"/>
    <tag k="ref" v="B 11"/>
    <tag k="source" v="survey"/>
  </way>
  <way id="25288457" version="5" timestamp="2009-09-01T10:34:45Z" uid="36809" user="pfoten_weg_!_" changeset="2335754">
    <nd ref="254087928"/>
    <nd ref="26514733"/>
    <nd ref="21151027"/>
    <tag k="cycleway" v="track"/>
    <tag k="highway" v="primary"/>
    <tag k="name" v="Plinganserstraße"/>
    <tag k="oneway" v="yes"/>
    <tag k="ref" v="B 11"/>
    <tag k="source" v="survey"/>
  </way>
  <way id="25288458" version="9" timestamp="2009-09-04T21:10:00Z" uid="36809" user="pfoten_weg_!_" changeset="2374562">
    <nd ref="274305863"/>
    <nd ref="274305827"/>
    <nd ref="274305828"/>
    <nd ref="275450880"/>
    <nd ref="274305831"/>
    <nd ref="272102591"/>
    <nd ref="295283002"/>
    <nd ref="277436859"/>
    <tag k="foot" v="yes"/>
    <tag k="highway" v="cycleway"/>
    <tag k="layer" v="-1"/>
  </way>
  <way id="25288662" version="2" timestamp="2010-03-27T23:44:02Z" uid="20587" user="balrog-kun" changeset="4250871">
    <nd ref="275452006"/>
    <nd ref="49504300"/>
    <nd ref="49504301"/>
    <nd ref="49504304"/>
    <tag k="created_by" v="Potlatch 0.9c"/>
    <tag k="highway" v="residential"/>
    <tag k="name" v="Thor Street"/>
    <tag k="tiger:cfcc" v="A41"/>
    <tag k="tiger:county" v="San Diego, CA"/>
    <tag k="tiger:name_base" v="Thor"/>
    <tag k="tiger:name_type" v="St"/>
    <tag k="tiger:reviewed" v="no"/>
    <tag k="tiger:separated" v="no"/>
    <tag k="tiger:source" v="tiger_import_dch_v0.6_20070809"/>
    <tag k="tiger:tlid" v="195349157"/>
    <tag k="tiger:zip_left" v="92113"/>
  </way>
</osm>
