<?xml version='1.0' encoding='UTF-8'?>
<osm version="0.6" generator="libosmium/2.20.0">
  <way id="25290218" version="3" timestamp="2010-06-29T19:15:49Z" uid="74617" user="JohnSmith" changeset="5108182">
    <nd ref="275459902"/>
    <nd ref="275459904"/>
    <nd ref="275459905"/>
    <nd ref="275459906"/>
    <nd ref="275459902"/>
    <tag k="fixme" v="sport=football is ambiguous, see http://wiki.osm.org/wiki/Football for more details"/>
    <tag k="sport" v="football"/>
  </way>
  <way id="25290662" version="1" timestamp="2008-07-02T01:07:14Z" uid="30201" user="rrankin" changeset="364299">
    <nd ref="275462857"/>
    <nd ref="275462861"/>
    <tag k="bridge" v="yes"/>
    <tag k="created_by" v="YahooApplet 1.0"/>
    <tag k="highway" v="tertiary"/>
    <tag k="layer" v="1"/>
    <tag k="name" v="Bridge Street"/>
  </way>
  <way id="25290662" version="2" timestamp="2008-07-12T01:49:59Z" uid="30201" user="rrankin" changeset="464510">
    <nd ref="275462857"/>
    <nd ref="275462861"/>
    <tag k="bridge" v="yes"/>
    <tag k="created_by" v="YahooApplet 1.0"/>
    <tag k="highway" v="tertiary"/>
    <tag k="layer" v="1"/>
    <tag k="name" v="Bridge Street"/>
  </way>
  <way id="25290663" version="1" timestamp="2008-07-02T01:07:15Z" uid="30201" user="rrankin" changeset="364299">
    <nd ref="275462047"/>
    <nd ref="275462857"/>
    <tag k="created_by" v="YahooApplet 1.0"/>
    <tag k="highway" v="tertiary"/>
    <tag k="name" v="Bridge Street"/>
  </way>
  <way id="25290663" version="2" timestamp="2010-06-12T08:25:51Z" uid="61114" user="Trav" changeset="4968344"/>
  <way id="25290664" version="1" timestamp="2008-07-02T01:07:16Z" uid="30201" user="rrankin" changeset="364299">
    <nd ref="275462864"/>
    <nd ref="275462868"/>
    <nd ref="275462872"/>
    <nd ref="275462876"/>
    <nd ref="275462879"/>
    <nd ref="275462883"/>
    <nd ref="275462887"/>
    <nd ref="275462037"/>
    <tag k="highway" v="tertiary"/>
    <tag k="name" v="Burdekin Road"/>
    <tag k="source" v="yahoo"/>
  </way>
  <way id="25290664" version="5" timestamp="2009-11-22T01:45:52Z" uid="30201" user="rrankin" changeset="3182177">
    <nd ref="275462864"/>
    <nd ref="568200888"/>
    <nd ref="361309543"/>
    <nd ref="361315038"/>
    <nd ref="361309505"/>
    <nd ref="568200720"/>
    <tag k="highway" v="tertiary"/>
    <tag k="name" v="Burdekin Road"/>
    <tag k="source" v="yahoo"/>
  </way>
  <way id="25290664" version="6" timestamp="2010-06-12T03:24:06Z" uid="61114" user="Trav" changeset="4967418">
    <nd ref="275462864"/>
    <nd ref="568200888"/>
    <nd ref="361309543"/>
    <nd ref="361315038"/>
    <nd ref="361309505"/>
    <nd ref="568200720"/>
    <tag k="highway" v="tertiary"/>
    <tag k="name" v="Burdekin Road"/>
    <tag k="source" v="yahoo"/>
    <tag k="source:name" v="survey"/>
  </way>
  <way id="25290721" version="5" timestamp="2008-08-14T23:47:40Z" uid="6975" user="ulfl" changeset="264731">
    <nd ref="275463342"/>
    <nd ref="275463496"/>
    <nd ref="275463497"/>
    <nd ref="276553692"/>
    <tag k="highway" v="unclassified"/>
    <tag k="name" v="Pepper Lane"/>
    <tag k="noexit" v="yes"/>
  </way>
  <way id="25290732" version="2" timestamp="2008-07-04T07:59:49Z" uid="6975" user="ulfl" changeset="389415">
    <nd ref="275463531"/>
    <nd ref="275463536"/>
    <nd ref="275463547"/>
    <nd ref="275463549"/>
    <nd ref="275463544"/>
    <nd ref="275463533"/>
    <nd ref="275463531"/>
    <tag k="building" v="yes"/>
    <tag k="name" v="Machine Mart"/>
    <tag k="shop" v="doityourself"/>
  </way>
  <way id="25290800" version="1" timestamp="2008-07-02T01:18:55Z" uid="30201" user="rrankin" changeset="364299">
    <nd ref="260169013"/>
    <nd ref="79489016"/>
    <nd ref="275465697"/>
    <nd ref="275465701"/>
    <nd ref="275465705"/>
    <nd ref="275465709"/>
    <nd ref="275465714"/>
    <nd ref="33650351"/>
    <nd ref="275465718"/>
    <nd ref="275465723"/>
    <nd ref="275465727"/>
    <nd ref="275465735"/>
    <nd ref="275465731"/>
    <tag k="highway" v="tertiary"/>
    <tag k="name" v="Schofields Road"/>
    <tag k="source" v="yahoo"/>
  </way>
  <way id="25290800" version="2" timestamp="2008-07-12T01:55:25Z" uid="30201" user="rrankin" changeset="464510">
    <nd ref="260169013"/>
    <nd ref="79489016"/>
    <nd ref="275465697"/>
    <nd ref="275465701"/>
    <nd ref="275465705"/>
    <nd ref="275465709"/>
    <nd ref="275465714"/>
    <nd ref="33650351"/>
    <nd ref="275465718"/>
    <nd ref="277839372"/>
    <nd ref="277839374"/>
    <nd ref="275465723"/>
    <nd ref="275465727"/>
    <nd ref="275465735"/>
    <nd ref="275465731"/>
    <tag k="highway" v="tertiary"/>
    <tag k="name" v="Schofields Road"/>
    <tag k="source" v="yahoo"/>
  </way>
  <way id="25290800" version="3" timestamp="2008-07-12T02:07:57Z" uid="30201" user="rrankin" changeset="464510">
    <nd ref="260169013"/>
    <nd ref="79489016"/>
    <nd ref="275465697"/>
    <nd ref="275465701"/>
    <nd ref="275465705"/>
    <nd ref="275465709"/>
    <nd ref="275465714"/>
    <nd ref="33650351"/>
    <nd ref="275465718"/>
    <nd ref="277839372"/>
    <nd ref="277839374"/>
    <nd ref="275465723"/>
    <nd ref="275465727"/>
    <nd ref="277839607"/>
    <nd ref="275465735"/>
    <nd ref="275465731"/>
    <tag k="highway" v="tertiary"/>
    <tag k="name" v="Schofields Road"/>
    <tag k="source" v="yahoo"/>
  </way>
  <way id="25290800" version="4" timestamp="2008-07-13T00:52:53Z" uid="30201" user="rrankin" changeset="480537">
    <nd ref="260169013"/>
    <nd ref="79489016"/>
    <nd ref="275465697"/>
    <nd ref="275465701"/>
    <nd ref="275465705"/>
    <nd ref="275465709"/>
    <nd ref="278084957"/>
    <nd ref="278084954"/>
    <nd ref="275465714"/>
    <nd ref="33650351"/>
    <nd ref="275465718"/>
    <nd ref="277839372"/>
    <nd ref="277839374"/>
    <nd ref="275465723"/>
    <nd ref="275465727"/>
    <nd ref="277839607"/>
    <nd ref="275465735"/>
    <nd ref="275465731"/>
    <tag k="highway" v="tertiary"/>
    <tag k="name" v="Schofields Road"/>
    <tag k="source" v="yahoo"/>
  </way>
  <way id="25290869" version="1" timestamp="2008-07-02T01:28:34Z" uid="30201" user="rrankin" changeset="364299">
    <nd ref="275468244"/>
    <nd ref="275462850"/>
    <nd ref="33624539"/>
    <nd ref="33624574"/>
    <tag k="abutters" v="mixed"/>
    <tag k="created_by" v="Potlatch alpha"/>
    <tag k="highway" v="secondary"/>
    <tag k="is_in" v="Australia, NSW, New South Wales, Quakers Hill"/>
    <tag k="name" v="Quakers Hill Parkway"/>
  </way>
  <way id="25290869" version="2" timestamp="2009-01-08T01:59:42Z" uid="30201" user="rrankin" changeset="755240">
    <nd ref="275468244"/>
    <nd ref="275462850"/>
    <nd ref="33624539"/>
    <nd ref="330146325"/>
    <tag k="abutters" v="mixed"/>
    <tag k="created_by" v="Potlatch alpha"/>
    <tag k="highway" v="secondary"/>
    <tag k="is_in" v="Australia, NSW, New South Wales, Quakers Hill"/>
    <tag k="name" v="Quakers Hill Parkway"/>
  </way>
  <way id="25290869" version="3" timestamp="2009-01-08T10:59:07Z" uid="30201" user="rrankin" changeset="756774">
    <nd ref="275468244"/>
    <nd ref="275462850"/>
    <nd ref="330168087"/>
    <nd ref="33624539"/>
    <nd ref="330146325"/>
    <tag k="abutters" v="mixed"/>
    <tag k="created_by" v="Potlatch alpha"/>
    <tag k="highway" v="secondary"/>
    <tag k="is_in" v="Australia, NSW, New South Wales, Quakers Hill"/>
    <tag k="name" v="Quakers Hill Parkway"/>
  </way>
  <way id="25290877" version="1" timestamp="2008-07-02T01:32:04Z" uid="30201" user="rrankin" changeset="364299">
    <nd ref="33650487"/>
    <nd ref="33624562"/>
    <nd ref="33624564"/>
    <tag k="abutters" v="mixed"/>
    <tag k="created_by" v="JOSM"/>
    <tag k="highway" v="unclassified"/>
    <tag k="is_in" v="Australia, NSW, New South Wales, Quakers Hill"/>
    <tag k="name" v="Hambledon Road"/>
    <tag k="source" v="survey"/>
  </way>
  <way id="25290877" version="3" timestamp="2010-01-04T10:12:48Z" uid="30201" user="rrankin" changeset="3535771">
    <nd ref="604256269"/>
    <nd ref="33650487"/>
    <tag k="highway" v="tertiary"/>
    <tag k="is_in" v="Australia, NSW, New South Wales, Quakers Hill"/>
    <tag k="name" v="Hambledon Road"/>
    <tag k="oneway" v="yes"/>
    <tag k="source" v="survey"/>
  </way>
</osm>
