<?xml version='1.0' encoding='UTF-8'?>
<osm version="0.6" generator="libosmium/2.20.0">
  <way id="25294413" version="3" timestamp="2008-08-23T04:46:17Z" uid="30201" user="rrankin" changeset="373650">
    <nd ref="275524312"/>
    <nd ref="275524327"/>
    <nd ref="275524335"/>
    <nd ref="275524340"/>
    <nd ref="275524344"/>
    <nd ref="275524348"/>
    <nd ref="275526838"/>
    <nd ref="275526827"/>
    <nd ref="275526809"/>
    <nd ref="275524353"/>
    <tag k="created_by" v="Merkaartor 0.11"/>
    <tag k="highway" v="residential"/>
    <tag k="name" v="Barellan Avenue"/>
  </way>
  <way id="25294413" version="4" timestamp="2010-03-07T22:51:16Z" uid="30201" user="rrankin" changeset="4067464">
    <nd ref="275524353"/>
    <nd ref="275526809"/>
    <nd ref="275526827"/>
    <nd ref="275526838"/>
    <nd ref="275524348"/>
    <nd ref="275524344"/>
    <nd ref="662619948"/>
    <nd ref="275524340"/>
    <nd ref="662619947"/>
    <nd ref="275524335"/>
    <nd ref="662619914"/>
    <nd ref="275524327"/>
    <nd ref="275524312"/>
    <nd ref="662619912"/>
    <tag k="highway" v="residential"/>
    <tag k="name" v="Barellan Avenue"/>
  </way>
  <way id="25294413" version="5" timestamp="2010-07-07T19:31:57Z" uid="74617" user="JohnSmith" changeset="5161069">
    <nd ref="275524353"/>
    <nd ref="275526809"/>
    <nd ref="275526827"/>
    <nd ref="275526838"/>
    <nd ref="275524348"/>
    <nd ref="275524344"/>
    <nd ref="662619948"/>
    <nd ref="275524340"/>
    <nd ref="662619947"/>
    <nd ref="275524335"/>
    <nd ref="662619914"/>
    <nd ref="275524327"/>
    <nd ref="275524312"/>
    <nd ref="662619912"/>
    <tag k="highway" v="residential"/>
    <tag k="maxspeed" v="50"/>
    <tag k="maxspeed:source" v="default residential speed limit in Australia"/>
    <tag k="name" v="Barellan Avenue"/>
  </way>
  <way id="25294426" version="2" timestamp="2008-08-23T04:46:03Z" uid="30201" user="rrankin" changeset="373650">
    <nd ref="275524385"/>
    <nd ref="275524429"/>
    <nd ref="275524391"/>
    <tag k="created_by" v="Merkaartor 0.11"/>
    <tag k="highway" v="residential"/>
    <tag k="name" v="Osborne Road"/>
  </way>
  <way id="25294426" version="3" timestamp="2010-07-07T19:33:11Z" uid="74617" user="JohnSmith" changeset="5161069">
    <nd ref="275524385"/>
    <nd ref="275524429"/>
    <nd ref="275524391"/>
    <tag k="highway" v="residential"/>
    <tag k="maxspeed" v="50"/>
    <tag k="maxspeed:source" v="default residential speed limit in Australia"/>
    <tag k="name" v="Osborne Road"/>
  </way>
  <way id="25294433" version="4" timestamp="2008-08-23T04:45:59Z" uid="30201" user="rrankin" changeset="373650">
    <nd ref="275524429"/>
    <nd ref="275524435"/>
    <nd ref="287537024"/>
    <tag k="created_by" v="Merkaartor 0.11"/>
    <tag k="highway" v="residential"/>
    <tag k="name" v="Baan Baan Street"/>
  </way>
  <way id="25294433" version="5" timestamp="2010-07-07T19:34:35Z" uid="74617" user="JohnSmith" changeset="5161069">
    <nd ref="275524429"/>
    <nd ref="275524435"/>
    <nd ref="287537024"/>
    <tag k="highway" v="residential"/>
    <tag k="maxspeed" v="50"/>
    <tag k="maxspeed:source" v="default residential speed limit in Australia"/>
    <tag k="name" v="Baan Baan Street"/>
  </way>
  <way id="25294440" version="2" timestamp="2008-08-23T04:45:53Z" uid="30201" user="rrankin" changeset="373650">
    <nd ref="275524445"/>
    <nd ref="275524455"/>
    <nd ref="275524449"/>
    <tag k="created_by" v="Merkaartor 0.11"/>
    <tag k="highway" v="residential"/>
    <tag k="name" v="Jerramatta Street"/>
  </way>
  <way id="25294440" version="4" timestamp="2010-03-07T22:51:16Z" uid="30201" user="rrankin" changeset="4067464">
    <nd ref="275524445"/>
    <nd ref="297188139"/>
    <nd ref="662619894"/>
    <tag k="highway" v="residential"/>
    <tag k="name" v="Jerramatta Street"/>
  </way>
  <way id="25294440" version="5" timestamp="2010-07-07T19:32:59Z" uid="74617" user="JohnSmith" changeset="5161069">
    <nd ref="275524445"/>
    <nd ref="297188139"/>
    <nd ref="662619894"/>
    <tag k="highway" v="residential"/>
    <tag k="maxspeed" v="50"/>
    <tag k="maxspeed:source" v="default residential speed limit in Australia"/>
    <tag k="name" v="Jerramatta Street"/>
  </way>
  <way id="25294445" version="2" timestamp="2008-08-23T04:45:44Z" uid="30201" user="rrankin" changeset="373650">
    <nd ref="275524462"/>
    <nd ref="275524467"/>
    <tag k="created_by" v="Merkaartor 0.11"/>
    <tag k="highway" v="residential"/>
    <tag k="name" v="Werowi Street"/>
  </way>
  <way id="25294445" version="4" timestamp="2010-03-07T22:51:16Z" uid="30201" user="rrankin" changeset="4067464">
    <nd ref="275524462"/>
    <nd ref="275524474"/>
    <nd ref="297188129"/>
    <nd ref="275524467"/>
    <tag k="highway" v="residential"/>
    <tag k="name" v="Werowi Street"/>
  </way>
  <way id="25294445" version="5" timestamp="2010-07-07T19:32:15Z" uid="74617" user="JohnSmith" changeset="5161069">
    <nd ref="275524462"/>
    <nd ref="275524474"/>
    <nd ref="297188129"/>
    <nd ref="275524467"/>
    <tag k="highway" v="residential"/>
    <tag k="maxspeed" v="50"/>
    <tag k="maxspeed:source" v="default residential speed limit in Australia"/>
    <tag k="name" v="Werowi Street"/>
  </way>
  <way id="25294455" version="3" timestamp="2008-08-23T04:45:38Z" uid="30201" user="rrankin" changeset="373650">
    <nd ref="275524474"/>
    <nd ref="275524455"/>
    <nd ref="275524438"/>
    <nd ref="275524477"/>
    <tag k="created_by" v="Merkaartor 0.11"/>
    <tag k="highway" v="residential"/>
    <tag k="name" v="Moombara Street"/>
  </way>
  <way id="25294455" version="5" timestamp="2010-03-07T22:51:15Z" uid="30201" user="rrankin" changeset="4067464">
    <nd ref="275524474"/>
    <nd ref="662619896"/>
    <tag k="highway" v="residential"/>
    <tag k="name" v="Moombara Street"/>
  </way>
  <way id="25294455" version="6" timestamp="2010-07-07T19:33:36Z" uid="74617" user="JohnSmith" changeset="5161069">
    <nd ref="275524474"/>
    <nd ref="662619896"/>
    <tag k="highway" v="residential"/>
    <tag k="maxspeed" v="50"/>
    <tag k="maxspeed:source" v="default residential speed limit in Australia"/>
    <tag k="name" v="Moombara Street"/>
  </way>
  <way id="25294464" version="4" timestamp="2010-03-07T22:51:18Z" uid="30201" user="rrankin" changeset="4067464">
    <nd ref="275524520"/>
    <nd ref="297188134"/>
    <nd ref="275524441"/>
    <nd ref="297188131"/>
    <nd ref="275524445"/>
    <nd ref="275524377"/>
    <nd ref="275524462"/>
    <nd ref="275524380"/>
    <nd ref="662619946"/>
    <nd ref="258025473"/>
    <tag k="highway" v="secondary"/>
    <tag k="name" v="Mulda Street"/>
  </way>
  <way id="25294466" version="7" timestamp="2008-08-23T04:47:39Z" uid="30201" user="rrankin" changeset="373650">
    <nd ref="275524477"/>
    <nd ref="275524520"/>
    <nd ref="289297906"/>
    <nd ref="289297911"/>
    <nd ref="289305863"/>
    <nd ref="289297901"/>
    <nd ref="289561649"/>
    <nd ref="289563245"/>
    <nd ref="289305841"/>
    <nd ref="289305842"/>
    <nd ref="289305843"/>
    <nd ref="289305848"/>
    <tag k="bridge" v="no"/>
    <tag k="created_by" v="Merkaartor 0.11"/>
    <tag k="highway" v="secondary"/>
    <tag k="name" v="Byamee Street"/>
  </way>
  <way id="25294466" version="11" timestamp="2009-07-26T00:21:08Z" uid="4467" user="Rosscoe" changeset="1939703">
    <nd ref="275524477"/>
    <nd ref="297188136"/>
    <nd ref="275524520"/>
    <nd ref="289297906"/>
    <nd ref="289297911"/>
    <nd ref="289305863"/>
    <nd ref="289297901"/>
    <nd ref="294106575"/>
    <nd ref="294106583"/>
    <nd ref="294103012"/>
    <nd ref="294106595"/>
    <nd ref="294106615"/>
    <tag k="highway" v="secondary"/>
    <tag k="name" v="Byamee Street"/>
  </way>
  <way id="25294466" version="12" timestamp="2010-03-07T22:51:11Z" uid="30201" user="rrankin" changeset="4067464">
    <nd ref="275524477"/>
    <nd ref="297188136"/>
    <nd ref="275524520"/>
    <nd ref="289297906"/>
    <nd ref="289297911"/>
    <nd ref="289305863"/>
    <nd ref="289297901"/>
    <nd ref="294106575"/>
    <nd ref="294106583"/>
    <nd ref="294103012"/>
    <nd ref="294106595"/>
    <nd ref="294106592"/>
    <nd ref="289561649"/>
    <nd ref="289563245"/>
    <nd ref="289305841"/>
    <nd ref="638193510"/>
    <tag k="highway" v="secondary"/>
    <tag k="name" v="Byamee Street"/>
  </way>
</osm>
