<?xml version='1.0' encoding='UTF-8'?>
<osm version="0.6" generator="libosmium/2.20.0">
  <way id="25387118" version="4" timestamp="2008-07-06T19:32:11Z" uid="6975" user="ulfl" changeset="415781">
    <nd ref="276692793"/>
    <nd ref="276692794"/>
    <tag k="bridge" v="yes"/>
    <tag k="highway" v="track"/>
    <tag k="layer" v="1"/>
    <tag k="tracktype" v="grade1"/>
  </way>
  <way id="25387121" version="3" timestamp="2008-07-06T19:32:12Z" uid="6975" user="ulfl" changeset="415781">
    <nd ref="276692794"/>
    <nd ref="276693457"/>
    <nd ref="276692795"/>
    <nd ref="276692796"/>
    <nd ref="276692797"/>
    <nd ref="276692798"/>
    <nd ref="276692799"/>
    <nd ref="276692800"/>
    <nd ref="276692801"/>
    <nd ref="276692802"/>
    <nd ref="276692803"/>
    <nd ref="276692804"/>
    <nd ref="276692805"/>
    <nd ref="276692806"/>
    <nd ref="276692807"/>
    <nd ref="276692808"/>
    <nd ref="276692809"/>
    <tag k="highway" v="track"/>
    <tag k="tracktype" v="grade1"/>
  </way>
  <way id="25387168" version="4" timestamp="2008-07-06T19:32:12Z" uid="6975" user="ulfl" changeset="415781">
    <nd ref="276692809"/>
    <nd ref="276696698"/>
    <tag k="bridge" v="yes"/>
    <tag k="highway" v="track"/>
    <tag k="layer" v="1"/>
    <tag k="tracktype" v="grade1"/>
  </way>
  <way id="25387173" version="1" timestamp="2008-07-06T16:52:38Z" uid="36809" user="pfoten_weg_!_" changeset="408341">
    <nd ref="276696811"/>
    <nd ref="276696821"/>
    <nd ref="276696813"/>
    <nd ref="276696816"/>
    <nd ref="276696818"/>
    <tag k="created_by" v="JOSM"/>
    <tag k="highway" v="secondary"/>
    <tag k="name" v="Dr. Carl-von-Linde-Straße"/>
    <tag k="oneway" v="yes"/>
  </way>
  <way id="25387173" version="2" timestamp="2008-08-08T23:39:37Z" uid="36809" user="pfoten_weg_!_" changeset="148317">
    <nd ref="286373140"/>
    <nd ref="276696821"/>
    <nd ref="276696813"/>
    <nd ref="276696816"/>
    <nd ref="276696818"/>
    <tag k="created_by" v="JOSM"/>
    <tag k="highway" v="secondary"/>
    <tag k="name" v="Dr. Carl-von-Linde-Straße"/>
    <tag k="oneway" v="yes"/>
  </way>
  <way id="25387173" version="3" timestamp="2008-08-09T14:42:29Z" uid="36809" user="pfoten_weg_!_" changeset="152802">
    <nd ref="286373140"/>
    <nd ref="276696821"/>
    <nd ref="276696813"/>
    <nd ref="276696816"/>
    <nd ref="276696818"/>
    <tag k="created_by" v="RambaZamba"/>
    <tag k="highway" v="secondary"/>
    <tag k="name" v="Dr. Carl-von-Linde-Straße"/>
    <tag k="oneway" v="yes"/>
  </way>
  <way id="25387173" version="4" timestamp="2008-10-01T02:09:30Z" uid="36809" user="pfoten_weg_!_" changeset="5644">
    <nd ref="286373140"/>
    <nd ref="276696821"/>
    <nd ref="276696813"/>
    <nd ref="276696816"/>
    <nd ref="276696818"/>
    <tag k="created_by" v="RambaZamba"/>
    <tag k="highway" v="secondary"/>
    <tag k="name" v="Dr. Carl-von-Linde-Straße"/>
    <tag k="oneway" v="yes"/>
  </way>
  <way id="25387173" version="5" timestamp="2008-10-22T00:59:50Z" uid="36809" user="pfoten_weg_!_" changeset="498765">
    <nd ref="286373140"/>
    <nd ref="276696821"/>
    <nd ref="276696813"/>
    <nd ref="276696816"/>
    <nd ref="276696818"/>
    <tag k="created_by" v="RambaZamba"/>
    <tag k="highway" v="secondary"/>
    <tag k="name" v="Dr. Carl-von-Linde-Straße"/>
    <tag k="oneway" v="yes"/>
    <tag k="osmarender:renderName" v="no"/>
  </way>
  <way id="25387173" version="6" timestamp="2008-11-10T01:27:40Z" uid="36809" user="pfoten_weg_!_" changeset="727993">
    <nd ref="286373140"/>
    <nd ref="276696821"/>
    <nd ref="276696813"/>
    <nd ref="276696816"/>
    <nd ref="276696818"/>
    <tag k="created_by" v="RambaZamba"/>
    <tag k="highway" v="secondary"/>
    <tag k="name" v="Dr. Carl-von-Linde-Straße"/>
    <tag k="oneway" v="yes"/>
    <tag k="osmarender:renderName" v="no"/>
    <tag k="ref" v="St2572"/>
  </way>
  <way id="25387173" version="7" timestamp="2008-12-05T00:31:34Z" uid="36809" user="pfoten_weg_!_" changeset="134788">
    <nd ref="286373140"/>
    <nd ref="276696821"/>
    <nd ref="276696813"/>
    <nd ref="276696816"/>
    <nd ref="276696818"/>
    <tag k="created_by" v="RambaZamba"/>
    <tag k="highway" v="secondary"/>
    <tag k="name" v="Dr. Carl-von-Linde-Straße"/>
    <tag k="oneway" v="yes"/>
    <tag k="osmarender:renderName" v="no"/>
    <tag k="osmarender:renderRef" v="no"/>
    <tag k="ref" v="St2572"/>
  </way>
  <way id="25387173" version="8" timestamp="2009-02-15T13:11:34Z" uid="36809" user="pfoten_weg_!_" changeset="463903">
    <nd ref="286373140"/>
    <nd ref="276696821"/>
    <nd ref="276696813"/>
    <nd ref="276696816"/>
    <nd ref="276696818"/>
    <tag k="created_by" v="RambaZamba"/>
    <tag k="highway" v="secondary"/>
    <tag k="name" v="Dr. Carl-von-Linde-Straße"/>
    <tag k="oneway" v="yes"/>
    <tag k="osmarender:renderName" v="no"/>
    <tag k="osmarender:renderRef" v="no"/>
    <tag k="ref" v="St2572"/>
    <tag k="source" v="survey"/>
  </way>
  <way id="25387173" version="10" timestamp="2009-05-03T01:35:07Z" uid="36809" user="pfoten_weg_!_" changeset="1055426">
    <nd ref="286373140"/>
    <nd ref="276696821"/>
    <nd ref="276696813"/>
    <nd ref="276696816"/>
    <nd ref="276696818"/>
    <tag k="created_by" v="RambaZamba"/>
    <tag k="highway" v="secondary"/>
    <tag k="name" v="Dr. Carl-von-Linde-Straße"/>
    <tag k="oneway" v="yes"/>
    <tag k="ref" v="St 2572"/>
    <tag k="source" v="survey"/>
  </way>
  <way id="25387173" version="11" timestamp="2009-07-16T22:41:23Z" uid="36809" user="pfoten_weg_!_" changeset="1849797">
    <nd ref="286373140"/>
    <nd ref="276696821"/>
    <nd ref="276696813"/>
    <nd ref="276696816"/>
    <nd ref="276696818"/>
    <tag k="discovered_by" v="RambaZamba"/>
    <tag k="highway" v="secondary"/>
    <tag k="name" v="Dr. Carl-von-Linde-Straße"/>
    <tag k="oneway" v="yes"/>
    <tag k="ref" v="St 2572"/>
    <tag k="source" v="survey"/>
  </way>
  <way id="25387173" version="13" timestamp="2009-08-28T21:06:34Z" uid="36809" user="pfoten_weg_!_" changeset="2295155">
    <nd ref="286373140"/>
    <nd ref="276696821"/>
    <nd ref="276696813"/>
    <nd ref="276696816"/>
    <nd ref="276696818"/>
    <tag k="discovered_by" v="RambaZamba"/>
    <tag k="highway" v="secondary"/>
    <tag k="name" v="Dr. Carl-von-Linde-Straße"/>
    <tag k="oneway" v="yes"/>
    <tag k="ref" v="St 2572"/>
    <tag k="source" v="survey"/>
  </way>
  <way id="25387173" version="15" timestamp="2009-09-01T10:38:05Z" uid="36809" user="pfoten_weg_!_" changeset="2335754">
    <nd ref="286373140"/>
    <nd ref="276696821"/>
    <nd ref="276696813"/>
    <nd ref="276696816"/>
    <nd ref="276696818"/>
    <tag k="highway" v="secondary"/>
    <tag k="name" v="Dr. Carl-von-Linde-Straße"/>
    <tag k="oneway" v="yes"/>
    <tag k="ref" v="St 2572"/>
    <tag k="source" v="survey"/>
  </way>
  <way id="25387173" version="16" timestamp="2009-10-12T21:13:26Z" uid="36809" user="pfoten_weg_!_" changeset="2831027">
    <nd ref="286373140"/>
    <nd ref="276696821"/>
    <nd ref="276696813"/>
    <nd ref="276696816"/>
    <nd ref="276696818"/>
    <tag k="highway" v="secondary"/>
    <tag k="name" v="Dr. Carl-von-Linde-Straße"/>
    <tag k="oneway" v="yes"/>
    <tag k="ref" v="St 2572"/>
  </way>
  <way id="25387174" version="1" timestamp="2008-07-06T16:52:38Z" uid="36809" user="pfoten_weg_!_" changeset="408341">
    <nd ref="276696818"/>
    <nd ref="263676348"/>
    <tag k="created_by" v="Potlatch 0.9a"/>
    <tag k="highway" v="secondary"/>
    <tag k="name" v="Dr. Carl-von-Linde-Straße"/>
  </way>
  <way id="25387174" version="3" timestamp="2008-08-18T12:10:31Z" uid="36809" user="pfoten_weg_!_" changeset="306127">
    <nd ref="276696818"/>
    <nd ref="289063449"/>
    <nd ref="263676348"/>
    <tag k="created_by" v="RambaZamba"/>
    <tag k="highway" v="secondary"/>
    <tag k="name" v="Dr. Carl-von-Linde-Straße"/>
  </way>
  <way id="25387174" version="4" timestamp="2008-09-19T22:30:04Z" uid="36809" user="pfoten_weg_!_" changeset="670006">
    <nd ref="276696818"/>
    <nd ref="289063449"/>
    <nd ref="298280271"/>
    <nd ref="263676348"/>
    <tag k="created_by" v="RambaZamba"/>
    <tag k="highway" v="secondary"/>
    <tag k="name" v="Dr. Carl-von-Linde-Straße"/>
  </way>
  <way id="25387174" version="5" timestamp="2008-10-01T02:09:27Z" uid="36809" user="pfoten_weg_!_" changeset="5644">
    <nd ref="276696818"/>
    <nd ref="289063449"/>
    <nd ref="298280271"/>
    <nd ref="263676348"/>
    <tag k="created_by" v="RambaZamba"/>
    <tag k="highway" v="secondary"/>
    <tag k="name" v="Dr. Carl-von-Linde-Straße"/>
  </way>
  <way id="25387174" version="6" timestamp="2008-11-05T21:40:12Z" uid="36809" user="pfoten_weg_!_" changeset="691666">
    <nd ref="276696818"/>
    <nd ref="289063449"/>
    <nd ref="298280271"/>
    <nd ref="263676348"/>
    <tag k="created_by" v="RambaZamba"/>
    <tag k="highway" v="secondary"/>
    <tag k="name" v="Dr. Carl-von-Linde-Straße"/>
    <tag k="source" v="survey"/>
  </way>
  <way id="25387174" version="7" timestamp="2008-11-10T01:27:40Z" uid="36809" user="pfoten_weg_!_" changeset="727993">
    <nd ref="276696818"/>
    <nd ref="289063449"/>
    <nd ref="298280271"/>
    <nd ref="263676348"/>
    <tag k="created_by" v="RambaZamba"/>
    <tag k="highway" v="secondary"/>
    <tag k="name" v="Dr. Carl-von-Linde-Straße"/>
    <tag k="ref" v="St2572"/>
    <tag k="source" v="survey"/>
  </way>
  <way id="25387174" version="9" timestamp="2008-12-05T00:31:34Z" uid="36809" user="pfoten_weg_!_" changeset="134788">
    <nd ref="276696818"/>
    <nd ref="289063449"/>
    <tag k="created_by" v="RambaZamba"/>
    <tag k="highway" v="secondary"/>
    <tag k="maxspeed" v="50"/>
    <tag k="name" v="Dr. Carl-von-Linde-Straße"/>
    <tag k="osmarender:renderName" v="no"/>
    <tag k="osmarender:renderRef" v="no"/>
    <tag k="ref" v="St2572"/>
    <tag k="source" v="survey"/>
  </way>
  <way id="25387174" version="11" timestamp="2009-05-03T01:35:06Z" uid="36809" user="pfoten_weg_!_" changeset="1055426">
    <nd ref="276696818"/>
    <nd ref="289063449"/>
    <tag k="created_by" v="RambaZamba"/>
    <tag k="highway" v="secondary"/>
    <tag k="maxspeed" v="50"/>
    <tag k="name" v="Dr. Carl-von-Linde-Straße"/>
    <tag k="ref" v="St 2572"/>
    <tag k="source" v="survey"/>
  </way>
  <way id="25387174" version="12" timestamp="2009-07-16T22:41:23Z" uid="36809" user="pfoten_weg_!_" changeset="1849797">
    <nd ref="276696818"/>
    <nd ref="289063449"/>
    <tag k="discovered_by" v="RambaZamba"/>
    <tag k="highway" v="secondary"/>
    <tag k="maxspeed" v="50"/>
    <tag k="name" v="Dr. Carl-von-Linde-Straße"/>
    <tag k="ref" v="St 2572"/>
    <tag k="source" v="survey"/>
  </way>
  <way id="25387174" version="14" timestamp="2009-08-28T21:13:28Z" uid="36809" user="pfoten_weg_!_" changeset="2295155">
    <nd ref="276696818"/>
    <nd ref="289063449"/>
    <tag k="discovered_by" v="RambaZamba"/>
    <tag k="highway" v="secondary"/>
    <tag k="maxspeed" v="50"/>
    <tag k="name" v="Dr. Carl-von-Linde-Straße"/>
    <tag k="ref" v="St 2572"/>
    <tag k="source" v="survey"/>
  </way>
  <way id="25387174" version="16" timestamp="2009-09-01T11:09:23Z" uid="36809" user="pfoten_weg_!_" changeset="2335754">
    <nd ref="276696818"/>
    <nd ref="289063449"/>
    <tag k="highway" v="secondary"/>
    <tag k="maxspeed" v="50"/>
    <tag k="name" v="Dr. Carl-von-Linde-Straße"/>
    <tag k="ref" v="St 2572"/>
    <tag k="source" v="survey"/>
  </way>
  <way id="25387174" version="17" timestamp="2009-10-12T21:13:25Z" uid="36809" user="pfoten_weg_!_" changeset="2831027">
    <nd ref="276696818"/>
    <nd ref="289063449"/>
    <tag k="highway" v="secondary"/>
    <tag k="maxspeed" v="50"/>
    <tag k="name" v="Dr. Carl-von-Linde-Straße"/>
    <tag k="ref" v="St 2572"/>
  </way>
  <way id="25387182" version="2" timestamp="2008-07-06T19:32:11Z" uid="6975" user="ulfl" changeset="415781">
    <nd ref="276696698"/>
    <nd ref="276692810"/>
    <nd ref="276692812"/>
    <nd ref="276692789"/>
    <tag k="highway" v="track"/>
    <tag k="tracktype" v="grade1"/>
  </way>
  <way id="25387295" version="2" timestamp="2010-03-27T23:49:46Z" uid="20587" user="balrog-kun" changeset="4250871">
    <nd ref="276697795"/>
    <nd ref="90871600"/>
    <nd ref="90871602"/>
    <nd ref="90778552"/>
    <nd ref="90871603"/>
    <nd ref="90871605"/>
    <nd ref="90871606"/>
    <nd ref="90871608"/>
    <nd ref="90871610"/>
    <nd ref="90871612"/>
    <nd ref="90871614"/>
    <nd ref="90871581"/>
    <nd ref="90862156"/>
    <nd ref="90871616"/>
    <nd ref="90871618"/>
    <nd ref="90871620"/>
    <nd ref="90871622"/>
    <nd ref="90871625"/>
    <nd ref="90871627"/>
    <nd ref="90871629"/>
    <nd ref="90774492"/>
    <nd ref="90871631"/>
    <tag k="created_by" v="Potlatch 0.9c"/>
    <tag k="highway" v="residential"/>
    <tag k="name" v="South Main Street"/>
    <tag k="tiger:cfcc" v="A45"/>
    <tag k="tiger:county" v="San Joaquin, CA"/>
    <tag k="tiger:name_base" v="Main"/>
    <tag k="tiger:name_direction_prefix" v="S"/>
    <tag k="tiger:name_type" v="St"/>
    <tag k="tiger:reviewed" v="no"/>
    <tag k="tiger:separated" v="yes"/>
    <tag k="tiger:source" v="tiger_import_dch_v0.6_20070809"/>
    <tag k="tiger:tlid" v="133875363:133890862"/>
  </way>
  <way id="25387296" version="2" timestamp="2010-03-27T23:49:46Z" uid="20587" user="balrog-kun" changeset="4250871">
    <nd ref="276697798"/>
    <nd ref="90871677"/>
    <nd ref="90810251"/>
    <nd ref="90761961"/>
    <nd ref="90778818"/>
    <nd ref="90871679"/>
    <nd ref="90871681"/>
    <nd ref="90871683"/>
    <nd ref="90871685"/>
    <tag k="created_by" v="Potlatch 0.9c"/>
    <tag k="highway" v="residential"/>
    <tag k="name" v="South Main Street"/>
    <tag k="tiger:cfcc" v="A41"/>
    <tag k="tiger:county" v="San Joaquin, CA"/>
    <tag k="tiger:name_base" v="Main"/>
    <tag k="tiger:name_direction_prefix" v="S"/>
    <tag k="tiger:name_type" v="St"/>
    <tag k="tiger:reviewed" v="no"/>
    <tag k="tiger:separated" v="no"/>
    <tag k="tiger:source" v="tiger_import_dch_v0.6_20070809"/>
    <tag k="tiger:tlid" v="133881519"/>
  </way>
  <way id="25387511" version="2" timestamp="2008-11-26T18:16:41Z" uid="6975" user="ulfl" changeset="797054">
    <nd ref="276699436"/>
    <nd ref="276699442"/>
    <nd ref="276699444"/>
    <tag k="highway" v="service"/>
    <tag k="noexit" v="yes"/>
    <tag k="surface" v="unpaved"/>
  </way>
  <way id="25387914" version="4" timestamp="2008-07-24T17:51:24Z" uid="27600" user="Islanit" changeset="582665">
    <nd ref="276702675"/>
    <nd ref="276702662"/>
    <nd ref="276702663"/>
    <nd ref="276702666"/>
    <nd ref="276702668"/>
    <nd ref="276702671"/>
    <nd ref="276702673"/>
    <tag k="created_by" v="Potlatch 0.10"/>
    <tag k="highway" v="residential"/>
    <tag k="maxspeed" v="30"/>
    <tag k="name" v="Pütjerweg"/>
    <tag k="postal_code" v="21244"/>
  </way>
</osm>
