<?xml version='1.0' encoding='UTF-8'?>
<osm version="0.6" generator="libosmium/2.20.0">
  <way id="25430092" version="2" timestamp="2010-07-07T07:57:01Z" uid="74617" user="JohnSmith" changeset="5156250">
    <nd ref="244307548"/>
    <nd ref="277142855"/>
    <nd ref="277142857"/>
    <nd ref="277142859"/>
    <nd ref="277142861"/>
    <nd ref="277142864"/>
    <nd ref="277142865"/>
    <nd ref="277142866"/>
    <nd ref="277142867"/>
    <nd ref="277142868"/>
    <nd ref="277142869"/>
    <nd ref="277142871"/>
    <nd ref="277142872"/>
    <tag k="highway" v="residential"/>
    <tag k="maxspeed" v="50"/>
    <tag k="maxspeed:source" v="default residential speed limit in Australia"/>
  </way>
  <way id="25430098" version="1" timestamp="2008-07-08T13:28:09Z" uid="17602" user="B10xyz" changeset="429200">
    <nd ref="277142904"/>
    <nd ref="277142905"/>
    <nd ref="277142907"/>
    <nd ref="277142908"/>
    <nd ref="277142904"/>
    <tag k="created_by" v="Potlatch 0.9c"/>
  </way>
  <way id="25430098" version="2" timestamp="2008-08-15T08:09:47Z" uid="17602" user="B10xyz" changeset="255780">
    <nd ref="277142904"/>
    <nd ref="277142905"/>
    <nd ref="277142907"/>
    <nd ref="277142908"/>
    <nd ref="277142904"/>
    <tag k="building" v="yes"/>
    <tag k="created_by" v="Potlatch 0.9c"/>
    <tag k="name" v="Scala Contarini Del Bovolo"/>
  </way>
  <way id="25430098" version="3" timestamp="2008-11-28T16:17:20Z" uid="17602" user="B10xyz" changeset="804044">
    <nd ref="277142904"/>
    <nd ref="315295712"/>
    <nd ref="277142905"/>
    <nd ref="315295713"/>
    <nd ref="277142907"/>
    <nd ref="315295709"/>
    <nd ref="277142908"/>
    <nd ref="315295710"/>
    <nd ref="277142904"/>
    <tag k="building" v="yes"/>
    <tag k="created_by" v="Potlatch 0.9c"/>
    <tag k="name" v="Scala Contarini Del Bovolo"/>
  </way>
  <way id="25430098" version="4" timestamp="2009-03-11T02:04:27Z" uid="17602" user="B10xyz" changeset="787544">
    <nd ref="277142904"/>
    <nd ref="315295712"/>
    <nd ref="277142905"/>
    <nd ref="315295713"/>
    <nd ref="277142907"/>
    <nd ref="315295709"/>
    <nd ref="277142908"/>
    <nd ref="315295710"/>
    <nd ref="277142904"/>
    <tag k="building" v="yes"/>
    <tag k="name" v="Scala Contarini Del Bovolo"/>
  </way>
  <way id="25430638" version="1" timestamp="2008-07-08T13:38:40Z" uid="20587" user="balrog-kun" changeset="435086">
    <nd ref="26515517"/>
    <nd ref="277147302"/>
    <tag k="created_by" v="JOSM"/>
    <tag k="highway" v="residential"/>
    <tag k="name" v="Astronautów"/>
    <tag k="note" v="TODO"/>
  </way>
  <way id="25430638" version="2" timestamp="2008-12-04T13:43:39Z" uid="20587" user="balrog-kun" changeset="109823">
    <nd ref="26515517"/>
    <nd ref="277147302"/>
    <nd ref="316628063"/>
    <nd ref="316628064"/>
    <tag k="created_by" v="JOSM"/>
    <tag k="highway" v="residential"/>
    <tag k="name" v="Astronautów"/>
  </way>
  <way id="25430638" version="3" timestamp="2010-06-23T19:35:06Z" uid="20587" user="balrog-kun" changeset="5061349">
    <nd ref="26515517"/>
    <nd ref="785377444"/>
    <nd ref="785375733"/>
    <nd ref="277147302"/>
    <nd ref="316628063"/>
    <nd ref="785379514"/>
    <nd ref="785377351"/>
    <nd ref="785376304"/>
    <nd ref="785378208"/>
    <nd ref="785374661"/>
    <nd ref="316628064"/>
    <nd ref="785379528"/>
    <nd ref="785377783"/>
    <tag k="highway" v="residential"/>
    <tag k="name" v="Astronautów"/>
  </way>
  <way id="25430638" version="4" timestamp="2010-06-24T02:52:26Z" uid="20587" user="balrog-kun" changeset="5063204">
    <nd ref="26515517"/>
    <nd ref="785377444"/>
    <nd ref="785375733"/>
    <nd ref="786449157"/>
    <nd ref="277147302"/>
    <nd ref="786449301"/>
    <nd ref="316628063"/>
    <nd ref="785379514"/>
    <nd ref="785377351"/>
    <nd ref="785376304"/>
    <nd ref="785378208"/>
    <nd ref="785374661"/>
    <nd ref="316628064"/>
    <nd ref="785379528"/>
    <nd ref="785377783"/>
    <tag k="highway" v="residential"/>
    <tag k="maxweight" v="2.5"/>
    <tag k="name" v="Astronautów"/>
  </way>
  <way id="25430639" version="1" timestamp="2008-07-08T13:38:40Z" uid="20587" user="balrog-kun" changeset="435086">
    <nd ref="277147306"/>
    <nd ref="277147308"/>
    <nd ref="277147311"/>
    <nd ref="277147314"/>
    <nd ref="277147317"/>
    <nd ref="277147318"/>
    <nd ref="277147320"/>
    <nd ref="277147323"/>
    <nd ref="277147325"/>
    <tag k="created_by" v="JOSM"/>
    <tag k="highway" v="cycleway"/>
  </way>
  <way id="25430639" version="2" timestamp="2009-07-26T01:26:49Z" uid="20587" user="balrog-kun" changeset="1939909">
    <nd ref="448079554"/>
    <nd ref="448079559"/>
    <nd ref="448079558"/>
    <nd ref="277147306"/>
    <nd ref="277147308"/>
    <nd ref="277147311"/>
    <nd ref="277147314"/>
    <nd ref="277147317"/>
    <nd ref="277147318"/>
    <nd ref="277147320"/>
    <nd ref="277147323"/>
    <nd ref="277147325"/>
    <tag k="highway" v="cycleway"/>
  </way>
  <way id="25430639" version="3" timestamp="2010-06-23T19:35:00Z" uid="20587" user="balrog-kun" changeset="5061349">
    <nd ref="448079554"/>
    <nd ref="448079559"/>
    <nd ref="448079558"/>
    <nd ref="277147306"/>
    <nd ref="785377176"/>
    <tag k="highway" v="footway"/>
  </way>
  <way id="25430704" version="1" timestamp="2008-07-08T13:40:31Z" uid="20587" user="balrog-kun" changeset="435086">
    <nd ref="277148167"/>
    <nd ref="277148168"/>
    <nd ref="277148169"/>
    <nd ref="277148171"/>
    <nd ref="277148167"/>
    <tag k="created_by" v="JOSM"/>
    <tag k="landuse" v="military"/>
    <tag k="note" v="TODO: redraw from Yahoo Imagery"/>
  </way>
  <way id="25430704" version="2" timestamp="2008-07-15T16:38:14Z" uid="20587" user="balrog-kun" changeset="498938">
    <nd ref="277148167"/>
    <nd ref="277148168"/>
    <nd ref="278765910"/>
    <nd ref="278765945"/>
    <nd ref="277148169"/>
    <nd ref="277148171"/>
    <nd ref="278765899"/>
    <nd ref="277148167"/>
    <tag k="created_by" v="JOSM"/>
    <tag k="landuse" v="military"/>
    <tag k="note" v="TODO: redraw from Yahoo Imagery"/>
  </way>
  <way id="25430704" version="3" timestamp="2008-12-04T13:43:40Z" uid="20587" user="balrog-kun" changeset="109823">
    <nd ref="277148167"/>
    <nd ref="277148168"/>
    <nd ref="278765910"/>
    <nd ref="278765945"/>
    <nd ref="277148169"/>
    <nd ref="277148171"/>
    <nd ref="278765899"/>
    <nd ref="277148167"/>
    <tag k="addr:housenumber" v="1"/>
    <tag k="addr:street" v="Żwirki i Wigury"/>
    <tag k="created_by" v="JOSM"/>
    <tag k="landuse" v="military"/>
  </way>
  <way id="25430704" version="4" timestamp="2008-12-04T14:35:53Z" uid="20587" user="balrog-kun" changeset="109823">
    <nd ref="277148167"/>
    <nd ref="277148168"/>
    <nd ref="278765910"/>
    <nd ref="278765945"/>
    <nd ref="277148169"/>
    <nd ref="277148171"/>
    <nd ref="278765899"/>
    <nd ref="277148167"/>
    <tag k="addr:housenumber" v="1"/>
    <tag k="addr:street" v="Żwirki i Wigury"/>
    <tag k="created_by" v="JOSM"/>
    <tag k="landuse" v="military"/>
    <tag k="military" v="airfield"/>
    <tag k="name" v="36 Specjalny Pułk Lotnictwa Transportowego"/>
  </way>
  <way id="25430704" version="5" timestamp="2010-06-23T19:34:47Z" uid="20587" user="balrog-kun" changeset="5061349">
    <nd ref="277148167"/>
    <nd ref="277148168"/>
    <nd ref="278765910"/>
    <nd ref="278765945"/>
    <nd ref="785379788"/>
    <nd ref="277148169"/>
    <nd ref="785376699"/>
    <nd ref="277148171"/>
    <nd ref="278765899"/>
    <nd ref="277148167"/>
    <tag k="addr:housenumber" v="1"/>
    <tag k="addr:street" v="Żwirki i Wigury"/>
    <tag k="landuse" v="military"/>
    <tag k="military" v="airfield"/>
    <tag k="name" v="36 Specjalny Pułk Lotnictwa Transportowego"/>
  </way>
  <way id="25430737" version="5" timestamp="2010-03-27T23:49:54Z" uid="20587" user="balrog-kun" changeset="4250871">
    <nd ref="49621809"/>
    <nd ref="49621766"/>
    <tag k="created_by" v="Potlatch 0.10b"/>
    <tag k="highway" v="residential"/>
    <tag k="layer" v="-1"/>
    <tag k="name" v="Del Sol Boulevard"/>
    <tag k="tiger:cfcc" v="A41"/>
    <tag k="tiger:county" v="San Diego, CA"/>
    <tag k="tiger:name_base" v="Del Sol"/>
    <tag k="tiger:name_type" v="Blvd"/>
    <tag k="tiger:separated" v="no"/>
    <tag k="tiger:source" v="tiger_import_dch_v0.6_20070809"/>
    <tag k="tiger:tlid" v="195736513:195736505:195736506:195410530"/>
    <tag k="tunnel" v="yes"/>
  </way>
  <way id="25430744" version="3" timestamp="2010-03-27T23:49:54Z" uid="20587" user="balrog-kun" changeset="4250871">
    <nd ref="49621766"/>
    <nd ref="49621810"/>
    <nd ref="49621812"/>
    <nd ref="49621813"/>
    <nd ref="49621815"/>
    <nd ref="49123720"/>
    <nd ref="49621818"/>
    <nd ref="652433114"/>
    <nd ref="652433115"/>
    <nd ref="652433116"/>
    <nd ref="652433117"/>
    <nd ref="652433118"/>
    <nd ref="652433086"/>
    <nd ref="652433119"/>
    <nd ref="652433093"/>
    <nd ref="652433120"/>
    <tag k="highway" v="residential"/>
    <tag k="name" v="Del Sol Boulevard"/>
    <tag k="tiger:cfcc" v="A41"/>
    <tag k="tiger:county" v="San Diego, CA"/>
    <tag k="tiger:name_base" v="Del Sol"/>
    <tag k="tiger:name_type" v="Blvd"/>
    <tag k="tiger:reviewed" v="no"/>
    <tag k="tiger:separated" v="no"/>
    <tag k="tiger:source" v="tiger_import_dch_v0.6_20070809"/>
    <tag k="tiger:tlid" v="195736513:195736505:195736506:195410530"/>
  </way>
  <way id="25430861" version="1" timestamp="2008-07-08T13:44:05Z" uid="9581" user="Lobelt" changeset="434377">
    <nd ref="27262919"/>
    <nd ref="27262921"/>
    <nd ref="27262922"/>
    <nd ref="27262923"/>
    <nd ref="270362331"/>
    <nd ref="27262925"/>
    <nd ref="34547421"/>
    <nd ref="27262926"/>
    <nd ref="27262927"/>
    <nd ref="27262929"/>
    <nd ref="27262930"/>
    <tag k="created_by" v="Potlatch 0.9c"/>
    <tag k="highway" v="primary"/>
    <tag k="lanes" v="4"/>
    <tag k="name" v="Rosa-Luxemburg-Straße"/>
    <tag k="surface" v="paved"/>
  </way>
  <way id="25430861" version="15" timestamp="2009-04-29T15:36:22Z" uid="30632" user="antblant" changeset="1016891">
    <nd ref="27262919"/>
    <nd ref="27262921"/>
    <nd ref="307966751"/>
    <tag k="bridge" v="yes"/>
    <tag k="created_by" v="Potlatch 0.10e"/>
    <tag k="highway" v="primary"/>
    <tag k="lanes" v="2"/>
    <tag k="layer" v="1"/>
    <tag k="ref" v="29"/>
  </way>
  <way id="25430861" version="16" timestamp="2009-11-06T00:59:28Z" uid="36809" user="pfoten_weg_!_" changeset="3044956">
    <nd ref="27262919"/>
    <nd ref="27262921"/>
    <nd ref="307966751"/>
    <tag k="bridge" v="yes"/>
    <tag k="highway" v="primary"/>
    <tag k="lanes" v="2"/>
    <tag k="layer" v="1"/>
    <tag k="ref" v="29"/>
  </way>
  <way id="25430862" version="1" timestamp="2008-07-08T13:44:05Z" uid="9581" user="Lobelt" changeset="434377">
    <nd ref="27262913"/>
    <nd ref="277149864"/>
    <nd ref="27262915"/>
    <nd ref="27262916"/>
    <nd ref="27262918"/>
    <nd ref="277149766"/>
    <tag k="created_by" v="Potlatch 0.9c"/>
    <tag k="highway" v="primary"/>
    <tag k="lanes" v="4"/>
    <tag k="surface" v="paved"/>
  </way>
  <way id="25430862" version="2" timestamp="2009-04-29T15:42:07Z" uid="30632" user="antblant" changeset="1016891">
    <nd ref="27262913"/>
    <nd ref="277149864"/>
    <nd ref="27262915"/>
    <nd ref="27262916"/>
    <nd ref="27262918"/>
    <nd ref="277149766"/>
    <tag k="created_by" v="Potlatch 0.9c"/>
    <tag k="highway" v="primary"/>
    <tag k="lanes" v="4"/>
    <tag k="ref" v="29"/>
    <tag k="surface" v="paved"/>
  </way>
  <way id="25430862" version="3" timestamp="2009-11-06T01:00:39Z" uid="36809" user="pfoten_weg_!_" changeset="3044956">
    <nd ref="27262913"/>
    <nd ref="277149864"/>
    <nd ref="27262915"/>
    <nd ref="27262916"/>
    <nd ref="27262918"/>
    <nd ref="277149766"/>
    <tag k="highway" v="primary"/>
    <tag k="lanes" v="4"/>
    <tag k="ref" v="29"/>
    <tag k="surface" v="paved"/>
  </way>
  <way id="25430862" version="8" timestamp="2010-10-04T18:19:51Z" uid="20587" user="balrog-kun" changeset="5956007">
    <nd ref="27262913"/>
    <nd ref="277149864"/>
    <nd ref="569479225"/>
    <nd ref="569479233"/>
    <nd ref="27262915"/>
    <nd ref="27262916"/>
    <nd ref="569479133"/>
    <nd ref="654073564"/>
    <nd ref="27262918"/>
    <tag k="highway" v="primary"/>
    <tag k="name" v="Tadeusza Kościuszki"/>
    <tag k="old_name" v="Blumenstraße"/>
    <tag k="ref" v="29"/>
    <tag k="surface" v="paved"/>
  </way>
  <way id="25430863" version="1" timestamp="2008-07-08T13:44:05Z" uid="9581" user="Lobelt" changeset="434377">
    <nd ref="277149895"/>
    <nd ref="277149903"/>
    <nd ref="277149909"/>
    <nd ref="277149714"/>
    <nd ref="277149701"/>
    <nd ref="277149661"/>
    <nd ref="277149677"/>
    <nd ref="277149743"/>
    <nd ref="277149751"/>
    <nd ref="277149770"/>
    <nd ref="277149685"/>
    <nd ref="277149767"/>
    <nd ref="277149763"/>
    <nd ref="29947535"/>
    <tag k="highway" v="residential"/>
    <tag k="source" v="UMP-PL, ./UMP-GorzowWlkp/src/SLUBICE.ulice.txt"/>
  </way>
  <way id="25430863" version="9" timestamp="2010-10-04T18:15:42Z" uid="20587" user="balrog-kun" changeset="5956007">
    <nd ref="277149895"/>
    <nd ref="277149909"/>
    <nd ref="651561308"/>
    <nd ref="651561287"/>
    <nd ref="652647866"/>
    <nd ref="277149701"/>
    <nd ref="651561274"/>
    <nd ref="277149677"/>
    <tag k="alt_name" v="Niepodległości"/>
    <tag k="highway" v="residential"/>
    <tag k="name" v="Aleja Niepodległości"/>
    <tag k="old_name" v="Am Schützenhaus"/>
    <tag k="source" v="UMP-PL, ./UMP-GorzowWlkp/src/SLUBICE.ulice.txt"/>
  </way>
  <way id="25430864" version="1" timestamp="2008-07-08T13:44:05Z" uid="9581" user="Lobelt" changeset="434377">
    <nd ref="277149794"/>
    <nd ref="277149789"/>
    <tag k="highway" v="residential"/>
    <tag k="name" v="Rzepi�ska"/>
    <tag k="source" v="UMP-PL, ./UMP-GorzowWlkp/src/SLUBICE.ulice.txt"/>
  </way>
  <way id="25430864" version="4" timestamp="2009-11-06T01:01:14Z" uid="36809" user="pfoten_weg_!_" changeset="3044956">
    <nd ref="277149794"/>
    <nd ref="277149789"/>
    <tag k="highway" v="residential"/>
    <tag k="name" v="Rzepińska"/>
    <tag k="name:de" v="Reppener Straße"/>
    <tag k="source" v="UMP-PL, ./UMP-GorzowWlkp/src/SLUBICE.ulice.txt"/>
  </way>
  <way id="25430864" version="7" timestamp="2010-10-04T18:22:03Z" uid="20587" user="balrog-kun" changeset="5956007">
    <nd ref="277149794"/>
    <nd ref="277149789"/>
    <nd ref="569479560"/>
    <nd ref="569479567"/>
    <nd ref="569479575"/>
    <nd ref="557260476"/>
    <tag k="highway" v="tertiary"/>
    <tag k="name" v="Rzepińska"/>
    <tag k="old_name" v="Reppener Straße"/>
    <tag k="source" v="UMP-PL, ./UMP-GorzowWlkp/src/SLUBICE.ulice.txt"/>
  </way>
  <way id="25430865" version="1" timestamp="2008-07-08T13:44:05Z" uid="9581" user="Lobelt" changeset="434377">
    <nd ref="277149771"/>
    <nd ref="277149721"/>
    <nd ref="277149703"/>
    <nd ref="277149803"/>
    <nd ref="277149894"/>
    <nd ref="277149762"/>
    <tag k="highway" v="residential"/>
    <tag k="name" v="Kwiatowa"/>
    <tag k="source" v="UMP-PL, ./UMP-GorzowWlkp/src/SLUBICE.ulice.txt"/>
  </way>
  <way id="25430866" version="1" timestamp="2008-07-08T13:44:05Z" uid="9581" user="Lobelt" changeset="434377">
    <nd ref="277149879"/>
    <nd ref="277149725"/>
    <nd ref="277149867"/>
    <nd ref="277149845"/>
    <nd ref="277149757"/>
    <nd ref="277149781"/>
    <nd ref="277149731"/>
    <nd ref="277149901"/>
    <tag k="UMP_Level" v="1"/>
    <tag k="highway" v="residential"/>
    <tag k="name" v="Kopernika"/>
    <tag k="source" v="UMP-PL, ./UMP-GorzowWlkp/src/SLUBICE.ulice.txt"/>
  </way>
  <way id="25430866" version="10" timestamp="2010-10-04T18:16:03Z" uid="20587" user="balrog-kun" changeset="5956007">
    <nd ref="277149879"/>
    <nd ref="561170154"/>
    <nd ref="569479108"/>
    <nd ref="277149725"/>
    <nd ref="277149867"/>
    <nd ref="277149845"/>
    <nd ref="651470929"/>
    <nd ref="651470937"/>
    <nd ref="277149757"/>
    <nd ref="277149781"/>
    <nd ref="277149731"/>
    <nd ref="277149901"/>
    <tag k="highway" v="residential"/>
    <tag k="name" v="Mikołaja Kopernika"/>
    <tag k="old_name" v="Holzhofstraße"/>
    <tag k="source" v="UMP-PL, ./UMP-GorzowWlkp/src/SLUBICE.ulice.txt"/>
  </way>
  <way id="25430867" version="1" timestamp="2008-07-08T13:44:06Z" uid="9581" user="Lobelt" changeset="434377">
    <nd ref="27262986"/>
    <nd ref="277149663"/>
    <nd ref="277149679"/>
    <nd ref="277149657"/>
    <tag k="UMP_Level" v="1"/>
    <tag k="highway" v="residential"/>
    <tag k="name" v="Plac Przyja�ni"/>
    <tag k="source" v="UMP-PL, ./UMP-GorzowWlkp/src/SLUBICE.ulice.txt"/>
  </way>
  <way id="25430867" version="2" timestamp="2008-10-09T21:34:05Z" uid="30632" user="antblant" changeset="210278">
    <nd ref="27262986"/>
    <nd ref="277149663"/>
    <nd ref="277149679"/>
    <nd ref="277149657"/>
    <tag k="UMP_Level" v="1"/>
    <tag k="created_by" v="Potlatch 0.10d"/>
    <tag k="highway" v="residential"/>
    <tag k="name" v="Plac Przyjaźni"/>
    <tag k="source" v="UMP-PL, ./UMP-GorzowWlkp/src/SLUBICE.ulice.txt"/>
  </way>
  <way id="25430867" version="5" timestamp="2009-11-06T01:00:58Z" uid="36809" user="pfoten_weg_!_" changeset="3044956">
    <nd ref="27262986"/>
    <nd ref="277149663"/>
    <nd ref="277149679"/>
    <tag k="highway" v="residential"/>
    <tag k="name" v="Plac Przyjaźni"/>
    <tag k="name:de" v="Roßmarkt"/>
    <tag k="source" v="UMP-PL, ./UMP-GorzowWlkp/src/SLUBICE.ulice.txt"/>
  </way>
  <way id="25430867" version="9" timestamp="2010-10-04T18:19:14Z" uid="20587" user="balrog-kun" changeset="5956007">
    <nd ref="277149679"/>
    <nd ref="651488884"/>
    <nd ref="277149663"/>
    <nd ref="569479220"/>
    <nd ref="27262986"/>
    <tag k="highway" v="tertiary"/>
    <tag k="name" v="Plac Przyjaźni"/>
    <tag k="source" v="UMP-PL, ./UMP-GorzowWlkp/src/SLUBICE.ulice.txt"/>
    <tag k="wikipedia" v="pl:Plac Przyjaźni w Słubicach"/>
  </way>
  <way id="25430868" version="1" timestamp="2008-07-08T13:44:06Z" uid="9581" user="Lobelt" changeset="434377">
    <nd ref="277149745"/>
    <nd ref="277149693"/>
    <nd ref="277149735"/>
    <tag k="highway" v="residential"/>
    <tag k="name" v="Witosa"/>
    <tag k="source" v="UMP-PL, ./UMP-GorzowWlkp/src/SLUBICE.ulice.txt"/>
  </way>
  <way id="25430868" version="4" timestamp="2010-10-04T18:19:53Z" uid="20587" user="balrog-kun" changeset="5956007">
    <nd ref="277149745"/>
    <nd ref="277149693"/>
    <nd ref="277149735"/>
    <tag k="highway" v="residential"/>
    <tag k="name" v="Wincentego Witosa"/>
    <tag k="old_name" v="Brauer Weg;Nowotki"/>
    <tag k="source" v="UMP-PL, ./UMP-GorzowWlkp/src/SLUBICE.ulice.txt"/>
  </way>
  <way id="25430869" version="1" timestamp="2008-07-08T13:44:06Z" uid="9581" user="Lobelt" changeset="434377">
    <nd ref="277149803"/>
    <nd ref="277149857"/>
    <tag k="highway" v="residential"/>
    <tag k="name" v="Liliowa"/>
    <tag k="source" v="UMP-PL, ./UMP-GorzowWlkp/src/SLUBICE.ulice.txt"/>
  </way>
  <way id="25430870" version="1" timestamp="2008-07-08T13:44:06Z" uid="9581" user="Lobelt" changeset="434377">
    <nd ref="277149721"/>
    <nd ref="277149812"/>
    <tag k="highway" v="residential"/>
    <tag k="name" v="Tulipanowa"/>
    <tag k="source" v="UMP-PL, ./UMP-GorzowWlkp/src/SLUBICE.ulice.txt"/>
  </way>
  <way id="25430871" version="1" timestamp="2008-07-08T13:44:06Z" uid="9581" user="Lobelt" changeset="434377">
    <nd ref="277149729"/>
    <nd ref="277149720"/>
    <nd ref="277149750"/>
    <nd ref="277149760"/>
    <tag k="UMP_Level" v="1"/>
    <tag k="highway" v="residential"/>
    <tag k="name" v="Plac Wolno�ci"/>
    <tag k="source" v="UMP-PL, ./UMP-GorzowWlkp/src/SLUBICE.ulice.txt"/>
  </way>
  <way id="25430871" version="2" timestamp="2008-10-09T21:33:34Z" uid="30632" user="antblant" changeset="210278">
    <nd ref="277149729"/>
    <nd ref="277149720"/>
    <nd ref="277149750"/>
    <nd ref="277149760"/>
    <tag k="UMP_Level" v="1"/>
    <tag k="created_by" v="Potlatch 0.10d"/>
    <tag k="highway" v="residential"/>
    <tag k="name" v="Plac Wolności"/>
    <tag k="source" v="UMP-PL, ./UMP-GorzowWlkp/src/SLUBICE.ulice.txt"/>
  </way>
  <way id="25430871" version="7" timestamp="2009-11-06T01:01:08Z" uid="36809" user="pfoten_weg_!_" changeset="3044956">
    <nd ref="277149729"/>
    <nd ref="277149720"/>
    <nd ref="277149750"/>
    <nd ref="277149760"/>
    <tag k="highway" v="residential"/>
    <tag k="name" v="Plac Wolności"/>
    <tag k="name:de" v="Neuer Markt"/>
    <tag k="source" v="UMP-PL, ./UMP-GorzowWlkp/src/SLUBICE.ulice.txt"/>
  </way>
  <way id="25430871" version="10" timestamp="2010-10-04T18:17:06Z" uid="20587" user="balrog-kun" changeset="5956007">
    <nd ref="277149729"/>
    <nd ref="277149720"/>
    <tag k="highway" v="tertiary"/>
    <tag k="name" v="Plac Wolności"/>
    <tag k="old_name" v="Neuer Markt"/>
    <tag k="source" v="UMP-PL, ./UMP-GorzowWlkp/src/SLUBICE.ulice.txt"/>
    <tag k="wikipedia" v="pl:Plac Wolności w Słubicach"/>
  </way>
  <way id="25430872" version="1" timestamp="2008-07-08T13:44:06Z" uid="9581" user="Lobelt" changeset="434377">
    <nd ref="277149777"/>
    <nd ref="277149813"/>
    <tag k="highway" v="residential"/>
    <tag k="name" v="Lisia"/>
    <tag k="source" v="UMP-PL, ./UMP-GorzowWlkp/src/SLUBICE.ulice.txt"/>
  </way>
  <way id="25430873" version="1" timestamp="2008-07-08T13:44:06Z" uid="9581" user="Lobelt" changeset="434377">
    <nd ref="277149853"/>
    <nd ref="277149781"/>
    <tag k="highway" v="residential"/>
    <tag k="name" v="Wa�owa"/>
    <tag k="source" v="UMP-PL, ./UMP-GorzowWlkp/src/SLUBICE.ulice.txt"/>
  </way>
  <way id="25430874" version="1" timestamp="2008-07-08T13:44:07Z" uid="9581" user="Lobelt" changeset="434377">
    <nd ref="277149821"/>
    <nd ref="277149844"/>
    <nd ref="277149847"/>
    <nd ref="277149859"/>
    <nd ref="277149800"/>
    <nd ref="277149871"/>
    <nd ref="277149838"/>
    <nd ref="277149866"/>
    <tag k="UMP_Level" v="1"/>
    <tag k="highway" v="residential"/>
    <tag k="name" v="Reja"/>
    <tag k="source" v="UMP-PL, ./UMP-GorzowWlkp/src/SLUBICE.ulice.txt"/>
  </way>
  <way id="25430874" version="8" timestamp="2010-10-04T18:20:22Z" uid="20587" user="balrog-kun" changeset="5956007">
    <nd ref="277149821"/>
    <nd ref="277149844"/>
    <nd ref="277149847"/>
    <nd ref="652647711"/>
    <nd ref="277149859"/>
    <nd ref="277149800"/>
    <nd ref="277149871"/>
    <nd ref="652647718"/>
    <nd ref="277149838"/>
    <nd ref="277149866"/>
    <tag k="highway" v="residential"/>
    <tag k="name" v="Mikołaja Reja"/>
    <tag k="old_name" v="Krumme Straße"/>
    <tag k="source" v="UMP-PL, ./UMP-GorzowWlkp/src/SLUBICE.ulice.txt"/>
  </way>
  <way id="25430875" version="1" timestamp="2008-07-08T13:44:07Z" uid="9581" user="Lobelt" changeset="434377">
    <nd ref="277149856"/>
    <nd ref="277149814"/>
    <nd ref="277149816"/>
    <nd ref="277149796"/>
    <nd ref="277149711"/>
    <nd ref="277149874"/>
    <tag k="highway" v="residential"/>
    <tag k="name" v="Sokola"/>
    <tag k="source" v="UMP-PL, ./UMP-GorzowWlkp/src/SLUBICE.ulice.txt"/>
  </way>
  <way id="25430876" version="1" timestamp="2008-07-08T13:44:07Z" uid="9581" user="Lobelt" changeset="434377">
    <nd ref="277149658"/>
    <nd ref="277149665"/>
    <nd ref="27262919"/>
    <nd ref="277149670"/>
    <nd ref="277149709"/>
    <nd ref="277149718"/>
    <nd ref="277149766"/>
    <nd ref="277149699"/>
    <nd ref="277149658"/>
    <tag k="highway" v="primary"/>
    <tag k="junction" v="roundabout"/>
    <tag k="source" v="UMP-PL, ./UMP-GorzowWlkp/src/SLUBICE.ulice.txt"/>
  </way>
  <way id="25430877" version="1" timestamp="2008-07-08T13:44:07Z" uid="9581" user="Lobelt" changeset="434377">
    <nd ref="277149897"/>
    <nd ref="277149854"/>
    <nd ref="277149800"/>
    <tag k="UMP_Level" v="1"/>
    <tag k="highway" v="residential"/>
    <tag k="name" v="Daszy�skiego"/>
    <tag k="source" v="UMP-PL, ./UMP-GorzowWlkp/src/SLUBICE.ulice.txt"/>
  </way>
  <way id="25430877" version="2" timestamp="2008-10-09T21:34:17Z" uid="30632" user="antblant" changeset="210278">
    <nd ref="277149897"/>
    <nd ref="277149854"/>
    <nd ref="277149800"/>
    <tag k="UMP_Level" v="1"/>
    <tag k="created_by" v="Potlatch 0.10d"/>
    <tag k="highway" v="residential"/>
    <tag k="name" v="Daszyńskiego"/>
    <tag k="source" v="UMP-PL, ./UMP-GorzowWlkp/src/SLUBICE.ulice.txt"/>
  </way>
  <way id="25430877" version="5" timestamp="2009-11-06T01:01:01Z" uid="36809" user="pfoten_weg_!_" changeset="3044956">
    <nd ref="277149897"/>
    <nd ref="277149854"/>
    <nd ref="277149800"/>
    <tag k="highway" v="residential"/>
    <tag k="name" v="Ignacego Daszyńskiego"/>
    <tag k="source" v="UMP-PL, ./UMP-GorzowWlkp/src/SLUBICE.ulice.txt"/>
  </way>
  <way id="25430878" version="1" timestamp="2008-07-08T13:44:07Z" uid="9581" user="Lobelt" changeset="434377">
    <nd ref="277149731"/>
    <nd ref="27262989"/>
    <tag k="highway" v="residential"/>
    <tag k="name" v="Chrobrego"/>
    <tag k="source" v="UMP-PL, ./UMP-GorzowWlkp/src/SLUBICE.ulice.txt"/>
  </way>
  <way id="25430878" version="4" timestamp="2010-10-04T18:18:31Z" uid="20587" user="balrog-kun" changeset="5956007">
    <nd ref="277149731"/>
    <nd ref="651470961"/>
    <nd ref="27262989"/>
    <tag k="highway" v="residential"/>
    <tag k="name" v="Bolesława Chrobrego"/>
    <tag k="old_name" v="Leißower Straße"/>
    <tag k="source" v="UMP-PL, ./UMP-GorzowWlkp/src/SLUBICE.ulice.txt"/>
  </way>
  <way id="25430879" version="1" timestamp="2008-07-08T13:44:07Z" uid="9581" user="Lobelt" changeset="434377">
    <nd ref="277149780"/>
    <nd ref="277149856"/>
    <nd ref="277149860"/>
    <nd ref="277149806"/>
    <nd ref="277149796"/>
    <tag k="highway" v="residential"/>
    <tag k="name" v="Krucza"/>
    <tag k="source" v="UMP-PL, ./UMP-GorzowWlkp/src/SLUBICE.ulice.txt"/>
  </way>
  <way id="25430880" version="1" timestamp="2008-07-08T13:44:07Z" uid="9581" user="Lobelt" changeset="434377">
    <nd ref="27262909"/>
    <nd ref="277149807"/>
    <nd ref="277149798"/>
    <nd ref="277149802"/>
    <nd ref="277149838"/>
    <tag k="highway" v="residential"/>
    <tag k="name" v="Konopnickiej"/>
    <tag k="source" v="UMP-PL, ./UMP-GorzowWlkp/src/SLUBICE.ulice.txt"/>
  </way>
  <way id="25430880" version="7" timestamp="2010-10-04T18:20:25Z" uid="20587" user="balrog-kun" changeset="5956007">
    <nd ref="27262909"/>
    <nd ref="277149807"/>
    <nd ref="651494862"/>
    <nd ref="277149798"/>
    <nd ref="277149802"/>
    <nd ref="277149838"/>
    <tag k="highway" v="residential"/>
    <tag k="name" v="Marii Konopnickiej"/>
    <tag k="old_name" v="Kleine Blumen Straße"/>
    <tag k="source" v="UMP-PL, ./UMP-GorzowWlkp/src/SLUBICE.ulice.txt"/>
  </way>
  <way id="25430881" version="1" timestamp="2008-07-08T13:44:08Z" uid="9581" user="Lobelt" changeset="434377">
    <nd ref="277149877"/>
    <nd ref="277149834"/>
    <nd ref="277149748"/>
    <nd ref="277149679"/>
    <tag k="UMP_Level" v="1"/>
    <tag k="highway" v="residential"/>
    <tag k="name" v="Seelowska"/>
    <tag k="source" v="UMP-PL, ./UMP-GorzowWlkp/src/SLUBICE.ulice.txt"/>
  </way>
  <way id="25430882" version="1" timestamp="2008-07-08T13:44:08Z" uid="9581" user="Lobelt" changeset="434377">
    <nd ref="277149917"/>
    <nd ref="277149906"/>
    <nd ref="277149894"/>
    <tag k="highway" v="residential"/>
    <tag k="name" v="R�ana"/>
    <tag k="source" v="UMP-PL, ./UMP-GorzowWlkp/src/SLUBICE.ulice.txt"/>
  </way>
  <way id="25430883" version="1" timestamp="2008-07-08T13:44:08Z" uid="9581" user="Lobelt" changeset="434377">
    <nd ref="277149889"/>
    <nd ref="277149904"/>
    <nd ref="277149735"/>
    <nd ref="277149710"/>
    <nd ref="277149707"/>
    <nd ref="277149767"/>
    <nd ref="277149908"/>
    <tag k="UMP_Level" v="1"/>
    <tag k="highway" v="residential"/>
    <tag k="name" v="Konstytucji 3 Maja"/>
    <tag k="source" v="UMP-PL, ./UMP-GorzowWlkp/src/SLUBICE.ulice.txt"/>
  </way>
  <way id="25430883" version="9" timestamp="2010-10-04T18:17:45Z" uid="20587" user="balrog-kun" changeset="5956007">
    <nd ref="277149889"/>
    <nd ref="277149904"/>
    <nd ref="277149735"/>
    <nd ref="277149710"/>
    <nd ref="277149707"/>
    <nd ref="277149767"/>
    <nd ref="651476044"/>
    <nd ref="652647743"/>
    <nd ref="651471026"/>
    <nd ref="652647741"/>
    <nd ref="277149908"/>
    <tag k="highway" v="residential"/>
    <tag k="name" v="Konstytucji 3 Maja"/>
    <tag k="old_name" v="An der Wachsbleiche;Pulver Weg"/>
    <tag k="source" v="UMP-PL, ./UMP-GorzowWlkp/src/SLUBICE.ulice.txt"/>
  </way>
  <way id="25430884" version="1" timestamp="2008-07-08T13:44:08Z" uid="9581" user="Lobelt" changeset="434377">
    <nd ref="277149665"/>
    <nd ref="277149768"/>
    <nd ref="277149740"/>
    <nd ref="277149782"/>
    <nd ref="277149732"/>
    <nd ref="277149752"/>
    <nd ref="277149846"/>
    <nd ref="277149726"/>
    <nd ref="277149865"/>
    <nd ref="277149853"/>
    <nd ref="277149884"/>
    <nd ref="277149901"/>
    <tag k="UMP_Level" v="1"/>
    <tag k="highway" v="residential"/>
    <tag k="name" v="Nadodrza�ska"/>
    <tag k="source" v="UMP-PL, ./UMP-GorzowWlkp/src/SLUBICE.ulice.txt"/>
  </way>
  <way id="25430884" version="9" timestamp="2010-10-04T18:18:33Z" uid="20587" user="balrog-kun" changeset="5956007">
    <nd ref="277149665"/>
    <nd ref="277149768"/>
    <nd ref="277149740"/>
    <nd ref="277149782"/>
    <nd ref="277149732"/>
    <nd ref="277149752"/>
    <nd ref="569479094"/>
    <nd ref="651470890"/>
    <nd ref="277149846"/>
    <nd ref="277149726"/>
    <nd ref="277149853"/>
    <nd ref="277149901"/>
    <tag k="highway" v="residential"/>
    <tag k="name" v="Nadodrzańska"/>
    <tag k="old_name" v="Am Prinzenufer;Wilhelma Piecka"/>
    <tag k="source" v="UMP-PL, ./UMP-GorzowWlkp/src/SLUBICE.ulice.txt"/>
    <tag k="wikipedia" v="pl:Ulica Nadodrzańska w Słubicach"/>
  </way>
  <way id="25430885" version="1" timestamp="2008-07-08T13:44:08Z" uid="9581" user="Lobelt" changeset="434377">
    <nd ref="277149864"/>
    <nd ref="277149851"/>
    <nd ref="277149737"/>
    <nd ref="277149919"/>
    <nd ref="277149754"/>
    <nd ref="277149746"/>
    <nd ref="277149785"/>
    <nd ref="277149793"/>
    <tag k="UMP_Level" v="1"/>
    <tag k="highway" v="primary"/>
    <tag k="name" v=" Ko�ciuszki"/>
    <tag k="oneway" v="yes"/>
    <tag k="ref" v="29"/>
    <tag k="source" v="UMP-PL, ./UMP-GorzowWlkp/src/SLUBICE.ulice.txt"/>
  </way>
  <way id="25430885" version="12" timestamp="2010-10-04T18:21:15Z" uid="20587" user="balrog-kun" changeset="5956007">
    <nd ref="277149864"/>
    <nd ref="277149851"/>
    <nd ref="569479255"/>
    <nd ref="569479269"/>
    <nd ref="652647549"/>
    <nd ref="652647547"/>
    <nd ref="277149737"/>
    <nd ref="277149919"/>
    <nd ref="277149754"/>
    <nd ref="277149746"/>
    <nd ref="894033449"/>
    <nd ref="277149785"/>
    <nd ref="569479293"/>
    <nd ref="569479299"/>
    <nd ref="277149793"/>
    <tag k="highway" v="primary"/>
    <tag k="lanes" v="2"/>
    <tag k="name" v="Tadeusza Kościuszki"/>
    <tag k="old_name" v="Blumenstraße"/>
    <tag k="oneway" v="yes"/>
    <tag k="ref" v="29"/>
    <tag k="source" v="UMP-PL, ./UMP-GorzowWlkp/src/SLUBICE.ulice.txt"/>
  </way>
  <way id="25430886" version="1" timestamp="2008-07-08T13:44:08Z" uid="9581" user="Lobelt" changeset="434377">
    <nd ref="277149740"/>
    <nd ref="277149879"/>
    <nd ref="277149809"/>
    <nd ref="277149858"/>
    <tag k="UMP_Level" v="1"/>
    <tag k="highway" v="residential"/>
    <tag k="name" v="Mickiewicza"/>
    <tag k="source" v="UMP-PL, ./UMP-GorzowWlkp/src/SLUBICE.ulice.txt"/>
  </way>
  <way id="25430886" version="8" timestamp="2010-10-04T18:19:29Z" uid="20587" user="balrog-kun" changeset="5956007">
    <nd ref="277149740"/>
    <nd ref="561170144"/>
    <nd ref="277149879"/>
    <nd ref="277149809"/>
    <tag k="highway" v="residential"/>
    <tag k="name" v="Adama Mickiewicza"/>
    <tag k="old_name" v="Roßstraße;An der Saldenbrik"/>
    <tag k="source" v="UMP-PL, ./UMP-GorzowWlkp/src/SLUBICE.ulice.txt"/>
  </way>
  <way id="25430887" version="1" timestamp="2008-07-08T13:44:09Z" uid="9581" user="Lobelt" changeset="434377">
    <nd ref="277149670"/>
    <nd ref="277149893"/>
    <nd ref="277149832"/>
    <nd ref="277149827"/>
    <nd ref="277149841"/>
    <nd ref="277149850"/>
    <nd ref="277149818"/>
    <nd ref="29947542"/>
    <tag k="UMP_Level" v="2"/>
    <tag k="highway" v="primary"/>
    <tag k="name" v=" 1 Maja"/>
    <tag k="ref" v="29"/>
    <tag k="source" v="UMP-PL, ./UMP-GorzowWlkp/src/SLUBICE.ulice.txt"/>
  </way>
  <way id="25430887" version="5" timestamp="2009-11-06T00:58:51Z" uid="36809" user="pfoten_weg_!_" changeset="3044956">
    <nd ref="277149670"/>
    <nd ref="277149893"/>
    <nd ref="277149832"/>
    <nd ref="277149827"/>
    <nd ref="277149841"/>
    <nd ref="277149850"/>
    <nd ref="277149818"/>
    <nd ref="29947542"/>
    <nd ref="29947543"/>
    <nd ref="29947544"/>
    <nd ref="29947545"/>
    <nd ref="29947546"/>
    <nd ref="29947547"/>
    <nd ref="27262901"/>
    <tag k="highway" v="primary"/>
    <tag k="name" v="1 Maja"/>
    <tag k="name:de" v="Crossener Straße"/>
    <tag k="oneway" v="yes"/>
    <tag k="ref" v="29"/>
    <tag k="source" v="UMP-PL, ./UMP-GorzowWlkp/src/SLUBICE.ulice.txt"/>
  </way>
  <way id="25430887" version="10" timestamp="2010-10-04T18:22:20Z" uid="20587" user="balrog-kun" changeset="5956007">
    <nd ref="277149670"/>
    <nd ref="654073562"/>
    <nd ref="277149832"/>
    <nd ref="569479173"/>
    <nd ref="277149827"/>
    <nd ref="277149841"/>
    <nd ref="277149850"/>
    <nd ref="652647548"/>
    <nd ref="569479322"/>
    <nd ref="570028253"/>
    <nd ref="277149818"/>
    <nd ref="29947542"/>
    <nd ref="29947543"/>
    <nd ref="29947544"/>
    <nd ref="29947545"/>
    <nd ref="29947547"/>
    <nd ref="569479327"/>
    <nd ref="569479329"/>
    <nd ref="277149895"/>
    <tag k="highway" v="primary"/>
    <tag k="name" v="1 Maja"/>
    <tag k="old_name" v="Crossener Straße"/>
    <tag k="oneway" v="yes"/>
    <tag k="ref" v="29"/>
    <tag k="source" v="UMP-PL, ./UMP-GorzowWlkp/src/SLUBICE.ulice.txt"/>
    <tag k="wikipedia" v="pl:Ulica 1 Maja w Słubicach"/>
  </way>
  <way id="25430889" version="1" timestamp="2008-07-08T13:44:09Z" uid="9581" user="Lobelt" changeset="434377">
    <nd ref="277149901"/>
    <nd ref="277149681"/>
    <nd ref="277149662"/>
    <nd ref="277149705"/>
    <nd ref="277149716"/>
    <nd ref="277149912"/>
    <tag k="UMP_Level" v="1"/>
    <tag k="highway" v="residential"/>
    <tag k="name" v="Szczeci�ska"/>
    <tag k="source" v="UMP-PL, ./UMP-GorzowWlkp/src/SLUBICE.ulice.txt"/>
  </way>
  <way id="25430889" version="5" timestamp="2010-10-04T18:20:44Z" uid="20587" user="balrog-kun" changeset="5956007">
    <nd ref="277149901"/>
    <nd ref="277149681"/>
    <nd ref="277149662"/>
    <nd ref="277149705"/>
    <nd ref="277149716"/>
    <nd ref="569478908"/>
    <nd ref="277149912"/>
    <nd ref="569478945"/>
    <nd ref="569478939"/>
    <nd ref="569478933"/>
    <nd ref="569478930"/>
    <tag k="highway" v="residential"/>
    <tag k="name" v="Szczecińska"/>
    <tag k="old_name" v="Drenziger Küstriner Oderdamm"/>
    <tag k="source" v="UMP-PL, ./UMP-GorzowWlkp/src/SLUBICE.ulice.txt"/>
  </way>
  <way id="25430890" version="1" timestamp="2008-07-08T13:44:09Z" uid="9581" user="Lobelt" changeset="434377">
    <nd ref="277149852"/>
    <nd ref="277149723"/>
    <nd ref="277149908"/>
    <tag k="UMP_Level" v="1"/>
    <tag k="highway" v="residential"/>
    <tag k="name" v="Pi�sudskiego"/>
    <tag k="source" v="UMP-PL, ./UMP-GorzowWlkp/src/SLUBICE.ulice.txt"/>
  </way>
  <way id="25430890" version="2" timestamp="2008-10-09T21:33:16Z" uid="30632" user="antblant" changeset="210278">
    <nd ref="277149852"/>
    <nd ref="277149723"/>
    <nd ref="277149908"/>
    <tag k="UMP_Level" v="1"/>
    <tag k="created_by" v="Potlatch 0.10d"/>
    <tag k="highway" v="residential"/>
    <tag k="name" v="Piłsudskiego"/>
    <tag k="source" v="UMP-PL, ./UMP-GorzowWlkp/src/SLUBICE.ulice.txt"/>
  </way>
  <way id="25430890" version="7" timestamp="2009-11-06T01:00:53Z" uid="36809" user="pfoten_weg_!_" changeset="3044956">
    <nd ref="277149852"/>
    <nd ref="277149723"/>
    <tag k="highway" v="residential"/>
    <tag k="name" v="Marszałka Józefa Piłsudskiego"/>
    <tag k="name:de" v="Schwiebuser Straße"/>
    <tag k="source" v="UMP-PL, ./UMP-GorzowWlkp/src/SLUBICE.ulice.txt"/>
  </way>
  <way id="25430890" version="10" timestamp="2010-10-04T18:19:04Z" uid="20587" user="balrog-kun" changeset="5956007">
    <nd ref="277149852"/>
    <nd ref="277149723"/>
    <tag k="highway" v="residential"/>
    <tag k="name" v="Józefa Piłsudskiego"/>
    <tag k="old_name" v="Schwiebuser Straße;Karola Świerczewskiego"/>
    <tag k="source" v="UMP-PL, ./UMP-GorzowWlkp/src/SLUBICE.ulice.txt"/>
  </way>
  <way id="25430891" version="1" timestamp="2008-07-08T13:44:09Z" uid="9581" user="Lobelt" changeset="434377">
    <nd ref="277149752"/>
    <nd ref="277149725"/>
    <tag k="highway" v="residential"/>
    <tag k="name" v="Szamarzewskiego"/>
    <tag k="source" v="UMP-PL, ./UMP-GorzowWlkp/src/SLUBICE.ulice.txt"/>
  </way>
  <way id="25430891" version="4" timestamp="2010-10-04T18:21:47Z" uid="20587" user="balrog-kun" changeset="5956007">
    <nd ref="277149752"/>
    <nd ref="277149725"/>
    <tag k="highway" v="residential"/>
    <tag k="name" v="Księdza Augustyna Szamarzewskiego"/>
    <tag k="name:de" v="Drenziger Straße"/>
    <tag k="old_name" v="Drenziger Straße"/>
    <tag k="source" v="UMP-PL, ./UMP-GorzowWlkp/src/SLUBICE.ulice.txt"/>
  </way>
  <way id="25430892" version="1" timestamp="2008-07-08T13:44:09Z" uid="9581" user="Lobelt" changeset="434377">
    <nd ref="277149825"/>
    <nd ref="277149877"/>
    <nd ref="277149888"/>
    <nd ref="277149918"/>
    <nd ref="277149899"/>
    <nd ref="277149872"/>
    <nd ref="277149873"/>
    <nd ref="277149864"/>
    <tag k="UMP_Level" v="1"/>
    <tag k="highway" v="primary"/>
    <tag k="name" v=" Ko�ciuszki"/>
    <tag k="oneway" v="yes"/>
    <tag k="ref" v="31"/>
    <tag k="source" v="UMP-PL, ./UMP-GorzowWlkp/src/SLUBICE.ulice.txt"/>
  </way>
  <way id="25430892" version="6" timestamp="2009-11-06T00:47:10Z" uid="36809" user="pfoten_weg_!_" changeset="3044956">
    <nd ref="277149825"/>
    <nd ref="277149877"/>
    <nd ref="277149888"/>
    <nd ref="277149918"/>
    <nd ref="277149899"/>
    <nd ref="277149872"/>
    <nd ref="277149873"/>
    <nd ref="277149864"/>
    <tag k="highway" v="primary"/>
    <tag k="name" v="Tadeusza Kościuszki"/>
    <tag k="oneway" v="yes"/>
    <tag k="ref" v="31"/>
    <tag k="source" v="UMP-PL, ./UMP-GorzowWlkp/src/SLUBICE.ulice.txt"/>
  </way>
  <way id="25430892" version="13" timestamp="2010-10-04T18:15:30Z" uid="20587" user="balrog-kun" changeset="5956007">
    <nd ref="277149825"/>
    <nd ref="569479178"/>
    <nd ref="277149877"/>
    <nd ref="561170273"/>
    <nd ref="569479215"/>
    <nd ref="277149888"/>
    <nd ref="277149918"/>
    <nd ref="654073585"/>
    <nd ref="561170248"/>
    <nd ref="277149899"/>
    <nd ref="277149872"/>
    <nd ref="277149873"/>
    <nd ref="651470883"/>
    <nd ref="569479239"/>
    <nd ref="277149864"/>
    <tag k="highway" v="primary"/>
    <tag k="lanes" v="2"/>
    <tag k="name" v="Wojska Polskiego"/>
    <tag k="old_name" v="Sonnenburger Straße"/>
    <tag k="oneway" v="yes"/>
    <tag k="ref" v="31"/>
    <tag k="source" v="UMP-PL, ./UMP-GorzowWlkp/src/SLUBICE.ulice.txt"/>
    <tag k="wikipedia" v="pl:Ulica Wojska Polskiego w Słubicach"/>
  </way>
  <way id="25430893" version="1" timestamp="2008-07-08T13:44:09Z" uid="9581" user="Lobelt" changeset="434377">
    <nd ref="27262916"/>
    <nd ref="277149858"/>
    <nd ref="277149872"/>
    <tag k="UMP_Level" v="1"/>
    <tag k="highway" v="residential"/>
    <tag k="name" v="D�br�wki"/>
    <tag k="source" v="UMP-PL, ./UMP-GorzowWlkp/src/SLUBICE.ulice.txt"/>
  </way>
  <way id="25430894" version="1" timestamp="2008-07-08T13:44:10Z" uid="9581" user="Lobelt" changeset="434377">
    <nd ref="277149886"/>
    <nd ref="277149881"/>
    <nd ref="277149823"/>
    <nd ref="277149779"/>
    <tag k="highway" v="residential"/>
    <tag k="name" v="Paderewskiego"/>
    <tag k="source" v="UMP-PL, ./UMP-GorzowWlkp/src/SLUBICE.ulice.txt"/>
  </way>
  <way id="25430894" version="6" timestamp="2010-10-04T18:16:48Z" uid="20587" user="balrog-kun" changeset="5956007">
    <nd ref="277149886"/>
    <nd ref="651589683"/>
    <nd ref="651589722"/>
    <nd ref="651589720"/>
    <nd ref="651589712"/>
    <nd ref="277149779"/>
    <tag k="highway" v="residential"/>
    <tag k="name" v="Ignacego Jana Paderewskiego"/>
    <tag k="old_name" v="Sandstraße"/>
    <tag k="source" v="UMP-PL, ./UMP-GorzowWlkp/src/SLUBICE.ulice.txt"/>
  </way>
  <way id="25430896" version="1" timestamp="2008-07-08T13:44:10Z" uid="9581" user="Lobelt" changeset="434377">
    <nd ref="277149784"/>
    <nd ref="277149780"/>
    <nd ref="277149777"/>
    <nd ref="277149904"/>
    <tag k="highway" v="residential"/>
    <tag k="name" v="Rysia"/>
    <tag k="source" v="UMP-PL, ./UMP-GorzowWlkp/src/SLUBICE.ulice.txt"/>
  </way>
  <way id="25430897" version="1" timestamp="2008-07-08T13:44:11Z" uid="9581" user="Lobelt" changeset="434377">
    <nd ref="277149662"/>
    <nd ref="277149771"/>
    <nd ref="277149830"/>
    <nd ref="277149862"/>
    <tag k="UMP_Level" v="1"/>
    <tag k="highway" v="residential"/>
    <tag k="name" v="S�dowa"/>
    <tag k="source" v="UMP-PL, ./UMP-GorzowWlkp/src/SLUBICE.ulice.txt"/>
  </way>
  <way id="25430899" version="1" timestamp="2008-07-08T13:44:11Z" uid="9581" user="Lobelt" changeset="434377">
    <nd ref="277149720"/>
    <nd ref="277149821"/>
    <nd ref="277149657"/>
    <tag k="UMP_Level" v="1"/>
    <tag k="highway" v="residential"/>
    <tag k="name" v="Plac Wolno�ci"/>
    <tag k="source" v="UMP-PL, ./UMP-GorzowWlkp/src/SLUBICE.ulice.txt"/>
  </way>
  <way id="25430899" version="2" timestamp="2008-10-09T21:33:56Z" uid="30632" user="antblant" changeset="210278">
    <nd ref="277149720"/>
    <nd ref="277149821"/>
    <nd ref="277149657"/>
    <tag k="UMP_Level" v="1"/>
    <tag k="created_by" v="Potlatch 0.10d"/>
    <tag k="highway" v="residential"/>
    <tag k="name" v="Plac Wolności"/>
    <tag k="source" v="UMP-PL, ./UMP-GorzowWlkp/src/SLUBICE.ulice.txt"/>
  </way>
  <way id="25430899" version="6" timestamp="2009-11-06T01:00:55Z" uid="36809" user="pfoten_weg_!_" changeset="3044956">
    <nd ref="277149720"/>
    <nd ref="277149821"/>
    <nd ref="277149657"/>
    <tag k="highway" v="residential"/>
    <tag k="name" v="Plac Wolności"/>
    <tag k="source" v="UMP-PL, ./UMP-GorzowWlkp/src/SLUBICE.ulice.txt"/>
  </way>
  <way id="25430899" version="9" timestamp="2010-10-04T18:15:50Z" uid="20587" user="balrog-kun" changeset="5956007">
    <nd ref="277149720"/>
    <nd ref="277149821"/>
    <nd ref="651484302"/>
    <nd ref="277149657"/>
    <tag k="highway" v="tertiary"/>
    <tag k="name" v="Plac Wolności"/>
    <tag k="old_name" v="Neuer Markt"/>
    <tag k="source" v="UMP-PL, ./UMP-GorzowWlkp/src/SLUBICE.ulice.txt"/>
    <tag k="wikipedia" v="pl:Plac Wolności w Słubicach"/>
  </way>
  <way id="25430900" version="1" timestamp="2008-07-08T13:44:12Z" uid="9581" user="Lobelt" changeset="434377">
    <nd ref="277149820"/>
    <nd ref="277149848"/>
    <nd ref="277149710"/>
    <tag k="highway" v="residential"/>
    <tag k="name" v="Piska"/>
    <tag k="source" v="UMP-PL, ./UMP-GorzowWlkp/src/SLUBICE.ulice.txt"/>
  </way>
  <way id="25430901" version="1" timestamp="2008-07-08T13:44:12Z" uid="9581" user="Lobelt" changeset="434377">
    <nd ref="277149875"/>
    <nd ref="277149892"/>
    <nd ref="277149677"/>
    <nd ref="277149739"/>
    <nd ref="277149794"/>
    <tag k="highway" v="residential"/>
    <tag k="name" v="Narutowicza"/>
    <tag k="source" v="UMP-PL, ./UMP-GorzowWlkp/src/SLUBICE.ulice.txt"/>
  </way>
  <way id="25430901" version="8" timestamp="2010-10-04T18:19:45Z" uid="20587" user="balrog-kun" changeset="5956007">
    <nd ref="277149875"/>
    <nd ref="651589744"/>
    <nd ref="277149892"/>
    <nd ref="277149677"/>
    <nd ref="277149739"/>
    <nd ref="277149794"/>
    <tag k="highway" v="tertiary"/>
    <tag k="name" v="Gabriela Narutowicza"/>
    <tag k="old_name" v="Wiesenstraße"/>
    <tag k="source" v="UMP-PL, ./UMP-GorzowWlkp/src/SLUBICE.ulice.txt"/>
  </way>
  <way id="25430902" version="1" timestamp="2008-07-08T13:44:12Z" uid="9581" user="Lobelt" changeset="434377">
    <nd ref="277149776"/>
    <nd ref="277149813"/>
    <nd ref="277149787"/>
    <tag k="highway" v="residential"/>
    <tag k="name" v="Wilcza"/>
    <tag k="source" v="UMP-PL, ./UMP-GorzowWlkp/src/SLUBICE.ulice.txt"/>
  </way>
  <way id="25430904" version="1" timestamp="2008-07-08T13:44:12Z" uid="9581" user="Lobelt" changeset="434377">
    <nd ref="277149844"/>
    <nd ref="277149829"/>
    <tag k="highway" v="residential"/>
    <tag k="name" v="Plac Wolno�ci"/>
    <tag k="source" v="UMP-PL, ./UMP-GorzowWlkp/src/SLUBICE.ulice.txt"/>
  </way>
  <way id="25430904" version="2" timestamp="2008-10-09T21:33:51Z" uid="30632" user="antblant" changeset="210278">
    <nd ref="277149844"/>
    <nd ref="277149829"/>
    <tag k="created_by" v="Potlatch 0.10d"/>
    <tag k="highway" v="residential"/>
    <tag k="name" v="Plac Wolności"/>
    <tag k="source" v="UMP-PL, ./UMP-GorzowWlkp/src/SLUBICE.ulice.txt"/>
  </way>
  <way id="25430904" version="5" timestamp="2009-11-06T01:01:03Z" uid="36809" user="pfoten_weg_!_" changeset="3044956">
    <nd ref="277149844"/>
    <nd ref="277149829"/>
    <tag k="highway" v="residential"/>
    <tag k="name" v="Plac Wolności"/>
    <tag k="source" v="UMP-PL, ./UMP-GorzowWlkp/src/SLUBICE.ulice.txt"/>
  </way>
  <way id="25430904" version="6" timestamp="2010-10-04T18:16:07Z" uid="20587" user="balrog-kun" changeset="5956007">
    <nd ref="277149844"/>
    <nd ref="277149829"/>
    <tag k="highway" v="residential"/>
    <tag k="name" v="Plac Wolności"/>
    <tag k="old_name" v="Neuer Markt"/>
    <tag k="source" v="UMP-PL, ./UMP-GorzowWlkp/src/SLUBICE.ulice.txt"/>
    <tag k="wikipedia" v="pl:Plac Wolności w Słubicach"/>
  </way>
  <way id="25430905" version="1" timestamp="2008-07-08T13:44:12Z" uid="9581" user="Lobelt" changeset="434377">
    <nd ref="277149703"/>
    <nd ref="277149869"/>
    <tag k="highway" v="residential"/>
    <tag k="name" v="Konwaliowa"/>
    <tag k="source" v="UMP-PL, ./UMP-GorzowWlkp/src/SLUBICE.ulice.txt"/>
  </way>
  <way id="25430906" version="1" timestamp="2008-07-08T13:44:12Z" uid="9581" user="Lobelt" changeset="434377">
    <nd ref="277149705"/>
    <nd ref="277149797"/>
    <nd ref="277149721"/>
    <tag k="highway" v="residential"/>
    <tag k="name" v="Bratkowa"/>
    <tag k="source" v="UMP-PL, ./UMP-GorzowWlkp/src/SLUBICE.ulice.txt"/>
  </way>
  <way id="25430907" version="1" timestamp="2008-07-08T13:44:13Z" uid="9581" user="Lobelt" changeset="434377">
    <nd ref="277149866"/>
    <nd ref="277149712"/>
    <nd ref="277149914"/>
    <nd ref="277149701"/>
    <tag k="UMP_Level" v="1"/>
    <tag k="highway" v="residential"/>
    <tag k="name" v="Sienkiewicza"/>
    <tag k="source" v="UMP-PL, ./UMP-GorzowWlkp/src/SLUBICE.ulice.txt"/>
  </way>
  <way id="25430907" version="10" timestamp="2010-10-04T18:20:10Z" uid="20587" user="balrog-kun" changeset="5956007">
    <nd ref="277149866"/>
    <nd ref="277149712"/>
    <nd ref="651589727"/>
    <nd ref="651589726"/>
    <nd ref="651589716"/>
    <nd ref="651589730"/>
    <nd ref="651494898"/>
    <nd ref="652647864"/>
    <nd ref="277149701"/>
    <tag k="highway" v="residential"/>
    <tag k="name" v="Henryka Sienkiewicza"/>
    <tag k="name:de" v="Schützenstraße"/>
    <tag k="old_name" v="Schützenstraße"/>
    <tag k="source" v="UMP-PL, ./UMP-GorzowWlkp/src/SLUBICE.ulice.txt"/>
  </way>
  <way id="25430908" version="1" timestamp="2008-07-08T13:44:13Z" uid="9581" user="Lobelt" changeset="434377">
    <nd ref="277149794"/>
    <nd ref="277149693"/>
    <nd ref="277149758"/>
    <tag k="highway" v="residential"/>
    <tag k="name" v="Nocznickiego"/>
    <tag k="source" v="UMP-PL, ./UMP-GorzowWlkp/src/SLUBICE.ulice.txt"/>
  </way>
  <way id="25430908" version="6" timestamp="2010-10-04T18:21:02Z" uid="20587" user="balrog-kun" changeset="5956007">
    <nd ref="277149794"/>
    <nd ref="661171547"/>
    <nd ref="277149693"/>
    <nd ref="277149758"/>
    <tag k="highway" v="residential"/>
    <tag k="name" v="Tadeusza Nocznickiego"/>
    <tag k="old_name" v="Torf Weg"/>
    <tag k="source" v="UMP-PL, ./UMP-GorzowWlkp/src/SLUBICE.ulice.txt"/>
  </way>
  <way id="25430909" version="1" timestamp="2008-07-08T13:44:13Z" uid="9581" user="Lobelt" changeset="434377">
    <nd ref="277149840"/>
    <nd ref="277149801"/>
    <nd ref="277149808"/>
    <nd ref="277149819"/>
    <nd ref="277149817"/>
    <nd ref="277149861"/>
    <tag k="highway" v="residential"/>
    <tag k="name" v="Asnyka"/>
    <tag k="source" v="UMP-PL, ./UMP-GorzowWlkp/src/SLUBICE.ulice.txt"/>
  </way>
  <way id="25430909" version="4" timestamp="2010-10-04T18:17:10Z" uid="20587" user="balrog-kun" changeset="5956007">
    <nd ref="277149840"/>
    <nd ref="277149801"/>
    <nd ref="277149808"/>
    <nd ref="277149819"/>
    <nd ref="277149817"/>
    <nd ref="277149861"/>
    <tag k="highway" v="residential"/>
    <tag k="name" v="Adama Asnyka"/>
    <tag k="source" v="UMP-PL, ./UMP-GorzowWlkp/src/SLUBICE.ulice.txt"/>
  </way>
  <way id="25430910" version="1" timestamp="2008-07-08T13:44:13Z" uid="9581" user="Lobelt" changeset="434377">
    <nd ref="277149915"/>
    <nd ref="277149842"/>
    <nd ref="277149840"/>
    <nd ref="277149836"/>
    <nd ref="277149804"/>
    <tag k="highway" v="residential"/>
    <tag k="name" v="�eromskiego"/>
    <tag k="source" v="UMP-PL, ./UMP-GorzowWlkp/src/SLUBICE.ulice.txt"/>
  </way>
  <way id="25430910" version="4" timestamp="2010-10-04T18:22:05Z" uid="20587" user="balrog-kun" changeset="5956007">
    <nd ref="277149915"/>
    <nd ref="277149842"/>
    <nd ref="277149840"/>
    <nd ref="277149836"/>
    <nd ref="277149804"/>
    <tag k="highway" v="residential"/>
    <tag k="name" v="Stefana Żeromskiego"/>
    <tag k="old_name" v="Große Fruchtstraße"/>
    <tag k="source" v="UMP-PL, ./UMP-GorzowWlkp/src/SLUBICE.ulice.txt"/>
  </way>
  <way id="25430911" version="1" timestamp="2008-07-08T13:44:13Z" uid="9581" user="Lobelt" changeset="434377">
    <nd ref="277149757"/>
    <nd ref="29947536"/>
    <tag k="highway" v="residential"/>
    <tag k="name" v="Chopina"/>
    <tag k="source" v="UMP-PL, ./UMP-GorzowWlkp/src/SLUBICE.ulice.txt"/>
  </way>
  <way id="25430911" version="11" timestamp="2010-10-04T18:18:21Z" uid="20587" user="balrog-kun" changeset="5956007">
    <nd ref="277149757"/>
    <nd ref="569479199"/>
    <nd ref="561170466"/>
    <nd ref="561170475"/>
    <nd ref="561170530"/>
    <nd ref="29947536"/>
    <tag k="highway" v="residential"/>
    <tag k="name" v="Fryderyka Chopina"/>
    <tag k="oneway" v="yes"/>
    <tag k="source" v="UMP-PL, ./UMP-GorzowWlkp/src/SLUBICE.ulice.txt"/>
    <tag k="surface" v="paved"/>
  </way>
  <way id="25430912" version="1" timestamp="2008-07-08T13:44:14Z" uid="9581" user="Lobelt" changeset="434377">
    <nd ref="27262992"/>
    <nd ref="277149874"/>
    <nd ref="277149889"/>
    <nd ref="277149868"/>
    <tag k="UMP_Level" v="1"/>
    <tag k="highway" v="residential"/>
    <tag k="name" v="Drzyma�y"/>
    <tag k="source" v="UMP-PL, ./UMP-GorzowWlkp/src/SLUBICE.ulice.txt"/>
  </way>
  <way id="25430912" version="2" timestamp="2008-10-09T21:32:52Z" uid="30632" user="antblant" changeset="210278">
    <nd ref="27262992"/>
    <nd ref="277149874"/>
    <nd ref="277149889"/>
    <nd ref="277149868"/>
    <tag k="UMP_Level" v="1"/>
    <tag k="created_by" v="Potlatch 0.10d"/>
    <tag k="highway" v="residential"/>
    <tag k="name" v="Drzymały"/>
    <tag k="source" v="UMP-PL, ./UMP-GorzowWlkp/src/SLUBICE.ulice.txt"/>
  </way>
  <way id="25430912" version="4" timestamp="2009-11-06T01:01:17Z" uid="36809" user="pfoten_weg_!_" changeset="3044956">
    <nd ref="27262992"/>
    <nd ref="277149874"/>
    <nd ref="277149889"/>
    <nd ref="277149868"/>
    <tag k="highway" v="residential"/>
    <tag k="name" v="Drzymały"/>
    <tag k="source" v="UMP-PL, ./UMP-GorzowWlkp/src/SLUBICE.ulice.txt"/>
  </way>
  <way id="25430912" version="6" timestamp="2010-10-04T18:21:32Z" uid="20587" user="balrog-kun" changeset="5956007">
    <nd ref="277149868"/>
    <nd ref="652649167"/>
    <nd ref="652649171"/>
    <nd ref="652649200"/>
    <nd ref="652649202"/>
    <nd ref="652649208"/>
    <nd ref="652649210"/>
    <tag k="highway" v="residential"/>
    <tag k="name" v="Michała Drzymały"/>
    <tag k="old_name" v="Sandfurt Weg"/>
    <tag k="source" v="UMP-PL, ./UMP-GorzowWlkp/src/SLUBICE.ulice.txt"/>
    <tag k="surface" v="unpaved"/>
  </way>
  <way id="25430913" version="1" timestamp="2008-07-08T13:44:14Z" uid="9581" user="Lobelt" changeset="434377">
    <nd ref="277149790"/>
    <nd ref="277149795"/>
    <nd ref="277149809"/>
    <tag k="highway" v="pedestrian"/>
    <tag k="name" v="Jedno�ci Robotniczej"/>
    <tag k="source" v="UMP-PL, ./UMP-GorzowWlkp/src/SLUBICE.ulice.txt"/>
  </way>
  <way id="25430914" version="1" timestamp="2008-07-08T13:44:14Z" uid="9581" user="Lobelt" changeset="434377">
    <nd ref="277149790"/>
    <nd ref="277149658"/>
    <tag k="highway" v="pedestrian"/>
    <tag k="source" v="UMP-PL, ./UMP-GorzowWlkp/src/SLUBICE.ulice.txt"/>
  </way>
  <way id="25430914" version="4" timestamp="2010-10-04T18:15:31Z" uid="20587" user="balrog-kun" changeset="5956007">
    <nd ref="277149809"/>
    <nd ref="277149795"/>
    <nd ref="277149790"/>
    <nd ref="277149658"/>
    <tag k="highway" v="pedestrian"/>
    <tag k="name" v="Jedności Robotniczej"/>
    <tag k="old_name" v="Friedrichstraße;Armii Czerwonej"/>
    <tag k="source" v="UMP-PL, ./UMP-GorzowWlkp/src/SLUBICE.ulice.txt"/>
  </way>
  <way id="25430915" version="1" timestamp="2008-07-08T13:44:14Z" uid="9581" user="Lobelt" changeset="434377">
    <nd ref="27262985"/>
    <nd ref="277149915"/>
    <nd ref="277149897"/>
    <tag k="UMP_Level" v="1"/>
    <tag k="highway" v="residential"/>
    <tag k="name" v="Osiedle S�owia�skie"/>
    <tag k="source" v="UMP-PL, ./UMP-GorzowWlkp/src/SLUBICE.ulice.txt"/>
  </way>
  <way id="25430915" version="3" timestamp="2008-10-26T13:38:04Z" uid="31056" user="vctos" changeset="579433">
    <nd ref="27262985"/>
    <nd ref="277149915"/>
    <nd ref="277149897"/>
    <tag k="created_by" v="Potlatch 0.10e"/>
    <tag k="highway" v="residential"/>
    <tag k="name" v="Osiedle S?owia?skie"/>
    <tag k="source" v="UMP-PL, ./UMP-GorzowWlkp/src/SLUBICE.ulice.txt"/>
  </way>
  <way id="25430915" version="5" timestamp="2009-11-06T00:58:53Z" uid="36809" user="pfoten_weg_!_" changeset="3044956">
    <nd ref="27262985"/>
    <nd ref="277149915"/>
    <nd ref="277149897"/>
    <tag k="highway" v="residential"/>
    <tag k="name" v="Osiedle Słowiańskie"/>
    <tag k="source" v="UMP-PL, ./UMP-GorzowWlkp/src/SLUBICE.ulice.txt"/>
  </way>
  <way id="25430915" version="9" timestamp="2010-10-04T18:18:49Z" uid="20587" user="balrog-kun" changeset="5956007">
    <nd ref="27262985"/>
    <nd ref="277149915"/>
    <nd ref="651488893"/>
    <nd ref="651488895"/>
    <nd ref="651488896"/>
    <nd ref="651488897"/>
    <nd ref="651488898"/>
    <tag k="highway" v="residential"/>
    <tag k="name" v="Osiedle Słowiańskie"/>
    <tag k="source" v="UMP-PL, ./UMP-GorzowWlkp/src/SLUBICE.ulice.txt"/>
  </way>
  <way id="25430916" version="1" timestamp="2008-07-08T13:44:15Z" uid="9581" user="Lobelt" changeset="434377">
    <nd ref="277149846"/>
    <nd ref="277149738"/>
    <nd ref="277149696"/>
    <nd ref="277149845"/>
    <tag k="highway" v="residential"/>
    <tag k="source" v="UMP-PL, ./UMP-GorzowWlkp/src/SLUBICE.ulice.txt"/>
  </way>
  <way id="25430917" version="1" timestamp="2008-07-08T13:44:15Z" uid="9581" user="Lobelt" changeset="434377">
    <nd ref="277149723"/>
    <nd ref="277149683"/>
    <nd ref="277149729"/>
    <nd ref="277149760"/>
    <nd ref="277149875"/>
    <nd ref="277149908"/>
    <tag k="UMP_Level" v="1"/>
    <tag k="highway" v="residential"/>
    <tag k="name" v="Plac Bohater�w"/>
    <tag k="source" v="UMP-PL, ./UMP-GorzowWlkp/src/SLUBICE.ulice.txt"/>
  </way>
  <way id="25430917" version="2" timestamp="2008-10-09T21:33:25Z" uid="30632" user="antblant" changeset="210278">
    <nd ref="277149723"/>
    <nd ref="277149683"/>
    <nd ref="277149729"/>
    <nd ref="277149760"/>
    <nd ref="277149875"/>
    <nd ref="277149908"/>
    <tag k="UMP_Level" v="1"/>
    <tag k="created_by" v="Potlatch 0.10d"/>
    <tag k="highway" v="residential"/>
    <tag k="name" v="Plac Bohaterów"/>
    <tag k="source" v="UMP-PL, ./UMP-GorzowWlkp/src/SLUBICE.ulice.txt"/>
  </way>
  <way id="25430917" version="5" timestamp="2009-11-06T01:01:10Z" uid="36809" user="pfoten_weg_!_" changeset="3044956">
    <nd ref="277149723"/>
    <nd ref="277149683"/>
    <nd ref="277149729"/>
    <nd ref="277149760"/>
    <nd ref="277149875"/>
    <nd ref="277149908"/>
    <tag k="highway" v="residential"/>
    <tag k="name" v="Plac Bohaterów"/>
    <tag k="name:de" v="Neuer Markt"/>
    <tag k="source" v="UMP-PL, ./UMP-GorzowWlkp/src/SLUBICE.ulice.txt"/>
  </way>
  <way id="25430917" version="10" timestamp="2010-10-04T18:22:22Z" uid="20587" user="balrog-kun" changeset="5956007">
    <nd ref="277149723"/>
    <nd ref="652647723"/>
    <nd ref="651484358"/>
    <nd ref="277149729"/>
    <tag k="highway" v="residential"/>
    <tag k="loc_name" v="Drugi rynek"/>
    <tag k="name" v="Plac Bohaterów"/>
    <tag k="old_name" v="Neuer Markt;Woli Targ"/>
    <tag k="source" v="UMP-PL, ./UMP-GorzowWlkp/src/SLUBICE.ulice.txt"/>
    <tag k="wikipedia" v="pl:Plac Bohaterów w Słubicach"/>
  </way>
  <way id="25430918" version="1" timestamp="2008-07-08T13:44:15Z" uid="9581" user="Lobelt" changeset="434377">
    <nd ref="277149739"/>
    <nd ref="277149689"/>
    <nd ref="277149687"/>
    <nd ref="277149743"/>
    <tag k="highway" v="residential"/>
    <tag k="name" v="Kr�tka"/>
    <tag k="source" v="UMP-PL, ./UMP-GorzowWlkp/src/SLUBICE.ulice.txt"/>
  </way>
  <way id="25430919" version="1" timestamp="2008-07-08T13:44:15Z" uid="9581" user="Lobelt" changeset="434377">
    <nd ref="277149697"/>
    <nd ref="277149861"/>
    <nd ref="277149883"/>
    <nd ref="29947539"/>
    <tag k="highway" v="service"/>
    <tag k="source" v="UMP-PL, ./UMP-GorzowWlkp/src/SLUBICE.ulice.txt"/>
  </way>
  <way id="25430920" version="1" timestamp="2008-07-08T13:44:15Z" uid="9581" user="Lobelt" changeset="434377">
    <nd ref="277149867"/>
    <nd ref="27262987"/>
    <tag k="highway" v="residential"/>
    <tag k="name" v="Wawrzyniaka"/>
    <tag k="source" v="UMP-PL, ./UMP-GorzowWlkp/src/SLUBICE.ulice.txt"/>
  </way>
  <way id="25430920" version="9" timestamp="2010-10-04T18:19:04Z" uid="20587" user="balrog-kun" changeset="5956007">
    <nd ref="277149867"/>
    <nd ref="651454983"/>
    <nd ref="569479189"/>
    <nd ref="27262987"/>
    <tag k="highway" v="residential"/>
    <tag k="name" v="Piotra Wawrzyniaka"/>
    <tag k="old_name" v="Dammeistergasse"/>
    <tag k="source" v="UMP-PL, ./UMP-GorzowWlkp/src/SLUBICE.ulice.txt"/>
  </way>
  <way id="25430921" version="1" timestamp="2008-07-08T13:44:15Z" uid="9581" user="Lobelt" changeset="434377">
    <nd ref="277149727"/>
    <nd ref="277149793"/>
    <tag k="highway" v="residential"/>
    <tag k="oneway" v="yes"/>
    <tag k="source" v="UMP-PL, ./UMP-GorzowWlkp/src/SLUBICE.ulice.txt"/>
  </way>
  <way id="25430922" version="1" timestamp="2008-07-08T13:44:16Z" uid="9581" user="Lobelt" changeset="434377">
    <nd ref="277149699"/>
    <nd ref="277149790"/>
    <tag k="highway" v="service"/>
    <tag k="source" v="UMP-PL, ./UMP-GorzowWlkp/src/SLUBICE.ulice.txt"/>
  </way>
  <way id="25430923" version="1" timestamp="2008-07-08T13:44:16Z" uid="9581" user="Lobelt" changeset="434377">
    <nd ref="277149707"/>
    <nd ref="277149774"/>
    <tag k="highway" v="residential"/>
    <tag k="name" v="Staszica"/>
    <tag k="source" v="UMP-PL, ./UMP-GorzowWlkp/src/SLUBICE.ulice.txt"/>
  </way>
  <way id="25430923" version="5" timestamp="2010-10-04T18:15:46Z" uid="20587" user="balrog-kun" changeset="5956007">
    <nd ref="277149707"/>
    <nd ref="652647906"/>
    <nd ref="277149774"/>
    <tag k="highway" v="residential"/>
    <tag k="name" v="Stanisława Staszica"/>
    <tag k="source" v="UMP-PL, ./UMP-GorzowWlkp/src/SLUBICE.ulice.txt"/>
  </way>
  <way id="25430925" version="1" timestamp="2008-07-08T13:44:16Z" uid="9581" user="Lobelt" changeset="434377">
    <nd ref="277149866"/>
    <nd ref="277149886"/>
    <nd ref="277149829"/>
    <nd ref="277149750"/>
    <tag k="highway" v="residential"/>
    <tag k="name" v="Podchor��ych"/>
    <tag k="source" v="UMP-PL, ./UMP-GorzowWlkp/src/SLUBICE.ulice.txt"/>
  </way>
  <way id="25430925" version="2" timestamp="2008-10-09T21:33:43Z" uid="30632" user="antblant" changeset="210278">
    <nd ref="277149866"/>
    <nd ref="277149886"/>
    <nd ref="277149829"/>
    <nd ref="277149750"/>
    <tag k="created_by" v="Potlatch 0.10d"/>
    <tag k="highway" v="residential"/>
    <tag k="name" v="Podchorążych"/>
    <tag k="source" v="UMP-PL, ./UMP-GorzowWlkp/src/SLUBICE.ulice.txt"/>
  </way>
  <way id="25430925" version="3" timestamp="2009-11-06T01:00:57Z" uid="36809" user="pfoten_weg_!_" changeset="3044956">
    <nd ref="277149866"/>
    <nd ref="277149886"/>
    <nd ref="277149829"/>
    <nd ref="277149750"/>
    <tag k="highway" v="residential"/>
    <tag k="name" v="Podchorążych"/>
    <tag k="source" v="UMP-PL, ./UMP-GorzowWlkp/src/SLUBICE.ulice.txt"/>
  </way>
  <way id="25430925" version="4" timestamp="2010-10-04T18:19:42Z" uid="20587" user="balrog-kun" changeset="5956007">
    <nd ref="277149866"/>
    <nd ref="277149886"/>
    <nd ref="277149829"/>
    <nd ref="277149750"/>
    <tag k="highway" v="residential"/>
    <tag k="name" v="Podchorążych"/>
    <tag k="old_name" v="Dragoner Straße"/>
    <tag k="source" v="UMP-PL, ./UMP-GorzowWlkp/src/SLUBICE.ulice.txt"/>
  </way>
  <way id="25430926" version="1" timestamp="2008-07-08T13:44:16Z" uid="9581" user="Lobelt" changeset="434377">
    <nd ref="277149797"/>
    <nd ref="277149906"/>
    <tag k="highway" v="residential"/>
    <tag k="name" v="Makowa"/>
    <tag k="source" v="UMP-PL, ./UMP-GorzowWlkp/src/SLUBICE.ulice.txt"/>
  </way>
  <way id="25430927" version="1" timestamp="2008-07-08T13:44:16Z" uid="9581" user="Lobelt" changeset="434377">
    <nd ref="277149912"/>
    <nd ref="277149762"/>
    <nd ref="277149698"/>
    <tag k="UMP_Level" v="1"/>
    <tag k="highway" v="residential"/>
    <tag k="name" v="Ogrodowa"/>
    <tag k="source" v="UMP-PL, ./UMP-GorzowWlkp/src/SLUBICE.ulice.txt"/>
  </way>
  <way id="25430927" version="4" timestamp="2010-10-04T18:20:45Z" uid="20587" user="balrog-kun" changeset="5956007">
    <nd ref="277149912"/>
    <nd ref="277149762"/>
    <nd ref="652648509"/>
    <nd ref="277149698"/>
    <tag k="highway" v="residential"/>
    <tag k="name" v="Ogrodowa"/>
    <tag k="old_name" v="Lagower Straße"/>
    <tag k="source" v="UMP-PL, ./UMP-GorzowWlkp/src/SLUBICE.ulice.txt"/>
  </way>
  <way id="25430928" version="1" timestamp="2008-07-08T13:44:16Z" uid="9581" user="Lobelt" changeset="434377">
    <nd ref="277149825"/>
    <nd ref="27262987"/>
    <nd ref="29947536"/>
    <nd ref="277149852"/>
    <nd ref="27262989"/>
    <nd ref="277149862"/>
    <nd ref="29947535"/>
    <nd ref="27262990"/>
    <nd ref="277149820"/>
    <nd ref="277149698"/>
    <nd ref="29947531"/>
    <nd ref="29947529"/>
    <nd ref="277149784"/>
    <nd ref="27262992"/>
    <nd ref="27262993"/>
    <nd ref="27262994"/>
    <tag k="created_by" v="JOSM"/>
    <tag k="highway" v="primary"/>
    <tag k="name" v="Wojska Polskiego"/>
    <tag k="ref" v="31"/>
  </way>
  <way id="25430928" version="6" timestamp="2009-09-06T13:58:03Z" uid="30632" user="antblant" changeset="2391414"/>
  <way id="25430929" version="1" timestamp="2008-07-08T13:44:17Z" uid="9581" user="Lobelt" changeset="434377">
    <nd ref="277149809"/>
    <nd ref="277149918"/>
    <tag k="highway" v="residential"/>
    <tag k="name" v="Jedno�ci Robotniczej"/>
    <tag k="source" v="UMP-PL, ./UMP-GorzowWlkp/src/SLUBICE.ulice.txt"/>
  </way>
  <way id="25430929" version="7" timestamp="2010-10-04T18:15:51Z" uid="20587" user="balrog-kun" changeset="5956007">
    <nd ref="277149809"/>
    <nd ref="561170237"/>
    <nd ref="277149918"/>
    <tag k="highway" v="residential"/>
    <tag k="name" v="Jedności Robotniczej"/>
    <tag k="old_name" v="Friedrichstraße;Armii Czerwonej"/>
    <tag k="source" v="UMP-PL, ./UMP-GorzowWlkp/src/SLUBICE.ulice.txt"/>
  </way>
  <way id="25430930" version="1" timestamp="2008-07-08T13:44:17Z" uid="9581" user="Lobelt" changeset="434377">
    <nd ref="27262901"/>
    <nd ref="27262902"/>
    <nd ref="27262904"/>
    <nd ref="27262907"/>
    <nd ref="27262908"/>
    <nd ref="277149727"/>
    <nd ref="27262909"/>
    <nd ref="277149697"/>
    <nd ref="27262911"/>
    <nd ref="29947539"/>
    <nd ref="27262912"/>
    <nd ref="27262913"/>
    <tag k="created_by" v="Potlatch 0.9c"/>
    <tag k="highway" v="primary"/>
    <tag k="lanes" v="2"/>
    <tag k="oneway" v="yes"/>
    <tag k="surface" v="paved"/>
  </way>
  <way id="25430930" version="4" timestamp="2009-04-29T15:40:01Z" uid="30632" user="antblant" changeset="1016891">
    <nd ref="27262901"/>
    <nd ref="27262902"/>
    <nd ref="27262904"/>
    <nd ref="27262907"/>
    <nd ref="27262908"/>
    <nd ref="357917603"/>
    <nd ref="277149727"/>
    <nd ref="27262909"/>
    <nd ref="277149697"/>
    <nd ref="27262911"/>
    <nd ref="29947539"/>
    <nd ref="27262912"/>
    <nd ref="27262913"/>
    <tag k="created_by" v="Potlatch 0.9c"/>
    <tag k="highway" v="primary"/>
    <tag k="lanes" v="2"/>
    <tag k="name:de" v="Blumenstraße"/>
    <tag k="oneway" v="yes"/>
    <tag k="ref" v="29"/>
    <tag k="surface" v="paved"/>
  </way>
  <way id="25430930" version="5" timestamp="2009-11-06T00:58:55Z" uid="36809" user="pfoten_weg_!_" changeset="3044956">
    <nd ref="27262901"/>
    <nd ref="27262902"/>
    <nd ref="27262904"/>
    <nd ref="27262907"/>
    <nd ref="27262908"/>
    <nd ref="357917603"/>
    <nd ref="277149727"/>
    <nd ref="27262909"/>
    <nd ref="277149697"/>
    <nd ref="27262911"/>
    <nd ref="29947539"/>
    <nd ref="27262912"/>
    <nd ref="27262913"/>
    <tag k="highway" v="primary"/>
    <tag k="lanes" v="2"/>
    <tag k="name:de" v="Blumenstraße"/>
    <tag k="oneway" v="yes"/>
    <tag k="ref" v="29"/>
    <tag k="surface" v="paved"/>
  </way>
  <way id="25430930" version="9" timestamp="2010-10-04T18:21:03Z" uid="20587" user="balrog-kun" changeset="5956007">
    <nd ref="277149895"/>
    <nd ref="569479338"/>
    <nd ref="569479331"/>
    <nd ref="27262902"/>
    <nd ref="27262904"/>
    <nd ref="27262907"/>
    <nd ref="27262908"/>
    <nd ref="357917603"/>
    <nd ref="277149727"/>
    <nd ref="27262909"/>
    <nd ref="569479316"/>
    <nd ref="277149697"/>
    <nd ref="27262911"/>
    <nd ref="29947539"/>
    <nd ref="569479284"/>
    <nd ref="569479274"/>
    <nd ref="27262912"/>
    <nd ref="27262913"/>
    <tag k="highway" v="primary"/>
    <tag k="lanes" v="2"/>
    <tag k="name" v="Tadeusza Kościuszki"/>
    <tag k="old_name" v="Blumenstraße"/>
    <tag k="oneway" v="yes"/>
    <tag k="ref" v="29"/>
    <tag k="surface" v="paved"/>
  </way>
  <way id="25430939" version="4" timestamp="2010-03-27T23:49:54Z" uid="20587" user="balrog-kun" changeset="4250871">
    <nd ref="49182372"/>
    <nd ref="49014926"/>
    <nd ref="652701374"/>
    <nd ref="49123746"/>
    <tag k="highway" v="residential"/>
    <tag k="name" v="Palm Avenue"/>
    <tag k="tiger:cfcc" v="A41"/>
    <tag k="tiger:county" v="San Diego, CA"/>
    <tag k="tiger:name_base" v="Palm"/>
    <tag k="tiger:name_type" v="Ave"/>
    <tag k="tiger:reviewed" v="no"/>
    <tag k="tiger:separated" v="no"/>
    <tag k="tiger:source" v="tiger_import_dch_v0.6_20070809"/>
    <tag k="tiger:tlid" v="195738707:195738708:195364493:195373557:195678564:195678565:195364550:195364551:195358841:195373110:195358764:195358774:195358794:195358796:195358609:195358563:195358587:195410440:195357956:195678558:195678559:195703942:195703943:195410428:195357921:19535"/>
    <tag k="tiger:zip_left" v="92154"/>
  </way>
  <way id="25430941" version="5" timestamp="2010-03-27T23:49:54Z" uid="20587" user="balrog-kun" changeset="4250871">
    <nd ref="49181244"/>
    <nd ref="49182372"/>
    <tag k="bridge" v="yes"/>
    <tag k="created_by" v="Potlatch 0.10b"/>
    <tag k="highway" v="residential"/>
    <tag k="layer" v="1"/>
    <tag k="name" v="Palm Avenue"/>
    <tag k="tiger:cfcc" v="A41"/>
    <tag k="tiger:county" v="San Diego, CA"/>
    <tag k="tiger:name_base" v="Palm"/>
    <tag k="tiger:name_type" v="Ave"/>
    <tag k="tiger:separated" v="no"/>
    <tag k="tiger:source" v="tiger_import_dch_v0.6_20070809"/>
    <tag k="tiger:tlid" v="195738707:195738708:195364493:195373557:195678564:195678565:195364550:195364551:195358841:195373110:195358764:195358774:195358794:195358796:195358609:195358563:195358587:195410440:195357956:195678558:195678559:195703942:195703943:195410428:195357921:19535"/>
    <tag k="tiger:zip_right_1" v="92154"/>
  </way>
</osm>
