<?xml version='1.0' encoding='UTF-8'?>
<osm version="0.6" generator="libosmium/2.20.0">
  <way id="25546010" version="8" timestamp="2010-07-09T03:49:24Z" uid="74617" user="JohnSmith" changeset="5170825">
    <nd ref="278426888"/>
    <nd ref="278426892"/>
    <nd ref="789995981"/>
    <nd ref="278426893"/>
    <nd ref="789995982"/>
    <nd ref="278426894"/>
    <nd ref="278426895"/>
    <nd ref="278426897"/>
    <nd ref="789995983"/>
    <nd ref="789995984"/>
    <nd ref="278426898"/>
    <nd ref="278426899"/>
    <nd ref="278426900"/>
    <nd ref="278426901"/>
    <nd ref="789996205"/>
    <nd ref="278426902"/>
    <tag k="highway" v="residential"/>
    <tag k="maxspeed" v="50"/>
    <tag k="maxspeed:source" v="default residential speed limit in Australia"/>
    <tag k="name" v="Holroyd Drive"/>
  </way>
  <way id="25546013" version="4" timestamp="2010-07-09T03:52:18Z" uid="74617" user="JohnSmith" changeset="5170825">
    <nd ref="278426930"/>
    <nd ref="790001565"/>
    <nd ref="790001566"/>
    <nd ref="790001567"/>
    <nd ref="790001569"/>
    <nd ref="790001570"/>
    <nd ref="278426899"/>
    <tag k="highway" v="residential"/>
    <tag k="maxspeed" v="50"/>
    <tag k="maxspeed:source" v="default residential speed limit in Australia"/>
    <tag k="name" v="Kilby Close"/>
  </way>
  <way id="25546015" version="4" timestamp="2010-07-09T03:48:54Z" uid="74617" user="JohnSmith" changeset="5170825">
    <nd ref="278426953"/>
    <nd ref="278426901"/>
    <tag k="highway" v="residential"/>
    <tag k="maxspeed" v="50"/>
    <tag k="maxspeed:source" v="default residential speed limit in Australia"/>
    <tag k="name" v="Vernon Court"/>
  </way>
  <way id="25546018" version="4" timestamp="2010-07-09T03:48:43Z" uid="74617" user="JohnSmith" changeset="5170825">
    <nd ref="790001573"/>
    <nd ref="790001574"/>
    <nd ref="278426984"/>
    <nd ref="278426900"/>
    <tag k="highway" v="residential"/>
    <tag k="maxspeed" v="50"/>
    <tag k="maxspeed:source" v="default residential speed limit in Australia"/>
    <tag k="name" v="Broome Court"/>
  </way>
  <way id="25546022" version="4" timestamp="2010-07-09T03:49:58Z" uid="74617" user="JohnSmith" changeset="5170825">
    <nd ref="278427004"/>
    <nd ref="790001876"/>
    <nd ref="790001877"/>
    <nd ref="278426892"/>
    <tag k="highway" v="residential"/>
    <tag k="maxspeed" v="50"/>
    <tag k="maxspeed:source" v="default residential speed limit in Australia"/>
    <tag k="name" v="Lees Court"/>
  </way>
  <way id="25546023" version="5" timestamp="2010-07-09T03:48:12Z" uid="74617" user="JohnSmith" changeset="5170825">
    <nd ref="278427015"/>
    <nd ref="790001874"/>
    <nd ref="278427016"/>
    <nd ref="278427017"/>
    <nd ref="790001875"/>
    <nd ref="278427018"/>
    <nd ref="789995985"/>
    <nd ref="278426895"/>
    <tag k="highway" v="residential"/>
    <tag k="maxspeed" v="50"/>
    <tag k="maxspeed:source" v="default residential speed limit in Australia"/>
    <tag k="name" v="Gillespie Place"/>
  </way>
  <way id="25546049" version="3" timestamp="2009-12-10T00:07:51Z" uid="200463" user="harmagedon" changeset="3338481">
    <nd ref="278428564"/>
    <nd ref="278428562"/>
    <tag k="highway" v="footway"/>
  </way>
  <way id="25546057" version="3" timestamp="2009-09-30T15:19:33Z" uid="36809" user="pfoten_weg_!_" changeset="2689341">
    <nd ref="278428513"/>
    <nd ref="278428514"/>
    <tag k="highway" v="pedestrian"/>
    <tag k="layer" v="-1"/>
    <tag k="name" v="Seestraße"/>
    <tag k="tunnel" v="yes"/>
  </way>
  <way id="25546058" version="4" timestamp="2009-09-30T15:19:32Z" uid="36809" user="pfoten_weg_!_" changeset="2689341">
    <nd ref="260040140"/>
    <nd ref="278418027"/>
    <nd ref="297561568"/>
    <nd ref="260040139"/>
    <nd ref="297561577"/>
    <nd ref="297561579"/>
    <nd ref="260040138"/>
    <tag k="highway" v="pedestrian"/>
    <tag k="name" v="Seestraße"/>
  </way>
  <way id="25546061" version="2" timestamp="2009-12-10T00:07:50Z" uid="200463" user="harmagedon" changeset="3338481">
    <nd ref="278428559"/>
    <nd ref="278428561"/>
    <nd ref="278428562"/>
    <nd ref="278428563"/>
    <nd ref="278428559"/>
    <tag k="amenity" v="parking"/>
  </way>
  <way id="25546067" version="4" timestamp="2009-12-10T00:08:01Z" uid="200463" user="harmagedon" changeset="3338481">
    <nd ref="278428760"/>
    <nd ref="278429380"/>
    <nd ref="278428761"/>
    <nd ref="278428762"/>
    <nd ref="278429381"/>
    <nd ref="278428763"/>
    <nd ref="278428764"/>
    <nd ref="278428766"/>
    <nd ref="278428760"/>
    <tag k="building" v="yes"/>
  </way>
  <way id="25546070" version="7" timestamp="2010-07-09T03:48:41Z" uid="74617" user="JohnSmith" changeset="5170825">
    <nd ref="278428808"/>
    <nd ref="278428809"/>
    <nd ref="278428810"/>
    <nd ref="278428811"/>
    <nd ref="278428812"/>
    <nd ref="278428813"/>
    <nd ref="278428814"/>
    <nd ref="278428815"/>
    <nd ref="278428816"/>
    <tag k="highway" v="residential"/>
    <tag k="maxspeed" v="50"/>
    <tag k="maxspeed:source" v="default residential speed limit in Australia"/>
    <tag k="name" v="Beaumont Crescent"/>
  </way>
  <way id="25546071" version="2" timestamp="2009-12-10T00:08:01Z" uid="200463" user="harmagedon" changeset="3338481">
    <nd ref="278428818"/>
    <nd ref="278428819"/>
    <nd ref="278428820"/>
    <nd ref="278428821"/>
    <nd ref="278428818"/>
    <tag k="building" v="yes"/>
  </way>
  <way id="25546076" version="2" timestamp="2009-12-10T00:08:00Z" uid="200463" user="harmagedon" changeset="3338481">
    <nd ref="278428910"/>
    <nd ref="278428911"/>
    <nd ref="278428912"/>
    <nd ref="278428913"/>
    <nd ref="278428910"/>
    <tag k="building" v="yes"/>
  </way>
  <way id="25546077" version="4" timestamp="2010-07-09T03:47:45Z" uid="74617" user="JohnSmith" changeset="5170825">
    <nd ref="278428917"/>
    <nd ref="278428933"/>
    <tag k="highway" v="residential"/>
    <tag k="maxspeed" v="50"/>
    <tag k="maxspeed:source" v="default residential speed limit in Australia"/>
    <tag k="name" v="Walden Place"/>
  </way>
  <way id="25546080" version="6" timestamp="2010-07-09T03:47:34Z" uid="74617" user="JohnSmith" changeset="5170825">
    <nd ref="278428928"/>
    <nd ref="278428929"/>
    <nd ref="278428930"/>
    <nd ref="278428968"/>
    <nd ref="278428933"/>
    <nd ref="278428934"/>
    <nd ref="278428935"/>
    <nd ref="278428936"/>
    <nd ref="278428815"/>
    <tag k="highway" v="residential"/>
    <tag k="maxspeed" v="50"/>
    <tag k="maxspeed:source" v="default residential speed limit in Australia"/>
    <tag k="name" v="Mindoro Crescent"/>
  </way>
  <way id="25546081" version="3" timestamp="2010-07-09T03:45:36Z" uid="74617" user="JohnSmith" changeset="5170825">
    <nd ref="278428966"/>
    <nd ref="278428967"/>
    <nd ref="278428968"/>
    <tag k="highway" v="residential"/>
    <tag k="maxspeed" v="50"/>
    <tag k="maxspeed:source" v="default residential speed limit in Australia"/>
    <tag k="name" v="Ashdown Court"/>
  </way>
  <way id="25546082" version="3" timestamp="2010-07-09T03:52:22Z" uid="74617" user="JohnSmith" changeset="5170825">
    <nd ref="278428973"/>
    <nd ref="278428975"/>
    <nd ref="278428930"/>
    <tag k="highway" v="residential"/>
    <tag k="maxspeed" v="50"/>
    <tag k="maxspeed:source" v="default residential speed limit in Australia"/>
    <tag k="name" v="Cromwell Court"/>
  </way>
  <way id="25546086" version="2" timestamp="2009-12-10T00:07:50Z" uid="200463" user="harmagedon" changeset="3338481">
    <nd ref="278429093"/>
    <nd ref="278429094"/>
    <nd ref="278429095"/>
    <nd ref="278429096"/>
    <nd ref="278429093"/>
    <tag k="building" v="yes"/>
  </way>
  <way id="25546089" version="3" timestamp="2010-07-09T03:51:38Z" uid="74617" user="JohnSmith" changeset="5170825">
    <nd ref="278429175"/>
    <nd ref="278429176"/>
    <nd ref="278428810"/>
    <tag k="highway" v="residential"/>
    <tag k="maxspeed" v="50"/>
    <tag k="maxspeed:source" v="default residential speed limit in Australia"/>
    <tag k="name" v="Swindon Court"/>
  </way>
  <way id="25546093" version="5" timestamp="2010-07-09T03:52:50Z" uid="74617" user="JohnSmith" changeset="5170825">
    <nd ref="278429253"/>
    <nd ref="277093388"/>
    <tag k="highway" v="residential"/>
    <tag k="maxspeed" v="50"/>
    <tag k="maxspeed:source" v="default residential speed limit in Australia"/>
    <tag k="name" v="Hales Court"/>
  </way>
  <way id="25546097" version="5" timestamp="2010-07-09T03:51:01Z" uid="74617" user="JohnSmith" changeset="5170825">
    <nd ref="278429294"/>
    <nd ref="277093389"/>
    <tag k="highway" v="residential"/>
    <tag k="maxspeed" v="50"/>
    <tag k="maxspeed:source" v="default residential speed limit in Australia"/>
    <tag k="name" v="Corrigan Place"/>
  </way>
  <way id="25546099" version="4" timestamp="2010-07-09T03:47:24Z" uid="74617" user="JohnSmith" changeset="5170825">
    <nd ref="278429333"/>
    <nd ref="278429334"/>
    <nd ref="278429335"/>
    <nd ref="278429336"/>
    <nd ref="277093392"/>
    <tag k="highway" v="residential"/>
    <tag k="maxspeed" v="50"/>
    <tag k="maxspeed:source" v="default residential speed limit in Australia"/>
    <tag k="name" v="Lewis Close"/>
  </way>
  <way id="25546101" version="4" timestamp="2009-12-10T00:07:58Z" uid="200463" user="harmagedon" changeset="3338481">
    <nd ref="278429380"/>
    <nd ref="278429381"/>
    <tag k="highway" v="footway"/>
    <tag k="tunnel" v="yes"/>
  </way>
  <way id="25546102" version="2" timestamp="2009-12-10T00:07:59Z" uid="200463" user="harmagedon" changeset="3338481">
    <nd ref="278429314"/>
    <nd ref="278429380"/>
    <tag k="highway" v="footway"/>
  </way>
  <way id="25546103" version="2" timestamp="2009-12-10T00:07:59Z" uid="200463" user="harmagedon" changeset="3338481">
    <nd ref="278429381"/>
    <nd ref="278429382"/>
    <nd ref="278429383"/>
    <tag k="highway" v="footway"/>
  </way>
  <way id="25546105" version="8" timestamp="2010-07-09T03:48:29Z" uid="74617" user="JohnSmith" changeset="5170825">
    <nd ref="277091341"/>
    <nd ref="278429412"/>
    <nd ref="278429413"/>
    <nd ref="278429467"/>
    <nd ref="278429415"/>
    <nd ref="278429416"/>
    <nd ref="278429417"/>
    <nd ref="278429418"/>
    <nd ref="278429419"/>
    <nd ref="278429420"/>
    <nd ref="278429421"/>
    <nd ref="278429475"/>
    <nd ref="278429422"/>
    <nd ref="278429423"/>
    <nd ref="277091351"/>
    <tag k="highway" v="residential"/>
    <tag k="maxspeed" v="50"/>
    <tag k="maxspeed:source" v="default residential speed limit in Australia"/>
    <tag k="name" v="Wenden Road"/>
  </way>
  <way id="25546108" version="4" timestamp="2010-07-09T03:51:29Z" uid="74617" user="JohnSmith" changeset="5170825">
    <nd ref="278429467"/>
    <nd ref="278429468"/>
    <nd ref="278429469"/>
    <nd ref="278429470"/>
    <nd ref="278429471"/>
    <nd ref="278429472"/>
    <nd ref="278429473"/>
    <nd ref="278429474"/>
    <nd ref="278429475"/>
    <tag k="highway" v="residential"/>
    <tag k="maxspeed" v="50"/>
    <tag k="maxspeed:source" v="default residential speed limit in Australia"/>
    <tag k="name" v="Boyle Crescent"/>
  </way>
  <way id="25546111" version="3" timestamp="2010-07-09T03:45:58Z" uid="74617" user="JohnSmith" changeset="5170825">
    <nd ref="278429490"/>
    <nd ref="278429491"/>
    <nd ref="278429471"/>
    <tag k="highway" v="residential"/>
    <tag k="maxspeed" v="50"/>
    <tag k="maxspeed:source" v="default residential speed limit in Australia"/>
    <tag k="name" v="Porter Court"/>
  </way>
  <way id="25546113" version="3" timestamp="2010-07-09T03:47:39Z" uid="74617" user="JohnSmith" changeset="5170825">
    <nd ref="278429511"/>
    <nd ref="278429512"/>
    <nd ref="278429513"/>
    <nd ref="278429514"/>
    <nd ref="278429472"/>
    <tag k="highway" v="residential"/>
    <tag k="maxspeed" v="50"/>
    <tag k="maxspeed:source" v="default residential speed limit in Australia"/>
    <tag k="name" v="Doubell Court"/>
  </way>
  <way id="25546114" version="3" timestamp="2010-07-09T03:45:46Z" uid="74617" user="JohnSmith" changeset="5170825">
    <nd ref="278429538"/>
    <nd ref="278429417"/>
    <tag k="highway" v="residential"/>
    <tag k="maxspeed" v="50"/>
    <tag k="maxspeed:source" v="default residential speed limit in Australia"/>
    <tag k="name" v="Devitt Court"/>
  </way>
  <way id="25546115" version="3" timestamp="2010-07-09T03:52:28Z" uid="74617" user="JohnSmith" changeset="5170825">
    <nd ref="277091975"/>
    <nd ref="278429622"/>
    <nd ref="278429623"/>
    <nd ref="278429624"/>
    <nd ref="278429625"/>
    <nd ref="278429626"/>
    <nd ref="278429627"/>
    <nd ref="278429628"/>
    <nd ref="278429629"/>
    <nd ref="278429630"/>
    <nd ref="278429631"/>
    <nd ref="278429632"/>
    <nd ref="278429633"/>
    <nd ref="278429634"/>
    <nd ref="278429635"/>
    <nd ref="277091964"/>
    <tag k="highway" v="residential"/>
    <tag k="maxspeed" v="50"/>
    <tag k="maxspeed:source" v="default residential speed limit in Australia"/>
    <tag k="name" v="Freeman Crescent"/>
  </way>
  <way id="25546118" version="3" timestamp="2010-07-09T03:47:13Z" uid="74617" user="JohnSmith" changeset="5170825">
    <nd ref="278429635"/>
    <nd ref="278429755"/>
    <nd ref="278429757"/>
    <nd ref="278429758"/>
    <nd ref="278429760"/>
    <nd ref="278429761"/>
    <nd ref="278429763"/>
    <nd ref="278429764"/>
    <nd ref="278429765"/>
    <nd ref="278429622"/>
    <tag k="highway" v="residential"/>
    <tag k="maxspeed" v="50"/>
    <tag k="maxspeed:source" v="default residential speed limit in Australia"/>
    <tag k="name" v="Strickland Avenue"/>
  </way>
  <way id="25546120" version="2" timestamp="2010-07-09T03:12:38Z" uid="74617" user="JohnSmith" changeset="5170739">
    <nd ref="278429740"/>
    <nd ref="278429744"/>
    <tag k="highway" v="residential"/>
    <tag k="maxspeed" v="50"/>
    <tag k="maxspeed:source" v="default residential speed limit in Australia"/>
    <tag k="name" v="Rolland Street"/>
  </way>
  <way id="25546121" version="2" timestamp="2010-07-09T03:16:40Z" uid="74617" user="JohnSmith" changeset="5170739">
    <nd ref="278429748"/>
    <nd ref="278429752"/>
    <tag k="highway" v="residential"/>
    <tag k="maxspeed" v="50"/>
    <tag k="maxspeed:source" v="default residential speed limit in Australia"/>
    <tag k="name" v="Fraser Street"/>
  </way>
  <way id="25546122" version="2" timestamp="2010-07-09T03:11:08Z" uid="74617" user="JohnSmith" changeset="5170739">
    <nd ref="278429759"/>
    <nd ref="278429769"/>
    <tag k="highway" v="residential"/>
    <tag k="maxspeed" v="50"/>
    <tag k="maxspeed:source" v="default residential speed limit in Australia"/>
    <tag k="name" v="Lonsdale Street"/>
  </way>
  <way id="25546123" version="2" timestamp="2010-07-09T03:15:16Z" uid="74617" user="JohnSmith" changeset="5170739">
    <nd ref="278429774"/>
    <nd ref="278429781"/>
    <tag k="highway" v="residential"/>
    <tag k="maxspeed" v="50"/>
    <tag k="maxspeed:source" v="default residential speed limit in Australia"/>
    <tag k="name" v="Collins Street"/>
  </way>
  <way id="25546124" version="3" timestamp="2010-07-09T03:48:16Z" uid="74617" user="JohnSmith" changeset="5170825">
    <nd ref="278429801"/>
    <nd ref="278429802"/>
    <nd ref="278429803"/>
    <nd ref="278429805"/>
    <nd ref="278429806"/>
    <nd ref="278429758"/>
    <tag k="highway" v="residential"/>
    <tag k="maxspeed" v="50"/>
    <tag k="maxspeed:source" v="default residential speed limit in Australia"/>
    <tag k="name" v="Kilborn Court"/>
  </way>
  <way id="25546125" version="2" timestamp="2010-07-09T03:13:51Z" uid="74617" user="JohnSmith" changeset="5170739">
    <nd ref="278429785"/>
    <nd ref="273834650"/>
    <tag k="highway" v="residential"/>
    <tag k="maxspeed" v="50"/>
    <tag k="maxspeed:source" v="default residential speed limit in Australia"/>
    <tag k="name" v="Flinders Street"/>
  </way>
  <way id="25546126" version="3" timestamp="2010-07-09T03:52:59Z" uid="74617" user="JohnSmith" changeset="5170825">
    <nd ref="278429839"/>
    <nd ref="278429630"/>
    <tag k="highway" v="residential"/>
    <tag k="maxspeed" v="50"/>
    <tag k="maxspeed:source" v="default residential speed limit in Australia"/>
    <tag k="name" v="Fraser Close"/>
  </way>
  <way id="25546127" version="3" timestamp="2010-07-09T03:51:17Z" uid="74617" user="JohnSmith" changeset="5170825">
    <nd ref="278429899"/>
    <nd ref="278429900"/>
    <nd ref="278429901"/>
    <nd ref="278429624"/>
    <tag k="highway" v="residential"/>
    <tag k="maxspeed" v="50"/>
    <tag k="maxspeed:source" v="default residential speed limit in Australia"/>
    <tag k="name" v="Matthews Court"/>
  </way>
  <way id="25546134" version="3" timestamp="2010-07-09T03:52:17Z" uid="74617" user="JohnSmith" changeset="5170825">
    <nd ref="277091974"/>
    <nd ref="278430134"/>
    <nd ref="278430135"/>
    <nd ref="278430136"/>
    <nd ref="278430137"/>
    <nd ref="278430138"/>
    <nd ref="278430139"/>
    <nd ref="278430142"/>
    <nd ref="278430143"/>
    <nd ref="278430144"/>
    <nd ref="277091969"/>
    <tag k="highway" v="residential"/>
    <tag k="maxspeed" v="50"/>
    <tag k="maxspeed:source" v="default residential speed limit in Australia"/>
    <tag k="name" v="Mockridge Drive"/>
  </way>
  <way id="25546136" version="3" timestamp="2010-07-09T03:51:59Z" uid="74617" user="JohnSmith" changeset="5170825">
    <nd ref="278430202"/>
    <nd ref="278430143"/>
    <tag k="highway" v="residential"/>
    <tag k="maxspeed" v="50"/>
    <tag k="maxspeed:source" v="default residential speed limit in Australia"/>
    <tag k="name" v="Wickham Court"/>
  </way>
  <way id="25546145" version="6" timestamp="2010-07-09T03:49:39Z" uid="74617" user="JohnSmith" changeset="5170825">
    <nd ref="277091334"/>
    <nd ref="277091964"/>
    <nd ref="277091966"/>
    <nd ref="277091967"/>
    <nd ref="277091969"/>
    <nd ref="277091971"/>
    <nd ref="277091972"/>
    <nd ref="277091974"/>
    <nd ref="277091975"/>
    <nd ref="277091976"/>
    <tag k="highway" v="residential"/>
    <tag k="maxspeed" v="50"/>
    <tag k="maxspeed:source" v="default residential speed limit in Australia"/>
    <tag k="name" v="Cuthbert Drive"/>
  </way>
  <way id="25546153" version="4" timestamp="2010-07-09T03:46:58Z" uid="74617" user="JohnSmith" changeset="5170825">
    <nd ref="277091330"/>
    <nd ref="278430501"/>
    <nd ref="278430502"/>
    <nd ref="278430503"/>
    <nd ref="278430504"/>
    <nd ref="278430505"/>
    <nd ref="278430507"/>
    <nd ref="278430508"/>
    <nd ref="278430509"/>
    <nd ref="278430510"/>
    <nd ref="277091967"/>
    <tag k="highway" v="residential"/>
    <tag k="maxspeed" v="50"/>
    <tag k="maxspeed:source" v="default residential speed limit in Australia"/>
    <tag k="name" v="Tonelli Crescent"/>
  </way>
  <way id="25546166" version="5" timestamp="2010-07-09T03:45:39Z" uid="74617" user="JohnSmith" changeset="5170825">
    <nd ref="278430731"/>
    <nd ref="278430507"/>
    <tag k="highway" v="residential"/>
    <tag k="maxspeed" v="50"/>
    <tag k="maxspeed:source" v="default residential speed limit in Australia"/>
    <tag k="name" v="Ford Court"/>
  </way>
  <way id="25546177" version="5" timestamp="2010-07-09T03:51:31Z" uid="74617" user="JohnSmith" changeset="5170825">
    <nd ref="278430792"/>
    <nd ref="278430793"/>
    <nd ref="278430794"/>
    <nd ref="278430795"/>
    <nd ref="278430509"/>
    <tag k="highway" v="residential"/>
    <tag k="maxspeed" v="50"/>
    <tag k="maxspeed:source" v="default residential speed limit in Australia"/>
    <tag k="name" v="Whitfield Court"/>
  </way>
  <way id="25546211" version="7" timestamp="2010-07-09T03:49:52Z" uid="74617" user="JohnSmith" changeset="5170825">
    <nd ref="278430876"/>
    <nd ref="278431074"/>
    <nd ref="278431075"/>
    <nd ref="278431076"/>
    <nd ref="278431077"/>
    <nd ref="278431078"/>
    <nd ref="278431079"/>
    <nd ref="278431080"/>
    <nd ref="278431081"/>
    <nd ref="278431082"/>
    <nd ref="278431083"/>
    <nd ref="278431084"/>
    <nd ref="278431085"/>
    <nd ref="278431086"/>
    <nd ref="278431087"/>
    <nd ref="278430883"/>
    <nd ref="291693665"/>
    <nd ref="278431089"/>
    <nd ref="278431090"/>
    <nd ref="278431092"/>
    <nd ref="278431093"/>
    <nd ref="278431095"/>
    <nd ref="278431096"/>
    <nd ref="278431098"/>
    <nd ref="277091326"/>
    <tag k="highway" v="residential"/>
    <tag k="maxspeed" v="50"/>
    <tag k="maxspeed:source" v="default residential speed limit in Australia"/>
    <tag k="name" v="Grenda Drive"/>
  </way>
  <way id="25546212" version="3" timestamp="2010-07-09T03:48:04Z" uid="74617" user="JohnSmith" changeset="5170825">
    <nd ref="278431118"/>
    <nd ref="278431119"/>
    <nd ref="278431120"/>
    <nd ref="278431121"/>
    <nd ref="278430878"/>
    <tag k="highway" v="residential"/>
    <tag k="maxspeed" v="50"/>
    <tag k="maxspeed:source" v="default residential speed limit in Australia"/>
    <tag k="name" v="Turtur Close"/>
  </way>
  <way id="25546213" version="3" timestamp="2010-07-09T03:46:09Z" uid="74617" user="JohnSmith" changeset="5170825">
    <nd ref="278431153"/>
    <nd ref="278431154"/>
    <nd ref="278430880"/>
    <tag k="highway" v="residential"/>
    <tag k="maxspeed" v="50"/>
    <tag k="maxspeed:source" v="default residential speed limit in Australia"/>
    <tag k="name" v="Windeatt Close"/>
  </way>
  <way id="25546217" version="3" timestamp="2010-07-09T03:50:50Z" uid="74617" user="JohnSmith" changeset="5170825">
    <nd ref="278431176"/>
    <nd ref="278431084"/>
    <tag k="highway" v="residential"/>
    <tag k="maxspeed" v="50"/>
    <tag k="maxspeed:source" v="default residential speed limit in Australia"/>
    <tag k="name" v="Nunn Close"/>
  </way>
  <way id="25546219" version="3" timestamp="2010-07-09T03:47:15Z" uid="74617" user="JohnSmith" changeset="5170825">
    <nd ref="278431205"/>
    <nd ref="278431078"/>
    <tag k="highway" v="residential"/>
    <tag k="maxspeed" v="50"/>
    <tag k="maxspeed:source" v="default residential speed limit in Australia"/>
    <tag k="name" v="Vines Court"/>
  </way>
  <way id="25546220" version="3" timestamp="2010-07-09T03:45:19Z" uid="74617" user="JohnSmith" changeset="5170825">
    <nd ref="278431227"/>
    <nd ref="278431077"/>
    <tag k="highway" v="residential"/>
    <tag k="maxspeed" v="50"/>
    <tag k="maxspeed:source" v="default residential speed limit in Australia"/>
    <tag k="name" v="Faldo Court"/>
  </way>
  <way id="25546221" version="4" timestamp="2010-07-09T03:52:02Z" uid="74617" user="JohnSmith" changeset="5170825">
    <nd ref="278431296"/>
    <nd ref="278431298"/>
    <nd ref="278431299"/>
    <nd ref="278431300"/>
    <nd ref="278430870"/>
    <tag k="highway" v="residential"/>
    <tag k="maxspeed" v="50"/>
    <tag k="maxspeed:source" v="default residential speed limit in Australia"/>
    <tag k="name" v="Devlin Court"/>
  </way>
  <way id="25546223" version="3" timestamp="2010-07-09T03:48:38Z" uid="74617" user="JohnSmith" changeset="5170825">
    <nd ref="278431340"/>
    <nd ref="278431341"/>
    <nd ref="278431087"/>
    <tag k="highway" v="residential"/>
    <tag k="maxspeed" v="50"/>
    <tag k="maxspeed:source" v="default residential speed limit in Australia"/>
    <tag k="name" v="Lukin Court"/>
  </way>
  <way id="25546225" version="4" timestamp="2010-07-09T03:50:11Z" uid="74617" user="JohnSmith" changeset="5170825">
    <nd ref="278431377"/>
    <nd ref="278430873"/>
    <tag k="highway" v="residential"/>
    <tag k="maxspeed" v="50"/>
    <tag k="maxspeed:source" v="default residential speed limit in Australia"/>
    <tag k="name" v="Hartley Court"/>
  </way>
  <way id="25546228" version="4" timestamp="2010-07-09T03:53:08Z" uid="74617" user="JohnSmith" changeset="5170825">
    <nd ref="278431542"/>
    <nd ref="278432512"/>
    <nd ref="278431545"/>
    <nd ref="278431546"/>
    <nd ref="278431547"/>
    <nd ref="278431548"/>
    <nd ref="278431549"/>
    <nd ref="278431550"/>
    <nd ref="278431551"/>
    <nd ref="277091323"/>
    <tag k="highway" v="residential"/>
    <tag k="maxspeed" v="50"/>
    <tag k="maxspeed:source" v="default residential speed limit in Australia"/>
    <tag k="name" v="Sycamore Street"/>
  </way>
  <way id="25546229" version="3" timestamp="2010-07-09T03:51:26Z" uid="74617" user="JohnSmith" changeset="5170825">
    <nd ref="278431607"/>
    <nd ref="278431608"/>
    <tag k="highway" v="residential"/>
    <tag k="maxspeed" v="50"/>
    <tag k="maxspeed:source" v="default residential speed limit in Australia"/>
    <tag k="name" v="Canary Court"/>
  </way>
  <way id="25546232" version="5" timestamp="2010-07-09T03:49:25Z" uid="74617" user="JohnSmith" changeset="5170825">
    <nd ref="278431866"/>
    <nd ref="278432510"/>
    <tag k="highway" v="residential"/>
    <tag k="maxspeed" v="50"/>
    <tag k="maxspeed:source" v="default residential speed limit in Australia"/>
    <tag k="name" v="Hoop Court"/>
  </way>
  <way id="25546238" version="3" timestamp="2010-07-09T03:47:02Z" uid="74617" user="JohnSmith" changeset="5170825">
    <nd ref="278432057"/>
    <nd ref="278432058"/>
    <nd ref="278432059"/>
    <nd ref="278432060"/>
    <nd ref="278432061"/>
    <tag k="highway" v="residential"/>
    <tag k="maxspeed" v="50"/>
    <tag k="maxspeed:source" v="default residential speed limit in Australia"/>
    <tag k="name" v="Sieben Close"/>
  </way>
  <way id="25546239" version="4" timestamp="2010-07-09T03:45:06Z" uid="74617" user="JohnSmith" changeset="5170825">
    <nd ref="278432085"/>
    <nd ref="278431608"/>
    <nd ref="278432088"/>
    <nd ref="278431547"/>
    <tag k="highway" v="residential"/>
    <tag k="maxspeed" v="50"/>
    <tag k="maxspeed:source" v="default residential speed limit in Australia"/>
    <tag k="name" v="Monterey Court"/>
  </way>
  <way id="25546242" version="4" timestamp="2010-07-09T03:50:15Z" uid="74617" user="JohnSmith" changeset="5170825">
    <nd ref="277091327"/>
    <nd ref="278432181"/>
    <nd ref="278432262"/>
    <nd ref="278432184"/>
    <nd ref="278432185"/>
    <nd ref="278432187"/>
    <nd ref="278432188"/>
    <nd ref="278432190"/>
    <nd ref="278432191"/>
    <nd ref="278432192"/>
    <nd ref="278432193"/>
    <nd ref="278432194"/>
    <nd ref="278432195"/>
    <nd ref="277091337"/>
    <tag k="highway" v="residential"/>
    <tag k="maxspeed" v="50"/>
    <tag k="maxspeed:source" v="default residential speed limit in Australia"/>
    <tag k="name" v="Konrads Crescent"/>
  </way>
  <way id="25546247" version="5" timestamp="2010-07-09T03:49:45Z" uid="74617" user="JohnSmith" changeset="5170825">
    <nd ref="278432204"/>
    <nd ref="278432187"/>
    <tag k="highway" v="residential"/>
    <tag k="maxspeed" v="50"/>
    <tag k="maxspeed:source" v="default residential speed limit in Australia"/>
    <tag k="name" v="Northam Court"/>
  </way>
  <way id="25546249" version="5" timestamp="2010-07-09T03:49:28Z" uid="74617" user="JohnSmith" changeset="5170825">
    <nd ref="278432214"/>
    <nd ref="278432188"/>
    <tag k="highway" v="residential"/>
    <tag k="maxspeed" v="50"/>
    <tag k="maxspeed:source" v="default residential speed limit in Australia"/>
    <tag k="name" v="Hendricks Court"/>
  </way>
  <way id="25546251" version="5" timestamp="2010-07-09T03:45:38Z" uid="74617" user="JohnSmith" changeset="5170825">
    <nd ref="278432245"/>
    <nd ref="278432181"/>
    <tag k="highway" v="residential"/>
    <tag k="maxspeed" v="50"/>
    <tag k="maxspeed:source" v="default residential speed limit in Australia"/>
    <tag k="name" v="Forbes Court"/>
  </way>
  <way id="25546253" version="4" timestamp="2010-07-09T03:50:43Z" uid="74617" user="JohnSmith" changeset="5170825">
    <nd ref="278432261"/>
    <nd ref="539430653"/>
    <nd ref="278432262"/>
    <tag k="highway" v="residential"/>
    <tag k="maxspeed" v="50"/>
    <tag k="maxspeed:source" v="default residential speed limit in Australia"/>
    <tag k="name" v="Cuneo Court"/>
  </way>
  <way id="25546258" version="3" timestamp="2010-07-09T03:46:51Z" uid="74617" user="JohnSmith" changeset="5170825">
    <nd ref="278432504"/>
    <nd ref="278432505"/>
    <nd ref="278432506"/>
    <nd ref="278432507"/>
    <tag k="highway" v="residential"/>
    <tag k="maxspeed" v="50"/>
    <tag k="maxspeed:source" v="default residential speed limit in Australia"/>
    <tag k="name" v="Citrus Close"/>
  </way>
  <way id="25546259" version="3" timestamp="2010-07-09T03:44:57Z" uid="74617" user="JohnSmith" changeset="5170825">
    <nd ref="278432509"/>
    <nd ref="278432510"/>
    <nd ref="278432511"/>
    <nd ref="278432512"/>
    <tag k="highway" v="residential"/>
    <tag k="maxspeed" v="50"/>
    <tag k="maxspeed:source" v="default residential speed limit in Australia"/>
    <tag k="name" v="Radiata Court"/>
  </way>
  <way id="25546260" version="3" timestamp="2010-07-09T03:51:46Z" uid="74617" user="JohnSmith" changeset="5170825">
    <nd ref="278432518"/>
    <nd ref="278432519"/>
    <nd ref="278432520"/>
    <nd ref="278432521"/>
    <tag k="highway" v="residential"/>
    <tag k="maxspeed" v="50"/>
    <tag k="maxspeed:source" v="default residential speed limit in Australia"/>
    <tag k="name" v="Winter Court"/>
  </way>
  <way id="25546261" version="6" timestamp="2010-07-09T03:50:03Z" uid="74617" user="JohnSmith" changeset="5170825">
    <nd ref="277091343"/>
    <nd ref="278432525"/>
    <nd ref="278432526"/>
    <nd ref="278432527"/>
    <nd ref="278432521"/>
    <nd ref="278432529"/>
    <nd ref="278432530"/>
    <nd ref="278432531"/>
    <nd ref="278432534"/>
    <nd ref="278432535"/>
    <nd ref="278432536"/>
    <nd ref="278432537"/>
    <nd ref="278432538"/>
    <nd ref="278432539"/>
    <nd ref="278432540"/>
    <nd ref="277091350"/>
    <tag k="highway" v="residential"/>
    <tag k="maxspeed" v="50"/>
    <tag k="maxspeed:source" v="default residential speed limit in Australia"/>
    <tag k="name" v="Madigan Crescent"/>
  </way>
  <way id="25546262" version="3" timestamp="2010-07-09T03:48:18Z" uid="74617" user="JohnSmith" changeset="5170825">
    <nd ref="278432590"/>
    <nd ref="277091555"/>
    <tag k="highway" v="residential"/>
    <tag k="maxspeed" v="50"/>
    <tag k="maxspeed:source" v="default residential speed limit in Australia"/>
    <tag k="name" v="Kambala Close"/>
  </way>
  <way id="25546265" version="3" timestamp="2010-07-09T03:45:59Z" uid="74617" user="JohnSmith" changeset="5170825">
    <nd ref="278432663"/>
    <nd ref="278432664"/>
    <nd ref="278432665"/>
    <nd ref="277091340"/>
    <tag k="highway" v="residential"/>
    <tag k="maxspeed" v="50"/>
    <tag k="maxspeed:source" v="default residential speed limit in Australia"/>
    <tag k="name" v="Landy Close"/>
  </way>
  <way id="25546268" version="4" timestamp="2010-07-09T03:49:20Z" uid="74617" user="JohnSmith" changeset="5170825">
    <nd ref="278432683"/>
    <nd ref="278432684"/>
    <nd ref="277091563"/>
    <tag k="highway" v="residential"/>
    <tag k="maxspeed" v="50"/>
    <tag k="maxspeed:source" v="default residential speed limit in Australia"/>
    <tag k="name" v="Avonmore Close"/>
  </way>
  <way id="25546275" version="7" timestamp="2010-07-09T03:50:21Z" uid="74617" user="JohnSmith" changeset="5170825">
    <nd ref="278432925"/>
    <nd ref="278432927"/>
    <nd ref="613440992"/>
    <nd ref="278432928"/>
    <nd ref="613440993"/>
    <nd ref="278432930"/>
    <nd ref="278432932"/>
    <nd ref="278432933"/>
    <nd ref="278432934"/>
    <nd ref="277093491"/>
    <tag k="highway" v="residential"/>
    <tag k="maxspeed" v="50"/>
    <tag k="maxspeed:source" v="default residential speed limit in Australia"/>
    <tag k="name" v="Kingston Town Crescent"/>
  </way>
  <way id="25546276" version="5" timestamp="2010-07-09T03:48:38Z" uid="74617" user="JohnSmith" changeset="5170825">
    <nd ref="278432949"/>
    <nd ref="278432950"/>
    <nd ref="278432193"/>
    <tag k="highway" v="residential"/>
    <tag k="maxspeed" v="50"/>
    <tag k="maxspeed:source" v="default residential speed limit in Australia"/>
    <tag k="name" v="Berry Court"/>
  </way>
  <way id="25546281" version="5" timestamp="2010-07-09T03:51:19Z" uid="74617" user="JohnSmith" changeset="5170825">
    <nd ref="278433012"/>
    <nd ref="613440933"/>
    <nd ref="278433013"/>
    <nd ref="277093394"/>
    <tag k="highway" v="residential"/>
    <tag k="maxspeed" v="50"/>
    <tag k="maxspeed:source" v="default residential speed limit in Australia"/>
    <tag k="name" v="Vain Close"/>
  </way>
  <way id="25546282" version="4" timestamp="2010-07-09T03:49:35Z" uid="74617" user="JohnSmith" changeset="5170825">
    <nd ref="278433029"/>
    <nd ref="278432928"/>
    <tag k="highway" v="residential"/>
    <tag k="maxspeed" v="50"/>
    <tag k="maxspeed:source" v="default residential speed limit in Australia"/>
    <tag k="name" v="Watermill Court"/>
  </way>
  <way id="25546283" version="4" timestamp="2010-07-09T03:47:42Z" uid="74617" user="JohnSmith" changeset="5170825">
    <nd ref="278433043"/>
    <nd ref="278432932"/>
    <tag k="highway" v="residential"/>
    <tag k="maxspeed" v="50"/>
    <tag k="maxspeed:source" v="default residential speed limit in Australia"/>
    <tag k="name" v="Raffindale Court"/>
  </way>
  <way id="25546286" version="4" timestamp="2010-07-09T03:50:49Z" uid="74617" user="JohnSmith" changeset="5170825">
    <nd ref="278433106"/>
    <nd ref="278432933"/>
    <tag k="highway" v="residential"/>
    <tag k="maxspeed" v="50"/>
    <tag k="maxspeed:source" v="default residential speed limit in Australia"/>
    <tag k="name" v="Kiwi Court"/>
  </way>
  <way id="25546288" version="5" timestamp="2010-07-09T03:52:18Z" uid="74617" user="JohnSmith" changeset="5170825">
    <nd ref="278433128"/>
    <nd ref="278432934"/>
    <tag k="highway" v="residential"/>
    <tag k="maxspeed" v="50"/>
    <tag k="maxspeed:source" v="default residential speed limit in Australia"/>
    <tag k="name" v="Heroic Court"/>
  </way>
  <way id="25546296" version="5" timestamp="2010-07-09T03:49:51Z" uid="74617" user="JohnSmith" changeset="5170825">
    <nd ref="613440584"/>
    <nd ref="278433320"/>
    <nd ref="278432538"/>
    <tag k="highway" v="residential"/>
    <tag k="maxspeed" v="50"/>
    <tag k="maxspeed:source" v="default residential speed limit in Australia"/>
    <tag k="name" v="Hogan Place"/>
  </way>
  <way id="25546301" version="6" timestamp="2010-07-09T03:49:24Z" uid="74617" user="JohnSmith" changeset="5170825">
    <nd ref="277091324"/>
    <nd ref="277091675"/>
    <nd ref="277091676"/>
    <nd ref="277091677"/>
    <nd ref="277091678"/>
    <nd ref="277091679"/>
    <nd ref="278433981"/>
    <nd ref="278432507"/>
    <nd ref="277091681"/>
    <nd ref="277091682"/>
    <nd ref="277091553"/>
    <tag k="highway" v="residential"/>
    <tag k="maxspeed" v="50"/>
    <tag k="maxspeed:source" v="default residential speed limit in Australia"/>
    <tag k="name" v="Appletree Drive"/>
  </way>
  <way id="25546308" version="4" timestamp="2010-07-09T03:50:28Z" uid="74617" user="JohnSmith" changeset="5170825">
    <nd ref="278432636"/>
    <nd ref="278432637"/>
    <nd ref="277091681"/>
    <tag k="highway" v="residential"/>
    <tag k="maxspeed" v="50"/>
    <tag k="maxspeed:source" v="default residential speed limit in Australia"/>
    <tag k="name" v="Brentfield Court"/>
  </way>
  <way id="25546311" version="4" timestamp="2010-07-09T03:44:51Z" uid="74617" user="JohnSmith" changeset="5170825">
    <nd ref="278433627"/>
    <nd ref="277091321"/>
    <tag k="highway" v="residential"/>
    <tag k="maxspeed" v="50"/>
    <tag k="maxspeed:source" v="default residential speed limit in Australia"/>
    <tag k="name" v="Tecoma Court"/>
  </way>
  <way id="25546312" version="3" timestamp="2010-07-09T03:46:27Z" uid="74617" user="JohnSmith" changeset="5170825">
    <nd ref="278433709"/>
    <nd ref="278433710"/>
    <nd ref="277091675"/>
    <tag k="highway" v="residential"/>
    <tag k="maxspeed" v="50"/>
    <tag k="maxspeed:source" v="default residential speed limit in Australia"/>
    <tag k="name" v="Honeysuckle Court"/>
  </way>
  <way id="25546313" version="4" timestamp="2010-07-09T05:08:59Z" uid="74617" user="JohnSmith" changeset="5170972">
    <nd ref="277871047"/>
    <nd ref="277871956"/>
    <nd ref="277871947"/>
    <nd ref="279945673"/>
    <tag k="highway" v="unclassified"/>
    <tag k="maxspeed" v="50"/>
    <tag k="maxspeed:source" v="default residential speed limit in Australia"/>
    <tag k="name" v="Cameron Street"/>
    <tag k="railway" v="tram"/>
    <tag k="service" v="spur"/>
  </way>
  <way id="25546314" version="2" timestamp="2010-07-09T03:01:23Z" uid="74617" user="JohnSmith" changeset="5170739">
    <nd ref="278433673"/>
    <nd ref="278433681"/>
    <nd ref="278433688"/>
    <nd ref="278433677"/>
    <tag k="highway" v="residential"/>
    <tag k="maxspeed" v="50"/>
    <tag k="maxspeed:source" v="default residential speed limit in Australia"/>
    <tag k="name" v="Allen Street"/>
  </way>
  <way id="25546319" version="2" timestamp="2010-07-09T03:01:54Z" uid="74617" user="JohnSmith" changeset="5170739">
    <nd ref="278433719"/>
    <nd ref="278433715"/>
    <nd ref="278433723"/>
    <nd ref="278433727"/>
    <tag k="highway" v="residential"/>
    <tag k="maxspeed" v="50"/>
    <tag k="maxspeed:source" v="default residential speed limit in Australia"/>
    <tag k="name" v="Wolseley Street"/>
  </way>
  <way id="25546320" version="3" timestamp="2010-07-09T03:45:42Z" uid="74617" user="JohnSmith" changeset="5170825">
    <nd ref="278433756"/>
    <nd ref="278433757"/>
    <nd ref="278433758"/>
    <tag k="highway" v="residential"/>
    <tag k="maxspeed" v="50"/>
    <tag k="maxspeed:source" v="default residential speed limit in Australia"/>
    <tag k="name" v="Protea Court"/>
  </way>
  <way id="25546321" version="2" timestamp="2010-07-09T02:58:23Z" uid="74617" user="JohnSmith" changeset="5170739">
    <nd ref="278433728"/>
    <nd ref="278433706"/>
    <nd ref="278433719"/>
    <nd ref="242744715"/>
    <tag k="highway" v="residential"/>
    <tag k="maxspeed" v="50"/>
    <tag k="maxspeed:source" v="default residential speed limit in Australia"/>
    <tag k="name" v="The Avenue"/>
  </way>
  <way id="25546322" version="3" timestamp="2010-07-09T03:50:46Z" uid="74617" user="JohnSmith" changeset="5170825">
    <nd ref="278433783"/>
    <nd ref="278433784"/>
    <nd ref="277091682"/>
    <tag k="highway" v="residential"/>
    <tag k="maxspeed" v="50"/>
    <tag k="maxspeed:source" v="default residential speed limit in Australia"/>
    <tag k="name" v="Tenterden Place"/>
  </way>
  <way id="25546327" version="3" timestamp="2010-07-09T03:50:18Z" uid="74617" user="JohnSmith" changeset="5170825">
    <nd ref="278433827"/>
    <nd ref="277091313"/>
    <tag k="highway" v="residential"/>
    <tag k="maxspeed" v="50"/>
    <tag k="maxspeed:source" v="default residential speed limit in Australia"/>
    <tag k="name" v="Figtree Court"/>
  </way>
  <way id="25546330" version="4" timestamp="2010-07-09T03:48:12Z" uid="74617" user="JohnSmith" changeset="5170825">
    <nd ref="277091301"/>
    <nd ref="277091302"/>
    <nd ref="277091303"/>
    <nd ref="277091304"/>
    <nd ref="277091306"/>
    <nd ref="277091307"/>
    <nd ref="277091308"/>
    <nd ref="277091309"/>
    <nd ref="277091310"/>
    <nd ref="277091312"/>
    <nd ref="277091313"/>
    <nd ref="277091314"/>
    <nd ref="277091315"/>
    <nd ref="278433758"/>
    <nd ref="277091317"/>
    <nd ref="277091318"/>
    <nd ref="277091319"/>
    <nd ref="277091320"/>
    <nd ref="277091321"/>
    <nd ref="277091323"/>
    <nd ref="277091324"/>
    <nd ref="278432061"/>
    <nd ref="277091325"/>
    <nd ref="539430412"/>
    <nd ref="539430414"/>
    <tag k="highway" v="residential"/>
    <tag k="maxspeed" v="50"/>
    <tag k="maxspeed:source" v="default residential speed limit in Australia"/>
    <tag k="name" v="Roycroft Avenue"/>
  </way>
  <way id="25546355" version="4" timestamp="2010-07-09T03:50:53Z" uid="74617" user="JohnSmith" changeset="5170825">
    <nd ref="278433981"/>
    <nd ref="278433982"/>
    <nd ref="278433983"/>
    <nd ref="278433984"/>
    <nd ref="278433985"/>
    <nd ref="277091314"/>
    <tag k="highway" v="residential"/>
    <tag k="maxspeed" v="50"/>
    <tag k="maxspeed:source" v="default residential speed limit in Australia"/>
    <tag k="name" v="Chestnut Road"/>
  </way>
  <way id="25546358" version="3" timestamp="2010-07-09T03:45:21Z" uid="74617" user="JohnSmith" changeset="5170825">
    <nd ref="278434354"/>
    <nd ref="277091676"/>
    <tag k="highway" v="residential"/>
    <tag k="maxspeed" v="50"/>
    <tag k="maxspeed:source" v="default residential speed limit in Australia"/>
    <tag k="name" v="Birch Court"/>
  </way>
  <way id="25546361" version="3" timestamp="2010-07-09T03:51:48Z" uid="74617" user="JohnSmith" changeset="5170825">
    <nd ref="278434468"/>
    <nd ref="278434469"/>
    <nd ref="278434470"/>
    <nd ref="277091309"/>
    <tag k="highway" v="residential"/>
    <tag k="maxspeed" v="50"/>
    <tag k="maxspeed:source" v="default residential speed limit in Australia"/>
    <tag k="name" v="Nandina Court"/>
  </way>
  <way id="25546362" version="3" timestamp="2010-07-09T03:50:06Z" uid="74617" user="JohnSmith" changeset="5170825">
    <nd ref="278434507"/>
    <nd ref="278433983"/>
    <tag k="highway" v="residential"/>
    <tag k="maxspeed" v="50"/>
    <tag k="maxspeed:source" v="default residential speed limit in Australia"/>
    <tag k="name" v="Ribbon Court"/>
  </way>
  <way id="25546363" version="3" timestamp="2010-07-09T03:48:20Z" uid="74617" user="JohnSmith" changeset="5170825">
    <nd ref="278434512"/>
    <nd ref="278434513"/>
    <nd ref="278434514"/>
    <nd ref="277091549"/>
    <tag k="highway" v="residential"/>
    <tag k="maxspeed" v="50"/>
    <tag k="maxspeed:source" v="default residential speed limit in Australia"/>
    <tag k="name" v="Hawthorn Court"/>
  </way>
  <way id="25546364" version="3" timestamp="2010-07-09T03:46:22Z" uid="74617" user="JohnSmith" changeset="5170825">
    <nd ref="278434536"/>
    <nd ref="277091551"/>
    <tag k="highway" v="residential"/>
    <tag k="maxspeed" v="50"/>
    <tag k="maxspeed:source" v="default residential speed limit in Australia"/>
    <tag k="name" v="Glenlea Court"/>
  </way>
  <way id="25546369" version="3" timestamp="2010-07-09T03:51:10Z" uid="74617" user="JohnSmith" changeset="5170825">
    <nd ref="278434635"/>
    <nd ref="278434637"/>
    <nd ref="278434638"/>
    <nd ref="277091550"/>
    <tag k="highway" v="residential"/>
    <tag k="maxspeed" v="50"/>
    <tag k="maxspeed:source" v="default residential speed limit in Australia"/>
    <tag k="name" v="Fairwyn Close"/>
  </way>
  <way id="25546370" version="3" timestamp="2010-07-09T03:49:26Z" uid="74617" user="JohnSmith" changeset="5170825">
    <nd ref="278434667"/>
    <nd ref="278434668"/>
    <nd ref="278434669"/>
    <nd ref="277091556"/>
    <tag k="highway" v="residential"/>
    <tag k="maxspeed" v="50"/>
    <tag k="maxspeed:source" v="default residential speed limit in Australia"/>
    <tag k="name" v="Dalbury Place"/>
  </way>
  <way id="25546373" version="6" timestamp="2010-07-09T03:52:21Z" uid="74617" user="JohnSmith" changeset="5170825">
    <nd ref="278434800"/>
    <nd ref="278434803"/>
    <nd ref="278434804"/>
    <nd ref="278434805"/>
    <nd ref="278434806"/>
    <nd ref="278434807"/>
    <nd ref="278434808"/>
    <nd ref="278434809"/>
    <nd ref="278434810"/>
    <nd ref="278434811"/>
    <nd ref="278434812"/>
    <nd ref="278434813"/>
    <nd ref="278434814"/>
    <nd ref="278435166"/>
    <nd ref="278434817"/>
    <nd ref="278434818"/>
    <nd ref="278434819"/>
    <nd ref="277091769"/>
    <tag k="highway" v="residential"/>
    <tag k="maxspeed" v="50"/>
    <tag k="maxspeed:source" v="default residential speed limit in Australia"/>
    <tag k="name" v="Maybury Drive"/>
  </way>
  <way id="25546373" version="7" timestamp="2011-03-06T08:52:52Z" uid="4467" user="Rosscoe" changeset="7470703">
    <nd ref="278434800"/>
    <nd ref="278434803"/>
    <nd ref="278434804"/>
    <nd ref="278434805"/>
    <nd ref="278434806"/>
    <nd ref="278434807"/>
    <nd ref="278434808"/>
    <nd ref="278434809"/>
    <nd ref="278434810"/>
    <nd ref="278434811"/>
    <nd ref="278434812"/>
    <nd ref="278434813"/>
    <nd ref="278434814"/>
    <nd ref="278435166"/>
    <nd ref="278434817"/>
    <nd ref="278434818"/>
    <nd ref="278434819"/>
    <nd ref="277091769"/>
    <tag k="highway" v="residential"/>
    <tag k="maxspeed" v="50"/>
    <tag k="name" v="Maybury Drive"/>
    <tag k="source:maxspeed" v="default residential speed limit in Australia"/>
  </way>
  <way id="25546374" version="4" timestamp="2010-07-09T02:58:19Z" uid="74617" user="JohnSmith" changeset="5170739">
    <nd ref="278434794"/>
    <nd ref="278433668"/>
    <nd ref="278436111"/>
    <nd ref="278436121"/>
    <nd ref="278434799"/>
    <tag k="highway" v="residential"/>
    <tag k="maxspeed" v="50"/>
    <tag k="maxspeed:source" v="default residential speed limit in Australia"/>
    <tag k="name" v="Carron Street"/>
  </way>
  <way id="25546376" version="5" timestamp="2010-07-09T03:50:24Z" uid="74617" user="JohnSmith" changeset="5170825">
    <nd ref="278434855"/>
    <nd ref="275231286"/>
    <tag k="highway" v="residential"/>
    <tag k="maxspeed" v="50"/>
    <tag k="maxspeed:source" v="default residential speed limit in Australia"/>
    <tag k="name" v="Comeran Court"/>
  </way>
  <way id="25546377" version="4" timestamp="2010-07-09T03:48:40Z" uid="74617" user="JohnSmith" changeset="5170825">
    <nd ref="278434904"/>
    <nd ref="278434906"/>
    <nd ref="278434907"/>
    <nd ref="278434803"/>
    <tag k="highway" v="residential"/>
    <tag k="maxspeed" v="50"/>
    <tag k="maxspeed:source" v="default residential speed limit in Australia"/>
    <tag k="name" v="Nevern Court"/>
  </way>
  <way id="25546381" version="4" timestamp="2010-07-09T03:49:54Z" uid="74617" user="JohnSmith" changeset="5170825">
    <nd ref="278434979"/>
    <nd ref="613440888"/>
    <nd ref="278434980"/>
    <nd ref="278434804"/>
    <tag k="highway" v="residential"/>
    <tag k="maxspeed" v="50"/>
    <tag k="maxspeed:source" v="default residential speed limit in Australia"/>
    <tag k="name" v="Santley Close"/>
  </way>
  <way id="25546385" version="4" timestamp="2010-07-09T03:47:54Z" uid="74617" user="JohnSmith" changeset="5170825">
    <nd ref="278435004"/>
    <nd ref="278434807"/>
    <tag k="highway" v="residential"/>
    <tag k="maxspeed" v="50"/>
    <tag k="maxspeed:source" v="default residential speed limit in Australia"/>
    <tag k="name" v="Glencairn Place"/>
  </way>
  <way id="25546388" version="4" timestamp="2010-07-09T03:51:01Z" uid="74617" user="JohnSmith" changeset="5170825">
    <nd ref="278435063"/>
    <nd ref="278435065"/>
    <nd ref="278435066"/>
    <nd ref="278435067"/>
    <nd ref="278434809"/>
    <tag k="highway" v="residential"/>
    <tag k="maxspeed" v="50"/>
    <tag k="maxspeed:source" v="default residential speed limit in Australia"/>
    <tag k="name" v="Albyn Court"/>
  </way>
  <way id="25546389" version="3" timestamp="2010-07-09T03:49:18Z" uid="74617" user="JohnSmith" changeset="5170825">
    <nd ref="278435094"/>
    <nd ref="278434810"/>
    <tag k="highway" v="residential"/>
    <tag k="maxspeed" v="50"/>
    <tag k="maxspeed:source" v="default residential speed limit in Australia"/>
    <tag k="name" v="Bolina Court"/>
  </way>
  <way id="25546391" version="3" timestamp="2010-07-09T03:45:26Z" uid="74617" user="JohnSmith" changeset="5170825">
    <nd ref="278435123"/>
    <nd ref="278435124"/>
    <nd ref="278434812"/>
    <tag k="highway" v="residential"/>
    <tag k="maxspeed" v="50"/>
    <tag k="maxspeed:source" v="default residential speed limit in Australia"/>
    <tag k="name" v="Layton Place"/>
  </way>
  <way id="25546394" version="3" timestamp="2010-07-09T03:51:53Z" uid="74617" user="JohnSmith" changeset="5170825">
    <nd ref="278435162"/>
    <nd ref="278435163"/>
    <nd ref="278435164"/>
    <nd ref="278435165"/>
    <nd ref="278435166"/>
    <tag k="highway" v="residential"/>
    <tag k="maxspeed" v="50"/>
    <tag k="maxspeed:source" v="default residential speed limit in Australia"/>
    <tag k="name" v="Royston Close"/>
  </way>
  <way id="25546402" version="3" timestamp="2010-07-09T03:51:17Z" uid="74617" user="JohnSmith" changeset="5170825">
    <nd ref="278435206"/>
    <nd ref="278434817"/>
    <tag k="highway" v="residential"/>
    <tag k="maxspeed" v="50"/>
    <tag k="maxspeed:source" v="default residential speed limit in Australia"/>
    <tag k="name" v="Orsett Court"/>
  </way>
  <way id="25546402" version="4" timestamp="2011-03-06T08:53:39Z" uid="4467" user="Rosscoe" changeset="7470703">
    <nd ref="278435206"/>
    <nd ref="278434817"/>
    <tag k="highway" v="residential"/>
    <tag k="maxspeed" v="50"/>
    <tag k="name" v="Orsett Court"/>
    <tag k="source:maxspeed" v="default residential speed limit in Australia"/>
  </way>
  <way id="25546403" version="5" timestamp="2010-07-09T03:49:33Z" uid="74617" user="JohnSmith" changeset="5170825">
    <nd ref="277091772"/>
    <nd ref="278435263"/>
    <nd ref="278435264"/>
    <nd ref="278435266"/>
    <nd ref="278435267"/>
    <nd ref="278434805"/>
    <tag k="highway" v="residential"/>
    <tag k="maxspeed" v="50"/>
    <tag k="maxspeed:source" v="default residential speed limit in Australia"/>
    <tag k="name" v="Pensbury Avenue"/>
  </way>
  <way id="25546403" version="6" timestamp="2011-03-06T08:55:27Z" uid="4467" user="Rosscoe" changeset="7470703">
    <nd ref="277091772"/>
    <nd ref="278435263"/>
    <nd ref="278435264"/>
    <nd ref="278435266"/>
    <nd ref="278435267"/>
    <nd ref="278434805"/>
    <tag k="highway" v="residential"/>
    <tag k="maxspeed" v="50"/>
    <tag k="name" v="Pensbury Avenue"/>
    <tag k="source:maxspeed" v="default residential speed limit in Australia"/>
  </way>
  <way id="25546409" version="3" timestamp="2010-07-09T03:50:31Z" uid="74617" user="JohnSmith" changeset="5170825">
    <nd ref="278435279"/>
    <nd ref="278435266"/>
    <tag k="highway" v="residential"/>
    <tag k="maxspeed" v="50"/>
    <tag k="maxspeed:source" v="default residential speed limit in Australia"/>
    <tag k="name" v="Norbroke Court"/>
  </way>
  <way id="25546414" version="3" timestamp="2010-07-09T03:50:01Z" uid="74617" user="JohnSmith" changeset="5170825">
    <nd ref="278435330"/>
    <nd ref="278435331"/>
    <nd ref="278435333"/>
    <nd ref="278435264"/>
    <tag k="highway" v="residential"/>
    <tag k="maxspeed" v="50"/>
    <tag k="maxspeed:source" v="default residential speed limit in Australia"/>
    <tag k="name" v="Stradella Close"/>
  </way>
  <way id="25546446" version="4" timestamp="2010-07-09T03:51:49Z" uid="74617" user="JohnSmith" changeset="5170825">
    <nd ref="278435374"/>
    <nd ref="277091561"/>
    <tag k="highway" v="residential"/>
    <tag k="maxspeed" v="50"/>
    <tag k="maxspeed:source" v="default residential speed limit in Australia"/>
    <tag k="name" v="Heygate Court"/>
  </way>
  <way id="25546449" version="5" timestamp="2010-07-09T03:51:40Z" uid="74617" user="JohnSmith" changeset="5170825">
    <nd ref="277091310"/>
    <nd ref="278435397"/>
    <nd ref="278435398"/>
    <nd ref="278435426"/>
    <nd ref="278435400"/>
    <nd ref="278435401"/>
    <nd ref="278435402"/>
    <nd ref="278435403"/>
    <nd ref="278435404"/>
    <nd ref="278435405"/>
    <nd ref="278435406"/>
    <nd ref="278435407"/>
    <nd ref="278435408"/>
    <nd ref="278435409"/>
    <nd ref="278435410"/>
    <nd ref="278435411"/>
    <nd ref="278435412"/>
    <nd ref="278435413"/>
    <nd ref="278435414"/>
    <nd ref="277091542"/>
    <tag k="highway" v="residential"/>
    <tag k="maxspeed" v="50"/>
    <tag k="maxspeed:source" v="default residential speed limit in Australia"/>
    <tag k="name" v="Jasmine Drive"/>
  </way>
  <way id="25546449" version="6" timestamp="2011-03-06T08:54:11Z" uid="4467" user="Rosscoe" changeset="7470703">
    <nd ref="277091310"/>
    <nd ref="278435397"/>
    <nd ref="278435398"/>
    <nd ref="278435426"/>
    <nd ref="278435400"/>
    <nd ref="278435401"/>
    <nd ref="278435402"/>
    <nd ref="278435403"/>
    <nd ref="278435404"/>
    <nd ref="278435405"/>
    <nd ref="278435406"/>
    <nd ref="278435407"/>
    <nd ref="278435408"/>
    <nd ref="278435409"/>
    <nd ref="278435410"/>
    <nd ref="278435411"/>
    <nd ref="278435412"/>
    <nd ref="278435413"/>
    <nd ref="278435414"/>
    <nd ref="277091542"/>
    <tag k="highway" v="residential"/>
    <tag k="maxspeed" v="50"/>
    <tag k="name" v="Jasmine Drive"/>
    <tag k="source:maxspeed" v="default residential speed limit in Australia"/>
  </way>
  <way id="25546451" version="3" timestamp="2010-07-09T03:48:10Z" uid="74617" user="JohnSmith" changeset="5170825">
    <nd ref="278435425"/>
    <nd ref="278435426"/>
    <tag k="highway" v="residential"/>
    <tag k="maxspeed" v="50"/>
    <tag k="maxspeed:source" v="default residential speed limit in Australia"/>
    <tag k="name" v="Bamboo Court"/>
  </way>
  <way id="25546451" version="4" timestamp="2011-03-06T08:53:36Z" uid="4467" user="Rosscoe" changeset="7470703">
    <nd ref="278435425"/>
    <nd ref="278435426"/>
    <tag k="highway" v="residential"/>
    <tag k="maxspeed" v="50"/>
    <tag k="name" v="Bamboo Court"/>
    <tag k="source:maxspeed" v="default residential speed limit in Australia"/>
  </way>
  <way id="25546452" version="3" timestamp="2010-07-09T03:46:12Z" uid="74617" user="JohnSmith" changeset="5170825">
    <nd ref="278435427"/>
    <nd ref="277091307"/>
    <tag k="highway" v="residential"/>
    <tag k="maxspeed" v="50"/>
    <tag k="maxspeed:source" v="default residential speed limit in Australia"/>
    <tag k="name" v="Lavender Court"/>
  </way>
  <way id="25546452" version="4" timestamp="2011-03-06T08:54:01Z" uid="4467" user="Rosscoe" changeset="7470703">
    <nd ref="278435427"/>
    <nd ref="277091307"/>
    <tag k="highway" v="residential"/>
    <tag k="maxspeed" v="50"/>
    <tag k="name" v="Lavender Court"/>
    <tag k="source:maxspeed" v="default residential speed limit in Australia"/>
  </way>
  <way id="25546455" version="3" timestamp="2010-07-09T03:49:29Z" uid="74617" user="JohnSmith" changeset="5170825">
    <nd ref="278435438"/>
    <nd ref="277091306"/>
    <tag k="highway" v="residential"/>
    <tag k="maxspeed" v="50"/>
    <tag k="maxspeed:source" v="default residential speed limit in Australia"/>
    <tag k="name" v="Alder Court"/>
  </way>
  <way id="25546455" version="4" timestamp="2011-03-06T08:55:12Z" uid="4467" user="Rosscoe" changeset="7470703">
    <nd ref="278435438"/>
    <nd ref="277091306"/>
    <tag k="highway" v="residential"/>
    <tag k="maxspeed" v="50"/>
    <tag k="name" v="Alder Court"/>
    <tag k="source:maxspeed" v="default residential speed limit in Australia"/>
  </way>
  <way id="25546456" version="3" timestamp="2010-07-09T03:50:56Z" uid="74617" user="JohnSmith" changeset="5170825">
    <nd ref="278435439"/>
    <nd ref="278435440"/>
    <nd ref="277091547"/>
    <tag k="highway" v="residential"/>
    <tag k="maxspeed" v="50"/>
    <tag k="maxspeed:source" v="default residential speed limit in Australia"/>
    <tag k="name" v="Conifer Close"/>
  </way>
  <way id="25546456" version="4" timestamp="2011-03-06T08:55:04Z" uid="4467" user="Rosscoe" changeset="7470703">
    <nd ref="278435439"/>
    <nd ref="278435440"/>
    <nd ref="277091547"/>
    <tag k="highway" v="residential"/>
    <tag k="maxspeed" v="50"/>
    <tag k="name" v="Conifer Close"/>
    <tag k="source:maxspeed" v="default residential speed limit in Australia"/>
  </way>
  <way id="25546458" version="3" timestamp="2010-07-09T03:47:19Z" uid="74617" user="JohnSmith" changeset="5170825">
    <nd ref="278435451"/>
    <nd ref="278435452"/>
    <nd ref="278435413"/>
    <tag k="highway" v="residential"/>
    <tag k="maxspeed" v="50"/>
    <tag k="maxspeed:source" v="default residential speed limit in Australia"/>
    <tag k="name" v="Bellevue Court"/>
  </way>
  <way id="25546458" version="4" timestamp="2011-03-06T08:54:18Z" uid="4467" user="Rosscoe" changeset="7470703">
    <nd ref="278435451"/>
    <nd ref="278435452"/>
    <nd ref="278435413"/>
    <tag k="highway" v="residential"/>
    <tag k="maxspeed" v="50"/>
    <tag k="name" v="Bellevue Court"/>
    <tag k="source:maxspeed" v="default residential speed limit in Australia"/>
  </way>
  <way id="25546466" version="3" timestamp="2010-07-09T03:46:33Z" uid="74617" user="JohnSmith" changeset="5170825">
    <nd ref="278435498"/>
    <nd ref="278435499"/>
    <nd ref="278435406"/>
    <tag k="highway" v="residential"/>
    <tag k="maxspeed" v="50"/>
    <tag k="maxspeed:source" v="default residential speed limit in Australia"/>
    <tag k="name" v="Magenta Court"/>
  </way>
  <way id="25546466" version="4" timestamp="2011-03-06T08:52:56Z" uid="4467" user="Rosscoe" changeset="7470703">
    <nd ref="278435498"/>
    <nd ref="278435499"/>
    <nd ref="278435406"/>
    <tag k="highway" v="residential"/>
    <tag k="maxspeed" v="50"/>
    <tag k="name" v="Magenta Court"/>
    <tag k="source:maxspeed" v="default residential speed limit in Australia"/>
  </way>
  <way id="25546471" version="3" timestamp="2010-07-09T03:46:00Z" uid="74617" user="JohnSmith" changeset="5170825">
    <nd ref="278435409"/>
    <nd ref="278435563"/>
    <nd ref="278435564"/>
    <nd ref="278435565"/>
    <nd ref="278435566"/>
    <nd ref="278435567"/>
    <nd ref="277091548"/>
    <tag k="highway" v="residential"/>
    <tag k="maxspeed" v="50"/>
    <tag k="maxspeed:source" v="default residential speed limit in Australia"/>
    <tag k="name" v="Norwood Road"/>
  </way>
  <way id="25546471" version="4" timestamp="2011-03-06T08:53:30Z" uid="4467" user="Rosscoe" changeset="7470703">
    <nd ref="278435409"/>
    <nd ref="278435563"/>
    <nd ref="278435564"/>
    <nd ref="278435565"/>
    <nd ref="278435566"/>
    <nd ref="278435567"/>
    <nd ref="277091548"/>
    <tag k="highway" v="residential"/>
    <tag k="maxspeed" v="50"/>
    <tag k="name" v="Norwood Road"/>
    <tag k="source:maxspeed" v="default residential speed limit in Australia"/>
  </way>
  <way id="25546472" version="3" timestamp="2010-07-09T03:47:36Z" uid="74617" user="JohnSmith" changeset="5170825">
    <nd ref="278435568"/>
    <nd ref="278435564"/>
    <tag k="highway" v="residential"/>
    <tag k="maxspeed" v="50"/>
    <tag k="maxspeed:source" v="default residential speed limit in Australia"/>
    <tag k="name" v="Woodvale Court"/>
  </way>
  <way id="25546472" version="4" timestamp="2011-03-06T08:53:24Z" uid="4467" user="Rosscoe" changeset="7470703">
    <nd ref="278435568"/>
    <nd ref="278435564"/>
    <tag k="highway" v="residential"/>
    <tag k="maxspeed" v="50"/>
    <tag k="name" v="Woodvale Court"/>
    <tag k="source:maxspeed" v="default residential speed limit in Australia"/>
  </way>
  <way id="25546475" version="3" timestamp="2010-07-09T03:50:44Z" uid="74617" user="JohnSmith" changeset="5170825">
    <nd ref="278435574"/>
    <nd ref="278435575"/>
    <nd ref="278435411"/>
    <tag k="highway" v="residential"/>
    <tag k="maxspeed" v="50"/>
    <tag k="maxspeed:source" v="default residential speed limit in Australia"/>
    <tag k="name" v="Redwood Court"/>
  </way>
  <way id="25546475" version="4" timestamp="2011-03-06T08:54:22Z" uid="4467" user="Rosscoe" changeset="7470703">
    <nd ref="278435574"/>
    <nd ref="278435575"/>
    <nd ref="278435411"/>
    <tag k="highway" v="residential"/>
    <tag k="maxspeed" v="50"/>
    <tag k="name" v="Redwood Court"/>
    <tag k="source:maxspeed" v="default residential speed limit in Australia"/>
  </way>
  <way id="25546478" version="3" timestamp="2010-07-09T03:45:11Z" uid="74617" user="JohnSmith" changeset="5170825">
    <nd ref="278435606"/>
    <nd ref="277091543"/>
    <tag k="highway" v="residential"/>
    <tag k="maxspeed" v="50"/>
    <tag k="maxspeed:source" v="default residential speed limit in Australia"/>
    <tag k="name" v="Bluegum Court"/>
  </way>
  <way id="25546478" version="4" timestamp="2011-03-06T08:12:37Z" uid="4467" user="Rosscoe" changeset="7470443">
    <nd ref="278435606"/>
    <nd ref="277091543"/>
    <tag k="highway" v="residential"/>
    <tag k="maxspeed" v="50"/>
    <tag k="maxspeed:source" v="default residential speed limit in Australia"/>
    <tag k="name" v="Bluegum Court"/>
    <tag k="source" v="nearmap"/>
  </way>
  <way id="25546478" version="5" timestamp="2011-03-06T08:54:14Z" uid="4467" user="Rosscoe" changeset="7470703">
    <nd ref="278435606"/>
    <nd ref="277091543"/>
    <tag k="highway" v="residential"/>
    <tag k="maxspeed" v="50"/>
    <tag k="name" v="Bluegum Court"/>
    <tag k="source" v="nearmap"/>
    <tag k="source:maxspeed" v="default residential speed limit in Australia"/>
  </way>
  <way id="25546480" version="5" timestamp="2010-07-09T03:46:53Z" uid="74617" user="JohnSmith" changeset="5170825">
    <nd ref="277091774"/>
    <nd ref="278435613"/>
    <nd ref="278435614"/>
    <nd ref="278435615"/>
    <nd ref="278435616"/>
    <nd ref="278435617"/>
    <nd ref="278435618"/>
    <nd ref="278435619"/>
    <nd ref="278435620"/>
    <nd ref="278435621"/>
    <nd ref="278435623"/>
    <nd ref="278435624"/>
    <nd ref="277091541"/>
    <tag k="highway" v="residential"/>
    <tag k="maxspeed" v="50"/>
    <tag k="maxspeed:source" v="default residential speed limit in Australia"/>
    <tag k="name" v="Jacaranda Drive"/>
  </way>
  <way id="25546480" version="7" timestamp="2011-03-06T08:54:08Z" uid="4467" user="Rosscoe" changeset="7470703">
    <nd ref="277091774"/>
    <nd ref="278435613"/>
    <nd ref="278435614"/>
    <nd ref="278435615"/>
    <nd ref="278435616"/>
    <nd ref="278435617"/>
    <nd ref="278435618"/>
    <nd ref="278435619"/>
    <nd ref="278435620"/>
    <nd ref="278435621"/>
    <nd ref="876815999"/>
    <nd ref="278435623"/>
    <nd ref="278435624"/>
    <nd ref="277091541"/>
    <tag k="highway" v="residential"/>
    <tag k="maxspeed" v="50"/>
    <tag k="name" v="Jacaranda Drive"/>
    <tag k="source:maxspeed" v="default residential speed limit in Australia"/>
  </way>
  <way id="25546482" version="3" timestamp="2010-07-09T03:51:47Z" uid="74617" user="JohnSmith" changeset="5170825">
    <nd ref="278435626"/>
    <nd ref="278435614"/>
    <tag k="highway" v="residential"/>
    <tag k="maxspeed" v="50"/>
    <tag k="maxspeed:source" v="default residential speed limit in Australia"/>
    <tag k="name" v="Parklea Court"/>
  </way>
  <way id="25546482" version="4" timestamp="2011-03-06T08:12:18Z" uid="4467" user="Rosscoe" changeset="7470443">
    <nd ref="278435626"/>
    <nd ref="278435614"/>
    <tag k="highway" v="residential"/>
    <tag k="maxspeed" v="50"/>
    <tag k="maxspeed:source" v="default residential speed limit in Australia"/>
    <tag k="name" v="Parklea Court"/>
    <tag k="source" v="nearmap"/>
  </way>
  <way id="25546482" version="5" timestamp="2011-03-06T08:53:33Z" uid="4467" user="Rosscoe" changeset="7470703">
    <nd ref="278435626"/>
    <nd ref="278435614"/>
    <tag k="highway" v="residential"/>
    <tag k="maxspeed" v="50"/>
    <tag k="name" v="Parklea Court"/>
    <tag k="source" v="nearmap"/>
    <tag k="source:maxspeed" v="default residential speed limit in Australia"/>
  </way>
  <way id="25546483" version="3" timestamp="2010-07-09T03:50:04Z" uid="74617" user="JohnSmith" changeset="5170825">
    <nd ref="278435627"/>
    <nd ref="278435628"/>
    <nd ref="278435621"/>
    <tag k="highway" v="residential"/>
    <tag k="maxspeed" v="50"/>
    <tag k="maxspeed:source" v="default residential speed limit in Australia"/>
    <tag k="name" v="Fern Court"/>
  </way>
  <way id="25546483" version="4" timestamp="2011-03-06T08:55:22Z" uid="4467" user="Rosscoe" changeset="7470703">
    <nd ref="278435627"/>
    <nd ref="278435628"/>
    <nd ref="278435621"/>
    <tag k="highway" v="residential"/>
    <tag k="maxspeed" v="50"/>
    <tag k="name" v="Fern Court"/>
    <tag k="source:maxspeed" v="default residential speed limit in Australia"/>
  </way>
  <way id="25546484" version="5" timestamp="2010-07-09T03:48:19Z" uid="74617" user="JohnSmith" changeset="5170825">
    <nd ref="278435630"/>
    <nd ref="278435631"/>
    <nd ref="275231294"/>
    <tag k="highway" v="residential"/>
    <tag k="maxspeed" v="50"/>
    <tag k="maxspeed:source" v="default residential speed limit in Australia"/>
    <tag k="name" v="Valdero Court"/>
  </way>
  <way id="25546484" version="6" timestamp="2011-03-06T08:52:48Z" uid="4467" user="Rosscoe" changeset="7470703">
    <nd ref="278435630"/>
    <nd ref="278435631"/>
    <nd ref="275231294"/>
    <tag k="highway" v="residential"/>
    <tag k="maxspeed" v="50"/>
    <tag k="name" v="Valdero Court"/>
    <tag k="source:maxspeed" v="default residential speed limit in Australia"/>
  </way>
  <way id="25546485" version="3" timestamp="2010-07-09T03:46:19Z" uid="74617" user="JohnSmith" changeset="5170825">
    <nd ref="278435633"/>
    <nd ref="278435412"/>
    <tag k="highway" v="residential"/>
    <tag k="maxspeed" v="50"/>
    <tag k="maxspeed:source" v="default residential speed limit in Australia"/>
    <tag k="name" v="Hillcrest Court"/>
  </way>
  <way id="25546485" version="4" timestamp="2011-03-06T08:54:34Z" uid="4467" user="Rosscoe" changeset="7470703">
    <nd ref="278435633"/>
    <nd ref="278435412"/>
    <tag k="highway" v="residential"/>
    <tag k="maxspeed" v="50"/>
    <tag k="name" v="Hillcrest Court"/>
    <tag k="source:maxspeed" v="default residential speed limit in Australia"/>
  </way>
  <way id="25546489" version="3" timestamp="2010-07-09T03:51:04Z" uid="74617" user="JohnSmith" changeset="5170825">
    <nd ref="278435658"/>
    <nd ref="278435410"/>
    <tag k="highway" v="residential"/>
    <tag k="maxspeed" v="50"/>
    <tag k="maxspeed:source" v="default residential speed limit in Australia"/>
    <tag k="name" v="Ivy Court"/>
  </way>
  <way id="25546489" version="4" timestamp="2011-03-06T08:55:46Z" uid="4467" user="Rosscoe" changeset="7470703">
    <nd ref="278435658"/>
    <nd ref="278435410"/>
    <tag k="highway" v="residential"/>
    <tag k="maxspeed" v="50"/>
    <tag k="name" v="Ivy Court"/>
    <tag k="source:maxspeed" v="default residential speed limit in Australia"/>
  </way>
  <way id="25546492" version="7" timestamp="2010-07-09T03:45:28Z" uid="74617" user="JohnSmith" changeset="5170825">
    <nd ref="277092427"/>
    <nd ref="278435769"/>
    <nd ref="278435770"/>
    <nd ref="278435818"/>
    <nd ref="278435772"/>
    <nd ref="278435773"/>
    <nd ref="278435774"/>
    <nd ref="278435775"/>
    <tag k="highway" v="residential"/>
    <tag k="maxspeed" v="50"/>
    <tag k="maxspeed:source" v="default residential speed limit in Australia"/>
    <tag k="name" v="Higgs Avenue"/>
  </way>
  <way id="25546492" version="8" timestamp="2011-03-06T08:55:33Z" uid="4467" user="Rosscoe" changeset="7470703">
    <nd ref="277092427"/>
    <nd ref="278435769"/>
    <nd ref="278435770"/>
    <nd ref="278435818"/>
    <nd ref="278435772"/>
    <nd ref="278435773"/>
    <nd ref="278435774"/>
    <nd ref="278435775"/>
    <tag k="highway" v="residential"/>
    <tag k="maxspeed" v="50"/>
    <tag k="name" v="Higgs Avenue"/>
    <tag k="source:maxspeed" v="default residential speed limit in Australia"/>
  </way>
  <way id="25546494" version="4" timestamp="2010-07-09T03:50:34Z" uid="74617" user="JohnSmith" changeset="5170825">
    <nd ref="278435784"/>
    <nd ref="278435785"/>
    <nd ref="278435770"/>
    <tag k="highway" v="residential"/>
    <tag k="maxspeed" v="50"/>
    <tag k="maxspeed:source" v="default residential speed limit in Australia"/>
    <tag k="name" v="Rosehill Court"/>
  </way>
  <way id="25546495" version="3" timestamp="2010-07-09T03:48:49Z" uid="74617" user="JohnSmith" changeset="5170825">
    <nd ref="278435794"/>
    <nd ref="278435796"/>
    <nd ref="278435769"/>
    <tag k="highway" v="residential"/>
    <tag k="maxspeed" v="50"/>
    <tag k="maxspeed:source" v="default residential speed limit in Australia"/>
    <tag k="name" v="Redcraze Rise"/>
  </way>
  <way id="25546496" version="5" timestamp="2010-07-09T03:46:57Z" uid="74617" user="JohnSmith" changeset="5170825">
    <nd ref="278435801"/>
    <nd ref="613440965"/>
    <nd ref="278435802"/>
    <nd ref="278435772"/>
    <tag k="highway" v="residential"/>
    <tag k="maxspeed" v="50"/>
    <tag k="maxspeed:source" v="default residential speed limit in Australia"/>
    <tag k="name" v="Poseidon Close"/>
  </way>
  <way id="25546498" version="4" timestamp="2010-07-09T03:51:49Z" uid="74617" user="JohnSmith" changeset="5170825">
    <nd ref="278435814"/>
    <nd ref="278435815"/>
    <nd ref="278435816"/>
    <nd ref="278435817"/>
    <nd ref="278435818"/>
    <tag k="highway" v="residential"/>
    <tag k="maxspeed" v="50"/>
    <tag k="maxspeed:source" v="default residential speed limit in Australia"/>
    <tag k="name" v="Chicquita Place"/>
  </way>
  <way id="25546500" version="4" timestamp="2010-07-09T03:48:22Z" uid="74617" user="JohnSmith" changeset="5170825">
    <nd ref="278435850"/>
    <nd ref="278435851"/>
    <nd ref="278435852"/>
    <nd ref="278435853"/>
    <nd ref="277092458"/>
    <tag k="highway" v="residential"/>
    <tag k="maxspeed" v="50"/>
    <tag k="maxspeed:source" v="default residential speed limit in Australia"/>
    <tag k="name" v="Carbine Court"/>
  </way>
  <way id="25546501" version="5" timestamp="2010-07-09T03:46:23Z" uid="74617" user="JohnSmith" changeset="5170825">
    <nd ref="277092436"/>
    <nd ref="278435872"/>
    <nd ref="278435873"/>
    <nd ref="278435874"/>
    <nd ref="278435875"/>
    <nd ref="278435876"/>
    <nd ref="278435878"/>
    <nd ref="278435774"/>
    <tag k="highway" v="residential"/>
    <tag k="maxspeed" v="50"/>
    <tag k="maxspeed:source" v="default residential speed limit in Australia"/>
    <tag k="name" v="Galilee Crescent"/>
  </way>
  <way id="25546501" version="6" timestamp="2011-03-06T08:54:07Z" uid="4467" user="Rosscoe" changeset="7470703">
    <nd ref="277092436"/>
    <nd ref="278435872"/>
    <nd ref="278435873"/>
    <nd ref="278435874"/>
    <nd ref="278435875"/>
    <nd ref="278435876"/>
    <nd ref="278435878"/>
    <nd ref="278435774"/>
    <tag k="highway" v="residential"/>
    <tag k="maxspeed" v="50"/>
    <tag k="name" v="Galilee Crescent"/>
    <tag k="source:maxspeed" v="default residential speed limit in Australia"/>
  </way>
  <way id="25546514" version="5" timestamp="2010-07-09T03:48:42Z" uid="74617" user="JohnSmith" changeset="5170825">
    <nd ref="278435973"/>
    <nd ref="278435975"/>
    <nd ref="278435873"/>
    <tag k="highway" v="residential"/>
    <tag k="maxspeed" v="50"/>
    <tag k="maxspeed:source" v="default residential speed limit in Australia"/>
    <tag k="name" v="Bernborough Place"/>
  </way>
  <way id="25546514" version="6" timestamp="2011-03-06T08:53:42Z" uid="4467" user="Rosscoe" changeset="7470703">
    <nd ref="278435973"/>
    <nd ref="278435975"/>
    <nd ref="278435873"/>
    <tag k="highway" v="residential"/>
    <tag k="maxspeed" v="50"/>
    <tag k="name" v="Bernborough Place"/>
    <tag k="source:maxspeed" v="default residential speed limit in Australia"/>
  </way>
  <way id="25546515" version="4" timestamp="2010-07-09T03:46:42Z" uid="74617" user="JohnSmith" changeset="5170825">
    <nd ref="278436028"/>
    <nd ref="278435872"/>
    <tag k="highway" v="residential"/>
    <tag k="maxspeed" v="50"/>
    <tag k="maxspeed:source" v="default residential speed limit in Australia"/>
    <tag k="name" v="Rivette Round"/>
  </way>
  <way id="25546515" version="5" timestamp="2011-03-06T08:55:29Z" uid="4467" user="Rosscoe" changeset="7470703">
    <nd ref="278436028"/>
    <nd ref="278435872"/>
    <tag k="highway" v="residential"/>
    <tag k="maxspeed" v="50"/>
    <tag k="name" v="Rivette Round"/>
    <tag k="source:maxspeed" v="default residential speed limit in Australia"/>
  </way>
  <way id="25546517" version="4" timestamp="2010-07-09T03:51:39Z" uid="74617" user="JohnSmith" changeset="5170825">
    <nd ref="278436135"/>
    <nd ref="278435876"/>
    <tag k="highway" v="residential"/>
    <tag k="maxspeed" v="50"/>
    <tag k="maxspeed:source" v="default residential speed limit in Australia"/>
    <tag k="name" v="Skipton Court"/>
  </way>
  <way id="25546517" version="5" timestamp="2011-03-06T08:54:41Z" uid="4467" user="Rosscoe" changeset="7470703">
    <nd ref="278436135"/>
    <nd ref="278435876"/>
    <tag k="highway" v="residential"/>
    <tag k="maxspeed" v="50"/>
    <tag k="name" v="Skipton Court"/>
    <tag k="source:maxspeed" v="default residential speed limit in Australia"/>
  </way>
  <way id="25546523" version="4" timestamp="2010-07-09T03:52:32Z" uid="74617" user="JohnSmith" changeset="5170825">
    <nd ref="278436195"/>
    <nd ref="278435874"/>
    <tag k="highway" v="residential"/>
    <tag k="maxspeed" v="50"/>
    <tag k="maxspeed:source" v="default residential speed limit in Australia"/>
    <tag k="name" v="Tulloch Court"/>
  </way>
  <way id="25546523" version="5" timestamp="2011-03-06T08:55:08Z" uid="4467" user="Rosscoe" changeset="7470703">
    <nd ref="278436195"/>
    <nd ref="278435874"/>
    <tag k="highway" v="residential"/>
    <tag k="maxspeed" v="50"/>
    <tag k="name" v="Tulloch Court"/>
    <tag k="source:maxspeed" v="default residential speed limit in Australia"/>
  </way>
  <way id="25546528" version="2" timestamp="2010-07-09T02:58:57Z" uid="74617" user="JohnSmith" changeset="5170739">
    <nd ref="278436060"/>
    <nd ref="278436101"/>
    <nd ref="278436143"/>
    <nd ref="278436090"/>
    <tag k="highway" v="residential"/>
    <tag k="maxspeed" v="50"/>
    <tag k="maxspeed:source" v="default residential speed limit in Australia"/>
    <tag k="name" v="Norman Street"/>
  </way>
  <way id="25546531" version="5" timestamp="2010-07-09T03:51:54Z" uid="74617" user="JohnSmith" changeset="5170825">
    <nd ref="277092441"/>
    <nd ref="278436361"/>
    <nd ref="278436362"/>
    <nd ref="278436363"/>
    <nd ref="278436364"/>
    <nd ref="278436366"/>
    <nd ref="278436367"/>
    <nd ref="278436368"/>
    <nd ref="278436369"/>
    <nd ref="278436370"/>
    <nd ref="278436416"/>
    <nd ref="278436372"/>
    <nd ref="278436373"/>
    <nd ref="278435775"/>
    <nd ref="278436374"/>
    <nd ref="278436375"/>
    <nd ref="277092455"/>
    <tag k="highway" v="residential"/>
    <tag k="maxspeed" v="50"/>
    <tag k="maxspeed:source" v="default residential speed limit in Australia"/>
    <tag k="name" v="Blamey Avenue"/>
  </way>
  <way id="25546531" version="6" timestamp="2011-03-06T08:53:46Z" uid="4467" user="Rosscoe" changeset="7470703">
    <nd ref="277092441"/>
    <nd ref="278436361"/>
    <nd ref="278436362"/>
    <nd ref="278436363"/>
    <nd ref="278436364"/>
    <nd ref="278436366"/>
    <nd ref="278436367"/>
    <nd ref="278436368"/>
    <nd ref="278436369"/>
    <nd ref="278436370"/>
    <nd ref="278436416"/>
    <nd ref="278436372"/>
    <nd ref="278436373"/>
    <nd ref="278435775"/>
    <nd ref="278436374"/>
    <nd ref="278436375"/>
    <nd ref="277092455"/>
    <tag k="highway" v="residential"/>
    <tag k="maxspeed" v="50"/>
    <tag k="name" v="Blamey Avenue"/>
    <tag k="source:maxspeed" v="default residential speed limit in Australia"/>
  </way>
  <way id="25546532" version="2" timestamp="2010-07-09T02:57:24Z" uid="74617" user="JohnSmith" changeset="5170739">
    <nd ref="278436143"/>
    <nd ref="278436200"/>
    <nd ref="278436192"/>
    <tag k="highway" v="residential"/>
    <tag k="maxspeed" v="50"/>
    <tag k="maxspeed:source" v="default residential speed limit in Australia"/>
    <tag k="name" v="Alfred Street"/>
  </way>
  <way id="25546537" version="2" timestamp="2010-07-09T02:57:55Z" uid="74617" user="JohnSmith" changeset="5170739">
    <nd ref="278436337"/>
    <nd ref="278436344"/>
    <nd ref="278436260"/>
    <nd ref="278436340"/>
    <nd ref="278436338"/>
    <tag k="highway" v="residential"/>
    <tag k="maxspeed" v="50"/>
    <tag k="maxspeed:source" v="default residential speed limit in Australia"/>
    <tag k="name" v="Woolacott Street"/>
  </way>
  <way id="25546542" version="3" timestamp="2010-07-09T03:52:22Z" uid="74617" user="JohnSmith" changeset="5170825">
    <nd ref="278436363"/>
    <nd ref="278436408"/>
    <nd ref="278436409"/>
    <nd ref="278436410"/>
    <nd ref="278436411"/>
    <nd ref="278436412"/>
    <nd ref="278436413"/>
    <nd ref="278436414"/>
    <nd ref="278436415"/>
    <nd ref="278436416"/>
    <tag k="highway" v="residential"/>
    <tag k="maxspeed" v="50"/>
    <tag k="maxspeed:source" v="default residential speed limit in Australia"/>
    <tag k="name" v="Malua Crescent"/>
  </way>
  <way id="25546542" version="4" timestamp="2011-03-06T08:53:14Z" uid="4467" user="Rosscoe" changeset="7470703">
    <nd ref="278436363"/>
    <nd ref="278436408"/>
    <nd ref="278436409"/>
    <nd ref="278436410"/>
    <nd ref="278436411"/>
    <nd ref="278436412"/>
    <nd ref="278436413"/>
    <nd ref="278436414"/>
    <nd ref="278436415"/>
    <nd ref="278436416"/>
    <tag k="highway" v="residential"/>
    <tag k="maxspeed" v="50"/>
    <tag k="name" v="Malua Crescent"/>
    <tag k="source:maxspeed" v="default residential speed limit in Australia"/>
  </way>
  <way id="25546543" version="3" timestamp="2010-07-09T03:50:43Z" uid="74617" user="JohnSmith" changeset="5170825">
    <nd ref="278436418"/>
    <nd ref="278436408"/>
    <tag k="highway" v="residential"/>
    <tag k="maxspeed" v="50"/>
    <tag k="maxspeed:source" v="default residential speed limit in Australia"/>
    <tag k="name" v="Ajax Court"/>
  </way>
  <way id="25546543" version="4" timestamp="2011-03-06T08:54:59Z" uid="4467" user="Rosscoe" changeset="7470703">
    <nd ref="278436418"/>
    <nd ref="278436408"/>
    <tag k="highway" v="residential"/>
    <tag k="maxspeed" v="50"/>
    <tag k="name" v="Ajax Court"/>
    <tag k="source:maxspeed" v="default residential speed limit in Australia"/>
  </way>
  <way id="25546544" version="4" timestamp="2010-07-09T03:45:27Z" uid="74617" user="JohnSmith" changeset="5170825">
    <nd ref="278436451"/>
    <nd ref="278436452"/>
    <nd ref="278436410"/>
    <tag k="highway" v="residential"/>
    <tag k="maxspeed" v="50"/>
    <tag k="maxspeed:source" v="default residential speed limit in Australia"/>
    <tag k="name" v="Dalray Close"/>
  </way>
  <way id="25546544" version="5" timestamp="2011-03-06T08:53:07Z" uid="4467" user="Rosscoe" changeset="7470703">
    <nd ref="278436451"/>
    <nd ref="278436452"/>
    <nd ref="278436410"/>
    <tag k="highway" v="residential"/>
    <tag k="maxspeed" v="50"/>
    <tag k="name" v="Dalray Close"/>
    <tag k="source:maxspeed" v="default residential speed limit in Australia"/>
  </way>
  <way id="25546548" version="4" timestamp="2010-07-09T03:46:50Z" uid="74617" user="JohnSmith" changeset="5170825">
    <nd ref="278436479"/>
    <nd ref="278436414"/>
    <tag k="highway" v="residential"/>
    <tag k="maxspeed" v="50"/>
    <tag k="maxspeed:source" v="default residential speed limit in Australia"/>
    <tag k="name" v="Pharlap Close"/>
  </way>
  <way id="25546548" version="5" timestamp="2011-03-06T08:54:40Z" uid="4467" user="Rosscoe" changeset="7470703">
    <nd ref="278436479"/>
    <nd ref="278436414"/>
    <tag k="highway" v="residential"/>
    <tag k="maxspeed" v="50"/>
    <tag k="name" v="Pharlap Close"/>
    <tag k="source:maxspeed" v="default residential speed limit in Australia"/>
  </way>
  <way id="25546550" version="3" timestamp="2010-07-09T03:51:45Z" uid="74617" user="JohnSmith" changeset="5170825">
    <nd ref="278436484"/>
    <nd ref="278436485"/>
    <nd ref="278436367"/>
    <tag k="highway" v="residential"/>
    <tag k="maxspeed" v="50"/>
    <tag k="maxspeed:source" v="default residential speed limit in Australia"/>
    <tag k="name" v="Sussex Court"/>
  </way>
  <way id="25546550" version="4" timestamp="2011-03-06T08:54:03Z" uid="4467" user="Rosscoe" changeset="7470703">
    <nd ref="278436484"/>
    <nd ref="278436485"/>
    <nd ref="278436367"/>
    <tag k="highway" v="residential"/>
    <tag k="maxspeed" v="50"/>
    <tag k="name" v="Sussex Court"/>
    <tag k="source:maxspeed" v="default residential speed limit in Australia"/>
  </way>
  <way id="25546551" version="3" timestamp="2010-07-09T03:50:02Z" uid="74617" user="JohnSmith" changeset="5170825">
    <nd ref="278436503"/>
    <nd ref="278436504"/>
    <tag k="highway" v="residential"/>
    <tag k="maxspeed" v="50"/>
    <tag k="maxspeed:source" v="default residential speed limit in Australia"/>
    <tag k="name" v="Fiscom Court"/>
  </way>
  <way id="25546551" version="4" timestamp="2011-03-06T08:52:55Z" uid="4467" user="Rosscoe" changeset="7470703">
    <nd ref="278436503"/>
    <nd ref="278436504"/>
    <tag k="highway" v="residential"/>
    <tag k="maxspeed" v="50"/>
    <tag k="name" v="Fiscom Court"/>
    <tag k="source:maxspeed" v="default residential speed limit in Australia"/>
  </way>
  <way id="25546553" version="3" timestamp="2010-07-09T03:49:44Z" uid="74617" user="JohnSmith" changeset="5170825">
    <nd ref="278436525"/>
    <nd ref="278436526"/>
    <nd ref="277092446"/>
    <tag k="highway" v="residential"/>
    <tag k="maxspeed" v="50"/>
    <tag k="maxspeed:source" v="default residential speed limit in Australia"/>
    <tag k="name" v="Eaglet Court"/>
  </way>
  <way id="25546553" version="4" timestamp="2011-03-06T08:54:32Z" uid="4467" user="Rosscoe" changeset="7470703">
    <nd ref="278436525"/>
    <nd ref="278436526"/>
    <nd ref="277092446"/>
    <tag k="highway" v="residential"/>
    <tag k="maxspeed" v="50"/>
    <tag k="name" v="Eaglet Court"/>
    <tag k="source:maxspeed" v="default residential speed limit in Australia"/>
  </way>
  <way id="25546559" version="3" timestamp="2010-07-09T03:47:25Z" uid="74617" user="JohnSmith" changeset="5170825">
    <nd ref="278436529"/>
    <nd ref="278436364"/>
    <tag k="highway" v="residential"/>
    <tag k="maxspeed" v="50"/>
    <tag k="maxspeed:source" v="default residential speed limit in Australia"/>
    <tag k="name" v="Redfield Court"/>
  </way>
  <way id="25546559" version="4" timestamp="2011-03-06T08:55:37Z" uid="4467" user="Rosscoe" changeset="7470703">
    <nd ref="278436529"/>
    <nd ref="278436364"/>
    <tag k="highway" v="residential"/>
    <tag k="maxspeed" v="50"/>
    <tag k="name" v="Redfield Court"/>
    <tag k="source:maxspeed" v="default residential speed limit in Australia"/>
  </way>
  <way id="25546568" version="3" timestamp="2010-07-09T03:48:17Z" uid="74617" user="JohnSmith" changeset="5170825">
    <nd ref="278436534"/>
    <nd ref="278436535"/>
    <nd ref="278436536"/>
    <nd ref="278436370"/>
    <tag k="highway" v="residential"/>
    <tag k="maxspeed" v="50"/>
    <tag k="maxspeed:source" v="default residential speed limit in Australia"/>
    <tag k="name" v="Apsley Court"/>
  </way>
  <way id="25546568" version="4" timestamp="2011-03-06T08:55:48Z" uid="4467" user="Rosscoe" changeset="7470703">
    <nd ref="278436534"/>
    <nd ref="278436535"/>
    <nd ref="278436536"/>
    <nd ref="278436370"/>
    <tag k="highway" v="residential"/>
    <tag k="maxspeed" v="50"/>
    <tag k="name" v="Apsley Court"/>
    <tag k="source:maxspeed" v="default residential speed limit in Australia"/>
  </way>
  <way id="25546570" version="3" timestamp="2010-07-09T03:53:00Z" uid="74617" user="JohnSmith" changeset="5170825">
    <nd ref="278436543"/>
    <nd ref="278436544"/>
    <nd ref="278436372"/>
    <tag k="highway" v="residential"/>
    <tag k="maxspeed" v="50"/>
    <tag k="maxspeed:source" v="default residential speed limit in Australia"/>
    <tag k="name" v="Rawdon Court"/>
  </way>
  <way id="25546570" version="4" timestamp="2011-03-06T08:55:05Z" uid="4467" user="Rosscoe" changeset="7470703">
    <nd ref="278436543"/>
    <nd ref="278436544"/>
    <nd ref="278436372"/>
    <tag k="highway" v="residential"/>
    <tag k="maxspeed" v="50"/>
    <tag k="name" v="Rawdon Court"/>
    <tag k="source:maxspeed" v="default residential speed limit in Australia"/>
  </way>
  <way id="25546572" version="4" timestamp="2010-07-09T03:49:34Z" uid="74617" user="JohnSmith" changeset="5170825">
    <nd ref="278436596"/>
    <nd ref="278436598"/>
    <nd ref="277092450"/>
    <tag k="highway" v="residential"/>
    <tag k="maxspeed" v="50"/>
    <tag k="maxspeed:source" v="default residential speed limit in Australia"/>
    <tag k="name" v="Whernside Court"/>
  </way>
  <way id="25546572" version="5" timestamp="2011-03-06T08:54:20Z" uid="4467" user="Rosscoe" changeset="7470703">
    <nd ref="278436596"/>
    <nd ref="278436598"/>
    <nd ref="277092450"/>
    <tag k="highway" v="residential"/>
    <tag k="maxspeed" v="50"/>
    <tag k="name" v="Whernside Court"/>
    <tag k="source:maxspeed" v="default residential speed limit in Australia"/>
  </way>
  <way id="25546574" version="4" timestamp="2010-07-09T03:45:46Z" uid="74617" user="JohnSmith" changeset="5170825">
    <nd ref="278436706"/>
    <nd ref="278436707"/>
    <nd ref="277092442"/>
    <tag k="highway" v="residential"/>
    <tag k="maxspeed" v="50"/>
    <tag k="maxspeed:source" v="default residential speed limit in Australia"/>
    <tag k="name" v="Mosstrooper Court"/>
  </way>
  <way id="25546574" version="5" timestamp="2011-03-06T08:53:50Z" uid="4467" user="Rosscoe" changeset="7470703">
    <nd ref="278436706"/>
    <nd ref="278436707"/>
    <nd ref="277092442"/>
    <tag k="highway" v="residential"/>
    <tag k="maxspeed" v="50"/>
    <tag k="name" v="Mosstrooper Court"/>
    <tag k="source:maxspeed" v="default residential speed limit in Australia"/>
  </way>
  <way id="25546578" version="3" timestamp="2010-07-09T03:52:18Z" uid="74617" user="JohnSmith" changeset="5170825">
    <nd ref="278436744"/>
    <nd ref="278436745"/>
    <nd ref="278436746"/>
    <tag k="highway" v="residential"/>
    <tag k="maxspeed" v="50"/>
    <tag k="maxspeed:source" v="default residential speed limit in Australia"/>
    <tag k="name" v="Studley Court"/>
  </way>
  <way id="25546578" version="4" timestamp="2011-03-06T08:52:58Z" uid="4467" user="Rosscoe" changeset="7470703">
    <nd ref="278436744"/>
    <nd ref="278436745"/>
    <nd ref="278436746"/>
    <tag k="highway" v="residential"/>
    <tag k="maxspeed" v="50"/>
    <tag k="name" v="Studley Court"/>
    <tag k="source:maxspeed" v="default residential speed limit in Australia"/>
  </way>
  <way id="25546586" version="3" timestamp="2010-07-09T03:49:51Z" uid="74617" user="JohnSmith" changeset="5170825">
    <nd ref="278436791"/>
    <nd ref="278436792"/>
    <nd ref="278436793"/>
    <nd ref="278436794"/>
    <nd ref="278436795"/>
    <nd ref="278436796"/>
    <nd ref="278436797"/>
    <nd ref="278436798"/>
    <nd ref="278436799"/>
    <nd ref="278436800"/>
    <nd ref="278436801"/>
    <nd ref="278436802"/>
    <nd ref="278436803"/>
    <nd ref="278436804"/>
    <nd ref="278436805"/>
    <nd ref="278436806"/>
    <nd ref="278436807"/>
    <nd ref="278436808"/>
    <nd ref="277092454"/>
    <tag k="highway" v="residential"/>
    <tag k="maxspeed" v="50"/>
    <tag k="maxspeed:source" v="default residential speed limit in Australia"/>
    <tag k="name" v="Coventry Crescent"/>
  </way>
  <way id="25546586" version="4" timestamp="2011-03-06T08:55:42Z" uid="4467" user="Rosscoe" changeset="7470703">
    <nd ref="278436791"/>
    <nd ref="278436792"/>
    <nd ref="278436793"/>
    <nd ref="278436794"/>
    <nd ref="278436795"/>
    <nd ref="278436796"/>
    <nd ref="278436797"/>
    <nd ref="278436798"/>
    <nd ref="278436799"/>
    <nd ref="278436800"/>
    <nd ref="278436801"/>
    <nd ref="278436802"/>
    <nd ref="278436803"/>
    <nd ref="278436804"/>
    <nd ref="278436805"/>
    <nd ref="278436806"/>
    <nd ref="278436807"/>
    <nd ref="278436808"/>
    <nd ref="277092454"/>
    <tag k="highway" v="residential"/>
    <tag k="maxspeed" v="50"/>
    <tag k="name" v="Coventry Crescent"/>
    <tag k="source:maxspeed" v="default residential speed limit in Australia"/>
  </way>
  <way id="25546587" version="3" timestamp="2010-07-09T03:48:03Z" uid="74617" user="JohnSmith" changeset="5170825">
    <nd ref="278436809"/>
    <nd ref="278436810"/>
    <nd ref="278436804"/>
    <tag k="highway" v="residential"/>
    <tag k="maxspeed" v="50"/>
    <tag k="maxspeed:source" v="default residential speed limit in Australia"/>
    <tag k="name" v="Gloaming Court"/>
  </way>
  <way id="25546587" version="4" timestamp="2011-03-06T08:54:27Z" uid="4467" user="Rosscoe" changeset="7470703">
    <nd ref="278436809"/>
    <nd ref="278436810"/>
    <nd ref="278436804"/>
    <tag k="highway" v="residential"/>
    <tag k="maxspeed" v="50"/>
    <tag k="name" v="Gloaming Court"/>
    <tag k="source:maxspeed" v="default residential speed limit in Australia"/>
  </way>
  <way id="25546588" version="3" timestamp="2010-07-09T03:46:06Z" uid="74617" user="JohnSmith" changeset="5170825">
    <nd ref="278436811"/>
    <nd ref="278436794"/>
    <tag k="highway" v="residential"/>
    <tag k="maxspeed" v="50"/>
    <tag k="maxspeed:source" v="default residential speed limit in Australia"/>
    <tag k="name" v="Shannon Place"/>
  </way>
  <way id="25546588" version="4" timestamp="2011-03-06T08:54:56Z" uid="4467" user="Rosscoe" changeset="7470703">
    <nd ref="278436811"/>
    <nd ref="278436794"/>
    <tag k="highway" v="residential"/>
    <tag k="maxspeed" v="50"/>
    <tag k="name" v="Shannon Place"/>
    <tag k="source:maxspeed" v="default residential speed limit in Australia"/>
  </way>
  <way id="25546591" version="3" timestamp="2010-07-09T03:49:23Z" uid="74617" user="JohnSmith" changeset="5170825">
    <nd ref="278436828"/>
    <nd ref="278436829"/>
    <nd ref="278436830"/>
    <nd ref="278436793"/>
    <tag k="highway" v="residential"/>
    <tag k="maxspeed" v="50"/>
    <tag k="maxspeed:source" v="default residential speed limit in Australia"/>
    <tag k="name" v="Sirius Court"/>
  </way>
  <way id="25546591" version="4" timestamp="2011-03-06T08:53:12Z" uid="4467" user="Rosscoe" changeset="7470703">
    <nd ref="278436828"/>
    <nd ref="278436829"/>
    <nd ref="278436830"/>
    <nd ref="278436793"/>
    <tag k="highway" v="residential"/>
    <tag k="maxspeed" v="50"/>
    <tag k="name" v="Sirius Court"/>
    <tag k="source:maxspeed" v="default residential speed limit in Australia"/>
  </way>
  <way id="25546594" version="3" timestamp="2010-07-09T03:49:14Z" uid="74617" user="JohnSmith" changeset="5170825">
    <nd ref="278436838"/>
    <nd ref="278436839"/>
    <nd ref="278436840"/>
    <nd ref="278436841"/>
    <nd ref="277092456"/>
    <tag k="highway" v="residential"/>
    <tag k="maxspeed" v="50"/>
    <tag k="maxspeed:source" v="default residential speed limit in Australia"/>
    <tag k="name" v="Manikato Court"/>
  </way>
  <way id="25546594" version="4" timestamp="2011-03-06T08:54:10Z" uid="4467" user="Rosscoe" changeset="7470703">
    <nd ref="278436838"/>
    <nd ref="278436839"/>
    <nd ref="278436840"/>
    <nd ref="278436841"/>
    <nd ref="277092456"/>
    <tag k="highway" v="residential"/>
    <tag k="maxspeed" v="50"/>
    <tag k="name" v="Manikato Court"/>
    <tag k="source:maxspeed" v="default residential speed limit in Australia"/>
  </way>
  <way id="25546597" version="4" timestamp="2010-07-09T03:52:07Z" uid="74617" user="JohnSmith" changeset="5170825">
    <nd ref="277092461"/>
    <nd ref="278436926"/>
    <nd ref="278436927"/>
    <nd ref="278436928"/>
    <nd ref="278436929"/>
    <nd ref="278436930"/>
    <nd ref="278436931"/>
    <nd ref="278436932"/>
    <nd ref="278436933"/>
    <nd ref="278436935"/>
    <nd ref="278436936"/>
    <nd ref="278436937"/>
    <nd ref="278436939"/>
    <nd ref="278436940"/>
    <nd ref="278436941"/>
    <nd ref="278436942"/>
    <nd ref="277092459"/>
    <tag k="highway" v="residential"/>
    <tag k="maxspeed" v="50"/>
    <tag k="maxspeed:source" v="default residential speed limit in Australia"/>
    <tag k="name" v="Statesman Crescent"/>
  </way>
  <way id="25546598" version="4" timestamp="2010-07-09T03:50:27Z" uid="74617" user="JohnSmith" changeset="5170825">
    <nd ref="278437000"/>
    <nd ref="278437002"/>
    <nd ref="278436927"/>
    <tag k="highway" v="residential"/>
    <tag k="maxspeed" v="50"/>
    <tag k="maxspeed:source" v="default residential speed limit in Australia"/>
    <tag k="name" v="Archer Place"/>
  </way>
  <way id="25546600" version="4" timestamp="2010-07-09T03:50:09Z" uid="74617" user="JohnSmith" changeset="5170825">
    <nd ref="278437027"/>
    <nd ref="278437028"/>
    <nd ref="278436942"/>
    <tag k="highway" v="residential"/>
    <tag k="maxspeed" v="50"/>
    <tag k="maxspeed:source" v="default residential speed limit in Australia"/>
    <tag k="name" v="Hallmark Close"/>
  </way>
  <way id="25546601" version="4" timestamp="2010-07-09T03:48:25Z" uid="74617" user="JohnSmith" changeset="5170825">
    <nd ref="278437072"/>
    <nd ref="278437074"/>
    <nd ref="278436928"/>
    <tag k="highway" v="residential"/>
    <tag k="maxspeed" v="50"/>
    <tag k="maxspeed:source" v="default residential speed limit in Australia"/>
    <tag k="name" v="Todman Close"/>
  </way>
  <way id="25546603" version="4" timestamp="2010-07-09T03:53:07Z" uid="74617" user="JohnSmith" changeset="5170825">
    <nd ref="278437109"/>
    <nd ref="278437110"/>
    <nd ref="278436933"/>
    <tag k="highway" v="residential"/>
    <tag k="maxspeed" v="50"/>
    <tag k="maxspeed:source" v="default residential speed limit in Australia"/>
    <tag k="name" v="Wakeful Place"/>
  </way>
  <way id="25546606" version="4" timestamp="2010-07-09T03:47:50Z" uid="74617" user="JohnSmith" changeset="5170825">
    <nd ref="278437208"/>
    <nd ref="278436937"/>
    <tag k="highway" v="residential"/>
    <tag k="maxspeed" v="50"/>
    <tag k="maxspeed:source" v="default residential speed limit in Australia"/>
    <tag k="name" v="Newhaven Court"/>
  </way>
  <way id="25546619" version="4" timestamp="2010-07-09T03:49:58Z" uid="74617" user="JohnSmith" changeset="5170825">
    <nd ref="278437347"/>
    <nd ref="278437348"/>
    <nd ref="278436940"/>
    <tag k="highway" v="residential"/>
    <tag k="maxspeed" v="50"/>
    <tag k="maxspeed:source" v="default residential speed limit in Australia"/>
    <tag k="name" v="Carlita Close"/>
  </way>
  <way id="25546637" version="3" timestamp="2010-07-09T03:51:32Z" uid="74617" user="JohnSmith" changeset="5170825">
    <nd ref="278437361"/>
    <nd ref="277092447"/>
    <tag k="highway" v="residential"/>
    <tag k="maxspeed" v="50"/>
    <tag k="maxspeed:source" v="default residential speed limit in Australia"/>
    <tag k="name" v="Cardinia Close"/>
  </way>
  <way id="25546637" version="4" timestamp="2011-03-06T08:55:10Z" uid="4467" user="Rosscoe" changeset="7470703">
    <nd ref="278437361"/>
    <nd ref="277092447"/>
    <tag k="highway" v="residential"/>
    <tag k="maxspeed" v="50"/>
    <tag k="name" v="Cardinia Close"/>
    <tag k="source:maxspeed" v="default residential speed limit in Australia"/>
  </way>
  <way id="25546645" version="3" timestamp="2010-07-09T03:50:51Z" uid="74617" user="JohnSmith" changeset="5170825">
    <nd ref="278437458"/>
    <nd ref="278437459"/>
    <nd ref="278435616"/>
    <tag k="highway" v="residential"/>
    <tag k="maxspeed" v="50"/>
    <tag k="maxspeed:source" v="default residential speed limit in Australia"/>
    <tag k="name" v="Lilac Court"/>
  </way>
  <way id="25546645" version="4" timestamp="2011-03-06T08:53:03Z" uid="4467" user="Rosscoe" changeset="7470703">
    <nd ref="278437458"/>
    <nd ref="278437459"/>
    <nd ref="278435616"/>
    <tag k="highway" v="residential"/>
    <tag k="maxspeed" v="50"/>
    <tag k="name" v="Lilac Court"/>
    <tag k="source:maxspeed" v="default residential speed limit in Australia"/>
  </way>
  <way id="25546649" version="5" timestamp="2010-07-09T03:46:56Z" uid="74617" user="JohnSmith" changeset="5170825">
    <nd ref="278437497"/>
    <nd ref="278437498"/>
    <nd ref="278437499"/>
    <tag k="highway" v="residential"/>
    <tag k="maxspeed" v="50"/>
    <tag k="maxspeed:source" v="default residential speed limit in Australia"/>
    <tag k="name" v="Melrose Place"/>
  </way>
  <way id="25546649" version="6" timestamp="2011-03-06T08:54:05Z" uid="4467" user="Rosscoe" changeset="7470703">
    <nd ref="278437497"/>
    <nd ref="278437498"/>
    <nd ref="278437499"/>
    <tag k="highway" v="residential"/>
    <tag k="maxspeed" v="50"/>
    <tag k="name" v="Melrose Place"/>
    <tag k="source:maxspeed" v="default residential speed limit in Australia"/>
  </way>
  <way id="25546667" version="3" timestamp="2010-07-09T03:48:40Z" uid="74617" user="JohnSmith" changeset="5170825">
    <nd ref="278437582"/>
    <nd ref="278437583"/>
    <nd ref="278437584"/>
    <nd ref="277092453"/>
    <tag k="highway" v="residential"/>
    <tag k="maxspeed" v="50"/>
    <tag k="maxspeed:source" v="default residential speed limit in Australia"/>
    <tag k="name" v="Ellerslie Court"/>
  </way>
  <way id="25546667" version="4" timestamp="2011-03-06T08:54:33Z" uid="4467" user="Rosscoe" changeset="7470703">
    <nd ref="278437582"/>
    <nd ref="278437583"/>
    <nd ref="278437584"/>
    <nd ref="277092453"/>
    <tag k="highway" v="residential"/>
    <tag k="maxspeed" v="50"/>
    <tag k="name" v="Ellerslie Court"/>
    <tag k="source:maxspeed" v="default residential speed limit in Australia"/>
  </way>
  <way id="25546670" version="11" timestamp="2010-05-11T14:27:24Z" uid="4467" user="Rosscoe" changeset="4669025">
    <nd ref="291694188"/>
    <nd ref="291694189"/>
    <nd ref="278437902"/>
    <nd ref="278437903"/>
    <nd ref="278437904"/>
    <nd ref="278437905"/>
    <nd ref="278437907"/>
    <nd ref="278437908"/>
    <nd ref="278437909"/>
    <nd ref="278437910"/>
    <nd ref="278437911"/>
    <nd ref="278437912"/>
    <nd ref="729702304"/>
    <nd ref="278437913"/>
    <nd ref="278437914"/>
    <nd ref="278437915"/>
    <nd ref="729702301"/>
    <tag k="highway" v="residential"/>
    <tag k="name" v="Hawkes Drive"/>
  </way>
  <way id="25546670" version="12" timestamp="2010-05-11T14:39:29Z" uid="4467" user="Rosscoe" changeset="4669097"/>
  <way id="25546679" version="3" timestamp="2010-05-11T14:27:24Z" uid="4467" user="Rosscoe" changeset="4669025">
    <nd ref="278437904"/>
    <nd ref="278437979"/>
    <nd ref="278437980"/>
    <nd ref="278437981"/>
    <nd ref="278437982"/>
    <nd ref="278437983"/>
    <nd ref="278437984"/>
    <nd ref="278437985"/>
    <nd ref="278437986"/>
    <nd ref="278437987"/>
    <nd ref="278437988"/>
    <nd ref="278437990"/>
    <nd ref="278437992"/>
    <nd ref="729702316"/>
    <tag k="highway" v="residential"/>
    <tag k="name" v="Carbon Crescent"/>
  </way>
  <way id="25546679" version="4" timestamp="2010-07-09T03:49:16Z" uid="74617" user="JohnSmith" changeset="5170825">
    <nd ref="278437904"/>
    <nd ref="278437979"/>
    <nd ref="278437980"/>
    <nd ref="278437981"/>
    <nd ref="278437982"/>
    <nd ref="278437983"/>
    <nd ref="278437984"/>
    <nd ref="278437985"/>
    <nd ref="278437986"/>
    <nd ref="278437987"/>
    <nd ref="278437988"/>
    <nd ref="278437990"/>
    <nd ref="278437992"/>
    <nd ref="729702316"/>
    <tag k="highway" v="residential"/>
    <tag k="maxspeed" v="50"/>
    <tag k="maxspeed:source" v="default residential speed limit in Australia"/>
    <tag k="name" v="Carbon Crescent"/>
  </way>
  <way id="25546680" version="3" timestamp="2010-07-09T03:50:41Z" uid="74617" user="JohnSmith" changeset="5170825">
    <nd ref="278437989"/>
    <nd ref="278437991"/>
    <nd ref="278437908"/>
    <tag k="highway" v="residential"/>
    <tag k="maxspeed" v="50"/>
    <tag k="maxspeed:source" v="default residential speed limit in Australia"/>
    <tag k="name" v="Pisani Court"/>
  </way>
  <way id="25546681" version="3" timestamp="2010-07-09T03:48:56Z" uid="74617" user="JohnSmith" changeset="5170825">
    <nd ref="278438005"/>
    <nd ref="278437985"/>
    <tag k="highway" v="residential"/>
    <tag k="maxspeed" v="50"/>
    <tag k="maxspeed:source" v="default residential speed limit in Australia"/>
    <tag k="name" v="Antony Close"/>
  </way>
  <way id="25546683" version="3" timestamp="2010-07-09T03:45:08Z" uid="74617" user="JohnSmith" changeset="5170825">
    <nd ref="278438032"/>
    <nd ref="278438033"/>
    <nd ref="278438034"/>
    <nd ref="278437910"/>
    <tag k="highway" v="residential"/>
    <tag k="maxspeed" v="50"/>
    <tag k="maxspeed:source" v="default residential speed limit in Australia"/>
    <tag k="name" v="Fenech Close"/>
  </way>
  <way id="25546685" version="3" timestamp="2010-07-09T03:50:13Z" uid="74617" user="JohnSmith" changeset="5170825">
    <nd ref="278438050"/>
    <nd ref="278438051"/>
    <nd ref="278437909"/>
    <tag k="highway" v="residential"/>
    <tag k="maxspeed" v="50"/>
    <tag k="maxspeed:source" v="default residential speed limit in Australia"/>
    <tag k="name" v="Tooth Court"/>
  </way>
  <way id="25546686" version="3" timestamp="2010-07-09T03:48:28Z" uid="74617" user="JohnSmith" changeset="5170825">
    <nd ref="278438052"/>
    <nd ref="278437912"/>
    <tag k="highway" v="residential"/>
    <tag k="maxspeed" v="50"/>
    <tag k="maxspeed:source" v="default residential speed limit in Australia"/>
    <tag k="name" v="Flintoff Court"/>
  </way>
  <way id="25546693" version="3" timestamp="2010-07-09T03:49:32Z" uid="74617" user="JohnSmith" changeset="5170825">
    <nd ref="278438067"/>
    <nd ref="278437990"/>
    <tag k="highway" v="residential"/>
    <tag k="maxspeed" v="50"/>
    <tag k="maxspeed:source" v="default residential speed limit in Australia"/>
    <tag k="name" v="Jacoby Court"/>
  </way>
  <way id="25546700" version="5" timestamp="2010-07-09T03:48:45Z" uid="74617" user="JohnSmith" changeset="5170825">
    <nd ref="278438068"/>
    <nd ref="278438069"/>
    <nd ref="278438070"/>
    <nd ref="278438071"/>
    <nd ref="278437914"/>
    <tag k="highway" v="residential"/>
    <tag k="maxspeed" v="50"/>
    <tag k="maxspeed:source" v="default residential speed limit in Australia"/>
    <tag k="name" v="Gaze Court"/>
  </way>
  <way id="25546701" version="3" timestamp="2010-07-09T03:46:48Z" uid="74617" user="JohnSmith" changeset="5170825">
    <nd ref="278438072"/>
    <nd ref="278437917"/>
    <tag k="highway" v="residential"/>
    <tag k="maxspeed" v="50"/>
    <tag k="maxspeed:source" v="default residential speed limit in Australia"/>
    <tag k="name" v="Moneghetti Way"/>
  </way>
  <way id="25546704" version="5" timestamp="2010-07-09T03:46:35Z" uid="74617" user="JohnSmith" changeset="5170825">
    <nd ref="278438187"/>
    <nd ref="278438188"/>
    <nd ref="278438189"/>
    <nd ref="278438190"/>
    <nd ref="278438191"/>
    <nd ref="278438192"/>
    <nd ref="278438194"/>
    <nd ref="278437928"/>
    <tag k="highway" v="residential"/>
    <tag k="maxspeed" v="50"/>
    <tag k="maxspeed:source" v="default residential speed limit in Australia"/>
    <tag k="name" v="Carroll Crescent"/>
  </way>
  <way id="25546706" version="3" timestamp="2010-07-09T03:51:33Z" uid="74617" user="JohnSmith" changeset="5170825">
    <nd ref="278438241"/>
    <nd ref="278437923"/>
    <tag k="highway" v="residential"/>
    <tag k="maxspeed" v="50"/>
    <tag k="maxspeed:source" v="default residential speed limit in Australia"/>
    <tag k="name" v="Hardiman Court"/>
  </way>
  <way id="25546707" version="3" timestamp="2010-07-09T03:49:49Z" uid="74617" user="JohnSmith" changeset="5170825">
    <nd ref="278438302"/>
    <nd ref="278438305"/>
    <nd ref="278438188"/>
    <tag k="highway" v="residential"/>
    <tag k="maxspeed" v="50"/>
    <tag k="maxspeed:source" v="default residential speed limit in Australia"/>
    <tag k="name" v="Warren Close"/>
  </way>
  <way id="25546710" version="3" timestamp="2010-07-09T03:52:45Z" uid="74617" user="JohnSmith" changeset="5170825">
    <nd ref="278438456"/>
    <nd ref="278438457"/>
    <nd ref="278438191"/>
    <tag k="highway" v="residential"/>
    <tag k="maxspeed" v="50"/>
    <tag k="maxspeed:source" v="default residential speed limit in Australia"/>
    <tag k="name" v="Hayley Court"/>
  </way>
  <way id="25546733" version="3" timestamp="2010-07-09T03:48:52Z" uid="74617" user="JohnSmith" changeset="5170825">
    <nd ref="278438577"/>
    <nd ref="278438578"/>
    <nd ref="278438579"/>
    <nd ref="278437925"/>
    <tag k="highway" v="residential"/>
    <tag k="maxspeed" v="50"/>
    <tag k="maxspeed:source" v="default residential speed limit in Australia"/>
    <tag k="name" v="Burridge Close"/>
  </way>
  <way id="25546994" version="2" timestamp="2011-01-11T04:29:45Z" uid="4467" user="Rosscoe" changeset="6933397">
    <nd ref="278442002"/>
    <nd ref="278442321"/>
    <nd ref="278442329"/>
    <nd ref="271671819"/>
    <nd ref="278442341"/>
    <nd ref="278442350"/>
    <nd ref="271671759"/>
    <tag k="highway" v="unclassified"/>
    <tag k="maxspeed" v="100"/>
    <tag k="name" v="Marydale Road"/>
    <tag k="source:name" v="survey"/>
    <tag k="surface" v="unpaved"/>
  </way>
</osm>
