<?xml version='1.0' encoding='UTF-8'?>
<osm version="0.6" generator="libosmium/2.20.0">
  <way id="25551000" version="2" timestamp="2010-04-29T08:12:05Z" uid="4467" user="Rosscoe" changeset="4555956">
    <nd ref="278488092"/>
    <nd ref="278488093"/>
    <nd ref="278488094"/>
    <nd ref="278488095"/>
    <nd ref="278488098"/>
    <nd ref="278488099"/>
    <nd ref="278488101"/>
    <nd ref="278488102"/>
    <nd ref="711583364"/>
    <nd ref="711583394"/>
    <nd ref="711583559"/>
    <nd ref="278488092"/>
    <tag k="leisure" v="park"/>
  </way>
  <way id="25551003" version="3" timestamp="2010-07-09T07:02:30Z" uid="74617" user="JohnSmith" changeset="5171412">
    <nd ref="278488115"/>
    <nd ref="278488116"/>
    <nd ref="278488117"/>
    <nd ref="278488118"/>
    <tag k="highway" v="residential"/>
    <tag k="maxspeed" v="50"/>
    <tag k="maxspeed:source" v="default residential speed limit in Australia"/>
    <tag k="name" v="Ince Court"/>
  </way>
  <way id="25551004" version="3" timestamp="2010-07-09T07:03:17Z" uid="74617" user="JohnSmith" changeset="5171412">
    <nd ref="278488119"/>
    <nd ref="278488120"/>
    <tag k="highway" v="residential"/>
    <tag k="maxspeed" v="50"/>
    <tag k="maxspeed:source" v="default residential speed limit in Australia"/>
    <tag k="name" v="Youngs Place"/>
  </way>
  <way id="25551005" version="3" timestamp="2010-07-09T07:06:04Z" uid="74617" user="JohnSmith" changeset="5171412">
    <nd ref="278488122"/>
    <nd ref="278488119"/>
    <nd ref="278488123"/>
    <nd ref="278488118"/>
    <nd ref="278488115"/>
    <nd ref="278488125"/>
    <nd ref="278488124"/>
    <tag k="highway" v="residential"/>
    <tag k="maxspeed" v="50"/>
    <tag k="maxspeed:source" v="default residential speed limit in Australia"/>
    <tag k="name" v="Woodley Way"/>
  </way>
  <way id="25551008" version="3" timestamp="2010-07-09T06:55:29Z" uid="74617" user="JohnSmith" changeset="5171412">
    <nd ref="278488142"/>
    <nd ref="278488144"/>
    <nd ref="278488146"/>
    <tag k="highway" v="residential"/>
    <tag k="maxspeed" v="50"/>
    <tag k="maxspeed:source" v="default residential speed limit in Australia"/>
    <tag k="name" v="Lacey Court"/>
  </way>
  <way id="25551083" version="2" timestamp="2008-07-14T19:00:14Z" uid="6975" user="ulfl" changeset="488136">
    <nd ref="60399619"/>
    <nd ref="278490407"/>
    <nd ref="278490408"/>
    <nd ref="31126834"/>
    <tag k="highway" v="secondary"/>
    <tag k="lines" v="U2"/>
    <tag k="name" v="Seidenstraße"/>
    <tag k="oneway" v="yes"/>
    <tag k="operator" v="VVS"/>
    <tag k="railway" v="light_rail"/>
  </way>
  <way id="25551112" version="6" timestamp="2009-09-01T10:09:05Z" uid="36809" user="pfoten_weg_!_" changeset="2335514">
    <nd ref="278490627"/>
    <nd ref="419246170"/>
    <nd ref="419246169"/>
    <nd ref="278490628"/>
    <nd ref="419246171"/>
    <nd ref="419246172"/>
    <nd ref="419246175"/>
    <nd ref="278490629"/>
    <nd ref="278490630"/>
    <nd ref="278490631"/>
    <nd ref="419246173"/>
    <nd ref="278490632"/>
    <nd ref="419246174"/>
    <nd ref="278490633"/>
    <nd ref="278490634"/>
    <nd ref="278490635"/>
    <nd ref="278490636"/>
    <nd ref="278490637"/>
    <nd ref="278490638"/>
    <nd ref="278490639"/>
    <nd ref="278490640"/>
    <nd ref="278490641"/>
    <nd ref="278490642"/>
    <nd ref="392368860"/>
    <nd ref="278490644"/>
    <nd ref="419246191"/>
    <nd ref="278490645"/>
    <nd ref="278490627"/>
    <tag k="landuse" v="forest"/>
  </way>
  <way id="25551143" version="3" timestamp="2010-07-09T07:00:40Z" uid="74617" user="JohnSmith" changeset="5171412">
    <nd ref="278490805"/>
    <nd ref="278490887"/>
    <nd ref="278490886"/>
    <nd ref="278490883"/>
    <nd ref="278490884"/>
    <nd ref="278490885"/>
    <nd ref="278490886"/>
    <tag k="highway" v="residential"/>
    <tag k="maxspeed" v="50"/>
    <tag k="maxspeed:source" v="default residential speed limit in Australia"/>
    <tag k="name" v="Dawson Way"/>
  </way>
  <way id="25551150" version="3" timestamp="2010-07-09T07:01:59Z" uid="74617" user="JohnSmith" changeset="5171412">
    <nd ref="278490890"/>
    <nd ref="278490938"/>
    <nd ref="278490935"/>
    <nd ref="278490936"/>
    <nd ref="278490937"/>
    <nd ref="278490938"/>
    <tag k="highway" v="residential"/>
    <tag k="maxspeed" v="50"/>
    <tag k="maxspeed:source" v="default residential speed limit in Australia"/>
    <tag k="name" v="Hefron Way"/>
  </way>
  <way id="25551160" version="3" timestamp="2010-07-09T07:04:26Z" uid="74617" user="JohnSmith" changeset="5171412">
    <nd ref="278467250"/>
    <nd ref="278490979"/>
    <nd ref="278490980"/>
    <tag k="highway" v="residential"/>
    <tag k="maxspeed" v="50"/>
    <tag k="maxspeed:source" v="default residential speed limit in Australia"/>
    <tag k="name" v="Hume Court"/>
  </way>
  <way id="25551220" version="8" timestamp="2010-04-29T08:12:06Z" uid="4467" user="Rosscoe" changeset="4555956">
    <nd ref="711583503"/>
    <nd ref="278493376"/>
    <nd ref="278492041"/>
    <nd ref="278491644"/>
    <nd ref="278491645"/>
    <nd ref="278491646"/>
    <nd ref="278491647"/>
    <nd ref="278494288"/>
    <nd ref="278491871"/>
    <nd ref="278494778"/>
    <nd ref="278494781"/>
    <nd ref="278491648"/>
    <nd ref="278491649"/>
    <nd ref="278491650"/>
    <tag k="highway" v="residential"/>
  </way>
  <way id="25551220" version="10" timestamp="2010-07-09T07:05:35Z" uid="74617" user="JohnSmith" changeset="5171412">
    <nd ref="711583503"/>
    <nd ref="278493376"/>
    <nd ref="278492041"/>
    <nd ref="278491644"/>
    <nd ref="278491645"/>
    <nd ref="278491646"/>
    <nd ref="278491647"/>
    <nd ref="278494288"/>
    <nd ref="278491871"/>
    <nd ref="278494778"/>
    <nd ref="278494781"/>
    <nd ref="278491648"/>
    <nd ref="278491649"/>
    <nd ref="278491650"/>
    <tag k="highway" v="residential"/>
    <tag k="maxspeed" v="50"/>
    <tag k="maxspeed:source" v="default residential speed limit in Australia"/>
    <tag k="name" v="Hennessy Avenue"/>
  </way>
  <way id="25551223" version="8" timestamp="2010-07-09T07:02:47Z" uid="74617" user="JohnSmith" changeset="5171412">
    <nd ref="278491764"/>
    <nd ref="278491867"/>
    <nd ref="278492063"/>
    <nd ref="278491868"/>
    <nd ref="278491870"/>
    <nd ref="278492269"/>
    <nd ref="278492731"/>
    <nd ref="278492946"/>
    <nd ref="278492272"/>
    <nd ref="278491871"/>
    <tag k="highway" v="residential"/>
    <tag k="maxspeed" v="50"/>
    <tag k="maxspeed:source" v="default residential speed limit in Australia"/>
    <tag k="name" v="Crawford Road"/>
  </way>
  <way id="25551250" version="4" timestamp="2010-07-09T06:52:28Z" uid="74617" user="JohnSmith" changeset="5171412">
    <nd ref="278492041"/>
    <nd ref="278492056"/>
    <nd ref="278492057"/>
    <nd ref="278492058"/>
    <nd ref="278492059"/>
    <nd ref="278492587"/>
    <nd ref="278492060"/>
    <nd ref="278492061"/>
    <nd ref="278492062"/>
    <nd ref="278492063"/>
    <tag k="highway" v="residential"/>
    <tag k="maxspeed" v="50"/>
    <tag k="maxspeed:source" v="default residential speed limit in Australia"/>
    <tag k="name" v="Gellibrand Road"/>
  </way>
  <way id="25551253" version="3" timestamp="2010-07-09T06:59:02Z" uid="74617" user="JohnSmith" changeset="5171412">
    <nd ref="278492269"/>
    <nd ref="278492270"/>
    <nd ref="278492271"/>
    <nd ref="278492272"/>
    <tag k="highway" v="residential"/>
    <tag k="maxspeed" v="50"/>
    <tag k="maxspeed:source" v="default residential speed limit in Australia"/>
    <tag k="name" v="Broughton Way"/>
  </way>
  <way id="25551279" version="3" timestamp="2010-07-09T07:06:01Z" uid="74617" user="JohnSmith" changeset="5171412">
    <nd ref="278492587"/>
    <nd ref="278492601"/>
    <tag k="highway" v="residential"/>
    <tag k="maxspeed" v="50"/>
    <tag k="maxspeed:source" v="default residential speed limit in Australia"/>
    <tag k="name" v="Chester Court"/>
  </way>
  <way id="25551283" version="3" timestamp="2010-07-09T06:58:17Z" uid="74617" user="JohnSmith" changeset="5171412">
    <nd ref="278491868"/>
    <nd ref="278492704"/>
    <nd ref="278492705"/>
    <nd ref="278492706"/>
    <nd ref="278492702"/>
    <nd ref="278492703"/>
    <nd ref="278492704"/>
    <tag k="highway" v="residential"/>
    <tag k="maxspeed" v="50"/>
    <tag k="maxspeed:source" v="default residential speed limit in Australia"/>
    <tag k="name" v="Maycock Place"/>
  </way>
  <way id="25551287" version="3" timestamp="2010-07-09T06:56:09Z" uid="74617" user="JohnSmith" changeset="5171412">
    <nd ref="278491870"/>
    <nd ref="278492730"/>
    <tag k="highway" v="residential"/>
    <tag k="maxspeed" v="50"/>
    <tag k="maxspeed:source" v="default residential speed limit in Australia"/>
    <tag k="name" v="Jeffers Court"/>
  </way>
  <way id="25551290" version="3" timestamp="2010-07-09T06:59:54Z" uid="74617" user="JohnSmith" changeset="5171412">
    <nd ref="278492731"/>
    <nd ref="278492764"/>
    <tag k="highway" v="residential"/>
    <tag k="maxspeed" v="50"/>
    <tag k="maxspeed:source" v="default residential speed limit in Australia"/>
    <tag k="name" v="Powell Court"/>
  </way>
  <way id="25551295" version="3" timestamp="2010-07-09T07:00:57Z" uid="74617" user="JohnSmith" changeset="5171412">
    <nd ref="278492946"/>
    <nd ref="278492948"/>
    <tag k="highway" v="residential"/>
    <tag k="maxspeed" v="50"/>
    <tag k="maxspeed:source" v="default residential speed limit in Australia"/>
    <tag k="name" v="Gamble Place"/>
  </way>
  <way id="25551304" version="3" timestamp="2010-07-09T07:01:58Z" uid="74617" user="JohnSmith" changeset="5171412">
    <nd ref="278492952"/>
    <nd ref="278493057"/>
    <nd ref="278493054"/>
    <nd ref="278493055"/>
    <nd ref="278493056"/>
    <nd ref="278493057"/>
    <tag k="highway" v="residential"/>
    <tag k="maxspeed" v="50"/>
    <tag k="maxspeed:source" v="default residential speed limit in Australia"/>
    <tag k="name" v="Mulligan Way"/>
  </way>
  <way id="25551329" version="5" timestamp="2010-07-09T07:03:38Z" uid="74617" user="JohnSmith" changeset="5171412">
    <nd ref="278493059"/>
    <nd ref="278493130"/>
    <nd ref="278493131"/>
    <nd ref="278493138"/>
    <nd ref="278493212"/>
    <nd ref="278493132"/>
    <nd ref="278467241"/>
    <tag k="highway" v="residential"/>
    <tag k="maxspeed" v="50"/>
    <tag k="maxspeed:source" v="default residential speed limit in Australia"/>
    <tag k="name" v="Casserley Way"/>
  </way>
  <way id="25551331" version="3" timestamp="2010-07-09T06:57:30Z" uid="74617" user="JohnSmith" changeset="5171412">
    <nd ref="278493131"/>
    <nd ref="278493137"/>
    <tag k="highway" v="residential"/>
    <tag k="maxspeed" v="50"/>
    <tag k="maxspeed:source" v="default residential speed limit in Australia"/>
    <tag k="name" v="Pudney Place"/>
  </way>
  <way id="25551334" version="3" timestamp="2010-07-09T06:52:35Z" uid="74617" user="JohnSmith" changeset="5171412">
    <nd ref="278493138"/>
    <nd ref="278493200"/>
    <tag k="highway" v="residential"/>
    <tag k="maxspeed" v="50"/>
    <tag k="maxspeed:source" v="default residential speed limit in Australia"/>
    <tag k="name" v="Worral Court"/>
  </way>
  <way id="25551340" version="3" timestamp="2010-07-09T07:02:52Z" uid="74617" user="JohnSmith" changeset="5171412">
    <nd ref="278493212"/>
    <nd ref="278493285"/>
    <tag k="highway" v="residential"/>
    <tag k="maxspeed" v="50"/>
    <tag k="maxspeed:source" v="default residential speed limit in Australia"/>
    <tag k="name" v="Burke Place"/>
  </way>
  <way id="25551384" version="3" timestamp="2010-07-09T06:55:18Z" uid="74617" user="JohnSmith" changeset="5171412">
    <nd ref="278493376"/>
    <nd ref="278493792"/>
    <nd ref="278493531"/>
    <nd ref="278493532"/>
    <nd ref="278493631"/>
    <nd ref="278493633"/>
    <nd ref="278493635"/>
    <nd ref="278493537"/>
    <nd ref="278493637"/>
    <nd ref="278493639"/>
    <nd ref="278493641"/>
    <nd ref="278493643"/>
    <nd ref="278493645"/>
    <tag k="highway" v="residential"/>
    <tag k="maxspeed" v="50"/>
    <tag k="maxspeed:source" v="default residential speed limit in Australia"/>
    <tag k="name" v="Reilly Street"/>
  </way>
  <way id="25551388" version="3" timestamp="2010-07-09T06:53:26Z" uid="74617" user="JohnSmith" changeset="5171412">
    <nd ref="278493641"/>
    <nd ref="278493791"/>
    <tag k="highway" v="residential"/>
    <tag k="maxspeed" v="50"/>
    <tag k="maxspeed:source" v="default residential speed limit in Australia"/>
    <tag k="name" v="Ennis Court"/>
  </way>
  <way id="25551390" version="3" timestamp="2010-07-09T07:01:38Z" uid="74617" user="JohnSmith" changeset="5171412">
    <nd ref="278493792"/>
    <nd ref="278493797"/>
    <tag k="highway" v="residential"/>
    <tag k="maxspeed" v="50"/>
    <tag k="maxspeed:source" v="default residential speed limit in Australia"/>
    <tag k="name" v="Roach Place"/>
  </way>
  <way id="25551397" version="2" timestamp="2010-04-29T08:11:57Z" uid="4467" user="Rosscoe" changeset="4555956">
    <nd ref="278494095"/>
    <nd ref="278494096"/>
    <nd ref="278494097"/>
    <nd ref="278494098"/>
    <nd ref="278494099"/>
    <nd ref="278494100"/>
    <nd ref="278494101"/>
    <nd ref="278494102"/>
    <nd ref="278494103"/>
    <nd ref="278494104"/>
    <nd ref="711583369"/>
    <nd ref="278494105"/>
    <nd ref="711583350"/>
    <nd ref="278494106"/>
    <nd ref="278494095"/>
    <tag k="leisure" v="park"/>
  </way>
  <way id="25551405" version="3" timestamp="2010-07-09T07:04:53Z" uid="74617" user="JohnSmith" changeset="5171412">
    <nd ref="278494107"/>
    <nd ref="278494239"/>
    <nd ref="278494240"/>
    <nd ref="278494241"/>
    <tag k="highway" v="residential"/>
    <tag k="maxspeed" v="50"/>
    <tag k="maxspeed:source" v="default residential speed limit in Australia"/>
    <tag k="name" v="Leghorn Road"/>
  </way>
  <way id="25551409" version="3" timestamp="2010-07-09T06:57:11Z" uid="74617" user="JohnSmith" changeset="5171412">
    <nd ref="278491646"/>
    <nd ref="278494256"/>
    <nd ref="278494257"/>
    <tag k="highway" v="residential"/>
    <tag k="maxspeed" v="50"/>
    <tag k="maxspeed:source" v="default residential speed limit in Australia"/>
    <tag k="name" v="Wiggins Road"/>
  </way>
  <way id="25551411" version="2" timestamp="2010-07-09T07:05:21Z" uid="74617" user="JohnSmith" changeset="5171412">
    <nd ref="278494256"/>
    <nd ref="278494272"/>
    <tag k="highway" v="residential"/>
    <tag k="maxspeed" v="50"/>
    <tag k="maxspeed:source" v="default residential speed limit in Australia"/>
  </way>
  <way id="25551422" version="4" timestamp="2010-07-09T07:04:37Z" uid="74617" user="JohnSmith" changeset="5171412">
    <nd ref="278494288"/>
    <nd ref="278494550"/>
    <nd ref="278494777"/>
    <nd ref="278494552"/>
    <nd ref="278494553"/>
    <nd ref="278494554"/>
    <nd ref="278494555"/>
    <nd ref="278494556"/>
    <nd ref="278494772"/>
    <nd ref="278494775"/>
    <nd ref="278494776"/>
    <nd ref="278494777"/>
    <tag k="highway" v="residential"/>
    <tag k="maxspeed" v="50"/>
    <tag k="maxspeed:source" v="default residential speed limit in Australia"/>
    <tag k="name" v="Dowling Place"/>
  </way>
  <way id="25551442" version="3" timestamp="2010-07-09T06:53:03Z" uid="74617" user="JohnSmith" changeset="5171412">
    <nd ref="278494778"/>
    <nd ref="278494779"/>
    <tag k="highway" v="residential"/>
    <tag k="maxspeed" v="50"/>
    <tag k="maxspeed:source" v="default residential speed limit in Australia"/>
    <tag k="name" v="Jacques Place"/>
  </way>
  <way id="25551444" version="4" timestamp="2010-07-09T06:56:32Z" uid="74617" user="JohnSmith" changeset="5171412">
    <nd ref="278494781"/>
    <nd ref="278494782"/>
    <nd ref="278494784"/>
    <nd ref="647378704"/>
    <nd ref="278494785"/>
    <nd ref="647378787"/>
    <nd ref="647378789"/>
    <tag k="highway" v="residential"/>
    <tag k="maxspeed" v="50"/>
    <tag k="maxspeed:source" v="default residential speed limit in Australia"/>
    <tag k="name" v="Clarinda Avenue"/>
  </way>
  <way id="25551467" version="4" timestamp="2010-07-09T06:54:41Z" uid="74617" user="JohnSmith" changeset="5171412">
    <nd ref="278494830"/>
    <nd ref="278494965"/>
    <nd ref="793872702"/>
    <tag k="highway" v="residential"/>
    <tag k="maxspeed" v="50"/>
    <tag k="maxspeed:source" v="default residential speed limit in Australia"/>
    <tag k="name" v="Prescott Place"/>
  </way>
  <way id="25551468" version="4" timestamp="2010-07-09T06:55:27Z" uid="74617" user="JohnSmith" changeset="5171412">
    <nd ref="278468589"/>
    <nd ref="278494967"/>
    <nd ref="278494970"/>
    <tag k="highway" v="residential"/>
    <tag k="maxspeed" v="50"/>
    <tag k="maxspeed:source" v="default residential speed limit in Australia"/>
    <tag k="name" v="Milton Place"/>
  </way>
  <way id="25551470" version="4" timestamp="2010-07-09T07:03:47Z" uid="74617" user="JohnSmith" changeset="5171412">
    <nd ref="278494984"/>
    <nd ref="278494986"/>
    <nd ref="278494987"/>
    <nd ref="278494988"/>
    <nd ref="278494989"/>
    <nd ref="278494990"/>
    <nd ref="278494991"/>
    <tag k="highway" v="residential"/>
    <tag k="maxspeed" v="50"/>
    <tag k="maxspeed:source" v="default residential speed limit in Australia"/>
    <tag k="name" v="Nathaniel Way"/>
  </way>
  <way id="25551471" version="3" timestamp="2010-07-09T06:52:44Z" uid="74617" user="JohnSmith" changeset="5171412">
    <nd ref="278494992"/>
    <nd ref="278494993"/>
    <nd ref="278494994"/>
    <nd ref="278494995"/>
    <nd ref="278494996"/>
    <tag k="highway" v="residential"/>
    <tag k="maxspeed" v="50"/>
    <tag k="maxspeed:source" v="default residential speed limit in Australia"/>
    <tag k="name" v="Dent Court"/>
  </way>
  <way id="25551473" version="6" timestamp="2011-02-05T12:27:38Z" uid="16922" user="amai" changeset="7191740">
    <nd ref="278495023"/>
    <nd ref="278495024"/>
    <nd ref="278495025"/>
    <tag k="highway" v="residential"/>
    <tag k="is_in" v="Bangkok, Thailand"/>
    <tag k="name:en" v="Sukhumvit 2 (Soi Pha Sok)"/>
    <tag k="source" v="Yahoo! Aerial Imagery"/>
  </way>
  <way id="25551507" version="1" timestamp="2008-07-14T15:02:54Z" uid="49111" user="Markus B" changeset="487737">
    <nd ref="278495415"/>
    <nd ref="278495417"/>
    <tag k="created_by" v="Potlatch 0.9c"/>
  </way>
  <way id="25551513" version="1" timestamp="2008-07-14T15:03:25Z" uid="16579" user="bjk" changeset="486019">
    <nd ref="278495622"/>
    <nd ref="26965291"/>
    <nd ref="26965290"/>
    <nd ref="26965289"/>
    <nd ref="26965288"/>
    <nd ref="26965287"/>
    <nd ref="26965286"/>
    <nd ref="26965285"/>
    <nd ref="26965284"/>
    <nd ref="26965283"/>
    <nd ref="26965282"/>
    <nd ref="26965281"/>
    <nd ref="26965280"/>
    <nd ref="26965279"/>
    <nd ref="26965278"/>
    <nd ref="26965277"/>
    <nd ref="26965276"/>
    <tag k="created_by" v="fixbot"/>
    <tag k="highway" v="secondary"/>
    <tag k="name" v="Olper Straße"/>
    <tag k="ref" v="L136"/>
  </way>
  <way id="25551513" version="2" timestamp="2008-07-14T15:05:55Z" uid="16579" user="bjk" changeset="486019">
    <nd ref="278495622"/>
    <nd ref="278496092"/>
    <nd ref="26965291"/>
    <nd ref="26965290"/>
    <nd ref="26965289"/>
    <nd ref="26965288"/>
    <nd ref="26965287"/>
    <nd ref="26965286"/>
    <nd ref="26965285"/>
    <nd ref="26965284"/>
    <nd ref="26965283"/>
    <nd ref="26965282"/>
    <nd ref="26965281"/>
    <nd ref="26965280"/>
    <nd ref="26965279"/>
    <nd ref="26965278"/>
    <nd ref="26965277"/>
    <nd ref="26965276"/>
    <tag k="created_by" v="fixbot"/>
    <tag k="highway" v="secondary"/>
    <tag k="name" v="Olper Straße"/>
    <tag k="ref" v="L136"/>
  </way>
  <way id="25551513" version="3" timestamp="2008-07-14T15:12:47Z" uid="16579" user="bjk" changeset="486019">
    <nd ref="278495622"/>
    <nd ref="278496092"/>
    <nd ref="26965291"/>
    <nd ref="26965290"/>
    <nd ref="278498759"/>
    <nd ref="26965289"/>
    <nd ref="26965288"/>
    <nd ref="26965287"/>
    <nd ref="26965286"/>
    <nd ref="26965285"/>
    <nd ref="26965284"/>
    <nd ref="26965283"/>
    <nd ref="26965282"/>
    <nd ref="26965281"/>
    <nd ref="26965280"/>
    <nd ref="26965279"/>
    <nd ref="26965278"/>
    <nd ref="26965277"/>
    <nd ref="26965276"/>
    <tag k="created_by" v="fixbot"/>
    <tag k="highway" v="secondary"/>
    <tag k="name" v="Olper Straße"/>
    <tag k="ref" v="L136"/>
  </way>
  <way id="25551514" version="1" timestamp="2008-07-14T15:03:25Z" uid="16579" user="bjk" changeset="486019">
    <nd ref="26965292"/>
    <nd ref="278495624"/>
    <nd ref="278495622"/>
    <nd ref="278495625"/>
    <nd ref="26965292"/>
    <tag k="highway" v="secondary"/>
    <tag k="junction" v="roundabout"/>
    <tag k="name" v="Olper Straße"/>
    <tag k="ref" v="L136"/>
  </way>
  <way id="25551514" version="2" timestamp="2008-07-14T15:05:56Z" uid="16579" user="bjk" changeset="486019">
    <nd ref="26965292"/>
    <nd ref="278496088"/>
    <nd ref="278495624"/>
    <nd ref="278496089"/>
    <nd ref="278495622"/>
    <nd ref="278496091"/>
    <nd ref="278495625"/>
    <nd ref="278496087"/>
    <nd ref="26965292"/>
    <tag k="highway" v="secondary"/>
    <tag k="junction" v="roundabout"/>
    <tag k="name" v="Olper Straße"/>
    <tag k="ref" v="L136"/>
  </way>
  <way id="25551539" version="2" timestamp="2008-08-14T21:04:39Z" uid="6975" user="ulfl" changeset="264731">
    <nd ref="278495452"/>
    <nd ref="278495484"/>
    <nd ref="278495477"/>
    <nd ref="278495481"/>
    <nd ref="278495482"/>
    <nd ref="278495479"/>
    <nd ref="278495480"/>
    <tag k="highway" v="unclassified"/>
    <tag k="name" v="impasse du Clos-Brissac"/>
    <tag k="noexit" v="yes"/>
  </way>
  <way id="25551556" version="2" timestamp="2008-08-14T21:04:39Z" uid="6975" user="ulfl" changeset="264731">
    <nd ref="278495483"/>
    <nd ref="278495470"/>
    <nd ref="278495492"/>
    <tag k="highway" v="residential"/>
    <tag k="name" v="rue Croix de la Comtesse"/>
    <tag k="noexit" v="yes"/>
  </way>
  <way id="25551603" version="7" timestamp="2011-02-05T12:27:36Z" uid="16922" user="amai" changeset="7191740">
    <nd ref="278495966"/>
    <nd ref="278496309"/>
    <nd ref="278496310"/>
    <nd ref="278496311"/>
    <tag k="highway" v="residential"/>
    <tag k="is_in" v="Bangkok, Thailand"/>
    <tag k="name:en" v="Sukhumvit 6 (Soi Phrai Pha Sok)"/>
    <tag k="source" v="Yahoo! Aerial Imagery"/>
  </way>
  <way id="25551624" version="1" timestamp="2008-07-14T15:08:33Z" uid="49111" user="Markus B" changeset="487737">
    <nd ref="278496654"/>
    <nd ref="278496655"/>
    <nd ref="278496656"/>
    <nd ref="278496657"/>
    <nd ref="278496654"/>
    <tag k="created_by" v="Potlatch 0.9c"/>
  </way>
  <way id="25551824" version="2" timestamp="2008-12-08T09:43:18Z" uid="58091" user="Andreas M" changeset="253155">
    <nd ref="271334051"/>
    <nd ref="271334052"/>
    <tag k="created_by" v="Potlatch 0.7b"/>
    <tag k="name" v="1, 62, Badner Bahn"/>
    <tag k="railway" v="tram"/>
  </way>
  <way id="25551852" version="1" timestamp="2008-07-14T15:12:47Z" uid="16579" user="bjk" changeset="486019">
    <nd ref="278498759"/>
    <nd ref="278498761"/>
    <nd ref="278498763"/>
    <nd ref="278498764"/>
    <nd ref="278498766"/>
    <nd ref="278498768"/>
    <nd ref="278498769"/>
    <nd ref="278498793"/>
    <nd ref="278498795"/>
    <nd ref="278498796"/>
    <nd ref="278498798"/>
    <nd ref="278498800"/>
    <nd ref="278498802"/>
    <tag k="highway" v="tertiary"/>
  </way>
  <way id="25551853" version="1" timestamp="2008-07-14T15:12:47Z" uid="16579" user="bjk" changeset="486019">
    <nd ref="25777452"/>
    <nd ref="25777454"/>
    <nd ref="25777457"/>
    <tag k="bridge" v="yes"/>
    <tag k="created_by" v="JOSM"/>
    <tag k="highway" v="motorway"/>
    <tag k="layer" v="5"/>
    <tag k="name" v="A4"/>
    <tag k="oneway" v="true"/>
  </way>
  <way id="25551877" version="10" timestamp="2011-02-12T09:18:43Z" uid="16922" user="amai" changeset="7262536">
    <nd ref="278499094"/>
    <nd ref="278499294"/>
    <nd ref="278499673"/>
    <nd ref="757284934"/>
    <nd ref="776323305"/>
    <nd ref="278499095"/>
    <nd ref="776323361"/>
    <nd ref="278499096"/>
    <nd ref="278499097"/>
    <nd ref="278499098"/>
    <nd ref="776527034"/>
    <nd ref="776467537"/>
    <nd ref="278499099"/>
    <nd ref="278499100"/>
    <nd ref="278499101"/>
    <tag k="highway" v="tertiary"/>
    <tag k="name:en" v="Bangna-Trad Soi 23 (Soi Central Bangna)"/>
  </way>
  <way id="25551890" version="4" timestamp="2011-03-15T22:46:16Z" uid="16922" user="amai" changeset="7571397">
    <nd ref="1203782632"/>
    <nd ref="278499217"/>
    <nd ref="278499218"/>
    <tag k="highway" v="tertiary"/>
  </way>
  <way id="25551959" version="1" timestamp="2008-07-14T15:21:18Z" uid="16579" user="bjk" changeset="486019">
    <nd ref="278498802"/>
    <nd ref="278499960"/>
    <nd ref="278499961"/>
    <nd ref="278499962"/>
    <nd ref="278499963"/>
    <nd ref="278499964"/>
    <nd ref="278499965"/>
    <nd ref="278499967"/>
    <nd ref="278499968"/>
    <nd ref="278499969"/>
    <nd ref="278499970"/>
    <nd ref="278499971"/>
    <nd ref="278499972"/>
    <nd ref="278499973"/>
    <nd ref="278499974"/>
    <nd ref="278499975"/>
    <nd ref="278499976"/>
    <nd ref="278499977"/>
    <tag k="highway" v="residential"/>
    <tag k="name" v="Frielinghausener Straße"/>
  </way>
  <way id="25551960" version="1" timestamp="2008-07-14T15:21:19Z" uid="16579" user="bjk" changeset="486019">
    <nd ref="278499977"/>
    <nd ref="278499978"/>
    <nd ref="278499979"/>
    <nd ref="278499980"/>
    <nd ref="278499981"/>
    <nd ref="278499982"/>
    <nd ref="278499983"/>
    <nd ref="278499984"/>
    <nd ref="278499985"/>
    <nd ref="278499986"/>
    <nd ref="278499987"/>
    <nd ref="278499988"/>
    <nd ref="278499989"/>
    <nd ref="278499990"/>
    <nd ref="278499991"/>
    <nd ref="278499992"/>
    <tag k="highway" v="residential"/>
    <tag k="name" v="Höhenstraße"/>
  </way>
  <way id="25551961" version="1" timestamp="2008-07-14T15:21:19Z" uid="16579" user="bjk" changeset="486019">
    <nd ref="278499992"/>
    <nd ref="278499993"/>
    <nd ref="278499994"/>
    <nd ref="278499995"/>
    <nd ref="278499996"/>
    <nd ref="278499997"/>
    <nd ref="278499998"/>
    <nd ref="278499999"/>
    <nd ref="278500000"/>
    <nd ref="278499967"/>
    <tag k="highway" v="residential"/>
  </way>
  <way id="25551962" version="1" timestamp="2008-07-14T15:21:19Z" uid="16579" user="bjk" changeset="486019">
    <nd ref="278499985"/>
    <nd ref="278500001"/>
    <nd ref="278500002"/>
    <nd ref="278500003"/>
    <nd ref="278500004"/>
    <nd ref="278500005"/>
    <nd ref="278500006"/>
    <nd ref="278500007"/>
    <nd ref="278500008"/>
    <nd ref="278500009"/>
    <nd ref="278500010"/>
    <nd ref="278500011"/>
    <nd ref="278500012"/>
    <nd ref="278500013"/>
    <nd ref="278500014"/>
    <nd ref="278500015"/>
    <nd ref="278500016"/>
    <tag k="highway" v="residential"/>
  </way>
  <way id="25551971" version="24" timestamp="2011-03-04T23:19:00Z" uid="16922" user="amai" changeset="7459083">
    <nd ref="312036057"/>
    <nd ref="676781526"/>
    <nd ref="312036058"/>
    <nd ref="696941450"/>
    <nd ref="312036059"/>
    <nd ref="1186560064"/>
    <nd ref="312036060"/>
    <nd ref="312036061"/>
    <nd ref="312036062"/>
    <nd ref="696941449"/>
    <nd ref="312036064"/>
    <nd ref="1186560036"/>
    <nd ref="696941448"/>
    <tag k="highway" v="tertiary"/>
    <tag k="name" v="เฉลิมพระเกียรติ ร.9"/>
    <tag k="name:en" v="Chaloem Phrakiat Ratchakan Thi 9"/>
    <tag k="name:th" v="เฉลิมพระเกียรติ ร.9 ซอย 28"/>
    <tag k="surface" v="paved"/>
  </way>
  <way id="25551999" version="1" timestamp="2008-07-14T15:24:37Z" uid="16579" user="bjk" changeset="486019">
    <nd ref="278500565"/>
    <nd ref="278500566"/>
    <nd ref="278500567"/>
    <nd ref="278500569"/>
    <nd ref="278500570"/>
    <nd ref="278500571"/>
    <tag k="highway" v="service"/>
  </way>
</osm>
