<?xml version='1.0' encoding='UTF-8'?>
<osm version="0.6" generator="libosmium/2.20.0">
  <way id="25564012" version="4" timestamp="2011-04-28T20:34:54Z" uid="33382" user="de_muur" changeset="7998523">
    <nd ref="274753510"/>
    <nd ref="278633480"/>
    <nd ref="278633481"/>
    <nd ref="278633482"/>
    <nd ref="278633483"/>
    <nd ref="278633484"/>
    <nd ref="278633485"/>
    <nd ref="278633486"/>
    <nd ref="278633487"/>
    <nd ref="278633488"/>
    <nd ref="278633489"/>
    <nd ref="278633490"/>
    <nd ref="278633491"/>
    <nd ref="278633492"/>
    <nd ref="278633493"/>
    <nd ref="278633494"/>
    <nd ref="278633495"/>
    <nd ref="278633496"/>
    <nd ref="278633497"/>
    <nd ref="274702720"/>
    <tag k="bicycle" v="yes"/>
    <tag k="foot" v="yes"/>
    <tag k="highway" v="track"/>
    <tag k="motorcar" v="no"/>
    <tag k="surface" v="unpaved"/>
    <tag k="tracktype" v="grade2"/>
  </way>
  <way id="25564015" version="4" timestamp="2009-08-10T04:24:40Z" uid="4467" user="Rosscoe" changeset="2092729">
    <nd ref="278622173"/>
    <nd ref="278633510"/>
    <nd ref="278633509"/>
    <nd ref="278633508"/>
    <nd ref="278633609"/>
    <nd ref="278633610"/>
    <nd ref="278633611"/>
    <nd ref="278633612"/>
    <nd ref="278633613"/>
    <nd ref="278633614"/>
    <tag k="highway" v="residential"/>
    <tag k="is_in" v="Coober Pedy, SA, South Australia, Australia"/>
    <tag k="maxspeed" v="50"/>
    <tag k="name" v="Marquardt Road"/>
  </way>
  <way id="25564017" version="2" timestamp="2009-07-12T06:43:47Z" uid="74617" user="JohnSmith" changeset="1803547">
    <nd ref="278633503"/>
    <nd ref="278633504"/>
    <tag k="highway" v="unclassified"/>
    <tag k="name" v="Avoca Street"/>
    <tag k="oneway" v="yes"/>
    <tag k="source" v="survey"/>
  </way>
  <way id="25564018" version="2" timestamp="2009-07-12T06:34:33Z" uid="74617" user="JohnSmith" changeset="1803492">
    <nd ref="278633505"/>
    <nd ref="278633506"/>
    <nd ref="278633507"/>
    <tag k="highway" v="residential"/>
    <tag k="name" v="Dutton Street"/>
    <tag k="source" v="survey"/>
  </way>
  <way id="25564018" version="3" timestamp="2010-07-06T18:39:48Z" uid="74617" user="JohnSmith" changeset="5152225">
    <nd ref="278633505"/>
    <nd ref="278633506"/>
    <nd ref="278633507"/>
    <tag k="highway" v="residential"/>
    <tag k="maxspeed" v="50"/>
    <tag k="maxspeed:source" v="default residential speed limit in Australia"/>
    <tag k="name" v="Dutton Street"/>
    <tag k="source" v="survey"/>
  </way>
  <way id="25564019" version="2" timestamp="2009-07-12T06:34:30Z" uid="74617" user="JohnSmith" changeset="1803492">
    <nd ref="278633507"/>
    <nd ref="278633511"/>
    <nd ref="278633512"/>
    <tag k="highway" v="residential"/>
    <tag k="name" v="Norman Street"/>
    <tag k="source" v="survey"/>
  </way>
  <way id="25564019" version="3" timestamp="2010-07-06T18:40:43Z" uid="74617" user="JohnSmith" changeset="5152225">
    <nd ref="278633507"/>
    <nd ref="278633511"/>
    <nd ref="278633512"/>
    <tag k="highway" v="residential"/>
    <tag k="maxspeed" v="50"/>
    <tag k="maxspeed:source" v="default residential speed limit in Australia"/>
    <tag k="name" v="Norman Street"/>
    <tag k="source" v="survey"/>
  </way>
  <way id="25564021" version="2" timestamp="2009-07-12T06:34:31Z" uid="74617" user="JohnSmith" changeset="1803492">
    <nd ref="278633514"/>
    <nd ref="278633516"/>
    <nd ref="278633515"/>
    <tag k="highway" v="residential"/>
    <tag k="name" v="Dalgleish Street"/>
    <tag k="source" v="survey"/>
  </way>
  <way id="25564021" version="3" timestamp="2010-07-06T18:38:38Z" uid="74617" user="JohnSmith" changeset="5152225">
    <nd ref="278633514"/>
    <nd ref="278633516"/>
    <nd ref="278633515"/>
    <tag k="highway" v="residential"/>
    <tag k="maxspeed" v="50"/>
    <tag k="maxspeed:source" v="default residential speed limit in Australia"/>
    <tag k="name" v="Dalgleish Street"/>
    <tag k="source" v="survey"/>
  </way>
  <way id="25564022" version="5" timestamp="2009-07-12T06:34:07Z" uid="74617" user="JohnSmith" changeset="1803492">
    <nd ref="21498282"/>
    <nd ref="285780051"/>
    <nd ref="282201670"/>
    <nd ref="296350336"/>
    <nd ref="278633516"/>
    <nd ref="278633517"/>
    <tag k="highway" v="residential"/>
    <tag k="name" v="Short Street"/>
    <tag k="source" v="survey"/>
  </way>
  <way id="25564022" version="7" timestamp="2010-07-06T18:35:04Z" uid="74617" user="JohnSmith" changeset="5152225">
    <nd ref="21498282"/>
    <nd ref="285780051"/>
    <nd ref="282201670"/>
    <nd ref="498526734"/>
    <nd ref="296350336"/>
    <nd ref="278633516"/>
    <nd ref="278633517"/>
    <tag k="highway" v="residential"/>
    <tag k="maxspeed" v="50"/>
    <tag k="maxspeed:source" v="default residential speed limit in Australia"/>
    <tag k="name" v="Short Street"/>
    <tag k="source" v="survey"/>
  </way>
  <way id="25564023" version="2" timestamp="2009-07-12T06:34:26Z" uid="74617" user="JohnSmith" changeset="1803492">
    <nd ref="278633518"/>
    <nd ref="278633543"/>
    <nd ref="278633519"/>
    <nd ref="278633520"/>
    <tag k="highway" v="residential"/>
    <tag k="name" v="Klein Street"/>
    <tag k="source" v="survey"/>
  </way>
  <way id="25564023" version="3" timestamp="2010-07-06T18:36:11Z" uid="74617" user="JohnSmith" changeset="5152225">
    <nd ref="278633518"/>
    <nd ref="278633543"/>
    <nd ref="278633519"/>
    <nd ref="278633520"/>
    <tag k="highway" v="residential"/>
    <tag k="maxspeed" v="50"/>
    <tag k="maxspeed:source" v="default residential speed limit in Australia"/>
    <tag k="name" v="Klein Street"/>
    <tag k="source" v="survey"/>
  </way>
  <way id="25564024" version="2" timestamp="2009-07-12T06:34:27Z" uid="74617" user="JohnSmith" changeset="1803492">
    <nd ref="278633551"/>
    <nd ref="278633523"/>
    <nd ref="278633543"/>
    <tag k="highway" v="residential"/>
    <tag k="name" v="Tame Street"/>
    <tag k="source" v="survey"/>
  </way>
  <way id="25564024" version="3" timestamp="2010-07-06T18:36:07Z" uid="74617" user="JohnSmith" changeset="5152225">
    <nd ref="278633551"/>
    <nd ref="278633523"/>
    <nd ref="278633543"/>
    <tag k="highway" v="residential"/>
    <tag k="maxspeed" v="50"/>
    <tag k="maxspeed:source" v="default residential speed limit in Australia"/>
    <tag k="name" v="Tame Street"/>
    <tag k="source" v="survey"/>
  </way>
  <way id="25564025" version="2" timestamp="2009-07-12T06:34:08Z" uid="74617" user="JohnSmith" changeset="1803492">
    <nd ref="278633520"/>
    <nd ref="278633521"/>
    <tag k="highway" v="residential"/>
    <tag k="name" v="Binns Street"/>
    <tag k="source" v="survey"/>
  </way>
  <way id="25564025" version="3" timestamp="2010-07-06T18:37:27Z" uid="74617" user="JohnSmith" changeset="5152225">
    <nd ref="278633520"/>
    <nd ref="278633521"/>
    <tag k="highway" v="residential"/>
    <tag k="maxspeed" v="50"/>
    <tag k="maxspeed:source" v="default residential speed limit in Australia"/>
    <tag k="name" v="Binns Street"/>
    <tag k="source" v="survey"/>
  </way>
  <way id="25564026" version="2" timestamp="2009-07-12T06:34:12Z" uid="74617" user="JohnSmith" changeset="1803492">
    <nd ref="278633521"/>
    <nd ref="278633522"/>
    <nd ref="278633523"/>
    <tag k="highway" v="residential"/>
    <tag k="name" v="Noela Street"/>
    <tag k="source" v="survey"/>
  </way>
  <way id="25564026" version="3" timestamp="2010-07-06T18:41:06Z" uid="74617" user="JohnSmith" changeset="5152225">
    <nd ref="278633521"/>
    <nd ref="278633522"/>
    <nd ref="278633523"/>
    <tag k="highway" v="residential"/>
    <tag k="maxspeed" v="50"/>
    <tag k="maxspeed:source" v="default residential speed limit in Australia"/>
    <tag k="name" v="Noela Street"/>
    <tag k="source" v="survey"/>
  </way>
  <way id="25564027" version="2" timestamp="2009-07-12T06:34:26Z" uid="74617" user="JohnSmith" changeset="1803492">
    <nd ref="278633552"/>
    <nd ref="278633553"/>
    <tag k="highway" v="residential"/>
    <tag k="name" v="Hughes Street"/>
    <tag k="source" v="survey"/>
  </way>
  <way id="25564027" version="3" timestamp="2010-07-06T18:35:00Z" uid="74617" user="JohnSmith" changeset="5152225">
    <nd ref="278633552"/>
    <nd ref="278633553"/>
    <tag k="highway" v="residential"/>
    <tag k="maxspeed" v="50"/>
    <tag k="maxspeed:source" v="default residential speed limit in Australia"/>
    <tag k="name" v="Hughes Street"/>
    <tag k="source" v="survey"/>
  </way>
  <way id="25564028" version="3" timestamp="2009-07-12T06:34:12Z" uid="74617" user="JohnSmith" changeset="1803492">
    <nd ref="278633554"/>
    <nd ref="332792800"/>
    <nd ref="278633555"/>
    <tag k="highway" v="residential"/>
    <tag k="name" v="Baird Street"/>
    <tag k="source" v="survey"/>
  </way>
  <way id="25564028" version="4" timestamp="2010-07-06T18:39:16Z" uid="74617" user="JohnSmith" changeset="5152225">
    <nd ref="278633554"/>
    <nd ref="332792800"/>
    <nd ref="278633555"/>
    <tag k="highway" v="residential"/>
    <tag k="maxspeed" v="50"/>
    <tag k="maxspeed:source" v="default residential speed limit in Australia"/>
    <tag k="name" v="Baird Street"/>
    <tag k="source" v="survey"/>
  </way>
  <way id="25564030" version="2" timestamp="2009-07-12T06:34:15Z" uid="74617" user="JohnSmith" changeset="1803492">
    <nd ref="278633556"/>
    <nd ref="278633557"/>
    <nd ref="278633558"/>
    <tag k="highway" v="residential"/>
    <tag k="name" v="Cortess Street"/>
    <tag k="source" v="survey"/>
  </way>
  <way id="25564030" version="5" timestamp="2010-07-06T18:36:58Z" uid="74617" user="JohnSmith" changeset="5152225">
    <nd ref="482842625"/>
    <nd ref="278633556"/>
    <nd ref="503797568"/>
    <nd ref="278633557"/>
    <nd ref="278633558"/>
    <tag k="highway" v="residential"/>
    <tag k="maxspeed" v="50"/>
    <tag k="maxspeed:source" v="default residential speed limit in Australia"/>
    <tag k="name" v="Cortess Street"/>
    <tag k="source" v="survey"/>
  </way>
  <way id="25564031" version="2" timestamp="2009-07-12T06:34:02Z" uid="74617" user="JohnSmith" changeset="1803492">
    <nd ref="278633558"/>
    <nd ref="278633559"/>
    <nd ref="278633560"/>
    <nd ref="278633561"/>
    <nd ref="278633562"/>
    <nd ref="278633563"/>
    <nd ref="278633564"/>
    <tag k="highway" v="residential"/>
    <tag k="name" v="Creedon Drive"/>
    <tag k="source" v="survey"/>
  </way>
  <way id="25564031" version="5" timestamp="2010-07-06T18:38:03Z" uid="74617" user="JohnSmith" changeset="5152225">
    <nd ref="278633558"/>
    <nd ref="278633559"/>
    <nd ref="278633560"/>
    <nd ref="503797561"/>
    <nd ref="278633561"/>
    <nd ref="503797564"/>
    <nd ref="278633562"/>
    <nd ref="503797558"/>
    <nd ref="503797556"/>
    <nd ref="278633563"/>
    <nd ref="278633564"/>
    <tag k="highway" v="residential"/>
    <tag k="maxspeed" v="50"/>
    <tag k="maxspeed:source" v="default residential speed limit in Australia"/>
    <tag k="name" v="Creedon Drive"/>
    <tag k="source" v="survey"/>
  </way>
  <way id="25564033" version="2" timestamp="2009-07-12T06:34:08Z" uid="74617" user="JohnSmith" changeset="1803492">
    <nd ref="272630895"/>
    <nd ref="272630696"/>
    <nd ref="278633574"/>
    <nd ref="276560616"/>
    <nd ref="276560623"/>
    <nd ref="278633566"/>
    <nd ref="278633565"/>
    <nd ref="278633564"/>
    <tag k="highway" v="residential"/>
    <tag k="name" v="Charnley Street"/>
    <tag k="source" v="survey"/>
  </way>
  <way id="25564033" version="5" timestamp="2010-07-06T18:41:00Z" uid="74617" user="JohnSmith" changeset="5152225">
    <nd ref="272630895"/>
    <nd ref="272630696"/>
    <nd ref="278633574"/>
    <nd ref="276560616"/>
    <nd ref="276560623"/>
    <nd ref="503797580"/>
    <nd ref="278633566"/>
    <nd ref="503797584"/>
    <nd ref="503797577"/>
    <nd ref="278633565"/>
    <nd ref="278633564"/>
    <tag k="highway" v="residential"/>
    <tag k="maxspeed" v="50"/>
    <tag k="maxspeed:source" v="default residential speed limit in Australia"/>
    <tag k="name" v="Charnley Street"/>
    <tag k="source" v="survey"/>
  </way>
  <way id="25564034" version="2" timestamp="2009-07-12T06:34:29Z" uid="74617" user="JohnSmith" changeset="1803492">
    <nd ref="278633566"/>
    <nd ref="278633567"/>
    <tag k="highway" v="residential"/>
    <tag k="name" v="Elliot Street"/>
    <tag k="source" v="survey"/>
  </way>
  <way id="25564034" version="4" timestamp="2010-07-06T18:37:56Z" uid="74617" user="JohnSmith" changeset="5152225">
    <nd ref="278633566"/>
    <nd ref="503797587"/>
    <nd ref="503797553"/>
    <nd ref="278633567"/>
    <tag k="highway" v="residential"/>
    <tag k="maxspeed" v="50"/>
    <tag k="maxspeed:source" v="default residential speed limit in Australia"/>
    <tag k="name" v="Elliot Street"/>
    <tag k="source" v="survey"/>
  </way>
  <way id="25564035" version="2" timestamp="2009-07-12T06:34:17Z" uid="74617" user="JohnSmith" changeset="1803492">
    <nd ref="278633572"/>
    <nd ref="278633573"/>
    <tag k="highway" v="residential"/>
    <tag k="name" v="Luke Street"/>
    <tag k="source" v="survey"/>
  </way>
  <way id="25564035" version="3" timestamp="2010-07-06T18:39:07Z" uid="74617" user="JohnSmith" changeset="5152225">
    <nd ref="278633572"/>
    <nd ref="278633573"/>
    <tag k="highway" v="residential"/>
    <tag k="maxspeed" v="50"/>
    <tag k="maxspeed:source" v="default residential speed limit in Australia"/>
    <tag k="name" v="Luke Street"/>
    <tag k="source" v="survey"/>
  </way>
  <way id="25564036" version="2" timestamp="2009-07-12T06:34:20Z" uid="74617" user="JohnSmith" changeset="1803492">
    <nd ref="278633573"/>
    <nd ref="278633574"/>
    <tag k="highway" v="residential"/>
    <tag k="name" v="Noll Street"/>
    <tag k="source" v="survey"/>
  </way>
  <way id="25564036" version="5" timestamp="2010-07-06T18:35:27Z" uid="74617" user="JohnSmith" changeset="5152225">
    <nd ref="482842630"/>
    <nd ref="510035744"/>
    <nd ref="482842625"/>
    <tag k="highway" v="residential"/>
    <tag k="maxspeed" v="50"/>
    <tag k="maxspeed:source" v="default residential speed limit in Australia"/>
    <tag k="name" v="Cortess Street"/>
  </way>
  <way id="25564037" version="2" timestamp="2009-07-12T06:34:02Z" uid="74617" user="JohnSmith" changeset="1803492">
    <nd ref="278633576"/>
    <nd ref="278633577"/>
    <tag k="highway" v="residential"/>
    <tag k="name" v="Obst Street"/>
    <tag k="source" v="survey"/>
  </way>
  <way id="25564037" version="5" timestamp="2010-07-06T18:36:50Z" uid="74617" user="JohnSmith" changeset="5152225">
    <nd ref="278633576"/>
    <nd ref="480473030"/>
    <nd ref="480473025"/>
    <nd ref="480473034"/>
    <nd ref="480473028"/>
    <nd ref="480473037"/>
    <nd ref="278633577"/>
    <tag k="highway" v="residential"/>
    <tag k="maxspeed" v="50"/>
    <tag k="maxspeed:source" v="default residential speed limit in Australia"/>
    <tag k="name" v="Obst Street"/>
    <tag k="source" v="survey"/>
  </way>
  <way id="25564052" version="5" timestamp="2009-08-10T04:24:37Z" uid="4467" user="Rosscoe" changeset="2092729">
    <nd ref="278633868"/>
    <nd ref="278633867"/>
    <nd ref="440131274"/>
    <nd ref="440131273"/>
    <nd ref="278634048"/>
    <nd ref="440131272"/>
    <nd ref="278634049"/>
    <nd ref="440131270"/>
    <nd ref="278634050"/>
    <nd ref="278634051"/>
    <nd ref="278634052"/>
    <nd ref="278634053"/>
    <nd ref="278634073"/>
    <nd ref="278634054"/>
    <nd ref="278634055"/>
    <nd ref="278634056"/>
    <tag k="highway" v="residential"/>
    <tag k="is_in" v="Coober Pedy, SA, South Australia, Australia"/>
    <tag k="maxspeed" v="50"/>
    <tag k="name" v="Matrix Road"/>
  </way>
  <way id="25564052" version="6" timestamp="2010-07-10T22:58:25Z" uid="74617" user="JohnSmith" changeset="5186148">
    <nd ref="278633868"/>
    <nd ref="278633867"/>
    <nd ref="440131274"/>
    <nd ref="440131273"/>
    <nd ref="278634048"/>
    <nd ref="440131272"/>
    <nd ref="278634049"/>
    <nd ref="440131270"/>
    <nd ref="278634050"/>
    <nd ref="278634051"/>
    <nd ref="278634052"/>
    <nd ref="278634053"/>
    <nd ref="278634073"/>
    <nd ref="278634054"/>
    <nd ref="278634055"/>
    <nd ref="278634056"/>
    <tag k="highway" v="residential"/>
    <tag k="maxspeed" v="50"/>
    <tag k="name" v="Matrix Road"/>
  </way>
  <way id="25564072" version="2" timestamp="2009-08-10T04:24:47Z" uid="4467" user="Rosscoe" changeset="2092729">
    <nd ref="278618718"/>
    <nd ref="278634071"/>
    <nd ref="278634072"/>
    <nd ref="278634073"/>
    <tag k="highway" v="residential"/>
    <tag k="is_in" v="Coober Pedy, SA, South Australia, Australia"/>
    <tag k="maxspeed" v="50"/>
    <tag k="name" v="Clarky Road"/>
  </way>
  <way id="25564072" version="3" timestamp="2010-07-10T22:58:35Z" uid="74617" user="JohnSmith" changeset="5186148">
    <nd ref="278618718"/>
    <nd ref="278634071"/>
    <nd ref="278634072"/>
    <nd ref="278634073"/>
    <tag k="highway" v="residential"/>
    <tag k="maxspeed" v="50"/>
    <tag k="name" v="Clarky Road"/>
  </way>
  <way id="25564086" version="2" timestamp="2009-08-10T04:24:41Z" uid="4467" user="Rosscoe" changeset="2092729">
    <nd ref="278634239"/>
    <nd ref="278634240"/>
    <tag k="highway" v="residential"/>
    <tag k="is_in" v="Coober Pedy, SA, South Australia, Australia"/>
    <tag k="maxspeed" v="50"/>
    <tag k="name" v="McDougall Road"/>
  </way>
  <way id="25564086" version="4" timestamp="2010-07-10T22:58:19Z" uid="74617" user="JohnSmith" changeset="5186148">
    <nd ref="678302357"/>
    <nd ref="678302356"/>
    <nd ref="278634239"/>
    <nd ref="678302352"/>
    <nd ref="278634240"/>
    <tag k="highway" v="residential"/>
    <tag k="maxspeed" v="50"/>
    <tag k="name" v="McDougall Road"/>
  </way>
  <way id="25564088" version="3" timestamp="2009-02-03T12:06:02Z" uid="55964" user="Evan Sebire" changeset="107636">
    <nd ref="278621933"/>
    <nd ref="278634252"/>
    <nd ref="278634253"/>
    <nd ref="278634254"/>
    <nd ref="278634255"/>
    <nd ref="278634256"/>
    <nd ref="278634525"/>
    <nd ref="278634526"/>
    <nd ref="278634527"/>
    <nd ref="278634528"/>
    <nd ref="278634529"/>
    <nd ref="278634530"/>
    <nd ref="278634531"/>
    <nd ref="278634532"/>
    <nd ref="278634533"/>
    <nd ref="278634534"/>
    <nd ref="278634535"/>
    <nd ref="278634537"/>
    <nd ref="278634538"/>
    <nd ref="278634539"/>
    <nd ref="278634540"/>
    <nd ref="278634541"/>
    <nd ref="278634542"/>
    <nd ref="278634543"/>
    <nd ref="278634544"/>
    <nd ref="278634545"/>
    <nd ref="278634546"/>
    <nd ref="278634547"/>
    <nd ref="278634548"/>
    <nd ref="278634549"/>
    <nd ref="278634550"/>
    <nd ref="278634551"/>
    <nd ref="278634552"/>
    <nd ref="278634553"/>
    <nd ref="278634554"/>
    <nd ref="278634555"/>
    <nd ref="278634556"/>
    <nd ref="278634557"/>
    <nd ref="340189951"/>
    <nd ref="278634558"/>
    <nd ref="278634559"/>
    <nd ref="278634560"/>
    <nd ref="278634561"/>
    <nd ref="278634562"/>
    <nd ref="278634563"/>
    <nd ref="278634564"/>
    <nd ref="278634565"/>
    <nd ref="278634566"/>
    <nd ref="278634567"/>
    <nd ref="278634569"/>
    <nd ref="278634570"/>
    <nd ref="278634571"/>
    <nd ref="278634572"/>
    <nd ref="278634573"/>
    <nd ref="278634574"/>
    <nd ref="278634575"/>
    <nd ref="278634576"/>
    <nd ref="278634577"/>
    <nd ref="278634578"/>
    <nd ref="278634579"/>
    <nd ref="278634580"/>
    <nd ref="278634581"/>
    <nd ref="278634582"/>
    <nd ref="278634583"/>
    <nd ref="278634584"/>
    <nd ref="278634585"/>
    <nd ref="278634586"/>
    <nd ref="278634587"/>
    <nd ref="278634588"/>
    <nd ref="278634589"/>
    <nd ref="278634590"/>
    <nd ref="278634592"/>
    <nd ref="278634593"/>
    <tag k="created_by" v="Merkaartor 0.13"/>
    <tag k="highway" v="secondary"/>
    <tag k="name" v="Jumping Creek Road"/>
    <tag k="ref" v="S42"/>
  </way>
  <way id="25564088" version="11" timestamp="2011-03-04T11:21:05Z" uid="4467" user="Rosscoe" changeset="7453521">
    <nd ref="278621933"/>
    <nd ref="278634252"/>
    <nd ref="278634253"/>
    <nd ref="278634254"/>
    <nd ref="278634255"/>
    <nd ref="278634256"/>
    <nd ref="278634525"/>
    <nd ref="278634526"/>
    <nd ref="278634527"/>
    <nd ref="278634528"/>
    <nd ref="278634529"/>
    <nd ref="278634530"/>
    <nd ref="278634531"/>
    <nd ref="278634532"/>
    <nd ref="278634533"/>
    <nd ref="278634534"/>
    <nd ref="278634535"/>
    <nd ref="278634537"/>
    <nd ref="278634538"/>
    <nd ref="278634539"/>
    <nd ref="278634540"/>
    <nd ref="278634541"/>
    <nd ref="278634542"/>
    <nd ref="278634543"/>
    <nd ref="278634544"/>
    <nd ref="278634545"/>
    <nd ref="278634546"/>
    <nd ref="278634547"/>
    <nd ref="278634548"/>
    <nd ref="278634549"/>
    <nd ref="278634550"/>
    <nd ref="278634551"/>
    <nd ref="278634552"/>
    <nd ref="278634553"/>
    <nd ref="278634554"/>
    <nd ref="278634555"/>
    <nd ref="278634556"/>
    <nd ref="278634557"/>
    <nd ref="340189951"/>
    <nd ref="421422580"/>
    <nd ref="278634558"/>
    <nd ref="278634559"/>
    <nd ref="278634560"/>
    <nd ref="278634561"/>
    <nd ref="278634562"/>
    <nd ref="278634563"/>
    <nd ref="278634564"/>
    <nd ref="278634565"/>
    <nd ref="278634566"/>
    <nd ref="278634567"/>
    <nd ref="278634569"/>
    <nd ref="278634570"/>
    <nd ref="278634571"/>
    <nd ref="278634572"/>
    <nd ref="278634573"/>
    <nd ref="278634574"/>
    <nd ref="278634575"/>
    <nd ref="278634576"/>
    <nd ref="278634577"/>
    <nd ref="278634578"/>
    <nd ref="278634579"/>
    <nd ref="278634580"/>
    <nd ref="415573145"/>
    <nd ref="278634581"/>
    <nd ref="278634582"/>
    <nd ref="557510728"/>
    <nd ref="278634583"/>
    <nd ref="278634584"/>
    <nd ref="278634585"/>
    <nd ref="278634586"/>
    <nd ref="278634587"/>
    <nd ref="278634588"/>
    <nd ref="278634589"/>
    <nd ref="278634590"/>
    <nd ref="1185709364"/>
    <nd ref="278634592"/>
    <nd ref="278634593"/>
    <tag k="highway" v="tertiary"/>
    <tag k="maxspeed" v="60"/>
    <tag k="name" v="Jumping Creek Road"/>
    <tag k="ref" v="S 42"/>
  </way>
  <way id="25564105" version="7" timestamp="2009-11-21T11:34:33Z" uid="55964" user="Evan Sebire" changeset="3175118">
    <nd ref="278635421"/>
    <nd ref="278635751"/>
    <nd ref="278635753"/>
    <nd ref="321686334"/>
    <nd ref="278635754"/>
    <nd ref="278635755"/>
    <nd ref="278635756"/>
    <nd ref="105516006"/>
    <nd ref="357823411"/>
    <nd ref="31774755"/>
    <nd ref="31774756"/>
    <nd ref="321686344"/>
    <nd ref="105516007"/>
    <nd ref="105516008"/>
    <nd ref="105516009"/>
    <nd ref="31774757"/>
    <nd ref="105516010"/>
    <nd ref="31774758"/>
    <nd ref="105516011"/>
    <nd ref="31774760"/>
    <nd ref="31774761"/>
    <nd ref="105516013"/>
    <nd ref="31774762"/>
    <nd ref="278610321"/>
    <nd ref="278610202"/>
    <tag k="highway" v="primary"/>
    <tag k="name" v="Ringwood - Warrandyte Road"/>
    <tag k="ref" v="S9"/>
  </way>
  <way id="25564105" version="8" timestamp="2010-04-06T01:52:36Z" uid="74617" user="JohnSmith" changeset="4340057">
    <nd ref="278635421"/>
    <nd ref="278635751"/>
    <nd ref="278635753"/>
    <nd ref="321686334"/>
    <nd ref="278635754"/>
    <nd ref="278635755"/>
    <nd ref="278635756"/>
    <nd ref="105516006"/>
    <nd ref="357823411"/>
    <nd ref="31774755"/>
    <nd ref="31774756"/>
    <nd ref="321686344"/>
    <nd ref="105516007"/>
    <nd ref="105516008"/>
    <nd ref="105516009"/>
    <nd ref="31774757"/>
    <nd ref="105516010"/>
    <nd ref="31774758"/>
    <nd ref="105516011"/>
    <nd ref="31774760"/>
    <nd ref="31774761"/>
    <nd ref="105516013"/>
    <nd ref="31774762"/>
    <nd ref="278610321"/>
    <nd ref="278610202"/>
    <tag k="highway" v="primary"/>
    <tag k="name" v="Ringwood - Warrandyte Road"/>
  </way>
  <way id="25564105" version="9" timestamp="2011-03-06T23:15:55Z" uid="4467" user="Rosscoe" changeset="7479737">
    <nd ref="278635421"/>
    <nd ref="278635751"/>
    <nd ref="278635753"/>
    <nd ref="321686334"/>
    <nd ref="278635754"/>
    <nd ref="278635755"/>
    <nd ref="278635756"/>
    <nd ref="105516006"/>
    <nd ref="357823411"/>
    <nd ref="31774755"/>
    <nd ref="31774756"/>
    <nd ref="321686344"/>
    <nd ref="105516007"/>
    <nd ref="105516008"/>
    <nd ref="105516009"/>
    <nd ref="31774757"/>
    <nd ref="105516010"/>
    <nd ref="31774758"/>
    <nd ref="105516011"/>
    <nd ref="31774760"/>
    <nd ref="31774761"/>
    <nd ref="1190118368"/>
    <nd ref="105516013"/>
    <nd ref="31774762"/>
    <nd ref="278610321"/>
    <nd ref="278610202"/>
    <tag k="highway" v="primary"/>
    <tag k="name" v="Ringwood - Warrandyte Road"/>
  </way>
  <way id="25564109" version="3" timestamp="2008-07-15T23:10:27Z" uid="6975" user="ulfl" changeset="505312">
    <nd ref="278634891"/>
    <nd ref="278634893"/>
    <nd ref="278634895"/>
    <nd ref="278634896"/>
    <nd ref="278634898"/>
    <nd ref="278634899"/>
    <nd ref="278634901"/>
    <nd ref="278634902"/>
    <nd ref="278634904"/>
    <nd ref="278634905"/>
    <nd ref="278634907"/>
    <nd ref="278634908"/>
    <nd ref="278634910"/>
    <nd ref="278634911"/>
    <nd ref="278634912"/>
    <nd ref="278638243"/>
    <nd ref="278634914"/>
    <nd ref="278634915"/>
    <nd ref="278634917"/>
    <nd ref="278634919"/>
    <nd ref="278634921"/>
    <nd ref="278634922"/>
    <nd ref="278634924"/>
    <nd ref="278634925"/>
    <nd ref="278634927"/>
    <nd ref="278634891"/>
    <tag k="landuse" v="cemetery"/>
    <tag k="name" v="Friedhof Merklinde"/>
  </way>
  <way id="25564111" version="7" timestamp="2011-03-04T11:21:07Z" uid="4467" user="Rosscoe" changeset="7453521">
    <nd ref="278635096"/>
    <nd ref="278635097"/>
    <nd ref="278635098"/>
    <nd ref="278635099"/>
    <nd ref="278635100"/>
    <nd ref="1185709363"/>
    <nd ref="278635102"/>
    <nd ref="278635103"/>
    <nd ref="278635104"/>
    <nd ref="278635105"/>
    <nd ref="278635107"/>
    <nd ref="278635096"/>
    <tag k="highway" v="primary"/>
    <tag k="junction" v="roundabout"/>
  </way>
  <way id="25564119" version="2" timestamp="2010-07-09T05:22:28Z" uid="74617" user="JohnSmith" changeset="5170972">
    <nd ref="278635096"/>
    <nd ref="278635326"/>
    <nd ref="278635327"/>
    <tag k="highway" v="residential"/>
    <tag k="maxspeed" v="50"/>
    <tag k="maxspeed:source" v="default residential speed limit in Australia"/>
    <tag k="name" v="Hogan Avenue"/>
  </way>
  <way id="25564123" version="3" timestamp="2010-04-06T01:52:35Z" uid="74617" user="JohnSmith" changeset="4340057">
    <nd ref="278635103"/>
    <nd ref="278635420"/>
    <nd ref="278635421"/>
    <tag k="highway" v="primary"/>
    <tag k="name" v="Ringwood - Warrandyte Road"/>
    <tag k="oneway" v="yes"/>
  </way>
  <way id="25564123" version="4" timestamp="2011-03-04T11:21:06Z" uid="4467" user="Rosscoe" changeset="7453521">
    <nd ref="278635103"/>
    <nd ref="278635420"/>
    <nd ref="278635421"/>
    <tag k="highway" v="primary"/>
    <tag k="name" v="Ringwood - Warrandyte Road"/>
    <tag k="oneway" v="yes"/>
  </way>
  <way id="25564126" version="2" timestamp="2010-04-06T02:08:17Z" uid="74617" user="JohnSmith" changeset="4340057">
    <nd ref="278635065"/>
    <nd ref="278635476"/>
    <nd ref="278635099"/>
    <tag k="highway" v="primary"/>
    <tag k="name" v="Ringwood - Warrandyte Road"/>
    <tag k="oneway" v="yes"/>
    <tag k="ref" v="S42"/>
  </way>
  <way id="25564127" version="2" timestamp="2010-04-06T01:52:35Z" uid="74617" user="JohnSmith" changeset="4340057">
    <nd ref="278635421"/>
    <nd ref="278635422"/>
    <nd ref="278635105"/>
    <tag k="highway" v="primary"/>
    <tag k="name" v="Ringwood - Warrandyte Road"/>
    <tag k="oneway" v="yes"/>
  </way>
  <way id="25564131" version="5" timestamp="2011-03-04T11:21:07Z" uid="4467" user="Rosscoe" changeset="7453521">
    <nd ref="278634593"/>
    <nd ref="278635392"/>
    <nd ref="278635102"/>
    <tag k="highway" v="tertiary"/>
    <tag k="name" v="Jumping Creek Road"/>
    <tag k="oneway" v="yes"/>
    <tag k="ref" v="S 42"/>
  </way>
  <way id="25564138" version="3" timestamp="2010-04-06T02:08:17Z" uid="74617" user="JohnSmith" changeset="4340057">
    <nd ref="278635097"/>
    <nd ref="278635698"/>
    <nd ref="278635065"/>
    <tag k="highway" v="primary"/>
    <tag k="name" v="Ringwood - Warrandyte Road"/>
    <tag k="oneway" v="yes"/>
    <tag k="ref" v="S42"/>
  </way>
  <way id="25564173" version="3" timestamp="2010-04-06T01:52:37Z" uid="74617" user="JohnSmith" changeset="4340057">
    <nd ref="278636754"/>
    <nd ref="278636446"/>
    <tag k="bridge" v="yes"/>
    <tag k="highway" v="primary"/>
    <tag k="layer" v="1"/>
    <tag k="name" v="Kangaroo Ground - Warrandyte Road"/>
  </way>
  <way id="25564181" version="3" timestamp="2010-04-06T02:08:17Z" uid="74617" user="JohnSmith" changeset="4340057">
    <nd ref="278636829"/>
    <nd ref="278636899"/>
    <nd ref="278635026"/>
    <tag k="highway" v="primary"/>
    <tag k="name" v="Ringwood - Warrandyte Road"/>
    <tag k="oneway" v="yes"/>
    <tag k="ref" v="S42"/>
  </way>
  <way id="25564183" version="5" timestamp="2010-04-06T01:52:37Z" uid="74617" user="JohnSmith" changeset="4340057">
    <nd ref="278636827"/>
    <nd ref="278636930"/>
    <nd ref="278636447"/>
    <nd ref="278636931"/>
    <nd ref="278636828"/>
    <tag k="highway" v="primary"/>
    <tag k="name" v="Kangaroo Ground - Warrandyte Road"/>
    <tag k="oneway" v="yes"/>
  </way>
  <way id="25564183" version="6" timestamp="2010-04-06T02:08:17Z" uid="74617" user="JohnSmith" changeset="4340057">
    <nd ref="278636827"/>
    <nd ref="278636930"/>
    <nd ref="278636447"/>
    <tag k="highway" v="primary"/>
    <tag k="name" v="Kangaroo Ground - Warrandyte Road"/>
    <tag k="oneway" v="yes"/>
  </way>
  <way id="25564257" version="17" timestamp="2010-04-06T01:52:37Z" uid="74617" user="JohnSmith" changeset="4340057">
    <nd ref="278636446"/>
    <nd ref="421422563"/>
    <nd ref="31618168"/>
    <nd ref="321688058"/>
    <nd ref="321688059"/>
    <nd ref="321688060"/>
    <nd ref="321688036"/>
    <nd ref="393098551"/>
    <nd ref="321688037"/>
    <nd ref="321688038"/>
    <nd ref="321688039"/>
    <nd ref="321688040"/>
    <nd ref="321688041"/>
    <nd ref="321687987"/>
    <nd ref="321687988"/>
    <nd ref="321687989"/>
    <nd ref="631477386"/>
    <nd ref="421422547"/>
    <nd ref="321687990"/>
    <nd ref="631477394"/>
    <nd ref="321687991"/>
    <nd ref="388492787"/>
    <nd ref="321687992"/>
    <nd ref="321687993"/>
    <nd ref="321687932"/>
    <nd ref="321687933"/>
    <nd ref="321687934"/>
    <nd ref="321687935"/>
    <nd ref="321687936"/>
    <nd ref="321687937"/>
    <nd ref="321687938"/>
    <nd ref="321687939"/>
    <nd ref="321687940"/>
    <nd ref="321687941"/>
    <nd ref="321687942"/>
    <nd ref="388481379"/>
    <nd ref="321687943"/>
    <nd ref="321687944"/>
    <nd ref="321687945"/>
    <nd ref="321687946"/>
    <nd ref="321687947"/>
    <nd ref="321687948"/>
    <nd ref="321687949"/>
    <nd ref="321687950"/>
    <nd ref="321687951"/>
    <nd ref="393094441"/>
    <nd ref="278638323"/>
    <nd ref="278638625"/>
    <nd ref="278638626"/>
    <nd ref="278638627"/>
    <nd ref="278638597"/>
    <nd ref="278638598"/>
    <nd ref="278638599"/>
    <nd ref="278638600"/>
    <nd ref="278638601"/>
    <nd ref="278638602"/>
    <nd ref="278638603"/>
    <tag k="highway" v="primary"/>
    <tag k="maxspeed" v="60"/>
    <tag k="name" v="Kangaroo Ground - Warrandyte Road"/>
  </way>
  <way id="25564273" version="9" timestamp="2010-04-06T01:52:38Z" uid="74617" user="JohnSmith" changeset="4340057">
    <nd ref="278638603"/>
    <nd ref="278638604"/>
    <nd ref="393092308"/>
    <nd ref="278638605"/>
    <nd ref="278638606"/>
    <nd ref="278638607"/>
    <nd ref="278638608"/>
    <nd ref="278638610"/>
    <nd ref="278638611"/>
    <nd ref="278638612"/>
    <nd ref="278638613"/>
    <nd ref="278638614"/>
    <nd ref="278638615"/>
    <nd ref="278638616"/>
    <nd ref="278638617"/>
    <nd ref="278638618"/>
    <nd ref="278638619"/>
    <nd ref="278638620"/>
    <nd ref="278638621"/>
    <nd ref="278638622"/>
    <nd ref="278638623"/>
    <nd ref="31618277"/>
    <nd ref="278639609"/>
    <nd ref="278639608"/>
    <nd ref="278639607"/>
    <nd ref="278639606"/>
    <nd ref="278639605"/>
    <nd ref="278639604"/>
    <nd ref="278639603"/>
    <nd ref="278639602"/>
    <nd ref="278639601"/>
    <nd ref="278639600"/>
    <nd ref="278639599"/>
    <nd ref="278639598"/>
    <nd ref="278639597"/>
    <nd ref="278639596"/>
    <nd ref="278639595"/>
    <nd ref="278639594"/>
    <nd ref="278639593"/>
    <nd ref="278639592"/>
    <nd ref="278639591"/>
    <nd ref="278639590"/>
    <nd ref="278639589"/>
    <nd ref="278639588"/>
    <nd ref="278639587"/>
    <nd ref="278639586"/>
    <nd ref="278639584"/>
    <nd ref="278639583"/>
    <nd ref="278639582"/>
    <nd ref="278639581"/>
    <nd ref="278639579"/>
    <nd ref="278639577"/>
    <nd ref="278639575"/>
    <nd ref="278639573"/>
    <nd ref="278639571"/>
    <nd ref="278639569"/>
    <nd ref="278639567"/>
    <nd ref="278639565"/>
    <nd ref="278639563"/>
    <nd ref="278639560"/>
    <nd ref="278640529"/>
    <tag k="highway" v="primary"/>
    <tag k="maxspeed" v="80"/>
    <tag k="name" v="Kangaroo Ground - Warrandyte Road"/>
  </way>
  <way id="25564285" version="5" timestamp="2010-04-19T20:07:12Z" uid="33382" user="de_muur" changeset="4471846">
    <nd ref="25435424"/>
    <nd ref="31196872"/>
    <nd ref="31196873"/>
    <nd ref="341873703"/>
    <nd ref="31196874"/>
    <nd ref="31196875"/>
    <nd ref="341873705"/>
    <nd ref="31196876"/>
    <tag k="highway" v="secondary"/>
    <tag k="name" v="Querdamm"/>
    <tag k="ref" v="L 203"/>
    <tag k="surface" v="paved"/>
  </way>
  <way id="25564352" version="4" timestamp="2010-04-05T23:40:32Z" uid="74617" user="JohnSmith" changeset="4338595">
    <nd ref="278640602"/>
    <nd ref="278640627"/>
    <nd ref="278640199"/>
    <tag k="highway" v="primary"/>
    <tag k="name" v="Eltham - Yarra Glen Road"/>
    <tag k="oneway" v="yes"/>
  </way>
  <way id="25564354" version="3" timestamp="2010-04-05T23:40:32Z" uid="74617" user="JohnSmith" changeset="4338595">
    <nd ref="278640597"/>
    <nd ref="278640659"/>
    <nd ref="278640201"/>
    <tag k="highway" v="primary"/>
    <tag k="name" v="Eltham - Yarra Glen Road"/>
    <tag k="oneway" v="yes"/>
  </way>
  <way id="25564355" version="3" timestamp="2010-04-06T01:52:37Z" uid="74617" user="JohnSmith" changeset="4340057">
    <nd ref="278640599"/>
    <nd ref="278640697"/>
    <nd ref="278640529"/>
    <tag k="highway" v="primary"/>
    <tag k="name" v="Kangaroo Ground - Warrandyte Road"/>
    <tag k="oneway" v="yes"/>
  </way>
  <way id="25564364" version="4" timestamp="2010-07-09T05:22:08Z" uid="74617" user="JohnSmith" changeset="5170972">
    <nd ref="321688488"/>
    <nd ref="321688515"/>
    <nd ref="321688467"/>
    <tag k="highway" v="residential"/>
    <tag k="maxspeed" v="50"/>
    <tag k="maxspeed:source" v="default residential speed limit in Australia"/>
    <tag k="name" v="Allendale Road"/>
  </way>
  <way id="25564366" version="2" timestamp="2010-04-06T01:52:37Z" uid="74617" user="JohnSmith" changeset="4340057">
    <nd ref="278640529"/>
    <nd ref="278640698"/>
    <nd ref="278640602"/>
    <tag k="highway" v="primary"/>
    <tag k="name" v="Kangaroo Ground - Warrandyte Road"/>
    <tag k="oneway" v="yes"/>
  </way>
  <way id="25564370" version="2" timestamp="2010-04-05T23:40:32Z" uid="74617" user="JohnSmith" changeset="4338595">
    <nd ref="278640199"/>
    <nd ref="278640628"/>
    <nd ref="278640594"/>
    <tag k="highway" v="primary"/>
    <tag k="name" v="Eltham - Yarra Glen Road"/>
    <tag k="oneway" v="yes"/>
  </way>
  <way id="25564372" version="2" timestamp="2010-04-05T23:40:32Z" uid="74617" user="JohnSmith" changeset="4338595">
    <nd ref="278640201"/>
    <nd ref="278640660"/>
    <nd ref="278640599"/>
    <tag k="highway" v="primary"/>
    <tag k="name" v="Eltham - Yarra Glen Road"/>
    <tag k="oneway" v="yes"/>
  </way>
  <way id="25564589" version="3" timestamp="2009-08-10T04:24:46Z" uid="4467" user="Rosscoe" changeset="2092729">
    <nd ref="278618200"/>
    <nd ref="278643083"/>
    <nd ref="278643084"/>
    <nd ref="278643085"/>
    <nd ref="278643086"/>
    <nd ref="278643087"/>
    <nd ref="278643088"/>
    <nd ref="278643089"/>
    <nd ref="278643090"/>
    <nd ref="278643091"/>
    <nd ref="278643092"/>
    <nd ref="278643093"/>
    <nd ref="278643094"/>
    <nd ref="278643095"/>
    <nd ref="278643096"/>
    <nd ref="278643097"/>
    <nd ref="278643098"/>
    <nd ref="278643099"/>
    <nd ref="278643100"/>
    <nd ref="278643101"/>
    <nd ref="278643102"/>
    <nd ref="278643103"/>
    <nd ref="278643104"/>
    <nd ref="278643105"/>
    <tag k="highway" v="residential"/>
    <tag k="is_in" v="Coober Pedy, SA, South Australia, Australia"/>
    <tag k="maxspeed" v="50"/>
    <tag k="name" v="McKenzie Road"/>
  </way>
  <way id="25564589" version="4" timestamp="2010-07-10T22:58:11Z" uid="74617" user="JohnSmith" changeset="5186148">
    <nd ref="278618200"/>
    <nd ref="278643083"/>
    <nd ref="278643084"/>
    <nd ref="278643085"/>
    <nd ref="278643086"/>
    <nd ref="278643087"/>
    <nd ref="278643088"/>
    <nd ref="278643089"/>
    <nd ref="278643090"/>
    <nd ref="278643091"/>
    <nd ref="278643092"/>
    <nd ref="278643093"/>
    <nd ref="278643094"/>
    <nd ref="278643095"/>
    <nd ref="278643096"/>
    <nd ref="278643097"/>
    <nd ref="278643098"/>
    <nd ref="278643099"/>
    <nd ref="278643100"/>
    <nd ref="278643101"/>
    <nd ref="278643102"/>
    <nd ref="278643103"/>
    <nd ref="278643104"/>
    <nd ref="278643105"/>
    <tag k="highway" v="residential"/>
    <tag k="maxspeed" v="50"/>
    <tag k="name" v="McKenzie Road"/>
  </way>
  <way id="25564690" version="6" timestamp="2009-08-10T04:24:45Z" uid="4467" user="Rosscoe" changeset="2092729">
    <nd ref="289098907"/>
    <nd ref="278644854"/>
    <nd ref="278644855"/>
    <nd ref="278644856"/>
    <nd ref="278644857"/>
    <nd ref="278644858"/>
    <nd ref="278644859"/>
    <nd ref="278644860"/>
    <nd ref="278865499"/>
    <nd ref="278644861"/>
    <nd ref="278644862"/>
    <nd ref="278644863"/>
    <nd ref="278644848"/>
    <nd ref="278646223"/>
    <nd ref="278646224"/>
    <nd ref="278646225"/>
    <nd ref="278646226"/>
    <nd ref="278646227"/>
    <nd ref="278646228"/>
    <nd ref="278646229"/>
    <nd ref="278646230"/>
    <nd ref="278646231"/>
    <nd ref="278646232"/>
    <nd ref="278646233"/>
    <nd ref="278646234"/>
    <nd ref="278646235"/>
    <nd ref="278646236"/>
    <nd ref="278646237"/>
    <tag k="highway" v="residential"/>
    <tag k="is_in" v="Coober Pedy, SA, South Australia, Australia"/>
    <tag k="maxspeed" v="50"/>
    <tag k="name" v="Monument Road"/>
  </way>
  <way id="25564690" version="7" timestamp="2010-07-10T22:58:24Z" uid="74617" user="JohnSmith" changeset="5186148">
    <nd ref="289098907"/>
    <nd ref="278644854"/>
    <nd ref="278644855"/>
    <nd ref="278644856"/>
    <nd ref="278644857"/>
    <nd ref="278644858"/>
    <nd ref="278644859"/>
    <nd ref="278644860"/>
    <nd ref="278865499"/>
    <nd ref="278644861"/>
    <nd ref="278644862"/>
    <nd ref="278644863"/>
    <nd ref="278644848"/>
    <nd ref="278646223"/>
    <nd ref="278646224"/>
    <nd ref="278646225"/>
    <nd ref="278646226"/>
    <nd ref="278646227"/>
    <nd ref="278646228"/>
    <nd ref="278646229"/>
    <nd ref="278646230"/>
    <nd ref="278646231"/>
    <nd ref="278646232"/>
    <nd ref="278646233"/>
    <nd ref="278646234"/>
    <nd ref="278646235"/>
    <nd ref="278646236"/>
    <nd ref="278646237"/>
    <tag k="highway" v="residential"/>
    <tag k="maxspeed" v="50"/>
    <tag k="name" v="Monument Road"/>
  </way>
  <way id="25564805" version="4" timestamp="2009-08-10T04:24:43Z" uid="4467" user="Rosscoe" changeset="2092729">
    <nd ref="278646287"/>
    <nd ref="278646288"/>
    <nd ref="440122328"/>
    <nd ref="440122329"/>
    <nd ref="278646289"/>
    <nd ref="278646290"/>
    <nd ref="278646291"/>
    <nd ref="278646292"/>
    <nd ref="278646293"/>
    <nd ref="278646294"/>
    <nd ref="278646295"/>
    <nd ref="440148251"/>
    <nd ref="440148254"/>
    <nd ref="440148252"/>
    <nd ref="440148253"/>
    <nd ref="278632707"/>
    <tag k="highway" v="residential"/>
    <tag k="is_in" v="Coober Pedy, SA, South Australia, Australia"/>
    <tag k="maxspeed" v="50"/>
    <tag k="name" v="North West Ridge Road"/>
  </way>
  <way id="25564805" version="5" timestamp="2010-07-10T22:58:35Z" uid="74617" user="JohnSmith" changeset="5186148">
    <nd ref="278646287"/>
    <nd ref="278646288"/>
    <nd ref="440122328"/>
    <nd ref="440122329"/>
    <nd ref="278646289"/>
    <nd ref="278646290"/>
    <nd ref="278646291"/>
    <nd ref="278646292"/>
    <nd ref="278646293"/>
    <nd ref="278646294"/>
    <nd ref="278646295"/>
    <nd ref="440148251"/>
    <nd ref="440148254"/>
    <nd ref="440148252"/>
    <nd ref="440148253"/>
    <nd ref="278632707"/>
    <tag k="highway" v="residential"/>
    <tag k="maxspeed" v="50"/>
    <tag k="name" v="North West Ridge Road"/>
  </way>
  <way id="25564856" version="2" timestamp="2009-08-10T04:24:45Z" uid="4467" user="Rosscoe" changeset="2092729">
    <nd ref="278647207"/>
    <nd ref="278647209"/>
    <nd ref="278647210"/>
    <nd ref="278647211"/>
    <nd ref="278647212"/>
    <nd ref="278647213"/>
    <tag k="highway" v="residential"/>
    <tag k="is_in" v="Coober Pedy, SA, South Australia, Australia"/>
    <tag k="maxspeed" v="50"/>
    <tag k="name" v="Old Water Tank Road"/>
  </way>
  <way id="25564856" version="4" timestamp="2010-07-10T22:58:21Z" uid="74617" user="JohnSmith" changeset="5186148">
    <nd ref="278647207"/>
    <nd ref="278647209"/>
    <nd ref="278647210"/>
    <nd ref="278647211"/>
    <nd ref="278647212"/>
    <nd ref="678302351"/>
    <nd ref="278647213"/>
    <nd ref="678302334"/>
    <nd ref="678302336"/>
    <nd ref="678302324"/>
    <tag k="highway" v="residential"/>
    <tag k="maxspeed" v="50"/>
    <tag k="name" v="Old Water Tank Road"/>
  </way>
  <way id="25564890" version="4" timestamp="2009-08-10T04:24:39Z" uid="4467" user="Rosscoe" changeset="2092729">
    <nd ref="287475196"/>
    <nd ref="287475197"/>
    <nd ref="278647885"/>
    <nd ref="278618057"/>
    <nd ref="278647886"/>
    <tag k="highway" v="residential"/>
    <tag k="is_in" v="Coober Pedy, SA, South Australia, Australia"/>
    <tag k="maxspeed" v="50"/>
    <tag k="name" v="Oliver Street"/>
  </way>
  <way id="25564890" version="5" timestamp="2010-07-10T22:58:16Z" uid="74617" user="JohnSmith" changeset="5186148">
    <nd ref="287475196"/>
    <nd ref="287475197"/>
    <nd ref="278647885"/>
    <nd ref="278618057"/>
    <nd ref="278647886"/>
    <tag k="highway" v="residential"/>
    <tag k="maxspeed" v="50"/>
    <tag k="name" v="Oliver Street"/>
  </way>
  <way id="25564998" version="2" timestamp="2009-08-10T04:24:48Z" uid="4467" user="Rosscoe" changeset="2092729">
    <nd ref="278649128"/>
    <nd ref="278649129"/>
    <nd ref="278649130"/>
    <nd ref="278649131"/>
    <tag k="highway" v="residential"/>
    <tag k="is_in" v="Coober Pedy, SA, South Australia, Australia"/>
    <tag k="maxspeed" v="50"/>
    <tag k="name" v="Opal Crescent"/>
  </way>
  <way id="25564998" version="4" timestamp="2010-07-10T22:58:18Z" uid="74617" user="JohnSmith" changeset="5186148">
    <nd ref="278649128"/>
    <nd ref="278649129"/>
    <nd ref="278649130"/>
    <nd ref="278649131"/>
    <nd ref="678302348"/>
    <tag k="highway" v="residential"/>
    <tag k="maxspeed" v="50"/>
    <tag k="name" v="Opal Crescent"/>
  </way>
</osm>
