<?xml version='1.0' encoding='UTF-8'?>
<osm version="0.6" generator="libosmium/2.20.0">
  <way id="25603024" version="1" timestamp="2008-07-17T03:31:40Z" uid="19626" user="Swamp" changeset="510819">
    <nd ref="279066275"/>
    <nd ref="279072663"/>
    <nd ref="279072664"/>
    <tag k="created_by" v="JOSM"/>
    <tag k="highway" v="residential"/>
    <tag k="maxspeed" v="50km/h"/>
    <tag k="name" v="Pirani Place"/>
  </way>
  <way id="25603024" version="2" timestamp="2009-07-25T15:29:48Z" uid="74617" user="JohnSmith" changeset="1935409">
    <nd ref="279066275"/>
    <nd ref="279072663"/>
    <nd ref="279072664"/>
    <tag k="highway" v="residential"/>
    <tag k="maxspeed" v="50"/>
    <tag k="name" v="Pirani Place"/>
  </way>
  <way id="25603027" version="1" timestamp="2008-07-17T03:31:41Z" uid="19626" user="Swamp" changeset="510819">
    <nd ref="279072663"/>
    <nd ref="279072665"/>
    <nd ref="279066273"/>
    <tag k="created_by" v="JOSM"/>
    <tag k="highway" v="residential"/>
    <tag k="maxspeed" v="50km/h"/>
    <tag k="name" v="Boundary Lane"/>
    <tag k="surface" v="unpaved"/>
  </way>
  <way id="25603027" version="2" timestamp="2009-07-25T15:29:45Z" uid="74617" user="JohnSmith" changeset="1935409">
    <nd ref="279072663"/>
    <nd ref="279072665"/>
    <nd ref="279066273"/>
    <tag k="highway" v="residential"/>
    <tag k="maxspeed" v="50"/>
    <tag k="name" v="Boundary Lane"/>
    <tag k="surface" v="unpaved"/>
  </way>
  <way id="25603228" version="3" timestamp="2010-02-14T15:45:30Z" uid="74617" user="JohnSmith" changeset="3874884">
    <nd ref="72911546"/>
    <nd ref="26337398"/>
    <nd ref="72481481"/>
    <nd ref="310730796"/>
    <tag k="highway" v="secondary"/>
    <tag k="name" v="Albion Road"/>
  </way>
  <way id="25603231" version="3" timestamp="2010-03-27T23:51:27Z" uid="20587" user="balrog-kun" changeset="4250871">
    <nd ref="14966391"/>
    <nd ref="279072764"/>
    <nd ref="279072762"/>
    <tag k="created_by" v="Potlatch 0.9c"/>
    <tag k="highway" v="residential"/>
    <tag k="name" v="Avenue 28"/>
  </way>
  <way id="25603232" version="1" timestamp="2008-07-17T03:35:56Z" uid="19626" user="Swamp" changeset="510819">
    <nd ref="279072760"/>
    <nd ref="279066286"/>
    <tag k="created_by" v="JOSM"/>
    <tag k="highway" v="residential"/>
    <tag k="maxspeed" v="50km/h"/>
    <tag k="name" v="Kiesling Drive"/>
  </way>
  <way id="25603232" version="2" timestamp="2008-09-19T09:06:14Z" uid="19626" user="Swamp" changeset="664708">
    <nd ref="298085350"/>
    <nd ref="298085349"/>
    <nd ref="298085347"/>
    <nd ref="298085344"/>
    <nd ref="298085341"/>
    <nd ref="298085339"/>
    <nd ref="298085325"/>
    <nd ref="279072760"/>
    <tag k="created_by" v="JOSM"/>
    <tag k="highway" v="residential"/>
    <tag k="maxspeed" v="50km/h"/>
    <tag k="name" v="Anzac Cressent"/>
  </way>
  <way id="25603232" version="3" timestamp="2009-07-25T15:29:46Z" uid="74617" user="JohnSmith" changeset="1935409">
    <nd ref="298085350"/>
    <nd ref="298085349"/>
    <nd ref="298085347"/>
    <nd ref="298085344"/>
    <nd ref="298085341"/>
    <nd ref="298085339"/>
    <nd ref="298085325"/>
    <nd ref="279072760"/>
    <tag k="highway" v="residential"/>
    <tag k="maxspeed" v="50"/>
    <tag k="name" v="Anzac Cressent"/>
  </way>
  <way id="25603242" version="5" timestamp="2010-03-27T23:51:27Z" uid="20587" user="balrog-kun" changeset="4250871">
    <nd ref="279072899"/>
    <nd ref="279072911"/>
    <tag k="bridge" v="yes"/>
    <tag k="created_by" v="Potlatch 0.10f"/>
    <tag k="highway" v="secondary"/>
    <tag k="layer" v="2"/>
    <tag k="name" v="Pasadena Avenue"/>
  </way>
  <way id="25603251" version="1" timestamp="2008-07-17T03:41:11Z" uid="19626" user="Swamp" changeset="510819">
    <nd ref="252971990"/>
    <nd ref="252971991"/>
    <nd ref="279073005"/>
    <nd ref="279073006"/>
    <nd ref="279073007"/>
    <nd ref="279073008"/>
    <nd ref="279073009"/>
    <nd ref="279073011"/>
    <nd ref="279073012"/>
    <nd ref="279073013"/>
    <tag k="created_by" v="JOSM"/>
    <tag k="highway" v="unclassified"/>
    <tag k="maxspeed" v="50km/h"/>
    <tag k="name" v="Victoria Avenue"/>
  </way>
  <way id="25603251" version="2" timestamp="2008-07-17T03:44:16Z" uid="19626" user="Swamp" changeset="510819">
    <nd ref="252971990"/>
    <nd ref="279073005"/>
    <nd ref="279073006"/>
    <nd ref="279073007"/>
    <nd ref="279073008"/>
    <nd ref="279073009"/>
    <nd ref="279073011"/>
    <nd ref="279073012"/>
    <nd ref="279073013"/>
    <tag k="created_by" v="JOSM"/>
    <tag k="highway" v="unclassified"/>
    <tag k="maxspeed" v="50km/h"/>
    <tag k="name" v="Victoria Avenue"/>
  </way>
  <way id="25603251" version="3" timestamp="2008-07-17T04:06:23Z" uid="19626" user="Swamp" changeset="510819">
    <nd ref="252971990"/>
    <nd ref="279073005"/>
    <nd ref="279073006"/>
    <nd ref="279073007"/>
    <nd ref="279073008"/>
    <nd ref="279073009"/>
    <nd ref="279073011"/>
    <nd ref="279073836"/>
    <nd ref="279073012"/>
    <nd ref="279073013"/>
    <tag k="created_by" v="JOSM"/>
    <tag k="highway" v="unclassified"/>
    <tag k="maxspeed" v="50km/h"/>
    <tag k="name" v="Victoria Avenue"/>
  </way>
  <way id="25603251" version="4" timestamp="2008-08-25T11:06:45Z" uid="19626" user="Swamp" changeset="402728">
    <nd ref="252971990"/>
    <nd ref="279073005"/>
    <nd ref="279073006"/>
    <nd ref="279073007"/>
    <nd ref="279073008"/>
    <nd ref="279073009"/>
    <nd ref="290925738"/>
    <nd ref="279073836"/>
    <nd ref="279073012"/>
    <nd ref="279073013"/>
    <tag k="created_by" v="JOSM"/>
    <tag k="highway" v="unclassified"/>
    <tag k="maxspeed" v="50km/h"/>
    <tag k="name" v="Victoria Avenue"/>
  </way>
  <way id="25603251" version="5" timestamp="2009-07-25T15:29:48Z" uid="74617" user="JohnSmith" changeset="1935409">
    <nd ref="252971990"/>
    <nd ref="279073005"/>
    <nd ref="279073006"/>
    <nd ref="279073007"/>
    <nd ref="279073008"/>
    <nd ref="279073009"/>
    <nd ref="290925738"/>
    <nd ref="279073836"/>
    <nd ref="279073012"/>
    <nd ref="279073013"/>
    <tag k="highway" v="unclassified"/>
    <tag k="maxspeed" v="50"/>
    <tag k="name" v="Victoria Avenue"/>
  </way>
  <way id="25603254" version="12" timestamp="2010-03-27T23:51:27Z" uid="20587" user="balrog-kun" changeset="4250871">
    <nd ref="16743870"/>
    <nd ref="364612179"/>
    <nd ref="364612180"/>
    <nd ref="364612181"/>
    <nd ref="364612182"/>
    <nd ref="364612183"/>
    <nd ref="364612184"/>
    <nd ref="364612185"/>
    <nd ref="364612186"/>
    <nd ref="364612187"/>
    <nd ref="364612188"/>
    <nd ref="364612189"/>
    <nd ref="279073036"/>
    <nd ref="279073038"/>
    <nd ref="279073039"/>
    <nd ref="279073040"/>
    <nd ref="279073041"/>
    <nd ref="18660436"/>
    <nd ref="279072712"/>
    <nd ref="279072950"/>
    <nd ref="279072918"/>
    <nd ref="279072911"/>
    <tag k="created_by" v="Potlatch 0.10f"/>
    <tag k="highway" v="secondary"/>
    <tag k="name" v="Pasadena Avenue"/>
  </way>
  <way id="25603261" version="1" timestamp="2008-07-17T03:44:13Z" uid="19626" user="Swamp" changeset="510819">
    <nd ref="279073174"/>
    <nd ref="252971990"/>
    <tag k="created_by" v="JOSM"/>
    <tag k="highway" v="unclassified"/>
    <tag k="maxspeed" v="50km/h"/>
    <tag k="name" v="Old Wagga Road"/>
  </way>
  <way id="25603261" version="2" timestamp="2009-07-25T15:29:49Z" uid="74617" user="JohnSmith" changeset="1935409">
    <nd ref="279073174"/>
    <nd ref="252971990"/>
    <tag k="highway" v="unclassified"/>
    <tag k="maxspeed" v="50"/>
    <tag k="name" v="Old Wagga Road"/>
  </way>
  <way id="25603270" version="1" timestamp="2008-07-17T03:50:36Z" uid="19626" user="Swamp" changeset="510819">
    <nd ref="279073262"/>
    <nd ref="279073013"/>
    <tag k="created_by" v="JOSM"/>
    <tag k="highway" v="residential"/>
    <tag k="maxspeed" v="50km/h"/>
    <tag k="name" v="Victoria Avenue"/>
    <tag k="oneway" v="true"/>
  </way>
  <way id="25603270" version="2" timestamp="2008-12-11T10:04:23Z" uid="19626" user="Swamp" changeset="319637">
    <nd ref="279073262"/>
    <nd ref="317913602"/>
    <nd ref="279073013"/>
    <tag k="created_by" v="JOSM"/>
    <tag k="highway" v="residential"/>
    <tag k="maxspeed" v="50km/h"/>
    <tag k="name" v="Victoria Avenue"/>
    <tag k="oneway" v="true"/>
  </way>
  <way id="25603270" version="3" timestamp="2009-07-25T15:29:47Z" uid="74617" user="JohnSmith" changeset="1935409">
    <nd ref="279073262"/>
    <nd ref="317913602"/>
    <nd ref="279073013"/>
    <tag k="highway" v="residential"/>
    <tag k="maxspeed" v="50"/>
    <tag k="name" v="Victoria Avenue"/>
    <tag k="oneway" v="true"/>
  </way>
  <way id="25603270" version="4" timestamp="2009-08-03T20:31:01Z" uid="4467" user="Rosscoe" changeset="2030076">
    <nd ref="279073262"/>
    <nd ref="317913602"/>
    <nd ref="279073013"/>
    <tag k="highway" v="residential"/>
    <tag k="maxspeed" v="50"/>
    <tag k="name" v="Victoria Avenue"/>
    <tag k="oneway" v="yes"/>
  </way>
  <way id="25603270" version="5" timestamp="2010-04-05T05:41:14Z" uid="4467" user="Rosscoe" changeset="4329362">
    <nd ref="685041586"/>
    <nd ref="317913602"/>
    <nd ref="279073013"/>
    <tag k="highway" v="residential"/>
    <tag k="maxspeed" v="50"/>
    <tag k="name" v="Victoria Avenue"/>
    <tag k="oneway" v="yes"/>
  </way>
  <way id="25603271" version="1" timestamp="2008-07-17T03:50:37Z" uid="19626" user="Swamp" changeset="510819">
    <nd ref="279073013"/>
    <nd ref="279073263"/>
    <nd ref="279073264"/>
    <nd ref="279073265"/>
    <nd ref="279073266"/>
    <tag k="created_by" v="JOSM"/>
    <tag k="highway" v="residential"/>
    <tag k="maxspeed" v="50km/h"/>
    <tag k="name" v="Victoria Avenue"/>
    <tag k="oneway" v="true"/>
  </way>
  <way id="25603271" version="2" timestamp="2009-07-25T15:29:44Z" uid="74617" user="JohnSmith" changeset="1935409">
    <nd ref="279073013"/>
    <nd ref="279073263"/>
    <nd ref="279073264"/>
    <nd ref="279073265"/>
    <nd ref="279073266"/>
    <tag k="highway" v="residential"/>
    <tag k="maxspeed" v="50"/>
    <tag k="name" v="Victoria Avenue"/>
    <tag k="oneway" v="true"/>
  </way>
  <way id="25603271" version="3" timestamp="2009-08-03T20:31:01Z" uid="4467" user="Rosscoe" changeset="2030076">
    <nd ref="279073013"/>
    <nd ref="279073263"/>
    <nd ref="279073264"/>
    <nd ref="279073265"/>
    <nd ref="279073266"/>
    <tag k="highway" v="residential"/>
    <tag k="maxspeed" v="50"/>
    <tag k="name" v="Victoria Avenue"/>
    <tag k="oneway" v="yes"/>
  </way>
  <way id="25603276" version="1" timestamp="2008-07-17T03:52:59Z" uid="19626" user="Swamp" changeset="510819">
    <nd ref="279073370"/>
    <nd ref="279073371"/>
    <nd ref="279073372"/>
    <nd ref="279073373"/>
    <nd ref="279073374"/>
    <nd ref="279073370"/>
    <tag k="created_by" v="JOSM"/>
    <tag k="leisure" v="park"/>
  </way>
  <way id="25603279" version="4" timestamp="2010-02-14T15:45:02Z" uid="74617" user="JohnSmith" changeset="3874884">
    <nd ref="72470398"/>
    <nd ref="72470400"/>
    <nd ref="72470401"/>
    <nd ref="72470402"/>
    <nd ref="72470404"/>
    <nd ref="26338157"/>
    <tag k="highway" v="secondary"/>
    <tag k="name" v="Lutwyche Road"/>
    <tag k="oneway" v="yes"/>
    <tag k="ref" v="A3"/>
  </way>
  <way id="25603281" version="6" timestamp="2010-02-14T15:42:06Z" uid="74617" user="JohnSmith" changeset="3874884">
    <nd ref="72463011"/>
    <nd ref="72468159"/>
    <nd ref="158165326"/>
    <nd ref="353175141"/>
    <nd ref="72468162"/>
    <nd ref="72468164"/>
    <nd ref="72967055"/>
    <nd ref="72967105"/>
    <nd ref="278951812"/>
    <nd ref="72967153"/>
    <nd ref="158169794"/>
    <nd ref="158169474"/>
    <nd ref="158170112"/>
    <nd ref="26338168"/>
    <nd ref="278936713"/>
    <tag k="highway" v="trunk"/>
    <tag k="maxspeed" v="60"/>
    <tag k="name" v="Lutwyche Road"/>
    <tag k="oneway" v="yes"/>
    <tag k="ref" v="A3"/>
  </way>
  <way id="25603281" version="7" timestamp="2010-02-14T16:03:45Z" uid="74617" user="JohnSmith" changeset="3875130">
    <nd ref="72463011"/>
    <nd ref="639077733"/>
    <nd ref="72468159"/>
    <nd ref="639077736"/>
    <nd ref="158165326"/>
    <nd ref="353175141"/>
    <nd ref="72468162"/>
    <nd ref="72468164"/>
    <nd ref="639077741"/>
    <nd ref="72967055"/>
    <nd ref="72967105"/>
    <nd ref="278951812"/>
    <nd ref="72967153"/>
    <nd ref="158169794"/>
    <nd ref="158169474"/>
    <nd ref="158170112"/>
    <nd ref="26338168"/>
    <nd ref="278936713"/>
    <tag k="highway" v="trunk"/>
    <tag k="maxspeed" v="60"/>
    <tag k="name" v="Lutwyche Road"/>
    <tag k="oneway" v="yes"/>
    <tag k="ref" v="A3"/>
  </way>
  <way id="25603281" version="8" timestamp="2010-02-26T17:45:35Z" uid="74617" user="JohnSmith" changeset="3982219">
    <nd ref="72463011"/>
    <nd ref="639077733"/>
    <nd ref="72468159"/>
    <nd ref="639077736"/>
    <nd ref="158165326"/>
    <nd ref="353175141"/>
    <nd ref="72468162"/>
    <nd ref="72468164"/>
    <nd ref="639077741"/>
    <nd ref="72967055"/>
    <nd ref="72967105"/>
    <nd ref="278951812"/>
    <nd ref="72967153"/>
    <nd ref="158169794"/>
    <nd ref="158169474"/>
    <nd ref="158170112"/>
    <nd ref="26338168"/>
    <nd ref="278936713"/>
    <tag k="highway" v="trunk"/>
    <tag k="maxspeed" v="60"/>
    <tag k="name" v="Lutwyche Road"/>
    <tag k="oneway" v="yes"/>
  </way>
  <way id="25603298" version="5" timestamp="2010-02-14T15:44:52Z" uid="74617" user="JohnSmith" changeset="3874884">
    <nd ref="26337019"/>
    <nd ref="198387387"/>
    <nd ref="26337018"/>
    <nd ref="26337478"/>
    <nd ref="72485952"/>
    <nd ref="72485475"/>
    <tag k="highway" v="residential"/>
    <tag k="maxspeed" v="50"/>
    <tag k="name" v="Grantson Street"/>
  </way>
  <way id="25603347" version="3" timestamp="2010-02-14T15:44:53Z" uid="74617" user="JohnSmith" changeset="3874884">
    <nd ref="72485475"/>
    <nd ref="279073749"/>
    <nd ref="279073935"/>
    <nd ref="279073936"/>
    <tag k="access" v="permissive"/>
    <tag k="highway" v="service"/>
    <tag k="maxspeed" v="50"/>
  </way>
  <way id="25603380" version="1" timestamp="2008-07-17T04:06:13Z" uid="19626" user="Swamp" changeset="510819">
    <nd ref="144896527"/>
    <nd ref="144896553"/>
    <nd ref="259736299"/>
    <nd ref="144896582"/>
    <nd ref="279057468"/>
    <nd ref="144896607"/>
    <nd ref="252700444"/>
    <nd ref="144896633"/>
    <nd ref="144896661"/>
    <tag k="created_by" v="JOSM"/>
    <tag k="highway" v="secondary"/>
    <tag k="maxspeed" v="50"/>
    <tag k="name" v="Audley Street"/>
  </way>
  <way id="25603380" version="2" timestamp="2010-04-05T05:41:14Z" uid="4467" user="Rosscoe" changeset="4329362">
    <nd ref="144896527"/>
    <nd ref="144896553"/>
    <nd ref="259736299"/>
    <nd ref="144896582"/>
    <nd ref="279057468"/>
    <nd ref="144896607"/>
    <nd ref="252700444"/>
    <nd ref="144896661"/>
    <tag k="highway" v="secondary"/>
    <tag k="maxspeed" v="50"/>
    <tag k="name" v="Audley Street"/>
  </way>
  <way id="25603380" version="3" timestamp="2010-05-24T23:31:40Z" uid="18775" user="drlizau" changeset="4799704">
    <nd ref="144896527"/>
    <nd ref="144896553"/>
    <nd ref="259736299"/>
    <nd ref="144896582"/>
    <nd ref="279057468"/>
    <nd ref="144896607"/>
    <nd ref="252700444"/>
    <nd ref="144896661"/>
    <tag k="highway" v="secondary"/>
    <tag k="maxspeed" v="50"/>
    <tag k="name" v="Audley Street;Irrigation Way"/>
  </way>
  <way id="25603380" version="4" timestamp="2010-07-14T13:52:05Z" uid="4467" user="Rosscoe" changeset="5217127">
    <nd ref="144896527"/>
    <nd ref="144896553"/>
    <nd ref="817300712"/>
    <nd ref="259736299"/>
    <nd ref="144896582"/>
    <nd ref="279057468"/>
    <nd ref="144896607"/>
    <nd ref="252700444"/>
    <nd ref="144896661"/>
    <tag k="highway" v="secondary"/>
    <tag k="maxspeed" v="50"/>
    <tag k="name" v="Audley Street;Irrigation Way"/>
  </way>
  <way id="25603380" version="5" timestamp="2011-02-27T04:18:59Z" uid="18775" user="drlizau" changeset="7406805">
    <nd ref="144896527"/>
    <nd ref="144896553"/>
    <nd ref="259736299"/>
    <nd ref="144896582"/>
    <nd ref="279057468"/>
    <nd ref="144896607"/>
    <nd ref="252700444"/>
    <nd ref="144896661"/>
    <tag k="highway" v="secondary"/>
    <tag k="maxspeed" v="50"/>
    <tag k="name" v="Audley Street;Irrigation Way"/>
  </way>
  <way id="25603381" version="1" timestamp="2008-07-17T04:06:14Z" uid="19626" user="Swamp" changeset="510819">
    <nd ref="144896661"/>
    <nd ref="279073831"/>
    <nd ref="279073832"/>
    <nd ref="279073833"/>
    <nd ref="279073834"/>
    <tag k="created_by" v="JOSM"/>
    <tag k="highway" v="residential"/>
    <tag k="maxspeed" v="50"/>
    <tag k="name" v="Audley Street"/>
  </way>
  <way id="25603381" version="2" timestamp="2008-08-25T11:16:50Z" uid="19626" user="Swamp" changeset="402728">
    <nd ref="144896661"/>
    <nd ref="279073831"/>
    <nd ref="290926841"/>
    <nd ref="279073832"/>
    <nd ref="290926845"/>
    <nd ref="279073833"/>
    <nd ref="279073834"/>
    <tag k="created_by" v="JOSM"/>
    <tag k="highway" v="residential"/>
    <tag k="maxspeed" v="50"/>
    <tag k="name" v="Audley Street"/>
  </way>
  <way id="25603382" version="1" timestamp="2008-07-17T04:06:14Z" uid="19626" user="Swamp" changeset="510819">
    <nd ref="279073835"/>
    <nd ref="144896309"/>
    <tag k="bridge" v="true"/>
    <tag k="created_by" v="JOSM"/>
    <tag k="highway" v="secondary"/>
    <tag k="maxspeed" v="80"/>
    <tag k="name" v="Leeton Road"/>
  </way>
  <way id="25603382" version="2" timestamp="2009-08-03T20:24:48Z" uid="4467" user="Rosscoe" changeset="2030021">
    <nd ref="279073835"/>
    <nd ref="144896309"/>
    <tag k="bridge" v="yes"/>
    <tag k="highway" v="secondary"/>
    <tag k="maxspeed" v="80"/>
    <tag k="name" v="Leeton Road"/>
  </way>
  <way id="25603382" version="3" timestamp="2010-07-14T13:55:17Z" uid="4467" user="Rosscoe" changeset="5217165">
    <nd ref="279073835"/>
    <nd ref="144896309"/>
    <tag k="bridge" v="yes"/>
    <tag k="highway" v="secondary"/>
    <tag k="layer" v="1"/>
    <tag k="maxspeed" v="80"/>
    <tag k="name" v="Leeton Road"/>
  </way>
  <way id="25603383" version="1" timestamp="2008-07-17T04:06:15Z" uid="19626" user="Swamp" changeset="510819">
    <nd ref="144896309"/>
    <nd ref="144896334"/>
    <nd ref="144896358"/>
    <nd ref="144896384"/>
    <nd ref="259740073"/>
    <nd ref="144896403"/>
    <nd ref="144896427"/>
    <nd ref="278865404"/>
    <nd ref="259740072"/>
    <tag k="created_by" v="JOSM"/>
    <tag k="highway" v="secondary"/>
    <tag k="maxspeed" v="80"/>
    <tag k="name" v="Leeton Road"/>
  </way>
  <way id="25603383" version="2" timestamp="2008-12-11T09:52:21Z" uid="19626" user="Swamp" changeset="319637">
    <nd ref="144896309"/>
    <nd ref="144896334"/>
    <nd ref="144896358"/>
    <nd ref="317913136"/>
    <nd ref="144896384"/>
    <nd ref="259740073"/>
    <nd ref="144896403"/>
    <nd ref="144896427"/>
    <nd ref="278865404"/>
    <nd ref="259740072"/>
    <tag k="created_by" v="JOSM"/>
    <tag k="highway" v="secondary"/>
    <tag k="maxspeed" v="80"/>
    <tag k="name" v="Leeton Road"/>
  </way>
  <way id="25603383" version="3" timestamp="2009-04-12T09:26:36Z" uid="18775" user="drlizau" changeset="445879">
    <nd ref="144896309"/>
    <nd ref="373112662"/>
    <nd ref="144896334"/>
    <nd ref="144896358"/>
    <nd ref="317913136"/>
    <nd ref="144896384"/>
    <nd ref="259740073"/>
    <nd ref="144896403"/>
    <nd ref="144896427"/>
    <nd ref="278865404"/>
    <nd ref="259740072"/>
    <tag k="created_by" v="JOSM"/>
    <tag k="highway" v="secondary"/>
    <tag k="maxspeed" v="80"/>
    <tag k="name" v="Leeton Road"/>
  </way>
  <way id="25603384" version="1" timestamp="2008-07-17T04:06:16Z" uid="19626" user="Swamp" changeset="510819">
    <nd ref="279073836"/>
    <nd ref="252701207"/>
    <nd ref="279073837"/>
    <nd ref="279073838"/>
    <tag k="created_by" v="JOSM"/>
    <tag k="highway" v="residential"/>
    <tag k="maxspeed" v="50km/h"/>
    <tag k="name" v="Jonsen Street"/>
  </way>
  <way id="25603384" version="2" timestamp="2009-07-25T15:29:44Z" uid="74617" user="JohnSmith" changeset="1935409">
    <nd ref="279073836"/>
    <nd ref="252701207"/>
    <nd ref="279073837"/>
    <nd ref="279073838"/>
    <tag k="highway" v="residential"/>
    <tag k="maxspeed" v="50"/>
    <tag k="name" v="Jonsen Street"/>
  </way>
  <way id="25603394" version="6" timestamp="2010-04-11T13:07:36Z" uid="9581" user="Lobelt" changeset="4393281">
    <nd ref="250584811"/>
    <nd ref="279073957"/>
    <nd ref="279073958"/>
    <nd ref="279073959"/>
    <nd ref="279073960"/>
    <nd ref="279073961"/>
    <nd ref="279073962"/>
    <tag k="highway" v="residential"/>
    <tag k="maxspeed" v="30"/>
  </way>
  <way id="25603408" version="1" timestamp="2008-07-17T04:11:38Z" uid="19626" user="Swamp" changeset="510819">
    <nd ref="279073012"/>
    <nd ref="252701209"/>
    <nd ref="279073981"/>
    <tag k="created_by" v="JOSM"/>
    <tag k="highway" v="residential"/>
    <tag k="maxspeed" v="50km/h"/>
    <tag k="name" v="Arthur Street"/>
  </way>
  <way id="25603408" version="2" timestamp="2008-07-21T23:13:03Z" uid="19626" user="Swamp" changeset="570228">
    <nd ref="279073012"/>
    <nd ref="252701209"/>
    <nd ref="280153075"/>
    <nd ref="279073981"/>
    <tag k="created_by" v="JOSM"/>
    <tag k="highway" v="residential"/>
    <tag k="maxspeed" v="50km/h"/>
    <tag k="name" v="Arthur Street"/>
  </way>
  <way id="25603408" version="3" timestamp="2008-08-25T11:16:49Z" uid="19626" user="Swamp" changeset="402728">
    <nd ref="290926841"/>
    <nd ref="290926840"/>
    <nd ref="279073012"/>
    <nd ref="252701209"/>
    <nd ref="280153075"/>
    <nd ref="279073981"/>
    <tag k="created_by" v="JOSM"/>
    <tag k="highway" v="residential"/>
    <tag k="maxspeed" v="50km/h"/>
    <tag k="name" v="Arthur Street"/>
  </way>
  <way id="25603408" version="4" timestamp="2008-09-19T08:52:52Z" uid="19626" user="Swamp" changeset="664708">
    <nd ref="290926841"/>
    <nd ref="290926840"/>
    <nd ref="279073012"/>
    <nd ref="252701209"/>
    <nd ref="280153075"/>
    <nd ref="279073981"/>
    <tag k="created_by" v="JOSM"/>
    <tag k="highway" v="residential"/>
    <tag k="maxspeed" v="50km/h"/>
    <tag k="name" v="Arthur Street"/>
  </way>
  <way id="25603408" version="5" timestamp="2009-07-25T15:29:43Z" uid="74617" user="JohnSmith" changeset="1935409">
    <nd ref="290926841"/>
    <nd ref="290926840"/>
    <nd ref="279073012"/>
    <nd ref="252701209"/>
    <nd ref="280153075"/>
    <nd ref="279073981"/>
    <tag k="highway" v="residential"/>
    <tag k="maxspeed" v="50"/>
    <tag k="name" v="Arthur Street"/>
  </way>
  <way id="25603411" version="2" timestamp="2010-02-14T15:44:34Z" uid="74617" user="JohnSmith" changeset="3874884">
    <nd ref="279073979"/>
    <nd ref="279074000"/>
    <nd ref="279074001"/>
    <nd ref="279074002"/>
    <nd ref="279074003"/>
    <tag k="highway" v="service"/>
    <tag k="maxspeed" v="50"/>
    <tag k="name" v="Newmarket Road"/>
  </way>
  <way id="25603425" version="13" timestamp="2010-03-27T23:51:27Z" uid="20587" user="balrog-kun" changeset="4250871">
    <nd ref="65297161"/>
    <nd ref="612027339"/>
    <nd ref="612027338"/>
    <tag k="highway" v="residential"/>
    <tag k="name" v="Union Street"/>
    <tag k="tiger:cfcc" v="A41"/>
    <tag k="tiger:county" v="San Francisco, CA"/>
    <tag k="tiger:name_base" v="Union"/>
    <tag k="tiger:name_type" v="St"/>
    <tag k="tiger:separated" v="no"/>
    <tag k="tiger:source" v="tiger_import_dch_v0.6_20070809"/>
    <tag k="tiger:tlid" v="192279551:192279574:192279545:192279651:192279657:192294070:192279939:192279682:192279941:192279963:192279888:192279969:192279674:192279580"/>
    <tag k="tiger:zip_left" v="94123"/>
    <tag k="tiger:zip_right" v="94123"/>
  </way>
  <way id="25603579" version="8" timestamp="2008-11-26T02:01:15Z" uid="6975" user="ulfl" changeset="794829">
    <nd ref="278137806"/>
    <nd ref="279075585"/>
    <nd ref="279075586"/>
    <nd ref="279075587"/>
    <nd ref="279075588"/>
    <nd ref="279075589"/>
    <nd ref="279075590"/>
    <nd ref="279075591"/>
    <nd ref="279075592"/>
    <nd ref="279075593"/>
    <nd ref="279075594"/>
    <nd ref="279075595"/>
    <nd ref="279075596"/>
    <nd ref="279075597"/>
    <nd ref="279075598"/>
    <nd ref="279075599"/>
    <nd ref="279075600"/>
    <nd ref="279075601"/>
    <tag k="highway" v="secondary"/>
    <tag k="nat_ref" v="150"/>
    <tag k="rcrc_ref" v="501b"/>
  </way>
  <way id="25603616" version="3" timestamp="2010-03-27T23:51:27Z" uid="20587" user="balrog-kun" changeset="4250871">
    <nd ref="279075830"/>
    <nd ref="279075829"/>
    <tag k="bridge" v="yes"/>
    <tag k="highway" v="residential"/>
    <tag k="layer" v="1"/>
    <tag k="name" v="Five Mile Road"/>
    <tag k="tiger:cfcc" v="A41"/>
    <tag k="tiger:county" v="San Bernardino, CA"/>
    <tag k="tiger:name_base" v="Five Mile"/>
    <tag k="tiger:name_type" v="Rd"/>
    <tag k="tiger:separated" v="no"/>
    <tag k="tiger:source" v="tiger_import_dch_v0.6_20070809"/>
    <tag k="tiger:tlid" v="144524466:144524468"/>
  </way>
  <way id="25603617" version="2" timestamp="2010-03-27T23:51:28Z" uid="20587" user="balrog-kun" changeset="4250871">
    <nd ref="279075829"/>
    <nd ref="54239226"/>
    <tag k="highway" v="residential"/>
    <tag k="name" v="Five Mile Road"/>
    <tag k="tiger:cfcc" v="A41"/>
    <tag k="tiger:county" v="San Bernardino, CA"/>
    <tag k="tiger:name_base" v="Five Mile"/>
    <tag k="tiger:name_type" v="Rd"/>
    <tag k="tiger:reviewed" v="no"/>
    <tag k="tiger:separated" v="no"/>
    <tag k="tiger:source" v="tiger_import_dch_v0.6_20070809"/>
    <tag k="tiger:tlid" v="144524466:144524468"/>
  </way>
  <way id="25603618" version="2" timestamp="2010-03-27T23:51:28Z" uid="20587" user="balrog-kun" changeset="4250871">
    <nd ref="54675238"/>
    <nd ref="279075836"/>
    <nd ref="54675240"/>
    <nd ref="54675245"/>
    <nd ref="54675249"/>
    <nd ref="54675255"/>
    <nd ref="54675258"/>
    <nd ref="54675261"/>
    <nd ref="54675265"/>
    <nd ref="54194076"/>
    <nd ref="54571534"/>
    <tag k="highway" v="residential"/>
    <tag k="hist_ref" v="US 66"/>
    <tag k="name" v="National Old Trails Road"/>
    <tag k="name_1" v="Historic Route 66"/>
    <tag k="tiger:cfcc" v="A41"/>
    <tag k="tiger:county" v="San Bernardino, CA"/>
    <tag k="tiger:name_base" v="National Old Trails"/>
    <tag k="tiger:name_base_1" v="Historic Route 66"/>
    <tag k="tiger:name_type" v="Rd"/>
    <tag k="tiger:separated" v="no"/>
    <tag k="tiger:source" v="tiger_import_dch_v0.6_20070809"/>
    <tag k="tiger:tlid" v="144524691:144688836:145204700:144525337:144525345:144525257:144524523:144524525:144524528"/>
  </way>
  <way id="25603668" version="1" timestamp="2008-07-17T05:41:11Z" uid="19626" user="Swamp" changeset="518718">
    <nd ref="279076186"/>
    <nd ref="279076187"/>
    <nd ref="279076188"/>
    <nd ref="279066284"/>
    <nd ref="279076189"/>
    <tag k="created_by" v="JOSM"/>
    <tag k="highway" v="residential"/>
    <tag k="maxspeed" v="50km/h"/>
    <tag k="name" v="Roslyn Street"/>
  </way>
  <way id="25603668" version="2" timestamp="2008-07-17T06:13:51Z" uid="19626" user="Swamp" changeset="518718">
    <nd ref="279066271"/>
    <nd ref="252700720"/>
    <nd ref="279076186"/>
    <tag k="created_by" v="JOSM"/>
    <tag k="highway" v="residential"/>
    <tag k="maxspeed" v="50km/h"/>
    <tag k="name" v="Margaret Street"/>
  </way>
  <way id="25603668" version="3" timestamp="2008-07-17T06:15:52Z" uid="19626" user="Swamp" changeset="518718">
    <nd ref="279066271"/>
    <nd ref="279077705"/>
    <nd ref="252700720"/>
    <nd ref="279076186"/>
    <tag k="created_by" v="JOSM"/>
    <tag k="highway" v="residential"/>
    <tag k="maxspeed" v="50km/h"/>
    <tag k="name" v="Margaret Street"/>
  </way>
  <way id="25603668" version="4" timestamp="2009-07-25T15:29:46Z" uid="74617" user="JohnSmith" changeset="1935409">
    <nd ref="279066271"/>
    <nd ref="279077705"/>
    <nd ref="252700720"/>
    <nd ref="279076186"/>
    <tag k="highway" v="residential"/>
    <tag k="maxspeed" v="50"/>
    <tag k="name" v="Margaret Street"/>
  </way>
  <way id="25603752" version="1" timestamp="2008-07-17T05:46:02Z" uid="19626" user="Swamp" changeset="518718">
    <nd ref="279076542"/>
    <nd ref="279076543"/>
    <nd ref="279066281"/>
    <nd ref="279076544"/>
    <tag k="created_by" v="JOSM"/>
    <tag k="highway" v="residential"/>
    <tag k="maxspeed" v="50km/h"/>
    <tag k="name" v="Ferrier Street"/>
  </way>
  <way id="25603752" version="2" timestamp="2009-07-25T15:29:47Z" uid="74617" user="JohnSmith" changeset="1935409">
    <nd ref="279076542"/>
    <nd ref="279076543"/>
    <nd ref="279066281"/>
    <nd ref="279076544"/>
    <tag k="highway" v="residential"/>
    <tag k="maxspeed" v="50"/>
    <tag k="name" v="Ferrier Street"/>
  </way>
  <way id="25603755" version="1" timestamp="2008-07-17T05:47:08Z" uid="19626" user="Swamp" changeset="518718">
    <nd ref="279062894"/>
    <nd ref="279076553"/>
    <tag k="created_by" v="JOSM"/>
    <tag k="highway" v="track"/>
    <tag k="maxspeed" v="50km/h"/>
  </way>
  <way id="25603755" version="2" timestamp="2009-07-25T15:29:49Z" uid="74617" user="JohnSmith" changeset="1935409">
    <nd ref="279062894"/>
    <nd ref="279076553"/>
    <tag k="highway" v="track"/>
    <tag k="maxspeed" v="50"/>
  </way>
  <way id="25603789" version="1" timestamp="2008-07-17T05:55:56Z" uid="19626" user="Swamp" changeset="518718">
    <nd ref="279076788"/>
    <nd ref="279076789"/>
    <nd ref="279076790"/>
    <nd ref="279076795"/>
    <nd ref="279076796"/>
    <nd ref="279076797"/>
    <nd ref="279076798"/>
    <nd ref="279076799"/>
    <nd ref="279076800"/>
    <nd ref="279076801"/>
    <nd ref="279076802"/>
    <tag k="created_by" v="JOSM"/>
    <tag k="highway" v="residential"/>
    <tag k="maxspeed" v="50km/h"/>
    <tag k="name" v="Melbourne Street"/>
  </way>
  <way id="25603789" version="2" timestamp="2008-08-25T11:06:44Z" uid="19626" user="Swamp" changeset="402728">
    <nd ref="279076788"/>
    <nd ref="279076790"/>
    <nd ref="290925777"/>
    <nd ref="279076795"/>
    <nd ref="279076796"/>
    <nd ref="279076797"/>
    <nd ref="279076798"/>
    <nd ref="279076799"/>
    <nd ref="279076800"/>
    <nd ref="279076801"/>
    <nd ref="279076802"/>
    <tag k="created_by" v="JOSM"/>
    <tag k="highway" v="residential"/>
    <tag k="maxspeed" v="50km/h"/>
    <tag k="name" v="Melbourne Street"/>
  </way>
  <way id="25603789" version="3" timestamp="2009-07-25T15:29:45Z" uid="74617" user="JohnSmith" changeset="1935409">
    <nd ref="279076788"/>
    <nd ref="279076790"/>
    <nd ref="290925777"/>
    <nd ref="279076795"/>
    <nd ref="279076796"/>
    <nd ref="279076797"/>
    <nd ref="279076798"/>
    <nd ref="279076799"/>
    <nd ref="279076800"/>
    <nd ref="279076801"/>
    <nd ref="279076802"/>
    <tag k="highway" v="residential"/>
    <tag k="maxspeed" v="50"/>
    <tag k="name" v="Melbourne Street"/>
  </way>
  <way id="25603789" version="4" timestamp="2010-05-24T23:43:25Z" uid="18775" user="drlizau" changeset="4799704">
    <nd ref="279076788"/>
    <nd ref="279076790"/>
    <nd ref="290925777"/>
    <nd ref="279076795"/>
    <nd ref="279076796"/>
    <nd ref="279076797"/>
    <nd ref="279076798"/>
    <nd ref="279076799"/>
    <nd ref="279076800"/>
    <nd ref="279076801"/>
    <nd ref="206218131"/>
    <tag k="highway" v="residential"/>
    <tag k="maxspeed" v="50"/>
    <tag k="name" v="Melbourne Street"/>
  </way>
  <way id="25603790" version="1" timestamp="2008-07-17T05:55:57Z" uid="19626" user="Swamp" changeset="518718">
    <nd ref="252700982"/>
    <nd ref="279076803"/>
    <nd ref="279076804"/>
    <nd ref="279076805"/>
    <nd ref="279076806"/>
    <tag k="created_by" v="JOSM"/>
    <tag k="highway" v="residential"/>
    <tag k="maxspeed" v="50"/>
    <tag k="name" v="Larmer Street"/>
    <tag k="oneway" v="true"/>
  </way>
  <way id="25603790" version="2" timestamp="2009-08-03T20:31:01Z" uid="4467" user="Rosscoe" changeset="2030076">
    <nd ref="252700982"/>
    <nd ref="279076803"/>
    <nd ref="279076804"/>
    <nd ref="279076805"/>
    <nd ref="279076806"/>
    <tag k="highway" v="residential"/>
    <tag k="maxspeed" v="50"/>
    <tag k="name" v="Larmer Street"/>
    <tag k="oneway" v="yes"/>
  </way>
  <way id="25603791" version="1" timestamp="2008-07-17T05:55:58Z" uid="19626" user="Swamp" changeset="518718">
    <nd ref="279076806"/>
    <nd ref="279076807"/>
    <nd ref="279076808"/>
    <nd ref="279076809"/>
    <nd ref="252700982"/>
    <tag k="created_by" v="JOSM"/>
    <tag k="highway" v="residential"/>
    <tag k="maxspeed" v="50"/>
    <tag k="name" v="Larmer Street"/>
    <tag k="oneway" v="true"/>
  </way>
  <way id="25603791" version="2" timestamp="2009-08-03T21:53:19Z" uid="4467" user="Rosscoe" changeset="2030728">
    <nd ref="279076806"/>
    <nd ref="279076807"/>
    <nd ref="279076808"/>
    <nd ref="279076809"/>
    <nd ref="252700982"/>
    <tag k="highway" v="residential"/>
    <tag k="maxspeed" v="50"/>
    <tag k="name" v="Larmer Street"/>
    <tag k="oneway" v="yes"/>
  </way>
  <way id="25603801" version="1" timestamp="2008-07-17T05:59:03Z" uid="19626" user="Swamp" changeset="518718">
    <nd ref="279076806"/>
    <nd ref="279076867"/>
    <tag k="created_by" v="JOSM"/>
    <tag k="highway" v="residential"/>
    <tag k="maxspeed" v="50km/h"/>
    <tag k="name" v="Larmer Street"/>
  </way>
  <way id="25603801" version="2" timestamp="2009-07-25T15:29:45Z" uid="74617" user="JohnSmith" changeset="1935409">
    <nd ref="279076806"/>
    <nd ref="279076867"/>
    <tag k="highway" v="residential"/>
    <tag k="maxspeed" v="50"/>
    <tag k="name" v="Larmer Street"/>
  </way>
  <way id="25603802" version="1" timestamp="2008-07-17T05:59:04Z" uid="19626" user="Swamp" changeset="518718">
    <nd ref="252974288"/>
    <nd ref="279076871"/>
    <nd ref="279076867"/>
    <tag k="created_by" v="JOSM"/>
    <tag k="highway" v="residential"/>
    <tag k="maxspeed" v="50km/h"/>
    <tag k="name" v="Gordon Street"/>
  </way>
  <way id="25603802" version="2" timestamp="2009-07-25T15:29:47Z" uid="74617" user="JohnSmith" changeset="1935409">
    <nd ref="252974288"/>
    <nd ref="279076871"/>
    <nd ref="279076867"/>
    <tag k="highway" v="residential"/>
    <tag k="maxspeed" v="50"/>
    <tag k="name" v="Gordon Street"/>
  </way>
  <way id="25603802" version="4" timestamp="2010-05-30T11:34:40Z" uid="19626" user="Swamp" changeset="4850917">
    <nd ref="567771017"/>
    <nd ref="567771016"/>
    <nd ref="567771015"/>
    <nd ref="567771014"/>
    <nd ref="759223320"/>
    <nd ref="567771013"/>
    <nd ref="567771024"/>
    <nd ref="567771023"/>
    <nd ref="567771022"/>
    <nd ref="252974288"/>
    <tag k="highway" v="unclassified"/>
    <tag k="maxspeed" v="50"/>
  </way>
  <way id="25603807" version="6" timestamp="2010-01-09T15:21:03Z" uid="33382" user="de_muur" changeset="3578499">
    <nd ref="279076932"/>
    <nd ref="279076933"/>
    <nd ref="610340185"/>
    <nd ref="279076935"/>
    <nd ref="279076936"/>
    <nd ref="279076937"/>
    <nd ref="279076938"/>
    <nd ref="279076939"/>
    <nd ref="279076932"/>
    <tag k="building" v="yes"/>
  </way>
  <way id="25603815" version="7" timestamp="2011-05-08T09:13:01Z" uid="9581" user="Lobelt" changeset="8080437">
    <nd ref="274719138"/>
    <nd ref="274719140"/>
    <nd ref="930970591"/>
    <nd ref="274719141"/>
    <nd ref="274719143"/>
    <nd ref="334373308"/>
    <nd ref="274719145"/>
    <nd ref="274719147"/>
    <nd ref="274719148"/>
    <nd ref="274719149"/>
    <nd ref="1006827199"/>
    <nd ref="274719150"/>
    <nd ref="274719151"/>
    <nd ref="1276832661"/>
    <nd ref="1276832564"/>
    <nd ref="274719152"/>
    <nd ref="1276831861"/>
    <nd ref="1276831933"/>
    <nd ref="1276832252"/>
    <nd ref="274719153"/>
    <nd ref="1276832383"/>
    <nd ref="1276832636"/>
    <nd ref="1276832803"/>
    <nd ref="274719154"/>
    <nd ref="1276831826"/>
    <nd ref="1276831893"/>
    <nd ref="1276832208"/>
    <nd ref="1276832307"/>
    <nd ref="274719155"/>
    <tag k="railway" v="rail"/>
  </way>
  <way id="25603827" version="1" timestamp="2008-07-17T06:05:44Z" uid="19626" user="Swamp" changeset="518718">
    <nd ref="279076871"/>
    <nd ref="279077057"/>
    <nd ref="279077058"/>
    <nd ref="279077059"/>
    <tag k="created_by" v="JOSM"/>
    <tag k="highway" v="residential"/>
    <tag k="maxspeed" v="50km/h"/>
    <tag k="name" v="Shady Street"/>
  </way>
  <way id="25603827" version="2" timestamp="2009-07-25T15:29:44Z" uid="74617" user="JohnSmith" changeset="1935409">
    <nd ref="279076871"/>
    <nd ref="279077057"/>
    <nd ref="279077058"/>
    <nd ref="279077059"/>
    <tag k="highway" v="residential"/>
    <tag k="maxspeed" v="50"/>
    <tag k="name" v="Shady Street"/>
  </way>
  <way id="25603828" version="1" timestamp="2008-07-17T06:05:48Z" uid="19626" user="Swamp" changeset="518718">
    <nd ref="279077060"/>
    <nd ref="279077061"/>
    <nd ref="279077062"/>
    <nd ref="279077063"/>
    <nd ref="279073005"/>
    <nd ref="279077064"/>
    <nd ref="279077065"/>
    <nd ref="279073833"/>
    <nd ref="279076867"/>
    <nd ref="279076788"/>
    <nd ref="279077059"/>
    <nd ref="279077066"/>
    <nd ref="279076878"/>
    <nd ref="279077067"/>
    <nd ref="279077068"/>
    <nd ref="279077069"/>
    <nd ref="279077070"/>
    <tag k="created_by" v="JOSM"/>
    <tag k="highway" v="residential"/>
    <tag k="maxspeed" v="50km/h"/>
    <tag k="name" v="Elizabeth Street"/>
  </way>
  <way id="25603828" version="2" timestamp="2008-08-25T11:06:43Z" uid="19626" user="Swamp" changeset="402728">
    <nd ref="279077060"/>
    <nd ref="279077061"/>
    <nd ref="279073005"/>
    <nd ref="279077065"/>
    <nd ref="279073833"/>
    <nd ref="279076867"/>
    <nd ref="279076788"/>
    <nd ref="279077059"/>
    <nd ref="279077066"/>
    <nd ref="279076878"/>
    <nd ref="279077067"/>
    <nd ref="279077068"/>
    <nd ref="279077069"/>
    <nd ref="279077070"/>
    <tag k="created_by" v="JOSM"/>
    <tag k="highway" v="residential"/>
    <tag k="maxspeed" v="50km/h"/>
    <tag k="name" v="Elizabeth Street"/>
  </way>
  <way id="25603828" version="5" timestamp="2009-07-25T15:29:46Z" uid="74617" user="JohnSmith" changeset="1935409">
    <nd ref="279077060"/>
    <nd ref="279077061"/>
    <nd ref="279073005"/>
    <nd ref="279077065"/>
    <nd ref="279073833"/>
    <nd ref="279076867"/>
    <nd ref="279076788"/>
    <nd ref="279077059"/>
    <nd ref="279077066"/>
    <nd ref="279076878"/>
    <nd ref="279077067"/>
    <nd ref="279077068"/>
    <nd ref="279077069"/>
    <nd ref="279077070"/>
    <tag k="highway" v="residential"/>
    <tag k="maxspeed" v="50"/>
    <tag k="name" v="Elizabeth Street"/>
  </way>
  <way id="25603828" version="7" timestamp="2009-11-13T09:43:11Z" uid="4467" user="Rosscoe" changeset="3104393">
    <nd ref="279077060"/>
    <nd ref="279077061"/>
    <nd ref="279073005"/>
    <nd ref="279077065"/>
    <nd ref="279073833"/>
    <nd ref="279076867"/>
    <nd ref="279076788"/>
    <nd ref="279077059"/>
    <nd ref="279077066"/>
    <nd ref="279076878"/>
    <nd ref="279077067"/>
    <nd ref="279077068"/>
    <nd ref="279077069"/>
    <nd ref="357784406"/>
    <nd ref="562655080"/>
    <tag k="highway" v="residential"/>
    <tag k="maxspeed" v="50"/>
    <tag k="name" v="Elizabeth Street"/>
  </way>
  <way id="25603838" version="6" timestamp="2010-12-02T17:57:13Z" uid="9581" user="Lobelt" changeset="6517369">
    <nd ref="649051431"/>
    <nd ref="279077089"/>
    <nd ref="489956238"/>
    <tag k="highway" v="residential"/>
    <tag k="name" v="Faberstraße"/>
  </way>
  <way id="25603906" version="1" timestamp="2008-07-17T06:13:49Z" uid="19626" user="Swamp" changeset="518718">
    <nd ref="279076186"/>
    <nd ref="279076187"/>
    <nd ref="279076188"/>
    <nd ref="279066284"/>
    <nd ref="279076189"/>
    <tag k="created_by" v="JOSM"/>
    <tag k="highway" v="residential"/>
    <tag k="maxspeed" v="50km/h"/>
    <tag k="name" v="Roslyn Street"/>
  </way>
  <way id="25603906" version="2" timestamp="2009-07-25T15:29:45Z" uid="74617" user="JohnSmith" changeset="1935409">
    <nd ref="279076186"/>
    <nd ref="279076187"/>
    <nd ref="279076188"/>
    <nd ref="279066284"/>
    <nd ref="279076189"/>
    <tag k="highway" v="residential"/>
    <tag k="maxspeed" v="50"/>
    <tag k="name" v="Roslyn Street"/>
  </way>
  <way id="25603907" version="1" timestamp="2008-07-17T06:13:50Z" uid="19626" user="Swamp" changeset="518718">
    <nd ref="279076187"/>
    <nd ref="252700721"/>
    <nd ref="279077677"/>
    <tag k="created_by" v="JOSM"/>
    <tag k="highway" v="residential"/>
    <tag k="maxspeed" v="50km/h"/>
    <tag k="name" v="Stanley Street"/>
  </way>
  <way id="25603907" version="2" timestamp="2008-07-17T06:15:53Z" uid="19626" user="Swamp" changeset="518718">
    <nd ref="279076187"/>
    <nd ref="252700721"/>
    <nd ref="279077706"/>
    <nd ref="279077677"/>
    <tag k="created_by" v="JOSM"/>
    <tag k="highway" v="residential"/>
    <tag k="maxspeed" v="50km/h"/>
    <tag k="name" v="Stanley Street"/>
  </way>
  <way id="25603907" version="3" timestamp="2009-07-25T15:29:44Z" uid="74617" user="JohnSmith" changeset="1935409">
    <nd ref="279076187"/>
    <nd ref="252700721"/>
    <nd ref="279077706"/>
    <nd ref="279077677"/>
    <tag k="highway" v="residential"/>
    <tag k="maxspeed" v="50"/>
    <tag k="name" v="Stanley Street"/>
  </way>
  <way id="25603913" version="3" timestamp="2009-11-29T23:01:27Z" uid="200463" user="harmagedon" changeset="3251061">
    <nd ref="276095887"/>
    <nd ref="278112822"/>
    <nd ref="278112853"/>
    <nd ref="278112722"/>
    <nd ref="278112586"/>
    <nd ref="278112494"/>
    <nd ref="278113131"/>
    <nd ref="278116103"/>
    <tag k="highway" v="tertiary"/>
  </way>
  <way id="25603917" version="1" timestamp="2008-07-17T06:15:50Z" uid="19626" user="Swamp" changeset="518718">
    <nd ref="279077705"/>
    <nd ref="279077706"/>
    <tag k="created_by" v="JOSM"/>
    <tag k="highway" v="residential"/>
    <tag k="maxspeed" v="50km/h"/>
    <tag k="name" v="Short Street"/>
  </way>
  <way id="25603917" version="2" timestamp="2009-07-25T15:29:44Z" uid="74617" user="JohnSmith" changeset="1935409">
    <nd ref="279077705"/>
    <nd ref="279077706"/>
    <tag k="highway" v="residential"/>
    <tag k="maxspeed" v="50"/>
    <tag k="name" v="Short Street"/>
  </way>
  <way id="25603921" version="4" timestamp="2009-11-29T23:01:17Z" uid="200463" user="harmagedon" changeset="3251061">
    <nd ref="278886554"/>
    <nd ref="278886553"/>
    <nd ref="278886552"/>
    <nd ref="278886550"/>
    <nd ref="125091600"/>
    <tag k="highway" v="tertiary"/>
  </way>
  <way id="25603983" version="1" timestamp="2008-07-17T06:23:06Z" uid="19626" user="Swamp" changeset="518718">
    <nd ref="279077993"/>
    <nd ref="279077994"/>
    <nd ref="279077060"/>
    <nd ref="279077995"/>
    <nd ref="279077996"/>
    <nd ref="279077997"/>
    <nd ref="279077998"/>
    <nd ref="279077999"/>
    <nd ref="279078000"/>
    <tag k="created_by" v="JOSM"/>
    <tag k="highway" v="residential"/>
    <tag k="maxspeed" v="50km/h"/>
    <tag k="name" v="Chantilly Street"/>
  </way>
  <way id="25603983" version="2" timestamp="2009-07-25T15:29:46Z" uid="74617" user="JohnSmith" changeset="1935409">
    <nd ref="279077993"/>
    <nd ref="279077994"/>
    <nd ref="279077060"/>
    <nd ref="279077995"/>
    <nd ref="279077996"/>
    <nd ref="279077997"/>
    <nd ref="279077998"/>
    <nd ref="279077999"/>
    <nd ref="279078000"/>
    <tag k="highway" v="residential"/>
    <tag k="maxspeed" v="50"/>
    <tag k="name" v="Chantilly Street"/>
  </way>
</osm>
