<?xml version='1.0' encoding='UTF-8'?>
<osm version="0.6" generator="libosmium/2.20.0">
  <way id="25699001" version="1" timestamp="2008-07-22T08:01:21Z" uid="9581" user="Lobelt" changeset="567448">
    <nd ref="280179747"/>
    <nd ref="280179748"/>
    <nd ref="280179749"/>
    <nd ref="280179750"/>
    <tag k="highway" v="unclassified"/>
  </way>
  <way id="25699002" version="1" timestamp="2008-07-22T08:01:22Z" uid="9581" user="Lobelt" changeset="567448">
    <nd ref="280179749"/>
    <nd ref="280179751"/>
    <nd ref="280179752"/>
    <nd ref="280179753"/>
    <nd ref="280179754"/>
    <nd ref="280179751"/>
    <tag k="highway" v="service"/>
  </way>
  <way id="25699003" version="1" timestamp="2008-07-22T08:01:22Z" uid="9581" user="Lobelt" changeset="567448">
    <nd ref="280179782"/>
    <nd ref="280179755"/>
    <nd ref="280179756"/>
    <nd ref="31308273"/>
    <nd ref="280179757"/>
    <nd ref="280179758"/>
    <nd ref="280179759"/>
    <nd ref="280179760"/>
    <nd ref="280179761"/>
    <nd ref="280179782"/>
    <tag k="highway" v="primary"/>
    <tag k="junction" v="roundabout"/>
  </way>
  <way id="25699003" version="3" timestamp="2008-10-07T12:04:23Z" uid="9581" user="Lobelt" changeset="137401">
    <nd ref="280179782"/>
    <nd ref="280179755"/>
    <nd ref="280179756"/>
    <nd ref="31308273"/>
    <nd ref="280179757"/>
    <nd ref="280179758"/>
    <nd ref="280179759"/>
    <nd ref="280179760"/>
    <nd ref="280179761"/>
    <nd ref="280179782"/>
    <tag k="highway" v="secondary"/>
    <tag k="junction" v="roundabout"/>
  </way>
  <way id="25699004" version="1" timestamp="2008-07-22T08:01:22Z" uid="9581" user="Lobelt" changeset="567448">
    <nd ref="280179755"/>
    <nd ref="280179762"/>
    <tag k="highway" v="residential"/>
  </way>
  <way id="25699004" version="5" timestamp="2009-01-26T08:14:09Z" uid="9581" user="Lobelt" changeset="839069">
    <nd ref="280179755"/>
    <nd ref="280179762"/>
    <nd ref="315909624"/>
    <nd ref="315909622"/>
    <nd ref="303377062"/>
    <tag k="highway" v="residential"/>
    <tag k="name" v="Rentnerstraße"/>
  </way>
  <way id="25699005" version="1" timestamp="2008-07-22T08:01:22Z" uid="9581" user="Lobelt" changeset="567448">
    <nd ref="31308299"/>
    <nd ref="280179763"/>
    <nd ref="280179764"/>
    <nd ref="280179765"/>
    <nd ref="280179766"/>
    <nd ref="280179767"/>
    <nd ref="280179768"/>
    <nd ref="280179769"/>
    <tag k="highway" v="residential"/>
  </way>
  <way id="25699006" version="1" timestamp="2008-07-22T08:01:22Z" uid="9581" user="Lobelt" changeset="567448">
    <nd ref="280179770"/>
    <nd ref="280179771"/>
    <nd ref="280179769"/>
    <tag k="highway" v="residential"/>
  </way>
  <way id="25699007" version="1" timestamp="2008-07-22T08:01:22Z" uid="9581" user="Lobelt" changeset="567448">
    <nd ref="280179772"/>
    <nd ref="280179773"/>
    <nd ref="280179774"/>
    <nd ref="280179775"/>
    <nd ref="280179776"/>
    <nd ref="280179777"/>
    <nd ref="280179778"/>
    <tag k="highway" v="primary_link"/>
    <tag k="oneway" v="true"/>
  </way>
  <way id="25699007" version="4" timestamp="2009-10-11T08:38:06Z" uid="9581" user="Lobelt" changeset="2811522">
    <nd ref="280179772"/>
    <nd ref="280179773"/>
    <nd ref="280179774"/>
    <nd ref="280179775"/>
    <nd ref="280179776"/>
    <nd ref="280179777"/>
    <nd ref="280179778"/>
    <tag k="highway" v="primary_link"/>
    <tag k="oneway" v="yes"/>
  </way>
  <way id="25699008" version="1" timestamp="2008-07-22T08:01:22Z" uid="9581" user="Lobelt" changeset="567448">
    <nd ref="280179779"/>
    <nd ref="280179780"/>
    <nd ref="280179781"/>
    <tag k="highway" v="residential"/>
  </way>
  <way id="25699008" version="2" timestamp="2008-10-13T09:02:33Z" uid="9581" user="Lobelt" changeset="297309">
    <nd ref="280179779"/>
    <nd ref="280179780"/>
    <nd ref="130194969"/>
    <tag k="highway" v="residential"/>
  </way>
  <way id="25699009" version="1" timestamp="2008-07-22T08:01:23Z" uid="9581" user="Lobelt" changeset="567448">
    <nd ref="280179782"/>
    <nd ref="31308276"/>
    <nd ref="31308279"/>
    <nd ref="280179747"/>
    <nd ref="31308282"/>
    <nd ref="31308285"/>
    <nd ref="35754139"/>
    <nd ref="31308288"/>
    <nd ref="272249861"/>
    <nd ref="159648344"/>
    <tag k="created_by" v="Potlatch 0.9c"/>
    <tag k="highway" v="primary"/>
    <tag k="name" v="Briesker Straße"/>
    <tag k="ref" v="B169"/>
  </way>
  <way id="25699009" version="3" timestamp="2008-10-07T12:05:40Z" uid="9581" user="Lobelt" changeset="137401">
    <nd ref="280179782"/>
    <nd ref="31308276"/>
    <nd ref="31308279"/>
    <nd ref="280179747"/>
    <nd ref="31308282"/>
    <nd ref="31308285"/>
    <nd ref="35754139"/>
    <nd ref="31308288"/>
    <nd ref="272249861"/>
    <nd ref="159648344"/>
    <tag k="created_by" v="Potlatch 0.9c"/>
    <tag k="highway" v="secondary"/>
    <tag k="name" v="Briesker Straße"/>
  </way>
  <way id="25699009" version="5" timestamp="2008-11-04T10:09:58Z" uid="9581" user="Lobelt" changeset="677944">
    <nd ref="280179782"/>
    <nd ref="31308276"/>
    <nd ref="31308279"/>
    <nd ref="280179747"/>
    <nd ref="31308282"/>
    <nd ref="31308285"/>
    <nd ref="35754139"/>
    <tag k="created_by" v="Potlatch 0.9c"/>
    <tag k="highway" v="tertiary"/>
    <tag k="name" v="Briesker Straße"/>
  </way>
  <way id="25699028" version="11" timestamp="2010-08-18T09:23:46Z" uid="4467" user="Rosscoe" changeset="5524805">
    <nd ref="280179955"/>
    <nd ref="280180355"/>
    <nd ref="800411285"/>
    <nd ref="800411264"/>
    <nd ref="280179957"/>
    <nd ref="280180178"/>
    <nd ref="280179958"/>
    <nd ref="708130709"/>
    <nd ref="280180120"/>
    <nd ref="280180063"/>
    <tag k="highway" v="residential"/>
    <tag k="name" v="Somkheti Street"/>
    <tag k="name:ka" v="სომხეთის ქუჩა"/>
  </way>
  <way id="25699040" version="7" timestamp="2010-08-18T09:21:15Z" uid="4467" user="Rosscoe" changeset="5524805">
    <nd ref="280178877"/>
    <nd ref="280180119"/>
    <nd ref="280180088"/>
    <nd ref="280180075"/>
    <nd ref="280180120"/>
    <nd ref="280180077"/>
    <nd ref="800403829"/>
    <nd ref="280180090"/>
    <nd ref="280180121"/>
    <nd ref="280180028"/>
    <nd ref="280180092"/>
    <nd ref="280180093"/>
    <nd ref="280180443"/>
    <nd ref="280180122"/>
    <nd ref="800403627"/>
    <nd ref="800403830"/>
    <nd ref="800403831"/>
    <nd ref="800403833"/>
    <nd ref="800403834"/>
    <tag k="highway" v="residential"/>
    <tag k="name" v="Begleti Street"/>
    <tag k="name:ka" v="ბეღლეთის ქუჩა"/>
  </way>
  <way id="25699048" version="4" timestamp="2010-08-18T09:22:16Z" uid="4467" user="Rosscoe" changeset="5524805">
    <nd ref="280180039"/>
    <nd ref="280180131"/>
    <nd ref="280180074"/>
    <nd ref="280180178"/>
    <nd ref="280180179"/>
    <nd ref="280180180"/>
    <tag k="highway" v="residential"/>
    <tag k="name" v="Kiketi Street"/>
    <tag k="name:ka" v="კიკეთის ქუჩა"/>
  </way>
  <way id="25699050" version="4" timestamp="2010-08-18T09:21:54Z" uid="4467" user="Rosscoe" changeset="5524805">
    <nd ref="280179032"/>
    <nd ref="280180133"/>
    <nd ref="280180031"/>
    <tag k="highway" v="residential"/>
    <tag k="name" v="Gantiadi Street"/>
    <tag k="name:ka" v="განთიადის ქუჩა"/>
  </way>
  <way id="25699052" version="6" timestamp="2010-08-18T09:23:38Z" uid="4467" user="Rosscoe" changeset="5524805">
    <nd ref="280180133"/>
    <nd ref="280179886"/>
    <nd ref="280180131"/>
    <nd ref="280180455"/>
    <tag k="highway" v="residential"/>
    <tag k="name" v="Satemo Street"/>
    <tag k="name:ka" v="სათემოს ქუჩა"/>
  </way>
  <way id="25699066" version="8" timestamp="2010-08-18T09:21:58Z" uid="4467" user="Rosscoe" changeset="5524805">
    <nd ref="280180029"/>
    <nd ref="280180030"/>
    <nd ref="280180031"/>
    <nd ref="280180205"/>
    <nd ref="280180074"/>
    <nd ref="280180034"/>
    <nd ref="708130739"/>
    <nd ref="280180075"/>
    <nd ref="280180062"/>
    <nd ref="280180076"/>
    <nd ref="280180216"/>
    <nd ref="280180442"/>
    <nd ref="725094894"/>
    <nd ref="725094895"/>
    <tag k="highway" v="residential"/>
    <tag k="name" v="Gelovani Street"/>
    <tag k="name:ka" v="გელოვანის ქუჩა"/>
  </way>
  <way id="25699070" version="7" timestamp="2010-08-18T09:23:22Z" uid="4467" user="Rosscoe" changeset="5524805">
    <nd ref="280180434"/>
    <nd ref="280180231"/>
    <nd ref="285195751"/>
    <nd ref="280180232"/>
    <nd ref="280180437"/>
    <nd ref="280180234"/>
    <nd ref="280180235"/>
    <nd ref="280180236"/>
    <nd ref="280180438"/>
    <nd ref="280180439"/>
    <nd ref="280180440"/>
    <nd ref="280180240"/>
    <nd ref="280180441"/>
    <nd ref="800403710"/>
    <nd ref="280180242"/>
    <tag k="highway" v="residential"/>
    <tag k="name" v="Pshavi Street"/>
    <tag k="name:ka" v="ფშავის ქუჩა"/>
  </way>
  <way id="25699078" version="2" timestamp="2010-07-09T03:02:51Z" uid="74617" user="JohnSmith" changeset="5170739">
    <nd ref="62675858"/>
    <nd ref="280172339"/>
    <nd ref="62678087"/>
    <nd ref="62673047"/>
    <tag k="highway" v="residential"/>
    <tag k="maxspeed" v="50"/>
    <tag k="maxspeed:source" v="default residential speed limit in Australia"/>
    <tag k="name" v="Hall Street"/>
    <tag k="source" v="yahoo"/>
    <tag k="source:name" v="survey"/>
  </way>
  <way id="25699078" version="3" timestamp="2010-10-13T10:47:01Z" uid="4467" user="Rosscoe" changeset="6028045">
    <nd ref="62675858"/>
    <nd ref="280172339"/>
    <nd ref="62678087"/>
    <nd ref="62673047"/>
    <tag k="highway" v="residential"/>
    <tag k="maxspeed" v="50"/>
    <tag k="name" v="Hall Street"/>
    <tag k="source" v="yahoo"/>
    <tag k="source:maxspeed" v="default residential speed limit in Australia"/>
    <tag k="source:name" v="survey"/>
  </way>
  <way id="25699078" version="4" timestamp="2010-10-31T05:56:03Z" uid="4467" user="Rosscoe" changeset="6235133">
    <nd ref="62675858"/>
    <nd ref="280172339"/>
    <nd ref="62678087"/>
    <nd ref="971646124"/>
    <nd ref="62673047"/>
    <tag k="highway" v="residential"/>
    <tag k="maxspeed" v="50"/>
    <tag k="name" v="Hall Street"/>
    <tag k="source" v="yahoo"/>
    <tag k="source:maxspeed" v="default residential speed limit in Australia"/>
    <tag k="source:name" v="survey"/>
  </way>
  <way id="25699116" version="8" timestamp="2010-08-18T09:22:39Z" uid="4467" user="Rosscoe" changeset="5524805">
    <nd ref="280180616"/>
    <nd ref="714237945"/>
    <nd ref="280180647"/>
    <nd ref="280180652"/>
    <nd ref="280180649"/>
    <nd ref="280180662"/>
    <nd ref="280180663"/>
    <nd ref="300451266"/>
    <nd ref="300451270"/>
    <nd ref="280180651"/>
    <tag k="highway" v="residential"/>
    <tag k="name" v="Martkopi Street"/>
    <tag k="name:ka" v="მარტყოფის ქუჩა"/>
  </way>
  <way id="25699117" version="4" timestamp="2010-08-18T09:23:10Z" uid="4467" user="Rosscoe" changeset="5524805">
    <nd ref="280180662"/>
    <nd ref="280179020"/>
    <tag k="highway" v="residential"/>
    <tag k="name" v="Observatory Street"/>
    <tag k="name:ka" v="ობსერვატორიის ქუჩა"/>
  </way>
  <way id="25699129" version="12" timestamp="2010-08-18T09:22:44Z" uid="4467" user="Rosscoe" changeset="5524805">
    <nd ref="280180709"/>
    <nd ref="708130969"/>
    <nd ref="280180781"/>
    <nd ref="280180737"/>
    <nd ref="280180782"/>
    <nd ref="280180739"/>
    <nd ref="714222757"/>
    <nd ref="280697687"/>
    <tag k="highway" v="residential"/>
    <tag k="name" v="Meskhishvili Street"/>
    <tag k="name:ka" v="მესხიშვილის ქუჩა"/>
  </way>
  <way id="25699217" version="1" timestamp="2008-07-22T08:24:27Z" uid="43863" user="Rundling" changeset="566019">
    <nd ref="280181932"/>
    <nd ref="280181933"/>
    <nd ref="280181934"/>
    <nd ref="280181935"/>
    <nd ref="280181936"/>
    <nd ref="280181937"/>
    <nd ref="280181932"/>
    <tag k="created_by" v="Potlatch 0.10"/>
  </way>
  <way id="25699217" version="2" timestamp="2008-07-22T08:24:53Z" uid="43863" user="Rundling" changeset="566019">
    <nd ref="280181932"/>
    <nd ref="280181958"/>
    <nd ref="280181934"/>
    <nd ref="280181959"/>
    <nd ref="280181936"/>
    <nd ref="280181960"/>
    <nd ref="280181932"/>
    <tag k="created_by" v="Potlatch 0.10"/>
  </way>
  <way id="25699217" version="3" timestamp="2008-07-22T08:25:48Z" uid="43863" user="Rundling" changeset="566019">
    <nd ref="280181932"/>
    <nd ref="280181958"/>
    <nd ref="280181934"/>
    <nd ref="280182016"/>
    <nd ref="280181936"/>
    <nd ref="280181960"/>
    <nd ref="280181932"/>
    <tag k="building" v="yes"/>
    <tag k="created_by" v="Potlatch 0.10"/>
    <tag k="name" v="TOOM"/>
    <tag k="shop" v="doityourself"/>
  </way>
  <way id="25699217" version="5" timestamp="2009-01-14T19:48:34Z" uid="43863" user="Rundling" changeset="788178">
    <nd ref="280181932"/>
    <nd ref="280181960"/>
    <nd ref="280181936"/>
    <nd ref="280182016"/>
    <nd ref="280181934"/>
    <nd ref="280181958"/>
    <nd ref="280181932"/>
    <tag k="building" v="yes"/>
    <tag k="name" v="TOOM"/>
    <tag k="shop" v="doityourself"/>
  </way>
  <way id="25699217" version="6" timestamp="2009-01-15T09:16:33Z" uid="43863" user="Rundling" changeset="789995">
    <nd ref="280181932"/>
    <nd ref="332188661"/>
    <nd ref="280181936"/>
    <nd ref="280182016"/>
    <nd ref="280181934"/>
    <nd ref="280181958"/>
    <nd ref="280181932"/>
    <tag k="building" v="yes"/>
    <tag k="name" v="TOOM"/>
    <tag k="shop" v="doityourself"/>
  </way>
  <way id="25699217" version="7" timestamp="2009-06-27T13:35:56Z" uid="43863" user="Rundling" changeset="1650098">
    <nd ref="280181932"/>
    <nd ref="332188661"/>
    <nd ref="429826553"/>
    <nd ref="429826557"/>
    <nd ref="429826562"/>
    <nd ref="429826566"/>
    <nd ref="280181934"/>
    <nd ref="280181958"/>
    <nd ref="280181932"/>
    <tag k="building" v="yes"/>
    <tag k="name" v="TOOM"/>
    <tag k="shop" v="doityourself"/>
  </way>
  <way id="25699217" version="8" timestamp="2009-06-27T17:35:11Z" uid="43863" user="Rundling" changeset="1651937">
    <nd ref="280181932"/>
    <nd ref="332188661"/>
    <nd ref="429826553"/>
    <nd ref="429826557"/>
    <nd ref="429899758"/>
    <nd ref="429899759"/>
    <nd ref="429899760"/>
    <nd ref="429826566"/>
    <nd ref="429899757"/>
    <nd ref="429899762"/>
    <nd ref="429899761"/>
    <nd ref="280181932"/>
    <tag k="building" v="yes"/>
    <tag k="name" v="TOOM"/>
    <tag k="shop" v="doityourself"/>
  </way>
  <way id="25699217" version="9" timestamp="2009-06-28T06:43:13Z" uid="43863" user="Rundling" changeset="1659168">
    <nd ref="280181932"/>
    <nd ref="332188661"/>
    <nd ref="429826553"/>
    <nd ref="429826557"/>
    <nd ref="429899758"/>
    <nd ref="429899759"/>
    <nd ref="429899760"/>
    <nd ref="429826566"/>
    <nd ref="429899757"/>
    <nd ref="429899762"/>
    <nd ref="429899761"/>
    <nd ref="280181932"/>
    <tag k="addr:city" v="Uelzen"/>
    <tag k="addr:country" v="DE"/>
    <tag k="addr:housename" v="TOOM Baumarkt"/>
    <tag k="addr:housenumber" v="55"/>
    <tag k="addr:postcode" v="29525"/>
    <tag k="addr:street" v="Hambrocker Straße"/>
    <tag k="building" v="yes"/>
    <tag k="name" v="TOOM"/>
    <tag k="shop" v="doityourself"/>
  </way>
  <way id="25699217" version="10" timestamp="2009-07-09T14:58:05Z" uid="43863" user="Rundling" changeset="1781628">
    <nd ref="429899761"/>
    <nd ref="280181932"/>
    <nd ref="332188661"/>
    <nd ref="429826553"/>
    <nd ref="429826557"/>
    <nd ref="438143181"/>
    <nd ref="429899761"/>
    <tag k="addr:city" v="Uelzen"/>
    <tag k="addr:country" v="DE"/>
    <tag k="addr:housename" v="TOOM Baumarkt"/>
    <tag k="addr:housenumber" v="55"/>
    <tag k="addr:postcode" v="29525"/>
    <tag k="addr:street" v="Hambrocker Straße"/>
    <tag k="building" v="yes"/>
    <tag k="name" v="TOOM"/>
    <tag k="shop" v="doityourself"/>
  </way>
  <way id="25699217" version="11" timestamp="2009-07-09T14:59:36Z" uid="43863" user="Rundling" changeset="1781642">
    <nd ref="429899761"/>
    <nd ref="280181932"/>
    <nd ref="332188661"/>
    <nd ref="429826553"/>
    <nd ref="429826557"/>
    <nd ref="438143181"/>
    <nd ref="429899761"/>
    <tag k="addr:city" v="Uelzen"/>
    <tag k="addr:country" v="DE"/>
    <tag k="addr:housenumber" v="55"/>
    <tag k="addr:postcode" v="29525"/>
    <tag k="addr:street" v="Hambrocker Straße"/>
    <tag k="building" v="yes"/>
  </way>
  <way id="25699217" version="12" timestamp="2011-03-24T20:11:55Z" uid="43863" user="Rundling" changeset="7659458">
    <nd ref="429899761"/>
    <nd ref="280181932"/>
    <nd ref="1216486449"/>
    <nd ref="429826553"/>
    <nd ref="429826557"/>
    <nd ref="438143181"/>
    <nd ref="429899761"/>
    <tag k="addr:city" v="Uelzen"/>
    <tag k="addr:country" v="DE"/>
    <tag k="addr:housenumber" v="55"/>
    <tag k="addr:postcode" v="29525"/>
    <tag k="addr:street" v="Hambrocker Straße"/>
    <tag k="building" v="yes"/>
  </way>
  <way id="25699230" version="10" timestamp="2010-04-07T12:43:57Z" uid="20587" user="balrog-kun" changeset="4353646">
    <nd ref="223061556"/>
    <nd ref="222830648"/>
    <nd ref="223061553"/>
    <nd ref="222848997"/>
    <nd ref="223061549"/>
    <nd ref="222849021"/>
    <nd ref="223061546"/>
    <nd ref="222849033"/>
    <nd ref="222864884"/>
    <nd ref="222864940"/>
    <nd ref="223042022"/>
    <nd ref="223061541"/>
    <nd ref="222864950"/>
    <nd ref="223061535"/>
    <nd ref="223061531"/>
    <nd ref="223061528"/>
    <nd ref="222965575"/>
    <nd ref="653260369"/>
    <nd ref="223061523"/>
    <nd ref="223061519"/>
    <nd ref="223061514"/>
    <nd ref="223061510"/>
    <nd ref="222898486"/>
    <nd ref="223061506"/>
    <nd ref="223061500"/>
    <nd ref="222852081"/>
    <nd ref="223061496"/>
    <nd ref="222840137"/>
    <nd ref="222974270"/>
    <nd ref="223061491"/>
    <nd ref="223061486"/>
    <nd ref="222911895"/>
    <nd ref="223061482"/>
    <nd ref="223061479"/>
    <nd ref="223061476"/>
    <nd ref="222898476"/>
    <nd ref="222859573"/>
    <nd ref="222880486"/>
    <nd ref="222866703"/>
    <nd ref="223061472"/>
    <nd ref="348011045"/>
    <nd ref="223061469"/>
    <nd ref="223061466"/>
    <nd ref="222850003"/>
    <nd ref="222842703"/>
    <nd ref="223061462"/>
    <nd ref="222844225"/>
    <nd ref="222932657"/>
    <tag k="highway" v="primary"/>
    <tag k="name" v="Military Hwy; W Boca Chica Boulevard"/>
    <tag k="ref" v="US 281"/>
    <tag k="tiger:cfcc" v="A25"/>
    <tag k="tiger:county" v="Cameron, TX"/>
    <tag k="tiger:name_base" v="Military"/>
    <tag k="tiger:name_base_1" v="United States Highway 281"/>
    <tag k="tiger:name_base_2" v="Boca Chica"/>
    <tag k="tiger:name_direction_prefix_2" v="W"/>
    <tag k="tiger:name_type" v="Hwy"/>
    <tag k="tiger:name_type_2" v="Blvd"/>
    <tag k="tiger:separated" v="yes"/>
    <tag k="tiger:source" v="tiger_import_dch_v0.6_20070829"/>
    <tag k="tiger:tlid" v="90022658:90022659:90033381:90033384:90033387:90033388:90023300:90023301:90023302:90023303:90023304:90023288:90023289:90023290:90023295:90039435:90023296:90023297:90023298:90023299:90031952"/>
  </way>
  <way id="25699232" version="2" timestamp="2010-04-07T12:43:58Z" uid="20587" user="balrog-kun" changeset="4353646">
    <nd ref="222945613"/>
    <nd ref="222945608"/>
    <tag k="highway" v="residential"/>
    <tag k="name" v="Central Boulevard"/>
    <tag k="name_1" v="US Highway 77 (Bus)"/>
    <tag k="ref" v="Bus. US 77"/>
    <tag k="tiger:cfcc" v="A41"/>
    <tag k="tiger:county" v="Cameron, TX"/>
    <tag k="tiger:name_base" v="Central"/>
    <tag k="tiger:name_type" v="Blvd"/>
    <tag k="tiger:reviewed" v="no"/>
    <tag k="tiger:separated" v="no"/>
    <tag k="tiger:source" v="tiger_import_dch_v0.6_20070829"/>
    <tag k="tiger:tlid" v="90013933:90013934:89985247:89963156:90004904:90026242:90026244"/>
  </way>
  <way id="25699233" version="8" timestamp="2010-04-07T12:43:58Z" uid="20587" user="balrog-kun" changeset="4353646">
    <nd ref="222839191"/>
    <nd ref="222831465"/>
    <nd ref="223018457"/>
    <nd ref="222945188"/>
    <nd ref="222945613"/>
    <nd ref="222893019"/>
    <tag k="created_by" v="Potlatch 0.10f"/>
    <tag k="highway" v="primary"/>
    <tag k="name" v="Ruben M Torres Sr Boulevard"/>
    <tag k="name_1" v="Farm to Market Road 802"/>
    <tag k="ref" v="FM 802"/>
    <tag k="tiger:cfcc" v="A41"/>
    <tag k="tiger:county" v="Cameron, TX"/>
    <tag k="tiger:name_base" v="Ruben M Torres Sr"/>
    <tag k="tiger:name_type" v="Blvd"/>
    <tag k="tiger:separated" v="no"/>
    <tag k="tiger:source" v="tiger_import_dch_v0.6_20070829"/>
    <tag k="tiger:tlid" v="90028073:90024122:90031965"/>
  </way>
  <way id="25699234" version="3" timestamp="2010-04-07T12:43:58Z" uid="20587" user="balrog-kun" changeset="4353646">
    <nd ref="222945188"/>
    <nd ref="222945186"/>
    <nd ref="222945183"/>
    <nd ref="222945180"/>
    <nd ref="222860566"/>
    <tag k="created_by" v="Potlatch 0.10d"/>
    <tag k="highway" v="residential"/>
    <tag k="name" v="Central Boulevard"/>
    <tag k="tiger:cfcc" v="A45"/>
    <tag k="tiger:county" v="Cameron, TX"/>
    <tag k="tiger:name_base" v="Central"/>
    <tag k="tiger:name_type" v="Blvd"/>
    <tag k="tiger:reviewed" v="no"/>
    <tag k="tiger:separated" v="yes"/>
    <tag k="tiger:source" v="tiger_import_dch_v0.6_20070829"/>
    <tag k="tiger:tlid" v="90022644:90022645:90022646:90022647:90031974:90024065:90024066:90024067:90024068:90023072:90023073:90031980:90024069:90023280:90023281:90024113:90033497:90024123:90031966:90031967:90023248"/>
  </way>
  <way id="25699235" version="2" timestamp="2010-04-07T12:43:59Z" uid="20587" user="balrog-kun" changeset="4353646">
    <nd ref="222945192"/>
    <nd ref="222945188"/>
    <tag k="highway" v="residential"/>
    <tag k="name" v="Central Boulevard"/>
    <tag k="tiger:cfcc" v="A45"/>
    <tag k="tiger:county" v="Cameron, TX"/>
    <tag k="tiger:name_base" v="Central"/>
    <tag k="tiger:name_type" v="Blvd"/>
    <tag k="tiger:reviewed" v="no"/>
    <tag k="tiger:separated" v="yes"/>
    <tag k="tiger:source" v="tiger_import_dch_v0.6_20070829"/>
    <tag k="tiger:tlid" v="90022644:90022645:90022646:90022647:90031974:90024065:90024066:90024067:90024068:90023072:90023073:90031980:90024069:90023280:90023281:90024113:90033497:90024123:90031966:90031967:90023248"/>
  </way>
  <way id="25699238" version="7" timestamp="2010-04-07T12:43:59Z" uid="20587" user="balrog-kun" changeset="4353646">
    <nd ref="222945399"/>
    <nd ref="222953765"/>
    <nd ref="222941925"/>
    <nd ref="222967284"/>
    <nd ref="222973003"/>
    <nd ref="222976185"/>
    <nd ref="222979694"/>
    <nd ref="222983270"/>
    <nd ref="222986556"/>
    <nd ref="222981804"/>
    <nd ref="222984882"/>
    <nd ref="223007511"/>
    <tag k="created_by" v="Potlatch 0.10f"/>
    <tag k="highway" v="residential"/>
    <tag k="name" v="West Elizabeth Street"/>
    <tag k="tiger:cfcc" v="A41"/>
    <tag k="tiger:county" v="Cameron, TX"/>
    <tag k="tiger:name_base" v="Elizabeth"/>
    <tag k="tiger:name_direction_prefix" v="W"/>
    <tag k="tiger:name_type" v="St"/>
    <tag k="tiger:separated" v="no"/>
    <tag k="tiger:source" v="tiger_import_dch_v0.6_20070829"/>
    <tag k="tiger:tlid" v="89963885:89963887:89999037"/>
    <tag k="tiger:zip_left" v="78520"/>
  </way>
  <way id="25699255" version="3" timestamp="2010-07-09T02:54:26Z" uid="74617" user="JohnSmith" changeset="5170739">
    <nd ref="61669937"/>
    <nd ref="61669611"/>
    <nd ref="61669612"/>
    <nd ref="61671309"/>
    <nd ref="61669613"/>
    <nd ref="61669614"/>
    <tag k="highway" v="residential"/>
    <tag k="maxspeed" v="50"/>
    <tag k="maxspeed:source" v="default residential speed limit in Australia"/>
    <tag k="name" v="Norwood Crescent"/>
    <tag k="source" v="yahoo"/>
    <tag k="source:name" v="survey"/>
  </way>
  <way id="25699288" version="2" timestamp="2009-04-16T19:16:36Z" uid="43967" user="railsnail" changeset="588417">
    <nd ref="280182421"/>
    <nd ref="280182420"/>
    <nd ref="280182419"/>
    <nd ref="280182418"/>
    <nd ref="378293306"/>
    <nd ref="280182417"/>
    <nd ref="280182416"/>
    <tag k="railway" v="rail"/>
  </way>
  <way id="25699380" version="2" timestamp="2010-07-09T02:53:12Z" uid="74617" user="JohnSmith" changeset="5170739">
    <nd ref="62654366"/>
    <nd ref="62654367"/>
    <nd ref="62657243"/>
    <tag k="highway" v="residential"/>
    <tag k="maxspeed" v="50"/>
    <tag k="maxspeed:source" v="default residential speed limit in Australia"/>
    <tag k="name" v="Albert Street"/>
    <tag k="source" v="yahoo"/>
    <tag k="source:name" v="survey"/>
  </way>
  <way id="25699380" version="3" timestamp="2010-10-13T10:47:05Z" uid="4467" user="Rosscoe" changeset="6028045">
    <nd ref="62654366"/>
    <nd ref="62654367"/>
    <nd ref="62657243"/>
    <tag k="highway" v="residential"/>
    <tag k="maxspeed" v="50"/>
    <tag k="name" v="Albert Street"/>
    <tag k="source" v="yahoo"/>
    <tag k="source:maxspeed" v="default residential speed limit in Australia"/>
    <tag k="source:name" v="survey"/>
  </way>
  <way id="25699389" version="6" timestamp="2010-07-09T03:02:26Z" uid="74617" user="JohnSmith" changeset="5170739">
    <nd ref="62655892"/>
    <nd ref="280487360"/>
    <nd ref="62662194"/>
    <tag k="highway" v="residential"/>
    <tag k="maxspeed" v="50"/>
    <tag k="maxspeed:source" v="default residential speed limit in Australia"/>
    <tag k="name" v="Smith Street"/>
    <tag k="oneway" v="yes"/>
    <tag k="source" v="yahoo"/>
    <tag k="source:name" v="Collins 1936"/>
  </way>
  <way id="25699389" version="7" timestamp="2010-10-31T05:56:12Z" uid="4467" user="Rosscoe" changeset="6235133">
    <nd ref="62655892"/>
    <nd ref="62662194"/>
    <tag k="highway" v="residential"/>
    <tag k="maxspeed" v="50"/>
    <tag k="maxspeed:source" v="default residential speed limit in Australia"/>
    <tag k="name" v="Smith Street"/>
    <tag k="oneway" v="yes"/>
    <tag k="source" v="yahoo"/>
    <tag k="source:name" v="Collins 1936"/>
  </way>
  <way id="25699395" version="2" timestamp="2010-04-07T12:44:00Z" uid="20587" user="balrog-kun" changeset="4353646">
    <nd ref="280183128"/>
    <nd ref="280183129"/>
    <tag k="bridge" v="yes"/>
    <tag k="created_by" v="Potlatch 0.8c"/>
    <tag k="highway" v="primary"/>
    <tag k="layer" v="1"/>
    <tag k="name" v="Inwood Road"/>
    <tag k="tiger:cfcc" v="A41"/>
    <tag k="tiger:county" v="Dallas, TX"/>
    <tag k="tiger:name_base" v="Inwood"/>
    <tag k="tiger:name_type" v="Rd"/>
    <tag k="tiger:separated" v="no"/>
    <tag k="tiger:source" v="tiger_import_dch_v0.6_20070829"/>
    <tag k="tiger:tlid" v="103243920:103244129:103243922:103270362:103270358:103240756:103270359:103240762:103240776:103238878:103238881:103238886:103237361:103237364:103237389:103237393:103237396:103237397:103269449:103269448:103235119:103235122:103235102:103235104:103235106:10323"/>
  </way>
  <way id="25699396" version="2" timestamp="2010-04-07T12:44:00Z" uid="20587" user="balrog-kun" changeset="4353646">
    <nd ref="280183129"/>
    <nd ref="81762150"/>
    <tag k="created_by" v="Potlatch 0.8c"/>
    <tag k="highway" v="primary"/>
    <tag k="name" v="Inwood Road"/>
    <tag k="tiger:cfcc" v="A41"/>
    <tag k="tiger:county" v="Dallas, TX"/>
    <tag k="tiger:name_base" v="Inwood"/>
    <tag k="tiger:name_type" v="Rd"/>
    <tag k="tiger:reviewed" v="no"/>
    <tag k="tiger:separated" v="no"/>
    <tag k="tiger:source" v="tiger_import_dch_v0.6_20070829"/>
    <tag k="tiger:tlid" v="103243920:103244129:103243922:103270362:103270358:103240756:103270359:103240762:103240776:103238878:103238881:103238886:103237361:103237364:103237389:103237393:103237396:103237397:103269449:103269448:103235119:103235122:103235102:103235104:103235106:10323"/>
  </way>
  <way id="25699398" version="2" timestamp="2010-04-07T12:44:00Z" uid="20587" user="balrog-kun" changeset="4353646">
    <nd ref="280183130"/>
    <nd ref="81724966"/>
    <nd ref="81724968"/>
    <tag k="bridge" v="yes"/>
    <tag k="highway" v="residential"/>
    <tag k="layer" v="1"/>
    <tag k="name" v="North Hampton Road"/>
    <tag k="tiger:cfcc" v="A41"/>
    <tag k="tiger:county" v="Dallas, TX"/>
    <tag k="tiger:name_base" v="Hampton"/>
    <tag k="tiger:name_direction_prefix" v="N"/>
    <tag k="tiger:name_type" v="Rd"/>
    <tag k="tiger:separated" v="no"/>
    <tag k="tiger:source" v="tiger_import_dch_v0.6_20070829"/>
    <tag k="tiger:tlid" v="102904299:102904301:102904465:102904467:102904468:102904476:102904478:102904480:102904506:102904508:102904512:102904620:102904632:102904634:103267149:102904481:103226750:103226753:103266722:103226734:103266721:103266715:103266717:103226710:103226716:10322"/>
    <tag k="tiger:zip_left" v="75212"/>
    <tag k="tiger:zip_right" v="75208"/>
  </way>
  <way id="25699399" version="2" timestamp="2010-04-07T12:44:00Z" uid="20587" user="balrog-kun" changeset="4353646">
    <nd ref="280183131"/>
    <nd ref="280183130"/>
    <tag k="highway" v="residential"/>
    <tag k="name" v="North Hampton Road"/>
    <tag k="tiger:cfcc" v="A41"/>
    <tag k="tiger:county" v="Dallas, TX"/>
    <tag k="tiger:name_base" v="Hampton"/>
    <tag k="tiger:name_direction_prefix" v="N"/>
    <tag k="tiger:name_type" v="Rd"/>
    <tag k="tiger:reviewed" v="no"/>
    <tag k="tiger:separated" v="no"/>
    <tag k="tiger:source" v="tiger_import_dch_v0.6_20070829"/>
    <tag k="tiger:tlid" v="102904299:102904301:102904465:102904467:102904468:102904476:102904478:102904480:102904506:102904508:102904512:102904620:102904632:102904634:103267149:102904481:103226750:103226753:103266722:103226734:103266721:103266715:103266717:103226710:103226716:10322"/>
    <tag k="tiger:zip_left" v="75212"/>
    <tag k="tiger:zip_right" v="75208"/>
  </way>
  <way id="25699400" version="2" timestamp="2010-04-07T12:44:01Z" uid="20587" user="balrog-kun" changeset="4353646">
    <nd ref="81724960"/>
    <nd ref="280183131"/>
    <tag k="bridge" v="yes"/>
    <tag k="highway" v="residential"/>
    <tag k="layer" v="1"/>
    <tag k="name" v="North Hampton Road"/>
    <tag k="tiger:cfcc" v="A41"/>
    <tag k="tiger:county" v="Dallas, TX"/>
    <tag k="tiger:name_base" v="Hampton"/>
    <tag k="tiger:name_direction_prefix" v="N"/>
    <tag k="tiger:name_type" v="Rd"/>
    <tag k="tiger:separated" v="no"/>
    <tag k="tiger:source" v="tiger_import_dch_v0.6_20070829"/>
    <tag k="tiger:tlid" v="102904299:102904301:102904465:102904467:102904468:102904476:102904478:102904480:102904506:102904508:102904512:102904620:102904632:102904634:103267149:102904481:103226750:103226753:103266722:103226734:103266721:103266715:103266717:103226710:103226716:10322"/>
    <tag k="tiger:zip_left" v="75212"/>
    <tag k="tiger:zip_right" v="75208"/>
  </way>
  <way id="25699554" version="3" timestamp="2008-08-25T11:36:46Z" uid="20587" user="balrog-kun" changeset="398132">
    <nd ref="52334287"/>
    <nd ref="280186060"/>
    <nd ref="280186061"/>
    <nd ref="280186062"/>
    <nd ref="280184597"/>
    <nd ref="280186063"/>
    <nd ref="280184601"/>
    <nd ref="280184604"/>
    <nd ref="290929819"/>
    <tag k="created_by" v="Potlatch 0.10"/>
    <tag k="highway" v="motorway_link"/>
    <tag k="oneway" v="yes"/>
  </way>
  <way id="25699604" version="4" timestamp="2009-01-03T16:43:55Z" uid="6269" user="Mueck" changeset="722225">
    <nd ref="260018057"/>
    <nd ref="280185852"/>
    <nd ref="280185853"/>
    <nd ref="280185854"/>
    <nd ref="280185855"/>
    <nd ref="318389310"/>
    <nd ref="318389300"/>
    <nd ref="280185856"/>
    <nd ref="280185857"/>
    <nd ref="318389298"/>
    <nd ref="280185858"/>
    <nd ref="280185859"/>
    <nd ref="318389296"/>
    <nd ref="280185860"/>
    <nd ref="318389294"/>
    <nd ref="280185861"/>
    <nd ref="318389292"/>
    <nd ref="280185862"/>
    <nd ref="318389289"/>
    <nd ref="280185863"/>
    <nd ref="280185864"/>
    <nd ref="280185865"/>
    <nd ref="280185866"/>
    <nd ref="280196716"/>
    <tag k="created_by" v="Potlatch 0.10f"/>
    <tag k="highway" v="residential"/>
  </way>
  <way id="25699618" version="5" timestamp="2008-11-26T01:56:40Z" uid="6975" user="ulfl" changeset="794829">
    <nd ref="272945769"/>
    <nd ref="272945770"/>
    <nd ref="272945771"/>
    <nd ref="272945772"/>
    <nd ref="272945773"/>
    <nd ref="272945775"/>
    <nd ref="272945776"/>
    <nd ref="272945778"/>
    <nd ref="272945780"/>
    <nd ref="272945781"/>
    <nd ref="272945783"/>
    <nd ref="272945785"/>
    <nd ref="272945786"/>
    <nd ref="272945788"/>
    <nd ref="272945790"/>
    <nd ref="272945792"/>
    <nd ref="272945793"/>
    <nd ref="272945795"/>
    <nd ref="272945796"/>
    <nd ref="272945798"/>
    <nd ref="272945800"/>
    <tag k="highway" v="secondary"/>
    <tag k="nat_ref" v="185"/>
    <tag k="rcrc_ref" v="521b"/>
  </way>
  <way id="25699724" version="5" timestamp="2008-11-26T02:01:17Z" uid="6975" user="ulfl" changeset="794829">
    <nd ref="272945800"/>
    <nd ref="272945801"/>
    <nd ref="272945802"/>
    <nd ref="272945803"/>
    <nd ref="272945804"/>
    <nd ref="272945805"/>
    <nd ref="272945806"/>
    <nd ref="272945807"/>
    <nd ref="272945809"/>
    <nd ref="272945811"/>
    <nd ref="272945813"/>
    <nd ref="272945815"/>
    <nd ref="272945816"/>
    <nd ref="272945818"/>
    <nd ref="272945819"/>
    <nd ref="272945821"/>
    <nd ref="272945824"/>
    <nd ref="272945826"/>
    <nd ref="272945828"/>
    <nd ref="272945830"/>
    <nd ref="272945831"/>
    <nd ref="272945833"/>
    <nd ref="272945835"/>
    <nd ref="272945836"/>
    <nd ref="272945838"/>
    <nd ref="272945839"/>
    <nd ref="272945841"/>
    <nd ref="272945843"/>
    <nd ref="272945844"/>
    <nd ref="272945846"/>
    <nd ref="272945848"/>
    <nd ref="272945851"/>
    <nd ref="272945852"/>
    <nd ref="272945855"/>
    <nd ref="272945858"/>
    <nd ref="272945859"/>
    <nd ref="272945862"/>
    <nd ref="272945865"/>
    <nd ref="272945866"/>
    <nd ref="272945868"/>
    <nd ref="272945869"/>
    <nd ref="272945871"/>
    <nd ref="272945873"/>
    <nd ref="272945874"/>
    <nd ref="272945876"/>
    <nd ref="272945878"/>
    <nd ref="272945881"/>
    <nd ref="272945883"/>
    <nd ref="290327254"/>
    <nd ref="272945885"/>
    <nd ref="272945886"/>
    <nd ref="272945888"/>
    <nd ref="272945890"/>
    <nd ref="272945892"/>
    <nd ref="272945895"/>
    <nd ref="272945897"/>
    <nd ref="248530067"/>
    <tag k="highway" v="secondary"/>
    <tag k="nat_ref" v="185"/>
  </way>
  <way id="25699865" version="3" timestamp="2010-06-29T20:49:54Z" uid="74617" user="JohnSmith" changeset="5109183">
    <nd ref="280187637"/>
    <nd ref="280187638"/>
    <nd ref="280187639"/>
    <nd ref="280187640"/>
    <nd ref="280187641"/>
    <nd ref="280187642"/>
    <nd ref="280187643"/>
    <nd ref="280187644"/>
    <nd ref="280187645"/>
    <nd ref="280187646"/>
    <nd ref="280187647"/>
    <nd ref="280187637"/>
    <tag k="area" v="yes"/>
    <tag k="fixme" v="sport=rugby is ambiguous, see http://wiki.osm.org/wiki/Tag:sport%3Drugby for more details"/>
    <tag k="leisure" v="pitch"/>
    <tag k="sport" v="rugby"/>
  </way>
  <way id="25699926" version="3" timestamp="2010-11-06T18:03:13Z" uid="16922" user="amai" changeset="6304648">
    <nd ref="280188153"/>
    <nd ref="280188290"/>
    <nd ref="280188155"/>
    <nd ref="280188289"/>
    <nd ref="280188153"/>
    <tag k="building" v="yes"/>
    <tag k="name" v="Tesco Lotus"/>
    <tag k="shop" v="supermarket"/>
  </way>
</osm>
