<?xml version='1.0' encoding='UTF-8'?>
<osm version="0.6" generator="libosmium/2.20.0">
  <way id="25730014" version="6" timestamp="2010-03-14T20:37:31Z" uid="163746" user="anti_bot-nonsense" changeset="4128666">
    <nd ref="280566075"/>
    <nd ref="280566032"/>
    <nd ref="291068883"/>
    <nd ref="302068411"/>
    <nd ref="279656057"/>
    <tag k="highway" v="residential"/>
    <tag k="name" v="Perzycka"/>
  </way>
  <way id="25730138" version="5" timestamp="2010-03-27T23:52:27Z" uid="20587" user="balrog-kun" changeset="4250871">
    <nd ref="373579114"/>
    <nd ref="373579116"/>
    <tag k="bridge" v="yes"/>
    <tag k="highway" v="tertiary"/>
    <tag k="name" v="Columbia Street"/>
    <tag k="tiger:cfcc" v="A41"/>
    <tag k="tiger:county" v="Los Angeles, CA"/>
  </way>
  <way id="25730169" version="5" timestamp="2009-09-26T18:29:21Z" uid="33382" user="de_muur" changeset="2644744">
    <nd ref="25600660"/>
    <nd ref="25600661"/>
    <nd ref="25600662"/>
    <nd ref="25600663"/>
    <nd ref="25600664"/>
    <nd ref="25600665"/>
    <nd ref="25600666"/>
    <nd ref="25600767"/>
    <tag k="highway" v="unclassified"/>
    <tag k="name" v="Kieler Straße"/>
  </way>
  <way id="25730229" version="6" timestamp="2010-03-27T23:52:27Z" uid="20587" user="balrog-kun" changeset="4250871">
    <nd ref="373579116"/>
    <nd ref="373579117"/>
    <nd ref="122897891"/>
    <nd ref="122739280"/>
    <nd ref="122897894"/>
    <nd ref="122897896"/>
    <nd ref="19945550"/>
    <nd ref="122897900"/>
    <nd ref="122897903"/>
    <nd ref="122897905"/>
    <nd ref="19945485"/>
    <tag k="highway" v="tertiary"/>
    <tag k="name" v="Columbia Street"/>
    <tag k="tiger:cfcc" v="A41"/>
    <tag k="tiger:county" v="Los Angeles, CA"/>
    <tag k="tiger:name_base" v="Columbia"/>
    <tag k="tiger:name_type" v="St"/>
    <tag k="tiger:separated" v="no"/>
    <tag k="tiger:source" v="tiger_import_dch_v0.6_20070809"/>
    <tag k="tiger:tlid" v="141629907:142245503:141630100:141630128:141630130:141630133:141630134:141630265:141630266:141630268"/>
    <tag k="tiger:zip_left" v="91030"/>
    <tag k="tiger:zip_left_1" v="91030"/>
    <tag k="tiger:zip_left_2" v="91105"/>
    <tag k="tiger:zip_right" v="91105"/>
  </way>
  <way id="25730332" version="3" timestamp="2008-09-22T12:46:16Z" uid="30632" user="antblant" changeset="680284">
    <nd ref="280570866"/>
    <nd ref="254705778"/>
    <tag k="created_by" v="Potlatch 0.10b"/>
    <tag k="highway" v="motorway"/>
    <tag k="oneway" v="yes"/>
    <tag k="ref" v="A 6"/>
    <tag k="source" v="UMP-PL, ./UMP-Szczecin/src/inne.ulice.txt"/>
  </way>
  <way id="25730332" version="4" timestamp="2008-09-22T13:00:25Z" uid="30632" user="antblant" changeset="680284">
    <nd ref="280570866"/>
    <nd ref="254705778"/>
    <tag k="created_by" v="Potlatch 0.10b"/>
    <tag k="highway" v="motorway"/>
    <tag k="lanes" v="2"/>
    <tag k="oneway" v="yes"/>
    <tag k="ref" v="A 6"/>
    <tag k="source" v="UMP-PL, ./UMP-Szczecin/src/inne.ulice.txt"/>
  </way>
  <way id="25730333" version="3" timestamp="2008-09-22T12:46:56Z" uid="30632" user="antblant" changeset="680284">
    <nd ref="280570864"/>
    <nd ref="254705894"/>
    <tag k="created_by" v="Potlatch 0.10b"/>
    <tag k="highway" v="motorway"/>
    <tag k="lanes" v="2"/>
    <tag k="oneway" v="yes"/>
    <tag k="ref" v="A 11"/>
  </way>
  <way id="25730354" version="6" timestamp="2010-03-27T23:52:28Z" uid="20587" user="balrog-kun" changeset="4250871">
    <nd ref="36754713"/>
    <nd ref="31496758"/>
    <nd ref="582217194"/>
    <nd ref="582217197"/>
    <nd ref="582217164"/>
    <tag k="highway" v="residential"/>
    <tag k="name" v="Grevelia Street"/>
    <tag k="oneway" v="yes"/>
  </way>
  <way id="25730658" version="8" timestamp="2010-03-14T20:39:27Z" uid="163746" user="anti_bot-nonsense" changeset="4128666">
    <nd ref="280574055"/>
    <nd ref="279728215"/>
    <tag k="highway" v="residential"/>
    <tag k="maxspeed" v="30"/>
    <tag k="name" v="Kamiennogórska"/>
  </way>
  <way id="25730659" version="2" timestamp="2008-10-08T16:31:39Z" uid="9581" user="Lobelt" changeset="165948">
    <nd ref="262476560"/>
    <nd ref="262476561"/>
    <nd ref="280572931"/>
    <nd ref="280566389"/>
    <nd ref="303112736"/>
    <nd ref="280566091"/>
    <nd ref="280566092"/>
    <nd ref="303112738"/>
    <nd ref="303112737"/>
    <nd ref="280565995"/>
    <nd ref="303112739"/>
    <nd ref="280566093"/>
    <tag k="created_by" v="Potlatch 0.10"/>
    <tag k="highway" v="secondary"/>
    <tag k="ref" v="4603"/>
  </way>
  <way id="25730736" version="2" timestamp="2008-07-24T00:08:42Z" uid="26515" user="Simon Ward" changeset="584864"/>
  <way id="25730737" version="2" timestamp="2008-07-23T22:25:55Z" uid="26515" user="Simon Ward" changeset="584864">
    <nd ref="280575641"/>
    <nd ref="280575647"/>
    <nd ref="280575644"/>
    <nd ref="280575643"/>
    <tag k="highway" v="unclassified"/>
    <tag k="name" v="Great Western Street"/>
  </way>
  <way id="25730737" version="3" timestamp="2008-07-23T22:48:28Z" uid="26515" user="Simon Ward" changeset="584864">
    <nd ref="280575641"/>
    <nd ref="280593338"/>
    <nd ref="280575647"/>
    <nd ref="280575644"/>
    <nd ref="280575643"/>
    <tag k="highway" v="unclassified"/>
    <tag k="name" v="Great Western Street"/>
  </way>
  <way id="25730737" version="4" timestamp="2008-07-23T23:59:54Z" uid="26515" user="Simon Ward" changeset="584864">
    <nd ref="280575641"/>
    <nd ref="280593338"/>
    <nd ref="280575647"/>
    <nd ref="280575644"/>
    <nd ref="280575643"/>
    <tag k="highway" v="residential"/>
    <tag k="name" v="Great Western Street"/>
  </way>
  <way id="25730738" version="2" timestamp="2008-07-23T22:25:55Z" uid="26515" user="Simon Ward" changeset="584864">
    <nd ref="280575644"/>
    <nd ref="280588814"/>
    <nd ref="280588815"/>
    <tag k="highway" v="unclassified"/>
    <tag k="name" v="The Maltings"/>
    <tag k="oneway" v="yes"/>
  </way>
  <way id="25730738" version="3" timestamp="2008-07-23T23:15:02Z" uid="26515" user="Simon Ward" changeset="584864">
    <nd ref="280575644"/>
    <nd ref="280600075"/>
    <nd ref="280588814"/>
    <nd ref="280588815"/>
    <tag k="highway" v="unclassified"/>
    <tag k="name" v="The Maltings"/>
    <tag k="oneway" v="yes"/>
  </way>
  <way id="25730739" version="2" timestamp="2008-07-23T22:47:07Z" uid="26515" user="Simon Ward" changeset="584864">
    <nd ref="280575646"/>
    <nd ref="280593114"/>
    <tag k="highway" v="footway"/>
  </way>
  <way id="25730740" version="2" timestamp="2008-07-23T22:25:55Z" uid="26515" user="Simon Ward" changeset="584864">
    <nd ref="280575641"/>
    <nd ref="280575640"/>
    <tag k="highway" v="unclassified"/>
    <tag k="name" v="Little’s Lane"/>
  </way>
  <way id="25730740" version="3" timestamp="2008-07-25T06:25:31Z" uid="26515" user="Simon Ward" changeset="592361">
    <nd ref="280575641"/>
    <nd ref="280575640"/>
    <tag k="highway" v="unclassified"/>
    <tag k="name" v="Little’s Lane"/>
  </way>
  <way id="25730810" version="5" timestamp="2010-03-31T21:00:37Z" uid="163746" user="anti_bot-nonsense" changeset="4289355">
    <nd ref="267428235"/>
    <nd ref="280577183"/>
    <nd ref="280577184"/>
    <tag k="highway" v="tertiary"/>
    <tag k="name" v="Nowe Kotowo"/>
    <tag k="oneway" v="yes"/>
  </way>
  <way id="25730811" version="3" timestamp="2010-03-31T21:26:37Z" uid="163746" user="anti_bot-nonsense" changeset="4289355">
    <nd ref="171203002"/>
    <nd ref="280577188"/>
    <nd ref="267427944"/>
    <tag k="highway" v="tertiary"/>
    <tag k="name" v="Nowe Kotowo"/>
    <tag k="oneway" v="yes"/>
  </way>
  <way id="25730874" version="5" timestamp="2008-10-14T05:19:55Z" uid="27600" user="Islanit" changeset="319668">
    <nd ref="191656"/>
    <nd ref="294165944"/>
    <nd ref="286696292"/>
    <tag k="created_by" v="Potlatch 0.10e"/>
    <tag k="highway" v="tertiary"/>
    <tag k="name" v="Boberger Furtweg"/>
    <tag k="postal_code" v="21033"/>
  </way>
  <way id="25730897" version="5" timestamp="2010-03-27T23:52:28Z" uid="20587" user="balrog-kun" changeset="4250871">
    <nd ref="280579341"/>
    <nd ref="123322251"/>
    <nd ref="514088251"/>
    <nd ref="122860262"/>
    <nd ref="123044432"/>
    <tag k="highway" v="residential"/>
    <tag k="name" v="Fairview Avenue"/>
    <tag k="tiger:cfcc" v="A41"/>
    <tag k="tiger:county" v="Los Angeles, CA"/>
    <tag k="tiger:name_base" v="Fairview"/>
    <tag k="tiger:name_type" v="Ave"/>
    <tag k="tiger:separated" v="no"/>
    <tag k="tiger:source" v="tiger_import_dch_v0.6_20070809"/>
    <tag k="tiger:tlid" v="141630210:141630189:141630191:141630193:141630195:141630212:141630213:141630127"/>
    <tag k="tiger:zip_left" v="91030"/>
    <tag k="tiger:zip_right" v="91030"/>
  </way>
  <way id="25730965" version="11" timestamp="2010-03-27T23:52:28Z" uid="20587" user="balrog-kun" changeset="4250871">
    <nd ref="14954027"/>
    <nd ref="519333503"/>
    <nd ref="14919142"/>
    <tag k="highway" v="tertiary"/>
    <tag k="name" v="Mission Street"/>
  </way>
  <way id="25730966" version="16" timestamp="2010-03-27T23:52:29Z" uid="20587" user="balrog-kun" changeset="4250871">
    <nd ref="177732591"/>
    <nd ref="122826678"/>
    <nd ref="122826680"/>
    <nd ref="122826686"/>
    <nd ref="280579584"/>
    <nd ref="280580304"/>
    <nd ref="280580329"/>
    <tag k="highway" v="residential"/>
    <tag k="name" v="Meridian Avenue"/>
  </way>
</osm>
