<?xml version='1.0' encoding='UTF-8'?>
<osm version="0.6" generator="libosmium/2.20.0">
  <way id="25749088" version="5" timestamp="2008-09-05T10:54:49Z" uid="1066" user="pavel" changeset="539695">
    <nd ref="280807484"/>
    <nd ref="267256294"/>
    <tag k="created_by" v="Potlatch 0.10b"/>
    <tag k="highway" v="residential"/>
    <tag k="name" v="Bártlova"/>
    <tag k="name:source" v="nameit/uir-adr"/>
  </way>
  <way id="25749103" version="5" timestamp="2009-08-13T14:14:59Z" uid="4667" user="MapZ" changeset="2132085">
    <nd ref="280807708"/>
    <nd ref="280807709"/>
    <nd ref="280807710"/>
    <nd ref="280807712"/>
    <nd ref="280807715"/>
    <nd ref="280807718"/>
    <nd ref="280810326"/>
    <nd ref="280810328"/>
    <nd ref="280810329"/>
    <nd ref="280810333"/>
    <nd ref="280810335"/>
    <nd ref="280810337"/>
    <nd ref="280810338"/>
    <nd ref="443803611"/>
    <nd ref="280810339"/>
    <nd ref="280810342"/>
    <nd ref="280810346"/>
    <nd ref="280810347"/>
    <tag k="highway" v="footway"/>
    <tag k="name" v="Breitachklamm"/>
  </way>
  <way id="25749188" version="2" timestamp="2008-09-05T10:53:54Z" uid="1066" user="pavel" changeset="539695">
    <nd ref="280808786"/>
    <nd ref="280808787"/>
    <nd ref="76012848"/>
    <tag k="created_by" v="Potlatch 0.10"/>
    <tag k="highway" v="residential"/>
    <tag k="name" v="Lukavecká"/>
    <tag k="name:source" v="nameit/uir-adr"/>
  </way>
  <way id="25749233" version="2" timestamp="2008-09-05T10:53:40Z" uid="1066" user="pavel" changeset="539695">
    <nd ref="6930934"/>
    <nd ref="6928274"/>
    <nd ref="6928273"/>
    <tag k="created_by" v="Potlatch 0.10"/>
    <tag k="highway" v="residential"/>
    <tag k="name" v="Šplechnerova"/>
    <tag k="name:source" v="nameit/uir-adr"/>
  </way>
  <way id="25749256" version="3" timestamp="2011-02-15T11:54:18Z" uid="23543" user="jkjk" changeset="7294176">
    <nd ref="280809799"/>
    <nd ref="280809802"/>
    <nd ref="1136177684"/>
    <nd ref="280809805"/>
    <nd ref="1136177683"/>
    <nd ref="1136177685"/>
    <nd ref="1136177681"/>
    <nd ref="1136177679"/>
    <nd ref="1136177677"/>
    <nd ref="1136177674"/>
    <nd ref="1136177673"/>
    <nd ref="1136177671"/>
    <nd ref="1136177698"/>
    <nd ref="1136177665"/>
    <nd ref="1136177667"/>
    <nd ref="1136177669"/>
    <nd ref="1154337439"/>
    <nd ref="1154338038"/>
    <nd ref="1154337708"/>
    <nd ref="1154338478"/>
    <nd ref="1154338158"/>
    <nd ref="1154337329"/>
    <nd ref="1154337939"/>
    <nd ref="1102598747"/>
    <nd ref="1154338471"/>
    <nd ref="1154338479"/>
    <nd ref="1154338159"/>
    <nd ref="1154337401"/>
    <nd ref="1154337176"/>
    <nd ref="1154337493"/>
    <nd ref="1154337502"/>
    <nd ref="1154337277"/>
    <nd ref="1154337888"/>
    <nd ref="1154337579"/>
    <nd ref="1154337694"/>
    <nd ref="1154338465"/>
    <nd ref="1154338145"/>
    <nd ref="1154337384"/>
    <nd ref="1154337152"/>
    <nd ref="1154338552"/>
    <nd ref="1154338318"/>
    <nd ref="1154337474"/>
    <tag k="railway" v="rail"/>
    <tag k="service" v="spur"/>
  </way>
  <way id="25749311" version="7" timestamp="2008-09-05T10:53:07Z" uid="1066" user="pavel" changeset="539695">
    <nd ref="280810288"/>
    <nd ref="280810294"/>
    <nd ref="280810290"/>
    <nd ref="280810391"/>
    <nd ref="280810295"/>
    <nd ref="280810292"/>
    <tag k="created_by" v="Potlatch 0.10b"/>
    <tag k="highway" v="residential"/>
    <tag k="name" v="Březecká"/>
    <tag k="name:source" v="nameit/uir-adr"/>
  </way>
  <way id="25749346" version="2" timestamp="2008-09-05T10:53:19Z" uid="1066" user="pavel" changeset="539695">
    <nd ref="280810539"/>
    <nd ref="6935835"/>
    <tag k="created_by" v="Potlatch 0.10"/>
    <tag k="highway" v="residential"/>
    <tag k="name" v="Chvalkovická"/>
    <tag k="name:source" v="nameit/uir-adr"/>
  </way>
  <way id="25749368" version="5" timestamp="2009-08-13T14:14:59Z" uid="4667" user="MapZ" changeset="2132085">
    <nd ref="280810347"/>
    <nd ref="281229421"/>
    <nd ref="364890709"/>
    <nd ref="281229422"/>
    <nd ref="364890711"/>
    <tag k="highway" v="footway"/>
    <tag k="name" v="Breitachklamm"/>
    <tag k="note" v="Verlauf unsicher"/>
  </way>
  <way id="25749408" version="7" timestamp="2008-09-05T10:54:24Z" uid="1066" user="pavel" changeset="539695">
    <nd ref="280811044"/>
    <nd ref="280811175"/>
    <tag k="created_by" v="Potlatch 0.10b"/>
    <tag k="highway" v="residential"/>
    <tag k="name" v="U jeslí"/>
    <tag k="name:source" v="nameit/uir-adr"/>
  </way>
  <way id="25749411" version="2" timestamp="2008-09-05T10:55:09Z" uid="1066" user="pavel" changeset="539695">
    <nd ref="280811174"/>
    <nd ref="280811175"/>
    <tag k="created_by" v="Potlatch 0.10"/>
    <tag k="highway" v="residential"/>
    <tag k="name" v="U jeslí"/>
    <tag k="name:source" v="nameit/uir-adr"/>
  </way>
  <way id="25749527" version="6" timestamp="2008-10-31T17:44:03Z" uid="43863" user="Rundling" changeset="643055">
    <nd ref="280812327"/>
    <nd ref="280813073"/>
    <nd ref="296085545"/>
    <nd ref="104072657"/>
    <nd ref="104072650"/>
    <nd ref="110310317"/>
    <nd ref="106157995"/>
    <nd ref="106157968"/>
    <nd ref="106157971"/>
    <nd ref="106157973"/>
    <nd ref="106157977"/>
    <nd ref="111225943"/>
    <nd ref="183289570"/>
    <nd ref="301573899"/>
    <nd ref="106157980"/>
    <tag k="created_by" v="Potlatch 0.10f"/>
    <tag k="highway" v="primary"/>
    <tag k="oneway" v="yes"/>
    <tag k="ref" v="B 216"/>
  </way>
  <way id="25749527" version="7" timestamp="2008-10-31T17:44:12Z" uid="43863" user="Rundling" changeset="643055">
    <nd ref="280812327"/>
    <nd ref="280813073"/>
    <nd ref="296085545"/>
    <nd ref="104072657"/>
    <nd ref="104072650"/>
    <nd ref="110310317"/>
    <nd ref="106157995"/>
    <nd ref="106157968"/>
    <nd ref="106157971"/>
    <nd ref="106157973"/>
    <nd ref="308955342"/>
    <tag k="created_by" v="Potlatch 0.10f"/>
    <tag k="highway" v="primary"/>
    <tag k="oneway" v="yes"/>
    <tag k="ref" v="B 216"/>
  </way>
  <way id="25749527" version="8" timestamp="2009-10-18T04:36:55Z" uid="43863" user="Rundling" changeset="2879637">
    <nd ref="280812327"/>
    <nd ref="280813073"/>
    <nd ref="296085545"/>
    <nd ref="104072657"/>
    <nd ref="104072650"/>
    <nd ref="110310317"/>
    <nd ref="106157995"/>
    <nd ref="106157968"/>
    <nd ref="106157971"/>
    <nd ref="106157973"/>
    <nd ref="308955342"/>
    <tag k="highway" v="primary"/>
    <tag k="oneway" v="yes"/>
    <tag k="ref" v="B 216"/>
  </way>
  <way id="25749716" version="2" timestamp="2008-09-14T13:54:37Z" uid="6975" user="ulfl" changeset="640534">
    <nd ref="280814886"/>
    <nd ref="280814888"/>
    <nd ref="280814889"/>
    <nd ref="280814890"/>
    <nd ref="280814886"/>
    <tag k="building" v="museum"/>
    <tag k="source" v="interpolation"/>
    <tag k="tourism" v="museum"/>
  </way>
  <way id="25749774" version="6" timestamp="2009-02-08T23:38:51Z" uid="6975" user="ulfl" changeset="302124">
    <nd ref="271892977"/>
    <nd ref="271892978"/>
    <nd ref="280813169"/>
    <tag k="addr:country" v="DE"/>
    <tag k="highway" v="residential"/>
    <tag k="name" v="Moosangerstraße"/>
    <tag k="postal_code" v="97437"/>
  </way>
</osm>
