<?xml version='1.0' encoding='UTF-8'?>
<osm version="0.6" generator="libosmium/2.20.0">
  <way id="25757007" version="8" timestamp="2010-03-27T23:52:34Z" uid="20587" user="balrog-kun" changeset="4250871">
    <nd ref="280888251"/>
    <nd ref="89055849"/>
    <nd ref="89055842"/>
    <nd ref="88861417"/>
    <nd ref="289244655"/>
    <tag k="created_by" v="Potlatch 0.10b"/>
    <tag k="highway" v="trunk"/>
    <tag k="name" v="State Route 14"/>
    <tag k="name_1" v="Midland Trail"/>
    <tag k="ref" v="CA 14"/>
    <tag k="tiger:cfcc" v="A35"/>
    <tag k="tiger:county" v="Kern, CA"/>
    <tag k="tiger:name_base" v="State Route 14"/>
    <tag k="tiger:name_base_1" v="Midland"/>
    <tag k="tiger:name_type_1" v="Trl"/>
    <tag k="tiger:separated" v="yes"/>
    <tag k="tiger:source" v="tiger_import_dch_v0.6_20070809"/>
    <tag k="tiger:tlid" v="109512571:109475141:109475142:108986343:109423504"/>
  </way>
  <way id="25757008" version="2" timestamp="2009-01-03T10:32:30Z" uid="65847" user="LKK" changeset="725280">
    <nd ref="280888260"/>
    <nd ref="280888261"/>
    <nd ref="280888267"/>
    <nd ref="280888272"/>
    <nd ref="280888271"/>
    <nd ref="280888266"/>
    <nd ref="280888270"/>
    <nd ref="280888269"/>
    <nd ref="280888265"/>
    <nd ref="280888256"/>
    <nd ref="280888257"/>
    <nd ref="250089420"/>
    <nd ref="250089484"/>
    <nd ref="250089396"/>
    <nd ref="250089454"/>
    <nd ref="250089409"/>
    <nd ref="250089455"/>
    <nd ref="25931293"/>
    <nd ref="250089478"/>
    <nd ref="250089458"/>
    <nd ref="250089370"/>
    <nd ref="250089405"/>
    <nd ref="250089373"/>
    <nd ref="250089388"/>
    <nd ref="250089369"/>
    <nd ref="243742296"/>
    <nd ref="243742290"/>
    <nd ref="247940606"/>
    <nd ref="25931197"/>
    <nd ref="32922029"/>
    <nd ref="15108473"/>
    <nd ref="25931200"/>
    <nd ref="51472680"/>
    <nd ref="243740499"/>
    <nd ref="243740498"/>
    <nd ref="51472672"/>
    <nd ref="243740497"/>
    <nd ref="51472671"/>
    <nd ref="243740494"/>
    <nd ref="51472664"/>
    <nd ref="51472662"/>
    <nd ref="51472660"/>
    <nd ref="51472655"/>
    <nd ref="32921642"/>
    <nd ref="250089464"/>
    <nd ref="243743134"/>
    <nd ref="25931205"/>
    <nd ref="250089402"/>
    <nd ref="250089412"/>
    <nd ref="250089407"/>
    <nd ref="250089421"/>
    <nd ref="25931207"/>
    <nd ref="25931209"/>
    <nd ref="243740467"/>
    <nd ref="250089426"/>
    <nd ref="250089361"/>
    <nd ref="250089399"/>
    <nd ref="250089476"/>
    <nd ref="25931225"/>
    <nd ref="250089449"/>
    <nd ref="250089445"/>
    <nd ref="25931232"/>
    <nd ref="250089380"/>
    <nd ref="250089443"/>
    <nd ref="250089348"/>
    <nd ref="250089452"/>
    <nd ref="25931242"/>
    <nd ref="250089336"/>
    <nd ref="250089339"/>
    <nd ref="250089342"/>
    <nd ref="250089487"/>
    <nd ref="25931244"/>
    <nd ref="25931247"/>
    <nd ref="250089461"/>
    <nd ref="280888259"/>
    <nd ref="280888260"/>
    <tag k="created_by" v="JOSM"/>
    <tag k="landuse" v="forest"/>
  </way>
  <way id="25757039" version="4" timestamp="2010-10-05T01:34:11Z" uid="20587" user="balrog-kun" changeset="5958352">
    <nd ref="280888741"/>
    <nd ref="931941399"/>
    <nd ref="280888742"/>
    <nd ref="280888739"/>
    <tag k="highway" v="residential"/>
    <tag k="name" v="Stefana Garczyńskiego"/>
  </way>
  <way id="25757041" version="3" timestamp="2010-10-05T01:35:00Z" uid="20587" user="balrog-kun" changeset="5958352">
    <nd ref="280888747"/>
    <nd ref="280888742"/>
    <tag k="highway" v="residential"/>
    <tag k="name" v="Juliusza Konstantego Ordona"/>
  </way>
  <way id="25757042" version="4" timestamp="2010-10-05T01:34:19Z" uid="20587" user="balrog-kun" changeset="5958352">
    <nd ref="280888775"/>
    <nd ref="280888753"/>
    <nd ref="280888754"/>
    <nd ref="280888747"/>
    <nd ref="280888805"/>
    <tag k="highway" v="residential"/>
    <tag k="name" v="Generała Józefa Sowińskiego"/>
  </way>
  <way id="25757043" version="7" timestamp="2010-10-05T01:35:19Z" uid="20587" user="balrog-kun" changeset="5958352">
    <nd ref="280888768"/>
    <nd ref="341970564"/>
    <nd ref="341970567"/>
    <nd ref="280888783"/>
    <tag k="highway" v="residential"/>
    <tag k="name" v="Filipa Eisenberga"/>
  </way>
  <way id="25757057" version="13" timestamp="2010-04-05T08:30:21Z" uid="74617" user="JohnSmith" changeset="4330247">
    <nd ref="280889339"/>
    <nd ref="31562707"/>
    <nd ref="31562708"/>
    <nd ref="31562709"/>
    <nd ref="195331563"/>
    <nd ref="31562710"/>
    <nd ref="31562711"/>
    <nd ref="31562712"/>
    <nd ref="31562713"/>
    <nd ref="31562726"/>
    <nd ref="31562727"/>
    <nd ref="280390475"/>
    <nd ref="31562728"/>
    <nd ref="31562729"/>
    <nd ref="31562730"/>
    <nd ref="31562731"/>
    <nd ref="570433479"/>
    <nd ref="570433685"/>
    <nd ref="570433689"/>
    <nd ref="570503153"/>
    <nd ref="570503149"/>
    <nd ref="570503139"/>
    <nd ref="570503108"/>
    <nd ref="570503102"/>
    <nd ref="570503096"/>
    <nd ref="570503091"/>
    <nd ref="570503088"/>
    <nd ref="570503084"/>
    <nd ref="570503078"/>
    <nd ref="570503075"/>
    <nd ref="570503071"/>
    <nd ref="570503067"/>
    <nd ref="570503063"/>
    <nd ref="570503061"/>
    <nd ref="570503058"/>
    <nd ref="570503046"/>
    <nd ref="570503041"/>
    <nd ref="570503037"/>
    <nd ref="570500014"/>
    <tag k="highway" v="motorway"/>
    <tag k="lanes" v="2"/>
    <tag k="maxspeed" v="100"/>
    <tag k="name" v="Princes Freeway"/>
    <tag k="oneway" v="yes"/>
  </way>
  <way id="25757058" version="4" timestamp="2010-04-04T23:23:53Z" uid="74617" user="JohnSmith" changeset="4327637">
    <nd ref="150990488"/>
    <nd ref="280889325"/>
    <tag k="bridge" v="yes"/>
    <tag k="highway" v="motorway"/>
    <tag k="lanes" v="2"/>
    <tag k="layer" v="1"/>
    <tag k="maxspeed" v="100"/>
    <tag k="name" v="Princes Freeway"/>
    <tag k="oneway" v="yes"/>
    <tag k="ref" v="M1"/>
  </way>
  <way id="25757058" version="5" timestamp="2010-04-05T08:30:30Z" uid="74617" user="JohnSmith" changeset="4330247">
    <nd ref="150990488"/>
    <nd ref="280889325"/>
    <tag k="bridge" v="yes"/>
    <tag k="highway" v="motorway"/>
    <tag k="lanes" v="2"/>
    <tag k="layer" v="1"/>
    <tag k="maxspeed" v="100"/>
    <tag k="name" v="Princes Freeway"/>
    <tag k="oneway" v="yes"/>
  </way>
  <way id="25757059" version="3" timestamp="2010-04-04T23:23:53Z" uid="74617" user="JohnSmith" changeset="4327637">
    <nd ref="280889325"/>
    <nd ref="150990489"/>
    <nd ref="150990510"/>
    <tag k="highway" v="motorway"/>
    <tag k="lanes" v="2"/>
    <tag k="maxspeed" v="100"/>
    <tag k="name" v="Princes Freeway"/>
    <tag k="oneway" v="yes"/>
    <tag k="ref" v="M1"/>
  </way>
  <way id="25757059" version="4" timestamp="2010-04-05T08:30:30Z" uid="74617" user="JohnSmith" changeset="4330247">
    <nd ref="280889325"/>
    <nd ref="150990489"/>
    <nd ref="150990510"/>
    <tag k="highway" v="motorway"/>
    <tag k="lanes" v="2"/>
    <tag k="maxspeed" v="100"/>
    <tag k="name" v="Princes Freeway"/>
    <tag k="oneway" v="yes"/>
  </way>
  <way id="25757060" version="3" timestamp="2010-04-04T23:23:53Z" uid="74617" user="JohnSmith" changeset="4327637">
    <nd ref="280889324"/>
    <nd ref="280889339"/>
    <tag k="bridge" v="yes"/>
    <tag k="highway" v="motorway"/>
    <tag k="lanes" v="2"/>
    <tag k="layer" v="1"/>
    <tag k="maxspeed" v="100"/>
    <tag k="name" v="Princes Freeway"/>
    <tag k="oneway" v="yes"/>
    <tag k="ref" v="M1"/>
  </way>
  <way id="25757060" version="4" timestamp="2010-04-05T08:30:30Z" uid="74617" user="JohnSmith" changeset="4330247">
    <nd ref="280889324"/>
    <nd ref="280889339"/>
    <tag k="bridge" v="yes"/>
    <tag k="highway" v="motorway"/>
    <tag k="lanes" v="2"/>
    <tag k="layer" v="1"/>
    <tag k="maxspeed" v="100"/>
    <tag k="name" v="Princes Freeway"/>
    <tag k="oneway" v="yes"/>
  </way>
  <way id="25757088" version="3" timestamp="2010-03-27T23:52:35Z" uid="20587" user="balrog-kun" changeset="4250871">
    <nd ref="89005090"/>
    <nd ref="89055863"/>
    <nd ref="89055864"/>
    <nd ref="89055866"/>
    <nd ref="89055871"/>
    <nd ref="89055874"/>
    <nd ref="88427289"/>
    <nd ref="89055878"/>
    <nd ref="89055771"/>
    <tag k="created_by" v="Potlatch 0.10b"/>
    <tag k="highway" v="trunk"/>
    <tag k="name" v="State Route 14"/>
    <tag k="name_1" v="Midland Trail"/>
    <tag k="oneway" v="yes"/>
    <tag k="ref" v="CA 14"/>
    <tag k="tiger:cfcc" v="A35"/>
    <tag k="tiger:county" v="Kern, CA"/>
    <tag k="tiger:name_base" v="State Route 14"/>
    <tag k="tiger:name_base_1" v="Midland"/>
    <tag k="tiger:name_type_1" v="Trl"/>
    <tag k="tiger:separated" v="yes"/>
    <tag k="tiger:source" v="tiger_import_dch_v0.6_20070809"/>
    <tag k="tiger:tlid" v="109512571:109475141:109475142:108986343:109423504"/>
  </way>
  <way id="25757170" version="2" timestamp="2010-03-27T23:52:35Z" uid="20587" user="balrog-kun" changeset="4250871">
    <nd ref="280891592"/>
    <nd ref="280891594"/>
    <tag k="bridge" v="yes"/>
    <tag k="highway" v="tertiary"/>
    <tag k="layer" v="1"/>
    <tag k="name" v="Oak Creek Road"/>
    <tag k="tiger:cfcc" v="A41"/>
    <tag k="tiger:county" v="Kern, CA"/>
    <tag k="tiger:name_base" v="Oak Creek"/>
    <tag k="tiger:name_type" v="Rd"/>
    <tag k="tiger:separated" v="no"/>
    <tag k="tiger:source" v="tiger_import_dch_v0.6_20070809"/>
    <tag k="tiger:tlid" v="108994312:109453812:109534134:109566268"/>
  </way>
  <way id="25757171" version="2" timestamp="2010-03-27T23:52:35Z" uid="20587" user="balrog-kun" changeset="4250871">
    <nd ref="280891594"/>
    <nd ref="280891595"/>
    <nd ref="280891597"/>
    <nd ref="280891578"/>
    <tag k="highway" v="tertiary"/>
    <tag k="name" v="Oak Creek Road"/>
    <tag k="tiger:cfcc" v="A41"/>
    <tag k="tiger:county" v="Kern, CA"/>
    <tag k="tiger:name_base" v="Oak Creek"/>
    <tag k="tiger:name_type" v="Rd"/>
    <tag k="tiger:reviewed" v="no"/>
    <tag k="tiger:separated" v="no"/>
    <tag k="tiger:source" v="tiger_import_dch_v0.6_20070809"/>
    <tag k="tiger:tlid" v="108994312:109453812:109534134:109566268"/>
  </way>
  <way id="25757262" version="10" timestamp="2010-04-06T03:49:16Z" uid="74617" user="JohnSmith" changeset="4340174">
    <nd ref="32075354"/>
    <nd ref="266267252"/>
    <nd ref="92060931"/>
    <nd ref="244430330"/>
    <nd ref="246428061"/>
    <nd ref="246519807"/>
    <nd ref="27415733"/>
    <nd ref="246519815"/>
    <nd ref="613997285"/>
    <nd ref="246403230"/>
    <nd ref="30338847"/>
    <nd ref="246403231"/>
    <nd ref="246520748"/>
    <nd ref="246520752"/>
    <nd ref="594643078"/>
    <nd ref="594643195"/>
    <nd ref="26966550"/>
    <nd ref="26966551"/>
    <nd ref="594643188"/>
    <nd ref="646254740"/>
    <nd ref="646253162"/>
    <nd ref="244429591"/>
    <nd ref="27605846"/>
    <nd ref="246407037"/>
    <nd ref="27605767"/>
    <nd ref="244429315"/>
    <nd ref="32886025"/>
    <nd ref="594643594"/>
    <nd ref="569898256"/>
    <nd ref="569898258"/>
    <nd ref="569898260"/>
    <tag k="highway" v="trunk"/>
    <tag k="lanes" v="3"/>
    <tag k="maxspeed" v="80"/>
    <tag k="name" v="Wellington Road"/>
    <tag k="oneway" v="yes"/>
  </way>
  <way id="25757262" version="11" timestamp="2010-07-18T04:24:24Z" uid="4467" user="Rosscoe" changeset="5247790">
    <nd ref="32075354"/>
    <nd ref="266267252"/>
    <nd ref="92060931"/>
    <nd ref="244430330"/>
    <nd ref="246428061"/>
    <nd ref="822472633"/>
    <nd ref="27415733"/>
    <nd ref="246519815"/>
    <nd ref="613997285"/>
    <nd ref="246403230"/>
    <nd ref="30338847"/>
    <nd ref="246403231"/>
    <nd ref="246520748"/>
    <nd ref="246520752"/>
    <nd ref="594643078"/>
    <nd ref="594643195"/>
    <nd ref="26966550"/>
    <nd ref="26966551"/>
    <nd ref="594643188"/>
    <nd ref="646254740"/>
    <nd ref="646253162"/>
    <nd ref="244429591"/>
    <nd ref="27605846"/>
    <nd ref="246407037"/>
    <nd ref="27605767"/>
    <nd ref="244429315"/>
    <nd ref="32886025"/>
    <nd ref="594643594"/>
    <nd ref="569898256"/>
    <nd ref="569898258"/>
    <nd ref="569898260"/>
    <tag k="highway" v="trunk"/>
    <tag k="lanes" v="3"/>
    <tag k="maxspeed" v="80"/>
    <tag k="name" v="Wellington Road"/>
    <tag k="oneway" v="yes"/>
  </way>
  <way id="25757263" version="15" timestamp="2010-07-18T04:01:30Z" uid="4467" user="Rosscoe" changeset="5247721">
    <nd ref="32075355"/>
    <nd ref="27606967"/>
    <nd ref="92060840"/>
    <nd ref="30338588"/>
    <nd ref="822458506"/>
    <nd ref="634139503"/>
    <nd ref="27606984"/>
    <nd ref="563629413"/>
    <nd ref="588089468"/>
    <nd ref="27606985"/>
    <nd ref="588089450"/>
    <nd ref="563623936"/>
    <nd ref="27606987"/>
    <nd ref="563609587"/>
    <nd ref="563609283"/>
    <nd ref="30338593"/>
    <tag k="highway" v="trunk"/>
    <tag k="lanes" v="3"/>
    <tag k="maxspeed" v="80"/>
    <tag k="name" v="Wellington Road"/>
    <tag k="oneway" v="yes"/>
  </way>
  <way id="25757264" version="17" timestamp="2010-07-18T04:03:58Z" uid="4467" user="Rosscoe" changeset="5247721">
    <nd ref="902652"/>
    <nd ref="32999147"/>
    <nd ref="262427811"/>
    <nd ref="473400854"/>
    <nd ref="473400575"/>
    <nd ref="30338831"/>
    <nd ref="473400642"/>
    <nd ref="473400867"/>
    <nd ref="473400874"/>
    <nd ref="594575713"/>
    <nd ref="473397785"/>
    <nd ref="822458509"/>
    <nd ref="473400880"/>
    <nd ref="473400881"/>
    <nd ref="473397776"/>
    <nd ref="473398520"/>
    <nd ref="594576065"/>
    <nd ref="473400883"/>
    <nd ref="30338797"/>
    <nd ref="176102128"/>
    <nd ref="176102849"/>
    <nd ref="176103002"/>
    <nd ref="176103164"/>
    <nd ref="588089343"/>
    <nd ref="153978290"/>
    <nd ref="563631947"/>
    <nd ref="822458499"/>
    <nd ref="177945027"/>
    <nd ref="822458498"/>
    <nd ref="563597986"/>
    <nd ref="27606980"/>
    <nd ref="579269"/>
    <tag k="highway" v="trunk"/>
    <tag k="lanes" v="3"/>
    <tag k="maxspeed" v="80"/>
    <tag k="name" v="Dandenong Road"/>
    <tag k="oneway" v="yes"/>
  </way>
  <way id="25757265" version="4" timestamp="2009-08-13T01:24:08Z" uid="4467" user="Rosscoe" changeset="2125769">
    <nd ref="27606981"/>
    <nd ref="176156662"/>
    <nd ref="153979337"/>
    <nd ref="176103833"/>
    <nd ref="176163013"/>
    <nd ref="176163163"/>
    <nd ref="176163338"/>
    <nd ref="176164383"/>
    <nd ref="26854659"/>
    <nd ref="32075357"/>
    <nd ref="427269286"/>
    <nd ref="463050001"/>
    <nd ref="30338845"/>
    <nd ref="427269299"/>
    <nd ref="271292255"/>
    <nd ref="271292242"/>
    <tag k="highway" v="trunk"/>
    <tag k="loc_name" v="Dandenong Road"/>
    <tag k="name" v="Princes Highway"/>
    <tag k="oneway" v="yes"/>
    <tag k="ref" v="ALT 1"/>
  </way>
  <way id="25757265" version="18" timestamp="2010-07-18T04:02:33Z" uid="4467" user="Rosscoe" changeset="5247721">
    <nd ref="27606981"/>
    <nd ref="563598167"/>
    <nd ref="153979337"/>
    <nd ref="563610970"/>
    <tag k="highway" v="trunk"/>
    <tag k="lanes" v="4"/>
    <tag k="maxspeed" v="80"/>
    <tag k="name" v="Dandenong Road"/>
    <tag k="oneway" v="yes"/>
  </way>
  <way id="25757287" version="4" timestamp="2010-07-09T03:24:20Z" uid="74617" user="JohnSmith" changeset="5170713">
    <nd ref="280896022"/>
    <nd ref="280896028"/>
    <tag k="bridge" v="yes"/>
    <tag k="highway" v="residential"/>
    <tag k="layer" v="1"/>
    <tag k="maxspeed" v="50"/>
    <tag k="maxspeed:source" v="default residential speed limit in Australia"/>
    <tag k="name" v="Webster Street"/>
  </way>
  <way id="25757288" version="3" timestamp="2010-07-09T03:21:33Z" uid="74617" user="JohnSmith" changeset="5170713">
    <nd ref="280896028"/>
    <nd ref="280896053"/>
    <nd ref="280207589"/>
    <nd ref="258238841"/>
    <tag k="highway" v="residential"/>
    <tag k="maxspeed" v="50"/>
    <tag k="maxspeed:source" v="default residential speed limit in Australia"/>
    <tag k="name" v="Webster Street"/>
  </way>
  <way id="25757295" version="1" timestamp="2008-07-25T01:27:02Z" uid="30201" user="rrankin" changeset="587621">
    <nd ref="280896459"/>
    <nd ref="35291498"/>
    <nd ref="35291499"/>
    <nd ref="35291500"/>
    <nd ref="280896466"/>
    <tag k="bridge" v="yes"/>
    <tag k="created_by" v="Potlatch alpha"/>
    <tag k="highway" v="motorway"/>
    <tag k="layer" v="1"/>
    <tag k="oneway" v="yes"/>
    <tag k="ref" v="M7"/>
  </way>
  <way id="25757295" version="4" timestamp="2010-03-29T07:38:40Z" uid="74617" user="JohnSmith" changeset="4264737">
    <nd ref="280896459"/>
    <nd ref="35291498"/>
    <nd ref="35291499"/>
    <nd ref="35291500"/>
    <nd ref="280896466"/>
    <tag k="bridge" v="yes"/>
    <tag k="highway" v="motorway"/>
    <tag k="lanes" v="2"/>
    <tag k="layer" v="1"/>
    <tag k="maxspeed" v="signals"/>
    <tag k="oneway" v="yes"/>
  </way>
  <way id="25757295" version="8" timestamp="2011-03-08T04:39:30Z" uid="9719" user="dvaey" changeset="7491043">
    <nd ref="280896459"/>
    <nd ref="35291498"/>
    <nd ref="35291499"/>
    <nd ref="1192203671"/>
    <nd ref="35291500"/>
    <nd ref="280896466"/>
    <tag k="bridge" v="yes"/>
    <tag k="highway" v="motorway"/>
    <tag k="lanes" v="2"/>
    <tag k="layer" v="1"/>
    <tag k="maxspeed" v="signals"/>
    <tag k="name" v="Westlink M7"/>
    <tag k="oneway" v="yes"/>
  </way>
  <way id="25757296" version="1" timestamp="2008-07-25T01:27:02Z" uid="30201" user="rrankin" changeset="587621">
    <nd ref="280896462"/>
    <nd ref="33036624"/>
    <nd ref="33036625"/>
    <nd ref="33036626"/>
    <nd ref="33036630"/>
    <nd ref="33036631"/>
    <nd ref="33036632"/>
    <nd ref="33036633"/>
    <nd ref="33036634"/>
    <nd ref="33036635"/>
    <nd ref="33036636"/>
    <nd ref="33036637"/>
    <nd ref="33036638"/>
    <nd ref="33036639"/>
    <nd ref="33036643"/>
    <nd ref="33036644"/>
    <nd ref="33036645"/>
    <nd ref="33036646"/>
    <nd ref="33036647"/>
    <nd ref="33036650"/>
    <nd ref="33036653"/>
    <nd ref="33036654"/>
    <nd ref="33036655"/>
    <nd ref="33036657"/>
    <nd ref="33036660"/>
    <nd ref="33036661"/>
    <tag k="created_by" v="Potlatch alpha"/>
    <tag k="highway" v="motorway"/>
    <tag k="name" v="Westlink"/>
    <tag k="oneway" v="yes"/>
    <tag k="ref" v="M7"/>
  </way>
  <way id="25757296" version="2" timestamp="2008-07-25T03:09:42Z" uid="30201" user="rrankin" changeset="587818">
    <nd ref="280896462"/>
    <nd ref="33036624"/>
    <nd ref="33036625"/>
    <nd ref="33036626"/>
    <tag k="created_by" v="Potlatch alpha"/>
    <tag k="highway" v="motorway"/>
    <tag k="name" v="Westlink"/>
    <tag k="oneway" v="yes"/>
    <tag k="ref" v="M7"/>
  </way>
  <way id="25757296" version="4" timestamp="2010-03-29T07:38:40Z" uid="74617" user="JohnSmith" changeset="4264737">
    <nd ref="280896462"/>
    <nd ref="33036624"/>
    <nd ref="33036625"/>
    <nd ref="33036626"/>
    <tag k="highway" v="motorway"/>
    <tag k="lanes" v="2"/>
    <tag k="maxspeed" v="signals"/>
    <tag k="oneway" v="yes"/>
  </way>
  <way id="25757296" version="8" timestamp="2011-03-08T04:39:29Z" uid="9719" user="dvaey" changeset="7491043">
    <nd ref="280896462"/>
    <nd ref="33036624"/>
    <nd ref="1192203619"/>
    <nd ref="1192203617"/>
    <nd ref="33036625"/>
    <nd ref="33036626"/>
    <tag k="highway" v="motorway"/>
    <tag k="lanes" v="2"/>
    <tag k="maxspeed" v="signals"/>
    <tag k="name" v="Westlink M7"/>
    <tag k="oneway" v="yes"/>
  </way>
  <way id="25757297" version="1" timestamp="2008-07-25T01:27:03Z" uid="30201" user="rrankin" changeset="587621">
    <nd ref="19134719"/>
    <nd ref="19134723"/>
    <nd ref="19134727"/>
    <nd ref="19134731"/>
    <nd ref="19134736"/>
    <nd ref="19134748"/>
    <nd ref="19134752"/>
    <nd ref="19134754"/>
    <nd ref="19134755"/>
    <tag k="created_by" v="Potlatch 0.10"/>
    <tag k="cycleway" v="track"/>
    <tag k="foot" v="yes"/>
    <tag k="highway" v="cycleway"/>
    <tag k="name" v="M7 Cycleway"/>
    <tag k="rcn" v="yes"/>
    <tag k="rcn_ref" v="M7 Cycleway"/>
  </way>
  <way id="25757298" version="1" timestamp="2008-07-25T01:27:04Z" uid="30201" user="rrankin" changeset="587621">
    <nd ref="280896466"/>
    <nd ref="35291501"/>
    <nd ref="35291502"/>
    <nd ref="34145478"/>
    <tag k="created_by" v="Potlatch alpha"/>
    <tag k="highway" v="motorway"/>
    <tag k="oneway" v="yes"/>
    <tag k="ref" v="M7"/>
  </way>
  <way id="25757298" version="5" timestamp="2010-03-29T07:38:43Z" uid="74617" user="JohnSmith" changeset="4264737">
    <nd ref="280896466"/>
    <nd ref="35291501"/>
    <nd ref="35291502"/>
    <nd ref="34145478"/>
    <tag k="highway" v="motorway"/>
    <tag k="lanes" v="2"/>
    <tag k="maxspeed" v="signals"/>
    <tag k="oneway" v="yes"/>
  </way>
  <way id="25757299" version="1" timestamp="2008-07-25T01:27:05Z" uid="30201" user="rrankin" changeset="587621">
    <nd ref="280896468"/>
    <nd ref="33036580"/>
    <nd ref="33036584"/>
    <nd ref="33036592"/>
    <nd ref="280896462"/>
    <tag k="bridge" v="yes"/>
    <tag k="created_by" v="Potlatch alpha"/>
    <tag k="highway" v="motorway"/>
    <tag k="layer" v="1"/>
    <tag k="name" v="Westlink"/>
    <tag k="oneway" v="yes"/>
    <tag k="ref" v="M7"/>
  </way>
  <way id="25757299" version="3" timestamp="2010-03-29T07:38:39Z" uid="74617" user="JohnSmith" changeset="4264737">
    <nd ref="280896468"/>
    <nd ref="33036580"/>
    <nd ref="33036584"/>
    <nd ref="33036592"/>
    <nd ref="280896462"/>
    <tag k="bridge" v="yes"/>
    <tag k="highway" v="motorway"/>
    <tag k="lanes" v="2"/>
    <tag k="layer" v="1"/>
    <tag k="maxspeed" v="signals"/>
    <tag k="oneway" v="yes"/>
  </way>
  <way id="25757299" version="7" timestamp="2011-03-08T04:39:30Z" uid="9719" user="dvaey" changeset="7491043">
    <nd ref="280896468"/>
    <nd ref="33036580"/>
    <nd ref="33036584"/>
    <nd ref="1192203655"/>
    <nd ref="33036592"/>
    <nd ref="280896462"/>
    <tag k="bridge" v="yes"/>
    <tag k="highway" v="motorway"/>
    <tag k="lanes" v="2"/>
    <tag k="layer" v="1"/>
    <tag k="maxspeed" v="signals"/>
    <tag k="name" v="Westlink M7"/>
    <tag k="oneway" v="yes"/>
  </way>
  <way id="25757300" version="1" timestamp="2008-07-25T01:27:06Z" uid="30201" user="rrankin" changeset="587621">
    <nd ref="19134681"/>
    <nd ref="19134685"/>
    <nd ref="19134690"/>
    <nd ref="19134694"/>
    <nd ref="19134698"/>
    <nd ref="19134711"/>
    <nd ref="19134719"/>
    <tag k="bridge" v="yes"/>
    <tag k="created_by" v="Potlatch 0.10"/>
    <tag k="cycleway" v="track"/>
    <tag k="foot" v="yes"/>
    <tag k="highway" v="cycleway"/>
    <tag k="layer" v="1"/>
    <tag k="name" v="M7 Cycleway"/>
    <tag k="rcn" v="yes"/>
    <tag k="rcn_ref" v="M7 Cycleway"/>
  </way>
  <way id="25757315" version="11" timestamp="2010-08-12T11:51:19Z" uid="4467" user="Rosscoe" changeset="5472481">
    <nd ref="280207661"/>
    <nd ref="280897289"/>
    <nd ref="280897280"/>
    <nd ref="280897268"/>
    <tag k="highway" v="service"/>
    <tag k="oneway" v="yes"/>
  </way>
  <way id="25757319" version="5" timestamp="2010-08-12T11:51:31Z" uid="4467" user="Rosscoe" changeset="5472481"/>
  <way id="25757320" version="8" timestamp="2010-08-12T11:51:32Z" uid="4467" user="Rosscoe" changeset="5472481"/>
  <way id="25757321" version="4" timestamp="2010-08-12T11:51:28Z" uid="4467" user="Rosscoe" changeset="5472481"/>
  <way id="25757322" version="4" timestamp="2010-08-12T11:51:29Z" uid="4467" user="Rosscoe" changeset="5472481"/>
  <way id="25757324" version="4" timestamp="2010-08-12T11:51:16Z" uid="4467" user="Rosscoe" changeset="5472481">
    <nd ref="280897268"/>
    <nd ref="280897269"/>
    <nd ref="280897277"/>
    <nd ref="280897319"/>
    <nd ref="280207661"/>
    <tag k="highway" v="service"/>
    <tag k="oneway" v="yes"/>
  </way>
  <way id="25757327" version="3" timestamp="2010-08-12T11:51:30Z" uid="4467" user="Rosscoe" changeset="5472481"/>
  <way id="25757333" version="10" timestamp="2010-12-16T11:30:39Z" uid="4467" user="Rosscoe" changeset="6675733">
    <nd ref="26855045"/>
    <nd ref="631474544"/>
    <nd ref="631474589"/>
    <nd ref="631473779"/>
    <nd ref="631473782"/>
    <nd ref="100847732"/>
    <nd ref="27170653"/>
    <nd ref="618431725"/>
    <nd ref="618431726"/>
    <nd ref="26855043"/>
    <nd ref="1041020663"/>
    <nd ref="27699431"/>
    <nd ref="618431728"/>
    <nd ref="27348413"/>
    <nd ref="31422256"/>
    <nd ref="27348444"/>
    <nd ref="618397444"/>
    <nd ref="27699432"/>
    <nd ref="26855041"/>
    <tag k="highway" v="trunk"/>
    <tag k="loc_name" v="Dandenong Road"/>
    <tag k="maxspeed" v="80"/>
    <tag k="name" v="Princes Highway"/>
    <tag k="oneway" v="yes"/>
    <tag k="ref" v="ALT 1"/>
  </way>
  <way id="25757334" version="3" timestamp="2009-08-13T01:46:05Z" uid="4467" user="Rosscoe" changeset="2125878">
    <nd ref="26855044"/>
    <nd ref="28164017"/>
    <nd ref="100842403"/>
    <nd ref="100842166"/>
    <nd ref="100842167"/>
    <nd ref="26855052"/>
    <nd ref="100841920"/>
    <nd ref="26855053"/>
    <nd ref="100841921"/>
    <nd ref="247717856"/>
    <nd ref="100841737"/>
    <nd ref="26855054"/>
    <nd ref="280209844"/>
    <nd ref="100841738"/>
    <nd ref="26855055"/>
    <nd ref="100841155"/>
    <nd ref="100842909"/>
    <nd ref="257850782"/>
    <nd ref="26855056"/>
    <nd ref="280897368"/>
    <tag k="highway" v="trunk"/>
    <tag k="loc_name" v="Dandenong Road"/>
    <tag k="name" v="Princes Highway"/>
    <tag k="oneway" v="yes"/>
    <tag k="ref" v="ALT 1"/>
  </way>
  <way id="25757334" version="4" timestamp="2009-08-13T02:03:04Z" uid="4467" user="Rosscoe" changeset="2125960">
    <nd ref="26855044"/>
    <nd ref="28164017"/>
    <nd ref="100842403"/>
    <nd ref="100842166"/>
    <nd ref="100842167"/>
    <nd ref="26855052"/>
    <nd ref="100841920"/>
    <nd ref="26855053"/>
    <nd ref="100841921"/>
    <nd ref="247717856"/>
    <nd ref="100841737"/>
    <nd ref="26855054"/>
    <nd ref="280209844"/>
    <nd ref="100841738"/>
    <nd ref="26855055"/>
    <nd ref="100841155"/>
    <nd ref="100842909"/>
    <nd ref="257850782"/>
    <nd ref="26855056"/>
    <nd ref="280897368"/>
    <tag k="highway" v="trunk"/>
    <tag k="loc_name" v="Dandenong Road"/>
    <tag k="name" v="Princes Highway"/>
    <tag k="oneway" v="yes"/>
    <tag k="ref" v="ALT 1"/>
  </way>
  <way id="25757334" version="5" timestamp="2009-08-13T12:35:00Z" uid="4467" user="Rosscoe" changeset="2130930">
    <nd ref="26855044"/>
    <nd ref="28164017"/>
    <nd ref="100842403"/>
    <nd ref="100842166"/>
    <nd ref="100842167"/>
    <nd ref="26855052"/>
    <nd ref="100841920"/>
    <nd ref="26855053"/>
    <nd ref="100841921"/>
    <nd ref="247717856"/>
    <nd ref="100841737"/>
    <nd ref="26855054"/>
    <nd ref="280209850"/>
    <nd ref="100841738"/>
    <nd ref="26855055"/>
    <nd ref="100841155"/>
    <nd ref="100842909"/>
    <nd ref="257850782"/>
    <nd ref="26855056"/>
    <nd ref="280897368"/>
    <tag k="highway" v="trunk"/>
    <tag k="loc_name" v="Dandenong Road"/>
    <tag k="name" v="Princes Highway"/>
    <tag k="oneway" v="yes"/>
    <tag k="ref" v="ALT 1"/>
  </way>
  <way id="25757334" version="6" timestamp="2009-08-13T12:51:37Z" uid="4467" user="Rosscoe" changeset="2131119">
    <nd ref="26855044"/>
    <nd ref="28164017"/>
    <nd ref="100842403"/>
    <nd ref="100842166"/>
    <nd ref="100842167"/>
    <nd ref="26855052"/>
    <nd ref="100841920"/>
    <nd ref="26855053"/>
    <nd ref="100841921"/>
    <nd ref="247717856"/>
    <nd ref="100841737"/>
    <nd ref="26855054"/>
    <nd ref="280209850"/>
    <nd ref="100841738"/>
    <nd ref="26855055"/>
    <nd ref="100841155"/>
    <nd ref="100842909"/>
    <nd ref="257850782"/>
    <nd ref="26855056"/>
    <nd ref="280897368"/>
    <tag k="highway" v="trunk"/>
    <tag k="loc_name" v="Dandenong Road"/>
    <tag k="name" v="Princes Highway"/>
    <tag k="oneway" v="yes"/>
    <tag k="ref" v="ALT 1"/>
  </way>
  <way id="25757335" version="3" timestamp="2009-08-13T12:51:37Z" uid="4467" user="Rosscoe" changeset="2131119">
    <nd ref="280897498"/>
    <nd ref="26855050"/>
    <nd ref="280897215"/>
    <nd ref="100841022"/>
    <nd ref="280207691"/>
    <nd ref="280207459"/>
    <nd ref="280207812"/>
    <nd ref="280207690"/>
    <nd ref="280209846"/>
    <nd ref="261505027"/>
    <nd ref="280208576"/>
    <nd ref="220313636"/>
    <nd ref="100841854"/>
    <nd ref="100841855"/>
    <nd ref="26855047"/>
    <nd ref="100842030"/>
    <nd ref="26855046"/>
    <nd ref="220314678"/>
    <nd ref="100842033"/>
    <nd ref="28164015"/>
    <nd ref="26855045"/>
    <tag k="highway" v="trunk"/>
    <tag k="loc_name" v="Dandenong Road"/>
    <tag k="name" v="Princes Highway"/>
    <tag k="oneway" v="yes"/>
    <tag k="ref" v="ALT 1"/>
  </way>
  <way id="25757442" version="4" timestamp="2009-08-13T12:35:02Z" uid="4467" user="Rosscoe" changeset="2130930">
    <nd ref="280898562"/>
    <nd ref="280898580"/>
    <nd ref="280898578"/>
    <nd ref="280898570"/>
    <nd ref="280898581"/>
    <nd ref="280898572"/>
    <nd ref="280898573"/>
    <nd ref="280898574"/>
    <nd ref="100845229"/>
    <tag k="bicycle" v="yes"/>
    <tag k="cycleway" v="track"/>
    <tag k="foot" v="yes"/>
    <tag k="highway" v="cycleway"/>
  </way>
  <way id="25757443" version="3" timestamp="2009-08-13T12:35:02Z" uid="4467" user="Rosscoe" changeset="2130930">
    <nd ref="280898562"/>
    <nd ref="280898598"/>
    <nd ref="280898592"/>
    <tag k="bicycle" v="yes"/>
    <tag k="cycleway" v="track"/>
    <tag k="foot" v="yes"/>
    <tag k="highway" v="cycleway"/>
    <tag k="name" v="Rosstown Rail Trail"/>
  </way>
  <way id="25757445" version="2" timestamp="2008-09-14T14:44:39Z" uid="6975" user="ulfl" changeset="640534">
    <nd ref="280898599"/>
    <nd ref="280898600"/>
    <tag k="highway" v="footpath"/>
  </way>
  <way id="25757447" version="2" timestamp="2010-07-09T03:17:02Z" uid="74617" user="JohnSmith" changeset="5170713">
    <nd ref="280898592"/>
    <nd ref="247717845"/>
    <tag k="highway" v="residential"/>
    <tag k="maxspeed" v="50"/>
    <tag k="maxspeed:source" v="default residential speed limit in Australia"/>
    <tag k="name" v="Arthur Street"/>
    <tag k="oneway" v="yes"/>
  </way>
  <way id="25757473" version="3" timestamp="2010-07-09T03:23:48Z" uid="74617" user="JohnSmith" changeset="5170713">
    <nd ref="266414845"/>
    <nd ref="266414555"/>
    <tag k="highway" v="residential"/>
    <tag k="maxspeed" v="50"/>
    <tag k="maxspeed:source" v="default residential speed limit in Australia"/>
    <tag k="name" v="Judd Street"/>
  </way>
  <way id="25757512" version="5" timestamp="2010-04-26T14:00:10Z" uid="4467" user="Rosscoe" changeset="4532178">
    <nd ref="280898882"/>
    <nd ref="280898888"/>
    <nd ref="280898903"/>
    <nd ref="280898936"/>
    <nd ref="280898891"/>
    <nd ref="280898892"/>
    <nd ref="280898893"/>
    <nd ref="280898937"/>
    <nd ref="280898938"/>
    <nd ref="280898939"/>
    <nd ref="280898940"/>
    <tag k="bicycle" v="yes"/>
    <tag k="cycleway" v="track"/>
    <tag k="foot" v="yes"/>
    <tag k="highway" v="cycleway"/>
    <tag k="name" v="Rosstown Rail Trail"/>
  </way>
  <way id="25757524" version="3" timestamp="2010-04-26T14:00:08Z" uid="4467" user="Rosscoe" changeset="4532178">
    <nd ref="280898940"/>
    <nd ref="280898967"/>
    <nd ref="280898951"/>
    <nd ref="280898968"/>
    <nd ref="247397791"/>
    <tag k="bicycle" v="yes"/>
    <tag k="cycleway" v="track"/>
    <tag k="foot" v="yes"/>
    <tag k="highway" v="cycleway"/>
    <tag k="name" v="Rosstown Rail Trail"/>
  </way>
  <way id="25757525" version="4" timestamp="2010-04-26T14:00:23Z" uid="4467" user="Rosscoe" changeset="4532178">
    <nd ref="707418570"/>
    <nd ref="331959999"/>
    <nd ref="247397357"/>
    <tag k="highway" v="tertiary"/>
    <tag k="name" v="Marara Road"/>
  </way>
  <way id="25757529" version="2" timestamp="2010-04-26T13:59:50Z" uid="4467" user="Rosscoe" changeset="4532178">
    <nd ref="247397791"/>
    <nd ref="707418823"/>
    <tag k="highway" v="tertiary"/>
    <tag k="name" v="Marara Road"/>
  </way>
  <way id="25757540" version="7" timestamp="2010-04-06T03:33:24Z" uid="74617" user="JohnSmith" changeset="4340174">
    <nd ref="31562207"/>
    <nd ref="247490351"/>
    <nd ref="247490352"/>
    <nd ref="247490353"/>
    <nd ref="247490354"/>
    <nd ref="247490355"/>
    <nd ref="247490356"/>
    <nd ref="247490357"/>
    <nd ref="247491619"/>
    <nd ref="247490482"/>
    <nd ref="247491620"/>
    <nd ref="247490543"/>
    <nd ref="247490813"/>
    <nd ref="247490814"/>
    <nd ref="247490815"/>
    <nd ref="247490816"/>
    <nd ref="247493428"/>
    <nd ref="247400085"/>
    <nd ref="247493471"/>
    <nd ref="247493236"/>
    <nd ref="247490880"/>
    <nd ref="247490890"/>
    <nd ref="247400104"/>
    <nd ref="596225208"/>
    <nd ref="247493707"/>
    <nd ref="596224983"/>
    <nd ref="596225336"/>
    <nd ref="191063441"/>
    <nd ref="247497758"/>
    <nd ref="50541494"/>
    <nd ref="247500792"/>
    <nd ref="642581578"/>
    <nd ref="31560493"/>
    <tag k="highway" v="secondary"/>
    <tag k="name" v="Hawthorn Road"/>
    <tag k="railway" v="tram"/>
  </way>
  <way id="25757543" version="4" timestamp="2010-04-06T03:33:25Z" uid="74617" user="JohnSmith" changeset="4340174">
    <nd ref="247485363"/>
    <nd ref="247489991"/>
    <nd ref="247491946"/>
    <nd ref="247485362"/>
    <nd ref="247485361"/>
    <nd ref="247485360"/>
    <nd ref="247485359"/>
    <nd ref="247485358"/>
    <nd ref="247485357"/>
    <nd ref="247485356"/>
    <nd ref="247485355"/>
    <nd ref="247485354"/>
    <nd ref="247485353"/>
    <nd ref="247485352"/>
    <nd ref="247485351"/>
    <nd ref="31562207"/>
    <tag k="highway" v="secondary"/>
    <tag k="name" v="Hawthorn Road"/>
    <tag k="railway" v="tram"/>
  </way>
  <way id="25757544" version="3" timestamp="2010-04-06T03:33:25Z" uid="74617" user="JohnSmith" changeset="4340174">
    <nd ref="247485364"/>
    <nd ref="247485363"/>
    <tag k="highway" v="secondary"/>
    <tag k="name" v="Hawthorn Road"/>
    <tag k="railway" v="tram"/>
  </way>
  <way id="25757550" version="7" timestamp="2010-04-06T03:49:14Z" uid="74617" user="JohnSmith" changeset="4340174">
    <nd ref="247485169"/>
    <nd ref="310318455"/>
    <nd ref="310318075"/>
    <nd ref="308177704"/>
    <nd ref="308177726"/>
    <nd ref="628114344"/>
    <nd ref="127614585"/>
    <nd ref="127614587"/>
    <tag k="highway" v="trunk"/>
    <tag k="name" v="North Road"/>
    <tag k="oneway" v="yes"/>
  </way>
  <way id="25757550" version="8" timestamp="2010-05-31T03:01:34Z" uid="4467" user="Rosscoe" changeset="4859198">
    <nd ref="247485169"/>
    <nd ref="310318455"/>
    <nd ref="310318075"/>
    <nd ref="308177704"/>
    <nd ref="308177726"/>
    <nd ref="628114344"/>
    <nd ref="374890335"/>
    <nd ref="127614585"/>
    <nd ref="127614587"/>
    <tag k="highway" v="trunk"/>
    <tag k="name" v="North Road"/>
    <tag k="oneway" v="yes"/>
  </way>
  <way id="25757551" version="8" timestamp="2010-04-06T03:49:12Z" uid="74617" user="JohnSmith" changeset="4340174">
    <nd ref="247484846"/>
    <nd ref="51292356"/>
    <nd ref="47783877"/>
    <nd ref="31561817"/>
    <nd ref="247399437"/>
    <nd ref="247399438"/>
    <nd ref="247399435"/>
    <nd ref="52676819"/>
    <nd ref="247399509"/>
    <nd ref="247399510"/>
    <nd ref="247399511"/>
    <nd ref="247395725"/>
    <nd ref="247511734"/>
    <nd ref="247399782"/>
    <nd ref="631480571"/>
    <nd ref="631480554"/>
    <nd ref="220309186"/>
    <nd ref="220308344"/>
    <nd ref="127606831"/>
    <nd ref="220307880"/>
    <nd ref="26593427"/>
    <nd ref="575474639"/>
    <nd ref="575474751"/>
    <nd ref="247399783"/>
    <nd ref="266266014"/>
    <nd ref="266266042"/>
    <nd ref="29174429"/>
    <nd ref="266267708"/>
    <nd ref="266267693"/>
    <nd ref="266267680"/>
    <nd ref="266267648"/>
    <nd ref="29980376"/>
    <nd ref="127610144"/>
    <nd ref="31561379"/>
    <nd ref="266300582"/>
    <nd ref="266300583"/>
    <nd ref="266300606"/>
    <nd ref="458384853"/>
    <nd ref="266300607"/>
    <nd ref="31559364"/>
    <nd ref="31559368"/>
    <nd ref="31559282"/>
    <nd ref="619079538"/>
    <nd ref="615194055"/>
    <nd ref="619079247"/>
    <tag k="highway" v="trunk"/>
    <tag k="name" v="North Road"/>
    <tag k="oneway" v="yes"/>
  </way>
  <way id="25757552" version="3" timestamp="2010-05-05T01:16:45Z" uid="4467" user="Rosscoe" changeset="4609471">
    <nd ref="247485169"/>
    <nd ref="247484846"/>
    <tag k="highway" v="secondary"/>
    <tag k="name" v="Hawthorn Road"/>
    <tag k="railway" v="tram"/>
    <tag k="source" v="nearmap"/>
  </way>
  <way id="25757553" version="3" timestamp="2010-04-06T03:33:24Z" uid="74617" user="JohnSmith" changeset="4340174">
    <nd ref="247484846"/>
    <nd ref="247491660"/>
    <nd ref="247491658"/>
    <nd ref="247491661"/>
    <nd ref="247485267"/>
    <nd ref="247485266"/>
    <nd ref="247491735"/>
    <nd ref="247485366"/>
    <nd ref="247485365"/>
    <nd ref="247485364"/>
    <tag k="highway" v="secondary"/>
    <tag k="name" v="Hawthorn Road"/>
    <tag k="railway" v="tram"/>
  </way>
  <way id="25757553" version="4" timestamp="2010-05-05T01:16:46Z" uid="4467" user="Rosscoe" changeset="4609471">
    <nd ref="247484846"/>
    <nd ref="247491660"/>
    <nd ref="247491658"/>
    <nd ref="247491661"/>
    <nd ref="247485267"/>
    <nd ref="247485266"/>
    <nd ref="247491735"/>
    <nd ref="247485366"/>
    <nd ref="247485365"/>
    <nd ref="247485364"/>
    <tag k="highway" v="secondary"/>
    <tag k="name" v="Hawthorn Road"/>
    <tag k="railway" v="tram"/>
    <tag k="source" v="nearmap"/>
  </way>
  <way id="25757563" version="4" timestamp="2010-04-06T03:33:25Z" uid="74617" user="JohnSmith" changeset="4340174">
    <nd ref="280899095"/>
    <nd ref="280899096"/>
    <nd ref="374948245"/>
    <nd ref="280899097"/>
    <nd ref="280899079"/>
    <tag k="highway" v="secondary"/>
    <tag k="name" v="Hawthorn Road"/>
    <tag k="oneway" v="yes"/>
  </way>
  <way id="25757567" version="2" timestamp="2010-04-06T03:33:25Z" uid="74617" user="JohnSmith" changeset="4340174">
    <nd ref="280899079"/>
    <nd ref="280899098"/>
    <nd ref="280899099"/>
    <nd ref="280899145"/>
    <nd ref="280899101"/>
    <tag k="highway" v="secondary"/>
    <tag k="name" v="Hawthorn Road"/>
    <tag k="oneway" v="yes"/>
  </way>
  <way id="25757601" version="2" timestamp="2008-09-05T11:24:33Z" uid="1066" user="pavel" changeset="539695">
    <nd ref="280899743"/>
    <nd ref="280899749"/>
    <nd ref="280899748"/>
    <nd ref="280899747"/>
    <nd ref="280899742"/>
    <tag k="created_by" v="JOSM"/>
    <tag k="highway" v="residential"/>
    <tag k="name" v="Generála Svobody"/>
    <tag k="name:source" v="nameit/uir-adr"/>
    <tag k="source" v="UHUL:ortofoto"/>
  </way>
  <way id="25757602" version="2" timestamp="2008-09-05T11:24:39Z" uid="1066" user="pavel" changeset="539695">
    <nd ref="280899925"/>
    <nd ref="280899924"/>
    <nd ref="280899955"/>
    <nd ref="280899927"/>
    <nd ref="280899926"/>
    <nd ref="280899953"/>
    <nd ref="280899952"/>
    <nd ref="280899929"/>
    <nd ref="280899937"/>
    <tag k="created_by" v="JOSM"/>
    <tag k="highway" v="residential"/>
    <tag k="name" v="Jarní"/>
    <tag k="name:source" v="nameit/uir-adr"/>
    <tag k="source" v="UHUL:ortofoto"/>
  </way>
  <way id="25757603" version="2" timestamp="2008-09-05T11:24:37Z" uid="1066" user="pavel" changeset="539695">
    <nd ref="280899839"/>
    <nd ref="280899836"/>
    <nd ref="280899837"/>
    <nd ref="280899820"/>
    <tag k="created_by" v="JOSM"/>
    <tag k="highway" v="residential"/>
    <tag k="name" v="Neklanova"/>
    <tag k="name:source" v="nameit/uir-adr"/>
    <tag k="source" v="UHUL:ortofoto"/>
  </way>
  <way id="25757604" version="2" timestamp="2008-09-05T11:24:40Z" uid="1066" user="pavel" changeset="539695">
    <nd ref="280899953"/>
    <nd ref="280899954"/>
    <tag k="created_by" v="JOSM"/>
    <tag k="highway" v="residential"/>
    <tag k="name" v="Poděbradská"/>
    <tag k="name:source" v="nameit/uir-adr"/>
    <tag k="source" v="UHUL:ortofoto"/>
  </way>
  <way id="25757605" version="2" timestamp="2008-09-05T11:25:19Z" uid="1066" user="pavel" changeset="539695">
    <nd ref="280899390"/>
    <nd ref="280899446"/>
    <nd ref="280899445"/>
    <nd ref="280899448"/>
    <tag k="created_by" v="JOSM"/>
    <tag k="highway" v="residential"/>
    <tag k="name" v="Široká"/>
    <tag k="name:source" v="nameit/uir-adr"/>
    <tag k="source" v="UHUL:ortofoto"/>
  </way>
  <way id="25757607" version="2" timestamp="2008-09-05T11:25:23Z" uid="1066" user="pavel" changeset="539695">
    <nd ref="73417841"/>
    <nd ref="280899927"/>
    <nd ref="280899922"/>
    <tag k="created_by" v="JOSM"/>
    <tag k="highway" v="residential"/>
    <tag k="name" v="Lidická"/>
    <tag k="name:source" v="nameit/uir-adr"/>
    <tag k="source" v="UHUL:ortofoto"/>
  </way>
  <way id="25757608" version="2" timestamp="2008-09-05T11:25:11Z" uid="1066" user="pavel" changeset="539695">
    <nd ref="280899441"/>
    <nd ref="280899444"/>
    <nd ref="280899443"/>
    <tag k="created_by" v="JOSM"/>
    <tag k="highway" v="residential"/>
    <tag k="name" v="Tatranská"/>
    <tag k="name:source" v="nameit/uir-adr"/>
    <tag k="source" v="UHUL:ortofoto"/>
  </way>
  <way id="25757609" version="2" timestamp="2008-09-05T11:24:17Z" uid="1066" user="pavel" changeset="539695">
    <nd ref="280899873"/>
    <nd ref="280899874"/>
    <nd ref="280899875"/>
    <tag k="created_by" v="JOSM"/>
    <tag k="highway" v="residential"/>
    <tag k="name" v="Křesomyslova"/>
    <tag k="name:source" v="nameit/uir-adr"/>
    <tag k="source" v="UHUL:ortofoto"/>
  </way>
  <way id="25757610" version="2" timestamp="2008-09-05T11:24:17Z" uid="1066" user="pavel" changeset="539695">
    <nd ref="73431142"/>
    <nd ref="280899757"/>
    <nd ref="280899753"/>
    <nd ref="280899750"/>
    <tag k="created_by" v="JOSM"/>
    <tag k="highway" v="residential"/>
    <tag k="name" v="Kádnerova"/>
    <tag k="name:source" v="nameit/uir-adr"/>
    <tag k="source" v="UHUL:ortofoto"/>
  </way>
  <way id="25757611" version="2" timestamp="2008-09-05T11:24:04Z" uid="1066" user="pavel" changeset="539695">
    <nd ref="280899952"/>
    <nd ref="280899831"/>
    <tag k="created_by" v="JOSM"/>
    <tag k="highway" v="residential"/>
    <tag k="name" v="Šimáčkova"/>
    <tag k="name:source" v="nameit/uir-adr"/>
    <tag k="source" v="UHUL:ortofoto"/>
  </way>
  <way id="25757612" version="2" timestamp="2008-09-05T11:23:48Z" uid="1066" user="pavel" changeset="539695">
    <nd ref="280899848"/>
    <nd ref="280899844"/>
    <tag k="created_by" v="JOSM"/>
    <tag k="highway" v="residential"/>
    <tag k="name" v="Legií"/>
    <tag k="name:source" v="nameit/uir-adr"/>
    <tag k="source" v="UHUL:ortofoto"/>
  </way>
  <way id="25757613" version="2" timestamp="2008-09-05T11:24:59Z" uid="1066" user="pavel" changeset="539695">
    <nd ref="280899955"/>
    <nd ref="73423529"/>
    <tag k="created_by" v="JOSM"/>
    <tag k="highway" v="residential"/>
    <tag k="name" v="Jarní"/>
    <tag k="name:source" v="nameit/uir-adr"/>
    <tag k="source" v="UHUL:ortofoto"/>
  </way>
  <way id="25757614" version="2" timestamp="2008-09-05T11:25:00Z" uid="1066" user="pavel" changeset="539695">
    <nd ref="280899834"/>
    <nd ref="280899835"/>
    <nd ref="280899832"/>
    <nd ref="280899833"/>
    <nd ref="280899830"/>
    <nd ref="280899662"/>
    <tag k="created_by" v="JOSM"/>
    <tag k="highway" v="residential"/>
    <tag k="name" v="U Pramenů"/>
    <tag k="name:source" v="nameit/uir-adr"/>
    <tag k="source" v="UHUL:ortofoto"/>
  </way>
  <way id="25757615" version="2" timestamp="2008-09-05T11:25:03Z" uid="1066" user="pavel" changeset="539695">
    <nd ref="280899745"/>
    <nd ref="280899742"/>
    <nd ref="280899758"/>
    <nd ref="280899688"/>
    <tag k="created_by" v="JOSM"/>
    <tag k="highway" v="residential"/>
    <tag k="name" v="Bezová"/>
    <tag k="name:source" v="nameit/uir-adr"/>
    <tag k="source" v="UHUL:ortofoto"/>
  </way>
  <way id="25757616" version="2" timestamp="2008-09-05T11:24:57Z" uid="1066" user="pavel" changeset="539695">
    <nd ref="280899831"/>
    <nd ref="280899937"/>
    <nd ref="280899936"/>
    <nd ref="280899923"/>
    <nd ref="280899933"/>
    <tag k="created_by" v="JOSM"/>
    <tag k="highway" v="residential"/>
    <tag k="name" v="Šimáčkova"/>
    <tag k="name:source" v="nameit/uir-adr"/>
    <tag k="source" v="UHUL:ortofoto"/>
  </way>
  <way id="25757617" version="2" timestamp="2008-09-05T11:24:27Z" uid="1066" user="pavel" changeset="539695">
    <nd ref="280899425"/>
    <nd ref="280899418"/>
    <tag k="created_by" v="JOSM"/>
    <tag k="highway" v="residential"/>
    <tag k="name" v="Matoušova"/>
    <tag k="name:source" v="nameit/uir-adr"/>
    <tag k="source" v="UHUL:ortofoto"/>
  </way>
  <way id="25757619" version="2" timestamp="2008-09-05T11:24:25Z" uid="1066" user="pavel" changeset="539695">
    <nd ref="280899444"/>
    <nd ref="280899442"/>
    <tag k="created_by" v="JOSM"/>
    <tag k="highway" v="residential"/>
    <tag k="name" v="Kladenská"/>
    <tag k="name:source" v="nameit/uir-adr"/>
    <tag k="source" v="UHUL:ortofoto"/>
  </way>
  <way id="25757620" version="2" timestamp="2008-09-05T11:24:02Z" uid="1066" user="pavel" changeset="539695">
    <nd ref="268874878"/>
    <nd ref="280899971"/>
    <nd ref="280899970"/>
    <nd ref="280899972"/>
    <nd ref="280899973"/>
    <nd ref="280899974"/>
    <nd ref="280899975"/>
    <nd ref="280899976"/>
    <tag k="created_by" v="JOSM"/>
    <tag k="highway" v="residential"/>
    <tag k="name" v="U Domoviny"/>
    <tag k="name:source" v="nameit/uir-adr"/>
    <tag k="source" v="UHUL:ortofoto"/>
  </way>
  <way id="25757621" version="2" timestamp="2008-09-05T11:23:44Z" uid="1066" user="pavel" changeset="539695">
    <nd ref="201958394"/>
    <nd ref="280900027"/>
    <nd ref="280900028"/>
    <nd ref="280900029"/>
    <nd ref="280900030"/>
    <nd ref="280900031"/>
    <nd ref="280900032"/>
    <nd ref="280900033"/>
    <nd ref="280900034"/>
    <nd ref="280900035"/>
    <nd ref="280900036"/>
    <nd ref="280900037"/>
    <nd ref="280900038"/>
    <nd ref="280900039"/>
    <tag k="created_by" v="JOSM"/>
    <tag k="highway" v="residential"/>
    <tag k="name" v="Klicperova"/>
    <tag k="name:source" v="nameit/uir-adr"/>
    <tag k="source" v="UHUL:ortofoto"/>
  </way>
  <way id="25757623" version="2" timestamp="2008-09-05T11:24:00Z" uid="1066" user="pavel" changeset="539695">
    <nd ref="280900011"/>
    <nd ref="280900012"/>
    <nd ref="280900013"/>
    <nd ref="280899991"/>
    <nd ref="280900014"/>
    <nd ref="280900015"/>
    <nd ref="280900016"/>
    <nd ref="280900017"/>
    <nd ref="280900018"/>
    <tag k="created_by" v="JOSM"/>
    <tag k="highway" v="residential"/>
    <tag k="name" v="Energetiků"/>
    <tag k="name:source" v="nameit/uir-adr"/>
    <tag k="source" v="UHUL:ortofoto"/>
  </way>
  <way id="25757627" version="2" timestamp="2008-09-05T11:24:41Z" uid="1066" user="pavel" changeset="539695">
    <nd ref="280899428"/>
    <nd ref="280899432"/>
    <tag k="created_by" v="JOSM"/>
    <tag k="highway" v="residential"/>
    <tag k="name" v="Matoušova"/>
    <tag k="name:source" v="nameit/uir-adr"/>
    <tag k="source" v="UHUL:ortofoto"/>
  </way>
  <way id="25757629" version="2" timestamp="2008-09-05T11:24:30Z" uid="1066" user="pavel" changeset="539695">
    <nd ref="280899965"/>
    <nd ref="280899968"/>
    <nd ref="280899969"/>
    <nd ref="280900018"/>
    <nd ref="280899970"/>
    <tag k="created_by" v="JOSM"/>
    <tag k="highway" v="residential"/>
    <tag k="name" v="U Domoviny"/>
    <tag k="name:source" v="nameit/uir-adr"/>
    <tag k="source" v="UHUL:ortofoto"/>
  </way>
  <way id="25757630" version="2" timestamp="2008-09-05T11:24:20Z" uid="1066" user="pavel" changeset="539695">
    <nd ref="280899904"/>
    <nd ref="280899965"/>
    <nd ref="280899966"/>
    <nd ref="280899967"/>
    <nd ref="268874878"/>
    <tag k="created_by" v="JOSM"/>
    <tag k="highway" v="residential"/>
    <tag k="name" v="Mikulášská"/>
    <tag k="name:source" v="nameit/uir-adr"/>
    <tag k="source" v="UHUL:ortofoto"/>
  </way>
  <way id="25757634" version="2" timestamp="2008-09-05T11:23:28Z" uid="1066" user="pavel" changeset="539695">
    <nd ref="280899814"/>
    <nd ref="280899810"/>
    <nd ref="280899809"/>
    <nd ref="280899808"/>
    <tag k="created_by" v="JOSM"/>
    <tag k="highway" v="residential"/>
    <tag k="name" v="Hroznová"/>
    <tag k="name:source" v="nameit/uir-adr"/>
    <tag k="source" v="UHUL:ortofoto"/>
  </way>
  <way id="25757636" version="2" timestamp="2008-09-05T11:23:24Z" uid="1066" user="pavel" changeset="539695">
    <nd ref="280899722"/>
    <nd ref="280899838"/>
    <nd ref="280899819"/>
    <nd ref="280899820"/>
    <nd ref="280899817"/>
    <nd ref="280899863"/>
    <tag k="created_by" v="JOSM"/>
    <tag k="highway" v="residential"/>
    <tag k="name" v="Neklanova"/>
    <tag k="name:source" v="nameit/uir-adr"/>
    <tag k="source" v="UHUL:ortofoto"/>
  </way>
  <way id="25757637" version="2" timestamp="2008-09-05T11:24:18Z" uid="1066" user="pavel" changeset="539695">
    <nd ref="280899864"/>
    <nd ref="280899865"/>
    <nd ref="280899866"/>
    <nd ref="280899808"/>
    <nd ref="280899867"/>
    <nd ref="280899811"/>
    <nd ref="280899856"/>
    <nd ref="280899857"/>
    <nd ref="280899862"/>
    <nd ref="280899863"/>
    <nd ref="280899823"/>
    <nd ref="280899839"/>
    <nd ref="280899822"/>
    <nd ref="204942248"/>
    <tag k="created_by" v="JOSM"/>
    <tag k="highway" v="residential"/>
    <tag k="name" v="Staškova"/>
    <tag k="name:source" v="nameit/uir-adr"/>
    <tag k="source" v="UHUL:ortofoto"/>
  </way>
  <way id="25757638" version="2" timestamp="2008-09-05T11:23:50Z" uid="1066" user="pavel" changeset="539695">
    <nd ref="280899868"/>
    <nd ref="280899874"/>
    <tag k="created_by" v="JOSM"/>
    <tag k="highway" v="residential"/>
    <tag k="name" v="Roháčova"/>
    <tag k="name:source" v="nameit/uir-adr"/>
    <tag k="source" v="UHUL:ortofoto"/>
  </way>
  <way id="25757639" version="2" timestamp="2008-09-05T11:23:35Z" uid="1066" user="pavel" changeset="539695">
    <nd ref="280899725"/>
    <nd ref="280899849"/>
    <nd ref="280899848"/>
    <nd ref="280899851"/>
    <nd ref="280899850"/>
    <nd ref="280899845"/>
    <nd ref="280899844"/>
    <nd ref="280899669"/>
    <tag k="created_by" v="JOSM"/>
    <tag k="highway" v="residential"/>
    <tag k="name" v="Borový vrch"/>
    <tag k="name:source" v="nameit/uir-adr"/>
    <tag k="source" v="UHUL:ortofoto"/>
  </way>
  <way id="25757640" version="2" timestamp="2008-09-05T11:23:33Z" uid="1066" user="pavel" changeset="539695">
    <nd ref="280899827"/>
    <nd ref="280899826"/>
    <nd ref="280899829"/>
    <nd ref="280899828"/>
    <nd ref="280899831"/>
    <nd ref="280899954"/>
    <nd ref="280899686"/>
    <nd ref="280899922"/>
    <nd ref="280899925"/>
    <nd ref="73301145"/>
    <nd ref="280899772"/>
    <nd ref="280899774"/>
    <nd ref="280899779"/>
    <nd ref="280899669"/>
    <tag k="created_by" v="JOSM"/>
    <tag k="highway" v="residential"/>
    <tag k="name" v="Šimáčkova"/>
    <tag k="name:source" v="nameit/uir-adr"/>
    <tag k="source" v="UHUL:ortofoto"/>
  </way>
  <way id="25757641" version="2" timestamp="2008-09-05T11:24:08Z" uid="1066" user="pavel" changeset="539695">
    <nd ref="280899843"/>
    <nd ref="280899841"/>
    <nd ref="280899846"/>
    <nd ref="280899873"/>
    <nd ref="280899842"/>
    <nd ref="280899872"/>
    <tag k="created_by" v="JOSM"/>
    <tag k="highway" v="residential"/>
    <tag k="name" v="Věkova"/>
    <tag k="name:source" v="nameit/uir-adr"/>
    <tag k="source" v="UHUL:ortofoto"/>
  </way>
  <way id="25757642" version="2" timestamp="2008-09-05T11:24:18Z" uid="1066" user="pavel" changeset="539695">
    <nd ref="280899846"/>
    <nd ref="280899868"/>
    <nd ref="280899726"/>
    <tag k="created_by" v="JOSM"/>
    <tag k="highway" v="residential"/>
    <tag k="name" v="Roháčova"/>
    <tag k="name:source" v="nameit/uir-adr"/>
    <tag k="source" v="UHUL:ortofoto"/>
  </way>
  <way id="25757643" version="2" timestamp="2008-09-05T11:24:47Z" uid="1066" user="pavel" changeset="539695">
    <nd ref="280899948"/>
    <nd ref="280899943"/>
    <nd ref="280899942"/>
    <nd ref="280899956"/>
    <nd ref="280899899"/>
    <nd ref="249079814"/>
    <tag k="created_by" v="JOSM"/>
    <tag k="highway" v="residential"/>
    <tag k="name" v="Balbínova"/>
    <tag k="name:source" v="nameit/uir-adr"/>
    <tag k="source" v="UHUL:ortofoto"/>
  </way>
  <way id="25757644" version="2" timestamp="2008-09-05T11:24:49Z" uid="1066" user="pavel" changeset="539695">
    <nd ref="280899746"/>
    <nd ref="280899753"/>
    <nd ref="280899752"/>
    <nd ref="280899751"/>
    <nd ref="280899694"/>
    <tag k="created_by" v="JOSM"/>
    <tag k="highway" v="residential"/>
    <tag k="name" v="Plzeňská"/>
    <tag k="name:source" v="nameit/uir-adr"/>
    <tag k="source" v="UHUL:ortofoto"/>
  </way>
  <way id="25757646" version="2" timestamp="2008-09-05T11:24:12Z" uid="1066" user="pavel" changeset="539695">
    <nd ref="280899871"/>
    <nd ref="280899870"/>
    <nd ref="280899843"/>
    <tag k="created_by" v="JOSM"/>
    <tag k="highway" v="residential"/>
    <tag k="name" v="Markova"/>
    <tag k="name:source" v="nameit/uir-adr"/>
    <tag k="source" v="UHUL:ortofoto"/>
  </way>
  <way id="25757649" version="2" timestamp="2008-09-05T11:25:01Z" uid="1066" user="pavel" changeset="539695">
    <nd ref="280899845"/>
    <nd ref="280899847"/>
    <tag k="created_by" v="JOSM"/>
    <tag k="highway" v="residential"/>
    <tag k="name" v="Na Pískovně"/>
    <tag k="name:source" v="nameit/uir-adr"/>
    <tag k="source" v="UHUL:ortofoto"/>
  </way>
  <way id="25757651" version="2" timestamp="2008-09-05T11:25:08Z" uid="1066" user="pavel" changeset="539695">
    <nd ref="280899841"/>
    <nd ref="280899869"/>
    <nd ref="280899840"/>
    <tag k="created_by" v="JOSM"/>
    <tag k="highway" v="residential"/>
    <tag k="name" v="Kmochova"/>
    <tag k="name:source" v="nameit/uir-adr"/>
    <tag k="source" v="UHUL:ortofoto"/>
  </way>
  <way id="25757653" version="2" timestamp="2008-09-05T11:24:49Z" uid="1066" user="pavel" changeset="539695">
    <nd ref="280899147"/>
    <nd ref="280899169"/>
    <nd ref="280899168"/>
    <nd ref="280899155"/>
    <tag k="created_by" v="JOSM"/>
    <tag k="highway" v="residential"/>
    <tag k="name" v="Mánesova"/>
    <tag k="name:source" v="nameit/uir-adr"/>
    <tag k="source" v="UHUL:ortofoto"/>
  </way>
  <way id="25757654" version="2" timestamp="2008-09-05T11:24:21Z" uid="1066" user="pavel" changeset="539695">
    <nd ref="280899760"/>
    <nd ref="280899853"/>
    <nd ref="280899759"/>
    <nd ref="280899758"/>
    <tag k="created_by" v="JOSM"/>
    <tag k="highway" v="residential"/>
    <tag k="name" v="Bezová"/>
    <tag k="name:source" v="nameit/uir-adr"/>
    <tag k="source" v="UHUL:ortofoto"/>
  </way>
  <way id="25757656" version="2" timestamp="2008-09-05T11:24:03Z" uid="1066" user="pavel" changeset="539695">
    <nd ref="280899697"/>
    <nd ref="280899696"/>
    <nd ref="280899680"/>
    <tag k="created_by" v="JOSM"/>
    <tag k="highway" v="residential"/>
    <tag k="name" v="Květnové revoluce"/>
    <tag k="name:source" v="nameit/uir-adr"/>
    <tag k="source" v="UHUL:ortofoto"/>
  </way>
  <way id="25757658" version="2" timestamp="2008-09-05T11:25:15Z" uid="1066" user="pavel" changeset="539695">
    <nd ref="280899540"/>
    <nd ref="280899523"/>
    <tag k="created_by" v="JOSM"/>
    <tag k="highway" v="residential"/>
    <tag k="name" v="Bachmačská"/>
    <tag k="name:source" v="nameit/uir-adr"/>
    <tag k="source" v="UHUL:ortofoto"/>
  </way>
  <way id="25757659" version="2" timestamp="2008-09-05T11:25:21Z" uid="1066" user="pavel" changeset="539695">
    <nd ref="280899630"/>
    <nd ref="280899657"/>
    <nd ref="280899660"/>
    <nd ref="280899659"/>
    <nd ref="280899662"/>
    <nd ref="280899640"/>
    <tag k="created_by" v="JOSM"/>
    <tag k="highway" v="residential"/>
    <tag k="name" v="Michelský vrch"/>
    <tag k="name:source" v="nameit/uir-adr"/>
    <tag k="source" v="UHUL:ortofoto"/>
  </way>
  <way id="25757660" version="2" timestamp="2008-09-05T11:24:58Z" uid="1066" user="pavel" changeset="539695">
    <nd ref="73429851"/>
    <nd ref="280899687"/>
    <nd ref="280899695"/>
    <nd ref="280899755"/>
    <nd ref="280899746"/>
    <nd ref="280899694"/>
    <nd ref="280899692"/>
    <nd ref="280899688"/>
    <nd ref="280899725"/>
    <tag k="created_by" v="JOSM"/>
    <tag k="highway" v="residential"/>
    <tag k="name" v="Borový vrch"/>
    <tag k="name:source" v="nameit/uir-adr"/>
    <tag k="source" v="UHUL:ortofoto"/>
  </way>
  <way id="25757661" version="2" timestamp="2008-09-05T11:23:29Z" uid="1066" user="pavel" changeset="539695">
    <nd ref="280899800"/>
    <nd ref="280899803"/>
    <nd ref="280899802"/>
    <tag k="created_by" v="JOSM"/>
    <tag k="highway" v="residential"/>
    <tag k="name" v="Berounská"/>
    <tag k="name:source" v="nameit/uir-adr"/>
    <tag k="source" v="UHUL:ortofoto"/>
  </way>
  <way id="25757662" version="2" timestamp="2008-09-05T11:23:54Z" uid="1066" user="pavel" changeset="539695">
    <nd ref="280899779"/>
    <nd ref="280899737"/>
    <nd ref="280899734"/>
    <nd ref="280899735"/>
    <nd ref="280899738"/>
    <nd ref="280899744"/>
    <nd ref="280899802"/>
    <tag k="created_by" v="JOSM"/>
    <tag k="highway" v="residential"/>
    <tag k="name" v="Břetislavova"/>
    <tag k="name:source" v="nameit/uir-adr"/>
    <tag k="source" v="UHUL:ortofoto"/>
  </way>
  <way id="25757663" version="2" timestamp="2008-09-05T11:23:41Z" uid="1066" user="pavel" changeset="539695">
    <nd ref="280899150"/>
    <nd ref="280899189"/>
    <nd ref="280899147"/>
    <nd ref="280899148"/>
    <nd ref="280899146"/>
    <nd ref="280899149"/>
    <nd ref="280899142"/>
    <nd ref="280899153"/>
    <nd ref="280899154"/>
    <nd ref="280899151"/>
    <tag k="created_by" v="JOSM"/>
    <tag k="highway" v="residential"/>
    <tag k="name" v="Jáchymovská"/>
    <tag k="name:source" v="nameit/uir-adr"/>
    <tag k="source" v="UHUL:ortofoto"/>
  </way>
  <way id="25757664" version="2" timestamp="2008-09-05T11:24:01Z" uid="1066" user="pavel" changeset="539695">
    <nd ref="280899668"/>
    <nd ref="280899800"/>
    <nd ref="280899798"/>
    <nd ref="280899799"/>
    <nd ref="280899796"/>
    <nd ref="280899805"/>
    <nd ref="280899804"/>
    <nd ref="280899732"/>
    <nd ref="280899733"/>
    <nd ref="280899730"/>
    <nd ref="280899677"/>
    <tag k="created_by" v="JOSM"/>
    <tag k="highway" v="residential"/>
    <tag k="name" v="Na Cvičišti"/>
    <tag k="name:source" v="nameit/uir-adr"/>
    <tag k="source" v="UHUL:ortofoto"/>
  </way>
  <way id="25757665" version="2" timestamp="2008-09-05T11:25:11Z" uid="1066" user="pavel" changeset="539695">
    <nd ref="280899756"/>
    <nd ref="280899755"/>
    <tag k="created_by" v="JOSM"/>
    <tag k="highway" v="residential"/>
    <tag k="name" v="Pštrosí"/>
    <tag k="name:source" v="nameit/uir-adr"/>
    <tag k="source" v="UHUL:ortofoto"/>
  </way>
  <way id="25757666" version="2" timestamp="2008-09-05T11:25:18Z" uid="1066" user="pavel" changeset="539695">
    <nd ref="280899798"/>
    <nd ref="280899801"/>
    <tag k="created_by" v="JOSM"/>
    <tag k="highway" v="residential"/>
    <tag k="name" v="Cvičná"/>
    <tag k="name:source" v="nameit/uir-adr"/>
    <tag k="source" v="UHUL:ortofoto"/>
  </way>
  <way id="25757667" version="2" timestamp="2008-09-05T11:24:38Z" uid="1066" user="pavel" changeset="539695">
    <nd ref="280899804"/>
    <nd ref="280899731"/>
    <nd ref="280899736"/>
    <tag k="created_by" v="JOSM"/>
    <tag k="highway" v="residential"/>
    <tag k="name" v="Na Cvičišti"/>
    <tag k="name:source" v="nameit/uir-adr"/>
    <tag k="source" v="UHUL:ortofoto"/>
  </way>
  <way id="25757668" version="2" timestamp="2008-09-05T11:25:20Z" uid="1066" user="pavel" changeset="539695">
    <nd ref="280899854"/>
    <nd ref="280899855"/>
    <nd ref="280899725"/>
    <tag k="created_by" v="JOSM"/>
    <tag k="highway" v="residential"/>
    <tag k="name" v="Vrchlického"/>
    <tag k="name:source" v="nameit/uir-adr"/>
    <tag k="source" v="UHUL:ortofoto"/>
  </way>
  <way id="25757669" version="2" timestamp="2008-09-05T11:25:01Z" uid="1066" user="pavel" changeset="539695">
    <nd ref="280899793"/>
    <nd ref="280899792"/>
    <nd ref="280899795"/>
    <tag k="created_by" v="JOSM"/>
    <tag k="highway" v="residential"/>
    <tag k="name" v="Jiráskova"/>
    <tag k="name:source" v="nameit/uir-adr"/>
    <tag k="source" v="UHUL:ortofoto"/>
  </way>
  <way id="25757670" version="2" timestamp="2008-09-05T11:24:59Z" uid="1066" user="pavel" changeset="539695">
    <nd ref="280899819"/>
    <nd ref="280899818"/>
    <nd ref="280899816"/>
    <nd ref="280899857"/>
    <tag k="created_by" v="JOSM"/>
    <tag k="highway" v="residential"/>
    <tag k="name" v="Havraní"/>
    <tag k="name:source" v="nameit/uir-adr"/>
    <tag k="source" v="UHUL:ortofoto"/>
  </way>
  <way id="25757671" version="2" timestamp="2008-09-05T11:25:05Z" uid="1066" user="pavel" changeset="539695">
    <nd ref="280899938"/>
    <nd ref="280899957"/>
    <nd ref="280899940"/>
    <nd ref="280899941"/>
    <nd ref="280899826"/>
    <nd ref="280899824"/>
    <nd ref="280899825"/>
    <nd ref="280899931"/>
    <nd ref="280899930"/>
    <nd ref="280899933"/>
    <nd ref="280899932"/>
    <nd ref="280899934"/>
    <nd ref="280899935"/>
    <nd ref="280899824"/>
    <tag k="created_by" v="JOSM"/>
    <tag k="highway" v="residential"/>
    <tag k="name" v="Jabloňová"/>
    <tag k="name:source" v="nameit/uir-adr"/>
    <tag k="source" v="UHUL:ortofoto"/>
  </way>
  <way id="25757672" version="2" timestamp="2008-09-05T11:24:48Z" uid="1066" user="pavel" changeset="539695">
    <nd ref="280899853"/>
    <nd ref="280899852"/>
    <tag k="created_by" v="JOSM"/>
    <tag k="highway" v="residential"/>
    <tag k="name" v="Vrchlického"/>
    <tag k="name:source" v="nameit/uir-adr"/>
    <tag k="source" v="UHUL:ortofoto"/>
  </way>
  <way id="25757673" version="2" timestamp="2008-09-05T11:25:08Z" uid="1066" user="pavel" changeset="539695">
    <nd ref="280899817"/>
    <nd ref="280899816"/>
    <tag k="created_by" v="JOSM"/>
    <tag k="highway" v="residential"/>
    <tag k="name" v="Senná"/>
    <tag k="name:source" v="nameit/uir-adr"/>
    <tag k="source" v="UHUL:ortofoto"/>
  </way>
  <way id="25757674" version="2" timestamp="2008-09-05T11:25:09Z" uid="1066" user="pavel" changeset="539695">
    <nd ref="280899810"/>
    <nd ref="280899807"/>
    <nd ref="280899806"/>
    <tag k="created_by" v="JOSM"/>
    <tag k="highway" v="residential"/>
    <tag k="name" v="Hroznová"/>
    <tag k="name:source" v="nameit/uir-adr"/>
    <tag k="source" v="UHUL:ortofoto"/>
  </way>
  <way id="25757675" version="2" timestamp="2008-09-05T11:24:56Z" uid="1066" user="pavel" changeset="539695">
    <nd ref="280899923"/>
    <nd ref="280899928"/>
    <nd ref="280899950"/>
    <nd ref="280899951"/>
    <nd ref="280899929"/>
    <tag k="created_by" v="JOSM"/>
    <tag k="highway" v="residential"/>
    <tag k="name" v="Jarní"/>
    <tag k="name:source" v="nameit/uir-adr"/>
    <tag k="source" v="UHUL:ortofoto"/>
  </way>
  <way id="25757676" version="2" timestamp="2008-09-05T11:23:47Z" uid="1066" user="pavel" changeset="539695">
    <nd ref="280899638"/>
    <nd ref="280899662"/>
    <tag k="created_by" v="JOSM"/>
    <tag k="highway" v="residential"/>
    <tag k="name" v="Michelský vrch"/>
    <tag k="name:source" v="nameit/uir-adr"/>
    <tag k="source" v="UHUL:ortofoto"/>
  </way>
  <way id="25757677" version="2" timestamp="2008-09-05T11:25:18Z" uid="1066" user="pavel" changeset="539695">
    <nd ref="73437620"/>
    <nd ref="280899750"/>
    <nd ref="280899695"/>
    <nd ref="73426935"/>
    <tag k="created_by" v="JOSM"/>
    <tag k="highway" v="residential"/>
    <tag k="name" v="Smetanova"/>
    <tag k="name:source" v="nameit/uir-adr"/>
    <tag k="source" v="UHUL:ortofoto"/>
  </way>
  <way id="25757678" version="2" timestamp="2008-09-05T11:25:20Z" uid="1066" user="pavel" changeset="539695">
    <nd ref="280899680"/>
    <nd ref="280899679"/>
    <nd ref="280899678"/>
    <tag k="created_by" v="JOSM"/>
    <tag k="highway" v="residential"/>
    <tag k="name" v="Kosmova"/>
    <tag k="name:source" v="nameit/uir-adr"/>
    <tag k="source" v="UHUL:ortofoto"/>
  </way>
  <way id="25757680" version="2" timestamp="2008-09-05T11:24:57Z" uid="1066" user="pavel" changeset="539695">
    <nd ref="280899811"/>
    <nd ref="280899812"/>
    <nd ref="280899814"/>
    <nd ref="280899818"/>
    <tag k="created_by" v="JOSM"/>
    <tag k="highway" v="residential"/>
    <tag k="name" v="Hroznová"/>
    <tag k="name:source" v="nameit/uir-adr"/>
    <tag k="source" v="UHUL:ortofoto"/>
  </way>
  <way id="25757681" version="2" timestamp="2008-09-05T11:23:52Z" uid="1066" user="pavel" changeset="539695">
    <nd ref="280899681"/>
    <nd ref="280899727"/>
    <tag k="created_by" v="JOSM"/>
    <tag k="highway" v="residential"/>
    <tag k="name" v="Sokolovská"/>
    <tag k="name:source" v="nameit/uir-adr"/>
    <tag k="source" v="UHUL:ortofoto"/>
  </way>
  <way id="25757682" version="2" timestamp="2008-09-05T11:23:43Z" uid="1066" user="pavel" changeset="539695">
    <nd ref="280899774"/>
    <nd ref="280899780"/>
    <nd ref="280899739"/>
    <nd ref="280899783"/>
    <nd ref="280899788"/>
    <tag k="created_by" v="JOSM"/>
    <tag k="highway" v="residential"/>
    <tag k="name" v="Slunná"/>
    <tag k="name:source" v="nameit/uir-adr"/>
    <tag k="source" v="UHUL:ortofoto"/>
  </way>
  <way id="25757683" version="2" timestamp="2008-09-05T11:23:48Z" uid="1066" user="pavel" changeset="539695">
    <nd ref="280899799"/>
    <nd ref="280899788"/>
    <tag k="created_by" v="JOSM"/>
    <tag k="highway" v="residential"/>
    <tag k="name" v="Schillerova"/>
    <tag k="name:source" v="nameit/uir-adr"/>
    <tag k="source" v="UHUL:ortofoto"/>
  </way>
  <way id="25757684" version="4" timestamp="2010-04-26T14:00:27Z" uid="4467" user="Rosscoe" changeset="4532178">
    <nd ref="266261632"/>
    <nd ref="29174429"/>
    <tag k="highway" v="primary"/>
    <tag k="oneway" v="yes"/>
  </way>
  <way id="25757685" version="2" timestamp="2008-09-05T11:23:28Z" uid="1066" user="pavel" changeset="539695">
    <nd ref="73409600"/>
    <nd ref="280899684"/>
    <nd ref="280899721"/>
    <nd ref="280899680"/>
    <nd ref="280899681"/>
    <nd ref="280899683"/>
    <nd ref="280899682"/>
    <nd ref="280899524"/>
    <tag k="created_by" v="JOSM"/>
    <tag k="highway" v="residential"/>
    <tag k="name" v="Květnové revoluce"/>
    <tag k="name:source" v="nameit/uir-adr"/>
    <tag k="source" v="UHUL:ortofoto"/>
  </way>
  <way id="25757686" version="2" timestamp="2008-09-05T11:25:17Z" uid="1066" user="pavel" changeset="539695">
    <nd ref="280899794"/>
    <nd ref="280899790"/>
    <nd ref="280899676"/>
    <nd ref="280899797"/>
    <nd ref="280899736"/>
    <nd ref="280899796"/>
    <nd ref="249079966"/>
    <tag k="created_by" v="JOSM"/>
    <tag k="highway" v="residential"/>
    <tag k="name" v="Bukovského"/>
    <tag k="name:source" v="nameit/uir-adr"/>
    <tag k="source" v="UHUL:ortofoto"/>
  </way>
  <way id="25757689" version="2" timestamp="2008-09-05T11:24:38Z" uid="1066" user="pavel" changeset="539695">
    <nd ref="280899143"/>
    <nd ref="280899140"/>
    <nd ref="280899141"/>
    <nd ref="280899138"/>
    <nd ref="280899139"/>
    <nd ref="280899136"/>
    <nd ref="280899137"/>
    <nd ref="280899132"/>
    <nd ref="280899135"/>
    <nd ref="280899134"/>
    <tag k="created_by" v="JOSM"/>
    <tag k="highway" v="residential"/>
    <tag k="name" v="Tovární"/>
    <tag k="name:source" v="nameit/uir-adr"/>
    <tag k="source" v="UHUL:ortofoto"/>
  </way>
  <way id="25757690" version="2" timestamp="2008-09-05T11:24:41Z" uid="1066" user="pavel" changeset="539695">
    <nd ref="280899122"/>
    <nd ref="280899123"/>
    <tag k="created_by" v="JOSM"/>
    <tag k="highway" v="residential"/>
    <tag k="name" v="Chodská"/>
    <tag k="name:source" v="nameit/uir-adr"/>
    <tag k="source" v="UHUL:ortofoto"/>
  </way>
  <way id="25757691" version="2" timestamp="2008-09-05T11:24:27Z" uid="1066" user="pavel" changeset="539695">
    <nd ref="280899125"/>
    <nd ref="280899124"/>
    <nd ref="280899126"/>
    <tag k="created_by" v="JOSM"/>
    <tag k="highway" v="residential"/>
    <tag k="name" v="Krkonošská"/>
    <tag k="name:source" v="nameit/uir-adr"/>
    <tag k="source" v="UHUL:ortofoto"/>
  </way>
  <way id="25757692" version="2" timestamp="2008-09-05T11:24:21Z" uid="1066" user="pavel" changeset="539695">
    <nd ref="280899127"/>
    <nd ref="280899128"/>
    <tag k="created_by" v="JOSM"/>
    <tag k="highway" v="residential"/>
    <tag k="name" v="Anglická"/>
    <tag k="name:source" v="nameit/uir-adr"/>
    <tag k="source" v="UHUL:ortofoto"/>
  </way>
  <way id="25757693" version="2" timestamp="2008-09-05T11:24:55Z" uid="1066" user="pavel" changeset="539695">
    <nd ref="280899699"/>
    <nd ref="280899519"/>
    <tag k="created_by" v="JOSM"/>
    <tag k="highway" v="residential"/>
    <tag k="name" v="Holého"/>
    <tag k="name:source" v="nameit/uir-adr"/>
    <tag k="source" v="UHUL:ortofoto"/>
  </way>
  <way id="25757694" version="2" timestamp="2008-09-05T11:24:37Z" uid="1066" user="pavel" changeset="539695">
    <nd ref="249080120"/>
    <nd ref="280899558"/>
    <nd ref="280899557"/>
    <nd ref="280899560"/>
    <nd ref="280899559"/>
    <nd ref="280899562"/>
    <nd ref="280899561"/>
    <nd ref="280899564"/>
    <nd ref="280899563"/>
    <nd ref="280899566"/>
    <nd ref="280899591"/>
    <nd ref="280899565"/>
    <nd ref="280899568"/>
    <nd ref="280899594"/>
    <nd ref="249080123"/>
    <nd ref="280899585"/>
    <nd ref="280899567"/>
    <nd ref="280899570"/>
    <nd ref="280899569"/>
    <nd ref="280899572"/>
    <nd ref="280899571"/>
    <nd ref="280899574"/>
    <nd ref="280899573"/>
    <nd ref="280899576"/>
    <nd ref="280899575"/>
    <nd ref="280899578"/>
    <nd ref="204942230"/>
    <tag k="created_by" v="JOSM"/>
    <tag k="highway" v="residential"/>
    <tag k="name" v="Purkyňova"/>
    <tag k="name:source" v="nameit/uir-adr"/>
    <tag k="source" v="UHUL:ortofoto"/>
  </way>
  <way id="25757695" version="2" timestamp="2008-09-05T11:24:33Z" uid="1066" user="pavel" changeset="539695">
    <nd ref="280899161"/>
    <nd ref="280899162"/>
    <nd ref="280899159"/>
    <nd ref="280899160"/>
    <nd ref="280899170"/>
    <nd ref="280899169"/>
    <tag k="created_by" v="JOSM"/>
    <tag k="highway" v="residential"/>
    <tag k="name" v="Jáchymovská"/>
    <tag k="name:source" v="nameit/uir-adr"/>
    <tag k="source" v="UHUL:ortofoto"/>
  </way>
  <way id="25757696" version="2" timestamp="2008-09-05T11:24:56Z" uid="1066" user="pavel" changeset="539695">
    <nd ref="280899661"/>
    <nd ref="280899698"/>
    <nd ref="247991451"/>
    <tag k="created_by" v="JOSM"/>
    <tag k="highway" v="residential"/>
    <tag k="name" v="Příkrý vrch"/>
    <tag k="name:source" v="nameit/uir-adr"/>
    <tag k="source" v="UHUL:ortofoto"/>
  </way>
  <way id="25757697" version="2" timestamp="2008-09-05T11:24:08Z" uid="1066" user="pavel" changeset="539695">
    <nd ref="280899130"/>
    <nd ref="280899133"/>
    <tag k="created_by" v="JOSM"/>
    <tag k="highway" v="residential"/>
    <tag k="name" v="Vltavská"/>
    <tag k="name:source" v="nameit/uir-adr"/>
    <tag k="source" v="UHUL:ortofoto"/>
  </way>
  <way id="25757698" version="2" timestamp="2008-09-05T11:24:27Z" uid="1066" user="pavel" changeset="539695">
    <nd ref="204942207"/>
    <nd ref="280899541"/>
    <nd ref="280899544"/>
    <nd ref="280899543"/>
    <nd ref="204942203"/>
    <nd ref="280899552"/>
    <nd ref="280899551"/>
    <nd ref="280899554"/>
    <nd ref="280899702"/>
    <nd ref="280899703"/>
    <nd ref="280899704"/>
    <nd ref="280899705"/>
    <tag k="created_by" v="JOSM"/>
    <tag k="highway" v="residential"/>
    <tag k="name" v="Na Okruhu"/>
    <tag k="name:source" v="nameit/uir-adr"/>
    <tag k="source" v="UHUL:ortofoto"/>
  </way>
  <way id="25757699" version="4" timestamp="2010-04-26T14:00:40Z" uid="4467" user="Rosscoe" changeset="4532178">
    <nd ref="29174429"/>
    <nd ref="127613638"/>
    <tag k="highway" v="primary"/>
    <tag k="oneway" v="yes"/>
  </way>
  <way id="25757700" version="2" timestamp="2008-09-05T11:24:31Z" uid="1066" user="pavel" changeset="539695">
    <nd ref="254095259"/>
    <nd ref="280899128"/>
    <nd ref="280899129"/>
    <nd ref="280899117"/>
    <nd ref="280899121"/>
    <nd ref="280899123"/>
    <nd ref="280899131"/>
    <tag k="created_by" v="JOSM"/>
    <tag k="highway" v="residential"/>
    <tag k="name" v="Vysoká"/>
    <tag k="name:source" v="nameit/uir-adr"/>
    <tag k="source" v="UHUL:ortofoto"/>
  </way>
  <way id="25757701" version="2" timestamp="2008-09-05T11:24:05Z" uid="1066" user="pavel" changeset="539695">
    <nd ref="280899629"/>
    <nd ref="280899632"/>
    <nd ref="280899631"/>
    <nd ref="280899608"/>
    <tag k="created_by" v="JOSM"/>
    <tag k="highway" v="residential"/>
    <tag k="name" v="Příkrý vrch"/>
    <tag k="name:source" v="nameit/uir-adr"/>
    <tag k="source" v="UHUL:ortofoto"/>
  </way>
  <way id="25757702" version="2" timestamp="2008-09-05T11:24:14Z" uid="1066" user="pavel" changeset="539695">
    <nd ref="249079962"/>
    <nd ref="280899795"/>
    <nd ref="280899677"/>
    <nd ref="280899676"/>
    <nd ref="280899664"/>
    <nd ref="280899788"/>
    <nd ref="280899801"/>
    <nd ref="280899802"/>
    <nd ref="280899667"/>
    <nd ref="280899847"/>
    <nd ref="280899666"/>
    <nd ref="280899663"/>
    <tag k="created_by" v="JOSM"/>
    <tag k="highway" v="residential"/>
    <tag k="name" v="Na Pískovně"/>
    <tag k="name:source" v="nameit/uir-adr"/>
    <tag k="source" v="UHUL:ortofoto"/>
  </way>
  <way id="25757703" version="2" timestamp="2008-09-05T11:24:31Z" uid="1066" user="pavel" changeset="539695">
    <nd ref="280899607"/>
    <nd ref="280899619"/>
    <tag k="created_by" v="JOSM"/>
    <tag k="highway" v="residential"/>
    <tag k="name" v="Tovačovského"/>
    <tag k="name:source" v="nameit/uir-adr"/>
    <tag k="source" v="UHUL:ortofoto"/>
  </way>
  <way id="25757704" version="2" timestamp="2008-09-05T11:24:29Z" uid="1066" user="pavel" changeset="539695">
    <nd ref="280899535"/>
    <nd ref="280899699"/>
    <nd ref="280899700"/>
    <nd ref="280899701"/>
    <tag k="created_by" v="JOSM"/>
    <tag k="highway" v="residential"/>
    <tag k="name" v="Holého"/>
    <tag k="name:source" v="nameit/uir-adr"/>
    <tag k="source" v="UHUL:ortofoto"/>
  </way>
  <way id="25757705" version="2" timestamp="2008-09-05T11:23:33Z" uid="1066" user="pavel" changeset="539695">
    <nd ref="280899686"/>
    <nd ref="280899926"/>
    <nd ref="73426935"/>
    <tag k="created_by" v="JOSM"/>
    <tag k="highway" v="residential"/>
    <tag k="name" v="Hrdinů"/>
    <tag k="name:source" v="nameit/uir-adr"/>
    <tag k="source" v="UHUL:ortofoto"/>
  </way>
  <way id="25757706" version="2" timestamp="2008-09-05T11:23:46Z" uid="1066" user="pavel" changeset="539695">
    <nd ref="280899144"/>
    <nd ref="280899149"/>
    <tag k="created_by" v="JOSM"/>
    <tag k="highway" v="residential"/>
    <tag k="name" v="V Zahradách"/>
    <tag k="name:source" v="nameit/uir-adr"/>
    <tag k="source" v="UHUL:ortofoto"/>
  </way>
  <way id="25757707" version="2" timestamp="2008-09-05T11:24:22Z" uid="1066" user="pavel" changeset="539695">
    <nd ref="280899744"/>
    <nd ref="280899783"/>
    <nd ref="280899791"/>
    <nd ref="73367918"/>
    <tag k="created_by" v="JOSM"/>
    <tag k="highway" v="residential"/>
    <tag k="name" v="Andělská cesta"/>
    <tag k="name:source" v="nameit/uir-adr"/>
    <tag k="source" v="UHUL:ortofoto"/>
  </way>
  <way id="25757708" version="2" timestamp="2008-09-05T11:24:25Z" uid="1066" user="pavel" changeset="539695">
    <nd ref="280899694"/>
    <nd ref="280899762"/>
    <nd ref="280899763"/>
    <nd ref="280899764"/>
    <nd ref="280899765"/>
    <nd ref="280899766"/>
    <nd ref="280899767"/>
    <nd ref="280899768"/>
    <nd ref="280899769"/>
    <nd ref="280899771"/>
    <nd ref="280899772"/>
    <nd ref="280899789"/>
    <nd ref="280899791"/>
    <nd ref="280899790"/>
    <nd ref="280899793"/>
    <nd ref="249079956"/>
    <tag k="created_by" v="JOSM"/>
    <tag k="highway" v="residential"/>
    <tag k="name" v="Jiráskova"/>
    <tag k="name:source" v="nameit/uir-adr"/>
    <tag k="source" v="UHUL:ortofoto"/>
  </way>
  <way id="25757709" version="2" timestamp="2008-09-05T11:23:58Z" uid="1066" user="pavel" changeset="539695">
    <nd ref="280899734"/>
    <nd ref="280899740"/>
    <nd ref="280899741"/>
    <tag k="created_by" v="JOSM"/>
    <tag k="highway" v="residential"/>
    <tag k="name" v="Sobotecká"/>
    <tag k="name:source" v="nameit/uir-adr"/>
    <tag k="source" v="UHUL:ortofoto"/>
  </way>
  <way id="25757710" version="2" timestamp="2008-09-05T11:23:55Z" uid="1066" user="pavel" changeset="539695">
    <nd ref="280899687"/>
    <nd ref="73432701"/>
    <tag k="created_by" v="JOSM"/>
    <tag k="highway" v="residential"/>
    <tag k="name" v="Brdská"/>
    <tag k="name:source" v="nameit/uir-adr"/>
    <tag k="source" v="UHUL:ortofoto"/>
  </way>
  <way id="25757711" version="2" timestamp="2008-09-05T11:23:43Z" uid="1066" user="pavel" changeset="539695">
    <nd ref="280899529"/>
    <nd ref="280899532"/>
    <nd ref="280899527"/>
    <nd ref="280899531"/>
    <tag k="created_by" v="JOSM"/>
    <tag k="highway" v="residential"/>
    <tag k="name" v="Vodňanská"/>
    <tag k="name:source" v="nameit/uir-adr"/>
    <tag k="source" v="UHUL:ortofoto"/>
  </way>
  <way id="25757712" version="2" timestamp="2008-09-05T11:23:32Z" uid="1066" user="pavel" changeset="539695">
    <nd ref="280899738"/>
    <nd ref="280899741"/>
    <nd ref="280899739"/>
    <nd ref="280899789"/>
    <tag k="created_by" v="JOSM"/>
    <tag k="highway" v="residential"/>
    <tag k="name" v="Sobotecká"/>
    <tag k="name:source" v="nameit/uir-adr"/>
    <tag k="source" v="UHUL:ortofoto"/>
  </way>
  <way id="25757713" version="2" timestamp="2008-09-05T11:24:52Z" uid="1066" user="pavel" changeset="539695">
    <nd ref="280899180"/>
    <nd ref="280899142"/>
    <nd ref="280899143"/>
    <nd ref="247992227"/>
    <nd ref="280899116"/>
    <nd ref="280899117"/>
    <nd ref="280899118"/>
    <nd ref="280899119"/>
    <tag k="created_by" v="JOSM"/>
    <tag k="highway" v="residential"/>
    <tag k="name" v="Vojanova"/>
    <tag k="name:source" v="nameit/uir-adr"/>
    <tag k="source" v="UHUL:ortofoto"/>
  </way>
  <way id="25757714" version="2" timestamp="2008-09-05T11:24:59Z" uid="1066" user="pavel" changeset="539695">
    <nd ref="280899532"/>
    <nd ref="280899534"/>
    <nd ref="280899545"/>
    <nd ref="280899533"/>
    <nd ref="280899536"/>
    <nd ref="280899535"/>
    <nd ref="280899538"/>
    <nd ref="280899537"/>
    <nd ref="280899521"/>
    <tag k="created_by" v="JOSM"/>
    <tag k="highway" v="residential"/>
    <tag k="name" v="Na Okruhu"/>
    <tag k="name:source" v="nameit/uir-adr"/>
    <tag k="source" v="UHUL:ortofoto"/>
  </way>
  <way id="25757715" version="2" timestamp="2008-09-05T11:24:54Z" uid="1066" user="pavel" changeset="539695">
    <nd ref="280899544"/>
    <nd ref="280899546"/>
    <nd ref="280899545"/>
    <tag k="created_by" v="JOSM"/>
    <tag k="highway" v="residential"/>
    <tag k="name" v="Na Okruhu"/>
    <tag k="name:source" v="nameit/uir-adr"/>
    <tag k="source" v="UHUL:ortofoto"/>
  </way>
  <way id="25757718" version="2" timestamp="2008-09-05T11:24:33Z" uid="1066" user="pavel" changeset="539695">
    <nd ref="204942205"/>
    <nd ref="280899553"/>
    <nd ref="280899556"/>
    <nd ref="280899705"/>
    <nd ref="280899555"/>
    <tag k="created_by" v="JOSM"/>
    <tag k="highway" v="residential"/>
    <tag k="name" v="nám. Žižkovo"/>
    <tag k="name:source" v="nameit/uir-adr"/>
    <tag k="source" v="UHUL:ortofoto"/>
  </way>
  <way id="25757719" version="2" timestamp="2008-09-05T11:24:36Z" uid="1066" user="pavel" changeset="539695">
    <nd ref="280899241"/>
    <nd ref="280899242"/>
    <nd ref="280899243"/>
    <nd ref="280899244"/>
    <nd ref="280899245"/>
    <nd ref="280899246"/>
    <nd ref="280899247"/>
    <nd ref="252750074"/>
    <tag k="created_by" v="JOSM"/>
    <tag k="highway" v="residential"/>
    <tag k="name" v="Žitavská"/>
    <tag k="name:source" v="nameit/uir-adr"/>
    <tag k="source" v="UHUL:ortofoto"/>
  </way>
  <way id="25757720" version="2" timestamp="2008-09-05T11:24:54Z" uid="1066" user="pavel" changeset="539695">
    <nd ref="280899222"/>
    <nd ref="280899232"/>
    <nd ref="280899233"/>
    <nd ref="280899234"/>
    <nd ref="280899235"/>
    <nd ref="280899236"/>
    <nd ref="280899237"/>
    <nd ref="280899238"/>
    <nd ref="280899239"/>
    <nd ref="280899240"/>
    <nd ref="265770694"/>
    <tag k="created_by" v="JOSM"/>
    <tag k="highway" v="residential"/>
    <tag k="name" v="Úvozní"/>
    <tag k="name:source" v="nameit/uir-adr"/>
    <tag k="source" v="UHUL:ortofoto"/>
  </way>
  <way id="25757721" version="2" timestamp="2008-09-05T11:24:57Z" uid="1066" user="pavel" changeset="539695">
    <nd ref="280899229"/>
    <nd ref="280899231"/>
    <tag k="created_by" v="JOSM"/>
    <tag k="highway" v="residential"/>
    <tag k="name" v="Chatová"/>
    <tag k="name:source" v="nameit/uir-adr"/>
    <tag k="source" v="UHUL:ortofoto"/>
  </way>
  <way id="25757722" version="2" timestamp="2008-09-05T11:25:00Z" uid="1066" user="pavel" changeset="539695">
    <nd ref="280899259"/>
    <nd ref="280899257"/>
    <tag k="created_by" v="JOSM"/>
    <tag k="highway" v="residential"/>
    <tag k="name" v="Cyrila a Metoděje"/>
    <tag k="name:source" v="nameit/uir-adr"/>
    <tag k="source" v="UHUL:ortofoto"/>
  </way>
  <way id="25757723" version="2" timestamp="2008-09-05T11:25:09Z" uid="1066" user="pavel" changeset="539695">
    <nd ref="280899209"/>
    <nd ref="280899227"/>
    <nd ref="280899226"/>
    <nd ref="280899228"/>
    <nd ref="280899205"/>
    <nd ref="280899229"/>
    <nd ref="280899230"/>
    <tag k="created_by" v="JOSM"/>
    <tag k="highway" v="residential"/>
    <tag k="name" v="Zelná"/>
    <tag k="name:source" v="nameit/uir-adr"/>
    <tag k="source" v="UHUL:ortofoto"/>
  </way>
  <way id="25757724" version="2" timestamp="2008-09-05T11:25:04Z" uid="1066" user="pavel" changeset="539695">
    <nd ref="280899594"/>
    <nd ref="280899593"/>
    <nd ref="280899596"/>
    <tag k="created_by" v="JOSM"/>
    <tag k="highway" v="residential"/>
    <tag k="name" v="Slovanské údolí"/>
    <tag k="name:source" v="nameit/uir-adr"/>
    <tag k="source" v="UHUL:ortofoto"/>
  </way>
  <way id="25757725" version="2" timestamp="2008-09-05T11:25:23Z" uid="1066" user="pavel" changeset="539695">
    <nd ref="280899575"/>
    <nd ref="280899577"/>
    <nd ref="280899580"/>
    <nd ref="280899579"/>
    <nd ref="280899582"/>
    <nd ref="280899581"/>
    <nd ref="280899584"/>
    <nd ref="280899583"/>
    <nd ref="280899586"/>
    <nd ref="280899585"/>
    <nd ref="280899588"/>
    <nd ref="280899587"/>
    <tag k="created_by" v="JOSM"/>
    <tag k="highway" v="residential"/>
    <tag k="name" v="Elišky Krásnohorské"/>
    <tag k="name:source" v="nameit/uir-adr"/>
    <tag k="source" v="UHUL:ortofoto"/>
  </way>
  <way id="25757726" version="2" timestamp="2008-09-05T11:25:25Z" uid="1066" user="pavel" changeset="539695">
    <nd ref="73295058"/>
    <nd ref="280899248"/>
    <nd ref="280899254"/>
    <nd ref="280899249"/>
    <nd ref="280899250"/>
    <tag k="created_by" v="JOSM"/>
    <tag k="highway" v="residential"/>
    <tag k="name" v="Rolnická"/>
    <tag k="name:source" v="nameit/uir-adr"/>
    <tag k="source" v="UHUL:ortofoto"/>
  </way>
  <way id="25757727" version="2" timestamp="2008-09-05T11:25:19Z" uid="1066" user="pavel" changeset="539695">
    <nd ref="280899711"/>
    <nd ref="280899521"/>
    <tag k="created_by" v="JOSM"/>
    <tag k="highway" v="residential"/>
    <tag k="name" v="Rokycanova"/>
    <tag k="name:source" v="nameit/uir-adr"/>
    <tag k="source" v="UHUL:ortofoto"/>
  </way>
  <way id="25757729" version="2" timestamp="2008-09-05T11:23:27Z" uid="1066" user="pavel" changeset="539695">
    <nd ref="280899713"/>
    <nd ref="280899718"/>
    <nd ref="280899719"/>
    <tag k="created_by" v="JOSM"/>
    <tag k="highway" v="residential"/>
    <tag k="name" v="Jánošíkova"/>
    <tag k="name:source" v="nameit/uir-adr"/>
    <tag k="source" v="UHUL:ortofoto"/>
  </way>
  <way id="25757730" version="2" timestamp="2008-09-05T11:23:28Z" uid="1066" user="pavel" changeset="539695">
    <nd ref="280899577"/>
    <nd ref="280899600"/>
    <nd ref="280899599"/>
    <nd ref="280899602"/>
    <nd ref="280899601"/>
    <tag k="created_by" v="JOSM"/>
    <tag k="highway" v="residential"/>
    <tag k="name" v="U Trianglu"/>
    <tag k="name:source" v="nameit/uir-adr"/>
    <tag k="source" v="UHUL:ortofoto"/>
  </way>
  <way id="25757731" version="2" timestamp="2008-09-05T11:23:39Z" uid="1066" user="pavel" changeset="539695">
    <nd ref="280899275"/>
    <nd ref="280899276"/>
    <nd ref="280899277"/>
    <nd ref="280899278"/>
    <nd ref="280899279"/>
    <nd ref="280899280"/>
    <nd ref="280899274"/>
    <tag k="created_by" v="JOSM"/>
    <tag k="highway" v="residential"/>
    <tag k="name" v="U Mlékárny"/>
    <tag k="name:source" v="nameit/uir-adr"/>
    <tag k="source" v="UHUL:ortofoto"/>
  </way>
  <way id="25757732" version="2" timestamp="2008-09-05T11:23:32Z" uid="1066" user="pavel" changeset="539695">
    <nd ref="280899646"/>
    <nd ref="280899654"/>
    <nd ref="280899653"/>
    <tag k="created_by" v="JOSM"/>
    <tag k="highway" v="residential"/>
    <tag k="name" v="Horymírova"/>
    <tag k="name:source" v="nameit/uir-adr"/>
    <tag k="source" v="UHUL:ortofoto"/>
  </way>
  <way id="25757733" version="2" timestamp="2008-09-05T11:25:13Z" uid="1066" user="pavel" changeset="539695">
    <nd ref="252749819"/>
    <nd ref="280899174"/>
    <nd ref="280899163"/>
    <nd ref="254095588"/>
    <tag k="created_by" v="JOSM"/>
    <tag k="highway" v="residential"/>
    <tag k="name" v="Husitská"/>
    <tag k="name:source" v="nameit/uir-adr"/>
    <tag k="source" v="UHUL:ortofoto"/>
  </way>
  <way id="25757734" version="2" timestamp="2008-09-05T11:25:15Z" uid="1066" user="pavel" changeset="539695">
    <nd ref="280899124"/>
    <nd ref="280899120"/>
    <nd ref="280899121"/>
    <tag k="created_by" v="JOSM"/>
    <tag k="highway" v="residential"/>
    <tag k="name" v="Zlínská"/>
    <tag k="name:source" v="nameit/uir-adr"/>
    <tag k="source" v="UHUL:ortofoto"/>
  </way>
  <way id="25757735" version="2" timestamp="2008-09-05T11:25:18Z" uid="1066" user="pavel" changeset="539695">
    <nd ref="204942228"/>
    <nd ref="280899658"/>
    <nd ref="280899624"/>
    <nd ref="280899655"/>
    <nd ref="280899656"/>
    <nd ref="280899630"/>
    <nd ref="280899627"/>
    <nd ref="280899628"/>
    <nd ref="280899625"/>
    <nd ref="280899608"/>
    <nd ref="280899604"/>
    <nd ref="280899607"/>
    <nd ref="280899610"/>
    <nd ref="280899609"/>
    <nd ref="280899612"/>
    <nd ref="280899611"/>
    <nd ref="280899614"/>
    <nd ref="280899613"/>
    <nd ref="280899616"/>
    <nd ref="280899615"/>
    <nd ref="247991447"/>
    <tag k="created_by" v="JOSM"/>
    <tag k="highway" v="residential"/>
    <tag k="name" v="Kotkova"/>
    <tag k="name:source" v="nameit/uir-adr"/>
    <tag k="source" v="UHUL:ortofoto"/>
  </way>
  <way id="25757736" version="2" timestamp="2008-09-05T11:25:25Z" uid="1066" user="pavel" changeset="539695">
    <nd ref="280899207"/>
    <nd ref="280899286"/>
    <tag k="created_by" v="JOSM"/>
    <tag k="highway" v="residential"/>
    <tag k="name" v="Akátová"/>
    <tag k="name:source" v="nameit/uir-adr"/>
    <tag k="source" v="UHUL:ortofoto"/>
  </way>
  <way id="25757737" version="2" timestamp="2008-09-05T11:25:03Z" uid="1066" user="pavel" changeset="539695">
    <nd ref="280899270"/>
    <nd ref="280899271"/>
    <nd ref="280899272"/>
    <nd ref="280899273"/>
    <nd ref="280899274"/>
    <nd ref="280899260"/>
    <tag k="created_by" v="JOSM"/>
    <tag k="highway" v="residential"/>
    <tag k="name" v="Zahradní"/>
    <tag k="name:source" v="nameit/uir-adr"/>
    <tag k="source" v="UHUL:ortofoto"/>
  </way>
  <way id="25757738" version="2" timestamp="2008-09-05T11:25:06Z" uid="1066" user="pavel" changeset="539695">
    <nd ref="280899582"/>
    <nd ref="280899597"/>
    <nd ref="280899598"/>
    <nd ref="280899595"/>
    <nd ref="280899581"/>
    <nd ref="280899588"/>
    <nd ref="249080125"/>
    <tag k="created_by" v="JOSM"/>
    <tag k="highway" v="residential"/>
    <tag k="name" v="Srnčí"/>
    <tag k="name:source" v="nameit/uir-adr"/>
    <tag k="source" v="UHUL:ortofoto"/>
  </way>
  <way id="25757740" version="2" timestamp="2008-09-05T11:25:00Z" uid="1066" user="pavel" changeset="539695">
    <nd ref="280899520"/>
    <nd ref="280899711"/>
    <nd ref="280899712"/>
    <tag k="created_by" v="JOSM"/>
    <tag k="highway" v="residential"/>
    <tag k="name" v="Rokycanova"/>
    <tag k="name:source" v="nameit/uir-adr"/>
    <tag k="source" v="UHUL:ortofoto"/>
  </way>
  <way id="25757741" version="2" timestamp="2008-09-05T11:24:39Z" uid="1066" user="pavel" changeset="539695">
    <nd ref="280899283"/>
    <nd ref="280899284"/>
    <nd ref="280899285"/>
    <nd ref="280899286"/>
    <nd ref="280899287"/>
    <nd ref="280899288"/>
    <nd ref="280899289"/>
    <nd ref="280899282"/>
    <nd ref="280899290"/>
    <tag k="created_by" v="JOSM"/>
    <tag k="highway" v="residential"/>
    <tag k="name" v="Suldovského"/>
    <tag k="name:source" v="nameit/uir-adr"/>
    <tag k="source" v="UHUL:ortofoto"/>
  </way>
  <way id="25757742" version="2" timestamp="2008-09-05T11:24:55Z" uid="1066" user="pavel" changeset="539695">
    <nd ref="280899707"/>
    <nd ref="280899710"/>
    <tag k="created_by" v="JOSM"/>
    <tag k="highway" v="residential"/>
    <tag k="name" v="Dvořákova"/>
    <tag k="name:source" v="nameit/uir-adr"/>
    <tag k="source" v="UHUL:ortofoto"/>
  </way>
  <way id="25757744" version="2" timestamp="2008-09-05T11:24:33Z" uid="1066" user="pavel" changeset="539695">
    <nd ref="280899613"/>
    <nd ref="280899618"/>
    <nd ref="247991448"/>
    <tag k="created_by" v="JOSM"/>
    <tag k="highway" v="residential"/>
    <tag k="name" v="Baltská"/>
    <tag k="name:source" v="nameit/uir-adr"/>
    <tag k="source" v="UHUL:ortofoto"/>
  </way>
  <way id="25757745" version="2" timestamp="2008-09-05T11:24:56Z" uid="1066" user="pavel" changeset="539695">
    <nd ref="280899114"/>
    <nd ref="280899193"/>
    <nd ref="280899115"/>
    <nd ref="280899152"/>
    <nd ref="280899157"/>
    <nd ref="280899151"/>
    <nd ref="280899158"/>
    <nd ref="280899180"/>
    <nd ref="280899155"/>
    <nd ref="280899156"/>
    <tag k="created_by" v="JOSM"/>
    <tag k="highway" v="residential"/>
    <tag k="name" v="Nová"/>
    <tag k="name:source" v="nameit/uir-adr"/>
    <tag k="source" v="UHUL:ortofoto"/>
  </way>
  <way id="25757746" version="2" timestamp="2008-09-05T11:24:09Z" uid="1066" user="pavel" changeset="539695">
    <nd ref="280899262"/>
    <nd ref="280899275"/>
    <nd ref="280899263"/>
    <nd ref="73333597"/>
    <tag k="created_by" v="JOSM"/>
    <tag k="highway" v="residential"/>
    <tag k="name" v="Norská"/>
    <tag k="name:source" v="nameit/uir-adr"/>
    <tag k="source" v="UHUL:ortofoto"/>
  </way>
  <way id="25757747" version="2" timestamp="2008-09-05T11:25:05Z" uid="1066" user="pavel" changeset="539695">
    <nd ref="280899264"/>
    <nd ref="280899262"/>
    <nd ref="280899260"/>
    <nd ref="280899281"/>
    <nd ref="280899259"/>
    <nd ref="280899265"/>
    <nd ref="280899251"/>
    <nd ref="280899266"/>
    <nd ref="280899267"/>
    <nd ref="280899268"/>
    <nd ref="280899269"/>
    <nd ref="280899685"/>
    <tag k="created_by" v="JOSM"/>
    <tag k="highway" v="residential"/>
    <tag k="name" v="Norská"/>
    <tag k="name:source" v="nameit/uir-adr"/>
    <tag k="source" v="UHUL:ortofoto"/>
  </way>
  <way id="25757748" version="2" timestamp="2008-09-05T11:24:53Z" uid="1066" user="pavel" changeset="539695">
    <nd ref="280899562"/>
    <nd ref="280899590"/>
    <nd ref="280899568"/>
    <nd ref="280899589"/>
    <nd ref="280899592"/>
    <nd ref="280899565"/>
    <tag k="created_by" v="JOSM"/>
    <tag k="highway" v="residential"/>
    <tag k="name" v="Janáčkova"/>
    <tag k="name:source" v="nameit/uir-adr"/>
    <tag k="source" v="UHUL:ortofoto"/>
  </way>
  <way id="25757749" version="2" timestamp="2008-09-05T11:23:51Z" uid="1066" user="pavel" changeset="539695">
    <nd ref="280899260"/>
    <nd ref="280899261"/>
    <nd ref="73357840"/>
    <tag k="created_by" v="JOSM"/>
    <tag k="highway" v="residential"/>
    <tag k="name" v="Zahradní"/>
    <tag k="name:source" v="nameit/uir-adr"/>
    <tag k="source" v="UHUL:ortofoto"/>
  </way>
  <way id="25757750" version="2" timestamp="2008-09-05T11:23:40Z" uid="1066" user="pavel" changeset="539695">
    <nd ref="280899203"/>
    <nd ref="280899223"/>
    <nd ref="280899205"/>
    <nd ref="280899220"/>
    <nd ref="280899219"/>
    <nd ref="280899222"/>
    <nd ref="280899231"/>
    <nd ref="280899221"/>
    <nd ref="280899216"/>
    <nd ref="280899230"/>
    <nd ref="280899215"/>
    <nd ref="280899218"/>
    <nd ref="280899217"/>
    <tag k="created_by" v="JOSM"/>
    <tag k="highway" v="residential"/>
    <tag k="name" v="Ostašovská"/>
    <tag k="name:source" v="nameit/uir-adr"/>
    <tag k="source" v="UHUL:ortofoto"/>
  </way>
  <way id="25757752" version="2" timestamp="2008-09-05T11:23:56Z" uid="1066" user="pavel" changeset="539695">
    <nd ref="280899380"/>
    <nd ref="280899382"/>
    <nd ref="280899383"/>
    <nd ref="280899384"/>
    <nd ref="280899385"/>
    <nd ref="280899386"/>
    <nd ref="280899387"/>
    <nd ref="280899396"/>
    <nd ref="206218185"/>
    <tag k="created_by" v="JOSM"/>
    <tag k="highway" v="residential"/>
    <tag k="name" v="Na Ladech"/>
    <tag k="name:source" v="nameit/uir-adr"/>
    <tag k="source" v="UHUL:ortofoto"/>
  </way>
  <way id="25757753" version="2" timestamp="2008-09-05T11:24:19Z" uid="1066" user="pavel" changeset="539695">
    <nd ref="280899178"/>
    <nd ref="280899177"/>
    <nd ref="280899176"/>
    <nd ref="280899175"/>
    <tag k="created_by" v="JOSM"/>
    <tag k="highway" v="residential"/>
    <tag k="name" v="Křižíkova"/>
    <tag k="name:source" v="nameit/uir-adr"/>
    <tag k="source" v="UHUL:ortofoto"/>
  </way>
  <way id="25757754" version="2" timestamp="2008-09-05T11:24:25Z" uid="1066" user="pavel" changeset="539695">
    <nd ref="206218159"/>
    <nd ref="280899352"/>
    <nd ref="280899353"/>
    <nd ref="280899355"/>
    <nd ref="280899360"/>
    <nd ref="280899366"/>
    <nd ref="280899344"/>
    <nd ref="280899371"/>
    <nd ref="280899372"/>
    <nd ref="280899373"/>
    <nd ref="280899374"/>
    <tag k="created_by" v="JOSM"/>
    <tag k="highway" v="residential"/>
    <tag k="name" v="Sládkova"/>
    <tag k="name:source" v="nameit/uir-adr"/>
    <tag k="source" v="UHUL:ortofoto"/>
  </way>
  <way id="25757755" version="2" timestamp="2008-09-05T11:23:48Z" uid="1066" user="pavel" changeset="539695">
    <nd ref="206218184"/>
    <nd ref="280899395"/>
    <tag k="created_by" v="JOSM"/>
    <tag k="highway" v="residential"/>
    <tag k="name" v="U Křížového kostela"/>
    <tag k="name:source" v="nameit/uir-adr"/>
    <tag k="source" v="UHUL:ortofoto"/>
  </way>
  <way id="25757756" version="2" timestamp="2008-09-05T11:23:45Z" uid="1066" user="pavel" changeset="539695">
    <nd ref="280899174"/>
    <nd ref="280899173"/>
    <nd ref="280899172"/>
    <nd ref="280899171"/>
    <tag k="created_by" v="JOSM"/>
    <tag k="highway" v="residential"/>
    <tag k="name" v="Volgogradská"/>
    <tag k="name:source" v="nameit/uir-adr"/>
    <tag k="source" v="UHUL:ortofoto"/>
  </way>
  <way id="25757757" version="2" timestamp="2008-09-05T11:24:28Z" uid="1066" user="pavel" changeset="539695">
    <nd ref="206218157"/>
    <nd ref="280899370"/>
    <nd ref="280899344"/>
    <nd ref="280899345"/>
    <nd ref="280899346"/>
    <nd ref="280899347"/>
    <nd ref="280899348"/>
    <nd ref="280899349"/>
    <nd ref="280899350"/>
    <nd ref="280899351"/>
    <nd ref="206218135"/>
    <tag k="created_by" v="JOSM"/>
    <tag k="highway" v="residential"/>
    <tag k="name" v="Šafaříkova"/>
    <tag k="name:source" v="nameit/uir-adr"/>
    <tag k="source" v="UHUL:ortofoto"/>
  </way>
  <way id="25757760" version="2" timestamp="2008-09-05T11:24:14Z" uid="1066" user="pavel" changeset="539695">
    <nd ref="280899182"/>
    <nd ref="280899181"/>
    <tag k="created_by" v="JOSM"/>
    <tag k="highway" v="residential"/>
    <tag k="name" v="Beskydská"/>
    <tag k="name:source" v="nameit/uir-adr"/>
    <tag k="source" v="UHUL:ortofoto"/>
  </way>
  <way id="25757761" version="2" timestamp="2008-09-05T11:24:20Z" uid="1066" user="pavel" changeset="539695">
    <nd ref="276174894"/>
    <nd ref="280899520"/>
    <nd ref="280899519"/>
    <nd ref="280899522"/>
    <nd ref="280899521"/>
    <nd ref="280899524"/>
    <nd ref="280899523"/>
    <nd ref="280899526"/>
    <nd ref="280899525"/>
    <nd ref="280899528"/>
    <nd ref="280899527"/>
    <tag k="created_by" v="JOSM"/>
    <tag k="highway" v="residential"/>
    <tag k="name" v="Svojsíkova"/>
    <tag k="name:source" v="nameit/uir-adr"/>
    <tag k="source" v="UHUL:ortofoto"/>
  </way>
  <way id="25757762" version="2" timestamp="2008-09-05T11:24:21Z" uid="1066" user="pavel" changeset="539695">
    <nd ref="254090212"/>
    <nd ref="280899330"/>
    <nd ref="280899754"/>
    <nd ref="280899761"/>
    <tag k="created_by" v="JOSM"/>
    <tag k="highway" v="residential"/>
    <tag k="name" v="Česká tvrz"/>
    <tag k="name:source" v="nameit/uir-adr"/>
    <tag k="source" v="UHUL:ortofoto"/>
  </way>
  <way id="25757763" version="2" timestamp="2008-09-05T11:24:52Z" uid="1066" user="pavel" changeset="539695">
    <nd ref="206218183"/>
    <nd ref="280899394"/>
    <nd ref="280899399"/>
    <nd ref="280899395"/>
    <nd ref="280899396"/>
    <tag k="created_by" v="JOSM"/>
    <tag k="highway" v="residential"/>
    <tag k="name" v="nám. Sokolovské"/>
    <tag k="name:source" v="nameit/uir-adr"/>
    <tag k="source" v="UHUL:ortofoto"/>
  </way>
  <way id="25757765" version="2" timestamp="2008-09-05T11:24:45Z" uid="1066" user="pavel" changeset="539695">
    <nd ref="280899962"/>
    <nd ref="280899959"/>
    <tag k="created_by" v="JOSM"/>
    <tag k="highway" v="residential"/>
    <tag k="name" v="U Opatrovny"/>
    <tag k="name:source" v="nameit/uir-adr"/>
    <tag k="source" v="UHUL:ortofoto"/>
  </way>
  <way id="25757766" version="2" timestamp="2008-09-05T11:24:43Z" uid="1066" user="pavel" changeset="539695">
    <nd ref="280899394"/>
    <nd ref="280899400"/>
    <tag k="created_by" v="JOSM"/>
    <tag k="highway" v="residential"/>
    <tag k="name" v="Mistrovský vrch"/>
    <tag k="name:source" v="nameit/uir-adr"/>
    <tag k="source" v="UHUL:ortofoto"/>
  </way>
  <way id="25757767" version="2" timestamp="2008-09-05T11:24:17Z" uid="1066" user="pavel" changeset="539695">
    <nd ref="280899939"/>
    <nd ref="280899940"/>
    <tag k="created_by" v="JOSM"/>
    <tag k="highway" v="residential"/>
    <tag k="name" v="Jiříkova"/>
    <tag k="name:source" v="nameit/uir-adr"/>
    <tag k="source" v="UHUL:ortofoto"/>
  </way>
  <way id="25757768" version="2" timestamp="2008-09-05T11:24:16Z" uid="1066" user="pavel" changeset="539695">
    <nd ref="73357840"/>
    <nd ref="280899241"/>
    <nd ref="280899204"/>
    <tag k="created_by" v="JOSM"/>
    <tag k="highway" v="residential"/>
    <tag k="name" v="Ostašovská"/>
    <tag k="name:source" v="nameit/uir-adr"/>
    <tag k="source" v="UHUL:ortofoto"/>
  </way>
  <way id="25757769" version="2" timestamp="2008-09-05T11:24:14Z" uid="1066" user="pavel" changeset="539695">
    <nd ref="280899392"/>
    <nd ref="280899403"/>
    <nd ref="280899406"/>
    <tag k="created_by" v="JOSM"/>
    <tag k="highway" v="residential"/>
    <tag k="name" v="Papírová"/>
    <tag k="name:source" v="nameit/uir-adr"/>
    <tag k="source" v="UHUL:ortofoto"/>
  </way>
  <way id="25757770" version="2" timestamp="2008-09-05T11:24:07Z" uid="1066" user="pavel" changeset="539695">
    <nd ref="280899941"/>
    <nd ref="249079814"/>
    <tag k="created_by" v="JOSM"/>
    <tag k="highway" v="residential"/>
    <tag k="name" v="Balbínova"/>
    <tag k="name:source" v="nameit/uir-adr"/>
    <tag k="source" v="UHUL:ortofoto"/>
  </way>
  <way id="25757771" version="2" timestamp="2008-09-05T11:24:22Z" uid="1066" user="pavel" changeset="539695">
    <nd ref="280899399"/>
    <nd ref="280899402"/>
    <nd ref="280899401"/>
    <nd ref="280899404"/>
    <tag k="created_by" v="JOSM"/>
    <tag k="highway" v="residential"/>
    <tag k="name" v="Na Svahu"/>
    <tag k="name:source" v="nameit/uir-adr"/>
    <tag k="source" v="UHUL:ortofoto"/>
  </way>
  <way id="25757773" version="3" timestamp="2008-09-05T11:24:32Z" uid="1066" user="pavel" changeset="539695">
    <nd ref="280899391"/>
    <nd ref="280899407"/>
    <tag k="created_by" v="Potlatch 0.10b"/>
    <tag k="highway" v="residential"/>
    <tag k="name" v="Resslova"/>
    <tag k="name:source" v="nameit/uir-adr"/>
    <tag k="source" v="UHUL:ortofoto"/>
  </way>
  <way id="25757775" version="2" timestamp="2008-09-05T11:24:20Z" uid="1066" user="pavel" changeset="539695">
    <nd ref="280899254"/>
    <nd ref="280899255"/>
    <tag k="created_by" v="JOSM"/>
    <tag k="highway" v="residential"/>
    <tag k="name" v="V Zátočině"/>
    <tag k="name:source" v="nameit/uir-adr"/>
    <tag k="source" v="UHUL:ortofoto"/>
  </way>
  <way id="25757776" version="2" timestamp="2008-09-05T11:24:26Z" uid="1066" user="pavel" changeset="539695">
    <nd ref="280899537"/>
    <nd ref="280899540"/>
    <nd ref="280899539"/>
    <nd ref="280899534"/>
    <nd ref="280899542"/>
    <nd ref="204942209"/>
    <tag k="created_by" v="JOSM"/>
    <tag k="highway" v="residential"/>
    <tag k="name" v="Jiskrova"/>
    <tag k="name:source" v="nameit/uir-adr"/>
    <tag k="source" v="UHUL:ortofoto"/>
  </way>
  <way id="25757777" version="2" timestamp="2008-09-05T11:24:13Z" uid="1066" user="pavel" changeset="539695">
    <nd ref="280899949"/>
    <nd ref="280899898"/>
    <nd ref="280899892"/>
    <nd ref="280899891"/>
    <nd ref="280899938"/>
    <tag k="created_by" v="JOSM"/>
    <tag k="highway" v="residential"/>
    <tag k="name" v="Senovážná"/>
    <tag k="name:source" v="nameit/uir-adr"/>
    <tag k="source" v="UHUL:ortofoto"/>
  </way>
  <way id="25757778" version="2" timestamp="2008-09-05T11:24:22Z" uid="1066" user="pavel" changeset="539695">
    <nd ref="280899942"/>
    <nd ref="280899949"/>
    <nd ref="280899899"/>
    <tag k="created_by" v="JOSM"/>
    <tag k="highway" v="residential"/>
    <tag k="name" v="Dykova"/>
    <tag k="name:source" v="nameit/uir-adr"/>
    <tag k="source" v="UHUL:ortofoto"/>
  </way>
  <way id="25757779" version="2" timestamp="2008-09-05T11:24:15Z" uid="1066" user="pavel" changeset="539695">
    <nd ref="280899706"/>
    <nd ref="280899707"/>
    <nd ref="280899708"/>
    <nd ref="280899709"/>
    <nd ref="280899551"/>
    <tag k="created_by" v="JOSM"/>
    <tag k="highway" v="residential"/>
    <tag k="name" v="Zborovská"/>
    <tag k="name:source" v="nameit/uir-adr"/>
    <tag k="source" v="UHUL:ortofoto"/>
  </way>
  <way id="25757780" version="2" timestamp="2008-09-05T11:24:04Z" uid="1066" user="pavel" changeset="539695">
    <nd ref="280899163"/>
    <nd ref="280899182"/>
    <nd ref="254095261"/>
    <tag k="created_by" v="JOSM"/>
    <tag k="highway" v="residential"/>
    <tag k="name" v="Jugoslávská"/>
    <tag k="name:source" v="nameit/uir-adr"/>
    <tag k="source" v="UHUL:ortofoto"/>
  </way>
  <way id="25757781" version="2" timestamp="2008-09-05T11:24:44Z" uid="1066" user="pavel" changeset="539695">
    <nd ref="280899208"/>
    <nd ref="280899287"/>
    <nd ref="280899282"/>
    <tag k="created_by" v="JOSM"/>
    <tag k="highway" v="residential"/>
    <tag k="name" v="Harantova"/>
    <tag k="name:source" v="nameit/uir-adr"/>
    <tag k="source" v="UHUL:ortofoto"/>
  </way>
  <way id="25757782" version="2" timestamp="2008-09-05T11:24:18Z" uid="1066" user="pavel" changeset="539695">
    <nd ref="280899614"/>
    <nd ref="280899617"/>
    <nd ref="280899620"/>
    <nd ref="280899619"/>
    <nd ref="280899622"/>
    <nd ref="280899621"/>
    <nd ref="280899624"/>
    <nd ref="280899623"/>
    <nd ref="280899626"/>
    <tag k="created_by" v="JOSM"/>
    <tag k="highway" v="residential"/>
    <tag k="name" v="Jeseniova"/>
    <tag k="name:source" v="nameit/uir-adr"/>
    <tag k="source" v="UHUL:ortofoto"/>
  </way>
  <way id="25757783" version="2" timestamp="2008-09-05T11:24:35Z" uid="1066" user="pavel" changeset="539695">
    <nd ref="280899604"/>
    <nd ref="280899603"/>
    <nd ref="280899606"/>
    <nd ref="280899622"/>
    <nd ref="280899605"/>
    <nd ref="204942227"/>
    <nd ref="204942218"/>
    <tag k="created_by" v="JOSM"/>
    <tag k="highway" v="residential"/>
    <tag k="name" v="Kropáčkova"/>
    <tag k="name:source" v="nameit/uir-adr"/>
    <tag k="source" v="UHUL:ortofoto"/>
  </way>
  <way id="25757784" version="2" timestamp="2008-09-05T11:24:44Z" uid="1066" user="pavel" changeset="539695">
    <nd ref="280899226"/>
    <nd ref="280899225"/>
    <nd ref="280899223"/>
    <nd ref="280899224"/>
    <tag k="created_by" v="JOSM"/>
    <tag k="highway" v="residential"/>
    <tag k="name" v="Srbská"/>
    <tag k="name:source" v="nameit/uir-adr"/>
    <tag k="source" v="UHUL:ortofoto"/>
  </way>
  <way id="25757786" version="2" timestamp="2008-09-05T11:24:52Z" uid="1066" user="pavel" changeset="539695">
    <nd ref="280899281"/>
    <nd ref="280899299"/>
    <tag k="created_by" v="JOSM"/>
    <tag k="highway" v="residential"/>
    <tag k="name" v="Plužní"/>
    <tag k="name:source" v="nameit/uir-adr"/>
    <tag k="source" v="UHUL:ortofoto"/>
  </way>
  <way id="25757793" version="2" timestamp="2008-09-05T11:23:45Z" uid="1066" user="pavel" changeset="539695">
    <nd ref="280899909"/>
    <nd ref="280899963"/>
    <nd ref="280899964"/>
    <nd ref="280899961"/>
    <tag k="created_by" v="JOSM"/>
    <tag k="highway" v="residential"/>
    <tag k="name" v="Dr. Milady Horákové"/>
    <tag k="name:source" v="nameit/uir-adr"/>
    <tag k="source" v="UHUL:ortofoto"/>
  </way>
  <way id="25757794" version="2" timestamp="2008-09-05T11:23:51Z" uid="1066" user="pavel" changeset="539695">
    <nd ref="280899251"/>
    <nd ref="280899256"/>
    <nd ref="280899713"/>
    <nd ref="280899250"/>
    <nd ref="280899252"/>
    <nd ref="280899258"/>
    <nd ref="280899299"/>
    <nd ref="280899261"/>
    <nd ref="280899264"/>
    <nd ref="73423955"/>
    <tag k="created_by" v="JOSM"/>
    <tag k="highway" v="residential"/>
    <tag k="name" v="Jánošíkova"/>
    <tag k="name:source" v="nameit/uir-adr"/>
    <tag k="source" v="UHUL:ortofoto"/>
  </way>
  <way id="25757796" version="2" timestamp="2008-09-05T11:23:53Z" uid="1066" user="pavel" changeset="539695">
    <nd ref="280899512"/>
    <nd ref="280899511"/>
    <nd ref="280899514"/>
    <nd ref="280899513"/>
    <tag k="created_by" v="JOSM"/>
    <tag k="highway" v="residential"/>
    <tag k="name" v="Liliová"/>
    <tag k="name:source" v="nameit/uir-adr"/>
    <tag k="source" v="UHUL:ortofoto"/>
  </way>
  <way id="25757799" version="3" timestamp="2008-09-05T11:23:33Z" uid="1066" user="pavel" changeset="539695">
    <nd ref="248467820"/>
    <nd ref="280899508"/>
    <nd ref="280899478"/>
    <nd ref="280899477"/>
    <nd ref="280899476"/>
    <tag k="created_by" v="Potlatch 0.10b"/>
    <tag k="highway" v="residential"/>
    <tag k="name" v="Baarova"/>
    <tag k="name:source" v="nameit/uir-adr"/>
    <tag k="source" v="UHUL:ortofoto"/>
  </way>
  <way id="25757801" version="2" timestamp="2008-09-05T11:25:03Z" uid="1066" user="pavel" changeset="539695">
    <nd ref="249080413"/>
    <nd ref="280899880"/>
    <nd ref="280899914"/>
    <nd ref="280899915"/>
    <nd ref="280899912"/>
    <nd ref="280899913"/>
    <tag k="created_by" v="JOSM"/>
    <tag k="highway" v="residential"/>
    <tag k="name" v="Fibichova"/>
    <tag k="name:source" v="nameit/uir-adr"/>
    <tag k="source" v="UHUL:ortofoto"/>
  </way>
  <way id="25757802" version="2" timestamp="2008-09-05T11:25:07Z" uid="1066" user="pavel" changeset="539695">
    <nd ref="280899403"/>
    <nd ref="280899405"/>
    <nd ref="280899408"/>
    <nd ref="280899402"/>
    <tag k="created_by" v="JOSM"/>
    <tag k="highway" v="residential"/>
    <tag k="name" v="Na Příkopě"/>
    <tag k="name:source" v="nameit/uir-adr"/>
    <tag k="source" v="UHUL:ortofoto"/>
  </way>
  <way id="25757803" version="2" timestamp="2008-09-05T11:25:09Z" uid="1066" user="pavel" changeset="539695">
    <nd ref="280899256"/>
    <nd ref="280899257"/>
    <nd ref="280899258"/>
    <tag k="created_by" v="JOSM"/>
    <tag k="highway" v="residential"/>
    <tag k="name" v="Cyrila a Metoděje"/>
    <tag k="name:source" v="nameit/uir-adr"/>
    <tag k="source" v="UHUL:ortofoto"/>
  </way>
  <way id="25757805" version="2" timestamp="2008-09-05T11:25:19Z" uid="1066" user="pavel" changeset="539695">
    <nd ref="247992224"/>
    <nd ref="280899190"/>
    <nd ref="280899199"/>
    <nd ref="280899200"/>
    <nd ref="280899201"/>
    <nd ref="280899202"/>
    <nd ref="280899195"/>
    <nd ref="280899196"/>
    <tag k="created_by" v="JOSM"/>
    <tag k="highway" v="residential"/>
    <tag k="name" v="Švermova"/>
    <tag k="name:source" v="nameit/uir-adr"/>
    <tag k="source" v="UHUL:ortofoto"/>
  </way>
  <way id="25757806" version="2" timestamp="2008-09-05T11:25:25Z" uid="1066" user="pavel" changeset="539695">
    <nd ref="280899442"/>
    <nd ref="280899958"/>
    <nd ref="280899960"/>
    <nd ref="247991819"/>
    <tag k="created_by" v="JOSM"/>
    <tag k="highway" v="residential"/>
    <tag k="name" v="Nitranská"/>
    <tag k="name:source" v="nameit/uir-adr"/>
    <tag k="source" v="UHUL:ortofoto"/>
  </way>
  <way id="25757807" version="2" timestamp="2008-09-05T11:24:36Z" uid="1066" user="pavel" changeset="539695">
    <nd ref="280899898"/>
    <nd ref="280899903"/>
    <nd ref="73422723"/>
    <tag k="created_by" v="JOSM"/>
    <tag k="highway" v="residential"/>
    <tag k="name" v="Hrdinů"/>
    <tag k="name:source" v="nameit/uir-adr"/>
    <tag k="source" v="UHUL:ortofoto"/>
  </way>
  <way id="25757808" version="2" timestamp="2008-09-05T11:24:34Z" uid="1066" user="pavel" changeset="539695">
    <nd ref="280899252"/>
    <nd ref="280899248"/>
    <nd ref="280899253"/>
    <tag k="created_by" v="JOSM"/>
    <tag k="highway" v="residential"/>
    <tag k="name" v="Růžodolská"/>
    <tag k="name:source" v="nameit/uir-adr"/>
    <tag k="source" v="UHUL:ortofoto"/>
  </way>
  <way id="25757809" version="2" timestamp="2008-09-05T11:25:27Z" uid="1066" user="pavel" changeset="539695">
    <nd ref="280899136"/>
    <nd ref="280899179"/>
    <nd ref="280899191"/>
    <nd ref="280899192"/>
    <nd ref="280899193"/>
    <tag k="created_by" v="JOSM"/>
    <tag k="highway" v="residential"/>
    <tag k="name" v="Mydlářská"/>
    <tag k="name:source" v="nameit/uir-adr"/>
    <tag k="source" v="UHUL:ortofoto"/>
  </way>
  <way id="25757810" version="3" timestamp="2008-09-05T11:25:17Z" uid="1066" user="pavel" changeset="539695">
    <nd ref="280899411"/>
    <nd ref="280899416"/>
    <nd ref="280899413"/>
    <nd ref="280899414"/>
    <nd ref="280899407"/>
    <nd ref="280899412"/>
    <nd ref="280899411"/>
    <nd ref="280899415"/>
    <tag k="created_by" v="Potlatch 0.10b"/>
    <tag k="highway" v="residential"/>
    <tag k="name" v="Orlí"/>
    <tag k="name:source" v="nameit/uir-adr"/>
    <tag k="source" v="UHUL:ortofoto"/>
  </way>
  <way id="25757811" version="2" timestamp="2008-09-05T11:25:24Z" uid="1066" user="pavel" changeset="539695">
    <nd ref="280899160"/>
    <nd ref="280899194"/>
    <nd ref="280899183"/>
    <nd ref="280899184"/>
    <nd ref="280899189"/>
    <tag k="created_by" v="JOSM"/>
    <tag k="highway" v="residential"/>
    <tag k="name" v="Řídkého"/>
    <tag k="name:source" v="nameit/uir-adr"/>
    <tag k="source" v="UHUL:ortofoto"/>
  </way>
  <way id="25757813" version="2" timestamp="2008-09-05T11:24:58Z" uid="1066" user="pavel" changeset="539695">
    <nd ref="206218106"/>
    <nd ref="280899428"/>
    <nd ref="280899425"/>
    <nd ref="280899420"/>
    <nd ref="280899441"/>
    <nd ref="280899437"/>
    <nd ref="280899440"/>
    <nd ref="280899439"/>
    <nd ref="280899442"/>
    <tag k="created_by" v="JOSM"/>
    <tag k="highway" v="residential"/>
    <tag k="name" v="U Nisy"/>
    <tag k="name:source" v="nameit/uir-adr"/>
    <tag k="source" v="UHUL:ortofoto"/>
  </way>
  <way id="25757814" version="2" timestamp="2008-09-05T11:25:10Z" uid="1066" user="pavel" changeset="539695">
    <nd ref="280899338"/>
    <nd ref="280899339"/>
    <nd ref="280899340"/>
    <nd ref="280899341"/>
    <nd ref="280899342"/>
    <nd ref="280899343"/>
    <nd ref="280899339"/>
    <tag k="created_by" v="JOSM"/>
    <tag k="highway" v="residential"/>
    <tag k="name" v="Křížkovského"/>
    <tag k="name:source" v="nameit/uir-adr"/>
    <tag k="source" v="UHUL:ortofoto"/>
  </way>
  <way id="25757815" version="2" timestamp="2008-09-05T11:25:13Z" uid="1066" user="pavel" changeset="539695">
    <nd ref="280899197"/>
    <nd ref="280899198"/>
    <nd ref="280899208"/>
    <nd ref="280899207"/>
    <nd ref="280899283"/>
    <nd ref="280899210"/>
    <nd ref="280899217"/>
    <nd ref="280899203"/>
    <nd ref="280899209"/>
    <tag k="created_by" v="JOSM"/>
    <tag k="highway" v="residential"/>
    <tag k="name" v="Partyzánská"/>
    <tag k="name:source" v="nameit/uir-adr"/>
    <tag k="source" v="UHUL:ortofoto"/>
  </way>
  <way id="25757816" version="2" timestamp="2008-09-05T11:23:46Z" uid="1066" user="pavel" changeset="539695">
    <nd ref="280899416"/>
    <nd ref="280899418"/>
    <nd ref="280899417"/>
    <tag k="created_by" v="JOSM"/>
    <tag k="highway" v="residential"/>
    <tag k="name" v="Oldřichova"/>
    <tag k="name:source" v="nameit/uir-adr"/>
    <tag k="source" v="UHUL:ortofoto"/>
  </way>
  <way id="25757817" version="2" timestamp="2008-09-05T11:23:25Z" uid="1066" user="pavel" changeset="539695">
    <nd ref="280899327"/>
    <nd ref="280899331"/>
    <nd ref="280899332"/>
    <nd ref="280899333"/>
    <nd ref="280899334"/>
    <nd ref="280899335"/>
    <nd ref="280899336"/>
    <nd ref="280899338"/>
    <nd ref="280899337"/>
    <nd ref="280899721"/>
    <nd ref="280899678"/>
    <nd ref="280899720"/>
    <tag k="created_by" v="JOSM"/>
    <tag k="highway" v="residential"/>
    <tag k="name" v="Křížkovského"/>
    <tag k="name:source" v="nameit/uir-adr"/>
    <tag k="source" v="UHUL:ortofoto"/>
  </way>
  <way id="25757819" version="2" timestamp="2008-09-05T11:23:50Z" uid="1066" user="pavel" changeset="539695">
    <nd ref="280899967"/>
    <nd ref="280900002"/>
    <nd ref="280900003"/>
    <nd ref="280900004"/>
    <nd ref="280900005"/>
    <nd ref="280900006"/>
    <nd ref="280900007"/>
    <nd ref="280899996"/>
    <tag k="created_by" v="JOSM"/>
    <tag k="highway" v="residential"/>
    <tag k="name" v="Mikulášská"/>
    <tag k="name:source" v="nameit/uir-adr"/>
    <tag k="source" v="UHUL:ortofoto"/>
  </way>
  <way id="25757822" version="3" timestamp="2008-09-05T11:23:57Z" uid="1066" user="pavel" changeset="539695">
    <nd ref="280987094"/>
    <nd ref="280899977"/>
    <nd ref="280899978"/>
    <nd ref="280899976"/>
    <nd ref="280899979"/>
    <nd ref="280899980"/>
    <nd ref="280899981"/>
    <nd ref="280899982"/>
    <nd ref="280899986"/>
    <nd ref="280899988"/>
    <nd ref="280899989"/>
    <nd ref="280899990"/>
    <nd ref="280899991"/>
    <nd ref="280899992"/>
    <nd ref="280899993"/>
    <nd ref="280899994"/>
    <nd ref="280899995"/>
    <nd ref="280899968"/>
    <tag k="created_by" v="JOSM"/>
    <tag k="highway" v="residential"/>
    <tag k="name" v="Energetiků"/>
    <tag k="name:source" v="nameit/uir-adr"/>
    <tag k="source" v="UHUL:ortofoto"/>
  </way>
  <way id="25757823" version="7" timestamp="2008-09-07T18:49:01Z" uid="1066" user="pavel" changeset="562449">
    <nd ref="201958383"/>
    <nd ref="201958380"/>
    <nd ref="245052140"/>
    <nd ref="245052148"/>
    <nd ref="280899909"/>
    <nd ref="245052150"/>
    <nd ref="280899962"/>
    <nd ref="247991815"/>
    <nd ref="268876647"/>
    <nd ref="247991816"/>
    <nd ref="247991817"/>
    <nd ref="247991818"/>
    <nd ref="280900040"/>
    <nd ref="294857013"/>
    <nd ref="280900041"/>
    <nd ref="280900042"/>
    <nd ref="280900044"/>
    <nd ref="280900047"/>
    <nd ref="280987049"/>
    <nd ref="280900049"/>
    <nd ref="280900050"/>
    <nd ref="280900051"/>
    <nd ref="280900052"/>
    <nd ref="280900053"/>
    <nd ref="280900054"/>
    <nd ref="280900055"/>
    <nd ref="280900056"/>
    <nd ref="280900057"/>
    <nd ref="280900058"/>
    <nd ref="280900059"/>
    <nd ref="280987138"/>
    <nd ref="280900060"/>
    <tag k="created_by" v="Potlatch 0.10b"/>
    <tag k="highway" v="tertiary"/>
    <tag k="name" v="Dr. Milady Horákové"/>
    <tag k="source" v="UHUL:ortofoto"/>
  </way>
  <way id="25757824" version="2" timestamp="2008-09-05T11:24:53Z" uid="1066" user="pavel" changeset="539695">
    <nd ref="280899971"/>
    <nd ref="280899966"/>
    <tag k="created_by" v="JOSM"/>
    <tag k="highway" v="residential"/>
    <tag k="name" v="Mikulášská"/>
    <tag k="name:source" v="nameit/uir-adr"/>
    <tag k="source" v="UHUL:ortofoto"/>
  </way>
  <way id="25757825" version="2" timestamp="2008-09-05T11:24:58Z" uid="1066" user="pavel" changeset="539695">
    <nd ref="280899966"/>
    <nd ref="280899996"/>
    <nd ref="280899997"/>
    <nd ref="280899998"/>
    <nd ref="280899999"/>
    <nd ref="280900000"/>
    <nd ref="280900001"/>
    <tag k="created_by" v="JOSM"/>
    <tag k="highway" v="residential"/>
    <tag k="name" v="Mikulášská"/>
    <tag k="name:source" v="nameit/uir-adr"/>
    <tag k="source" v="UHUL:ortofoto"/>
  </way>
  <way id="25757826" version="2" timestamp="2008-09-05T11:24:58Z" uid="1066" user="pavel" changeset="539695">
    <nd ref="280899422"/>
    <nd ref="280899421"/>
    <nd ref="280899424"/>
    <nd ref="280899423"/>
    <tag k="created_by" v="JOSM"/>
    <tag k="highway" v="residential"/>
    <tag k="name" v="Okružní"/>
    <tag k="name:source" v="nameit/uir-adr"/>
    <tag k="source" v="UHUL:ortofoto"/>
  </way>
  <way id="25757829" version="2" timestamp="2008-09-05T11:23:34Z" uid="1066" user="pavel" changeset="539695">
    <nd ref="280899371"/>
    <nd ref="280899375"/>
    <nd ref="280899376"/>
    <nd ref="280899377"/>
    <nd ref="280899378"/>
    <nd ref="280899379"/>
    <nd ref="280899348"/>
    <tag k="created_by" v="JOSM"/>
    <tag k="highway" v="residential"/>
    <tag k="name" v="Dobrovského"/>
    <tag k="name:source" v="nameit/uir-adr"/>
    <tag k="source" v="UHUL:ortofoto"/>
  </way>
  <way id="25757835" version="2" timestamp="2008-09-05T11:23:44Z" uid="1066" user="pavel" changeset="539695">
    <nd ref="280899386"/>
    <nd ref="280899388"/>
    <nd ref="280899389"/>
    <nd ref="280899390"/>
    <nd ref="280899391"/>
    <nd ref="280899404"/>
    <nd ref="280899392"/>
    <nd ref="280899393"/>
    <tag k="created_by" v="JOSM"/>
    <tag k="highway" v="residential"/>
    <tag k="name" v="Široká"/>
    <tag k="name:source" v="nameit/uir-adr"/>
    <tag k="source" v="UHUL:ortofoto"/>
  </way>
  <way id="25757836" version="2" timestamp="2008-09-05T11:23:52Z" uid="1066" user="pavel" changeset="539695">
    <nd ref="280899369"/>
    <nd ref="280899370"/>
    <tag k="created_by" v="JOSM"/>
    <tag k="highway" v="residential"/>
    <tag k="name" v="Brněnská"/>
    <tag k="name:source" v="nameit/uir-adr"/>
    <tag k="source" v="UHUL:ortofoto"/>
  </way>
  <way id="25757838" version="3" timestamp="2008-09-05T11:24:07Z" uid="1066" user="pavel" changeset="539695">
    <nd ref="280899398"/>
    <nd ref="280899397"/>
    <tag k="created_by" v="Potlatch 0.10b"/>
    <tag k="highway" v="residential"/>
    <tag k="name" v="Tovaryšský vrch"/>
    <tag k="name:source" v="nameit/uir-adr"/>
    <tag k="source" v="UHUL:ortofoto"/>
  </way>
  <way id="25757839" version="2" timestamp="2008-09-05T11:24:15Z" uid="1066" user="pavel" changeset="539695">
    <nd ref="280899523"/>
    <nd ref="280899530"/>
    <nd ref="280899527"/>
    <tag k="created_by" v="JOSM"/>
    <tag k="highway" v="residential"/>
    <tag k="name" v="Přemyslova"/>
    <tag k="name:source" v="nameit/uir-adr"/>
    <tag k="source" v="UHUL:ortofoto"/>
  </way>
  <way id="25757846" version="2" timestamp="2008-09-05T11:24:49Z" uid="1066" user="pavel" changeset="539695">
    <nd ref="280899381"/>
    <nd ref="280899380"/>
    <nd ref="206218158"/>
    <nd ref="280899369"/>
    <nd ref="280899366"/>
    <tag k="created_by" v="JOSM"/>
    <tag k="highway" v="residential"/>
    <tag k="name" v="U Soudu"/>
    <tag k="name:source" v="nameit/uir-adr"/>
    <tag k="source" v="UHUL:ortofoto"/>
  </way>
  <way id="25757863" version="3" timestamp="2010-04-26T13:59:59Z" uid="4467" user="Rosscoe" changeset="4532178">
    <nd ref="31562224"/>
    <nd ref="266265728"/>
    <nd ref="266265729"/>
    <nd ref="266265730"/>
    <nd ref="266265731"/>
    <nd ref="29174430"/>
    <nd ref="266265790"/>
    <nd ref="266267812"/>
    <nd ref="266265792"/>
    <nd ref="266267779"/>
    <nd ref="266265793"/>
    <nd ref="266265794"/>
    <nd ref="247484755"/>
    <nd ref="266267356"/>
    <nd ref="31559384"/>
    <nd ref="50549860"/>
    <nd ref="266267653"/>
    <nd ref="266266124"/>
    <nd ref="707419173"/>
    <nd ref="29174429"/>
    <tag k="highway" v="primary"/>
    <tag k="name" v="Grange Road"/>
    <tag k="ref" v="S17"/>
  </way>
  <way id="25757911" version="5" timestamp="2010-07-09T03:24:27Z" uid="74617" user="JohnSmith" changeset="5170713">
    <nd ref="31562243"/>
    <nd ref="605045214"/>
    <nd ref="31562248"/>
    <nd ref="588252476"/>
    <nd ref="31562265"/>
    <tag k="highway" v="residential"/>
    <tag k="maxspeed" v="50"/>
    <tag k="maxspeed:source" v="default residential speed limit in Australia"/>
    <tag k="name" v="Truganini Road"/>
  </way>
  <way id="25757993" version="6" timestamp="2011-03-24T03:03:32Z" uid="4467" user="Rosscoe" changeset="7652403">
    <nd ref="280901262"/>
    <nd ref="280901400"/>
    <nd ref="318038448"/>
    <nd ref="318038434"/>
    <tag k="highway" v="secondary"/>
    <tag k="oneway" v="yes"/>
    <tag k="source" v="nearmap"/>
  </way>
</osm>
