<?xml version='1.0' encoding='UTF-8'?>
<osm version="0.6" generator="libosmium/2.20.0">
  <way id="25764008" version="2" timestamp="2011-04-03T16:49:02Z" uid="4467" user="Rosscoe" changeset="7756305">
    <nd ref="280985072"/>
    <nd ref="280985069"/>
    <nd ref="1231097185"/>
    <nd ref="1231096866"/>
    <nd ref="280985074"/>
    <nd ref="280985077"/>
    <nd ref="280985072"/>
    <tag k="amenity" v="school"/>
    <tag k="name" v="St Ignatious College"/>
  </way>
  <way id="25764008" version="3" timestamp="2011-04-04T02:00:05Z" uid="4467" user="Rosscoe" changeset="7760508">
    <nd ref="280985072"/>
    <nd ref="280985069"/>
    <nd ref="1231097185"/>
    <nd ref="1231096866"/>
    <nd ref="280985074"/>
    <nd ref="280985077"/>
    <nd ref="280985072"/>
    <tag k="amenity" v="school"/>
    <tag k="name" v="St Ignatious College"/>
  </way>
  <way id="25764012" version="2" timestamp="2010-08-16T06:04:59Z" uid="4467" user="Rosscoe" changeset="5506382">
    <nd ref="280985185"/>
    <nd ref="280985188"/>
    <nd ref="262953287"/>
    <nd ref="862777663"/>
    <nd ref="862777746"/>
    <nd ref="280985171"/>
    <nd ref="280985173"/>
    <nd ref="280985176"/>
    <nd ref="280985178"/>
    <nd ref="280985183"/>
    <nd ref="280985185"/>
    <tag k="building" v="yes"/>
    <tag k="name" v="Foodland"/>
    <tag k="shop" v="supermarket"/>
  </way>
  <way id="25764018" version="3" timestamp="2010-07-26T06:27:59Z" uid="4467" user="Rosscoe" changeset="5318448">
    <nd ref="253434504"/>
    <nd ref="280985289"/>
    <nd ref="280985288"/>
    <nd ref="833669296"/>
    <nd ref="280985287"/>
    <nd ref="280985286"/>
    <nd ref="280985284"/>
    <nd ref="280985280"/>
    <nd ref="280985269"/>
    <nd ref="280985268"/>
    <nd ref="280985267"/>
    <nd ref="253434503"/>
    <nd ref="253434504"/>
    <tag k="amenity" v="college"/>
    <tag k="name" v="Urrbrae Educational Centre"/>
    <tag k="source" v="yahoo"/>
    <tag k="source:name" v="survey"/>
  </way>
  <way id="25764022" version="3" timestamp="2010-07-26T06:28:17Z" uid="4467" user="Rosscoe" changeset="5318448">
    <nd ref="280985122"/>
    <nd ref="280985125"/>
    <nd ref="280985277"/>
    <nd ref="280985278"/>
    <nd ref="280985279"/>
    <nd ref="271886117"/>
    <nd ref="253430941"/>
    <nd ref="253430942"/>
    <nd ref="253430943"/>
    <nd ref="253430944"/>
    <nd ref="253430945"/>
    <nd ref="280985104"/>
    <nd ref="833669317"/>
    <nd ref="280985112"/>
    <nd ref="280985115"/>
    <nd ref="833669305"/>
    <nd ref="833669303"/>
    <nd ref="280985117"/>
    <nd ref="280985120"/>
    <nd ref="280985122"/>
    <tag k="amenity" v="university"/>
    <tag k="name" v="University of Adelaide - Waite Campus"/>
  </way>
  <way id="25764174" version="2" timestamp="2008-09-05T11:23:40Z" uid="1066" user="pavel" changeset="539695">
    <nd ref="280987433"/>
    <nd ref="280987458"/>
    <nd ref="280987457"/>
    <nd ref="280987456"/>
    <nd ref="280987419"/>
    <tag k="created_by" v="JOSM"/>
    <tag k="highway" v="residential"/>
    <tag k="name" v="Hodkovická"/>
    <tag k="name:source" v="nameit/uir-adr"/>
    <tag k="source" v="UHUL:ortofoto"/>
  </way>
  <way id="25764175" version="2" timestamp="2008-09-05T11:24:23Z" uid="1066" user="pavel" changeset="539695">
    <nd ref="280987419"/>
    <nd ref="280987412"/>
    <tag k="created_by" v="JOSM"/>
    <tag k="highway" v="residential"/>
    <tag k="name" v="Hodkovická"/>
    <tag k="name:source" v="nameit/uir-adr"/>
    <tag k="source" v="UHUL:ortofoto"/>
  </way>
  <way id="25764178" version="2" timestamp="2008-09-05T11:24:57Z" uid="1066" user="pavel" changeset="539695">
    <nd ref="280987449"/>
    <nd ref="280987447"/>
    <nd ref="280987446"/>
    <nd ref="280987450"/>
    <tag k="created_by" v="JOSM"/>
    <tag k="highway" v="residential"/>
    <tag k="name" v="Turnovská"/>
    <tag k="name:source" v="nameit/uir-adr"/>
    <tag k="source" v="UHUL:ortofoto"/>
  </way>
  <way id="25764179" version="2" timestamp="2008-09-05T11:25:14Z" uid="1066" user="pavel" changeset="539695">
    <nd ref="280987447"/>
    <nd ref="280987444"/>
    <nd ref="280987445"/>
    <nd ref="280987446"/>
    <tag k="created_by" v="JOSM"/>
    <tag k="highway" v="residential"/>
    <tag k="name" v="Kaplického"/>
    <tag k="name:source" v="nameit/uir-adr"/>
    <tag k="source" v="UHUL:ortofoto"/>
  </way>
  <way id="25764180" version="2" timestamp="2008-09-05T11:25:18Z" uid="1066" user="pavel" changeset="539695">
    <nd ref="280987455"/>
    <nd ref="280987454"/>
    <nd ref="280987453"/>
    <nd ref="280987452"/>
    <nd ref="280987451"/>
    <nd ref="280987415"/>
    <tag k="created_by" v="JOSM"/>
    <tag k="highway" v="residential"/>
    <tag k="name" v="Kaplického"/>
    <tag k="name:source" v="nameit/uir-adr"/>
    <tag k="source" v="UHUL:ortofoto"/>
  </way>
  <way id="25764181" version="2" timestamp="2008-09-05T11:23:37Z" uid="1066" user="pavel" changeset="539695">
    <nd ref="280987451"/>
    <nd ref="280987450"/>
    <nd ref="248467423"/>
    <tag k="created_by" v="JOSM"/>
    <tag k="highway" v="residential"/>
    <tag k="name" v="Turnovská"/>
    <tag k="name:source" v="nameit/uir-adr"/>
    <tag k="source" v="UHUL:ortofoto"/>
  </way>
  <way id="25764182" version="2" timestamp="2008-09-05T11:23:30Z" uid="1066" user="pavel" changeset="539695">
    <nd ref="280987061"/>
    <nd ref="280987055"/>
    <nd ref="280987056"/>
    <nd ref="280987067"/>
    <nd ref="280987079"/>
    <nd ref="280987076"/>
    <nd ref="280987075"/>
    <nd ref="280987074"/>
    <nd ref="280987073"/>
    <nd ref="280987080"/>
    <nd ref="280987079"/>
    <tag k="created_by" v="JOSM"/>
    <tag k="highway" v="residential"/>
    <tag k="name" v="Horní Kopečná"/>
    <tag k="name:source" v="nameit/uir-adr"/>
    <tag k="source" v="UHUL:ortofoto"/>
  </way>
  <way id="25764183" version="2" timestamp="2008-09-05T11:23:34Z" uid="1066" user="pavel" changeset="539695">
    <nd ref="280987053"/>
    <nd ref="268874887"/>
    <tag k="created_by" v="JOSM"/>
    <tag k="highway" v="residential"/>
    <tag k="name" v="Boleslavova"/>
    <tag k="name:source" v="nameit/uir-adr"/>
    <tag k="source" v="UHUL:ortofoto"/>
  </way>
  <way id="25764184" version="2" timestamp="2008-09-05T11:23:37Z" uid="1066" user="pavel" changeset="539695">
    <nd ref="280987072"/>
    <nd ref="280987071"/>
    <nd ref="280987070"/>
    <nd ref="280987069"/>
    <nd ref="280987091"/>
    <nd ref="280987092"/>
    <nd ref="280987089"/>
    <nd ref="280987056"/>
    <nd ref="280987090"/>
    <nd ref="280987096"/>
    <nd ref="280987095"/>
    <tag k="created_by" v="JOSM"/>
    <tag k="highway" v="residential"/>
    <tag k="name" v="Na Jezírku"/>
    <tag k="name:source" v="nameit/uir-adr"/>
    <tag k="source" v="UHUL:ortofoto"/>
  </way>
  <way id="25764185" version="2" timestamp="2008-09-05T11:24:51Z" uid="1066" user="pavel" changeset="539695">
    <nd ref="280987078"/>
    <nd ref="280987077"/>
    <nd ref="280987068"/>
    <nd ref="280987067"/>
    <nd ref="280987066"/>
    <nd ref="280987065"/>
    <tag k="created_by" v="JOSM"/>
    <tag k="highway" v="residential"/>
    <tag k="name" v="Majakovského"/>
    <tag k="name:source" v="nameit/uir-adr"/>
    <tag k="source" v="UHUL:ortofoto"/>
  </way>
  <way id="25764188" version="2" timestamp="2008-09-05T11:24:13Z" uid="1066" user="pavel" changeset="539695">
    <nd ref="280987050"/>
    <nd ref="280987093"/>
    <nd ref="268874899"/>
    <nd ref="280987053"/>
    <nd ref="280987054"/>
    <tag k="created_by" v="JOSM"/>
    <tag k="highway" v="residential"/>
    <tag k="name" v="Červeného"/>
    <tag k="name:source" v="nameit/uir-adr"/>
    <tag k="source" v="UHUL:ortofoto"/>
  </way>
  <way id="25764189" version="2" timestamp="2008-09-05T11:23:58Z" uid="1066" user="pavel" changeset="539695">
    <nd ref="280986939"/>
    <nd ref="280987088"/>
    <nd ref="280987087"/>
    <nd ref="280987082"/>
    <nd ref="280987081"/>
    <nd ref="280987084"/>
    <nd ref="280987083"/>
    <nd ref="280987094"/>
    <nd ref="280987064"/>
    <nd ref="280987103"/>
    <nd ref="280987050"/>
    <nd ref="280987051"/>
    <nd ref="280987052"/>
    <nd ref="268874898"/>
    <tag k="created_by" v="JOSM"/>
    <tag k="highway" v="residential"/>
    <tag k="name" v="Dělnická"/>
    <tag k="name:source" v="nameit/uir-adr"/>
    <tag k="source" v="UHUL:ortofoto"/>
  </way>
  <way id="25764191" version="3" timestamp="2008-09-05T11:23:57Z" uid="1066" user="pavel" changeset="539695">
    <nd ref="280987485"/>
    <nd ref="280987474"/>
    <nd ref="280987475"/>
    <nd ref="280987476"/>
    <nd ref="280987477"/>
    <nd ref="288196312"/>
    <nd ref="280987470"/>
    <nd ref="280987471"/>
    <nd ref="280987472"/>
    <nd ref="280987473"/>
    <nd ref="280900088"/>
    <tag k="created_by" v="JOSM"/>
    <tag k="highway" v="residential"/>
    <tag k="name" v="Doubská"/>
    <tag k="name:source" v="nameit/uir-adr"/>
    <tag k="source" v="UHUL:ortofoto"/>
  </way>
  <way id="25764192" version="2" timestamp="2008-09-05T11:24:00Z" uid="1066" user="pavel" changeset="539695">
    <nd ref="280987483"/>
    <nd ref="280987484"/>
    <nd ref="280987478"/>
    <nd ref="280987479"/>
    <nd ref="280987480"/>
    <nd ref="280987481"/>
    <nd ref="248467492"/>
    <tag k="created_by" v="JOSM"/>
    <tag k="highway" v="residential"/>
    <tag k="name" v="Dukelská"/>
    <tag k="name:source" v="nameit/uir-adr"/>
    <tag k="source" v="UHUL:ortofoto"/>
  </way>
  <way id="25764193" version="2" timestamp="2008-09-05T11:24:15Z" uid="1066" user="pavel" changeset="539695">
    <nd ref="268875282"/>
    <nd ref="280987485"/>
    <tag k="created_by" v="JOSM"/>
    <tag k="highway" v="residential"/>
    <tag k="name" v="Doubská"/>
    <tag k="name:source" v="nameit/uir-adr"/>
    <tag k="source" v="UHUL:ortofoto"/>
  </way>
  <way id="25764194" version="2" timestamp="2008-09-05T11:24:19Z" uid="1066" user="pavel" changeset="539695">
    <nd ref="280987411"/>
    <nd ref="280987577"/>
    <nd ref="280987578"/>
    <nd ref="280987579"/>
    <nd ref="280987395"/>
    <tag k="created_by" v="JOSM"/>
    <tag k="highway" v="residential"/>
    <tag k="name" v="Kašparova"/>
    <tag k="name:source" v="nameit/uir-adr"/>
    <tag k="source" v="UHUL:ortofoto"/>
  </way>
  <way id="25764195" version="2" timestamp="2008-09-05T11:24:13Z" uid="1066" user="pavel" changeset="539695">
    <nd ref="280987437"/>
    <nd ref="280987434"/>
    <nd ref="280987435"/>
    <nd ref="280987498"/>
    <tag k="created_by" v="JOSM"/>
    <tag k="highway" v="residential"/>
    <tag k="name" v="Mařanova"/>
    <tag k="name:source" v="nameit/uir-adr"/>
    <tag k="source" v="UHUL:ortofoto"/>
  </way>
  <way id="25764196" version="2" timestamp="2008-09-05T11:24:09Z" uid="1066" user="pavel" changeset="539695">
    <nd ref="280987449"/>
    <nd ref="280987438"/>
    <nd ref="280987439"/>
    <nd ref="280987436"/>
    <nd ref="280987418"/>
    <tag k="created_by" v="JOSM"/>
    <tag k="highway" v="residential"/>
    <tag k="name" v="Mařanova"/>
    <tag k="name:source" v="nameit/uir-adr"/>
    <tag k="source" v="UHUL:ortofoto"/>
  </way>
  <way id="25764197" version="2" timestamp="2008-09-05T11:24:20Z" uid="1066" user="pavel" changeset="539695">
    <nd ref="280987449"/>
    <nd ref="248467260"/>
    <tag k="created_by" v="JOSM"/>
    <tag k="highway" v="residential"/>
    <tag k="name" v="V Cihelně"/>
    <tag k="name:source" v="nameit/uir-adr"/>
    <tag k="source" v="UHUL:ortofoto"/>
  </way>
  <way id="25764199" version="2" timestamp="2008-09-05T11:24:32Z" uid="1066" user="pavel" changeset="539695">
    <nd ref="280987485"/>
    <nd ref="280987482"/>
    <nd ref="280987483"/>
    <nd ref="280987487"/>
    <nd ref="280987488"/>
    <nd ref="280987489"/>
    <nd ref="248467271"/>
    <nd ref="280987486"/>
    <nd ref="73369958"/>
    <tag k="created_by" v="JOSM"/>
    <tag k="highway" v="residential"/>
    <tag k="name" v="Chabarovská"/>
    <tag k="name:source" v="nameit/uir-adr"/>
    <tag k="source" v="UHUL:ortofoto"/>
  </way>
  <way id="25764200" version="2" timestamp="2008-09-05T11:24:30Z" uid="1066" user="pavel" changeset="539695">
    <nd ref="280987496"/>
    <nd ref="280987495"/>
    <nd ref="280987487"/>
    <nd ref="268875282"/>
    <tag k="created_by" v="JOSM"/>
    <tag k="highway" v="residential"/>
    <tag k="name" v="České mládeže"/>
    <tag k="name:source" v="nameit/uir-adr"/>
    <tag k="source" v="UHUL:ortofoto"/>
  </way>
  <way id="25764201" version="2" timestamp="2008-09-05T11:25:26Z" uid="1066" user="pavel" changeset="539695">
    <nd ref="280987499"/>
    <nd ref="280987492"/>
    <nd ref="280987490"/>
    <tag k="created_by" v="JOSM"/>
    <tag k="highway" v="residential"/>
    <tag k="name" v="Hodkovická"/>
    <tag k="name:source" v="nameit/uir-adr"/>
    <tag k="source" v="UHUL:ortofoto"/>
  </way>
  <way id="25764202" version="2" timestamp="2008-09-05T11:25:28Z" uid="1066" user="pavel" changeset="539695">
    <nd ref="280987497"/>
    <nd ref="280987500"/>
    <tag k="created_by" v="JOSM"/>
    <tag k="highway" v="residential"/>
    <tag k="name" v="Vackova"/>
    <tag k="name:source" v="nameit/uir-adr"/>
    <tag k="source" v="UHUL:ortofoto"/>
  </way>
  <way id="25764203" version="2" timestamp="2008-09-05T11:25:12Z" uid="1066" user="pavel" changeset="539695">
    <nd ref="268874872"/>
    <nd ref="280986921"/>
    <nd ref="280986920"/>
    <nd ref="280986923"/>
    <nd ref="280986922"/>
    <nd ref="280986926"/>
    <nd ref="280986925"/>
    <nd ref="248467753"/>
    <tag k="created_by" v="JOSM"/>
    <tag k="highway" v="residential"/>
    <tag k="name" v="Sametová"/>
    <tag k="name:source" v="nameit/uir-adr"/>
    <tag k="source" v="UHUL:ortofoto"/>
  </way>
  <way id="25764204" version="2" timestamp="2008-09-05T11:25:24Z" uid="1066" user="pavel" changeset="539695">
    <nd ref="280987099"/>
    <nd ref="280987133"/>
    <nd ref="280987134"/>
    <nd ref="280987135"/>
    <nd ref="280987136"/>
    <nd ref="280987126"/>
    <nd ref="280987129"/>
    <nd ref="280987131"/>
    <nd ref="280987132"/>
    <nd ref="280987122"/>
    <nd ref="280987123"/>
    <nd ref="280987124"/>
    <nd ref="280987125"/>
    <nd ref="280987118"/>
    <tag k="created_by" v="JOSM"/>
    <tag k="highway" v="residential"/>
    <tag k="name" v="Kollárova"/>
    <tag k="name:source" v="nameit/uir-adr"/>
    <tag k="source" v="UHUL:ortofoto"/>
  </way>
  <way id="25764205" version="2" timestamp="2008-09-05T11:24:57Z" uid="1066" user="pavel" changeset="539695">
    <nd ref="268874869"/>
    <nd ref="280986936"/>
    <tag k="created_by" v="JOSM"/>
    <tag k="highway" v="residential"/>
    <tag k="name" v="Broumovská"/>
    <tag k="name:source" v="nameit/uir-adr"/>
    <tag k="source" v="UHUL:ortofoto"/>
  </way>
  <way id="25764206" version="2" timestamp="2008-09-05T11:25:01Z" uid="1066" user="pavel" changeset="539695">
    <nd ref="280986935"/>
    <nd ref="280986939"/>
    <nd ref="280986940"/>
    <nd ref="280986937"/>
    <nd ref="280986938"/>
    <nd ref="280986943"/>
    <tag k="created_by" v="JOSM"/>
    <tag k="highway" v="residential"/>
    <tag k="name" v="Na Kačírku"/>
    <tag k="name:source" v="nameit/uir-adr"/>
    <tag k="source" v="UHUL:ortofoto"/>
  </way>
  <way id="25764207" version="2" timestamp="2008-09-05T11:25:08Z" uid="1066" user="pavel" changeset="539695">
    <nd ref="280987106"/>
    <nd ref="280987104"/>
    <tag k="created_by" v="JOSM"/>
    <tag k="highway" v="residential"/>
    <tag k="name" v="Tylova"/>
    <tag k="name:source" v="nameit/uir-adr"/>
    <tag k="source" v="UHUL:ortofoto"/>
  </way>
  <way id="25764208" version="2" timestamp="2008-09-05T11:25:06Z" uid="1066" user="pavel" changeset="539695">
    <nd ref="205428048"/>
    <nd ref="280986912"/>
    <nd ref="280986913"/>
    <nd ref="280986914"/>
    <tag k="created_by" v="JOSM"/>
    <tag k="highway" v="residential"/>
    <tag k="name" v="Fučíkova"/>
    <tag k="name:source" v="nameit/uir-adr"/>
    <tag k="source" v="UHUL:ortofoto"/>
  </way>
  <way id="25764209" version="2" timestamp="2008-09-05T11:24:18Z" uid="1066" user="pavel" changeset="539695">
    <nd ref="280987097"/>
    <nd ref="280987101"/>
    <tag k="created_by" v="JOSM"/>
    <tag k="highway" v="residential"/>
    <tag k="name" v="Havlíčkova"/>
    <tag k="name:source" v="nameit/uir-adr"/>
    <tag k="source" v="UHUL:ortofoto"/>
  </way>
  <way id="25764210" version="2" timestamp="2008-09-05T11:24:15Z" uid="1066" user="pavel" changeset="539695">
    <nd ref="280987051"/>
    <nd ref="280987134"/>
    <nd ref="280987101"/>
    <nd ref="280987104"/>
    <nd ref="280987098"/>
    <tag k="created_by" v="JOSM"/>
    <tag k="highway" v="residential"/>
    <tag k="name" v="Hradební"/>
    <tag k="name:source" v="nameit/uir-adr"/>
    <tag k="source" v="UHUL:ortofoto"/>
  </way>
  <way id="25764211" version="2" timestamp="2008-09-05T11:24:49Z" uid="1066" user="pavel" changeset="539695">
    <nd ref="73326871"/>
    <nd ref="280987431"/>
    <nd ref="280987430"/>
    <nd ref="280987433"/>
    <nd ref="280987408"/>
    <nd ref="280987465"/>
    <nd ref="280987464"/>
    <nd ref="280987463"/>
    <nd ref="280987462"/>
    <nd ref="280987461"/>
    <nd ref="280987460"/>
    <nd ref="280987459"/>
    <tag k="created_by" v="JOSM"/>
    <tag k="highway" v="residential"/>
    <tag k="name" v="Minkovická"/>
    <tag k="name:source" v="nameit/uir-adr"/>
    <tag k="source" v="UHUL:ortofoto"/>
  </way>
  <way id="25764213" version="2" timestamp="2008-09-05T11:24:40Z" uid="1066" user="pavel" changeset="539695">
    <nd ref="280987419"/>
    <nd ref="280987420"/>
    <nd ref="280987417"/>
    <tag k="created_by" v="JOSM"/>
    <tag k="highway" v="residential"/>
    <tag k="name" v="Proletářská"/>
    <tag k="name:source" v="nameit/uir-adr"/>
    <tag k="source" v="UHUL:ortofoto"/>
  </way>
  <way id="25764215" version="2" timestamp="2008-09-05T11:24:54Z" uid="1066" user="pavel" changeset="539695">
    <nd ref="268874866"/>
    <nd ref="280986941"/>
    <nd ref="280986944"/>
    <tag k="created_by" v="JOSM"/>
    <tag k="highway" v="residential"/>
    <tag k="name" v="Soukenická"/>
    <tag k="name:source" v="nameit/uir-adr"/>
    <tag k="source" v="UHUL:ortofoto"/>
  </way>
  <way id="25764216" version="2" timestamp="2008-09-05T11:24:54Z" uid="1066" user="pavel" changeset="539695">
    <nd ref="280986941"/>
    <nd ref="280986946"/>
    <nd ref="280986942"/>
    <nd ref="280986947"/>
    <nd ref="280986948"/>
    <nd ref="280986945"/>
    <nd ref="280986946"/>
    <tag k="created_by" v="JOSM"/>
    <tag k="highway" v="residential"/>
    <tag k="name" v="Soukenická"/>
    <tag k="name:source" v="nameit/uir-adr"/>
    <tag k="source" v="UHUL:ortofoto"/>
  </way>
  <way id="25764219" version="2" timestamp="2008-09-05T11:24:03Z" uid="1066" user="pavel" changeset="539695">
    <nd ref="280986951"/>
    <nd ref="280986952"/>
    <nd ref="280986949"/>
    <nd ref="280986950"/>
    <nd ref="280986956"/>
    <nd ref="280986955"/>
    <nd ref="280986954"/>
    <tag k="created_by" v="JOSM"/>
    <tag k="highway" v="residential"/>
    <tag k="name" v="Ševčíkova"/>
    <tag k="name:source" v="nameit/uir-adr"/>
    <tag k="source" v="UHUL:ortofoto"/>
  </way>
  <way id="25764222" version="2" timestamp="2008-09-05T11:24:46Z" uid="1066" user="pavel" changeset="539695">
    <nd ref="280987421"/>
    <nd ref="280987422"/>
    <tag k="bridge" v="yes"/>
    <tag k="created_by" v="JOSM"/>
    <tag k="highway" v="residential"/>
    <tag k="layer" v="1"/>
    <tag k="name" v="Sportovní"/>
    <tag k="name:source" v="nameit/uir-adr"/>
  </way>
  <way id="25764223" version="2" timestamp="2008-09-05T11:24:39Z" uid="1066" user="pavel" changeset="539695">
    <nd ref="280987417"/>
    <nd ref="280987421"/>
    <tag k="created_by" v="JOSM"/>
    <tag k="highway" v="residential"/>
    <tag k="name" v="Proletářská"/>
    <tag k="name:source" v="nameit/uir-adr"/>
    <tag k="source" v="UHUL:ortofoto"/>
  </way>
  <way id="25764224" version="2" timestamp="2008-09-05T11:24:45Z" uid="1066" user="pavel" changeset="539695">
    <nd ref="280987329"/>
    <nd ref="280987328"/>
    <nd ref="280987331"/>
    <nd ref="280987330"/>
    <nd ref="280987333"/>
    <nd ref="280987335"/>
    <nd ref="280987332"/>
    <tag k="created_by" v="JOSM"/>
    <tag k="highway" v="residential"/>
    <tag k="name" v="Donská"/>
    <tag k="name:source" v="nameit/uir-adr"/>
    <tag k="source" v="UHUL:ortofoto"/>
  </way>
  <way id="25764225" version="2" timestamp="2008-09-05T11:25:23Z" uid="1066" user="pavel" changeset="539695">
    <nd ref="280987415"/>
    <nd ref="280987437"/>
    <nd ref="280987420"/>
    <tag k="created_by" v="JOSM"/>
    <tag k="highway" v="residential"/>
    <tag k="name" v="Proletářská"/>
    <tag k="name:source" v="nameit/uir-adr"/>
    <tag k="source" v="UHUL:ortofoto"/>
  </way>
  <way id="25764226" version="2" timestamp="2008-09-05T11:25:22Z" uid="1066" user="pavel" changeset="539695">
    <nd ref="280987402"/>
    <nd ref="280987405"/>
    <nd ref="280987404"/>
    <nd ref="280987407"/>
    <tag k="created_by" v="JOSM"/>
    <tag k="highway" v="residential"/>
    <tag k="name" v="Karafiátová"/>
    <tag k="name:source" v="nameit/uir-adr"/>
    <tag k="source" v="UHUL:ortofoto"/>
  </way>
  <way id="25764227" version="2" timestamp="2008-09-05T11:25:26Z" uid="1066" user="pavel" changeset="539695">
    <nd ref="280987401"/>
    <nd ref="280987402"/>
    <nd ref="280987403"/>
    <tag k="created_by" v="JOSM"/>
    <tag k="highway" v="residential"/>
    <tag k="name" v="Václavská"/>
    <tag k="name:source" v="nameit/uir-adr"/>
    <tag k="source" v="UHUL:ortofoto"/>
  </way>
  <way id="25764229" version="2" timestamp="2008-09-05T11:25:14Z" uid="1066" user="pavel" changeset="539695">
    <nd ref="268875720"/>
    <nd ref="280987396"/>
    <nd ref="280987395"/>
    <nd ref="280987398"/>
    <nd ref="280987397"/>
    <nd ref="280987400"/>
    <nd ref="280987399"/>
    <nd ref="280987401"/>
    <nd ref="280987416"/>
    <nd ref="268875722"/>
    <tag k="created_by" v="JOSM"/>
    <tag k="highway" v="residential"/>
    <tag k="name" v="Kašparova"/>
    <tag k="name:source" v="nameit/uir-adr"/>
    <tag k="source" v="UHUL:ortofoto"/>
  </way>
  <way id="25764230" version="2" timestamp="2008-09-05T11:25:12Z" uid="1066" user="pavel" changeset="539695">
    <nd ref="73294770"/>
    <nd ref="280987337"/>
    <nd ref="280987336"/>
    <nd ref="280987334"/>
    <tag k="created_by" v="JOSM"/>
    <tag k="highway" v="residential"/>
    <tag k="name" v="Kozácká"/>
    <tag k="name:source" v="nameit/uir-adr"/>
    <tag k="source" v="UHUL:ortofoto"/>
  </way>
  <way id="25764231" version="2" timestamp="2008-09-05T11:24:40Z" uid="1066" user="pavel" changeset="539695">
    <nd ref="280987334"/>
    <nd ref="280987339"/>
    <tag k="created_by" v="JOSM"/>
    <tag k="highway" v="residential"/>
    <tag k="name" v="Kozácká"/>
    <tag k="name:source" v="nameit/uir-adr"/>
    <tag k="source" v="UHUL:ortofoto"/>
  </way>
  <way id="25764232" version="2" timestamp="2008-09-05T11:24:45Z" uid="1066" user="pavel" changeset="539695">
    <nd ref="280987096"/>
    <nd ref="280987063"/>
    <tag k="created_by" v="JOSM"/>
    <tag k="highway" v="residential"/>
    <tag k="name" v="Na Jezírku"/>
    <tag k="name:source" v="nameit/uir-adr"/>
    <tag k="source" v="UHUL:ortofoto"/>
  </way>
  <way id="25764233" version="2" timestamp="2008-09-05T11:23:29Z" uid="1066" user="pavel" changeset="539695">
    <nd ref="280987335"/>
    <nd ref="280987331"/>
    <nd ref="280987334"/>
    <tag k="created_by" v="JOSM"/>
    <tag k="highway" v="residential"/>
    <tag k="name" v="Donská"/>
    <tag k="name:source" v="nameit/uir-adr"/>
    <tag k="source" v="UHUL:ortofoto"/>
  </way>
  <way id="25764234" version="2" timestamp="2008-09-05T11:23:39Z" uid="1066" user="pavel" changeset="539695">
    <nd ref="73291094"/>
    <nd ref="280987306"/>
    <nd ref="280987305"/>
    <nd ref="280987308"/>
    <nd ref="280987307"/>
    <nd ref="280987315"/>
    <nd ref="280987686"/>
    <nd ref="280987313"/>
    <nd ref="280987317"/>
    <tag k="created_by" v="JOSM"/>
    <tag k="highway" v="residential"/>
    <tag k="name" v="Zelené údolí"/>
    <tag k="name:source" v="nameit/uir-adr"/>
    <tag k="source" v="UHUL:ortofoto"/>
  </way>
  <way id="25764235" version="2" timestamp="2008-09-05T11:24:19Z" uid="1066" user="pavel" changeset="539695">
    <nd ref="248467740"/>
    <nd ref="280987316"/>
    <nd ref="280987319"/>
    <nd ref="280987318"/>
    <nd ref="280987321"/>
    <nd ref="280987320"/>
    <nd ref="280987323"/>
    <nd ref="280987322"/>
    <nd ref="280987325"/>
    <nd ref="280987324"/>
    <nd ref="280987327"/>
    <nd ref="280987326"/>
    <tag k="created_by" v="JOSM"/>
    <tag k="highway" v="residential"/>
    <tag k="name" v="Zelené údolí"/>
    <tag k="name:source" v="nameit/uir-adr"/>
    <tag k="source" v="UHUL:ortofoto"/>
  </way>
  <way id="25764236" version="2" timestamp="2008-09-05T11:23:45Z" uid="1066" user="pavel" changeset="539695">
    <nd ref="280900062"/>
    <nd ref="280987338"/>
    <nd ref="280987341"/>
    <nd ref="280987340"/>
    <nd ref="280987343"/>
    <nd ref="280987342"/>
    <nd ref="280987345"/>
    <nd ref="280987344"/>
    <nd ref="280987377"/>
    <nd ref="280987348"/>
    <nd ref="280987392"/>
    <nd ref="280987384"/>
    <nd ref="280987642"/>
    <nd ref="280987406"/>
    <nd ref="280987409"/>
    <nd ref="280987423"/>
    <nd ref="280987411"/>
    <nd ref="280987410"/>
    <nd ref="280987413"/>
    <nd ref="280987412"/>
    <nd ref="280987455"/>
    <nd ref="280987497"/>
    <nd ref="280987498"/>
    <nd ref="280987415"/>
    <nd ref="280987414"/>
    <nd ref="280987432"/>
    <nd ref="280987418"/>
    <nd ref="280987417"/>
    <tag k="created_by" v="JOSM"/>
    <tag k="highway" v="residential"/>
    <tag k="name" v="Mařanova"/>
    <tag k="name:source" v="nameit/uir-adr"/>
    <tag k="source" v="UHUL:ortofoto"/>
  </way>
  <way id="25764237" version="2" timestamp="2008-09-05T11:24:04Z" uid="1066" user="pavel" changeset="539695">
    <nd ref="280987021"/>
    <nd ref="280987029"/>
    <nd ref="280987030"/>
    <nd ref="280987031"/>
    <nd ref="280987032"/>
    <nd ref="280987017"/>
    <nd ref="280987022"/>
    <nd ref="280987020"/>
    <nd ref="280987019"/>
    <nd ref="280987018"/>
    <nd ref="280987023"/>
    <tag k="created_by" v="JOSM"/>
    <tag k="highway" v="residential"/>
    <tag k="name" v="Pod Skalkou"/>
    <tag k="name:source" v="nameit/uir-adr"/>
    <tag k="source" v="UHUL:ortofoto"/>
  </way>
  <way id="25764238" version="2" timestamp="2008-09-05T11:24:13Z" uid="1066" user="pavel" changeset="539695">
    <nd ref="201962862"/>
    <nd ref="280987009"/>
    <nd ref="280987010"/>
    <nd ref="280987024"/>
    <nd ref="280987023"/>
    <nd ref="280987028"/>
    <nd ref="280987022"/>
    <nd ref="280987021"/>
    <tag k="created_by" v="JOSM"/>
    <tag k="highway" v="residential"/>
    <tag k="name" v="Pod Skalkou"/>
    <tag k="name:source" v="nameit/uir-adr"/>
    <tag k="source" v="UHUL:ortofoto"/>
  </way>
  <way id="25764239" version="2" timestamp="2008-09-05T11:24:51Z" uid="1066" user="pavel" changeset="539695">
    <nd ref="280987013"/>
    <nd ref="280987014"/>
    <nd ref="280987011"/>
    <nd ref="280987012"/>
    <tag k="created_by" v="JOSM"/>
    <tag k="highway" v="residential"/>
    <tag k="name" v="Aloisina výšina"/>
    <tag k="name:source" v="nameit/uir-adr"/>
    <tag k="source" v="UHUL:ortofoto"/>
  </way>
  <way id="25764240" version="2" timestamp="2008-09-05T11:24:48Z" uid="1066" user="pavel" changeset="539695">
    <nd ref="280987082"/>
    <nd ref="280987085"/>
    <nd ref="280987086"/>
    <nd ref="280987114"/>
    <nd ref="280987113"/>
    <nd ref="280987117"/>
    <tag k="created_by" v="JOSM"/>
    <tag k="highway" v="residential"/>
    <tag k="name" v="Na Kačírku"/>
    <tag k="name:source" v="nameit/uir-adr"/>
    <tag k="source" v="UHUL:ortofoto"/>
  </way>
  <way id="25764241" version="2" timestamp="2008-09-05T11:24:50Z" uid="1066" user="pavel" changeset="539695">
    <nd ref="280987103"/>
    <nd ref="280987099"/>
    <nd ref="280987102"/>
    <nd ref="280987097"/>
    <nd ref="280987106"/>
    <nd ref="280900050"/>
    <tag k="created_by" v="JOSM"/>
    <tag k="highway" v="residential"/>
    <tag k="name" v="Šlikova"/>
    <tag k="name:source" v="nameit/uir-adr"/>
    <tag k="source" v="UHUL:ortofoto"/>
  </way>
  <way id="25764243" version="2" timestamp="2008-09-05T11:24:46Z" uid="1066" user="pavel" changeset="539695">
    <nd ref="280987113"/>
    <nd ref="280987115"/>
    <nd ref="280987108"/>
    <nd ref="280987107"/>
    <tag k="created_by" v="JOSM"/>
    <tag k="highway" v="residential"/>
    <tag k="name" v="Ševčíkova"/>
    <tag k="name:source" v="nameit/uir-adr"/>
    <tag k="source" v="UHUL:ortofoto"/>
  </way>
  <way id="25764244" version="2" timestamp="2008-09-05T11:24:52Z" uid="1066" user="pavel" changeset="539695">
    <nd ref="280986967"/>
    <nd ref="280986973"/>
    <nd ref="280986974"/>
    <nd ref="280986975"/>
    <nd ref="280986976"/>
    <tag k="created_by" v="JOSM"/>
    <tag k="highway" v="residential"/>
    <tag k="name" v="Na Výšinách"/>
    <tag k="name:source" v="nameit/uir-adr"/>
    <tag k="source" v="UHUL:ortofoto"/>
  </way>
  <way id="25764245" version="3" timestamp="2008-09-05T11:24:44Z" uid="1066" user="pavel" changeset="539695">
    <nd ref="280986969"/>
    <nd ref="280986970"/>
    <nd ref="280986971"/>
    <nd ref="280986965"/>
    <nd ref="280986972"/>
    <nd ref="280986981"/>
    <nd ref="280986982"/>
    <nd ref="280986976"/>
    <nd ref="280986983"/>
    <nd ref="280986984"/>
    <tag k="created_by" v="Potlatch 0.10a"/>
    <tag k="highway" v="residential"/>
    <tag k="name" v="Březinova"/>
    <tag k="name:source" v="nameit/uir-adr"/>
    <tag k="source" v="UHUL:ortofoto"/>
  </way>
  <way id="25764246" version="2" timestamp="2008-09-05T11:24:42Z" uid="1066" user="pavel" changeset="539695">
    <nd ref="280987028"/>
    <nd ref="280987027"/>
    <nd ref="280987026"/>
    <nd ref="280987025"/>
    <nd ref="280987042"/>
    <nd ref="280987041"/>
    <nd ref="280987044"/>
    <nd ref="280987043"/>
    <nd ref="280987046"/>
    <nd ref="280987045"/>
    <nd ref="280987048"/>
    <nd ref="280987047"/>
    <nd ref="280987034"/>
    <nd ref="280987033"/>
    <nd ref="280987036"/>
    <nd ref="280987035"/>
    <nd ref="280987038"/>
    <nd ref="280987037"/>
    <nd ref="280987040"/>
    <nd ref="280987042"/>
    <tag k="created_by" v="JOSM"/>
    <tag k="highway" v="residential"/>
    <tag k="name" v="Zavřená"/>
    <tag k="name:source" v="nameit/uir-adr"/>
    <tag k="source" v="UHUL:ortofoto"/>
  </way>
  <way id="25764247" version="2" timestamp="2008-09-05T11:25:21Z" uid="1066" user="pavel" changeset="539695">
    <nd ref="247991720"/>
    <nd ref="280986960"/>
    <nd ref="280986959"/>
    <nd ref="280986958"/>
    <nd ref="280986957"/>
    <nd ref="280986964"/>
    <nd ref="280986963"/>
    <nd ref="280986962"/>
    <nd ref="280986961"/>
    <nd ref="280986968"/>
    <nd ref="280986967"/>
    <nd ref="280986966"/>
    <nd ref="280986965"/>
    <nd ref="280987013"/>
    <nd ref="280987007"/>
    <nd ref="280987008"/>
    <tag k="created_by" v="JOSM"/>
    <tag k="highway" v="residential"/>
    <tag k="name" v="Aloisina výšina"/>
    <tag k="name:source" v="nameit/uir-adr"/>
    <tag k="source" v="UHUL:ortofoto"/>
  </way>
  <way id="25764249" version="2" timestamp="2008-09-05T11:24:26Z" uid="1066" user="pavel" changeset="539695">
    <nd ref="247995311"/>
    <nd ref="280986915"/>
    <nd ref="280986916"/>
    <nd ref="280986917"/>
    <nd ref="280986918"/>
    <nd ref="280986919"/>
    <tag k="created_by" v="JOSM"/>
    <tag k="highway" v="residential"/>
    <tag k="name" v="Heydukova"/>
    <tag k="name:source" v="nameit/uir-adr"/>
    <tag k="source" v="UHUL:ortofoto"/>
  </way>
  <way id="25764250" version="2" timestamp="2008-09-05T11:23:29Z" uid="1066" user="pavel" changeset="539695">
    <nd ref="280987138"/>
    <nd ref="280987137"/>
    <nd ref="280987154"/>
    <nd ref="280987155"/>
    <nd ref="280987121"/>
    <tag k="created_by" v="JOSM"/>
    <tag k="highway" v="residential"/>
    <tag k="name" v="Na Žižkově"/>
    <tag k="name:source" v="nameit/uir-adr"/>
    <tag k="source" v="UHUL:ortofoto"/>
  </way>
  <way id="25764251" version="2" timestamp="2008-09-05T11:23:35Z" uid="1066" user="pavel" changeset="539695">
    <nd ref="280986906"/>
    <nd ref="280986908"/>
    <nd ref="280986909"/>
    <nd ref="280986910"/>
    <nd ref="280986911"/>
    <tag k="created_by" v="JOSM"/>
    <tag k="highway" v="residential"/>
    <tag k="name" v="Blahoslavova"/>
    <tag k="name:source" v="nameit/uir-adr"/>
    <tag k="source" v="UHUL:ortofoto"/>
  </way>
  <way id="25764252" version="3" timestamp="2008-09-05T11:23:26Z" uid="1066" user="pavel" changeset="539695">
    <nd ref="280987125"/>
    <nd ref="280987119"/>
    <nd ref="280987120"/>
    <nd ref="280987121"/>
    <nd ref="280987152"/>
    <nd ref="280987151"/>
    <nd ref="280987150"/>
    <nd ref="280987149"/>
    <nd ref="280987148"/>
    <nd ref="280987139"/>
    <nd ref="280987147"/>
    <nd ref="280987146"/>
    <nd ref="288192683"/>
    <nd ref="288192678"/>
    <nd ref="280987145"/>
    <nd ref="280987144"/>
    <nd ref="280987143"/>
    <nd ref="280987142"/>
    <nd ref="288192689"/>
    <nd ref="248467743"/>
    <tag k="created_by" v="JOSM"/>
    <tag k="highway" v="residential"/>
    <tag k="name" v="Ježkova"/>
    <tag k="name:source" v="nameit/uir-adr"/>
    <tag k="source" v="UHUL:ortofoto"/>
  </way>
  <way id="25764254" version="2" timestamp="2008-09-05T11:23:54Z" uid="1066" user="pavel" changeset="539695">
    <nd ref="280987086"/>
    <nd ref="280987111"/>
    <nd ref="280987107"/>
    <nd ref="280987110"/>
    <tag k="created_by" v="JOSM"/>
    <tag k="highway" v="residential"/>
    <tag k="name" v="Ševčíkova"/>
    <tag k="name:source" v="nameit/uir-adr"/>
    <tag k="source" v="UHUL:ortofoto"/>
  </way>
  <way id="25764255" version="3" timestamp="2008-09-05T11:23:36Z" uid="1066" user="pavel" changeset="539695">
    <nd ref="280987141"/>
    <nd ref="280987140"/>
    <nd ref="288192701"/>
    <nd ref="280987139"/>
    <tag k="created_by" v="JOSM"/>
    <tag k="highway" v="residential"/>
    <tag k="name" v="Burianova"/>
    <tag k="name:source" v="nameit/uir-adr"/>
    <tag k="source" v="UHUL:ortofoto"/>
  </way>
  <way id="25764256" version="2" timestamp="2008-09-05T11:23:38Z" uid="1066" user="pavel" changeset="539695">
    <nd ref="280987384"/>
    <nd ref="280987580"/>
    <nd ref="280987672"/>
    <nd ref="280987581"/>
    <nd ref="280987675"/>
    <nd ref="280987676"/>
    <nd ref="280987582"/>
    <nd ref="280987583"/>
    <tag k="created_by" v="JOSM"/>
    <tag k="highway" v="residential"/>
    <tag k="name" v="Česká"/>
    <tag k="name:source" v="nameit/uir-adr"/>
    <tag k="source" v="UHUL:ortofoto"/>
  </way>
  <way id="25764257" version="2" timestamp="2008-09-05T11:24:44Z" uid="1066" user="pavel" changeset="539695">
    <nd ref="280987596"/>
    <nd ref="280987595"/>
    <nd ref="280987594"/>
    <nd ref="280987593"/>
    <nd ref="280987592"/>
    <nd ref="280987591"/>
    <nd ref="280987590"/>
    <nd ref="280987589"/>
    <nd ref="280987584"/>
    <nd ref="280987585"/>
    <nd ref="280987586"/>
    <nd ref="280987587"/>
    <nd ref="280987631"/>
    <nd ref="280987588"/>
    <nd ref="280987583"/>
    <tag k="created_by" v="JOSM"/>
    <tag k="highway" v="residential"/>
    <tag k="name" v="Vesecká"/>
    <tag k="name:source" v="nameit/uir-adr"/>
    <tag k="source" v="UHUL:ortofoto"/>
  </way>
  <way id="25764258" version="2" timestamp="2008-09-05T11:24:45Z" uid="1066" user="pavel" changeset="539695">
    <nd ref="280987594"/>
    <nd ref="280987597"/>
    <nd ref="280987598"/>
    <nd ref="280987599"/>
    <nd ref="280987600"/>
    <nd ref="280987601"/>
    <nd ref="280987602"/>
    <nd ref="280987603"/>
    <nd ref="280987604"/>
    <tag k="created_by" v="JOSM"/>
    <tag k="highway" v="residential"/>
    <tag k="name" v="Nad Tratí"/>
    <tag k="name:source" v="nameit/uir-adr"/>
    <tag k="source" v="UHUL:ortofoto"/>
  </way>
  <way id="25764259" version="2" timestamp="2008-09-05T11:24:34Z" uid="1066" user="pavel" changeset="539695">
    <nd ref="280987603"/>
    <nd ref="280987605"/>
    <nd ref="280987751"/>
    <nd ref="280987752"/>
    <nd ref="280987753"/>
    <nd ref="280987754"/>
    <nd ref="280987755"/>
    <nd ref="280987756"/>
    <tag k="created_by" v="JOSM"/>
    <tag k="highway" v="residential"/>
    <tag k="name" v="Nad Tratí"/>
    <tag k="name:source" v="nameit/uir-adr"/>
    <tag k="source" v="UHUL:ortofoto"/>
  </way>
  <way id="25764260" version="2" timestamp="2008-09-05T11:24:28Z" uid="1066" user="pavel" changeset="539695">
    <nd ref="280987606"/>
    <nd ref="280987607"/>
    <nd ref="280987608"/>
    <nd ref="280987609"/>
    <nd ref="280987610"/>
    <nd ref="280987611"/>
    <nd ref="280987605"/>
    <nd ref="280987612"/>
    <nd ref="280987604"/>
    <nd ref="280987613"/>
    <nd ref="280987614"/>
    <nd ref="280987615"/>
    <nd ref="280987616"/>
    <nd ref="280987617"/>
    <nd ref="280987618"/>
    <nd ref="280987619"/>
    <nd ref="280987620"/>
    <nd ref="280987621"/>
    <tag k="created_by" v="JOSM"/>
    <tag k="highway" v="residential"/>
    <tag k="name" v="Nad Tratí"/>
    <tag k="name:source" v="nameit/uir-adr"/>
    <tag k="source" v="UHUL:ortofoto"/>
  </way>
  <way id="25764261" version="2" timestamp="2008-09-05T11:24:38Z" uid="1066" user="pavel" changeset="539695">
    <nd ref="280987609"/>
    <nd ref="280987622"/>
    <nd ref="280987623"/>
    <nd ref="280987624"/>
    <nd ref="280987625"/>
    <nd ref="280987626"/>
    <nd ref="280987627"/>
    <nd ref="280987628"/>
    <nd ref="280987629"/>
    <nd ref="280987630"/>
    <nd ref="280987631"/>
    <tag k="created_by" v="JOSM"/>
    <tag k="highway" v="residential"/>
    <tag k="name" v="Nad Nisou"/>
    <tag k="name:source" v="nameit/uir-adr"/>
    <tag k="source" v="UHUL:ortofoto"/>
  </way>
  <way id="25764262" version="2" timestamp="2008-09-05T11:24:24Z" uid="1066" user="pavel" changeset="539695">
    <nd ref="280987626"/>
    <nd ref="280987632"/>
    <nd ref="280987633"/>
    <nd ref="280987682"/>
    <nd ref="280987634"/>
    <tag k="created_by" v="JOSM"/>
    <tag k="highway" v="residential"/>
    <tag k="name" v="Nad Nisou"/>
    <tag k="name:source" v="nameit/uir-adr"/>
    <tag k="source" v="UHUL:ortofoto"/>
  </way>
  <way id="25764264" version="2" timestamp="2008-09-05T11:24:48Z" uid="1066" user="pavel" changeset="539695">
    <nd ref="280987642"/>
    <nd ref="280987671"/>
    <nd ref="280987667"/>
    <nd ref="280987643"/>
    <nd ref="280987644"/>
    <nd ref="280987645"/>
    <nd ref="280987646"/>
    <nd ref="280987641"/>
    <nd ref="280987647"/>
    <nd ref="280987648"/>
    <nd ref="280987649"/>
    <nd ref="280987650"/>
    <nd ref="280987651"/>
    <nd ref="280987606"/>
    <tag k="created_by" v="JOSM"/>
    <tag k="highway" v="residential"/>
    <tag k="name" v="Dlouhá"/>
    <tag k="name:source" v="nameit/uir-adr"/>
    <tag k="source" v="UHUL:ortofoto"/>
  </way>
  <way id="25764268" version="2" timestamp="2008-09-05T11:23:42Z" uid="1066" user="pavel" changeset="539695">
    <nd ref="280987663"/>
    <nd ref="280987664"/>
    <nd ref="280987665"/>
    <nd ref="280987666"/>
    <nd ref="280987640"/>
    <tag k="created_by" v="JOSM"/>
    <tag k="highway" v="residential"/>
    <tag k="name" v="Nad Údolím"/>
    <tag k="name:source" v="nameit/uir-adr"/>
    <tag k="source" v="UHUL:ortofoto"/>
  </way>
  <way id="25764269" version="2" timestamp="2008-09-05T11:24:19Z" uid="1066" user="pavel" changeset="539695">
    <nd ref="280987667"/>
    <nd ref="280987670"/>
    <nd ref="280987668"/>
    <tag k="created_by" v="JOSM"/>
    <tag k="highway" v="residential"/>
    <tag k="name" v="Dlouhá"/>
    <tag k="name:source" v="nameit/uir-adr"/>
    <tag k="source" v="UHUL:ortofoto"/>
  </way>
  <way id="25764271" version="2" timestamp="2008-09-05T11:24:29Z" uid="1066" user="pavel" changeset="539695">
    <nd ref="280987671"/>
    <nd ref="280987669"/>
    <tag k="created_by" v="JOSM"/>
    <tag k="highway" v="residential"/>
    <tag k="name" v="Dlouhá"/>
    <tag k="name:source" v="nameit/uir-adr"/>
    <tag k="source" v="UHUL:ortofoto"/>
  </way>
  <way id="25764272" version="2" timestamp="2008-09-05T11:24:28Z" uid="1066" user="pavel" changeset="539695">
    <nd ref="280987672"/>
    <nd ref="280987673"/>
    <nd ref="280987664"/>
    <tag k="created_by" v="JOSM"/>
    <tag k="highway" v="residential"/>
    <tag k="name" v="Česká"/>
    <tag k="name:source" v="nameit/uir-adr"/>
    <tag k="source" v="UHUL:ortofoto"/>
  </way>
  <way id="25764273" version="2" timestamp="2008-09-05T11:25:08Z" uid="1066" user="pavel" changeset="539695">
    <nd ref="280987636"/>
    <nd ref="280987663"/>
    <nd ref="280987674"/>
    <nd ref="280987675"/>
    <tag k="created_by" v="JOSM"/>
    <tag k="highway" v="residential"/>
    <tag k="name" v="Nad Údolím"/>
    <tag k="name:source" v="nameit/uir-adr"/>
    <tag k="source" v="UHUL:ortofoto"/>
  </way>
  <way id="25764274" version="2" timestamp="2008-09-05T11:25:04Z" uid="1066" user="pavel" changeset="539695">
    <nd ref="280987630"/>
    <nd ref="280987677"/>
    <nd ref="280987678"/>
    <nd ref="280987679"/>
    <nd ref="280987680"/>
    <nd ref="280987681"/>
    <nd ref="280987663"/>
    <tag k="created_by" v="JOSM"/>
    <tag k="highway" v="residential"/>
    <tag k="name" v="Nad Údolím"/>
    <tag k="name:source" v="nameit/uir-adr"/>
    <tag k="source" v="UHUL:ortofoto"/>
  </way>
  <way id="25764277" version="2" timestamp="2008-09-05T11:23:47Z" uid="1066" user="pavel" changeset="539695">
    <nd ref="280987686"/>
    <nd ref="280987687"/>
    <nd ref="280987688"/>
    <nd ref="280987689"/>
    <nd ref="280987690"/>
    <nd ref="248467745"/>
    <tag k="created_by" v="JOSM"/>
    <tag k="highway" v="residential"/>
    <tag k="name" v="Zelené údolí"/>
    <tag k="name:source" v="nameit/uir-adr"/>
    <tag k="source" v="UHUL:ortofoto"/>
  </way>
  <way id="25764277" version="5" timestamp="2009-06-06T11:14:58Z" uid="64269" user="Triffnix" changeset="1437057">
    <nd ref="416407215"/>
    <nd ref="280987686"/>
    <nd ref="280987687"/>
    <nd ref="280987688"/>
    <nd ref="280987689"/>
    <nd ref="280987690"/>
    <nd ref="248467745"/>
    <tag k="highway" v="residential"/>
    <tag k="name" v="Zelené údolí"/>
    <tag k="source" v="uhul:ortofoto"/>
    <tag k="source:name" v="nameit/uir-adr"/>
  </way>
  <way id="25764278" version="2" timestamp="2008-09-05T11:23:42Z" uid="1066" user="pavel" changeset="539695">
    <nd ref="280987687"/>
    <nd ref="280987691"/>
    <nd ref="280987692"/>
    <nd ref="280987693"/>
    <nd ref="280987694"/>
    <nd ref="280987316"/>
    <tag k="created_by" v="JOSM"/>
    <tag k="highway" v="residential"/>
    <tag k="name" v="Zelené údolí"/>
    <tag k="name:source" v="nameit/uir-adr"/>
    <tag k="source" v="UHUL:ortofoto"/>
  </way>
  <way id="25764280" version="2" timestamp="2008-09-05T11:23:38Z" uid="1066" user="pavel" changeset="539695">
    <nd ref="280987697"/>
    <nd ref="280987698"/>
    <nd ref="280987699"/>
    <nd ref="280987700"/>
    <nd ref="280987701"/>
    <nd ref="280987702"/>
    <nd ref="280987703"/>
    <nd ref="280987704"/>
    <nd ref="280987705"/>
    <nd ref="280987706"/>
    <nd ref="280987707"/>
    <nd ref="280987699"/>
    <tag k="created_by" v="JOSM"/>
    <tag k="highway" v="residential"/>
    <tag k="name" v="Rochlická"/>
    <tag k="name:source" v="nameit/uir-adr"/>
    <tag k="source" v="UHUL:ortofoto"/>
  </way>
  <way id="25764281" version="2" timestamp="2008-09-05T11:25:20Z" uid="1066" user="pavel" changeset="539695">
    <nd ref="280987698"/>
    <nd ref="280987708"/>
    <nd ref="280987709"/>
    <nd ref="280987710"/>
    <nd ref="280987711"/>
    <nd ref="280987712"/>
    <nd ref="280987713"/>
    <nd ref="280987714"/>
    <nd ref="280987716"/>
    <nd ref="280987715"/>
    <nd ref="280987720"/>
    <nd ref="280987721"/>
    <nd ref="280987722"/>
    <nd ref="280987723"/>
    <nd ref="280987724"/>
    <nd ref="280987725"/>
    <nd ref="280987726"/>
    <nd ref="280987727"/>
    <nd ref="280987728"/>
    <nd ref="280987336"/>
    <nd ref="280987328"/>
    <tag k="created_by" v="JOSM"/>
    <tag k="highway" v="residential"/>
    <tag k="name" v="Donská"/>
    <tag k="name:source" v="nameit/uir-adr"/>
    <tag k="source" v="UHUL:ortofoto"/>
  </way>
  <way id="25764283" version="2" timestamp="2008-09-05T11:24:43Z" uid="1066" user="pavel" changeset="539695">
    <nd ref="280987330"/>
    <nd ref="280987719"/>
    <nd ref="280987718"/>
    <tag k="created_by" v="JOSM"/>
    <tag k="highway" v="residential"/>
    <tag k="name" v="Donská"/>
    <tag k="name:source" v="nameit/uir-adr"/>
    <tag k="source" v="UHUL:ortofoto"/>
  </way>
  <way id="25764285" version="2" timestamp="2008-09-05T11:24:32Z" uid="1066" user="pavel" changeset="539695">
    <nd ref="280987730"/>
    <nd ref="280987731"/>
    <nd ref="280987732"/>
    <tag k="created_by" v="JOSM"/>
    <tag k="highway" v="residential"/>
    <tag k="name" v="Kozácká"/>
    <tag k="name:source" v="nameit/uir-adr"/>
    <tag k="source" v="UHUL:ortofoto"/>
  </way>
  <way id="25764286" version="2" timestamp="2008-09-05T11:24:35Z" uid="1066" user="pavel" changeset="539695">
    <nd ref="280987733"/>
    <nd ref="280987741"/>
    <nd ref="280987734"/>
    <nd ref="280987735"/>
    <nd ref="280987736"/>
    <tag k="created_by" v="JOSM"/>
    <tag k="highway" v="residential"/>
    <tag k="name" v="Za Mlýnem"/>
    <tag k="name:source" v="nameit/uir-adr"/>
    <tag k="source" v="UHUL:ortofoto"/>
  </way>
  <way id="25764288" version="2" timestamp="2008-09-05T11:24:55Z" uid="1066" user="pavel" changeset="539695">
    <nd ref="280987737"/>
    <nd ref="280987738"/>
    <nd ref="280987739"/>
    <nd ref="280987740"/>
    <nd ref="248569798"/>
    <tag k="created_by" v="JOSM"/>
    <tag k="highway" v="residential"/>
    <tag k="name" v="Pivovarská"/>
    <tag k="name:source" v="nameit/uir-adr"/>
    <tag k="source" v="UHUL:ortofoto"/>
  </way>
  <way id="25764289" version="2" timestamp="2008-09-05T11:23:28Z" uid="1066" user="pavel" changeset="539695">
    <nd ref="280987740"/>
    <nd ref="280987741"/>
    <tag k="created_by" v="JOSM"/>
    <tag k="highway" v="residential"/>
    <tag k="name" v="Vinařská"/>
    <tag k="name:source" v="nameit/uir-adr"/>
    <tag k="source" v="UHUL:ortofoto"/>
  </way>
  <way id="25764290" version="2" timestamp="2008-09-05T11:23:59Z" uid="1066" user="pavel" changeset="539695">
    <nd ref="248569804"/>
    <nd ref="280987743"/>
    <nd ref="280987749"/>
    <nd ref="280987748"/>
    <nd ref="280987739"/>
    <nd ref="280987742"/>
    <nd ref="280987734"/>
    <tag k="created_by" v="JOSM"/>
    <tag k="highway" v="residential"/>
    <tag k="name" v="Kapraďová"/>
    <tag k="name:source" v="nameit/uir-adr"/>
    <tag k="source" v="UHUL:ortofoto"/>
  </way>
  <way id="25764291" version="2" timestamp="2008-09-05T11:23:26Z" uid="1066" user="pavel" changeset="539695">
    <nd ref="201965150"/>
    <nd ref="280987743"/>
    <nd ref="280987744"/>
    <nd ref="280987745"/>
    <tag k="created_by" v="JOSM"/>
    <tag k="highway" v="residential"/>
    <tag k="name" v="Májová"/>
    <tag k="name:source" v="nameit/uir-adr"/>
    <tag k="source" v="UHUL:ortofoto"/>
  </way>
  <way id="25764292" version="2" timestamp="2008-09-05T11:23:27Z" uid="1066" user="pavel" changeset="539695">
    <nd ref="280987744"/>
    <nd ref="280987746"/>
    <nd ref="280987740"/>
    <tag k="created_by" v="JOSM"/>
    <tag k="highway" v="residential"/>
    <tag k="name" v="Vinařská"/>
    <tag k="name:source" v="nameit/uir-adr"/>
    <tag k="source" v="UHUL:ortofoto"/>
  </way>
  <way id="25764293" version="2" timestamp="2008-09-05T11:25:24Z" uid="1066" user="pavel" changeset="539695">
    <nd ref="280987746"/>
    <nd ref="280987747"/>
    <nd ref="280987748"/>
    <tag k="created_by" v="JOSM"/>
    <tag k="highway" v="residential"/>
    <tag k="name" v="Kapraďová"/>
    <tag k="name:source" v="nameit/uir-adr"/>
    <tag k="source" v="UHUL:ortofoto"/>
  </way>
  <way id="25764294" version="2" timestamp="2008-09-05T11:23:29Z" uid="1066" user="pavel" changeset="539695">
    <nd ref="280987749"/>
    <nd ref="280987750"/>
    <tag k="created_by" v="JOSM"/>
    <tag k="highway" v="residential"/>
    <tag k="name" v="Chmelařská"/>
    <tag k="name:source" v="nameit/uir-adr"/>
    <tag k="source" v="UHUL:ortofoto"/>
  </way>
  <way id="25764295" version="2" timestamp="2008-09-05T11:23:30Z" uid="1066" user="pavel" changeset="539695">
    <nd ref="280987757"/>
    <nd ref="280987758"/>
    <nd ref="280987753"/>
    <nd ref="280987759"/>
    <nd ref="280987760"/>
    <nd ref="280987761"/>
    <nd ref="280987802"/>
    <nd ref="280987762"/>
    <nd ref="280987800"/>
    <nd ref="280987827"/>
    <nd ref="280987763"/>
    <nd ref="280987764"/>
    <nd ref="280987765"/>
    <nd ref="280987766"/>
    <nd ref="280987767"/>
    <nd ref="280987768"/>
    <nd ref="280987769"/>
    <nd ref="280987617"/>
    <tag k="created_by" v="JOSM"/>
    <tag k="highway" v="residential"/>
    <tag k="name" v="Tulipánová"/>
    <tag k="name:source" v="nameit/uir-adr"/>
    <tag k="source" v="UHUL:ortofoto"/>
  </way>
  <way id="25764296" version="2" timestamp="2008-09-05T11:25:22Z" uid="1066" user="pavel" changeset="539695">
    <nd ref="280987767"/>
    <nd ref="280987770"/>
    <nd ref="280987771"/>
    <nd ref="280987772"/>
    <tag k="created_by" v="JOSM"/>
    <tag k="highway" v="residential"/>
    <tag k="name" v="Dopravní"/>
    <tag k="name:source" v="nameit/uir-adr"/>
    <tag k="source" v="UHUL:ortofoto"/>
  </way>
  <way id="25764297" version="2" timestamp="2008-09-05T11:24:43Z" uid="1066" user="pavel" changeset="539695">
    <nd ref="280987766"/>
    <nd ref="280987773"/>
    <nd ref="280987774"/>
    <nd ref="280987813"/>
    <nd ref="280987775"/>
    <tag k="created_by" v="JOSM"/>
    <tag k="highway" v="residential"/>
    <tag k="name" v="Svornosti"/>
    <tag k="name:source" v="nameit/uir-adr"/>
    <tag k="source" v="UHUL:ortofoto"/>
  </way>
  <way id="25764298" version="2" timestamp="2008-09-05T11:24:42Z" uid="1066" user="pavel" changeset="539695">
    <nd ref="280987776"/>
    <nd ref="280987777"/>
    <nd ref="280987821"/>
    <nd ref="280987778"/>
    <nd ref="280987779"/>
    <nd ref="280987780"/>
    <nd ref="280987785"/>
    <nd ref="280987774"/>
    <tag k="created_by" v="JOSM"/>
    <tag k="highway" v="residential"/>
    <tag k="name" v="Svornosti"/>
    <tag k="name:source" v="nameit/uir-adr"/>
    <tag k="source" v="UHUL:ortofoto"/>
  </way>
  <way id="25764299" version="2" timestamp="2008-09-05T11:24:56Z" uid="1066" user="pavel" changeset="539695">
    <nd ref="280987773"/>
    <nd ref="280987787"/>
    <nd ref="280987788"/>
    <nd ref="280987789"/>
    <nd ref="280987785"/>
    <tag k="created_by" v="JOSM"/>
    <tag k="highway" v="residential"/>
    <tag k="name" v="Svornosti"/>
    <tag k="name:source" v="nameit/uir-adr"/>
    <tag k="source" v="UHUL:ortofoto"/>
  </way>
  <way id="25764300" version="2" timestamp="2008-09-05T11:24:53Z" uid="1066" user="pavel" changeset="539695">
    <nd ref="280987779"/>
    <nd ref="280987793"/>
    <nd ref="280987790"/>
    <nd ref="280987791"/>
    <nd ref="280987792"/>
    <nd ref="280987780"/>
    <tag k="created_by" v="JOSM"/>
    <tag k="highway" v="residential"/>
    <tag k="name" v="Svornosti"/>
    <tag k="name:source" v="nameit/uir-adr"/>
    <tag k="source" v="UHUL:ortofoto"/>
  </way>
  <way id="25764301" version="2" timestamp="2008-09-05T11:24:47Z" uid="1066" user="pavel" changeset="539695">
    <nd ref="280987794"/>
    <nd ref="280987795"/>
    <nd ref="280987776"/>
    <nd ref="280987796"/>
    <tag k="created_by" v="JOSM"/>
    <tag k="highway" v="residential"/>
    <tag k="name" v="Svornosti"/>
    <tag k="name:source" v="nameit/uir-adr"/>
    <tag k="source" v="UHUL:ortofoto"/>
  </way>
  <way id="25764302" version="2" timestamp="2008-09-05T11:24:52Z" uid="1066" user="pavel" changeset="539695">
    <nd ref="280987763"/>
    <nd ref="280987796"/>
    <tag k="created_by" v="JOSM"/>
    <tag k="highway" v="residential"/>
    <tag k="name" v="Tulipánová"/>
    <tag k="name:source" v="nameit/uir-adr"/>
    <tag k="source" v="UHUL:ortofoto"/>
  </way>
  <way id="25764303" version="2" timestamp="2008-09-05T11:25:16Z" uid="1066" user="pavel" changeset="539695">
    <nd ref="280987797"/>
    <nd ref="280987776"/>
    <tag k="created_by" v="JOSM"/>
    <tag k="highway" v="residential"/>
    <tag k="name" v="Leknínová"/>
    <tag k="name:source" v="nameit/uir-adr"/>
    <tag k="source" v="UHUL:ortofoto"/>
  </way>
  <way id="25764304" version="2" timestamp="2008-09-05T11:25:12Z" uid="1066" user="pavel" changeset="539695">
    <nd ref="280987798"/>
    <nd ref="280987797"/>
    <nd ref="280987799"/>
    <nd ref="280987800"/>
    <tag k="created_by" v="JOSM"/>
    <tag k="highway" v="residential"/>
    <tag k="name" v="Leknínová"/>
    <tag k="name:source" v="nameit/uir-adr"/>
    <tag k="source" v="UHUL:ortofoto"/>
  </way>
  <way id="25764305" version="2" timestamp="2008-09-05T11:24:08Z" uid="1066" user="pavel" changeset="539695">
    <nd ref="280987801"/>
    <nd ref="280987798"/>
    <tag k="created_by" v="JOSM"/>
    <tag k="highway" v="residential"/>
    <tag k="name" v="Leknínová"/>
    <tag k="name:source" v="nameit/uir-adr"/>
    <tag k="source" v="UHUL:ortofoto"/>
  </way>
  <way id="25764306" version="2" timestamp="2008-09-05T11:24:05Z" uid="1066" user="pavel" changeset="539695">
    <nd ref="280987802"/>
    <nd ref="280987801"/>
    <tag k="created_by" v="JOSM"/>
    <tag k="highway" v="residential"/>
    <tag k="name" v="Leknínová"/>
    <tag k="name:source" v="nameit/uir-adr"/>
    <tag k="source" v="UHUL:ortofoto"/>
  </way>
  <way id="25764307" version="2" timestamp="2008-09-05T11:23:41Z" uid="1066" user="pavel" changeset="539695">
    <nd ref="280987804"/>
    <nd ref="280987803"/>
    <nd ref="280987805"/>
    <nd ref="280987806"/>
    <nd ref="280987777"/>
    <tag k="created_by" v="JOSM"/>
    <tag k="highway" v="residential"/>
    <tag k="name" v="Rýmařovská"/>
    <tag k="name:source" v="nameit/uir-adr"/>
    <tag k="source" v="UHUL:ortofoto"/>
  </way>
  <way id="25764308" version="2" timestamp="2008-09-05T11:23:51Z" uid="1066" user="pavel" changeset="539695">
    <nd ref="280987811"/>
    <nd ref="280987794"/>
    <nd ref="280987804"/>
    <nd ref="280987810"/>
    <nd ref="280987807"/>
    <nd ref="280987808"/>
    <nd ref="280987809"/>
    <nd ref="280987803"/>
    <tag k="created_by" v="JOSM"/>
    <tag k="highway" v="residential"/>
    <tag k="name" v="Okálová"/>
    <tag k="name:source" v="nameit/uir-adr"/>
    <tag k="source" v="UHUL:ortofoto"/>
  </way>
  <way id="25764310" version="2" timestamp="2008-09-05T11:25:04Z" uid="1066" user="pavel" changeset="539695">
    <nd ref="280987813"/>
    <nd ref="280987814"/>
    <nd ref="280987815"/>
    <nd ref="280987816"/>
    <nd ref="280987817"/>
    <nd ref="280987818"/>
    <nd ref="280987809"/>
    <tag k="created_by" v="JOSM"/>
    <tag k="highway" v="residential"/>
    <tag k="name" v="Okálová"/>
    <tag k="name:source" v="nameit/uir-adr"/>
    <tag k="source" v="UHUL:ortofoto"/>
  </way>
  <way id="25764311" version="2" timestamp="2008-09-05T11:25:01Z" uid="1066" user="pavel" changeset="539695">
    <nd ref="280987778"/>
    <nd ref="280987819"/>
    <tag k="created_by" v="JOSM"/>
    <tag k="highway" v="residential"/>
    <tag k="name" v="Svornosti"/>
    <tag k="name:source" v="nameit/uir-adr"/>
    <tag k="source" v="UHUL:ortofoto"/>
  </way>
  <way id="25764312" version="2" timestamp="2008-09-05T11:25:10Z" uid="1066" user="pavel" changeset="539695">
    <nd ref="280987820"/>
    <nd ref="280987821"/>
    <tag k="created_by" v="JOSM"/>
    <tag k="highway" v="residential"/>
    <tag k="name" v="Svornosti"/>
    <tag k="name:source" v="nameit/uir-adr"/>
    <tag k="source" v="UHUL:ortofoto"/>
  </way>
  <way id="25764313" version="2" timestamp="2008-09-05T11:24:26Z" uid="1066" user="pavel" changeset="539695">
    <nd ref="280987827"/>
    <nd ref="280987826"/>
    <nd ref="280987825"/>
    <nd ref="280987824"/>
    <nd ref="280987822"/>
    <nd ref="280987823"/>
    <nd ref="280987764"/>
    <tag k="created_by" v="JOSM"/>
    <tag k="highway" v="residential"/>
    <tag k="name" v="Obvodní"/>
    <tag k="name:source" v="nameit/uir-adr"/>
    <tag k="source" v="UHUL:ortofoto"/>
  </way>
  <way id="25764314" version="2" timestamp="2008-09-05T11:24:23Z" uid="1066" user="pavel" changeset="539695">
    <nd ref="280987775"/>
    <nd ref="280987851"/>
    <nd ref="280987850"/>
    <nd ref="280987849"/>
    <nd ref="280987848"/>
    <nd ref="280987847"/>
    <nd ref="280987846"/>
    <nd ref="280987845"/>
    <nd ref="280987844"/>
    <nd ref="280987843"/>
    <nd ref="280987842"/>
    <nd ref="280987841"/>
    <nd ref="280987840"/>
    <nd ref="280987839"/>
    <nd ref="280987838"/>
    <nd ref="280987837"/>
    <nd ref="280987836"/>
    <nd ref="280987835"/>
    <nd ref="280987833"/>
    <nd ref="280987834"/>
    <nd ref="280987761"/>
    <nd ref="280987829"/>
    <nd ref="280987830"/>
    <nd ref="280987831"/>
    <nd ref="280987832"/>
    <nd ref="280987615"/>
    <tag k="created_by" v="JOSM"/>
    <tag k="highway" v="residential"/>
    <tag k="name" v="Nad Strání"/>
    <tag k="name:source" v="nameit/uir-adr"/>
    <tag k="source" v="UHUL:ortofoto"/>
  </way>
  <way id="25764315" version="2" timestamp="2008-09-05T11:24:29Z" uid="1066" user="pavel" changeset="539695">
    <nd ref="280987833"/>
    <nd ref="280987760"/>
    <tag k="created_by" v="JOSM"/>
    <tag k="highway" v="residential"/>
    <tag k="name" v="Vyhlídková"/>
    <tag k="name:source" v="nameit/uir-adr"/>
    <tag k="source" v="UHUL:ortofoto"/>
  </way>
  <way id="25764316" version="2" timestamp="2008-09-05T11:24:03Z" uid="1066" user="pavel" changeset="539695">
    <nd ref="280986984"/>
    <nd ref="280986977"/>
    <nd ref="280986978"/>
    <nd ref="280986979"/>
    <nd ref="280986980"/>
    <nd ref="280986984"/>
    <tag k="created_by" v="JOSM"/>
    <tag k="highway" v="residential"/>
    <tag k="name" v="Frimlova"/>
    <tag k="name:source" v="nameit/uir-adr"/>
    <tag k="source" v="UHUL:ortofoto"/>
  </way>
  <way id="25764317" version="2" timestamp="2008-09-05T11:23:41Z" uid="1066" user="pavel" changeset="539695">
    <nd ref="280986984"/>
    <nd ref="280986990"/>
    <nd ref="280986989"/>
    <nd ref="280986992"/>
    <nd ref="280986991"/>
    <nd ref="280986986"/>
    <nd ref="280986985"/>
    <nd ref="280986988"/>
    <nd ref="280986987"/>
    <nd ref="280986998"/>
    <nd ref="280986997"/>
    <nd ref="280987000"/>
    <nd ref="280986999"/>
    <nd ref="280986994"/>
    <nd ref="280986993"/>
    <nd ref="280986996"/>
    <nd ref="280986995"/>
    <nd ref="280986979"/>
    <tag k="created_by" v="JOSM"/>
    <tag k="highway" v="residential"/>
    <tag k="name" v="Čapkova"/>
    <tag k="name:source" v="nameit/uir-adr"/>
    <tag k="source" v="UHUL:ortofoto"/>
  </way>
  <way id="25764407" version="4" timestamp="2009-02-23T13:28:33Z" uid="34428" user="usm78-gis" changeset="634299"/>
  <way id="25764408" version="3" timestamp="2009-02-23T12:44:52Z" uid="34428" user="usm78-gis" changeset="634299"/>
  <way id="25764409" version="5" timestamp="2009-02-23T13:38:49Z" uid="34428" user="usm78-gis" changeset="634299"/>
  <way id="25764410" version="3" timestamp="2009-02-23T12:51:44Z" uid="34428" user="usm78-gis" changeset="634299"/>
  <way id="25764411" version="5" timestamp="2009-02-23T11:55:16Z" uid="34428" user="usm78-gis" changeset="634299"/>
  <way id="25764412" version="5" timestamp="2009-02-23T12:58:06Z" uid="34428" user="usm78-gis" changeset="634299"/>
  <way id="25764414" version="5" timestamp="2009-02-23T13:09:41Z" uid="34428" user="usm78-gis" changeset="634299"/>
  <way id="25764419" version="2" timestamp="2008-07-25T17:22:24Z" uid="34428" user="usm78-gis" changeset="592876">
    <nd ref="280989071"/>
    <nd ref="281041871"/>
    <nd ref="280989072"/>
    <nd ref="280989073"/>
    <tag k="created_by" v="Merkaartor 0.10"/>
    <tag k="highway" v="service"/>
  </way>
  <way id="25764419" version="4" timestamp="2009-02-23T12:31:09Z" uid="34428" user="usm78-gis" changeset="634299"/>
  <way id="25764421" version="9" timestamp="2009-02-14T18:38:37Z" uid="34428" user="usm78-gis" changeset="423562">
    <nd ref="280989019"/>
    <nd ref="267426816"/>
    <nd ref="287922680"/>
    <nd ref="267426817"/>
    <nd ref="280989074"/>
    <nd ref="280989079"/>
    <nd ref="280989080"/>
    <tag k="created_by" v="Potlatch 0.10b"/>
    <tag k="highway" v="service"/>
  </way>
  <way id="25764421" version="10" timestamp="2009-02-23T12:36:06Z" uid="34428" user="usm78-gis" changeset="634299"/>
  <way id="25764427" version="7" timestamp="2009-02-23T12:55:35Z" uid="34428" user="usm78-gis" changeset="634299"/>
  <way id="25764429" version="6" timestamp="2009-02-23T13:00:59Z" uid="34428" user="usm78-gis" changeset="634299"/>
  <way id="25764591" version="1" timestamp="2008-07-25T13:34:37Z" uid="13367" user="nubok" changeset="591777">
    <nd ref="280990192"/>
    <nd ref="280990193"/>
    <nd ref="280990194"/>
    <nd ref="280990195"/>
    <nd ref="280990196"/>
    <nd ref="280990197"/>
    <nd ref="280990198"/>
    <nd ref="280990199"/>
    <nd ref="280990200"/>
    <tag k="created_by" v="Potlatch 0.10"/>
    <tag k="cycleway" v="lane"/>
    <tag k="highway" v="cycleway"/>
    <tag k="source" v="gps"/>
  </way>
  <way id="25764591" version="7" timestamp="2008-12-22T23:10:35Z" uid="13367" user="nubok" changeset="563286">
    <nd ref="292264598"/>
    <nd ref="298903372"/>
    <nd ref="292264599"/>
    <nd ref="292264600"/>
    <nd ref="292264596"/>
    <nd ref="293215749"/>
    <nd ref="293215751"/>
    <nd ref="293215748"/>
    <nd ref="293215750"/>
    <nd ref="321007149"/>
    <nd ref="293215753"/>
    <nd ref="293215754"/>
    <nd ref="293215755"/>
    <nd ref="293215752"/>
    <nd ref="298903375"/>
    <nd ref="298903376"/>
    <nd ref="321007128"/>
    <nd ref="292264598"/>
    <tag k="created_by" v="Potlatch 0.10b"/>
    <tag k="cycleway" v="lane"/>
    <tag k="highway" v="cycleway"/>
    <tag k="source" v="gps"/>
  </way>
  <way id="25764613" version="1" timestamp="2008-07-25T13:38:14Z" uid="13367" user="nubok" changeset="591777">
    <nd ref="271208485"/>
    <nd ref="271208486"/>
    <nd ref="271208488"/>
    <nd ref="271207780"/>
    <nd ref="271207781"/>
    <nd ref="271207782"/>
    <nd ref="271207784"/>
    <nd ref="271215509"/>
    <nd ref="271207785"/>
    <tag k="created_by" v="Potlatch 0.10"/>
    <tag k="cycleway" v="lane"/>
    <tag k="highway" v="cycleway"/>
    <tag k="source" v="gps"/>
  </way>
  <way id="25764613" version="2" timestamp="2008-07-25T13:38:20Z" uid="13367" user="nubok" changeset="591777">
    <nd ref="280990273"/>
    <nd ref="271208486"/>
    <nd ref="271208488"/>
    <nd ref="271207780"/>
    <nd ref="271207781"/>
    <nd ref="271207782"/>
    <nd ref="271207784"/>
    <nd ref="271215509"/>
    <nd ref="271207785"/>
    <tag k="created_by" v="Potlatch 0.10"/>
    <tag k="cycleway" v="lane"/>
    <tag k="highway" v="cycleway"/>
    <tag k="source" v="gps"/>
  </way>
  <way id="25764613" version="3" timestamp="2008-07-25T13:38:40Z" uid="13367" user="nubok" changeset="591777"/>
  <way id="25764619" version="1" timestamp="2008-07-25T13:39:05Z" uid="13367" user="nubok" changeset="591777">
    <nd ref="271207784"/>
    <nd ref="280990365"/>
    <nd ref="280990366"/>
    <tag k="created_by" v="Potlatch 0.10"/>
    <tag k="foot" v="yes"/>
    <tag k="highway" v="footway"/>
  </way>
  <way id="25764628" version="1" timestamp="2008-07-25T13:40:14Z" uid="13367" user="nubok" changeset="591777">
    <nd ref="280990412"/>
    <nd ref="280990413"/>
    <nd ref="280990414"/>
    <tag k="created_by" v="Potlatch 0.10"/>
    <tag k="foot" v="yes"/>
    <tag k="highway" v="footway"/>
    <tag k="source" v="gps"/>
  </way>
  <way id="25764628" version="2" timestamp="2008-07-25T13:40:26Z" uid="13367" user="nubok" changeset="591777">
    <nd ref="280990412"/>
    <nd ref="280990413"/>
    <nd ref="280990414"/>
    <tag k="created_by" v="Potlatch 0.10"/>
    <tag k="cycleway" v="lane"/>
    <tag k="highway" v="cycleway"/>
    <tag k="source" v="gps"/>
  </way>
  <way id="25764628" version="3" timestamp="2008-07-25T13:40:51Z" uid="13367" user="nubok" changeset="591777">
    <nd ref="280990412"/>
    <nd ref="280990413"/>
    <nd ref="280990443"/>
    <tag k="created_by" v="Potlatch 0.10"/>
    <tag k="cycleway" v="lane"/>
    <tag k="highway" v="cycleway"/>
    <tag k="source" v="gps"/>
  </way>
  <way id="25764629" version="1" timestamp="2008-07-25T13:40:14Z" uid="13367" user="nubok" changeset="591777">
    <nd ref="280990415"/>
    <nd ref="280990412"/>
    <tag k="created_by" v="Potlatch 0.10"/>
    <tag k="foot" v="yes"/>
    <tag k="highway" v="footway"/>
    <tag k="source" v="gps"/>
  </way>
  <way id="25764677" version="5" timestamp="2009-11-29T22:45:25Z" uid="200463" user="harmagedon" changeset="3251061">
    <nd ref="280990899"/>
    <nd ref="280990901"/>
    <nd ref="280990900"/>
    <tag k="highway" v="residential"/>
  </way>
  <way id="25764748" version="1" timestamp="2008-07-25T13:47:58Z" uid="13367" user="nubok" changeset="591777">
    <nd ref="278179092"/>
    <nd ref="280991394"/>
    <nd ref="280991395"/>
    <nd ref="280991396"/>
    <nd ref="280991397"/>
    <nd ref="280991398"/>
    <nd ref="280991399"/>
    <nd ref="280991400"/>
    <nd ref="280991401"/>
    <nd ref="280991402"/>
    <nd ref="280991403"/>
    <nd ref="280991404"/>
    <nd ref="280991405"/>
    <nd ref="280991406"/>
    <tag k="created_by" v="Potlatch 0.10"/>
  </way>
  <way id="25764748" version="2" timestamp="2008-07-25T13:48:31Z" uid="13367" user="nubok" changeset="591777">
    <nd ref="278179092"/>
    <nd ref="280991394"/>
    <nd ref="280991426"/>
    <nd ref="280991396"/>
    <nd ref="280991397"/>
    <nd ref="280991398"/>
    <nd ref="280991399"/>
    <nd ref="280991400"/>
    <nd ref="280991427"/>
    <nd ref="280991428"/>
    <nd ref="280991429"/>
    <nd ref="280991430"/>
    <nd ref="280991431"/>
    <nd ref="280991406"/>
    <tag k="created_by" v="Potlatch 0.10"/>
    <tag k="highway" v="track"/>
    <tag k="note" v="note sure whether track is correct -please correct if necessary"/>
    <tag k="source" v="gps"/>
  </way>
  <way id="25764758" version="1" timestamp="2008-07-25T13:49:20Z" uid="13367" user="nubok" changeset="591777">
    <nd ref="270468938"/>
    <nd ref="60830586"/>
    <nd ref="280991466"/>
    <nd ref="278176070"/>
    <nd ref="278175614"/>
    <nd ref="60830588"/>
    <nd ref="278174914"/>
    <nd ref="278174915"/>
    <nd ref="278174916"/>
    <nd ref="277773712"/>
    <tag k="created_by" v="Potlatch 0.10"/>
    <tag k="highway" v="residential"/>
  </way>
  <way id="25764758" version="2" timestamp="2008-07-25T13:49:37Z" uid="13367" user="nubok" changeset="591777">
    <nd ref="270468938"/>
    <nd ref="60830586"/>
    <nd ref="280991466"/>
    <nd ref="278176070"/>
    <nd ref="278175614"/>
    <nd ref="60830588"/>
    <nd ref="278174914"/>
    <nd ref="278174915"/>
    <nd ref="278174916"/>
    <nd ref="277773712"/>
    <tag k="created_by" v="Potlatch 0.10"/>
    <tag k="highway" v="residential"/>
    <tag k="source" v="gps"/>
  </way>
  <way id="25764758" version="3" timestamp="2008-07-25T13:50:20Z" uid="13367" user="nubok" changeset="591777">
    <nd ref="270468938"/>
    <nd ref="60830586"/>
    <nd ref="280991466"/>
    <nd ref="278176070"/>
    <nd ref="278175614"/>
    <nd ref="60830588"/>
    <nd ref="280991509"/>
    <nd ref="280991510"/>
    <nd ref="278174914"/>
    <nd ref="278174915"/>
    <nd ref="278174916"/>
    <nd ref="280991511"/>
    <nd ref="277773712"/>
    <tag k="created_by" v="Potlatch 0.10"/>
    <tag k="highway" v="residential"/>
    <tag k="source" v="gps"/>
  </way>
  <way id="25764758" version="4" timestamp="2008-07-25T13:51:01Z" uid="13367" user="nubok" changeset="591777">
    <nd ref="270468938"/>
    <nd ref="60830586"/>
    <nd ref="280991466"/>
    <nd ref="278176070"/>
    <nd ref="278175614"/>
    <nd ref="60830588"/>
    <nd ref="280991509"/>
    <nd ref="280991510"/>
    <nd ref="278174914"/>
    <nd ref="278174915"/>
    <nd ref="278174916"/>
    <nd ref="280991517"/>
    <nd ref="280991680"/>
    <nd ref="277773712"/>
    <tag k="created_by" v="Potlatch 0.10"/>
    <tag k="highway" v="residential"/>
    <tag k="source" v="gps"/>
  </way>
  <way id="25764768" version="1" timestamp="2008-07-25T13:50:33Z" uid="13367" user="nubok" changeset="591777">
    <nd ref="280991517"/>
    <nd ref="280991518"/>
    <tag k="created_by" v="Potlatch 0.10"/>
  </way>
  <way id="25764768" version="2" timestamp="2008-07-25T13:50:55Z" uid="13367" user="nubok" changeset="591777">
    <nd ref="280991517"/>
    <nd ref="280991637"/>
    <tag k="created_by" v="Potlatch 0.10"/>
    <tag k="highway" v="track"/>
    <tag k="source" v="gps"/>
  </way>
  <way id="25764785" version="1" timestamp="2008-07-25T13:52:04Z" uid="13367" user="nubok" changeset="591777">
    <nd ref="280991517"/>
    <nd ref="280991769"/>
    <nd ref="280991770"/>
    <nd ref="280991771"/>
    <nd ref="280991772"/>
    <nd ref="280991773"/>
    <nd ref="280991774"/>
    <nd ref="280991775"/>
    <nd ref="280991776"/>
    <nd ref="280991777"/>
    <nd ref="280991778"/>
    <nd ref="280991779"/>
    <nd ref="280991780"/>
    <nd ref="280991781"/>
    <nd ref="280991782"/>
    <nd ref="280991783"/>
    <nd ref="280991784"/>
    <nd ref="280991785"/>
    <nd ref="280991786"/>
    <nd ref="280991787"/>
    <nd ref="280991788"/>
    <nd ref="280991789"/>
    <tag k="created_by" v="Potlatch 0.10"/>
    <tag k="highway" v="track"/>
    <tag k="note" v="don&apos;t know if track is correct - correct it if necessary"/>
    <tag k="source" v="gps"/>
  </way>
  <way id="25764785" version="2" timestamp="2008-07-25T14:00:48Z" uid="13367" user="nubok" changeset="591777">
    <nd ref="280991517"/>
    <nd ref="280993165"/>
    <nd ref="280991770"/>
    <nd ref="280991771"/>
    <nd ref="280991772"/>
    <nd ref="280991773"/>
    <nd ref="280993166"/>
    <nd ref="280993167"/>
    <nd ref="280991776"/>
    <nd ref="280991777"/>
    <nd ref="280991778"/>
    <nd ref="280991779"/>
    <nd ref="280991780"/>
    <nd ref="280993168"/>
    <nd ref="280993169"/>
    <nd ref="280993170"/>
    <nd ref="280993171"/>
    <nd ref="280991785"/>
    <nd ref="280991786"/>
    <nd ref="280993172"/>
    <nd ref="280993173"/>
    <nd ref="280993174"/>
    <tag k="created_by" v="Potlatch 0.10"/>
    <tag k="highway" v="track"/>
    <tag k="note" v="don&apos;t know if track is correct - correct it if necessary"/>
    <tag k="source" v="gps"/>
  </way>
  <way id="25764785" version="3" timestamp="2008-07-25T14:01:04Z" uid="13367" user="nubok" changeset="591777">
    <nd ref="280991517"/>
    <nd ref="280993165"/>
    <nd ref="280991770"/>
    <nd ref="280991771"/>
    <nd ref="280991772"/>
    <nd ref="280991773"/>
    <nd ref="280993224"/>
    <nd ref="280993225"/>
    <nd ref="280991776"/>
    <nd ref="280991777"/>
    <nd ref="280991778"/>
    <nd ref="280991779"/>
    <nd ref="280991780"/>
    <nd ref="280993168"/>
    <nd ref="280993169"/>
    <nd ref="280993170"/>
    <nd ref="280993171"/>
    <nd ref="280991785"/>
    <nd ref="280991786"/>
    <nd ref="280993226"/>
    <nd ref="280993227"/>
    <nd ref="280993228"/>
    <nd ref="280993222"/>
    <tag k="created_by" v="Potlatch 0.10"/>
    <tag k="highway" v="track"/>
    <tag k="note" v="don&apos;t know if track is correct - correct it if necessary"/>
    <tag k="source" v="gps"/>
  </way>
  <way id="25764797" version="1" timestamp="2008-07-25T13:53:04Z" uid="13367" user="nubok" changeset="591777">
    <nd ref="280991829"/>
    <nd ref="280991830"/>
    <nd ref="280991831"/>
    <nd ref="280991832"/>
    <nd ref="280991833"/>
    <nd ref="280991834"/>
    <nd ref="278174739"/>
    <tag k="created_by" v="Potlatch 0.10"/>
  </way>
  <way id="25764797" version="2" timestamp="2008-07-25T13:54:41Z" uid="13367" user="nubok" changeset="591777">
    <nd ref="280991905"/>
    <nd ref="280991906"/>
    <nd ref="280991907"/>
    <nd ref="280991908"/>
    <nd ref="280991909"/>
    <nd ref="280991910"/>
    <nd ref="280991911"/>
    <nd ref="280991912"/>
    <nd ref="280991913"/>
    <nd ref="280991914"/>
    <nd ref="280991915"/>
    <nd ref="280991916"/>
    <nd ref="280991917"/>
    <nd ref="280991918"/>
    <nd ref="280991919"/>
    <nd ref="280991920"/>
    <nd ref="280991921"/>
    <nd ref="280991922"/>
    <nd ref="280991923"/>
    <nd ref="280991924"/>
    <nd ref="280991925"/>
    <nd ref="280991926"/>
    <nd ref="280991927"/>
    <nd ref="280991928"/>
    <nd ref="280991929"/>
    <nd ref="280991930"/>
    <nd ref="280991931"/>
    <nd ref="280991932"/>
    <nd ref="280991933"/>
    <nd ref="280991934"/>
    <nd ref="280991935"/>
    <nd ref="280991936"/>
    <nd ref="280991937"/>
    <nd ref="280991938"/>
    <nd ref="280991939"/>
    <nd ref="280991940"/>
    <nd ref="280991941"/>
    <nd ref="280991942"/>
    <nd ref="280991943"/>
    <nd ref="280991944"/>
    <nd ref="280991945"/>
    <nd ref="280991946"/>
    <nd ref="280991947"/>
    <nd ref="280991948"/>
    <nd ref="280991829"/>
    <nd ref="280991949"/>
    <nd ref="280991831"/>
    <nd ref="280991950"/>
    <nd ref="280991833"/>
    <nd ref="280991951"/>
    <nd ref="278174739"/>
    <tag k="bicycle" v="yes"/>
    <tag k="created_by" v="Potlatch 0.10"/>
    <tag k="foot" v="yes"/>
    <tag k="highway" v="footway"/>
    <tag k="source" v="gps"/>
  </way>
  <way id="25764797" version="3" timestamp="2008-07-25T13:57:07Z" uid="13367" user="nubok" changeset="591777">
    <nd ref="280992116"/>
    <nd ref="280992219"/>
    <nd ref="280992220"/>
    <nd ref="280991907"/>
    <nd ref="280991908"/>
    <nd ref="280991909"/>
    <nd ref="280991910"/>
    <nd ref="280992221"/>
    <nd ref="280992222"/>
    <nd ref="280991913"/>
    <nd ref="280992223"/>
    <nd ref="280991915"/>
    <nd ref="280991916"/>
    <nd ref="280991917"/>
    <nd ref="280992224"/>
    <nd ref="280992225"/>
    <nd ref="280992226"/>
    <nd ref="280992227"/>
    <nd ref="280991922"/>
    <nd ref="280991923"/>
    <nd ref="280992228"/>
    <nd ref="280991925"/>
    <nd ref="280992229"/>
    <nd ref="280992231"/>
    <nd ref="280992232"/>
    <nd ref="280991929"/>
    <nd ref="280991930"/>
    <nd ref="280991931"/>
    <nd ref="280991932"/>
    <nd ref="280992233"/>
    <nd ref="280992234"/>
    <nd ref="280991935"/>
    <nd ref="280992235"/>
    <nd ref="280991937"/>
    <nd ref="280991938"/>
    <nd ref="280991939"/>
    <nd ref="280992236"/>
    <nd ref="280992237"/>
    <nd ref="280992238"/>
    <nd ref="280992239"/>
    <nd ref="280991944"/>
    <nd ref="280991945"/>
    <nd ref="280992240"/>
    <nd ref="280991947"/>
    <nd ref="280992241"/>
    <nd ref="280991829"/>
    <nd ref="280991949"/>
    <nd ref="280991831"/>
    <nd ref="280991950"/>
    <nd ref="280991833"/>
    <nd ref="280992242"/>
    <nd ref="278174739"/>
    <tag k="bicycle" v="yes"/>
    <tag k="created_by" v="Potlatch 0.10"/>
    <tag k="foot" v="yes"/>
    <tag k="highway" v="footway"/>
    <tag k="source" v="gps"/>
  </way>
  <way id="25764797" version="4" timestamp="2008-07-25T13:58:30Z" uid="13367" user="nubok" changeset="591777">
    <nd ref="280992528"/>
    <nd ref="280992529"/>
    <nd ref="280992530"/>
    <nd ref="280992531"/>
    <nd ref="280992532"/>
    <nd ref="280992533"/>
    <nd ref="280992534"/>
    <nd ref="280992151"/>
    <nd ref="280992535"/>
    <nd ref="280992536"/>
    <nd ref="280992537"/>
    <nd ref="280992538"/>
    <nd ref="280992539"/>
    <nd ref="280992540"/>
    <nd ref="280992541"/>
    <nd ref="280992542"/>
    <nd ref="280992543"/>
    <nd ref="280992544"/>
    <nd ref="280992545"/>
    <nd ref="280992546"/>
    <nd ref="280992547"/>
    <nd ref="280992548"/>
    <nd ref="280992549"/>
    <nd ref="280992550"/>
    <nd ref="280992551"/>
    <nd ref="280992552"/>
    <nd ref="280992553"/>
    <nd ref="280992554"/>
    <nd ref="280992555"/>
    <nd ref="280992556"/>
    <nd ref="280992557"/>
    <nd ref="280992558"/>
    <nd ref="280992559"/>
    <nd ref="280992560"/>
    <nd ref="280992561"/>
    <nd ref="280992562"/>
    <nd ref="280992116"/>
    <nd ref="280992563"/>
    <nd ref="280992220"/>
    <nd ref="280991907"/>
    <nd ref="280991908"/>
    <nd ref="280991909"/>
    <nd ref="280991910"/>
    <nd ref="280992564"/>
    <nd ref="280992565"/>
    <nd ref="280991913"/>
    <nd ref="280992566"/>
    <nd ref="280991915"/>
    <nd ref="280991916"/>
    <nd ref="280991917"/>
    <nd ref="280992567"/>
    <nd ref="280992568"/>
    <nd ref="280992569"/>
    <nd ref="280992570"/>
    <nd ref="280991922"/>
    <nd ref="280991923"/>
    <nd ref="280992571"/>
    <nd ref="280991925"/>
    <nd ref="280992572"/>
    <nd ref="280992573"/>
    <nd ref="280992232"/>
    <nd ref="280991929"/>
    <nd ref="280991930"/>
    <nd ref="280991931"/>
    <nd ref="280991932"/>
    <nd ref="280992233"/>
    <nd ref="280992234"/>
    <nd ref="280991935"/>
    <nd ref="280992235"/>
    <nd ref="280991937"/>
    <nd ref="280991938"/>
    <nd ref="280991939"/>
    <nd ref="280992236"/>
    <nd ref="280992237"/>
    <nd ref="280992238"/>
    <nd ref="280992239"/>
    <nd ref="280991944"/>
    <nd ref="280991945"/>
    <nd ref="280992240"/>
    <nd ref="280991947"/>
    <nd ref="280992241"/>
    <nd ref="280991829"/>
    <nd ref="280991949"/>
    <nd ref="280991831"/>
    <nd ref="280991950"/>
    <nd ref="280991833"/>
    <nd ref="280992242"/>
    <nd ref="278174739"/>
    <tag k="bicycle" v="yes"/>
    <tag k="created_by" v="Potlatch 0.10"/>
    <tag k="foot" v="yes"/>
    <tag k="highway" v="footway"/>
    <tag k="source" v="gps"/>
  </way>
  <way id="25764797" version="5" timestamp="2008-07-25T14:00:42Z" uid="13367" user="nubok" changeset="591777">
    <nd ref="280993133"/>
    <nd ref="280992529"/>
    <nd ref="280992530"/>
    <nd ref="280992531"/>
    <nd ref="280992532"/>
    <nd ref="280992533"/>
    <nd ref="280993134"/>
    <nd ref="280992151"/>
    <nd ref="280992535"/>
    <nd ref="280992536"/>
    <nd ref="280992537"/>
    <nd ref="280992538"/>
    <nd ref="280992539"/>
    <nd ref="280993136"/>
    <nd ref="280993137"/>
    <nd ref="280993138"/>
    <nd ref="280993139"/>
    <nd ref="280993140"/>
    <nd ref="280992545"/>
    <nd ref="280993141"/>
    <nd ref="280993142"/>
    <nd ref="280993143"/>
    <nd ref="280993144"/>
    <nd ref="280993145"/>
    <nd ref="280992551"/>
    <nd ref="280992552"/>
    <nd ref="280992553"/>
    <nd ref="280992554"/>
    <nd ref="280992555"/>
    <nd ref="280993146"/>
    <nd ref="280992557"/>
    <nd ref="280992558"/>
    <nd ref="280992559"/>
    <nd ref="280992560"/>
    <nd ref="280992561"/>
    <nd ref="280993147"/>
    <nd ref="280992116"/>
    <nd ref="280993148"/>
    <nd ref="280992220"/>
    <nd ref="280991907"/>
    <nd ref="280991908"/>
    <nd ref="280991909"/>
    <nd ref="280991910"/>
    <nd ref="280993149"/>
    <nd ref="280992565"/>
    <nd ref="280991913"/>
    <nd ref="280993150"/>
    <nd ref="280991915"/>
    <nd ref="280991916"/>
    <nd ref="280991917"/>
    <nd ref="280992567"/>
    <nd ref="280993151"/>
    <nd ref="280993152"/>
    <nd ref="280993153"/>
    <nd ref="280991922"/>
    <nd ref="280991923"/>
    <nd ref="280993154"/>
    <nd ref="280991925"/>
    <nd ref="280993155"/>
    <nd ref="280993156"/>
    <nd ref="280992232"/>
    <nd ref="280991929"/>
    <nd ref="280991930"/>
    <nd ref="280991931"/>
    <nd ref="280991932"/>
    <nd ref="280992233"/>
    <nd ref="280992234"/>
    <nd ref="280991935"/>
    <nd ref="280992235"/>
    <nd ref="280991937"/>
    <nd ref="280991938"/>
    <nd ref="280991939"/>
    <nd ref="280992236"/>
    <nd ref="280992237"/>
    <nd ref="280992238"/>
    <nd ref="280992239"/>
    <nd ref="280991944"/>
    <nd ref="280991945"/>
    <nd ref="280992240"/>
    <nd ref="280991947"/>
    <nd ref="280992241"/>
    <nd ref="280991829"/>
    <nd ref="280991949"/>
    <nd ref="280991831"/>
    <nd ref="280991950"/>
    <nd ref="280991833"/>
    <nd ref="280992242"/>
    <nd ref="278174739"/>
    <tag k="bicycle" v="yes"/>
    <tag k="created_by" v="Potlatch 0.10"/>
    <tag k="foot" v="yes"/>
    <tag k="highway" v="footway"/>
    <tag k="source" v="gps"/>
  </way>
  <way id="25764826" version="1" timestamp="2008-07-25T13:56:55Z" uid="13367" user="nubok" changeset="591777">
    <nd ref="280992116"/>
    <nd ref="280992119"/>
    <nd ref="280992120"/>
    <nd ref="280992121"/>
    <nd ref="280992122"/>
    <nd ref="280992123"/>
    <nd ref="280992124"/>
    <nd ref="280992125"/>
    <nd ref="280992126"/>
    <nd ref="280992127"/>
    <nd ref="280992128"/>
    <nd ref="280992130"/>
    <nd ref="280992131"/>
    <nd ref="280992132"/>
    <nd ref="280992133"/>
    <nd ref="280992135"/>
    <nd ref="280992138"/>
    <nd ref="280992139"/>
    <nd ref="280992140"/>
    <nd ref="280992141"/>
    <nd ref="280992142"/>
    <nd ref="280992143"/>
    <nd ref="280992144"/>
    <nd ref="280992145"/>
    <nd ref="280992146"/>
    <nd ref="280992148"/>
    <nd ref="280992149"/>
    <nd ref="280992151"/>
    <tag k="bicycle" v="yes"/>
    <tag k="created_by" v="Potlatch 0.10"/>
    <tag k="foot" v="yes"/>
    <tag k="highway" v="footway"/>
    <tag k="source" v="gps"/>
  </way>
  <way id="25764888" version="1" timestamp="2008-07-25T14:00:40Z" uid="13367" user="nubok" changeset="591777">
    <nd ref="280992234"/>
    <nd ref="280993076"/>
    <nd ref="280993077"/>
    <nd ref="280993078"/>
    <nd ref="280993079"/>
    <nd ref="280993080"/>
    <nd ref="280993081"/>
    <nd ref="280993082"/>
    <nd ref="280993083"/>
    <nd ref="280993084"/>
    <nd ref="280993085"/>
    <nd ref="280993086"/>
    <nd ref="280993087"/>
    <nd ref="280993088"/>
    <nd ref="280993089"/>
    <nd ref="280993090"/>
    <nd ref="280993091"/>
    <nd ref="280993092"/>
    <nd ref="280993093"/>
    <nd ref="280993094"/>
    <nd ref="280993095"/>
    <nd ref="280993096"/>
    <nd ref="280993097"/>
    <nd ref="280993098"/>
    <nd ref="280993099"/>
    <nd ref="280993100"/>
    <nd ref="280993101"/>
    <nd ref="280993102"/>
    <nd ref="280993103"/>
    <nd ref="280993104"/>
    <nd ref="280993105"/>
    <nd ref="280993106"/>
    <nd ref="280993107"/>
    <nd ref="280993108"/>
    <nd ref="280993109"/>
    <nd ref="280993110"/>
    <nd ref="280993111"/>
    <nd ref="280993112"/>
    <nd ref="280993113"/>
    <nd ref="280993114"/>
    <nd ref="280993115"/>
    <nd ref="280993116"/>
    <nd ref="280993117"/>
    <nd ref="280993118"/>
    <nd ref="280993119"/>
    <nd ref="280993120"/>
    <nd ref="280993121"/>
    <nd ref="280993122"/>
    <nd ref="280993123"/>
    <nd ref="280993124"/>
    <nd ref="280993125"/>
    <nd ref="280993126"/>
    <nd ref="280993127"/>
    <nd ref="280993128"/>
    <nd ref="280993129"/>
    <nd ref="280993130"/>
    <nd ref="280993131"/>
    <nd ref="280993132"/>
    <tag k="created_by" v="Potlatch 0.10"/>
  </way>
  <way id="25764888" version="2" timestamp="2008-07-25T14:01:00Z" uid="13367" user="nubok" changeset="591777">
    <nd ref="280992234"/>
    <nd ref="280993076"/>
    <nd ref="280993077"/>
    <nd ref="280993078"/>
    <nd ref="280993202"/>
    <nd ref="280993203"/>
    <nd ref="280993204"/>
    <nd ref="280993082"/>
    <nd ref="280993083"/>
    <nd ref="280993084"/>
    <nd ref="280993085"/>
    <nd ref="280993086"/>
    <nd ref="280993087"/>
    <nd ref="280993088"/>
    <nd ref="280993089"/>
    <nd ref="280993090"/>
    <nd ref="280993091"/>
    <nd ref="280993092"/>
    <nd ref="280993093"/>
    <nd ref="280993094"/>
    <nd ref="280993205"/>
    <nd ref="280993206"/>
    <nd ref="280993207"/>
    <nd ref="280993098"/>
    <nd ref="280993099"/>
    <nd ref="280993100"/>
    <nd ref="280993208"/>
    <nd ref="280993102"/>
    <nd ref="280993103"/>
    <nd ref="280993104"/>
    <nd ref="280993105"/>
    <nd ref="280993106"/>
    <nd ref="280993107"/>
    <nd ref="280993108"/>
    <nd ref="280993109"/>
    <nd ref="280993110"/>
    <nd ref="280993111"/>
    <nd ref="280993112"/>
    <nd ref="280993113"/>
    <nd ref="280993114"/>
    <nd ref="280993209"/>
    <nd ref="280993210"/>
    <nd ref="280993117"/>
    <nd ref="280993118"/>
    <nd ref="280993119"/>
    <nd ref="280993120"/>
    <nd ref="280993211"/>
    <nd ref="280993122"/>
    <nd ref="280993212"/>
    <nd ref="280993124"/>
    <nd ref="280993213"/>
    <nd ref="280993126"/>
    <nd ref="280993127"/>
    <nd ref="280993128"/>
    <nd ref="280993129"/>
    <nd ref="280993130"/>
    <nd ref="280993214"/>
    <nd ref="280993132"/>
    <nd ref="280993215"/>
    <tag k="created_by" v="Potlatch 0.10"/>
  </way>
  <way id="25764888" version="3" timestamp="2008-07-25T14:01:03Z" uid="13367" user="nubok" changeset="591777">
    <nd ref="280992234"/>
    <nd ref="280993076"/>
    <nd ref="280993077"/>
    <nd ref="280993078"/>
    <nd ref="280993216"/>
    <nd ref="280993217"/>
    <nd ref="280993218"/>
    <nd ref="280993082"/>
    <nd ref="280993083"/>
    <nd ref="280993084"/>
    <nd ref="280993085"/>
    <nd ref="280993086"/>
    <nd ref="280993087"/>
    <nd ref="280993088"/>
    <nd ref="280993089"/>
    <nd ref="280993090"/>
    <nd ref="280993091"/>
    <nd ref="280993092"/>
    <nd ref="280993093"/>
    <nd ref="280993094"/>
    <nd ref="280993205"/>
    <nd ref="280993206"/>
    <nd ref="280993207"/>
    <nd ref="280993098"/>
    <nd ref="280993099"/>
    <nd ref="280993100"/>
    <nd ref="280993208"/>
    <nd ref="280993102"/>
    <nd ref="280993103"/>
    <nd ref="280993104"/>
    <nd ref="280993105"/>
    <nd ref="280993106"/>
    <nd ref="280993107"/>
    <nd ref="280993108"/>
    <nd ref="280993109"/>
    <nd ref="280993110"/>
    <nd ref="280993111"/>
    <nd ref="280993112"/>
    <nd ref="280993113"/>
    <nd ref="280993114"/>
    <nd ref="280993209"/>
    <nd ref="280993210"/>
    <nd ref="280993117"/>
    <nd ref="280993118"/>
    <nd ref="280993119"/>
    <nd ref="280993120"/>
    <nd ref="280993219"/>
    <nd ref="280993122"/>
    <nd ref="280993220"/>
    <nd ref="280993124"/>
    <nd ref="280993213"/>
    <nd ref="280993126"/>
    <nd ref="280993127"/>
    <nd ref="280993128"/>
    <nd ref="280993129"/>
    <nd ref="280993130"/>
    <nd ref="280993221"/>
    <nd ref="280993132"/>
    <nd ref="280993222"/>
    <nd ref="280993223"/>
    <tag k="created_by" v="Potlatch 0.10"/>
  </way>
  <way id="25764888" version="4" timestamp="2008-07-25T14:01:34Z" uid="13367" user="nubok" changeset="591777">
    <nd ref="280992234"/>
    <nd ref="280993076"/>
    <nd ref="280993077"/>
    <nd ref="280993078"/>
    <nd ref="280993216"/>
    <nd ref="280993217"/>
    <nd ref="280993218"/>
    <nd ref="280993082"/>
    <nd ref="280993083"/>
    <nd ref="280993084"/>
    <nd ref="280993085"/>
    <nd ref="280993086"/>
    <nd ref="280993087"/>
    <nd ref="280993088"/>
    <nd ref="280993089"/>
    <nd ref="280993090"/>
    <nd ref="280993091"/>
    <nd ref="280993092"/>
    <nd ref="280993093"/>
    <nd ref="280993094"/>
    <nd ref="280993205"/>
    <nd ref="280993206"/>
    <nd ref="280993207"/>
    <nd ref="280993098"/>
    <nd ref="280993099"/>
    <nd ref="280993100"/>
    <nd ref="280993208"/>
    <nd ref="280993102"/>
    <nd ref="280993103"/>
    <nd ref="280993104"/>
    <nd ref="280993105"/>
    <nd ref="280993106"/>
    <nd ref="280993107"/>
    <nd ref="280993108"/>
    <nd ref="280993109"/>
    <nd ref="280993110"/>
    <nd ref="280993111"/>
    <nd ref="280993112"/>
    <nd ref="280993113"/>
    <nd ref="280993114"/>
    <nd ref="280993209"/>
    <nd ref="280993210"/>
    <nd ref="280993117"/>
    <nd ref="280993118"/>
    <nd ref="280993119"/>
    <nd ref="280993120"/>
    <nd ref="280993242"/>
    <nd ref="280993122"/>
    <nd ref="280993220"/>
    <nd ref="280993124"/>
    <nd ref="280993213"/>
    <nd ref="280993126"/>
    <nd ref="280993127"/>
    <nd ref="280993128"/>
    <nd ref="280993129"/>
    <nd ref="280993130"/>
    <nd ref="280993221"/>
    <nd ref="280993132"/>
    <nd ref="280993222"/>
    <nd ref="280993223"/>
    <tag k="created_by" v="Potlatch 0.10"/>
    <tag k="highway" v="track"/>
    <tag k="note" v="don&apos;t know if track is correct - correct it if necessary"/>
    <tag k="source" v="gps"/>
  </way>
  <way id="25764926" version="1" timestamp="2008-07-25T14:03:48Z" uid="13367" user="nubok" changeset="591777">
    <nd ref="277776107"/>
    <nd ref="280993550"/>
    <nd ref="280993551"/>
    <nd ref="280993552"/>
    <tag k="bicycle" v="yes"/>
    <tag k="created_by" v="Potlatch 0.10"/>
    <tag k="foot" v="yes"/>
    <tag k="highway" v="footway"/>
    <tag k="source" v="gps"/>
  </way>
  <way id="25764926" version="2" timestamp="2008-07-25T14:03:53Z" uid="13367" user="nubok" changeset="591777">
    <nd ref="277776107"/>
    <nd ref="280993550"/>
    <nd ref="280993551"/>
    <nd ref="280993555"/>
    <tag k="bicycle" v="yes"/>
    <tag k="created_by" v="Potlatch 0.10"/>
    <tag k="foot" v="yes"/>
    <tag k="highway" v="track"/>
    <tag k="source" v="gps"/>
  </way>
  <way id="25764926" version="3" timestamp="2008-07-25T14:08:50Z" uid="13367" user="nubok" changeset="591777">
    <nd ref="277776107"/>
    <nd ref="280993550"/>
    <nd ref="280993551"/>
    <nd ref="280993555"/>
    <tag k="bicycle" v="yes"/>
    <tag k="created_by" v="Potlatch 0.10"/>
    <tag k="highway" v="track"/>
    <tag k="source" v="gps"/>
  </way>
  <way id="25764936" version="1" timestamp="2008-07-25T14:04:42Z" uid="13367" user="nubok" changeset="591777">
    <nd ref="277776111"/>
    <nd ref="280993738"/>
    <nd ref="280993739"/>
    <nd ref="280993740"/>
    <nd ref="280993741"/>
    <nd ref="280993742"/>
    <nd ref="280993743"/>
    <nd ref="280993744"/>
    <nd ref="280993745"/>
    <nd ref="280993746"/>
    <nd ref="280993747"/>
    <nd ref="280993748"/>
    <nd ref="280993749"/>
    <nd ref="280993750"/>
    <tag k="bicycle" v="yes"/>
    <tag k="created_by" v="Potlatch 0.10"/>
    <tag k="foot" v="yes"/>
    <tag k="highway" v="footway"/>
    <tag k="source" v="gps"/>
  </way>
  <way id="25764987" version="1" timestamp="2008-07-25T14:07:21Z" uid="13367" user="nubok" changeset="591777">
    <nd ref="278173951"/>
    <nd ref="280994300"/>
    <nd ref="280994301"/>
    <nd ref="280994302"/>
    <nd ref="280994303"/>
    <nd ref="280994304"/>
    <nd ref="280994305"/>
    <nd ref="280994306"/>
    <nd ref="280994307"/>
    <nd ref="280994308"/>
    <nd ref="280994309"/>
    <nd ref="280994310"/>
    <nd ref="280994311"/>
    <nd ref="280994312"/>
    <nd ref="280994313"/>
    <nd ref="280994314"/>
    <nd ref="280994315"/>
    <nd ref="280994316"/>
    <nd ref="280994317"/>
    <nd ref="280994318"/>
    <nd ref="280994319"/>
    <nd ref="280994320"/>
    <nd ref="280994321"/>
    <nd ref="280994322"/>
    <nd ref="280994323"/>
    <nd ref="280994324"/>
    <nd ref="280994325"/>
    <nd ref="280994326"/>
    <nd ref="280994327"/>
    <nd ref="280994328"/>
    <nd ref="280994329"/>
    <nd ref="280994330"/>
    <nd ref="280994331"/>
    <nd ref="280994332"/>
    <nd ref="280994333"/>
    <nd ref="280994334"/>
    <nd ref="280994335"/>
    <nd ref="280994336"/>
    <nd ref="280994337"/>
    <nd ref="280994338"/>
    <nd ref="280994339"/>
    <nd ref="280994340"/>
    <nd ref="280994341"/>
    <nd ref="280994342"/>
    <nd ref="280994343"/>
    <nd ref="280994344"/>
    <nd ref="280994345"/>
    <nd ref="280994346"/>
    <nd ref="280994347"/>
    <nd ref="280994348"/>
    <nd ref="280994349"/>
    <nd ref="280994350"/>
    <nd ref="278171882"/>
    <tag k="created_by" v="Potlatch 0.10"/>
  </way>
  <way id="25764987" version="2" timestamp="2008-07-25T14:07:26Z" uid="13367" user="nubok" changeset="591777">
    <nd ref="278173951"/>
    <nd ref="280994300"/>
    <nd ref="280994301"/>
    <nd ref="280994302"/>
    <nd ref="280994352"/>
    <nd ref="280994304"/>
    <nd ref="280994353"/>
    <nd ref="280994354"/>
    <nd ref="280994307"/>
    <nd ref="280994355"/>
    <nd ref="280994309"/>
    <nd ref="280994356"/>
    <nd ref="280994357"/>
    <nd ref="280994358"/>
    <nd ref="280994359"/>
    <nd ref="280994314"/>
    <nd ref="280994360"/>
    <nd ref="280994316"/>
    <nd ref="280994317"/>
    <nd ref="280994361"/>
    <nd ref="280994319"/>
    <nd ref="280994362"/>
    <nd ref="280994321"/>
    <nd ref="280994322"/>
    <nd ref="280994323"/>
    <nd ref="280994324"/>
    <nd ref="280994363"/>
    <nd ref="280994326"/>
    <nd ref="280994364"/>
    <nd ref="280994365"/>
    <nd ref="280994329"/>
    <nd ref="280994366"/>
    <nd ref="280994331"/>
    <nd ref="280994367"/>
    <nd ref="280994368"/>
    <nd ref="280994369"/>
    <nd ref="280994370"/>
    <nd ref="280994336"/>
    <nd ref="280994371"/>
    <nd ref="280994338"/>
    <nd ref="280994339"/>
    <nd ref="280994372"/>
    <nd ref="280994341"/>
    <nd ref="280994373"/>
    <nd ref="280994343"/>
    <nd ref="280994344"/>
    <nd ref="280994345"/>
    <nd ref="280994346"/>
    <nd ref="280994374"/>
    <nd ref="280994348"/>
    <nd ref="280994375"/>
    <nd ref="280994376"/>
    <nd ref="278171882"/>
    <tag k="bicycle" v="yes"/>
    <tag k="created_by" v="Potlatch 0.10"/>
    <tag k="foot" v="yes"/>
    <tag k="highway" v="footway"/>
    <tag k="source" v="gps"/>
  </way>
  <way id="25764988" version="1" timestamp="2008-07-25T14:07:50Z" uid="13367" user="nubok" changeset="591777">
    <nd ref="280994817"/>
    <nd ref="280994818"/>
    <nd ref="92562917"/>
    <tag k="created_by" v="Potlatch 0.10"/>
  </way>
  <way id="25764988" version="2" timestamp="2008-07-25T14:08:11Z" uid="13367" user="nubok" changeset="591777">
    <nd ref="280994817"/>
    <nd ref="280994818"/>
    <nd ref="92562917"/>
    <tag k="created_by" v="Potlatch 0.10"/>
    <tag k="foot" v="yes"/>
    <tag k="highway" v="footway"/>
  </way>
  <way id="25764993" version="1" timestamp="2008-07-25T14:08:49Z" uid="13367" user="nubok" changeset="591777">
    <nd ref="277776099"/>
    <nd ref="280994869"/>
    <nd ref="280994870"/>
    <nd ref="277776097"/>
    <tag k="created_by" v="Potlatch 0.10"/>
    <tag k="highway" v="track"/>
    <tag k="source" v="gps"/>
  </way>
</osm>
