<?xml version='1.0' encoding='UTF-8'?>
<osm version="0.6" generator="libosmium/2.20.0">
  <way id="25780061" version="2" timestamp="2008-09-05T10:53:24Z" uid="1066" user="pavel" changeset="539695">
    <nd ref="281189573"/>
    <nd ref="281189574"/>
    <tag k="created_by" v="Potlatch 0.10"/>
    <tag k="highway" v="residential"/>
    <tag k="name" v="bratranců Veverkových"/>
    <tag k="name:source" v="nameit/uir-adr"/>
  </way>
  <way id="25780186" version="3" timestamp="2008-09-05T10:53:33Z" uid="1066" user="pavel" changeset="539695">
    <nd ref="281191074"/>
    <nd ref="281191135"/>
    <tag k="created_by" v="Potlatch 0.10"/>
    <tag k="highway" v="residential"/>
    <tag k="name" v="Věžická"/>
    <tag k="name:source" v="nameit/uir-adr"/>
  </way>
  <way id="25780202" version="3" timestamp="2010-03-12T07:40:08Z" uid="30632" user="antblant" changeset="4104030">
    <nd ref="59976911"/>
    <nd ref="281191092"/>
    <nd ref="281191082"/>
    <nd ref="281179478"/>
    <nd ref="281191112"/>
    <nd ref="281191204"/>
    <nd ref="281191116"/>
    <tag k="highway" v="unsurfaced"/>
    <tag k="name" v="Polna"/>
    <tag k="source" v="UMP"/>
  </way>
  <way id="25780333" version="3" timestamp="2008-09-05T10:55:10Z" uid="1066" user="pavel" changeset="539695">
    <nd ref="281192003"/>
    <nd ref="281192004"/>
    <tag k="created_by" v="Potlatch 0.10"/>
    <tag k="highway" v="residential"/>
    <tag k="name" v="Pavlišovská"/>
    <tag k="name:source" v="nameit/uir-adr"/>
  </way>
  <way id="25780335" version="2" timestamp="2008-09-05T10:54:02Z" uid="1066" user="pavel" changeset="539695">
    <nd ref="281192051"/>
    <nd ref="281192052"/>
    <tag k="created_by" v="Potlatch 0.10"/>
    <tag k="highway" v="residential"/>
    <tag k="name" v="Pavlišovská"/>
    <tag k="name:source" v="nameit/uir-adr"/>
  </way>
  <way id="25780337" version="3" timestamp="2008-09-05T10:53:14Z" uid="1066" user="pavel" changeset="539695">
    <nd ref="281192116"/>
    <nd ref="281192135"/>
    <tag k="created_by" v="Potlatch 0.10"/>
    <tag k="highway" v="residential"/>
    <tag k="name" v="Pavlišovská"/>
    <tag k="name:source" v="nameit/uir-adr"/>
  </way>
  <way id="25780341" version="2" timestamp="2008-09-05T10:52:55Z" uid="1066" user="pavel" changeset="539695">
    <nd ref="281192200"/>
    <nd ref="281192201"/>
    <tag k="created_by" v="Potlatch 0.10"/>
    <tag k="highway" v="residential"/>
    <tag k="name" v="Pavlišovská"/>
    <tag k="name:source" v="nameit/uir-adr"/>
  </way>
  <way id="25780344" version="2" timestamp="2008-09-05T10:53:48Z" uid="1066" user="pavel" changeset="539695">
    <nd ref="281192355"/>
    <nd ref="281192356"/>
    <tag k="created_by" v="Potlatch 0.10"/>
    <tag k="highway" v="residential"/>
    <tag k="name" v="Komárovská"/>
    <tag k="name:source" v="nameit/uir-adr"/>
  </way>
  <way id="25780387" version="2" timestamp="2008-09-05T10:53:59Z" uid="1066" user="pavel" changeset="539695">
    <nd ref="281192975"/>
    <nd ref="281192979"/>
    <tag k="created_by" v="Potlatch 0.10"/>
    <tag k="highway" v="residential"/>
    <tag k="name" v="Chodovická"/>
    <tag k="name:source" v="nameit/uir-adr"/>
  </way>
  <way id="25780393" version="4" timestamp="2008-09-05T10:54:35Z" uid="1066" user="pavel" changeset="539695">
    <nd ref="32667429"/>
    <nd ref="281193127"/>
    <tag k="created_by" v="Potlatch 0.10"/>
    <tag k="highway" v="residential"/>
    <tag k="name" v="Lipí"/>
    <tag k="name:source" v="nameit/uir-adr"/>
  </way>
  <way id="25780604" version="1" timestamp="2008-07-26T12:33:32Z" uid="43863" user="Rundling" changeset="596963">
    <nd ref="60749163"/>
    <nd ref="60749162"/>
    <nd ref="60749160"/>
    <nd ref="60749158"/>
    <nd ref="60749156"/>
    <nd ref="60749155"/>
    <nd ref="60749154"/>
    <nd ref="60749152"/>
    <nd ref="60749143"/>
    <nd ref="281193928"/>
    <nd ref="281193961"/>
    <nd ref="281193930"/>
    <nd ref="271739767"/>
    <tag k="created_by" v="Potlatch 0.10"/>
    <tag k="highway" v="residential"/>
    <tag k="name" v="Hauptstraße"/>
    <tag k="ref" v="L265"/>
  </way>
  <way id="25780604" version="2" timestamp="2008-07-26T12:33:59Z" uid="43863" user="Rundling" changeset="596963">
    <nd ref="60749163"/>
    <nd ref="60749162"/>
    <nd ref="60749160"/>
    <nd ref="60749158"/>
    <nd ref="281193971"/>
    <nd ref="60749156"/>
    <nd ref="60749155"/>
    <nd ref="60749154"/>
    <nd ref="60749152"/>
    <nd ref="60749143"/>
    <nd ref="281193928"/>
    <nd ref="281193961"/>
    <nd ref="281193930"/>
    <nd ref="271739767"/>
    <tag k="created_by" v="Potlatch 0.10"/>
    <tag k="highway" v="residential"/>
    <tag k="name" v="Hauptstraße"/>
    <tag k="ref" v="L265"/>
  </way>
  <way id="25780604" version="3" timestamp="2008-07-26T12:36:40Z" uid="43863" user="Rundling" changeset="596963">
    <nd ref="60749163"/>
    <nd ref="60749162"/>
    <nd ref="60749160"/>
    <nd ref="60749158"/>
    <nd ref="281193971"/>
    <nd ref="60749156"/>
    <nd ref="60749155"/>
    <nd ref="60749154"/>
    <nd ref="60749152"/>
    <nd ref="60749143"/>
    <nd ref="281193928"/>
    <nd ref="281193961"/>
    <nd ref="281193930"/>
    <nd ref="271739767"/>
    <tag k="created_by" v="Potlatch 0.10"/>
    <tag k="highway" v="secondary"/>
    <tag k="name" v="Hauptstraße"/>
    <tag k="ref" v="L265"/>
  </way>
  <way id="25780604" version="4" timestamp="2008-08-24T14:27:45Z" uid="43863" user="Rundling" changeset="393027">
    <nd ref="60749163"/>
    <nd ref="60749162"/>
    <nd ref="60749160"/>
    <nd ref="60749158"/>
    <nd ref="281193971"/>
    <nd ref="60749156"/>
    <nd ref="60749155"/>
    <nd ref="60749154"/>
    <nd ref="60749152"/>
    <nd ref="60749143"/>
    <nd ref="281193928"/>
    <nd ref="281193961"/>
    <nd ref="281193930"/>
    <nd ref="271739767"/>
    <tag k="created_by" v="Potlatch 0.10b"/>
    <tag k="highway" v="secondary"/>
    <tag k="name" v="Hauptstraße"/>
    <tag k="ref" v="L 265"/>
  </way>
  <way id="25780604" version="5" timestamp="2008-10-29T16:37:27Z" uid="43863" user="Rundling" changeset="621176">
    <nd ref="60749163"/>
    <nd ref="60749162"/>
    <nd ref="60749160"/>
    <nd ref="60749158"/>
    <nd ref="281193971"/>
    <nd ref="60749156"/>
    <nd ref="60749155"/>
    <nd ref="60749154"/>
    <nd ref="60749152"/>
    <nd ref="60749143"/>
    <tag k="created_by" v="Potlatch 0.10b"/>
    <tag k="highway" v="secondary"/>
    <tag k="name" v="Hauptstraße"/>
    <tag k="ref" v="L 265"/>
  </way>
  <way id="25780604" version="6" timestamp="2008-10-30T13:30:26Z" uid="43863" user="Rundling" changeset="629774">
    <nd ref="60749163"/>
    <nd ref="60749162"/>
    <nd ref="60749160"/>
    <nd ref="60749158"/>
    <nd ref="281193971"/>
    <nd ref="60749156"/>
    <nd ref="60749155"/>
    <nd ref="308763847"/>
    <nd ref="60749154"/>
    <nd ref="60749152"/>
    <nd ref="60749143"/>
    <tag k="created_by" v="Potlatch 0.10b"/>
    <tag k="highway" v="secondary"/>
    <tag k="name" v="Hauptstraße"/>
    <tag k="ref" v="L 265"/>
  </way>
  <way id="25780604" version="7" timestamp="2008-10-30T16:48:37Z" uid="43863" user="Rundling" changeset="630502">
    <nd ref="60749163"/>
    <nd ref="60749162"/>
    <nd ref="60749160"/>
    <nd ref="60749158"/>
    <nd ref="281193971"/>
    <nd ref="60749156"/>
    <nd ref="60749155"/>
    <nd ref="308763847"/>
    <nd ref="60749154"/>
    <nd ref="60749152"/>
    <nd ref="60749143"/>
    <nd ref="271739767"/>
    <tag k="created_by" v="Potlatch 0.10b"/>
    <tag k="highway" v="secondary"/>
    <tag k="name" v="Hauptstraße"/>
    <tag k="oneway" v="no"/>
    <tag k="ref" v="L 265"/>
  </way>
  <way id="25780604" version="8" timestamp="2008-11-01T08:58:42Z" uid="43863" user="Rundling" changeset="646975">
    <nd ref="60749163"/>
    <nd ref="60749162"/>
    <nd ref="60749160"/>
    <nd ref="60749158"/>
    <nd ref="281193971"/>
    <nd ref="60749156"/>
    <nd ref="60749155"/>
    <nd ref="308763847"/>
    <nd ref="60749154"/>
    <nd ref="60749152"/>
    <nd ref="309054343"/>
    <nd ref="60749143"/>
    <nd ref="271739767"/>
    <tag k="created_by" v="Potlatch 0.10b"/>
    <tag k="highway" v="secondary"/>
    <tag k="name" v="Hauptstraße"/>
    <tag k="oneway" v="no"/>
    <tag k="ref" v="L 265"/>
  </way>
  <way id="25780604" version="9" timestamp="2008-11-01T09:00:18Z" uid="43863" user="Rundling" changeset="646975">
    <nd ref="60749163"/>
    <nd ref="60749162"/>
    <nd ref="60749160"/>
    <nd ref="60749158"/>
    <nd ref="281193971"/>
    <nd ref="60749156"/>
    <nd ref="60749155"/>
    <nd ref="308763847"/>
    <nd ref="60749154"/>
    <nd ref="60749152"/>
    <nd ref="309054343"/>
    <nd ref="309054441"/>
    <nd ref="309054440"/>
    <nd ref="271739767"/>
    <tag k="created_by" v="Potlatch 0.10b"/>
    <tag k="highway" v="secondary"/>
    <tag k="name" v="Hauptstraße"/>
    <tag k="oneway" v="no"/>
    <tag k="ref" v="L 265"/>
  </way>
  <way id="25780604" version="10" timestamp="2008-12-20T21:16:44Z" uid="43863" user="Rundling" changeset="503308">
    <nd ref="60749163"/>
    <nd ref="60749162"/>
    <nd ref="60749160"/>
    <nd ref="60749158"/>
    <nd ref="281193971"/>
    <nd ref="60749156"/>
    <nd ref="60749155"/>
    <nd ref="308763847"/>
    <nd ref="60749154"/>
    <nd ref="60749152"/>
    <nd ref="309054343"/>
    <nd ref="320327773"/>
    <nd ref="309054441"/>
    <nd ref="309054440"/>
    <nd ref="271739767"/>
    <tag k="created_by" v="Potlatch 0.10b"/>
    <tag k="highway" v="secondary"/>
    <tag k="name" v="Hauptstraße"/>
    <tag k="oneway" v="no"/>
    <tag k="ref" v="L 265"/>
  </way>
  <way id="25780605" version="2" timestamp="2010-01-05T15:05:21Z" uid="23543" user="jkjk" changeset="3546145">
    <nd ref="281193959"/>
    <nd ref="264980526"/>
    <nd ref="91499942"/>
    <tag k="highway" v="trunk"/>
    <tag k="name" v="FIXME"/>
    <tag k="oneway" v="true"/>
  </way>
  <way id="25780635" version="4" timestamp="2008-09-05T10:54:32Z" uid="1066" user="pavel" changeset="539695">
    <nd ref="281194267"/>
    <nd ref="282787168"/>
    <nd ref="281194294"/>
    <tag k="created_by" v="Potlatch 0.10"/>
    <tag k="highway" v="residential"/>
    <tag k="name" v="Komárovská"/>
    <tag k="name:source" v="nameit/uir-adr"/>
  </way>
  <way id="25780636" version="3" timestamp="2008-09-05T10:55:07Z" uid="1066" user="pavel" changeset="539695">
    <nd ref="281192979"/>
    <nd ref="288034604"/>
    <nd ref="288034603"/>
    <nd ref="288034602"/>
    <nd ref="288034601"/>
    <nd ref="281194294"/>
    <nd ref="281194293"/>
    <tag k="created_by" v="Potlatch 0.10"/>
    <tag k="highway" v="residential"/>
    <tag k="name" v="Komárovská"/>
    <tag k="name:source" v="nameit/uir-adr"/>
  </way>
  <way id="25780641" version="2" timestamp="2008-09-05T10:54:09Z" uid="1066" user="pavel" changeset="539695">
    <nd ref="281194315"/>
    <nd ref="75734585"/>
    <tag k="created_by" v="Potlatch 0.10"/>
    <tag k="highway" v="residential"/>
    <tag k="name" v="Otovická"/>
    <tag k="name:source" v="nameit/uir-adr"/>
  </way>
  <way id="25780674" version="4" timestamp="2009-09-02T21:46:00Z" uid="66036" user="h4v" changeset="2354271">
    <nd ref="301669821"/>
    <nd ref="481443600"/>
    <nd ref="220358129"/>
    <nd ref="271406225"/>
    <nd ref="279724255"/>
    <nd ref="301669824"/>
    <nd ref="301669828"/>
    <nd ref="220358139"/>
    <tag k="highway" v="tertiary"/>
    <tag k="name" v="Antoniego Abrahama"/>
  </way>
  <way id="25780732" version="3" timestamp="2008-11-26T01:21:08Z" uid="6975" user="ulfl" changeset="794829">
    <nd ref="313976927"/>
    <nd ref="313976922"/>
    <nd ref="313976917"/>
    <nd ref="313976911"/>
    <nd ref="313976909"/>
    <nd ref="313976871"/>
    <nd ref="313976906"/>
    <nd ref="313976902"/>
    <nd ref="313976898"/>
    <nd ref="313976896"/>
    <nd ref="313976892"/>
    <nd ref="313976887"/>
    <nd ref="313976883"/>
    <nd ref="313976879"/>
    <nd ref="313976876"/>
    <nd ref="313976873"/>
    <tag k="abutters" v="residential"/>
    <tag k="highway" v="tertiary"/>
  </way>
  <way id="25780734" version="3" timestamp="2008-11-26T01:21:07Z" uid="6975" user="ulfl" changeset="794829">
    <nd ref="313976871"/>
    <nd ref="313976869"/>
    <nd ref="313976868"/>
    <nd ref="313976866"/>
    <nd ref="313976865"/>
    <nd ref="313976862"/>
    <nd ref="313976859"/>
    <nd ref="281195228"/>
    <nd ref="281195239"/>
    <nd ref="281195229"/>
    <nd ref="281195233"/>
    <nd ref="281195226"/>
    <nd ref="281195238"/>
    <nd ref="313976848"/>
    <nd ref="313976850"/>
    <nd ref="313976855"/>
    <tag k="abutters" v="residential"/>
    <tag k="highway" v="tertiary"/>
    <tag k="ref" v="708"/>
  </way>
  <way id="25780811" version="1" timestamp="2008-07-26T12:47:56Z" uid="43863" user="Rundling" changeset="596963">
    <nd ref="60602668"/>
    <nd ref="59982849"/>
    <nd ref="59982844"/>
    <nd ref="59982840"/>
    <nd ref="59982836"/>
    <nd ref="59982828"/>
    <nd ref="59982832"/>
    <nd ref="59982824"/>
    <nd ref="59982822"/>
    <nd ref="59982820"/>
    <nd ref="59982819"/>
    <nd ref="59982898"/>
    <nd ref="59982896"/>
    <nd ref="59982818"/>
    <nd ref="59982893"/>
    <nd ref="59982899"/>
    <nd ref="59982817"/>
    <tag k="created_by" v="Potlatch 0.10"/>
    <tag k="highway" v="secondary"/>
    <tag k="name" v="L270"/>
  </way>
  <way id="25780811" version="2" timestamp="2008-07-26T13:45:55Z" uid="43863" user="Rundling" changeset="596963">
    <nd ref="60602668"/>
    <nd ref="59982849"/>
    <nd ref="59982844"/>
    <nd ref="59982840"/>
    <nd ref="59982836"/>
    <nd ref="59982828"/>
    <nd ref="59982832"/>
    <nd ref="59982824"/>
    <nd ref="59982822"/>
    <nd ref="59982820"/>
    <nd ref="59982819"/>
    <nd ref="59982898"/>
    <nd ref="59982896"/>
    <nd ref="59982818"/>
    <nd ref="59982893"/>
    <nd ref="59982899"/>
    <nd ref="59982817"/>
    <tag k="created_by" v="Potlatch 0.10"/>
    <tag k="highway" v="secondary"/>
    <tag k="name" v="L270"/>
  </way>
  <way id="25780811" version="3" timestamp="2008-08-24T14:30:42Z" uid="43863" user="Rundling" changeset="393027">
    <nd ref="60602668"/>
    <nd ref="59982849"/>
    <nd ref="59982844"/>
    <nd ref="59982840"/>
    <nd ref="59982836"/>
    <nd ref="59982828"/>
    <nd ref="59982832"/>
    <nd ref="59982824"/>
    <nd ref="59982822"/>
    <nd ref="59982820"/>
    <nd ref="59982819"/>
    <nd ref="59982898"/>
    <nd ref="59982896"/>
    <nd ref="59982818"/>
    <nd ref="59982893"/>
    <nd ref="59982899"/>
    <nd ref="59982817"/>
    <tag k="created_by" v="Potlatch 0.10b"/>
    <tag k="highway" v="secondary"/>
    <tag k="name" v="L 270"/>
  </way>
  <way id="25780811" version="4" timestamp="2008-08-31T07:04:26Z" uid="43863" user="Rundling" changeset="477861">
    <nd ref="60602668"/>
    <nd ref="59982849"/>
    <nd ref="59982844"/>
    <nd ref="59982840"/>
    <nd ref="59982836"/>
    <nd ref="59982828"/>
    <nd ref="59982832"/>
    <nd ref="59982824"/>
    <nd ref="59982822"/>
    <nd ref="292455600"/>
    <nd ref="59982820"/>
    <nd ref="59982819"/>
    <nd ref="59982898"/>
    <nd ref="59982896"/>
    <nd ref="59982818"/>
    <nd ref="59982893"/>
    <nd ref="59982899"/>
    <nd ref="59982817"/>
    <tag k="created_by" v="Potlatch 0.10b"/>
    <tag k="highway" v="secondary"/>
    <tag k="name" v="L 270"/>
  </way>
  <way id="25780811" version="5" timestamp="2008-08-31T07:04:48Z" uid="43863" user="Rundling" changeset="477861">
    <nd ref="60602668"/>
    <nd ref="59982849"/>
    <nd ref="59982844"/>
    <nd ref="292455626"/>
    <nd ref="59982840"/>
    <nd ref="59982836"/>
    <nd ref="59982828"/>
    <nd ref="59982832"/>
    <nd ref="59982824"/>
    <nd ref="59982822"/>
    <nd ref="292455600"/>
    <nd ref="59982820"/>
    <nd ref="59982819"/>
    <nd ref="59982898"/>
    <nd ref="59982896"/>
    <nd ref="59982818"/>
    <nd ref="59982893"/>
    <nd ref="59982899"/>
    <nd ref="59982817"/>
    <tag k="created_by" v="Potlatch 0.10b"/>
    <tag k="highway" v="secondary"/>
    <tag k="name" v="L 270"/>
  </way>
  <way id="25780811" version="6" timestamp="2008-11-01T16:43:01Z" uid="43863" user="Rundling" changeset="651795">
    <nd ref="60602668"/>
    <nd ref="59982849"/>
    <nd ref="59982844"/>
    <nd ref="292455626"/>
    <nd ref="59982840"/>
    <nd ref="59982836"/>
    <nd ref="59982828"/>
    <nd ref="59982832"/>
    <nd ref="59982824"/>
    <nd ref="59982822"/>
    <nd ref="292455600"/>
    <nd ref="59982820"/>
    <nd ref="59982819"/>
    <nd ref="59982898"/>
    <nd ref="59982896"/>
    <nd ref="59982818"/>
    <nd ref="59982893"/>
    <nd ref="59982899"/>
    <nd ref="59982817"/>
    <tag k="created_by" v="Potlatch 0.10f"/>
    <tag k="highway" v="secondary"/>
    <tag k="ref" v="L 270"/>
  </way>
  <way id="25780811" version="10" timestamp="2009-06-14T16:28:30Z" uid="43863" user="Rundling" changeset="1516280">
    <nd ref="60602668"/>
    <nd ref="59982849"/>
    <nd ref="59982844"/>
    <nd ref="292455626"/>
    <nd ref="59982840"/>
    <nd ref="59982836"/>
    <nd ref="59982828"/>
    <nd ref="329595049"/>
    <nd ref="329595056"/>
    <nd ref="420308257"/>
    <tag k="highway" v="secondary"/>
    <tag k="ref" v="L 270"/>
  </way>
  <way id="25780870" version="1" timestamp="2008-07-26T12:51:46Z" uid="43863" user="Rundling" changeset="596963">
    <nd ref="115607279"/>
    <nd ref="60642186"/>
    <nd ref="253732949"/>
    <nd ref="36289093"/>
    <tag k="created_by" v="Potlatch 0.10"/>
    <tag k="highway" v="primary"/>
    <tag k="name" v="Bromer Straße"/>
    <tag k="ref" v="B 244"/>
  </way>
  <way id="25780870" version="2" timestamp="2008-07-26T16:23:35Z" uid="43863" user="Rundling" changeset="601702">
    <nd ref="115607279"/>
    <nd ref="60642186"/>
    <nd ref="253732949"/>
    <nd ref="36289093"/>
    <tag k="created_by" v="Potlatch 0.10"/>
    <tag k="highway" v="primary"/>
    <tag k="name" v="Bromer Straße"/>
    <tag k="ref" v="B244"/>
  </way>
  <way id="25780870" version="3" timestamp="2008-08-31T07:05:52Z" uid="43863" user="Rundling" changeset="477861">
    <nd ref="115607279"/>
    <nd ref="60642186"/>
    <nd ref="253732949"/>
    <nd ref="36289093"/>
    <tag k="created_by" v="Potlatch 0.10b"/>
    <tag k="highway" v="primary"/>
    <tag k="name" v="Bromer Straße"/>
    <tag k="ref" v="B244"/>
  </way>
  <way id="25780870" version="5" timestamp="2009-07-27T19:15:58Z" uid="9581" user="Lobelt" changeset="1958855">
    <nd ref="115607279"/>
    <nd ref="449223435"/>
    <nd ref="60642186"/>
    <nd ref="253732949"/>
    <nd ref="36289093"/>
    <tag k="created_by" v="Potlatch 0.10b"/>
    <tag k="highway" v="primary"/>
    <tag k="name" v="Bromer Straße"/>
    <tag k="ref" v="B 244"/>
  </way>
  <way id="25780892" version="1" timestamp="2008-07-26T12:53:52Z" uid="43863" user="Rundling" changeset="596963">
    <nd ref="36289101"/>
    <nd ref="36289103"/>
    <nd ref="36289104"/>
    <nd ref="36289105"/>
    <nd ref="36289107"/>
    <nd ref="36289108"/>
    <nd ref="36289109"/>
    <nd ref="36289110"/>
    <nd ref="36289112"/>
    <nd ref="36289113"/>
    <nd ref="36289114"/>
    <nd ref="36289116"/>
    <nd ref="36289117"/>
    <nd ref="36289118"/>
    <nd ref="36289120"/>
    <nd ref="36289121"/>
    <nd ref="36289123"/>
    <nd ref="36289124"/>
    <nd ref="36289125"/>
    <nd ref="36289126"/>
    <nd ref="36289128"/>
    <nd ref="36289129"/>
    <tag k="created_by" v="Potlatch 0.10"/>
    <tag k="highway" v="secondary"/>
    <tag k="name" v="Salzwedeler Straße"/>
    <tag k="ref" v="L282"/>
  </way>
  <way id="25780892" version="2" timestamp="2008-07-26T12:54:27Z" uid="43863" user="Rundling" changeset="596963">
    <nd ref="36289101"/>
    <nd ref="36289103"/>
    <nd ref="36289104"/>
    <nd ref="36289105"/>
    <nd ref="36289107"/>
    <nd ref="36289108"/>
    <nd ref="36289109"/>
    <nd ref="36289110"/>
    <nd ref="36289112"/>
    <nd ref="36289113"/>
    <nd ref="36289114"/>
    <nd ref="36289116"/>
    <nd ref="36289117"/>
    <nd ref="36289118"/>
    <nd ref="36289120"/>
    <nd ref="36289121"/>
    <nd ref="36289123"/>
    <nd ref="36289124"/>
    <nd ref="36289125"/>
    <nd ref="36289126"/>
    <nd ref="36289128"/>
    <nd ref="36289129"/>
    <tag k="created_by" v="Potlatch 0.10"/>
    <tag k="highway" v="secondary"/>
    <tag k="ref" v="L282"/>
  </way>
  <way id="25780892" version="3" timestamp="2008-08-24T14:31:09Z" uid="43863" user="Rundling" changeset="393027">
    <nd ref="36289101"/>
    <nd ref="36289103"/>
    <nd ref="36289104"/>
    <nd ref="36289105"/>
    <nd ref="36289107"/>
    <nd ref="36289108"/>
    <nd ref="36289109"/>
    <nd ref="36289110"/>
    <nd ref="36289112"/>
    <nd ref="36289113"/>
    <nd ref="36289114"/>
    <nd ref="36289116"/>
    <nd ref="36289117"/>
    <nd ref="36289118"/>
    <nd ref="36289120"/>
    <nd ref="36289121"/>
    <nd ref="36289123"/>
    <nd ref="36289124"/>
    <nd ref="36289125"/>
    <nd ref="36289126"/>
    <nd ref="36289128"/>
    <nd ref="36289129"/>
    <tag k="created_by" v="Potlatch 0.10b"/>
    <tag k="highway" v="secondary"/>
    <tag k="ref" v="L 282"/>
  </way>
  <way id="25780892" version="5" timestamp="2009-05-15T05:34:51Z" uid="43863" user="Rundling" changeset="1195163">
    <nd ref="36289101"/>
    <nd ref="36289103"/>
    <nd ref="36289105"/>
    <nd ref="36289107"/>
    <nd ref="36289108"/>
    <nd ref="36289109"/>
    <nd ref="36289110"/>
    <nd ref="36289112"/>
    <nd ref="36289113"/>
    <nd ref="36289114"/>
    <nd ref="36289116"/>
    <nd ref="36289117"/>
    <nd ref="36289118"/>
    <nd ref="36289120"/>
    <nd ref="36289121"/>
    <nd ref="36289123"/>
    <nd ref="36289124"/>
    <nd ref="36289125"/>
    <nd ref="36289126"/>
    <nd ref="36289128"/>
    <nd ref="313509265"/>
    <tag k="created_by" v="Potlatch 0.10b"/>
    <tag k="highway" v="secondary"/>
    <tag k="ref" v="L 282"/>
  </way>
  <way id="25780977" version="1" timestamp="2008-07-26T12:58:42Z" uid="43863" user="Rundling" changeset="596963">
    <nd ref="36289183"/>
    <nd ref="36289184"/>
    <nd ref="36289185"/>
    <nd ref="36289186"/>
    <nd ref="36289188"/>
    <nd ref="36289189"/>
    <nd ref="36289190"/>
    <nd ref="36289192"/>
    <nd ref="36289193"/>
    <nd ref="36289194"/>
    <nd ref="36289196"/>
    <nd ref="36289197"/>
    <nd ref="36289198"/>
    <nd ref="36289200"/>
    <nd ref="36289201"/>
    <nd ref="36289203"/>
    <nd ref="36289204"/>
    <nd ref="36289205"/>
    <nd ref="36289207"/>
    <nd ref="36289208"/>
    <nd ref="36289209"/>
    <nd ref="36289211"/>
    <nd ref="36289212"/>
    <nd ref="36289214"/>
    <nd ref="36289215"/>
    <nd ref="36289217"/>
    <nd ref="36289218"/>
    <nd ref="36289219"/>
    <nd ref="36289221"/>
    <nd ref="36289222"/>
    <nd ref="36289223"/>
    <nd ref="36289225"/>
    <nd ref="36289226"/>
    <nd ref="36289228"/>
    <nd ref="36289229"/>
    <tag k="created_by" v="Potlatch 0.10"/>
    <tag k="highway" v="secondary"/>
    <tag k="name" v="Dährer Straße"/>
    <tag k="ref" v="L8"/>
  </way>
  <way id="25780977" version="2" timestamp="2008-07-26T12:59:08Z" uid="43863" user="Rundling" changeset="596963">
    <nd ref="36289183"/>
    <nd ref="36289184"/>
    <nd ref="36289185"/>
    <nd ref="36289186"/>
    <nd ref="36289188"/>
    <nd ref="36289189"/>
    <nd ref="36289190"/>
    <nd ref="36289192"/>
    <nd ref="36289193"/>
    <nd ref="36289194"/>
    <tag k="created_by" v="Potlatch 0.10"/>
    <tag k="highway" v="secondary"/>
    <tag k="name" v="Dährer Straße"/>
    <tag k="ref" v="L8"/>
  </way>
  <way id="25780977" version="3" timestamp="2008-07-26T12:59:19Z" uid="43863" user="Rundling" changeset="596963">
    <nd ref="36289183"/>
    <nd ref="36289184"/>
    <nd ref="36289185"/>
    <nd ref="36289186"/>
    <nd ref="36289188"/>
    <nd ref="36289189"/>
    <nd ref="36289190"/>
    <nd ref="36289192"/>
    <nd ref="36289193"/>
    <nd ref="36289194"/>
    <tag k="created_by" v="Potlatch 0.10"/>
    <tag k="highway" v="secondary"/>
    <tag k="name" v="Kloster"/>
    <tag k="ref" v="L8"/>
  </way>
  <way id="25780986" version="1" timestamp="2008-07-26T12:59:08Z" uid="43863" user="Rundling" changeset="596963">
    <nd ref="36289194"/>
    <nd ref="36289196"/>
    <nd ref="36289197"/>
    <nd ref="36289198"/>
    <nd ref="36289200"/>
    <nd ref="36289201"/>
    <nd ref="36289203"/>
    <nd ref="36289204"/>
    <nd ref="36289205"/>
    <nd ref="36289207"/>
    <nd ref="36289208"/>
    <nd ref="36289209"/>
    <nd ref="36289211"/>
    <nd ref="36289212"/>
    <nd ref="36289214"/>
    <nd ref="36289215"/>
    <nd ref="36289217"/>
    <nd ref="36289218"/>
    <nd ref="36289219"/>
    <nd ref="36289221"/>
    <nd ref="36289222"/>
    <nd ref="36289223"/>
    <nd ref="36289225"/>
    <nd ref="36289226"/>
    <nd ref="36289228"/>
    <nd ref="36289229"/>
    <tag k="created_by" v="Potlatch 0.10"/>
    <tag k="highway" v="secondary"/>
    <tag k="name" v="Dährer Straße"/>
    <tag k="ref" v="L8"/>
  </way>
</osm>
