<?xml version='1.0' encoding='UTF-8'?>
<osm version="0.6" generator="libosmium/2.20.0">
  <way id="25867027" version="10" timestamp="2010-04-30T09:03:58Z" uid="4467" user="Rosscoe" changeset="4564415">
    <nd ref="282156460"/>
    <nd ref="302790406"/>
    <nd ref="304520489"/>
    <nd ref="304572627"/>
    <nd ref="304515138"/>
    <nd ref="304515114"/>
    <nd ref="282156466"/>
    <nd ref="282156463"/>
    <nd ref="712916534"/>
    <tag k="highway" v="residential"/>
    <tag k="name" v="Bonds Road"/>
  </way>
  <way id="25867027" version="11" timestamp="2010-07-09T04:07:37Z" uid="74617" user="JohnSmith" changeset="5170825">
    <nd ref="282156460"/>
    <nd ref="302790406"/>
    <nd ref="304520489"/>
    <nd ref="304572627"/>
    <nd ref="304515138"/>
    <nd ref="304515114"/>
    <nd ref="282156466"/>
    <nd ref="282156463"/>
    <nd ref="712916534"/>
    <tag k="highway" v="residential"/>
    <tag k="maxspeed" v="50"/>
    <tag k="maxspeed:source" v="default residential speed limit in Australia"/>
    <tag k="name" v="Bonds Road"/>
  </way>
  <way id="25867068" version="6" timestamp="2010-04-30T09:03:58Z" uid="4467" user="Rosscoe" changeset="4564415">
    <nd ref="712916531"/>
    <nd ref="282156367"/>
    <nd ref="282156368"/>
    <nd ref="304520484"/>
    <nd ref="282156370"/>
    <nd ref="282156371"/>
    <nd ref="282156406"/>
    <nd ref="307934565"/>
    <nd ref="282156407"/>
    <nd ref="282156408"/>
    <nd ref="282156409"/>
    <nd ref="282156459"/>
    <nd ref="282156735"/>
    <nd ref="282156377"/>
    <nd ref="282156734"/>
    <nd ref="282156736"/>
    <nd ref="299435071"/>
    <nd ref="282156737"/>
    <nd ref="282156738"/>
    <nd ref="282156739"/>
    <nd ref="282156740"/>
    <tag k="highway" v="tertiary"/>
    <tag k="name" v="Bonds Road"/>
  </way>
  <way id="25867076" version="9" timestamp="2010-07-09T04:01:35Z" uid="74617" user="JohnSmith" changeset="5170825">
    <nd ref="307625149"/>
    <nd ref="307625150"/>
    <nd ref="611605885"/>
    <nd ref="611605888"/>
    <nd ref="292538983"/>
    <tag k="highway" v="residential"/>
    <tag k="maxspeed" v="50"/>
    <tag k="maxspeed:source" v="default residential speed limit in Australia"/>
    <tag k="name" v="Old Eltham Road"/>
    <tag k="oneway" v="yes"/>
  </way>
  <way id="25867095" version="5" timestamp="2010-04-05T23:38:04Z" uid="74617" user="JohnSmith" changeset="4338595">
    <nd ref="136525066"/>
    <nd ref="282156975"/>
    <nd ref="136525068"/>
    <nd ref="136525069"/>
    <nd ref="305572965"/>
    <nd ref="136525070"/>
    <nd ref="305572998"/>
    <nd ref="136525072"/>
    <nd ref="136525073"/>
    <nd ref="136525075"/>
    <nd ref="136525077"/>
    <nd ref="305572989"/>
    <nd ref="136525079"/>
    <nd ref="136525081"/>
    <nd ref="136525082"/>
    <nd ref="136525084"/>
    <nd ref="136525085"/>
    <nd ref="136525086"/>
    <nd ref="136525087"/>
    <nd ref="251464656"/>
    <tag k="highway" v="primary"/>
    <tag k="name" v="Main Road"/>
    <tag k="oneway" v="yes"/>
    <tag k="source" v="knowledge; survey"/>
  </way>
  <way id="25867103" version="7" timestamp="2010-07-09T04:12:16Z" uid="74617" user="JohnSmith" changeset="5170825">
    <nd ref="304574386"/>
    <nd ref="304574401"/>
    <tag k="highway" v="residential"/>
    <tag k="maxspeed" v="50"/>
    <tag k="maxspeed:source" v="default residential speed limit in Australia"/>
    <tag k="name" v="Grand Boulevard"/>
    <tag k="source" v="yahoo"/>
  </way>
  <way id="25867158" version="3" timestamp="2010-10-21T02:31:24Z" uid="4467" user="Rosscoe" changeset="6121102"/>
  <way id="25867339" version="3" timestamp="2010-10-21T02:31:15Z" uid="4467" user="Rosscoe" changeset="6121102">
    <nd ref="282159128"/>
    <nd ref="282159108"/>
    <nd ref="282159129"/>
    <nd ref="282159110"/>
    <nd ref="282159128"/>
    <tag k="amenity" v="parking"/>
    <tag k="source" v="yahoo"/>
  </way>
  <way id="25867345" version="3" timestamp="2010-10-13T10:46:48Z" uid="4467" user="Rosscoe" changeset="6028045">
    <nd ref="282159200"/>
    <nd ref="282159263"/>
    <nd ref="946554685"/>
    <tag k="highway" v="service"/>
    <tag k="source" v="yahoo"/>
  </way>
  <way id="25867363" version="3" timestamp="2010-07-10T06:35:14Z" uid="4467" user="Rosscoe" changeset="5179611">
    <nd ref="62768847"/>
    <nd ref="809514997"/>
    <tag k="highway" v="service"/>
    <tag k="source" v="yahoo"/>
    <tag k="surface" v="paved"/>
  </way>
  <way id="25867375" version="1" timestamp="2008-07-30T07:11:46Z" uid="43863" user="Rundling" changeset="625454">
    <nd ref="282159445"/>
    <nd ref="282159446"/>
    <nd ref="282159447"/>
    <nd ref="282159448"/>
    <nd ref="282159445"/>
    <tag k="created_by" v="Potlatch 0.10a"/>
  </way>
  <way id="25867375" version="2" timestamp="2008-07-30T07:13:14Z" uid="43863" user="Rundling" changeset="625454">
    <nd ref="282159445"/>
    <nd ref="282159526"/>
    <nd ref="282159447"/>
    <nd ref="282159527"/>
    <nd ref="282159445"/>
    <tag k="addr:city" v="Rosche"/>
    <tag k="addr:housenumber" v="4"/>
    <tag k="addr:postcoe" v="29571"/>
    <tag k="addr:street" v="Birkenweg"/>
    <tag k="building" v="yes"/>
    <tag k="created_by" v="Potlatch 0.10a"/>
  </way>
  <way id="25867375" version="3" timestamp="2008-07-30T07:18:49Z" uid="43863" user="Rundling" changeset="625454">
    <nd ref="282159445"/>
    <nd ref="282159526"/>
    <nd ref="282159447"/>
    <nd ref="282160121"/>
    <nd ref="282159445"/>
    <tag k="addr:city" v="Rosche"/>
    <tag k="addr:housenumber" v="4"/>
    <tag k="addr:postcoe" v="29571"/>
    <tag k="addr:street" v="Birkenweg"/>
    <tag k="building" v="yes"/>
    <tag k="created_by" v="Potlatch 0.10a"/>
  </way>
  <way id="25867375" version="5" timestamp="2008-08-05T11:03:16Z" uid="43863" user="Rundling" changeset="69264">
    <nd ref="282159445"/>
    <nd ref="282159526"/>
    <nd ref="282159447"/>
    <nd ref="282160121"/>
    <nd ref="282159445"/>
    <tag k="addr:city" v="Rosche"/>
    <tag k="addr:housenumber" v="4"/>
    <tag k="addr:postcode" v="29571"/>
    <tag k="addr:street" v="Birkenweg"/>
    <tag k="building" v="yes"/>
    <tag k="created_by" v="Potlatch 0.10b"/>
  </way>
  <way id="25867375" version="6" timestamp="2008-09-11T14:11:35Z" uid="43863" user="Rundling" changeset="602896">
    <nd ref="282159445"/>
    <nd ref="282159526"/>
    <nd ref="282159447"/>
    <nd ref="295885512"/>
    <nd ref="282160121"/>
    <nd ref="295885513"/>
    <nd ref="282159445"/>
    <tag k="addr:city" v="Rosche"/>
    <tag k="addr:housenumber" v="4"/>
    <tag k="addr:postcode" v="29571"/>
    <tag k="addr:street" v="Birkenweg"/>
    <tag k="building" v="yes"/>
    <tag k="created_by" v="Potlatch 0.10b"/>
  </way>
  <way id="25867375" version="7" timestamp="2008-09-11T14:12:01Z" uid="43863" user="Rundling" changeset="602896">
    <nd ref="282159445"/>
    <nd ref="282159526"/>
    <nd ref="282159447"/>
    <nd ref="295885512"/>
    <nd ref="282160121"/>
    <nd ref="295885513"/>
    <nd ref="282159445"/>
    <tag k="addr:city" v="Rosche"/>
    <tag k="addr:housenumber" v="4"/>
    <tag k="addr:postcode" v="29571"/>
    <tag k="addr:street" v="Birkenweg"/>
    <tag k="building" v="yes"/>
    <tag k="created_by" v="Potlatch 0.10b"/>
    <tag k="name" v="Tierarzt"/>
  </way>
  <way id="25867375" version="8" timestamp="2008-09-11T14:23:38Z" uid="43863" user="Rundling" changeset="602896">
    <nd ref="282159445"/>
    <nd ref="282159526"/>
    <nd ref="282159447"/>
    <nd ref="295885512"/>
    <nd ref="282160121"/>
    <nd ref="295885513"/>
    <nd ref="282159445"/>
    <tag k="addr:city" v="Rosche"/>
    <tag k="addr:housenumber" v="4"/>
    <tag k="addr:postcode" v="29571"/>
    <tag k="addr:street" v="Birkenweg"/>
    <tag k="building" v="yes"/>
    <tag k="created_by" v="Potlatch 0.10b"/>
  </way>
  <way id="25867375" version="9" timestamp="2008-09-11T14:27:15Z" uid="43863" user="Rundling" changeset="602896">
    <nd ref="282159445"/>
    <nd ref="282159526"/>
    <nd ref="282159447"/>
    <nd ref="295885512"/>
    <nd ref="282160121"/>
    <nd ref="295885513"/>
    <nd ref="282159445"/>
    <tag k="addr:city" v="Rosche"/>
    <tag k="addr:housenumber" v="4"/>
    <tag k="addr:postcode" v="29571"/>
    <tag k="addr:street" v="Birkenweg"/>
    <tag k="building" v="yes"/>
    <tag k="created_by" v="Potlatch 0.10b"/>
    <tag k="name" v="Tierarzt"/>
  </way>
  <way id="25867375" version="10" timestamp="2008-09-12T14:13:42Z" uid="43863" user="Rundling" changeset="616069">
    <nd ref="282159445"/>
    <nd ref="296113644"/>
    <nd ref="296113643"/>
    <nd ref="282159526"/>
    <nd ref="282159447"/>
    <nd ref="295885512"/>
    <nd ref="282160121"/>
    <nd ref="295885513"/>
    <nd ref="282159445"/>
    <tag k="addr:city" v="Rosche"/>
    <tag k="addr:housenumber" v="4"/>
    <tag k="addr:postcode" v="29571"/>
    <tag k="addr:street" v="Birkenweg"/>
    <tag k="building" v="yes"/>
    <tag k="created_by" v="Potlatch 0.10b"/>
    <tag k="name" v="Tierarzt"/>
  </way>
  <way id="25867375" version="11" timestamp="2008-09-13T08:00:16Z" uid="43863" user="Rundling" changeset="619327">
    <nd ref="282159445"/>
    <nd ref="296113644"/>
    <nd ref="296113643"/>
    <nd ref="282159526"/>
    <nd ref="282159447"/>
    <nd ref="295885512"/>
    <nd ref="296302217"/>
    <nd ref="296302219"/>
    <nd ref="296302218"/>
    <nd ref="282160121"/>
    <nd ref="295885513"/>
    <nd ref="282159445"/>
    <tag k="addr:city" v="Rosche"/>
    <tag k="addr:housenumber" v="4"/>
    <tag k="addr:postcode" v="29571"/>
    <tag k="addr:street" v="Birkenweg"/>
    <tag k="building" v="yes"/>
    <tag k="created_by" v="Potlatch 0.10b"/>
    <tag k="name" v="Tierarzt"/>
  </way>
  <way id="25867375" version="12" timestamp="2008-09-13T08:14:31Z" uid="43863" user="Rundling" changeset="619327">
    <nd ref="282159445"/>
    <nd ref="296113644"/>
    <nd ref="296113643"/>
    <nd ref="282159526"/>
    <nd ref="296304798"/>
    <nd ref="296304799"/>
    <nd ref="296304800"/>
    <nd ref="282159447"/>
    <nd ref="295885512"/>
    <nd ref="296302217"/>
    <nd ref="296302219"/>
    <nd ref="296302218"/>
    <nd ref="282160121"/>
    <nd ref="295885513"/>
    <nd ref="282159445"/>
    <tag k="addr:city" v="Rosche"/>
    <tag k="addr:housenumber" v="4"/>
    <tag k="addr:postcode" v="29571"/>
    <tag k="addr:street" v="Birkenweg"/>
    <tag k="building" v="yes"/>
    <tag k="created_by" v="Potlatch 0.10b"/>
    <tag k="name" v="Tierarzt"/>
  </way>
  <way id="25867375" version="13" timestamp="2009-01-09T16:10:49Z" uid="43863" user="Rundling" changeset="761110">
    <nd ref="282159445"/>
    <nd ref="296113644"/>
    <nd ref="296113643"/>
    <nd ref="282159526"/>
    <nd ref="296304798"/>
    <nd ref="296304799"/>
    <nd ref="296304800"/>
    <nd ref="282159447"/>
    <nd ref="295885512"/>
    <nd ref="296302217"/>
    <nd ref="296302219"/>
    <nd ref="296302218"/>
    <nd ref="282160121"/>
    <nd ref="295885513"/>
    <nd ref="282159445"/>
    <tag k="addr:city" v="Rosche"/>
    <tag k="addr:housenumber" v="4"/>
    <tag k="addr:postcode" v="29571"/>
    <tag k="addr:street" v="Birkenweg"/>
    <tag k="building" v="yes"/>
  </way>
  <way id="25867375" version="14" timestamp="2009-01-22T21:20:26Z" uid="43863" user="Rundling" changeset="825601">
    <nd ref="282159445"/>
    <nd ref="296113644"/>
    <nd ref="296113643"/>
    <nd ref="282159526"/>
    <nd ref="296304798"/>
    <nd ref="296304799"/>
    <nd ref="296304800"/>
    <nd ref="282159447"/>
    <nd ref="295885512"/>
    <nd ref="296302217"/>
    <nd ref="296302219"/>
    <nd ref="296302218"/>
    <nd ref="282160121"/>
    <nd ref="295885513"/>
    <nd ref="282159445"/>
    <tag k="addr:city" v="Rosche"/>
    <tag k="addr:housenumber" v="4"/>
    <tag k="addr:postcode" v="29571"/>
    <tag k="addr:street" v="Birkenweg"/>
    <tag k="amenity" v="veterinary"/>
    <tag k="building" v="yes"/>
    <tag k="name" v="Dr. Michaelis"/>
  </way>
  <way id="25867375" version="15" timestamp="2009-07-15T05:08:01Z" uid="43863" user="Rundling" changeset="1832892">
    <nd ref="282159445"/>
    <nd ref="296113644"/>
    <nd ref="296113643"/>
    <nd ref="282159526"/>
    <nd ref="296304798"/>
    <nd ref="296304799"/>
    <nd ref="296304800"/>
    <nd ref="282159447"/>
    <nd ref="442005460"/>
    <nd ref="295885512"/>
    <nd ref="296302217"/>
    <nd ref="296302219"/>
    <nd ref="296302218"/>
    <nd ref="282160121"/>
    <nd ref="295885513"/>
    <nd ref="282159445"/>
    <tag k="addr:city" v="Rosche"/>
    <tag k="addr:housenumber" v="4"/>
    <tag k="addr:postcode" v="29571"/>
    <tag k="addr:street" v="Birkenweg"/>
    <tag k="amenity" v="veterinary"/>
    <tag k="building" v="yes"/>
    <tag k="name" v="Dr. Michaelis"/>
  </way>
  <way id="25867375" version="16" timestamp="2009-07-15T06:31:44Z" uid="43863" user="Rundling" changeset="1833340">
    <nd ref="282159445"/>
    <nd ref="296113644"/>
    <nd ref="296113643"/>
    <nd ref="282159526"/>
    <nd ref="296304798"/>
    <nd ref="296304799"/>
    <nd ref="296304800"/>
    <nd ref="282159447"/>
    <nd ref="442005460"/>
    <nd ref="295885512"/>
    <nd ref="296302217"/>
    <nd ref="296302219"/>
    <nd ref="296302218"/>
    <nd ref="282160121"/>
    <nd ref="295885513"/>
    <nd ref="282159445"/>
    <tag k="addr:city" v="Rosche"/>
    <tag k="addr:housenumber" v="4"/>
    <tag k="addr:postcode" v="29571"/>
    <tag k="addr:street" v="Birkenweg"/>
    <tag k="amenity" v="veterinary"/>
    <tag k="building" v="yes"/>
  </way>
  <way id="25867375" version="17" timestamp="2009-07-15T19:22:30Z" uid="43863" user="Rundling" changeset="1839485">
    <nd ref="296113644"/>
    <nd ref="296113643"/>
    <nd ref="282159526"/>
    <nd ref="296304798"/>
    <nd ref="296304799"/>
    <nd ref="296304800"/>
    <nd ref="282159447"/>
    <nd ref="442005460"/>
    <nd ref="295885512"/>
    <nd ref="296302217"/>
    <nd ref="296302219"/>
    <nd ref="296302218"/>
    <nd ref="282160121"/>
    <nd ref="442328732"/>
    <nd ref="442328733"/>
    <nd ref="296113644"/>
    <tag k="addr:city" v="Rosche"/>
    <tag k="addr:housenumber" v="4"/>
    <tag k="addr:postcode" v="29571"/>
    <tag k="addr:street" v="Birkenweg"/>
    <tag k="amenity" v="veterinary"/>
    <tag k="building" v="yes"/>
  </way>
  <way id="25867375" version="18" timestamp="2009-10-15T17:16:27Z" uid="43863" user="Rundling" changeset="2857012">
    <nd ref="296113644"/>
    <nd ref="296113643"/>
    <nd ref="282159526"/>
    <nd ref="296304798"/>
    <nd ref="296304799"/>
    <nd ref="296304800"/>
    <nd ref="282159447"/>
    <nd ref="442005460"/>
    <nd ref="295885512"/>
    <nd ref="296302217"/>
    <nd ref="296302219"/>
    <nd ref="296302218"/>
    <nd ref="282160121"/>
    <nd ref="442328732"/>
    <nd ref="442328733"/>
    <nd ref="296113644"/>
    <tag k="addr:city" v="Rosche"/>
    <tag k="addr:housenumber" v="4"/>
    <tag k="addr:postcode" v="29571"/>
    <tag k="addr:street" v="Birkenweg"/>
    <tag k="building" v="yes"/>
  </way>
  <way id="25867375" version="19" timestamp="2010-07-03T13:39:44Z" uid="43863" user="Rundling" changeset="5124908">
    <nd ref="296113644"/>
    <nd ref="296113643"/>
    <nd ref="282159526"/>
    <nd ref="296304798"/>
    <nd ref="296304799"/>
    <nd ref="296304800"/>
    <nd ref="282159447"/>
    <nd ref="798991441"/>
    <nd ref="295885512"/>
    <nd ref="296302217"/>
    <nd ref="296302219"/>
    <nd ref="296302218"/>
    <nd ref="282160121"/>
    <nd ref="442328732"/>
    <nd ref="442328733"/>
    <nd ref="296113644"/>
    <tag k="addr:city" v="Rosche"/>
    <tag k="addr:housenumber" v="4"/>
    <tag k="addr:postcode" v="29571"/>
    <tag k="addr:street" v="Birkenweg"/>
    <tag k="building" v="yes"/>
  </way>
  <way id="25867381" version="1" timestamp="2008-07-30T07:13:29Z" uid="43863" user="Rundling" changeset="625454">
    <nd ref="282159535"/>
    <nd ref="282159536"/>
    <nd ref="282159537"/>
    <nd ref="282159538"/>
    <nd ref="282159535"/>
    <tag k="created_by" v="Potlatch 0.10a"/>
  </way>
  <way id="25867381" version="2" timestamp="2008-07-30T07:13:55Z" uid="43863" user="Rundling" changeset="625454">
    <nd ref="282159535"/>
    <nd ref="282159550"/>
    <nd ref="282159537"/>
    <nd ref="282159551"/>
    <nd ref="282159535"/>
    <tag k="created_by" v="Potlatch 0.10a"/>
  </way>
  <way id="25867381" version="3" timestamp="2008-07-30T07:14:11Z" uid="43863" user="Rundling" changeset="625454">
    <nd ref="282159535"/>
    <nd ref="282159558"/>
    <nd ref="282159537"/>
    <nd ref="282159551"/>
    <nd ref="282159535"/>
    <tag k="addr:city" v="Rosche"/>
    <tag k="addr:housenumber" v="3"/>
    <tag k="addr:postcoe" v="29571"/>
    <tag k="addr:street" v="Birkenweg"/>
    <tag k="building" v="yes"/>
    <tag k="created_by" v="Potlatch 0.10a"/>
  </way>
  <way id="25867381" version="4" timestamp="2008-07-30T07:19:43Z" uid="43863" user="Rundling" changeset="625454">
    <nd ref="282159535"/>
    <nd ref="282159558"/>
    <nd ref="282159537"/>
    <nd ref="282159551"/>
    <nd ref="282159535"/>
    <tag k="addr:city" v="Rosche"/>
    <tag k="addr:housenumber" v="3"/>
    <tag k="addr:postcoe" v="29571"/>
    <tag k="addr:street" v="Birkenweg"/>
    <tag k="building" v="yes"/>
    <tag k="created_by" v="Potlatch 0.10a"/>
  </way>
  <way id="25867381" version="6" timestamp="2008-08-05T10:54:28Z" uid="43863" user="Rundling" changeset="69264">
    <nd ref="282159535"/>
    <nd ref="282159558"/>
    <nd ref="282159537"/>
    <nd ref="282159551"/>
    <nd ref="282159535"/>
    <tag k="addr:city" v="Rosche"/>
    <tag k="addr:housenumber" v="3"/>
    <tag k="addr:postcode" v="29571"/>
    <tag k="addr:street" v="Birkenweg"/>
    <tag k="building" v="yes"/>
    <tag k="created_by" v="Potlatch 0.10b"/>
  </way>
  <way id="25867381" version="7" timestamp="2008-08-05T11:03:44Z" uid="43863" user="Rundling" changeset="69264">
    <nd ref="282159535"/>
    <nd ref="282159558"/>
    <nd ref="282159537"/>
    <nd ref="282159551"/>
    <nd ref="282159535"/>
    <tag k="addr:city" v="Rosche"/>
    <tag k="addr:housenumber" v="3"/>
    <tag k="addr:postcode" v="29571"/>
    <tag k="addr:street" v="Birkenweg"/>
    <tag k="building" v="yes"/>
    <tag k="created_by" v="Potlatch 0.10b"/>
  </way>
  <way id="25867381" version="8" timestamp="2008-09-13T06:34:52Z" uid="43863" user="Rundling" changeset="619327">
    <nd ref="282159535"/>
    <nd ref="282159558"/>
    <nd ref="282159537"/>
    <nd ref="296297015"/>
    <nd ref="282159551"/>
    <nd ref="296297014"/>
    <nd ref="282159535"/>
    <tag k="addr:city" v="Rosche"/>
    <tag k="addr:housenumber" v="3"/>
    <tag k="addr:postcode" v="29571"/>
    <tag k="addr:street" v="Birkenweg"/>
    <tag k="building" v="yes"/>
    <tag k="created_by" v="Potlatch 0.10b"/>
  </way>
  <way id="25867381" version="9" timestamp="2008-09-27T10:54:43Z" uid="43863" user="Rundling" changeset="707288"/>
  <way id="25867395" version="1" timestamp="2008-07-30T07:15:32Z" uid="43863" user="Rundling" changeset="625454">
    <nd ref="282159678"/>
    <nd ref="282159679"/>
    <nd ref="282159680"/>
    <nd ref="282159681"/>
    <nd ref="282159678"/>
    <tag k="addr:city" v="Rosche"/>
    <tag k="addr:housenumber" v="2"/>
    <tag k="addr:postcoe" v="29571"/>
    <tag k="addr:street" v="Birkenweg"/>
    <tag k="building" v="yes"/>
    <tag k="created_by" v="Potlatch 0.10a"/>
  </way>
  <way id="25867395" version="2" timestamp="2008-07-30T07:16:15Z" uid="43863" user="Rundling" changeset="625454">
    <nd ref="282159678"/>
    <nd ref="282159679"/>
    <nd ref="282159680"/>
    <nd ref="282159681"/>
    <nd ref="282159678"/>
    <tag k="addr:city" v="Rosche"/>
    <tag k="addr:housenumber" v="2"/>
    <tag k="addr:postcoe" v="29571"/>
    <tag k="addr:street" v="Birkenweg"/>
    <tag k="building" v="yes"/>
    <tag k="created_by" v="Potlatch 0.10a"/>
  </way>
  <way id="25867395" version="3" timestamp="2008-07-30T07:16:19Z" uid="43863" user="Rundling" changeset="625454">
    <nd ref="282159678"/>
    <nd ref="282159679"/>
    <nd ref="282159680"/>
    <nd ref="282159681"/>
    <nd ref="282159678"/>
    <tag k="addr:city" v="Rosche"/>
    <tag k="addr:housenumber" v="2"/>
    <tag k="addr:postcoe" v="29571"/>
    <tag k="addr:street" v="Birkenweg"/>
    <tag k="building" v="yes"/>
    <tag k="created_by" v="Potlatch 0.10a"/>
  </way>
  <way id="25867395" version="4" timestamp="2008-07-30T07:16:28Z" uid="43863" user="Rundling" changeset="625454">
    <nd ref="282159678"/>
    <nd ref="282159679"/>
    <nd ref="282159680"/>
    <nd ref="282159681"/>
    <nd ref="282159678"/>
    <tag k="addr:city" v="Rosche"/>
    <tag k="addr:housenumber" v="2"/>
    <tag k="addr:postcoe" v="29571"/>
    <tag k="addr:street" v="Birkenweg"/>
    <tag k="building" v="yes"/>
    <tag k="created_by" v="Potlatch 0.10a"/>
  </way>
  <way id="25867395" version="5" timestamp="2008-07-30T07:17:51Z" uid="43863" user="Rundling" changeset="625454">
    <nd ref="282159678"/>
    <nd ref="282159679"/>
    <nd ref="282159680"/>
    <nd ref="282159681"/>
    <nd ref="282159678"/>
    <tag k="addr:city" v="Rosche"/>
    <tag k="addr:housenumber" v="2"/>
    <tag k="addr:postcoe" v="29571"/>
    <tag k="addr:street" v="Birkenweg"/>
    <tag k="building" v="yes"/>
    <tag k="created_by" v="Potlatch 0.10a"/>
  </way>
  <way id="25867395" version="6" timestamp="2008-07-30T07:18:13Z" uid="43863" user="Rundling" changeset="625454">
    <nd ref="282159678"/>
    <nd ref="282159679"/>
    <nd ref="282159680"/>
    <nd ref="282159681"/>
    <nd ref="282159678"/>
    <tag k="addr:city" v="Rosche"/>
    <tag k="addr:housenumber" v="2"/>
    <tag k="addr:postcoe" v="29571"/>
    <tag k="addr:street" v="Birkenweg"/>
    <tag k="building" v="yes"/>
    <tag k="created_by" v="Potlatch 0.10a"/>
  </way>
  <way id="25867395" version="7" timestamp="2008-07-30T07:18:25Z" uid="43863" user="Rundling" changeset="625454">
    <nd ref="282159678"/>
    <nd ref="282159679"/>
    <nd ref="282159680"/>
    <nd ref="282159681"/>
    <nd ref="282159678"/>
    <tag k="addr:city" v="Rosche"/>
    <tag k="addr:housenumber" v="2"/>
    <tag k="addr:postcoe" v="29571"/>
    <tag k="addr:street" v="Birkenweg"/>
    <tag k="building" v="yes"/>
    <tag k="created_by" v="Potlatch 0.10a"/>
  </way>
  <way id="25867395" version="8" timestamp="2008-07-30T07:18:38Z" uid="43863" user="Rundling" changeset="625454">
    <nd ref="282159678"/>
    <nd ref="282159679"/>
    <nd ref="282159680"/>
    <nd ref="282159681"/>
    <nd ref="282159678"/>
    <tag k="addr:city" v="Rosche"/>
    <tag k="addr:housenumber" v="2"/>
    <tag k="addr:postcoe" v="29571"/>
    <tag k="addr:street" v="Birkenweg"/>
    <tag k="building" v="yes"/>
    <tag k="created_by" v="Potlatch 0.10a"/>
  </way>
  <way id="25867395" version="10" timestamp="2008-08-05T08:05:12Z" uid="43863" user="Rundling" changeset="66212">
    <nd ref="282159678"/>
    <nd ref="282159679"/>
    <nd ref="282159680"/>
    <nd ref="282159681"/>
    <nd ref="282159678"/>
    <tag k="addr:city" v="Rosche"/>
    <tag k="addr:housenumber" v="2"/>
    <tag k="addr:postcode" v="29571"/>
    <tag k="addr:street" v="Birkenweg"/>
    <tag k="building" v="yes"/>
    <tag k="created_by" v="Potlatch 0.10b"/>
  </way>
  <way id="25867395" version="11" timestamp="2008-08-05T10:53:42Z" uid="43863" user="Rundling" changeset="69264">
    <nd ref="282159678"/>
    <nd ref="282159679"/>
    <nd ref="282159680"/>
    <nd ref="282159681"/>
    <nd ref="282159678"/>
    <tag k="addr:city" v="Rosche"/>
    <tag k="addr:housenumber" v="2"/>
    <tag k="addr:postcode" v="29571"/>
    <tag k="addr:street" v="Birkenweg"/>
    <tag k="building" v="yes"/>
    <tag k="created_by" v="Potlatch 0.10b"/>
  </way>
  <way id="25867395" version="12" timestamp="2008-08-05T11:03:30Z" uid="43863" user="Rundling" changeset="69264">
    <nd ref="282159678"/>
    <nd ref="282159679"/>
    <nd ref="282159680"/>
    <nd ref="282159681"/>
    <nd ref="282159678"/>
    <tag k="addr:city" v="Rosche"/>
    <tag k="addr:housenumber" v="2"/>
    <tag k="addr:postcode" v="29571"/>
    <tag k="addr:street" v="Birkenweg"/>
    <tag k="building" v="yes"/>
    <tag k="created_by" v="Potlatch 0.10b"/>
  </way>
  <way id="25867395" version="13" timestamp="2008-08-05T11:03:37Z" uid="43863" user="Rundling" changeset="69264">
    <nd ref="282159678"/>
    <nd ref="282159679"/>
    <nd ref="282159680"/>
    <nd ref="282159681"/>
    <nd ref="282159678"/>
    <tag k="addr:city" v="Rosche"/>
    <tag k="addr:housenumber" v="2"/>
    <tag k="addr:postcode" v="29571"/>
    <tag k="addr:street" v="Birkenweg"/>
    <tag k="building" v="yes"/>
    <tag k="created_by" v="Potlatch 0.10b"/>
  </way>
  <way id="25867395" version="14" timestamp="2008-09-13T06:34:51Z" uid="43863" user="Rundling" changeset="619327">
    <nd ref="282159678"/>
    <nd ref="282159679"/>
    <nd ref="282159680"/>
    <nd ref="296297013"/>
    <nd ref="282159681"/>
    <nd ref="296297012"/>
    <nd ref="282159678"/>
    <tag k="addr:city" v="Rosche"/>
    <tag k="addr:housenumber" v="2"/>
    <tag k="addr:postcode" v="29571"/>
    <tag k="addr:street" v="Birkenweg"/>
    <tag k="building" v="yes"/>
    <tag k="created_by" v="Potlatch 0.10b"/>
  </way>
  <way id="25867395" version="15" timestamp="2008-09-27T10:54:43Z" uid="43863" user="Rundling" changeset="707288"/>
  <way id="25867400" version="1" timestamp="2008-07-30T07:15:58Z" uid="43863" user="Rundling" changeset="625454">
    <nd ref="282159702"/>
    <nd ref="282159703"/>
    <nd ref="282159704"/>
    <nd ref="282159705"/>
    <nd ref="282159702"/>
    <tag k="addr:city" v="Rosche"/>
    <tag k="addr:housenumber" v="1"/>
    <tag k="addr:postcoe" v="29571"/>
    <tag k="addr:street" v="Birkenweg"/>
    <tag k="building" v="yes"/>
    <tag k="created_by" v="Potlatch 0.10a"/>
  </way>
  <way id="25867400" version="2" timestamp="2008-07-30T07:16:59Z" uid="43863" user="Rundling" changeset="625454">
    <nd ref="282159702"/>
    <nd ref="282159844"/>
    <nd ref="282159704"/>
    <nd ref="282159845"/>
    <nd ref="282159702"/>
    <tag k="addr:city" v="Rosche"/>
    <tag k="addr:housenumber" v="1"/>
    <tag k="addr:postcoe" v="29571"/>
    <tag k="addr:street" v="Birkenweg"/>
    <tag k="building" v="yes"/>
    <tag k="created_by" v="Potlatch 0.10a"/>
  </way>
  <way id="25867400" version="4" timestamp="2008-08-05T08:05:12Z" uid="43863" user="Rundling" changeset="66212">
    <nd ref="282159702"/>
    <nd ref="282159844"/>
    <nd ref="282159704"/>
    <nd ref="282159845"/>
    <nd ref="282159702"/>
    <tag k="addr:city" v="Rosche"/>
    <tag k="addr:housenumber" v="1"/>
    <tag k="addr:postcode" v="29571"/>
    <tag k="addr:street" v="Birkenweg"/>
    <tag k="building" v="yes"/>
    <tag k="created_by" v="Potlatch 0.10b"/>
  </way>
  <way id="25867400" version="5" timestamp="2008-08-05T08:06:21Z" uid="43863" user="Rundling" changeset="66212">
    <nd ref="282159702"/>
    <nd ref="282159844"/>
    <nd ref="282159704"/>
    <nd ref="282159845"/>
    <nd ref="282159702"/>
    <tag k="addr:city" v="Rosche"/>
    <tag k="addr:housenumber" v="1"/>
    <tag k="addr:postcode" v="29571"/>
    <tag k="addr:street" v="Birkenweg"/>
    <tag k="building" v="yes"/>
    <tag k="created_by" v="Potlatch 0.10b"/>
  </way>
  <way id="25867400" version="6" timestamp="2008-08-05T08:07:02Z" uid="43863" user="Rundling" changeset="66212">
    <nd ref="282159702"/>
    <nd ref="282159844"/>
    <nd ref="282159704"/>
    <nd ref="282159845"/>
    <nd ref="282159702"/>
    <tag k="addr:city" v="Rosche"/>
    <tag k="addr:housenumber" v="1"/>
    <tag k="addr:postcode" v="29571"/>
    <tag k="addr:street" v="Birkenweg"/>
    <tag k="building" v="yes"/>
    <tag k="created_by" v="Potlatch 0.10b"/>
  </way>
  <way id="25867400" version="7" timestamp="2008-08-05T08:07:09Z" uid="43863" user="Rundling" changeset="66212">
    <nd ref="282159702"/>
    <nd ref="282159844"/>
    <nd ref="282159704"/>
    <nd ref="282159845"/>
    <nd ref="282159702"/>
    <tag k="addr:city" v="Rosche"/>
    <tag k="addr:housenumber" v="1"/>
    <tag k="addr:postcode" v="29571"/>
    <tag k="addr:street" v="Birkenweg"/>
    <tag k="building" v="yes"/>
    <tag k="created_by" v="Potlatch 0.10b"/>
  </way>
  <way id="25867400" version="8" timestamp="2008-08-05T08:09:12Z" uid="43863" user="Rundling" changeset="66212">
    <nd ref="282159702"/>
    <nd ref="282159844"/>
    <nd ref="282159704"/>
    <nd ref="282159845"/>
    <nd ref="282159702"/>
    <tag k="addr:city" v="Rosche"/>
    <tag k="addr:housenumber" v="1"/>
    <tag k="addr:postcode" v="29571"/>
    <tag k="addr:street" v="Birkenweg"/>
    <tag k="building" v="yes"/>
    <tag k="created_by" v="Potlatch 0.10b"/>
  </way>
  <way id="25867400" version="9" timestamp="2008-09-13T06:44:55Z" uid="43863" user="Rundling" changeset="619327">
    <nd ref="282159702"/>
    <nd ref="282159844"/>
    <nd ref="282159704"/>
    <nd ref="296297452"/>
    <nd ref="282159845"/>
    <nd ref="296297454"/>
    <nd ref="296297455"/>
    <nd ref="296297453"/>
    <nd ref="282159702"/>
    <tag k="addr:city" v="Rosche"/>
    <tag k="addr:housenumber" v="1"/>
    <tag k="addr:postcode" v="29571"/>
    <tag k="addr:street" v="Birkenweg"/>
    <tag k="building" v="yes"/>
    <tag k="created_by" v="Potlatch 0.10b"/>
  </way>
  <way id="25867400" version="10" timestamp="2008-09-13T07:49:10Z" uid="43863" user="Rundling" changeset="619327">
    <nd ref="282159702"/>
    <nd ref="282159844"/>
    <nd ref="282159704"/>
    <nd ref="296297452"/>
    <nd ref="282159845"/>
    <nd ref="296297454"/>
    <nd ref="296301442"/>
    <nd ref="296297455"/>
    <nd ref="296297453"/>
    <nd ref="282159702"/>
    <tag k="addr:city" v="Rosche"/>
    <tag k="addr:housenumber" v="1"/>
    <tag k="addr:postcode" v="29571"/>
    <tag k="addr:street" v="Birkenweg"/>
    <tag k="building" v="yes"/>
    <tag k="created_by" v="Potlatch 0.10b"/>
  </way>
  <way id="25867400" version="12" timestamp="2008-09-27T10:54:43Z" uid="43863" user="Rundling" changeset="707288"/>
  <way id="25867457" version="1" timestamp="2008-07-30T07:20:19Z" uid="7617" user="Franc" changeset="625430">
    <nd ref="26377668"/>
    <nd ref="282143896"/>
    <tag k="created_by" v="Potlatch alpha"/>
    <tag k="cycleway" v="opposite"/>
    <tag k="highway" v="unclassified"/>
    <tag k="name" v="Fitzroy Street"/>
    <tag k="oneway" v="yes"/>
  </way>
  <way id="25867458" version="1" timestamp="2008-07-30T07:20:20Z" uid="7617" user="Franc" changeset="625430">
    <nd ref="282143896"/>
    <nd ref="26377667"/>
    <nd ref="281353988"/>
    <nd ref="281353985"/>
    <nd ref="26377666"/>
    <tag k="created_by" v="Potlatch alpha"/>
    <tag k="highway" v="unclassified"/>
    <tag k="name" v="Fitzroy Street"/>
  </way>
  <way id="25867458" version="3" timestamp="2010-10-28T10:19:09Z" uid="7617" user="Franc" changeset="6206065">
    <nd ref="282143896"/>
    <nd ref="967774613"/>
    <nd ref="26377667"/>
    <nd ref="281353988"/>
    <nd ref="281353985"/>
    <nd ref="26377666"/>
    <tag k="highway" v="unclassified"/>
    <tag k="name" v="Fitzroy Street"/>
  </way>
  <way id="25867460" version="1" timestamp="2008-07-30T07:21:43Z" uid="43863" user="Rundling" changeset="625454">
    <nd ref="282160799"/>
    <nd ref="282151062"/>
    <tag k="created_by" v="Potlatch 0.10a"/>
    <tag k="highway" v="residential"/>
    <tag k="name" v="Fuhrenkamp"/>
  </way>
  <way id="25867460" version="2" timestamp="2008-09-12T15:39:19Z" uid="43863" user="Rundling" changeset="616069">
    <nd ref="282160799"/>
    <nd ref="282151062"/>
    <tag k="created_by" v="Potlatch 0.10a"/>
    <tag k="highway" v="residential"/>
    <tag k="name" v="Fuhrenkamp"/>
    <tag k="oneway" v="no"/>
  </way>
  <way id="25867460" version="4" timestamp="2008-10-07T13:24:40Z" uid="43863" user="Rundling" changeset="130809">
    <nd ref="282160799"/>
    <nd ref="282151062"/>
    <tag k="created_by" v="Potlatch 0.10a"/>
    <tag k="highway" v="residential"/>
    <tag k="name" v="Fuhrenkamp"/>
    <tag k="oneway" v="no"/>
  </way>
  <way id="25867460" version="5" timestamp="2008-10-07T13:31:14Z" uid="43863" user="Rundling" changeset="130809">
    <nd ref="282160799"/>
    <nd ref="302845433"/>
    <tag k="created_by" v="Potlatch 0.10d"/>
    <tag k="highway" v="residential"/>
    <tag k="name" v="Fuhrenkamp"/>
    <tag k="oneway" v="no"/>
  </way>
  <way id="25867460" version="6" timestamp="2008-10-07T13:31:40Z" uid="43863" user="Rundling" changeset="130809">
    <nd ref="282160799"/>
    <nd ref="282151062"/>
    <tag k="created_by" v="Potlatch 0.10d"/>
    <tag k="highway" v="residential"/>
    <tag k="name" v="Fuhrenkamp"/>
    <tag k="oneway" v="no"/>
  </way>
  <way id="25867460" version="7" timestamp="2009-06-03T12:39:18Z" uid="43863" user="Rundling" changeset="1412767">
    <nd ref="282160799"/>
    <nd ref="282151062"/>
    <tag k="highway" v="residential"/>
    <tag k="name" v="Fuhrenkamp"/>
    <tag k="oneway" v="no"/>
  </way>
  <way id="25867460" version="8" timestamp="2009-07-14T18:29:10Z" uid="43863" user="Rundling" changeset="1829534">
    <nd ref="282160799"/>
    <nd ref="441883924"/>
    <nd ref="427509935"/>
    <tag k="highway" v="residential"/>
    <tag k="name" v="Fuhrenkamp"/>
    <tag k="oneway" v="no"/>
  </way>
  <way id="25867460" version="9" timestamp="2009-07-15T17:48:50Z" uid="43863" user="Rundling" changeset="1838437">
    <nd ref="442280298"/>
    <nd ref="282160799"/>
    <nd ref="441883924"/>
    <nd ref="427509935"/>
    <tag k="highway" v="residential"/>
    <tag k="name" v="Fuhrenkamp"/>
    <tag k="oneway" v="no"/>
  </way>
  <way id="25867460" version="10" timestamp="2010-07-18T10:38:00Z" uid="43863" user="Rundling" changeset="5249823">
    <nd ref="442280298"/>
    <nd ref="282160799"/>
    <nd ref="441883924"/>
    <nd ref="427509935"/>
    <tag k="highway" v="residential"/>
    <tag k="maxspeed" v="30"/>
    <tag k="name" v="Fuhrenkamp"/>
  </way>
  <way id="25867474" version="1" timestamp="2008-07-30T07:24:49Z" uid="7617" user="Franc" changeset="625430">
    <nd ref="282162212"/>
    <nd ref="282162223"/>
    <tag k="created_by" v="JOSM"/>
    <tag k="highway" v="service"/>
    <tag k="source" v="yahoo_imagery"/>
  </way>
  <way id="25867474" version="2" timestamp="2008-08-13T12:33:03Z" uid="7617" user="Franc" changeset="226131">
    <nd ref="282162223"/>
    <nd ref="282162212"/>
    <tag k="created_by" v="JOSM"/>
    <tag k="highway" v="service"/>
    <tag k="name" v="York Lane"/>
    <tag k="oneway" v="yes"/>
    <tag k="source" v="yahoo_imagery"/>
    <tag k="source:name" v="survey"/>
  </way>
  <way id="25867475" version="1" timestamp="2008-07-30T07:24:50Z" uid="7617" user="Franc" changeset="625430">
    <nd ref="282162235"/>
    <nd ref="282162247"/>
    <nd ref="282162212"/>
    <tag k="created_by" v="JOSM"/>
    <tag k="highway" v="service"/>
    <tag k="source" v="knowledge"/>
  </way>
  <way id="25867475" version="2" timestamp="2008-08-13T12:33:02Z" uid="7617" user="Franc" changeset="226131">
    <nd ref="282162235"/>
    <nd ref="282162247"/>
    <nd ref="282162212"/>
    <tag k="created_by" v="JOSM"/>
    <tag k="highway" v="service"/>
    <tag k="name" v="York Lane"/>
    <tag k="oneway" v="yes"/>
    <tag k="source" v="knowledge"/>
    <tag k="source:name" v="survey"/>
  </way>
  <way id="25867481" version="16" timestamp="2010-04-22T07:39:45Z" uid="4467" user="Rosscoe" changeset="4493181">
    <nd ref="304911390"/>
    <nd ref="282157429"/>
    <nd ref="282163140"/>
    <nd ref="282163139"/>
    <nd ref="282163138"/>
    <nd ref="282163137"/>
    <nd ref="304703531"/>
    <nd ref="282163135"/>
    <nd ref="282163134"/>
    <nd ref="282163133"/>
    <nd ref="304577258"/>
    <nd ref="304704482"/>
    <nd ref="304577259"/>
    <nd ref="304577260"/>
    <nd ref="304577262"/>
    <nd ref="305569981"/>
    <nd ref="307908722"/>
    <nd ref="305569979"/>
    <nd ref="304577263"/>
    <nd ref="304577264"/>
    <nd ref="304929837"/>
    <nd ref="304577265"/>
    <nd ref="703585687"/>
    <tag k="highway" v="tertiary"/>
    <tag k="name" v="Rattray Road"/>
    <tag k="source" v="yahoo"/>
  </way>
  <way id="25867481" version="17" timestamp="2010-04-22T08:00:35Z" uid="4467" user="Rosscoe" changeset="4493283">
    <nd ref="304911390"/>
    <nd ref="282157429"/>
    <nd ref="282163140"/>
    <nd ref="282163139"/>
    <nd ref="282163138"/>
    <nd ref="282163137"/>
    <nd ref="304703531"/>
    <nd ref="282163135"/>
    <nd ref="282163134"/>
    <nd ref="703588077"/>
    <tag k="highway" v="tertiary"/>
    <tag k="name" v="Rattray Road"/>
    <tag k="source" v="yahoo"/>
  </way>
  <way id="25867492" version="10" timestamp="2010-05-11T12:58:37Z" uid="4467" user="Rosscoe" changeset="4668371">
    <nd ref="729674704"/>
    <nd ref="729674711"/>
    <nd ref="308452516"/>
    <nd ref="308459464"/>
    <nd ref="282164637"/>
    <nd ref="308452425"/>
    <nd ref="308459465"/>
    <nd ref="308452439"/>
    <nd ref="308452405"/>
    <nd ref="282164639"/>
    <tag k="highway" v="residential"/>
    <tag k="name" v="Calrossie Avenue"/>
    <tag k="source" v="yahoo"/>
  </way>
  <way id="25867492" version="11" timestamp="2010-07-09T04:03:11Z" uid="74617" user="JohnSmith" changeset="5170825">
    <nd ref="729674704"/>
    <nd ref="729674711"/>
    <nd ref="308452516"/>
    <nd ref="308459464"/>
    <nd ref="282164637"/>
    <nd ref="308452425"/>
    <nd ref="308459465"/>
    <nd ref="308452439"/>
    <nd ref="308452405"/>
    <nd ref="282164639"/>
    <tag k="highway" v="residential"/>
    <tag k="maxspeed" v="50"/>
    <tag k="maxspeed:source" v="default residential speed limit in Australia"/>
    <tag k="name" v="Calrossie Avenue"/>
    <tag k="source" v="yahoo"/>
  </way>
  <way id="25867496" version="6" timestamp="2008-10-19T20:30:37Z" uid="49111" user="Markus B" changeset="452407">
    <nd ref="282164273"/>
    <nd ref="282164274"/>
    <nd ref="304890952"/>
    <nd ref="304890953"/>
    <nd ref="282164276"/>
    <nd ref="282164277"/>
    <nd ref="304890949"/>
    <nd ref="282164278"/>
    <nd ref="304890951"/>
    <nd ref="282164279"/>
    <nd ref="282164280"/>
    <nd ref="282164281"/>
    <nd ref="282164282"/>
    <nd ref="282164283"/>
    <nd ref="282164284"/>
    <nd ref="282164285"/>
    <nd ref="282164286"/>
    <nd ref="282164287"/>
    <nd ref="282164288"/>
    <nd ref="282164289"/>
    <nd ref="282164290"/>
    <nd ref="282164291"/>
    <nd ref="282164293"/>
    <nd ref="282164294"/>
    <nd ref="282164295"/>
    <nd ref="282164296"/>
    <nd ref="282164297"/>
    <nd ref="282164298"/>
    <nd ref="282164299"/>
    <nd ref="282164300"/>
    <nd ref="282164301"/>
    <nd ref="282164303"/>
    <nd ref="282164304"/>
    <nd ref="282164305"/>
    <nd ref="282164306"/>
    <nd ref="282164307"/>
    <nd ref="282164308"/>
    <nd ref="282164310"/>
    <nd ref="282164311"/>
    <nd ref="282164312"/>
    <nd ref="282164313"/>
    <nd ref="282164314"/>
    <nd ref="282164315"/>
    <nd ref="282164316"/>
    <nd ref="282164317"/>
    <nd ref="282164318"/>
    <nd ref="282164319"/>
    <nd ref="282164320"/>
    <nd ref="282164321"/>
    <nd ref="282164322"/>
    <nd ref="282164324"/>
    <nd ref="282164325"/>
    <nd ref="282164326"/>
    <nd ref="282164327"/>
    <nd ref="282164328"/>
    <nd ref="282164329"/>
    <nd ref="282164330"/>
    <nd ref="282164331"/>
    <nd ref="282164332"/>
    <nd ref="282164333"/>
    <nd ref="282164334"/>
    <nd ref="282164335"/>
    <nd ref="282164336"/>
    <nd ref="282164337"/>
    <nd ref="282164339"/>
    <nd ref="282164340"/>
    <nd ref="282164341"/>
    <nd ref="282164342"/>
    <nd ref="282164343"/>
    <nd ref="282164345"/>
    <nd ref="282164346"/>
    <nd ref="282164347"/>
    <nd ref="282164348"/>
    <nd ref="282164349"/>
    <nd ref="282164350"/>
    <nd ref="282164352"/>
    <nd ref="282164353"/>
    <nd ref="282164354"/>
    <nd ref="282164355"/>
    <nd ref="282164356"/>
    <nd ref="282164358"/>
    <nd ref="282164359"/>
    <nd ref="282164360"/>
    <nd ref="282164361"/>
    <nd ref="282164362"/>
    <nd ref="282164363"/>
    <nd ref="302899075"/>
    <nd ref="302899073"/>
    <nd ref="282164365"/>
    <nd ref="282164366"/>
    <nd ref="282164367"/>
    <nd ref="282164368"/>
    <nd ref="282164369"/>
    <nd ref="282164370"/>
    <nd ref="282164371"/>
    <nd ref="282164372"/>
    <nd ref="282164373"/>
    <nd ref="282164374"/>
    <nd ref="282164376"/>
    <nd ref="282164377"/>
    <nd ref="282164378"/>
    <nd ref="282164379"/>
    <nd ref="282164380"/>
    <nd ref="282164381"/>
    <nd ref="282164383"/>
    <nd ref="282164384"/>
    <nd ref="282164385"/>
    <nd ref="282164386"/>
    <nd ref="282164387"/>
    <nd ref="300650926"/>
    <nd ref="282164388"/>
    <nd ref="282164390"/>
    <nd ref="282164391"/>
    <nd ref="282164392"/>
    <nd ref="282164393"/>
    <nd ref="282164394"/>
    <nd ref="282164395"/>
    <nd ref="282164396"/>
    <nd ref="282164399"/>
    <nd ref="282164400"/>
    <nd ref="282164401"/>
    <nd ref="282164402"/>
    <nd ref="282164404"/>
    <nd ref="282164405"/>
    <nd ref="302897460"/>
    <nd ref="302897459"/>
    <nd ref="302897458"/>
    <nd ref="302897457"/>
    <nd ref="282164406"/>
    <nd ref="282164407"/>
    <nd ref="282164408"/>
    <nd ref="282164409"/>
    <nd ref="282164410"/>
    <nd ref="282164412"/>
    <nd ref="282164413"/>
    <nd ref="282164414"/>
    <nd ref="282164415"/>
    <nd ref="282164416"/>
    <nd ref="282164417"/>
    <nd ref="282164418"/>
    <nd ref="282164419"/>
    <nd ref="282164420"/>
    <nd ref="282164421"/>
    <nd ref="282164422"/>
    <nd ref="282164423"/>
    <nd ref="282164424"/>
    <nd ref="282164425"/>
    <nd ref="282164426"/>
    <nd ref="282164427"/>
    <nd ref="282164428"/>
    <nd ref="282164430"/>
    <nd ref="282164431"/>
    <nd ref="282164432"/>
    <nd ref="282164433"/>
    <nd ref="282164434"/>
    <nd ref="282164435"/>
    <nd ref="282164436"/>
    <nd ref="282164438"/>
    <nd ref="282164439"/>
    <nd ref="282164440"/>
    <nd ref="282164441"/>
    <nd ref="282164442"/>
    <nd ref="282164443"/>
    <nd ref="282164445"/>
    <nd ref="282164446"/>
    <nd ref="282164447"/>
    <nd ref="282164448"/>
    <nd ref="282164450"/>
    <nd ref="282164451"/>
    <nd ref="282164452"/>
    <nd ref="282164453"/>
    <nd ref="282164454"/>
    <nd ref="282164455"/>
    <nd ref="282164456"/>
    <nd ref="304890956"/>
    <nd ref="304890958"/>
    <nd ref="304890957"/>
    <nd ref="304890955"/>
    <nd ref="304890954"/>
    <nd ref="282164458"/>
    <nd ref="282164459"/>
    <nd ref="282164273"/>
    <tag k="created_by" v="Potlatch 0.10e"/>
    <tag k="landuse" v="forest"/>
    <tag k="source" v="landsat"/>
  </way>
  <way id="25867511" version="6" timestamp="2010-04-06T09:48:52Z" uid="74617" user="JohnSmith" changeset="4341925">
    <nd ref="282165047"/>
    <nd ref="251464883"/>
    <nd ref="302800864"/>
    <nd ref="306571783"/>
    <tag k="cycleway" v="lane"/>
    <tag k="highway" v="primary"/>
    <tag k="name" v="Bridge Street"/>
  </way>
  <way id="25867511" version="7" timestamp="2010-04-22T07:47:23Z" uid="4467" user="Rosscoe" changeset="4493218">
    <nd ref="282165047"/>
    <nd ref="703586319"/>
    <tag k="cycleway" v="lane"/>
    <tag k="highway" v="primary"/>
    <tag k="name" v="Bridge Street"/>
  </way>
  <way id="25867514" version="4" timestamp="2010-04-06T09:48:52Z" uid="74617" user="JohnSmith" changeset="4341925">
    <nd ref="282165123"/>
    <nd ref="282165047"/>
    <tag k="bridge" v="yes"/>
    <tag k="highway" v="primary"/>
    <tag k="layer" v="1"/>
    <tag k="name" v="Bridge Street"/>
  </way>
  <way id="25867516" version="5" timestamp="2010-04-06T09:48:52Z" uid="74617" user="JohnSmith" changeset="4341925">
    <nd ref="60652057"/>
    <nd ref="531395719"/>
    <nd ref="282165123"/>
    <tag k="cycleway" v="lane"/>
    <tag k="highway" v="primary"/>
    <tag k="name" v="Bridge Street"/>
  </way>
  <way id="25867516" version="6" timestamp="2010-04-27T07:56:50Z" uid="4467" user="Rosscoe" changeset="4538805">
    <nd ref="60652057"/>
    <nd ref="531395719"/>
    <nd ref="708412655"/>
    <nd ref="708412745"/>
    <nd ref="282165123"/>
    <tag k="cycleway" v="lane"/>
    <tag k="highway" v="primary"/>
    <tag k="name" v="Bridge Street"/>
  </way>
  <way id="25867516" version="9" timestamp="2011-02-20T09:38:04Z" uid="4467" user="Rosscoe" changeset="7339941">
    <nd ref="708412745"/>
    <nd ref="708412655"/>
    <nd ref="531395719"/>
    <nd ref="60652057"/>
    <tag k="highway" v="primary"/>
    <tag k="oneway" v="yes"/>
  </way>
  <way id="25867825" version="7" timestamp="2008-10-19T20:30:26Z" uid="49111" user="Markus B" changeset="452407">
    <nd ref="282166273"/>
    <nd ref="282166274"/>
    <nd ref="282166275"/>
    <nd ref="282166276"/>
    <nd ref="282166277"/>
    <nd ref="282166278"/>
    <nd ref="282166279"/>
    <nd ref="282166280"/>
    <nd ref="282166281"/>
    <nd ref="282166282"/>
    <nd ref="282166283"/>
    <nd ref="282166284"/>
    <nd ref="282166285"/>
    <nd ref="282166286"/>
    <nd ref="298089902"/>
    <nd ref="282166287"/>
    <nd ref="282166288"/>
    <nd ref="282166289"/>
    <nd ref="282166290"/>
    <nd ref="282166291"/>
    <nd ref="282166292"/>
    <nd ref="296976096"/>
    <nd ref="282166293"/>
    <nd ref="282166294"/>
    <nd ref="282166295"/>
    <nd ref="282166296"/>
    <nd ref="282166297"/>
    <nd ref="290356279"/>
    <nd ref="282166298"/>
    <nd ref="282166299"/>
    <nd ref="282166300"/>
    <nd ref="282166301"/>
    <nd ref="282166302"/>
    <nd ref="282166303"/>
    <nd ref="282166304"/>
    <nd ref="282166305"/>
    <nd ref="282166306"/>
    <nd ref="282166307"/>
    <nd ref="282166308"/>
    <nd ref="282166309"/>
    <nd ref="282166310"/>
    <nd ref="282166311"/>
    <nd ref="282166312"/>
    <nd ref="282166313"/>
    <nd ref="282166314"/>
    <nd ref="282166315"/>
    <nd ref="282166316"/>
    <nd ref="282166317"/>
    <nd ref="282166318"/>
    <nd ref="282166320"/>
    <nd ref="282166321"/>
    <nd ref="282166322"/>
    <nd ref="282166323"/>
    <nd ref="282166324"/>
    <nd ref="282166325"/>
    <nd ref="282166326"/>
    <nd ref="282166327"/>
    <nd ref="282166328"/>
    <nd ref="282166329"/>
    <nd ref="282166330"/>
    <nd ref="282166331"/>
    <nd ref="282166332"/>
    <nd ref="282166333"/>
    <nd ref="282166334"/>
    <nd ref="282166335"/>
    <nd ref="282166336"/>
    <nd ref="282166337"/>
    <nd ref="282166338"/>
    <nd ref="282166339"/>
    <nd ref="282166340"/>
    <nd ref="282166341"/>
    <nd ref="282166342"/>
    <nd ref="282166343"/>
    <nd ref="282166344"/>
    <nd ref="282166345"/>
    <nd ref="282166346"/>
    <nd ref="282166347"/>
    <nd ref="282166348"/>
    <nd ref="282166349"/>
    <nd ref="282166350"/>
    <nd ref="282166351"/>
    <nd ref="282166352"/>
    <nd ref="282166353"/>
    <nd ref="282166354"/>
    <nd ref="282166355"/>
    <nd ref="298847586"/>
    <nd ref="298847587"/>
    <nd ref="282166356"/>
    <nd ref="282166357"/>
    <nd ref="282166358"/>
    <nd ref="282166359"/>
    <nd ref="282166360"/>
    <nd ref="282166361"/>
    <nd ref="282166362"/>
    <nd ref="282166363"/>
    <nd ref="282166364"/>
    <nd ref="282166365"/>
    <nd ref="282166366"/>
    <nd ref="282166273"/>
    <tag k="created_by" v="Potlatch 0.10e"/>
    <tag k="landuse" v="forest"/>
    <tag k="source" v="landsat"/>
  </way>
  <way id="25867890" version="2" timestamp="2008-12-14T02:13:26Z" uid="6975" user="ulfl" changeset="365670">
    <nd ref="275517410"/>
    <nd ref="275517411"/>
    <nd ref="275517412"/>
    <nd ref="275517413"/>
    <nd ref="275517389"/>
    <tag k="highway" v="residential"/>
    <tag k="maxspeed" v="50"/>
    <tag k="name" v="9th Street"/>
    <tag k="oneway" v="no"/>
    <tag k="surface" v="paved"/>
  </way>
  <way id="25867992" version="2" timestamp="2008-10-19T20:30:39Z" uid="49111" user="Markus B" changeset="452407">
    <nd ref="282166480"/>
    <nd ref="282166481"/>
    <nd ref="282166482"/>
    <nd ref="282166483"/>
    <nd ref="282166484"/>
    <nd ref="282166485"/>
    <nd ref="282166486"/>
    <nd ref="282166487"/>
    <nd ref="282166488"/>
    <nd ref="282166489"/>
    <nd ref="282166490"/>
    <nd ref="282166491"/>
    <nd ref="282166492"/>
    <nd ref="282166493"/>
    <nd ref="282166494"/>
    <nd ref="282166495"/>
    <nd ref="282166496"/>
    <nd ref="282166497"/>
    <nd ref="282166498"/>
    <nd ref="282166499"/>
    <nd ref="282166500"/>
    <nd ref="282166501"/>
    <nd ref="282166502"/>
    <nd ref="282166503"/>
    <nd ref="282166504"/>
    <nd ref="282166505"/>
    <nd ref="282166506"/>
    <nd ref="282166507"/>
    <nd ref="282166508"/>
    <nd ref="282166480"/>
    <tag k="created_by" v="Potlatch 0.10e"/>
    <tag k="landuse" v="forest"/>
    <tag k="source" v="landsat"/>
  </way>
</osm>
