<?xml version='1.0' encoding='UTF-8'?>
<osm version="0.6" generator="libosmium/2.20.0">
  <way id="25871068" version="1" timestamp="2008-07-30T11:12:08Z" uid="54539" user="Spot" changeset="625990">
    <nd ref="277349619"/>
    <nd ref="12977896"/>
    <nd ref="17573474"/>
    <nd ref="12977893"/>
    <nd ref="12977895"/>
    <nd ref="12977892"/>
    <nd ref="31920412"/>
    <nd ref="12977894"/>
    <nd ref="12977889"/>
    <tag k="created_by" v="Potlatch 0.9c"/>
    <tag k="highway" v="residential"/>
    <tag k="maxspeed" v="30"/>
    <tag k="name" v="Wichernstraße"/>
  </way>
  <way id="25871069" version="1" timestamp="2008-07-30T11:12:08Z" uid="54539" user="Spot" changeset="625990">
    <nd ref="277349619"/>
    <nd ref="12977897"/>
    <tag k="access" v="designated"/>
    <tag k="highway" v="primary_link"/>
    <tag k="maxspeed" v="50"/>
    <tag k="motorcar" v="no"/>
    <tag k="motorcycle" v="no"/>
    <tag k="oneway" v="yes"/>
    <tag k="psv" v="yes"/>
  </way>
  <way id="25871070" version="1" timestamp="2008-07-30T11:12:08Z" uid="54539" user="Spot" changeset="625990">
    <nd ref="282201780"/>
    <nd ref="282201781"/>
    <tag k="highway" v="primary_link"/>
    <tag k="maxspeed" v="50"/>
    <tag k="oneway" v="yes"/>
  </way>
  <way id="25871072" version="3" timestamp="2009-07-12T06:34:21Z" uid="74617" user="JohnSmith" changeset="1803492">
    <nd ref="282201515"/>
    <nd ref="332792675"/>
    <nd ref="332792674"/>
    <nd ref="282201517"/>
    <tag k="highway" v="residential"/>
    <tag k="name" v="Harvey Road"/>
    <tag k="source" v="survey"/>
  </way>
  <way id="25871072" version="5" timestamp="2010-07-06T18:34:37Z" uid="74617" user="JohnSmith" changeset="5152225">
    <nd ref="282201515"/>
    <nd ref="332792675"/>
    <nd ref="332792674"/>
    <nd ref="681096901"/>
    <nd ref="282201517"/>
    <tag k="highway" v="residential"/>
    <tag k="maxspeed" v="50"/>
    <tag k="maxspeed:source" v="default residential speed limit in Australia"/>
    <tag k="name" v="Harvey Road"/>
    <tag k="source" v="survey"/>
  </way>
  <way id="25871073" version="2" timestamp="2009-07-12T06:34:12Z" uid="74617" user="JohnSmith" changeset="1803492">
    <nd ref="282201518"/>
    <nd ref="282201521"/>
    <nd ref="282201522"/>
    <nd ref="282201523"/>
    <nd ref="282201524"/>
    <nd ref="282201525"/>
    <nd ref="282201526"/>
    <nd ref="282201527"/>
    <nd ref="282201533"/>
    <nd ref="282201534"/>
    <nd ref="282201543"/>
    <nd ref="282201550"/>
    <nd ref="282201551"/>
    <nd ref="282201552"/>
    <nd ref="282201553"/>
    <nd ref="282201554"/>
    <tag k="highway" v="tertiary"/>
    <tag k="maxspeed" v="100"/>
    <tag k="name" v="Drayton-Wellcamp Road"/>
    <tag k="source" v="survey"/>
  </way>
  <way id="25871075" version="2" timestamp="2009-07-12T06:34:09Z" uid="74617" user="JohnSmith" changeset="1803492">
    <nd ref="282201559"/>
    <nd ref="282201554"/>
    <nd ref="21303530"/>
    <nd ref="282201555"/>
    <tag k="highway" v="residential"/>
    <tag k="name" v="Greenwattle Street"/>
  </way>
  <way id="25871076" version="2" timestamp="2009-07-12T06:34:10Z" uid="74617" user="JohnSmith" changeset="1803492">
    <nd ref="282201517"/>
    <nd ref="282201518"/>
    <tag k="highway" v="residential"/>
    <tag k="name" v="Cary Road"/>
    <tag k="source" v="survey"/>
  </way>
  <way id="25871076" version="4" timestamp="2010-07-06T18:37:44Z" uid="74617" user="JohnSmith" changeset="5152225">
    <nd ref="282201517"/>
    <nd ref="681096899"/>
    <nd ref="681096892"/>
    <nd ref="681096886"/>
    <nd ref="681096878"/>
    <nd ref="282201518"/>
    <tag k="highway" v="residential"/>
    <tag k="maxspeed" v="50"/>
    <tag k="maxspeed:source" v="default residential speed limit in Australia"/>
    <tag k="name" v="Cary Road"/>
    <tag k="source" v="survey"/>
  </way>
  <way id="25871077" version="3" timestamp="2009-07-12T06:34:00Z" uid="74617" user="JohnSmith" changeset="1803492">
    <nd ref="276359839"/>
    <nd ref="276359840"/>
    <nd ref="276359841"/>
    <nd ref="282201512"/>
    <nd ref="332792668"/>
    <nd ref="282201515"/>
    <nd ref="282201513"/>
    <tag k="highway" v="residential"/>
    <tag k="maxspeed" v="60"/>
    <tag k="name" v="Glenvale Road"/>
    <tag k="source" v="survey"/>
  </way>
  <way id="25871078" version="2" timestamp="2009-07-12T06:34:32Z" uid="74617" user="JohnSmith" changeset="1803492">
    <nd ref="282201506"/>
    <nd ref="282201510"/>
    <nd ref="282201511"/>
    <nd ref="282201512"/>
    <tag k="highway" v="residential"/>
    <tag k="name" v="McDougall Street"/>
    <tag k="source" v="survey"/>
  </way>
  <way id="25871079" version="2" timestamp="2009-07-12T06:34:07Z" uid="74617" user="JohnSmith" changeset="1803492">
    <nd ref="282201561"/>
    <nd ref="282201562"/>
    <tag k="highway" v="residential"/>
    <tag k="name" v="Fifth Avenue"/>
    <tag k="source" v="survey"/>
  </way>
  <way id="25871079" version="3" timestamp="2010-07-06T18:36:25Z" uid="74617" user="JohnSmith" changeset="5152225">
    <nd ref="282201561"/>
    <nd ref="282201562"/>
    <tag k="highway" v="residential"/>
    <tag k="maxspeed" v="50"/>
    <tag k="maxspeed:source" v="default residential speed limit in Australia"/>
    <tag k="name" v="Fifth Avenue"/>
    <tag k="source" v="survey"/>
  </way>
  <way id="25871080" version="2" timestamp="2009-07-12T06:34:06Z" uid="74617" user="JohnSmith" changeset="1803492">
    <nd ref="282201563"/>
    <nd ref="282201564"/>
    <tag k="highway" v="residential"/>
    <tag k="name" v="Sixth Avenue"/>
    <tag k="source" v="survey"/>
  </way>
  <way id="25871080" version="3" timestamp="2009-10-11T12:00:03Z" uid="74617" user="JohnSmith" changeset="2813501">
    <nd ref="282201563"/>
    <nd ref="528771693"/>
    <nd ref="528771689"/>
    <nd ref="282201564"/>
    <tag k="highway" v="residential"/>
    <tag k="name" v="Sixth Avenue"/>
    <tag k="source" v="survey"/>
  </way>
  <way id="25871080" version="4" timestamp="2010-07-06T18:36:20Z" uid="74617" user="JohnSmith" changeset="5152225">
    <nd ref="282201563"/>
    <nd ref="528771693"/>
    <nd ref="528771689"/>
    <nd ref="282201564"/>
    <tag k="highway" v="residential"/>
    <tag k="maxspeed" v="50"/>
    <tag k="maxspeed:source" v="default residential speed limit in Australia"/>
    <tag k="name" v="Sixth Avenue"/>
    <tag k="source" v="survey"/>
  </way>
  <way id="25871081" version="5" timestamp="2009-07-12T06:34:30Z" uid="74617" user="JohnSmith" changeset="1803492">
    <nd ref="282201567"/>
    <nd ref="303266785"/>
    <nd ref="21498291"/>
    <nd ref="282201570"/>
    <nd ref="282201574"/>
    <tag k="highway" v="residential"/>
    <tag k="name" v="Hill Street"/>
    <tag k="source" v="survey"/>
    <tag k="width" v="6"/>
  </way>
  <way id="25871081" version="6" timestamp="2010-07-06T18:37:41Z" uid="74617" user="JohnSmith" changeset="5152225">
    <nd ref="282201567"/>
    <nd ref="303266785"/>
    <nd ref="21498291"/>
    <nd ref="282201570"/>
    <nd ref="282201574"/>
    <tag k="highway" v="residential"/>
    <tag k="maxspeed" v="50"/>
    <tag k="maxspeed:source" v="default residential speed limit in Australia"/>
    <tag k="name" v="Hill Street"/>
    <tag k="source" v="survey"/>
    <tag k="width" v="6"/>
  </way>
  <way id="25871082" version="2" timestamp="2009-07-12T06:43:48Z" uid="74617" user="JohnSmith" changeset="1803547">
    <nd ref="282201579"/>
    <nd ref="282201580"/>
    <tag k="highway" v="residential"/>
    <tag k="name" v="Goggs Street"/>
    <tag k="oneway" v="yes"/>
    <tag k="source" v="survey"/>
  </way>
  <way id="25871082" version="3" timestamp="2010-07-06T18:41:14Z" uid="74617" user="JohnSmith" changeset="5152225">
    <nd ref="282201579"/>
    <nd ref="282201580"/>
    <tag k="highway" v="residential"/>
    <tag k="maxspeed" v="50"/>
    <tag k="maxspeed:source" v="default residential speed limit in Australia"/>
    <tag k="name" v="Goggs Street"/>
    <tag k="oneway" v="yes"/>
    <tag k="source" v="survey"/>
  </way>
  <way id="25871083" version="2" timestamp="2009-07-12T06:34:36Z" uid="74617" user="JohnSmith" changeset="1803492">
    <nd ref="282201581"/>
    <nd ref="282201580"/>
    <nd ref="282201578"/>
    <tag k="highway" v="residential"/>
    <tag k="name" v="Goggs Street"/>
    <tag k="source" v="survey"/>
  </way>
  <way id="25871083" version="3" timestamp="2010-07-06T18:35:10Z" uid="74617" user="JohnSmith" changeset="5152225">
    <nd ref="282201581"/>
    <nd ref="282201580"/>
    <nd ref="282201578"/>
    <tag k="highway" v="residential"/>
    <tag k="maxspeed" v="50"/>
    <tag k="maxspeed:source" v="default residential speed limit in Australia"/>
    <tag k="name" v="Goggs Street"/>
    <tag k="source" v="survey"/>
  </way>
  <way id="25871084" version="3" timestamp="2009-07-12T06:43:45Z" uid="74617" user="JohnSmith" changeset="1803547">
    <nd ref="282201584"/>
    <nd ref="21464406"/>
    <nd ref="21321262"/>
    <nd ref="303266788"/>
    <nd ref="303266790"/>
    <nd ref="303266791"/>
    <nd ref="21479337"/>
    <nd ref="21554713"/>
    <nd ref="21304375"/>
    <tag k="highway" v="secondary"/>
    <tag k="name" v="Neil Street"/>
    <tag k="oneway" v="yes"/>
  </way>
  <way id="25871085" version="2" timestamp="2009-07-12T06:34:01Z" uid="74617" user="JohnSmith" changeset="1803492">
    <nd ref="282201593"/>
    <nd ref="282201594"/>
    <tag k="highway" v="residential"/>
    <tag k="name" v="Warren Street"/>
    <tag k="source" v="survey"/>
  </way>
  <way id="25871085" version="3" timestamp="2010-07-06T18:40:22Z" uid="74617" user="JohnSmith" changeset="5152225">
    <nd ref="282201593"/>
    <nd ref="282201594"/>
    <tag k="highway" v="residential"/>
    <tag k="maxspeed" v="50"/>
    <tag k="maxspeed:source" v="default residential speed limit in Australia"/>
    <tag k="name" v="Warren Street"/>
    <tag k="source" v="survey"/>
  </way>
  <way id="25871086" version="2" timestamp="2009-07-12T06:34:14Z" uid="74617" user="JohnSmith" changeset="1803492">
    <nd ref="282201595"/>
    <nd ref="282201596"/>
    <nd ref="282201598"/>
    <nd ref="282201601"/>
    <nd ref="282201602"/>
    <tag k="highway" v="residential"/>
    <tag k="name" v="Range Street"/>
    <tag k="source" v="survey"/>
  </way>
  <way id="25871086" version="3" timestamp="2010-07-06T18:37:09Z" uid="74617" user="JohnSmith" changeset="5152225">
    <nd ref="282201595"/>
    <nd ref="282201596"/>
    <nd ref="282201598"/>
    <nd ref="282201601"/>
    <nd ref="282201602"/>
    <tag k="highway" v="residential"/>
    <tag k="maxspeed" v="50"/>
    <tag k="maxspeed:source" v="default residential speed limit in Australia"/>
    <tag k="name" v="Range Street"/>
    <tag k="source" v="survey"/>
  </way>
  <way id="25871088" version="2" timestamp="2009-07-12T06:34:17Z" uid="74617" user="JohnSmith" changeset="1803492">
    <nd ref="282201603"/>
    <nd ref="282201604"/>
    <tag k="highway" v="residential"/>
    <tag k="name" v="Benjamin Street"/>
    <tag k="source" v="survey"/>
  </way>
  <way id="25871088" version="3" timestamp="2010-07-06T18:38:58Z" uid="74617" user="JohnSmith" changeset="5152225">
    <nd ref="282201603"/>
    <nd ref="282201604"/>
    <tag k="highway" v="residential"/>
    <tag k="maxspeed" v="50"/>
    <tag k="maxspeed:source" v="default residential speed limit in Australia"/>
    <tag k="name" v="Benjamin Street"/>
    <tag k="source" v="survey"/>
  </way>
  <way id="25871089" version="2" timestamp="2009-07-12T06:43:47Z" uid="74617" user="JohnSmith" changeset="1803547">
    <nd ref="282201607"/>
    <nd ref="282201609"/>
    <nd ref="282201604"/>
    <tag k="highway" v="residential"/>
    <tag k="name" v="Benjamin Street"/>
    <tag k="oneway" v="yes"/>
    <tag k="source" v="survey"/>
  </way>
  <way id="25871089" version="3" timestamp="2010-07-06T18:40:04Z" uid="74617" user="JohnSmith" changeset="5152225">
    <nd ref="282201607"/>
    <nd ref="282201609"/>
    <nd ref="282201604"/>
    <tag k="highway" v="residential"/>
    <tag k="maxspeed" v="50"/>
    <tag k="maxspeed:source" v="default residential speed limit in Australia"/>
    <tag k="name" v="Benjamin Street"/>
    <tag k="oneway" v="yes"/>
    <tag k="source" v="survey"/>
  </way>
  <way id="25871090" version="2" timestamp="2009-07-12T06:43:47Z" uid="74617" user="JohnSmith" changeset="1803547">
    <nd ref="282201604"/>
    <nd ref="282201606"/>
    <tag k="highway" v="residential"/>
    <tag k="name" v="Benjamin Street"/>
    <tag k="oneway" v="yes"/>
    <tag k="source" v="survey"/>
  </way>
  <way id="25871090" version="3" timestamp="2010-07-06T18:36:36Z" uid="74617" user="JohnSmith" changeset="5152225">
    <nd ref="282201604"/>
    <nd ref="282201606"/>
    <tag k="highway" v="residential"/>
    <tag k="maxspeed" v="50"/>
    <tag k="maxspeed:source" v="default residential speed limit in Australia"/>
    <tag k="name" v="Benjamin Street"/>
    <tag k="oneway" v="yes"/>
    <tag k="source" v="survey"/>
  </way>
  <way id="25871091" version="2" timestamp="2009-07-12T06:34:24Z" uid="74617" user="JohnSmith" changeset="1803492">
    <nd ref="282201613"/>
    <nd ref="282201614"/>
    <nd ref="282201615"/>
    <nd ref="282201616"/>
    <nd ref="282201607"/>
    <nd ref="282201606"/>
    <nd ref="282201617"/>
    <nd ref="282201618"/>
    <nd ref="282201619"/>
    <tag k="highway" v="residential"/>
    <tag k="name" v="Rifle Range Road"/>
    <tag k="source" v="survey"/>
  </way>
  <way id="25871091" version="4" timestamp="2010-07-06T18:37:47Z" uid="74617" user="JohnSmith" changeset="5152225">
    <nd ref="282201613"/>
    <nd ref="521251786"/>
    <nd ref="282201614"/>
    <nd ref="282201615"/>
    <nd ref="282201616"/>
    <nd ref="282201607"/>
    <nd ref="282201606"/>
    <nd ref="282201617"/>
    <nd ref="282201618"/>
    <nd ref="282201619"/>
    <tag k="highway" v="residential"/>
    <tag k="maxspeed" v="50"/>
    <tag k="maxspeed:source" v="default residential speed limit in Australia"/>
    <tag k="name" v="Rifle Range Road"/>
    <tag k="source" v="survey"/>
  </way>
  <way id="25871092" version="2" timestamp="2009-07-12T06:34:14Z" uid="74617" user="JohnSmith" changeset="1803492">
    <nd ref="282201620"/>
    <nd ref="282201619"/>
    <nd ref="282201621"/>
    <tag k="highway" v="residential"/>
    <tag k="name" v="Stuart Street"/>
  </way>
  <way id="25871092" version="5" timestamp="2010-07-06T18:41:21Z" uid="74617" user="JohnSmith" changeset="5152225">
    <nd ref="282201620"/>
    <nd ref="282201619"/>
    <nd ref="521251522"/>
    <nd ref="521251635"/>
    <nd ref="521251614"/>
    <nd ref="521251606"/>
    <nd ref="534136461"/>
    <nd ref="521251757"/>
    <nd ref="282201621"/>
    <tag k="highway" v="residential"/>
    <tag k="maxspeed" v="50"/>
    <tag k="maxspeed:source" v="default residential speed limit in Australia"/>
    <tag k="name" v="Stuart Street"/>
  </way>
  <way id="25871093" version="2" timestamp="2009-07-12T06:34:32Z" uid="74617" user="JohnSmith" changeset="1803492">
    <nd ref="282201624"/>
    <nd ref="282201625"/>
    <tag k="highway" v="residential"/>
    <tag k="name" v="Moloney Street"/>
  </way>
  <way id="25871093" version="4" timestamp="2010-07-06T18:35:17Z" uid="74617" user="JohnSmith" changeset="5152225">
    <nd ref="282201624"/>
    <nd ref="521227110"/>
    <nd ref="521226555"/>
    <nd ref="282201625"/>
    <tag k="highway" v="residential"/>
    <tag k="maxspeed" v="50"/>
    <tag k="maxspeed:source" v="default residential speed limit in Australia"/>
    <tag k="name" v="Moloney Street"/>
  </way>
  <way id="25871094" version="2" timestamp="2009-07-12T06:34:13Z" uid="74617" user="JohnSmith" changeset="1803492">
    <nd ref="282201626"/>
    <nd ref="282201627"/>
    <nd ref="282201628"/>
    <tag k="highway" v="residential"/>
    <tag k="name" v="Shannon Court"/>
    <tag k="source" v="survey"/>
  </way>
  <way id="25871094" version="3" timestamp="2010-07-06T18:39:31Z" uid="74617" user="JohnSmith" changeset="5152225">
    <nd ref="282201626"/>
    <nd ref="282201627"/>
    <nd ref="282201628"/>
    <tag k="highway" v="residential"/>
    <tag k="maxspeed" v="50"/>
    <tag k="maxspeed:source" v="default residential speed limit in Australia"/>
    <tag k="name" v="Shannon Court"/>
    <tag k="source" v="survey"/>
  </way>
  <way id="25871095" version="2" timestamp="2009-07-12T06:34:20Z" uid="74617" user="JohnSmith" changeset="1803492">
    <nd ref="282201629"/>
    <nd ref="282201630"/>
    <tag k="highway" v="residential"/>
    <tag k="name" v="Somme Street"/>
    <tag k="source" v="survey"/>
  </way>
  <way id="25871095" version="4" timestamp="2010-07-06T18:40:29Z" uid="74617" user="JohnSmith" changeset="5152225">
    <nd ref="282201629"/>
    <nd ref="521227058"/>
    <nd ref="521226523"/>
    <nd ref="282201630"/>
    <tag k="highway" v="residential"/>
    <tag k="maxspeed" v="50"/>
    <tag k="maxspeed:source" v="default residential speed limit in Australia"/>
    <tag k="name" v="Somme Street"/>
    <tag k="source" v="survey"/>
  </way>
  <way id="25871096" version="2" timestamp="2009-07-12T06:34:17Z" uid="74617" user="JohnSmith" changeset="1803492">
    <nd ref="282201635"/>
    <nd ref="282201636"/>
    <tag k="highway" v="residential"/>
    <tag k="name" v="Vale Street"/>
  </way>
  <way id="25871096" version="3" timestamp="2010-07-06T18:40:25Z" uid="74617" user="JohnSmith" changeset="5152225">
    <nd ref="282201635"/>
    <nd ref="282201636"/>
    <tag k="highway" v="residential"/>
    <tag k="maxspeed" v="50"/>
    <tag k="maxspeed:source" v="default residential speed limit in Australia"/>
    <tag k="name" v="Vale Street"/>
  </way>
  <way id="25871097" version="3" timestamp="2010-07-06T18:41:18Z" uid="74617" user="JohnSmith" changeset="5152225">
    <nd ref="282201638"/>
    <nd ref="282201639"/>
    <nd ref="282201640"/>
    <tag k="highway" v="residential"/>
    <tag k="maxspeed" v="50"/>
    <tag k="maxspeed:source" v="default residential speed limit in Australia"/>
    <tag k="name" v="Piper Street"/>
    <tag k="source" v="survey"/>
  </way>
  <way id="25871098" version="3" timestamp="2010-07-06T18:38:20Z" uid="74617" user="JohnSmith" changeset="5152225">
    <nd ref="282201640"/>
    <nd ref="282201641"/>
    <nd ref="282201643"/>
    <nd ref="282201647"/>
    <nd ref="282201654"/>
    <tag k="highway" v="residential"/>
    <tag k="maxspeed" v="50"/>
    <tag k="maxspeed:source" v="default residential speed limit in Australia"/>
    <tag k="name" v="McCrum Lane"/>
    <tag k="source" v="survey"/>
    <tag k="width" v="3"/>
  </way>
  <way id="25871099" version="2" timestamp="2009-07-12T06:34:34Z" uid="74617" user="JohnSmith" changeset="1803492">
    <nd ref="282201661"/>
    <nd ref="282201667"/>
    <nd ref="282201668"/>
    <nd ref="282201669"/>
    <tag k="highway" v="residential"/>
    <tag k="name" v="Campbell Street"/>
  </way>
  <way id="25871099" version="9" timestamp="2010-07-06T18:39:26Z" uid="74617" user="JohnSmith" changeset="5152225">
    <nd ref="498562032"/>
    <nd ref="498560349"/>
    <nd ref="282201661"/>
    <nd ref="530279348"/>
    <nd ref="530279349"/>
    <nd ref="282201667"/>
    <nd ref="282201668"/>
    <nd ref="532646211"/>
    <tag k="highway" v="residential"/>
    <tag k="maxspeed" v="50"/>
    <tag k="maxspeed:source" v="default residential speed limit in Australia"/>
    <tag k="name" v="Campbell Street"/>
  </way>
  <way id="25871100" version="4" timestamp="2009-07-12T06:34:19Z" uid="74617" user="JohnSmith" changeset="1803492">
    <nd ref="278633513"/>
    <nd ref="285780045"/>
    <nd ref="296350331"/>
    <nd ref="278633514"/>
    <nd ref="282201671"/>
    <tag k="highway" v="residential"/>
    <tag k="name" v="Searle Street"/>
    <tag k="source" v="survey"/>
  </way>
  <way id="25871100" version="6" timestamp="2010-07-06T18:35:49Z" uid="74617" user="JohnSmith" changeset="5152225">
    <nd ref="278633513"/>
    <nd ref="285780045"/>
    <nd ref="498526753"/>
    <nd ref="296350331"/>
    <nd ref="278633514"/>
    <nd ref="282201671"/>
    <tag k="highway" v="residential"/>
    <tag k="maxspeed" v="50"/>
    <tag k="maxspeed:source" v="default residential speed limit in Australia"/>
    <tag k="name" v="Searle Street"/>
    <tag k="source" v="survey"/>
  </way>
  <way id="25871101" version="3" timestamp="2009-07-12T06:34:20Z" uid="74617" user="JohnSmith" changeset="1803492">
    <nd ref="282201673"/>
    <nd ref="285780240"/>
    <nd ref="282201682"/>
    <tag k="highway" v="residential"/>
    <tag k="name" v="Haig Street"/>
    <tag k="source" v="survey"/>
  </way>
  <way id="25871101" version="4" timestamp="2010-07-06T18:37:11Z" uid="74617" user="JohnSmith" changeset="5152225">
    <nd ref="282201673"/>
    <nd ref="285780240"/>
    <nd ref="282201682"/>
    <tag k="highway" v="residential"/>
    <tag k="maxspeed" v="50"/>
    <tag k="maxspeed:source" v="default residential speed limit in Australia"/>
    <tag k="name" v="Haig Street"/>
    <tag k="source" v="survey"/>
  </way>
  <way id="25871102" version="2" timestamp="2009-07-12T06:34:07Z" uid="74617" user="JohnSmith" changeset="1803492">
    <nd ref="282201683"/>
    <nd ref="282201684"/>
    <tag k="foot" v="yes"/>
    <tag k="highway" v="cycleway"/>
    <tag k="name" v="Gabbett Walk"/>
    <tag k="source" v="survey"/>
    <tag k="surface" v="paved"/>
  </way>
  <way id="25871104" version="2" timestamp="2009-07-12T06:34:06Z" uid="74617" user="JohnSmith" changeset="1803492">
    <nd ref="282201685"/>
    <nd ref="282201686"/>
    <tag k="highway" v="residential"/>
    <tag k="name" v="Cousins Street"/>
    <tag k="source" v="survey"/>
  </way>
  <way id="25871104" version="3" timestamp="2010-07-06T18:37:04Z" uid="74617" user="JohnSmith" changeset="5152225">
    <nd ref="282201685"/>
    <nd ref="282201686"/>
    <tag k="highway" v="residential"/>
    <tag k="maxspeed" v="50"/>
    <tag k="maxspeed:source" v="default residential speed limit in Australia"/>
    <tag k="name" v="Cousins Street"/>
    <tag k="source" v="survey"/>
  </way>
  <way id="25871105" version="3" timestamp="2009-07-12T06:34:04Z" uid="74617" user="JohnSmith" changeset="1803492">
    <nd ref="332792803"/>
    <nd ref="332792804"/>
    <nd ref="332792805"/>
    <nd ref="332792802"/>
    <tag k="highway" v="residential"/>
    <tag k="name" v="Carey Street"/>
    <tag k="source" v="survey"/>
  </way>
  <way id="25871105" version="7" timestamp="2010-07-06T18:38:10Z" uid="74617" user="JohnSmith" changeset="5152225">
    <nd ref="332792803"/>
    <nd ref="506029234"/>
    <nd ref="506029236"/>
    <nd ref="506029249"/>
    <nd ref="506029244"/>
    <nd ref="506029243"/>
    <nd ref="506029238"/>
    <nd ref="506029239"/>
    <nd ref="332792802"/>
    <tag k="highway" v="residential"/>
    <tag k="maxspeed" v="50"/>
    <tag k="maxspeed:source" v="default residential speed limit in Australia"/>
    <tag k="name" v="Carey Street"/>
    <tag k="source" v="survey"/>
  </way>
  <way id="25871106" version="2" timestamp="2009-07-12T06:34:12Z" uid="74617" user="JohnSmith" changeset="1803492">
    <nd ref="282201687"/>
    <nd ref="282201684"/>
    <tag k="highway" v="residential"/>
    <tag k="name" v="Coates Street"/>
    <tag k="source" v="survey"/>
  </way>
  <way id="25871106" version="5" timestamp="2010-07-06T18:34:29Z" uid="74617" user="JohnSmith" changeset="5152225">
    <nd ref="282201687"/>
    <nd ref="506029237"/>
    <nd ref="282201684"/>
    <nd ref="506029235"/>
    <nd ref="506029233"/>
    <tag k="highway" v="residential"/>
    <tag k="maxspeed" v="50"/>
    <tag k="maxspeed:source" v="default residential speed limit in Australia"/>
    <tag k="name" v="Coates Street"/>
    <tag k="source" v="survey"/>
  </way>
  <way id="25871108" version="2" timestamp="2009-07-12T06:34:01Z" uid="74617" user="JohnSmith" changeset="1803492">
    <nd ref="282201689"/>
    <nd ref="282201690"/>
    <nd ref="282201691"/>
    <nd ref="282201692"/>
    <nd ref="282201694"/>
    <nd ref="282201695"/>
    <tag k="highway" v="residential"/>
    <tag k="name" v="Crotty Street"/>
    <tag k="source" v="survey"/>
  </way>
  <way id="25871108" version="4" timestamp="2010-07-06T18:39:56Z" uid="74617" user="JohnSmith" changeset="5152225">
    <nd ref="282201689"/>
    <nd ref="519431321"/>
    <nd ref="282201690"/>
    <nd ref="282201691"/>
    <nd ref="282201692"/>
    <nd ref="282201694"/>
    <nd ref="282201695"/>
    <tag k="highway" v="residential"/>
    <tag k="maxspeed" v="50"/>
    <tag k="maxspeed:source" v="default residential speed limit in Australia"/>
    <tag k="name" v="Crotty Street"/>
    <tag k="source" v="survey"/>
  </way>
  <way id="25871109" version="2" timestamp="2009-07-12T06:34:14Z" uid="74617" user="JohnSmith" changeset="1803492">
    <nd ref="282201696"/>
    <nd ref="282201698"/>
    <tag k="highway" v="residential"/>
    <tag k="name" v="Cleary Street"/>
    <tag k="source" v="survey"/>
  </way>
  <way id="25871109" version="5" timestamp="2010-07-06T18:40:48Z" uid="74617" user="JohnSmith" changeset="5152225">
    <nd ref="519431300"/>
    <nd ref="519431304"/>
    <tag k="highway" v="residential"/>
    <tag k="maxspeed" v="50"/>
    <tag k="maxspeed:source" v="default residential speed limit in Australia"/>
    <tag k="name" v="Raelyn Street"/>
  </way>
  <way id="25871110" version="3" timestamp="2009-07-12T06:34:34Z" uid="74617" user="JohnSmith" changeset="1803492">
    <nd ref="303266885"/>
    <nd ref="282201695"/>
    <nd ref="282201696"/>
    <tag k="highway" v="residential"/>
    <tag k="name" v="Robyn Street"/>
    <tag k="source" v="survey"/>
  </way>
  <way id="25871110" version="4" timestamp="2010-07-06T18:37:38Z" uid="74617" user="JohnSmith" changeset="5152225">
    <nd ref="303266885"/>
    <nd ref="282201695"/>
    <nd ref="282201696"/>
    <tag k="highway" v="residential"/>
    <tag k="maxspeed" v="50"/>
    <tag k="maxspeed:source" v="default residential speed limit in Australia"/>
    <tag k="name" v="Robyn Street"/>
    <tag k="source" v="survey"/>
  </way>
  <way id="25871112" version="2" timestamp="2009-07-12T06:34:17Z" uid="74617" user="JohnSmith" changeset="1803492">
    <nd ref="282201694"/>
    <nd ref="282201698"/>
    <nd ref="282201699"/>
    <tag k="highway" v="residential"/>
    <tag k="name" v="Hogan Street"/>
    <tag k="source" v="survey"/>
  </way>
  <way id="25871112" version="4" timestamp="2010-07-06T18:38:40Z" uid="74617" user="JohnSmith" changeset="5152225">
    <nd ref="521062748"/>
    <nd ref="282201694"/>
    <nd ref="282201698"/>
    <nd ref="282201699"/>
    <tag k="highway" v="residential"/>
    <tag k="maxspeed" v="50"/>
    <tag k="maxspeed:source" v="default residential speed limit in Australia"/>
    <tag k="name" v="Hogan Street"/>
    <tag k="source" v="survey"/>
  </way>
  <way id="25871113" version="2" timestamp="2009-07-12T06:34:31Z" uid="74617" user="JohnSmith" changeset="1803492">
    <nd ref="282201701"/>
    <nd ref="282201703"/>
    <nd ref="282201702"/>
    <tag k="highway" v="residential"/>
    <tag k="name" v="Agnes Street"/>
  </way>
  <way id="25871113" version="4" timestamp="2010-07-06T18:39:52Z" uid="74617" user="JohnSmith" changeset="5152225">
    <nd ref="282201701"/>
    <nd ref="521064885"/>
    <nd ref="521064874"/>
    <nd ref="282201703"/>
    <nd ref="282201702"/>
    <tag k="highway" v="residential"/>
    <tag k="maxspeed" v="50"/>
    <tag k="maxspeed:source" v="default residential speed limit in Australia"/>
    <tag k="name" v="Agnes Street"/>
  </way>
  <way id="25871115" version="2" timestamp="2009-07-12T06:34:19Z" uid="74617" user="JohnSmith" changeset="1803492">
    <nd ref="282201703"/>
    <nd ref="282201704"/>
    <nd ref="282201705"/>
    <nd ref="282201706"/>
    <nd ref="282201710"/>
    <tag k="highway" v="residential"/>
    <tag k="name" v="Amanda Drive"/>
    <tag k="source" v="survey"/>
  </way>
  <way id="25871115" version="3" timestamp="2010-07-06T18:37:35Z" uid="74617" user="JohnSmith" changeset="5152225">
    <nd ref="282201703"/>
    <nd ref="282201704"/>
    <nd ref="282201705"/>
    <nd ref="282201706"/>
    <nd ref="282201710"/>
    <tag k="highway" v="residential"/>
    <tag k="maxspeed" v="50"/>
    <tag k="maxspeed:source" v="default residential speed limit in Australia"/>
    <tag k="name" v="Amanda Drive"/>
    <tag k="source" v="survey"/>
  </way>
  <way id="25871116" version="2" timestamp="2009-07-12T06:34:33Z" uid="74617" user="JohnSmith" changeset="1803492">
    <nd ref="282201706"/>
    <nd ref="282201707"/>
    <nd ref="282201708"/>
    <tag k="highway" v="residential"/>
    <tag k="name" v="Nellie Street"/>
    <tag k="source" v="survey"/>
  </way>
  <way id="25871116" version="3" timestamp="2010-07-06T18:41:10Z" uid="74617" user="JohnSmith" changeset="5152225">
    <nd ref="282201706"/>
    <nd ref="282201707"/>
    <nd ref="282201708"/>
    <tag k="highway" v="residential"/>
    <tag k="maxspeed" v="50"/>
    <tag k="maxspeed:source" v="default residential speed limit in Australia"/>
    <tag k="name" v="Nellie Street"/>
    <tag k="source" v="survey"/>
  </way>
  <way id="25871117" version="2" timestamp="2009-07-12T06:34:13Z" uid="74617" user="JohnSmith" changeset="1803492">
    <nd ref="282201708"/>
    <nd ref="282201711"/>
    <nd ref="282201709"/>
    <nd ref="282201710"/>
    <tag k="highway" v="residential"/>
    <tag k="name" v="Karyn Street"/>
    <tag k="source" v="survey"/>
  </way>
  <way id="25871117" version="3" timestamp="2010-07-06T18:35:07Z" uid="74617" user="JohnSmith" changeset="5152225">
    <nd ref="282201708"/>
    <nd ref="282201711"/>
    <nd ref="282201709"/>
    <nd ref="282201710"/>
    <tag k="highway" v="residential"/>
    <tag k="maxspeed" v="50"/>
    <tag k="maxspeed:source" v="default residential speed limit in Australia"/>
    <tag k="name" v="Karyn Street"/>
    <tag k="source" v="survey"/>
  </way>
  <way id="25871118" version="2" timestamp="2009-07-12T06:34:35Z" uid="74617" user="JohnSmith" changeset="1803492">
    <nd ref="282201710"/>
    <nd ref="282201740"/>
    <nd ref="282201744"/>
    <tag k="foot" v="yes"/>
    <tag k="highway" v="cycleway"/>
    <tag k="source" v="survey"/>
    <tag k="surface" v="paved"/>
  </way>
  <way id="25871119" version="2" timestamp="2009-07-12T06:34:15Z" uid="74617" user="JohnSmith" changeset="1803492">
    <nd ref="282201744"/>
    <nd ref="282201745"/>
    <tag k="bridge" v="yes"/>
    <tag k="foot" v="yes"/>
    <tag k="highway" v="cycleway"/>
    <tag k="source" v="survey"/>
    <tag k="surface" v="paved"/>
  </way>
  <way id="25871119" version="3" timestamp="2009-08-10T06:46:09Z" uid="4467" user="Rosscoe" changeset="2093517">
    <nd ref="282201744"/>
    <nd ref="282201745"/>
    <tag k="bridge" v="yes"/>
    <tag k="foot" v="yes"/>
    <tag k="highway" v="cycleway"/>
    <tag k="layer" v="1"/>
    <tag k="source" v="survey"/>
    <tag k="surface" v="paved"/>
  </way>
  <way id="25871120" version="2" timestamp="2009-07-12T06:34:10Z" uid="74617" user="JohnSmith" changeset="1803492">
    <nd ref="282201745"/>
    <nd ref="282201746"/>
    <nd ref="282201747"/>
    <nd ref="282201748"/>
    <nd ref="282201749"/>
    <nd ref="282201750"/>
    <nd ref="282201751"/>
    <nd ref="282201752"/>
    <nd ref="282201753"/>
    <nd ref="282201757"/>
    <nd ref="282201758"/>
    <nd ref="282201759"/>
    <nd ref="282201761"/>
    <nd ref="282201762"/>
    <nd ref="282201763"/>
    <nd ref="282201764"/>
    <nd ref="282201770"/>
    <nd ref="282201771"/>
    <nd ref="282201772"/>
    <nd ref="282201773"/>
    <nd ref="282201774"/>
    <nd ref="282201775"/>
    <nd ref="282201776"/>
    <nd ref="282201777"/>
    <nd ref="280003892"/>
    <tag k="foot" v="yes"/>
    <tag k="highway" v="cycleway"/>
    <tag k="source" v="survey"/>
    <tag k="surface" v="paved"/>
  </way>
  <way id="25871120" version="3" timestamp="2009-08-10T06:53:06Z" uid="4467" user="Rosscoe" changeset="2093574">
    <nd ref="282201745"/>
    <nd ref="282201746"/>
    <nd ref="282201747"/>
    <nd ref="282201748"/>
    <nd ref="282201749"/>
    <nd ref="282201750"/>
    <nd ref="282201751"/>
    <nd ref="282201752"/>
    <nd ref="282201753"/>
    <nd ref="282201757"/>
    <nd ref="282201758"/>
    <nd ref="282201759"/>
    <nd ref="282201761"/>
    <nd ref="282201762"/>
    <nd ref="282201763"/>
    <nd ref="282201764"/>
    <nd ref="282201770"/>
    <nd ref="282201771"/>
    <nd ref="282201772"/>
    <nd ref="282201773"/>
    <nd ref="282201774"/>
    <nd ref="282201775"/>
    <nd ref="282201776"/>
    <nd ref="282201777"/>
    <nd ref="280003892"/>
    <tag k="foot" v="yes"/>
    <tag k="highway" v="cycleway"/>
    <tag k="source" v="survey"/>
    <tag k="surface" v="paved"/>
  </way>
  <way id="25871120" version="6" timestamp="2010-04-16T15:06:52Z" uid="4467" user="Rosscoe" changeset="4439473">
    <nd ref="282201745"/>
    <nd ref="282201746"/>
    <nd ref="698779684"/>
    <nd ref="698779692"/>
    <nd ref="282201748"/>
    <nd ref="698779688"/>
    <nd ref="698779712"/>
    <nd ref="698779710"/>
    <nd ref="282201751"/>
    <nd ref="698779716"/>
    <nd ref="698779713"/>
    <nd ref="282201752"/>
    <nd ref="282201753"/>
    <nd ref="282201757"/>
    <nd ref="698779726"/>
    <nd ref="282201758"/>
    <nd ref="282201759"/>
    <nd ref="282201761"/>
    <nd ref="282201762"/>
    <nd ref="282201763"/>
    <nd ref="282201764"/>
    <nd ref="282201770"/>
    <nd ref="282201771"/>
    <nd ref="282201772"/>
    <nd ref="282201773"/>
    <nd ref="282201774"/>
    <nd ref="282201775"/>
    <nd ref="282201776"/>
    <nd ref="520992462"/>
    <nd ref="282201777"/>
    <nd ref="280003892"/>
    <tag k="foot" v="yes"/>
    <tag k="highway" v="cycleway"/>
    <tag k="source" v="survey"/>
    <tag k="surface" v="paved"/>
  </way>
  <way id="25871187" version="5" timestamp="2010-07-09T03:39:23Z" uid="74617" user="JohnSmith" changeset="5170825">
    <nd ref="282203311"/>
    <nd ref="282203312"/>
    <tag k="highway" v="residential"/>
    <tag k="maxspeed" v="50"/>
    <tag k="maxspeed:source" v="default residential speed limit in Australia"/>
    <tag k="name" v="Foreman Way"/>
    <tag k="source" v="estimate"/>
    <tag k="source:name" v="survey"/>
  </way>
  <way id="25871187" version="6" timestamp="2010-11-04T07:14:09Z" uid="4467" user="Rosscoe" changeset="6286167">
    <nd ref="282203311"/>
    <nd ref="282203312"/>
    <tag k="highway" v="residential"/>
    <tag k="maxspeed" v="50"/>
    <tag k="name" v="Foreman Way"/>
    <tag k="source" v="estimate"/>
    <tag k="source:maxspeed" v="default residential speed limit in Australia"/>
    <tag k="source:name" v="survey"/>
  </way>
  <way id="25871307" version="1" timestamp="2008-07-30T11:26:40Z" uid="43863" user="Rundling" changeset="627277">
    <nd ref="59176756"/>
    <nd ref="59186851"/>
    <nd ref="59186856"/>
    <nd ref="59186858"/>
    <nd ref="59186862"/>
    <nd ref="59186864"/>
    <nd ref="59186868"/>
    <nd ref="59186871"/>
    <nd ref="59186876"/>
    <nd ref="59186880"/>
    <nd ref="59186883"/>
    <tag k="created_by" v="Potlatch 0.10a"/>
    <tag k="highway" v="residential"/>
    <tag k="name" v="Veerßer Strasse"/>
  </way>
  <way id="25871307" version="2" timestamp="2008-07-30T11:26:58Z" uid="43863" user="Rundling" changeset="627277">
    <nd ref="59176756"/>
    <nd ref="59186851"/>
    <nd ref="59186856"/>
    <nd ref="59186858"/>
    <nd ref="59186862"/>
    <nd ref="59186864"/>
    <nd ref="59186868"/>
    <nd ref="59186871"/>
    <nd ref="59186876"/>
    <nd ref="59186880"/>
    <nd ref="59186883"/>
    <tag k="created_by" v="Potlatch 0.10a"/>
    <tag k="highway" v="residential"/>
    <tag k="name" v="Veerßer Strasse"/>
    <tag k="ref" v="B71"/>
  </way>
  <way id="25871307" version="3" timestamp="2008-07-30T11:27:28Z" uid="43863" user="Rundling" changeset="627277">
    <nd ref="59176756"/>
    <nd ref="59186851"/>
    <nd ref="59186856"/>
    <nd ref="59186858"/>
    <nd ref="59186862"/>
    <nd ref="59186864"/>
    <nd ref="59186868"/>
    <nd ref="59186871"/>
    <nd ref="59186876"/>
    <nd ref="59186880"/>
    <nd ref="59186883"/>
    <tag k="created_by" v="Potlatch 0.10a"/>
    <tag k="highway" v="primary"/>
    <tag k="name" v="Veerßer Strasse"/>
    <tag k="ref" v="B71"/>
  </way>
  <way id="25871307" version="4" timestamp="2008-07-30T19:44:43Z" uid="43863" user="Rundling" changeset="630733">
    <nd ref="59176756"/>
    <nd ref="59186851"/>
    <nd ref="59186856"/>
    <nd ref="59186858"/>
    <nd ref="59186862"/>
    <nd ref="59186864"/>
    <nd ref="59186868"/>
    <nd ref="59186871"/>
    <nd ref="59186876"/>
    <nd ref="59186880"/>
    <nd ref="59186883"/>
    <tag k="created_by" v="Potlatch 0.10a"/>
    <tag k="highway" v="primary"/>
    <tag k="name" v="Veerßer Straße"/>
    <tag k="ref" v="B71"/>
  </way>
  <way id="25871307" version="5" timestamp="2008-08-05T14:13:36Z" uid="43863" user="Rundling" changeset="69264">
    <nd ref="59176756"/>
    <nd ref="59186851"/>
    <nd ref="59186856"/>
    <nd ref="59186858"/>
    <nd ref="59186862"/>
    <nd ref="59186864"/>
    <nd ref="59186868"/>
    <nd ref="59186871"/>
    <nd ref="59186876"/>
    <nd ref="59186880"/>
    <nd ref="59186883"/>
    <nd ref="59186887"/>
    <nd ref="280698245"/>
    <nd ref="59186891"/>
    <nd ref="59186896"/>
    <nd ref="59186912"/>
    <tag k="created_by" v="Potlatch 0.10b"/>
    <tag k="highway" v="primary"/>
    <tag k="name" v="Veerßer Straße; Veerßer Strasse"/>
    <tag k="ref" v="B71"/>
  </way>
  <way id="25871307" version="6" timestamp="2008-08-05T14:14:35Z" uid="43863" user="Rundling" changeset="69264">
    <nd ref="59176756"/>
    <nd ref="59186851"/>
    <nd ref="59186856"/>
    <nd ref="59186858"/>
    <nd ref="59186862"/>
    <nd ref="59186864"/>
    <nd ref="59186868"/>
    <nd ref="59186871"/>
    <nd ref="59186876"/>
    <nd ref="59186880"/>
    <nd ref="59186883"/>
    <nd ref="59186887"/>
    <nd ref="280698245"/>
    <nd ref="59186891"/>
    <nd ref="59186896"/>
    <nd ref="59186912"/>
    <tag k="created_by" v="Potlatch 0.10b"/>
    <tag k="highway" v="primary"/>
    <tag k="name" v="Veerßer Straße"/>
    <tag k="ref" v="B71"/>
  </way>
  <way id="25871307" version="7" timestamp="2008-08-29T06:06:36Z" uid="43863" user="Rundling" changeset="446379">
    <nd ref="59176756"/>
    <nd ref="59186851"/>
    <nd ref="59186856"/>
    <nd ref="59186858"/>
    <nd ref="59186862"/>
    <nd ref="59186864"/>
    <nd ref="59186868"/>
    <nd ref="59186871"/>
    <nd ref="291966500"/>
    <nd ref="59186876"/>
    <nd ref="59186880"/>
    <nd ref="59186883"/>
    <nd ref="59186887"/>
    <nd ref="280698245"/>
    <nd ref="59186891"/>
    <nd ref="59186896"/>
    <nd ref="59186912"/>
    <tag k="created_by" v="Potlatch 0.10b"/>
    <tag k="highway" v="primary"/>
    <tag k="name" v="Veerßer Straße"/>
    <tag k="ref" v="B71"/>
  </way>
  <way id="25871307" version="8" timestamp="2008-08-29T06:06:47Z" uid="43863" user="Rundling" changeset="446379">
    <nd ref="59176756"/>
    <nd ref="59186851"/>
    <nd ref="59186856"/>
    <nd ref="59186858"/>
    <nd ref="59186862"/>
    <nd ref="59186864"/>
    <nd ref="59186868"/>
    <nd ref="59186871"/>
    <nd ref="291966504"/>
    <nd ref="59186876"/>
    <nd ref="291966502"/>
    <nd ref="59186880"/>
    <nd ref="59186883"/>
    <nd ref="59186887"/>
    <nd ref="280698245"/>
    <nd ref="59186891"/>
    <nd ref="59186896"/>
    <nd ref="59186912"/>
    <tag k="created_by" v="Potlatch 0.10b"/>
    <tag k="highway" v="primary"/>
    <tag k="name" v="Veerßer Straße"/>
    <tag k="ref" v="B71"/>
  </way>
  <way id="25871307" version="9" timestamp="2008-08-29T06:52:46Z" uid="43863" user="Rundling" changeset="446379">
    <nd ref="59176756"/>
    <nd ref="59186851"/>
    <nd ref="59186856"/>
    <nd ref="59186858"/>
    <nd ref="59186862"/>
    <nd ref="59186864"/>
    <nd ref="59186868"/>
    <nd ref="59186871"/>
    <nd ref="59186876"/>
    <nd ref="291966502"/>
    <nd ref="59186880"/>
    <nd ref="59186883"/>
    <nd ref="59186887"/>
    <nd ref="280698245"/>
    <nd ref="59186891"/>
    <nd ref="59186896"/>
    <nd ref="59186912"/>
    <tag k="created_by" v="Potlatch 0.10b"/>
    <tag k="highway" v="primary"/>
    <tag k="name" v="Veerßer Straße"/>
    <tag k="ref" v="B71"/>
  </way>
  <way id="25871307" version="10" timestamp="2008-08-29T06:53:03Z" uid="43863" user="Rundling" changeset="446379">
    <nd ref="59176756"/>
    <nd ref="59186851"/>
    <nd ref="59186856"/>
    <nd ref="59186858"/>
    <nd ref="59186862"/>
    <nd ref="59186864"/>
    <nd ref="59186868"/>
    <nd ref="59186871"/>
    <nd ref="59186876"/>
    <nd ref="291966502"/>
    <nd ref="59186880"/>
    <nd ref="59186883"/>
    <nd ref="59186887"/>
    <nd ref="280698245"/>
    <nd ref="59186891"/>
    <nd ref="59186896"/>
    <nd ref="59186912"/>
    <tag k="created_by" v="Potlatch 0.10b"/>
    <tag k="highway" v="primary"/>
    <tag k="name" v="Veerßer Straße"/>
    <tag k="ref" v="B 71"/>
  </way>
  <way id="25871307" version="11" timestamp="2008-08-29T13:32:06Z" uid="43863" user="Rundling" changeset="453261">
    <nd ref="292029003"/>
    <nd ref="59186887"/>
    <nd ref="280698245"/>
    <nd ref="59186891"/>
    <nd ref="59186896"/>
    <nd ref="59186912"/>
    <tag k="created_by" v="Potlatch 0.10b"/>
    <tag k="highway" v="primary"/>
    <tag k="name" v="Veerßer Straße"/>
    <tag k="ref" v="B 71"/>
  </way>
  <way id="25871307" version="12" timestamp="2008-08-29T13:32:21Z" uid="43863" user="Rundling" changeset="453261">
    <nd ref="59186883"/>
    <nd ref="292029003"/>
    <nd ref="59186887"/>
    <nd ref="280698245"/>
    <nd ref="59186891"/>
    <nd ref="59186896"/>
    <nd ref="59186912"/>
    <tag k="created_by" v="Potlatch 0.10b"/>
    <tag k="highway" v="primary"/>
    <tag k="name" v="Veerßer Straße"/>
    <tag k="ref" v="B 71"/>
  </way>
  <way id="25871307" version="13" timestamp="2008-08-29T13:32:26Z" uid="43863" user="Rundling" changeset="453261">
    <nd ref="59186883"/>
    <nd ref="292029003"/>
    <nd ref="59186887"/>
    <nd ref="280698245"/>
    <nd ref="59186891"/>
    <nd ref="59186896"/>
    <nd ref="59186912"/>
    <tag k="created_by" v="Potlatch 0.10b"/>
    <tag k="highway" v="primary"/>
    <tag k="name" v="Veerßer Straße"/>
    <tag k="ref" v="B 71"/>
  </way>
  <way id="25871307" version="14" timestamp="2008-08-29T13:32:41Z" uid="43863" user="Rundling" changeset="453261"/>
  <way id="25871311" version="1" timestamp="2008-07-30T11:26:59Z" uid="43863" user="Rundling" changeset="627277">
    <nd ref="59186912"/>
    <nd ref="59186915"/>
    <nd ref="59186918"/>
    <nd ref="279136060"/>
    <nd ref="59186920"/>
    <nd ref="280697538"/>
    <nd ref="280698246"/>
    <nd ref="59186923"/>
    <nd ref="59186927"/>
    <nd ref="59186933"/>
    <nd ref="279136260"/>
    <nd ref="59186937"/>
    <nd ref="59186945"/>
    <nd ref="59186948"/>
    <nd ref="59186952"/>
    <nd ref="59186955"/>
    <nd ref="59186957"/>
    <nd ref="59186960"/>
    <nd ref="59186965"/>
    <nd ref="59186970"/>
    <nd ref="59186974"/>
    <nd ref="59186978"/>
    <nd ref="59186981"/>
    <nd ref="59186982"/>
    <nd ref="59186986"/>
    <nd ref="59186991"/>
    <nd ref="59186996"/>
    <nd ref="59187000"/>
    <nd ref="59187002"/>
    <nd ref="279136629"/>
    <tag k="created_by" v="Potlatch 0.10a"/>
    <tag k="highway" v="residential"/>
    <tag k="name" v="Celler Strasse"/>
  </way>
  <way id="25871311" version="2" timestamp="2008-07-30T21:06:36Z" uid="43863" user="Rundling" changeset="630733">
    <nd ref="59186912"/>
    <nd ref="59186915"/>
    <nd ref="59186918"/>
    <nd ref="279136060"/>
    <nd ref="59186920"/>
    <nd ref="280697538"/>
    <nd ref="280698246"/>
    <nd ref="59186923"/>
    <nd ref="59186927"/>
    <nd ref="59186933"/>
    <nd ref="279136260"/>
    <nd ref="59186937"/>
    <nd ref="59186945"/>
    <nd ref="59186948"/>
    <nd ref="282342170"/>
    <nd ref="59186952"/>
    <nd ref="59186955"/>
    <nd ref="59186957"/>
    <nd ref="59186960"/>
    <nd ref="59186965"/>
    <nd ref="59186970"/>
    <nd ref="59186974"/>
    <nd ref="59186978"/>
    <nd ref="59186981"/>
    <nd ref="59186982"/>
    <nd ref="59186986"/>
    <nd ref="59186991"/>
    <nd ref="59186996"/>
    <nd ref="59187000"/>
    <nd ref="59187002"/>
    <nd ref="279136629"/>
    <tag k="created_by" v="Potlatch 0.10a"/>
    <tag k="highway" v="residential"/>
    <tag k="name" v="Celler Strasse"/>
  </way>
  <way id="25871311" version="3" timestamp="2008-08-05T14:13:17Z" uid="43863" user="Rundling" changeset="69264">
    <nd ref="59186912"/>
    <nd ref="59186915"/>
    <nd ref="59186918"/>
    <nd ref="279136060"/>
    <nd ref="59186920"/>
    <nd ref="280697538"/>
    <nd ref="280698246"/>
    <nd ref="59186923"/>
    <nd ref="59186927"/>
    <nd ref="59186933"/>
    <nd ref="279136260"/>
    <nd ref="59186937"/>
    <nd ref="59186945"/>
    <nd ref="59186948"/>
    <nd ref="282342170"/>
    <nd ref="59186952"/>
    <nd ref="59186955"/>
    <nd ref="59186957"/>
    <nd ref="59186960"/>
    <nd ref="59186965"/>
    <nd ref="59186970"/>
    <nd ref="59186974"/>
    <nd ref="59186978"/>
    <nd ref="59186981"/>
    <nd ref="59186982"/>
    <nd ref="59186986"/>
    <nd ref="59186991"/>
    <nd ref="59186996"/>
    <nd ref="59187000"/>
    <nd ref="59187002"/>
    <nd ref="279136629"/>
    <tag k="created_by" v="Potlatch 0.10b"/>
    <tag k="highway" v="residential"/>
    <tag k="name" v="Celler Straße"/>
  </way>
  <way id="25871311" version="5" timestamp="2008-10-17T19:06:29Z" uid="43863" user="Rundling" changeset="401333">
    <nd ref="59186912"/>
    <nd ref="59186915"/>
    <nd ref="59186918"/>
    <nd ref="279136060"/>
    <nd ref="59186920"/>
    <nd ref="280697538"/>
    <nd ref="280697586"/>
    <nd ref="59186923"/>
    <nd ref="59186927"/>
    <nd ref="59186933"/>
    <nd ref="279136260"/>
    <nd ref="59186937"/>
    <nd ref="59186945"/>
    <nd ref="59186948"/>
    <nd ref="282342170"/>
    <nd ref="59186952"/>
    <nd ref="59186955"/>
    <nd ref="59186957"/>
    <nd ref="59186960"/>
    <nd ref="59186965"/>
    <nd ref="59186970"/>
    <nd ref="59186974"/>
    <nd ref="59186978"/>
    <nd ref="59186981"/>
    <nd ref="59186982"/>
    <nd ref="59186986"/>
    <nd ref="59186991"/>
    <nd ref="59186996"/>
    <nd ref="59187000"/>
    <nd ref="59187002"/>
    <nd ref="279136629"/>
    <tag k="created_by" v="Merkaartor 0.12"/>
    <tag k="highway" v="residential"/>
    <tag k="name" v="Celler Straße"/>
    <tag k="oneway" v="no"/>
  </way>
  <way id="25871311" version="10" timestamp="2009-06-05T13:38:52Z" uid="43863" user="Rundling" changeset="1429438">
    <nd ref="59186912"/>
    <nd ref="59186915"/>
    <nd ref="59186918"/>
    <nd ref="279136060"/>
    <nd ref="59186920"/>
    <nd ref="280697538"/>
    <nd ref="280697586"/>
    <nd ref="59186923"/>
    <nd ref="59186927"/>
    <nd ref="59186933"/>
    <nd ref="279136260"/>
    <nd ref="59186937"/>
    <nd ref="59186945"/>
    <nd ref="59186948"/>
    <nd ref="282342170"/>
    <nd ref="59186952"/>
    <nd ref="335169338"/>
    <nd ref="59186974"/>
    <nd ref="59186978"/>
    <nd ref="59186981"/>
    <nd ref="59186982"/>
    <nd ref="59186986"/>
    <nd ref="59186991"/>
    <nd ref="59186996"/>
    <nd ref="59187000"/>
    <tag k="highway" v="tertiary"/>
    <tag k="name" v="Celler Straße"/>
    <tag k="old_ref" v="B 4"/>
    <tag k="oneway" v="no"/>
  </way>
  <way id="25871311" version="11" timestamp="2009-06-05T13:50:02Z" uid="43863" user="Rundling" changeset="1429517">
    <nd ref="59186912"/>
    <nd ref="59186915"/>
    <nd ref="59186918"/>
    <nd ref="279136060"/>
    <nd ref="59186920"/>
    <nd ref="280697538"/>
    <nd ref="280697586"/>
    <nd ref="59186933"/>
    <nd ref="279136260"/>
    <nd ref="59186948"/>
    <nd ref="282342170"/>
    <nd ref="59186952"/>
    <nd ref="335169338"/>
    <nd ref="59186974"/>
    <nd ref="59186978"/>
    <nd ref="59186981"/>
    <nd ref="59186982"/>
    <nd ref="59186986"/>
    <nd ref="59186991"/>
    <nd ref="59186996"/>
    <nd ref="59187000"/>
    <tag k="highway" v="tertiary"/>
    <tag k="name" v="Celler Straße"/>
    <tag k="old_ref" v="B 4"/>
    <tag k="oneway" v="no"/>
  </way>
  <way id="25871311" version="12" timestamp="2009-06-06T18:20:32Z" uid="43863" user="Rundling" changeset="1441107">
    <nd ref="59186912"/>
    <nd ref="59186915"/>
    <nd ref="59186918"/>
    <nd ref="279136060"/>
    <nd ref="59186920"/>
    <nd ref="280697538"/>
    <nd ref="280697586"/>
    <nd ref="59186933"/>
    <nd ref="279136260"/>
    <nd ref="59186948"/>
    <nd ref="282342170"/>
    <nd ref="59186952"/>
    <nd ref="335169338"/>
    <nd ref="59186974"/>
    <nd ref="59186978"/>
    <nd ref="59186981"/>
    <nd ref="59186982"/>
    <nd ref="59186986"/>
    <nd ref="59186991"/>
    <nd ref="59186996"/>
    <nd ref="59187000"/>
    <tag k="highway" v="residential"/>
    <tag k="name" v="Celler Straße"/>
    <tag k="old_ref" v="B 4"/>
    <tag k="oneway" v="no"/>
  </way>
  <way id="25871311" version="13" timestamp="2009-06-15T14:33:10Z" uid="43863" user="Rundling" changeset="1525579">
    <nd ref="59186912"/>
    <nd ref="59186915"/>
    <nd ref="59186918"/>
    <nd ref="279136060"/>
    <nd ref="59186920"/>
    <nd ref="280697538"/>
    <nd ref="280697586"/>
    <nd ref="59186933"/>
    <nd ref="279136260"/>
    <nd ref="282342170"/>
    <nd ref="335169338"/>
    <nd ref="59186974"/>
    <nd ref="59186978"/>
    <nd ref="59186981"/>
    <nd ref="59186982"/>
    <nd ref="59186986"/>
    <nd ref="59186991"/>
    <nd ref="59186996"/>
    <nd ref="59187000"/>
    <tag k="highway" v="residential"/>
    <tag k="name" v="Celler Straße"/>
    <tag k="old_ref" v="B 4"/>
    <tag k="oneway" v="no"/>
  </way>
  <way id="25871324" version="1" timestamp="2008-07-30T11:28:47Z" uid="43863" user="Rundling" changeset="627277">
    <nd ref="282203690"/>
    <nd ref="272285738"/>
    <nd ref="272285742"/>
    <tag k="created_by" v="Potlatch 0.10a"/>
    <tag k="highway" v="primary"/>
    <tag k="ref" v="B 71"/>
  </way>
  <way id="25871324" version="2" timestamp="2008-07-30T11:29:06Z" uid="43863" user="Rundling" changeset="627277">
    <nd ref="282203690"/>
    <nd ref="272285738"/>
    <nd ref="272285742"/>
    <tag k="created_by" v="Potlatch 0.10a"/>
    <tag k="highway" v="primary"/>
    <tag k="name" v="Soltauer Straße"/>
    <tag k="ref" v="B 71"/>
  </way>
  <way id="25871324" version="3" timestamp="2008-07-30T18:52:55Z" uid="43863" user="Rundling" changeset="630733">
    <nd ref="282203690"/>
    <nd ref="272285738"/>
    <nd ref="272285742"/>
    <tag k="created_by" v="Potlatch 0.10a"/>
    <tag k="highway" v="primary"/>
    <tag k="name" v="Soltauer Straße"/>
    <tag k="ref" v="B71"/>
  </way>
  <way id="25871324" version="5" timestamp="2008-12-16T19:00:03Z" uid="43863" user="Rundling" changeset="424249"/>
  <way id="25871329" version="22" timestamp="2010-11-04T05:45:22Z" uid="4467" user="Rosscoe" changeset="6283522">
    <nd ref="257529161"/>
    <nd ref="257529163"/>
    <nd ref="726903154"/>
    <nd ref="322529732"/>
    <nd ref="726903500"/>
    <nd ref="726904890"/>
    <nd ref="726902752"/>
    <nd ref="726904402"/>
    <nd ref="726904831"/>
    <nd ref="726904065"/>
    <nd ref="726902669"/>
    <nd ref="282203790"/>
    <nd ref="726902732"/>
    <nd ref="257686409"/>
    <tag k="highway" v="unclassified"/>
    <tag k="name" v="Aquatic Drive"/>
    <tag k="source" v="extrapolation"/>
    <tag k="source:name" v="survey"/>
  </way>
  <way id="25871525" version="1" timestamp="2008-07-30T11:46:16Z" uid="43863" user="Rundling" changeset="627277">
    <nd ref="279965452"/>
    <nd ref="279965457"/>
    <nd ref="279965454"/>
    <tag k="created_by" v="Potlatch 0.10a"/>
    <tag k="highway" v="residential"/>
    <tag k="name" v="Wilhelm-Klipp-Straße"/>
  </way>
  <way id="25871525" version="2" timestamp="2008-07-30T11:46:39Z" uid="43863" user="Rundling" changeset="627277">
    <nd ref="279965452"/>
    <nd ref="279965457"/>
    <nd ref="279965454"/>
    <tag k="created_by" v="Potlatch 0.10a"/>
    <tag k="highway" v="residential"/>
    <tag k="name" v="Adolf-Bäthge-Straße"/>
  </way>
  <way id="25871525" version="3" timestamp="2008-12-19T20:28:16Z" uid="43863" user="Rundling" changeset="483379">
    <nd ref="279965452"/>
    <nd ref="279965457"/>
    <nd ref="320037646"/>
    <tag k="created_by" v="Potlatch 0.10a"/>
    <tag k="highway" v="residential"/>
    <tag k="name" v="Adolf-Bäthge-Straße"/>
  </way>
  <way id="25871525" version="4" timestamp="2010-01-17T06:47:46Z" uid="43863" user="Rundling" changeset="3638098">
    <nd ref="279965452"/>
    <nd ref="279965457"/>
    <nd ref="320037646"/>
    <tag k="highway" v="residential"/>
    <tag k="name" v="Adolf-Bäthge-Straße"/>
  </way>
  <way id="25871544" version="1" timestamp="2008-07-30T11:47:57Z" uid="43863" user="Rundling" changeset="627277">
    <nd ref="279090255"/>
    <nd ref="279970980"/>
    <nd ref="279970259"/>
    <nd ref="279090256"/>
    <nd ref="279090257"/>
    <nd ref="279090258"/>
    <nd ref="279090259"/>
    <nd ref="279090260"/>
    <tag k="created_by" v="Potlatch 0.10a"/>
    <tag k="highway" v="residential"/>
    <tag k="name" v="Uelzener Straße"/>
  </way>
  <way id="25871544" version="2" timestamp="2008-08-22T07:56:51Z" uid="43863" user="Rundling" changeset="365152">
    <nd ref="279090255"/>
    <nd ref="279970980"/>
    <nd ref="290077221"/>
    <nd ref="279970259"/>
    <nd ref="279090256"/>
    <nd ref="279090257"/>
    <nd ref="279090258"/>
    <nd ref="279090259"/>
    <nd ref="279090260"/>
    <tag k="created_by" v="Potlatch 0.10b"/>
    <tag k="highway" v="residential"/>
    <tag k="name" v="Uelzener Straße"/>
  </way>
  <way id="25871544" version="4" timestamp="2008-10-16T16:52:55Z" uid="43863" user="Rundling" changeset="372861">
    <nd ref="279090251"/>
    <nd ref="279090252"/>
    <nd ref="279090253"/>
    <nd ref="279090254"/>
    <nd ref="279090255"/>
    <nd ref="279970980"/>
    <tag k="created_by" v="JOSM"/>
    <tag k="highway" v="unclassified"/>
    <tag k="name" v="Groß Ellenberg"/>
  </way>
  <way id="25871544" version="5" timestamp="2008-12-03T10:38:08Z" uid="43863" user="Rundling" changeset="66037">
    <nd ref="279090251"/>
    <nd ref="279090252"/>
    <nd ref="279090253"/>
    <nd ref="279090254"/>
    <nd ref="316412911"/>
    <nd ref="279090255"/>
    <nd ref="279970980"/>
    <tag k="created_by" v="JOSM"/>
    <tag k="highway" v="unclassified"/>
    <tag k="name" v="Groß Ellenberg"/>
  </way>
  <way id="25871544" version="6" timestamp="2009-03-02T17:29:52Z" uid="43863" user="Rundling" changeset="723184">
    <nd ref="279090251"/>
    <nd ref="279090252"/>
    <tag k="highway" v="residential"/>
    <tag k="name" v="Groß Ellenberg"/>
  </way>
  <way id="25871544" version="7" timestamp="2009-06-01T06:15:35Z" uid="43863" user="Rundling" changeset="1375880">
    <nd ref="413878124"/>
    <nd ref="413878123"/>
    <nd ref="279090252"/>
    <tag k="highway" v="residential"/>
    <tag k="name" v="Groß Ellenberg"/>
  </way>
  <way id="25871544" version="8" timestamp="2011-01-26T18:59:03Z" uid="43863" user="Rundling" changeset="7096518">
    <nd ref="413326576"/>
    <nd ref="1122233800"/>
    <nd ref="279090252"/>
    <nd ref="413878123"/>
    <nd ref="413878124"/>
    <tag k="highway" v="residential"/>
    <tag k="name" v="Groß Ellenberg"/>
  </way>
  <way id="25871598" version="1" timestamp="2008-07-30T11:51:54Z" uid="43863" user="Rundling" changeset="627277">
    <nd ref="275513837"/>
    <nd ref="272799450"/>
    <nd ref="272798991"/>
    <nd ref="272798993"/>
    <nd ref="272798994"/>
    <nd ref="272798995"/>
    <tag k="created_by" v="Potlatch 0.10a"/>
    <tag k="highway" v="tertiary"/>
    <tag k="name " v="K17"/>
  </way>
  <way id="25871598" version="2" timestamp="2008-07-30T11:52:13Z" uid="43863" user="Rundling" changeset="627277">
    <nd ref="275513837"/>
    <nd ref="272799450"/>
    <nd ref="272798991"/>
    <nd ref="272798993"/>
    <nd ref="272798994"/>
    <nd ref="272798995"/>
    <tag k="created_by" v="Potlatch 0.10a"/>
    <tag k="highway" v="tertiary"/>
    <tag k="name" v="Stöckener Straße"/>
    <tag k="name_1" v="K17"/>
  </way>
  <way id="25871598" version="4" timestamp="2008-09-03T14:16:47Z" uid="43863" user="Rundling" changeset="516074">
    <nd ref="275513837"/>
    <nd ref="272799450"/>
    <nd ref="272798991"/>
    <nd ref="272798993"/>
    <nd ref="272798994"/>
    <nd ref="272798995"/>
    <tag k="created_by" v="Potlatch 0.10b"/>
    <tag k="highway" v="tertiary"/>
    <tag k="name" v="Stöckener Straße"/>
    <tag k="ref" v="K 17"/>
  </way>
  <way id="25871598" version="5" timestamp="2008-09-03T14:16:55Z" uid="43863" user="Rundling" changeset="516074">
    <nd ref="275513837"/>
    <nd ref="272799450"/>
    <nd ref="272798991"/>
    <nd ref="293401449"/>
    <nd ref="272798993"/>
    <nd ref="272798994"/>
    <nd ref="272798995"/>
    <tag k="created_by" v="Potlatch 0.10b"/>
    <tag k="highway" v="tertiary"/>
    <tag k="name" v="Stöckener Straße"/>
    <tag k="ref" v="K 17"/>
  </way>
  <way id="25871598" version="6" timestamp="2008-09-17T07:39:15Z" uid="43863" user="Rundling" changeset="651592">
    <nd ref="275513837"/>
    <nd ref="272799450"/>
    <nd ref="272798991"/>
    <nd ref="293401449"/>
    <nd ref="272798993"/>
    <nd ref="272798994"/>
    <nd ref="272798995"/>
    <tag k="created_by" v="Potlatch 0.10b"/>
    <tag k="highway" v="secondary"/>
    <tag k="name" v="Stöckener Straße"/>
    <tag k="ref" v="K 17"/>
  </way>
  <way id="25871598" version="8" timestamp="2008-12-21T12:51:09Z" uid="43863" user="Rundling" changeset="514034">
    <nd ref="275513837"/>
    <nd ref="272799450"/>
    <nd ref="272798991"/>
    <nd ref="293401449"/>
    <nd ref="272798993"/>
    <nd ref="272798994"/>
    <nd ref="272798995"/>
    <tag k="created_by" v="Potlatch 0.10f"/>
    <tag k="highway" v="tertiary"/>
    <tag k="name" v="Stöckener Straße"/>
    <tag k="ref" v="K 17"/>
  </way>
  <way id="25871598" version="9" timestamp="2009-01-27T20:39:02Z" uid="43863" user="Rundling" changeset="845097">
    <nd ref="275513837"/>
    <nd ref="272799450"/>
    <nd ref="272798991"/>
    <nd ref="293401449"/>
    <nd ref="272798993"/>
    <nd ref="272798995"/>
    <tag k="created_by" v="Potlatch 0.10f"/>
    <tag k="highway" v="tertiary"/>
    <tag k="name" v="Stöckener Straße"/>
    <tag k="ref" v="K 17"/>
  </way>
  <way id="25871598" version="10" timestamp="2009-03-02T19:41:47Z" uid="43863" user="Rundling" changeset="725996">
    <nd ref="275322375"/>
    <nd ref="283354393"/>
    <nd ref="275513837"/>
    <nd ref="354954954"/>
    <tag k="highway" v="tertiary"/>
    <tag k="ref" v="K 17"/>
  </way>
  <way id="25871598" version="14" timestamp="2010-05-09T06:36:14Z" uid="43863" user="Rundling" changeset="4645036">
    <nd ref="275322375"/>
    <nd ref="283354393"/>
    <nd ref="715598642"/>
    <nd ref="275513837"/>
    <nd ref="354954954"/>
    <tag k="highway" v="tertiary"/>
    <tag k="ref" v="K 17"/>
  </way>
  <way id="25871598" version="15" timestamp="2010-05-09T10:20:33Z" uid="43863" user="Rundling" changeset="4646699">
    <nd ref="275322375"/>
    <nd ref="283354393"/>
    <nd ref="727298445"/>
    <nd ref="727298444"/>
    <nd ref="715598642"/>
    <nd ref="275513837"/>
    <nd ref="354954954"/>
    <tag k="highway" v="tertiary"/>
    <tag k="ref" v="K 17"/>
  </way>
  <way id="25871598" version="16" timestamp="2010-06-07T20:53:19Z" uid="43863" user="Rundling" changeset="4932438">
    <nd ref="275322375"/>
    <nd ref="283354393"/>
    <nd ref="727298445"/>
    <nd ref="766891742"/>
    <nd ref="727298444"/>
    <nd ref="715598642"/>
    <nd ref="275513837"/>
    <nd ref="354954954"/>
    <tag k="highway" v="tertiary"/>
    <tag k="ref" v="K 17"/>
  </way>
  <way id="25871606" version="1" timestamp="2008-07-30T11:52:36Z" uid="43863" user="Rundling" changeset="627277">
    <nd ref="273839575"/>
    <nd ref="273839577"/>
    <tag k="created_by" v="Potlatch 0.10a"/>
    <tag k="highway" v="tertiary"/>
  </way>
  <way id="25871606" version="2" timestamp="2008-07-30T11:53:13Z" uid="43863" user="Rundling" changeset="627277">
    <nd ref="273839575"/>
    <nd ref="273839577"/>
    <tag k="created_by" v="Potlatch 0.10a"/>
    <tag k="highway" v="tertiary"/>
    <tag k="name" v="Riestedter Straße"/>
    <tag k="ref" v="K50"/>
  </way>
  <way id="25871606" version="3" timestamp="2008-08-12T11:55:24Z" uid="43863" user="Rundling" changeset="199305">
    <nd ref="273839575"/>
    <nd ref="273839577"/>
    <tag k="created_by" v="Potlatch 0.10b"/>
    <tag k="highway" v="tertiary"/>
    <tag k="name" v="Riestedter Straße"/>
    <tag k="ref" v="K 50"/>
  </way>
  <way id="25871606" version="4" timestamp="2008-10-19T15:40:54Z" uid="43863" user="Rundling" changeset="441157"/>
  <way id="25871628" version="1" timestamp="2008-07-30T11:54:02Z" uid="43863" user="Rundling" changeset="627277">
    <nd ref="31588860"/>
    <nd ref="31588861"/>
    <nd ref="31588863"/>
    <nd ref="31588865"/>
    <nd ref="31588867"/>
    <nd ref="31588868"/>
    <nd ref="275322375"/>
    <nd ref="31588870"/>
    <nd ref="277725143"/>
    <tag k="created_by" v="Potlatch 0.10a"/>
    <tag k="highway" v="primary"/>
    <tag k="ref" v="B191"/>
  </way>
  <way id="25871628" version="2" timestamp="2008-07-30T11:54:18Z" uid="43863" user="Rundling" changeset="627277">
    <nd ref="31588860"/>
    <nd ref="31588861"/>
    <nd ref="31588863"/>
    <nd ref="282207015"/>
    <tag k="created_by" v="Potlatch 0.10a"/>
    <tag k="highway" v="primary"/>
    <tag k="ref" v="B191"/>
  </way>
  <way id="25871628" version="3" timestamp="2008-07-30T11:54:34Z" uid="43863" user="Rundling" changeset="627277">
    <nd ref="31588860"/>
    <nd ref="31588861"/>
    <nd ref="31588863"/>
    <nd ref="282207015"/>
    <tag k="created_by" v="Potlatch 0.10a"/>
    <tag k="highway" v="primary"/>
    <tag k="name" v="Dannenberger Straße"/>
    <tag k="ref" v="B191"/>
  </way>
  <way id="25871628" version="4" timestamp="2008-08-15T09:40:15Z" uid="43863" user="Rundling" changeset="258413">
    <nd ref="31588860"/>
    <nd ref="288127640"/>
    <nd ref="31588861"/>
    <nd ref="31588863"/>
    <nd ref="282207015"/>
    <tag k="created_by" v="Potlatch 0.10b"/>
    <tag k="highway" v="primary"/>
    <tag k="name" v="Dannenberger Straße"/>
    <tag k="ref" v="B191"/>
  </way>
  <way id="25871628" version="5" timestamp="2008-09-03T14:17:35Z" uid="43863" user="Rundling" changeset="516074">
    <nd ref="31588860"/>
    <nd ref="288127640"/>
    <nd ref="31588861"/>
    <nd ref="31588863"/>
    <nd ref="293401540"/>
    <nd ref="282207015"/>
    <tag k="created_by" v="Potlatch 0.10b"/>
    <tag k="highway" v="primary"/>
    <tag k="name" v="Dannenberger Straße"/>
    <tag k="ref" v="B191"/>
  </way>
  <way id="25871628" version="7" timestamp="2008-12-08T21:59:12Z" uid="43863" user="Rundling" changeset="265858">
    <nd ref="31588860"/>
    <nd ref="288127640"/>
    <nd ref="31588861"/>
    <nd ref="31588863"/>
    <nd ref="317473806"/>
    <nd ref="293401540"/>
    <nd ref="282207015"/>
    <tag k="created_by" v="Potlatch 0.10b"/>
    <tag k="highway" v="primary"/>
    <tag k="name" v="Dannenberger Straße"/>
    <tag k="ref" v="B 191"/>
  </way>
  <way id="25871628" version="9" timestamp="2009-02-13T20:46:25Z" uid="43863" user="Rundling" changeset="402503">
    <nd ref="31588860"/>
    <nd ref="288127640"/>
    <nd ref="31588863"/>
    <nd ref="317473806"/>
    <nd ref="293401540"/>
    <nd ref="282207015"/>
    <tag k="created_by" v="Potlatch 0.10f"/>
    <tag k="highway" v="primary"/>
    <tag k="name" v="Dannenberger Straße"/>
    <tag k="ref" v="B 191"/>
  </way>
  <way id="25871628" version="10" timestamp="2009-02-13T21:36:58Z" uid="43863" user="Rundling" changeset="402503">
    <nd ref="31588860"/>
    <nd ref="288127640"/>
    <nd ref="31588863"/>
    <nd ref="317473806"/>
    <nd ref="282207015"/>
    <tag k="created_by" v="Potlatch 0.10f"/>
    <tag k="highway" v="primary"/>
    <tag k="name" v="Dannenberger Straße"/>
    <tag k="ref" v="B 191"/>
  </way>
  <way id="25871628" version="11" timestamp="2009-09-22T14:49:01Z" uid="43863" user="Rundling" changeset="2571711">
    <nd ref="31588860"/>
    <nd ref="288127640"/>
    <nd ref="31588863"/>
    <nd ref="317473806"/>
    <nd ref="282207015"/>
    <tag k="highway" v="primary"/>
    <tag k="name" v="Dannenberger Straße"/>
    <tag k="ref" v="B 191"/>
  </way>
  <way id="25871628" version="13" timestamp="2010-01-16T12:06:05Z" uid="43863" user="Rundling" changeset="3630818">
    <nd ref="31588860"/>
    <nd ref="288127640"/>
    <nd ref="31588863"/>
    <nd ref="317473806"/>
    <tag k="highway" v="primary"/>
    <tag k="maxspeed" v="60"/>
    <tag k="ref" v="B 191"/>
  </way>
  <way id="25871628" version="14" timestamp="2011-01-03T20:34:47Z" uid="43863" user="Rundling" changeset="6854337">
    <nd ref="31588860"/>
    <nd ref="288127640"/>
    <nd ref="1080975439"/>
    <nd ref="31588863"/>
    <nd ref="317473806"/>
    <tag k="highway" v="primary"/>
    <tag k="maxspeed" v="60"/>
    <tag k="ref" v="B 191"/>
  </way>
  <way id="25871631" version="1" timestamp="2008-07-30T11:54:18Z" uid="43863" user="Rundling" changeset="627277">
    <nd ref="282207015"/>
    <nd ref="31588865"/>
    <nd ref="31588867"/>
    <nd ref="31588868"/>
    <nd ref="275322375"/>
    <nd ref="31588870"/>
    <nd ref="277725143"/>
    <tag k="created_by" v="Potlatch 0.10a"/>
    <tag k="highway" v="primary"/>
    <tag k="ref" v="B191"/>
  </way>
  <way id="25871631" version="2" timestamp="2008-07-30T11:58:24Z" uid="43863" user="Rundling" changeset="627277">
    <nd ref="282207015"/>
    <nd ref="31588865"/>
    <nd ref="31588867"/>
    <nd ref="31588868"/>
    <nd ref="275322375"/>
    <tag k="created_by" v="Potlatch 0.10a"/>
    <tag k="highway" v="primary"/>
    <tag k="ref" v="B191"/>
  </way>
  <way id="25871631" version="3" timestamp="2008-08-06T14:43:29Z" uid="43863" user="Rundling" changeset="97652">
    <nd ref="282207015"/>
    <nd ref="31588865"/>
    <nd ref="31588867"/>
    <nd ref="31588868"/>
    <nd ref="275322375"/>
    <tag k="created_by" v="Potlatch 0.10b"/>
    <tag k="highway" v="primary"/>
    <tag k="ref" v="B 191"/>
  </way>
  <way id="25871631" version="4" timestamp="2008-09-03T14:17:21Z" uid="43863" user="Rundling" changeset="516074">
    <nd ref="282207015"/>
    <nd ref="31588865"/>
    <nd ref="31588867"/>
    <nd ref="31588868"/>
    <nd ref="275322375"/>
    <tag k="created_by" v="Potlatch 0.10b"/>
    <tag k="highway" v="primary"/>
    <tag k="ref" v="B 191"/>
  </way>
  <way id="25871631" version="6" timestamp="2009-02-14T19:51:56Z" uid="43863" user="Rundling" changeset="434119">
    <nd ref="282207015"/>
    <nd ref="31588865"/>
    <nd ref="345312909"/>
    <nd ref="345312913"/>
    <nd ref="31588867"/>
    <nd ref="31588868"/>
    <nd ref="283358932"/>
    <nd ref="275322375"/>
    <tag k="created_by" v="Potlatch 0.10b"/>
    <tag k="highway" v="primary"/>
    <tag k="ref" v="B 191"/>
  </way>
  <way id="25871631" version="7" timestamp="2009-05-15T05:22:13Z" uid="43863" user="Rundling" changeset="1195088">
    <nd ref="282207015"/>
    <nd ref="31588865"/>
    <nd ref="31588867"/>
    <nd ref="31588868"/>
    <nd ref="283358932"/>
    <nd ref="275322375"/>
    <tag k="created_by" v="Potlatch 0.10b"/>
    <tag k="highway" v="primary"/>
    <tag k="ref" v="B 191"/>
  </way>
  <way id="25871660" version="3" timestamp="2009-10-07T17:00:22Z" uid="86259" user="hasse_osm_korinthenkacker" changeset="2773624">
    <nd ref="284288299"/>
    <nd ref="282207293"/>
    <nd ref="282207294"/>
    <nd ref="282207295"/>
    <tag k="highway" v="service"/>
  </way>
  <way id="25871691" version="4" timestamp="2009-10-16T12:27:04Z" uid="27600" user="Islanit" changeset="2864228">
    <nd ref="280523472"/>
    <nd ref="282207814"/>
    <nd ref="282207811"/>
    <nd ref="282207809"/>
    <nd ref="282207807"/>
    <nd ref="282207804"/>
    <nd ref="282207802"/>
    <nd ref="282207800"/>
    <nd ref="282207797"/>
    <nd ref="282207795"/>
    <nd ref="282207793"/>
    <nd ref="282207765"/>
    <nd ref="282207767"/>
    <nd ref="282207769"/>
    <nd ref="282207771"/>
    <nd ref="282207773"/>
    <nd ref="282207776"/>
    <nd ref="282207778"/>
    <nd ref="282207780"/>
    <nd ref="282207782"/>
    <nd ref="282207784"/>
    <nd ref="506257456"/>
    <nd ref="282207786"/>
    <nd ref="282207822"/>
    <nd ref="282207789"/>
    <nd ref="282207791"/>
    <nd ref="533695277"/>
    <nd ref="454839845"/>
    <nd ref="454839846"/>
    <nd ref="454839847"/>
    <tag k="access" v="designated"/>
    <tag k="highway" v="track"/>
    <tag k="motorcar" v="no"/>
    <tag k="motorcycle" v="no"/>
    <tag k="surface" v="paved"/>
    <tag k="tracktype" v="grade1"/>
  </way>
  <way id="25871693" version="5" timestamp="2009-10-07T17:00:18Z" uid="86259" user="hasse_osm_korinthenkacker" changeset="2773624">
    <nd ref="282208081"/>
    <nd ref="282208174"/>
    <nd ref="282208145"/>
    <nd ref="358152785"/>
    <nd ref="282208031"/>
    <tag k="foot" v="yes"/>
    <tag k="highway" v="footway"/>
  </way>
  <way id="25871694" version="2" timestamp="2009-10-07T17:00:18Z" uid="86259" user="hasse_osm_korinthenkacker" changeset="2773624">
    <nd ref="282208081"/>
    <nd ref="281401574"/>
    <tag k="highway" v="steps"/>
  </way>
  <way id="25871710" version="2" timestamp="2009-10-07T17:00:17Z" uid="86259" user="hasse_osm_korinthenkacker" changeset="2773624">
    <nd ref="282208120"/>
    <nd ref="281401506"/>
    <tag k="foot" v="yes"/>
    <tag k="highway" v="footway"/>
  </way>
  <way id="25871746" version="2" timestamp="2009-10-07T17:00:13Z" uid="86259" user="hasse_osm_korinthenkacker" changeset="2773624">
    <nd ref="282208031"/>
    <nd ref="281401571"/>
    <tag k="highway" v="steps"/>
  </way>
  <way id="25871771" version="1" timestamp="2008-07-30T11:58:24Z" uid="43863" user="Rundling" changeset="627277">
    <nd ref="275322375"/>
    <nd ref="31588870"/>
    <nd ref="277725143"/>
    <tag k="created_by" v="Potlatch 0.10a"/>
    <tag k="highway" v="primary"/>
    <tag k="ref" v="B191"/>
  </way>
  <way id="25871771" version="2" timestamp="2008-07-30T11:58:46Z" uid="43863" user="Rundling" changeset="627277">
    <nd ref="275322375"/>
    <nd ref="31588870"/>
    <nd ref="277725143"/>
    <tag k="created_by" v="Potlatch 0.10a"/>
    <tag k="highway" v="primary"/>
    <tag k="name" v="Hauptstraße"/>
    <tag k="ref" v="B191"/>
  </way>
  <way id="25871771" version="3" timestamp="2008-08-04T16:14:15Z" uid="43863" user="Rundling" changeset="52400">
    <nd ref="275322375"/>
    <nd ref="31588870"/>
    <nd ref="283358930"/>
    <nd ref="277725143"/>
    <tag k="created_by" v="Potlatch 0.10a"/>
    <tag k="highway" v="primary"/>
    <tag k="name" v="Hauptstraße"/>
    <tag k="ref" v="B191"/>
  </way>
  <way id="25871771" version="4" timestamp="2008-08-04T19:51:21Z" uid="43863" user="Rundling" changeset="60791">
    <nd ref="275322375"/>
    <nd ref="31588870"/>
    <nd ref="283420266"/>
    <nd ref="283358930"/>
    <nd ref="277725143"/>
    <tag k="created_by" v="Potlatch 0.10b"/>
    <tag k="highway" v="primary"/>
    <tag k="name" v="Hauptstraße"/>
    <tag k="ref" v="B191"/>
  </way>
  <way id="25871771" version="5" timestamp="2008-08-06T14:43:19Z" uid="43863" user="Rundling" changeset="97652">
    <nd ref="275322375"/>
    <nd ref="31588870"/>
    <nd ref="283420266"/>
    <nd ref="283358930"/>
    <nd ref="277725143"/>
    <tag k="created_by" v="Potlatch 0.10b"/>
    <tag k="highway" v="primary"/>
    <tag k="name" v="Hauptstraße"/>
    <tag k="ref" v="B 191"/>
  </way>
  <way id="25871771" version="6" timestamp="2008-08-28T06:44:00Z" uid="43863" user="Rundling" changeset="433698">
    <nd ref="275322375"/>
    <nd ref="31588870"/>
    <nd ref="283420266"/>
    <nd ref="283358930"/>
    <nd ref="291689433"/>
    <tag k="created_by" v="Potlatch 0.10b"/>
    <tag k="highway" v="primary"/>
    <tag k="name" v="Hauptstraße"/>
    <tag k="ref" v="B 191"/>
  </way>
  <way id="25871771" version="7" timestamp="2008-08-28T06:45:39Z" uid="43863" user="Rundling" changeset="433698">
    <nd ref="275322375"/>
    <nd ref="31588870"/>
    <nd ref="283420266"/>
    <nd ref="283358930"/>
    <nd ref="291689433"/>
    <nd ref="291690033"/>
    <tag k="created_by" v="Potlatch 0.10b"/>
    <tag k="highway" v="primary"/>
    <tag k="name" v="Hauptstraße"/>
    <tag k="ref" v="B 191"/>
  </way>
  <way id="25871771" version="8" timestamp="2008-08-28T06:46:02Z" uid="43863" user="Rundling" changeset="433698">
    <nd ref="275322375"/>
    <nd ref="31588870"/>
    <nd ref="283420266"/>
    <nd ref="283358930"/>
    <nd ref="291689433"/>
    <tag k="created_by" v="Potlatch 0.10b"/>
    <tag k="highway" v="primary"/>
    <tag k="name" v="Hauptstraße"/>
    <tag k="ref" v="B 191"/>
  </way>
  <way id="25871771" version="9" timestamp="2008-08-28T06:46:40Z" uid="43863" user="Rundling" changeset="433698">
    <nd ref="275322375"/>
    <nd ref="31588870"/>
    <nd ref="283420266"/>
    <nd ref="283358930"/>
    <nd ref="291689433"/>
    <tag k="created_by" v="Potlatch 0.10b"/>
    <tag k="highway" v="primary"/>
    <tag k="name" v="Hauptstraße"/>
    <tag k="ref" v="B 191"/>
  </way>
  <way id="25871771" version="10" timestamp="2008-08-28T06:47:16Z" uid="43863" user="Rundling" changeset="433698">
    <nd ref="275322375"/>
    <nd ref="31588870"/>
    <nd ref="283420266"/>
    <nd ref="283358930"/>
    <nd ref="291689433"/>
    <nd ref="291690033"/>
    <tag k="created_by" v="Potlatch 0.10b"/>
    <tag k="highway" v="primary"/>
    <tag k="name" v="Hauptstraße"/>
    <tag k="ref" v="B 191"/>
  </way>
  <way id="25871771" version="11" timestamp="2008-08-28T06:47:38Z" uid="43863" user="Rundling" changeset="433698">
    <nd ref="275322375"/>
    <nd ref="31588870"/>
    <nd ref="283420266"/>
    <nd ref="283358930"/>
    <nd ref="291689433"/>
    <tag k="created_by" v="Potlatch 0.10b"/>
    <tag k="highway" v="primary"/>
    <tag k="name" v="Hauptstraße"/>
    <tag k="ref" v="B 191"/>
  </way>
  <way id="25871771" version="12" timestamp="2008-08-28T06:48:05Z" uid="43863" user="Rundling" changeset="433698">
    <nd ref="275322375"/>
    <nd ref="31588870"/>
    <nd ref="283420266"/>
    <nd ref="283358930"/>
    <nd ref="291689433"/>
    <nd ref="277725448"/>
    <tag k="created_by" v="Potlatch 0.10b"/>
    <tag k="highway" v="primary"/>
    <tag k="name" v="Hauptstraße"/>
    <tag k="ref" v="B 191"/>
  </way>
  <way id="25871771" version="14" timestamp="2009-09-20T11:39:29Z" uid="43863" user="Rundling" changeset="2544324">
    <nd ref="275322375"/>
    <nd ref="31588870"/>
    <nd ref="283358930"/>
    <nd ref="277725448"/>
    <tag k="highway" v="primary"/>
    <tag k="name" v="Hauptstraße"/>
    <tag k="ref" v="B 191"/>
  </way>
  <way id="25871772" version="3" timestamp="2009-10-07T17:00:12Z" uid="86259" user="hasse_osm_korinthenkacker" changeset="2773624">
    <nd ref="282208198"/>
    <nd ref="281401569"/>
    <tag k="highway" v="steps"/>
  </way>
  <way id="25871776" version="1" timestamp="2008-07-30T11:58:42Z" uid="43863" user="Rundling" changeset="627277">
    <nd ref="282208219"/>
    <nd ref="31588872"/>
    <nd ref="31588874"/>
    <nd ref="31588875"/>
    <nd ref="31588878"/>
    <nd ref="31588880"/>
    <nd ref="31588881"/>
    <nd ref="31588883"/>
    <nd ref="278797519"/>
    <nd ref="31588884"/>
    <nd ref="278783864"/>
    <nd ref="31588885"/>
    <nd ref="31588887"/>
    <nd ref="31588888"/>
    <nd ref="31588889"/>
    <nd ref="31588890"/>
    <nd ref="31588892"/>
    <nd ref="31588893"/>
    <nd ref="281726292"/>
    <tag k="created_by" v="Potlatch 0.10a"/>
    <tag k="highway" v="primary"/>
    <tag k="ref" v="B191"/>
  </way>
  <way id="25871776" version="2" timestamp="2008-08-06T14:43:09Z" uid="43863" user="Rundling" changeset="97652">
    <nd ref="282208219"/>
    <nd ref="31588872"/>
    <nd ref="31588874"/>
    <nd ref="31588875"/>
    <nd ref="31588878"/>
    <nd ref="31588880"/>
    <nd ref="31588881"/>
    <nd ref="31588883"/>
    <nd ref="278797519"/>
    <nd ref="31588884"/>
    <nd ref="278783864"/>
    <nd ref="31588885"/>
    <nd ref="31588887"/>
    <nd ref="31588888"/>
    <nd ref="31588889"/>
    <nd ref="31588890"/>
    <nd ref="31588892"/>
    <nd ref="31588893"/>
    <nd ref="281726292"/>
    <tag k="created_by" v="Potlatch 0.10b"/>
    <tag k="highway" v="primary"/>
    <tag k="ref" v="B 191"/>
  </way>
  <way id="25871776" version="3" timestamp="2008-08-07T18:02:50Z" uid="43863" user="Rundling" changeset="128023">
    <nd ref="282208219"/>
    <nd ref="31588872"/>
    <nd ref="31588874"/>
    <nd ref="31588875"/>
    <nd ref="31588878"/>
    <nd ref="31588880"/>
    <nd ref="285981567"/>
    <nd ref="31588881"/>
    <nd ref="31588883"/>
    <nd ref="278797519"/>
    <nd ref="31588884"/>
    <nd ref="278783864"/>
    <nd ref="31588885"/>
    <nd ref="31588887"/>
    <nd ref="31588888"/>
    <nd ref="31588889"/>
    <nd ref="31588890"/>
    <nd ref="31588892"/>
    <nd ref="31588893"/>
    <nd ref="281726292"/>
    <tag k="created_by" v="Potlatch 0.10b"/>
    <tag k="highway" v="primary"/>
    <tag k="ref" v="B 191"/>
  </way>
  <way id="25871776" version="5" timestamp="2008-10-16T13:34:44Z" uid="43863" user="Rundling" changeset="368993">
    <nd ref="282208219"/>
    <nd ref="31588872"/>
    <nd ref="31588874"/>
    <nd ref="31588875"/>
    <nd ref="31588878"/>
    <nd ref="31588880"/>
    <nd ref="285981567"/>
    <nd ref="31588881"/>
    <nd ref="31588883"/>
    <nd ref="278797519"/>
    <nd ref="278788078"/>
    <nd ref="31588884"/>
    <nd ref="278783864"/>
    <nd ref="31588885"/>
    <nd ref="31588887"/>
    <nd ref="31588888"/>
    <nd ref="31588889"/>
    <nd ref="31588890"/>
    <nd ref="31588892"/>
    <nd ref="31588893"/>
    <nd ref="281726292"/>
    <tag k="created_by" v="Potlatch 0.10e"/>
    <tag k="highway" v="primary"/>
    <tag k="ref" v="B 191"/>
  </way>
  <way id="25871776" version="6" timestamp="2008-11-04T07:33:13Z" uid="43863" user="Rundling" changeset="672865">
    <nd ref="291689593"/>
    <nd ref="282208219"/>
    <nd ref="31588872"/>
    <nd ref="31588874"/>
    <nd ref="31588875"/>
    <nd ref="31588878"/>
    <nd ref="31588880"/>
    <nd ref="285981567"/>
    <nd ref="31588881"/>
    <nd ref="31588883"/>
    <nd ref="278797519"/>
    <nd ref="278788078"/>
    <nd ref="31588884"/>
    <nd ref="278783864"/>
    <nd ref="31588885"/>
    <nd ref="31588887"/>
    <nd ref="31588888"/>
    <nd ref="31588889"/>
    <nd ref="31588890"/>
    <nd ref="31588892"/>
    <nd ref="31588893"/>
    <nd ref="281726292"/>
    <tag k="created_by" v="Potlatch 0.10f"/>
    <tag k="highway" v="primary"/>
    <tag k="ref" v="B 191"/>
  </way>
  <way id="25871776" version="7" timestamp="2008-11-04T08:58:47Z" uid="43863" user="Rundling" changeset="673209">
    <nd ref="309833630"/>
    <nd ref="309833637"/>
    <tag k="created_by" v="Potlatch 0.10f"/>
    <tag k="highway" v="primary"/>
    <tag k="name" v="Hauptstraße"/>
    <tag k="ref" v="B 191"/>
  </way>
  <way id="25871776" version="8" timestamp="2008-11-06T09:55:51Z" uid="43863" user="Rundling" changeset="692704"/>
  <way id="25871779" version="3" timestamp="2009-10-07T17:00:16Z" uid="86259" user="hasse_osm_korinthenkacker" changeset="2773624">
    <nd ref="282208249"/>
    <nd ref="282208250"/>
    <nd ref="282208251"/>
    <nd ref="282208252"/>
    <nd ref="282208249"/>
    <tag k="leisure" v="playground"/>
  </way>
  <way id="25871797" version="1" timestamp="2008-07-30T11:59:33Z" uid="43863" user="Rundling" changeset="627277">
    <nd ref="274229857"/>
    <nd ref="274229856"/>
    <nd ref="274229855"/>
    <nd ref="274229854"/>
    <nd ref="274229853"/>
    <nd ref="274551572"/>
    <nd ref="274551629"/>
    <nd ref="274229852"/>
    <nd ref="274229851"/>
    <nd ref="274229850"/>
    <nd ref="274229849"/>
    <nd ref="274229848"/>
    <nd ref="278783255"/>
    <nd ref="274229847"/>
    <nd ref="274229846"/>
    <nd ref="274229845"/>
    <nd ref="274229844"/>
    <nd ref="274229843"/>
    <tag k="created_by" v="Potlatch 0.10a"/>
    <tag k="highway" v="secondary"/>
    <tag k="name" v="L254"/>
    <tag k="ref" v="L254"/>
  </way>
  <way id="25871797" version="2" timestamp="2008-07-30T11:59:58Z" uid="43863" user="Rundling" changeset="627277">
    <nd ref="274229857"/>
    <nd ref="274229856"/>
    <nd ref="274229855"/>
    <nd ref="274229854"/>
    <tag k="created_by" v="Potlatch 0.10a"/>
    <tag k="highway" v="secondary"/>
    <tag k="ref" v="L254"/>
  </way>
  <way id="25871797" version="3" timestamp="2008-08-06T14:43:08Z" uid="43863" user="Rundling" changeset="97652">
    <nd ref="274229857"/>
    <nd ref="274229856"/>
    <nd ref="274229855"/>
    <nd ref="274229854"/>
    <tag k="created_by" v="Potlatch 0.10b"/>
    <tag k="highway" v="secondary"/>
    <tag k="ref" v="L 254"/>
  </way>
  <way id="25871797" version="4" timestamp="2008-08-26T11:59:10Z" uid="43863" user="Rundling" changeset="411927"/>
  <way id="25871803" version="6" timestamp="2009-10-07T17:00:14Z" uid="86259" user="hasse_osm_korinthenkacker" changeset="2773624">
    <nd ref="287903351"/>
    <nd ref="287903352"/>
    <nd ref="282208406"/>
    <nd ref="282208450"/>
    <nd ref="282208536"/>
    <nd ref="282208397"/>
    <nd ref="282208398"/>
    <nd ref="282208399"/>
    <nd ref="282208409"/>
    <tag k="foot" v="yes"/>
    <tag k="highway" v="footway"/>
  </way>
  <way id="25871807" version="1" timestamp="2008-07-30T11:59:58Z" uid="43863" user="Rundling" changeset="627277">
    <nd ref="274229854"/>
    <nd ref="274229853"/>
    <nd ref="274551572"/>
    <nd ref="274551629"/>
    <nd ref="274229852"/>
    <nd ref="274229851"/>
    <nd ref="274229850"/>
    <nd ref="274229849"/>
    <nd ref="274229848"/>
    <nd ref="278783255"/>
    <nd ref="274229847"/>
    <nd ref="274229846"/>
    <nd ref="274229845"/>
    <nd ref="274229844"/>
    <nd ref="274229843"/>
    <tag k="created_by" v="Potlatch 0.10a"/>
    <tag k="highway" v="secondary"/>
    <tag k="ref" v="L254"/>
  </way>
  <way id="25871807" version="2" timestamp="2008-07-30T12:00:13Z" uid="43863" user="Rundling" changeset="627277">
    <nd ref="274229854"/>
    <nd ref="274229853"/>
    <nd ref="274551572"/>
    <nd ref="274551629"/>
    <nd ref="282208510"/>
    <tag k="created_by" v="Potlatch 0.10a"/>
    <tag k="highway" v="secondary"/>
    <tag k="ref" v="L254"/>
  </way>
  <way id="25871807" version="3" timestamp="2008-07-30T12:00:27Z" uid="43863" user="Rundling" changeset="627277">
    <nd ref="274229854"/>
    <nd ref="274229853"/>
    <nd ref="274551572"/>
    <nd ref="274551629"/>
    <nd ref="282208510"/>
    <tag k="created_by" v="Potlatch 0.10a"/>
    <tag k="highway" v="secondary"/>
    <tag k="name" v="Jarlitzer Ring"/>
    <tag k="ref" v="L254"/>
  </way>
  <way id="25871807" version="4" timestamp="2008-08-06T14:43:03Z" uid="43863" user="Rundling" changeset="97652">
    <nd ref="274229854"/>
    <nd ref="274229853"/>
    <nd ref="274551572"/>
    <nd ref="274551629"/>
    <nd ref="282208510"/>
    <tag k="created_by" v="Potlatch 0.10b"/>
    <tag k="highway" v="secondary"/>
    <tag k="name" v="Jarlitzer Ring"/>
    <tag k="ref" v="L 254"/>
  </way>
  <way id="25871807" version="6" timestamp="2009-02-10T09:27:43Z" uid="43863" user="Rundling" changeset="317220">
    <nd ref="344057193"/>
    <nd ref="344057196"/>
    <nd ref="344057198"/>
    <nd ref="344057200"/>
    <nd ref="344057204"/>
    <nd ref="282208510"/>
    <tag k="created_by" v="Potlatch 0.10b"/>
    <tag k="highway" v="secondary"/>
    <tag k="name" v="Jarlitzer Ring"/>
    <tag k="ref" v="L 254"/>
  </way>
  <way id="25871807" version="7" timestamp="2009-06-29T13:10:52Z" uid="43863" user="Rundling" changeset="1676842">
    <nd ref="344057193"/>
    <nd ref="344057196"/>
    <nd ref="344057198"/>
    <nd ref="344057200"/>
    <nd ref="344057204"/>
    <nd ref="282208510"/>
    <tag k="highway" v="secondary"/>
    <tag k="name" v="Jarlitzer Ring"/>
    <tag k="ref" v="L 254"/>
  </way>
  <way id="25871807" version="9" timestamp="2009-10-31T13:38:24Z" uid="43863" user="Rundling" changeset="2997375">
    <nd ref="548634670"/>
    <nd ref="344057193"/>
    <nd ref="344057196"/>
    <nd ref="344057198"/>
    <nd ref="344057200"/>
    <nd ref="344057204"/>
    <nd ref="282208510"/>
    <tag k="highway" v="unclassified"/>
    <tag k="name" v="Jarlitzer Ring"/>
  </way>
  <way id="25871807" version="10" timestamp="2009-11-01T11:47:57Z" uid="43863" user="Rundling" changeset="3005416">
    <nd ref="548634670"/>
    <nd ref="344057193"/>
    <nd ref="344057196"/>
    <nd ref="344057198"/>
    <nd ref="344057200"/>
    <nd ref="344057204"/>
    <nd ref="282208510"/>
    <tag k="highway" v="secondary"/>
    <tag k="name" v="Jarlitzer Ring"/>
    <tag k="ref" v="L 254"/>
  </way>
  <way id="25871813" version="1" timestamp="2008-07-30T12:00:12Z" uid="43863" user="Rundling" changeset="627277">
    <nd ref="282208510"/>
    <nd ref="274229852"/>
    <nd ref="274229851"/>
    <nd ref="274229850"/>
    <nd ref="274229849"/>
    <nd ref="274229848"/>
    <nd ref="278783255"/>
    <nd ref="274229847"/>
    <nd ref="274229846"/>
    <nd ref="274229845"/>
    <nd ref="274229844"/>
    <nd ref="274229843"/>
    <tag k="created_by" v="Potlatch 0.10a"/>
    <tag k="highway" v="secondary"/>
    <tag k="ref" v="L254"/>
  </way>
  <way id="25871813" version="2" timestamp="2008-08-04T14:36:27Z" uid="43863" user="Rundling" changeset="50112">
    <nd ref="282208510"/>
    <nd ref="274229852"/>
    <nd ref="274229851"/>
    <nd ref="274229850"/>
    <nd ref="274229849"/>
    <nd ref="274229848"/>
    <nd ref="278783255"/>
    <nd ref="274229847"/>
    <nd ref="274229846"/>
    <nd ref="274229845"/>
    <nd ref="274229844"/>
    <nd ref="274229843"/>
    <tag k="created_by" v="Potlatch 0.10b"/>
    <tag k="highway" v="secondary"/>
    <tag k="ref" v="L 254"/>
  </way>
  <way id="25871813" version="4" timestamp="2008-09-15T14:14:28Z" uid="43863" user="Rundling" changeset="643466">
    <nd ref="282208510"/>
    <nd ref="274229852"/>
    <nd ref="274229851"/>
    <nd ref="274229850"/>
    <nd ref="274229849"/>
    <nd ref="274229848"/>
    <nd ref="278783255"/>
    <nd ref="274229847"/>
    <nd ref="274229846"/>
    <nd ref="274229845"/>
    <nd ref="274229844"/>
    <nd ref="295097833"/>
    <nd ref="271294607"/>
    <tag k="created_by" v="Potlatch 0.10b"/>
    <tag k="highway" v="secondary"/>
    <tag k="ref" v="L 254"/>
  </way>
  <way id="25871813" version="5" timestamp="2008-09-28T09:21:23Z" uid="43863" user="Rundling" changeset="713017">
    <nd ref="282208510"/>
    <nd ref="274229852"/>
    <nd ref="274229851"/>
    <nd ref="274229850"/>
    <nd ref="274229849"/>
    <nd ref="274229848"/>
    <nd ref="278783255"/>
    <nd ref="274229847"/>
    <nd ref="274229846"/>
    <nd ref="274229845"/>
    <nd ref="274229844"/>
    <nd ref="295097833"/>
    <nd ref="300518634"/>
    <nd ref="271294607"/>
    <tag k="created_by" v="Potlatch 0.10b"/>
    <tag k="highway" v="secondary"/>
    <tag k="ref" v="L 254"/>
  </way>
  <way id="25871813" version="7" timestamp="2008-10-14T12:46:18Z" uid="43863" user="Rundling" changeset="334890">
    <nd ref="282208510"/>
    <nd ref="274229852"/>
    <nd ref="274229851"/>
    <nd ref="274229850"/>
    <nd ref="278783473"/>
    <nd ref="274229849"/>
    <nd ref="274229848"/>
    <nd ref="278783255"/>
    <nd ref="274229847"/>
    <nd ref="274229846"/>
    <nd ref="274229845"/>
    <nd ref="274229844"/>
    <nd ref="300518634"/>
    <nd ref="271294607"/>
    <tag k="created_by" v="Potlatch 0.10b"/>
    <tag k="highway" v="secondary"/>
    <tag k="ref" v="L 254"/>
  </way>
  <way id="25871813" version="8" timestamp="2008-12-28T11:11:24Z" uid="43863" user="Rundling" changeset="641900">
    <nd ref="282208510"/>
    <nd ref="274229852"/>
    <nd ref="274229851"/>
    <nd ref="274229850"/>
    <nd ref="278783473"/>
    <nd ref="274229849"/>
    <nd ref="274229848"/>
    <nd ref="278783255"/>
    <nd ref="274229847"/>
    <nd ref="274229846"/>
    <nd ref="274229845"/>
    <nd ref="322493374"/>
    <nd ref="274229844"/>
    <nd ref="300518634"/>
    <nd ref="271294607"/>
    <tag k="created_by" v="Potlatch 0.10b"/>
    <tag k="highway" v="secondary"/>
    <tag k="ref" v="L 254"/>
  </way>
  <way id="25871813" version="9" timestamp="2009-01-07T15:57:21Z" uid="43863" user="Rundling" changeset="751578">
    <nd ref="282208510"/>
    <nd ref="274229852"/>
    <nd ref="274229851"/>
    <nd ref="274229850"/>
    <nd ref="278783473"/>
    <nd ref="274229849"/>
    <nd ref="274229848"/>
    <nd ref="278783255"/>
    <nd ref="274229847"/>
    <nd ref="274229846"/>
    <nd ref="274229845"/>
    <nd ref="322493374"/>
    <nd ref="274229844"/>
    <nd ref="300518634"/>
    <tag k="created_by" v="Potlatch 0.10b"/>
    <tag k="highway" v="secondary"/>
    <tag k="ref" v="L 254"/>
  </way>
  <way id="25871813" version="10" timestamp="2009-02-01T19:49:27Z" uid="43863" user="Rundling" changeset="34014">
    <nd ref="282208510"/>
    <nd ref="274229852"/>
    <nd ref="339835780"/>
    <nd ref="274229851"/>
    <nd ref="274229850"/>
    <nd ref="278783473"/>
    <nd ref="274229849"/>
    <nd ref="274229848"/>
    <nd ref="278783255"/>
    <nd ref="274229847"/>
    <nd ref="274229846"/>
    <nd ref="274229845"/>
    <nd ref="322493374"/>
    <nd ref="274229844"/>
    <nd ref="300518634"/>
    <tag k="created_by" v="Potlatch 0.10b"/>
    <tag k="highway" v="secondary"/>
    <tag k="ref" v="L 254"/>
  </way>
  <way id="25871813" version="11" timestamp="2009-02-06T07:22:19Z" uid="43863" user="Rundling" changeset="181829">
    <nd ref="282208510"/>
    <nd ref="274229852"/>
    <nd ref="339835780"/>
    <nd ref="274229851"/>
    <nd ref="274229850"/>
    <nd ref="278783473"/>
    <nd ref="274229849"/>
    <nd ref="274229848"/>
    <nd ref="278783255"/>
    <nd ref="274229847"/>
    <nd ref="274229846"/>
    <nd ref="341737098"/>
    <nd ref="274229845"/>
    <nd ref="341737100"/>
    <nd ref="322493374"/>
    <nd ref="274229844"/>
    <nd ref="300518634"/>
    <tag k="created_by" v="Potlatch 0.10b"/>
    <tag k="highway" v="secondary"/>
    <tag k="ref" v="L 254"/>
  </way>
  <way id="25871813" version="12" timestamp="2009-02-06T09:31:28Z" uid="43863" user="Rundling" changeset="185545">
    <nd ref="282208510"/>
    <nd ref="274229852"/>
    <nd ref="339835780"/>
    <nd ref="274229851"/>
    <nd ref="274229850"/>
    <nd ref="278783473"/>
    <nd ref="274229849"/>
    <nd ref="274229848"/>
    <nd ref="278783255"/>
    <nd ref="274229847"/>
    <nd ref="274229846"/>
    <nd ref="341737098"/>
    <nd ref="341737100"/>
    <nd ref="322493374"/>
    <nd ref="274229844"/>
    <nd ref="300518634"/>
    <tag k="created_by" v="Potlatch 0.10b"/>
    <tag k="highway" v="secondary"/>
    <tag k="ref" v="L 254"/>
  </way>
  <way id="25871813" version="13" timestamp="2009-02-06T14:45:05Z" uid="43863" user="Rundling" changeset="187520">
    <nd ref="282208510"/>
    <nd ref="274229852"/>
    <nd ref="342038208"/>
    <nd ref="339835780"/>
    <nd ref="274229851"/>
    <nd ref="274229850"/>
    <nd ref="278783473"/>
    <nd ref="274229849"/>
    <nd ref="274229848"/>
    <nd ref="278783255"/>
    <nd ref="274229847"/>
    <nd ref="274229846"/>
    <nd ref="341737098"/>
    <nd ref="341737100"/>
    <nd ref="322493374"/>
    <nd ref="274229844"/>
    <nd ref="300518634"/>
    <tag k="created_by" v="Potlatch 0.10b"/>
    <tag k="highway" v="secondary"/>
    <tag k="ref" v="L 254"/>
  </way>
  <way id="25871813" version="14" timestamp="2009-02-10T09:27:39Z" uid="43863" user="Rundling" changeset="317220">
    <nd ref="282208510"/>
    <nd ref="344057209"/>
    <nd ref="342038208"/>
    <nd ref="344057215"/>
    <nd ref="344057217"/>
    <nd ref="344057220"/>
    <nd ref="344057222"/>
    <nd ref="344057224"/>
    <nd ref="344057227"/>
    <nd ref="344057229"/>
    <nd ref="344057231"/>
    <nd ref="344057233"/>
    <nd ref="344057236"/>
    <nd ref="344057239"/>
    <nd ref="322493374"/>
    <nd ref="344057243"/>
    <nd ref="300518634"/>
    <tag k="created_by" v="Potlatch 0.10b"/>
    <tag k="highway" v="secondary"/>
    <tag k="ref" v="L 254"/>
  </way>
  <way id="25871813" version="17" timestamp="2009-03-01T12:27:58Z" uid="43863" user="Rundling" changeset="711371">
    <nd ref="282208510"/>
    <nd ref="344057209"/>
    <nd ref="342038208"/>
    <nd ref="344057215"/>
    <nd ref="344057217"/>
    <nd ref="344057220"/>
    <nd ref="344057222"/>
    <nd ref="344057224"/>
    <nd ref="344057227"/>
    <nd ref="344057229"/>
    <nd ref="344057231"/>
    <nd ref="344057233"/>
    <nd ref="344057236"/>
    <nd ref="344057239"/>
    <nd ref="322493374"/>
    <nd ref="344057243"/>
    <nd ref="354478027"/>
    <tag k="created_by" v="Potlatch 0.10b"/>
    <tag k="highway" v="secondary"/>
    <tag k="ref" v="L 254"/>
  </way>
  <way id="25871813" version="18" timestamp="2009-06-29T13:10:52Z" uid="43863" user="Rundling" changeset="1676842">
    <nd ref="282208510"/>
    <nd ref="344057217"/>
    <nd ref="344057220"/>
    <nd ref="344057222"/>
    <nd ref="344057224"/>
    <nd ref="344057227"/>
    <nd ref="344057229"/>
    <nd ref="344057231"/>
    <nd ref="344057233"/>
    <nd ref="344057236"/>
    <nd ref="344057239"/>
    <nd ref="322493374"/>
    <nd ref="344057243"/>
    <nd ref="354478027"/>
    <tag k="highway" v="secondary"/>
    <tag k="ref" v="L 254"/>
  </way>
  <way id="25871813" version="20" timestamp="2010-07-19T18:19:42Z" uid="43863" user="Rundling" changeset="5263711">
    <nd ref="282208510"/>
    <nd ref="344057217"/>
    <nd ref="344057222"/>
    <nd ref="344057229"/>
    <nd ref="344057233"/>
    <nd ref="344057239"/>
    <nd ref="322493374"/>
    <nd ref="344057243"/>
    <nd ref="354478027"/>
    <tag k="highway" v="secondary"/>
    <tag k="maxspeed" v="100"/>
    <tag k="ref" v="L 254"/>
  </way>
  <way id="25871819" version="4" timestamp="2009-10-07T17:00:09Z" uid="86259" user="hasse_osm_korinthenkacker" changeset="2773624">
    <nd ref="282208409"/>
    <nd ref="282208452"/>
    <tag k="foot" v="yes"/>
    <tag k="highway" v="footway"/>
    <tag k="layer" v="-1"/>
    <tag k="tunnel" v="yes"/>
  </way>
  <way id="25871820" version="3" timestamp="2009-10-07T17:00:09Z" uid="86259" user="hasse_osm_korinthenkacker" changeset="2773624">
    <nd ref="282208452"/>
    <nd ref="282208401"/>
    <nd ref="287903092"/>
    <tag k="foot" v="yes"/>
    <tag k="highway" v="footway"/>
  </way>
  <way id="25871826" version="1" timestamp="2008-07-30T12:01:56Z" uid="43863" user="Rundling" changeset="627277">
    <nd ref="274551572"/>
    <nd ref="275321322"/>
    <nd ref="277414998"/>
    <nd ref="275321323"/>
    <nd ref="277415115"/>
    <nd ref="275321324"/>
    <nd ref="275321325"/>
    <nd ref="275321326"/>
    <tag k="created_by" v="Potlatch 0.10a"/>
    <tag k="highway" v="residential"/>
    <tag k="name" v="Jarlitzer Ring"/>
  </way>
  <way id="25871826" version="3" timestamp="2008-10-16T13:31:34Z" uid="43863" user="Rundling" changeset="368993">
    <nd ref="274551572"/>
    <nd ref="275321322"/>
    <nd ref="277414998"/>
    <nd ref="275321323"/>
    <nd ref="277415115"/>
    <nd ref="275321324"/>
    <nd ref="275513832"/>
    <nd ref="275321325"/>
    <nd ref="275321326"/>
    <tag k="created_by" v="Potlatch 0.10e"/>
    <tag k="highway" v="residential"/>
    <tag k="name" v="Jarlitzer Ring"/>
  </way>
  <way id="25871826" version="4" timestamp="2008-10-16T13:31:40Z" uid="43863" user="Rundling" changeset="368993">
    <nd ref="274551572"/>
    <nd ref="275321322"/>
    <nd ref="277414998"/>
    <nd ref="275321323"/>
    <nd ref="277415115"/>
    <nd ref="275321324"/>
    <nd ref="275513832"/>
    <nd ref="275321325"/>
    <nd ref="275321326"/>
    <tag k="created_by" v="Potlatch 0.10e"/>
    <tag k="highway" v="residential"/>
    <tag k="name" v="Jarlitzer Ring"/>
  </way>
  <way id="25871826" version="5" timestamp="2009-02-10T09:27:38Z" uid="43863" user="Rundling" changeset="317220">
    <nd ref="344057200"/>
    <nd ref="275321322"/>
    <nd ref="277414998"/>
    <nd ref="275321323"/>
    <nd ref="277415115"/>
    <nd ref="275321324"/>
    <nd ref="275513832"/>
    <nd ref="275321325"/>
    <nd ref="275321326"/>
    <tag k="created_by" v="Potlatch 0.10e"/>
    <tag k="highway" v="residential"/>
    <tag k="name" v="Jarlitzer Ring"/>
  </way>
  <way id="25871826" version="6" timestamp="2009-06-29T14:42:44Z" uid="43863" user="Rundling" changeset="1678575">
    <nd ref="344057200"/>
    <nd ref="275321322"/>
    <nd ref="277414998"/>
    <nd ref="275321323"/>
    <nd ref="277415115"/>
    <nd ref="275321324"/>
    <nd ref="275321325"/>
    <nd ref="275321326"/>
    <tag k="highway" v="residential"/>
    <tag k="name" v="Jarlitzer Ring"/>
  </way>
  <way id="25871826" version="8" timestamp="2009-10-31T14:35:29Z" uid="43863" user="Rundling" changeset="2997887"/>
  <way id="25871848" version="2" timestamp="2009-10-07T17:00:11Z" uid="86259" user="hasse_osm_korinthenkacker" changeset="2773624">
    <nd ref="282209040"/>
    <nd ref="282209041"/>
    <nd ref="282209042"/>
    <nd ref="282209043"/>
    <nd ref="282209044"/>
    <nd ref="282209040"/>
    <tag k="layer" v="-1"/>
    <tag k="leisure" v="playground"/>
  </way>
  <way id="25871863" version="1" timestamp="2008-07-30T12:04:52Z" uid="43863" user="Rundling" changeset="627277">
    <nd ref="271358749"/>
    <nd ref="271359778"/>
    <nd ref="271359779"/>
    <nd ref="271359780"/>
    <nd ref="271359781"/>
    <nd ref="271359782"/>
    <nd ref="271359783"/>
    <nd ref="271359784"/>
    <nd ref="271359785"/>
    <nd ref="271359786"/>
    <nd ref="271359787"/>
    <nd ref="271359788"/>
    <nd ref="271359789"/>
    <nd ref="271359790"/>
    <nd ref="271359791"/>
    <nd ref="271359792"/>
    <nd ref="274293212"/>
    <nd ref="271359793"/>
    <nd ref="271360811"/>
    <nd ref="271359794"/>
    <nd ref="271359795"/>
    <nd ref="271360732"/>
    <nd ref="271359796"/>
    <tag k="created_by" v="Potlatch 0.10a"/>
    <tag k="highway" v="residential"/>
    <tag k="name" v="Bodenteicher Straße"/>
    <tag k="ref" v="L265"/>
  </way>
  <way id="25871863" version="2" timestamp="2008-07-30T12:05:12Z" uid="43863" user="Rundling" changeset="627277">
    <nd ref="271358749"/>
    <nd ref="271359778"/>
    <nd ref="271359779"/>
    <nd ref="271359780"/>
    <nd ref="271359781"/>
    <nd ref="271359782"/>
    <nd ref="271359783"/>
    <nd ref="271359784"/>
    <nd ref="271359785"/>
    <nd ref="271359786"/>
    <nd ref="271359787"/>
    <nd ref="271359788"/>
    <nd ref="271359789"/>
    <nd ref="271359790"/>
    <nd ref="271359791"/>
    <nd ref="271359792"/>
    <nd ref="274293212"/>
    <nd ref="271359793"/>
    <nd ref="271360811"/>
    <nd ref="271359794"/>
    <nd ref="271359795"/>
    <nd ref="271360732"/>
    <nd ref="271359796"/>
    <tag k="created_by" v="Potlatch 0.10a"/>
    <tag k="highway" v="secondary"/>
    <tag k="name" v="Bodenteicher Straße"/>
    <tag k="ref" v="L265"/>
  </way>
  <way id="25871863" version="3" timestamp="2008-08-04T13:58:37Z" uid="43863" user="Rundling" changeset="50112">
    <nd ref="271358749"/>
    <nd ref="271359778"/>
    <nd ref="271359779"/>
    <nd ref="271359780"/>
    <nd ref="271359781"/>
    <nd ref="271359782"/>
    <nd ref="271359783"/>
    <nd ref="271359784"/>
    <nd ref="271359785"/>
    <nd ref="271359786"/>
    <nd ref="271359787"/>
    <nd ref="271359788"/>
    <nd ref="271359789"/>
    <nd ref="271359790"/>
    <nd ref="271359791"/>
    <nd ref="271359792"/>
    <nd ref="274293212"/>
    <nd ref="271359793"/>
    <nd ref="271360811"/>
    <nd ref="271359794"/>
    <nd ref="271359795"/>
    <nd ref="271360732"/>
    <nd ref="271359796"/>
    <tag k="created_by" v="Potlatch 0.10b"/>
    <tag k="highway" v="secondary"/>
    <tag k="name" v="Bodenteicher Straße"/>
    <tag k="ref" v="L265"/>
  </way>
  <way id="25871863" version="4" timestamp="2008-08-04T13:59:01Z" uid="43863" user="Rundling" changeset="50112">
    <nd ref="271358749"/>
    <nd ref="271359778"/>
    <nd ref="271359779"/>
    <nd ref="271359780"/>
    <nd ref="271359781"/>
    <nd ref="271359782"/>
    <nd ref="271359783"/>
    <nd ref="271359784"/>
    <nd ref="271359785"/>
    <nd ref="271359786"/>
    <nd ref="271359787"/>
    <nd ref="271359788"/>
    <nd ref="271359789"/>
    <nd ref="271359790"/>
    <nd ref="271359791"/>
    <nd ref="271359792"/>
    <nd ref="271359793"/>
    <nd ref="271360811"/>
    <nd ref="271359794"/>
    <nd ref="271359795"/>
    <nd ref="271360732"/>
    <nd ref="271359796"/>
    <tag k="created_by" v="Potlatch 0.10b"/>
    <tag k="highway" v="secondary"/>
    <tag k="name" v="Bodenteicher Straße"/>
    <tag k="ref" v="L265"/>
  </way>
  <way id="25871863" version="5" timestamp="2008-08-04T14:35:36Z" uid="43863" user="Rundling" changeset="50112">
    <nd ref="271358749"/>
    <nd ref="271359778"/>
    <nd ref="271359779"/>
    <nd ref="271359780"/>
    <nd ref="271359781"/>
    <nd ref="271359782"/>
    <nd ref="271359783"/>
    <nd ref="271359784"/>
    <nd ref="271359785"/>
    <nd ref="271359786"/>
    <nd ref="271359787"/>
    <nd ref="271359788"/>
    <nd ref="271359789"/>
    <nd ref="271359790"/>
    <nd ref="271359791"/>
    <nd ref="271359792"/>
    <nd ref="271359793"/>
    <nd ref="271360811"/>
    <nd ref="271359794"/>
    <nd ref="271359795"/>
    <nd ref="271360732"/>
    <nd ref="271359796"/>
    <tag k="created_by" v="Potlatch 0.10b"/>
    <tag k="highway" v="secondary"/>
    <tag k="name" v="Bodenteicher Straße"/>
    <tag k="ref" v="L 265"/>
  </way>
  <way id="25871863" version="6" timestamp="2008-08-06T07:16:10Z" uid="43863" user="Rundling" changeset="89845">
    <nd ref="271358749"/>
    <nd ref="271359778"/>
    <nd ref="271359779"/>
    <nd ref="271359780"/>
    <nd ref="271359781"/>
    <nd ref="271359782"/>
    <nd ref="271359783"/>
    <nd ref="271359784"/>
    <nd ref="271359785"/>
    <nd ref="271359786"/>
    <nd ref="271359787"/>
    <nd ref="271359788"/>
    <nd ref="271359789"/>
    <nd ref="271359790"/>
    <nd ref="271359791"/>
    <nd ref="271359792"/>
    <nd ref="271359793"/>
    <nd ref="284157757"/>
    <nd ref="271360811"/>
    <nd ref="271359794"/>
    <nd ref="271359795"/>
    <nd ref="271360732"/>
    <nd ref="271359796"/>
    <tag k="created_by" v="Potlatch 0.10b"/>
    <tag k="highway" v="secondary"/>
    <tag k="name" v="Bodenteicher Straße"/>
    <tag k="ref" v="L 265"/>
  </way>
  <way id="25871863" version="9" timestamp="2008-10-16T16:17:20Z" uid="43863" user="Rundling" changeset="372861">
    <nd ref="271358749"/>
    <nd ref="271359778"/>
    <nd ref="271359779"/>
    <nd ref="274679560"/>
    <nd ref="271359781"/>
    <nd ref="271359782"/>
    <nd ref="271359783"/>
    <nd ref="271359784"/>
    <nd ref="271359785"/>
    <nd ref="271359786"/>
    <nd ref="271359787"/>
    <nd ref="271359788"/>
    <nd ref="271359789"/>
    <nd ref="271359790"/>
    <nd ref="271360162"/>
    <nd ref="271359792"/>
    <nd ref="274293212"/>
    <nd ref="271359793"/>
    <nd ref="284157757"/>
    <tag k="created_by" v="Potlatch 0.10b"/>
    <tag k="highway" v="secondary"/>
    <tag k="name" v="Bodenteicher Straße"/>
    <tag k="ref" v="L 265"/>
  </way>
  <way id="25871863" version="10" timestamp="2008-11-27T19:16:26Z" uid="43863" user="Rundling" changeset="801609">
    <nd ref="270649828"/>
    <nd ref="270652029"/>
    <nd ref="270473773"/>
    <nd ref="270473774"/>
    <nd ref="280043905"/>
    <nd ref="270473775"/>
    <nd ref="270473776"/>
    <nd ref="271154587"/>
    <nd ref="270473777"/>
    <nd ref="270473778"/>
    <nd ref="279331254"/>
    <nd ref="270473779"/>
    <nd ref="270474210"/>
    <nd ref="271292039"/>
    <nd ref="271292033"/>
    <nd ref="271292077"/>
    <nd ref="279333018"/>
    <nd ref="296888963"/>
    <nd ref="271358748"/>
    <nd ref="278736289"/>
    <nd ref="279333019"/>
    <nd ref="271358749"/>
    <nd ref="271359778"/>
    <nd ref="271359779"/>
    <nd ref="274679560"/>
    <nd ref="271359781"/>
    <nd ref="271359782"/>
    <nd ref="271359783"/>
    <nd ref="271359784"/>
    <nd ref="271359785"/>
    <nd ref="271359786"/>
    <nd ref="271359787"/>
    <nd ref="271359788"/>
    <nd ref="271359789"/>
    <nd ref="271359790"/>
    <nd ref="271360162"/>
    <nd ref="271359792"/>
    <nd ref="274293212"/>
    <nd ref="271359793"/>
    <nd ref="284157757"/>
    <nd ref="271360811"/>
    <nd ref="271359794"/>
    <nd ref="271359795"/>
    <nd ref="271360732"/>
    <nd ref="271359796"/>
    <tag k="created_by" v="Potlatch 0.10b"/>
    <tag k="highway" v="secondary"/>
    <tag k="name" v="Bodenteicher Straße"/>
    <tag k="ref" v="L 265"/>
  </way>
  <way id="25871863" version="11" timestamp="2008-12-18T22:01:55Z" uid="43863" user="Rundling" changeset="463571">
    <nd ref="270649828"/>
    <nd ref="270652029"/>
    <nd ref="270473773"/>
    <nd ref="270473774"/>
    <nd ref="280043905"/>
    <nd ref="270473775"/>
    <nd ref="270473776"/>
    <nd ref="319832991"/>
    <nd ref="270473777"/>
    <nd ref="270473778"/>
    <nd ref="279331254"/>
    <nd ref="270473779"/>
    <nd ref="270474210"/>
    <nd ref="319832984"/>
    <nd ref="319832990"/>
    <nd ref="271292077"/>
    <nd ref="279333018"/>
    <nd ref="319832997"/>
    <nd ref="271358748"/>
    <nd ref="278736289"/>
    <nd ref="279333019"/>
    <nd ref="271358749"/>
    <nd ref="271359778"/>
    <nd ref="319832986"/>
    <nd ref="319832987"/>
    <nd ref="271359781"/>
    <nd ref="271359782"/>
    <nd ref="271359783"/>
    <nd ref="271359784"/>
    <nd ref="271359785"/>
    <nd ref="271359786"/>
    <nd ref="271359787"/>
    <nd ref="271359788"/>
    <nd ref="271359789"/>
    <nd ref="271359790"/>
    <nd ref="319832989"/>
    <nd ref="271359792"/>
    <nd ref="271359794"/>
    <nd ref="271359795"/>
    <nd ref="271360732"/>
    <nd ref="271359796"/>
    <tag k="created_by" v="Potlatch 0.10b"/>
    <tag k="highway" v="secondary"/>
    <tag k="name" v="Bodenteicher Straße"/>
    <tag k="ref" v="L 265"/>
  </way>
  <way id="25871863" version="12" timestamp="2008-12-28T17:56:08Z" uid="43863" user="Rundling" changeset="646218">
    <nd ref="270649828"/>
    <nd ref="270652029"/>
    <nd ref="270473773"/>
    <nd ref="270473774"/>
    <nd ref="280043905"/>
    <nd ref="270473775"/>
    <nd ref="270473776"/>
    <nd ref="319832991"/>
    <nd ref="270473777"/>
    <nd ref="270473778"/>
    <nd ref="279331254"/>
    <nd ref="270473779"/>
    <nd ref="270474210"/>
    <nd ref="319832984"/>
    <nd ref="319832990"/>
    <nd ref="271292077"/>
    <nd ref="279333018"/>
    <nd ref="319832997"/>
    <nd ref="271358748"/>
    <nd ref="278736289"/>
    <nd ref="279333019"/>
    <nd ref="271358749"/>
    <nd ref="271359778"/>
    <nd ref="319832986"/>
    <nd ref="319832987"/>
    <nd ref="271359781"/>
    <nd ref="271359782"/>
    <nd ref="271359783"/>
    <nd ref="271359784"/>
    <nd ref="271359785"/>
    <nd ref="271359786"/>
    <nd ref="271359787"/>
    <nd ref="271359788"/>
    <nd ref="271359789"/>
    <nd ref="271359790"/>
    <nd ref="319832989"/>
    <nd ref="271359792"/>
    <nd ref="322608866"/>
    <nd ref="322608869"/>
    <nd ref="322608864"/>
    <nd ref="271359794"/>
    <nd ref="271359795"/>
    <nd ref="271360732"/>
    <nd ref="271359796"/>
    <tag k="created_by" v="Potlatch 0.10b"/>
    <tag k="highway" v="secondary"/>
    <tag k="name" v="Bodenteicher Straße"/>
    <tag k="ref" v="L 265"/>
  </way>
  <way id="25871863" version="13" timestamp="2009-01-21T20:59:23Z" uid="43863" user="Rundling" changeset="821635">
    <nd ref="270649828"/>
    <nd ref="270652029"/>
    <nd ref="270473774"/>
    <nd ref="280043905"/>
    <nd ref="270473775"/>
    <nd ref="270473776"/>
    <nd ref="319832991"/>
    <nd ref="270473777"/>
    <nd ref="270473778"/>
    <nd ref="279331254"/>
    <nd ref="270473779"/>
    <nd ref="270474210"/>
    <nd ref="319832984"/>
    <nd ref="319832990"/>
    <nd ref="271292077"/>
    <nd ref="279333018"/>
    <nd ref="319832997"/>
    <nd ref="271358748"/>
    <nd ref="278736289"/>
    <nd ref="279333019"/>
    <nd ref="271358749"/>
    <nd ref="271359778"/>
    <nd ref="319832986"/>
    <nd ref="319832987"/>
    <nd ref="271359781"/>
    <nd ref="271359782"/>
    <nd ref="271359783"/>
    <nd ref="271359784"/>
    <nd ref="271359785"/>
    <nd ref="271359786"/>
    <nd ref="271359787"/>
    <nd ref="271359788"/>
    <nd ref="271359789"/>
    <nd ref="271359790"/>
    <nd ref="319832989"/>
    <nd ref="271359792"/>
    <nd ref="322608866"/>
    <nd ref="322608869"/>
    <nd ref="322608864"/>
    <nd ref="271359794"/>
    <nd ref="271359795"/>
    <nd ref="271360732"/>
    <nd ref="271359796"/>
    <tag k="created_by" v="Potlatch 0.10b"/>
    <tag k="highway" v="secondary"/>
    <tag k="name" v="Bodenteicher Straße"/>
    <tag k="ref" v="L 265"/>
  </way>
  <way id="25871863" version="14" timestamp="2009-02-01T10:53:55Z" uid="43863" user="Rundling" changeset="9737">
    <nd ref="270649828"/>
    <nd ref="270652029"/>
    <nd ref="270473774"/>
    <nd ref="280043905"/>
    <nd ref="270473775"/>
    <nd ref="270473776"/>
    <nd ref="319832991"/>
    <nd ref="270473777"/>
    <nd ref="270473778"/>
    <nd ref="279331254"/>
    <nd ref="270473779"/>
    <nd ref="270474210"/>
    <nd ref="319832984"/>
    <nd ref="319832990"/>
    <nd ref="271292077"/>
    <nd ref="279333018"/>
    <nd ref="319832997"/>
    <nd ref="271358748"/>
    <nd ref="278736289"/>
    <nd ref="271359778"/>
    <nd ref="319832986"/>
    <nd ref="319832987"/>
    <nd ref="271359781"/>
    <nd ref="271359782"/>
    <nd ref="271359783"/>
    <nd ref="271359784"/>
    <nd ref="271359785"/>
    <nd ref="271359786"/>
    <nd ref="271359787"/>
    <nd ref="271359788"/>
    <nd ref="271359789"/>
    <nd ref="271359790"/>
    <nd ref="319832989"/>
    <nd ref="271359792"/>
    <nd ref="322608866"/>
    <nd ref="322608869"/>
    <nd ref="322608864"/>
    <nd ref="271359794"/>
    <nd ref="271359795"/>
    <nd ref="271360732"/>
    <nd ref="271359796"/>
    <tag k="created_by" v="Potlatch 0.10b"/>
    <tag k="highway" v="secondary"/>
    <tag k="name" v="Bodenteicher Straße"/>
    <tag k="ref" v="L 265"/>
  </way>
  <way id="25871863" version="15" timestamp="2009-02-01T19:49:27Z" uid="43863" user="Rundling" changeset="34014">
    <nd ref="270649828"/>
    <nd ref="270652029"/>
    <nd ref="270473774"/>
    <nd ref="280043905"/>
    <nd ref="270473775"/>
    <nd ref="270473776"/>
    <nd ref="319832991"/>
    <nd ref="270473777"/>
    <nd ref="270473778"/>
    <nd ref="279331254"/>
    <nd ref="270473779"/>
    <nd ref="270474210"/>
    <nd ref="319832984"/>
    <nd ref="319832990"/>
    <nd ref="271292077"/>
    <nd ref="279333018"/>
    <nd ref="319832997"/>
    <nd ref="271358748"/>
    <nd ref="278736289"/>
    <nd ref="339835790"/>
    <nd ref="271359778"/>
    <nd ref="319832986"/>
    <nd ref="319832987"/>
    <nd ref="271359781"/>
    <nd ref="271359782"/>
    <nd ref="271359783"/>
    <nd ref="271359784"/>
    <nd ref="271359785"/>
    <nd ref="271359786"/>
    <nd ref="271359787"/>
    <nd ref="271359788"/>
    <nd ref="271359789"/>
    <nd ref="271359790"/>
    <nd ref="319832989"/>
    <nd ref="271359792"/>
    <nd ref="322608866"/>
    <nd ref="322608869"/>
    <nd ref="322608864"/>
    <nd ref="271359794"/>
    <nd ref="271359795"/>
    <nd ref="271360732"/>
    <nd ref="271359796"/>
    <tag k="created_by" v="Potlatch 0.10b"/>
    <tag k="highway" v="secondary"/>
    <tag k="name" v="Bodenteicher Straße"/>
    <tag k="ref" v="L 265"/>
  </way>
  <way id="25871863" version="16" timestamp="2009-02-13T07:18:00Z" uid="43863" user="Rundling" changeset="387079">
    <nd ref="270649828"/>
    <nd ref="270652029"/>
    <nd ref="270473774"/>
    <nd ref="280043905"/>
    <nd ref="270473775"/>
    <nd ref="270473776"/>
    <nd ref="319832991"/>
    <nd ref="270473777"/>
    <nd ref="270473778"/>
    <nd ref="279331254"/>
    <nd ref="270473779"/>
    <nd ref="270474210"/>
    <nd ref="319832984"/>
    <nd ref="319832990"/>
    <nd ref="271292077"/>
    <nd ref="279333018"/>
    <nd ref="319832997"/>
    <nd ref="339835790"/>
    <nd ref="271359778"/>
    <nd ref="319832986"/>
    <nd ref="319832987"/>
    <nd ref="271359781"/>
    <nd ref="271359782"/>
    <nd ref="271359783"/>
    <nd ref="271359784"/>
    <nd ref="271359785"/>
    <nd ref="271359786"/>
    <nd ref="271359787"/>
    <nd ref="271359788"/>
    <nd ref="271359789"/>
    <nd ref="271359790"/>
    <nd ref="319832989"/>
    <nd ref="271359792"/>
    <nd ref="322608866"/>
    <nd ref="322608869"/>
    <nd ref="322608864"/>
    <nd ref="271359794"/>
    <nd ref="271359795"/>
    <nd ref="271360732"/>
    <nd ref="271359796"/>
    <tag k="created_by" v="Potlatch 0.10b"/>
    <tag k="highway" v="secondary"/>
    <tag k="name" v="Bodenteicher Straße"/>
    <tag k="ref" v="L 265"/>
  </way>
  <way id="25871863" version="17" timestamp="2009-03-01T12:24:13Z" uid="43863" user="Rundling" changeset="711371">
    <nd ref="270649828"/>
    <nd ref="270652029"/>
    <nd ref="270473774"/>
    <nd ref="280043905"/>
    <nd ref="270473775"/>
    <nd ref="270473776"/>
    <nd ref="319832991"/>
    <nd ref="270473777"/>
    <nd ref="270473778"/>
    <nd ref="279331254"/>
    <nd ref="270473779"/>
    <nd ref="270474210"/>
    <nd ref="319832984"/>
    <nd ref="319832990"/>
    <nd ref="271292077"/>
    <nd ref="279333018"/>
    <nd ref="319832997"/>
    <nd ref="339835790"/>
    <tag k="highway" v="secondary"/>
    <tag k="maxspeed" v="50"/>
    <tag k="name" v="Bodenteicher Straße"/>
    <tag k="ref" v="L 265"/>
  </way>
  <way id="25871863" version="18" timestamp="2009-11-02T12:55:59Z" uid="43863" user="Rundling" changeset="3016071">
    <nd ref="551582423"/>
    <nd ref="270652029"/>
    <nd ref="270473774"/>
    <nd ref="280043905"/>
    <nd ref="270473775"/>
    <nd ref="270473776"/>
    <nd ref="319832991"/>
    <nd ref="270473777"/>
    <nd ref="270473778"/>
    <nd ref="279331254"/>
    <nd ref="270473779"/>
    <nd ref="270474210"/>
    <nd ref="319832984"/>
    <nd ref="319832990"/>
    <nd ref="271292077"/>
    <nd ref="279333018"/>
    <nd ref="319832997"/>
    <nd ref="339835790"/>
    <tag k="highway" v="secondary"/>
    <tag k="maxspeed" v="50"/>
    <tag k="name" v="Bodenteicher Straße"/>
    <tag k="ref" v="L 265"/>
  </way>
  <way id="25871863" version="19" timestamp="2011-02-28T17:29:32Z" uid="43863" user="Rundling" changeset="7422410">
    <nd ref="551582423"/>
    <nd ref="270652029"/>
    <nd ref="270473774"/>
    <nd ref="280043905"/>
    <nd ref="270473775"/>
    <nd ref="270473776"/>
    <nd ref="1179298293"/>
    <nd ref="319832991"/>
    <nd ref="270473777"/>
    <nd ref="270473778"/>
    <nd ref="279331254"/>
    <nd ref="270473779"/>
    <nd ref="270474210"/>
    <nd ref="319832984"/>
    <nd ref="319832990"/>
    <nd ref="271292077"/>
    <nd ref="279333018"/>
    <nd ref="319832997"/>
    <nd ref="339835790"/>
    <tag k="highway" v="secondary"/>
    <tag k="maxspeed" v="50"/>
    <tag k="name" v="Bodenteicher Straße"/>
    <tag k="ref" v="L 265"/>
  </way>
  <way id="25871886" version="2" timestamp="2008-12-15T11:26:15Z" uid="9581" user="Lobelt" changeset="391313">
    <nd ref="282209328"/>
    <nd ref="282209330"/>
    <nd ref="282209332"/>
    <nd ref="282209334"/>
    <nd ref="282209328"/>
    <tag k="building" v="yes"/>
    <tag k="created_by" v="Potlatch 0.10a"/>
  </way>
  <way id="25871907" version="4" timestamp="2009-10-07T17:00:29Z" uid="86259" user="hasse_osm_korinthenkacker" changeset="2773624">
    <nd ref="282209686"/>
    <nd ref="282209498"/>
    <nd ref="282209687"/>
    <nd ref="282209500"/>
    <nd ref="282209686"/>
    <tag k="building" v="yes"/>
    <tag k="sport" v="multi"/>
  </way>
  <way id="25871925" version="3" timestamp="2009-10-07T17:00:31Z" uid="86259" user="hasse_osm_korinthenkacker" changeset="2773624">
    <nd ref="282209700"/>
    <nd ref="282209701"/>
    <nd ref="282209702"/>
    <nd ref="282209703"/>
    <nd ref="282209700"/>
    <tag k="building" v="yes"/>
  </way>
  <way id="25871928" version="4" timestamp="2009-10-07T17:00:31Z" uid="86259" user="hasse_osm_korinthenkacker" changeset="2773624">
    <nd ref="282209735"/>
    <nd ref="282209736"/>
    <nd ref="282209737"/>
    <nd ref="282209738"/>
    <nd ref="282209735"/>
    <tag k="amenity" v="kindergarten"/>
    <tag k="building" v="yes"/>
  </way>
  <way id="25871987" version="7" timestamp="2011-05-08T08:22:49Z" uid="9581" user="Lobelt" changeset="8079978">
    <nd ref="266444024"/>
    <nd ref="27362476"/>
    <nd ref="266444097"/>
    <nd ref="266444149"/>
    <nd ref="1276792052"/>
    <tag k="highway" v="motorway"/>
    <tag k="int_ref" v="E 31"/>
    <tag k="lanes" v="2"/>
    <tag k="maxspeed" v="130"/>
    <tag k="oneway" v="yes"/>
    <tag k="ref" v="A 61"/>
  </way>
</osm>
