<?xml version='1.0' encoding='UTF-8'?>
<osm version="0.6" generator="libosmium/2.20.0">
  <way id="25931006" version="6" timestamp="2010-07-09T06:19:33Z" uid="74617" user="JohnSmith" changeset="5171134">
    <nd ref="282863050"/>
    <nd ref="282863354"/>
    <nd ref="282863355"/>
    <nd ref="282862903"/>
    <nd ref="282863747"/>
    <nd ref="282862905"/>
    <nd ref="252164174"/>
    <nd ref="282862907"/>
    <nd ref="282863749"/>
    <nd ref="282862908"/>
    <nd ref="252164153"/>
    <nd ref="252164152"/>
    <tag k="highway" v="residential"/>
    <tag k="maxspeed" v="50"/>
    <tag k="maxspeed:source" v="default residential speed limit in Australia"/>
    <tag k="name" v="Eve Road"/>
  </way>
  <way id="25931038" version="2" timestamp="2010-07-09T06:19:58Z" uid="74617" user="JohnSmith" changeset="5171134">
    <nd ref="282863046"/>
    <nd ref="282863047"/>
    <nd ref="282863048"/>
    <nd ref="282863049"/>
    <tag k="highway" v="residential"/>
    <tag k="maxspeed" v="50"/>
    <tag k="maxspeed:source" v="default residential speed limit in Australia"/>
    <tag k="name" v="College Avenue"/>
  </way>
  <way id="25931045" version="2" timestamp="2010-07-09T06:20:34Z" uid="74617" user="JohnSmith" changeset="5171134">
    <nd ref="282863232"/>
    <nd ref="282863233"/>
    <nd ref="282863234"/>
    <nd ref="282863235"/>
    <nd ref="282863237"/>
    <tag k="highway" v="residential"/>
    <tag k="maxspeed" v="50"/>
    <tag k="maxspeed:source" v="default residential speed limit in Australia"/>
    <tag k="name" v="Jennifer Avenue"/>
  </way>
  <way id="25931059" version="2" timestamp="2010-07-09T06:20:50Z" uid="74617" user="JohnSmith" changeset="5171134">
    <nd ref="282863353"/>
    <nd ref="282863354"/>
    <tag k="highway" v="residential"/>
    <tag k="maxspeed" v="50"/>
    <tag k="maxspeed:source" v="default residential speed limit in Australia"/>
    <tag k="name" v="Federation Court"/>
  </way>
  <way id="25931092" version="3" timestamp="2010-07-09T06:21:04Z" uid="74617" user="JohnSmith" changeset="5171134">
    <nd ref="282863688"/>
    <nd ref="282863689"/>
    <nd ref="282863690"/>
    <nd ref="282863691"/>
    <nd ref="282863692"/>
    <nd ref="282863693"/>
    <nd ref="282863694"/>
    <nd ref="282863695"/>
    <nd ref="282863697"/>
    <nd ref="282863698"/>
    <nd ref="282863700"/>
    <nd ref="282863702"/>
    <nd ref="282863704"/>
    <nd ref="282863706"/>
    <nd ref="282863708"/>
    <nd ref="282863710"/>
    <nd ref="282863712"/>
    <nd ref="282863749"/>
    <tag k="highway" v="residential"/>
    <tag k="maxspeed" v="50"/>
    <tag k="maxspeed:source" v="default residential speed limit in Australia"/>
    <tag k="name" v="Gorge Road"/>
  </way>
  <way id="25931096" version="6" timestamp="2010-07-09T06:18:05Z" uid="74617" user="JohnSmith" changeset="5171134">
    <nd ref="282863735"/>
    <nd ref="282863736"/>
    <nd ref="282863737"/>
    <nd ref="282863738"/>
    <nd ref="282863939"/>
    <nd ref="282863740"/>
    <nd ref="282863741"/>
    <nd ref="282863742"/>
    <nd ref="282863938"/>
    <nd ref="282863743"/>
    <nd ref="282863744"/>
    <nd ref="282863873"/>
    <nd ref="282863745"/>
    <nd ref="282863746"/>
    <nd ref="282863994"/>
    <nd ref="282863747"/>
    <tag k="highway" v="residential"/>
    <tag k="maxspeed" v="50"/>
    <tag k="maxspeed:source" v="default residential speed limit in Australia"/>
    <tag k="name" v="University Way"/>
  </way>
  <way id="25931109" version="4" timestamp="2010-07-09T06:23:19Z" uid="74617" user="JohnSmith" changeset="5171134">
    <nd ref="282863870"/>
    <nd ref="282863871"/>
    <nd ref="282863872"/>
    <nd ref="665793362"/>
    <nd ref="282863873"/>
    <tag k="highway" v="residential"/>
    <tag k="maxspeed" v="50"/>
    <tag k="maxspeed:source" v="default residential speed limit in Australia"/>
    <tag k="name" v="Flinders Road"/>
  </way>
  <way id="25931116" version="2" timestamp="2010-07-09T06:20:10Z" uid="74617" user="JohnSmith" changeset="5171134">
    <nd ref="282863931"/>
    <nd ref="282863735"/>
    <nd ref="282863932"/>
    <nd ref="282863933"/>
    <nd ref="282863934"/>
    <nd ref="282863935"/>
    <nd ref="282863937"/>
    <nd ref="282863938"/>
    <tag k="highway" v="residential"/>
    <tag k="maxspeed" v="50"/>
    <tag k="maxspeed:source" v="default residential speed limit in Australia"/>
    <tag k="name" v="St Georges Terrace"/>
  </way>
  <way id="25931122" version="2" timestamp="2010-07-09T06:22:14Z" uid="74617" user="JohnSmith" changeset="5171134">
    <nd ref="282863994"/>
    <nd ref="282863995"/>
    <nd ref="252164175"/>
    <tag k="highway" v="residential"/>
    <tag k="maxspeed" v="50"/>
    <tag k="maxspeed:source" v="default residential speed limit in Australia"/>
    <tag k="name" v="Toorak Avenue"/>
  </way>
  <way id="25931138" version="5" timestamp="2011-01-23T17:14:20Z" uid="49111" user="Markus B" changeset="7064160">
    <nd ref="282864016"/>
    <nd ref="282864036"/>
    <nd ref="1117148024"/>
    <nd ref="282864038"/>
    <nd ref="282864039"/>
    <nd ref="282864040"/>
    <nd ref="681673115"/>
    <nd ref="681673089"/>
    <nd ref="282864041"/>
    <tag k="highway" v="secondary"/>
    <tag k="source" v="Yahoo"/>
  </way>
  <way id="25931175" version="4" timestamp="2010-07-09T06:23:28Z" uid="74617" user="JohnSmith" changeset="5171134">
    <nd ref="282864154"/>
    <nd ref="282864155"/>
    <nd ref="357776725"/>
    <nd ref="282864156"/>
    <nd ref="282864157"/>
    <nd ref="282864158"/>
    <nd ref="282864159"/>
    <nd ref="282864160"/>
    <nd ref="282864161"/>
    <nd ref="282864162"/>
    <nd ref="282864163"/>
    <nd ref="282864165"/>
    <tag k="highway" v="residential"/>
    <tag k="maxspeed" v="50"/>
    <tag k="maxspeed:source" v="default residential speed limit in Australia"/>
    <tag k="name" v="Argyll Walk"/>
  </way>
  <way id="25931195" version="2" timestamp="2010-07-09T06:18:11Z" uid="74617" user="JohnSmith" changeset="5171134">
    <nd ref="282864200"/>
    <nd ref="282863931"/>
    <nd ref="252164179"/>
    <tag k="highway" v="residential"/>
    <tag k="maxspeed" v="50"/>
    <tag k="maxspeed:source" v="default residential speed limit in Australia"/>
    <tag k="name" v="Offler Avenue"/>
  </way>
  <way id="25931205" version="6" timestamp="2010-07-09T06:17:49Z" uid="74617" user="JohnSmith" changeset="5171134">
    <nd ref="282864442"/>
    <nd ref="357776718"/>
    <nd ref="357776725"/>
    <nd ref="282864263"/>
    <nd ref="282864443"/>
    <nd ref="282864265"/>
    <nd ref="282864444"/>
    <nd ref="282864419"/>
    <nd ref="282865106"/>
    <nd ref="282864267"/>
    <tag k="highway" v="residential"/>
    <tag k="maxspeed" v="50"/>
    <tag k="maxspeed:source" v="default residential speed limit in Australia"/>
    <tag k="name" v="Highland Drive"/>
  </way>
  <way id="25931230" version="4" timestamp="2008-10-23T17:56:57Z" uid="6975" user="ulfl" changeset="530870">
    <nd ref="282864350"/>
    <nd ref="282864351"/>
    <tag k="bridge" v="viaduct"/>
    <tag k="layer" v="3"/>
    <tag k="name" v="Wengeraner Viadukt"/>
    <tag k="railway" v="abandoned"/>
  </way>
  <way id="25931267" version="5" timestamp="2010-07-09T06:19:39Z" uid="74617" user="JohnSmith" changeset="5171134">
    <nd ref="282864408"/>
    <nd ref="282864709"/>
    <nd ref="282864409"/>
    <nd ref="282864712"/>
    <nd ref="282864713"/>
    <nd ref="282864412"/>
    <nd ref="282864413"/>
    <nd ref="282864714"/>
    <nd ref="282864415"/>
    <nd ref="282864416"/>
    <nd ref="282864155"/>
    <nd ref="663239230"/>
    <nd ref="282864418"/>
    <nd ref="282864419"/>
    <tag k="highway" v="residential"/>
    <tag k="maxspeed" v="50"/>
    <tag k="maxspeed:source" v="default residential speed limit in Australia"/>
    <tag k="name" v="Ridgehaven Drive"/>
  </way>
  <way id="25931273" version="3" timestamp="2010-07-09T06:20:21Z" uid="74617" user="JohnSmith" changeset="5171134">
    <nd ref="282865106"/>
    <nd ref="282865105"/>
    <nd ref="282864441"/>
    <nd ref="252164184"/>
    <tag k="highway" v="residential"/>
    <tag k="maxspeed" v="50"/>
    <tag k="maxspeed:source" v="default residential speed limit in Australia"/>
    <tag k="name" v="Ridgehaven Drive"/>
  </way>
  <way id="25931286" version="3" timestamp="2010-07-09T06:22:59Z" uid="74617" user="JohnSmith" changeset="5171134">
    <nd ref="282864542"/>
    <nd ref="282864543"/>
    <nd ref="282864544"/>
    <nd ref="282864545"/>
    <nd ref="282864546"/>
    <nd ref="282864547"/>
    <nd ref="282864548"/>
    <nd ref="282864549"/>
    <nd ref="282864550"/>
    <nd ref="282864551"/>
    <nd ref="282864552"/>
    <nd ref="282864553"/>
    <nd ref="282864154"/>
    <nd ref="282864555"/>
    <nd ref="282864556"/>
    <tag k="highway" v="residential"/>
    <tag k="maxspeed" v="50"/>
    <tag k="maxspeed:source" v="default residential speed limit in Australia"/>
    <tag k="name" v="Yurilla Drive"/>
  </way>
  <way id="25931286" version="4" timestamp="2011-03-18T15:39:30Z" uid="4467" user="Rosscoe" changeset="7596453">
    <nd ref="282864542"/>
    <nd ref="282864543"/>
    <nd ref="282864544"/>
    <nd ref="282864545"/>
    <nd ref="282864546"/>
    <nd ref="282864547"/>
    <nd ref="282864548"/>
    <nd ref="282864549"/>
    <nd ref="282864550"/>
    <nd ref="282864551"/>
    <nd ref="282864552"/>
    <nd ref="282864553"/>
    <nd ref="282864154"/>
    <nd ref="282864555"/>
    <nd ref="282864556"/>
    <tag k="highway" v="residential"/>
    <tag k="maxspeed" v="50"/>
    <tag k="name" v="Yurilla Drive"/>
    <tag k="source:maxspeed" v="default residential speed limit in Australia"/>
  </way>
  <way id="25931290" version="3" timestamp="2010-07-09T06:20:14Z" uid="74617" user="JohnSmith" changeset="5171134">
    <nd ref="282864586"/>
    <nd ref="282864641"/>
    <nd ref="282864622"/>
    <tag k="highway" v="residential"/>
    <tag k="maxspeed" v="50"/>
    <tag k="maxspeed:source" v="default residential speed limit in Australia"/>
    <tag k="name" v="Deepdene Avenue"/>
  </way>
  <way id="25931290" version="4" timestamp="2011-03-16T12:48:01Z" uid="4467" user="Rosscoe" changeset="7575323">
    <nd ref="282864586"/>
    <nd ref="282864641"/>
    <nd ref="282864622"/>
    <tag k="highway" v="residential"/>
    <tag k="maxspeed" v="50"/>
    <tag k="name" v="Deepdene Avenue"/>
    <tag k="source:maxspeed" v="default residential speed limit in Australia"/>
  </way>
  <way id="25931299" version="2" timestamp="2010-07-09T06:18:06Z" uid="74617" user="JohnSmith" changeset="5171134">
    <nd ref="282864641"/>
    <nd ref="282864642"/>
    <nd ref="282864643"/>
    <tag k="highway" v="residential"/>
    <tag k="maxspeed" v="50"/>
    <tag k="maxspeed:source" v="default residential speed limit in Australia"/>
    <tag k="name" v="Deepdene Avenue"/>
  </way>
  <way id="25931299" version="3" timestamp="2011-03-16T12:47:52Z" uid="4467" user="Rosscoe" changeset="7575323">
    <nd ref="282864641"/>
    <nd ref="282864642"/>
    <nd ref="282864643"/>
    <tag k="highway" v="residential"/>
    <tag k="maxspeed" v="50"/>
    <tag k="name" v="Deepdene Avenue"/>
    <tag k="source:maxspeed" v="default residential speed limit in Australia"/>
  </way>
  <way id="25931305" version="2" timestamp="2010-07-09T06:18:49Z" uid="74617" user="JohnSmith" changeset="5171134">
    <nd ref="282864695"/>
    <nd ref="282864696"/>
    <nd ref="282864698"/>
    <nd ref="282864699"/>
    <nd ref="282864701"/>
    <nd ref="282864702"/>
    <nd ref="282864703"/>
    <nd ref="282864704"/>
    <tag k="highway" v="residential"/>
    <tag k="maxspeed" v="50"/>
    <tag k="maxspeed:source" v="default residential speed limit in Australia"/>
    <tag k="name" v="Sturtbrae Crescent"/>
  </way>
  <way id="25931305" version="3" timestamp="2011-03-16T12:46:47Z" uid="4467" user="Rosscoe" changeset="7575323">
    <nd ref="282864695"/>
    <nd ref="282864696"/>
    <nd ref="282864698"/>
    <nd ref="282864699"/>
    <nd ref="282864701"/>
    <nd ref="282864702"/>
    <nd ref="282864703"/>
    <nd ref="282864704"/>
    <tag k="highway" v="residential"/>
    <tag k="maxspeed" v="50"/>
    <tag k="name" v="Sturtbrae Crescent"/>
    <tag k="source:maxspeed" v="default residential speed limit in Australia"/>
  </way>
  <way id="25931307" version="2" timestamp="2010-07-09T06:22:25Z" uid="74617" user="JohnSmith" changeset="5171134">
    <nd ref="282864709"/>
    <nd ref="282864710"/>
    <nd ref="252164345"/>
    <tag k="highway" v="residential"/>
    <tag k="maxspeed" v="50"/>
    <tag k="maxspeed:source" v="default residential speed limit in Australia"/>
    <tag k="name" v="Sherwood Avenue"/>
  </way>
  <way id="25931314" version="8" timestamp="2009-03-08T17:23:06Z" uid="43863" user="Rundling" changeset="758328">
    <nd ref="282856643"/>
    <nd ref="294125468"/>
    <nd ref="306119789"/>
    <nd ref="282864664"/>
    <nd ref="336505685"/>
    <nd ref="336505676"/>
    <nd ref="336505713"/>
    <nd ref="282864700"/>
    <nd ref="282864671"/>
    <nd ref="357358263"/>
    <nd ref="282864715"/>
    <tag k="highway" v="track"/>
    <tag k="layer" v="0"/>
    <tag k="tracktype" v="grade4"/>
  </way>
  <way id="25931316" version="4" timestamp="2010-07-09T06:17:57Z" uid="74617" user="JohnSmith" changeset="5171134">
    <nd ref="282864695"/>
    <nd ref="282864754"/>
    <nd ref="663239269"/>
    <nd ref="282864729"/>
    <nd ref="282864408"/>
    <nd ref="282864442"/>
    <tag k="highway" v="residential"/>
    <tag k="maxspeed" v="50"/>
    <tag k="maxspeed:source" v="default residential speed limit in Australia"/>
    <tag k="name" v="Bellevue Drive"/>
  </way>
  <way id="25931316" version="5" timestamp="2011-03-18T15:42:32Z" uid="4467" user="Rosscoe" changeset="7596453">
    <nd ref="282864695"/>
    <nd ref="282864754"/>
    <nd ref="663239269"/>
    <nd ref="282864729"/>
    <nd ref="282864408"/>
    <nd ref="282864442"/>
    <tag k="highway" v="residential"/>
    <tag k="maxspeed" v="50"/>
    <tag k="name" v="Bellevue Drive"/>
    <tag k="source:maxspeed" v="default residential speed limit in Australia"/>
  </way>
  <way id="25931321" version="2" timestamp="2010-07-09T06:22:39Z" uid="74617" user="JohnSmith" changeset="5171134">
    <nd ref="282864754"/>
    <nd ref="282864755"/>
    <nd ref="282864756"/>
    <nd ref="282864757"/>
    <nd ref="282864758"/>
    <nd ref="282864759"/>
    <nd ref="282864760"/>
    <nd ref="282864761"/>
    <tag k="highway" v="residential"/>
    <tag k="maxspeed" v="50"/>
    <tag k="maxspeed:source" v="default residential speed limit in Australia"/>
    <tag k="name" v="Sturt Drive"/>
  </way>
  <way id="25931340" version="3" timestamp="2010-07-09T06:22:40Z" uid="74617" user="JohnSmith" changeset="5171134">
    <nd ref="282864963"/>
    <nd ref="282864964"/>
    <nd ref="357776718"/>
    <nd ref="282864412"/>
    <tag k="highway" v="residential"/>
    <tag k="maxspeed" v="50"/>
    <tag k="maxspeed:source" v="default residential speed limit in Australia"/>
    <tag k="name" v="Adare Walk"/>
  </way>
  <way id="25931356" version="2" timestamp="2010-07-09T06:20:23Z" uid="74617" user="JohnSmith" changeset="5171134">
    <nd ref="282865103"/>
    <nd ref="282865104"/>
    <nd ref="282865105"/>
    <tag k="highway" v="residential"/>
    <tag k="maxspeed" v="50"/>
    <tag k="maxspeed:source" v="default residential speed limit in Australia"/>
    <tag k="name" v="Silverdale Crescent"/>
  </way>
  <way id="25931361" version="2" timestamp="2010-07-09T06:23:35Z" uid="74617" user="JohnSmith" changeset="5171134">
    <nd ref="282865129"/>
    <nd ref="282865130"/>
    <nd ref="282865131"/>
    <nd ref="252164182"/>
    <tag k="highway" v="residential"/>
    <tag k="maxspeed" v="50"/>
    <tag k="maxspeed:source" v="default residential speed limit in Australia"/>
    <tag k="name" v="Vaucluse Crescent"/>
  </way>
  <way id="25931380" version="3" timestamp="2010-07-09T06:20:54Z" uid="74617" user="JohnSmith" changeset="5171134">
    <nd ref="282865317"/>
    <nd ref="282865318"/>
    <tag k="highway" v="residential"/>
    <tag k="maxspeed" v="50"/>
    <tag k="maxspeed:source" v="default residential speed limit in Australia"/>
    <tag k="name" v="Tiparra Street"/>
  </way>
  <way id="25931427" version="2" timestamp="2010-07-09T06:23:45Z" uid="74617" user="JohnSmith" changeset="5171134">
    <nd ref="282865652"/>
    <nd ref="282865653"/>
    <nd ref="282865654"/>
    <nd ref="282865655"/>
    <nd ref="282865656"/>
    <nd ref="282865657"/>
    <nd ref="282865658"/>
    <nd ref="282865659"/>
    <nd ref="282865660"/>
    <tag k="highway" v="residential"/>
    <tag k="maxspeed" v="50"/>
    <tag k="maxspeed:source" v="default residential speed limit in Australia"/>
    <tag k="name" v="Ellis Avenue"/>
  </way>
  <way id="25931442" version="2" timestamp="2010-07-09T06:20:07Z" uid="74617" user="JohnSmith" changeset="5171134">
    <nd ref="282865818"/>
    <nd ref="252164172"/>
    <tag k="highway" v="residential"/>
    <tag k="maxspeed" v="50"/>
    <tag k="maxspeed:source" v="default residential speed limit in Australia"/>
    <tag k="name" v="Perry Lane"/>
  </way>
  <way id="25931489" version="5" timestamp="2010-07-09T06:22:58Z" uid="74617" user="JohnSmith" changeset="5171134">
    <nd ref="282866138"/>
    <nd ref="282866299"/>
    <nd ref="282866214"/>
    <nd ref="282866301"/>
    <nd ref="282866091"/>
    <tag k="highway" v="residential"/>
    <tag k="maxspeed" v="50"/>
    <tag k="maxspeed:source" v="default residential speed limit in Australia"/>
    <tag k="name" v="Yalanda Street"/>
  </way>
  <way id="25931494" version="4" timestamp="2010-07-09T06:20:05Z" uid="74617" user="JohnSmith" changeset="5171134">
    <nd ref="282866138"/>
    <nd ref="282866959"/>
    <tag k="highway" v="residential"/>
    <tag k="maxspeed" v="50"/>
    <tag k="maxspeed:source" v="default residential speed limit in Australia"/>
    <tag k="name" v="Pinda Street"/>
  </way>
  <way id="25931502" version="3" timestamp="2010-07-09T06:18:01Z" uid="74617" user="JohnSmith" changeset="5171134">
    <nd ref="282866301"/>
    <nd ref="282866213"/>
    <nd ref="274430913"/>
    <tag k="highway" v="residential"/>
    <tag k="maxspeed" v="50"/>
    <tag k="maxspeed:source" v="default residential speed limit in Australia"/>
    <tag k="name" v="Wilpena Street"/>
  </way>
  <way id="25931506" version="3" timestamp="2010-07-09T06:22:48Z" uid="74617" user="JohnSmith" changeset="5171134">
    <nd ref="282866299"/>
    <nd ref="663238825"/>
    <tag k="fixme" v="verify"/>
    <tag k="highway" v="residential"/>
    <tag k="maxspeed" v="50"/>
    <tag k="maxspeed:source" v="default residential speed limit in Australia"/>
    <tag k="name" v="Wonna Street"/>
  </way>
  <way id="25931541" version="3" timestamp="2010-07-09T06:21:56Z" uid="74617" user="JohnSmith" changeset="5171134">
    <nd ref="282866482"/>
    <nd ref="282866483"/>
    <nd ref="282866553"/>
    <nd ref="282866091"/>
    <tag k="highway" v="residential"/>
    <tag k="maxspeed" v="50"/>
    <tag k="maxspeed:source" v="default residential speed limit in Australia"/>
    <tag k="name" v="Miranda Street"/>
  </way>
  <way id="25931546" version="3" timestamp="2010-07-09T06:21:24Z" uid="74617" user="JohnSmith" changeset="5171134">
    <nd ref="282866549"/>
    <nd ref="282866958"/>
    <nd ref="282866551"/>
    <nd ref="282866552"/>
    <nd ref="282866553"/>
    <tag k="highway" v="residential"/>
    <tag k="maxspeed" v="50"/>
    <tag k="maxspeed:source" v="default residential speed limit in Australia"/>
    <tag k="name" v="Parham Street"/>
  </way>
  <way id="25931546" version="4" timestamp="2011-03-16T14:20:46Z" uid="4467" user="Rosscoe" changeset="7576148">
    <nd ref="1204258305"/>
    <nd ref="1204258338"/>
    <nd ref="282866958"/>
    <nd ref="282866551"/>
    <nd ref="282866552"/>
    <nd ref="282866553"/>
    <tag k="highway" v="residential"/>
    <tag k="maxspeed" v="50"/>
    <tag k="maxspeed:source" v="default residential speed limit in Australia"/>
    <tag k="name" v="Parham Street"/>
  </way>
  <way id="25931616" version="2" timestamp="2010-07-09T06:23:29Z" uid="74617" user="JohnSmith" changeset="5171134">
    <nd ref="282866956"/>
    <nd ref="282866957"/>
    <nd ref="282866958"/>
    <tag k="highway" v="residential"/>
    <tag k="maxspeed" v="50"/>
    <tag k="maxspeed:source" v="default residential speed limit in Australia"/>
    <tag k="name" v="Wilpena Street"/>
  </way>
  <way id="25931690" version="6" timestamp="2010-05-05T17:37:10Z" uid="151899" user="Bikeman2000" changeset="4614927">
    <nd ref="282867742"/>
    <nd ref="722666474"/>
    <nd ref="722666462"/>
    <nd ref="286778314"/>
    <nd ref="722666505"/>
    <nd ref="282867743"/>
    <nd ref="722666465"/>
    <nd ref="722666492"/>
    <nd ref="722666516"/>
    <nd ref="722666515"/>
    <nd ref="722666500"/>
    <nd ref="282867744"/>
    <nd ref="722666512"/>
    <nd ref="282867699"/>
    <nd ref="722666489"/>
    <nd ref="722666487"/>
    <nd ref="722666514"/>
    <nd ref="286778310"/>
    <nd ref="722666479"/>
    <nd ref="282867745"/>
    <nd ref="722666511"/>
    <nd ref="722666481"/>
    <nd ref="722666509"/>
    <nd ref="722666470"/>
    <nd ref="722666467"/>
    <nd ref="722666510"/>
    <nd ref="286778320"/>
    <nd ref="722666460"/>
    <nd ref="722666508"/>
    <nd ref="282867701"/>
    <nd ref="722666484"/>
    <nd ref="286778319"/>
    <nd ref="282867702"/>
    <nd ref="722666513"/>
    <nd ref="722666475"/>
    <nd ref="722666456"/>
    <nd ref="722666497"/>
    <nd ref="722666506"/>
    <nd ref="286778318"/>
    <nd ref="722666495"/>
    <nd ref="282867703"/>
    <nd ref="722666518"/>
    <nd ref="286778316"/>
    <nd ref="722666503"/>
    <nd ref="282867742"/>
    <tag k="addr:housename" v="GAP 15"/>
    <tag k="addr:housenumber" v="15"/>
    <tag k="addr:street" v="Graf-Adolf-Platz"/>
    <tag k="building" v="yes"/>
    <tag k="building:height" v="90"/>
    <tag k="building:levels" v="24"/>
    <tag k="built" v="2005"/>
    <tag k="name" v="GAP 15"/>
    <tag k="source" v="estimation,knowledge"/>
    <tag k="wikipedia:de" v="GAP 15"/>
  </way>
  <way id="25931904" version="2" timestamp="2009-10-31T19:39:00Z" uid="85955" user="Gerd Höweler" changeset="3000735">
    <nd ref="271173427"/>
    <nd ref="282869369"/>
    <nd ref="282869370"/>
    <nd ref="282869371"/>
    <nd ref="282869372"/>
    <nd ref="282869373"/>
    <tag k="highway" v="unclassified"/>
    <tag k="name" v="Nagelsholz"/>
  </way>
  <way id="25931924" version="3" timestamp="2009-10-31T19:39:00Z" uid="85955" user="Gerd Höweler" changeset="3000735">
    <nd ref="282869596"/>
    <nd ref="318629249"/>
    <tag k="highway" v="unclassified"/>
    <tag k="name" v="Erlenweg"/>
  </way>
  <way id="25931946" version="5" timestamp="2010-06-29T19:08:47Z" uid="74617" user="JohnSmith" changeset="5108182">
    <nd ref="282869760"/>
    <nd ref="282869761"/>
    <nd ref="282869762"/>
    <nd ref="282869763"/>
    <nd ref="282869760"/>
    <tag k="fixme" v="sport=football is ambiguous, see http://wiki.osm.org/wiki/Football for more details"/>
    <tag k="leisure" v="pitch"/>
    <tag k="name" v="Sportplatz Oberlungwitz"/>
    <tag k="sport" v="football"/>
  </way>
</osm>
