<?xml version='1.0' encoding='UTF-8'?>
<osm version="0.6" generator="libosmium/2.20.0">
  <way id="25947012" version="3" timestamp="2009-04-11T07:48:24Z" uid="20587" user="balrog-kun" changeset="404317">
    <nd ref="372069028"/>
    <nd ref="372069084"/>
    <nd ref="372069075"/>
    <nd ref="372069056"/>
    <nd ref="372068545"/>
    <nd ref="372254694"/>
    <nd ref="304858716"/>
    <tag k="created_by" v="JOSM"/>
    <tag k="name" v="Urzędówka"/>
    <tag k="source" v="http://ump.waw.pl/ retrieved 11:01:43 04/03/09 (UMP-Zamosc/src/ZAMOSC.woda.txt)"/>
    <tag k="waterway" v="stream"/>
    <tag k="wikipedia" v="pl:Urzędówka"/>
  </way>
  <way id="25947356" version="14" timestamp="2008-11-26T19:58:02Z" uid="6975" user="ulfl" changeset="797054">
    <nd ref="299594470"/>
    <nd ref="299775523"/>
    <nd ref="299775540"/>
    <nd ref="299775904"/>
    <nd ref="299594475"/>
    <tag k="bicycle" v="yes"/>
    <tag k="foot" v="yes"/>
    <tag k="highway" v="track"/>
    <tag k="surface" v="asphalt"/>
  </way>
  <way id="25947448" version="4" timestamp="2010-07-09T04:58:36Z" uid="74617" user="JohnSmith" changeset="5170972">
    <nd ref="151451830"/>
    <nd ref="723818747"/>
    <nd ref="723818748"/>
    <nd ref="723818464"/>
    <nd ref="723818388"/>
    <nd ref="151451843"/>
    <tag k="highway" v="residential"/>
    <tag k="maxspeed" v="50"/>
    <tag k="maxspeed:source" v="default residential speed limit in Australia"/>
    <tag k="name" v="Maugie Street"/>
  </way>
  <way id="25947450" version="23" timestamp="2009-01-01T14:04:17Z" uid="6975" user="ulfl" changeset="699648">
    <nd ref="283059072"/>
    <nd ref="283058861"/>
    <nd ref="286311111"/>
    <nd ref="286311128"/>
    <nd ref="286311113"/>
    <nd ref="286311129"/>
    <nd ref="283059073"/>
    <nd ref="283058863"/>
    <nd ref="322707238"/>
    <nd ref="283059072"/>
    <tag k="building" v="yes"/>
    <tag k="name" v="Real Monastario de San Lorenzo"/>
    <tag k="tourism" v="museum"/>
  </way>
  <way id="25947580" version="2" timestamp="2010-07-09T05:01:43Z" uid="74617" user="JohnSmith" changeset="5170972">
    <nd ref="283059732"/>
    <nd ref="283059737"/>
    <nd ref="283059741"/>
    <tag k="highway" v="residential"/>
    <tag k="maxspeed" v="50"/>
    <tag k="maxspeed:source" v="default residential speed limit in Australia"/>
    <tag k="name" v="Rich Street"/>
  </way>
  <way id="25947713" version="2" timestamp="2008-09-10T07:18:27Z" uid="30201" user="rrankin" changeset="597655">
    <nd ref="279476968"/>
    <nd ref="283061216"/>
    <nd ref="283061226"/>
    <nd ref="295540562"/>
    <tag k="created_by" v="Potlatch 0.10"/>
    <tag k="highway" v="residential"/>
    <tag k="name" v="Joshua Moore Drive"/>
    <tag k="oneway" v="yes"/>
    <tag k="surface" v="paved"/>
  </way>
  <way id="25947713" version="3" timestamp="2010-07-07T22:26:06Z" uid="74617" user="JohnSmith" changeset="5162525">
    <nd ref="279476968"/>
    <nd ref="283061216"/>
    <nd ref="283061226"/>
    <nd ref="295540562"/>
    <tag k="highway" v="residential"/>
    <tag k="maxspeed" v="50"/>
    <tag k="maxspeed:source" v="default residential speed limit in Australia"/>
    <tag k="name" v="Joshua Moore Drive"/>
    <tag k="oneway" v="yes"/>
    <tag k="surface" v="paved"/>
  </way>
  <way id="25947714" version="7" timestamp="2008-09-10T07:21:14Z" uid="30201" user="rrankin" changeset="597655"/>
  <way id="25947828" version="2" timestamp="2008-09-14T15:26:59Z" uid="6975" user="ulfl" changeset="640534">
    <nd ref="283062258"/>
    <nd ref="283062259"/>
    <nd ref="283062260"/>
    <nd ref="283062261"/>
    <nd ref="283062258"/>
    <tag k="landuse" v="cemetery"/>
    <tag k="name" v="Örtofta kyrkogård"/>
  </way>
</osm>
