<?xml version='1.0' encoding='UTF-8'?>
<osm version="0.6" generator="libosmium/2.20.0">
  <way id="25982000" version="5" timestamp="2009-09-30T16:28:29Z" uid="36809" user="pfoten_weg_!_" changeset="2690373">
    <nd ref="283442648"/>
    <nd ref="291204582"/>
    <nd ref="283442384"/>
    <nd ref="283442385"/>
    <nd ref="283442386"/>
    <nd ref="292374378"/>
    <nd ref="283442388"/>
    <nd ref="283442389"/>
    <nd ref="57801788"/>
    <tag k="highway" v="tertiary"/>
    <tag k="ref" v="WM 29"/>
  </way>
  <way id="25982143" version="1" timestamp="2008-08-04T21:07:12Z" uid="49111" user="Markus B" changeset="82198">
    <nd ref="276794647"/>
    <nd ref="276794649"/>
    <nd ref="276794650"/>
    <nd ref="276794652"/>
    <nd ref="276794653"/>
    <tag k="highway" v="residential"/>
    <tag k="name" v="Schindelrangen"/>
    <tag k="note" v="Prüfung mit GPS-Track erforderlich"/>
  </way>
  <way id="25982143" version="2" timestamp="2008-09-11T21:15:17Z" uid="49111" user="Markus B" changeset="611009">
    <nd ref="276794647"/>
    <nd ref="276794649"/>
    <nd ref="276794650"/>
    <nd ref="276794652"/>
    <nd ref="295995587"/>
    <nd ref="295995588"/>
    <nd ref="276794653"/>
    <tag k="highway" v="residential"/>
    <tag k="name" v="Schindelrangen"/>
    <tag k="note" v="Prüfung mit GPS-Track erforderlich"/>
  </way>
  <way id="25982143" version="3" timestamp="2008-10-19T12:18:49Z" uid="49111" user="Markus B" changeset="442639">
    <nd ref="276794647"/>
    <nd ref="276794649"/>
    <nd ref="276794650"/>
    <nd ref="276794652"/>
    <nd ref="295995587"/>
    <nd ref="295995588"/>
    <nd ref="305617117"/>
    <nd ref="276794653"/>
    <tag k="created_by" v="Potlatch 0.10e"/>
    <tag k="highway" v="residential"/>
    <tag k="name" v="Schindelrangen"/>
    <tag k="note" v="Prüfung mit GPS-Track erforderlich"/>
  </way>
  <way id="25982143" version="4" timestamp="2008-11-02T21:51:12Z" uid="49111" user="Markus B" changeset="667033">
    <nd ref="276794647"/>
    <nd ref="276794649"/>
    <nd ref="309533243"/>
    <nd ref="276794650"/>
    <nd ref="276794652"/>
    <nd ref="295995587"/>
    <nd ref="295995588"/>
    <nd ref="305617117"/>
    <nd ref="276794653"/>
    <tag k="created_by" v="Potlatch 0.10e"/>
    <tag k="highway" v="residential"/>
    <tag k="name" v="Schindelrangen"/>
    <tag k="note" v="Prüfung mit GPS-Track erforderlich"/>
  </way>
  <way id="25982143" version="5" timestamp="2008-11-05T14:42:43Z" uid="49111" user="Markus B" changeset="684092">
    <nd ref="276794647"/>
    <nd ref="276794649"/>
    <nd ref="309533243"/>
    <nd ref="276794650"/>
    <tag k="created_by" v="Potlatch 0.10e"/>
    <tag k="highway" v="residential"/>
    <tag k="name" v="Schindelrangen"/>
    <tag k="note" v="Prüfung mit GPS-Track erforderlich"/>
  </way>
  <way id="25982143" version="6" timestamp="2008-11-05T16:32:50Z" uid="49111" user="Markus B" changeset="684355">
    <nd ref="276794647"/>
    <nd ref="276794649"/>
    <nd ref="309533243"/>
    <nd ref="276794650"/>
    <tag k="created_by" v="Potlatch 0.10e"/>
    <tag k="highway" v="residential"/>
    <tag k="name" v="Schindelrangen"/>
    <tag k="note" v="Prüfung mit GPS-Track erforderlich"/>
  </way>
  <way id="25982143" version="7" timestamp="2008-11-06T12:00:36Z" uid="49111" user="Markus B" changeset="692703">
    <nd ref="276794647"/>
    <nd ref="276794649"/>
    <nd ref="309533243"/>
    <nd ref="276794650"/>
    <tag k="created_by" v="Potlatch 0.10e"/>
    <tag k="highway" v="residential"/>
    <tag k="name" v="Schindelrangen"/>
  </way>
  <way id="25982143" version="10" timestamp="2011-01-01T17:08:01Z" uid="49111" user="Markus B" changeset="6829857">
    <nd ref="276794647"/>
    <nd ref="782655094"/>
    <nd ref="276794649"/>
    <nd ref="309533243"/>
    <nd ref="1077126531"/>
    <nd ref="276794650"/>
    <tag k="highway" v="residential"/>
    <tag k="name" v="Schindelrangen"/>
  </way>
  <way id="25982144" version="1" timestamp="2008-08-04T21:07:12Z" uid="49111" user="Markus B" changeset="82198">
    <nd ref="276794647"/>
    <nd ref="283444062"/>
    <nd ref="283444063"/>
    <nd ref="283444064"/>
    <nd ref="283444067"/>
  </way>
  <way id="25982144" version="2" timestamp="2008-08-13T10:11:50Z" uid="49111" user="Markus B" changeset="220532">
    <nd ref="276794647"/>
    <nd ref="283444062"/>
    <nd ref="283444063"/>
    <nd ref="283444064"/>
    <nd ref="283444067"/>
    <tag k="highway" v="residential"/>
  </way>
  <way id="25982144" version="3" timestamp="2008-09-11T21:15:08Z" uid="49111" user="Markus B" changeset="611009">
    <nd ref="276794647"/>
    <nd ref="295995594"/>
    <nd ref="295995582"/>
    <nd ref="295995584"/>
    <nd ref="295995589"/>
    <nd ref="295995590"/>
    <nd ref="295995591"/>
    <nd ref="283444064"/>
    <nd ref="295995592"/>
    <nd ref="295995593"/>
    <nd ref="295995605"/>
    <nd ref="295995598"/>
    <nd ref="283444067"/>
    <tag k="highway" v="residential"/>
  </way>
  <way id="25982144" version="4" timestamp="2008-11-02T21:51:01Z" uid="49111" user="Markus B" changeset="667033">
    <nd ref="276794647"/>
    <nd ref="295995594"/>
    <nd ref="295995582"/>
    <nd ref="295995584"/>
    <nd ref="295995589"/>
    <nd ref="295995590"/>
    <nd ref="295995591"/>
    <nd ref="283444064"/>
    <nd ref="295995592"/>
    <nd ref="295995593"/>
    <nd ref="295995598"/>
    <tag k="highway" v="residential"/>
  </way>
  <way id="25982145" version="1" timestamp="2008-08-04T21:07:12Z" uid="49111" user="Markus B" changeset="82198">
    <nd ref="283444067"/>
    <nd ref="283444068"/>
    <tag k="highway" v="residential"/>
    <tag k="name" v="Judenhof"/>
  </way>
  <way id="25982145" version="2" timestamp="2008-10-19T12:17:29Z" uid="49111" user="Markus B" changeset="442639">
    <nd ref="283444067"/>
    <nd ref="305616854"/>
    <nd ref="283444068"/>
    <tag k="created_by" v="Potlatch 0.10e"/>
    <tag k="highway" v="residential"/>
    <tag k="name" v="Judenhof"/>
  </way>
  <way id="25982145" version="3" timestamp="2008-11-02T21:51:13Z" uid="49111" user="Markus B" changeset="667033"/>
  <way id="25982146" version="1" timestamp="2008-08-04T21:07:12Z" uid="49111" user="Markus B" changeset="82198">
    <nd ref="283444067"/>
    <nd ref="283444065"/>
    <nd ref="283444066"/>
    <tag k="highway" v="residential"/>
    <tag k="name" v="Judenhof"/>
  </way>
  <way id="25982146" version="2" timestamp="2008-10-01T21:25:07Z" uid="49111" user="Markus B" changeset="18227">
    <nd ref="283444067"/>
    <nd ref="283444065"/>
    <nd ref="301468081"/>
    <nd ref="283444066"/>
    <tag k="highway" v="residential"/>
    <tag k="name" v="Judenhof"/>
  </way>
  <way id="25982146" version="3" timestamp="2008-11-02T21:51:00Z" uid="49111" user="Markus B" changeset="667033">
    <nd ref="295995598"/>
    <nd ref="309533247"/>
    <nd ref="283444065"/>
    <nd ref="309533241"/>
    <nd ref="309533240"/>
    <nd ref="309533245"/>
    <nd ref="309533239"/>
    <nd ref="301468081"/>
    <nd ref="283444066"/>
    <tag k="highway" v="residential"/>
    <tag k="name" v="Judenhof"/>
  </way>
  <way id="25982146" version="4" timestamp="2008-11-05T14:42:42Z" uid="49111" user="Markus B" changeset="684092">
    <nd ref="295995598"/>
    <nd ref="309533247"/>
    <nd ref="283444065"/>
    <tag k="highway" v="residential"/>
    <tag k="name" v="Judenhof"/>
  </way>
  <way id="25982146" version="5" timestamp="2008-11-05T16:32:45Z" uid="49111" user="Markus B" changeset="684355">
    <nd ref="295995598"/>
    <nd ref="309533247"/>
    <nd ref="283444065"/>
    <tag k="highway" v="residential"/>
    <tag k="name" v="Judenhof"/>
  </way>
  <way id="25982157" version="3" timestamp="2008-10-22T21:56:28Z" uid="20587" user="balrog-kun" changeset="519665">
    <nd ref="283444163"/>
    <nd ref="306513446"/>
    <nd ref="306513442"/>
    <nd ref="306513432"/>
    <nd ref="306513434"/>
    <nd ref="283447132"/>
    <nd ref="283447144"/>
    <tag k="created_by" v="Potlatch 0.10b"/>
    <tag k="highway" v="residential"/>
    <tag k="name" v="Stefana Drzewieckiego"/>
  </way>
  <way id="25982198" version="3" timestamp="2008-10-22T21:56:29Z" uid="20587" user="balrog-kun" changeset="519665">
    <nd ref="283444659"/>
    <nd ref="283444660"/>
    <nd ref="283444661"/>
    <nd ref="283444662"/>
    <nd ref="283444566"/>
    <nd ref="306513445"/>
    <nd ref="283444567"/>
    <nd ref="283444569"/>
    <nd ref="283444570"/>
    <nd ref="283444571"/>
    <tag k="created_by" v="Potlatch 0.10b"/>
    <tag k="highway" v="residential"/>
    <tag k="name" v="Janusza Meissnera"/>
  </way>
  <way id="25982198" version="4" timestamp="2010-03-16T22:45:42Z" uid="163746" user="anti_bot-nonsense" changeset="4147795">
    <nd ref="283444659"/>
    <nd ref="283444660"/>
    <nd ref="283444661"/>
    <nd ref="283444662"/>
    <nd ref="283444566"/>
    <nd ref="306513445"/>
    <nd ref="283444567"/>
    <nd ref="283444569"/>
    <nd ref="283444570"/>
    <nd ref="283444571"/>
    <tag k="highway" v="residential"/>
    <tag k="name" v="Janusza Meissnera"/>
  </way>
  <way id="25982246" version="3" timestamp="2010-03-16T22:46:07Z" uid="163746" user="anti_bot-nonsense" changeset="4147795">
    <nd ref="283444163"/>
    <nd ref="283446853"/>
    <nd ref="283444777"/>
    <nd ref="283446855"/>
    <nd ref="283444571"/>
    <nd ref="283444779"/>
    <tag k="highway" v="residential"/>
    <tag k="name" v="Bohdana Arcta"/>
  </way>
  <way id="25982445" version="2" timestamp="2008-10-22T21:56:30Z" uid="20587" user="balrog-kun" changeset="519665">
    <nd ref="283447132"/>
    <nd ref="283447135"/>
    <nd ref="283447137"/>
    <nd ref="306513441"/>
    <nd ref="283447139"/>
    <nd ref="283447142"/>
    <nd ref="283444659"/>
    <tag k="created_by" v="Potlatch 0.10b"/>
    <tag k="highway" v="residential"/>
    <tag k="name" v="Stanisława Latwisa"/>
  </way>
  <way id="25982445" version="3" timestamp="2010-03-16T22:45:50Z" uid="163746" user="anti_bot-nonsense" changeset="4147795">
    <nd ref="283447132"/>
    <nd ref="283447135"/>
    <nd ref="283447137"/>
    <nd ref="306513441"/>
    <nd ref="283447139"/>
    <nd ref="283447142"/>
    <nd ref="283444659"/>
    <tag k="highway" v="residential"/>
    <tag k="name" v="Stanisława Latwisa"/>
  </way>
  <way id="25982536" version="2" timestamp="2008-09-14T14:37:34Z" uid="6975" user="ulfl" changeset="640534">
    <nd ref="283448435"/>
    <nd ref="32821939"/>
    <nd ref="14580665"/>
    <nd ref="14580666"/>
    <nd ref="32821940"/>
    <nd ref="283448432"/>
    <tag k="cycleway" v="opposite_lane"/>
    <tag k="highway" v="unclassified"/>
    <tag k="oneway" v="yes"/>
    <tag k="source_ref" v="gps survey"/>
  </way>
  <way id="25982548" version="2" timestamp="2009-01-02T19:17:30Z" uid="1066" user="pavel" changeset="711202">
    <nd ref="283448352"/>
    <nd ref="283448353"/>
    <nd ref="283448354"/>
    <nd ref="283448355"/>
    <nd ref="283448357"/>
    <nd ref="283448378"/>
    <nd ref="283448380"/>
    <nd ref="283448383"/>
    <nd ref="283448388"/>
    <nd ref="283448395"/>
    <nd ref="283448397"/>
    <nd ref="283448404"/>
    <nd ref="283448407"/>
    <nd ref="283448412"/>
    <nd ref="283448415"/>
    <nd ref="283448419"/>
    <nd ref="283448422"/>
    <nd ref="324722282"/>
    <nd ref="283448440"/>
    <nd ref="283448444"/>
    <nd ref="283448447"/>
    <nd ref="283448451"/>
    <nd ref="283448453"/>
    <nd ref="283448457"/>
    <nd ref="283448467"/>
    <nd ref="283448479"/>
    <nd ref="283448488"/>
    <nd ref="283448491"/>
    <nd ref="283448494"/>
    <nd ref="283448497"/>
    <nd ref="283448500"/>
    <nd ref="283448503"/>
    <nd ref="283448506"/>
    <nd ref="283448509"/>
    <nd ref="283448513"/>
    <tag k="highway" v="track"/>
    <tag k="surface" v="paved"/>
    <tag k="tracktype" v="grade1"/>
  </way>
  <way id="25982722" version="6" timestamp="2010-03-16T22:47:33Z" uid="163746" user="anti_bot-nonsense" changeset="4147795">
    <nd ref="283449931"/>
    <nd ref="283450122"/>
    <tag k="highway" v="residential"/>
  </way>
  <way id="25982764" version="4" timestamp="2010-03-14T20:41:54Z" uid="163746" user="anti_bot-nonsense" changeset="4128666">
    <nd ref="283450194"/>
    <nd ref="283450345"/>
    <tag k="highway" v="residential"/>
    <tag k="name" v="Miodowa"/>
    <tag k="oneway" v="yes"/>
  </way>
  <way id="25982784" version="4" timestamp="2010-03-14T20:41:53Z" uid="163746" user="anti_bot-nonsense" changeset="4128666">
    <nd ref="283450577"/>
    <nd ref="283450194"/>
    <tag k="highway" v="residential"/>
    <tag k="name" v="Miodowa"/>
    <tag k="oneway" v="yes"/>
  </way>
  <way id="25982873" version="3" timestamp="2008-08-09T20:28:05Z" uid="33382" user="de_muur" changeset="157474">
    <nd ref="283451682"/>
    <nd ref="283451685"/>
    <tag k="bridge" v="yes"/>
    <tag k="highway" v="tertiary"/>
    <tag k="layer" v="1"/>
    <tag k="name" v="Lauenbrücker Strasse"/>
    <tag k="ref" v="K 212"/>
  </way>
  <way id="25982874" version="3" timestamp="2008-08-09T20:28:06Z" uid="33382" user="de_muur" changeset="157474">
    <nd ref="283451682"/>
    <nd ref="283451689"/>
    <nd ref="283451693"/>
    <nd ref="282566536"/>
    <nd ref="283451679"/>
    <tag k="highway" v="tertiary"/>
    <tag k="name" v="Lauenbrücker Strasse"/>
    <tag k="ref" v="K 212"/>
  </way>
  <way id="25982875" version="3" timestamp="2008-08-09T20:28:05Z" uid="33382" user="de_muur" changeset="157474">
    <nd ref="282566242"/>
    <nd ref="283451692"/>
    <nd ref="283432033"/>
    <nd ref="283451691"/>
    <nd ref="283451685"/>
    <tag k="highway" v="tertiary"/>
    <tag k="name" v="Lauenbrücker Strasse"/>
    <tag k="ref" v="K 212"/>
  </way>
  <way id="25982878" version="3" timestamp="2008-08-09T20:28:05Z" uid="33382" user="de_muur" changeset="157474">
    <nd ref="283451698"/>
    <nd ref="283451815"/>
    <tag k="bridge" v="yes"/>
    <tag k="highway" v="tertiary"/>
    <tag k="layer" v="1"/>
    <tag k="name" v="Seghorn"/>
    <tag k="ref" v="K 212"/>
  </way>
  <way id="25982879" version="3" timestamp="2008-08-09T20:28:13Z" uid="33382" user="de_muur" changeset="157474"/>
  <way id="25982880" version="3" timestamp="2008-08-09T20:28:02Z" uid="33382" user="de_muur" changeset="157474">
    <nd ref="283451817"/>
    <nd ref="282858866"/>
    <nd ref="283451702"/>
    <nd ref="283451701"/>
    <nd ref="283451700"/>
    <nd ref="283451698"/>
    <tag k="highway" v="tertiary"/>
    <tag k="name" v="Seghorn"/>
    <tag k="ref" v="K 212"/>
  </way>
  <way id="25982881" version="3" timestamp="2008-08-09T20:28:13Z" uid="33382" user="de_muur" changeset="157474"/>
  <way id="25982882" version="3" timestamp="2008-08-09T20:28:01Z" uid="33382" user="de_muur" changeset="157474">
    <nd ref="283451705"/>
    <nd ref="283451817"/>
    <tag k="highway" v="tertiary"/>
    <tag k="name" v="Freudenthalstrasse"/>
    <tag k="ref" v="K 212"/>
  </way>
  <way id="25982883" version="3" timestamp="2008-08-09T20:28:02Z" uid="33382" user="de_muur" changeset="157474">
    <nd ref="283451706"/>
    <nd ref="283451705"/>
    <tag k="highway" v="tertiary"/>
    <tag k="name" v="Schneverdinger Strasse"/>
    <tag k="ref" v="K 212"/>
  </way>
  <way id="25982886" version="3" timestamp="2008-08-09T20:27:59Z" uid="33382" user="de_muur" changeset="157474">
    <nd ref="283451722"/>
    <nd ref="283451745"/>
    <tag k="highway" v="tertiary"/>
    <tag k="name" v="Schneverdinger Strasse"/>
    <tag k="ref" v="K 221"/>
  </way>
  <way id="25982889" version="3" timestamp="2008-08-09T20:28:03Z" uid="33382" user="de_muur" changeset="157474">
    <nd ref="283451705"/>
    <nd ref="283451722"/>
    <tag k="highway" v="tertiary"/>
    <tag k="name" v="Schneverdinger Strasse"/>
    <tag k="ref" v="K 221"/>
  </way>
  <way id="25982890" version="3" timestamp="2008-08-09T20:28:03Z" uid="33382" user="de_muur" changeset="157474">
    <nd ref="283451798"/>
    <nd ref="283451799"/>
    <nd ref="283451760"/>
    <nd ref="283451745"/>
    <tag k="highway" v="tertiary"/>
    <tag k="name" v="Schneverdinger Strasse"/>
    <tag k="ref" v="K 221"/>
  </way>
  <way id="25982896" version="3" timestamp="2008-08-09T20:27:58Z" uid="33382" user="de_muur" changeset="157474">
    <nd ref="283451794"/>
    <nd ref="283451809"/>
    <nd ref="283451806"/>
    <nd ref="283451774"/>
    <nd ref="283451802"/>
    <nd ref="283451801"/>
    <nd ref="283451800"/>
    <nd ref="283451798"/>
    <tag k="highway" v="tertiary"/>
    <tag k="name" v="Pferdemarkt"/>
    <tag k="ref" v="K 221"/>
  </way>
  <way id="25982897" version="3" timestamp="2008-08-09T20:27:57Z" uid="33382" user="de_muur" changeset="157474">
    <nd ref="268777010"/>
    <nd ref="283451794"/>
    <tag k="highway" v="tertiary"/>
    <tag k="name" v="Wohlsberg"/>
    <tag k="ref" v="K 221"/>
  </way>
  <way id="25982898" version="4" timestamp="2008-08-09T20:27:57Z" uid="33382" user="de_muur" changeset="157474">
    <nd ref="283451813"/>
    <nd ref="268777010"/>
    <tag k="highway" v="tertiary"/>
    <tag k="name" v="Wohlsberg"/>
    <tag k="ref" v="K 221"/>
  </way>
  <way id="25982899" version="4" timestamp="2008-08-09T20:27:56Z" uid="33382" user="de_muur" changeset="157474">
    <nd ref="282838157"/>
    <nd ref="283458358"/>
    <tag k="highway" v="tertiary"/>
    <tag k="name" v="Tostedter Damm"/>
    <tag k="ref" v="K 221"/>
  </way>
  <way id="25982900" version="3" timestamp="2008-08-09T20:27:56Z" uid="33382" user="de_muur" changeset="157474">
    <nd ref="283451815"/>
    <nd ref="282566242"/>
    <tag k="highway" v="tertiary"/>
    <tag k="name" v="Seghorn"/>
    <tag k="ref" v="K 212"/>
  </way>
  <way id="25982901" version="3" timestamp="2008-08-09T20:27:56Z" uid="33382" user="de_muur" changeset="157474">
    <nd ref="283451817"/>
    <nd ref="283451816"/>
    <tag k="highway" v="tertiary"/>
    <tag k="name" v="Rotenburger Strasse"/>
    <tag k="ref" v="K 211"/>
    <tag k="surface" v="paved"/>
  </way>
  <way id="25982902" version="3" timestamp="2008-08-09T20:27:55Z" uid="33382" user="de_muur" changeset="157474">
    <nd ref="283451819"/>
    <nd ref="283451820"/>
    <tag k="bridge" v="yes"/>
    <tag k="highway" v="tertiary"/>
    <tag k="layer" v="1"/>
    <tag k="name" v="Rotenburger Strasse"/>
    <tag k="ref" v="K 211"/>
  </way>
  <way id="25982905" version="3" timestamp="2008-08-09T20:27:58Z" uid="33382" user="de_muur" changeset="157474">
    <nd ref="283451819"/>
    <nd ref="283451817"/>
    <tag k="highway" v="tertiary"/>
    <tag k="name" v="Rotenburger Strasse"/>
    <tag k="ref" v="K 211"/>
  </way>
  <way id="25982906" version="3" timestamp="2008-08-09T20:27:58Z" uid="33382" user="de_muur" changeset="157474">
    <nd ref="283451820"/>
    <nd ref="283451829"/>
    <nd ref="283451841"/>
    <nd ref="283451860"/>
    <nd ref="283451794"/>
    <tag k="highway" v="tertiary"/>
    <tag k="name" v="Rotenburger Strasse"/>
    <tag k="ref" v="K 211"/>
  </way>
</osm>
