<?xml version='1.0' encoding='UTF-8'?>
<osm version="0.6" generator="libosmium/2.20.0">
  <way id="25995001" version="7" timestamp="2011-04-27T20:30:04Z" uid="9581" user="Lobelt" changeset="7989151">
    <nd ref="260955937"/>
    <nd ref="283588798"/>
    <nd ref="283588799"/>
    <nd ref="283588801"/>
    <nd ref="1262466400"/>
    <nd ref="283588802"/>
    <nd ref="283588803"/>
    <nd ref="1229992885"/>
    <nd ref="283588804"/>
    <nd ref="283588805"/>
    <nd ref="283588807"/>
    <nd ref="283588808"/>
    <nd ref="1229992843"/>
    <nd ref="283588809"/>
    <nd ref="1229992586"/>
    <nd ref="1229992638"/>
    <nd ref="283588810"/>
    <tag k="highway" v="residential"/>
  </way>
  <way id="25995034" version="22" timestamp="2011-04-27T20:07:55Z" uid="9581" user="Lobelt" changeset="7988938">
    <nd ref="260955937"/>
    <nd ref="1229992516"/>
    <nd ref="283589435"/>
    <nd ref="283589439"/>
    <nd ref="283589443"/>
    <nd ref="1229992484"/>
    <nd ref="283589445"/>
    <nd ref="1229992291"/>
    <nd ref="283589447"/>
    <nd ref="1229992717"/>
    <nd ref="283589451"/>
    <nd ref="1229992524"/>
    <nd ref="283589452"/>
    <nd ref="1229992632"/>
    <nd ref="283589454"/>
    <nd ref="1229992680"/>
    <nd ref="1229992845"/>
    <nd ref="1229992443"/>
    <nd ref="283589457"/>
    <nd ref="1229992862"/>
    <nd ref="283589459"/>
    <nd ref="1229992360"/>
    <nd ref="283589461"/>
    <nd ref="283589462"/>
    <nd ref="1229992794"/>
    <nd ref="1229992767"/>
    <nd ref="283589465"/>
    <nd ref="283589466"/>
    <nd ref="283589467"/>
    <nd ref="283589468"/>
    <nd ref="283589469"/>
    <nd ref="1229992630"/>
    <nd ref="1229992756"/>
    <nd ref="283589470"/>
    <nd ref="283589471"/>
    <nd ref="1229992587"/>
    <nd ref="283589472"/>
    <nd ref="1229992406"/>
    <nd ref="1229992289"/>
    <nd ref="1229992802"/>
    <nd ref="283589474"/>
    <nd ref="1229992714"/>
    <nd ref="1229992522"/>
    <nd ref="283589476"/>
    <nd ref="1229992341"/>
    <nd ref="295404719"/>
    <nd ref="1229992493"/>
    <nd ref="1229992297"/>
    <nd ref="283589478"/>
    <nd ref="1229992723"/>
    <nd ref="1229992532"/>
    <nd ref="283589479"/>
    <nd ref="1229992639"/>
    <nd ref="283589480"/>
    <nd ref="283589481"/>
    <nd ref="1229992451"/>
    <nd ref="283589482"/>
    <nd ref="283589483"/>
    <nd ref="1229992813"/>
    <nd ref="283589484"/>
    <nd ref="283589485"/>
    <nd ref="1229992415"/>
    <nd ref="283589486"/>
    <nd ref="1229992600"/>
    <nd ref="283589487"/>
    <nd ref="1229992686"/>
    <nd ref="1229992850"/>
    <nd ref="283589488"/>
    <nd ref="283589489"/>
    <nd ref="283589490"/>
    <nd ref="1229992651"/>
    <nd ref="283589491"/>
    <nd ref="1229992491"/>
    <nd ref="1229992721"/>
    <nd ref="283589492"/>
    <nd ref="1229992530"/>
    <nd ref="1229992359"/>
    <nd ref="1229992766"/>
    <nd ref="283589494"/>
    <nd ref="283589497"/>
    <nd ref="283589498"/>
    <nd ref="1229992377"/>
    <nd ref="283589500"/>
    <nd ref="1229992301"/>
    <nd ref="1229992731"/>
    <nd ref="1229992542"/>
    <nd ref="283589501"/>
    <nd ref="1229992823"/>
    <nd ref="1229992423"/>
    <nd ref="283589502"/>
    <nd ref="1229992614"/>
    <nd ref="1229992775"/>
    <nd ref="1229992649"/>
    <nd ref="283589503"/>
    <nd ref="1229992414"/>
    <nd ref="1229992812"/>
    <nd ref="1229992691"/>
    <nd ref="1229992497"/>
    <nd ref="1229992599"/>
    <nd ref="283589505"/>
    <nd ref="283589506"/>
    <nd ref="1229992859"/>
    <nd ref="1229992460"/>
    <nd ref="1229992295"/>
    <nd ref="888912418"/>
    <nd ref="1229992488"/>
    <nd ref="283589509"/>
    <nd ref="1229992758"/>
    <nd ref="888912349"/>
    <nd ref="1229992351"/>
    <nd ref="1229992853"/>
    <nd ref="283589511"/>
    <nd ref="283589512"/>
    <nd ref="283589513"/>
    <nd ref="1229992453"/>
    <nd ref="1229992641"/>
    <nd ref="283589514"/>
    <nd ref="1229992804"/>
    <nd ref="1229992293"/>
    <nd ref="283589515"/>
    <nd ref="283589516"/>
    <nd ref="1229992486"/>
    <nd ref="283589517"/>
    <nd ref="283589518"/>
    <nd ref="1229992683"/>
    <nd ref="283589519"/>
    <nd ref="283589520"/>
    <nd ref="283589521"/>
    <nd ref="1229992528"/>
    <nd ref="1229992357"/>
    <nd ref="1229992764"/>
    <nd ref="283589522"/>
    <nd ref="1229992848"/>
    <nd ref="283589523"/>
    <nd ref="1229992582"/>
    <nd ref="283589525"/>
    <nd ref="283589526"/>
    <nd ref="888912017"/>
    <nd ref="888921284"/>
    <nd ref="283589527"/>
    <nd ref="283589528"/>
    <nd ref="888921282"/>
    <nd ref="283589530"/>
    <nd ref="888912579"/>
    <nd ref="1229992753"/>
    <nd ref="283589531"/>
    <nd ref="1229992335"/>
    <nd ref="1229992517"/>
    <nd ref="283589533"/>
    <nd ref="1262446890"/>
    <tag k="highway" v="secondary"/>
    <tag k="ref" v="K 78"/>
  </way>
  <way id="25995034" version="23" timestamp="2011-04-27T20:30:06Z" uid="9581" user="Lobelt" changeset="7989151">
    <nd ref="260955937"/>
    <nd ref="1229992516"/>
    <nd ref="283589435"/>
    <nd ref="283589439"/>
    <nd ref="283589443"/>
    <nd ref="1229992484"/>
    <tag k="highway" v="secondary"/>
    <tag k="ref" v="K 78"/>
  </way>
  <way id="25995134" version="3" timestamp="2009-10-18T10:32:03Z" uid="36809" user="pfoten_weg_!_" changeset="2881738">
    <nd ref="283590504"/>
    <nd ref="283590785"/>
    <tag k="foot" v="yes"/>
    <tag k="highway" v="footway"/>
  </way>
  <way id="25995139" version="3" timestamp="2009-10-18T10:32:00Z" uid="36809" user="pfoten_weg_!_" changeset="2881738">
    <nd ref="283590785"/>
    <nd ref="283590976"/>
    <tag k="highway" v="steps"/>
  </way>
  <way id="25995144" version="4" timestamp="2009-10-18T10:32:02Z" uid="36809" user="pfoten_weg_!_" changeset="2881738">
    <nd ref="283590976"/>
    <nd ref="283590251"/>
    <tag k="foot" v="yes"/>
    <tag k="highway" v="footway"/>
  </way>
  <way id="25995150" version="1" timestamp="2008-08-05T10:46:15Z" uid="43863" user="Rundling" changeset="69264">
    <nd ref="283591074"/>
    <nd ref="283591075"/>
    <nd ref="283591076"/>
    <nd ref="283591077"/>
    <nd ref="283591074"/>
    <tag k="created_by" v="Potlatch 0.10b"/>
  </way>
  <way id="25995150" version="2" timestamp="2008-08-05T10:46:22Z" uid="43863" user="Rundling" changeset="69264">
    <nd ref="283591074"/>
    <nd ref="283591104"/>
    <nd ref="283591076"/>
    <nd ref="283591105"/>
    <nd ref="283591074"/>
    <tag k="addr:city" v="Rosche"/>
    <tag k="addr:housenumber" v="12"/>
    <tag k="addr:postcode" v="29571"/>
    <tag k="addr:street" v="Ringstraße"/>
    <tag k="building" v="yes"/>
    <tag k="created_by" v="Potlatch 0.10b"/>
  </way>
  <way id="25995150" version="3" timestamp="2008-08-05T10:46:27Z" uid="43863" user="Rundling" changeset="69264">
    <nd ref="283591074"/>
    <nd ref="283591104"/>
    <nd ref="283591076"/>
    <nd ref="283591112"/>
    <nd ref="283591074"/>
    <tag k="addr:city" v="Rosche"/>
    <tag k="addr:housenumber" v="12"/>
    <tag k="addr:postcode" v="29571"/>
    <tag k="addr:street" v="Ringstraße"/>
    <tag k="building" v="yes"/>
    <tag k="created_by" v="Potlatch 0.10b"/>
  </way>
  <way id="25995150" version="4" timestamp="2008-08-05T10:46:45Z" uid="43863" user="Rundling" changeset="69264">
    <nd ref="283591074"/>
    <nd ref="283591104"/>
    <nd ref="283591076"/>
    <nd ref="283591112"/>
    <nd ref="283591074"/>
    <tag k="addr:city" v="Rosche"/>
    <tag k="addr:housenumber" v="12"/>
    <tag k="addr:postcode" v="29571"/>
    <tag k="addr:street" v="Ringstraße"/>
    <tag k="building" v="yes"/>
    <tag k="created_by" v="Potlatch 0.10b"/>
  </way>
  <way id="25995150" version="5" timestamp="2008-08-05T10:46:59Z" uid="43863" user="Rundling" changeset="69264">
    <nd ref="283591074"/>
    <nd ref="283591104"/>
    <nd ref="283591076"/>
    <nd ref="283591112"/>
    <nd ref="283591074"/>
    <tag k="addr:city" v="Rosche"/>
    <tag k="addr:housenumber" v="12"/>
    <tag k="addr:postcode" v="29571"/>
    <tag k="addr:street" v="Ringstraße"/>
    <tag k="building" v="yes"/>
    <tag k="created_by" v="Potlatch 0.10b"/>
  </way>
  <way id="25995150" version="6" timestamp="2008-08-05T10:47:38Z" uid="43863" user="Rundling" changeset="69264">
    <nd ref="283591074"/>
    <nd ref="283591104"/>
    <nd ref="283591076"/>
    <nd ref="283591112"/>
    <nd ref="283591074"/>
    <tag k="addr:city" v="Rosche"/>
    <tag k="addr:housenumber" v="12"/>
    <tag k="addr:postcode" v="29571"/>
    <tag k="addr:street" v="Ringstraße"/>
    <tag k="building" v="yes"/>
    <tag k="created_by" v="Potlatch 0.10b"/>
  </way>
  <way id="25995150" version="7" timestamp="2008-08-05T10:48:51Z" uid="43863" user="Rundling" changeset="69264">
    <nd ref="283591074"/>
    <nd ref="283591104"/>
    <nd ref="283591076"/>
    <nd ref="283591112"/>
    <nd ref="283591074"/>
    <tag k="addr:city" v="Rosche"/>
    <tag k="addr:housenumber" v="12"/>
    <tag k="addr:postcode" v="29571"/>
    <tag k="addr:street" v="Ringstraße"/>
    <tag k="building" v="yes"/>
    <tag k="created_by" v="Potlatch 0.10b"/>
  </way>
  <way id="25995150" version="8" timestamp="2008-08-05T10:49:25Z" uid="43863" user="Rundling" changeset="69264">
    <nd ref="283591074"/>
    <nd ref="283591104"/>
    <nd ref="283591076"/>
    <nd ref="283591112"/>
    <nd ref="283591074"/>
    <tag k="addr:city" v="Rosche"/>
    <tag k="addr:housenumber" v="12"/>
    <tag k="addr:postcode" v="29571"/>
    <tag k="addr:street" v="Ringstraße"/>
    <tag k="building" v="yes"/>
    <tag k="created_by" v="Potlatch 0.10b"/>
  </way>
  <way id="25995150" version="9" timestamp="2008-08-05T10:56:42Z" uid="43863" user="Rundling" changeset="69264">
    <nd ref="283591074"/>
    <nd ref="283591104"/>
    <nd ref="283591076"/>
    <nd ref="283591112"/>
    <nd ref="283591074"/>
    <tag k="addr:city" v="Rosche"/>
    <tag k="addr:housenumber" v="12"/>
    <tag k="addr:postcode" v="29571"/>
    <tag k="addr:street" v="Ringstraße"/>
    <tag k="building" v="yes"/>
    <tag k="created_by" v="Potlatch 0.10b"/>
  </way>
  <way id="25995150" version="10" timestamp="2008-09-27T09:07:41Z" uid="43863" user="Rundling" changeset="703494"/>
  <way id="25995158" version="1" timestamp="2008-08-05T10:47:16Z" uid="43863" user="Rundling" changeset="69264">
    <nd ref="283591340"/>
    <nd ref="283591341"/>
    <nd ref="283591342"/>
    <nd ref="283591344"/>
    <nd ref="283591340"/>
    <tag k="addr:city" v="Rosche"/>
    <tag k="addr:housenumber" v="14"/>
    <tag k="addr:postcode" v="29571"/>
    <tag k="addr:street" v="Ringstraße"/>
    <tag k="building" v="yes"/>
    <tag k="created_by" v="Potlatch 0.10b"/>
  </way>
  <way id="25995158" version="2" timestamp="2008-08-05T10:48:02Z" uid="43863" user="Rundling" changeset="69264">
    <nd ref="283591890"/>
    <nd ref="283591341"/>
    <nd ref="283591894"/>
    <nd ref="283591344"/>
    <nd ref="283591890"/>
    <tag k="addr:city" v="Rosche"/>
    <tag k="addr:housenumber" v="14"/>
    <tag k="addr:postcode" v="29571"/>
    <tag k="addr:street" v="Ringstraße"/>
    <tag k="building" v="yes"/>
    <tag k="created_by" v="Potlatch 0.10b"/>
  </way>
  <way id="25995158" version="3" timestamp="2008-08-05T10:48:19Z" uid="43863" user="Rundling" changeset="69264">
    <nd ref="283592149"/>
    <nd ref="283591341"/>
    <nd ref="283591894"/>
    <nd ref="283591344"/>
    <nd ref="283592149"/>
    <tag k="addr:city" v="Rosche"/>
    <tag k="addr:housenumber" v="14"/>
    <tag k="addr:postcode" v="29571"/>
    <tag k="addr:street" v="Ringstraße"/>
    <tag k="building" v="yes"/>
    <tag k="created_by" v="Potlatch 0.10b"/>
  </way>
  <way id="25995158" version="4" timestamp="2008-08-05T10:56:41Z" uid="43863" user="Rundling" changeset="69264">
    <nd ref="283592149"/>
    <nd ref="283591341"/>
    <nd ref="283591894"/>
    <nd ref="283591344"/>
    <nd ref="283592149"/>
    <tag k="addr:city" v="Rosche"/>
    <tag k="addr:housenumber" v="14"/>
    <tag k="addr:postcode" v="29571"/>
    <tag k="addr:street" v="Ringstraße"/>
    <tag k="building" v="yes"/>
    <tag k="created_by" v="Potlatch 0.10b"/>
  </way>
  <way id="25995158" version="5" timestamp="2008-08-05T10:58:34Z" uid="43863" user="Rundling" changeset="69264">
    <nd ref="283592149"/>
    <nd ref="283591341"/>
    <nd ref="283591894"/>
    <nd ref="283591344"/>
    <nd ref="283592149"/>
    <tag k="addr:city" v="Rosche"/>
    <tag k="addr:housenumber" v="14"/>
    <tag k="addr:postcode" v="29571"/>
    <tag k="addr:street" v="Ringstraße"/>
    <tag k="building" v="yes"/>
    <tag k="created_by" v="Potlatch 0.10b"/>
  </way>
  <way id="25995158" version="6" timestamp="2008-09-27T09:07:42Z" uid="43863" user="Rundling" changeset="703494"/>
  <way id="25995223" version="1" timestamp="2008-08-05T10:49:24Z" uid="43863" user="Rundling" changeset="69264">
    <nd ref="283592601"/>
    <nd ref="283592602"/>
    <nd ref="283592603"/>
    <nd ref="283592604"/>
    <nd ref="283592601"/>
    <tag k="addr:city" v="Rosche"/>
    <tag k="addr:housenumber" v="3"/>
    <tag k="addr:postcode" v="29571"/>
    <tag k="addr:street" v="Eichenweg"/>
    <tag k="building" v="yes"/>
    <tag k="created_by" v="Potlatch 0.10b"/>
  </way>
  <way id="25995223" version="2" timestamp="2008-08-05T10:58:07Z" uid="43863" user="Rundling" changeset="69264">
    <nd ref="283592601"/>
    <nd ref="283594569"/>
    <nd ref="283592603"/>
    <nd ref="283594570"/>
    <nd ref="283592601"/>
    <tag k="addr:city" v="Rosche"/>
    <tag k="addr:housenumber" v="3"/>
    <tag k="addr:postcode" v="29571"/>
    <tag k="addr:street" v="Eichenweg"/>
    <tag k="building" v="yes"/>
    <tag k="created_by" v="Potlatch 0.10b"/>
  </way>
  <way id="25995223" version="3" timestamp="2008-09-27T09:07:43Z" uid="43863" user="Rundling" changeset="703494"/>
  <way id="25995293" version="1" timestamp="2008-08-05T10:52:55Z" uid="43863" user="Rundling" changeset="69264">
    <nd ref="283593230"/>
    <nd ref="283593231"/>
    <nd ref="283593232"/>
    <nd ref="283593233"/>
    <nd ref="283593230"/>
    <tag k="addr:city" v="Rosche"/>
    <tag k="addr:housenumber" v="3"/>
    <tag k="addr:postcode" v="29571"/>
    <tag k="addr:street" v="Buchenweg "/>
    <tag k="building" v="yes"/>
    <tag k="created_by" v="Potlatch 0.10b"/>
  </way>
  <way id="25995293" version="2" timestamp="2008-08-05T10:53:11Z" uid="43863" user="Rundling" changeset="69264">
    <nd ref="283593302"/>
    <nd ref="283593231"/>
    <nd ref="283593303"/>
    <nd ref="283593233"/>
    <nd ref="283593302"/>
    <tag k="addr:city" v="Rosche"/>
    <tag k="addr:housenumber" v="3"/>
    <tag k="addr:postcode" v="29571"/>
    <tag k="addr:street" v="Buchenweg "/>
    <tag k="building" v="yes"/>
    <tag k="created_by" v="Potlatch 0.10b"/>
  </way>
  <way id="25995293" version="3" timestamp="2008-08-05T10:54:08Z" uid="43863" user="Rundling" changeset="69264">
    <nd ref="283593302"/>
    <nd ref="283593231"/>
    <nd ref="283593629"/>
    <nd ref="283593233"/>
    <nd ref="283593302"/>
    <tag k="addr:city" v="Rosche"/>
    <tag k="addr:housenumber" v="4"/>
    <tag k="addr:postcode" v="29571"/>
    <tag k="addr:street" v="Buchenweg "/>
    <tag k="building" v="yes"/>
    <tag k="created_by" v="Potlatch 0.10b"/>
  </way>
  <way id="25995293" version="4" timestamp="2008-08-05T11:02:40Z" uid="43863" user="Rundling" changeset="69264">
    <nd ref="283593302"/>
    <nd ref="283593231"/>
    <nd ref="283593629"/>
    <nd ref="283593233"/>
    <nd ref="283593302"/>
    <tag k="addr:city" v="Rosche"/>
    <tag k="addr:housenumber" v="4"/>
    <tag k="addr:postcode" v="29571"/>
    <tag k="addr:street" v="Buchenweg "/>
    <tag k="building" v="yes"/>
    <tag k="created_by" v="Potlatch 0.10b"/>
  </way>
  <way id="25995293" version="6" timestamp="2008-09-27T10:48:27Z" uid="43863" user="Rundling" changeset="707288"/>
  <way id="25995304" version="1" timestamp="2008-08-05T10:53:38Z" uid="43863" user="Rundling" changeset="69264">
    <nd ref="283593498"/>
    <nd ref="283593499"/>
    <nd ref="283593501"/>
    <nd ref="283593503"/>
    <nd ref="283593498"/>
    <tag k="created_by" v="Potlatch 0.10b"/>
  </way>
  <way id="25995304" version="2" timestamp="2008-08-05T10:54:18Z" uid="43863" user="Rundling" changeset="69264">
    <nd ref="283593498"/>
    <nd ref="283593668"/>
    <nd ref="283593501"/>
    <nd ref="283593669"/>
    <nd ref="283593498"/>
    <tag k="addr:city" v="Rosche"/>
    <tag k="addr:housenumber" v="2"/>
    <tag k="addr:postcode" v="29571"/>
    <tag k="addr:street" v="Buchenweg "/>
    <tag k="building" v="yes"/>
    <tag k="created_by" v="Potlatch 0.10b"/>
  </way>
  <way id="25995304" version="4" timestamp="2008-09-27T10:48:27Z" uid="43863" user="Rundling" changeset="707288"/>
  <way id="25995312" version="6" timestamp="2010-07-08T17:55:20Z" uid="74617" user="JohnSmith" changeset="5167338">
    <nd ref="283593678"/>
    <nd ref="283595313"/>
    <nd ref="283593727"/>
    <nd ref="283593795"/>
    <nd ref="550565757"/>
    <nd ref="283593937"/>
    <tag k="highway" v="residential"/>
    <tag k="maxspeed" v="50"/>
    <tag k="maxspeed:source" v="default residential speed limit in Australia"/>
  </way>
  <way id="25995315" version="1" timestamp="2008-08-05T10:54:47Z" uid="30201" user="rrankin" changeset="78777">
    <nd ref="283593738"/>
    <nd ref="283593740"/>
    <nd ref="283593742"/>
    <tag k="highway" v="residential"/>
    <tag k="name" v="Patricia Avenue"/>
    <tag k="source" v="yahoo"/>
  </way>
  <way id="25995315" version="2" timestamp="2010-07-07T22:26:10Z" uid="74617" user="JohnSmith" changeset="5162525">
    <nd ref="283593738"/>
    <nd ref="283593740"/>
    <nd ref="283593742"/>
    <tag k="highway" v="residential"/>
    <tag k="maxspeed" v="50"/>
    <tag k="maxspeed:source" v="default residential speed limit in Australia"/>
    <tag k="name" v="Patricia Avenue"/>
    <tag k="source" v="yahoo"/>
  </way>
  <way id="25995317" version="1" timestamp="2008-08-05T10:54:51Z" uid="30201" user="rrankin" changeset="78777">
    <nd ref="283593740"/>
    <nd ref="283593746"/>
    <tag k="highway" v="residential"/>
    <tag k="name" v="Dawn Avenue"/>
    <tag k="source" v="yahoo"/>
  </way>
  <way id="25995317" version="2" timestamp="2010-07-07T22:30:30Z" uid="74617" user="JohnSmith" changeset="5162525">
    <nd ref="283593740"/>
    <nd ref="283593746"/>
    <tag k="highway" v="residential"/>
    <tag k="maxspeed" v="50"/>
    <tag k="maxspeed:source" v="default residential speed limit in Australia"/>
    <tag k="name" v="Dawn Avenue"/>
    <tag k="source" v="yahoo"/>
  </way>
  <way id="25995318" version="3" timestamp="2010-07-08T17:56:39Z" uid="74617" user="JohnSmith" changeset="5167338">
    <nd ref="283593729"/>
    <nd ref="283593759"/>
    <tag k="highway" v="residential"/>
    <tag k="maxspeed" v="50"/>
    <tag k="maxspeed:source" v="default residential speed limit in Australia"/>
    <tag k="name" v="Grandview Drive"/>
  </way>
  <way id="25995334" version="4" timestamp="2010-07-08T17:55:28Z" uid="74617" user="JohnSmith" changeset="5167338">
    <nd ref="283593759"/>
    <nd ref="283595236"/>
    <nd ref="283595237"/>
    <nd ref="283595238"/>
    <nd ref="283595239"/>
    <nd ref="550565157"/>
    <nd ref="283595240"/>
    <nd ref="283593906"/>
    <nd ref="283593907"/>
    <nd ref="283593908"/>
    <nd ref="283593909"/>
    <nd ref="283593910"/>
    <tag k="highway" v="residential"/>
    <tag k="maxspeed" v="50"/>
    <tag k="maxspeed:source" v="default residential speed limit in Australia"/>
    <tag k="name" v="The Esplanade"/>
  </way>
  <way id="25995339" version="2" timestamp="2008-08-18T13:06:26Z" uid="9581" user="Lobelt" changeset="311351">
    <nd ref="253418200"/>
    <nd ref="283593967"/>
    <nd ref="283593968"/>
    <nd ref="283593969"/>
    <nd ref="283593970"/>
    <nd ref="283593971"/>
    <nd ref="283593973"/>
    <nd ref="283593974"/>
    <nd ref="283593975"/>
    <nd ref="283593976"/>
    <nd ref="283593977"/>
    <nd ref="283593979"/>
    <nd ref="283593980"/>
    <nd ref="283593981"/>
    <tag k="created_by" v="Potlatch 0.10b"/>
    <tag k="highway" v="track"/>
    <tag k="tracktype" v="grade2"/>
  </way>
  <way id="25995339" version="4" timestamp="2008-09-22T09:24:42Z" uid="9581" user="Lobelt" changeset="678638">
    <nd ref="253418200"/>
    <nd ref="283593967"/>
    <nd ref="283593968"/>
    <nd ref="283593969"/>
    <nd ref="283593970"/>
    <nd ref="283593971"/>
    <nd ref="283593973"/>
    <nd ref="283593974"/>
    <nd ref="283593975"/>
    <nd ref="283593976"/>
    <nd ref="283593977"/>
    <nd ref="283593979"/>
    <nd ref="283593980"/>
    <nd ref="283593981"/>
    <tag k="created_by" v="Potlatch 0.10b"/>
    <tag k="highway" v="track"/>
    <tag k="history" v="Retrieved from v2"/>
    <tag k="tracktype" v="grade2"/>
  </way>
  <way id="25995339" version="6" timestamp="2008-10-26T11:29:02Z" uid="9581" user="Lobelt" changeset="580223">
    <nd ref="307650801"/>
    <nd ref="283593967"/>
    <nd ref="283593968"/>
    <nd ref="283593969"/>
    <nd ref="283593970"/>
    <nd ref="283593971"/>
    <nd ref="283593973"/>
    <nd ref="283593974"/>
    <nd ref="283593975"/>
    <nd ref="283593976"/>
    <nd ref="283593977"/>
    <nd ref="283593979"/>
    <nd ref="283593980"/>
    <nd ref="283593981"/>
    <tag k="created_by" v="Potlatch 0.10e"/>
    <tag k="highway" v="track"/>
    <tag k="history" v="Retrieved from v4"/>
    <tag k="tracktype" v="grade2"/>
  </way>
  <way id="25995354" version="5" timestamp="2010-07-08T17:56:11Z" uid="74617" user="JohnSmith" changeset="5167338">
    <nd ref="283593937"/>
    <nd ref="283594120"/>
    <nd ref="550565502"/>
    <nd ref="283593910"/>
    <nd ref="283595452"/>
    <nd ref="283594123"/>
    <nd ref="283595451"/>
    <nd ref="283595454"/>
    <nd ref="283594125"/>
    <nd ref="283594126"/>
    <nd ref="283594127"/>
    <nd ref="283595455"/>
    <nd ref="283594129"/>
    <nd ref="283595456"/>
    <nd ref="283595457"/>
    <nd ref="283594132"/>
    <nd ref="283594133"/>
    <nd ref="283595458"/>
    <nd ref="283594135"/>
    <nd ref="283594153"/>
    <tag k="highway" v="residential"/>
    <tag k="maxspeed" v="50"/>
    <tag k="maxspeed:source" v="default residential speed limit in Australia"/>
  </way>
  <way id="25995356" version="4" timestamp="2010-07-08T17:56:19Z" uid="74617" user="JohnSmith" changeset="5167338">
    <nd ref="283594153"/>
    <nd ref="283595482"/>
    <nd ref="283596038"/>
    <tag k="highway" v="residential"/>
    <tag k="maxspeed" v="50"/>
    <tag k="maxspeed:source" v="default residential speed limit in Australia"/>
  </way>
  <way id="25995362" version="5" timestamp="2010-04-02T17:19:04Z" uid="20587" user="balrog-kun" changeset="4304500">
    <nd ref="53043859"/>
    <nd ref="53188441"/>
    <nd ref="53188442"/>
    <nd ref="53188443"/>
    <nd ref="53043969"/>
    <nd ref="53139915"/>
    <nd ref="53040330"/>
    <nd ref="53188444"/>
    <nd ref="53188447"/>
    <nd ref="53188448"/>
    <nd ref="53136685"/>
    <nd ref="53188451"/>
    <nd ref="53188452"/>
    <nd ref="53188453"/>
    <nd ref="53100497"/>
    <nd ref="53188454"/>
    <nd ref="53185232"/>
    <nd ref="53188455"/>
    <nd ref="53184922"/>
    <nd ref="53188456"/>
    <nd ref="53188457"/>
    <nd ref="53062738"/>
    <nd ref="53115798"/>
    <nd ref="53188458"/>
    <nd ref="53188459"/>
    <nd ref="53188460"/>
    <nd ref="53188461"/>
    <nd ref="282825127"/>
    <nd ref="282825126"/>
    <nd ref="282825128"/>
    <nd ref="282825130"/>
    <nd ref="53188462"/>
    <tag k="highway" v="residential"/>
    <tag k="name" v="148th Avenue Southeast"/>
    <tag k="tiger:cfcc" v="A41"/>
    <tag k="tiger:county" v="King, WA"/>
    <tag k="tiger:name_base" v="148th"/>
    <tag k="tiger:name_direction_suffix" v="SE"/>
    <tag k="tiger:reviewed" v="no"/>
    <tag k="tiger:separated" v="no"/>
    <tag k="tiger:source" v="tiger_import_dch_v0.6_20070830"/>
    <tag k="tiger:tlid" v="186919605:186948179:186687934:186701493:186637009:186675603:186675077:186961093:186961094:186920028:186949833:186675011:186949235:186638095:186638096:186701494:186675591:186638101:186638134:186638138:186638139:186638141:186638143:186638146:186638148:18663"/>
    <tag k="tiger:zip_left" v="98042"/>
    <tag k="tiger:zip_right" v="98042"/>
  </way>
  <way id="25995364" version="5" timestamp="2010-07-08T17:56:33Z" uid="74617" user="JohnSmith" changeset="5167338">
    <nd ref="283596038"/>
    <nd ref="283595486"/>
    <nd ref="283594325"/>
    <nd ref="283594242"/>
    <tag k="highway" v="residential"/>
    <tag k="maxspeed" v="50"/>
    <tag k="maxspeed:source" v="default residential speed limit in Australia"/>
    <tag k="name" v="Florida Avenue"/>
  </way>
  <way id="25995366" version="4" timestamp="2008-08-18T13:06:29Z" uid="9581" user="Lobelt" changeset="311351">
    <nd ref="281959114"/>
    <nd ref="283594246"/>
    <nd ref="283593979"/>
    <tag k="created_by" v="Potlatch 0.10b"/>
    <tag k="highway" v="track"/>
    <tag k="tracktype" v="grade2"/>
  </way>
  <way id="25995366" version="6" timestamp="2008-09-22T09:24:31Z" uid="9581" user="Lobelt" changeset="678638">
    <nd ref="281959114"/>
    <nd ref="283594246"/>
    <nd ref="283593979"/>
    <tag k="created_by" v="Potlatch 0.10b"/>
    <tag k="highway" v="track"/>
    <tag k="history" v="Retrieved from v4"/>
    <tag k="tracktype" v="grade2"/>
  </way>
  <way id="25995366" version="7" timestamp="2008-11-25T14:58:00Z" uid="9581" user="Lobelt" changeset="791603">
    <nd ref="281959114"/>
    <nd ref="283594246"/>
    <nd ref="283593979"/>
    <tag k="created_by" v="Potlatch 0.10f"/>
    <tag k="highway" v="track"/>
    <tag k="tracktype" v="grade2"/>
  </way>
  <way id="25995369" version="1" timestamp="2008-08-05T10:56:55Z" uid="43863" user="Rundling" changeset="69264">
    <nd ref="283594262"/>
    <nd ref="283594263"/>
    <nd ref="283594264"/>
    <nd ref="283594265"/>
    <nd ref="283594262"/>
    <tag k="addr:city" v="Rosche"/>
    <tag k="addr:housenumber" v="16"/>
    <tag k="addr:postcode" v="29571"/>
    <tag k="addr:street" v="Ringstraße"/>
    <tag k="building" v="yes"/>
    <tag k="created_by" v="Potlatch 0.10b"/>
  </way>
  <way id="25995369" version="2" timestamp="2008-08-05T10:57:13Z" uid="43863" user="Rundling" changeset="69264">
    <nd ref="283594262"/>
    <nd ref="283594311"/>
    <nd ref="283594264"/>
    <nd ref="283594312"/>
    <nd ref="283594262"/>
    <tag k="addr:city" v="Rosche"/>
    <tag k="addr:housenumber" v="16"/>
    <tag k="addr:postcode" v="29571"/>
    <tag k="addr:street" v="Ringstraße"/>
    <tag k="building" v="yes"/>
    <tag k="created_by" v="Potlatch 0.10b"/>
  </way>
  <way id="25995369" version="3" timestamp="2008-08-05T10:57:24Z" uid="43863" user="Rundling" changeset="69264">
    <nd ref="283594262"/>
    <nd ref="283594311"/>
    <nd ref="283594264"/>
    <nd ref="283594334"/>
    <nd ref="283594262"/>
    <tag k="addr:city" v="Rosche"/>
    <tag k="addr:housenumber" v="16"/>
    <tag k="addr:postcode" v="29571"/>
    <tag k="addr:street" v="Ringstraße"/>
    <tag k="building" v="yes"/>
    <tag k="created_by" v="Potlatch 0.10b"/>
  </way>
  <way id="25995369" version="4" timestamp="2008-09-27T09:07:41Z" uid="43863" user="Rundling" changeset="703494"/>
  <way id="25995373" version="9" timestamp="2010-07-08T17:55:23Z" uid="74617" user="JohnSmith" changeset="5167338">
    <nd ref="283594324"/>
    <nd ref="283594325"/>
    <nd ref="283597173"/>
    <nd ref="283595636"/>
    <nd ref="283597062"/>
    <nd ref="283594326"/>
    <nd ref="283594327"/>
    <nd ref="283594328"/>
    <tag k="highway" v="residential"/>
    <tag k="maxspeed" v="50"/>
    <tag k="maxspeed:source" v="default residential speed limit in Australia"/>
    <tag k="name" v="Toorak Road"/>
  </way>
  <way id="25995378" version="1" timestamp="2008-08-05T10:57:41Z" uid="43863" user="Rundling" changeset="69264">
    <nd ref="283594418"/>
    <nd ref="283594419"/>
    <nd ref="283594420"/>
    <nd ref="283594421"/>
    <nd ref="283594418"/>
    <tag k="addr:city" v="Rosche"/>
    <tag k="addr:housenumber" v="18"/>
    <tag k="addr:postcode" v="29571"/>
    <tag k="addr:street" v="Ringstraße"/>
    <tag k="building" v="yes"/>
    <tag k="created_by" v="Potlatch 0.10b"/>
  </way>
  <way id="25995378" version="2" timestamp="2008-08-05T10:57:56Z" uid="43863" user="Rundling" changeset="69264">
    <nd ref="283594418"/>
    <nd ref="283594530"/>
    <nd ref="283594420"/>
    <nd ref="283594531"/>
    <nd ref="283594418"/>
    <tag k="addr:city" v="Rosche"/>
    <tag k="addr:housenumber" v="18"/>
    <tag k="addr:postcode" v="29571"/>
    <tag k="addr:street" v="Ringstraße"/>
    <tag k="building" v="yes"/>
    <tag k="created_by" v="Potlatch 0.10b"/>
  </way>
  <way id="25995378" version="3" timestamp="2008-08-05T10:57:59Z" uid="43863" user="Rundling" changeset="69264">
    <nd ref="283594418"/>
    <nd ref="283594545"/>
    <nd ref="283594420"/>
    <nd ref="283594531"/>
    <nd ref="283594418"/>
    <tag k="addr:city" v="Rosche"/>
    <tag k="addr:housenumber" v="18"/>
    <tag k="addr:postcode" v="29571"/>
    <tag k="addr:street" v="Ringstraße"/>
    <tag k="building" v="yes"/>
    <tag k="created_by" v="Potlatch 0.10b"/>
  </way>
  <way id="25995378" version="4" timestamp="2008-08-05T10:58:15Z" uid="43863" user="Rundling" changeset="69264">
    <nd ref="283594418"/>
    <nd ref="283594545"/>
    <nd ref="283594420"/>
    <nd ref="283594531"/>
    <nd ref="283594418"/>
    <tag k="addr:city" v="Rosche"/>
    <tag k="addr:housenumber" v="18"/>
    <tag k="addr:postcode" v="29571"/>
    <tag k="addr:street" v="Ringstraße"/>
    <tag k="building" v="yes"/>
    <tag k="created_by" v="Potlatch 0.10b"/>
  </way>
  <way id="25995378" version="5" timestamp="2008-09-27T09:07:42Z" uid="43863" user="Rundling" changeset="703494"/>
  <way id="25995394" version="2" timestamp="2010-07-08T17:56:14Z" uid="74617" user="JohnSmith" changeset="5167338">
    <nd ref="283594702"/>
    <nd ref="283594703"/>
    <nd ref="283594704"/>
    <nd ref="283594705"/>
    <nd ref="283594706"/>
    <nd ref="283594707"/>
    <nd ref="283594708"/>
    <nd ref="283594709"/>
    <nd ref="283594710"/>
    <nd ref="283594711"/>
    <nd ref="283594712"/>
    <tag k="highway" v="residential"/>
    <tag k="maxspeed" v="50"/>
    <tag k="maxspeed:source" v="default residential speed limit in Australia"/>
    <tag k="name" v="The Crescent"/>
  </way>
  <way id="25995397" version="3" timestamp="2010-07-08T17:56:41Z" uid="74617" user="JohnSmith" changeset="5167338">
    <nd ref="283594774"/>
    <nd ref="283594775"/>
    <nd ref="283594776"/>
    <nd ref="283594777"/>
    <nd ref="283594778"/>
    <nd ref="283594779"/>
    <nd ref="283594780"/>
    <nd ref="283594781"/>
    <nd ref="283595429"/>
    <tag k="highway" v="residential"/>
    <tag k="maxspeed" v="50"/>
    <tag k="maxspeed:source" v="default residential speed limit in Australia"/>
    <tag k="name" v="Clerk Crescent"/>
  </way>
  <way id="25995401" version="3" timestamp="2010-07-08T17:56:22Z" uid="74617" user="JohnSmith" changeset="5167338">
    <nd ref="283594391"/>
    <nd ref="283594805"/>
    <nd ref="283595428"/>
    <tag k="highway" v="residential"/>
    <tag k="maxspeed" v="50"/>
    <tag k="maxspeed:source" v="default residential speed limit in Australia"/>
    <tag k="name" v="Kathryn Close"/>
  </way>
  <way id="25995418" version="5" timestamp="2010-07-08T17:55:52Z" uid="74617" user="JohnSmith" changeset="5167338">
    <nd ref="283594328"/>
    <nd ref="283597259"/>
    <nd ref="283597043"/>
    <nd ref="283597030"/>
    <nd ref="283595087"/>
    <tag k="highway" v="residential"/>
    <tag k="maxspeed" v="50"/>
    <tag k="maxspeed:source" v="default residential speed limit in Australia"/>
    <tag k="name" v="Abbot Street"/>
  </way>
  <way id="25995432" version="2" timestamp="2010-07-08T17:55:56Z" uid="74617" user="JohnSmith" changeset="5167338">
    <nd ref="283595217"/>
    <nd ref="283595087"/>
    <nd ref="283595218"/>
    <tag k="highway" v="residential"/>
    <tag k="maxspeed" v="50"/>
    <tag k="maxspeed:source" v="default residential speed limit in Australia"/>
    <tag k="name" v="Lavington Street"/>
  </way>
  <way id="25995452" version="3" timestamp="2010-07-08T17:55:50Z" uid="74617" user="JohnSmith" changeset="5167338">
    <nd ref="283593937"/>
    <nd ref="283593729"/>
    <tag k="highway" v="residential"/>
    <tag k="maxspeed" v="50"/>
    <tag k="maxspeed:source" v="default residential speed limit in Australia"/>
    <tag k="name" v="Bayview Avenue"/>
  </way>
  <way id="25995463" version="4" timestamp="2010-07-08T17:56:59Z" uid="74617" user="JohnSmith" changeset="5167338">
    <nd ref="283594328"/>
    <nd ref="283594389"/>
    <nd ref="283595433"/>
    <nd ref="283596960"/>
    <nd ref="283594391"/>
    <nd ref="283594381"/>
    <nd ref="283595451"/>
    <tag k="highway" v="residential"/>
    <tag k="maxspeed" v="50"/>
    <tag k="maxspeed:source" v="default residential speed limit in Australia"/>
    <tag k="name" v="Venus Street"/>
  </way>
  <way id="25995468" version="3" timestamp="2010-07-08T17:56:25Z" uid="74617" user="JohnSmith" changeset="5167338">
    <nd ref="283595480"/>
    <nd ref="283595629"/>
    <nd ref="283595482"/>
    <tag k="highway" v="residential"/>
    <tag k="maxspeed" v="50"/>
    <tag k="maxspeed:source" v="default residential speed limit in Australia"/>
    <tag k="name" v="Ebor Avenue"/>
  </way>
  <way id="25995470" version="2" timestamp="2010-07-08T17:57:05Z" uid="74617" user="JohnSmith" changeset="5167338">
    <nd ref="283595486"/>
    <nd ref="283595627"/>
    <nd ref="283595629"/>
    <tag k="highway" v="residential"/>
    <tag k="maxspeed" v="50"/>
    <tag k="maxspeed:source" v="default residential speed limit in Australia"/>
    <tag k="name" v="Overlook Drive"/>
  </way>
  <way id="25995479" version="3" timestamp="2010-07-08T17:56:03Z" uid="74617" user="JohnSmith" changeset="5167338">
    <nd ref="283595753"/>
    <nd ref="283595778"/>
    <tag k="highway" v="residential"/>
    <tag k="maxspeed" v="50"/>
    <tag k="maxspeed:source" v="default residential speed limit in Australia"/>
    <tag k="name" v="Beach Avenue"/>
  </way>
  <way id="25995480" version="3" timestamp="2010-07-08T17:56:47Z" uid="74617" user="JohnSmith" changeset="5167338">
    <nd ref="283595636"/>
    <nd ref="283595755"/>
    <nd ref="283595753"/>
    <tag k="highway" v="residential"/>
    <tag k="maxspeed" v="50"/>
    <tag k="maxspeed:source" v="default residential speed limit in Australia"/>
    <tag k="name" v="Bass Street"/>
  </way>
  <way id="25995497" version="2" timestamp="2010-07-08T17:55:53Z" uid="74617" user="JohnSmith" changeset="5167338">
    <nd ref="283595486"/>
    <nd ref="283596235"/>
    <tag k="highway" v="residential"/>
    <tag k="maxspeed" v="50"/>
    <tag k="maxspeed:source" v="default residential speed limit in Australia"/>
    <tag k="name" v="Veronica Street"/>
  </way>
  <way id="25995506" version="2" timestamp="2009-07-08T19:44:44Z" uid="23543" user="jkjk" changeset="1775961">
    <nd ref="276284429"/>
    <nd ref="274266464"/>
    <nd ref="274266465"/>
    <nd ref="274266466"/>
    <nd ref="283595782"/>
    <nd ref="274266467"/>
    <nd ref="283595784"/>
    <nd ref="274266468"/>
    <nd ref="283595783"/>
    <nd ref="91338792"/>
    <tag k="highway" v="unclassified"/>
  </way>
  <way id="25995508" version="5" timestamp="2009-07-08T20:16:00Z" uid="23543" user="jkjk" changeset="1776273">
    <nd ref="274266401"/>
    <nd ref="283579919"/>
    <nd ref="283579920"/>
    <nd ref="283579921"/>
    <nd ref="283579922"/>
    <nd ref="283579923"/>
    <nd ref="283579924"/>
    <nd ref="283579925"/>
    <nd ref="283579926"/>
    <nd ref="283579927"/>
    <nd ref="283579928"/>
    <nd ref="283579929"/>
    <nd ref="283579930"/>
    <nd ref="283579931"/>
    <nd ref="283579932"/>
    <nd ref="283579933"/>
    <nd ref="283579934"/>
    <nd ref="283579935"/>
    <nd ref="283579936"/>
    <nd ref="283579937"/>
    <nd ref="283579938"/>
    <nd ref="283579939"/>
    <nd ref="283579940"/>
    <nd ref="283579941"/>
    <nd ref="283579942"/>
    <nd ref="283579943"/>
    <nd ref="283579944"/>
    <nd ref="283579945"/>
    <nd ref="283579946"/>
    <nd ref="283579947"/>
    <nd ref="283579948"/>
    <nd ref="283579949"/>
    <nd ref="283579950"/>
    <nd ref="283579952"/>
    <nd ref="283579953"/>
    <nd ref="283579954"/>
    <nd ref="283579955"/>
    <nd ref="283579956"/>
    <nd ref="283579957"/>
    <nd ref="283579958"/>
    <nd ref="283579959"/>
    <nd ref="283579960"/>
    <nd ref="283579961"/>
    <nd ref="283579962"/>
    <nd ref="283579963"/>
    <nd ref="283579964"/>
    <nd ref="283579965"/>
    <nd ref="283579966"/>
    <nd ref="283579967"/>
    <nd ref="283579968"/>
    <nd ref="283579969"/>
    <nd ref="283579970"/>
    <nd ref="283579971"/>
    <nd ref="283579972"/>
    <nd ref="283579973"/>
    <nd ref="283579974"/>
    <nd ref="283579975"/>
    <nd ref="283579976"/>
    <nd ref="283579977"/>
    <nd ref="283579978"/>
    <nd ref="283579979"/>
    <nd ref="283579980"/>
    <nd ref="283579981"/>
    <nd ref="283579982"/>
    <nd ref="283579983"/>
    <nd ref="283579984"/>
    <nd ref="283579985"/>
    <nd ref="283579986"/>
    <nd ref="283579987"/>
    <nd ref="283579988"/>
    <nd ref="283579989"/>
    <nd ref="283579990"/>
    <nd ref="437539520"/>
    <tag k="highway" v="unclassified"/>
  </way>
  <way id="25995509" version="4" timestamp="2009-07-08T20:16:00Z" uid="23543" user="jkjk" changeset="1776273">
    <nd ref="274266458"/>
    <nd ref="274266459"/>
    <nd ref="283595786"/>
    <nd ref="274266460"/>
    <nd ref="274266461"/>
    <nd ref="274266462"/>
    <nd ref="283595785"/>
    <nd ref="339923474"/>
    <nd ref="274266463"/>
    <nd ref="283595779"/>
    <nd ref="283595780"/>
    <nd ref="283595781"/>
    <nd ref="283580025"/>
    <tag k="highway" v="tertiary"/>
    <tag k="ref" v="1632"/>
    <tag k="source:ref" v="rsd_cr"/>
  </way>
  <way id="25995510" version="4" timestamp="2009-07-08T20:16:01Z" uid="23543" user="jkjk" changeset="1776273">
    <nd ref="276284427"/>
    <nd ref="276284428"/>
    <nd ref="276284429"/>
    <tag k="created_by" v="JOSM"/>
    <tag k="highway" v="tertiary"/>
    <tag k="kct_blue" v="yes"/>
    <tag k="ref" v="1632"/>
    <tag k="source:ref" v="rsd_cr"/>
  </way>
  <way id="25995512" version="3" timestamp="2009-07-08T20:16:01Z" uid="23543" user="jkjk" changeset="1776273">
    <nd ref="276284426"/>
    <nd ref="276284427"/>
    <tag k="bridge" v="yes"/>
    <tag k="created_by" v="JOSM"/>
    <tag k="highway" v="tertiary"/>
    <tag k="kct_blue" v="yes"/>
    <tag k="layer" v="1"/>
    <tag k="ref" v="1632"/>
    <tag k="source:ref" v="rsd_cr"/>
  </way>
  <way id="25995517" version="2" timestamp="2010-07-08T17:55:45Z" uid="74617" user="JohnSmith" changeset="5167338">
    <nd ref="283596235"/>
    <nd ref="283596676"/>
    <nd ref="283596677"/>
    <nd ref="283596678"/>
    <nd ref="283596679"/>
    <nd ref="283596680"/>
    <nd ref="283596681"/>
    <nd ref="283594324"/>
    <tag k="highway" v="residential"/>
    <tag k="maxspeed" v="50"/>
    <tag k="maxspeed:source" v="default residential speed limit in Australia"/>
    <tag k="name" v="Tamara Crescent"/>
  </way>
  <way id="25995521" version="2" timestamp="2009-12-09T16:11:59Z" uid="200463" user="harmagedon" changeset="3334003">
    <nd ref="75095149"/>
    <nd ref="75013086"/>
    <nd ref="75003857"/>
    <nd ref="283595888"/>
    <nd ref="75112668"/>
    <tag k="highway" v="footway"/>
  </way>
  <way id="25995522" version="8" timestamp="2009-12-09T16:11:57Z" uid="200463" user="harmagedon" changeset="3334003">
    <nd ref="75048782"/>
    <nd ref="75041790"/>
    <nd ref="75033536"/>
    <nd ref="75026306"/>
    <nd ref="75019856"/>
    <nd ref="75012643"/>
    <nd ref="283607056"/>
    <nd ref="75009600"/>
    <nd ref="74996587"/>
    <nd ref="75110476"/>
    <nd ref="75103472"/>
    <nd ref="75097490"/>
    <nd ref="75090337"/>
    <nd ref="75082468"/>
    <nd ref="75073115"/>
    <nd ref="75055853"/>
    <nd ref="75054262"/>
    <nd ref="364334271"/>
    <nd ref="364334254"/>
    <nd ref="75040501"/>
    <nd ref="75034581"/>
    <nd ref="75028396"/>
    <nd ref="75021204"/>
    <nd ref="287181456"/>
    <nd ref="75014524"/>
    <nd ref="75006541"/>
    <nd ref="74997849"/>
    <nd ref="283595889"/>
    <nd ref="283595907"/>
    <tag k="bicycle" v="yes"/>
    <tag k="highway" v="unclassified"/>
    <tag k="motorcar" v="no"/>
    <tag k="motorcycle" v="no"/>
    <tag k="psv" v="yes"/>
  </way>
  <way id="25995579" version="8" timestamp="2009-07-25T07:58:23Z" uid="74617" user="JohnSmith" changeset="1931598">
    <nd ref="96353314"/>
    <nd ref="96353315"/>
    <nd ref="96353316"/>
    <nd ref="96353317"/>
    <nd ref="96353319"/>
    <nd ref="96353320"/>
    <nd ref="96353321"/>
    <nd ref="96353322"/>
    <nd ref="96353324"/>
    <nd ref="96353325"/>
    <nd ref="96353326"/>
    <nd ref="96353327"/>
    <nd ref="96353328"/>
    <nd ref="96353329"/>
    <nd ref="96353330"/>
    <nd ref="96353331"/>
    <nd ref="96353332"/>
    <nd ref="96353334"/>
    <nd ref="355841429"/>
    <nd ref="96353335"/>
    <nd ref="96353337"/>
    <nd ref="96353338"/>
    <nd ref="96353339"/>
    <nd ref="96353340"/>
    <nd ref="96353341"/>
    <nd ref="96353342"/>
    <nd ref="96353344"/>
    <nd ref="96353345"/>
    <nd ref="96353346"/>
    <nd ref="96353347"/>
    <nd ref="96353348"/>
    <nd ref="96353350"/>
    <nd ref="96353352"/>
    <nd ref="96353354"/>
    <nd ref="96353355"/>
    <nd ref="96353356"/>
    <nd ref="96353357"/>
    <nd ref="96353358"/>
    <nd ref="96353360"/>
    <nd ref="96353361"/>
    <nd ref="96353362"/>
    <nd ref="96353363"/>
    <nd ref="96353365"/>
    <nd ref="96353366"/>
    <nd ref="283596888"/>
    <nd ref="283596095"/>
    <nd ref="283596889"/>
    <nd ref="283596097"/>
    <nd ref="283596099"/>
    <nd ref="283596001"/>
    <nd ref="283596000"/>
    <nd ref="283595998"/>
    <nd ref="283595997"/>
    <nd ref="283595995"/>
    <nd ref="283597166"/>
    <nd ref="283596892"/>
    <nd ref="283596893"/>
    <nd ref="283596894"/>
    <nd ref="283596895"/>
    <nd ref="283596896"/>
    <nd ref="283596898"/>
    <nd ref="283596899"/>
    <nd ref="283596900"/>
    <nd ref="283596901"/>
    <nd ref="283596902"/>
    <nd ref="283596903"/>
    <nd ref="283596905"/>
    <nd ref="283596906"/>
    <nd ref="283596907"/>
    <nd ref="283596908"/>
    <nd ref="101903091"/>
    <nd ref="101903090"/>
    <nd ref="101903089"/>
    <nd ref="101903087"/>
    <nd ref="101903086"/>
    <nd ref="101903084"/>
    <nd ref="101903083"/>
    <nd ref="101903082"/>
    <nd ref="101903081"/>
    <nd ref="101903080"/>
    <nd ref="101903079"/>
    <nd ref="101903078"/>
    <nd ref="101903077"/>
    <nd ref="101903076"/>
    <nd ref="101903075"/>
    <nd ref="101903074"/>
    <nd ref="101903073"/>
    <nd ref="101903072"/>
    <nd ref="101903071"/>
    <nd ref="101903070"/>
    <nd ref="101903069"/>
    <nd ref="101903068"/>
    <nd ref="101903067"/>
    <nd ref="101903066"/>
    <nd ref="314192789"/>
    <nd ref="101903065"/>
    <nd ref="101903063"/>
    <nd ref="101903062"/>
    <nd ref="101903061"/>
    <nd ref="101903060"/>
    <nd ref="101903058"/>
    <nd ref="101903057"/>
    <nd ref="101903056"/>
    <nd ref="101903055"/>
    <nd ref="101903054"/>
    <nd ref="101903053"/>
    <nd ref="101903052"/>
    <nd ref="101903050"/>
    <nd ref="101903048"/>
    <nd ref="101903047"/>
    <nd ref="101903046"/>
    <nd ref="101903045"/>
    <nd ref="101903044"/>
    <nd ref="101903043"/>
    <nd ref="101903042"/>
    <nd ref="101903041"/>
    <nd ref="101903040"/>
    <nd ref="101903039"/>
    <nd ref="101903038"/>
    <nd ref="101903037"/>
    <nd ref="101903036"/>
    <nd ref="101900871"/>
    <tag k="highway" v="secondary"/>
    <tag k="name" v="Monbulk Road"/>
    <tag k="ref" v="C404"/>
  </way>
  <way id="25995579" version="17" timestamp="2010-05-04T04:21:23Z" uid="4467" user="Rosscoe" changeset="4601071">
    <nd ref="96353314"/>
    <nd ref="96353315"/>
    <nd ref="96353316"/>
    <nd ref="615109317"/>
    <nd ref="96353317"/>
    <nd ref="96353319"/>
    <nd ref="96353320"/>
    <nd ref="96353321"/>
    <nd ref="96353322"/>
    <nd ref="96353324"/>
    <nd ref="96353325"/>
    <nd ref="96353326"/>
    <nd ref="96353327"/>
    <nd ref="96353328"/>
    <nd ref="96353329"/>
    <nd ref="96353330"/>
    <nd ref="96353331"/>
    <nd ref="96353332"/>
    <nd ref="96353334"/>
    <nd ref="355841429"/>
    <nd ref="96353335"/>
    <nd ref="96353337"/>
    <nd ref="96353338"/>
    <nd ref="96353339"/>
    <nd ref="96353340"/>
    <nd ref="96353341"/>
    <nd ref="96353342"/>
    <nd ref="96353344"/>
    <nd ref="96353345"/>
    <nd ref="96353346"/>
    <nd ref="96353347"/>
    <nd ref="96353348"/>
    <nd ref="96353350"/>
    <nd ref="96353352"/>
    <nd ref="96353354"/>
    <nd ref="96353355"/>
    <nd ref="96353356"/>
    <nd ref="96353357"/>
    <nd ref="96353358"/>
    <nd ref="96353360"/>
    <nd ref="96353361"/>
    <nd ref="96353362"/>
    <nd ref="96353363"/>
    <nd ref="96353365"/>
    <nd ref="96353366"/>
    <nd ref="283596888"/>
    <nd ref="283596095"/>
    <nd ref="283596889"/>
    <nd ref="283596097"/>
    <nd ref="283596099"/>
    <nd ref="283596001"/>
    <nd ref="283596000"/>
    <nd ref="720435188"/>
    <nd ref="720435287"/>
    <nd ref="283595997"/>
    <nd ref="283595995"/>
    <nd ref="720435116"/>
    <tag k="highway" v="secondary"/>
    <tag k="name" v="Monbulk Road"/>
    <tag k="ref" v="C404"/>
  </way>
  <way id="25995579" version="18" timestamp="2010-06-23T00:23:37Z" uid="4467" user="Rosscoe" changeset="5055741">
    <nd ref="96353314"/>
    <nd ref="96353316"/>
    <nd ref="615109317"/>
    <nd ref="96353317"/>
    <nd ref="96353319"/>
    <nd ref="96353320"/>
    <nd ref="96353321"/>
    <nd ref="96353322"/>
    <nd ref="96353324"/>
    <nd ref="96353325"/>
    <nd ref="96353326"/>
    <nd ref="96353327"/>
    <nd ref="96353328"/>
    <nd ref="96353329"/>
    <nd ref="96353330"/>
    <nd ref="96353331"/>
    <nd ref="96353332"/>
    <nd ref="96353334"/>
    <nd ref="355841429"/>
    <nd ref="96353335"/>
    <nd ref="96353337"/>
    <nd ref="96353338"/>
    <nd ref="96353339"/>
    <nd ref="96353340"/>
    <nd ref="96353341"/>
    <nd ref="96353342"/>
    <nd ref="96353344"/>
    <nd ref="96353345"/>
    <nd ref="96353346"/>
    <nd ref="96353347"/>
    <nd ref="96353348"/>
    <nd ref="96353350"/>
    <nd ref="96353352"/>
    <nd ref="96353354"/>
    <nd ref="96353355"/>
    <nd ref="96353356"/>
    <nd ref="96353357"/>
    <nd ref="96353358"/>
    <nd ref="96353360"/>
    <nd ref="96353361"/>
    <nd ref="96353362"/>
    <nd ref="96353363"/>
    <nd ref="96353365"/>
    <nd ref="96353366"/>
    <nd ref="283596888"/>
    <nd ref="283596095"/>
    <nd ref="283596889"/>
    <nd ref="283596097"/>
    <nd ref="283596099"/>
    <nd ref="283596001"/>
    <nd ref="283596000"/>
    <nd ref="720435188"/>
    <nd ref="720435287"/>
    <nd ref="283595997"/>
    <nd ref="283595995"/>
    <nd ref="720435116"/>
    <tag k="highway" v="secondary"/>
    <tag k="name" v="Monbulk Road"/>
    <tag k="ref" v="C404"/>
  </way>
  <way id="25995584" version="4" timestamp="2010-07-08T17:55:38Z" uid="74617" user="JohnSmith" changeset="5167338">
    <nd ref="283596957"/>
    <nd ref="283595218"/>
    <nd ref="283597031"/>
    <nd ref="283596960"/>
    <tag k="highway" v="residential"/>
    <tag k="maxspeed" v="50"/>
    <tag k="maxspeed:source" v="default residential speed limit in Australia"/>
    <tag k="name" v="Freida Street"/>
  </way>
  <way id="25995607" version="5" timestamp="2010-07-08T17:56:22Z" uid="74617" user="JohnSmith" changeset="5167338">
    <nd ref="283594242"/>
    <nd ref="283597128"/>
    <nd ref="283597060"/>
    <nd ref="283597030"/>
    <nd ref="283597041"/>
    <nd ref="283597031"/>
    <tag k="highway" v="residential"/>
    <tag k="maxspeed" v="50"/>
    <tag k="maxspeed:source" v="default residential speed limit in Australia"/>
    <tag k="name" v="Halford Street"/>
  </way>
  <way id="25995608" version="2" timestamp="2010-07-08T17:57:10Z" uid="74617" user="JohnSmith" changeset="5167338">
    <nd ref="283597041"/>
    <nd ref="283597042"/>
    <nd ref="283597043"/>
    <tag k="highway" v="residential"/>
    <tag k="maxspeed" v="50"/>
    <tag k="maxspeed:source" v="default residential speed limit in Australia"/>
    <tag k="name" v="Churchhill Crescent"/>
  </way>
  <way id="25995611" version="2" timestamp="2010-07-08T17:56:05Z" uid="74617" user="JohnSmith" changeset="5167338">
    <nd ref="283595217"/>
    <nd ref="283597060"/>
    <nd ref="283597061"/>
    <nd ref="283597062"/>
    <tag k="highway" v="residential"/>
    <tag k="maxspeed" v="50"/>
    <tag k="maxspeed:source" v="default residential speed limit in Australia"/>
    <tag k="name" v="Cashin Street"/>
  </way>
  <way id="25995619" version="13" timestamp="2010-05-04T04:21:13Z" uid="4467" user="Rosscoe" changeset="4601071">
    <nd ref="720435222"/>
    <nd ref="720435236"/>
    <nd ref="720435156"/>
    <nd ref="283597165"/>
    <nd ref="283597094"/>
    <nd ref="283597093"/>
    <nd ref="283597092"/>
    <nd ref="283597164"/>
    <nd ref="283597163"/>
    <nd ref="356634358"/>
    <nd ref="283597089"/>
    <nd ref="283597162"/>
    <nd ref="283597087"/>
    <nd ref="283597161"/>
    <nd ref="283597160"/>
    <nd ref="283597084"/>
    <nd ref="283597159"/>
    <nd ref="283597158"/>
    <nd ref="283597157"/>
    <nd ref="690568886"/>
    <nd ref="690567685"/>
    <nd ref="283597080"/>
    <nd ref="283597079"/>
    <nd ref="283597156"/>
    <nd ref="283597077"/>
    <nd ref="283597155"/>
    <nd ref="690567688"/>
    <nd ref="690567691"/>
    <nd ref="690567693"/>
    <nd ref="283597075"/>
    <nd ref="356625842"/>
    <nd ref="690566520"/>
    <nd ref="690566478"/>
    <nd ref="283597074"/>
    <nd ref="283597154"/>
    <nd ref="283597072"/>
    <nd ref="283597071"/>
    <nd ref="357009536"/>
    <nd ref="366079064"/>
    <tag k="highway" v="secondary"/>
    <tag k="name" v="Sherbrooke Road"/>
  </way>
  <way id="25995626" version="2" timestamp="2010-07-08T17:56:26Z" uid="74617" user="JohnSmith" changeset="5167338">
    <nd ref="283597128"/>
    <nd ref="283597173"/>
    <tag k="highway" v="residential"/>
    <tag k="maxspeed" v="50"/>
    <tag k="maxspeed:source" v="default residential speed limit in Australia"/>
    <tag k="name" v="Short Street"/>
  </way>
  <way id="25995631" version="2" timestamp="2010-07-08T17:55:37Z" uid="74617" user="JohnSmith" changeset="5167338">
    <nd ref="283597061"/>
    <nd ref="283597259"/>
    <tag k="highway" v="residential"/>
    <tag k="maxspeed" v="50"/>
    <tag k="maxspeed:source" v="default residential speed limit in Australia"/>
    <tag k="name" v="View Street"/>
  </way>
  <way id="25995661" version="7" timestamp="2009-07-25T04:15:49Z" uid="74617" user="JohnSmith" changeset="1930637">
    <nd ref="392161633"/>
    <nd ref="283597445"/>
    <nd ref="283597446"/>
    <nd ref="283597447"/>
    <nd ref="283597448"/>
    <nd ref="283597449"/>
    <nd ref="283597450"/>
    <nd ref="283597451"/>
    <nd ref="283597452"/>
    <nd ref="283598282"/>
    <nd ref="283597453"/>
    <nd ref="283597454"/>
    <nd ref="283597455"/>
    <nd ref="283597456"/>
    <nd ref="283597457"/>
    <nd ref="283597913"/>
    <nd ref="283597458"/>
    <nd ref="283597459"/>
    <nd ref="283597460"/>
    <nd ref="283597461"/>
    <nd ref="283597462"/>
    <nd ref="283597463"/>
    <nd ref="283597464"/>
    <nd ref="283597465"/>
    <nd ref="283597466"/>
    <nd ref="283597467"/>
    <nd ref="283597468"/>
    <nd ref="283597469"/>
    <tag k="highway" v="residential"/>
    <tag k="name" v="Somerset Drive"/>
  </way>
  <way id="25995661" version="10" timestamp="2010-04-26T05:43:49Z" uid="4467" user="Rosscoe" changeset="4528463">
    <nd ref="392161633"/>
    <nd ref="283597445"/>
    <nd ref="283597446"/>
    <nd ref="283597447"/>
    <nd ref="283597448"/>
    <nd ref="283597449"/>
    <nd ref="283597450"/>
    <nd ref="283597451"/>
    <nd ref="283597452"/>
    <nd ref="448190359"/>
    <nd ref="283598282"/>
    <nd ref="283597453"/>
    <nd ref="283597454"/>
    <nd ref="283597455"/>
    <nd ref="283597456"/>
    <nd ref="283597457"/>
    <nd ref="283597458"/>
    <nd ref="283597459"/>
    <nd ref="283597460"/>
    <nd ref="283597461"/>
    <nd ref="283597462"/>
    <nd ref="283597463"/>
    <nd ref="283597464"/>
    <nd ref="283597465"/>
    <nd ref="283597466"/>
    <nd ref="283597467"/>
    <nd ref="283597468"/>
    <nd ref="283598002"/>
    <tag k="highway" v="residential"/>
    <tag k="name" v="Somerset Drive"/>
  </way>
  <way id="25995661" version="11" timestamp="2010-07-08T20:16:05Z" uid="74617" user="JohnSmith" changeset="5168688">
    <nd ref="392161633"/>
    <nd ref="283597445"/>
    <nd ref="283597446"/>
    <nd ref="283597447"/>
    <nd ref="283597448"/>
    <nd ref="283597449"/>
    <nd ref="283597450"/>
    <nd ref="283597451"/>
    <nd ref="283597452"/>
    <nd ref="448190359"/>
    <nd ref="283598282"/>
    <nd ref="283597453"/>
    <nd ref="283597454"/>
    <nd ref="283597455"/>
    <nd ref="283597456"/>
    <nd ref="283597457"/>
    <nd ref="283597458"/>
    <nd ref="283597459"/>
    <nd ref="283597460"/>
    <nd ref="283597461"/>
    <nd ref="283597462"/>
    <nd ref="283597463"/>
    <nd ref="283597464"/>
    <nd ref="283597465"/>
    <nd ref="283597466"/>
    <nd ref="283597467"/>
    <nd ref="283597468"/>
    <nd ref="283598002"/>
    <tag k="highway" v="residential"/>
    <tag k="maxspeed" v="50"/>
    <tag k="maxspeed:source" v="default residential speed limit in Australia"/>
    <tag k="name" v="Somerset Drive"/>
  </way>
  <way id="25995672" version="4" timestamp="2010-07-07T07:57:09Z" uid="74617" user="JohnSmith" changeset="5156250">
    <nd ref="162824483"/>
    <nd ref="283597614"/>
    <nd ref="283597628"/>
    <nd ref="283597616"/>
    <nd ref="283597637"/>
    <tag k="highway" v="residential"/>
    <tag k="maxspeed" v="50"/>
    <tag k="maxspeed:source" v="default residential speed limit in Australia"/>
  </way>
  <way id="25995673" version="3" timestamp="2010-07-07T07:57:57Z" uid="74617" user="JohnSmith" changeset="5156250">
    <nd ref="283597628"/>
    <nd ref="283597675"/>
    <tag k="highway" v="residential"/>
    <tag k="maxspeed" v="50"/>
    <tag k="maxspeed:source" v="default residential speed limit in Australia"/>
  </way>
  <way id="25995676" version="3" timestamp="2010-07-07T07:57:52Z" uid="74617" user="JohnSmith" changeset="5156250">
    <nd ref="283597614"/>
    <nd ref="283597638"/>
    <tag k="highway" v="residential"/>
    <tag k="maxspeed" v="50"/>
    <tag k="maxspeed:source" v="default residential speed limit in Australia"/>
  </way>
  <way id="25995695" version="3" timestamp="2010-04-26T05:43:46Z" uid="4467" user="Rosscoe" changeset="4528463">
    <nd ref="283597457"/>
    <nd ref="706930984"/>
    <tag k="highway" v="residential"/>
    <tag k="name" v="Thames Street"/>
    <tag k="source" v="nearmap"/>
  </way>
  <way id="25995695" version="4" timestamp="2010-07-08T20:14:52Z" uid="74617" user="JohnSmith" changeset="5168688">
    <nd ref="283597457"/>
    <nd ref="706930984"/>
    <tag k="highway" v="residential"/>
    <tag k="maxspeed" v="50"/>
    <tag k="maxspeed:source" v="default residential speed limit in Australia"/>
    <tag k="name" v="Thames Street"/>
    <tag k="source" v="nearmap"/>
  </way>
  <way id="25995699" version="3" timestamp="2010-07-07T07:57:20Z" uid="74617" user="JohnSmith" changeset="5156250">
    <nd ref="283597782"/>
    <nd ref="283597914"/>
    <nd ref="283597915"/>
    <nd ref="283597955"/>
    <tag k="highway" v="residential"/>
    <tag k="maxspeed" v="50"/>
    <tag k="maxspeed:source" v="default residential speed limit in Australia"/>
    <tag k="name" v="Challinor Street"/>
  </way>
  <way id="25995711" version="3" timestamp="2010-07-07T07:56:53Z" uid="74617" user="JohnSmith" changeset="5156250">
    <nd ref="283597956"/>
    <nd ref="283597974"/>
    <nd ref="283597975"/>
    <nd ref="283597976"/>
    <tag k="highway" v="residential"/>
    <tag k="maxspeed" v="50"/>
    <tag k="maxspeed:source" v="default residential speed limit in Australia"/>
    <tag k="name" v="Morrison Street"/>
  </way>
  <way id="25995715" version="5" timestamp="2010-07-08T20:15:15Z" uid="74617" user="JohnSmith" changeset="5168688">
    <nd ref="448190359"/>
    <nd ref="283597988"/>
    <nd ref="283597989"/>
    <nd ref="283597990"/>
    <nd ref="283597991"/>
    <nd ref="283597992"/>
    <nd ref="283598284"/>
    <nd ref="283598285"/>
    <nd ref="283598286"/>
    <nd ref="283598287"/>
    <nd ref="283597996"/>
    <nd ref="283597997"/>
    <nd ref="283597998"/>
    <tag k="highway" v="residential"/>
    <tag k="maxspeed" v="50"/>
    <tag k="maxspeed:source" v="default residential speed limit in Australia"/>
    <tag k="name" v="Surrey Road"/>
  </way>
  <way id="25995718" version="5" timestamp="2010-07-08T20:19:01Z" uid="74617" user="JohnSmith" changeset="5168688">
    <nd ref="448194622"/>
    <nd ref="283598286"/>
    <tag k="highway" v="residential"/>
    <tag k="maxspeed" v="50"/>
    <tag k="maxspeed:source" v="default residential speed limit in Australia"/>
    <tag k="name" v="Essex Street"/>
  </way>
  <way id="25995730" version="5" timestamp="2010-07-08T20:16:27Z" uid="74617" user="JohnSmith" changeset="5168688">
    <nd ref="283598208"/>
    <nd ref="283597454"/>
    <tag k="highway" v="residential"/>
    <tag k="maxspeed" v="50"/>
    <tag k="maxspeed:source" v="default residential speed limit in Australia"/>
    <tag k="name" v="Durham Court"/>
  </way>
  <way id="25995734" version="5" timestamp="2010-07-08T20:15:22Z" uid="74617" user="JohnSmith" changeset="5168688">
    <nd ref="448191293"/>
    <nd ref="283598350"/>
    <nd ref="283598348"/>
    <nd ref="283598265"/>
    <tag k="highway" v="residential"/>
    <tag k="maxspeed" v="50"/>
    <tag k="maxspeed:source" v="default residential speed limit in Australia"/>
    <tag k="name" v="Dorset Road"/>
  </way>
  <way id="25995736" version="6" timestamp="2010-07-08T20:14:45Z" uid="74617" user="JohnSmith" changeset="5168688">
    <nd ref="283598308"/>
    <nd ref="283598279"/>
    <nd ref="283598280"/>
    <tag k="highway" v="residential"/>
    <tag k="maxspeed" v="50"/>
    <tag k="maxspeed:source" v="default residential speed limit in Australia"/>
    <tag k="name" v="Oxford Court"/>
  </way>
  <way id="25995737" version="4" timestamp="2010-07-08T20:16:01Z" uid="74617" user="JohnSmith" changeset="5168688">
    <nd ref="283598281"/>
    <nd ref="283598282"/>
    <tag k="highway" v="residential"/>
    <tag k="maxspeed" v="50"/>
    <tag k="maxspeed:source" v="default residential speed limit in Australia"/>
    <tag k="name" v="Hampton Court"/>
  </way>
  <way id="25995744" version="3" timestamp="2010-07-08T20:18:06Z" uid="74617" user="JohnSmith" changeset="5168688">
    <nd ref="283598325"/>
    <nd ref="283598326"/>
    <tag k="highway" v="residential"/>
    <tag k="maxspeed" v="50"/>
    <tag k="maxspeed:source" v="default residential speed limit in Australia"/>
    <tag k="name" v="Pedder Court"/>
  </way>
  <way id="25995749" version="4" timestamp="2010-07-07T07:57:00Z" uid="74617" user="JohnSmith" changeset="5156250">
    <nd ref="283598451"/>
    <nd ref="283598333"/>
    <tag k="highway" v="residential"/>
    <tag k="maxspeed" v="50"/>
    <tag k="maxspeed:source" v="default residential speed limit in Australia"/>
    <tag k="name" v="Crown Street"/>
  </way>
  <way id="25995752" version="4" timestamp="2010-07-08T20:19:29Z" uid="74617" user="JohnSmith" changeset="5168688">
    <nd ref="283598350"/>
    <nd ref="283598346"/>
    <nd ref="283598347"/>
    <nd ref="283598348"/>
    <tag k="highway" v="residential"/>
    <tag k="maxspeed" v="50"/>
    <tag k="maxspeed:source" v="default residential speed limit in Australia"/>
    <tag k="name" v="Sherwood Crescent"/>
  </way>
  <way id="25995757" version="3" timestamp="2010-07-07T07:57:05Z" uid="74617" user="JohnSmith" changeset="5156250">
    <nd ref="283598492"/>
    <nd ref="283598493"/>
    <nd ref="283598333"/>
    <nd ref="283598450"/>
    <nd ref="283598335"/>
    <tag k="highway" v="residential"/>
    <tag k="maxspeed" v="50"/>
    <tag k="maxspeed:source" v="default residential speed limit in Australia"/>
    <tag k="name" v="Island View Close"/>
  </way>
  <way id="25995760" version="5" timestamp="2010-07-08T20:19:50Z" uid="74617" user="JohnSmith" changeset="5168688">
    <nd ref="283597460"/>
    <nd ref="283598477"/>
    <nd ref="283598480"/>
    <nd ref="283598482"/>
    <tag k="highway" v="residential"/>
    <tag k="maxspeed" v="50"/>
    <tag k="maxspeed:source" v="default residential speed limit in Australia"/>
    <tag k="name" v="Suffolk Road"/>
  </way>
  <way id="25995761" version="4" timestamp="2010-07-08T20:15:28Z" uid="74617" user="JohnSmith" changeset="5168688">
    <nd ref="283598458"/>
    <nd ref="283598480"/>
    <tag k="highway" v="residential"/>
    <tag k="maxspeed" v="50"/>
    <tag k="maxspeed:source" v="default residential speed limit in Australia"/>
    <tag k="name" v="Paydon Court"/>
  </way>
  <way id="25995766" version="3" timestamp="2010-07-08T20:16:55Z" uid="74617" user="JohnSmith" changeset="5168688">
    <nd ref="283598476"/>
    <nd ref="283598477"/>
    <tag k="highway" v="residential"/>
    <tag k="maxspeed" v="50"/>
    <tag k="maxspeed:source" v="default residential speed limit in Australia"/>
    <tag k="name" v="Warwick Court"/>
  </way>
  <way id="25995767" version="2" timestamp="2009-06-05T05:03:15Z" uid="74617" user="JohnSmith" changeset="1426165"/>
  <way id="25995768" version="3" timestamp="2008-08-14T23:59:02Z" uid="6975" user="ulfl" changeset="264731">
    <nd ref="283598376"/>
    <nd ref="283598377"/>
    <nd ref="283598378"/>
    <nd ref="283598379"/>
    <nd ref="283598380"/>
    <nd ref="283598381"/>
    <nd ref="283598382"/>
    <nd ref="283598383"/>
    <nd ref="283598376"/>
    <tag k="amenity" v="place_of_worship"/>
    <tag k="building" v="yes"/>
    <tag k="denomination" v="catholic"/>
    <tag k="name" v="St. Vitus"/>
    <tag k="religion" v="christian"/>
  </way>
  <way id="25995800" version="8" timestamp="2009-07-25T04:16:09Z" uid="74617" user="JohnSmith" changeset="1930637">
    <nd ref="132972937"/>
    <nd ref="283598707"/>
    <nd ref="354460954"/>
    <nd ref="283598923"/>
    <nd ref="283598741"/>
    <nd ref="283598709"/>
    <nd ref="283597468"/>
    <tag k="highway" v="residential"/>
    <tag k="name" v="Francesco Drive"/>
  </way>
  <way id="25995800" version="9" timestamp="2010-07-08T20:16:20Z" uid="74617" user="JohnSmith" changeset="5168688">
    <nd ref="132972937"/>
    <nd ref="283598707"/>
    <nd ref="354460954"/>
    <nd ref="283598923"/>
    <nd ref="283598741"/>
    <nd ref="283598709"/>
    <nd ref="283597468"/>
    <tag k="highway" v="residential"/>
    <tag k="maxspeed" v="50"/>
    <tag k="maxspeed:source" v="default residential speed limit in Australia"/>
    <tag k="name" v="Francesco Drive"/>
  </way>
  <way id="25995801" version="3" timestamp="2010-07-07T07:57:58Z" uid="74617" user="JohnSmith" changeset="5156250">
    <nd ref="280714833"/>
    <nd ref="283598733"/>
    <tag k="highway" v="residential"/>
    <tag k="maxspeed" v="50"/>
    <tag k="maxspeed:source" v="default residential speed limit in Australia"/>
  </way>
  <way id="25995808" version="3" timestamp="2009-07-25T04:16:03Z" uid="74617" user="JohnSmith" changeset="1930637">
    <nd ref="283598742"/>
    <nd ref="283598482"/>
    <nd ref="283598743"/>
    <tag k="highway" v="residential"/>
    <tag k="name" v="Westminster Avenue"/>
  </way>
  <way id="25995808" version="5" timestamp="2010-07-08T20:19:17Z" uid="74617" user="JohnSmith" changeset="5168688">
    <nd ref="283597466"/>
    <nd ref="283598482"/>
    <nd ref="283598743"/>
    <tag k="highway" v="residential"/>
    <tag k="maxspeed" v="50"/>
    <tag k="maxspeed:source" v="default residential speed limit in Australia"/>
    <tag k="name" v="Westminster Avenue"/>
  </way>
  <way id="25995809" version="2" timestamp="2009-07-25T04:15:55Z" uid="74617" user="JohnSmith" changeset="1930637">
    <nd ref="283598744"/>
    <nd ref="283598745"/>
    <nd ref="283598746"/>
    <nd ref="283597468"/>
    <tag k="highway" v="residential"/>
  </way>
  <way id="25995809" version="3" timestamp="2010-07-08T20:14:44Z" uid="74617" user="JohnSmith" changeset="5168688">
    <nd ref="283598744"/>
    <nd ref="283598745"/>
    <nd ref="283598746"/>
    <nd ref="283597468"/>
    <tag k="highway" v="residential"/>
    <tag k="maxspeed" v="50"/>
    <tag k="maxspeed:source" v="default residential speed limit in Australia"/>
  </way>
  <way id="25995813" version="4" timestamp="2010-07-08T20:19:30Z" uid="74617" user="JohnSmith" changeset="5168688">
    <nd ref="283598811"/>
    <nd ref="354460954"/>
    <tag k="highway" v="residential"/>
    <tag k="maxspeed" v="50"/>
    <tag k="maxspeed:source" v="default residential speed limit in Australia"/>
    <tag k="name" v="Mateo Close"/>
  </way>
  <way id="25995818" version="3" timestamp="2009-07-25T04:15:53Z" uid="74617" user="JohnSmith" changeset="1930637">
    <nd ref="283598922"/>
    <nd ref="283598923"/>
    <tag k="highway" v="residential"/>
    <tag k="name" v="Boswell Court"/>
  </way>
  <way id="25995818" version="4" timestamp="2010-07-08T20:18:45Z" uid="74617" user="JohnSmith" changeset="5168688">
    <nd ref="283598922"/>
    <nd ref="283598923"/>
    <tag k="highway" v="residential"/>
    <tag k="maxspeed" v="50"/>
    <tag k="maxspeed:source" v="default residential speed limit in Australia"/>
    <tag k="name" v="Boswell Court"/>
  </way>
  <way id="25995822" version="2" timestamp="2010-07-07T07:57:43Z" uid="74617" user="JohnSmith" changeset="5156250">
    <nd ref="283598747"/>
    <nd ref="283598936"/>
    <tag k="highway" v="residential"/>
    <tag k="maxspeed" v="50"/>
    <tag k="maxspeed:source" v="default residential speed limit in Australia"/>
    <tag k="name" v="Waratah Place"/>
  </way>
  <way id="25995874" version="3" timestamp="2010-07-07T07:57:03Z" uid="74617" user="JohnSmith" changeset="5156250">
    <nd ref="283599476"/>
    <nd ref="283599728"/>
    <tag k="highway" v="residential"/>
    <tag k="maxspeed" v="50"/>
    <tag k="maxspeed:source" v="default residential speed limit in Australia"/>
    <tag k="name" v="Woodward Street"/>
  </way>
  <way id="25995876" version="2" timestamp="2009-07-26T23:05:37Z" uid="4467" user="Rosscoe" changeset="1950498">
    <nd ref="283599728"/>
    <nd ref="448772514"/>
    <nd ref="283599477"/>
    <tag k="highway" v="residential"/>
    <tag k="name" v="Weiley Avenue"/>
  </way>
  <way id="25995876" version="3" timestamp="2010-07-07T07:57:29Z" uid="74617" user="JohnSmith" changeset="5156250">
    <nd ref="283599728"/>
    <nd ref="448772514"/>
    <nd ref="283599477"/>
    <tag k="highway" v="residential"/>
    <tag k="maxspeed" v="50"/>
    <tag k="maxspeed:source" v="default residential speed limit in Australia"/>
    <tag k="name" v="Weiley Avenue"/>
  </way>
  <way id="25995933" version="2" timestamp="2009-07-26T23:05:41Z" uid="4467" user="Rosscoe" changeset="1950498">
    <nd ref="283599926"/>
    <nd ref="283600008"/>
    <tag k="highway" v="residential"/>
    <tag k="name" v="Bromley Street"/>
  </way>
  <way id="25995933" version="3" timestamp="2010-07-07T07:57:56Z" uid="74617" user="JohnSmith" changeset="5156250">
    <nd ref="283599926"/>
    <nd ref="283600008"/>
    <tag k="highway" v="residential"/>
    <tag k="maxspeed" v="50"/>
    <tag k="maxspeed:source" v="default residential speed limit in Australia"/>
    <tag k="name" v="Bromley Street"/>
  </way>
  <way id="25995936" version="3" timestamp="2010-07-07T07:57:02Z" uid="74617" user="JohnSmith" changeset="5156250">
    <nd ref="283600042"/>
    <nd ref="283600064"/>
    <nd ref="279087181"/>
    <tag k="highway" v="residential"/>
    <tag k="maxspeed" v="50"/>
    <tag k="maxspeed:source" v="default residential speed limit in Australia"/>
    <tag k="name" v="Sutton Street"/>
  </way>
  <way id="25995951" version="1" timestamp="2008-08-05T11:26:54Z" uid="30201" user="rrankin" changeset="78777">
    <nd ref="283600123"/>
    <nd ref="283600139"/>
    <nd ref="283600152"/>
    <nd ref="283600157"/>
    <nd ref="283600162"/>
    <nd ref="283600169"/>
    <nd ref="283600176"/>
    <nd ref="283600214"/>
    <nd ref="283600182"/>
    <nd ref="283600187"/>
    <nd ref="283600192"/>
    <nd ref="283600194"/>
    <tag k="highway" v="residential"/>
    <tag k="name" v="South Pacific Avenue"/>
    <tag k="source" v="yahoo"/>
  </way>
  <way id="25995951" version="2" timestamp="2010-07-07T22:30:02Z" uid="74617" user="JohnSmith" changeset="5162525">
    <nd ref="283600123"/>
    <nd ref="283600139"/>
    <nd ref="283600152"/>
    <nd ref="283600157"/>
    <nd ref="283600162"/>
    <nd ref="283600169"/>
    <nd ref="283600176"/>
    <nd ref="283600214"/>
    <nd ref="283600182"/>
    <nd ref="283600187"/>
    <nd ref="283600192"/>
    <nd ref="283600194"/>
    <tag k="highway" v="residential"/>
    <tag k="maxspeed" v="50"/>
    <tag k="maxspeed:source" v="default residential speed limit in Australia"/>
    <tag k="name" v="South Pacific Avenue"/>
    <tag k="source" v="yahoo"/>
  </way>
  <way id="25995952" version="1" timestamp="2008-08-05T11:26:55Z" uid="30201" user="rrankin" changeset="78777">
    <nd ref="176260481"/>
    <nd ref="283600198"/>
    <nd ref="283600200"/>
    <nd ref="283600203"/>
    <nd ref="283600205"/>
    <nd ref="283600207"/>
    <nd ref="283600212"/>
    <nd ref="283600209"/>
    <tag k="highway" v="residential"/>
    <tag k="name" v="Lookout Drive"/>
    <tag k="source" v="yahoo"/>
  </way>
  <way id="25995952" version="2" timestamp="2010-07-07T22:32:51Z" uid="74617" user="JohnSmith" changeset="5162525">
    <nd ref="176260481"/>
    <nd ref="283600198"/>
    <nd ref="283600200"/>
    <nd ref="283600203"/>
    <nd ref="283600205"/>
    <nd ref="283600207"/>
    <nd ref="283600212"/>
    <nd ref="283600209"/>
    <tag k="highway" v="residential"/>
    <tag k="maxspeed" v="50"/>
    <tag k="maxspeed:source" v="default residential speed limit in Australia"/>
    <tag k="name" v="Lookout Drive"/>
    <tag k="source" v="yahoo"/>
  </way>
  <way id="25995953" version="1" timestamp="2008-08-05T11:26:56Z" uid="30201" user="rrankin" changeset="78777">
    <nd ref="283600212"/>
    <nd ref="283600214"/>
    <nd ref="283600220"/>
    <nd ref="283600229"/>
    <nd ref="176260476"/>
    <tag k="highway" v="residential"/>
    <tag k="name" v="Finlay Avenue"/>
    <tag k="source" v="yahoo"/>
  </way>
  <way id="25995953" version="2" timestamp="2010-07-07T22:34:38Z" uid="74617" user="JohnSmith" changeset="5162525">
    <nd ref="283600212"/>
    <nd ref="283600214"/>
    <nd ref="283600220"/>
    <nd ref="283600229"/>
    <nd ref="176260476"/>
    <tag k="highway" v="residential"/>
    <tag k="maxspeed" v="50"/>
    <tag k="maxspeed:source" v="default residential speed limit in Australia"/>
    <tag k="name" v="Finlay Avenue"/>
    <tag k="source" v="yahoo"/>
  </way>
  <way id="25995954" version="1" timestamp="2008-08-05T11:26:57Z" uid="30201" user="rrankin" changeset="78777">
    <nd ref="283600216"/>
    <nd ref="283600192"/>
    <nd ref="283600218"/>
    <nd ref="283600220"/>
    <nd ref="283600225"/>
    <nd ref="283600227"/>
    <nd ref="283600169"/>
    <tag k="highway" v="residential"/>
    <tag k="name" v="Exhibition Avenue"/>
    <tag k="source" v="yahoo"/>
  </way>
  <way id="25995954" version="2" timestamp="2010-07-07T22:28:05Z" uid="74617" user="JohnSmith" changeset="5162525">
    <nd ref="283600216"/>
    <nd ref="283600192"/>
    <nd ref="283600218"/>
    <nd ref="283600220"/>
    <nd ref="283600225"/>
    <nd ref="283600227"/>
    <nd ref="283600169"/>
    <tag k="highway" v="residential"/>
    <tag k="maxspeed" v="50"/>
    <tag k="maxspeed:source" v="default residential speed limit in Australia"/>
    <tag k="name" v="Exhibition Avenue"/>
    <tag k="source" v="yahoo"/>
  </way>
  <way id="25995955" version="1" timestamp="2008-08-05T11:26:58Z" uid="30201" user="rrankin" changeset="78777">
    <nd ref="283600229"/>
    <nd ref="283600231"/>
    <tag k="highway" v="service"/>
    <tag k="source" v="yahoo"/>
  </way>
</osm>
