<?xml version='1.0' encoding='UTF-8'?>
<osm version="0.6" generator="libosmium/2.20.0">
  <way id="26207030" version="4" timestamp="2009-04-12T22:59:49Z" uid="9581" user="Lobelt" changeset="475979">
    <nd ref="286961940"/>
    <nd ref="485807"/>
    <nd ref="485816"/>
    <nd ref="485817"/>
    <nd ref="485818"/>
    <nd ref="279546684"/>
    <nd ref="286944577"/>
    <tag k="created_by" v="Potlatch 0.9b"/>
    <tag k="highway" v="motorway"/>
    <tag k="int_ref" v="E 40"/>
    <tag k="lanes" v="3"/>
    <tag k="oneway" v="yes"/>
    <tag k="ref" v="A 4"/>
  </way>
  <way id="26207030" version="6" timestamp="2010-11-01T19:23:40Z" uid="9581" user="Lobelt" changeset="6260204">
    <nd ref="286961940"/>
    <nd ref="485807"/>
    <nd ref="485816"/>
    <nd ref="485817"/>
    <nd ref="485818"/>
    <nd ref="279546684"/>
    <nd ref="286944577"/>
    <tag k="highway" v="motorway"/>
    <tag k="int_ref" v="E 40"/>
    <tag k="lanes" v="3"/>
    <tag k="maxspeed" v="no"/>
    <tag k="oneway" v="yes"/>
    <tag k="ref" v="A 4"/>
  </way>
  <way id="26207031" version="4" timestamp="2009-11-28T01:31:41Z" uid="9581" user="Lobelt" changeset="3233125">
    <nd ref="286961941"/>
    <nd ref="286961942"/>
    <tag k="bridge" v="yes"/>
    <tag k="highway" v="motorway"/>
    <tag k="int_ref" v="E 40"/>
    <tag k="lanes" v="3"/>
    <tag k="layer" v="2"/>
    <tag k="oneway" v="yes"/>
    <tag k="osmarender:nameDirection" v="-1"/>
    <tag k="osmarender:renderName" v="no"/>
    <tag k="ref" v="A 4"/>
  </way>
  <way id="26207031" version="5" timestamp="2010-11-01T19:23:44Z" uid="9581" user="Lobelt" changeset="6260204">
    <nd ref="286961941"/>
    <nd ref="286961942"/>
    <tag k="bridge" v="yes"/>
    <tag k="highway" v="motorway"/>
    <tag k="int_ref" v="E 40"/>
    <tag k="lanes" v="3"/>
    <tag k="layer" v="2"/>
    <tag k="maxspeed" v="no"/>
    <tag k="oneway" v="yes"/>
    <tag k="osmarender:nameDirection" v="-1"/>
    <tag k="osmarender:renderName" v="no"/>
    <tag k="ref" v="A 4"/>
  </way>
  <way id="26207032" version="3" timestamp="2009-04-12T22:59:42Z" uid="9581" user="Lobelt" changeset="475979">
    <nd ref="286961942"/>
    <nd ref="487276"/>
    <nd ref="373546640"/>
    <nd ref="373546643"/>
    <tag k="created_by" v="fixbot"/>
    <tag k="highway" v="motorway"/>
    <tag k="int_ref" v="E 40"/>
    <tag k="lanes" v="3"/>
    <tag k="oneway" v="yes"/>
    <tag k="osmarender:nameDirection" v="-1"/>
    <tag k="osmarender:renderName" v="no"/>
    <tag k="ref" v="A 4"/>
  </way>
  <way id="26207032" version="5" timestamp="2010-11-01T19:05:27Z" uid="9581" user="Lobelt" changeset="6259873">
    <nd ref="286961942"/>
    <nd ref="487276"/>
    <nd ref="373546640"/>
    <nd ref="373546643"/>
    <tag k="highway" v="motorway"/>
    <tag k="int_ref" v="E 40"/>
    <tag k="lanes" v="3"/>
    <tag k="maxspeed" v="no"/>
    <tag k="oneway" v="yes"/>
    <tag k="osmarender:nameDirection" v="-1"/>
    <tag k="osmarender:renderName" v="no"/>
    <tag k="ref" v="A 4"/>
  </way>
  <way id="26207033" version="4" timestamp="2009-11-28T01:31:40Z" uid="9581" user="Lobelt" changeset="3233125">
    <nd ref="286961939"/>
    <nd ref="286961940"/>
    <tag k="bridge" v="yes"/>
    <tag k="highway" v="motorway"/>
    <tag k="int_ref" v="E 40"/>
    <tag k="lanes" v="3"/>
    <tag k="layer" v="2"/>
    <tag k="oneway" v="yes"/>
    <tag k="ref" v="A 4"/>
  </way>
  <way id="26207033" version="6" timestamp="2010-11-01T19:23:51Z" uid="9581" user="Lobelt" changeset="6260204">
    <nd ref="286961939"/>
    <nd ref="286961940"/>
    <tag k="bridge" v="yes"/>
    <tag k="highway" v="motorway"/>
    <tag k="int_ref" v="E 40"/>
    <tag k="lanes" v="3"/>
    <tag k="layer" v="2"/>
    <tag k="maxspeed" v="no"/>
    <tag k="oneway" v="yes"/>
    <tag k="ref" v="A 4"/>
  </way>
  <way id="26207075" version="3" timestamp="2010-05-16T06:51:57Z" uid="30201" user="rrankin" changeset="4713608">
    <nd ref="286961402"/>
    <nd ref="286961910"/>
    <nd ref="286961309"/>
    <tag k="highway" v="residential"/>
    <tag k="maxspeed" v="50"/>
    <tag k="name" v="Oberon Road"/>
  </way>
  <way id="26207162" version="2" timestamp="2008-08-14T23:18:57Z" uid="6975" user="ulfl" changeset="264731">
    <nd ref="286960810"/>
    <nd ref="286962856"/>
    <tag k="bicycle" v="yes"/>
    <tag k="foot" v="yes"/>
    <tag k="highway" v="footway"/>
  </way>
  <way id="26207199" version="1" timestamp="2008-08-11T11:07:57Z" uid="6269" user="Mueck" changeset="188275">
    <nd ref="30151261"/>
    <nd ref="30151262"/>
    <tag k="bridge" v="true"/>
    <tag k="created_by" v="Potlatch 0.10b"/>
    <tag k="highway" v="secondary"/>
    <tag k="layer" v="1"/>
    <tag k="name" v="Honsellstraße"/>
  </way>
  <way id="26207231" version="1" timestamp="2008-08-11T11:08:33Z" uid="6269" user="Mueck" changeset="188275">
    <nd ref="28143584"/>
    <nd ref="32920617"/>
    <nd ref="28143585"/>
    <nd ref="32920620"/>
    <nd ref="30151263"/>
    <tag k="created_by" v="Potlatch 0.10b"/>
    <tag k="highway" v="secondary"/>
    <tag k="name" v="Honsellstraße"/>
    <tag k="note" v="im SHP des NVK: II"/>
    <tag k="oneway" v="true"/>
  </way>
  <way id="26207231" version="3" timestamp="2009-05-08T23:52:00Z" uid="6269" user="Mueck" changeset="1122795"/>
  <way id="26207234" version="1" timestamp="2008-08-11T11:08:36Z" uid="6269" user="Mueck" changeset="188275">
    <nd ref="18308828"/>
    <nd ref="25248712"/>
    <nd ref="25248713"/>
    <nd ref="31170914"/>
    <tag k="created_by" v="Potlatch 0.10b"/>
    <tag k="highway" v="secondary"/>
    <tag k="name" v="Honsellstraße"/>
    <tag k="note" v="im SHP des NVK: II"/>
    <tag k="oneway" v="true"/>
  </way>
  <way id="26207234" version="2" timestamp="2008-08-11T11:08:57Z" uid="6269" user="Mueck" changeset="188275">
    <nd ref="18308828"/>
    <nd ref="25248712"/>
    <nd ref="25248713"/>
    <nd ref="31170914"/>
    <tag k="created_by" v="Potlatch 0.10b"/>
    <tag k="highway" v="primary"/>
    <tag k="name" v="Honsellstraße"/>
    <tag k="note" v="im SHP des NVK: I"/>
    <tag k="oneway" v="true"/>
  </way>
  <way id="26207234" version="6" timestamp="2011-02-17T02:50:20Z" uid="6269" user="Mueck" changeset="7309570">
    <nd ref="18308828"/>
    <nd ref="25248712"/>
    <nd ref="778197683"/>
    <nd ref="25248713"/>
    <nd ref="1157120998"/>
    <nd ref="1157120956"/>
    <nd ref="31170914"/>
    <tag k="highway" v="primary"/>
    <tag k="name" v="Honsellstraße"/>
    <tag k="note" v="im SHP des NVK: I"/>
    <tag k="oneway" v="yes"/>
  </way>
  <way id="26207246" version="6" timestamp="2008-12-30T01:28:25Z" uid="7617" user="Franc" changeset="667498">
    <nd ref="286963612"/>
    <nd ref="286963413"/>
    <nd ref="286963437"/>
    <nd ref="286963415"/>
    <nd ref="286963416"/>
    <nd ref="286964160"/>
    <nd ref="286963438"/>
    <nd ref="286963914"/>
    <tag k="created_by" v="Potlatch 0.10b"/>
    <tag k="highway" v="residential"/>
    <tag k="maxspeed" v="50"/>
    <tag k="name" v="Kinsey Cresent"/>
  </way>
  <way id="26207248" version="1" timestamp="2008-08-11T11:09:22Z" uid="6269" user="Mueck" changeset="188275">
    <nd ref="28143587"/>
    <nd ref="16571778"/>
    <tag k="created_by" v="Potlatch 0.10b"/>
    <tag k="highway" v="unclassified"/>
    <tag k="name" v="Nördliche Uferstraße"/>
  </way>
  <way id="26207248" version="2" timestamp="2008-08-11T11:09:27Z" uid="6269" user="Mueck" changeset="188275">
    <nd ref="28143587"/>
    <nd ref="16571778"/>
    <tag k="created_by" v="Potlatch 0.10b"/>
    <tag k="highway" v="secondary"/>
  </way>
  <way id="26207299" version="1" timestamp="2008-08-11T11:11:50Z" uid="6269" user="Mueck" changeset="188275">
    <nd ref="31183733"/>
    <nd ref="31183735"/>
    <tag k="bridge" v="true"/>
    <tag k="created_by" v="Potlatch 0.10b"/>
    <tag k="highway" v="tertiary"/>
    <tag k="layer" v="1"/>
  </way>
  <way id="26207299" version="2" timestamp="2008-08-11T11:12:14Z" uid="6269" user="Mueck" changeset="188275"/>
  <way id="26207313" version="1" timestamp="2008-08-11T11:12:31Z" uid="6269" user="Mueck" changeset="188275">
    <nd ref="31183735"/>
    <nd ref="31183737"/>
    <nd ref="31183693"/>
    <tag k="created_by" v="Potlatch 0.10b"/>
    <tag k="highway" v="tertiary"/>
    <tag k="oneway" v="yes"/>
  </way>
  <way id="26207320" version="8" timestamp="2009-01-13T19:51:34Z" uid="43863" user="Rundling" changeset="784163">
    <nd ref="286705889"/>
    <nd ref="117532336"/>
    <nd ref="286709255"/>
    <nd ref="286705891"/>
    <nd ref="117532338"/>
    <nd ref="286709256"/>
    <nd ref="117532339"/>
    <nd ref="286705893"/>
    <nd ref="117532343"/>
    <nd ref="286705894"/>
    <nd ref="331893105"/>
    <tag k="created_by" v="Potlatch 0.10e"/>
    <tag k="highway" v="primary"/>
    <tag k="name" v="Wittensander Straße"/>
    <tag k="ref" v="B 438"/>
    <tag k="surface" v="paved"/>
  </way>
  <way id="26207414" version="4" timestamp="2008-12-30T01:28:17Z" uid="7617" user="Franc" changeset="667498">
    <nd ref="286965784"/>
    <nd ref="286965668"/>
    <nd ref="286965659"/>
    <nd ref="286965669"/>
    <nd ref="286965661"/>
    <nd ref="286965786"/>
    <nd ref="286965671"/>
    <nd ref="286965663"/>
    <tag k="created_by" v="Potlatch 0.10b"/>
    <tag k="highway" v="residential"/>
    <tag k="maxspeed" v="50"/>
    <tag k="name" v="Platypus Road"/>
  </way>
  <way id="26207418" version="9" timestamp="2008-12-30T01:28:16Z" uid="7617" user="Franc" changeset="667498">
    <nd ref="286966168"/>
    <nd ref="286965763"/>
    <nd ref="286967017"/>
    <nd ref="286966353"/>
    <nd ref="286966101"/>
    <nd ref="286965784"/>
    <nd ref="286965785"/>
    <nd ref="286966208"/>
    <nd ref="286967036"/>
    <nd ref="286966210"/>
    <nd ref="286967037"/>
    <tag k="created_by" v="Potlatch 0.10b"/>
    <tag k="highway" v="residential"/>
    <tag k="maxspeed" v="50"/>
    <tag k="name" v="Albatross Road"/>
  </way>
  <way id="26207434" version="5" timestamp="2009-02-23T12:33:41Z" uid="34428" user="usm78-gis" changeset="634299"/>
  <way id="26207437" version="5" timestamp="2009-02-23T12:56:49Z" uid="34428" user="usm78-gis" changeset="634299"/>
  <way id="26207438" version="24" timestamp="2010-10-17T12:34:06Z" uid="16922" user="amai" changeset="6066371">
    <nd ref="286965877"/>
    <nd ref="286966163"/>
    <nd ref="286966227"/>
    <nd ref="286966238"/>
    <nd ref="954545209"/>
    <nd ref="286966229"/>
    <nd ref="286966690"/>
    <nd ref="303123377"/>
    <nd ref="287053337"/>
    <nd ref="287053459"/>
    <nd ref="286966628"/>
    <nd ref="286967082"/>
    <nd ref="286966630"/>
    <nd ref="736362304"/>
    <nd ref="286966631"/>
    <nd ref="286966632"/>
    <nd ref="683393969"/>
    <nd ref="286966693"/>
    <tag k="highway" v="secondary"/>
    <tag k="name" v="ถนนเทพารักษ์"/>
    <tag k="name:en" v="Thanon Thepharak"/>
    <tag k="name:th" v="ถนนเทพารักษ์"/>
    <tag k="oneway" v="yes"/>
    <tag k="ref" v="3268"/>
    <tag k="wikipedia:th" v="http://th.wikipedia.org/wiki/ถนนเทพารักษ์"/>
  </way>
  <way id="26207438" version="25" timestamp="2011-02-05T11:02:42Z" uid="16922" user="amai" changeset="7190969">
    <nd ref="286965877"/>
    <nd ref="286966163"/>
    <nd ref="286966227"/>
    <nd ref="286966238"/>
    <nd ref="954545209"/>
    <nd ref="286966229"/>
    <nd ref="286966690"/>
    <nd ref="303123377"/>
    <nd ref="287053337"/>
    <nd ref="287053459"/>
    <nd ref="286966628"/>
    <nd ref="286967082"/>
    <nd ref="286966630"/>
    <nd ref="736362304"/>
    <nd ref="286966631"/>
    <nd ref="286966632"/>
    <nd ref="1137273808"/>
    <nd ref="1137273819"/>
    <nd ref="1137274165"/>
    <nd ref="1137274354"/>
    <nd ref="1137274311"/>
    <nd ref="1137274313"/>
    <nd ref="1137274214"/>
    <nd ref="1137274289"/>
    <nd ref="683393969"/>
    <nd ref="286966693"/>
    <tag k="highway" v="secondary"/>
    <tag k="name" v="ถนนเทพารักษ์"/>
    <tag k="name:en" v="Thanon Thepharak"/>
    <tag k="name:th" v="ถนนเทพารักษ์"/>
    <tag k="oneway" v="yes"/>
    <tag k="ref" v="3268"/>
    <tag k="wikipedia:th" v="http://th.wikipedia.org/wiki/ถนนเทพารักษ์"/>
  </way>
  <way id="26207438" version="26" timestamp="2011-02-08T21:48:21Z" uid="16922" user="amai" changeset="7231276">
    <nd ref="286965877"/>
    <nd ref="286966163"/>
    <nd ref="286966227"/>
    <nd ref="286966238"/>
    <nd ref="954545209"/>
    <nd ref="286966229"/>
    <nd ref="286966690"/>
    <nd ref="303123377"/>
    <nd ref="287053337"/>
    <nd ref="287053459"/>
    <nd ref="286966628"/>
    <nd ref="286967082"/>
    <nd ref="1142908315"/>
    <nd ref="286966630"/>
    <nd ref="736362304"/>
    <nd ref="286966631"/>
    <nd ref="286966632"/>
    <nd ref="1137273808"/>
    <nd ref="1137273819"/>
    <nd ref="1137274165"/>
    <nd ref="1137274354"/>
    <nd ref="1137274311"/>
    <nd ref="1137274313"/>
    <nd ref="1137274214"/>
    <nd ref="1137274289"/>
    <nd ref="683393969"/>
    <nd ref="286966693"/>
    <tag k="highway" v="secondary"/>
    <tag k="name" v="ถนนเทพารักษ์"/>
    <tag k="name:en" v="Thanon Thepharak"/>
    <tag k="name:th" v="ถนนเทพารักษ์"/>
    <tag k="oneway" v="yes"/>
    <tag k="ref" v="3268"/>
    <tag k="wikipedia:th" v="http://th.wikipedia.org/wiki/ถนนเทพารักษ์"/>
  </way>
  <way id="26207438" version="27" timestamp="2011-02-14T21:28:19Z" uid="16922" user="amai" changeset="7289973">
    <nd ref="286965877"/>
    <nd ref="286966163"/>
    <nd ref="286966227"/>
    <nd ref="286966238"/>
    <nd ref="954545209"/>
    <nd ref="286966229"/>
    <nd ref="286966690"/>
    <nd ref="303123377"/>
    <nd ref="287053337"/>
    <nd ref="287053459"/>
    <nd ref="286966628"/>
    <nd ref="286967082"/>
    <nd ref="1142908315"/>
    <nd ref="1153370871"/>
    <nd ref="286966630"/>
    <nd ref="736362304"/>
    <nd ref="286966631"/>
    <nd ref="286966632"/>
    <nd ref="1137273808"/>
    <nd ref="1137273819"/>
    <nd ref="1137274165"/>
    <nd ref="1137274354"/>
    <nd ref="1137274311"/>
    <nd ref="1137274313"/>
    <nd ref="1137274214"/>
    <nd ref="1137274289"/>
    <nd ref="683393969"/>
    <nd ref="286966693"/>
    <tag k="highway" v="secondary"/>
    <tag k="name" v="ถนนเทพารักษ์"/>
    <tag k="name:en" v="Thanon Thepharak"/>
    <tag k="name:th" v="ถนนเทพารักษ์"/>
    <tag k="oneway" v="yes"/>
    <tag k="ref" v="3268"/>
    <tag k="wikipedia:th" v="http://th.wikipedia.org/wiki/ถนนเทพารักษ์"/>
  </way>
  <way id="26207457" version="1" timestamp="2008-08-11T11:20:55Z" uid="6269" user="Mueck" changeset="188275">
    <nd ref="60895870"/>
    <nd ref="63674584"/>
    <nd ref="63674578"/>
    <nd ref="63674569"/>
    <nd ref="63674565"/>
    <nd ref="63674557"/>
    <nd ref="60893340"/>
    <tag k="created_by" v="Potlatch 0.10b"/>
    <tag k="highway" v="residential"/>
    <tag k="name" v="Bahnhofstraße"/>
  </way>
  <way id="26207458" version="1" timestamp="2008-08-11T11:20:58Z" uid="6269" user="Mueck" changeset="188275">
    <nd ref="60640699"/>
    <nd ref="60640701"/>
    <nd ref="63682994"/>
    <nd ref="60640702"/>
    <nd ref="60895870"/>
    <tag k="created_by" v="Potlatch 0.10b"/>
    <tag k="highway" v="residential"/>
    <tag k="name" v="Bahnhofstraße"/>
  </way>
  <way id="26207458" version="2" timestamp="2008-08-11T11:21:13Z" uid="6269" user="Mueck" changeset="188275">
    <nd ref="60640699"/>
    <nd ref="60640701"/>
    <nd ref="63682994"/>
    <nd ref="60640702"/>
    <nd ref="60895870"/>
    <tag k="created_by" v="Potlatch 0.10b"/>
    <tag k="highway" v="secondary"/>
    <tag k="name" v="Bahnhofstraße"/>
    <tag k="note" v="im SHP des NVK: II"/>
  </way>
  <way id="26207466" version="1" timestamp="2008-08-11T11:21:57Z" uid="6269" user="Mueck" changeset="188275">
    <nd ref="60640699"/>
    <nd ref="63674517"/>
    <nd ref="63679475"/>
    <nd ref="63679481"/>
    <tag k="created_by" v="Potlatch 0.10b"/>
    <tag k="highway" v="residential"/>
    <tag k="name" v="Friedrichsstraße"/>
  </way>
  <way id="26207466" version="2" timestamp="2008-08-11T11:27:43Z" uid="6269" user="Mueck" changeset="188275">
    <nd ref="60640699"/>
    <nd ref="63674517"/>
    <nd ref="63679475"/>
    <nd ref="63679481"/>
    <tag k="created_by" v="Potlatch 0.10b"/>
    <tag k="highway" v="tertiary"/>
    <tag k="name" v="Friedrichsstraße"/>
  </way>
  <way id="26207508" version="6" timestamp="2009-02-23T12:39:13Z" uid="34428" user="usm78-gis" changeset="634299"/>
  <way id="26207509" version="1" timestamp="2008-08-11T11:23:03Z" uid="6269" user="Mueck" changeset="188275">
    <nd ref="17329729"/>
    <nd ref="17329731"/>
    <tag k="created_by" v="Potlatch 0.10b"/>
    <tag k="highway" v="residential"/>
    <tag k="name" v="Karlsruher Straße"/>
  </way>
  <way id="26207509" version="2" timestamp="2008-08-11T11:23:11Z" uid="6269" user="Mueck" changeset="188275">
    <nd ref="17329729"/>
    <nd ref="17329731"/>
    <tag k="created_by" v="Potlatch 0.10b"/>
    <tag k="highway" v="tertiary"/>
    <tag k="name" v="Karlsruher Straße"/>
  </way>
  <way id="26207517" version="1" timestamp="2008-08-11T11:23:17Z" uid="6269" user="Mueck" changeset="188275">
    <nd ref="63782522"/>
    <nd ref="63782548"/>
    <nd ref="71634770"/>
    <nd ref="71657987"/>
    <nd ref="71657991"/>
    <nd ref="71657992"/>
    <nd ref="71657994"/>
    <nd ref="71657997"/>
    <nd ref="71658000"/>
    <nd ref="71658004"/>
    <nd ref="71658007"/>
    <nd ref="71658010"/>
    <nd ref="71658011"/>
    <nd ref="71658013"/>
    <nd ref="71658014"/>
    <nd ref="71658016"/>
    <nd ref="71658020"/>
    <nd ref="71658026"/>
    <nd ref="71658033"/>
    <nd ref="71658037"/>
    <nd ref="71658043"/>
    <nd ref="71658053"/>
    <nd ref="71658061"/>
    <nd ref="71658063"/>
    <nd ref="71638477"/>
    <tag k="created_by" v="Potlatch 0.10b"/>
    <tag k="highway" v="residential"/>
    <tag k="name" v="Rheinstraße"/>
  </way>
  <way id="26207517" version="2" timestamp="2008-08-11T11:23:42Z" uid="6269" user="Mueck" changeset="188275">
    <nd ref="63782522"/>
    <nd ref="63782548"/>
    <nd ref="71634770"/>
    <nd ref="71657987"/>
    <nd ref="71657991"/>
    <nd ref="71657992"/>
    <nd ref="71657994"/>
    <nd ref="71657997"/>
    <nd ref="71658000"/>
    <nd ref="71658004"/>
    <nd ref="71658007"/>
    <nd ref="71658010"/>
    <nd ref="71658011"/>
    <nd ref="71658013"/>
    <nd ref="71658014"/>
    <nd ref="71658016"/>
    <nd ref="71658020"/>
    <nd ref="71658026"/>
    <nd ref="71658033"/>
    <nd ref="71658037"/>
    <nd ref="71658043"/>
    <nd ref="71658053"/>
    <nd ref="71658061"/>
    <nd ref="71658063"/>
    <nd ref="71638477"/>
    <tag k="created_by" v="Potlatch 0.10b"/>
    <tag k="highway" v="tertiary"/>
    <tag k="name" v="Rheinstraße"/>
    <tag k="note" v="im SHP des NVK: III"/>
  </way>
  <way id="26207575" version="2" timestamp="2008-09-14T18:30:38Z" uid="6975" user="ulfl" changeset="640534">
    <nd ref="286967597"/>
    <nd ref="286967598"/>
    <nd ref="286967599"/>
    <nd ref="286967600"/>
    <nd ref="286967601"/>
    <nd ref="286967602"/>
    <nd ref="286967597"/>
    <tag k="amenity" v="townhall"/>
    <tag k="building" v="yes"/>
    <tag k="name" v="Municipio"/>
  </way>
  <way id="26207582" version="6" timestamp="2009-02-23T12:35:54Z" uid="34428" user="usm78-gis" changeset="634299"/>
  <way id="26207594" version="1" timestamp="2008-08-11T11:27:47Z" uid="6269" user="Mueck" changeset="188275">
    <nd ref="63679481"/>
    <nd ref="63710831"/>
    <nd ref="63679489"/>
    <nd ref="63710838"/>
    <nd ref="63683005"/>
    <nd ref="63694419"/>
    <nd ref="63710849"/>
    <nd ref="63690890"/>
    <nd ref="63710853"/>
    <nd ref="63710860"/>
    <nd ref="60893250"/>
    <tag k="created_by" v="Potlatch 0.10b"/>
    <tag k="highway" v="residential"/>
    <tag k="name" v="Heussstraße"/>
  </way>
  <way id="26207596" version="5" timestamp="2010-05-16T08:44:45Z" uid="4467" user="Rosscoe" changeset="4714375">
    <nd ref="286968016"/>
    <nd ref="286968100"/>
    <nd ref="286968092"/>
    <nd ref="736131513"/>
    <tag k="highway" v="tertiary"/>
    <tag k="maxspeed" v="50"/>
    <tag k="name" v="Kingsford Smith Drive"/>
    <tag k="oneway" v="yes"/>
  </way>
  <way id="26207602" version="5" timestamp="2010-05-16T08:44:49Z" uid="4467" user="Rosscoe" changeset="4714375">
    <nd ref="736131520"/>
    <nd ref="286968115"/>
    <nd ref="286968078"/>
    <nd ref="286970209"/>
    <nd ref="286968016"/>
    <tag k="highway" v="tertiary"/>
    <tag k="maxspeed" v="50"/>
    <tag k="name" v="Kingsford Smith Drive"/>
    <tag k="oneway" v="yes"/>
  </way>
  <way id="26207610" version="9" timestamp="2008-12-30T01:28:33Z" uid="7617" user="Franc" changeset="667498">
    <nd ref="286968016"/>
    <nd ref="286968017"/>
    <nd ref="286968018"/>
    <nd ref="286969621"/>
    <nd ref="286968019"/>
    <nd ref="286969516"/>
    <nd ref="286969505"/>
    <nd ref="286968020"/>
    <nd ref="286968089"/>
    <nd ref="286968469"/>
    <tag k="created_by" v="Potlatch 0.10b"/>
    <tag k="highway" v="tertiary"/>
    <tag k="maxspeed" v="50"/>
    <tag k="name" v="Kingsford Smith Drive"/>
  </way>
  <way id="26207642" version="4" timestamp="2010-04-19T19:48:04Z" uid="9581" user="Lobelt" changeset="4471611">
    <nd ref="286968158"/>
    <nd ref="485360433"/>
    <nd ref="364913039"/>
    <nd ref="702208989"/>
    <nd ref="702208991"/>
    <nd ref="286968159"/>
    <tag k="highway" v="service"/>
  </way>
  <way id="26207645" version="4" timestamp="2010-09-19T19:49:42Z" uid="9581" user="Lobelt" changeset="5823620">
    <nd ref="253956523"/>
    <nd ref="253956524"/>
    <nd ref="253956525"/>
    <nd ref="253956527"/>
    <nd ref="253956530"/>
    <tag k="highway" v="track"/>
    <tag k="tracktype" v="grade1"/>
  </way>
  <way id="26207646" version="5" timestamp="2010-09-19T19:49:36Z" uid="9581" user="Lobelt" changeset="5823620">
    <nd ref="286968159"/>
    <nd ref="286968164"/>
    <nd ref="286968163"/>
    <nd ref="286968162"/>
    <nd ref="286968161"/>
    <nd ref="286968160"/>
    <nd ref="286968165"/>
    <nd ref="286968167"/>
    <nd ref="918916760"/>
    <nd ref="286968168"/>
    <tag k="highway" v="track"/>
    <tag k="tracktype" v="grade1"/>
  </way>
  <way id="26207647" version="3" timestamp="2010-04-19T19:48:04Z" uid="9581" user="Lobelt" changeset="4471611">
    <nd ref="286968175"/>
    <nd ref="702208871"/>
    <tag k="highway" v="unclassified"/>
    <tag k="name" v="Antwerpener Straße"/>
  </way>
  <way id="26207648" version="3" timestamp="2010-09-19T19:49:34Z" uid="9581" user="Lobelt" changeset="5823620">
    <nd ref="364667931"/>
    <nd ref="286968181"/>
    <nd ref="286968180"/>
    <nd ref="918916561"/>
    <nd ref="286968179"/>
    <tag k="highway" v="service"/>
  </way>
  <way id="26207649" version="5" timestamp="2010-04-19T19:48:00Z" uid="9581" user="Lobelt" changeset="4471611">
    <nd ref="26744869"/>
    <nd ref="702208899"/>
    <nd ref="364912754"/>
    <nd ref="364912792"/>
    <nd ref="286968182"/>
    <nd ref="286968183"/>
    <nd ref="346656681"/>
    <nd ref="286968185"/>
    <nd ref="286968187"/>
    <nd ref="286968188"/>
    <tag k="highway" v="unclassified"/>
    <tag k="name" v="Rotterdamer Straße"/>
  </way>
  <way id="26207679" version="5" timestamp="2009-01-18T11:29:58Z" uid="9581" user="Lobelt" changeset="804372">
    <nd ref="63003413"/>
    <nd ref="297033662"/>
    <nd ref="333000558"/>
    <nd ref="274063227"/>
    <nd ref="63049454"/>
    <nd ref="63049456"/>
    <nd ref="274063228"/>
    <nd ref="274063229"/>
    <nd ref="274063230"/>
    <nd ref="63049459"/>
    <nd ref="63049460"/>
    <nd ref="274063231"/>
    <nd ref="274063232"/>
    <nd ref="274063095"/>
    <nd ref="63049462"/>
    <nd ref="274063096"/>
    <nd ref="274063097"/>
    <nd ref="274063158"/>
    <nd ref="274063098"/>
    <nd ref="274063159"/>
    <nd ref="274063099"/>
    <nd ref="63049467"/>
    <nd ref="63049469"/>
    <nd ref="63049470"/>
    <nd ref="63049471"/>
    <nd ref="63049473"/>
    <nd ref="63049476"/>
    <nd ref="63049477"/>
    <nd ref="63049479"/>
    <nd ref="63049480"/>
    <nd ref="63049483"/>
    <nd ref="63049487"/>
    <nd ref="63049489"/>
    <nd ref="63049492"/>
    <nd ref="274062776"/>
    <nd ref="63049494"/>
    <nd ref="63049497"/>
    <nd ref="63049500"/>
    <nd ref="274062778"/>
    <nd ref="63049505"/>
    <nd ref="63049509"/>
    <nd ref="63049514"/>
    <nd ref="63049518"/>
    <nd ref="63049523"/>
    <nd ref="63049526"/>
    <nd ref="63049530"/>
    <nd ref="274062779"/>
    <nd ref="274062780"/>
    <nd ref="63049532"/>
    <nd ref="274062781"/>
    <nd ref="274062782"/>
    <nd ref="63049535"/>
    <nd ref="274062784"/>
    <nd ref="63049540"/>
    <nd ref="63049544"/>
    <nd ref="274062132"/>
    <nd ref="274062133"/>
    <nd ref="63049548"/>
    <nd ref="274062134"/>
    <nd ref="63049550"/>
    <nd ref="274062135"/>
    <nd ref="63049553"/>
    <nd ref="63049554"/>
    <nd ref="63049558"/>
    <nd ref="63049561"/>
    <nd ref="63049772"/>
    <nd ref="63049774"/>
    <tag k="created_by" v="Potlatch 0.10b"/>
    <tag k="highway" v="secondary"/>
    <tag k="name" v="Masserberger Straße"/>
    <tag k="ref" v="L 1138"/>
  </way>
  <way id="26207679" version="6" timestamp="2009-01-30T12:12:08Z" uid="9581" user="Lobelt" changeset="854171">
    <nd ref="63003413"/>
    <nd ref="297033662"/>
    <nd ref="333000558"/>
    <nd ref="274063227"/>
    <nd ref="63049454"/>
    <nd ref="63049456"/>
    <nd ref="274063228"/>
    <nd ref="274063229"/>
    <nd ref="274063230"/>
    <nd ref="63049459"/>
    <nd ref="63049460"/>
    <nd ref="274063231"/>
    <nd ref="274063232"/>
    <nd ref="274063095"/>
    <nd ref="63049462"/>
    <nd ref="274063096"/>
    <nd ref="274063097"/>
    <nd ref="274063158"/>
    <nd ref="274063098"/>
    <nd ref="274063159"/>
    <nd ref="274063099"/>
    <nd ref="63049467"/>
    <nd ref="63049469"/>
    <nd ref="339100975"/>
    <nd ref="63049470"/>
    <nd ref="63049471"/>
    <nd ref="63049473"/>
    <nd ref="339100972"/>
    <nd ref="63049476"/>
    <nd ref="63049477"/>
    <nd ref="63049479"/>
    <nd ref="63049480"/>
    <nd ref="63049483"/>
    <nd ref="339100974"/>
    <nd ref="63049487"/>
    <nd ref="63049489"/>
    <nd ref="339100973"/>
    <nd ref="63049492"/>
    <nd ref="274062776"/>
    <nd ref="63049494"/>
    <nd ref="63049497"/>
    <nd ref="63049500"/>
    <nd ref="274062778"/>
    <nd ref="63049505"/>
    <nd ref="63049509"/>
    <nd ref="63049514"/>
    <nd ref="63049518"/>
    <nd ref="63049523"/>
    <nd ref="63049526"/>
    <nd ref="63049530"/>
    <nd ref="274062779"/>
    <nd ref="274062780"/>
    <nd ref="63049532"/>
    <nd ref="274062781"/>
    <nd ref="274062782"/>
    <nd ref="63049535"/>
    <nd ref="274062784"/>
    <nd ref="63049540"/>
    <nd ref="63049544"/>
    <nd ref="274062132"/>
    <nd ref="274062133"/>
    <nd ref="63049548"/>
    <nd ref="274062134"/>
    <nd ref="63049550"/>
    <nd ref="274062135"/>
    <nd ref="63049553"/>
    <nd ref="63049554"/>
    <nd ref="63049558"/>
    <nd ref="63049561"/>
    <nd ref="63049772"/>
    <nd ref="63049774"/>
    <tag k="created_by" v="Potlatch 0.10b"/>
    <tag k="highway" v="secondary"/>
    <tag k="name" v="Masserberger Straße"/>
    <tag k="ref" v="L 1138"/>
  </way>
  <way id="26207803" version="4" timestamp="2011-02-24T10:01:23Z" uid="4467" user="Rosscoe" changeset="7379967">
    <nd ref="290156187"/>
    <nd ref="1169717472"/>
    <nd ref="286969423"/>
    <nd ref="286969424"/>
    <nd ref="286969425"/>
    <nd ref="286969426"/>
    <nd ref="286969427"/>
    <nd ref="286969428"/>
    <nd ref="411294240"/>
    <nd ref="286969429"/>
    <nd ref="286969430"/>
    <nd ref="286969431"/>
    <nd ref="286969432"/>
    <nd ref="286969433"/>
    <nd ref="286969434"/>
    <nd ref="286969435"/>
    <nd ref="286969436"/>
    <nd ref="286969437"/>
    <nd ref="286969438"/>
    <nd ref="286969439"/>
    <nd ref="286969412"/>
    <tag k="highway" v="track"/>
    <tag k="surface" v="unpaved"/>
  </way>
  <way id="26207851" version="1" timestamp="2008-08-11T11:37:11Z" uid="6269" user="Mueck" changeset="188275">
    <nd ref="254650839"/>
    <nd ref="253136451"/>
    <nd ref="253136452"/>
    <nd ref="253136453"/>
    <nd ref="253136454"/>
    <nd ref="253136455"/>
    <tag k="created_by" v="Potlatch 0.10b"/>
    <tag k="highway" v="secondary"/>
    <tag k="name" v="Ostendstraße"/>
    <tag k="note" v="im SHP des NVK: II"/>
  </way>
  <way id="26207851" version="2" timestamp="2008-08-11T11:37:23Z" uid="6269" user="Mueck" changeset="188275">
    <nd ref="254650839"/>
    <nd ref="253136451"/>
    <nd ref="253136452"/>
    <nd ref="253136453"/>
    <nd ref="253136454"/>
    <nd ref="253136455"/>
    <tag k="created_by" v="Potlatch 0.10b"/>
    <tag k="highway" v="tertiary"/>
    <tag k="name" v="Ostendstraße"/>
    <tag k="note" v="im SHP des NVK: III"/>
  </way>
  <way id="26207857" version="1" timestamp="2008-08-11T11:37:25Z" uid="6269" user="Mueck" changeset="188275">
    <nd ref="253136455"/>
    <nd ref="253136461"/>
    <nd ref="253136462"/>
    <tag k="created_by" v="Potlatch 0.10b"/>
    <tag k="highway" v="residential"/>
    <tag k="name" v="Salinenstraße"/>
  </way>
  <way id="26207857" version="2" timestamp="2008-08-11T11:37:32Z" uid="6269" user="Mueck" changeset="188275">
    <nd ref="253136455"/>
    <nd ref="253136461"/>
    <nd ref="253136462"/>
    <tag k="created_by" v="Potlatch 0.10b"/>
    <tag k="highway" v="tertiary"/>
    <tag k="name" v="Salinenstraße"/>
  </way>
  <way id="26207862" version="2" timestamp="2009-12-02T03:05:37Z" uid="200463" user="harmagedon" changeset="3269195">
    <nd ref="286969828"/>
    <nd ref="269134470"/>
    <nd ref="269134472"/>
    <nd ref="269134473"/>
    <nd ref="282224543"/>
    <nd ref="282224610"/>
    <nd ref="269134474"/>
    <nd ref="269134476"/>
    <nd ref="269134477"/>
    <nd ref="282224556"/>
    <tag k="highway" v="unclassified"/>
    <tag k="name" v="Salmas"/>
  </way>
  <way id="26207863" version="2" timestamp="2009-12-02T03:05:38Z" uid="200463" user="harmagedon" changeset="3269195">
    <nd ref="282224556"/>
    <nd ref="269134478"/>
    <nd ref="269134480"/>
    <nd ref="269134481"/>
    <nd ref="269134483"/>
    <nd ref="286969830"/>
    <tag k="highway" v="unclassified"/>
  </way>
  <way id="26207864" version="2" timestamp="2009-12-02T03:05:38Z" uid="200463" user="harmagedon" changeset="3269195">
    <nd ref="286969830"/>
    <nd ref="269134484"/>
    <nd ref="282224616"/>
    <nd ref="269134486"/>
    <nd ref="269134487"/>
    <nd ref="269134488"/>
    <nd ref="269134490"/>
    <nd ref="269134491"/>
    <nd ref="269134492"/>
    <tag k="highway" v="unclassified"/>
    <tag k="name" v="Knechtenhofen"/>
  </way>
  <way id="26207866" version="2" timestamp="2009-12-02T03:05:38Z" uid="200463" user="harmagedon" changeset="3269195">
    <nd ref="269134492"/>
    <nd ref="269134494"/>
    <nd ref="269134495"/>
    <tag k="highway" v="unclassified"/>
  </way>
  <way id="26207878" version="1" timestamp="2008-08-11T11:39:01Z" uid="9581" user="Lobelt" changeset="182033">
    <nd ref="31289249"/>
    <nd ref="31289250"/>
    <nd ref="234130307"/>
    <nd ref="31289251"/>
    <nd ref="166125774"/>
    <nd ref="31289252"/>
    <tag k="created_by" v="Potlatch 0.10b"/>
    <tag k="highway" v="residential"/>
    <tag k="name" v="Lieberoser Straße"/>
  </way>
  <way id="26207884" version="1" timestamp="2008-08-11T11:39:22Z" uid="9581" user="Lobelt" changeset="182033">
    <nd ref="31072924"/>
    <nd ref="39524960"/>
    <nd ref="31072925"/>
    <nd ref="121827082"/>
    <nd ref="31072926"/>
    <nd ref="31072927"/>
    <nd ref="31072928"/>
    <tag k="created_by" v="Potlatch 0.10b"/>
    <tag k="highway" v="secondary"/>
    <tag k="name" v="Juri-Gagarin-Straße"/>
  </way>
  <way id="26207884" version="2" timestamp="2009-02-11T10:39:14Z" uid="9581" user="Lobelt" changeset="344494">
    <nd ref="31072924"/>
    <nd ref="39524960"/>
    <nd ref="31072925"/>
    <nd ref="121827082"/>
    <nd ref="31072926"/>
    <nd ref="31072927"/>
    <nd ref="31072928"/>
    <tag k="created_by" v="Potlatch 0.10b"/>
    <tag k="highway" v="secondary"/>
    <tag k="maxspeed" v="50"/>
    <tag k="name" v="Juri-Gagarin-Straße"/>
  </way>
  <way id="26207909" version="5" timestamp="2008-12-30T01:28:15Z" uid="7617" user="Franc" changeset="667498">
    <nd ref="286967037"/>
    <nd ref="286970304"/>
    <nd ref="286970305"/>
    <nd ref="286970195"/>
    <nd ref="286970268"/>
    <nd ref="286970197"/>
    <nd ref="286970306"/>
    <nd ref="286970199"/>
    <nd ref="287525251"/>
    <nd ref="286970270"/>
    <nd ref="286970201"/>
    <nd ref="286970307"/>
    <nd ref="286970203"/>
    <nd ref="286970272"/>
    <nd ref="286970205"/>
    <nd ref="286970308"/>
    <nd ref="286970207"/>
    <nd ref="286970274"/>
    <nd ref="286970209"/>
    <tag k="created_by" v="Potlatch 0.10b"/>
    <tag k="highway" v="residential"/>
    <tag k="maxspeed" v="50"/>
    <tag k="name" v="Cygnet Drive"/>
  </way>
</osm>
