<?xml version='1.0' encoding='UTF-8'?>
<osm version="0.6" generator="libosmium/2.20.0">
  <way id="26231000" version="4" timestamp="2009-08-17T11:48:16Z" uid="74617" user="JohnSmith" changeset="2176880">
    <nd ref="287232755"/>
    <nd ref="26344557"/>
    <nd ref="26344558"/>
    <nd ref="287232830"/>
    <nd ref="287232798"/>
    <tag k="bridge" v="yes"/>
    <tag k="highway" v="motorway"/>
    <tag k="layer" v="1"/>
    <tag k="oneway" v="yes"/>
  </way>
  <way id="26231000" version="5" timestamp="2010-05-31T03:14:45Z" uid="74617" user="JohnSmith" changeset="4859196">
    <nd ref="287232755"/>
    <nd ref="26344557"/>
    <nd ref="287232798"/>
    <tag k="bridge" v="yes"/>
    <tag k="highway" v="motorway"/>
    <tag k="layer" v="1"/>
    <tag k="oneway" v="yes"/>
  </way>
  <way id="26231002" version="4" timestamp="2009-08-17T11:48:16Z" uid="74617" user="JohnSmith" changeset="2176880">
    <nd ref="287232796"/>
    <nd ref="287232853"/>
    <nd ref="26344544"/>
    <nd ref="26344549"/>
    <nd ref="287232770"/>
    <tag k="bridge" v="yes"/>
    <tag k="highway" v="motorway"/>
    <tag k="layer" v="1"/>
    <tag k="oneway" v="yes"/>
  </way>
  <way id="26231002" version="5" timestamp="2010-05-31T03:14:44Z" uid="74617" user="JohnSmith" changeset="4859196">
    <nd ref="287232796"/>
    <nd ref="26344549"/>
    <nd ref="287232770"/>
    <tag k="bridge" v="yes"/>
    <tag k="highway" v="motorway"/>
    <tag k="layer" v="1"/>
    <tag k="oneway" v="yes"/>
  </way>
  <way id="26231012" version="6" timestamp="2009-08-17T11:50:31Z" uid="74617" user="JohnSmith" changeset="2176909">
    <nd ref="287232770"/>
    <nd ref="26344550"/>
    <nd ref="291579032"/>
    <tag k="highway" v="motorway"/>
    <tag k="oneway" v="yes"/>
  </way>
  <way id="26231013" version="2" timestamp="2009-08-17T11:48:17Z" uid="74617" user="JohnSmith" changeset="2176880">
    <nd ref="287232798"/>
    <nd ref="26344559"/>
    <nd ref="26344560"/>
    <nd ref="35049749"/>
    <nd ref="26344561"/>
    <nd ref="35049725"/>
    <nd ref="26344543"/>
    <nd ref="35049703"/>
    <nd ref="35049690"/>
    <nd ref="35049664"/>
    <nd ref="35049632"/>
    <nd ref="35049606"/>
    <nd ref="35049567"/>
    <nd ref="86621104"/>
    <nd ref="86621105"/>
    <nd ref="86621106"/>
    <nd ref="35041717"/>
    <tag k="highway" v="motorway"/>
    <tag k="oneway" v="yes"/>
  </way>
  <way id="26231013" version="4" timestamp="2010-03-21T02:06:40Z" uid="9719" user="dvaey" changeset="4186842">
    <nd ref="287232798"/>
    <nd ref="26344559"/>
    <nd ref="26344560"/>
    <nd ref="671062876"/>
    <nd ref="35049749"/>
    <nd ref="671062877"/>
    <nd ref="26344561"/>
    <nd ref="35049725"/>
    <nd ref="671062879"/>
    <nd ref="26344543"/>
    <nd ref="35049703"/>
    <nd ref="35049690"/>
    <nd ref="35049664"/>
    <nd ref="35049632"/>
    <nd ref="35049606"/>
    <nd ref="529748969"/>
    <nd ref="86621104"/>
    <nd ref="86621105"/>
    <nd ref="86621106"/>
    <nd ref="529748971"/>
    <nd ref="35041717"/>
    <tag k="highway" v="motorway"/>
    <tag k="oneway" v="yes"/>
  </way>
  <way id="26231041" version="2" timestamp="2008-09-14T15:49:45Z" uid="6975" user="ulfl" changeset="640534">
    <nd ref="287233170"/>
    <nd ref="287233171"/>
    <nd ref="287233172"/>
    <nd ref="287233174"/>
    <nd ref="287233170"/>
    <tag k="layer" v="1"/>
    <tag k="leisure" v="swimming_pool"/>
    <tag k="sport" v="swimming"/>
  </way>
  <way id="26231071" version="3" timestamp="2008-08-14T21:36:44Z" uid="6975" user="ulfl" changeset="264731">
    <nd ref="287233439"/>
    <nd ref="287233440"/>
    <nd ref="287233680"/>
    <nd ref="287233442"/>
    <nd ref="287233443"/>
    <nd ref="287233681"/>
    <nd ref="287233682"/>
    <nd ref="287233439"/>
    <tag k="Note" v="Google Maps also shows another substation on the eastern side of Lytton Road.  Need to do a site visit."/>
    <tag k="landuse" v="industrial"/>
    <tag k="power" v="sub_station"/>
  </way>
  <way id="26231133" version="1" timestamp="2008-08-12T09:28:20Z" uid="6269" user="Mueck" changeset="200178">
    <nd ref="60678580"/>
    <nd ref="21587095"/>
    <nd ref="256583393"/>
    <nd ref="21587096"/>
    <nd ref="21587097"/>
    <nd ref="21587098"/>
    <tag k="created_by" v="Potlatch 0.10b"/>
    <tag k="highway" v="secondary"/>
    <tag k="loc_ref" v="K 9653"/>
    <tag k="name" v="Karlsbader Straße"/>
  </way>
  <way id="26231195" version="1" timestamp="2008-08-12T09:34:07Z" uid="6269" user="Mueck" changeset="200178">
    <nd ref="273508177"/>
    <nd ref="273508188"/>
    <nd ref="273508192"/>
    <nd ref="273508193"/>
    <nd ref="273508194"/>
    <nd ref="273508195"/>
    <tag k="created_by" v="Potlatch 0.10b"/>
    <tag k="highway" v="residential"/>
  </way>
  <way id="26231230" version="1" timestamp="2008-08-12T09:36:32Z" uid="6269" user="Mueck" changeset="200178">
    <nd ref="240977802"/>
    <nd ref="240977800"/>
    <nd ref="240977798"/>
    <nd ref="275061960"/>
    <nd ref="240977795"/>
    <nd ref="240977794"/>
    <nd ref="240977791"/>
    <nd ref="281595009"/>
    <nd ref="240977790"/>
    <nd ref="281595028"/>
    <nd ref="275061958"/>
    <nd ref="281595029"/>
    <nd ref="240977787"/>
    <nd ref="281595033"/>
    <nd ref="240977786"/>
    <nd ref="240977783"/>
    <nd ref="240977782"/>
    <nd ref="281595024"/>
    <nd ref="240977779"/>
    <nd ref="275061959"/>
    <nd ref="240977778"/>
    <nd ref="240977775"/>
    <nd ref="240977774"/>
    <nd ref="240977771"/>
    <tag k="created_by" v="Potlatch 0.10b"/>
    <tag k="highway" v="primary"/>
    <tag k="ref" v="L 562"/>
  </way>
  <way id="26231232" version="1" timestamp="2008-08-12T09:36:40Z" uid="6269" user="Mueck" changeset="200178">
    <nd ref="239985434"/>
    <nd ref="239985439"/>
    <nd ref="239985445"/>
    <nd ref="239985450"/>
    <nd ref="239985456"/>
    <tag k="created_by" v="Potlatch 0.10b"/>
    <tag k="highway" v="secondary"/>
    <tag k="ref" v="L 562"/>
  </way>
  <way id="26231232" version="2" timestamp="2008-08-12T09:36:49Z" uid="6269" user="Mueck" changeset="200178">
    <nd ref="239985434"/>
    <nd ref="239985439"/>
    <nd ref="239985445"/>
    <nd ref="239985450"/>
    <nd ref="239985456"/>
    <tag k="created_by" v="Potlatch 0.10b"/>
    <tag k="highway" v="primary_link"/>
    <tag k="ref" v="L 562"/>
  </way>
  <way id="26231338" version="3" timestamp="2009-01-03T19:37:22Z" uid="58091" user="Andreas M" changeset="725036">
    <nd ref="270328297"/>
    <nd ref="270328285"/>
    <nd ref="270328286"/>
    <nd ref="270328287"/>
    <nd ref="324170993"/>
    <nd ref="270328288"/>
    <nd ref="270328328"/>
    <nd ref="270328289"/>
    <nd ref="270328290"/>
    <nd ref="270328291"/>
    <nd ref="270328292"/>
    <nd ref="270328293"/>
    <nd ref="270328294"/>
    <nd ref="270328295"/>
    <nd ref="324170924"/>
    <nd ref="270328330"/>
    <nd ref="270328329"/>
    <nd ref="270328327"/>
    <nd ref="270328296"/>
    <tag k="created_by" v="Merkaartor 0.12"/>
    <tag k="railway" v="tram"/>
    <tag k="ref" v="6;18"/>
  </way>
  <way id="26231338" version="4" timestamp="2009-01-05T08:24:58Z" uid="58091" user="Andreas M" changeset="735458">
    <nd ref="270328297"/>
    <nd ref="270328285"/>
    <nd ref="270328286"/>
    <nd ref="270328287"/>
    <nd ref="324170993"/>
    <nd ref="270328288"/>
    <nd ref="270328328"/>
    <tag k="created_by" v="Merkaartor 0.12"/>
    <tag k="railway" v="tram"/>
    <tag k="ref" v="6;18"/>
  </way>
  <way id="26231339" version="2" timestamp="2009-01-03T19:37:19Z" uid="58091" user="Andreas M" changeset="725036">
    <nd ref="270328282"/>
    <nd ref="270328297"/>
    <tag k="railway" v="tram"/>
    <tag k="ref" v="6;9;18"/>
  </way>
  <way id="26231340" version="3" timestamp="2008-09-06T14:39:28Z" uid="58091" user="Andreas M" changeset="549614">
    <nd ref="287235512"/>
    <nd ref="270328299"/>
    <nd ref="270328300"/>
    <nd ref="286198799"/>
    <nd ref="270328301"/>
    <nd ref="270328302"/>
    <nd ref="270328303"/>
    <nd ref="270328304"/>
    <nd ref="270328305"/>
    <nd ref="270328306"/>
    <nd ref="270328332"/>
    <nd ref="270328307"/>
    <nd ref="270328308"/>
    <nd ref="270328309"/>
    <nd ref="270328326"/>
    <nd ref="270328325"/>
    <nd ref="270328310"/>
    <nd ref="270328311"/>
    <nd ref="270328312"/>
    <nd ref="270328313"/>
    <nd ref="270328323"/>
    <nd ref="270328314"/>
    <nd ref="270328322"/>
    <nd ref="270328315"/>
    <nd ref="270328316"/>
    <nd ref="270328321"/>
    <nd ref="270328317"/>
    <nd ref="270328318"/>
    <nd ref="270328319"/>
    <nd ref="270328320"/>
    <nd ref="294134564"/>
    <tag k="created_by" v="Potlatch 0.10b"/>
    <tag k="railway" v="tram"/>
    <tag k="ref" v="6, 18"/>
  </way>
  <way id="26231340" version="10" timestamp="2009-01-05T07:41:39Z" uid="58091" user="Andreas M" changeset="735458">
    <nd ref="287235512"/>
    <nd ref="270328299"/>
    <nd ref="298955283"/>
    <nd ref="270328300"/>
    <nd ref="298955273"/>
    <nd ref="286198799"/>
    <nd ref="270328301"/>
    <nd ref="270328302"/>
    <nd ref="270328303"/>
    <nd ref="270328304"/>
    <nd ref="270328305"/>
    <nd ref="270328332"/>
    <nd ref="311319490"/>
    <nd ref="270328307"/>
    <nd ref="270328308"/>
    <nd ref="270328309"/>
    <nd ref="270328326"/>
    <nd ref="270328325"/>
    <nd ref="270328310"/>
    <nd ref="270328311"/>
    <nd ref="270328312"/>
    <nd ref="270328313"/>
    <nd ref="270328323"/>
    <nd ref="270328314"/>
    <nd ref="270328322"/>
    <nd ref="270328315"/>
    <nd ref="270328316"/>
    <nd ref="270328321"/>
    <nd ref="270328317"/>
    <nd ref="270328318"/>
    <nd ref="270328319"/>
    <nd ref="270328320"/>
    <tag k="created_by" v="Potlatch 0.10f"/>
    <tag k="railway" v="tram"/>
    <tag k="ref" v="6;18"/>
  </way>
  <way id="26231340" version="11" timestamp="2009-01-05T08:35:14Z" uid="58091" user="Andreas M" changeset="735458">
    <nd ref="287235512"/>
    <nd ref="270328299"/>
    <nd ref="298955283"/>
    <nd ref="270328300"/>
    <nd ref="298955273"/>
    <nd ref="286198799"/>
    <nd ref="270328301"/>
    <nd ref="270328302"/>
    <nd ref="270328303"/>
    <nd ref="270328304"/>
    <nd ref="270328305"/>
    <nd ref="270328332"/>
    <nd ref="311319490"/>
    <nd ref="270328307"/>
    <nd ref="270328308"/>
    <nd ref="270328309"/>
    <nd ref="270328326"/>
    <nd ref="270328325"/>
    <nd ref="270328310"/>
    <nd ref="270328311"/>
    <nd ref="270328312"/>
    <nd ref="270328313"/>
    <nd ref="270328323"/>
    <nd ref="270328314"/>
    <nd ref="270328322"/>
    <nd ref="270328315"/>
    <nd ref="270328316"/>
    <nd ref="270328321"/>
    <nd ref="326838203"/>
    <nd ref="270328317"/>
    <nd ref="270328318"/>
    <nd ref="270328319"/>
    <nd ref="326838209"/>
    <nd ref="270328320"/>
    <tag k="created_by" v="Potlatch 0.10f"/>
    <tag k="railway" v="tram"/>
    <tag k="ref" v="6;18"/>
  </way>
  <way id="26231341" version="2" timestamp="2009-01-03T19:37:19Z" uid="58091" user="Andreas M" changeset="725036">
    <nd ref="287235512"/>
    <nd ref="287235513"/>
    <nd ref="287235514"/>
    <nd ref="287235515"/>
    <nd ref="287235516"/>
    <nd ref="287235517"/>
    <nd ref="287235518"/>
    <nd ref="287235519"/>
    <nd ref="287235520"/>
    <nd ref="287235521"/>
    <nd ref="287235522"/>
    <nd ref="287235523"/>
    <nd ref="287235524"/>
    <nd ref="287235525"/>
    <tag k="railway" v="tram"/>
    <tag k="ref" v="9"/>
  </way>
  <way id="26231642" version="3" timestamp="2010-03-27T23:56:04Z" uid="20587" user="balrog-kun" changeset="4250871">
    <nd ref="65442027"/>
    <nd ref="65467476"/>
    <nd ref="65537086"/>
    <nd ref="65656434"/>
    <nd ref="65602542"/>
    <tag k="created_by" v="Potlatch 0.10b"/>
    <tag k="highway" v="residential"/>
    <tag k="name" v="Magnolia Lane"/>
    <tag k="tiger:cfcc" v="A41"/>
    <tag k="tiger:county" v="Santa Clara, CA"/>
    <tag k="tiger:name_base" v="Magnolia"/>
    <tag k="tiger:name_type" v="Ln"/>
    <tag k="tiger:reviewed" v="no"/>
    <tag k="tiger:separated" v="no"/>
    <tag k="tiger:source" v="tiger_import_dch_v0.6_20070809"/>
    <tag k="tiger:tlid" v="123017461:123017466:123017472:123017455:123017456"/>
  </way>
  <way id="26231698" version="1" timestamp="2008-08-12T10:12:15Z" uid="19626" user="Swamp" changeset="208445">
    <nd ref="287239043"/>
    <nd ref="287239044"/>
    <tag k="highway" v="residential"/>
    <tag k="maxspeed" v="50km/h"/>
    <tag k="name" v="North Avenue"/>
    <tag k="oneway" v="true"/>
  </way>
  <way id="26231698" version="2" timestamp="2009-07-19T09:11:59Z" uid="18775" user="drlizau" changeset="1871046">
    <nd ref="287239043"/>
    <nd ref="287239044"/>
    <tag k="highway" v="residential"/>
    <tag k="maxspeed" v="50km/h"/>
    <tag k="name" v="North Avenue"/>
    <tag k="oneway" v="true"/>
  </way>
  <way id="26231698" version="3" timestamp="2009-07-25T15:39:10Z" uid="74617" user="JohnSmith" changeset="1935488">
    <nd ref="287239043"/>
    <nd ref="287239044"/>
    <tag k="highway" v="residential"/>
    <tag k="maxspeed" v="50"/>
    <tag k="name" v="North Avenue"/>
    <tag k="oneway" v="true"/>
  </way>
  <way id="26231698" version="4" timestamp="2009-08-03T19:36:26Z" uid="4467" user="Rosscoe" changeset="2029470">
    <nd ref="287239043"/>
    <nd ref="287239044"/>
    <tag k="highway" v="residential"/>
    <tag k="maxspeed" v="50"/>
    <tag k="name" v="North Avenue"/>
    <tag k="oneway" v="yes"/>
  </way>
  <way id="26231698" version="5" timestamp="2010-12-16T09:51:29Z" uid="18775" user="drlizau" changeset="6674919">
    <nd ref="287239043"/>
    <nd ref="287239044"/>
    <tag k="highway" v="residential"/>
    <tag k="maxspeed" v="50"/>
    <tag k="name" v="North Avenue"/>
    <tag k="oneway" v="yes"/>
    <tag k="source" v="survey"/>
  </way>
  <way id="26231699" version="1" timestamp="2008-08-12T10:12:16Z" uid="19626" user="Swamp" changeset="208445">
    <nd ref="243810661"/>
    <nd ref="287239045"/>
    <nd ref="195089500"/>
    <tag k="highway" v="residential"/>
    <tag k="maxspeed" v="50km/h"/>
    <tag k="name" v="East Avenue"/>
  </way>
  <way id="26231699" version="2" timestamp="2009-07-25T15:39:11Z" uid="74617" user="JohnSmith" changeset="1935488">
    <nd ref="243810661"/>
    <nd ref="287239045"/>
    <nd ref="195089500"/>
    <tag k="highway" v="residential"/>
    <tag k="maxspeed" v="50"/>
    <tag k="name" v="East Avenue"/>
  </way>
  <way id="26231699" version="3" timestamp="2010-12-16T09:51:25Z" uid="18775" user="drlizau" changeset="6674919">
    <nd ref="243810661"/>
    <nd ref="287239045"/>
    <nd ref="195089500"/>
    <tag k="highway" v="residential"/>
    <tag k="maxspeed" v="50"/>
    <tag k="name" v="East Avenue"/>
    <tag k="source" v="survey"/>
  </way>
  <way id="26231731" version="1" timestamp="2008-08-12T10:16:12Z" uid="43863" user="Rundling" changeset="198414">
    <nd ref="287239277"/>
    <nd ref="253582339"/>
    <tag k="created_by" v="Potlatch 0.10b"/>
    <tag k="highway" v="residential"/>
    <tag k="name" v="Lüneburger Straße"/>
  </way>
  <way id="26231731" version="2" timestamp="2008-08-12T10:16:39Z" uid="43863" user="Rundling" changeset="198414">
    <nd ref="287239277"/>
    <nd ref="287239611"/>
    <nd ref="253582339"/>
    <tag k="created_by" v="Potlatch 0.10b"/>
    <tag k="highway" v="residential"/>
    <tag k="name" v="Lüneburger Straße"/>
  </way>
  <way id="26231731" version="3" timestamp="2008-08-12T10:17:16Z" uid="43863" user="Rundling" changeset="198414">
    <nd ref="287239277"/>
    <nd ref="287239628"/>
    <nd ref="287239611"/>
    <nd ref="253582339"/>
    <tag k="created_by" v="Potlatch 0.10b"/>
    <tag k="highway" v="residential"/>
    <tag k="name" v="Lüneburger Straße"/>
  </way>
  <way id="26231731" version="4" timestamp="2008-08-12T10:20:34Z" uid="43863" user="Rundling" changeset="198414">
    <nd ref="287239277"/>
    <nd ref="287240177"/>
    <nd ref="287239611"/>
    <nd ref="287240178"/>
    <nd ref="253582339"/>
    <tag k="created_by" v="Potlatch 0.10b"/>
    <tag k="highway" v="residential"/>
    <tag k="name" v="Lüneburger Straße"/>
  </way>
  <way id="26231731" version="5" timestamp="2008-08-12T10:31:22Z" uid="43863" user="Rundling" changeset="198414">
    <nd ref="287239277"/>
    <nd ref="287241563"/>
    <nd ref="287239611"/>
    <nd ref="287241582"/>
    <nd ref="253582339"/>
    <tag k="created_by" v="Potlatch 0.10b"/>
    <tag k="highway" v="residential"/>
    <tag k="name" v="Lüneburger Straße"/>
  </way>
  <way id="26231731" version="7" timestamp="2008-11-23T14:49:08Z" uid="43863" user="Rundling" changeset="785099">
    <nd ref="287239277"/>
    <nd ref="287241563"/>
    <nd ref="287239611"/>
    <nd ref="313928575"/>
    <nd ref="313928601"/>
    <nd ref="287240178"/>
    <nd ref="253582339"/>
    <tag k="created_by" v="Potlatch 0.10b"/>
    <tag k="highway" v="residential"/>
    <tag k="name" v="Lüneburger Straße"/>
  </way>
  <way id="26231731" version="8" timestamp="2008-11-23T14:52:30Z" uid="43863" user="Rundling" changeset="785099">
    <nd ref="287239277"/>
    <nd ref="287241563"/>
    <nd ref="287239611"/>
    <nd ref="313928575"/>
    <nd ref="313928601"/>
    <nd ref="287240178"/>
    <nd ref="313928900"/>
    <nd ref="253582339"/>
    <tag k="created_by" v="Potlatch 0.10b"/>
    <tag k="highway" v="residential"/>
    <tag k="name" v="Lüneburger Straße"/>
  </way>
  <way id="26231731" version="9" timestamp="2008-11-24T15:26:34Z" uid="43863" user="Rundling" changeset="789272">
    <nd ref="287239277"/>
    <nd ref="287241563"/>
    <nd ref="287239611"/>
    <nd ref="314334303"/>
    <nd ref="313928601"/>
    <nd ref="287240178"/>
    <nd ref="313928900"/>
    <nd ref="253582339"/>
    <tag k="created_by" v="Potlatch 0.10b"/>
    <tag k="highway" v="residential"/>
    <tag k="name" v="Lüneburger Straße"/>
  </way>
  <way id="26231731" version="10" timestamp="2008-11-25T08:43:15Z" uid="43863" user="Rundling" changeset="791325">
    <nd ref="287241563"/>
    <nd ref="287239611"/>
    <nd ref="314543051"/>
    <nd ref="314334303"/>
    <nd ref="313928601"/>
    <nd ref="287240178"/>
    <nd ref="313928900"/>
    <nd ref="253582339"/>
    <tag k="created_by" v="Potlatch 0.10b"/>
    <tag k="highway" v="residential"/>
    <tag k="name" v="Lüneburger Straße"/>
  </way>
  <way id="26231731" version="11" timestamp="2009-02-04T13:51:12Z" uid="43863" user="Rundling" changeset="121550">
    <nd ref="287241563"/>
    <nd ref="287239611"/>
    <nd ref="314543051"/>
    <nd ref="314334303"/>
    <nd ref="313928601"/>
    <nd ref="287240178"/>
    <nd ref="313928900"/>
    <nd ref="253582339"/>
    <tag k="created_by" v="Potlatch 0.10b"/>
    <tag k="highway" v="residential"/>
    <tag k="name" v="An der Zuckerfabrik"/>
  </way>
  <way id="26231731" version="12" timestamp="2009-03-15T08:25:18Z" uid="43863" user="Rundling" changeset="810966">
    <nd ref="287241563"/>
    <nd ref="287239611"/>
    <nd ref="314543051"/>
    <nd ref="313928601"/>
    <nd ref="287240178"/>
    <nd ref="313928900"/>
    <nd ref="253582339"/>
    <tag k="created_by" v="Potlatch 0.10b"/>
    <tag k="highway" v="residential"/>
    <tag k="name" v="An der Zuckerfabrik"/>
  </way>
  <way id="26231731" version="13" timestamp="2009-06-17T08:16:48Z" uid="43863" user="Rundling" changeset="1542827">
    <nd ref="287241563"/>
    <nd ref="287239611"/>
    <nd ref="314543051"/>
    <nd ref="313928601"/>
    <nd ref="287240178"/>
    <nd ref="313928900"/>
    <nd ref="253582339"/>
    <tag k="highway" v="residential"/>
    <tag k="name" v="An der Zuckerfabrik"/>
  </way>
  <way id="26231733" version="1" timestamp="2008-08-12T10:16:24Z" uid="19626" user="Swamp" changeset="208445">
    <nd ref="125421647"/>
    <nd ref="287239045"/>
    <tag k="highway" v="residential"/>
    <tag k="maxspeed" v="50km/h"/>
    <tag k="name" v="Stanbridge Street"/>
  </way>
  <way id="26231733" version="2" timestamp="2008-08-12T10:21:21Z" uid="19626" user="Swamp" changeset="208445">
    <nd ref="125421647"/>
    <nd ref="287240311"/>
    <nd ref="287239045"/>
    <tag k="highway" v="residential"/>
    <tag k="maxspeed" v="50km/h"/>
    <tag k="name" v="Stanbridge Street"/>
  </way>
  <way id="26231733" version="3" timestamp="2009-07-25T15:39:10Z" uid="74617" user="JohnSmith" changeset="1935488">
    <nd ref="125421647"/>
    <nd ref="287240311"/>
    <nd ref="287239045"/>
    <tag k="highway" v="residential"/>
    <tag k="maxspeed" v="50"/>
    <tag k="name" v="Stanbridge Street"/>
  </way>
  <way id="26231733" version="4" timestamp="2010-12-16T09:51:27Z" uid="18775" user="drlizau" changeset="6674919">
    <nd ref="125421647"/>
    <nd ref="287240311"/>
    <nd ref="287239045"/>
    <tag k="highway" v="residential"/>
    <tag k="maxspeed" v="50"/>
    <tag k="name" v="Stanbridge Street"/>
    <tag k="source" v="survey"/>
  </way>
  <way id="26231734" version="1" timestamp="2008-08-12T10:16:25Z" uid="19626" user="Swamp" changeset="208445">
    <nd ref="287239327"/>
    <nd ref="287239336"/>
    <nd ref="287239344"/>
    <nd ref="287239382"/>
    <nd ref="287239390"/>
    <nd ref="287239398"/>
    <nd ref="287239416"/>
    <nd ref="287239482"/>
    <tag k="highway" v="residential"/>
    <tag k="maxspeed" v="50km/h"/>
    <tag k="name" v="Fire Station Lane"/>
    <tag k="surface" v="unpaved"/>
  </way>
  <way id="26231734" version="2" timestamp="2009-07-25T15:39:11Z" uid="74617" user="JohnSmith" changeset="1935488">
    <nd ref="287239327"/>
    <nd ref="287239336"/>
    <nd ref="287239344"/>
    <nd ref="287239382"/>
    <nd ref="287239390"/>
    <nd ref="287239398"/>
    <nd ref="287239416"/>
    <nd ref="287239482"/>
    <tag k="highway" v="residential"/>
    <tag k="maxspeed" v="50"/>
    <tag k="name" v="Fire Station Lane"/>
    <tag k="surface" v="unpaved"/>
  </way>
  <way id="26231734" version="3" timestamp="2010-12-16T09:51:23Z" uid="18775" user="drlizau" changeset="6674919">
    <nd ref="287239327"/>
    <nd ref="287239336"/>
    <nd ref="287239344"/>
    <nd ref="287239382"/>
    <nd ref="287239390"/>
    <nd ref="287239398"/>
    <nd ref="287239416"/>
    <nd ref="287239482"/>
    <tag k="highway" v="residential"/>
    <tag k="maxspeed" v="50"/>
    <tag k="name" v="Fire Station Lane"/>
    <tag k="source" v="survey"/>
    <tag k="surface" v="unpaved"/>
  </way>
  <way id="26231735" version="1" timestamp="2008-08-12T10:16:26Z" uid="19626" user="Swamp" changeset="208445">
    <nd ref="287239482"/>
    <nd ref="287239508"/>
    <nd ref="287239045"/>
    <tag k="highway" v="residential"/>
    <tag k="maxspeed" v="50km/h"/>
    <tag k="name" v="Fire Station Lane"/>
    <tag k="surface" v="paved"/>
  </way>
  <way id="26231735" version="2" timestamp="2009-07-25T15:39:10Z" uid="74617" user="JohnSmith" changeset="1935488">
    <nd ref="287239482"/>
    <nd ref="287239508"/>
    <nd ref="287239045"/>
    <tag k="highway" v="residential"/>
    <tag k="maxspeed" v="50"/>
    <tag k="name" v="Fire Station Lane"/>
    <tag k="surface" v="paved"/>
  </way>
  <way id="26231735" version="3" timestamp="2010-12-16T09:51:28Z" uid="18775" user="drlizau" changeset="6674919">
    <nd ref="287239482"/>
    <nd ref="287239508"/>
    <nd ref="287239045"/>
    <tag k="highway" v="residential"/>
    <tag k="maxspeed" v="50"/>
    <tag k="name" v="Fire Station Lane"/>
    <tag k="source" v="survey"/>
    <tag k="surface" v="paved"/>
  </way>
  <way id="26231737" version="2" timestamp="2011-05-12T08:57:05Z" uid="4467" user="Rosscoe" changeset="8119856">
    <nd ref="158825856"/>
    <nd ref="158825669"/>
    <nd ref="158825661"/>
    <nd ref="158825663"/>
    <nd ref="158825655"/>
    <nd ref="158825656"/>
    <nd ref="158825795"/>
    <nd ref="158825792"/>
    <nd ref="158825789"/>
    <nd ref="158825786"/>
    <nd ref="158825784"/>
    <nd ref="158825781"/>
    <nd ref="158825778"/>
    <nd ref="158825776"/>
    <nd ref="158825772"/>
    <nd ref="158825769"/>
    <nd ref="158825767"/>
    <nd ref="158825764"/>
    <nd ref="158825761"/>
    <nd ref="158825757"/>
    <nd ref="158825754"/>
    <nd ref="158825752"/>
    <nd ref="158826006"/>
    <nd ref="158826008"/>
    <nd ref="158826010"/>
    <nd ref="158826011"/>
    <nd ref="158826012"/>
    <nd ref="158826013"/>
    <nd ref="158826015"/>
    <nd ref="158826018"/>
    <nd ref="158825989"/>
    <nd ref="158825991"/>
    <nd ref="158825993"/>
    <nd ref="158825995"/>
    <nd ref="158825998"/>
    <nd ref="158826000"/>
    <nd ref="158826003"/>
    <nd ref="158826005"/>
    <nd ref="158826031"/>
    <nd ref="158826030"/>
    <nd ref="158826035"/>
    <nd ref="158826033"/>
    <nd ref="158825987"/>
    <tag k="natural" v="coastline"/>
    <tag k="source" v="PGS"/>
  </way>
  <way id="26231749" version="1" timestamp="2008-08-12T10:17:16Z" uid="43863" user="Rundling" changeset="198414">
    <nd ref="287239625"/>
    <nd ref="287239626"/>
    <nd ref="287239627"/>
    <nd ref="287239628"/>
    <tag k="created_by" v="Potlatch 0.10b"/>
    <tag k="highway" v="service"/>
  </way>
  <way id="26231749" version="2" timestamp="2008-08-12T10:30:30Z" uid="43863" user="Rundling" changeset="198414">
    <nd ref="287239625"/>
    <nd ref="287241560"/>
    <nd ref="287239627"/>
    <nd ref="287241561"/>
    <tag k="created_by" v="Potlatch 0.10b"/>
    <tag k="highway" v="service"/>
  </way>
  <way id="26231749" version="3" timestamp="2008-08-12T10:30:37Z" uid="43863" user="Rundling" changeset="198414">
    <nd ref="287239611"/>
    <nd ref="287241560"/>
    <nd ref="287239627"/>
    <nd ref="287241563"/>
    <tag k="created_by" v="Potlatch 0.10b"/>
    <tag k="highway" v="service"/>
  </way>
  <way id="26231749" version="4" timestamp="2008-08-12T10:30:49Z" uid="43863" user="Rundling" changeset="198414">
    <nd ref="287239611"/>
    <nd ref="287241569"/>
    <nd ref="287241560"/>
    <nd ref="287239627"/>
    <nd ref="287241563"/>
    <tag k="created_by" v="Potlatch 0.10b"/>
    <tag k="highway" v="service"/>
  </way>
  <way id="26231749" version="6" timestamp="2009-06-17T08:16:47Z" uid="43863" user="Rundling" changeset="1542827">
    <nd ref="287239611"/>
    <nd ref="287241569"/>
    <nd ref="287241560"/>
    <nd ref="287239627"/>
    <nd ref="287241568"/>
    <nd ref="287241563"/>
    <tag k="highway" v="service"/>
  </way>
  <way id="26231757" version="1" timestamp="2008-08-12T10:17:56Z" uid="43863" user="Rundling" changeset="198414">
    <nd ref="287239714"/>
    <nd ref="287239715"/>
    <nd ref="287239716"/>
    <tag k="created_by" v="Potlatch 0.10b"/>
    <tag k="highway" v="residential"/>
    <tag k="name" v="Stiftstraße"/>
  </way>
  <way id="26231757" version="2" timestamp="2008-08-12T10:20:34Z" uid="43863" user="Rundling" changeset="198414">
    <nd ref="287239714"/>
    <nd ref="287240175"/>
    <nd ref="287240176"/>
    <nd ref="287239716"/>
    <tag k="created_by" v="Potlatch 0.10b"/>
    <tag k="highway" v="residential"/>
    <tag k="name" v="Stiftstraße"/>
  </way>
  <way id="26231757" version="4" timestamp="2009-01-27T17:32:24Z" uid="43863" user="Rundling" changeset="845097">
    <nd ref="287239714"/>
    <nd ref="287240175"/>
    <nd ref="287239716"/>
    <tag k="created_by" v="Potlatch 0.10b"/>
    <tag k="highway" v="residential"/>
    <tag k="name" v="Stiftstraße"/>
  </way>
  <way id="26231757" version="5" timestamp="2009-06-17T08:16:47Z" uid="43863" user="Rundling" changeset="1542827">
    <nd ref="287239714"/>
    <nd ref="287240175"/>
    <nd ref="287239716"/>
    <tag k="highway" v="residential"/>
    <tag k="name" v="Stiftstraße"/>
  </way>
  <way id="26231846" version="1" timestamp="2008-08-12T10:21:16Z" uid="19626" user="Swamp" changeset="208445">
    <nd ref="287240304"/>
    <nd ref="287240309"/>
    <nd ref="287240310"/>
    <nd ref="287240311"/>
    <tag k="highway" v="residential"/>
    <tag k="maxspeed" v="50km/h"/>
    <tag k="name" v="Stanbridge Lane"/>
    <tag k="surface" v="unpaved"/>
  </way>
  <way id="26231846" version="2" timestamp="2009-07-25T15:39:10Z" uid="74617" user="JohnSmith" changeset="1935488">
    <nd ref="287240304"/>
    <nd ref="287240309"/>
    <nd ref="287240310"/>
    <nd ref="287240311"/>
    <tag k="highway" v="residential"/>
    <tag k="maxspeed" v="50"/>
    <tag k="name" v="Stanbridge Lane"/>
    <tag k="surface" v="unpaved"/>
  </way>
  <way id="26231846" version="3" timestamp="2010-12-16T09:51:22Z" uid="18775" user="drlizau" changeset="6674919">
    <nd ref="287240304"/>
    <nd ref="287240309"/>
    <nd ref="287240310"/>
    <nd ref="287240311"/>
    <tag k="highway" v="residential"/>
    <tag k="maxspeed" v="50"/>
    <tag k="name" v="Stanbridge Lane"/>
    <tag k="source" v="survey"/>
    <tag k="surface" v="unpaved"/>
  </way>
  <way id="26231848" version="1" timestamp="2008-08-12T10:21:17Z" uid="19626" user="Swamp" changeset="208445">
    <nd ref="287240312"/>
    <nd ref="287240313"/>
    <nd ref="287240314"/>
    <nd ref="287240315"/>
    <tag k="highway" v="residential"/>
    <tag k="maxspeed" v="50km/h"/>
    <tag k="name" v="North Lane"/>
    <tag k="surface" v="unpaved"/>
  </way>
  <way id="26231848" version="2" timestamp="2009-07-25T15:39:10Z" uid="74617" user="JohnSmith" changeset="1935488">
    <nd ref="287240312"/>
    <nd ref="287240313"/>
    <nd ref="287240314"/>
    <nd ref="287240315"/>
    <tag k="highway" v="residential"/>
    <tag k="maxspeed" v="50"/>
    <tag k="name" v="North Lane"/>
    <tag k="surface" v="unpaved"/>
  </way>
  <way id="26231848" version="3" timestamp="2010-12-16T09:51:29Z" uid="18775" user="drlizau" changeset="6674919">
    <nd ref="287240312"/>
    <nd ref="287240313"/>
    <nd ref="287240314"/>
    <nd ref="287240315"/>
    <tag k="highway" v="residential"/>
    <tag k="maxspeed" v="50"/>
    <tag k="name" v="North Lane"/>
    <tag k="source" v="survey"/>
    <tag k="surface" v="unpaved"/>
  </way>
  <way id="26231851" version="1" timestamp="2008-08-12T10:21:18Z" uid="19626" user="Swamp" changeset="208445">
    <nd ref="287240321"/>
    <nd ref="287240322"/>
    <nd ref="287240323"/>
    <nd ref="287240326"/>
    <tag k="highway" v="residential"/>
    <tag k="maxspeed" v="50km/h"/>
    <tag k="name" v="South Lane"/>
    <tag k="surface" v="unpaved"/>
  </way>
  <way id="26231851" version="2" timestamp="2009-07-25T15:39:10Z" uid="74617" user="JohnSmith" changeset="1935488">
    <nd ref="287240321"/>
    <nd ref="287240322"/>
    <nd ref="287240323"/>
    <nd ref="287240326"/>
    <tag k="highway" v="residential"/>
    <tag k="maxspeed" v="50"/>
    <tag k="name" v="South Lane"/>
    <tag k="surface" v="unpaved"/>
  </way>
  <way id="26231851" version="3" timestamp="2010-12-16T09:51:24Z" uid="18775" user="drlizau" changeset="6674919">
    <nd ref="287240321"/>
    <nd ref="287240322"/>
    <nd ref="287240323"/>
    <nd ref="287240326"/>
    <tag k="highway" v="residential"/>
    <tag k="maxspeed" v="50"/>
    <tag k="name" v="South Lane"/>
    <tag k="source" v="survey"/>
    <tag k="surface" v="unpaved"/>
  </way>
  <way id="26231852" version="1" timestamp="2008-08-12T10:21:33Z" uid="43863" user="Rundling" changeset="198414">
    <nd ref="287240333"/>
    <nd ref="287240334"/>
    <nd ref="287240335"/>
    <tag k="created_by" v="Potlatch 0.10b"/>
    <tag k="highway" v="residential"/>
    <tag k="name" v="Friedrichstraße"/>
  </way>
  <way id="26231852" version="3" timestamp="2008-11-23T15:23:43Z" uid="43863" user="Rundling" changeset="785099">
    <nd ref="313935816"/>
    <nd ref="287240334"/>
    <nd ref="313935818"/>
    <tag k="created_by" v="Potlatch 0.10b"/>
    <tag k="highway" v="residential"/>
    <tag k="name" v="Friedrichstraße"/>
  </way>
  <way id="26231852" version="4" timestamp="2008-12-18T19:24:42Z" uid="43863" user="Rundling" changeset="458488">
    <nd ref="319797982"/>
    <nd ref="287240334"/>
    <nd ref="319797987"/>
    <tag k="created_by" v="Potlatch 0.10b"/>
    <tag k="highway" v="residential"/>
    <tag k="name" v="Friedrichstraße"/>
  </way>
  <way id="26231852" version="5" timestamp="2008-12-23T19:05:41Z" uid="43863" user="Rundling" changeset="574593">
    <nd ref="319797982"/>
    <nd ref="321326122"/>
    <nd ref="287240334"/>
    <nd ref="319797987"/>
    <tag k="created_by" v="Potlatch 0.10b"/>
    <tag k="highway" v="residential"/>
    <tag k="name" v="Friedrichstraße"/>
  </way>
  <way id="26231852" version="6" timestamp="2009-03-15T17:48:07Z" uid="43863" user="Rundling" changeset="813013">
    <nd ref="319797982"/>
    <nd ref="321326122"/>
    <nd ref="319797987"/>
    <tag k="created_by" v="Potlatch 0.10b"/>
    <tag k="highway" v="residential"/>
    <tag k="name" v="Friedrichstraße"/>
  </way>
  <way id="26231852" version="7" timestamp="2009-06-17T08:16:47Z" uid="43863" user="Rundling" changeset="1542827">
    <nd ref="319797982"/>
    <nd ref="321326122"/>
    <nd ref="319797987"/>
    <tag k="highway" v="residential"/>
    <tag k="name" v="Friedrichstraße"/>
  </way>
  <way id="26231865" version="1" timestamp="2008-08-12T10:22:00Z" uid="43863" user="Rundling" changeset="198414">
    <nd ref="287240551"/>
    <nd ref="277556262"/>
    <nd ref="287240552"/>
    <nd ref="287240553"/>
    <tag k="created_by" v="Potlatch 0.10b"/>
    <tag k="highway" v="residential"/>
    <tag k="name" v="Rudolfstraße"/>
  </way>
  <way id="26231865" version="2" timestamp="2008-12-23T19:05:42Z" uid="43863" user="Rundling" changeset="574593">
    <nd ref="321326122"/>
    <nd ref="277556262"/>
    <nd ref="287240552"/>
    <nd ref="287240553"/>
    <tag k="created_by" v="Potlatch 0.10b"/>
    <tag k="highway" v="residential"/>
    <tag k="name" v="Rudolfstraße"/>
  </way>
  <way id="26231865" version="3" timestamp="2009-10-12T16:18:15Z" uid="43863" user="Rundling" changeset="2827737">
    <nd ref="321326122"/>
    <nd ref="277556262"/>
    <nd ref="287240552"/>
    <nd ref="287240553"/>
    <tag k="highway" v="residential"/>
    <tag k="name" v="Rudolfstraße"/>
  </way>
  <way id="26231865" version="4" timestamp="2011-03-03T15:29:06Z" uid="43863" user="Rundling" changeset="7446630">
    <nd ref="321326122"/>
    <nd ref="1184496683"/>
    <nd ref="277556262"/>
    <nd ref="287240552"/>
    <nd ref="287240553"/>
    <tag k="highway" v="residential"/>
    <tag k="name" v="Rudolfstraße"/>
  </way>
  <way id="26231891" version="1" timestamp="2008-08-12T10:22:24Z" uid="43863" user="Rundling" changeset="198414">
    <nd ref="287240045"/>
    <nd ref="277528001"/>
    <nd ref="287239957"/>
    <nd ref="287239611"/>
    <tag k="created_by" v="Potlatch 0.10b"/>
    <tag k="highway" v="residential"/>
    <tag k="name" v="Heinrichstraße"/>
  </way>
  <way id="26231891" version="2" timestamp="2008-08-27T10:06:20Z" uid="43863" user="Rundling" changeset="426746">
    <nd ref="287240045"/>
    <nd ref="277528001"/>
    <nd ref="291551809"/>
    <nd ref="287239957"/>
    <nd ref="287239611"/>
    <tag k="created_by" v="Potlatch 0.10b"/>
    <tag k="highway" v="residential"/>
    <tag k="name" v="Heinrichstraße"/>
  </way>
  <way id="26231891" version="4" timestamp="2009-03-15T08:25:17Z" uid="43863" user="Rundling" changeset="810966">
    <nd ref="287240045"/>
    <nd ref="287239957"/>
    <nd ref="287239714"/>
    <nd ref="287239611"/>
    <tag k="created_by" v="Potlatch 0.10b"/>
    <tag k="highway" v="residential"/>
    <tag k="name" v="Heinrichstraße"/>
  </way>
  <way id="26231891" version="5" timestamp="2009-06-17T08:16:48Z" uid="43863" user="Rundling" changeset="1542827">
    <nd ref="287240045"/>
    <nd ref="287239957"/>
    <nd ref="287239714"/>
    <nd ref="287239611"/>
    <tag k="highway" v="residential"/>
    <tag k="name" v="Heinrichstraße"/>
  </way>
  <way id="26231903" version="1" timestamp="2008-08-12T10:23:19Z" uid="19626" user="Swamp" changeset="208445">
    <nd ref="287240737"/>
    <nd ref="287240738"/>
    <nd ref="287240739"/>
    <nd ref="287240740"/>
    <nd ref="287240737"/>
    <tag k="name" v="Yenda Tennis court"/>
    <tag k="sport" v="tennis"/>
  </way>
  <way id="26231903" version="2" timestamp="2010-12-16T09:51:28Z" uid="18775" user="drlizau" changeset="6674919">
    <nd ref="287240737"/>
    <nd ref="287240738"/>
    <nd ref="287240739"/>
    <nd ref="287240740"/>
    <nd ref="287240737"/>
    <tag k="name" v="Yenda Tennis court"/>
    <tag k="source" v="survey"/>
    <tag k="sport" v="tennis"/>
  </way>
  <way id="26231910" version="1" timestamp="2008-08-12T10:24:03Z" uid="43863" user="Rundling" changeset="198414">
    <nd ref="287240845"/>
    <nd ref="287240846"/>
    <tag k="created_by" v="Potlatch 0.10b"/>
  </way>
  <way id="26231910" version="2" timestamp="2008-08-12T10:24:26Z" uid="43863" user="Rundling" changeset="198414">
    <nd ref="287240874"/>
    <nd ref="287240875"/>
    <tag k="created_by" v="Potlatch 0.10b"/>
    <tag k="highway" v="residential"/>
    <tag k="name" v="Baumschulenweg"/>
  </way>
  <way id="26231910" version="4" timestamp="2008-12-23T22:06:33Z" uid="43863" user="Rundling" changeset="574593">
    <nd ref="321367431"/>
    <nd ref="287240875"/>
    <tag k="created_by" v="Potlatch 0.10b"/>
    <tag k="highway" v="residential"/>
    <tag k="name" v="Baumschulenweg"/>
  </way>
  <way id="26231910" version="5" timestamp="2009-06-13T04:19:31Z" uid="43863" user="Rundling" changeset="1501307">
    <nd ref="321367431"/>
    <nd ref="287240875"/>
    <tag k="highway" v="residential"/>
    <tag k="name" v="Baumschulenweg"/>
  </way>
  <way id="26231919" version="1" timestamp="2008-08-12T10:25:00Z" uid="43863" user="Rundling" changeset="198414">
    <nd ref="287240971"/>
    <nd ref="287240972"/>
    <nd ref="287240973"/>
    <nd ref="287240974"/>
    <tag k="created_by" v="Potlatch 0.10b"/>
    <tag k="highway" v="residential"/>
    <tag k="name" v="Robert-Koch-Straße"/>
  </way>
  <way id="26231919" version="2" timestamp="2008-08-12T10:25:08Z" uid="43863" user="Rundling" changeset="198414">
    <nd ref="287240971"/>
    <nd ref="287240977"/>
    <nd ref="287240978"/>
    <nd ref="287240973"/>
    <nd ref="287240979"/>
    <tag k="created_by" v="Potlatch 0.10b"/>
    <tag k="highway" v="residential"/>
    <tag k="name" v="Robert-Koch-Straße"/>
  </way>
  <way id="26231919" version="3" timestamp="2008-08-12T10:30:09Z" uid="43863" user="Rundling" changeset="198414">
    <nd ref="287241536"/>
    <nd ref="287240977"/>
    <nd ref="287241537"/>
    <nd ref="287240973"/>
    <nd ref="287240979"/>
    <tag k="created_by" v="Potlatch 0.10b"/>
    <tag k="highway" v="residential"/>
    <tag k="name" v="Robert-Koch-Straße"/>
  </way>
  <way id="26231919" version="4" timestamp="2009-06-03T07:52:10Z" uid="43863" user="Rundling" changeset="1410846">
    <nd ref="287241536"/>
    <nd ref="287240977"/>
    <nd ref="287240973"/>
    <nd ref="287240979"/>
    <tag k="created_by" v="Potlatch 0.10b"/>
    <tag k="highway" v="residential"/>
    <tag k="name" v="Robert-Koch-Straße"/>
  </way>
  <way id="26231919" version="5" timestamp="2009-06-13T04:19:31Z" uid="43863" user="Rundling" changeset="1501307">
    <nd ref="287241536"/>
    <nd ref="287240977"/>
    <nd ref="287240973"/>
    <nd ref="287240979"/>
    <tag k="highway" v="residential"/>
    <tag k="name" v="Robert-Koch-Straße"/>
  </way>
  <way id="26231919" version="6" timestamp="2009-07-12T11:02:35Z" uid="43863" user="Rundling" changeset="1805769">
    <nd ref="287241536"/>
    <nd ref="287240977"/>
    <nd ref="440673411"/>
    <nd ref="287240973"/>
    <nd ref="287240979"/>
    <nd ref="440673402"/>
    <tag k="highway" v="residential"/>
    <tag k="name" v="Robert-Koch-Straße"/>
  </way>
  <way id="26231919" version="7" timestamp="2011-02-11T20:30:08Z" uid="43863" user="Rundling" changeset="7258826">
    <nd ref="287241536"/>
    <nd ref="1147947012"/>
    <nd ref="287240977"/>
    <nd ref="440673411"/>
    <nd ref="287240973"/>
    <nd ref="287240979"/>
    <nd ref="440673402"/>
    <tag k="highway" v="residential"/>
    <tag k="name" v="Robert-Koch-Straße"/>
  </way>
  <way id="26231920" version="1" timestamp="2008-08-12T10:25:08Z" uid="43863" user="Rundling" changeset="198414">
    <nd ref="287240976"/>
    <nd ref="287240977"/>
    <tag k="created_by" v="Potlatch 0.10b"/>
    <tag k="highway" v="residential"/>
  </way>
  <way id="26231920" version="2" timestamp="2009-06-03T07:52:09Z" uid="43863" user="Rundling" changeset="1410846">
    <nd ref="287240976"/>
    <nd ref="287240977"/>
    <tag k="highway" v="residential"/>
    <tag k="name" v="Rudolf-Virchow-Straße"/>
  </way>
  <way id="26231946" version="1" timestamp="2008-08-12T10:26:22Z" uid="43863" user="Rundling" changeset="198414">
    <nd ref="287241144"/>
    <nd ref="287241145"/>
    <tag k="created_by" v="Potlatch 0.10b"/>
    <tag k="highway" v="residential"/>
    <tag k="name" v="Kaiserstraße"/>
  </way>
  <way id="26231946" version="2" timestamp="2008-08-12T10:26:31Z" uid="43863" user="Rundling" changeset="198414">
    <nd ref="287241147"/>
    <nd ref="287241148"/>
    <tag k="created_by" v="Potlatch 0.10b"/>
    <tag k="highway" v="residential"/>
    <tag k="name" v="Kaiserstraße"/>
  </way>
  <way id="26231946" version="3" timestamp="2008-11-23T15:23:47Z" uid="43863" user="Rundling" changeset="785099">
    <nd ref="287241147"/>
    <nd ref="287241148"/>
    <nd ref="313935814"/>
    <tag k="created_by" v="Potlatch 0.10b"/>
    <tag k="highway" v="residential"/>
    <tag k="name" v="Kaiserstraße"/>
  </way>
  <way id="26231946" version="4" timestamp="2008-12-18T22:27:46Z" uid="43863" user="Rundling" changeset="463571">
    <nd ref="287241147"/>
    <nd ref="287241148"/>
    <nd ref="313935815"/>
    <tag k="created_by" v="Potlatch 0.10b"/>
    <tag k="highway" v="residential"/>
    <tag k="name" v="Kaiserstraße"/>
  </way>
  <way id="26231946" version="5" timestamp="2008-12-22T11:31:33Z" uid="43863" user="Rundling" changeset="540169">
    <nd ref="320872376"/>
    <nd ref="287241147"/>
    <nd ref="287241148"/>
    <nd ref="313935815"/>
    <tag k="created_by" v="Potlatch 0.10b"/>
    <tag k="highway" v="residential"/>
    <tag k="name" v="Kaiserstraße"/>
  </way>
  <way id="26231946" version="6" timestamp="2009-10-02T13:49:04Z" uid="43863" user="Rundling" changeset="2712846">
    <nd ref="320872376"/>
    <nd ref="287241147"/>
    <nd ref="287241148"/>
    <nd ref="313935815"/>
    <tag k="highway" v="residential"/>
    <tag k="name" v="Kaiserstraße"/>
  </way>
  <way id="26231959" version="1" timestamp="2008-08-12T10:27:35Z" uid="43863" user="Rundling" changeset="198414">
    <nd ref="287241191"/>
    <nd ref="287241192"/>
    <nd ref="197807889"/>
    <tag k="created_by" v="Potlatch 0.10b"/>
    <tag k="highway" v="residential"/>
    <tag k="name" v="Alte Wiesenstraße"/>
    <tag k="oneway" v="yes"/>
  </way>
  <way id="26231959" version="3" timestamp="2008-12-18T22:27:44Z" uid="43863" user="Rundling" changeset="463571">
    <nd ref="303346419"/>
    <nd ref="287241192"/>
    <nd ref="319837093"/>
    <tag k="created_by" v="Potlatch 0.10b"/>
    <tag k="highway" v="residential"/>
    <tag k="name" v="Alte Wiesenstraße"/>
    <tag k="oneway" v="yes"/>
  </way>
  <way id="26231959" version="4" timestamp="2009-10-02T13:49:04Z" uid="43863" user="Rundling" changeset="2712846">
    <nd ref="303346419"/>
    <nd ref="287241192"/>
    <nd ref="319837093"/>
    <tag k="highway" v="residential"/>
    <tag k="name" v="Alte Wiesenstraße"/>
    <tag k="oneway" v="yes"/>
  </way>
  <way id="26231969" version="1" timestamp="2008-08-12T10:28:57Z" uid="43863" user="Rundling" changeset="198414">
    <nd ref="287241368"/>
    <nd ref="287241369"/>
    <tag k="created_by" v="Potlatch 0.10b"/>
    <tag k="highway" v="residential"/>
    <tag k="name" v="Brettstraße"/>
  </way>
  <way id="26231969" version="3" timestamp="2009-11-01T19:03:45Z" uid="43863" user="Rundling" changeset="3009885">
    <nd ref="287241368"/>
    <nd ref="287241369"/>
    <tag k="highway" v="residential"/>
    <tag k="name" v="Brettstraße"/>
  </way>
  <way id="26231989" version="1" timestamp="2008-08-12T10:30:49Z" uid="43863" user="Rundling" changeset="198414">
    <nd ref="287241568"/>
    <nd ref="287241569"/>
    <tag k="created_by" v="Potlatch 0.10b"/>
  </way>
  <way id="26231989" version="2" timestamp="2008-08-12T10:30:55Z" uid="43863" user="Rundling" changeset="198414">
    <nd ref="287241568"/>
    <nd ref="287241570"/>
    <tag k="created_by" v="Potlatch 0.10b"/>
    <tag k="highway" v="service"/>
  </way>
  <way id="26231989" version="5" timestamp="2008-11-14T09:13:44Z" uid="43863" user="Rundling" changeset="745757">
    <nd ref="287241568"/>
    <nd ref="287239629"/>
    <nd ref="287241569"/>
    <tag k="created_by" v="Potlatch 0.10b"/>
    <tag k="highway" v="service"/>
  </way>
  <way id="26231989" version="6" timestamp="2009-06-17T08:16:47Z" uid="43863" user="Rundling" changeset="1542827">
    <nd ref="287241568"/>
    <nd ref="287239629"/>
    <nd ref="287241569"/>
    <tag k="highway" v="service"/>
  </way>
</osm>
