<?xml version='1.0' encoding='UTF-8'?>
<osm version="0.6" generator="libosmium/2.20.0">
  <way id="26498030" version="2" timestamp="2008-11-26T18:17:21Z" uid="6975" user="ulfl" changeset="797054">
    <nd ref="290424185"/>
    <nd ref="256097784"/>
    <nd ref="256097785"/>
    <nd ref="256097786"/>
    <nd ref="256097787"/>
    <nd ref="256097789"/>
    <tag k="highway" v="service"/>
    <tag k="lcn" v="yes"/>
    <tag k="maxspeed" v="20"/>
    <tag k="name" v="Seilerweg"/>
    <tag k="source" v="gps"/>
    <tag k="surface" v="asphalt"/>
  </way>
  <way id="26498032" version="2" timestamp="2010-03-27T23:59:34Z" uid="20587" user="balrog-kun" changeset="4250871">
    <nd ref="290424188"/>
    <nd ref="290424187"/>
    <tag k="bridge" v="yes"/>
    <tag k="highway" v="tertiary"/>
    <tag k="layer" v="2"/>
    <tag k="name" v="Reyes Adobe Road"/>
    <tag k="tiger:cfcc" v="A41"/>
    <tag k="tiger:county" v="Los Angeles, CA"/>
    <tag k="tiger:name_base" v="Reyes Adobe"/>
    <tag k="tiger:name_type" v="Rd"/>
    <tag k="tiger:separated" v="no"/>
    <tag k="tiger:source" v="tiger_import_dch_v0.6_20070809"/>
    <tag k="tiger:tlid" v="141721250:141770964:141721257:142041001:142041004:142041007:142041008:141721672:141721677:141721680:141721683:142047581:142047582:142044803:142668018:141721290"/>
    <tag k="tiger:zip_left" v="91301"/>
    <tag k="tiger:zip_right" v="91301"/>
  </way>
  <way id="26498033" version="2" timestamp="2010-03-27T23:59:35Z" uid="20587" user="balrog-kun" changeset="4250871">
    <nd ref="290424187"/>
    <nd ref="122491651"/>
    <nd ref="123085357"/>
    <nd ref="122604762"/>
    <tag k="highway" v="tertiary"/>
    <tag k="name" v="Reyes Adobe Road"/>
    <tag k="tiger:cfcc" v="A41"/>
    <tag k="tiger:county" v="Los Angeles, CA"/>
    <tag k="tiger:name_base" v="Reyes Adobe"/>
    <tag k="tiger:name_type" v="Rd"/>
    <tag k="tiger:reviewed" v="no"/>
    <tag k="tiger:separated" v="no"/>
    <tag k="tiger:source" v="tiger_import_dch_v0.6_20070809"/>
    <tag k="tiger:tlid" v="141721250:141770964:141721257:142041001:142041004:142041007:142041008:141721672:141721677:141721680:141721683:142047581:142047582:142044803:142668018:141721290"/>
    <tag k="tiger:zip_left" v="91301"/>
    <tag k="tiger:zip_right" v="91301"/>
  </way>
  <way id="26498035" version="4" timestamp="2008-11-26T18:17:10Z" uid="6975" user="ulfl" changeset="797054">
    <nd ref="290424197"/>
    <nd ref="290424185"/>
    <tag k="bridge" v="yes"/>
    <tag k="highway" v="service"/>
    <tag k="layer" v="1"/>
    <tag k="lcn" v="yes"/>
    <tag k="maxspeed" v="20"/>
    <tag k="name" v="Seilerbrücke"/>
    <tag k="source" v="gps"/>
    <tag k="surface" v="asphalt"/>
  </way>
  <way id="26498161" version="2" timestamp="2010-04-26T07:44:53Z" uid="43967" user="railsnail" changeset="4529179">
    <nd ref="290425309"/>
    <nd ref="290425313"/>
    <nd ref="290425317"/>
    <nd ref="290425320"/>
    <nd ref="290425322"/>
    <nd ref="290425324"/>
    <tag k="highway" v="residential"/>
  </way>
  <way id="26498161" version="3" timestamp="2010-04-26T07:45:02Z" uid="43967" user="railsnail" changeset="4529179">
    <nd ref="290425309"/>
    <nd ref="290425313"/>
    <nd ref="290425317"/>
    <nd ref="290425320"/>
    <nd ref="290425322"/>
    <nd ref="290425324"/>
    <tag k="highway" v="unclassified"/>
    <tag k="name" v="Bahnhofstraße / Via Stazione"/>
    <tag k="name:de" v="Bahnhofstraße"/>
    <tag k="name:it" v="Via Stazione"/>
  </way>
  <way id="26498161" version="4" timestamp="2010-04-26T07:45:33Z" uid="43967" user="railsnail" changeset="4529179">
    <nd ref="290425309"/>
    <nd ref="290425313"/>
    <nd ref="290425317"/>
    <nd ref="706987561"/>
    <nd ref="290425320"/>
    <nd ref="290425322"/>
    <nd ref="290425324"/>
    <tag k="highway" v="unclassified"/>
    <tag k="name" v="Bahnhofstraße / Via Stazione"/>
    <tag k="name:de" v="Bahnhofstraße"/>
    <tag k="name:it" v="Via Stazione"/>
  </way>
  <way id="26498161" version="5" timestamp="2010-04-26T07:45:41Z" uid="43967" user="railsnail" changeset="4529179">
    <nd ref="290425309"/>
    <nd ref="290425313"/>
    <nd ref="290425317"/>
    <nd ref="706987561"/>
    <nd ref="290425320"/>
    <nd ref="290425322"/>
    <nd ref="290425324"/>
    <tag k="highway" v="residential"/>
    <tag k="name" v="Bahnhofstraße / Via Stazione"/>
    <tag k="name:de" v="Bahnhofstraße"/>
    <tag k="name:it" v="Via Stazione"/>
  </way>
  <way id="26498161" version="6" timestamp="2010-04-26T07:46:23Z" uid="43967" user="railsnail" changeset="4529179">
    <nd ref="290425309"/>
    <nd ref="290425313"/>
    <nd ref="290425317"/>
    <nd ref="706987561"/>
    <nd ref="290425320"/>
    <nd ref="290425322"/>
    <nd ref="706988855"/>
    <nd ref="290425324"/>
    <tag k="highway" v="residential"/>
    <tag k="name" v="Bahnhofstraße / Via Stazione"/>
    <tag k="name:de" v="Bahnhofstraße"/>
    <tag k="name:it" v="Via Stazione"/>
  </way>
  <way id="26498161" version="7" timestamp="2010-04-26T08:45:51Z" uid="43967" user="railsnail" changeset="4529563">
    <nd ref="290425309"/>
    <nd ref="290425313"/>
    <nd ref="290425317"/>
    <nd ref="706987561"/>
    <nd ref="290425320"/>
    <nd ref="290425322"/>
    <nd ref="290425324"/>
    <tag k="highway" v="residential"/>
    <tag k="name" v="Bahnhofstraße / Via Stazione"/>
    <tag k="name:de" v="Bahnhofstraße"/>
    <tag k="name:it" v="Via Stazione"/>
  </way>
  <way id="26498161" version="8" timestamp="2010-04-26T08:45:58Z" uid="43967" user="railsnail" changeset="4529563">
    <nd ref="290425309"/>
    <nd ref="290425313"/>
    <nd ref="290425317"/>
    <nd ref="706987561"/>
    <nd ref="290425320"/>
    <nd ref="290425322"/>
    <nd ref="707038458"/>
    <nd ref="290425324"/>
    <tag k="highway" v="residential"/>
    <tag k="name" v="Bahnhofstraße / Via Stazione"/>
    <tag k="name:de" v="Bahnhofstraße"/>
    <tag k="name:it" v="Via Stazione"/>
  </way>
  <way id="26498161" version="9" timestamp="2010-04-26T08:47:06Z" uid="43967" user="railsnail" changeset="4529563">
    <nd ref="27414556"/>
    <nd ref="706987561"/>
    <nd ref="290425320"/>
    <nd ref="290425322"/>
    <nd ref="707038458"/>
    <nd ref="290425324"/>
    <tag k="highway" v="residential"/>
    <tag k="name" v="Bahnhofstraße / Via Stazione"/>
    <tag k="name:de" v="Bahnhofstraße"/>
    <tag k="name:it" v="Via Stazione"/>
  </way>
  <way id="26498242" version="2" timestamp="2009-12-27T09:10:31Z" uid="43967" user="railsnail" changeset="3460669">
    <nd ref="267508963"/>
    <nd ref="290426327"/>
    <nd ref="290426328"/>
    <nd ref="290426329"/>
    <nd ref="290426330"/>
    <nd ref="290426331"/>
    <nd ref="290426332"/>
    <nd ref="290426333"/>
    <nd ref="290426334"/>
    <nd ref="290426335"/>
    <nd ref="290426336"/>
    <nd ref="290426339"/>
    <nd ref="290426344"/>
    <nd ref="290426347"/>
    <nd ref="290426351"/>
    <nd ref="290426355"/>
    <nd ref="290426360"/>
    <nd ref="290426362"/>
    <nd ref="290426363"/>
    <nd ref="290426365"/>
    <nd ref="599914945"/>
    <nd ref="290426367"/>
    <nd ref="599914946"/>
    <nd ref="285924231"/>
    <tag k="highway" v="cycleway"/>
    <tag k="name" v="Drauradweg"/>
  </way>
  <way id="26498242" version="3" timestamp="2009-12-27T09:10:38Z" uid="43967" user="railsnail" changeset="3460669">
    <nd ref="267508963"/>
    <nd ref="290426327"/>
    <nd ref="290426328"/>
    <nd ref="290426329"/>
    <nd ref="290426330"/>
    <nd ref="290426331"/>
    <nd ref="290426332"/>
    <nd ref="290426333"/>
    <nd ref="290426334"/>
    <nd ref="290426335"/>
    <nd ref="290426336"/>
    <nd ref="290426339"/>
    <nd ref="290426344"/>
    <nd ref="290426347"/>
    <nd ref="290426351"/>
    <nd ref="290426355"/>
    <nd ref="290426360"/>
    <nd ref="290426362"/>
    <nd ref="290426363"/>
    <nd ref="599914947"/>
    <nd ref="290426365"/>
    <nd ref="599914945"/>
    <nd ref="290426367"/>
    <nd ref="599914946"/>
    <nd ref="285924231"/>
    <tag k="highway" v="cycleway"/>
    <tag k="name" v="Drauradweg"/>
  </way>
  <way id="26498242" version="4" timestamp="2009-12-27T09:10:48Z" uid="43967" user="railsnail" changeset="3460669">
    <nd ref="267508963"/>
    <nd ref="290426327"/>
    <nd ref="290426328"/>
    <nd ref="290426329"/>
    <nd ref="290426330"/>
    <nd ref="290426331"/>
    <nd ref="290426332"/>
    <nd ref="290426333"/>
    <nd ref="290426334"/>
    <nd ref="290426335"/>
    <nd ref="290426336"/>
    <nd ref="290426339"/>
    <nd ref="290426344"/>
    <nd ref="290426347"/>
    <nd ref="290426351"/>
    <nd ref="290426355"/>
    <nd ref="290426360"/>
    <nd ref="290426362"/>
    <nd ref="599914952"/>
    <nd ref="290426363"/>
    <nd ref="599914947"/>
    <nd ref="290426365"/>
    <nd ref="599914945"/>
    <nd ref="290426367"/>
    <nd ref="599914946"/>
    <nd ref="285924231"/>
    <tag k="highway" v="cycleway"/>
    <tag k="name" v="Drauradweg"/>
  </way>
  <way id="26498242" version="5" timestamp="2009-12-27T09:12:17Z" uid="43967" user="railsnail" changeset="3460669">
    <nd ref="267508963"/>
    <nd ref="290426327"/>
    <nd ref="290426328"/>
    <nd ref="290426329"/>
    <nd ref="290426330"/>
    <nd ref="290426331"/>
    <nd ref="290426332"/>
    <nd ref="290426333"/>
    <nd ref="290426334"/>
    <nd ref="290426335"/>
    <nd ref="290426336"/>
    <nd ref="290426339"/>
    <nd ref="290426344"/>
    <nd ref="290426347"/>
    <nd ref="290426351"/>
    <nd ref="290426355"/>
    <nd ref="290426360"/>
    <nd ref="599915178"/>
    <nd ref="290426362"/>
    <nd ref="599914952"/>
    <nd ref="290426363"/>
    <nd ref="599914947"/>
    <nd ref="290426365"/>
    <nd ref="599914945"/>
    <nd ref="290426367"/>
    <nd ref="599914946"/>
    <nd ref="285924231"/>
    <tag k="highway" v="cycleway"/>
    <tag k="name" v="Drauradweg"/>
  </way>
  <way id="26498242" version="8" timestamp="2010-03-23T14:17:57Z" uid="43967" user="railsnail" changeset="4212433">
    <nd ref="267508963"/>
    <nd ref="290426327"/>
    <nd ref="290426328"/>
    <nd ref="290426329"/>
    <tag k="highway" v="cycleway"/>
    <tag k="name" v="Drauradweg"/>
  </way>
  <way id="26498242" version="9" timestamp="2010-03-23T14:18:05Z" uid="43967" user="railsnail" changeset="4212433">
    <nd ref="267508963"/>
    <nd ref="290426327"/>
    <nd ref="290426328"/>
    <nd ref="290426329"/>
    <tag k="highway" v="residential"/>
    <tag k="name" v="Drauradweg"/>
  </way>
  <way id="26498263" version="4" timestamp="2010-06-02T17:34:14Z" uid="256927" user="Timo Müller" changeset="4886109">
    <nd ref="290230369"/>
    <nd ref="290426846"/>
    <nd ref="290426848"/>
    <nd ref="290426849"/>
    <nd ref="290426851"/>
    <nd ref="762503326"/>
    <tag k="highway" v="track"/>
    <tag k="motor_vehicle" v="agricultural"/>
  </way>
  <way id="26498264" version="2" timestamp="2010-06-02T17:34:15Z" uid="256927" user="Timo Müller" changeset="4886109">
    <nd ref="762503337"/>
    <nd ref="290426852"/>
    <nd ref="290426854"/>
    <nd ref="290426855"/>
    <nd ref="290426857"/>
    <tag k="highway" v="track"/>
    <tag k="vehicle" v="agricultural"/>
  </way>
  <way id="26498309" version="2" timestamp="2009-12-27T09:09:44Z" uid="43967" user="railsnail" changeset="3460669">
    <nd ref="285924238"/>
    <nd ref="599914853"/>
    <nd ref="290427347"/>
    <nd ref="290427350"/>
    <nd ref="290427353"/>
    <nd ref="599914854"/>
    <nd ref="290427355"/>
    <nd ref="285923606"/>
    <tag k="highway" v="cycleway"/>
    <tag k="name" v="Drauradweg"/>
  </way>
</osm>
