<?xml version='1.0' encoding='UTF-8'?>
<osm version="0.6" generator="libosmium/2.20.0">
  <way id="26518135" version="9" timestamp="2010-08-27T20:36:25Z" uid="33382" user="de_muur" changeset="5611236">
    <nd ref="281956661"/>
    <nd ref="430644231"/>
    <nd ref="297959131"/>
    <nd ref="268433397"/>
    <nd ref="268433398"/>
    <nd ref="33618519"/>
    <nd ref="430644192"/>
    <nd ref="268939483"/>
    <tag k="highway" v="secondary"/>
    <tag k="maxspeed" v="50"/>
    <tag k="ref" v="L 296"/>
    <tag k="surface" v="paved"/>
  </way>
  <way id="26518247" version="1" timestamp="2008-08-24T11:35:49Z" uid="19626" user="Swamp" changeset="391142">
    <nd ref="290646288"/>
    <nd ref="126884798"/>
    <nd ref="126884879"/>
    <tag k="created_by" v="JOSM"/>
    <tag k="highway" v="primary"/>
    <tag k="name" v="Kidman Way"/>
  </way>
  <way id="26518247" version="2" timestamp="2009-07-25T04:21:27Z" uid="74617" user="JohnSmith" changeset="1930659">
    <nd ref="290646288"/>
    <nd ref="126884798"/>
    <nd ref="126884879"/>
    <tag k="highway" v="primary"/>
    <tag k="name" v="Kidman Way"/>
  </way>
  <way id="26518247" version="3" timestamp="2010-06-07T12:20:00Z" uid="19626" user="Swamp" changeset="4927582">
    <nd ref="290646288"/>
    <nd ref="766638379"/>
    <tag k="highway" v="primary"/>
    <tag k="name" v="Kidman Way"/>
  </way>
  <way id="26518247" version="4" timestamp="2010-12-15T04:48:55Z" uid="18775" user="drlizau" changeset="6664557">
    <nd ref="290646288"/>
    <nd ref="766638379"/>
    <tag k="highway" v="primary"/>
    <tag k="name" v="Kidman Way"/>
    <tag k="source" v="survey"/>
  </way>
  <way id="26518248" version="1" timestamp="2008-08-24T11:35:50Z" uid="19626" user="Swamp" changeset="391142">
    <nd ref="126884765"/>
    <nd ref="290646288"/>
    <tag k="bridge" v="ture"/>
    <tag k="created_by" v="JOSM"/>
    <tag k="highway" v="primary"/>
    <tag k="name" v="Kidman Way"/>
  </way>
  <way id="26518248" version="2" timestamp="2009-07-25T04:21:29Z" uid="74617" user="JohnSmith" changeset="1930659">
    <nd ref="126884765"/>
    <nd ref="290646288"/>
    <tag k="bridge" v="ture"/>
    <tag k="highway" v="primary"/>
    <tag k="name" v="Kidman Way"/>
  </way>
  <way id="26518248" version="3" timestamp="2009-07-26T12:09:37Z" uid="4467" user="Rosscoe" changeset="1943912">
    <nd ref="126884765"/>
    <nd ref="290646288"/>
    <tag k="bridge" v="yes"/>
    <tag k="highway" v="primary"/>
    <tag k="name" v="Kidman Way"/>
  </way>
  <way id="26518248" version="4" timestamp="2010-07-15T02:41:48Z" uid="4467" user="Rosscoe" changeset="5223210">
    <nd ref="126884765"/>
    <nd ref="290646288"/>
    <tag k="bridge" v="yes"/>
    <tag k="highway" v="primary"/>
    <tag k="layer" v="1"/>
    <tag k="name" v="Kidman Way"/>
  </way>
  <way id="26518248" version="5" timestamp="2010-12-15T04:49:09Z" uid="18775" user="drlizau" changeset="6664557">
    <nd ref="126884765"/>
    <nd ref="290646288"/>
    <tag k="bridge" v="yes"/>
    <tag k="highway" v="primary"/>
    <tag k="layer" v="1"/>
    <tag k="name" v="Kidman Way"/>
    <tag k="source" v="survey"/>
  </way>
  <way id="26518249" version="1" timestamp="2008-08-24T11:35:53Z" uid="19626" user="Swamp" changeset="391142">
    <nd ref="126884716"/>
    <nd ref="126884765"/>
    <tag k="created_by" v="JOSM"/>
    <tag k="highway" v="primary"/>
    <tag k="name" v="Kidman Way"/>
  </way>
  <way id="26518249" version="2" timestamp="2009-07-25T04:21:29Z" uid="74617" user="JohnSmith" changeset="1930659">
    <nd ref="126884716"/>
    <nd ref="126884765"/>
    <tag k="highway" v="primary"/>
    <tag k="name" v="Kidman Way"/>
  </way>
  <way id="26518249" version="4" timestamp="2010-06-07T12:19:59Z" uid="19626" user="Swamp" changeset="4927582">
    <nd ref="126884716"/>
    <nd ref="766638404"/>
    <nd ref="567773413"/>
    <nd ref="126884765"/>
    <tag k="highway" v="primary"/>
    <tag k="name" v="Kidman Way"/>
  </way>
  <way id="26518249" version="5" timestamp="2010-12-15T04:49:03Z" uid="18775" user="drlizau" changeset="6664557">
    <nd ref="126884716"/>
    <nd ref="766638404"/>
    <nd ref="567773413"/>
    <nd ref="126884765"/>
    <tag k="highway" v="primary"/>
    <tag k="name" v="Kidman Way"/>
    <tag k="source" v="survey"/>
  </way>
  <way id="26518251" version="1" timestamp="2008-08-24T11:35:54Z" uid="19626" user="Swamp" changeset="391142">
    <nd ref="290646290"/>
    <nd ref="126884716"/>
    <tag k="bridge" v="ture"/>
    <tag k="created_by" v="JOSM"/>
    <tag k="highway" v="primary"/>
    <tag k="name" v="Kidman Way"/>
  </way>
  <way id="26518251" version="2" timestamp="2009-07-26T12:09:37Z" uid="4467" user="Rosscoe" changeset="1943912">
    <nd ref="290646290"/>
    <nd ref="126884716"/>
    <tag k="bridge" v="yes"/>
    <tag k="highway" v="primary"/>
    <tag k="name" v="Kidman Way"/>
  </way>
  <way id="26518251" version="3" timestamp="2010-07-15T02:41:47Z" uid="4467" user="Rosscoe" changeset="5223210">
    <nd ref="290646290"/>
    <nd ref="126884716"/>
    <tag k="bridge" v="yes"/>
    <tag k="highway" v="primary"/>
    <tag k="layer" v="1"/>
    <tag k="name" v="Kidman Way"/>
  </way>
  <way id="26518251" version="4" timestamp="2010-12-15T04:49:11Z" uid="18775" user="drlizau" changeset="6664557">
    <nd ref="290646290"/>
    <nd ref="126884716"/>
    <tag k="bridge" v="yes"/>
    <tag k="highway" v="primary"/>
    <tag k="layer" v="1"/>
    <tag k="name" v="Kidman Way"/>
    <tag k="source" v="survey"/>
  </way>
  <way id="26518350" version="1" timestamp="2008-08-24T11:41:28Z" uid="19626" user="Swamp" changeset="391142">
    <nd ref="290647706"/>
    <nd ref="290647707"/>
    <tag k="highway" v="residential"/>
    <tag k="maxspeed" v="50km/h"/>
    <tag k="name" v="Robertson Avenue"/>
  </way>
  <way id="26518350" version="2" timestamp="2009-07-25T15:29:49Z" uid="74617" user="JohnSmith" changeset="1935409">
    <nd ref="290647706"/>
    <nd ref="290647707"/>
    <tag k="highway" v="residential"/>
    <tag k="maxspeed" v="50"/>
    <tag k="name" v="Robertson Avenue"/>
  </way>
  <way id="26518350" version="3" timestamp="2010-06-07T12:19:59Z" uid="19626" user="Swamp" changeset="4927582">
    <nd ref="290647706"/>
    <nd ref="766638358"/>
    <nd ref="290647707"/>
    <tag k="highway" v="residential"/>
    <tag k="maxspeed" v="50"/>
    <tag k="name" v="Boona Street"/>
  </way>
  <way id="26518350" version="4" timestamp="2010-12-15T04:49:09Z" uid="18775" user="drlizau" changeset="6664557">
    <nd ref="290647706"/>
    <nd ref="766638358"/>
    <nd ref="290647707"/>
    <tag k="highway" v="residential"/>
    <tag k="maxspeed" v="50"/>
    <tag k="name" v="Boona Street"/>
    <tag k="source" v="survey"/>
  </way>
  <way id="26518361" version="4" timestamp="2008-09-14T22:41:19Z" uid="6975" user="ulfl" changeset="640534">
    <nd ref="26673727"/>
    <nd ref="293642822"/>
    <tag k="bridge" v="yes"/>
    <tag k="construction" v="trunk"/>
    <tag k="highway" v="construction"/>
    <tag k="layer" v="1"/>
    <tag k="name" v="Brīvības gatve"/>
    <tag k="oneway" v="yes"/>
  </way>
  <way id="26518421" version="5" timestamp="2009-09-23T09:41:58Z" uid="9581" user="Lobelt" changeset="2593305">
    <nd ref="290649113"/>
    <nd ref="290649212"/>
    <nd ref="506124047"/>
    <nd ref="29278358"/>
    <tag k="highway" v="residential"/>
    <tag k="layer" v="-1"/>
    <tag k="name" v="Zoitzstraße"/>
    <tag k="oneway" v="yes"/>
  </way>
  <way id="26518475" version="1" timestamp="2008-08-24T11:49:09Z" uid="19626" user="Swamp" changeset="391142">
    <nd ref="290649838"/>
    <nd ref="290649839"/>
    <nd ref="290649848"/>
    <nd ref="290649856"/>
    <tag k="highway" v="residential"/>
    <tag k="name" v="Chant street"/>
  </way>
  <way id="26518475" version="2" timestamp="2008-08-24T11:50:08Z" uid="19626" user="Swamp" changeset="391142">
    <nd ref="290649838"/>
    <nd ref="290649839"/>
    <nd ref="290649848"/>
    <nd ref="290649856"/>
    <tag k="highway" v="residential"/>
    <tag k="maxspeed" v="50km/h"/>
    <tag k="name" v="Chant street"/>
  </way>
  <way id="26518475" version="3" timestamp="2009-07-25T04:21:29Z" uid="74617" user="JohnSmith" changeset="1930659">
    <nd ref="290649838"/>
    <nd ref="290649839"/>
    <nd ref="290649848"/>
    <nd ref="290649856"/>
    <tag k="highway" v="residential"/>
    <tag k="maxspeed" v="50"/>
    <tag k="name" v="Chant street"/>
  </way>
  <way id="26518475" version="4" timestamp="2010-06-07T09:45:10Z" uid="19626" user="Swamp" changeset="4926425">
    <nd ref="290649838"/>
    <nd ref="290649839"/>
    <nd ref="290649848"/>
    <nd ref="766493912"/>
    <nd ref="290649856"/>
    <tag k="highway" v="residential"/>
    <tag k="maxspeed" v="50"/>
    <tag k="name" v="Chant street"/>
  </way>
  <way id="26518475" version="5" timestamp="2010-12-15T04:49:03Z" uid="18775" user="drlizau" changeset="6664557">
    <nd ref="290649838"/>
    <nd ref="290649839"/>
    <nd ref="290649848"/>
    <nd ref="766493912"/>
    <nd ref="290649856"/>
    <tag k="highway" v="residential"/>
    <tag k="maxspeed" v="50"/>
    <tag k="name" v="Chant street"/>
    <tag k="source" v="survey"/>
  </way>
  <way id="26518476" version="1" timestamp="2008-08-24T11:49:10Z" uid="19626" user="Swamp" changeset="391142">
    <nd ref="290649856"/>
    <nd ref="290649863"/>
    <tag k="highway" v="residential"/>
    <tag k="name" v="Banksia Place"/>
  </way>
  <way id="26518476" version="2" timestamp="2008-08-24T11:50:09Z" uid="19626" user="Swamp" changeset="391142">
    <nd ref="290649856"/>
    <nd ref="290649863"/>
    <tag k="highway" v="residential"/>
    <tag k="maxspeed" v="50km/h"/>
    <tag k="name" v="Banksia Place"/>
  </way>
  <way id="26518476" version="3" timestamp="2009-07-25T04:21:28Z" uid="74617" user="JohnSmith" changeset="1930659">
    <nd ref="290649856"/>
    <nd ref="290649863"/>
    <tag k="highway" v="residential"/>
    <tag k="maxspeed" v="50"/>
    <tag k="name" v="Banksia Place"/>
  </way>
  <way id="26518476" version="5" timestamp="2010-12-15T04:48:55Z" uid="18775" user="drlizau" changeset="6664557">
    <nd ref="290649856"/>
    <nd ref="290649863"/>
    <nd ref="567773409"/>
    <tag k="highway" v="residential"/>
    <tag k="maxspeed" v="50"/>
    <tag k="name" v="Banksia Place"/>
    <tag k="source" v="survey"/>
  </way>
  <way id="26518477" version="1" timestamp="2008-08-24T11:49:11Z" uid="19626" user="Swamp" changeset="391142">
    <nd ref="290649915"/>
    <nd ref="290649911"/>
    <nd ref="290649907"/>
    <nd ref="290649897"/>
    <tag k="created_by" v="JOSM"/>
    <tag k="highway" v="residential"/>
    <tag k="maxspeed" v="100km/h"/>
    <tag k="name" v="Hay Road"/>
  </way>
  <way id="26518477" version="2" timestamp="2009-07-24T19:05:19Z" uid="74617" user="JohnSmith" changeset="1928395">
    <nd ref="290649915"/>
    <nd ref="290649911"/>
    <nd ref="290649907"/>
    <nd ref="290649897"/>
    <tag k="highway" v="residential"/>
    <tag k="maxspeed" v="100"/>
    <tag k="name" v="Hay Road"/>
  </way>
  <way id="26518477" version="3" timestamp="2010-06-08T06:11:32Z" uid="19626" user="Swamp" changeset="4934481">
    <nd ref="290649915"/>
    <nd ref="767000663"/>
    <nd ref="290649911"/>
    <nd ref="290649907"/>
    <nd ref="290649897"/>
    <tag k="highway" v="residential"/>
    <tag k="maxspeed" v="100"/>
    <tag k="name" v="Hay Road"/>
  </way>
  <way id="26518478" version="1" timestamp="2008-08-24T11:49:12Z" uid="19626" user="Swamp" changeset="391142">
    <nd ref="290649897"/>
    <nd ref="290649889"/>
    <nd ref="290649880"/>
    <nd ref="290649870"/>
    <nd ref="290649867"/>
    <tag k="created_by" v="JOSM"/>
    <tag k="highway" v="residential"/>
    <tag k="maxspeed" v="80km/h"/>
    <tag k="name" v="Hay Road"/>
  </way>
  <way id="26518478" version="2" timestamp="2009-07-24T20:10:49Z" uid="74617" user="JohnSmith" changeset="1928982">
    <nd ref="290649897"/>
    <nd ref="290649889"/>
    <nd ref="290649880"/>
    <nd ref="290649870"/>
    <nd ref="290649867"/>
    <tag k="highway" v="residential"/>
    <tag k="maxspeed" v="80"/>
    <tag k="name" v="Hay Road"/>
  </way>
  <way id="26518480" version="1" timestamp="2008-08-24T11:49:13Z" uid="19626" user="Swamp" changeset="391142">
    <nd ref="290649867"/>
    <nd ref="127157526"/>
    <nd ref="127157595"/>
    <nd ref="249047122"/>
    <tag k="created_by" v="JOSM"/>
    <tag k="highway" v="residential"/>
    <tag k="maxspeed" v="50km/h"/>
    <tag k="name" v="Hay Road"/>
  </way>
  <way id="26518480" version="2" timestamp="2008-08-24T11:54:16Z" uid="19626" user="Swamp" changeset="391142">
    <nd ref="290649867"/>
    <nd ref="127157526"/>
    <nd ref="290651220"/>
    <nd ref="127157595"/>
    <nd ref="249047122"/>
    <tag k="created_by" v="JOSM"/>
    <tag k="highway" v="residential"/>
    <tag k="maxspeed" v="50km/h"/>
    <tag k="name" v="Hay Road"/>
  </way>
  <way id="26518480" version="3" timestamp="2009-07-25T04:21:29Z" uid="74617" user="JohnSmith" changeset="1930659">
    <nd ref="290649867"/>
    <nd ref="127157526"/>
    <nd ref="290651220"/>
    <nd ref="127157595"/>
    <nd ref="249047122"/>
    <tag k="highway" v="residential"/>
    <tag k="maxspeed" v="50"/>
    <tag k="name" v="Hay Road"/>
  </way>
  <way id="26518480" version="5" timestamp="2010-06-07T09:45:09Z" uid="19626" user="Swamp" changeset="4926425">
    <nd ref="290649867"/>
    <nd ref="567773404"/>
    <nd ref="766493902"/>
    <nd ref="567773406"/>
    <nd ref="127157526"/>
    <nd ref="290651220"/>
    <nd ref="127157595"/>
    <nd ref="249047122"/>
    <tag k="highway" v="residential"/>
    <tag k="maxspeed" v="50"/>
    <tag k="name" v="Hay Road"/>
  </way>
  <way id="26518480" version="6" timestamp="2010-06-07T12:19:58Z" uid="19626" user="Swamp" changeset="4927582">
    <nd ref="290649867"/>
    <nd ref="567773404"/>
    <nd ref="766493902"/>
    <nd ref="567773406"/>
    <nd ref="127157526"/>
    <nd ref="290651220"/>
    <nd ref="127157595"/>
    <nd ref="766638344"/>
    <nd ref="249047122"/>
    <tag k="highway" v="residential"/>
    <tag k="maxspeed" v="50"/>
    <tag k="name" v="Hay Road"/>
  </way>
  <way id="26518480" version="7" timestamp="2010-12-15T04:49:11Z" uid="18775" user="drlizau" changeset="6664557">
    <nd ref="290649867"/>
    <nd ref="567773404"/>
    <nd ref="766493902"/>
    <nd ref="567773406"/>
    <nd ref="127157526"/>
    <nd ref="290651220"/>
    <nd ref="127157595"/>
    <nd ref="766638344"/>
    <nd ref="249047122"/>
    <tag k="highway" v="residential"/>
    <tag k="maxspeed" v="50"/>
    <tag k="name" v="Hay Road"/>
    <tag k="source" v="survey"/>
  </way>
  <way id="26518615" version="1" timestamp="2008-08-24T11:54:10Z" uid="19626" user="Swamp" changeset="391142">
    <nd ref="290651220"/>
    <nd ref="290651221"/>
    <nd ref="290651222"/>
    <nd ref="290649856"/>
    <nd ref="290651224"/>
    <nd ref="290651225"/>
    <tag k="highway" v="residential"/>
    <tag k="maxspeed" v="50km/h"/>
    <tag k="name" v="Campbell Street"/>
  </way>
  <way id="26518615" version="2" timestamp="2009-07-25T04:21:29Z" uid="74617" user="JohnSmith" changeset="1930659">
    <nd ref="290651220"/>
    <nd ref="290651221"/>
    <nd ref="290651222"/>
    <nd ref="290649856"/>
    <nd ref="290651224"/>
    <nd ref="290651225"/>
    <tag k="highway" v="residential"/>
    <tag k="maxspeed" v="50"/>
    <tag k="name" v="Campbell Street"/>
  </way>
  <way id="26518615" version="3" timestamp="2010-06-07T09:45:09Z" uid="19626" user="Swamp" changeset="4926425">
    <nd ref="290651220"/>
    <nd ref="290651221"/>
    <nd ref="766493911"/>
    <nd ref="290651222"/>
    <nd ref="290649856"/>
    <nd ref="290651224"/>
    <nd ref="290651225"/>
    <tag k="highway" v="residential"/>
    <tag k="maxspeed" v="50"/>
    <tag k="name" v="Campbell Street"/>
  </way>
  <way id="26518615" version="4" timestamp="2010-12-15T04:48:50Z" uid="18775" user="drlizau" changeset="6664557">
    <nd ref="290651220"/>
    <nd ref="290651221"/>
    <nd ref="766493911"/>
    <nd ref="290651222"/>
    <nd ref="290649856"/>
    <nd ref="290651224"/>
    <nd ref="290651225"/>
    <tag k="highway" v="residential"/>
    <tag k="maxspeed" v="50"/>
    <tag k="name" v="Campbell Street"/>
    <tag k="source" v="survey"/>
  </way>
  <way id="26518616" version="1" timestamp="2008-08-24T11:54:11Z" uid="19626" user="Swamp" changeset="391142">
    <nd ref="290651226"/>
    <nd ref="290651225"/>
    <tag k="highway" v="residential"/>
    <tag k="maxspeed" v="50km/h"/>
    <tag k="name" v="Young Street"/>
  </way>
  <way id="26518616" version="2" timestamp="2009-07-25T15:41:33Z" uid="74617" user="JohnSmith" changeset="1935507">
    <nd ref="290651226"/>
    <nd ref="290651225"/>
    <tag k="highway" v="residential"/>
    <tag k="maxspeed" v="50"/>
    <tag k="name" v="Young Street"/>
  </way>
  <way id="26518616" version="3" timestamp="2010-06-08T06:09:18Z" uid="19626" user="Swamp" changeset="4934473">
    <nd ref="290651225"/>
    <nd ref="290651226"/>
    <nd ref="767000582"/>
    <tag k="highway" v="residential"/>
    <tag k="maxspeed" v="50"/>
    <tag k="name" v="Young Street"/>
  </way>
  <way id="26518616" version="4" timestamp="2010-12-15T04:49:04Z" uid="18775" user="drlizau" changeset="6664557">
    <nd ref="290651225"/>
    <nd ref="290651226"/>
    <nd ref="767000582"/>
    <tag k="highway" v="residential"/>
    <tag k="maxspeed" v="50"/>
    <tag k="name" v="Young Street"/>
    <tag k="source" v="survey"/>
  </way>
  <way id="26518617" version="1" timestamp="2008-08-24T11:54:13Z" uid="19626" user="Swamp" changeset="391142">
    <nd ref="290651227"/>
    <nd ref="290649848"/>
    <tag k="highway" v="residential"/>
    <tag k="maxspeed" v="50km/h"/>
    <tag k="name" v="White Street"/>
  </way>
  <way id="26518617" version="2" timestamp="2009-07-25T04:21:27Z" uid="74617" user="JohnSmith" changeset="1930659">
    <nd ref="290651227"/>
    <nd ref="290649848"/>
    <tag k="highway" v="residential"/>
    <tag k="maxspeed" v="50"/>
    <tag k="name" v="White Street"/>
  </way>
  <way id="26518617" version="3" timestamp="2010-12-15T04:48:56Z" uid="18775" user="drlizau" changeset="6664557">
    <nd ref="290651227"/>
    <nd ref="290649848"/>
    <tag k="highway" v="residential"/>
    <tag k="maxspeed" v="50"/>
    <tag k="name" v="White Street"/>
    <tag k="source" v="survey"/>
  </way>
  <way id="26518618" version="1" timestamp="2008-08-24T11:54:13Z" uid="19626" user="Swamp" changeset="391142">
    <nd ref="290649839"/>
    <nd ref="290651231"/>
    <nd ref="290651226"/>
    <tag k="highway" v="residential"/>
    <tag k="maxspeed" v="50km/h"/>
    <tag k="name" v="Kook Street"/>
  </way>
  <way id="26518618" version="2" timestamp="2009-07-25T04:21:27Z" uid="74617" user="JohnSmith" changeset="1930659">
    <nd ref="290649839"/>
    <nd ref="290651231"/>
    <nd ref="290651226"/>
    <tag k="highway" v="residential"/>
    <tag k="maxspeed" v="50"/>
    <tag k="name" v="Kook Street"/>
  </way>
  <way id="26518618" version="3" timestamp="2010-12-15T04:48:49Z" uid="18775" user="drlizau" changeset="6664557">
    <nd ref="290649839"/>
    <nd ref="290651231"/>
    <nd ref="290651226"/>
    <tag k="highway" v="residential"/>
    <tag k="maxspeed" v="50"/>
    <tag k="name" v="Kook Street"/>
    <tag k="source" v="survey"/>
  </way>
  <way id="26518734" version="10" timestamp="2009-12-13T01:27:24Z" uid="4467" user="Rosscoe" changeset="3360047"/>
  <way id="26518746" version="1" timestamp="2008-08-24T12:01:30Z" uid="19626" user="Swamp" changeset="391142">
    <nd ref="249055342"/>
    <nd ref="249055343"/>
    <nd ref="249055344"/>
    <nd ref="267070578"/>
    <nd ref="249055345"/>
    <tag k="created_by" v="JOSM"/>
    <tag k="highway" v="residential"/>
    <tag k="maxspeed" v="50km/h"/>
    <tag k="name" v="Curlew Crescent"/>
  </way>
  <way id="26518746" version="2" timestamp="2008-08-28T10:59:39Z" uid="19626" user="Swamp" changeset="441061">
    <nd ref="249055342"/>
    <nd ref="249055343"/>
    <nd ref="291738513"/>
    <nd ref="249055344"/>
    <nd ref="267070578"/>
    <nd ref="249055345"/>
    <tag k="created_by" v="JOSM"/>
    <tag k="highway" v="residential"/>
    <tag k="maxspeed" v="50km/h"/>
    <tag k="name" v="Curlew Crescent"/>
  </way>
  <way id="26518746" version="3" timestamp="2009-07-25T15:29:49Z" uid="74617" user="JohnSmith" changeset="1935409">
    <nd ref="249055342"/>
    <nd ref="249055343"/>
    <nd ref="291738513"/>
    <nd ref="249055344"/>
    <nd ref="267070578"/>
    <nd ref="249055345"/>
    <tag k="highway" v="residential"/>
    <tag k="maxspeed" v="50"/>
    <tag k="name" v="Curlew Crescent"/>
  </way>
  <way id="26518749" version="5" timestamp="2009-12-01T09:45:18Z" uid="4467" user="Rosscoe" changeset="3262583">
    <nd ref="290652793"/>
    <nd ref="290655737"/>
    <nd ref="290652795"/>
    <nd ref="290652796"/>
    <nd ref="290652797"/>
    <nd ref="290652798"/>
    <nd ref="290652913"/>
    <nd ref="290652800"/>
    <nd ref="290655327"/>
    <nd ref="290652915"/>
    <nd ref="290652916"/>
    <nd ref="290655850"/>
    <nd ref="290655848"/>
    <nd ref="290655847"/>
    <nd ref="290655849"/>
    <nd ref="290655851"/>
    <nd ref="290652918"/>
    <tag k="bicycle" v="yes"/>
    <tag k="foot" v="yes"/>
    <tag k="highway" v="cycleway"/>
    <tag k="name" v="Western Ring Road Trail"/>
  </way>
  <way id="26518749" version="6" timestamp="2009-12-13T04:18:16Z" uid="4467" user="Rosscoe" changeset="3360394">
    <nd ref="290652793"/>
    <nd ref="290652795"/>
    <nd ref="290652796"/>
    <nd ref="290652797"/>
    <nd ref="290652798"/>
    <nd ref="290652913"/>
    <nd ref="290652800"/>
    <nd ref="290655327"/>
    <nd ref="290652915"/>
    <nd ref="290652916"/>
    <nd ref="290655850"/>
    <nd ref="290655848"/>
    <nd ref="290655847"/>
    <nd ref="290655849"/>
    <nd ref="290655851"/>
    <nd ref="290652918"/>
    <tag k="bicycle" v="yes"/>
    <tag k="foot" v="yes"/>
    <tag k="highway" v="cycleway"/>
    <tag k="name" v="Western Ring Road Trail"/>
  </way>
  <way id="26518749" version="8" timestamp="2010-11-04T07:52:24Z" uid="4467" user="Rosscoe" changeset="6286316">
    <nd ref="290652793"/>
    <nd ref="290652795"/>
    <nd ref="290652796"/>
    <nd ref="290652797"/>
    <nd ref="290652798"/>
    <nd ref="290652913"/>
    <nd ref="290652800"/>
    <nd ref="290655327"/>
    <nd ref="290652915"/>
    <nd ref="290652916"/>
    <nd ref="290655850"/>
    <nd ref="290655848"/>
    <nd ref="290655847"/>
    <nd ref="290655849"/>
    <nd ref="976460983"/>
    <nd ref="290655851"/>
    <nd ref="290652918"/>
    <tag k="bicycle" v="yes"/>
    <tag k="cycleway" v="track"/>
    <tag k="foot" v="yes"/>
    <tag k="highway" v="cycleway"/>
    <tag k="name" v="Western Ring Road Trail"/>
  </way>
  <way id="26518757" version="5" timestamp="2008-09-12T08:21:35Z" uid="4467" user="Rosscoe" changeset="613609">
    <nd ref="290041098"/>
    <nd ref="290653459"/>
    <nd ref="290041459"/>
    <nd ref="290041461"/>
    <nd ref="290041908"/>
    <nd ref="290041463"/>
    <tag k="created_by" v="Potlatch 0.10b"/>
    <tag k="highway" v="track"/>
    <tag k="name" v="Owens Street"/>
    <tag k="source" v="survey"/>
  </way>
  <way id="26518776" version="6" timestamp="2009-12-13T04:18:15Z" uid="4467" user="Rosscoe" changeset="3360394">
    <nd ref="290652793"/>
    <nd ref="290653609"/>
    <nd ref="290653612"/>
    <nd ref="290659147"/>
    <nd ref="290653798"/>
    <nd ref="290659148"/>
    <nd ref="290659150"/>
    <nd ref="290653801"/>
    <nd ref="290659151"/>
    <nd ref="290653803"/>
    <nd ref="290653622"/>
    <nd ref="290653805"/>
    <nd ref="290659152"/>
    <nd ref="290653807"/>
    <nd ref="290653626"/>
    <nd ref="290653627"/>
    <nd ref="290653628"/>
    <nd ref="290653629"/>
    <nd ref="290653631"/>
    <nd ref="290653632"/>
    <nd ref="290659153"/>
    <nd ref="290653634"/>
    <nd ref="290653635"/>
    <nd ref="290653636"/>
    <nd ref="290653809"/>
    <nd ref="290653638"/>
    <nd ref="290653810"/>
    <nd ref="290653811"/>
    <nd ref="290659154"/>
    <nd ref="290653813"/>
    <nd ref="290659155"/>
    <nd ref="290653645"/>
    <nd ref="290659158"/>
    <nd ref="290653816"/>
    <nd ref="290659159"/>
    <nd ref="290653818"/>
    <nd ref="290653650"/>
    <nd ref="290653651"/>
    <nd ref="290653652"/>
    <nd ref="290653653"/>
    <nd ref="290659160"/>
    <nd ref="290653655"/>
    <nd ref="290653656"/>
    <nd ref="290653657"/>
    <tag k="bicycle" v="yes"/>
    <tag k="cycleway" v="track"/>
    <tag k="foot" v="yes"/>
    <tag k="highway" v="cycleway"/>
    <tag k="name" v="Deer Park Bypass Trail"/>
  </way>
  <way id="26518793" version="3" timestamp="2009-07-31T14:28:19Z" uid="4467" user="Rosscoe" changeset="1995211">
    <nd ref="26475876"/>
    <nd ref="251777025"/>
    <tag k="bridge" v="yes"/>
    <tag k="highway" v="motorway"/>
    <tag k="layer" v="1"/>
    <tag k="maxspeed" v="100"/>
    <tag k="name" v="Western Ring Road"/>
    <tag k="oneway" v="yes"/>
    <tag k="ref" v="M80"/>
  </way>
  <way id="26518795" version="3" timestamp="2009-07-31T14:28:19Z" uid="4467" user="Rosscoe" changeset="1995211">
    <nd ref="251777024"/>
    <nd ref="26475875"/>
    <tag k="bridge" v="yes"/>
    <tag k="highway" v="motorway"/>
    <tag k="layer" v="1"/>
    <tag k="maxspeed" v="100"/>
    <tag k="name" v="Western Ring Road"/>
    <tag k="oneway" v="yes"/>
    <tag k="ref" v="M80"/>
    <tag k="source" v="survey"/>
  </way>
  <way id="26518861" version="13" timestamp="2009-12-01T09:41:40Z" uid="4467" user="Rosscoe" changeset="3262583">
    <nd ref="268169799"/>
    <nd ref="290655589"/>
    <nd ref="290655590"/>
    <nd ref="290655591"/>
    <tag k="highway" v="motorway_link"/>
    <tag k="maxspeed" v="100"/>
    <tag k="oneway" v="yes"/>
    <tag k="ref" v="N-M8"/>
  </way>
  <way id="26518861" version="14" timestamp="2009-12-01T09:47:31Z" uid="4467" user="Rosscoe" changeset="3262583">
    <nd ref="576989841"/>
    <nd ref="576989835"/>
    <nd ref="290655589"/>
    <nd ref="290655590"/>
    <nd ref="290655591"/>
    <tag k="highway" v="motorway_link"/>
    <tag k="maxspeed" v="100"/>
    <tag k="oneway" v="yes"/>
    <tag k="ref" v="N-M8"/>
  </way>
  <way id="26518861" version="15" timestamp="2009-12-12T09:53:10Z" uid="4467" user="Rosscoe" changeset="3354507">
    <nd ref="576989841"/>
    <nd ref="576989835"/>
    <tag k="highway" v="motorway_link"/>
    <tag k="maxspeed" v="100"/>
    <tag k="oneway" v="yes"/>
    <tag k="ref" v="N-M8"/>
  </way>
  <way id="26518861" version="16" timestamp="2010-04-05T21:38:32Z" uid="74617" user="JohnSmith" changeset="4338595">
    <nd ref="576989841"/>
    <nd ref="576989835"/>
    <tag k="highway" v="motorway_link"/>
    <tag k="maxspeed" v="100"/>
    <tag k="oneway" v="yes"/>
  </way>
  <way id="26518866" version="12" timestamp="2009-12-01T09:44:25Z" uid="4467" user="Rosscoe" changeset="3262583"/>
  <way id="26518868" version="4" timestamp="2009-12-01T09:43:00Z" uid="4467" user="Rosscoe" changeset="3262583">
    <nd ref="290652918"/>
    <nd ref="290652617"/>
    <nd ref="290652618"/>
    <nd ref="290652619"/>
    <nd ref="290652645"/>
    <nd ref="290652658"/>
    <nd ref="290652648"/>
    <nd ref="290652660"/>
    <nd ref="290652650"/>
    <nd ref="290652625"/>
    <nd ref="268169891"/>
    <nd ref="268169890"/>
    <nd ref="268169889"/>
    <nd ref="268169888"/>
    <nd ref="268169887"/>
    <nd ref="290655734"/>
    <nd ref="268169886"/>
    <nd ref="268169885"/>
    <nd ref="268169884"/>
    <nd ref="268169883"/>
    <nd ref="268169882"/>
    <nd ref="268169881"/>
    <nd ref="268169880"/>
    <nd ref="268169879"/>
    <nd ref="268169878"/>
    <nd ref="268169877"/>
    <nd ref="268169876"/>
    <nd ref="268169875"/>
    <nd ref="268169874"/>
    <nd ref="268169873"/>
    <nd ref="268169872"/>
    <nd ref="268169871"/>
    <nd ref="268169870"/>
    <nd ref="268169869"/>
    <nd ref="268169868"/>
    <nd ref="268169867"/>
    <nd ref="268169866"/>
    <nd ref="268169865"/>
    <nd ref="268169864"/>
    <nd ref="268169863"/>
    <nd ref="268169862"/>
    <nd ref="290656800"/>
    <nd ref="268220387"/>
    <tag k="bicycle" v="yes"/>
    <tag k="foot" v="yes"/>
    <tag k="highway" v="cycleway"/>
    <tag k="name" v="Western Ring Road Trail"/>
  </way>
  <way id="26518868" version="5" timestamp="2009-12-01T09:45:36Z" uid="4467" user="Rosscoe" changeset="3262583">
    <nd ref="290652918"/>
    <nd ref="290652617"/>
    <nd ref="290652619"/>
    <nd ref="290652645"/>
    <nd ref="290652658"/>
    <nd ref="290652648"/>
    <nd ref="290652660"/>
    <nd ref="290652650"/>
    <nd ref="290652625"/>
    <nd ref="268169891"/>
    <nd ref="268169890"/>
    <nd ref="268169889"/>
    <nd ref="268169888"/>
    <nd ref="268169887"/>
    <nd ref="290655734"/>
    <nd ref="268169886"/>
    <nd ref="268169885"/>
    <nd ref="268169884"/>
    <nd ref="268169883"/>
    <nd ref="268169882"/>
    <nd ref="268169881"/>
    <nd ref="268169880"/>
    <nd ref="268169879"/>
    <nd ref="268169878"/>
    <nd ref="268169877"/>
    <nd ref="268169876"/>
    <nd ref="268169875"/>
    <nd ref="268169874"/>
    <nd ref="268169873"/>
    <nd ref="268169872"/>
    <nd ref="268169871"/>
    <nd ref="268169870"/>
    <nd ref="268169869"/>
    <nd ref="268169868"/>
    <nd ref="268169867"/>
    <nd ref="268169866"/>
    <nd ref="268169865"/>
    <nd ref="268169864"/>
    <nd ref="268169863"/>
    <nd ref="268169862"/>
    <nd ref="290656800"/>
    <nd ref="268220387"/>
    <tag k="bicycle" v="yes"/>
    <tag k="foot" v="yes"/>
    <tag k="highway" v="cycleway"/>
    <tag k="name" v="Western Ring Road Trail"/>
  </way>
  <way id="26518868" version="6" timestamp="2009-12-01T09:47:50Z" uid="4467" user="Rosscoe" changeset="3262583">
    <nd ref="290652918"/>
    <nd ref="290652617"/>
    <nd ref="290652619"/>
    <nd ref="290652645"/>
    <nd ref="290652658"/>
    <nd ref="290652648"/>
    <nd ref="290652660"/>
    <nd ref="290652650"/>
    <nd ref="290652625"/>
    <nd ref="268169891"/>
    <nd ref="268169890"/>
    <nd ref="290655734"/>
    <nd ref="268169885"/>
    <nd ref="268169884"/>
    <nd ref="268169883"/>
    <nd ref="268169882"/>
    <nd ref="268169881"/>
    <nd ref="268169880"/>
    <nd ref="268169879"/>
    <nd ref="268169878"/>
    <nd ref="268169877"/>
    <nd ref="268169876"/>
    <nd ref="268169875"/>
    <nd ref="268169874"/>
    <nd ref="268169873"/>
    <nd ref="268169872"/>
    <nd ref="268169871"/>
    <nd ref="268169870"/>
    <nd ref="268169869"/>
    <nd ref="268169868"/>
    <nd ref="268169867"/>
    <nd ref="268169866"/>
    <nd ref="268169865"/>
    <nd ref="268169864"/>
    <nd ref="268169863"/>
    <nd ref="268169862"/>
    <nd ref="290656800"/>
    <nd ref="268220387"/>
    <tag k="bicycle" v="yes"/>
    <tag k="foot" v="yes"/>
    <tag k="highway" v="cycleway"/>
    <tag k="name" v="Western Ring Road Trail"/>
  </way>
  <way id="26518891" version="5" timestamp="2009-12-12T09:53:11Z" uid="4467" user="Rosscoe" changeset="3354507"/>
  <way id="26518921" version="8" timestamp="2009-12-12T09:53:12Z" uid="4467" user="Rosscoe" changeset="3354507"/>
  <way id="26518947" version="2" timestamp="2010-07-08T17:11:16Z" uid="74617" user="JohnSmith" changeset="5167338">
    <nd ref="289545831"/>
    <nd ref="289545830"/>
    <tag k="highway" v="residential"/>
    <tag k="maxspeed" v="50"/>
    <tag k="maxspeed:source" v="default residential speed limit in Australia"/>
    <tag k="name" v="Carrawe Court"/>
  </way>
</osm>
