<?xml version='1.0' encoding='UTF-8'?>
<osm version="0.6" generator="libosmium/2.20.0">
  <way id="26620055" version="2" timestamp="2010-05-18T22:15:33Z" uid="9581" user="Lobelt" changeset="4743574">
    <nd ref="291977657"/>
    <nd ref="291977658"/>
    <nd ref="291977660"/>
    <nd ref="291977661"/>
    <tag k="highway" v="residential"/>
    <tag k="oneway" v="yes"/>
  </way>
  <way id="26620056" version="5" timestamp="2010-05-18T22:15:34Z" uid="9581" user="Lobelt" changeset="4743574">
    <nd ref="291977661"/>
    <nd ref="291977662"/>
    <nd ref="345552289"/>
    <nd ref="739000676"/>
    <nd ref="291977663"/>
    <tag k="highway" v="residential"/>
    <tag k="name" v="Friedrich-Ebert-Straße"/>
  </way>
  <way id="26620075" version="9" timestamp="2010-05-18T22:15:32Z" uid="9581" user="Lobelt" changeset="4743574">
    <nd ref="250039027"/>
    <nd ref="250039028"/>
    <nd ref="250039029"/>
    <nd ref="250039031"/>
    <nd ref="250039036"/>
    <nd ref="374014007"/>
    <nd ref="250039056"/>
    <nd ref="345697972"/>
    <nd ref="345698190"/>
    <nd ref="345698163"/>
    <nd ref="345697953"/>
    <nd ref="345698044"/>
    <nd ref="315734010"/>
    <nd ref="724263951"/>
    <nd ref="345697958"/>
    <nd ref="345698126"/>
    <nd ref="369984557"/>
    <tag k="highway" v="tertiary"/>
    <tag k="name" v="Heßheimer Straße"/>
  </way>
  <way id="26620237" version="5" timestamp="2009-10-02T20:05:46Z" uid="86259" user="hasse_osm_korinthenkacker" changeset="2717024">
    <nd ref="291505465"/>
    <nd ref="320124713"/>
    <nd ref="291980433"/>
    <tag k="bicycle" v="yes"/>
    <tag k="highway" v="footway"/>
  </way>
  <way id="26620587" version="3" timestamp="2009-04-23T11:43:45Z" uid="118323" user="Jochen" changeset="911408">
    <nd ref="33699539"/>
    <nd ref="32517874"/>
    <nd ref="33014849"/>
    <nd ref="295718743"/>
    <tag k="bicycle" v="no"/>
    <tag k="created_by" v="Potlatch 0.9c"/>
    <tag k="highway" v="primary"/>
    <tag k="note:de" v="Kraftfahrstraße"/>
    <tag k="ref" v="B 19"/>
  </way>
  <way id="26620805" version="6" timestamp="2010-05-02T09:20:54Z" uid="151899" user="Bikeman2000" changeset="4582538">
    <nd ref="27157992"/>
    <nd ref="267883011"/>
    <tag k="highway" v="primary"/>
    <tag k="lanes" v="2"/>
    <tag k="name" v="Heinrichstraße"/>
    <tag k="oneway" v="yes"/>
    <tag k="ref" v="B 7"/>
  </way>
  <way id="26620904" version="2" timestamp="2010-06-29T19:17:24Z" uid="74617" user="JohnSmith" changeset="5108182">
    <nd ref="291987201"/>
    <nd ref="291987202"/>
    <nd ref="291987203"/>
    <nd ref="291987204"/>
    <nd ref="291987201"/>
    <tag k="fixme" v="sport=football is ambiguous, see http://wiki.osm.org/wiki/Football for more details"/>
    <tag k="leisure" v="pitch"/>
    <tag k="sport" v="football"/>
  </way>
  <way id="26620945" version="6" timestamp="2010-03-16T21:59:10Z" uid="163746" user="anti_bot-nonsense" changeset="4147354">
    <nd ref="162761935"/>
    <nd ref="291988228"/>
    <nd ref="224633073"/>
    <tag k="highway" v="residential"/>
    <tag k="name" v="Długa"/>
  </way>
  <way id="26620978" version="3" timestamp="2008-10-08T18:58:05Z" uid="30632" user="antblant" changeset="169665">
    <nd ref="291989478"/>
    <nd ref="291989491"/>
    <nd ref="291989481"/>
    <nd ref="291989492"/>
    <nd ref="291989478"/>
    <tag k="area" v="yes"/>
    <tag k="created_by" v="Potlatch 0.10b"/>
    <tag k="name" v="Plac Bernardyński"/>
  </way>
  <way id="26620978" version="4" timestamp="2010-03-16T21:59:15Z" uid="163746" user="anti_bot-nonsense" changeset="4147354">
    <nd ref="291989478"/>
    <nd ref="291989491"/>
    <nd ref="291989481"/>
    <nd ref="291989492"/>
    <nd ref="291989478"/>
    <tag k="area" v="yes"/>
    <tag k="name" v="Plac Bernardyński"/>
  </way>
  <way id="26620984" version="3" timestamp="2009-06-29T01:55:44Z" uid="20587" user="balrog-kun" changeset="1672485">
    <nd ref="291988228"/>
    <nd ref="291989647"/>
    <nd ref="291989648"/>
    <nd ref="291989649"/>
    <nd ref="317722847"/>
    <tag k="created_by" v="Merkaartor 0.12"/>
    <tag k="highway" v="residential"/>
    <tag k="name" v="Za Bramką"/>
    <tag k="oneway" v="yes"/>
  </way>
  <way id="26620984" version="4" timestamp="2010-03-16T21:58:31Z" uid="163746" user="anti_bot-nonsense" changeset="4147354">
    <nd ref="291988228"/>
    <nd ref="291989647"/>
    <nd ref="291989648"/>
    <nd ref="291989649"/>
    <nd ref="317722847"/>
    <tag k="highway" v="residential"/>
    <tag k="name" v="Za Bramką"/>
    <tag k="oneway" v="yes"/>
  </way>
</osm>
