<?xml version='1.0' encoding='UTF-8'?>
<osm version="0.6" generator="libosmium/2.20.0">
  <way id="26668309" version="8" timestamp="2008-12-03T01:32:33Z" uid="6269" user="Mueck" changeset="77285">
    <nd ref="292494119"/>
    <nd ref="292494220"/>
    <nd ref="292495279"/>
    <nd ref="292495280"/>
    <nd ref="292495281"/>
    <nd ref="292495283"/>
    <nd ref="292495287"/>
    <nd ref="292495291"/>
    <nd ref="292495292"/>
    <nd ref="292495294"/>
    <nd ref="292495296"/>
    <nd ref="292495299"/>
    <nd ref="292495302"/>
    <nd ref="292495303"/>
    <nd ref="255695039"/>
    <tag k="admin_level" v="8"/>
    <tag k="boundary" v="administrative"/>
    <tag k="note" v="neuer level nach DE:Grenze Gemeinde"/>
  </way>
  <way id="26668385" version="2" timestamp="2008-09-14T13:44:26Z" uid="6975" user="ulfl" changeset="640534">
    <nd ref="292496662"/>
    <nd ref="292496695"/>
    <nd ref="292496700"/>
    <nd ref="292496656"/>
    <nd ref="292496659"/>
    <nd ref="292496662"/>
    <tag k="amenity" v="car_repair"/>
    <tag k="area" v="yes"/>
    <tag k="name" v="ÖAMTC"/>
  </way>
  <way id="26668385" version="3" timestamp="2008-09-14T18:27:56Z" uid="6975" user="ulfl" changeset="640534">
    <nd ref="292496662"/>
    <nd ref="292496695"/>
    <nd ref="292496700"/>
    <nd ref="292496656"/>
    <nd ref="292496659"/>
    <nd ref="292496662"/>
    <tag k="area" v="yes"/>
    <tag k="name" v="ÖAMTC"/>
    <tag k="shop" v="car_repair"/>
  </way>
  <way id="26668385" version="4" timestamp="2009-06-08T16:26:48Z" uid="58091" user="Andreas M" changeset="1460351">
    <nd ref="292496662"/>
    <nd ref="292496695"/>
    <nd ref="292496700"/>
    <nd ref="292496656"/>
    <nd ref="292496659"/>
    <nd ref="292496662"/>
    <tag k="name" v="ÖAMTC"/>
    <tag k="shop" v="car_repair"/>
  </way>
  <way id="26668510" version="2" timestamp="2009-09-06T16:02:10Z" uid="33382" user="de_muur" changeset="2392840">
    <nd ref="259653116"/>
    <nd ref="29803934"/>
    <tag k="highway" v="tertiary"/>
    <tag k="name" v="Auf der Heide"/>
    <tag k="ref" v="K 113"/>
    <tag k="surface" v="paved"/>
  </way>
  <way id="26668511" version="2" timestamp="2008-10-11T17:57:15Z" uid="33382" user="de_muur" changeset="259750">
    <nd ref="292502626"/>
    <nd ref="292502628"/>
    <tag k="created_by" v="Potlatch 0.10b"/>
    <tag k="foot" v="yes"/>
    <tag k="highway" v="cycleway"/>
    <tag k="name" v="Auf der Heide"/>
    <tag k="ref" v="K 113"/>
  </way>
  <way id="26668513" version="2" timestamp="2008-10-11T17:57:17Z" uid="33382" user="de_muur" changeset="259750"/>
  <way id="26668514" version="2" timestamp="2008-10-11T17:57:18Z" uid="33382" user="de_muur" changeset="259750"/>
  <way id="26668517" version="3" timestamp="2009-03-01T18:40:50Z" uid="33382" user="de_muur" changeset="716431">
    <nd ref="289911939"/>
    <nd ref="247476636"/>
    <nd ref="354621338"/>
    <nd ref="354621337"/>
    <tag k="created_by" v="Potlatch 0.10b"/>
    <tag k="highway" v="unclassified"/>
    <tag k="name" v="Auf der Heide"/>
    <tag k="surface" v="paved"/>
  </way>
  <way id="26668545" version="2" timestamp="2009-07-26T00:21:20Z" uid="4467" user="Rosscoe" changeset="1939703">
    <nd ref="258029456"/>
    <nd ref="258029034"/>
    <nd ref="33084005"/>
    <nd ref="258029052"/>
    <nd ref="72491291"/>
    <nd ref="33084008"/>
    <nd ref="33084010"/>
    <nd ref="292483900"/>
    <nd ref="292483872"/>
    <nd ref="259746147"/>
    <nd ref="33084011"/>
    <nd ref="33084012"/>
    <tag k="highway" v="primary"/>
    <tag k="layer" v="1"/>
    <tag k="name" v="Windang Road"/>
    <tag k="oneway" v="yes"/>
    <tag k="source" v="survey"/>
  </way>
  <way id="26668546" version="2" timestamp="2009-08-03T04:21:12Z" uid="4467" user="Rosscoe" changeset="2021283">
    <nd ref="262920287"/>
    <nd ref="276378388"/>
    <tag k="bridge" v="yes"/>
    <tag k="highway" v="primary"/>
    <tag k="layer" v="1"/>
    <tag k="name" v="Windang Road"/>
    <tag k="oneway" v="yes"/>
    <tag k="ref" v="S151"/>
  </way>
  <way id="26668546" version="3" timestamp="2010-04-04T18:48:14Z" uid="74617" user="JohnSmith" changeset="4325742">
    <nd ref="262920287"/>
    <nd ref="276378388"/>
    <tag k="bridge" v="yes"/>
    <tag k="highway" v="primary"/>
    <tag k="layer" v="1"/>
    <tag k="name" v="Windang Road"/>
    <tag k="oneway" v="yes"/>
  </way>
  <way id="26668596" version="5" timestamp="2010-12-27T02:39:00Z" uid="23543" user="jkjk" changeset="6774042">
    <nd ref="292505163"/>
    <nd ref="292505164"/>
    <nd ref="370571855"/>
    <nd ref="370571632"/>
    <nd ref="292505165"/>
    <nd ref="292505167"/>
    <nd ref="292505170"/>
    <nd ref="292505172"/>
    <nd ref="292505173"/>
    <nd ref="292505174"/>
    <nd ref="292505178"/>
    <nd ref="292505179"/>
    <nd ref="292505180"/>
    <nd ref="1067004977"/>
    <nd ref="328319333"/>
    <nd ref="328319336"/>
    <nd ref="328319340"/>
    <nd ref="328319344"/>
    <nd ref="1067004575"/>
    <nd ref="1067004962"/>
    <nd ref="1067004820"/>
    <nd ref="1067004657"/>
    <nd ref="1067004874"/>
    <nd ref="1067004988"/>
    <nd ref="1067004850"/>
    <nd ref="1067004812"/>
    <nd ref="1067004698"/>
    <nd ref="1067004888"/>
    <nd ref="1067004755"/>
    <nd ref="1067004582"/>
    <nd ref="1067004767"/>
    <nd ref="1067004647"/>
    <nd ref="1067004613"/>
    <nd ref="1067004903"/>
    <nd ref="1067004719"/>
    <nd ref="1067004597"/>
    <nd ref="1067004979"/>
    <nd ref="1067004838"/>
    <nd ref="1067004623"/>
    <nd ref="1067004914"/>
    <nd ref="1067004881"/>
    <nd ref="1067004750"/>
    <nd ref="1067004910"/>
    <nd ref="1067004773"/>
    <nd ref="1067004991"/>
    <nd ref="1067004853"/>
    <nd ref="1067004631"/>
    <nd ref="1067004891"/>
    <nd ref="1067004756"/>
    <nd ref="1067004587"/>
    <nd ref="1067004870"/>
    <nd ref="1067004831"/>
    <nd ref="330366166"/>
    <tag k="highway" v="tertiary"/>
    <tag k="source" v="Yahoo, bing"/>
  </way>
  <way id="26668604" version="3" timestamp="2010-02-13T02:20:28Z" uid="7617" user="Franc" changeset="3861793">
    <nd ref="292505352"/>
    <nd ref="637968451"/>
    <nd ref="637968449"/>
    <nd ref="248606276"/>
    <nd ref="637968447"/>
    <nd ref="637968439"/>
    <tag k="highway" v="secondary"/>
    <tag k="name" v="Haywards Bay Drive"/>
  </way>
  <way id="26668604" version="4" timestamp="2010-04-27T06:39:29Z" uid="4467" user="Rosscoe" changeset="4538302">
    <nd ref="292505352"/>
    <nd ref="637968451"/>
    <nd ref="637968449"/>
    <nd ref="637968447"/>
    <nd ref="637968439"/>
    <tag k="highway" v="secondary"/>
    <tag k="name" v="Haywards Bay Drive"/>
  </way>
  <way id="26668605" version="2" timestamp="2010-03-02T00:18:19Z" uid="30201" user="rrankin" changeset="4013712">
    <nd ref="292505364"/>
    <nd ref="292505352"/>
    <tag k="bridge" v="yes"/>
    <tag k="highway" v="secondary"/>
    <tag k="layer" v="1"/>
    <tag k="name" v="Haywards Bay Drive"/>
  </way>
  <way id="26668680" version="2" timestamp="2008-08-31T23:46:42Z" uid="1066" user="pavel" changeset="485373">
    <nd ref="25655033"/>
    <nd ref="25655044"/>
    <nd ref="25655045"/>
    <nd ref="290933323"/>
    <nd ref="25655049"/>
    <nd ref="25655050"/>
    <nd ref="25655051"/>
    <tag k="created_by" v="Potlatch 0.10b"/>
    <tag k="highway" v="residential"/>
    <tag k="name" v="Ovocný trh"/>
    <tag k="name:source" v="nameit/uir-adr"/>
  </way>
  <way id="26668687" version="13" timestamp="2011-04-18T18:46:23Z" uid="33382" user="de_muur" changeset="7899955">
    <nd ref="274954588"/>
    <nd ref="274954589"/>
    <nd ref="1125863023"/>
    <nd ref="899836994"/>
    <tag k="highway" v="tertiary"/>
    <tag k="maxspeed" v="50"/>
    <tag k="name" v="Stellichte"/>
    <tag k="ref" v="K 124"/>
    <tag k="surface" v="paved"/>
  </way>
</osm>
