<?xml version='1.0' encoding='UTF-8'?>
<osm version="0.6" generator="libosmium/2.20.0">
  <way id="26671172" version="2" timestamp="2011-01-03T15:19:35Z" uid="65847" user="LKK" changeset="6850827"/>
  <way id="26671499" version="5" timestamp="2010-07-09T04:02:45Z" uid="74617" user="JohnSmith" changeset="5170825">
    <nd ref="292434139"/>
    <nd ref="292521685"/>
    <nd ref="292521686"/>
    <nd ref="292521412"/>
    <nd ref="292529488"/>
    <nd ref="292521687"/>
    <nd ref="292521414"/>
    <nd ref="292521415"/>
    <nd ref="292521416"/>
    <nd ref="292521688"/>
    <nd ref="292529042"/>
    <nd ref="292521689"/>
    <nd ref="292521690"/>
    <nd ref="292521421"/>
    <nd ref="292521422"/>
    <nd ref="292521691"/>
    <nd ref="292521424"/>
    <tag k="highway" v="residential"/>
    <tag k="maxspeed" v="50"/>
    <tag k="maxspeed:source" v="default residential speed limit in Australia"/>
    <tag k="name" v="Bartram Rise"/>
  </way>
  <way id="26671531" version="6" timestamp="2010-07-09T04:06:29Z" uid="74617" user="JohnSmith" changeset="5170825">
    <nd ref="292522029"/>
    <nd ref="292522329"/>
    <nd ref="292522803"/>
    <nd ref="292523203"/>
    <nd ref="292522331"/>
    <nd ref="292522332"/>
    <tag k="highway" v="residential"/>
    <tag k="maxspeed" v="50"/>
    <tag k="maxspeed:source" v="default residential speed limit in Australia"/>
    <tag k="name" v="Rohan Street"/>
  </way>
  <way id="26671547" version="2" timestamp="2010-07-09T03:59:45Z" uid="74617" user="JohnSmith" changeset="5170825">
    <nd ref="292522803"/>
    <nd ref="292434297"/>
    <tag k="highway" v="residential"/>
    <tag k="maxspeed" v="50"/>
    <tag k="maxspeed:source" v="default residential speed limit in Australia"/>
    <tag k="name" v="Moran Street"/>
  </way>
  <way id="26671569" version="2" timestamp="2010-07-09T03:58:38Z" uid="74617" user="JohnSmith" changeset="5170825">
    <nd ref="292523203"/>
    <nd ref="292434299"/>
    <tag k="highway" v="residential"/>
    <tag k="maxspeed" v="50"/>
    <tag k="maxspeed:source" v="default residential speed limit in Australia"/>
    <tag k="name" v="Royston Street"/>
  </way>
  <way id="26671581" version="5" timestamp="2010-07-09T04:13:03Z" uid="74617" user="JohnSmith" changeset="5170825">
    <nd ref="292434295"/>
    <nd ref="292523729"/>
    <nd ref="292523553"/>
    <tag k="highway" v="residential"/>
    <tag k="maxspeed" v="50"/>
    <tag k="maxspeed:source" v="default residential speed limit in Australia"/>
    <tag k="name" v="Lena Street"/>
  </way>
  <way id="26671588" version="4" timestamp="2010-07-09T03:57:52Z" uid="74617" user="JohnSmith" changeset="5170825">
    <nd ref="292523729"/>
    <nd ref="292534580"/>
    <nd ref="292534664"/>
    <nd ref="292523969"/>
    <nd ref="292534610"/>
    <nd ref="292534582"/>
    <nd ref="292523971"/>
    <tag k="highway" v="residential"/>
    <tag k="maxspeed" v="50"/>
    <tag k="maxspeed:source" v="default residential speed limit in Australia"/>
    <tag k="name" v="O&apos;Donnell Street"/>
  </way>
  <way id="26671609" version="3" timestamp="2008-09-30T07:01:20Z" uid="6975" user="ulfl" changeset="721471">
    <nd ref="292520941"/>
    <nd ref="297013339"/>
    <nd ref="292524420"/>
    <nd ref="292524435"/>
    <nd ref="292524426"/>
    <nd ref="292524428"/>
    <nd ref="292524429"/>
    <nd ref="292524431"/>
    <nd ref="292524442"/>
    <nd ref="301066415"/>
    <nd ref="301066416"/>
    <nd ref="301066417"/>
    <nd ref="301066418"/>
    <nd ref="301066419"/>
    <nd ref="301066420"/>
    <nd ref="301066421"/>
    <nd ref="301066425"/>
    <nd ref="266912301"/>
    <tag k="created_by" v="Potlatch 0.10b"/>
    <tag k="highway" v="secondary"/>
  </way>
  <way id="26671615" version="3" timestamp="2010-07-09T04:10:03Z" uid="74617" user="JohnSmith" changeset="5170825">
    <nd ref="292434291"/>
    <nd ref="292524682"/>
    <nd ref="292524778"/>
    <tag k="highway" v="residential"/>
    <tag k="maxspeed" v="50"/>
    <tag k="maxspeed:source" v="default residential speed limit in Australia"/>
    <tag k="name" v="Diane Crescent"/>
  </way>
  <way id="26671631" version="1" timestamp="2008-08-31T10:45:26Z" uid="7617" user="Franc" changeset="474901">
    <nd ref="14693469"/>
    <nd ref="20930486"/>
    <nd ref="14693479"/>
    <nd ref="14693470"/>
    <nd ref="20930190"/>
    <nd ref="20930210"/>
    <tag k="abutters" v="mixed"/>
    <tag k="created_by" v="Potlatch 0.10b"/>
    <tag k="highway" v="secondary"/>
    <tag k="name" v="Goulburn Street"/>
  </way>
  <way id="26671631" version="3" timestamp="2009-12-16T04:52:37Z" uid="30201" user="rrankin" changeset="3384480">
    <nd ref="14693469"/>
    <nd ref="20930486"/>
    <nd ref="14693479"/>
    <nd ref="14693470"/>
    <nd ref="20930190"/>
    <nd ref="20930210"/>
    <tag k="highway" v="secondary"/>
    <tag k="name" v="Goulburn Street"/>
  </way>
  <way id="26671631" version="5" timestamp="2010-03-11T13:24:12Z" uid="7617" user="Franc" changeset="4097674">
    <nd ref="14693469"/>
    <nd ref="20930486"/>
    <nd ref="14693479"/>
    <nd ref="14693470"/>
    <nd ref="20930190"/>
    <nd ref="594418886"/>
    <nd ref="664020842"/>
    <nd ref="594418890"/>
    <nd ref="20930210"/>
    <tag k="highway" v="secondary"/>
    <tag k="name" v="Goulburn Street"/>
  </way>
  <way id="26671631" version="6" timestamp="2010-05-15T02:45:05Z" uid="7617" user="Franc" changeset="4702113">
    <nd ref="14693469"/>
    <nd ref="734825750"/>
    <nd ref="20930486"/>
    <nd ref="14693479"/>
    <nd ref="14693470"/>
    <nd ref="20930190"/>
    <nd ref="594418886"/>
    <nd ref="664020842"/>
    <nd ref="594418890"/>
    <nd ref="20930210"/>
    <tag k="highway" v="secondary"/>
    <tag k="name" v="Goulburn Street"/>
  </way>
  <way id="26671632" version="1" timestamp="2008-08-31T10:45:27Z" uid="7617" user="Franc" changeset="474901">
    <nd ref="14693469"/>
    <nd ref="13764193"/>
    <nd ref="20930477"/>
    <nd ref="292464163"/>
    <nd ref="20930479"/>
    <nd ref="13767790"/>
    <nd ref="8234982"/>
    <nd ref="13757743"/>
    <nd ref="15449305"/>
    <nd ref="8234985"/>
    <nd ref="15405017"/>
    <nd ref="18249072"/>
    <nd ref="20827942"/>
    <nd ref="15406811"/>
    <nd ref="291725442"/>
    <nd ref="26358531"/>
    <nd ref="15406814"/>
    <tag k="abutters" v="retail"/>
    <tag k="created_by" v="Potlatch 0.9c"/>
    <tag k="highway" v="primary"/>
    <tag k="name" v="George Street"/>
  </way>
  <way id="26671632" version="2" timestamp="2008-11-17T03:12:42Z" uid="7617" user="Franc" changeset="759040">
    <nd ref="14693469"/>
    <nd ref="13764193"/>
    <nd ref="20930477"/>
    <nd ref="292464163"/>
    <nd ref="20930479"/>
    <nd ref="13767790"/>
    <nd ref="8234982"/>
    <nd ref="13757743"/>
    <nd ref="15449305"/>
    <nd ref="8234985"/>
    <nd ref="15405017"/>
    <nd ref="18249072"/>
    <nd ref="312683798"/>
    <nd ref="20827942"/>
    <nd ref="15406811"/>
    <nd ref="312683862"/>
    <nd ref="291725442"/>
    <nd ref="26358531"/>
    <nd ref="15406814"/>
    <tag k="abutters" v="retail"/>
    <tag k="created_by" v="Potlatch 0.9c"/>
    <tag k="highway" v="primary"/>
    <tag k="name" v="George Street"/>
  </way>
  <way id="26671632" version="3" timestamp="2008-12-04T11:27:34Z" uid="7617" user="Franc" changeset="107422">
    <nd ref="14693469"/>
    <nd ref="13764193"/>
    <nd ref="20930477"/>
    <nd ref="292464163"/>
    <nd ref="20930479"/>
    <nd ref="13767790"/>
    <nd ref="8234982"/>
    <nd ref="13757743"/>
    <nd ref="15449305"/>
    <nd ref="8234985"/>
    <nd ref="15405017"/>
    <nd ref="18249072"/>
    <nd ref="312683798"/>
    <nd ref="316595225"/>
    <nd ref="20827942"/>
    <nd ref="15406811"/>
    <nd ref="312683862"/>
    <nd ref="291725442"/>
    <nd ref="26358531"/>
    <nd ref="15406814"/>
    <tag k="abutters" v="retail"/>
    <tag k="created_by" v="Potlatch 0.9c"/>
    <tag k="highway" v="primary"/>
    <tag k="name" v="George Street"/>
  </way>
  <way id="26671632" version="6" timestamp="2009-12-24T10:27:55Z" uid="30201" user="rrankin" changeset="3440994">
    <nd ref="14693469"/>
    <nd ref="13764193"/>
    <nd ref="20930477"/>
    <nd ref="292464163"/>
    <nd ref="20930479"/>
    <nd ref="13767790"/>
    <nd ref="8234982"/>
    <nd ref="13757743"/>
    <nd ref="15449305"/>
    <nd ref="8234985"/>
    <nd ref="15405017"/>
    <nd ref="18249072"/>
    <tag k="highway" v="primary"/>
    <tag k="name" v="George Street"/>
  </way>
  <way id="26671632" version="7" timestamp="2010-03-01T07:37:42Z" uid="7617" user="Franc" changeset="4006279">
    <nd ref="14693469"/>
    <nd ref="657757342"/>
    <nd ref="13764193"/>
    <nd ref="657757348"/>
    <nd ref="20930477"/>
    <nd ref="20930479"/>
    <nd ref="657757349"/>
    <nd ref="13767790"/>
    <nd ref="8234982"/>
    <nd ref="13757743"/>
    <nd ref="15449305"/>
    <nd ref="8234985"/>
    <nd ref="15405017"/>
    <nd ref="18249072"/>
    <tag k="highway" v="primary"/>
    <tag k="name" v="George Street"/>
  </way>
  <way id="26671633" version="2" timestamp="2009-09-30T13:41:09Z" uid="36809" user="pfoten_weg_!_" changeset="2688655">
    <nd ref="48904904"/>
    <nd ref="48904906"/>
    <nd ref="96138339"/>
    <tag k="railway" v="rail"/>
  </way>
  <way id="26671634" version="3" timestamp="2009-09-30T13:41:09Z" uid="36809" user="pfoten_weg_!_" changeset="2688655">
    <nd ref="48919174"/>
    <nd ref="48922648"/>
    <nd ref="104727168"/>
    <tag k="railway" v="rail"/>
  </way>
  <way id="26671635" version="1" timestamp="2008-08-31T10:45:29Z" uid="7617" user="Franc" changeset="474901">
    <nd ref="8588632"/>
    <nd ref="20828186"/>
    <nd ref="8588635"/>
    <nd ref="18249478"/>
    <nd ref="15449300"/>
    <nd ref="13877962"/>
    <tag k="abutters" v="mixed"/>
    <tag k="created_by" v="JOSM"/>
    <tag k="highway" v="unclassified"/>
    <tag k="image" v="80n:dsc04147.jpg"/>
    <tag k="name" v="Kent Street"/>
    <tag k="oneway" v="yes"/>
  </way>
  <way id="26671635" version="7" timestamp="2010-01-06T00:57:56Z" uid="30201" user="rrankin" changeset="3550442">
    <nd ref="8588632"/>
    <nd ref="20828186"/>
    <nd ref="8588635"/>
    <nd ref="18249478"/>
    <tag k="highway" v="unclassified"/>
    <tag k="image" v="80n:dsc04147.jpg"/>
    <tag k="maxspeed" v="50"/>
    <tag k="name" v="Kent Street"/>
    <tag k="oneway" v="yes"/>
  </way>
  <way id="26671635" version="8" timestamp="2010-04-13T12:35:55Z" uid="7617" user="Franc" changeset="4413359">
    <nd ref="8588632"/>
    <nd ref="20828186"/>
    <nd ref="18249478"/>
    <tag k="highway" v="unclassified"/>
    <tag k="image" v="80n:dsc04147.jpg"/>
    <tag k="maxspeed" v="50"/>
    <tag k="name" v="Kent Street"/>
    <tag k="oneway" v="yes"/>
  </way>
  <way id="26671639" version="3" timestamp="2010-05-11T05:21:20Z" uid="4467" user="Rosscoe" changeset="4665603">
    <nd ref="292434289"/>
    <nd ref="292525292"/>
    <tag k="highway" v="residential"/>
    <tag k="name" v="Lillian Court"/>
    <tag k="source" v="nearmap"/>
  </way>
  <way id="26671639" version="4" timestamp="2010-07-09T04:12:09Z" uid="74617" user="JohnSmith" changeset="5170825">
    <nd ref="292434289"/>
    <nd ref="292525292"/>
    <tag k="highway" v="residential"/>
    <tag k="maxspeed" v="50"/>
    <tag k="maxspeed:source" v="default residential speed limit in Australia"/>
    <tag k="name" v="Lillian Court"/>
    <tag k="source" v="nearmap"/>
  </way>
  <way id="26671646" version="4" timestamp="2008-12-09T11:23:22Z" uid="18775" user="drlizau" changeset="281246">
    <nd ref="252206920"/>
    <nd ref="303255250"/>
    <nd ref="303255299"/>
    <nd ref="292525598"/>
    <tag k="created_by" v="Potlatch 0.10d"/>
    <tag k="highway" v="residential"/>
    <tag k="is_in" v="Walkerville,South Australia,Australia"/>
    <tag k="maxspeed" v="50"/>
    <tag k="name" v="Burlington Street"/>
    <tag k="postal_code" v="5081"/>
  </way>
  <way id="26671664" version="4" timestamp="2010-05-11T04:49:42Z" uid="4467" user="Rosscoe" changeset="4665541">
    <nd ref="292434287"/>
    <nd ref="729467175"/>
    <nd ref="292525868"/>
    <tag k="highway" v="residential"/>
    <tag k="name" v="Neville Court"/>
    <tag k="source" v="nearmap"/>
  </way>
  <way id="26671664" version="5" timestamp="2010-07-09T04:07:32Z" uid="74617" user="JohnSmith" changeset="5170825">
    <nd ref="292434287"/>
    <nd ref="729467175"/>
    <nd ref="292525868"/>
    <tag k="highway" v="residential"/>
    <tag k="maxspeed" v="50"/>
    <tag k="maxspeed:source" v="default residential speed limit in Australia"/>
    <tag k="name" v="Neville Court"/>
    <tag k="source" v="nearmap"/>
  </way>
  <way id="26671667" version="6" timestamp="2011-04-14T23:56:30Z" uid="23543" user="jkjk" changeset="7866072">
    <nd ref="187694908"/>
    <nd ref="187700772"/>
    <nd ref="187700767"/>
    <tag k="highway" v="tertiary"/>
    <tag k="name" v="LipanskÃ¡"/>
    <tag k="ref" v="3339"/>
    <tag k="source:ref" v="rsd_cr"/>
  </way>
  <way id="26671668" version="3" timestamp="2009-09-30T12:55:36Z" uid="36809" user="pfoten_weg_!_" changeset="2687909">
    <nd ref="13803206"/>
    <nd ref="315880150"/>
    <nd ref="13803183"/>
    <nd ref="26105685"/>
    <tag k="railway" v="rail"/>
  </way>
  <way id="26671672" version="3" timestamp="2010-07-09T04:02:32Z" uid="74617" user="JohnSmith" changeset="5170825">
    <nd ref="292526313"/>
    <nd ref="292526487"/>
    <nd ref="292526729"/>
    <tag k="highway" v="residential"/>
    <tag k="maxspeed" v="50"/>
    <tag k="maxspeed:source" v="default residential speed limit in Australia"/>
    <tag k="name" v="Walker Court"/>
  </way>
  <way id="26671680" version="4" timestamp="2010-07-09T04:01:18Z" uid="74617" user="JohnSmith" changeset="5170825">
    <nd ref="292526814"/>
    <nd ref="292527126"/>
    <nd ref="292527020"/>
    <nd ref="292527021"/>
    <tag k="highway" v="residential"/>
    <tag k="maxspeed" v="50"/>
    <tag k="maxspeed:source" v="default residential speed limit in Australia"/>
    <tag k="name" v="Dunlunce Court"/>
  </way>
  <way id="26671681" version="1" timestamp="2008-08-31T10:48:57Z" uid="61114" user="Trav" changeset="479734">
    <nd ref="242403097"/>
    <nd ref="292527066"/>
    <tag k="created_by" v="Merkaartor 0.12"/>
    <tag k="highway" v="service"/>
    <tag k="name" v="Pole Lane"/>
    <tag k="source:name" v="survey"/>
  </way>
  <way id="26671688" version="3" timestamp="2010-07-09T04:12:20Z" uid="74617" user="JohnSmith" changeset="5170825">
    <nd ref="292527199"/>
    <nd ref="292527369"/>
    <nd ref="292527468"/>
    <nd ref="292527371"/>
    <nd ref="292527372"/>
    <nd ref="292527469"/>
    <tag k="highway" v="residential"/>
    <tag k="maxspeed" v="50"/>
    <tag k="maxspeed:source" v="default residential speed limit in Australia"/>
    <tag k="name" v="Springbank Rise"/>
  </way>
  <way id="26671691" version="2" timestamp="2010-07-09T04:02:10Z" uid="74617" user="JohnSmith" changeset="5170825">
    <nd ref="292527507"/>
    <nd ref="292527744"/>
    <nd ref="292527745"/>
    <nd ref="292527747"/>
    <nd ref="292527748"/>
    <tag k="highway" v="residential"/>
    <tag k="maxspeed" v="50"/>
    <tag k="maxspeed:source" v="default residential speed limit in Australia"/>
    <tag k="name" v="Fran Crescent"/>
  </way>
  <way id="26671699" version="2" timestamp="2010-07-09T04:00:52Z" uid="74617" user="JohnSmith" changeset="5170825">
    <nd ref="292527794"/>
    <nd ref="292528008"/>
    <tag k="highway" v="residential"/>
    <tag k="maxspeed" v="50"/>
    <tag k="maxspeed:source" v="default residential speed limit in Australia"/>
    <tag k="name" v="Nestan Court"/>
  </way>
  <way id="26671699" version="3" timestamp="2011-04-24T02:58:27Z" uid="4467" user="Rosscoe" changeset="7948963">
    <nd ref="292527794"/>
    <nd ref="1257539939"/>
    <nd ref="292528008"/>
    <tag k="highway" v="residential"/>
    <tag k="maxspeed" v="50"/>
    <tag k="maxspeed:source" v="default residential speed limit in Australia"/>
    <tag k="name" v="Nestan Court"/>
  </way>
  <way id="26671739" version="2" timestamp="2010-07-09T03:58:44Z" uid="74617" user="JohnSmith" changeset="5170825">
    <nd ref="292521421"/>
    <nd ref="292528958"/>
    <nd ref="292528959"/>
    <tag k="highway" v="residential"/>
    <tag k="maxspeed" v="50"/>
    <tag k="maxspeed:source" v="default residential speed limit in Australia"/>
    <tag k="name" v="Tranquil Winter Court"/>
  </way>
  <way id="26671741" version="3" timestamp="2010-07-09T04:08:53Z" uid="74617" user="JohnSmith" changeset="5170825">
    <nd ref="292529042"/>
    <nd ref="292529203"/>
    <tag k="highway" v="residential"/>
    <tag k="maxspeed" v="50"/>
    <tag k="maxspeed:source" v="default residential speed limit in Australia"/>
    <tag k="name" v="Walter Withers Court"/>
  </way>
  <way id="26671744" version="3" timestamp="2010-07-09T04:08:32Z" uid="74617" user="JohnSmith" changeset="5170825">
    <nd ref="292521687"/>
    <nd ref="292529328"/>
    <nd ref="292529385"/>
    <tag k="highway" v="residential"/>
    <tag k="maxspeed" v="50"/>
    <tag k="maxspeed:source" v="default residential speed limit in Australia"/>
    <tag k="name" v="The Silo"/>
  </way>
  <way id="26671756" version="2" timestamp="2010-07-09T04:05:59Z" uid="74617" user="JohnSmith" changeset="5170825">
    <nd ref="292529488"/>
    <nd ref="292529869"/>
    <tag k="highway" v="residential"/>
    <tag k="maxspeed" v="50"/>
    <tag k="maxspeed:source" v="default residential speed limit in Australia"/>
    <tag k="name" v="Wurrunjerri Place"/>
  </way>
  <way id="26671779" version="2" timestamp="2010-07-09T04:01:58Z" uid="74617" user="JohnSmith" changeset="5170825">
    <nd ref="292434163"/>
    <nd ref="292530177"/>
    <nd ref="292530178"/>
    <tag k="highway" v="residential"/>
    <tag k="maxspeed" v="50"/>
    <tag k="maxspeed:source" v="default residential speed limit in Australia"/>
    <tag k="name" v="Apple Blossom Court"/>
  </way>
  <way id="26671789" version="3" timestamp="2010-07-09T04:06:18Z" uid="74617" user="JohnSmith" changeset="5170825">
    <nd ref="292436027"/>
    <nd ref="292530682"/>
    <nd ref="292530626"/>
    <tag k="highway" v="residential"/>
    <tag k="maxspeed" v="50"/>
    <tag k="maxspeed:source" v="default residential speed limit in Australia"/>
    <tag k="name" v="Barnhill Close"/>
  </way>
  <way id="26671905" version="6" timestamp="2010-07-09T04:13:18Z" uid="74617" user="JohnSmith" changeset="5170825">
    <nd ref="292434255"/>
    <nd ref="292532127"/>
    <nd ref="292532445"/>
    <nd ref="292532129"/>
    <nd ref="292532543"/>
    <nd ref="292532131"/>
    <nd ref="292532132"/>
    <nd ref="292532447"/>
    <nd ref="292532576"/>
    <nd ref="292532134"/>
    <nd ref="292532643"/>
    <nd ref="292532577"/>
    <nd ref="292532449"/>
    <nd ref="662774859"/>
    <nd ref="292532450"/>
    <nd ref="292532139"/>
    <nd ref="292532645"/>
    <nd ref="292532143"/>
    <tag k="highway" v="residential"/>
    <tag k="maxspeed" v="50"/>
    <tag k="maxspeed:source" v="default residential speed limit in Australia"/>
    <tag k="name" v="Somerset Drive"/>
  </way>
  <way id="26671935" version="4" timestamp="2010-07-09T04:13:52Z" uid="74617" user="JohnSmith" changeset="5170825">
    <nd ref="292532543"/>
    <nd ref="292532818"/>
    <tag k="highway" v="residential"/>
    <tag k="maxspeed" v="50"/>
    <tag k="maxspeed:source" v="default residential speed limit in Australia"/>
    <tag k="name" v="Cardiff Close"/>
  </way>
  <way id="26671938" version="4" timestamp="2010-07-09T04:13:32Z" uid="74617" user="JohnSmith" changeset="5170825">
    <nd ref="292532576"/>
    <nd ref="292532631"/>
    <tag k="highway" v="residential"/>
    <tag k="maxspeed" v="50"/>
    <tag k="maxspeed:source" v="default residential speed limit in Australia"/>
    <tag k="name" v="Greenwich Place"/>
  </way>
  <way id="26671941" version="5" timestamp="2010-07-09T04:03:20Z" uid="74617" user="JohnSmith" changeset="5170825">
    <nd ref="292532643"/>
    <nd ref="292533018"/>
    <tag k="highway" v="residential"/>
    <tag k="maxspeed" v="50"/>
    <tag k="maxspeed:source" v="default residential speed limit in Australia"/>
    <tag k="name" v="Nottingham Court"/>
  </way>
  <way id="26671968" version="2" timestamp="2010-07-09T04:08:01Z" uid="74617" user="JohnSmith" changeset="5170825">
    <nd ref="292434391"/>
    <nd ref="292533954"/>
    <nd ref="292533955"/>
    <nd ref="292533956"/>
    <nd ref="292533957"/>
    <nd ref="292533958"/>
    <nd ref="292533959"/>
    <nd ref="292533961"/>
    <tag k="highway" v="residential"/>
    <tag k="maxspeed" v="50"/>
    <tag k="maxspeed:source" v="default residential speed limit in Australia"/>
    <tag k="name" v="Cheryl Grove"/>
  </way>
  <way id="26671970" version="3" timestamp="2010-07-09T04:01:15Z" uid="74617" user="JohnSmith" changeset="5170825">
    <nd ref="292434387"/>
    <nd ref="292534128"/>
    <tag k="highway" v="residential"/>
    <tag k="maxspeed" v="50"/>
    <tag k="maxspeed:source" v="default residential speed limit in Australia"/>
    <tag k="name" v="De Burgh Court"/>
  </way>
  <way id="26671974" version="3" timestamp="2010-07-09T04:03:33Z" uid="74617" user="JohnSmith" changeset="5170825">
    <nd ref="292534250"/>
    <nd ref="292534397"/>
    <nd ref="292534540"/>
    <tag k="highway" v="residential"/>
    <tag k="maxspeed" v="50"/>
    <tag k="maxspeed:source" v="default residential speed limit in Australia"/>
    <tag k="name" v="Rosebud Parade"/>
  </way>
</osm>
