<?xml version='1.0' encoding='UTF-8'?>
<osm version="0.6" generator="libosmium/2.20.0">
  <way id="26760274" version="10" timestamp="2011-05-08T19:14:22Z" uid="9581" user="Lobelt" changeset="8086383">
    <nd ref="293521430"/>
    <nd ref="293521432"/>
    <nd ref="293396775"/>
    <tag k="access" v="no"/>
    <tag k="highway" v="residential"/>
    <tag k="name" v="SchulstraÃŸe"/>
  </way>
  <way id="26760513" version="2" timestamp="2008-12-30T05:41:35Z" uid="19626" user="Swamp" changeset="668001">
    <nd ref="293519854"/>
    <nd ref="293521783"/>
    <nd ref="293521787"/>
    <nd ref="293521790"/>
    <nd ref="293521793"/>
    <nd ref="293519843"/>
    <tag k="highway" v="residential"/>
    <tag k="source" v="Yahoo_Images"/>
  </way>
  <way id="26760513" version="3" timestamp="2009-09-13T08:37:29Z" uid="7617" user="Franc" changeset="2466522">
    <nd ref="293519854"/>
    <nd ref="293521783"/>
    <nd ref="293521790"/>
    <nd ref="293521793"/>
    <nd ref="293519843"/>
    <tag k="highway" v="residential"/>
    <tag k="name" v="The Kraal Drive"/>
    <tag k="source" v="survey"/>
  </way>
  <way id="26760513" version="4" timestamp="2010-03-20T06:09:12Z" uid="7617" user="Franc" changeset="4176629">
    <nd ref="293519854"/>
    <nd ref="293521783"/>
    <nd ref="293521790"/>
    <nd ref="670198083"/>
    <nd ref="293521793"/>
    <tag k="highway" v="residential"/>
    <tag k="name" v="The Kraal Drive"/>
    <tag k="source" v="survey"/>
  </way>
  <way id="26760513" version="5" timestamp="2010-03-20T13:13:45Z" uid="7617" user="Franc" changeset="4179590">
    <nd ref="293519853"/>
    <nd ref="293521783"/>
    <tag k="highway" v="residential"/>
    <tag k="name" v="The Kraal Drive"/>
    <tag k="oneway" v="yes"/>
    <tag k="source" v="survey"/>
  </way>
  <way id="26760513" version="6" timestamp="2010-07-07T20:37:01Z" uid="74617" user="JohnSmith" changeset="5161069">
    <nd ref="293519853"/>
    <nd ref="293521783"/>
    <tag k="highway" v="residential"/>
    <tag k="maxspeed" v="50"/>
    <tag k="maxspeed:source" v="default residential speed limit in Australia"/>
    <tag k="name" v="The Kraal Drive"/>
    <tag k="oneway" v="yes"/>
    <tag k="source" v="survey"/>
  </way>
  <way id="26760514" version="2" timestamp="2010-03-20T13:13:46Z" uid="7617" user="Franc" changeset="4179590"/>
  <way id="26760516" version="2" timestamp="2010-03-20T06:09:13Z" uid="7617" user="Franc" changeset="4176629">
    <nd ref="293519843"/>
    <nd ref="293521793"/>
    <nd ref="293519844"/>
    <tag k="highway" v="residential"/>
    <tag k="name" v="The Kraal Drive"/>
    <tag k="oneway" v="yes"/>
    <tag k="source" v="survey"/>
  </way>
  <way id="26760516" version="3" timestamp="2010-07-07T20:34:59Z" uid="74617" user="JohnSmith" changeset="5161069">
    <nd ref="293519843"/>
    <nd ref="293521793"/>
    <nd ref="293519844"/>
    <tag k="highway" v="residential"/>
    <tag k="maxspeed" v="50"/>
    <tag k="maxspeed:source" v="default residential speed limit in Australia"/>
    <tag k="name" v="The Kraal Drive"/>
    <tag k="oneway" v="yes"/>
    <tag k="source" v="survey"/>
  </way>
  <way id="26760518" version="3" timestamp="2009-09-13T08:37:30Z" uid="7617" user="Franc" changeset="2466522">
    <nd ref="293520389"/>
    <nd ref="293521794"/>
    <tag k="highway" v="residential"/>
    <tag k="name" v="The Kraal Drive"/>
    <tag k="oneway" v="yes"/>
    <tag k="source" v="survey"/>
  </way>
  <way id="26760518" version="4" timestamp="2010-07-07T20:33:43Z" uid="74617" user="JohnSmith" changeset="5161069">
    <nd ref="293520389"/>
    <nd ref="293521794"/>
    <tag k="highway" v="residential"/>
    <tag k="maxspeed" v="50"/>
    <tag k="maxspeed:source" v="default residential speed limit in Australia"/>
    <tag k="name" v="The Kraal Drive"/>
    <tag k="oneway" v="yes"/>
    <tag k="source" v="survey"/>
  </way>
  <way id="26760519" version="3" timestamp="2009-09-13T08:37:30Z" uid="7617" user="Franc" changeset="2466522">
    <nd ref="293519831"/>
    <nd ref="293521802"/>
    <tag k="highway" v="residential"/>
    <tag k="name" v="The Kraal Drive"/>
    <tag k="oneway" v="yes"/>
    <tag k="source" v="survey"/>
  </way>
  <way id="26760519" version="4" timestamp="2010-07-07T20:38:25Z" uid="74617" user="JohnSmith" changeset="5161069">
    <nd ref="293519831"/>
    <nd ref="293521802"/>
    <tag k="highway" v="residential"/>
    <tag k="maxspeed" v="50"/>
    <tag k="maxspeed:source" v="default residential speed limit in Australia"/>
    <tag k="name" v="The Kraal Drive"/>
    <tag k="oneway" v="yes"/>
    <tag k="source" v="survey"/>
  </way>
  <way id="26760521" version="3" timestamp="2009-09-13T08:37:26Z" uid="7617" user="Franc" changeset="2466522">
    <nd ref="293521794"/>
    <nd ref="293519848"/>
    <tag k="highway" v="residential"/>
    <tag k="name" v="The Kraal Drive"/>
    <tag k="oneway" v="yes"/>
    <tag k="source" v="survey"/>
  </way>
  <way id="26760521" version="4" timestamp="2010-07-07T20:31:56Z" uid="74617" user="JohnSmith" changeset="5161069">
    <nd ref="293521794"/>
    <nd ref="293519848"/>
    <tag k="highway" v="residential"/>
    <tag k="maxspeed" v="50"/>
    <tag k="maxspeed:source" v="default residential speed limit in Australia"/>
    <tag k="name" v="The Kraal Drive"/>
    <tag k="oneway" v="yes"/>
    <tag k="source" v="survey"/>
  </way>
  <way id="26760522" version="4" timestamp="2008-12-30T05:49:06Z" uid="19626" user="Swamp" changeset="668001">
    <nd ref="293519850"/>
    <nd ref="293521804"/>
    <nd ref="293521805"/>
    <nd ref="323065770"/>
    <nd ref="293521806"/>
    <tag k="created_by" v="Potlatch 0.10b"/>
    <tag k="highway" v="residential"/>
    <tag k="lanes" v="2"/>
    <tag k="source" v="Yahoo_Images"/>
  </way>
  <way id="26760522" version="5" timestamp="2009-09-13T08:37:33Z" uid="7617" user="Franc" changeset="2466522"/>
  <way id="26760525" version="2" timestamp="2009-09-13T08:37:27Z" uid="7617" user="Franc" changeset="2466522">
    <nd ref="293519855"/>
    <nd ref="293521809"/>
    <tag k="highway" v="residential"/>
    <tag k="name" v="Keighran Mill Drive"/>
    <tag k="oneway" v="yes"/>
    <tag k="source" v="survey"/>
  </way>
  <way id="26760525" version="3" timestamp="2010-07-07T20:34:44Z" uid="74617" user="JohnSmith" changeset="5161069">
    <nd ref="293519855"/>
    <nd ref="293521809"/>
    <tag k="highway" v="residential"/>
    <tag k="maxspeed" v="50"/>
    <tag k="maxspeed:source" v="default residential speed limit in Australia"/>
    <tag k="name" v="Keighran Mill Drive"/>
    <tag k="oneway" v="yes"/>
    <tag k="source" v="survey"/>
  </way>
  <way id="26760527" version="2" timestamp="2009-09-13T08:37:28Z" uid="7617" user="Franc" changeset="2466522">
    <nd ref="293521809"/>
    <nd ref="293519856"/>
    <tag k="highway" v="residential"/>
    <tag k="name" v="Keighran Mill Drive"/>
    <tag k="oneway" v="yes"/>
    <tag k="source" v="survey"/>
  </way>
  <way id="26760527" version="3" timestamp="2010-07-07T20:33:25Z" uid="74617" user="JohnSmith" changeset="5161069">
    <nd ref="293521809"/>
    <nd ref="293519856"/>
    <tag k="highway" v="residential"/>
    <tag k="maxspeed" v="50"/>
    <tag k="maxspeed:source" v="default residential speed limit in Australia"/>
    <tag k="name" v="Keighran Mill Drive"/>
    <tag k="oneway" v="yes"/>
    <tag k="source" v="survey"/>
  </way>
  <way id="26760528" version="2" timestamp="2009-09-13T08:37:31Z" uid="7617" user="Franc" changeset="2466522">
    <nd ref="293519859"/>
    <nd ref="293521810"/>
    <tag k="highway" v="residential"/>
    <tag k="name" v="Keighran Mill Drive"/>
    <tag k="oneway" v="yes"/>
    <tag k="source" v="survey"/>
  </way>
  <way id="26760528" version="3" timestamp="2010-07-07T20:34:19Z" uid="74617" user="JohnSmith" changeset="5161069">
    <nd ref="293519859"/>
    <nd ref="293521810"/>
    <tag k="highway" v="residential"/>
    <tag k="maxspeed" v="50"/>
    <tag k="maxspeed:source" v="default residential speed limit in Australia"/>
    <tag k="name" v="Keighran Mill Drive"/>
    <tag k="oneway" v="yes"/>
    <tag k="source" v="survey"/>
  </way>
</osm>
