<?xml version='1.0' encoding='UTF-8'?>
<osm version="0.6" generator="libosmium/2.20.0">
  <way id="26812053" version="1" timestamp="2008-09-06T13:50:00Z" uid="58091" user="Andreas M" changeset="549614">
    <nd ref="248791814"/>
    <nd ref="294124431"/>
    <tag k="bridge" v="yes"/>
    <tag k="created_by" v="Potlatch 0.10b"/>
    <tag k="layer" v="1"/>
    <tag k="name" v="Badnerbahn"/>
    <tag k="railway" v="tram"/>
  </way>
  <way id="26812053" version="2" timestamp="2008-09-06T14:53:02Z" uid="58091" user="Andreas M" changeset="549614">
    <nd ref="248791814"/>
    <nd ref="294124431"/>
    <tag k="bridge" v="yes"/>
    <tag k="created_by" v="Potlatch 0.10b"/>
    <tag k="layer" v="1"/>
    <tag k="name" v="62, Badner Bahn"/>
    <tag k="railway" v="tram"/>
  </way>
  <way id="26812054" version="1" timestamp="2008-09-06T13:50:00Z" uid="58091" user="Andreas M" changeset="549614">
    <nd ref="294124431"/>
    <nd ref="248791815"/>
    <nd ref="248791816"/>
    <nd ref="248791817"/>
    <nd ref="248791818"/>
    <nd ref="248791819"/>
    <nd ref="61842952"/>
    <nd ref="293734740"/>
    <nd ref="287280973"/>
    <nd ref="78185101"/>
    <nd ref="78206150"/>
    <nd ref="267621524"/>
    <nd ref="61841435"/>
    <nd ref="78184537"/>
    <nd ref="293283446"/>
    <nd ref="293283447"/>
    <nd ref="293283448"/>
    <nd ref="293283449"/>
    <nd ref="293284376"/>
    <nd ref="293284383"/>
    <nd ref="293284378"/>
    <tag k="created_by" v="Potlatch 0.10b"/>
    <tag k="name" v="Badnerbahn"/>
    <tag k="railway" v="tram"/>
  </way>
  <way id="26812054" version="2" timestamp="2008-09-06T14:39:32Z" uid="58091" user="Andreas M" changeset="549614">
    <nd ref="294124431"/>
    <nd ref="248791815"/>
    <nd ref="248791816"/>
    <nd ref="248791817"/>
    <nd ref="248791818"/>
    <nd ref="248791819"/>
    <nd ref="294134554"/>
    <nd ref="61842952"/>
    <nd ref="293734740"/>
    <tag k="created_by" v="Potlatch 0.10b"/>
    <tag k="name" v="62, Badnerbahn"/>
    <tag k="railway" v="tram"/>
  </way>
  <way id="26812054" version="3" timestamp="2008-09-06T14:53:02Z" uid="58091" user="Andreas M" changeset="549614">
    <nd ref="294124431"/>
    <nd ref="248791815"/>
    <nd ref="248791816"/>
    <nd ref="248791817"/>
    <nd ref="248791818"/>
    <nd ref="248791819"/>
    <nd ref="294134554"/>
    <nd ref="61842952"/>
    <nd ref="293734740"/>
    <tag k="created_by" v="Potlatch 0.10b"/>
    <tag k="name" v="62, Badner Bahn"/>
    <tag k="railway" v="tram"/>
  </way>
  <way id="26812054" version="4" timestamp="2008-12-08T14:28:53Z" uid="58091" user="Andreas M" changeset="255397">
    <nd ref="294124431"/>
    <nd ref="248791815"/>
    <nd ref="248791816"/>
    <nd ref="248791817"/>
    <nd ref="248791818"/>
    <nd ref="317406771"/>
    <nd ref="248791819"/>
    <nd ref="294134554"/>
    <nd ref="61842952"/>
    <nd ref="293734740"/>
    <tag k="created_by" v="Potlatch 0.10b"/>
    <tag k="name" v="62, Badner Bahn"/>
    <tag k="railway" v="tram"/>
  </way>
  <way id="26812054" version="5" timestamp="2009-01-05T07:41:42Z" uid="58091" user="Andreas M" changeset="735458">
    <nd ref="294124431"/>
    <nd ref="248791815"/>
    <nd ref="248791816"/>
    <nd ref="248791817"/>
    <nd ref="248791818"/>
    <nd ref="317406771"/>
    <nd ref="326767046"/>
    <nd ref="248791819"/>
    <nd ref="294134554"/>
    <tag k="created_by" v="Potlatch 0.10b"/>
    <tag k="name" v="62, Badner Bahn"/>
    <tag k="railway" v="tram"/>
  </way>
  <way id="26812054" version="6" timestamp="2009-02-07T11:58:53Z" uid="58091" user="Andreas M" changeset="247803">
    <nd ref="294124431"/>
    <nd ref="248791815"/>
    <nd ref="248791816"/>
    <nd ref="248791817"/>
    <nd ref="248791818"/>
    <nd ref="317406771"/>
    <tag k="created_by" v="Potlatch 0.10b"/>
    <tag k="name" v="62, Badner Bahn"/>
    <tag k="railway" v="tram"/>
  </way>
  <way id="26812054" version="7" timestamp="2009-02-22T12:54:24Z" uid="58091" user="Andreas M" changeset="607437">
    <nd ref="294124431"/>
    <nd ref="349088716"/>
    <nd ref="248791815"/>
    <nd ref="248791816"/>
    <nd ref="248791817"/>
    <nd ref="248791818"/>
    <nd ref="317406771"/>
    <tag k="created_by" v="Potlatch 0.10b"/>
    <tag k="name" v="62, Badner Bahn"/>
    <tag k="railway" v="tram"/>
  </way>
  <way id="26812104" version="13" timestamp="2010-01-20T23:08:43Z" uid="9581" user="Lobelt" changeset="3671384">
    <nd ref="10804390"/>
    <nd ref="294124483"/>
    <nd ref="340471884"/>
    <nd ref="294124485"/>
    <nd ref="340471879"/>
    <nd ref="340471875"/>
    <nd ref="294210876"/>
    <nd ref="294124491"/>
    <nd ref="294124494"/>
    <nd ref="294124844"/>
    <nd ref="294124496"/>
    <nd ref="617400680"/>
    <tag k="highway" v="residential"/>
    <tag k="name" v="Schmittgasse"/>
    <tag k="surface" v="paved"/>
  </way>
  <way id="26812182" version="3" timestamp="2008-10-29T00:27:06Z" uid="67142" user="zottel" changeset="618553">
    <nd ref="294125108"/>
    <nd ref="294125113"/>
    <nd ref="294125114"/>
    <nd ref="294125115"/>
    <nd ref="294125116"/>
    <nd ref="294125117"/>
    <nd ref="294125118"/>
    <nd ref="294125119"/>
    <nd ref="294125120"/>
    <nd ref="294125121"/>
    <nd ref="294125122"/>
    <nd ref="294125123"/>
    <nd ref="294125108"/>
    <tag k="addr:city" v="Pforzheim"/>
    <tag k="addr:housenumber" v="77"/>
    <tag k="addr:postcode" v="75172"/>
    <tag k="addr:street" v="Westliche Karl-Friedrich-Straße"/>
    <tag k="building" v="yes"/>
    <tag k="fax" v="+49 7231 427106"/>
    <tag k="layer" v="1"/>
    <tag k="name" v="Haus der Jugend"/>
    <tag k="phone" v="+49 7231 427103"/>
    <tag k="url" v="http://www.hdj.sjr-pforzheim.de/"/>
  </way>
  <way id="26812184" version="2" timestamp="2008-10-15T20:13:33Z" uid="67142" user="zottel" changeset="362982">
    <nd ref="255235321"/>
    <nd ref="255235320"/>
    <nd ref="255235319"/>
    <nd ref="255235318"/>
    <nd ref="304863521"/>
    <nd ref="255235312"/>
    <nd ref="255235309"/>
    <nd ref="255235310"/>
    <nd ref="29580230"/>
    <tag k="created_by" v="JOSM"/>
    <tag k="highway" v="residential"/>
    <tag k="name" v="Tunnelstraße"/>
  </way>
  <way id="26812184" version="3" timestamp="2008-10-15T20:49:22Z" uid="67142" user="zottel" changeset="362982">
    <nd ref="255235321"/>
    <nd ref="255235320"/>
    <nd ref="255235319"/>
    <nd ref="304871845"/>
    <nd ref="255235318"/>
    <nd ref="304863521"/>
    <nd ref="304871846"/>
    <nd ref="255235312"/>
    <nd ref="255235309"/>
    <nd ref="255235310"/>
    <nd ref="29580230"/>
    <tag k="created_by" v="JOSM"/>
    <tag k="highway" v="residential"/>
    <tag k="name" v="Tunnelstraße"/>
  </way>
  <way id="26812494" version="4" timestamp="2008-12-29T14:09:55Z" uid="65847" user="LKK" changeset="658143">
    <nd ref="281086409"/>
    <nd ref="322800660"/>
    <nd ref="281086410"/>
    <nd ref="322800686"/>
    <nd ref="292573153"/>
    <nd ref="281086414"/>
    <nd ref="322800682"/>
    <nd ref="322800683"/>
    <nd ref="281086423"/>
    <nd ref="322800676"/>
    <nd ref="281086426"/>
    <nd ref="281086428"/>
    <nd ref="281086430"/>
    <nd ref="292300662"/>
    <nd ref="322800667"/>
    <nd ref="322800666"/>
    <nd ref="281086436"/>
    <nd ref="281086437"/>
    <nd ref="292300640"/>
    <nd ref="322800662"/>
    <nd ref="281086408"/>
    <tag k="highway" v="residential"/>
    <tag k="name" v="Im Sonnenrech"/>
  </way>
  <way id="26812720" version="5" timestamp="2011-03-09T02:34:26Z" uid="4467" user="Rosscoe" changeset="7500451">
    <nd ref="294129166"/>
    <nd ref="294129167"/>
    <nd ref="294129168"/>
    <nd ref="294129169"/>
    <nd ref="294129166"/>
    <tag k="layer" v="1"/>
    <tag k="leisure" v="pitch"/>
    <tag k="name" v="Barry Dixon Field"/>
  </way>
  <way id="26812725" version="6" timestamp="2011-03-09T02:34:21Z" uid="4467" user="Rosscoe" changeset="7500451">
    <nd ref="294129188"/>
    <nd ref="294129189"/>
    <nd ref="294129190"/>
    <nd ref="294129191"/>
    <nd ref="294129188"/>
    <tag k="layer" v="1"/>
    <tag k="leisure" v="pitch"/>
    <tag k="name" v="Noel Clarke Field"/>
  </way>
  <way id="26812735" version="5" timestamp="2011-03-09T02:34:29Z" uid="4467" user="Rosscoe" changeset="7500451">
    <nd ref="294129265"/>
    <nd ref="294129219"/>
    <nd ref="294129248"/>
    <nd ref="294129221"/>
    <nd ref="294129265"/>
    <tag k="layer" v="1"/>
    <tag k="leisure" v="pitch"/>
    <tag k="name" v="Ange Postecoglou Field"/>
  </way>
  <way id="26812783" version="2" timestamp="2008-09-24T17:41:20Z" uid="67142" user="zottel" changeset="689697">
    <nd ref="294129922"/>
    <nd ref="294129925"/>
    <nd ref="294129930"/>
    <tag k="created_by" v="JOSM"/>
    <tag k="highway" v="footway"/>
    <tag k="name" v="Gabelsbergerstraße"/>
  </way>
  <way id="26812783" version="3" timestamp="2008-10-04T18:44:38Z" uid="67142" user="zottel" changeset="60699">
    <nd ref="294129922"/>
    <nd ref="302084419"/>
    <nd ref="294129925"/>
    <nd ref="294129930"/>
    <tag k="created_by" v="JOSM"/>
    <tag k="highway" v="footway"/>
    <tag k="name" v="Gabelsbergerstraße"/>
  </way>
  <way id="26812783" version="4" timestamp="2009-01-29T23:09:08Z" uid="67142" user="zottel" changeset="854207">
    <nd ref="294129922"/>
    <nd ref="302084419"/>
    <nd ref="294129925"/>
    <nd ref="294129930"/>
    <tag k="highway" v="footway"/>
  </way>
</osm>
