<?xml version='1.0' encoding='UTF-8'?>
<osm version="0.6" generator="libosmium/2.20.0">
  <way id="26940427" version="5" timestamp="2010-12-30T20:34:55Z" uid="9581" user="Lobelt" changeset="6813774">
    <nd ref="295203189"/>
    <nd ref="224359322"/>
    <tag k="bridge" v="yes"/>
    <tag k="highway" v="motorway"/>
    <tag k="lanes" v="2"/>
    <tag k="layer" v="1"/>
    <tag k="maxspeed" v="signals"/>
    <tag k="name" v="Schwarzbachtalbrücke"/>
    <tag k="oneway" v="yes"/>
    <tag k="ref" v="A 71"/>
  </way>
  <way id="26940429" version="2" timestamp="2010-12-30T20:34:29Z" uid="9581" user="Lobelt" changeset="6813774">
    <nd ref="21452857"/>
    <nd ref="295203189"/>
    <tag k="highway" v="motorway"/>
    <tag k="lanes" v="2"/>
    <tag k="maxspeed" v="signals"/>
    <tag k="oneway" v="yes"/>
    <tag k="ref" v="A 71"/>
  </way>
  <way id="26940429" version="4" timestamp="2011-04-14T06:43:33Z" uid="9581" user="Lobelt" changeset="7857961">
    <nd ref="21452857"/>
    <nd ref="295203189"/>
    <tag k="highway" v="motorway"/>
    <tag k="lanes" v="2"/>
    <tag k="maxspeed" v="signals"/>
    <tag k="oneway" v="yes"/>
    <tag k="ref" v="A 71"/>
  </way>
  <way id="26940431" version="6" timestamp="2010-12-30T20:34:35Z" uid="9581" user="Lobelt" changeset="6813774">
    <nd ref="203901271"/>
    <nd ref="299575285"/>
    <nd ref="21452857"/>
    <tag k="bridge" v="yes"/>
    <tag k="highway" v="motorway"/>
    <tag k="lanes" v="2"/>
    <tag k="layer" v="1"/>
    <tag k="maxspeed" v="signals"/>
    <tag k="name" v="Talbrücke Wilde Gera"/>
    <tag k="oneway" v="yes"/>
    <tag k="ref" v="A 71"/>
  </way>
  <way id="26940431" version="8" timestamp="2011-04-14T06:43:33Z" uid="9581" user="Lobelt" changeset="7857961">
    <nd ref="203901271"/>
    <nd ref="299575285"/>
    <nd ref="21452857"/>
    <tag k="bridge" v="yes"/>
    <tag k="highway" v="motorway"/>
    <tag k="lanes" v="2"/>
    <tag k="layer" v="1"/>
    <tag k="maxspeed" v="signals"/>
    <tag k="name" v="Talbrücke Wilde Gera"/>
    <tag k="oneway" v="yes"/>
    <tag k="ref" v="A 71"/>
  </way>
  <way id="26940433" version="2" timestamp="2010-12-30T20:34:34Z" uid="9581" user="Lobelt" changeset="6813774">
    <nd ref="203901256"/>
    <nd ref="1073746581"/>
    <nd ref="269248279"/>
    <nd ref="14208465"/>
    <tag k="highway" v="motorway"/>
    <tag k="lanes" v="2"/>
    <tag k="maxspeed" v="80"/>
    <tag k="oneway" v="yes"/>
    <tag k="ref" v="A 71"/>
  </way>
  <way id="26940502" version="8" timestamp="2010-03-28T00:02:54Z" uid="20587" user="balrog-kun" changeset="4250871">
    <nd ref="65295450"/>
    <nd ref="65295452"/>
    <nd ref="65295455"/>
    <nd ref="65295458"/>
    <nd ref="65295462"/>
    <nd ref="65295466"/>
    <nd ref="65295471"/>
    <nd ref="65295474"/>
    <nd ref="65295477"/>
    <nd ref="65295480"/>
    <nd ref="65295482"/>
    <nd ref="65295483"/>
    <nd ref="65295485"/>
    <nd ref="65295487"/>
    <nd ref="65293105"/>
    <nd ref="315362996"/>
    <nd ref="65295489"/>
    <nd ref="315357457"/>
    <nd ref="65295493"/>
    <nd ref="315357218"/>
    <nd ref="65295496"/>
    <nd ref="315357091"/>
    <nd ref="65295497"/>
    <nd ref="315357156"/>
    <nd ref="65295499"/>
    <nd ref="65295501"/>
    <tag k="created_by" v="Potlatch 0.10f"/>
    <tag k="highway" v="residential"/>
    <tag k="name" v="California Street"/>
    <tag k="tiger:cfcc" v="A41"/>
    <tag k="tiger:county" v="San Francisco, CA"/>
    <tag k="tiger:name_base" v="California"/>
    <tag k="tiger:name_type" v="St"/>
    <tag k="tiger:reviewed" v="no"/>
    <tag k="tiger:separated" v="no"/>
    <tag k="tiger:source" v="tiger_import_dch_v0.6_20070809"/>
    <tag k="tiger:tlid" v="192277202:192277260:192277261:192277263:192277281:192277282:192277285:192277199:192277443:192277444:192277447:192277449:192277466:192277468:192277518:192277463"/>
    <tag k="tiger:zip_left" v="94121"/>
    <tag k="tiger:zip_right" v="94121"/>
  </way>
  <way id="26940529" version="3" timestamp="2008-09-14T15:33:10Z" uid="6975" user="ulfl" changeset="640534">
    <nd ref="295180434"/>
    <nd ref="295180433"/>
    <nd ref="295180432"/>
    <nd ref="295180430"/>
    <nd ref="295180434"/>
    <tag k="garmin_type" v="0x8"/>
    <tag k="landuse" v="retail"/>
    <tag k="source" v="AlexAR Mapping Project"/>
  </way>
</osm>
