<?xml version='1.0' encoding='UTF-8'?>
<osm version="0.6" generator="libosmium/2.20.0">
  <way id="26954027" version="2" timestamp="2008-09-20T01:24:11Z" uid="36809" user="pfoten_weg_!_" changeset="670006"/>
  <way id="26954128" version="4" timestamp="2008-12-21T17:40:04Z" uid="49111" user="Markus B" changeset="529485">
    <nd ref="295351291"/>
    <nd ref="295351285"/>
    <nd ref="295351284"/>
    <nd ref="295351283"/>
    <nd ref="295351282"/>
    <nd ref="295351281"/>
    <nd ref="295351604"/>
    <nd ref="295351279"/>
    <nd ref="295351278"/>
    <nd ref="295351277"/>
    <nd ref="295351602"/>
    <nd ref="295351275"/>
    <nd ref="295351600"/>
    <nd ref="295351273"/>
    <nd ref="307766532"/>
    <nd ref="295351272"/>
    <tag k="created_by" v="Potlatch 0.10b"/>
    <tag k="highway" v="footway"/>
  </way>
  <way id="26954129" version="3" timestamp="2008-12-21T17:40:04Z" uid="49111" user="Markus B" changeset="529485">
    <nd ref="295351293"/>
    <nd ref="295351672"/>
    <nd ref="295351291"/>
    <tag k="created_by" v="Potlatch 0.10b"/>
    <tag k="highway" v="footway"/>
  </way>
  <way id="26954147" version="3" timestamp="2008-12-21T17:40:05Z" uid="49111" user="Markus B" changeset="529485">
    <nd ref="295351707"/>
    <nd ref="295351706"/>
    <nd ref="295351705"/>
    <nd ref="295351704"/>
    <nd ref="295351703"/>
    <nd ref="295351476"/>
    <nd ref="295351475"/>
    <nd ref="295351474"/>
    <nd ref="295351473"/>
    <nd ref="295351472"/>
    <nd ref="295351293"/>
    <tag k="created_by" v="Potlatch 0.10b"/>
    <tag k="highway" v="footway"/>
  </way>
  <way id="26954172" version="4" timestamp="2008-09-14T18:14:07Z" uid="6975" user="ulfl" changeset="640534">
    <nd ref="295351841"/>
    <nd ref="295354333"/>
    <nd ref="295351843"/>
    <nd ref="295351844"/>
    <nd ref="295351851"/>
    <nd ref="295351846"/>
    <nd ref="295351828"/>
    <tag k="bridge" v="yes"/>
    <tag k="highway" v="primary"/>
    <tag k="int_ref" v="E90"/>
    <tag k="lanes" v="2"/>
    <tag k="layer" v="1"/>
    <tag k="length" v="210"/>
    <tag k="name" v="Sarandaporos (Spiliotopoulos) Bridge"/>
    <tag k="name:de" v="Sarandaporos (Spiliotopoulos) Brücke"/>
    <tag k="name:en" v="Sarandaporos (Spiliotopoulos) Bridge"/>
    <tag k="name:fr" v="Pont Sarandaporos (Spiliotopoulos)"/>
    <tag k="oneway" v="no"/>
    <tag k="ref" v="EO20"/>
  </way>
  <way id="26954195" version="3" timestamp="2011-03-17T16:38:26Z" uid="49111" user="Markus B" changeset="7587113">
    <nd ref="295352105"/>
    <nd ref="1205822252"/>
    <nd ref="1205821178"/>
    <nd ref="1205822348"/>
    <nd ref="1205822638"/>
    <nd ref="1205821142"/>
    <nd ref="295352164"/>
    <nd ref="1205822634"/>
    <tag k="man_made" v="pier"/>
  </way>
  <way id="26954293" version="11" timestamp="2010-03-23T18:27:58Z" uid="115477" user="wowik" changeset="4214632">
    <nd ref="303226922"/>
    <nd ref="659992482"/>
    <nd ref="659992483"/>
    <nd ref="295353193"/>
    <nd ref="295353195"/>
    <tag k="highway" v="unclassified"/>
    <tag k="oneway" v="yes"/>
  </way>
  <way id="26954330" version="4" timestamp="2010-03-23T18:27:57Z" uid="115477" user="wowik" changeset="4214632">
    <nd ref="295353195"/>
    <nd ref="295353117"/>
    <nd ref="295353157"/>
    <nd ref="308231508"/>
    <tag k="highway" v="unclassified"/>
  </way>
  <way id="26954392" version="1" timestamp="2008-09-09T14:13:57Z" uid="43863" user="Rundling" changeset="582421">
    <nd ref="295353883"/>
    <nd ref="295353889"/>
    <nd ref="295353893"/>
    <nd ref="295353897"/>
    <nd ref="295353901"/>
    <nd ref="295353905"/>
    <nd ref="295353908"/>
    <nd ref="295353911"/>
    <nd ref="295353883"/>
    <tag k="building" v="yes"/>
    <tag k="created_by" v="Merkaartor 0.11"/>
    <tag k="name" v="Autohaus Wolter"/>
  </way>
  <way id="26954392" version="2" timestamp="2009-03-18T15:58:37Z" uid="43863" user="Rundling" changeset="827029">
    <nd ref="295353883"/>
    <nd ref="295353889"/>
    <nd ref="295353893"/>
    <nd ref="295353897"/>
    <nd ref="362579504"/>
    <nd ref="362579506"/>
    <nd ref="295353908"/>
    <nd ref="295353911"/>
    <nd ref="295353883"/>
    <tag k="building" v="yes"/>
    <tag k="created_by" v="Merkaartor 0.11"/>
    <tag k="name" v="Autohaus Wolter"/>
  </way>
  <way id="26954392" version="3" timestamp="2009-03-18T15:59:11Z" uid="43863" user="Rundling" changeset="827029">
    <nd ref="362580013"/>
    <nd ref="362580016"/>
    <nd ref="295353893"/>
    <nd ref="295353897"/>
    <nd ref="362579504"/>
    <nd ref="362579506"/>
    <nd ref="295353908"/>
    <nd ref="295353911"/>
    <nd ref="362580013"/>
    <tag k="building" v="yes"/>
    <tag k="created_by" v="Merkaartor 0.11"/>
    <tag k="name" v="Autohaus Wolter"/>
  </way>
  <way id="26954392" version="4" timestamp="2009-06-19T15:37:30Z" uid="43863" user="Rundling" changeset="1566059">
    <nd ref="362580016"/>
    <nd ref="425593511"/>
    <nd ref="425593512"/>
    <nd ref="362579504"/>
    <nd ref="362579506"/>
    <nd ref="425593507"/>
    <nd ref="425593509"/>
    <nd ref="425593505"/>
    <nd ref="362580016"/>
    <tag k="building" v="yes"/>
    <tag k="name" v="Autohaus Wolter"/>
  </way>
  <way id="26954392" version="5" timestamp="2009-06-28T06:39:53Z" uid="43863" user="Rundling" changeset="1659142">
    <nd ref="362580016"/>
    <nd ref="425593511"/>
    <nd ref="425593512"/>
    <nd ref="362579504"/>
    <nd ref="362579506"/>
    <nd ref="425593507"/>
    <nd ref="425593509"/>
    <nd ref="425593505"/>
    <nd ref="362580016"/>
    <tag k="addr:city" v="Uelzen"/>
    <tag k="addr:country" v="DE"/>
    <tag k="addr:housename" v="Autohaus Wolter"/>
    <tag k="addr:housenumber" v="12"/>
    <tag k="addr:postcode" v="29525"/>
    <tag k="addr:street" v="Seebohmstraße"/>
    <tag k="building" v="yes"/>
    <tag k="name" v="Autohaus Wolter"/>
  </way>
  <way id="26954392" version="6" timestamp="2011-01-03T15:52:33Z" uid="43863" user="Rundling" changeset="6851133">
    <nd ref="362580016"/>
    <nd ref="425593511"/>
    <nd ref="425593512"/>
    <nd ref="362579504"/>
    <nd ref="362579506"/>
    <nd ref="425593507"/>
    <nd ref="425593509"/>
    <nd ref="1080612035"/>
    <nd ref="362580016"/>
    <tag k="addr:city" v="Uelzen"/>
    <tag k="addr:country" v="DE"/>
    <tag k="addr:housename" v="Autohaus Wolter"/>
    <tag k="addr:housenumber" v="12"/>
    <tag k="addr:postcode" v="29525"/>
    <tag k="addr:street" v="Seebohmstraße"/>
    <tag k="building" v="yes"/>
    <tag k="name" v="Autohaus Wolter"/>
  </way>
  <way id="26954433" version="1" timestamp="2008-09-09T14:17:15Z" uid="43863" user="Rundling" changeset="582421">
    <nd ref="295354941"/>
    <nd ref="295354942"/>
    <nd ref="295354944"/>
    <nd ref="295354945"/>
    <nd ref="295354946"/>
    <nd ref="295354941"/>
    <tag k="building" v=""/>
    <tag k="created_by" v="Merkaartor 0.11"/>
    <tag k="landuse" v="industrial"/>
  </way>
  <way id="26954433" version="2" timestamp="2008-09-09T14:18:23Z" uid="43863" user="Rundling" changeset="582421">
    <nd ref="295354941"/>
    <nd ref="295354942"/>
    <nd ref="295354944"/>
    <nd ref="295355104"/>
    <nd ref="295354945"/>
    <nd ref="295354946"/>
    <nd ref="295354941"/>
    <tag k="building" v=""/>
    <tag k="created_by" v="Merkaartor 0.11"/>
    <tag k="landuse" v="industrial"/>
  </way>
  <way id="26954433" version="4" timestamp="2008-10-18T14:11:40Z" uid="43863" user="Rundling" changeset="411878">
    <nd ref="295354941"/>
    <nd ref="295354942"/>
    <nd ref="295354944"/>
    <nd ref="295354945"/>
    <nd ref="295354946"/>
    <nd ref="295354941"/>
    <tag k="created_by" v="Merkaartor 0.11"/>
    <tag k="landuse" v="industrial"/>
  </way>
  <way id="26954433" version="5" timestamp="2009-03-17T16:09:57Z" uid="43863" user="Rundling" changeset="822844"/>
  <way id="26954455" version="1" timestamp="2008-09-09T14:17:34Z" uid="43863" user="Rundling" changeset="582421">
    <nd ref="295354946"/>
    <nd ref="295354949"/>
    <nd ref="295354951"/>
    <tag k="created_by" v="Merkaartor 0.11"/>
    <tag k="highway" v="service"/>
    <tag k="oneway" v="no"/>
  </way>
  <way id="26954455" version="2" timestamp="2009-03-18T11:12:16Z" uid="43863" user="Rundling" changeset="826607">
    <nd ref="362285695"/>
    <nd ref="295354949"/>
    <nd ref="295354951"/>
    <tag k="created_by" v="Merkaartor 0.11"/>
    <tag k="highway" v="service"/>
    <tag k="oneway" v="no"/>
  </way>
  <way id="26954455" version="3" timestamp="2011-03-24T19:13:45Z" uid="43863" user="Rundling" changeset="7658872">
    <nd ref="362285695"/>
    <nd ref="1216357846"/>
    <nd ref="295354949"/>
    <nd ref="295354951"/>
    <nd ref="1216357857"/>
    <nd ref="1216357780"/>
    <nd ref="1216357880"/>
    <nd ref="1216357757"/>
    <nd ref="1216357859"/>
    <tag k="highway" v="service"/>
    <tag k="oneway" v="no"/>
  </way>
  <way id="26954505" version="1" timestamp="2008-09-09T14:22:12Z" uid="9581" user="Lobelt" changeset="586241">
    <nd ref="268045550"/>
    <nd ref="288455860"/>
    <nd ref="288455862"/>
    <nd ref="288455864"/>
    <nd ref="288455865"/>
    <nd ref="288455867"/>
    <nd ref="288455869"/>
    <nd ref="288455871"/>
    <nd ref="288455873"/>
    <nd ref="288455875"/>
    <nd ref="288455877"/>
    <nd ref="288455914"/>
    <nd ref="288455921"/>
    <nd ref="288455922"/>
    <nd ref="288455924"/>
    <nd ref="288455926"/>
    <nd ref="288455927"/>
    <nd ref="288455929"/>
    <nd ref="288455930"/>
    <nd ref="288455931"/>
    <nd ref="288455932"/>
    <nd ref="288455933"/>
    <nd ref="288455934"/>
    <nd ref="288455935"/>
    <nd ref="288455936"/>
    <nd ref="288455937"/>
    <nd ref="288455938"/>
    <nd ref="288455939"/>
    <nd ref="288455940"/>
    <nd ref="288455941"/>
    <nd ref="288455942"/>
    <nd ref="288455943"/>
    <nd ref="288455974"/>
    <nd ref="288455975"/>
    <nd ref="288455976"/>
    <nd ref="288455978"/>
    <nd ref="288455979"/>
    <nd ref="288455981"/>
    <nd ref="288455982"/>
    <nd ref="288455983"/>
    <nd ref="288455984"/>
    <nd ref="288455985"/>
    <tag k="created_by" v="Potlatch 0.10b"/>
    <tag k="highway" v="track"/>
    <tag k="tracktype" v="grade3"/>
  </way>
  <way id="26954637" version="1" timestamp="2008-09-09T14:33:27Z" uid="9581" user="Lobelt" changeset="586241">
    <nd ref="287425848"/>
    <nd ref="268045661"/>
    <nd ref="268045662"/>
    <nd ref="268045663"/>
    <nd ref="268045664"/>
    <nd ref="268045665"/>
    <nd ref="268045666"/>
    <nd ref="268045667"/>
    <nd ref="268045669"/>
    <nd ref="268045670"/>
    <nd ref="168264209"/>
    <tag k="created_by" v="Potlatch 0.10b"/>
    <tag k="highway" v="unclassified"/>
  </way>
  <way id="26954644" version="3" timestamp="2010-07-24T03:19:24Z" uid="9581" user="Lobelt" changeset="5300532">
    <nd ref="295358877"/>
    <nd ref="295358878"/>
    <nd ref="295358881"/>
    <nd ref="295358883"/>
    <nd ref="295358884"/>
    <nd ref="830812966"/>
    <nd ref="295358887"/>
    <nd ref="295358888"/>
    <nd ref="320564347"/>
    <nd ref="295358891"/>
    <tag k="highway" v="track"/>
    <tag k="tracktype" v="grade1"/>
  </way>
  <way id="26954674" version="1" timestamp="2008-09-09T14:37:01Z" uid="43863" user="Rundling" changeset="582421">
    <nd ref="295359446"/>
    <nd ref="295359448"/>
    <nd ref="295359449"/>
    <tag k="bicycle" v="yes"/>
    <tag k="created_by" v="Potlatch 0.10b"/>
    <tag k="foot" v="yes"/>
    <tag k="highway" v="footway"/>
  </way>
  <way id="26954674" version="2" timestamp="2008-09-09T14:37:21Z" uid="43863" user="Rundling" changeset="582421">
    <nd ref="295359528"/>
    <nd ref="295359448"/>
    <nd ref="295359449"/>
    <tag k="bicycle" v="yes"/>
    <tag k="created_by" v="Potlatch 0.10b"/>
    <tag k="foot" v="yes"/>
    <tag k="highway" v="footway"/>
  </way>
  <way id="26954674" version="3" timestamp="2008-09-10T10:18:21Z" uid="43863" user="Rundling" changeset="593466"/>
  <way id="26954724" version="2" timestamp="2008-12-01T01:07:11Z" uid="49111" user="Markus B" changeset="24386">
    <nd ref="291658807"/>
    <nd ref="291659088"/>
    <nd ref="291659076"/>
    <nd ref="291659087"/>
    <nd ref="291659074"/>
    <nd ref="282414202"/>
    <nd ref="291659336"/>
    <nd ref="291659313"/>
    <nd ref="282414201"/>
    <nd ref="282414199"/>
    <tag k="created_by" v="Potlatch 0.10b"/>
    <tag k="highway" v="unclassified"/>
  </way>
  <way id="26954728" version="2" timestamp="2008-12-01T01:07:12Z" uid="49111" user="Markus B" changeset="24386">
    <nd ref="291658573"/>
    <nd ref="291658578"/>
    <nd ref="291658579"/>
    <nd ref="291658580"/>
    <nd ref="291658581"/>
    <nd ref="291658582"/>
    <tag k="created_by" v="Potlatch 0.10b"/>
    <tag k="highway" v="residential"/>
    <tag k="name" v="Gans Görgl Straße"/>
  </way>
  <way id="26954815" version="2" timestamp="2008-09-14T17:26:30Z" uid="6975" user="ulfl" changeset="640534">
    <nd ref="295360588"/>
    <nd ref="295360575"/>
    <tag k="highway" v="unclassified"/>
    <tag k="surface" v="cobblestone"/>
  </way>
  <way id="26954829" version="5" timestamp="2008-10-14T08:55:37Z" uid="27600" user="Islanit" changeset="320010">
    <nd ref="295361143"/>
    <nd ref="304509643"/>
    <tag k="created_by" v="Potlatch 0.10e"/>
    <tag k="name" v="Am Stadtpark"/>
    <tag k="tracktype" v="grade2"/>
  </way>
  <way id="26954831" version="6" timestamp="2008-10-14T08:55:35Z" uid="27600" user="Islanit" changeset="320010">
    <nd ref="295361279"/>
    <nd ref="304509643"/>
    <nd ref="295361172"/>
    <tag k="created_by" v="Potlatch 0.10e"/>
    <tag k="highway" v="track"/>
    <tag k="name" v="Am Stadtpark"/>
    <tag k="tracktype" v="grade2"/>
  </way>
  <way id="26954871" version="1" timestamp="2008-09-09T14:46:10Z" uid="43863" user="Rundling" changeset="582421">
    <nd ref="295361581"/>
    <nd ref="295339449"/>
    <tag k="created_by" v="Potlatch 0.10b"/>
    <tag k="highway" v="service"/>
  </way>
  <way id="26954902" version="1" timestamp="2008-09-09T14:48:27Z" uid="43863" user="Rundling" changeset="582421">
    <nd ref="295362797"/>
    <nd ref="295362799"/>
    <nd ref="295362800"/>
    <nd ref="295362801"/>
    <nd ref="295362797"/>
    <tag k="building" v="yes"/>
    <tag k="created_by" v="Potlatch 0.10b"/>
    <tag k="name" v="OHE"/>
  </way>
  <way id="26954902" version="2" timestamp="2009-03-14T09:19:46Z" uid="43863" user="Rundling" changeset="804701">
    <nd ref="295362797"/>
    <nd ref="295362799"/>
    <nd ref="295362800"/>
    <nd ref="295362801"/>
    <nd ref="295362797"/>
    <tag k="building" v="yes"/>
    <tag k="name" v="OHE"/>
  </way>
  <way id="26954959" version="3" timestamp="2008-09-14T00:18:03Z" uid="6975" user="ulfl" changeset="628567">
    <nd ref="282192794"/>
    <nd ref="282192797"/>
    <nd ref="295280091"/>
    <nd ref="282192798"/>
    <tag k="highway" v="primary"/>
    <tag k="loc_name" v="Via Dante Alighieri"/>
    <tag k="name" v="Strada provinciale"/>
    <tag k="ref" v="SS464"/>
  </way>
  <way id="26954974" version="6" timestamp="2008-10-14T08:55:13Z" uid="27600" user="Islanit" changeset="320010">
    <nd ref="295366799"/>
    <nd ref="295366295"/>
    <nd ref="304509572"/>
    <nd ref="295365984"/>
    <tag k="access" v="destination"/>
    <tag k="created_by" v="Potlatch 0.10e"/>
    <tag k="highway" v="residential"/>
    <tag k="name" v="Hohendorfer Weg"/>
  </way>
  <way id="26954974" version="7" timestamp="2008-10-14T08:55:20Z" uid="27600" user="Islanit" changeset="320010">
    <nd ref="295366799"/>
    <nd ref="295366295"/>
    <nd ref="304509600"/>
    <nd ref="304509572"/>
    <nd ref="295365984"/>
    <tag k="access" v="destination"/>
    <tag k="created_by" v="Potlatch 0.10e"/>
    <tag k="highway" v="residential"/>
    <tag k="name" v="Hohendorfer Weg"/>
  </way>
  <way id="26954974" version="8" timestamp="2008-10-14T08:56:06Z" uid="27600" user="Islanit" changeset="320010">
    <nd ref="304509692"/>
    <nd ref="295366799"/>
    <nd ref="295366295"/>
    <nd ref="304509600"/>
    <nd ref="304509572"/>
    <nd ref="295365984"/>
    <tag k="access" v="destination"/>
    <tag k="created_by" v="Potlatch 0.10e"/>
    <tag k="highway" v="residential"/>
    <tag k="name" v="Hohendorfer Weg"/>
  </way>
</osm>
