<?xml version='1.0' encoding='UTF-8'?>
<osm version="0.6" generator="libosmium/2.20.0">
  <way id="2698138" version="1" timestamp="2007-07-31T08:01:48Z" uid="7617" user="Franc" changeset="180684">
    <nd ref="29057427"/>
    <nd ref="12225973"/>
    <nd ref="12225974"/>
    <nd ref="12225975"/>
    <nd ref="12225978"/>
    <nd ref="12225983"/>
    <nd ref="12225984"/>
    <tag k="created_by" v="JOSM"/>
    <tag k="highway" v="secondary"/>
    <tag k="name" v="The Crescent"/>
  </way>
  <way id="2698138" version="2" timestamp="2007-12-02T02:30:16Z" uid="7617" user="Franc" changeset="28389">
    <nd ref="29057427"/>
    <nd ref="12225973"/>
    <nd ref="12225974"/>
    <nd ref="12225975"/>
    <nd ref="147180819"/>
    <nd ref="12225978"/>
    <nd ref="12225983"/>
    <nd ref="12225984"/>
    <tag k="created_by" v="JOSM"/>
    <tag k="highway" v="secondary"/>
    <tag k="name" v="The Crescent"/>
  </way>
  <way id="2698138" version="4" timestamp="2008-04-14T08:27:26Z" uid="7617" user="Franc" changeset="145270">
    <nd ref="29057427"/>
    <nd ref="12225973"/>
    <nd ref="257515313"/>
    <nd ref="12225974"/>
    <tag k="created_by" v="Potlatch 0.6"/>
    <tag k="highway" v="secondary"/>
    <tag k="name" v="The Crescent"/>
  </way>
  <way id="2698138" version="5" timestamp="2008-05-10T01:32:24Z" uid="7617" user="Franc" changeset="377622">
    <nd ref="29057427"/>
    <nd ref="263073197"/>
    <nd ref="12225973"/>
    <nd ref="257515313"/>
    <nd ref="12225974"/>
    <tag k="created_by" v="Potlatch 0.6"/>
    <tag k="highway" v="secondary"/>
    <tag k="name" v="The Crescent"/>
  </way>
  <way id="2698140" version="1" timestamp="2007-09-08T05:36:11Z" uid="7617" user="Franc" changeset="394498">
    <nd ref="12226006"/>
    <nd ref="29113884"/>
    <nd ref="26363031"/>
    <nd ref="12226007"/>
    <tag k="created_by" v="JOSM"/>
    <tag k="highway" v="residential"/>
    <tag k="name" v="Norton Street"/>
  </way>
  <way id="2698140" version="2" timestamp="2007-12-16T08:06:04Z" uid="7617" user="Franc" changeset="328398">
    <nd ref="12226006"/>
    <nd ref="29113884"/>
    <nd ref="172657700"/>
    <nd ref="26363031"/>
    <nd ref="12226007"/>
    <tag k="created_by" v="JOSM"/>
    <tag k="highway" v="residential"/>
    <tag k="name" v="Norton Street"/>
  </way>
  <way id="2698140" version="3" timestamp="2008-08-14T04:41:07Z" uid="7617" user="Franc" changeset="236698">
    <nd ref="12226006"/>
    <nd ref="29113884"/>
    <nd ref="172657700"/>
    <nd ref="26363031"/>
    <nd ref="287793750"/>
    <nd ref="12226007"/>
    <tag k="created_by" v="JOSM"/>
    <tag k="highway" v="residential"/>
    <tag k="name" v="Norton Street"/>
  </way>
  <way id="2698140" version="5" timestamp="2010-06-17T12:12:54Z" uid="7617" user="Franc" changeset="5008283">
    <nd ref="12226006"/>
    <nd ref="774673759"/>
    <nd ref="29113884"/>
    <nd ref="172657700"/>
    <nd ref="26363031"/>
    <nd ref="287793750"/>
    <nd ref="12226007"/>
    <tag k="highway" v="residential"/>
    <tag k="name" v="Norton Street"/>
  </way>
  <way id="2698140" version="6" timestamp="2010-06-28T10:15:23Z" uid="7617" user="Franc" changeset="5096291">
    <nd ref="12226006"/>
    <nd ref="794098846"/>
    <nd ref="774673759"/>
    <nd ref="29113884"/>
    <nd ref="172657700"/>
    <nd ref="26363031"/>
    <nd ref="287793750"/>
    <nd ref="12226007"/>
    <tag k="highway" v="residential"/>
    <tag k="name" v="Norton Street"/>
  </way>
  <way id="2698140" version="7" timestamp="2010-07-07T22:11:10Z" uid="74617" user="JohnSmith" changeset="5161069">
    <nd ref="12226006"/>
    <nd ref="794098846"/>
    <nd ref="774673759"/>
    <nd ref="29113884"/>
    <nd ref="172657700"/>
    <nd ref="26363031"/>
    <nd ref="287793750"/>
    <nd ref="12226007"/>
    <tag k="highway" v="residential"/>
    <tag k="maxspeed" v="50"/>
    <tag k="maxspeed:source" v="default residential speed limit in Australia"/>
    <tag k="name" v="Norton Street"/>
  </way>
  <way id="2698140" version="8" timestamp="2011-03-07T10:34:54Z" uid="7617" user="Franc" changeset="7482661">
    <nd ref="12226006"/>
    <nd ref="794098846"/>
    <nd ref="774673759"/>
    <nd ref="29113884"/>
    <nd ref="172657700"/>
    <nd ref="26363031"/>
    <nd ref="1190851693"/>
    <nd ref="287793750"/>
    <nd ref="12226007"/>
    <tag k="highway" v="residential"/>
    <tag k="maxspeed" v="50"/>
    <tag k="maxspeed:source" v="default residential speed limit in Australia"/>
    <tag k="name" v="Norton Street"/>
  </way>
  <way id="2698298" version="2" timestamp="2008-07-03T22:02:46Z" uid="6975" user="ulfl" changeset="386611">
    <nd ref="12226757"/>
    <nd ref="12226754"/>
    <nd ref="12226755"/>
    <nd ref="12226756"/>
    <nd ref="12226757"/>
    <tag k="landuse" v="cemetery"/>
  </way>
  <way id="2698603" version="1" timestamp="2007-06-16T03:42:22Z" uid="7617" user="Franc" changeset="97737">
    <nd ref="12228157"/>
    <nd ref="12228154"/>
    <nd ref="12228150"/>
    <nd ref="12228147"/>
    <nd ref="12230130"/>
    <nd ref="12228144"/>
    <tag k="created_by" v="JOSM"/>
    <tag k="highway" v="service"/>
  </way>
  <way id="2698603" version="2" timestamp="2007-10-24T12:29:36Z" uid="7617" user="Franc" changeset="305237"/>
  <way id="2698604" version="1" timestamp="2007-09-09T03:47:05Z" uid="7617" user="Franc" changeset="396695">
    <nd ref="12228156"/>
    <nd ref="12228161"/>
    <nd ref="12228162"/>
    <nd ref="12228163"/>
    <nd ref="12228165"/>
    <nd ref="12228170"/>
    <nd ref="12228173"/>
    <tag k="abutters" v="residential"/>
    <tag k="created_by" v="Potlatch alpha"/>
    <tag k="highway" v="residential"/>
    <tag k="name" v="Arundel Street"/>
  </way>
  <way id="2698604" version="2" timestamp="2007-12-24T07:10:43Z" uid="7617" user="Franc" changeset="408635">
    <nd ref="12228156"/>
    <nd ref="12228161"/>
    <nd ref="186542101"/>
    <nd ref="12228162"/>
    <nd ref="12228163"/>
    <nd ref="12228165"/>
    <nd ref="12228170"/>
    <nd ref="12228173"/>
    <tag k="abutters" v="residential"/>
    <tag k="created_by" v="Potlatch alpha"/>
    <tag k="highway" v="residential"/>
    <tag k="name" v="Arundel Street"/>
  </way>
  <way id="2698604" version="3" timestamp="2008-04-16T06:35:10Z" uid="7617" user="Franc" changeset="162872">
    <nd ref="12228156"/>
    <nd ref="12228161"/>
    <nd ref="257879772"/>
    <nd ref="186542101"/>
    <nd ref="12228162"/>
    <nd ref="12228163"/>
    <nd ref="12228165"/>
    <nd ref="12228170"/>
    <nd ref="12228173"/>
    <tag k="abutters" v="residential"/>
    <tag k="created_by" v="Potlatch alpha"/>
    <tag k="highway" v="residential"/>
    <tag k="name" v="Arundel Street"/>
  </way>
  <way id="2698604" version="5" timestamp="2009-11-25T12:41:14Z" uid="7617" user="Franc" changeset="3211848">
    <nd ref="12228156"/>
    <nd ref="12228161"/>
    <nd ref="257879772"/>
    <nd ref="186542101"/>
    <nd ref="12228162"/>
    <nd ref="12228163"/>
    <nd ref="12228165"/>
    <nd ref="570757581"/>
    <nd ref="12228170"/>
    <nd ref="12228173"/>
    <tag k="abutters" v="residential"/>
    <tag k="highway" v="residential"/>
    <tag k="name" v="Arundel Street"/>
  </way>
  <way id="2698604" version="6" timestamp="2009-12-03T01:02:31Z" uid="30201" user="rrankin" changeset="3277063">
    <nd ref="12228156"/>
    <nd ref="12228161"/>
    <nd ref="257879772"/>
    <nd ref="186542101"/>
    <nd ref="12228162"/>
    <nd ref="12228163"/>
    <nd ref="12228165"/>
    <nd ref="570757581"/>
    <nd ref="12228170"/>
    <nd ref="12228173"/>
    <tag k="highway" v="residential"/>
    <tag k="name" v="Arundel Street"/>
  </way>
  <way id="2698604" version="7" timestamp="2009-12-06T04:00:30Z" uid="7617" user="Franc" changeset="3300392">
    <nd ref="12228156"/>
    <nd ref="582375327"/>
    <nd ref="12228161"/>
    <nd ref="582375328"/>
    <nd ref="257879772"/>
    <nd ref="186542101"/>
    <nd ref="12228162"/>
    <nd ref="12228163"/>
    <nd ref="12228165"/>
    <nd ref="570757581"/>
    <nd ref="12228170"/>
    <nd ref="12228173"/>
    <tag k="highway" v="residential"/>
    <tag k="name" v="Arundel Street"/>
  </way>
  <way id="2698604" version="8" timestamp="2010-03-08T02:05:00Z" uid="7617" user="Franc" changeset="4068432">
    <nd ref="12228156"/>
    <nd ref="582375327"/>
    <nd ref="12228161"/>
    <nd ref="582375328"/>
    <nd ref="257879772"/>
    <nd ref="186542101"/>
    <nd ref="12228162"/>
    <nd ref="12228163"/>
    <nd ref="12228165"/>
    <nd ref="662717832"/>
    <nd ref="570757581"/>
    <nd ref="12228170"/>
    <nd ref="12228173"/>
    <tag k="highway" v="residential"/>
    <tag k="name" v="Arundel Street"/>
  </way>
  <way id="2698604" version="9" timestamp="2010-07-07T22:11:46Z" uid="74617" user="JohnSmith" changeset="5161069">
    <nd ref="12228156"/>
    <nd ref="582375327"/>
    <nd ref="12228161"/>
    <nd ref="582375328"/>
    <nd ref="257879772"/>
    <nd ref="186542101"/>
    <nd ref="12228162"/>
    <nd ref="12228163"/>
    <nd ref="12228165"/>
    <nd ref="662717832"/>
    <nd ref="570757581"/>
    <nd ref="12228170"/>
    <nd ref="12228173"/>
    <tag k="highway" v="residential"/>
    <tag k="maxspeed" v="50"/>
    <tag k="maxspeed:source" v="default residential speed limit in Australia"/>
    <tag k="name" v="Arundel Street"/>
  </way>
  <way id="2698605" version="2" timestamp="2007-12-24T07:10:44Z" uid="7617" user="Franc" changeset="408635">
    <nd ref="12228163"/>
    <nd ref="12228194"/>
    <nd ref="186542037"/>
    <nd ref="12226034"/>
    <tag k="abutters" v="residential"/>
    <tag k="created_by" v="JOSM"/>
    <tag k="highway" v="residential"/>
    <tag k="name" v="Lodge Street"/>
  </way>
  <way id="2698605" version="4" timestamp="2009-12-03T01:02:31Z" uid="30201" user="rrankin" changeset="3277063">
    <nd ref="12228163"/>
    <nd ref="12228194"/>
    <nd ref="186542037"/>
    <nd ref="12226034"/>
    <tag k="highway" v="residential"/>
    <tag k="name" v="Lodge Street"/>
  </way>
  <way id="2698605" version="5" timestamp="2009-12-06T04:00:30Z" uid="7617" user="Franc" changeset="3300392">
    <nd ref="12228163"/>
    <nd ref="12228194"/>
    <nd ref="582375329"/>
    <nd ref="186542037"/>
    <nd ref="12226034"/>
    <tag k="highway" v="residential"/>
    <tag k="name" v="Lodge Street"/>
  </way>
  <way id="2698605" version="6" timestamp="2010-07-07T22:10:50Z" uid="74617" user="JohnSmith" changeset="5161069">
    <nd ref="12228163"/>
    <nd ref="12228194"/>
    <nd ref="582375329"/>
    <nd ref="186542037"/>
    <nd ref="12226034"/>
    <tag k="highway" v="residential"/>
    <tag k="maxspeed" v="50"/>
    <tag k="maxspeed:source" v="default residential speed limit in Australia"/>
    <tag k="name" v="Lodge Street"/>
  </way>
  <way id="2698608" version="2" timestamp="2007-10-24T12:29:32Z" uid="7617" user="Franc" changeset="305237">
    <nd ref="12228159"/>
    <nd ref="85719749"/>
    <nd ref="12228181"/>
    <nd ref="12228184"/>
    <nd ref="12228185"/>
    <nd ref="26362962"/>
    <nd ref="12228190"/>
    <nd ref="12226024"/>
    <tag k="abutters" v="residential"/>
    <tag k="created_by" v="JOSM"/>
    <tag k="highway" v="residential"/>
    <tag k="name" v="Derwent Street"/>
  </way>
  <way id="2698608" version="3" timestamp="2007-10-24T12:31:12Z" uid="7617" user="Franc" changeset="305237">
    <nd ref="12228159"/>
    <nd ref="85719749"/>
    <nd ref="12228181"/>
    <nd ref="12228184"/>
    <nd ref="12228185"/>
    <nd ref="26362962"/>
    <nd ref="12226024"/>
    <tag k="abutters" v="residential"/>
    <tag k="created_by" v="JOSM"/>
    <tag k="highway" v="residential"/>
    <tag k="name" v="Derwent Street"/>
  </way>
  <way id="2698608" version="5" timestamp="2009-12-03T01:02:29Z" uid="30201" user="rrankin" changeset="3277063">
    <nd ref="12228159"/>
    <nd ref="85719749"/>
    <nd ref="12228181"/>
    <nd ref="12228184"/>
    <nd ref="12228185"/>
    <nd ref="26362962"/>
    <nd ref="12226024"/>
    <tag k="highway" v="residential"/>
    <tag k="name" v="Derwent Street"/>
  </way>
  <way id="2698608" version="6" timestamp="2009-12-06T04:00:26Z" uid="7617" user="Franc" changeset="3300392">
    <nd ref="12228159"/>
    <nd ref="85719749"/>
    <nd ref="12228181"/>
    <nd ref="12228184"/>
    <nd ref="26362962"/>
    <nd ref="12226024"/>
    <tag k="highway" v="residential"/>
    <tag k="name" v="Derwent Street"/>
  </way>
  <way id="2698608" version="7" timestamp="2010-07-07T22:10:42Z" uid="74617" user="JohnSmith" changeset="5161069">
    <nd ref="12228159"/>
    <nd ref="85719749"/>
    <nd ref="12228181"/>
    <nd ref="12228184"/>
    <nd ref="26362962"/>
    <nd ref="12226024"/>
    <tag k="highway" v="residential"/>
    <tag k="maxspeed" v="50"/>
    <tag k="maxspeed:source" v="default residential speed limit in Australia"/>
    <tag k="name" v="Derwent Street"/>
  </way>
  <way id="2698609" version="2" timestamp="2007-12-23T02:39:36Z" uid="7617" user="Franc" changeset="397476">
    <nd ref="12226029"/>
    <nd ref="12228195"/>
    <nd ref="184277378"/>
    <tag k="abutters" v="resdidential"/>
    <tag k="created_by" v="JOSM"/>
    <tag k="highway" v="residential"/>
    <tag k="name" v="Mount Vernon Street"/>
  </way>
  <way id="2698609" version="5" timestamp="2010-07-07T22:09:45Z" uid="74617" user="JohnSmith" changeset="5161069">
    <nd ref="12226029"/>
    <nd ref="12228195"/>
    <nd ref="184277378"/>
    <tag k="highway" v="residential"/>
    <tag k="maxspeed" v="50"/>
    <tag k="maxspeed:source" v="default residential speed limit in Australia"/>
    <tag k="name" v="Mount Vernon Street"/>
  </way>
  <way id="2698610" version="2" timestamp="2007-11-18T01:54:56Z" uid="7617" user="Franc" changeset="549278">
    <nd ref="12226019"/>
    <nd ref="12226006"/>
    <nd ref="11981207"/>
    <nd ref="120655878"/>
    <nd ref="12228196"/>
    <tag k="created_by" v="JOSM"/>
    <tag k="name" v="Broughton Street"/>
  </way>
  <way id="2698610" version="3" timestamp="2007-12-16T08:06:05Z" uid="7617" user="Franc" changeset="328398"/>
  <way id="2698611" version="2" timestamp="2008-02-24T05:19:13Z" uid="7617" user="Franc" changeset="189648">
    <nd ref="12228217"/>
    <nd ref="120655854"/>
    <nd ref="11981206"/>
    <nd ref="11981210"/>
    <tag k="abutters" v="residential"/>
    <tag k="created_by" v="JOSM"/>
    <tag k="highway" v="residential"/>
    <tag k="name" v="Phillip Street"/>
  </way>
  <way id="2698611" version="4" timestamp="2009-12-03T01:02:33Z" uid="30201" user="rrankin" changeset="3277063">
    <nd ref="12228217"/>
    <nd ref="120655854"/>
    <nd ref="11981206"/>
    <nd ref="11981210"/>
    <tag k="highway" v="residential"/>
    <tag k="name" v="Phillip Street"/>
  </way>
  <way id="2698611" version="5" timestamp="2010-06-18T22:16:58Z" uid="7617" user="Franc" changeset="5020041">
    <nd ref="12228217"/>
    <nd ref="120655854"/>
    <nd ref="775878074"/>
    <nd ref="11981206"/>
    <nd ref="11981210"/>
    <tag k="highway" v="residential"/>
    <tag k="name" v="Phillip Street"/>
  </way>
  <way id="2698611" version="6" timestamp="2010-07-07T22:11:40Z" uid="74617" user="JohnSmith" changeset="5161069">
    <nd ref="12228217"/>
    <nd ref="120655854"/>
    <nd ref="775878074"/>
    <nd ref="11981206"/>
    <nd ref="11981210"/>
    <tag k="highway" v="residential"/>
    <tag k="maxspeed" v="50"/>
    <tag k="maxspeed:source" v="default residential speed limit in Australia"/>
    <tag k="name" v="Phillip Street"/>
  </way>
  <way id="2698612" version="2" timestamp="2007-11-18T01:54:57Z" uid="7617" user="Franc" changeset="549278">
    <nd ref="12228217"/>
    <nd ref="120655746"/>
    <nd ref="120655772"/>
    <nd ref="12228200"/>
    <tag k="created_by" v="JOSM"/>
    <tag k="highway" v="residential"/>
    <tag k="name" v="Phillip Street"/>
  </way>
  <way id="2698612" version="4" timestamp="2010-07-07T22:11:21Z" uid="74617" user="JohnSmith" changeset="5161069">
    <nd ref="12228217"/>
    <nd ref="120655746"/>
    <nd ref="120655772"/>
    <nd ref="12228200"/>
    <tag k="highway" v="residential"/>
    <tag k="maxspeed" v="50"/>
    <tag k="maxspeed:source" v="default residential speed limit in Australia"/>
    <tag k="name" v="Phillip Street"/>
  </way>
  <way id="2698615" version="3" timestamp="2010-07-07T22:10:06Z" uid="74617" user="JohnSmith" changeset="5161069">
    <nd ref="12228202"/>
    <nd ref="12228210"/>
    <tag k="highway" v="residential"/>
    <tag k="maxspeed" v="50"/>
    <tag k="maxspeed:source" v="default residential speed limit in Australia"/>
    <tag k="name" v="Elger Street"/>
  </way>
  <way id="2698616" version="3" timestamp="2010-07-07T22:11:36Z" uid="74617" user="JohnSmith" changeset="5161069">
    <nd ref="12228210"/>
    <nd ref="12228213"/>
    <tag k="highway" v="residential"/>
    <tag k="maxspeed" v="50"/>
    <tag k="maxspeed:source" v="default residential speed limit in Australia"/>
    <tag k="name" v="Stirling Street"/>
  </way>
  <way id="2698617" version="3" timestamp="2009-12-24T10:27:53Z" uid="30201" user="rrankin" changeset="3440994">
    <nd ref="12228220"/>
    <nd ref="12228227"/>
    <tag k="highway" v="unclassified"/>
    <tag k="name" v="West End Lane"/>
    <tag k="note" v="alley"/>
  </way>
  <way id="2698617" version="4" timestamp="2010-01-26T04:23:39Z" uid="7617" user="Franc" changeset="3716610">
    <nd ref="12228227"/>
    <nd ref="12228220"/>
    <tag k="highway" v="service"/>
    <tag k="name" v="West End Lane"/>
    <tag k="note" v="alley"/>
    <tag k="oneway" v="yes"/>
  </way>
  <way id="2698619" version="3" timestamp="2009-12-24T10:27:42Z" uid="30201" user="rrankin" changeset="3440994">
    <nd ref="12228233"/>
    <nd ref="12228227"/>
    <nd ref="12228229"/>
    <tag k="highway" v="unclassified"/>
    <tag k="name" v="Mountain Lane"/>
    <tag k="note" v="alley"/>
  </way>
  <way id="2698619" version="4" timestamp="2010-01-26T04:23:39Z" uid="7617" user="Franc" changeset="3716610">
    <nd ref="12228233"/>
    <nd ref="12228227"/>
    <nd ref="620367979"/>
    <nd ref="12228229"/>
    <tag k="highway" v="unclassified"/>
    <tag k="name" v="Mountain Lane"/>
    <tag k="note" v="alley"/>
  </way>
  <way id="2698620" version="2" timestamp="2007-11-27T08:45:53Z" uid="7617" user="Franc" changeset="630296">
    <nd ref="12228223"/>
    <nd ref="18373866"/>
    <nd ref="12228229"/>
    <nd ref="12228225"/>
    <nd ref="136809201"/>
    <tag k="abutters" v="mixed"/>
    <tag k="created_by" v="JOSM"/>
    <tag k="highway" v="unclassified"/>
    <tag k="name" v="Smail Street"/>
  </way>
  <way id="2698620" version="3" timestamp="2008-10-07T05:27:38Z" uid="7617" user="Franc" changeset="122658">
    <nd ref="12228223"/>
    <nd ref="18373866"/>
    <nd ref="12228229"/>
    <nd ref="302766502"/>
    <nd ref="12228225"/>
    <nd ref="136809201"/>
    <tag k="abutters" v="mixed"/>
    <tag k="created_by" v="JOSM"/>
    <tag k="highway" v="unclassified"/>
    <tag k="name" v="Smail Street"/>
  </way>
  <way id="2698620" version="4" timestamp="2009-09-22T05:22:05Z" uid="4467" user="Rosscoe" changeset="2564660">
    <nd ref="12228223"/>
    <nd ref="18373866"/>
    <nd ref="12228229"/>
    <nd ref="302766502"/>
    <nd ref="12228225"/>
    <nd ref="136809201"/>
    <tag k="highway" v="unclassified"/>
    <tag k="name" v="Smail Street"/>
  </way>
</osm>
