<?xml version='1.0' encoding='UTF-8'?>
<osm version="0.6" generator="libosmium/2.20.0">
  <way id="26996059" version="9" timestamp="2009-10-02T19:54:45Z" uid="86259" user="hasse_osm_korinthenkacker" changeset="2716821">
    <nd ref="295908560"/>
    <nd ref="295908561"/>
    <nd ref="295902071"/>
    <nd ref="295908569"/>
    <nd ref="295902072"/>
    <nd ref="296065351"/>
    <nd ref="295908562"/>
    <nd ref="295902074"/>
    <nd ref="296065352"/>
    <nd ref="296065670"/>
    <tag k="highway" v="footway"/>
  </way>
  <way id="26996172" version="5" timestamp="2009-03-08T17:13:45Z" uid="43863" user="Rundling" changeset="758328">
    <nd ref="285075915"/>
    <nd ref="285075923"/>
    <nd ref="357350161"/>
    <nd ref="285132175"/>
    <nd ref="285075936"/>
    <nd ref="357350169"/>
    <nd ref="285076021"/>
    <nd ref="285076037"/>
    <nd ref="285076081"/>
    <tag k="created_by" v="Potlatch 0.10b"/>
    <tag k="highway" v="cycleway"/>
    <tag k="surface" v="paved"/>
    <tag k="width" v="2"/>
  </way>
  <way id="26996172" version="6" timestamp="2009-03-08T17:14:44Z" uid="43863" user="Rundling" changeset="758328">
    <nd ref="285075915"/>
    <nd ref="285075923"/>
    <nd ref="357350161"/>
    <nd ref="285132175"/>
    <nd ref="285075936"/>
    <nd ref="357350169"/>
    <nd ref="285076021"/>
    <nd ref="285076037"/>
    <nd ref="299373064"/>
    <tag k="created_by" v="Potlatch 0.10b"/>
    <tag k="highway" v="cycleway"/>
    <tag k="surface" v="paved"/>
    <tag k="width" v="2"/>
  </way>
  <way id="26996172" version="7" timestamp="2009-03-08T17:16:24Z" uid="43863" user="Rundling" changeset="758328">
    <nd ref="285075915"/>
    <nd ref="285075923"/>
    <nd ref="357350161"/>
    <nd ref="285132175"/>
    <nd ref="285075936"/>
    <nd ref="357350169"/>
    <nd ref="285076021"/>
    <nd ref="285076037"/>
    <nd ref="357352836"/>
    <nd ref="299373064"/>
    <tag k="created_by" v="Potlatch 0.10b"/>
    <tag k="highway" v="cycleway"/>
    <tag k="surface" v="paved"/>
    <tag k="width" v="2"/>
  </way>
  <way id="26996172" version="8" timestamp="2009-03-08T17:20:57Z" uid="43863" user="Rundling" changeset="758328">
    <nd ref="285075915"/>
    <nd ref="285075923"/>
    <nd ref="357350161"/>
    <nd ref="285132175"/>
    <nd ref="285075936"/>
    <nd ref="357350169"/>
    <nd ref="357356457"/>
    <nd ref="357356454"/>
    <nd ref="285076021"/>
    <nd ref="285076037"/>
    <nd ref="357352836"/>
    <nd ref="299373064"/>
    <tag k="created_by" v="Potlatch 0.10b"/>
    <tag k="highway" v="cycleway"/>
    <tag k="surface" v="paved"/>
    <tag k="width" v="2"/>
  </way>
  <way id="26996374" version="11" timestamp="2009-10-02T19:55:47Z" uid="86259" user="hasse_osm_korinthenkacker" changeset="2716821">
    <nd ref="275598833"/>
    <nd ref="295904523"/>
    <nd ref="296045783"/>
    <nd ref="295904525"/>
    <nd ref="394848734"/>
    <nd ref="295903850"/>
    <tag k="addr:postcode" v="83607"/>
    <tag k="highway" v="residential"/>
    <tag k="name" v="Blumenstraße"/>
    <tag k="postal_code" v="83607"/>
  </way>
  <way id="26996662" version="3" timestamp="2009-12-26T08:23:04Z" uid="1066" user="pavel" changeset="3452711">
    <nd ref="295907486"/>
    <nd ref="295907485"/>
    <nd ref="295907487"/>
    <nd ref="257144956"/>
    <nd ref="258543463"/>
    <nd ref="258543462"/>
    <nd ref="599497520"/>
    <nd ref="258543461"/>
    <nd ref="258543460"/>
    <nd ref="258543459"/>
    <tag k="bicycle" v="yes"/>
    <tag k="created_by" v="Potlatch 0.10f"/>
    <tag k="highway" v="track"/>
    <tag k="surface" v="ground; dirt"/>
    <tag k="tracktype" v="grade3; grade2"/>
  </way>
  <way id="26996682" version="1" timestamp="2008-09-11T16:27:10Z" uid="43863" user="Rundling" changeset="607335">
    <nd ref="295907721"/>
    <nd ref="295907725"/>
    <nd ref="295907728"/>
    <nd ref="295907732"/>
    <nd ref="295907736"/>
    <nd ref="295907739"/>
    <nd ref="295907741"/>
    <nd ref="295907744"/>
    <nd ref="295907747"/>
    <nd ref="295907721"/>
    <tag k="amenity" v="parking"/>
    <tag k="created_by" v="Merkaartor 0.11"/>
  </way>
  <way id="26996682" version="2" timestamp="2009-06-07T04:56:12Z" uid="43863" user="Rundling" changeset="1444206">
    <nd ref="295907721"/>
    <nd ref="295907725"/>
    <nd ref="295907736"/>
    <nd ref="295907739"/>
    <nd ref="295907744"/>
    <nd ref="295907747"/>
    <nd ref="295907721"/>
    <tag k="amenity" v="parking"/>
    <tag k="created_by" v="Merkaartor 0.11"/>
    <tag k="disabled_spaces" v="yes"/>
    <tag k="fee" v="yes"/>
    <tag k="parking" v="surface"/>
  </way>
  <way id="26996721" version="1" timestamp="2008-09-11T16:29:40Z" uid="43863" user="Rundling" changeset="607335">
    <nd ref="295908095"/>
    <nd ref="295908096"/>
    <nd ref="295908097"/>
    <nd ref="295908099"/>
    <nd ref="295908095"/>
    <tag k="amenity" v="parking"/>
    <tag k="created_by" v="Merkaartor 0.11"/>
  </way>
  <way id="26996721" version="2" timestamp="2009-06-07T04:56:13Z" uid="43863" user="Rundling" changeset="1444206">
    <nd ref="295908095"/>
    <nd ref="295908096"/>
    <nd ref="295908097"/>
    <nd ref="295908099"/>
    <nd ref="295908095"/>
    <tag k="amenity" v="parking"/>
    <tag k="fee" v="yes"/>
    <tag k="parking" v="surface"/>
  </way>
  <way id="26996721" version="3" timestamp="2009-07-10T08:06:05Z" uid="43863" user="Rundling" changeset="1786827">
    <nd ref="295908095"/>
    <nd ref="295908096"/>
    <nd ref="295908097"/>
    <nd ref="295908099"/>
    <nd ref="295908095"/>
    <tag k="amenity" v="parking"/>
    <tag k="disabled_spaces" v="yes"/>
    <tag k="fee" v="yes"/>
    <tag k="parking" v="surface"/>
  </way>
  <way id="26996722" version="1" timestamp="2008-09-11T16:29:41Z" uid="43863" user="Rundling" changeset="607335">
    <nd ref="295908101"/>
    <nd ref="295908102"/>
    <nd ref="295908103"/>
    <nd ref="295908105"/>
    <nd ref="295908106"/>
    <nd ref="295908107"/>
    <nd ref="295908109"/>
    <nd ref="295908102"/>
    <nd ref="295908102"/>
    <nd ref="295908101"/>
    <tag k="amenity" v=""/>
    <tag k="created_by" v="Merkaartor 0.11"/>
  </way>
  <way id="26996722" version="2" timestamp="2008-09-11T16:30:13Z" uid="43863" user="Rundling" changeset="607335">
    <nd ref="295908101"/>
    <nd ref="295908102"/>
    <nd ref="295908103"/>
    <nd ref="295908105"/>
    <nd ref="295908106"/>
    <nd ref="295908107"/>
    <nd ref="295908109"/>
    <nd ref="295908102"/>
    <nd ref="295908102"/>
    <nd ref="295908101"/>
    <tag k="amenity" v="parking"/>
    <tag k="created_by" v="Merkaartor 0.11"/>
  </way>
  <way id="26996722" version="3" timestamp="2008-10-15T11:37:13Z" uid="43863" user="Rundling" changeset="346122">
    <nd ref="295908101"/>
    <nd ref="295908102"/>
    <nd ref="295908103"/>
    <nd ref="295908105"/>
    <nd ref="295908106"/>
    <nd ref="295908107"/>
    <nd ref="295908109"/>
    <nd ref="295908102"/>
    <nd ref="295908101"/>
    <tag k="amenity" v="parking"/>
    <tag k="created_by" v="Merkaartor 0.11"/>
  </way>
  <way id="26996722" version="4" timestamp="2008-10-15T11:37:32Z" uid="43863" user="Rundling" changeset="346122">
    <nd ref="295908101"/>
    <nd ref="295908102"/>
    <nd ref="295908103"/>
    <nd ref="295908105"/>
    <nd ref="295908106"/>
    <nd ref="295908107"/>
    <nd ref="295908109"/>
    <nd ref="295908102"/>
    <nd ref="295908101"/>
    <tag k="amenity" v="parking"/>
    <tag k="created_by" v="Merkaartor 0.11"/>
  </way>
  <way id="26996722" version="5" timestamp="2008-10-16T13:53:36Z" uid="43863" user="Rundling" changeset="368993">
    <nd ref="295908102"/>
    <nd ref="295908103"/>
    <nd ref="295908105"/>
    <nd ref="295908106"/>
    <nd ref="295908107"/>
    <nd ref="295908109"/>
    <nd ref="295908102"/>
    <tag k="amenity" v="parking"/>
    <tag k="created_by" v="Merkaartor 0.11"/>
  </way>
  <way id="26996722" version="6" timestamp="2009-06-07T04:56:13Z" uid="43863" user="Rundling" changeset="1444206">
    <nd ref="295908102"/>
    <nd ref="295908103"/>
    <nd ref="295908105"/>
    <nd ref="295908106"/>
    <nd ref="295908107"/>
    <nd ref="295908109"/>
    <nd ref="295908102"/>
    <tag k="amenity" v="parking"/>
    <tag k="created_by" v="Merkaartor 0.11"/>
    <tag k="disabled_spaces" v="yes"/>
    <tag k="fee" v="yes"/>
    <tag k="parking" v="surface"/>
  </way>
  <way id="26996722" version="7" timestamp="2009-06-24T18:30:30Z" uid="43863" user="Rundling" changeset="1615691">
    <nd ref="295908102"/>
    <nd ref="295908103"/>
    <nd ref="295908105"/>
    <nd ref="295908106"/>
    <nd ref="295908107"/>
    <nd ref="295908109"/>
    <nd ref="295908102"/>
    <tag k="amenity" v="parking"/>
    <tag k="disabled_spaces" v="yes"/>
    <tag k="fee" v="yes"/>
    <tag k="parking" v="surface"/>
  </way>
  <way id="26996806" version="1" timestamp="2008-09-11T16:33:35Z" uid="43863" user="Rundling" changeset="607335">
    <nd ref="295909026"/>
    <nd ref="295909027"/>
    <nd ref="295909029"/>
    <nd ref="295909030"/>
    <nd ref="295909026"/>
    <tag k="amenity" v="cafe"/>
    <tag k="building" v="yes"/>
    <tag k="created_by" v="Merkaartor 0.11"/>
  </way>
  <way id="26996806" version="2" timestamp="2008-09-12T05:57:35Z" uid="43863" user="Rundling" changeset="611019">
    <nd ref="295909026"/>
    <nd ref="295909027"/>
    <nd ref="295909029"/>
    <nd ref="295909030"/>
    <nd ref="295909026"/>
    <tag k="building" v="yes"/>
    <tag k="created_by" v="Merkaartor 0.11"/>
    <tag k="shop" v="bakery"/>
  </way>
  <way id="26996806" version="3" timestamp="2008-09-14T15:19:04Z" uid="43863" user="Rundling" changeset="634531">
    <nd ref="295909026"/>
    <nd ref="295909027"/>
    <nd ref="295909029"/>
    <nd ref="295909030"/>
    <nd ref="295909026"/>
    <tag k="addr:city" v="Rosche"/>
    <tag k="addr:housenumber" v="1"/>
    <tag k="addr:postcode" v="29571"/>
    <tag k="addr:street" v="Lüchower Straße"/>
    <tag k="building" v="yes"/>
    <tag k="created_by" v="Merkaartor 0.11"/>
    <tag k="shop" v="bakery"/>
  </way>
  <way id="26996806" version="4" timestamp="2008-09-15T12:46:01Z" uid="43863" user="Rundling" changeset="643466">
    <nd ref="295909026"/>
    <nd ref="295909027"/>
    <nd ref="295909029"/>
    <nd ref="295909030"/>
    <nd ref="295909026"/>
    <tag k="addr:city" v="Rosche"/>
    <tag k="addr:housenumber" v="1"/>
    <tag k="addr:postcode" v="29571"/>
    <tag k="addr:street" v="Lüchower Straße"/>
    <tag k="building" v="yes"/>
    <tag k="created_by" v="Potlatch 0.10b"/>
  </way>
  <way id="26996806" version="5" timestamp="2008-09-18T17:27:02Z" uid="43863" user="Rundling" changeset="660754">
    <nd ref="295909026"/>
    <nd ref="295909027"/>
    <nd ref="295909029"/>
    <nd ref="295909030"/>
    <nd ref="295909026"/>
    <tag k="addr:city" v="Rosche"/>
    <tag k="addr:housenumber" v="1"/>
    <tag k="addr:postcode" v="29571"/>
    <tag k="addr:street" v="Lüchower Straße"/>
    <tag k="amenity" v="cafe"/>
    <tag k="building" v="yes"/>
    <tag k="created_by" v="Potlatch 0.10b"/>
  </way>
  <way id="26996806" version="6" timestamp="2008-09-19T09:17:28Z" uid="43863" user="Rundling" changeset="665553">
    <nd ref="295909026"/>
    <nd ref="295909027"/>
    <nd ref="295909029"/>
    <nd ref="295909030"/>
    <nd ref="295909026"/>
    <tag k="addr:city" v="Rosche"/>
    <tag k="addr:housenumber" v="1"/>
    <tag k="addr:postcode" v="29571"/>
    <tag k="addr:street" v="Lüchower Straße"/>
    <tag k="building" v="yes"/>
    <tag k="created_by" v="Potlatch 0.10b"/>
    <tag k="shop" v="bakery"/>
  </way>
  <way id="26996806" version="7" timestamp="2008-09-23T12:24:57Z" uid="43863" user="Rundling" changeset="684340">
    <nd ref="295909026"/>
    <nd ref="295909027"/>
    <nd ref="295909029"/>
    <nd ref="295909030"/>
    <nd ref="295909026"/>
    <tag k="addr:city" v="Rosche"/>
    <tag k="addr:housenumber" v="1"/>
    <tag k="addr:postcode" v="29571"/>
    <tag k="addr:street" v="Lüchower Straße"/>
    <tag k="building" v="yes"/>
    <tag k="created_by" v="Potlatch 0.10b"/>
    <tag k="name" v="Cafe Hamborg"/>
    <tag k="shop" v="bakery"/>
  </way>
  <way id="26996806" version="8" timestamp="2008-09-24T07:59:01Z" uid="43863" user="Rundling" changeset="687973">
    <nd ref="295909026"/>
    <nd ref="295909027"/>
    <nd ref="295909029"/>
    <nd ref="295909030"/>
    <nd ref="295909026"/>
    <tag k="addr:city" v="Rosche"/>
    <tag k="addr:housenumber" v="1"/>
    <tag k="addr:postcode" v="29571"/>
    <tag k="addr:street" v="Lüchower Straße"/>
    <tag k="building" v="yes"/>
    <tag k="created_by" v="Potlatch 0.10b"/>
    <tag k="shop" v="bakery"/>
  </way>
  <way id="26996806" version="9" timestamp="2008-11-29T09:08:07Z" uid="43863" user="Rundling" changeset="806912">
    <nd ref="295909026"/>
    <nd ref="295909027"/>
    <nd ref="295909029"/>
    <nd ref="295909030"/>
    <nd ref="295909026"/>
    <tag k="addr:city" v="Rosche"/>
    <tag k="addr:housenumber" v="1"/>
    <tag k="addr:postcode" v="29571"/>
    <tag k="addr:street" v="Lüchower Straße"/>
    <tag k="building" v="yes"/>
    <tag k="created_by" v="Potlatch 0.10b"/>
    <tag k="name" v="Hamborg"/>
    <tag k="shop" v="bakery"/>
  </way>
  <way id="26996806" version="10" timestamp="2009-06-16T16:34:20Z" uid="43863" user="Rundling" changeset="1536604">
    <nd ref="295909026"/>
    <nd ref="295909027"/>
    <nd ref="295909029"/>
    <nd ref="295909030"/>
    <nd ref="295909026"/>
    <tag k="addr:city" v="Rosche"/>
    <tag k="addr:housenumber" v="1"/>
    <tag k="addr:postcode" v="29571"/>
    <tag k="addr:street" v="Lüchower Straße"/>
    <tag k="building" v="yes"/>
    <tag k="name" v="Hamborg"/>
    <tag k="shop" v="bakery"/>
  </way>
  <way id="26996806" version="11" timestamp="2011-03-04T16:35:43Z" uid="43863" user="Rundling" changeset="7455749">
    <nd ref="295909026"/>
    <nd ref="295909027"/>
    <nd ref="295909029"/>
    <nd ref="295909030"/>
    <nd ref="295909026"/>
    <tag k="addr:city" v="Rosche"/>
    <tag k="addr:housenumber" v="1"/>
    <tag k="addr:postcode" v="29571"/>
    <tag k="addr:street" v="Lüchower Straße"/>
    <tag k="building" v="yes"/>
    <tag k="email" v="info@baeckerei-hamborg.de"/>
    <tag k="fax" v="+49 5803 961931"/>
    <tag k="name" v="Café &amp; Bäckerei Hamborg"/>
    <tag k="phone" v="+49 5803 523"/>
    <tag k="shop" v="bakery"/>
    <tag k="website" v="www.baeckerei-rosche.de"/>
  </way>
  <way id="26996806" version="12" timestamp="2011-03-04T16:37:12Z" uid="43863" user="Rundling" changeset="7455757">
    <nd ref="295909026"/>
    <nd ref="295909027"/>
    <nd ref="295909029"/>
    <nd ref="295909030"/>
    <nd ref="295909026"/>
    <tag k="addr:city" v="Rosche"/>
    <tag k="addr:housenumber" v="1"/>
    <tag k="addr:postcode" v="29571"/>
    <tag k="addr:street" v="Lüchower Straße"/>
    <tag k="building" v="yes"/>
    <tag k="email" v="info@baeckerei-hamborg.de"/>
    <tag k="fax" v="+49 5803 961931"/>
    <tag k="name" v="Café &amp; Bäckerei Hamborg"/>
    <tag k="opening_hours" v="Mo-Fr 06:00-18:00; Sa 06:00-13:00"/>
    <tag k="phone" v="+49 5803 523"/>
    <tag k="shop" v="bakery"/>
    <tag k="website" v="www.baeckerei-rosche.de"/>
  </way>
  <way id="26996806" version="13" timestamp="2011-03-20T16:25:14Z" uid="43863" user="Rundling" changeset="7618418">
    <nd ref="295909026"/>
    <nd ref="295909027"/>
    <nd ref="295909029"/>
    <nd ref="295909030"/>
    <nd ref="295909026"/>
    <tag k="addr:city" v="Rosche"/>
    <tag k="addr:housenumber" v="1"/>
    <tag k="addr:postcode" v="29571"/>
    <tag k="addr:street" v="Lüchower Straße"/>
    <tag k="building" v="yes"/>
    <tag k="email" v="info@baeckerei-hamborg.de"/>
    <tag k="fax" v="+49 5803 961931"/>
    <tag k="name" v="Café &amp; Bäckerei Hamborg"/>
    <tag k="opening_hours" v="Mo-Fr 06:00-18:00; Sa 06:00-13:00"/>
    <tag k="phone" v="+49 5803 523"/>
    <tag k="shop" v="bakery"/>
    <tag k="website" v="www.baeckerei-rosche.de"/>
  </way>
  <way id="26996806" version="14" timestamp="2011-03-20T16:39:45Z" uid="43863" user="Rundling" changeset="7618578">
    <nd ref="1210711793"/>
    <nd ref="295909030"/>
    <nd ref="295909026"/>
    <nd ref="295909027"/>
    <nd ref="295909029"/>
    <nd ref="1210711791"/>
    <nd ref="1210711790"/>
    <nd ref="1210711793"/>
    <tag k="addr:city" v="Rosche"/>
    <tag k="addr:housenumber" v="1"/>
    <tag k="addr:postcode" v="29571"/>
    <tag k="addr:street" v="Lüchower Straße"/>
    <tag k="building" v="yes"/>
    <tag k="email" v="info@baeckerei-hamborg.de"/>
    <tag k="fax" v="+49 5803 961931"/>
    <tag k="name" v="Café &amp; Bäckerei Hamborg"/>
    <tag k="opening_hours" v="Mo-Fr 06:00-18:00; Sa 06:00-13:00"/>
    <tag k="phone" v="+49 5803 523"/>
    <tag k="shop" v="bakery"/>
    <tag k="website" v="www.baeckerei-rosche.de"/>
  </way>
  <way id="26996809" version="4" timestamp="2010-06-29T19:11:17Z" uid="74617" user="JohnSmith" changeset="5108182">
    <nd ref="295909089"/>
    <nd ref="295909090"/>
    <nd ref="295909091"/>
    <nd ref="295909092"/>
    <nd ref="295909089"/>
    <tag k="fixme" v="sport=football is ambiguous, see http://wiki.osm.org/wiki/Football for more details"/>
    <tag k="layer" v="0"/>
    <tag k="leisure" v="pitch"/>
    <tag k="sport" v="football"/>
  </way>
  <way id="26996837" version="2" timestamp="2010-04-26T22:27:23Z" uid="9581" user="Lobelt" changeset="4536963">
    <nd ref="708246861"/>
    <nd ref="708246860"/>
    <nd ref="708246859"/>
    <nd ref="708246858"/>
    <nd ref="708246857"/>
    <nd ref="708246870"/>
    <nd ref="708246869"/>
    <nd ref="708246868"/>
    <nd ref="708246867"/>
    <nd ref="708246866"/>
    <nd ref="708246865"/>
    <nd ref="307714564"/>
    <nd ref="307714560"/>
    <nd ref="307714545"/>
    <nd ref="307714548"/>
    <nd ref="307714534"/>
    <nd ref="307714537"/>
    <nd ref="307714570"/>
    <nd ref="307714575"/>
    <nd ref="307714579"/>
    <nd ref="307714583"/>
    <nd ref="307714587"/>
    <nd ref="307714592"/>
    <nd ref="708246876"/>
    <nd ref="708246877"/>
    <nd ref="708246878"/>
    <nd ref="708246879"/>
    <nd ref="708246880"/>
    <nd ref="708246881"/>
    <nd ref="708246799"/>
    <nd ref="708246801"/>
    <nd ref="708246802"/>
    <nd ref="708246803"/>
    <nd ref="708246804"/>
    <nd ref="708246805"/>
    <nd ref="708246806"/>
    <nd ref="708246807"/>
    <nd ref="708246808"/>
    <nd ref="708246809"/>
    <nd ref="708246810"/>
    <nd ref="708246811"/>
    <nd ref="708246827"/>
    <nd ref="708246828"/>
    <nd ref="708246829"/>
    <nd ref="708246830"/>
    <nd ref="708246831"/>
    <nd ref="708246832"/>
    <nd ref="708246833"/>
    <nd ref="708246834"/>
    <nd ref="708246835"/>
    <nd ref="708246836"/>
    <nd ref="708246837"/>
    <nd ref="708246838"/>
    <nd ref="708246839"/>
    <nd ref="708246840"/>
    <nd ref="708246841"/>
    <nd ref="708246842"/>
    <nd ref="708246846"/>
    <nd ref="708246848"/>
    <nd ref="708246849"/>
    <nd ref="708246850"/>
    <nd ref="708246851"/>
    <nd ref="708246852"/>
    <nd ref="708246853"/>
    <nd ref="708246854"/>
    <nd ref="708246855"/>
    <nd ref="708246856"/>
    <nd ref="295909203"/>
    <nd ref="295909206"/>
    <nd ref="295909216"/>
    <nd ref="295909218"/>
    <nd ref="708246843"/>
    <nd ref="708246844"/>
    <nd ref="708246845"/>
    <nd ref="708246913"/>
    <nd ref="708246914"/>
    <nd ref="708246915"/>
    <nd ref="295909223"/>
    <nd ref="295909226"/>
    <nd ref="295909228"/>
    <nd ref="295909229"/>
    <nd ref="295909231"/>
    <nd ref="708246916"/>
    <nd ref="708246917"/>
    <nd ref="708246918"/>
    <nd ref="708246919"/>
    <nd ref="708246920"/>
    <nd ref="708246921"/>
    <nd ref="269133522"/>
    <nd ref="298499111"/>
    <nd ref="298499109"/>
    <nd ref="298499116"/>
    <nd ref="298499115"/>
    <nd ref="298499119"/>
    <nd ref="708246922"/>
    <nd ref="708246923"/>
    <nd ref="708246927"/>
    <nd ref="708246924"/>
    <nd ref="708246925"/>
    <nd ref="708246926"/>
    <nd ref="708246928"/>
    <nd ref="708246929"/>
    <nd ref="708246931"/>
    <nd ref="708246932"/>
    <nd ref="708246933"/>
    <nd ref="708246934"/>
    <nd ref="708246935"/>
    <nd ref="708246936"/>
    <nd ref="708246937"/>
    <nd ref="708246930"/>
    <nd ref="708246964"/>
    <nd ref="708246963"/>
    <nd ref="708246965"/>
    <nd ref="708246966"/>
    <nd ref="708246967"/>
    <nd ref="708246968"/>
    <nd ref="708246969"/>
    <nd ref="708246970"/>
    <nd ref="708246971"/>
    <nd ref="708246972"/>
    <nd ref="708246973"/>
    <nd ref="708246974"/>
    <nd ref="708246975"/>
    <nd ref="708246976"/>
    <nd ref="708246977"/>
    <nd ref="708246958"/>
    <nd ref="708246959"/>
    <nd ref="708246960"/>
    <nd ref="708246962"/>
    <nd ref="708246993"/>
    <nd ref="708246994"/>
    <nd ref="708246995"/>
    <nd ref="708246979"/>
    <nd ref="708246978"/>
    <nd ref="708246980"/>
    <nd ref="708246981"/>
    <nd ref="708246983"/>
    <nd ref="708246984"/>
    <nd ref="708246985"/>
    <nd ref="708246996"/>
    <nd ref="708246997"/>
    <nd ref="708246998"/>
    <nd ref="708246999"/>
    <nd ref="708247000"/>
    <nd ref="708247001"/>
    <nd ref="708247002"/>
    <nd ref="708247003"/>
    <nd ref="708247012"/>
    <nd ref="708247013"/>
    <nd ref="708247014"/>
    <nd ref="708247015"/>
    <nd ref="708247016"/>
    <nd ref="708247017"/>
    <nd ref="708247018"/>
    <nd ref="708247026"/>
    <nd ref="708247027"/>
    <nd ref="708247028"/>
    <nd ref="708247030"/>
    <nd ref="708247031"/>
    <nd ref="708247032"/>
    <nd ref="708247033"/>
    <nd ref="708247034"/>
    <nd ref="708247041"/>
    <nd ref="708247043"/>
    <nd ref="708247044"/>
    <nd ref="708247045"/>
    <nd ref="708247046"/>
    <nd ref="708247047"/>
    <nd ref="708247048"/>
    <nd ref="708247056"/>
    <nd ref="708247057"/>
    <nd ref="708247058"/>
    <nd ref="708247059"/>
    <nd ref="708247060"/>
    <nd ref="708247061"/>
    <nd ref="708247062"/>
    <nd ref="708247071"/>
    <nd ref="562855791"/>
    <nd ref="269127694"/>
    <nd ref="269127689"/>
    <nd ref="269127702"/>
    <tag k="cables" v="6"/>
    <tag k="power" v="line"/>
    <tag k="wires" v="single"/>
  </way>
  <way id="26996838" version="2" timestamp="2010-04-26T22:27:26Z" uid="9581" user="Lobelt" changeset="4536963"/>
  <way id="26996871" version="1" timestamp="2008-09-11T16:36:00Z" uid="43863" user="Rundling" changeset="607335">
    <nd ref="295909676"/>
    <nd ref="295909677"/>
    <nd ref="295909678"/>
    <nd ref="295909679"/>
    <nd ref="295909680"/>
    <nd ref="295909676"/>
    <tag k="amenity" v="parking"/>
    <tag k="created_by" v="Merkaartor 0.11"/>
  </way>
  <way id="26996871" version="2" timestamp="2008-09-15T12:43:12Z" uid="43863" user="Rundling" changeset="643466">
    <nd ref="295909676"/>
    <nd ref="295909677"/>
    <nd ref="295909678"/>
    <nd ref="295909679"/>
    <nd ref="295909680"/>
    <nd ref="295909676"/>
    <tag k="amenity" v="parking"/>
    <tag k="created_by" v="Potlatch 0.10b"/>
  </way>
  <way id="26996871" version="3" timestamp="2008-09-15T12:43:54Z" uid="43863" user="Rundling" changeset="643466">
    <nd ref="295909676"/>
    <nd ref="295909677"/>
    <nd ref="295909678"/>
    <nd ref="295909680"/>
    <nd ref="295909676"/>
    <tag k="amenity" v="parking"/>
    <tag k="created_by" v="Potlatch 0.10b"/>
  </way>
  <way id="26996871" version="4" timestamp="2008-09-23T19:18:25Z" uid="43863" user="Rundling" changeset="686366">
    <nd ref="295909676"/>
    <nd ref="295909677"/>
    <nd ref="295909678"/>
    <nd ref="299374675"/>
    <nd ref="299374676"/>
    <nd ref="295909680"/>
    <nd ref="295909676"/>
    <tag k="amenity" v="parking"/>
    <tag k="created_by" v="Potlatch 0.10b"/>
  </way>
  <way id="26996871" version="5" timestamp="2009-07-14T15:17:28Z" uid="43863" user="Rundling" changeset="1827797">
    <nd ref="295909676"/>
    <nd ref="295909677"/>
    <nd ref="295909678"/>
    <nd ref="299374675"/>
    <nd ref="299374676"/>
    <nd ref="295909680"/>
    <nd ref="295909676"/>
    <tag k="amenity" v="parking"/>
  </way>
  <way id="26996871" version="6" timestamp="2011-03-20T16:25:16Z" uid="43863" user="Rundling" changeset="7618418">
    <nd ref="1210697484"/>
    <nd ref="1210697493"/>
    <nd ref="295909678"/>
    <nd ref="299374675"/>
    <nd ref="299374676"/>
    <nd ref="295909680"/>
    <nd ref="1210697484"/>
    <tag k="amenity" v="parking"/>
  </way>
  <way id="26996873" version="4" timestamp="2009-10-02T19:49:51Z" uid="86259" user="hasse_osm_korinthenkacker" changeset="2716821">
    <nd ref="295909689"/>
    <nd ref="295901933"/>
    <nd ref="295901934"/>
    <nd ref="295901935"/>
    <nd ref="295926949"/>
    <nd ref="295926950"/>
    <nd ref="295926951"/>
    <nd ref="295926953"/>
    <nd ref="295926954"/>
    <nd ref="295926955"/>
    <nd ref="295926956"/>
    <nd ref="295926957"/>
    <nd ref="295926958"/>
    <nd ref="295926959"/>
    <nd ref="295926961"/>
    <nd ref="295926962"/>
    <nd ref="282150692"/>
    <tag k="highway" v="track"/>
    <tag k="tracktype" v="grade4"/>
  </way>
</osm>
