<?xml version='1.0' encoding='UTF-8'?>
<osm version="0.6" generator="libosmium/2.20.0">
  <way id="27031030" version="2" timestamp="2010-06-29T20:50:54Z" uid="74617" user="JohnSmith" changeset="5109183">
    <nd ref="296296498"/>
    <nd ref="296296499"/>
    <nd ref="296296500"/>
    <nd ref="296296501"/>
    <nd ref="296296498"/>
    <tag k="fixme" v="sport=rugby is ambiguous, see http://wiki.osm.org/wiki/Tag:sport%3Drugby for more details"/>
    <tag k="leisure" v="pitch"/>
    <tag k="sport" v="rugby"/>
  </way>
  <way id="27031035" version="2" timestamp="2010-06-29T20:49:02Z" uid="74617" user="JohnSmith" changeset="5109183">
    <nd ref="296296559"/>
    <nd ref="296296560"/>
    <nd ref="296296561"/>
    <nd ref="296296562"/>
    <nd ref="296296559"/>
    <tag k="fixme" v="sport=rugby is ambiguous, see http://wiki.osm.org/wiki/Tag:sport%3Drugby for more details"/>
    <tag k="leisure" v="pitch"/>
    <tag k="sport" v="rugby"/>
  </way>
  <way id="27031072" version="3" timestamp="2010-03-28T00:04:05Z" uid="20587" user="balrog-kun" changeset="4250871">
    <nd ref="65292627"/>
    <nd ref="65292632"/>
    <nd ref="65292634"/>
    <nd ref="65292636"/>
    <nd ref="410211166"/>
    <nd ref="65292639"/>
    <nd ref="65292642"/>
    <nd ref="65292651"/>
    <nd ref="65292652"/>
    <nd ref="65292658"/>
    <nd ref="65292660"/>
    <nd ref="65292662"/>
    <nd ref="65292664"/>
    <nd ref="65292667"/>
    <nd ref="65292670"/>
    <nd ref="65292672"/>
    <nd ref="65292674"/>
    <nd ref="65292678"/>
    <tag k="highway" v="residential"/>
    <tag k="name" v="Hoffman Street"/>
    <tag k="tiger:cfcc" v="A41"/>
    <tag k="tiger:county" v="San Francisco, CA"/>
    <tag k="tiger:name_base" v="Hoffman"/>
    <tag k="tiger:name_type" v="St"/>
    <tag k="tiger:reviewed" v="no"/>
    <tag k="tiger:separated" v="no"/>
    <tag k="tiger:source" v="tiger_import_dch_v0.6_20070809"/>
    <tag k="tiger:tlid" v="192292758:192293854:192292768:192278824:192293641"/>
  </way>
  <way id="27031128" version="1" timestamp="2008-09-13T06:38:42Z" uid="43863" user="Rundling" changeset="619327">
    <nd ref="296297261"/>
    <nd ref="296297262"/>
    <nd ref="296297263"/>
    <nd ref="296297264"/>
    <nd ref="296297261"/>
    <tag k="created_by" v="Merkaartor 0.11"/>
  </way>
  <way id="27031128" version="2" timestamp="2008-09-13T06:40:40Z" uid="43863" user="Rundling" changeset="619327">
    <nd ref="296297261"/>
    <nd ref="296297262"/>
    <nd ref="296297263"/>
    <nd ref="296297264"/>
    <nd ref="296297261"/>
    <tag k="addr:city" v="Rosche"/>
    <tag k="addr:housenumber" v="3"/>
    <tag k="addr:postcode" v="29571"/>
    <tag k="addr:street" v="Ringstraße"/>
    <tag k="building" v="yes"/>
    <tag k="created_by" v="Merkaartor 0.11"/>
  </way>
  <way id="27031128" version="3" timestamp="2008-09-27T08:56:51Z" uid="43863" user="Rundling" changeset="703494"/>
  <way id="27031129" version="1" timestamp="2008-09-13T06:38:43Z" uid="43863" user="Rundling" changeset="619327">
    <nd ref="296297265"/>
    <nd ref="296297266"/>
    <nd ref="296297267"/>
    <nd ref="296297268"/>
    <nd ref="296297269"/>
    <nd ref="296297270"/>
    <nd ref="296297265"/>
    <tag k="created_by" v="Merkaartor 0.11"/>
  </way>
  <way id="27031129" version="2" timestamp="2008-09-13T06:40:41Z" uid="43863" user="Rundling" changeset="619327">
    <nd ref="296297265"/>
    <nd ref="296297266"/>
    <nd ref="296297267"/>
    <nd ref="296297268"/>
    <nd ref="296297269"/>
    <nd ref="296297270"/>
    <nd ref="296297265"/>
    <tag k="addr:city" v="Rosche"/>
    <tag k="addr:housenumber" v="5"/>
    <tag k="addr:postcode" v="29571"/>
    <tag k="addr:street" v="Ringstraße"/>
    <tag k="building" v="yes"/>
    <tag k="created_by" v="Merkaartor 0.11"/>
  </way>
  <way id="27031129" version="3" timestamp="2008-09-27T08:56:51Z" uid="43863" user="Rundling" changeset="703494"/>
  <way id="27031130" version="1" timestamp="2008-09-13T06:38:44Z" uid="43863" user="Rundling" changeset="619327">
    <nd ref="296297271"/>
    <nd ref="296297272"/>
    <nd ref="296297273"/>
    <nd ref="296297274"/>
    <nd ref="296297271"/>
    <tag k="created_by" v="Merkaartor 0.11"/>
  </way>
  <way id="27031130" version="2" timestamp="2008-09-13T06:40:41Z" uid="43863" user="Rundling" changeset="619327">
    <nd ref="296297271"/>
    <nd ref="296297272"/>
    <nd ref="296297273"/>
    <nd ref="296297274"/>
    <nd ref="296297271"/>
    <tag k="addr:city" v="Rosche"/>
    <tag k="addr:housenumber" v="7"/>
    <tag k="addr:postcode" v="29571"/>
    <tag k="addr:street" v="Ringstraße"/>
    <tag k="building" v="yes"/>
    <tag k="created_by" v="Merkaartor 0.11"/>
  </way>
  <way id="27031130" version="3" timestamp="2008-09-27T08:56:50Z" uid="43863" user="Rundling" changeset="703494"/>
  <way id="27031131" version="1" timestamp="2008-09-13T06:38:44Z" uid="43863" user="Rundling" changeset="619327">
    <nd ref="296297275"/>
    <nd ref="296297276"/>
    <nd ref="296297277"/>
    <nd ref="296297278"/>
    <nd ref="296297279"/>
    <nd ref="296297280"/>
    <nd ref="296297275"/>
    <tag k="created_by" v="Merkaartor 0.11"/>
  </way>
  <way id="27031131" version="2" timestamp="2008-09-13T06:40:41Z" uid="43863" user="Rundling" changeset="619327">
    <nd ref="296297275"/>
    <nd ref="296297276"/>
    <nd ref="296297277"/>
    <nd ref="296297278"/>
    <nd ref="296297279"/>
    <nd ref="296297280"/>
    <nd ref="296297275"/>
    <tag k="addr:city" v="Rosche"/>
    <tag k="addr:housenumber" v="9"/>
    <tag k="addr:postcode" v="29571"/>
    <tag k="addr:street" v="Ringstraße"/>
    <tag k="building" v="yes"/>
    <tag k="created_by" v="Merkaartor 0.11"/>
  </way>
  <way id="27031131" version="3" timestamp="2008-09-27T08:56:50Z" uid="43863" user="Rundling" changeset="703494"/>
  <way id="27031132" version="1" timestamp="2008-09-13T06:38:45Z" uid="43863" user="Rundling" changeset="619327">
    <nd ref="296297281"/>
    <nd ref="296297282"/>
    <nd ref="296297283"/>
    <nd ref="296297284"/>
    <nd ref="296297281"/>
    <tag k="created_by" v="Merkaartor 0.11"/>
  </way>
  <way id="27031132" version="2" timestamp="2008-09-13T06:41:05Z" uid="43863" user="Rundling" changeset="619327">
    <nd ref="296297281"/>
    <nd ref="296297282"/>
    <nd ref="296297283"/>
    <nd ref="296297284"/>
    <nd ref="296297281"/>
    <tag k="building" v="yes"/>
    <tag k="created_by" v="Merkaartor 0.11"/>
  </way>
  <way id="27031132" version="3" timestamp="2008-09-27T08:56:50Z" uid="43863" user="Rundling" changeset="703494"/>
  <way id="27031141" version="6" timestamp="2010-07-09T06:49:13Z" uid="74617" user="JohnSmith" changeset="5171134">
    <nd ref="287584637"/>
    <nd ref="675560899"/>
    <nd ref="675592883"/>
    <nd ref="704434965"/>
    <nd ref="293666343"/>
    <nd ref="675560882"/>
    <nd ref="676615927"/>
    <nd ref="293667486"/>
    <tag k="highway" v="residential"/>
    <tag k="maxspeed" v="50"/>
    <tag k="maxspeed:source" v="default residential speed limit in Australia"/>
    <tag k="name" v="King Street"/>
  </way>
  <way id="27031180" version="2" timestamp="2010-03-28T00:04:06Z" uid="20587" user="balrog-kun" changeset="4250871">
    <nd ref="65299628"/>
    <nd ref="65287384"/>
    <tag k="created_by" v="Potlatch 0.10b"/>
    <tag k="highway" v="residential"/>
    <tag k="name" v="34th Avenue"/>
    <tag k="tiger:cfcc" v="A41"/>
    <tag k="tiger:county" v="San Francisco, CA"/>
    <tag k="tiger:name_base" v="34th"/>
    <tag k="tiger:name_type" v="Ave"/>
    <tag k="tiger:reviewed" v="no"/>
    <tag k="tiger:separated" v="no"/>
    <tag k="tiger:source" v="tiger_import_dch_v0.6_20070809"/>
    <tag k="tiger:tlid" v="192277225:192276734:192277233:192277239:192276387"/>
    <tag k="tiger:zip_left" v="94121"/>
    <tag k="tiger:zip_right" v="94121"/>
  </way>
  <way id="27031206" version="2" timestamp="2010-03-28T00:04:06Z" uid="20587" user="balrog-kun" changeset="4250871">
    <nd ref="65309205"/>
    <nd ref="65309207"/>
    <nd ref="65309209"/>
    <nd ref="65309211"/>
    <nd ref="295485838"/>
    <nd ref="65309215"/>
    <nd ref="65309217"/>
    <nd ref="65309220"/>
    <nd ref="65309221"/>
    <nd ref="65309229"/>
    <nd ref="295485876"/>
    <nd ref="65309231"/>
    <nd ref="65292678"/>
    <nd ref="65284300"/>
    <nd ref="65309235"/>
    <nd ref="65309238"/>
    <nd ref="65309240"/>
    <nd ref="65309242"/>
    <nd ref="65309244"/>
    <nd ref="65309249"/>
    <nd ref="65309251"/>
    <nd ref="65292627"/>
    <tag k="created_by" v="Potlatch 0.10b"/>
    <tag k="highway" v="secondary"/>
    <tag k="name" v="Lincoln Boulevard"/>
    <tag k="tiger:cfcc" v="A41"/>
    <tag k="tiger:county" v="San Francisco, CA"/>
    <tag k="tiger:name_base" v="Lincoln"/>
    <tag k="tiger:name_type" v="Blvd"/>
    <tag k="tiger:reviewed" v="no"/>
    <tag k="tiger:separated" v="no"/>
    <tag k="tiger:source" v="tiger_import_dch_v0.6_20070809"/>
    <tag k="tiger:tlid" v="192291549:192292803:192276531:192276533"/>
  </way>
  <way id="27031210" version="3" timestamp="2008-09-14T14:54:19Z" uid="6975" user="ulfl" changeset="640534">
    <nd ref="290768569"/>
    <nd ref="290769749"/>
    <nd ref="290769750"/>
    <nd ref="290769007"/>
    <tag k="highway" v="residential"/>
    <tag k="name" v="Schützenweg"/>
  </way>
  <way id="27031219" version="3" timestamp="2010-03-18T22:05:41Z" uid="20587" user="balrog-kun" changeset="4165927">
    <nd ref="65284271"/>
    <nd ref="65284273"/>
    <nd ref="65284277"/>
    <nd ref="65284280"/>
    <nd ref="65284284"/>
    <nd ref="65284286"/>
    <nd ref="295487032"/>
    <tag k="highway" v="residential"/>
    <tag k="maxspeed" v="15mph"/>
    <tag k="tiger:cfcc" v="A41"/>
    <tag k="tiger:county" v="San Francisco, CA"/>
    <tag k="tiger:reviewed" v="no"/>
    <tag k="tiger:separated" v="no"/>
    <tag k="tiger:source" v="tiger_import_dch_v0.6_20070809"/>
    <tag k="tiger:tlid" v="192276464:192276455; 192276465:192276467"/>
    <tag k="tiger:upload_uuid" v="bulk_upload.pl-4ddcfcfe-e298-4ca3-a789-35779f3bf445"/>
  </way>
  <way id="27031251" version="4" timestamp="2008-09-14T14:44:02Z" uid="6975" user="ulfl" changeset="640534">
    <nd ref="296298456"/>
    <nd ref="296298417"/>
    <nd ref="296298579"/>
    <nd ref="296298432"/>
    <nd ref="296298433"/>
    <nd ref="246684475"/>
    <nd ref="296849013"/>
    <nd ref="296849060"/>
    <nd ref="296849015"/>
    <nd ref="296849016"/>
    <nd ref="296849061"/>
    <nd ref="296849062"/>
    <nd ref="296849019"/>
    <nd ref="296849063"/>
    <nd ref="296849064"/>
    <nd ref="296849022"/>
    <nd ref="296849023"/>
    <nd ref="296849065"/>
    <nd ref="296849025"/>
    <tag k="foot" v="yes"/>
    <tag k="highway" v="cycleway"/>
  </way>
  <way id="27031300" version="1" timestamp="2008-09-13T07:15:02Z" uid="43863" user="Rundling" changeset="619327">
    <nd ref="296298980"/>
    <nd ref="296298981"/>
    <nd ref="296298982"/>
    <nd ref="296298983"/>
    <nd ref="296298984"/>
    <nd ref="296298985"/>
    <nd ref="296298980"/>
    <tag k="addr:city" v="Rosche"/>
    <tag k="addr:housenumber" v="18"/>
    <tag k="addr:postcode" v="29571"/>
    <tag k="addr:street" v="Fuhrenkamp"/>
    <tag k="building" v="yes"/>
    <tag k="created_by" v="Potlatch 0.10b"/>
  </way>
  <way id="27031300" version="2" timestamp="2008-09-13T07:19:03Z" uid="43863" user="Rundling" changeset="619327">
    <nd ref="296298980"/>
    <nd ref="296298981"/>
    <nd ref="296298982"/>
    <nd ref="296298983"/>
    <nd ref="296298984"/>
    <nd ref="296298985"/>
    <nd ref="296298980"/>
    <tag k="addr:city" v="Rosche"/>
    <tag k="addr:housenumber" v="1"/>
    <tag k="addr:postcode" v="29571"/>
    <tag k="addr:street" v="Fuhrenkamp"/>
    <tag k="building" v="yes"/>
    <tag k="created_by" v="Potlatch 0.10b"/>
  </way>
  <way id="27031300" version="3" timestamp="2008-09-21T09:13:58Z" uid="43863" user="Rundling" changeset="672365">
    <nd ref="296298980"/>
    <nd ref="296298981"/>
    <nd ref="296298982"/>
    <nd ref="296298983"/>
    <nd ref="296298984"/>
    <nd ref="296298985"/>
    <nd ref="296298980"/>
    <tag k="addr:city" v="Rosche"/>
    <tag k="addr:housenumber" v="2"/>
    <tag k="addr:postcode" v="29571"/>
    <tag k="addr:street" v="Fuhrenkamp"/>
    <tag k="building" v="yes"/>
    <tag k="created_by" v="Potlatch 0.10b"/>
  </way>
  <way id="27031300" version="4" timestamp="2008-09-27T10:52:28Z" uid="43863" user="Rundling" changeset="707288"/>
  <way id="27031333" version="1" timestamp="2008-09-13T07:19:03Z" uid="43863" user="Rundling" changeset="619327">
    <nd ref="296299433"/>
    <nd ref="296299434"/>
    <nd ref="296299435"/>
    <nd ref="296299436"/>
    <nd ref="296299433"/>
    <tag k="addr:city" v="Rosche"/>
    <tag k="addr:housenumber" v="18"/>
    <tag k="addr:postcode" v="29571"/>
    <tag k="addr:street" v="Fuhrenkamp"/>
    <tag k="building" v="yes"/>
    <tag k="created_by" v="Merkaartor 0.11"/>
  </way>
  <way id="27031333" version="2" timestamp="2008-09-13T07:19:37Z" uid="43863" user="Rundling" changeset="619327">
    <nd ref="296299433"/>
    <nd ref="296299434"/>
    <nd ref="296299435"/>
    <nd ref="296299436"/>
    <nd ref="296299433"/>
    <tag k="addr:city" v="Rosche"/>
    <tag k="addr:housenumber" v="2"/>
    <tag k="addr:postcode" v="29571"/>
    <tag k="addr:street" v="Fuhrenkamp"/>
    <tag k="building" v="yes"/>
    <tag k="created_by" v="Merkaartor 0.11"/>
  </way>
  <way id="27031333" version="3" timestamp="2008-09-13T07:49:08Z" uid="43863" user="Rundling" changeset="619327">
    <nd ref="296299433"/>
    <nd ref="296299434"/>
    <nd ref="296299435"/>
    <nd ref="296299436"/>
    <nd ref="296299433"/>
    <tag k="addr:city" v="Rosche"/>
    <tag k="addr:housenumber" v="4"/>
    <tag k="addr:postcode" v="29571"/>
    <tag k="addr:street" v="Fuhrenkamp"/>
    <tag k="building" v="yes"/>
    <tag k="created_by" v="Merkaartor 0.11"/>
  </way>
  <way id="27031333" version="4" timestamp="2008-09-27T10:52:28Z" uid="43863" user="Rundling" changeset="707288"/>
  <way id="27031416" version="6" timestamp="2009-10-02T20:04:17Z" uid="86259" user="hasse_osm_korinthenkacker" changeset="2717024">
    <nd ref="296299970"/>
    <nd ref="296299977"/>
    <tag k="highway" v="service"/>
  </way>
  <way id="27031419" version="8" timestamp="2009-10-02T20:04:17Z" uid="86259" user="hasse_osm_korinthenkacker" changeset="2717024">
    <nd ref="296299976"/>
    <nd ref="296299974"/>
    <tag k="highway" v="service"/>
  </way>
  <way id="27031425" version="8" timestamp="2009-10-02T20:04:14Z" uid="86259" user="hasse_osm_korinthenkacker" changeset="2717024">
    <nd ref="289204875"/>
    <nd ref="296849983"/>
  </way>
  <way id="27031619" version="12" timestamp="2009-10-02T20:05:51Z" uid="86259" user="hasse_osm_korinthenkacker" changeset="2717024">
    <nd ref="293889940"/>
    <nd ref="470932258"/>
    <nd ref="296301619"/>
    <nd ref="428763806"/>
    <nd ref="470932360"/>
    <nd ref="428763807"/>
    <nd ref="296301604"/>
    <nd ref="470932516"/>
    <nd ref="296327956"/>
    <nd ref="293889940"/>
    <tag k="access" v="permissive"/>
    <tag k="amenity" v="parking"/>
  </way>
  <way id="27031645" version="1" timestamp="2008-09-13T07:53:10Z" uid="33382" user="de_muur" changeset="624490">
    <nd ref="290185406"/>
    <nd ref="296301740"/>
    <tag k="created_by" v="JOSM"/>
    <tag k="highway" v="track"/>
    <tag k="note" v="to be continued?"/>
    <tag k="surface" v="unpaved"/>
    <tag k="tracktype" v="grade4"/>
  </way>
  <way id="27031646" version="1" timestamp="2008-09-13T07:53:10Z" uid="33382" user="de_muur" changeset="624490">
    <nd ref="290185406"/>
    <nd ref="290185409"/>
    <nd ref="290185412"/>
    <nd ref="290185415"/>
    <nd ref="290185418"/>
    <nd ref="289836237"/>
    <tag k="created_by" v="Merkaartor 0.11"/>
    <tag k="highway" v="footway"/>
  </way>
  <way id="27031719" version="4" timestamp="2008-09-14T14:02:28Z" uid="6975" user="ulfl" changeset="640534">
    <nd ref="296302323"/>
    <nd ref="296302325"/>
    <nd ref="296302326"/>
    <nd ref="288126432"/>
    <nd ref="296302323"/>
    <tag k="amenity" v="bank"/>
    <tag k="atm" v="yes"/>
    <tag k="building" v="yes"/>
    <tag k="name" v="Sparkasse"/>
  </way>
  <way id="27031884" version="1" timestamp="2008-09-13T08:13:50Z" uid="4467" user="Rosscoe" changeset="622888">
    <nd ref="270105770"/>
    <nd ref="295256577"/>
    <tag k="created_by" v="Potlatch 0.9c"/>
    <tag k="highway" v="residential"/>
    <tag k="name" v="Cowra Street"/>
  </way>
  <way id="27031885" version="1" timestamp="2008-09-13T08:13:51Z" uid="4467" user="Rosscoe" changeset="622888">
    <nd ref="295256577"/>
    <nd ref="270105771"/>
    <nd ref="270105772"/>
    <nd ref="270105773"/>
    <nd ref="270105774"/>
    <nd ref="270105775"/>
    <nd ref="270105776"/>
    <nd ref="270105777"/>
    <nd ref="270105778"/>
    <tag k="created_by" v="Potlatch 0.9c"/>
    <tag k="highway" v="residential"/>
    <tag k="name" v="Cowra Street"/>
  </way>
  <way id="27031885" version="2" timestamp="2008-10-14T09:34:34Z" uid="19626" user="Swamp" changeset="331785">
    <nd ref="295256577"/>
    <nd ref="270105771"/>
    <nd ref="270105772"/>
    <nd ref="270105773"/>
    <nd ref="270105774"/>
    <nd ref="270105775"/>
    <nd ref="270105776"/>
    <nd ref="270105777"/>
    <nd ref="270105778"/>
    <nd ref="304514324"/>
    <nd ref="304514325"/>
    <nd ref="304514326"/>
    <nd ref="304514327"/>
    <nd ref="304514328"/>
    <tag k="created_by" v="Potlatch 0.9c"/>
    <tag k="highway" v="residential"/>
    <tag k="name" v="Cowra Street"/>
  </way>
  <way id="27031891" version="8" timestamp="2009-02-06T09:39:29Z" uid="49111" user="Markus B" changeset="203860">
    <nd ref="296304850"/>
    <nd ref="341827026"/>
    <nd ref="296304849"/>
    <nd ref="296305902"/>
    <nd ref="296304847"/>
    <nd ref="296304606"/>
    <tag k="created_by" v="Potlatch 0.10d"/>
    <tag k="highway" v="primary_link"/>
    <tag k="oneway" v="yes"/>
  </way>
  <way id="27031925" version="3" timestamp="2010-07-26T02:20:46Z" uid="4467" user="Rosscoe" changeset="5317875">
    <nd ref="60304582"/>
    <nd ref="60304583"/>
    <tag k="bridge" v="yes"/>
    <tag k="layer" v="1"/>
    <tag k="railway" v="rail"/>
  </way>
  <way id="27031926" version="3" timestamp="2010-04-30T10:19:32Z" uid="74617" user="JohnSmith" changeset="4564503">
    <nd ref="60304583"/>
    <nd ref="60304584"/>
    <nd ref="296305218"/>
    <nd ref="60304585"/>
    <nd ref="60304586"/>
    <nd ref="60304587"/>
    <nd ref="60304588"/>
    <nd ref="60304589"/>
    <nd ref="296306461"/>
    <nd ref="60304590"/>
    <nd ref="60304591"/>
    <nd ref="60304592"/>
    <nd ref="60304593"/>
    <nd ref="60304594"/>
    <nd ref="60304595"/>
    <nd ref="296305219"/>
    <nd ref="60304596"/>
    <nd ref="60304597"/>
    <nd ref="60304598"/>
    <nd ref="60304599"/>
    <nd ref="60304600"/>
    <nd ref="60304601"/>
    <nd ref="60304602"/>
    <nd ref="60304603"/>
    <nd ref="60304604"/>
    <nd ref="60304605"/>
    <nd ref="713022394"/>
    <nd ref="60304606"/>
    <tag k="railway" v="rail"/>
  </way>
  <way id="27031926" version="26" timestamp="2011-04-16T11:14:51Z" uid="4467" user="Rosscoe" changeset="7877377">
    <nd ref="60304583"/>
    <nd ref="741942055"/>
    <nd ref="741942057"/>
    <nd ref="741942060"/>
    <nd ref="741942063"/>
    <nd ref="60304584"/>
    <nd ref="296305218"/>
    <nd ref="741944759"/>
    <nd ref="741946222"/>
    <nd ref="60304585"/>
    <nd ref="741946224"/>
    <nd ref="741981598"/>
    <nd ref="741946226"/>
    <nd ref="741946229"/>
    <nd ref="741946231"/>
    <nd ref="741946233"/>
    <nd ref="741946235"/>
    <nd ref="60304586"/>
    <nd ref="741946239"/>
    <nd ref="741946241"/>
    <nd ref="60304587"/>
    <nd ref="741946245"/>
    <nd ref="60304588"/>
    <nd ref="741981230"/>
    <nd ref="60304589"/>
    <nd ref="741981134"/>
    <nd ref="296306461"/>
    <nd ref="741981136"/>
    <nd ref="60304590"/>
    <nd ref="60304591"/>
    <nd ref="741986682"/>
    <nd ref="60304592"/>
    <nd ref="741986649"/>
    <nd ref="741986626"/>
    <nd ref="741986627"/>
    <nd ref="741982412"/>
    <nd ref="741982413"/>
    <nd ref="741982414"/>
    <nd ref="741982371"/>
    <nd ref="60304593"/>
    <nd ref="741982372"/>
    <nd ref="741982374"/>
    <nd ref="741982375"/>
    <nd ref="60304594"/>
    <nd ref="741982376"/>
    <nd ref="741982377"/>
    <nd ref="741982378"/>
    <nd ref="60304595"/>
    <nd ref="741982379"/>
    <nd ref="296305219"/>
    <nd ref="741982651"/>
    <nd ref="60304596"/>
    <nd ref="741982654"/>
    <nd ref="741982662"/>
    <nd ref="60304597"/>
    <nd ref="741982665"/>
    <nd ref="741982668"/>
    <nd ref="741983247"/>
    <nd ref="741982670"/>
    <nd ref="741983170"/>
    <nd ref="60304598"/>
    <nd ref="741983168"/>
    <nd ref="741982674"/>
    <nd ref="741983033"/>
    <nd ref="741983169"/>
    <nd ref="60304599"/>
    <nd ref="741983035"/>
    <nd ref="741983036"/>
    <nd ref="60304600"/>
    <nd ref="741983113"/>
    <nd ref="60304601"/>
    <nd ref="742005912"/>
    <nd ref="60304602"/>
    <nd ref="742005914"/>
    <nd ref="742006442"/>
    <nd ref="60304603"/>
    <nd ref="742005915"/>
    <nd ref="742005916"/>
    <nd ref="60304604"/>
    <nd ref="742005917"/>
    <nd ref="60304605"/>
    <nd ref="742005919"/>
    <nd ref="713022394"/>
    <nd ref="742006065"/>
    <nd ref="1246763248"/>
    <nd ref="60304606"/>
    <tag k="railway" v="rail"/>
    <tag k="source" v="nearmap"/>
  </way>
</osm>
