<?xml version='1.0' encoding='UTF-8'?>
<osm version="0.6" generator="libosmium/2.20.0">
  <way id="27034055" version="1" timestamp="2008-09-13T10:27:54Z" uid="43863" user="Rundling" changeset="620254">
    <nd ref="296333511"/>
    <nd ref="296333512"/>
    <nd ref="296333513"/>
    <nd ref="296333514"/>
    <nd ref="296333511"/>
    <tag k="addr:city" v="Rosche"/>
    <tag k="addr:housenumber" v="15"/>
    <tag k="addr:postcode" v="29571"/>
    <tag k="addr:street" v="Ringstraße"/>
    <tag k="building" v="yes"/>
    <tag k="created_by" v="Merkaartor 0.11"/>
  </way>
  <way id="27034055" version="2" timestamp="2008-09-21T05:27:10Z" uid="43863" user="Rundling" changeset="671823">
    <nd ref="296333511"/>
    <nd ref="296333512"/>
    <nd ref="296333513"/>
    <nd ref="296333514"/>
    <nd ref="296333511"/>
    <tag k="addr:city" v="Rosche"/>
    <tag k="addr:housenumber" v="17"/>
    <tag k="addr:postcode" v="29571"/>
    <tag k="addr:street" v="Ringstraße"/>
    <tag k="building" v="yes"/>
    <tag k="created_by" v="Merkaartor 0.11"/>
  </way>
  <way id="27034055" version="3" timestamp="2008-09-27T08:56:50Z" uid="43863" user="Rundling" changeset="703494"/>
  <way id="27034056" version="1" timestamp="2008-09-13T10:27:54Z" uid="43863" user="Rundling" changeset="620254">
    <nd ref="296333517"/>
    <nd ref="296333518"/>
    <nd ref="296333520"/>
    <nd ref="296333521"/>
    <nd ref="296333517"/>
    <tag k="addr:city" v="Rosche"/>
    <tag k="addr:housenumber" v="15"/>
    <tag k="addr:postcode" v="29571"/>
    <tag k="addr:street" v="Ringstraße"/>
    <tag k="building" v="yes"/>
    <tag k="created_by" v="Merkaartor 0.11"/>
  </way>
  <way id="27034056" version="2" timestamp="2008-09-21T09:57:21Z" uid="43863" user="Rundling" changeset="672365">
    <nd ref="296333517"/>
    <nd ref="296333518"/>
    <nd ref="296333520"/>
    <nd ref="296333521"/>
    <nd ref="296333517"/>
    <tag k="addr:city" v="Rosche"/>
    <tag k="addr:housenumber" v="19"/>
    <tag k="addr:postcode" v="29571"/>
    <tag k="addr:street" v="Ringstraße"/>
    <tag k="building" v="yes"/>
    <tag k="created_by" v="Potlatch 0.10b"/>
  </way>
  <way id="27034056" version="3" timestamp="2008-09-27T08:56:50Z" uid="43863" user="Rundling" changeset="703494"/>
  <way id="27034057" version="1" timestamp="2008-09-13T10:27:55Z" uid="43863" user="Rundling" changeset="620254">
    <nd ref="296333523"/>
    <nd ref="296333524"/>
    <nd ref="296333526"/>
    <nd ref="296333529"/>
    <nd ref="296333523"/>
    <tag k="addr:city" v="Rosche"/>
    <tag k="addr:housenumber" v="15"/>
    <tag k="addr:postcode" v="29571"/>
    <tag k="addr:street" v="Ringstraße"/>
    <tag k="building" v="yes"/>
    <tag k="created_by" v="Merkaartor 0.11"/>
  </way>
  <way id="27034057" version="2" timestamp="2008-09-21T09:57:28Z" uid="43863" user="Rundling" changeset="672365">
    <nd ref="296333523"/>
    <nd ref="296333524"/>
    <nd ref="296333526"/>
    <nd ref="296333529"/>
    <nd ref="296333523"/>
    <tag k="addr:city" v="Rosche"/>
    <tag k="addr:housenumber" v="21"/>
    <tag k="addr:postcode" v="29571"/>
    <tag k="addr:street" v="Ringstraße"/>
    <tag k="building" v="yes"/>
    <tag k="created_by" v="Potlatch 0.10b"/>
  </way>
  <way id="27034057" version="3" timestamp="2008-09-27T09:07:43Z" uid="43863" user="Rundling" changeset="703494"/>
  <way id="27034058" version="1" timestamp="2008-09-13T10:27:56Z" uid="43863" user="Rundling" changeset="620254">
    <nd ref="296333536"/>
    <nd ref="296333537"/>
    <nd ref="296333538"/>
    <nd ref="296333539"/>
    <nd ref="296333536"/>
    <tag k="addr:city" v="Rosche"/>
    <tag k="addr:housenumber" v="23"/>
    <tag k="addr:postcode" v="29571"/>
    <tag k="addr:street" v="Ringstraße"/>
    <tag k="building" v="yes"/>
    <tag k="created_by" v="Merkaartor 0.11"/>
  </way>
  <way id="27034058" version="2" timestamp="2008-09-27T09:07:43Z" uid="43863" user="Rundling" changeset="703494"/>
  <way id="27034059" version="1" timestamp="2008-09-13T10:27:56Z" uid="43863" user="Rundling" changeset="620254">
    <nd ref="296333541"/>
    <nd ref="296333542"/>
    <nd ref="296333544"/>
    <nd ref="296333545"/>
    <nd ref="296333541"/>
    <tag k="addr:city" v="Rosche"/>
    <tag k="addr:housenumber" v="15"/>
    <tag k="addr:postcode" v="29571"/>
    <tag k="addr:street" v="Ringstraße"/>
    <tag k="building" v="yes"/>
    <tag k="created_by" v="Merkaartor 0.11"/>
  </way>
  <way id="27034059" version="2" timestamp="2008-09-21T05:27:11Z" uid="43863" user="Rundling" changeset="671823">
    <nd ref="296333541"/>
    <nd ref="296333542"/>
    <nd ref="296333544"/>
    <nd ref="296333545"/>
    <nd ref="296333541"/>
    <tag k="addr:city" v="Rosche"/>
    <tag k="addr:housenumber" v="25"/>
    <tag k="addr:postcode" v="29571"/>
    <tag k="addr:street" v="Ringstraße"/>
    <tag k="building" v="yes"/>
    <tag k="created_by" v="Merkaartor 0.11"/>
  </way>
  <way id="27034059" version="3" timestamp="2008-09-27T09:07:43Z" uid="43863" user="Rundling" changeset="703494"/>
  <way id="27034060" version="1" timestamp="2008-09-13T10:27:57Z" uid="43863" user="Rundling" changeset="620254">
    <nd ref="296333546"/>
    <nd ref="296333547"/>
    <nd ref="296333548"/>
    <nd ref="296333549"/>
    <nd ref="296333546"/>
    <tag k="addr:city" v="Rosche"/>
    <tag k="addr:housenumber" v="27"/>
    <tag k="addr:postcode" v="29571"/>
    <tag k="addr:street" v="Ringstraße"/>
    <tag k="building" v="yes"/>
    <tag k="created_by" v="Merkaartor 0.11"/>
  </way>
  <way id="27034060" version="2" timestamp="2008-09-27T09:07:43Z" uid="43863" user="Rundling" changeset="703494"/>
  <way id="27034061" version="1" timestamp="2008-09-13T10:27:58Z" uid="43863" user="Rundling" changeset="620254">
    <nd ref="296333550"/>
    <nd ref="296333551"/>
    <nd ref="296333552"/>
    <nd ref="296333553"/>
    <nd ref="296333550"/>
    <tag k="addr:city" v="Rosche"/>
    <tag k="addr:housenumber" v="29"/>
    <tag k="addr:postcode" v="29571"/>
    <tag k="addr:street" v="Ringstraße"/>
    <tag k="building" v="yes"/>
    <tag k="created_by" v="Merkaartor 0.11"/>
  </way>
  <way id="27034061" version="2" timestamp="2008-09-27T09:07:42Z" uid="43863" user="Rundling" changeset="703494"/>
  <way id="27034062" version="1" timestamp="2008-09-13T10:27:58Z" uid="43863" user="Rundling" changeset="620254">
    <nd ref="296333554"/>
    <nd ref="296333555"/>
    <nd ref="296333556"/>
    <nd ref="296333557"/>
    <nd ref="296333554"/>
    <tag k="addr:city" v="Rosche"/>
    <tag k="addr:housenumber" v="31"/>
    <tag k="addr:postcode" v="29571"/>
    <tag k="addr:street" v="Ringstraße"/>
    <tag k="building" v="yes"/>
    <tag k="created_by" v="Merkaartor 0.11"/>
  </way>
  <way id="27034062" version="2" timestamp="2008-09-27T09:07:42Z" uid="43863" user="Rundling" changeset="703494"/>
  <way id="27034093" version="2" timestamp="2008-09-14T17:31:09Z" uid="6975" user="ulfl" changeset="640534">
    <nd ref="296334241"/>
    <nd ref="296334242"/>
    <nd ref="296334244"/>
    <nd ref="296334245"/>
    <nd ref="296334246"/>
    <nd ref="296334247"/>
    <nd ref="296334248"/>
    <nd ref="296334250"/>
    <nd ref="296334257"/>
    <nd ref="296334258"/>
    <nd ref="296334259"/>
    <tag k="highway" v="track"/>
    <tag k="tracktype" v="grade1"/>
  </way>
  <way id="27034094" version="2" timestamp="2008-09-14T17:30:59Z" uid="6975" user="ulfl" changeset="640534">
    <nd ref="296334250"/>
    <nd ref="296334260"/>
    <nd ref="296334261"/>
    <tag k="highway" v="track"/>
    <tag k="tracktype" v="grade1"/>
  </way>
  <way id="27034095" version="2" timestamp="2008-09-14T17:31:00Z" uid="6975" user="ulfl" changeset="640534">
    <nd ref="296334262"/>
    <nd ref="296334263"/>
    <nd ref="296334264"/>
    <nd ref="296334266"/>
    <nd ref="296334268"/>
    <nd ref="296334269"/>
    <nd ref="296334270"/>
    <nd ref="296334272"/>
    <nd ref="296334273"/>
    <nd ref="296334276"/>
    <nd ref="296334277"/>
    <nd ref="296334278"/>
    <nd ref="296334280"/>
    <tag k="highway" v="track"/>
    <tag k="tracktype" v="grade1"/>
  </way>
  <way id="27034096" version="2" timestamp="2008-09-14T17:30:49Z" uid="6975" user="ulfl" changeset="640534">
    <nd ref="296334281"/>
    <nd ref="296334283"/>
    <nd ref="296334284"/>
    <nd ref="296334287"/>
    <nd ref="296334288"/>
    <nd ref="296334289"/>
    <nd ref="296334291"/>
    <nd ref="296334292"/>
    <nd ref="296334294"/>
    <nd ref="296334295"/>
    <nd ref="296334297"/>
    <nd ref="296334299"/>
    <nd ref="296334300"/>
    <nd ref="296334302"/>
    <nd ref="296334303"/>
    <nd ref="296334305"/>
    <nd ref="296334306"/>
    <nd ref="296334308"/>
    <nd ref="296334310"/>
    <nd ref="296334311"/>
    <nd ref="296334313"/>
    <nd ref="296334314"/>
    <tag k="highway" v="track"/>
    <tag k="tracktype" v="grade1"/>
  </way>
  <way id="27034098" version="2" timestamp="2008-09-14T17:30:46Z" uid="6975" user="ulfl" changeset="640534">
    <nd ref="296334322"/>
    <nd ref="296334324"/>
    <nd ref="296334325"/>
    <nd ref="296334327"/>
    <nd ref="296334328"/>
    <nd ref="296334329"/>
    <nd ref="296334332"/>
    <nd ref="296334335"/>
    <nd ref="296334337"/>
    <nd ref="296334339"/>
    <nd ref="296334340"/>
    <nd ref="296334342"/>
    <nd ref="296334281"/>
    <tag k="highway" v="track"/>
    <tag k="tracktype" v="grade1"/>
  </way>
  <way id="27034103" version="2" timestamp="2008-09-14T17:30:50Z" uid="6975" user="ulfl" changeset="640534">
    <nd ref="296334281"/>
    <nd ref="296334368"/>
    <nd ref="296334369"/>
    <nd ref="296334372"/>
    <nd ref="296334374"/>
    <nd ref="296334375"/>
    <nd ref="296334377"/>
    <nd ref="296334380"/>
    <nd ref="296334383"/>
    <nd ref="296334388"/>
    <nd ref="296334392"/>
    <nd ref="296334393"/>
    <nd ref="296334394"/>
    <nd ref="296334395"/>
    <nd ref="296334396"/>
    <nd ref="296334397"/>
    <nd ref="296334398"/>
    <nd ref="296334399"/>
    <nd ref="296334400"/>
    <nd ref="296334401"/>
    <nd ref="296334403"/>
    <nd ref="296334404"/>
    <nd ref="296334408"/>
    <nd ref="296334409"/>
    <nd ref="296334410"/>
    <nd ref="296334411"/>
    <nd ref="296334412"/>
    <nd ref="296334414"/>
    <nd ref="296334415"/>
    <nd ref="296334416"/>
    <nd ref="296334417"/>
    <nd ref="296334418"/>
    <nd ref="296334419"/>
    <nd ref="296334421"/>
    <nd ref="296334422"/>
    <tag k="highway" v="track"/>
    <tag k="surface" v="unpaved"/>
    <tag k="tracktype" v="grade1"/>
  </way>
  <way id="27034105" version="2" timestamp="2008-09-14T17:30:56Z" uid="6975" user="ulfl" changeset="640534">
    <nd ref="296334396"/>
    <nd ref="296334423"/>
    <nd ref="296334424"/>
    <nd ref="296334425"/>
    <nd ref="296334426"/>
    <nd ref="296334427"/>
    <nd ref="296334429"/>
    <nd ref="296334432"/>
    <nd ref="296334435"/>
    <nd ref="296334438"/>
    <nd ref="296334439"/>
    <nd ref="296334440"/>
    <tag k="highway" v="track"/>
    <tag k="tracktype" v="grade1"/>
  </way>
  <way id="27034106" version="2" timestamp="2008-09-14T17:30:53Z" uid="6975" user="ulfl" changeset="640534">
    <nd ref="296334475"/>
    <nd ref="296334476"/>
    <nd ref="296334478"/>
    <nd ref="296334479"/>
    <nd ref="296334480"/>
    <nd ref="296334481"/>
    <nd ref="296334482"/>
    <nd ref="296334483"/>
    <nd ref="296334485"/>
    <nd ref="296334486"/>
    <nd ref="296334487"/>
    <nd ref="296334488"/>
    <nd ref="296334489"/>
    <nd ref="296334490"/>
    <nd ref="296334491"/>
    <nd ref="296334492"/>
    <nd ref="296334494"/>
    <nd ref="296334495"/>
    <nd ref="296334496"/>
    <nd ref="296334497"/>
    <nd ref="296334498"/>
    <nd ref="296334499"/>
    <nd ref="296334500"/>
    <tag k="highway" v="track"/>
    <tag k="surface" v="unpaved"/>
    <tag k="tracktype" v="grade1"/>
  </way>
  <way id="27034107" version="2" timestamp="2008-09-14T17:30:51Z" uid="6975" user="ulfl" changeset="640534">
    <nd ref="296334490"/>
    <nd ref="296334502"/>
    <nd ref="296334503"/>
    <nd ref="296334504"/>
    <tag k="highway" v="track"/>
    <tag k="surface" v="unpaved"/>
    <tag k="tracktype" v="grade1"/>
  </way>
  <way id="27034108" version="2" timestamp="2008-09-14T17:31:05Z" uid="6975" user="ulfl" changeset="640534">
    <nd ref="296334481"/>
    <nd ref="296334505"/>
    <nd ref="296334506"/>
    <nd ref="296334507"/>
    <nd ref="296334509"/>
    <nd ref="296334511"/>
    <nd ref="296334512"/>
    <nd ref="296334514"/>
    <nd ref="296334515"/>
    <nd ref="296334518"/>
    <nd ref="296334520"/>
    <nd ref="296334521"/>
    <nd ref="296334523"/>
    <nd ref="296334524"/>
    <nd ref="296334526"/>
    <nd ref="296334527"/>
    <nd ref="296334530"/>
    <nd ref="296334531"/>
    <nd ref="296334533"/>
    <nd ref="296334534"/>
    <nd ref="296334536"/>
    <nd ref="296334537"/>
    <tag k="highway" v="track"/>
    <tag k="surface" v="unpaved"/>
    <tag k="tracktype" v="grade1"/>
  </way>
  <way id="27034648" version="7" timestamp="2009-12-09T02:43:36Z" uid="200463" user="harmagedon" changeset="3330572">
    <nd ref="296337849"/>
    <nd ref="296337922"/>
    <nd ref="296337923"/>
    <nd ref="296337924"/>
    <nd ref="296337925"/>
    <nd ref="296337926"/>
    <nd ref="296337927"/>
    <nd ref="301010140"/>
    <nd ref="296337929"/>
    <nd ref="296337930"/>
    <nd ref="345521349"/>
    <nd ref="296337931"/>
    <nd ref="301010206"/>
    <nd ref="301010207"/>
    <nd ref="296337932"/>
    <nd ref="296337933"/>
    <nd ref="296337934"/>
    <nd ref="296337935"/>
    <tag k="highway" v="residential"/>
    <tag k="name" v="Grüner Weg"/>
  </way>
  <way id="27034651" version="5" timestamp="2009-12-09T02:44:13Z" uid="200463" user="harmagedon" changeset="3330572">
    <nd ref="296337935"/>
    <nd ref="296337969"/>
    <nd ref="296337984"/>
    <nd ref="296337971"/>
    <nd ref="296337974"/>
    <tag k="highway" v="residential"/>
    <tag k="name" v="Simon-Stoll-Straße"/>
  </way>
  <way id="27034676" version="9" timestamp="2009-12-09T02:44:53Z" uid="200463" user="harmagedon" changeset="3330572">
    <nd ref="296338160"/>
    <nd ref="296338211"/>
    <nd ref="296338212"/>
    <nd ref="296338213"/>
    <nd ref="296338214"/>
    <nd ref="296338215"/>
    <nd ref="296350051"/>
    <nd ref="296350052"/>
    <nd ref="296350053"/>
    <nd ref="287104657"/>
    <tag k="highway" v="residential"/>
    <tag k="name" v="Hopfenacker"/>
  </way>
  <way id="27034677" version="5" timestamp="2009-12-09T02:44:54Z" uid="200463" user="harmagedon" changeset="3330572">
    <nd ref="296338214"/>
    <nd ref="296338236"/>
    <nd ref="296338256"/>
    <nd ref="296338238"/>
    <nd ref="296338257"/>
    <nd ref="296338258"/>
    <nd ref="296338242"/>
    <tag k="highway" v="residential"/>
    <tag k="name" v="Kapellenweg"/>
  </way>
  <way id="27034697" version="2" timestamp="2009-12-09T02:44:55Z" uid="200463" user="harmagedon" changeset="3330572">
    <nd ref="287104743"/>
    <nd ref="296338493"/>
    <nd ref="296338494"/>
    <nd ref="296338495"/>
    <nd ref="296338384"/>
    <tag k="highway" v="residential"/>
    <tag k="name" v="Baureith"/>
    <tag k="oneway" v="yes"/>
  </way>
  <way id="27034698" version="5" timestamp="2009-12-09T02:44:54Z" uid="200463" user="harmagedon" changeset="3330572">
    <nd ref="296338384"/>
    <nd ref="287104740"/>
    <nd ref="287104742"/>
    <nd ref="287104743"/>
    <tag k="highway" v="residential"/>
    <tag k="name" v="Baureith"/>
    <tag k="oneway" v="yes"/>
  </way>
  <way id="27034792" version="4" timestamp="2009-02-16T10:11:35Z" uid="9581" user="Lobelt" changeset="476707">
    <nd ref="296338788"/>
    <nd ref="205455429"/>
    <nd ref="9566608"/>
    <nd ref="21358727"/>
    <nd ref="346133713"/>
    <nd ref="346133711"/>
    <nd ref="205455437"/>
    <nd ref="205455441"/>
    <nd ref="9566579"/>
    <nd ref="346133710"/>
    <nd ref="205455449"/>
    <nd ref="205460271"/>
    <nd ref="296330434"/>
    <tag k="bicycle" v="no"/>
    <tag k="created_by" v="Potlatch 0.10b"/>
    <tag k="foot" v="no"/>
    <tag k="highway" v="motorway"/>
    <tag k="horse" v="no"/>
    <tag k="int_ref" v="E 55"/>
    <tag k="lanes" v="2"/>
    <tag k="maxspeed" v="130"/>
    <tag k="motorcar" v="yes"/>
    <tag k="oneway" v="yes"/>
    <tag k="ref" v="A 13"/>
  </way>
  <way id="27034809" version="4" timestamp="2008-11-05T11:09:25Z" uid="9581" user="Lobelt" changeset="684166">
    <nd ref="130210207"/>
    <nd ref="130210439"/>
    <nd ref="310026021"/>
    <tag k="bicycle" v="no"/>
    <tag k="created_by" v="Potlatch 0.10c"/>
    <tag k="foot" v="no"/>
    <tag k="highway" v="motorway"/>
    <tag k="horse" v="no"/>
    <tag k="int_ref" v="E 55"/>
    <tag k="lanes" v="2"/>
    <tag k="motorcar" v="yes"/>
    <tag k="oneway" v="yes"/>
    <tag k="ref" v="A 13"/>
  </way>
  <way id="27034866" version="3" timestamp="2010-03-06T20:40:42Z" uid="9581" user="Lobelt" changeset="4054568">
    <nd ref="296339276"/>
    <nd ref="258987322"/>
    <nd ref="300880284"/>
    <nd ref="300880278"/>
    <nd ref="661434391"/>
    <nd ref="258987323"/>
    <tag k="railway" v="rail"/>
    <tag k="source" v="gps"/>
  </way>
  <way id="27034869" version="3" timestamp="2008-09-14T14:45:39Z" uid="6975" user="ulfl" changeset="640534">
    <nd ref="296339096"/>
    <nd ref="296339097"/>
    <nd ref="296339098"/>
    <nd ref="296339100"/>
    <nd ref="296339101"/>
    <nd ref="296339104"/>
    <nd ref="296339107"/>
    <nd ref="296339110"/>
    <nd ref="296339114"/>
    <nd ref="296339116"/>
    <nd ref="296339119"/>
    <nd ref="296339122"/>
    <nd ref="296339125"/>
    <nd ref="296339128"/>
    <nd ref="296339131"/>
    <nd ref="296339134"/>
    <nd ref="296339137"/>
    <nd ref="296339141"/>
    <tag k="highway" v="road"/>
    <tag k="mountain_pass" v="yes"/>
  </way>
  <way id="27034875" version="3" timestamp="2008-09-14T14:45:40Z" uid="6975" user="ulfl" changeset="640534">
    <nd ref="296339217"/>
    <nd ref="296339220"/>
    <tag k="highway" v="road"/>
    <tag k="mountain_pass" v="yes"/>
  </way>
  <way id="27034910" version="7" timestamp="2009-12-09T02:42:48Z" uid="200463" user="harmagedon" changeset="3330572">
    <nd ref="296339150"/>
    <nd ref="296339446"/>
    <nd ref="296339447"/>
    <nd ref="296339448"/>
    <nd ref="296339449"/>
    <nd ref="296339450"/>
    <nd ref="296339451"/>
    <nd ref="296339452"/>
    <nd ref="296339453"/>
    <nd ref="296339454"/>
    <nd ref="282570829"/>
    <tag k="access" v="no"/>
    <tag k="highway" v="unclassified"/>
    <tag k="name" v="Schaubergstraße"/>
  </way>
  <way id="27034994" version="6" timestamp="2009-12-09T02:43:14Z" uid="200463" user="harmagedon" changeset="3330572">
    <nd ref="296340166"/>
    <nd ref="296340248"/>
    <nd ref="296344317"/>
    <nd ref="296340250"/>
    <nd ref="296344318"/>
    <nd ref="296340252"/>
    <nd ref="296340198"/>
    <nd ref="296340199"/>
    <nd ref="296340200"/>
    <nd ref="296340201"/>
    <nd ref="296340202"/>
    <nd ref="296340221"/>
    <tag k="highway" v="residential"/>
    <tag k="name" v="Katzing"/>
  </way>
</osm>
