<?xml version='1.0' encoding='UTF-8'?>
<osm version="0.6" generator="libosmium/2.20.0">
  <way id="27090055" version="4" timestamp="2010-04-07T12:50:38Z" uid="20587" user="balrog-kun" changeset="4353646">
    <nd ref="297226064"/>
    <nd ref="81547789"/>
    <tag k="bridge" v="yes"/>
    <tag k="created_by" v="Potlatch 0.10b"/>
    <tag k="highway" v="primary"/>
    <tag k="layer" v="1"/>
    <tag k="name" v="Royal Lane"/>
    <tag k="name_1" v="East Miller Road"/>
    <tag k="tiger:cfcc" v="A41"/>
    <tag k="tiger:county" v="Dallas, TX"/>
    <tag k="tiger:name_base" v="Royal"/>
    <tag k="tiger:name_base_1" v="Miller"/>
    <tag k="tiger:name_direction_prefix_1" v="E"/>
    <tag k="tiger:name_type" v="Ln"/>
    <tag k="tiger:name_type_1" v="Rd"/>
    <tag k="tiger:separated" v="no"/>
    <tag k="tiger:source" v="tiger_import_dch_v0.6_20070829"/>
    <tag k="tiger:tlid" v="103207102:103207086:103207087:102917325:103207094:103207095:103244435:103244445:103244448:103244451:103244452:102976801:103167693:103167694"/>
    <tag k="tiger:zip_left" v="75238"/>
    <tag k="tiger:zip_right" v="75238"/>
  </way>
  <way id="27090056" version="3" timestamp="2010-04-07T12:50:39Z" uid="20587" user="balrog-kun" changeset="4353646">
    <nd ref="81547789"/>
    <nd ref="81547761"/>
    <nd ref="81547821"/>
    <tag k="created_by" v="Potlatch 0.10b"/>
    <tag k="highway" v="primary"/>
    <tag k="name" v="Royal Lane"/>
    <tag k="name_1" v="East Miller Road"/>
    <tag k="tiger:cfcc" v="A41"/>
    <tag k="tiger:county" v="Dallas, TX"/>
    <tag k="tiger:name_base" v="Royal"/>
    <tag k="tiger:name_base_1" v="Miller"/>
    <tag k="tiger:name_direction_prefix_1" v="E"/>
    <tag k="tiger:name_type" v="Ln"/>
    <tag k="tiger:name_type_1" v="Rd"/>
    <tag k="tiger:reviewed" v="no"/>
    <tag k="tiger:separated" v="no"/>
    <tag k="tiger:source" v="tiger_import_dch_v0.6_20070829"/>
    <tag k="tiger:tlid" v="103207102:103207086:103207087:102917325:103207094:103207095:103244435:103244445:103244448:103244451:103244452:102976801:103167693:103167694"/>
    <tag k="tiger:zip_left" v="75238"/>
    <tag k="tiger:zip_right" v="75238"/>
  </way>
  <way id="27090062" version="4" timestamp="2010-04-07T12:50:39Z" uid="20587" user="balrog-kun" changeset="4353646">
    <nd ref="297226242"/>
    <nd ref="81547791"/>
    <tag k="bridge" v="yes"/>
    <tag k="created_by" v="Potlatch 0.10b"/>
    <tag k="highway" v="primary"/>
    <tag k="layer" v="1"/>
    <tag k="name" v="Miller Road"/>
    <tag k="tiger:cfcc" v="A41"/>
    <tag k="tiger:county" v="Dallas, TX"/>
    <tag k="tiger:name_base" v="Miller"/>
    <tag k="tiger:name_type" v="Rd"/>
    <tag k="tiger:reviewed" v="no"/>
    <tag k="tiger:separated" v="no"/>
    <tag k="tiger:source" v="tiger_import_dch_v0.6_20070829"/>
    <tag k="tiger:tlid" v="103271341:103271595:103244529:103244844:103244530:103244533:103244534:103245365:103244822:103244823:103271411:103244422:103244425:103244430:103244431:103244432:103244433:103244436:103244437:103244850"/>
  </way>
  <way id="27090231" version="3" timestamp="2009-04-10T03:50:37Z" uid="113393" user="Anjer" changeset="393422">
    <nd ref="294860864"/>
    <nd ref="294860865"/>
    <nd ref="294860866"/>
    <nd ref="294860868"/>
    <nd ref="294860869"/>
    <nd ref="294860871"/>
    <nd ref="294860872"/>
    <nd ref="294860873"/>
    <nd ref="294860874"/>
    <nd ref="294860875"/>
    <nd ref="294860876"/>
    <nd ref="294860877"/>
    <nd ref="294233150"/>
    <nd ref="294233151"/>
    <tag k="created_by" v="Potlatch 0.10b"/>
    <tag k="highway" v="primary"/>
    <tag k="name" v="Jan Noorduynweg"/>
  </way>
  <way id="27090239" version="6" timestamp="2009-04-10T03:50:34Z" uid="113393" user="Anjer" changeset="393422">
    <nd ref="294233157"/>
    <nd ref="294233158"/>
    <nd ref="294233160"/>
    <nd ref="294233161"/>
    <nd ref="294233162"/>
    <nd ref="294233163"/>
    <nd ref="294233166"/>
    <nd ref="338833388"/>
    <nd ref="294233170"/>
    <nd ref="295877829"/>
    <nd ref="295877868"/>
    <nd ref="294233173"/>
    <nd ref="294233176"/>
    <nd ref="338833408"/>
    <nd ref="294233179"/>
    <nd ref="294233183"/>
    <nd ref="294233188"/>
    <nd ref="294233191"/>
    <nd ref="294233194"/>
    <nd ref="297988015"/>
    <nd ref="294233196"/>
    <nd ref="294233198"/>
    <nd ref="338833409"/>
    <nd ref="295878347"/>
    <nd ref="294233200"/>
    <nd ref="294233201"/>
    <nd ref="294233202"/>
    <nd ref="294233203"/>
    <nd ref="294233204"/>
    <nd ref="297988032"/>
    <nd ref="294233205"/>
    <nd ref="294233206"/>
    <nd ref="294233207"/>
    <nd ref="294233209"/>
    <nd ref="294233210"/>
    <nd ref="294233212"/>
    <nd ref="295877869"/>
    <nd ref="294233214"/>
    <nd ref="294233216"/>
    <nd ref="294233219"/>
    <nd ref="294233221"/>
    <tag k="created_by" v="Merkaartor 0.12"/>
    <tag k="highway" v="primary"/>
    <tag k="name" v="Winston Churchillweg"/>
  </way>
  <way id="27090239" version="7" timestamp="2009-04-10T04:10:48Z" uid="113393" user="Anjer" changeset="393422">
    <nd ref="294233157"/>
    <nd ref="294233158"/>
    <nd ref="294233160"/>
    <nd ref="294233161"/>
    <nd ref="294233162"/>
    <nd ref="294233163"/>
    <nd ref="294233166"/>
    <nd ref="338833388"/>
    <nd ref="294233170"/>
    <nd ref="295877829"/>
    <nd ref="295877868"/>
    <nd ref="294233173"/>
    <nd ref="294233176"/>
    <nd ref="338833408"/>
    <nd ref="294233179"/>
    <nd ref="294233183"/>
    <nd ref="294233188"/>
    <nd ref="294233191"/>
    <nd ref="294233194"/>
    <nd ref="297988015"/>
    <nd ref="294233196"/>
    <nd ref="294233198"/>
    <nd ref="338833409"/>
    <nd ref="295878347"/>
    <nd ref="294233200"/>
    <nd ref="294233201"/>
    <nd ref="294233202"/>
    <nd ref="294233203"/>
    <nd ref="294233204"/>
    <nd ref="297988032"/>
    <nd ref="294233205"/>
    <nd ref="294233206"/>
    <nd ref="294233207"/>
    <nd ref="294233209"/>
    <nd ref="294233210"/>
    <nd ref="294233212"/>
    <nd ref="295877869"/>
    <nd ref="294233214"/>
    <nd ref="294233216"/>
    <nd ref="294233219"/>
    <nd ref="294233221"/>
    <tag k="created_by" v="Potlatch 0.10f"/>
    <tag k="highway" v="primary"/>
    <tag k="name" v="Winston Churchillweg"/>
  </way>
  <way id="27090243" version="29" timestamp="2009-09-19T02:44:44Z" uid="20587" user="balrog-kun" changeset="2529861">
    <nd ref="295984172"/>
    <nd ref="297227451"/>
    <nd ref="297227453"/>
    <nd ref="297227454"/>
    <nd ref="297228462"/>
    <nd ref="297227456"/>
    <nd ref="297228495"/>
    <nd ref="297867181"/>
    <nd ref="297227458"/>
    <nd ref="297228497"/>
    <nd ref="297227461"/>
    <nd ref="297228385"/>
    <nd ref="297227463"/>
    <nd ref="297228261"/>
    <nd ref="297228386"/>
    <nd ref="297228387"/>
    <nd ref="297227468"/>
    <nd ref="297227469"/>
    <nd ref="297227470"/>
    <nd ref="297227471"/>
    <nd ref="297227472"/>
    <nd ref="297228267"/>
    <nd ref="297227475"/>
    <nd ref="297227476"/>
    <nd ref="297227477"/>
    <nd ref="297228998"/>
    <nd ref="297227479"/>
    <nd ref="297228389"/>
    <nd ref="297227482"/>
    <nd ref="297228271"/>
    <nd ref="297227484"/>
    <nd ref="297228274"/>
    <nd ref="297227486"/>
    <nd ref="297227487"/>
    <nd ref="297227488"/>
    <nd ref="297227490"/>
    <nd ref="297227491"/>
    <nd ref="297227492"/>
    <nd ref="297227493"/>
    <nd ref="297228278"/>
    <nd ref="297228391"/>
    <nd ref="297228283"/>
    <nd ref="297227498"/>
    <nd ref="297228285"/>
    <nd ref="297227500"/>
    <nd ref="297228288"/>
    <nd ref="297227502"/>
    <nd ref="297228289"/>
    <nd ref="297227505"/>
    <nd ref="297228290"/>
    <nd ref="297228467"/>
    <nd ref="297227508"/>
    <nd ref="297227509"/>
    <nd ref="297228292"/>
    <nd ref="297228293"/>
    <nd ref="297228294"/>
    <nd ref="297228999"/>
    <nd ref="297228394"/>
    <nd ref="297227516"/>
    <nd ref="297227518"/>
    <nd ref="297229001"/>
    <nd ref="297228298"/>
    <nd ref="297227521"/>
    <nd ref="297228299"/>
    <nd ref="297227523"/>
    <nd ref="297228300"/>
    <nd ref="297227525"/>
    <nd ref="297228396"/>
    <nd ref="297227528"/>
    <nd ref="297227529"/>
    <nd ref="297229002"/>
    <nd ref="297228304"/>
    <nd ref="297228305"/>
    <nd ref="297228471"/>
    <nd ref="297228307"/>
    <nd ref="297228308"/>
    <nd ref="297227536"/>
    <nd ref="297227538"/>
    <nd ref="297227539"/>
    <nd ref="297228472"/>
    <nd ref="297227541"/>
    <nd ref="297228401"/>
    <nd ref="297227543"/>
    <nd ref="297228402"/>
    <nd ref="297227546"/>
    <nd ref="297228502"/>
    <nd ref="297227548"/>
    <nd ref="297227549"/>
    <nd ref="297227550"/>
    <nd ref="297228474"/>
    <nd ref="297227553"/>
    <nd ref="297227554"/>
    <tag k="name" v="Skierniewka"/>
    <tag k="waterway" v="river"/>
    <tag k="width" v="4"/>
    <tag k="wikipedia" v="pl:Skierniewka"/>
  </way>
  <way id="27090243" version="30" timestamp="2011-04-01T19:06:54Z" uid="66036" user="h4v" changeset="7738309">
    <nd ref="295984172"/>
    <nd ref="297227451"/>
    <nd ref="297227453"/>
    <nd ref="297227454"/>
    <nd ref="297228462"/>
    <nd ref="297227456"/>
    <nd ref="297228495"/>
    <nd ref="297867181"/>
    <nd ref="297227458"/>
    <nd ref="297228497"/>
    <nd ref="297227461"/>
    <nd ref="297228385"/>
    <nd ref="297227463"/>
    <nd ref="297228261"/>
    <nd ref="297228386"/>
    <nd ref="297228387"/>
    <nd ref="297227468"/>
    <nd ref="297227469"/>
    <nd ref="297227470"/>
    <nd ref="297227471"/>
    <nd ref="297227472"/>
    <nd ref="297228267"/>
    <nd ref="297227475"/>
    <nd ref="297227476"/>
    <nd ref="297227477"/>
    <nd ref="297228998"/>
    <nd ref="297227479"/>
    <nd ref="297228389"/>
    <nd ref="297227482"/>
    <nd ref="297228271"/>
    <nd ref="297227484"/>
    <nd ref="297228274"/>
    <nd ref="297227486"/>
    <nd ref="297227487"/>
    <nd ref="297227488"/>
    <nd ref="297227490"/>
    <nd ref="297227491"/>
    <nd ref="297227492"/>
    <nd ref="297227493"/>
    <nd ref="297228278"/>
    <nd ref="297228391"/>
    <nd ref="297228283"/>
    <nd ref="297227498"/>
    <nd ref="297228285"/>
    <nd ref="297227500"/>
    <nd ref="297228288"/>
    <nd ref="297227502"/>
    <nd ref="297228289"/>
    <nd ref="297227505"/>
    <nd ref="297228290"/>
    <nd ref="297228467"/>
    <nd ref="297227508"/>
    <nd ref="297227509"/>
    <nd ref="297228292"/>
    <nd ref="297228293"/>
    <nd ref="297228294"/>
    <nd ref="297228999"/>
    <nd ref="297228394"/>
    <nd ref="297227516"/>
    <nd ref="297227518"/>
    <nd ref="297229001"/>
    <nd ref="297228298"/>
    <nd ref="297227521"/>
    <nd ref="297228299"/>
    <nd ref="297227523"/>
    <nd ref="297228300"/>
    <nd ref="297227525"/>
    <nd ref="297228396"/>
    <nd ref="297227528"/>
    <nd ref="297227529"/>
    <nd ref="297229002"/>
    <nd ref="297228304"/>
    <nd ref="297228305"/>
    <nd ref="297228471"/>
    <nd ref="297228307"/>
    <nd ref="297228308"/>
    <nd ref="297227536"/>
    <nd ref="297227538"/>
    <nd ref="297227539"/>
    <nd ref="297228472"/>
    <nd ref="297227541"/>
    <nd ref="297228401"/>
    <nd ref="297227543"/>
    <nd ref="297228402"/>
    <nd ref="297227546"/>
    <nd ref="297228502"/>
    <nd ref="297227548"/>
    <nd ref="297227549"/>
    <nd ref="297227550"/>
    <nd ref="297228474"/>
    <nd ref="297227553"/>
    <nd ref="297227554"/>
    <tag k="layer" v="-1"/>
    <tag k="name" v="Skierniewka"/>
    <tag k="waterway" v="river"/>
    <tag k="width" v="4"/>
    <tag k="wikipedia" v="pl:Skierniewka"/>
  </way>
  <way id="27090256" version="3" timestamp="2009-09-18T11:40:40Z" uid="20587" user="balrog-kun" changeset="2523165">
    <nd ref="280057296"/>
    <nd ref="280057297"/>
    <nd ref="280059763"/>
    <nd ref="280057599"/>
    <nd ref="280057300"/>
    <nd ref="280059766"/>
    <nd ref="280057601"/>
    <nd ref="280057303"/>
    <nd ref="280057304"/>
    <tag k="addr:city" v="Bobrowniki"/>
    <tag k="highway" v="residential"/>
    <tag k="name" v="Bobrowniki"/>
  </way>
  <way id="27090257" version="3" timestamp="2009-09-18T11:39:46Z" uid="20587" user="balrog-kun" changeset="2523165">
    <nd ref="297227595"/>
    <nd ref="280057296"/>
    <tag k="addr:city" v="Bobrowniki"/>
    <tag k="bridge" v="yes"/>
    <tag k="highway" v="residential"/>
  </way>
  <way id="27090272" version="6" timestamp="2009-09-18T11:40:00Z" uid="20587" user="balrog-kun" changeset="2523165">
    <nd ref="297228364"/>
    <nd ref="499869477"/>
    <nd ref="499849788"/>
    <nd ref="369928705"/>
    <nd ref="458377057"/>
    <nd ref="31126900"/>
    <nd ref="31126901"/>
    <nd ref="31126902"/>
    <nd ref="325225881"/>
    <nd ref="31126903"/>
    <nd ref="325226090"/>
    <nd ref="285608437"/>
    <nd ref="31126904"/>
    <tag k="highway" v="tertiary"/>
  </way>
  <way id="27090305" version="4" timestamp="2011-05-16T00:10:45Z" uid="66036" user="h4v" changeset="8158262">
    <nd ref="297228801"/>
    <nd ref="279397379"/>
    <tag k="highway" v="secondary"/>
    <tag k="name" v="1 Maja"/>
    <tag k="ref" v="705"/>
    <tag k="source:name" v="UMP"/>
  </way>
  <way id="27090307" version="5" timestamp="2011-05-16T00:10:45Z" uid="66036" user="h4v" changeset="8158262">
    <nd ref="297228803"/>
    <nd ref="297228801"/>
    <tag k="bridge" v="yes"/>
    <tag k="highway" v="secondary"/>
    <tag k="name" v="1 Maja"/>
    <tag k="ref" v="705"/>
    <tag k="source:name" v="UMP"/>
  </way>
  <way id="27090313" version="1" timestamp="2008-09-15T14:06:52Z" uid="43863" user="Rundling" changeset="643466">
    <nd ref="296958469"/>
    <nd ref="297229046"/>
    <nd ref="297229048"/>
    <nd ref="297229049"/>
    <nd ref="297229051"/>
    <nd ref="297229053"/>
    <nd ref="296958470"/>
    <nd ref="296958470"/>
    <nd ref="296958469"/>
    <tag k="building" v="yes"/>
    <tag k="created_by" v="Merkaartor 0.11"/>
  </way>
  <way id="27090313" version="2" timestamp="2008-09-15T14:10:02Z" uid="43863" user="Rundling" changeset="643466">
    <nd ref="296958469"/>
    <nd ref="297229046"/>
    <nd ref="297229048"/>
    <nd ref="297229049"/>
    <nd ref="297229051"/>
    <nd ref="297229053"/>
    <nd ref="296958470"/>
    <nd ref="296958470"/>
    <nd ref="296958469"/>
    <tag k="addr:city" v="Rosche"/>
    <tag k="addr:housenumber" v="11"/>
    <tag k="addr:postcode" v="29571"/>
    <tag k="addr:street" v="Lönsstraße"/>
    <tag k="building" v="yes"/>
    <tag k="created_by" v="Merkaartor 0.11"/>
  </way>
  <way id="27090313" version="5" timestamp="2008-09-22T08:53:01Z" uid="43863" user="Rundling" changeset="678651"/>
  <way id="27090314" version="1" timestamp="2008-09-15T14:06:52Z" uid="43863" user="Rundling" changeset="643466">
    <nd ref="297229054"/>
    <nd ref="297229056"/>
    <nd ref="297229057"/>
    <nd ref="297229058"/>
    <nd ref="297229054"/>
    <tag k="building" v="yes"/>
    <tag k="created_by" v="Merkaartor 0.11"/>
  </way>
  <way id="27090314" version="2" timestamp="2008-10-19T09:43:17Z" uid="43863" user="Rundling" changeset="434945"/>
  <way id="27090340" version="3" timestamp="2010-04-07T12:50:39Z" uid="20587" user="balrog-kun" changeset="4353646">
    <nd ref="82140672"/>
    <nd ref="82140674"/>
    <tag k="created_by" v="Potlatch 0.10b"/>
    <tag k="highway" v="motorway"/>
    <tag k="name" v="North President George Bush Highway"/>
    <tag k="name_1" v="State Highway 190"/>
    <tag k="tiger:cfcc" v="A35"/>
    <tag k="tiger:county" v="Dallas, TX"/>
    <tag k="tiger:name_base" v="President George Bush"/>
    <tag k="tiger:name_base_1" v="State Highway 190"/>
    <tag k="tiger:name_direction_prefix" v="N"/>
    <tag k="tiger:name_type" v="Hwy"/>
    <tag k="tiger:reviewed" v="no"/>
    <tag k="tiger:separated" v="yes"/>
    <tag k="tiger:source" v="tiger_import_dch_v0.6_20070829"/>
    <tag k="tiger:tlid" v="103256840:103274046:103274047:103254639:103274049:103254652:103274051:103254658:103274040:103254577:103254600:103274430:103254608:103254609:103274431:103274784:103258808:103274915:103274909:103274912:103274581:103257712:103257714:103257620:103274433:10325"/>
  </way>
  <way id="27090341" version="3" timestamp="2010-04-07T12:50:44Z" uid="20587" user="balrog-kun" changeset="4353646">
    <nd ref="82140670"/>
    <nd ref="82140672"/>
    <tag k="bridge" v="yes"/>
    <tag k="created_by" v="Potlatch 0.10b"/>
    <tag k="highway" v="motorway"/>
    <tag k="layer" v="1"/>
    <tag k="name" v="North President George Bush Highway"/>
    <tag k="name_1" v="State Highway 190"/>
    <tag k="tiger:cfcc" v="A35"/>
    <tag k="tiger:county" v="Dallas, TX"/>
    <tag k="tiger:name_base" v="President George Bush"/>
    <tag k="tiger:name_base_1" v="State Highway 190"/>
    <tag k="tiger:name_direction_prefix" v="N"/>
    <tag k="tiger:name_type" v="Hwy"/>
    <tag k="tiger:separated" v="yes"/>
    <tag k="tiger:source" v="tiger_import_dch_v0.6_20070829"/>
    <tag k="tiger:tlid" v="103256840:103274046:103274047:103254639:103274049:103254652:103274051:103254658:103274040:103254577:103254600:103274430:103254608:103254609:103274431:103274784:103258808:103274915:103274909:103274912:103274581:103257712:103257714:103257620:103274433:10325"/>
  </way>
  <way id="27090344" version="4" timestamp="2010-04-07T12:50:44Z" uid="20587" user="balrog-kun" changeset="4353646">
    <nd ref="82140829"/>
    <nd ref="297229843"/>
    <tag k="bridge" v="yes"/>
    <tag k="created_by" v="Potlatch 0.10b"/>
    <tag k="highway" v="motorway"/>
    <tag k="layer" v="1"/>
    <tag k="name" v="North President George Bush Highway"/>
    <tag k="name_1" v="North Highway 190"/>
    <tag k="name_2" v="State Highway 190"/>
    <tag k="tiger:cfcc" v="A35"/>
    <tag k="tiger:county" v="Dallas, TX"/>
    <tag k="tiger:name_base" v="President George Bush"/>
    <tag k="tiger:name_base_1" v="Highway 190"/>
    <tag k="tiger:name_base_2" v="State Highway 190"/>
    <tag k="tiger:name_direction_prefix" v="N"/>
    <tag k="tiger:name_direction_prefix_1" v="N"/>
    <tag k="tiger:name_type" v="Hwy"/>
    <tag k="tiger:separated" v="yes"/>
    <tag k="tiger:source" v="tiger_import_dch_v0.6_20070829"/>
    <tag k="tiger:tlid" v="102988473:102988476:103211920:103211921:103252652:103252647:103252654:103252655:103210686"/>
    <tag k="tiger:zip_left" v="75040"/>
    <tag k="tiger:zip_right" v="75040"/>
  </way>
  <way id="27090345" version="2" timestamp="2010-04-07T12:50:44Z" uid="20587" user="balrog-kun" changeset="4353646">
    <nd ref="297229843"/>
    <nd ref="81628744"/>
    <tag k="created_by" v="Potlatch 0.10b"/>
    <tag k="highway" v="motorway"/>
    <tag k="name" v="North President George Bush Highway"/>
    <tag k="name_1" v="North Highway 190"/>
    <tag k="name_2" v="State Highway 190"/>
    <tag k="tiger:cfcc" v="A35"/>
    <tag k="tiger:county" v="Dallas, TX"/>
    <tag k="tiger:name_base" v="President George Bush"/>
    <tag k="tiger:name_base_1" v="Highway 190"/>
    <tag k="tiger:name_base_2" v="State Highway 190"/>
    <tag k="tiger:name_direction_prefix" v="N"/>
    <tag k="tiger:name_direction_prefix_1" v="N"/>
    <tag k="tiger:name_type" v="Hwy"/>
    <tag k="tiger:reviewed" v="no"/>
    <tag k="tiger:separated" v="yes"/>
    <tag k="tiger:source" v="tiger_import_dch_v0.6_20070829"/>
    <tag k="tiger:tlid" v="102988473:102988476:103211920:103211921:103252652:103252647:103252654:103252655:103210686"/>
    <tag k="tiger:zip_left" v="75040"/>
    <tag k="tiger:zip_right" v="75040"/>
  </way>
  <way id="27090360" version="2" timestamp="2010-04-07T12:50:45Z" uid="20587" user="balrog-kun" changeset="4353646">
    <nd ref="82140822"/>
    <nd ref="82140823"/>
    <nd ref="82140829"/>
    <tag k="created_by" v="Potlatch 0.10b"/>
    <tag k="highway" v="motorway"/>
    <tag k="name" v="North President George Bush Highway"/>
    <tag k="name_1" v="North Highway 190"/>
    <tag k="name_2" v="State Highway 190"/>
    <tag k="tiger:cfcc" v="A35"/>
    <tag k="tiger:county" v="Dallas, TX"/>
    <tag k="tiger:name_base" v="President George Bush"/>
    <tag k="tiger:name_base_1" v="Highway 190"/>
    <tag k="tiger:name_base_2" v="State Highway 190"/>
    <tag k="tiger:name_direction_prefix" v="N"/>
    <tag k="tiger:name_direction_prefix_1" v="N"/>
    <tag k="tiger:name_type" v="Hwy"/>
    <tag k="tiger:reviewed" v="no"/>
    <tag k="tiger:separated" v="yes"/>
    <tag k="tiger:source" v="tiger_import_dch_v0.6_20070829"/>
    <tag k="tiger:tlid" v="102988473:102988476:103211920:103211921:103252652:103252647:103252654:103252655:103210686"/>
    <tag k="tiger:zip_left" v="75040"/>
    <tag k="tiger:zip_right" v="75040"/>
  </way>
  <way id="27090366" version="3" timestamp="2010-04-07T12:50:45Z" uid="20587" user="balrog-kun" changeset="4353646">
    <nd ref="297230217"/>
    <nd ref="82140822"/>
    <tag k="bridge" v="yes"/>
    <tag k="created_by" v="Potlatch 0.10b"/>
    <tag k="highway" v="motorway"/>
    <tag k="layer" v="1"/>
    <tag k="name" v="North President George Bush Highway"/>
    <tag k="name_1" v="North Highway 190"/>
    <tag k="name_2" v="State Highway 190"/>
    <tag k="tiger:cfcc" v="A35"/>
    <tag k="tiger:county" v="Dallas, TX"/>
    <tag k="tiger:name_base" v="President George Bush"/>
    <tag k="tiger:name_base_1" v="Highway 190"/>
    <tag k="tiger:name_base_2" v="State Highway 190"/>
    <tag k="tiger:name_direction_prefix" v="N"/>
    <tag k="tiger:name_direction_prefix_1" v="N"/>
    <tag k="tiger:name_type" v="Hwy"/>
    <tag k="tiger:separated" v="yes"/>
    <tag k="tiger:source" v="tiger_import_dch_v0.6_20070829"/>
    <tag k="tiger:tlid" v="102988473:102988476:103211920:103211921:103252652:103252647:103252654:103252655:103210686"/>
    <tag k="tiger:zip_left" v="75040"/>
    <tag k="tiger:zip_right" v="75040"/>
  </way>
  <way id="27090372" version="4" timestamp="2010-04-07T12:50:45Z" uid="20587" user="balrog-kun" changeset="4353646">
    <nd ref="82140674"/>
    <nd ref="82140676"/>
    <tag k="bridge" v="yes"/>
    <tag k="created_by" v="Potlatch 0.10b"/>
    <tag k="highway" v="motorway"/>
    <tag k="layer" v="1"/>
    <tag k="name" v="North President George Bush Highway"/>
    <tag k="name_1" v="State Highway 190"/>
    <tag k="tiger:cfcc" v="A35"/>
    <tag k="tiger:county" v="Dallas, TX"/>
    <tag k="tiger:name_base" v="President George Bush"/>
    <tag k="tiger:name_base_1" v="State Highway 190"/>
    <tag k="tiger:name_direction_prefix" v="N"/>
    <tag k="tiger:name_type" v="Hwy"/>
    <tag k="tiger:reviewed" v="no"/>
    <tag k="tiger:separated" v="yes"/>
    <tag k="tiger:source" v="tiger_import_dch_v0.6_20070829"/>
    <tag k="tiger:tlid" v="103256840:103274046:103274047:103254639:103274049:103254652:103274051:103254658:103274040:103254577:103254600:103274430:103254608:103254609:103274431:103274784:103258808:103274915:103274909:103274912:103274581:103257712:103257714:103257620:103274433:10325"/>
  </way>
  <way id="27090373" version="1" timestamp="2008-09-15T14:11:07Z" uid="62339" user="gopholux" changeset="644592">
    <nd ref="297230388"/>
    <nd ref="297230389"/>
    <nd ref="297230390"/>
    <nd ref="297230391"/>
    <nd ref="297230392"/>
    <nd ref="297230394"/>
    <nd ref="297230395"/>
    <nd ref="297230396"/>
    <nd ref="297230397"/>
    <nd ref="297230398"/>
    <nd ref="297230399"/>
    <nd ref="297230400"/>
    <nd ref="297230401"/>
    <nd ref="297230402"/>
    <nd ref="297230403"/>
    <nd ref="297230404"/>
    <nd ref="297230405"/>
    <nd ref="297230406"/>
    <nd ref="297230407"/>
    <nd ref="297230408"/>
    <nd ref="297230409"/>
    <tag k="created_by" v="Potlatch 0.10b"/>
    <tag k="highway" v="tertiary"/>
  </way>
  <way id="27090377" version="5" timestamp="2010-04-07T12:50:46Z" uid="20587" user="balrog-kun" changeset="4353646">
    <nd ref="82140676"/>
    <nd ref="82140678"/>
    <nd ref="82140680"/>
    <nd ref="82140682"/>
    <nd ref="82140683"/>
    <nd ref="81661133"/>
    <nd ref="82140684"/>
    <nd ref="82140685"/>
    <nd ref="82140687"/>
    <nd ref="82140689"/>
    <nd ref="82140691"/>
    <tag k="created_by" v="Potlatch 0.10b"/>
    <tag k="highway" v="motorway"/>
    <tag k="name" v="North President George Bush Highway"/>
    <tag k="name_1" v="State Highway 190"/>
    <tag k="tiger:cfcc" v="A35"/>
    <tag k="tiger:county" v="Dallas, TX"/>
    <tag k="tiger:name_base" v="President George Bush"/>
    <tag k="tiger:name_base_1" v="State Highway 190"/>
    <tag k="tiger:name_direction_prefix" v="N"/>
    <tag k="tiger:name_type" v="Hwy"/>
    <tag k="tiger:reviewed" v="no"/>
    <tag k="tiger:separated" v="yes"/>
    <tag k="tiger:source" v="tiger_import_dch_v0.6_20070829"/>
    <tag k="tiger:tlid" v="103256840:103274046:103274047:103254639:103274049:103254652:103274051:103254658:103274040:103254577:103254600:103274430:103254608:103254609:103274431:103274784:103258808:103274915:103274909:103274912:103274581:103257712:103257714:103257620:103274433:10325"/>
  </way>
  <way id="27090405" version="1" timestamp="2008-09-15T14:13:29Z" uid="62339" user="gopholux" changeset="644592">
    <nd ref="297231117"/>
    <nd ref="297231119"/>
    <nd ref="297231120"/>
    <nd ref="297231121"/>
    <nd ref="297231122"/>
    <nd ref="297231123"/>
    <nd ref="297231124"/>
    <nd ref="297231125"/>
    <nd ref="297231126"/>
    <nd ref="297231127"/>
    <nd ref="297231128"/>
    <nd ref="297231129"/>
    <nd ref="297231130"/>
    <nd ref="297230395"/>
    <tag k="created_by" v="Potlatch 0.10b"/>
    <tag k="highway" v="tertiary"/>
  </way>
  <way id="27090421" version="1" timestamp="2008-09-15T14:14:27Z" uid="43863" user="Rundling" changeset="643466">
    <nd ref="297231534"/>
    <nd ref="297231535"/>
    <nd ref="297231536"/>
    <nd ref="297231537"/>
    <nd ref="297231538"/>
    <nd ref="297231539"/>
    <nd ref="297231540"/>
    <nd ref="297231541"/>
    <nd ref="297231542"/>
    <nd ref="297231534"/>
    <tag k="building" v="yes"/>
    <tag k="created_by" v="Merkaartor 0.11"/>
  </way>
  <way id="27090421" version="2" timestamp="2010-07-11T17:32:10Z" uid="43863" user="Rundling" changeset="5192596">
    <nd ref="297231535"/>
    <nd ref="297231536"/>
    <nd ref="297231537"/>
    <nd ref="297231538"/>
    <nd ref="297231539"/>
    <nd ref="297231542"/>
    <nd ref="297231535"/>
    <tag k="building" v="yes"/>
  </way>
  <way id="27090421" version="3" timestamp="2010-07-12T19:22:47Z" uid="43863" user="Rundling" changeset="5201894">
    <nd ref="297231536"/>
    <nd ref="297231537"/>
    <nd ref="813870237"/>
    <nd ref="813870189"/>
    <nd ref="813870223"/>
    <nd ref="813870213"/>
    <nd ref="813870177"/>
    <nd ref="297231536"/>
    <tag k="building" v="yes"/>
  </way>
  <way id="27090421" version="4" timestamp="2010-12-29T21:52:08Z" uid="43863" user="Rundling" changeset="6803892">
    <nd ref="297231536"/>
    <nd ref="297231537"/>
    <nd ref="813870237"/>
    <nd ref="813870189"/>
    <nd ref="813870223"/>
    <nd ref="813870213"/>
    <nd ref="813870177"/>
    <nd ref="297231536"/>
    <tag k="building" v="yes"/>
  </way>
  <way id="27090421" version="5" timestamp="2011-03-10T15:59:12Z" uid="43863" user="Rundling" changeset="7515323">
    <nd ref="1195454110"/>
    <nd ref="1195454105"/>
    <nd ref="1195454112"/>
    <nd ref="1195454102"/>
    <nd ref="813870223"/>
    <nd ref="813870213"/>
    <nd ref="813870177"/>
    <nd ref="1195454110"/>
    <tag k="building" v="yes"/>
  </way>
  <way id="27090508" version="1" timestamp="2008-09-15T14:20:53Z" uid="62339" user="gopholux" changeset="644592">
    <nd ref="297231866"/>
    <nd ref="297232206"/>
    <nd ref="287759568"/>
    <nd ref="297232207"/>
    <nd ref="297232208"/>
    <nd ref="297232209"/>
    <nd ref="297232210"/>
    <nd ref="297232211"/>
    <nd ref="297232212"/>
    <nd ref="297232213"/>
    <nd ref="297232214"/>
    <nd ref="297232215"/>
    <tag k="created_by" v="Potlatch 0.10b"/>
    <tag k="highway" v="residential"/>
  </way>
  <way id="27090512" version="2" timestamp="2010-04-07T12:50:46Z" uid="20587" user="balrog-kun" changeset="4353646">
    <nd ref="82140808"/>
    <nd ref="82140809"/>
    <nd ref="82140810"/>
    <nd ref="82140811"/>
    <nd ref="82140812"/>
    <nd ref="82140814"/>
    <nd ref="82140815"/>
    <nd ref="82140817"/>
    <nd ref="82140819"/>
    <nd ref="82140821"/>
    <nd ref="81661130"/>
    <nd ref="297230217"/>
    <tag k="created_by" v="Potlatch 0.10b"/>
    <tag k="highway" v="motorway"/>
    <tag k="name" v="North President George Bush Highway"/>
    <tag k="name_1" v="North Highway 190"/>
    <tag k="name_2" v="State Highway 190"/>
    <tag k="tiger:cfcc" v="A35"/>
    <tag k="tiger:county" v="Dallas, TX"/>
    <tag k="tiger:name_base" v="President George Bush"/>
    <tag k="tiger:name_base_1" v="Highway 190"/>
    <tag k="tiger:name_base_2" v="State Highway 190"/>
    <tag k="tiger:name_direction_prefix" v="N"/>
    <tag k="tiger:name_direction_prefix_1" v="N"/>
    <tag k="tiger:name_type" v="Hwy"/>
    <tag k="tiger:reviewed" v="no"/>
    <tag k="tiger:separated" v="yes"/>
    <tag k="tiger:source" v="tiger_import_dch_v0.6_20070829"/>
    <tag k="tiger:tlid" v="102988473:102988476:103211920:103211921:103252652:103252647:103252654:103252655:103210686"/>
    <tag k="tiger:zip_left" v="75040"/>
    <tag k="tiger:zip_right" v="75040"/>
  </way>
  <way id="27090513" version="3" timestamp="2010-04-07T12:50:46Z" uid="20587" user="balrog-kun" changeset="4353646">
    <nd ref="82140804"/>
    <nd ref="82140808"/>
    <tag k="bridge" v="yes"/>
    <tag k="created_by" v="Potlatch 0.10b"/>
    <tag k="highway" v="motorway"/>
    <tag k="layer" v="1"/>
    <tag k="name" v="North President George Bush Highway"/>
    <tag k="name_1" v="North Highway 190"/>
    <tag k="name_2" v="State Highway 190"/>
    <tag k="tiger:cfcc" v="A35"/>
    <tag k="tiger:county" v="Dallas, TX"/>
    <tag k="tiger:name_base" v="President George Bush"/>
    <tag k="tiger:name_base_1" v="Highway 190"/>
    <tag k="tiger:name_base_2" v="State Highway 190"/>
    <tag k="tiger:name_direction_prefix" v="N"/>
    <tag k="tiger:name_direction_prefix_1" v="N"/>
    <tag k="tiger:name_type" v="Hwy"/>
    <tag k="tiger:separated" v="yes"/>
    <tag k="tiger:source" v="tiger_import_dch_v0.6_20070829"/>
    <tag k="tiger:tlid" v="102988473:102988476:103211920:103211921:103252652:103252647:103252654:103252655:103210686"/>
    <tag k="tiger:zip_left" v="75040"/>
    <tag k="tiger:zip_right" v="75040"/>
  </way>
  <way id="27090516" version="9" timestamp="2010-04-07T12:50:46Z" uid="20587" user="balrog-kun" changeset="4353646">
    <nd ref="82140694"/>
    <nd ref="82140696"/>
    <nd ref="81645587"/>
    <nd ref="82140698"/>
    <nd ref="82140699"/>
    <nd ref="81604418"/>
    <nd ref="82140703"/>
    <nd ref="82140705"/>
    <tag k="created_by" v="Potlatch 0.10b"/>
    <tag k="highway" v="motorway"/>
    <tag k="name" v="North President George Bush Highway"/>
    <tag k="name_1" v="State Highway 190"/>
    <tag k="tiger:cfcc" v="A35"/>
    <tag k="tiger:county" v="Dallas, TX"/>
    <tag k="tiger:name_base" v="President George Bush"/>
    <tag k="tiger:name_base_1" v="State Highway 190"/>
    <tag k="tiger:name_direction_prefix" v="N"/>
    <tag k="tiger:name_type" v="Hwy"/>
    <tag k="tiger:separated" v="yes"/>
    <tag k="tiger:source" v="tiger_import_dch_v0.6_20070829"/>
    <tag k="tiger:tlid" v="103256840:103274046:103274047:103254639:103274049:103254652:103274051:103254658:103274040:103254577:103254600:103274430:103254608:103254609:103274431:103274784:103258808:103274915:103274909:103274912:103274581:103257712:103257714:103257620:103274433:10325"/>
  </way>
  <way id="27090518" version="3" timestamp="2010-04-07T12:50:47Z" uid="20587" user="balrog-kun" changeset="4353646">
    <nd ref="82140691"/>
    <nd ref="82140694"/>
    <tag k="bridge" v="yes"/>
    <tag k="created_by" v="Potlatch 0.10b"/>
    <tag k="highway" v="motorway"/>
    <tag k="layer" v="1"/>
    <tag k="name" v="North President George Bush Highway"/>
    <tag k="name_1" v="State Highway 190"/>
    <tag k="tiger:cfcc" v="A35"/>
    <tag k="tiger:county" v="Dallas, TX"/>
    <tag k="tiger:name_base" v="President George Bush"/>
    <tag k="tiger:name_base_1" v="State Highway 190"/>
    <tag k="tiger:name_direction_prefix" v="N"/>
    <tag k="tiger:name_type" v="Hwy"/>
    <tag k="tiger:reviewed" v="no"/>
    <tag k="tiger:separated" v="yes"/>
    <tag k="tiger:source" v="tiger_import_dch_v0.6_20070829"/>
    <tag k="tiger:tlid" v="103256840:103274046:103274047:103254639:103274049:103254652:103274051:103254658:103274040:103254577:103254600:103274430:103254608:103254609:103274431:103274784:103258808:103274915:103274909:103274912:103274581:103257712:103257714:103257620:103274433:10325"/>
  </way>
  <way id="27090554" version="1" timestamp="2008-09-15T14:24:04Z" uid="43863" user="Rundling" changeset="643466">
    <nd ref="297232624"/>
    <nd ref="297232625"/>
    <nd ref="297232626"/>
    <nd ref="297232627"/>
    <nd ref="297232624"/>
    <tag k="building" v="yes"/>
    <tag k="created_by" v="Merkaartor 0.11"/>
  </way>
  <way id="27090554" version="2" timestamp="2008-09-25T13:57:56Z" uid="43863" user="Rundling" changeset="694436">
    <nd ref="297232624"/>
    <nd ref="297232625"/>
    <nd ref="297232626"/>
    <nd ref="297232627"/>
    <nd ref="297232624"/>
    <tag k="addr:city" v="Rosche"/>
    <tag k="addr:housenumber" v="10"/>
    <tag k="addr:postcode" v="29571"/>
    <tag k="addr:street" v="Amselweg"/>
    <tag k="building" v="yes"/>
    <tag k="created_by" v="Merkaartor 0.11"/>
  </way>
  <way id="27090554" version="3" timestamp="2008-09-25T16:54:06Z" uid="43863" user="Rundling" changeset="696933">
    <nd ref="297232624"/>
    <nd ref="297232625"/>
    <nd ref="297232626"/>
    <nd ref="297232627"/>
    <nd ref="297232624"/>
    <tag k="addr:city" v="Rosche"/>
    <tag k="addr:housenumber" v="10"/>
    <tag k="addr:postcode" v="29571"/>
    <tag k="addr:street" v="Amselweg"/>
    <tag k="building" v="yes"/>
    <tag k="created_by" v="Potlatch 0.10b"/>
  </way>
  <way id="27090554" version="4" timestamp="2008-09-25T16:54:13Z" uid="43863" user="Rundling" changeset="696933">
    <nd ref="297232624"/>
    <nd ref="297232625"/>
    <nd ref="297232626"/>
    <nd ref="297232627"/>
    <nd ref="297232624"/>
    <tag k="addr:city" v="Rosche"/>
    <tag k="addr:housenumber" v="10"/>
    <tag k="addr:postcode" v="29571"/>
    <tag k="addr:street" v="Amselweg"/>
    <tag k="building" v="yes"/>
    <tag k="created_by" v="Potlatch 0.10b"/>
  </way>
  <way id="27090554" version="5" timestamp="2010-12-29T21:52:06Z" uid="43863" user="Rundling" changeset="6803892">
    <nd ref="297232625"/>
    <nd ref="297232626"/>
    <nd ref="1071625471"/>
    <nd ref="1071625466"/>
    <nd ref="297232625"/>
    <tag k="addr:city" v="Rosche"/>
    <tag k="addr:housenumber" v="10"/>
    <tag k="addr:postcode" v="29571"/>
    <tag k="addr:street" v="Amselweg"/>
    <tag k="building" v="yes"/>
  </way>
  <way id="27090555" version="1" timestamp="2008-09-15T14:24:06Z" uid="43863" user="Rundling" changeset="643466">
    <nd ref="297232628"/>
    <nd ref="297232629"/>
    <nd ref="297232630"/>
    <nd ref="297232631"/>
    <nd ref="297232632"/>
    <nd ref="297232633"/>
    <nd ref="297232634"/>
    <nd ref="297232635"/>
    <nd ref="297232628"/>
    <tag k="building" v="yes"/>
    <tag k="created_by" v="Merkaartor 0.11"/>
  </way>
  <way id="27090555" version="2" timestamp="2008-09-28T07:15:46Z" uid="43863" user="Rundling" changeset="713017">
    <nd ref="297232628"/>
    <nd ref="297232629"/>
    <nd ref="297233499"/>
    <nd ref="300501609"/>
    <nd ref="297232630"/>
    <nd ref="297232631"/>
    <nd ref="297232632"/>
    <nd ref="297232633"/>
    <nd ref="297232634"/>
    <nd ref="297232635"/>
    <nd ref="297232628"/>
    <tag k="building" v="yes"/>
    <tag k="created_by" v="Merkaartor 0.11"/>
  </way>
  <way id="27090555" version="3" timestamp="2011-01-24T20:49:37Z" uid="43863" user="Rundling" changeset="7077864">
    <nd ref="297232628"/>
    <nd ref="297232629"/>
    <nd ref="1119276299"/>
    <nd ref="1119276302"/>
    <nd ref="1119276360"/>
    <nd ref="297232634"/>
    <nd ref="297232635"/>
    <nd ref="297232628"/>
    <tag k="building" v="yes"/>
  </way>
  <way id="27090555" version="4" timestamp="2011-02-27T17:45:42Z" uid="43863" user="Rundling" changeset="7413334">
    <nd ref="297232628"/>
    <nd ref="297232629"/>
    <nd ref="1177508011"/>
    <nd ref="1177507716"/>
    <nd ref="297232634"/>
    <nd ref="297232635"/>
    <nd ref="297232628"/>
    <tag k="building" v="barn"/>
  </way>
  <way id="27090556" version="1" timestamp="2008-09-15T14:24:07Z" uid="43863" user="Rundling" changeset="643466">
    <nd ref="297232636"/>
    <nd ref="297232637"/>
    <nd ref="297232638"/>
    <nd ref="297232639"/>
    <nd ref="297232636"/>
    <tag k="addr:city" v="Rosche"/>
    <tag k="addr:housenumber" v="1"/>
    <tag k="addr:postcode" v="29571"/>
    <tag k="addr:street" v="Am Kirchplatz"/>
    <tag k="amenity" v="bank"/>
    <tag k="building" v="yes"/>
    <tag k="created_by" v="Merkaartor 0.11"/>
  </way>
  <way id="27090556" version="2" timestamp="2008-09-15T14:30:47Z" uid="43863" user="Rundling" changeset="643466">
    <nd ref="297232636"/>
    <nd ref="297232637"/>
    <nd ref="297232638"/>
    <nd ref="297232639"/>
    <nd ref="297232636"/>
    <tag k="addr:city" v="Rosche"/>
    <tag k="addr:housenumber" v="1"/>
    <tag k="addr:postcode" v="29571"/>
    <tag k="addr:street" v="Am Kirchplatz"/>
    <tag k="building" v="yes"/>
    <tag k="created_by" v="Merkaartor 0.11"/>
  </way>
  <way id="27090557" version="1" timestamp="2008-09-15T14:24:07Z" uid="43863" user="Rundling" changeset="643466">
    <nd ref="297232640"/>
    <nd ref="297232641"/>
    <nd ref="297232642"/>
    <nd ref="297232643"/>
    <nd ref="297232640"/>
    <tag k="addr:city" v="Rosche"/>
    <tag k="addr:housenumber" v="3"/>
    <tag k="addr:postcode" v="29571"/>
    <tag k="addr:street" v="Am Kirchplatz"/>
    <tag k="amenity" v="bank"/>
    <tag k="building" v="yes"/>
    <tag k="created_by" v="Merkaartor 0.11"/>
  </way>
  <way id="27090557" version="2" timestamp="2008-10-08T14:10:48Z" uid="43863" user="Rundling" changeset="161265">
    <nd ref="297232640"/>
    <nd ref="297232641"/>
    <nd ref="297232642"/>
    <nd ref="297232643"/>
    <nd ref="297232640"/>
    <tag k="addr:city" v="Rosche"/>
    <tag k="addr:housenumber" v="3"/>
    <tag k="addr:postcode" v="29571"/>
    <tag k="addr:street" v="Am Kirchplatz"/>
    <tag k="building" v="yes"/>
    <tag k="created_by" v="Merkaartor 0.11"/>
  </way>
  <way id="27090557" version="3" timestamp="2011-01-24T20:49:22Z" uid="43863" user="Rundling" changeset="7077864">
    <nd ref="297232642"/>
    <nd ref="297232643"/>
    <nd ref="1119276296"/>
    <nd ref="1119276311"/>
    <nd ref="297232642"/>
    <tag k="addr:city" v="Rosche"/>
    <tag k="addr:housenumber" v="3"/>
    <tag k="addr:postcode" v="29571"/>
    <tag k="addr:street" v="Am Kirchplatz"/>
    <tag k="building" v="yes"/>
  </way>
  <way id="27090591" version="1" timestamp="2008-09-15T14:25:47Z" uid="62339" user="gopholux" changeset="644592">
    <nd ref="297232782"/>
    <nd ref="297232901"/>
    <nd ref="297232902"/>
    <nd ref="297232903"/>
    <nd ref="297232904"/>
    <nd ref="297232905"/>
    <nd ref="297232906"/>
    <nd ref="297232907"/>
    <nd ref="287758131"/>
    <tag k="created_by" v="Potlatch 0.10b"/>
    <tag k="highway" v="residential"/>
  </way>
  <way id="27090598" version="2" timestamp="2010-04-07T12:50:47Z" uid="20587" user="balrog-kun" changeset="4353646">
    <nd ref="297232940"/>
    <nd ref="81696668"/>
    <nd ref="81696670"/>
    <nd ref="81696671"/>
    <nd ref="81696672"/>
    <nd ref="81696674"/>
    <nd ref="81696675"/>
    <nd ref="81696677"/>
    <nd ref="81548565"/>
    <nd ref="81696678"/>
    <nd ref="81696680"/>
    <nd ref="81696682"/>
    <nd ref="81696683"/>
    <nd ref="81696684"/>
    <nd ref="81696685"/>
    <nd ref="81696687"/>
    <nd ref="81696688"/>
    <nd ref="81696692"/>
    <nd ref="81696695"/>
    <tag k="created_by" v="Potlatch 0.10b"/>
    <tag k="highway" v="residential"/>
    <tag k="name" v="Holford Road"/>
    <tag k="tiger:cfcc" v="A41"/>
    <tag k="tiger:county" v="Dallas, TX"/>
    <tag k="tiger:name_base" v="Holford"/>
    <tag k="tiger:name_type" v="Rd"/>
    <tag k="tiger:reviewed" v="no"/>
    <tag k="tiger:separated" v="no"/>
    <tag k="tiger:source" v="tiger_import_dch_v0.6_20070829"/>
    <tag k="tiger:tlid" v="103211836:103211837:102971573:102971576:102971580:102925474:103172980:103164586:103176081:103176082:103262486:102925100:102925102:102925103:103168641:103213224:103213225"/>
    <tag k="tiger:zip_left" v="75044"/>
    <tag k="tiger:zip_right" v="75044"/>
  </way>
  <way id="27090599" version="3" timestamp="2010-04-07T12:50:48Z" uid="20587" user="balrog-kun" changeset="4353646">
    <nd ref="81696664"/>
    <nd ref="297232940"/>
    <tag k="bridge" v="yes"/>
    <tag k="created_by" v="Potlatch 0.10b"/>
    <tag k="highway" v="residential"/>
    <tag k="layer" v="1"/>
    <tag k="name" v="Holford Road"/>
    <tag k="tiger:cfcc" v="A41"/>
    <tag k="tiger:county" v="Dallas, TX"/>
    <tag k="tiger:name_base" v="Holford"/>
    <tag k="tiger:name_type" v="Rd"/>
    <tag k="tiger:reviewed" v="no"/>
    <tag k="tiger:separated" v="no"/>
    <tag k="tiger:source" v="tiger_import_dch_v0.6_20070829"/>
    <tag k="tiger:tlid" v="103211836:103211837:102971573:102971576:102971580:102925474:103172980:103164586:103176081:103176082:103262486:102925100:102925102:102925103:103168641:103213224:103213225"/>
    <tag k="tiger:zip_left" v="75044"/>
    <tag k="tiger:zip_right" v="75044"/>
  </way>
  <way id="27090641" version="1" timestamp="2008-09-15T14:29:51Z" uid="43863" user="Rundling" changeset="643466">
    <nd ref="297233492"/>
    <nd ref="297233493"/>
    <nd ref="297233494"/>
    <nd ref="297233495"/>
    <nd ref="297233492"/>
    <tag k="building" v="yes"/>
    <tag k="created_by" v="Merkaartor 0.11"/>
  </way>
  <way id="27090641" version="2" timestamp="2011-01-24T20:49:34Z" uid="43863" user="Rundling" changeset="7077864">
    <nd ref="297233492"/>
    <nd ref="297233493"/>
    <nd ref="297233494"/>
    <nd ref="297233495"/>
    <nd ref="297233492"/>
    <tag k="building" v="yes"/>
  </way>
  <way id="27090641" version="3" timestamp="2011-02-27T17:45:32Z" uid="43863" user="Rundling" changeset="7413334">
    <nd ref="297233492"/>
    <nd ref="297233493"/>
    <nd ref="297233494"/>
    <nd ref="297233495"/>
    <nd ref="297233492"/>
    <tag k="building" v="barn"/>
  </way>
  <way id="27090642" version="1" timestamp="2008-09-15T14:29:51Z" uid="43863" user="Rundling" changeset="643466">
    <nd ref="297233496"/>
    <nd ref="297233497"/>
    <nd ref="297233498"/>
    <nd ref="297233499"/>
    <nd ref="297233496"/>
    <tag k="created_by" v="Merkaartor 0.11"/>
  </way>
  <way id="27090642" version="2" timestamp="2008-09-15T14:34:38Z" uid="43863" user="Rundling" changeset="643466">
    <nd ref="297233496"/>
    <nd ref="297233497"/>
    <nd ref="297233498"/>
    <nd ref="297233499"/>
    <nd ref="297233496"/>
    <tag k="addr:city" v="Rosche"/>
    <tag k="addr:housenumber" v="6"/>
    <tag k="addr:postcode" v="29571"/>
    <tag k="addr:street" v="Lüchower Straße"/>
    <tag k="building" v="yes"/>
    <tag k="created_by" v="Merkaartor 0.11"/>
  </way>
  <way id="27090642" version="3" timestamp="2008-09-15T14:35:12Z" uid="43863" user="Rundling" changeset="643466">
    <nd ref="297233496"/>
    <nd ref="297233497"/>
    <nd ref="297233498"/>
    <nd ref="297233499"/>
    <nd ref="297233496"/>
    <tag k="addr:city" v="Rosche"/>
    <tag k="addr:housenumber" v="4"/>
    <tag k="addr:postcode" v="29571"/>
    <tag k="addr:street" v="Lüchower Straße"/>
    <tag k="building" v="yes"/>
    <tag k="created_by" v="Merkaartor 0.11"/>
  </way>
  <way id="27090642" version="4" timestamp="2008-09-28T07:15:45Z" uid="43863" user="Rundling" changeset="713017">
    <nd ref="297233496"/>
    <nd ref="297233497"/>
    <nd ref="297233498"/>
    <nd ref="300501609"/>
    <nd ref="297233499"/>
    <nd ref="300501608"/>
    <nd ref="297233496"/>
    <tag k="addr:city" v="Rosche"/>
    <tag k="addr:housenumber" v="4"/>
    <tag k="addr:postcode" v="29571"/>
    <tag k="addr:street" v="Lüchower Straße"/>
    <tag k="building" v="yes"/>
    <tag k="created_by" v="Merkaartor 0.11"/>
  </way>
  <way id="27090642" version="5" timestamp="2008-11-28T19:46:10Z" uid="43863" user="Rundling" changeset="805524">
    <nd ref="297233496"/>
    <nd ref="297233497"/>
    <nd ref="297233498"/>
    <nd ref="315343470"/>
    <nd ref="315343471"/>
    <nd ref="300501608"/>
    <nd ref="297233496"/>
    <tag k="addr:city" v="Rosche"/>
    <tag k="addr:housenumber" v="4"/>
    <tag k="addr:postcode" v="29571"/>
    <tag k="addr:street" v="Lüchower Straße"/>
    <tag k="building" v="yes"/>
    <tag k="created_by" v="Merkaartor 0.11"/>
  </way>
  <way id="27090642" version="6" timestamp="2011-01-24T20:49:26Z" uid="43863" user="Rundling" changeset="7077864">
    <nd ref="297233497"/>
    <nd ref="1119276320"/>
    <nd ref="1119276362"/>
    <nd ref="1119276331"/>
    <nd ref="1119276292"/>
    <nd ref="315343471"/>
    <nd ref="300501608"/>
    <nd ref="1119276317"/>
    <nd ref="297233497"/>
    <tag k="addr:city" v="Rosche"/>
    <tag k="addr:housenumber" v="4"/>
    <tag k="addr:postcode" v="29571"/>
    <tag k="addr:street" v="Lüchower Straße"/>
    <tag k="building" v="yes"/>
  </way>
  <way id="27090642" version="7" timestamp="2011-02-27T16:16:31Z" uid="43863" user="Rundling" changeset="7412324">
    <nd ref="297233497"/>
    <nd ref="1119276320"/>
    <nd ref="1119276362"/>
    <nd ref="1119276331"/>
    <nd ref="1119276292"/>
    <nd ref="1119276317"/>
    <nd ref="297233497"/>
    <tag k="addr:city" v="Rosche"/>
    <tag k="addr:housenumber" v="4"/>
    <tag k="addr:postcode" v="29571"/>
    <tag k="addr:street" v="Lüchower Straße"/>
    <tag k="building" v="yes"/>
  </way>
  <way id="27090643" version="1" timestamp="2008-09-15T14:29:52Z" uid="43863" user="Rundling" changeset="643466">
    <nd ref="297233500"/>
    <nd ref="297233501"/>
    <nd ref="297233502"/>
    <nd ref="297233503"/>
    <nd ref="297233500"/>
    <tag k="created_by" v="Merkaartor 0.11"/>
  </way>
  <way id="27090643" version="2" timestamp="2008-09-15T14:30:47Z" uid="43863" user="Rundling" changeset="643466">
    <nd ref="297233500"/>
    <nd ref="297233501"/>
    <nd ref="297233502"/>
    <nd ref="297233503"/>
    <nd ref="297233500"/>
    <tag k="addr:city" v="Rosche"/>
    <tag k="addr:housenumber" v="8"/>
    <tag k="addr:postcode" v="29571"/>
    <tag k="addr:street" v="Lüchower Straße"/>
    <tag k="building" v="yes"/>
    <tag k="created_by" v="Merkaartor 0.11"/>
  </way>
  <way id="27090643" version="3" timestamp="2008-09-26T06:36:16Z" uid="43863" user="Rundling" changeset="698643"/>
  <way id="27090676" version="2" timestamp="2010-04-07T12:50:48Z" uid="20587" user="balrog-kun" changeset="4353646">
    <nd ref="81971725"/>
    <nd ref="81644535"/>
    <nd ref="82018385"/>
    <nd ref="82018386"/>
    <nd ref="82018387"/>
    <nd ref="82018388"/>
    <nd ref="82018390"/>
    <nd ref="82018392"/>
    <nd ref="82018393"/>
    <nd ref="82018395"/>
    <nd ref="81992565"/>
    <nd ref="82018397"/>
    <nd ref="82018399"/>
    <nd ref="82018401"/>
    <nd ref="82018402"/>
    <nd ref="82018403"/>
    <nd ref="82018405"/>
    <nd ref="81655497"/>
    <nd ref="82018407"/>
    <nd ref="81555139"/>
    <nd ref="82018408"/>
    <nd ref="81555141"/>
    <nd ref="82018409"/>
    <nd ref="81604419"/>
    <nd ref="82018411"/>
    <nd ref="82018413"/>
    <nd ref="82018415"/>
    <nd ref="82018417"/>
    <nd ref="81613880"/>
    <nd ref="81696661"/>
    <tag k="created_by" v="Potlatch 0.10b"/>
    <tag k="highway" v="unclassified"/>
    <tag k="name" v="North Highway 190"/>
    <tag k="name_1" v="North President George Bush Highway"/>
    <tag k="note" v="frontage"/>
    <tag k="tiger:cfcc" v="A64"/>
    <tag k="tiger:county" v="Dallas, TX"/>
    <tag k="tiger:name_base" v="Highway 190"/>
    <tag k="tiger:name_base_1" v="President George Bush"/>
    <tag k="tiger:name_direction_prefix" v="N"/>
    <tag k="tiger:name_direction_prefix_1" v="N"/>
    <tag k="tiger:name_type_1" v="Hwy"/>
    <tag k="tiger:reviewed" v="no"/>
    <tag k="tiger:source" v="tiger_import_dch_v0.6_20070829"/>
    <tag k="tiger:tlid" v="103254623:103254610:103254611:103164638:103211890:103211892:103257715:103257716:103164632:103211884:103211885:103164906:103164907:103184058"/>
  </way>
  <way id="27090687" version="3" timestamp="2010-04-07T12:50:49Z" uid="20587" user="balrog-kun" changeset="4353646">
    <nd ref="82140723"/>
    <nd ref="82140724"/>
    <nd ref="82140726"/>
    <nd ref="82018371"/>
    <nd ref="82140728"/>
    <tag k="bridge" v="yes"/>
    <tag k="created_by" v="Potlatch 0.10b"/>
    <tag k="highway" v="motorway"/>
    <tag k="name" v="North President George Bush Highway"/>
    <tag k="name_1" v="State Highway 190"/>
    <tag k="tiger:cfcc" v="A35"/>
    <tag k="tiger:county" v="Dallas, TX"/>
    <tag k="tiger:name_base" v="President George Bush"/>
    <tag k="tiger:name_base_1" v="State Highway 190"/>
    <tag k="tiger:name_direction_prefix" v="N"/>
    <tag k="tiger:name_type" v="Hwy"/>
    <tag k="tiger:reviewed" v="no"/>
    <tag k="tiger:separated" v="yes"/>
    <tag k="tiger:source" v="tiger_import_dch_v0.6_20070829"/>
    <tag k="tiger:tlid" v="103256840:103274046:103274047:103254639:103274049:103254652:103274051:103254658:103274040:103254577:103254600:103274430:103254608:103254609:103274431:103274784:103258808:103274915:103274909:103274912:103274581:103257712:103257714:103257620:103274433:10325"/>
  </way>
  <way id="27090709" version="3" timestamp="2010-04-07T12:50:49Z" uid="20587" user="balrog-kun" changeset="4353646">
    <nd ref="82140778"/>
    <nd ref="476160076"/>
    <nd ref="82140779"/>
    <nd ref="82140781"/>
    <nd ref="81649868"/>
    <nd ref="82140787"/>
    <nd ref="82140789"/>
    <nd ref="82140790"/>
    <nd ref="82140791"/>
    <tag k="created_by" v="Potlatch 0.10b"/>
    <tag k="highway" v="motorway"/>
    <tag k="name" v="North President George Bush Highway"/>
    <tag k="name_1" v="North Highway 190"/>
    <tag k="name_2" v="State Highway 190"/>
    <tag k="tiger:cfcc" v="A35"/>
    <tag k="tiger:county" v="Dallas, TX"/>
    <tag k="tiger:name_base" v="President George Bush"/>
    <tag k="tiger:name_base_1" v="Highway 190"/>
    <tag k="tiger:name_base_2" v="State Highway 190"/>
    <tag k="tiger:name_direction_prefix" v="N"/>
    <tag k="tiger:name_direction_prefix_1" v="N"/>
    <tag k="tiger:name_type" v="Hwy"/>
    <tag k="tiger:reviewed" v="no"/>
    <tag k="tiger:separated" v="yes"/>
    <tag k="tiger:source" v="tiger_import_dch_v0.6_20070829"/>
    <tag k="tiger:tlid" v="102988473:102988476:103211920:103211921:103252652:103252647:103252654:103252655:103210686"/>
    <tag k="tiger:zip_left" v="75040"/>
    <tag k="tiger:zip_right" v="75040"/>
  </way>
  <way id="27090711" version="1" timestamp="2008-09-15T14:34:39Z" uid="43863" user="Rundling" changeset="643466">
    <nd ref="297234568"/>
    <nd ref="297234569"/>
    <nd ref="297234570"/>
    <nd ref="297234571"/>
    <nd ref="297234568"/>
    <tag k="addr:city" v="Rosche"/>
    <tag k="addr:housenumber" v="6"/>
    <tag k="addr:postcode" v="29571"/>
    <tag k="addr:street" v="Lüchower Straße"/>
    <tag k="building" v="yes"/>
    <tag k="created_by" v="Merkaartor 0.11"/>
  </way>
  <way id="27090711" version="3" timestamp="2011-01-24T20:49:37Z" uid="43863" user="Rundling" changeset="7077864">
    <nd ref="297234568"/>
    <nd ref="297234569"/>
    <nd ref="297234570"/>
    <nd ref="297234571"/>
    <nd ref="297234568"/>
    <tag k="addr:city" v="Rosche"/>
    <tag k="addr:housenumber" v="6"/>
    <tag k="addr:postcode" v="29571"/>
    <tag k="addr:street" v="Lüchower Straße"/>
    <tag k="building" v="yes"/>
  </way>
  <way id="27090711" version="4" timestamp="2011-02-27T15:25:07Z" uid="43863" user="Rundling" changeset="7411854">
    <nd ref="1177298487"/>
    <nd ref="1177298481"/>
    <nd ref="1177298477"/>
    <nd ref="1177298485"/>
    <nd ref="1177298487"/>
    <tag k="addr:city" v="Rosche"/>
    <tag k="addr:housenumber" v="6"/>
    <tag k="addr:postcode" v="29571"/>
    <tag k="addr:street" v="Lüchower Straße"/>
    <tag k="building" v="yes"/>
  </way>
  <way id="27090714" version="4" timestamp="2010-04-07T12:50:50Z" uid="20587" user="balrog-kun" changeset="4353646">
    <nd ref="82140775"/>
    <nd ref="81636479"/>
    <nd ref="82140777"/>
    <nd ref="82140778"/>
    <tag k="bridge" v="yes"/>
    <tag k="created_by" v="Potlatch 0.10b"/>
    <tag k="highway" v="motorway"/>
    <tag k="layer" v="1"/>
    <tag k="name" v="North President George Bush Highway"/>
    <tag k="name_1" v="North Highway 190"/>
    <tag k="name_2" v="State Highway 190"/>
    <tag k="tiger:cfcc" v="A35"/>
    <tag k="tiger:county" v="Dallas, TX"/>
    <tag k="tiger:name_base" v="President George Bush"/>
    <tag k="tiger:name_base_1" v="Highway 190"/>
    <tag k="tiger:name_base_2" v="State Highway 190"/>
    <tag k="tiger:name_direction_prefix" v="N"/>
    <tag k="tiger:name_direction_prefix_1" v="N"/>
    <tag k="tiger:name_type" v="Hwy"/>
    <tag k="tiger:reviewed" v="no"/>
    <tag k="tiger:separated" v="yes"/>
    <tag k="tiger:source" v="tiger_import_dch_v0.6_20070829"/>
    <tag k="tiger:tlid" v="102988473:102988476:103211920:103211921:103252652:103252647:103252654:103252655:103210686"/>
    <tag k="tiger:zip_left" v="75040"/>
    <tag k="tiger:zip_right" v="75040"/>
  </way>
  <way id="27090771" version="3" timestamp="2009-12-17T21:52:40Z" uid="9581" user="Lobelt" changeset="3397156">
    <nd ref="595414771"/>
    <nd ref="297235280"/>
    <nd ref="297235281"/>
    <nd ref="297235283"/>
    <nd ref="297235292"/>
    <nd ref="297235295"/>
    <nd ref="297235297"/>
    <tag k="power" v="line"/>
    <tag k="wires" v="single"/>
  </way>
  <way id="27090773" version="6" timestamp="2010-03-28T00:05:14Z" uid="20587" user="balrog-kun" changeset="4250871">
    <nd ref="325920572"/>
    <nd ref="53104721"/>
    <tag k="bridge" v="yes"/>
    <tag k="highway" v="primary"/>
    <tag k="layer" v="1"/>
    <tag k="name" v="Mission Boulevard"/>
    <tag k="ref" v="CA 238"/>
    <tag k="tiger:cfcc" v="A11"/>
    <tag k="tiger:county" v="Alameda, CA"/>
    <tag k="tiger:name_base" v="Mission"/>
    <tag k="tiger:name_base_1" v="State Highway 262"/>
    <tag k="tiger:name_type" v="Blvd"/>
    <tag k="tiger:reviewed" v="no"/>
    <tag k="tiger:separated" v="no"/>
    <tag k="tiger:source" v="tiger_import_dch_v0.6_20070809"/>
    <tag k="tiger:tlid" v="124989901:124989896:124989899:125042554:124989828:124989826:124989830:124989845"/>
    <tag k="tiger:zip_left" v="94539"/>
    <tag k="tiger:zip_right" v="94539"/>
  </way>
  <way id="27090774" version="8" timestamp="2010-03-28T00:05:14Z" uid="20587" user="balrog-kun" changeset="4250871">
    <nd ref="53104721"/>
    <nd ref="53082127"/>
    <nd ref="53081084"/>
    <tag k="created_by" v="Potlatch 0.10f"/>
    <tag k="highway" v="primary"/>
    <tag k="name" v="Mission Boulevard"/>
    <tag k="name_1" v="State Highway 262"/>
    <tag k="ref" v="CA 238"/>
    <tag k="tiger:cfcc" v="A11"/>
    <tag k="tiger:county" v="Alameda, CA"/>
    <tag k="tiger:name_base" v="Mission"/>
    <tag k="tiger:name_base_1" v="State Highway 262"/>
    <tag k="tiger:name_type" v="Blvd"/>
    <tag k="tiger:reviewed" v="no"/>
    <tag k="tiger:separated" v="no"/>
    <tag k="tiger:source" v="tiger_import_dch_v0.6_20070809"/>
    <tag k="tiger:tlid" v="124989901:124989896:124989899:125042554:124989828:124989826:124989830:124989845"/>
    <tag k="tiger:zip_left" v="94539"/>
    <tag k="tiger:zip_right" v="94539"/>
  </way>
  <way id="27090781" version="1" timestamp="2008-09-15T14:40:16Z" uid="43863" user="Rundling" changeset="643466">
    <nd ref="297235425"/>
    <nd ref="297235426"/>
    <nd ref="297235428"/>
    <nd ref="297235430"/>
    <nd ref="297235425"/>
    <tag k="addr:city" v="Rosche"/>
    <tag k="addr:housenumber" v="5"/>
    <tag k="addr:postcode" v="29571"/>
    <tag k="addr:street" v="Lüchower Straße"/>
    <tag k="building" v="yes"/>
    <tag k="created_by" v="Merkaartor 0.11"/>
  </way>
  <way id="27090781" version="2" timestamp="2008-09-26T06:36:15Z" uid="43863" user="Rundling" changeset="698643"/>
  <way id="27090782" version="1" timestamp="2008-09-15T14:40:17Z" uid="43863" user="Rundling" changeset="643466">
    <nd ref="297235437"/>
    <nd ref="297235440"/>
    <nd ref="297235441"/>
    <nd ref="297235442"/>
    <nd ref="297235437"/>
    <tag k="addr:city" v="Rosche"/>
    <tag k="addr:housenumber" v="8"/>
    <tag k="addr:postcode" v="29571"/>
    <tag k="addr:street" v="Lüchower Straße"/>
    <tag k="building" v="yes"/>
    <tag k="created_by" v="Merkaartor 0.11"/>
  </way>
  <way id="27090782" version="2" timestamp="2008-09-15T15:10:35Z" uid="43863" user="Rundling" changeset="643466">
    <nd ref="297235437"/>
    <nd ref="297235440"/>
    <nd ref="297235441"/>
    <nd ref="297235442"/>
    <nd ref="297235437"/>
    <tag k="addr:city" v="Rosche"/>
    <tag k="addr:housenumber" v="7"/>
    <tag k="addr:postcode" v="29571"/>
    <tag k="addr:street" v="Lüchower Straße"/>
    <tag k="building" v="yes"/>
    <tag k="created_by" v="Merkaartor 0.11"/>
  </way>
  <way id="27090782" version="3" timestamp="2008-09-26T06:36:15Z" uid="43863" user="Rundling" changeset="698643"/>
  <way id="27090783" version="1" timestamp="2008-09-15T14:40:18Z" uid="43863" user="Rundling" changeset="643466">
    <nd ref="297235443"/>
    <nd ref="297235444"/>
    <nd ref="297235445"/>
    <nd ref="297235446"/>
    <nd ref="297235443"/>
    <tag k="addr:city" v="Rosche"/>
    <tag k="addr:housenumber" v="8"/>
    <tag k="addr:postcode" v="29571"/>
    <tag k="addr:street" v="Lüchower Straße"/>
    <tag k="building" v="yes"/>
    <tag k="created_by" v="Merkaartor 0.11"/>
  </way>
  <way id="27090783" version="2" timestamp="2008-09-15T15:10:36Z" uid="43863" user="Rundling" changeset="643466">
    <nd ref="297235443"/>
    <nd ref="297235444"/>
    <nd ref="297235445"/>
    <nd ref="297235446"/>
    <nd ref="297235443"/>
    <tag k="addr:city" v="Rosche"/>
    <tag k="addr:housenumber" v="9"/>
    <tag k="addr:postcode" v="29571"/>
    <tag k="addr:street" v="Lüchower Straße"/>
    <tag k="building" v="yes"/>
    <tag k="created_by" v="Merkaartor 0.11"/>
  </way>
  <way id="27090783" version="3" timestamp="2008-09-26T06:36:15Z" uid="43863" user="Rundling" changeset="698643"/>
  <way id="27090784" version="1" timestamp="2008-09-15T14:40:20Z" uid="43863" user="Rundling" changeset="643466">
    <nd ref="297235447"/>
    <nd ref="297235448"/>
    <nd ref="297235449"/>
    <nd ref="297235450"/>
    <nd ref="297235447"/>
    <tag k="addr:city" v="Rosche"/>
    <tag k="addr:housenumber" v="8"/>
    <tag k="addr:postcode" v="29571"/>
    <tag k="addr:street" v="Lüchower Straße"/>
    <tag k="building" v="yes"/>
    <tag k="created_by" v="Merkaartor 0.11"/>
  </way>
  <way id="27090784" version="2" timestamp="2008-09-15T15:10:36Z" uid="43863" user="Rundling" changeset="643466">
    <nd ref="297235447"/>
    <nd ref="297235448"/>
    <nd ref="297235449"/>
    <nd ref="297235450"/>
    <nd ref="297235447"/>
    <tag k="addr:city" v="Rosche"/>
    <tag k="addr:housenumber" v="11"/>
    <tag k="addr:postcode" v="29571"/>
    <tag k="addr:street" v="Lüchower Straße"/>
    <tag k="building" v="yes"/>
    <tag k="created_by" v="Merkaartor 0.11"/>
  </way>
  <way id="27090784" version="3" timestamp="2008-09-26T06:36:16Z" uid="43863" user="Rundling" changeset="698643"/>
  <way id="27090903" version="1" timestamp="2008-09-15T14:49:36Z" uid="65847" user="LKK" changeset="639593">
    <nd ref="297237098"/>
    <nd ref="297237102"/>
    <nd ref="297237106"/>
    <nd ref="297237109"/>
    <nd ref="297237098"/>
    <tag k="leisure" v="playground"/>
  </way>
  <way id="27090905" version="1" timestamp="2008-09-15T14:49:37Z" uid="65847" user="LKK" changeset="639593">
    <nd ref="297237113"/>
    <nd ref="297237120"/>
    <nd ref="297237124"/>
    <nd ref="297237116"/>
    <nd ref="297237113"/>
    <tag k="building" v="yes"/>
    <tag k="leisure" v="sports_centre"/>
    <tag k="name" v="Friedrich-Hill-Halle"/>
    <tag k="sport" v="multi"/>
  </way>
</osm>
