<?xml version='1.0' encoding='UTF-8'?>
<osm version="0.6" generator="libosmium/2.20.0">
  <way id="27119044" version="4" timestamp="2008-11-13T21:22:06Z" uid="67142" user="zottel" changeset="744661">
    <nd ref="297533931"/>
    <nd ref="297533928"/>
    <nd ref="297533924"/>
    <nd ref="311847348"/>
    <nd ref="297286994"/>
    <nd ref="297533917"/>
    <nd ref="301613632"/>
    <nd ref="297533919"/>
    <nd ref="297533921"/>
    <nd ref="308977712"/>
    <nd ref="297533923"/>
    <tag k="highway" v="residential"/>
    <tag k="maxspeed" v="30"/>
    <tag k="name" v="Bülowstraße"/>
  </way>
  <way id="27119047" version="5" timestamp="2009-02-05T17:12:48Z" uid="67142" user="zottel" changeset="160108">
    <nd ref="300693140"/>
    <nd ref="297533941"/>
    <tag k="bridge" v="yes"/>
    <tag k="highway" v="footway"/>
    <tag k="layer" v="1"/>
    <tag k="name" v="Seegersteg"/>
  </way>
  <way id="27119346" version="2" timestamp="2009-08-30T21:15:45Z" uid="34428" user="usm78-gis" changeset="2320065">
    <nd ref="297537390"/>
    <nd ref="478103797"/>
    <nd ref="262117"/>
    <nd ref="262118"/>
    <nd ref="297537409"/>
    <tag k="highway" v="primary"/>
    <tag k="name" v="Ленинградское ш."/>
    <tag k="ref" v="А129"/>
  </way>
  <way id="27119517" version="2" timestamp="2008-10-02T07:49:12Z" uid="33382" user="de_muur" changeset="26229">
    <nd ref="297540273"/>
    <nd ref="297540279"/>
    <nd ref="297540282"/>
    <nd ref="297540286"/>
    <nd ref="297540290"/>
    <nd ref="297540293"/>
    <nd ref="297540298"/>
    <nd ref="297540307"/>
    <nd ref="297540309"/>
    <nd ref="297540312"/>
    <nd ref="297540317"/>
    <nd ref="297540320"/>
    <nd ref="297540323"/>
    <nd ref="297540327"/>
    <nd ref="297540330"/>
    <nd ref="297540273"/>
    <tag k="created_by" v="Potlatch 0.10c"/>
    <tag k="landuse" v="forest"/>
  </way>
  <way id="27119634" version="1" timestamp="2008-09-16T18:55:05Z" uid="67142" user="zottel" changeset="650864">
    <nd ref="296421804"/>
    <nd ref="296421793"/>
    <nd ref="296421792"/>
    <nd ref="297006149"/>
    <tag k="created_by" v="Potlatch 0.9c"/>
    <tag k="highway" v="residential"/>
    <tag k="name" v="Gellertstraße"/>
    <tag k="noexit" v="yes"/>
  </way>
  <way id="27119634" version="2" timestamp="2008-09-24T13:51:47Z" uid="67142" user="zottel" changeset="689032">
    <nd ref="296421804"/>
    <nd ref="296421793"/>
    <nd ref="296421792"/>
    <tag k="created_by" v="Potlatch 0.9c"/>
    <tag k="highway" v="residential"/>
    <tag k="name" v="Gellertstraße"/>
    <tag k="noexit" v="yes"/>
  </way>
  <way id="27119634" version="3" timestamp="2008-11-13T12:08:18Z" uid="67142" user="zottel" changeset="742852">
    <nd ref="296421804"/>
    <nd ref="296421793"/>
    <nd ref="296421792"/>
    <tag k="created_by" v="Potlatch 0.9c"/>
    <tag k="highway" v="residential"/>
    <tag k="maxspeed" v="30"/>
    <tag k="name" v="Gellertstraße"/>
    <tag k="noexit" v="yes"/>
  </way>
</osm>
