<?xml version='1.0' encoding='UTF-8'?>
<osm version="0.6" generator="libosmium/2.20.0">
  <way id="27213005" version="1" timestamp="2008-09-21T09:16:55Z" uid="43863" user="Rundling" changeset="672365">
    <nd ref="298637408"/>
    <nd ref="298637409"/>
    <nd ref="298637410"/>
    <nd ref="298637411"/>
    <nd ref="298637408"/>
    <tag k="addr:city" v="Rosche"/>
    <tag k="addr:housenumber" v="2"/>
    <tag k="addr:postcode" v="29571"/>
    <tag k="addr:street" v="Erlenweg"/>
    <tag k="building" v="yes"/>
    <tag k="created_by" v="Merkaartor 0.11"/>
  </way>
  <way id="27213005" version="2" timestamp="2008-09-27T10:43:23Z" uid="43863" user="Rundling" changeset="707288"/>
  <way id="27213035" version="1" timestamp="2008-09-21T09:19:26Z" uid="43863" user="Rundling" changeset="672365">
    <nd ref="298638373"/>
    <nd ref="298638374"/>
    <nd ref="298638377"/>
    <nd ref="298638378"/>
    <nd ref="298638373"/>
    <tag k="addr:city" v="Rosche"/>
    <tag k="addr:housenumber" v="1"/>
    <tag k="addr:postcode" v="29571"/>
    <tag k="addr:street" v="Fuhrenkamp"/>
    <tag k="building" v="yes"/>
    <tag k="created_by" v="Merkaartor 0.11"/>
  </way>
  <way id="27213035" version="2" timestamp="2008-09-21T09:58:51Z" uid="43863" user="Rundling" changeset="672365">
    <nd ref="298638373"/>
    <nd ref="298638374"/>
    <nd ref="298638377"/>
    <nd ref="298638378"/>
    <nd ref="298638373"/>
    <tag k="addr:city" v="Rosche"/>
    <tag k="addr:housenumber" v="1"/>
    <tag k="addr:postcode" v="29571"/>
    <tag k="addr:street" v="Fuhrenkamp"/>
    <tag k="building" v="yes"/>
    <tag k="created_by" v="Potlatch 0.10b"/>
  </way>
  <way id="27213035" version="3" timestamp="2008-09-21T09:58:56Z" uid="43863" user="Rundling" changeset="672365">
    <nd ref="298638373"/>
    <nd ref="298638374"/>
    <nd ref="298638377"/>
    <nd ref="298638378"/>
    <nd ref="298638373"/>
    <tag k="addr:city" v="Rosche"/>
    <tag k="addr:housenumber" v="1"/>
    <tag k="addr:postcode" v="29571"/>
    <tag k="addr:street" v="Fuhrenkamp"/>
    <tag k="building" v="yes"/>
    <tag k="created_by" v="Potlatch 0.10b"/>
  </way>
  <way id="27213054" version="9" timestamp="2010-03-28T00:08:03Z" uid="20587" user="balrog-kun" changeset="4250871">
    <nd ref="89573435"/>
    <nd ref="89573436"/>
    <nd ref="89573437"/>
    <nd ref="89573439"/>
    <nd ref="89573440"/>
    <nd ref="89573441"/>
    <nd ref="89573442"/>
    <nd ref="89573444"/>
    <nd ref="89573445"/>
    <nd ref="89573446"/>
    <nd ref="89573447"/>
    <nd ref="89886059"/>
    <nd ref="89886061"/>
    <nd ref="89886063"/>
    <nd ref="89789371"/>
    <nd ref="89886065"/>
    <nd ref="89886066"/>
    <nd ref="89886068"/>
    <nd ref="89886070"/>
    <nd ref="89631652"/>
    <nd ref="89886072"/>
    <nd ref="89656199"/>
    <nd ref="89730458"/>
    <nd ref="89886074"/>
    <nd ref="89886075"/>
    <nd ref="89886076"/>
    <nd ref="89673586"/>
    <nd ref="89706088"/>
    <nd ref="89886077"/>
    <nd ref="89886079"/>
    <nd ref="373838480"/>
    <nd ref="89886083"/>
    <nd ref="89886084"/>
    <nd ref="89714281"/>
    <nd ref="89886085"/>
    <nd ref="89577159"/>
    <nd ref="89886086"/>
    <nd ref="89714460"/>
    <nd ref="295011185"/>
    <nd ref="89830907"/>
    <nd ref="89886088"/>
    <nd ref="89886090"/>
    <nd ref="89886092"/>
    <nd ref="373838609"/>
    <nd ref="89551015"/>
    <nd ref="89886096"/>
    <nd ref="89714633"/>
    <tag k="highway" v="residential"/>
    <tag k="name" v="McCoy Road"/>
    <tag k="tiger:cfcc" v="A63; A41"/>
    <tag k="tiger:county" v="Monterey, CA"/>
    <tag k="tiger:name_base" v="McCoy"/>
    <tag k="tiger:name_type" v="Rd"/>
    <tag k="tiger:reviewed" v="no"/>
    <tag k="tiger:separated" v="no"/>
    <tag k="tiger:source" v="tiger_import_dch_v0.6_20070809"/>
    <tag k="tiger:tlid" v="196799777:196875251:196870038:196863833; 196825638:196799107:196799121:196799132:196799148:196860494:196843838:196843823:196843826"/>
  </way>
  <way id="27213120" version="5" timestamp="2010-01-23T14:28:52Z" uid="58091" user="Andreas M" changeset="3692138">
    <nd ref="75247170"/>
    <nd ref="618688389"/>
    <nd ref="75247171"/>
    <nd ref="75246762"/>
    <tag k="foot" v="yes"/>
    <tag k="highway" v="footway"/>
    <tag k="name" v="Lobelienweg"/>
  </way>
  <way id="27213122" version="3" timestamp="2008-09-24T05:12:05Z" uid="6975" user="ulfl" changeset="687743">
    <nd ref="298631701"/>
    <nd ref="298641574"/>
    <tag k="highway" v="service"/>
    <tag k="maxspeed" v="32"/>
    <tag k="name" v="Bell Lane"/>
    <tag k="surface" v="cobblestone"/>
  </way>
  <way id="27213124" version="3" timestamp="2008-09-24T05:12:02Z" uid="6975" user="ulfl" changeset="687743">
    <nd ref="298631699"/>
    <nd ref="298641577"/>
    <tag k="highway" v="service"/>
    <tag k="maxspeed" v="32"/>
    <tag k="name" v="Quay Lane"/>
    <tag k="surface" v="cobblestone"/>
  </way>
  <way id="27213211" version="4" timestamp="2010-03-28T00:08:04Z" uid="20587" user="balrog-kun" changeset="4250871">
    <nd ref="89665611"/>
    <nd ref="89739568"/>
    <nd ref="89739570"/>
    <nd ref="89739572"/>
    <nd ref="89739574"/>
    <nd ref="89739578"/>
    <nd ref="89739580"/>
    <nd ref="89739582"/>
    <nd ref="89739583"/>
    <nd ref="89739584"/>
    <tag k="created_by" v="Potlatch 0.10b"/>
    <tag k="highway" v="residential"/>
    <tag k="name" v="Sillman Road"/>
    <tag k="tiger:cfcc" v="A63; A41"/>
    <tag k="tiger:county" v="Monterey, CA"/>
    <tag k="tiger:name_base" v="Sillman"/>
    <tag k="tiger:name_type" v="Rd"/>
    <tag k="tiger:reviewed" v="no"/>
    <tag k="tiger:separated" v="no"/>
    <tag k="tiger:source" v="tiger_import_dch_v0.6_20070809"/>
    <tag k="tiger:tlid" v="196799123:196799131:196865603:196865605:196865607:196865608:196799136; 196870683"/>
  </way>
  <way id="27213318" version="1" timestamp="2008-09-21T09:25:50Z" uid="43863" user="Rundling" changeset="672365">
    <nd ref="298642744"/>
    <nd ref="298642746"/>
    <nd ref="298642747"/>
    <nd ref="298642749"/>
    <nd ref="298642750"/>
    <nd ref="298642744"/>
    <tag k="addr:city" v="Rosche"/>
    <tag k="addr:housenumber" v="3-5"/>
    <tag k="addr:postcode" v="29571"/>
    <tag k="addr:street" v="Alt Prielip"/>
    <tag k="building" v="yes"/>
    <tag k="created_by" v="Merkaartor 0.11"/>
  </way>
  <way id="27213318" version="2" timestamp="2008-09-23T08:30:06Z" uid="43863" user="Rundling" changeset="683716">
    <nd ref="298642744"/>
    <nd ref="298642746"/>
    <nd ref="298642747"/>
    <nd ref="298642749"/>
    <nd ref="299223270"/>
    <nd ref="298642744"/>
    <tag k="addr:city" v="Rosche"/>
    <tag k="addr:housenumber" v="3-5"/>
    <tag k="addr:postcode" v="29571"/>
    <tag k="addr:street" v="Alt Prielip"/>
    <tag k="building" v="yes"/>
    <tag k="created_by" v="Merkaartor 0.11"/>
  </way>
  <way id="27213318" version="3" timestamp="2010-07-19T07:29:37Z" uid="43863" user="Rundling" changeset="5258215">
    <nd ref="298642744"/>
    <nd ref="298642746"/>
    <nd ref="298642747"/>
    <nd ref="298642749"/>
    <nd ref="824105516"/>
    <nd ref="298642744"/>
    <tag k="addr:city" v="Rosche"/>
    <tag k="addr:housenumber" v="3-5"/>
    <tag k="addr:postcode" v="29571"/>
    <tag k="addr:street" v="Alt Prielip"/>
    <tag k="building" v="yes"/>
  </way>
  <way id="27213318" version="4" timestamp="2011-02-25T17:04:23Z" uid="43863" user="Rundling" changeset="7392212">
    <nd ref="298642744"/>
    <nd ref="298642746"/>
    <nd ref="298642747"/>
    <nd ref="298642749"/>
    <nd ref="824105516"/>
    <nd ref="298642744"/>
    <tag k="addr:city" v="Rosche"/>
    <tag k="addr:housenumber" v="3-5"/>
    <tag k="addr:postcode" v="29571"/>
    <tag k="addr:street" v="Alt Prielip"/>
    <tag k="building" v="yes"/>
  </way>
  <way id="27213319" version="1" timestamp="2008-09-21T09:25:51Z" uid="43863" user="Rundling" changeset="672365">
    <nd ref="298642753"/>
    <nd ref="298642750"/>
    <nd ref="298642750"/>
    <tag k="created_by" v="Merkaartor 0.11"/>
    <tag k="highway" v="residential"/>
    <tag k="oneway" v="no"/>
  </way>
  <way id="27213319" version="3" timestamp="2008-09-23T08:30:06Z" uid="43863" user="Rundling" changeset="683716"/>
  <way id="27213347" version="2" timestamp="2010-07-07T09:47:53Z" uid="74617" user="JohnSmith" changeset="5156250">
    <nd ref="156364130"/>
    <nd ref="298643593"/>
    <nd ref="298643600"/>
    <nd ref="298643609"/>
    <nd ref="298643616"/>
    <nd ref="298643628"/>
    <nd ref="298643655"/>
    <nd ref="298643665"/>
    <nd ref="298643671"/>
    <nd ref="298643682"/>
    <tag k="highway" v="residential"/>
    <tag k="maxspeed" v="50"/>
    <tag k="maxspeed:source" v="default residential speed limit in Australia"/>
    <tag k="name" v="Rayner Place"/>
  </way>
  <way id="27213348" version="2" timestamp="2010-07-07T09:47:49Z" uid="74617" user="JohnSmith" changeset="5156250">
    <nd ref="298643628"/>
    <nd ref="298643690"/>
    <nd ref="298643701"/>
    <nd ref="298643710"/>
    <nd ref="298643716"/>
    <nd ref="298643722"/>
    <nd ref="298643728"/>
    <tag k="highway" v="residential"/>
    <tag k="maxspeed" v="50"/>
    <tag k="maxspeed:source" v="default residential speed limit in Australia"/>
    <tag k="name" v="Craig Close"/>
  </way>
  <way id="27213350" version="2" timestamp="2010-07-07T09:48:15Z" uid="74617" user="JohnSmith" changeset="5156250">
    <nd ref="298643734"/>
    <nd ref="298643739"/>
    <nd ref="298643744"/>
    <nd ref="298643750"/>
    <nd ref="298643757"/>
    <nd ref="298643763"/>
    <nd ref="298643769"/>
    <nd ref="298643775"/>
    <tag k="highway" v="residential"/>
    <tag k="maxspeed" v="50"/>
    <tag k="maxspeed:source" v="default residential speed limit in Australia"/>
    <tag k="name" v="Dobbin Drive"/>
  </way>
  <way id="27213352" version="2" timestamp="2010-07-07T09:47:36Z" uid="74617" user="JohnSmith" changeset="5156250">
    <nd ref="298643763"/>
    <nd ref="298643781"/>
    <nd ref="298643788"/>
    <nd ref="298643795"/>
    <tag k="highway" v="residential"/>
    <tag k="maxspeed" v="50"/>
    <tag k="maxspeed:source" v="default residential speed limit in Australia"/>
    <tag k="name" v="Cottrell Close"/>
  </way>
  <way id="27213354" version="2" timestamp="2010-07-07T09:48:05Z" uid="74617" user="JohnSmith" changeset="5156250">
    <nd ref="156038643"/>
    <nd ref="298643801"/>
    <nd ref="298643807"/>
    <nd ref="298643814"/>
    <nd ref="298643820"/>
    <nd ref="298643840"/>
    <nd ref="298643846"/>
    <nd ref="298643854"/>
    <nd ref="298643860"/>
    <nd ref="298643867"/>
    <nd ref="298643874"/>
    <nd ref="298643880"/>
    <tag k="highway" v="residential"/>
    <tag k="maxspeed" v="50"/>
    <tag k="maxspeed:source" v="default residential speed limit in Australia"/>
    <tag k="name" v="Glover Drive"/>
  </way>
  <way id="27213355" version="2" timestamp="2010-07-07T09:48:20Z" uid="74617" user="JohnSmith" changeset="5156250">
    <nd ref="298643801"/>
    <nd ref="298643889"/>
    <nd ref="298643896"/>
    <nd ref="298643904"/>
    <nd ref="298643911"/>
    <nd ref="298643924"/>
    <nd ref="298643937"/>
    <nd ref="298643947"/>
    <nd ref="298643959"/>
    <nd ref="298643965"/>
    <tag k="highway" v="residential"/>
    <tag k="maxspeed" v="50"/>
    <tag k="maxspeed:source" v="default residential speed limit in Australia"/>
    <tag k="name" v="River Avenue"/>
  </way>
  <way id="27213435" version="1" timestamp="2008-09-21T09:34:38Z" uid="43863" user="Rundling" changeset="672365">
    <nd ref="298645300"/>
    <nd ref="298645301"/>
    <nd ref="298645302"/>
    <nd ref="298645303"/>
    <nd ref="298645300"/>
    <tag k="addr:city" v="Rosche"/>
    <tag k="addr:housenumber" v="12"/>
    <tag k="addr:postcode" v="29571"/>
    <tag k="addr:street" v="An der Wipperau"/>
    <tag k="building" v="yes"/>
    <tag k="created_by" v="Merkaartor 0.11"/>
  </way>
  <way id="27213435" version="2" timestamp="2008-09-26T06:43:41Z" uid="43863" user="Rundling" changeset="698643"/>
  <way id="27213436" version="1" timestamp="2008-09-21T09:34:40Z" uid="43863" user="Rundling" changeset="672365">
    <nd ref="298645304"/>
    <nd ref="298645305"/>
    <nd ref="298645306"/>
    <nd ref="298645307"/>
    <nd ref="298645304"/>
    <tag k="addr:city" v="Rosche"/>
    <tag k="addr:housenumber" v="2"/>
    <tag k="addr:postcode" v="29571"/>
    <tag k="addr:street" v="An der Wipperau"/>
    <tag k="building" v="yes"/>
    <tag k="created_by" v="Merkaartor 0.11"/>
  </way>
  <way id="27213436" version="2" timestamp="2008-09-26T06:43:42Z" uid="43863" user="Rundling" changeset="698643"/>
  <way id="27213437" version="1" timestamp="2008-09-21T09:34:41Z" uid="43863" user="Rundling" changeset="672365">
    <nd ref="298645308"/>
    <nd ref="298645309"/>
    <nd ref="298645310"/>
    <nd ref="298645311"/>
    <nd ref="298645308"/>
    <tag k="addr:city" v="Rosche"/>
    <tag k="addr:housenumber" v="10"/>
    <tag k="addr:postcode" v="29571"/>
    <tag k="addr:street" v="An der Wipperau"/>
    <tag k="building" v="yes"/>
    <tag k="created_by" v="Merkaartor 0.11"/>
  </way>
  <way id="27213437" version="2" timestamp="2008-09-26T06:43:42Z" uid="43863" user="Rundling" changeset="698643"/>
  <way id="27213439" version="1" timestamp="2008-09-21T09:34:44Z" uid="43863" user="Rundling" changeset="672365">
    <nd ref="298645314"/>
    <nd ref="298645315"/>
    <nd ref="298645316"/>
    <nd ref="298645317"/>
    <nd ref="298645314"/>
    <tag k="addr:city" v="Rosche"/>
    <tag k="addr:housenumber" v="8"/>
    <tag k="addr:postcode" v="29571"/>
    <tag k="addr:street" v="An der Wipperau"/>
    <tag k="building" v="yes"/>
    <tag k="created_by" v="Merkaartor 0.11"/>
  </way>
  <way id="27213439" version="2" timestamp="2008-09-26T06:43:41Z" uid="43863" user="Rundling" changeset="698643"/>
  <way id="27213440" version="1" timestamp="2008-09-21T09:34:45Z" uid="43863" user="Rundling" changeset="672365">
    <nd ref="298645318"/>
    <nd ref="298645319"/>
    <nd ref="298645320"/>
    <nd ref="298645322"/>
    <nd ref="298645318"/>
    <tag k="addr:city" v="Rosche"/>
    <tag k="addr:housenumber" v="6"/>
    <tag k="addr:postcode" v="29571"/>
    <tag k="addr:street" v="An der Wipperau"/>
    <tag k="building" v="yes"/>
    <tag k="created_by" v="Merkaartor 0.11"/>
  </way>
  <way id="27213440" version="2" timestamp="2008-09-26T06:43:41Z" uid="43863" user="Rundling" changeset="698643"/>
  <way id="27213441" version="1" timestamp="2008-09-21T09:34:47Z" uid="43863" user="Rundling" changeset="672365">
    <nd ref="298645323"/>
    <nd ref="298645324"/>
    <nd ref="298645325"/>
    <nd ref="298645326"/>
    <nd ref="298645323"/>
    <tag k="addr:city" v="Rosche"/>
    <tag k="addr:housenumber" v="4"/>
    <tag k="addr:postcode" v="29571"/>
    <tag k="addr:street" v="An der Wipperau"/>
    <tag k="building" v="yes"/>
    <tag k="created_by" v="Merkaartor 0.11"/>
  </way>
  <way id="27213441" version="2" timestamp="2008-09-26T06:43:41Z" uid="43863" user="Rundling" changeset="698643"/>
  <way id="27213454" version="7" timestamp="2010-03-28T00:08:04Z" uid="20587" user="balrog-kun" changeset="4250871">
    <nd ref="89709879"/>
    <nd ref="421311174"/>
    <nd ref="89734560"/>
    <nd ref="89848462"/>
    <nd ref="89799019"/>
    <nd ref="89682252"/>
    <nd ref="89682255"/>
    <tag k="highway" v="tertiary"/>
    <tag k="name" v="Alta Street"/>
    <tag k="name_1" v="Old US Hwy 101"/>
    <tag k="tiger:cfcc" v="A41"/>
    <tag k="tiger:county" v="Monterey, CA"/>
    <tag k="tiger:name_base" v="Alta"/>
    <tag k="tiger:name_base_1" v="Old US Hwy 101"/>
    <tag k="tiger:name_type" v="St"/>
    <tag k="tiger:reviewed" v="no"/>
    <tag k="tiger:separated" v="no"/>
    <tag k="tiger:source" v="tiger_import_dch_v0.6_20070809"/>
    <tag k="tiger:tlid" v="196785549:196864951:196864952:196829337:196864953:196864954:196875470:196784786:196860213:196829304:196784873:196785562:196784832; 196785553; 196865069:196865070"/>
  </way>
  <way id="27213454" version="8" timestamp="2010-03-29T10:50:44Z" uid="20587" user="balrog-kun" changeset="4266090">
    <nd ref="89709879"/>
    <nd ref="421311174"/>
    <nd ref="89734560"/>
    <nd ref="89848462"/>
    <nd ref="89799019"/>
    <nd ref="89682252"/>
    <nd ref="89682255"/>
    <tag k="highway" v="tertiary"/>
    <tag k="name" v="Alta Street"/>
    <tag k="name_1" v="Old US Highway 101"/>
    <tag k="tiger:cfcc" v="A41"/>
    <tag k="tiger:county" v="Monterey, CA"/>
    <tag k="tiger:name_base" v="Alta"/>
    <tag k="tiger:name_base_1" v="Old US Hwy 101"/>
    <tag k="tiger:name_type" v="St"/>
    <tag k="tiger:reviewed" v="no"/>
    <tag k="tiger:separated" v="no"/>
    <tag k="tiger:source" v="tiger_import_dch_v0.6_20070809"/>
    <tag k="tiger:tlid" v="196785549:196864951:196864952:196829337:196864953:196864954:196875470:196784786:196860213:196829304:196784873:196785562:196784832; 196785553; 196865069:196865070"/>
  </way>
  <way id="27213455" version="4" timestamp="2010-03-28T00:08:05Z" uid="20587" user="balrog-kun" changeset="4250871">
    <nd ref="89734560"/>
    <nd ref="89723373"/>
    <nd ref="89709885"/>
    <tag k="highway" v="tertiary"/>
    <tag k="name" v="Alta Street"/>
    <tag k="name_1" v="Old US Hwy 101"/>
    <tag k="oneway" v="yes"/>
    <tag k="tiger:cfcc" v="A41"/>
    <tag k="tiger:county" v="Monterey, CA"/>
    <tag k="tiger:name_base" v="Alta"/>
    <tag k="tiger:name_base_1" v="Old US Hwy 101"/>
    <tag k="tiger:name_type" v="St"/>
    <tag k="tiger:reviewed" v="no"/>
    <tag k="tiger:separated" v="no"/>
    <tag k="tiger:source" v="tiger_import_dch_v0.6_20070809"/>
    <tag k="tiger:tlid" v="196785549:196864951:196864952:196829337:196864953:196864954:196875470:196784786:196860213:196829304:196784873:196785562:196784832"/>
  </way>
  <way id="27213455" version="5" timestamp="2010-03-29T10:50:45Z" uid="20587" user="balrog-kun" changeset="4266090">
    <nd ref="89734560"/>
    <nd ref="89723373"/>
    <nd ref="89709885"/>
    <tag k="highway" v="tertiary"/>
    <tag k="name" v="Alta Street"/>
    <tag k="name_1" v="Old US Highway 101"/>
    <tag k="oneway" v="yes"/>
    <tag k="tiger:cfcc" v="A41"/>
    <tag k="tiger:county" v="Monterey, CA"/>
    <tag k="tiger:name_base" v="Alta"/>
    <tag k="tiger:name_base_1" v="Old US Hwy 101"/>
    <tag k="tiger:name_type" v="St"/>
    <tag k="tiger:reviewed" v="no"/>
    <tag k="tiger:separated" v="no"/>
    <tag k="tiger:source" v="tiger_import_dch_v0.6_20070809"/>
    <tag k="tiger:tlid" v="196785549:196864951:196864952:196829337:196864953:196864954:196875470:196784786:196860213:196829304:196784873:196785562:196784832"/>
  </way>
  <way id="27213491" version="3" timestamp="2010-07-07T19:54:50Z" uid="74617" user="JohnSmith" changeset="5161069">
    <nd ref="298645445"/>
    <nd ref="306533630"/>
    <nd ref="298645439"/>
    <nd ref="298645440"/>
    <nd ref="298645441"/>
    <nd ref="298645443"/>
    <nd ref="298645442"/>
    <tag k="highway" v="residential"/>
    <tag k="maxspeed" v="50"/>
    <tag k="maxspeed:source" v="default residential speed limit in Australia"/>
    <tag k="name" v="Stanley Avenue"/>
    <tag k="source" v="GPS"/>
  </way>
  <way id="27213491" version="4" timestamp="2010-07-25T01:06:46Z" uid="7617" user="Franc" changeset="5308276">
    <nd ref="298645445"/>
    <nd ref="832262526"/>
    <nd ref="832262530"/>
    <nd ref="306533630"/>
    <nd ref="832262523"/>
    <nd ref="298645439"/>
    <nd ref="298645440"/>
    <nd ref="832262509"/>
    <nd ref="832262508"/>
    <nd ref="298645441"/>
    <nd ref="298645443"/>
    <nd ref="298645442"/>
    <tag k="highway" v="residential"/>
    <tag k="maxspeed" v="50"/>
    <tag k="maxspeed:source" v="default residential speed limit in Australia"/>
    <tag k="name" v="Stanley Avenue"/>
    <tag k="source" v="GPS"/>
  </way>
  <way id="27213492" version="2" timestamp="2010-07-07T19:53:02Z" uid="74617" user="JohnSmith" changeset="5161069">
    <nd ref="298645440"/>
    <nd ref="298645444"/>
    <tag k="highway" v="residential"/>
    <tag k="maxspeed" v="50"/>
    <tag k="maxspeed:source" v="default residential speed limit in Australia"/>
    <tag k="name" v="Albermarle Street"/>
  </way>
  <way id="27213493" version="2" timestamp="2010-07-07T19:46:37Z" uid="74617" user="JohnSmith" changeset="5161069">
    <nd ref="298645443"/>
    <nd ref="298645449"/>
    <tag k="highway" v="residential"/>
    <tag k="maxspeed" v="50"/>
    <tag k="maxspeed:source" v="default residential speed limit in Australia"/>
    <tag k="name" v="Nielson Street"/>
  </way>
  <way id="27213494" version="2" timestamp="2009-08-03T10:57:38Z" uid="4467" user="Rosscoe" changeset="2024087">
    <nd ref="298645451"/>
    <nd ref="298645452"/>
    <nd ref="298645450"/>
    <tag k="highway" v="secondary"/>
    <tag k="name" v="Panorama Drive"/>
    <tag k="oneway" v="yes"/>
  </way>
  <way id="27213494" version="3" timestamp="2010-07-25T01:06:49Z" uid="7617" user="Franc" changeset="5308276">
    <nd ref="298645451"/>
    <nd ref="832262525"/>
    <nd ref="298645452"/>
    <nd ref="832262507"/>
    <nd ref="298645450"/>
    <tag k="highway" v="secondary"/>
    <tag k="name" v="Panorama Drive"/>
    <tag k="oneway" v="yes"/>
  </way>
  <way id="27213497" version="2" timestamp="2010-07-07T19:47:59Z" uid="74617" user="JohnSmith" changeset="5161069">
    <nd ref="298645456"/>
    <nd ref="298645457"/>
    <nd ref="298645458"/>
    <tag k="highway" v="residential"/>
    <tag k="maxspeed" v="50"/>
    <tag k="maxspeed:source" v="default residential speed limit in Australia"/>
    <tag k="name" v="Vista Avenue"/>
  </way>
  <way id="27213498" version="2" timestamp="2010-07-07T19:51:58Z" uid="74617" user="JohnSmith" changeset="5161069">
    <nd ref="298645467"/>
    <nd ref="298645466"/>
    <nd ref="298645468"/>
    <tag k="highway" v="residential"/>
    <tag k="maxspeed" v="50"/>
    <tag k="maxspeed:source" v="default residential speed limit in Australia"/>
    <tag k="name" v="Susan Place"/>
  </way>
  <way id="27213499" version="2" timestamp="2010-07-07T19:58:06Z" uid="74617" user="JohnSmith" changeset="5161069">
    <nd ref="298645465"/>
    <nd ref="298645469"/>
    <nd ref="298645470"/>
    <nd ref="298645471"/>
    <nd ref="298645473"/>
    <nd ref="298645475"/>
    <nd ref="298645474"/>
    <tag k="highway" v="residential"/>
    <tag k="maxspeed" v="50"/>
    <tag k="maxspeed:source" v="default residential speed limit in Australia"/>
    <tag k="name" v="Ashley Avenue"/>
  </way>
  <way id="27213499" version="3" timestamp="2010-07-25T01:06:49Z" uid="7617" user="Franc" changeset="5308276">
    <nd ref="298645465"/>
    <nd ref="298645469"/>
    <nd ref="832262515"/>
    <nd ref="832262510"/>
    <nd ref="298645470"/>
    <nd ref="832262512"/>
    <nd ref="298645471"/>
    <nd ref="832262511"/>
    <nd ref="298645473"/>
    <nd ref="298645475"/>
    <nd ref="298645474"/>
    <tag k="highway" v="residential"/>
    <tag k="maxspeed" v="50"/>
    <tag k="maxspeed:source" v="default residential speed limit in Australia"/>
    <tag k="name" v="Ashley Avenue"/>
  </way>
  <way id="27213500" version="3" timestamp="2010-07-07T19:57:17Z" uid="74617" user="JohnSmith" changeset="5161069">
    <nd ref="298645599"/>
    <nd ref="661037317"/>
    <nd ref="661037318"/>
    <nd ref="298645600"/>
    <nd ref="661037319"/>
    <nd ref="298645601"/>
    <tag k="highway" v="residential"/>
    <tag k="maxspeed" v="50"/>
    <tag k="maxspeed:source" v="default residential speed limit in Australia"/>
    <tag k="name" v="Dunstable Road"/>
  </way>
  <way id="27213502" version="2" timestamp="2010-07-07T19:56:07Z" uid="74617" user="JohnSmith" changeset="5161069">
    <nd ref="298645548"/>
    <nd ref="298645604"/>
    <tag k="highway" v="residential"/>
    <tag k="maxspeed" v="50"/>
    <tag k="maxspeed:source" v="default residential speed limit in Australia"/>
    <tag k="name" v="Ribbonwood Road"/>
  </way>
  <way id="27213503" version="3" timestamp="2010-07-07T19:50:31Z" uid="74617" user="JohnSmith" changeset="5161069">
    <nd ref="298645481"/>
    <nd ref="298645610"/>
    <nd ref="661037377"/>
    <nd ref="298645617"/>
    <nd ref="661037378"/>
    <nd ref="661037379"/>
    <nd ref="661037380"/>
    <nd ref="298645621"/>
    <nd ref="298645622"/>
    <nd ref="661037381"/>
    <nd ref="298645624"/>
    <nd ref="298645662"/>
    <tag k="highway" v="residential"/>
    <tag k="maxspeed" v="50"/>
    <tag k="maxspeed:source" v="default residential speed limit in Australia"/>
    <tag k="name" v="River Oak Road"/>
  </way>
  <way id="27213504" version="3" timestamp="2010-07-07T19:53:22Z" uid="74617" user="JohnSmith" changeset="5161069">
    <nd ref="298645624"/>
    <nd ref="661037361"/>
    <nd ref="661037362"/>
    <nd ref="298645626"/>
    <nd ref="661037363"/>
    <nd ref="661037364"/>
    <nd ref="661037365"/>
    <nd ref="298645640"/>
    <nd ref="298645653"/>
    <nd ref="661037366"/>
    <nd ref="298645654"/>
    <nd ref="661037367"/>
    <nd ref="298645655"/>
    <tag k="highway" v="residential"/>
    <tag k="maxspeed" v="50"/>
    <tag k="maxspeed:source" v="default residential speed limit in Australia"/>
    <tag k="name" v="Sandalwood Road"/>
  </way>
  <way id="27213506" version="2" timestamp="2010-07-07T19:51:11Z" uid="74617" user="JohnSmith" changeset="5161069">
    <nd ref="298645664"/>
    <nd ref="298645653"/>
    <tag k="highway" v="residential"/>
    <tag k="maxspeed" v="50"/>
    <tag k="maxspeed:source" v="default residential speed limit in Australia"/>
    <tag k="name" v="Juniper Place"/>
  </way>
  <way id="27213507" version="2" timestamp="2010-07-07T19:57:38Z" uid="74617" user="JohnSmith" changeset="5161069">
    <nd ref="298645666"/>
    <nd ref="298645654"/>
    <tag k="highway" v="residential"/>
    <tag k="maxspeed" v="50"/>
    <tag k="maxspeed:source" v="default residential speed limit in Australia"/>
    <tag k="name" v="Sugarwood Place"/>
  </way>
  <way id="27213508" version="2" timestamp="2010-07-25T01:06:49Z" uid="7617" user="Franc" changeset="5308276">
    <nd ref="298645669"/>
    <nd ref="832262532"/>
    <nd ref="298645670"/>
    <tag k="highway" v="service"/>
  </way>
  <way id="27213509" version="5" timestamp="2010-07-25T01:06:45Z" uid="7617" user="Franc" changeset="5308276">
    <nd ref="298645598"/>
    <nd ref="298645601"/>
    <nd ref="298645553"/>
    <nd ref="661037464"/>
    <nd ref="661037465"/>
    <nd ref="298617833"/>
    <nd ref="298645548"/>
    <nd ref="298645456"/>
    <nd ref="298645542"/>
    <nd ref="661037467"/>
    <nd ref="298645492"/>
    <nd ref="298645483"/>
    <nd ref="298645481"/>
    <nd ref="298645468"/>
    <nd ref="298646958"/>
    <nd ref="832262541"/>
    <nd ref="298645480"/>
    <nd ref="832262539"/>
    <nd ref="298645479"/>
    <nd ref="661037468"/>
    <nd ref="661037469"/>
    <nd ref="832262542"/>
    <tag k="highway" v="secondary"/>
    <tag k="name" v="Waples Road"/>
  </way>
  <way id="27213510" version="3" timestamp="2010-07-07T19:55:35Z" uid="74617" user="JohnSmith" changeset="5161069">
    <nd ref="298645728"/>
    <nd ref="251729333"/>
    <nd ref="298645729"/>
    <nd ref="298645730"/>
    <nd ref="661037426"/>
    <nd ref="298645732"/>
    <nd ref="661037427"/>
    <nd ref="298645733"/>
    <nd ref="661037428"/>
    <nd ref="298645734"/>
    <nd ref="298645735"/>
    <nd ref="298645748"/>
    <nd ref="298645749"/>
    <nd ref="298645738"/>
    <nd ref="298645747"/>
    <nd ref="298645739"/>
    <nd ref="661037429"/>
    <nd ref="298645740"/>
    <nd ref="661037430"/>
    <nd ref="298645685"/>
    <tag k="highway" v="residential"/>
    <tag k="maxspeed" v="50"/>
    <tag k="maxspeed:source" v="default residential speed limit in Australia"/>
    <tag k="name" v="Rickard Road"/>
  </way>
  <way id="27213510" version="4" timestamp="2010-07-25T01:06:47Z" uid="7617" user="Franc" changeset="5308276">
    <nd ref="298645728"/>
    <nd ref="251729333"/>
    <nd ref="298645729"/>
    <nd ref="832262557"/>
    <tag k="highway" v="residential"/>
    <tag k="maxspeed" v="50"/>
    <tag k="maxspeed:source" v="default residential speed limit in Australia"/>
    <tag k="name" v="Rickard Road"/>
  </way>
  <way id="27213511" version="3" timestamp="2010-07-07T19:49:29Z" uid="74617" user="JohnSmith" changeset="5161069">
    <nd ref="298645741"/>
    <nd ref="298645742"/>
    <nd ref="661037408"/>
    <nd ref="298645743"/>
    <nd ref="661037409"/>
    <nd ref="661037410"/>
    <nd ref="298645745"/>
    <nd ref="661037411"/>
    <nd ref="298645735"/>
    <tag k="highway" v="residential"/>
    <tag k="maxspeed" v="50"/>
    <tag k="maxspeed:source" v="default residential speed limit in Australia"/>
    <tag k="name" v="Serrata Place"/>
  </way>
  <way id="27213511" version="4" timestamp="2010-07-25T01:06:48Z" uid="7617" user="Franc" changeset="5308276">
    <nd ref="298645741"/>
    <nd ref="298645742"/>
    <nd ref="661037408"/>
    <nd ref="832262547"/>
    <nd ref="298645743"/>
    <nd ref="661037409"/>
    <nd ref="661037410"/>
    <nd ref="298645745"/>
    <nd ref="661037411"/>
    <nd ref="298645735"/>
    <tag k="highway" v="residential"/>
    <tag k="maxspeed" v="50"/>
    <tag k="maxspeed:source" v="default residential speed limit in Australia"/>
    <tag k="name" v="Serrata Place"/>
  </way>
  <way id="27213512" version="2" timestamp="2010-07-07T19:57:21Z" uid="74617" user="JohnSmith" changeset="5161069">
    <nd ref="298645746"/>
    <nd ref="298645739"/>
    <tag k="highway" v="residential"/>
    <tag k="maxspeed" v="50"/>
    <tag k="maxspeed:source" v="default residential speed limit in Australia"/>
    <tag k="name" v="Telopea Place"/>
  </way>
  <way id="27213551" version="1" timestamp="2008-09-21T09:41:27Z" uid="43863" user="Rundling" changeset="672365">
    <nd ref="298646285"/>
    <nd ref="298646286"/>
    <nd ref="298646287"/>
    <nd ref="298646288"/>
    <nd ref="298646285"/>
    <tag k="addr:city" v="Rosche"/>
    <tag k="addr:housenumber" v="11"/>
    <tag k="addr:postcode" v="29571"/>
    <tag k="addr:street" v="An der Wipperau"/>
    <tag k="building" v="yes"/>
    <tag k="created_by" v="Merkaartor 0.11"/>
  </way>
  <way id="27213551" version="2" timestamp="2008-09-26T06:43:41Z" uid="43863" user="Rundling" changeset="698643"/>
  <way id="27213552" version="1" timestamp="2008-09-21T09:41:28Z" uid="43863" user="Rundling" changeset="672365">
    <nd ref="298646289"/>
    <nd ref="298646290"/>
    <nd ref="298646291"/>
    <nd ref="298646292"/>
    <nd ref="298646289"/>
    <tag k="addr:city" v="Rosche"/>
    <tag k="addr:housenumber" v="1"/>
    <tag k="addr:postcode" v="29571"/>
    <tag k="addr:street" v="An der Wipperau"/>
    <tag k="building" v="yes"/>
    <tag k="created_by" v="Merkaartor 0.11"/>
  </way>
  <way id="27213552" version="2" timestamp="2008-09-26T06:43:41Z" uid="43863" user="Rundling" changeset="698643"/>
  <way id="27213553" version="1" timestamp="2008-09-21T09:41:30Z" uid="43863" user="Rundling" changeset="672365">
    <nd ref="298646293"/>
    <nd ref="298646294"/>
    <nd ref="298646295"/>
    <nd ref="298646296"/>
    <nd ref="298646293"/>
    <tag k="addr:city" v="Rosche"/>
    <tag k="addr:housenumber" v="3"/>
    <tag k="addr:postcode" v="29571"/>
    <tag k="addr:street" v="An der Wipperau"/>
    <tag k="building" v="yes"/>
    <tag k="created_by" v="Merkaartor 0.11"/>
  </way>
  <way id="27213553" version="2" timestamp="2008-09-26T06:43:41Z" uid="43863" user="Rundling" changeset="698643"/>
  <way id="27213554" version="1" timestamp="2008-09-21T09:41:30Z" uid="43863" user="Rundling" changeset="672365">
    <nd ref="298646297"/>
    <nd ref="298646298"/>
    <nd ref="298646299"/>
    <nd ref="298646300"/>
    <nd ref="298646297"/>
    <tag k="addr:city" v="Rosche"/>
    <tag k="addr:housenumber" v="5"/>
    <tag k="addr:postcode" v="29571"/>
    <tag k="addr:street" v="An der Wipperau"/>
    <tag k="building" v="yes"/>
    <tag k="created_by" v="Merkaartor 0.11"/>
  </way>
  <way id="27213554" version="2" timestamp="2008-09-26T06:43:41Z" uid="43863" user="Rundling" changeset="698643"/>
  <way id="27213555" version="1" timestamp="2008-09-21T09:41:31Z" uid="43863" user="Rundling" changeset="672365">
    <nd ref="298646301"/>
    <nd ref="298646302"/>
    <nd ref="298646303"/>
    <nd ref="298646304"/>
    <nd ref="298646301"/>
    <tag k="addr:city" v="Rosche"/>
    <tag k="addr:housenumber" v="7"/>
    <tag k="addr:postcode" v="29571"/>
    <tag k="addr:street" v="An der Wipperau"/>
    <tag k="building" v="yes"/>
    <tag k="created_by" v="Merkaartor 0.11"/>
  </way>
  <way id="27213555" version="2" timestamp="2008-09-26T06:43:41Z" uid="43863" user="Rundling" changeset="698643"/>
  <way id="27213556" version="1" timestamp="2008-09-21T09:41:32Z" uid="43863" user="Rundling" changeset="672365">
    <nd ref="298646305"/>
    <nd ref="298646306"/>
    <nd ref="298646307"/>
    <nd ref="298646308"/>
    <nd ref="298646305"/>
    <tag k="addr:city" v="Rosche"/>
    <tag k="addr:housenumber" v="9"/>
    <tag k="addr:postcode" v="29571"/>
    <tag k="addr:street" v="An der Wipperau"/>
    <tag k="building" v="yes"/>
    <tag k="created_by" v="Merkaartor 0.11"/>
  </way>
  <way id="27213556" version="2" timestamp="2008-09-26T06:43:42Z" uid="43863" user="Rundling" changeset="698643"/>
  <way id="27213596" version="1" timestamp="2008-09-21T09:44:57Z" uid="43863" user="Rundling" changeset="672365">
    <nd ref="298646538"/>
    <nd ref="298646539"/>
    <nd ref="298646540"/>
    <nd ref="298646541"/>
    <nd ref="298646538"/>
    <tag k="addr:city" v="Rosche"/>
    <tag k="addr:housenumber" v="2"/>
    <tag k="addr:postcode" v="29571"/>
    <tag k="addr:street" v="Maschweg"/>
    <tag k="building" v="yes"/>
    <tag k="created_by" v="Merkaartor 0.11"/>
  </way>
  <way id="27213596" version="2" timestamp="2009-01-30T18:04:16Z" uid="43863" user="Rundling" changeset="856154">
    <nd ref="298646538"/>
    <nd ref="298646539"/>
    <nd ref="298646540"/>
    <nd ref="298646541"/>
    <nd ref="298646538"/>
    <tag k="addr:city" v="Rosche"/>
    <tag k="addr:housenumber" v="2"/>
    <tag k="addr:postcode" v="29571"/>
    <tag k="addr:street" v="Maschweg"/>
    <tag k="amenity" v="doctors"/>
    <tag k="building" v="yes"/>
    <tag k="created_by" v="Merkaartor 0.11"/>
    <tag k="name" v="Dr. Bögel"/>
  </way>
  <way id="27213596" version="3" timestamp="2009-07-15T06:31:44Z" uid="43863" user="Rundling" changeset="1833340">
    <nd ref="298646538"/>
    <nd ref="298646539"/>
    <nd ref="298646540"/>
    <nd ref="298646541"/>
    <nd ref="298646538"/>
    <tag k="addr:city" v="Rosche"/>
    <tag k="addr:housenumber" v="2"/>
    <tag k="addr:postcode" v="29571"/>
    <tag k="addr:street" v="Maschweg"/>
    <tag k="amenity" v="doctors"/>
    <tag k="building" v="yes"/>
  </way>
  <way id="27213596" version="4" timestamp="2009-10-17T08:17:06Z" uid="43863" user="Rundling" changeset="2871341">
    <nd ref="298646538"/>
    <nd ref="298646539"/>
    <nd ref="298646540"/>
    <nd ref="298646541"/>
    <nd ref="298646538"/>
    <tag k="addr:city" v="Rosche"/>
    <tag k="addr:housenumber" v="2"/>
    <tag k="addr:postcode" v="29571"/>
    <tag k="addr:street" v="Maschweg"/>
    <tag k="building" v="yes"/>
  </way>
  <way id="27213597" version="1" timestamp="2008-09-21T09:44:57Z" uid="43863" user="Rundling" changeset="672365">
    <nd ref="298646542"/>
    <nd ref="298646543"/>
    <nd ref="298646544"/>
    <nd ref="298646545"/>
    <nd ref="298646542"/>
    <tag k="addr:city" v="Rosche"/>
    <tag k="addr:housenumber" v="1"/>
    <tag k="addr:postcode" v="29571"/>
    <tag k="addr:street" v="Maschweg"/>
    <tag k="building" v="yes"/>
    <tag k="created_by" v="Merkaartor 0.11"/>
  </way>
  <way id="27213608" version="3" timestamp="2010-03-28T00:08:05Z" uid="20587" user="balrog-kun" changeset="4250871">
    <nd ref="89559207"/>
    <nd ref="298646815"/>
    <nd ref="89668329"/>
    <nd ref="89668331"/>
    <nd ref="89668333"/>
    <nd ref="89668335"/>
    <nd ref="89668336"/>
    <nd ref="89668337"/>
    <nd ref="89668339"/>
    <nd ref="89668340"/>
    <nd ref="89668342"/>
    <nd ref="89668343"/>
    <nd ref="89668345"/>
    <nd ref="89587891"/>
    <nd ref="89637376"/>
    <nd ref="89935960"/>
    <nd ref="89935958"/>
    <nd ref="89935957"/>
    <nd ref="89935956"/>
    <nd ref="89935954"/>
    <tag k="created_by" v="Potlatch 0.10b"/>
    <tag k="highway" v="residential"/>
    <tag k="name" v="Hartnell Road"/>
    <tag k="tiger:cfcc" v="A63; A41"/>
    <tag k="tiger:county" v="Monterey, CA"/>
    <tag k="tiger:name_base" v="Hartnell"/>
    <tag k="tiger:name_type" v="Rd"/>
    <tag k="tiger:reviewed" v="no"/>
    <tag k="tiger:separated" v="no"/>
    <tag k="tiger:source" v="tiger_import_dch_v0.6_20070809"/>
    <tag k="tiger:tlid" v="196833740; 196870384; 196825190"/>
  </way>
  <way id="27213634" version="2" timestamp="2010-07-07T19:48:06Z" uid="74617" user="JohnSmith" changeset="5161069">
    <nd ref="298646850"/>
    <nd ref="298646851"/>
    <nd ref="298646853"/>
    <nd ref="298646852"/>
    <nd ref="298645684"/>
    <tag k="highway" v="residential"/>
    <tag k="maxspeed" v="50"/>
    <tag k="maxspeed:source" v="default residential speed limit in Australia"/>
    <tag k="name" v="Hibiscus Place"/>
  </way>
  <way id="27213634" version="3" timestamp="2011-06-03T11:55:46Z" uid="7617" user="Franc" changeset="8328830">
    <nd ref="298646850"/>
    <nd ref="1310212303"/>
    <nd ref="298646851"/>
    <nd ref="298646853"/>
    <nd ref="1310212365"/>
    <nd ref="298646852"/>
    <nd ref="298645684"/>
    <tag k="highway" v="residential"/>
    <tag k="maxspeed" v="50"/>
    <tag k="maxspeed:source" v="default residential speed limit in Australia"/>
    <tag k="name" v="Hibiscus Place"/>
  </way>
  <way id="27213636" version="3" timestamp="2010-07-07T19:54:56Z" uid="74617" user="JohnSmith" changeset="5161069">
    <nd ref="298646856"/>
    <nd ref="298646857"/>
    <nd ref="661037387"/>
    <nd ref="298646858"/>
    <nd ref="661037388"/>
    <nd ref="298646859"/>
    <nd ref="661037389"/>
    <nd ref="298646865"/>
    <nd ref="661037390"/>
    <nd ref="298646866"/>
    <nd ref="298646867"/>
    <nd ref="298646868"/>
    <nd ref="661037391"/>
    <nd ref="298646869"/>
    <nd ref="661037392"/>
    <nd ref="298646870"/>
    <nd ref="298646871"/>
    <nd ref="661037393"/>
    <nd ref="661037394"/>
    <nd ref="298646895"/>
    <nd ref="298645685"/>
    <tag k="highway" v="residential"/>
    <tag k="maxspeed" v="50"/>
    <tag k="maxspeed:source" v="default residential speed limit in Australia"/>
    <tag k="name" v="Tamarind Drive"/>
  </way>
  <way id="27213637" version="5" timestamp="2010-07-07T19:48:45Z" uid="74617" user="JohnSmith" changeset="5161069">
    <nd ref="298646854"/>
    <nd ref="661048657"/>
    <nd ref="661048658"/>
    <nd ref="661048659"/>
    <nd ref="298646855"/>
    <nd ref="298646856"/>
    <nd ref="661048660"/>
    <nd ref="298646896"/>
    <nd ref="661048563"/>
    <nd ref="298646901"/>
    <nd ref="661048564"/>
    <nd ref="661048565"/>
    <nd ref="298646907"/>
    <nd ref="661048566"/>
    <nd ref="298646914"/>
    <nd ref="661048567"/>
    <nd ref="661037399"/>
    <nd ref="298646867"/>
    <tag k="highway" v="residential"/>
    <tag k="maxspeed" v="50"/>
    <tag k="maxspeed:source" v="default residential speed limit in Australia"/>
    <tag k="name" v="Silver Top Parade"/>
  </way>
  <way id="27213638" version="2" timestamp="2010-07-07T19:52:36Z" uid="74617" user="JohnSmith" changeset="5161069">
    <nd ref="298646920"/>
    <nd ref="298646859"/>
    <tag k="highway" v="residential"/>
    <tag k="maxspeed" v="50"/>
    <tag k="maxspeed:source" v="default residential speed limit in Australia"/>
    <tag k="name" v="Blueberry Place"/>
  </way>
  <way id="27213641" version="2" timestamp="2010-07-07T19:50:02Z" uid="74617" user="JohnSmith" changeset="5161069">
    <nd ref="298646927"/>
    <nd ref="298646934"/>
    <nd ref="298646866"/>
    <tag k="highway" v="residential"/>
    <tag k="maxspeed" v="50"/>
    <tag k="maxspeed:source" v="default residential speed limit in Australia"/>
    <tag k="name" v="Churnwood Place"/>
  </way>
  <way id="27213641" version="3" timestamp="2010-07-25T03:45:34Z" uid="7617" user="Franc" changeset="5308667">
    <nd ref="298646927"/>
    <nd ref="832349262"/>
    <nd ref="298646934"/>
    <nd ref="298646866"/>
    <tag k="highway" v="residential"/>
    <tag k="maxspeed" v="50"/>
    <tag k="maxspeed:source" v="default residential speed limit in Australia"/>
    <tag k="name" v="Churnwood Place"/>
  </way>
  <way id="27213642" version="3" timestamp="2010-07-07T19:53:57Z" uid="74617" user="JohnSmith" changeset="5161069">
    <nd ref="298646868"/>
    <nd ref="661037395"/>
    <nd ref="661037396"/>
    <nd ref="298646941"/>
    <nd ref="661037397"/>
    <nd ref="661037398"/>
    <nd ref="298646948"/>
    <nd ref="298646949"/>
    <nd ref="298646950"/>
    <tag k="highway" v="residential"/>
    <tag k="maxspeed" v="50"/>
    <tag k="maxspeed:source" v="default residential speed limit in Australia"/>
    <tag k="name" v="Plumwood Crescent"/>
  </way>
  <way id="27213642" version="4" timestamp="2011-06-03T11:55:49Z" uid="7617" user="Franc" changeset="8328830">
    <nd ref="298646868"/>
    <nd ref="661037395"/>
    <nd ref="661037396"/>
    <nd ref="298646941"/>
    <nd ref="661037397"/>
    <nd ref="661037398"/>
    <nd ref="298646948"/>
    <nd ref="298646949"/>
    <tag k="highway" v="residential"/>
    <tag k="maxspeed" v="50"/>
    <tag k="maxspeed:source" v="default residential speed limit in Australia"/>
    <tag k="name" v="Plumwood Crescent"/>
  </way>
  <way id="27213643" version="3" timestamp="2011-06-03T11:55:47Z" uid="7617" user="Franc" changeset="8328830">
    <nd ref="298646949"/>
    <nd ref="298646950"/>
    <nd ref="661057792"/>
    <nd ref="298646951"/>
    <nd ref="298646952"/>
    <nd ref="661057795"/>
    <nd ref="661057796"/>
    <nd ref="298646953"/>
    <nd ref="661057798"/>
    <nd ref="298646954"/>
    <nd ref="661057799"/>
    <nd ref="298646955"/>
    <nd ref="298646956"/>
    <nd ref="661057803"/>
    <nd ref="661057805"/>
    <nd ref="661057807"/>
    <nd ref="298646957"/>
    <nd ref="298646958"/>
    <tag k="highway" v="residential"/>
    <tag k="maxspeed" v="50"/>
    <tag k="name" v="Murrogun Crescent"/>
  </way>
  <way id="27213644" version="2" timestamp="2010-07-07T19:45:26Z" uid="74617" user="JohnSmith" changeset="5161069">
    <nd ref="298646959"/>
    <nd ref="298646960"/>
    <nd ref="298646955"/>
    <tag k="highway" v="residential"/>
    <tag k="maxspeed" v="50"/>
    <tag k="maxspeed:source" v="default residential speed limit in Australia"/>
    <tag k="name" v="Lambertia Place"/>
  </way>
  <way id="27213644" version="3" timestamp="2010-07-25T01:06:44Z" uid="7617" user="Franc" changeset="5308276">
    <nd ref="298646959"/>
    <nd ref="832262668"/>
    <nd ref="832262666"/>
    <nd ref="298646960"/>
    <nd ref="298646955"/>
    <tag k="highway" v="residential"/>
    <tag k="maxspeed" v="50"/>
    <tag k="maxspeed:source" v="default residential speed limit in Australia"/>
    <tag k="name" v="Lambertia Place"/>
  </way>
  <way id="27213686" version="4" timestamp="2010-11-22T21:50:14Z" uid="65847" user="LKK" changeset="6435487">
    <nd ref="295584510"/>
    <nd ref="298647433"/>
    <nd ref="298647453"/>
    <nd ref="298646963"/>
    <tag k="highway" v="residential"/>
    <tag k="name" v="Казармена"/>
  </way>
  <way id="27213753" version="9" timestamp="2008-12-21T21:03:39Z" uid="27600" user="Islanit" changeset="526803">
    <nd ref="298648634"/>
    <nd ref="298649209"/>
    <nd ref="298649212"/>
    <nd ref="298649215"/>
    <nd ref="298649218"/>
    <nd ref="298649225"/>
    <nd ref="298649228"/>
    <nd ref="320716581"/>
    <nd ref="298649233"/>
    <nd ref="298649239"/>
    <nd ref="298649240"/>
    <nd ref="298649245"/>
    <tag k="created_by" v="Potlatch 0.10f"/>
    <tag k="highway" v="residential"/>
    <tag k="name" v="Kellerstraße"/>
  </way>
  <way id="27213878" version="10" timestamp="2010-03-28T00:08:06Z" uid="20587" user="balrog-kun" changeset="4250871">
    <nd ref="89862096"/>
    <nd ref="89884483"/>
    <nd ref="89895330"/>
    <nd ref="89975984"/>
    <nd ref="89881949"/>
    <nd ref="89807338"/>
    <nd ref="89914613"/>
    <nd ref="89930904"/>
    <nd ref="89807878"/>
    <nd ref="89871706"/>
    <nd ref="89988712"/>
    <nd ref="89882420"/>
    <nd ref="89959010"/>
    <nd ref="89872700"/>
    <nd ref="89873724"/>
    <nd ref="89902546"/>
    <nd ref="89880569"/>
    <nd ref="89999075"/>
    <nd ref="89965754"/>
    <nd ref="89901402"/>
    <nd ref="373835550"/>
    <tag k="highway" v="trunk"/>
    <tag k="name" v="South Main Street"/>
    <tag k="name_1" v="State Route 68"/>
    <tag k="ref" v="CA 68"/>
    <tag k="tiger:cfcc" v="A31"/>
    <tag k="tiger:county" v="Monterey, CA"/>
    <tag k="tiger:name_base" v="Main"/>
    <tag k="tiger:name_base_1" v="State Route 68"/>
    <tag k="tiger:name_direction_prefix" v="S"/>
    <tag k="tiger:name_type" v="St"/>
    <tag k="tiger:reviewed" v="no"/>
    <tag k="tiger:separated" v="no"/>
    <tag k="tiger:source" v="tiger_import_dch_v0.6_20070809"/>
    <tag k="tiger:tlid" v="196843691:196843692:196822353:196822355:196819996:196819998:196819973:196819965:196819967:196819969:196819971:196819975:196819979:196819981:196820000:196820001:196820003:196820005:196820007:196820008"/>
    <tag k="tiger:zip_left" v="93901"/>
    <tag k="tiger:zip_right" v="93901"/>
  </way>
  <way id="27213999" version="8" timestamp="2010-03-28T00:08:07Z" uid="20587" user="balrog-kun" changeset="4250871">
    <nd ref="89708686"/>
    <nd ref="89876267"/>
    <nd ref="89764606"/>
    <nd ref="89876269"/>
    <nd ref="89876271"/>
    <nd ref="89876273"/>
    <nd ref="89876275"/>
    <nd ref="89876277"/>
    <nd ref="89876278"/>
    <nd ref="89876280"/>
    <nd ref="89876282"/>
    <nd ref="89876285"/>
    <nd ref="89876287"/>
    <nd ref="89876288"/>
    <nd ref="89876289"/>
    <nd ref="89876290"/>
    <nd ref="89602106"/>
    <nd ref="89734291"/>
    <nd ref="89656033"/>
    <tag k="highway" v="trunk"/>
    <tag k="name" v="East Market Street"/>
    <tag k="name_1" v="Market Way"/>
    <tag k="tiger:cfcc" v="A41"/>
    <tag k="tiger:county" v="Monterey, CA"/>
    <tag k="tiger:name_base" v="Market"/>
    <tag k="tiger:name_base_1" v="Market"/>
    <tag k="tiger:name_direction_prefix" v="E"/>
    <tag k="tiger:name_type" v="St"/>
    <tag k="tiger:name_type_1" v="Way"/>
    <tag k="tiger:reviewed" v="no"/>
    <tag k="tiger:separated" v="no"/>
    <tag k="tiger:source" v="tiger_import_dch_v0.6_20070809"/>
    <tag k="tiger:tlid" v="196824308:196824310:196824222:196824224:196824279:196824281:196824283:196824298:196823901:196823902:196869840:196823878:196823898:196824201:196824204:196824208:196857729:196857733:196857734:196823804:196869837:196869839:196824210"/>
    <tag k="tiger:zip_left" v="93905"/>
    <tag k="tiger:zip_right" v="93905"/>
  </way>
</osm>
