<?xml version='1.0' encoding='UTF-8'?>
<osm version="0.6" generator="libosmium/2.20.0">
  <way id="2725053" version="4" timestamp="2010-06-01T02:36:46Z" uid="4467" user="Rosscoe" changeset="4871073">
    <nd ref="303903180"/>
    <nd ref="303903347"/>
    <nd ref="303903348"/>
    <tag k="created_by" v="Potlatch 0.10d"/>
    <tag k="highway" v="primary"/>
    <tag k="name" v="Morala Avenue"/>
  </way>
  <way id="2725053" version="5" timestamp="2010-06-06T01:39:23Z" uid="4467" user="Rosscoe" changeset="4913747">
    <nd ref="303903180"/>
    <nd ref="765386711"/>
    <nd ref="303903347"/>
    <nd ref="765386754"/>
    <tag k="highway" v="primary"/>
    <tag k="name" v="Morala Avenue"/>
  </way>
  <way id="2725053" version="6" timestamp="2010-06-07T07:30:26Z" uid="4467" user="Rosscoe" changeset="4925457">
    <nd ref="303903180"/>
    <nd ref="765386711"/>
    <nd ref="766413100"/>
    <nd ref="766410103"/>
    <nd ref="303903347"/>
    <nd ref="765386754"/>
    <tag k="highway" v="primary"/>
    <tag k="name" v="Morala Avenue"/>
  </way>
  <way id="2725058" version="5" timestamp="2010-05-28T08:12:50Z" uid="4467" user="Rosscoe" changeset="4828403">
    <nd ref="303903196"/>
    <nd ref="303903197"/>
    <nd ref="303903198"/>
    <nd ref="303903199"/>
    <nd ref="303903200"/>
    <nd ref="303903201"/>
    <nd ref="303903202"/>
    <nd ref="303903203"/>
    <nd ref="303903204"/>
    <nd ref="303903205"/>
    <nd ref="303903206"/>
    <nd ref="303903725"/>
    <tag k="highway" v="primary"/>
    <tag k="name" v="Lae Drive"/>
    <tag k="oneway" v="yes"/>
  </way>
  <way id="2725058" version="6" timestamp="2010-06-07T07:06:53Z" uid="4467" user="Rosscoe" changeset="4925351">
    <nd ref="303903196"/>
    <nd ref="303903197"/>
    <nd ref="303903198"/>
    <nd ref="303903199"/>
    <nd ref="303903200"/>
    <nd ref="303903201"/>
    <nd ref="303903203"/>
    <nd ref="303903204"/>
    <nd ref="303903205"/>
    <nd ref="303903206"/>
    <nd ref="303903725"/>
    <tag k="highway" v="primary"/>
    <tag k="name" v="Lae Drive"/>
    <tag k="oneway" v="yes"/>
    <tag k="source" v="nearmap"/>
  </way>
  <way id="2725058" version="7" timestamp="2010-06-07T07:30:24Z" uid="4467" user="Rosscoe" changeset="4925457">
    <nd ref="303903196"/>
    <nd ref="303903197"/>
    <nd ref="303903198"/>
    <nd ref="303903199"/>
    <nd ref="303903200"/>
    <nd ref="303903201"/>
    <nd ref="766411399"/>
    <nd ref="303903203"/>
    <nd ref="303903204"/>
    <nd ref="766412598"/>
    <nd ref="766410138"/>
    <nd ref="303903205"/>
    <nd ref="303903206"/>
    <nd ref="303903725"/>
    <tag k="highway" v="primary"/>
    <tag k="name" v="Lae Drive"/>
    <tag k="oneway" v="yes"/>
    <tag k="source" v="nearmap"/>
  </way>
  <way id="2725058" version="8" timestamp="2010-06-07T08:03:30Z" uid="4467" user="Rosscoe" changeset="4925634">
    <nd ref="303903196"/>
    <nd ref="303903197"/>
    <nd ref="303903198"/>
    <nd ref="766427406"/>
    <nd ref="303903199"/>
    <nd ref="303903200"/>
    <nd ref="303903201"/>
    <nd ref="766411399"/>
    <nd ref="303903203"/>
    <nd ref="303903204"/>
    <nd ref="766412598"/>
    <nd ref="766410138"/>
    <nd ref="303903205"/>
    <nd ref="303903206"/>
    <nd ref="303903725"/>
    <tag k="highway" v="primary"/>
    <tag k="name" v="Lae Drive"/>
    <tag k="oneway" v="yes"/>
    <tag k="source" v="nearmap"/>
  </way>
  <way id="2725060" version="8" timestamp="2010-05-28T08:13:10Z" uid="4467" user="Rosscoe" changeset="4828403">
    <nd ref="86208966"/>
    <nd ref="303903226"/>
    <nd ref="752236050"/>
    <tag k="highway" v="residential"/>
    <tag k="name" v="Lae Place"/>
    <tag k="oneway" v="yes"/>
    <tag k="source" v="nearmap"/>
  </way>
  <way id="2725060" version="9" timestamp="2010-07-06T17:17:43Z" uid="74617" user="JohnSmith" changeset="5152225">
    <nd ref="86208966"/>
    <nd ref="303903226"/>
    <nd ref="752236050"/>
    <tag k="highway" v="residential"/>
    <tag k="maxspeed" v="50"/>
    <tag k="maxspeed:source" v="default residential speed limit in Australia"/>
    <tag k="name" v="Lae Place"/>
    <tag k="oneway" v="yes"/>
    <tag k="source" v="nearmap"/>
  </way>
  <way id="2725062" version="6" timestamp="2010-05-28T08:13:02Z" uid="4467" user="Rosscoe" changeset="4828403">
    <nd ref="12332650"/>
    <nd ref="12333015"/>
    <nd ref="303903233"/>
    <tag k="highway" v="primary"/>
    <tag k="name" v="Bayview Street"/>
  </way>
  <way id="2725064" version="3" timestamp="2010-05-28T08:18:28Z" uid="4467" user="Rosscoe" changeset="4828439">
    <nd ref="12333026"/>
    <nd ref="12333028"/>
    <nd ref="12333027"/>
    <tag k="highway" v="residential"/>
    <tag k="name" v="Bulolo Avenue"/>
  </way>
  <way id="2725064" version="4" timestamp="2010-07-06T17:17:02Z" uid="74617" user="JohnSmith" changeset="5152225">
    <nd ref="12333026"/>
    <nd ref="12333028"/>
    <nd ref="12333027"/>
    <tag k="highway" v="residential"/>
    <tag k="maxspeed" v="50"/>
    <tag k="maxspeed:source" v="default residential speed limit in Australia"/>
    <tag k="name" v="Bulolo Avenue"/>
  </way>
  <way id="2725072" version="4" timestamp="2010-05-28T08:13:11Z" uid="4467" user="Rosscoe" changeset="4828403">
    <nd ref="303903280"/>
    <nd ref="12333022"/>
    <nd ref="752236375"/>
    <nd ref="12333027"/>
    <nd ref="12333023"/>
    <tag k="highway" v="residential"/>
    <tag k="name" v="Jannifer Avenue"/>
  </way>
  <way id="2725072" version="5" timestamp="2010-07-06T17:18:11Z" uid="74617" user="JohnSmith" changeset="5152225">
    <nd ref="303903280"/>
    <nd ref="12333022"/>
    <nd ref="752236375"/>
    <nd ref="12333027"/>
    <nd ref="12333023"/>
    <tag k="highway" v="residential"/>
    <tag k="maxspeed" v="50"/>
    <tag k="maxspeed:source" v="default residential speed limit in Australia"/>
    <tag k="name" v="Jannifer Avenue"/>
  </way>
  <way id="2725198" version="3" timestamp="2010-05-28T08:13:09Z" uid="4467" user="Rosscoe" changeset="4828403">
    <nd ref="12333024"/>
    <nd ref="12333023"/>
    <nd ref="12333300"/>
    <tag k="highway" v="residential"/>
    <tag k="name" v="Anglers Esplanade"/>
  </way>
  <way id="2725198" version="4" timestamp="2010-07-06T17:14:21Z" uid="74617" user="JohnSmith" changeset="5152225">
    <nd ref="12333024"/>
    <nd ref="12333023"/>
    <nd ref="12333300"/>
    <tag k="highway" v="residential"/>
    <tag k="maxspeed" v="50"/>
    <tag k="maxspeed:source" v="default residential speed limit in Australia"/>
    <tag k="name" v="Anglers Esplanade"/>
  </way>
  <way id="2725209" version="3" timestamp="2010-06-06T01:36:43Z" uid="4467" user="Rosscoe" changeset="4913747">
    <nd ref="12333338"/>
    <nd ref="12333682"/>
    <nd ref="765386764"/>
    <nd ref="12333330"/>
    <nd ref="765386616"/>
    <nd ref="12333362"/>
    <tag k="highway" v="residential"/>
    <tag k="name" v="Madang Crescent"/>
    <tag k="oneway" v="yes"/>
    <tag k="source" v="nearmap"/>
  </way>
  <way id="2725209" version="4" timestamp="2010-07-06T17:12:53Z" uid="74617" user="JohnSmith" changeset="5152225">
    <nd ref="12333338"/>
    <nd ref="12333682"/>
    <nd ref="765386764"/>
    <nd ref="12333330"/>
    <nd ref="765386616"/>
    <nd ref="12333362"/>
    <tag k="highway" v="residential"/>
    <tag k="maxspeed" v="50"/>
    <tag k="maxspeed:source" v="default residential speed limit in Australia"/>
    <tag k="name" v="Madang Crescent"/>
    <tag k="oneway" v="yes"/>
    <tag k="source" v="nearmap"/>
  </way>
  <way id="2725220" version="4" timestamp="2010-07-06T17:14:15Z" uid="74617" user="JohnSmith" changeset="5152225">
    <nd ref="12333406"/>
    <nd ref="12333411"/>
    <nd ref="12333410"/>
    <tag k="highway" v="unclassified"/>
    <tag k="maxspeed" v="50"/>
    <tag k="maxspeed:source" v="default residential speed limit in Australia"/>
    <tag k="name" v="Oatland Esplanade"/>
  </way>
  <way id="2725232" version="6" timestamp="2010-05-28T08:13:17Z" uid="4467" user="Rosscoe" changeset="4828403">
    <nd ref="12333438"/>
    <nd ref="304510113"/>
    <nd ref="12333338"/>
    <nd ref="12333378"/>
    <nd ref="12333369"/>
    <nd ref="304512710"/>
    <nd ref="752236116"/>
    <nd ref="303903281"/>
    <tag k="highway" v="primary"/>
    <tag k="name" v="Bayview Street"/>
  </way>
  <way id="2725232" version="7" timestamp="2010-06-06T01:39:13Z" uid="4467" user="Rosscoe" changeset="4913747">
    <nd ref="12333438"/>
    <nd ref="765386727"/>
    <nd ref="304510113"/>
    <nd ref="12333338"/>
    <nd ref="12333378"/>
    <nd ref="765386669"/>
    <tag k="highway" v="primary"/>
    <tag k="name" v="Bayview Street"/>
  </way>
  <way id="2725234" version="8" timestamp="2010-06-01T02:59:37Z" uid="4467" user="Rosscoe" changeset="4871181">
    <nd ref="12333498"/>
    <nd ref="303904461"/>
    <nd ref="303904566"/>
    <nd ref="86208972"/>
    <nd ref="86208980"/>
    <nd ref="12333438"/>
    <tag k="created_by" v="Potlatch 0.10d"/>
    <tag k="highway" v="residential"/>
    <tag k="name" v="Broadwater Street"/>
  </way>
  <way id="2725234" version="9" timestamp="2010-06-07T06:46:11Z" uid="4467" user="Rosscoe" changeset="4925218">
    <nd ref="12333498"/>
    <nd ref="303904461"/>
    <nd ref="303904566"/>
    <nd ref="86208972"/>
    <nd ref="86208980"/>
    <nd ref="12333438"/>
    <tag k="highway" v="residential"/>
    <tag k="name" v="Broadwater Street"/>
    <tag k="source" v="nearmap"/>
  </way>
  <way id="2725234" version="10" timestamp="2010-07-06T17:13:33Z" uid="74617" user="JohnSmith" changeset="5152225">
    <nd ref="12333498"/>
    <nd ref="303904461"/>
    <nd ref="303904566"/>
    <nd ref="86208972"/>
    <nd ref="86208980"/>
    <nd ref="12333438"/>
    <tag k="highway" v="residential"/>
    <tag k="maxspeed" v="50"/>
    <tag k="maxspeed:source" v="default residential speed limit in Australia"/>
    <tag k="name" v="Broadwater Street"/>
    <tag k="source" v="nearmap"/>
  </way>
  <way id="2725236" version="9" timestamp="2010-06-01T02:36:48Z" uid="4467" user="Rosscoe" changeset="4871073">
    <nd ref="303904105"/>
    <nd ref="303903517"/>
    <nd ref="304510057"/>
    <nd ref="304509954"/>
    <nd ref="304509973"/>
    <nd ref="303903451"/>
    <nd ref="303903375"/>
    <tag k="created_by" v="Potlatch 0.10e"/>
    <tag k="highway" v="primary"/>
    <tag k="name" v="Morola Avenue"/>
  </way>
  <way id="2725236" version="10" timestamp="2010-06-06T01:38:51Z" uid="4467" user="Rosscoe" changeset="4913747">
    <nd ref="303904105"/>
    <nd ref="303903517"/>
    <nd ref="304510057"/>
    <nd ref="304509954"/>
    <nd ref="304509973"/>
    <nd ref="303903451"/>
    <nd ref="303903375"/>
    <tag k="highway" v="primary"/>
    <tag k="name" v="Morala Avenue"/>
    <tag k="oneway" v="yes"/>
    <tag k="source" v="nearmap"/>
  </way>
  <way id="2725241" version="2" timestamp="2010-06-01T02:47:45Z" uid="4467" user="Rosscoe" changeset="4871091">
    <nd ref="12333415"/>
    <nd ref="12333406"/>
    <tag k="highway" v="residential"/>
    <tag k="name" v="Reseda Drive"/>
  </way>
  <way id="2725241" version="3" timestamp="2010-07-06T17:17:00Z" uid="74617" user="JohnSmith" changeset="5152225">
    <nd ref="12333415"/>
    <nd ref="12333406"/>
    <tag k="highway" v="residential"/>
    <tag k="maxspeed" v="50"/>
    <tag k="maxspeed:source" v="default residential speed limit in Australia"/>
    <tag k="name" v="Reseda Drive"/>
  </way>
  <way id="2725640" version="16" timestamp="2009-10-02T20:06:03Z" uid="86259" user="hasse_osm_korinthenkacker" changeset="2717024">
    <nd ref="12335110"/>
    <nd ref="291004281"/>
    <nd ref="290886740"/>
    <nd ref="7421860"/>
    <nd ref="12335114"/>
    <nd ref="272447270"/>
    <tag k="highway" v="primary"/>
    <tag k="name" v="Oskar-von-Miller-Platz"/>
    <tag k="postal_code" v="83607"/>
    <tag k="ref" v="B 13"/>
    <tag k="source" v="survey"/>
  </way>
  <way id="2725640" version="17" timestamp="2009-10-22T21:32:16Z" uid="36809" user="pfoten_weg_!_" changeset="2925729">
    <nd ref="12335110"/>
    <nd ref="291004281"/>
    <nd ref="290886740"/>
    <nd ref="7421860"/>
    <nd ref="12335114"/>
    <nd ref="272447270"/>
    <tag k="highway" v="primary"/>
    <tag k="name" v="Oskar-von-Miller-Platz"/>
    <tag k="postal_code" v="83607"/>
    <tag k="ref" v="B 13"/>
  </way>
  <way id="2725775" version="7" timestamp="2010-06-01T02:36:50Z" uid="4467" user="Rosscoe" changeset="4871073">
    <nd ref="86208972"/>
    <nd ref="303904616"/>
    <nd ref="12334816"/>
    <nd ref="86208991"/>
    <nd ref="86208989"/>
    <nd ref="303904360"/>
    <nd ref="86208993"/>
    <nd ref="86261285"/>
    <nd ref="12335091"/>
    <tag k="created_by" v="Potlatch 0.10d"/>
    <tag k="highway" v="primary"/>
    <tag k="name" v="Morala Avenue"/>
  </way>
  <way id="2725781" version="12" timestamp="2009-10-02T20:05:53Z" uid="86259" user="hasse_osm_korinthenkacker" changeset="2717024">
    <nd ref="272447270"/>
    <nd ref="600382"/>
    <nd ref="7985159"/>
    <nd ref="297285931"/>
    <nd ref="427678361"/>
    <nd ref="2043276"/>
    <nd ref="19841780"/>
    <nd ref="20235347"/>
    <nd ref="7985160"/>
    <nd ref="20083770"/>
    <nd ref="7985161"/>
    <tag k="highway" v="primary"/>
    <tag k="lanes" v="2"/>
    <tag k="name" v="Marktplatz; Münchner Straße"/>
    <tag k="ref" v="B 13"/>
  </way>
  <way id="2725782" version="11" timestamp="2009-10-02T20:05:53Z" uid="86259" user="hasse_osm_korinthenkacker" changeset="2717024">
    <nd ref="2043276"/>
    <nd ref="427678360"/>
    <nd ref="8284104"/>
    <nd ref="20956561"/>
    <nd ref="20956602"/>
    <tag k="highway" v="residential"/>
    <tag k="name" v="Marktplatz"/>
    <tag k="postal_code" v="83607"/>
  </way>
  <way id="2725783" version="32" timestamp="2009-10-02T20:05:53Z" uid="86259" user="hasse_osm_korinthenkacker" changeset="2717024">
    <nd ref="7985161"/>
    <nd ref="293530622"/>
    <nd ref="20083773"/>
    <tag k="highway" v="primary"/>
    <tag k="name" v="Tölzer Straße"/>
    <tag k="postal_code" v="83607"/>
    <tag k="ref" v="B 13"/>
  </way>
  <way id="2725784" version="7" timestamp="2009-10-02T20:05:54Z" uid="86259" user="hasse_osm_korinthenkacker" changeset="2717024">
    <nd ref="20083773"/>
    <nd ref="370882805"/>
    <nd ref="12213590"/>
    <nd ref="20083759"/>
    <nd ref="20235390"/>
    <tag k="highway" v="residential"/>
    <tag k="name" v="Hafnerstraße"/>
    <tag k="oneway" v="yes"/>
    <tag k="postal_code" v="83607"/>
  </way>
  <way id="2725789" version="5" timestamp="2010-06-01T02:59:39Z" uid="4467" user="Rosscoe" changeset="4871181">
    <nd ref="12334772"/>
    <nd ref="661007575"/>
    <tag k="highway" v="primary"/>
    <tag k="name" v="Ocean Street"/>
  </way>
  <way id="2725789" version="6" timestamp="2010-06-06T01:36:18Z" uid="4467" user="Rosscoe" changeset="4913747">
    <nd ref="661008238"/>
    <nd ref="765386712"/>
    <nd ref="661007575"/>
    <tag k="highway" v="primary"/>
    <tag k="name" v="Ocean Street"/>
  </way>
  <way id="2725800" version="5" timestamp="2010-05-26T14:09:56Z" uid="4467" user="Rosscoe" changeset="4813467">
    <nd ref="86208980"/>
    <nd ref="303904612"/>
    <nd ref="86208976"/>
    <nd ref="86208982"/>
    <nd ref="86208985"/>
    <nd ref="86208986"/>
    <nd ref="86209000"/>
    <nd ref="86208997"/>
    <nd ref="12334942"/>
    <nd ref="86209006"/>
    <nd ref="86209002"/>
    <nd ref="12334906"/>
    <tag k="highway" v="residential"/>
    <tag k="name" v="Stradbroke Street"/>
  </way>
  <way id="2725800" version="6" timestamp="2010-07-06T17:16:34Z" uid="74617" user="JohnSmith" changeset="5152225">
    <nd ref="86208980"/>
    <nd ref="303904612"/>
    <nd ref="86208976"/>
    <nd ref="86208982"/>
    <nd ref="86208985"/>
    <nd ref="86208986"/>
    <nd ref="86209000"/>
    <nd ref="86208997"/>
    <nd ref="12334942"/>
    <nd ref="86209006"/>
    <nd ref="86209002"/>
    <nd ref="12334906"/>
    <tag k="highway" v="residential"/>
    <tag k="maxspeed" v="50"/>
    <tag k="maxspeed:source" v="default residential speed limit in Australia"/>
    <tag k="name" v="Stradbroke Street"/>
  </way>
  <way id="2725806" version="3" timestamp="2010-06-01T02:59:41Z" uid="4467" user="Rosscoe" changeset="4871181">
    <nd ref="86208991"/>
    <nd ref="86208985"/>
    <tag k="highway" v="residential"/>
    <tag k="name" v="St Nicholas Street"/>
  </way>
  <way id="2725806" version="4" timestamp="2010-07-06T17:12:42Z" uid="74617" user="JohnSmith" changeset="5152225">
    <nd ref="86208991"/>
    <nd ref="86208985"/>
    <tag k="highway" v="residential"/>
    <tag k="maxspeed" v="50"/>
    <tag k="maxspeed:source" v="default residential speed limit in Australia"/>
    <tag k="name" v="St Nicholas Street"/>
  </way>
  <way id="2725812" version="4" timestamp="2010-06-01T02:59:43Z" uid="4467" user="Rosscoe" changeset="4871181">
    <nd ref="86208986"/>
    <nd ref="86208989"/>
    <tag k="created_by" v="Potlatch alpha"/>
    <tag k="highway" v="residential"/>
    <tag k="name" v="Drome Street"/>
  </way>
  <way id="2725812" version="5" timestamp="2010-07-06T17:14:55Z" uid="74617" user="JohnSmith" changeset="5152225">
    <nd ref="86208986"/>
    <nd ref="86208989"/>
    <tag k="highway" v="residential"/>
    <tag k="maxspeed" v="50"/>
    <tag k="maxspeed:source" v="default residential speed limit in Australia"/>
    <tag k="name" v="Drome Street"/>
  </way>
  <way id="2725820" version="5" timestamp="2010-06-01T02:59:44Z" uid="4467" user="Rosscoe" changeset="4871181">
    <nd ref="86208993"/>
    <nd ref="12335278"/>
    <nd ref="86228137"/>
    <tag k="created_by" v="Potlatch alpha"/>
    <tag k="highway" v="residential"/>
    <tag k="name" v="Kropp Street"/>
  </way>
  <way id="2725820" version="6" timestamp="2010-07-06T17:19:57Z" uid="74617" user="JohnSmith" changeset="5152225">
    <nd ref="86208993"/>
    <nd ref="12335278"/>
    <nd ref="86228137"/>
    <tag k="highway" v="residential"/>
    <tag k="maxspeed" v="50"/>
    <tag k="maxspeed:source" v="default residential speed limit in Australia"/>
    <tag k="name" v="Kropp Street"/>
  </way>
  <way id="2725829" version="4" timestamp="2010-07-06T17:18:45Z" uid="74617" user="JohnSmith" changeset="5152225">
    <nd ref="12335091"/>
    <nd ref="12335172"/>
    <nd ref="304510161"/>
    <nd ref="86209006"/>
    <tag k="highway" v="residential"/>
    <tag k="maxspeed" v="50"/>
    <tag k="maxspeed:source" v="default residential speed limit in Australia"/>
    <tag k="name" v="Kilmartin Esplanade"/>
  </way>
  <way id="2725847" version="5" timestamp="2010-06-01T02:36:52Z" uid="4467" user="Rosscoe" changeset="4871073">
    <nd ref="12334942"/>
    <nd ref="304510187"/>
    <nd ref="12334937"/>
    <nd ref="12334932"/>
    <nd ref="86209004"/>
    <tag k="created_by" v="Potlatch 0.10e"/>
    <tag k="highway" v="residential"/>
    <tag k="name" v="Margaroola Avenue"/>
  </way>
  <way id="2725847" version="6" timestamp="2010-07-06T17:15:43Z" uid="74617" user="JohnSmith" changeset="5152225">
    <nd ref="12334942"/>
    <nd ref="304510187"/>
    <nd ref="12334937"/>
    <nd ref="12334932"/>
    <nd ref="86209004"/>
    <tag k="highway" v="residential"/>
    <tag k="maxspeed" v="50"/>
    <tag k="maxspeed:source" v="default residential speed limit in Australia"/>
    <tag k="name" v="Margaroola Avenue"/>
  </way>
  <way id="2725850" version="4" timestamp="2010-06-01T02:36:54Z" uid="4467" user="Rosscoe" changeset="4871073">
    <nd ref="12334902"/>
    <nd ref="12334904"/>
    <nd ref="86209002"/>
    <tag k="created_by" v="Potlatch 0.10e"/>
    <tag k="highway" v="residential"/>
    <tag k="name" v="Annoula Avenue"/>
  </way>
  <way id="2725850" version="5" timestamp="2010-07-06T17:18:33Z" uid="74617" user="JohnSmith" changeset="5152225">
    <nd ref="12334902"/>
    <nd ref="12334904"/>
    <nd ref="86209002"/>
    <tag k="highway" v="residential"/>
    <tag k="maxspeed" v="50"/>
    <tag k="maxspeed:source" v="default residential speed limit in Australia"/>
    <tag k="name" v="Annoula Avenue"/>
  </way>
  <way id="2725863" version="3" timestamp="2010-07-06T17:12:58Z" uid="74617" user="JohnSmith" changeset="5152225">
    <nd ref="12334906"/>
    <nd ref="12334911"/>
    <nd ref="12334915"/>
    <nd ref="86258765"/>
    <nd ref="12334892"/>
    <tag k="highway" v="residential"/>
    <tag k="maxspeed" v="50"/>
    <tag k="maxspeed:source" v="default residential speed limit in Australia"/>
    <tag k="name" v="Vaggelas Crescent"/>
  </way>
  <way id="2725886" version="5" timestamp="2010-04-25T06:14:05Z" uid="4467" user="Rosscoe" changeset="4517917">
    <nd ref="86231322"/>
    <nd ref="304512627"/>
    <nd ref="304512634"/>
    <nd ref="304512628"/>
    <tag k="highway" v="residential"/>
    <tag k="name" v="Back Street"/>
  </way>
  <way id="2725886" version="6" timestamp="2010-07-06T17:19:30Z" uid="74617" user="JohnSmith" changeset="5152225">
    <nd ref="86231322"/>
    <nd ref="304512627"/>
    <nd ref="304512634"/>
    <nd ref="304512628"/>
    <tag k="highway" v="residential"/>
    <tag k="maxspeed" v="50"/>
    <tag k="maxspeed:source" v="default residential speed limit in Australia"/>
    <tag k="name" v="Back Street"/>
  </way>
  <way id="2725892" version="4" timestamp="2010-06-01T02:59:46Z" uid="4467" user="Rosscoe" changeset="4871181">
    <nd ref="12334982"/>
    <nd ref="304512627"/>
    <nd ref="304512636"/>
    <tag k="created_by" v="Potlatch 0.10e"/>
    <tag k="highway" v="residential"/>
    <tag k="name" v="Taylor Street"/>
  </way>
  <way id="2725892" version="5" timestamp="2010-07-06T17:12:45Z" uid="74617" user="JohnSmith" changeset="5152225">
    <nd ref="12334982"/>
    <nd ref="304512627"/>
    <nd ref="304512636"/>
    <tag k="highway" v="residential"/>
    <tag k="maxspeed" v="50"/>
    <tag k="maxspeed:source" v="default residential speed limit in Australia"/>
    <tag k="name" v="Taylor Street"/>
  </way>
  <way id="2725899" version="7" timestamp="2010-06-06T01:38:43Z" uid="4467" user="Rosscoe" changeset="4913747">
    <nd ref="86208982"/>
    <nd ref="12334790"/>
    <nd ref="661008587"/>
    <nd ref="12334778"/>
    <nd ref="12334772"/>
    <tag k="highway" v="residential"/>
    <tag k="name" v="Ray Street"/>
  </way>
  <way id="2725899" version="8" timestamp="2010-07-06T17:15:23Z" uid="74617" user="JohnSmith" changeset="5152225">
    <nd ref="86208982"/>
    <nd ref="12334790"/>
    <nd ref="661008587"/>
    <nd ref="12334778"/>
    <nd ref="12334772"/>
    <tag k="highway" v="residential"/>
    <tag k="maxspeed" v="50"/>
    <tag k="maxspeed:source" v="default residential speed limit in Australia"/>
    <tag k="name" v="Ray Street"/>
  </way>
  <way id="2725911" version="4" timestamp="2010-06-01T02:59:48Z" uid="4467" user="Rosscoe" changeset="4871181">
    <nd ref="86208996"/>
    <nd ref="304510160"/>
    <nd ref="86208997"/>
    <tag k="created_by" v="Potlatch 0.10e"/>
    <tag k="highway" v="residential"/>
    <tag k="name" v="Kennedy Street"/>
  </way>
  <way id="2725911" version="5" timestamp="2010-07-06T17:14:04Z" uid="74617" user="JohnSmith" changeset="5152225">
    <nd ref="86208996"/>
    <nd ref="304510160"/>
    <nd ref="86208997"/>
    <tag k="highway" v="residential"/>
    <tag k="maxspeed" v="50"/>
    <tag k="maxspeed:source" v="default residential speed limit in Australia"/>
    <tag k="name" v="Kennedy Street"/>
  </way>
  <way id="2725927" version="8" timestamp="2010-04-25T06:14:08Z" uid="4467" user="Rosscoe" changeset="4517917">
    <nd ref="705768123"/>
    <nd ref="86231322"/>
    <nd ref="86231320"/>
    <nd ref="705768141"/>
    <nd ref="12335045"/>
    <nd ref="12335052"/>
    <nd ref="12335059"/>
    <nd ref="86258702"/>
    <nd ref="12335066"/>
    <nd ref="86209008"/>
    <tag k="highway" v="residential"/>
    <tag k="name" v="Burrows Street"/>
    <tag k="source" v="nearmap"/>
  </way>
  <way id="2725927" version="9" timestamp="2010-07-06T17:19:35Z" uid="74617" user="JohnSmith" changeset="5152225">
    <nd ref="705768123"/>
    <nd ref="86231322"/>
    <nd ref="86231320"/>
    <nd ref="705768141"/>
    <nd ref="12335045"/>
    <nd ref="12335052"/>
    <nd ref="12335059"/>
    <nd ref="86258702"/>
    <nd ref="12335066"/>
    <nd ref="86209008"/>
    <tag k="highway" v="residential"/>
    <tag k="maxspeed" v="50"/>
    <tag k="maxspeed:source" v="default residential speed limit in Australia"/>
    <tag k="name" v="Burrows Street"/>
    <tag k="source" v="nearmap"/>
  </way>
</osm>
