<?xml version='1.0' encoding='UTF-8'?>
<osm version="0.6" generator="libosmium/2.20.0">
  <way id="27259137" version="3" timestamp="2010-04-03T13:39:45Z" uid="20587" user="balrog-kun" changeset="4312927">
    <nd ref="84435788"/>
    <nd ref="568078891"/>
    <nd ref="568078892"/>
    <nd ref="299188045"/>
    <tag k="highway" v="residential"/>
    <tag k="name" v="West 2100 South"/>
  </way>
  <way id="27259138" version="2" timestamp="2010-04-03T13:39:45Z" uid="20587" user="balrog-kun" changeset="4312927">
    <nd ref="299188045"/>
    <nd ref="299188051"/>
    <tag k="highway" v="residential"/>
    <tag k="name" v="South 4500 West"/>
  </way>
  <way id="27259139" version="4" timestamp="2010-04-03T13:39:45Z" uid="20587" user="balrog-kun" changeset="4312927">
    <nd ref="442781796"/>
    <nd ref="299188063"/>
    <tag k="highway" v="residential"/>
    <tag k="name" v="Allen Road"/>
    <tag k="name_1" v="South 3750 West"/>
    <tag k="name_2" v="3750 West"/>
  </way>
  <way id="27259141" version="4" timestamp="2010-04-03T13:39:45Z" uid="20587" user="balrog-kun" changeset="4312927">
    <nd ref="299188063"/>
    <nd ref="299188072"/>
    <nd ref="299188068"/>
    <nd ref="299188054"/>
    <tag k="highway" v="residential"/>
    <tag k="maxspeed" v="40"/>
    <tag k="name" v="Allen Road"/>
  </way>
  <way id="27259142" version="5" timestamp="2010-04-03T13:39:46Z" uid="20587" user="balrog-kun" changeset="4312927">
    <nd ref="299188082"/>
    <nd ref="299188087"/>
    <tag k="highway" v="residential"/>
    <tag k="name" v="South 4075 West"/>
    <tag k="name_1" v="4075 West"/>
    <tag k="name_2" v="South 4100 West"/>
  </way>
  <way id="27259143" version="4" timestamp="2010-04-03T13:39:46Z" uid="20587" user="balrog-kun" changeset="4312927">
    <nd ref="442781789"/>
    <nd ref="299188087"/>
    <nd ref="442781790"/>
    <tag k="highway" v="residential"/>
    <tag k="name" v="West 2100 South"/>
    <tag k="name_1" v="2100 South"/>
    <tag k="name_2" v="West 2100 South"/>
  </way>
  <way id="27259144" version="7" timestamp="2010-04-03T13:39:46Z" uid="20587" user="balrog-kun" changeset="4312927">
    <nd ref="84421432"/>
    <nd ref="84421434"/>
    <nd ref="84421436"/>
    <tag k="highway" v="residential"/>
    <tag k="maxspeed" v="40"/>
    <tag k="name" v="South 6150 West"/>
    <tag k="name_1" v="6150 West"/>
    <tag k="tiger:cfcc" v="A41"/>
    <tag k="tiger:county" v="Weber, UT"/>
    <tag k="tiger:name_base" v="6150"/>
    <tag k="tiger:name_direction_prefix" v="S"/>
    <tag k="tiger:name_direction_suffix" v="W"/>
    <tag k="tiger:reviewed" v="yes"/>
    <tag k="tiger:separated" v="no"/>
    <tag k="tiger:source" v="tiger_import_dch_v0.6_20070830"/>
    <tag k="tiger:tlid" v="155703002:155706371"/>
    <tag k="tiger:zip_left" v="84315"/>
    <tag k="tiger:zip_right" v="84315"/>
  </way>
  <way id="27259145" version="5" timestamp="2010-04-03T13:39:46Z" uid="20587" user="balrog-kun" changeset="4312927">
    <nd ref="299188326"/>
    <nd ref="299188341"/>
    <tag k="highway" v="residential"/>
    <tag k="maxspeed" v="40"/>
    <tag k="name" v="South 5725 West"/>
    <tag k="name_1" v="5725 West"/>
  </way>
  <way id="27259147" version="4" timestamp="2010-04-03T13:39:46Z" uid="20587" user="balrog-kun" changeset="4312927">
    <nd ref="299188132"/>
    <nd ref="299188137"/>
    <nd ref="299188141"/>
    <nd ref="301814416"/>
    <nd ref="299188145"/>
    <tag k="highway" v="residential"/>
    <tag k="maxspeed" v="40"/>
    <tag k="name" v="South 6150 West"/>
    <tag k="name_1" v="6150 West"/>
  </way>
  <way id="27259148" version="6" timestamp="2010-04-03T13:39:46Z" uid="20587" user="balrog-kun" changeset="4312927">
    <nd ref="299188171"/>
    <nd ref="603205888"/>
    <nd ref="298601543"/>
    <nd ref="299188167"/>
    <nd ref="84437127"/>
    <nd ref="84437129"/>
    <nd ref="299188162"/>
    <nd ref="298601539"/>
    <nd ref="84426611"/>
    <nd ref="84432677"/>
    <nd ref="84437133"/>
    <nd ref="84437134"/>
    <tag k="highway" v="residential"/>
    <tag k="name" v="South 7500 West"/>
    <tag k="tiger:cfcc" v="A41"/>
    <tag k="tiger:county" v="Weber, UT"/>
    <tag k="tiger:name_base" v="7500"/>
    <tag k="tiger:name_direction_prefix" v="S"/>
    <tag k="tiger:name_direction_suffix" v="W"/>
    <tag k="tiger:reviewed" v="yes"/>
    <tag k="tiger:separated" v="no"/>
    <tag k="tiger:source" v="tiger_import_dch_v0.6_20070830"/>
    <tag k="tiger:tlid" v="155690802:155690804:155690805:155690807:155692607"/>
    <tag k="tiger:zip_left" v="84315"/>
    <tag k="tiger:zip_right" v="84315"/>
  </way>
  <way id="27259156" version="7" timestamp="2010-04-03T13:39:46Z" uid="20587" user="balrog-kun" changeset="4312927">
    <nd ref="84437120"/>
    <nd ref="299188245"/>
    <nd ref="299188249"/>
    <nd ref="312425195"/>
    <nd ref="299188209"/>
    <nd ref="652374158"/>
    <nd ref="84437122"/>
    <nd ref="559336565"/>
    <nd ref="559336567"/>
    <nd ref="299188205"/>
    <nd ref="299188197"/>
    <nd ref="559336568"/>
    <nd ref="84388506"/>
    <nd ref="84388498"/>
    <nd ref="437825639"/>
    <tag k="highway" v="residential"/>
    <tag k="name" v="South 7500  West"/>
    <tag k="tiger:cfcc" v="A41"/>
    <tag k="tiger:county" v="Weber, UT"/>
    <tag k="tiger:name_base" v="7500"/>
    <tag k="tiger:name_direction_prefix" v="S"/>
    <tag k="tiger:name_direction_suffix" v="W"/>
    <tag k="tiger:reviewed" v="yes"/>
    <tag k="tiger:separated" v="no"/>
    <tag k="tiger:source" v="tiger_import_dch_v0.6_20070830"/>
    <tag k="tiger:tlid" v="155690802:155690804:155690805:155690807:155692607"/>
    <tag k="tiger:zip_left" v="84315"/>
    <tag k="tiger:zip_right" v="84315"/>
  </way>
  <way id="27259157" version="4" timestamp="2010-04-03T13:39:47Z" uid="20587" user="balrog-kun" changeset="4312927">
    <nd ref="299188303"/>
    <nd ref="299188298"/>
    <tag k="bridge" v="yes"/>
    <tag k="highway" v="track"/>
    <tag k="name" v="South 7500  West"/>
    <tag k="tiger:cfcc" v="A41"/>
    <tag k="tiger:county" v="Weber, UT"/>
    <tag k="tiger:name_base" v="7500"/>
    <tag k="tiger:name_direction_prefix" v="S"/>
    <tag k="tiger:name_direction_suffix" v="W"/>
    <tag k="tiger:separated" v="no"/>
    <tag k="tiger:source" v="tiger_import_dch_v0.6_20070830"/>
    <tag k="tiger:tlid" v="155690802:155690804:155690805:155690807:155692607"/>
    <tag k="tiger:zip_left" v="84315"/>
    <tag k="tiger:zip_right" v="84315"/>
    <tag k="tracktype" v="grade2"/>
  </way>
  <way id="27259158" version="4" timestamp="2010-04-03T13:39:47Z" uid="20587" user="balrog-kun" changeset="4312927">
    <nd ref="299188290"/>
    <nd ref="299188274"/>
    <tag k="bridge" v="yes"/>
    <tag k="highway" v="track"/>
    <tag k="name" v="South 7500  West"/>
    <tag k="tiger:cfcc" v="A41"/>
    <tag k="tiger:county" v="Weber, UT"/>
    <tag k="tiger:name_base" v="7500"/>
    <tag k="tiger:name_direction_prefix" v="S"/>
    <tag k="tiger:name_direction_suffix" v="W"/>
    <tag k="tiger:separated" v="no"/>
    <tag k="tiger:source" v="tiger_import_dch_v0.6_20070830"/>
    <tag k="tiger:tlid" v="155690802:155690804:155690805:155690807:155692607"/>
    <tag k="tiger:zip_left" v="84315"/>
    <tag k="tiger:zip_right" v="84315"/>
    <tag k="tracktype" v="grade2"/>
  </way>
  <way id="27259159" version="4" timestamp="2010-04-03T13:39:47Z" uid="20587" user="balrog-kun" changeset="4312927">
    <nd ref="299188298"/>
    <nd ref="299188293"/>
    <nd ref="299188290"/>
    <tag k="highway" v="track"/>
    <tag k="name" v="South 7500  West"/>
    <tag k="tiger:cfcc" v="A41"/>
    <tag k="tiger:county" v="Weber, UT"/>
    <tag k="tiger:name_base" v="7500"/>
    <tag k="tiger:name_direction_prefix" v="S"/>
    <tag k="tiger:name_direction_suffix" v="W"/>
    <tag k="tiger:separated" v="no"/>
    <tag k="tiger:source" v="tiger_import_dch_v0.6_20070830"/>
    <tag k="tiger:tlid" v="155690802:155690804:155690805:155690807:155692607"/>
    <tag k="tiger:zip_left" v="84315"/>
    <tag k="tiger:zip_right" v="84315"/>
    <tag k="tracktype" v="grade2"/>
  </way>
  <way id="27259160" version="3" timestamp="2010-04-03T13:39:48Z" uid="20587" user="balrog-kun" changeset="4312927">
    <nd ref="299188274"/>
    <nd ref="84437120"/>
    <tag k="highway" v="residential"/>
    <tag k="name" v="South 7500  West"/>
    <tag k="tiger:cfcc" v="A41"/>
    <tag k="tiger:county" v="Weber, UT"/>
    <tag k="tiger:name_base" v="7500"/>
    <tag k="tiger:name_direction_prefix" v="S"/>
    <tag k="tiger:name_direction_suffix" v="W"/>
    <tag k="tiger:separated" v="no"/>
    <tag k="tiger:source" v="tiger_import_dch_v0.6_20070830"/>
    <tag k="tiger:tlid" v="155690802:155690804:155690805:155690807:155692607"/>
    <tag k="tiger:zip_left" v="84315"/>
    <tag k="tiger:zip_right" v="84315"/>
  </way>
  <way id="27259164" version="4" timestamp="2010-04-03T13:39:48Z" uid="20587" user="balrog-kun" changeset="4312927">
    <nd ref="299188345"/>
    <nd ref="299188349"/>
    <tag k="highway" v="residential"/>
    <tag k="maxspeed" v="40"/>
    <tag k="name" v="South 5750 West"/>
  </way>
  <way id="27259165" version="5" timestamp="2010-04-03T13:39:48Z" uid="20587" user="balrog-kun" changeset="4312927">
    <nd ref="299188333"/>
    <nd ref="306350328"/>
    <nd ref="299188353"/>
    <tag k="highway" v="residential"/>
    <tag k="maxspeed" v="40"/>
    <tag k="name" v="South 5825 West"/>
  </way>
  <way id="27259166" version="3" timestamp="2010-04-03T13:39:48Z" uid="20587" user="balrog-kun" changeset="4312927">
    <nd ref="299188357"/>
    <nd ref="299188360"/>
    <tag k="highway" v="residential"/>
    <tag k="name" v="West 4050 South"/>
    <tag k="name_1" v="4050 South"/>
  </way>
  <way id="27259167" version="3" timestamp="2010-04-03T13:39:48Z" uid="20587" user="balrog-kun" changeset="4312927">
    <nd ref="84420537"/>
    <nd ref="299188366"/>
    <nd ref="299188363"/>
    <tag k="highway" v="residential"/>
    <tag k="name" v="West 4300 South"/>
    <tag k="name_1" v="4300 South"/>
  </way>
  <way id="27259168" version="5" timestamp="2010-04-03T13:39:48Z" uid="20587" user="balrog-kun" changeset="4312927">
    <nd ref="299188366"/>
    <nd ref="560983016"/>
    <nd ref="560983017"/>
    <nd ref="299188368"/>
    <tag k="highway" v="residential"/>
    <tag k="name" v="South 5350 West"/>
    <tag k="name_1" v="5350 West"/>
  </way>
  <way id="27259169" version="6" timestamp="2010-04-03T13:39:49Z" uid="20587" user="balrog-kun" changeset="4312927">
    <nd ref="84420892"/>
    <nd ref="299897478"/>
    <nd ref="84418536"/>
    <nd ref="84405821"/>
    <nd ref="84419629"/>
    <nd ref="84411103"/>
    <nd ref="84412524"/>
    <nd ref="555819385"/>
    <nd ref="84413363"/>
    <tag k="highway" v="secondary"/>
    <tag k="lanes" v="2"/>
    <tag k="name" v="West 5600  South"/>
    <tag k="name_1" v="5600 South Street"/>
    <tag k="name_2" v="State Route 97"/>
    <tag k="ref" v="UT-97"/>
    <tag k="tiger:cfcc" v="A31"/>
    <tag k="tiger:county" v="Weber, UT"/>
    <tag k="tiger:name_base" v="5600"/>
    <tag k="tiger:name_base_1" v="5600 South"/>
    <tag k="tiger:name_base_2" v="State Route 97"/>
    <tag k="tiger:name_direction_prefix" v="W"/>
    <tag k="tiger:name_direction_suffix" v="S"/>
    <tag k="tiger:name_type_1" v="St"/>
    <tag k="tiger:separated" v="no"/>
    <tag k="tiger:source" v="tiger_import_dch_v0.6_20070830"/>
    <tag k="tiger:tlid" v="155716043:155721169:155709918:155692910:155692912:155692917:155692918:155692885:155707714:155707715:155707201:155692921:155692986:155692987:155693034:155693036:155693042:155693037:155702527:155693105:155693053:155699585:155699590:155699586:155692989:15569"/>
    <tag k="tiger:zip_left" v="84067"/>
    <tag k="tiger:zip_right" v="84067"/>
  </way>
  <way id="27259170" version="7" timestamp="2010-04-03T13:39:49Z" uid="20587" user="balrog-kun" changeset="4312927">
    <nd ref="303209842"/>
    <nd ref="306539833"/>
    <nd ref="84420892"/>
    <tag k="bridge" v="yes"/>
    <tag k="highway" v="secondary"/>
    <tag k="name" v="West 5600  South"/>
    <tag k="name_1" v="5600 South Street"/>
    <tag k="name_2" v="State Route 97"/>
    <tag k="ref" v="UT-97"/>
    <tag k="tiger:cfcc" v="A31"/>
    <tag k="tiger:county" v="Weber, UT"/>
    <tag k="tiger:name_base" v="5600"/>
    <tag k="tiger:name_base_1" v="5600 South"/>
    <tag k="tiger:name_base_2" v="State Route 97"/>
    <tag k="tiger:name_direction_prefix" v="W"/>
    <tag k="tiger:name_direction_suffix" v="S"/>
    <tag k="tiger:name_type_1" v="St"/>
    <tag k="tiger:separated" v="no"/>
    <tag k="tiger:source" v="tiger_import_dch_v0.6_20070830"/>
    <tag k="tiger:tlid" v="155716043:155721169:155709918:155692910:155692912:155692917:155692918:155692885:155707714:155707715:155707201:155692921:155692986:155692987:155693034:155693036:155693042:155693037:155702527:155693105:155693053:155699585:155699590:155699586:155692989:15569"/>
    <tag k="tiger:zip_left" v="84067"/>
    <tag k="tiger:zip_right" v="84067"/>
  </way>
  <way id="27259171" version="4" timestamp="2010-04-03T13:39:49Z" uid="20587" user="balrog-kun" changeset="4312927">
    <nd ref="305236042"/>
    <nd ref="84416962"/>
    <nd ref="84413371"/>
    <nd ref="84412536"/>
    <tag k="highway" v="residential"/>
    <tag k="name" v="West 5950 South"/>
    <tag k="name_1" v="5950 South Street"/>
    <tag k="tiger:cfcc" v="A41"/>
    <tag k="tiger:county" v="Weber, UT"/>
    <tag k="tiger:name_base" v="5950 South"/>
    <tag k="tiger:name_base_1" v="5950"/>
    <tag k="tiger:name_direction_prefix_1" v="W"/>
    <tag k="tiger:name_direction_suffix_1" v="S"/>
    <tag k="tiger:name_type" v="St"/>
    <tag k="tiger:reviewed" v="yes"/>
    <tag k="tiger:separated" v="no"/>
    <tag k="tiger:source" v="tiger_import_dch_v0.6_20070830"/>
    <tag k="tiger:tlid" v="155693153:155707182:155693140"/>
    <tag k="tiger:zip_left" v="84067"/>
    <tag k="tiger:zip_right" v="84067"/>
  </way>
  <way id="27259330" version="2" timestamp="2010-04-03T04:00:56Z" uid="20587" user="balrog-kun" changeset="4309442">
    <nd ref="299191757"/>
    <nd ref="175108437"/>
    <nd ref="175221813"/>
    <nd ref="175221814"/>
    <nd ref="175221816"/>
    <nd ref="175221818"/>
    <nd ref="175221823"/>
    <nd ref="175221827"/>
    <nd ref="175221830"/>
    <nd ref="175221833"/>
    <tag k="created_by" v="Merkaartor 0.11"/>
    <tag k="highway" v="residential"/>
    <tag k="name" v="South East Street"/>
    <tag k="tiger:cfcc" v="A41"/>
    <tag k="tiger:county" v="Mohave, AZ"/>
    <tag k="tiger:name_base" v="East"/>
    <tag k="tiger:name_direction_prefix" v="S"/>
    <tag k="tiger:name_type" v="St"/>
    <tag k="tiger:reviewed" v="no"/>
    <tag k="tiger:separated" v="no"/>
    <tag k="tiger:source" v="tiger_import_dch_v0.6_20070809"/>
    <tag k="tiger:tlid" v="190361731"/>
  </way>
  <way id="27259450" version="2" timestamp="2009-02-14T18:38:21Z" uid="34428" user="usm78-gis" changeset="423562">
    <nd ref="299193688"/>
    <nd ref="299193691"/>
    <tag k="bicycle" v="yes"/>
    <tag k="created_by" v="Merkaartor 0.11"/>
    <tag k="highway" v="footway"/>
    <tag k="surface" v="paved"/>
    <tag k="width" v="2.5"/>
  </way>
  <way id="27259452" version="3" timestamp="2009-02-23T12:29:14Z" uid="34428" user="usm78-gis" changeset="634299"/>
  <way id="27259472" version="3" timestamp="2010-05-11T01:15:14Z" uid="4467" user="Rosscoe" changeset="4664980"/>
  <way id="27259473" version="2" timestamp="2010-05-11T01:15:14Z" uid="4467" user="Rosscoe" changeset="4664980"/>
  <way id="27259479" version="14" timestamp="2010-07-08T19:44:03Z" uid="74617" user="JohnSmith" changeset="5168730">
    <nd ref="296858405"/>
    <nd ref="299196042"/>
    <nd ref="296858415"/>
    <nd ref="296858414"/>
    <tag k="highway" v="residential"/>
    <tag k="maxspeed" v="50"/>
    <tag k="maxspeed:source" v="default residential speed limit in Australia"/>
    <tag k="oneway" v="yes"/>
  </way>
  <way id="27259492" version="4" timestamp="2010-07-08T19:35:02Z" uid="74617" user="JohnSmith" changeset="5168730">
    <nd ref="296858649"/>
    <nd ref="296858410"/>
    <nd ref="296858625"/>
    <nd ref="296858905"/>
    <nd ref="296858407"/>
    <tag k="highway" v="residential"/>
    <tag k="maxspeed" v="50"/>
    <tag k="maxspeed:source" v="default residential speed limit in Australia"/>
    <tag k="oneway" v="yes"/>
  </way>
  <way id="27259493" version="9" timestamp="2010-05-11T01:15:12Z" uid="4467" user="Rosscoe" changeset="4664980">
    <nd ref="296859069"/>
    <nd ref="729356966"/>
    <nd ref="296858407"/>
    <tag k="highway" v="residential"/>
    <tag k="name" v="Alfrieda Street"/>
    <tag k="oneway" v="yes"/>
  </way>
  <way id="27259493" version="10" timestamp="2010-07-08T19:40:20Z" uid="74617" user="JohnSmith" changeset="5168730">
    <nd ref="296859069"/>
    <nd ref="729356966"/>
    <nd ref="296858407"/>
    <tag k="highway" v="residential"/>
    <tag k="maxspeed" v="50"/>
    <tag k="maxspeed:source" v="default residential speed limit in Australia"/>
    <tag k="name" v="Alfrieda Street"/>
    <tag k="oneway" v="yes"/>
  </way>
  <way id="27259501" version="8" timestamp="2011-03-19T06:40:45Z" uid="4467" user="Rosscoe" changeset="7601685"/>
  <way id="27259505" version="4" timestamp="2011-03-19T06:39:19Z" uid="4467" user="Rosscoe" changeset="7601685">
    <nd ref="299196542"/>
    <nd ref="299196505"/>
    <nd ref="299196564"/>
    <nd ref="299196565"/>
    <nd ref="299196615"/>
    <tag k="highway" v="tertiary"/>
    <tag k="name" v="Arthur Street"/>
    <tag k="oneway" v="yes"/>
  </way>
  <way id="27259508" version="4" timestamp="2011-03-19T06:40:44Z" uid="4467" user="Rosscoe" changeset="7601685"/>
  <way id="27259512" version="4" timestamp="2011-03-19T06:40:26Z" uid="4467" user="Rosscoe" changeset="7601685">
    <nd ref="299196684"/>
    <nd ref="299196691"/>
    <nd ref="299196544"/>
    <tag k="highway" v="primary_link"/>
    <tag k="oneway" v="yes"/>
    <tag k="source" v="nearmap"/>
  </way>
  <way id="27259523" version="4" timestamp="2011-03-19T06:40:20Z" uid="4467" user="Rosscoe" changeset="7601685">
    <nd ref="299196505"/>
    <nd ref="299196903"/>
    <nd ref="299196905"/>
    <tag k="highway" v="primary_link"/>
    <tag k="oneway" v="yes"/>
    <tag k="source" v="nearmap"/>
  </way>
  <way id="27259536" version="9" timestamp="2011-03-19T06:40:04Z" uid="4467" user="Rosscoe" changeset="7601685">
    <nd ref="299197170"/>
    <nd ref="299197305"/>
    <nd ref="321901971"/>
    <nd ref="299197172"/>
    <nd ref="321898453"/>
    <nd ref="321894289"/>
    <nd ref="299197183"/>
    <tag k="highway" v="tertiary"/>
    <tag k="name" v="Arthur Street"/>
  </way>
  <way id="27259537" version="5" timestamp="2010-05-11T01:15:10Z" uid="4467" user="Rosscoe" changeset="4664980">
    <nd ref="299197183"/>
    <nd ref="299197290"/>
    <nd ref="299197289"/>
    <nd ref="299197197"/>
    <tag k="highway" v="tertiary"/>
    <tag k="name" v="Arthur Street"/>
    <tag k="oneway" v="yes"/>
  </way>
  <way id="27259537" version="6" timestamp="2011-03-19T06:39:40Z" uid="4467" user="Rosscoe" changeset="7601685">
    <nd ref="299197183"/>
    <nd ref="299197290"/>
    <nd ref="1208360540"/>
    <nd ref="299197289"/>
    <tag k="highway" v="tertiary"/>
    <tag k="name" v="Arthur Street"/>
    <tag k="oneway" v="yes"/>
    <tag k="source" v="nearmap"/>
  </way>
  <way id="27259538" version="6" timestamp="2011-03-19T06:40:37Z" uid="4467" user="Rosscoe" changeset="7601685">
    <nd ref="299197263"/>
    <nd ref="1208360407"/>
    <nd ref="299197183"/>
    <tag k="highway" v="tertiary"/>
    <tag k="name" v="Arthur Street"/>
    <tag k="oneway" v="yes"/>
    <tag k="source" v="nearmap"/>
  </way>
  <way id="27259539" version="5" timestamp="2010-03-28T00:08:38Z" uid="20587" user="balrog-kun" changeset="4250871">
    <nd ref="299197262"/>
    <nd ref="299197325"/>
    <nd ref="299197271"/>
    <nd ref="299197326"/>
    <nd ref="299197273"/>
    <tag k="created_by" v="Potlatch 0.10b"/>
    <tag k="highway" v="residential"/>
    <tag k="name" v="West 19th Street"/>
    <tag k="tiger:cfcc" v="A41"/>
    <tag k="tiger:county" v="San Bernardino, CA"/>
    <tag k="tiger:name_base" v="19th"/>
    <tag k="tiger:name_direction_prefix" v="W"/>
    <tag k="tiger:name_type" v="St"/>
    <tag k="tiger:reviewed" v="no"/>
    <tag k="tiger:separated" v="no"/>
    <tag k="tiger:source" v="tiger_import_dch_v0.6_20070809"/>
    <tag k="tiger:tlid" v="144992902:144651745:144651750:144733259:144651772:144732053"/>
    <tag k="tiger:zip_left" v="92411"/>
    <tag k="tiger:zip_right" v="92411"/>
  </way>
  <way id="27259540" version="5" timestamp="2011-03-19T06:40:45Z" uid="4467" user="Rosscoe" changeset="7601685"/>
  <way id="27259544" version="3" timestamp="2011-03-19T06:40:43Z" uid="4467" user="Rosscoe" changeset="7601685">
    <nd ref="1208360366"/>
    <nd ref="1208360456"/>
    <nd ref="1208360400"/>
    <nd ref="299197287"/>
    <tag k="highway" v="tertiary"/>
    <tag k="name" v="East Esplanade"/>
    <tag k="oneway" v="yes"/>
    <tag k="source" v="nearmap"/>
  </way>
  <way id="27259546" version="4" timestamp="2010-05-11T01:15:14Z" uid="4467" user="Rosscoe" changeset="4664980"/>
  <way id="27259547" version="3" timestamp="2010-03-28T00:08:38Z" uid="20587" user="balrog-kun" changeset="4250871">
    <nd ref="299197299"/>
    <nd ref="299197301"/>
    <nd ref="299197303"/>
    <nd ref="299197304"/>
    <nd ref="54865082"/>
    <nd ref="54981738"/>
    <tag k="created_by" v="Potlatch 0.10b"/>
    <tag k="highway" v="residential"/>
    <tag k="name" v="West Washington Avenue"/>
    <tag k="tiger:cfcc" v="A41"/>
    <tag k="tiger:county" v="San Bernardino, CA"/>
    <tag k="tiger:name_base" v="Washington"/>
    <tag k="tiger:name_direction_prefix" v="W"/>
    <tag k="tiger:name_type" v="Ave"/>
    <tag k="tiger:reviewed" v="no"/>
    <tag k="tiger:separated" v="no"/>
    <tag k="tiger:source" v="tiger_import_dch_v0.6_20070809"/>
    <tag k="tiger:tlid" v="144651614:144651621:144992899"/>
    <tag k="tiger:zip_left" v="92411"/>
    <tag k="tiger:zip_right" v="92411"/>
  </way>
  <way id="27259583" version="7" timestamp="2010-05-11T01:15:10Z" uid="4467" user="Rosscoe" changeset="4664980">
    <nd ref="299197204"/>
    <nd ref="299197197"/>
    <nd ref="299197226"/>
    <nd ref="321894833"/>
    <nd ref="321894340"/>
    <nd ref="299199308"/>
    <nd ref="299195198"/>
    <tag k="highway" v="tertiary"/>
    <tag k="name" v="East Esplanade"/>
  </way>
  <way id="27259583" version="8" timestamp="2011-03-19T06:39:20Z" uid="4467" user="Rosscoe" changeset="7601685">
    <nd ref="299197204"/>
    <nd ref="299197197"/>
    <nd ref="299197226"/>
    <tag k="highway" v="tertiary"/>
    <tag k="name" v="East Esplanade"/>
    <tag k="oneway" v="yes"/>
    <tag k="source" v="nearmap"/>
  </way>
  <way id="27259604" version="26" timestamp="2010-05-10T09:14:18Z" uid="4467" user="Rosscoe" changeset="4657307">
    <nd ref="26678293"/>
    <nd ref="299195198"/>
    <nd ref="296859069"/>
    <nd ref="296859081"/>
    <nd ref="321893987"/>
    <nd ref="321894006"/>
    <nd ref="321894052"/>
    <nd ref="343992020"/>
    <nd ref="321894204"/>
    <nd ref="321894929"/>
    <nd ref="321895354"/>
    <nd ref="321895652"/>
    <nd ref="356238499"/>
    <nd ref="321895792"/>
    <nd ref="321895837"/>
    <nd ref="321895951"/>
    <nd ref="356238911"/>
    <nd ref="321896038"/>
    <nd ref="321896114"/>
    <nd ref="343857490"/>
    <nd ref="299199554"/>
    <nd ref="356238845"/>
    <nd ref="343858940"/>
    <nd ref="356238993"/>
    <nd ref="299199555"/>
    <nd ref="343862848"/>
    <nd ref="356239118"/>
    <nd ref="356239274"/>
    <nd ref="343862853"/>
    <nd ref="356245998"/>
    <nd ref="299199557"/>
    <tag k="highway" v="primary"/>
    <tag k="name" v="Main Road East"/>
  </way>
  <way id="27259604" version="28" timestamp="2011-03-19T06:40:18Z" uid="4467" user="Rosscoe" changeset="7601685">
    <nd ref="26678293"/>
    <nd ref="299195198"/>
    <nd ref="296859069"/>
    <nd ref="296859081"/>
    <nd ref="321893987"/>
    <nd ref="321894006"/>
    <nd ref="321894052"/>
    <nd ref="343992020"/>
    <nd ref="321894204"/>
    <nd ref="321894929"/>
    <nd ref="321895354"/>
    <nd ref="321895652"/>
    <nd ref="356238499"/>
    <nd ref="321895792"/>
    <nd ref="321895837"/>
    <nd ref="321895951"/>
    <nd ref="356238911"/>
    <nd ref="321896038"/>
    <nd ref="321896114"/>
    <nd ref="343857490"/>
    <nd ref="356238845"/>
    <nd ref="343858940"/>
    <nd ref="356238993"/>
    <nd ref="299199555"/>
    <nd ref="343862848"/>
    <nd ref="356239118"/>
    <nd ref="356239274"/>
    <nd ref="343862853"/>
    <nd ref="356245998"/>
    <nd ref="299199557"/>
    <tag k="highway" v="secondary"/>
    <tag k="name" v="Main Road East"/>
  </way>
  <way id="27259610" version="4" timestamp="2010-03-28T00:08:38Z" uid="20587" user="balrog-kun" changeset="4250871">
    <nd ref="175179267"/>
    <nd ref="175228790"/>
    <tag k="created_by" v="Potlatch 0.10b"/>
    <tag k="highway" v="primary"/>
    <tag k="name" v="Bullhead Parkway"/>
    <tag k="tiger:cfcc" v="A41"/>
    <tag k="tiger:county" v="Mohave, AZ"/>
    <tag k="tiger:name_base" v="Bullhead"/>
    <tag k="tiger:name_type" v="Pky"/>
    <tag k="tiger:reviewed" v="no"/>
    <tag k="tiger:separated" v="no"/>
    <tag k="tiger:source" v="tiger_import_dch_v0.6_20070809"/>
    <tag k="tiger:tlid" v="190372007:190372003:190351376:190351861:190351862:190343216:190343421:190343725:190343743:190343744:190343266:190343268:190343269:190343284:190371400:190342342:190371321:190343194:190371300:190371546:190351542:190360878:190342306:190360877:190351550:19034"/>
  </way>
  <way id="27259635" version="3" timestamp="2009-01-03T09:47:30Z" uid="58091" user="Andreas M" changeset="718986">
    <nd ref="61838556"/>
    <nd ref="295417062"/>
    <nd ref="103656034"/>
    <nd ref="103655898"/>
    <nd ref="103655613"/>
    <nd ref="123737880"/>
    <tag k="created_by" v="Potlatch 0.10b"/>
    <tag k="highway" v="residential"/>
    <tag k="maxspeed" v="30"/>
    <tag k="name" v="Quellenstraße"/>
  </way>
  <way id="27259640" version="4" timestamp="2010-04-05T11:14:33Z" uid="74617" user="JohnSmith" changeset="4331807">
    <nd ref="30918488"/>
    <nd ref="30918489"/>
    <tag k="highway" v="primary"/>
  </way>
  <way id="27259643" version="6" timestamp="2010-05-11T03:42:26Z" uid="4467" user="Rosscoe" changeset="4665335">
    <nd ref="30918489"/>
    <nd ref="299199503"/>
    <nd ref="299199496"/>
    <nd ref="356254241"/>
    <nd ref="356254234"/>
    <nd ref="299199513"/>
    <nd ref="356261239"/>
    <nd ref="729432062"/>
    <tag k="highway" v="tertiary"/>
    <tag k="name" v="Main Road West"/>
  </way>
  <way id="27259644" version="4" timestamp="2010-05-11T03:42:26Z" uid="4467" user="Rosscoe" changeset="4665335">
    <nd ref="729432056"/>
    <nd ref="356264797"/>
    <nd ref="356263584"/>
    <nd ref="299199509"/>
    <nd ref="299199510"/>
    <nd ref="299199511"/>
    <nd ref="299199512"/>
    <tag k="highway" v="tertiary"/>
    <tag k="name" v="Main Road West"/>
  </way>
  <way id="27259645" version="2" timestamp="2010-05-29T20:01:48Z" uid="6269" user="Mueck" changeset="4845394">
    <nd ref="299199518"/>
    <nd ref="299199519"/>
    <nd ref="757360171"/>
    <tag k="highway" v="track"/>
    <tag k="tracktype" v="grade4"/>
  </way>
  <way id="27259645" version="3" timestamp="2010-05-29T20:02:22Z" uid="6269" user="Mueck" changeset="4845394">
    <nd ref="299199518"/>
    <nd ref="299199519"/>
    <nd ref="757360691"/>
    <nd ref="757360171"/>
    <tag k="highway" v="track"/>
    <tag k="tracktype" v="grade4"/>
  </way>
  <way id="27259645" version="4" timestamp="2010-05-29T20:04:18Z" uid="6269" user="Mueck" changeset="4845394">
    <nd ref="299199518"/>
    <nd ref="757360691"/>
    <nd ref="757360171"/>
    <tag k="highway" v="track"/>
    <tag k="smoothness" v="bad"/>
    <tag k="surface" v="grass"/>
    <tag k="tracktype" v="grade5"/>
  </way>
  <way id="27259652" version="3" timestamp="2010-05-10T09:14:11Z" uid="4467" user="Rosscoe" changeset="4657307">
    <nd ref="299199611"/>
    <nd ref="299199613"/>
    <nd ref="299199620"/>
    <tag k="highway" v="primary_link"/>
    <tag k="oneway" v="yes"/>
  </way>
  <way id="27259652" version="5" timestamp="2011-03-19T06:39:37Z" uid="4467" user="Rosscoe" changeset="7601685">
    <nd ref="299199611"/>
    <nd ref="299199613"/>
    <nd ref="299199620"/>
    <tag k="highway" v="primary_link"/>
    <tag k="oneway" v="yes"/>
    <tag k="source" v="nearmap"/>
  </way>
  <way id="27259655" version="3" timestamp="2010-05-10T09:14:31Z" uid="4467" user="Rosscoe" changeset="4657307">
    <nd ref="299199642"/>
    <nd ref="299199645"/>
    <nd ref="299199574"/>
    <tag k="highway" v="primary_link"/>
    <tag k="oneway" v="yes"/>
  </way>
  <way id="27259655" version="5" timestamp="2011-03-19T06:39:44Z" uid="4467" user="Rosscoe" changeset="7601685">
    <nd ref="299199642"/>
    <nd ref="299199645"/>
    <nd ref="299199574"/>
    <tag k="highway" v="primary_link"/>
    <tag k="oneway" v="yes"/>
    <tag k="source" v="nearmap"/>
  </way>
  <way id="27259656" version="2" timestamp="2010-05-10T09:13:58Z" uid="4467" user="Rosscoe" changeset="4657307">
    <nd ref="299199653"/>
    <nd ref="299199655"/>
    <nd ref="299199656"/>
    <tag k="highway" v="primary_link"/>
    <tag k="oneway" v="yes"/>
  </way>
  <way id="27259656" version="4" timestamp="2011-03-19T06:40:33Z" uid="4467" user="Rosscoe" changeset="7601685">
    <nd ref="299199700"/>
    <nd ref="299199655"/>
    <nd ref="299199656"/>
    <tag k="highway" v="primary_link"/>
    <tag k="oneway" v="yes"/>
    <tag k="source" v="nearmap"/>
  </way>
  <way id="27259658" version="2" timestamp="2010-03-28T00:08:38Z" uid="20587" user="balrog-kun" changeset="4250871">
    <nd ref="54692131"/>
    <nd ref="54601297"/>
    <nd ref="54692132"/>
    <tag k="created_by" v="Potlatch 0.10b"/>
    <tag k="highway" v="residential"/>
    <tag k="name" v="West 13th Street"/>
    <tag k="tiger:cfcc" v="A41"/>
    <tag k="tiger:county" v="San Bernardino, CA"/>
    <tag k="tiger:name_base" v="13th"/>
    <tag k="tiger:name_direction_prefix" v="W"/>
    <tag k="tiger:name_type" v="St"/>
    <tag k="tiger:reviewed" v="no"/>
    <tag k="tiger:separated" v="no"/>
    <tag k="tiger:source" v="tiger_import_dch_v0.6_20070809"/>
    <tag k="tiger:tlid" v="144687751:144985814:144985815:144652956"/>
    <tag k="tiger:zip_left" v="92411"/>
    <tag k="tiger:zip_right" v="92411"/>
  </way>
  <way id="27259662" version="2" timestamp="2011-03-19T06:39:19Z" uid="4467" user="Rosscoe" changeset="7601685">
    <nd ref="299199653"/>
    <nd ref="268386577"/>
    <nd ref="268386578"/>
    <tag k="highway" v="unclassified"/>
    <tag k="name" v="Main Road East"/>
  </way>
  <way id="27259664" version="3" timestamp="2011-03-19T06:39:48Z" uid="4467" user="Rosscoe" changeset="7601685">
    <nd ref="299199653"/>
    <nd ref="299199700"/>
    <nd ref="299199702"/>
    <tag k="highway" v="unclassified"/>
    <tag k="name" v="Main Road East"/>
    <tag k="oneway" v="yes"/>
  </way>
  <way id="27259665" version="5" timestamp="2011-03-19T06:39:17Z" uid="4467" user="Rosscoe" changeset="7601685">
    <nd ref="299199702"/>
    <nd ref="299199699"/>
    <nd ref="299199574"/>
    <nd ref="299199572"/>
    <nd ref="299199557"/>
    <tag k="highway" v="secondary"/>
    <tag k="name" v="Main Road East"/>
    <tag k="oneway" v="yes"/>
  </way>
  <way id="27259670" version="4" timestamp="2009-12-12T08:55:24Z" uid="4467" user="Rosscoe" changeset="3354233">
    <nd ref="299199733"/>
    <nd ref="217413578"/>
    <nd ref="217413603"/>
    <nd ref="217414743"/>
    <nd ref="217414742"/>
    <nd ref="217414741"/>
    <nd ref="217414739"/>
    <nd ref="217414737"/>
    <nd ref="217414735"/>
    <nd ref="217414734"/>
    <nd ref="217414733"/>
    <nd ref="217402595"/>
    <nd ref="217402593"/>
    <nd ref="217402590"/>
    <nd ref="217402588"/>
    <tag k="bicycle" v="yes"/>
    <tag k="cycleway" v="track"/>
    <tag k="foot" v="yes"/>
    <tag k="highway" v="cycleway"/>
    <tag k="name" v="Western Ring Road Trail"/>
    <tag k="source" v="yahoo"/>
  </way>
  <way id="27259681" version="3" timestamp="2010-04-03T13:39:50Z" uid="20587" user="balrog-kun" changeset="4312927">
    <nd ref="299199801"/>
    <nd ref="299199803"/>
    <tag k="highway" v="residential"/>
    <tag k="name" v="Cozydale Drive"/>
  </way>
  <way id="27259682" version="4" timestamp="2010-04-03T13:39:50Z" uid="20587" user="balrog-kun" changeset="4312927">
    <nd ref="299199803"/>
    <nd ref="299199802"/>
    <tag k="highway" v="track"/>
    <tag k="name" v="Cozydale Drive"/>
    <tag k="tracktype" v="grade1"/>
  </way>
  <way id="27259683" version="8" timestamp="2010-04-03T13:39:50Z" uid="20587" user="balrog-kun" changeset="4312927">
    <nd ref="299199830"/>
    <nd ref="301838963"/>
    <nd ref="299199868"/>
    <nd ref="301838970"/>
    <nd ref="301929290"/>
    <nd ref="299199827"/>
    <nd ref="299199826"/>
    <nd ref="299199825"/>
    <nd ref="84399624"/>
    <nd ref="299199821"/>
    <nd ref="299199820"/>
    <nd ref="304906199"/>
    <nd ref="84390206"/>
    <tag k="highway" v="residential"/>
    <tag k="lanes" v="4"/>
    <tag k="name" v="Wardleigh Road"/>
    <tag k="tiger:cfcc" v="A41"/>
    <tag k="tiger:county" v="Weber, UT"/>
    <tag k="tiger:name_base" v="Wardleigh"/>
    <tag k="tiger:name_direction_prefix" v="S"/>
    <tag k="tiger:name_type" v="Rd"/>
    <tag k="tiger:reviewed" v="yes"/>
    <tag k="tiger:separated" v="no"/>
    <tag k="tiger:source" v="tiger_import_dch_v0.6_20070830"/>
    <tag k="tiger:tlid" v="155699592:155699596"/>
  </way>
  <way id="27259685" version="5" timestamp="2010-04-03T13:39:50Z" uid="20587" user="balrog-kun" changeset="4312927">
    <nd ref="83044734"/>
    <nd ref="526678074"/>
    <nd ref="83044736"/>
    <tag k="highway" v="residential"/>
    <tag k="lanes" v="4"/>
    <tag k="maxspeed" v="48"/>
    <tag k="name" v="Wardleigh Road"/>
    <tag k="name_1" v="Wardleigh Road"/>
    <tag k="tiger:cfcc" v="A41"/>
    <tag k="tiger:county" v="Davis, UT"/>
    <tag k="tiger:name_base" v="Hickory:Wardleigh"/>
    <tag k="tiger:name_type" v="Rd:St"/>
    <tag k="tiger:separated" v="no"/>
    <tag k="tiger:source" v="tiger_import_dch_v0.6_20070830"/>
    <tag k="tiger:tlid" v="155315441:155319556:155322315:155322830:155324781:155324826:155324908:155324929:155324930:155324953:155342585:155354057:155354058:155355782:155357471:155357499:155357500:155359729:155359730:155359731:15536:155367641:229350122:229350693:229354321:229354328"/>
  </way>
  <way id="27259686" version="3" timestamp="2010-04-03T13:39:50Z" uid="20587" user="balrog-kun" changeset="4312927">
    <nd ref="299199833"/>
    <nd ref="299199859"/>
    <nd ref="299199860"/>
    <nd ref="299199862"/>
    <nd ref="299199861"/>
    <nd ref="82974135"/>
    <nd ref="83044732"/>
    <nd ref="83044734"/>
    <tag k="highway" v="residential"/>
    <tag k="lanes" v="2"/>
    <tag k="maxspeed" v="48"/>
    <tag k="name" v="Wardleigh Road"/>
    <tag k="name_1" v="Wardleigh Road"/>
    <tag k="oneway" v="yes"/>
    <tag k="tiger:cfcc" v="A41"/>
    <tag k="tiger:county" v="Davis, UT"/>
    <tag k="tiger:name_base" v="Wardleigh"/>
    <tag k="tiger:name_type" v="Rd"/>
    <tag k="tiger:reviewed" v="yes"/>
    <tag k="tiger:separated" v="no"/>
    <tag k="tiger:source" v="tiger_import_dch_v0.6_20070830"/>
    <tag k="tiger:tlid" v="155324781:155324826:155367641:229363185:155357471:229360001:155324953:155357499:155324929:155355782:155324930:155357500:229354906:155324908:155354057:155354058:229362350:229354321:155359729:155359730:155359731:229354328:155342585:155322830:155315441:15536"/>
  </way>
  <way id="27259687" version="4" timestamp="2010-04-03T13:39:51Z" uid="20587" user="balrog-kun" changeset="4312927">
    <nd ref="83044734"/>
    <nd ref="299199834"/>
    <nd ref="299199835"/>
    <nd ref="299199836"/>
    <nd ref="299199863"/>
    <nd ref="299199841"/>
    <nd ref="300386100"/>
    <nd ref="299199842"/>
    <nd ref="299199833"/>
    <tag k="highway" v="residential"/>
    <tag k="lanes" v="2"/>
    <tag k="maxspeed" v="48"/>
    <tag k="name" v="Wardleigh Road"/>
    <tag k="name_1" v="Wardleigh Road"/>
    <tag k="oneway" v="yes"/>
  </way>
  <way id="27259692" version="4" timestamp="2010-04-03T13:39:51Z" uid="20587" user="balrog-kun" changeset="4312927">
    <nd ref="299199830"/>
    <nd ref="299199867"/>
    <nd ref="301929093"/>
    <nd ref="299199866"/>
    <nd ref="299199865"/>
    <nd ref="82997096"/>
    <tag k="highway" v="residential"/>
    <tag k="lanes" v="2"/>
    <tag k="name" v="Wardleigh Road"/>
    <tag k="oneway" v="yes"/>
  </way>
  <way id="27259707" version="5" timestamp="2010-03-28T00:08:39Z" uid="20587" user="balrog-kun" changeset="4250871">
    <nd ref="299200096"/>
    <nd ref="299200106"/>
    <nd ref="299200098"/>
    <nd ref="54696567"/>
    <nd ref="54819207"/>
    <nd ref="54819204"/>
    <nd ref="54865083"/>
    <nd ref="54779841"/>
    <nd ref="54788764"/>
    <nd ref="54568501"/>
    <nd ref="54617915"/>
    <nd ref="54686424"/>
    <nd ref="54639260"/>
    <nd ref="54547991"/>
    <nd ref="54569840"/>
    <nd ref="54723360"/>
    <tag k="highway" v="residential"/>
    <tag k="name" v="North Macy Street"/>
    <tag k="tiger:cfcc" v="A41"/>
    <tag k="tiger:county" v="San Bernardino, CA"/>
    <tag k="tiger:name_base" v="Macy"/>
    <tag k="tiger:name_direction_prefix" v="N"/>
    <tag k="tiger:name_type" v="St"/>
    <tag k="tiger:reviewed" v="no"/>
    <tag k="tiger:separated" v="no"/>
    <tag k="tiger:source" v="tiger_import_dch_v0.6_20070809"/>
    <tag k="tiger:tlid" v="144651105:144651112:144651113:144651114:144994467:144651561:144651580:144651584:144651587:144552379:144651589:144651116"/>
    <tag k="tiger:zip_left" v="92407"/>
    <tag k="tiger:zip_right" v="92407"/>
  </way>
  <way id="27259728" version="1" timestamp="2008-09-23T05:50:58Z" uid="43863" user="Rundling" changeset="683480">
    <nd ref="299200286"/>
    <nd ref="299200285"/>
    <nd ref="299200287"/>
    <nd ref="299200287"/>
    <tag k="created_by" v="Merkaartor 0.11"/>
    <tag k="railway" v="rail"/>
  </way>
  <way id="27259777" version="1" timestamp="2008-09-23T05:59:10Z" uid="43863" user="Rundling" changeset="683480">
    <nd ref="299202100"/>
    <nd ref="299202101"/>
    <tag k="created_by" v="Merkaartor 0.11"/>
    <tag k="highway" v="residential"/>
    <tag k="oneway" v="no"/>
  </way>
  <way id="27259778" version="1" timestamp="2008-09-23T05:59:10Z" uid="43863" user="Rundling" changeset="683480">
    <nd ref="299202104"/>
    <nd ref="299202105"/>
    <tag k="created_by" v="Merkaartor 0.11"/>
    <tag k="highway" v="residential"/>
    <tag k="oneway" v="no"/>
  </way>
  <way id="27259779" version="1" timestamp="2008-09-23T05:59:11Z" uid="43863" user="Rundling" changeset="683480">
    <nd ref="299202106"/>
    <nd ref="299202108"/>
    <nd ref="299202108"/>
    <tag k="created_by" v="Merkaartor 0.11"/>
    <tag k="highway" v="residential"/>
    <tag k="name" v="Vor der Bahn"/>
    <tag k="oneway" v="no"/>
  </way>
  <way id="27259780" version="1" timestamp="2008-09-23T05:59:11Z" uid="43863" user="Rundling" changeset="683480">
    <nd ref="299202109"/>
    <nd ref="299202110"/>
    <nd ref="299202112"/>
    <nd ref="299202113"/>
    <nd ref="299202109"/>
    <tag k="building" v="yes"/>
    <tag k="created_by" v="Merkaartor 0.11"/>
    <tag k="name" v="DB Stellwerk"/>
  </way>
  <way id="27259781" version="1" timestamp="2008-09-23T05:59:12Z" uid="43863" user="Rundling" changeset="683480">
    <nd ref="299202115"/>
    <nd ref="299202116"/>
    <nd ref="299202117"/>
    <nd ref="299202119"/>
    <nd ref="299202115"/>
    <tag k="building" v="yes"/>
    <tag k="created_by" v="Merkaartor 0.11"/>
  </way>
  <way id="27259782" version="1" timestamp="2008-09-23T05:59:13Z" uid="43863" user="Rundling" changeset="683480">
    <nd ref="299202120"/>
    <nd ref="299202121"/>
    <nd ref="299202122"/>
    <nd ref="299202123"/>
    <nd ref="299202120"/>
    <tag k="building" v="yes"/>
    <tag k="created_by" v="Merkaartor 0.11"/>
  </way>
  <way id="27259880" version="10" timestamp="2010-04-03T13:39:51Z" uid="20587" user="balrog-kun" changeset="4312927">
    <nd ref="84420900"/>
    <nd ref="305236555"/>
    <nd ref="533898507"/>
    <nd ref="533898511"/>
    <nd ref="525258317"/>
    <nd ref="84420901"/>
    <nd ref="554100539"/>
    <nd ref="554100470"/>
    <nd ref="554100578"/>
    <nd ref="84420902"/>
    <nd ref="84429626"/>
    <nd ref="301839018"/>
    <nd ref="84390200"/>
    <nd ref="84390206"/>
    <tag k="highway" v="secondary"/>
    <tag k="lanes" v="4"/>
    <tag k="name" v="West 5600  South"/>
    <tag k="name_1" v="5600 South Street"/>
    <tag k="name_2" v="State Route 97"/>
    <tag k="ref" v="UT-97"/>
    <tag k="tiger:cfcc" v="A31"/>
    <tag k="tiger:county" v="Weber, UT"/>
    <tag k="tiger:name_base" v="5600"/>
    <tag k="tiger:name_base_1" v="5600 South"/>
    <tag k="tiger:name_base_2" v="State Route 97"/>
    <tag k="tiger:name_direction_prefix" v="W"/>
    <tag k="tiger:name_direction_suffix" v="S"/>
    <tag k="tiger:name_type_1" v="St"/>
    <tag k="tiger:separated" v="no"/>
    <tag k="tiger:source" v="tiger_import_dch_v0.6_20070830"/>
    <tag k="tiger:tlid" v="155716043:155721169:155709918:155692910:155692912:155692917:155692918:155692885:155707714:155707715:155707201:155692921:155692986:155692987:155693034:155693036:155693042:155693037:155702527:155693105:155693053:155699585:155699590:155699586:155692989:15569"/>
    <tag k="tiger:zip_left" v="84067"/>
    <tag k="tiger:zip_right" v="84067"/>
  </way>
  <way id="27259881" version="5" timestamp="2010-04-03T13:39:51Z" uid="20587" user="balrog-kun" changeset="4312927">
    <nd ref="84413363"/>
    <nd ref="533898842"/>
    <nd ref="304906264"/>
    <nd ref="84420900"/>
    <tag k="highway" v="secondary"/>
    <tag k="lanes" v="3"/>
    <tag k="name" v="West 5600  South"/>
    <tag k="name_1" v="5600 South Street"/>
    <tag k="name_2" v="State Route 97"/>
    <tag k="ref" v="UT-97"/>
    <tag k="tiger:cfcc" v="A31"/>
    <tag k="tiger:county" v="Weber, UT"/>
    <tag k="tiger:name_base" v="5600"/>
    <tag k="tiger:name_base_1" v="5600 South"/>
    <tag k="tiger:name_base_2" v="State Route 97"/>
    <tag k="tiger:name_direction_prefix" v="W"/>
    <tag k="tiger:name_direction_suffix" v="S"/>
    <tag k="tiger:name_type_1" v="St"/>
    <tag k="tiger:separated" v="no"/>
    <tag k="tiger:source" v="tiger_import_dch_v0.6_20070830"/>
    <tag k="tiger:tlid" v="155716043:155721169:155709918:155692910:155692912:155692917:155692918:155692885:155707714:155707715:155707201:155692921:155692986:155692987:155693034:155693036:155693042:155693037:155702527:155693105:155693053:155699585:155699590:155699586:155692989:15569"/>
    <tag k="tiger:zip_left" v="84067"/>
    <tag k="tiger:zip_right" v="84067"/>
  </way>
  <way id="27259915" version="5" timestamp="2011-02-27T07:41:07Z" uid="9581" user="Lobelt" changeset="7407455">
    <nd ref="299206730"/>
    <nd ref="250120455"/>
    <nd ref="1176693754"/>
    <nd ref="29908997"/>
    <nd ref="29908996"/>
    <nd ref="29908995"/>
    <tag k="highway" v="trunk"/>
    <tag k="history" v="Retrieved from v2"/>
    <tag k="oneway" v="yes"/>
    <tag k="ref" v="B 27"/>
  </way>
  <way id="27259917" version="1" timestamp="2008-09-23T06:21:44Z" uid="43863" user="Rundling" changeset="683480">
    <nd ref="299206763"/>
    <nd ref="299206764"/>
    <nd ref="299206765"/>
    <nd ref="299206766"/>
    <nd ref="299206763"/>
    <tag k="addr:city" v="Rosche"/>
    <tag k="addr:housenumber" v="1"/>
    <tag k="addr:postcode" v="29571"/>
    <tag k="addr:street" v="Fekdstraße"/>
    <tag k="building" v="yes"/>
    <tag k="created_by" v="Merkaartor 0.11"/>
  </way>
  <way id="27259917" version="2" timestamp="2008-09-26T12:44:09Z" uid="43863" user="Rundling" changeset="699130"/>
  <way id="27259918" version="1" timestamp="2008-09-23T06:21:45Z" uid="43863" user="Rundling" changeset="683480">
    <nd ref="299206768"/>
    <nd ref="299206770"/>
    <nd ref="299206771"/>
    <nd ref="299206772"/>
    <nd ref="299206768"/>
    <tag k="addr:city" v="Rosche"/>
    <tag k="addr:housenumber" v="3"/>
    <tag k="addr:postcode" v="29571"/>
    <tag k="addr:street" v="Fekdstraße"/>
    <tag k="building" v="yes"/>
    <tag k="created_by" v="Merkaartor 0.11"/>
  </way>
  <way id="27259918" version="2" timestamp="2008-09-26T12:44:09Z" uid="43863" user="Rundling" changeset="699130"/>
  <way id="27259919" version="1" timestamp="2008-09-23T06:21:45Z" uid="43863" user="Rundling" changeset="683480">
    <nd ref="299206774"/>
    <nd ref="299206776"/>
    <nd ref="299206777"/>
    <nd ref="299206778"/>
    <nd ref="299206774"/>
    <tag k="addr:city" v="Rosche"/>
    <tag k="addr:housenumber" v="5"/>
    <tag k="addr:postcode" v="29571"/>
    <tag k="addr:street" v="Fekdstraße"/>
    <tag k="building" v="yes"/>
    <tag k="created_by" v="Merkaartor 0.11"/>
  </way>
  <way id="27259919" version="2" timestamp="2008-09-26T12:44:09Z" uid="43863" user="Rundling" changeset="699130"/>
  <way id="27259920" version="1" timestamp="2008-09-23T06:21:46Z" uid="43863" user="Rundling" changeset="683480">
    <nd ref="299206780"/>
    <nd ref="299206783"/>
    <nd ref="299206784"/>
    <nd ref="299206785"/>
    <nd ref="299206780"/>
    <tag k="addr:city" v="Rosche"/>
    <tag k="addr:housenumber" v="7"/>
    <tag k="addr:postcode" v="29571"/>
    <tag k="addr:street" v="Fekdstraße"/>
    <tag k="building" v="yes"/>
    <tag k="created_by" v="Merkaartor 0.11"/>
  </way>
  <way id="27259920" version="2" timestamp="2008-09-26T12:44:09Z" uid="43863" user="Rundling" changeset="699130"/>
  <way id="27259921" version="1" timestamp="2008-09-23T06:21:47Z" uid="43863" user="Rundling" changeset="683480">
    <nd ref="299206787"/>
    <nd ref="299206788"/>
    <nd ref="299206789"/>
    <nd ref="299206790"/>
    <nd ref="299206787"/>
    <tag k="addr:city" v="Rosche"/>
    <tag k="addr:housenumber" v="9"/>
    <tag k="addr:postcode" v="29571"/>
    <tag k="addr:street" v="Fekdstraße"/>
    <tag k="building" v="yes"/>
    <tag k="created_by" v="Merkaartor 0.11"/>
  </way>
  <way id="27259921" version="2" timestamp="2008-09-24T06:48:02Z" uid="43863" user="Rundling" changeset="687973">
    <nd ref="299206787"/>
    <nd ref="299206788"/>
    <nd ref="299206789"/>
    <nd ref="299206790"/>
    <nd ref="299206787"/>
    <tag k="addr:city" v="Rosche"/>
    <tag k="addr:housenumber" v="9"/>
    <tag k="addr:postcode" v="29571"/>
    <tag k="addr:street" v="Feldstraße"/>
    <tag k="building" v="yes"/>
    <tag k="created_by" v="Merkaartor 0.11"/>
  </way>
  <way id="27259921" version="3" timestamp="2008-09-26T12:44:08Z" uid="43863" user="Rundling" changeset="699130"/>
  <way id="27259922" version="1" timestamp="2008-09-23T06:21:47Z" uid="43863" user="Rundling" changeset="683480">
    <nd ref="299206792"/>
    <nd ref="299206793"/>
    <nd ref="299206795"/>
    <nd ref="299206796"/>
    <nd ref="299206792"/>
    <tag k="addr:city" v="Rosche"/>
    <tag k="addr:housenumber" v="8"/>
    <tag k="addr:postcode" v="29571"/>
    <tag k="addr:street" v="Fekdstraße"/>
    <tag k="building" v="yes"/>
    <tag k="created_by" v="Merkaartor 0.11"/>
  </way>
  <way id="27259922" version="2" timestamp="2008-09-24T06:48:02Z" uid="43863" user="Rundling" changeset="687973">
    <nd ref="299206792"/>
    <nd ref="299206793"/>
    <nd ref="299206795"/>
    <nd ref="299206796"/>
    <nd ref="299206792"/>
    <tag k="addr:city" v="Rosche"/>
    <tag k="addr:housenumber" v="8"/>
    <tag k="addr:postcode" v="29571"/>
    <tag k="addr:street" v="Feldstraße"/>
    <tag k="building" v="yes"/>
    <tag k="created_by" v="Merkaartor 0.11"/>
  </way>
  <way id="27259922" version="3" timestamp="2008-09-26T12:44:09Z" uid="43863" user="Rundling" changeset="699130"/>
  <way id="27259923" version="1" timestamp="2008-09-23T06:21:48Z" uid="43863" user="Rundling" changeset="683480">
    <nd ref="299206797"/>
    <nd ref="299206799"/>
    <nd ref="299206800"/>
    <nd ref="299206803"/>
    <nd ref="299206797"/>
    <tag k="addr:city" v="Rosche"/>
    <tag k="addr:housenumber" v="6"/>
    <tag k="addr:postcode" v="29571"/>
    <tag k="addr:street" v="Fekdstraße"/>
    <tag k="building" v="yes"/>
    <tag k="created_by" v="Merkaartor 0.11"/>
  </way>
  <way id="27259923" version="2" timestamp="2008-09-26T12:44:09Z" uid="43863" user="Rundling" changeset="699130"/>
  <way id="27259924" version="1" timestamp="2008-09-23T06:21:49Z" uid="43863" user="Rundling" changeset="683480">
    <nd ref="299206805"/>
    <tag k="created_by" v="Merkaartor 0.11"/>
  </way>
  <way id="27259925" version="1" timestamp="2008-09-23T06:21:49Z" uid="43863" user="Rundling" changeset="683480">
    <nd ref="299206806"/>
    <nd ref="299206808"/>
    <nd ref="299206809"/>
    <nd ref="299206810"/>
    <nd ref="299206806"/>
    <tag k="addr:city" v="Rosche"/>
    <tag k="addr:housenumber" v="2"/>
    <tag k="addr:postcode" v="29571"/>
    <tag k="addr:street" v="Fekdstraße"/>
    <tag k="building" v="yes"/>
    <tag k="created_by" v="Merkaartor 0.11"/>
  </way>
  <way id="27259925" version="2" timestamp="2008-09-26T12:44:08Z" uid="43863" user="Rundling" changeset="699130"/>
  <way id="27259927" version="1" timestamp="2008-09-23T06:21:50Z" uid="43863" user="Rundling" changeset="683480">
    <nd ref="299206813"/>
    <nd ref="299206815"/>
    <nd ref="299206816"/>
    <nd ref="299206817"/>
    <nd ref="299206813"/>
    <tag k="addr:city" v="Rosche"/>
    <tag k="addr:housenumber" v="4"/>
    <tag k="addr:postcode" v="29571"/>
    <tag k="addr:street" v="Fekdstraße"/>
    <tag k="building" v="yes"/>
    <tag k="created_by" v="Merkaartor 0.11"/>
  </way>
  <way id="27259927" version="2" timestamp="2008-09-26T12:44:08Z" uid="43863" user="Rundling" changeset="699130"/>
  <way id="27259986" version="4" timestamp="2010-01-29T08:55:14Z" uid="23543" user="jkjk" changeset="3741539">
    <nd ref="32002849"/>
    <nd ref="249543688"/>
    <nd ref="449544278"/>
    <nd ref="249543689"/>
    <nd ref="449544279"/>
    <nd ref="449544276"/>
    <nd ref="449544277"/>
    <nd ref="299207297"/>
    <nd ref="449544275"/>
    <nd ref="299207296"/>
    <nd ref="449544274"/>
    <nd ref="299207295"/>
    <nd ref="449544273"/>
    <nd ref="299207294"/>
    <nd ref="449544272"/>
    <nd ref="299207293"/>
    <nd ref="449544270"/>
    <nd ref="299207292"/>
    <tag k="abutters" v="residential"/>
    <tag k="highway" v="secondary"/>
    <tag k="ref" v="504"/>
    <tag k="source_ref" v="www.ssc.sk"/>
  </way>
</osm>
