<?xml version='1.0' encoding='UTF-8'?>
<osm version="0.6" generator="libosmium/2.20.0">
  <way id="27268213" version="1" timestamp="2008-09-23T15:55:14Z" uid="64269" user="Triffnix" changeset="687155">
    <nd ref="299303948"/>
    <nd ref="299303949"/>
    <nd ref="299303950"/>
    <nd ref="299303951"/>
    <nd ref="299303952"/>
    <nd ref="299303953"/>
    <nd ref="299303954"/>
    <nd ref="299303955"/>
    <nd ref="299303956"/>
    <nd ref="299303957"/>
    <nd ref="299303960"/>
    <nd ref="299303961"/>
    <nd ref="299303962"/>
    <nd ref="299303965"/>
    <nd ref="299303966"/>
    <nd ref="299303970"/>
    <nd ref="299303971"/>
    <nd ref="299303972"/>
    <nd ref="299303981"/>
    <nd ref="299303982"/>
    <nd ref="299303983"/>
    <nd ref="299303984"/>
    <nd ref="299303985"/>
    <nd ref="299303986"/>
    <tag k="name" v="Faulenbach"/>
    <tag k="waterway" v="stream"/>
  </way>
  <way id="27268214" version="1" timestamp="2008-09-23T15:55:15Z" uid="64269" user="Triffnix" changeset="687155">
    <nd ref="267169622"/>
    <nd ref="267169623"/>
    <tag k="bridge" v="yes"/>
    <tag k="created_by" v="Potlatch 0.9b"/>
    <tag k="highway" v="secondary"/>
    <tag k="layer" v="1"/>
    <tag k="ref" v="L 438a"/>
  </way>
  <way id="27268215" version="1" timestamp="2008-09-23T15:55:18Z" uid="64269" user="Triffnix" changeset="687155">
    <nd ref="267169623"/>
    <nd ref="299303987"/>
    <nd ref="267169624"/>
    <nd ref="267169625"/>
    <nd ref="267169626"/>
    <nd ref="267169560"/>
    <nd ref="267169561"/>
    <nd ref="267169563"/>
    <nd ref="267169564"/>
    <tag k="created_by" v="Potlatch 0.9b"/>
    <tag k="highway" v="secondary"/>
    <tag k="ref" v="L 438a"/>
  </way>
  <way id="27268219" version="5" timestamp="2009-10-18T10:32:08Z" uid="36809" user="pfoten_weg_!_" changeset="2881738">
    <nd ref="410806"/>
    <nd ref="299304752"/>
    <nd ref="299304609"/>
    <nd ref="289488264"/>
    <nd ref="292799784"/>
    <nd ref="299304753"/>
    <nd ref="292799785"/>
    <nd ref="292799786"/>
    <nd ref="299304754"/>
    <nd ref="299304753"/>
    <tag k="highway" v="service"/>
    <tag k="service" v="parking_aisle"/>
    <tag k="surface" v="paved"/>
  </way>
  <way id="27268224" version="3" timestamp="2008-11-26T02:38:07Z" uid="6975" user="ulfl" changeset="794829">
    <nd ref="299304657"/>
    <nd ref="299304659"/>
    <nd ref="299304620"/>
    <nd ref="299304621"/>
    <nd ref="299304622"/>
    <nd ref="299304623"/>
    <nd ref="299304624"/>
    <nd ref="299304661"/>
    <nd ref="299304663"/>
    <nd ref="299304665"/>
    <nd ref="299304667"/>
    <nd ref="299304629"/>
    <nd ref="299304630"/>
    <nd ref="299304657"/>
    <tag k="leisure" v="pitch"/>
  </way>
  <way id="27268233" version="4" timestamp="2008-10-13T18:20:01Z" uid="70800" user="Cellpaq" changeset="317368">
    <nd ref="299304752"/>
    <nd ref="299304893"/>
    <nd ref="299304860"/>
    <nd ref="299304892"/>
    <nd ref="299304919"/>
    <tag k="created_by" v="Potlatch 0.10b"/>
    <tag k="foot" v="yes"/>
    <tag k="highway" v="footway"/>
  </way>
  <way id="27268233" version="5" timestamp="2009-10-18T10:32:07Z" uid="36809" user="pfoten_weg_!_" changeset="2881738">
    <nd ref="299304752"/>
    <nd ref="299304893"/>
    <nd ref="299304860"/>
    <nd ref="299304892"/>
    <nd ref="299304919"/>
    <tag k="foot" v="yes"/>
    <tag k="highway" v="footway"/>
  </way>
  <way id="27268234" version="2" timestamp="2009-05-04T16:52:48Z" uid="13367" user="nubok" changeset="1077018">
    <nd ref="299304863"/>
    <nd ref="390410620"/>
    <nd ref="298507854"/>
    <tag k="highway" v="residential"/>
    <tag k="name" v="Heidestraße"/>
  </way>
  <way id="27268236" version="13" timestamp="2009-10-18T10:32:13Z" uid="36809" user="pfoten_weg_!_" changeset="2881738">
    <nd ref="299304919"/>
    <nd ref="312799306"/>
    <nd ref="299304981"/>
    <tag k="highway" v="footway"/>
    <tag k="layer" v="-1"/>
    <tag k="tunnel" v="yes"/>
  </way>
  <way id="27268237" version="4" timestamp="2009-10-18T10:32:07Z" uid="36809" user="pfoten_weg_!_" changeset="2881738">
    <nd ref="299304981"/>
    <nd ref="283225196"/>
    <tag k="foot" v="yes"/>
    <tag k="highway" v="steps"/>
  </way>
  <way id="27268350" version="3" timestamp="2010-03-26T00:19:33Z" uid="23543" user="jkjk" changeset="4234294">
    <nd ref="433727342"/>
    <nd ref="433727279"/>
    <nd ref="433727320"/>
    <nd ref="433727100"/>
    <nd ref="433727209"/>
    <nd ref="433727153"/>
    <nd ref="433727375"/>
    <nd ref="433727347"/>
    <nd ref="433727094"/>
    <nd ref="433727365"/>
    <nd ref="433727215"/>
    <nd ref="433727216"/>
    <nd ref="433727310"/>
    <nd ref="433727101"/>
    <nd ref="433727289"/>
    <nd ref="433727380"/>
    <nd ref="433727242"/>
    <nd ref="433727345"/>
    <nd ref="433727205"/>
    <nd ref="433727274"/>
    <nd ref="433727114"/>
    <nd ref="433727340"/>
    <nd ref="433727311"/>
    <nd ref="433727092"/>
    <nd ref="433727117"/>
    <nd ref="433727251"/>
    <nd ref="433727262"/>
    <nd ref="433727118"/>
    <nd ref="433727164"/>
    <nd ref="433727239"/>
    <nd ref="433727172"/>
    <nd ref="433727223"/>
    <nd ref="433727159"/>
    <nd ref="433727098"/>
    <nd ref="433727105"/>
    <nd ref="433727253"/>
    <nd ref="433727144"/>
    <nd ref="433727154"/>
    <nd ref="433727194"/>
    <nd ref="433727090"/>
    <nd ref="433727109"/>
    <nd ref="433727200"/>
    <nd ref="433727146"/>
    <nd ref="433727364"/>
    <nd ref="433727110"/>
    <nd ref="433727332"/>
    <nd ref="433727352"/>
    <nd ref="433727115"/>
    <nd ref="433727372"/>
    <nd ref="433727370"/>
    <nd ref="433727129"/>
    <nd ref="433727170"/>
    <nd ref="433727180"/>
    <nd ref="433727298"/>
    <nd ref="433727089"/>
    <nd ref="433727218"/>
    <nd ref="433727282"/>
    <nd ref="433727169"/>
    <nd ref="433727346"/>
    <nd ref="433727265"/>
    <nd ref="433727292"/>
    <nd ref="433727306"/>
    <nd ref="433727312"/>
    <nd ref="433727374"/>
    <nd ref="433727301"/>
    <nd ref="433727107"/>
    <nd ref="433727237"/>
    <nd ref="433727179"/>
    <nd ref="433727336"/>
    <nd ref="433727349"/>
    <nd ref="433727260"/>
    <nd ref="433727187"/>
    <nd ref="433727358"/>
    <nd ref="433727344"/>
    <nd ref="433727155"/>
    <nd ref="433727368"/>
    <nd ref="433727324"/>
    <nd ref="433727254"/>
    <nd ref="433727245"/>
    <nd ref="433727228"/>
    <nd ref="433727231"/>
    <nd ref="433727235"/>
    <nd ref="433727359"/>
    <nd ref="433727329"/>
    <nd ref="433727376"/>
    <nd ref="433727361"/>
    <nd ref="433727308"/>
    <nd ref="433727371"/>
    <nd ref="433727181"/>
    <nd ref="433727350"/>
    <nd ref="433727315"/>
    <nd ref="433727136"/>
    <nd ref="433727143"/>
    <nd ref="433727149"/>
    <nd ref="433727158"/>
    <nd ref="433727171"/>
    <nd ref="433727162"/>
    <nd ref="433727338"/>
    <nd ref="433727351"/>
    <nd ref="433727353"/>
    <nd ref="433727266"/>
    <nd ref="433727326"/>
    <nd ref="433727113"/>
    <nd ref="433727247"/>
    <nd ref="433727230"/>
    <nd ref="433727147"/>
    <nd ref="433727182"/>
    <nd ref="433727285"/>
    <nd ref="433727343"/>
    <nd ref="433727214"/>
    <nd ref="433727141"/>
    <nd ref="433727286"/>
    <nd ref="433727138"/>
    <nd ref="433727313"/>
    <nd ref="433727335"/>
    <nd ref="433727369"/>
    <nd ref="433727379"/>
    <nd ref="433727299"/>
    <nd ref="433727202"/>
    <nd ref="433727241"/>
    <nd ref="433727120"/>
    <nd ref="433727124"/>
    <nd ref="433727226"/>
    <nd ref="433727281"/>
    <nd ref="433727295"/>
    <nd ref="433727137"/>
    <nd ref="433727132"/>
    <nd ref="433727173"/>
    <nd ref="433727339"/>
    <nd ref="433727309"/>
    <nd ref="433727271"/>
    <nd ref="433727276"/>
    <nd ref="433727307"/>
    <nd ref="433727121"/>
    <nd ref="433727148"/>
    <nd ref="433727296"/>
    <nd ref="433727111"/>
    <nd ref="433727249"/>
    <nd ref="433727367"/>
    <nd ref="433727304"/>
    <nd ref="433727167"/>
    <nd ref="433727217"/>
    <nd ref="433727263"/>
    <nd ref="433727130"/>
    <nd ref="433727366"/>
    <nd ref="433727290"/>
    <nd ref="433727258"/>
    <nd ref="433727356"/>
    <nd ref="433727357"/>
    <nd ref="433727103"/>
    <nd ref="433727157"/>
    <nd ref="433727127"/>
    <nd ref="433727116"/>
    <nd ref="433727267"/>
    <nd ref="433727354"/>
    <nd ref="433727192"/>
    <nd ref="674500933"/>
    <nd ref="433727165"/>
    <nd ref="433727133"/>
    <nd ref="433727321"/>
    <nd ref="433727104"/>
    <nd ref="433727135"/>
    <nd ref="433727087"/>
    <nd ref="433727337"/>
    <nd ref="433727255"/>
    <nd ref="433727294"/>
    <nd ref="433727145"/>
    <nd ref="433727293"/>
    <nd ref="433727273"/>
    <nd ref="433727250"/>
    <nd ref="433727248"/>
    <nd ref="433727317"/>
    <nd ref="433727378"/>
    <nd ref="433727219"/>
    <nd ref="433727142"/>
    <nd ref="433727272"/>
    <nd ref="433727256"/>
    <nd ref="433727119"/>
    <nd ref="433727088"/>
    <nd ref="433727288"/>
    <nd ref="433727278"/>
    <nd ref="433727327"/>
    <nd ref="433727259"/>
    <nd ref="433727097"/>
    <nd ref="433727316"/>
    <nd ref="433727264"/>
    <nd ref="433727220"/>
    <nd ref="433727175"/>
    <nd ref="433727330"/>
    <nd ref="433727184"/>
    <nd ref="433727283"/>
    <nd ref="433727224"/>
    <nd ref="433727131"/>
    <nd ref="433727207"/>
    <nd ref="433727102"/>
    <nd ref="433727160"/>
    <nd ref="433727198"/>
    <nd ref="433727328"/>
    <nd ref="433727213"/>
    <nd ref="433727334"/>
    <nd ref="433727186"/>
    <nd ref="433727244"/>
    <nd ref="433727152"/>
    <nd ref="433727233"/>
    <nd ref="433727291"/>
    <nd ref="433727243"/>
    <nd ref="433727163"/>
    <nd ref="433727222"/>
    <nd ref="433727268"/>
    <nd ref="433727302"/>
    <nd ref="433727305"/>
    <nd ref="433727333"/>
    <nd ref="433727166"/>
    <nd ref="433727373"/>
    <nd ref="433727123"/>
    <nd ref="433727183"/>
    <nd ref="433727091"/>
    <nd ref="433727297"/>
    <nd ref="433727140"/>
    <nd ref="433727221"/>
    <nd ref="433727128"/>
    <nd ref="433727177"/>
    <nd ref="433727277"/>
    <nd ref="433727185"/>
    <nd ref="433727300"/>
    <nd ref="433727211"/>
    <nd ref="433727099"/>
    <nd ref="433727280"/>
    <nd ref="433727252"/>
    <nd ref="433727150"/>
    <nd ref="433727191"/>
    <nd ref="433727284"/>
    <nd ref="433727096"/>
    <nd ref="433727125"/>
    <nd ref="433727139"/>
    <nd ref="433727318"/>
    <nd ref="433727095"/>
    <nd ref="433727156"/>
    <nd ref="433727093"/>
    <nd ref="433727275"/>
    <nd ref="433727188"/>
    <nd ref="433727261"/>
    <nd ref="433727257"/>
    <nd ref="433727086"/>
    <nd ref="433727106"/>
    <nd ref="433727322"/>
    <nd ref="433727108"/>
    <nd ref="433727168"/>
    <nd ref="433727269"/>
    <nd ref="433727270"/>
    <nd ref="433727246"/>
    <nd ref="433727287"/>
    <nd ref="433727196"/>
    <nd ref="433727348"/>
    <nd ref="433727161"/>
    <nd ref="433727325"/>
    <nd ref="433727126"/>
    <nd ref="433727377"/>
    <nd ref="433727122"/>
    <nd ref="433727085"/>
    <nd ref="433727363"/>
    <nd ref="433727225"/>
    <nd ref="433727189"/>
    <nd ref="433727355"/>
    <nd ref="433727362"/>
    <nd ref="433727151"/>
    <nd ref="433727303"/>
    <nd ref="433727323"/>
    <nd ref="433727319"/>
    <nd ref="433727360"/>
    <nd ref="433727341"/>
    <nd ref="433727112"/>
    <nd ref="433727331"/>
    <nd ref="433727176"/>
    <nd ref="433727227"/>
    <tag k="highway" v="secondary"/>
    <tag k="lanes" v="2"/>
    <tag k="layer" v="0"/>
    <tag k="maxspeed" v="80"/>
    <tag k="name" v="Samba-Udhampur Highway"/>
    <tag k="ref" v="SH"/>
  </way>
  <way id="27268379" version="4" timestamp="2009-12-09T18:02:06Z" uid="200463" user="harmagedon" changeset="3335395">
    <nd ref="234542217"/>
    <nd ref="234542222"/>
    <nd ref="234542233"/>
    <nd ref="234542243"/>
    <nd ref="234542255"/>
    <nd ref="234542262"/>
    <nd ref="234542278"/>
    <nd ref="234542292"/>
    <tag k="highway" v="footway"/>
  </way>
  <way id="27268446" version="3" timestamp="2010-04-02T17:20:54Z" uid="20587" user="balrog-kun" changeset="4304500">
    <nd ref="48341456"/>
    <nd ref="48341458"/>
    <tag k="highway" v="residential"/>
    <tag k="name" v="West Curtis Street"/>
    <tag k="tiger:cfcc" v="A21"/>
    <tag k="tiger:county" v="Grays Harbor, WA"/>
    <tag k="tiger:name_base" v="Curtis"/>
    <tag k="tiger:name_base_1" v="United States Highway 101"/>
    <tag k="tiger:name_direction_prefix" v="W"/>
    <tag k="tiger:name_type" v="St"/>
    <tag k="tiger:reviewed" v="no"/>
    <tag k="tiger:separated" v="no"/>
    <tag k="tiger:source" v="tiger_import_dch_v0.6_20070830"/>
    <tag k="tiger:tlid" v="180582338:180604430:180582325:180582326:180584295:180604035"/>
    <tag k="tiger:zip_left" v="98520"/>
    <tag k="tiger:zip_right" v="98520"/>
  </way>
  <way id="27268457" version="2" timestamp="2010-04-02T17:20:55Z" uid="20587" user="balrog-kun" changeset="4304500">
    <nd ref="48309378"/>
    <nd ref="48400272"/>
    <tag k="highway" v="residential"/>
    <tag k="name" v="South G Street"/>
    <tag k="tiger:cfcc" v="A41"/>
    <tag k="tiger:county" v="Grays Harbor, WA"/>
    <tag k="tiger:name_base" v="G"/>
    <tag k="tiger:name_direction_prefix" v="S"/>
    <tag k="tiger:name_type" v="St"/>
    <tag k="tiger:reviewed" v="no"/>
    <tag k="tiger:separated" v="no"/>
    <tag k="tiger:source" v="tiger_import_dch_v0.6_20070830"/>
    <tag k="tiger:tlid" v="180581977:180582028:180620780:180620781:180583579"/>
    <tag k="tiger:zip_left" v="98520"/>
    <tag k="tiger:zip_right" v="98520"/>
  </way>
  <way id="27268458" version="5" timestamp="2010-04-02T17:20:55Z" uid="20587" user="balrog-kun" changeset="4304500">
    <nd ref="48309376"/>
    <nd ref="48275978"/>
    <tag k="highway" v="primary"/>
    <tag k="name" v="South H Street"/>
    <tag k="oneway" v="yes"/>
    <tag k="tiger:cfcc" v="A41"/>
    <tag k="tiger:county" v="Grays Harbor, WA"/>
    <tag k="tiger:name_base" v="H"/>
    <tag k="tiger:name_direction_prefix" v="S"/>
    <tag k="tiger:name_type" v="St"/>
    <tag k="tiger:reviewed" v="no"/>
    <tag k="tiger:separated" v="no"/>
    <tag k="tiger:source" v="tiger_import_dch_v0.6_20070830"/>
    <tag k="tiger:tlid" v="180620894:180620896:180620898:180620899:180582001"/>
    <tag k="tiger:zip_left" v="98520"/>
    <tag k="tiger:zip_right" v="98520"/>
  </way>
  <way id="27268459" version="2" timestamp="2010-04-02T17:20:55Z" uid="20587" user="balrog-kun" changeset="4304500">
    <nd ref="48363570"/>
    <nd ref="48135931"/>
    <nd ref="48454334"/>
    <nd ref="48135710"/>
    <nd ref="48403636"/>
    <tag k="highway" v="residential"/>
    <tag k="name" v="South H Street"/>
    <tag k="tiger:cfcc" v="A41"/>
    <tag k="tiger:county" v="Grays Harbor, WA"/>
    <tag k="tiger:name_base" v="H"/>
    <tag k="tiger:name_direction_prefix" v="S"/>
    <tag k="tiger:name_type" v="St"/>
    <tag k="tiger:reviewed" v="no"/>
    <tag k="tiger:separated" v="no"/>
    <tag k="tiger:source" v="tiger_import_dch_v0.6_20070830"/>
    <tag k="tiger:tlid" v="180620894:180620896:180620898:180620899:180582001"/>
    <tag k="tiger:zip_left" v="98520"/>
    <tag k="tiger:zip_right" v="98520"/>
  </way>
  <way id="27268460" version="5" timestamp="2010-04-02T17:20:56Z" uid="20587" user="balrog-kun" changeset="4304500">
    <nd ref="48275978"/>
    <nd ref="48275983"/>
    <nd ref="48044851"/>
    <nd ref="48275992"/>
    <tag k="highway" v="primary"/>
    <tag k="name" v="East Heron Street; E Heron Street"/>
    <tag k="oneway" v="yes"/>
    <tag k="ref" v="US 12"/>
    <tag k="tiger:cfcc" v="A41"/>
    <tag k="tiger:county" v="Grays Harbor, WA"/>
    <tag k="tiger:name_base" v="Heron"/>
    <tag k="tiger:name_direction_prefix" v="E"/>
    <tag k="tiger:name_type" v="St"/>
    <tag k="tiger:reviewed" v="no"/>
    <tag k="tiger:separated" v="no"/>
    <tag k="tiger:source" v="tiger_import_dch_v0.6_20070830"/>
    <tag k="tiger:tlid" v="180581934:180581923:180581931:180583131:180582069"/>
    <tag k="tiger:zip_left" v="98520"/>
    <tag k="tiger:zip_right" v="98520"/>
  </way>
  <way id="27268461" version="2" timestamp="2010-04-02T17:20:56Z" uid="20587" user="balrog-kun" changeset="4304500">
    <nd ref="48194938"/>
    <nd ref="48276023"/>
    <nd ref="48276027"/>
    <nd ref="48238123"/>
    <tag k="highway" v="residential"/>
    <tag k="name" v="East Heron Street"/>
    <tag k="tiger:cfcc" v="A41"/>
    <tag k="tiger:county" v="Grays Harbor, WA"/>
    <tag k="tiger:name_base" v="Heron"/>
    <tag k="tiger:name_direction_prefix" v="E"/>
    <tag k="tiger:name_type" v="St"/>
    <tag k="tiger:reviewed" v="no"/>
    <tag k="tiger:separated" v="no"/>
    <tag k="tiger:source" v="tiger_import_dch_v0.6_20070830"/>
    <tag k="tiger:tlid" v="180581934:180581923:180581931:180583131:180582069"/>
    <tag k="tiger:zip_left" v="98520"/>
    <tag k="tiger:zip_right" v="98520"/>
  </way>
  <way id="27268468" version="1" timestamp="2008-09-23T16:13:15Z" uid="43863" user="Rundling" changeset="684968">
    <nd ref="299309893"/>
    <nd ref="299309894"/>
    <nd ref="299309895"/>
    <nd ref="299309896"/>
    <nd ref="299309893"/>
    <tag k="addr:city" v="Rosche"/>
    <tag k="addr:housenumber" v="1"/>
    <tag k="addr:postcode" v="29571"/>
    <tag k="addr:street" v="Uelzener Straße"/>
    <tag k="building" v="yes"/>
    <tag k="name" v="Altentagesstätte"/>
  </way>
  <way id="27268468" version="2" timestamp="2008-09-24T05:33:09Z" uid="43863" user="Rundling" changeset="687973">
    <nd ref="299309893"/>
    <nd ref="299309894"/>
    <nd ref="299309895"/>
    <nd ref="299309896"/>
    <nd ref="299309893"/>
    <tag k="addr:city" v="Rosche"/>
    <tag k="addr:housenumber" v="1"/>
    <tag k="addr:postcode" v="29571"/>
    <tag k="addr:street" v="Uelzener Straße"/>
    <tag k="building" v="yes"/>
  </way>
  <way id="27268468" version="3" timestamp="2008-10-04T07:07:57Z" uid="43863" user="Rundling" changeset="54503">
    <nd ref="299309893"/>
    <nd ref="299309894"/>
    <nd ref="299309895"/>
    <nd ref="299309896"/>
    <nd ref="299309893"/>
    <tag k="addr:city" v="Rosche"/>
    <tag k="addr:housenumber" v="1"/>
    <tag k="addr:postcode" v="29571"/>
    <tag k="addr:street" v="Uelzener Straße"/>
    <tag k="building" v="yes"/>
    <tag k="created_by" v="Potlatch 0.10c"/>
  </way>
  <way id="27268468" version="4" timestamp="2008-10-19T09:42:26Z" uid="43863" user="Rundling" changeset="434945">
    <nd ref="299309893"/>
    <nd ref="299309894"/>
    <nd ref="299309895"/>
    <nd ref="299309896"/>
    <nd ref="299309893"/>
    <tag k="addr:city" v="Rosche"/>
    <tag k="addr:housenumber" v="1"/>
    <tag k="addr:postcode" v="29571"/>
    <tag k="addr:street" v="Uelzener Straße"/>
    <tag k="building" v="yes"/>
    <tag k="created_by" v="Potlatch 0.10c"/>
    <tag k="name" v="DRK Tagesstätte"/>
  </way>
  <way id="27268468" version="5" timestamp="2008-11-20T19:11:47Z" uid="43863" user="Rundling" changeset="771830">
    <nd ref="299309893"/>
    <nd ref="299309894"/>
    <nd ref="299309895"/>
    <nd ref="299309896"/>
    <nd ref="299309893"/>
    <tag k="addr:city" v="Rosche"/>
    <tag k="addr:housenumber" v="1"/>
    <tag k="addr:postcode" v="29571"/>
    <tag k="addr:street" v="Uelzener Straße"/>
    <tag k="building" v="yes"/>
    <tag k="name" v="DRK Tagesstätte"/>
  </way>
  <way id="27268468" version="6" timestamp="2008-11-21T08:49:05Z" uid="43863" user="Rundling" changeset="776494">
    <nd ref="299309893"/>
    <nd ref="299309894"/>
    <nd ref="299309895"/>
    <nd ref="299309896"/>
    <nd ref="299309893"/>
    <tag k="addr:city" v="Rosche"/>
    <tag k="addr:housenumber" v="1"/>
    <tag k="addr:postcode" v="29571"/>
    <tag k="addr:street" v="Uelzener Straße"/>
    <tag k="building" v="yes"/>
    <tag k="name" v="DRK"/>
  </way>
  <way id="27268468" version="7" timestamp="2008-11-29T08:54:06Z" uid="43863" user="Rundling" changeset="806912">
    <nd ref="299309893"/>
    <nd ref="299309894"/>
    <nd ref="299309895"/>
    <nd ref="299309896"/>
    <nd ref="299309893"/>
    <tag k="addr:city" v="Rosche"/>
    <tag k="addr:housenumber" v="1"/>
    <tag k="addr:postcode" v="29571"/>
    <tag k="addr:street" v="Uelzener Straße"/>
    <tag k="building" v="yes"/>
    <tag k="created_by" v="Potlatch 0.10f"/>
  </way>
  <way id="27268468" version="8" timestamp="2008-12-04T09:20:54Z" uid="43863" user="Rundling" changeset="94277">
    <nd ref="299309893"/>
    <nd ref="299309894"/>
    <nd ref="299309895"/>
    <nd ref="299309896"/>
    <nd ref="299309893"/>
    <tag k="addr:city" v="Rosche"/>
    <tag k="addr:housenumber" v="1"/>
    <tag k="addr:postcode" v="29571"/>
    <tag k="addr:street" v="Uelzener Straße"/>
    <tag k="building" v="yes"/>
  </way>
  <way id="27268468" version="9" timestamp="2009-01-21T21:01:09Z" uid="43863" user="Rundling" changeset="821635">
    <nd ref="299309893"/>
    <nd ref="299309894"/>
    <nd ref="334736294"/>
    <nd ref="334736295"/>
    <nd ref="299309895"/>
    <nd ref="299309896"/>
    <nd ref="299309893"/>
    <tag k="addr:city" v="Rosche"/>
    <tag k="addr:housenumber" v="1"/>
    <tag k="addr:postcode" v="29571"/>
    <tag k="addr:street" v="Uelzener Straße"/>
    <tag k="building" v="yes"/>
  </way>
  <way id="27268469" version="1" timestamp="2008-09-23T16:13:15Z" uid="43863" user="Rundling" changeset="684968">
    <nd ref="299309897"/>
    <nd ref="299309899"/>
    <nd ref="299309900"/>
    <nd ref="299309898"/>
    <nd ref="299309897"/>
    <tag k="amenity" v="parking"/>
  </way>
  <way id="27268474" version="2" timestamp="2009-10-18T10:31:49Z" uid="36809" user="pfoten_weg_!_" changeset="2881738">
    <nd ref="61244418"/>
    <nd ref="299309913"/>
    <tag k="highway" v="residential"/>
    <tag k="name" v="Am Ried"/>
  </way>
  <way id="27268499" version="2" timestamp="2010-04-02T17:20:56Z" uid="20587" user="balrog-kun" changeset="4304500">
    <nd ref="48348473"/>
    <nd ref="48408569"/>
    <nd ref="48288015"/>
    <tag k="highway" v="residential"/>
    <tag k="name" v="Simpson Avenue"/>
    <tag k="tiger:cfcc" v="A41"/>
    <tag k="tiger:county" v="Grays Harbor, WA"/>
    <tag k="tiger:name_base" v="Simpson"/>
    <tag k="tiger:name_type" v="Ave"/>
    <tag k="tiger:reviewed" v="no"/>
    <tag k="tiger:separated" v="no"/>
    <tag k="tiger:source" v="tiger_import_dch_v0.6_20070830"/>
    <tag k="tiger:tlid" v="180580332:180580359"/>
    <tag k="tiger:zip_left" v="98550"/>
    <tag k="tiger:zip_right" v="98550"/>
  </way>
  <way id="27268502" version="2" timestamp="2008-12-13T20:59:23Z" uid="6975" user="ulfl" changeset="352865">
    <nd ref="299310083"/>
    <nd ref="299310085"/>
    <nd ref="299310086"/>
    <nd ref="299310087"/>
    <nd ref="299310083"/>
    <tag k="leisure" v="stadium"/>
    <tag k="name" v="Olympic Stadium"/>
    <tag k="sport" v="baseball"/>
  </way>
  <way id="27268563" version="1" timestamp="2008-09-23T16:20:44Z" uid="43863" user="Rundling" changeset="684968">
    <nd ref="299311026"/>
    <nd ref="299311027"/>
    <nd ref="299311028"/>
    <nd ref="299311029"/>
    <nd ref="299311026"/>
  </way>
  <way id="27268563" version="2" timestamp="2008-09-23T16:29:21Z" uid="43863" user="Rundling" changeset="684968">
    <nd ref="299311026"/>
    <nd ref="299311027"/>
    <nd ref="299311028"/>
    <nd ref="299311029"/>
    <nd ref="299311026"/>
    <tag k="name" v="Wüst"/>
    <tag k="shop" v="butcher"/>
  </way>
  <way id="27268563" version="3" timestamp="2008-09-23T17:07:40Z" uid="43863" user="Rundling" changeset="684968">
    <nd ref="299311026"/>
    <nd ref="299311027"/>
    <nd ref="299319550"/>
    <nd ref="299319557"/>
    <nd ref="299319558"/>
    <nd ref="299319554"/>
    <nd ref="299319559"/>
    <nd ref="299319560"/>
    <nd ref="299319552"/>
    <nd ref="299319551"/>
    <nd ref="299311028"/>
    <nd ref="299311029"/>
    <nd ref="299311026"/>
    <tag k="name" v="Wüst"/>
    <tag k="shop" v="butcher"/>
  </way>
  <way id="27268563" version="4" timestamp="2008-09-23T17:11:12Z" uid="43863" user="Rundling" changeset="684968">
    <nd ref="299311026"/>
    <nd ref="299311027"/>
    <nd ref="299319550"/>
    <nd ref="299319557"/>
    <nd ref="299319558"/>
    <nd ref="299319554"/>
    <nd ref="299319559"/>
    <nd ref="299319560"/>
    <nd ref="299319552"/>
    <nd ref="299319551"/>
    <nd ref="299311028"/>
    <nd ref="299311029"/>
    <nd ref="299311026"/>
    <tag k="addr:city" v="Rosche"/>
    <tag k="addr:housenumber" v="9"/>
    <tag k="addr:postcode" v="29571"/>
    <tag k="addr:street" v="Uelzener Straße"/>
    <tag k="name" v="Wüst"/>
    <tag k="shop" v="butcher"/>
  </way>
  <way id="27268563" version="5" timestamp="2008-09-24T07:57:59Z" uid="43863" user="Rundling" changeset="687973">
    <nd ref="299311026"/>
    <nd ref="299311027"/>
    <nd ref="299319550"/>
    <nd ref="299319557"/>
    <nd ref="299319558"/>
    <nd ref="299319554"/>
    <nd ref="299319559"/>
    <nd ref="299319560"/>
    <nd ref="299319552"/>
    <nd ref="299319551"/>
    <nd ref="299311028"/>
    <nd ref="299311029"/>
    <nd ref="299311026"/>
    <tag k="addr:city" v="Rosche"/>
    <tag k="addr:housenumber" v="9"/>
    <tag k="addr:postcode" v="29571"/>
    <tag k="addr:street" v="Uelzener Straße"/>
    <tag k="building" v="yes"/>
    <tag k="shop" v="butcher"/>
  </way>
  <way id="27268563" version="6" timestamp="2009-01-30T18:04:14Z" uid="43863" user="Rundling" changeset="856154">
    <nd ref="299311026"/>
    <nd ref="299311027"/>
    <nd ref="299319550"/>
    <nd ref="299319557"/>
    <nd ref="299319558"/>
    <nd ref="299319554"/>
    <nd ref="299319559"/>
    <nd ref="299319560"/>
    <nd ref="299319552"/>
    <nd ref="299319551"/>
    <nd ref="299311028"/>
    <nd ref="299311029"/>
    <nd ref="299311026"/>
    <tag k="addr:city" v="Rosche"/>
    <tag k="addr:housenumber" v="9"/>
    <tag k="addr:postcode" v="29571"/>
    <tag k="addr:street" v="Uelzener Straße"/>
    <tag k="building" v="yes"/>
    <tag k="name" v="Wüst"/>
    <tag k="shop" v="butcher"/>
  </way>
  <way id="27268564" version="1" timestamp="2008-09-23T16:20:44Z" uid="43863" user="Rundling" changeset="684968">
    <nd ref="299311032"/>
    <nd ref="299311033"/>
    <nd ref="299311034"/>
    <nd ref="299311035"/>
    <nd ref="299311032"/>
  </way>
  <way id="27268564" version="2" timestamp="2008-09-23T17:07:40Z" uid="43863" user="Rundling" changeset="684968">
    <nd ref="299311032"/>
    <nd ref="299319561"/>
    <nd ref="299319562"/>
    <nd ref="299311033"/>
    <nd ref="299311034"/>
    <nd ref="299319553"/>
    <nd ref="299319555"/>
    <nd ref="299319556"/>
    <nd ref="299311035"/>
    <nd ref="299311032"/>
  </way>
  <way id="27268564" version="3" timestamp="2008-09-23T17:11:12Z" uid="43863" user="Rundling" changeset="684968">
    <nd ref="299311032"/>
    <nd ref="299319561"/>
    <nd ref="299319562"/>
    <nd ref="299311033"/>
    <nd ref="299311034"/>
    <nd ref="299319553"/>
    <nd ref="299319555"/>
    <nd ref="299319556"/>
    <nd ref="299311035"/>
    <nd ref="299311032"/>
    <tag k="addr:city" v="Rosche"/>
    <tag k="addr:housenumber" v="7"/>
    <tag k="addr:postcode" v="29571"/>
    <tag k="addr:street" v="Uelzener Straße"/>
    <tag k="building" v="yes"/>
  </way>
  <way id="27268564" version="4" timestamp="2008-09-24T07:50:03Z" uid="43863" user="Rundling" changeset="687973">
    <nd ref="299311032"/>
    <nd ref="299319561"/>
    <nd ref="299319562"/>
    <nd ref="299311034"/>
    <nd ref="299319553"/>
    <nd ref="299319555"/>
    <nd ref="299319556"/>
    <nd ref="299311035"/>
    <nd ref="299311032"/>
    <tag k="addr:city" v="Rosche"/>
    <tag k="addr:housenumber" v="7"/>
    <tag k="addr:postcode" v="29571"/>
    <tag k="addr:street" v="Uelzener Straße"/>
    <tag k="building" v="yes"/>
    <tag k="created_by" v="Potlatch 0.10b"/>
  </way>
  <way id="27268564" version="5" timestamp="2008-11-29T10:18:20Z" uid="43863" user="Rundling" changeset="807289">
    <nd ref="299311032"/>
    <nd ref="299319562"/>
    <nd ref="299319555"/>
    <nd ref="299319556"/>
    <nd ref="299311032"/>
    <tag k="addr:city" v="Rosche"/>
    <tag k="addr:housenumber" v="7"/>
    <tag k="addr:postcode" v="29571"/>
    <tag k="addr:street" v="Uelzener Straße"/>
    <tag k="building" v="yes"/>
    <tag k="created_by" v="Potlatch 0.10b"/>
  </way>
  <way id="27268589" version="7" timestamp="2009-10-21T23:00:34Z" uid="36809" user="pfoten_weg_!_" changeset="2917503">
    <nd ref="11596688"/>
    <nd ref="322010058"/>
    <nd ref="322010054"/>
    <nd ref="322010044"/>
    <tag k="access" v="private"/>
    <tag k="highway" v="service"/>
    <tag k="maxspeed" v="7"/>
    <tag k="name" v="Haringstraße"/>
  </way>
  <way id="27268662" version="1" timestamp="2008-09-23T16:28:31Z" uid="64269" user="Triffnix" changeset="687155">
    <nd ref="299290146"/>
    <nd ref="299311947"/>
    <nd ref="299311946"/>
    <nd ref="299290150"/>
    <tag k="highway" v="steps"/>
    <tag k="surface" v="paved"/>
  </way>
  <way id="27268670" version="1" timestamp="2008-09-23T16:29:18Z" uid="43863" user="Rundling" changeset="684968">
    <nd ref="299311962"/>
    <nd ref="299311963"/>
    <nd ref="299311964"/>
    <nd ref="299311965"/>
    <nd ref="299311962"/>
  </way>
  <way id="27268670" version="2" timestamp="2008-09-23T17:11:13Z" uid="43863" user="Rundling" changeset="684968">
    <nd ref="299311962"/>
    <nd ref="299311963"/>
    <nd ref="299311964"/>
    <nd ref="299311965"/>
    <nd ref="299311962"/>
    <tag k="addr:city" v="Rosche"/>
    <tag k="addr:housenumber" v="11"/>
    <tag k="addr:postcode" v="29571"/>
    <tag k="addr:street" v="Uelzener Straße"/>
  </way>
  <way id="27268670" version="3" timestamp="2008-09-24T07:57:59Z" uid="43863" user="Rundling" changeset="687973">
    <nd ref="299311962"/>
    <nd ref="299311963"/>
    <nd ref="299311964"/>
    <nd ref="299311965"/>
    <nd ref="299311962"/>
    <tag k="addr:city" v="Rosche"/>
    <tag k="addr:housenumber" v="11"/>
    <tag k="addr:postcode" v="29571"/>
    <tag k="addr:street" v="Uelzener Straße"/>
    <tag k="building" v="yes"/>
  </way>
  <way id="27268689" version="3" timestamp="2008-12-13T22:39:55Z" uid="6975" user="ulfl" changeset="352865">
    <nd ref="299312195"/>
    <nd ref="299312196"/>
    <nd ref="299312197"/>
    <nd ref="299312198"/>
    <nd ref="299312199"/>
    <nd ref="299312200"/>
    <nd ref="299312201"/>
    <nd ref="299312202"/>
    <nd ref="299312203"/>
    <nd ref="299312204"/>
    <nd ref="299312205"/>
    <nd ref="299312206"/>
    <nd ref="299312208"/>
    <nd ref="299312213"/>
    <nd ref="299312218"/>
    <nd ref="299312219"/>
    <nd ref="299312220"/>
    <nd ref="299312221"/>
    <nd ref="299312222"/>
    <nd ref="299312223"/>
    <nd ref="299312224"/>
    <nd ref="299312225"/>
    <nd ref="299312226"/>
    <nd ref="299312227"/>
    <nd ref="299312228"/>
    <nd ref="299312229"/>
    <nd ref="299312230"/>
    <nd ref="299312231"/>
    <nd ref="299312232"/>
    <nd ref="255713371"/>
    <tag k="bicycle" v="nein"/>
    <tag k="foot" v="ja"/>
    <tag k="highway" v="footway"/>
    <tag k="horse" v="nein"/>
    <tag k="motorcar" v="nein"/>
    <tag k="ski" v="nein"/>
    <tag k="snowmobile" v="no"/>
    <tag k="surface" v="unbefestigt"/>
  </way>
  <way id="27268689" version="4" timestamp="2008-12-13T22:40:55Z" uid="6975" user="ulfl" changeset="352865">
    <nd ref="299312195"/>
    <nd ref="299312196"/>
    <nd ref="299312197"/>
    <nd ref="299312198"/>
    <nd ref="299312199"/>
    <nd ref="299312200"/>
    <nd ref="299312201"/>
    <nd ref="299312202"/>
    <nd ref="299312203"/>
    <nd ref="299312204"/>
    <nd ref="299312205"/>
    <nd ref="299312206"/>
    <nd ref="299312208"/>
    <nd ref="299312213"/>
    <nd ref="299312218"/>
    <nd ref="299312219"/>
    <nd ref="299312220"/>
    <nd ref="299312221"/>
    <nd ref="299312222"/>
    <nd ref="299312223"/>
    <nd ref="299312224"/>
    <nd ref="299312225"/>
    <nd ref="299312226"/>
    <nd ref="299312227"/>
    <nd ref="299312228"/>
    <nd ref="299312229"/>
    <nd ref="299312230"/>
    <nd ref="299312231"/>
    <nd ref="299312232"/>
    <nd ref="255713371"/>
    <tag k="bicycle" v="nein"/>
    <tag k="foot" v="ja"/>
    <tag k="highway" v="footway"/>
    <tag k="horse" v="nein"/>
    <tag k="motorcar" v="nein"/>
    <tag k="ski" v="no"/>
    <tag k="snowmobile" v="no"/>
    <tag k="surface" v="unbefestigt"/>
  </way>
  <way id="27268689" version="5" timestamp="2008-12-14T12:49:34Z" uid="6975" user="ulfl" changeset="366940">
    <nd ref="299312195"/>
    <nd ref="299312196"/>
    <nd ref="299312197"/>
    <nd ref="299312198"/>
    <nd ref="299312199"/>
    <nd ref="299312200"/>
    <nd ref="299312201"/>
    <nd ref="299312202"/>
    <nd ref="299312203"/>
    <nd ref="299312204"/>
    <nd ref="299312205"/>
    <nd ref="299312206"/>
    <nd ref="299312208"/>
    <nd ref="299312213"/>
    <nd ref="299312218"/>
    <nd ref="299312219"/>
    <nd ref="299312220"/>
    <nd ref="299312221"/>
    <nd ref="299312222"/>
    <nd ref="299312223"/>
    <nd ref="299312224"/>
    <nd ref="299312225"/>
    <nd ref="299312226"/>
    <nd ref="299312227"/>
    <nd ref="299312228"/>
    <nd ref="299312229"/>
    <nd ref="299312230"/>
    <nd ref="299312231"/>
    <nd ref="299312232"/>
    <nd ref="255713371"/>
    <tag k="bicycle" v="no"/>
    <tag k="foot" v="ja"/>
    <tag k="highway" v="footway"/>
    <tag k="horse" v="nein"/>
    <tag k="motorcar" v="nein"/>
    <tag k="ski" v="no"/>
    <tag k="snowmobile" v="no"/>
    <tag k="surface" v="unbefestigt"/>
  </way>
  <way id="27268710" version="3" timestamp="2010-01-11T22:44:40Z" uid="9581" user="Lobelt" changeset="3599869">
    <nd ref="611889377"/>
    <nd ref="299312685"/>
    <nd ref="299312684"/>
    <nd ref="299312681"/>
    <tag k="highway" v="residential"/>
    <tag k="oneway" v="yes"/>
  </way>
  <way id="27268742" version="2" timestamp="2008-11-26T18:12:43Z" uid="6975" user="ulfl" changeset="797054">
    <nd ref="299312998"/>
    <nd ref="299312999"/>
    <nd ref="299313000"/>
    <nd ref="299313001"/>
    <nd ref="299313002"/>
    <nd ref="299313003"/>
    <nd ref="299313004"/>
    <nd ref="299313005"/>
    <nd ref="299313006"/>
    <nd ref="299313007"/>
    <nd ref="298429606"/>
    <tag k="highway" v="track"/>
    <tag k="surface" v="gravel"/>
    <tag k="tracktype" v="grade2"/>
  </way>
  <way id="27268789" version="4" timestamp="2008-12-13T22:39:54Z" uid="6975" user="ulfl" changeset="352865">
    <nd ref="299314275"/>
    <nd ref="299314277"/>
    <nd ref="299314280"/>
    <nd ref="299314282"/>
    <nd ref="299314284"/>
    <nd ref="299314286"/>
    <nd ref="299314288"/>
    <nd ref="299314291"/>
    <nd ref="299314293"/>
    <nd ref="299314295"/>
    <nd ref="299314297"/>
    <nd ref="299318761"/>
    <nd ref="299314300"/>
    <nd ref="299314303"/>
    <nd ref="299314305"/>
    <nd ref="299314307"/>
    <nd ref="299314310"/>
    <nd ref="299314312"/>
    <nd ref="299314314"/>
    <nd ref="299314316"/>
    <nd ref="299314319"/>
    <nd ref="299314321"/>
    <nd ref="299314323"/>
    <nd ref="299314326"/>
    <nd ref="299314328"/>
    <nd ref="299314332"/>
    <nd ref="299314334"/>
    <tag k="bicycle" v="nein"/>
    <tag k="foot" v="ja"/>
    <tag k="highway" v="footway"/>
    <tag k="horse" v="nein"/>
    <tag k="motorcar" v="nein"/>
    <tag k="ski" v="nein"/>
    <tag k="snowmobile" v="no"/>
    <tag k="surface" v="unbefestigt"/>
  </way>
  <way id="27268789" version="5" timestamp="2008-12-13T22:40:54Z" uid="6975" user="ulfl" changeset="352865">
    <nd ref="299314275"/>
    <nd ref="299314277"/>
    <nd ref="299314280"/>
    <nd ref="299314282"/>
    <nd ref="299314284"/>
    <nd ref="299314286"/>
    <nd ref="299314288"/>
    <nd ref="299314291"/>
    <nd ref="299314293"/>
    <nd ref="299314295"/>
    <nd ref="299314297"/>
    <nd ref="299318761"/>
    <nd ref="299314300"/>
    <nd ref="299314303"/>
    <nd ref="299314305"/>
    <nd ref="299314307"/>
    <nd ref="299314310"/>
    <nd ref="299314312"/>
    <nd ref="299314314"/>
    <nd ref="299314316"/>
    <nd ref="299314319"/>
    <nd ref="299314321"/>
    <nd ref="299314323"/>
    <nd ref="299314326"/>
    <nd ref="299314328"/>
    <nd ref="299314332"/>
    <nd ref="299314334"/>
    <tag k="bicycle" v="nein"/>
    <tag k="foot" v="ja"/>
    <tag k="highway" v="footway"/>
    <tag k="horse" v="nein"/>
    <tag k="motorcar" v="nein"/>
    <tag k="ski" v="no"/>
    <tag k="snowmobile" v="no"/>
    <tag k="surface" v="unbefestigt"/>
  </way>
  <way id="27268789" version="6" timestamp="2008-12-14T12:49:33Z" uid="6975" user="ulfl" changeset="366940">
    <nd ref="299314275"/>
    <nd ref="299314277"/>
    <nd ref="299314280"/>
    <nd ref="299314282"/>
    <nd ref="299314284"/>
    <nd ref="299314286"/>
    <nd ref="299314288"/>
    <nd ref="299314291"/>
    <nd ref="299314293"/>
    <nd ref="299314295"/>
    <nd ref="299314297"/>
    <nd ref="299318761"/>
    <nd ref="299314300"/>
    <nd ref="299314303"/>
    <nd ref="299314305"/>
    <nd ref="299314307"/>
    <nd ref="299314310"/>
    <nd ref="299314312"/>
    <nd ref="299314314"/>
    <nd ref="299314316"/>
    <nd ref="299314319"/>
    <nd ref="299314321"/>
    <nd ref="299314323"/>
    <nd ref="299314326"/>
    <nd ref="299314328"/>
    <nd ref="299314332"/>
    <nd ref="299314334"/>
    <tag k="bicycle" v="no"/>
    <tag k="foot" v="ja"/>
    <tag k="highway" v="footway"/>
    <tag k="horse" v="nein"/>
    <tag k="motorcar" v="nein"/>
    <tag k="ski" v="no"/>
    <tag k="snowmobile" v="no"/>
    <tag k="surface" v="unbefestigt"/>
  </way>
  <way id="27268808" version="3" timestamp="2008-12-13T22:39:56Z" uid="6975" user="ulfl" changeset="352865">
    <nd ref="299315623"/>
    <nd ref="299315624"/>
    <nd ref="299315626"/>
    <nd ref="299315630"/>
    <nd ref="299315632"/>
    <nd ref="299315633"/>
    <nd ref="299315634"/>
    <nd ref="299315636"/>
    <nd ref="299315637"/>
    <nd ref="299315550"/>
    <tag k="bicycle" v="nein"/>
    <tag k="foot" v="ja"/>
    <tag k="highway" v="footway"/>
    <tag k="horse" v="nein"/>
    <tag k="motorcar" v="nein"/>
    <tag k="ski" v="nein"/>
    <tag k="snowmobile" v="no"/>
    <tag k="surface" v="unbefestigt"/>
  </way>
  <way id="27268808" version="4" timestamp="2008-12-13T22:40:57Z" uid="6975" user="ulfl" changeset="352865">
    <nd ref="299315623"/>
    <nd ref="299315624"/>
    <nd ref="299315626"/>
    <nd ref="299315630"/>
    <nd ref="299315632"/>
    <nd ref="299315633"/>
    <nd ref="299315634"/>
    <nd ref="299315636"/>
    <nd ref="299315637"/>
    <nd ref="299315550"/>
    <tag k="bicycle" v="nein"/>
    <tag k="foot" v="ja"/>
    <tag k="highway" v="footway"/>
    <tag k="horse" v="nein"/>
    <tag k="motorcar" v="nein"/>
    <tag k="ski" v="no"/>
    <tag k="snowmobile" v="no"/>
    <tag k="surface" v="unbefestigt"/>
  </way>
  <way id="27268808" version="5" timestamp="2008-12-14T12:49:35Z" uid="6975" user="ulfl" changeset="366940">
    <nd ref="299315623"/>
    <nd ref="299315624"/>
    <nd ref="299315626"/>
    <nd ref="299315630"/>
    <nd ref="299315632"/>
    <nd ref="299315633"/>
    <nd ref="299315634"/>
    <nd ref="299315636"/>
    <nd ref="299315637"/>
    <nd ref="299315550"/>
    <tag k="bicycle" v="no"/>
    <tag k="foot" v="ja"/>
    <tag k="highway" v="footway"/>
    <tag k="horse" v="nein"/>
    <tag k="motorcar" v="nein"/>
    <tag k="ski" v="no"/>
    <tag k="snowmobile" v="no"/>
    <tag k="surface" v="unbefestigt"/>
  </way>
  <way id="27268859" version="9" timestamp="2009-06-21T12:37:42Z" uid="20587" user="balrog-kun" changeset="1582806"/>
  <way id="27268865" version="3" timestamp="2008-11-26T18:12:38Z" uid="6975" user="ulfl" changeset="797054">
    <nd ref="299341423"/>
    <nd ref="299341418"/>
    <nd ref="299341416"/>
    <nd ref="299341412"/>
    <nd ref="299341409"/>
    <nd ref="299341405"/>
    <nd ref="299341401"/>
    <nd ref="299341398"/>
    <nd ref="299341395"/>
    <nd ref="299341391"/>
    <nd ref="299341388"/>
    <nd ref="299341385"/>
    <nd ref="299341381"/>
    <nd ref="299341378"/>
    <nd ref="299341374"/>
    <nd ref="299341369"/>
    <nd ref="299316152"/>
    <nd ref="299316153"/>
    <nd ref="299316154"/>
    <nd ref="299316155"/>
    <nd ref="299316156"/>
    <nd ref="299316157"/>
    <nd ref="299316158"/>
    <nd ref="299316159"/>
    <nd ref="299316160"/>
    <nd ref="299316161"/>
    <nd ref="299316162"/>
    <nd ref="299316163"/>
    <nd ref="299316164"/>
    <nd ref="299316165"/>
    <nd ref="299316166"/>
    <tag k="highway" v="track"/>
    <tag k="surface" v="gravel"/>
    <tag k="tracktype" v="grade3"/>
  </way>
  <way id="27268971" version="3" timestamp="2008-12-13T22:39:53Z" uid="6975" user="ulfl" changeset="352865">
    <nd ref="299316939"/>
    <nd ref="299316940"/>
    <nd ref="299316941"/>
    <nd ref="299316942"/>
    <nd ref="299316943"/>
    <nd ref="299316944"/>
    <nd ref="299316946"/>
    <nd ref="299316947"/>
    <nd ref="299316948"/>
    <nd ref="299316949"/>
    <nd ref="299316950"/>
    <nd ref="299316951"/>
    <nd ref="299316953"/>
    <nd ref="299316954"/>
    <nd ref="299316955"/>
    <nd ref="299316956"/>
    <nd ref="299316957"/>
    <nd ref="299316965"/>
    <nd ref="299316966"/>
    <nd ref="299316967"/>
    <nd ref="299316968"/>
    <nd ref="299316969"/>
    <nd ref="299316970"/>
    <nd ref="299316971"/>
    <tag k="bicycle" v="nein"/>
    <tag k="foot" v="ja"/>
    <tag k="highway" v="footway"/>
    <tag k="horse" v="nein"/>
    <tag k="motorcar" v="nein"/>
    <tag k="ski" v="nein"/>
    <tag k="snowmobile" v="no"/>
    <tag k="surface" v="unbefestigt"/>
  </way>
  <way id="27268971" version="4" timestamp="2008-12-13T22:40:54Z" uid="6975" user="ulfl" changeset="352865">
    <nd ref="299316939"/>
    <nd ref="299316940"/>
    <nd ref="299316941"/>
    <nd ref="299316942"/>
    <nd ref="299316943"/>
    <nd ref="299316944"/>
    <nd ref="299316946"/>
    <nd ref="299316947"/>
    <nd ref="299316948"/>
    <nd ref="299316949"/>
    <nd ref="299316950"/>
    <nd ref="299316951"/>
    <nd ref="299316953"/>
    <nd ref="299316954"/>
    <nd ref="299316955"/>
    <nd ref="299316956"/>
    <nd ref="299316957"/>
    <nd ref="299316965"/>
    <nd ref="299316966"/>
    <nd ref="299316967"/>
    <nd ref="299316968"/>
    <nd ref="299316969"/>
    <nd ref="299316970"/>
    <nd ref="299316971"/>
    <tag k="bicycle" v="nein"/>
    <tag k="foot" v="ja"/>
    <tag k="highway" v="footway"/>
    <tag k="horse" v="nein"/>
    <tag k="motorcar" v="nein"/>
    <tag k="ski" v="no"/>
    <tag k="snowmobile" v="no"/>
    <tag k="surface" v="unbefestigt"/>
  </way>
  <way id="27268971" version="5" timestamp="2008-12-14T12:49:33Z" uid="6975" user="ulfl" changeset="366940">
    <nd ref="299316939"/>
    <nd ref="299316940"/>
    <nd ref="299316941"/>
    <nd ref="299316942"/>
    <nd ref="299316943"/>
    <nd ref="299316944"/>
    <nd ref="299316946"/>
    <nd ref="299316947"/>
    <nd ref="299316948"/>
    <nd ref="299316949"/>
    <nd ref="299316950"/>
    <nd ref="299316951"/>
    <nd ref="299316953"/>
    <nd ref="299316954"/>
    <nd ref="299316955"/>
    <nd ref="299316956"/>
    <nd ref="299316957"/>
    <nd ref="299316965"/>
    <nd ref="299316966"/>
    <nd ref="299316967"/>
    <nd ref="299316968"/>
    <nd ref="299316969"/>
    <nd ref="299316970"/>
    <nd ref="299316971"/>
    <tag k="bicycle" v="no"/>
    <tag k="foot" v="ja"/>
    <tag k="highway" v="footway"/>
    <tag k="horse" v="nein"/>
    <tag k="motorcar" v="nein"/>
    <tag k="ski" v="no"/>
    <tag k="snowmobile" v="no"/>
    <tag k="surface" v="unbefestigt"/>
  </way>
  <way id="27268977" version="1" timestamp="2008-09-23T16:52:06Z" uid="66740" user="Jürgen Schmidt" changeset="687353">
    <nd ref="299316989"/>
    <nd ref="295617570"/>
    <tag k="created_by" v="JOSM"/>
    <tag k="highway" v="service"/>
    <tag k="maxspeed" v="30"/>
    <tag k="name" v="Droste-Hülshoff-Straße"/>
  </way>
  <way id="27268978" version="1" timestamp="2008-09-23T16:52:06Z" uid="66740" user="Jürgen Schmidt" changeset="687353">
    <nd ref="299316990"/>
    <nd ref="299316996"/>
    <tag k="highway" v="service"/>
    <tag k="maxspeed" v="30"/>
    <tag k="name" v="Thomas-Mann-Straße"/>
  </way>
  <way id="27268979" version="1" timestamp="2008-09-23T16:52:06Z" uid="66740" user="Jürgen Schmidt" changeset="687353">
    <nd ref="299316997"/>
    <nd ref="299316998"/>
    <tag k="highway" v="service"/>
    <tag k="maxspeed" v="30"/>
    <tag k="name" v="Thomas-Mann-Straße"/>
  </way>
  <way id="27268980" version="1" timestamp="2008-09-23T16:52:06Z" uid="66740" user="Jürgen Schmidt" changeset="687353">
    <nd ref="299316999"/>
    <nd ref="299317000"/>
    <tag k="highway" v="service"/>
    <tag k="maxspeed" v="30"/>
    <tag k="name" v="Thomas-Mann-Straße"/>
  </way>
  <way id="27268981" version="1" timestamp="2008-09-23T16:52:07Z" uid="66740" user="Jürgen Schmidt" changeset="687353">
    <nd ref="299317001"/>
    <nd ref="299317002"/>
    <tag k="bicycle" v="yes"/>
    <tag k="foot" v="yes"/>
    <tag k="highway" v="path"/>
    <tag k="name" v="Thomas-Mann-Straße"/>
  </way>
  <way id="27268982" version="1" timestamp="2008-09-23T16:52:07Z" uid="66740" user="Jürgen Schmidt" changeset="687353">
    <nd ref="299317003"/>
    <nd ref="299317004"/>
    <tag k="bicycle" v="yes"/>
    <tag k="foot" v="yes"/>
    <tag k="highway" v="path"/>
    <tag k="name" v="Thomas-Mann-Straße"/>
  </way>
  <way id="27268983" version="1" timestamp="2008-09-23T16:52:07Z" uid="66740" user="Jürgen Schmidt" changeset="687353">
    <nd ref="299317006"/>
    <nd ref="299317007"/>
    <tag k="highway" v="service"/>
    <tag k="name" v="Theodor-Körner-Straße"/>
  </way>
  <way id="27268983" version="2" timestamp="2008-10-21T19:14:40Z" uid="66674" user="GunnarSchmidt" changeset="495497">
    <nd ref="299317006"/>
    <nd ref="299317007"/>
    <tag k="highway" v="living_street"/>
    <tag k="name" v="Theodor-Körner-Straße"/>
    <tag k="note" v="More correctly this street segment is a service road within a living_street area."/>
  </way>
  <way id="27268984" version="1" timestamp="2008-09-23T16:52:08Z" uid="66740" user="Jürgen Schmidt" changeset="687353">
    <nd ref="299317008"/>
    <nd ref="299317009"/>
    <tag k="highway" v="service"/>
    <tag k="name" v="Wagenfeldstraße"/>
  </way>
  <way id="27268984" version="2" timestamp="2008-10-21T19:14:40Z" uid="66674" user="GunnarSchmidt" changeset="495497">
    <nd ref="299317008"/>
    <nd ref="299317009"/>
    <tag k="highway" v="living_street"/>
    <tag k="name" v="Wagenfeldstraße"/>
    <tag k="note" v="More correctly this street segment is a service road within a living_street area."/>
  </way>
  <way id="27268985" version="1" timestamp="2008-09-23T16:52:08Z" uid="66740" user="Jürgen Schmidt" changeset="687353">
    <nd ref="299317010"/>
    <nd ref="299317012"/>
    <nd ref="299317011"/>
    <tag k="highway" v="service"/>
    <tag k="name" v="Wagenfeldstraße"/>
  </way>
  <way id="27268986" version="1" timestamp="2008-09-23T16:52:08Z" uid="66740" user="Jürgen Schmidt" changeset="687353">
    <nd ref="299317012"/>
    <nd ref="299317013"/>
    <tag k="highway" v="service"/>
    <tag k="name" v="Wagenfeldstraße"/>
  </way>
  <way id="27268987" version="1" timestamp="2008-09-23T16:52:08Z" uid="66740" user="Jürgen Schmidt" changeset="687353">
    <nd ref="299317014"/>
    <nd ref="299317015"/>
    <tag k="highway" v="service"/>
    <tag k="name" v="Gildestraße"/>
  </way>
  <way id="27268988" version="1" timestamp="2008-09-23T16:52:09Z" uid="66740" user="Jürgen Schmidt" changeset="687353">
    <nd ref="270302101"/>
    <nd ref="299317016"/>
    <tag k="highway" v="service"/>
    <tag k="name" v="Gildestraße"/>
  </way>
  <way id="27268989" version="1" timestamp="2008-09-23T16:52:09Z" uid="66740" user="Jürgen Schmidt" changeset="687353">
    <nd ref="295932614"/>
    <nd ref="299317017"/>
    <tag k="highway" v="residential"/>
    <tag k="maxspeed" v="30"/>
    <tag k="name" v="Berliner Straße"/>
  </way>
  <way id="27268990" version="1" timestamp="2008-09-23T16:52:09Z" uid="66740" user="Jürgen Schmidt" changeset="687353">
    <nd ref="299317018"/>
    <nd ref="299317019"/>
    <tag k="bicycle" v="yes"/>
    <tag k="foot" v="yes"/>
    <tag k="highway" v="path"/>
  </way>
  <way id="27268991" version="1" timestamp="2008-09-23T16:52:09Z" uid="66740" user="Jürgen Schmidt" changeset="687353">
    <nd ref="299317021"/>
    <nd ref="299317022"/>
    <tag k="highway" v="living_street"/>
    <tag k="name" v="Im Mühlenhof"/>
  </way>
  <way id="27268992" version="1" timestamp="2008-09-23T16:52:10Z" uid="66740" user="Jürgen Schmidt" changeset="687353">
    <nd ref="299317023"/>
    <nd ref="299317022"/>
    <nd ref="299317026"/>
    <nd ref="299317033"/>
    <tag k="highway" v="living_street"/>
    <tag k="name" v="Im Mühlenhof"/>
  </way>
  <way id="27268993" version="1" timestamp="2008-09-23T16:52:10Z" uid="66740" user="Jürgen Schmidt" changeset="687353">
    <nd ref="299317034"/>
    <nd ref="299317023"/>
    <nd ref="299317035"/>
    <nd ref="299317036"/>
    <tag k="highway" v="living_street"/>
    <tag k="name" v="Im Mühlenhof"/>
  </way>
  <way id="27268994" version="1" timestamp="2008-09-23T16:52:11Z" uid="66740" user="Jürgen Schmidt" changeset="687353">
    <nd ref="299317033"/>
    <nd ref="299317037"/>
    <nd ref="299317020"/>
    <tag k="bicycle" v="yes"/>
    <tag k="foot" v="yes"/>
    <tag k="highway" v="path"/>
  </way>
  <way id="27268995" version="1" timestamp="2008-09-23T16:52:12Z" uid="66740" user="Jürgen Schmidt" changeset="687353">
    <nd ref="299317038"/>
    <nd ref="299317039"/>
    <tag k="highway" v="service"/>
    <tag k="maxspeed" v="30"/>
    <tag k="name" v="Im Fahlenland"/>
  </way>
  <way id="27268996" version="1" timestamp="2008-09-23T16:52:12Z" uid="66740" user="Jürgen Schmidt" changeset="687353">
    <nd ref="299317044"/>
    <nd ref="299317045"/>
    <tag k="highway" v="service"/>
    <tag k="maxspeed" v="30"/>
    <tag k="name" v="Berliner Straße"/>
  </way>
  <way id="27268997" version="1" timestamp="2008-09-23T16:52:12Z" uid="66740" user="Jürgen Schmidt" changeset="687353">
    <nd ref="299317046"/>
    <nd ref="299317047"/>
    <tag k="highway" v="service"/>
    <tag k="name" v="Bleichstraße"/>
  </way>
  <way id="27268997" version="2" timestamp="2008-10-21T19:14:43Z" uid="66674" user="GunnarSchmidt" changeset="495497">
    <nd ref="299317046"/>
    <nd ref="299317047"/>
    <tag k="highway" v="living_street"/>
    <tag k="name" v="Bleichstraße"/>
    <tag k="note" v="More correctly this street segment is a service road within a living_street area."/>
  </way>
  <way id="27268998" version="1" timestamp="2008-09-23T16:52:13Z" uid="66740" user="Jürgen Schmidt" changeset="687353">
    <nd ref="296168221"/>
    <nd ref="299317050"/>
    <nd ref="299317052"/>
    <nd ref="299317054"/>
    <nd ref="299317051"/>
    <tag k="highway" v="living_street"/>
    <tag k="name" v="Am Kirchplatz"/>
    <tag k="oneway" v="yes"/>
  </way>
  <way id="27268999" version="1" timestamp="2008-09-23T16:52:13Z" uid="66740" user="Jürgen Schmidt" changeset="687353">
    <nd ref="299317052"/>
    <nd ref="299317053"/>
    <tag k="highway" v="service"/>
    <tag k="name" v="Am Kirchplatz"/>
  </way>
  <way id="27268999" version="2" timestamp="2008-10-21T19:14:43Z" uid="66674" user="GunnarSchmidt" changeset="495497">
    <nd ref="299317052"/>
    <nd ref="299317053"/>
    <tag k="highway" v="living_street"/>
    <tag k="name" v="Am Kirchplatz"/>
    <tag k="note" v="More correctly this street segment is a service road within a living_street area."/>
  </way>
</osm>
