<?xml version='1.0' encoding='UTF-8'?>
<osm version="0.6" generator="libosmium/2.20.0">
  <way id="27267038" version="3" timestamp="2009-06-11T10:41:26Z" uid="4667" user="MapZ" changeset="1485799">
    <nd ref="299288412"/>
    <nd ref="299288413"/>
    <nd ref="299288414"/>
    <nd ref="299289884"/>
    <nd ref="299288455"/>
    <nd ref="299288698"/>
    <nd ref="299288485"/>
    <nd ref="299288458"/>
    <nd ref="299288486"/>
    <tag k="created_by" v="Potlatch 0.10b"/>
    <tag k="highway" v="residential"/>
    <tag k="name" v="Avenida Constitucion"/>
    <tag k="oneway" v="yes"/>
  </way>
  <way id="27267038" version="4" timestamp="2009-06-13T17:29:46Z" uid="4667" user="MapZ" changeset="1506799">
    <nd ref="299288412"/>
    <nd ref="299288413"/>
    <nd ref="299288414"/>
    <nd ref="299289884"/>
    <tag k="created_by" v="Potlatch 0.10b"/>
    <tag k="highway" v="residential"/>
    <tag k="name" v="Avenida Constitucion"/>
    <tag k="oneway" v="yes"/>
  </way>
  <way id="27267066" version="1" timestamp="2008-09-23T14:55:30Z" uid="64269" user="Triffnix" changeset="687155">
    <nd ref="299290094"/>
    <nd ref="299290095"/>
    <nd ref="299290096"/>
    <nd ref="299290097"/>
    <nd ref="299290098"/>
    <nd ref="299290099"/>
    <nd ref="299290095"/>
    <tag k="access" v="private"/>
    <tag k="highway" v="service"/>
    <tag k="service" v="parking_aisle"/>
    <tag k="surface" v="paved"/>
  </way>
  <way id="27267067" version="1" timestamp="2008-09-23T14:55:33Z" uid="64269" user="Triffnix" changeset="687155">
    <nd ref="299290107"/>
    <nd ref="299290108"/>
    <nd ref="299290112"/>
    <nd ref="299290118"/>
    <nd ref="299290119"/>
    <nd ref="299290120"/>
    <nd ref="299290121"/>
    <nd ref="299290122"/>
    <nd ref="299290127"/>
    <tag k="highway" v="service"/>
  </way>
  <way id="27267068" version="1" timestamp="2008-09-23T14:55:35Z" uid="64269" user="Triffnix" changeset="687155">
    <nd ref="299290130"/>
    <nd ref="299290131"/>
    <nd ref="299290133"/>
    <nd ref="299290135"/>
    <nd ref="299290136"/>
    <nd ref="299290139"/>
    <nd ref="299290140"/>
    <nd ref="299290141"/>
    <nd ref="299290144"/>
    <nd ref="299290145"/>
    <nd ref="299290146"/>
    <tag k="highway" v="residential"/>
    <tag k="name" v="Im Grund"/>
    <tag k="surface" v="paved"/>
  </way>
  <way id="27267069" version="1" timestamp="2008-09-23T14:55:37Z" uid="64269" user="Triffnix" changeset="687155">
    <nd ref="299290147"/>
    <nd ref="299290148"/>
    <nd ref="299290149"/>
    <nd ref="299290150"/>
    <tag k="highway" v="residential"/>
    <tag k="name" v="Hinterm Höfle"/>
    <tag k="surface" v="paved"/>
  </way>
  <way id="27267070" version="1" timestamp="2008-09-23T14:55:38Z" uid="64269" user="Triffnix" changeset="687155">
    <nd ref="299290152"/>
    <nd ref="299290153"/>
    <tag k="highway" v="track"/>
    <tag k="surface" v="paved"/>
    <tag k="tracktype" v="grade1"/>
  </way>
  <way id="27267071" version="1" timestamp="2008-09-23T14:55:41Z" uid="64269" user="Triffnix" changeset="687155">
    <nd ref="299290151"/>
    <nd ref="299290156"/>
    <nd ref="299290154"/>
    <nd ref="299290155"/>
    <tag k="highway" v="residential"/>
    <tag k="name" v="Unterm Steinbruch"/>
    <tag k="surface" v="paved"/>
  </way>
  <way id="27267072" version="1" timestamp="2008-09-23T14:55:42Z" uid="64269" user="Triffnix" changeset="687155">
    <nd ref="299290157"/>
    <nd ref="299290158"/>
    <nd ref="299290159"/>
    <tag k="access" v="private"/>
    <tag k="highway" v="service"/>
    <tag k="surface" v="paved"/>
  </way>
  <way id="27267072" version="2" timestamp="2008-09-24T13:55:48Z" uid="64269" user="Triffnix" changeset="692635">
    <nd ref="299290157"/>
    <nd ref="299290158"/>
    <tag k="highway" v="service"/>
    <tag k="surface" v="paved"/>
  </way>
  <way id="27267073" version="1" timestamp="2008-09-23T14:55:44Z" uid="64269" user="Triffnix" changeset="687155">
    <nd ref="293687842"/>
    <nd ref="299290160"/>
    <tag k="highway" v="residential"/>
    <tag k="name" v="Am Scheibenrain"/>
    <tag k="surface" v="paved"/>
  </way>
  <way id="27267074" version="1" timestamp="2008-09-23T14:55:46Z" uid="64269" user="Triffnix" changeset="687155">
    <nd ref="299290161"/>
    <nd ref="299290162"/>
    <nd ref="299290163"/>
    <nd ref="299290164"/>
    <nd ref="299290165"/>
    <nd ref="299290166"/>
    <nd ref="299290176"/>
    <nd ref="299290177"/>
    <nd ref="299290179"/>
    <nd ref="299290186"/>
    <nd ref="299290161"/>
    <tag k="access" v="private"/>
    <tag k="amenity" v="parking"/>
  </way>
  <way id="27267074" version="2" timestamp="2008-09-24T13:55:41Z" uid="64269" user="Triffnix" changeset="692635">
    <nd ref="299290161"/>
    <nd ref="299290162"/>
    <nd ref="299290163"/>
    <nd ref="299290164"/>
    <nd ref="299290165"/>
    <nd ref="299290166"/>
    <nd ref="299290176"/>
    <nd ref="299290177"/>
    <nd ref="299290179"/>
    <nd ref="299290186"/>
    <nd ref="299290161"/>
    <tag k="access" v="private"/>
    <tag k="amenity" v="parking"/>
    <tag k="ref" v="P7"/>
  </way>
  <way id="27267075" version="1" timestamp="2008-09-23T14:55:48Z" uid="64269" user="Triffnix" changeset="687155">
    <nd ref="299290214"/>
    <nd ref="293687834"/>
    <nd ref="293687836"/>
    <nd ref="293687839"/>
    <nd ref="293179635"/>
    <tag k="highway" v="residential"/>
    <tag k="layer" v="0"/>
    <tag k="name" v="Rußberger Straße"/>
  </way>
  <way id="27267076" version="1" timestamp="2008-09-23T14:55:50Z" uid="64269" user="Triffnix" changeset="687155">
    <nd ref="299290245"/>
    <nd ref="299290214"/>
    <tag k="bridge" v="yes"/>
    <tag k="highway" v="residential"/>
    <tag k="layer" v="1"/>
    <tag k="name" v="Rußberger Straße"/>
  </way>
  <way id="27267157" version="4" timestamp="2010-01-14T11:17:29Z" uid="20587" user="balrog-kun" changeset="3616184">
    <nd ref="299292132"/>
    <nd ref="299292136"/>
    <nd ref="299292138"/>
    <nd ref="299292139"/>
    <nd ref="299292140"/>
    <nd ref="299292141"/>
    <nd ref="299292142"/>
    <nd ref="299292143"/>
    <nd ref="299292144"/>
    <nd ref="299292145"/>
    <nd ref="299292152"/>
    <nd ref="299292161"/>
    <nd ref="299292168"/>
    <nd ref="299292169"/>
    <nd ref="299292170"/>
    <nd ref="299292171"/>
    <nd ref="299292172"/>
    <nd ref="299292173"/>
    <nd ref="299292174"/>
    <nd ref="299292175"/>
    <nd ref="299292176"/>
    <nd ref="299292184"/>
    <nd ref="299292197"/>
    <nd ref="299292207"/>
    <nd ref="299292214"/>
    <nd ref="299292223"/>
    <nd ref="299292231"/>
    <nd ref="299292242"/>
    <nd ref="299292254"/>
    <nd ref="299292341"/>
    <nd ref="299292347"/>
    <nd ref="299292350"/>
    <nd ref="299292352"/>
    <nd ref="299292355"/>
    <nd ref="299292357"/>
    <nd ref="299292361"/>
    <nd ref="299292364"/>
    <nd ref="299292370"/>
    <nd ref="299292375"/>
    <nd ref="299292377"/>
    <nd ref="299292381"/>
    <nd ref="299292385"/>
    <nd ref="299292388"/>
    <nd ref="299292390"/>
    <nd ref="299292393"/>
    <nd ref="299292395"/>
    <nd ref="299292399"/>
    <nd ref="299292401"/>
    <nd ref="299292404"/>
    <nd ref="299292406"/>
    <nd ref="299292409"/>
    <nd ref="299292414"/>
    <nd ref="299292419"/>
    <nd ref="299292426"/>
    <nd ref="299292432"/>
    <nd ref="299292439"/>
    <nd ref="299292441"/>
    <nd ref="299292442"/>
    <nd ref="299292443"/>
    <nd ref="299292444"/>
    <nd ref="299292445"/>
    <nd ref="299292446"/>
    <nd ref="299292447"/>
    <nd ref="299292448"/>
    <nd ref="299292449"/>
    <nd ref="299292450"/>
    <nd ref="299292451"/>
    <nd ref="299292453"/>
    <nd ref="299292454"/>
    <nd ref="299292455"/>
    <nd ref="299292456"/>
    <nd ref="299292457"/>
    <nd ref="299292458"/>
    <nd ref="299292459"/>
    <nd ref="299292460"/>
    <nd ref="299292461"/>
    <nd ref="299292462"/>
    <nd ref="299292463"/>
    <nd ref="299292476"/>
    <nd ref="299292482"/>
    <nd ref="299292483"/>
    <nd ref="299292484"/>
    <nd ref="299292485"/>
    <nd ref="299292486"/>
    <nd ref="299292493"/>
    <nd ref="299292494"/>
    <nd ref="299292502"/>
    <nd ref="299292515"/>
    <nd ref="299292526"/>
    <nd ref="299292536"/>
    <nd ref="299292547"/>
    <nd ref="299292553"/>
    <nd ref="299292571"/>
    <nd ref="299292582"/>
    <nd ref="299292588"/>
    <nd ref="299292589"/>
    <nd ref="299292590"/>
    <nd ref="299292591"/>
    <nd ref="299292592"/>
    <nd ref="299292593"/>
    <tag k="name" v="Nysa Kłodzka"/>
    <tag k="name:cs" v="Kladská Nisa"/>
    <tag k="name:de" v="Glatzer Neisse"/>
    <tag k="source_ref" v="landsat"/>
    <tag k="waterway" v="river"/>
    <tag k="wikipedia" v="pl:Nysa Kłodzka"/>
  </way>
  <way id="27267400" version="1" timestamp="2008-09-23T15:14:30Z" uid="67142" user="zottel" changeset="684804">
    <nd ref="299294701"/>
    <nd ref="299139205"/>
    <nd ref="299139206"/>
    <nd ref="299139208"/>
    <nd ref="299139209"/>
    <nd ref="299139211"/>
    <nd ref="299139212"/>
    <nd ref="299139214"/>
    <tag k="access" v="destination"/>
    <tag k="highway" v="residential"/>
    <tag k="name" v="Rotteckstraße"/>
  </way>
  <way id="27267400" version="2" timestamp="2008-11-13T12:22:54Z" uid="67142" user="zottel" changeset="742852">
    <nd ref="299294701"/>
    <nd ref="299139205"/>
    <nd ref="299139206"/>
    <nd ref="299139208"/>
    <nd ref="299139209"/>
    <nd ref="299139211"/>
    <nd ref="299139212"/>
    <nd ref="299139214"/>
    <tag k="access" v="destination"/>
    <tag k="highway" v="residential"/>
    <tag k="maxspeed" v="50"/>
    <tag k="name" v="Rotteckstraße"/>
  </way>
  <way id="27267401" version="1" timestamp="2008-09-23T15:14:30Z" uid="67142" user="zottel" changeset="684804">
    <nd ref="299294755"/>
    <nd ref="299294754"/>
    <nd ref="299294750"/>
    <nd ref="299294748"/>
    <nd ref="299294746"/>
    <nd ref="299294745"/>
    <nd ref="299294744"/>
    <nd ref="299294743"/>
    <nd ref="299294741"/>
    <nd ref="299294739"/>
    <nd ref="299294737"/>
    <nd ref="299294735"/>
    <nd ref="299294733"/>
    <nd ref="299294732"/>
    <nd ref="299294730"/>
    <nd ref="299139215"/>
    <tag k="highway" v="unclassified"/>
  </way>
  <way id="27267402" version="1" timestamp="2008-09-23T15:14:31Z" uid="67142" user="zottel" changeset="684804">
    <nd ref="299294759"/>
    <nd ref="299294760"/>
    <nd ref="299294889"/>
    <nd ref="299294761"/>
    <nd ref="299294762"/>
    <tag k="highway" v="residential"/>
    <tag k="maxspeed" v="30"/>
    <tag k="name" v="Römerstraße"/>
  </way>
  <way id="27267403" version="1" timestamp="2008-09-23T15:14:31Z" uid="67142" user="zottel" changeset="684804">
    <nd ref="299294786"/>
    <nd ref="299294784"/>
    <nd ref="299294782"/>
    <nd ref="299294779"/>
    <nd ref="299294777"/>
    <nd ref="299294775"/>
    <nd ref="299294773"/>
    <nd ref="299294770"/>
    <nd ref="299294763"/>
    <nd ref="299294765"/>
    <nd ref="299294768"/>
    <nd ref="299294759"/>
    <tag k="highway" v="unclassified"/>
    <tag k="motorcar" v="no"/>
    <tag k="motorcycle" v="no"/>
    <tag k="name" v="Römerstraße"/>
  </way>
  <way id="27267404" version="1" timestamp="2008-09-23T15:14:32Z" uid="67142" user="zottel" changeset="684804">
    <nd ref="299294848"/>
    <nd ref="299294846"/>
    <nd ref="299294841"/>
    <nd ref="299294839"/>
    <nd ref="299294836"/>
    <nd ref="299294832"/>
    <nd ref="299294830"/>
    <nd ref="299294814"/>
    <nd ref="299294811"/>
    <nd ref="299294809"/>
    <nd ref="299294807"/>
    <nd ref="299294804"/>
    <nd ref="299294802"/>
    <nd ref="299294799"/>
    <nd ref="299294789"/>
    <nd ref="299294792"/>
    <nd ref="299294794"/>
    <nd ref="299294797"/>
    <nd ref="299294850"/>
    <nd ref="299294786"/>
    <tag k="highway" v="residential"/>
    <tag k="name" v="Römerstraße"/>
    <tag k="noexit" v="yes"/>
  </way>
  <way id="27267405" version="1" timestamp="2008-09-23T15:14:32Z" uid="67142" user="zottel" changeset="684804">
    <nd ref="299294882"/>
    <nd ref="299294884"/>
    <nd ref="299294881"/>
    <tag k="highway" v="footway"/>
    <tag k="name" v="Makartstraße"/>
  </way>
  <way id="27267406" version="1" timestamp="2008-09-23T15:14:32Z" uid="67142" user="zottel" changeset="684804">
    <nd ref="299294881"/>
    <nd ref="299294883"/>
    <nd ref="299294880"/>
    <nd ref="299294878"/>
    <nd ref="299294875"/>
    <tag k="highway" v="residential"/>
    <tag k="name" v="Makartstraße"/>
    <tag k="noexit" v="yes"/>
  </way>
  <way id="27267407" version="1" timestamp="2008-09-23T15:14:33Z" uid="67142" user="zottel" changeset="684804">
    <nd ref="299294889"/>
    <nd ref="299294886"/>
    <nd ref="299294894"/>
    <nd ref="299294887"/>
    <nd ref="299294888"/>
    <nd ref="299294875"/>
    <tag k="highway" v="residential"/>
    <tag k="maxspeed" v="30"/>
    <tag k="name" v="Schwindstraße"/>
  </way>
  <way id="27267408" version="1" timestamp="2008-09-23T15:14:33Z" uid="67142" user="zottel" changeset="684804">
    <nd ref="299294872"/>
    <nd ref="299294905"/>
    <nd ref="299294896"/>
    <nd ref="299294895"/>
    <nd ref="299294894"/>
    <tag k="highway" v="residential"/>
    <tag k="maxspeed" v="30"/>
    <tag k="name" v="Pilotystraße"/>
  </way>
  <way id="27267409" version="1" timestamp="2008-09-23T15:14:33Z" uid="67142" user="zottel" changeset="684804">
    <nd ref="299294893"/>
    <nd ref="299294894"/>
    <tag k="highway" v="residential"/>
    <tag k="maxspeed" v="30"/>
    <tag k="name" v="Pilotystraße"/>
    <tag k="oneway" v="yes"/>
  </way>
  <way id="27267410" version="1" timestamp="2008-09-23T15:14:34Z" uid="67142" user="zottel" changeset="684804">
    <nd ref="299294893"/>
    <nd ref="299294890"/>
    <nd ref="299294891"/>
    <nd ref="299294892"/>
    <tag k="highway" v="residential"/>
    <tag k="maxspeed" v="30"/>
    <tag k="name" v="Pilotystraße"/>
  </way>
  <way id="27267411" version="1" timestamp="2008-09-23T15:14:34Z" uid="67142" user="zottel" changeset="684804">
    <nd ref="299294875"/>
    <nd ref="299294876"/>
    <nd ref="299294877"/>
    <tag k="highway" v="residential"/>
    <tag k="name" v="Makartstraße"/>
  </way>
  <way id="27267434" version="1" timestamp="2008-09-23T15:15:33Z" uid="43863" user="Rundling" changeset="684968">
    <nd ref="299295035"/>
    <nd ref="299295040"/>
    <nd ref="299295041"/>
    <nd ref="299295038"/>
    <nd ref="299295035"/>
    <tag k="name" v="Farben-Richter"/>
    <tag k="shop" v="doityourself"/>
  </way>
  <way id="27267434" version="2" timestamp="2008-09-23T15:19:58Z" uid="43863" user="Rundling" changeset="684968">
    <nd ref="299295035"/>
    <nd ref="299295040"/>
    <nd ref="299295041"/>
    <nd ref="299295038"/>
    <nd ref="299295035"/>
    <tag k="addr:city" v="Rosche"/>
    <tag k="addr:housenumber" v="2"/>
    <tag k="addr:postcode" v="29571"/>
    <tag k="addr:street" v="Bodenteicher Straße"/>
    <tag k="name" v="Farben-Richter"/>
    <tag k="shop" v="doityourself"/>
  </way>
  <way id="27267434" version="3" timestamp="2008-09-23T15:41:11Z" uid="43863" user="Rundling" changeset="684968">
    <nd ref="299295035"/>
    <nd ref="299295040"/>
    <nd ref="299295041"/>
    <nd ref="299295038"/>
    <nd ref="299295035"/>
    <tag k="addr:city" v="Rosche"/>
    <tag k="addr:housenumber" v="2"/>
    <tag k="addr:postcode" v="29571"/>
    <tag k="addr:street" v="Bodenteicher Straße"/>
    <tag k="building" v="yes"/>
    <tag k="name" v="Farben-Richter"/>
    <tag k="shop" v="doityourself"/>
  </way>
  <way id="27267434" version="4" timestamp="2008-09-23T17:07:41Z" uid="43863" user="Rundling" changeset="684968">
    <nd ref="299295035"/>
    <nd ref="299319535"/>
    <nd ref="299319536"/>
    <nd ref="299319539"/>
    <nd ref="299319540"/>
    <nd ref="299295040"/>
    <nd ref="299319537"/>
    <nd ref="299319538"/>
    <nd ref="299295041"/>
    <nd ref="299295038"/>
    <nd ref="299295035"/>
    <tag k="addr:city" v="Rosche"/>
    <tag k="addr:housenumber" v="2"/>
    <tag k="addr:postcode" v="29571"/>
    <tag k="addr:street" v="Bodenteicher Straße"/>
    <tag k="building" v="yes"/>
    <tag k="name" v="Farben-Richter"/>
    <tag k="shop" v="doityourself"/>
  </way>
  <way id="27267434" version="5" timestamp="2008-09-24T07:48:03Z" uid="43863" user="Rundling" changeset="687973">
    <nd ref="299295035"/>
    <nd ref="299319535"/>
    <nd ref="299319536"/>
    <nd ref="299319539"/>
    <nd ref="299319540"/>
    <nd ref="299295040"/>
    <nd ref="299319537"/>
    <nd ref="299319538"/>
    <nd ref="299295041"/>
    <nd ref="299295038"/>
    <nd ref="299295035"/>
    <tag k="addr:city" v="Rosche"/>
    <tag k="addr:housenumber" v="2"/>
    <tag k="addr:postcode" v="29571"/>
    <tag k="addr:street" v="Bodenteicher Straße"/>
    <tag k="building" v="yes"/>
    <tag k="created_by" v="Potlatch 0.10b"/>
    <tag k="shop" v="doityourself"/>
  </way>
  <way id="27267434" version="6" timestamp="2008-09-24T07:49:04Z" uid="43863" user="Rundling" changeset="687973">
    <nd ref="299409129"/>
    <nd ref="299319535"/>
    <nd ref="299319539"/>
    <nd ref="299319538"/>
    <nd ref="299409129"/>
    <tag k="addr:city" v="Rosche"/>
    <tag k="addr:housenumber" v="2"/>
    <tag k="addr:postcode" v="29571"/>
    <tag k="addr:street" v="Bodenteicher Straße"/>
    <tag k="building" v="yes"/>
    <tag k="created_by" v="Potlatch 0.10b"/>
    <tag k="shop" v="doityourself"/>
  </way>
  <way id="27267434" version="7" timestamp="2008-09-24T07:49:12Z" uid="43863" user="Rundling" changeset="687973">
    <nd ref="299409129"/>
    <nd ref="299319535"/>
    <nd ref="299319539"/>
    <nd ref="299319538"/>
    <nd ref="299409129"/>
    <tag k="addr:city" v="Rosche"/>
    <tag k="addr:housenumber" v="2"/>
    <tag k="addr:postcode" v="29571"/>
    <tag k="addr:street" v="Bodenteicher Straße"/>
    <tag k="building" v="yes"/>
    <tag k="created_by" v="Potlatch 0.10b"/>
    <tag k="shop" v="doityourself"/>
  </way>
  <way id="27267434" version="8" timestamp="2008-12-04T09:20:55Z" uid="43863" user="Rundling" changeset="94277">
    <nd ref="299409129"/>
    <nd ref="299319535"/>
    <nd ref="299319539"/>
    <nd ref="299319538"/>
    <nd ref="299409129"/>
    <tag k="addr:city" v="Rosche"/>
    <tag k="addr:housenumber" v="2"/>
    <tag k="addr:postcode" v="29571"/>
    <tag k="addr:street" v="Bodenteicher Straße"/>
    <tag k="building" v="yes"/>
    <tag k="shop" v="doityourself"/>
  </way>
  <way id="27267434" version="9" timestamp="2009-07-14T15:17:28Z" uid="43863" user="Rundling" changeset="1827797">
    <nd ref="299409129"/>
    <nd ref="299319535"/>
    <nd ref="299319539"/>
    <nd ref="299319538"/>
    <nd ref="299409129"/>
    <tag k="addr:city" v="Rosche"/>
    <tag k="addr:housenumber" v="2"/>
    <tag k="addr:postcode" v="29571"/>
    <tag k="addr:street" v="Bodenteicher Straße"/>
    <tag k="building" v="yes"/>
  </way>
  <way id="27267461" version="7" timestamp="2009-04-26T05:33:01Z" uid="43863" user="Rundling" changeset="968458">
    <nd ref="157177507"/>
    <nd ref="299295322"/>
    <nd ref="299295194"/>
    <nd ref="299295439"/>
    <tag k="created_by" v="xybot"/>
    <tag k="highway" v="track"/>
    <tag k="tracktype" v="grade2"/>
  </way>
  <way id="27267461" version="8" timestamp="2009-04-26T05:33:29Z" uid="43863" user="Rundling" changeset="968459">
    <nd ref="157177507"/>
    <nd ref="299295322"/>
    <nd ref="299295194"/>
    <nd ref="385062509"/>
    <tag k="created_by" v="xybot"/>
    <tag k="highway" v="track"/>
    <tag k="tracktype" v="grade2"/>
  </way>
  <way id="27267469" version="9" timestamp="2009-08-25T08:43:14Z" uid="18775" user="drlizau" changeset="2253812"/>
  <way id="27267536" version="3" timestamp="2009-04-26T05:35:35Z" uid="43863" user="Rundling" changeset="968473">
    <nd ref="299296628"/>
    <nd ref="385065315"/>
    <tag k="created_by" v="Potlatch 0.10b"/>
    <tag k="highway" v="unclassified"/>
  </way>
  <way id="27267554" version="4" timestamp="2009-04-26T05:35:07Z" uid="43863" user="Rundling" changeset="968467">
    <nd ref="385064093"/>
    <nd ref="317001883"/>
    <nd ref="299297241"/>
    <tag k="created_by" v="Potlatch 0.10f"/>
    <tag k="highway" v="unclassified"/>
  </way>
  <way id="27267554" version="5" timestamp="2009-04-26T05:35:35Z" uid="43863" user="Rundling" changeset="968473">
    <nd ref="385064093"/>
    <nd ref="317001883"/>
    <nd ref="385065315"/>
    <nd ref="299297241"/>
    <tag k="created_by" v="Potlatch 0.10f"/>
    <tag k="highway" v="unclassified"/>
  </way>
  <way id="27267554" version="6" timestamp="2009-04-26T05:36:02Z" uid="43863" user="Rundling" changeset="968476">
    <nd ref="385064093"/>
    <nd ref="317001883"/>
    <nd ref="385065315"/>
    <nd ref="385066067"/>
    <nd ref="299297241"/>
    <tag k="created_by" v="Potlatch 0.10f"/>
    <tag k="highway" v="unclassified"/>
  </way>
  <way id="27267566" version="2" timestamp="2009-04-26T05:36:02Z" uid="43863" user="Rundling" changeset="968476">
    <nd ref="385066067"/>
    <nd ref="299297384"/>
    <nd ref="276552034"/>
    <tag k="created_by" v="Potlatch 0.10b"/>
    <tag k="highway" v="unclassified"/>
  </way>
  <way id="27267611" version="2" timestamp="2010-03-22T05:42:38Z" uid="20587" user="balrog-kun" changeset="4199043">
    <nd ref="37759311"/>
    <nd ref="37840341"/>
    <nd ref="37881284"/>
    <nd ref="37871010"/>
    <tag k="highway" v="residential"/>
    <tag k="name" v="Airport Road"/>
    <tag k="name_1" v="Southeast 12th Place"/>
    <tag k="tiger:cfcc" v="A41"/>
    <tag k="tiger:county" v="Clatsop, OR"/>
    <tag k="tiger:name_base" v="Airport"/>
    <tag k="tiger:name_base_1" v="12th"/>
    <tag k="tiger:name_direction_prefix_1" v="SE"/>
    <tag k="tiger:name_type" v="Rd"/>
    <tag k="tiger:name_type_1" v="Pl"/>
    <tag k="tiger:reviewed" v="no"/>
    <tag k="tiger:separated" v="no"/>
    <tag k="tiger:source" v="tiger_import_dch_v0.6_20070808"/>
    <tag k="tiger:tlid" v="159241899"/>
  </way>
  <way id="27267612" version="2" timestamp="2010-03-22T05:42:38Z" uid="20587" user="balrog-kun" changeset="4199043">
    <nd ref="37867756"/>
    <nd ref="37830841"/>
    <nd ref="37749681"/>
    <nd ref="37825270"/>
    <nd ref="37748826"/>
    <nd ref="37748779"/>
    <nd ref="37840337"/>
    <nd ref="37759311"/>
    <tag k="highway" v="residential"/>
    <tag k="name" v="Airport Road"/>
    <tag k="name_1" v="Southeast 12th Place"/>
    <tag k="tiger:cfcc" v="A41"/>
    <tag k="tiger:county" v="Clatsop, OR"/>
    <tag k="tiger:name_base" v="Airport"/>
    <tag k="tiger:name_base_1" v="12th"/>
    <tag k="tiger:name_direction_prefix_1" v="SE"/>
    <tag k="tiger:name_type" v="Rd"/>
    <tag k="tiger:name_type_1" v="Pl"/>
    <tag k="tiger:reviewed" v="no"/>
    <tag k="tiger:separated" v="no"/>
    <tag k="tiger:source" v="tiger_import_dch_v0.6_20070808"/>
    <tag k="tiger:tlid" v="159241899"/>
  </way>
  <way id="27267651" version="3" timestamp="2010-12-02T04:55:31Z" uid="23543" user="jkjk" changeset="6511129">
    <nd ref="299298084"/>
    <nd ref="299298083"/>
    <nd ref="299298082"/>
    <nd ref="299298081"/>
    <nd ref="299298080"/>
    <nd ref="299298079"/>
    <nd ref="299298078"/>
    <nd ref="299298077"/>
    <nd ref="299298076"/>
    <nd ref="299298075"/>
    <nd ref="299298074"/>
    <nd ref="299298073"/>
    <nd ref="299298072"/>
    <nd ref="299298071"/>
    <nd ref="299298070"/>
    <nd ref="299298069"/>
    <nd ref="299298068"/>
    <nd ref="299298066"/>
    <nd ref="299298065"/>
    <nd ref="299298060"/>
    <nd ref="299298059"/>
    <nd ref="299298058"/>
    <nd ref="299298040"/>
    <nd ref="299298039"/>
    <nd ref="299298038"/>
    <nd ref="299298031"/>
    <nd ref="299297999"/>
    <nd ref="299297968"/>
    <nd ref="299297937"/>
    <nd ref="299297933"/>
    <nd ref="299297932"/>
    <nd ref="299297931"/>
    <nd ref="299297930"/>
    <nd ref="299297929"/>
    <nd ref="299297928"/>
    <nd ref="299297927"/>
    <nd ref="299297926"/>
    <nd ref="299297925"/>
    <nd ref="299297924"/>
    <nd ref="245774682"/>
    <nd ref="299297923"/>
    <nd ref="299297920"/>
    <nd ref="299297919"/>
    <nd ref="299297918"/>
    <nd ref="299297917"/>
    <nd ref="299297916"/>
    <nd ref="299297915"/>
    <nd ref="299297914"/>
    <nd ref="299297913"/>
    <nd ref="299297912"/>
    <nd ref="299297911"/>
    <nd ref="299297910"/>
    <nd ref="299297909"/>
    <nd ref="299297908"/>
    <nd ref="299297907"/>
    <nd ref="299297906"/>
    <nd ref="299297905"/>
    <nd ref="299297902"/>
    <nd ref="299297901"/>
    <nd ref="299297900"/>
    <nd ref="299297899"/>
    <nd ref="299297898"/>
    <nd ref="299297897"/>
    <nd ref="299297896"/>
    <nd ref="299297895"/>
    <nd ref="299297894"/>
    <nd ref="299297893"/>
    <nd ref="299297892"/>
    <nd ref="299297891"/>
    <nd ref="299297888"/>
    <nd ref="299297887"/>
    <nd ref="299297886"/>
    <nd ref="299297885"/>
    <nd ref="299297884"/>
    <nd ref="299297883"/>
    <nd ref="299297882"/>
    <nd ref="299297879"/>
    <nd ref="299297878"/>
    <nd ref="299297877"/>
    <nd ref="299297876"/>
    <nd ref="299297875"/>
    <nd ref="299297874"/>
    <nd ref="299297873"/>
    <nd ref="299297872"/>
    <nd ref="299297866"/>
    <nd ref="299297865"/>
    <nd ref="299297864"/>
    <nd ref="299297863"/>
    <nd ref="299297862"/>
    <nd ref="299297861"/>
    <tag k="highway" v="trunk"/>
    <tag k="ref" v="NH1A"/>
  </way>
  <way id="27267739" version="5" timestamp="2010-03-26T17:46:57Z" uid="20587" user="balrog-kun" changeset="4238822">
    <nd ref="37852921"/>
    <nd ref="37830665"/>
    <tag k="addr:postcode" v="97103"/>
    <tag k="highway" v="trunk"/>
    <tag k="is_in" v="Clatsop, OR"/>
    <tag k="name" v="8th Street"/>
    <tag k="name_1" v="United States Route 30"/>
    <tag k="name_2" v="East Columbia River Highway"/>
    <tag k="oneway" v="yes"/>
    <tag k="ref" v="US 30"/>
  </way>
  <way id="27267743" version="7" timestamp="2010-03-26T17:46:58Z" uid="20587" user="balrog-kun" changeset="4238822">
    <nd ref="37830655"/>
    <nd ref="37879922"/>
    <nd ref="37882308"/>
    <nd ref="37882306"/>
    <nd ref="37882304"/>
    <nd ref="37882301"/>
    <nd ref="37882300"/>
    <nd ref="37846924"/>
    <nd ref="37882297"/>
    <nd ref="37882295"/>
    <nd ref="37882293"/>
    <nd ref="37846965"/>
    <nd ref="37882291"/>
    <nd ref="37840800"/>
    <nd ref="37882289"/>
    <nd ref="37852919"/>
    <nd ref="37882287"/>
    <nd ref="37864381"/>
    <nd ref="37878650"/>
    <tag k="addr:postcode" v="97103"/>
    <tag k="highway" v="trunk"/>
    <tag k="is_in" v="Clatsop, OR"/>
    <tag k="name" v="Marine Drive"/>
    <tag k="name_1" v="United States Route 30"/>
    <tag k="name_2" v="East Columbia River Highway"/>
    <tag k="oneway" v="yes"/>
    <tag k="ref" v="US 30"/>
    <tag k="source" v="Yahoo,TIGER"/>
  </way>
  <way id="27267744" version="5" timestamp="2010-03-26T17:46:58Z" uid="20587" user="balrog-kun" changeset="4238822">
    <nd ref="37830655"/>
    <nd ref="37862684"/>
    <nd ref="37882311"/>
    <nd ref="37869341"/>
    <nd ref="37882314"/>
    <nd ref="37867562"/>
    <nd ref="37867534"/>
    <nd ref="37882317"/>
    <nd ref="37882319"/>
    <nd ref="37830642"/>
    <nd ref="37882321"/>
    <nd ref="37882323"/>
    <nd ref="37882325"/>
    <nd ref="37882327"/>
    <nd ref="37882329"/>
    <nd ref="37882330"/>
    <nd ref="37882331"/>
    <nd ref="37882332"/>
    <nd ref="37831316"/>
    <nd ref="37882333"/>
    <nd ref="37882337"/>
    <nd ref="37882341"/>
    <nd ref="37882344"/>
    <nd ref="37882346"/>
    <nd ref="37882347"/>
    <nd ref="37849295"/>
    <nd ref="37882349"/>
    <nd ref="37882352"/>
    <nd ref="37882354"/>
    <nd ref="37882356"/>
    <nd ref="37882358"/>
    <nd ref="37882360"/>
    <nd ref="37877360"/>
    <nd ref="37882362"/>
    <nd ref="37882365"/>
    <nd ref="37867903"/>
    <nd ref="37882367"/>
    <nd ref="37839335"/>
    <nd ref="37867093"/>
    <nd ref="37826663"/>
    <tag k="addr:postcode" v="97103"/>
    <tag k="highway" v="trunk"/>
    <tag k="is_in" v="Clatsop, OR"/>
    <tag k="name" v="Marine Drive"/>
    <tag k="name_1" v="United States Route 30"/>
    <tag k="name_2" v="East Columbia River Highway"/>
    <tag k="oneway" v="no"/>
    <tag k="ref" v="US 30"/>
    <tag k="source" v="Yahoo,TIGER"/>
  </way>
  <way id="27267850" version="4" timestamp="2009-04-26T05:32:37Z" uid="43863" user="Rundling" changeset="968454">
    <nd ref="299300162"/>
    <nd ref="299300186"/>
    <tag k="access" v="agricultural"/>
    <tag k="created_by" v="Potlatch 0.10b"/>
    <tag k="highway" v="track"/>
    <tag k="layer" v="0"/>
    <tag k="motorcar" v="no"/>
    <tag k="motorcycle" v="no"/>
    <tag k="surface" v="paved"/>
    <tag k="tracktype" v="grade1"/>
  </way>
  <way id="27267876" version="4" timestamp="2009-04-26T05:32:16Z" uid="43863" user="Rundling" changeset="968448">
    <nd ref="299300485"/>
    <nd ref="299300582"/>
    <tag k="access" v="agricultural"/>
    <tag k="created_by" v="Potlatch 0.10b"/>
    <tag k="highway" v="track"/>
    <tag k="layer" v="0"/>
    <tag k="motorcar" v="no"/>
    <tag k="motorcycle" v="no"/>
    <tag k="surface" v="paved"/>
    <tag k="tracktype" v="grade1"/>
  </way>
  <way id="27267926" version="1" timestamp="2008-09-23T15:41:10Z" uid="43863" user="Rundling" changeset="684968">
    <nd ref="299301230"/>
    <nd ref="299301232"/>
    <nd ref="299301233"/>
    <nd ref="299301231"/>
    <nd ref="299301230"/>
    <tag k="building" v="yes"/>
  </way>
  <way id="27267926" version="2" timestamp="2008-09-23T17:07:41Z" uid="43863" user="Rundling" changeset="684968">
    <nd ref="299301230"/>
    <nd ref="299301232"/>
    <nd ref="299319541"/>
    <nd ref="299319542"/>
    <nd ref="299301233"/>
    <nd ref="299301231"/>
    <nd ref="299301230"/>
    <tag k="building" v="yes"/>
  </way>
  <way id="27267926" version="3" timestamp="2008-11-29T10:18:21Z" uid="43863" user="Rundling" changeset="807289">
    <nd ref="299301230"/>
    <nd ref="299319541"/>
    <nd ref="299319542"/>
    <nd ref="299301231"/>
    <nd ref="299301230"/>
    <tag k="building" v="yes"/>
  </way>
  <way id="27267926" version="4" timestamp="2009-01-21T20:59:27Z" uid="43863" user="Rundling" changeset="821635"/>
  <way id="27267927" version="1" timestamp="2008-09-23T15:41:11Z" uid="43863" user="Rundling" changeset="684968">
    <nd ref="299301235"/>
    <nd ref="299301237"/>
    <nd ref="299301238"/>
    <nd ref="299301236"/>
    <nd ref="299301235"/>
    <tag k="building" v="yes"/>
  </way>
  <way id="27267927" version="2" timestamp="2011-01-24T20:49:27Z" uid="43863" user="Rundling" changeset="7077864">
    <nd ref="299301235"/>
    <nd ref="299301237"/>
    <nd ref="299301238"/>
    <nd ref="299301236"/>
    <nd ref="299301235"/>
    <tag k="building" v="yes"/>
  </way>
  <way id="27267928" version="1" timestamp="2008-09-23T15:41:11Z" uid="43863" user="Rundling" changeset="684968">
    <nd ref="299301239"/>
    <nd ref="299301241"/>
    <nd ref="299301242"/>
    <nd ref="299301240"/>
    <nd ref="299301239"/>
    <tag k="addr:city" v="Rosche"/>
    <tag k="addr:housenumber" v="1"/>
    <tag k="addr:postcode" v="29571"/>
    <tag k="addr:street" v="Kurze Straße"/>
    <tag k="building" v="yes"/>
  </way>
  <way id="27267928" version="2" timestamp="2008-09-23T17:07:41Z" uid="43863" user="Rundling" changeset="684968">
    <nd ref="299301239"/>
    <nd ref="299301241"/>
    <nd ref="299301242"/>
    <nd ref="299301240"/>
    <nd ref="299319544"/>
    <nd ref="299319545"/>
    <nd ref="299301239"/>
    <tag k="addr:city" v="Rosche"/>
    <tag k="addr:housenumber" v="1"/>
    <tag k="addr:postcode" v="29571"/>
    <tag k="addr:street" v="Kurze Straße"/>
    <tag k="building" v="yes"/>
  </way>
  <way id="27267928" version="3" timestamp="2008-09-24T07:56:42Z" uid="43863" user="Rundling" changeset="687973">
    <nd ref="299301241"/>
    <nd ref="299301242"/>
    <nd ref="299319544"/>
    <nd ref="299319542"/>
    <nd ref="299410669"/>
    <nd ref="299301241"/>
    <tag k="addr:city" v="Rosche"/>
    <tag k="addr:housenumber" v="1"/>
    <tag k="addr:postcode" v="29571"/>
    <tag k="addr:street" v="Kurze Straße"/>
    <tag k="building" v="yes"/>
  </way>
  <way id="27267928" version="4" timestamp="2008-09-25T08:22:03Z" uid="43863" user="Rundling" changeset="693642">
    <nd ref="299301241"/>
    <nd ref="299301242"/>
    <nd ref="299319544"/>
    <nd ref="299319542"/>
    <nd ref="299319541"/>
    <nd ref="299301241"/>
    <tag k="addr:city" v="Rosche"/>
    <tag k="addr:housenumber" v="1"/>
    <tag k="addr:postcode" v="29571"/>
    <tag k="addr:street" v="Kurze Straße"/>
    <tag k="building" v="yes"/>
  </way>
  <way id="27267928" version="5" timestamp="2008-11-28T19:46:06Z" uid="43863" user="Rundling" changeset="805524">
    <nd ref="299301241"/>
    <nd ref="299301242"/>
    <nd ref="299319544"/>
    <nd ref="315343446"/>
    <nd ref="299301241"/>
    <tag k="addr:city" v="Rosche"/>
    <tag k="addr:housenumber" v="1"/>
    <tag k="addr:postcode" v="29571"/>
    <tag k="addr:street" v="Kurze Straße"/>
    <tag k="building" v="yes"/>
  </way>
  <way id="27267928" version="6" timestamp="2009-01-21T20:59:21Z" uid="43863" user="Rundling" changeset="821635">
    <nd ref="299301241"/>
    <nd ref="299301242"/>
    <nd ref="299319544"/>
    <nd ref="334735704"/>
    <nd ref="334735705"/>
    <nd ref="334735703"/>
    <nd ref="315343446"/>
    <nd ref="299301241"/>
    <tag k="addr:city" v="Rosche"/>
    <tag k="addr:housenumber" v="1"/>
    <tag k="addr:postcode" v="29571"/>
    <tag k="addr:street" v="Kurze Straße"/>
    <tag k="building" v="yes"/>
  </way>
  <way id="27267928" version="7" timestamp="2009-01-22T19:33:51Z" uid="43863" user="Rundling" changeset="824446">
    <nd ref="299301241"/>
    <nd ref="299301242"/>
    <nd ref="299319544"/>
    <nd ref="334735704"/>
    <nd ref="334735705"/>
    <nd ref="334735703"/>
    <nd ref="299301241"/>
    <tag k="addr:city" v="Rosche"/>
    <tag k="addr:housenumber" v="1"/>
    <tag k="addr:postcode" v="29571"/>
    <tag k="addr:street" v="Kurze Straße"/>
    <tag k="building" v="yes"/>
  </way>
  <way id="27267962" version="2" timestamp="2009-11-21T19:35:17Z" uid="9581" user="Lobelt" changeset="3179339">
    <nd ref="299301644"/>
    <nd ref="299301647"/>
    <nd ref="299301649"/>
    <nd ref="299301652"/>
    <nd ref="568047427"/>
    <tag k="highway" v="unclassified"/>
  </way>
</osm>
