<?xml version='1.0' encoding='UTF-8'?>
<osm version="0.6" generator="libosmium/2.20.0">
  <way id="27277007" version="3" timestamp="2009-10-21T16:58:55Z" uid="36809" user="pfoten_weg_!_" changeset="2914205">
    <nd ref="299415225"/>
    <nd ref="299415226"/>
    <nd ref="299415358"/>
    <nd ref="299412556"/>
    <nd ref="299415225"/>
    <tag k="landuse" v="industrial"/>
  </way>
  <way id="27277008" version="3" timestamp="2009-10-21T16:58:57Z" uid="36809" user="pfoten_weg_!_" changeset="2914205">
    <nd ref="299415229"/>
    <nd ref="299415230"/>
    <nd ref="299415231"/>
    <nd ref="299415232"/>
    <nd ref="299415233"/>
    <nd ref="299415235"/>
    <nd ref="299415229"/>
    <tag k="landuse" v="residential"/>
    <tag k="name" v="Żdżary"/>
  </way>
  <way id="27277017" version="3" timestamp="2010-03-26T17:47:00Z" uid="20587" user="balrog-kun" changeset="4238822">
    <nd ref="42781005"/>
    <nd ref="42781014"/>
    <nd ref="42781018"/>
    <nd ref="42781021"/>
    <nd ref="42781024"/>
    <nd ref="42781027"/>
    <nd ref="42781030"/>
    <nd ref="42781033"/>
    <nd ref="42781036"/>
    <nd ref="42781040"/>
    <nd ref="42781043"/>
    <nd ref="42781046"/>
    <nd ref="42781052"/>
    <nd ref="42781056"/>
    <nd ref="42781060"/>
    <nd ref="42781064"/>
    <tag k="highway" v="primary"/>
    <tag k="name" v="South United States Highway 395"/>
    <tag k="name_1" v="South Highway 395"/>
    <tag k="name_2" v="Umatilla-Stanfield Highway"/>
    <tag k="name_3" v="United States Highway 395"/>
    <tag k="ref" v="US 395"/>
    <tag k="tiger:cfcc" v="A21"/>
    <tag k="tiger:county" v="Umatilla, OR"/>
    <tag k="tiger:name_base" v="United States Highway 395"/>
    <tag k="tiger:name_base_1" v="Highway 395"/>
    <tag k="tiger:name_base_2" v="Umatilla-Stanfield"/>
    <tag k="tiger:name_base_3" v="United States Highway 395"/>
    <tag k="tiger:name_direction_prefix" v="S"/>
    <tag k="tiger:name_direction_prefix_1" v="S"/>
    <tag k="tiger:name_type_2" v="Hwy"/>
    <tag k="tiger:reviewed" v="no"/>
    <tag k="tiger:separated" v="no"/>
    <tag k="tiger:source" v="tiger_import_dch_v0.6_20070808"/>
    <tag k="tiger:tlid" v="170393005:170439906:170440746:170440747:170439890:170439891:170439908:170439909"/>
  </way>
  <way id="27277023" version="7" timestamp="2010-03-22T05:42:38Z" uid="20587" user="balrog-kun" changeset="4199043">
    <nd ref="299415256"/>
    <nd ref="299415100"/>
    <nd ref="299415858"/>
    <tag k="highway" v="motorway"/>
    <tag k="name" v="I-84"/>
    <tag k="name_1" v="United States Highway 30"/>
    <tag k="name_2" v="Old Oregon Trail Highway"/>
    <tag k="oneway" v="yes"/>
    <tag k="ref" v="I 84;US 30"/>
    <tag k="tiger:cfcc" v="A11"/>
    <tag k="tiger:county" v="Umatilla, OR"/>
    <tag k="tiger:name_base" v="I-84"/>
    <tag k="tiger:name_base_1" v="United States Highway 30"/>
    <tag k="tiger:name_base_2" v="Old Oregon Trail"/>
    <tag k="tiger:name_type_2" v="Hwy"/>
  </way>
  <way id="27277037" version="5" timestamp="2009-07-09T08:48:19Z" uid="4467" user="Rosscoe" changeset="1779026">
    <nd ref="299415760"/>
    <nd ref="299415759"/>
    <nd ref="299415758"/>
    <nd ref="299415759"/>
    <nd ref="299415760"/>
    <tag k="created_by" v="OSM Fixer"/>
    <tag k="highway" v="residential"/>
    <tag k="name" v="Coles Street"/>
  </way>
  <way id="27277037" version="6" timestamp="2009-07-11T11:47:58Z" uid="4467" user="Rosscoe" changeset="1796332">
    <nd ref="299415760"/>
    <nd ref="299415758"/>
    <tag k="created_by" v="OSM Fixer"/>
    <tag k="highway" v="residential"/>
    <tag k="name" v="Coles Street"/>
  </way>
  <way id="27277043" version="19" timestamp="2010-03-22T05:42:39Z" uid="20587" user="balrog-kun" changeset="4199043">
    <nd ref="299415856"/>
    <nd ref="299416222"/>
    <nd ref="299418142"/>
    <nd ref="299416225"/>
    <nd ref="299416519"/>
    <nd ref="299416568"/>
    <nd ref="299416569"/>
    <nd ref="299417003"/>
    <nd ref="299417032"/>
    <nd ref="299417056"/>
    <nd ref="299417034"/>
    <nd ref="299417057"/>
    <nd ref="299417179"/>
    <nd ref="299417653"/>
    <nd ref="299417722"/>
    <nd ref="299418157"/>
    <nd ref="299417724"/>
    <nd ref="299418144"/>
    <nd ref="299418187"/>
    <nd ref="299418276"/>
    <nd ref="42634333"/>
    <tag k="highway" v="motorway"/>
    <tag k="name" v="I-84"/>
    <tag k="name_1" v="United States Highway 30"/>
    <tag k="name_2" v="Old Oregon Trail Highway"/>
    <tag k="oneway" v="yes"/>
    <tag k="ref" v="I 84;US 30"/>
    <tag k="source" v="gps"/>
    <tag k="tiger:cfcc" v="A11"/>
    <tag k="tiger:county" v="Umatilla, OR"/>
    <tag k="tiger:name_base" v="I-84"/>
    <tag k="tiger:name_base_1" v="United States Highway 30"/>
    <tag k="tiger:name_base_2" v="Old Oregon Trail"/>
    <tag k="tiger:name_type_2" v="Hwy"/>
  </way>
  <way id="27277046" version="5" timestamp="2010-03-22T05:42:39Z" uid="20587" user="balrog-kun" changeset="4199043">
    <nd ref="299415858"/>
    <nd ref="299415856"/>
    <tag k="bridge" v="yes"/>
    <tag k="highway" v="motorway"/>
    <tag k="layer" v="1"/>
    <tag k="name" v="I-84"/>
    <tag k="name_1" v="United States Highway 30"/>
    <tag k="name_2" v="Old Oregon Trail Highway"/>
    <tag k="ref" v="I 84;US 30"/>
    <tag k="tiger:cfcc" v="A11"/>
    <tag k="tiger:county" v="Umatilla, OR"/>
    <tag k="tiger:name_base" v="I-84"/>
    <tag k="tiger:name_base_1" v="United States Highway 30"/>
    <tag k="tiger:name_base_2" v="Old Oregon Trail"/>
    <tag k="tiger:name_type_2" v="Hwy"/>
  </way>
  <way id="27277050" version="10" timestamp="2010-03-26T17:47:00Z" uid="20587" user="balrog-kun" changeset="4238822">
    <nd ref="42798796"/>
    <nd ref="42798779"/>
    <nd ref="42561746"/>
    <nd ref="42798772"/>
    <tag k="highway" v="motorway"/>
    <tag k="is_in" v="Umatilla, OR"/>
    <tag k="name" v="Interstate 84"/>
    <tag k="name_1" v="United States Route 30"/>
    <tag k="name_2" v="Old Oregon Trail Highway"/>
    <tag k="oneway" v="yes"/>
    <tag k="ref" v="I 84;US 30"/>
    <tag k="source" v="Yahoo,TIGER"/>
  </way>
  <way id="27277058" version="5" timestamp="2010-03-22T05:42:39Z" uid="20587" user="balrog-kun" changeset="4199043">
    <nd ref="299416008"/>
    <nd ref="42798796"/>
    <tag k="bridge" v="yes"/>
    <tag k="highway" v="motorway"/>
    <tag k="layer" v="1"/>
    <tag k="name" v="I-84"/>
    <tag k="name_1" v="United States Highway 30"/>
    <tag k="name_2" v="Old Oregon Trail Highway"/>
    <tag k="ref" v="I 84;US 30"/>
    <tag k="tiger:cfcc" v="A11"/>
    <tag k="tiger:county" v="Umatilla, OR"/>
    <tag k="tiger:name_base" v="I-84"/>
    <tag k="tiger:name_base_1" v="United States Highway 30"/>
    <tag k="tiger:name_base_2" v="Old Oregon Trail"/>
    <tag k="tiger:name_type_2" v="Hwy"/>
    <tag k="tiger:separated" v="no"/>
    <tag k="tiger:source" v="tiger_import_dch_v0.6_20070808"/>
    <tag k="tiger:tlid" v="170390012:170390023:170390025:170434074:170434076:170434090:170390031:170391510:170444234:170391628"/>
  </way>
  <way id="27277073" version="5" timestamp="2009-01-11T11:28:51Z" uid="27600" user="Islanit" changeset="770511">
    <nd ref="299207960"/>
    <nd ref="331166233"/>
    <nd ref="299329655"/>
    <nd ref="299329726"/>
    <nd ref="299329195"/>
    <nd ref="299329657"/>
    <nd ref="299329176"/>
    <tag k="created_by" v="Potlatch 0.10f"/>
    <tag k="cycleway" v="track"/>
    <tag k="highway" v="secondary"/>
    <tag k="lanes" v="3"/>
    <tag k="name" v="Schäferkampsallee"/>
    <tag k="oneway" v="yes"/>
    <tag k="postal_code" v="20357"/>
  </way>
  <way id="27277089" version="11" timestamp="2009-07-11T12:41:26Z" uid="4467" user="Rosscoe" changeset="1796847">
    <nd ref="366754650"/>
    <nd ref="299419134"/>
    <nd ref="299416379"/>
    <nd ref="299419133"/>
    <nd ref="299416380"/>
    <nd ref="366753827"/>
    <nd ref="366753828"/>
    <nd ref="366753829"/>
    <nd ref="366753831"/>
    <nd ref="366753832"/>
    <nd ref="366753833"/>
    <nd ref="366753834"/>
    <nd ref="366753835"/>
    <nd ref="440115735"/>
    <nd ref="366753836"/>
    <nd ref="366753837"/>
    <nd ref="366753838"/>
    <nd ref="366753839"/>
    <nd ref="366753841"/>
    <nd ref="366753842"/>
    <nd ref="366753843"/>
    <nd ref="364946198"/>
    <tag k="created_by" v="Potlatch 0.10f"/>
    <tag k="highway" v="unclassified"/>
    <tag k="name" v="Allans road"/>
  </way>
  <way id="27277111" version="2" timestamp="2009-07-11T12:05:51Z" uid="4467" user="Rosscoe" changeset="1796490">
    <nd ref="299416499"/>
    <nd ref="373070291"/>
    <nd ref="299416501"/>
    <tag k="created_by" v="Potlatch 0.10b"/>
    <tag k="highway" v="unclassified"/>
  </way>
  <way id="27277120" version="11" timestamp="2009-07-09T08:42:33Z" uid="4467" user="Rosscoe" changeset="1778994">
    <nd ref="301509801"/>
    <nd ref="369915730"/>
    <nd ref="369915619"/>
    <nd ref="369915579"/>
    <nd ref="369915479"/>
    <nd ref="369915420"/>
    <nd ref="299416548"/>
    <tag k="created_by" v="Potlatch 0.10f"/>
    <tag k="highway" v="unclassified"/>
    <tag k="name" v="Sandlewood Avenue East"/>
  </way>
  <way id="27277122" version="4" timestamp="2010-03-22T05:42:40Z" uid="20587" user="balrog-kun" changeset="4199043">
    <nd ref="42798820"/>
    <nd ref="42970028"/>
    <tag k="bridge" v="yes"/>
    <tag k="created_by" v="Potlatch 0.10b"/>
    <tag k="highway" v="residential"/>
    <tag k="name" v="Echo Meadows Road"/>
    <tag k="tiger:cfcc" v="A41"/>
    <tag k="tiger:county" v="Umatilla, OR"/>
    <tag k="tiger:name_base" v="Echo Meadows"/>
    <tag k="tiger:name_type" v="Rd"/>
    <tag k="tiger:reviewed" v="no"/>
    <tag k="tiger:separated" v="no"/>
    <tag k="tiger:source" v="tiger_import_dch_v0.6_20070808"/>
    <tag k="tiger:tlid" v="170393027:170429116"/>
    <tag k="tiger:zip_left" v="97875"/>
    <tag k="tiger:zip_right" v="97875"/>
  </way>
  <way id="27277123" version="2" timestamp="2010-03-22T05:42:40Z" uid="20587" user="balrog-kun" changeset="4199043">
    <nd ref="42970028"/>
    <nd ref="42805390"/>
    <nd ref="42923032"/>
    <tag k="created_by" v="Potlatch 0.10b"/>
    <tag k="highway" v="residential"/>
    <tag k="name" v="Echo Meadows Road"/>
    <tag k="tiger:cfcc" v="A41"/>
    <tag k="tiger:county" v="Umatilla, OR"/>
    <tag k="tiger:name_base" v="Echo Meadows"/>
    <tag k="tiger:name_type" v="Rd"/>
    <tag k="tiger:reviewed" v="no"/>
    <tag k="tiger:separated" v="no"/>
    <tag k="tiger:source" v="tiger_import_dch_v0.6_20070808"/>
    <tag k="tiger:tlid" v="170393027:170429116"/>
    <tag k="tiger:zip_left" v="97875"/>
    <tag k="tiger:zip_right" v="97875"/>
  </way>
  <way id="27277138" version="4" timestamp="2009-09-18T01:49:11Z" uid="30201" user="rrankin" changeset="2519144">
    <nd ref="299416686"/>
    <nd ref="299416625"/>
    <nd ref="499781304"/>
    <nd ref="299418393"/>
    <nd ref="299416627"/>
    <nd ref="299416628"/>
    <nd ref="299416688"/>
    <nd ref="299418394"/>
    <tag k="highway" v="residential"/>
    <tag k="name" v="-incomplete"/>
    <tag k="surface" v="unpaved"/>
  </way>
  <way id="27277138" version="5" timestamp="2009-09-19T23:00:26Z" uid="30201" user="rrankin" changeset="2539851">
    <nd ref="299416686"/>
    <nd ref="299416625"/>
    <nd ref="499781304"/>
    <nd ref="299418393"/>
    <nd ref="299416627"/>
    <nd ref="299416628"/>
    <nd ref="299416688"/>
    <nd ref="299418394"/>
    <tag k="highway" v="unclassified"/>
    <tag k="name" v="Old Bunya Road"/>
    <tag k="surface" v="unpaved"/>
  </way>
  <way id="27277225" version="1" timestamp="2008-09-24T08:46:35Z" uid="43863" user="Rundling" changeset="687973">
    <nd ref="299417019"/>
    <nd ref="299417020"/>
    <nd ref="299417021"/>
    <nd ref="299417022"/>
    <nd ref="299417019"/>
    <tag k="addr:city" v="Rosche"/>
    <tag k="addr:housenumber" v="2"/>
    <tag k="addr:postcode" v="29571"/>
    <tag k="addr:street" v="Im Winkel"/>
    <tag k="building" v="yes"/>
    <tag k="created_by" v="Merkaartor 0.11"/>
  </way>
  <way id="27277225" version="2" timestamp="2008-09-25T08:22:03Z" uid="43863" user="Rundling" changeset="693642">
    <nd ref="299417017"/>
    <nd ref="299417020"/>
    <nd ref="299417021"/>
    <nd ref="280179097"/>
    <nd ref="299417017"/>
    <tag k="addr:city" v="Rosche"/>
    <tag k="addr:housenumber" v="2"/>
    <tag k="addr:postcode" v="29571"/>
    <tag k="addr:street" v="Im Winkel"/>
    <tag k="building" v="yes"/>
    <tag k="created_by" v="Merkaartor 0.11"/>
  </way>
  <way id="27277225" version="3" timestamp="2011-03-20T16:37:27Z" uid="43863" user="Rundling" changeset="7618548"/>
  <way id="27277256" version="12" timestamp="2009-10-11T12:08:28Z" uid="74617" user="JohnSmith" changeset="2813588">
    <nd ref="519656825"/>
    <nd ref="519656826"/>
    <nd ref="519656827"/>
    <nd ref="519656829"/>
    <nd ref="519656830"/>
    <nd ref="519656831"/>
    <nd ref="519656832"/>
    <nd ref="299417718"/>
    <nd ref="299417341"/>
    <nd ref="528782988"/>
    <nd ref="528782989"/>
    <nd ref="528782990"/>
    <nd ref="299417342"/>
    <nd ref="299417343"/>
    <nd ref="299417344"/>
    <nd ref="299417345"/>
    <nd ref="299417346"/>
    <nd ref="299417719"/>
    <nd ref="299417348"/>
    <nd ref="299417349"/>
    <nd ref="299417350"/>
    <nd ref="299417351"/>
    <nd ref="299417352"/>
    <nd ref="519657777"/>
    <nd ref="519657930"/>
    <nd ref="519657778"/>
    <nd ref="519657795"/>
    <nd ref="519657779"/>
    <nd ref="519657780"/>
    <nd ref="299417720"/>
    <nd ref="496714325"/>
    <nd ref="496714354"/>
    <nd ref="496714357"/>
    <nd ref="496714360"/>
    <nd ref="496714361"/>
    <nd ref="496714362"/>
    <nd ref="519659386"/>
    <nd ref="519659389"/>
    <nd ref="519659391"/>
    <nd ref="519659392"/>
    <nd ref="519659393"/>
    <nd ref="519659395"/>
    <nd ref="519659397"/>
    <nd ref="519659398"/>
    <nd ref="519659400"/>
    <nd ref="519659402"/>
    <nd ref="519659404"/>
    <nd ref="519659406"/>
    <nd ref="519659408"/>
    <nd ref="519659410"/>
    <nd ref="519659412"/>
    <nd ref="519659414"/>
    <nd ref="519659415"/>
    <nd ref="519659416"/>
    <nd ref="519659417"/>
    <nd ref="519659419"/>
    <nd ref="519659421"/>
    <nd ref="519659422"/>
    <nd ref="519659424"/>
    <nd ref="519659426"/>
    <nd ref="519659428"/>
    <nd ref="519659430"/>
    <nd ref="519659431"/>
    <nd ref="519659432"/>
    <nd ref="519659433"/>
    <nd ref="519659434"/>
    <nd ref="519659435"/>
    <nd ref="519659436"/>
    <nd ref="519659438"/>
    <nd ref="519659439"/>
    <nd ref="519659440"/>
    <nd ref="519659441"/>
    <nd ref="519659442"/>
    <nd ref="519659443"/>
    <nd ref="519659444"/>
    <nd ref="519659445"/>
    <nd ref="519659446"/>
    <nd ref="519659447"/>
    <nd ref="519659448"/>
    <nd ref="519659450"/>
    <nd ref="519659451"/>
    <nd ref="519659452"/>
    <nd ref="519659453"/>
    <nd ref="519659454"/>
    <nd ref="519659455"/>
    <nd ref="519659456"/>
    <nd ref="519659457"/>
    <nd ref="519659459"/>
    <nd ref="519659460"/>
    <nd ref="519659461"/>
    <nd ref="519659462"/>
    <nd ref="519659463"/>
    <nd ref="519659464"/>
    <nd ref="519659465"/>
    <nd ref="519659466"/>
    <nd ref="519659467"/>
    <nd ref="519659468"/>
    <nd ref="519659469"/>
    <nd ref="519659470"/>
    <nd ref="519659471"/>
    <nd ref="519659472"/>
    <nd ref="519659474"/>
    <nd ref="519659475"/>
    <nd ref="519659476"/>
    <nd ref="519659477"/>
    <nd ref="519659478"/>
    <nd ref="519659479"/>
    <nd ref="519659480"/>
    <nd ref="519659481"/>
    <nd ref="519659482"/>
    <nd ref="519659483"/>
    <nd ref="519659484"/>
    <nd ref="519659485"/>
    <nd ref="519659486"/>
    <nd ref="519659487"/>
    <nd ref="519659488"/>
    <nd ref="519659489"/>
    <nd ref="519659490"/>
    <nd ref="519659491"/>
    <nd ref="519659492"/>
    <nd ref="519659493"/>
    <nd ref="519659494"/>
    <nd ref="519659495"/>
    <nd ref="519659496"/>
    <nd ref="519659497"/>
    <nd ref="519659498"/>
    <nd ref="519659499"/>
    <nd ref="519659500"/>
    <nd ref="519659501"/>
    <nd ref="519659502"/>
    <nd ref="519659503"/>
    <nd ref="519659504"/>
    <nd ref="519659505"/>
    <nd ref="519659506"/>
    <nd ref="519659507"/>
    <nd ref="519659508"/>
    <nd ref="519659509"/>
    <nd ref="519659510"/>
    <nd ref="519659511"/>
    <nd ref="519659512"/>
    <nd ref="519659513"/>
    <nd ref="519659595"/>
    <nd ref="519659599"/>
    <nd ref="519659607"/>
    <nd ref="519659608"/>
    <nd ref="519659609"/>
    <nd ref="519659610"/>
    <nd ref="519659611"/>
    <nd ref="519659612"/>
    <nd ref="519659765"/>
    <nd ref="519659767"/>
    <nd ref="519659769"/>
    <nd ref="519659772"/>
    <tag k="highway" v="tertiary"/>
    <tag k="name" v="Warra-Kogan Rd"/>
    <tag k="ref" v="S3403"/>
  </way>
  <way id="27277256" version="23" timestamp="2010-06-02T02:52:21Z" uid="4467" user="Rosscoe" changeset="4880267">
    <nd ref="519656825"/>
    <nd ref="519656826"/>
    <nd ref="519656827"/>
    <nd ref="519656829"/>
    <nd ref="519656830"/>
    <nd ref="519656831"/>
    <nd ref="519656832"/>
    <nd ref="299417718"/>
    <nd ref="299417341"/>
    <nd ref="528782988"/>
    <nd ref="528782989"/>
    <nd ref="528782990"/>
    <nd ref="299417342"/>
    <nd ref="299417343"/>
    <nd ref="299417344"/>
    <nd ref="299417345"/>
    <nd ref="299417346"/>
    <nd ref="299417719"/>
    <nd ref="536480211"/>
    <nd ref="536480215"/>
    <nd ref="536480216"/>
    <nd ref="536480465"/>
    <nd ref="536480467"/>
    <nd ref="536480217"/>
    <nd ref="536480468"/>
    <nd ref="536480470"/>
    <nd ref="299417348"/>
    <nd ref="536480568"/>
    <nd ref="536480569"/>
    <nd ref="299417349"/>
    <nd ref="299417350"/>
    <nd ref="536480865"/>
    <nd ref="536480866"/>
    <nd ref="536480868"/>
    <nd ref="299417351"/>
    <nd ref="536481517"/>
    <nd ref="536481520"/>
    <nd ref="536481523"/>
    <nd ref="536481525"/>
    <nd ref="299417352"/>
    <nd ref="519657777"/>
    <nd ref="519657930"/>
    <nd ref="519657778"/>
    <nd ref="519657795"/>
    <nd ref="519657779"/>
    <nd ref="519657780"/>
    <nd ref="536481700"/>
    <nd ref="536482717"/>
    <nd ref="536481702"/>
    <nd ref="536482718"/>
    <nd ref="299417720"/>
    <nd ref="536482727"/>
    <nd ref="536481704"/>
    <nd ref="536481707"/>
    <nd ref="536481711"/>
    <nd ref="496714325"/>
    <nd ref="536481715"/>
    <nd ref="496714354"/>
    <nd ref="536481719"/>
    <nd ref="536481721"/>
    <nd ref="496714357"/>
    <nd ref="536481732"/>
    <nd ref="496714360"/>
    <nd ref="536482193"/>
    <nd ref="496714361"/>
    <nd ref="536482294"/>
    <nd ref="496714362"/>
    <nd ref="519659386"/>
    <nd ref="519659389"/>
    <nd ref="519659391"/>
    <nd ref="519659392"/>
    <nd ref="519659393"/>
    <nd ref="519659395"/>
    <nd ref="519659397"/>
    <nd ref="519659398"/>
    <nd ref="519659400"/>
    <nd ref="519659402"/>
    <nd ref="519659404"/>
    <nd ref="519659406"/>
    <nd ref="519659408"/>
    <nd ref="519659410"/>
    <nd ref="519659412"/>
    <nd ref="519659414"/>
    <nd ref="519659415"/>
    <nd ref="519659416"/>
    <nd ref="519659417"/>
    <nd ref="519659419"/>
    <nd ref="519659421"/>
    <nd ref="519659422"/>
    <nd ref="519659424"/>
    <nd ref="519659426"/>
    <nd ref="519659428"/>
    <nd ref="519659430"/>
    <nd ref="519659431"/>
    <nd ref="519659432"/>
    <nd ref="519659433"/>
    <nd ref="519659434"/>
    <nd ref="519659435"/>
    <nd ref="519659436"/>
    <nd ref="519659438"/>
    <nd ref="519659439"/>
    <nd ref="519659440"/>
    <nd ref="519659441"/>
    <nd ref="519659442"/>
    <nd ref="519659443"/>
    <nd ref="519659444"/>
    <nd ref="519659445"/>
    <nd ref="519659446"/>
    <nd ref="519659447"/>
    <nd ref="519659448"/>
    <nd ref="519659450"/>
    <nd ref="519659451"/>
    <nd ref="519659452"/>
    <nd ref="519659453"/>
    <nd ref="519659454"/>
    <nd ref="519659455"/>
    <nd ref="519659456"/>
    <nd ref="519659457"/>
    <nd ref="519659459"/>
    <nd ref="519659460"/>
    <nd ref="519659461"/>
    <nd ref="519659462"/>
    <nd ref="519659463"/>
    <nd ref="519659464"/>
    <nd ref="519659465"/>
    <nd ref="519659466"/>
    <nd ref="519659467"/>
    <nd ref="519659468"/>
    <nd ref="519659469"/>
    <nd ref="519659470"/>
    <nd ref="519659471"/>
    <nd ref="519659472"/>
    <nd ref="519659474"/>
    <nd ref="519659475"/>
    <nd ref="519659476"/>
    <nd ref="519659477"/>
    <nd ref="519659478"/>
    <nd ref="519659479"/>
    <nd ref="519659480"/>
    <nd ref="519659481"/>
    <nd ref="519659482"/>
    <nd ref="519659483"/>
    <nd ref="519659484"/>
    <nd ref="519659485"/>
    <nd ref="519659486"/>
    <nd ref="519659487"/>
    <nd ref="519659488"/>
    <nd ref="519659489"/>
    <nd ref="519659490"/>
    <nd ref="519659491"/>
    <nd ref="519659492"/>
    <nd ref="519659493"/>
    <nd ref="519659494"/>
    <nd ref="519659495"/>
    <nd ref="519659496"/>
    <nd ref="519659497"/>
    <nd ref="519659498"/>
    <nd ref="519659499"/>
    <nd ref="519659500"/>
    <nd ref="519659501"/>
    <nd ref="519659502"/>
    <nd ref="519659503"/>
    <nd ref="519659504"/>
    <nd ref="519659505"/>
    <nd ref="519659506"/>
    <nd ref="519659507"/>
    <nd ref="519659508"/>
    <nd ref="519659509"/>
    <nd ref="519659510"/>
    <nd ref="519659511"/>
    <nd ref="519659512"/>
    <nd ref="519659513"/>
    <nd ref="519659595"/>
    <nd ref="519659599"/>
    <nd ref="519659607"/>
    <nd ref="519659608"/>
    <nd ref="519659609"/>
    <nd ref="519659610"/>
    <nd ref="519659611"/>
    <nd ref="519659612"/>
    <nd ref="519659765"/>
    <nd ref="519659767"/>
    <nd ref="519659769"/>
    <nd ref="519659772"/>
    <tag k="highway" v="tertiary"/>
    <tag k="name" v="Warra-Kogan Road"/>
    <tag k="ref" v="S3403"/>
    <tag k="source" v="survey"/>
  </way>
  <way id="27277256" version="24" timestamp="2010-06-24T15:49:46Z" uid="74617" user="JohnSmith" changeset="5066657">
    <nd ref="519656825"/>
    <nd ref="519656826"/>
    <nd ref="519656827"/>
    <nd ref="519656829"/>
    <nd ref="519656830"/>
    <nd ref="519656831"/>
    <nd ref="519656832"/>
    <nd ref="299417718"/>
    <nd ref="299417341"/>
    <nd ref="528782988"/>
    <nd ref="528782989"/>
    <nd ref="528782990"/>
    <nd ref="299417342"/>
    <nd ref="299417343"/>
    <nd ref="299417344"/>
    <nd ref="299417345"/>
    <nd ref="299417346"/>
    <nd ref="299417719"/>
    <nd ref="536480211"/>
    <nd ref="536480215"/>
    <nd ref="536480216"/>
    <nd ref="536480465"/>
    <nd ref="536480467"/>
    <nd ref="536480217"/>
    <nd ref="536480468"/>
    <nd ref="536480470"/>
    <nd ref="299417348"/>
    <nd ref="536480568"/>
    <nd ref="536480569"/>
    <nd ref="299417349"/>
    <nd ref="299417350"/>
    <nd ref="536480865"/>
    <nd ref="536480866"/>
    <nd ref="536480868"/>
    <nd ref="299417351"/>
    <nd ref="536481517"/>
    <nd ref="536481520"/>
    <nd ref="536481523"/>
    <nd ref="536481525"/>
    <nd ref="299417352"/>
    <nd ref="519657777"/>
    <nd ref="519657930"/>
    <nd ref="519657778"/>
    <nd ref="519657795"/>
    <nd ref="519657779"/>
    <nd ref="519657780"/>
    <nd ref="536481700"/>
    <nd ref="536482717"/>
    <nd ref="536481702"/>
    <nd ref="536482718"/>
    <nd ref="299417720"/>
    <nd ref="536482727"/>
    <nd ref="536481704"/>
    <nd ref="536481707"/>
    <nd ref="536481711"/>
    <nd ref="496714325"/>
    <nd ref="536481715"/>
    <nd ref="496714354"/>
    <nd ref="536481719"/>
    <nd ref="536481721"/>
    <nd ref="496714357"/>
    <nd ref="536481732"/>
    <nd ref="496714360"/>
    <nd ref="536482193"/>
    <nd ref="496714361"/>
    <nd ref="536482294"/>
    <nd ref="496714362"/>
    <nd ref="519659386"/>
    <nd ref="519659389"/>
    <nd ref="519659391"/>
    <nd ref="519659392"/>
    <nd ref="519659393"/>
    <nd ref="519659395"/>
    <nd ref="519659397"/>
    <nd ref="519659398"/>
    <nd ref="519659400"/>
    <nd ref="519659402"/>
    <nd ref="519659404"/>
    <nd ref="519659406"/>
    <nd ref="519659408"/>
    <nd ref="519659410"/>
    <nd ref="519659412"/>
    <nd ref="519659414"/>
    <nd ref="519659415"/>
    <nd ref="519659416"/>
    <nd ref="519659417"/>
    <nd ref="519659419"/>
    <nd ref="519659421"/>
    <nd ref="519659422"/>
    <nd ref="519659424"/>
    <nd ref="519659426"/>
    <nd ref="519659428"/>
    <nd ref="519659430"/>
    <nd ref="519659431"/>
    <nd ref="519659432"/>
    <nd ref="519659433"/>
    <nd ref="519659434"/>
    <nd ref="519659435"/>
    <nd ref="519659436"/>
    <nd ref="519659438"/>
    <nd ref="519659439"/>
    <nd ref="519659440"/>
    <nd ref="519659441"/>
    <nd ref="519659442"/>
    <nd ref="519659443"/>
    <nd ref="519659444"/>
    <nd ref="519659445"/>
    <nd ref="519659446"/>
    <nd ref="519659447"/>
    <nd ref="519659448"/>
    <nd ref="519659450"/>
    <nd ref="519659451"/>
    <nd ref="519659452"/>
    <nd ref="519659453"/>
    <nd ref="519659454"/>
    <nd ref="519659455"/>
    <nd ref="519659456"/>
    <nd ref="519659457"/>
    <nd ref="519659459"/>
    <nd ref="519659460"/>
    <nd ref="519659461"/>
    <nd ref="519659462"/>
    <nd ref="519659463"/>
    <nd ref="519659464"/>
    <nd ref="519659465"/>
    <nd ref="519659466"/>
    <nd ref="519659467"/>
    <nd ref="519659468"/>
    <nd ref="519659469"/>
    <nd ref="519659470"/>
    <nd ref="519659471"/>
    <nd ref="519659472"/>
    <nd ref="519659474"/>
    <nd ref="519659475"/>
    <nd ref="519659476"/>
    <nd ref="519659477"/>
    <nd ref="519659478"/>
    <nd ref="519659479"/>
    <nd ref="519659480"/>
    <nd ref="519659481"/>
    <nd ref="519659482"/>
    <nd ref="519659483"/>
    <nd ref="519659484"/>
    <nd ref="519659485"/>
    <nd ref="519659486"/>
    <nd ref="519659487"/>
    <nd ref="519659488"/>
    <nd ref="519659489"/>
    <nd ref="519659490"/>
    <nd ref="519659491"/>
    <nd ref="519659492"/>
    <nd ref="519659493"/>
    <nd ref="519659494"/>
    <nd ref="519659495"/>
    <nd ref="519659496"/>
    <nd ref="519659497"/>
    <nd ref="519659498"/>
    <nd ref="519659499"/>
    <nd ref="519659500"/>
    <nd ref="519659501"/>
    <nd ref="519659502"/>
    <nd ref="519659503"/>
    <nd ref="519659504"/>
    <nd ref="519659505"/>
    <nd ref="519659506"/>
    <nd ref="519659507"/>
    <nd ref="519659508"/>
    <nd ref="519659509"/>
    <nd ref="519659510"/>
    <nd ref="519659511"/>
    <nd ref="519659512"/>
    <nd ref="519659513"/>
    <nd ref="519659595"/>
    <nd ref="519659599"/>
    <nd ref="519659607"/>
    <nd ref="519659608"/>
    <nd ref="519659609"/>
    <nd ref="519659610"/>
    <nd ref="519659611"/>
    <nd ref="519659612"/>
    <nd ref="519659765"/>
    <nd ref="519659767"/>
    <nd ref="519659769"/>
    <nd ref="519659772"/>
    <tag k="highway" v="tertiary"/>
    <tag k="name" v="Warra-Kogan Road"/>
    <tag k="operator" v="mainroads.qld.gov.au"/>
    <tag k="ref" v="S3403"/>
    <tag k="source" v="survey"/>
  </way>
  <way id="27277286" version="2" timestamp="2010-03-22T05:42:40Z" uid="20587" user="balrog-kun" changeset="4199043">
    <nd ref="299417532"/>
    <nd ref="42971415"/>
    <nd ref="42561246"/>
    <nd ref="42923026"/>
    <nd ref="42971424"/>
    <nd ref="42971428"/>
    <nd ref="42878029"/>
    <nd ref="42971433"/>
    <nd ref="42626105"/>
    <nd ref="42560986"/>
    <nd ref="42560134"/>
    <nd ref="42762589"/>
    <tag k="created_by" v="Potlatch 0.10b"/>
    <tag k="highway" v="secondary"/>
    <tag k="name" v="Hermiston Highway"/>
    <tag k="name_1" v="Highway 207"/>
    <tag k="name_2" v="State Highway 207"/>
    <tag k="tiger:cfcc" v="A31"/>
    <tag k="tiger:county" v="Umatilla, OR"/>
    <tag k="tiger:name_base" v="Hermiston"/>
    <tag k="tiger:name_base_1" v="Highway 207"/>
    <tag k="tiger:name_base_2" v="State Highway 207"/>
    <tag k="tiger:name_type" v="Hwy"/>
    <tag k="tiger:reviewed" v="no"/>
    <tag k="tiger:separated" v="no"/>
    <tag k="tiger:source" v="tiger_import_dch_v0.6_20070808"/>
    <tag k="tiger:tlid" v="170391191:170391402:170391213:170391254:170391258:170391266:170391227:170391271:170391277:170391938"/>
  </way>
  <way id="27277287" version="1" timestamp="2008-09-24T08:48:47Z" uid="43863" user="Rundling" changeset="687973">
    <nd ref="299417533"/>
    <nd ref="299417534"/>
    <nd ref="299417535"/>
    <nd ref="299417536"/>
    <nd ref="299417533"/>
    <tag k="created_by" v="Merkaartor 0.11"/>
  </way>
  <way id="27277287" version="2" timestamp="2008-09-24T08:51:03Z" uid="43863" user="Rundling" changeset="687973">
    <nd ref="299417533"/>
    <nd ref="299417534"/>
    <nd ref="299417535"/>
    <nd ref="299417536"/>
    <nd ref="299417533"/>
    <tag k="addr:city" v="Rosche"/>
    <tag k="addr:housenumber" v="2"/>
    <tag k="addr:postcode" v="29571"/>
    <tag k="addr:street" v="Wiesengrund"/>
    <tag k="building" v="yes"/>
    <tag k="created_by" v="Merkaartor 0.11"/>
  </way>
  <way id="27277287" version="3" timestamp="2008-09-26T06:30:55Z" uid="43863" user="Rundling" changeset="698643"/>
  <way id="27277288" version="3" timestamp="2010-03-22T05:42:40Z" uid="20587" user="balrog-kun" changeset="4199043">
    <nd ref="299417537"/>
    <nd ref="299417532"/>
    <tag k="bridge" v="yes"/>
    <tag k="created_by" v="Potlatch 0.10b"/>
    <tag k="highway" v="secondary"/>
    <tag k="layer" v="1"/>
    <tag k="name" v="Hermiston Highway"/>
    <tag k="name_1" v="Highway 207"/>
    <tag k="name_2" v="State Highway 207"/>
    <tag k="tiger:cfcc" v="A31"/>
    <tag k="tiger:county" v="Umatilla, OR"/>
    <tag k="tiger:name_base" v="Hermiston"/>
    <tag k="tiger:name_base_1" v="Highway 207"/>
    <tag k="tiger:name_base_2" v="State Highway 207"/>
    <tag k="tiger:name_type" v="Hwy"/>
    <tag k="tiger:reviewed" v="no"/>
    <tag k="tiger:separated" v="no"/>
    <tag k="tiger:source" v="tiger_import_dch_v0.6_20070808"/>
    <tag k="tiger:tlid" v="170391191:170391402:170391213:170391254:170391258:170391266:170391227:170391271:170391277:170391938"/>
  </way>
  <way id="27277289" version="1" timestamp="2008-09-24T08:48:48Z" uid="43863" user="Rundling" changeset="687973">
    <nd ref="299417539"/>
    <nd ref="299417540"/>
    <nd ref="299417541"/>
    <nd ref="299417543"/>
    <nd ref="299417539"/>
    <tag k="created_by" v="Merkaartor 0.11"/>
  </way>
  <way id="27277289" version="2" timestamp="2008-09-24T08:51:04Z" uid="43863" user="Rundling" changeset="687973">
    <nd ref="299417539"/>
    <nd ref="299417540"/>
    <nd ref="299417541"/>
    <nd ref="299417543"/>
    <nd ref="299417539"/>
    <tag k="addr:city" v="Rosche"/>
    <tag k="addr:housenumber" v="4"/>
    <tag k="addr:postcode" v="29571"/>
    <tag k="addr:street" v="Wiesengrund"/>
    <tag k="building" v="yes"/>
    <tag k="created_by" v="Merkaartor 0.11"/>
  </way>
  <way id="27277289" version="3" timestamp="2008-09-26T06:30:56Z" uid="43863" user="Rundling" changeset="698643"/>
  <way id="27277290" version="1" timestamp="2008-09-24T08:48:52Z" uid="43863" user="Rundling" changeset="687973">
    <nd ref="299417544"/>
    <nd ref="299417545"/>
    <nd ref="299417546"/>
    <nd ref="299417547"/>
    <nd ref="299417544"/>
    <tag k="created_by" v="Merkaartor 0.11"/>
  </way>
  <way id="27277290" version="2" timestamp="2008-09-24T08:51:04Z" uid="43863" user="Rundling" changeset="687973">
    <nd ref="299417544"/>
    <nd ref="299417545"/>
    <nd ref="299417546"/>
    <nd ref="299417547"/>
    <nd ref="299417544"/>
    <tag k="addr:city" v="Rosche"/>
    <tag k="addr:housenumber" v="1"/>
    <tag k="addr:postcode" v="29571"/>
    <tag k="addr:street" v="Wiesengrund"/>
    <tag k="building" v="yes"/>
    <tag k="created_by" v="Merkaartor 0.11"/>
  </way>
  <way id="27277290" version="3" timestamp="2008-09-26T06:30:56Z" uid="43863" user="Rundling" changeset="698643"/>
  <way id="27277291" version="1" timestamp="2008-09-24T08:48:52Z" uid="43863" user="Rundling" changeset="687973">
    <nd ref="299417550"/>
    <nd ref="299417551"/>
    <nd ref="299417552"/>
    <nd ref="299417553"/>
    <nd ref="299417550"/>
    <tag k="created_by" v="Merkaartor 0.11"/>
  </way>
  <way id="27277291" version="2" timestamp="2008-09-24T08:51:04Z" uid="43863" user="Rundling" changeset="687973">
    <nd ref="299417550"/>
    <nd ref="299417551"/>
    <nd ref="299417552"/>
    <nd ref="299417553"/>
    <nd ref="299417550"/>
    <tag k="addr:city" v="Rosche"/>
    <tag k="addr:housenumber" v="3"/>
    <tag k="addr:postcode" v="29571"/>
    <tag k="addr:street" v="Wiesengrund"/>
    <tag k="building" v="yes"/>
    <tag k="created_by" v="Merkaartor 0.11"/>
  </way>
  <way id="27277291" version="3" timestamp="2008-09-26T06:30:56Z" uid="43863" user="Rundling" changeset="698643"/>
  <way id="27277298" version="32" timestamp="2009-10-11T12:08:29Z" uid="74617" user="JohnSmith" changeset="2813588">
    <nd ref="528782951"/>
    <nd ref="528782950"/>
    <nd ref="528782948"/>
    <nd ref="528782953"/>
    <nd ref="528782955"/>
    <nd ref="299442570"/>
    <tag k="attribution" v="Based on data from State of Queensland (Department of Environment and Resource Management) 2009"/>
    <tag k="highway" v="road"/>
    <tag k="source" v="au.qld.dcdb_lite"/>
  </way>
  <way id="27277316" version="7" timestamp="2010-03-22T05:42:41Z" uid="20587" user="balrog-kun" changeset="4199043">
    <nd ref="42798898"/>
    <nd ref="299417764"/>
    <nd ref="299417765"/>
    <nd ref="42798884"/>
    <nd ref="42798856"/>
    <nd ref="299417061"/>
    <nd ref="299417039"/>
    <nd ref="42798851"/>
    <nd ref="42798844"/>
    <nd ref="42798839"/>
    <nd ref="42656554"/>
    <nd ref="42655123"/>
    <nd ref="299416545"/>
    <nd ref="42798814"/>
    <nd ref="42798811"/>
    <nd ref="299416503"/>
    <nd ref="42798807"/>
    <nd ref="299416008"/>
    <tag k="highway" v="motorway"/>
    <tag k="name" v="I-84"/>
    <tag k="name_1" v="United States Highway 30"/>
    <tag k="name_2" v="Old Oregon Trail Highway"/>
    <tag k="oneway" v="yes"/>
    <tag k="ref" v="I 84;US 30"/>
    <tag k="tiger:cfcc" v="A11"/>
    <tag k="tiger:county" v="Umatilla, OR"/>
    <tag k="tiger:name_base" v="I-84"/>
    <tag k="tiger:name_base_1" v="United States Highway 30"/>
    <tag k="tiger:name_base_2" v="Old Oregon Trail"/>
    <tag k="tiger:name_type_2" v="Hwy"/>
    <tag k="tiger:separated" v="no"/>
    <tag k="tiger:source" v="tiger_import_dch_v0.6_20070808"/>
    <tag k="tiger:tlid" v="170390012:170390023:170390025:170434074:170434076:170434090:170390031:170391510:170444234:170391628"/>
  </way>
  <way id="27277335" version="5" timestamp="2009-07-19T12:20:30Z" uid="43863" user="Rundling" changeset="1872725"/>
  <way id="27277337" version="2" timestamp="2009-07-19T12:20:30Z" uid="43863" user="Rundling" changeset="1872725">
    <nd ref="299417877"/>
    <nd ref="299417868"/>
    <nd ref="299417694"/>
    <nd ref="443691873"/>
    <tag k="highway" v="residential"/>
    <tag k="name" v="Kreienried"/>
  </way>
  <way id="27277366" version="5" timestamp="2009-07-09T08:31:24Z" uid="4467" user="Rosscoe" changeset="1778919">
    <nd ref="299418179"/>
    <nd ref="299418180"/>
    <nd ref="299418181"/>
    <nd ref="299418182"/>
    <nd ref="299418203"/>
    <tag k="created_by" v="Potlatch 0.10f"/>
    <tag k="highway" v="unclassified"/>
    <tag k="name" v="Lyndley Connection Road"/>
  </way>
  <way id="27277369" version="14" timestamp="2010-03-22T05:42:42Z" uid="20587" user="balrog-kun" changeset="4199043">
    <nd ref="42782741"/>
    <nd ref="42798950"/>
    <nd ref="42798946"/>
    <nd ref="42798945"/>
    <nd ref="42583357"/>
    <nd ref="42798939"/>
    <nd ref="42798932"/>
    <nd ref="660561717"/>
    <tag k="FIXME" v="yes"/>
    <tag k="highway" v="motorway"/>
    <tag k="name" v="I-84"/>
    <tag k="name_1" v="United States Highway 30"/>
    <tag k="name_2" v="Old Oregon Trail Highway"/>
    <tag k="ref" v="I 84;US 30"/>
    <tag k="tiger:cfcc" v="A11"/>
    <tag k="tiger:county" v="Umatilla, OR"/>
    <tag k="tiger:name_base" v="I-84"/>
    <tag k="tiger:name_base_1" v="United States Highway 30"/>
    <tag k="tiger:name_base_2" v="Old Oregon Trail"/>
    <tag k="tiger:name_type_2" v="Hwy"/>
    <tag k="tiger:reviewed" v="no"/>
    <tag k="tiger:separated" v="no"/>
    <tag k="tiger:source" v="tiger_import_dch_v0.6_20070808"/>
    <tag k="tiger:tlid" v="170390012:170390023:170390025:170434074:170434076:170434090:170390031:170391510:170444234:170391628"/>
  </way>
  <way id="27277375" version="132" timestamp="2009-09-18T01:49:10Z" uid="30201" user="rrankin" changeset="2519144">
    <nd ref="499781295"/>
    <nd ref="499781293"/>
    <nd ref="499781297"/>
    <nd ref="499781291"/>
    <tag k="highway" v="residential"/>
    <tag k="source" v="survey"/>
  </way>
  <way id="27277375" version="133" timestamp="2009-09-19T23:00:27Z" uid="30201" user="rrankin" changeset="2539851">
    <nd ref="499781295"/>
    <nd ref="502679343"/>
    <nd ref="499781293"/>
    <tag k="highway" v="residential"/>
    <tag k="name" v="Sheedy Street"/>
    <tag k="source" v="survey"/>
  </way>
  <way id="27277400" version="5" timestamp="2010-03-22T05:42:42Z" uid="20587" user="balrog-kun" changeset="4199043">
    <nd ref="35593423"/>
    <nd ref="35553576"/>
    <nd ref="35550411"/>
    <nd ref="35651996"/>
    <nd ref="35690071"/>
    <nd ref="35563757"/>
    <nd ref="35546253"/>
    <nd ref="35396205"/>
    <nd ref="35416788"/>
    <nd ref="35405450"/>
    <nd ref="35634930"/>
    <nd ref="35412901"/>
    <nd ref="35646310"/>
    <nd ref="35629368"/>
    <nd ref="35568881"/>
    <nd ref="35572590"/>
    <nd ref="35579098"/>
    <nd ref="35437900"/>
    <tag k="highway" v="primary"/>
    <tag k="name" v="Ashland Street"/>
    <tag k="ref" v="OR 66"/>
    <tag k="tiger:cfcc" v="A31"/>
    <tag k="tiger:name_base" v="Green Springs Hwy 66; Ashland; Ashland; Ashland"/>
    <tag k="tiger:name_base_1" v="State Highway 66"/>
    <tag k="tiger:name_type" v="St"/>
    <tag k="tiger:separated" v="no"/>
    <tag k="tiger:source" v="tiger_import_dch_v0.6_20070808"/>
    <tag k="tiger:tlid" v="155546896:155612654:155612657:155543515:155545037:155571715:155522346:155571700:155571701:155558035:155544217:155522967:155522415:155570762:155570763:155522976:155534600:155534601:155522971:155534595:155534592:155534593:155534596:155534598:155534589:15553"/>
    <tag k="tiger:zip_left" v="97520"/>
    <tag k="tiger:zip_left_1" v="97520"/>
    <tag k="tiger:zip_right" v="97520"/>
    <tag k="tiger:zip_right_1" v="97520"/>
  </way>
  <way id="27277403" version="4" timestamp="2009-09-18T01:49:10Z" uid="30201" user="rrankin" changeset="2519144">
    <nd ref="246280949"/>
    <nd ref="299418691"/>
    <nd ref="299418499"/>
    <tag k="highway" v="unclassified"/>
    <tag k="name" v="-Incomplete"/>
    <tag k="source" v="survey"/>
  </way>
  <way id="27277403" version="5" timestamp="2009-09-19T23:00:27Z" uid="30201" user="rrankin" changeset="2539851"/>
  <way id="27277415" version="5" timestamp="2010-03-22T05:42:43Z" uid="20587" user="balrog-kun" changeset="4199043">
    <nd ref="35437900"/>
    <nd ref="39324351"/>
    <tag k="bridge" v="yes"/>
    <tag k="highway" v="primary"/>
    <tag k="layer" v="2"/>
    <tag k="name" v="Ashland Street"/>
    <tag k="ref" v="OR 66"/>
    <tag k="tiger:cfcc" v="A31"/>
    <tag k="tiger:name_base" v="Green Springs Hwy 66; Ashland; Ashland; Ashland"/>
    <tag k="tiger:name_base_1" v="State Highway 66"/>
    <tag k="tiger:name_type" v="St"/>
    <tag k="tiger:separated" v="no"/>
    <tag k="tiger:source" v="tiger_import_dch_v0.6_20070808"/>
    <tag k="tiger:tlid" v="155546896:155612654:155612657:155543515:155545037:155571715:155522346:155571700:155571701:155558035:155544217:155522967:155522415:155570762:155570763:155522976:155534600:155534601:155522971:155534595:155534592:155534593:155534596:155534598:155534589:15553"/>
    <tag k="tiger:zip_left" v="97520"/>
    <tag k="tiger:zip_left_1" v="97520"/>
    <tag k="tiger:zip_right" v="97520"/>
    <tag k="tiger:zip_right_1" v="97520"/>
  </way>
  <way id="27277416" version="4" timestamp="2010-03-22T05:42:43Z" uid="20587" user="balrog-kun" changeset="4199043">
    <nd ref="39324351"/>
    <nd ref="35591179"/>
    <nd ref="35636761"/>
    <nd ref="35692284"/>
    <nd ref="35554966"/>
    <nd ref="35408114"/>
    <nd ref="35441455"/>
    <nd ref="35490093"/>
    <nd ref="35476610"/>
    <nd ref="35459742"/>
    <nd ref="35415453"/>
    <nd ref="35553893"/>
    <nd ref="35579268"/>
    <nd ref="35644172"/>
    <nd ref="35618675"/>
    <nd ref="35631645"/>
    <nd ref="35654422"/>
    <nd ref="35689473"/>
    <nd ref="35474634"/>
    <nd ref="35450733"/>
    <nd ref="35428750"/>
    <nd ref="35479776"/>
    <nd ref="35441354"/>
    <nd ref="35598989"/>
    <nd ref="35652647"/>
    <nd ref="35656604"/>
    <nd ref="35590997"/>
    <nd ref="653112631"/>
    <nd ref="35650522"/>
    <tag k="highway" v="primary"/>
    <tag k="name" v="Ashland Street"/>
    <tag k="ref" v="OR 66"/>
    <tag k="tiger:cfcc" v="A31"/>
    <tag k="tiger:name_base" v="Green Springs Hwy 66; Ashland; Ashland; Ashland"/>
    <tag k="tiger:name_base_1" v="State Highway 66"/>
    <tag k="tiger:name_type" v="St"/>
    <tag k="tiger:separated" v="no"/>
    <tag k="tiger:source" v="tiger_import_dch_v0.6_20070808"/>
    <tag k="tiger:tlid" v="155546896:155612654:155612657:155543515:155545037:155571715:155522346:155571700:155571701:155558035:155544217:155522967:155522415:155570762:155570763:155522976:155534600:155534601:155522971:155534595:155534592:155534593:155534596:155534598:155534589:15553"/>
    <tag k="tiger:zip_left" v="97520"/>
    <tag k="tiger:zip_left_1" v="97520"/>
    <tag k="tiger:zip_right" v="97520"/>
    <tag k="tiger:zip_right_1" v="97520"/>
  </way>
  <way id="27277468" version="7" timestamp="2009-07-11T12:56:39Z" uid="4467" user="Rosscoe" changeset="1796983">
    <nd ref="364944780"/>
    <nd ref="366750461"/>
    <nd ref="366750462"/>
    <nd ref="366750463"/>
    <nd ref="366750464"/>
    <nd ref="366750465"/>
    <nd ref="366750466"/>
    <nd ref="366750467"/>
    <nd ref="366750468"/>
    <nd ref="366750469"/>
    <nd ref="299419129"/>
    <nd ref="364945011"/>
    <nd ref="299419130"/>
    <nd ref="299419131"/>
    <nd ref="299419132"/>
    <nd ref="299419133"/>
    <tag k="created_by" v="Potlatch 0.10f"/>
    <tag k="highway" v="unclassified"/>
    <tag k="name" v="-Incomplete"/>
  </way>
  <way id="27277468" version="10" timestamp="2009-09-18T00:03:43Z" uid="4467" user="Rosscoe" changeset="2518209">
    <nd ref="364944780"/>
    <nd ref="366750461"/>
    <nd ref="366750462"/>
    <nd ref="366750463"/>
    <nd ref="366750464"/>
    <nd ref="366750465"/>
    <nd ref="366750466"/>
    <nd ref="366750467"/>
    <nd ref="366750468"/>
    <nd ref="366750469"/>
    <nd ref="299419129"/>
    <nd ref="364945011"/>
    <nd ref="299419130"/>
    <nd ref="299419131"/>
    <nd ref="299419132"/>
    <nd ref="299419133"/>
    <tag k="highway" v="unclassified"/>
    <tag k="name" v="Wylie Street"/>
    <tag k="surface" v="dirt"/>
  </way>
  <way id="27277489" version="1" timestamp="2008-09-24T09:06:04Z" uid="43863" user="Rundling" changeset="687973">
    <nd ref="299419361"/>
    <nd ref="299419362"/>
    <nd ref="299419363"/>
    <nd ref="299419364"/>
    <nd ref="299419361"/>
    <tag k="addr:city" v="Rosche"/>
    <tag k="addr:housenumber" v="8"/>
    <tag k="addr:postcode" v="29571"/>
    <tag k="addr:street" v="Bergstraße"/>
    <tag k="building" v="yes"/>
    <tag k="created_by" v="Merkaartor 0.11"/>
  </way>
  <way id="27277489" version="2" timestamp="2011-02-28T12:18:24Z" uid="43863" user="Rundling" changeset="7420001">
    <nd ref="299419361"/>
    <nd ref="299419362"/>
    <nd ref="299419363"/>
    <nd ref="299419364"/>
    <nd ref="299419361"/>
    <tag k="addr:city" v="Rosche"/>
    <tag k="addr:housenumber" v="8"/>
    <tag k="addr:postcode" v="29571"/>
    <tag k="addr:street" v="Bergstraße"/>
    <tag k="building" v="yes"/>
  </way>
  <way id="27277490" version="1" timestamp="2008-09-24T09:06:05Z" uid="43863" user="Rundling" changeset="687973">
    <nd ref="299419365"/>
    <nd ref="299419366"/>
    <nd ref="299419367"/>
    <nd ref="299419368"/>
    <nd ref="299419365"/>
    <tag k="addr:city" v="Rosche"/>
    <tag k="addr:housenumber" v="10"/>
    <tag k="addr:postcode" v="29571"/>
    <tag k="addr:street" v="Bergstraße"/>
    <tag k="building" v="yes"/>
    <tag k="created_by" v="Merkaartor 0.11"/>
  </way>
  <way id="27277491" version="1" timestamp="2008-09-24T09:06:05Z" uid="43863" user="Rundling" changeset="687973">
    <nd ref="299419369"/>
    <nd ref="299419370"/>
    <nd ref="299419371"/>
    <nd ref="299419372"/>
    <nd ref="299419369"/>
    <tag k="addr:city" v="Rosche"/>
    <tag k="addr:housenumber" v="12"/>
    <tag k="addr:postcode" v="29571"/>
    <tag k="addr:street" v="Uelzener Straße"/>
    <tag k="building" v="yes"/>
    <tag k="created_by" v="Merkaartor 0.11"/>
  </way>
  <way id="27277491" version="2" timestamp="2011-02-28T12:18:27Z" uid="43863" user="Rundling" changeset="7420001">
    <nd ref="299419369"/>
    <nd ref="299419370"/>
    <nd ref="299419371"/>
    <nd ref="299419372"/>
    <nd ref="299419369"/>
    <tag k="addr:city" v="Rosche"/>
    <tag k="addr:housenumber" v="12"/>
    <tag k="addr:postcode" v="29571"/>
    <tag k="addr:street" v="Uelzener Straße"/>
    <tag k="building" v="yes"/>
  </way>
  <way id="27277492" version="1" timestamp="2008-09-24T09:06:07Z" uid="43863" user="Rundling" changeset="687973">
    <nd ref="299419373"/>
    <nd ref="299419374"/>
    <nd ref="299419375"/>
    <nd ref="299419376"/>
    <nd ref="299419373"/>
    <tag k="addr:city" v="Rosche"/>
    <tag k="addr:housenumber" v="1"/>
    <tag k="addr:postcode" v="29571"/>
    <tag k="addr:street" v="Bergstraße"/>
    <tag k="building" v="yes"/>
    <tag k="created_by" v="Merkaartor 0.11"/>
  </way>
  <way id="27277492" version="2" timestamp="2011-02-27T17:45:39Z" uid="43863" user="Rundling" changeset="7413334">
    <nd ref="299419373"/>
    <nd ref="1177507972"/>
    <nd ref="1177507685"/>
    <nd ref="299419376"/>
    <nd ref="299419373"/>
    <tag k="addr:city" v="Rosche"/>
    <tag k="addr:housenumber" v="1"/>
    <tag k="addr:postcode" v="29571"/>
    <tag k="addr:street" v="Bergstraße"/>
    <tag k="building" v="yes"/>
  </way>
  <way id="27277494" version="1" timestamp="2008-09-24T09:06:07Z" uid="43863" user="Rundling" changeset="687973">
    <nd ref="299419379"/>
    <nd ref="299419382"/>
    <nd ref="299419383"/>
    <nd ref="299419384"/>
    <nd ref="299419379"/>
    <tag k="building" v="yes"/>
    <tag k="created_by" v="Merkaartor 0.11"/>
  </way>
  <way id="27277494" version="2" timestamp="2011-02-28T12:18:27Z" uid="43863" user="Rundling" changeset="7420001"/>
  <way id="27277496" version="1" timestamp="2008-09-24T09:06:08Z" uid="43863" user="Rundling" changeset="687973">
    <nd ref="299419385"/>
    <nd ref="299419386"/>
    <nd ref="299419387"/>
    <nd ref="299419388"/>
    <nd ref="299419385"/>
    <tag k="building" v="yes"/>
    <tag k="created_by" v="Merkaartor 0.11"/>
  </way>
  <way id="27277496" version="2" timestamp="2008-09-25T08:22:04Z" uid="43863" user="Rundling" changeset="693642">
    <nd ref="299419385"/>
    <nd ref="299419386"/>
    <nd ref="299419387"/>
    <nd ref="299419369"/>
    <nd ref="299419385"/>
    <tag k="building" v="yes"/>
    <tag k="created_by" v="Merkaartor 0.11"/>
  </way>
  <way id="27277496" version="3" timestamp="2009-11-02T12:55:59Z" uid="43863" user="Rundling" changeset="3016071">
    <nd ref="299419385"/>
    <nd ref="299419386"/>
    <nd ref="299419387"/>
    <nd ref="551582415"/>
    <nd ref="299419385"/>
    <tag k="building" v="yes"/>
  </way>
  <way id="27277496" version="4" timestamp="2011-02-28T12:18:25Z" uid="43863" user="Rundling" changeset="7420001">
    <nd ref="299419385"/>
    <nd ref="299419386"/>
    <nd ref="299419387"/>
    <nd ref="551582415"/>
    <nd ref="299419385"/>
    <tag k="building" v="yes"/>
  </way>
  <way id="27277507" version="6" timestamp="2010-03-22T05:42:44Z" uid="20587" user="balrog-kun" changeset="4199043">
    <nd ref="42634333"/>
    <nd ref="312640204"/>
    <tag k="highway" v="motorway"/>
    <tag k="name" v="I-84"/>
    <tag k="name_1" v="United States Highway 30"/>
    <tag k="name_2" v="Old Oregon Trail Highway"/>
    <tag k="oneway" v="yes"/>
    <tag k="ref" v="I 84;US 30"/>
    <tag k="source" v="yahoo aerial imagery"/>
    <tag k="tiger:cfcc" v="A11"/>
    <tag k="tiger:county" v="Umatilla, OR"/>
    <tag k="tiger:name_base" v="I-84"/>
    <tag k="tiger:name_base_1" v="United States Highway 30"/>
    <tag k="tiger:name_base_2" v="Old Oregon Trail"/>
    <tag k="tiger:name_type_2" v="Hwy"/>
  </way>
  <way id="27277509" version="6" timestamp="2010-03-22T05:42:45Z" uid="20587" user="balrog-kun" changeset="4199043">
    <nd ref="35458236"/>
    <nd ref="35470623"/>
    <nd ref="35452043"/>
    <nd ref="35466022"/>
    <nd ref="35584539"/>
    <nd ref="35565238"/>
    <nd ref="35390558"/>
    <nd ref="599560363"/>
    <tag k="highway" v="secondary"/>
    <tag k="name" v="West Main Street"/>
    <tag k="name_1" v="State Highway 99"/>
    <tag k="oneway" v="yes"/>
    <tag k="ref" v="OR 99"/>
    <tag k="tiger:cfcc" v="A35"/>
    <tag k="tiger:name_base" v="Main"/>
    <tag k="tiger:name_base_1" v="State Highway 99"/>
    <tag k="tiger:name_direction_prefix" v="E"/>
    <tag k="tiger:name_type" v="St"/>
    <tag k="tiger:reviewed" v="no"/>
    <tag k="tiger:separated" v="yes"/>
    <tag k="tiger:source" v="tiger_import_dch_v0.6_20070808"/>
    <tag k="tiger:tlid" v="155550621:155521711:155521724:155521739:155521694"/>
    <tag k="tiger:zip_left" v="97520"/>
    <tag k="tiger:zip_right" v="97520"/>
  </way>
  <way id="27277509" version="7" timestamp="2010-03-26T17:47:00Z" uid="20587" user="balrog-kun" changeset="4238822">
    <nd ref="35458236"/>
    <nd ref="35470623"/>
    <nd ref="35452043"/>
    <nd ref="35466022"/>
    <nd ref="35584539"/>
    <nd ref="35565238"/>
    <nd ref="35390558"/>
    <nd ref="599560363"/>
    <tag k="highway" v="secondary"/>
    <tag k="name" v="East Main Street"/>
    <tag k="name_1" v="State Highway 99"/>
    <tag k="oneway" v="yes"/>
    <tag k="ref" v="OR 99"/>
    <tag k="tiger:cfcc" v="A35"/>
    <tag k="tiger:name_base" v="Main"/>
    <tag k="tiger:name_base_1" v="State Highway 99"/>
    <tag k="tiger:name_direction_prefix" v="E"/>
    <tag k="tiger:name_type" v="St"/>
    <tag k="tiger:reviewed" v="no"/>
    <tag k="tiger:separated" v="yes"/>
    <tag k="tiger:source" v="tiger_import_dch_v0.6_20070808"/>
    <tag k="tiger:tlid" v="155550621:155521711:155521724:155521739:155521694"/>
    <tag k="tiger:zip_left" v="97520"/>
    <tag k="tiger:zip_right" v="97520"/>
  </way>
  <way id="27277514" version="1" timestamp="2008-09-24T09:07:32Z" uid="43863" user="Rundling" changeset="687973">
    <nd ref="299419478"/>
    <nd ref="299419479"/>
    <nd ref="299419480"/>
    <nd ref="299419481"/>
    <nd ref="299419478"/>
    <tag k="building" v="yes"/>
    <tag k="created_by" v="Merkaartor 0.11"/>
  </way>
  <way id="27277517" version="24" timestamp="2010-03-22T05:42:45Z" uid="20587" user="balrog-kun" changeset="4199043">
    <nd ref="299418495"/>
    <nd ref="312636890"/>
    <tag k="created_by" v="Potlatch 0.10b"/>
    <tag k="highway" v="motorway"/>
    <tag k="name" v="I-82"/>
    <tag k="name_1" v="McNary Highway"/>
    <tag k="ref" v="I 82"/>
    <tag k="tiger:cfcc" v="A11"/>
    <tag k="tiger:county" v="Umatilla, OR"/>
    <tag k="tiger:name_base" v="I-82"/>
    <tag k="tiger:name_base_1" v="McNary"/>
    <tag k="tiger:name_type_1" v="Hwy"/>
    <tag k="tiger:separated" v="no"/>
    <tag k="tiger:source" v="tiger_import_dch_v0.6_20070808"/>
    <tag k="tiger:tlid" v="170444973:170444974:170426460:170426463:170434084:170434088"/>
  </way>
  <way id="27277520" version="4" timestamp="2010-03-22T05:42:45Z" uid="20587" user="balrog-kun" changeset="4199043">
    <nd ref="35685293"/>
    <nd ref="35408102"/>
    <nd ref="35653273"/>
    <nd ref="35396807"/>
    <nd ref="35373634"/>
    <nd ref="35449803"/>
    <tag k="created_by" v="Potlatch 0.10b"/>
    <tag k="highway" v="primary"/>
    <tag k="name" v="North Main Street"/>
    <tag k="name_1" v="State Highway 99"/>
    <tag k="oneway" v="yes"/>
    <tag k="ref" v="OR 99"/>
    <tag k="tiger:cfcc" v="A31"/>
    <tag k="tiger:name_base" v="Main"/>
    <tag k="tiger:name_base_1" v="State Highway 99"/>
    <tag k="tiger:name_direction_prefix" v="N"/>
    <tag k="tiger:name_type" v="St"/>
    <tag k="tiger:reviewed" v="no"/>
    <tag k="tiger:separated" v="no"/>
    <tag k="tiger:source" v="tiger_import_dch_v0.6_20070808"/>
    <tag k="tiger:tlid" v="155542497"/>
  </way>
  <way id="27277546" version="2" timestamp="2010-04-07T12:52:45Z" uid="20587" user="balrog-kun" changeset="4353646">
    <nd ref="150367915"/>
    <nd ref="150406901"/>
    <nd ref="150399746"/>
    <tag k="highway" v="motorway_link"/>
    <tag k="name" v="West Frontage Road"/>
    <tag k="tiger:cfcc" v="A41"/>
    <tag k="tiger:county" v="Culberson, TX"/>
    <tag k="tiger:name_base" v="Frontage"/>
    <tag k="tiger:name_direction_prefix" v="W"/>
    <tag k="tiger:name_type" v="Rd"/>
    <tag k="tiger:reviewed" v="no"/>
    <tag k="tiger:separated" v="no"/>
    <tag k="tiger:source" v="tiger_import_dch_v0.6_20070829"/>
    <tag k="tiger:tlid" v="132504004:132507107:132504334:132504002:132504338"/>
  </way>
  <way id="27277547" version="2" timestamp="2010-04-07T12:52:45Z" uid="20587" user="balrog-kun" changeset="4353646">
    <nd ref="150399245"/>
    <nd ref="150399257"/>
    <nd ref="150399260"/>
    <nd ref="150399262"/>
    <tag k="highway" v="residential"/>
    <tag k="name" v="Frontage Road"/>
    <tag k="tiger:cfcc" v="A41"/>
    <tag k="tiger:county" v="Culberson, TX"/>
    <tag k="tiger:name_base" v="Frontage"/>
    <tag k="tiger:name_type" v="Rd"/>
    <tag k="tiger:reviewed" v="no"/>
    <tag k="tiger:separated" v="no"/>
    <tag k="tiger:source" v="tiger_import_dch_v0.6_20070829"/>
    <tag k="tiger:tlid" v="132504003:132504007:132504407"/>
  </way>
  <way id="27277557" version="2" timestamp="2009-09-16T12:11:03Z" uid="4467" user="Rosscoe" changeset="2501767">
    <nd ref="299419903"/>
    <nd ref="299419904"/>
    <nd ref="299419905"/>
    <nd ref="299419906"/>
    <nd ref="299419907"/>
    <nd ref="299419908"/>
    <nd ref="299419909"/>
    <nd ref="299419910"/>
    <nd ref="299419911"/>
    <nd ref="299419912"/>
    <tag k="highway" v="unclassified"/>
    <tag k="name" v="-Incomplete"/>
  </way>
  <way id="27277557" version="3" timestamp="2009-09-17T23:07:17Z" uid="4467" user="Rosscoe" changeset="2517934">
    <nd ref="299419903"/>
    <nd ref="299419904"/>
    <nd ref="299419905"/>
    <nd ref="299419906"/>
    <nd ref="299419907"/>
    <nd ref="299419908"/>
    <nd ref="299419909"/>
    <nd ref="299419910"/>
    <nd ref="299419911"/>
    <nd ref="499644492"/>
    <tag k="highway" v="unclassified"/>
    <tag k="name" v="-Incomplete"/>
  </way>
  <way id="27277557" version="4" timestamp="2009-10-11T11:35:58Z" uid="74617" user="JohnSmith" changeset="2813270">
    <nd ref="299419903"/>
    <nd ref="299419905"/>
    <nd ref="299419906"/>
    <nd ref="299419907"/>
    <nd ref="299419908"/>
    <nd ref="299419910"/>
    <nd ref="299419911"/>
    <nd ref="499644492"/>
    <tag k="attribution" v="Based on data from State of Queensland (Department of Environment and Resource Management) 2009"/>
    <tag k="highway" v="unclassified"/>
    <tag k="note" v="-Incomplete"/>
    <tag k="source" v="au.qld.dcdb_lite"/>
  </way>
  <way id="27277557" version="5" timestamp="2009-10-11T11:37:15Z" uid="74617" user="JohnSmith" changeset="2813284">
    <nd ref="299419903"/>
    <nd ref="528749965"/>
    <nd ref="299419905"/>
    <nd ref="299419906"/>
    <nd ref="299419907"/>
    <nd ref="299419908"/>
    <nd ref="299419910"/>
    <nd ref="299419911"/>
    <nd ref="499644492"/>
    <tag k="attribution" v="Based on data from State of Queensland (Department of Environment and Resource Management) 2009"/>
    <tag k="highway" v="unclassified"/>
    <tag k="note" v="-Incomplete"/>
    <tag k="source" v="au.qld.dcdb_lite"/>
  </way>
  <way id="27277566" version="20" timestamp="2010-03-26T17:47:01Z" uid="20587" user="balrog-kun" changeset="4238822">
    <nd ref="42796331"/>
    <nd ref="42796346"/>
    <tag k="bridge" v="yes"/>
    <tag k="highway" v="motorway"/>
    <tag k="layer" v="1"/>
    <tag k="name" v="I-82"/>
    <tag k="name_1" v="McNary Highway"/>
    <tag k="ref" v="I 82;US 395"/>
    <tag k="tiger:cfcc" v="A11"/>
    <tag k="tiger:county" v="Umatilla, OR"/>
    <tag k="tiger:name_base" v="I-82"/>
    <tag k="tiger:name_base_1" v="McNary"/>
    <tag k="tiger:name_type_1" v="Hwy"/>
    <tag k="tiger:separated" v="no"/>
    <tag k="tiger:source" v="tiger_import_dch_v0.6_20070808"/>
    <tag k="tiger:tlid" v="170444973:170444974:170426460:170426463:170434084:170434088"/>
  </way>
  <way id="27277569" version="1" timestamp="2008-09-24T09:12:50Z" uid="43863" user="Rundling" changeset="687973">
    <nd ref="299420105"/>
    <nd ref="299420106"/>
    <nd ref="299420107"/>
    <nd ref="299420108"/>
    <nd ref="299420105"/>
    <tag k="addr:city" v="Rosche"/>
    <tag k="addr:housenumber" v="13"/>
    <tag k="addr:postcode" v="29571"/>
    <tag k="addr:street" v="Uelzener Straße"/>
    <tag k="building" v="yes"/>
    <tag k="created_by" v="Merkaartor 0.11"/>
  </way>
  <way id="27277569" version="2" timestamp="2008-09-26T06:26:42Z" uid="43863" user="Rundling" changeset="698643"/>
  <way id="27277570" version="1" timestamp="2008-09-24T09:12:51Z" uid="43863" user="Rundling" changeset="687973">
    <nd ref="299420109"/>
    <nd ref="299420110"/>
    <nd ref="299420111"/>
    <nd ref="299420121"/>
    <nd ref="299420109"/>
    <tag k="addr:city" v="Rosche"/>
    <tag k="addr:housenumber" v="15"/>
    <tag k="addr:postcode" v="29571"/>
    <tag k="addr:street" v="Uelzener Straße"/>
    <tag k="building" v="yes"/>
    <tag k="created_by" v="Merkaartor 0.11"/>
  </way>
  <way id="27277570" version="2" timestamp="2008-09-26T06:26:42Z" uid="43863" user="Rundling" changeset="698643"/>
  <way id="27277571" version="1" timestamp="2008-09-24T09:12:52Z" uid="43863" user="Rundling" changeset="687973">
    <nd ref="299420125"/>
    <nd ref="299420126"/>
    <nd ref="299420127"/>
    <nd ref="299420128"/>
    <nd ref="299420125"/>
    <tag k="addr:city" v="Rosche"/>
    <tag k="addr:housenumber" v="19"/>
    <tag k="addr:postcode" v="29571"/>
    <tag k="addr:street" v="Uelzener Straße"/>
    <tag k="building" v="yes"/>
    <tag k="created_by" v="Merkaartor 0.11"/>
  </way>
  <way id="27277598" version="1" timestamp="2008-09-24T09:15:18Z" uid="7617" user="Franc" changeset="688136">
    <nd ref="26410965"/>
    <nd ref="26410966"/>
    <tag k="abutters" v="residential"/>
    <tag k="created_by" v="Potlatch alpha"/>
    <tag k="highway" v="residential"/>
    <tag k="name" v="View Street"/>
  </way>
  <way id="27277598" version="3" timestamp="2009-12-02T05:55:35Z" uid="30201" user="rrankin" changeset="3269574">
    <nd ref="26410965"/>
    <nd ref="26410966"/>
    <tag k="highway" v="residential"/>
    <tag k="name" v="View Street"/>
  </way>
  <way id="27277598" version="4" timestamp="2010-07-07T22:09:34Z" uid="74617" user="JohnSmith" changeset="5161069">
    <nd ref="26410965"/>
    <nd ref="26410966"/>
    <tag k="highway" v="residential"/>
    <tag k="maxspeed" v="50"/>
    <tag k="maxspeed:source" v="default residential speed limit in Australia"/>
    <tag k="name" v="View Street"/>
  </way>
  <way id="27277630" version="1" timestamp="2008-09-24T09:15:36Z" uid="43863" user="Rundling" changeset="687973">
    <nd ref="299420442"/>
    <nd ref="299420444"/>
    <nd ref="299420445"/>
    <nd ref="299420447"/>
    <nd ref="299420449"/>
    <nd ref="299420442"/>
    <tag k="created_by" v="Merkaartor 0.11"/>
    <tag k="landuse" v="commercial"/>
  </way>
  <way id="27277630" version="2" timestamp="2008-09-25T14:25:19Z" uid="43863" user="Rundling" changeset="694436">
    <nd ref="299420442"/>
    <nd ref="299727648"/>
    <nd ref="299420444"/>
    <nd ref="299420445"/>
    <nd ref="299420447"/>
    <nd ref="299420449"/>
    <nd ref="299420442"/>
    <tag k="created_by" v="Merkaartor 0.11"/>
    <tag k="landuse" v="commercial"/>
  </way>
  <way id="27277630" version="3" timestamp="2009-02-08T18:27:06Z" uid="43863" user="Rundling" changeset="278556">
    <nd ref="299420442"/>
    <nd ref="299420444"/>
    <nd ref="299420447"/>
    <nd ref="299420449"/>
    <nd ref="299420442"/>
    <tag k="created_by" v="Merkaartor 0.11"/>
    <tag k="landuse" v="commercial"/>
  </way>
  <way id="27277630" version="4" timestamp="2010-07-13T16:12:32Z" uid="43863" user="Rundling" changeset="5209445">
    <nd ref="299420442"/>
    <nd ref="299420444"/>
    <nd ref="299420447"/>
    <nd ref="299420449"/>
    <nd ref="299420442"/>
    <tag k="landuse" v="commercial"/>
  </way>
  <way id="27277630" version="5" timestamp="2011-03-24T17:10:52Z" uid="43863" user="Rundling" changeset="7657709">
    <nd ref="299420442"/>
    <nd ref="1216115641"/>
    <nd ref="299420447"/>
    <nd ref="299420449"/>
    <nd ref="299420442"/>
    <tag k="landuse" v="commercial"/>
  </way>
  <way id="27277631" version="1" timestamp="2008-09-24T09:15:37Z" uid="43863" user="Rundling" changeset="687973">
    <nd ref="299420450"/>
    <nd ref="299420456"/>
    <nd ref="299420445"/>
    <tag k="created_by" v="Merkaartor 0.11"/>
    <tag k="highway" v="service"/>
    <tag k="oneway" v="no"/>
  </way>
  <way id="27277631" version="2" timestamp="2009-01-11T20:55:59Z" uid="43863" user="Rundling" changeset="774178">
    <nd ref="299420450"/>
    <nd ref="299420456"/>
    <nd ref="299420445"/>
    <tag k="highway" v="service"/>
    <tag k="surface" v="paved"/>
  </way>
  <way id="27277631" version="3" timestamp="2009-02-08T18:27:06Z" uid="43863" user="Rundling" changeset="278556">
    <nd ref="299420450"/>
    <nd ref="299420456"/>
    <tag k="highway" v="service"/>
    <tag k="surface" v="paved"/>
  </way>
  <way id="27277631" version="4" timestamp="2010-07-13T16:17:34Z" uid="43863" user="Rundling" changeset="5209491">
    <nd ref="299420450"/>
    <nd ref="815263028"/>
    <tag k="highway" v="service"/>
    <tag k="surface" v="paved"/>
  </way>
  <way id="27277670" version="3" timestamp="2008-12-14T01:59:31Z" uid="6975" user="ulfl" changeset="365670">
    <nd ref="299420905"/>
    <nd ref="299420601"/>
    <nd ref="299420711"/>
    <nd ref="299420406"/>
    <nd ref="299420527"/>
    <nd ref="299420887"/>
    <nd ref="299420921"/>
    <nd ref="299421011"/>
    <nd ref="299420936"/>
    <nd ref="299420884"/>
    <tag k="FIXME" v="xybot: set tracktype to grade[1..5]"/>
    <tag k="highway" v="track"/>
    <tag k="surface" v="mud"/>
  </way>
  <way id="27277673" version="3" timestamp="2008-12-14T01:59:30Z" uid="6975" user="ulfl" changeset="365670">
    <nd ref="299420905"/>
    <nd ref="299420530"/>
    <nd ref="299420488"/>
    <tag k="FIXME" v="xybot: set tracktype to grade[1..5]"/>
    <tag k="highway" v="track"/>
    <tag k="surface" v="mud"/>
  </way>
  <way id="27277719" version="15" timestamp="2011-03-26T10:56:32Z" uid="4467" user="Rosscoe" changeset="7674118">
    <nd ref="299442954"/>
    <nd ref="299442956"/>
    <nd ref="299442957"/>
    <nd ref="534248160"/>
    <nd ref="299442959"/>
    <nd ref="392973731"/>
    <nd ref="380466535"/>
    <nd ref="299442961"/>
    <nd ref="299421269"/>
    <nd ref="823334608"/>
    <nd ref="1218815282"/>
    <nd ref="1218815274"/>
    <nd ref="823336229"/>
    <nd ref="522133980"/>
    <tag k="highway" v="unclassified"/>
    <tag k="name" v="Goranba Lane"/>
    <tag k="source" v="survey"/>
    <tag k="surface" v="gravel"/>
  </way>
  <way id="27277727" version="25" timestamp="2010-06-24T15:49:43Z" uid="74617" user="JohnSmith" changeset="5066657">
    <nd ref="519648629"/>
    <nd ref="519648631"/>
    <nd ref="519648633"/>
    <nd ref="519648634"/>
    <nd ref="519648636"/>
    <nd ref="519648638"/>
    <nd ref="299421386"/>
    <nd ref="299421499"/>
    <nd ref="299421388"/>
    <nd ref="534251773"/>
    <nd ref="299421500"/>
    <nd ref="534251433"/>
    <nd ref="299421390"/>
    <nd ref="534251371"/>
    <nd ref="299421501"/>
    <nd ref="534251340"/>
    <nd ref="534251343"/>
    <nd ref="534251345"/>
    <nd ref="299421392"/>
    <nd ref="299421502"/>
    <nd ref="299421394"/>
    <nd ref="299421503"/>
    <nd ref="534251149"/>
    <nd ref="534251211"/>
    <nd ref="392972566"/>
    <nd ref="392972567"/>
    <nd ref="534250874"/>
    <nd ref="392972568"/>
    <nd ref="534250845"/>
    <nd ref="392972569"/>
    <nd ref="534250677"/>
    <nd ref="534250679"/>
    <nd ref="534250681"/>
    <nd ref="392972570"/>
    <nd ref="534250682"/>
    <nd ref="392972571"/>
    <nd ref="534250298"/>
    <nd ref="534250299"/>
    <nd ref="534250304"/>
    <nd ref="534250321"/>
    <nd ref="392972572"/>
    <nd ref="534250205"/>
    <nd ref="392972573"/>
    <nd ref="393012589"/>
    <nd ref="392972574"/>
    <nd ref="534250166"/>
    <nd ref="534250168"/>
    <nd ref="392972575"/>
    <nd ref="534250031"/>
    <nd ref="534249692"/>
    <nd ref="392972576"/>
    <nd ref="392972577"/>
    <tag k="highway" v="secondary"/>
    <tag k="name" v="Tara-Kogan Road"/>
    <tag k="operator" v="mainroads.qld.gov.au"/>
    <tag k="ref" v="S3402"/>
    <tag k="source" v="GPS"/>
  </way>
  <way id="27277727" version="26" timestamp="2011-03-26T03:02:32Z" uid="4467" user="Rosscoe" changeset="7671809">
    <nd ref="519648629"/>
    <nd ref="519648631"/>
    <nd ref="519648633"/>
    <nd ref="519648634"/>
    <nd ref="519648636"/>
    <nd ref="519648638"/>
    <nd ref="299421386"/>
    <nd ref="299421499"/>
    <nd ref="299421388"/>
    <nd ref="534251773"/>
    <nd ref="299421500"/>
    <nd ref="534251433"/>
    <nd ref="299421390"/>
    <nd ref="534251371"/>
    <nd ref="299421501"/>
    <nd ref="534251340"/>
    <nd ref="534251343"/>
    <nd ref="534251345"/>
    <nd ref="299421392"/>
    <nd ref="299421502"/>
    <nd ref="299421394"/>
    <nd ref="299421503"/>
    <nd ref="534251149"/>
    <nd ref="534251211"/>
    <nd ref="392972566"/>
    <nd ref="392972567"/>
    <nd ref="534250874"/>
    <nd ref="392972568"/>
    <nd ref="534250845"/>
    <nd ref="392972569"/>
    <nd ref="534250677"/>
    <nd ref="534250679"/>
    <nd ref="534250681"/>
    <nd ref="392972570"/>
    <nd ref="534250682"/>
    <nd ref="392972571"/>
    <nd ref="534250298"/>
    <nd ref="534250299"/>
    <nd ref="534250304"/>
    <nd ref="534250321"/>
    <nd ref="392972572"/>
    <nd ref="534250205"/>
    <nd ref="392972573"/>
    <nd ref="393012589"/>
    <nd ref="392972574"/>
    <nd ref="534250166"/>
    <nd ref="534250168"/>
    <nd ref="392972575"/>
    <nd ref="534250031"/>
    <nd ref="534249692"/>
    <nd ref="392972576"/>
    <nd ref="392972577"/>
    <tag k="highway" v="secondary"/>
    <tag k="name" v="Tara-Kogan Road"/>
    <tag k="operator" v="mainroads.qld.gov.au"/>
    <tag k="ref" v="S3402"/>
    <tag k="source" v="survey"/>
    <tag k="survey" v="GPS"/>
  </way>
  <way id="27277741" version="18" timestamp="2010-06-24T15:49:45Z" uid="74617" user="JohnSmith" changeset="5066657">
    <nd ref="519648388"/>
    <nd ref="519653387"/>
    <nd ref="519653371"/>
    <nd ref="519648390"/>
    <nd ref="519653494"/>
    <nd ref="519653495"/>
    <nd ref="519653496"/>
    <nd ref="519648393"/>
    <nd ref="519648629"/>
    <nd ref="519648394"/>
    <nd ref="519649045"/>
    <nd ref="519648396"/>
    <tag k="highway" v="primary"/>
    <tag k="name" v="Chinchilla-Tara Road"/>
    <tag k="operator" v="mainroads.qld.gov.au"/>
    <tag k="source" v="survey"/>
  </way>
  <way id="27277777" version="1" timestamp="2008-09-24T09:25:44Z" uid="43863" user="Rundling" changeset="687973">
    <nd ref="299421943"/>
    <nd ref="299421944"/>
    <nd ref="299421945"/>
    <nd ref="299421946"/>
    <nd ref="299421947"/>
    <nd ref="299421948"/>
    <nd ref="299421943"/>
    <tag k="created_by" v="Merkaartor 0.11"/>
  </way>
  <way id="27277777" version="2" timestamp="2008-09-24T09:26:45Z" uid="43863" user="Rundling" changeset="687973">
    <nd ref="299421943"/>
    <nd ref="299421944"/>
    <nd ref="299421945"/>
    <nd ref="299421946"/>
    <nd ref="299421947"/>
    <nd ref="299421948"/>
    <nd ref="299421943"/>
    <tag k="addr:city" v="Rosche"/>
    <tag k="addr:housenumber" v="24"/>
    <tag k="addr:postcode" v="29571"/>
    <tag k="addr:street" v="Uelzener Straße"/>
    <tag k="building" v="yes"/>
    <tag k="created_by" v="Merkaartor 0.11"/>
  </way>
  <way id="27277777" version="3" timestamp="2009-01-30T18:04:15Z" uid="43863" user="Rundling" changeset="856154">
    <nd ref="299421943"/>
    <nd ref="299421944"/>
    <nd ref="299421945"/>
    <nd ref="299421946"/>
    <nd ref="299421947"/>
    <nd ref="299421948"/>
    <nd ref="299421943"/>
    <tag k="addr:city" v="Rosche"/>
    <tag k="addr:housenumber" v="24"/>
    <tag k="addr:postcode" v="29571"/>
    <tag k="addr:street" v="Uelzener Straße"/>
    <tag k="building" v="yes"/>
    <tag k="created_by" v="Merkaartor 0.11"/>
    <tag k="name" v="Landmaschinen"/>
    <tag k="operator" v="VSE"/>
    <tag k="shop" v="car_repair"/>
  </way>
  <way id="27277777" version="4" timestamp="2010-07-13T16:11:33Z" uid="43863" user="Rundling" changeset="5209434">
    <nd ref="299421944"/>
    <nd ref="815252877"/>
    <nd ref="815252866"/>
    <nd ref="815252886"/>
    <nd ref="815252881"/>
    <nd ref="815252842"/>
    <nd ref="815252875"/>
    <nd ref="299421944"/>
    <tag k="addr:city" v="Rosche"/>
    <tag k="addr:housenumber" v="24"/>
    <tag k="addr:postcode" v="29571"/>
    <tag k="addr:street" v="Uelzener Straße"/>
    <tag k="building" v="yes"/>
    <tag k="name" v="Landmaschinen"/>
    <tag k="operator" v="VSE"/>
    <tag k="shop" v="car_repair"/>
  </way>
  <way id="27277777" version="5" timestamp="2010-07-15T19:42:58Z" uid="43863" user="Rundling" changeset="5229728">
    <nd ref="299421944"/>
    <nd ref="815252877"/>
    <nd ref="815252866"/>
    <nd ref="815252886"/>
    <nd ref="819433726"/>
    <nd ref="815252881"/>
    <nd ref="815252842"/>
    <nd ref="815252875"/>
    <nd ref="299421944"/>
    <tag k="addr:city" v="Rosche"/>
    <tag k="addr:housenumber" v="24"/>
    <tag k="addr:postcode" v="29571"/>
    <tag k="addr:street" v="Uelzener Straße"/>
    <tag k="building" v="yes"/>
    <tag k="name" v="Werkstatt"/>
    <tag k="operator" v="VSE"/>
    <tag k="shop" v="car_repair"/>
  </way>
  <way id="27277777" version="6" timestamp="2010-07-15T19:46:18Z" uid="43863" user="Rundling" changeset="5229751">
    <nd ref="299421944"/>
    <nd ref="815252877"/>
    <nd ref="815252866"/>
    <nd ref="815252886"/>
    <nd ref="819433726"/>
    <nd ref="815252881"/>
    <nd ref="815252842"/>
    <nd ref="815252875"/>
    <nd ref="299421944"/>
    <tag k="addr:city" v="Rosche"/>
    <tag k="addr:housenumber" v="24"/>
    <tag k="addr:postcode" v="29571"/>
    <tag k="addr:street" v="Uelzener Straße"/>
    <tag k="building" v="yes"/>
    <tag k="name" v="Landmaschinen"/>
    <tag k="operator" v="VSE"/>
    <tag k="shop" v="car_repair"/>
  </way>
  <way id="27277777" version="7" timestamp="2011-03-24T17:10:49Z" uid="43863" user="Rundling" changeset="7657709">
    <nd ref="299421944"/>
    <nd ref="815252877"/>
    <nd ref="815252866"/>
    <nd ref="819433726"/>
    <nd ref="815252881"/>
    <nd ref="815252842"/>
    <nd ref="815252875"/>
    <nd ref="299421944"/>
    <tag k="addr:city" v="Rosche"/>
    <tag k="addr:housenumber" v="24"/>
    <tag k="addr:postcode" v="29571"/>
    <tag k="addr:street" v="Uelzener Straße"/>
    <tag k="building" v="yes"/>
    <tag k="name" v="Landmaschinen"/>
    <tag k="operator" v="VSE"/>
    <tag k="shop" v="car_repair"/>
  </way>
  <way id="27277778" version="1" timestamp="2008-09-24T09:25:44Z" uid="43863" user="Rundling" changeset="687973">
    <nd ref="299421949"/>
    <nd ref="299421950"/>
    <nd ref="299421951"/>
    <nd ref="299421952"/>
    <nd ref="299421949"/>
    <tag k="addr:city" v="Rosche"/>
    <tag k="addr:housenumber" v="14-16"/>
    <tag k="addr:postcode" v="29571"/>
    <tag k="addr:street" v="Uelzener Straße"/>
    <tag k="building" v="yes"/>
    <tag k="created_by" v="Merkaartor 0.11"/>
  </way>
  <way id="27277778" version="2" timestamp="2008-09-26T06:25:12Z" uid="43863" user="Rundling" changeset="698643"/>
  <way id="27277779" version="1" timestamp="2008-09-24T09:25:46Z" uid="43863" user="Rundling" changeset="687973">
    <nd ref="299421953"/>
    <nd ref="299421954"/>
    <nd ref="299421955"/>
    <nd ref="299421956"/>
    <nd ref="299421953"/>
    <tag k="addr:city" v="Rosche"/>
    <tag k="addr:housenumber" v="18"/>
    <tag k="addr:postcode" v="29571"/>
    <tag k="addr:street" v="Uelzener Straße"/>
    <tag k="building" v="yes"/>
    <tag k="created_by" v="Merkaartor 0.11"/>
  </way>
  <way id="27277779" version="2" timestamp="2008-09-26T06:25:12Z" uid="43863" user="Rundling" changeset="698643"/>
  <way id="27277780" version="1" timestamp="2008-09-24T09:25:46Z" uid="43863" user="Rundling" changeset="687973">
    <nd ref="299421957"/>
    <nd ref="299421958"/>
    <nd ref="299421959"/>
    <nd ref="299421960"/>
    <nd ref="299421957"/>
    <tag k="addr:city" v="Rosche"/>
    <tag k="addr:housenumber" v="20"/>
    <tag k="addr:postcode" v="29571"/>
    <tag k="addr:street" v="Uelzener Straße"/>
    <tag k="building" v="yes"/>
    <tag k="created_by" v="Merkaartor 0.11"/>
  </way>
  <way id="27277780" version="2" timestamp="2008-09-26T06:25:12Z" uid="43863" user="Rundling" changeset="698643"/>
  <way id="27277781" version="1" timestamp="2008-09-24T09:25:48Z" uid="43863" user="Rundling" changeset="687973">
    <nd ref="299421961"/>
    <nd ref="299421962"/>
    <nd ref="299421963"/>
    <nd ref="299421964"/>
    <nd ref="299421965"/>
    <nd ref="299421962"/>
    <tag k="addr:city" v="Rosche"/>
    <tag k="addr:housenumber" v="22"/>
    <tag k="addr:postcode" v="29571"/>
    <tag k="addr:street" v="Uelzener Straße"/>
    <tag k="building" v="yes"/>
    <tag k="created_by" v="Merkaartor 0.11"/>
  </way>
  <way id="27277781" version="2" timestamp="2008-09-25T08:22:03Z" uid="43863" user="Rundling" changeset="693642">
    <nd ref="299421961"/>
    <nd ref="299421961"/>
    <nd ref="299421963"/>
    <nd ref="299421964"/>
    <nd ref="299421965"/>
    <nd ref="299421961"/>
    <tag k="addr:city" v="Rosche"/>
    <tag k="addr:housenumber" v="22"/>
    <tag k="addr:postcode" v="29571"/>
    <tag k="addr:street" v="Uelzener Straße"/>
    <tag k="building" v="yes"/>
    <tag k="created_by" v="Merkaartor 0.11"/>
  </way>
  <way id="27277781" version="3" timestamp="2008-09-25T14:15:55Z" uid="43863" user="Rundling" changeset="694436">
    <nd ref="299421961"/>
    <nd ref="299421963"/>
    <nd ref="299421964"/>
    <nd ref="299421965"/>
    <nd ref="299421961"/>
    <tag k="addr:city" v="Rosche"/>
    <tag k="addr:housenumber" v="22"/>
    <tag k="addr:postcode" v="29571"/>
    <tag k="addr:street" v="Uelzener Straße"/>
    <tag k="building" v="yes"/>
    <tag k="created_by" v="Merkaartor 0.11"/>
  </way>
  <way id="27277781" version="4" timestamp="2008-09-26T06:25:12Z" uid="43863" user="Rundling" changeset="698643"/>
  <way id="27277783" version="1" timestamp="2008-09-24T09:25:49Z" uid="43863" user="Rundling" changeset="687973">
    <nd ref="299421966"/>
    <nd ref="299421972"/>
    <nd ref="299421973"/>
    <nd ref="299421974"/>
    <nd ref="299421966"/>
    <tag k="building" v="yes"/>
    <tag k="created_by" v="Merkaartor 0.11"/>
  </way>
  <way id="27277783" version="2" timestamp="2008-09-24T15:08:53Z" uid="43863" user="Rundling" changeset="689113">
    <nd ref="299421966"/>
    <nd ref="299492802"/>
    <nd ref="299421973"/>
    <nd ref="299421974"/>
    <nd ref="299421966"/>
    <tag k="building" v="yes"/>
    <tag k="created_by" v="Merkaartor 0.11"/>
  </way>
  <way id="27277783" version="3" timestamp="2010-12-12T13:44:40Z" uid="43863" user="Rundling" changeset="6636194">
    <nd ref="299421966"/>
    <nd ref="299492802"/>
    <nd ref="299421973"/>
    <nd ref="299421974"/>
    <nd ref="299421966"/>
    <tag k="building" v="yes"/>
  </way>
  <way id="27277783" version="4" timestamp="2011-01-24T20:32:37Z" uid="43863" user="Rundling" changeset="7077627">
    <nd ref="299421966"/>
    <nd ref="299492802"/>
    <nd ref="299421973"/>
    <nd ref="299421974"/>
    <nd ref="1119246387"/>
    <nd ref="1119246361"/>
    <nd ref="299421966"/>
    <tag k="building" v="yes"/>
  </way>
  <way id="27277796" version="2" timestamp="2008-10-23T18:09:19Z" uid="6975" user="ulfl" changeset="530870">
    <nd ref="299422071"/>
    <nd ref="299422070"/>
    <nd ref="299422067"/>
    <nd ref="299422065"/>
    <nd ref="299422062"/>
    <nd ref="299422055"/>
    <nd ref="299422053"/>
    <nd ref="299422050"/>
    <nd ref="299422048"/>
    <nd ref="299422017"/>
    <nd ref="299422019"/>
    <nd ref="299422024"/>
    <nd ref="299422027"/>
    <nd ref="299422029"/>
    <nd ref="299422032"/>
    <nd ref="299422035"/>
    <nd ref="299422042"/>
    <nd ref="299422045"/>
    <tag k="highway" v="cycleway"/>
  </way>
  <way id="27277797" version="2" timestamp="2008-10-23T18:09:19Z" uid="6975" user="ulfl" changeset="530870">
    <nd ref="299422072"/>
    <nd ref="299422073"/>
    <nd ref="299422075"/>
    <nd ref="299422035"/>
    <tag k="highway" v="cycleway"/>
  </way>
  <way id="27277918" version="37" timestamp="2010-06-24T15:49:44Z" uid="74617" user="JohnSmith" changeset="5066657">
    <nd ref="299423346"/>
    <nd ref="299423347"/>
    <nd ref="299423348"/>
    <nd ref="299423288"/>
    <nd ref="299423289"/>
    <nd ref="299423290"/>
    <nd ref="299423291"/>
    <nd ref="299423293"/>
    <nd ref="299423294"/>
    <nd ref="299423295"/>
    <nd ref="299423296"/>
    <nd ref="522147610"/>
    <nd ref="299423297"/>
    <nd ref="299423298"/>
    <nd ref="299423299"/>
    <nd ref="299423300"/>
    <nd ref="522145461"/>
    <nd ref="299423301"/>
    <nd ref="522145292"/>
    <nd ref="299423302"/>
    <nd ref="522145294"/>
    <nd ref="299423303"/>
    <nd ref="299423304"/>
    <nd ref="392987230"/>
    <nd ref="299423305"/>
    <nd ref="299423306"/>
    <nd ref="380465239"/>
    <nd ref="299423307"/>
    <nd ref="522144743"/>
    <nd ref="522144746"/>
    <nd ref="522144749"/>
    <nd ref="299423308"/>
    <nd ref="522143239"/>
    <nd ref="522143252"/>
    <nd ref="522143255"/>
    <nd ref="522143259"/>
    <nd ref="299423309"/>
    <nd ref="299423310"/>
    <nd ref="522142357"/>
    <nd ref="299423311"/>
    <nd ref="522141638"/>
    <nd ref="299423312"/>
    <nd ref="522141641"/>
    <nd ref="299423313"/>
    <nd ref="299423314"/>
    <nd ref="522138006"/>
    <nd ref="299423315"/>
    <nd ref="522138013"/>
    <nd ref="522138014"/>
    <nd ref="299423316"/>
    <nd ref="299423317"/>
    <nd ref="299423318"/>
    <nd ref="299423319"/>
    <nd ref="299423320"/>
    <nd ref="299423321"/>
    <nd ref="522133980"/>
    <nd ref="299423322"/>
    <nd ref="299423323"/>
    <nd ref="299423324"/>
    <nd ref="522132549"/>
    <nd ref="299423325"/>
    <nd ref="522132555"/>
    <nd ref="299423326"/>
    <nd ref="519656093"/>
    <nd ref="392974391"/>
    <nd ref="392975179"/>
    <nd ref="299423331"/>
    <nd ref="520649831"/>
    <nd ref="299423332"/>
    <nd ref="299423333"/>
    <tag k="highway" v="primary"/>
    <tag k="name" v="Surat Development Road"/>
    <tag k="operator" v="mainroads.qld.gov.au"/>
    <tag k="ref" v="S71"/>
    <tag k="source" v="GPS"/>
  </way>
  <way id="27277918" version="42" timestamp="2011-03-26T10:56:27Z" uid="4467" user="Rosscoe" changeset="7674118">
    <nd ref="299423346"/>
    <nd ref="299423347"/>
    <nd ref="299423348"/>
    <nd ref="299423288"/>
    <nd ref="299423289"/>
    <nd ref="299423290"/>
    <nd ref="299423291"/>
    <nd ref="299423293"/>
    <nd ref="299423294"/>
    <nd ref="299423295"/>
    <nd ref="299423296"/>
    <nd ref="522147610"/>
    <nd ref="299423297"/>
    <nd ref="299423298"/>
    <nd ref="299423299"/>
    <nd ref="299423300"/>
    <nd ref="522145461"/>
    <nd ref="299423301"/>
    <nd ref="1218815309"/>
    <nd ref="522145292"/>
    <nd ref="1218815543"/>
    <nd ref="299423302"/>
    <nd ref="1218815277"/>
    <nd ref="522145294"/>
    <nd ref="1218815368"/>
    <nd ref="299423303"/>
    <nd ref="843308374"/>
    <tag k="highway" v="primary"/>
    <tag k="name" v="Surat Development Road"/>
    <tag k="operator" v="mainroads.qld.gov.au"/>
    <tag k="ref" v="S86b"/>
    <tag k="source" v="GPS"/>
    <tag k="surface" v="paved"/>
  </way>
</osm>
