<?xml version='1.0' encoding='UTF-8'?>
<osm version="0.6" generator="libosmium/2.20.0">
  <way id="27307001" version="2" timestamp="2008-10-07T00:00:52Z" uid="30632" user="antblant" changeset="125062">
    <nd ref="299757245"/>
    <nd ref="299757872"/>
    <nd ref="299758427"/>
    <nd ref="299757576"/>
    <nd ref="299757332"/>
    <nd ref="299758370"/>
    <nd ref="299758374"/>
    <nd ref="299758378"/>
    <nd ref="299757379"/>
    <nd ref="299757342"/>
    <tag k="highway" v="residential"/>
    <tag k="name" v="Zbąszyńska"/>
    <tag k="source" v="UMP-PL, ./UMP-Poznan/src/GRODZISK_WIELKOPOLSKI.ulice.txt"/>
  </way>
  <way id="27307003" version="2" timestamp="2008-10-07T00:00:55Z" uid="30632" user="antblant" changeset="125062">
    <nd ref="299757374"/>
    <nd ref="299758061"/>
    <nd ref="299758049"/>
    <nd ref="299758084"/>
    <nd ref="299758072"/>
    <nd ref="299758005"/>
    <nd ref="299757995"/>
    <nd ref="299758033"/>
    <nd ref="299757233"/>
    <tag k="highway" v="residential"/>
    <tag k="name" v="Słomińskiego"/>
    <tag k="source" v="UMP-PL, ./UMP-Poznan/src/GRODZISK_WIELKOPOLSKI.ulice.txt"/>
  </way>
  <way id="27307005" version="2" timestamp="2008-10-07T00:00:49Z" uid="30632" user="antblant" changeset="125062">
    <nd ref="299757575"/>
    <nd ref="299757570"/>
    <nd ref="299757569"/>
    <nd ref="299757572"/>
    <nd ref="299757571"/>
    <nd ref="299757582"/>
    <nd ref="299757581"/>
    <nd ref="299757584"/>
    <nd ref="299757583"/>
    <nd ref="299757226"/>
    <tag k="highway" v="residential"/>
    <tag k="name" v="Żwirki i Wigury"/>
    <tag k="source" v="UMP-PL, ./UMP-Poznan/src/GRODZISK_WIELKOPOLSKI.ulice.txt"/>
  </way>
  <way id="27307006" version="2" timestamp="2008-10-07T00:00:51Z" uid="30632" user="antblant" changeset="125062">
    <nd ref="299757227"/>
    <nd ref="299757326"/>
    <nd ref="299757312"/>
    <nd ref="299757313"/>
    <nd ref="299757307"/>
    <nd ref="299757311"/>
    <nd ref="299757316"/>
    <nd ref="299757317"/>
    <nd ref="299757314"/>
    <nd ref="299757315"/>
    <nd ref="299757344"/>
    <nd ref="299757343"/>
    <tag k="highway" v="tertiary"/>
    <tag k="name" v="Nowotomyska"/>
    <tag k="source" v="UMP-PL, ./UMP-Poznan/src/GRODZISK_WIELKOPOLSKI.ulice.txt"/>
  </way>
  <way id="27307007" version="2" timestamp="2008-10-07T00:00:51Z" uid="30632" user="antblant" changeset="125062">
    <nd ref="299757395"/>
    <nd ref="299757439"/>
    <tag k="highway" v="residential"/>
    <tag k="name" v="Zielona"/>
    <tag k="source" v="UMP-PL, ./UMP-Poznan/src/GRODZISK_WIELKOPOLSKI.ulice.txt"/>
  </way>
  <way id="27307009" version="2" timestamp="2008-10-06T23:56:21Z" uid="30632" user="antblant" changeset="125062">
    <nd ref="299757376"/>
    <nd ref="299758020"/>
    <nd ref="299757378"/>
    <nd ref="299757861"/>
    <tag k="highway" v="residential"/>
    <tag k="name" v="Słoneczna"/>
    <tag k="source" v="UMP-PL, ./UMP-Poznan/src/GRODZISK_WIELKOPOLSKI.ulice.txt"/>
  </way>
  <way id="27307010" version="2" timestamp="2008-10-06T23:56:28Z" uid="30632" user="antblant" changeset="125062">
    <nd ref="299757582"/>
    <nd ref="299757578"/>
    <nd ref="299757577"/>
    <nd ref="299757239"/>
    <tag k="highway" v="residential"/>
    <tag k="name" v="Więzienna"/>
    <tag k="source" v="UMP-PL, ./UMP-Poznan/src/GRODZISK_WIELKOPOLSKI.ulice.txt"/>
  </way>
  <way id="27307013" version="2" timestamp="2008-10-06T23:56:17Z" uid="30632" user="antblant" changeset="125062">
    <nd ref="299757240"/>
    <nd ref="299757246"/>
    <nd ref="299757245"/>
    <nd ref="299757230"/>
    <nd ref="299757229"/>
    <nd ref="299757233"/>
    <nd ref="299757232"/>
    <nd ref="299757235"/>
    <nd ref="299757234"/>
    <nd ref="299757238"/>
    <nd ref="299757237"/>
    <tag k="highway" v="tertiary"/>
    <tag k="name" v="Drzymały"/>
    <tag k="source" v="UMP-PL, ./UMP-Poznan/src/GRODZISK_WIELKOPOLSKI.ulice.txt"/>
  </way>
  <way id="27307014" version="2" timestamp="2009-04-29T16:27:13Z" uid="30632" user="antblant" changeset="1017472">
    <nd ref="299758395"/>
    <nd ref="299758398"/>
    <nd ref="299758298"/>
    <nd ref="299758275"/>
    <nd ref="299758333"/>
    <nd ref="299758382"/>
    <tag k="highway" v="primary"/>
    <tag k="oneway" v="yes"/>
    <tag k="ref" v="32"/>
    <tag k="source" v="UMP-PL, ./UMP-Poznan/src/GRODZISK_WIELKOPOLSKI.ulice.txt"/>
  </way>
  <way id="27307015" version="2" timestamp="2008-10-06T23:56:19Z" uid="30632" user="antblant" changeset="125062">
    <nd ref="299757389"/>
    <nd ref="299757431"/>
    <nd ref="299757436"/>
    <tag k="highway" v="residential"/>
    <tag k="name" v="Plac Powstańców Wielkopolskich"/>
    <tag k="source" v="UMP-PL, ./UMP-Poznan/src/GRODZISK_WIELKOPOLSKI.ulice.txt"/>
  </way>
  <way id="27307016" version="2" timestamp="2008-10-06T23:56:11Z" uid="30632" user="antblant" changeset="125062">
    <nd ref="299757453"/>
    <nd ref="299757589"/>
    <nd ref="299757600"/>
    <nd ref="299757603"/>
    <nd ref="299757605"/>
    <nd ref="299757333"/>
    <tag k="highway" v="residential"/>
    <tag k="name" v="Wiśniowa"/>
    <tag k="source" v="UMP-PL, ./UMP-Poznan/src/GRODZISK_WIELKOPOLSKI.ulice.txt"/>
  </way>
  <way id="27307017" version="2" timestamp="2008-10-06T23:56:10Z" uid="30632" user="antblant" changeset="125062">
    <nd ref="299757205"/>
    <nd ref="299757204"/>
    <nd ref="299757203"/>
    <nd ref="299757202"/>
    <nd ref="299757228"/>
    <nd ref="299757227"/>
    <nd ref="299757226"/>
    <nd ref="299757225"/>
    <nd ref="299757224"/>
    <nd ref="299757223"/>
    <nd ref="299757222"/>
    <nd ref="299757219"/>
    <nd ref="299757240"/>
    <nd ref="299757239"/>
    <nd ref="299757242"/>
    <nd ref="299757241"/>
    <nd ref="299757244"/>
    <nd ref="299757243"/>
    <tag k="highway" v="tertiary"/>
    <tag k="name" v="Bukowska"/>
    <tag k="source" v="UMP-PL, ./UMP-Poznan/src/GRODZISK_WIELKOPOLSKI.ulice.txt"/>
  </way>
  <way id="27307018" version="2" timestamp="2009-04-29T16:27:19Z" uid="30632" user="antblant" changeset="1017472">
    <nd ref="299758382"/>
    <nd ref="299758387"/>
    <nd ref="299758279"/>
    <nd ref="299758297"/>
    <nd ref="299758391"/>
    <nd ref="299757754"/>
    <nd ref="299758395"/>
    <tag k="highway" v="primary"/>
    <tag k="oneway" v="yes"/>
    <tag k="ref" v="32"/>
    <tag k="source" v="UMP-PL, ./UMP-Poznan/src/GRODZISK_WIELKOPOLSKI.ulice.txt"/>
  </way>
  <way id="27307020" version="2" timestamp="2008-10-06T23:56:04Z" uid="30632" user="antblant" changeset="125062">
    <nd ref="299757326"/>
    <nd ref="299757595"/>
    <nd ref="299757596"/>
    <nd ref="299757598"/>
    <nd ref="299757574"/>
    <nd ref="299757573"/>
    <nd ref="299757576"/>
    <tag k="highway" v="residential"/>
    <tag k="name" v="Młyńska"/>
    <tag k="source" v="UMP-PL, ./UMP-Poznan/src/GRODZISK_WIELKOPOLSKI.ulice.txt"/>
  </way>
  <way id="27307021" version="2" timestamp="2008-10-06T23:56:01Z" uid="30632" user="antblant" changeset="125062">
    <nd ref="299757256"/>
    <nd ref="299757257"/>
    <tag k="highway" v="tertiary"/>
    <tag k="name" v="Środkowa"/>
    <tag k="source" v="UMP-PL, ./UMP-Poznan/src/GRODZISK_WIELKOPOLSKI.ulice.txt"/>
  </way>
  <way id="27307022" version="2" timestamp="2008-10-06T23:56:09Z" uid="30632" user="antblant" changeset="125062">
    <nd ref="299758298"/>
    <nd ref="299758332"/>
    <tag k="highway" v="residential"/>
    <tag k="name" v="Fabryczna"/>
    <tag k="source" v="UMP-PL, ./UMP-Poznan/src/GRODZISK_WIELKOPOLSKI.ulice.txt"/>
  </way>
  <way id="27307024" version="2" timestamp="2008-10-06T23:55:55Z" uid="30632" user="antblant" changeset="125062">
    <nd ref="299757369"/>
    <nd ref="299757402"/>
    <nd ref="299757865"/>
    <nd ref="299757892"/>
    <nd ref="299757383"/>
    <nd ref="299757523"/>
    <tag k="highway" v="tertiary"/>
    <tag k="name" v="Garbary"/>
    <tag k="source" v="UMP-PL, ./UMP-Poznan/src/GRODZISK_WIELKOPOLSKI.ulice.txt"/>
  </way>
  <way id="27307025" version="2" timestamp="2008-10-06T23:55:56Z" uid="30632" user="antblant" changeset="125062">
    <nd ref="299757593"/>
    <nd ref="299757608"/>
    <nd ref="299757594"/>
    <tag k="highway" v="residential"/>
    <tag k="name" v="Czereśniowa"/>
    <tag k="source" v="UMP-PL, ./UMP-Poznan/src/GRODZISK_WIELKOPOLSKI.ulice.txt"/>
  </way>
  <way id="27307026" version="2" timestamp="2008-10-06T23:55:58Z" uid="30632" user="antblant" changeset="125062">
    <nd ref="299757237"/>
    <nd ref="299757255"/>
    <tag k="highway" v="residential"/>
    <tag k="name" v="Nowa"/>
    <tag k="source" v="UMP-PL, ./UMP-Poznan/src/GRODZISK_WIELKOPOLSKI.ulice.txt"/>
  </way>
  <way id="27307027" version="2" timestamp="2008-10-06T23:56:00Z" uid="30632" user="antblant" changeset="125062">
    <nd ref="299758332"/>
    <nd ref="299758275"/>
    <tag k="highway" v="residential"/>
    <tag k="name" v="Fabryczna"/>
    <tag k="source" v="UMP-PL, ./UMP-Poznan/src/GRODZISK_WIELKOPOLSKI.ulice.txt"/>
  </way>
  <way id="27307028" version="2" timestamp="2008-10-06T23:55:47Z" uid="30632" user="antblant" changeset="125062">
    <nd ref="299757548"/>
    <nd ref="299757547"/>
    <nd ref="299757546"/>
    <nd ref="299757456"/>
    <tag k="highway" v="residential"/>
    <tag k="name" v="CzereŚniowa"/>
    <tag k="source" v="UMP-PL, ./UMP-Poznan/src/GRODZISK_WIELKOPOLSKI.ulice.txt"/>
  </way>
  <way id="27307029" version="2" timestamp="2008-10-06T23:55:49Z" uid="30632" user="antblant" changeset="125062">
    <nd ref="299757441"/>
    <nd ref="299757864"/>
    <nd ref="299757442"/>
    <tag k="highway" v="residential"/>
    <tag k="name" v="Zielona"/>
    <tag k="source" v="UMP-PL, ./UMP-Poznan/src/GRODZISK_WIELKOPOLSKI.ulice.txt"/>
  </way>
  <way id="27307030" version="2" timestamp="2008-10-06T23:55:51Z" uid="30632" user="antblant" changeset="125062">
    <nd ref="299758331"/>
    <nd ref="299758330"/>
    <nd ref="299757527"/>
    <tag k="highway" v="tertiary"/>
    <tag k="name" v="Poznańska"/>
    <tag k="source" v="UMP-PL, ./UMP-Poznan/src/GRODZISK_WIELKOPOLSKI.ulice.txt"/>
  </way>
  <way id="27307031" version="2" timestamp="2008-10-06T23:55:53Z" uid="30632" user="antblant" changeset="125062">
    <nd ref="299757260"/>
    <nd ref="299757261"/>
    <nd ref="299757262"/>
    <tag k="highway" v="residential"/>
    <tag k="name" v="Prosta"/>
    <tag k="source" v="UMP-PL, ./UMP-Poznan/src/GRODZISK_WIELKOPOLSKI.ulice.txt"/>
  </way>
  <way id="27307033" version="2" timestamp="2008-10-06T23:55:43Z" uid="30632" user="antblant" changeset="125062">
    <nd ref="299757441"/>
    <nd ref="299757438"/>
    <nd ref="299757437"/>
    <tag k="highway" v="residential"/>
    <tag k="name" v="Plac Powstańców Wielkopolskich"/>
    <tag k="source" v="UMP-PL, ./UMP-Poznan/src/GRODZISK_WIELKOPOLSKI.ulice.txt"/>
  </way>
  <way id="27307035" version="2" timestamp="2008-10-06T23:55:45Z" uid="30632" user="antblant" changeset="125062">
    <nd ref="299758332"/>
    <nd ref="299757924"/>
    <tag k="highway" v="residential"/>
    <tag k="name" v="Fabryczna"/>
    <tag k="source" v="UMP-PL, ./UMP-Poznan/src/GRODZISK_WIELKOPOLSKI.ulice.txt"/>
  </way>
  <way id="27307036" version="2" timestamp="2008-10-06T23:55:37Z" uid="30632" user="antblant" changeset="125062">
    <nd ref="299757258"/>
    <nd ref="299757259"/>
    <tag k="highway" v="residential"/>
    <tag k="name" v="Prosta"/>
    <tag k="source" v="UMP-PL, ./UMP-Poznan/src/GRODZISK_WIELKOPOLSKI.ulice.txt"/>
  </way>
  <way id="27307037" version="2" timestamp="2008-10-06T23:55:38Z" uid="30632" user="antblant" changeset="125062">
    <nd ref="299757456"/>
    <nd ref="299757591"/>
    <nd ref="299757592"/>
    <nd ref="299757593"/>
    <nd ref="299757585"/>
    <nd ref="299757587"/>
    <nd ref="299757588"/>
    <tag k="highway" v="residential"/>
    <tag k="name" v="CzereŚniowa"/>
    <tag k="source" v="UMP-PL, ./UMP-Poznan/src/GRODZISK_WIELKOPOLSKI.ulice.txt"/>
  </way>
  <way id="27307040" version="2" timestamp="2008-10-06T23:57:12Z" uid="30632" user="antblant" changeset="125062">
    <nd ref="299757249"/>
    <nd ref="299757250"/>
    <nd ref="299757251"/>
    <nd ref="299757252"/>
    <tag k="highway" v="residential"/>
    <tag k="name" v="Kobylnicka"/>
    <tag k="source" v="UMP-PL, ./UMP-Poznan/src/GRODZISK_WIELKOPOLSKI.ulice.txt"/>
  </way>
  <way id="27307042" version="2" timestamp="2008-10-06T23:57:09Z" uid="30632" user="antblant" changeset="125062">
    <nd ref="299757437"/>
    <nd ref="299757386"/>
    <nd ref="299757575"/>
    <tag k="highway" v="residential"/>
    <tag k="name" v="Krótka"/>
    <tag k="source" v="UMP-PL, ./UMP-Poznan/src/GRODZISK_WIELKOPOLSKI.ulice.txt"/>
  </way>
  <way id="27307043" version="2" timestamp="2008-10-06T23:57:08Z" uid="30632" user="antblant" changeset="125062">
    <nd ref="299757527"/>
    <nd ref="299758337"/>
    <nd ref="299758336"/>
    <tag k="highway" v="tertiary"/>
    <tag k="name" v="Poznańska"/>
    <tag k="source" v="UMP-PL, ./UMP-Poznan/src/GRODZISK_WIELKOPOLSKI.ulice.txt"/>
  </way>
  <way id="27307045" version="2" timestamp="2008-10-06T23:57:06Z" uid="30632" user="antblant" changeset="125062">
    <nd ref="299756978"/>
    <nd ref="299757084"/>
    <nd ref="299757098"/>
    <tag k="highway" v="residential"/>
    <tag k="name" v="Strzelecka"/>
    <tag k="source" v="UMP-PL, ./UMP-Poznan/src/GRODZISK_WIELKOPOLSKI.ulice.txt"/>
  </way>
  <way id="27307046" version="2" timestamp="2008-10-06T23:57:05Z" uid="30632" user="antblant" changeset="125062">
    <nd ref="299757257"/>
    <nd ref="299758314"/>
    <nd ref="299757255"/>
    <nd ref="299758312"/>
    <nd ref="299758329"/>
    <nd ref="299757620"/>
    <nd ref="299757623"/>
    <nd ref="299757258"/>
    <nd ref="299758328"/>
    <nd ref="299758327"/>
    <tag k="highway" v="residential"/>
    <tag k="name" v="Środkowa"/>
    <tag k="source" v="UMP-PL, ./UMP-Poznan/src/GRODZISK_WIELKOPOLSKI.ulice.txt"/>
  </way>
  <way id="27307048" version="2" timestamp="2008-10-06T23:57:03Z" uid="30632" user="antblant" changeset="125062">
    <nd ref="299757553"/>
    <nd ref="299757567"/>
    <nd ref="299757568"/>
    <nd ref="299757565"/>
    <nd ref="299757566"/>
    <nd ref="299757563"/>
    <nd ref="299757564"/>
    <tag k="highway" v="residential"/>
    <tag k="name" v="Osiedle Wojska Polskiego"/>
    <tag k="source" v="UMP-PL, ./UMP-Poznan/src/GRODZISK_WIELKOPOLSKI.ulice.txt"/>
  </way>
  <way id="27307050" version="2" timestamp="2008-10-06T23:57:01Z" uid="30632" user="antblant" changeset="125062">
    <nd ref="299756979"/>
    <nd ref="299757057"/>
    <nd ref="299756986"/>
    <nd ref="299757069"/>
    <tag k="highway" v="residential"/>
    <tag k="name" v="Kwiatowa"/>
    <tag k="source" v="UMP-PL, ./UMP-Poznan/src/GRODZISK_WIELKOPOLSKI.ulice.txt"/>
  </way>
  <way id="27307054" version="2" timestamp="2008-10-06T23:56:56Z" uid="30632" user="antblant" changeset="125062">
    <nd ref="299757455"/>
    <nd ref="299757558"/>
    <nd ref="299757554"/>
    <nd ref="299757555"/>
    <nd ref="299757552"/>
    <nd ref="299757317"/>
    <tag k="highway" v="residential"/>
    <tag k="name" v="Jabłoniowa"/>
    <tag k="source" v="UMP-PL, ./UMP-Poznan/src/GRODZISK_WIELKOPOLSKI.ulice.txt"/>
  </way>
  <way id="27307055" version="2" timestamp="2008-10-06T23:56:54Z" uid="30632" user="antblant" changeset="125062">
    <nd ref="299757126"/>
    <nd ref="299756989"/>
    <nd ref="299757145"/>
    <nd ref="299756969"/>
    <tag k="highway" v="residential"/>
    <tag k="name" v="Kilińskiego"/>
    <tag k="source" v="UMP-PL, ./UMP-Poznan/src/GRODZISK_WIELKOPOLSKI.ulice.txt"/>
  </way>
  <way id="27307057" version="2" timestamp="2008-10-06T23:56:54Z" uid="30632" user="antblant" changeset="125062">
    <nd ref="299757776"/>
    <nd ref="299757911"/>
    <nd ref="299757910"/>
    <nd ref="299757908"/>
    <nd ref="299757710"/>
    <tag k="highway" v="residential"/>
    <tag k="name" v="Osiedle Wojska Polskiego"/>
    <tag k="source" v="UMP-PL, ./UMP-Poznan/src/GRODZISK_WIELKOPOLSKI.ulice.txt"/>
  </way>
  <way id="27307058" version="2" timestamp="2008-10-06T23:56:48Z" uid="30632" user="antblant" changeset="125062">
    <nd ref="299757541"/>
    <nd ref="299757537"/>
    <nd ref="299757536"/>
    <nd ref="299757551"/>
    <nd ref="299757550"/>
    <tag k="highway" v="residential"/>
    <tag k="name" v="Osiedle Wojska Polskiego"/>
    <tag k="source" v="UMP-PL, ./UMP-Poznan/src/GRODZISK_WIELKOPOLSKI.ulice.txt"/>
  </way>
  <way id="27307059" version="2" timestamp="2008-10-06T23:56:50Z" uid="30632" user="antblant" changeset="125062">
    <nd ref="299757016"/>
    <nd ref="299757024"/>
    <nd ref="299757098"/>
    <nd ref="299757069"/>
    <nd ref="299757034"/>
    <nd ref="299757053"/>
    <nd ref="299756997"/>
    <nd ref="299757166"/>
    <nd ref="299756982"/>
    <nd ref="299757167"/>
    <nd ref="299757168"/>
    <nd ref="299757169"/>
    <nd ref="299757115"/>
    <nd ref="299757126"/>
    <tag k="highway" v="residential"/>
    <tag k="name" v="Sienkiewicza"/>
    <tag k="source" v="UMP-PL, ./UMP-Poznan/src/GRODZISK_WIELKOPOLSKI.ulice.txt"/>
  </way>
  <way id="27307060" version="2" timestamp="2008-10-06T23:56:46Z" uid="30632" user="antblant" changeset="125062">
    <nd ref="299757325"/>
    <nd ref="299758326"/>
    <nd ref="299758341"/>
    <nd ref="299758342"/>
    <nd ref="299758339"/>
    <nd ref="299758340"/>
    <nd ref="299757318"/>
    <nd ref="299757923"/>
    <nd ref="299758345"/>
    <nd ref="299757922"/>
    <nd ref="299757687"/>
    <tag k="highway" v="residential"/>
    <tag k="name" v="Rakoniewicka"/>
    <tag k="source" v="UMP-PL, ./UMP-Poznan/src/GRODZISK_WIELKOPOLSKI.ulice.txt"/>
  </way>
  <way id="27307062" version="2" timestamp="2008-10-06T23:56:42Z" uid="30632" user="antblant" changeset="125062">
    <nd ref="299757316"/>
    <nd ref="299757561"/>
    <nd ref="299757562"/>
    <nd ref="299757543"/>
    <nd ref="299757542"/>
    <nd ref="299757541"/>
    <nd ref="299757540"/>
    <nd ref="299757539"/>
    <nd ref="299757538"/>
    <tag k="highway" v="residential"/>
    <tag k="name" v="Osiedle Wojska Polskiego"/>
    <tag k="source" v="UMP-PL, ./UMP-Poznan/src/GRODZISK_WIELKOPOLSKI.ulice.txt"/>
  </way>
  <way id="27307064" version="2" timestamp="2008-10-06T23:56:40Z" uid="30632" user="antblant" changeset="125062">
    <nd ref="254617594"/>
    <nd ref="299757185"/>
    <nd ref="299757181"/>
    <nd ref="299757180"/>
    <nd ref="299757183"/>
    <nd ref="299757182"/>
    <nd ref="299757192"/>
    <tag k="highway" v="residential"/>
    <tag k="name" v="Żwirowa"/>
    <tag k="source" v="UMP-PL, ./UMP-Poznan/src/GRODZISK_WIELKOPOLSKI.ulice.txt"/>
  </way>
  <way id="27307066" version="2" timestamp="2008-10-06T23:56:38Z" uid="30632" user="antblant" changeset="125062">
    <nd ref="299756977"/>
    <nd ref="299757881"/>
    <tag k="highway" v="residential"/>
    <tag k="name" v="22 Lipca"/>
    <tag k="source" v="UMP-PL, ./UMP-Poznan/src/GRODZISK_WIELKOPOLSKI.ulice.txt"/>
  </way>
  <way id="27307068" version="2" timestamp="2008-10-06T23:56:34Z" uid="30632" user="antblant" changeset="125062">
    <nd ref="299757160"/>
    <nd ref="299757175"/>
    <nd ref="299757174"/>
    <nd ref="299757179"/>
    <nd ref="299757176"/>
    <nd ref="299757171"/>
    <nd ref="299757170"/>
    <nd ref="299756985"/>
    <nd ref="299757173"/>
    <nd ref="299757172"/>
    <nd ref="299757016"/>
    <nd ref="299757184"/>
    <nd ref="254617324"/>
    <tag k="highway" v="residential"/>
    <tag k="name" v="Nowy Świat"/>
    <tag k="source" v="UMP-PL, ./UMP-Poznan/src/GRODZISK_WIELKOPOLSKI.ulice.txt"/>
  </way>
  <way id="27307069" version="2" timestamp="2008-10-06T23:56:36Z" uid="30632" user="antblant" changeset="125062">
    <nd ref="299757450"/>
    <nd ref="299757416"/>
    <nd ref="299757452"/>
    <nd ref="299757451"/>
    <nd ref="299757533"/>
    <tag k="highway" v="residential"/>
    <tag k="name" v="Chopina"/>
    <tag k="source" v="UMP-PL, ./UMP-Poznan/src/GRODZISK_WIELKOPOLSKI.ulice.txt"/>
  </way>
  <way id="27307070" version="2" timestamp="2008-10-06T23:56:30Z" uid="30632" user="antblant" changeset="125062">
    <nd ref="299756975"/>
    <nd ref="299757890"/>
    <nd ref="299757889"/>
    <tag k="highway" v="residential"/>
    <tag k="name" v="22 Lipca"/>
    <tag k="source" v="UMP-PL, ./UMP-Poznan/src/GRODZISK_WIELKOPOLSKI.ulice.txt"/>
  </way>
  <way id="27307071" version="2" timestamp="2008-10-06T23:56:33Z" uid="30632" user="antblant" changeset="125062">
    <nd ref="299757200"/>
    <nd ref="299757193"/>
    <nd ref="299757201"/>
    <nd ref="299757198"/>
    <nd ref="299757199"/>
    <nd ref="299757196"/>
    <nd ref="299757197"/>
    <nd ref="299757194"/>
    <nd ref="299757195"/>
    <nd ref="299757213"/>
    <nd ref="299757209"/>
    <nd ref="299757207"/>
    <nd ref="299757206"/>
    <tag k="highway" v="tertiary"/>
    <tag k="name" v="Bukowska"/>
    <tag k="source" v="UMP-PL, ./UMP-Poznan/src/GRODZISK_WIELKOPOLSKI.ulice.txt"/>
  </way>
  <way id="27307077" version="2" timestamp="2008-10-06T23:57:41Z" uid="30632" user="antblant" changeset="125062">
    <nd ref="299757193"/>
    <nd ref="299757190"/>
    <nd ref="299757191"/>
    <nd ref="299757188"/>
    <nd ref="299757189"/>
    <nd ref="299757186"/>
    <nd ref="299757187"/>
    <tag k="highway" v="tertiary"/>
    <tag k="name" v="Mikołajczyka"/>
    <tag k="source" v="UMP-PL, ./UMP-Poznan/src/GRODZISK_WIELKOPOLSKI.ulice.txt"/>
  </way>
  <way id="27307079" version="2" timestamp="2008-10-06T23:57:42Z" uid="30632" user="antblant" changeset="125062">
    <nd ref="299757339"/>
    <nd ref="299757453"/>
    <nd ref="299757456"/>
    <nd ref="299757455"/>
    <nd ref="299757459"/>
    <nd ref="299757458"/>
    <nd ref="299757497"/>
    <nd ref="299757493"/>
    <nd ref="299757559"/>
    <tag k="highway" v="residential"/>
    <tag k="name" v="Kąkolewska"/>
    <tag k="source" v="UMP-PL, ./UMP-Poznan/src/GRODZISK_WIELKOPOLSKI.ulice.txt"/>
  </way>
  <way id="27307080" version="2" timestamp="2008-10-06T23:57:33Z" uid="30632" user="antblant" changeset="125062">
    <nd ref="299756980"/>
    <nd ref="299757880"/>
    <tag k="highway" v="residential"/>
    <tag k="name" v="22 Lipca"/>
    <tag k="source" v="UMP-PL, ./UMP-Poznan/src/GRODZISK_WIELKOPOLSKI.ulice.txt"/>
  </way>
  <way id="27307081" version="2" timestamp="2008-10-06T23:57:31Z" uid="30632" user="antblant" changeset="125062">
    <nd ref="299757186"/>
    <nd ref="299758190"/>
    <nd ref="299758192"/>
    <nd ref="299758193"/>
    <nd ref="299758195"/>
    <nd ref="299758196"/>
    <nd ref="299758197"/>
    <tag k="highway" v="residential"/>
    <tag k="name" v="Leśna"/>
    <tag k="source" v="UMP-PL, ./UMP-Poznan/src/GRODZISK_WIELKOPOLSKI.ulice.txt"/>
  </way>
  <way id="27307082" version="2" timestamp="2008-10-06T23:57:36Z" uid="30632" user="antblant" changeset="125062">
    <nd ref="299757523"/>
    <nd ref="299757524"/>
    <nd ref="299757525"/>
    <nd ref="299757526"/>
    <nd ref="299757527"/>
    <tag k="highway" v="tertiary"/>
    <tag k="name" v="Poznańska"/>
    <tag k="source" v="UMP-PL, ./UMP-Poznan/src/GRODZISK_WIELKOPOLSKI.ulice.txt"/>
  </way>
  <way id="27307083" version="2" timestamp="2008-10-06T23:57:35Z" uid="30632" user="antblant" changeset="125062">
    <nd ref="299756960"/>
    <nd ref="299756963"/>
    <tag k="highway" v="residential"/>
    <tag k="name" v="Zbożowa"/>
    <tag k="source" v="UMP-PL, ./UMP-Poznan/src/GRODZISK_WIELKOPOLSKI.ulice.txt"/>
  </way>
  <way id="27307084" version="2" timestamp="2008-10-06T23:57:38Z" uid="30632" user="antblant" changeset="125062">
    <nd ref="299757186"/>
    <nd ref="299758199"/>
    <tag k="highway" v="residential"/>
    <tag k="name" v="Wesoła"/>
    <tag k="source" v="UMP-PL, ./UMP-Poznan/src/GRODZISK_WIELKOPOLSKI.ulice.txt"/>
  </way>
  <way id="27307086" version="2" timestamp="2008-10-06T23:57:39Z" uid="30632" user="antblant" changeset="125062">
    <nd ref="299757525"/>
    <nd ref="299757529"/>
    <tag k="highway" v="residential"/>
    <tag k="name" v="Poznańska"/>
    <tag k="source" v="UMP-PL, ./UMP-Poznan/src/GRODZISK_WIELKOPOLSKI.ulice.txt"/>
  </way>
  <way id="27307087" version="2" timestamp="2008-10-06T23:57:38Z" uid="30632" user="antblant" changeset="125062">
    <nd ref="299756956"/>
    <nd ref="299756964"/>
    <nd ref="299756961"/>
    <nd ref="299756962"/>
    <nd ref="299756967"/>
    <nd ref="299756968"/>
    <nd ref="299756965"/>
    <tag k="highway" v="residential"/>
    <tag k="name" v="11 Listopada"/>
    <tag k="source" v="UMP-PL, ./UMP-Poznan/src/GRODZISK_WIELKOPOLSKI.ulice.txt"/>
  </way>
  <way id="27307088" version="2" timestamp="2008-10-06T23:57:24Z" uid="30632" user="antblant" changeset="125062">
    <nd ref="299758199"/>
    <nd ref="299758200"/>
    <nd ref="299758201"/>
    <nd ref="299758203"/>
    <nd ref="299758204"/>
    <nd ref="299758205"/>
    <nd ref="299758206"/>
    <tag k="highway" v="residential"/>
    <tag k="name" v="Rolna"/>
    <tag k="source" v="UMP-PL, ./UMP-Poznan/src/GRODZISK_WIELKOPOLSKI.ulice.txt"/>
  </way>
  <way id="27307089" version="2" timestamp="2008-10-06T23:57:25Z" uid="30632" user="antblant" changeset="125062">
    <nd ref="299757531"/>
    <nd ref="299757529"/>
    <nd ref="299757532"/>
    <nd ref="299757380"/>
    <nd ref="299757533"/>
    <nd ref="299757383"/>
    <tag k="highway" v="residential"/>
    <tag k="name" v="Staszica"/>
    <tag k="source" v="UMP-PL, ./UMP-Poznan/src/GRODZISK_WIELKOPOLSKI.ulice.txt"/>
  </way>
  <way id="27307090" version="2" timestamp="2008-10-06T23:57:26Z" uid="30632" user="antblant" changeset="125062">
    <nd ref="299756951"/>
    <nd ref="299756967"/>
    <nd ref="299756966"/>
    <tag k="highway" v="residential"/>
    <tag k="name" v="15 Sierpnia"/>
    <tag k="source" v="UMP-PL, ./UMP-Poznan/src/GRODZISK_WIELKOPOLSKI.ulice.txt"/>
  </way>
  <way id="27307093" version="2" timestamp="2008-10-06T23:57:28Z" uid="30632" user="antblant" changeset="125062">
    <nd ref="299757534"/>
    <nd ref="299757535"/>
    <nd ref="299757444"/>
    <nd ref="299757443"/>
    <nd ref="299757448"/>
    <nd ref="299757446"/>
    <nd ref="299757450"/>
    <nd ref="299757449"/>
    <tag k="highway" v="residential"/>
    <tag k="name" v="Chopina"/>
    <tag k="source" v="UMP-PL, ./UMP-Poznan/src/GRODZISK_WIELKOPOLSKI.ulice.txt"/>
  </way>
  <way id="27307094" version="2" timestamp="2008-10-06T23:57:29Z" uid="30632" user="antblant" changeset="125062">
    <nd ref="299756962"/>
    <nd ref="299756950"/>
    <tag k="highway" v="residential"/>
    <tag k="name" v="11 Listopada"/>
    <tag k="source" v="UMP-PL, ./UMP-Poznan/src/GRODZISK_WIELKOPOLSKI.ulice.txt"/>
  </way>
  <way id="27307096" version="2" timestamp="2008-10-06T23:57:13Z" uid="30632" user="antblant" changeset="125062">
    <nd ref="299757700"/>
    <nd ref="299757906"/>
    <nd ref="299757202"/>
    <tag k="highway" v="residential"/>
    <tag k="name" v="Winna"/>
    <tag k="source" v="UMP-PL, ./UMP-Poznan/src/GRODZISK_WIELKOPOLSKI.ulice.txt"/>
  </way>
  <way id="27307097" version="2" timestamp="2008-10-06T23:57:14Z" uid="30632" user="antblant" changeset="125062">
    <nd ref="299756948"/>
    <nd ref="299756965"/>
    <nd ref="299756971"/>
    <nd ref="299756972"/>
    <nd ref="299756969"/>
    <nd ref="299756970"/>
    <nd ref="299756977"/>
    <nd ref="299756976"/>
    <nd ref="299756975"/>
    <nd ref="299756973"/>
    <nd ref="299756981"/>
    <nd ref="299756980"/>
    <nd ref="299756979"/>
    <nd ref="299756978"/>
    <nd ref="299756985"/>
    <tag k="highway" v="residential"/>
    <tag k="name" v="22 Lipca"/>
    <tag k="source" v="UMP-PL, ./UMP-Poznan/src/GRODZISK_WIELKOPOLSKI.ulice.txt"/>
  </way>
  <way id="27307098" version="2" timestamp="2008-10-06T23:57:15Z" uid="30632" user="antblant" changeset="125062">
    <nd ref="299757511"/>
    <nd ref="299757501"/>
    <tag k="highway" v="residential"/>
    <tag k="name" v="Ratuszowa"/>
    <tag k="source" v="UMP-PL, ./UMP-Poznan/src/GRODZISK_WIELKOPOLSKI.ulice.txt"/>
  </way>
  <way id="27307099" version="2" timestamp="2008-10-06T23:57:17Z" uid="30632" user="antblant" changeset="125062">
    <nd ref="299757683"/>
    <nd ref="299757407"/>
    <tag k="highway" v="residential"/>
    <tag k="name" v="Stary Rynek"/>
    <tag k="source" v="UMP-PL, ./UMP-Poznan/src/GRODZISK_WIELKOPOLSKI.ulice.txt"/>
  </way>
  <way id="27307100" version="2" timestamp="2008-10-06T23:57:17Z" uid="30632" user="antblant" changeset="125062">
    <nd ref="299756973"/>
    <nd ref="299756984"/>
    <nd ref="299756983"/>
    <nd ref="299756982"/>
    <tag k="highway" v="residential"/>
    <tag k="name" v="Sienkiewicza"/>
    <tag k="source" v="UMP-PL, ./UMP-Poznan/src/GRODZISK_WIELKOPOLSKI.ulice.txt"/>
  </way>
  <way id="27307101" version="2" timestamp="2008-10-06T23:57:19Z" uid="30632" user="antblant" changeset="125062">
    <nd ref="299757501"/>
    <nd ref="299757506"/>
    <nd ref="299757407"/>
    <tag k="highway" v="residential"/>
    <tag k="name" v="Stary Rynek"/>
    <tag k="source" v="UMP-PL, ./UMP-Poznan/src/GRODZISK_WIELKOPOLSKI.ulice.txt"/>
  </way>
  <way id="27307102" version="2" timestamp="2008-10-06T23:57:20Z" uid="30632" user="antblant" changeset="125062">
    <nd ref="299756955"/>
    <nd ref="299756935"/>
    <nd ref="299756933"/>
    <nd ref="299756927"/>
    <nd ref="299756920"/>
    <nd ref="299757905"/>
    <nd ref="299757903"/>
    <nd ref="299757896"/>
    <nd ref="299757893"/>
    <tag k="highway" v="tertiary"/>
    <tag k="name" v="Nowaczyka"/>
    <tag k="source" v="UMP-PL, ./UMP-Poznan/src/GRODZISK_WIELKOPOLSKI.ulice.txt"/>
  </way>
  <way id="27307103" version="2" timestamp="2008-10-06T23:57:22Z" uid="30632" user="antblant" changeset="125062">
    <nd ref="299757007"/>
    <nd ref="299756997"/>
    <tag k="highway" v="residential"/>
    <tag k="name" v="Robotnicza"/>
    <tag k="source" v="UMP-PL, ./UMP-Poznan/src/GRODZISK_WIELKOPOLSKI.ulice.txt"/>
  </way>
  <way id="27307104" version="2" timestamp="2008-10-06T23:58:11Z" uid="30632" user="antblant" changeset="125062">
    <nd ref="299757407"/>
    <nd ref="299757516"/>
    <nd ref="299757406"/>
    <nd ref="299757520"/>
    <nd ref="299757523"/>
    <tag k="highway" v="residential"/>
    <tag k="name" v="Poznańska"/>
    <tag k="source" v="UMP-PL, ./UMP-Poznan/src/GRODZISK_WIELKOPOLSKI.ulice.txt"/>
  </way>
  <way id="27307106" version="2" timestamp="2008-10-06T23:58:07Z" uid="30632" user="antblant" changeset="125062">
    <nd ref="299756949"/>
    <nd ref="299756989"/>
    <nd ref="299756983"/>
    <nd ref="299757007"/>
    <nd ref="299756986"/>
    <tag k="highway" v="residential"/>
    <tag k="name" v="1 Maja"/>
    <tag k="source" v="UMP-PL, ./UMP-Poznan/src/GRODZISK_WIELKOPOLSKI.ulice.txt"/>
  </way>
  <way id="27307107" version="2" timestamp="2008-10-06T23:58:05Z" uid="30632" user="antblant" changeset="125062">
    <nd ref="299756930"/>
    <nd ref="299756924"/>
    <nd ref="299756931"/>
    <nd ref="299756932"/>
    <tag k="highway" v="residential"/>
    <tag k="name" v="Sportowa"/>
    <tag k="source" v="UMP-PL, ./UMP-Poznan/src/GRODZISK_WIELKOPOLSKI.ulice.txt"/>
  </way>
  <way id="27307109" version="2" timestamp="2008-10-06T23:58:17Z" uid="30632" user="antblant" changeset="125062">
    <nd ref="299757402"/>
    <nd ref="299757401"/>
    <nd ref="299757411"/>
    <nd ref="299757403"/>
    <nd ref="299757407"/>
    <tag k="highway" v="residential"/>
    <tag k="name" v="Gołębia"/>
    <tag k="source" v="UMP-PL, ./UMP-Poznan/src/GRODZISK_WIELKOPOLSKI.ulice.txt"/>
  </way>
  <way id="27307110" version="2" timestamp="2008-10-06T23:58:15Z" uid="30632" user="antblant" changeset="125062">
    <nd ref="299756931"/>
    <nd ref="299756925"/>
    <nd ref="299756933"/>
    <tag k="highway" v="residential"/>
    <tag k="name" v="Malinowskiego"/>
    <tag k="source" v="UMP-PL, ./UMP-Poznan/src/GRODZISK_WIELKOPOLSKI.ulice.txt"/>
  </way>
  <way id="27307112" version="2" timestamp="2008-10-06T23:57:57Z" uid="30632" user="antblant" changeset="125062">
    <nd ref="299757406"/>
    <nd ref="299757405"/>
    <nd ref="299757415"/>
    <nd ref="299757414"/>
    <nd ref="299757413"/>
    <nd ref="299757411"/>
    <tag k="highway" v="residential"/>
    <tag k="name" v="Krzywa"/>
    <tag k="source" v="UMP-PL, ./UMP-Poznan/src/GRODZISK_WIELKOPOLSKI.ulice.txt"/>
  </way>
  <way id="27307113" version="2" timestamp="2008-10-06T23:57:55Z" uid="30632" user="antblant" changeset="125062">
    <nd ref="299756934"/>
    <nd ref="299756935"/>
    <tag k="highway" v="residential"/>
    <tag k="name" v="Kusocińskiego"/>
    <tag k="source" v="UMP-PL, ./UMP-Poznan/src/GRODZISK_WIELKOPOLSKI.ulice.txt"/>
  </way>
  <way id="27307116" version="2" timestamp="2008-10-06T23:58:03Z" uid="30632" user="antblant" changeset="125062">
    <nd ref="299757412"/>
    <nd ref="299757398"/>
    <tag k="highway" v="residential"/>
    <tag k="name" v="Wawrzyniaka"/>
    <tag k="source" v="UMP-PL, ./UMP-Poznan/src/GRODZISK_WIELKOPOLSKI.ulice.txt"/>
  </way>
  <way id="27307119" version="2" timestamp="2008-10-06T23:57:59Z" uid="30632" user="antblant" changeset="125062">
    <nd ref="299757501"/>
    <nd ref="299757398"/>
    <tag k="highway" v="residential"/>
    <tag k="name" v="Mickiewicza"/>
    <tag k="source" v="UMP-PL, ./UMP-Poznan/src/GRODZISK_WIELKOPOLSKI.ulice.txt"/>
  </way>
  <way id="27307122" version="2" timestamp="2008-10-06T23:57:49Z" uid="30632" user="antblant" changeset="125062">
    <nd ref="299757436"/>
    <nd ref="299757441"/>
    <tag k="highway" v="residential"/>
    <tag k="name" v="Plac Powstańców Wielkopolskich"/>
    <tag k="source" v="UMP-PL, ./UMP-Poznan/src/GRODZISK_WIELKOPOLSKI.ulice.txt"/>
  </way>
  <way id="27307123" version="2" timestamp="2008-10-06T23:57:50Z" uid="30632" user="antblant" changeset="125062">
    <nd ref="299757194"/>
    <nd ref="299758207"/>
    <nd ref="299758209"/>
    <nd ref="299758208"/>
    <nd ref="299757160"/>
    <nd ref="299758211"/>
    <tag k="highway" v="residential"/>
    <tag k="name" v="Jałowcowa"/>
    <tag k="source" v="UMP-PL, ./UMP-Poznan/src/GRODZISK_WIELKOPOLSKI.ulice.txt"/>
  </way>
  <way id="27307127" version="2" timestamp="2008-10-06T23:57:52Z" uid="30632" user="antblant" changeset="125062">
    <nd ref="299757426"/>
    <nd ref="299757442"/>
    <nd ref="299757439"/>
    <tag k="highway" v="residential"/>
    <tag k="name" v="Zielona"/>
    <tag k="source" v="UMP-PL, ./UMP-Poznan/src/GRODZISK_WIELKOPOLSKI.ulice.txt"/>
  </way>
  <way id="27307128" version="2" timestamp="2008-10-06T23:57:44Z" uid="30632" user="antblant" changeset="125062">
    <nd ref="299758211"/>
    <nd ref="299758210"/>
    <tag k="highway" v="residential"/>
    <tag k="name" v="Sosnowa"/>
    <tag k="source" v="UMP-PL, ./UMP-Poznan/src/GRODZISK_WIELKOPOLSKI.ulice.txt"/>
  </way>
  <way id="27307129" version="2" timestamp="2008-10-06T23:57:45Z" uid="30632" user="antblant" changeset="125062">
    <nd ref="299756945"/>
    <nd ref="299756944"/>
    <nd ref="299756947"/>
    <nd ref="299756946"/>
    <nd ref="299756949"/>
    <nd ref="299756948"/>
    <nd ref="299756932"/>
    <nd ref="299756951"/>
    <nd ref="299756950"/>
    <nd ref="299756955"/>
    <nd ref="299756952"/>
    <nd ref="299756941"/>
    <nd ref="299756959"/>
    <tag k="highway" v="tertiary"/>
    <tag k="name" v="Powstańców Chocieszyńskich"/>
    <tag k="source" v="UMP-PL, ./UMP-Poznan/src/GRODZISK_WIELKOPOLSKI.ulice.txt"/>
  </way>
  <way id="27307131" version="2" timestamp="2008-10-06T23:57:42Z" uid="30632" user="antblant" changeset="125062">
    <nd ref="299758210"/>
    <nd ref="299757195"/>
    <tag k="highway" v="residential"/>
    <tag k="name" v="Świerkowa"/>
    <tag k="source" v="UMP-PL, ./UMP-Poznan/src/GRODZISK_WIELKOPOLSKI.ulice.txt"/>
  </way>
  <way id="27307132" version="2" timestamp="2008-10-06T23:57:47Z" uid="30632" user="antblant" changeset="125062">
    <nd ref="299756952"/>
    <nd ref="299756960"/>
    <nd ref="299756956"/>
    <nd ref="299756957"/>
    <tag k="highway" v="residential"/>
    <tag k="name" v="Słowiańska"/>
    <tag k="source" v="UMP-PL, ./UMP-Poznan/src/GRODZISK_WIELKOPOLSKI.ulice.txt"/>
  </way>
  <way id="27307133" version="2" timestamp="2008-10-06T23:57:48Z" uid="30632" user="antblant" changeset="125062">
    <nd ref="299757399"/>
    <nd ref="299757398"/>
    <nd ref="299757397"/>
    <nd ref="299757404"/>
    <nd ref="299757403"/>
    <tag k="highway" v="residential"/>
    <tag k="name" v="Wawrzyniaka"/>
    <tag k="source" v="UMP-PL, ./UMP-Poznan/src/GRODZISK_WIELKOPOLSKI.ulice.txt"/>
  </way>
  <way id="27307139" version="3" timestamp="2009-04-29T16:52:30Z" uid="30632" user="antblant" changeset="1017841">
    <nd ref="299758416"/>
    <nd ref="299758335"/>
    <nd ref="299758331"/>
    <nd ref="299758336"/>
    <nd ref="299757916"/>
    <tag k="created_by" v="Potlatch 0.10c"/>
    <tag k="highway" v="primary"/>
    <tag k="ref" v="32"/>
  </way>
  <way id="27307328" version="2" timestamp="2009-11-26T18:19:09Z" uid="20587" user="balrog-kun" changeset="3222155">
    <nd ref="299760686"/>
    <nd ref="299760775"/>
    <nd ref="299760778"/>
    <nd ref="299760777"/>
    <nd ref="299760736"/>
    <tag k="highway" v="residential"/>
    <tag k="name" v="Katarzyńska"/>
    <tag k="source" v="UMP-PL, ./UMP-Poznan/src/GRUSZCZYN.ulice.txt"/>
    <tag k="surface" v="unpaved"/>
  </way>
  <way id="27307350" version="3" timestamp="2009-11-26T18:19:09Z" uid="20587" user="balrog-kun" changeset="3222155">
    <nd ref="299760710"/>
    <nd ref="299760714"/>
    <nd ref="299760700"/>
    <tag k="highway" v="residential"/>
    <tag k="name" v="Zielińska"/>
    <tag k="source" v="UMP-PL, ./UMP-Poznan/src/GRUSZCZYN.ulice.txt"/>
  </way>
  <way id="27307357" version="2" timestamp="2009-11-26T18:19:09Z" uid="20587" user="balrog-kun" changeset="3222155">
    <nd ref="299760696"/>
    <nd ref="310055480"/>
    <nd ref="299760686"/>
    <tag k="highway" v="residential"/>
    <tag k="source" v="UMP-PL, ./UMP-Poznan/src/GRUSZCZYN.ulice.txt"/>
    <tag k="surface" v="unpaved"/>
  </way>
  <way id="27307361" version="2" timestamp="2009-11-26T18:19:09Z" uid="20587" user="balrog-kun" changeset="3222155">
    <nd ref="299760682"/>
    <nd ref="299760686"/>
    <tag k="highway" v="residential"/>
    <tag k="source" v="UMP-PL, ./UMP-Poznan/src/GRUSZCZYN.ulice.txt"/>
    <tag k="surface" v="unpaved"/>
  </way>
  <way id="27307365" version="2" timestamp="2010-04-07T12:53:27Z" uid="20587" user="balrog-kun" changeset="4353646">
    <nd ref="227857462"/>
    <nd ref="227681720"/>
    <nd ref="227681178"/>
    <nd ref="227923225"/>
    <nd ref="227923228"/>
    <nd ref="227923233"/>
    <nd ref="227923237"/>
    <nd ref="227923244"/>
    <nd ref="227923249"/>
    <nd ref="227711744"/>
    <nd ref="227923254"/>
    <nd ref="227923257"/>
    <nd ref="227923265"/>
    <nd ref="227923271"/>
    <nd ref="227923276"/>
    <nd ref="227923279"/>
    <nd ref="227923282"/>
    <nd ref="227923288"/>
    <nd ref="227923295"/>
    <nd ref="227923300"/>
    <nd ref="227716885"/>
    <nd ref="227923306"/>
    <nd ref="227923320"/>
    <nd ref="227923339"/>
    <nd ref="227711225"/>
    <nd ref="227923346"/>
    <nd ref="227923350"/>
    <nd ref="227923354"/>
    <nd ref="227923359"/>
    <nd ref="227923363"/>
    <nd ref="227923367"/>
    <nd ref="227869354"/>
    <nd ref="227923371"/>
    <nd ref="227923375"/>
    <nd ref="227923381"/>
    <nd ref="227923383"/>
    <nd ref="227923385"/>
    <nd ref="227707761"/>
    <nd ref="227923387"/>
    <nd ref="227923389"/>
    <nd ref="227923391"/>
    <nd ref="227923393"/>
    <nd ref="227923401"/>
    <nd ref="227706902"/>
    <nd ref="227923404"/>
    <nd ref="227867740"/>
    <nd ref="227923408"/>
    <nd ref="227923410"/>
    <nd ref="227923414"/>
    <nd ref="227923416"/>
    <nd ref="227861919"/>
    <nd ref="227923419"/>
    <nd ref="227923424"/>
    <nd ref="227867609"/>
    <nd ref="227923427"/>
    <nd ref="227923430"/>
    <nd ref="227861862"/>
    <nd ref="227691696"/>
    <nd ref="227691542"/>
    <nd ref="227923434"/>
    <nd ref="227923437"/>
    <nd ref="227694115"/>
    <nd ref="227923441"/>
    <nd ref="227923448"/>
    <nd ref="227923452"/>
    <nd ref="227923456"/>
    <nd ref="227923457"/>
    <nd ref="227923459"/>
    <nd ref="227923461"/>
    <nd ref="227923462"/>
    <nd ref="227923465"/>
    <nd ref="227704812"/>
    <nd ref="227923470"/>
    <nd ref="227923474"/>
    <nd ref="227877788"/>
    <nd ref="227923479"/>
    <nd ref="227819068"/>
    <nd ref="227923482"/>
    <nd ref="227923485"/>
    <nd ref="227923492"/>
    <nd ref="227819120"/>
    <nd ref="227923494"/>
    <nd ref="227923496"/>
    <nd ref="227923500"/>
    <nd ref="227923504"/>
    <nd ref="227923508"/>
    <nd ref="227912104"/>
    <nd ref="227923510"/>
    <nd ref="227923513"/>
    <nd ref="227923516"/>
    <nd ref="227923519"/>
    <nd ref="227923523"/>
    <nd ref="227799023"/>
    <nd ref="227923527"/>
    <nd ref="227622461"/>
    <nd ref="227923531"/>
    <nd ref="227923535"/>
    <nd ref="227923542"/>
    <nd ref="227923549"/>
    <nd ref="227920766"/>
    <nd ref="227917515"/>
    <nd ref="227918173"/>
    <tag k="highway" v="secondary"/>
    <tag k="name" v="State Highway 349"/>
    <tag k="name_1" v="Drake Street"/>
    <tag k="ref" v="TX 349"/>
    <tag k="tiger:cfcc" v="A31"/>
    <tag k="tiger:county" v="Pecos, TX"/>
    <tag k="tiger:name_base" v="State Highway 349"/>
    <tag k="tiger:name_base_1" v="Drake"/>
    <tag k="tiger:name_type_1" v="St"/>
    <tag k="tiger:reviewed" v="no"/>
    <tag k="tiger:separated" v="no"/>
    <tag k="tiger:source" v="tiger_import_dch_v0.6_20070830"/>
    <tag k="tiger:tlid" v="184276474:184280400:184276569:184276607:184276628:184276557:184276748:184276639:184276654:184277338:184277289:184277247:184277248:184277340:184277342:184277255:184277256:184277269:184277259:184277281:184277277:184277291:184280422:184277571:184277574:18427"/>
  </way>
  <way id="27307468" version="2" timestamp="2008-10-08T18:58:22Z" uid="30632" user="antblant" changeset="169665">
    <nd ref="299762362"/>
    <nd ref="299762384"/>
    <tag k="UMP_Level" v="1"/>
    <tag k="highway" v="residential"/>
    <tag k="name" v="Świerkowa"/>
    <tag k="source" v="UMP-PL, ./UMP-Poznan/src/JANOWIEC_WIELKOPOLSKI.ulice.txt"/>
  </way>
  <way id="27307623" version="3" timestamp="2008-12-03T09:15:17Z" uid="43863" user="Rundling" changeset="66037">
    <nd ref="299764150"/>
    <nd ref="299764048"/>
    <nd ref="299764049"/>
    <nd ref="299764050"/>
    <tag k="created_by" v="Potlatch 0.10b"/>
    <tag k="highway" v="track"/>
  </way>
  <way id="27307724" version="2" timestamp="2008-12-03T09:15:24Z" uid="43863" user="Rundling" changeset="66037">
    <nd ref="299764546"/>
    <nd ref="316409194"/>
    <tag k="created_by" v="Potlatch 0.10b"/>
    <tag k="highway" v="track"/>
  </way>
  <way id="27307726" version="3" timestamp="2008-12-03T09:15:24Z" uid="43863" user="Rundling" changeset="66037">
    <nd ref="299764547"/>
    <nd ref="316409204"/>
    <tag k="created_by" v="Potlatch 0.10c"/>
    <tag k="highway" v="track"/>
  </way>
  <way id="27307812" version="4" timestamp="2008-12-03T08:40:36Z" uid="43863" user="Rundling" changeset="66037">
    <nd ref="299766470"/>
    <nd ref="299766471"/>
    <nd ref="299766542"/>
    <nd ref="299767554"/>
    <nd ref="316403481"/>
    <tag k="created_by" v="Potlatch 0.10b"/>
    <tag k="highway" v="track"/>
  </way>
  <way id="27307812" version="5" timestamp="2008-12-03T09:15:25Z" uid="43863" user="Rundling" changeset="66037">
    <nd ref="299766470"/>
    <nd ref="299766471"/>
    <nd ref="299766542"/>
    <nd ref="316409195"/>
    <nd ref="316403481"/>
    <tag k="created_by" v="Potlatch 0.10b"/>
    <tag k="highway" v="track"/>
  </way>
  <way id="27307826" version="4" timestamp="2008-12-03T08:40:38Z" uid="43863" user="Rundling" changeset="66037">
    <nd ref="299767479"/>
    <nd ref="299766840"/>
    <nd ref="299766842"/>
    <nd ref="299766471"/>
    <tag k="created_by" v="Potlatch 0.10c"/>
    <tag k="highway" v="track"/>
  </way>
  <way id="27307964" version="4" timestamp="2009-05-31T22:00:09Z" uid="49111" user="Markus B" changeset="1374176"/>
  <way id="27307976" version="2" timestamp="2008-12-03T08:40:41Z" uid="43863" user="Rundling" changeset="66037"/>
</osm>
