<?xml version='1.0' encoding='UTF-8'?>
<osm version="0.6" generator="libosmium/2.20.0">
  <way id="27309042" version="4" timestamp="2009-02-24T23:53:37Z" uid="34428" user="usm78-gis" changeset="661135">
    <nd ref="328096"/>
    <nd ref="245792"/>
    <nd ref="245795"/>
    <tag k="created_by" v="Potlatch 0.10f"/>
    <tag k="highway" v="primary_link"/>
  </way>
  <way id="27309127" version="2" timestamp="2009-02-24T20:45:50Z" uid="34428" user="usm78-gis" changeset="653426">
    <nd ref="276738"/>
    <nd ref="223577"/>
    <tag k="created_by" v="Potlatch 0.6c"/>
    <tag k="highway" v="tertiary"/>
    <tag k="name" v="Профессора Попова ул."/>
  </way>
  <way id="27309236" version="1" timestamp="2008-09-25T17:37:26Z" uid="36809" user="pfoten_weg_!_" changeset="696635">
    <nd ref="299242295"/>
    <nd ref="299774628"/>
    <nd ref="299774629"/>
    <nd ref="299774630"/>
    <nd ref="299774631"/>
    <nd ref="299774632"/>
    <nd ref="299774633"/>
    <nd ref="299774634"/>
    <nd ref="299774635"/>
    <nd ref="299774636"/>
    <tag k="access" v="permissive"/>
    <tag k="created_by" v="RambaZamba"/>
    <tag k="foot" v="permissive"/>
    <tag k="highway" v="footway"/>
    <tag k="layer" v="0"/>
    <tag k="name" v="Bertelestraße"/>
    <tag k="source" v="survey"/>
    <tag k="surface" v="paved"/>
    <tag k="width" v="2"/>
  </way>
  <way id="27309236" version="2" timestamp="2008-10-01T02:30:25Z" uid="36809" user="pfoten_weg_!_" changeset="5644">
    <nd ref="299242295"/>
    <nd ref="299774628"/>
    <nd ref="299774629"/>
    <nd ref="299774630"/>
    <nd ref="299774631"/>
    <nd ref="299774632"/>
    <nd ref="299774633"/>
    <nd ref="299774634"/>
    <nd ref="299774635"/>
    <nd ref="299774636"/>
    <tag k="access" v="permissive"/>
    <tag k="created_by" v="RambaZamba"/>
    <tag k="foot" v="permissive"/>
    <tag k="highway" v="footway"/>
    <tag k="layer" v="0"/>
    <tag k="name" v="Bertelestraße"/>
    <tag k="source" v="survey"/>
    <tag k="surface" v="paved"/>
    <tag k="width" v="2"/>
  </way>
  <way id="27309236" version="3" timestamp="2009-02-14T22:53:16Z" uid="36809" user="pfoten_weg_!_" changeset="445466">
    <nd ref="299242295"/>
    <nd ref="299774628"/>
    <nd ref="345396747"/>
    <nd ref="299774630"/>
    <nd ref="299774631"/>
    <nd ref="299774632"/>
    <nd ref="299774633"/>
    <nd ref="299774634"/>
    <nd ref="299774635"/>
    <nd ref="299774636"/>
    <tag k="access" v="permissive"/>
    <tag k="created_by" v="RambaZamba"/>
    <tag k="foot" v="permissive"/>
    <tag k="highway" v="footway"/>
    <tag k="layer" v="0"/>
    <tag k="name" v="Bertelestraße"/>
    <tag k="source" v="survey"/>
    <tag k="surface" v="paved"/>
    <tag k="width" v="2"/>
  </way>
  <way id="27309236" version="4" timestamp="2009-07-14T16:40:08Z" uid="36809" user="pfoten_weg_!_" changeset="1828396">
    <nd ref="299242295"/>
    <nd ref="299774628"/>
    <nd ref="345396747"/>
    <nd ref="299774630"/>
    <nd ref="299774631"/>
    <nd ref="299774632"/>
    <nd ref="299774633"/>
    <nd ref="299774634"/>
    <nd ref="299774635"/>
    <nd ref="299774636"/>
    <tag k="access" v="permissive"/>
    <tag k="detections_by" v="RambaZamba"/>
    <tag k="foot" v="permissive"/>
    <tag k="highway" v="footway"/>
    <tag k="layer" v="0"/>
    <tag k="name" v="Bertelestraße"/>
    <tag k="source" v="survey"/>
    <tag k="surface" v="paved"/>
    <tag k="width" v="2"/>
  </way>
  <way id="27309236" version="6" timestamp="2009-09-29T01:16:28Z" uid="36809" user="pfoten_weg_!_" changeset="2671973">
    <nd ref="299242295"/>
    <nd ref="299774628"/>
    <nd ref="345396747"/>
    <nd ref="299774630"/>
    <nd ref="299774631"/>
    <nd ref="299774632"/>
    <nd ref="299774633"/>
    <nd ref="299774634"/>
    <nd ref="299774635"/>
    <nd ref="299774636"/>
    <tag k="access" v="permissive"/>
    <tag k="foot" v="permissive"/>
    <tag k="highway" v="footway"/>
    <tag k="layer" v="0"/>
    <tag k="name" v="Bertelestraße"/>
    <tag k="source" v="survey"/>
    <tag k="surface" v="paved"/>
    <tag k="width" v="2"/>
  </way>
  <way id="27309236" version="7" timestamp="2009-10-03T17:43:33Z" uid="179968" user="Ich_hasse_doitsche_OSM-Korinthenkacker" changeset="2727120">
    <nd ref="299242295"/>
    <nd ref="299774628"/>
    <nd ref="345396747"/>
    <nd ref="299774630"/>
    <nd ref="299774631"/>
    <nd ref="299774632"/>
    <nd ref="299774633"/>
    <nd ref="299774634"/>
    <nd ref="299774635"/>
    <nd ref="299774636"/>
    <tag k="access" v="permissive"/>
    <tag k="foot" v="permissive"/>
    <tag k="highway" v="footway"/>
    <tag k="layer" v="0"/>
    <tag k="name" v="Bertelestraße"/>
    <tag k="surface" v="paved"/>
    <tag k="width" v="2"/>
  </way>
  <way id="27309237" version="1" timestamp="2008-09-25T17:37:26Z" uid="36809" user="pfoten_weg_!_" changeset="696635">
    <nd ref="299774636"/>
    <nd ref="299774640"/>
    <nd ref="299774641"/>
    <nd ref="299774642"/>
    <tag k="access" v="permissive"/>
    <tag k="created_by" v="RambaZamba"/>
    <tag k="foot" v="permissive"/>
    <tag k="highway" v="footway"/>
    <tag k="layer" v="0"/>
    <tag k="noexit" v="yes"/>
    <tag k="source" v="survey"/>
    <tag k="surface" v="paved"/>
  </way>
  <way id="27309237" version="2" timestamp="2008-10-01T02:30:35Z" uid="36809" user="pfoten_weg_!_" changeset="5644">
    <nd ref="299774636"/>
    <nd ref="299774640"/>
    <nd ref="299774641"/>
    <nd ref="299774642"/>
    <tag k="access" v="permissive"/>
    <tag k="created_by" v="RambaZamba"/>
    <tag k="foot" v="permissive"/>
    <tag k="highway" v="footway"/>
    <tag k="layer" v="0"/>
    <tag k="noexit" v="yes"/>
    <tag k="source" v="survey"/>
    <tag k="surface" v="paved"/>
  </way>
  <way id="27309237" version="3" timestamp="2009-07-14T16:40:07Z" uid="36809" user="pfoten_weg_!_" changeset="1828396">
    <nd ref="299774636"/>
    <nd ref="299774640"/>
    <nd ref="299774641"/>
    <nd ref="299774642"/>
    <tag k="access" v="permissive"/>
    <tag k="detections_by" v="RambaZamba"/>
    <tag k="foot" v="permissive"/>
    <tag k="highway" v="footway"/>
    <tag k="layer" v="0"/>
    <tag k="noexit" v="yes"/>
    <tag k="source" v="survey"/>
    <tag k="surface" v="paved"/>
  </way>
  <way id="27309237" version="5" timestamp="2009-09-29T01:16:29Z" uid="36809" user="pfoten_weg_!_" changeset="2671973">
    <nd ref="299774636"/>
    <nd ref="299774640"/>
    <nd ref="299774641"/>
    <nd ref="299774642"/>
    <tag k="access" v="permissive"/>
    <tag k="foot" v="permissive"/>
    <tag k="highway" v="footway"/>
    <tag k="layer" v="0"/>
    <tag k="noexit" v="yes"/>
    <tag k="source" v="survey"/>
    <tag k="surface" v="paved"/>
  </way>
  <way id="27309237" version="6" timestamp="2009-10-03T17:43:34Z" uid="179968" user="Ich_hasse_doitsche_OSM-Korinthenkacker" changeset="2727120">
    <nd ref="299774636"/>
    <nd ref="299774640"/>
    <nd ref="299774641"/>
    <nd ref="299774642"/>
    <tag k="access" v="permissive"/>
    <tag k="foot" v="permissive"/>
    <tag k="highway" v="footway"/>
    <tag k="layer" v="0"/>
    <tag k="noexit" v="yes"/>
    <tag k="surface" v="paved"/>
  </way>
  <way id="27309238" version="1" timestamp="2008-09-25T17:37:26Z" uid="36809" user="pfoten_weg_!_" changeset="696635">
    <nd ref="299774631"/>
    <nd ref="299774643"/>
    <tag k="access" v="permissive"/>
    <tag k="created_by" v="RambaZamba"/>
    <tag k="foot" v="permissive"/>
    <tag k="highway" v="footway"/>
    <tag k="layer" v="0"/>
    <tag k="noexit" v="yes"/>
    <tag k="source" v="survey"/>
    <tag k="surface" v="paved"/>
  </way>
  <way id="27309238" version="2" timestamp="2008-10-01T02:30:12Z" uid="36809" user="pfoten_weg_!_" changeset="5644">
    <nd ref="299774631"/>
    <nd ref="299774643"/>
    <tag k="access" v="permissive"/>
    <tag k="created_by" v="RambaZamba"/>
    <tag k="foot" v="permissive"/>
    <tag k="highway" v="footway"/>
    <tag k="layer" v="0"/>
    <tag k="noexit" v="yes"/>
    <tag k="source" v="survey"/>
    <tag k="surface" v="paved"/>
  </way>
  <way id="27309238" version="3" timestamp="2009-07-14T16:40:04Z" uid="36809" user="pfoten_weg_!_" changeset="1828396">
    <nd ref="299774631"/>
    <nd ref="299774643"/>
    <tag k="access" v="permissive"/>
    <tag k="detections_by" v="RambaZamba"/>
    <tag k="foot" v="permissive"/>
    <tag k="highway" v="footway"/>
    <tag k="layer" v="0"/>
    <tag k="noexit" v="yes"/>
    <tag k="source" v="survey"/>
    <tag k="surface" v="paved"/>
  </way>
  <way id="27309238" version="5" timestamp="2009-09-29T01:16:27Z" uid="36809" user="pfoten_weg_!_" changeset="2671973">
    <nd ref="299774631"/>
    <nd ref="299774643"/>
    <tag k="access" v="permissive"/>
    <tag k="foot" v="permissive"/>
    <tag k="highway" v="footway"/>
    <tag k="layer" v="0"/>
    <tag k="noexit" v="yes"/>
    <tag k="source" v="survey"/>
    <tag k="surface" v="paved"/>
  </way>
  <way id="27309238" version="6" timestamp="2009-10-03T17:43:33Z" uid="179968" user="Ich_hasse_doitsche_OSM-Korinthenkacker" changeset="2727120">
    <nd ref="299774631"/>
    <nd ref="299774643"/>
    <tag k="access" v="permissive"/>
    <tag k="foot" v="permissive"/>
    <tag k="highway" v="footway"/>
    <tag k="layer" v="0"/>
    <tag k="noexit" v="yes"/>
    <tag k="surface" v="paved"/>
  </way>
  <way id="27309239" version="1" timestamp="2008-09-25T17:37:27Z" uid="36809" user="pfoten_weg_!_" changeset="696635">
    <nd ref="299774636"/>
    <nd ref="299774637"/>
    <nd ref="299774638"/>
    <nd ref="299774639"/>
    <tag k="access" v="permissive"/>
    <tag k="created_by" v="RambaZamba"/>
    <tag k="foot" v="permissive"/>
    <tag k="highway" v="footway"/>
    <tag k="layer" v="0"/>
    <tag k="name" v="Bertelestraße"/>
    <tag k="noexit" v="yes"/>
    <tag k="source" v="survey"/>
    <tag k="surface" v="paved"/>
    <tag k="width" v="2"/>
  </way>
  <way id="27309239" version="2" timestamp="2008-10-01T02:30:21Z" uid="36809" user="pfoten_weg_!_" changeset="5644">
    <nd ref="299774636"/>
    <nd ref="299774637"/>
    <nd ref="299774638"/>
    <nd ref="299774639"/>
    <tag k="access" v="permissive"/>
    <tag k="created_by" v="RambaZamba"/>
    <tag k="foot" v="permissive"/>
    <tag k="highway" v="footway"/>
    <tag k="layer" v="0"/>
    <tag k="name" v="Bertelestraße"/>
    <tag k="noexit" v="yes"/>
    <tag k="source" v="survey"/>
    <tag k="surface" v="paved"/>
    <tag k="width" v="2"/>
  </way>
  <way id="27309239" version="3" timestamp="2009-07-14T16:40:07Z" uid="36809" user="pfoten_weg_!_" changeset="1828396">
    <nd ref="299774636"/>
    <nd ref="299774637"/>
    <nd ref="299774638"/>
    <nd ref="299774639"/>
    <tag k="access" v="permissive"/>
    <tag k="detections_by" v="RambaZamba"/>
    <tag k="foot" v="permissive"/>
    <tag k="highway" v="footway"/>
    <tag k="layer" v="0"/>
    <tag k="name" v="Bertelestraße"/>
    <tag k="noexit" v="yes"/>
    <tag k="source" v="survey"/>
    <tag k="surface" v="paved"/>
    <tag k="width" v="2"/>
  </way>
  <way id="27309239" version="5" timestamp="2009-09-29T01:16:28Z" uid="36809" user="pfoten_weg_!_" changeset="2671973">
    <nd ref="299774636"/>
    <nd ref="299774637"/>
    <nd ref="299774638"/>
    <nd ref="299774639"/>
    <tag k="access" v="permissive"/>
    <tag k="foot" v="permissive"/>
    <tag k="highway" v="footway"/>
    <tag k="layer" v="0"/>
    <tag k="name" v="Bertelestraße"/>
    <tag k="noexit" v="yes"/>
    <tag k="source" v="survey"/>
    <tag k="surface" v="paved"/>
    <tag k="width" v="2"/>
  </way>
  <way id="27309239" version="6" timestamp="2009-10-03T17:43:33Z" uid="179968" user="Ich_hasse_doitsche_OSM-Korinthenkacker" changeset="2727120">
    <nd ref="299774636"/>
    <nd ref="299774637"/>
    <nd ref="299774638"/>
    <nd ref="299774639"/>
    <tag k="access" v="permissive"/>
    <tag k="foot" v="permissive"/>
    <tag k="highway" v="footway"/>
    <tag k="layer" v="0"/>
    <tag k="name" v="Bertelestraße"/>
    <tag k="noexit" v="yes"/>
    <tag k="surface" v="paved"/>
    <tag k="width" v="2"/>
  </way>
  <way id="27309240" version="1" timestamp="2008-09-25T17:37:27Z" uid="36809" user="pfoten_weg_!_" changeset="696635">
    <nd ref="138018821"/>
    <nd ref="299774648"/>
    <nd ref="299774649"/>
    <nd ref="299774650"/>
    <tag k="bicycle" v="yes"/>
    <tag k="created_by" v="RambaZamba"/>
    <tag k="foot" v="yes"/>
    <tag k="highway" v="footway"/>
    <tag k="layer" v="-1"/>
    <tag k="motorcycle" v="no"/>
    <tag k="name" v="Weg"/>
    <tag k="noexit" v="yes"/>
    <tag k="source" v="survey"/>
    <tag k="surface" v="unpaved"/>
    <tag k="width" v="3"/>
  </way>
  <way id="27309240" version="3" timestamp="2008-10-01T02:31:24Z" uid="36809" user="pfoten_weg_!_" changeset="5644">
    <nd ref="138018821"/>
    <nd ref="299774648"/>
    <nd ref="299774649"/>
    <nd ref="299774650"/>
    <tag k="bicycle" v="yes"/>
    <tag k="created_by" v="RambaZamba"/>
    <tag k="foot" v="yes"/>
    <tag k="highway" v="footway"/>
    <tag k="motorcycle" v="no"/>
    <tag k="noexit" v="yes"/>
    <tag k="source" v="survey"/>
    <tag k="surface" v="unpaved"/>
    <tag k="width" v="3"/>
  </way>
  <way id="27309240" version="4" timestamp="2009-03-30T22:04:55Z" uid="36809" user="pfoten_weg_!_" changeset="871597">
    <nd ref="138018821"/>
    <nd ref="299774648"/>
    <nd ref="299774649"/>
    <nd ref="367735370"/>
    <tag k="bicycle" v="yes"/>
    <tag k="created_by" v="RambaZamba"/>
    <tag k="foot" v="yes"/>
    <tag k="highway" v="footway"/>
    <tag k="motorcycle" v="no"/>
    <tag k="noexit" v="yes"/>
    <tag k="source" v="survey"/>
    <tag k="surface" v="unpaved"/>
    <tag k="width" v="3"/>
  </way>
  <way id="27309240" version="5" timestamp="2009-07-27T21:21:51Z" uid="36809" user="pfoten_weg_!_" changeset="1960036">
    <nd ref="138018821"/>
    <nd ref="299774648"/>
    <nd ref="299774649"/>
    <nd ref="367735370"/>
    <tag k="bicycle" v="yes"/>
    <tag k="discovered_by" v="RambaZamba"/>
    <tag k="foot" v="yes"/>
    <tag k="highway" v="footway"/>
    <tag k="motorcycle" v="no"/>
    <tag k="noexit" v="yes"/>
    <tag k="source" v="survey"/>
    <tag k="surface" v="unpaved"/>
    <tag k="width" v="3"/>
  </way>
  <way id="27309240" version="7" timestamp="2009-09-01T11:02:17Z" uid="36809" user="pfoten_weg_!_" changeset="2335754">
    <nd ref="138018821"/>
    <nd ref="299774648"/>
    <nd ref="299774649"/>
    <nd ref="367735370"/>
    <tag k="bicycle" v="yes"/>
    <tag k="foot" v="yes"/>
    <tag k="highway" v="footway"/>
    <tag k="motorcycle" v="no"/>
    <tag k="noexit" v="yes"/>
    <tag k="source" v="survey"/>
    <tag k="surface" v="unpaved"/>
    <tag k="width" v="3"/>
  </way>
  <way id="27309240" version="8" timestamp="2009-10-13T23:42:16Z" uid="36809" user="pfoten_weg_!_" changeset="2841273">
    <nd ref="138018821"/>
    <nd ref="299774648"/>
    <nd ref="299774649"/>
    <nd ref="367735370"/>
    <tag k="bicycle" v="yes"/>
    <tag k="foot" v="yes"/>
    <tag k="highway" v="footway"/>
    <tag k="motorcycle" v="no"/>
    <tag k="noexit" v="yes"/>
    <tag k="surface" v="unpaved"/>
    <tag k="width" v="3"/>
  </way>
  <way id="27309241" version="1" timestamp="2008-09-25T17:37:28Z" uid="36809" user="pfoten_weg_!_" changeset="696635">
    <nd ref="262079513"/>
    <nd ref="100261848"/>
    <tag k="created_by" v="RambaZamba"/>
    <tag k="foot" v="yes"/>
    <tag k="highway" v="footway"/>
    <tag k="source" v="survey"/>
  </way>
  <way id="27309241" version="2" timestamp="2008-09-25T19:16:47Z" uid="36809" user="pfoten_weg_!_" changeset="696635">
    <nd ref="100261848"/>
    <nd ref="262079513"/>
    <tag k="created_by" v="RambaZamba"/>
    <tag k="foot" v="yes"/>
    <tag k="highway" v="footway"/>
    <tag k="source" v="survey"/>
  </way>
  <way id="27309241" version="3" timestamp="2008-10-01T02:31:32Z" uid="36809" user="pfoten_weg_!_" changeset="5644">
    <nd ref="100261848"/>
    <nd ref="262079513"/>
    <tag k="created_by" v="RambaZamba"/>
    <tag k="foot" v="yes"/>
    <tag k="highway" v="footway"/>
    <tag k="source" v="survey"/>
  </way>
  <way id="27309241" version="5" timestamp="2009-03-30T21:06:37Z" uid="36809" user="pfoten_weg_!_" changeset="871597">
    <nd ref="100261848"/>
    <nd ref="262079513"/>
    <tag k="bicycle" v="yes"/>
    <tag k="created_by" v="RambaZamba"/>
    <tag k="foot" v="yes"/>
    <tag k="highway" v="footway"/>
    <tag k="source" v="survey"/>
  </way>
  <way id="27309241" version="6" timestamp="2009-07-27T21:21:46Z" uid="36809" user="pfoten_weg_!_" changeset="1960036">
    <nd ref="100261848"/>
    <nd ref="262079513"/>
    <tag k="bicycle" v="yes"/>
    <tag k="discovered_by" v="RambaZamba"/>
    <tag k="foot" v="yes"/>
    <tag k="highway" v="footway"/>
    <tag k="source" v="survey"/>
  </way>
  <way id="27309241" version="8" timestamp="2009-09-01T10:34:58Z" uid="36809" user="pfoten_weg_!_" changeset="2335754">
    <nd ref="100261848"/>
    <nd ref="262079513"/>
    <tag k="bicycle" v="yes"/>
    <tag k="foot" v="yes"/>
    <tag k="highway" v="footway"/>
    <tag k="source" v="survey"/>
  </way>
  <way id="27309241" version="9" timestamp="2009-10-13T23:42:38Z" uid="36809" user="pfoten_weg_!_" changeset="2841273">
    <nd ref="100261848"/>
    <nd ref="262079513"/>
    <tag k="bicycle" v="yes"/>
    <tag k="foot" v="yes"/>
    <tag k="highway" v="footway"/>
  </way>
  <way id="27309241" version="10" timestamp="2009-11-02T19:31:13Z" uid="36809" user="pfoten_weg_!_" changeset="3019089"/>
  <way id="27309242" version="1" timestamp="2008-09-25T17:37:28Z" uid="36809" user="pfoten_weg_!_" changeset="696635">
    <nd ref="299774656"/>
    <nd ref="299774657"/>
    <nd ref="299774658"/>
    <nd ref="299774659"/>
    <nd ref="299774660"/>
    <tag k="created_by" v="RambaZamba"/>
    <tag k="highway" v="service"/>
    <tag k="layer" v="0"/>
    <tag k="source" v="survey"/>
    <tag k="surface" v="unpaved"/>
    <tag k="width" v="4"/>
  </way>
  <way id="27309242" version="2" timestamp="2008-10-01T02:31:14Z" uid="36809" user="pfoten_weg_!_" changeset="5644">
    <nd ref="299774656"/>
    <nd ref="299774657"/>
    <nd ref="299774658"/>
    <nd ref="299774659"/>
    <nd ref="299774660"/>
    <tag k="created_by" v="RambaZamba"/>
    <tag k="highway" v="service"/>
    <tag k="layer" v="0"/>
    <tag k="source" v="survey"/>
    <tag k="surface" v="unpaved"/>
    <tag k="width" v="4"/>
  </way>
  <way id="27309242" version="3" timestamp="2008-10-28T00:31:11Z" uid="36809" user="pfoten_weg_!_" changeset="606679">
    <nd ref="299774656"/>
    <nd ref="299774657"/>
    <nd ref="299774658"/>
    <nd ref="299774659"/>
    <nd ref="299774660"/>
    <nd ref="308135671"/>
    <nd ref="308135670"/>
    <tag k="created_by" v="RambaZamba"/>
    <tag k="highway" v="service"/>
    <tag k="layer" v="-1"/>
    <tag k="source" v="survey"/>
    <tag k="surface" v="unpaved"/>
    <tag k="width" v="4"/>
  </way>
  <way id="27309242" version="5" timestamp="2009-03-30T11:45:33Z" uid="36809" user="pfoten_weg_!_" changeset="869697"/>
  <way id="27309242" version="7" timestamp="2009-04-23T22:03:08Z" uid="36809" user="pfoten_weg_!_" changeset="919984"/>
  <way id="27309243" version="1" timestamp="2008-09-25T17:37:28Z" uid="36809" user="pfoten_weg_!_" changeset="696635">
    <nd ref="299774659"/>
    <nd ref="299774661"/>
    <nd ref="299774663"/>
    <tag k="created_by" v="RambaZamba"/>
    <tag k="highway" v="service"/>
    <tag k="layer" v="0"/>
    <tag k="source" v="survey"/>
    <tag k="surface" v="unpaved"/>
    <tag k="width" v="4"/>
  </way>
  <way id="27309243" version="2" timestamp="2008-10-01T02:31:19Z" uid="36809" user="pfoten_weg_!_" changeset="5644">
    <nd ref="299774659"/>
    <nd ref="299774661"/>
    <nd ref="299774663"/>
    <tag k="created_by" v="RambaZamba"/>
    <tag k="highway" v="service"/>
    <tag k="layer" v="0"/>
    <tag k="source" v="survey"/>
    <tag k="surface" v="unpaved"/>
    <tag k="width" v="4"/>
  </way>
  <way id="27309243" version="4" timestamp="2009-03-30T11:45:33Z" uid="36809" user="pfoten_weg_!_" changeset="869697"/>
  <way id="27309243" version="6" timestamp="2009-04-23T22:03:08Z" uid="36809" user="pfoten_weg_!_" changeset="919984"/>
  <way id="27309244" version="1" timestamp="2008-09-25T17:37:28Z" uid="36809" user="pfoten_weg_!_" changeset="696635">
    <nd ref="299774671"/>
    <nd ref="299774679"/>
    <nd ref="299774678"/>
    <nd ref="299774677"/>
    <nd ref="138078469"/>
    <nd ref="299774656"/>
    <nd ref="138078478"/>
    <nd ref="263675188"/>
    <nd ref="138075761"/>
    <nd ref="299774652"/>
    <nd ref="138078483"/>
    <nd ref="138078489"/>
    <nd ref="263675189"/>
    <nd ref="138078497"/>
    <nd ref="299774655"/>
    <nd ref="138078505"/>
    <nd ref="263675190"/>
    <nd ref="138078510"/>
    <nd ref="299774653"/>
    <nd ref="299774654"/>
    <nd ref="100261848"/>
    <tag k="created_by" v="RambaZamba"/>
    <tag k="highway" v="unclassified"/>
    <tag k="name" v="Höllerer Berg"/>
    <tag k="source" v="survey"/>
  </way>
  <way id="27309244" version="2" timestamp="2008-09-25T19:16:48Z" uid="36809" user="pfoten_weg_!_" changeset="696635"/>
  <way id="27309245" version="1" timestamp="2008-09-25T17:37:29Z" uid="36809" user="pfoten_weg_!_" changeset="696635">
    <nd ref="299774688"/>
    <nd ref="299774689"/>
    <tag k="created_by" v="RambaZamba"/>
    <tag k="highway" v="steps"/>
    <tag k="layer" v="0"/>
    <tag k="name" v="Weg"/>
    <tag k="source" v="survey"/>
    <tag k="surface" v="paved"/>
    <tag k="width" v="1"/>
  </way>
  <way id="27309245" version="2" timestamp="2008-10-01T02:31:09Z" uid="36809" user="pfoten_weg_!_" changeset="5644">
    <nd ref="299774688"/>
    <nd ref="299774689"/>
    <tag k="created_by" v="RambaZamba"/>
    <tag k="highway" v="steps"/>
    <tag k="layer" v="0"/>
    <tag k="name" v="Weg"/>
    <tag k="source" v="survey"/>
    <tag k="surface" v="paved"/>
    <tag k="width" v="1"/>
  </way>
  <way id="27309245" version="4" timestamp="2009-09-01T11:11:55Z" uid="36809" user="pfoten_weg_!_" changeset="2335754">
    <nd ref="299774688"/>
    <nd ref="299774689"/>
    <tag k="highway" v="steps"/>
    <tag k="layer" v="0"/>
    <tag k="name" v="Weg"/>
    <tag k="source" v="survey"/>
    <tag k="surface" v="paved"/>
    <tag k="width" v="1"/>
  </way>
  <way id="27309245" version="5" timestamp="2009-10-03T17:43:35Z" uid="179968" user="Ich_hasse_doitsche_OSM-Korinthenkacker" changeset="2727120">
    <nd ref="299774688"/>
    <nd ref="299774689"/>
    <tag k="highway" v="steps"/>
    <tag k="layer" v="0"/>
    <tag k="name" v="Weg"/>
    <tag k="surface" v="paved"/>
    <tag k="width" v="1"/>
  </way>
  <way id="27309246" version="1" timestamp="2008-09-25T17:37:29Z" uid="36809" user="pfoten_weg_!_" changeset="696635">
    <nd ref="299774689"/>
    <nd ref="299774690"/>
    <nd ref="299774691"/>
    <nd ref="299774692"/>
    <tag k="created_by" v="RambaZamba"/>
    <tag k="highway" v="footway"/>
    <tag k="layer" v="0"/>
    <tag k="name" v="Weg"/>
    <tag k="source" v="survey"/>
    <tag k="surface" v="unpaved"/>
    <tag k="width" v="1"/>
  </way>
  <way id="27309246" version="2" timestamp="2008-10-01T02:30:51Z" uid="36809" user="pfoten_weg_!_" changeset="5644">
    <nd ref="299774689"/>
    <nd ref="299774690"/>
    <nd ref="299774691"/>
    <nd ref="299774692"/>
    <tag k="created_by" v="RambaZamba"/>
    <tag k="highway" v="footway"/>
    <tag k="layer" v="0"/>
    <tag k="name" v="Weg"/>
    <tag k="source" v="survey"/>
    <tag k="surface" v="unpaved"/>
    <tag k="width" v="1"/>
  </way>
  <way id="27309246" version="4" timestamp="2009-09-01T10:49:36Z" uid="36809" user="pfoten_weg_!_" changeset="2335754">
    <nd ref="299774689"/>
    <nd ref="299774690"/>
    <nd ref="299774691"/>
    <nd ref="299774692"/>
    <tag k="highway" v="footway"/>
    <tag k="layer" v="0"/>
    <tag k="name" v="Weg"/>
    <tag k="source" v="survey"/>
    <tag k="surface" v="unpaved"/>
    <tag k="width" v="1"/>
  </way>
  <way id="27309246" version="5" timestamp="2009-10-03T17:43:34Z" uid="179968" user="Ich_hasse_doitsche_OSM-Korinthenkacker" changeset="2727120">
    <nd ref="299774689"/>
    <nd ref="299774690"/>
    <nd ref="299774691"/>
    <nd ref="299774692"/>
    <tag k="highway" v="footway"/>
    <tag k="layer" v="0"/>
    <tag k="name" v="Weg"/>
    <tag k="surface" v="unpaved"/>
    <tag k="width" v="1"/>
  </way>
  <way id="27309247" version="1" timestamp="2008-09-25T17:37:29Z" uid="36809" user="pfoten_weg_!_" changeset="696635">
    <nd ref="299246713"/>
    <nd ref="299774693"/>
    <tag k="bridge" v="yes"/>
    <tag k="created_by" v="RambaZamba"/>
    <tag k="highway" v="footway"/>
    <tag k="layer" v="2"/>
    <tag k="source" v="survey"/>
    <tag k="width" v="2"/>
  </way>
  <way id="27309247" version="2" timestamp="2008-10-01T02:30:51Z" uid="36809" user="pfoten_weg_!_" changeset="5644">
    <nd ref="299246713"/>
    <nd ref="299774693"/>
    <tag k="bridge" v="yes"/>
    <tag k="created_by" v="RambaZamba"/>
    <tag k="highway" v="footway"/>
    <tag k="layer" v="2"/>
    <tag k="source" v="survey"/>
    <tag k="width" v="2"/>
  </way>
  <way id="27309247" version="4" timestamp="2009-09-04T21:12:13Z" uid="36809" user="pfoten_weg_!_" changeset="2374562">
    <nd ref="299246713"/>
    <nd ref="299774693"/>
    <tag k="bridge" v="yes"/>
    <tag k="highway" v="footway"/>
    <tag k="layer" v="2"/>
    <tag k="source" v="survey"/>
    <tag k="width" v="2"/>
  </way>
  <way id="27309247" version="5" timestamp="2009-10-03T17:43:34Z" uid="179968" user="Ich_hasse_doitsche_OSM-Korinthenkacker" changeset="2727120">
    <nd ref="299246713"/>
    <nd ref="299774693"/>
    <tag k="bridge" v="yes"/>
    <tag k="highway" v="footway"/>
    <tag k="layer" v="2"/>
    <tag k="width" v="2"/>
  </way>
  <way id="27309248" version="1" timestamp="2008-09-25T17:37:30Z" uid="36809" user="pfoten_weg_!_" changeset="696635">
    <nd ref="299774693"/>
    <nd ref="299774695"/>
    <tag k="created_by" v="RambaZamba"/>
    <tag k="highway" v="steps"/>
    <tag k="layer" v="1"/>
    <tag k="source" v="survey"/>
    <tag k="surface" v="paved"/>
    <tag k="width" v="2"/>
  </way>
  <way id="27309248" version="2" timestamp="2008-10-01T02:37:50Z" uid="36809" user="pfoten_weg_!_" changeset="5644">
    <nd ref="299774693"/>
    <nd ref="299774695"/>
    <tag k="created_by" v="RambaZamba"/>
    <tag k="highway" v="steps"/>
    <tag k="layer" v="1"/>
    <tag k="source" v="survey"/>
    <tag k="surface" v="paved"/>
    <tag k="width" v="2"/>
  </way>
  <way id="27309248" version="3" timestamp="2009-03-30T02:31:35Z" uid="36809" user="pfoten_weg_!_" changeset="869093">
    <nd ref="299774693"/>
    <nd ref="299774695"/>
    <tag k="created_by" v="RambaZamba"/>
    <tag k="highway" v="steps"/>
    <tag k="layer" v="1"/>
    <tag k="source" v="survey"/>
    <tag k="surface" v="paved"/>
    <tag k="width" v="2"/>
  </way>
  <way id="27309248" version="5" timestamp="2009-09-04T21:14:56Z" uid="36809" user="pfoten_weg_!_" changeset="2374562">
    <nd ref="299774693"/>
    <nd ref="299774695"/>
    <tag k="highway" v="steps"/>
    <tag k="layer" v="1"/>
    <tag k="source" v="survey"/>
    <tag k="surface" v="paved"/>
    <tag k="width" v="2"/>
  </way>
  <way id="27309248" version="6" timestamp="2009-10-03T17:43:43Z" uid="179968" user="Ich_hasse_doitsche_OSM-Korinthenkacker" changeset="2727120">
    <nd ref="299774693"/>
    <nd ref="299774695"/>
    <tag k="highway" v="steps"/>
    <tag k="layer" v="1"/>
    <tag k="surface" v="paved"/>
    <tag k="width" v="2"/>
  </way>
  <way id="27309249" version="1" timestamp="2008-09-25T17:37:30Z" uid="36809" user="pfoten_weg_!_" changeset="696635">
    <nd ref="299774695"/>
    <nd ref="299774715"/>
    <nd ref="299774711"/>
    <nd ref="299774707"/>
    <nd ref="299774702"/>
    <tag k="created_by" v="RambaZamba"/>
    <tag k="highway" v="footway"/>
    <tag k="layer" v="-1"/>
    <tag k="source" v="survey"/>
  </way>
  <way id="27309249" version="2" timestamp="2008-10-01T02:37:39Z" uid="36809" user="pfoten_weg_!_" changeset="5644">
    <nd ref="299774695"/>
    <nd ref="299774715"/>
    <nd ref="299774711"/>
    <nd ref="299774707"/>
    <nd ref="299774702"/>
    <tag k="created_by" v="RambaZamba"/>
    <tag k="highway" v="footway"/>
    <tag k="layer" v="-1"/>
    <tag k="source" v="survey"/>
  </way>
  <way id="27309249" version="3" timestamp="2009-03-30T02:31:35Z" uid="36809" user="pfoten_weg_!_" changeset="869093">
    <nd ref="299774695"/>
    <nd ref="299774715"/>
    <nd ref="299774711"/>
    <tag k="created_by" v="RambaZamba"/>
    <tag k="highway" v="footway"/>
    <tag k="layer" v="0"/>
    <tag k="source" v="survey"/>
  </way>
  <way id="27309249" version="5" timestamp="2009-09-04T21:09:45Z" uid="36809" user="pfoten_weg_!_" changeset="2374562">
    <nd ref="299774695"/>
    <nd ref="299774715"/>
    <nd ref="299774711"/>
    <tag k="highway" v="footway"/>
    <tag k="layer" v="0"/>
    <tag k="source" v="survey"/>
  </way>
  <way id="27309249" version="6" timestamp="2009-10-03T17:43:43Z" uid="179968" user="Ich_hasse_doitsche_OSM-Korinthenkacker" changeset="2727120">
    <nd ref="299774695"/>
    <nd ref="299774715"/>
    <nd ref="299774711"/>
    <tag k="highway" v="footway"/>
    <tag k="layer" v="0"/>
  </way>
  <way id="27309250" version="1" timestamp="2008-09-25T17:37:30Z" uid="36809" user="pfoten_weg_!_" changeset="696635">
    <nd ref="299774702"/>
    <nd ref="299774717"/>
    <tag k="created_by" v="RambaZamba"/>
    <tag k="highway" v="steps"/>
    <tag k="layer" v="0"/>
    <tag k="source" v="survey"/>
    <tag k="surface" v="paved"/>
    <tag k="width" v="2"/>
  </way>
  <way id="27309250" version="2" timestamp="2008-10-01T02:41:25Z" uid="36809" user="pfoten_weg_!_" changeset="5644">
    <nd ref="299774702"/>
    <nd ref="299774717"/>
    <tag k="created_by" v="RambaZamba"/>
    <tag k="highway" v="steps"/>
    <tag k="layer" v="0"/>
    <tag k="source" v="survey"/>
    <tag k="surface" v="paved"/>
    <tag k="width" v="2"/>
  </way>
  <way id="27309250" version="4" timestamp="2009-09-04T21:09:00Z" uid="36809" user="pfoten_weg_!_" changeset="2374562">
    <nd ref="299774702"/>
    <nd ref="299774717"/>
    <tag k="highway" v="steps"/>
    <tag k="layer" v="0"/>
    <tag k="source" v="survey"/>
    <tag k="surface" v="paved"/>
    <tag k="width" v="2"/>
  </way>
  <way id="27309250" version="5" timestamp="2009-10-03T17:43:44Z" uid="179968" user="Ich_hasse_doitsche_OSM-Korinthenkacker" changeset="2727120">
    <nd ref="299774702"/>
    <nd ref="299774717"/>
    <tag k="highway" v="steps"/>
    <tag k="layer" v="0"/>
    <tag k="surface" v="paved"/>
    <tag k="width" v="2"/>
  </way>
  <way id="27309251" version="1" timestamp="2008-09-25T17:37:31Z" uid="36809" user="pfoten_weg_!_" changeset="696635">
    <nd ref="299774717"/>
    <nd ref="299774783"/>
    <nd ref="299774782"/>
    <nd ref="299774781"/>
    <nd ref="299774735"/>
    <tag k="created_by" v="RambaZamba"/>
    <tag k="highway" v="footway"/>
    <tag k="layer" v="0"/>
    <tag k="source" v="survey"/>
    <tag k="surface" v="cobblestone"/>
    <tag k="width" v="3"/>
  </way>
  <way id="27309251" version="2" timestamp="2008-09-25T18:18:41Z" uid="36809" user="pfoten_weg_!_" changeset="696635">
    <nd ref="299774717"/>
    <nd ref="299774783"/>
    <nd ref="299774782"/>
    <nd ref="299774781"/>
    <nd ref="299774735"/>
    <tag k="created_by" v="RambaZamba"/>
    <tag k="highway" v="footway"/>
    <tag k="layer" v="0"/>
    <tag k="name" v="Wöllnerplatz"/>
    <tag k="source" v="survey"/>
    <tag k="surface" v="cobblestone"/>
    <tag k="width" v="3"/>
  </way>
  <way id="27309251" version="3" timestamp="2008-10-01T02:37:54Z" uid="36809" user="pfoten_weg_!_" changeset="5644">
    <nd ref="299774717"/>
    <nd ref="299774783"/>
    <nd ref="299774782"/>
    <nd ref="299774781"/>
    <nd ref="299774735"/>
    <tag k="created_by" v="RambaZamba"/>
    <tag k="highway" v="footway"/>
    <tag k="layer" v="0"/>
    <tag k="name" v="Wöllnerplatz"/>
    <tag k="source" v="survey"/>
    <tag k="surface" v="cobblestone"/>
    <tag k="width" v="3"/>
  </way>
  <way id="27309251" version="4" timestamp="2009-05-03T00:38:43Z" uid="36809" user="pfoten_weg_!_" changeset="1055292">
    <nd ref="299774717"/>
    <nd ref="299774783"/>
    <tag k="created_by" v="RambaZamba"/>
    <tag k="highway" v="footway"/>
    <tag k="layer" v="0"/>
    <tag k="name" v="Wöllnerplatz"/>
    <tag k="source" v="survey"/>
    <tag k="surface" v="cobblestone"/>
    <tag k="width" v="3"/>
  </way>
  <way id="27309251" version="6" timestamp="2009-09-04T21:12:21Z" uid="36809" user="pfoten_weg_!_" changeset="2374562">
    <nd ref="299774717"/>
    <nd ref="299774783"/>
    <tag k="highway" v="footway"/>
    <tag k="layer" v="0"/>
    <tag k="name" v="Wöllnerplatz"/>
    <tag k="source" v="survey"/>
    <tag k="surface" v="cobblestone"/>
    <tag k="width" v="3"/>
  </way>
  <way id="27309251" version="7" timestamp="2009-10-03T17:43:43Z" uid="179968" user="Ich_hasse_doitsche_OSM-Korinthenkacker" changeset="2727120">
    <nd ref="299774717"/>
    <nd ref="299774783"/>
    <tag k="highway" v="footway"/>
    <tag k="layer" v="0"/>
    <tag k="name" v="Wöllnerplatz"/>
    <tag k="surface" v="cobblestone"/>
    <tag k="width" v="3"/>
  </way>
  <way id="27309252" version="1" timestamp="2008-09-25T17:37:31Z" uid="36809" user="pfoten_weg_!_" changeset="696635">
    <nd ref="299774744"/>
    <nd ref="299774770"/>
    <nd ref="299774788"/>
    <nd ref="299774747"/>
    <tag k="created_by" v="RambaZamba"/>
    <tag k="highway" v="service"/>
    <tag k="layer" v="0"/>
    <tag k="source" v="survey"/>
    <tag k="surface" v="paved"/>
    <tag k="width" v="4"/>
  </way>
  <way id="27309252" version="2" timestamp="2008-10-01T02:41:34Z" uid="36809" user="pfoten_weg_!_" changeset="5644">
    <nd ref="299774744"/>
    <nd ref="299774770"/>
    <nd ref="299774788"/>
    <nd ref="299774747"/>
    <tag k="created_by" v="RambaZamba"/>
    <tag k="highway" v="service"/>
    <tag k="layer" v="0"/>
    <tag k="source" v="survey"/>
    <tag k="surface" v="paved"/>
    <tag k="width" v="4"/>
  </way>
  <way id="27309252" version="3" timestamp="2009-04-29T20:00:53Z" uid="36809" user="pfoten_weg_!_" changeset="1020506">
    <nd ref="387498264"/>
    <nd ref="299774770"/>
    <nd ref="299774788"/>
    <nd ref="299774747"/>
    <tag k="created_by" v="RambaZamba"/>
    <tag k="highway" v="service"/>
    <tag k="layer" v="0"/>
    <tag k="source" v="survey"/>
    <tag k="surface" v="paved"/>
    <tag k="width" v="4"/>
  </way>
  <way id="27309252" version="5" timestamp="2009-09-04T21:21:55Z" uid="36809" user="pfoten_weg_!_" changeset="2374562">
    <nd ref="387498264"/>
    <nd ref="299774770"/>
    <nd ref="299774788"/>
    <nd ref="299774747"/>
    <tag k="highway" v="service"/>
    <tag k="layer" v="0"/>
    <tag k="source" v="survey"/>
    <tag k="surface" v="paved"/>
    <tag k="width" v="4"/>
  </way>
  <way id="27309252" version="6" timestamp="2009-10-03T17:43:44Z" uid="179968" user="Ich_hasse_doitsche_OSM-Korinthenkacker" changeset="2727120">
    <nd ref="387498264"/>
    <nd ref="299774770"/>
    <nd ref="299774788"/>
    <nd ref="299774747"/>
    <tag k="highway" v="service"/>
    <tag k="layer" v="0"/>
    <tag k="surface" v="paved"/>
    <tag k="width" v="4"/>
  </way>
  <way id="27309253" version="1" timestamp="2008-09-25T17:37:31Z" uid="36809" user="pfoten_weg_!_" changeset="696635">
    <nd ref="299774747"/>
    <nd ref="299774750"/>
    <nd ref="299774753"/>
    <nd ref="299774754"/>
    <nd ref="299774755"/>
    <nd ref="299774756"/>
    <nd ref="299774757"/>
    <nd ref="299774758"/>
    <nd ref="299774759"/>
    <nd ref="299774747"/>
    <tag k="access" v="designated"/>
    <tag k="bicycle" v="no"/>
    <tag k="created_by" v="RambaZamba"/>
    <tag k="hgv" v="no"/>
    <tag k="highway" v="service"/>
    <tag k="layer" v="0"/>
    <tag k="oneway" v="yes"/>
    <tag k="source" v="survey"/>
    <tag k="surface" v="paved"/>
    <tag k="width" v="3"/>
  </way>
  <way id="27309253" version="2" timestamp="2008-09-25T18:18:42Z" uid="36809" user="pfoten_weg_!_" changeset="696635">
    <nd ref="299774747"/>
    <nd ref="299774750"/>
    <nd ref="299774753"/>
    <nd ref="299774754"/>
    <nd ref="299774755"/>
    <nd ref="299774756"/>
    <nd ref="299774757"/>
    <nd ref="299774758"/>
    <nd ref="299774759"/>
    <nd ref="299774747"/>
    <tag k="access" v="designated"/>
    <tag k="bicycle" v="no"/>
    <tag k="created_by" v="RambaZamba"/>
    <tag k="hgv" v="no"/>
    <tag k="highway" v="service"/>
    <tag k="layer" v="0"/>
    <tag k="oneway" v="yes"/>
    <tag k="service" v="parking_aisle"/>
    <tag k="source" v="survey"/>
    <tag k="surface" v="paved"/>
    <tag k="width" v="3"/>
  </way>
  <way id="27309253" version="3" timestamp="2008-10-01T02:41:26Z" uid="36809" user="pfoten_weg_!_" changeset="5644">
    <nd ref="299774747"/>
    <nd ref="299774750"/>
    <nd ref="299774753"/>
    <nd ref="299774754"/>
    <nd ref="299774755"/>
    <nd ref="299774756"/>
    <nd ref="299774757"/>
    <nd ref="299774758"/>
    <nd ref="299774759"/>
    <nd ref="299774747"/>
    <tag k="access" v="designated"/>
    <tag k="bicycle" v="no"/>
    <tag k="created_by" v="RambaZamba"/>
    <tag k="hgv" v="no"/>
    <tag k="highway" v="service"/>
    <tag k="layer" v="0"/>
    <tag k="oneway" v="yes"/>
    <tag k="service" v="parking_aisle"/>
    <tag k="source" v="survey"/>
    <tag k="surface" v="paved"/>
    <tag k="width" v="3"/>
  </way>
  <way id="27309253" version="5" timestamp="2009-09-04T21:12:59Z" uid="36809" user="pfoten_weg_!_" changeset="2374562">
    <nd ref="299774747"/>
    <nd ref="299774750"/>
    <nd ref="299774753"/>
    <nd ref="299774754"/>
    <nd ref="299774755"/>
    <nd ref="299774756"/>
    <nd ref="299774757"/>
    <nd ref="299774758"/>
    <nd ref="299774759"/>
    <nd ref="299774747"/>
    <tag k="access" v="designated"/>
    <tag k="bicycle" v="no"/>
    <tag k="hgv" v="no"/>
    <tag k="highway" v="service"/>
    <tag k="layer" v="0"/>
    <tag k="oneway" v="yes"/>
    <tag k="service" v="parking_aisle"/>
    <tag k="source" v="survey"/>
    <tag k="surface" v="paved"/>
    <tag k="width" v="3"/>
  </way>
  <way id="27309253" version="6" timestamp="2009-10-03T17:43:44Z" uid="179968" user="Ich_hasse_doitsche_OSM-Korinthenkacker" changeset="2727120">
    <nd ref="299774747"/>
    <nd ref="299774750"/>
    <nd ref="299774753"/>
    <nd ref="299774754"/>
    <nd ref="299774755"/>
    <nd ref="299774756"/>
    <nd ref="299774757"/>
    <nd ref="299774758"/>
    <nd ref="299774759"/>
    <nd ref="299774747"/>
    <tag k="access" v="designated"/>
    <tag k="bicycle" v="no"/>
    <tag k="hgv" v="no"/>
    <tag k="highway" v="service"/>
    <tag k="layer" v="0"/>
    <tag k="oneway" v="yes"/>
    <tag k="service" v="parking_aisle"/>
    <tag k="surface" v="paved"/>
    <tag k="width" v="3"/>
  </way>
  <way id="27309254" version="1" timestamp="2008-09-25T17:37:31Z" uid="36809" user="pfoten_weg_!_" changeset="696635">
    <nd ref="299774760"/>
    <nd ref="299774761"/>
    <nd ref="299774762"/>
    <nd ref="299774763"/>
    <tag k="created_by" v="RambaZamba"/>
    <tag k="highway" v="service"/>
    <tag k="layer" v="0"/>
    <tag k="source" v="survey"/>
    <tag k="surface" v="paved"/>
    <tag k="width" v="4"/>
  </way>
  <way id="27309254" version="2" timestamp="2008-10-01T02:41:51Z" uid="36809" user="pfoten_weg_!_" changeset="5644">
    <nd ref="299774760"/>
    <nd ref="299774761"/>
    <nd ref="299774762"/>
    <nd ref="299774763"/>
    <tag k="created_by" v="RambaZamba"/>
    <tag k="highway" v="service"/>
    <tag k="layer" v="0"/>
    <tag k="source" v="survey"/>
    <tag k="surface" v="paved"/>
    <tag k="width" v="4"/>
  </way>
  <way id="27309254" version="3" timestamp="2009-04-30T16:13:35Z" uid="36809" user="pfoten_weg_!_" changeset="1028075"/>
  <way id="27309255" version="1" timestamp="2008-09-25T17:37:32Z" uid="36809" user="pfoten_weg_!_" changeset="696635">
    <nd ref="299774693"/>
    <nd ref="299774762"/>
    <tag k="created_by" v="RambaZamba"/>
    <tag k="highway" v="footway"/>
    <tag k="layer" v="0"/>
    <tag k="source" v="survey"/>
    <tag k="surface" v="paved"/>
  </way>
  <way id="27309255" version="2" timestamp="2008-10-01T02:41:40Z" uid="36809" user="pfoten_weg_!_" changeset="5644">
    <nd ref="299774693"/>
    <nd ref="299774762"/>
    <tag k="created_by" v="RambaZamba"/>
    <tag k="highway" v="footway"/>
    <tag k="layer" v="0"/>
    <tag k="source" v="survey"/>
    <tag k="surface" v="paved"/>
  </way>
  <way id="27309255" version="3" timestamp="2009-03-30T02:31:35Z" uid="36809" user="pfoten_weg_!_" changeset="869093">
    <nd ref="299774693"/>
    <nd ref="299774762"/>
    <tag k="created_by" v="RambaZamba"/>
    <tag k="highway" v="footway"/>
    <tag k="layer" v="1"/>
    <tag k="source" v="survey"/>
    <tag k="surface" v="paved"/>
  </way>
  <way id="27309255" version="5" timestamp="2009-09-04T21:18:40Z" uid="36809" user="pfoten_weg_!_" changeset="2374562">
    <nd ref="299774693"/>
    <nd ref="299774762"/>
    <tag k="highway" v="footway"/>
    <tag k="layer" v="1"/>
    <tag k="source" v="survey"/>
    <tag k="surface" v="paved"/>
  </way>
  <way id="27309255" version="6" timestamp="2009-10-03T17:43:45Z" uid="179968" user="Ich_hasse_doitsche_OSM-Korinthenkacker" changeset="2727120">
    <nd ref="299774693"/>
    <nd ref="299774762"/>
    <tag k="highway" v="footway"/>
    <tag k="layer" v="1"/>
    <tag k="surface" v="paved"/>
  </way>
  <way id="27309256" version="1" timestamp="2008-09-25T17:37:32Z" uid="36809" user="pfoten_weg_!_" changeset="696635">
    <nd ref="299246743"/>
    <nd ref="299774764"/>
    <nd ref="299246815"/>
    <tag k="created_by" v="RambaZamba"/>
    <tag k="highway" v="footway"/>
    <tag k="layer" v="0"/>
    <tag k="source" v="survey"/>
    <tag k="surface" v="paved"/>
    <tag k="width" v="1"/>
  </way>
  <way id="27309256" version="2" timestamp="2008-10-01T02:42:12Z" uid="36809" user="pfoten_weg_!_" changeset="5644">
    <nd ref="299246743"/>
    <nd ref="299774764"/>
    <nd ref="299246815"/>
    <tag k="created_by" v="RambaZamba"/>
    <tag k="highway" v="footway"/>
    <tag k="layer" v="0"/>
    <tag k="source" v="survey"/>
    <tag k="surface" v="paved"/>
    <tag k="width" v="1"/>
  </way>
  <way id="27309256" version="3" timestamp="2009-05-03T00:38:43Z" uid="36809" user="pfoten_weg_!_" changeset="1055292">
    <nd ref="299246815"/>
    <nd ref="299774764"/>
    <nd ref="299246743"/>
    <tag k="created_by" v="RambaZamba"/>
    <tag k="highway" v="footway"/>
    <tag k="layer" v="0"/>
    <tag k="source" v="survey"/>
    <tag k="surface" v="paved"/>
    <tag k="width" v="1"/>
  </way>
  <way id="27309256" version="4" timestamp="2009-07-23T20:30:30Z" uid="36809" user="pfoten_weg_!_" changeset="1919756">
    <nd ref="431954453"/>
    <nd ref="299774764"/>
    <nd ref="299246743"/>
    <tag k="highway" v="footway"/>
    <tag k="layer" v="0"/>
    <tag k="source" v="survey"/>
    <tag k="surface" v="paved"/>
    <tag k="width" v="1"/>
  </way>
  <way id="27309256" version="5" timestamp="2009-10-03T17:43:45Z" uid="179968" user="Ich_hasse_doitsche_OSM-Korinthenkacker" changeset="2727120">
    <nd ref="431954453"/>
    <nd ref="299774764"/>
    <nd ref="299246743"/>
    <tag k="highway" v="footway"/>
    <tag k="layer" v="0"/>
    <tag k="surface" v="paved"/>
    <tag k="width" v="1"/>
  </way>
  <way id="27309257" version="1" timestamp="2008-09-25T17:37:32Z" uid="36809" user="pfoten_weg_!_" changeset="696635">
    <nd ref="299774735"/>
    <nd ref="299774730"/>
    <nd ref="299774726"/>
    <nd ref="299774765"/>
    <nd ref="299774723"/>
    <nd ref="299774719"/>
    <tag k="created_by" v="RambaZamba"/>
    <tag k="highway" v="footway"/>
    <tag k="layer" v="0"/>
    <tag k="source" v="survey"/>
    <tag k="surface" v="cobblestone"/>
    <tag k="width" v="2"/>
  </way>
  <way id="27309257" version="2" timestamp="2008-10-01T02:41:57Z" uid="36809" user="pfoten_weg_!_" changeset="5644">
    <nd ref="299774735"/>
    <nd ref="299774730"/>
    <nd ref="299774726"/>
    <nd ref="299774765"/>
    <nd ref="299774723"/>
    <nd ref="299774719"/>
    <tag k="created_by" v="RambaZamba"/>
    <tag k="highway" v="footway"/>
    <tag k="layer" v="0"/>
    <tag k="source" v="survey"/>
    <tag k="surface" v="cobblestone"/>
    <tag k="width" v="2"/>
  </way>
  <way id="27309257" version="3" timestamp="2009-06-01T10:57:15Z" uid="36809" user="pfoten_weg_!_" changeset="1378434"/>
  <way id="27309258" version="1" timestamp="2008-09-25T17:37:32Z" uid="36809" user="pfoten_weg_!_" changeset="696635">
    <nd ref="299774765"/>
    <nd ref="299774766"/>
    <nd ref="299774767"/>
    <nd ref="299774768"/>
    <tag k="created_by" v="RambaZamba"/>
    <tag k="highway" v="footway"/>
    <tag k="layer" v="0"/>
    <tag k="source" v="survey"/>
    <tag k="surface" v="cobblestone"/>
    <tag k="width" v="2"/>
  </way>
  <way id="27309258" version="2" timestamp="2008-10-01T02:42:26Z" uid="36809" user="pfoten_weg_!_" changeset="5644">
    <nd ref="299774765"/>
    <nd ref="299774766"/>
    <nd ref="299774767"/>
    <nd ref="299774768"/>
    <tag k="created_by" v="RambaZamba"/>
    <tag k="highway" v="footway"/>
    <tag k="layer" v="0"/>
    <tag k="source" v="survey"/>
    <tag k="surface" v="cobblestone"/>
    <tag k="width" v="2"/>
  </way>
  <way id="27309258" version="4" timestamp="2009-09-04T21:12:03Z" uid="36809" user="pfoten_weg_!_" changeset="2374562">
    <nd ref="299774765"/>
    <nd ref="299774766"/>
    <nd ref="299774767"/>
    <nd ref="299774768"/>
    <tag k="highway" v="footway"/>
    <tag k="layer" v="0"/>
    <tag k="source" v="survey"/>
    <tag k="surface" v="cobblestone"/>
    <tag k="width" v="2"/>
  </way>
  <way id="27309258" version="5" timestamp="2009-10-03T17:43:46Z" uid="179968" user="Ich_hasse_doitsche_OSM-Korinthenkacker" changeset="2727120">
    <nd ref="299774765"/>
    <nd ref="299774766"/>
    <nd ref="299774767"/>
    <nd ref="299774768"/>
    <tag k="highway" v="footway"/>
    <tag k="layer" v="0"/>
    <tag k="surface" v="cobblestone"/>
    <tag k="width" v="2"/>
  </way>
  <way id="27309259" version="1" timestamp="2008-09-25T17:37:32Z" uid="36809" user="pfoten_weg_!_" changeset="696635">
    <nd ref="299774702"/>
    <nd ref="299774769"/>
    <tag k="created_by" v="RambaZamba"/>
    <tag k="highway" v="footway"/>
    <tag k="layer" v="0"/>
    <tag k="source" v="survey"/>
    <tag k="surface" v="paved"/>
    <tag k="width" v="1.5"/>
  </way>
  <way id="27309259" version="2" timestamp="2008-10-01T02:42:13Z" uid="36809" user="pfoten_weg_!_" changeset="5644">
    <nd ref="299774702"/>
    <nd ref="299774769"/>
    <tag k="created_by" v="RambaZamba"/>
    <tag k="highway" v="footway"/>
    <tag k="layer" v="0"/>
    <tag k="source" v="survey"/>
    <tag k="surface" v="paved"/>
    <tag k="width" v="1.5"/>
  </way>
  <way id="27309259" version="3" timestamp="2009-06-09T00:02:04Z" uid="36809" user="pfoten_weg_!_" changeset="1464188">
    <nd ref="299774702"/>
    <nd ref="417733906"/>
    <nd ref="299774769"/>
    <tag k="created_by" v="RambaZamba"/>
    <tag k="highway" v="footway"/>
    <tag k="layer" v="0"/>
    <tag k="source" v="survey"/>
    <tag k="surface" v="paved"/>
    <tag k="width" v="1.5"/>
  </way>
  <way id="27309259" version="5" timestamp="2009-09-04T21:18:21Z" uid="36809" user="pfoten_weg_!_" changeset="2374562">
    <nd ref="299774702"/>
    <nd ref="417733906"/>
    <nd ref="299774769"/>
    <tag k="highway" v="footway"/>
    <tag k="layer" v="0"/>
    <tag k="source" v="survey"/>
    <tag k="surface" v="paved"/>
    <tag k="width" v="1.5"/>
  </way>
  <way id="27309259" version="6" timestamp="2009-10-03T17:43:46Z" uid="179968" user="Ich_hasse_doitsche_OSM-Korinthenkacker" changeset="2727120">
    <nd ref="299774702"/>
    <nd ref="417733906"/>
    <nd ref="299774769"/>
    <tag k="highway" v="footway"/>
    <tag k="layer" v="0"/>
    <tag k="surface" v="paved"/>
    <tag k="width" v="1.5"/>
  </way>
  <way id="27309260" version="1" timestamp="2008-09-25T17:37:33Z" uid="36809" user="pfoten_weg_!_" changeset="696635">
    <nd ref="299774775"/>
    <nd ref="299774782"/>
    <tag k="created_by" v="RambaZamba"/>
    <tag k="highway" v="footway"/>
    <tag k="layer" v="0"/>
    <tag k="source" v="survey"/>
    <tag k="surface" v="cobblestone"/>
    <tag k="width" v="1.5"/>
  </way>
  <way id="27309260" version="2" timestamp="2008-09-25T18:18:42Z" uid="36809" user="pfoten_weg_!_" changeset="696635">
    <nd ref="299774775"/>
    <nd ref="299774782"/>
    <tag k="created_by" v="RambaZamba"/>
    <tag k="highway" v="footway"/>
    <tag k="layer" v="0"/>
    <tag k="name" v="Wöllnerplatz"/>
    <tag k="source" v="survey"/>
    <tag k="surface" v="cobblestone"/>
    <tag k="width" v="1.5"/>
  </way>
  <way id="27309260" version="3" timestamp="2008-10-01T02:42:29Z" uid="36809" user="pfoten_weg_!_" changeset="5644">
    <nd ref="299774775"/>
    <nd ref="299774782"/>
    <tag k="created_by" v="RambaZamba"/>
    <tag k="highway" v="footway"/>
    <tag k="layer" v="0"/>
    <tag k="name" v="Wöllnerplatz"/>
    <tag k="source" v="survey"/>
    <tag k="surface" v="cobblestone"/>
    <tag k="width" v="1.5"/>
  </way>
  <way id="27309260" version="5" timestamp="2009-09-04T21:14:44Z" uid="36809" user="pfoten_weg_!_" changeset="2374562">
    <nd ref="299774775"/>
    <nd ref="299774782"/>
    <tag k="highway" v="footway"/>
    <tag k="layer" v="0"/>
    <tag k="name" v="Wöllnerplatz"/>
    <tag k="source" v="survey"/>
    <tag k="surface" v="cobblestone"/>
    <tag k="width" v="1.5"/>
  </way>
  <way id="27309260" version="6" timestamp="2009-10-03T17:43:46Z" uid="179968" user="Ich_hasse_doitsche_OSM-Korinthenkacker" changeset="2727120">
    <nd ref="299774775"/>
    <nd ref="299774782"/>
    <tag k="highway" v="footway"/>
    <tag k="layer" v="0"/>
    <tag k="name" v="Wöllnerplatz"/>
    <tag k="surface" v="cobblestone"/>
    <tag k="width" v="1.5"/>
  </way>
  <way id="27309261" version="1" timestamp="2008-09-25T17:37:33Z" uid="36809" user="pfoten_weg_!_" changeset="696635">
    <nd ref="299774780"/>
    <nd ref="299774781"/>
    <tag k="created_by" v="RambaZamba"/>
    <tag k="highway" v="footway"/>
    <tag k="layer" v="0"/>
    <tag k="source" v="survey"/>
    <tag k="surface" v="paved"/>
    <tag k="width" v="1.5"/>
  </way>
  <way id="27309261" version="2" timestamp="2008-09-25T18:18:43Z" uid="36809" user="pfoten_weg_!_" changeset="696635">
    <nd ref="299774780"/>
    <nd ref="299787277"/>
    <nd ref="299774781"/>
    <tag k="created_by" v="RambaZamba"/>
    <tag k="highway" v="footway"/>
    <tag k="layer" v="0"/>
    <tag k="name" v="Wöllnerplatz"/>
    <tag k="source" v="survey"/>
    <tag k="surface" v="paved"/>
    <tag k="width" v="1.5"/>
  </way>
  <way id="27309261" version="3" timestamp="2008-10-01T02:42:28Z" uid="36809" user="pfoten_weg_!_" changeset="5644">
    <nd ref="299774780"/>
    <nd ref="299787277"/>
    <nd ref="299774781"/>
    <tag k="created_by" v="RambaZamba"/>
    <tag k="highway" v="footway"/>
    <tag k="layer" v="0"/>
    <tag k="name" v="Wöllnerplatz"/>
    <tag k="source" v="survey"/>
    <tag k="surface" v="paved"/>
    <tag k="width" v="1.5"/>
  </way>
  <way id="27309261" version="5" timestamp="2009-09-04T21:08:51Z" uid="36809" user="pfoten_weg_!_" changeset="2374562">
    <nd ref="299774780"/>
    <nd ref="299787277"/>
    <nd ref="299774781"/>
    <tag k="highway" v="footway"/>
    <tag k="layer" v="0"/>
    <tag k="name" v="Wöllnerplatz"/>
    <tag k="source" v="survey"/>
    <tag k="surface" v="paved"/>
    <tag k="width" v="1.5"/>
  </way>
  <way id="27309261" version="6" timestamp="2009-10-03T17:43:46Z" uid="179968" user="Ich_hasse_doitsche_OSM-Korinthenkacker" changeset="2727120">
    <nd ref="299774780"/>
    <nd ref="299787277"/>
    <nd ref="299774781"/>
    <tag k="highway" v="footway"/>
    <tag k="layer" v="0"/>
    <tag k="name" v="Wöllnerplatz"/>
    <tag k="surface" v="paved"/>
    <tag k="width" v="1.5"/>
  </way>
  <way id="27309262" version="1" timestamp="2008-09-25T17:37:33Z" uid="36809" user="pfoten_weg_!_" changeset="696635">
    <nd ref="299774769"/>
    <nd ref="299774770"/>
    <nd ref="299774771"/>
    <nd ref="299774775"/>
    <nd ref="299774780"/>
    <tag k="created_by" v="RambaZamba"/>
    <tag k="highway" v="footway"/>
    <tag k="layer" v="0"/>
    <tag k="source" v="survey"/>
    <tag k="surface" v="paved"/>
    <tag k="width" v="1.5"/>
  </way>
  <way id="27309262" version="2" timestamp="2008-09-25T18:18:44Z" uid="36809" user="pfoten_weg_!_" changeset="696635">
    <nd ref="299774769"/>
    <nd ref="299774770"/>
    <nd ref="299774771"/>
    <nd ref="299774775"/>
    <nd ref="299774780"/>
    <tag k="created_by" v="RambaZamba"/>
    <tag k="highway" v="footway"/>
    <tag k="layer" v="0"/>
    <tag k="name" v="Wöllnerplatz"/>
    <tag k="source" v="survey"/>
    <tag k="surface" v="paved"/>
    <tag k="width" v="1.5"/>
  </way>
  <way id="27309262" version="3" timestamp="2008-10-01T02:42:31Z" uid="36809" user="pfoten_weg_!_" changeset="5644">
    <nd ref="299774769"/>
    <nd ref="299774770"/>
    <nd ref="299774771"/>
    <nd ref="299774775"/>
    <nd ref="299774780"/>
    <tag k="created_by" v="RambaZamba"/>
    <tag k="highway" v="footway"/>
    <tag k="layer" v="0"/>
    <tag k="name" v="Wöllnerplatz"/>
    <tag k="source" v="survey"/>
    <tag k="surface" v="paved"/>
    <tag k="width" v="1.5"/>
  </way>
  <way id="27309262" version="4" timestamp="2009-04-29T20:43:57Z" uid="36809" user="pfoten_weg_!_" changeset="1021054">
    <nd ref="299774769"/>
    <nd ref="387515931"/>
    <nd ref="299774770"/>
    <nd ref="299774771"/>
    <nd ref="299774775"/>
    <nd ref="299774780"/>
    <tag k="created_by" v="RambaZamba"/>
    <tag k="highway" v="footway"/>
    <tag k="layer" v="0"/>
    <tag k="name" v="Wöllnerplatz"/>
    <tag k="source" v="survey"/>
    <tag k="surface" v="paved"/>
    <tag k="width" v="1.5"/>
  </way>
  <way id="27309262" version="6" timestamp="2009-09-04T21:11:16Z" uid="36809" user="pfoten_weg_!_" changeset="2374562">
    <nd ref="299774769"/>
    <nd ref="387515931"/>
    <nd ref="299774770"/>
    <nd ref="299774771"/>
    <nd ref="299774775"/>
    <nd ref="299774780"/>
    <tag k="highway" v="footway"/>
    <tag k="layer" v="0"/>
    <tag k="name" v="Wöllnerplatz"/>
    <tag k="source" v="survey"/>
    <tag k="surface" v="paved"/>
    <tag k="width" v="1.5"/>
  </way>
  <way id="27309262" version="7" timestamp="2009-10-03T17:43:46Z" uid="179968" user="Ich_hasse_doitsche_OSM-Korinthenkacker" changeset="2727120">
    <nd ref="299774769"/>
    <nd ref="387515931"/>
    <nd ref="299774770"/>
    <nd ref="299774771"/>
    <nd ref="299774775"/>
    <nd ref="299774780"/>
    <tag k="highway" v="footway"/>
    <tag k="layer" v="0"/>
    <tag k="name" v="Wöllnerplatz"/>
    <tag k="surface" v="paved"/>
    <tag k="width" v="1.5"/>
  </way>
  <way id="27309263" version="1" timestamp="2008-09-25T17:37:33Z" uid="36809" user="pfoten_weg_!_" changeset="696635">
    <nd ref="299774757"/>
    <nd ref="299774783"/>
    <tag k="created_by" v="RambaZamba"/>
    <tag k="source" v="survey"/>
  </way>
  <way id="27309263" version="2" timestamp="2008-09-25T18:18:44Z" uid="36809" user="pfoten_weg_!_" changeset="696635">
    <nd ref="299774757"/>
    <nd ref="299774783"/>
    <tag k="created_by" v="RambaZamba"/>
    <tag k="name" v="Wöllnerplatz"/>
    <tag k="source" v="survey"/>
  </way>
  <way id="27309263" version="3" timestamp="2008-10-01T02:42:30Z" uid="36809" user="pfoten_weg_!_" changeset="5644">
    <nd ref="299774757"/>
    <nd ref="299774783"/>
    <tag k="created_by" v="RambaZamba"/>
    <tag k="name" v="Wöllnerplatz"/>
    <tag k="source" v="survey"/>
  </way>
  <way id="27309263" version="4" timestamp="2009-06-01T11:04:01Z" uid="36809" user="pfoten_weg_!_" changeset="1378493"/>
  <way id="27309264" version="1" timestamp="2008-09-25T17:37:33Z" uid="36809" user="pfoten_weg_!_" changeset="696635">
    <nd ref="299774771"/>
    <nd ref="299774758"/>
    <tag k="created_by" v="RambaZamba"/>
    <tag k="source" v="survey"/>
  </way>
  <way id="27309264" version="2" timestamp="2008-09-25T18:18:44Z" uid="36809" user="pfoten_weg_!_" changeset="696635">
    <nd ref="299774771"/>
    <nd ref="299774758"/>
    <tag k="created_by" v="RambaZamba"/>
    <tag k="name" v="Wöllnerplatz"/>
    <tag k="source" v="survey"/>
  </way>
  <way id="27309264" version="3" timestamp="2008-10-01T02:42:39Z" uid="36809" user="pfoten_weg_!_" changeset="5644">
    <nd ref="299774771"/>
    <nd ref="299774758"/>
    <tag k="created_by" v="RambaZamba"/>
    <tag k="name" v="Wöllnerplatz"/>
    <tag k="source" v="survey"/>
  </way>
  <way id="27309264" version="4" timestamp="2009-06-01T11:04:01Z" uid="36809" user="pfoten_weg_!_" changeset="1378493"/>
  <way id="27309265" version="1" timestamp="2008-09-25T17:37:34Z" uid="36809" user="pfoten_weg_!_" changeset="696635">
    <nd ref="299774784"/>
    <nd ref="299774785"/>
    <nd ref="299774788"/>
    <nd ref="299774786"/>
    <nd ref="299774787"/>
    <nd ref="299774784"/>
    <tag k="amenity" v="parking"/>
    <tag k="created_by" v="RambaZamba"/>
    <tag k="name" v="Großhesselohe Isartalbahnhof"/>
    <tag k="source" v="survey"/>
  </way>
  <way id="27309265" version="2" timestamp="2008-10-01T02:42:42Z" uid="36809" user="pfoten_weg_!_" changeset="5644">
    <nd ref="299774784"/>
    <nd ref="299774785"/>
    <nd ref="299774788"/>
    <nd ref="299774786"/>
    <nd ref="299774787"/>
    <nd ref="299774784"/>
    <tag k="amenity" v="parking"/>
    <tag k="created_by" v="RambaZamba"/>
    <tag k="name" v="Großhesselohe Isartalbahnhof"/>
    <tag k="source" v="survey"/>
  </way>
  <way id="27309265" version="3" timestamp="2009-05-03T00:38:43Z" uid="36809" user="pfoten_weg_!_" changeset="1055292">
    <nd ref="299774784"/>
    <nd ref="299774785"/>
    <nd ref="299774788"/>
    <nd ref="299774786"/>
    <nd ref="299774787"/>
    <nd ref="299774784"/>
    <tag k="amenity" v="parking"/>
    <tag k="capacity" v="50"/>
    <tag k="created_by" v="RambaZamba"/>
    <tag k="name" v="Großhesselohe Isartalbahnhof"/>
    <tag k="parking" v="surface"/>
    <tag k="source" v="survey"/>
  </way>
  <way id="27309265" version="5" timestamp="2009-09-04T21:11:23Z" uid="36809" user="pfoten_weg_!_" changeset="2374562">
    <nd ref="299774784"/>
    <nd ref="299774785"/>
    <nd ref="299774788"/>
    <nd ref="299774786"/>
    <nd ref="299774787"/>
    <nd ref="299774784"/>
    <tag k="amenity" v="parking"/>
    <tag k="capacity" v="50"/>
    <tag k="name" v="Großhesselohe Isartalbahnhof"/>
    <tag k="parking" v="surface"/>
    <tag k="source" v="survey"/>
  </way>
  <way id="27309265" version="6" timestamp="2009-10-03T17:43:46Z" uid="179968" user="Ich_hasse_doitsche_OSM-Korinthenkacker" changeset="2727120">
    <nd ref="299774784"/>
    <nd ref="299774785"/>
    <nd ref="299774788"/>
    <nd ref="299774786"/>
    <nd ref="299774787"/>
    <nd ref="299774784"/>
    <tag k="amenity" v="parking"/>
    <tag k="capacity" v="50"/>
    <tag k="name" v="Großhesselohe Isartalbahnhof"/>
    <tag k="parking" v="surface"/>
  </way>
  <way id="27309266" version="1" timestamp="2008-09-25T17:37:34Z" uid="36809" user="pfoten_weg_!_" changeset="696635">
    <nd ref="299774730"/>
    <nd ref="299774789"/>
    <tag k="created_by" v="RambaZamba"/>
    <tag k="highway" v="footway"/>
    <tag k="layer" v="0"/>
    <tag k="source" v="survey"/>
    <tag k="surface" v="unpaved"/>
    <tag k="width" v="2"/>
  </way>
  <way id="27309266" version="2" timestamp="2008-10-01T02:42:52Z" uid="36809" user="pfoten_weg_!_" changeset="5644">
    <nd ref="299774730"/>
    <nd ref="299774789"/>
    <tag k="created_by" v="RambaZamba"/>
    <tag k="highway" v="footway"/>
    <tag k="layer" v="0"/>
    <tag k="source" v="survey"/>
    <tag k="surface" v="unpaved"/>
    <tag k="width" v="2"/>
  </way>
  <way id="27309266" version="3" timestamp="2009-06-01T10:57:15Z" uid="36809" user="pfoten_weg_!_" changeset="1378434"/>
  <way id="27309267" version="1" timestamp="2008-09-25T17:37:34Z" uid="36809" user="pfoten_weg_!_" changeset="696635">
    <nd ref="299774719"/>
    <nd ref="299774791"/>
    <tag k="created_by" v="RambaZamba"/>
    <tag k="highway" v="steps"/>
    <tag k="layer" v="-1"/>
    <tag k="source" v="survey"/>
    <tag k="surface" v="paved"/>
    <tag k="width" v="2"/>
  </way>
  <way id="27309267" version="2" timestamp="2008-10-01T02:42:55Z" uid="36809" user="pfoten_weg_!_" changeset="5644">
    <nd ref="299774719"/>
    <nd ref="299774791"/>
    <tag k="created_by" v="RambaZamba"/>
    <tag k="highway" v="steps"/>
    <tag k="layer" v="-1"/>
    <tag k="source" v="survey"/>
    <tag k="surface" v="paved"/>
    <tag k="width" v="2"/>
  </way>
  <way id="27309267" version="3" timestamp="2009-06-01T10:57:15Z" uid="36809" user="pfoten_weg_!_" changeset="1378434"/>
  <way id="27309268" version="1" timestamp="2008-09-25T17:37:34Z" uid="36809" user="pfoten_weg_!_" changeset="696635">
    <nd ref="299774791"/>
    <nd ref="299774792"/>
    <tag k="bicycle" v="no"/>
    <tag k="created_by" v="RambaZamba"/>
    <tag k="highway" v="steps"/>
    <tag k="layer" v="-1"/>
    <tag k="motorcycle" v="no"/>
    <tag k="noexit" v="no"/>
    <tag k="source" v="survey"/>
    <tag k="surface" v="paved"/>
    <tag k="tunnel" v="yes"/>
    <tag k="width" v="2"/>
  </way>
  <way id="27309268" version="2" timestamp="2008-10-01T02:43:02Z" uid="36809" user="pfoten_weg_!_" changeset="5644">
    <nd ref="299774791"/>
    <nd ref="299774792"/>
    <tag k="bicycle" v="no"/>
    <tag k="created_by" v="RambaZamba"/>
    <tag k="highway" v="steps"/>
    <tag k="layer" v="-1"/>
    <tag k="motorcycle" v="no"/>
    <tag k="noexit" v="no"/>
    <tag k="source" v="survey"/>
    <tag k="surface" v="paved"/>
    <tag k="tunnel" v="yes"/>
    <tag k="width" v="2"/>
  </way>
  <way id="27309268" version="3" timestamp="2009-02-12T20:17:14Z" uid="36809" user="pfoten_weg_!_" changeset="372946">
    <nd ref="299774791"/>
    <nd ref="299774792"/>
    <tag k="bicycle" v="no"/>
    <tag k="created_by" v="RambaZamba"/>
    <tag k="layer" v="-1"/>
    <tag k="motorcycle" v="no"/>
    <tag k="noexit" v="no"/>
    <tag k="source" v="survey"/>
    <tag k="surface" v="paved"/>
    <tag k="tunnel" v="yes"/>
    <tag k="width" v="2"/>
  </way>
  <way id="27309268" version="4" timestamp="2009-03-22T04:31:58Z" uid="36809" user="pfoten_weg_!_" changeset="843843">
    <nd ref="299774791"/>
    <nd ref="299774792"/>
    <tag k="bicycle" v="no"/>
    <tag k="created_by" v="RambaZamba"/>
    <tag k="layer" v="-1"/>
    <tag k="noexit" v="no"/>
    <tag k="source" v="survey"/>
    <tag k="surface" v="paved"/>
    <tag k="tunnel" v="yes"/>
    <tag k="width" v="2"/>
  </way>
  <way id="27309268" version="5" timestamp="2009-04-29T20:43:58Z" uid="36809" user="pfoten_weg_!_" changeset="1021054">
    <nd ref="299774791"/>
    <nd ref="299774792"/>
    <tag k="bicycle" v="no"/>
    <tag k="created_by" v="RambaZamba"/>
    <tag k="layer" v="-1"/>
    <tag k="source" v="survey"/>
    <tag k="surface" v="paved"/>
    <tag k="tunnel" v="yes"/>
    <tag k="width" v="2"/>
  </way>
  <way id="27309268" version="6" timestamp="2009-04-30T16:31:38Z" uid="36809" user="pfoten_weg_!_" changeset="1028193">
    <nd ref="299774791"/>
    <nd ref="387802802"/>
    <nd ref="387802803"/>
    <nd ref="299774792"/>
    <tag k="bicycle" v="no"/>
    <tag k="created_by" v="RambaZamba"/>
    <tag k="highway" v="footway"/>
    <tag k="layer" v="-1"/>
    <tag k="source" v="survey"/>
    <tag k="surface" v="paved"/>
    <tag k="tunnel" v="yes"/>
    <tag k="width" v="3"/>
  </way>
  <way id="27309268" version="7" timestamp="2009-06-01T10:57:15Z" uid="36809" user="pfoten_weg_!_" changeset="1378434"/>
  <way id="27309269" version="1" timestamp="2008-09-25T17:37:34Z" uid="36809" user="pfoten_weg_!_" changeset="696635">
    <nd ref="299774792"/>
    <nd ref="299774793"/>
    <tag k="created_by" v="RambaZamba"/>
    <tag k="highway" v="steps"/>
    <tag k="layer" v="-1"/>
    <tag k="source" v="survey"/>
    <tag k="surface" v="paved"/>
    <tag k="width" v="2"/>
  </way>
  <way id="27309269" version="2" timestamp="2008-10-01T02:43:02Z" uid="36809" user="pfoten_weg_!_" changeset="5644">
    <nd ref="299774792"/>
    <nd ref="299774793"/>
    <tag k="created_by" v="RambaZamba"/>
    <tag k="highway" v="steps"/>
    <tag k="layer" v="-1"/>
    <tag k="source" v="survey"/>
    <tag k="surface" v="paved"/>
    <tag k="width" v="2"/>
  </way>
  <way id="27309269" version="3" timestamp="2009-03-22T04:31:58Z" uid="36809" user="pfoten_weg_!_" changeset="843843">
    <nd ref="299774792"/>
    <nd ref="299774793"/>
    <tag k="created_by" v="RambaZamba"/>
    <tag k="highway" v="steps"/>
    <tag k="layer" v="-1"/>
    <tag k="noexit" v="no"/>
    <tag k="source" v="survey"/>
    <tag k="surface" v="paved"/>
    <tag k="width" v="2"/>
  </way>
  <way id="27309269" version="4" timestamp="2009-06-01T10:57:14Z" uid="36809" user="pfoten_weg_!_" changeset="1378434"/>
  <way id="27309270" version="1" timestamp="2008-09-25T17:37:35Z" uid="36809" user="pfoten_weg_!_" changeset="696635">
    <nd ref="299774793"/>
    <nd ref="299774794"/>
    <tag k="created_by" v="RambaZamba"/>
    <tag k="highway" v="footway"/>
    <tag k="layer" v="0"/>
    <tag k="name" v="Bahnsteig"/>
    <tag k="noexit" v="yes"/>
    <tag k="source" v="survey"/>
    <tag k="surface" v="paved"/>
  </way>
  <way id="27309270" version="2" timestamp="2008-10-01T02:43:05Z" uid="36809" user="pfoten_weg_!_" changeset="5644">
    <nd ref="299774793"/>
    <nd ref="299774794"/>
    <tag k="created_by" v="RambaZamba"/>
    <tag k="highway" v="footway"/>
    <tag k="layer" v="0"/>
    <tag k="name" v="Bahnsteig"/>
    <tag k="noexit" v="yes"/>
    <tag k="source" v="survey"/>
    <tag k="surface" v="paved"/>
  </way>
  <way id="27309270" version="3" timestamp="2009-03-22T04:31:59Z" uid="36809" user="pfoten_weg_!_" changeset="843843">
    <nd ref="299774793"/>
    <nd ref="299774794"/>
    <tag k="created_by" v="RambaZamba"/>
    <tag k="highway" v="footway"/>
    <tag k="layer" v="0"/>
    <tag k="name" v="Bahnsteig"/>
    <tag k="noexit" v="no"/>
    <tag k="source" v="survey"/>
    <tag k="surface" v="paved"/>
  </way>
  <way id="27309270" version="4" timestamp="2009-04-13T23:20:21Z" uid="36809" user="pfoten_weg_!_" changeset="529931">
    <nd ref="299774793"/>
    <nd ref="299774794"/>
    <tag k="created_by" v="RambaZamba"/>
    <tag k="highway" v="footway"/>
    <tag k="layer" v="0"/>
    <tag k="name" v="Bahnsteig"/>
    <tag k="noexit" v="yes"/>
    <tag k="source" v="survey"/>
    <tag k="surface" v="paved"/>
  </way>
  <way id="27309270" version="5" timestamp="2009-05-31T16:14:05Z" uid="36809" user="pfoten_weg_!_" changeset="1370639">
    <nd ref="299774793"/>
    <nd ref="299774794"/>
    <tag k="created_by" v="RambaZamba"/>
    <tag k="highway" v="footway"/>
    <tag k="layer" v="0"/>
    <tag k="name" v="Bahnsteig"/>
    <tag k="railway" v="platform"/>
    <tag k="source" v="survey"/>
    <tag k="surface" v="paved"/>
    <tag k="width" v="6"/>
  </way>
  <way id="27309270" version="6" timestamp="2009-06-01T10:57:14Z" uid="36809" user="pfoten_weg_!_" changeset="1378434"/>
  <way id="27309271" version="1" timestamp="2008-09-25T17:37:36Z" uid="36809" user="pfoten_weg_!_" changeset="696635">
    <nd ref="299774795"/>
    <nd ref="299774796"/>
    <nd ref="299774813"/>
    <nd ref="299774797"/>
    <nd ref="299774798"/>
    <nd ref="299774799"/>
    <nd ref="299774800"/>
    <nd ref="299774801"/>
    <nd ref="299774802"/>
    <nd ref="299774803"/>
    <nd ref="299774804"/>
    <nd ref="299774805"/>
    <nd ref="299774806"/>
    <nd ref="299774807"/>
    <nd ref="299774808"/>
    <nd ref="299774809"/>
    <nd ref="299774810"/>
    <nd ref="299774811"/>
    <nd ref="299774795"/>
    <tag k="created_by" v="RambaZamba"/>
    <tag k="landuse" v="recreation_ground"/>
    <tag k="name" v="Park"/>
    <tag k="source" v="survey"/>
  </way>
  <way id="27309271" version="2" timestamp="2008-10-01T02:43:11Z" uid="36809" user="pfoten_weg_!_" changeset="5644">
    <nd ref="299774795"/>
    <nd ref="299774796"/>
    <nd ref="299774813"/>
    <nd ref="299774797"/>
    <nd ref="299774798"/>
    <nd ref="299774799"/>
    <nd ref="299774800"/>
    <nd ref="299774801"/>
    <nd ref="299774802"/>
    <nd ref="299774803"/>
    <nd ref="299774804"/>
    <nd ref="299774805"/>
    <nd ref="299774806"/>
    <nd ref="299774807"/>
    <nd ref="299774808"/>
    <nd ref="299774809"/>
    <nd ref="299774810"/>
    <nd ref="299774811"/>
    <nd ref="299774795"/>
    <tag k="created_by" v="RambaZamba"/>
    <tag k="landuse" v="recreation_ground"/>
    <tag k="name" v="Park"/>
    <tag k="source" v="survey"/>
  </way>
  <way id="27309271" version="4" timestamp="2009-09-01T10:51:13Z" uid="36809" user="pfoten_weg_!_" changeset="2335754">
    <nd ref="299774795"/>
    <nd ref="299774796"/>
    <nd ref="299774813"/>
    <nd ref="299774797"/>
    <nd ref="299774798"/>
    <nd ref="299774799"/>
    <nd ref="299774800"/>
    <nd ref="299774801"/>
    <nd ref="299774802"/>
    <nd ref="299774803"/>
    <nd ref="299774804"/>
    <nd ref="299774805"/>
    <nd ref="299774806"/>
    <nd ref="299774807"/>
    <nd ref="299774808"/>
    <nd ref="299774809"/>
    <nd ref="299774810"/>
    <nd ref="299774811"/>
    <nd ref="299774795"/>
    <tag k="landuse" v="recreation_ground"/>
    <tag k="name" v="Park"/>
    <tag k="source" v="survey"/>
  </way>
  <way id="27309271" version="5" timestamp="2009-10-03T17:43:47Z" uid="179968" user="Ich_hasse_doitsche_OSM-Korinthenkacker" changeset="2727120">
    <nd ref="299774795"/>
    <nd ref="299774796"/>
    <nd ref="299774813"/>
    <nd ref="299774797"/>
    <nd ref="299774798"/>
    <nd ref="299774799"/>
    <nd ref="299774800"/>
    <nd ref="299774801"/>
    <nd ref="299774802"/>
    <nd ref="299774803"/>
    <nd ref="299774804"/>
    <nd ref="299774805"/>
    <nd ref="299774806"/>
    <nd ref="299774807"/>
    <nd ref="299774808"/>
    <nd ref="299774809"/>
    <nd ref="299774810"/>
    <nd ref="299774811"/>
    <nd ref="299774795"/>
    <tag k="landuse" v="recreation_ground"/>
    <tag k="name" v="Park"/>
  </way>
  <way id="27309280" version="3" timestamp="2009-05-31T21:59:28Z" uid="49111" user="Markus B" changeset="1374176">
    <nd ref="246505400"/>
    <nd ref="270342622"/>
    <tag k="created_by" v="JOSM"/>
    <tag k="highway" v="unclassified"/>
  </way>
  <way id="27309290" version="3" timestamp="2009-02-23T12:14:38Z" uid="34428" user="usm78-gis" changeset="634299"/>
  <way id="27309295" version="2" timestamp="2009-06-01T10:49:19Z" uid="49111" user="Markus B" changeset="1378347">
    <nd ref="299362526"/>
    <nd ref="413982816"/>
    <tag k="created_by" v="Merkaartor 0.11"/>
    <tag k="highway" v="secondary"/>
    <tag k="name" v="Langenbruckstrasse"/>
  </way>
  <way id="27309296" version="1" timestamp="2008-09-25T17:39:10Z" uid="43863" user="Rundling" changeset="696933">
    <nd ref="299774917"/>
    <nd ref="299774920"/>
    <nd ref="299774919"/>
    <nd ref="299774918"/>
    <nd ref="299774917"/>
    <tag k="addr:city" v="Rosche"/>
    <tag k="addr:housenumber" v="24"/>
    <tag k="addr:postcode" v="29571"/>
    <tag k="addr:street" v="Amselweg"/>
    <tag k="building" v="yes"/>
    <tag k="created_by" v="Merkaartor 0.11"/>
  </way>
  <way id="27309296" version="2" timestamp="2008-09-27T11:51:01Z" uid="43863" user="Rundling" changeset="707288">
    <nd ref="299774917"/>
    <nd ref="299774920"/>
    <nd ref="299774919"/>
    <nd ref="299774918"/>
    <nd ref="299774917"/>
    <tag k="addr:city" v="Rosche"/>
    <tag k="addr:housenumber" v="24"/>
    <tag k="addr:postcode" v="29571"/>
    <tag k="addr:street" v="Amselweg"/>
    <tag k="building" v="yes"/>
    <tag k="created_by" v="Potlatch 0.10c"/>
  </way>
  <way id="27309296" version="3" timestamp="2010-07-12T19:22:46Z" uid="43863" user="Rundling" changeset="5201894">
    <nd ref="299774917"/>
    <nd ref="299774920"/>
    <nd ref="299774919"/>
    <nd ref="299774918"/>
    <nd ref="299774917"/>
    <tag k="addr:city" v="Rosche"/>
    <tag k="addr:housenumber" v="24"/>
    <tag k="addr:postcode" v="29571"/>
    <tag k="addr:street" v="Amselweg"/>
    <tag k="building" v="yes"/>
  </way>
  <way id="27309439" version="1" timestamp="2008-09-25T17:46:39Z" uid="43863" user="Rundling" changeset="696933">
    <nd ref="299776863"/>
    <nd ref="299776865"/>
    <nd ref="299776859"/>
    <nd ref="299776861"/>
    <nd ref="299776863"/>
    <tag k="addr:city" v="Rosche"/>
    <tag k="addr:housenumber" v="22"/>
    <tag k="addr:postcode" v="29571"/>
    <tag k="addr:street" v="Amselweg"/>
    <tag k="building" v="yes"/>
    <tag k="created_by" v="Merkaartor 0.11"/>
  </way>
  <way id="27309439" version="2" timestamp="2010-07-12T19:22:49Z" uid="43863" user="Rundling" changeset="5201894">
    <nd ref="299776863"/>
    <nd ref="299776865"/>
    <nd ref="299776859"/>
    <nd ref="299776861"/>
    <nd ref="299776863"/>
    <tag k="addr:city" v="Rosche"/>
    <tag k="addr:housenumber" v="20"/>
    <tag k="addr:postcode" v="29571"/>
    <tag k="addr:street" v="Amselweg"/>
    <tag k="building" v="yes"/>
  </way>
  <way id="27309440" version="1" timestamp="2008-09-25T17:46:39Z" uid="43863" user="Rundling" changeset="696933">
    <nd ref="299776872"/>
    <nd ref="299776874"/>
    <nd ref="299776867"/>
    <nd ref="299776870"/>
    <nd ref="299776872"/>
    <tag k="addr:city" v="Rosche"/>
    <tag k="addr:housenumber" v="20"/>
    <tag k="addr:postcode" v="29571"/>
    <tag k="addr:street" v="Amselweg"/>
    <tag k="building" v="yes"/>
    <tag k="created_by" v="Merkaartor 0.11"/>
  </way>
  <way id="27309440" version="2" timestamp="2010-07-12T19:22:49Z" uid="43863" user="Rundling" changeset="5201894">
    <nd ref="299776872"/>
    <nd ref="299776874"/>
    <nd ref="299776867"/>
    <nd ref="299776870"/>
    <nd ref="299776872"/>
    <tag k="addr:city" v="Rosche"/>
    <tag k="addr:housenumber" v="18"/>
    <tag k="addr:postcode" v="29571"/>
    <tag k="addr:street" v="Amselweg"/>
    <tag k="building" v="yes"/>
  </way>
  <way id="27309441" version="1" timestamp="2008-09-25T17:46:39Z" uid="43863" user="Rundling" changeset="696933">
    <nd ref="299776879"/>
    <nd ref="299776880"/>
    <nd ref="299776876"/>
    <nd ref="299776877"/>
    <nd ref="299776879"/>
    <tag k="addr:city" v="Rosche"/>
    <tag k="addr:housenumber" v="18"/>
    <tag k="addr:postcode" v="29571"/>
    <tag k="addr:street" v="Amselweg"/>
    <tag k="building" v="yes"/>
    <tag k="created_by" v="Merkaartor 0.11"/>
  </way>
  <way id="27309441" version="2" timestamp="2010-07-12T19:22:58Z" uid="43863" user="Rundling" changeset="5201894">
    <nd ref="299776879"/>
    <nd ref="299776880"/>
    <nd ref="299776876"/>
    <nd ref="299776877"/>
    <nd ref="299776879"/>
    <tag k="addr:city" v="Rosche"/>
    <tag k="addr:housenumber" v="16"/>
    <tag k="addr:postcode" v="29571"/>
    <tag k="addr:street" v="Amselweg"/>
    <tag k="building" v="yes"/>
  </way>
  <way id="27309442" version="1" timestamp="2008-09-25T17:46:40Z" uid="43863" user="Rundling" changeset="696933">
    <nd ref="299776885"/>
    <nd ref="299776887"/>
    <nd ref="299776882"/>
    <nd ref="299776884"/>
    <nd ref="299776885"/>
    <tag k="addr:city" v="Rosche"/>
    <tag k="addr:housenumber" v="14"/>
    <tag k="addr:postcode" v="29571"/>
    <tag k="addr:street" v="Amselweg"/>
    <tag k="building" v="yes"/>
    <tag k="created_by" v="Merkaartor 0.11"/>
  </way>
  <way id="27309442" version="2" timestamp="2010-07-12T19:22:51Z" uid="43863" user="Rundling" changeset="5201894">
    <nd ref="299776885"/>
    <nd ref="299776887"/>
    <nd ref="299776882"/>
    <nd ref="299776884"/>
    <nd ref="299776885"/>
    <tag k="addr:city" v="Rosche"/>
    <tag k="addr:housenumber" v="14"/>
    <tag k="addr:postcode" v="29571"/>
    <tag k="addr:street" v="Amselweg"/>
    <tag k="building" v="yes"/>
  </way>
  <way id="27309443" version="1" timestamp="2008-09-25T17:46:40Z" uid="43863" user="Rundling" changeset="696933">
    <nd ref="299776893"/>
    <nd ref="299776896"/>
    <nd ref="299776889"/>
    <nd ref="299776891"/>
    <nd ref="299776893"/>
    <tag k="addr:city" v="Rosche"/>
    <tag k="addr:housenumber" v="12"/>
    <tag k="addr:postcode" v="29571"/>
    <tag k="addr:street" v="Amselweg"/>
    <tag k="building" v="yes"/>
    <tag k="created_by" v="Merkaartor 0.11"/>
  </way>
  <way id="27309443" version="2" timestamp="2010-07-12T19:22:59Z" uid="43863" user="Rundling" changeset="5201894">
    <nd ref="299776893"/>
    <nd ref="299776896"/>
    <nd ref="299776889"/>
    <nd ref="299776891"/>
    <nd ref="299776893"/>
    <tag k="addr:city" v="Rosche"/>
    <tag k="addr:housenumber" v="12"/>
    <tag k="addr:postcode" v="29571"/>
    <tag k="addr:street" v="Amselweg"/>
    <tag k="building" v="yes"/>
  </way>
  <way id="27309444" version="1" timestamp="2008-09-25T17:46:40Z" uid="43863" user="Rundling" changeset="696933">
    <nd ref="299776903"/>
    <nd ref="299776905"/>
    <nd ref="299776898"/>
    <nd ref="299776901"/>
    <nd ref="299776903"/>
    <tag k="addr:city" v="Rosche"/>
    <tag k="addr:housenumber" v="11"/>
    <tag k="addr:postcode" v="29571"/>
    <tag k="addr:street" v="Amselweg"/>
    <tag k="building" v="yes"/>
    <tag k="created_by" v="Merkaartor 0.11"/>
  </way>
  <way id="27309444" version="2" timestamp="2009-02-08T08:15:26Z" uid="43863" user="Rundling" changeset="260174">
    <nd ref="299776903"/>
    <nd ref="299776905"/>
    <nd ref="299776898"/>
    <nd ref="299776901"/>
    <nd ref="299776903"/>
    <tag k="addr:city" v="Rosche"/>
    <tag k="addr:country" v="DE"/>
    <tag k="addr:housenumber" v="11"/>
    <tag k="addr:postcode" v="29571"/>
    <tag k="addr:street" v="Amselweg"/>
    <tag k="building" v="yes"/>
    <tag k="created_by" v="Merkaartor 0.11"/>
  </way>
  <way id="27309444" version="3" timestamp="2010-07-12T19:22:45Z" uid="43863" user="Rundling" changeset="5201894">
    <nd ref="299776903"/>
    <nd ref="299776905"/>
    <nd ref="299776898"/>
    <nd ref="299776901"/>
    <nd ref="299776903"/>
    <tag k="addr:city" v="Rosche"/>
    <tag k="addr:country" v="DE"/>
    <tag k="addr:housenumber" v="11"/>
    <tag k="addr:postcode" v="29571"/>
    <tag k="addr:street" v="Amselweg"/>
    <tag k="building" v="yes"/>
  </way>
  <way id="27309445" version="1" timestamp="2008-09-25T17:46:40Z" uid="43863" user="Rundling" changeset="696933">
    <nd ref="299776911"/>
    <nd ref="299776913"/>
    <nd ref="299776907"/>
    <nd ref="299776909"/>
    <nd ref="299776911"/>
    <tag k="addr:city" v="Rosche"/>
    <tag k="addr:housenumber" v="13"/>
    <tag k="addr:postcode" v="29571"/>
    <tag k="addr:street" v="Amselweg"/>
    <tag k="building" v="yes"/>
    <tag k="created_by" v="Merkaartor 0.11"/>
  </way>
  <way id="27309445" version="2" timestamp="2010-07-12T19:22:54Z" uid="43863" user="Rundling" changeset="5201894">
    <nd ref="299776911"/>
    <nd ref="299776913"/>
    <nd ref="299776907"/>
    <nd ref="299776909"/>
    <nd ref="299776911"/>
    <tag k="addr:city" v="Rosche"/>
    <tag k="addr:housenumber" v="13"/>
    <tag k="addr:postcode" v="29571"/>
    <tag k="addr:street" v="Amselweg"/>
    <tag k="building" v="yes"/>
  </way>
  <way id="27309446" version="1" timestamp="2008-09-25T17:46:41Z" uid="43863" user="Rundling" changeset="696933">
    <nd ref="299776920"/>
    <nd ref="299776922"/>
    <nd ref="299776916"/>
    <nd ref="299776918"/>
    <nd ref="299776920"/>
    <tag k="addr:city" v="Rosche"/>
    <tag k="addr:housenumber" v="15"/>
    <tag k="addr:postcode" v="29571"/>
    <tag k="addr:street" v="Amselweg"/>
    <tag k="building" v="yes"/>
    <tag k="created_by" v="Merkaartor 0.11"/>
  </way>
  <way id="27309446" version="2" timestamp="2010-07-12T19:22:48Z" uid="43863" user="Rundling" changeset="5201894">
    <nd ref="299776920"/>
    <nd ref="299776922"/>
    <nd ref="299776916"/>
    <nd ref="299776918"/>
    <nd ref="299776920"/>
    <tag k="addr:city" v="Rosche"/>
    <tag k="addr:housenumber" v="15"/>
    <tag k="addr:postcode" v="29571"/>
    <tag k="addr:street" v="Amselweg"/>
    <tag k="building" v="yes"/>
  </way>
  <way id="27309447" version="1" timestamp="2008-09-25T17:46:42Z" uid="43863" user="Rundling" changeset="696933">
    <nd ref="299776928"/>
    <nd ref="299776930"/>
    <nd ref="299776924"/>
    <nd ref="299776926"/>
    <nd ref="299776928"/>
    <tag k="addr:city" v="Rosche"/>
    <tag k="addr:housenumber" v="17"/>
    <tag k="addr:postcode" v="29571"/>
    <tag k="addr:street" v="Amselweg"/>
    <tag k="building" v="yes"/>
    <tag k="created_by" v="Merkaartor 0.11"/>
  </way>
  <way id="27309447" version="2" timestamp="2010-07-12T19:22:55Z" uid="43863" user="Rundling" changeset="5201894">
    <nd ref="299776928"/>
    <nd ref="299776930"/>
    <nd ref="299776924"/>
    <nd ref="299776926"/>
    <nd ref="299776928"/>
    <tag k="addr:city" v="Rosche"/>
    <tag k="addr:housenumber" v="17"/>
    <tag k="addr:postcode" v="29571"/>
    <tag k="addr:street" v="Amselweg"/>
    <tag k="building" v="yes"/>
  </way>
  <way id="27309448" version="1" timestamp="2008-09-25T17:46:42Z" uid="43863" user="Rundling" changeset="696933">
    <nd ref="299776936"/>
    <nd ref="299776938"/>
    <nd ref="299776932"/>
    <nd ref="299776934"/>
    <nd ref="299776936"/>
    <tag k="addr:city" v="Rosche"/>
    <tag k="addr:housenumber" v="19"/>
    <tag k="addr:postcode" v="29571"/>
    <tag k="addr:street" v="Amselweg"/>
    <tag k="building" v="yes"/>
    <tag k="created_by" v="Merkaartor 0.11"/>
  </way>
  <way id="27309448" version="2" timestamp="2008-09-27T11:50:40Z" uid="43863" user="Rundling" changeset="707288">
    <nd ref="299776936"/>
    <nd ref="299776938"/>
    <nd ref="299776932"/>
    <nd ref="299776934"/>
    <nd ref="299776936"/>
    <tag k="addr:city" v="Rosche"/>
    <tag k="addr:housenumber" v="19"/>
    <tag k="addr:postcode" v="29571"/>
    <tag k="addr:street" v="Amselweg"/>
    <tag k="building" v="yes"/>
    <tag k="created_by" v="Potlatch 0.10c"/>
  </way>
  <way id="27309448" version="3" timestamp="2010-07-12T19:22:58Z" uid="43863" user="Rundling" changeset="5201894">
    <nd ref="299776936"/>
    <nd ref="299776938"/>
    <nd ref="299776932"/>
    <nd ref="299776934"/>
    <nd ref="299776936"/>
    <tag k="addr:city" v="Rosche"/>
    <tag k="addr:housenumber" v="21"/>
    <tag k="addr:postcode" v="29571"/>
    <tag k="addr:street" v="Amselweg"/>
    <tag k="building" v="yes"/>
  </way>
  <way id="27309654" version="1" timestamp="2008-09-25T17:53:14Z" uid="43863" user="Rundling" changeset="696933">
    <nd ref="299781596"/>
    <nd ref="299781600"/>
    <nd ref="299781587"/>
    <nd ref="299781593"/>
    <nd ref="299781596"/>
    <tag k="addr:city" v="Rosche"/>
    <tag k="addr:housenumber" v="7"/>
    <tag k="addr:postcode" v="29571"/>
    <tag k="addr:street" v="Lönsstraße"/>
    <tag k="building" v="yes"/>
    <tag k="created_by" v="Merkaartor 0.11"/>
  </way>
  <way id="27309654" version="2" timestamp="2010-07-12T19:22:50Z" uid="43863" user="Rundling" changeset="5201894">
    <nd ref="299781596"/>
    <nd ref="299781600"/>
    <nd ref="299781587"/>
    <nd ref="299781593"/>
    <nd ref="299781596"/>
    <tag k="addr:city" v="Rosche"/>
    <tag k="addr:housenumber" v="9"/>
    <tag k="addr:postcode" v="29571"/>
    <tag k="addr:street" v="Lönsstraße"/>
    <tag k="building" v="yes"/>
  </way>
  <way id="27309656" version="1" timestamp="2008-09-25T17:53:14Z" uid="43863" user="Rundling" changeset="696933">
    <nd ref="299781615"/>
    <nd ref="299781610"/>
    <nd ref="299781605"/>
    <nd ref="299781619"/>
    <nd ref="299781615"/>
    <tag k="addr:city" v="Rosche"/>
    <tag k="addr:housenumber" v="5"/>
    <tag k="addr:postcode" v="29571"/>
    <tag k="addr:street" v="Lönsstraße"/>
    <tag k="building" v="yes"/>
    <tag k="created_by" v="Merkaartor 0.11"/>
  </way>
  <way id="27309656" version="2" timestamp="2010-07-12T19:22:44Z" uid="43863" user="Rundling" changeset="5201894">
    <nd ref="299781615"/>
    <nd ref="299781610"/>
    <nd ref="299781605"/>
    <nd ref="299781619"/>
    <nd ref="299781615"/>
    <tag k="addr:city" v="Rosche"/>
    <tag k="addr:housenumber" v="7"/>
    <tag k="addr:postcode" v="29571"/>
    <tag k="addr:street" v="Lönsstraße"/>
    <tag k="building" v="yes"/>
  </way>
  <way id="27309658" version="1" timestamp="2008-09-25T17:53:15Z" uid="43863" user="Rundling" changeset="696933">
    <nd ref="299781631"/>
    <nd ref="299781627"/>
    <nd ref="299781623"/>
    <nd ref="299781637"/>
    <nd ref="299781631"/>
    <tag k="addr:city" v="Rosche"/>
    <tag k="addr:housenumber" v="3"/>
    <tag k="addr:postcode" v="29571"/>
    <tag k="addr:street" v="Lönsstraße"/>
    <tag k="building" v="yes"/>
    <tag k="created_by" v="Merkaartor 0.11"/>
  </way>
  <way id="27309658" version="2" timestamp="2010-07-12T19:22:47Z" uid="43863" user="Rundling" changeset="5201894">
    <nd ref="299781631"/>
    <nd ref="299781627"/>
    <nd ref="299781623"/>
    <nd ref="299781637"/>
    <nd ref="299781631"/>
    <tag k="addr:city" v="Rosche"/>
    <tag k="addr:housenumber" v="5"/>
    <tag k="addr:postcode" v="29571"/>
    <tag k="addr:street" v="Lönsstraße"/>
    <tag k="building" v="yes"/>
  </way>
  <way id="27309659" version="1" timestamp="2008-09-25T17:53:15Z" uid="43863" user="Rundling" changeset="696933">
    <nd ref="299781640"/>
    <nd ref="299781639"/>
    <nd ref="299781638"/>
    <nd ref="299781641"/>
    <nd ref="299781640"/>
    <tag k="addr:city" v="Rosche"/>
    <tag k="addr:housenumber" v="1"/>
    <tag k="addr:postcode" v="29571"/>
    <tag k="addr:street" v="Lönsstraße"/>
    <tag k="building" v="yes"/>
    <tag k="created_by" v="Merkaartor 0.11"/>
  </way>
  <way id="27309659" version="2" timestamp="2010-07-12T19:22:54Z" uid="43863" user="Rundling" changeset="5201894">
    <nd ref="299781640"/>
    <nd ref="299781639"/>
    <nd ref="299781638"/>
    <nd ref="299781641"/>
    <nd ref="299781640"/>
    <tag k="addr:city" v="Rosche"/>
    <tag k="addr:housenumber" v="3"/>
    <tag k="addr:postcode" v="29571"/>
    <tag k="addr:street" v="Lönsstraße"/>
    <tag k="building" v="yes"/>
  </way>
  <way id="27309661" version="1" timestamp="2008-09-25T17:53:15Z" uid="43863" user="Rundling" changeset="696933">
    <nd ref="299781644"/>
    <nd ref="299781643"/>
    <nd ref="299781642"/>
    <nd ref="299781645"/>
    <nd ref="299781644"/>
    <tag k="addr:city" v="Rosche"/>
    <tag k="addr:housenumber" v="10"/>
    <tag k="addr:postcode" v="29571"/>
    <tag k="addr:street" v="Lönsstraße"/>
    <tag k="building" v="yes"/>
    <tag k="created_by" v="Merkaartor 0.11"/>
  </way>
  <way id="27309661" version="2" timestamp="2010-07-14T13:00:43Z" uid="43863" user="Rundling" changeset="5216720">
    <nd ref="299781644"/>
    <nd ref="817237218"/>
    <nd ref="817237239"/>
    <nd ref="299781645"/>
    <nd ref="299781644"/>
    <tag k="addr:city" v="Rosche"/>
    <tag k="addr:housenumber" v="10"/>
    <tag k="addr:postcode" v="29571"/>
    <tag k="addr:street" v="Lönsstraße"/>
    <tag k="building" v="yes"/>
  </way>
  <way id="27309663" version="1" timestamp="2008-09-25T17:53:16Z" uid="43863" user="Rundling" changeset="696933">
    <nd ref="299781648"/>
    <nd ref="299781647"/>
    <nd ref="299781646"/>
    <nd ref="299781650"/>
    <nd ref="299781648"/>
    <tag k="addr:city" v="Rosche"/>
    <tag k="addr:housenumber" v="4"/>
    <tag k="addr:postcode" v="29571"/>
    <tag k="addr:street" v="Lönsstraße"/>
    <tag k="building" v="yes"/>
    <tag k="created_by" v="Merkaartor 0.11"/>
  </way>
  <way id="27309665" version="1" timestamp="2008-09-25T17:53:16Z" uid="43863" user="Rundling" changeset="696933">
    <nd ref="299781653"/>
    <nd ref="299781652"/>
    <nd ref="299781651"/>
    <nd ref="299781654"/>
    <nd ref="299781653"/>
    <tag k="addr:city" v="Rosche"/>
    <tag k="addr:housenumber" v="6"/>
    <tag k="addr:postcode" v="29571"/>
    <tag k="addr:street" v="Lönsstraße"/>
    <tag k="building" v="yes"/>
    <tag k="created_by" v="Merkaartor 0.11"/>
  </way>
  <way id="27309667" version="1" timestamp="2008-09-25T17:53:16Z" uid="43863" user="Rundling" changeset="696933">
    <nd ref="299781659"/>
    <nd ref="299781656"/>
    <nd ref="299781655"/>
    <nd ref="299781663"/>
    <nd ref="299781659"/>
    <tag k="addr:city" v="Rosche"/>
    <tag k="addr:housenumber" v="8"/>
    <tag k="addr:postcode" v="29571"/>
    <tag k="addr:street" v="Lönsstraße"/>
    <tag k="building" v="yes"/>
    <tag k="created_by" v="Merkaartor 0.11"/>
  </way>
  <way id="27309667" version="2" timestamp="2009-01-30T17:44:02Z" uid="43863" user="Rundling" changeset="856154">
    <nd ref="299781659"/>
    <nd ref="299781656"/>
    <nd ref="299781655"/>
    <nd ref="299781663"/>
    <nd ref="299781659"/>
    <tag k="addr:city" v="Rosche"/>
    <tag k="addr:housenumber" v="8"/>
    <tag k="addr:postcode" v="29571"/>
    <tag k="addr:street" v="Lönsstraße"/>
    <tag k="amenity" v="doctors"/>
    <tag k="building" v="yes"/>
    <tag k="created_by" v="Merkaartor 0.11"/>
    <tag k="name" v="Dr. Witte"/>
  </way>
  <way id="27309667" version="3" timestamp="2009-03-02T13:47:00Z" uid="43863" user="Rundling" changeset="721985">
    <nd ref="299781659"/>
    <nd ref="299781656"/>
    <nd ref="299781655"/>
    <nd ref="299781663"/>
    <nd ref="299781659"/>
    <tag k="addr:city" v="Rosche"/>
    <tag k="addr:housenumber" v="8"/>
    <tag k="addr:postcode" v="29571"/>
    <tag k="addr:street" v="Lönsstraße"/>
    <tag k="amenity" v="doctors"/>
    <tag k="building" v="yes"/>
    <tag k="name" v="Dr. Witte"/>
  </way>
  <way id="27309667" version="4" timestamp="2009-07-15T06:31:44Z" uid="43863" user="Rundling" changeset="1833340">
    <nd ref="299781659"/>
    <nd ref="299781656"/>
    <nd ref="299781655"/>
    <nd ref="299781663"/>
    <nd ref="299781659"/>
    <tag k="addr:city" v="Rosche"/>
    <tag k="addr:housenumber" v="8"/>
    <tag k="addr:postcode" v="29571"/>
    <tag k="addr:street" v="Lönsstraße"/>
    <tag k="amenity" v="doctors"/>
    <tag k="building" v="yes"/>
  </way>
  <way id="27309667" version="5" timestamp="2009-10-17T08:17:06Z" uid="43863" user="Rundling" changeset="2871341">
    <nd ref="299781659"/>
    <nd ref="299781656"/>
    <nd ref="299781655"/>
    <nd ref="299781663"/>
    <nd ref="299781659"/>
    <tag k="addr:city" v="Rosche"/>
    <tag k="addr:housenumber" v="8"/>
    <tag k="addr:postcode" v="29571"/>
    <tag k="addr:street" v="Lönsstraße"/>
    <tag k="building" v="yes"/>
  </way>
  <way id="27309669" version="1" timestamp="2008-09-25T17:53:17Z" uid="43863" user="Rundling" changeset="696933">
    <nd ref="299781666"/>
    <nd ref="299781665"/>
    <nd ref="299781664"/>
    <nd ref="299781670"/>
    <nd ref="299781666"/>
    <tag k="addr:city" v="Rosche"/>
    <tag k="addr:housenumber" v="10"/>
    <tag k="addr:postcode" v="29571"/>
    <tag k="addr:street" v="Lönsstraße"/>
    <tag k="building" v="yes"/>
    <tag k="created_by" v="Merkaartor 0.11"/>
  </way>
  <way id="27309826" version="1" timestamp="2008-09-25T17:55:54Z" uid="67142" user="zottel" changeset="697979">
    <nd ref="299782036"/>
    <nd ref="299782037"/>
    <tag k="highway" v="residential"/>
    <tag k="name" v="Baustraße"/>
    <tag k="noexit" v="yes"/>
  </way>
  <way id="27309827" version="1" timestamp="2008-09-25T17:55:54Z" uid="67142" user="zottel" changeset="697979">
    <nd ref="299782037"/>
    <nd ref="288535474"/>
    <nd ref="28285896"/>
    <nd ref="28285897"/>
    <nd ref="281745193"/>
    <nd ref="288535469"/>
    <nd ref="281745103"/>
    <nd ref="299519558"/>
    <tag k="created_by" v="JOSM"/>
    <tag k="highway" v="secondary"/>
    <tag k="name" v="Jahnstraße"/>
  </way>
  <way id="27309827" version="2" timestamp="2008-10-14T15:37:34Z" uid="67142" user="zottel" changeset="324865">
    <nd ref="299782037"/>
    <nd ref="288535474"/>
    <nd ref="28285896"/>
    <nd ref="28285897"/>
    <nd ref="304589246"/>
    <tag k="created_by" v="JOSM"/>
    <tag k="highway" v="secondary"/>
    <tag k="name" v="Jahnstraße"/>
  </way>
  <way id="27309828" version="1" timestamp="2008-09-25T17:55:55Z" uid="67142" user="zottel" changeset="697979">
    <nd ref="288535497"/>
    <nd ref="299782043"/>
    <nd ref="299782042"/>
    <nd ref="299782064"/>
    <nd ref="299782080"/>
    <nd ref="299782039"/>
    <nd ref="299782040"/>
    <tag k="highway" v="residential"/>
    <tag k="maxspeed" v="30"/>
    <tag k="name" v="Weiherbergstraße"/>
  </way>
  <way id="27309830" version="1" timestamp="2008-09-25T17:55:56Z" uid="67142" user="zottel" changeset="697979">
    <nd ref="299782057"/>
    <nd ref="299782055"/>
    <tag k="highway" v="footway"/>
  </way>
  <way id="27309831" version="1" timestamp="2008-09-25T17:55:57Z" uid="67142" user="zottel" changeset="697979">
    <nd ref="299782058"/>
    <nd ref="299782060"/>
    <tag k="highway" v="steps"/>
    <tag k="step_count" v="5"/>
  </way>
  <way id="27309832" version="1" timestamp="2008-09-25T17:55:58Z" uid="67142" user="zottel" changeset="697979">
    <nd ref="299782060"/>
    <nd ref="299782048"/>
    <tag k="highway" v="footway"/>
  </way>
  <way id="27309833" version="1" timestamp="2008-09-25T17:55:58Z" uid="67142" user="zottel" changeset="697979">
    <nd ref="299782045"/>
    <nd ref="299782058"/>
    <tag k="highway" v="footway"/>
  </way>
  <way id="27309835" version="1" timestamp="2008-09-25T17:55:59Z" uid="67142" user="zottel" changeset="697979">
    <nd ref="299782055"/>
    <nd ref="299782045"/>
    <tag k="highway" v="steps"/>
    <tag k="step_count" v="39"/>
  </way>
  <way id="27309836" version="1" timestamp="2008-09-25T17:56:00Z" uid="67142" user="zottel" changeset="697979">
    <nd ref="299782064"/>
    <nd ref="299782063"/>
    <tag k="highway" v="steps"/>
    <tag k="step_count" v="12"/>
  </way>
  <way id="27309837" version="1" timestamp="2008-09-25T17:56:00Z" uid="67142" user="zottel" changeset="697979">
    <nd ref="299782061"/>
    <nd ref="299782062"/>
    <tag k="highway" v="footway"/>
  </way>
  <way id="27309839" version="1" timestamp="2008-09-25T17:56:01Z" uid="67142" user="zottel" changeset="697979">
    <nd ref="299782063"/>
    <nd ref="299782061"/>
    <tag k="highway" v="steps"/>
    <tag k="step_count" v="24"/>
  </way>
  <way id="27309840" version="1" timestamp="2008-09-25T17:56:01Z" uid="67142" user="zottel" changeset="697979">
    <nd ref="299782071"/>
    <nd ref="299782077"/>
    <nd ref="299782078"/>
    <nd ref="299782079"/>
    <nd ref="299782081"/>
    <nd ref="299782080"/>
    <tag k="highway" v="footway"/>
  </way>
  <way id="27309842" version="1" timestamp="2008-09-25T17:56:02Z" uid="67142" user="zottel" changeset="697979">
    <nd ref="299782071"/>
    <nd ref="299782084"/>
    <nd ref="299782082"/>
    <tag k="highway" v="steps"/>
    <tag k="step_count" v="34"/>
  </way>
  <way id="27309843" version="1" timestamp="2008-09-25T17:56:02Z" uid="67142" user="zottel" changeset="697979">
    <nd ref="299782082"/>
    <nd ref="299782083"/>
    <tag k="highway" v="footway"/>
  </way>
  <way id="27309844" version="1" timestamp="2008-09-25T17:56:03Z" uid="67142" user="zottel" changeset="697979">
    <nd ref="299782083"/>
    <nd ref="299782088"/>
    <tag k="highway" v="footway"/>
  </way>
  <way id="27309845" version="1" timestamp="2008-09-25T17:56:03Z" uid="67142" user="zottel" changeset="697979">
    <nd ref="299782089"/>
    <nd ref="299782087"/>
    <tag k="highway" v="footway"/>
  </way>
  <way id="27309846" version="1" timestamp="2008-09-25T17:56:04Z" uid="67142" user="zottel" changeset="697979">
    <nd ref="299782088"/>
    <nd ref="299782085"/>
    <nd ref="299782089"/>
    <tag k="highway" v="steps"/>
    <tag k="step_count" v="27"/>
  </way>
  <way id="27309879" version="4" timestamp="2008-10-23T17:31:44Z" uid="6975" user="ulfl" changeset="530870">
    <nd ref="299782737"/>
    <nd ref="299791240"/>
    <nd ref="299782740"/>
    <nd ref="299791293"/>
    <nd ref="299782742"/>
    <nd ref="299791243"/>
    <nd ref="299791289"/>
    <nd ref="299782737"/>
    <tag k="landuse" v="retail"/>
    <tag k="shop" v="shopping_centre"/>
  </way>
</osm>
