<?xml version='1.0' encoding='UTF-8'?>
<osm version="0.6" generator="libosmium/2.20.0">
  <way id="27321003" version="2" timestamp="2008-10-09T15:36:19Z" uid="30632" user="antblant" changeset="188678">
    <nd ref="299899844"/>
    <nd ref="299899825"/>
    <tag k="highway" v="unclassified"/>
    <tag k="name" v="Bembnisty"/>
    <tag k="source" v="UMP-PL, ./UMP-Poznan/src/SRODA_WIELKOPOLSKA.ulice.txt"/>
    <tag k="surface" v="unpaved"/>
  </way>
  <way id="27321030" version="2" timestamp="2008-10-08T18:58:31Z" uid="30632" user="antblant" changeset="169665">
    <nd ref="299900149"/>
    <nd ref="299901010"/>
    <tag k="highway" v="service"/>
    <tag k="name" v="Parking POLO"/>
    <tag k="source" v="UMP-PL, ./UMP-Poznan/src/SRODA_WIELKOPOLSKA.ulice.txt"/>
  </way>
  <way id="27321038" version="2" timestamp="2008-10-09T15:36:20Z" uid="30632" user="antblant" changeset="188678">
    <nd ref="299900332"/>
    <nd ref="299900337"/>
    <tag k="highway" v="unclassified"/>
    <tag k="name" v="Białkowskiego"/>
    <tag k="source" v="UMP-PL, ./UMP-Poznan/src/SRODA_WIELKOPOLSKA.ulice.txt"/>
    <tag k="surface" v="unpaved"/>
  </way>
  <way id="27321054" version="2" timestamp="2008-10-08T18:58:32Z" uid="30632" user="antblant" changeset="169665">
    <nd ref="299900743"/>
    <nd ref="299900723"/>
    <tag k="highway" v="footway"/>
    <tag k="name" v="Deptak"/>
    <tag k="source" v="UMP-PL, ./UMP-Poznan/src/SRODA_WIELKOPOLSKA.ulice.txt"/>
  </way>
  <way id="27321064" version="2" timestamp="2008-10-09T15:36:20Z" uid="30632" user="antblant" changeset="188678">
    <nd ref="299900730"/>
    <nd ref="299900727"/>
    <tag k="UMP_Level" v="1"/>
    <tag k="highway" v="residential"/>
    <tag k="name" v="Dąbrowskiego"/>
    <tag k="source" v="UMP-PL, ./UMP-Poznan/src/SRODA_WIELKOPOLSKA.ulice.txt"/>
  </way>
  <way id="27321073" version="2" timestamp="2008-10-09T15:36:21Z" uid="30632" user="antblant" changeset="188678">
    <nd ref="299899832"/>
    <nd ref="299901065"/>
    <tag k="highway" v="unclassified"/>
    <tag k="name" v="Rzadkowskiego"/>
    <tag k="source" v="UMP-PL, ./UMP-Poznan/src/SRODA_WIELKOPOLSKA.ulice.txt"/>
    <tag k="surface" v="unpaved"/>
  </way>
  <way id="27321082" version="2" timestamp="2009-11-26T18:19:04Z" uid="20587" user="balrog-kun" changeset="3222155">
    <nd ref="299899925"/>
    <nd ref="299901077"/>
    <nd ref="299901078"/>
    <nd ref="299901079"/>
    <nd ref="299901046"/>
    <nd ref="299899977"/>
    <nd ref="299901080"/>
    <nd ref="299900007"/>
    <nd ref="299899925"/>
    <tag k="highway" v="tertiary"/>
    <tag k="junction" v="roundabout"/>
    <tag k="source" v="UMP-PL, ./UMP-Poznan/src/SRODA_WIELKOPOLSKA.ulice.txt"/>
  </way>
  <way id="27321087" version="2" timestamp="2008-10-09T15:36:21Z" uid="30632" user="antblant" changeset="188678">
    <nd ref="299900606"/>
    <nd ref="299900608"/>
    <nd ref="299900596"/>
    <tag k="UMP_Level" v="1"/>
    <tag k="highway" v="residential"/>
    <tag k="name" v="Chłapowskiego"/>
    <tag k="source" v="UMP-PL, ./UMP-Poznan/src/SRODA_WIELKOPOLSKA.ulice.txt"/>
  </way>
  <way id="27321094" version="4" timestamp="2009-11-26T18:19:05Z" uid="20587" user="balrog-kun" changeset="3222155">
    <nd ref="299900423"/>
    <nd ref="299900495"/>
    <nd ref="299900402"/>
    <tag k="highway" v="tertiary"/>
    <tag k="name" v="Franciszka Żwirki i Stanisława Wigury"/>
    <tag k="source" v="UMP-PL, ./UMP-Poznan/src/SRODA_WIELKOPOLSKA.ulice.txt"/>
  </way>
  <way id="27321097" version="2" timestamp="2008-10-09T17:02:35Z" uid="30632" user="antblant" changeset="188678">
    <nd ref="299900119"/>
    <nd ref="299900117"/>
    <tag k="highway" v="footway"/>
    <tag k="name" v="Polskiego Jana"/>
    <tag k="source" v="UMP-PL, ./UMP-Poznan/src/SRODA_WIELKOPOLSKA.ulice.txt"/>
  </way>
  <way id="27321100" version="2" timestamp="2008-10-09T15:36:22Z" uid="30632" user="antblant" changeset="188678">
    <nd ref="299900784"/>
    <nd ref="299900799"/>
    <tag k="highway" v="unclassified"/>
    <tag k="name" v="Palinkiewicza"/>
    <tag k="source" v="UMP-PL, ./UMP-Poznan/src/SRODA_WIELKOPOLSKA.ulice.txt"/>
    <tag k="surface" v="unpaved"/>
  </way>
  <way id="27321101" version="2" timestamp="2008-10-09T15:36:23Z" uid="30632" user="antblant" changeset="188678">
    <nd ref="299900121"/>
    <nd ref="299900109"/>
    <tag k="UMP_Level" v="1"/>
    <tag k="highway" v="residential"/>
    <tag k="name" v="Szymańskiego"/>
    <tag k="source" v="UMP-PL, ./UMP-Poznan/src/SRODA_WIELKOPOLSKA.ulice.txt"/>
  </way>
  <way id="27321113" version="2" timestamp="2009-04-16T21:35:16Z" uid="30632" user="antblant" changeset="598077">
    <nd ref="299900283"/>
    <nd ref="216271157"/>
    <tag k="created_by" v="Potlatch 0.10f"/>
    <tag k="highway" v="secondary"/>
    <tag k="source" v="UMP-PL, ./UMP-Poznan/src/SRODA_WIELKOPOLSKA.ulice.txt"/>
  </way>
  <way id="27321113" version="3" timestamp="2009-04-16T21:35:24Z" uid="30632" user="antblant" changeset="598077">
    <nd ref="299900283"/>
    <nd ref="216271157"/>
    <tag k="created_by" v="Potlatch 0.10f"/>
    <tag k="highway" v="tertiary"/>
    <tag k="source" v="UMP-PL, ./UMP-Poznan/src/SRODA_WIELKOPOLSKA.ulice.txt"/>
  </way>
  <way id="27321119" version="2" timestamp="2008-10-09T15:36:23Z" uid="30632" user="antblant" changeset="188678">
    <nd ref="299899697"/>
    <nd ref="299899734"/>
    <tag k="UMP_Level" v="1"/>
    <tag k="highway" v="residential"/>
    <tag k="name" v="Zaremby"/>
    <tag k="source" v="UMP-PL, ./UMP-Poznan/src/SRODA_WIELKOPOLSKA.ulice.txt"/>
  </way>
  <way id="27321149" version="2" timestamp="2008-10-09T17:02:35Z" uid="30632" user="antblant" changeset="188678">
    <nd ref="299900698"/>
    <nd ref="299900965"/>
    <nd ref="299900954"/>
    <nd ref="299900701"/>
    <tag k="UMP_Level" v="1"/>
    <tag k="highway" v="residential"/>
    <tag k="name" v="Inwalidów Wojennych"/>
    <tag k="source" v="UMP-PL, ./UMP-Poznan/src/SRODA_WIELKOPOLSKA.ulice.txt"/>
  </way>
  <way id="27321153" version="2" timestamp="2008-10-09T15:36:24Z" uid="30632" user="antblant" changeset="188678">
    <nd ref="299900939"/>
    <nd ref="299900991"/>
    <tag k="UMP_Level" v="1"/>
    <tag k="highway" v="residential"/>
    <tag k="name" v="Bohaterów"/>
    <tag k="source" v="UMP-PL, ./UMP-Poznan/src/SRODA_WIELKOPOLSKA.ulice.txt"/>
  </way>
  <way id="27321162" version="3" timestamp="2008-10-09T15:36:24Z" uid="30632" user="antblant" changeset="188678">
    <nd ref="299900727"/>
    <nd ref="299900734"/>
    <nd ref="299900732"/>
    <tag k="UMP_Level" v="1"/>
    <tag k="created_by" v="Potlatch 0.10d"/>
    <tag k="highway" v="residential"/>
    <tag k="name" v="Wałowa"/>
    <tag k="source" v="UMP-PL, ./UMP-Poznan/src/SRODA_WIELKOPOLSKA.ulice.txt"/>
  </way>
  <way id="27321165" version="2" timestamp="2008-10-09T15:36:25Z" uid="30632" user="antblant" changeset="188678">
    <nd ref="299900419"/>
    <nd ref="299900993"/>
    <nd ref="299900994"/>
    <nd ref="299900979"/>
    <tag k="UMP_Level" v="1"/>
    <tag k="highway" v="residential"/>
    <tag k="name" v="Trampczyńskiego"/>
    <tag k="source" v="UMP-PL, ./UMP-Poznan/src/SRODA_WIELKOPOLSKA.ulice.txt"/>
  </way>
  <way id="27321171" version="2" timestamp="2008-10-09T15:36:25Z" uid="30632" user="antblant" changeset="188678">
    <nd ref="299899660"/>
    <nd ref="299899988"/>
    <tag k="UMP_Level" v="1"/>
    <tag k="highway" v="residential"/>
    <tag k="name" v="Prądzyńskiego"/>
    <tag k="source" v="UMP-PL, ./UMP-Poznan/src/SRODA_WIELKOPOLSKA.ulice.txt"/>
  </way>
  <way id="27321186" version="2" timestamp="2008-10-09T15:36:26Z" uid="30632" user="antblant" changeset="188678">
    <nd ref="299900004"/>
    <nd ref="299899992"/>
    <nd ref="299899988"/>
    <tag k="UMP_Level" v="1"/>
    <tag k="highway" v="tertiary"/>
    <tag k="name" v="Prądzyńskiego"/>
    <tag k="source" v="UMP-PL, ./UMP-Poznan/src/SRODA_WIELKOPOLSKA.ulice.txt"/>
  </way>
  <way id="27321202" version="2" timestamp="2008-10-09T17:02:36Z" uid="30632" user="antblant" changeset="188678">
    <nd ref="299900705"/>
    <nd ref="299900641"/>
    <nd ref="299900634"/>
    <tag k="UMP_Level" v="1"/>
    <tag k="highway" v="residential"/>
    <tag k="name" v="Mała Klasztorna"/>
    <tag k="source" v="UMP-PL, ./UMP-Poznan/src/SRODA_WIELKOPOLSKA.ulice.txt"/>
  </way>
  <way id="27321217" version="2" timestamp="2009-11-26T18:19:05Z" uid="20587" user="balrog-kun" changeset="3222155">
    <nd ref="299900654"/>
    <nd ref="299900631"/>
    <tag k="highway" v="footway"/>
    <tag k="source" v="UMP-PL, ./UMP-Poznan/src/SRODA_WIELKOPOLSKA.ulice.txt"/>
  </way>
  <way id="27321218" version="2" timestamp="2008-10-06T23:13:17Z" uid="30632" user="antblant" changeset="125062">
    <nd ref="299899659"/>
    <nd ref="299899662"/>
    <nd ref="299899663"/>
    <tag k="UMP_Level" v="1"/>
    <tag k="created_by" v="Potlatch 0.10d"/>
    <tag k="highway" v="residential"/>
    <tag k="name" v="Stefana Żeromskiego"/>
    <tag k="source" v="UMP-PL, ./UMP-Poznan/src/SRODA_WIELKOPOLSKA.ulice.txt"/>
  </way>
  <way id="27321248" version="2" timestamp="2008-10-07T00:02:40Z" uid="30632" user="antblant" changeset="125062">
    <nd ref="299903340"/>
    <nd ref="299903338"/>
    <nd ref="299903380"/>
    <nd ref="299903017"/>
    <tag k="highway" v="tertiary"/>
    <tag k="ref" v="308"/>
    <tag k="source" v="UMP-PL, ./UMP-Poznan/src/NOWY_TOMYSL.ulice.txt"/>
  </way>
  <way id="27321250" version="2" timestamp="2008-10-07T00:02:42Z" uid="30632" user="antblant" changeset="125062">
    <nd ref="299902765"/>
    <nd ref="299903090"/>
    <nd ref="299903087"/>
    <nd ref="299903088"/>
    <nd ref="299903151"/>
    <nd ref="299903150"/>
    <tag k="highway" v="residential"/>
    <tag k="name" v="Kanałowa"/>
    <tag k="source" v="UMP-PL, ./UMP-Poznan/src/NOWY_TOMYSL.ulice.txt"/>
  </way>
  <way id="27321251" version="2" timestamp="2008-10-07T00:02:44Z" uid="30632" user="antblant" changeset="125062">
    <nd ref="299903297"/>
    <nd ref="299903298"/>
    <nd ref="299903299"/>
    <tag k="highway" v="residential"/>
    <tag k="name" v="Topolowa"/>
    <tag k="source" v="UMP-PL, ./UMP-Poznan/src/NOWY_TOMYSL.ulice.txt"/>
  </way>
  <way id="27321252" version="2" timestamp="2008-10-07T00:02:33Z" uid="30632" user="antblant" changeset="125062">
    <nd ref="299902679"/>
    <nd ref="299902677"/>
    <nd ref="299902676"/>
    <tag k="highway" v="residential"/>
    <tag k="name" v="Majowa"/>
    <tag k="source" v="UMP-PL, ./UMP-Poznan/src/NOWY_TOMYSL.ulice.txt"/>
  </way>
  <way id="27321254" version="2" timestamp="2008-10-07T00:02:37Z" uid="30632" user="antblant" changeset="125062">
    <nd ref="299903077"/>
    <nd ref="299903302"/>
    <nd ref="299903303"/>
    <nd ref="299903296"/>
    <nd ref="299903297"/>
    <tag k="highway" v="residential"/>
    <tag k="name" v="Ogrodowa"/>
    <tag k="source" v="UMP-PL, ./UMP-Poznan/src/NOWY_TOMYSL.ulice.txt"/>
  </way>
  <way id="27321255" version="2" timestamp="2008-10-07T00:02:39Z" uid="30632" user="antblant" changeset="125062">
    <nd ref="299902693"/>
    <nd ref="299902692"/>
    <nd ref="299902657"/>
    <nd ref="299902691"/>
    <nd ref="299902690"/>
    <nd ref="299902664"/>
    <nd ref="299902689"/>
    <nd ref="299902688"/>
    <nd ref="299902606"/>
    <nd ref="299902576"/>
    <nd ref="299902598"/>
    <nd ref="299902687"/>
    <nd ref="299902685"/>
    <nd ref="299902672"/>
    <nd ref="299902705"/>
    <nd ref="299902704"/>
    <nd ref="299902708"/>
    <nd ref="299902706"/>
    <nd ref="299902710"/>
    <nd ref="299902709"/>
    <nd ref="299902712"/>
    <nd ref="299902711"/>
    <tag k="highway" v="tertiary"/>
    <tag k="name" v="Kościuszki"/>
    <tag k="source" v="UMP-PL, ./UMP-Poznan/src/NOWY_TOMYSL.ulice.txt"/>
  </way>
  <way id="27321257" version="2" timestamp="2008-10-07T00:02:30Z" uid="30632" user="antblant" changeset="125062">
    <nd ref="299902727"/>
    <nd ref="299903139"/>
    <nd ref="299903138"/>
    <nd ref="299903141"/>
    <nd ref="299903140"/>
    <nd ref="299903147"/>
    <nd ref="299903146"/>
    <tag k="highway" v="residential"/>
    <tag k="name" v="Różana"/>
    <tag k="source" v="UMP-PL, ./UMP-Poznan/src/NOWY_TOMYSL.ulice.txt"/>
  </way>
  <way id="27321259" version="2" timestamp="2008-10-07T00:02:33Z" uid="30632" user="antblant" changeset="125062">
    <nd ref="299903076"/>
    <nd ref="299903300"/>
    <nd ref="299903301"/>
    <nd ref="299902692"/>
    <tag k="highway" v="tertiary"/>
    <tag k="name" v="Kościuszki"/>
    <tag k="source" v="UMP-PL, ./UMP-Poznan/src/NOWY_TOMYSL.ulice.txt"/>
  </way>
  <way id="27321261" version="2" timestamp="2008-10-07T00:02:26Z" uid="30632" user="antblant" changeset="125062">
    <nd ref="299902926"/>
    <nd ref="299902931"/>
    <nd ref="299902930"/>
    <nd ref="299902928"/>
    <nd ref="299902987"/>
    <tag k="highway" v="residential"/>
    <tag k="name" v="Leśna"/>
    <tag k="source" v="UMP-PL, ./UMP-Poznan/src/NOWY_TOMYSL.ulice.txt"/>
  </way>
  <way id="27321262" version="2" timestamp="2008-10-07T00:02:28Z" uid="30632" user="antblant" changeset="125062">
    <nd ref="299902688"/>
    <nd ref="299902696"/>
    <nd ref="299902695"/>
    <nd ref="299902698"/>
    <nd ref="299902697"/>
    <nd ref="299902700"/>
    <nd ref="299902699"/>
    <nd ref="299902703"/>
    <nd ref="299902702"/>
    <nd ref="299902726"/>
    <nd ref="299902727"/>
    <nd ref="299902728"/>
    <nd ref="299902729"/>
    <tag k="highway" v="residential"/>
    <tag k="name" v="Konopnickiej"/>
    <tag k="source" v="UMP-PL, ./UMP-Poznan/src/NOWY_TOMYSL.ulice.txt"/>
  </way>
  <way id="27321265" version="2" timestamp="2008-10-07T00:02:20Z" uid="30632" user="antblant" changeset="125062">
    <nd ref="299902746"/>
    <nd ref="299903337"/>
    <nd ref="299903050"/>
    <tag k="highway" v="residential"/>
    <tag k="name" v="Krótka"/>
    <tag k="source" v="UMP-PL, ./UMP-Poznan/src/NOWY_TOMYSL.ulice.txt"/>
  </way>
  <way id="27321266" version="2" timestamp="2008-10-07T00:02:24Z" uid="30632" user="antblant" changeset="125062">
    <nd ref="299903307"/>
    <nd ref="299903318"/>
    <nd ref="299903317"/>
    <nd ref="299903322"/>
    <nd ref="299903320"/>
    <nd ref="299903314"/>
    <nd ref="299903054"/>
    <tag k="highway" v="residential"/>
    <tag k="name" v="Broniewskiego"/>
    <tag k="source" v="UMP-PL, ./UMP-Poznan/src/NOWY_TOMYSL.ulice.txt"/>
  </way>
  <way id="27321268" version="2" timestamp="2008-10-07T00:02:17Z" uid="30632" user="antblant" changeset="125062">
    <nd ref="299902555"/>
    <nd ref="299902675"/>
    <nd ref="299902652"/>
    <tag k="highway" v="residential"/>
    <tag k="name" v="Klonowa"/>
    <tag k="source" v="UMP-PL, ./UMP-Poznan/src/NOWY_TOMYSL.ulice.txt"/>
  </way>
  <way id="27321269" version="2" timestamp="2008-10-07T00:02:15Z" uid="30632" user="antblant" changeset="125062">
    <nd ref="299902955"/>
    <nd ref="299902957"/>
    <nd ref="299902963"/>
    <nd ref="299902959"/>
    <nd ref="299902964"/>
    <nd ref="299902960"/>
    <tag k="highway" v="tertiary"/>
    <tag k="name" v="Tysiąclecia"/>
    <tag k="source" v="UMP-PL, ./UMP-Poznan/src/NOWY_TOMYSL.ulice.txt"/>
  </way>
  <way id="27321271" version="2" timestamp="2008-10-07T00:02:18Z" uid="30632" user="antblant" changeset="125062">
    <nd ref="299903303"/>
    <nd ref="299903329"/>
    <nd ref="299903336"/>
    <nd ref="299903308"/>
    <tag k="highway" v="residential"/>
    <tag k="name" v="Ogrodowa"/>
    <tag k="source" v="UMP-PL, ./UMP-Poznan/src/NOWY_TOMYSL.ulice.txt"/>
  </way>
  <way id="27321273" version="2" timestamp="2008-10-07T00:02:13Z" uid="30632" user="antblant" changeset="125062">
    <nd ref="299903308"/>
    <nd ref="299903299"/>
    <nd ref="299903307"/>
    <tag k="highway" v="residential"/>
    <tag k="name" v="Olchowa"/>
    <tag k="source" v="UMP-PL, ./UMP-Poznan/src/NOWY_TOMYSL.ulice.txt"/>
  </way>
  <way id="27321275" version="2" timestamp="2008-10-07T00:02:14Z" uid="30632" user="antblant" changeset="125062">
    <nd ref="299902960"/>
    <nd ref="299902962"/>
    <nd ref="299902529"/>
    <nd ref="299902916"/>
    <nd ref="299902528"/>
    <nd ref="299902915"/>
    <nd ref="299902914"/>
    <tag k="highway" v="tertiary"/>
    <tag k="name" v="Kolejowa"/>
    <tag k="source" v="UMP-PL, ./UMP-Poznan/src/NOWY_TOMYSL.ulice.txt"/>
  </way>
  <way id="27321277" version="2" timestamp="2008-10-07T00:02:08Z" uid="30632" user="antblant" changeset="125062">
    <nd ref="299902699"/>
    <nd ref="299903147"/>
    <nd ref="299903149"/>
    <nd ref="299903148"/>
    <tag k="highway" v="residential"/>
    <tag k="name" v="Storczykowa"/>
    <tag k="source" v="UMP-PL, ./UMP-Poznan/src/NOWY_TOMYSL.ulice.txt"/>
  </way>
  <way id="27321279" version="2" timestamp="2008-10-07T00:02:10Z" uid="30632" user="antblant" changeset="125062">
    <nd ref="299903305"/>
    <nd ref="299903302"/>
    <nd ref="299903304"/>
    <tag k="highway" v="residential"/>
    <tag k="name" v="Słoneczna"/>
    <tag k="source" v="UMP-PL, ./UMP-Poznan/src/NOWY_TOMYSL.ulice.txt"/>
  </way>
  <way id="27321281" version="2" timestamp="2008-10-07T00:01:59Z" uid="30632" user="antblant" changeset="125062">
    <nd ref="299902892"/>
    <nd ref="299902936"/>
    <nd ref="299902952"/>
    <tag k="highway" v="residential"/>
    <tag k="name" v="Sczanieckiej"/>
    <tag k="source" v="UMP-PL, ./UMP-Poznan/src/NOWY_TOMYSL.ulice.txt"/>
  </way>
  <way id="27321283" version="2" timestamp="2008-10-07T00:01:55Z" uid="30632" user="antblant" changeset="125062">
    <nd ref="299902672"/>
    <nd ref="299902679"/>
    <nd ref="299902678"/>
    <tag k="highway" v="residential"/>
    <tag k="name" v="Lutowa"/>
    <tag k="source" v="UMP-PL, ./UMP-Poznan/src/NOWY_TOMYSL.ulice.txt"/>
  </way>
  <way id="27321284" version="2" timestamp="2008-10-07T00:02:06Z" uid="30632" user="antblant" changeset="125062">
    <nd ref="299903296"/>
    <nd ref="299903310"/>
    <nd ref="299903309"/>
    <nd ref="299903312"/>
    <nd ref="299903311"/>
    <nd ref="299903062"/>
    <tag k="highway" v="residential"/>
    <tag k="name" v="Barteckiego"/>
    <tag k="source" v="UMP-PL, ./UMP-Poznan/src/NOWY_TOMYSL.ulice.txt"/>
  </way>
  <way id="27321286" version="2" timestamp="2008-10-07T00:02:02Z" uid="30632" user="antblant" changeset="125062">
    <nd ref="299902954"/>
    <nd ref="299902939"/>
    <nd ref="299902950"/>
    <nd ref="299902934"/>
    <nd ref="299902958"/>
    <nd ref="299902959"/>
    <tag k="highway" v="tertiary"/>
    <tag k="name" v="Musiała"/>
    <tag k="source" v="UMP-PL, ./UMP-Poznan/src/NOWY_TOMYSL.ulice.txt"/>
  </way>
  <way id="27321287" version="2" timestamp="2008-10-07T00:02:05Z" uid="30632" user="antblant" changeset="125062">
    <nd ref="299902957"/>
    <nd ref="299903093"/>
    <nd ref="299903094"/>
    <nd ref="299903091"/>
    <nd ref="299903092"/>
    <nd ref="299902939"/>
    <tag k="highway" v="residential"/>
    <tag k="name" v="Osiedle Stefana Batorego"/>
    <tag k="source" v="UMP-PL, ./UMP-Poznan/src/NOWY_TOMYSL.ulice.txt"/>
  </way>
  <way id="27321291" version="2" timestamp="2008-10-07T00:01:43Z" uid="30632" user="antblant" changeset="125062">
    <nd ref="299902761"/>
    <nd ref="299902733"/>
    <nd ref="299902702"/>
    <tag k="highway" v="residential"/>
    <tag k="name" v="Chmielna"/>
    <tag k="source" v="UMP-PL, ./UMP-Poznan/src/NOWY_TOMYSL.ulice.txt"/>
  </way>
  <way id="27321292" version="2" timestamp="2008-10-07T00:01:48Z" uid="30632" user="antblant" changeset="125062">
    <nd ref="299902955"/>
    <nd ref="299903045"/>
    <nd ref="299903104"/>
    <nd ref="299902782"/>
    <tag k="highway" v="tertiary"/>
    <tag k="name" v="Plac Niepodległości"/>
    <tag k="source" v="UMP-PL, ./UMP-Poznan/src/NOWY_TOMYSL.ulice.txt"/>
  </way>
  <way id="27321295" version="2" timestamp="2008-10-07T00:01:47Z" uid="30632" user="antblant" changeset="125062">
    <nd ref="299902703"/>
    <nd ref="299902713"/>
    <nd ref="299902763"/>
    <nd ref="299902749"/>
    <nd ref="299902737"/>
    <tag k="highway" v="residential"/>
    <tag k="name" v="Łąkowa"/>
    <tag k="source" v="UMP-PL, ./UMP-Poznan/src/NOWY_TOMYSL.ulice.txt"/>
  </way>
  <way id="27321296" version="2" timestamp="2008-10-07T00:01:33Z" uid="30632" user="antblant" changeset="125062">
    <nd ref="299902509"/>
    <nd ref="299902510"/>
    <nd ref="299902511"/>
    <nd ref="299902512"/>
    <nd ref="299902515"/>
    <nd ref="299902516"/>
    <nd ref="299902517"/>
    <nd ref="299902518"/>
    <nd ref="299902519"/>
    <nd ref="299902520"/>
    <nd ref="299902521"/>
    <nd ref="299902522"/>
    <nd ref="299902523"/>
    <nd ref="299902524"/>
    <nd ref="299902525"/>
    <nd ref="299902526"/>
    <nd ref="299902529"/>
    <tag k="highway" v="residential"/>
    <tag k="name" v="Wypoczynkowa"/>
    <tag k="source" v="UMP-PL, ./UMP-Poznan/src/NOWY_TOMYSL.ulice.txt"/>
  </way>
  <way id="27321297" version="2" timestamp="2008-10-07T00:01:31Z" uid="30632" user="antblant" changeset="125062">
    <nd ref="299902923"/>
    <nd ref="299903367"/>
    <nd ref="299903368"/>
    <tag k="highway" v="residential"/>
    <tag k="name" v="Rzemieślnicza"/>
    <tag k="source" v="UMP-PL, ./UMP-Poznan/src/NOWY_TOMYSL.ulice.txt"/>
  </way>
  <way id="27321298" version="2" timestamp="2008-10-07T00:01:28Z" uid="30632" user="antblant" changeset="125062">
    <nd ref="299903091"/>
    <nd ref="299902789"/>
    <tag k="highway" v="residential"/>
    <tag k="name" v="Osiedle Stefana Batorego"/>
    <tag k="source" v="UMP-PL, ./UMP-Poznan/src/NOWY_TOMYSL.ulice.txt"/>
  </way>
  <way id="27321299" version="2" timestamp="2008-10-07T00:01:26Z" uid="30632" user="antblant" changeset="125062">
    <nd ref="299902691"/>
    <nd ref="299902748"/>
    <nd ref="299902747"/>
    <nd ref="299902737"/>
    <nd ref="299902746"/>
    <nd ref="299902744"/>
    <tag k="highway" v="residential"/>
    <tag k="name" v="Długa"/>
    <tag k="source" v="UMP-PL, ./UMP-Poznan/src/NOWY_TOMYSL.ulice.txt"/>
  </way>
  <way id="27321302" version="2" timestamp="2008-10-07T00:01:39Z" uid="30632" user="antblant" changeset="125062">
    <nd ref="299902958"/>
    <nd ref="299903094"/>
    <tag k="highway" v="residential"/>
    <tag k="name" v="Osiedle Stefana Batorego"/>
    <tag k="source" v="UMP-PL, ./UMP-Poznan/src/NOWY_TOMYSL.ulice.txt"/>
  </way>
  <way id="27321303" version="2" timestamp="2008-10-07T00:01:36Z" uid="30632" user="antblant" changeset="125062">
    <nd ref="299902744"/>
    <nd ref="299902741"/>
    <nd ref="299902782"/>
    <nd ref="299902783"/>
    <nd ref="299902779"/>
    <tag k="highway" v="tertiary"/>
    <tag k="name" v="Długa"/>
    <tag k="source" v="UMP-PL, ./UMP-Poznan/src/NOWY_TOMYSL.ulice.txt"/>
  </way>
  <way id="27321306" version="2" timestamp="2008-10-07T00:01:16Z" uid="30632" user="antblant" changeset="125062">
    <nd ref="299902730"/>
    <nd ref="299902732"/>
    <nd ref="299902733"/>
    <nd ref="299902735"/>
    <nd ref="299902713"/>
    <nd ref="299902715"/>
    <nd ref="299902716"/>
    <nd ref="299902718"/>
    <nd ref="299902721"/>
    <nd ref="299902689"/>
    <tag k="highway" v="residential"/>
    <tag k="name" v="Polna"/>
    <tag k="source" v="UMP-PL, ./UMP-Poznan/src/NOWY_TOMYSL.ulice.txt"/>
  </way>
  <way id="27321307" version="2" timestamp="2008-10-07T00:01:13Z" uid="30632" user="antblant" changeset="125062">
    <nd ref="299902765"/>
    <nd ref="299903099"/>
    <nd ref="299903096"/>
    <nd ref="299903097"/>
    <tag k="highway" v="residential"/>
    <tag k="name" v="Wiatrakowa"/>
    <tag k="source" v="UMP-PL, ./UMP-Poznan/src/NOWY_TOMYSL.ulice.txt"/>
  </way>
  <way id="27321308" version="2" timestamp="2008-10-07T00:01:24Z" uid="30632" user="antblant" changeset="125062">
    <nd ref="299902525"/>
    <nd ref="299902546"/>
    <nd ref="299902541"/>
    <nd ref="299902545"/>
    <nd ref="299902550"/>
    <nd ref="299902551"/>
    <tag k="highway" v="residential"/>
    <tag k="name" v="Wypoczynkowa"/>
    <tag k="source" v="UMP-PL, ./UMP-Poznan/src/NOWY_TOMYSL.ulice.txt"/>
  </way>
  <way id="27321309" version="2" timestamp="2008-10-07T00:01:23Z" uid="30632" user="antblant" changeset="125062">
    <nd ref="299902921"/>
    <nd ref="299903357"/>
    <tag k="highway" v="residential"/>
    <tag k="name" v="Zakładowa"/>
    <tag k="source" v="UMP-PL, ./UMP-Poznan/src/NOWY_TOMYSL.ulice.txt"/>
  </way>
  <way id="27321311" version="2" timestamp="2008-10-07T00:01:20Z" uid="30632" user="antblant" changeset="125062">
    <nd ref="299902718"/>
    <nd ref="299902722"/>
    <nd ref="299902723"/>
    <nd ref="299902725"/>
    <nd ref="299902755"/>
    <nd ref="299902754"/>
    <nd ref="299902751"/>
    <nd ref="299902749"/>
    <tag k="highway" v="residential"/>
    <tag k="name" v="Sądowa"/>
    <tag k="source" v="UMP-PL, ./UMP-Poznan/src/NOWY_TOMYSL.ulice.txt"/>
  </way>
  <way id="27321312" version="2" timestamp="2008-10-07T00:00:59Z" uid="30632" user="antblant" changeset="125062">
    <nd ref="299902779"/>
    <nd ref="299903098"/>
    <nd ref="299902955"/>
    <tag k="highway" v="tertiary"/>
    <tag k="name" v="Plac Niepodległości"/>
    <tag k="source" v="UMP-PL, ./UMP-Poznan/src/NOWY_TOMYSL.ulice.txt"/>
  </way>
  <way id="27321313" version="2" timestamp="2008-10-07T00:01:02Z" uid="30632" user="antblant" changeset="125062">
    <nd ref="299902547"/>
    <nd ref="299902548"/>
    <nd ref="299902555"/>
    <nd ref="299902556"/>
    <nd ref="299902552"/>
    <nd ref="299902553"/>
    <nd ref="299902560"/>
    <nd ref="299902562"/>
    <nd ref="299902557"/>
    <nd ref="299902559"/>
    <nd ref="299902566"/>
    <nd ref="299902567"/>
    <nd ref="299902563"/>
    <nd ref="299902565"/>
    <nd ref="299902573"/>
    <nd ref="299902571"/>
    <nd ref="299902570"/>
    <nd ref="299902569"/>
    <nd ref="299902578"/>
    <nd ref="299902576"/>
    <tag k="highway" v="residential"/>
    <tag k="name" v="Paprocka"/>
    <tag k="source" v="UMP-PL, ./UMP-Poznan/src/NOWY_TOMYSL.ulice.txt"/>
  </way>
  <way id="27321314" version="2" timestamp="2008-10-07T00:01:04Z" uid="30632" user="antblant" changeset="125062">
    <nd ref="299902920"/>
    <nd ref="299903354"/>
    <nd ref="299903355"/>
    <nd ref="299903356"/>
    <tag k="highway" v="residential"/>
    <tag k="name" v="Dworcowa"/>
    <tag k="source" v="UMP-PL, ./UMP-Poznan/src/NOWY_TOMYSL.ulice.txt"/>
  </way>
  <way id="27321315" version="2" timestamp="2008-10-07T00:01:05Z" uid="30632" user="antblant" changeset="125062">
    <nd ref="299902763"/>
    <nd ref="299902761"/>
    <nd ref="299902760"/>
    <nd ref="299902757"/>
    <nd ref="299902743"/>
    <tag k="highway" v="residential"/>
    <tag k="name" v="Powstańców Wielkopolskich"/>
    <tag k="source" v="UMP-PL, ./UMP-Poznan/src/NOWY_TOMYSL.ulice.txt"/>
  </way>
  <way id="27321318" version="2" timestamp="2008-10-07T00:01:10Z" uid="30632" user="antblant" changeset="125062">
    <nd ref="299902927"/>
    <nd ref="299903366"/>
    <tag k="highway" v="residential"/>
    <tag k="name" v="Zachodnia"/>
    <tag k="source" v="UMP-PL, ./UMP-Poznan/src/NOWY_TOMYSL.ulice.txt"/>
  </way>
  <way id="27321319" version="2" timestamp="2008-10-07T00:01:13Z" uid="30632" user="antblant" changeset="125062">
    <nd ref="299902528"/>
    <nd ref="299902531"/>
    <nd ref="299902530"/>
    <nd ref="299902533"/>
    <nd ref="299902526"/>
    <tag k="highway" v="residential"/>
    <tag k="name" v="Spacerowa"/>
    <tag k="source" v="UMP-PL, ./UMP-Poznan/src/NOWY_TOMYSL.ulice.txt"/>
  </way>
  <way id="27321320" version="2" timestamp="2008-10-07T00:00:47Z" uid="30632" user="antblant" changeset="125062">
    <nd ref="299902741"/>
    <nd ref="299902739"/>
    <nd ref="299902760"/>
    <nd ref="299902730"/>
    <nd ref="299902727"/>
    <tag k="highway" v="residential"/>
    <tag k="name" v="Śniadeckich"/>
    <tag k="source" v="UMP-PL, ./UMP-Poznan/src/NOWY_TOMYSL.ulice.txt"/>
  </way>
  <way id="27321327" version="2" timestamp="2008-10-07T00:00:56Z" uid="30632" user="antblant" changeset="125062">
    <nd ref="299902523"/>
    <nd ref="299902532"/>
    <nd ref="299902535"/>
    <nd ref="299902534"/>
    <nd ref="299902537"/>
    <nd ref="299902536"/>
    <nd ref="299902540"/>
    <nd ref="299902539"/>
    <nd ref="299902543"/>
    <nd ref="299902541"/>
    <tag k="highway" v="residential"/>
    <tag k="name" v="Reymonta"/>
    <tag k="source" v="UMP-PL, ./UMP-Poznan/src/NOWY_TOMYSL.ulice.txt"/>
  </way>
  <way id="27321329" version="2" timestamp="2008-10-07T00:00:34Z" uid="30632" user="antblant" changeset="125062">
    <nd ref="299902860"/>
    <nd ref="299903250"/>
    <tag k="highway" v="residential"/>
    <tag k="name" v="Osiedle Północ"/>
    <tag k="source" v="UMP-PL, ./UMP-Poznan/src/NOWY_TOMYSL.ulice.txt"/>
  </way>
  <way id="27321331" version="2" timestamp="2008-10-07T00:00:38Z" uid="30632" user="antblant" changeset="125062">
    <nd ref="299902776"/>
    <nd ref="299902860"/>
    <nd ref="299902862"/>
    <nd ref="299902848"/>
    <nd ref="299902850"/>
    <nd ref="299902852"/>
    <nd ref="299902853"/>
    <nd ref="299902841"/>
    <nd ref="299902842"/>
    <nd ref="299902844"/>
    <nd ref="299902846"/>
    <tag k="highway" v="tertiary"/>
    <tag k="name" v="Janusa"/>
    <tag k="source" v="UMP-PL, ./UMP-Poznan/src/NOWY_TOMYSL.ulice.txt"/>
  </way>
  <way id="27321332" version="2" timestamp="2008-10-07T00:00:42Z" uid="30632" user="antblant" changeset="125062">
    <nd ref="299902590"/>
    <nd ref="299902591"/>
    <nd ref="299902592"/>
    <nd ref="299902570"/>
    <tag k="highway" v="residential"/>
    <tag k="name" v="dojazd"/>
    <tag k="source" v="UMP-PL, ./UMP-Poznan/src/NOWY_TOMYSL.ulice.txt"/>
  </way>
  <way id="27321332" version="3" timestamp="2008-10-08T18:58:32Z" uid="30632" user="antblant" changeset="169665">
    <nd ref="299902590"/>
    <nd ref="299902591"/>
    <nd ref="299902592"/>
    <nd ref="299902570"/>
    <tag k="highway" v="residential"/>
    <tag k="name" v="Dojazd"/>
    <tag k="source" v="UMP-PL, ./UMP-Poznan/src/NOWY_TOMYSL.ulice.txt"/>
  </way>
  <way id="27321334" version="2" timestamp="2008-10-07T00:00:46Z" uid="30632" user="antblant" changeset="125062">
    <nd ref="299902774"/>
    <nd ref="299903286"/>
    <nd ref="299903285"/>
    <nd ref="299903284"/>
    <tag k="highway" v="residential"/>
    <tag k="name" v="3 Stycznia"/>
    <tag k="source" v="UMP-PL, ./UMP-Poznan/src/NOWY_TOMYSL.ulice.txt"/>
  </way>
  <way id="27321335" version="2" timestamp="2008-10-07T00:00:44Z" uid="30632" user="antblant" changeset="125062">
    <nd ref="299902959"/>
    <nd ref="299903048"/>
    <nd ref="299903047"/>
    <nd ref="299903060"/>
    <tag k="highway" v="tertiary"/>
    <tag k="name" v="Witosa"/>
    <tag k="source" v="UMP-PL, ./UMP-Poznan/src/NOWY_TOMYSL.ulice.txt"/>
  </way>
  <way id="27321336" version="2" timestamp="2008-10-07T00:00:19Z" uid="30632" user="antblant" changeset="125062">
    <nd ref="299902794"/>
    <nd ref="299902795"/>
    <nd ref="299902856"/>
    <nd ref="299902859"/>
    <tag k="highway" v="residential"/>
    <tag k="name" v="Hołogi"/>
    <tag k="source" v="UMP-PL, ./UMP-Poznan/src/NOWY_TOMYSL.ulice.txt"/>
  </way>
  <way id="27321338" version="2" timestamp="2008-10-07T00:00:25Z" uid="30632" user="antblant" changeset="125062">
    <nd ref="299902579"/>
    <nd ref="299902567"/>
    <tag k="highway" v="residential"/>
    <tag k="name" v="Łanowa"/>
    <tag k="source" v="UMP-PL, ./UMP-Poznan/src/NOWY_TOMYSL.ulice.txt"/>
  </way>
  <way id="27321339" version="2" timestamp="2008-10-07T00:00:22Z" uid="30632" user="antblant" changeset="125062">
    <nd ref="299903150"/>
    <nd ref="299903228"/>
    <nd ref="299903223"/>
    <nd ref="299903160"/>
    <tag k="highway" v="residential"/>
    <tag k="name" v="Spokojna"/>
    <tag k="source" v="UMP-PL, ./UMP-Poznan/src/NOWY_TOMYSL.ulice.txt"/>
  </way>
  <way id="27321341" version="2" timestamp="2008-10-07T00:00:27Z" uid="30632" user="antblant" changeset="125062">
    <nd ref="299902794"/>
    <nd ref="299902792"/>
    <nd ref="299902798"/>
    <nd ref="299902833"/>
    <tag k="highway" v="residential"/>
    <tag k="name" v="Zacisze"/>
    <tag k="source" v="UMP-PL, ./UMP-Poznan/src/NOWY_TOMYSL.ulice.txt"/>
  </way>
  <way id="27321342" version="2" timestamp="2008-10-07T00:00:32Z" uid="30632" user="antblant" changeset="125062">
    <nd ref="299903052"/>
    <nd ref="299903060"/>
    <nd ref="299903059"/>
    <nd ref="299903062"/>
    <nd ref="299903061"/>
    <nd ref="299903055"/>
    <nd ref="299903054"/>
    <nd ref="299903058"/>
    <nd ref="299902962"/>
    <tag k="highway" v="tertiary"/>
    <tag k="name" v="Piłsudskiego"/>
    <tag k="source" v="UMP-PL, ./UMP-Poznan/src/NOWY_TOMYSL.ulice.txt"/>
  </way>
  <way id="27321343" version="2" timestamp="2008-10-07T00:00:30Z" uid="30632" user="antblant" changeset="125062">
    <nd ref="299903166"/>
    <nd ref="299903163"/>
    <nd ref="299903164"/>
    <nd ref="299903161"/>
    <tag k="highway" v="residential"/>
    <tag k="name" v="Wodna"/>
    <tag k="source" v="UMP-PL, ./UMP-Poznan/src/NOWY_TOMYSL.ulice.txt"/>
  </way>
  <way id="27321344" version="2" timestamp="2008-10-06T23:55:48Z" uid="30632" user="antblant" changeset="125062">
    <nd ref="299902606"/>
    <nd ref="299902607"/>
    <nd ref="299902608"/>
    <nd ref="299902590"/>
    <nd ref="299902609"/>
    <nd ref="299902599"/>
    <tag k="highway" v="residential"/>
    <tag k="name" v="Baranowskiego"/>
    <tag k="source" v="UMP-PL, ./UMP-Poznan/src/NOWY_TOMYSL.ulice.txt"/>
  </way>
  <way id="27321346" version="2" timestamp="2008-10-06T23:55:52Z" uid="30632" user="antblant" changeset="125062">
    <nd ref="299902832"/>
    <nd ref="299902809"/>
    <nd ref="299902807"/>
    <nd ref="299902812"/>
    <nd ref="299902810"/>
    <nd ref="299902802"/>
    <nd ref="299902801"/>
    <nd ref="299902806"/>
    <nd ref="299902804"/>
    <nd ref="299902794"/>
    <tag k="highway" v="residential"/>
    <tag k="name" v="Koszykowa"/>
    <tag k="source" v="UMP-PL, ./UMP-Poznan/src/NOWY_TOMYSL.ulice.txt"/>
  </way>
  <way id="27321347" version="2" timestamp="2008-10-06T23:55:50Z" uid="30632" user="antblant" changeset="125062">
    <nd ref="299903052"/>
    <nd ref="299903057"/>
    <nd ref="299903114"/>
    <nd ref="299903113"/>
    <nd ref="299903110"/>
    <nd ref="299903109"/>
    <nd ref="299903049"/>
    <tag k="highway" v="tertiary"/>
    <tag k="name" v="Plac Chopina"/>
    <tag k="source" v="UMP-PL, ./UMP-Poznan/src/NOWY_TOMYSL.ulice.txt"/>
  </way>
  <way id="27321348" version="2" timestamp="2008-10-06T23:55:55Z" uid="30632" user="antblant" changeset="125062">
    <nd ref="299903162"/>
    <nd ref="299903158"/>
    <nd ref="299903160"/>
    <nd ref="299903166"/>
    <tag k="highway" v="residential"/>
    <tag k="name" v="Żwirowa"/>
    <tag k="source" v="UMP-PL, ./UMP-Poznan/src/NOWY_TOMYSL.ulice.txt"/>
  </way>
  <way id="27321349" version="2" timestamp="2008-10-06T23:55:54Z" uid="30632" user="antblant" changeset="125062">
    <nd ref="299902592"/>
    <nd ref="299902593"/>
    <tag k="highway" v="residential"/>
    <tag k="name" v="dojazd"/>
    <tag k="source" v="UMP-PL, ./UMP-Poznan/src/NOWY_TOMYSL.ulice.txt"/>
  </way>
  <way id="27321349" version="3" timestamp="2008-10-08T18:58:33Z" uid="30632" user="antblant" changeset="169665">
    <nd ref="299902592"/>
    <nd ref="299902593"/>
    <tag k="highway" v="residential"/>
    <tag k="name" v="Dojazd"/>
    <tag k="source" v="UMP-PL, ./UMP-Poznan/src/NOWY_TOMYSL.ulice.txt"/>
  </way>
  <way id="27321350" version="2" timestamp="2008-10-06T23:55:59Z" uid="30632" user="antblant" changeset="125062">
    <nd ref="299902852"/>
    <nd ref="299903249"/>
    <nd ref="299903245"/>
    <nd ref="299903246"/>
    <nd ref="299903243"/>
    <nd ref="299903244"/>
    <nd ref="299903241"/>
    <nd ref="299903242"/>
    <tag k="highway" v="residential"/>
    <tag k="name" v="Osiedle Północ"/>
    <tag k="source" v="UMP-PL, ./UMP-Poznan/src/NOWY_TOMYSL.ulice.txt"/>
  </way>
  <way id="27321351" version="2" timestamp="2008-10-06T23:55:57Z" uid="30632" user="antblant" changeset="125062">
    <nd ref="299902569"/>
    <nd ref="299902597"/>
    <tag k="highway" v="residential"/>
    <tag k="name" v="Zbożowa"/>
    <tag k="source" v="UMP-PL, ./UMP-Poznan/src/NOWY_TOMYSL.ulice.txt"/>
  </way>
  <way id="27321352" version="2" timestamp="2008-10-06T23:55:40Z" uid="30632" user="antblant" changeset="125062">
    <nd ref="299902856"/>
    <nd ref="299902776"/>
    <tag k="highway" v="residential"/>
    <tag k="name" v="Janusa"/>
    <tag k="source" v="UMP-PL, ./UMP-Poznan/src/NOWY_TOMYSL.ulice.txt"/>
  </way>
  <way id="27321354" version="2" timestamp="2008-10-06T23:55:42Z" uid="30632" user="antblant" changeset="125062">
    <nd ref="299902828"/>
    <nd ref="299902833"/>
    <nd ref="299902832"/>
    <tag k="highway" v="residential"/>
    <tag k="name" v="Wiklinowa"/>
    <tag k="source" v="UMP-PL, ./UMP-Poznan/src/NOWY_TOMYSL.ulice.txt"/>
  </way>
  <way id="27321355" version="2" timestamp="2008-10-06T23:55:40Z" uid="30632" user="antblant" changeset="125062">
    <nd ref="299903249"/>
    <nd ref="299903277"/>
    <nd ref="299903274"/>
    <tag k="highway" v="residential"/>
    <tag k="name" v="Osiedle Północ"/>
    <tag k="source" v="UMP-PL, ./UMP-Poznan/src/NOWY_TOMYSL.ulice.txt"/>
  </way>
  <way id="27321356" version="2" timestamp="2008-10-06T23:55:44Z" uid="30632" user="antblant" changeset="125062">
    <nd ref="299902557"/>
    <nd ref="299902575"/>
    <nd ref="299902574"/>
    <nd ref="299902583"/>
    <nd ref="299902582"/>
    <nd ref="299902581"/>
    <nd ref="299902579"/>
    <nd ref="299902588"/>
    <nd ref="299902587"/>
    <nd ref="299902586"/>
    <nd ref="299902584"/>
    <nd ref="299902594"/>
    <nd ref="299902597"/>
    <nd ref="299902598"/>
    <tag k="highway" v="residential"/>
    <tag k="name" v="Półwiejska"/>
    <tag k="source" v="UMP-PL, ./UMP-Poznan/src/NOWY_TOMYSL.ulice.txt"/>
  </way>
  <way id="27321357" version="2" timestamp="2008-10-06T23:55:42Z" uid="30632" user="antblant" changeset="125062">
    <nd ref="299902810"/>
    <nd ref="299903218"/>
    <nd ref="299903216"/>
    <nd ref="299902795"/>
    <tag k="highway" v="residential"/>
    <tag k="name" v="Zaułek"/>
    <tag k="source" v="UMP-PL, ./UMP-Poznan/src/NOWY_TOMYSL.ulice.txt"/>
  </way>
  <way id="27321358" version="2" timestamp="2008-10-06T23:55:46Z" uid="30632" user="antblant" changeset="125062">
    <nd ref="299903047"/>
    <nd ref="299903117"/>
    <tag k="highway" v="residential"/>
    <tag k="name" v="Asnyka"/>
    <tag k="source" v="UMP-PL, ./UMP-Poznan/src/NOWY_TOMYSL.ulice.txt"/>
  </way>
  <way id="27321359" version="2" timestamp="2008-10-06T23:55:44Z" uid="30632" user="antblant" changeset="125062">
    <nd ref="299902780"/>
    <nd ref="299902765"/>
    <nd ref="299902766"/>
    <nd ref="299902776"/>
    <nd ref="299902777"/>
    <nd ref="299902772"/>
    <nd ref="299902774"/>
    <nd ref="299902828"/>
    <nd ref="299902826"/>
    <tag k="highway" v="tertiary"/>
    <tag k="name" v="3 Stycznia"/>
    <tag k="source" v="UMP-PL, ./UMP-Poznan/src/NOWY_TOMYSL.ulice.txt"/>
  </way>
  <way id="27321360" version="2" timestamp="2008-10-06T23:56:16Z" uid="30632" user="antblant" changeset="125062">
    <nd ref="299903274"/>
    <nd ref="299903267"/>
    <nd ref="299903259"/>
    <nd ref="299903255"/>
    <nd ref="299903254"/>
    <tag k="highway" v="residential"/>
    <tag k="name" v="Osiedle Północ"/>
    <tag k="source" v="UMP-PL, ./UMP-Poznan/src/NOWY_TOMYSL.ulice.txt"/>
  </way>
  <way id="27321361" version="2" timestamp="2008-10-06T23:56:17Z" uid="30632" user="antblant" changeset="125062">
    <nd ref="299903168"/>
    <nd ref="299903222"/>
    <tag k="highway" v="residential"/>
    <tag k="name" v="Zakątek"/>
    <tag k="source" v="UMP-PL, ./UMP-Poznan/src/NOWY_TOMYSL.ulice.txt"/>
  </way>
  <way id="27321362" version="2" timestamp="2008-10-06T23:56:18Z" uid="30632" user="antblant" changeset="125062">
    <nd ref="299902584"/>
    <nd ref="299902565"/>
    <nd ref="299902599"/>
    <tag k="highway" v="residential"/>
    <tag k="name" v="Rolna"/>
    <tag k="source" v="UMP-PL, ./UMP-Poznan/src/NOWY_TOMYSL.ulice.txt"/>
  </way>
  <way id="27321363" version="2" timestamp="2008-10-06T23:56:20Z" uid="30632" user="antblant" changeset="125062">
    <nd ref="299902780"/>
    <nd ref="299902789"/>
    <nd ref="299902791"/>
    <nd ref="299902785"/>
    <nd ref="299902787"/>
    <nd ref="299902768"/>
    <nd ref="299902770"/>
    <tag k="highway" v="tertiary"/>
    <tag k="name" v="Zbąszyńska"/>
    <tag k="source" v="UMP-PL, ./UMP-Poznan/src/NOWY_TOMYSL.ulice.txt"/>
  </way>
  <way id="27321364" version="2" timestamp="2008-10-06T23:56:21Z" uid="30632" user="antblant" changeset="125062">
    <nd ref="299903116"/>
    <nd ref="299903100"/>
    <tag k="highway" v="residential"/>
    <tag k="name" v="Tuwima"/>
    <tag k="source" v="UMP-PL, ./UMP-Poznan/src/NOWY_TOMYSL.ulice.txt"/>
  </way>
  <way id="27321365" version="2" timestamp="2008-10-06T23:56:24Z" uid="30632" user="antblant" changeset="125062">
    <nd ref="299903277"/>
    <nd ref="299903254"/>
    <nd ref="299903252"/>
    <tag k="highway" v="residential"/>
    <tag k="name" v="Osiedle Północ"/>
    <tag k="source" v="UMP-PL, ./UMP-Poznan/src/NOWY_TOMYSL.ulice.txt"/>
  </way>
  <way id="27321367" version="2" timestamp="2008-10-06T23:56:27Z" uid="30632" user="antblant" changeset="125062">
    <nd ref="299902571"/>
    <nd ref="299902594"/>
    <tag k="highway" v="residential"/>
    <tag k="name" v="Zagrodowa"/>
    <tag k="source" v="UMP-PL, ./UMP-Poznan/src/NOWY_TOMYSL.ulice.txt"/>
  </way>
  <way id="27321368" version="2" timestamp="2008-10-06T23:56:02Z" uid="30632" user="antblant" changeset="125062">
    <nd ref="299902779"/>
    <nd ref="299902780"/>
    <tag k="highway" v="tertiary"/>
    <tag k="name" v="Zbąszyńska"/>
    <tag k="source" v="UMP-PL, ./UMP-Poznan/src/NOWY_TOMYSL.ulice.txt"/>
  </way>
  <way id="27321369" version="2" timestamp="2008-10-06T23:56:06Z" uid="30632" user="antblant" changeset="125062">
    <nd ref="299902963"/>
    <nd ref="299903108"/>
    <nd ref="299903107"/>
    <nd ref="299903105"/>
    <nd ref="299903048"/>
    <tag k="highway" v="residential"/>
    <tag k="name" v="Norwida"/>
    <tag k="source" v="UMP-PL, ./UMP-Poznan/src/NOWY_TOMYSL.ulice.txt"/>
  </way>
  <way id="27321370" version="2" timestamp="2008-10-06T23:56:08Z" uid="30632" user="antblant" changeset="125062">
    <nd ref="299902895"/>
    <nd ref="299902896"/>
    <nd ref="299902892"/>
    <nd ref="299902894"/>
    <nd ref="299902937"/>
    <nd ref="299902938"/>
    <nd ref="299902934"/>
    <tag k="highway" v="residential"/>
    <tag k="name" v="Sczanieckiej"/>
    <tag k="source" v="UMP-PL, ./UMP-Poznan/src/NOWY_TOMYSL.ulice.txt"/>
  </way>
  <way id="27321371" version="2" timestamp="2008-10-06T23:56:09Z" uid="30632" user="antblant" changeset="125062">
    <nd ref="299902650"/>
    <nd ref="299902633"/>
    <nd ref="299902664"/>
    <tag k="highway" v="residential"/>
    <tag k="name" v="Nowa"/>
    <tag k="source" v="UMP-PL, ./UMP-Poznan/src/NOWY_TOMYSL.ulice.txt"/>
  </way>
  <way id="27321373" version="2" timestamp="2008-10-06T23:56:13Z" uid="30632" user="antblant" changeset="125062">
    <nd ref="299903059"/>
    <nd ref="299902960"/>
    <tag k="highway" v="residential"/>
    <tag k="name" v="Jana Pawła II"/>
    <tag k="source" v="UMP-PL, ./UMP-Poznan/src/NOWY_TOMYSL.ulice.txt"/>
  </way>
  <way id="27321375" version="2" timestamp="2008-10-06T23:56:15Z" uid="30632" user="antblant" changeset="125062">
    <nd ref="299902574"/>
    <nd ref="299902559"/>
    <tag k="highway" v="residential"/>
    <tag k="name" v="Wiejska"/>
    <tag k="source" v="UMP-PL, ./UMP-Poznan/src/NOWY_TOMYSL.ulice.txt"/>
  </way>
  <way id="27321377" version="2" timestamp="2008-10-06T23:56:45Z" uid="30632" user="antblant" changeset="125062">
    <nd ref="299903298"/>
    <nd ref="299903318"/>
    <tag k="highway" v="residential"/>
    <tag k="name" v="Szkolna"/>
    <tag k="source" v="UMP-PL, ./UMP-Poznan/src/NOWY_TOMYSL.ulice.txt"/>
  </way>
  <way id="27321378" version="2" timestamp="2008-10-06T23:56:44Z" uid="30632" user="antblant" changeset="125062">
    <nd ref="299902872"/>
    <nd ref="299902899"/>
    <nd ref="299902902"/>
    <nd ref="299902897"/>
    <nd ref="299902884"/>
    <tag k="highway" v="residential"/>
    <tag k="name" v="Truskawkowa"/>
    <tag k="source" v="UMP-PL, ./UMP-Poznan/src/NOWY_TOMYSL.ulice.txt"/>
  </way>
  <way id="27321380" version="2" timestamp="2008-10-06T23:56:53Z" uid="30632" user="antblant" changeset="125062">
    <nd ref="299902643"/>
    <nd ref="299902674"/>
    <nd ref="299902612"/>
    <tag k="highway" v="residential"/>
    <tag k="name" v="Akacjowa"/>
    <tag k="source" v="UMP-PL, ./UMP-Poznan/src/NOWY_TOMYSL.ulice.txt"/>
  </way>
  <way id="27321381" version="2" timestamp="2008-10-06T23:56:51Z" uid="30632" user="antblant" changeset="125062">
    <nd ref="299902916"/>
    <nd ref="299903239"/>
    <nd ref="299902904"/>
    <nd ref="299903240"/>
    <nd ref="299903236"/>
    <nd ref="299903237"/>
    <tag k="highway" v="residential"/>
    <tag k="name" v="Targowa"/>
    <tag k="source" v="UMP-PL, ./UMP-Poznan/src/NOWY_TOMYSL.ulice.txt"/>
  </way>
  <way id="27321383" version="2" timestamp="2008-10-06T23:56:48Z" uid="30632" user="antblant" changeset="125062">
    <nd ref="299903017"/>
    <nd ref="299903016"/>
    <nd ref="299903069"/>
    <nd ref="299903070"/>
    <nd ref="299903006"/>
    <nd ref="299903012"/>
    <nd ref="299903071"/>
    <nd ref="299903072"/>
    <nd ref="299903063"/>
    <nd ref="299903065"/>
    <nd ref="299902996"/>
    <nd ref="299903066"/>
    <nd ref="299903068"/>
    <nd ref="299903078"/>
    <nd ref="299903079"/>
    <tag k="highway" v="tertiary"/>
    <tag k="name" v="Sienkiewicza"/>
    <tag k="source" v="UMP-PL, ./UMP-Poznan/src/NOWY_TOMYSL.ulice.txt"/>
  </way>
  <way id="27321385" version="2" timestamp="2008-10-06T23:56:36Z" uid="30632" user="antblant" changeset="125062">
    <nd ref="299902633"/>
    <nd ref="299902665"/>
    <nd ref="299902661"/>
    <nd ref="299902663"/>
    <nd ref="299902659"/>
    <nd ref="299902660"/>
    <nd ref="299902656"/>
    <nd ref="299902657"/>
    <tag k="highway" v="residential"/>
    <tag k="name" v="Nowa"/>
    <tag k="source" v="UMP-PL, ./UMP-Poznan/src/NOWY_TOMYSL.ulice.txt"/>
  </way>
  <way id="27321386" version="2" timestamp="2008-10-06T23:56:33Z" uid="30632" user="antblant" changeset="125062">
    <nd ref="299902844"/>
    <nd ref="299903233"/>
    <nd ref="299903234"/>
    <nd ref="299903231"/>
    <nd ref="299903232"/>
    <nd ref="299903248"/>
    <tag k="highway" v="residential"/>
    <tag k="name" v="Wiatrakowa"/>
    <tag k="source" v="UMP-PL, ./UMP-Poznan/src/NOWY_TOMYSL.ulice.txt"/>
  </way>
  <way id="27321387" version="2" timestamp="2008-10-06T23:56:32Z" uid="30632" user="antblant" changeset="125062">
    <nd ref="299902556"/>
    <nd ref="299902620"/>
    <nd ref="299902619"/>
    <nd ref="299902612"/>
    <nd ref="299902611"/>
    <nd ref="299902616"/>
    <tag k="highway" v="residential"/>
    <tag k="name" v="Swierkowa"/>
    <tag k="source" v="UMP-PL, ./UMP-Poznan/src/NOWY_TOMYSL.ulice.txt"/>
  </way>
  <way id="27321389" version="2" timestamp="2008-10-06T23:56:41Z" uid="30632" user="antblant" changeset="125062">
    <nd ref="299903017"/>
    <nd ref="299903080"/>
    <nd ref="299903082"/>
    <nd ref="299902509"/>
    <nd ref="299903074"/>
    <nd ref="299902547"/>
    <nd ref="299902614"/>
    <nd ref="299903075"/>
    <tag k="highway" v="tertiary"/>
    <tag k="name" v="Sienkiewicza"/>
    <tag k="source" v="UMP-PL, ./UMP-Poznan/src/NOWY_TOMYSL.ulice.txt"/>
  </way>
  <way id="27321391" version="2" timestamp="2008-10-06T23:56:39Z" uid="30632" user="antblant" changeset="125062">
    <nd ref="299903311"/>
    <nd ref="299903314"/>
    <tag k="highway" v="residential"/>
    <tag k="name" v="Kwiatowa"/>
    <tag k="source" v="UMP-PL, ./UMP-Poznan/src/NOWY_TOMYSL.ulice.txt"/>
  </way>
  <way id="27321392" version="2" timestamp="2008-10-06T23:57:05Z" uid="30632" user="antblant" changeset="125062">
    <nd ref="299903356"/>
    <nd ref="299903347"/>
    <nd ref="299903346"/>
    <nd ref="299903355"/>
    <tag k="highway" v="residential"/>
    <tag k="name" v="Dworcowa"/>
    <tag k="source" v="UMP-PL, ./UMP-Poznan/src/NOWY_TOMYSL.ulice.txt"/>
  </way>
  <way id="27321393" version="2" timestamp="2008-10-06T23:57:07Z" uid="30632" user="antblant" changeset="125062">
    <nd ref="299902599"/>
    <nd ref="299902601"/>
    <nd ref="299902602"/>
    <nd ref="299902603"/>
    <nd ref="299902605"/>
    <nd ref="299902618"/>
    <nd ref="299902617"/>
    <nd ref="299902620"/>
    <tag k="highway" v="residential"/>
    <tag k="name" v="Osiedlowa"/>
    <tag k="source" v="UMP-PL, ./UMP-Poznan/src/NOWY_TOMYSL.ulice.txt"/>
  </way>
  <way id="27321394" version="2" timestamp="2008-10-06T23:57:04Z" uid="30632" user="antblant" changeset="125062">
    <nd ref="299903152"/>
    <nd ref="299903168"/>
    <nd ref="299903165"/>
    <nd ref="299903166"/>
    <tag k="highway" v="residential"/>
    <tag k="name" v="Piaskowa"/>
    <tag k="source" v="UMP-PL, ./UMP-Poznan/src/NOWY_TOMYSL.ulice.txt"/>
  </way>
  <way id="27321395" version="2" timestamp="2008-10-06T23:57:04Z" uid="30632" user="antblant" changeset="125062">
    <nd ref="299903075"/>
    <nd ref="299903076"/>
    <nd ref="299902693"/>
    <nd ref="299903077"/>
    <nd ref="299903050"/>
    <nd ref="299903049"/>
    <nd ref="299903053"/>
    <tag k="highway" v="tertiary"/>
    <tag k="name" v="Poznańska"/>
    <tag k="source" v="UMP-PL, ./UMP-Poznan/src/NOWY_TOMYSL.ulice.txt"/>
  </way>
  <way id="27321396" version="2" timestamp="2008-10-06T23:57:10Z" uid="30632" user="antblant" changeset="125062">
    <nd ref="299902837"/>
    <nd ref="299902878"/>
    <nd ref="299902877"/>
    <nd ref="299902886"/>
    <tag k="highway" v="residential"/>
    <tag k="name" v="Poziomkowa"/>
    <tag k="source" v="UMP-PL, ./UMP-Poznan/src/NOWY_TOMYSL.ulice.txt"/>
  </way>
  <way id="27321397" version="2" timestamp="2008-10-06T23:57:11Z" uid="30632" user="antblant" changeset="125062">
    <nd ref="299903312"/>
    <nd ref="299903313"/>
    <nd ref="299903320"/>
    <tag k="highway" v="residential"/>
    <tag k="name" v="Brzozowa"/>
    <tag k="source" v="UMP-PL, ./UMP-Poznan/src/NOWY_TOMYSL.ulice.txt"/>
  </way>
  <way id="27321398" version="2" timestamp="2008-10-06T23:57:08Z" uid="30632" user="antblant" changeset="125062">
    <nd ref="299903180"/>
    <nd ref="299903185"/>
    <nd ref="299903179"/>
    <nd ref="299903178"/>
    <tag k="highway" v="residential"/>
    <tag k="name" v="Konwaliowa"/>
    <tag k="source" v="UMP-PL, ./UMP-Poznan/src/NOWY_TOMYSL.ulice.txt"/>
  </way>
  <way id="27321399" version="2" timestamp="2008-10-06T23:57:09Z" uid="30632" user="antblant" changeset="125062">
    <nd ref="299902557"/>
    <nd ref="299902605"/>
    <nd ref="299902622"/>
    <nd ref="299902643"/>
    <tag k="highway" v="residential"/>
    <tag k="name" v="Gronowa"/>
    <tag k="source" v="UMP-PL, ./UMP-Poznan/src/NOWY_TOMYSL.ulice.txt"/>
  </way>
  <way id="27321400" version="2" timestamp="2008-10-06T23:56:59Z" uid="30632" user="antblant" changeset="125062">
    <nd ref="299902836"/>
    <nd ref="299902886"/>
    <nd ref="299902884"/>
    <nd ref="299902882"/>
    <nd ref="299902879"/>
    <tag k="highway" v="residential"/>
    <tag k="name" v="Agrestowa"/>
    <tag k="source" v="UMP-PL, ./UMP-Poznan/src/NOWY_TOMYSL.ulice.txt"/>
  </way>
  <way id="27321401" version="2" timestamp="2008-10-06T23:57:00Z" uid="30632" user="antblant" changeset="125062">
    <nd ref="299903053"/>
    <nd ref="299903052"/>
    <tag k="highway" v="tertiary"/>
    <tag k="name" v="Piłsudskiego"/>
    <tag k="source" v="UMP-PL, ./UMP-Poznan/src/NOWY_TOMYSL.ulice.txt"/>
  </way>
  <way id="27321402" version="2" timestamp="2008-10-06T23:56:55Z" uid="30632" user="antblant" changeset="125062">
    <nd ref="299903317"/>
    <nd ref="299903310"/>
    <tag k="highway" v="residential"/>
    <tag k="name" v="Wierzbowa"/>
    <tag k="source" v="UMP-PL, ./UMP-Poznan/src/NOWY_TOMYSL.ulice.txt"/>
  </way>
  <way id="27321403" version="2" timestamp="2008-10-06T23:56:57Z" uid="30632" user="antblant" changeset="125062">
    <nd ref="299902783"/>
    <nd ref="299902743"/>
    <nd ref="299902729"/>
    <nd ref="299903177"/>
    <nd ref="299903178"/>
    <nd ref="299903176"/>
    <nd ref="299903173"/>
    <nd ref="299903175"/>
    <nd ref="299903171"/>
    <nd ref="299903172"/>
    <nd ref="299903169"/>
    <nd ref="299903170"/>
    <nd ref="299903167"/>
    <tag k="highway" v="tertiary"/>
    <tag k="name" v="Komunalna"/>
    <tag k="source" v="UMP-PL, ./UMP-Poznan/src/NOWY_TOMYSL.ulice.txt"/>
  </way>
  <way id="27321404" version="2" timestamp="2008-10-06T23:57:02Z" uid="30632" user="antblant" changeset="125062">
    <nd ref="299902614"/>
    <nd ref="299902652"/>
    <nd ref="299902616"/>
    <nd ref="299902650"/>
    <nd ref="299902655"/>
    <nd ref="299902654"/>
    <nd ref="299902626"/>
    <nd ref="299902607"/>
    <tag k="highway" v="residential"/>
    <tag k="name" v="Szpitalna"/>
    <tag k="source" v="UMP-PL, ./UMP-Poznan/src/NOWY_TOMYSL.ulice.txt"/>
  </way>
  <way id="27321405" version="2" timestamp="2008-10-06T23:57:03Z" uid="30632" user="antblant" changeset="125062">
    <nd ref="299902834"/>
    <nd ref="299902836"/>
    <nd ref="299902837"/>
    <nd ref="299902839"/>
    <nd ref="299902891"/>
    <nd ref="299902890"/>
    <nd ref="299902888"/>
    <tag k="highway" v="tertiary"/>
    <tag k="name" v="Zbąszyńska"/>
    <tag k="source" v="UMP-PL, ./UMP-Poznan/src/NOWY_TOMYSL.ulice.txt"/>
  </way>
  <way id="27321406" version="2" timestamp="2008-10-06T23:57:00Z" uid="30632" user="antblant" changeset="125062">
    <nd ref="299903049"/>
    <nd ref="299903046"/>
    <nd ref="299902744"/>
    <tag k="highway" v="tertiary"/>
    <tag k="name" v="Bohaterów"/>
    <tag k="source" v="UMP-PL, ./UMP-Poznan/src/NOWY_TOMYSL.ulice.txt"/>
  </way>
  <way id="27321407" version="2" timestamp="2008-10-06T23:57:02Z" uid="30632" user="antblant" changeset="125062">
    <nd ref="299903309"/>
    <nd ref="299903316"/>
    <nd ref="299903315"/>
    <tag k="highway" v="residential"/>
    <tag k="name" v="Skłodowskiej-Curie"/>
    <tag k="source" v="UMP-PL, ./UMP-Poznan/src/NOWY_TOMYSL.ulice.txt"/>
  </way>
  <way id="27321610" version="2" timestamp="2010-03-28T00:08:59Z" uid="20587" user="balrog-kun" changeset="4250871">
    <nd ref="140848411"/>
    <nd ref="140531545"/>
    <nd ref="140848413"/>
    <nd ref="140848415"/>
    <nd ref="140848417"/>
    <nd ref="140388378"/>
    <nd ref="140848419"/>
    <tag k="created_by" v="Potlatch 0.10b"/>
    <tag k="highway" v="secondary"/>
    <tag k="name" v="Bell Vista Avenue"/>
    <tag k="tiger:cfcc" v="A41"/>
    <tag k="tiger:county" v="Nye, NV"/>
    <tag k="tiger:name_base" v="Bell Vista"/>
    <tag k="tiger:name_type" v="Ave"/>
    <tag k="tiger:reviewed" v="no"/>
    <tag k="tiger:separated" v="no"/>
    <tag k="tiger:source" v="tiger_import_dch_v0.6_20070828"/>
    <tag k="tiger:tlid" v="140659000:140659001:140524255:140524257:140600848:140665109:140723485:140594059:140594078:140578809:140600359:140594054:140587351:140664672:140664673:140723001:140665092:140665094:140665095:140609828:140609829:140587607"/>
  </way>
  <way id="27321612" version="2" timestamp="2010-03-28T00:08:59Z" uid="20587" user="balrog-kun" changeset="4250871">
    <nd ref="140916104"/>
    <nd ref="140916106"/>
    <nd ref="140916108"/>
    <nd ref="140916111"/>
    <nd ref="140916113"/>
    <nd ref="140916116"/>
    <nd ref="140906132"/>
    <nd ref="140916119"/>
    <nd ref="140916122"/>
    <nd ref="140916125"/>
    <nd ref="140916127"/>
    <nd ref="140916129"/>
    <nd ref="140916131"/>
    <nd ref="140916133"/>
    <nd ref="140916135"/>
    <nd ref="140916137"/>
    <nd ref="140916139"/>
    <nd ref="140916141"/>
    <nd ref="140916143"/>
    <nd ref="140916146"/>
    <nd ref="140916149"/>
    <nd ref="140916152"/>
    <nd ref="140916153"/>
    <nd ref="140916155"/>
    <nd ref="140916157"/>
    <nd ref="140916159"/>
    <nd ref="140916161"/>
    <nd ref="140303206"/>
    <tag k="created_by" v="Potlatch 0.10b"/>
    <tag k="highway" v="road"/>
    <tag k="name" v="West Bell Vista Avenue"/>
    <tag k="tiger:cfcc" v="A41"/>
    <tag k="tiger:county" v="Nye, NV"/>
    <tag k="tiger:name_base" v="Bell Vista"/>
    <tag k="tiger:name_direction_prefix" v="W"/>
    <tag k="tiger:name_type" v="Ave"/>
    <tag k="tiger:reviewed" v="no"/>
    <tag k="tiger:separated" v="no"/>
    <tag k="tiger:source" v="tiger_import_dch_v0.6_20070828"/>
    <tag k="tiger:tlid" v="140724102:140675515:140712950"/>
  </way>
  <way id="27321613" version="2" timestamp="2010-03-28T00:08:59Z" uid="20587" user="balrog-kun" changeset="4250871">
    <nd ref="140982869"/>
    <nd ref="141016451"/>
    <nd ref="141016452"/>
    <nd ref="141016457"/>
    <nd ref="141016459"/>
    <nd ref="141016461"/>
    <nd ref="141016463"/>
    <nd ref="141016465"/>
    <nd ref="141016468"/>
    <nd ref="141016472"/>
    <nd ref="141016474"/>
    <nd ref="141016477"/>
    <nd ref="141016480"/>
    <nd ref="141016483"/>
    <nd ref="140035590"/>
    <nd ref="141016486"/>
    <nd ref="141016490"/>
    <nd ref="141016493"/>
    <nd ref="141016496"/>
    <nd ref="141016499"/>
    <nd ref="141016501"/>
    <nd ref="141016503"/>
    <nd ref="141016506"/>
    <nd ref="141016509"/>
    <nd ref="141016512"/>
    <nd ref="141016514"/>
    <nd ref="141016517"/>
    <nd ref="141016518"/>
    <nd ref="141016521"/>
    <nd ref="141016524"/>
    <nd ref="141016529"/>
    <nd ref="141016532"/>
    <nd ref="141016535"/>
    <nd ref="141016538"/>
    <nd ref="141016541"/>
    <nd ref="141016544"/>
    <nd ref="141016547"/>
    <nd ref="140035632"/>
    <nd ref="141016550"/>
    <nd ref="140722255"/>
    <nd ref="141016553"/>
    <nd ref="141016556"/>
    <nd ref="141016559"/>
    <nd ref="141016562"/>
    <nd ref="141016565"/>
    <nd ref="141016569"/>
    <nd ref="141016571"/>
    <nd ref="141016572"/>
    <nd ref="141016573"/>
    <nd ref="141016575"/>
    <nd ref="141016576"/>
    <nd ref="141016579"/>
    <nd ref="141016582"/>
    <nd ref="141016585"/>
    <nd ref="141016588"/>
    <nd ref="141016591"/>
    <nd ref="141016593"/>
    <nd ref="140722269"/>
    <nd ref="141016595"/>
    <nd ref="141016596"/>
    <nd ref="141016597"/>
    <nd ref="141016599"/>
    <nd ref="141016601"/>
    <nd ref="141016603"/>
    <nd ref="141016606"/>
    <nd ref="141016608"/>
    <nd ref="141016609"/>
    <nd ref="141016612"/>
    <nd ref="141016614"/>
    <nd ref="141016617"/>
    <nd ref="141016620"/>
    <nd ref="141016623"/>
    <nd ref="141016627"/>
    <nd ref="141016630"/>
    <nd ref="141016633"/>
    <nd ref="141016635"/>
    <nd ref="141016636"/>
    <nd ref="141016637"/>
    <nd ref="141016639"/>
    <nd ref="141016642"/>
    <nd ref="141016645"/>
    <nd ref="141016647"/>
    <nd ref="141016649"/>
    <nd ref="141016650"/>
    <nd ref="141016651"/>
    <nd ref="141016654"/>
    <nd ref="141016656"/>
    <nd ref="141016659"/>
    <nd ref="141016662"/>
    <nd ref="141016665"/>
    <nd ref="141016668"/>
    <nd ref="141016669"/>
    <nd ref="141016671"/>
    <nd ref="141016673"/>
    <nd ref="141016677"/>
    <nd ref="141016680"/>
    <nd ref="141016683"/>
    <nd ref="141016687"/>
    <nd ref="141016690"/>
    <nd ref="141016693"/>
    <nd ref="141016696"/>
    <nd ref="141016699"/>
    <nd ref="141016702"/>
    <nd ref="141016705"/>
    <nd ref="141016707"/>
    <nd ref="141016710"/>
    <nd ref="141016713"/>
    <nd ref="141016716"/>
    <nd ref="141016719"/>
    <nd ref="141016722"/>
    <nd ref="141016725"/>
    <nd ref="141016728"/>
    <nd ref="141016730"/>
    <nd ref="141016735"/>
    <nd ref="141016737"/>
    <nd ref="141016739"/>
    <nd ref="141016742"/>
    <nd ref="141016745"/>
    <nd ref="141016748"/>
    <nd ref="141016751"/>
    <nd ref="141016754"/>
    <nd ref="141016757"/>
    <nd ref="141016758"/>
    <nd ref="141016760"/>
    <nd ref="141016762"/>
    <nd ref="141016764"/>
    <nd ref="141016766"/>
    <nd ref="140891395"/>
    <nd ref="141016768"/>
    <nd ref="141016770"/>
    <nd ref="141016771"/>
    <nd ref="141016774"/>
    <nd ref="141016777"/>
    <nd ref="141016780"/>
    <nd ref="141016782"/>
    <nd ref="141016785"/>
    <nd ref="141016788"/>
    <nd ref="141016791"/>
    <nd ref="141016794"/>
    <nd ref="141016797"/>
    <nd ref="141016800"/>
    <nd ref="141016804"/>
    <nd ref="141016807"/>
    <nd ref="141016809"/>
    <nd ref="141016811"/>
    <nd ref="141016814"/>
    <nd ref="141016816"/>
    <nd ref="141016818"/>
    <nd ref="141016820"/>
    <nd ref="141016823"/>
    <nd ref="141016825"/>
    <nd ref="141016826"/>
    <nd ref="141016828"/>
    <nd ref="141016829"/>
    <nd ref="141016830"/>
    <nd ref="141016832"/>
    <nd ref="141016834"/>
    <nd ref="141016835"/>
    <nd ref="141016837"/>
    <nd ref="141016841"/>
    <nd ref="141016845"/>
    <nd ref="141016846"/>
    <nd ref="141016849"/>
    <nd ref="141016852"/>
    <nd ref="141016855"/>
    <nd ref="141016858"/>
    <nd ref="141016861"/>
    <nd ref="141016864"/>
    <nd ref="141016867"/>
    <nd ref="141016870"/>
    <nd ref="141016875"/>
    <nd ref="141016878"/>
    <nd ref="141016881"/>
    <nd ref="141016884"/>
    <nd ref="141016887"/>
    <nd ref="141016890"/>
    <nd ref="141016894"/>
    <nd ref="141016897"/>
    <nd ref="141016899"/>
    <nd ref="141016901"/>
    <nd ref="141016903"/>
    <nd ref="141016905"/>
    <nd ref="141016907"/>
    <nd ref="141016909"/>
    <nd ref="141016911"/>
    <nd ref="141016913"/>
    <nd ref="141016915"/>
    <nd ref="141016917"/>
    <nd ref="140672741"/>
    <nd ref="141016919"/>
    <nd ref="141016921"/>
    <tag k="created_by" v="Potlatch 0.10b"/>
    <tag k="highway" v="secondary"/>
    <tag k="name" v="Ash Meadows Road"/>
    <tag k="name_1" v="Bob Ruud Memorial Highway"/>
    <tag k="tiger:cfcc" v="A41"/>
    <tag k="tiger:county" v="Nye, NV"/>
    <tag k="tiger:name_base" v="Ash Meadows"/>
    <tag k="tiger:name_base_1" v="Bob Ruud Memorial"/>
    <tag k="tiger:name_type" v="Rd"/>
    <tag k="tiger:name_type_1" v="Hwy"/>
    <tag k="tiger:reviewed" v="no"/>
    <tag k="tiger:separated" v="no"/>
    <tag k="tiger:source" v="tiger_import_dch_v0.6_20070828"/>
    <tag k="tiger:tlid" v="140617818:140617819:140523196:140617830:140588129:140617822:140617824:140712807:140712809:140618152:140712843:140712858:140661650:140661652:140722338:140722339:140723522:140598353:140667244:140723324:140598354:140712818:140712848:140618228:140618229:14071"/>
  </way>
  <way id="27321651" version="2" timestamp="2008-10-09T15:36:26Z" uid="30632" user="antblant" changeset="188678">
    <nd ref="299907103"/>
    <nd ref="299907140"/>
    <nd ref="299906773"/>
    <tag k="UMP_Level" v="1"/>
    <tag k="highway" v="residential"/>
    <tag k="name" v="Staniewskiego"/>
    <tag k="source" v="UMP-PL, ./UMP-Poznan/src/SWARZEDZ.ulice.txt"/>
  </way>
  <way id="27321657" version="2" timestamp="2008-10-09T15:36:27Z" uid="30632" user="antblant" changeset="188678">
    <nd ref="299906101"/>
    <nd ref="299906196"/>
    <tag k="UMP_Level" v="1"/>
    <tag k="highway" v="residential"/>
    <tag k="name" v="Wiankowa"/>
    <tag k="source" v="UMP-PL, ./UMP-Poznan/src/SWARZEDZ.ulice.txt"/>
  </way>
  <way id="27321661" version="2" timestamp="2009-08-02T17:16:37Z" uid="20587" user="balrog-kun" changeset="2017141">
    <nd ref="299906994"/>
    <nd ref="299907116"/>
    <nd ref="299907115"/>
    <nd ref="299907096"/>
    <nd ref="299907095"/>
    <nd ref="299907099"/>
    <nd ref="299907098"/>
    <nd ref="299907107"/>
    <nd ref="299907102"/>
    <tag k="highway" v="residential"/>
    <tag k="name" v="Kręta"/>
    <tag k="source" v="UMP-PL, ./UMP-Poznan/src/SWARZEDZ.ulice.txt"/>
    <tag k="surface" v="unpaved"/>
  </way>
  <way id="27321667" version="3" timestamp="2009-08-02T17:16:43Z" uid="20587" user="balrog-kun" changeset="2017141">
    <nd ref="299906837"/>
    <nd ref="299906836"/>
    <nd ref="299906820"/>
    <tag k="highway" v="residential"/>
    <tag k="name" v="Aleksandra Fredry"/>
    <tag k="source" v="UMP-PL, ./UMP-Poznan/src/SWARZEDZ.ulice.txt"/>
    <tag k="surface" v="unpaved"/>
  </way>
  <way id="27321673" version="6" timestamp="2010-11-14T09:13:12Z" uid="201749" user="geoluk" changeset="6364633">
    <nd ref="299906512"/>
    <nd ref="299906432"/>
    <nd ref="299906436"/>
    <nd ref="299906442"/>
    <nd ref="299906478"/>
    <nd ref="299906510"/>
    <nd ref="299906511"/>
    <nd ref="299906528"/>
    <nd ref="299906525"/>
    <nd ref="299906527"/>
    <nd ref="348246450"/>
    <tag k="highway" v="tertiary"/>
    <tag k="name" v="Geremka"/>
    <tag k="source" v="UMP-PL, ./UMP-Poznan/src/SWARZEDZ.ulice.txt"/>
  </way>
  <way id="27321675" version="2" timestamp="2009-08-02T17:16:42Z" uid="20587" user="balrog-kun" changeset="2017141">
    <nd ref="299906989"/>
    <nd ref="299906985"/>
    <tag k="highway" v="residential"/>
    <tag k="name" v="Wawrzyniaka"/>
    <tag k="source" v="UMP-PL, ./UMP-Poznan/src/SWARZEDZ.ulice.txt"/>
    <tag k="surface" v="unpaved"/>
  </way>
  <way id="27321678" version="3" timestamp="2009-08-02T17:16:42Z" uid="20587" user="balrog-kun" changeset="2017141">
    <nd ref="299906513"/>
    <nd ref="299906343"/>
    <nd ref="299906375"/>
    <nd ref="299906393"/>
    <tag k="highway" v="residential"/>
    <tag k="name" v="Jana i Jędrzeja Śniadeckich"/>
    <tag k="source" v="UMP-PL, ./UMP-Poznan/src/SWARZEDZ.ulice.txt"/>
    <tag k="surface" v="unpaved"/>
  </way>
  <way id="27321679" version="2" timestamp="2008-10-09T17:02:37Z" uid="30632" user="antblant" changeset="188678">
    <nd ref="299906429"/>
    <nd ref="299906422"/>
    <nd ref="299906434"/>
    <tag k="highway" v="unclassified"/>
    <tag k="name" v="Plac Zielony"/>
    <tag k="source" v="UMP-PL, ./UMP-Poznan/src/SWARZEDZ.ulice.txt"/>
    <tag k="surface" v="unpaved"/>
  </way>
  <way id="27321680" version="3" timestamp="2009-08-02T17:16:41Z" uid="20587" user="balrog-kun" changeset="2017141">
    <nd ref="299906987"/>
    <nd ref="299906981"/>
    <nd ref="299906983"/>
    <nd ref="299906985"/>
    <tag k="highway" v="residential"/>
    <tag k="name" v="Piotra Skargi"/>
    <tag k="source" v="UMP-PL, ./UMP-Poznan/src/SWARZEDZ.ulice.txt"/>
    <tag k="surface" v="unpaved"/>
  </way>
  <way id="27321699" version="2" timestamp="2009-08-02T04:12:43Z" uid="20587" user="balrog-kun" changeset="2009571">
    <nd ref="299906968"/>
    <nd ref="299906974"/>
    <tag k="highway" v="unclassified"/>
    <tag k="name" v="Generała Tadeusza Kutrzeby"/>
    <tag k="source" v="UMP-PL, ./UMP-Poznan/src/SWARZEDZ.ulice.txt"/>
    <tag k="surface" v="unpaved"/>
  </way>
  <way id="27321699" version="3" timestamp="2009-08-02T17:16:41Z" uid="20587" user="balrog-kun" changeset="2017141">
    <nd ref="299906968"/>
    <nd ref="299906974"/>
    <tag k="highway" v="residential"/>
    <tag k="name" v="Generała Tadeusza Kutrzeby"/>
    <tag k="source" v="UMP-PL, ./UMP-Poznan/src/SWARZEDZ.ulice.txt"/>
    <tag k="surface" v="unpaved"/>
  </way>
  <way id="27321714" version="2" timestamp="2009-08-02T04:12:44Z" uid="20587" user="balrog-kun" changeset="2009571">
    <nd ref="299906972"/>
    <nd ref="299906969"/>
    <nd ref="299906968"/>
    <nd ref="299907036"/>
    <tag k="highway" v="unclassified"/>
    <tag k="name" v="Generała Tadeusza Kutrzeby"/>
    <tag k="source" v="UMP-PL, ./UMP-Poznan/src/SWARZEDZ.ulice.txt"/>
    <tag k="surface" v="unpaved"/>
  </way>
  <way id="27321714" version="3" timestamp="2009-08-02T17:16:44Z" uid="20587" user="balrog-kun" changeset="2017141">
    <nd ref="299906972"/>
    <nd ref="299906969"/>
    <nd ref="299906968"/>
    <nd ref="299907036"/>
    <tag k="highway" v="residential"/>
    <tag k="name" v="Generała Tadeusza Kutrzeby"/>
    <tag k="source" v="UMP-PL, ./UMP-Poznan/src/SWARZEDZ.ulice.txt"/>
    <tag k="surface" v="unpaved"/>
  </way>
  <way id="27321716" version="2" timestamp="2008-10-09T17:02:37Z" uid="30632" user="antblant" changeset="188678">
    <nd ref="299906845"/>
    <nd ref="299906768"/>
    <nd ref="299906769"/>
    <nd ref="299906814"/>
    <tag k="highway" v="unclassified"/>
    <tag k="name" v="Kolonia Zachodnia"/>
    <tag k="source" v="UMP-PL, ./UMP-Poznan/src/SWARZEDZ.ulice.txt"/>
    <tag k="surface" v="unpaved"/>
  </way>
  <way id="27321729" version="2" timestamp="2009-08-02T17:16:40Z" uid="20587" user="balrog-kun" changeset="2017141">
    <nd ref="299907086"/>
    <nd ref="299907181"/>
    <nd ref="299907182"/>
    <nd ref="299907178"/>
    <nd ref="299907179"/>
    <tag k="highway" v="residential"/>
    <tag k="name" v="Warsztatowa"/>
    <tag k="source" v="UMP-PL, ./UMP-Poznan/src/SWARZEDZ.ulice.txt"/>
    <tag k="surface" v="unpaved"/>
  </way>
  <way id="27321730" version="2" timestamp="2008-10-09T15:36:27Z" uid="30632" user="antblant" changeset="188678">
    <nd ref="299906146"/>
    <nd ref="299906147"/>
    <nd ref="299906159"/>
    <tag k="UMP_Level" v="1"/>
    <tag k="highway" v="residential"/>
    <tag k="name" v="Bramkowa"/>
    <tag k="source" v="UMP-PL, ./UMP-Poznan/src/SWARZEDZ.ulice.txt"/>
  </way>
  <way id="27321742" version="4" timestamp="2009-08-02T04:12:44Z" uid="20587" user="balrog-kun" changeset="2009571">
    <nd ref="299906535"/>
    <nd ref="299906540"/>
    <nd ref="299906538"/>
    <tag k="highway" v="residential"/>
    <tag k="name" v="Miodowa"/>
    <tag k="source" v="UMP-PL, ./UMP-Poznan/src/SWARZEDZ.ulice.txt"/>
  </way>
  <way id="27321776" version="3" timestamp="2009-08-02T17:16:44Z" uid="20587" user="balrog-kun" changeset="2017141">
    <nd ref="299906577"/>
    <nd ref="363684683"/>
    <nd ref="238530639"/>
    <tag k="highway" v="residential"/>
    <tag k="source" v="UMP-PL, ./UMP-Poznan/src/SWARZEDZ.ulice.txt"/>
    <tag k="surface" v="unpaved"/>
  </way>
  <way id="27321798" version="3" timestamp="2009-08-02T04:12:43Z" uid="20587" user="balrog-kun" changeset="2009571">
    <nd ref="299906088"/>
    <nd ref="299906134"/>
    <nd ref="299906133"/>
    <nd ref="299906132"/>
    <nd ref="299906131"/>
    <nd ref="299906140"/>
    <nd ref="299906141"/>
    <nd ref="299906142"/>
    <nd ref="299906143"/>
    <nd ref="299906135"/>
    <tag k="highway" v="tertiary"/>
    <tag k="name" v="Święty Marcin"/>
    <tag k="source" v="UMP-PL, ./UMP-Poznan/src/SWARZEDZ.ulice.txt"/>
  </way>
  <way id="27321814" version="4" timestamp="2010-07-28T11:13:32Z" uid="201749" user="geoluk" changeset="5336954">
    <nd ref="299906259"/>
    <nd ref="126152077"/>
    <tag k="highway" v="tertiary"/>
    <tag k="source" v="UMP-PL, ./UMP-Poznan/src/SWARZEDZ.ulice.txt"/>
  </way>
  <way id="27321856" version="2" timestamp="2008-10-09T15:36:28Z" uid="30632" user="antblant" changeset="188678">
    <nd ref="299906952"/>
    <nd ref="299906876"/>
    <nd ref="299906871"/>
    <nd ref="299906872"/>
    <tag k="highway" v="unclassified"/>
    <tag k="name" v="Plociennicza"/>
    <tag k="source" v="UMP-PL, ./UMP-Poznan/src/SWARZEDZ.ulice.txt"/>
    <tag k="surface" v="unpaved"/>
  </way>
  <way id="27321861" version="4" timestamp="2010-11-28T08:22:16Z" uid="201749" user="geoluk" changeset="6475837">
    <nd ref="299906287"/>
    <nd ref="299906294"/>
    <nd ref="299906281"/>
    <nd ref="299906282"/>
    <nd ref="299906278"/>
    <nd ref="299906280"/>
    <nd ref="927145478"/>
    <nd ref="299906285"/>
    <nd ref="299906286"/>
    <nd ref="299906283"/>
    <nd ref="299906284"/>
    <nd ref="1010321412"/>
    <nd ref="299906314"/>
    <nd ref="299906313"/>
    <nd ref="299906316"/>
    <nd ref="299906315"/>
    <nd ref="299906309"/>
    <nd ref="299906298"/>
    <tag k="highway" v="residential"/>
    <tag k="name" v="Osiedle Czwartaków"/>
    <tag k="source" v="UMP-PL, ./UMP-Poznan/src/SWARZEDZ.ulice.txt"/>
  </way>
  <way id="27321872" version="3" timestamp="2009-08-02T17:16:43Z" uid="20587" user="balrog-kun" changeset="2017141">
    <nd ref="299906849"/>
    <nd ref="299906886"/>
    <nd ref="299906888"/>
    <nd ref="299906885"/>
    <nd ref="299906883"/>
    <nd ref="299906896"/>
    <tag k="highway" v="residential"/>
    <tag k="name" v="Generała Józefa Wybickiego"/>
    <tag k="source" v="UMP-PL, ./UMP-Poznan/src/SWARZEDZ.ulice.txt"/>
    <tag k="surface" v="unpaved"/>
  </way>
  <way id="27321886" version="3" timestamp="2009-08-02T17:16:38Z" uid="20587" user="balrog-kun" changeset="2017141">
    <nd ref="299906823"/>
    <nd ref="299906907"/>
    <nd ref="299906906"/>
    <nd ref="299906905"/>
    <nd ref="299906889"/>
    <tag k="highway" v="residential"/>
    <tag k="name" v="Józefa Chełmońskiego"/>
    <tag k="source" v="UMP-PL, ./UMP-Poznan/src/SWARZEDZ.ulice.txt"/>
    <tag k="surface" v="unpaved"/>
  </way>
  <way id="27321888" version="2" timestamp="2008-10-09T15:36:28Z" uid="30632" user="antblant" changeset="188678">
    <nd ref="299906154"/>
    <nd ref="299906265"/>
    <tag k="UMP_Level" v="1"/>
    <tag k="highway" v="residential"/>
    <tag k="name" v="Gorkow"/>
    <tag k="source" v="UMP-PL, ./UMP-Poznan/src/SWARZEDZ.ulice.txt"/>
  </way>
  <way id="27321889" version="2" timestamp="2008-10-09T15:36:29Z" uid="30632" user="antblant" changeset="188678">
    <nd ref="299906905"/>
    <nd ref="299906904"/>
    <nd ref="299906892"/>
    <tag k="highway" v="unclassified"/>
    <tag k="name" v="Wyczolowskiego"/>
    <tag k="source" v="UMP-PL, ./UMP-Poznan/src/SWARZEDZ.ulice.txt"/>
    <tag k="surface" v="unpaved"/>
  </way>
  <way id="27321889" version="3" timestamp="2009-08-02T17:16:42Z" uid="20587" user="balrog-kun" changeset="2017141">
    <nd ref="299906905"/>
    <nd ref="299906904"/>
    <nd ref="299906892"/>
    <tag k="highway" v="residential"/>
    <tag k="name" v="Wyczolowskiego"/>
    <tag k="source" v="UMP-PL, ./UMP-Poznan/src/SWARZEDZ.ulice.txt"/>
    <tag k="surface" v="unpaved"/>
  </way>
  <way id="27321892" version="2" timestamp="2009-08-02T17:16:43Z" uid="20587" user="balrog-kun" changeset="2017141">
    <nd ref="299906907"/>
    <nd ref="299906902"/>
    <tag k="highway" v="residential"/>
    <tag k="name" v="Kossaka"/>
    <tag k="source" v="UMP-PL, ./UMP-Poznan/src/SWARZEDZ.ulice.txt"/>
    <tag k="surface" v="unpaved"/>
  </way>
  <way id="27321896" version="2" timestamp="2009-08-02T17:16:40Z" uid="20587" user="balrog-kun" changeset="2017141">
    <nd ref="299906892"/>
    <nd ref="299906829"/>
    <nd ref="299907023"/>
    <nd ref="299907022"/>
    <nd ref="299907026"/>
    <tag k="highway" v="residential"/>
    <tag k="name" v="Spokojna"/>
    <tag k="source" v="UMP-PL, ./UMP-Poznan/src/SWARZEDZ.ulice.txt"/>
    <tag k="surface" v="unpaved"/>
  </way>
  <way id="27321918" version="3" timestamp="2009-08-02T17:16:40Z" uid="20587" user="balrog-kun" changeset="2017141">
    <nd ref="299907167"/>
    <nd ref="299907155"/>
    <nd ref="299907156"/>
    <tag k="highway" v="residential"/>
    <tag k="source" v="UMP-PL, ./UMP-Poznan/src/SWARZEDZ.ulice.txt"/>
    <tag k="surface" v="unpaved"/>
  </way>
  <way id="27321919" version="2" timestamp="2009-08-02T17:16:41Z" uid="20587" user="balrog-kun" changeset="2017141">
    <nd ref="299906821"/>
    <nd ref="299907011"/>
    <nd ref="299907010"/>
    <tag k="highway" v="residential"/>
    <tag k="name" v="Łąkowa"/>
    <tag k="source" v="UMP-PL, ./UMP-Poznan/src/SWARZEDZ.ulice.txt"/>
    <tag k="surface" v="unpaved"/>
  </way>
  <way id="27321923" version="6" timestamp="2010-02-04T13:54:09Z" uid="201749" user="geoluk" changeset="3790456">
    <nd ref="299906839"/>
    <nd ref="299907014"/>
    <nd ref="299907013"/>
    <nd ref="299907010"/>
    <tag k="highway" v="residential"/>
    <tag k="name" v="Kórnicka"/>
    <tag k="source" v="UMP-PL, ./UMP-Poznan/src/SWARZEDZ.ulice.txt"/>
  </way>
  <way id="27321953" version="1" timestamp="2008-09-26T06:25:11Z" uid="43863" user="Rundling" changeset="698643">
    <nd ref="299907480"/>
    <nd ref="299907483"/>
    <nd ref="299907479"/>
    <nd ref="299907481"/>
    <nd ref="299907480"/>
    <tag k="addr:city" v="Rosche"/>
    <tag k="addr:housenumber" v="22"/>
    <tag k="addr:postcode" v="29571"/>
    <tag k="addr:street" v="Uelzener Straße"/>
    <tag k="building" v="yes"/>
    <tag k="created_by" v="Merkaartor 0.11"/>
  </way>
  <way id="27321954" version="1" timestamp="2008-09-26T06:25:11Z" uid="43863" user="Rundling" changeset="698643">
    <nd ref="299907484"/>
    <nd ref="299907487"/>
    <nd ref="299907486"/>
    <nd ref="299907485"/>
    <nd ref="299907484"/>
    <tag k="addr:city" v="Rosche"/>
    <tag k="addr:housenumber" v="20"/>
    <tag k="addr:postcode" v="29571"/>
    <tag k="addr:street" v="Uelzener Straße"/>
    <tag k="building" v="yes"/>
    <tag k="created_by" v="Merkaartor 0.11"/>
  </way>
  <way id="27321955" version="1" timestamp="2008-09-26T06:25:11Z" uid="43863" user="Rundling" changeset="698643">
    <nd ref="299907488"/>
    <nd ref="299907492"/>
    <nd ref="299907490"/>
    <nd ref="299907489"/>
    <nd ref="299907488"/>
    <tag k="addr:city" v="Rosche"/>
    <tag k="addr:housenumber" v="18"/>
    <tag k="addr:postcode" v="29571"/>
    <tag k="addr:street" v="Uelzener Straße"/>
    <tag k="building" v="yes"/>
    <tag k="created_by" v="Merkaartor 0.11"/>
  </way>
  <way id="27321956" version="1" timestamp="2008-09-26T06:25:11Z" uid="43863" user="Rundling" changeset="698643">
    <nd ref="299907493"/>
    <nd ref="299907496"/>
    <nd ref="299907495"/>
    <nd ref="299907494"/>
    <nd ref="299907493"/>
    <tag k="addr:city" v="Rosche"/>
    <tag k="addr:housenumber" v="16"/>
    <tag k="addr:postcode" v="29571"/>
    <tag k="addr:street" v="Uelzener Straße"/>
    <tag k="building" v="yes"/>
    <tag k="created_by" v="Merkaartor 0.11"/>
  </way>
  <way id="27321956" version="2" timestamp="2009-02-18T09:15:06Z" uid="43863" user="Rundling" changeset="526632">
    <nd ref="299907493"/>
    <nd ref="299907496"/>
    <nd ref="299907495"/>
    <nd ref="299907494"/>
    <nd ref="299907493"/>
    <tag k="building" v="yes"/>
    <tag k="created_by" v="Merkaartor 0.11"/>
  </way>
  <way id="27321956" version="3" timestamp="2011-03-20T10:21:00Z" uid="43863" user="Rundling" changeset="7614550"/>
  <way id="27321957" version="1" timestamp="2008-09-26T06:25:12Z" uid="43863" user="Rundling" changeset="698643">
    <nd ref="299907498"/>
    <nd ref="299907501"/>
    <nd ref="299907500"/>
    <nd ref="299907499"/>
    <nd ref="299907498"/>
    <tag k="addr:city" v="Rosche"/>
    <tag k="addr:housenumber" v="14"/>
    <tag k="addr:postcode" v="29571"/>
    <tag k="addr:street" v="Uelzener Straße"/>
    <tag k="building" v="yes"/>
    <tag k="created_by" v="Merkaartor 0.11"/>
  </way>
  <way id="27321957" version="2" timestamp="2009-02-08T18:12:45Z" uid="43863" user="Rundling" changeset="278556"/>
  <way id="27321963" version="1" timestamp="2008-09-26T06:26:42Z" uid="43863" user="Rundling" changeset="698643">
    <nd ref="299907757"/>
    <nd ref="299907762"/>
    <nd ref="299907761"/>
    <nd ref="299907759"/>
    <nd ref="299907757"/>
    <tag k="addr:city" v="Rosche"/>
    <tag k="addr:housenumber" v="15"/>
    <tag k="addr:postcode" v="29571"/>
    <tag k="addr:street" v="Uelzener Straße"/>
    <tag k="building" v="yes"/>
    <tag k="created_by" v="Merkaartor 0.11"/>
  </way>
  <way id="27321963" version="2" timestamp="2008-09-28T09:17:26Z" uid="43863" user="Rundling" changeset="713017"/>
  <way id="27321964" version="1" timestamp="2008-09-26T06:26:42Z" uid="43863" user="Rundling" changeset="698643">
    <nd ref="299907764"/>
    <nd ref="299907768"/>
    <nd ref="299907766"/>
    <nd ref="299907765"/>
    <nd ref="299907764"/>
    <tag k="addr:city" v="Rosche"/>
    <tag k="addr:housenumber" v="13"/>
    <tag k="addr:postcode" v="29571"/>
    <tag k="addr:street" v="Uelzener Straße"/>
    <tag k="building" v="yes"/>
    <tag k="created_by" v="Merkaartor 0.11"/>
  </way>
  <way id="27321964" version="2" timestamp="2008-09-28T09:17:26Z" uid="43863" user="Rundling" changeset="713017"/>
  <way id="27321992" version="1" timestamp="2008-09-26T06:30:55Z" uid="43863" user="Rundling" changeset="698643">
    <nd ref="299909079"/>
    <nd ref="299909085"/>
    <nd ref="299909083"/>
    <nd ref="299909081"/>
    <nd ref="299909079"/>
    <tag k="addr:city" v="Rosche"/>
    <tag k="addr:housenumber" v="1"/>
    <tag k="addr:postcode" v="29571"/>
    <tag k="addr:street" v="Wiesengrund"/>
    <tag k="building" v="yes"/>
    <tag k="created_by" v="Merkaartor 0.11"/>
  </way>
  <way id="27321993" version="1" timestamp="2008-09-26T06:30:55Z" uid="43863" user="Rundling" changeset="698643">
    <nd ref="299909088"/>
    <nd ref="299909086"/>
    <nd ref="299909091"/>
    <nd ref="299909090"/>
    <nd ref="299909088"/>
    <tag k="addr:city" v="Rosche"/>
    <tag k="addr:housenumber" v="2"/>
    <tag k="addr:postcode" v="29571"/>
    <tag k="addr:street" v="Wiesengrund"/>
    <tag k="building" v="yes"/>
    <tag k="created_by" v="Merkaartor 0.11"/>
  </way>
  <way id="27321993" version="2" timestamp="2011-02-27T17:45:59Z" uid="43863" user="Rundling" changeset="7413334">
    <nd ref="299909091"/>
    <nd ref="1177507706"/>
    <nd ref="1177507847"/>
    <nd ref="1177507925"/>
    <nd ref="299909091"/>
    <tag k="addr:city" v="Rosche"/>
    <tag k="addr:housenumber" v="2"/>
    <tag k="addr:postcode" v="29571"/>
    <tag k="addr:street" v="Wiesengrund"/>
    <tag k="building" v="yes"/>
  </way>
  <way id="27321994" version="1" timestamp="2008-09-26T06:30:55Z" uid="43863" user="Rundling" changeset="698643">
    <nd ref="299909093"/>
    <nd ref="299909097"/>
    <nd ref="299909095"/>
    <nd ref="299909098"/>
    <nd ref="299909093"/>
    <tag k="addr:city" v="Rosche"/>
    <tag k="addr:housenumber" v="3"/>
    <tag k="addr:postcode" v="29571"/>
    <tag k="addr:street" v="Wiesengrund"/>
    <tag k="building" v="yes"/>
    <tag k="created_by" v="Merkaartor 0.11"/>
  </way>
  <way id="27321995" version="1" timestamp="2008-09-26T06:30:55Z" uid="43863" user="Rundling" changeset="698643">
    <nd ref="299909100"/>
    <nd ref="299909103"/>
    <nd ref="299909102"/>
    <nd ref="299909105"/>
    <nd ref="299909100"/>
    <tag k="addr:city" v="Rosche"/>
    <tag k="addr:housenumber" v="4"/>
    <tag k="addr:postcode" v="29571"/>
    <tag k="addr:street" v="Wiesengrund"/>
    <tag k="building" v="yes"/>
    <tag k="created_by" v="Merkaartor 0.11"/>
  </way>
  <way id="27321999" version="2" timestamp="2008-10-06T22:52:22Z" uid="30632" user="antblant" changeset="125062">
    <nd ref="299909106"/>
    <nd ref="299908365"/>
    <nd ref="299908523"/>
    <nd ref="299908534"/>
    <nd ref="299908384"/>
    <nd ref="299908491"/>
    <nd ref="299908381"/>
    <nd ref="299908404"/>
    <nd ref="299909104"/>
    <nd ref="299909101"/>
    <nd ref="299908358"/>
    <tag k="highway" v="tertiary"/>
    <tag k="name" v="Kaliska"/>
    <tag k="source" v="UMP-PL, ./UMP-Poznan/src/WRZESNIA.ulice.txt"/>
  </way>
</osm>
