<?xml version='1.0' encoding='UTF-8'?>
<osm version="0.6" generator="libosmium/2.20.0">
  <way id="27322000" version="2" timestamp="2008-10-06T22:52:31Z" uid="30632" user="antblant" changeset="125062">
    <nd ref="299908523"/>
    <nd ref="299908529"/>
    <nd ref="299908522"/>
    <tag k="highway" v="residential"/>
    <tag k="name" v="Legnicka"/>
    <tag k="source" v="UMP-PL, ./UMP-Poznan/src/WRZESNIA.ulice.txt"/>
  </way>
  <way id="27322003" version="2" timestamp="2009-04-29T14:44:41Z" uid="30632" user="antblant" changeset="1016205"/>
  <way id="27322004" version="2" timestamp="2008-10-06T22:52:27Z" uid="30632" user="antblant" changeset="125062">
    <nd ref="299908528"/>
    <nd ref="299908529"/>
    <tag k="highway" v="residential"/>
    <tag k="name" v="Wałbrzyska"/>
    <tag k="source" v="UMP-PL, ./UMP-Poznan/src/WRZESNIA.ulice.txt"/>
  </way>
  <way id="27322007" version="2" timestamp="2008-10-06T22:52:28Z" uid="30632" user="antblant" changeset="125062">
    <nd ref="299908788"/>
    <nd ref="299908791"/>
    <nd ref="299909096"/>
    <tag k="highway" v="residential"/>
    <tag k="name" v="Dzieci Wrzesińskich"/>
    <tag k="source" v="UMP-PL, ./UMP-Poznan/src/WRZESNIA.ulice.txt"/>
  </way>
  <way id="27322012" version="2" timestamp="2008-10-06T22:52:34Z" uid="30632" user="antblant" changeset="125062">
    <nd ref="299909096"/>
    <nd ref="299909094"/>
    <nd ref="299909092"/>
    <nd ref="299909107"/>
    <tag k="highway" v="residential"/>
    <tag k="name" v="Rzeczna"/>
    <tag k="source" v="UMP-PL, ./UMP-Poznan/src/WRZESNIA.ulice.txt"/>
  </way>
  <way id="27322015" version="2" timestamp="2008-10-06T22:52:35Z" uid="30632" user="antblant" changeset="125062">
    <nd ref="299908803"/>
    <nd ref="299908789"/>
    <tag k="highway" v="residential"/>
    <tag k="name" v="Rynek"/>
    <tag k="source" v="UMP-PL, ./UMP-Poznan/src/WRZESNIA.ulice.txt"/>
  </way>
  <way id="27322017" version="2" timestamp="2008-10-06T22:52:01Z" uid="30632" user="antblant" changeset="125062">
    <nd ref="299908534"/>
    <nd ref="299908533"/>
    <nd ref="299908528"/>
    <nd ref="299908527"/>
    <nd ref="299908530"/>
    <tag k="highway" v="residential"/>
    <tag k="name" v="Gliwicka"/>
    <tag k="source" v="UMP-PL, ./UMP-Poznan/src/WRZESNIA.ulice.txt"/>
  </way>
  <way id="27322018" version="2" timestamp="2008-10-06T22:52:01Z" uid="30632" user="antblant" changeset="125062">
    <nd ref="299908802"/>
    <nd ref="299908789"/>
    <tag k="highway" v="footway"/>
    <tag k="name" v="Rynek"/>
    <tag k="source" v="UMP-PL, ./UMP-Poznan/src/WRZESNIA.ulice.txt"/>
  </way>
  <way id="27322019" version="2" timestamp="2008-10-06T22:52:01Z" uid="30632" user="antblant" changeset="125062">
    <nd ref="299908520"/>
    <nd ref="299908561"/>
    <tag k="highway" v="residential"/>
    <tag k="name" v="3 MAJA"/>
    <tag k="source" v="UMP-PL, ./UMP-Poznan/src/WRZESNIA.ulice.txt"/>
  </way>
  <way id="27322019" version="3" timestamp="2008-10-09T17:02:38Z" uid="30632" user="antblant" changeset="188678">
    <nd ref="299908520"/>
    <nd ref="299908561"/>
    <tag k="highway" v="residential"/>
    <tag k="name" v="3 Maja"/>
    <tag k="source" v="UMP-PL, ./UMP-Poznan/src/WRZESNIA.ulice.txt"/>
  </way>
  <way id="27322020" version="2" timestamp="2008-10-06T22:52:00Z" uid="30632" user="antblant" changeset="125062">
    <nd ref="299909272"/>
    <nd ref="299909213"/>
    <nd ref="299909212"/>
    <nd ref="299909210"/>
    <nd ref="299909209"/>
    <nd ref="299909208"/>
    <tag k="highway" v="residential"/>
    <tag k="name" v="Jagodowa"/>
    <tag k="source" v="UMP-PL, ./UMP-Poznan/src/WRZESNIA.ulice.txt"/>
  </way>
  <way id="27322021" version="2" timestamp="2008-10-06T22:52:00Z" uid="30632" user="antblant" changeset="125062">
    <nd ref="299908506"/>
    <nd ref="299908492"/>
    <nd ref="299908532"/>
    <nd ref="299908531"/>
    <tag k="highway" v="residential"/>
    <tag k="name" v="Dolnośląska"/>
    <tag k="source" v="UMP-PL, ./UMP-Poznan/src/WRZESNIA.ulice.txt"/>
  </way>
  <way id="27322023" version="2" timestamp="2008-10-06T22:51:59Z" uid="30632" user="antblant" changeset="125062">
    <nd ref="299908803"/>
    <nd ref="299908788"/>
    <tag k="highway" v="footway"/>
    <tag k="name" v="Rynek"/>
    <tag k="source" v="UMP-PL, ./UMP-Poznan/src/WRZESNIA.ulice.txt"/>
  </way>
  <way id="27322024" version="2" timestamp="2008-10-06T22:52:05Z" uid="30632" user="antblant" changeset="125062">
    <nd ref="299908559"/>
    <nd ref="299908560"/>
    <nd ref="299908517"/>
    <tag k="highway" v="residential"/>
    <tag k="name" v="Harcerska"/>
    <tag k="source" v="UMP-PL, ./UMP-Poznan/src/WRZESNIA.ulice.txt"/>
  </way>
  <way id="27322025" version="2" timestamp="2009-04-29T14:44:40Z" uid="30632" user="antblant" changeset="1016205">
    <nd ref="299908525"/>
    <nd ref="299909128"/>
    <nd ref="299908355"/>
    <nd ref="299909129"/>
    <nd ref="299909126"/>
    <nd ref="299909127"/>
    <nd ref="299909106"/>
    <nd ref="299909133"/>
    <nd ref="299908525"/>
    <tag k="highway" v="tertiary"/>
    <tag k="junction" v="roundabout"/>
    <tag k="source" v="UMP-PL, ./UMP-Poznan/src/WRZESNIA.ulice.txt"/>
  </way>
  <way id="27322026" version="2" timestamp="2008-10-06T22:52:04Z" uid="30632" user="antblant" changeset="125062">
    <nd ref="299908515"/>
    <nd ref="299908514"/>
    <tag k="highway" v="residential"/>
    <tag k="name" v="Mazurska"/>
    <tag k="source" v="UMP-PL, ./UMP-Poznan/src/WRZESNIA.ulice.txt"/>
  </way>
  <way id="27322027" version="2" timestamp="2008-10-06T22:52:05Z" uid="30632" user="antblant" changeset="125062">
    <nd ref="299908350"/>
    <nd ref="299908802"/>
    <tag k="highway" v="residential"/>
    <tag k="name" v="Mickiewicza"/>
    <tag k="source" v="UMP-PL, ./UMP-Poznan/src/WRZESNIA.ulice.txt"/>
  </way>
  <way id="27322028" version="2" timestamp="2008-10-06T22:52:03Z" uid="30632" user="antblant" changeset="125062">
    <nd ref="299908525"/>
    <nd ref="299908524"/>
    <nd ref="299908518"/>
    <nd ref="299908517"/>
    <nd ref="299908521"/>
    <nd ref="299908520"/>
    <nd ref="299908557"/>
    <tag k="highway" v="tertiary"/>
    <tag k="name" v="Opieszyn"/>
    <tag k="source" v="UMP-PL, ./UMP-Poznan/src/WRZESNIA.ulice.txt"/>
  </way>
  <way id="27322029" version="2" timestamp="2008-10-06T22:52:04Z" uid="30632" user="antblant" changeset="125062">
    <nd ref="299908504"/>
    <nd ref="299908516"/>
    <tag k="highway" v="residential"/>
    <tag k="name" v="Gorzowska"/>
    <tag k="source" v="UMP-PL, ./UMP-Poznan/src/WRZESNIA.ulice.txt"/>
  </way>
  <way id="27322030" version="2" timestamp="2008-10-06T22:52:02Z" uid="30632" user="antblant" changeset="125062">
    <nd ref="299909001"/>
    <nd ref="299908994"/>
    <nd ref="299908612"/>
    <tag k="highway" v="residential"/>
    <tag k="name" v="Chełmońskiego"/>
    <tag k="source" v="UMP-PL, ./UMP-Poznan/src/WRZESNIA.ulice.txt"/>
  </way>
  <way id="27322034" version="2" timestamp="2008-10-06T22:52:10Z" uid="30632" user="antblant" changeset="125062">
    <nd ref="299908810"/>
    <nd ref="299908797"/>
    <nd ref="299908799"/>
    <nd ref="299908809"/>
    <nd ref="299909108"/>
    <nd ref="299908666"/>
    <tag k="highway" v="residential"/>
    <tag k="name" v="Warszawska"/>
    <tag k="source" v="UMP-PL, ./UMP-Poznan/src/WRZESNIA.ulice.txt"/>
  </way>
  <way id="27322035" version="2" timestamp="2008-10-06T22:52:09Z" uid="30632" user="antblant" changeset="125062">
    <nd ref="299908501"/>
    <nd ref="299908502"/>
    <nd ref="299908507"/>
    <nd ref="299908508"/>
    <nd ref="299908484"/>
    <tag k="highway" v="residential"/>
    <tag k="name" v="Łużycka"/>
    <tag k="source" v="UMP-PL, ./UMP-Poznan/src/WRZESNIA.ulice.txt"/>
  </way>
  <way id="27322037" version="2" timestamp="2008-10-06T22:52:07Z" uid="30632" user="antblant" changeset="125062">
    <nd ref="299908793"/>
    <nd ref="299908794"/>
    <tag k="highway" v="residential"/>
    <tag k="name" v="Ratuszowa"/>
    <tag k="source" v="UMP-PL, ./UMP-Poznan/src/WRZESNIA.ulice.txt"/>
  </way>
  <way id="27322039" version="2" timestamp="2008-10-06T22:52:06Z" uid="30632" user="antblant" changeset="125062">
    <nd ref="299908510"/>
    <nd ref="299908485"/>
    <nd ref="299908514"/>
    <nd ref="299908503"/>
    <nd ref="299908504"/>
    <nd ref="299908501"/>
    <tag k="highway" v="residential"/>
    <tag k="name" v="Świdnicka"/>
    <tag k="source" v="UMP-PL, ./UMP-Poznan/src/WRZESNIA.ulice.txt"/>
  </way>
  <way id="27322040" version="2" timestamp="2008-10-06T22:52:16Z" uid="30632" user="antblant" changeset="125062">
    <nd ref="299908619"/>
    <nd ref="299908624"/>
    <tag k="highway" v="residential"/>
    <tag k="name" v="Wybickiego"/>
    <tag k="source" v="UMP-PL, ./UMP-Poznan/src/WRZESNIA.ulice.txt"/>
  </way>
  <way id="27322041" version="2" timestamp="2008-10-06T22:52:15Z" uid="30632" user="antblant" changeset="125062">
    <nd ref="299908791"/>
    <nd ref="299908792"/>
    <tag k="highway" v="footway"/>
    <tag k="name" v="Laskowskiego"/>
    <tag k="source" v="UMP-PL, ./UMP-Poznan/src/WRZESNIA.ulice.txt"/>
  </way>
  <way id="27322044" version="2" timestamp="2008-10-06T22:52:13Z" uid="30632" user="antblant" changeset="125062">
    <nd ref="299908490"/>
    <nd ref="299908487"/>
    <nd ref="299908515"/>
    <nd ref="299908516"/>
    <nd ref="299908513"/>
    <tag k="highway" v="residential"/>
    <tag k="name" v="Żagańska"/>
    <tag k="source" v="UMP-PL, ./UMP-Poznan/src/WRZESNIA.ulice.txt"/>
  </way>
  <way id="27322045" version="2" timestamp="2008-10-06T22:52:13Z" uid="30632" user="antblant" changeset="125062">
    <nd ref="299908621"/>
    <nd ref="299908618"/>
    <tag k="highway" v="residential"/>
    <tag k="name" v="Słowian"/>
    <tag k="source" v="UMP-PL, ./UMP-Poznan/src/WRZESNIA.ulice.txt"/>
  </way>
  <way id="27322046" version="2" timestamp="2008-10-06T22:52:13Z" uid="30632" user="antblant" changeset="125062">
    <nd ref="299908790"/>
    <nd ref="299908350"/>
    <tag k="highway" v="residential"/>
    <tag k="name" v="Miłosławska"/>
    <tag k="source" v="UMP-PL, ./UMP-Poznan/src/WRZESNIA.ulice.txt"/>
  </way>
  <way id="27322049" version="2" timestamp="2008-10-06T22:52:53Z" uid="30632" user="antblant" changeset="125062">
    <nd ref="299908789"/>
    <nd ref="299908790"/>
    <tag k="highway" v="residential"/>
    <tag k="name" v="Sienkiewicza"/>
    <tag k="source" v="UMP-PL, ./UMP-Poznan/src/WRZESNIA.ulice.txt"/>
  </way>
  <way id="27322050" version="2" timestamp="2008-10-06T22:52:53Z" uid="30632" user="antblant" changeset="125062">
    <nd ref="299908491"/>
    <nd ref="299908490"/>
    <nd ref="299908488"/>
    <nd ref="299908511"/>
    <nd ref="299908512"/>
    <nd ref="299908509"/>
    <nd ref="299908510"/>
    <tag k="highway" v="residential"/>
    <tag k="name" v="Bytomska"/>
    <tag k="source" v="UMP-PL, ./UMP-Poznan/src/WRZESNIA.ulice.txt"/>
  </way>
  <way id="27322052" version="2" timestamp="2008-10-06T22:52:54Z" uid="30632" user="antblant" changeset="125062">
    <nd ref="299908859"/>
    <nd ref="299908858"/>
    <nd ref="299908857"/>
    <nd ref="299908651"/>
    <tag k="highway" v="residential"/>
    <tag k="name" v="Sądowa"/>
    <tag k="source" v="UMP-PL, ./UMP-Poznan/src/WRZESNIA.ulice.txt"/>
  </way>
  <way id="27322053" version="2" timestamp="2008-10-06T22:52:55Z" uid="30632" user="antblant" changeset="125062">
    <nd ref="299908592"/>
    <nd ref="299908616"/>
    <nd ref="299908617"/>
    <nd ref="299908614"/>
    <nd ref="299908615"/>
    <tag k="highway" v="residential"/>
    <tag k="name" v="Kilińskiego"/>
    <tag k="source" v="UMP-PL, ./UMP-Poznan/src/WRZESNIA.ulice.txt"/>
  </way>
  <way id="27322054" version="2" timestamp="2008-10-06T22:52:55Z" uid="30632" user="antblant" changeset="125062">
    <nd ref="299908802"/>
    <nd ref="299908788"/>
    <tag k="highway" v="residential"/>
    <tag k="name" v="Rynek"/>
    <tag k="source" v="UMP-PL, ./UMP-Poznan/src/WRZESNIA.ulice.txt"/>
  </way>
  <way id="27322055" version="2" timestamp="2008-10-06T22:52:56Z" uid="30632" user="antblant" changeset="125062">
    <nd ref="299908404"/>
    <nd ref="299908487"/>
    <nd ref="299908486"/>
    <nd ref="299908485"/>
    <nd ref="299908484"/>
    <nd ref="299908492"/>
    <tag k="highway" v="residential"/>
    <tag k="name" v="Raciborska"/>
    <tag k="source" v="UMP-PL, ./UMP-Poznan/src/WRZESNIA.ulice.txt"/>
  </way>
  <way id="27322056" version="2" timestamp="2008-10-06T22:52:56Z" uid="30632" user="antblant" changeset="125062">
    <nd ref="299909007"/>
    <nd ref="299908995"/>
    <nd ref="299909008"/>
    <nd ref="299909009"/>
    <nd ref="299908917"/>
    <tag k="highway" v="residential"/>
    <tag k="name" v="Witkiewicza"/>
    <tag k="source" v="UMP-PL, ./UMP-Poznan/src/WRZESNIA.ulice.txt"/>
  </way>
  <way id="27322058" version="3" timestamp="2008-10-06T22:52:57Z" uid="30632" user="antblant" changeset="125062">
    <nd ref="299908596"/>
    <nd ref="299908591"/>
    <nd ref="299908592"/>
    <nd ref="299908589"/>
    <nd ref="299908590"/>
    <nd ref="299908587"/>
    <nd ref="299908588"/>
    <nd ref="299908585"/>
    <nd ref="299908586"/>
    <nd ref="299908582"/>
    <nd ref="299908583"/>
    <nd ref="299908580"/>
    <nd ref="299908581"/>
    <nd ref="300706842"/>
    <tag k="highway" v="tertiary"/>
    <tag k="name" v="Kościuszki"/>
    <tag k="source" v="UMP-PL, ./UMP-Poznan/src/WRZESNIA.ulice.txt"/>
  </way>
  <way id="27322059" version="2" timestamp="2008-10-06T22:52:58Z" uid="30632" user="antblant" changeset="125062">
    <nd ref="299908822"/>
    <nd ref="299909116"/>
    <nd ref="299909115"/>
    <nd ref="299909113"/>
    <nd ref="299908561"/>
    <tag k="highway" v="residential"/>
    <tag k="name" v="Chopina"/>
    <tag k="source" v="UMP-PL, ./UMP-Poznan/src/WRZESNIA.ulice.txt"/>
  </way>
  <way id="27322061" version="2" timestamp="2008-10-06T22:52:58Z" uid="30632" user="antblant" changeset="125062">
    <nd ref="299909005"/>
    <nd ref="299909004"/>
    <tag k="highway" v="residential"/>
    <tag k="name" v="Kossaka"/>
    <tag k="source" v="UMP-PL, ./UMP-Poznan/src/WRZESNIA.ulice.txt"/>
  </way>
  <way id="27322062" version="2" timestamp="2008-10-06T22:52:59Z" uid="30632" user="antblant" changeset="125062">
    <nd ref="299908678"/>
    <nd ref="299908862"/>
    <nd ref="299908860"/>
    <tag k="highway" v="residential"/>
    <tag k="name" v="Kościelna"/>
    <tag k="source" v="UMP-PL, ./UMP-Poznan/src/WRZESNIA.ulice.txt"/>
  </way>
  <way id="27322064" version="2" timestamp="2008-10-06T22:52:59Z" uid="30632" user="antblant" changeset="125062">
    <nd ref="299908794"/>
    <nd ref="299909112"/>
    <nd ref="299909099"/>
    <nd ref="299908660"/>
    <tag k="highway" v="residential"/>
    <tag k="name" v="Staszica"/>
    <tag k="source" v="UMP-PL, ./UMP-Poznan/src/WRZESNIA.ulice.txt"/>
  </way>
  <way id="27322067" version="2" timestamp="2008-10-06T22:52:59Z" uid="30632" user="antblant" changeset="125062">
    <nd ref="299908806"/>
    <nd ref="299908795"/>
    <nd ref="299908794"/>
    <tag k="highway" v="residential"/>
    <tag k="name" v="Fabryczna"/>
    <tag k="source" v="UMP-PL, ./UMP-Poznan/src/WRZESNIA.ulice.txt"/>
  </way>
  <way id="27322069" version="2" timestamp="2008-10-06T22:53:00Z" uid="30632" user="antblant" changeset="125062">
    <nd ref="299909021"/>
    <nd ref="299909020"/>
    <nd ref="299908616"/>
    <tag k="highway" v="residential"/>
    <tag k="name" v="Wiewiórowskiego"/>
    <tag k="source" v="UMP-PL, ./UMP-Poznan/src/WRZESNIA.ulice.txt"/>
  </way>
  <way id="27322070" version="2" timestamp="2008-10-06T22:53:00Z" uid="30632" user="antblant" changeset="125062">
    <nd ref="299909176"/>
    <nd ref="299909174"/>
    <nd ref="299909186"/>
    <nd ref="299909185"/>
    <nd ref="299909188"/>
    <nd ref="299909187"/>
    <tag k="highway" v="residential"/>
    <tag k="name" v="Świętokrzyska"/>
    <tag k="source" v="UMP-PL, ./UMP-Poznan/src/WRZESNIA.ulice.txt"/>
  </way>
  <way id="27322073" version="2" timestamp="2008-10-06T22:53:00Z" uid="30632" user="antblant" changeset="125062">
    <nd ref="299908848"/>
    <nd ref="299908847"/>
    <nd ref="299908846"/>
    <nd ref="299908844"/>
    <nd ref="299908845"/>
    <tag k="highway" v="residential"/>
    <tag k="name" v="Kościuszki"/>
    <tag k="source" v="UMP-PL, ./UMP-Poznan/src/WRZESNIA.ulice.txt"/>
  </way>
  <way id="27322075" version="2" timestamp="2008-10-06T22:53:01Z" uid="30632" user="antblant" changeset="125062">
    <nd ref="299909029"/>
    <nd ref="299909176"/>
    <tag k="highway" v="residential"/>
    <tag k="name" v="Kwiatowa"/>
    <tag k="source" v="UMP-PL, ./UMP-Poznan/src/WRZESNIA.ulice.txt"/>
  </way>
  <way id="27322079" version="2" timestamp="2008-10-06T22:53:01Z" uid="30632" user="antblant" changeset="125062">
    <nd ref="299908614"/>
    <nd ref="299909024"/>
    <nd ref="299909023"/>
    <tag k="highway" v="residential"/>
    <tag k="name" v="Bema"/>
    <tag k="source" v="UMP-PL, ./UMP-Poznan/src/WRZESNIA.ulice.txt"/>
  </way>
  <way id="27322081" version="2" timestamp="2008-10-06T22:52:41Z" uid="30632" user="antblant" changeset="125062">
    <nd ref="299908604"/>
    <nd ref="299908602"/>
    <nd ref="299908601"/>
    <nd ref="299908609"/>
    <nd ref="299908608"/>
    <nd ref="299908607"/>
    <nd ref="299908606"/>
    <nd ref="299908613"/>
    <nd ref="299908612"/>
    <nd ref="299908611"/>
    <nd ref="299908610"/>
    <nd ref="299908648"/>
    <nd ref="299908649"/>
    <tag k="highway" v="tertiary"/>
    <tag k="name" v="Kosynierów"/>
    <tag k="source" v="UMP-PL, ./UMP-Poznan/src/WRZESNIA.ulice.txt"/>
  </way>
  <way id="27322082" version="2" timestamp="2008-10-06T22:52:40Z" uid="30632" user="antblant" changeset="125062">
    <nd ref="299908662"/>
    <nd ref="299908853"/>
    <nd ref="299908852"/>
    <nd ref="299908851"/>
    <tag k="highway" v="residential"/>
    <tag k="name" v="Wielkopolska"/>
    <tag k="source" v="UMP-PL, ./UMP-Poznan/src/WRZESNIA.ulice.txt"/>
  </way>
  <way id="27322083" version="2" timestamp="2008-10-06T22:52:41Z" uid="30632" user="antblant" changeset="125062">
    <nd ref="299909070"/>
    <nd ref="299909071"/>
    <nd ref="299909028"/>
    <nd ref="299909026"/>
    <nd ref="299909025"/>
    <tag k="highway" v="residential"/>
    <tag k="name" v="Dąbrowskiego"/>
    <tag k="source" v="UMP-PL, ./UMP-Poznan/src/WRZESNIA.ulice.txt"/>
  </way>
  <way id="27322084" version="2" timestamp="2008-10-06T22:52:43Z" uid="30632" user="antblant" changeset="125062">
    <nd ref="299909178"/>
    <nd ref="299909177"/>
    <nd ref="299909180"/>
    <nd ref="299909179"/>
    <nd ref="299909173"/>
    <nd ref="299909172"/>
    <tag k="highway" v="residential"/>
    <tag k="name" v="Kwiatowa"/>
    <tag k="source" v="UMP-PL, ./UMP-Poznan/src/WRZESNIA.ulice.txt"/>
  </way>
  <way id="27322085" version="2" timestamp="2008-10-06T22:52:43Z" uid="30632" user="antblant" changeset="125062">
    <nd ref="299908650"/>
    <nd ref="299908651"/>
    <nd ref="299908652"/>
    <nd ref="299908655"/>
    <nd ref="299908657"/>
    <nd ref="299908658"/>
    <nd ref="299908659"/>
    <nd ref="299908660"/>
    <nd ref="299908661"/>
    <nd ref="299908662"/>
    <nd ref="299908663"/>
    <nd ref="299908664"/>
    <nd ref="299908665"/>
    <nd ref="299908666"/>
    <tag k="highway" v="tertiary"/>
    <tag k="name" v="Szkolna"/>
    <tag k="source" v="UMP-PL, ./UMP-Poznan/src/WRZESNIA.ulice.txt"/>
  </way>
  <way id="27322086" version="2" timestamp="2008-10-06T22:52:42Z" uid="30632" user="antblant" changeset="125062">
    <nd ref="299908980"/>
    <nd ref="299909069"/>
    <nd ref="299909075"/>
    <tag k="highway" v="residential"/>
    <tag k="name" v="Piastów"/>
    <tag k="source" v="UMP-PL, ./UMP-Poznan/src/WRZESNIA.ulice.txt"/>
  </way>
  <way id="27322089" version="2" timestamp="2008-10-06T22:52:45Z" uid="30632" user="antblant" changeset="125062">
    <nd ref="299909371"/>
    <nd ref="299909381"/>
    <tag k="highway" v="residential"/>
    <tag k="name" v="Letnia"/>
    <tag k="source" v="UMP-PL, ./UMP-Poznan/src/WRZESNIA.ulice.txt"/>
  </way>
  <way id="27322090" version="2" timestamp="2008-10-06T22:52:44Z" uid="30632" user="antblant" changeset="125062">
    <nd ref="299909074"/>
    <nd ref="299909075"/>
    <nd ref="299909068"/>
    <tag k="highway" v="residential"/>
    <tag k="name" v="Piastów"/>
    <tag k="source" v="UMP-PL, ./UMP-Poznan/src/WRZESNIA.ulice.txt"/>
  </way>
  <way id="27322091" version="2" timestamp="2008-10-06T22:52:44Z" uid="30632" user="antblant" changeset="125062">
    <nd ref="299908907"/>
    <nd ref="299908896"/>
    <nd ref="299908894"/>
    <nd ref="299908899"/>
    <nd ref="299908897"/>
    <nd ref="299908888"/>
    <nd ref="299908887"/>
    <tag k="highway" v="tertiary"/>
    <tag k="name" v="Czerniejewska"/>
    <tag k="source" v="UMP-PL, ./UMP-Poznan/src/WRZESNIA.ulice.txt"/>
  </way>
  <way id="27322093" version="2" timestamp="2008-10-06T22:52:47Z" uid="30632" user="antblant" changeset="125062">
    <nd ref="299909183"/>
    <nd ref="299909378"/>
    <tag k="highway" v="residential"/>
    <tag k="name" v="Pogodna"/>
    <tag k="source" v="UMP-PL, ./UMP-Poznan/src/WRZESNIA.ulice.txt"/>
  </way>
  <way id="27322094" version="2" timestamp="2008-10-06T22:52:46Z" uid="30632" user="antblant" changeset="125062">
    <nd ref="299909089"/>
    <nd ref="299909076"/>
    <nd ref="299909077"/>
    <nd ref="299909078"/>
    <nd ref="299909080"/>
    <nd ref="299909072"/>
    <nd ref="299909073"/>
    <tag k="highway" v="residential"/>
    <tag k="name" v="Piastów"/>
    <tag k="source" v="UMP-PL, ./UMP-Poznan/src/WRZESNIA.ulice.txt"/>
  </way>
  <way id="27322095" version="2" timestamp="2008-10-06T22:52:46Z" uid="30632" user="antblant" changeset="125062">
    <nd ref="299908585"/>
    <nd ref="299908846"/>
    <nd ref="299908842"/>
    <nd ref="299908843"/>
    <nd ref="299908839"/>
    <nd ref="299908840"/>
    <nd ref="299908836"/>
    <nd ref="299908837"/>
    <nd ref="299908833"/>
    <nd ref="299908834"/>
    <nd ref="299908830"/>
    <nd ref="299908831"/>
    <nd ref="299908827"/>
    <nd ref="299908828"/>
    <nd ref="299908824"/>
    <nd ref="299908825"/>
    <tag k="highway" v="residential"/>
    <tag k="name" v="Kościuszki"/>
    <tag k="source" v="UMP-PL, ./UMP-Poznan/src/WRZESNIA.ulice.txt"/>
  </way>
  <way id="27322096" version="2" timestamp="2008-10-06T22:52:49Z" uid="30632" user="antblant" changeset="125062">
    <nd ref="299909181"/>
    <nd ref="299909183"/>
    <nd ref="299909371"/>
    <nd ref="299909373"/>
    <nd ref="299909366"/>
    <nd ref="299909370"/>
    <nd ref="299909188"/>
    <tag k="highway" v="residential"/>
    <tag k="name" v="Letnia"/>
    <tag k="source" v="UMP-PL, ./UMP-Poznan/src/WRZESNIA.ulice.txt"/>
  </way>
  <way id="27322099" version="2" timestamp="2008-10-06T22:52:48Z" uid="30632" user="antblant" changeset="125062">
    <nd ref="299909226"/>
    <nd ref="299909223"/>
    <nd ref="299909221"/>
    <nd ref="299909219"/>
    <nd ref="299909217"/>
    <nd ref="299909215"/>
    <nd ref="299909193"/>
    <nd ref="299909194"/>
    <nd ref="299909195"/>
    <nd ref="299909196"/>
    <nd ref="299909189"/>
    <tag k="highway" v="residential"/>
    <tag k="name" v="Akacjowa"/>
    <tag k="source" v="UMP-PL, ./UMP-Poznan/src/WRZESNIA.ulice.txt"/>
  </way>
  <way id="27322100" version="2" timestamp="2008-10-06T22:52:50Z" uid="30632" user="antblant" changeset="125062">
    <nd ref="299908688"/>
    <nd ref="299908689"/>
    <nd ref="299908707"/>
    <nd ref="299908708"/>
    <tag k="highway" v="residential"/>
    <tag k="name" v="Tuhego"/>
    <tag k="source" v="UMP-PL, ./UMP-Poznan/src/WRZESNIA.ulice.txt"/>
  </way>
  <way id="27322102" version="2" timestamp="2008-10-06T22:52:50Z" uid="30632" user="antblant" changeset="125062">
    <nd ref="299909067"/>
    <nd ref="299909051"/>
    <nd ref="299909050"/>
    <nd ref="299909053"/>
    <nd ref="299909052"/>
    <nd ref="299909058"/>
    <tag k="highway" v="residential"/>
    <tag k="name" v="Batorego"/>
    <tag k="source" v="UMP-PL, ./UMP-Poznan/src/WRZESNIA.ulice.txt"/>
  </way>
  <way id="27322103" version="2" timestamp="2008-10-06T22:52:49Z" uid="30632" user="antblant" changeset="125062">
    <nd ref="299909272"/>
    <nd ref="299909229"/>
    <nd ref="299909228"/>
    <nd ref="299909226"/>
    <tag k="highway" v="residential"/>
    <tag k="name" v="Leśna"/>
    <tag k="source" v="UMP-PL, ./UMP-Poznan/src/WRZESNIA.ulice.txt"/>
  </way>
  <way id="27322104" version="2" timestamp="2008-10-06T22:52:52Z" uid="30632" user="antblant" changeset="125062">
    <nd ref="299908647"/>
    <nd ref="299908704"/>
    <nd ref="299908706"/>
    <nd ref="299908701"/>
    <nd ref="299908703"/>
    <nd ref="299908698"/>
    <nd ref="299908700"/>
    <nd ref="299908676"/>
    <nd ref="299908652"/>
    <tag k="highway" v="residential"/>
    <tag k="name" v="Konopnickiej"/>
    <tag k="source" v="UMP-PL, ./UMP-Poznan/src/WRZESNIA.ulice.txt"/>
  </way>
  <way id="27322106" version="2" timestamp="2008-10-06T22:52:51Z" uid="30632" user="antblant" changeset="125062">
    <nd ref="299909063"/>
    <nd ref="299909058"/>
    <nd ref="299909057"/>
    <tag k="highway" v="residential"/>
    <tag k="name" v="Bolesława Chrobrego"/>
    <tag k="source" v="UMP-PL, ./UMP-Poznan/src/WRZESNIA.ulice.txt"/>
  </way>
  <way id="27322107" version="2" timestamp="2008-10-06T22:52:51Z" uid="30632" user="antblant" changeset="125062">
    <nd ref="299909276"/>
    <nd ref="299909205"/>
    <tag k="highway" v="residential"/>
    <tag k="name" v="Malinowa"/>
    <tag k="source" v="UMP-PL, ./UMP-Poznan/src/WRZESNIA.ulice.txt"/>
  </way>
  <way id="27322110" version="2" timestamp="2008-10-06T22:52:52Z" uid="30632" user="antblant" changeset="125062">
    <nd ref="299908843"/>
    <nd ref="299909054"/>
    <nd ref="299908828"/>
    <tag k="highway" v="residential"/>
    <tag k="name" v="Kościuszki"/>
    <tag k="source" v="UMP-PL, ./UMP-Poznan/src/WRZESNIA.ulice.txt"/>
  </way>
  <way id="27322112" version="2" timestamp="2008-10-06T22:51:26Z" uid="30632" user="antblant" changeset="125062">
    <nd ref="299908691"/>
    <nd ref="299908690"/>
    <tag k="highway" v="residential"/>
    <tag k="name" v="68 Pułku Piechoty"/>
    <tag k="source" v="UMP-PL, ./UMP-Poznan/src/WRZESNIA.ulice.txt"/>
  </way>
  <way id="27322114" version="2" timestamp="2008-10-06T22:51:26Z" uid="30632" user="antblant" changeset="125062">
    <nd ref="299908582"/>
    <nd ref="299908844"/>
    <nd ref="299909060"/>
    <nd ref="299909059"/>
    <nd ref="299908825"/>
    <nd ref="299909062"/>
    <nd ref="299909061"/>
    <nd ref="299909056"/>
    <tag k="highway" v="residential"/>
    <tag k="name" v="Kościuszki"/>
    <tag k="source" v="UMP-PL, ./UMP-Poznan/src/WRZESNIA.ulice.txt"/>
  </way>
  <way id="27322115" version="2" timestamp="2008-10-06T22:51:25Z" uid="30632" user="antblant" changeset="125062">
    <nd ref="299908660"/>
    <nd ref="299908636"/>
    <nd ref="299908640"/>
    <nd ref="299908639"/>
    <nd ref="299908642"/>
    <tag k="highway" v="residential"/>
    <tag k="name" v="Żwirki i Wigury"/>
    <tag k="source" v="UMP-PL, ./UMP-Poznan/src/WRZESNIA.ulice.txt"/>
  </way>
  <way id="27322116" version="2" timestamp="2008-10-06T22:51:25Z" uid="30632" user="antblant" changeset="125062">
    <nd ref="299909134"/>
    <nd ref="299909200"/>
    <nd ref="299909178"/>
    <nd ref="299909030"/>
    <tag k="highway" v="residential"/>
    <tag k="name" v="Kwiatowa"/>
    <tag k="source" v="UMP-PL, ./UMP-Poznan/src/WRZESNIA.ulice.txt"/>
  </way>
  <way id="27322117" version="2" timestamp="2008-10-06T22:51:25Z" uid="30632" user="antblant" changeset="125062">
    <nd ref="299908989"/>
    <nd ref="299908988"/>
    <nd ref="299908987"/>
    <nd ref="299909064"/>
    <nd ref="299909063"/>
    <nd ref="299909067"/>
    <nd ref="299909065"/>
    <tag k="highway" v="residential"/>
    <tag k="name" v="Batorego"/>
    <tag k="source" v="UMP-PL, ./UMP-Poznan/src/WRZESNIA.ulice.txt"/>
  </way>
  <way id="27322119" version="2" timestamp="2008-10-06T22:51:24Z" uid="30632" user="antblant" changeset="125062">
    <nd ref="299908640"/>
    <nd ref="299908641"/>
    <nd ref="299908645"/>
    <nd ref="299908644"/>
    <nd ref="299908647"/>
    <nd ref="299908646"/>
    <nd ref="299908602"/>
    <nd ref="299908695"/>
    <tag k="highway" v="residential"/>
    <tag k="name" v="Zamysłowskiego"/>
    <tag k="source" v="UMP-PL, ./UMP-Poznan/src/WRZESNIA.ulice.txt"/>
  </way>
  <way id="27322120" version="2" timestamp="2008-10-06T22:51:24Z" uid="30632" user="antblant" changeset="125062">
    <nd ref="299909130"/>
    <nd ref="299909199"/>
    <nd ref="299909200"/>
    <tag k="highway" v="residential"/>
    <tag k="name" v="Wiśniowa"/>
    <tag k="source" v="UMP-PL, ./UMP-Poznan/src/WRZESNIA.ulice.txt"/>
  </way>
  <way id="27322121" version="2" timestamp="2008-10-06T22:51:23Z" uid="30632" user="antblant" changeset="125062">
    <nd ref="299908985"/>
    <nd ref="299908983"/>
    <nd ref="299908982"/>
    <nd ref="299908990"/>
    <tag k="highway" v="residential"/>
    <tag k="name" v="Bolesława Chrobrego"/>
    <tag k="source" v="UMP-PL, ./UMP-Poznan/src/WRZESNIA.ulice.txt"/>
  </way>
  <way id="27322122" version="2" timestamp="2008-10-06T22:51:23Z" uid="30632" user="antblant" changeset="125062">
    <nd ref="299908869"/>
    <nd ref="299908874"/>
    <tag k="highway" v="residential"/>
    <tag k="name" v="Żeromskiego"/>
    <tag k="source" v="UMP-PL, ./UMP-Poznan/src/WRZESNIA.ulice.txt"/>
  </way>
  <way id="27322122" version="3" timestamp="2008-10-07T00:53:37Z" uid="30632" user="antblant" changeset="125062">
    <nd ref="299908869"/>
    <nd ref="299908874"/>
    <tag k="highway" v="residential"/>
    <tag k="name" v="Stefana Żeromskiego"/>
    <tag k="source" v="UMP-PL, ./UMP-Poznan/src/WRZESNIA.ulice.txt"/>
  </way>
  <way id="27322127" version="2" timestamp="2008-10-06T22:51:23Z" uid="30632" user="antblant" changeset="125062">
    <nd ref="299909223"/>
    <nd ref="299909190"/>
    <nd ref="299909191"/>
    <nd ref="299909194"/>
    <tag k="highway" v="residential"/>
    <tag k="name" v="Brzozowa"/>
    <tag k="source" v="UMP-PL, ./UMP-Poznan/src/WRZESNIA.ulice.txt"/>
  </way>
  <way id="27322128" version="2" timestamp="2008-10-06T22:51:22Z" uid="30632" user="antblant" changeset="125062">
    <nd ref="299908730"/>
    <nd ref="299908869"/>
    <nd ref="299908871"/>
    <tag k="highway" v="residential"/>
    <tag k="name" v="Baczyńskiego"/>
    <tag k="source" v="UMP-PL, ./UMP-Poznan/src/WRZESNIA.ulice.txt"/>
  </way>
  <way id="27322130" version="2" timestamp="2008-10-06T22:51:21Z" uid="30632" user="antblant" changeset="125062">
    <nd ref="299908941"/>
    <nd ref="299908942"/>
    <tag k="highway" v="residential"/>
    <tag k="name" v="Norwida"/>
    <tag k="source" v="UMP-PL, ./UMP-Poznan/src/WRZESNIA.ulice.txt"/>
  </way>
  <way id="27322131" version="2" timestamp="2008-10-06T22:51:22Z" uid="30632" user="antblant" changeset="125062">
    <nd ref="299908740"/>
    <nd ref="299908753"/>
    <nd ref="299908642"/>
    <nd ref="299908754"/>
    <nd ref="299908746"/>
    <nd ref="299908608"/>
    <tag k="highway" v="residential"/>
    <tag k="name" v="Wojska Polskiego"/>
    <tag k="source" v="UMP-PL, ./UMP-Poznan/src/WRZESNIA.ulice.txt"/>
  </way>
  <way id="27322132" version="2" timestamp="2008-10-06T22:51:20Z" uid="30632" user="antblant" changeset="125062">
    <nd ref="299909336"/>
    <nd ref="299909338"/>
    <nd ref="299909335"/>
    <nd ref="299909349"/>
    <tag k="highway" v="residential"/>
    <tag k="name" v="Lazurowa"/>
    <tag k="source" v="UMP-PL, ./UMP-Poznan/src/WRZESNIA.ulice.txt"/>
  </way>
  <way id="27322133" version="2" timestamp="2008-10-06T22:51:21Z" uid="30632" user="antblant" changeset="125062">
    <nd ref="299908450"/>
    <nd ref="299908405"/>
    <nd ref="299908449"/>
    <nd ref="299908447"/>
    <tag k="highway" v="residential"/>
    <tag k="name" v="Kożuchowska"/>
    <tag k="source" v="UMP-PL, ./UMP-Poznan/src/WRZESNIA.ulice.txt"/>
  </way>
  <way id="27322134" version="2" timestamp="2008-10-06T22:51:19Z" uid="30632" user="antblant" changeset="125062">
    <nd ref="299908733"/>
    <nd ref="299908874"/>
    <nd ref="299908863"/>
    <nd ref="299908865"/>
    <nd ref="299908866"/>
    <nd ref="299908868"/>
    <nd ref="299908945"/>
    <nd ref="299908946"/>
    <nd ref="299908947"/>
    <nd ref="299908948"/>
    <nd ref="299908941"/>
    <nd ref="299908610"/>
    <tag k="highway" v="residential"/>
    <tag k="name" v="Turwida"/>
    <tag k="source" v="UMP-PL, ./UMP-Poznan/src/WRZESNIA.ulice.txt"/>
  </way>
  <way id="27322135" version="2" timestamp="2008-10-06T22:51:20Z" uid="30632" user="antblant" changeset="125062">
    <nd ref="299908666"/>
    <nd ref="299908740"/>
    <nd ref="299908742"/>
    <nd ref="299908743"/>
    <nd ref="299908745"/>
    <nd ref="299908734"/>
    <nd ref="299908736"/>
    <nd ref="299908737"/>
    <nd ref="299908739"/>
    <nd ref="299908751"/>
    <nd ref="299908752"/>
    <tag k="highway" v="tertiary"/>
    <tag k="name" v="Witkowska"/>
    <tag k="source" v="UMP-PL, ./UMP-Poznan/src/WRZESNIA.ulice.txt"/>
  </way>
  <way id="27322136" version="2" timestamp="2008-10-06T22:51:19Z" uid="30632" user="antblant" changeset="125062">
    <nd ref="299909346"/>
    <nd ref="299909344"/>
    <nd ref="299909349"/>
    <nd ref="299909342"/>
    <nd ref="299909357"/>
    <tag k="highway" v="residential"/>
    <tag k="name" v="Tęczowa"/>
    <tag k="source" v="UMP-PL, ./UMP-Poznan/src/WRZESNIA.ulice.txt"/>
  </way>
  <way id="27322137" version="2" timestamp="2008-10-06T22:51:19Z" uid="30632" user="antblant" changeset="125062">
    <nd ref="299908435"/>
    <nd ref="299908408"/>
    <nd ref="299908434"/>
    <nd ref="299908433"/>
    <tag k="highway" v="residential"/>
    <tag k="name" v="Polkowicka"/>
    <tag k="source" v="UMP-PL, ./UMP-Poznan/src/WRZESNIA.ulice.txt"/>
  </way>
  <way id="27322138" version="2" timestamp="2008-10-06T22:51:18Z" uid="30632" user="antblant" changeset="125062">
    <nd ref="299908868"/>
    <nd ref="299908944"/>
    <tag k="highway" v="residential"/>
    <tag k="name" v="Asnyka"/>
    <tag k="source" v="UMP-PL, ./UMP-Poznan/src/WRZESNIA.ulice.txt"/>
  </way>
  <way id="27322139" version="2" timestamp="2008-10-06T22:51:18Z" uid="30632" user="antblant" changeset="125062">
    <nd ref="299908711"/>
    <nd ref="299908710"/>
    <nd ref="299908715"/>
    <nd ref="299908750"/>
    <tag k="highway" v="residential"/>
    <tag k="name" v="Prusa"/>
    <tag k="source" v="UMP-PL, ./UMP-Poznan/src/WRZESNIA.ulice.txt"/>
  </way>
  <way id="27322140" version="2" timestamp="2008-10-06T22:51:17Z" uid="30632" user="antblant" changeset="125062">
    <nd ref="299909187"/>
    <nd ref="299909355"/>
    <nd ref="299909357"/>
    <nd ref="299909352"/>
    <nd ref="299909350"/>
    <tag k="highway" v="tertiary"/>
    <tag k="name" v="Świętokrzyska"/>
    <tag k="source" v="UMP-PL, ./UMP-Poznan/src/WRZESNIA.ulice.txt"/>
  </way>
  <way id="27322142" version="2" timestamp="2008-10-06T22:51:16Z" uid="30632" user="antblant" changeset="125062">
    <nd ref="299908379"/>
    <nd ref="299908342"/>
    <tag k="highway" v="residential"/>
    <tag k="name" v="Głogowska"/>
    <tag k="source" v="UMP-PL, ./UMP-Poznan/src/WRZESNIA.ulice.txt"/>
  </way>
  <way id="27322143" version="2" timestamp="2008-10-06T22:51:17Z" uid="30632" user="antblant" changeset="125062">
    <nd ref="299908946"/>
    <nd ref="299908943"/>
    <tag k="highway" v="residential"/>
    <tag k="name" v="Kasprowicza"/>
    <tag k="source" v="UMP-PL, ./UMP-Poznan/src/WRZESNIA.ulice.txt"/>
  </way>
  <way id="27322144" version="2" timestamp="2008-10-06T22:51:14Z" uid="30632" user="antblant" changeset="125062">
    <nd ref="299908747"/>
    <nd ref="299908748"/>
    <nd ref="299908750"/>
    <nd ref="299908718"/>
    <nd ref="299908717"/>
    <nd ref="299908721"/>
    <nd ref="299908720"/>
    <nd ref="299908611"/>
    <tag k="highway" v="residential"/>
    <tag k="name" v="Szeroka"/>
    <tag k="source" v="UMP-PL, ./UMP-Poznan/src/WRZESNIA.ulice.txt"/>
  </way>
  <way id="27322145" version="2" timestamp="2008-10-06T22:51:13Z" uid="30632" user="antblant" changeset="125062">
    <nd ref="299909365"/>
    <nd ref="299909363"/>
    <nd ref="299909361"/>
    <nd ref="299909359"/>
    <nd ref="299909346"/>
    <nd ref="299909304"/>
    <nd ref="299909147"/>
    <tag k="highway" v="residential"/>
    <tag k="name" v="Szafirowa"/>
    <tag k="source" v="UMP-PL, ./UMP-Poznan/src/WRZESNIA.ulice.txt"/>
  </way>
  <way id="27322146" version="2" timestamp="2008-10-06T22:51:15Z" uid="30632" user="antblant" changeset="125062">
    <nd ref="299908406"/>
    <nd ref="299908446"/>
    <tag k="highway" v="residential"/>
    <tag k="name" v="Lubuska"/>
    <tag k="source" v="UMP-PL, ./UMP-Poznan/src/WRZESNIA.ulice.txt"/>
  </way>
  <way id="27322147" version="2" timestamp="2008-10-06T22:51:14Z" uid="30632" user="antblant" changeset="125062">
    <nd ref="299908863"/>
    <nd ref="299908954"/>
    <tag k="highway" v="residential"/>
    <tag k="name" v="Kruczkowskiego"/>
    <tag k="source" v="UMP-PL, ./UMP-Poznan/src/WRZESNIA.ulice.txt"/>
  </way>
  <way id="27322148" version="2" timestamp="2008-10-06T22:51:12Z" uid="30632" user="antblant" changeset="125062">
    <nd ref="299908985"/>
    <nd ref="299909047"/>
    <nd ref="299909044"/>
    <nd ref="299909045"/>
    <nd ref="299909042"/>
    <tag k="highway" v="residential"/>
    <tag k="name" v="Bolesława Chrobrego"/>
    <tag k="source" v="UMP-PL, ./UMP-Poznan/src/WRZESNIA.ulice.txt"/>
  </way>
  <way id="27322150" version="2" timestamp="2008-10-06T22:51:13Z" uid="30632" user="antblant" changeset="125062">
    <nd ref="299908430"/>
    <nd ref="299908428"/>
    <nd ref="299908429"/>
    <nd ref="299908426"/>
    <nd ref="299908422"/>
    <tag k="highway" v="residential"/>
    <tag k="name" v="Kołobrzeska"/>
    <tag k="source" v="UMP-PL, ./UMP-Poznan/src/WRZESNIA.ulice.txt"/>
  </way>
  <way id="27322152" version="2" timestamp="2008-10-06T22:51:11Z" uid="30632" user="antblant" changeset="125062">
    <nd ref="299908865"/>
    <nd ref="299908953"/>
    <tag k="highway" v="residential"/>
    <tag k="name" v="Tuwima"/>
    <tag k="source" v="UMP-PL, ./UMP-Poznan/src/WRZESNIA.ulice.txt"/>
  </way>
  <way id="27322155" version="2" timestamp="2008-10-06T22:51:12Z" uid="30632" user="antblant" changeset="125062">
    <nd ref="299908416"/>
    <nd ref="299908415"/>
    <nd ref="299908430"/>
    <nd ref="299908432"/>
    <tag k="highway" v="residential"/>
    <tag k="name" v="Warmińska"/>
    <tag k="source" v="UMP-PL, ./UMP-Poznan/src/WRZESNIA.ulice.txt"/>
  </way>
  <way id="27322157" version="2" timestamp="2008-10-06T22:51:10Z" uid="30632" user="antblant" changeset="125062">
    <nd ref="299908728"/>
    <nd ref="299908715"/>
    <tag k="highway" v="residential"/>
    <tag k="name" v="Nałkowskiej"/>
    <tag k="source" v="UMP-PL, ./UMP-Poznan/src/WRZESNIA.ulice.txt"/>
  </way>
  <way id="27322159" version="2" timestamp="2008-10-06T22:51:11Z" uid="30632" user="antblant" changeset="125062">
    <nd ref="299909361"/>
    <nd ref="299909384"/>
    <nd ref="299909310"/>
    <nd ref="299909341"/>
    <nd ref="299909312"/>
    <tag k="highway" v="residential"/>
    <tag k="name" v="Turkusowa"/>
    <tag k="source" v="UMP-PL, ./UMP-Poznan/src/WRZESNIA.ulice.txt"/>
  </way>
  <way id="27322160" version="2" timestamp="2008-10-06T22:51:09Z" uid="30632" user="antblant" changeset="125062">
    <nd ref="299908395"/>
    <nd ref="299908414"/>
    <nd ref="299908427"/>
    <nd ref="299908423"/>
    <nd ref="299908425"/>
    <nd ref="299908441"/>
    <nd ref="299908440"/>
    <nd ref="299908439"/>
    <nd ref="299908437"/>
    <nd ref="299908436"/>
    <nd ref="299908398"/>
    <tag k="highway" v="residential"/>
    <tag k="name" v="Fromborska"/>
    <tag k="source" v="UMP-PL, ./UMP-Poznan/src/WRZESNIA.ulice.txt"/>
  </way>
  <way id="27322161" version="2" timestamp="2008-10-06T22:51:09Z" uid="30632" user="antblant" changeset="125062">
    <nd ref="299908680"/>
    <nd ref="299908678"/>
    <nd ref="299908677"/>
    <tag k="highway" v="residential"/>
    <tag k="name" v="Jana Pawła II"/>
    <tag k="source" v="UMP-PL, ./UMP-Poznan/src/WRZESNIA.ulice.txt"/>
  </way>
  <way id="27322162" version="2" timestamp="2008-10-06T22:51:10Z" uid="30632" user="antblant" changeset="125062">
    <nd ref="299908866"/>
    <nd ref="299908955"/>
    <tag k="highway" v="residential"/>
    <tag k="name" v="Leśmiana"/>
    <tag k="source" v="UMP-PL, ./UMP-Poznan/src/WRZESNIA.ulice.txt"/>
  </way>
  <way id="27322167" version="2" timestamp="2008-10-06T22:51:08Z" uid="30632" user="antblant" changeset="125062">
    <nd ref="299908786"/>
    <nd ref="299908772"/>
    <nd ref="299908779"/>
    <nd ref="299908778"/>
    <tag k="highway" v="residential"/>
    <tag k="name" v="Culica"/>
    <tag k="source" v="UMP-PL, ./UMP-Poznan/src/WRZESNIA.ulice.txt"/>
  </way>
  <way id="27322168" version="2" timestamp="2008-10-06T22:51:06Z" uid="30632" user="antblant" changeset="125062">
    <nd ref="299909366"/>
    <nd ref="299909374"/>
    <tag k="highway" v="residential"/>
    <tag k="name" v="Wczasowa"/>
    <tag k="source" v="UMP-PL, ./UMP-Poznan/src/WRZESNIA.ulice.txt"/>
  </way>
  <way id="27322169" version="2" timestamp="2008-10-06T22:51:07Z" uid="30632" user="antblant" changeset="125062">
    <nd ref="299908403"/>
    <nd ref="299908407"/>
    <nd ref="299908421"/>
    <nd ref="299908422"/>
    <nd ref="299908419"/>
    <tag k="highway" v="residential"/>
    <tag k="name" v="Gubińska"/>
    <tag k="source" v="UMP-PL, ./UMP-Poznan/src/WRZESNIA.ulice.txt"/>
  </way>
  <way id="27322170" version="2" timestamp="2008-10-06T22:51:07Z" uid="30632" user="antblant" changeset="125062">
    <nd ref="299909048"/>
    <nd ref="299909011"/>
    <nd ref="299908845"/>
    <nd ref="299908583"/>
    <tag k="highway" v="residential"/>
    <tag k="name" v="Kościuszki"/>
    <tag k="source" v="UMP-PL, ./UMP-Poznan/src/WRZESNIA.ulice.txt"/>
  </way>
  <way id="27322171" version="2" timestamp="2008-10-06T22:51:08Z" uid="30632" user="antblant" changeset="125062">
    <nd ref="299908731"/>
    <nd ref="299908949"/>
    <tag k="highway" v="residential"/>
    <tag k="name" v="Zapolskiej"/>
    <tag k="source" v="UMP-PL, ./UMP-Poznan/src/WRZESNIA.ulice.txt"/>
  </way>
  <way id="27322172" version="2" timestamp="2008-10-06T22:51:04Z" uid="30632" user="antblant" changeset="125062">
    <nd ref="299908783"/>
    <nd ref="299908781"/>
    <nd ref="299908780"/>
    <nd ref="299908787"/>
    <nd ref="299908786"/>
    <nd ref="299908785"/>
    <nd ref="299908784"/>
    <nd ref="299908775"/>
    <nd ref="299908774"/>
    <nd ref="299908773"/>
    <tag k="highway" v="residential"/>
    <tag k="name" v="Culica"/>
    <tag k="source" v="UMP-PL, ./UMP-Poznan/src/WRZESNIA.ulice.txt"/>
  </way>
  <way id="27322173" version="2" timestamp="2008-10-06T22:51:05Z" uid="30632" user="antblant" changeset="125062">
    <nd ref="299909370"/>
    <nd ref="299909376"/>
    <tag k="highway" v="residential"/>
    <tag k="name" v="Spacerowa"/>
    <tag k="source" v="UMP-PL, ./UMP-Poznan/src/WRZESNIA.ulice.txt"/>
  </way>
  <way id="27322174" version="2" timestamp="2008-10-06T22:51:06Z" uid="30632" user="antblant" changeset="125062">
    <nd ref="299908404"/>
    <nd ref="299908403"/>
    <nd ref="299908397"/>
    <nd ref="299908395"/>
    <nd ref="299908399"/>
    <nd ref="299908398"/>
    <nd ref="299908411"/>
    <nd ref="299908409"/>
    <nd ref="299908413"/>
    <nd ref="299908412"/>
    <nd ref="299908406"/>
    <nd ref="299908405"/>
    <nd ref="299908408"/>
    <nd ref="299908339"/>
    <tag k="highway" v="residential"/>
    <tag k="name" v="Fromborska"/>
    <tag k="source" v="UMP-PL, ./UMP-Poznan/src/WRZESNIA.ulice.txt"/>
  </way>
  <way id="27322175" version="2" timestamp="2008-10-06T22:51:06Z" uid="30632" user="antblant" changeset="125062">
    <nd ref="299908989"/>
    <nd ref="299908615"/>
    <nd ref="299909070"/>
    <nd ref="299909049"/>
    <nd ref="299908962"/>
    <tag k="highway" v="residential"/>
    <tag k="name" v="Dąbrowskiego"/>
    <tag k="source" v="UMP-PL, ./UMP-Poznan/src/WRZESNIA.ulice.txt"/>
  </way>
  <way id="27322177" version="2" timestamp="2008-10-06T22:51:56Z" uid="30632" user="antblant" changeset="125062">
    <nd ref="299908778"/>
    <nd ref="299908767"/>
    <nd ref="299908764"/>
    <nd ref="299908765"/>
    <nd ref="299908607"/>
    <tag k="highway" v="residential"/>
    <tag k="name" v="Stasiewskiego"/>
    <tag k="source" v="UMP-PL, ./UMP-Poznan/src/WRZESNIA.ulice.txt"/>
  </way>
  <way id="27322178" version="2" timestamp="2008-10-06T22:51:55Z" uid="30632" user="antblant" changeset="125062">
    <nd ref="299909386"/>
    <nd ref="299909388"/>
    <nd ref="299909383"/>
    <tag k="highway" v="residential"/>
    <tag k="name" v="Błękitna"/>
    <tag k="source" v="UMP-PL, ./UMP-Poznan/src/WRZESNIA.ulice.txt"/>
  </way>
  <way id="27322180" version="2" timestamp="2008-10-06T22:51:58Z" uid="30632" user="antblant" changeset="125062">
    <nd ref="299909026"/>
    <nd ref="299909049"/>
    <tag k="highway" v="residential"/>
    <tag k="name" v="Dąbrowskiego"/>
    <tag k="source" v="UMP-PL, ./UMP-Poznan/src/WRZESNIA.ulice.txt"/>
  </way>
  <way id="27322181" version="2" timestamp="2008-10-06T22:51:57Z" uid="30632" user="antblant" changeset="125062">
    <nd ref="299908952"/>
    <nd ref="299908711"/>
    <nd ref="299908724"/>
    <tag k="highway" v="residential"/>
    <tag k="name" v="Pola"/>
    <tag k="source" v="UMP-PL, ./UMP-Poznan/src/WRZESNIA.ulice.txt"/>
  </way>
  <way id="27322182" version="2" timestamp="2008-10-06T22:51:56Z" uid="30632" user="antblant" changeset="125062">
    <nd ref="299908725"/>
    <nd ref="299908777"/>
    <nd ref="299908776"/>
    <nd ref="299908766"/>
    <nd ref="299908785"/>
    <tag k="highway" v="residential"/>
    <tag k="name" v="17 Dywizji Piechoty"/>
    <tag k="source" v="UMP-PL, ./UMP-Poznan/src/WRZESNIA.ulice.txt"/>
  </way>
  <way id="27322184" version="2" timestamp="2008-10-06T22:51:51Z" uid="30632" user="antblant" changeset="125062">
    <nd ref="299908421"/>
    <nd ref="299908420"/>
    <nd ref="299908416"/>
    <nd ref="299908418"/>
    <nd ref="299908414"/>
    <tag k="highway" v="residential"/>
    <tag k="name" v="Zielonogórska"/>
    <tag k="source" v="UMP-PL, ./UMP-Poznan/src/WRZESNIA.ulice.txt"/>
  </way>
  <way id="27322185" version="2" timestamp="2008-10-06T22:51:50Z" uid="30632" user="antblant" changeset="125062">
    <nd ref="299908923"/>
    <nd ref="299909046"/>
    <tag k="highway" v="residential"/>
    <tag k="name" v="Dąbrowskiego"/>
    <tag k="source" v="UMP-PL, ./UMP-Poznan/src/WRZESNIA.ulice.txt"/>
  </way>
  <way id="27322187" version="2" timestamp="2008-10-06T22:51:49Z" uid="30632" user="antblant" changeset="125062">
    <nd ref="299909384"/>
    <nd ref="299909184"/>
    <nd ref="299909378"/>
    <nd ref="299909381"/>
    <nd ref="299909374"/>
    <nd ref="299909394"/>
    <nd ref="299909376"/>
    <nd ref="299909383"/>
    <nd ref="299909396"/>
    <nd ref="299909176"/>
    <tag k="highway" v="residential"/>
    <tag k="name" v="Promienista"/>
    <tag k="source" v="UMP-PL, ./UMP-Poznan/src/WRZESNIA.ulice.txt"/>
  </way>
  <way id="27322188" version="2" timestamp="2008-10-06T22:51:54Z" uid="30632" user="antblant" changeset="125062">
    <nd ref="299908373"/>
    <nd ref="299908388"/>
    <nd ref="299908389"/>
    <tag k="highway" v="residential"/>
    <tag k="name" v="Gdańska"/>
    <tag k="source" v="UMP-PL, ./UMP-Poznan/src/WRZESNIA.ulice.txt"/>
  </way>
  <way id="27322189" version="2" timestamp="2008-10-06T22:51:53Z" uid="30632" user="antblant" changeset="125062">
    <nd ref="299908718"/>
    <nd ref="299908730"/>
    <nd ref="299908728"/>
    <nd ref="299908733"/>
    <nd ref="299908731"/>
    <nd ref="299908724"/>
    <tag k="highway" v="residential"/>
    <tag k="name" v="Reymonta"/>
    <tag k="source" v="UMP-PL, ./UMP-Poznan/src/WRZESNIA.ulice.txt"/>
  </way>
  <way id="27322191" version="2" timestamp="2008-10-06T22:51:52Z" uid="30632" user="antblant" changeset="125062">
    <nd ref="299909019"/>
    <nd ref="299909018"/>
    <nd ref="299909017"/>
    <nd ref="299909016"/>
    <tag k="highway" v="residential"/>
    <tag k="name" v="Legii Wrzesińskiej"/>
    <tag k="source" v="UMP-PL, ./UMP-Poznan/src/WRZESNIA.ulice.txt"/>
  </way>
  <way id="27322192" version="2" timestamp="2008-10-06T22:51:45Z" uid="30632" user="antblant" changeset="125062">
    <nd ref="299909394"/>
    <nd ref="299909145"/>
    <tag k="highway" v="residential"/>
    <tag k="name" v="Promienista"/>
    <tag k="source" v="UMP-PL, ./UMP-Poznan/src/WRZESNIA.ulice.txt"/>
  </way>
  <way id="27322193" version="2" timestamp="2008-10-06T22:51:45Z" uid="30632" user="antblant" changeset="125062">
    <nd ref="299908378"/>
    <nd ref="299908394"/>
    <nd ref="299908387"/>
    <nd ref="299908371"/>
    <tag k="highway" v="residential"/>
    <tag k="name" v="Malborska"/>
    <tag k="source" v="UMP-PL, ./UMP-Poznan/src/WRZESNIA.ulice.txt"/>
  </way>
  <way id="27322194" version="2" timestamp="2008-10-06T22:51:44Z" uid="30632" user="antblant" changeset="125062">
    <nd ref="299908748"/>
    <nd ref="299908712"/>
    <tag k="highway" v="residential"/>
    <tag k="name" v="Mierosławskiego"/>
    <tag k="source" v="UMP-PL, ./UMP-Poznan/src/WRZESNIA.ulice.txt"/>
  </way>
  <way id="27322195" version="2" timestamp="2008-10-06T22:51:44Z" uid="30632" user="antblant" changeset="125062">
    <nd ref="299908962"/>
    <nd ref="299908961"/>
    <nd ref="299908964"/>
    <nd ref="299908963"/>
    <nd ref="299908958"/>
    <nd ref="299908957"/>
    <nd ref="299908740"/>
    <tag k="highway" v="residential"/>
    <tag k="name" v="Wojska Polskiego"/>
    <tag k="source" v="UMP-PL, ./UMP-Poznan/src/WRZESNIA.ulice.txt"/>
  </way>
  <way id="27322196" version="2" timestamp="2008-10-06T22:51:47Z" uid="30632" user="antblant" changeset="125062">
    <nd ref="299908586"/>
    <nd ref="299909015"/>
    <tag k="highway" v="residential"/>
    <tag k="name" v="Koszarowa"/>
    <tag k="source" v="UMP-PL, ./UMP-Poznan/src/WRZESNIA.ulice.txt"/>
  </way>
  <way id="27322197" version="2" timestamp="2008-10-06T22:51:48Z" uid="30632" user="antblant" changeset="125062">
    <nd ref="299909396"/>
    <nd ref="299909390"/>
    <nd ref="299909392"/>
    <nd ref="299909388"/>
    <tag k="highway" v="residential"/>
    <tag k="name" v="Jasna"/>
    <tag k="source" v="UMP-PL, ./UMP-Poznan/src/WRZESNIA.ulice.txt"/>
  </way>
  <way id="27322198" version="2" timestamp="2008-10-06T22:51:46Z" uid="30632" user="antblant" changeset="125062">
    <nd ref="299908390"/>
    <nd ref="299908402"/>
    <nd ref="299908400"/>
    <tag k="highway" v="residential"/>
    <tag k="name" v="Olsztyńska"/>
    <tag k="source" v="UMP-PL, ./UMP-Poznan/src/WRZESNIA.ulice.txt"/>
  </way>
  <way id="27322199" version="2" timestamp="2008-10-06T22:51:46Z" uid="30632" user="antblant" changeset="125062">
    <nd ref="299908722"/>
    <nd ref="299908725"/>
    <nd ref="299908783"/>
    <nd ref="299908782"/>
    <tag k="highway" v="residential"/>
    <tag k="name" v="17 Dywizji Piechoty"/>
    <tag k="source" v="UMP-PL, ./UMP-Poznan/src/WRZESNIA.ulice.txt"/>
  </way>
  <way id="27322201" version="2" timestamp="2008-10-06T22:51:39Z" uid="30632" user="antblant" changeset="125062">
    <nd ref="299908580"/>
    <nd ref="299909014"/>
    <nd ref="299909012"/>
    <tag k="highway" v="residential"/>
    <tag k="name" v="Warsztatowa"/>
    <tag k="source" v="UMP-PL, ./UMP-Poznan/src/WRZESNIA.ulice.txt"/>
  </way>
  <way id="27322202" version="2" timestamp="2008-10-06T22:51:38Z" uid="30632" user="antblant" changeset="125062">
    <nd ref="299909182"/>
    <nd ref="299909341"/>
    <nd ref="299909338"/>
    <tag k="highway" v="residential"/>
    <tag k="name" v="Lazurowa"/>
    <tag k="source" v="UMP-PL, ./UMP-Poznan/src/WRZESNIA.ulice.txt"/>
  </way>
  <way id="27322203" version="2" timestamp="2008-10-06T22:51:39Z" uid="30632" user="antblant" changeset="125062">
    <nd ref="299908346"/>
    <nd ref="299908389"/>
    <nd ref="299908390"/>
    <nd ref="299908372"/>
    <tag k="highway" v="residential"/>
    <tag k="name" v="Opolska"/>
    <tag k="source" v="UMP-PL, ./UMP-Poznan/src/WRZESNIA.ulice.txt"/>
  </way>
  <way id="27322204" version="2" timestamp="2008-10-06T22:51:42Z" uid="30632" user="antblant" changeset="125062">
    <nd ref="299908722"/>
    <nd ref="299908727"/>
    <nd ref="299908613"/>
    <tag k="highway" v="residential"/>
    <tag k="name" v="Dondajewskiego"/>
    <tag k="source" v="UMP-PL, ./UMP-Poznan/src/WRZESNIA.ulice.txt"/>
  </way>
  <way id="27322206" version="2" timestamp="2008-10-06T22:51:40Z" uid="30632" user="antblant" changeset="125062">
    <nd ref="299909014"/>
    <nd ref="299909011"/>
    <tag k="highway" v="residential"/>
    <tag k="name" v="Kościuszki"/>
    <tag k="source" v="UMP-PL, ./UMP-Poznan/src/WRZESNIA.ulice.txt"/>
  </way>
  <way id="27322207" version="2" timestamp="2008-10-06T22:51:42Z" uid="30632" user="antblant" changeset="125062">
    <nd ref="299908649"/>
    <nd ref="299909161"/>
    <tag k="highway" v="tertiary"/>
    <tag k="name" v="Sokołowska"/>
    <tag k="source" v="UMP-PL, ./UMP-Poznan/src/WRZESNIA.ulice.txt"/>
  </way>
  <way id="27322208" version="2" timestamp="2008-10-06T22:51:34Z" uid="30632" user="antblant" changeset="125062">
    <nd ref="299908964"/>
    <nd ref="299908968"/>
    <nd ref="299908967"/>
    <nd ref="299908915"/>
    <nd ref="299908916"/>
    <tag k="highway" v="residential"/>
    <tag k="name" v="Słowackiego"/>
    <tag k="source" v="UMP-PL, ./UMP-Poznan/src/WRZESNIA.ulice.txt"/>
  </way>
  <way id="27322209" version="2" timestamp="2008-10-06T22:51:34Z" uid="30632" user="antblant" changeset="125062">
    <nd ref="299908644"/>
    <nd ref="299908758"/>
    <nd ref="299908759"/>
    <nd ref="299908756"/>
    <nd ref="299908754"/>
    <tag k="highway" v="residential"/>
    <tag k="name" v="Konopnickiej"/>
    <tag k="source" v="UMP-PL, ./UMP-Poznan/src/WRZESNIA.ulice.txt"/>
  </way>
  <way id="27322210" version="2" timestamp="2008-10-06T22:51:35Z" uid="30632" user="antblant" changeset="125062">
    <nd ref="299908794"/>
    <nd ref="299908850"/>
    <nd ref="299908858"/>
    <tag k="highway" v="residential"/>
    <tag k="name" v="Fabryczna"/>
    <tag k="source" v="UMP-PL, ./UMP-Poznan/src/WRZESNIA.ulice.txt"/>
  </way>
  <way id="27322211" version="2" timestamp="2008-10-06T22:51:35Z" uid="30632" user="antblant" changeset="125062">
    <nd ref="299908364"/>
    <nd ref="299908382"/>
    <nd ref="299908383"/>
    <tag k="highway" v="residential"/>
    <tag k="name" v="Elbląska"/>
    <tag k="source" v="UMP-PL, ./UMP-Poznan/src/WRZESNIA.ulice.txt"/>
  </way>
  <way id="27322212" version="2" timestamp="2008-10-06T22:51:36Z" uid="30632" user="antblant" changeset="125062">
    <nd ref="299908945"/>
    <nd ref="299909160"/>
    <tag k="highway" v="residential"/>
    <tag k="name" v="Gałczyńskiego"/>
    <tag k="source" v="UMP-PL, ./UMP-Poznan/src/WRZESNIA.ulice.txt"/>
  </way>
  <way id="27322213" version="2" timestamp="2008-10-06T22:51:36Z" uid="30632" user="antblant" changeset="125062">
    <nd ref="299908743"/>
    <nd ref="299908913"/>
    <nd ref="299908914"/>
    <nd ref="299908911"/>
    <nd ref="299908912"/>
    <tag k="highway" v="residential"/>
    <tag k="name" v="Ogrodowa"/>
    <tag k="source" v="UMP-PL, ./UMP-Poznan/src/WRZESNIA.ulice.txt"/>
  </way>
  <way id="27322214" version="2" timestamp="2008-10-06T22:51:38Z" uid="30632" user="antblant" changeset="125062">
    <nd ref="299908758"/>
    <nd ref="299908757"/>
    <nd ref="299908762"/>
    <nd ref="299908763"/>
    <nd ref="299908760"/>
    <tag k="highway" v="residential"/>
    <tag k="name" v="Konopnickiej"/>
    <tag k="source" v="UMP-PL, ./UMP-Poznan/src/WRZESNIA.ulice.txt"/>
  </way>
  <way id="27322215" version="2" timestamp="2008-10-06T22:51:37Z" uid="30632" user="antblant" changeset="125062">
    <nd ref="299908849"/>
    <nd ref="299908792"/>
    <nd ref="299908793"/>
    <tag k="highway" v="residential"/>
    <tag k="name" v="Sienkiewicza"/>
    <tag k="source" v="UMP-PL, ./UMP-Poznan/src/WRZESNIA.ulice.txt"/>
  </way>
  <way id="27322216" version="2" timestamp="2008-10-06T22:51:31Z" uid="30632" user="antblant" changeset="125062">
    <nd ref="299908384"/>
    <nd ref="299908386"/>
    <nd ref="299908383"/>
    <nd ref="299908378"/>
    <nd ref="299908379"/>
    <tag k="highway" v="residential"/>
    <tag k="name" v="Słupska"/>
    <tag k="source" v="UMP-PL, ./UMP-Poznan/src/WRZESNIA.ulice.txt"/>
  </way>
  <way id="27322218" version="2" timestamp="2008-10-06T22:51:31Z" uid="30632" user="antblant" changeset="125062">
    <nd ref="299908909"/>
    <nd ref="299908910"/>
    <nd ref="299908923"/>
    <nd ref="299908924"/>
    <tag k="highway" v="residential"/>
    <tag k="name" v="Dąbrowskiego"/>
    <tag k="source" v="UMP-PL, ./UMP-Poznan/src/WRZESNIA.ulice.txt"/>
  </way>
  <way id="27322220" version="2" timestamp="2008-10-06T22:51:32Z" uid="30632" user="antblant" changeset="125062">
    <nd ref="299908793"/>
    <nd ref="299908803"/>
    <tag k="highway" v="residential"/>
    <tag k="name" v="Sienkiewicza"/>
    <tag k="source" v="UMP-PL, ./UMP-Poznan/src/WRZESNIA.ulice.txt"/>
  </way>
  <way id="27322221" version="2" timestamp="2008-10-06T22:51:32Z" uid="30632" user="antblant" changeset="125062">
    <nd ref="299908374"/>
    <nd ref="299908379"/>
    <nd ref="299908380"/>
    <tag k="highway" v="residential"/>
    <tag k="name" v="Kwidzyńska"/>
    <tag k="source" v="UMP-PL, ./UMP-Poznan/src/WRZESNIA.ulice.txt"/>
  </way>
  <way id="27322222" version="2" timestamp="2008-10-06T22:51:33Z" uid="30632" user="antblant" changeset="125062">
    <nd ref="299908938"/>
    <nd ref="299909111"/>
    <nd ref="299909110"/>
    <nd ref="299908934"/>
    <nd ref="299908940"/>
    <tag k="highway" v="residential"/>
    <tag k="name" v="Konarskiego"/>
    <tag k="source" v="UMP-PL, ./UMP-Poznan/src/WRZESNIA.ulice.txt"/>
  </way>
  <way id="27322223" version="2" timestamp="2008-10-06T22:51:32Z" uid="30632" user="antblant" changeset="125062">
    <nd ref="299908611"/>
    <nd ref="299908921"/>
    <nd ref="299908922"/>
    <nd ref="299908919"/>
    <nd ref="299908920"/>
    <nd ref="299908917"/>
    <nd ref="299908918"/>
    <nd ref="299908739"/>
    <tag k="highway" v="residential"/>
    <tag k="name" v="Waryńskiego"/>
    <tag k="source" v="UMP-PL, ./UMP-Poznan/src/WRZESNIA.ulice.txt"/>
  </way>
  <way id="27322225" version="2" timestamp="2008-10-06T22:51:29Z" uid="30632" user="antblant" changeset="125062">
    <nd ref="299908790"/>
    <nd ref="299908559"/>
    <tag k="highway" v="residential"/>
    <tag k="name" v="Sienkiewicza"/>
    <tag k="source" v="UMP-PL, ./UMP-Poznan/src/WRZESNIA.ulice.txt"/>
  </way>
  <way id="27322226" version="2" timestamp="2008-10-06T22:51:29Z" uid="30632" user="antblant" changeset="125062">
    <nd ref="299908381"/>
    <nd ref="299908391"/>
    <nd ref="299908380"/>
    <nd ref="299908392"/>
    <nd ref="299908393"/>
    <tag k="highway" v="residential"/>
    <tag k="name" v="Grunwaldzka"/>
    <tag k="source" v="UMP-PL, ./UMP-Poznan/src/WRZESNIA.ulice.txt"/>
  </way>
  <way id="27322227" version="2" timestamp="2008-10-06T22:51:29Z" uid="30632" user="antblant" changeset="125062">
    <nd ref="299908921"/>
    <nd ref="299908932"/>
    <nd ref="299908931"/>
    <nd ref="299908930"/>
    <tag k="highway" v="residential"/>
    <tag k="name" v="Długosza"/>
    <tag k="source" v="UMP-PL, ./UMP-Poznan/src/WRZESNIA.ulice.txt"/>
  </way>
  <way id="27322228" version="2" timestamp="2008-10-06T22:51:29Z" uid="30632" user="antblant" changeset="125062">
    <nd ref="299908608"/>
    <nd ref="299909154"/>
    <nd ref="299908691"/>
    <nd ref="299909155"/>
    <nd ref="299908778"/>
    <nd ref="299908722"/>
    <nd ref="299908747"/>
    <nd ref="299908950"/>
    <nd ref="299908952"/>
    <nd ref="299909156"/>
    <tag k="highway" v="residential"/>
    <tag k="name" v="Powstańców Wielkopolskich"/>
    <tag k="source" v="UMP-PL, ./UMP-Poznan/src/WRZESNIA.ulice.txt"/>
  </way>
  <way id="27322229" version="2" timestamp="2008-10-06T22:51:30Z" uid="30632" user="antblant" changeset="125062">
    <nd ref="299908821"/>
    <nd ref="299908810"/>
    <tag k="highway" v="residential"/>
    <tag k="name" v="3 Maja"/>
    <tag k="source" v="UMP-PL, ./UMP-Poznan/src/WRZESNIA.ulice.txt"/>
  </way>
  <way id="27322230" version="2" timestamp="2008-10-06T22:51:30Z" uid="30632" user="antblant" changeset="125062">
    <nd ref="299908356"/>
    <nd ref="299908353"/>
    <nd ref="299908355"/>
    <tag k="highway" v="tertiary"/>
    <tag k="name" v="Kaliska"/>
    <tag k="source" v="UMP-PL, ./UMP-Poznan/src/WRZESNIA.ulice.txt"/>
  </way>
  <way id="27322231" version="2" timestamp="2008-10-06T22:51:30Z" uid="30632" user="antblant" changeset="125062">
    <nd ref="299908767"/>
    <nd ref="299908770"/>
    <tag k="highway" v="residential"/>
    <tag k="name" v="Libelta"/>
    <tag k="source" v="UMP-PL, ./UMP-Poznan/src/WRZESNIA.ulice.txt"/>
  </way>
  <way id="27322232" version="2" timestamp="2008-10-06T22:51:26Z" uid="30632" user="antblant" changeset="125062">
    <nd ref="299908648"/>
    <nd ref="299908930"/>
    <nd ref="299908929"/>
    <tag k="highway" v="residential"/>
    <tag k="name" v="Kadłubka"/>
    <tag k="source" v="UMP-PL, ./UMP-Poznan/src/WRZESNIA.ulice.txt"/>
  </way>
  <way id="27322233" version="2" timestamp="2008-10-06T22:51:27Z" uid="30632" user="antblant" changeset="125062">
    <nd ref="299908690"/>
    <nd ref="299909170"/>
    <nd ref="299909171"/>
    <nd ref="299908688"/>
    <nd ref="299908708"/>
    <nd ref="299909153"/>
    <nd ref="299908601"/>
    <tag k="highway" v="residential"/>
    <tag k="name" v="Ciszka"/>
    <tag k="source" v="UMP-PL, ./UMP-Poznan/src/WRZESNIA.ulice.txt"/>
  </way>
  <way id="27322234" version="2" timestamp="2008-10-06T22:51:27Z" uid="30632" user="antblant" changeset="125062">
    <nd ref="299908822"/>
    <nd ref="299908804"/>
    <nd ref="299908559"/>
    <tag k="highway" v="residential"/>
    <tag k="name" v="Chopina"/>
    <tag k="source" v="UMP-PL, ./UMP-Poznan/src/WRZESNIA.ulice.txt"/>
  </way>
  <way id="27322236" version="2" timestamp="2008-10-06T22:51:27Z" uid="30632" user="antblant" changeset="125062">
    <nd ref="299908764"/>
    <nd ref="299908771"/>
    <tag k="highway" v="residential"/>
    <tag k="name" v="Traugutta"/>
    <tag k="source" v="UMP-PL, ./UMP-Poznan/src/WRZESNIA.ulice.txt"/>
  </way>
  <way id="27322237" version="2" timestamp="2008-10-06T22:51:28Z" uid="30632" user="antblant" changeset="125062">
    <nd ref="299908649"/>
    <nd ref="299908928"/>
    <nd ref="299908927"/>
    <nd ref="299908926"/>
    <nd ref="299908925"/>
    <nd ref="299908940"/>
    <nd ref="299908751"/>
    <tag k="highway" v="residential"/>
    <tag k="name" v="Kopernika"/>
    <tag k="source" v="UMP-PL, ./UMP-Poznan/src/WRZESNIA.ulice.txt"/>
  </way>
  <way id="27322238" version="2" timestamp="2008-10-06T22:51:28Z" uid="30632" user="antblant" changeset="125062">
    <nd ref="299908874"/>
    <nd ref="299909159"/>
    <tag k="highway" v="residential"/>
    <tag k="name" v="Broniewskiego"/>
    <tag k="source" v="UMP-PL, ./UMP-Poznan/src/WRZESNIA.ulice.txt"/>
  </way>
  <way id="27322240" version="2" timestamp="2008-10-06T22:52:32Z" uid="30632" user="antblant" changeset="125062">
    <nd ref="299908765"/>
    <nd ref="299908768"/>
    <tag k="highway" v="residential"/>
    <tag k="name" v="Skoraczewskiego"/>
    <tag k="source" v="UMP-PL, ./UMP-Poznan/src/WRZESNIA.ulice.txt"/>
  </way>
  <way id="27322241" version="2" timestamp="2008-10-06T22:52:33Z" uid="30632" user="antblant" changeset="125062">
    <nd ref="299908925"/>
    <nd ref="299908939"/>
    <nd ref="299908938"/>
    <nd ref="299908937"/>
    <nd ref="299908917"/>
    <tag k="highway" v="residential"/>
    <tag k="name" v="Marcinkowskiego"/>
    <tag k="source" v="UMP-PL, ./UMP-Poznan/src/WRZESNIA.ulice.txt"/>
  </way>
  <way id="27322242" version="2" timestamp="2008-10-06T22:52:31Z" uid="30632" user="antblant" changeset="125062">
    <nd ref="299908715"/>
    <nd ref="299909158"/>
    <tag k="highway" v="residential"/>
    <tag k="name" v="Staffa"/>
    <tag k="source" v="UMP-PL, ./UMP-Poznan/src/WRZESNIA.ulice.txt"/>
  </way>
  <way id="27322243" version="2" timestamp="2008-10-06T22:52:32Z" uid="30632" user="antblant" changeset="125062">
    <nd ref="299908985"/>
    <nd ref="299909057"/>
    <nd ref="299909138"/>
    <nd ref="299909046"/>
    <nd ref="299908989"/>
    <tag k="highway" v="residential"/>
    <tag k="name" v="Bolesława Chrobrego"/>
    <tag k="source" v="UMP-PL, ./UMP-Poznan/src/WRZESNIA.ulice.txt"/>
  </way>
  <way id="27322244" version="2" timestamp="2008-10-06T22:52:29Z" uid="30632" user="antblant" changeset="125062">
    <nd ref="299908365"/>
    <nd ref="299908364"/>
    <nd ref="299908372"/>
    <nd ref="299908371"/>
    <nd ref="299908370"/>
    <nd ref="299908368"/>
    <nd ref="299908377"/>
    <nd ref="299908375"/>
    <nd ref="299908374"/>
    <nd ref="299908373"/>
    <nd ref="299908344"/>
    <tag k="highway" v="residential"/>
    <tag k="name" v="Szczecińska"/>
    <tag k="source" v="UMP-PL, ./UMP-Poznan/src/WRZESNIA.ulice.txt"/>
  </way>
  <way id="27322245" version="2" timestamp="2008-10-06T22:52:30Z" uid="30632" user="antblant" changeset="125062">
    <nd ref="299908727"/>
    <nd ref="299908769"/>
    <tag k="highway" v="residential"/>
    <tag k="name" v="Drzymały"/>
    <tag k="source" v="UMP-PL, ./UMP-Poznan/src/WRZESNIA.ulice.txt"/>
  </way>
  <way id="27322247" version="2" timestamp="2008-10-06T22:52:28Z" uid="30632" user="antblant" changeset="125062">
    <nd ref="299908576"/>
    <nd ref="299909316"/>
    <tag k="highway" v="residential"/>
    <tag k="name" v="Parkowa"/>
    <tag k="source" v="UMP-PL, ./UMP-Poznan/src/WRZESNIA.ulice.txt"/>
  </way>
  <way id="27322248" version="2" timestamp="2008-10-06T22:52:38Z" uid="30632" user="antblant" changeset="125062">
    <nd ref="299908912"/>
    <nd ref="299908909"/>
    <nd ref="299909138"/>
    <nd ref="299908987"/>
    <tag k="highway" v="residential"/>
    <tag k="name" v="Królowej Jadwigi"/>
    <tag k="source" v="UMP-PL, ./UMP-Poznan/src/WRZESNIA.ulice.txt"/>
  </way>
  <way id="27322249" version="2" timestamp="2008-10-06T22:52:39Z" uid="30632" user="antblant" changeset="125062">
    <nd ref="299908928"/>
    <nd ref="299908936"/>
    <nd ref="299908935"/>
    <nd ref="299908938"/>
    <tag k="highway" v="residential"/>
    <tag k="name" v="Ściegiennego"/>
    <tag k="source" v="UMP-PL, ./UMP-Poznan/src/WRZESNIA.ulice.txt"/>
  </way>
  <way id="27322250" version="2" timestamp="2008-10-06T22:52:38Z" uid="30632" user="antblant" changeset="125062">
    <nd ref="299908521"/>
    <nd ref="299908822"/>
    <tag k="highway" v="residential"/>
    <tag k="name" v="Harcerska"/>
    <tag k="source" v="UMP-PL, ./UMP-Poznan/src/WRZESNIA.ulice.txt"/>
  </way>
  <way id="27322252" version="2" timestamp="2008-10-06T22:52:36Z" uid="30632" user="antblant" changeset="125062">
    <nd ref="299909065"/>
    <nd ref="299909151"/>
    <nd ref="299909136"/>
    <nd ref="299909089"/>
    <nd ref="299909074"/>
    <nd ref="299909073"/>
    <nd ref="299909068"/>
    <nd ref="299909135"/>
    <tag k="highway" v="residential"/>
    <tag k="name" v="Piastów"/>
    <tag k="source" v="UMP-PL, ./UMP-Poznan/src/WRZESNIA.ulice.txt"/>
  </way>
  <way id="27322253" version="2" timestamp="2008-10-06T22:52:36Z" uid="30632" user="antblant" changeset="125062">
    <nd ref="299908934"/>
    <nd ref="299908939"/>
    <tag k="highway" v="residential"/>
    <tag k="name" v="Orzeszkowej"/>
    <tag k="source" v="UMP-PL, ./UMP-Poznan/src/WRZESNIA.ulice.txt"/>
  </way>
  <way id="27322254" version="2" timestamp="2008-10-06T22:52:34Z" uid="30632" user="antblant" changeset="125062">
    <nd ref="299908821"/>
    <nd ref="299908805"/>
    <nd ref="299908804"/>
    <tag k="highway" v="residential"/>
    <tag k="name" v="Moniuszki"/>
    <tag k="source" v="UMP-PL, ./UMP-Poznan/src/WRZESNIA.ulice.txt"/>
  </way>
  <way id="27322256" version="2" timestamp="2008-10-06T22:52:19Z" uid="30632" user="antblant" changeset="125062">
    <nd ref="299908927"/>
    <nd ref="299908935"/>
    <tag k="highway" v="residential"/>
    <tag k="name" v="Kołłątaja"/>
    <tag k="source" v="UMP-PL, ./UMP-Poznan/src/WRZESNIA.ulice.txt"/>
  </way>
  <way id="27322257" version="2" timestamp="2008-10-06T22:52:19Z" uid="30632" user="antblant" changeset="125062">
    <nd ref="299908561"/>
    <nd ref="299908808"/>
    <nd ref="299908821"/>
    <tag k="highway" v="residential"/>
    <tag k="name" v="3 Maja"/>
    <tag k="source" v="UMP-PL, ./UMP-Poznan/src/WRZESNIA.ulice.txt"/>
  </way>
  <way id="27322258" version="2" timestamp="2008-10-06T22:52:18Z" uid="30632" user="antblant" changeset="125062">
    <nd ref="299908539"/>
    <nd ref="299909317"/>
    <nd ref="299909319"/>
    <nd ref="299909320"/>
    <nd ref="299909322"/>
    <nd ref="299909325"/>
    <nd ref="299909326"/>
    <tag k="highway" v="residential"/>
    <tag k="name" v="Dworcowa"/>
    <tag k="source" v="UMP-PL, ./UMP-Poznan/src/WRZESNIA.ulice.txt"/>
  </way>
  <way id="27322259" version="2" timestamp="2008-10-06T22:52:18Z" uid="30632" user="antblant" changeset="125062">
    <nd ref="299908666"/>
    <nd ref="299909137"/>
    <nd ref="299909140"/>
    <nd ref="299909139"/>
    <nd ref="299909143"/>
    <nd ref="299908630"/>
    <nd ref="299908638"/>
    <nd ref="299908634"/>
    <nd ref="299909142"/>
    <nd ref="299908962"/>
    <nd ref="299908916"/>
    <nd ref="299908912"/>
    <nd ref="299909039"/>
    <nd ref="299908990"/>
    <nd ref="299909033"/>
    <nd ref="299909135"/>
    <nd ref="299909163"/>
    <nd ref="299909164"/>
    <nd ref="299909165"/>
    <nd ref="299909166"/>
    <nd ref="299909167"/>
    <nd ref="299909169"/>
    <nd ref="299908986"/>
    <tag k="highway" v="tertiary"/>
    <tag k="name" v="Słowackiego"/>
    <tag k="source" v="UMP-PL, ./UMP-Poznan/src/WRZESNIA.ulice.txt"/>
  </way>
  <way id="27322260" version="2" timestamp="2008-10-06T22:52:17Z" uid="30632" user="antblant" changeset="125062">
    <nd ref="299908933"/>
    <nd ref="299908937"/>
    <nd ref="299908931"/>
    <tag k="highway" v="residential"/>
    <tag k="name" v="Długosza"/>
    <tag k="source" v="UMP-PL, ./UMP-Poznan/src/WRZESNIA.ulice.txt"/>
  </way>
  <way id="27322261" version="2" timestamp="2008-10-06T22:52:17Z" uid="30632" user="antblant" changeset="125062">
    <nd ref="299909107"/>
    <nd ref="299909329"/>
    <nd ref="299909330"/>
    <nd ref="299908860"/>
    <tag k="highway" v="residential"/>
    <tag k="name" v="Kościelna"/>
    <tag k="source" v="UMP-PL, ./UMP-Poznan/src/WRZESNIA.ulice.txt"/>
  </way>
  <way id="27322264" version="2" timestamp="2008-10-06T22:52:26Z" uid="30632" user="antblant" changeset="125062">
    <nd ref="299908522"/>
    <nd ref="299908530"/>
    <nd ref="299908509"/>
    <tag k="highway" v="residential"/>
    <tag k="name" v="Suwalska"/>
    <tag k="source" v="UMP-PL, ./UMP-Poznan/src/WRZESNIA.ulice.txt"/>
  </way>
  <way id="27322265" version="2" timestamp="2008-10-06T22:52:25Z" uid="30632" user="antblant" changeset="125062">
    <nd ref="299908557"/>
    <nd ref="299908594"/>
    <nd ref="299909019"/>
    <nd ref="299909021"/>
    <nd ref="299908632"/>
    <tag k="highway" v="tertiary"/>
    <tag k="name" v="Legii Wrzesińskiej"/>
    <tag k="source" v="UMP-PL, ./UMP-Poznan/src/WRZESNIA.ulice.txt"/>
  </way>
  <way id="27322266" version="2" timestamp="2008-10-06T22:52:24Z" uid="30632" user="antblant" changeset="125062">
    <nd ref="299908815"/>
    <nd ref="299908704"/>
    <tag k="highway" v="residential"/>
    <tag k="name" v="Konopnickiej"/>
    <tag k="source" v="UMP-PL, ./UMP-Poznan/src/WRZESNIA.ulice.txt"/>
  </way>
  <way id="27322267" version="2" timestamp="2008-10-06T22:52:23Z" uid="30632" user="antblant" changeset="125062">
    <nd ref="299908736"/>
    <nd ref="299908995"/>
    <nd ref="299908996"/>
    <nd ref="299908997"/>
    <tag k="highway" v="residential"/>
    <tag k="name" v="Chmielowskiego"/>
    <tag k="source" v="UMP-PL, ./UMP-Poznan/src/WRZESNIA.ulice.txt"/>
  </way>
  <way id="27322268" version="2" timestamp="2008-10-06T22:52:23Z" uid="30632" user="antblant" changeset="125062">
    <nd ref="299908371"/>
    <nd ref="299909152"/>
    <nd ref="299908400"/>
    <nd ref="299908388"/>
    <tag k="highway" v="residential"/>
    <tag k="name" v="Koszalińska"/>
    <tag k="source" v="UMP-PL, ./UMP-Poznan/src/WRZESNIA.ulice.txt"/>
  </way>
  <way id="27322269" version="2" timestamp="2008-10-06T22:52:21Z" uid="30632" user="antblant" changeset="125062">
    <nd ref="299908677"/>
    <nd ref="299908859"/>
    <nd ref="299909332"/>
    <nd ref="299908849"/>
    <tag k="highway" v="residential"/>
    <tag k="name" v="Jana Pawła II"/>
    <tag k="source" v="UMP-PL, ./UMP-Poznan/src/WRZESNIA.ulice.txt"/>
  </way>
  <way id="27322270" version="2" timestamp="2008-10-06T22:52:20Z" uid="30632" user="antblant" changeset="125062">
    <nd ref="299908814"/>
    <nd ref="299908706"/>
    <nd ref="299908817"/>
    <nd ref="299908815"/>
    <nd ref="299908645"/>
    <tag k="highway" v="residential"/>
    <tag k="name" v="Konopnickiej"/>
    <tag k="source" v="UMP-PL, ./UMP-Poznan/src/WRZESNIA.ulice.txt"/>
  </way>
  <way id="27322271" version="2" timestamp="2008-10-06T22:52:20Z" uid="30632" user="antblant" changeset="125062">
    <nd ref="299908606"/>
    <nd ref="299908998"/>
    <nd ref="299908999"/>
    <nd ref="299909000"/>
    <nd ref="299908745"/>
    <tag k="highway" v="residential"/>
    <tag k="name" v="Matejki"/>
    <tag k="source" v="UMP-PL, ./UMP-Poznan/src/WRZESNIA.ulice.txt"/>
  </way>
  <way id="27322272" version="2" timestamp="2008-10-06T22:52:09Z" uid="30632" user="antblant" changeset="125062">
    <nd ref="299908591"/>
    <nd ref="299908621"/>
    <nd ref="299908619"/>
    <nd ref="299909020"/>
    <tag k="highway" v="residential"/>
    <tag k="name" v="Słowian"/>
    <tag k="source" v="UMP-PL, ./UMP-Poznan/src/WRZESNIA.ulice.txt"/>
  </way>
  <way id="27322273" version="2" timestamp="2008-10-06T22:52:10Z" uid="30632" user="antblant" changeset="125062">
    <nd ref="299909096"/>
    <nd ref="299909332"/>
    <tag k="highway" v="residential"/>
    <tag k="name" v="Rzeczna"/>
    <tag k="source" v="UMP-PL, ./UMP-Poznan/src/WRZESNIA.ulice.txt"/>
  </way>
  <way id="27322274" version="2" timestamp="2008-10-06T22:52:11Z" uid="30632" user="antblant" changeset="125062">
    <nd ref="299908646"/>
    <nd ref="299908814"/>
    <nd ref="299908816"/>
    <nd ref="299908820"/>
    <nd ref="299908673"/>
    <tag k="highway" v="residential"/>
    <tag k="name" v="Konopnickiej"/>
    <tag k="source" v="UMP-PL, ./UMP-Poznan/src/WRZESNIA.ulice.txt"/>
  </way>
  <way id="27322275" version="2" timestamp="2008-10-06T22:52:11Z" uid="30632" user="antblant" changeset="125062">
    <nd ref="299909001"/>
    <nd ref="299909004"/>
    <nd ref="299908999"/>
    <tag k="highway" v="residential"/>
    <tag k="name" v="Malczewskiego"/>
    <tag k="source" v="UMP-PL, ./UMP-Poznan/src/WRZESNIA.ulice.txt"/>
  </way>
  <way id="27322276" version="2" timestamp="2008-10-06T22:52:07Z" uid="30632" user="antblant" changeset="125062">
    <nd ref="299908486"/>
    <nd ref="299908512"/>
    <tag k="highway" v="residential"/>
    <tag k="name" v="Oleśnicka"/>
    <tag k="source" v="UMP-PL, ./UMP-Poznan/src/WRZESNIA.ulice.txt"/>
  </way>
  <way id="27322290" version="1" timestamp="2008-09-26T06:36:14Z" uid="43863" user="Rundling" changeset="698643">
    <nd ref="299910352"/>
    <nd ref="299910354"/>
    <nd ref="299910353"/>
    <nd ref="299910355"/>
    <nd ref="299910352"/>
    <tag k="addr:city" v="Rosche"/>
    <tag k="addr:housenumber" v="8"/>
    <tag k="addr:postcode" v="29571"/>
    <tag k="addr:street" v="Lüchower Straße"/>
    <tag k="building" v="yes"/>
    <tag k="created_by" v="Merkaartor 0.11"/>
  </way>
  <way id="27322290" version="2" timestamp="2011-02-27T15:25:10Z" uid="43863" user="Rundling" changeset="7411854">
    <nd ref="299910352"/>
    <nd ref="299910354"/>
    <nd ref="1177298475"/>
    <nd ref="1177298484"/>
    <nd ref="299910352"/>
    <tag k="addr:city" v="Rosche"/>
    <tag k="addr:housenumber" v="8"/>
    <tag k="addr:postcode" v="29571"/>
    <tag k="addr:street" v="Lüchower Straße"/>
    <tag k="building" v="yes"/>
  </way>
  <way id="27322292" version="1" timestamp="2008-09-26T06:36:14Z" uid="43863" user="Rundling" changeset="698643">
    <nd ref="299910359"/>
    <nd ref="299910358"/>
    <nd ref="299910357"/>
    <nd ref="299910356"/>
    <nd ref="299910359"/>
    <tag k="addr:city" v="Rosche"/>
    <tag k="addr:housenumber" v="11"/>
    <tag k="addr:postcode" v="29571"/>
    <tag k="addr:street" v="Lüchower Straße"/>
    <tag k="building" v="yes"/>
    <tag k="created_by" v="Merkaartor 0.11"/>
  </way>
  <way id="27322292" version="2" timestamp="2009-03-05T09:17:46Z" uid="43863" user="Rundling" changeset="738113">
    <nd ref="299910359"/>
    <nd ref="299910358"/>
    <nd ref="299910357"/>
    <nd ref="299910356"/>
    <nd ref="299910359"/>
    <tag k="addr:city" v="Rosche"/>
    <tag k="addr:housenumber" v="11"/>
    <tag k="addr:postcode" v="29571"/>
    <tag k="addr:street" v="Lüchower Straße"/>
    <tag k="building" v="yes"/>
  </way>
  <way id="27322293" version="1" timestamp="2008-09-26T06:36:14Z" uid="43863" user="Rundling" changeset="698643">
    <nd ref="299910363"/>
    <nd ref="299910362"/>
    <nd ref="299910361"/>
    <nd ref="299910360"/>
    <nd ref="299910363"/>
    <tag k="addr:city" v="Rosche"/>
    <tag k="addr:housenumber" v="9"/>
    <tag k="addr:postcode" v="29571"/>
    <tag k="addr:street" v="Lüchower Straße"/>
    <tag k="building" v="yes"/>
    <tag k="created_by" v="Merkaartor 0.11"/>
  </way>
  <way id="27322294" version="1" timestamp="2008-09-26T06:36:15Z" uid="43863" user="Rundling" changeset="698643">
    <nd ref="299910368"/>
    <nd ref="299910367"/>
    <nd ref="299910366"/>
    <nd ref="299910364"/>
    <nd ref="299910368"/>
    <tag k="addr:city" v="Rosche"/>
    <tag k="addr:housenumber" v="7"/>
    <tag k="addr:postcode" v="29571"/>
    <tag k="addr:street" v="Lüchower Straße"/>
    <tag k="building" v="yes"/>
    <tag k="created_by" v="Merkaartor 0.11"/>
  </way>
  <way id="27322295" version="1" timestamp="2008-09-26T06:36:15Z" uid="43863" user="Rundling" changeset="698643">
    <nd ref="299910372"/>
    <nd ref="299910371"/>
    <nd ref="299910370"/>
    <nd ref="299910369"/>
    <nd ref="299910372"/>
    <tag k="addr:city" v="Rosche"/>
    <tag k="addr:housenumber" v="5"/>
    <tag k="addr:postcode" v="29571"/>
    <tag k="addr:street" v="Lüchower Straße"/>
    <tag k="building" v="yes"/>
    <tag k="created_by" v="Merkaartor 0.11"/>
  </way>
  <way id="27322297" version="3" timestamp="2009-01-01T16:08:09Z" uid="43863" user="Rundling" changeset="702079">
    <nd ref="275649583"/>
    <nd ref="299910417"/>
    <nd ref="299910418"/>
    <nd ref="299910420"/>
    <nd ref="299910421"/>
    <nd ref="299910422"/>
    <nd ref="299910425"/>
    <tag k="created_by" v="Potlatch 0.10e"/>
    <tag k="highway" v="track"/>
    <tag k="tracktype" v="grade3"/>
  </way>
  <way id="27322299" version="2" timestamp="2009-01-01T16:08:09Z" uid="43863" user="Rundling" changeset="702079">
    <nd ref="299910425"/>
    <nd ref="299910426"/>
    <tag k="bridge" v="yes"/>
    <tag k="highway" v="track"/>
    <tag k="layer" v="1"/>
    <tag k="tracktype" v="grade3"/>
  </way>
  <way id="27322448" version="4" timestamp="2009-11-26T18:19:10Z" uid="20587" user="balrog-kun" changeset="3222155">
    <nd ref="299911512"/>
    <nd ref="316753959"/>
    <nd ref="299911510"/>
    <nd ref="299911509"/>
    <nd ref="299911507"/>
    <nd ref="299911506"/>
    <nd ref="299911505"/>
    <nd ref="299911548"/>
    <nd ref="299911549"/>
    <nd ref="299911545"/>
    <nd ref="299911546"/>
    <nd ref="299911542"/>
    <nd ref="299911544"/>
    <nd ref="299911539"/>
    <nd ref="299911541"/>
    <nd ref="299911369"/>
    <nd ref="299911536"/>
    <nd ref="299911538"/>
    <nd ref="299911533"/>
    <nd ref="299911535"/>
    <nd ref="299911530"/>
    <nd ref="299911532"/>
    <nd ref="299911528"/>
    <nd ref="310070766"/>
    <tag k="highway" v="tertiary"/>
    <tag k="name" v="Mściszewska"/>
    <tag k="source" v="UMP-PL, ./UMP-Poznan/src/MUROWANA_GOSLINA.ulice.txt"/>
  </way>
  <way id="27322473" version="1" timestamp="2008-09-26T06:43:39Z" uid="43863" user="Rundling" changeset="698643">
    <nd ref="299911977"/>
    <nd ref="299911975"/>
    <nd ref="299911974"/>
    <nd ref="299911971"/>
    <nd ref="299911977"/>
    <tag k="addr:city" v="Rosche"/>
    <tag k="addr:housenumber" v="12"/>
    <tag k="addr:postcode" v="29571"/>
    <tag k="addr:street" v="An der Wipperau"/>
    <tag k="building" v="yes"/>
    <tag k="created_by" v="Merkaartor 0.11"/>
  </way>
  <way id="27322474" version="1" timestamp="2008-09-26T06:43:39Z" uid="43863" user="Rundling" changeset="698643">
    <nd ref="299911981"/>
    <nd ref="299911978"/>
    <nd ref="299911980"/>
    <nd ref="299911983"/>
    <nd ref="299911981"/>
    <tag k="addr:city" v="Rosche"/>
    <tag k="addr:housenumber" v="10"/>
    <tag k="addr:postcode" v="29571"/>
    <tag k="addr:street" v="An der Wipperau"/>
    <tag k="building" v="yes"/>
    <tag k="created_by" v="Merkaartor 0.11"/>
  </way>
  <way id="27322475" version="1" timestamp="2008-09-26T06:43:39Z" uid="43863" user="Rundling" changeset="698643">
    <nd ref="299911987"/>
    <nd ref="299911984"/>
    <nd ref="299911985"/>
    <nd ref="299911988"/>
    <nd ref="299911987"/>
    <tag k="addr:city" v="Rosche"/>
    <tag k="addr:housenumber" v="8"/>
    <tag k="addr:postcode" v="29571"/>
    <tag k="addr:street" v="An der Wipperau"/>
    <tag k="building" v="yes"/>
    <tag k="created_by" v="Merkaartor 0.11"/>
  </way>
  <way id="27322476" version="1" timestamp="2008-09-26T06:43:39Z" uid="43863" user="Rundling" changeset="698643">
    <nd ref="299911991"/>
    <nd ref="299911989"/>
    <nd ref="299911990"/>
    <nd ref="299911992"/>
    <nd ref="299911991"/>
    <tag k="addr:city" v="Rosche"/>
    <tag k="addr:housenumber" v="6"/>
    <tag k="addr:postcode" v="29571"/>
    <tag k="addr:street" v="An der Wipperau"/>
    <tag k="building" v="yes"/>
    <tag k="created_by" v="Merkaartor 0.11"/>
  </way>
  <way id="27322477" version="1" timestamp="2008-09-26T06:43:39Z" uid="43863" user="Rundling" changeset="698643">
    <nd ref="299911995"/>
    <nd ref="299911993"/>
    <nd ref="299911994"/>
    <nd ref="299911996"/>
    <nd ref="299911995"/>
    <tag k="addr:city" v="Rosche"/>
    <tag k="addr:housenumber" v="4"/>
    <tag k="addr:postcode" v="29571"/>
    <tag k="addr:street" v="An der Wipperau"/>
    <tag k="building" v="yes"/>
    <tag k="created_by" v="Merkaartor 0.11"/>
  </way>
  <way id="27322478" version="1" timestamp="2008-09-26T06:43:39Z" uid="43863" user="Rundling" changeset="698643">
    <nd ref="299912000"/>
    <nd ref="299911997"/>
    <nd ref="299911998"/>
    <nd ref="299912001"/>
    <nd ref="299912000"/>
    <tag k="addr:city" v="Rosche"/>
    <tag k="addr:housenumber" v="2"/>
    <tag k="addr:postcode" v="29571"/>
    <tag k="addr:street" v="An der Wipperau"/>
    <tag k="building" v="yes"/>
    <tag k="created_by" v="Merkaartor 0.11"/>
  </way>
  <way id="27322479" version="1" timestamp="2008-09-26T06:43:40Z" uid="43863" user="Rundling" changeset="698643">
    <nd ref="299912004"/>
    <nd ref="299912002"/>
    <nd ref="299912003"/>
    <nd ref="299912006"/>
    <nd ref="299912004"/>
    <tag k="addr:city" v="Rosche"/>
    <tag k="addr:housenumber" v="11"/>
    <tag k="addr:postcode" v="29571"/>
    <tag k="addr:street" v="An der Wipperau"/>
    <tag k="building" v="yes"/>
    <tag k="created_by" v="Merkaartor 0.11"/>
  </way>
  <way id="27322479" version="2" timestamp="2009-10-17T08:17:06Z" uid="43863" user="Rundling" changeset="2871341">
    <nd ref="299912004"/>
    <nd ref="299912002"/>
    <nd ref="299912003"/>
    <nd ref="299912006"/>
    <nd ref="299912004"/>
    <tag k="addr:city" v="Rosche"/>
    <tag k="addr:housenumber" v="11"/>
    <tag k="addr:postcode" v="29571"/>
    <tag k="addr:street" v="An der Wipperau"/>
    <tag k="building" v="yes"/>
  </way>
  <way id="27322480" version="1" timestamp="2008-09-26T06:43:40Z" uid="43863" user="Rundling" changeset="698643">
    <nd ref="299912009"/>
    <nd ref="299912007"/>
    <nd ref="299912008"/>
    <nd ref="299912010"/>
    <nd ref="299912009"/>
    <tag k="addr:city" v="Rosche"/>
    <tag k="addr:housenumber" v="9"/>
    <tag k="addr:postcode" v="29571"/>
    <tag k="addr:street" v="An der Wipperau"/>
    <tag k="building" v="yes"/>
    <tag k="created_by" v="Merkaartor 0.11"/>
  </way>
  <way id="27322481" version="1" timestamp="2008-09-26T06:43:40Z" uid="43863" user="Rundling" changeset="698643">
    <nd ref="299912014"/>
    <nd ref="299912012"/>
    <nd ref="299912013"/>
    <nd ref="299912015"/>
    <nd ref="299912014"/>
    <tag k="addr:city" v="Rosche"/>
    <tag k="addr:housenumber" v="7"/>
    <tag k="addr:postcode" v="29571"/>
    <tag k="addr:street" v="An der Wipperau"/>
    <tag k="building" v="yes"/>
    <tag k="created_by" v="Merkaartor 0.11"/>
  </way>
  <way id="27322482" version="1" timestamp="2008-09-26T06:43:40Z" uid="43863" user="Rundling" changeset="698643">
    <nd ref="299912019"/>
    <nd ref="299912016"/>
    <nd ref="299912017"/>
    <nd ref="299912020"/>
    <nd ref="299912019"/>
    <tag k="addr:city" v="Rosche"/>
    <tag k="addr:housenumber" v="5"/>
    <tag k="addr:postcode" v="29571"/>
    <tag k="addr:street" v="An der Wipperau"/>
    <tag k="building" v="yes"/>
    <tag k="created_by" v="Merkaartor 0.11"/>
  </way>
  <way id="27322483" version="1" timestamp="2008-09-26T06:43:40Z" uid="43863" user="Rundling" changeset="698643">
    <nd ref="299912023"/>
    <nd ref="299912021"/>
    <nd ref="299912022"/>
    <nd ref="299912024"/>
    <nd ref="299912023"/>
    <tag k="addr:city" v="Rosche"/>
    <tag k="addr:housenumber" v="3"/>
    <tag k="addr:postcode" v="29571"/>
    <tag k="addr:street" v="An der Wipperau"/>
    <tag k="building" v="yes"/>
    <tag k="created_by" v="Merkaartor 0.11"/>
  </way>
  <way id="27322484" version="1" timestamp="2008-09-26T06:43:40Z" uid="43863" user="Rundling" changeset="698643">
    <nd ref="299912027"/>
    <nd ref="299912025"/>
    <nd ref="299912026"/>
    <nd ref="299912029"/>
    <nd ref="299912027"/>
    <tag k="addr:city" v="Rosche"/>
    <tag k="addr:housenumber" v="1"/>
    <tag k="addr:postcode" v="29571"/>
    <tag k="addr:street" v="An der Wipperau"/>
    <tag k="building" v="yes"/>
    <tag k="created_by" v="Merkaartor 0.11"/>
  </way>
  <way id="27322528" version="4" timestamp="2010-07-08T19:23:35Z" uid="74617" user="JohnSmith" changeset="5168730">
    <nd ref="26795970"/>
    <nd ref="299912301"/>
    <nd ref="26795980"/>
    <tag k="highway" v="residential"/>
    <tag k="maxspeed" v="50"/>
    <tag k="maxspeed:source" v="default residential speed limit in Australia"/>
    <tag k="name" v="Gloucester Court"/>
  </way>
  <way id="27322778" version="11" timestamp="2010-03-28T00:09:01Z" uid="20587" user="balrog-kun" changeset="4250871">
    <nd ref="90350046"/>
    <nd ref="90350047"/>
    <nd ref="90350048"/>
    <nd ref="90350049"/>
    <tag k="created_by" v="Potlatch 0.10f"/>
    <tag k="highway" v="residential"/>
    <tag k="name" v="Jan Drive"/>
    <tag k="tiger:cfcc" v="A41"/>
    <tag k="tiger:county" v="Sacramento, CA"/>
    <tag k="tiger:name_base" v="Jan"/>
    <tag k="tiger:name_type" v="Dr"/>
    <tag k="tiger:reviewed" v="no"/>
    <tag k="tiger:separated" v="no"/>
    <tag k="tiger:source" v="tiger_import_dch_v0.6_20070809"/>
    <tag k="tiger:tlid" v="133343439:133343440:133343442:133343464:133343466:133343473:133343474:133343477:133343537:133343024:133343025:133370270:133343539:133445764:133342954:133343445:133342909"/>
    <tag k="tiger:zip_left" v="95608"/>
    <tag k="tiger:zip_right" v="95608"/>
  </way>
  <way id="27322916" version="6" timestamp="2010-04-03T13:40:05Z" uid="20587" user="balrog-kun" changeset="4312927">
    <nd ref="84391303"/>
    <nd ref="84413707"/>
    <tag k="bridge" v="yes"/>
    <tag k="highway" v="secondary"/>
    <tag k="layer" v="1"/>
    <tag k="name" v="West 31st Street"/>
    <tag k="name_1" v="West 3100 South"/>
    <tag k="name_2" v="State Route 79"/>
    <tag k="ref" v="UT-79"/>
    <tag k="tiger:cfcc" v="A31"/>
    <tag k="tiger:county" v="Weber, UT"/>
    <tag k="tiger:name_base" v="State Route 79"/>
    <tag k="tiger:reviewed" v="yes"/>
    <tag k="tiger:separated" v="no"/>
    <tag k="tiger:source" v="tiger_import_dch_v0.6_20070830"/>
    <tag k="tiger:tlid" v="155695855:155695870:155695875:155695869:155695890:155695900:155695892:155695993:155696002:155695991:155695996:155695880"/>
  </way>
  <way id="27322917" version="6" timestamp="2010-04-03T13:40:05Z" uid="20587" user="balrog-kun" changeset="4312927">
    <nd ref="84413707"/>
    <nd ref="84389359"/>
    <nd ref="300442283"/>
    <nd ref="84389370"/>
    <tag k="highway" v="secondary"/>
    <tag k="name" v="West 31st Street"/>
    <tag k="name_1" v="West 3100 South"/>
    <tag k="name_2" v="State Route 79"/>
    <tag k="ref" v="UT-79"/>
    <tag k="tiger:cfcc" v="A31"/>
    <tag k="tiger:county" v="Weber, UT"/>
    <tag k="tiger:name_base" v="State Route 79"/>
    <tag k="tiger:reviewed" v="yes"/>
    <tag k="tiger:separated" v="no"/>
    <tag k="tiger:source" v="tiger_import_dch_v0.6_20070830"/>
    <tag k="tiger:tlid" v="155695855:155695870:155695875:155695869:155695890:155695900:155695892:155695993:155696002:155695991:155695996:155695880"/>
  </way>
</osm>
