<?xml version='1.0' encoding='UTF-8'?>
<osm version="0.6" generator="libosmium/2.20.0">
  <way id="27345538" version="1" timestamp="2008-09-27T03:27:00Z" uid="61114" user="Trav" changeset="707836">
    <nd ref="300200576"/>
    <nd ref="300200582"/>
    <nd ref="300200587"/>
    <nd ref="300200592"/>
    <nd ref="300200598"/>
    <nd ref="300200603"/>
    <nd ref="300200576"/>
    <tag k="amenity" v="school"/>
    <tag k="created_by" v="Merkaartor 0.13"/>
    <tag k="source" v="yahoo_imagery"/>
  </way>
  <way id="27345563" version="2" timestamp="2010-03-28T00:09:17Z" uid="20587" user="balrog-kun" changeset="4250871">
    <nd ref="92176536"/>
    <nd ref="92085625"/>
    <tag k="highway" v="residential"/>
    <tag k="name" v="Long Valley Road"/>
    <tag k="tiger:cfcc" v="A41"/>
    <tag k="tiger:county" v="Sierra, CA"/>
    <tag k="tiger:name_base" v="Long Valley"/>
    <tag k="tiger:name_type" v="Rd"/>
    <tag k="tiger:reviewed" v="no"/>
    <tag k="tiger:separated" v="no"/>
    <tag k="tiger:source" v="tiger_import_dch_v0.6_20070809"/>
    <tag k="tiger:tlid" v="106898804:106898661:106906531:106906532:106898907:106898909:106898926:106898694:106912042:106912043:106911598:106911599:106906541:106898906:106898698:106906016"/>
  </way>
  <way id="27345564" version="1" timestamp="2008-09-27T03:37:10Z" uid="61114" user="Trav" changeset="707836">
    <nd ref="300203585"/>
    <nd ref="300203594"/>
    <tag k="created_by" v="Merkaartor 0.13"/>
    <tag k="highway" v="service"/>
    <tag k="name" v="Jago Street"/>
    <tag k="source" v="approximation"/>
    <tag k="source:name" v="survey"/>
  </way>
  <way id="27345564" version="2" timestamp="2011-02-06T08:02:42Z" uid="4467" user="Rosscoe" changeset="7200498">
    <nd ref="300203585"/>
    <nd ref="300203594"/>
    <tag k="highway" v="service"/>
    <tag k="name" v="Jago Street"/>
    <tag k="source" v="nearmap"/>
    <tag k="source:name" v="survey"/>
  </way>
  <way id="27345565" version="1" timestamp="2008-09-27T03:37:13Z" uid="61114" user="Trav" changeset="707836">
    <nd ref="300203600"/>
    <nd ref="300203611"/>
    <tag k="created_by" v="Merkaartor 0.13"/>
    <tag k="highway" v="unclassified"/>
    <tag k="name" v="Landenburg Place"/>
    <tag k="source" v="approximation"/>
    <tag k="source:name" v="survey"/>
  </way>
  <way id="27345566" version="1" timestamp="2008-09-27T03:37:17Z" uid="61114" user="Trav" changeset="707836">
    <nd ref="300203621"/>
    <nd ref="300203626"/>
    <nd ref="300203632"/>
    <nd ref="300203638"/>
    <nd ref="300203621"/>
    <tag k="complete" v="no"/>
    <tag k="created_by" v="Merkaartor 0.13"/>
    <tag k="layer" v="-1"/>
    <tag k="leisure" v="park"/>
    <tag k="name" v="Shell Park"/>
    <tag k="note" v="Extends further SSW along the shoreline, but not sure how far"/>
  </way>
  <way id="27345566" version="2" timestamp="2009-04-30T08:39:25Z" uid="61114" user="Trav" changeset="1024215">
    <nd ref="300203621"/>
    <nd ref="300203626"/>
    <nd ref="387657389"/>
    <nd ref="300203632"/>
    <nd ref="387657480"/>
    <nd ref="300203638"/>
    <nd ref="300203621"/>
    <tag k="layer" v="-1"/>
    <tag k="leisure" v="park"/>
    <tag k="name" v="Shell Park"/>
    <tag k="source" v="yahoo_imagery"/>
    <tag k="source:name" v="survey"/>
  </way>
  <way id="27345566" version="3" timestamp="2010-03-12T09:17:09Z" uid="61114" user="Trav" changeset="4104511">
    <nd ref="300203621"/>
    <nd ref="300203626"/>
    <nd ref="387657389"/>
    <nd ref="664447510"/>
    <nd ref="664447511"/>
    <nd ref="300203632"/>
    <nd ref="387657480"/>
    <nd ref="300203638"/>
    <nd ref="664447512"/>
    <nd ref="300203621"/>
    <tag k="layer" v="-1"/>
    <tag k="leisure" v="park"/>
    <tag k="name" v="Shell Park"/>
    <tag k="source" v="yahoo_imagery"/>
    <tag k="source:name" v="survey"/>
  </way>
  <way id="27345663" version="1" timestamp="2008-09-27T03:52:17Z" uid="7617" user="Franc" changeset="703276">
    <nd ref="20166435"/>
    <nd ref="20146929"/>
    <nd ref="31427765"/>
    <nd ref="20146934"/>
    <nd ref="199679642"/>
    <nd ref="31427914"/>
    <nd ref="20146942"/>
    <nd ref="101969305"/>
    <nd ref="82390452"/>
    <nd ref="33302470"/>
    <nd ref="199705959"/>
    <nd ref="33302620"/>
    <nd ref="199706503"/>
    <nd ref="31427901"/>
    <nd ref="33302665"/>
    <nd ref="20146956"/>
    <tag k="abutters" v="mixed"/>
    <tag k="created_by" v="Potlatch 0.6c"/>
    <tag k="highway" v="trunk"/>
    <tag k="name" v="Parramatta Road"/>
    <tag k="ref" v="MR4"/>
  </way>
  <way id="27345663" version="2" timestamp="2008-09-27T05:08:57Z" uid="7617" user="Franc" changeset="703319">
    <nd ref="20146956"/>
    <nd ref="33302665"/>
    <nd ref="31427901"/>
    <nd ref="199706503"/>
    <nd ref="33302620"/>
    <nd ref="199705959"/>
    <nd ref="33302470"/>
    <nd ref="82390452"/>
    <nd ref="101969305"/>
    <nd ref="20146942"/>
    <nd ref="31427914"/>
    <nd ref="199679642"/>
    <nd ref="20146934"/>
    <nd ref="31427765"/>
    <nd ref="20146929"/>
    <nd ref="20166435"/>
    <tag k="abutters" v="mixed"/>
    <tag k="created_by" v="Potlatch 0.6c"/>
    <tag k="highway" v="trunk"/>
    <tag k="name" v="Parramatta Road"/>
    <tag k="oneway" v="yes"/>
    <tag k="ref" v="MR4"/>
  </way>
  <way id="27345663" version="3" timestamp="2009-08-23T19:50:34Z" uid="7617" user="Franc" changeset="2235596">
    <nd ref="20146956"/>
    <nd ref="33302665"/>
    <nd ref="31427901"/>
    <nd ref="199706503"/>
    <nd ref="33302620"/>
    <nd ref="199705959"/>
    <nd ref="33302470"/>
    <nd ref="82390452"/>
    <nd ref="101969305"/>
    <nd ref="20146942"/>
    <nd ref="31427914"/>
    <nd ref="199679642"/>
    <nd ref="20146934"/>
    <nd ref="31427765"/>
    <nd ref="20146929"/>
    <nd ref="472421389"/>
    <nd ref="20166435"/>
    <tag k="abutters" v="mixed"/>
    <tag k="created_by" v="Potlatch 0.6c"/>
    <tag k="highway" v="trunk"/>
    <tag k="name" v="Parramatta Road"/>
    <tag k="oneway" v="yes"/>
    <tag k="ref" v="MR4"/>
  </way>
  <way id="27345663" version="4" timestamp="2009-12-10T05:14:40Z" uid="30201" user="rrankin" changeset="3339178">
    <nd ref="20146956"/>
    <nd ref="33302665"/>
    <nd ref="31427901"/>
    <nd ref="199706503"/>
    <nd ref="33302620"/>
    <nd ref="199705959"/>
    <nd ref="33302470"/>
    <nd ref="82390452"/>
    <nd ref="101969305"/>
    <nd ref="20146942"/>
    <nd ref="31427914"/>
    <nd ref="199679642"/>
    <nd ref="20146934"/>
    <nd ref="31427765"/>
    <nd ref="20146929"/>
    <nd ref="472421389"/>
    <nd ref="20166435"/>
    <tag k="highway" v="trunk"/>
    <tag k="name" v="Parramatta Road"/>
    <tag k="oneway" v="yes"/>
    <tag k="ref" v="MR4"/>
  </way>
  <way id="27345663" version="5" timestamp="2009-12-16T06:00:49Z" uid="30201" user="rrankin" changeset="3384624">
    <nd ref="20146956"/>
    <nd ref="33302665"/>
    <nd ref="31427901"/>
    <tag k="highway" v="trunk"/>
    <tag k="name" v="Parramatta Road"/>
    <tag k="oneway" v="yes"/>
    <tag k="ref" v="MR4"/>
  </way>
  <way id="27345663" version="8" timestamp="2010-04-01T12:23:29Z" uid="74617" user="JohnSmith" changeset="4293399">
    <nd ref="20146956"/>
    <nd ref="33302665"/>
    <nd ref="31427901"/>
    <tag k="highway" v="trunk"/>
    <tag k="lanes" v="3"/>
    <tag k="maxspeed" v="60"/>
    <tag k="name" v="Parramatta Road"/>
    <tag k="oneway" v="yes"/>
  </way>
</osm>
