<?xml version='1.0' encoding='UTF-8'?>
<osm version="0.6" generator="libosmium/2.20.0">
  <way id="27376003" version="3" timestamp="2009-07-02T01:21:51Z" uid="23543" user="jkjk" changeset="1706021">
    <nd ref="300529091"/>
    <nd ref="300529176"/>
    <nd ref="300529092"/>
    <nd ref="432120429"/>
    <nd ref="432120407"/>
    <nd ref="300529093"/>
    <nd ref="300529095"/>
    <nd ref="300529096"/>
    <nd ref="300529097"/>
    <nd ref="300529099"/>
    <nd ref="300529100"/>
    <nd ref="300529102"/>
    <nd ref="300529103"/>
    <nd ref="300529104"/>
    <nd ref="300529105"/>
    <nd ref="300529106"/>
    <nd ref="300529107"/>
    <nd ref="300529109"/>
    <nd ref="300529110"/>
    <nd ref="300529111"/>
    <nd ref="300529112"/>
    <nd ref="300529113"/>
    <nd ref="300529114"/>
    <nd ref="300529115"/>
    <nd ref="300529118"/>
    <nd ref="342289599"/>
    <nd ref="300529119"/>
    <nd ref="300529120"/>
    <nd ref="300529121"/>
    <nd ref="300529122"/>
    <nd ref="300529125"/>
    <nd ref="300529127"/>
    <nd ref="300529128"/>
    <nd ref="300529129"/>
    <nd ref="432120488"/>
    <nd ref="300529130"/>
    <nd ref="300529131"/>
    <nd ref="432120475"/>
    <nd ref="300529132"/>
    <nd ref="300529133"/>
    <nd ref="300529134"/>
    <nd ref="300529135"/>
    <nd ref="300529136"/>
    <nd ref="300529137"/>
    <nd ref="300529138"/>
    <nd ref="300529139"/>
    <nd ref="300529143"/>
    <nd ref="300529145"/>
    <nd ref="300529146"/>
    <nd ref="300529147"/>
    <nd ref="300529148"/>
    <nd ref="300529149"/>
    <nd ref="300529150"/>
    <nd ref="300529151"/>
    <nd ref="300529152"/>
    <nd ref="300529153"/>
    <nd ref="300529154"/>
    <nd ref="300529155"/>
    <nd ref="300529156"/>
    <nd ref="300529157"/>
    <nd ref="300529158"/>
    <nd ref="300529159"/>
    <nd ref="300529160"/>
    <nd ref="300529161"/>
    <nd ref="300529162"/>
    <nd ref="300529163"/>
    <nd ref="300529164"/>
    <nd ref="300529165"/>
    <nd ref="300529166"/>
    <nd ref="300529167"/>
    <nd ref="300529168"/>
    <nd ref="300529169"/>
    <nd ref="300529170"/>
    <nd ref="300529172"/>
    <nd ref="300529173"/>
    <nd ref="300529091"/>
    <tag k="landuse" v="cemetery"/>
    <tag k="name" v="Starý židovský hřbitov"/>
    <tag k="name:de" v="Alter Jüdischer Friedhof"/>
    <tag k="tourism" v="attraction"/>
  </way>
  <way id="27376004" version="3" timestamp="2009-07-02T01:21:51Z" uid="23543" user="jkjk" changeset="1706021"/>
  <way id="27376006" version="3" timestamp="2010-04-15T16:38:59Z" uid="23543" user="jkjk" changeset="4432193">
    <nd ref="300529198"/>
    <nd ref="300529199"/>
    <nd ref="300529200"/>
    <nd ref="300529201"/>
    <nd ref="300529202"/>
    <nd ref="300529203"/>
    <nd ref="300529204"/>
    <nd ref="300529205"/>
    <nd ref="300529198"/>
    <tag k="amenity" v="place_of_worship"/>
    <tag k="building" v="yes"/>
    <tag k="name" v="Staronová synagoga"/>
    <tag k="note" v="Golem na pude"/>
    <tag k="religion" v="jewish"/>
    <tag k="source" v="cuzk:km"/>
  </way>
  <way id="27376077" version="3" timestamp="2008-11-26T02:07:03Z" uid="6975" user="ulfl" changeset="794829">
    <nd ref="300529520"/>
    <nd ref="300529702"/>
    <nd ref="300529703"/>
    <nd ref="300529704"/>
    <nd ref="300529705"/>
    <nd ref="300529706"/>
    <nd ref="300529707"/>
    <nd ref="300529708"/>
    <nd ref="300529709"/>
    <nd ref="300529710"/>
    <nd ref="300529711"/>
    <nd ref="300529712"/>
    <nd ref="300529713"/>
    <nd ref="300529714"/>
    <nd ref="300529716"/>
    <nd ref="300529717"/>
    <nd ref="300529718"/>
    <nd ref="300529719"/>
    <nd ref="300529720"/>
    <nd ref="300529721"/>
    <nd ref="300529722"/>
    <nd ref="300529723"/>
    <nd ref="300529724"/>
    <nd ref="300529725"/>
    <nd ref="300529726"/>
    <nd ref="300529727"/>
    <nd ref="300529728"/>
    <nd ref="300529729"/>
    <nd ref="300529730"/>
    <nd ref="300529732"/>
    <nd ref="300529733"/>
    <nd ref="300529734"/>
    <nd ref="300529735"/>
    <nd ref="300529736"/>
    <nd ref="300529737"/>
    <nd ref="300529738"/>
    <nd ref="300529739"/>
    <nd ref="300529740"/>
    <nd ref="300529741"/>
    <nd ref="300529743"/>
    <nd ref="300529744"/>
    <nd ref="300529746"/>
    <nd ref="300529747"/>
    <nd ref="300529748"/>
    <nd ref="300529749"/>
    <nd ref="298251708"/>
    <tag k="foot" v="yes"/>
    <tag k="highway" v="track"/>
    <tag k="tracktype" v="grade5"/>
  </way>
  <way id="27376242" version="1" timestamp="2008-09-28T10:24:13Z" uid="36809" user="pfoten_weg_!_" changeset="710763">
    <nd ref="277067586"/>
    <nd ref="300530950"/>
    <nd ref="300530962"/>
    <nd ref="300530954"/>
    <nd ref="300530958"/>
    <nd ref="300530956"/>
    <nd ref="300530960"/>
    <nd ref="300530952"/>
    <nd ref="300530948"/>
    <nd ref="289632271"/>
    <tag k="access" v="permissive"/>
    <tag k="bicycle" v="permissive"/>
    <tag k="created_by" v="RambaZamba"/>
    <tag k="foot" v="yes"/>
    <tag k="highway" v="footway"/>
    <tag k="layer" v="0"/>
    <tag k="motorcar" v="no"/>
    <tag k="name" v="Michael-Huber-Weg"/>
    <tag k="surface" v="paved"/>
    <tag k="width" v="5"/>
  </way>
  <way id="27376242" version="2" timestamp="2008-09-30T00:38:33Z" uid="36809" user="pfoten_weg_!_" changeset="720533">
    <nd ref="277067586"/>
    <nd ref="300530950"/>
    <nd ref="300530962"/>
    <nd ref="300530954"/>
    <nd ref="300530958"/>
    <nd ref="300530956"/>
    <nd ref="300530960"/>
    <nd ref="300530952"/>
    <nd ref="300530948"/>
    <nd ref="289632271"/>
    <tag k="bicycle" v="permissive"/>
    <tag k="created_by" v="RambaZamba"/>
    <tag k="foot" v="yes"/>
    <tag k="highway" v="footway"/>
    <tag k="layer" v="0"/>
    <tag k="motorcar" v="no"/>
    <tag k="name" v="Michael-Huber-Weg"/>
    <tag k="surface" v="paved"/>
    <tag k="width" v="5"/>
  </way>
  <way id="27376278" version="2" timestamp="2010-06-29T20:48:16Z" uid="74617" user="JohnSmith" changeset="5109183">
    <nd ref="300531373"/>
    <nd ref="300531374"/>
    <nd ref="300531375"/>
    <nd ref="300531376"/>
    <nd ref="300531373"/>
    <tag k="fixme" v="sport=rugby is ambiguous, see http://wiki.osm.org/wiki/Tag:sport%3Drugby for more details"/>
    <tag k="leisure" v="pitch"/>
    <tag k="sport" v="rugby"/>
  </way>
  <way id="27376285" version="2" timestamp="2010-06-29T20:49:54Z" uid="74617" user="JohnSmith" changeset="5109183">
    <nd ref="300531384"/>
    <nd ref="300531385"/>
    <nd ref="300531386"/>
    <nd ref="300531387"/>
    <nd ref="300531384"/>
    <tag k="fixme" v="sport=rugby is ambiguous, see http://wiki.osm.org/wiki/Tag:sport%3Drugby for more details"/>
    <tag k="leisure" v="pitch"/>
    <tag k="sport" v="rugby"/>
  </way>
  <way id="27376292" version="6" timestamp="2010-09-07T12:42:03Z" uid="43967" user="railsnail" changeset="5707190">
    <nd ref="298456973"/>
    <nd ref="900799920"/>
    <nd ref="300997248"/>
    <nd ref="300997247"/>
    <nd ref="889111810"/>
    <nd ref="300997246"/>
    <nd ref="300997244"/>
    <nd ref="889112505"/>
    <nd ref="300997243"/>
    <nd ref="889111152"/>
    <nd ref="300531415"/>
    <nd ref="300531416"/>
    <nd ref="300531417"/>
    <nd ref="300997285"/>
    <nd ref="300531418"/>
    <tag k="highway" v="residential"/>
    <tag k="name" v="Via Nassa"/>
    <tag k="oneway" v="yes"/>
  </way>
  <way id="27376296" version="1" timestamp="2008-09-28T10:26:57Z" uid="36809" user="pfoten_weg_!_" changeset="710763">
    <nd ref="300531450"/>
    <nd ref="300531447"/>
    <nd ref="300531448"/>
    <nd ref="300531449"/>
    <nd ref="300531450"/>
    <tag k="created_by" v="Potlatch 0.9a"/>
    <tag k="leisure" v="park"/>
  </way>
  <way id="27376296" version="2" timestamp="2008-09-28T12:54:40Z" uid="36809" user="pfoten_weg_!_" changeset="710763"/>
  <way id="27376679" version="1" timestamp="2008-09-28T10:47:56Z" uid="36809" user="pfoten_weg_!_" changeset="710763">
    <nd ref="300536462"/>
    <nd ref="300536442"/>
    <nd ref="300536451"/>
    <nd ref="300536454"/>
    <nd ref="300536466"/>
    <nd ref="300536439"/>
    <nd ref="300536446"/>
    <nd ref="300536458"/>
    <tag k="cycleway" v="track"/>
    <tag k="foot" v="yes"/>
    <tag k="highway" v="cycleway"/>
    <tag k="oneway" v="yes"/>
  </way>
  <way id="27376679" version="2" timestamp="2008-09-28T11:29:34Z" uid="36809" user="pfoten_weg_!_" changeset="710763">
    <nd ref="300546453"/>
    <nd ref="300536451"/>
    <nd ref="300536454"/>
    <nd ref="300536466"/>
    <nd ref="300536439"/>
    <nd ref="300536446"/>
    <nd ref="300536458"/>
    <tag k="cycleway" v="track"/>
    <tag k="foot" v="yes"/>
    <tag k="highway" v="cycleway"/>
    <tag k="oneway" v="yes"/>
  </way>
  <way id="27376679" version="3" timestamp="2008-09-28T11:33:49Z" uid="36809" user="pfoten_weg_!_" changeset="710763">
    <nd ref="300546453"/>
    <nd ref="300536451"/>
    <nd ref="300536454"/>
    <nd ref="300547089"/>
    <nd ref="300536446"/>
    <nd ref="300536458"/>
    <tag k="cycleway" v="track"/>
    <tag k="foot" v="yes"/>
    <tag k="highway" v="cycleway"/>
    <tag k="oneway" v="yes"/>
  </way>
  <way id="27376679" version="4" timestamp="2008-09-28T12:06:17Z" uid="36809" user="pfoten_weg_!_" changeset="710763">
    <nd ref="300546453"/>
    <nd ref="300536451"/>
    <nd ref="300536454"/>
    <nd ref="300547089"/>
    <nd ref="300554002"/>
    <nd ref="300554003"/>
    <nd ref="300554007"/>
    <nd ref="300536458"/>
    <tag k="cycleway" v="track"/>
    <tag k="foot" v="yes"/>
    <tag k="highway" v="cycleway"/>
    <tag k="oneway" v="yes"/>
  </way>
  <way id="27376679" version="5" timestamp="2008-09-28T12:27:21Z" uid="36809" user="pfoten_weg_!_" changeset="710763">
    <nd ref="300546453"/>
    <nd ref="300556603"/>
    <nd ref="300536451"/>
    <nd ref="300536454"/>
    <nd ref="300547089"/>
    <nd ref="300554002"/>
    <nd ref="300554003"/>
    <nd ref="300554007"/>
    <nd ref="300536458"/>
    <tag k="cycleway" v="track"/>
    <tag k="foot" v="yes"/>
    <tag k="highway" v="cycleway"/>
    <tag k="oneway" v="yes"/>
  </way>
  <way id="27376680" version="1" timestamp="2008-09-28T10:47:57Z" uid="36809" user="pfoten_weg_!_" changeset="710763">
    <nd ref="300536469"/>
    <nd ref="294225054"/>
    <nd ref="300536462"/>
    <tag k="cycleway" v="track"/>
    <tag k="foot" v="yes"/>
    <tag k="highway" v="cycleway"/>
    <tag k="oneway" v="yes"/>
  </way>
  <way id="27376680" version="2" timestamp="2008-09-28T11:29:34Z" uid="36809" user="pfoten_weg_!_" changeset="710763">
    <nd ref="300536495"/>
    <nd ref="294225054"/>
    <tag k="created_by" v="RambaZamba"/>
    <tag k="cycleway" v="track"/>
    <tag k="foot" v="yes"/>
    <tag k="highway" v="cycleway"/>
    <tag k="layer" v="-1"/>
    <tag k="oneway" v="yes"/>
    <tag k="surface" v="paved"/>
    <tag k="width" v="1.5"/>
  </way>
  <way id="27376681" version="1" timestamp="2008-09-28T10:47:57Z" uid="36809" user="pfoten_weg_!_" changeset="710763">
    <nd ref="300536473"/>
    <nd ref="18327577"/>
    <nd ref="21101349"/>
    <nd ref="21101362"/>
    <tag k="created_by" v="Potlatch 0.10b"/>
    <tag k="cycleway" v="track"/>
    <tag k="highway" v="primary"/>
    <tag k="name" v="Berg-am-Laim-Straße"/>
    <tag k="oneway" v="yes"/>
    <tag k="osmarender:nameDirection" v="-1"/>
    <tag k="osmarender:renderName" v="no"/>
    <tag k="ref" v="B 304"/>
  </way>
  <way id="27376681" version="2" timestamp="2008-09-28T11:29:35Z" uid="36809" user="pfoten_weg_!_" changeset="710763">
    <nd ref="300536473"/>
    <nd ref="300546482"/>
    <nd ref="21101362"/>
    <tag k="created_by" v="Potlatch 0.10b"/>
    <tag k="cycleway" v="track"/>
    <tag k="highway" v="primary"/>
    <tag k="name" v="Berg-am-Laim-Straße"/>
    <tag k="oneway" v="yes"/>
    <tag k="osmarender:nameDirection" v="-1"/>
    <tag k="osmarender:renderName" v="no"/>
    <tag k="ref" v="B 304"/>
  </way>
  <way id="27376682" version="1" timestamp="2008-09-28T10:47:59Z" uid="36809" user="pfoten_weg_!_" changeset="710763">
    <nd ref="300536488"/>
    <nd ref="21101347"/>
    <nd ref="21522285"/>
    <nd ref="21511113"/>
    <nd ref="290058879"/>
    <nd ref="21101346"/>
    <nd ref="282644578"/>
    <nd ref="21151050"/>
    <nd ref="17707821"/>
    <nd ref="282640595"/>
    <nd ref="17707822"/>
    <nd ref="15736006"/>
    <nd ref="15736007"/>
    <nd ref="15736008"/>
    <nd ref="15736009"/>
    <nd ref="15612604"/>
    <nd ref="17707823"/>
    <nd ref="262603520"/>
    <nd ref="15612603"/>
    <nd ref="227138043"/>
    <nd ref="15736010"/>
    <nd ref="15612605"/>
    <tag k="created_by" v="Potlatch 0.10b"/>
    <tag k="cycleway" v="track"/>
    <tag k="highway" v="primary"/>
    <tag k="name" v="Berg-am-Laim-Straße"/>
    <tag k="oneway" v="yes"/>
    <tag k="ref" v="B 304"/>
  </way>
  <way id="27376682" version="2" timestamp="2008-09-28T11:29:35Z" uid="36809" user="pfoten_weg_!_" changeset="710763">
    <nd ref="300536488"/>
    <nd ref="21522285"/>
    <nd ref="21511113"/>
    <nd ref="290058879"/>
    <nd ref="21101346"/>
    <nd ref="282644578"/>
    <nd ref="21151050"/>
    <nd ref="17707821"/>
    <nd ref="282640595"/>
    <nd ref="17707822"/>
    <nd ref="15736006"/>
    <nd ref="15736007"/>
    <nd ref="15736008"/>
    <nd ref="15736009"/>
    <nd ref="15612604"/>
    <nd ref="17707823"/>
    <nd ref="262603520"/>
    <nd ref="15612603"/>
    <nd ref="227138043"/>
    <nd ref="15736010"/>
    <nd ref="15612605"/>
    <tag k="created_by" v="Potlatch 0.10b"/>
    <tag k="cycleway" v="track"/>
    <tag k="highway" v="primary"/>
    <tag k="name" v="Berg-am-Laim-Straße"/>
    <tag k="oneway" v="yes"/>
    <tag k="ref" v="B 304"/>
  </way>
  <way id="27376683" version="1" timestamp="2008-09-28T10:48:00Z" uid="36809" user="pfoten_weg_!_" changeset="710763">
    <nd ref="300536483"/>
    <nd ref="294224763"/>
    <nd ref="294224764"/>
    <nd ref="294224765"/>
    <nd ref="294224766"/>
    <nd ref="294224767"/>
    <nd ref="294224768"/>
    <nd ref="294224807"/>
    <nd ref="294224808"/>
    <nd ref="294225358"/>
    <nd ref="294224741"/>
    <nd ref="294224815"/>
    <nd ref="294224816"/>
    <nd ref="294224817"/>
    <nd ref="294224818"/>
    <nd ref="294224819"/>
    <nd ref="294224820"/>
    <nd ref="294224821"/>
    <nd ref="294224822"/>
    <nd ref="294224823"/>
    <nd ref="294224824"/>
    <nd ref="297189117"/>
    <nd ref="294224829"/>
    <tag k="cycleway" v="track"/>
    <tag k="foot" v="yes"/>
    <tag k="highway" v="cycleway"/>
    <tag k="oneway" v="yes"/>
  </way>
  <way id="27376683" version="2" timestamp="2008-09-28T11:29:36Z" uid="36809" user="pfoten_weg_!_" changeset="710763">
    <nd ref="300536483"/>
    <nd ref="294224764"/>
    <nd ref="294224766"/>
    <nd ref="294224767"/>
    <nd ref="294224768"/>
    <nd ref="294224807"/>
    <nd ref="294224808"/>
    <nd ref="294225358"/>
    <nd ref="294224741"/>
    <nd ref="294224815"/>
    <nd ref="294224816"/>
    <nd ref="294224817"/>
    <nd ref="294224818"/>
    <nd ref="294224819"/>
    <nd ref="294224820"/>
    <nd ref="294224821"/>
    <nd ref="294224822"/>
    <nd ref="294224823"/>
    <nd ref="294224824"/>
    <nd ref="297189117"/>
    <nd ref="294224829"/>
    <tag k="cycleway" v="track"/>
    <tag k="foot" v="yes"/>
    <tag k="highway" v="cycleway"/>
    <tag k="oneway" v="yes"/>
  </way>
  <way id="27376684" version="1" timestamp="2008-09-28T10:48:01Z" uid="36809" user="pfoten_weg_!_" changeset="710763">
    <nd ref="300536495"/>
    <nd ref="300536469"/>
    <tag k="created_by" v="RambaZamba"/>
    <tag k="foot" v="yes"/>
    <tag k="highway" v="cycleway"/>
    <tag k="layer" v="-1"/>
    <tag k="oneway" v="yes"/>
    <tag k="surface" v="paved"/>
    <tag k="width" v="1.5"/>
  </way>
  <way id="27376684" version="2" timestamp="2008-09-28T11:29:36Z" uid="36809" user="pfoten_weg_!_" changeset="710763"/>
  <way id="27376685" version="1" timestamp="2008-09-28T10:48:02Z" uid="36809" user="pfoten_weg_!_" changeset="710763">
    <nd ref="300536476"/>
    <nd ref="300536473"/>
    <tag k="created_by" v="RambaZamba"/>
    <tag k="cycleway" v="track"/>
    <tag k="highway" v="primary"/>
    <tag k="name" v="Berg-am-Laim-Straße"/>
    <tag k="oneway" v="yes"/>
    <tag k="osmarender:nameDirection" v="-1"/>
    <tag k="osmarender:renderName" v="no"/>
    <tag k="ref" v="B 304"/>
  </way>
  <way id="27376686" version="1" timestamp="2008-09-28T10:48:02Z" uid="36809" user="pfoten_weg_!_" changeset="710763">
    <nd ref="300536481"/>
    <nd ref="300536483"/>
    <tag k="created_by" v="RambaZamba"/>
    <tag k="foot" v="yes"/>
    <tag k="highway" v="cycleway"/>
    <tag k="layer" v="-1"/>
    <tag k="oneway" v="yes"/>
    <tag k="surface" v="paved"/>
    <tag k="width" v="1.5"/>
  </way>
  <way id="27376687" version="1" timestamp="2008-09-28T10:48:03Z" uid="36809" user="pfoten_weg_!_" changeset="710763">
    <nd ref="300536492"/>
    <nd ref="300536488"/>
    <tag k="created_by" v="RambaZamba"/>
    <tag k="cycleway" v="track"/>
    <tag k="highway" v="primary"/>
    <tag k="name" v="Berg-am-Laim-Straße"/>
    <tag k="oneway" v="yes"/>
    <tag k="ref" v="B 304"/>
  </way>
  <way id="27376788" version="2" timestamp="2008-10-06T22:32:32Z" uid="30632" user="antblant" changeset="125062">
    <nd ref="300534016"/>
    <nd ref="300534110"/>
    <nd ref="300534104"/>
    <nd ref="300534103"/>
    <nd ref="300534107"/>
    <tag k="highway" v="residential"/>
    <tag k="name" v="Wolskiego"/>
    <tag k="source" v="UMP-PL, ./UMP-Katowice/src/CHORZOW.ulice.txt"/>
  </way>
  <way id="27376789" version="2" timestamp="2008-10-06T22:32:30Z" uid="30632" user="antblant" changeset="125062">
    <nd ref="300533543"/>
    <nd ref="300533547"/>
    <tag k="highway" v="residential"/>
    <tag k="name" v="Racjonalizatorów"/>
    <tag k="source" v="UMP-PL, ./UMP-Katowice/src/CHORZOW.ulice.txt"/>
  </way>
  <way id="27376790" version="2" timestamp="2008-10-06T22:32:32Z" uid="30632" user="antblant" changeset="125062">
    <nd ref="300535138"/>
    <nd ref="300535140"/>
    <nd ref="300535137"/>
    <tag k="highway" v="residential"/>
    <tag k="name" v="Polna"/>
    <tag k="source" v="UMP-PL, ./UMP-Katowice/src/CHORZOW.ulice.txt"/>
  </way>
  <way id="27376793" version="2" timestamp="2008-10-06T22:32:37Z" uid="30632" user="antblant" changeset="125062">
    <nd ref="300534029"/>
    <nd ref="300534018"/>
    <nd ref="300534026"/>
    <nd ref="300534015"/>
    <nd ref="300534016"/>
    <nd ref="300534109"/>
    <nd ref="300534108"/>
    <nd ref="300534112"/>
    <tag k="highway" v="residential"/>
    <tag k="name" v="Bałtycka"/>
    <tag k="source" v="UMP-PL, ./UMP-Katowice/src/CHORZOW.ulice.txt"/>
  </way>
  <way id="27376796" version="2" timestamp="2008-10-06T22:32:36Z" uid="30632" user="antblant" changeset="125062">
    <nd ref="300533555"/>
    <nd ref="300533558"/>
    <tag k="highway" v="residential"/>
    <tag k="name" v="Zwycięstwa"/>
    <tag k="source" v="UMP-PL, ./UMP-Katowice/src/CHORZOW.ulice.txt"/>
  </way>
  <way id="27376798" version="2" timestamp="2008-10-06T22:32:37Z" uid="30632" user="antblant" changeset="125062">
    <nd ref="300535136"/>
    <nd ref="300535123"/>
    <nd ref="300535137"/>
    <nd ref="300535124"/>
    <nd ref="300535133"/>
    <nd ref="300534829"/>
    <nd ref="300535028"/>
    <nd ref="300535031"/>
    <nd ref="300535121"/>
    <tag k="highway" v="residential"/>
    <tag k="name" v="kalidego"/>
    <tag k="source" v="UMP-PL, ./UMP-Katowice/src/CHORZOW.ulice.txt"/>
  </way>
  <way id="27376798" version="3" timestamp="2008-10-08T18:58:41Z" uid="30632" user="antblant" changeset="169665">
    <nd ref="300535136"/>
    <nd ref="300535123"/>
    <nd ref="300535137"/>
    <nd ref="300535124"/>
    <nd ref="300535133"/>
    <nd ref="300534829"/>
    <nd ref="300535028"/>
    <nd ref="300535031"/>
    <nd ref="300535121"/>
    <tag k="highway" v="residential"/>
    <tag k="name" v="Kalidego"/>
    <tag k="source" v="UMP-PL, ./UMP-Katowice/src/CHORZOW.ulice.txt"/>
  </way>
  <way id="27376805" version="2" timestamp="2008-10-06T22:32:09Z" uid="30632" user="antblant" changeset="125062">
    <nd ref="300534026"/>
    <nd ref="300534089"/>
    <nd ref="300534091"/>
    <nd ref="300534082"/>
    <nd ref="300534083"/>
    <nd ref="300534084"/>
    <nd ref="300534085"/>
    <nd ref="300534078"/>
    <tag k="highway" v="residential"/>
    <tag k="name" v="Cieszyńska"/>
    <tag k="source" v="UMP-PL, ./UMP-Katowice/src/CHORZOW.ulice.txt"/>
  </way>
  <way id="27376807" version="2" timestamp="2008-10-06T22:32:08Z" uid="30632" user="antblant" changeset="125062">
    <nd ref="300533549"/>
    <nd ref="300533548"/>
    <nd ref="300533551"/>
    <nd ref="300533550"/>
    <nd ref="300533568"/>
    <nd ref="300533569"/>
    <nd ref="300533570"/>
    <nd ref="300533538"/>
    <nd ref="300533482"/>
    <nd ref="300533571"/>
    <tag k="highway" v="tertiary"/>
    <tag k="name" v="Szpitalna"/>
    <tag k="source" v="UMP-PL, ./UMP-Katowice/src/CHORZOW.ulice.txt"/>
  </way>
  <way id="27376809" version="2" timestamp="2008-10-06T22:32:13Z" uid="30632" user="antblant" changeset="125062">
    <nd ref="300535122"/>
    <nd ref="300535128"/>
    <nd ref="300535129"/>
    <nd ref="300535125"/>
    <nd ref="300535126"/>
    <nd ref="300535143"/>
    <nd ref="300535115"/>
    <nd ref="300535136"/>
    <nd ref="300535116"/>
    <tag k="highway" v="residential"/>
    <tag k="name" v="Niedurnego"/>
    <tag k="source" v="UMP-PL, ./UMP-Katowice/src/CHORZOW.ulice.txt"/>
  </way>
  <way id="27376815" version="2" timestamp="2008-10-06T22:32:10Z" uid="30632" user="antblant" changeset="125062">
    <nd ref="300534106"/>
    <nd ref="300534099"/>
    <nd ref="300534098"/>
    <nd ref="300534102"/>
    <nd ref="300534100"/>
    <nd ref="300534094"/>
    <nd ref="300534092"/>
    <nd ref="300534096"/>
    <nd ref="300534095"/>
    <nd ref="300534086"/>
    <nd ref="300534088"/>
    <tag k="highway" v="service"/>
    <tag k="name" v="Wolności"/>
    <tag k="source" v="UMP-PL, ./UMP-Katowice/src/CHORZOW.ulice.txt"/>
  </way>
  <way id="27376816" version="2" timestamp="2008-10-06T22:32:19Z" uid="30632" user="antblant" changeset="125062">
    <nd ref="300533523"/>
    <nd ref="300533545"/>
    <tag k="highway" v="residential"/>
    <tag k="name" v="Wrocławska"/>
    <tag k="source" v="UMP-PL, ./UMP-Katowice/src/CHORZOW.ulice.txt"/>
  </way>
  <way id="27376819" version="2" timestamp="2008-10-06T22:32:17Z" uid="30632" user="antblant" changeset="125062">
    <nd ref="300534089"/>
    <nd ref="300534079"/>
    <nd ref="300534076"/>
    <tag k="highway" v="residential"/>
    <tag k="name" v="Spółdzielcza"/>
    <tag k="source" v="UMP-PL, ./UMP-Katowice/src/CHORZOW.ulice.txt"/>
  </way>
  <way id="27376820" version="2" timestamp="2008-10-06T22:32:16Z" uid="30632" user="antblant" changeset="125062">
    <nd ref="300533591"/>
    <nd ref="300533589"/>
    <nd ref="300533587"/>
    <nd ref="300533598"/>
    <nd ref="300533575"/>
    <tag k="highway" v="residential"/>
    <tag k="name" v="jubileuszowa"/>
    <tag k="source" v="UMP-PL, ./UMP-Katowice/src/CHORZOW.ulice.txt"/>
  </way>
  <way id="27376820" version="3" timestamp="2008-10-08T18:58:43Z" uid="30632" user="antblant" changeset="169665">
    <nd ref="300533591"/>
    <nd ref="300533589"/>
    <nd ref="300533587"/>
    <nd ref="300533598"/>
    <nd ref="300533575"/>
    <tag k="highway" v="residential"/>
    <tag k="name" v="Jubileuszowa"/>
    <tag k="source" v="UMP-PL, ./UMP-Katowice/src/CHORZOW.ulice.txt"/>
  </way>
  <way id="27376823" version="2" timestamp="2008-10-06T22:32:14Z" uid="30632" user="antblant" changeset="125062">
    <nd ref="300534079"/>
    <nd ref="300534080"/>
    <nd ref="300534081"/>
    <nd ref="300534073"/>
    <nd ref="300534075"/>
    <tag k="highway" v="residential"/>
    <tag k="name" v="Wróblewskiego"/>
    <tag k="source" v="UMP-PL, ./UMP-Katowice/src/CHORZOW.ulice.txt"/>
  </way>
  <way id="27376824" version="2" timestamp="2008-10-06T22:32:24Z" uid="30632" user="antblant" changeset="125062">
    <nd ref="300533572"/>
    <nd ref="300533573"/>
    <nd ref="300533574"/>
    <nd ref="300533575"/>
    <nd ref="300533560"/>
    <nd ref="300533561"/>
    <nd ref="300533562"/>
    <nd ref="300533563"/>
    <nd ref="300533564"/>
    <nd ref="300533565"/>
    <nd ref="300533566"/>
    <nd ref="300533567"/>
    <nd ref="300533592"/>
    <nd ref="300533488"/>
    <tag k="highway" v="residential"/>
    <tag k="name" v="czempiela"/>
    <tag k="source" v="UMP-PL, ./UMP-Katowice/src/CHORZOW.ulice.txt"/>
  </way>
  <way id="27376824" version="3" timestamp="2008-10-08T18:58:44Z" uid="30632" user="antblant" changeset="169665">
    <nd ref="300533572"/>
    <nd ref="300533573"/>
    <nd ref="300533574"/>
    <nd ref="300533575"/>
    <nd ref="300533560"/>
    <nd ref="300533561"/>
    <nd ref="300533562"/>
    <nd ref="300533563"/>
    <nd ref="300533564"/>
    <nd ref="300533565"/>
    <nd ref="300533566"/>
    <nd ref="300533567"/>
    <nd ref="300533592"/>
    <nd ref="300533488"/>
    <tag k="highway" v="residential"/>
    <tag k="name" v="Czempiela"/>
    <tag k="source" v="UMP-PL, ./UMP-Katowice/src/CHORZOW.ulice.txt"/>
  </way>
  <way id="27376825" version="2" timestamp="2008-10-06T22:32:23Z" uid="30632" user="antblant" changeset="125062">
    <nd ref="300535107"/>
    <nd ref="300535106"/>
    <nd ref="300535110"/>
    <tag k="highway" v="tertiary"/>
    <tag k="name" v="Parkowa"/>
    <tag k="source" v="UMP-PL, ./UMP-Katowice/src/CHORZOW.ulice.txt"/>
  </way>
  <way id="27376829" version="2" timestamp="2008-10-06T22:32:20Z" uid="30632" user="antblant" changeset="125062">
    <nd ref="300534077"/>
    <nd ref="300534172"/>
    <nd ref="300534173"/>
    <nd ref="300534174"/>
    <nd ref="300534176"/>
    <nd ref="300534167"/>
    <nd ref="300534168"/>
    <nd ref="300534169"/>
    <nd ref="300534171"/>
    <nd ref="300534183"/>
    <nd ref="300534184"/>
    <nd ref="300534185"/>
    <nd ref="300534187"/>
    <tag k="highway" v="tertiary"/>
    <tag k="name" v="Strzelców Bytomskich"/>
    <tag k="source" v="UMP-PL, ./UMP-Katowice/src/CHORZOW.ulice.txt"/>
  </way>
  <way id="27376830" version="2" timestamp="2008-10-06T22:32:20Z" uid="30632" user="antblant" changeset="125062">
    <nd ref="300533581"/>
    <nd ref="300533624"/>
    <nd ref="300533582"/>
    <tag k="highway" v="residential"/>
    <tag k="name" v="Solskiego"/>
    <tag k="source" v="UMP-PL, ./UMP-Katowice/src/CHORZOW.ulice.txt"/>
  </way>
  <way id="27376831" version="2" timestamp="2008-10-06T22:32:19Z" uid="30632" user="antblant" changeset="125062">
    <nd ref="300534323"/>
    <nd ref="300535109"/>
    <nd ref="300535112"/>
    <nd ref="300535111"/>
    <nd ref="300535097"/>
    <nd ref="300535096"/>
    <nd ref="300534328"/>
    <tag k="highway" v="residential"/>
    <tag k="name" v="Krakowska"/>
    <tag k="source" v="UMP-PL, ./UMP-Katowice/src/CHORZOW.ulice.txt"/>
  </way>
  <way id="27376834" version="2" timestamp="2008-10-06T22:33:07Z" uid="30632" user="antblant" changeset="125062">
    <nd ref="300534085"/>
    <nd ref="300534081"/>
    <tag k="highway" v="residential"/>
    <tag k="name" v="Pomorska"/>
    <tag k="source" v="UMP-PL, ./UMP-Katowice/src/CHORZOW.ulice.txt"/>
  </way>
  <way id="27376835" version="2" timestamp="2008-10-06T22:33:08Z" uid="30632" user="antblant" changeset="125062">
    <nd ref="300533596"/>
    <nd ref="300533594"/>
    <nd ref="300533593"/>
    <nd ref="300533580"/>
    <nd ref="300533578"/>
    <nd ref="300533577"/>
    <nd ref="300533576"/>
    <nd ref="300533584"/>
    <nd ref="300533583"/>
    <nd ref="300533582"/>
    <nd ref="300533572"/>
    <tag k="highway" v="residential"/>
    <tag k="name" v="odrodzenia"/>
    <tag k="source" v="UMP-PL, ./UMP-Katowice/src/CHORZOW.ulice.txt"/>
  </way>
  <way id="27376835" version="3" timestamp="2008-10-08T18:58:45Z" uid="30632" user="antblant" changeset="169665">
    <nd ref="300533596"/>
    <nd ref="300533594"/>
    <nd ref="300533593"/>
    <nd ref="300533580"/>
    <nd ref="300533578"/>
    <nd ref="300533577"/>
    <nd ref="300533576"/>
    <nd ref="300533584"/>
    <nd ref="300533583"/>
    <nd ref="300533582"/>
    <nd ref="300533572"/>
    <tag k="highway" v="residential"/>
    <tag k="name" v="Odrodzenia"/>
    <tag k="source" v="UMP-PL, ./UMP-Katowice/src/CHORZOW.ulice.txt"/>
  </way>
  <way id="27376837" version="2" timestamp="2008-10-06T22:33:09Z" uid="30632" user="antblant" changeset="125062">
    <nd ref="300535096"/>
    <nd ref="300534325"/>
    <nd ref="300535099"/>
    <nd ref="300535098"/>
    <tag k="highway" v="residential"/>
    <tag k="name" v="Plac Piastowski"/>
    <tag k="source" v="UMP-PL, ./UMP-Katowice/src/CHORZOW.ulice.txt"/>
  </way>
  <way id="27376838" version="2" timestamp="2008-10-06T22:33:10Z" uid="30632" user="antblant" changeset="125062">
    <nd ref="300533513"/>
    <nd ref="300533536"/>
    <nd ref="300533518"/>
    <nd ref="300533535"/>
    <nd ref="300533553"/>
    <tag k="highway" v="residential"/>
    <tag k="name" v="Kochanowskiego"/>
    <tag k="source" v="UMP-PL, ./UMP-Katowice/src/CHORZOW.ulice.txt"/>
  </way>
  <way id="27376840" version="2" timestamp="2008-10-06T22:33:13Z" uid="30632" user="antblant" changeset="125062">
    <nd ref="300535098"/>
    <nd ref="300535101"/>
    <nd ref="300535100"/>
    <tag k="highway" v="residential"/>
    <tag k="name" v="Plac Piastowski"/>
    <tag k="source" v="UMP-PL, ./UMP-Katowice/src/CHORZOW.ulice.txt"/>
  </way>
  <way id="27376841" version="2" timestamp="2008-10-06T22:33:16Z" uid="30632" user="antblant" changeset="125062">
    <nd ref="300533977"/>
    <nd ref="300534069"/>
    <nd ref="300534068"/>
    <nd ref="300533982"/>
    <tag k="highway" v="residential"/>
    <tag k="name" v="Piaskowa"/>
    <tag k="source" v="UMP-PL, ./UMP-Katowice/src/CHORZOW.ulice.txt"/>
  </way>
  <way id="27376843" version="2" timestamp="2008-10-06T22:33:19Z" uid="30632" user="antblant" changeset="125062">
    <nd ref="300533537"/>
    <nd ref="300533534"/>
    <tag k="highway" v="residential"/>
    <tag k="name" v="włodarskiego"/>
    <tag k="source" v="UMP-PL, ./UMP-Katowice/src/CHORZOW.ulice.txt"/>
  </way>
  <way id="27376843" version="3" timestamp="2008-10-08T18:58:48Z" uid="30632" user="antblant" changeset="169665">
    <nd ref="300533537"/>
    <nd ref="300533534"/>
    <tag k="highway" v="residential"/>
    <tag k="name" v="Włodarskiego"/>
    <tag k="source" v="UMP-PL, ./UMP-Katowice/src/CHORZOW.ulice.txt"/>
  </way>
  <way id="27376845" version="2" timestamp="2008-10-06T22:33:21Z" uid="30632" user="antblant" changeset="125062">
    <nd ref="300534328"/>
    <nd ref="300535100"/>
    <nd ref="300533290"/>
    <nd ref="300535103"/>
    <nd ref="300535102"/>
    <tag k="highway" v="residential"/>
    <tag k="name" v="Plac Piastowski"/>
    <tag k="source" v="UMP-PL, ./UMP-Katowice/src/CHORZOW.ulice.txt"/>
  </way>
  <way id="27376847" version="2" timestamp="2008-10-06T22:33:24Z" uid="30632" user="antblant" changeset="125062">
    <nd ref="300533885"/>
    <nd ref="300533981"/>
    <nd ref="300533982"/>
    <nd ref="300533984"/>
    <nd ref="300533985"/>
    <nd ref="300533986"/>
    <nd ref="300533965"/>
    <nd ref="300533967"/>
    <nd ref="300533968"/>
    <nd ref="300533972"/>
    <nd ref="300533974"/>
    <nd ref="300533975"/>
    <nd ref="300533976"/>
    <tag k="highway" v="residential"/>
    <tag k="name" v="ryszki"/>
    <tag k="source" v="UMP-PL, ./UMP-Katowice/src/CHORZOW.ulice.txt"/>
  </way>
  <way id="27376847" version="3" timestamp="2008-10-08T18:58:49Z" uid="30632" user="antblant" changeset="169665">
    <nd ref="300533885"/>
    <nd ref="300533981"/>
    <nd ref="300533982"/>
    <nd ref="300533984"/>
    <nd ref="300533985"/>
    <nd ref="300533986"/>
    <nd ref="300533965"/>
    <nd ref="300533967"/>
    <nd ref="300533968"/>
    <nd ref="300533972"/>
    <nd ref="300533974"/>
    <nd ref="300533975"/>
    <nd ref="300533976"/>
    <tag k="highway" v="residential"/>
    <tag k="name" v="Ryszki"/>
    <tag k="source" v="UMP-PL, ./UMP-Katowice/src/CHORZOW.ulice.txt"/>
  </way>
  <way id="27376849" version="2" timestamp="2008-10-06T22:33:25Z" uid="30632" user="antblant" changeset="125062">
    <nd ref="300533552"/>
    <nd ref="300533555"/>
    <nd ref="300533517"/>
    <nd ref="300533491"/>
    <tag k="highway" v="residential"/>
    <tag k="name" v="Łukasińskiego"/>
    <tag k="source" v="UMP-PL, ./UMP-Katowice/src/CHORZOW.ulice.txt"/>
  </way>
  <way id="27376850" version="2" timestamp="2008-10-06T22:33:28Z" uid="30632" user="antblant" changeset="125062">
    <nd ref="300535098"/>
    <nd ref="300535088"/>
    <nd ref="300535089"/>
    <nd ref="300534361"/>
    <tag k="highway" v="residential"/>
    <tag k="name" v="Mazurska"/>
    <tag k="source" v="UMP-PL, ./UMP-Katowice/src/CHORZOW.ulice.txt"/>
  </way>
  <way id="27376851" version="2" timestamp="2008-10-06T22:33:26Z" uid="30632" user="antblant" changeset="125062">
    <nd ref="300534053"/>
    <nd ref="300534052"/>
    <nd ref="300534050"/>
    <nd ref="300534049"/>
    <nd ref="300534048"/>
    <tag k="highway" v="residential"/>
    <tag k="name" v="Czysta"/>
    <tag k="source" v="UMP-PL, ./UMP-Katowice/src/CHORZOW.ulice.txt"/>
  </way>
  <way id="27376853" version="2" timestamp="2008-10-06T22:33:30Z" uid="30632" user="antblant" changeset="125062">
    <nd ref="300533328"/>
    <nd ref="300533512"/>
    <tag k="highway" v="residential"/>
    <tag k="name" v="orląt"/>
    <tag k="source" v="UMP-PL, ./UMP-Katowice/src/CHORZOW.ulice.txt"/>
  </way>
  <way id="27376853" version="3" timestamp="2008-10-08T18:58:50Z" uid="30632" user="antblant" changeset="169665">
    <nd ref="300533328"/>
    <nd ref="300533512"/>
    <tag k="highway" v="residential"/>
    <tag k="name" v="Orląt"/>
    <tag k="source" v="UMP-PL, ./UMP-Katowice/src/CHORZOW.ulice.txt"/>
  </way>
  <way id="27376854" version="2" timestamp="2008-10-06T22:33:34Z" uid="30632" user="antblant" changeset="125062">
    <nd ref="300534311"/>
    <nd ref="300535090"/>
    <nd ref="300534325"/>
    <tag k="highway" v="tertiary"/>
    <tag k="name" v="Kościuszki"/>
    <tag k="source" v="UMP-PL, ./UMP-Katowice/src/CHORZOW.ulice.txt"/>
  </way>
  <way id="27376856" version="2" timestamp="2008-10-06T22:33:36Z" uid="30632" user="antblant" changeset="125062">
    <nd ref="300534066"/>
    <nd ref="300534065"/>
    <nd ref="300534064"/>
    <nd ref="300534062"/>
    <nd ref="300534061"/>
    <nd ref="300534059"/>
    <nd ref="300534055"/>
    <nd ref="300534068"/>
    <tag k="highway" v="residential"/>
    <tag k="name" v="Cmentarna"/>
    <tag k="source" v="UMP-PL, ./UMP-Katowice/src/CHORZOW.ulice.txt"/>
  </way>
  <way id="27376858" version="2" timestamp="2008-10-06T22:33:38Z" uid="30632" user="antblant" changeset="125062">
    <nd ref="300533557"/>
    <nd ref="300533554"/>
    <nd ref="300533556"/>
    <tag k="highway" v="residential"/>
    <tag k="name" v="Prosta"/>
    <tag k="source" v="UMP-PL, ./UMP-Katowice/src/CHORZOW.ulice.txt"/>
  </way>
  <way id="27376859" version="2" timestamp="2008-10-06T22:33:37Z" uid="30632" user="antblant" changeset="125062">
    <nd ref="300535101"/>
    <nd ref="300535091"/>
    <nd ref="300535092"/>
    <nd ref="300535088"/>
    <tag k="highway" v="residential"/>
    <tag k="name" v="Henryka Majętnego"/>
    <tag k="source" v="UMP-PL, ./UMP-Katowice/src/CHORZOW.ulice.txt"/>
  </way>
  <way id="27376861" version="2" timestamp="2008-10-06T22:33:39Z" uid="30632" user="antblant" changeset="125062">
    <nd ref="300534037"/>
    <nd ref="300534033"/>
    <nd ref="300534034"/>
    <nd ref="300534030"/>
    <tag k="highway" v="residential"/>
    <tag k="name" v="Częstochowska"/>
    <tag k="source" v="UMP-PL, ./UMP-Katowice/src/CHORZOW.ulice.txt"/>
  </way>
  <way id="27376862" version="2" timestamp="2008-10-06T22:33:40Z" uid="30632" user="antblant" changeset="125062">
    <nd ref="300533486"/>
    <nd ref="300533554"/>
    <tag k="highway" v="residential"/>
    <tag k="name" v="Lisieckiego"/>
    <tag k="source" v="UMP-PL, ./UMP-Katowice/src/CHORZOW.ulice.txt"/>
  </way>
  <way id="27376866" version="2" timestamp="2008-10-06T22:32:39Z" uid="30632" user="antblant" changeset="125062">
    <nd ref="300534047"/>
    <nd ref="300534046"/>
    <nd ref="300534043"/>
    <nd ref="300534044"/>
    <nd ref="300534040"/>
    <nd ref="300534042"/>
    <nd ref="300534036"/>
    <tag k="highway" v="residential"/>
    <tag k="name" v="Jasna"/>
    <tag k="source" v="UMP-PL, ./UMP-Katowice/src/CHORZOW.ulice.txt"/>
  </way>
  <way id="27376867" version="2" timestamp="2008-10-06T22:32:40Z" uid="30632" user="antblant" changeset="125062">
    <nd ref="300533341"/>
    <nd ref="300533559"/>
    <tag k="highway" v="residential"/>
    <tag k="name" v="Szczepańska"/>
    <tag k="source" v="UMP-PL, ./UMP-Katowice/src/CHORZOW.ulice.txt"/>
  </way>
  <way id="27376868" version="2" timestamp="2008-10-06T22:32:44Z" uid="30632" user="antblant" changeset="125062">
    <nd ref="300534331"/>
    <nd ref="300535080"/>
    <nd ref="300535081"/>
    <nd ref="300533286"/>
    <nd ref="300535082"/>
    <tag k="highway" v="residential"/>
    <tag k="name" v="Słowiańska"/>
    <tag k="source" v="UMP-PL, ./UMP-Katowice/src/CHORZOW.ulice.txt"/>
  </way>
  <way id="27376869" version="2" timestamp="2008-10-06T22:32:44Z" uid="30632" user="antblant" changeset="125062">
    <nd ref="300534027"/>
    <nd ref="300534031"/>
    <tag k="highway" v="residential"/>
    <tag k="name" v="Hajdy"/>
    <tag k="source" v="UMP-PL, ./UMP-Katowice/src/CHORZOW.ulice.txt"/>
  </way>
  <way id="27376871" version="2" timestamp="2008-10-06T22:32:43Z" uid="30632" user="antblant" changeset="125062">
    <nd ref="300533493"/>
    <nd ref="300533556"/>
    <nd ref="300533521"/>
    <nd ref="300533559"/>
    <nd ref="300533558"/>
    <nd ref="300533544"/>
    <tag k="highway" v="residential"/>
    <tag k="name" v="Karłowicza"/>
    <tag k="source" v="UMP-PL, ./UMP-Katowice/src/CHORZOW.ulice.txt"/>
  </way>
  <way id="27376872" version="2" timestamp="2008-10-06T22:32:46Z" uid="30632" user="antblant" changeset="125062">
    <nd ref="300535103"/>
    <nd ref="300535083"/>
    <nd ref="300535084"/>
    <nd ref="300533268"/>
    <tag k="highway" v="residential"/>
    <tag k="name" v="Kadecka"/>
    <tag k="source" v="UMP-PL, ./UMP-Katowice/src/CHORZOW.ulice.txt"/>
  </way>
  <way id="27376874" version="2" timestamp="2008-10-06T22:32:45Z" uid="30632" user="antblant" changeset="125062">
    <nd ref="300534033"/>
    <nd ref="300534031"/>
    <nd ref="300534066"/>
    <tag k="highway" v="residential"/>
    <tag k="name" v="Kordeckiego"/>
    <tag k="source" v="UMP-PL, ./UMP-Katowice/src/CHORZOW.ulice.txt"/>
  </way>
  <way id="27376875" version="2" timestamp="2008-10-06T22:32:46Z" uid="30632" user="antblant" changeset="125062">
    <nd ref="300534099"/>
    <nd ref="300534120"/>
    <tag k="highway" v="residential"/>
    <tag k="name" v="Dworcowa"/>
    <tag k="source" v="UMP-PL, ./UMP-Katowice/src/CHORZOW.ulice.txt"/>
  </way>
  <way id="27376879" version="2" timestamp="2008-10-06T22:32:48Z" uid="30632" user="antblant" changeset="125062">
    <nd ref="300533495"/>
    <nd ref="300533509"/>
    <nd ref="300533496"/>
    <tag k="highway" v="residential"/>
    <tag k="name" v="machy?"/>
    <tag k="source" v="UMP-PL, ./UMP-Katowice/src/CHORZOW.ulice.txt"/>
  </way>
  <way id="27376879" version="3" timestamp="2008-10-30T10:03:56Z" uid="30632" user="antblant" changeset="633563">
    <nd ref="300533495"/>
    <nd ref="300533509"/>
    <nd ref="300533496"/>
    <tag k="created_by" v="Potlatch 0.10f"/>
    <tag k="highway" v="residential"/>
    <tag k="name" v="Machy"/>
    <tag k="source" v="UMP-PL, ./UMP-Katowice/src/CHORZOW.ulice.txt"/>
  </way>
  <way id="27376880" version="2" timestamp="2008-10-06T22:32:53Z" uid="30632" user="antblant" changeset="125062">
    <nd ref="300533341"/>
    <nd ref="300533520"/>
    <nd ref="300533557"/>
    <nd ref="300535301"/>
    <nd ref="300533488"/>
    <nd ref="300533329"/>
    <nd ref="300535303"/>
    <nd ref="300533472"/>
    <nd ref="300535305"/>
    <nd ref="300535308"/>
    <nd ref="300535310"/>
    <nd ref="300535312"/>
    <nd ref="300535315"/>
    <nd ref="300535317"/>
    <nd ref="300535280"/>
    <nd ref="300535283"/>
    <nd ref="300535285"/>
    <nd ref="300535287"/>
    <nd ref="300535289"/>
    <nd ref="300533483"/>
    <nd ref="300535291"/>
    <tag k="highway" v="residential"/>
    <tag k="name" v="Graniczna"/>
    <tag k="source" v="UMP-PL, ./UMP-Katowice/src/CHORZOW.ulice.txt"/>
  </way>
  <way id="27376881" version="2" timestamp="2008-10-06T22:32:52Z" uid="30632" user="antblant" changeset="125062">
    <nd ref="300534123"/>
    <nd ref="300534206"/>
    <tag k="highway" v="residential"/>
    <tag k="name" v="Kazimierza Wielkiego"/>
    <tag k="source" v="UMP-PL, ./UMP-Katowice/src/CHORZOW.ulice.txt"/>
  </way>
  <way id="27376883" version="2" timestamp="2008-10-06T22:32:51Z" uid="30632" user="antblant" changeset="125062">
    <nd ref="300537049"/>
    <nd ref="300536975"/>
    <nd ref="300536958"/>
    <nd ref="300536957"/>
    <nd ref="300536960"/>
    <nd ref="300536959"/>
    <nd ref="300536868"/>
    <nd ref="300536870"/>
    <nd ref="300536890"/>
    <nd ref="300536893"/>
    <nd ref="300536858"/>
    <nd ref="300536861"/>
    <nd ref="300536863"/>
    <nd ref="300536865"/>
    <nd ref="300536936"/>
    <nd ref="300536937"/>
    <nd ref="300535804"/>
    <tag k="highway" v="residential"/>
    <tag k="name" v="Główna"/>
    <tag k="source" v="UMP-PL, ./UMP-Katowice/src/CHORZOW.ulice.txt"/>
  </way>
  <way id="27376884" version="2" timestamp="2008-10-06T22:32:57Z" uid="30632" user="antblant" changeset="125062">
    <nd ref="300537795"/>
    <nd ref="300537798"/>
    <nd ref="300537800"/>
    <nd ref="300535122"/>
    <nd ref="300535147"/>
    <nd ref="300534869"/>
    <nd ref="300534696"/>
    <tag k="highway" v="tertiary"/>
    <tag k="name" v="Łagiewnicka"/>
    <tag k="source" v="UMP-PL, ./UMP-Katowice/src/CHORZOW.ulice.txt"/>
  </way>
  <way id="27376885" version="2" timestamp="2008-10-06T22:32:56Z" uid="30632" user="antblant" changeset="125062">
    <nd ref="300533500"/>
    <nd ref="300533498"/>
    <nd ref="300533499"/>
    <nd ref="300533525"/>
    <nd ref="300533526"/>
    <nd ref="300533522"/>
    <nd ref="300533523"/>
    <tag k="highway" v="residential"/>
    <tag k="name" v="Wrocławska"/>
    <tag k="source" v="UMP-PL, ./UMP-Katowice/src/CHORZOW.ulice.txt"/>
  </way>
  <way id="27376886" version="2" timestamp="2008-10-06T22:32:55Z" uid="30632" user="antblant" changeset="125062">
    <nd ref="300534337"/>
    <nd ref="300535085"/>
    <nd ref="300535086"/>
    <nd ref="300535082"/>
    <nd ref="300535087"/>
    <nd ref="300533268"/>
    <tag k="highway" v="residential"/>
    <tag k="name" v="Rycerska"/>
    <tag k="source" v="UMP-PL, ./UMP-Katowice/src/CHORZOW.ulice.txt"/>
  </way>
  <way id="27376887" version="2" timestamp="2008-10-06T22:32:55Z" uid="30632" user="antblant" changeset="125062">
    <nd ref="300534102"/>
    <nd ref="300534117"/>
    <tag k="highway" v="residential"/>
    <tag k="name" v="Jagiellońska"/>
    <tag k="source" v="UMP-PL, ./UMP-Katowice/src/CHORZOW.ulice.txt"/>
  </way>
  <way id="27376888" version="2" timestamp="2008-10-06T22:33:01Z" uid="30632" user="antblant" changeset="125062">
    <nd ref="300536764"/>
    <nd ref="300536766"/>
    <nd ref="300536759"/>
    <nd ref="300536761"/>
    <nd ref="300536954"/>
    <nd ref="300536953"/>
    <nd ref="300536956"/>
    <nd ref="300536955"/>
    <nd ref="300536946"/>
    <nd ref="300536945"/>
    <nd ref="300536948"/>
    <nd ref="300536947"/>
    <nd ref="300536970"/>
    <nd ref="300536961"/>
    <nd ref="300536978"/>
    <nd ref="300535854"/>
    <tag k="highway" v="tertiary"/>
    <tag k="name" v="Legnicka"/>
    <tag k="source" v="UMP-PL, ./UMP-Katowice/src/CHORZOW.ulice.txt"/>
  </way>
  <way id="27376891" version="2" timestamp="2008-10-06T22:32:59Z" uid="30632" user="antblant" changeset="125062">
    <nd ref="300533520"/>
    <nd ref="300533521"/>
    <nd ref="300533517"/>
    <nd ref="300533518"/>
    <nd ref="300533534"/>
    <nd ref="300533533"/>
    <nd ref="300533532"/>
    <nd ref="300533525"/>
    <nd ref="300533481"/>
    <tag k="highway" v="residential"/>
    <tag k="name" v="odrowążów"/>
    <tag k="source" v="UMP-PL, ./UMP-Katowice/src/CHORZOW.ulice.txt"/>
  </way>
  <way id="27376891" version="3" timestamp="2008-10-08T18:58:51Z" uid="30632" user="antblant" changeset="169665">
    <nd ref="300533520"/>
    <nd ref="300533521"/>
    <nd ref="300533517"/>
    <nd ref="300533518"/>
    <nd ref="300533534"/>
    <nd ref="300533533"/>
    <nd ref="300533532"/>
    <nd ref="300533525"/>
    <nd ref="300533481"/>
    <tag k="highway" v="residential"/>
    <tag k="name" v="Odrowążów"/>
    <tag k="source" v="UMP-PL, ./UMP-Katowice/src/CHORZOW.ulice.txt"/>
  </way>
  <way id="27376892" version="2" timestamp="2008-10-06T22:33:05Z" uid="30632" user="antblant" changeset="125062">
    <nd ref="300535294"/>
    <nd ref="300535298"/>
    <nd ref="300535338"/>
    <nd ref="300535336"/>
    <nd ref="300535341"/>
    <nd ref="300535340"/>
    <tag k="highway" v="residential"/>
    <tag k="name" v="Radoszowska"/>
    <tag k="source" v="UMP-PL, ./UMP-Katowice/src/CHORZOW.ulice.txt"/>
  </way>
  <way id="27376893" version="2" timestamp="2008-10-06T22:33:04Z" uid="30632" user="antblant" changeset="125062">
    <nd ref="300534118"/>
    <nd ref="300536180"/>
    <nd ref="300534115"/>
    <nd ref="300534117"/>
    <nd ref="300534116"/>
    <nd ref="300534113"/>
    <nd ref="300534114"/>
    <nd ref="300534135"/>
    <nd ref="300534137"/>
    <nd ref="300534133"/>
    <nd ref="300534134"/>
    <tag k="highway" v="residential"/>
    <tag k="name" v="Powstańców"/>
    <tag k="source" v="UMP-PL, ./UMP-Katowice/src/CHORZOW.ulice.txt"/>
  </way>
  <way id="27376894" version="2" timestamp="2008-10-06T22:33:02Z" uid="30632" user="antblant" changeset="125062">
    <nd ref="300536843"/>
    <nd ref="300536739"/>
    <nd ref="300536756"/>
    <nd ref="300536682"/>
    <nd ref="300536691"/>
    <nd ref="300536638"/>
    <nd ref="300536643"/>
    <nd ref="300536629"/>
    <nd ref="300536633"/>
    <nd ref="300536775"/>
    <nd ref="300536778"/>
    <nd ref="300536769"/>
    <nd ref="300536772"/>
    <nd ref="300536764"/>
    <tag k="highway" v="tertiary"/>
    <tag k="name" v="Stacyjna"/>
    <tag k="source" v="UMP-PL, ./UMP-Katowice/src/CHORZOW.ulice.txt"/>
  </way>
  <way id="27376896" version="2" timestamp="2008-10-06T22:29:19Z" uid="30632" user="antblant" changeset="125062">
    <nd ref="300533478"/>
    <nd ref="300533526"/>
    <nd ref="300533531"/>
    <tag k="highway" v="residential"/>
    <tag k="name" v="strzybnego"/>
    <tag k="source" v="UMP-PL, ./UMP-Katowice/src/CHORZOW.ulice.txt"/>
  </way>
  <way id="27376896" version="3" timestamp="2008-10-08T18:58:52Z" uid="30632" user="antblant" changeset="169665">
    <nd ref="300533478"/>
    <nd ref="300533526"/>
    <nd ref="300533531"/>
    <tag k="highway" v="residential"/>
    <tag k="name" v="Strzybnego"/>
    <tag k="source" v="UMP-PL, ./UMP-Katowice/src/CHORZOW.ulice.txt"/>
  </way>
  <way id="27376898" version="2" timestamp="2008-10-06T22:29:18Z" uid="30632" user="antblant" changeset="125062">
    <nd ref="300533545"/>
    <nd ref="300533528"/>
    <tag k="highway" v="residential"/>
    <tag k="name" v="Bema"/>
    <tag k="source" v="UMP-PL, ./UMP-Katowice/src/CHORZOW.ulice.txt"/>
  </way>
  <way id="27376901" version="3" timestamp="2008-10-06T22:29:17Z" uid="30632" user="antblant" changeset="125062">
    <nd ref="262666298"/>
    <nd ref="300537792"/>
    <nd ref="300537789"/>
    <nd ref="300537776"/>
    <nd ref="300537774"/>
    <nd ref="300535395"/>
    <tag k="created_by" v="Potlatch 0.10c"/>
    <tag k="highway" v="tertiary"/>
    <tag k="name" v="Batorego"/>
    <tag k="source" v="UMP-PL, ./UMP-Katowice/src/CHORZOW.ulice.txt"/>
  </way>
  <way id="27376902" version="2" timestamp="2008-10-06T22:29:16Z" uid="30632" user="antblant" changeset="125062">
    <nd ref="300533479"/>
    <nd ref="300533522"/>
    <nd ref="300533530"/>
    <tag k="highway" v="residential"/>
    <tag k="name" v="Hutnicza"/>
    <tag k="source" v="UMP-PL, ./UMP-Katowice/src/CHORZOW.ulice.txt"/>
  </way>
  <way id="27376903" version="2" timestamp="2008-10-06T22:29:15Z" uid="30632" user="antblant" changeset="125062">
    <nd ref="300533484"/>
    <nd ref="300535343"/>
    <nd ref="300533571"/>
    <nd ref="300533529"/>
    <nd ref="300533523"/>
    <nd ref="300535348"/>
    <nd ref="300535346"/>
    <nd ref="300533537"/>
    <nd ref="300533553"/>
    <nd ref="300533552"/>
    <nd ref="300533547"/>
    <nd ref="300535321"/>
    <nd ref="300533352"/>
    <nd ref="300533660"/>
    <nd ref="300535319"/>
    <nd ref="300533591"/>
    <nd ref="300533572"/>
    <nd ref="300535326"/>
    <nd ref="300533778"/>
    <nd ref="300535323"/>
    <nd ref="300535331"/>
    <nd ref="300533779"/>
    <nd ref="300535329"/>
    <nd ref="300535334"/>
    <nd ref="300535333"/>
    <tag k="highway" v="tertiary"/>
    <tag k="name" v="Batorego"/>
    <tag k="source" v="UMP-PL, ./UMP-Katowice/src/CHORZOW.ulice.txt"/>
  </way>
  <way id="27376904" version="2" timestamp="2008-10-06T22:29:14Z" uid="30632" user="antblant" changeset="125062">
    <nd ref="300534094"/>
    <nd ref="300534113"/>
    <tag k="highway" v="residential"/>
    <tag k="name" v="Sobieskiego"/>
    <tag k="source" v="UMP-PL, ./UMP-Katowice/src/CHORZOW.ulice.txt"/>
  </way>
  <way id="27376906" version="2" timestamp="2008-10-06T22:29:14Z" uid="30632" user="antblant" changeset="125062">
    <nd ref="300534166"/>
    <nd ref="300534036"/>
    <nd ref="300537782"/>
    <nd ref="300534048"/>
    <nd ref="300534112"/>
    <nd ref="300537779"/>
    <nd ref="300537768"/>
    <nd ref="300537766"/>
    <nd ref="300537772"/>
    <nd ref="300535177"/>
    <tag k="highway" v="tertiary"/>
    <tag k="name" v="Dąbrowskiego"/>
    <tag k="source" v="UMP-PL, ./UMP-Katowice/src/CHORZOW.ulice.txt"/>
  </way>
  <way id="27376907" version="2" timestamp="2008-10-06T22:29:12Z" uid="30632" user="antblant" changeset="125062">
    <nd ref="300533529"/>
    <nd ref="300533528"/>
    <nd ref="300533527"/>
    <tag k="highway" v="residential"/>
    <tag k="name" v="dyrekcyjna"/>
    <tag k="source" v="UMP-PL, ./UMP-Katowice/src/CHORZOW.ulice.txt"/>
  </way>
  <way id="27376907" version="3" timestamp="2008-10-08T18:58:56Z" uid="30632" user="antblant" changeset="169665">
    <nd ref="300533529"/>
    <nd ref="300533528"/>
    <nd ref="300533527"/>
    <tag k="highway" v="residential"/>
    <tag k="name" v="Dyrekcyjna"/>
    <tag k="source" v="UMP-PL, ./UMP-Katowice/src/CHORZOW.ulice.txt"/>
  </way>
  <way id="27376909" version="2" timestamp="2008-10-06T22:29:11Z" uid="30632" user="antblant" changeset="125062">
    <nd ref="300534095"/>
    <nd ref="300534135"/>
    <tag k="highway" v="residential"/>
    <tag k="name" v="Zjednoczenia"/>
    <tag k="source" v="UMP-PL, ./UMP-Katowice/src/CHORZOW.ulice.txt"/>
  </way>
  <way id="27376910" version="2" timestamp="2008-10-06T22:29:10Z" uid="30632" user="antblant" changeset="125062">
    <nd ref="300537481"/>
    <nd ref="300537484"/>
    <nd ref="300533929"/>
    <nd ref="300533928"/>
    <nd ref="300533931"/>
    <nd ref="300534002"/>
    <nd ref="300534013"/>
    <nd ref="300537485"/>
    <nd ref="300535519"/>
    <tag k="highway" v="tertiary"/>
    <tag k="name" v="Aleja Wojska Polskiego"/>
    <tag k="source" v="UMP-PL, ./UMP-Katowice/src/CHORZOW.ulice.txt"/>
  </way>
  <way id="27376911" version="2" timestamp="2008-10-06T22:29:10Z" uid="30632" user="antblant" changeset="125062">
    <nd ref="300537788"/>
    <nd ref="300537784"/>
    <nd ref="300534606"/>
    <tag k="highway" v="residential"/>
    <tag k="name" v="Janasa"/>
    <tag k="source" v="UMP-PL, ./UMP-Katowice/src/CHORZOW.ulice.txt"/>
  </way>
  <way id="27376912" version="2" timestamp="2008-10-06T22:29:07Z" uid="30632" user="antblant" changeset="125062">
    <nd ref="300533542"/>
    <nd ref="300533541"/>
    <nd ref="300533540"/>
    <nd ref="300533539"/>
    <nd ref="300533538"/>
    <tag k="highway" v="residential"/>
    <tag k="name" v="Żelazna"/>
    <tag k="source" v="UMP-PL, ./UMP-Katowice/src/CHORZOW.ulice.txt"/>
  </way>
  <way id="27376913" version="2" timestamp="2008-10-06T22:29:09Z" uid="30632" user="antblant" changeset="125062">
    <nd ref="300533704"/>
    <nd ref="300535371"/>
    <nd ref="300533635"/>
    <tag k="highway" v="residential"/>
    <tag k="name" v="Lelewela"/>
    <tag k="source" v="UMP-PL, ./UMP-Katowice/src/CHORZOW.ulice.txt"/>
  </way>
  <way id="27376914" version="2" timestamp="2008-10-06T22:29:07Z" uid="30632" user="antblant" changeset="125062">
    <nd ref="300534088"/>
    <nd ref="300534134"/>
    <tag k="highway" v="residential"/>
    <tag k="name" v="Chrobrego"/>
    <tag k="source" v="UMP-PL, ./UMP-Katowice/src/CHORZOW.ulice.txt"/>
  </way>
  <way id="27376916" version="2" timestamp="2008-10-06T22:29:06Z" uid="30632" user="antblant" changeset="125062">
    <nd ref="300534155"/>
    <nd ref="300534156"/>
    <tag k="highway" v="residential"/>
    <tag k="name" v="Żwirki i Wigury"/>
    <tag k="source" v="UMP-PL, ./UMP-Katowice/src/CHORZOW.ulice.txt"/>
  </way>
  <way id="27376917" version="2" timestamp="2008-10-06T22:29:06Z" uid="30632" user="antblant" changeset="125062">
    <nd ref="300533511"/>
    <nd ref="300533533"/>
    <tag k="highway" v="residential"/>
    <tag k="name" v="Farna"/>
    <tag k="source" v="UMP-PL, ./UMP-Katowice/src/CHORZOW.ulice.txt"/>
  </way>
  <way id="27376918" version="2" timestamp="2008-10-06T22:29:05Z" uid="30632" user="antblant" changeset="125062">
    <nd ref="300533689"/>
    <nd ref="300533582"/>
    <tag k="highway" v="residential"/>
    <tag k="name" v="Fredry"/>
    <tag k="source" v="UMP-PL, ./UMP-Katowice/src/CHORZOW.ulice.txt"/>
  </way>
  <way id="27376920" version="2" timestamp="2008-10-06T22:29:05Z" uid="30632" user="antblant" changeset="125062">
    <nd ref="300533341"/>
    <nd ref="300533340"/>
    <nd ref="300533352"/>
    <tag k="highway" v="residential"/>
    <tag k="name" v="Graniczna"/>
    <tag k="source" v="UMP-PL, ./UMP-Katowice/src/CHORZOW.ulice.txt"/>
  </way>
  <way id="27376921" version="2" timestamp="2008-10-06T22:29:05Z" uid="30632" user="antblant" changeset="125062">
    <nd ref="300535374"/>
    <nd ref="300533510"/>
    <tag k="highway" v="residential"/>
    <tag k="name" v="Karwińska"/>
    <tag k="source" v="UMP-PL, ./UMP-Katowice/src/CHORZOW.ulice.txt"/>
  </way>
  <way id="27376922" version="2" timestamp="2008-10-06T22:29:04Z" uid="30632" user="antblant" changeset="125062">
    <nd ref="300534167"/>
    <nd ref="300534177"/>
    <nd ref="300534179"/>
    <nd ref="300534180"/>
    <nd ref="300534181"/>
    <nd ref="300534195"/>
    <tag k="highway" v="residential"/>
    <tag k="name" v="Głogowska"/>
    <tag k="source" v="UMP-PL, ./UMP-Katowice/src/CHORZOW.ulice.txt"/>
  </way>
  <way id="27376923" version="2" timestamp="2008-10-06T22:29:04Z" uid="30632" user="antblant" changeset="125062">
    <nd ref="300534684"/>
    <nd ref="300535053"/>
    <nd ref="300535061"/>
    <tag k="highway" v="tertiary"/>
    <tag k="name" v="Opolska"/>
    <tag k="source" v="UMP-PL, ./UMP-Katowice/src/CHORZOW.ulice.txt"/>
  </way>
  <way id="27376925" version="2" timestamp="2008-10-06T22:29:03Z" uid="30632" user="antblant" changeset="125062">
    <nd ref="300533695"/>
    <nd ref="300533594"/>
    <tag k="highway" v="residential"/>
    <tag k="name" v="Prześwit"/>
    <tag k="source" v="UMP-PL, ./UMP-Katowice/src/CHORZOW.ulice.txt"/>
  </way>
  <way id="27376926" version="2" timestamp="2008-10-06T22:29:01Z" uid="30632" user="antblant" changeset="125062">
    <nd ref="300534176"/>
    <nd ref="300534194"/>
    <nd ref="300534202"/>
    <nd ref="300534196"/>
    <tag k="highway" v="residential"/>
    <tag k="name" v="Truchana"/>
    <tag k="source" v="UMP-PL, ./UMP-Katowice/src/CHORZOW.ulice.txt"/>
  </way>
  <way id="27376927" version="2" timestamp="2008-10-06T22:29:01Z" uid="30632" user="antblant" changeset="125062">
    <nd ref="300535061"/>
    <nd ref="300536826"/>
    <nd ref="300536810"/>
    <nd ref="300536807"/>
    <nd ref="300536784"/>
    <nd ref="300536782"/>
    <tag k="highway" v="residential"/>
    <tag k="name" v="Opolska"/>
    <tag k="source" v="UMP-PL, ./UMP-Katowice/src/CHORZOW.ulice.txt"/>
  </way>
  <way id="27376928" version="2" timestamp="2008-10-06T22:28:58Z" uid="30632" user="antblant" changeset="125062">
    <nd ref="300535767"/>
    <nd ref="300537770"/>
    <nd ref="300537759"/>
    <nd ref="300534165"/>
    <nd ref="300537756"/>
    <nd ref="300534030"/>
    <nd ref="300534166"/>
    <tag k="highway" v="tertiary"/>
    <tag k="name" v="Dąbrowskiego"/>
    <tag k="source" v="UMP-PL, ./UMP-Katowice/src/CHORZOW.ulice.txt"/>
  </way>
  <way id="27376930" version="2" timestamp="2008-10-06T22:29:00Z" uid="30632" user="antblant" changeset="125062">
    <nd ref="300535358"/>
    <nd ref="300535360"/>
    <nd ref="300535340"/>
    <nd ref="300535407"/>
    <nd ref="300535333"/>
    <nd ref="300535405"/>
    <nd ref="300535402"/>
    <nd ref="300535400"/>
    <nd ref="300535417"/>
    <nd ref="300535358"/>
    <tag k="highway" v="unclassified"/>
    <tag k="junction" v="roundabout"/>
    <tag k="name" v="Rondo ks. Gembały"/>
    <tag k="source" v="UMP-PL, ./UMP-Katowice/src/CHORZOW.ulice.txt"/>
  </way>
  <way id="27376931" version="2" timestamp="2008-10-06T22:28:59Z" uid="30632" user="antblant" changeset="125062">
    <nd ref="300534174"/>
    <nd ref="300534189"/>
    <nd ref="300534188"/>
    <nd ref="300534192"/>
    <nd ref="300534191"/>
    <nd ref="300534211"/>
    <tag k="highway" v="residential"/>
    <tag k="name" v="Mieleckiego"/>
    <tag k="source" v="UMP-PL, ./UMP-Katowice/src/CHORZOW.ulice.txt"/>
  </way>
  <way id="27376933" version="2" timestamp="2008-10-06T22:28:54Z" uid="30632" user="antblant" changeset="125062">
    <nd ref="300536268"/>
    <nd ref="300534293"/>
    <nd ref="300537764"/>
    <nd ref="300537761"/>
    <nd ref="300537741"/>
    <nd ref="300537744"/>
    <nd ref="300537562"/>
    <nd ref="300537737"/>
    <nd ref="300534300"/>
    <nd ref="300534251"/>
    <nd ref="300537739"/>
    <nd ref="300537751"/>
    <nd ref="300534162"/>
    <nd ref="300535767"/>
    <tag k="highway" v="tertiary"/>
    <tag k="name" v="Dąbrowskiego"/>
    <tag k="source" v="UMP-PL, ./UMP-Katowice/src/CHORZOW.ulice.txt"/>
  </way>
  <way id="27376934" version="2" timestamp="2008-10-06T22:28:57Z" uid="30632" user="antblant" changeset="125062">
    <nd ref="300533483"/>
    <nd ref="300533355"/>
    <nd ref="300533471"/>
    <nd ref="300533331"/>
    <tag k="highway" v="residential"/>
    <tag k="name" v="kochlowicka"/>
    <tag k="source" v="UMP-PL, ./UMP-Katowice/src/CHORZOW.ulice.txt"/>
  </way>
  <way id="27376934" version="3" timestamp="2008-10-08T18:58:57Z" uid="30632" user="antblant" changeset="169665">
    <nd ref="300533483"/>
    <nd ref="300533355"/>
    <nd ref="300533471"/>
    <nd ref="300533331"/>
    <tag k="highway" v="residential"/>
    <tag k="name" v="Kochlowicka"/>
    <tag k="source" v="UMP-PL, ./UMP-Katowice/src/CHORZOW.ulice.txt"/>
  </way>
  <way id="27376934" version="4" timestamp="2008-11-18T22:25:54Z" uid="30632" user="antblant" changeset="767574">
    <nd ref="300533483"/>
    <nd ref="300533355"/>
    <nd ref="300533471"/>
    <nd ref="300533331"/>
    <tag k="created_by" v="Potlatch 0.10f"/>
    <tag k="highway" v="residential"/>
    <tag k="name" v="Kochłowicka"/>
    <tag k="source" v="UMP-PL, ./UMP-Katowice/src/CHORZOW.ulice.txt"/>
  </way>
  <way id="27376935" version="2" timestamp="2008-10-06T22:28:55Z" uid="30632" user="antblant" changeset="125062">
    <nd ref="300535366"/>
    <nd ref="300535369"/>
    <nd ref="300533849"/>
    <nd ref="300535380"/>
    <nd ref="300535383"/>
    <nd ref="300535376"/>
    <nd ref="300535378"/>
    <nd ref="300535354"/>
    <nd ref="300535356"/>
    <nd ref="300535350"/>
    <nd ref="300535352"/>
    <nd ref="300535362"/>
    <nd ref="300533901"/>
    <nd ref="300535364"/>
    <nd ref="300533916"/>
    <tag k="highway" v="tertiary"/>
    <tag k="name" v="Racławicka"/>
    <tag k="source" v="UMP-PL, ./UMP-Katowice/src/CHORZOW.ulice.txt"/>
  </way>
  <way id="27376936" version="2" timestamp="2008-10-06T22:06:25Z" uid="30632" user="antblant" changeset="125062">
    <nd ref="300534202"/>
    <nd ref="300534211"/>
    <nd ref="300534210"/>
    <nd ref="300534092"/>
    <tag k="UMP_Level" v="1"/>
    <tag k="created_by" v="Potlatch 0.10d"/>
    <tag k="highway" v="residential"/>
    <tag k="name" v="Stefana Żeromskiego"/>
    <tag k="source" v="UMP-PL, ./UMP-Katowice/src/CHORZOW.ulice.txt"/>
  </way>
  <way id="27376936" version="3" timestamp="2008-10-06T22:28:51Z" uid="30632" user="antblant" changeset="125062">
    <nd ref="300534202"/>
    <nd ref="300534211"/>
    <nd ref="300534210"/>
    <nd ref="300534092"/>
    <tag k="created_by" v="Potlatch 0.10d"/>
    <tag k="highway" v="residential"/>
    <tag k="name" v="Stefana Żeromskiego"/>
    <tag k="source" v="UMP-PL, ./UMP-Katowice/src/CHORZOW.ulice.txt"/>
  </way>
  <way id="27376939" version="2" timestamp="2008-10-06T22:28:52Z" uid="30632" user="antblant" changeset="125062">
    <nd ref="300533482"/>
    <nd ref="300533485"/>
    <nd ref="300533484"/>
    <nd ref="300533479"/>
    <nd ref="300533478"/>
    <nd ref="300533481"/>
    <nd ref="300533480"/>
    <nd ref="300533495"/>
    <nd ref="300533332"/>
    <tag k="highway" v="residential"/>
    <tag k="name" v="16 lipca"/>
    <tag k="source" v="UMP-PL, ./UMP-Katowice/src/CHORZOW.ulice.txt"/>
  </way>
  <way id="27376941" version="2" timestamp="2008-10-06T22:28:47Z" uid="30632" user="antblant" changeset="125062">
    <nd ref="300535394"/>
    <nd ref="300535393"/>
    <nd ref="300535165"/>
    <tag k="highway" v="residential"/>
    <tag k="name" v="Bojowników o Wolność i Demokrację"/>
    <tag k="source" v="UMP-PL, ./UMP-Katowice/src/CHORZOW.ulice.txt"/>
  </way>
  <way id="27376943" version="2" timestamp="2008-10-06T22:28:50Z" uid="30632" user="antblant" changeset="125062">
    <nd ref="300534196"/>
    <nd ref="300534213"/>
    <tag k="highway" v="residential"/>
    <tag k="name" v="Sienkiewicza"/>
    <tag k="source" v="UMP-PL, ./UMP-Katowice/src/CHORZOW.ulice.txt"/>
  </way>
  <way id="27376945" version="2" timestamp="2008-10-06T22:28:45Z" uid="30632" user="antblant" changeset="125062">
    <nd ref="300533494"/>
    <nd ref="300533338"/>
    <tag k="highway" v="residential"/>
    <tag k="name" v="Żółkiewskiego"/>
    <tag k="source" v="UMP-PL, ./UMP-Katowice/src/CHORZOW.ulice.txt"/>
  </way>
  <way id="27376946" version="2" timestamp="2008-10-06T22:28:46Z" uid="30632" user="antblant" changeset="125062">
    <nd ref="300535358"/>
    <nd ref="300535415"/>
    <nd ref="300535411"/>
    <nd ref="300535409"/>
    <nd ref="300535392"/>
    <nd ref="300535390"/>
    <nd ref="300535387"/>
    <nd ref="300535385"/>
    <nd ref="300535397"/>
    <nd ref="300535395"/>
    <tag k="highway" v="tertiary"/>
    <tag k="name" v="Batorego"/>
    <tag k="source" v="UMP-PL, ./UMP-Katowice/src/CHORZOW.ulice.txt"/>
  </way>
  <way id="27376947" version="2" timestamp="2008-10-06T22:28:47Z" uid="30632" user="antblant" changeset="125062">
    <nd ref="300534212"/>
    <nd ref="300534206"/>
    <tag k="highway" v="residential"/>
    <tag k="name" v="?"/>
    <tag k="source" v="UMP-PL, ./UMP-Katowice/src/CHORZOW.ulice.txt"/>
  </way>
  <way id="27376947" version="3" timestamp="2008-10-26T10:17:34Z" uid="30632" user="antblant" changeset="585496">
    <nd ref="300534212"/>
    <nd ref="300534206"/>
    <tag k="created_by" v="Potlatch 0.10e"/>
    <tag k="highway" v="residential"/>
    <tag k="source" v="UMP-PL, ./UMP-Katowice/src/CHORZOW.ulice.txt"/>
  </way>
  <way id="27376948" version="2" timestamp="2008-10-06T22:28:43Z" uid="30632" user="antblant" changeset="125062">
    <nd ref="300535131"/>
    <nd ref="300536845"/>
    <nd ref="300536843"/>
    <tag k="highway" v="tertiary"/>
    <tag k="name" v="Stabika"/>
    <tag k="source" v="UMP-PL, ./UMP-Katowice/src/CHORZOW.ulice.txt"/>
  </way>
  <way id="27376950" version="2" timestamp="2008-10-06T22:28:43Z" uid="30632" user="antblant" changeset="125062">
    <nd ref="300533497"/>
    <nd ref="300533494"/>
    <nd ref="300533496"/>
    <nd ref="300533480"/>
    <tag k="highway" v="residential"/>
    <tag k="name" v="machy"/>
    <tag k="source" v="UMP-PL, ./UMP-Katowice/src/CHORZOW.ulice.txt"/>
  </way>
  <way id="27376950" version="3" timestamp="2008-10-08T18:58:58Z" uid="30632" user="antblant" changeset="169665">
    <nd ref="300533497"/>
    <nd ref="300533494"/>
    <nd ref="300533496"/>
    <nd ref="300533480"/>
    <tag k="highway" v="residential"/>
    <tag k="name" v="Machy"/>
    <tag k="source" v="UMP-PL, ./UMP-Katowice/src/CHORZOW.ulice.txt"/>
  </way>
  <way id="27376951" version="2" timestamp="2008-10-06T22:28:44Z" uid="30632" user="antblant" changeset="125062">
    <nd ref="300533549"/>
    <nd ref="300535159"/>
    <nd ref="300533861"/>
    <nd ref="300535366"/>
    <nd ref="300535394"/>
    <nd ref="300535162"/>
    <nd ref="300535163"/>
    <nd ref="300535164"/>
    <nd ref="300535154"/>
    <nd ref="300535155"/>
    <nd ref="300535156"/>
    <nd ref="300535158"/>
    <nd ref="300535168"/>
    <nd ref="300535149"/>
    <nd ref="300533887"/>
    <tag k="highway" v="tertiary"/>
    <tag k="name" v="Bojowników o Wolność i Demokrację"/>
    <tag k="source" v="UMP-PL, ./UMP-Katowice/src/CHORZOW.ulice.txt"/>
  </way>
  <way id="27376952" version="2" timestamp="2008-10-06T22:28:38Z" uid="30632" user="antblant" changeset="125062">
    <nd ref="300534203"/>
    <nd ref="300534208"/>
    <nd ref="300534207"/>
    <nd ref="300534196"/>
    <tag k="highway" v="residential"/>
    <tag k="name" v="Dworcowa"/>
    <tag k="source" v="UMP-PL, ./UMP-Katowice/src/CHORZOW.ulice.txt"/>
  </way>
  <way id="27376955" version="2" timestamp="2008-10-06T22:28:41Z" uid="30632" user="antblant" changeset="125062">
    <nd ref="300533488"/>
    <nd ref="300533486"/>
    <nd ref="300533493"/>
    <nd ref="300533491"/>
    <nd ref="300533512"/>
    <nd ref="300533513"/>
    <nd ref="300533510"/>
    <nd ref="300533511"/>
    <nd ref="300533500"/>
    <nd ref="300533495"/>
    <tag k="highway" v="residential"/>
    <tag k="name" v="Karpacka"/>
    <tag k="source" v="UMP-PL, ./UMP-Katowice/src/CHORZOW.ulice.txt"/>
  </way>
  <way id="27376956" version="2" timestamp="2008-10-06T22:28:34Z" uid="30632" user="antblant" changeset="125062">
    <nd ref="300535166"/>
    <nd ref="300535167"/>
    <nd ref="300535168"/>
    <tag k="highway" v="residential"/>
    <tag k="name" v="Bojowników o Wolność i Demokrację"/>
    <tag k="source" v="UMP-PL, ./UMP-Katowice/src/CHORZOW.ulice.txt"/>
  </way>
  <way id="27376957" version="2" timestamp="2008-10-06T22:28:35Z" uid="30632" user="antblant" changeset="125062">
    <nd ref="300534213"/>
    <nd ref="300534212"/>
    <nd ref="300534203"/>
    <tag k="highway" v="residential"/>
    <tag k="name" v="Rostka"/>
    <tag k="source" v="UMP-PL, ./UMP-Katowice/src/CHORZOW.ulice.txt"/>
  </way>
  <way id="27376958" version="2" timestamp="2008-10-06T22:28:38Z" uid="30632" user="antblant" changeset="125062">
    <nd ref="300536515"/>
    <nd ref="300536856"/>
    <nd ref="300536853"/>
    <nd ref="300534537"/>
    <tag k="highway" v="residential"/>
    <tag k="name" v="Curie-Skłodowskiej"/>
    <tag k="source" v="UMP-PL, ./UMP-Katowice/src/CHORZOW.ulice.txt"/>
  </way>
  <way id="27376960" version="2" timestamp="2008-10-06T22:29:50Z" uid="30632" user="antblant" changeset="125062">
    <nd ref="300533860"/>
    <nd ref="300533859"/>
    <tag k="highway" v="residential"/>
    <tag k="name" v="Zapłocie"/>
    <tag k="source" v="UMP-PL, ./UMP-Katowice/src/CHORZOW.ulice.txt"/>
  </way>
  <way id="27376963" version="2" timestamp="2008-10-06T22:29:49Z" uid="30632" user="antblant" changeset="125062">
    <nd ref="300533837"/>
    <nd ref="300533845"/>
    <nd ref="300533811"/>
    <tag k="highway" v="residential"/>
    <tag k="name" v="Grabowa"/>
    <tag k="source" v="UMP-PL, ./UMP-Katowice/src/CHORZOW.ulice.txt"/>
  </way>
  <way id="27376964" version="2" timestamp="2008-10-06T22:29:51Z" uid="30632" user="antblant" changeset="125062">
    <nd ref="300534725"/>
    <nd ref="300534724"/>
    <nd ref="300534723"/>
    <nd ref="300534730"/>
    <nd ref="300534729"/>
    <nd ref="300534726"/>
    <tag k="highway" v="residential"/>
    <tag k="name" v="Towarowa"/>
    <tag k="source" v="UMP-PL, ./UMP-Katowice/src/CHORZOW.ulice.txt"/>
  </way>
  <way id="27376966" version="2" timestamp="2008-10-06T22:29:51Z" uid="30632" user="antblant" changeset="125062">
    <nd ref="300533877"/>
    <nd ref="300533852"/>
    <nd ref="300533847"/>
    <nd ref="300533867"/>
    <nd ref="300533861"/>
    <tag k="highway" v="residential"/>
    <tag k="name" v="Ratuszowa"/>
    <tag k="source" v="UMP-PL, ./UMP-Katowice/src/CHORZOW.ulice.txt"/>
  </way>
  <way id="27376967" version="2" timestamp="2008-10-06T22:29:50Z" uid="30632" user="antblant" changeset="125062">
    <nd ref="300534628"/>
    <nd ref="300537165"/>
    <nd ref="300537177"/>
    <nd ref="300537179"/>
    <nd ref="300537181"/>
    <nd ref="300537182"/>
    <nd ref="300537184"/>
    <nd ref="300537186"/>
    <nd ref="300537190"/>
    <tag k="highway" v="tertiary"/>
    <tag k="name" v="Nomiarki"/>
    <tag k="source" v="UMP-PL, ./UMP-Katowice/src/CHORZOW.ulice.txt"/>
  </way>
  <way id="27376968" version="2" timestamp="2008-10-06T22:29:48Z" uid="30632" user="antblant" changeset="125062">
    <nd ref="300536772"/>
    <nd ref="300537541"/>
    <nd ref="300537542"/>
    <nd ref="300537534"/>
    <nd ref="300537540"/>
    <nd ref="300537548"/>
    <nd ref="300537549"/>
    <nd ref="300537546"/>
    <tag k="highway" v="residential"/>
    <tag k="name" v="Gruntowa"/>
    <tag k="source" v="UMP-PL, ./UMP-Katowice/src/CHORZOW.ulice.txt"/>
  </way>
  <way id="27376969" version="2" timestamp="2008-10-06T22:29:47Z" uid="30632" user="antblant" changeset="125062">
    <nd ref="300533843"/>
    <nd ref="300533841"/>
    <nd ref="300533831"/>
    <nd ref="300533844"/>
    <tag k="highway" v="residential"/>
    <tag k="name" v="Olchowa"/>
    <tag k="source" v="UMP-PL, ./UMP-Katowice/src/CHORZOW.ulice.txt"/>
  </way>
  <way id="27376970" version="2" timestamp="2008-10-06T22:29:47Z" uid="30632" user="antblant" changeset="125062">
    <nd ref="300534169"/>
    <nd ref="300534728"/>
    <tag k="highway" v="residential"/>
    <tag k="name" v="Kozielska"/>
    <tag k="source" v="UMP-PL, ./UMP-Katowice/src/CHORZOW.ulice.txt"/>
  </way>
  <way id="27376971" version="2" timestamp="2008-10-06T22:29:46Z" uid="30632" user="antblant" changeset="125062">
    <nd ref="300533867"/>
    <nd ref="300533865"/>
    <tag k="highway" v="residential"/>
    <tag k="name" v="waryńskiego?"/>
    <tag k="source" v="UMP-PL, ./UMP-Katowice/src/CHORZOW.ulice.txt"/>
  </way>
  <way id="27376973" version="2" timestamp="2008-10-06T22:29:49Z" uid="30632" user="antblant" changeset="125062">
    <nd ref="300537549"/>
    <nd ref="300537550"/>
    <nd ref="300537551"/>
    <nd ref="300537886"/>
    <nd ref="300537889"/>
    <nd ref="300537877"/>
    <nd ref="300537880"/>
    <nd ref="300537871"/>
    <tag k="highway" v="residential"/>
    <tag k="name" v="Kruszcowa"/>
    <tag k="source" v="UMP-PL, ./UMP-Katowice/src/CHORZOW.ulice.txt"/>
  </way>
  <way id="27376975" version="2" timestamp="2008-10-06T22:29:49Z" uid="30632" user="antblant" changeset="125062">
    <nd ref="300533838"/>
    <nd ref="300533840"/>
    <nd ref="300533841"/>
    <nd ref="300533842"/>
    <tag k="highway" v="residential"/>
    <tag k="name" v="Jesionowa"/>
    <tag k="source" v="UMP-PL, ./UMP-Katowice/src/CHORZOW.ulice.txt"/>
  </way>
  <way id="27376976" version="2" timestamp="2008-10-06T22:29:42Z" uid="30632" user="antblant" changeset="125062">
    <nd ref="300534756"/>
    <nd ref="300534779"/>
    <nd ref="300534782"/>
    <nd ref="300534774"/>
    <nd ref="300534776"/>
    <nd ref="300534792"/>
    <nd ref="300534796"/>
    <nd ref="300534786"/>
    <tag k="highway" v="residential"/>
    <tag k="name" v="Krakusa"/>
    <tag k="source" v="UMP-PL, ./UMP-Katowice/src/CHORZOW.ulice.txt"/>
  </way>
  <way id="27376977" version="2" timestamp="2008-10-06T22:29:43Z" uid="30632" user="antblant" changeset="125062">
    <nd ref="300533849"/>
    <nd ref="300533848"/>
    <nd ref="300533884"/>
    <nd ref="300533847"/>
    <nd ref="300533846"/>
    <tag k="highway" v="residential"/>
    <tag k="name" v="Stwosza"/>
    <tag k="source" v="UMP-PL, ./UMP-Katowice/src/CHORZOW.ulice.txt"/>
  </way>
  <way id="27376979" version="2" timestamp="2008-10-06T22:29:42Z" uid="30632" user="antblant" changeset="125062">
    <nd ref="300536138"/>
    <nd ref="300536843"/>
    <tag k="highway" v="residential"/>
    <tag k="name" v="Kruszcowa"/>
    <tag k="source" v="UMP-PL, ./UMP-Katowice/src/CHORZOW.ulice.txt"/>
  </way>
  <way id="27376980" version="2" timestamp="2008-10-06T22:29:44Z" uid="30632" user="antblant" changeset="125062">
    <nd ref="300533835"/>
    <nd ref="300533836"/>
    <nd ref="300533837"/>
    <nd ref="300533838"/>
    <nd ref="300533839"/>
    <nd ref="300533830"/>
    <nd ref="300533778"/>
    <tag k="highway" v="residential"/>
    <tag k="name" v="Klonowa"/>
    <tag k="source" v="UMP-PL, ./UMP-Katowice/src/CHORZOW.ulice.txt"/>
  </way>
  <way id="27376981" version="2" timestamp="2008-10-06T22:29:45Z" uid="30632" user="antblant" changeset="125062">
    <nd ref="300534790"/>
    <nd ref="300534756"/>
    <nd ref="300534433"/>
    <nd ref="300534726"/>
    <nd ref="300534429"/>
    <tag k="highway" v="residential"/>
    <tag k="name" v="floriańska"/>
    <tag k="source" v="UMP-PL, ./UMP-Katowice/src/CHORZOW.ulice.txt"/>
  </way>
  <way id="27376981" version="3" timestamp="2008-10-08T18:58:59Z" uid="30632" user="antblant" changeset="169665">
    <nd ref="300534790"/>
    <nd ref="300534756"/>
    <nd ref="300534433"/>
    <nd ref="300534726"/>
    <nd ref="300534429"/>
    <tag k="highway" v="residential"/>
    <tag k="name" v="Floriańska"/>
    <tag k="source" v="UMP-PL, ./UMP-Katowice/src/CHORZOW.ulice.txt"/>
  </way>
  <way id="27376982" version="2" timestamp="2008-10-06T22:29:44Z" uid="30632" user="antblant" changeset="125062">
    <nd ref="300533922"/>
    <nd ref="300533925"/>
    <nd ref="300533915"/>
    <tag k="highway" v="residential"/>
    <tag k="name" v="Franciszkańska"/>
    <tag k="source" v="UMP-PL, ./UMP-Katowice/src/CHORZOW.ulice.txt"/>
  </way>
  <way id="27376986" version="2" timestamp="2008-10-06T22:29:38Z" uid="30632" user="antblant" changeset="125062">
    <nd ref="300533821"/>
    <nd ref="300533746"/>
    <tag k="highway" v="residential"/>
    <tag k="name" v="Chodkiewicza"/>
    <tag k="source" v="UMP-PL, ./UMP-Katowice/src/CHORZOW.ulice.txt"/>
  </way>
  <way id="27376987" version="2" timestamp="2008-10-06T22:29:39Z" uid="30632" user="antblant" changeset="125062">
    <nd ref="300534733"/>
    <nd ref="300534728"/>
    <nd ref="300534740"/>
    <tag k="highway" v="residential"/>
    <tag k="name" v="Zabrska"/>
    <tag k="source" v="UMP-PL, ./UMP-Katowice/src/CHORZOW.ulice.txt"/>
  </way>
  <way id="27376988" version="2" timestamp="2008-10-06T22:29:41Z" uid="30632" user="antblant" changeset="125062">
    <nd ref="300533919"/>
    <nd ref="300533920"/>
    <tag k="highway" v="residential"/>
    <tag k="name" v="Średnia"/>
    <tag k="source" v="UMP-PL, ./UMP-Katowice/src/CHORZOW.ulice.txt"/>
  </way>
  <way id="27376990" version="2" timestamp="2008-10-06T22:29:40Z" uid="30632" user="antblant" changeset="125062">
    <nd ref="300537264"/>
    <nd ref="300537874"/>
    <nd ref="300537865"/>
    <nd ref="300537868"/>
    <nd ref="300537857"/>
    <nd ref="300537862"/>
    <nd ref="300537851"/>
    <nd ref="300537871"/>
    <tag k="highway" v="residential"/>
    <tag k="name" v="Miła"/>
    <tag k="source" v="UMP-PL, ./UMP-Katowice/src/CHORZOW.ulice.txt"/>
  </way>
  <way id="27376991" version="2" timestamp="2008-10-06T22:29:41Z" uid="30632" user="antblant" changeset="125062">
    <nd ref="300533820"/>
    <nd ref="300533819"/>
    <nd ref="300533822"/>
    <tag k="highway" v="residential"/>
    <tag k="name" v="wysockiego"/>
    <tag k="source" v="UMP-PL, ./UMP-Katowice/src/CHORZOW.ulice.txt"/>
  </way>
  <way id="27376991" version="3" timestamp="2008-10-08T18:59:00Z" uid="30632" user="antblant" changeset="169665">
    <nd ref="300533820"/>
    <nd ref="300533819"/>
    <nd ref="300533822"/>
    <tag k="highway" v="residential"/>
    <tag k="name" v="Wysockiego"/>
    <tag k="source" v="UMP-PL, ./UMP-Katowice/src/CHORZOW.ulice.txt"/>
  </way>
  <way id="27376992" version="2" timestamp="2008-10-06T22:29:35Z" uid="30632" user="antblant" changeset="125062">
    <nd ref="300534697"/>
    <nd ref="300534698"/>
    <nd ref="300534699"/>
    <nd ref="300534757"/>
    <nd ref="300534700"/>
    <nd ref="300534701"/>
    <nd ref="300534790"/>
    <nd ref="300534702"/>
    <nd ref="300534703"/>
    <nd ref="300534606"/>
    <nd ref="300534704"/>
    <nd ref="300534705"/>
    <nd ref="300534612"/>
    <nd ref="300534706"/>
    <nd ref="300534707"/>
    <nd ref="300534708"/>
    <nd ref="300534709"/>
    <nd ref="300534710"/>
    <nd ref="300534711"/>
    <nd ref="300534719"/>
    <nd ref="300534680"/>
    <nd ref="300534679"/>
    <nd ref="300534682"/>
    <nd ref="300534681"/>
    <tag k="highway" v="secondary"/>
    <tag k="name" v="3 maja"/>
    <tag k="source" v="UMP-PL, ./UMP-Katowice/src/CHORZOW.ulice.txt"/>
  </way>
  <way id="27376993" version="2" timestamp="2008-10-06T22:29:35Z" uid="30632" user="antblant" changeset="125062">
    <nd ref="300533906"/>
    <nd ref="300533903"/>
    <nd ref="300533904"/>
    <nd ref="300533858"/>
    <nd ref="300533905"/>
    <tag k="highway" v="residential"/>
    <tag k="name" v="Młyńska"/>
    <tag k="source" v="UMP-PL, ./UMP-Katowice/src/CHORZOW.ulice.txt"/>
  </way>
  <way id="27376995" version="2" timestamp="2008-10-06T22:29:36Z" uid="30632" user="antblant" changeset="125062">
    <nd ref="300537842"/>
    <nd ref="300537839"/>
    <nd ref="300537845"/>
    <tag k="highway" v="residential"/>
    <tag k="name" v="Sadowa"/>
    <tag k="source" v="UMP-PL, ./UMP-Katowice/src/CHORZOW.ulice.txt"/>
  </way>
  <way id="27376996" version="2" timestamp="2008-10-06T22:29:37Z" uid="30632" user="antblant" changeset="125062">
    <nd ref="300533812"/>
    <nd ref="300533814"/>
    <nd ref="300533816"/>
    <nd ref="300533811"/>
    <nd ref="300533815"/>
    <nd ref="300533834"/>
    <nd ref="300533818"/>
    <nd ref="300533817"/>
    <nd ref="300533779"/>
    <tag k="highway" v="residential"/>
    <tag k="name" v="Kasztanowa"/>
    <tag k="source" v="UMP-PL, ./UMP-Katowice/src/CHORZOW.ulice.txt"/>
  </way>
  <way id="27376997" version="2" timestamp="2008-10-06T22:29:36Z" uid="30632" user="antblant" changeset="125062">
    <nd ref="300534628"/>
    <nd ref="300534727"/>
    <nd ref="300534734"/>
    <nd ref="300534733"/>
    <nd ref="300534183"/>
    <tag k="highway" v="tertiary"/>
    <tag k="name" v="Raciborska"/>
    <tag k="source" v="UMP-PL, ./UMP-Katowice/src/CHORZOW.ulice.txt"/>
  </way>
  <way id="27376998" version="2" timestamp="2008-10-06T22:29:38Z" uid="30632" user="antblant" changeset="125062">
    <nd ref="300533858"/>
    <nd ref="300533860"/>
    <nd ref="300533856"/>
    <nd ref="300533855"/>
    <nd ref="300533906"/>
    <nd ref="300533907"/>
    <nd ref="300533912"/>
    <nd ref="300533914"/>
    <nd ref="300533902"/>
    <tag k="highway" v="residential"/>
    <tag k="name" v="Kręta"/>
    <tag k="source" v="UMP-PL, ./UMP-Katowice/src/CHORZOW.ulice.txt"/>
  </way>
</osm>
