<?xml version='1.0' encoding='UTF-8'?>
<osm version="0.6" generator="libosmium/2.20.0">
  <way id="27464022" version="1" timestamp="2008-10-02T11:57:53Z" uid="7617" user="Franc" changeset="29883">
    <nd ref="301556134"/>
    <nd ref="301556137"/>
    <tag k="bridge" v="yes"/>
    <tag k="highway" v="footway"/>
    <tag k="layer" v="1"/>
    <tag k="source" v="yahoo_imagery"/>
  </way>
  <way id="27464022" version="2" timestamp="2009-02-10T00:55:10Z" uid="30201" user="rrankin" changeset="315226">
    <nd ref="343863729"/>
    <nd ref="343863728"/>
    <tag k="highway" v="footway"/>
    <tag k="source" v="yahoo_imagery"/>
  </way>
  <way id="27464022" version="3" timestamp="2010-01-05T12:47:26Z" uid="30201" user="rrankin" changeset="3544973"/>
  <way id="27464338" version="1" timestamp="2008-10-02T12:12:38Z" uid="7617" user="Franc" changeset="29883">
    <nd ref="301559972"/>
    <nd ref="301559974"/>
    <tag k="highway" v="service"/>
    <tag k="name" v="Britannia Lane"/>
    <tag k="source" v="survey"/>
  </way>
  <way id="27464712" version="1" timestamp="2008-10-02T12:33:19Z" uid="7617" user="Franc" changeset="29883">
    <nd ref="301563257"/>
    <nd ref="301563261"/>
    <tag k="bridge" v="yes"/>
    <tag k="highway" v="footway"/>
    <tag k="layer" v="1"/>
    <tag k="source" v="survey"/>
  </way>
  <way id="27464713" version="1" timestamp="2008-10-02T12:33:20Z" uid="7617" user="Franc" changeset="29883">
    <nd ref="301563266"/>
    <nd ref="301563268"/>
    <nd ref="301563269"/>
    <nd ref="301563270"/>
    <nd ref="301563271"/>
    <nd ref="301563272"/>
    <nd ref="301563266"/>
    <tag k="amenity" v="bus_station"/>
    <tag k="name" v="Sydney Bus Station ?"/>
  </way>
  <way id="27464713" version="4" timestamp="2010-07-27T05:03:48Z" uid="4467" user="Rosscoe" changeset="5326202">
    <nd ref="301563266"/>
    <nd ref="301563268"/>
    <nd ref="301563269"/>
    <nd ref="301563270"/>
    <nd ref="301563271"/>
    <nd ref="301563272"/>
    <nd ref="835039769"/>
    <nd ref="301563266"/>
    <tag k="amenity" v="bus_depot"/>
    <tag k="name" v="Burwood Bus Depot"/>
  </way>
  <way id="27464713" version="5" timestamp="2011-05-21T13:52:26Z" uid="7617" user="Franc" changeset="8206884">
    <nd ref="301563266"/>
    <nd ref="301563268"/>
    <nd ref="301563269"/>
    <nd ref="301563270"/>
    <nd ref="301563271"/>
    <nd ref="301563272"/>
    <nd ref="835039769"/>
    <nd ref="301563266"/>
    <tag k="amenity" v="bus_depot"/>
    <tag k="landuse" v="industrial"/>
    <tag k="name" v="Burwood Bus Depot"/>
  </way>
  <way id="27464714" version="1" timestamp="2008-10-02T12:33:21Z" uid="7617" user="Franc" changeset="29883">
    <nd ref="301563275"/>
    <nd ref="301563282"/>
    <nd ref="301563281"/>
    <nd ref="301563280"/>
    <nd ref="301563277"/>
    <nd ref="301563279"/>
    <nd ref="301563275"/>
    <tag k="amenity" v="parking"/>
    <tag k="source" v="survey"/>
  </way>
  <way id="27464773" version="1" timestamp="2008-10-02T12:37:40Z" uid="7617" user="Franc" changeset="29883">
    <nd ref="301563970"/>
    <nd ref="301563976"/>
    <tag k="highway" v="unclassified"/>
    <tag k="note" v="location deduced from photo"/>
    <tag k="source" v="survey"/>
  </way>
  <way id="27464773" version="2" timestamp="2010-02-15T15:03:42Z" uid="7617" user="Franc" changeset="3883877"/>
  <way id="27464846" version="4" timestamp="2009-08-03T13:34:26Z" uid="4467" user="Rosscoe" changeset="2025552">
    <nd ref="301564374"/>
    <nd ref="31237925"/>
    <nd ref="31237927"/>
    <nd ref="115986621"/>
    <tag k="highway" v="trunk"/>
    <tag k="lanes" v="2"/>
    <tag k="layer" v="1"/>
    <tag k="name" v="Main South Road"/>
    <tag k="oneway" v="yes"/>
    <tag k="ref" v="1"/>
  </way>
  <way id="27464847" version="2" timestamp="2009-08-03T13:34:25Z" uid="4467" user="Rosscoe" changeset="2025552">
    <nd ref="301564359"/>
    <nd ref="301564370"/>
    <nd ref="301564373"/>
    <nd ref="301564375"/>
    <nd ref="301564379"/>
    <nd ref="301564374"/>
    <tag k="highway" v="trunk"/>
    <tag k="lanes" v="2"/>
    <tag k="name" v="Carmen Road"/>
    <tag k="oneway" v="yes"/>
    <tag k="ref" v="1"/>
  </way>
  <way id="27464851" version="2" timestamp="2009-08-03T13:34:25Z" uid="4467" user="Rosscoe" changeset="2025552">
    <nd ref="133006624"/>
    <nd ref="133006625"/>
    <nd ref="133006626"/>
    <nd ref="31237925"/>
    <tag k="highway" v="secondary"/>
    <tag k="lanes" v="2"/>
    <tag k="name" v="Shands Road"/>
    <tag k="oneway" v="yes"/>
  </way>
  <way id="27464852" version="2" timestamp="2009-08-03T13:34:26Z" uid="4467" user="Rosscoe" changeset="2025552">
    <nd ref="301564374"/>
    <nd ref="301564381"/>
    <nd ref="301564380"/>
    <nd ref="133006624"/>
    <tag k="highway" v="secondary"/>
    <tag k="lanes" v="2"/>
    <tag k="name" v="Shands Road"/>
    <tag k="oneway" v="yes"/>
  </way>
</osm>
