<?xml version='1.0' encoding='UTF-8'?>
<osm version="0.6" generator="libosmium/2.20.0">
  <way id="27477000" version="11" timestamp="2011-02-28T11:14:37Z" uid="30632" user="antblant" changeset="7419545">
    <nd ref="301670856"/>
    <nd ref="1023258419"/>
    <nd ref="1028167539"/>
    <tag k="addr:city" v="Gdańsk"/>
    <tag k="addr:country" v="PL"/>
    <tag k="addr:housenumber" v="2"/>
    <tag k="addr:street" v="Sebastiana Fabiana Klonowicza"/>
    <tag k="building" v="yes"/>
    <tag k="highway" v="residential"/>
    <tag k="name" v="Sebastiana Fabiana Klonowicza"/>
    <tag k="source" v="UMP-PL, ./UMP-Gdansk/src/GDANSK.ulice.txt"/>
  </way>
  <way id="27477000" version="12" timestamp="2011-03-13T00:01:03Z" uid="30632" user="antblant" changeset="7539780">
    <nd ref="301670856"/>
    <nd ref="1023258419"/>
    <nd ref="1028167539"/>
    <tag k="highway" v="residential"/>
    <tag k="name" v="Sebastiana Fabiana Klonowicza"/>
    <tag k="source" v="UMP-PL, ./UMP-Gdansk/src/GDANSK.ulice.txt"/>
  </way>
  <way id="27477015" version="2" timestamp="2009-08-27T19:34:51Z" uid="66036" user="h4v" changeset="2282347">
    <nd ref="301670627"/>
    <nd ref="301679176"/>
    <tag k="highway" v="service"/>
    <tag k="source" v="UMP-PL, ./UMP-Gdansk/src/GDANSK.ulice.txt"/>
  </way>
  <way id="27477020" version="3" timestamp="2009-09-02T21:59:03Z" uid="66036" user="h4v" changeset="2354341">
    <nd ref="301671857"/>
    <nd ref="301672590"/>
    <nd ref="301672534"/>
    <nd ref="301672587"/>
    <nd ref="301672498"/>
    <nd ref="301686285"/>
    <nd ref="301680462"/>
    <nd ref="276037358"/>
    <tag k="highway" v="residential"/>
    <tag k="name" v="Modra"/>
    <tag k="source" v="UMP-PL, ./UMP-Gdansk/src/GDANSK.ulice.txt"/>
  </way>
  <way id="27477024" version="2" timestamp="2009-09-02T21:59:00Z" uid="66036" user="h4v" changeset="2354341">
    <nd ref="301683471"/>
    <nd ref="301683472"/>
    <nd ref="301683473"/>
    <nd ref="301683474"/>
    <nd ref="301683475"/>
    <nd ref="301683460"/>
    <nd ref="301683461"/>
    <nd ref="301683462"/>
    <nd ref="301683463"/>
    <nd ref="481450948"/>
    <nd ref="301683464"/>
    <nd ref="301683465"/>
    <nd ref="301683466"/>
    <nd ref="301683220"/>
    <tag k="highway" v="footway"/>
    <tag k="source" v="UMP-PL, ./UMP-Gdansk/src/GDANSK.ulice.txt"/>
  </way>
  <way id="27477028" version="2" timestamp="2009-12-19T15:57:50Z" uid="20587" user="balrog-kun" changeset="3407737">
    <nd ref="301673003"/>
    <nd ref="301682645"/>
    <nd ref="301682646"/>
    <nd ref="596395564"/>
    <nd ref="301671574"/>
    <tag k="highway" v="footway"/>
    <tag k="source" v="UMP-PL, ./UMP-Gdansk/src/GDANSK.ulice.txt"/>
  </way>
  <way id="27477049" version="4" timestamp="2009-12-19T15:57:46Z" uid="20587" user="balrog-kun" changeset="3407737">
    <nd ref="255723316"/>
    <nd ref="596395528"/>
    <nd ref="301686080"/>
    <nd ref="301686081"/>
    <nd ref="301686119"/>
    <nd ref="301686077"/>
    <nd ref="301678655"/>
    <tag k="highway" v="service"/>
    <tag k="name" v="Kartuska"/>
    <tag k="source" v="UMP-PL, ./UMP-Gdansk/src/GDANSK.ulice.txt"/>
  </way>
  <way id="27477053" version="4" timestamp="2009-05-07T08:51:20Z" uid="30632" user="antblant" changeset="1104842">
    <nd ref="301679837"/>
    <nd ref="301679859"/>
    <nd ref="301671579"/>
    <tag k="created_by" v="JOSM"/>
    <tag k="highway" v="primary"/>
    <tag k="int_ref" v="E 75;E 77"/>
    <tag k="name" v="Jana z Kolna"/>
    <tag k="ref" v="1"/>
    <tag k="source" v="UMP-PL, ./UMP-Gdansk/src/GDANSK.ulice.txt"/>
  </way>
  <way id="27477057" version="2" timestamp="2009-09-02T20:58:41Z" uid="66036" user="h4v" changeset="2353898">
    <nd ref="301673259"/>
    <nd ref="301673265"/>
    <nd ref="301673261"/>
    <nd ref="301673273"/>
    <nd ref="301673269"/>
    <nd ref="481393268"/>
    <nd ref="301673051"/>
    <tag k="highway" v="service"/>
    <tag k="source" v="UMP-PL, ./UMP-Gdansk/src/GDANSK.ulice.txt"/>
  </way>
  <way id="27477076" version="3" timestamp="2009-08-27T19:34:55Z" uid="66036" user="h4v" changeset="2282347">
    <nd ref="301682732"/>
    <nd ref="301682714"/>
    <nd ref="301682725"/>
    <tag k="highway" v="residential"/>
    <tag k="name" v="Pola"/>
    <tag k="source" v="UMP-PL, ./UMP-Gdansk/src/GDANSK.ulice.txt"/>
  </way>
  <way id="27477076" version="4" timestamp="2009-08-31T07:49:28Z" uid="66036" user="h4v" changeset="2323230">
    <nd ref="301682732"/>
    <nd ref="478544916"/>
    <nd ref="301682714"/>
    <nd ref="301682725"/>
    <tag k="highway" v="residential"/>
    <tag k="name" v="Pola"/>
    <tag k="source" v="UMP-PL, ./UMP-Gdansk/src/GDANSK.ulice.txt"/>
  </way>
  <way id="27477084" version="3" timestamp="2009-09-02T21:46:00Z" uid="66036" user="h4v" changeset="2354271">
    <nd ref="301672444"/>
    <nd ref="481443516"/>
    <nd ref="301672472"/>
    <tag k="highway" v="residential"/>
    <tag k="name" v="Siennicka"/>
    <tag k="source" v="UMP-PL, ./UMP-Gdansk/src/GDANSK.ulice.txt"/>
  </way>
  <way id="27477090" version="3" timestamp="2009-09-02T21:59:00Z" uid="66036" user="h4v" changeset="2354341">
    <nd ref="301672473"/>
    <nd ref="481450942"/>
    <nd ref="301672474"/>
    <nd ref="301672475"/>
    <nd ref="301672476"/>
    <nd ref="301672477"/>
    <nd ref="301672478"/>
    <tag k="highway" v="residential"/>
    <tag k="name" v="Elbląska"/>
    <tag k="source" v="UMP-PL, ./UMP-Gdansk/src/GDANSK.ulice.txt"/>
  </way>
  <way id="27477092" version="2" timestamp="2008-11-21T00:11:50Z" uid="30632" user="antblant" changeset="775255">
    <nd ref="301671911"/>
    <nd ref="301679206"/>
    <tag k="bridge" v="yes"/>
    <tag k="created_by" v="Potlatch 0.10f"/>
    <tag k="highway" v="footway"/>
    <tag k="layer" v="1"/>
    <tag k="source" v="UMP-PL, ./UMP-Gdansk/src/GDANSK.ulice.txt"/>
  </way>
  <way id="27477100" version="4" timestamp="2009-12-19T15:57:44Z" uid="20587" user="balrog-kun" changeset="3407737">
    <nd ref="301670332"/>
    <nd ref="301678301"/>
    <nd ref="301676574"/>
    <nd ref="301678306"/>
    <nd ref="301684725"/>
    <nd ref="596395434"/>
    <nd ref="301676539"/>
    <nd ref="596395439"/>
    <nd ref="301678304"/>
    <nd ref="596395449"/>
    <nd ref="301670948"/>
    <tag k="highway" v="tertiary"/>
    <tag k="name" v="Łostowicka"/>
    <tag k="source" v="UMP-PL, ./UMP-Gdansk/src/GDANSK.ulice.txt"/>
  </way>
  <way id="27477114" version="2" timestamp="2009-09-02T21:59:01Z" uid="66036" user="h4v" changeset="2354341">
    <nd ref="301683527"/>
    <nd ref="301671692"/>
    <tag k="highway" v="footway"/>
    <tag k="source" v="UMP-PL, ./UMP-Gdansk/src/GDANSK.ulice.txt"/>
  </way>
  <way id="27477115" version="2" timestamp="2008-10-10T11:21:12Z" uid="30632" user="antblant" changeset="226581">
    <nd ref="301684903"/>
    <nd ref="301684902"/>
    <nd ref="301684899"/>
    <nd ref="301684898"/>
    <nd ref="301684901"/>
    <tag k="UMP_Level" v="3"/>
    <tag k="created_by" v="JOSM"/>
    <tag k="highway" v="secondary"/>
    <tag k="name" v="Starogardzka"/>
    <tag k="ref" v="222"/>
    <tag k="source" v="UMP-PL, ./UMP-Gdansk/src/GDANSK.ulice.txt"/>
  </way>
  <way id="27477115" version="4" timestamp="2011-03-12T23:39:57Z" uid="30632" user="antblant" changeset="7539626">
    <nd ref="301684903"/>
    <nd ref="301684902"/>
    <nd ref="1199470112"/>
    <nd ref="301684899"/>
    <nd ref="301684898"/>
    <nd ref="301684901"/>
    <tag k="highway" v="secondary"/>
    <tag k="name" v="Starogardzka"/>
    <tag k="ref" v="222"/>
    <tag k="source" v="UMP-PL, ./UMP-Gdansk/src/GDANSK.ulice.txt"/>
  </way>
  <way id="27477117" version="2" timestamp="2008-10-10T11:21:13Z" uid="30632" user="antblant" changeset="226581">
    <nd ref="301679786"/>
    <nd ref="301679787"/>
    <nd ref="301679796"/>
    <tag k="UMP_Level" v="1"/>
    <tag k="created_by" v="JOSM"/>
    <tag k="highway" v="primary"/>
    <tag k="name" v="Okopowa"/>
    <tag k="ref" v="1"/>
    <tag k="source" v="UMP-PL, ./UMP-Gdansk/src/GDANSK.ulice.txt"/>
  </way>
  <way id="27477117" version="3" timestamp="2008-10-10T11:23:35Z" uid="30632" user="antblant" changeset="226581">
    <nd ref="301679786"/>
    <nd ref="301679787"/>
    <nd ref="301679796"/>
    <tag k="UMP_Level" v="1"/>
    <tag k="created_by" v="Potlatch 0.10d"/>
    <tag k="highway" v="primary"/>
    <tag k="name" v="Okopowa"/>
    <tag k="ref" v="1"/>
    <tag k="source" v="UMP-PL, ./UMP-Gdansk/src/GDANSK.ulice.txt"/>
  </way>
  <way id="27477137" version="3" timestamp="2011-03-02T13:23:25Z" uid="30632" user="antblant" changeset="7437698">
    <nd ref="301671011"/>
    <nd ref="1182694525"/>
    <nd ref="301683015"/>
    <nd ref="301682855"/>
    <nd ref="301682847"/>
    <tag k="highway" v="footway"/>
    <tag k="source" v="UMP-PL, ./UMP-Gdansk/src/GDANSK.ulice.txt"/>
  </way>
  <way id="27477143" version="2" timestamp="2011-03-12T23:39:58Z" uid="30632" user="antblant" changeset="7539626">
    <nd ref="1199470141"/>
    <nd ref="301672479"/>
    <tag k="highway" v="unclassified"/>
    <tag k="name" v="Niezapominajek"/>
    <tag k="source" v="UMP-PL, ./UMP-Gdansk/src/GDANSK.ulice.txt"/>
    <tag k="surface" v="unpaved"/>
  </way>
  <way id="27477147" version="2" timestamp="2009-12-19T15:57:47Z" uid="20587" user="balrog-kun" changeset="3407737">
    <nd ref="301679582"/>
    <nd ref="301679948"/>
    <nd ref="301679947"/>
    <nd ref="301679583"/>
    <tag k="highway" v="service"/>
    <tag k="source" v="UMP-PL, ./UMP-Gdansk/src/GDANSK.ulice.txt"/>
  </way>
  <way id="27477165" version="2" timestamp="2009-12-19T15:57:47Z" uid="20587" user="balrog-kun" changeset="3407737">
    <nd ref="301679946"/>
    <nd ref="301679945"/>
    <nd ref="301679944"/>
    <nd ref="301679943"/>
    <tag k="highway" v="service"/>
    <tag k="source" v="UMP-PL, ./UMP-Gdansk/src/GDANSK.ulice.txt"/>
  </way>
  <way id="27477168" version="8" timestamp="2011-02-28T12:43:58Z" uid="30632" user="antblant" changeset="7420217">
    <nd ref="747150730"/>
    <nd ref="747150656"/>
    <nd ref="747150754"/>
    <nd ref="747150710"/>
    <nd ref="747150646"/>
    <nd ref="301679833"/>
    <nd ref="301679834"/>
    <nd ref="301679831"/>
    <nd ref="747150702"/>
    <nd ref="301679832"/>
    <tag k="highway" v="residential"/>
    <tag k="name" v="Doki"/>
  </way>
  <way id="27477226" version="2" timestamp="2009-08-31T07:49:26Z" uid="66036" user="h4v" changeset="2323230">
    <nd ref="301673998"/>
    <nd ref="301678258"/>
    <nd ref="301674000"/>
    <nd ref="301678264"/>
    <tag k="bicycle" v="yes"/>
    <tag k="highway" v="footway"/>
    <tag k="source" v="UMP-PL, ./UMP-Gdansk/src/GDANSK.ulice.txt"/>
  </way>
  <way id="27477226" version="3" timestamp="2011-02-28T12:41:40Z" uid="30632" user="antblant" changeset="7420198">
    <nd ref="301673998"/>
    <nd ref="301678258"/>
    <nd ref="301674000"/>
    <tag k="bicycle" v="yes"/>
    <tag k="highway" v="footway"/>
    <tag k="source" v="UMP-PL, ./UMP-Gdansk/src/GDANSK.ulice.txt"/>
  </way>
  <way id="27477229" version="2" timestamp="2009-12-19T15:57:52Z" uid="20587" user="balrog-kun" changeset="3407737"/>
  <way id="27477268" version="2" timestamp="2009-09-02T21:45:58Z" uid="66036" user="h4v" changeset="2354271">
    <nd ref="301671412"/>
    <nd ref="481443530"/>
    <nd ref="301680137"/>
    <nd ref="301680230"/>
    <tag k="highway" v="service"/>
    <tag k="name" v="Lenartowicza"/>
    <tag k="source" v="UMP-PL, ./UMP-Gdansk/src/GDANSK.ulice.txt"/>
  </way>
  <way id="27477273" version="2" timestamp="2009-09-02T21:46:01Z" uid="66036" user="h4v" changeset="2354271">
    <nd ref="301679287"/>
    <nd ref="481443604"/>
    <nd ref="301679289"/>
    <tag k="highway" v="service"/>
    <tag k="source" v="UMP-PL, ./UMP-Gdansk/src/GDANSK.ulice.txt"/>
  </way>
  <way id="27477315" version="3" timestamp="2009-12-19T15:57:42Z" uid="20587" user="balrog-kun" changeset="3407737">
    <nd ref="255723311"/>
    <nd ref="596395556"/>
    <nd ref="301672868"/>
    <tag k="highway" v="residential"/>
    <tag k="source" v="UMP-PL, ./UMP-Gdansk/src/GDANSK.ulice.txt"/>
  </way>
  <way id="27477337" version="5" timestamp="2009-12-19T15:57:45Z" uid="20587" user="balrog-kun" changeset="3407737">
    <nd ref="301670946"/>
    <nd ref="291223051"/>
    <nd ref="475310251"/>
    <nd ref="301675550"/>
    <nd ref="534069993"/>
    <nd ref="301675552"/>
    <nd ref="301675555"/>
    <nd ref="301675554"/>
    <nd ref="301675557"/>
    <tag k="highway" v="tertiary"/>
    <tag k="name" v="Schuberta"/>
    <tag k="source" v="UMP-PL, ./UMP-Gdansk/src/GDANSK.ulice.txt"/>
  </way>
  <way id="27477365" version="3" timestamp="2009-12-18T14:05:29Z" uid="20587" user="balrog-kun" changeset="3400728">
    <nd ref="301677207"/>
    <nd ref="301677208"/>
    <nd ref="301677205"/>
    <nd ref="301677206"/>
    <nd ref="301677203"/>
    <nd ref="301677204"/>
    <nd ref="301677183"/>
    <nd ref="301677184"/>
    <nd ref="301677181"/>
    <nd ref="301677182"/>
    <nd ref="301677179"/>
    <nd ref="301677180"/>
    <nd ref="301671688"/>
    <tag k="highway" v="residential"/>
    <tag k="name" v="Trakt Świętego Wojciecha"/>
    <tag k="source" v="UMP-PL, ./UMP-Gdansk/src/GDANSK.ulice.txt"/>
  </way>
  <way id="27477372" version="3" timestamp="2009-12-18T14:05:31Z" uid="20587" user="balrog-kun" changeset="3400728">
    <nd ref="301672028"/>
    <nd ref="301672057"/>
    <nd ref="301672054"/>
    <nd ref="301672055"/>
    <tag k="highway" v="residential"/>
    <tag k="name" v="Chlebnicka"/>
    <tag k="name:de" v="Brotbänkengasse"/>
    <tag k="source" v="UMP-PL, ./UMP-Gdansk/src/GDANSK.ulice.txt"/>
    <tag k="wikipedia" v="pl:Ulica Chlebnicka w Gdańsku"/>
  </way>
  <way id="27477393" version="2" timestamp="2011-03-12T23:39:54Z" uid="30632" user="antblant" changeset="7539626">
    <nd ref="301686576"/>
    <nd ref="301686575"/>
    <nd ref="301686549"/>
    <nd ref="301686548"/>
    <tag k="highway" v="unclassified"/>
    <tag k="source" v="UMP-PL, ./UMP-Gdansk/src/GDANSK.ulice.txt"/>
    <tag k="surface" v="unpaved"/>
  </way>
  <way id="27477408" version="2" timestamp="2009-12-19T15:57:51Z" uid="20587" user="balrog-kun" changeset="3407737">
    <nd ref="301683424"/>
    <nd ref="301679772"/>
    <nd ref="301672187"/>
    <nd ref="301683425"/>
    <tag k="highway" v="footway"/>
    <tag k="layer" v="-1"/>
    <tag k="source" v="UMP-PL, ./UMP-Gdansk/src/GDANSK.ulice.txt"/>
    <tag k="tunnel" v="yes"/>
  </way>
  <way id="27477411" version="2" timestamp="2009-09-02T21:45:59Z" uid="66036" user="h4v" changeset="2354271">
    <nd ref="301670624"/>
    <nd ref="481443556"/>
    <nd ref="301679956"/>
    <nd ref="301679955"/>
    <tag k="highway" v="service"/>
    <tag k="source" v="UMP-PL, ./UMP-Gdansk/src/GDANSK.ulice.txt"/>
  </way>
  <way id="27477429" version="2" timestamp="2009-09-12T18:37:44Z" uid="66036" user="h4v" changeset="2461220">
    <nd ref="494381089"/>
    <nd ref="494381091"/>
    <nd ref="494381090"/>
    <nd ref="301682316"/>
    <nd ref="301682319"/>
    <nd ref="301682318"/>
    <nd ref="301682313"/>
    <nd ref="301682312"/>
    <nd ref="301682315"/>
    <nd ref="301682314"/>
    <nd ref="301682260"/>
    <nd ref="301682259"/>
    <nd ref="301682262"/>
    <nd ref="301682261"/>
    <nd ref="301682256"/>
    <nd ref="301682255"/>
    <nd ref="301682258"/>
    <nd ref="301682257"/>
    <nd ref="301682268"/>
    <nd ref="301682267"/>
    <nd ref="301682270"/>
    <nd ref="301682269"/>
    <nd ref="301682264"/>
    <nd ref="301673457"/>
    <tag k="highway" v="service"/>
    <tag k="source" v="UMP-PL, ./UMP-Gdansk/src/GDANSK.ulice.txt"/>
  </way>
  <way id="27477437" version="5" timestamp="2009-12-18T14:05:33Z" uid="20587" user="balrog-kun" changeset="3400728">
    <nd ref="301672028"/>
    <nd ref="301672052"/>
    <tag k="highway" v="residential"/>
    <tag k="maxweight" v="3.5"/>
    <tag k="name" v="Klesza"/>
    <tag k="name:de" v="Pfaffengasse"/>
    <tag k="oneway" v="yes"/>
    <tag k="source" v="UMP-PL, ./UMP-Gdansk/src/GDANSK.ulice.txt"/>
  </way>
  <way id="27477442" version="2" timestamp="2009-09-02T21:45:56Z" uid="66036" user="h4v" changeset="2354271">
    <nd ref="301671071"/>
    <nd ref="481443549"/>
    <nd ref="301673304"/>
    <tag k="highway" v="residential"/>
    <tag k="source" v="UMP-PL, ./UMP-Gdansk/src/GDANSK.ulice.txt"/>
  </way>
  <way id="27477450" version="4" timestamp="2009-12-19T15:57:50Z" uid="20587" user="balrog-kun" changeset="3407737">
    <nd ref="301672882"/>
    <nd ref="596395567"/>
    <nd ref="301672890"/>
    <tag k="highway" v="residential"/>
    <tag k="name" v="Jasna"/>
    <tag k="source" v="UMP-PL, ./UMP-Gdansk/src/GDANSK.ulice.txt"/>
  </way>
  <way id="27477461" version="4" timestamp="2009-12-18T14:05:32Z" uid="20587" user="balrog-kun" changeset="3400728">
    <nd ref="301672065"/>
    <nd ref="301672052"/>
    <nd ref="301672053"/>
    <nd ref="301672051"/>
    <nd ref="301672066"/>
    <tag k="highway" v="residential"/>
    <tag k="name" v="Mariacka"/>
    <tag k="name:de" v="Frauengasse"/>
    <tag k="source" v="UMP-PL, ./UMP-Gdansk/src/GDANSK.ulice.txt"/>
    <tag k="wikipedia" v="pl:Ulica Mariacka w Gdańsku"/>
  </way>
  <way id="27477468" version="5" timestamp="2009-12-19T15:57:51Z" uid="20587" user="balrog-kun" changeset="3407737">
    <nd ref="301672883"/>
    <nd ref="596395568"/>
    <nd ref="301672891"/>
    <tag k="highway" v="residential"/>
    <tag k="name" v="Wesoła"/>
    <tag k="name:de" v="Schottenweg"/>
    <tag k="source" v="UMP-PL, ./UMP-Gdansk/src/GDANSK.ulice.txt"/>
  </way>
  <way id="27477475" version="3" timestamp="2011-03-12T23:39:59Z" uid="30632" user="antblant" changeset="7539626"/>
  <way id="27477525" version="3" timestamp="2009-12-18T14:05:33Z" uid="20587" user="balrog-kun" changeset="3400728">
    <nd ref="301684325"/>
    <nd ref="301684576"/>
    <nd ref="301684575"/>
    <nd ref="301684574"/>
    <nd ref="301671239"/>
    <tag k="highway" v="residential"/>
    <tag k="name" v="Trakt Świętego Wojciecha"/>
    <tag k="source" v="UMP-PL, ./UMP-Gdansk/src/GDANSK.ulice.txt"/>
  </way>
  <way id="27477527" version="2" timestamp="2009-09-02T21:46:04Z" uid="66036" user="h4v" changeset="2354271">
    <nd ref="301671585"/>
    <nd ref="301673249"/>
    <nd ref="301673247"/>
    <nd ref="301673253"/>
    <nd ref="301673252"/>
    <nd ref="301673256"/>
    <nd ref="481443546"/>
    <nd ref="301673255"/>
    <nd ref="301671065"/>
    <tag k="highway" v="residential"/>
    <tag k="source" v="UMP-PL, ./UMP-Gdansk/src/GDANSK.ulice.txt"/>
  </way>
  <way id="27477529" version="2" timestamp="2008-10-10T11:21:13Z" uid="30632" user="antblant" changeset="226581">
    <nd ref="258208010"/>
    <nd ref="301680678"/>
    <nd ref="301680559"/>
    <nd ref="301680546"/>
    <nd ref="301680581"/>
    <nd ref="301680575"/>
    <nd ref="301680602"/>
    <nd ref="301680589"/>
    <nd ref="301680619"/>
    <nd ref="301680611"/>
    <nd ref="301680664"/>
    <nd ref="301680621"/>
    <nd ref="301680620"/>
    <nd ref="301680623"/>
    <nd ref="301680622"/>
    <nd ref="301680625"/>
    <nd ref="301680624"/>
    <nd ref="301680627"/>
    <nd ref="301680626"/>
    <nd ref="301680629"/>
    <nd ref="301680628"/>
    <nd ref="301680631"/>
    <nd ref="301680630"/>
    <nd ref="301680633"/>
    <nd ref="301680632"/>
    <nd ref="301680635"/>
    <tag k="UMP_Level" v="3"/>
    <tag k="created_by" v="JOSM"/>
    <tag k="highway" v="secondary"/>
    <tag k="name" v="Boguckiego"/>
    <tag k="ref" v="501"/>
    <tag k="source" v="UMP-PL, ./UMP-Gdansk/src/GDANSK.ulice.txt"/>
  </way>
  <way id="27477541" version="3" timestamp="2009-09-02T21:46:03Z" uid="66036" user="h4v" changeset="2354271">
    <nd ref="301671659"/>
    <nd ref="301678361"/>
    <nd ref="301672435"/>
    <nd ref="301672433"/>
    <nd ref="481443500"/>
    <nd ref="301672217"/>
    <tag k="highway" v="trunk"/>
    <tag k="name" v="Elbląska"/>
    <tag k="source" v="UMP-PL, ./UMP-Gdansk/src/GDANSK.ulice.txt"/>
  </way>
  <way id="27477624" version="3" timestamp="2009-12-18T14:05:35Z" uid="20587" user="balrog-kun" changeset="3400728">
    <nd ref="301678792"/>
    <nd ref="301678804"/>
    <nd ref="301678785"/>
    <nd ref="301678786"/>
    <nd ref="301678787"/>
    <nd ref="301678788"/>
    <nd ref="301678780"/>
    <nd ref="301678781"/>
    <nd ref="595656639"/>
    <nd ref="595656638"/>
    <nd ref="301678805"/>
    <nd ref="301678720"/>
    <tag k="highway" v="residential"/>
    <tag k="name" v="Miałki Szlak"/>
    <tag k="source" v="UMP-PL, ./UMP-Gdansk/src/GDANSK.ulice.txt"/>
  </way>
  <way id="27477629" version="2" timestamp="2009-09-02T21:59:02Z" uid="66036" user="h4v" changeset="2354341">
    <nd ref="301680466"/>
    <nd ref="301686560"/>
    <nd ref="301686558"/>
    <nd ref="301683216"/>
    <nd ref="301686536"/>
    <nd ref="301686535"/>
    <nd ref="301686534"/>
    <nd ref="301686533"/>
    <tag k="highway" v="unclassified"/>
    <tag k="source" v="UMP-PL, ./UMP-Gdansk/src/GDANSK.ulice.txt"/>
    <tag k="surface" v="unpaved"/>
  </way>
  <way id="27477630" version="5" timestamp="2009-05-07T08:55:55Z" uid="30632" user="antblant" changeset="1104842">
    <nd ref="301679662"/>
    <nd ref="301684755"/>
    <nd ref="301684748"/>
    <nd ref="301683274"/>
    <nd ref="301671772"/>
    <nd ref="301679738"/>
    <tag k="created_by" v="JOSM"/>
    <tag k="highway" v="primary_link"/>
    <tag k="oneway" v="yes"/>
    <tag k="source" v="UMP-PL, ./UMP-Gdansk/src/GDANSK.ulice.txt"/>
  </way>
  <way id="27477636" version="4" timestamp="2009-12-19T15:57:48Z" uid="20587" user="balrog-kun" changeset="3407737">
    <nd ref="301672923"/>
    <nd ref="301672949"/>
    <nd ref="301672948"/>
    <tag k="highway" v="residential"/>
    <tag k="name" v="Jana Chryzostoma Paska"/>
    <tag k="source" v="UMP-PL, ./UMP-Gdansk/src/GDANSK.ulice.txt"/>
  </way>
  <way id="27477648" version="5" timestamp="2011-02-28T11:13:16Z" uid="30632" user="antblant" changeset="7419531">
    <nd ref="301682222"/>
    <nd ref="747060809"/>
    <nd ref="747060754"/>
    <nd ref="1108197514"/>
    <nd ref="301675092"/>
    <tag k="highway" v="residential"/>
    <tag k="name" v="Wyzwolenia"/>
    <tag k="source" v="UMP-PL, ./UMP-Gdansk/src/GDANSK.ulice.txt"/>
  </way>
  <way id="27477666" version="4" timestamp="2009-12-19T15:57:42Z" uid="20587" user="balrog-kun" changeset="3407737">
    <nd ref="301672923"/>
    <nd ref="301672958"/>
    <nd ref="301672944"/>
    <nd ref="301672941"/>
    <nd ref="301672947"/>
    <nd ref="301672946"/>
    <nd ref="301675921"/>
    <nd ref="301675894"/>
    <nd ref="301675895"/>
    <nd ref="301675892"/>
    <nd ref="596395552"/>
    <nd ref="301675893"/>
    <nd ref="301675898"/>
    <nd ref="533994807"/>
    <nd ref="533994806"/>
    <nd ref="301675922"/>
    <nd ref="533994526"/>
    <nd ref="533994524"/>
    <nd ref="533994922"/>
    <nd ref="596395517"/>
    <nd ref="596395518"/>
    <nd ref="301675899"/>
    <tag k="highway" v="residential"/>
    <tag k="name" v="Zakopiańska"/>
    <tag k="name:de" v="Weinbergstraße"/>
    <tag k="source" v="UMP-PL, ./UMP-Gdansk/src/GDANSK.ulice.txt"/>
  </way>
  <way id="27477676" version="4" timestamp="2011-03-02T13:23:26Z" uid="30632" user="antblant" changeset="7437698">
    <nd ref="301683033"/>
    <nd ref="1182694525"/>
    <tag k="highway" v="footway"/>
    <tag k="source" v="UMP-PL, ./UMP-Gdansk/src/GDANSK.ulice.txt"/>
  </way>
  <way id="27477683" version="5" timestamp="2009-09-02T21:46:00Z" uid="66036" user="h4v" changeset="2354271">
    <nd ref="301671602"/>
    <nd ref="481443534"/>
    <nd ref="301678444"/>
    <nd ref="301684201"/>
    <nd ref="301671625"/>
    <tag k="highway" v="secondary"/>
    <tag k="name" v="Majora Henryka Sucharskiego"/>
    <tag k="oneway" v="yes"/>
    <tag k="source" v="UMP-PL, ./UMP-Gdansk/src/GDANSK.ulice.txt"/>
  </way>
  <way id="27477701" version="5" timestamp="2009-12-19T15:57:49Z" uid="20587" user="balrog-kun" changeset="3407737">
    <nd ref="301671575"/>
    <nd ref="596395618"/>
    <nd ref="596395616"/>
    <nd ref="301679203"/>
    <nd ref="596395601"/>
    <nd ref="596395597"/>
    <nd ref="301671899"/>
    <nd ref="114087146"/>
    <nd ref="301679587"/>
    <nd ref="301683282"/>
    <nd ref="301683272"/>
    <tag k="highway" v="secondary"/>
    <tag k="name" v="3 Maja"/>
    <tag k="oneway" v="yes"/>
    <tag k="source" v="UMP-PL, ./UMP-Gdansk/src/GDANSK.ulice.txt"/>
  </way>
  <way id="27477703" version="3" timestamp="2009-09-02T20:58:41Z" uid="66036" user="h4v" changeset="2353898">
    <nd ref="481393319"/>
    <nd ref="481393317"/>
    <nd ref="481393315"/>
    <nd ref="481393313"/>
    <nd ref="481393311"/>
    <nd ref="481393308"/>
    <nd ref="301671351"/>
    <tag k="highway" v="path"/>
  </way>
  <way id="27477724" version="2" timestamp="2009-09-02T21:45:58Z" uid="66036" user="h4v" changeset="2354271">
    <nd ref="301683263"/>
    <nd ref="301671571"/>
    <nd ref="301683262"/>
    <nd ref="301679801"/>
    <tag k="highway" v="footway"/>
    <tag k="layer" v="-1"/>
    <tag k="name" v="(podziemne)"/>
    <tag k="source" v="UMP-PL, ./UMP-Gdansk/src/GDANSK.ulice.txt"/>
  </way>
  <way id="27477724" version="3" timestamp="2009-12-19T15:57:51Z" uid="20587" user="balrog-kun" changeset="3407737">
    <nd ref="301683263"/>
    <nd ref="301671571"/>
    <nd ref="301683262"/>
    <nd ref="301679801"/>
    <tag k="highway" v="footway"/>
    <tag k="layer" v="-1"/>
    <tag k="source" v="UMP-PL, ./UMP-Gdansk/src/GDANSK.ulice.txt"/>
    <tag k="tunnel" v="yes"/>
  </way>
  <way id="27477739" version="3" timestamp="2009-12-18T14:05:35Z" uid="20587" user="balrog-kun" changeset="3400728">
    <nd ref="301678722"/>
    <nd ref="301671642"/>
    <nd ref="301678962"/>
    <nd ref="301682597"/>
    <nd ref="301682598"/>
    <nd ref="301682595"/>
    <nd ref="301682596"/>
    <nd ref="301682609"/>
    <nd ref="301682610"/>
    <nd ref="301682607"/>
    <tag k="highway" v="residential"/>
    <tag k="name" v="Tarcice"/>
    <tag k="surface" v="unpaved"/>
  </way>
  <way id="27477744" version="4" timestamp="2009-12-19T15:57:50Z" uid="20587" user="balrog-kun" changeset="3407737">
    <nd ref="301671573"/>
    <nd ref="301671899"/>
    <nd ref="301671907"/>
    <nd ref="301671908"/>
    <nd ref="301671905"/>
    <nd ref="301671906"/>
    <tag k="highway" v="residential"/>
    <tag k="name" v="Księdza Franciszka Rogaczewskiego"/>
    <tag k="name:de" v="Sandgrube"/>
    <tag k="source" v="UMP-PL, ./UMP-Gdansk/src/GDANSK.ulice.txt"/>
  </way>
  <way id="27477753" version="3" timestamp="2008-11-10T10:25:09Z" uid="78826" user="laboraetora" changeset="732335">
    <nd ref="301686615"/>
    <nd ref="301686330"/>
    <nd ref="301686315"/>
    <nd ref="301686332"/>
    <nd ref="301686329"/>
    <nd ref="301686314"/>
    <nd ref="301686613"/>
    <nd ref="301686320"/>
    <nd ref="301686313"/>
    <nd ref="301686336"/>
    <nd ref="301686339"/>
    <nd ref="301686338"/>
    <nd ref="301686341"/>
    <nd ref="301686331"/>
    <nd ref="301686335"/>
    <nd ref="301686684"/>
    <tag k="created_by" v="Potlatch 0.10f"/>
    <tag k="highway" v="residential"/>
    <tag k="name" v="Wilanowska"/>
    <tag k="source" v="UMP-PL, ./UMP-Gdansk/src/GDANSK.ulice.txt"/>
  </way>
  <way id="27477755" version="4" timestamp="2009-12-18T14:05:34Z" uid="20587" user="balrog-kun" changeset="3400728">
    <nd ref="301672218"/>
    <nd ref="475295431"/>
    <tag k="bridge" v="yes"/>
    <tag k="highway" v="residential"/>
    <tag k="layer" v="1"/>
    <tag k="maxweight" v="10"/>
    <tag k="name" v="Stągiewna"/>
    <tag k="noexit" v="yes"/>
    <tag k="source" v="UMP-PL, ./UMP-Gdansk/src/GDANSK.ulice.txt"/>
  </way>
  <way id="27477764" version="2" timestamp="2009-12-19T15:57:51Z" uid="20587" user="balrog-kun" changeset="3407737">
    <nd ref="301683253"/>
    <nd ref="301683274"/>
    <nd ref="301679715"/>
    <nd ref="301679643"/>
    <nd ref="301683273"/>
    <tag k="highway" v="footway"/>
    <tag k="layer" v="-1"/>
    <tag k="source" v="UMP-PL, ./UMP-Gdansk/src/GDANSK.ulice.txt"/>
    <tag k="tunnel" v="yes"/>
  </way>
  <way id="27477769" version="4" timestamp="2009-09-02T20:58:41Z" uid="66036" user="h4v" changeset="2353898">
    <nd ref="255723298"/>
    <nd ref="301672972"/>
    <nd ref="301672976"/>
    <nd ref="301672975"/>
    <nd ref="301672982"/>
    <nd ref="301672978"/>
    <nd ref="301672961"/>
    <nd ref="301672960"/>
    <nd ref="301672963"/>
    <nd ref="301672962"/>
    <nd ref="301672966"/>
    <nd ref="301672964"/>
    <nd ref="301672968"/>
    <nd ref="481393328"/>
    <nd ref="301672967"/>
    <nd ref="301673016"/>
    <nd ref="301673011"/>
    <tag k="highway" v="residential"/>
    <tag k="name" v="Strzelecka"/>
    <tag k="source" v="UMP-PL, ./UMP-Gdansk/src/GDANSK.ulice.txt"/>
  </way>
  <way id="27477783" version="2" timestamp="2009-12-19T15:57:52Z" uid="20587" user="balrog-kun" changeset="3407737">
    <nd ref="301683262"/>
    <nd ref="301683261"/>
    <nd ref="301679804"/>
    <nd ref="301683255"/>
    <tag k="highway" v="footway"/>
    <tag k="layer" v="-1"/>
    <tag k="source" v="UMP-PL, ./UMP-Gdansk/src/GDANSK.ulice.txt"/>
    <tag k="tunnel" v="yes"/>
  </way>
  <way id="27477785" version="2" timestamp="2009-12-18T14:05:35Z" uid="20587" user="balrog-kun" changeset="3400728">
    <nd ref="301672066"/>
    <nd ref="595656628"/>
    <nd ref="301672087"/>
    <tag k="highway" v="footway"/>
    <tag k="source" v="UMP-PL, ./UMP-Gdansk/src/GDANSK.ulice.txt"/>
    <tag k="wikipedia" v="pl:Ulica Mariacka w Gdańsku"/>
  </way>
  <way id="27477803" version="2" timestamp="2009-12-18T14:05:34Z" uid="20587" user="balrog-kun" changeset="3400728">
    <nd ref="301672023"/>
    <nd ref="301672088"/>
    <tag k="highway" v="footway"/>
    <tag k="name" v="Świętego Ducha"/>
    <tag k="old_name" v="Platea Sancti Spiritus"/>
    <tag k="source" v="UMP-PL, ./UMP-Gdansk/src/GDANSK.ulice.txt"/>
    <tag k="wikipedia" v="pl:Ulica św. Ducha w Gdańsku"/>
  </way>
  <way id="27477842" version="3" timestamp="2009-09-02T21:59:03Z" uid="66036" user="h4v" changeset="2354341">
    <nd ref="301671812"/>
    <nd ref="301671878"/>
    <nd ref="301671883"/>
    <nd ref="301671873"/>
    <nd ref="481450944"/>
    <nd ref="276037294"/>
    <tag k="highway" v="residential"/>
    <tag k="name" v="Osiedle"/>
    <tag k="source" v="UMP-PL, ./UMP-Gdansk/src/GDANSK.ulice.txt"/>
  </way>
  <way id="27477844" version="3" timestamp="2009-09-02T21:46:03Z" uid="66036" user="h4v" changeset="2354271">
    <nd ref="301676022"/>
    <nd ref="481443565"/>
    <nd ref="301671072"/>
    <tag k="highway" v="residential"/>
    <tag k="name" v="Konarskiego"/>
    <tag k="source" v="UMP-PL, ./UMP-Gdansk/src/GDANSK.ulice.txt"/>
  </way>
  <way id="27477853" version="4" timestamp="2009-05-07T08:51:25Z" uid="30632" user="antblant" changeset="1104842">
    <nd ref="301671579"/>
    <nd ref="301684214"/>
    <nd ref="301679868"/>
    <tag k="created_by" v="JOSM"/>
    <tag k="highway" v="primary"/>
    <tag k="int_ref" v="E 75;E 77"/>
    <tag k="name" v="Jana z Kolna"/>
    <tag k="ref" v="1"/>
    <tag k="source" v="UMP-PL, ./UMP-Gdansk/src/GDANSK.ulice.txt"/>
  </way>
  <way id="27477857" version="3" timestamp="2009-12-19T15:57:50Z" uid="20587" user="balrog-kun" changeset="3407737">
    <nd ref="596395561"/>
    <nd ref="301680352"/>
    <nd ref="301683270"/>
    <nd ref="301683269"/>
    <nd ref="301671561"/>
    <tag k="highway" v="secondary"/>
    <tag k="name" v="Węzeł Groddecka"/>
    <tag k="source" v="UMP-PL, ./UMP-Gdansk/src/GDANSK.ulice.txt"/>
  </way>
  <way id="27477863" version="3" timestamp="2009-09-02T21:45:56Z" uid="66036" user="h4v" changeset="2354271">
    <nd ref="301672265"/>
    <nd ref="481443507"/>
    <nd ref="301672392"/>
    <nd ref="301672414"/>
    <nd ref="301672415"/>
    <nd ref="301672416"/>
    <nd ref="301672417"/>
    <tag k="highway" v="residential"/>
    <tag k="name" v="Powalna"/>
    <tag k="source" v="UMP-PL, ./UMP-Gdansk/src/GDANSK.ulice.txt"/>
  </way>
  <way id="27477867" version="2" timestamp="2008-10-07T16:41:03Z" uid="30632" user="antblant" changeset="141448">
    <nd ref="301679725"/>
    <nd ref="301679707"/>
    <nd ref="301684197"/>
    <nd ref="301679785"/>
    <nd ref="301679791"/>
    <tag k="UMP_Level" v="4"/>
    <tag k="created_by" v="Potlatch 0.10d"/>
    <tag k="highway" v="primary"/>
    <tag k="name" v="Okopowa"/>
    <tag k="ref" v="1"/>
    <tag k="source" v="UMP-PL, ./UMP-Gdansk/src/GDANSK.ulice.txt"/>
  </way>
  <way id="27477867" version="6" timestamp="2009-05-07T08:52:49Z" uid="30632" user="antblant" changeset="1104842">
    <nd ref="301679725"/>
    <nd ref="301679707"/>
    <tag k="created_by" v="Potlatch 0.10d"/>
    <tag k="highway" v="primary_link"/>
    <tag k="name" v="Okopowa"/>
    <tag k="oneway" v="yes"/>
    <tag k="source" v="UMP-PL, ./UMP-Gdansk/src/GDANSK.ulice.txt"/>
  </way>
  <way id="27477877" version="3" timestamp="2008-11-10T10:26:25Z" uid="78826" user="laboraetora" changeset="732335">
    <nd ref="301686684"/>
    <nd ref="301686687"/>
    <nd ref="301686690"/>
    <nd ref="301686685"/>
    <nd ref="301686688"/>
    <nd ref="301686676"/>
    <nd ref="301686689"/>
    <nd ref="311001164"/>
    <nd ref="301686678"/>
    <nd ref="301686675"/>
    <nd ref="301686680"/>
    <nd ref="301686677"/>
    <nd ref="301686682"/>
    <nd ref="301686679"/>
    <nd ref="301686666"/>
    <nd ref="301686641"/>
    <nd ref="301686681"/>
    <nd ref="301685966"/>
    <nd ref="301686639"/>
    <nd ref="301686642"/>
    <nd ref="301686637"/>
    <nd ref="301686604"/>
    <nd ref="301686640"/>
    <nd ref="301686635"/>
    <tag k="created_by" v="Potlatch 0.10f"/>
    <tag k="highway" v="residential"/>
    <tag k="name" v="Nieborowska"/>
    <tag k="source" v="UMP-PL, ./UMP-Gdansk/src/GDANSK.ulice.txt"/>
  </way>
  <way id="27477884" version="2" timestamp="2009-09-02T20:58:42Z" uid="66036" user="h4v" changeset="2353898">
    <nd ref="301673053"/>
    <nd ref="481393287"/>
    <nd ref="301673052"/>
    <nd ref="481393270"/>
    <nd ref="301673073"/>
    <tag k="highway" v="unclassified"/>
    <tag k="name" v="Kolonia Jordana"/>
    <tag k="source" v="UMP-PL, ./UMP-Gdansk/src/GDANSK.ulice.txt"/>
    <tag k="surface" v="unpaved"/>
  </way>
  <way id="27477899" version="4" timestamp="2009-05-07T08:58:22Z" uid="30632" user="antblant" changeset="1104887">
    <nd ref="301679662"/>
    <nd ref="301679720"/>
    <nd ref="301679713"/>
    <nd ref="301679715"/>
    <nd ref="301671771"/>
    <nd ref="301679709"/>
    <nd ref="301679711"/>
    <nd ref="301679705"/>
    <nd ref="301679707"/>
    <tag k="created_by" v="JOSM"/>
    <tag k="highway" v="primary"/>
    <tag k="int_ref" v="E 75"/>
    <tag k="layer" v="-1"/>
    <tag k="name" v="Okopowa tunel-&gt;Lódz/Orunia"/>
    <tag k="ref" v="1"/>
    <tag k="source" v="UMP-PL, ./UMP-Gdansk/src/GDANSK.ulice.txt"/>
    <tag k="tunnel" v="yes"/>
  </way>
  <way id="27477902" version="2" timestamp="2008-10-06T22:04:31Z" uid="30632" user="antblant" changeset="125062">
    <nd ref="301669913"/>
    <nd ref="301674213"/>
    <nd ref="301674209"/>
    <nd ref="301673810"/>
    <tag k="UMP_Level" v="1"/>
    <tag k="created_by" v="Potlatch 0.10d"/>
    <tag k="highway" v="residential"/>
    <tag k="name" v="Stefana Żeromskiego"/>
    <tag k="source" v="UMP-PL, ./UMP-Gdansk/src/GDANSK.ulice.txt"/>
  </way>
  <way id="27477907" version="3" timestamp="2009-09-02T20:58:42Z" uid="66036" user="h4v" changeset="2353898">
    <nd ref="301671352"/>
    <nd ref="481393306"/>
    <nd ref="301673050"/>
    <tag k="highway" v="residential"/>
    <tag k="name" v="Kolonia Jordana"/>
    <tag k="source" v="UMP-PL, ./UMP-Gdansk/src/GDANSK.ulice.txt"/>
  </way>
  <way id="27477919" version="3" timestamp="2008-11-10T10:17:05Z" uid="78826" user="laboraetora" changeset="732335">
    <nd ref="301686338"/>
    <nd ref="301686711"/>
    <nd ref="301686673"/>
    <nd ref="301686672"/>
    <nd ref="301686671"/>
    <nd ref="301686670"/>
    <nd ref="301686660"/>
    <nd ref="301686661"/>
    <nd ref="301686674"/>
    <nd ref="301686659"/>
    <nd ref="301686664"/>
    <nd ref="301686665"/>
    <nd ref="301686662"/>
    <nd ref="301686663"/>
    <nd ref="301686683"/>
    <nd ref="301686714"/>
    <nd ref="301686335"/>
    <nd ref="310998864"/>
    <nd ref="310998864"/>
    <nd ref="310998864"/>
    <tag k="created_by" v="Potlatch 0.10f"/>
    <tag k="highway" v="residential"/>
    <tag k="name" v="Rogalińska"/>
    <tag k="source" v="UMP-PL, ./UMP-Gdansk/src/GDANSK.ulice.txt"/>
  </way>
  <way id="27477942" version="2" timestamp="2009-05-07T08:35:49Z" uid="30632" user="antblant" changeset="1104724">
    <nd ref="301679220"/>
    <nd ref="301683538"/>
    <nd ref="301671551"/>
    <tag k="created_by" v="JOSM"/>
    <tag k="highway" v="primary"/>
    <tag k="source" v="UMP-PL, ./UMP-Gdansk/src/GDANSK.ulice.txt"/>
  </way>
  <way id="27477942" version="3" timestamp="2009-05-07T08:47:44Z" uid="30632" user="antblant" changeset="1104828">
    <nd ref="301679220"/>
    <nd ref="301683538"/>
    <nd ref="301671551"/>
    <tag k="created_by" v="JOSM"/>
    <tag k="highway" v="primary"/>
    <tag k="ref" v="1"/>
    <tag k="source" v="UMP-PL, ./UMP-Gdansk/src/GDANSK.ulice.txt"/>
  </way>
  <way id="27477950" version="2" timestamp="2009-05-07T08:48:10Z" uid="30632" user="antblant" changeset="1104828">
    <nd ref="301680810"/>
    <nd ref="301683537"/>
    <nd ref="301675105"/>
    <tag k="created_by" v="JOSM"/>
    <tag k="highway" v="residential"/>
    <tag k="source" v="UMP-PL, ./UMP-Gdansk/src/GDANSK.ulice.txt"/>
  </way>
</osm>
