<?xml version='1.0' encoding='UTF-8'?>
<osm version="0.6" generator="libosmium/2.20.0">
  <way id="27476006" version="5" timestamp="2011-02-28T11:30:55Z" uid="30632" user="antblant" changeset="7419666">
    <nd ref="301669599"/>
    <nd ref="301673816"/>
    <nd ref="301673815"/>
    <nd ref="301673821"/>
    <nd ref="301673820"/>
    <nd ref="301673819"/>
    <nd ref="301673841"/>
    <tag k="highway" v="residential"/>
    <tag k="name" v="Bolesława Krzywoustego"/>
    <tag k="source" v="UMP-PL, ./UMP-Gdansk/src/GDANSK.ulice.txt"/>
  </way>
  <way id="27476011" version="3" timestamp="2009-08-27T19:34:51Z" uid="66036" user="h4v" changeset="2282347">
    <nd ref="475351150"/>
    <nd ref="475351148"/>
    <nd ref="475351145"/>
    <nd ref="301673529"/>
    <tag k="highway" v="footway"/>
  </way>
  <way id="27476011" version="4" timestamp="2009-09-02T21:45:57Z" uid="66036" user="h4v" changeset="2354271">
    <nd ref="475351150"/>
    <nd ref="475351148"/>
    <nd ref="475351145"/>
    <nd ref="481443571"/>
    <nd ref="301673529"/>
    <tag k="highway" v="footway"/>
  </way>
  <way id="27476012" version="6" timestamp="2009-12-19T15:57:43Z" uid="20587" user="balrog-kun" changeset="3407737">
    <nd ref="301675871"/>
    <nd ref="534440720"/>
    <nd ref="301675875"/>
    <nd ref="533994925"/>
    <nd ref="596395551"/>
    <nd ref="301675873"/>
    <nd ref="301675910"/>
    <nd ref="535895935"/>
    <nd ref="301675911"/>
    <nd ref="301675908"/>
    <nd ref="301675909"/>
    <nd ref="301675914"/>
    <nd ref="301675915"/>
    <nd ref="301675912"/>
    <nd ref="301675913"/>
    <nd ref="301675911"/>
    <tag k="highway" v="residential"/>
    <tag k="name" v="Lecha Bądkowskiego"/>
    <tag k="source" v="UMP-PL, ./UMP-Gdansk/src/GDANSK.ulice.txt"/>
  </way>
  <way id="27476030" version="3" timestamp="2009-08-27T19:34:55Z" uid="66036" user="h4v" changeset="2282347">
    <nd ref="301673649"/>
    <nd ref="301673646"/>
    <tag k="highway" v="residential"/>
    <tag k="name" v="Czarna"/>
    <tag k="source" v="UMP-PL, ./UMP-Gdansk/src/GDANSK.ulice.txt"/>
  </way>
  <way id="27476030" version="4" timestamp="2009-08-31T07:49:29Z" uid="66036" user="h4v" changeset="2323230">
    <nd ref="301673649"/>
    <nd ref="478544913"/>
    <nd ref="301673646"/>
    <tag k="highway" v="residential"/>
    <tag k="name" v="Czarna"/>
    <tag k="source" v="UMP-PL, ./UMP-Gdansk/src/GDANSK.ulice.txt"/>
  </way>
  <way id="27476039" version="3" timestamp="2009-08-27T19:34:51Z" uid="66036" user="h4v" changeset="2282347">
    <nd ref="301673640"/>
    <nd ref="301673641"/>
    <tag k="highway" v="residential"/>
    <tag k="name" v="Syrokomli"/>
    <tag k="source" v="UMP-PL, ./UMP-Gdansk/src/GDANSK.ulice.txt"/>
  </way>
  <way id="27476039" version="4" timestamp="2009-08-31T07:49:28Z" uid="66036" user="h4v" changeset="2323230">
    <nd ref="301673640"/>
    <nd ref="478544917"/>
    <nd ref="301673641"/>
    <tag k="highway" v="residential"/>
    <tag k="name" v="Syrokomli"/>
    <tag k="source" v="UMP-PL, ./UMP-Gdansk/src/GDANSK.ulice.txt"/>
  </way>
  <way id="27476041" version="3" timestamp="2009-05-07T08:25:57Z" uid="30632" user="antblant" changeset="1104669">
    <nd ref="301675166"/>
    <nd ref="301675167"/>
    <nd ref="301675168"/>
    <nd ref="301675169"/>
    <nd ref="301675248"/>
    <nd ref="301675232"/>
    <nd ref="301675235"/>
    <nd ref="301675238"/>
    <nd ref="301675240"/>
    <nd ref="301675243"/>
    <nd ref="301675245"/>
    <nd ref="301675246"/>
    <nd ref="301675248"/>
    <tag k="created_by" v="JOSM"/>
    <tag k="highway" v="primary"/>
    <tag k="name" v="Przemysłowa"/>
    <tag k="ref" v="1"/>
    <tag k="source" v="UMP-PL, ./UMP-Gdansk/src/GDANSK.ulice.txt"/>
  </way>
  <way id="27476061" version="3" timestamp="2009-08-27T19:34:52Z" uid="66036" user="h4v" changeset="2282347">
    <nd ref="301673634"/>
    <nd ref="301673635"/>
    <tag k="highway" v="residential"/>
    <tag k="name" v="Gomulickiego"/>
    <tag k="source" v="UMP-PL, ./UMP-Gdansk/src/GDANSK.ulice.txt"/>
  </way>
  <way id="27476061" version="4" timestamp="2009-08-31T07:49:29Z" uid="66036" user="h4v" changeset="2323230">
    <nd ref="301673634"/>
    <nd ref="478544915"/>
    <nd ref="301673635"/>
    <tag k="highway" v="residential"/>
    <tag k="name" v="Gomulickiego"/>
    <tag k="source" v="UMP-PL, ./UMP-Gdansk/src/GDANSK.ulice.txt"/>
  </way>
  <way id="27476073" version="2" timestamp="2008-10-08T19:00:01Z" uid="30632" user="antblant" changeset="169665">
    <nd ref="301685222"/>
    <nd ref="301685223"/>
    <nd ref="301685220"/>
    <nd ref="301685221"/>
    <nd ref="301685218"/>
    <nd ref="301685219"/>
    <nd ref="301685216"/>
    <nd ref="301685217"/>
    <nd ref="301685214"/>
    <nd ref="301685215"/>
    <nd ref="301685212"/>
    <nd ref="301685213"/>
    <nd ref="301685210"/>
    <nd ref="301685211"/>
    <nd ref="301685208"/>
    <nd ref="301685209"/>
    <nd ref="301685307"/>
    <nd ref="301685308"/>
    <nd ref="301685304"/>
    <nd ref="301685305"/>
    <nd ref="301685301"/>
    <nd ref="301685302"/>
    <nd ref="301685298"/>
    <nd ref="301685299"/>
    <nd ref="301685295"/>
    <nd ref="301685296"/>
    <nd ref="301685292"/>
    <nd ref="301685293"/>
    <nd ref="301685290"/>
    <nd ref="301685291"/>
    <nd ref="301685288"/>
    <nd ref="301685289"/>
    <nd ref="301685331"/>
    <nd ref="301685332"/>
    <tag k="UMP_Level" v="1"/>
    <tag k="created_by" v="JOSM"/>
    <tag k="highway" v="0x1a"/>
    <tag k="name" v="Wycieczka po porcie"/>
    <tag k="source" v="UMP-PL, ./UMP-Gdansk/src/GDANSK.ulice.txt"/>
  </way>
  <way id="27476073" version="4" timestamp="2009-05-07T08:30:11Z" uid="30632" user="antblant" changeset="1104669">
    <nd ref="301685222"/>
    <nd ref="301685223"/>
    <nd ref="301685220"/>
    <nd ref="301685221"/>
    <nd ref="301685218"/>
    <nd ref="301685219"/>
    <nd ref="301685216"/>
    <nd ref="301685217"/>
    <nd ref="301685214"/>
    <nd ref="301685215"/>
    <nd ref="301685212"/>
    <nd ref="301685213"/>
    <nd ref="301685210"/>
    <nd ref="301685211"/>
    <nd ref="301685208"/>
    <nd ref="301685209"/>
    <nd ref="301685307"/>
    <nd ref="301685308"/>
    <nd ref="301685304"/>
    <nd ref="301685305"/>
    <nd ref="301685301"/>
    <nd ref="301685302"/>
    <nd ref="301685298"/>
    <nd ref="301685299"/>
    <nd ref="301685295"/>
    <nd ref="301685296"/>
    <nd ref="301685292"/>
    <nd ref="301685293"/>
    <nd ref="301685290"/>
    <nd ref="301685291"/>
    <nd ref="301685288"/>
    <nd ref="301685289"/>
    <nd ref="301685331"/>
    <nd ref="301685332"/>
    <tag k="created_by" v="JOSM"/>
    <tag k="name" v="Wycieczka po porcie"/>
    <tag k="route" v="ferry"/>
    <tag k="source" v="UMP-PL, ./UMP-Gdansk/src/GDANSK.ulice.txt"/>
  </way>
  <way id="27476086" version="2" timestamp="2009-09-02T21:46:02Z" uid="66036" user="h4v" changeset="2354271">
    <nd ref="301671414"/>
    <nd ref="481443532"/>
    <nd ref="301680238"/>
    <nd ref="301680247"/>
    <nd ref="301680256"/>
    <nd ref="301680264"/>
    <tag k="highway" v="service"/>
    <tag k="name" v="Siennicka"/>
    <tag k="source" v="UMP-PL, ./UMP-Gdansk/src/GDANSK.ulice.txt"/>
  </way>
  <way id="27476089" version="3" timestamp="2011-03-12T23:39:55Z" uid="30632" user="antblant" changeset="7539626">
    <nd ref="301676666"/>
    <nd ref="301684341"/>
    <nd ref="301684332"/>
    <nd ref="301684331"/>
    <nd ref="301684346"/>
    <nd ref="301684345"/>
    <nd ref="301684344"/>
    <nd ref="301684343"/>
    <nd ref="301684431"/>
    <nd ref="301684429"/>
    <nd ref="1199470146"/>
    <tag k="highway" v="residential"/>
    <tag k="name" v="Nowiny"/>
    <tag k="source" v="UMP-PL, ./UMP-Gdansk/src/GDANSK.ulice.txt"/>
  </way>
  <way id="27476106" version="3" timestamp="2009-08-27T19:34:55Z" uid="66036" user="h4v" changeset="2282347">
    <nd ref="301673647"/>
    <nd ref="301673636"/>
    <nd ref="301673637"/>
    <nd ref="301673646"/>
    <tag k="highway" v="residential"/>
    <tag k="name" v="Ceglana"/>
    <tag k="source" v="UMP-PL, ./UMP-Gdansk/src/GDANSK.ulice.txt"/>
  </way>
  <way id="27476106" version="4" timestamp="2009-08-31T07:49:28Z" uid="66036" user="h4v" changeset="2323230">
    <nd ref="301673647"/>
    <nd ref="478544914"/>
    <nd ref="301673636"/>
    <nd ref="301673637"/>
    <nd ref="301673646"/>
    <tag k="highway" v="residential"/>
    <tag k="name" v="Ceglana"/>
    <tag k="source" v="UMP-PL, ./UMP-Gdansk/src/GDANSK.ulice.txt"/>
  </way>
  <way id="27476145" version="4" timestamp="2009-09-02T20:58:41Z" uid="66036" user="h4v" changeset="2353898">
    <nd ref="301671350"/>
    <nd ref="301671351"/>
    <nd ref="481393301"/>
    <nd ref="301671352"/>
    <nd ref="301671345"/>
    <nd ref="301671346"/>
    <nd ref="301671347"/>
    <nd ref="301671348"/>
    <nd ref="301671367"/>
    <nd ref="301671369"/>
    <nd ref="301670433"/>
    <tag k="highway" v="residential"/>
    <tag k="name" v="Jana Henryka Dąbrowskiego"/>
    <tag k="source" v="UMP-PL, ./UMP-Gdansk/src/GDANSK.ulice.txt"/>
  </way>
  <way id="27476146" version="5" timestamp="2009-08-31T07:49:26Z" uid="66036" user="h4v" changeset="2323230">
    <nd ref="301670841"/>
    <nd ref="478544946"/>
    <nd ref="26378752"/>
    <tag k="highway" v="residential"/>
    <tag k="name" v="Lendziona"/>
    <tag k="oneway" v="yes"/>
    <tag k="source" v="UMP-PL, ./UMP-Gdansk/src/GDANSK.ulice.txt"/>
  </way>
  <way id="27476170" version="2" timestamp="2009-09-02T20:58:41Z" uid="66036" user="h4v" changeset="2353898">
    <nd ref="301673050"/>
    <nd ref="481393293"/>
    <nd ref="301684078"/>
    <nd ref="301684082"/>
    <nd ref="301673052"/>
    <tag k="highway" v="footway"/>
    <tag k="name" v="Kolonia Jordana"/>
    <tag k="source" v="UMP-PL, ./UMP-Gdansk/src/GDANSK.ulice.txt"/>
  </way>
  <way id="27476184" version="3" timestamp="2009-05-07T08:26:26Z" uid="30632" user="antblant" changeset="1104669">
    <nd ref="301675199"/>
    <nd ref="301675125"/>
    <nd ref="301675205"/>
    <tag k="created_by" v="JOSM"/>
    <tag k="highway" v="primary"/>
    <tag k="name" v="Rybołowców"/>
    <tag k="source" v="UMP-PL, ./UMP-Gdansk/src/GDANSK.ulice.txt"/>
  </way>
  <way id="27476184" version="4" timestamp="2009-05-07T08:28:51Z" uid="30632" user="antblant" changeset="1104669">
    <nd ref="301675199"/>
    <nd ref="301675125"/>
    <nd ref="301675205"/>
    <tag k="created_by" v="JOSM"/>
    <tag k="highway" v="primary"/>
    <tag k="name" v="Rybołowców"/>
    <tag k="ref" v="1"/>
    <tag k="source" v="UMP-PL, ./UMP-Gdansk/src/GDANSK.ulice.txt"/>
  </way>
  <way id="27476197" version="3" timestamp="2008-11-10T10:19:00Z" uid="78826" user="laboraetora" changeset="732335">
    <nd ref="301670193"/>
    <nd ref="301674646"/>
    <nd ref="301674644"/>
    <nd ref="301674639"/>
    <nd ref="301674642"/>
    <nd ref="301674638"/>
    <nd ref="301674641"/>
    <nd ref="301674640"/>
    <tag k="created_by" v="Potlatch 0.10f"/>
    <tag k="highway" v="residential"/>
    <tag k="name" v="Płocka"/>
    <tag k="source" v="UMP-PL, ./UMP-Gdansk/src/GDANSK.ulice.txt"/>
  </way>
  <way id="27476209" version="4" timestamp="2009-05-07T08:51:04Z" uid="30632" user="antblant" changeset="1104842">
    <nd ref="301671579"/>
    <nd ref="301671599"/>
    <nd ref="301671598"/>
    <nd ref="301671601"/>
    <nd ref="301671600"/>
    <nd ref="301671591"/>
    <nd ref="301671585"/>
    <nd ref="301671597"/>
    <nd ref="301671594"/>
    <nd ref="301671607"/>
    <nd ref="301671606"/>
    <nd ref="301671609"/>
    <nd ref="301671608"/>
    <tag k="created_by" v="JOSM"/>
    <tag k="highway" v="primary"/>
    <tag k="int_ref" v="E 75;E 77"/>
    <tag k="name" v="Jana z Kolna"/>
    <tag k="ref" v="1"/>
    <tag k="source" v="UMP-PL, ./UMP-Gdansk/src/GDANSK.ulice.txt"/>
  </way>
  <way id="27476214" version="2" timestamp="2008-10-10T11:21:08Z" uid="30632" user="antblant" changeset="226581">
    <nd ref="301670266"/>
    <nd ref="301684646"/>
    <nd ref="301676661"/>
    <nd ref="301684648"/>
    <nd ref="301671133"/>
    <nd ref="301684650"/>
    <nd ref="301684652"/>
    <nd ref="301670230"/>
    <tag k="UMP_Level" v="3"/>
    <tag k="created_by" v="JOSM"/>
    <tag k="highway" v="secondary"/>
    <tag k="name" v="Podmiejska"/>
    <tag k="ref" v="221"/>
    <tag k="source" v="UMP-PL, ./UMP-Gdansk/src/GDANSK.ulice.txt"/>
  </way>
  <way id="27476225" version="2" timestamp="2009-09-02T21:46:02Z" uid="66036" user="h4v" changeset="2354271">
    <nd ref="301680128"/>
    <nd ref="481443526"/>
    <nd ref="301671406"/>
    <tag k="highway" v="service"/>
    <tag k="name" v="Lenartowicza"/>
    <tag k="source" v="UMP-PL, ./UMP-Gdansk/src/GDANSK.ulice.txt"/>
  </way>
  <way id="27476230" version="2" timestamp="2008-10-10T11:21:09Z" uid="30632" user="antblant" changeset="226581">
    <nd ref="301679126"/>
    <nd ref="301670261"/>
    <nd ref="301679277"/>
    <tag k="UMP_Level" v="3"/>
    <tag k="created_by" v="JOSM"/>
    <tag k="highway" v="secondary"/>
    <tag k="name" v="Małomiejska"/>
    <tag k="ref" v="221"/>
    <tag k="source" v="UMP-PL, ./UMP-Gdansk/src/GDANSK.ulice.txt"/>
  </way>
  <way id="27476260" version="2" timestamp="2011-03-02T13:13:51Z" uid="30632" user="antblant" changeset="7437643">
    <nd ref="301682476"/>
    <nd ref="301682560"/>
    <nd ref="301682561"/>
    <nd ref="301682558"/>
    <nd ref="301682559"/>
    <nd ref="301682556"/>
    <nd ref="301682557"/>
    <nd ref="301682554"/>
    <nd ref="301682479"/>
    <nd ref="301682555"/>
    <nd ref="301682461"/>
    <nd ref="301682568"/>
    <nd ref="301682569"/>
    <nd ref="301682566"/>
    <nd ref="301682567"/>
    <nd ref="301682564"/>
    <nd ref="301682565"/>
    <nd ref="301682562"/>
    <nd ref="301682563"/>
    <tag k="highway" v="footway"/>
    <tag k="source" v="UMP-PL, ./UMP-Gdansk/src/GDANSK.ulice.txt"/>
  </way>
  <way id="27476276" version="2" timestamp="2008-10-10T11:21:09Z" uid="30632" user="antblant" changeset="226581">
    <nd ref="301670175"/>
    <nd ref="301670179"/>
    <nd ref="301670177"/>
    <tag k="UMP_Level" v="3"/>
    <tag k="created_by" v="JOSM"/>
    <tag k="highway" v="secondary"/>
    <tag k="name" v="Świętokrzyska"/>
    <tag k="ref" v="221"/>
    <tag k="source" v="UMP-PL, ./UMP-Gdansk/src/GDANSK.ulice.txt"/>
  </way>
  <way id="27476299" version="5" timestamp="2009-12-18T14:05:35Z" uid="20587" user="balrog-kun" changeset="3400728">
    <nd ref="301671627"/>
    <nd ref="301671626"/>
    <nd ref="301671629"/>
    <nd ref="301671628"/>
    <nd ref="301671639"/>
    <nd ref="301671638"/>
    <nd ref="301671641"/>
    <nd ref="301671640"/>
    <nd ref="301671635"/>
    <nd ref="301671634"/>
    <nd ref="301671637"/>
    <nd ref="301671636"/>
    <nd ref="301671647"/>
    <nd ref="301671646"/>
    <nd ref="301671649"/>
    <nd ref="301671648"/>
    <nd ref="301671643"/>
    <nd ref="595656643"/>
    <nd ref="301671642"/>
    <nd ref="301671645"/>
    <nd ref="301671644"/>
    <tag k="highway" v="primary"/>
    <tag k="int_ref" v="E 77"/>
    <tag k="name" v="Elbląska"/>
    <tag k="ref" v="7"/>
    <tag k="source" v="UMP-PL, ./UMP-Gdansk/src/GDANSK.ulice.txt"/>
  </way>
  <way id="27476307" version="2" timestamp="2008-10-10T11:21:10Z" uid="30632" user="antblant" changeset="226581">
    <nd ref="301670230"/>
    <nd ref="301670228"/>
    <nd ref="301670236"/>
    <nd ref="301670234"/>
    <nd ref="301670241"/>
    <nd ref="301670239"/>
    <nd ref="301670246"/>
    <nd ref="301670244"/>
    <nd ref="301670251"/>
    <nd ref="301670249"/>
    <nd ref="301670256"/>
    <nd ref="301670253"/>
    <nd ref="301670261"/>
    <tag k="UMP_Level" v="3"/>
    <tag k="created_by" v="JOSM"/>
    <tag k="highway" v="secondary"/>
    <tag k="name" v="Małomiejska"/>
    <tag k="ref" v="221"/>
    <tag k="source" v="UMP-PL, ./UMP-Gdansk/src/GDANSK.ulice.txt"/>
  </way>
  <way id="27476313" version="2" timestamp="2008-10-10T11:21:10Z" uid="30632" user="antblant" changeset="226581">
    <nd ref="301670258"/>
    <nd ref="301670266"/>
    <nd ref="301670263"/>
    <nd ref="301670270"/>
    <tag k="UMP_Level" v="3"/>
    <tag k="created_by" v="JOSM"/>
    <tag k="highway" v="secondary"/>
    <tag k="name" v="Podmiejska"/>
    <tag k="ref" v="221"/>
    <tag k="source" v="UMP-PL, ./UMP-Gdansk/src/GDANSK.ulice.txt"/>
  </way>
  <way id="27476317" version="2" timestamp="2008-10-10T11:25:30Z" uid="30632" user="antblant" changeset="226581">
    <nd ref="301671662"/>
    <nd ref="301671661"/>
    <nd ref="301671688"/>
    <nd ref="301671687"/>
    <nd ref="301671690"/>
    <nd ref="301671689"/>
    <nd ref="301671686"/>
    <tag k="UMP_Level" v="4"/>
    <tag k="created_by" v="Potlatch 0.10d"/>
    <tag k="highway" v="primary"/>
    <tag k="name" v="Trakt Św. Wojciecha"/>
    <tag k="ref" v="1"/>
    <tag k="source" v="UMP-PL, ./UMP-Gdansk/src/GDANSK.ulice.txt"/>
  </way>
  <way id="27476317" version="5" timestamp="2009-12-18T14:05:30Z" uid="20587" user="balrog-kun" changeset="3400728">
    <nd ref="301671662"/>
    <nd ref="301671661"/>
    <nd ref="301671688"/>
    <nd ref="301671687"/>
    <nd ref="301671690"/>
    <nd ref="301671689"/>
    <nd ref="301671686"/>
    <tag k="highway" v="primary"/>
    <tag k="int_ref" v="E 75"/>
    <tag k="name" v="Trakt Świętego Wojciecha"/>
    <tag k="ref" v="1"/>
    <tag k="source" v="UMP-PL, ./UMP-Gdansk/src/GDANSK.ulice.txt"/>
  </way>
  <way id="27476319" version="2" timestamp="2008-10-10T11:21:11Z" uid="30632" user="antblant" changeset="226581">
    <nd ref="301680635"/>
    <nd ref="301680836"/>
    <nd ref="301680857"/>
    <nd ref="301680860"/>
    <nd ref="301680851"/>
    <nd ref="301680854"/>
    <nd ref="301680870"/>
    <nd ref="301680873"/>
    <nd ref="301680864"/>
    <nd ref="301680867"/>
    <nd ref="301680883"/>
    <nd ref="301680665"/>
    <nd ref="301680886"/>
    <nd ref="301680876"/>
    <nd ref="301680880"/>
    <nd ref="301680896"/>
    <nd ref="301680899"/>
    <nd ref="301680889"/>
    <nd ref="301680893"/>
    <nd ref="301680924"/>
    <nd ref="301680928"/>
    <nd ref="301680902"/>
    <nd ref="301680911"/>
    <nd ref="301680773"/>
    <nd ref="301680774"/>
    <nd ref="301680771"/>
    <nd ref="301680772"/>
    <nd ref="301680777"/>
    <nd ref="301680778"/>
    <nd ref="301680775"/>
    <nd ref="301680776"/>
    <nd ref="301680537"/>
    <nd ref="301680784"/>
    <nd ref="301680785"/>
    <nd ref="301680779"/>
    <nd ref="301680780"/>
    <nd ref="258295153"/>
    <tag k="UMP_Level" v="3"/>
    <tag k="created_by" v="JOSM"/>
    <tag k="highway" v="secondary"/>
    <tag k="name" v="Turystyczna"/>
    <tag k="ref" v="501"/>
    <tag k="source" v="UMP-PL, ./UMP-Gdansk/src/GDANSK.ulice.txt"/>
  </way>
  <way id="27476326" version="3" timestamp="2009-08-27T19:34:54Z" uid="66036" user="h4v" changeset="2282347">
    <nd ref="301670617"/>
    <nd ref="301686361"/>
    <nd ref="301686360"/>
    <nd ref="301670631"/>
    <nd ref="301686363"/>
    <nd ref="301686355"/>
    <nd ref="301679195"/>
    <tag k="fixme" v="yes"/>
    <tag k="highway" v="residential"/>
    <tag k="name" v="Plac Michalaka"/>
    <tag k="source" v="UMP-PL, ./UMP-Gdansk/src/GDANSK.ulice.txt"/>
  </way>
  <way id="27476335" version="2" timestamp="2008-10-10T11:26:51Z" uid="30632" user="antblant" changeset="226581">
    <nd ref="301671294"/>
    <nd ref="301683799"/>
    <nd ref="301679775"/>
    <nd ref="301679783"/>
    <nd ref="301679786"/>
    <tag k="UMP_Level" v="1"/>
    <tag k="created_by" v="Potlatch 0.10d"/>
    <tag k="highway" v="primary"/>
    <tag k="name" v="Trakt Św. Wojciecha"/>
    <tag k="ref" v="1"/>
    <tag k="source" v="UMP-PL, ./UMP-Gdansk/src/GDANSK.ulice.txt"/>
  </way>
  <way id="27476345" version="3" timestamp="2009-08-27T19:34:52Z" uid="66036" user="h4v" changeset="2282347">
    <nd ref="475351143"/>
    <nd ref="301673996"/>
    <nd ref="301673994"/>
    <nd ref="301673993"/>
    <nd ref="301673992"/>
    <nd ref="301678264"/>
    <nd ref="301674000"/>
    <nd ref="301673999"/>
    <nd ref="301673998"/>
    <nd ref="301673997"/>
    <nd ref="303801286"/>
    <tag k="bicycle" v="yes"/>
    <tag k="highway" v="footway"/>
    <tag k="name" v="Plażowa"/>
    <tag k="source" v="UMP-PL, ./UMP-Gdansk/src/GDANSK.ulice.txt"/>
  </way>
  <way id="27476348" version="8" timestamp="2009-05-07T08:35:37Z" uid="30632" user="antblant" changeset="1104724">
    <nd ref="301671562"/>
    <nd ref="301680802"/>
    <nd ref="301680799"/>
    <nd ref="301680800"/>
    <nd ref="301680160"/>
    <nd ref="301670898"/>
    <nd ref="301680805"/>
    <nd ref="301680806"/>
    <nd ref="301671484"/>
    <nd ref="301675439"/>
    <nd ref="301680803"/>
    <nd ref="301671511"/>
    <nd ref="301680804"/>
    <nd ref="301671515"/>
    <nd ref="301675141"/>
    <nd ref="301680809"/>
    <nd ref="301675108"/>
    <nd ref="301675160"/>
    <nd ref="301680810"/>
    <nd ref="301675109"/>
    <tag k="created_by" v="JOSM"/>
    <tag k="highway" v="primary"/>
    <tag k="int_ref" v="E 75;E 77"/>
    <tag k="name" v="Marynarki Polskiej"/>
    <tag k="oneway" v="yes"/>
    <tag k="source" v="UMP-PL, ./UMP-Gdansk/src/GDANSK.ulice.txt"/>
  </way>
  <way id="27476348" version="9" timestamp="2009-05-07T08:49:52Z" uid="30632" user="antblant" changeset="1104842">
    <nd ref="301671562"/>
    <nd ref="301680802"/>
    <nd ref="301680799"/>
    <nd ref="301680800"/>
    <nd ref="301680160"/>
    <nd ref="301670898"/>
    <nd ref="301680805"/>
    <nd ref="301680806"/>
    <nd ref="301671484"/>
    <nd ref="301675439"/>
    <nd ref="301680803"/>
    <nd ref="301671511"/>
    <nd ref="301680804"/>
    <nd ref="301671515"/>
    <nd ref="301675141"/>
    <nd ref="301680809"/>
    <nd ref="301675108"/>
    <nd ref="301675160"/>
    <nd ref="301680810"/>
    <nd ref="301675109"/>
    <tag k="created_by" v="JOSM"/>
    <tag k="highway" v="primary"/>
    <tag k="int_ref" v="E 75;E 77"/>
    <tag k="name" v="Marynarki Polskiej"/>
    <tag k="oneway" v="yes"/>
    <tag k="ref" v="1"/>
    <tag k="source" v="UMP-PL, ./UMP-Gdansk/src/GDANSK.ulice.txt"/>
  </way>
  <way id="27476367" version="4" timestamp="2009-12-19T15:57:51Z" uid="20587" user="balrog-kun" changeset="3407737">
    <nd ref="301671576"/>
    <nd ref="596395610"/>
    <nd ref="596395611"/>
    <nd ref="301671758"/>
    <nd ref="301679410"/>
    <tag k="highway" v="secondary"/>
    <tag k="name" v="Hucisko"/>
    <tag k="name:de" v="Silberhütte"/>
    <tag k="oneway" v="yes"/>
    <tag k="source" v="UMP-PL, ./UMP-Gdansk/src/GDANSK.ulice.txt"/>
  </way>
  <way id="27476372" version="6" timestamp="2009-05-07T08:50:53Z" uid="30632" user="antblant" changeset="1104842">
    <nd ref="301671608"/>
    <nd ref="301671603"/>
    <nd ref="323199577"/>
    <nd ref="301671562"/>
    <tag k="created_by" v="JOSM"/>
    <tag k="highway" v="primary"/>
    <tag k="int_ref" v="E 75;E 77"/>
    <tag k="name" v="Marynarki Polskiej"/>
    <tag k="ref" v="1"/>
    <tag k="source" v="UMP-PL, ./UMP-Gdansk/src/GDANSK.ulice.txt"/>
  </way>
  <way id="27476385" version="2" timestamp="2009-09-02T21:59:02Z" uid="66036" user="h4v" changeset="2354341">
    <nd ref="301672497"/>
    <nd ref="301686552"/>
    <nd ref="301686551"/>
    <nd ref="301686550"/>
    <nd ref="301680467"/>
    <tag k="highway" v="service"/>
    <tag k="name" v="Letnia"/>
    <tag k="source" v="UMP-PL, ./UMP-Gdansk/src/GDANSK.ulice.txt"/>
  </way>
  <way id="27476393" version="3" timestamp="2009-12-19T15:57:46Z" uid="20587" user="balrog-kun" changeset="3407737">
    <nd ref="301681656"/>
    <nd ref="301681667"/>
    <nd ref="301681666"/>
    <nd ref="301681664"/>
    <nd ref="301681677"/>
    <nd ref="301681675"/>
    <nd ref="596395516"/>
    <nd ref="301681673"/>
    <nd ref="301681669"/>
    <tag k="highway" v="residential"/>
    <tag k="name" v="Pana Tadeusza"/>
    <tag k="source" v="UMP-PL, ./UMP-Gdansk/src/GDANSK.ulice.txt"/>
  </way>
  <way id="27476404" version="2" timestamp="2011-03-02T13:13:51Z" uid="30632" user="antblant" changeset="7437643">
    <nd ref="301682549"/>
    <nd ref="301682427"/>
    <tag k="highway" v="footway"/>
    <tag k="source" v="UMP-PL, ./UMP-Gdansk/src/GDANSK.ulice.txt"/>
  </way>
  <way id="27476410" version="3" timestamp="2009-12-18T14:05:29Z" uid="20587" user="balrog-kun" changeset="3400728">
    <nd ref="301677784"/>
    <nd ref="301677787"/>
    <nd ref="301677788"/>
    <nd ref="301677789"/>
    <nd ref="301677790"/>
    <nd ref="301677770"/>
    <nd ref="301677771"/>
    <nd ref="301677772"/>
    <nd ref="301677773"/>
    <nd ref="301677789"/>
    <tag k="highway" v="residential"/>
    <tag k="name" v="Ryszarda Tomczaka"/>
    <tag k="source" v="UMP-PL, ./UMP-Gdansk/src/GDANSK.ulice.txt"/>
  </way>
  <way id="27476419" version="3" timestamp="2009-12-19T15:57:44Z" uid="20587" user="balrog-kun" changeset="3407737">
    <nd ref="301675802"/>
    <nd ref="301681671"/>
    <nd ref="301681685"/>
    <nd ref="596395515"/>
    <nd ref="301681683"/>
    <nd ref="301680407"/>
    <tag k="highway" v="footway"/>
    <tag k="name" v="Ścieżka i schody"/>
    <tag k="source" v="UMP-PL, ./UMP-Gdansk/src/GDANSK.ulice.txt"/>
  </way>
  <way id="27476437" version="4" timestamp="2011-03-13T00:01:06Z" uid="30632" user="antblant" changeset="7539780">
    <nd ref="1199497194"/>
    <nd ref="301674012"/>
    <nd ref="1171009120"/>
    <nd ref="301674011"/>
    <nd ref="1170778011"/>
    <tag k="highway" v="residential"/>
    <tag k="name" v="Aleja Rzeczpospolitej"/>
    <tag k="source" v="UMP-PL, ./UMP-Gdansk/src/GDANSK.ulice.txt"/>
  </way>
  <way id="27476454" version="4" timestamp="2009-09-02T21:46:04Z" uid="66036" user="h4v" changeset="2354271">
    <nd ref="301671057"/>
    <nd ref="301671073"/>
    <nd ref="481443562"/>
    <nd ref="301679386"/>
    <nd ref="301673276"/>
    <nd ref="301679385"/>
    <nd ref="301673228"/>
    <nd ref="301676022"/>
    <nd ref="301670659"/>
    <nd ref="301679380"/>
    <tag k="highway" v="secondary"/>
    <tag k="name" v="Aleja generała Józefa Hallera"/>
    <tag k="source" v="UMP-PL, ./UMP-Gdansk/src/GDANSK.ulice.txt"/>
  </way>
  <way id="27476459" version="2" timestamp="2008-10-10T11:21:11Z" uid="30632" user="antblant" changeset="226581">
    <nd ref="301670179"/>
    <nd ref="301684459"/>
    <nd ref="301674314"/>
    <nd ref="301684463"/>
    <nd ref="301684641"/>
    <nd ref="301670199"/>
    <tag k="UMP_Level" v="3"/>
    <tag k="created_by" v="JOSM"/>
    <tag k="highway" v="secondary"/>
    <tag k="name" v="Świętokrzyska"/>
    <tag k="ref" v="221"/>
    <tag k="source" v="UMP-PL, ./UMP-Gdansk/src/GDANSK.ulice.txt"/>
  </way>
  <way id="27476474" version="3" timestamp="2009-08-27T19:34:55Z" uid="66036" user="h4v" changeset="2282347">
    <nd ref="301669445"/>
    <nd ref="301684941"/>
    <nd ref="301684940"/>
    <nd ref="301684943"/>
    <nd ref="301684942"/>
    <nd ref="301684937"/>
    <nd ref="301684936"/>
    <nd ref="301679377"/>
    <nd ref="301679379"/>
    <nd ref="475351143"/>
    <nd ref="301678185"/>
    <nd ref="301677084"/>
    <nd ref="301684939"/>
    <nd ref="301684938"/>
    <nd ref="301681748"/>
    <nd ref="301684965"/>
    <nd ref="301684950"/>
    <tag k="highway" v="tertiary"/>
    <tag k="name" v="Czarny Dwór"/>
    <tag k="source" v="UMP-PL, ./UMP-Gdansk/src/GDANSK.ulice.txt"/>
  </way>
  <way id="27476477" version="4" timestamp="2011-03-12T23:39:57Z" uid="30632" user="antblant" changeset="7539626">
    <nd ref="1199470137"/>
    <nd ref="301677768"/>
    <nd ref="301677769"/>
    <nd ref="301677754"/>
    <nd ref="301677755"/>
    <nd ref="301677756"/>
    <tag k="highway" v="residential"/>
    <tag k="name" v="Nowiny"/>
    <tag k="source" v="UMP-PL, ./UMP-Gdansk/src/GDANSK.ulice.txt"/>
  </way>
  <way id="27476493" version="5" timestamp="2009-12-19T15:57:40Z" uid="20587" user="balrog-kun" changeset="3407737">
    <nd ref="301670399"/>
    <nd ref="301670400"/>
    <nd ref="301670408"/>
    <nd ref="301670410"/>
    <nd ref="301670404"/>
    <nd ref="301670406"/>
    <nd ref="301670417"/>
    <nd ref="301670419"/>
    <nd ref="301670412"/>
    <nd ref="301670415"/>
    <nd ref="301670427"/>
    <nd ref="301670430"/>
    <nd ref="301670421"/>
    <nd ref="301670423"/>
    <nd ref="301670440"/>
    <nd ref="301670444"/>
    <nd ref="301670433"/>
    <nd ref="392476049"/>
    <nd ref="301670436"/>
    <tag k="highway" v="tertiary"/>
    <tag k="name" v="Powstańców Warszawskich"/>
    <tag k="source" v="UMP-PL, ./UMP-Gdansk/src/GDANSK.ulice.txt"/>
  </way>
  <way id="27476522" version="3" timestamp="2009-12-18T14:05:36Z" uid="20587" user="balrog-kun" changeset="3400728">
    <nd ref="301678718"/>
    <nd ref="595656644"/>
    <nd ref="301678801"/>
    <nd ref="301678802"/>
    <nd ref="301678806"/>
    <nd ref="301678803"/>
    <tag k="highway" v="residential"/>
    <tag k="name" v="Miałki Szlak"/>
    <tag k="source" v="UMP-PL, ./UMP-Gdansk/src/GDANSK.ulice.txt"/>
  </way>
  <way id="27476539" version="2" timestamp="2011-03-12T23:39:59Z" uid="30632" user="antblant" changeset="7539626">
    <nd ref="1199470144"/>
    <nd ref="301686716"/>
    <tag k="highway" v="service"/>
    <tag k="source" v="UMP-PL, ./UMP-Gdansk/src/GDANSK.ulice.txt"/>
  </way>
  <way id="27476566" version="2" timestamp="2009-08-31T07:49:28Z" uid="66036" user="h4v" changeset="2323230">
    <nd ref="301670980"/>
    <nd ref="478544893"/>
    <tag k="highway" v="footway"/>
    <tag k="source" v="UMP-PL, ./UMP-Gdansk/src/GDANSK.ulice.txt"/>
  </way>
  <way id="27476568" version="2" timestamp="2011-03-12T23:39:58Z" uid="30632" user="antblant" changeset="7539626">
    <nd ref="1199470156"/>
    <nd ref="301686717"/>
    <tag k="highway" v="unclassified"/>
    <tag k="name" v="Zagony"/>
    <tag k="source" v="UMP-PL, ./UMP-Gdansk/src/GDANSK.ulice.txt"/>
    <tag k="surface" v="unpaved"/>
  </way>
  <way id="27476626" version="7" timestamp="2009-09-02T21:46:00Z" uid="66036" user="h4v" changeset="2354271">
    <nd ref="301670715"/>
    <nd ref="481443613"/>
    <nd ref="301670747"/>
    <nd ref="481443573"/>
    <nd ref="301670749"/>
    <nd ref="301670749"/>
    <nd ref="301670749"/>
    <tag k="highway" v="primary"/>
    <tag k="name" v="Miszewskiego"/>
    <tag k="oneway" v="yes"/>
    <tag k="source" v="UMP-PL, ./UMP-Gdansk/src/GDANSK.ulice.txt"/>
  </way>
  <way id="27476643" version="3" timestamp="2009-12-19T15:57:42Z" uid="20587" user="balrog-kun" changeset="3407737">
    <nd ref="301676313"/>
    <nd ref="301676312"/>
    <nd ref="301676319"/>
    <nd ref="596395512"/>
    <nd ref="301676318"/>
    <nd ref="301676317"/>
    <tag k="highway" v="residential"/>
    <tag k="name" v="Szara"/>
    <tag k="source" v="UMP-PL, ./UMP-Gdansk/src/GDANSK.ulice.txt"/>
  </way>
  <way id="27476646" version="3" timestamp="2009-12-19T15:57:42Z" uid="20587" user="balrog-kun" changeset="3407737">
    <nd ref="301676287"/>
    <nd ref="301676306"/>
    <nd ref="301676305"/>
    <nd ref="301676304"/>
    <nd ref="301676311"/>
    <nd ref="301676310"/>
    <nd ref="301676309"/>
    <tag k="highway" v="residential"/>
    <tag k="name" v="Świętego Huberta"/>
    <tag k="source" v="UMP-PL, ./UMP-Gdansk/src/GDANSK.ulice.txt"/>
  </way>
  <way id="27476667" version="2" timestamp="2009-09-02T21:59:02Z" uid="66036" user="h4v" changeset="2354341">
    <nd ref="301672292"/>
    <nd ref="301681099"/>
    <nd ref="301681102"/>
    <nd ref="481450940"/>
    <nd ref="301681117"/>
    <tag k="highway" v="footway"/>
    <tag k="source" v="UMP-PL, ./UMP-Gdansk/src/GDANSK.ulice.txt"/>
  </way>
  <way id="27476671" version="2" timestamp="2008-10-08T19:00:03Z" uid="30632" user="antblant" changeset="169665">
    <nd ref="301677316"/>
    <nd ref="301677956"/>
    <nd ref="301677955"/>
    <nd ref="301677942"/>
    <nd ref="301677941"/>
    <nd ref="301677944"/>
    <nd ref="301677943"/>
    <nd ref="301677946"/>
    <nd ref="301677945"/>
    <nd ref="301677948"/>
    <nd ref="301677947"/>
    <nd ref="301677934"/>
    <tag k="created_by" v="JOSM"/>
    <tag k="highway" v="unclassified"/>
    <tag k="name" v="Dawny tor kolei"/>
    <tag k="source" v="UMP-PL, ./UMP-Gdansk/src/GDANSK.ulice.txt"/>
    <tag k="surface" v="unpaved"/>
  </way>
  <way id="27476722" version="2" timestamp="2009-09-02T21:46:01Z" uid="66036" user="h4v" changeset="2354271">
    <nd ref="301682687"/>
    <nd ref="301682688"/>
    <nd ref="301682685"/>
    <nd ref="481443520"/>
    <nd ref="301681689"/>
    <tag k="highway" v="service"/>
    <tag k="source" v="UMP-PL, ./UMP-Gdansk/src/GDANSK.ulice.txt"/>
  </way>
  <way id="27476725" version="9" timestamp="2011-05-18T12:20:05Z" uid="66036" user="h4v" changeset="8180582">
    <nd ref="300760933"/>
    <nd ref="301674809"/>
    <nd ref="301674802"/>
    <nd ref="1234743958"/>
    <nd ref="301674805"/>
    <nd ref="301674840"/>
    <nd ref="301674841"/>
    <nd ref="998796643"/>
    <nd ref="1235074668"/>
    <tag k="highway" v="tertiary"/>
    <tag k="name" v="Galaktyczna"/>
    <tag k="source" v="UMP-PL, ./UMP-Gdansk/src/GDANSK.ulice.txt"/>
  </way>
  <way id="27476736" version="3" timestamp="2009-08-31T07:49:25Z" uid="66036" user="h4v" changeset="2323230">
    <nd ref="301671439"/>
    <nd ref="301678598"/>
    <nd ref="301678597"/>
    <nd ref="301678596"/>
    <nd ref="301678595"/>
    <nd ref="301678586"/>
    <nd ref="301678585"/>
    <nd ref="301678584"/>
    <nd ref="301678583"/>
    <tag k="highway" v="residential"/>
    <tag k="name" v="Rozłogi"/>
    <tag k="source" v="UMP-PL, ./UMP-Gdansk/src/GDANSK.ulice.txt"/>
  </way>
  <way id="27476758" version="2" timestamp="2009-12-18T14:05:36Z" uid="20587" user="balrog-kun" changeset="3400728"/>
  <way id="27476769" version="3" timestamp="2009-09-02T21:45:58Z" uid="66036" user="h4v" changeset="2354271">
    <nd ref="301670659"/>
    <nd ref="301670662"/>
    <nd ref="301670652"/>
    <nd ref="481443567"/>
    <nd ref="301670655"/>
    <tag k="highway" v="residential"/>
    <tag k="name" v="Piramowicza"/>
    <tag k="source" v="UMP-PL, ./UMP-Gdansk/src/GDANSK.ulice.txt"/>
  </way>
  <way id="27476771" version="3" timestamp="2009-09-02T21:46:03Z" uid="66036" user="h4v" changeset="2354271">
    <nd ref="301672418"/>
    <nd ref="301672419"/>
    <nd ref="481443513"/>
    <nd ref="301672420"/>
    <nd ref="301672421"/>
    <nd ref="301672405"/>
    <nd ref="301672406"/>
    <nd ref="301672408"/>
    <nd ref="301671660"/>
    <nd ref="301671699"/>
    <nd ref="301671675"/>
    <nd ref="301672409"/>
    <nd ref="301672410"/>
    <nd ref="301672411"/>
    <nd ref="301672412"/>
    <nd ref="301672413"/>
    <nd ref="301672431"/>
    <nd ref="301672432"/>
    <tag k="highway" v="residential"/>
    <tag k="name" v="Głęboka"/>
    <tag k="source" v="UMP-PL, ./UMP-Gdansk/src/GDANSK.ulice.txt"/>
  </way>
  <way id="27476780" version="3" timestamp="2009-12-19T15:57:46Z" uid="20587" user="balrog-kun" changeset="3407737">
    <nd ref="301676293"/>
    <nd ref="301676303"/>
    <nd ref="596395545"/>
    <nd ref="596395543"/>
    <nd ref="301676302"/>
    <nd ref="596395541"/>
    <nd ref="301676301"/>
    <nd ref="596395538"/>
    <nd ref="301676300"/>
    <nd ref="301676339"/>
    <tag k="highway" v="residential"/>
    <tag k="name" v="Sołecka"/>
    <tag k="source" v="UMP-PL, ./UMP-Gdansk/src/GDANSK.ulice.txt"/>
  </way>
  <way id="27476783" version="5" timestamp="2009-12-19T15:57:45Z" uid="20587" user="balrog-kun" changeset="3407737">
    <nd ref="301672864"/>
    <nd ref="301676293"/>
    <nd ref="301676292"/>
    <nd ref="596395530"/>
    <nd ref="301676299"/>
    <nd ref="301676298"/>
    <nd ref="301676297"/>
    <nd ref="301676296"/>
    <nd ref="301676295"/>
    <nd ref="301676290"/>
    <tag k="highway" v="residential"/>
    <tag k="name" v="Jacka Malczewskiego"/>
    <tag k="name:de" v="Oberstraße"/>
    <tag k="source" v="UMP-PL, ./UMP-Gdansk/src/GDANSK.ulice.txt"/>
  </way>
  <way id="27476823" version="4" timestamp="2009-12-19T15:57:46Z" uid="20587" user="balrog-kun" changeset="3407737">
    <nd ref="301676289"/>
    <nd ref="596395524"/>
    <nd ref="301676317"/>
    <nd ref="301676288"/>
    <nd ref="301676295"/>
    <tag k="highway" v="residential"/>
    <tag k="name" v="Kościelna"/>
    <tag k="source" v="UMP-PL, ./UMP-Gdansk/src/GDANSK.ulice.txt"/>
  </way>
  <way id="27476831" version="2" timestamp="2009-12-19T15:57:45Z" uid="20587" user="balrog-kun" changeset="3407737">
    <nd ref="301679252"/>
    <nd ref="301679260"/>
    <tag k="highway" v="residential"/>
    <tag k="source" v="UMP-PL, ./UMP-Gdansk/src/GDANSK.ulice.txt"/>
  </way>
  <way id="27476853" version="5" timestamp="2011-03-12T23:48:21Z" uid="30632" user="antblant" changeset="7539687">
    <nd ref="301673896"/>
    <nd ref="301673895"/>
    <nd ref="301673890"/>
    <nd ref="301673894"/>
    <nd ref="301673893"/>
    <nd ref="1174916979"/>
    <nd ref="301673883"/>
    <nd ref="301673882"/>
    <tag k="highway" v="residential"/>
    <tag k="name" v="Lęborska"/>
    <tag k="source" v="UMP-PL, ./UMP-Gdansk/src/GDANSK.ulice.txt"/>
  </way>
  <way id="27476866" version="3" timestamp="2009-12-19T15:57:46Z" uid="20587" user="balrog-kun" changeset="3407737">
    <nd ref="301671901"/>
    <nd ref="301672858"/>
    <nd ref="301672859"/>
    <nd ref="596395542"/>
    <nd ref="301672860"/>
    <nd ref="596395548"/>
    <nd ref="301672861"/>
    <nd ref="301672862"/>
    <nd ref="301672863"/>
    <nd ref="301672847"/>
    <tag k="highway" v="residential"/>
    <tag k="name" v="Na Zboczu"/>
    <tag k="source" v="UMP-PL, ./UMP-Gdansk/src/GDANSK.ulice.txt"/>
  </way>
  <way id="27476867" version="5" timestamp="2011-03-12T23:47:47Z" uid="30632" user="antblant" changeset="7539687">
    <nd ref="301673881"/>
    <nd ref="1174917041"/>
    <nd ref="301673894"/>
    <nd ref="301673880"/>
    <nd ref="301673839"/>
    <tag k="highway" v="residential"/>
    <tag k="name" v="Szczecińska"/>
    <tag k="source" v="UMP-PL, ./UMP-Gdansk/src/GDANSK.ulice.txt"/>
  </way>
  <way id="27476878" version="4" timestamp="2011-03-12T23:39:59Z" uid="30632" user="antblant" changeset="7539626"/>
  <way id="27476906" version="2" timestamp="2009-08-27T19:34:54Z" uid="66036" user="h4v" changeset="2282347">
    <nd ref="301675349"/>
    <nd ref="301675392"/>
    <nd ref="301675393"/>
    <nd ref="301675317"/>
    <nd ref="301675394"/>
    <nd ref="301675312"/>
    <nd ref="301675395"/>
    <nd ref="301675346"/>
    <nd ref="301675396"/>
    <nd ref="301675397"/>
    <nd ref="301675398"/>
    <nd ref="301675399"/>
    <nd ref="301675307"/>
    <tag k="highway" v="footway"/>
    <tag k="name" v="Brzeźnieńska"/>
    <tag k="source" v="UMP-PL, ./UMP-Gdansk/src/GDANSK.ulice.txt"/>
  </way>
  <way id="27476912" version="2" timestamp="2009-08-31T07:49:26Z" uid="66036" user="h4v" changeset="2323230">
    <nd ref="301673465"/>
    <nd ref="301673469"/>
    <nd ref="301673470"/>
    <nd ref="301673459"/>
    <nd ref="301673460"/>
    <nd ref="301673457"/>
    <nd ref="301673458"/>
    <tag k="highway" v="service"/>
    <tag k="source" v="UMP-PL, ./UMP-Gdansk/src/GDANSK.ulice.txt"/>
  </way>
  <way id="27476912" version="3" timestamp="2009-09-12T18:37:43Z" uid="66036" user="h4v" changeset="2461220">
    <nd ref="301673465"/>
    <nd ref="494381089"/>
    <nd ref="301673469"/>
    <nd ref="301673470"/>
    <nd ref="301673459"/>
    <nd ref="301673460"/>
    <nd ref="301673457"/>
    <nd ref="301673458"/>
    <tag k="highway" v="service"/>
    <tag k="source" v="UMP-PL, ./UMP-Gdansk/src/GDANSK.ulice.txt"/>
  </way>
  <way id="27476926" version="2" timestamp="2009-08-27T19:34:54Z" uid="66036" user="h4v" changeset="2282347">
    <nd ref="301675349"/>
    <nd ref="301675400"/>
    <nd ref="301673997"/>
    <nd ref="301675401"/>
    <nd ref="301675402"/>
    <nd ref="301675403"/>
    <nd ref="301675404"/>
    <nd ref="301675405"/>
    <nd ref="301674109"/>
    <tag k="bicycle" v="yes"/>
    <tag k="highway" v="footway"/>
    <tag k="name" v="Jantarowa"/>
    <tag k="source" v="UMP-PL, ./UMP-Gdansk/src/GDANSK.ulice.txt"/>
  </way>
  <way id="27476938" version="2" timestamp="2008-10-10T11:21:12Z" uid="30632" user="antblant" changeset="226581">
    <nd ref="301679796"/>
    <nd ref="301679771"/>
    <nd ref="301679606"/>
    <nd ref="301672186"/>
    <tag k="UMP_Level" v="1"/>
    <tag k="created_by" v="JOSM"/>
    <tag k="highway" v="primary"/>
    <tag k="name" v="Okopowa"/>
    <tag k="ref" v="1"/>
    <tag k="source" v="UMP-PL, ./UMP-Gdansk/src/GDANSK.ulice.txt"/>
  </way>
  <way id="27476956" version="3" timestamp="2009-09-02T21:45:59Z" uid="66036" user="h4v" changeset="2354271">
    <nd ref="301672430"/>
    <nd ref="481443517"/>
    <nd ref="301672443"/>
    <nd ref="301672444"/>
    <nd ref="301672445"/>
    <nd ref="301672446"/>
    <nd ref="301672471"/>
    <tag k="highway" v="residential"/>
    <tag k="name" v="Przetoczna"/>
    <tag k="source" v="UMP-PL, ./UMP-Gdansk/src/GDANSK.ulice.txt"/>
  </way>
  <way id="27476959" version="3" timestamp="2009-05-07T08:26:30Z" uid="30632" user="antblant" changeset="1104669">
    <nd ref="301675109"/>
    <nd ref="301671552"/>
    <nd ref="301679220"/>
    <nd ref="301675144"/>
    <nd ref="301675142"/>
    <nd ref="301675199"/>
    <tag k="created_by" v="JOSM"/>
    <tag k="highway" v="primary"/>
    <tag k="name" v="Wolności"/>
    <tag k="source" v="UMP-PL, ./UMP-Gdansk/src/GDANSK.ulice.txt"/>
  </way>
  <way id="27476959" version="4" timestamp="2009-05-07T08:29:05Z" uid="30632" user="antblant" changeset="1104669">
    <nd ref="301675109"/>
    <nd ref="301671552"/>
    <nd ref="301679220"/>
    <nd ref="301675144"/>
    <nd ref="301675142"/>
    <nd ref="301675199"/>
    <tag k="created_by" v="JOSM"/>
    <tag k="highway" v="primary"/>
    <tag k="name" v="Wolności"/>
    <tag k="ref" v="1"/>
    <tag k="source" v="UMP-PL, ./UMP-Gdansk/src/GDANSK.ulice.txt"/>
  </way>
  <way id="27476971" version="6" timestamp="2009-05-07T08:51:41Z" uid="30632" user="antblant" changeset="1104842">
    <nd ref="301679868"/>
    <nd ref="301671810"/>
    <nd ref="301679867"/>
    <nd ref="301679866"/>
    <nd ref="301679865"/>
    <nd ref="301679864"/>
    <nd ref="301679863"/>
    <nd ref="301679862"/>
    <nd ref="301679861"/>
    <nd ref="301679860"/>
    <nd ref="301679802"/>
    <tag k="created_by" v="JOSM"/>
    <tag k="highway" v="primary"/>
    <tag k="int_ref" v="E 75;E 77"/>
    <tag k="name" v="Wały Piastowskie"/>
    <tag k="oneway" v="yes"/>
    <tag k="ref" v="1"/>
    <tag k="source" v="UMP-PL, ./UMP-Gdansk/src/GDANSK.ulice.txt"/>
  </way>
  <way id="27476971" version="8" timestamp="2009-09-02T21:46:01Z" uid="66036" user="h4v" changeset="2354271">
    <nd ref="301679868"/>
    <nd ref="301671810"/>
    <nd ref="301679867"/>
    <nd ref="471901656"/>
    <nd ref="301679866"/>
    <nd ref="301679865"/>
    <nd ref="301679864"/>
    <nd ref="481443536"/>
    <nd ref="301679863"/>
    <nd ref="301679862"/>
    <nd ref="301679861"/>
    <nd ref="301679860"/>
    <nd ref="301679802"/>
    <tag k="highway" v="primary"/>
    <tag k="int_ref" v="E 75;E 77"/>
    <tag k="name" v="Wały Piastowskie"/>
    <tag k="oneway" v="yes"/>
    <tag k="ref" v="1"/>
    <tag k="source" v="UMP-PL, ./UMP-Gdansk/src/GDANSK.ulice.txt"/>
  </way>
  <way id="27476973" version="3" timestamp="2009-08-27T19:34:54Z" uid="66036" user="h4v" changeset="2282347">
    <nd ref="301669783"/>
    <nd ref="301674110"/>
    <nd ref="301674101"/>
    <nd ref="301674102"/>
    <tag k="highway" v="residential"/>
    <tag k="name" v="Morska"/>
    <tag k="source" v="UMP-PL, ./UMP-Gdansk/src/GDANSK.ulice.txt"/>
  </way>
  <way id="27476978" version="2" timestamp="2008-11-21T00:11:03Z" uid="30632" user="antblant" changeset="775255">
    <nd ref="301679132"/>
    <nd ref="301679140"/>
    <tag k="bridge" v="yes"/>
    <tag k="created_by" v="Potlatch 0.10f"/>
    <tag k="highway" v="footway"/>
    <tag k="layer" v="1"/>
    <tag k="source" v="UMP-PL, ./UMP-Gdansk/src/GDANSK.ulice.txt"/>
  </way>
  <way id="27476986" version="3" timestamp="2009-08-27T19:34:52Z" uid="66036" user="h4v" changeset="2282347">
    <nd ref="301670588"/>
    <nd ref="301677088"/>
    <nd ref="301679195"/>
    <nd ref="301679181"/>
    <nd ref="126160760"/>
    <nd ref="301679184"/>
    <nd ref="301670617"/>
    <nd ref="301670613"/>
    <nd ref="301670595"/>
    <tag k="highway" v="residential"/>
    <tag k="name" v="Dębinki"/>
    <tag k="source" v="UMP-PL, ./UMP-Gdansk/src/GDANSK.ulice.txt"/>
  </way>
  <way id="27476989" version="5" timestamp="2009-09-02T21:45:59Z" uid="66036" user="h4v" changeset="2354271">
    <nd ref="301678324"/>
    <nd ref="301678307"/>
    <nd ref="301678308"/>
    <nd ref="481443607"/>
    <nd ref="26378794"/>
    <tag k="highway" v="secondary"/>
    <tag k="name" v="Bażyńskiego"/>
    <tag k="oneway" v="yes"/>
    <tag k="source" v="UMP-PL, ./UMP-Gdansk/src/GDANSK.ulice.txt"/>
  </way>
  <way id="27476990" version="3" timestamp="2011-03-12T23:39:58Z" uid="30632" user="antblant" changeset="7539626">
    <nd ref="1199470139"/>
    <nd ref="301686068"/>
    <nd ref="301686071"/>
    <nd ref="301676616"/>
    <tag k="highway" v="residential"/>
    <tag k="name" v="Stolema"/>
    <tag k="source" v="UMP-PL, ./UMP-Gdansk/src/GDANSK.ulice.txt"/>
  </way>
</osm>
