<?xml version='1.0' encoding='UTF-8'?>
<osm version="0.6" generator="libosmium/2.20.0">
  <way id="27541589" version="2" timestamp="2011-05-06T21:17:50Z" uid="9581" user="Lobelt" changeset="8069156">
    <nd ref="301804341"/>
    <nd ref="302336361"/>
    <nd ref="28985811"/>
    <tag k="bicycle" v="yes"/>
    <tag k="foot" v="yes"/>
    <tag k="highway" v="path"/>
    <tag k="motorcar" v="no"/>
  </way>
  <way id="27541590" version="2" timestamp="2011-05-06T21:17:49Z" uid="9581" user="Lobelt" changeset="8069156">
    <nd ref="302336361"/>
    <nd ref="302336378"/>
    <nd ref="302336379"/>
    <nd ref="302336380"/>
    <nd ref="302336416"/>
    <nd ref="302336417"/>
    <nd ref="302336418"/>
    <tag k="bicycle" v="yes"/>
    <tag k="foot" v="yes"/>
    <tag k="highway" v="path"/>
    <tag k="motorcar" v="no"/>
  </way>
  <way id="27541591" version="6" timestamp="2011-05-06T21:17:53Z" uid="9581" user="Lobelt" changeset="8069156">
    <nd ref="28985786"/>
    <nd ref="28985401"/>
    <nd ref="28985803"/>
    <nd ref="28985800"/>
    <nd ref="28985566"/>
    <nd ref="28985299"/>
    <nd ref="28985307"/>
    <nd ref="28985575"/>
    <nd ref="28985534"/>
    <nd ref="670774306"/>
    <nd ref="28985570"/>
    <nd ref="28985727"/>
    <nd ref="28985384"/>
    <tag k="highway" v="residential"/>
    <tag k="maxspeed" v="30"/>
    <tag k="name" v="In den Fensenbäumen"/>
  </way>
  <way id="27541659" version="4" timestamp="2011-05-06T21:17:50Z" uid="9581" user="Lobelt" changeset="8069156">
    <nd ref="302337006"/>
    <nd ref="302337008"/>
    <nd ref="302337034"/>
    <nd ref="302337035"/>
    <nd ref="28985433"/>
    <tag k="highway" v="living_street"/>
    <tag k="name" v="Fröchweg"/>
  </way>
  <way id="27541660" version="5" timestamp="2011-05-06T21:17:53Z" uid="9581" user="Lobelt" changeset="8069156">
    <nd ref="302337037"/>
    <nd ref="302337038"/>
    <nd ref="303142797"/>
    <nd ref="302337039"/>
    <tag k="highway" v="living_street"/>
    <tag k="name" v="Bollengrubweg"/>
  </way>
  <way id="27541661" version="4" timestamp="2011-05-06T21:17:53Z" uid="9581" user="Lobelt" changeset="8069156">
    <nd ref="302337038"/>
    <nd ref="302337059"/>
    <nd ref="302337060"/>
    <tag k="highway" v="living_street"/>
    <tag k="name" v="Bollengrubweg"/>
  </way>
  <way id="27541862" version="6" timestamp="2011-01-17T19:40:34Z" uid="9581" user="Lobelt" changeset="7003307">
    <nd ref="271455419"/>
    <nd ref="271455442"/>
    <nd ref="271455446"/>
    <nd ref="271455454"/>
    <nd ref="271455458"/>
    <nd ref="271455472"/>
    <nd ref="271455478"/>
    <nd ref="271455483"/>
    <nd ref="271455484"/>
    <nd ref="271455486"/>
    <nd ref="271455492"/>
    <nd ref="389384430"/>
    <nd ref="271455493"/>
    <nd ref="271455513"/>
    <nd ref="271455526"/>
    <nd ref="271455536"/>
    <nd ref="271455562"/>
    <nd ref="271455583"/>
    <nd ref="389384498"/>
    <tag k="highway" v="secondary"/>
    <tag k="name" v="Bammentaler Straße"/>
    <tag k="ref" v="L 600"/>
  </way>
  <way id="27541877" version="16" timestamp="2010-08-04T17:46:14Z" uid="9581" user="Lobelt" changeset="5401263">
    <nd ref="302332593"/>
    <nd ref="257895649"/>
    <nd ref="257895650"/>
    <nd ref="302335622"/>
    <nd ref="302337430"/>
    <nd ref="302335625"/>
    <nd ref="302335626"/>
    <nd ref="302335628"/>
    <nd ref="302337431"/>
    <nd ref="302335630"/>
    <nd ref="302337433"/>
    <nd ref="302335633"/>
    <nd ref="302335634"/>
    <nd ref="302339003"/>
    <nd ref="302335636"/>
    <nd ref="302335638"/>
    <nd ref="302339002"/>
    <nd ref="344604260"/>
    <nd ref="302339001"/>
    <nd ref="267217836"/>
    <nd ref="302341353"/>
    <nd ref="302341355"/>
    <nd ref="302341357"/>
    <nd ref="302341361"/>
    <nd ref="267217835"/>
    <nd ref="344604265"/>
    <nd ref="344604264"/>
    <nd ref="344604263"/>
    <nd ref="344604261"/>
    <nd ref="344604262"/>
    <nd ref="344604266"/>
    <nd ref="344604268"/>
    <nd ref="344604267"/>
    <nd ref="344604269"/>
    <nd ref="344604270"/>
    <nd ref="344604271"/>
    <nd ref="344604273"/>
    <tag k="cables" v="6"/>
    <tag k="frequency" v="50"/>
    <tag k="name" v="023"/>
    <tag k="note" v="nord:rot;süd:gelb"/>
    <tag k="operator" v="EON_Netz"/>
    <tag k="power" v="line"/>
    <tag k="ref" v="023"/>
    <tag k="voltage" v="110000"/>
    <tag k="wires" v="single"/>
  </way>
  <way id="27541890" version="3" timestamp="2008-11-26T18:08:16Z" uid="6975" user="ulfl" changeset="797054">
    <nd ref="301211823"/>
    <nd ref="301211827"/>
    <tag k="bicycle" v="yes"/>
    <tag k="highway" v="living_street"/>
    <tag k="name" v="Kerkheideweg"/>
    <tag k="surface" v="cobblestone"/>
    <tag k="width" v="3"/>
  </way>
</osm>
