<?xml version='1.0' encoding='UTF-8'?>
<osm version="0.6" generator="libosmium/2.20.0">
  <way id="2761529" version="5" timestamp="2009-12-24T10:28:01Z" uid="30201" user="rrankin" changeset="3440994">
    <nd ref="12501612"/>
    <nd ref="12501611"/>
    <nd ref="12501975"/>
    <nd ref="12501619"/>
    <tag k="highway" v="unclassified"/>
    <tag k="name" v="Mary Ann Street"/>
  </way>
  <way id="2761529" version="7" timestamp="2010-07-07T22:11:27Z" uid="74617" user="JohnSmith" changeset="5161069">
    <nd ref="12501612"/>
    <nd ref="12501611"/>
    <tag k="highway" v="residential"/>
    <tag k="maxspeed" v="50"/>
    <tag k="maxspeed:source" v="default residential speed limit in Australia"/>
    <tag k="name" v="Mary Ann Street"/>
  </way>
  <way id="2761530" version="2" timestamp="2007-10-16T09:15:39Z" uid="7617" user="Franc" changeset="200414">
    <nd ref="11978612"/>
    <nd ref="12502020"/>
    <nd ref="12502026"/>
    <nd ref="11982077"/>
    <nd ref="12501637"/>
    <nd ref="12501639"/>
    <tag k="abutters" v="residential"/>
    <tag k="created_by" v="Mike Collinson"/>
    <tag k="highway" v="residential"/>
    <tag k="name" v="MacArthur Street"/>
  </way>
  <way id="2761530" version="4" timestamp="2008-05-25T00:55:45Z" uid="30201" user="rrankin" changeset="514168">
    <nd ref="11978612"/>
    <nd ref="12502020"/>
    <nd ref="12502026"/>
    <nd ref="11982077"/>
    <nd ref="265911117"/>
    <tag k="abutters" v="residential"/>
    <tag k="created_by" v="Mike Collinson"/>
    <tag k="highway" v="residential"/>
    <tag k="name" v="MacArthur Street"/>
  </way>
  <way id="2761530" version="6" timestamp="2009-12-24T10:28:00Z" uid="30201" user="rrankin" changeset="3440994">
    <nd ref="11978612"/>
    <nd ref="12502020"/>
    <nd ref="12502026"/>
    <nd ref="11982077"/>
    <nd ref="265911117"/>
    <tag k="highway" v="residential"/>
    <tag k="name" v="MacArthur Street"/>
  </way>
  <way id="2761530" version="7" timestamp="2010-07-07T22:09:47Z" uid="74617" user="JohnSmith" changeset="5161069">
    <nd ref="11978612"/>
    <nd ref="12502020"/>
    <nd ref="12502026"/>
    <nd ref="11982077"/>
    <nd ref="265911117"/>
    <tag k="highway" v="residential"/>
    <tag k="maxspeed" v="50"/>
    <tag k="maxspeed:source" v="default residential speed limit in Australia"/>
    <tag k="name" v="MacArthur Street"/>
  </way>
  <way id="2761534" version="2" timestamp="2007-10-16T09:15:40Z" uid="7617" user="Franc" changeset="200414">
    <nd ref="12501636"/>
    <nd ref="12501631"/>
    <nd ref="12501955"/>
    <nd ref="12501640"/>
    <tag k="abutters" v="mixed"/>
    <tag k="created_by" v="Mike Collinson"/>
    <tag k="highway" v="unclassified"/>
    <tag k="name" v="MacArthur Street"/>
  </way>
  <way id="2761534" version="3" timestamp="2008-05-25T00:55:45Z" uid="30201" user="rrankin" changeset="514168">
    <nd ref="12501639"/>
    <nd ref="12501631"/>
    <nd ref="12501955"/>
    <nd ref="12501640"/>
    <tag k="abutters" v="mixed"/>
    <tag k="created_by" v="Mike Collinson"/>
    <tag k="highway" v="unclassified"/>
    <tag k="name" v="MacArthur Street"/>
  </way>
  <way id="2761534" version="6" timestamp="2009-12-24T10:27:59Z" uid="30201" user="rrankin" changeset="3440994">
    <nd ref="12501639"/>
    <nd ref="12501631"/>
    <nd ref="12501955"/>
    <nd ref="12501640"/>
    <tag k="highway" v="residential"/>
    <tag k="name" v="MacArthur Street"/>
  </way>
  <way id="2761538" version="1" timestamp="2007-09-09T03:10:07Z" uid="7617" user="Franc" changeset="396695">
    <nd ref="15395901"/>
    <nd ref="15395900"/>
    <nd ref="15395899"/>
    <nd ref="12501954"/>
    <nd ref="12501948"/>
    <nd ref="12501950"/>
    <nd ref="15451407"/>
    <nd ref="15451396"/>
    <nd ref="15451635"/>
    <nd ref="26627264"/>
    <nd ref="26627265"/>
    <nd ref="15451636"/>
    <tag k="created_by" v="Mike Collinson"/>
    <tag k="layer" v="0"/>
    <tag k="name" v="Metro Light Rail"/>
    <tag k="railway" v="light_rail"/>
  </way>
  <way id="2761538" version="3" timestamp="2009-12-24T13:02:05Z" uid="30201" user="rrankin" changeset="3442009">
    <nd ref="15395901"/>
    <nd ref="15395900"/>
    <nd ref="15395899"/>
    <nd ref="12501954"/>
    <nd ref="12501948"/>
    <nd ref="12501950"/>
    <nd ref="15451407"/>
    <nd ref="15451396"/>
    <nd ref="15451635"/>
    <nd ref="26627264"/>
    <tag k="name" v="Metro Light Rail"/>
    <tag k="railway" v="light_rail"/>
  </way>
  <way id="2761538" version="5" timestamp="2010-03-21T23:20:47Z" uid="9719" user="dvaey" changeset="4198009">
    <nd ref="15395901"/>
    <nd ref="15395900"/>
    <nd ref="671799992"/>
    <nd ref="651339875"/>
    <nd ref="15395899"/>
    <nd ref="12501954"/>
    <nd ref="671799995"/>
    <nd ref="12501948"/>
    <nd ref="671799997"/>
    <nd ref="671799999"/>
    <nd ref="671800000"/>
    <nd ref="671800001"/>
    <nd ref="12501950"/>
    <nd ref="15451407"/>
    <nd ref="15451396"/>
    <nd ref="15451635"/>
    <nd ref="26627264"/>
    <tag k="name" v="Metro Light Rail"/>
    <tag k="railway" v="light_rail"/>
  </way>
  <way id="2761540" version="3" timestamp="2009-12-24T10:28:01Z" uid="30201" user="rrankin" changeset="3440994">
    <nd ref="12501955"/>
    <nd ref="12501956"/>
    <nd ref="12501975"/>
    <tag k="highway" v="unclassified"/>
    <tag k="name" v="Systrum Street"/>
  </way>
  <way id="2761540" version="4" timestamp="2010-08-20T02:59:08Z" uid="4467" user="Rosscoe" changeset="5540505">
    <nd ref="12501955"/>
    <nd ref="12501975"/>
    <tag k="highway" v="unclassified"/>
    <tag k="name" v="Systrum Street"/>
  </way>
  <way id="2761541" version="1" timestamp="2007-09-26T06:24:23Z" uid="7617" user="Franc" changeset="521522">
    <nd ref="18248205"/>
    <nd ref="18248207"/>
    <nd ref="18248208"/>
    <nd ref="18248209"/>
    <tag k="abutters" v="mixed"/>
    <tag k="created_by" v="Mike Collinson"/>
    <tag k="foot" v="yes"/>
    <tag k="highway" v="footway"/>
    <tag k="name" v="footbridge"/>
  </way>
  <way id="2761541" version="3" timestamp="2009-12-24T10:28:01Z" uid="30201" user="rrankin" changeset="3440994">
    <nd ref="18248205"/>
    <nd ref="18248207"/>
    <nd ref="18248208"/>
    <nd ref="18248209"/>
    <tag k="foot" v="yes"/>
    <tag k="highway" v="footway"/>
    <tag k="name" v="footbridge"/>
  </way>
  <way id="2761542" version="3" timestamp="2009-12-24T10:27:52Z" uid="30201" user="rrankin" changeset="3440994">
    <nd ref="12501973"/>
    <nd ref="12501597"/>
    <nd ref="12501974"/>
    <tag k="highway" v="unclassified"/>
    <tag k="name" v="Thomas Street"/>
  </way>
  <way id="2761543" version="2" timestamp="2008-05-25T00:55:44Z" uid="30201" user="rrankin" changeset="514168">
    <nd ref="12501621"/>
    <nd ref="266719769"/>
    <nd ref="12501604"/>
    <tag k="created_by" v="JOSM"/>
    <tag k="highway" v="footway"/>
  </way>
  <way id="2761543" version="4" timestamp="2011-05-04T10:25:37Z" uid="7617" user="Franc" changeset="8047572">
    <nd ref="12501621"/>
    <nd ref="266719769"/>
    <nd ref="1271876124"/>
    <tag k="highway" v="footway"/>
  </way>
  <way id="2761545" version="3" timestamp="2010-07-07T22:09:55Z" uid="74617" user="JohnSmith" changeset="5161069">
    <nd ref="12501936"/>
    <nd ref="12501937"/>
    <tag k="highway" v="residential"/>
    <tag k="maxspeed" v="50"/>
    <tag k="maxspeed:source" v="default residential speed limit in Australia"/>
    <tag k="name" v="Jones Lane"/>
  </way>
  <way id="2761546" version="2" timestamp="2008-09-12T22:58:54Z" uid="7617" user="Franc" changeset="618683">
    <nd ref="12501606"/>
    <nd ref="12501938"/>
    <tag k="created_by" v="Mike Collinson"/>
    <tag k="highway" v="unclassified"/>
    <tag k="name" v="Upper Fig Street"/>
    <tag k="oneway" v="yes"/>
  </way>
  <way id="2761546" version="6" timestamp="2010-07-07T22:10:34Z" uid="74617" user="JohnSmith" changeset="5161069">
    <nd ref="12501606"/>
    <nd ref="384720196"/>
    <nd ref="12501938"/>
    <tag k="highway" v="residential"/>
    <tag k="maxspeed" v="50"/>
    <tag k="maxspeed:source" v="default residential speed limit in Australia"/>
    <tag k="name" v="Upper Fig Street"/>
    <tag k="oneway" v="yes"/>
  </way>
  <way id="2761547" version="2" timestamp="2007-12-04T10:29:41Z" uid="7617" user="Franc" changeset="73191">
    <nd ref="12501932"/>
    <nd ref="12501936"/>
    <nd ref="12501653"/>
    <tag k="created_by" v="Mike Collinson"/>
    <tag k="highway" v="unclassified"/>
  </way>
  <way id="2761547" version="5" timestamp="2010-07-07T22:09:30Z" uid="74617" user="JohnSmith" changeset="5161069">
    <nd ref="12501932"/>
    <nd ref="12501936"/>
    <nd ref="12501653"/>
    <tag k="highway" v="residential"/>
    <tag k="maxspeed" v="50"/>
    <tag k="maxspeed:source" v="default residential speed limit in Australia"/>
    <tag k="name" v="Upper Fig Street"/>
  </way>
  <way id="2761548" version="2" timestamp="2007-12-04T10:28:52Z" uid="7617" user="Franc" changeset="73191">
    <nd ref="12501976"/>
    <nd ref="150498234"/>
    <tag k="created_by" v="Mike Collinson"/>
    <tag k="highway" v="primary"/>
    <tag k="name" v="Fig Street"/>
    <tag k="oneway" v="yes"/>
  </way>
  <way id="2761551" version="2" timestamp="2008-05-15T20:09:13Z" uid="7617" user="Franc" changeset="452774">
    <nd ref="12501655"/>
    <nd ref="12501657"/>
    <tag k="created_by" v="JOSM"/>
    <tag k="highway" v="unclassified"/>
  </way>
  <way id="2761551" version="3" timestamp="2008-09-12T22:58:53Z" uid="7617" user="Franc" changeset="618683">
    <nd ref="12501655"/>
    <nd ref="296251747"/>
    <tag k="created_by" v="JOSM"/>
    <tag k="highway" v="unclassified"/>
    <tag k="oneway" v="yes"/>
  </way>
  <way id="2761554" version="2" timestamp="2007-10-16T09:03:24Z" uid="7617" user="Franc" changeset="200414">
    <nd ref="12501654"/>
    <nd ref="12501655"/>
    <nd ref="12501653"/>
    <nd ref="12501938"/>
    <nd ref="12501939"/>
    <nd ref="12501941"/>
    <nd ref="12501942"/>
    <nd ref="11982073"/>
    <nd ref="12502000"/>
    <nd ref="12501998"/>
    <nd ref="12501637"/>
    <tag k="created_by" v="Mike Collinson"/>
    <tag k="highway" v="residential"/>
    <tag k="name" v="Bulwara Road"/>
  </way>
  <way id="2761554" version="3" timestamp="2008-09-12T22:58:52Z" uid="7617" user="Franc" changeset="618683">
    <nd ref="12501654"/>
    <nd ref="12501655"/>
    <nd ref="12501653"/>
    <tag k="created_by" v="Mike Collinson"/>
    <tag k="highway" v="residential"/>
    <tag k="name" v="Bulwara Road"/>
  </way>
  <way id="2761554" version="5" timestamp="2010-07-07T22:10:10Z" uid="74617" user="JohnSmith" changeset="5161069">
    <nd ref="12501654"/>
    <nd ref="12501655"/>
    <nd ref="12501653"/>
    <tag k="highway" v="residential"/>
    <tag k="maxspeed" v="50"/>
    <tag k="maxspeed:source" v="default residential speed limit in Australia"/>
    <tag k="name" v="Bulwara Road"/>
  </way>
  <way id="2761556" version="3" timestamp="2010-07-07T22:11:11Z" uid="74617" user="JohnSmith" changeset="5161069">
    <nd ref="12501647"/>
    <nd ref="12501649"/>
    <tag k="highway" v="residential"/>
    <tag k="maxspeed" v="50"/>
    <tag k="maxspeed:source" v="default residential speed limit in Australia"/>
    <tag k="name" v="Henry Avenue"/>
  </way>
  <way id="2761557" version="2" timestamp="2008-09-13T13:46:35Z" uid="7617" user="Franc" changeset="623097">
    <nd ref="20958863"/>
    <nd ref="20958862"/>
    <nd ref="12501605"/>
    <tag k="created_by" v="Mike Collinson"/>
    <tag k="highway" v="residential"/>
    <tag k="name" v="Quarry Street"/>
  </way>
  <way id="2761557" version="6" timestamp="2009-12-24T10:28:00Z" uid="30201" user="rrankin" changeset="3440994">
    <nd ref="384727816"/>
    <nd ref="20958862"/>
    <nd ref="12501605"/>
    <tag k="highway" v="residential"/>
    <tag k="name" v="Quarry Street"/>
  </way>
  <way id="2761557" version="7" timestamp="2010-07-07T22:10:16Z" uid="74617" user="JohnSmith" changeset="5161069">
    <nd ref="384727816"/>
    <nd ref="20958862"/>
    <nd ref="12501605"/>
    <tag k="highway" v="residential"/>
    <tag k="maxspeed" v="50"/>
    <tag k="maxspeed:source" v="default residential speed limit in Australia"/>
    <tag k="name" v="Quarry Street"/>
  </way>
  <way id="2761558" version="2" timestamp="2008-02-11T23:49:35Z" uid="7617" user="Franc" changeset="104195">
    <nd ref="12501988"/>
    <nd ref="12501983"/>
    <tag k="created_by" v="Mike Collinson"/>
    <tag k="highway" v="alley"/>
    <tag k="name" v="Burlison"/>
  </way>
  <way id="2761560" version="3" timestamp="2009-12-24T10:28:00Z" uid="30201" user="rrankin" changeset="3440994">
    <nd ref="12501642"/>
    <nd ref="12501991"/>
    <tag k="highway" v="residential"/>
    <tag k="name" v="Quarry Street"/>
  </way>
  <way id="2761560" version="4" timestamp="2010-07-07T22:11:21Z" uid="74617" user="JohnSmith" changeset="5161069">
    <nd ref="12501642"/>
    <nd ref="12501991"/>
    <tag k="highway" v="residential"/>
    <tag k="maxspeed" v="50"/>
    <tag k="maxspeed:source" v="default residential speed limit in Australia"/>
    <tag k="name" v="Quarry Street"/>
  </way>
  <way id="2761560" version="6" timestamp="2011-05-04T10:25:41Z" uid="7617" user="Franc" changeset="8047572">
    <nd ref="12501642"/>
    <nd ref="1242821120"/>
    <nd ref="12501991"/>
    <tag k="highway" v="residential"/>
    <tag k="maxspeed" v="50"/>
    <tag k="maxspeed:source" v="default residential speed limit in Australia"/>
    <tag k="name" v="Quarry Street"/>
    <tag k="restriction" v="school_zone"/>
  </way>
  <way id="2761564" version="3" timestamp="2009-12-24T10:28:00Z" uid="30201" user="rrankin" changeset="3440994">
    <nd ref="12501993"/>
    <nd ref="12502001"/>
    <nd ref="12501998"/>
    <tag k="highway" v="residential"/>
    <tag k="name" v="Henson Lane"/>
  </way>
  <way id="2761564" version="4" timestamp="2010-07-07T22:09:48Z" uid="74617" user="JohnSmith" changeset="5161069">
    <nd ref="12501993"/>
    <nd ref="12502001"/>
    <nd ref="12501998"/>
    <tag k="highway" v="residential"/>
    <tag k="maxspeed" v="50"/>
    <tag k="maxspeed:source" v="default residential speed limit in Australia"/>
    <tag k="name" v="Henson Lane"/>
  </way>
  <way id="2761564" version="5" timestamp="2011-05-04T10:25:39Z" uid="7617" user="Franc" changeset="8047572">
    <nd ref="12501993"/>
    <nd ref="12502001"/>
    <nd ref="12501998"/>
    <tag k="highway" v="service"/>
    <tag k="name" v="Henson Lane"/>
  </way>
  <way id="2761566" version="2" timestamp="2007-10-16T09:02:13Z" uid="7617" user="Franc" changeset="200414">
    <nd ref="12502001"/>
    <nd ref="12502011"/>
    <nd ref="12502000"/>
    <tag k="abutters" v="residential"/>
    <tag k="created_by" v="Mike Collinson"/>
    <tag k="highway" v="service"/>
    <tag k="name" v="Parbury Lane"/>
  </way>
  <way id="2761566" version="4" timestamp="2009-12-24T10:27:59Z" uid="30201" user="rrankin" changeset="3440994">
    <nd ref="12502001"/>
    <nd ref="12502011"/>
    <nd ref="12502000"/>
    <tag k="highway" v="service"/>
    <tag k="name" v="Parbury Lane"/>
  </way>
  <way id="2761569" version="3" timestamp="2010-07-07T22:10:19Z" uid="74617" user="JohnSmith" changeset="5161069">
    <nd ref="12502026"/>
    <nd ref="12501635"/>
    <tag k="highway" v="residential"/>
    <tag k="maxspeed" v="50"/>
    <tag k="maxspeed:source" v="default residential speed limit in Australia"/>
    <tag k="name" v="McKee Street"/>
  </way>
  <way id="2761569" version="4" timestamp="2011-05-04T10:25:44Z" uid="7617" user="Franc" changeset="8047572">
    <nd ref="12501635"/>
    <nd ref="1271876210"/>
    <nd ref="1271876146"/>
    <nd ref="12502026"/>
    <tag k="highway" v="service"/>
    <tag k="name" v="McKee Street"/>
    <tag k="oneway" v="yes"/>
  </way>
  <way id="2761571" version="3" timestamp="2010-07-07T22:09:56Z" uid="74617" user="JohnSmith" changeset="5161069">
    <nd ref="12502020"/>
    <nd ref="12501634"/>
    <tag k="highway" v="residential"/>
    <tag k="maxspeed" v="50"/>
    <tag k="maxspeed:source" v="default residential speed limit in Australia"/>
    <tag k="name" v="Wattle Lane"/>
  </way>
  <way id="2761571" version="4" timestamp="2011-05-04T10:25:47Z" uid="7617" user="Franc" changeset="8047572">
    <nd ref="12502020"/>
    <nd ref="12501634"/>
    <tag k="highway" v="service"/>
    <tag k="name" v="Wattle Lane"/>
    <tag k="oneway" v="yes"/>
  </way>
  <way id="2761572" version="3" timestamp="2009-12-24T10:27:53Z" uid="30201" user="rrankin" changeset="3440994">
    <nd ref="12502030"/>
    <nd ref="12502027"/>
    <tag k="highway" v="unclassified"/>
    <tag k="name" v="St Barnabas Street"/>
    <tag k="note" v="alley"/>
  </way>
  <way id="2761798" version="3" timestamp="2009-12-24T10:28:01Z" uid="30201" user="rrankin" changeset="3440994">
    <nd ref="12501611"/>
    <nd ref="12501610"/>
    <tag k="highway" v="unclassified"/>
    <tag k="name" v="Omnibus Lane"/>
  </way>
</osm>
