<?xml version='1.0' encoding='UTF-8'?>
<osm version="0.6" generator="libosmium/2.20.0">
  <way id="27617050" version="4" timestamp="2010-07-09T06:37:07Z" uid="74617" user="JohnSmith" changeset="5171134">
    <nd ref="303256053"/>
    <nd ref="303256946"/>
    <nd ref="303274796"/>
    <nd ref="303274793"/>
    <tag k="highway" v="residential"/>
    <tag k="maxspeed" v="50"/>
    <tag k="maxspeed:source" v="default residential speed limit in Australia"/>
    <tag k="name" v="Alfred Street"/>
  </way>
  <way id="27617071" version="6" timestamp="2008-10-24T20:49:36Z" uid="6975" user="ulfl" changeset="551307">
    <nd ref="303257052"/>
    <nd ref="303257053"/>
    <nd ref="303257054"/>
    <tag k="addr:interpolation" v="even"/>
  </way>
  <way id="27617078" version="3" timestamp="2011-02-17T12:41:13Z" uid="4467" user="Rosscoe" changeset="7312764">
    <nd ref="303257060"/>
    <nd ref="81130444"/>
    <nd ref="96180125"/>
    <nd ref="273102258"/>
    <nd ref="273102249"/>
    <tag k="bicycle" v="yes"/>
    <tag k="cycleway" v="track"/>
    <tag k="foot" v="yes"/>
    <tag k="highway" v="cycleway"/>
    <tag k="name" v="Upfield Rail Trail"/>
  </way>
  <way id="27617105" version="3" timestamp="2011-03-21T19:02:07Z" uid="9581" user="Lobelt" changeset="7630578">
    <nd ref="303257190"/>
    <nd ref="36478784"/>
    <nd ref="36478786"/>
    <nd ref="1212287200"/>
    <tag k="access" v="agricultural"/>
    <tag k="bicycle" v="yes"/>
    <tag k="highway" v="track"/>
    <tag k="motorcar" v="no"/>
    <tag k="motorcycle" v="no"/>
    <tag k="source" v="survey"/>
    <tag k="tracktype" v="grade1"/>
  </way>
  <way id="27617154" version="2" timestamp="2009-08-03T13:34:28Z" uid="4467" user="Rosscoe" changeset="2025552">
    <nd ref="303258184"/>
    <nd ref="303258185"/>
    <nd ref="303258186"/>
    <nd ref="303258187"/>
    <nd ref="303258177"/>
    <tag k="highway" v="unclassified"/>
    <tag k="oneway" v="yes"/>
  </way>
  <way id="27617154" version="6" timestamp="2011-02-17T11:14:53Z" uid="4467" user="Rosscoe" changeset="7312083">
    <nd ref="1157395261"/>
    <nd ref="822476113"/>
    <nd ref="822476115"/>
    <nd ref="303258177"/>
    <tag k="highway" v="residential"/>
    <tag k="maxspeed" v="50"/>
    <tag k="name" v="Boundary Road"/>
    <tag k="oneway" v="yes"/>
    <tag k="source" v="nearmap"/>
  </way>
  <way id="27617155" version="2" timestamp="2009-08-03T13:34:28Z" uid="4467" user="Rosscoe" changeset="2025552">
    <nd ref="303258177"/>
    <nd ref="303258180"/>
    <tag k="highway" v="unclassified"/>
    <tag k="oneway" v="yes"/>
  </way>
  <way id="27617155" version="5" timestamp="2011-02-17T11:14:56Z" uid="4467" user="Rosscoe" changeset="7312083">
    <nd ref="303258177"/>
    <nd ref="822476130"/>
    <nd ref="822476132"/>
    <nd ref="822476134"/>
    <tag k="highway" v="residential"/>
    <tag k="maxspeed" v="50"/>
    <tag k="name" v="Boundary Road"/>
    <tag k="oneway" v="yes"/>
    <tag k="source" v="nearmap"/>
  </way>
  <way id="27617156" version="3" timestamp="2010-07-09T03:14:42Z" uid="74617" user="JohnSmith" changeset="5170739">
    <nd ref="303258188"/>
    <nd ref="303258189"/>
    <nd ref="303258190"/>
    <nd ref="303258191"/>
    <nd ref="303258213"/>
    <tag k="highway" v="residential"/>
    <tag k="maxspeed" v="50"/>
    <tag k="maxspeed:source" v="default residential speed limit in Australia"/>
    <tag k="name" v="Bain Avenue"/>
  </way>
  <way id="27617157" version="2" timestamp="2010-07-09T03:09:17Z" uid="74617" user="JohnSmith" changeset="5170739">
    <nd ref="303258193"/>
    <nd ref="303258192"/>
    <tag k="highway" v="residential"/>
    <tag k="maxspeed" v="50"/>
    <tag k="maxspeed:source" v="default residential speed limit in Australia"/>
    <tag k="name" v="Plaisted Street"/>
  </way>
  <way id="27617158" version="2" timestamp="2010-07-09T03:13:12Z" uid="74617" user="JohnSmith" changeset="5170739">
    <nd ref="303258194"/>
    <nd ref="303258195"/>
    <tag k="highway" v="residential"/>
    <tag k="maxspeed" v="50"/>
    <tag k="maxspeed:source" v="default residential speed limit in Australia"/>
    <tag k="name" v="Suvla Street"/>
  </way>
  <way id="27617182" version="1" timestamp="2008-10-09T10:30:54Z" uid="7617" user="Franc" changeset="192264">
    <nd ref="303258744"/>
    <nd ref="303258745"/>
    <nd ref="303258750"/>
    <nd ref="303258751"/>
    <nd ref="303258752"/>
    <nd ref="303258753"/>
    <nd ref="303258754"/>
    <nd ref="303258755"/>
    <nd ref="303258759"/>
    <nd ref="303258756"/>
    <nd ref="303258763"/>
    <nd ref="303258764"/>
    <nd ref="303258765"/>
    <nd ref="303258766"/>
    <nd ref="303258767"/>
    <nd ref="303258768"/>
    <nd ref="303258771"/>
    <nd ref="303258772"/>
    <nd ref="303258775"/>
    <nd ref="303258773"/>
    <nd ref="303258776"/>
    <nd ref="303258774"/>
    <nd ref="303258781"/>
    <nd ref="303258778"/>
    <nd ref="303258782"/>
    <nd ref="303258777"/>
    <nd ref="303258779"/>
    <nd ref="303258791"/>
    <nd ref="303258792"/>
    <nd ref="303258807"/>
    <nd ref="303258806"/>
    <nd ref="303258804"/>
    <nd ref="303258803"/>
    <nd ref="303258802"/>
    <nd ref="303258801"/>
    <nd ref="303258800"/>
    <nd ref="303258799"/>
    <nd ref="303258813"/>
    <nd ref="303258816"/>
    <nd ref="303258823"/>
    <nd ref="303258809"/>
    <nd ref="303258798"/>
    <nd ref="303258793"/>
    <nd ref="303258796"/>
    <nd ref="303258797"/>
    <nd ref="303258795"/>
    <nd ref="303258794"/>
    <nd ref="303258790"/>
    <nd ref="303258789"/>
    <nd ref="303258788"/>
    <nd ref="303258787"/>
    <nd ref="303258786"/>
    <nd ref="303258785"/>
    <nd ref="303258784"/>
    <nd ref="303258783"/>
    <nd ref="303258770"/>
    <nd ref="303258769"/>
    <nd ref="303258749"/>
    <nd ref="303258746"/>
    <nd ref="303258748"/>
    <nd ref="303258747"/>
    <nd ref="303258744"/>
    <tag k="leisure" v="park"/>
    <tag k="source" v="yahoo_imagery"/>
  </way>
  <way id="27617182" version="3" timestamp="2010-04-05T10:55:59Z" uid="7617" user="Franc" changeset="4331672">
    <nd ref="303258744"/>
    <nd ref="303258745"/>
    <nd ref="303258750"/>
    <nd ref="303258751"/>
    <nd ref="303258752"/>
    <nd ref="303258753"/>
    <nd ref="303258754"/>
    <nd ref="303258755"/>
    <nd ref="303258759"/>
    <nd ref="303258756"/>
    <nd ref="303258763"/>
    <nd ref="303258764"/>
    <nd ref="303258765"/>
    <nd ref="303258766"/>
    <nd ref="303258767"/>
    <nd ref="303258768"/>
    <nd ref="303258771"/>
    <nd ref="303258772"/>
    <nd ref="303258775"/>
    <nd ref="303258773"/>
    <nd ref="303258776"/>
    <nd ref="303258774"/>
    <nd ref="303258781"/>
    <nd ref="685165948"/>
    <nd ref="303258778"/>
    <nd ref="303258782"/>
    <nd ref="685165944"/>
    <nd ref="685165946"/>
    <nd ref="685165897"/>
    <nd ref="482129223"/>
    <nd ref="482129220"/>
    <nd ref="685165885"/>
    <nd ref="685165887"/>
    <nd ref="685165883"/>
    <nd ref="685165881"/>
    <nd ref="303258779"/>
    <nd ref="685165872"/>
    <nd ref="685165874"/>
    <nd ref="685165876"/>
    <nd ref="482129211"/>
    <nd ref="685165870"/>
    <nd ref="303258791"/>
    <nd ref="303258792"/>
    <nd ref="303258807"/>
    <nd ref="685165842"/>
    <nd ref="685165841"/>
    <nd ref="685165837"/>
    <nd ref="685165838"/>
    <nd ref="303258803"/>
    <nd ref="303258802"/>
    <nd ref="303258801"/>
    <nd ref="303258800"/>
    <nd ref="685165810"/>
    <nd ref="685165809"/>
    <nd ref="303258799"/>
    <nd ref="685165808"/>
    <nd ref="685165807"/>
    <nd ref="303258813"/>
    <nd ref="685165803"/>
    <nd ref="685165802"/>
    <nd ref="685165801"/>
    <nd ref="303258816"/>
    <nd ref="685165800"/>
    <nd ref="303258823"/>
    <nd ref="303258809"/>
    <nd ref="685165799"/>
    <nd ref="685165798"/>
    <nd ref="482129186"/>
    <nd ref="303258798"/>
    <nd ref="303258793"/>
    <nd ref="303258796"/>
    <nd ref="482129176"/>
    <nd ref="303258797"/>
    <nd ref="303258795"/>
    <nd ref="303258794"/>
    <nd ref="303258790"/>
    <nd ref="303258789"/>
    <nd ref="303258788"/>
    <nd ref="303258787"/>
    <nd ref="685165936"/>
    <nd ref="685165938"/>
    <nd ref="303258786"/>
    <nd ref="303258785"/>
    <nd ref="303258784"/>
    <nd ref="303258783"/>
    <nd ref="303258770"/>
    <nd ref="303258769"/>
    <nd ref="303258749"/>
    <nd ref="303258746"/>
    <nd ref="303258748"/>
    <nd ref="303258747"/>
    <nd ref="303258744"/>
    <tag k="leisure" v="park"/>
    <tag k="source" v="yahoo_imagery"/>
  </way>
  <way id="27617194" version="2" timestamp="2009-08-03T13:34:28Z" uid="4467" user="Rosscoe" changeset="2025552">
    <nd ref="303258835"/>
    <nd ref="303259015"/>
    <nd ref="303259016"/>
    <nd ref="301993256"/>
    <nd ref="303258818"/>
    <tag k="highway" v="cycleway"/>
    <tag k="oneway" v="yes"/>
  </way>
  <way id="27617195" version="2" timestamp="2009-08-03T13:34:28Z" uid="4467" user="Rosscoe" changeset="2025552">
    <nd ref="303258818"/>
    <nd ref="303258889"/>
    <nd ref="303258825"/>
    <nd ref="303258828"/>
    <nd ref="303258885"/>
    <nd ref="303258832"/>
    <nd ref="303258835"/>
    <tag k="bicycle" v="yes"/>
    <tag k="highway" v="cycleway"/>
    <tag k="name" v="Upfield Bike Path"/>
    <tag k="oneway" v="yes"/>
  </way>
  <way id="27617198" version="2" timestamp="2011-02-17T12:41:39Z" uid="4467" user="Rosscoe" changeset="7312764">
    <nd ref="301992583"/>
    <nd ref="303259021"/>
    <tag k="highway" v="service"/>
  </way>
  <way id="27617214" version="1" timestamp="2008-10-09T10:36:45Z" uid="7617" user="Franc" changeset="192264">
    <nd ref="303259573"/>
    <nd ref="303259579"/>
    <nd ref="303259585"/>
    <nd ref="303259591"/>
    <nd ref="303259597"/>
    <nd ref="303259602"/>
    <nd ref="303259609"/>
    <nd ref="303259615"/>
    <nd ref="303259621"/>
    <nd ref="303259626"/>
    <nd ref="303259632"/>
    <nd ref="303259636"/>
    <nd ref="303259644"/>
    <nd ref="303259647"/>
    <nd ref="303259652"/>
    <nd ref="303259659"/>
    <nd ref="303259665"/>
    <nd ref="303259671"/>
    <nd ref="303259676"/>
    <nd ref="303259680"/>
    <nd ref="303259685"/>
    <nd ref="303259692"/>
    <nd ref="303259698"/>
    <nd ref="303259721"/>
    <nd ref="303259720"/>
    <nd ref="303259719"/>
    <nd ref="303259704"/>
    <nd ref="303259711"/>
    <nd ref="303259716"/>
    <nd ref="303259717"/>
    <nd ref="303259718"/>
    <nd ref="303259573"/>
    <tag k="leisure" v="pitch"/>
    <tag k="source" v="yahoo_imagery"/>
  </way>
  <way id="27617231" version="3" timestamp="2010-07-09T03:12:18Z" uid="74617" user="JohnSmith" changeset="5170739">
    <nd ref="303259795"/>
    <nd ref="303259798"/>
    <nd ref="373102291"/>
    <nd ref="303259801"/>
    <tag k="highway" v="residential"/>
    <tag k="maxspeed" v="50"/>
    <tag k="maxspeed:source" v="default residential speed limit in Australia"/>
    <tag k="name" v="Lovely Street"/>
  </way>
  <way id="27617265" version="4" timestamp="2009-07-25T04:15:20Z" uid="74617" user="JohnSmith" changeset="1930637">
    <nd ref="303260566"/>
    <nd ref="303260567"/>
    <nd ref="303267290"/>
    <nd ref="303260568"/>
    <nd ref="303260570"/>
    <nd ref="303260571"/>
    <nd ref="303260573"/>
    <tag k="highway" v="residential"/>
    <tag k="name" v="Park Terrace"/>
  </way>
  <way id="27617265" version="5" timestamp="2010-07-09T06:37:38Z" uid="74617" user="JohnSmith" changeset="5171134">
    <nd ref="303260566"/>
    <nd ref="303260567"/>
    <nd ref="303267290"/>
    <nd ref="303260568"/>
    <nd ref="303260570"/>
    <nd ref="303260571"/>
    <nd ref="303260573"/>
    <tag k="highway" v="residential"/>
    <tag k="maxspeed" v="50"/>
    <tag k="maxspeed:source" v="default residential speed limit in Australia"/>
    <tag k="name" v="Park Terrace"/>
  </way>
  <way id="27617265" version="6" timestamp="2011-03-12T10:16:51Z" uid="4467" user="Rosscoe" changeset="7531438">
    <nd ref="303260566"/>
    <nd ref="303260567"/>
    <nd ref="303267290"/>
    <nd ref="303260568"/>
    <nd ref="303260570"/>
    <nd ref="303260571"/>
    <nd ref="303260573"/>
    <tag k="highway" v="residential"/>
    <tag k="maxspeed" v="50"/>
    <tag k="name" v="Park Terrace"/>
    <tag k="source:maxspeed" v="default residential speed limit in Australia"/>
  </way>
  <way id="27617266" version="3" timestamp="2009-07-25T04:15:24Z" uid="74617" user="JohnSmith" changeset="1930637">
    <nd ref="252207026"/>
    <nd ref="303260590"/>
    <tag k="highway" v="residential"/>
    <tag k="name" v="River Street"/>
  </way>
  <way id="27617266" version="4" timestamp="2010-07-09T06:39:58Z" uid="74617" user="JohnSmith" changeset="5171134">
    <nd ref="252207026"/>
    <nd ref="303260590"/>
    <tag k="highway" v="residential"/>
    <tag k="maxspeed" v="50"/>
    <tag k="maxspeed:source" v="default residential speed limit in Australia"/>
    <tag k="name" v="River Street"/>
  </way>
  <way id="27617269" version="3" timestamp="2009-07-25T04:15:27Z" uid="74617" user="JohnSmith" changeset="1930637">
    <nd ref="303260630"/>
    <nd ref="303260571"/>
    <tag k="highway" v="residential"/>
    <tag k="name" v="Simpson Street"/>
  </way>
  <way id="27617269" version="4" timestamp="2010-07-09T06:38:42Z" uid="74617" user="JohnSmith" changeset="5171134">
    <nd ref="303260630"/>
    <nd ref="303260571"/>
    <tag k="highway" v="residential"/>
    <tag k="maxspeed" v="50"/>
    <tag k="maxspeed:source" v="default residential speed limit in Australia"/>
    <tag k="name" v="Simpson Street"/>
  </way>
  <way id="27617269" version="5" timestamp="2011-03-12T10:16:54Z" uid="4467" user="Rosscoe" changeset="7531438">
    <nd ref="303260630"/>
    <nd ref="303260571"/>
    <tag k="highway" v="residential"/>
    <tag k="maxspeed" v="50"/>
    <tag k="name" v="Simpson Street"/>
    <tag k="source:maxspeed" v="default residential speed limit in Australia"/>
  </way>
  <way id="27617278" version="2" timestamp="2010-07-09T03:14:46Z" uid="74617" user="JohnSmith" changeset="5170739">
    <nd ref="303261183"/>
    <nd ref="303261190"/>
    <tag k="highway" v="residential"/>
    <tag k="maxspeed" v="50"/>
    <tag k="maxspeed:source" v="default residential speed limit in Australia"/>
    <tag k="name" v="Sturdee Street"/>
  </way>
  <way id="27617280" version="2" timestamp="2010-07-09T03:08:44Z" uid="74617" user="JohnSmith" changeset="5170739">
    <nd ref="303261197"/>
    <nd ref="303261203"/>
    <tag k="highway" v="residential"/>
    <tag k="maxspeed" v="50"/>
    <tag k="maxspeed:source" v="default residential speed limit in Australia"/>
    <tag k="name" v="Elliot Street"/>
  </way>
  <way id="27617284" version="2" timestamp="2010-07-09T05:09:08Z" uid="74617" user="JohnSmith" changeset="5170972">
    <nd ref="303261210"/>
    <nd ref="273103150"/>
    <nd ref="273103157"/>
    <tag k="highway" v="unclassified"/>
    <tag k="maxspeed" v="50"/>
    <tag k="maxspeed:source" v="default residential speed limit in Australia"/>
    <tag k="name" v="French Street"/>
  </way>
  <way id="27617286" version="2" timestamp="2010-07-09T03:13:43Z" uid="74617" user="JohnSmith" changeset="5170739">
    <nd ref="303261216"/>
    <nd ref="303261225"/>
    <tag k="highway" v="residential"/>
    <tag k="maxspeed" v="50"/>
    <tag k="maxspeed:source" v="default residential speed limit in Australia"/>
    <tag k="name" v="Pau Street"/>
  </way>
  <way id="27617474" version="2" timestamp="2009-07-12T06:34:13Z" uid="74617" user="JohnSmith" changeset="1803492">
    <nd ref="303266733"/>
    <nd ref="303266734"/>
    <tag k="highway" v="residential"/>
    <tag k="name" v="Canning Street"/>
    <tag k="source" v="survey"/>
  </way>
  <way id="27617474" version="4" timestamp="2010-07-06T18:39:21Z" uid="74617" user="JohnSmith" changeset="5152225">
    <nd ref="303266733"/>
    <nd ref="458600036"/>
    <nd ref="458600040"/>
    <nd ref="303266734"/>
    <tag k="highway" v="residential"/>
    <tag k="maxspeed" v="50"/>
    <tag k="maxspeed:source" v="default residential speed limit in Australia"/>
    <tag k="name" v="Canning Street"/>
    <tag k="source" v="survey"/>
  </way>
  <way id="27617475" version="2" timestamp="2009-07-12T06:34:15Z" uid="74617" user="JohnSmith" changeset="1803492">
    <nd ref="303266745"/>
    <nd ref="303266746"/>
    <tag k="highway" v="residential"/>
    <tag k="name" v="Power Street"/>
    <tag k="source" v="survey"/>
  </way>
  <way id="27617475" version="3" timestamp="2010-07-06T18:40:19Z" uid="74617" user="JohnSmith" changeset="5152225">
    <nd ref="303266745"/>
    <nd ref="303266746"/>
    <tag k="highway" v="residential"/>
    <tag k="maxspeed" v="50"/>
    <tag k="maxspeed:source" v="default residential speed limit in Australia"/>
    <tag k="name" v="Power Street"/>
    <tag k="source" v="survey"/>
  </way>
  <way id="27617476" version="2" timestamp="2009-07-12T06:34:23Z" uid="74617" user="JohnSmith" changeset="1803492">
    <nd ref="303266747"/>
    <nd ref="303266755"/>
    <tag k="highway" v="residential"/>
    <tag k="name" v="Cope Court"/>
    <tag k="source" v="survey"/>
  </way>
  <way id="27617476" version="3" timestamp="2010-07-06T18:37:03Z" uid="74617" user="JohnSmith" changeset="5152225">
    <nd ref="303266747"/>
    <nd ref="303266755"/>
    <tag k="highway" v="residential"/>
    <tag k="maxspeed" v="50"/>
    <tag k="maxspeed:source" v="default residential speed limit in Australia"/>
    <tag k="name" v="Cope Court"/>
    <tag k="source" v="survey"/>
  </way>
  <way id="27617477" version="2" timestamp="2009-07-12T06:34:09Z" uid="74617" user="JohnSmith" changeset="1803492">
    <nd ref="303266758"/>
    <nd ref="303266759"/>
    <nd ref="303266760"/>
    <nd ref="303266761"/>
    <tag k="highway" v="residential"/>
    <tag k="name" v="Vanity Street"/>
    <tag k="source" v="survey"/>
  </way>
  <way id="27617477" version="4" timestamp="2010-07-06T18:38:10Z" uid="74617" user="JohnSmith" changeset="5152225">
    <nd ref="303266758"/>
    <nd ref="303266759"/>
    <nd ref="303266760"/>
    <nd ref="303266761"/>
    <nd ref="612813883"/>
    <nd ref="612813884"/>
    <nd ref="612813876"/>
    <tag k="highway" v="residential"/>
    <tag k="maxspeed" v="50"/>
    <tag k="maxspeed:source" v="default residential speed limit in Australia"/>
    <tag k="name" v="Vanity Street"/>
    <tag k="source" v="survey"/>
  </way>
  <way id="27617479" version="2" timestamp="2009-07-12T06:34:31Z" uid="74617" user="JohnSmith" changeset="1803492">
    <nd ref="303266768"/>
    <nd ref="303266769"/>
    <nd ref="303266770"/>
    <tag k="highway" v="residential"/>
    <tag k="name" v="Dunster Lane"/>
    <tag k="source" v="survey"/>
    <tag k="width" v="3"/>
  </way>
  <way id="27617479" version="3" timestamp="2010-07-06T18:35:42Z" uid="74617" user="JohnSmith" changeset="5152225">
    <nd ref="303266768"/>
    <nd ref="303266769"/>
    <nd ref="303266770"/>
    <tag k="highway" v="residential"/>
    <tag k="maxspeed" v="50"/>
    <tag k="maxspeed:source" v="default residential speed limit in Australia"/>
    <tag k="name" v="Dunster Lane"/>
    <tag k="source" v="survey"/>
    <tag k="width" v="3"/>
  </way>
  <way id="27617481" version="5" timestamp="2009-07-12T06:34:21Z" uid="74617" user="JohnSmith" changeset="1803492">
    <nd ref="303266771"/>
    <nd ref="303266773"/>
    <nd ref="303266772"/>
    <nd ref="332792779"/>
    <nd ref="431139670"/>
    <nd ref="332792765"/>
    <nd ref="431340983"/>
    <nd ref="332792761"/>
    <tag k="highway" v="residential"/>
    <tag k="name" v="Taylor Street"/>
    <tag k="source" v="survey"/>
  </way>
  <way id="27617481" version="6" timestamp="2009-07-12T07:04:02Z" uid="74617" user="JohnSmith" changeset="1803677">
    <nd ref="303266771"/>
    <nd ref="303266773"/>
    <nd ref="354376980"/>
    <nd ref="431139678"/>
    <nd ref="332792779"/>
    <nd ref="431139670"/>
    <nd ref="332792765"/>
    <nd ref="431340983"/>
    <nd ref="430532633"/>
    <nd ref="332792761"/>
    <tag k="highway" v="residential"/>
    <tag k="name" v="Taylor Street"/>
    <tag k="source" v="survey"/>
  </way>
  <way id="27617481" version="12" timestamp="2010-07-06T18:37:01Z" uid="74617" user="JohnSmith" changeset="5152225">
    <nd ref="498555019"/>
    <nd ref="498556000"/>
    <nd ref="498560849"/>
    <nd ref="498557723"/>
    <nd ref="303266771"/>
    <nd ref="530279346"/>
    <nd ref="530279347"/>
    <nd ref="303266773"/>
    <nd ref="354376980"/>
    <nd ref="431139678"/>
    <nd ref="444664171"/>
    <nd ref="332792779"/>
    <nd ref="431139670"/>
    <nd ref="332792765"/>
    <nd ref="431340983"/>
    <nd ref="430532633"/>
    <nd ref="332792761"/>
    <tag k="highway" v="residential"/>
    <tag k="maxspeed" v="50"/>
    <tag k="maxspeed:source" v="default residential speed limit in Australia"/>
    <tag k="name" v="Taylor Street"/>
    <tag k="source" v="survey"/>
  </way>
  <way id="27617482" version="2" timestamp="2009-07-12T06:34:28Z" uid="74617" user="JohnSmith" changeset="1803492">
    <nd ref="303266773"/>
    <nd ref="303266774"/>
    <tag k="highway" v="residential"/>
    <tag k="name" v="Kingston Street"/>
    <tag k="source" v="survey"/>
  </way>
  <way id="27617482" version="4" timestamp="2010-07-06T18:40:45Z" uid="74617" user="JohnSmith" changeset="5152225">
    <nd ref="303266773"/>
    <nd ref="533994939"/>
    <nd ref="303266774"/>
    <tag k="highway" v="residential"/>
    <tag k="maxspeed" v="50"/>
    <tag k="maxspeed:source" v="default residential speed limit in Australia"/>
    <tag k="name" v="Kingston Street"/>
    <tag k="source" v="survey"/>
  </way>
  <way id="27617484" version="2" timestamp="2010-07-06T18:38:40Z" uid="74617" user="JohnSmith" changeset="5152225">
    <nd ref="303266775"/>
    <nd ref="303266776"/>
    <tag k="highway" v="residential"/>
    <tag k="maxspeed" v="50"/>
    <tag k="maxspeed:source" v="default residential speed limit in Australia"/>
    <tag k="name" v="Cecil Street"/>
    <tag k="source" v="survey"/>
  </way>
  <way id="27617485" version="2" timestamp="2010-07-06T18:39:52Z" uid="74617" user="JohnSmith" changeset="5152225">
    <nd ref="21498292"/>
    <nd ref="303266777"/>
    <nd ref="303266782"/>
    <nd ref="303266783"/>
    <tag k="highway" v="residential"/>
    <tag k="maxspeed" v="50"/>
    <tag k="maxspeed:source" v="default residential speed limit in Australia"/>
    <tag k="name" v="Isabel Street"/>
  </way>
  <way id="27617486" version="2" timestamp="2009-07-12T06:43:47Z" uid="74617" user="JohnSmith" changeset="1803547">
    <nd ref="303266784"/>
    <nd ref="303266785"/>
    <tag k="highway" v="residential"/>
    <tag k="name" v="Park Lane"/>
    <tag k="oneway" v="yes"/>
    <tag k="source" v="survey"/>
    <tag k="width" v="3"/>
  </way>
  <way id="27617486" version="3" timestamp="2010-07-06T18:36:14Z" uid="74617" user="JohnSmith" changeset="5152225">
    <nd ref="303266784"/>
    <nd ref="303266785"/>
    <tag k="highway" v="residential"/>
    <tag k="maxspeed" v="50"/>
    <tag k="maxspeed:source" v="default residential speed limit in Australia"/>
    <tag k="name" v="Park Lane"/>
    <tag k="oneway" v="yes"/>
    <tag k="source" v="survey"/>
    <tag k="width" v="3"/>
  </way>
  <way id="27617487" version="2" timestamp="2010-07-06T18:37:35Z" uid="74617" user="JohnSmith" changeset="5152225">
    <nd ref="21479334"/>
    <nd ref="303266786"/>
    <nd ref="303266787"/>
    <nd ref="303266788"/>
    <tag k="highway" v="residential"/>
    <tag k="maxspeed" v="50"/>
    <tag k="maxspeed:source" v="default residential speed limit in Australia"/>
    <tag k="name" v="Jessie Street"/>
  </way>
  <way id="27617488" version="2" timestamp="2010-07-06T18:38:15Z" uid="74617" user="JohnSmith" changeset="5152225">
    <nd ref="303266789"/>
    <nd ref="303266790"/>
    <tag k="highway" v="residential"/>
    <tag k="maxspeed" v="50"/>
    <tag k="maxspeed:source" v="default residential speed limit in Australia"/>
    <tag k="name" v="Union Street"/>
    <tag k="source" v="survey"/>
  </way>
  <way id="27617490" version="2" timestamp="2009-07-12T06:43:48Z" uid="74617" user="JohnSmith" changeset="1803547">
    <nd ref="303266791"/>
    <nd ref="303266793"/>
    <nd ref="303266792"/>
    <tag k="highway" v="residential"/>
    <tag k="name" v="Julia Street"/>
    <tag k="oneway" v="yes"/>
    <tag k="source" v="survey"/>
  </way>
  <way id="27617490" version="3" timestamp="2010-07-06T18:35:44Z" uid="74617" user="JohnSmith" changeset="5152225">
    <nd ref="303266791"/>
    <nd ref="303266793"/>
    <nd ref="303266792"/>
    <tag k="highway" v="residential"/>
    <tag k="maxspeed" v="50"/>
    <tag k="maxspeed:source" v="default residential speed limit in Australia"/>
    <tag k="name" v="Julia Street"/>
    <tag k="oneway" v="yes"/>
    <tag k="source" v="survey"/>
  </way>
  <way id="27617491" version="2" timestamp="2010-07-06T18:37:06Z" uid="74617" user="JohnSmith" changeset="5152225">
    <nd ref="303266793"/>
    <nd ref="303266794"/>
    <tag k="highway" v="residential"/>
    <tag k="maxspeed" v="50"/>
    <tag k="maxspeed:source" v="default residential speed limit in Australia"/>
    <tag k="name" v="Douglas Street"/>
    <tag k="source" v="survey"/>
  </way>
  <way id="27617492" version="2" timestamp="2010-07-06T18:40:51Z" uid="74617" user="JohnSmith" changeset="5152225">
    <nd ref="303266796"/>
    <nd ref="303266797"/>
    <tag k="highway" v="residential"/>
    <tag k="maxspeed" v="50"/>
    <tag k="maxspeed:source" v="default residential speed limit in Australia"/>
    <tag k="name" v="Aubigny Street"/>
    <tag k="source" v="survey"/>
  </way>
  <way id="27617493" version="2" timestamp="2009-07-12T06:34:21Z" uid="74617" user="JohnSmith" changeset="1803492">
    <nd ref="303266798"/>
    <nd ref="303266808"/>
    <nd ref="303266797"/>
    <nd ref="303266800"/>
    <tag k="highway" v="residential"/>
    <tag k="name" v="Phillip Street"/>
    <tag k="source" v="survey"/>
  </way>
  <way id="27617493" version="3" timestamp="2010-07-06T18:34:33Z" uid="74617" user="JohnSmith" changeset="5152225">
    <nd ref="303266798"/>
    <nd ref="303266808"/>
    <nd ref="303266797"/>
    <nd ref="303266800"/>
    <tag k="highway" v="residential"/>
    <tag k="maxspeed" v="50"/>
    <tag k="maxspeed:source" v="default residential speed limit in Australia"/>
    <tag k="name" v="Phillip Street"/>
    <tag k="source" v="survey"/>
  </way>
  <way id="27617494" version="2" timestamp="2009-07-12T06:34:26Z" uid="74617" user="JohnSmith" changeset="1803492">
    <nd ref="303266808"/>
    <nd ref="303266855"/>
    <nd ref="303266814"/>
    <nd ref="303266824"/>
    <tag k="highway" v="residential"/>
    <tag k="name" v="Culver Lane"/>
    <tag k="source" v="survey"/>
  </way>
  <way id="27617494" version="3" timestamp="2010-07-06T18:38:49Z" uid="74617" user="JohnSmith" changeset="5152225">
    <nd ref="303266808"/>
    <nd ref="303266855"/>
    <nd ref="303266814"/>
    <nd ref="303266824"/>
    <tag k="highway" v="residential"/>
    <tag k="maxspeed" v="50"/>
    <tag k="maxspeed:source" v="default residential speed limit in Australia"/>
    <tag k="name" v="Culver Lane"/>
    <tag k="source" v="survey"/>
  </way>
  <way id="27617495" version="2" timestamp="2009-07-12T06:34:35Z" uid="74617" user="JohnSmith" changeset="1803492">
    <nd ref="303266830"/>
    <nd ref="303266841"/>
    <nd ref="303266850"/>
    <nd ref="303266855"/>
    <tag k="highway" v="residential"/>
    <tag k="name" v="Nessbank Street"/>
    <tag k="source" v="survey"/>
  </way>
  <way id="27617495" version="3" timestamp="2010-07-06T18:39:59Z" uid="74617" user="JohnSmith" changeset="5152225">
    <nd ref="303266830"/>
    <nd ref="303266841"/>
    <nd ref="303266850"/>
    <nd ref="303266855"/>
    <tag k="highway" v="residential"/>
    <tag k="maxspeed" v="50"/>
    <tag k="maxspeed:source" v="default residential speed limit in Australia"/>
    <tag k="name" v="Nessbank Street"/>
    <tag k="source" v="survey"/>
  </way>
  <way id="27617496" version="2" timestamp="2009-07-12T06:34:30Z" uid="74617" user="JohnSmith" changeset="1803492">
    <nd ref="303266861"/>
    <nd ref="303266867"/>
    <nd ref="303266874"/>
    <nd ref="303266880"/>
    <nd ref="303266883"/>
    <nd ref="303266884"/>
    <tag k="highway" v="residential"/>
    <tag k="name" v="Horton Street"/>
    <tag k="source" v="survey"/>
  </way>
  <way id="27617496" version="3" timestamp="2010-07-06T18:39:56Z" uid="74617" user="JohnSmith" changeset="5152225">
    <nd ref="303266861"/>
    <nd ref="303266867"/>
    <nd ref="303266874"/>
    <nd ref="303266880"/>
    <nd ref="303266883"/>
    <nd ref="303266884"/>
    <tag k="highway" v="residential"/>
    <tag k="maxspeed" v="50"/>
    <tag k="maxspeed:source" v="default residential speed limit in Australia"/>
    <tag k="name" v="Horton Street"/>
    <tag k="source" v="survey"/>
  </way>
  <way id="27617497" version="3" timestamp="2009-07-12T06:34:29Z" uid="74617" user="JohnSmith" changeset="1803492">
    <nd ref="276560385"/>
    <nd ref="276560381"/>
    <nd ref="276560382"/>
    <nd ref="332792830"/>
    <nd ref="332792806"/>
    <nd ref="332792807"/>
    <tag k="highway" v="residential"/>
    <tag k="name" v="Arlaw Street"/>
    <tag k="source" v="survey"/>
  </way>
  <way id="27617497" version="4" timestamp="2010-07-06T18:40:47Z" uid="74617" user="JohnSmith" changeset="5152225">
    <nd ref="276560385"/>
    <nd ref="276560381"/>
    <nd ref="276560382"/>
    <nd ref="332792830"/>
    <nd ref="332792806"/>
    <nd ref="332792807"/>
    <tag k="highway" v="residential"/>
    <tag k="maxspeed" v="50"/>
    <tag k="maxspeed:source" v="default residential speed limit in Australia"/>
    <tag k="name" v="Arlaw Street"/>
    <tag k="source" v="survey"/>
  </way>
  <way id="27617511" version="3" timestamp="2009-07-25T04:15:21Z" uid="74617" user="JohnSmith" changeset="1930637">
    <nd ref="303267106"/>
    <nd ref="303260568"/>
    <tag k="highway" v="residential"/>
    <tag k="name" v="Eliza Street"/>
  </way>
  <way id="27617511" version="4" timestamp="2010-07-09T06:36:02Z" uid="74617" user="JohnSmith" changeset="5171134">
    <nd ref="303267106"/>
    <nd ref="303260568"/>
    <tag k="highway" v="residential"/>
    <tag k="maxspeed" v="50"/>
    <tag k="maxspeed:source" v="default residential speed limit in Australia"/>
    <tag k="name" v="Eliza Street"/>
  </way>
  <way id="27617511" version="5" timestamp="2011-03-12T10:16:48Z" uid="4467" user="Rosscoe" changeset="7531438">
    <nd ref="303267106"/>
    <nd ref="303260568"/>
    <tag k="highway" v="residential"/>
    <tag k="maxspeed" v="50"/>
    <tag k="name" v="Eliza Street"/>
    <tag k="source:maxspeed" v="default residential speed limit in Australia"/>
  </way>
  <way id="27617513" version="3" timestamp="2009-07-25T04:15:31Z" uid="74617" user="JohnSmith" changeset="1930637">
    <nd ref="303267257"/>
    <nd ref="303267290"/>
    <tag k="highway" v="residential"/>
    <tag k="name" v="Matilda Street"/>
  </way>
  <way id="27617513" version="4" timestamp="2010-07-09T06:35:50Z" uid="74617" user="JohnSmith" changeset="5171134">
    <nd ref="303267257"/>
    <nd ref="303267290"/>
    <tag k="highway" v="residential"/>
    <tag k="maxspeed" v="50"/>
    <tag k="maxspeed:source" v="default residential speed limit in Australia"/>
    <tag k="name" v="Matilda Street"/>
  </way>
  <way id="27617513" version="5" timestamp="2011-03-12T10:17:18Z" uid="4467" user="Rosscoe" changeset="7531438">
    <nd ref="303267257"/>
    <nd ref="303267290"/>
    <tag k="highway" v="residential"/>
    <tag k="maxspeed" v="50"/>
    <tag k="name" v="Matilda Street"/>
    <tag k="source:maxspeed" v="default residential speed limit in Australia"/>
  </way>
  <way id="27617544" version="2" timestamp="2009-07-25T04:15:25Z" uid="74617" user="JohnSmith" changeset="1930637">
    <nd ref="303267622"/>
    <nd ref="303267804"/>
    <tag k="highway" v="residential"/>
    <tag k="name" v="Garmet Street"/>
  </way>
  <way id="27617544" version="3" timestamp="2010-07-09T06:40:53Z" uid="74617" user="JohnSmith" changeset="5171134">
    <nd ref="303267622"/>
    <nd ref="303267804"/>
    <tag k="highway" v="residential"/>
    <tag k="maxspeed" v="50"/>
    <tag k="maxspeed:source" v="default residential speed limit in Australia"/>
    <tag k="name" v="Garmet Street"/>
  </way>
  <way id="27617544" version="4" timestamp="2011-03-12T10:16:34Z" uid="4467" user="Rosscoe" changeset="7531438">
    <nd ref="303267622"/>
    <nd ref="303267804"/>
    <tag k="highway" v="residential"/>
    <tag k="maxspeed" v="50"/>
    <tag k="name" v="Garmet Street"/>
    <tag k="source:maxspeed" v="default residential speed limit in Australia"/>
  </way>
  <way id="27617553" version="3" timestamp="2009-07-25T04:15:18Z" uid="74617" user="JohnSmith" changeset="1930637">
    <nd ref="303268054"/>
    <nd ref="303268064"/>
    <tag k="highway" v="residential"/>
    <tag k="name" v="Stour Street"/>
  </way>
  <way id="27617553" version="4" timestamp="2010-07-09T06:35:47Z" uid="74617" user="JohnSmith" changeset="5171134">
    <nd ref="303268054"/>
    <nd ref="303268064"/>
    <tag k="highway" v="residential"/>
    <tag k="maxspeed" v="50"/>
    <tag k="maxspeed:source" v="default residential speed limit in Australia"/>
    <tag k="name" v="Stour Street"/>
  </way>
  <way id="27617553" version="5" timestamp="2011-03-12T10:16:53Z" uid="4467" user="Rosscoe" changeset="7531438">
    <nd ref="303268054"/>
    <nd ref="303268064"/>
    <tag k="highway" v="residential"/>
    <tag k="maxspeed" v="50"/>
    <tag k="name" v="Stour Street"/>
    <tag k="source:maxspeed" v="default residential speed limit in Australia"/>
  </way>
  <way id="27617600" version="5" timestamp="2010-07-09T06:39:41Z" uid="74617" user="JohnSmith" changeset="5171134">
    <nd ref="303270702"/>
    <nd ref="252206928"/>
    <nd ref="252206936"/>
    <nd ref="252207020"/>
    <tag k="highway" v="residential"/>
    <tag k="maxspeed" v="50"/>
    <tag k="maxspeed:source" v="default residential speed limit in Australia"/>
    <tag k="name" v="James Street"/>
  </way>
  <way id="27617648" version="2" timestamp="2010-06-29T19:17:00Z" uid="74617" user="JohnSmith" changeset="5108182">
    <nd ref="303273103"/>
    <nd ref="303273104"/>
    <nd ref="303273106"/>
    <nd ref="303273107"/>
    <nd ref="303273103"/>
    <tag k="fixme" v="sport=football is ambiguous, see http://wiki.osm.org/wiki/Football for more details"/>
    <tag k="leisure" v="pitch"/>
    <tag k="sport" v="football"/>
  </way>
  <way id="27617735" version="1" timestamp="2008-10-09T11:30:45Z" uid="43863" user="Rundling" changeset="183632">
    <nd ref="303274686"/>
    <nd ref="303274688"/>
    <nd ref="303274685"/>
    <nd ref="303274687"/>
    <nd ref="303274686"/>
    <tag k="addr:city" v="Rosche"/>
    <tag k="addr:housenumber" v="1"/>
    <tag k="addr:postcode" v="29571"/>
    <tag k="addr:street" v="Kastanienallee"/>
    <tag k="building" v="yes"/>
    <tag k="created_by" v="Merkaartor 0.11"/>
  </way>
  <way id="27617735" version="2" timestamp="2009-03-02T14:00:36Z" uid="43863" user="Rundling" changeset="721985">
    <nd ref="303274686"/>
    <nd ref="303274688"/>
    <nd ref="303274685"/>
    <nd ref="303274687"/>
    <nd ref="303274686"/>
    <tag k="addr:city" v="Rosche"/>
    <tag k="addr:country" v="DE"/>
    <tag k="addr:housenumber" v="1"/>
    <tag k="addr:postcode" v="29571"/>
    <tag k="addr:street" v="Kastanienallee"/>
    <tag k="building" v="yes"/>
    <tag k="created_by" v="Merkaartor 0.11"/>
  </way>
  <way id="27617736" version="1" timestamp="2008-10-09T11:30:46Z" uid="43863" user="Rundling" changeset="183632">
    <nd ref="303274689"/>
    <nd ref="303274692"/>
    <nd ref="303274690"/>
    <nd ref="303274691"/>
    <nd ref="303274689"/>
    <tag k="addr:city" v="Rosche"/>
    <tag k="addr:housenumber" v="3"/>
    <tag k="addr:postcode" v="29571"/>
    <tag k="addr:street" v="Kastanienallee"/>
    <tag k="building" v="yes"/>
    <tag k="created_by" v="Merkaartor 0.11"/>
  </way>
  <way id="27617736" version="2" timestamp="2009-03-02T14:00:37Z" uid="43863" user="Rundling" changeset="721985">
    <nd ref="303274689"/>
    <nd ref="303274692"/>
    <nd ref="303274690"/>
    <nd ref="303274691"/>
    <nd ref="303274689"/>
    <tag k="addr:city" v="Rosche"/>
    <tag k="addr:country" v="DE"/>
    <tag k="addr:housenumber" v="3"/>
    <tag k="addr:postcode" v="29571"/>
    <tag k="addr:street" v="Kastanienallee"/>
    <tag k="building" v="yes"/>
    <tag k="created_by" v="Merkaartor 0.11"/>
  </way>
  <way id="27617737" version="1" timestamp="2008-10-09T11:30:46Z" uid="43863" user="Rundling" changeset="183632">
    <nd ref="303274693"/>
    <nd ref="303274696"/>
    <nd ref="303274694"/>
    <nd ref="303274695"/>
    <nd ref="303274693"/>
    <tag k="addr:city" v="Rosche"/>
    <tag k="addr:housenumber" v="7"/>
    <tag k="addr:postcode" v="29571"/>
    <tag k="addr:street" v="Kastanienallee"/>
    <tag k="building" v="yes"/>
    <tag k="created_by" v="Merkaartor 0.11"/>
  </way>
  <way id="27617737" version="2" timestamp="2009-03-02T14:00:37Z" uid="43863" user="Rundling" changeset="721985">
    <nd ref="303274693"/>
    <nd ref="303274696"/>
    <nd ref="303274694"/>
    <nd ref="303274695"/>
    <nd ref="303274693"/>
    <tag k="addr:city" v="Rosche"/>
    <tag k="addr:country" v="DE"/>
    <tag k="addr:housenumber" v="7"/>
    <tag k="addr:postcode" v="29571"/>
    <tag k="addr:street" v="Kastanienallee"/>
    <tag k="building" v="yes"/>
    <tag k="created_by" v="Merkaartor 0.11"/>
  </way>
  <way id="27617738" version="1" timestamp="2008-10-09T11:30:46Z" uid="43863" user="Rundling" changeset="183632">
    <nd ref="303274697"/>
    <nd ref="303274700"/>
    <nd ref="303274698"/>
    <nd ref="303274699"/>
    <nd ref="303274697"/>
    <tag k="addr:city" v="Rosche"/>
    <tag k="addr:housenumber" v="9"/>
    <tag k="addr:postcode" v="29571"/>
    <tag k="addr:street" v="Kastanienallee"/>
    <tag k="building" v="yes"/>
    <tag k="created_by" v="Merkaartor 0.11"/>
  </way>
  <way id="27617738" version="2" timestamp="2009-03-02T14:00:37Z" uid="43863" user="Rundling" changeset="721985">
    <nd ref="303274697"/>
    <nd ref="303274700"/>
    <nd ref="303274698"/>
    <nd ref="303274699"/>
    <nd ref="303274697"/>
    <tag k="addr:city" v="Rosche"/>
    <tag k="addr:country" v="DE"/>
    <tag k="addr:housenumber" v="9"/>
    <tag k="addr:postcode" v="29571"/>
    <tag k="addr:street" v="Kastanienallee"/>
    <tag k="building" v="yes"/>
    <tag k="created_by" v="Merkaartor 0.11"/>
  </way>
  <way id="27617739" version="1" timestamp="2008-10-09T11:30:47Z" uid="43863" user="Rundling" changeset="183632">
    <nd ref="303274701"/>
    <nd ref="303274704"/>
    <nd ref="303274702"/>
    <nd ref="303274703"/>
    <nd ref="303274701"/>
    <tag k="addr:city" v="Rosche"/>
    <tag k="addr:housenumber" v="11"/>
    <tag k="addr:postcode" v="29571"/>
    <tag k="addr:street" v="Kastanienallee"/>
    <tag k="building" v="yes"/>
    <tag k="created_by" v="Merkaartor 0.11"/>
  </way>
  <way id="27617739" version="2" timestamp="2009-03-02T14:00:36Z" uid="43863" user="Rundling" changeset="721985">
    <nd ref="303274701"/>
    <nd ref="303274704"/>
    <nd ref="303274702"/>
    <nd ref="303274703"/>
    <nd ref="303274701"/>
    <tag k="addr:city" v="Rosche"/>
    <tag k="addr:country" v="DE"/>
    <tag k="addr:housenumber" v="11"/>
    <tag k="addr:postcode" v="29571"/>
    <tag k="addr:street" v="Kastanienallee"/>
    <tag k="building" v="yes"/>
    <tag k="created_by" v="Merkaartor 0.11"/>
  </way>
  <way id="27617740" version="1" timestamp="2008-10-09T11:30:47Z" uid="43863" user="Rundling" changeset="183632">
    <nd ref="303274705"/>
    <nd ref="303274708"/>
    <nd ref="303274706"/>
    <nd ref="303274707"/>
    <nd ref="303274705"/>
    <tag k="addr:city" v="Rosche"/>
    <tag k="addr:housenumber" v="13"/>
    <tag k="addr:postcode" v="29571"/>
    <tag k="addr:street" v="Kastanienallee"/>
    <tag k="building" v="yes"/>
    <tag k="created_by" v="Merkaartor 0.11"/>
  </way>
  <way id="27617740" version="2" timestamp="2009-03-02T14:00:38Z" uid="43863" user="Rundling" changeset="721985">
    <nd ref="303274705"/>
    <nd ref="303274708"/>
    <nd ref="303274706"/>
    <nd ref="303274707"/>
    <nd ref="303274705"/>
    <tag k="addr:city" v="Rosche"/>
    <tag k="addr:country" v="DE"/>
    <tag k="addr:housenumber" v="13"/>
    <tag k="addr:postcode" v="29571"/>
    <tag k="addr:street" v="Kastanienallee"/>
    <tag k="building" v="yes"/>
    <tag k="created_by" v="Merkaartor 0.11"/>
  </way>
  <way id="27617741" version="1" timestamp="2008-10-09T11:30:47Z" uid="43863" user="Rundling" changeset="183632">
    <nd ref="303274709"/>
    <nd ref="303274712"/>
    <nd ref="303274710"/>
    <nd ref="303274711"/>
    <nd ref="303274709"/>
    <tag k="addr:city" v="Rosche"/>
    <tag k="addr:housenumber" v="18"/>
    <tag k="addr:postcode" v="29571"/>
    <tag k="addr:street" v="Kastanienallee"/>
    <tag k="building" v="yes"/>
    <tag k="created_by" v="Merkaartor 0.11"/>
  </way>
  <way id="27617741" version="2" timestamp="2009-03-02T14:00:38Z" uid="43863" user="Rundling" changeset="721985">
    <nd ref="303274709"/>
    <nd ref="303274712"/>
    <nd ref="303274710"/>
    <nd ref="303274711"/>
    <nd ref="303274709"/>
    <tag k="addr:city" v="Rosche"/>
    <tag k="addr:country" v="DE"/>
    <tag k="addr:housenumber" v="18"/>
    <tag k="addr:postcode" v="29571"/>
    <tag k="addr:street" v="Kastanienallee"/>
    <tag k="building" v="yes"/>
    <tag k="created_by" v="Merkaartor 0.11"/>
  </way>
  <way id="27617742" version="1" timestamp="2008-10-09T11:30:48Z" uid="43863" user="Rundling" changeset="183632">
    <nd ref="303274713"/>
    <nd ref="303274716"/>
    <nd ref="303274714"/>
    <nd ref="303274715"/>
    <nd ref="303274713"/>
    <tag k="addr:city" v="Rosche"/>
    <tag k="addr:housenumber" v="14"/>
    <tag k="addr:postcode" v="29571"/>
    <tag k="addr:street" v="Kastanienallee"/>
    <tag k="building" v="yes"/>
    <tag k="created_by" v="Merkaartor 0.11"/>
  </way>
  <way id="27617742" version="2" timestamp="2009-03-02T14:00:37Z" uid="43863" user="Rundling" changeset="721985">
    <nd ref="303274713"/>
    <nd ref="303274716"/>
    <nd ref="303274714"/>
    <nd ref="303274715"/>
    <nd ref="303274713"/>
    <tag k="addr:city" v="Rosche"/>
    <tag k="addr:country" v="DE"/>
    <tag k="addr:housenumber" v="14"/>
    <tag k="addr:postcode" v="29571"/>
    <tag k="addr:street" v="Kastanienallee"/>
    <tag k="building" v="yes"/>
    <tag k="created_by" v="Merkaartor 0.11"/>
  </way>
  <way id="27617743" version="1" timestamp="2008-10-09T11:30:48Z" uid="43863" user="Rundling" changeset="183632">
    <nd ref="303274717"/>
    <nd ref="303274720"/>
    <nd ref="303274718"/>
    <nd ref="303274719"/>
    <nd ref="303274717"/>
    <tag k="addr:city" v="Rosche"/>
    <tag k="addr:housenumber" v="12"/>
    <tag k="addr:postcode" v="29571"/>
    <tag k="addr:street" v="Kastanienallee"/>
    <tag k="building" v="yes"/>
    <tag k="created_by" v="Merkaartor 0.11"/>
  </way>
  <way id="27617743" version="2" timestamp="2009-03-02T14:00:37Z" uid="43863" user="Rundling" changeset="721985">
    <nd ref="303274717"/>
    <nd ref="303274720"/>
    <nd ref="303274718"/>
    <nd ref="303274719"/>
    <nd ref="303274717"/>
    <tag k="addr:city" v="Rosche"/>
    <tag k="addr:country" v="DE"/>
    <tag k="addr:housenumber" v="12"/>
    <tag k="addr:postcode" v="29571"/>
    <tag k="addr:street" v="Kastanienallee"/>
    <tag k="building" v="yes"/>
    <tag k="created_by" v="Merkaartor 0.11"/>
  </way>
  <way id="27617744" version="1" timestamp="2008-10-09T11:30:48Z" uid="43863" user="Rundling" changeset="183632">
    <nd ref="303274721"/>
    <nd ref="303274724"/>
    <nd ref="303274722"/>
    <nd ref="303274723"/>
    <nd ref="303274721"/>
    <tag k="addr:city" v="Rosche"/>
    <tag k="addr:housenumber" v="10"/>
    <tag k="addr:postcode" v="29571"/>
    <tag k="addr:street" v="Kastanienallee"/>
    <tag k="building" v="yes"/>
    <tag k="created_by" v="Merkaartor 0.11"/>
  </way>
  <way id="27617744" version="2" timestamp="2009-03-02T14:00:35Z" uid="43863" user="Rundling" changeset="721985">
    <nd ref="303274721"/>
    <nd ref="303274724"/>
    <nd ref="303274722"/>
    <nd ref="303274723"/>
    <nd ref="303274721"/>
    <tag k="addr:city" v="Rosche"/>
    <tag k="addr:country" v="DE"/>
    <tag k="addr:housenumber" v="10"/>
    <tag k="addr:postcode" v="29571"/>
    <tag k="addr:street" v="Kastanienallee"/>
    <tag k="building" v="yes"/>
    <tag k="created_by" v="Merkaartor 0.11"/>
  </way>
  <way id="27617745" version="1" timestamp="2008-10-09T11:30:48Z" uid="43863" user="Rundling" changeset="183632">
    <nd ref="303274725"/>
    <nd ref="303274728"/>
    <nd ref="303274726"/>
    <nd ref="303274727"/>
    <nd ref="303274725"/>
    <tag k="addr:city" v="Rosche"/>
    <tag k="addr:housenumber" v="8"/>
    <tag k="addr:postcode" v="29571"/>
    <tag k="addr:street" v="Kastanienallee"/>
    <tag k="building" v="yes"/>
    <tag k="created_by" v="Merkaartor 0.11"/>
  </way>
  <way id="27617745" version="2" timestamp="2009-03-02T14:00:36Z" uid="43863" user="Rundling" changeset="721985">
    <nd ref="303274725"/>
    <nd ref="303274728"/>
    <nd ref="303274726"/>
    <nd ref="303274727"/>
    <nd ref="303274725"/>
    <tag k="addr:city" v="Rosche"/>
    <tag k="addr:country" v="DE"/>
    <tag k="addr:housenumber" v="8"/>
    <tag k="addr:postcode" v="29571"/>
    <tag k="addr:street" v="Kastanienallee"/>
    <tag k="building" v="yes"/>
    <tag k="created_by" v="Merkaartor 0.11"/>
  </way>
  <way id="27617746" version="1" timestamp="2008-10-09T11:30:49Z" uid="43863" user="Rundling" changeset="183632">
    <nd ref="303274729"/>
    <nd ref="303274744"/>
    <nd ref="303274735"/>
    <nd ref="303274739"/>
    <nd ref="303274729"/>
    <tag k="addr:city" v="Rosche"/>
    <tag k="addr:housenumber" v="4"/>
    <tag k="addr:postcode" v="29571"/>
    <tag k="addr:street" v="Kastanienallee"/>
    <tag k="building" v="yes"/>
    <tag k="created_by" v="Merkaartor 0.11"/>
  </way>
  <way id="27617746" version="2" timestamp="2009-03-02T14:00:35Z" uid="43863" user="Rundling" changeset="721985">
    <nd ref="303274729"/>
    <nd ref="303274744"/>
    <nd ref="303274735"/>
    <nd ref="303274739"/>
    <nd ref="303274729"/>
    <tag k="addr:city" v="Rosche"/>
    <tag k="addr:country" v="DE"/>
    <tag k="addr:housenumber" v="4"/>
    <tag k="addr:postcode" v="29571"/>
    <tag k="addr:street" v="Kastanienallee"/>
    <tag k="building" v="yes"/>
    <tag k="created_by" v="Merkaartor 0.11"/>
  </way>
  <way id="27617747" version="1" timestamp="2008-10-09T11:30:49Z" uid="43863" user="Rundling" changeset="183632">
    <nd ref="303274746"/>
    <nd ref="303274749"/>
    <nd ref="303274747"/>
    <nd ref="303274748"/>
    <nd ref="303274746"/>
    <tag k="addr:city" v="Rosche"/>
    <tag k="addr:housenumber" v="2"/>
    <tag k="addr:postcode" v="29571"/>
    <tag k="addr:street" v="Kastanienallee"/>
    <tag k="building" v="yes"/>
    <tag k="created_by" v="Merkaartor 0.11"/>
  </way>
  <way id="27617747" version="2" timestamp="2009-03-02T14:00:35Z" uid="43863" user="Rundling" changeset="721985">
    <nd ref="303274746"/>
    <nd ref="303274749"/>
    <nd ref="303274747"/>
    <nd ref="303274748"/>
    <nd ref="303274746"/>
    <tag k="addr:city" v="Rosche"/>
    <tag k="addr:country" v="DE"/>
    <tag k="addr:housenumber" v="2"/>
    <tag k="addr:postcode" v="29571"/>
    <tag k="addr:street" v="Kastanienallee"/>
    <tag k="building" v="yes"/>
    <tag k="created_by" v="Merkaartor 0.11"/>
  </way>
  <way id="27617754" version="2" timestamp="2010-02-14T17:13:14Z" uid="74617" user="JohnSmith" changeset="3875836">
    <nd ref="303274804"/>
    <nd ref="303274805"/>
    <nd ref="303274806"/>
    <nd ref="303274807"/>
    <nd ref="303274804"/>
    <tag k="name" v="Merthyr Village"/>
    <tag k="shop" v="supermarket"/>
  </way>
  <way id="27617755" version="3" timestamp="2010-07-09T06:39:39Z" uid="74617" user="JohnSmith" changeset="5171134">
    <nd ref="303274796"/>
    <nd ref="303274812"/>
    <tag k="highway" v="residential"/>
    <tag k="maxspeed" v="50"/>
    <tag k="maxspeed:source" v="default residential speed limit in Australia"/>
    <tag k="name" v="Alfred Street"/>
  </way>
  <way id="27617763" version="2" timestamp="2010-07-09T06:36:18Z" uid="74617" user="JohnSmith" changeset="5171134">
    <nd ref="303274793"/>
    <nd ref="303274907"/>
    <tag k="highway" v="residential"/>
    <tag k="maxspeed" v="50"/>
    <tag k="maxspeed:source" v="default residential speed limit in Australia"/>
    <tag k="name" v="Queen Street"/>
  </way>
  <way id="27617848" version="1" timestamp="2008-10-09T11:41:01Z" uid="66674" user="GunnarSchmidt" changeset="202050">
    <nd ref="303277710"/>
    <nd ref="303277711"/>
    <nd ref="303277712"/>
    <nd ref="303277713"/>
    <nd ref="303277714"/>
    <nd ref="303277716"/>
    <tag k="highway" v="unclassified"/>
    <tag k="name" v="Menninghausener Straße"/>
  </way>
  <way id="27617849" version="1" timestamp="2008-10-09T11:41:01Z" uid="66674" user="GunnarSchmidt" changeset="202050">
    <nd ref="303277716"/>
    <nd ref="303277717"/>
    <nd ref="303277718"/>
    <nd ref="303277719"/>
    <nd ref="303277721"/>
    <nd ref="303277722"/>
    <nd ref="303277723"/>
    <nd ref="303277724"/>
    <tag k="highway" v="unclassified"/>
    <tag k="name" v="Alte Holzstraße"/>
  </way>
  <way id="27617858" version="5" timestamp="2009-07-25T04:15:27Z" uid="74617" user="JohnSmith" changeset="1930637">
    <nd ref="303278025"/>
    <nd ref="303278037"/>
    <nd ref="303278158"/>
    <nd ref="303278159"/>
    <nd ref="303278160"/>
    <tag k="highway" v="residential"/>
    <tag k="is_in" v="Gilberton,South Australia,Australia"/>
    <tag k="maxspeed" v="50"/>
    <tag k="name" v="Buckingham Street"/>
    <tag k="postal_code" v="5081"/>
  </way>
</osm>
