<?xml version='1.0' encoding='UTF-8'?>
<osm version="0.6" generator="libosmium/2.20.0">
  <way id="27675048" version="4" timestamp="2011-02-06T21:24:21Z" uid="6269" user="Mueck" changeset="7210034">
    <nd ref="412532"/>
    <nd ref="1139810910"/>
    <nd ref="425340186"/>
    <nd ref="1139810818"/>
    <nd ref="15843138"/>
    <tag k="highway" v="secondary"/>
    <tag k="name" v="Pforzheimer Straße"/>
  </way>
  <way id="27675049" version="3" timestamp="2009-05-24T13:50:19Z" uid="6269" user="Mueck" changeset="1305826">
    <nd ref="526198"/>
    <nd ref="526199"/>
    <nd ref="526200"/>
    <nd ref="410563086"/>
    <nd ref="21421021"/>
    <tag k="created_by" v="JOSM"/>
    <tag k="highway" v="secondary"/>
    <tag k="name" v="Durlacher Allee"/>
    <tag k="oneway" v="yes"/>
  </way>
  <way id="27675049" version="4" timestamp="2009-05-24T13:50:57Z" uid="6269" user="Mueck" changeset="1305826">
    <nd ref="526198"/>
    <nd ref="526199"/>
    <nd ref="526200"/>
    <nd ref="410563086"/>
    <nd ref="21421021"/>
    <tag k="created_by" v="JOSM"/>
    <tag k="cycleway" v="track"/>
    <tag k="highway" v="secondary"/>
    <tag k="name" v="Durlacher Allee"/>
    <tag k="oneway" v="yes"/>
  </way>
  <way id="27675049" version="6" timestamp="2011-02-06T02:32:41Z" uid="6269" user="Mueck" changeset="7199360">
    <nd ref="526198"/>
    <nd ref="425340207"/>
    <nd ref="1138424876"/>
    <nd ref="526199"/>
    <nd ref="526200"/>
    <nd ref="410563086"/>
    <nd ref="21421021"/>
    <tag k="cycleway" v="track"/>
    <tag k="highway" v="secondary"/>
    <tag k="name" v="Durlacher Allee"/>
    <tag k="oneway" v="yes"/>
  </way>
  <way id="27675051" version="4" timestamp="2011-02-06T02:30:39Z" uid="6269" user="Mueck" changeset="7199360">
    <nd ref="379528566"/>
    <nd ref="1138422889"/>
    <nd ref="1138422882"/>
    <nd ref="247865061"/>
    <nd ref="1138422885"/>
    <nd ref="526198"/>
    <tag k="highway" v="residential"/>
    <tag k="name" v="Willmar-Schwabe-Straße"/>
    <tag k="oneway" v="yes"/>
  </way>
  <way id="27675052" version="3" timestamp="2009-05-24T13:51:27Z" uid="6269" user="Mueck" changeset="1305826">
    <nd ref="412532"/>
    <nd ref="379528572"/>
    <nd ref="526198"/>
    <tag k="created_by" v="JOSM"/>
    <tag k="cycleway" v="lane"/>
    <tag k="highway" v="secondary"/>
    <tag k="name" v="Durlacher Allee"/>
    <tag k="oneway" v="yes"/>
  </way>
  <way id="27675052" version="5" timestamp="2011-02-06T02:30:39Z" uid="6269" user="Mueck" changeset="7199360">
    <nd ref="412532"/>
    <nd ref="1138422892"/>
    <nd ref="379528572"/>
    <nd ref="526198"/>
    <tag k="cycleway" v="lane"/>
    <tag k="highway" v="secondary"/>
    <tag k="name" v="Durlacher Allee"/>
    <tag k="oneway" v="yes"/>
  </way>
  <way id="27675052" version="6" timestamp="2011-02-06T02:32:41Z" uid="6269" user="Mueck" changeset="7199360">
    <nd ref="412532"/>
    <nd ref="1138422892"/>
    <nd ref="1138424878"/>
    <nd ref="379528572"/>
    <nd ref="526198"/>
    <tag k="cycleway" v="lane"/>
    <tag k="highway" v="secondary"/>
    <tag k="name" v="Durlacher Allee"/>
    <tag k="oneway" v="yes"/>
  </way>
  <way id="27675052" version="7" timestamp="2011-02-06T21:24:21Z" uid="6269" user="Mueck" changeset="7210034">
    <nd ref="1139810985"/>
    <nd ref="1139810860"/>
    <nd ref="1139810814"/>
    <nd ref="15843137"/>
    <nd ref="412532"/>
    <nd ref="1139810863"/>
    <nd ref="1139810918"/>
    <nd ref="1138422892"/>
    <nd ref="1138424878"/>
    <nd ref="379528572"/>
    <nd ref="526198"/>
    <tag k="cycleway" v="lane"/>
    <tag k="highway" v="secondary"/>
    <tag k="name" v="Durlacher Allee"/>
    <tag k="oneway" v="yes"/>
  </way>
  <way id="27675052" version="8" timestamp="2011-02-06T21:56:51Z" uid="6269" user="Mueck" changeset="7210034">
    <nd ref="412533"/>
    <nd ref="1139869396"/>
    <nd ref="1139869175"/>
    <nd ref="1139869417"/>
    <nd ref="1139869305"/>
    <nd ref="1139869328"/>
    <nd ref="1139810985"/>
    <nd ref="1139810860"/>
    <nd ref="1139810814"/>
    <nd ref="15843137"/>
    <tag k="highway" v="residential"/>
    <tag k="maxspeed" v="30"/>
    <tag k="name" v="Pfinztalstraße"/>
    <tag k="oneway" v="yes"/>
  </way>
  <way id="27675054" version="5" timestamp="2009-05-24T13:45:28Z" uid="6269" user="Mueck" changeset="1305649">
    <nd ref="31099252"/>
    <nd ref="31099253"/>
    <nd ref="31099254"/>
    <nd ref="31099255"/>
    <nd ref="31099256"/>
    <nd ref="31099257"/>
    <nd ref="31099258"/>
    <nd ref="247865331"/>
    <nd ref="330978868"/>
    <nd ref="330978861"/>
    <nd ref="330978878"/>
    <nd ref="330978881"/>
    <nd ref="21519223"/>
    <tag k="created_by" v="Potlatch 0.7b"/>
    <tag k="foot" v="designated"/>
    <tag k="highway" v="cycleway"/>
    <tag k="oneway" v="yes"/>
  </way>
  <way id="27675054" version="6" timestamp="2009-05-24T13:45:59Z" uid="6269" user="Mueck" changeset="1305649">
    <nd ref="31099252"/>
    <nd ref="31099253"/>
    <nd ref="31099254"/>
    <nd ref="31099255"/>
    <nd ref="31099256"/>
    <nd ref="31099257"/>
    <nd ref="31099258"/>
    <nd ref="247865331"/>
    <nd ref="330978868"/>
    <nd ref="330978861"/>
    <nd ref="330978878"/>
    <nd ref="330978881"/>
    <nd ref="21519223"/>
    <nd ref="410561234"/>
    <tag k="created_by" v="Potlatch 0.7b"/>
    <tag k="foot" v="designated"/>
    <tag k="highway" v="cycleway"/>
    <tag k="oneway" v="yes"/>
  </way>
  <way id="27675054" version="7" timestamp="2009-05-24T13:46:11Z" uid="6269" user="Mueck" changeset="1305649">
    <nd ref="31099252"/>
    <nd ref="31099253"/>
    <nd ref="31099254"/>
    <nd ref="31099255"/>
    <nd ref="31099256"/>
    <nd ref="31099257"/>
    <nd ref="31099258"/>
    <nd ref="247865331"/>
    <nd ref="330978868"/>
    <nd ref="330978861"/>
    <nd ref="330978878"/>
    <nd ref="330978881"/>
    <nd ref="21519223"/>
    <nd ref="410561234"/>
    <nd ref="25523856"/>
    <tag k="created_by" v="Potlatch 0.7b"/>
    <tag k="foot" v="designated"/>
    <tag k="highway" v="cycleway"/>
    <tag k="oneway" v="yes"/>
  </way>
  <way id="27675054" version="8" timestamp="2009-05-24T13:46:38Z" uid="6269" user="Mueck" changeset="1305649">
    <nd ref="31099252"/>
    <nd ref="31099253"/>
    <nd ref="31099254"/>
    <nd ref="31099255"/>
    <nd ref="31099256"/>
    <nd ref="31099257"/>
    <nd ref="31099258"/>
    <nd ref="247865331"/>
    <nd ref="330978868"/>
    <nd ref="25970487"/>
    <tag k="created_by" v="Potlatch 0.7b"/>
    <tag k="foot" v="designated"/>
    <tag k="highway" v="cycleway"/>
    <tag k="oneway" v="yes"/>
  </way>
  <way id="27675054" version="11" timestamp="2011-02-06T01:52:28Z" uid="6269" user="Mueck" changeset="7199360">
    <nd ref="31099252"/>
    <nd ref="1138378417"/>
    <nd ref="1138378410"/>
    <nd ref="31099253"/>
    <nd ref="31099254"/>
    <nd ref="31099255"/>
    <nd ref="31099256"/>
    <nd ref="31099257"/>
    <nd ref="31099258"/>
    <nd ref="247865331"/>
    <nd ref="330978868"/>
    <nd ref="25970487"/>
    <tag k="bicycle" v="designated"/>
    <tag k="foot" v="designated"/>
    <tag k="highway" v="cycleway"/>
    <tag k="oneway" v="yes"/>
  </way>
  <way id="27675058" version="2" timestamp="2009-05-02T08:30:00Z" uid="6269" user="Mueck" changeset="1045440">
    <nd ref="17199032"/>
    <nd ref="526177"/>
    <tag k="created_by" v="JOSM"/>
    <tag k="highway" v="secondary"/>
    <tag k="layer" v="1"/>
    <tag k="name" v="Durlacher Allee"/>
    <tag k="oneway" v="yes"/>
  </way>
  <way id="27675058" version="3" timestamp="2009-05-24T13:48:18Z" uid="6269" user="Mueck" changeset="1305803">
    <nd ref="17199032"/>
    <nd ref="526177"/>
    <tag k="created_by" v="JOSM"/>
    <tag k="cycleway" v="track"/>
    <tag k="highway" v="secondary"/>
    <tag k="layer" v="1"/>
    <tag k="name" v="Durlacher Allee"/>
    <tag k="oneway" v="yes"/>
  </way>
  <way id="27675058" version="5" timestamp="2011-02-06T02:10:20Z" uid="6269" user="Mueck" changeset="7199360">
    <nd ref="17199032"/>
    <nd ref="1138392209"/>
    <nd ref="526177"/>
    <tag k="cycleway" v="track"/>
    <tag k="highway" v="secondary"/>
    <tag k="layer" v="1"/>
    <tag k="name" v="Durlacher Allee"/>
    <tag k="oneway" v="yes"/>
  </way>
  <way id="27675059" version="4" timestamp="2011-02-06T01:52:28Z" uid="6269" user="Mueck" changeset="7199360">
    <nd ref="247865330"/>
    <nd ref="1138378506"/>
    <nd ref="1138378427"/>
    <nd ref="1138378460"/>
    <tag k="highway" v="unclassified"/>
    <tag k="layer" v="-1"/>
    <tag k="name" v="Alte Karlsruher Straße"/>
    <tag k="tunnel" v="yes"/>
  </way>
  <way id="27675125" version="7" timestamp="2010-12-30T20:56:53Z" uid="9581" user="Lobelt" changeset="6813959">
    <nd ref="307693740"/>
    <nd ref="303939955"/>
    <nd ref="1073791849"/>
    <nd ref="14208428"/>
    <nd ref="307693744"/>
    <tag k="bridge" v="yes"/>
    <tag k="highway" v="motorway"/>
    <tag k="lanes" v="2"/>
    <tag k="layer" v="1"/>
    <tag k="name" v="Talbrücke Altwipfelgrund"/>
    <tag k="oneway" v="yes"/>
    <tag k="ref" v="A 71"/>
  </way>
  <way id="27675127" version="6" timestamp="2010-12-30T20:56:25Z" uid="9581" user="Lobelt" changeset="6813959">
    <nd ref="307693742"/>
    <nd ref="20916483"/>
    <nd ref="1073791621"/>
    <nd ref="303939954"/>
    <nd ref="307693738"/>
    <tag k="bridge" v="yes"/>
    <tag k="highway" v="motorway"/>
    <tag k="lanes" v="2"/>
    <tag k="layer" v="1"/>
    <tag k="maxspeed" v="no"/>
    <tag k="name" v="Talbrücke Altwipfelgrund"/>
    <tag k="oneway" v="yes"/>
    <tag k="ref" v="A 71"/>
  </way>
  <way id="27675149" version="14" timestamp="2011-03-06T08:13:08Z" uid="4467" user="Rosscoe" changeset="7470443">
    <nd ref="303940125"/>
    <nd ref="566514823"/>
    <nd ref="303940131"/>
    <nd ref="566514119"/>
    <nd ref="566514120"/>
    <nd ref="303940133"/>
    <nd ref="303940140"/>
    <nd ref="303940154"/>
    <nd ref="303940162"/>
    <nd ref="303940164"/>
    <nd ref="303940177"/>
    <nd ref="303940295"/>
    <nd ref="567270286"/>
    <nd ref="612902031"/>
    <nd ref="612902032"/>
    <nd ref="303940296"/>
    <tag k="highway" v="service"/>
    <tag k="name" v="Clements Drive"/>
  </way>
  <way id="27675185" version="1" timestamp="2008-10-12T11:04:28Z" uid="65847" user="LKK" changeset="272169">
    <nd ref="303940298"/>
    <nd ref="303940299"/>
    <nd ref="303940300"/>
    <nd ref="303940301"/>
    <nd ref="303940302"/>
    <nd ref="303940303"/>
    <tag k="highway" v="footway"/>
    <tag k="layer" v="-1"/>
    <tag k="tunnel" v="yes"/>
  </way>
  <way id="27675185" version="2" timestamp="2008-10-12T11:30:20Z" uid="65847" user="LKK" changeset="272169">
    <nd ref="303940298"/>
    <nd ref="303940299"/>
    <nd ref="303940300"/>
    <nd ref="303940301"/>
    <nd ref="303940302"/>
    <nd ref="303940303"/>
    <tag k="highway" v="footway"/>
    <tag k="layer" v="-1"/>
    <tag k="note" v="подлез"/>
    <tag k="tunnel" v="yes"/>
  </way>
  <way id="27675188" version="1" timestamp="2008-10-12T11:04:29Z" uid="65847" user="LKK" changeset="272169">
    <nd ref="303940302"/>
    <nd ref="303940304"/>
    <nd ref="303940308"/>
    <nd ref="303940299"/>
    <tag k="highway" v="footway"/>
    <tag k="layer" v="-1"/>
    <tag k="tunnel" v="yes"/>
  </way>
  <way id="27675188" version="2" timestamp="2008-10-12T11:30:21Z" uid="65847" user="LKK" changeset="272169">
    <nd ref="303940302"/>
    <nd ref="303940304"/>
    <nd ref="303940308"/>
    <nd ref="303940299"/>
    <tag k="highway" v="footway"/>
    <tag k="layer" v="-1"/>
    <tag k="note" v="подлез"/>
    <tag k="tunnel" v="yes"/>
  </way>
  <way id="27675226" version="10" timestamp="2011-03-06T08:12:39Z" uid="4467" user="Rosscoe" changeset="7470443">
    <nd ref="303940296"/>
    <nd ref="612897537"/>
    <nd ref="612897538"/>
    <nd ref="303940671"/>
    <nd ref="612897539"/>
    <nd ref="612897540"/>
    <nd ref="567270017"/>
    <nd ref="303940672"/>
    <nd ref="567270020"/>
    <nd ref="567269918"/>
    <nd ref="612897088"/>
    <nd ref="567269891"/>
    <nd ref="303940673"/>
    <nd ref="567269876"/>
    <nd ref="612897761"/>
    <nd ref="1188811925"/>
    <tag k="highway" v="service"/>
    <tag k="source" v="nearmap"/>
  </way>
  <way id="27675445" version="1" timestamp="2008-10-12T11:21:51Z" uid="65847" user="LKK" changeset="272169">
    <nd ref="303942550"/>
    <nd ref="303942578"/>
    <nd ref="303942590"/>
    <nd ref="303942597"/>
    <nd ref="303942584"/>
    <nd ref="303942566"/>
    <nd ref="303942572"/>
    <nd ref="303942555"/>
    <nd ref="303942550"/>
    <tag k="building" v="yes"/>
  </way>
  <way id="27675446" version="1" timestamp="2008-10-12T11:21:52Z" uid="65847" user="LKK" changeset="272169">
    <nd ref="303942603"/>
    <nd ref="303942615"/>
    <nd ref="303942623"/>
    <nd ref="303942645"/>
    <nd ref="303942651"/>
    <nd ref="303942660"/>
    <nd ref="303942661"/>
    <nd ref="303942653"/>
    <nd ref="303942654"/>
    <nd ref="303942662"/>
    <nd ref="303942663"/>
    <nd ref="303942609"/>
    <nd ref="303942603"/>
    <tag k="building" v="yes"/>
  </way>
  <way id="27675447" version="1" timestamp="2008-10-12T11:21:53Z" uid="65847" user="LKK" changeset="272169">
    <nd ref="303942664"/>
    <nd ref="303942665"/>
    <nd ref="303942666"/>
    <tag k="highway" v="footway"/>
    <tag k="layer" v="-1"/>
    <tag k="tunnel" v="yes"/>
  </way>
  <way id="27675447" version="2" timestamp="2008-10-12T11:30:22Z" uid="65847" user="LKK" changeset="272169">
    <nd ref="303942664"/>
    <nd ref="303942665"/>
    <nd ref="303942666"/>
    <tag k="highway" v="footway"/>
    <tag k="layer" v="-1"/>
    <tag k="note" v="подлез"/>
    <tag k="tunnel" v="yes"/>
  </way>
  <way id="27675515" version="3" timestamp="2009-07-17T07:47:40Z" uid="22585" user="soudceTi" changeset="1851599">
    <nd ref="288346029"/>
    <nd ref="303806405"/>
    <nd ref="288346028"/>
    <nd ref="288346058"/>
    <nd ref="306487976"/>
    <nd ref="300787644"/>
    <tag k="highway" v="living_street"/>
    <tag k="name" v="třída Míru"/>
    <tag k="source" v="uhul:ortofoto"/>
  </way>
  <way id="27675516" version="2" timestamp="2009-07-17T08:03:23Z" uid="22585" user="soudceTi" changeset="1851599">
    <nd ref="288346029"/>
    <nd ref="303943024"/>
    <tag k="highway" v="living_street"/>
    <tag k="source" v="uhul:ortofoto"/>
  </way>
  <way id="27675595" version="1" timestamp="2008-10-12T11:27:38Z" uid="8619" user="cetest" changeset="277118">
    <nd ref="303943668"/>
    <nd ref="303943652"/>
    <tag k="AND:importance_level" v="3"/>
    <tag k="AND_nosr_r" v="15106331"/>
    <tag k="highway" v="secondary"/>
    <tag k="name" v="Provincialeweg"/>
    <tag k="oneway" v="yes"/>
    <tag k="ref" v="N487"/>
  </way>
  <way id="27675597" version="1" timestamp="2008-10-12T11:27:39Z" uid="8619" user="cetest" changeset="277118">
    <nd ref="303943655"/>
    <nd ref="303943703"/>
    <tag k="AND:importance_level" v="3"/>
    <tag k="AND_nosr_r" v="15106331"/>
    <tag k="bridge" v="yes"/>
    <tag k="highway" v="secondary"/>
    <tag k="layer" v="1"/>
    <tag k="name" v="Provincialeweg"/>
    <tag k="oneway" v="yes"/>
    <tag k="ref" v="N487"/>
  </way>
  <way id="27675597" version="2" timestamp="2008-10-12T11:32:03Z" uid="8619" user="cetest" changeset="277118">
    <nd ref="303943655"/>
    <nd ref="303944644"/>
    <tag k="AND:importance_level" v="3"/>
    <tag k="AND_nosr_r" v="15106331"/>
    <tag k="highway" v="secondary"/>
    <tag k="name" v="Provincialeweg"/>
    <tag k="oneway" v="yes"/>
    <tag k="ref" v="N487"/>
  </way>
  <way id="27675600" version="1" timestamp="2008-10-12T11:27:40Z" uid="8619" user="cetest" changeset="277118">
    <nd ref="303943679"/>
    <nd ref="303943685"/>
    <nd ref="303943663"/>
    <nd ref="303943665"/>
    <nd ref="303943668"/>
    <nd ref="303943701"/>
    <nd ref="303943672"/>
    <nd ref="303943674"/>
    <nd ref="303943679"/>
    <tag k="highway" v="secondary"/>
  </way>
  <way id="27675603" version="1" timestamp="2008-10-12T11:27:41Z" uid="8619" user="cetest" changeset="277118">
    <nd ref="43730167"/>
    <nd ref="303943685"/>
    <tag k="AND:importance_level" v="3"/>
    <tag k="AND_nosr_r" v="15106332"/>
    <tag k="highway" v="secondary"/>
    <tag k="name" v="Energieweg"/>
    <tag k="oneway" v="yes"/>
    <tag k="ref" v="N487"/>
  </way>
  <way id="27675603" version="2" timestamp="2008-10-12T19:35:12Z" uid="8619" user="cetest" changeset="281434">
    <nd ref="43730167"/>
    <nd ref="304084649"/>
    <nd ref="303943685"/>
    <tag k="AND:importance_level" v="3"/>
    <tag k="AND_nosr_r" v="15106332"/>
    <tag k="highway" v="secondary"/>
    <tag k="name" v="Energieweg"/>
    <tag k="oneway" v="yes"/>
    <tag k="ref" v="N487"/>
  </way>
  <way id="27675606" version="1" timestamp="2008-10-12T11:27:42Z" uid="8619" user="cetest" changeset="277118">
    <nd ref="303943679"/>
    <nd ref="43730167"/>
    <tag k="AND:importance_level" v="3"/>
    <tag k="AND_nosr_r" v="15106332"/>
    <tag k="highway" v="secondary"/>
    <tag k="name" v="Energieweg"/>
    <tag k="oneway" v="yes"/>
    <tag k="ref" v="N487"/>
  </way>
  <way id="27675606" version="2" timestamp="2008-10-12T19:35:14Z" uid="8619" user="cetest" changeset="281434">
    <nd ref="303943679"/>
    <nd ref="304084644"/>
    <nd ref="43730167"/>
    <tag k="AND:importance_level" v="3"/>
    <tag k="AND_nosr_r" v="15106332"/>
    <tag k="highway" v="secondary"/>
    <tag k="name" v="Energieweg"/>
    <tag k="oneway" v="yes"/>
    <tag k="ref" v="N487"/>
  </way>
  <way id="27675608" version="1" timestamp="2008-10-12T11:27:43Z" uid="8619" user="cetest" changeset="277118">
    <nd ref="303943652"/>
    <nd ref="303943655"/>
    <tag k="AND:importance_level" v="3"/>
    <tag k="AND_nosr_r" v="15106331"/>
    <tag k="bridge" v="yes"/>
    <tag k="highway" v="secondary"/>
    <tag k="layer" v="1"/>
    <tag k="name" v="Provincialeweg"/>
    <tag k="oneway" v="yes"/>
    <tag k="ref" v="N487"/>
  </way>
  <way id="27675608" version="2" timestamp="2008-10-12T11:32:04Z" uid="8619" user="cetest" changeset="277118">
    <nd ref="303943652"/>
    <nd ref="303944642"/>
    <tag k="AND:importance_level" v="3"/>
    <tag k="AND_nosr_r" v="15106331"/>
    <tag k="bridge" v="yes"/>
    <tag k="highway" v="secondary"/>
    <tag k="layer" v="1"/>
    <tag k="name" v="Provincialeweg"/>
    <tag k="oneway" v="yes"/>
    <tag k="ref" v="N487"/>
  </way>
  <way id="27675611" version="1" timestamp="2008-10-12T11:27:44Z" uid="8619" user="cetest" changeset="277118">
    <nd ref="303943655"/>
    <nd ref="43732295"/>
    <tag k="AND:importance_level" v="3"/>
    <tag k="AND_nosr_r" v="15106331"/>
    <tag k="highway" v="secondary"/>
    <tag k="name" v="Provincialeweg"/>
    <tag k="ref" v="N487"/>
  </way>
  <way id="27675614" version="1" timestamp="2008-10-12T11:27:45Z" uid="8619" user="cetest" changeset="277118">
    <nd ref="303943703"/>
    <nd ref="303943701"/>
    <tag k="AND:importance_level" v="3"/>
    <tag k="AND_nosr_r" v="15106331"/>
    <tag k="highway" v="secondary"/>
    <tag k="name" v="Provincialeweg"/>
    <tag k="oneway" v="yes"/>
    <tag k="ref" v="N487"/>
  </way>
  <way id="27675614" version="2" timestamp="2008-10-21T19:55:00Z" uid="8619" user="cetest" changeset="487968">
    <nd ref="43729878"/>
    <nd ref="303943701"/>
    <tag k="AND:importance_level" v="3"/>
    <tag k="AND_nosr_r" v="15106331"/>
    <tag k="highway" v="secondary"/>
    <tag k="name" v="Provincialeweg"/>
    <tag k="oneway" v="yes"/>
    <tag k="ref" v="N487"/>
  </way>
  <way id="27675617" version="1" timestamp="2008-10-12T11:27:46Z" uid="8619" user="cetest" changeset="277118">
    <nd ref="303943717"/>
    <nd ref="43737636"/>
    <tag k="AND:importance_level" v="5"/>
    <tag k="AND_nosr_r" v="15106370"/>
    <tag k="highway" v="unclassified"/>
  </way>
  <way id="27675619" version="1" timestamp="2008-10-12T11:27:47Z" uid="8619" user="cetest" changeset="277118">
    <nd ref="43731404"/>
    <nd ref="303943706"/>
    <nd ref="303943709"/>
    <nd ref="303943712"/>
    <nd ref="303943715"/>
    <nd ref="303943717"/>
    <tag k="AND:importance_level" v="5"/>
    <tag k="AND_nosr_r" v="15106369"/>
    <tag k="highway" v="unclassified"/>
  </way>
  <way id="27675622" version="1" timestamp="2008-10-12T11:27:48Z" uid="8619" user="cetest" changeset="277118">
    <nd ref="43729076"/>
    <nd ref="303943733"/>
    <nd ref="303943730"/>
    <nd ref="303943674"/>
    <tag k="AND:importance_level" v="4"/>
    <tag k="AND_nosr_r" v="15106336"/>
    <tag k="highway" v="tertiary"/>
    <tag k="name" v="Rijksstraatweg"/>
    <tag k="oneway" v="yes"/>
  </way>
  <way id="27675625" version="1" timestamp="2008-10-12T11:27:49Z" uid="8619" user="cetest" changeset="277118">
    <nd ref="303943672"/>
    <nd ref="303943729"/>
    <nd ref="303943732"/>
    <nd ref="43729076"/>
    <tag k="AND:importance_level" v="4"/>
    <tag k="AND_nosr_r" v="15106336"/>
    <tag k="highway" v="tertiary"/>
    <tag k="name" v="Rijksstraatweg"/>
    <tag k="oneway" v="yes"/>
  </way>
  <way id="27675701" version="1" timestamp="2008-10-12T11:32:00Z" uid="8619" user="cetest" changeset="277118">
    <nd ref="303944644"/>
    <nd ref="303943703"/>
    <tag k="AND:importance_level" v="3"/>
    <tag k="AND_nosr_r" v="15106331"/>
    <tag k="bridge" v="yes"/>
    <tag k="highway" v="secondary"/>
    <tag k="layer" v="1"/>
    <tag k="name" v="Provincialeweg"/>
    <tag k="oneway" v="yes"/>
    <tag k="ref" v="N487"/>
  </way>
  <way id="27675701" version="2" timestamp="2008-10-21T19:55:03Z" uid="8619" user="cetest" changeset="487968">
    <nd ref="303944644"/>
    <nd ref="43729878"/>
    <tag k="AND:importance_level" v="3"/>
    <tag k="AND_nosr_r" v="15106331"/>
    <tag k="bridge" v="yes"/>
    <tag k="highway" v="secondary"/>
    <tag k="layer" v="1"/>
    <tag k="name" v="Provincialeweg"/>
    <tag k="oneway" v="yes"/>
    <tag k="ref" v="N487"/>
  </way>
  <way id="27675702" version="1" timestamp="2008-10-12T11:32:01Z" uid="8619" user="cetest" changeset="277118">
    <nd ref="303944642"/>
    <nd ref="303943655"/>
    <tag k="AND:importance_level" v="3"/>
    <tag k="AND_nosr_r" v="15106331"/>
    <tag k="highway" v="secondary"/>
    <tag k="name" v="Provincialeweg"/>
    <tag k="oneway" v="yes"/>
    <tag k="ref" v="N487"/>
  </way>
  <way id="27675737" version="2" timestamp="2010-07-08T20:14:59Z" uid="74617" user="JohnSmith" changeset="5168730">
    <nd ref="303944942"/>
    <nd ref="303945059"/>
    <nd ref="303945060"/>
    <nd ref="303945061"/>
    <tag k="highway" v="residential"/>
    <tag k="maxspeed" v="50"/>
    <tag k="maxspeed:source" v="default residential speed limit in Australia"/>
    <tag k="name" v="Bundalohn Court"/>
  </way>
  <way id="27675770" version="2" timestamp="2009-11-22T09:43:46Z" uid="7617" user="Franc" changeset="3183632">
    <nd ref="247879207"/>
    <nd ref="568270398"/>
    <nd ref="568270395"/>
    <tag k="highway" v="unclassified"/>
  </way>
  <way id="27675802" version="5" timestamp="2010-07-08T20:19:11Z" uid="74617" user="JohnSmith" changeset="5168730">
    <nd ref="256659656"/>
    <nd ref="256659653"/>
    <nd ref="601157705"/>
    <nd ref="256659657"/>
    <tag k="highway" v="residential"/>
    <tag k="maxspeed" v="50"/>
    <tag k="maxspeed:source" v="default residential speed limit in Australia"/>
    <tag k="name" v="Blanche Street"/>
  </way>
  <way id="27675828" version="2" timestamp="2009-08-03T23:54:42Z" uid="4467" user="Rosscoe" changeset="2031131">
    <nd ref="255469342"/>
    <nd ref="255469343"/>
    <nd ref="255469344"/>
    <nd ref="255469335"/>
    <tag k="highway" v="residential"/>
    <tag k="name" v="Badenoch Avenue"/>
  </way>
  <way id="27675829" version="2" timestamp="2009-08-03T23:54:42Z" uid="4467" user="Rosscoe" changeset="2031131">
    <nd ref="255469341"/>
    <nd ref="255469342"/>
    <tag k="highway" v="residential"/>
    <tag k="name" v="Tomintoul Way"/>
  </way>
  <way id="27675831" version="4" timestamp="2010-07-08T20:14:07Z" uid="74617" user="JohnSmith" changeset="5168730">
    <nd ref="256659654"/>
    <nd ref="601157665"/>
    <nd ref="256659653"/>
    <nd ref="303946372"/>
    <tag k="highway" v="residential"/>
    <tag k="maxspeed" v="50"/>
    <tag k="maxspeed:source" v="default residential speed limit in Australia"/>
    <tag k="name" v="Market Street"/>
  </way>
  <way id="27675995" version="1" timestamp="2008-10-12T11:51:42Z" uid="67142" user="zottel" changeset="271655">
    <nd ref="303948281"/>
    <nd ref="303948282"/>
    <nd ref="303948283"/>
    <nd ref="303948284"/>
    <nd ref="303948281"/>
    <tag k="leisure" v="playground"/>
  </way>
</osm>
