<?xml version='1.0' encoding='UTF-8'?>
<osm version="0.6" generator="libosmium/2.20.0">
  <way id="27832135" version="3" timestamp="2009-05-07T21:45:26Z" uid="20587" user="balrog-kun" changeset="1112411">
    <nd ref="300514519"/>
    <nd ref="300514520"/>
    <tag k="bridge" v="true"/>
    <tag k="created_by" v="Potlatch 0.10c"/>
    <tag k="level" v="1"/>
    <tag k="name" v="Linia Katowice-Legnica"/>
    <tag k="railway" v="rail"/>
    <tag k="ref" v="137"/>
  </way>
  <way id="27832135" version="4" timestamp="2009-11-11T20:08:04Z" uid="20587" user="balrog-kun" changeset="3093224">
    <nd ref="300514519"/>
    <nd ref="300514520"/>
    <tag k="bridge" v="true"/>
    <tag k="level" v="1"/>
    <tag k="railway" v="rail"/>
  </way>
  <way id="27832136" version="4" timestamp="2009-05-07T21:45:26Z" uid="20587" user="balrog-kun" changeset="1112411">
    <nd ref="300514520"/>
    <nd ref="300514521"/>
    <nd ref="300514522"/>
    <nd ref="300514523"/>
    <nd ref="300514524"/>
    <nd ref="300514525"/>
    <nd ref="300514526"/>
    <nd ref="300514527"/>
    <nd ref="300514528"/>
    <nd ref="300514529"/>
    <nd ref="300514530"/>
    <nd ref="300514531"/>
    <nd ref="300514532"/>
    <nd ref="300514533"/>
    <nd ref="300514534"/>
    <nd ref="300514535"/>
    <nd ref="300514536"/>
    <nd ref="300514537"/>
    <nd ref="300514538"/>
    <nd ref="300514540"/>
    <nd ref="300514541"/>
    <nd ref="300514542"/>
    <nd ref="300514543"/>
    <nd ref="373288848"/>
    <nd ref="300514544"/>
    <nd ref="280050793"/>
    <nd ref="372411880"/>
    <nd ref="280050795"/>
    <nd ref="288601704"/>
    <tag k="created_by" v="Potlatch 0.10c"/>
    <tag k="name" v="Linia Katowice-Legnica"/>
    <tag k="railway" v="rail"/>
    <tag k="ref" v="137"/>
  </way>
  <way id="27832136" version="6" timestamp="2009-11-11T20:08:05Z" uid="20587" user="balrog-kun" changeset="3093224">
    <nd ref="300514520"/>
    <nd ref="300514521"/>
    <tag k="railway" v="rail"/>
  </way>
  <way id="27832140" version="3" timestamp="2010-07-09T04:14:15Z" uid="74617" user="JohnSmith" changeset="5170825">
    <nd ref="305577937"/>
    <nd ref="305577953"/>
    <nd ref="305576849"/>
    <tag k="highway" v="residential"/>
    <tag k="maxspeed" v="50"/>
    <tag k="maxspeed:source" v="default residential speed limit in Australia"/>
    <tag k="name" v="Riverina Road"/>
    <tag k="source" v="survey"/>
  </way>
  <way id="27832141" version="3" timestamp="2010-07-09T04:11:03Z" uid="74617" user="JohnSmith" changeset="5170825">
    <nd ref="305577954"/>
    <nd ref="305577931"/>
    <nd ref="305577937"/>
    <nd ref="305577944"/>
    <nd ref="305577951"/>
    <tag k="highway" v="residential"/>
    <tag k="maxspeed" v="50"/>
    <tag k="maxspeed:source" v="default residential speed limit in Australia"/>
    <tag k="name" v="Reichelt Avenue"/>
    <tag k="source" v="survey"/>
  </way>
  <way id="27832234" version="5" timestamp="2010-07-09T03:59:20Z" uid="74617" user="JohnSmith" changeset="5170825">
    <nd ref="305578980"/>
    <nd ref="305578977"/>
    <nd ref="305578974"/>
    <nd ref="305583435"/>
    <nd ref="305578970"/>
    <nd ref="305578967"/>
    <nd ref="305578962"/>
    <nd ref="611965833"/>
    <nd ref="305578959"/>
    <tag k="highway" v="residential"/>
    <tag k="maxspeed" v="50"/>
    <tag k="maxspeed:source" v="default residential speed limit in Australia"/>
    <tag k="name" v="Buena Vista Drive"/>
    <tag k="source" v="survey"/>
  </way>
  <way id="27832453" version="5" timestamp="2010-07-09T04:04:23Z" uid="74617" user="JohnSmith" changeset="5170825">
    <nd ref="305586757"/>
    <nd ref="305586758"/>
    <nd ref="305586759"/>
    <nd ref="305586760"/>
    <nd ref="305586761"/>
    <nd ref="305586762"/>
    <nd ref="305582453"/>
    <nd ref="305582454"/>
    <nd ref="305582455"/>
    <nd ref="305578473"/>
    <tag k="highway" v="residential"/>
    <tag k="maxspeed" v="50"/>
    <tag k="maxspeed:source" v="default residential speed limit in Australia"/>
    <tag k="name" v="Napier Crescent"/>
    <tag k="source" v="survey"/>
  </way>
  <way id="27832456" version="3" timestamp="2010-07-09T04:00:23Z" uid="74617" user="JohnSmith" changeset="5170825">
    <nd ref="305582466"/>
    <nd ref="305582467"/>
    <nd ref="251464652"/>
    <tag k="highway" v="residential"/>
    <tag k="maxspeed" v="50"/>
    <tag k="maxspeed:source" v="default residential speed limit in Australia"/>
    <tag k="name" v="Kirwana Grove"/>
    <tag k="source" v="survey"/>
  </way>
  <way id="27832573" version="3" timestamp="2010-07-09T04:04:06Z" uid="74617" user="JohnSmith" changeset="5170825">
    <nd ref="305583109"/>
    <nd ref="305583110"/>
    <nd ref="305583111"/>
    <nd ref="305583112"/>
    <nd ref="305583113"/>
    <nd ref="305583114"/>
    <nd ref="305583115"/>
    <tag k="highway" v="residential"/>
    <tag k="maxspeed" v="50"/>
    <tag k="maxspeed:source" v="default residential speed limit in Australia"/>
    <tag k="name" v="Kirwana Grove"/>
    <tag k="source" v="survey"/>
  </way>
  <way id="27832863" version="2" timestamp="2010-07-08T04:36:35Z" uid="74617" user="JohnSmith" changeset="5163091">
    <nd ref="304937151"/>
    <nd ref="305583638"/>
    <nd ref="305583649"/>
    <nd ref="305583655"/>
    <nd ref="305583693"/>
    <nd ref="305583694"/>
    <tag k="highway" v="residential"/>
    <tag k="maxspeed" v="50"/>
    <tag k="maxspeed:source" v="default residential speed limit in Australia"/>
    <tag k="name" v="Ferodale Road"/>
    <tag k="surface" v="paved"/>
  </way>
  <way id="27832865" version="5" timestamp="2010-07-08T04:36:33Z" uid="74617" user="JohnSmith" changeset="5163091">
    <nd ref="305583694"/>
    <nd ref="305583710"/>
    <nd ref="305583721"/>
    <nd ref="305583726"/>
    <nd ref="305583739"/>
    <nd ref="305583856"/>
    <nd ref="305587986"/>
    <tag k="highway" v="residential"/>
    <tag k="maxspeed" v="50"/>
    <tag k="maxspeed:source" v="default residential speed limit in Australia"/>
    <tag k="name" v="James Road"/>
    <tag k="source" v="survey"/>
    <tag k="surface" v="paved"/>
  </way>
  <way id="27832866" version="3" timestamp="2010-07-08T04:35:40Z" uid="74617" user="JohnSmith" changeset="5163091">
    <nd ref="305584515"/>
    <nd ref="305584525"/>
    <nd ref="305584529"/>
    <tag k="highway" v="residential"/>
    <tag k="maxspeed" v="50"/>
    <tag k="maxspeed:source" v="default residential speed limit in Australia"/>
    <tag k="name" v="Waropara Road"/>
    <tag k="source" v="survey"/>
    <tag k="surface" v="paved"/>
  </way>
  <way id="27832867" version="4" timestamp="2010-07-08T04:37:11Z" uid="74617" user="JohnSmith" changeset="5163091">
    <nd ref="305584559"/>
    <nd ref="305584558"/>
    <nd ref="305584565"/>
    <nd ref="305584570"/>
    <nd ref="305584552"/>
    <nd ref="305584568"/>
    <nd ref="305584561"/>
    <nd ref="305584567"/>
    <nd ref="305584549"/>
    <nd ref="305584566"/>
    <nd ref="305584548"/>
    <nd ref="305584531"/>
    <nd ref="305584530"/>
    <nd ref="305584529"/>
    <nd ref="305584571"/>
    <nd ref="305584576"/>
    <nd ref="305584577"/>
    <nd ref="305584578"/>
    <nd ref="305584580"/>
    <nd ref="305584585"/>
    <nd ref="305584587"/>
    <nd ref="305584592"/>
    <nd ref="305584624"/>
    <nd ref="305584627"/>
    <nd ref="305584632"/>
    <nd ref="305584633"/>
    <nd ref="305584669"/>
    <nd ref="305584673"/>
    <nd ref="305584674"/>
    <nd ref="305584681"/>
    <nd ref="305584687"/>
    <nd ref="305584689"/>
    <nd ref="305584690"/>
    <nd ref="305584701"/>
    <nd ref="305584710"/>
    <nd ref="305584724"/>
    <nd ref="305584733"/>
    <nd ref="305584739"/>
    <nd ref="305584740"/>
    <nd ref="305584745"/>
    <nd ref="305584746"/>
    <nd ref="305584753"/>
    <nd ref="305584754"/>
    <nd ref="305584755"/>
    <nd ref="305584760"/>
    <nd ref="305584765"/>
    <nd ref="305584767"/>
    <nd ref="305905246"/>
    <nd ref="305584772"/>
    <tag k="highway" v="residential"/>
    <tag k="maxspeed" v="50"/>
    <tag k="maxspeed:source" v="default residential speed limit in Australia"/>
    <tag k="name" v="Kula Road"/>
    <tag k="source" v="survey"/>
    <tag k="surface" v="paved"/>
  </way>
  <way id="27832868" version="3" timestamp="2010-07-08T04:37:36Z" uid="74617" user="JohnSmith" changeset="5163091">
    <nd ref="305584773"/>
    <nd ref="305584778"/>
    <nd ref="305584783"/>
    <nd ref="305584784"/>
    <nd ref="305584793"/>
    <tag k="highway" v="residential"/>
    <tag k="maxspeed" v="50"/>
    <tag k="maxspeed:source" v="default residential speed limit in Australia"/>
    <tag k="name" v="Lewis Drive"/>
    <tag k="source" v="survey"/>
    <tag k="surface" v="paved"/>
  </way>
  <way id="27832870" version="5" timestamp="2010-07-08T04:38:05Z" uid="74617" user="JohnSmith" changeset="5163091">
    <nd ref="305584784"/>
    <nd ref="305584799"/>
    <nd ref="305584801"/>
    <nd ref="305584813"/>
    <nd ref="305584821"/>
    <nd ref="305584828"/>
    <nd ref="305584831"/>
    <nd ref="305584834"/>
    <nd ref="305889570"/>
    <nd ref="305584841"/>
    <nd ref="305584844"/>
    <nd ref="305584845"/>
    <nd ref="305584846"/>
    <nd ref="305584851"/>
    <nd ref="305584852"/>
    <nd ref="305584857"/>
    <nd ref="305584883"/>
    <nd ref="305584884"/>
    <nd ref="305584889"/>
    <nd ref="305584890"/>
    <nd ref="305584895"/>
    <nd ref="305584896"/>
    <nd ref="305584908"/>
    <nd ref="305584909"/>
    <nd ref="305584910"/>
    <nd ref="305584915"/>
    <nd ref="305584926"/>
    <nd ref="305584928"/>
    <nd ref="305584934"/>
    <nd ref="305584939"/>
    <nd ref="305584941"/>
    <nd ref="305584946"/>
    <nd ref="305584772"/>
    <tag k="highway" v="residential"/>
    <tag k="maxspeed" v="50"/>
    <tag k="maxspeed:source" v="default residential speed limit in Australia"/>
    <tag k="name" v="Ryan Road"/>
    <tag k="source" v="survey"/>
    <tag k="surface" v="paved"/>
  </way>
  <way id="27832873" version="2" timestamp="2010-07-08T04:37:58Z" uid="74617" user="JohnSmith" changeset="5163091">
    <nd ref="305584846"/>
    <nd ref="305584957"/>
    <nd ref="305584962"/>
    <nd ref="305585125"/>
    <nd ref="305585130"/>
    <nd ref="305584967"/>
    <nd ref="305584968"/>
    <tag k="highway" v="residential"/>
    <tag k="maxspeed" v="50"/>
    <tag k="maxspeed:source" v="default residential speed limit in Australia"/>
    <tag k="name" v="Chestnut Close"/>
    <tag k="surface" v="paved"/>
  </way>
  <way id="27832919" version="1" timestamp="2008-10-19T09:36:38Z" uid="43863" user="Rundling" changeset="434945">
    <nd ref="305586149"/>
    <nd ref="305586144"/>
    <nd ref="305586145"/>
    <nd ref="305586147"/>
    <nd ref="305586141"/>
    <nd ref="305586149"/>
    <tag k="addr:city" v="Rosche"/>
    <tag k="addr:housenumber" v="1"/>
    <tag k="addr:postcode" v="29571"/>
    <tag k="addr:street" v="Am Spielplatz"/>
    <tag k="building" v="yes"/>
    <tag k="created_by" v="Merkaartor 0.11"/>
  </way>
  <way id="27832920" version="1" timestamp="2008-10-19T09:36:39Z" uid="43863" user="Rundling" changeset="434945">
    <nd ref="305586153"/>
    <nd ref="305586156"/>
    <nd ref="305586155"/>
    <nd ref="305586150"/>
    <nd ref="305586153"/>
    <tag k="addr:city" v="Rosche"/>
    <tag k="addr:housenumber" v="1"/>
    <tag k="addr:postcode" v="29571"/>
    <tag k="addr:street" v="Lutherstraße"/>
    <tag k="building" v="yes"/>
    <tag k="created_by" v="Merkaartor 0.11"/>
  </way>
  <way id="27832921" version="1" timestamp="2008-10-19T09:36:39Z" uid="43863" user="Rundling" changeset="434945">
    <nd ref="305586160"/>
    <nd ref="305586161"/>
    <nd ref="305586164"/>
    <nd ref="305586158"/>
    <nd ref="305586160"/>
    <tag k="addr:city" v="Rosche"/>
    <tag k="addr:housenumber" v="3"/>
    <tag k="addr:postcode" v="29571"/>
    <tag k="addr:street" v="Lutherstraße"/>
    <tag k="building" v="yes"/>
    <tag k="created_by" v="Merkaartor 0.11"/>
  </way>
  <way id="27832922" version="1" timestamp="2008-10-19T09:36:39Z" uid="43863" user="Rundling" changeset="434945">
    <nd ref="305586168"/>
    <nd ref="305586169"/>
    <nd ref="305586171"/>
    <nd ref="305586166"/>
    <nd ref="305586168"/>
    <tag k="addr:city" v="Rosche"/>
    <tag k="addr:housenumber" v="5"/>
    <tag k="addr:postcode" v="29571"/>
    <tag k="addr:street" v="Lutherstraße"/>
    <tag k="building" v="yes"/>
    <tag k="created_by" v="Merkaartor 0.11"/>
  </way>
  <way id="27832923" version="1" timestamp="2008-10-19T09:36:40Z" uid="43863" user="Rundling" changeset="434945">
    <nd ref="305586175"/>
    <nd ref="305586173"/>
    <nd ref="305586174"/>
    <nd ref="305586176"/>
    <nd ref="305586175"/>
    <tag k="addr:city" v="Rosche"/>
    <tag k="addr:housenumber" v="7"/>
    <tag k="addr:postcode" v="29571"/>
    <tag k="addr:street" v="Lutherstraße"/>
    <tag k="building" v="yes"/>
    <tag k="created_by" v="Merkaartor 0.11"/>
  </way>
  <way id="27832924" version="1" timestamp="2008-10-19T09:36:40Z" uid="43863" user="Rundling" changeset="434945">
    <nd ref="305586180"/>
    <nd ref="305586178"/>
    <nd ref="305586179"/>
    <nd ref="305586181"/>
    <nd ref="305586180"/>
    <tag k="addr:city" v="Rosche"/>
    <tag k="addr:housenumber" v="7b"/>
    <tag k="addr:postcode" v="29571"/>
    <tag k="addr:street" v="Lutherstraße"/>
    <tag k="building" v="yes"/>
    <tag k="created_by" v="Merkaartor 0.11"/>
  </way>
  <way id="27832924" version="2" timestamp="2008-10-19T09:39:42Z" uid="43863" user="Rundling" changeset="434945">
    <nd ref="305586180"/>
    <nd ref="305586638"/>
    <nd ref="305586178"/>
    <nd ref="305586179"/>
    <nd ref="305586181"/>
    <nd ref="305586180"/>
    <tag k="addr:city" v="Rosche"/>
    <tag k="addr:housenumber" v="7b"/>
    <tag k="addr:postcode" v="29571"/>
    <tag k="addr:street" v="Lutherstraße"/>
    <tag k="building" v="yes"/>
    <tag k="created_by" v="Merkaartor 0.11"/>
  </way>
  <way id="27832925" version="1" timestamp="2008-10-19T09:36:40Z" uid="43863" user="Rundling" changeset="434945">
    <nd ref="305586194"/>
    <nd ref="305586183"/>
    <nd ref="305586189"/>
    <nd ref="305586203"/>
    <nd ref="305586194"/>
    <tag k="addr:city" v="Rosche"/>
    <tag k="addr:housenumber" v="9"/>
    <tag k="addr:postcode" v="29571"/>
    <tag k="addr:street" v="Lutherstraße"/>
    <tag k="building" v="yes"/>
    <tag k="created_by" v="Merkaartor 0.11"/>
  </way>
  <way id="27832925" version="2" timestamp="2011-02-28T17:06:01Z" uid="43863" user="Rundling" changeset="7422194">
    <nd ref="305586194"/>
    <nd ref="1179266833"/>
    <nd ref="1179266842"/>
    <nd ref="1179266857"/>
    <nd ref="1179266845"/>
    <nd ref="305586203"/>
    <nd ref="305586194"/>
    <tag k="addr:city" v="Rosche"/>
    <tag k="addr:housenumber" v="9"/>
    <tag k="addr:postcode" v="29571"/>
    <tag k="addr:street" v="Lutherstraße"/>
    <tag k="building" v="yes"/>
  </way>
  <way id="27832926" version="1" timestamp="2008-10-19T09:36:41Z" uid="43863" user="Rundling" changeset="434945">
    <nd ref="305586224"/>
    <nd ref="305586211"/>
    <nd ref="305586216"/>
    <nd ref="305586230"/>
    <nd ref="305586224"/>
    <tag k="addr:city" v="Rosche"/>
    <tag k="addr:housenumber" v="11"/>
    <tag k="addr:postcode" v="29571"/>
    <tag k="addr:street" v="Lutherstraße"/>
    <tag k="building" v="yes"/>
    <tag k="created_by" v="Merkaartor 0.11"/>
  </way>
  <way id="27832927" version="1" timestamp="2008-10-19T09:36:41Z" uid="43863" user="Rundling" changeset="434945">
    <nd ref="305586247"/>
    <nd ref="305586236"/>
    <nd ref="305586242"/>
    <nd ref="305586249"/>
    <nd ref="305586247"/>
    <tag k="addr:city" v="Rosche"/>
    <tag k="addr:housenumber" v="13"/>
    <tag k="addr:postcode" v="29571"/>
    <tag k="addr:street" v="Lutherstraße"/>
    <tag k="building" v="yes"/>
    <tag k="created_by" v="Merkaartor 0.11"/>
  </way>
  <way id="27832927" version="2" timestamp="2011-02-28T17:06:03Z" uid="43863" user="Rundling" changeset="7422194"/>
  <way id="27832928" version="1" timestamp="2008-10-19T09:36:41Z" uid="43863" user="Rundling" changeset="434945">
    <nd ref="305586252"/>
    <nd ref="305586250"/>
    <nd ref="305586251"/>
    <nd ref="305586253"/>
    <nd ref="305586252"/>
    <tag k="addr:city" v="Rosche"/>
    <tag k="addr:housenumber" v="15"/>
    <tag k="addr:postcode" v="29571"/>
    <tag k="addr:street" v="Lutherstraße"/>
    <tag k="building" v="yes"/>
    <tag k="created_by" v="Merkaartor 0.11"/>
  </way>
  <way id="27832928" version="2" timestamp="2011-02-28T17:06:03Z" uid="43863" user="Rundling" changeset="7422194"/>
  <way id="27832944" version="4" timestamp="2010-06-18T02:31:54Z" uid="74617" user="JohnSmith" changeset="5013301">
    <nd ref="254070404"/>
    <nd ref="305586441"/>
    <tag k="admin_level" v="10"/>
    <tag k="attribution" v="Based on Australian Bureau of Statistics data"/>
    <tag k="boundary" v="administrative"/>
    <tag k="source" v="extrapolation"/>
  </way>
  <way id="27832945" version="4" timestamp="2010-07-28T06:29:37Z" uid="4467" user="Rosscoe" changeset="5335298"/>
  <way id="27832946" version="3" timestamp="2010-06-18T02:31:54Z" uid="74617" user="JohnSmith" changeset="5013301">
    <nd ref="305586441"/>
    <nd ref="56362868"/>
    <tag k="admin_level" v="10"/>
    <tag k="boundary" v="administrative"/>
    <tag k="source" v="extrapolation"/>
  </way>
  <way id="27832946" version="4" timestamp="2010-07-28T06:27:23Z" uid="4467" user="Rosscoe" changeset="5335298">
    <nd ref="305586441"/>
    <nd ref="56362868"/>
    <tag k="admin_level" v="10"/>
    <tag k="boundary" v="administrative"/>
    <tag k="source" v="extrapolation"/>
  </way>
  <way id="27832947" version="2" timestamp="2010-07-28T06:28:10Z" uid="4467" user="Rosscoe" changeset="5335298">
    <nd ref="836067641"/>
    <nd ref="287541704"/>
    <nd ref="287541706"/>
    <nd ref="287541707"/>
    <nd ref="287541708"/>
    <nd ref="287541715"/>
    <nd ref="287541716"/>
    <nd ref="287541734"/>
    <nd ref="287541735"/>
    <tag k="highway" v="residential"/>
    <tag k="maxspeed" v="50"/>
    <tag k="name" v="Kelly Road"/>
    <tag k="source" v="survey"/>
  </way>
  <way id="27832948" version="4" timestamp="2010-06-18T02:31:53Z" uid="74617" user="JohnSmith" changeset="5013301">
    <nd ref="287541703"/>
    <nd ref="279996364"/>
    <tag k="admin_level" v="10"/>
    <tag k="attribution" v="Based on Australian Bureau of Statistics data"/>
    <tag k="boundary" v="administrative"/>
    <tag k="source" v="extrapolation"/>
  </way>
  <way id="27832965" version="1" timestamp="2008-10-19T09:39:02Z" uid="43863" user="Rundling" changeset="434945">
    <nd ref="305586589"/>
    <nd ref="305586591"/>
    <nd ref="305586590"/>
    <nd ref="305586588"/>
    <nd ref="305586589"/>
    <tag k="addr:city" v="Rosche"/>
    <tag k="addr:housenumber" v="12"/>
    <tag k="addr:postcode" v="29571"/>
    <tag k="addr:street" v="Lutherstraße"/>
    <tag k="building" v="yes"/>
    <tag k="created_by" v="Merkaartor 0.11"/>
  </way>
  <way id="27832966" version="1" timestamp="2008-10-19T09:39:02Z" uid="43863" user="Rundling" changeset="434945">
    <nd ref="305586593"/>
    <nd ref="305586596"/>
    <nd ref="305586595"/>
    <nd ref="305586592"/>
    <nd ref="305586593"/>
    <tag k="addr:city" v="Rosche"/>
    <tag k="addr:housenumber" v="10"/>
    <tag k="addr:postcode" v="29571"/>
    <tag k="addr:street" v="Lutherstraße"/>
    <tag k="building" v="yes"/>
    <tag k="created_by" v="Merkaartor 0.11"/>
  </way>
  <way id="27832967" version="1" timestamp="2008-10-19T09:39:02Z" uid="43863" user="Rundling" changeset="434945">
    <nd ref="305586598"/>
    <nd ref="305586600"/>
    <nd ref="305586599"/>
    <nd ref="305586597"/>
    <nd ref="305586598"/>
    <tag k="addr:city" v="Rosche"/>
    <tag k="addr:housenumber" v="8"/>
    <tag k="addr:postcode" v="29571"/>
    <tag k="addr:street" v="Lutherstraße"/>
    <tag k="building" v="yes"/>
    <tag k="created_by" v="Merkaartor 0.11"/>
  </way>
  <way id="27832970" version="1" timestamp="2008-10-19T09:39:03Z" uid="43863" user="Rundling" changeset="434945">
    <nd ref="305586602"/>
    <nd ref="305586604"/>
    <nd ref="305586603"/>
    <nd ref="305586601"/>
    <nd ref="305586602"/>
    <tag k="addr:city" v="Rosche"/>
    <tag k="addr:housenumber" v="6"/>
    <tag k="addr:postcode" v="29571"/>
    <tag k="addr:street" v="Lutherstraße"/>
    <tag k="building" v="yes"/>
    <tag k="created_by" v="Merkaartor 0.11"/>
  </way>
  <way id="27832971" version="1" timestamp="2008-10-19T09:39:03Z" uid="43863" user="Rundling" changeset="434945">
    <nd ref="305586606"/>
    <nd ref="305586608"/>
    <nd ref="305586607"/>
    <nd ref="305586605"/>
    <nd ref="305586606"/>
    <tag k="addr:city" v="Rosche"/>
    <tag k="addr:housenumber" v="4"/>
    <tag k="addr:postcode" v="29571"/>
    <tag k="addr:street" v="Lutherstraße"/>
    <tag k="building" v="yes"/>
    <tag k="created_by" v="Merkaartor 0.11"/>
  </way>
  <way id="27832972" version="1" timestamp="2008-10-19T09:39:04Z" uid="43863" user="Rundling" changeset="434945">
    <nd ref="305586611"/>
    <nd ref="305586615"/>
    <nd ref="305586613"/>
    <nd ref="305586609"/>
    <nd ref="305586611"/>
    <tag k="addr:city" v="Rosche"/>
    <tag k="addr:housenumber" v="2"/>
    <tag k="addr:postcode" v="29571"/>
    <tag k="addr:street" v="Lutherstraße"/>
    <tag k="building" v="yes"/>
    <tag k="created_by" v="Merkaartor 0.11"/>
  </way>
  <way id="27832977" version="1" timestamp="2008-10-19T09:39:42Z" uid="43863" user="Rundling" changeset="434945">
    <nd ref="305586638"/>
    <nd ref="305586639"/>
    <nd ref="305586640"/>
    <tag k="highway" v="service"/>
  </way>
  <way id="27832987" version="1" timestamp="2008-10-19T09:40:29Z" uid="8619" user="cetest" changeset="446218">
    <nd ref="43737649"/>
    <nd ref="43747097"/>
    <nd ref="43747699"/>
    <nd ref="43749326"/>
    <nd ref="43749893"/>
    <tag k="AND:importance_level" v="5"/>
    <tag k="AND_nosr_r" v="15238392"/>
    <tag k="highway" v="tertiary"/>
    <tag k="name" v="Lagedijk"/>
  </way>
  <way id="27832989" version="1" timestamp="2008-10-19T09:40:30Z" uid="8619" user="cetest" changeset="446218">
    <nd ref="43721846"/>
    <nd ref="305586719"/>
    <tag k="AND:importance_level" v="5"/>
    <tag k="AND_nosr_r" v="15238425"/>
    <tag k="bridge" v="yes"/>
    <tag k="highway" v="unclassified"/>
    <tag k="layer" v="1"/>
    <tag k="name" v="Boomdijk"/>
  </way>
  <way id="27832990" version="1" timestamp="2008-10-19T09:40:31Z" uid="8619" user="cetest" changeset="446218">
    <nd ref="305586719"/>
    <nd ref="43726969"/>
    <nd ref="43731937"/>
    <nd ref="43734645"/>
    <nd ref="43735217"/>
    <nd ref="43736393"/>
    <nd ref="43741823"/>
    <nd ref="305586718"/>
    <nd ref="43742706"/>
    <tag k="AND:importance_level" v="5"/>
    <tag k="AND_nosr_r" v="15238425"/>
    <tag k="highway" v="unclassified"/>
    <tag k="name" v="Boomdijk"/>
  </way>
</osm>
