<?xml version='1.0' encoding='UTF-8'?>
<osm version="0.6" generator="libosmium/2.20.0">
  <way id="27876040" version="1" timestamp="2008-10-21T00:56:46Z" uid="4467" user="Rosscoe" changeset="487146">
    <nd ref="143651434"/>
    <nd ref="306049129"/>
    <nd ref="306049130"/>
    <nd ref="306049131"/>
    <nd ref="306049132"/>
    <nd ref="306049133"/>
    <nd ref="306049134"/>
    <nd ref="306049135"/>
    <nd ref="306049136"/>
    <nd ref="306049137"/>
    <nd ref="306049138"/>
    <nd ref="306049139"/>
    <nd ref="306049140"/>
    <nd ref="306049141"/>
    <nd ref="306049142"/>
    <nd ref="306049143"/>
    <nd ref="306049144"/>
    <nd ref="306049145"/>
    <nd ref="306049146"/>
    <nd ref="306049147"/>
    <nd ref="306049148"/>
    <nd ref="306049149"/>
    <nd ref="306049150"/>
    <nd ref="306049151"/>
    <nd ref="306049152"/>
    <nd ref="306049153"/>
    <nd ref="306049154"/>
    <nd ref="306049155"/>
    <nd ref="306049156"/>
    <nd ref="306049157"/>
    <nd ref="306049158"/>
    <nd ref="306049159"/>
    <nd ref="306049160"/>
    <nd ref="306049161"/>
    <nd ref="306049162"/>
    <nd ref="306049163"/>
    <nd ref="204578494"/>
    <tag k="created_by" v="JOSM"/>
    <tag k="highway" v="primary"/>
    <tag k="name" v="Peak Downs Highway"/>
    <tag k="ref" v="70"/>
    <tag k="source" v="openaerialmap"/>
    <tag k="surface" v="paved"/>
  </way>
  <way id="27876040" version="2" timestamp="2008-11-17T02:36:29Z" uid="4467" user="Rosscoe" changeset="759083">
    <nd ref="143651434"/>
    <nd ref="306049129"/>
    <nd ref="306049130"/>
    <nd ref="306049131"/>
    <nd ref="306049132"/>
    <nd ref="306049133"/>
    <nd ref="306049134"/>
    <nd ref="306049135"/>
    <nd ref="306049136"/>
    <tag k="created_by" v="JOSM"/>
    <tag k="highway" v="primary"/>
    <tag k="name" v="Peak Downs Highway"/>
    <tag k="ref" v="70"/>
    <tag k="source" v="openaerialmap"/>
    <tag k="surface" v="paved"/>
  </way>
  <way id="27876040" version="3" timestamp="2008-11-17T04:48:16Z" uid="4467" user="Rosscoe" changeset="759083">
    <nd ref="143651434"/>
    <nd ref="306049129"/>
    <nd ref="306049130"/>
    <nd ref="306049131"/>
    <nd ref="306049132"/>
    <nd ref="306049133"/>
    <nd ref="306049134"/>
    <nd ref="306049135"/>
    <nd ref="312687384"/>
    <tag k="created_by" v="JOSM"/>
    <tag k="highway" v="primary"/>
    <tag k="name" v="Peak Downs Highway"/>
    <tag k="ref" v="70"/>
    <tag k="source" v="openaerialmap"/>
    <tag k="surface" v="paved"/>
  </way>
  <way id="27876040" version="4" timestamp="2009-01-09T08:23:43Z" uid="4467" user="Rosscoe" changeset="759967">
    <nd ref="143651434"/>
    <nd ref="306049129"/>
    <nd ref="306049130"/>
    <nd ref="306049131"/>
    <nd ref="306049132"/>
    <nd ref="306049133"/>
    <nd ref="306049134"/>
    <nd ref="306049135"/>
    <nd ref="312687384"/>
    <tag k="created_by" v="JOSM"/>
    <tag k="highway" v="primary"/>
    <tag k="name" v="Peak Downs Highway"/>
    <tag k="ref" v="70"/>
    <tag k="source" v="openaerialmap"/>
    <tag k="surface" v="paved"/>
  </way>
  <way id="27876040" version="5" timestamp="2009-01-10T06:17:30Z" uid="4467" user="Rosscoe" changeset="766922">
    <nd ref="143651434"/>
    <nd ref="306049129"/>
    <nd ref="306049130"/>
    <nd ref="306049131"/>
    <nd ref="306049132"/>
    <nd ref="306049133"/>
    <nd ref="306049134"/>
    <nd ref="306049135"/>
    <nd ref="312687384"/>
    <tag k="created_by" v="JOSM"/>
    <tag k="highway" v="primary"/>
    <tag k="name" v="Peak Downs Highway"/>
    <tag k="ref" v="70"/>
    <tag k="source" v="openaerialmap"/>
    <tag k="surface" v="paved"/>
  </way>
  <way id="27876040" version="6" timestamp="2010-08-02T04:07:27Z" uid="4467" user="Rosscoe" changeset="5376855">
    <nd ref="143651434"/>
    <nd ref="306049129"/>
    <nd ref="306049130"/>
    <tag k="highway" v="primary"/>
    <tag k="name" v="Peak Downs Highway"/>
    <tag k="ref" v="70"/>
    <tag k="source" v="openaerialmap"/>
    <tag k="surface" v="paved"/>
  </way>
  <way id="27876042" version="1" timestamp="2008-10-21T00:56:47Z" uid="4467" user="Rosscoe" changeset="487146">
    <nd ref="306049323"/>
    <nd ref="306049324"/>
    <nd ref="306049325"/>
    <nd ref="306049326"/>
    <nd ref="306049328"/>
    <nd ref="306049329"/>
    <nd ref="306049330"/>
    <nd ref="306049331"/>
    <nd ref="306049332"/>
    <nd ref="306049333"/>
    <nd ref="306049334"/>
    <nd ref="306049335"/>
    <nd ref="306049336"/>
    <nd ref="306049337"/>
    <nd ref="306049338"/>
    <nd ref="306049339"/>
    <nd ref="306049340"/>
    <nd ref="306049341"/>
    <nd ref="306049342"/>
    <tag k="created_by" v="Potlatch 0.9a"/>
    <tag k="layer" v="-1"/>
    <tag k="waterway" v="stream"/>
  </way>
  <way id="27876044" version="1" timestamp="2008-10-21T00:56:49Z" uid="4467" user="Rosscoe" changeset="487146">
    <nd ref="306049323"/>
    <nd ref="306049343"/>
    <nd ref="306049344"/>
    <nd ref="306049345"/>
    <nd ref="306049346"/>
    <nd ref="306049347"/>
    <nd ref="306049348"/>
    <nd ref="306049349"/>
    <nd ref="306049350"/>
    <nd ref="306049353"/>
    <nd ref="306049354"/>
    <nd ref="306049355"/>
    <nd ref="306049356"/>
    <nd ref="306049357"/>
    <nd ref="306049358"/>
    <nd ref="306049359"/>
    <nd ref="306049360"/>
    <nd ref="306049361"/>
    <nd ref="306049362"/>
    <nd ref="306049363"/>
    <tag k="created_by" v="JOSM"/>
    <tag k="layer" v="-1"/>
    <tag k="waterway" v="stream"/>
  </way>
  <way id="27876081" version="8" timestamp="2010-06-02T02:54:16Z" uid="4467" user="Rosscoe" changeset="4880285">
    <nd ref="309591990"/>
    <nd ref="309592269"/>
    <nd ref="306051557"/>
    <nd ref="309360027"/>
    <nd ref="309361260"/>
    <nd ref="309359412"/>
    <nd ref="306051460"/>
    <tag k="created_by" v="Potlatch 0.10f"/>
    <tag k="highway" v="residential"/>
    <tag k="name" v="Johnston Street"/>
    <tag k="source" v="GPS Trace"/>
  </way>
  <way id="27876232" version="1" timestamp="2008-10-21T01:29:35Z" uid="4467" user="Rosscoe" changeset="487146">
    <nd ref="278218680"/>
    <nd ref="278218490"/>
    <tag k="created_by" v="JOSM"/>
    <tag k="highway" v="trunk"/>
    <tag k="maxspeed" v="60"/>
    <tag k="name" v="Goldring Street"/>
    <tag k="source" v="survey"/>
  </way>
  <way id="27876232" version="3" timestamp="2011-02-15T14:50:46Z" uid="4467" user="Rosscoe" changeset="7295517">
    <nd ref="278218680"/>
    <nd ref="314306419"/>
    <nd ref="314306032"/>
    <tag k="highway" v="secondary"/>
    <tag k="lanes" v="1"/>
    <tag k="maxspeed" v="60"/>
    <tag k="name" v="Goldring Street"/>
    <tag k="oneway" v="yes"/>
    <tag k="source" v="survey"/>
  </way>
  <way id="27876240" version="4" timestamp="2010-04-03T13:41:44Z" uid="20587" user="balrog-kun" changeset="4312927">
    <nd ref="306054650"/>
    <nd ref="306054655"/>
    <nd ref="306054659"/>
    <nd ref="474347218"/>
    <nd ref="306054663"/>
    <nd ref="306054668"/>
    <nd ref="306054673"/>
    <nd ref="306054678"/>
    <nd ref="306054690"/>
    <nd ref="306054695"/>
    <tag k="highway" v="residential"/>
    <tag k="name" v="South 2975 West"/>
    <tag k="name_1" v="2975 West"/>
    <tag k="surface" v="paved"/>
  </way>
  <way id="27876241" version="3" timestamp="2010-04-03T13:41:44Z" uid="20587" user="balrog-kun" changeset="4312927">
    <nd ref="306054700"/>
    <nd ref="306054704"/>
    <nd ref="306054708"/>
    <nd ref="306054713"/>
    <tag k="highway" v="residential"/>
    <tag k="name" v="South 3150 West"/>
    <tag k="name_1" v="3150 West"/>
    <tag k="surface" v="paved"/>
  </way>
  <way id="27876242" version="3" timestamp="2010-04-03T13:41:44Z" uid="20587" user="balrog-kun" changeset="4312927">
    <nd ref="306054655"/>
    <nd ref="306054717"/>
    <tag k="highway" v="residential"/>
    <tag k="name" v="West 2600 South"/>
    <tag k="name_1" v="2600 South"/>
    <tag k="surface" v="paved"/>
  </way>
  <way id="27876243" version="3" timestamp="2010-04-03T13:41:45Z" uid="20587" user="balrog-kun" changeset="4312927">
    <nd ref="306054722"/>
    <nd ref="306054717"/>
    <tag k="highway" v="residential"/>
    <tag k="name" v="South 3075 West"/>
    <tag k="name_1" v="3075 West"/>
    <tag k="surface" v="paved"/>
  </way>
  <way id="27876244" version="4" timestamp="2010-04-03T13:41:45Z" uid="20587" user="balrog-kun" changeset="4312927">
    <nd ref="306054726"/>
    <nd ref="306054730"/>
    <nd ref="306054734"/>
    <nd ref="306054704"/>
    <nd ref="306054722"/>
    <nd ref="306054739"/>
    <nd ref="306054746"/>
    <nd ref="474347213"/>
    <nd ref="474347214"/>
    <nd ref="306054767"/>
    <nd ref="306054772"/>
    <nd ref="306054777"/>
    <nd ref="306054695"/>
    <tag k="highway" v="residential"/>
    <tag k="name" v="West 2650 South"/>
    <tag k="name_1" v="2650 South"/>
    <tag k="surface" v="paved"/>
  </way>
  <way id="27876245" version="4" timestamp="2010-04-03T13:41:45Z" uid="20587" user="balrog-kun" changeset="4312927">
    <nd ref="306054791"/>
    <nd ref="306054795"/>
    <nd ref="306054726"/>
    <nd ref="306054805"/>
    <tag k="highway" v="residential"/>
    <tag k="name" v="South 3250 West"/>
    <tag k="name_1" v="3250 West"/>
    <tag k="surface" v="paved"/>
  </way>
  <way id="27876246" version="3" timestamp="2010-04-03T13:41:45Z" uid="20587" user="balrog-kun" changeset="4312927">
    <nd ref="306054809"/>
    <nd ref="306054813"/>
    <nd ref="306054818"/>
    <tag k="highway" v="residential"/>
    <tag k="name" v="South 3300 West"/>
    <tag k="name_1" v="3300 West"/>
    <tag k="surface" v="paved"/>
  </way>
  <way id="27876247" version="3" timestamp="2010-04-03T13:41:45Z" uid="20587" user="balrog-kun" changeset="4312927">
    <nd ref="306054791"/>
    <nd ref="306054822"/>
    <nd ref="306054827"/>
    <nd ref="306054809"/>
    <tag k="highway" v="residential"/>
    <tag k="name" v="West 2625 South"/>
    <tag k="name_1" v="2625 South"/>
    <tag k="surface" v="paved"/>
  </way>
  <way id="27876248" version="4" timestamp="2010-04-03T13:41:45Z" uid="20587" user="balrog-kun" changeset="4312927">
    <nd ref="306054831"/>
    <nd ref="306054818"/>
    <nd ref="306054805"/>
    <tag k="highway" v="residential"/>
    <tag k="name" v="West 2700 South"/>
    <tag k="name_1" v="2700 South"/>
    <tag k="surface" v="paved"/>
  </way>
  <way id="27876255" version="2" timestamp="2009-10-26T06:31:09Z" uid="4467" user="Rosscoe" changeset="2953422">
    <nd ref="306055559"/>
    <nd ref="306055560"/>
    <tag k="highway" v="unclassified"/>
    <tag k="source" v="survey"/>
    <tag k="surface" v="unpaved"/>
  </way>
  <way id="27876599" version="5" timestamp="2010-06-02T02:52:08Z" uid="4467" user="Rosscoe" changeset="4880267">
    <nd ref="306056462"/>
    <nd ref="306056463"/>
    <nd ref="306056472"/>
    <nd ref="306056464"/>
    <nd ref="306056465"/>
    <nd ref="306056466"/>
    <nd ref="306056467"/>
    <nd ref="306056468"/>
    <tag k="created_by" v="Potlatch 0.10f"/>
    <tag k="highway" v="unclassified"/>
    <tag k="name" v="Wandering North Road"/>
    <tag k="source" v="GPS trace AL"/>
  </way>
  <way id="27876601" version="4" timestamp="2010-06-02T02:55:00Z" uid="4467" user="Rosscoe" changeset="4880285">
    <nd ref="306056857"/>
    <nd ref="306056858"/>
    <nd ref="306056859"/>
    <tag k="created_by" v="Potlatch 0.10f"/>
    <tag k="highway" v="unclassified"/>
    <tag k="name" v="Keally Street"/>
    <tag k="source" v="GPS Trace"/>
  </way>
  <way id="27876602" version="5" timestamp="2010-06-02T06:50:34Z" uid="4467" user="Rosscoe" changeset="4881307">
    <nd ref="306056888"/>
    <nd ref="306056858"/>
    <tag k="created_by" v="Potlatch 0.10f"/>
    <tag k="highway" v="unclassified"/>
    <tag k="name" v="Sagar Street"/>
    <tag k="source" v="GPS Trace"/>
  </way>
  <way id="27876603" version="6" timestamp="2010-06-02T07:59:27Z" uid="4467" user="Rosscoe" changeset="4881676">
    <nd ref="306056905"/>
    <nd ref="311254870"/>
    <nd ref="306056899"/>
    <tag k="created_by" v="Potlatch 0.10f"/>
    <tag k="highway" v="residential"/>
    <tag k="name" v="Tuohy Street"/>
    <tag k="source" v="GPS Trace"/>
  </way>
  <way id="27876604" version="19" timestamp="2010-05-07T10:37:24Z" uid="4467" user="Rosscoe" changeset="4628780">
    <nd ref="309592562"/>
    <nd ref="306056981"/>
    <tag k="created_by" v="Potlatch 0.10f"/>
    <tag k="highway" v="trunk"/>
    <tag k="name" v="Forrest Street"/>
    <tag k="ref" v="120"/>
    <tag k="source" v="GPS Trace"/>
  </way>
  <way id="27876605" version="9" timestamp="2010-06-02T00:53:29Z" uid="4467" user="Rosscoe" changeset="4879901">
    <nd ref="306057110"/>
    <nd ref="306057111"/>
    <tag k="created_by" v="Potlatch 0.10f"/>
    <tag k="highway" v="residential"/>
    <tag k="name" v="Falcon Street"/>
    <tag k="source" v="GPS trace"/>
  </way>
</osm>
