<?xml version='1.0' encoding='UTF-8'?>
<osm version="0.6" generator="libosmium/2.20.0">
  <way id="27875011" version="8" timestamp="2009-07-30T15:03:57Z" uid="115477" user="wowik" changeset="1985870">
    <nd ref="306039040"/>
    <nd ref="306039079"/>
    <nd ref="306039081"/>
    <nd ref="306038691"/>
    <tag k="addr:postcode" v="124482"/>
    <tag k="cladr:code" v="77000002000429700"/>
    <tag k="cladr:name" v="Савелкинский"/>
    <tag k="cladr:suffix" v="Проезд"/>
    <tag k="created_by" v="Potlatch 0.10e"/>
    <tag k="highway" v="primary"/>
    <tag k="lanes" v="2"/>
    <tag k="name" v="Савелкинский проезд"/>
    <tag k="oneway" v="yes"/>
  </way>
  <way id="27875011" version="9" timestamp="2009-10-06T07:59:10Z" uid="115477" user="wowik" changeset="2758063">
    <nd ref="306039040"/>
    <nd ref="522471881"/>
    <nd ref="306039079"/>
    <nd ref="306039081"/>
    <nd ref="306038691"/>
    <tag k="addr:postcode" v="124482"/>
    <tag k="cladr:code" v="77000002000429700"/>
    <tag k="cladr:name" v="Савелкинский"/>
    <tag k="cladr:suffix" v="Проезд"/>
    <tag k="highway" v="primary"/>
    <tag k="lanes" v="2"/>
    <tag k="name" v="Савелкинский проезд"/>
    <tag k="oneway" v="yes"/>
  </way>
  <way id="27875011" version="11" timestamp="2009-12-24T17:09:31Z" uid="115477" user="wowik" changeset="3444145"/>
  <way id="27875048" version="7" timestamp="2009-07-28T11:40:55Z" uid="115477" user="wowik" changeset="1964439">
    <nd ref="306039507"/>
    <nd ref="429202120"/>
    <nd ref="449753228"/>
    <tag k="addr:postcode" v="124482"/>
    <tag k="cladr:code" v="77000002000429700"/>
    <tag k="cladr:name" v="Савелкинский"/>
    <tag k="cladr:suffix" v="Проезд"/>
    <tag k="created_by" v="Potlatch 0.10e"/>
    <tag k="highway" v="primary"/>
    <tag k="name" v="Савелкинский проезд"/>
    <tag k="oneway" v="yes"/>
  </way>
  <way id="27875048" version="8" timestamp="2009-07-28T16:19:41Z" uid="115477" user="wowik" changeset="1966898"/>
  <way id="27875049" version="7" timestamp="2009-12-16T09:58:14Z" uid="115477" user="wowik" changeset="3385456"/>
  <way id="27875079" version="4" timestamp="2009-07-30T15:04:01Z" uid="115477" user="wowik" changeset="1985870">
    <nd ref="306039506"/>
    <nd ref="306040182"/>
    <tag k="addr:postcode" v="124482"/>
    <tag k="cladr:code" v="77000002000306700"/>
    <tag k="cladr:name" v="Центральный"/>
    <tag k="cladr:suffix" v="Проспект"/>
    <tag k="created_by" v="Potlatch 0.10e"/>
    <tag k="highway" v="primary"/>
    <tag k="lanes" v="3"/>
    <tag k="name" v="Центральный проспект"/>
    <tag k="oneway" v="yes"/>
  </way>
  <way id="27875079" version="7" timestamp="2009-12-16T09:58:12Z" uid="115477" user="wowik" changeset="3385456">
    <nd ref="593337697"/>
    <nd ref="593337656"/>
    <tag k="addr:postcode" v="124482"/>
    <tag k="bridge" v="yes"/>
    <tag k="cladr:code" v="77000002000306700"/>
    <tag k="cladr:name" v="Центральный"/>
    <tag k="cladr:suffix" v="Проспект"/>
    <tag k="highway" v="primary"/>
    <tag k="lanes" v="2"/>
    <tag k="layer" v="1"/>
    <tag k="name" v="Центральный проспект"/>
    <tag k="omkum:code" v="30485"/>
    <tag k="oneway" v="yes"/>
    <tag k="sorting_name" v="Центральный  проспект"/>
  </way>
  <way id="27875080" version="4" timestamp="2009-07-30T15:04:01Z" uid="115477" user="wowik" changeset="1985870">
    <nd ref="306040092"/>
    <nd ref="306039506"/>
    <tag k="addr:postcode" v="124482"/>
    <tag k="cladr:code" v="77000002000306700"/>
    <tag k="cladr:name" v="Центральный"/>
    <tag k="cladr:suffix" v="Проспект"/>
    <tag k="created_by" v="Potlatch 0.10e"/>
    <tag k="highway" v="primary"/>
    <tag k="lanes" v="3"/>
    <tag k="name" v="Центральный проспект"/>
    <tag k="oneway" v="yes"/>
  </way>
  <way id="27875080" version="7" timestamp="2009-12-16T09:58:14Z" uid="115477" user="wowik" changeset="3385456"/>
  <way id="27875086" version="3" timestamp="2009-09-20T10:59:14Z" uid="30632" user="antblant" changeset="2543813">
    <nd ref="306040493"/>
    <nd ref="254691345"/>
    <tag k="highway" v="residential"/>
    <tag k="name" v="Jarosława Iwaszkiewicza"/>
  </way>
  <way id="27875087" version="3" timestamp="2009-09-20T10:58:40Z" uid="30632" user="antblant" changeset="2543813">
    <nd ref="306040496"/>
    <nd ref="306040497"/>
    <nd ref="332490637"/>
    <tag k="highway" v="residential"/>
    <tag k="name" v="Jana Brzechwy"/>
  </way>
  <way id="27875088" version="3" timestamp="2009-09-20T10:58:47Z" uid="30632" user="antblant" changeset="2543813">
    <nd ref="306040497"/>
    <nd ref="306040504"/>
    <nd ref="306040505"/>
    <nd ref="332490636"/>
    <tag k="highway" v="residential"/>
    <tag k="name" v="Konstantego Idefonsa Galczynskiego"/>
  </way>
  <way id="27875089" version="4" timestamp="2009-09-20T10:59:01Z" uid="30632" user="antblant" changeset="2543813">
    <nd ref="306040505"/>
    <nd ref="306040509"/>
    <nd ref="332490635"/>
    <tag k="highway" v="residential"/>
    <tag k="name" v="Bolesława Leśmiana"/>
  </way>
  <way id="27875117" version="6" timestamp="2009-12-24T17:09:32Z" uid="115477" user="wowik" changeset="3444145"/>
  <way id="27875129" version="4" timestamp="2009-07-28T11:40:54Z" uid="115477" user="wowik" changeset="1964439">
    <nd ref="306039040"/>
    <nd ref="449753228"/>
    <nd ref="306039605"/>
    <tag k="addr:postcode" v="124482"/>
    <tag k="cladr:code" v="77000002000429700"/>
    <tag k="cladr:name" v="Савелкинский"/>
    <tag k="cladr:suffix" v="Проезд"/>
    <tag k="created_by" v="Potlatch 0.10e"/>
    <tag k="highway" v="primary"/>
    <tag k="name" v="Савелкинский проезд"/>
  </way>
  <way id="27875129" version="5" timestamp="2009-07-28T16:19:40Z" uid="115477" user="wowik" changeset="1966898">
    <nd ref="306039040"/>
    <nd ref="306039605"/>
    <tag k="addr:postcode" v="124482"/>
    <tag k="cladr:code" v="77000002000429700"/>
    <tag k="cladr:name" v="Савелкинский"/>
    <tag k="cladr:suffix" v="Проезд"/>
    <tag k="created_by" v="Potlatch 0.10e"/>
    <tag k="highway" v="primary"/>
    <tag k="name" v="Савелкинский проезд"/>
  </way>
  <way id="27875129" version="6" timestamp="2009-07-30T15:03:57Z" uid="115477" user="wowik" changeset="1985870">
    <nd ref="306039040"/>
    <nd ref="306039605"/>
    <tag k="addr:postcode" v="124482"/>
    <tag k="cladr:code" v="77000002000429700"/>
    <tag k="cladr:name" v="Савелкинский"/>
    <tag k="cladr:suffix" v="Проезд"/>
    <tag k="created_by" v="Potlatch 0.10e"/>
    <tag k="highway" v="primary"/>
    <tag k="lanes" v="4"/>
    <tag k="name" v="Савелкинский проезд"/>
  </way>
  <way id="27875129" version="9" timestamp="2009-12-24T17:09:32Z" uid="115477" user="wowik" changeset="3444145"/>
  <way id="27875149" version="2" timestamp="2009-10-07T03:58:18Z" uid="115477" user="wowik" changeset="2767325">
    <nd ref="306041862"/>
    <nd ref="306042075"/>
    <nd ref="306042077"/>
    <nd ref="306042080"/>
    <nd ref="306042082"/>
    <nd ref="306042084"/>
    <nd ref="306042086"/>
    <nd ref="306042089"/>
    <nd ref="306042091"/>
    <tag k="highway" v="service"/>
    <tag k="living_street" v="yes"/>
    <tag k="service" v="living_street"/>
  </way>
  <way id="27875149" version="3" timestamp="2010-01-12T13:55:24Z" uid="115477" user="wowik" changeset="3602714">
    <nd ref="306041862"/>
    <nd ref="306042075"/>
    <nd ref="306042077"/>
    <nd ref="612183000"/>
    <nd ref="612183004"/>
    <nd ref="612183006"/>
    <nd ref="612183009"/>
    <nd ref="612183013"/>
    <nd ref="612183015"/>
    <tag k="highway" v="service"/>
    <tag k="living_street" v="yes"/>
    <tag k="service" v="living_street"/>
  </way>
  <way id="27875149" version="4" timestamp="2010-01-12T13:59:00Z" uid="115477" user="wowik" changeset="3602714">
    <nd ref="306041862"/>
    <nd ref="306042075"/>
    <nd ref="306042077"/>
    <nd ref="612187704"/>
    <nd ref="612183000"/>
    <nd ref="612183004"/>
    <nd ref="612183006"/>
    <nd ref="612183009"/>
    <nd ref="612183013"/>
    <nd ref="612183015"/>
    <tag k="highway" v="service"/>
    <tag k="living_street" v="yes"/>
    <tag k="service" v="living_street"/>
  </way>
  <way id="27875149" version="6" timestamp="2010-11-16T09:03:35Z" uid="115477" user="wowik" changeset="6383419">
    <nd ref="306041862"/>
    <nd ref="306042075"/>
    <nd ref="306042077"/>
    <nd ref="612187704"/>
    <nd ref="612183000"/>
    <nd ref="612183004"/>
    <nd ref="612183006"/>
    <nd ref="612183009"/>
    <nd ref="612183013"/>
    <nd ref="612183015"/>
    <tag k="highway" v="service"/>
    <tag k="living_street" v="yes"/>
    <tag k="name" v="7-й Микрорайон"/>
  </way>
  <way id="27875149" version="7" timestamp="2011-01-28T11:48:44Z" uid="115477" user="wowik" changeset="7112168">
    <nd ref="306041862"/>
    <nd ref="306042075"/>
    <nd ref="306042077"/>
    <nd ref="612187704"/>
    <nd ref="612183000"/>
    <nd ref="612183004"/>
    <nd ref="612183006"/>
    <nd ref="612183009"/>
    <nd ref="612183013"/>
    <nd ref="612183015"/>
    <tag k="highway" v="footway"/>
    <tag k="motorcar" v="no"/>
    <tag k="name" v="7-й Микрорайон"/>
  </way>
  <way id="27875149" version="8" timestamp="2011-01-28T13:36:42Z" uid="115477" user="wowik" changeset="7113030">
    <nd ref="306041862"/>
    <nd ref="306042075"/>
    <nd ref="306042077"/>
    <nd ref="306042080"/>
    <nd ref="306042084"/>
    <nd ref="306042086"/>
    <nd ref="1107407753"/>
    <nd ref="306042091"/>
    <tag k="highway" v="service"/>
    <tag k="living_street" v="yes"/>
  </way>
  <way id="27875156" version="4" timestamp="2010-01-12T13:34:56Z" uid="115477" user="wowik" changeset="3602714">
    <nd ref="306042376"/>
    <nd ref="306042467"/>
    <nd ref="306042468"/>
    <nd ref="306042469"/>
    <nd ref="306042470"/>
    <tag k="highway" v="service"/>
    <tag k="living_street" v="yes"/>
    <tag k="service" v="parking_aisle"/>
  </way>
  <way id="27875156" version="5" timestamp="2010-01-12T13:56:31Z" uid="115477" user="wowik" changeset="3602714">
    <nd ref="306042376"/>
    <nd ref="306042467"/>
    <nd ref="306042468"/>
    <nd ref="306042469"/>
    <tag k="highway" v="service"/>
    <tag k="living_street" v="yes"/>
    <tag k="service" v="parking_aisle"/>
  </way>
  <way id="27875156" version="6" timestamp="2010-01-12T13:58:38Z" uid="115477" user="wowik" changeset="3602714">
    <nd ref="306042376"/>
    <nd ref="306042468"/>
    <nd ref="306042469"/>
    <tag k="highway" v="service"/>
    <tag k="living_street" v="yes"/>
    <tag k="service" v="parking_aisle"/>
  </way>
  <way id="27875164" version="2" timestamp="2009-10-07T03:58:17Z" uid="115477" user="wowik" changeset="2767325">
    <nd ref="306042469"/>
    <nd ref="306042698"/>
    <nd ref="306042700"/>
    <nd ref="306042702"/>
    <nd ref="306042705"/>
    <nd ref="306042708"/>
    <nd ref="306042710"/>
    <nd ref="306042712"/>
    <nd ref="306042714"/>
    <nd ref="306042716"/>
    <nd ref="306042718"/>
    <nd ref="306042720"/>
    <nd ref="306042723"/>
    <nd ref="306042724"/>
    <nd ref="306042726"/>
    <nd ref="306042698"/>
    <tag k="highway" v="service"/>
    <tag k="living_street" v="yes"/>
    <tag k="service" v="living_street"/>
  </way>
  <way id="27875164" version="3" timestamp="2010-01-12T13:56:31Z" uid="115477" user="wowik" changeset="3602714">
    <nd ref="306042470"/>
    <nd ref="306042469"/>
    <nd ref="306042698"/>
    <nd ref="306042700"/>
    <nd ref="306042702"/>
    <nd ref="306042705"/>
    <nd ref="306042708"/>
    <nd ref="306042710"/>
    <nd ref="306042712"/>
    <nd ref="306042714"/>
    <nd ref="306042716"/>
    <nd ref="306042718"/>
    <nd ref="306042720"/>
    <nd ref="306042723"/>
    <nd ref="306042724"/>
    <nd ref="306042726"/>
    <nd ref="306042698"/>
    <tag k="highway" v="service"/>
    <tag k="living_street" v="yes"/>
    <tag k="service" v="living_street; parking_aisle"/>
  </way>
  <way id="27875164" version="4" timestamp="2010-01-14T12:37:02Z" uid="115477" user="wowik" changeset="3616588">
    <nd ref="306042470"/>
    <nd ref="306042469"/>
    <nd ref="306042698"/>
    <nd ref="306042700"/>
    <nd ref="306042702"/>
    <nd ref="306042705"/>
    <nd ref="306042708"/>
    <nd ref="306042710"/>
    <nd ref="306042712"/>
    <nd ref="306042714"/>
    <nd ref="306042716"/>
    <nd ref="306042718"/>
    <nd ref="306042720"/>
    <nd ref="306042723"/>
    <nd ref="306042724"/>
    <nd ref="306042726"/>
    <nd ref="306042698"/>
    <tag k="highway" v="service"/>
    <tag k="living_street" v="yes"/>
    <tag k="service" v="living_street"/>
  </way>
  <way id="27875167" version="3" timestamp="2009-10-07T03:58:17Z" uid="115477" user="wowik" changeset="2767325">
    <nd ref="306042835"/>
    <nd ref="306042932"/>
    <nd ref="306042933"/>
    <nd ref="306042935"/>
    <nd ref="306042936"/>
    <nd ref="306042937"/>
    <nd ref="306042938"/>
    <nd ref="306042939"/>
    <nd ref="306042940"/>
    <nd ref="306042942"/>
    <nd ref="306042943"/>
    <nd ref="306042944"/>
    <nd ref="306042945"/>
    <nd ref="306042946"/>
    <nd ref="306042932"/>
    <tag k="highway" v="service"/>
    <tag k="living_street" v="yes"/>
    <tag k="service" v="living_street"/>
  </way>
  <way id="27875177" version="3" timestamp="2009-10-07T03:58:16Z" uid="115477" user="wowik" changeset="2767325">
    <nd ref="306043010"/>
    <nd ref="306043105"/>
    <nd ref="306043106"/>
    <nd ref="306043107"/>
    <nd ref="306043108"/>
    <nd ref="306043109"/>
    <nd ref="306043111"/>
    <nd ref="306043112"/>
    <nd ref="306043113"/>
    <nd ref="306043114"/>
    <nd ref="306043115"/>
    <nd ref="306043116"/>
    <nd ref="306043118"/>
    <nd ref="306043119"/>
    <nd ref="306043120"/>
    <nd ref="306043105"/>
    <tag k="highway" v="service"/>
    <tag k="living_street" v="yes"/>
    <tag k="service" v="living_street"/>
  </way>
  <way id="27875195" version="3" timestamp="2009-04-05T16:45:46Z" uid="9581" user="Lobelt" changeset="210536">
    <nd ref="306043323"/>
    <nd ref="306043336"/>
    <tag k="created_by" v="Potlatch 0.10e"/>
    <tag k="foot" v="yes"/>
    <tag k="highway" v="track"/>
    <tag k="horse" v="yes"/>
    <tag k="motorcar" v="no"/>
    <tag k="motorcycle" v="no"/>
    <tag k="surface" v="unsealed"/>
    <tag k="tracktype" v="grade4"/>
  </way>
  <way id="27875196" version="3" timestamp="2009-10-07T03:58:15Z" uid="115477" user="wowik" changeset="2767325">
    <nd ref="306043189"/>
    <nd ref="306043367"/>
    <nd ref="306043368"/>
    <nd ref="306043369"/>
    <nd ref="306043370"/>
    <nd ref="306043372"/>
    <nd ref="306043373"/>
    <nd ref="306043374"/>
    <nd ref="306043375"/>
    <nd ref="306043376"/>
    <nd ref="306043378"/>
    <nd ref="306043379"/>
    <nd ref="306043380"/>
    <nd ref="306043382"/>
    <nd ref="306043383"/>
    <nd ref="306043384"/>
    <nd ref="306043386"/>
    <nd ref="306043387"/>
    <tag k="highway" v="service"/>
    <tag k="living_street" v="yes"/>
    <tag k="service" v="living_street"/>
  </way>
  <way id="27875196" version="4" timestamp="2009-10-07T03:59:28Z" uid="115477" user="wowik" changeset="2767325">
    <nd ref="306043189"/>
    <nd ref="306043367"/>
    <nd ref="306043368"/>
    <nd ref="306043369"/>
    <nd ref="306043376"/>
    <nd ref="306043378"/>
    <nd ref="306043379"/>
    <nd ref="306043382"/>
    <nd ref="306043383"/>
    <nd ref="306043384"/>
    <nd ref="306043386"/>
    <nd ref="306043387"/>
    <tag k="highway" v="service"/>
    <tag k="living_street" v="yes"/>
    <tag k="service" v="living_street"/>
  </way>
  <way id="27875196" version="5" timestamp="2010-01-12T13:55:29Z" uid="115477" user="wowik" changeset="3602714">
    <nd ref="306043189"/>
    <nd ref="306043368"/>
    <nd ref="306043369"/>
    <nd ref="306043376"/>
    <nd ref="306043378"/>
    <nd ref="306043379"/>
    <nd ref="306043382"/>
    <nd ref="306043383"/>
    <nd ref="306044379"/>
    <nd ref="306044380"/>
    <nd ref="306044381"/>
    <tag k="highway" v="service"/>
    <tag k="living_street" v="yes"/>
    <tag k="service" v="living_street"/>
  </way>
  <way id="27875196" version="6" timestamp="2010-01-12T13:59:51Z" uid="115477" user="wowik" changeset="3602714">
    <nd ref="306043189"/>
    <nd ref="306043368"/>
    <nd ref="306043369"/>
    <nd ref="306043376"/>
    <nd ref="306043378"/>
    <nd ref="306043379"/>
    <nd ref="306043382"/>
    <nd ref="306043383"/>
    <nd ref="306044379"/>
    <nd ref="306044380"/>
    <nd ref="306044381"/>
    <nd ref="612183000"/>
    <tag k="highway" v="service"/>
    <tag k="living_street" v="yes"/>
    <tag k="service" v="living_street"/>
  </way>
  <way id="27875196" version="7" timestamp="2010-05-06T08:30:47Z" uid="115477" user="wowik" changeset="4619331">
    <nd ref="306043189"/>
    <nd ref="306043368"/>
    <nd ref="306043369"/>
    <nd ref="306043376"/>
    <nd ref="306043378"/>
    <nd ref="306043379"/>
    <nd ref="723983193"/>
    <nd ref="306043382"/>
    <nd ref="306043383"/>
    <nd ref="306044379"/>
    <nd ref="306044380"/>
    <nd ref="306044381"/>
    <nd ref="612183000"/>
    <tag k="highway" v="service"/>
    <tag k="living_street" v="yes"/>
    <tag k="service" v="living_street"/>
  </way>
  <way id="27875196" version="8" timestamp="2011-01-28T11:48:54Z" uid="115477" user="wowik" changeset="7112168">
    <nd ref="306043189"/>
    <nd ref="306043368"/>
    <nd ref="306043369"/>
    <nd ref="306043376"/>
    <nd ref="306043378"/>
    <nd ref="306043379"/>
    <nd ref="723983193"/>
    <nd ref="306043382"/>
    <nd ref="306043383"/>
    <nd ref="306044379"/>
    <nd ref="306044380"/>
    <nd ref="306044381"/>
    <nd ref="612183000"/>
    <tag k="highway" v="service"/>
    <tag k="living_street" v="yes"/>
    <tag k="name" v="7-й Микрорайон"/>
  </way>
  <way id="27875196" version="9" timestamp="2011-01-28T13:37:11Z" uid="115477" user="wowik" changeset="7113030">
    <nd ref="306043189"/>
    <nd ref="306043368"/>
    <nd ref="306043369"/>
    <nd ref="306043376"/>
    <nd ref="306043378"/>
    <nd ref="306043379"/>
    <nd ref="723983193"/>
    <nd ref="306043382"/>
    <nd ref="306043383"/>
    <nd ref="306044379"/>
    <nd ref="306044380"/>
    <nd ref="1124841938"/>
    <tag k="highway" v="service"/>
    <tag k="living_street" v="yes"/>
    <tag k="name" v="7-й Микрорайон"/>
  </way>
  <way id="27875199" version="4" timestamp="2008-10-23T18:12:17Z" uid="6975" user="ulfl" changeset="530870">
    <nd ref="306043566"/>
    <nd ref="306043567"/>
    <tag k="escalator" v="yes"/>
    <tag k="highway" v="steps"/>
    <tag k="layer" v="2"/>
    <tag k="oneway" v="yes"/>
  </way>
  <way id="27875207" version="3" timestamp="2009-10-07T03:58:19Z" uid="115477" user="wowik" changeset="2767325">
    <nd ref="306043515"/>
    <nd ref="306043704"/>
    <nd ref="306043706"/>
    <nd ref="306043707"/>
    <nd ref="306043708"/>
    <nd ref="306043709"/>
    <nd ref="306043710"/>
    <nd ref="306043711"/>
    <nd ref="306043712"/>
    <nd ref="306043713"/>
    <nd ref="306043715"/>
    <nd ref="306043716"/>
    <nd ref="306043717"/>
    <nd ref="306043704"/>
    <tag k="highway" v="service"/>
    <tag k="living_street" v="yes"/>
    <tag k="service" v="living_street"/>
  </way>
  <way id="27875237" version="3" timestamp="2009-10-07T03:58:19Z" uid="115477" user="wowik" changeset="2767325">
    <nd ref="306043383"/>
    <nd ref="306044379"/>
    <nd ref="306044380"/>
    <nd ref="306044381"/>
    <tag k="highway" v="service"/>
    <tag k="living_street" v="yes"/>
    <tag k="service" v="living_street"/>
  </way>
  <way id="27875237" version="4" timestamp="2010-01-12T13:55:30Z" uid="115477" user="wowik" changeset="3602714"/>
  <way id="27875242" version="3" timestamp="2009-10-07T03:58:19Z" uid="115477" user="wowik" changeset="2767325">
    <nd ref="306043368"/>
    <nd ref="306044483"/>
    <tag k="highway" v="service"/>
    <tag k="living_street" v="yes"/>
    <tag k="service" v="living_street"/>
  </way>
  <way id="27875271" version="4" timestamp="2010-01-12T13:25:15Z" uid="115477" user="wowik" changeset="3602714">
    <nd ref="306044988"/>
    <nd ref="306044989"/>
    <nd ref="306044990"/>
    <nd ref="306044991"/>
    <nd ref="306044988"/>
    <tag k="addr:city" v="Зеленоград"/>
    <tag k="addr:housenumber" v="701"/>
    <tag k="addr:street" v="7-й Микрорайон"/>
    <tag k="building" v="yes"/>
    <tag k="is_in" v="Russia"/>
  </way>
  <way id="27875271" version="5" timestamp="2011-01-12T10:24:56Z" uid="115477" user="wowik" changeset="6945653">
    <nd ref="306044988"/>
    <nd ref="306044989"/>
    <nd ref="306044990"/>
    <nd ref="306044991"/>
    <nd ref="306044988"/>
    <tag k="addr:city" v="Зеленоград"/>
    <tag k="addr:housenumber" v="701"/>
    <tag k="addr:street" v="7-й Микрорайон"/>
    <tag k="building" v="yes"/>
    <tag k="building:use" v="residential"/>
    <tag k="is_in" v="Russia"/>
  </way>
  <way id="27875275" version="5" timestamp="2010-01-12T13:25:16Z" uid="115477" user="wowik" changeset="3602714">
    <nd ref="306045075"/>
    <nd ref="306045076"/>
    <nd ref="306045077"/>
    <nd ref="306045078"/>
    <nd ref="306045075"/>
    <tag k="addr:city" v="Зеленоград"/>
    <tag k="addr:housenumber" v="702"/>
    <tag k="addr:street" v="7-й Микрорайон"/>
    <tag k="building" v="yes"/>
    <tag k="is_in" v="Russia"/>
  </way>
  <way id="27875275" version="6" timestamp="2011-01-12T10:24:43Z" uid="115477" user="wowik" changeset="6945653">
    <nd ref="306045075"/>
    <nd ref="306045076"/>
    <nd ref="306045077"/>
    <nd ref="306045078"/>
    <nd ref="306045075"/>
    <tag k="addr:city" v="Зеленоград"/>
    <tag k="addr:housenumber" v="702"/>
    <tag k="addr:street" v="7-й Микрорайон"/>
    <tag k="building" v="yes"/>
    <tag k="building:use" v="residential"/>
    <tag k="is_in" v="Russia"/>
  </way>
  <way id="27875279" version="5" timestamp="2010-01-12T13:25:16Z" uid="115477" user="wowik" changeset="3602714">
    <nd ref="306045174"/>
    <nd ref="306045175"/>
    <nd ref="306045176"/>
    <nd ref="306045177"/>
    <nd ref="306045174"/>
    <tag k="addr:city" v="Зеленоград"/>
    <tag k="addr:housenumber" v="703"/>
    <tag k="addr:street" v="7-й Микрорайон"/>
    <tag k="building" v="yes"/>
    <tag k="is_in" v="Russia"/>
  </way>
  <way id="27875279" version="6" timestamp="2011-01-12T10:25:09Z" uid="115477" user="wowik" changeset="6945653">
    <nd ref="306045174"/>
    <nd ref="306045175"/>
    <nd ref="306045176"/>
    <nd ref="306045177"/>
    <nd ref="306045174"/>
    <tag k="addr:city" v="Зеленоград"/>
    <tag k="addr:housenumber" v="703"/>
    <tag k="addr:street" v="7-й Микрорайон"/>
    <tag k="building" v="yes"/>
    <tag k="building:use" v="residential"/>
    <tag k="is_in" v="Russia"/>
  </way>
  <way id="27875284" version="5" timestamp="2010-01-12T13:25:13Z" uid="115477" user="wowik" changeset="3602714">
    <nd ref="306045395"/>
    <nd ref="306045397"/>
    <nd ref="306045399"/>
    <nd ref="306045402"/>
    <nd ref="306045395"/>
    <tag k="addr:city" v="Зеленоград"/>
    <tag k="addr:housenumber" v="704"/>
    <tag k="addr:street" v="7-й Микрорайон"/>
    <tag k="building" v="yes"/>
    <tag k="is_in" v="Russia"/>
  </way>
  <way id="27875284" version="6" timestamp="2011-01-12T10:24:58Z" uid="115477" user="wowik" changeset="6945653">
    <nd ref="306045395"/>
    <nd ref="306045397"/>
    <nd ref="306045399"/>
    <nd ref="306045402"/>
    <nd ref="306045395"/>
    <tag k="addr:city" v="Зеленоград"/>
    <tag k="addr:housenumber" v="704"/>
    <tag k="addr:street" v="7-й Микрорайон"/>
    <tag k="building" v="yes"/>
    <tag k="building:use" v="residential"/>
    <tag k="is_in" v="Russia"/>
  </way>
  <way id="27875296" version="5" timestamp="2010-01-12T13:25:14Z" uid="115477" user="wowik" changeset="3602714">
    <nd ref="306045740"/>
    <nd ref="306045742"/>
    <nd ref="306045743"/>
    <nd ref="306045744"/>
    <nd ref="306045740"/>
    <tag k="addr:city" v="Зеленоград"/>
    <tag k="addr:housenumber" v="705"/>
    <tag k="addr:street" v="7-й Микрорайон"/>
    <tag k="building" v="yes"/>
    <tag k="is_in" v="Russia"/>
  </way>
  <way id="27875296" version="6" timestamp="2011-01-12T10:25:05Z" uid="115477" user="wowik" changeset="6945653">
    <nd ref="306045740"/>
    <nd ref="306045742"/>
    <nd ref="306045743"/>
    <nd ref="306045744"/>
    <nd ref="306045740"/>
    <tag k="addr:city" v="Зеленоград"/>
    <tag k="addr:housenumber" v="705"/>
    <tag k="addr:street" v="7-й Микрорайон"/>
    <tag k="building" v="yes"/>
    <tag k="building:use" v="residential"/>
    <tag k="is_in" v="Russia"/>
  </way>
  <way id="27875303" version="5" timestamp="2010-01-12T13:25:15Z" uid="115477" user="wowik" changeset="3602714">
    <nd ref="306045814"/>
    <nd ref="306045815"/>
    <nd ref="306045816"/>
    <nd ref="306045817"/>
    <nd ref="306045814"/>
    <tag k="addr:city" v="Зеленоград"/>
    <tag k="addr:housenumber" v="706"/>
    <tag k="addr:street" v="7-й Микрорайон"/>
    <tag k="building" v="yes"/>
    <tag k="is_in" v="Russia"/>
  </way>
  <way id="27875303" version="6" timestamp="2010-10-12T14:23:39Z" uid="115477" user="wowik" changeset="6021376">
    <nd ref="306045814"/>
    <nd ref="306045815"/>
    <nd ref="306045816"/>
    <nd ref="945857387"/>
    <nd ref="945857388"/>
    <nd ref="945857391"/>
    <nd ref="945857393"/>
    <nd ref="306045817"/>
    <nd ref="306045814"/>
    <tag k="addr:city" v="Зеленоград"/>
    <tag k="addr:housenumber" v="706"/>
    <tag k="addr:street" v="7-й Микрорайон"/>
    <tag k="building" v="yes"/>
    <tag k="is_in" v="Russia"/>
  </way>
  <way id="27875303" version="7" timestamp="2011-01-12T10:25:01Z" uid="115477" user="wowik" changeset="6945653">
    <nd ref="306045814"/>
    <nd ref="306045815"/>
    <nd ref="306045816"/>
    <nd ref="945857387"/>
    <nd ref="945857388"/>
    <nd ref="945857391"/>
    <nd ref="945857393"/>
    <nd ref="306045817"/>
    <nd ref="306045814"/>
    <tag k="addr:city" v="Зеленоград"/>
    <tag k="addr:housenumber" v="706"/>
    <tag k="addr:street" v="7-й Микрорайон"/>
    <tag k="building" v="yes"/>
    <tag k="building:use" v="residential"/>
    <tag k="is_in" v="Russia"/>
  </way>
  <way id="27875303" version="8" timestamp="2011-01-17T10:11:05Z" uid="115477" user="wowik" changeset="6997647">
    <nd ref="306045814"/>
    <nd ref="306045815"/>
    <nd ref="1107407701"/>
    <nd ref="945857387"/>
    <nd ref="945857388"/>
    <nd ref="1107407769"/>
    <nd ref="306045814"/>
    <tag k="addr:city" v="Зеленоград"/>
    <tag k="addr:housenumber" v="706"/>
    <tag k="addr:street" v="7-й Микрорайон"/>
    <tag k="building" v="yes"/>
    <tag k="building:use" v="residential"/>
    <tag k="is_in" v="Russia"/>
  </way>
  <way id="27875309" version="5" timestamp="2010-01-12T13:25:09Z" uid="115477" user="wowik" changeset="3602714">
    <nd ref="306045953"/>
    <nd ref="306045954"/>
    <nd ref="306045956"/>
    <nd ref="306045957"/>
    <nd ref="306045953"/>
    <tag k="addr:city" v="Зеленоград"/>
    <tag k="addr:housenumber" v="707"/>
    <tag k="addr:street" v="7-й Микрорайон"/>
    <tag k="building" v="yes"/>
    <tag k="is_in" v="Russia"/>
  </way>
  <way id="27875309" version="6" timestamp="2011-01-12T10:25:41Z" uid="115477" user="wowik" changeset="6945653">
    <nd ref="306045953"/>
    <nd ref="306045954"/>
    <nd ref="306045956"/>
    <nd ref="306045957"/>
    <nd ref="306045953"/>
    <tag k="addr:city" v="Зеленоград"/>
    <tag k="addr:housenumber" v="707"/>
    <tag k="addr:street" v="7-й Микрорайон"/>
    <tag k="building" v="yes"/>
    <tag k="building:use" v="residential"/>
    <tag k="is_in" v="Russia"/>
  </way>
  <way id="27875309" version="7" timestamp="2011-01-17T10:11:12Z" uid="115477" user="wowik" changeset="6997647">
    <nd ref="306045953"/>
    <nd ref="306045954"/>
    <nd ref="306045956"/>
    <nd ref="306045957"/>
    <nd ref="306045953"/>
    <tag k="addr:city" v="Зеленоград"/>
    <tag k="addr:housenumber" v="707"/>
    <tag k="addr:street" v="7-й Микрорайон"/>
    <tag k="building" v="yes"/>
    <tag k="building:levels" v="9"/>
    <tag k="building:use" v="residential"/>
    <tag k="is_in" v="Russia"/>
  </way>
  <way id="27875310" version="3" timestamp="2010-10-17T17:04:27Z" uid="9581" user="Lobelt" changeset="6069209">
    <nd ref="954783639"/>
    <nd ref="954783804"/>
    <nd ref="954783875"/>
    <nd ref="954783629"/>
    <nd ref="954783787"/>
    <nd ref="954783932"/>
    <nd ref="954783679"/>
    <nd ref="306046031"/>
    <nd ref="50739462"/>
    <nd ref="50739451"/>
    <nd ref="291011942"/>
    <nd ref="361482748"/>
    <nd ref="306046033"/>
    <nd ref="954783895"/>
    <nd ref="954783717"/>
    <nd ref="954783605"/>
    <nd ref="306043735"/>
    <nd ref="306046036"/>
    <nd ref="306046039"/>
    <nd ref="306046042"/>
    <nd ref="306046045"/>
    <nd ref="306046046"/>
    <nd ref="306046049"/>
    <nd ref="306046051"/>
    <nd ref="306046054"/>
    <nd ref="306046056"/>
    <nd ref="292130122"/>
    <nd ref="306046058"/>
    <nd ref="306046060"/>
    <tag k="waterway" v="dyke"/>
  </way>
  <way id="27875312" version="6" timestamp="2010-01-12T13:25:10Z" uid="115477" user="wowik" changeset="3602714">
    <nd ref="306046109"/>
    <nd ref="306046111"/>
    <nd ref="306046113"/>
    <nd ref="306046116"/>
    <nd ref="306046109"/>
    <tag k="addr:city" v="Зеленоград"/>
    <tag k="addr:housenumber" v="708"/>
    <tag k="addr:street" v="7-й Микрорайон"/>
    <tag k="building" v="yes"/>
    <tag k="is_in" v="Russia"/>
  </way>
  <way id="27875312" version="7" timestamp="2011-01-12T10:25:48Z" uid="115477" user="wowik" changeset="6945653">
    <nd ref="306046109"/>
    <nd ref="306046111"/>
    <nd ref="306046113"/>
    <nd ref="306046116"/>
    <nd ref="306046109"/>
    <tag k="addr:city" v="Зеленоград"/>
    <tag k="addr:housenumber" v="708"/>
    <tag k="addr:street" v="7-й Микрорайон"/>
    <tag k="building" v="yes"/>
    <tag k="building:use" v="residential"/>
    <tag k="is_in" v="Russia"/>
  </way>
  <way id="27875312" version="8" timestamp="2011-01-17T10:11:00Z" uid="115477" user="wowik" changeset="6997647">
    <nd ref="306046109"/>
    <nd ref="306046111"/>
    <nd ref="306046113"/>
    <nd ref="306046116"/>
    <nd ref="306046109"/>
    <tag k="addr:city" v="Зеленоград"/>
    <tag k="addr:housenumber" v="708"/>
    <tag k="addr:street" v="7-й Микрорайон"/>
    <tag k="building" v="yes"/>
    <tag k="building:levels" v="9"/>
    <tag k="building:use" v="residential"/>
    <tag k="is_in" v="Russia"/>
  </way>
  <way id="27875317" version="9" timestamp="2010-01-12T13:25:14Z" uid="115477" user="wowik" changeset="3602714">
    <nd ref="306046319"/>
    <nd ref="306046321"/>
    <nd ref="306046322"/>
    <nd ref="306046323"/>
    <nd ref="306046319"/>
    <tag k="addr:city" v="Зеленоград"/>
    <tag k="addr:housenumber" v="709"/>
    <tag k="addr:street" v="7-й Микрорайон"/>
    <tag k="building" v="yes"/>
    <tag k="is_in" v="Russia"/>
  </way>
  <way id="27875317" version="10" timestamp="2011-01-12T10:24:52Z" uid="115477" user="wowik" changeset="6945653">
    <nd ref="306046319"/>
    <nd ref="306046321"/>
    <nd ref="306046322"/>
    <nd ref="306046323"/>
    <nd ref="306046319"/>
    <tag k="addr:city" v="Зеленоград"/>
    <tag k="addr:housenumber" v="709"/>
    <tag k="addr:street" v="7-й Микрорайон"/>
    <tag k="building" v="yes"/>
    <tag k="building:use" v="residential"/>
    <tag k="is_in" v="Russia"/>
  </way>
  <way id="27875317" version="11" timestamp="2011-01-17T10:11:10Z" uid="115477" user="wowik" changeset="6997647">
    <nd ref="306046319"/>
    <nd ref="306046321"/>
    <nd ref="306046322"/>
    <nd ref="306046323"/>
    <nd ref="306046319"/>
    <tag k="addr:city" v="Зеленоград"/>
    <tag k="addr:housenumber" v="709"/>
    <tag k="addr:street" v="7-й Микрорайон"/>
    <tag k="building" v="yes"/>
    <tag k="building:levels" v="9"/>
    <tag k="building:use" v="residential"/>
    <tag k="is_in" v="Russia"/>
  </way>
  <way id="27875333" version="6" timestamp="2010-01-12T13:25:14Z" uid="115477" user="wowik" changeset="3602714">
    <nd ref="306046381"/>
    <nd ref="306046383"/>
    <nd ref="306046384"/>
    <nd ref="306046385"/>
    <nd ref="306046381"/>
    <tag k="addr:city" v="Зеленоград"/>
    <tag k="addr:housenumber" v="710"/>
    <tag k="addr:street" v="7-й Микрорайон"/>
    <tag k="building" v="yes"/>
    <tag k="is_in" v="Russia"/>
  </way>
  <way id="27875333" version="7" timestamp="2011-01-12T10:25:04Z" uid="115477" user="wowik" changeset="6945653">
    <nd ref="306046381"/>
    <nd ref="306046383"/>
    <nd ref="306046384"/>
    <nd ref="306046385"/>
    <nd ref="306046381"/>
    <tag k="addr:city" v="Зеленоград"/>
    <tag k="addr:housenumber" v="710"/>
    <tag k="addr:street" v="7-й Микрорайон"/>
    <tag k="building" v="yes"/>
    <tag k="building:use" v="residential"/>
    <tag k="is_in" v="Russia"/>
  </way>
  <way id="27875434" version="4" timestamp="2010-04-03T13:41:43Z" uid="20587" user="balrog-kun" changeset="4312927">
    <nd ref="306046539"/>
    <nd ref="306046540"/>
    <nd ref="306046541"/>
    <nd ref="306046542"/>
    <nd ref="306046543"/>
    <nd ref="306046544"/>
    <nd ref="306046545"/>
    <tag k="highway" v="residential"/>
    <tag k="name" v="Briggs Boulevard"/>
    <tag k="oneway" v="yes"/>
  </way>
  <way id="27875455" version="3" timestamp="2010-04-03T13:41:44Z" uid="20587" user="balrog-kun" changeset="4312927">
    <nd ref="306046546"/>
    <nd ref="306046552"/>
    <nd ref="306046553"/>
    <nd ref="306046554"/>
    <nd ref="306046555"/>
    <nd ref="306046556"/>
    <nd ref="306046557"/>
    <nd ref="306046558"/>
    <tag k="highway" v="residential"/>
    <tag k="name" v="Briggs Boulevard"/>
    <tag k="oneway" v="yes"/>
  </way>
  <way id="27875991" version="2" timestamp="2010-03-28T00:15:48Z" uid="20587" user="balrog-kun" changeset="4250871">
    <nd ref="277351377"/>
    <nd ref="137467817"/>
    <tag k="bridge" v="yes"/>
    <tag k="created_by" v="Potlatch 0.10e"/>
    <tag k="highway" v="secondary"/>
    <tag k="layer" v="2"/>
    <tag k="name" v="North Decatur Blvd; S Decatur Boulevard"/>
    <tag k="tiger:cfcc" v="A41"/>
    <tag k="tiger:county" v="Clark, NV"/>
    <tag k="tiger:name_base" v="Decatur"/>
    <tag k="tiger:name_direction_prefix" v="N:S; S"/>
    <tag k="tiger:name_type" v="Blvd"/>
    <tag k="tiger:separated" v="no"/>
    <tag k="tiger:source" v="tiger_import_dch_v0.6_20070813"/>
    <tag k="tiger:tlid" v="201859528:201859533:201859535:201859537:201859538:201859547:201860844:201860845:201860847:201860848:201860873:201860984:201860985:201861281:201861286:201861289:201861291:201861323:201861325:201861328:201891943:201891952:201894579:201897278:201952825:20197"/>
    <tag k="tiger:zip_left" v="89107:89108; 89107"/>
    <tag k="tiger:zip_right" v="89107:89108; 89107"/>
  </way>
  <way id="27875992" version="2" timestamp="2010-03-28T00:15:49Z" uid="20587" user="balrog-kun" changeset="4250871">
    <nd ref="306048841"/>
    <nd ref="137342316"/>
    <nd ref="277347273"/>
    <nd ref="137144463"/>
    <nd ref="137342318"/>
    <nd ref="137342324"/>
    <nd ref="137040931"/>
    <nd ref="137342327"/>
    <nd ref="137342331"/>
    <nd ref="137342334"/>
    <nd ref="137342339"/>
    <nd ref="137342342"/>
    <nd ref="137342345"/>
    <nd ref="137342347"/>
    <nd ref="137342349"/>
    <nd ref="137342353"/>
    <nd ref="137342359"/>
    <tag k="created_by" v="Potlatch 0.10e"/>
    <tag k="highway" v="motorway"/>
    <tag k="layer" v="1"/>
    <tag k="name" v="U.S. 95"/>
    <tag k="name_1" v="Oran K Gragson Expressway"/>
    <tag k="oneway" v="yes"/>
    <tag k="ref" v="US 95"/>
    <tag k="tiger:cfcc" v="A15"/>
    <tag k="tiger:county" v="Clark, NV"/>
    <tag k="tiger:name_base" v="United States Highway 95"/>
    <tag k="tiger:name_base_1" v="Oran K Gragson"/>
    <tag k="tiger:name_type_1" v="Expy"/>
    <tag k="tiger:separated" v="yes"/>
    <tag k="tiger:source" v="tiger_import_dch_v0.6_20070813"/>
    <tag k="tiger:tlid" v="201860653:201945640:201945641:201959710:201964367:201964369:201974807:201975366:201982661:201982663:201982669:201982681:201982682:201982684:201982686:201983058:201985530:201989415:201989769:201990706:201990935"/>
  </way>
  <way id="27875993" version="4" timestamp="2010-03-28T00:15:50Z" uid="20587" user="balrog-kun" changeset="4250871">
    <nd ref="306048842"/>
    <nd ref="306048841"/>
    <tag k="bridge" v="yes"/>
    <tag k="highway" v="motorway"/>
    <tag k="layer" v="1"/>
    <tag k="name" v="U.S. 95"/>
    <tag k="name_1" v="Oran K Gragson Expressway"/>
    <tag k="oneway" v="yes"/>
    <tag k="ref" v="US 95"/>
    <tag k="tiger:cfcc" v="A15"/>
    <tag k="tiger:county" v="Clark, NV"/>
    <tag k="tiger:name_base" v="United States Highway 95"/>
    <tag k="tiger:name_base_1" v="Oran K Gragson"/>
    <tag k="tiger:name_type_1" v="Expy"/>
    <tag k="tiger:separated" v="yes"/>
    <tag k="tiger:source" v="tiger_import_dch_v0.6_20070813"/>
    <tag k="tiger:tlid" v="201860653:201945640:201945641:201959710:201964367:201964369:201974807:201975366:201982661:201982663:201982669:201982681:201982682:201982684:201982686:201983058:201985530:201989415:201989769:201990706:201990935"/>
  </way>
  <way id="27875994" version="3" timestamp="2010-03-28T00:15:50Z" uid="20587" user="balrog-kun" changeset="4250871">
    <nd ref="306048844"/>
    <nd ref="137341867"/>
    <nd ref="137341870"/>
    <nd ref="137341873"/>
    <nd ref="137341876"/>
    <nd ref="137341879"/>
    <nd ref="137341883"/>
    <nd ref="137166326"/>
    <tag k="highway" v="motorway"/>
    <tag k="layer" v="1"/>
    <tag k="name" v="United States Highway 95"/>
    <tag k="name_1" v="Oran K Gragson Expressway"/>
    <tag k="oneway" v="yes"/>
    <tag k="ref" v="US 95"/>
    <tag k="tiger:cfcc" v="A15"/>
    <tag k="tiger:county" v="Clark, NV"/>
    <tag k="tiger:name_base" v="United States Highway 95"/>
    <tag k="tiger:name_base_1" v="Oran K Gragson"/>
    <tag k="tiger:name_type_1" v="Expy"/>
    <tag k="tiger:separated" v="yes"/>
    <tag k="tiger:source" v="tiger_import_dch_v0.6_20070813"/>
    <tag k="tiger:tlid" v="201990788:201982678:201985743:201985744:201973256:201982656:201982660:201982664:201982666:201982670:201984625"/>
  </way>
  <way id="27875995" version="5" timestamp="2010-03-28T00:15:50Z" uid="20587" user="balrog-kun" changeset="4250871">
    <nd ref="306048845"/>
    <nd ref="302435814"/>
    <nd ref="306048844"/>
    <tag k="bridge" v="yes"/>
    <tag k="highway" v="motorway"/>
    <tag k="layer" v="1"/>
    <tag k="name" v="United States Highway 95"/>
    <tag k="name_1" v="Oran K Gragson Expressway"/>
    <tag k="oneway" v="yes"/>
    <tag k="ref" v="US 95"/>
    <tag k="tiger:cfcc" v="A15"/>
    <tag k="tiger:county" v="Clark, NV"/>
    <tag k="tiger:name_base" v="United States Highway 95"/>
    <tag k="tiger:name_base_1" v="Oran K Gragson"/>
    <tag k="tiger:name_type_1" v="Expy"/>
    <tag k="tiger:separated" v="yes"/>
    <tag k="tiger:source" v="tiger_import_dch_v0.6_20070813"/>
    <tag k="tiger:tlid" v="201990788:201982678:201985743:201985744:201973256:201982656:201982660:201982664:201982666:201982670:201984625"/>
  </way>
</osm>
