<?xml version='1.0' encoding='UTF-8'?>
<osm version="0.6" generator="libosmium/2.20.0">
  <way id="27945000" version="4" timestamp="2010-07-09T03:22:08Z" uid="74617" user="JohnSmith" changeset="5170713">
    <nd ref="306734775"/>
    <nd ref="306734972"/>
    <tag k="highway" v="residential"/>
    <tag k="maxspeed" v="50"/>
    <tag k="maxspeed:source" v="default residential speed limit in Australia"/>
    <tag k="name" v="Harold Avenue"/>
    <tag k="source" v="MMBW"/>
  </way>
  <way id="27945003" version="5" timestamp="2010-07-09T03:20:19Z" uid="74617" user="JohnSmith" changeset="5170713">
    <nd ref="29980080"/>
    <nd ref="679007942"/>
    <nd ref="306735544"/>
    <nd ref="306735283"/>
    <tag k="highway" v="residential"/>
    <tag k="maxspeed" v="50"/>
    <tag k="maxspeed:source" v="default residential speed limit in Australia"/>
    <tag k="name" v="Grand View Road"/>
    <tag k="source" v="MMBW"/>
  </way>
  <way id="27945006" version="4" timestamp="2010-07-09T03:17:21Z" uid="74617" user="JohnSmith" changeset="5170713">
    <nd ref="29980012"/>
    <nd ref="306735534"/>
    <nd ref="306735535"/>
    <nd ref="306735536"/>
    <nd ref="306735537"/>
    <nd ref="306735538"/>
    <nd ref="306735539"/>
    <nd ref="306735540"/>
    <nd ref="306735541"/>
    <nd ref="306735542"/>
    <nd ref="306735543"/>
    <nd ref="306735544"/>
    <tag k="highway" v="residential"/>
    <tag k="maxspeed" v="50"/>
    <tag k="maxspeed:source" v="default residential speed limit in Australia"/>
    <tag k="name" v="Ranfurlie Crescent"/>
    <tag k="source" v="nearmap"/>
    <tag k="source:name" v="MMBW"/>
  </way>
  <way id="27945007" version="4" timestamp="2009-08-03T11:09:55Z" uid="4467" user="Rosscoe" changeset="2024204">
    <nd ref="28175558"/>
    <nd ref="306735541"/>
    <tag k="highway" v="residential"/>
    <tag k="name" v="Kialla Avenue"/>
    <tag k="oneway" v="yes"/>
    <tag k="source" v="MMBW"/>
  </way>
  <way id="27945007" version="7" timestamp="2010-07-09T03:19:03Z" uid="74617" user="JohnSmith" changeset="5170713">
    <nd ref="679007394"/>
    <nd ref="679007395"/>
    <nd ref="679007396"/>
    <nd ref="679007397"/>
    <nd ref="679007398"/>
    <nd ref="306735541"/>
    <tag k="highway" v="residential"/>
    <tag k="maxspeed" v="50"/>
    <tag k="maxspeed:source" v="default residential speed limit in Australia"/>
    <tag k="name" v="Kialla Avenue"/>
    <tag k="oneway" v="yes"/>
    <tag k="source" v="MMBW"/>
  </way>
  <way id="27945012" version="5" timestamp="2010-07-09T03:21:32Z" uid="74617" user="JohnSmith" changeset="5170713">
    <nd ref="277358906"/>
    <nd ref="306735802"/>
    <nd ref="306735803"/>
    <nd ref="306735804"/>
    <tag k="highway" v="residential"/>
    <tag k="maxspeed" v="50"/>
    <tag k="maxspeed:source" v="default residential speed limit in Australia"/>
    <tag k="name" v="Essex Street"/>
    <tag k="source" v="MMBW"/>
  </way>
  <way id="27945012" version="6" timestamp="2010-07-10T06:55:14Z" uid="4467" user="Rosscoe" changeset="5179736">
    <nd ref="809535182"/>
    <nd ref="809535241"/>
    <nd ref="809535265"/>
    <tag k="highway" v="residential"/>
    <tag k="maxspeed" v="50"/>
    <tag k="name" v="Essex Street"/>
    <tag k="oneway" v="yes"/>
    <tag k="source" v="nearmap"/>
  </way>
  <way id="27945015" version="3" timestamp="2010-07-09T03:19:43Z" uid="74617" user="JohnSmith" changeset="5170713">
    <nd ref="306735978"/>
    <nd ref="679007947"/>
    <nd ref="306735987"/>
    <nd ref="306735988"/>
    <tag k="highway" v="residential"/>
    <tag k="maxspeed" v="50"/>
    <tag k="maxspeed:source" v="default residential speed limit in Australia"/>
    <tag k="name" v="Allenby Place"/>
    <tag k="source" v="MMBW"/>
  </way>
  <way id="27945017" version="5" timestamp="2010-07-09T03:18:46Z" uid="74617" user="JohnSmith" changeset="5170713">
    <nd ref="306735987"/>
    <nd ref="597558879"/>
    <nd ref="306737606"/>
    <nd ref="351013040"/>
    <nd ref="306737607"/>
    <tag k="highway" v="residential"/>
    <tag k="maxspeed" v="50"/>
    <tag k="maxspeed:source" v="default residential speed limit in Australia"/>
    <tag k="name" v="Allenby Avenue"/>
    <tag k="source" v="Yahoo"/>
    <tag k="source:name" v="Collins 1936"/>
  </way>
  <way id="27945018" version="4" timestamp="2010-07-09T03:21:51Z" uid="74617" user="JohnSmith" changeset="5170713">
    <nd ref="306737606"/>
    <nd ref="719808446"/>
    <nd ref="306737763"/>
    <tag k="highway" v="residential"/>
    <tag k="maxspeed" v="50"/>
    <tag k="maxspeed:source" v="default residential speed limit in Australia"/>
    <tag k="name" v="Ferguson Street"/>
    <tag k="source" v="MMBW"/>
  </way>
  <way id="27945028" version="4" timestamp="2010-02-15T12:15:51Z" uid="74617" user="JohnSmith" changeset="3882541">
    <nd ref="371547582"/>
    <nd ref="262307302"/>
    <nd ref="262307301"/>
    <nd ref="262307300"/>
    <nd ref="262307299"/>
    <nd ref="262307298"/>
    <tag k="highway" v="residential"/>
    <tag k="maxspeed" v="50"/>
    <tag k="name" v="Wallen Place"/>
  </way>
  <way id="27945031" version="5" timestamp="2010-07-09T02:44:06Z" uid="74617" user="JohnSmith" changeset="5170713">
    <nd ref="306741233"/>
    <nd ref="306741548"/>
    <nd ref="306741550"/>
    <nd ref="306741551"/>
    <tag k="highway" v="residential"/>
    <tag k="maxspeed" v="50"/>
    <tag k="maxspeed:source" v="default residential speed limit in Australia"/>
    <tag k="name" v="Hale Court"/>
  </way>
  <way id="27945032" version="6" timestamp="2010-07-09T02:52:40Z" uid="74617" user="JohnSmith" changeset="5170713">
    <nd ref="306741684"/>
    <nd ref="306741784"/>
    <nd ref="306741685"/>
    <nd ref="306741686"/>
    <nd ref="306741688"/>
    <nd ref="306741689"/>
    <nd ref="306741691"/>
    <nd ref="306741725"/>
    <nd ref="306741692"/>
    <tag k="highway" v="residential"/>
    <tag k="maxspeed" v="50"/>
    <tag k="maxspeed:source" v="default residential speed limit in Australia"/>
    <tag k="name" v="Rochdale Drive"/>
  </way>
  <way id="27945033" version="5" timestamp="2010-07-09T02:42:49Z" uid="74617" user="JohnSmith" changeset="5170713">
    <nd ref="306741725"/>
    <nd ref="306741768"/>
    <tag k="highway" v="residential"/>
    <tag k="maxspeed" v="50"/>
    <tag k="maxspeed:source" v="default residential speed limit in Australia"/>
    <tag k="name" v="Helia Court"/>
  </way>
  <way id="27945038" version="6" timestamp="2010-07-09T02:45:09Z" uid="74617" user="JohnSmith" changeset="5170713">
    <nd ref="306742451"/>
    <nd ref="630310273"/>
    <nd ref="306742477"/>
    <tag k="highway" v="residential"/>
    <tag k="maxspeed" v="50"/>
    <tag k="maxspeed:source" v="default residential speed limit in Australia"/>
  </way>
  <way id="27945039" version="6" timestamp="2010-07-09T02:47:35Z" uid="74617" user="JohnSmith" changeset="5170713">
    <nd ref="306742577"/>
    <nd ref="306742414"/>
    <tag k="highway" v="residential"/>
    <tag k="maxspeed" v="50"/>
    <tag k="maxspeed:source" v="default residential speed limit in Australia"/>
    <tag k="name" v="Medhurst Street"/>
  </way>
  <way id="27945040" version="5" timestamp="2010-07-09T02:53:59Z" uid="74617" user="JohnSmith" changeset="5170713">
    <nd ref="306742585"/>
    <nd ref="306742586"/>
    <tag k="highway" v="residential"/>
    <tag k="maxspeed" v="50"/>
    <tag k="maxspeed:source" v="default residential speed limit in Australia"/>
    <tag k="name" v="Ramsey Street"/>
  </way>
  <way id="27945041" version="4" timestamp="2010-07-09T02:43:39Z" uid="74617" user="JohnSmith" changeset="5170713">
    <nd ref="306742601"/>
    <nd ref="306742588"/>
    <tag k="highway" v="residential"/>
    <tag k="maxspeed" v="50"/>
    <tag k="maxspeed:source" v="default residential speed limit in Australia"/>
    <tag k="name" v="Ridley Street"/>
  </way>
  <way id="27945042" version="6" timestamp="2010-07-09T02:47:53Z" uid="74617" user="JohnSmith" changeset="5170713">
    <nd ref="306742694"/>
    <nd ref="306742697"/>
    <nd ref="511968203"/>
    <nd ref="630305635"/>
    <tag k="highway" v="residential"/>
    <tag k="maxspeed" v="50"/>
    <tag k="maxspeed:source" v="default residential speed limit in Australia"/>
    <tag k="name" v="Glyndon Court"/>
  </way>
  <way id="27945044" version="7" timestamp="2010-07-09T02:51:33Z" uid="74617" user="JohnSmith" changeset="5170713">
    <nd ref="306742699"/>
    <nd ref="511968202"/>
    <nd ref="306742795"/>
    <nd ref="306742838"/>
    <nd ref="306742886"/>
    <nd ref="306742796"/>
    <nd ref="306742798"/>
    <nd ref="306742799"/>
    <tag k="highway" v="residential"/>
    <tag k="maxspeed" v="50"/>
    <tag k="maxspeed:source" v="default residential speed limit in Australia"/>
    <tag k="name" v="Lorraine Drive"/>
  </way>
  <way id="27945045" version="5" timestamp="2010-07-09T02:42:04Z" uid="74617" user="JohnSmith" changeset="5170713">
    <nd ref="306742795"/>
    <nd ref="306742824"/>
    <tag k="highway" v="residential"/>
    <tag k="maxspeed" v="50"/>
    <tag k="maxspeed:source" v="default residential speed limit in Australia"/>
    <tag k="name" v="Nives Court"/>
  </way>
  <way id="27945046" version="5" timestamp="2010-07-09T02:45:56Z" uid="74617" user="JohnSmith" changeset="5170713">
    <nd ref="306742838"/>
    <nd ref="306742874"/>
    <tag k="highway" v="residential"/>
    <tag k="maxspeed" v="50"/>
    <tag k="maxspeed:source" v="default residential speed limit in Australia"/>
    <tag k="name" v="Melba Court"/>
  </way>
  <way id="27945047" version="4" timestamp="2010-07-09T02:48:32Z" uid="74617" user="JohnSmith" changeset="5170713">
    <nd ref="306742886"/>
    <nd ref="306743050"/>
    <nd ref="306743051"/>
    <nd ref="306743052"/>
    <tag k="highway" v="residential"/>
    <tag k="maxspeed" v="50"/>
    <tag k="maxspeed:source" v="default residential speed limit in Australia"/>
    <tag k="name" v="Keats Street"/>
  </way>
  <way id="27945051" version="5" timestamp="2010-07-09T02:42:29Z" uid="74617" user="JohnSmith" changeset="5170713">
    <nd ref="306743079"/>
    <nd ref="306743170"/>
    <nd ref="306743104"/>
    <nd ref="306743105"/>
    <nd ref="306743106"/>
    <tag k="highway" v="residential"/>
    <tag k="maxspeed" v="50"/>
    <tag k="maxspeed:source" v="default residential speed limit in Australia"/>
    <tag k="name" v="Davis Street"/>
  </way>
  <way id="27945052" version="4" timestamp="2010-07-09T02:43:01Z" uid="74617" user="JohnSmith" changeset="5170713">
    <nd ref="306743107"/>
    <nd ref="306743108"/>
    <tag k="highway" v="residential"/>
    <tag k="maxspeed" v="50"/>
    <tag k="maxspeed:source" v="default residential speed limit in Australia"/>
    <tag k="name" v="Pippin Avenue"/>
  </way>
  <way id="27945057" version="4" timestamp="2010-07-09T02:41:59Z" uid="74617" user="JohnSmith" changeset="5170713">
    <nd ref="306743144"/>
    <nd ref="306743167"/>
    <nd ref="306743168"/>
    <nd ref="306743169"/>
    <nd ref="306743170"/>
    <tag k="highway" v="residential"/>
    <tag k="maxspeed" v="50"/>
    <tag k="maxspeed:source" v="default residential speed limit in Australia"/>
    <tag k="name" v="Sartori Street"/>
  </way>
  <way id="27945058" version="4" timestamp="2010-07-09T02:45:51Z" uid="74617" user="JohnSmith" changeset="5170713">
    <nd ref="306743171"/>
    <nd ref="306743177"/>
    <tag k="highway" v="residential"/>
    <tag k="maxspeed" v="50"/>
    <tag k="maxspeed:source" v="default residential speed limit in Australia"/>
    <tag k="name" v="Streeton Court"/>
  </way>
  <way id="27945062" version="5" timestamp="2010-07-09T02:44:16Z" uid="74617" user="JohnSmith" changeset="5170713">
    <nd ref="306743178"/>
    <nd ref="306743193"/>
    <nd ref="306743194"/>
    <nd ref="306743195"/>
    <nd ref="306743196"/>
    <nd ref="306743197"/>
    <nd ref="306743198"/>
    <nd ref="570548115"/>
    <nd ref="306743199"/>
    <nd ref="306743200"/>
    <tag k="highway" v="residential"/>
    <tag k="maxspeed" v="50"/>
    <tag k="maxspeed:source" v="default residential speed limit in Australia"/>
    <tag k="name" v="Bonview Crescent"/>
  </way>
  <way id="27945063" version="5" timestamp="2010-07-09T02:46:37Z" uid="74617" user="JohnSmith" changeset="5170713">
    <nd ref="306743199"/>
    <nd ref="306743389"/>
    <tag k="highway" v="residential"/>
    <tag k="maxspeed" v="50"/>
    <tag k="maxspeed:source" v="default residential speed limit in Australia"/>
    <tag k="name" v="Emily Court"/>
  </way>
  <way id="27945065" version="5" timestamp="2010-07-09T05:14:29Z" uid="74617" user="JohnSmith" changeset="5170986">
    <nd ref="306743390"/>
    <nd ref="306743391"/>
    <nd ref="306743392"/>
    <tag k="highway" v="residential"/>
    <tag k="maxspeed" v="50"/>
    <tag k="maxspeed:source" v="default residential speed limit in Australia"/>
    <tag k="name" v="Samuel Road"/>
  </way>
  <way id="27945066" version="5" timestamp="2010-07-09T05:12:44Z" uid="74617" user="JohnSmith" changeset="5170986">
    <nd ref="306743391"/>
    <nd ref="306743400"/>
    <tag k="highway" v="residential"/>
    <tag k="maxspeed" v="50"/>
    <tag k="maxspeed:source" v="default residential speed limit in Australia"/>
    <tag k="name" v="Paramount Avenue"/>
  </way>
  <way id="27945067" version="7" timestamp="2010-07-09T05:19:04Z" uid="74617" user="JohnSmith" changeset="5170986">
    <nd ref="306743401"/>
    <nd ref="306743824"/>
    <nd ref="306743400"/>
    <nd ref="306743697"/>
    <nd ref="306743698"/>
    <nd ref="306743589"/>
    <tag k="highway" v="residential"/>
    <tag k="maxspeed" v="50"/>
    <tag k="maxspeed:source" v="default residential speed limit in Australia"/>
    <tag k="name" v="Bermuda Drive"/>
  </way>
  <way id="27945069" version="6" timestamp="2010-07-09T05:15:42Z" uid="74617" user="JohnSmith" changeset="5170986">
    <nd ref="306743590"/>
    <nd ref="306743643"/>
    <nd ref="306743644"/>
    <nd ref="306743646"/>
    <nd ref="306743589"/>
    <nd ref="306743687"/>
    <nd ref="306743647"/>
    <tag k="highway" v="residential"/>
    <tag k="maxspeed" v="50"/>
    <tag k="maxspeed:source" v="default residential speed limit in Australia"/>
    <tag k="name" v="Grange Road"/>
  </way>
  <way id="27945070" version="6" timestamp="2010-07-09T05:14:03Z" uid="74617" user="JohnSmith" changeset="5170986">
    <nd ref="306743646"/>
    <nd ref="306743680"/>
    <tag k="highway" v="residential"/>
    <tag k="maxspeed" v="50"/>
    <tag k="maxspeed:source" v="default residential speed limit in Australia"/>
    <tag k="name" v="Raven Court"/>
  </way>
  <way id="27945071" version="6" timestamp="2010-07-09T05:12:11Z" uid="74617" user="JohnSmith" changeset="5170986">
    <nd ref="306743687"/>
    <nd ref="306743695"/>
    <tag k="highway" v="residential"/>
    <tag k="maxspeed" v="50"/>
    <tag k="maxspeed:source" v="default residential speed limit in Australia"/>
    <tag k="name" v="Glenfern Court"/>
  </way>
  <way id="27945072" version="5" timestamp="2010-07-09T05:15:32Z" uid="74617" user="JohnSmith" changeset="5170986">
    <nd ref="306743696"/>
    <nd ref="306743697"/>
    <tag k="highway" v="residential"/>
    <tag k="maxspeed" v="50"/>
    <tag k="maxspeed:source" v="default residential speed limit in Australia"/>
    <tag k="name" v="Holyroyd Court"/>
  </way>
  <way id="27945073" version="6" timestamp="2010-07-09T05:13:51Z" uid="74617" user="JohnSmith" changeset="5170986">
    <nd ref="306743698"/>
    <nd ref="306743797"/>
    <tag k="highway" v="residential"/>
    <tag k="maxspeed" v="50"/>
    <tag k="maxspeed:source" v="default residential speed limit in Australia"/>
    <tag k="name" v="Tudor Court"/>
  </way>
  <way id="27945074" version="6" timestamp="2010-07-09T05:20:13Z" uid="74617" user="JohnSmith" changeset="5170986">
    <nd ref="306743808"/>
    <nd ref="306743809"/>
    <tag k="highway" v="residential"/>
    <tag k="maxspeed" v="50"/>
    <tag k="maxspeed:source" v="default residential speed limit in Australia"/>
    <tag k="name" v="Crockerton Court"/>
  </way>
  <way id="27945075" version="6" timestamp="2010-07-09T05:18:24Z" uid="74617" user="JohnSmith" changeset="5170986">
    <nd ref="306743811"/>
    <nd ref="306743810"/>
    <tag k="highway" v="residential"/>
    <tag k="maxspeed" v="50"/>
    <tag k="maxspeed:source" v="default residential speed limit in Australia"/>
    <tag k="name" v="Meadow Court"/>
  </way>
  <way id="27945076" version="5" timestamp="2010-07-09T05:16:46Z" uid="74617" user="JohnSmith" changeset="5170986">
    <nd ref="306744117"/>
    <nd ref="306743824"/>
    <tag k="highway" v="residential"/>
    <tag k="maxspeed" v="50"/>
    <tag k="maxspeed:source" v="default residential speed limit in Australia"/>
    <tag k="name" v="Somerset Court"/>
  </way>
  <way id="27945077" version="5" timestamp="2010-07-09T05:15:03Z" uid="74617" user="JohnSmith" changeset="5170986">
    <nd ref="306744118"/>
    <nd ref="306744119"/>
    <tag k="highway" v="residential"/>
    <tag k="maxspeed" v="50"/>
    <tag k="maxspeed:source" v="default residential speed limit in Australia"/>
    <tag k="name" v="Lucia Street"/>
  </way>
  <way id="27945078" version="6" timestamp="2010-07-09T05:13:23Z" uid="74617" user="JohnSmith" changeset="5170986">
    <nd ref="306744120"/>
    <nd ref="306744121"/>
    <tag k="highway" v="residential"/>
    <tag k="maxspeed" v="50"/>
    <tag k="maxspeed:source" v="default residential speed limit in Australia"/>
    <tag k="name" v="Freda Court"/>
  </way>
  <way id="27945079" version="7" timestamp="2010-07-09T05:19:42Z" uid="74617" user="JohnSmith" changeset="5170986">
    <nd ref="306744237"/>
    <nd ref="306744238"/>
    <nd ref="306744239"/>
    <nd ref="306744240"/>
    <nd ref="306744241"/>
    <tag k="highway" v="residential"/>
    <tag k="maxspeed" v="50"/>
    <tag k="maxspeed:source" v="default residential speed limit in Australia"/>
    <tag k="name" v="Lana Street"/>
  </way>
  <way id="27945080" version="5" timestamp="2010-07-09T05:13:05Z" uid="74617" user="JohnSmith" changeset="5170986">
    <nd ref="306744238"/>
    <nd ref="306744119"/>
    <nd ref="306744247"/>
    <tag k="highway" v="residential"/>
    <tag k="maxspeed" v="50"/>
    <tag k="maxspeed:source" v="default residential speed limit in Australia"/>
    <tag k="name" v="Mira Road"/>
  </way>
  <way id="27945082" version="10" timestamp="2010-07-09T05:17:41Z" uid="74617" user="JohnSmith" changeset="5170986">
    <nd ref="306744287"/>
    <nd ref="306744363"/>
    <nd ref="306744637"/>
    <nd ref="306744632"/>
    <nd ref="306744631"/>
    <nd ref="306744573"/>
    <nd ref="306744475"/>
    <nd ref="306744365"/>
    <tag k="highway" v="residential"/>
    <tag k="maxspeed" v="50"/>
    <tag k="maxspeed:source" v="default residential speed limit in Australia"/>
    <tag k="name" v="Jenner Street"/>
  </way>
  <way id="27945084" version="7" timestamp="2010-07-09T05:14:18Z" uid="74617" user="JohnSmith" changeset="5170986">
    <nd ref="234705947"/>
    <nd ref="797778418"/>
    <nd ref="797778421"/>
    <nd ref="306744473"/>
    <nd ref="306744475"/>
    <nd ref="306744544"/>
    <nd ref="306744476"/>
    <tag k="highway" v="residential"/>
    <tag k="maxspeed" v="50"/>
    <tag k="maxspeed:source" v="default residential speed limit in Australia"/>
    <tag k="name" v="Hastings Avenue"/>
  </way>
  <way id="27945085" version="5" timestamp="2010-07-09T05:12:32Z" uid="74617" user="JohnSmith" changeset="5170986">
    <nd ref="306744493"/>
    <nd ref="306744543"/>
    <nd ref="306744544"/>
    <tag k="highway" v="residential"/>
    <tag k="maxspeed" v="50"/>
    <tag k="maxspeed:source" v="default residential speed limit in Australia"/>
    <tag k="name" v="Glenice Avenue"/>
  </way>
  <way id="27945087" version="5" timestamp="2010-07-09T05:17:11Z" uid="74617" user="JohnSmith" changeset="5170986">
    <nd ref="306744552"/>
    <nd ref="306744573"/>
    <nd ref="306744590"/>
    <tag k="highway" v="residential"/>
    <tag k="maxspeed" v="50"/>
    <tag k="maxspeed:source" v="default residential speed limit in Australia"/>
    <tag k="name" v="Richmond Street"/>
  </way>
  <way id="27945089" version="5" timestamp="2010-07-09T05:14:20Z" uid="74617" user="JohnSmith" changeset="5170986">
    <nd ref="306744621"/>
    <nd ref="306744631"/>
    <tag k="highway" v="residential"/>
    <tag k="maxspeed" v="50"/>
    <tag k="maxspeed:source" v="default residential speed limit in Australia"/>
    <tag k="name" v="York Street"/>
  </way>
  <way id="27945090" version="5" timestamp="2010-07-09T05:12:36Z" uid="74617" user="JohnSmith" changeset="5170986">
    <nd ref="306744632"/>
    <nd ref="306744634"/>
    <tag k="highway" v="residential"/>
    <tag k="maxspeed" v="50"/>
    <tag k="maxspeed:source" v="default residential speed limit in Australia"/>
    <tag k="name" v="York Street"/>
  </way>
  <way id="27945092" version="5" timestamp="2010-07-09T05:17:14Z" uid="74617" user="JohnSmith" changeset="5170986">
    <nd ref="306744635"/>
    <nd ref="306744637"/>
    <nd ref="306744638"/>
    <tag k="highway" v="residential"/>
    <tag k="maxspeed" v="50"/>
    <tag k="maxspeed:source" v="default residential speed limit in Australia"/>
    <tag k="name" v="Harrow Street"/>
  </way>
  <way id="27945094" version="5" timestamp="2010-07-09T05:13:53Z" uid="74617" user="JohnSmith" changeset="5170986">
    <nd ref="306744642"/>
    <nd ref="306744643"/>
    <nd ref="306744644"/>
    <nd ref="306744645"/>
    <nd ref="306744646"/>
    <nd ref="306744647"/>
    <nd ref="306744648"/>
    <tag k="highway" v="residential"/>
    <tag k="maxspeed" v="50"/>
    <tag k="maxspeed:source" v="default residential speed limit in Australia"/>
    <tag k="name" v="Westminster Close"/>
  </way>
  <way id="27945095" version="5" timestamp="2010-07-09T05:20:17Z" uid="74617" user="JohnSmith" changeset="5170986">
    <nd ref="306744645"/>
    <nd ref="306744649"/>
    <tag k="highway" v="residential"/>
    <tag k="maxspeed" v="50"/>
    <tag k="maxspeed:source" v="default residential speed limit in Australia"/>
    <tag k="name" v="Trafalgar Court"/>
  </way>
  <way id="27945096" version="5" timestamp="2010-07-09T05:13:35Z" uid="74617" user="JohnSmith" changeset="5170986">
    <nd ref="306744650"/>
    <nd ref="306744651"/>
    <tag k="highway" v="residential"/>
    <tag k="maxspeed" v="50"/>
    <tag k="maxspeed:source" v="default residential speed limit in Australia"/>
    <tag k="name" v="Hetrel Court"/>
  </way>
  <way id="27945101" version="5" timestamp="2010-07-09T05:13:08Z" uid="74617" user="JohnSmith" changeset="5170986">
    <nd ref="234705888"/>
    <nd ref="306745040"/>
    <nd ref="306745041"/>
    <nd ref="306745042"/>
    <tag k="highway" v="residential"/>
    <tag k="maxspeed" v="50"/>
    <tag k="maxspeed:source" v="default residential speed limit in Australia"/>
    <tag k="name" v="Christine Street"/>
  </way>
  <way id="27945102" version="6" timestamp="2010-07-09T05:19:27Z" uid="74617" user="JohnSmith" changeset="5170986">
    <nd ref="306745052"/>
    <nd ref="306745293"/>
    <nd ref="306745132"/>
    <nd ref="797776030"/>
    <tag k="highway" v="residential"/>
    <tag k="maxspeed" v="50"/>
    <tag k="maxspeed:source" v="default residential speed limit in Australia"/>
  </way>
  <way id="27945103" version="5" timestamp="2010-07-09T05:17:42Z" uid="74617" user="JohnSmith" changeset="5170986">
    <nd ref="306745183"/>
    <nd ref="306745208"/>
    <nd ref="306745184"/>
    <tag k="highway" v="residential"/>
    <tag k="maxspeed" v="50"/>
    <tag k="maxspeed:source" v="default residential speed limit in Australia"/>
  </way>
  <way id="27945104" version="4" timestamp="2010-07-09T05:12:55Z" uid="74617" user="JohnSmith" changeset="5170986">
    <nd ref="306745208"/>
    <nd ref="306745293"/>
    <tag k="highway" v="residential"/>
    <tag k="maxspeed" v="50"/>
    <tag k="maxspeed:source" v="default residential speed limit in Australia"/>
  </way>
  <way id="27945106" version="6" timestamp="2010-07-09T05:17:32Z" uid="74617" user="JohnSmith" changeset="5170986">
    <nd ref="306745323"/>
    <nd ref="306745439"/>
    <nd ref="306745440"/>
    <nd ref="27444937"/>
    <tag k="highway" v="residential"/>
    <tag k="maxspeed" v="50"/>
    <tag k="maxspeed:source" v="default residential speed limit in Australia"/>
    <tag k="name" v="Baratta Street"/>
  </way>
  <way id="27945107" version="6" timestamp="2010-07-09T05:15:55Z" uid="74617" user="JohnSmith" changeset="5170986">
    <nd ref="306745578"/>
    <nd ref="306745579"/>
    <nd ref="306745581"/>
    <tag k="highway" v="residential"/>
    <tag k="maxspeed" v="50"/>
    <tag k="maxspeed:source" v="default residential speed limit in Australia"/>
    <tag k="name" v="Paulette Court"/>
  </way>
  <way id="27945109" version="6" timestamp="2010-07-09T05:12:22Z" uid="74617" user="JohnSmith" changeset="5170986">
    <nd ref="306745849"/>
    <nd ref="27445208"/>
    <tag k="highway" v="residential"/>
    <tag k="maxspeed" v="50"/>
    <tag k="maxspeed:source" v="default residential speed limit in Australia"/>
    <tag k="name" v="Cluney Court"/>
  </way>
  <way id="27945111" version="6" timestamp="2010-07-09T05:17:05Z" uid="74617" user="JohnSmith" changeset="5170986">
    <nd ref="306745880"/>
    <nd ref="306745881"/>
    <tag k="highway" v="residential"/>
    <tag k="maxspeed" v="50"/>
    <tag k="maxspeed:source" v="default residential speed limit in Australia"/>
    <tag k="name" v="Jobert Court"/>
  </way>
  <way id="27945112" version="5" timestamp="2010-07-09T05:18:25Z" uid="74617" user="JohnSmith" changeset="5170986">
    <nd ref="30043635"/>
    <nd ref="306746049"/>
    <nd ref="306746050"/>
    <nd ref="306746051"/>
    <nd ref="306746053"/>
    <nd ref="306746054"/>
    <nd ref="306746055"/>
    <nd ref="30043635"/>
    <tag k="highway" v="residential"/>
    <tag k="junction" v="roundabout"/>
    <tag k="maxspeed" v="50"/>
    <tag k="maxspeed:source" v="default residential speed limit in Australia"/>
    <tag k="name" v="Orchard Grove"/>
  </way>
  <way id="27945113" version="2" timestamp="2010-02-15T12:15:56Z" uid="74617" user="JohnSmith" changeset="3882541">
    <nd ref="306746090"/>
    <nd ref="262267154"/>
    <tag k="highway" v="residential"/>
    <tag k="maxspeed" v="50"/>
  </way>
  <way id="27945114" version="8" timestamp="2010-07-09T05:15:06Z" uid="74617" user="JohnSmith" changeset="5170986">
    <nd ref="306746278"/>
    <nd ref="306746281"/>
    <nd ref="306746282"/>
    <nd ref="306746283"/>
    <tag k="highway" v="residential"/>
    <tag k="maxspeed" v="50"/>
    <tag k="maxspeed:source" v="default residential speed limit in Australia"/>
    <tag k="name" v="Berl Court"/>
    <tag k="source" v="nearmap"/>
  </way>
  <way id="27945115" version="5" timestamp="2010-07-09T05:13:24Z" uid="74617" user="JohnSmith" changeset="5170986">
    <nd ref="306746299"/>
    <nd ref="306746301"/>
    <nd ref="306746302"/>
    <nd ref="306746303"/>
    <tag k="highway" v="residential"/>
    <tag k="maxspeed" v="50"/>
    <tag k="maxspeed:source" v="default residential speed limit in Australia"/>
    <tag k="name" v="Crimson Avenue"/>
  </way>
  <way id="27945116" version="6" timestamp="2010-07-09T05:19:46Z" uid="74617" user="JohnSmith" changeset="5170986">
    <nd ref="306746301"/>
    <nd ref="306746304"/>
    <nd ref="306746305"/>
    <tag k="highway" v="residential"/>
    <tag k="maxspeed" v="50"/>
    <tag k="maxspeed:source" v="default residential speed limit in Australia"/>
    <tag k="name" v="Banool Court"/>
  </way>
  <way id="27945117" version="6" timestamp="2010-07-09T05:17:58Z" uid="74617" user="JohnSmith" changeset="5170986">
    <nd ref="306746306"/>
    <nd ref="306746307"/>
    <tag k="highway" v="residential"/>
    <tag k="maxspeed" v="50"/>
    <tag k="maxspeed:source" v="default residential speed limit in Australia"/>
    <tag k="name" v="Coppel Court"/>
  </way>
  <way id="27945118" version="7" timestamp="2010-07-09T05:16:21Z" uid="74617" user="JohnSmith" changeset="5170986">
    <nd ref="27445218"/>
    <nd ref="27445217"/>
    <tag k="highway" v="residential"/>
    <tag k="maxspeed" v="50"/>
    <tag k="maxspeed:source" v="default residential speed limit in Australia"/>
    <tag k="name" v="Horkings Street"/>
  </way>
  <way id="27945119" version="5" timestamp="2010-07-09T05:14:37Z" uid="74617" user="JohnSmith" changeset="5170986">
    <nd ref="27445213"/>
    <nd ref="27445214"/>
    <tag k="highway" v="residential"/>
    <tag k="maxspeed" v="50"/>
    <tag k="maxspeed:source" v="default residential speed limit in Australia"/>
    <tag k="name" v="Ralph Street"/>
  </way>
  <way id="27945120" version="5" timestamp="2010-07-09T05:14:15Z" uid="74617" user="JohnSmith" changeset="5170986">
    <nd ref="306746442"/>
    <nd ref="306746443"/>
    <tag k="highway" v="residential"/>
    <tag k="maxspeed" v="50"/>
    <tag k="maxspeed:source" v="default residential speed limit in Australia"/>
    <tag k="name" v="Barns Street"/>
  </way>
  <way id="27945124" version="6" timestamp="2010-05-18T08:29:33Z" uid="4467" user="Rosscoe" changeset="4736536"/>
  <way id="27945125" version="4" timestamp="2010-07-09T05:13:46Z" uid="74617" user="JohnSmith" changeset="5170986">
    <nd ref="306746719"/>
    <nd ref="306746720"/>
    <tag k="highway" v="residential"/>
    <tag k="maxspeed" v="50"/>
    <tag k="maxspeed:source" v="default residential speed limit in Australia"/>
    <tag k="name" v="Eckersley Court"/>
  </way>
  <way id="27945126" version="6" timestamp="2010-05-18T08:29:16Z" uid="4467" user="Rosscoe" changeset="4736536">
    <nd ref="130167659"/>
    <nd ref="318548177"/>
    <nd ref="306746719"/>
    <nd ref="306746752"/>
    <nd ref="130171235"/>
    <tag k="highway" v="residential"/>
    <tag k="name" v="Roslyn Street"/>
  </way>
  <way id="27945126" version="7" timestamp="2010-07-09T05:20:10Z" uid="74617" user="JohnSmith" changeset="5170986">
    <nd ref="130167659"/>
    <nd ref="318548177"/>
    <nd ref="306746719"/>
    <nd ref="306746752"/>
    <nd ref="130171235"/>
    <tag k="highway" v="residential"/>
    <tag k="maxspeed" v="50"/>
    <tag k="maxspeed:source" v="default residential speed limit in Australia"/>
    <tag k="name" v="Roslyn Street"/>
  </way>
  <way id="27945128" version="8" timestamp="2010-07-09T05:19:51Z" uid="74617" user="JohnSmith" changeset="5170986">
    <nd ref="306746754"/>
    <nd ref="306746882"/>
    <nd ref="306746866"/>
    <nd ref="244783953"/>
    <nd ref="318548764"/>
    <nd ref="306746755"/>
    <tag k="highway" v="residential"/>
    <tag k="maxspeed" v="50"/>
    <tag k="maxspeed:source" v="default residential speed limit in Australia"/>
    <tag k="name" v="Gissing Street"/>
  </way>
  <way id="27945129" version="7" timestamp="2010-07-09T05:18:01Z" uid="74617" user="JohnSmith" changeset="5170986">
    <nd ref="306746765"/>
    <nd ref="306746861"/>
    <nd ref="306746851"/>
    <nd ref="306746938"/>
    <nd ref="306746826"/>
    <nd ref="306746827"/>
    <tag k="highway" v="residential"/>
    <tag k="maxspeed" v="50"/>
    <tag k="maxspeed:source" v="default residential speed limit in Australia"/>
    <tag k="name" v="Hearty Street"/>
  </way>
  <way id="27945130" version="4" timestamp="2010-07-09T05:16:24Z" uid="74617" user="JohnSmith" changeset="5170986">
    <nd ref="306746860"/>
    <nd ref="306746851"/>
    <tag k="highway" v="residential"/>
    <tag k="maxspeed" v="50"/>
    <tag k="maxspeed:source" v="default residential speed limit in Australia"/>
    <tag k="name" v="Ryan Grove"/>
  </way>
  <way id="27945131" version="5" timestamp="2010-07-09T05:14:40Z" uid="74617" user="JohnSmith" changeset="5170986">
    <nd ref="306746861"/>
    <nd ref="306746863"/>
    <nd ref="306746864"/>
    <tag k="highway" v="residential"/>
    <tag k="maxspeed" v="50"/>
    <tag k="maxspeed:source" v="default residential speed limit in Australia"/>
    <tag k="name" v="Bronwyn Court"/>
  </way>
  <way id="27945132" version="4" timestamp="2010-07-09T05:12:59Z" uid="74617" user="JohnSmith" changeset="5170986">
    <nd ref="306746865"/>
    <nd ref="306746866"/>
    <tag k="highway" v="residential"/>
    <tag k="maxspeed" v="50"/>
    <tag k="maxspeed:source" v="default residential speed limit in Australia"/>
    <tag k="name" v="Rosen Street"/>
  </way>
  <way id="27945134" version="4" timestamp="2010-07-09T05:17:36Z" uid="74617" user="JohnSmith" changeset="5170986">
    <nd ref="306746867"/>
    <nd ref="306746882"/>
    <tag k="highway" v="residential"/>
    <tag k="maxspeed" v="50"/>
    <tag k="maxspeed:source" v="default residential speed limit in Australia"/>
    <tag k="name" v="Constance Street"/>
  </way>
  <way id="27945136" version="4" timestamp="2010-07-09T05:19:06Z" uid="74617" user="JohnSmith" changeset="5170986">
    <nd ref="306746889"/>
    <nd ref="306746930"/>
    <tag k="highway" v="residential"/>
    <tag k="maxspeed" v="50"/>
    <tag k="maxspeed:source" v="default residential speed limit in Australia"/>
    <tag k="name" v="Elemheim Court"/>
  </way>
  <way id="27945138" version="5" timestamp="2010-07-09T05:15:46Z" uid="74617" user="JohnSmith" changeset="5170986">
    <nd ref="306746938"/>
    <nd ref="306747072"/>
    <nd ref="306747034"/>
    <nd ref="306747035"/>
    <nd ref="306747036"/>
    <nd ref="306747037"/>
    <tag k="highway" v="residential"/>
    <tag k="maxspeed" v="50"/>
    <tag k="maxspeed:source" v="default residential speed limit in Australia"/>
    <tag k="name" v="Dobell Street"/>
  </way>
  <way id="27945139" version="4" timestamp="2010-07-09T05:14:05Z" uid="74617" user="JohnSmith" changeset="5170986">
    <nd ref="306747042"/>
    <nd ref="306747061"/>
    <nd ref="306747062"/>
    <nd ref="306747063"/>
    <nd ref="306747036"/>
    <tag k="highway" v="residential"/>
    <tag k="maxspeed" v="50"/>
    <tag k="maxspeed:source" v="default residential speed limit in Australia"/>
    <tag k="name" v="Hurter Street"/>
  </way>
  <way id="27945140" version="4" timestamp="2010-07-09T05:12:13Z" uid="74617" user="JohnSmith" changeset="5170986">
    <nd ref="306747068"/>
    <nd ref="306747072"/>
    <tag k="highway" v="residential"/>
    <tag k="maxspeed" v="50"/>
    <tag k="maxspeed:source" v="default residential speed limit in Australia"/>
    <tag k="name" v="Wagner Street"/>
  </way>
  <way id="27945142" version="5" timestamp="2010-07-09T05:16:58Z" uid="74617" user="JohnSmith" changeset="5170986">
    <nd ref="306747079"/>
    <nd ref="306747168"/>
    <tag k="highway" v="residential"/>
    <tag k="maxspeed" v="50"/>
    <tag k="maxspeed:source" v="default residential speed limit in Australia"/>
    <tag k="name" v="Lloyd Court"/>
  </way>
  <way id="27945143" version="6" timestamp="2010-07-09T05:15:17Z" uid="74617" user="JohnSmith" changeset="5170986">
    <nd ref="306747213"/>
    <nd ref="583090710"/>
    <nd ref="306747214"/>
    <tag k="highway" v="residential"/>
    <tag k="maxspeed" v="50"/>
    <tag k="maxspeed:source" v="default residential speed limit in Australia"/>
    <tag k="name" v="Reuben Court"/>
  </way>
  <way id="27945144" version="5" timestamp="2010-07-09T05:16:42Z" uid="74617" user="JohnSmith" changeset="5170986">
    <nd ref="306747266"/>
    <nd ref="306747250"/>
    <tag k="highway" v="residential"/>
    <tag k="maxspeed" v="50"/>
    <tag k="maxspeed:source" v="default residential speed limit in Australia"/>
    <tag k="name" v="Chamberlin Court"/>
  </way>
  <way id="27945145" version="5" timestamp="2010-07-09T05:15:00Z" uid="74617" user="JohnSmith" changeset="5170986">
    <nd ref="306747273"/>
    <nd ref="306747274"/>
    <tag k="highway" v="residential"/>
    <tag k="maxspeed" v="50"/>
    <tag k="maxspeed:source" v="default residential speed limit in Australia"/>
    <tag k="name" v="Pamela Court"/>
  </way>
  <way id="27945146" version="5" timestamp="2010-07-09T05:13:19Z" uid="74617" user="JohnSmith" changeset="5170986">
    <nd ref="306747282"/>
    <nd ref="306747284"/>
    <nd ref="306747279"/>
    <tag k="highway" v="residential"/>
    <tag k="maxspeed" v="50"/>
    <tag k="maxspeed:source" v="default residential speed limit in Australia"/>
    <tag k="name" v="Claude Court"/>
  </way>
  <way id="27945147" version="8" timestamp="2011-03-24T14:51:50Z" uid="4467" user="Rosscoe" changeset="7656534">
    <nd ref="306747288"/>
    <nd ref="530256821"/>
    <nd ref="530256822"/>
    <nd ref="530256850"/>
    <nd ref="306747289"/>
    <nd ref="530256851"/>
    <nd ref="306747290"/>
    <nd ref="530256853"/>
    <nd ref="530256852"/>
    <nd ref="530256854"/>
    <nd ref="306747291"/>
    <nd ref="530256855"/>
    <nd ref="306747292"/>
    <nd ref="306747293"/>
    <nd ref="1215973719"/>
    <nd ref="306747288"/>
    <tag k="area" v="yes"/>
    <tag k="landuse" v="retail"/>
    <tag k="name" v="Wynnum Plaza"/>
    <tag k="shop" v="mall"/>
  </way>
  <way id="27945149" version="9" timestamp="2010-07-09T05:16:15Z" uid="74617" user="JohnSmith" changeset="5170986">
    <nd ref="306747286"/>
    <nd ref="306747405"/>
    <nd ref="797775632"/>
    <tag k="highway" v="residential"/>
    <tag k="maxspeed" v="50"/>
    <tag k="maxspeed:source" v="default residential speed limit in Australia"/>
    <tag k="name" v="Mingeta Avenue"/>
    <tag k="source" v="nearmap"/>
  </way>
  <way id="27945150" version="5" timestamp="2010-07-09T02:48:14Z" uid="74617" user="JohnSmith" changeset="5170713">
    <nd ref="306747428"/>
    <nd ref="306747541"/>
    <nd ref="306747556"/>
    <nd ref="306747476"/>
    <tag k="highway" v="residential"/>
    <tag k="maxspeed" v="50"/>
    <tag k="maxspeed:source" v="default residential speed limit in Australia"/>
    <tag k="name" v="Jonathan Avenue"/>
  </way>
  <way id="27945151" version="4" timestamp="2010-07-09T02:51:06Z" uid="74617" user="JohnSmith" changeset="5170713">
    <nd ref="306747540"/>
    <nd ref="306747541"/>
    <tag k="highway" v="residential"/>
    <tag k="maxspeed" v="50"/>
    <tag k="maxspeed:source" v="default residential speed limit in Australia"/>
    <tag k="name" v="Apple Court"/>
  </way>
  <way id="27945152" version="4" timestamp="2010-07-09T02:49:33Z" uid="74617" user="JohnSmith" changeset="5170713">
    <nd ref="306747616"/>
    <nd ref="306747556"/>
    <tag k="highway" v="residential"/>
    <tag k="maxspeed" v="50"/>
    <tag k="maxspeed:source" v="default residential speed limit in Australia"/>
    <tag k="name" v="Pear Court"/>
  </way>
  <way id="27945155" version="5" timestamp="2010-07-09T02:46:58Z" uid="74617" user="JohnSmith" changeset="5170713">
    <nd ref="306747928"/>
    <nd ref="306747987"/>
    <tag k="highway" v="residential"/>
    <tag k="maxspeed" v="50"/>
    <tag k="maxspeed:source" v="default residential speed limit in Australia"/>
    <tag k="name" v="Cambara Court"/>
  </way>
  <way id="27945155" version="6" timestamp="2011-03-26T02:19:04Z" uid="4467" user="Rosscoe" changeset="7671712">
    <nd ref="306747928"/>
    <nd ref="306747987"/>
    <tag k="highway" v="residential"/>
    <tag k="maxspeed" v="50"/>
    <tag k="name" v="Cambara Court"/>
    <tag k="source:maxspeed" v="default residential speed limit in Australia"/>
  </way>
  <way id="27945159" version="5" timestamp="2010-07-09T02:45:11Z" uid="74617" user="JohnSmith" changeset="5170713">
    <nd ref="306748004"/>
    <nd ref="306748141"/>
    <nd ref="306748142"/>
    <tag k="highway" v="residential"/>
    <tag k="maxspeed" v="50"/>
    <tag k="maxspeed:source" v="default residential speed limit in Australia"/>
    <tag k="name" v="Cantala Court"/>
  </way>
  <way id="27945159" version="6" timestamp="2011-03-26T02:18:59Z" uid="4467" user="Rosscoe" changeset="7671712">
    <nd ref="306748004"/>
    <nd ref="306748141"/>
    <nd ref="306748142"/>
    <tag k="highway" v="residential"/>
    <tag k="maxspeed" v="50"/>
    <tag k="name" v="Cantala Court"/>
    <tag k="source:maxspeed" v="default residential speed limit in Australia"/>
  </way>
  <way id="27945161" version="5" timestamp="2010-07-09T02:43:52Z" uid="74617" user="JohnSmith" changeset="5170713">
    <nd ref="306748227"/>
    <nd ref="306748228"/>
    <nd ref="206106397"/>
    <tag k="highway" v="residential"/>
    <tag k="maxspeed" v="50"/>
    <tag k="maxspeed:source" v="default residential speed limit in Australia"/>
    <tag k="name" v="Justina Close"/>
  </way>
  <way id="27945165" version="6" timestamp="2010-07-09T02:42:17Z" uid="74617" user="JohnSmith" changeset="5170713">
    <nd ref="206106126"/>
    <nd ref="306748472"/>
    <nd ref="306748473"/>
    <nd ref="306748474"/>
    <nd ref="660100294"/>
    <nd ref="306748475"/>
    <nd ref="660100295"/>
    <nd ref="306748476"/>
    <nd ref="306748477"/>
    <nd ref="306748478"/>
    <nd ref="306748479"/>
    <nd ref="306748480"/>
    <tag k="highway" v="residential"/>
    <tag k="maxspeed" v="50"/>
    <tag k="maxspeed:source" v="default residential speed limit in Australia"/>
    <tag k="name" v="Vogue Avenue"/>
  </way>
  <way id="27945171" version="7" timestamp="2010-07-09T02:52:13Z" uid="74617" user="JohnSmith" changeset="5170713">
    <nd ref="306748794"/>
    <nd ref="306748795"/>
    <nd ref="660100293"/>
    <nd ref="306748476"/>
    <tag k="highway" v="residential"/>
    <tag k="maxspeed" v="50"/>
    <tag k="maxspeed:source" v="default residential speed limit in Australia"/>
    <tag k="name" v="Alpine Court"/>
  </way>
  <way id="27945174" version="4" timestamp="2010-07-09T02:47:15Z" uid="74617" user="JohnSmith" changeset="5170713">
    <nd ref="306748840"/>
    <nd ref="206106494"/>
    <nd ref="206106490"/>
    <tag k="highway" v="residential"/>
    <tag k="maxspeed" v="50"/>
    <tag k="maxspeed:source" v="default residential speed limit in Australia"/>
    <tag k="name" v="Scarborough Road"/>
  </way>
  <way id="27945175" version="6" timestamp="2010-07-09T02:49:50Z" uid="74617" user="JohnSmith" changeset="5170713">
    <nd ref="206104638"/>
    <nd ref="306748925"/>
    <nd ref="306748926"/>
    <tag k="highway" v="residential"/>
    <tag k="maxspeed" v="50"/>
    <tag k="maxspeed:source" v="default residential speed limit in Australia"/>
    <tag k="name" v="Karen Court"/>
  </way>
  <way id="27945230" version="14" timestamp="2010-07-09T04:01:41Z" uid="74617" user="JohnSmith" changeset="5170825">
    <nd ref="306753845"/>
    <nd ref="306755681"/>
    <nd ref="306754049"/>
    <nd ref="306756821"/>
    <nd ref="306757310"/>
    <nd ref="306754215"/>
    <nd ref="306757969"/>
    <nd ref="306755281"/>
    <nd ref="306755465"/>
    <nd ref="276592167"/>
    <nd ref="306766115"/>
    <nd ref="306760370"/>
    <nd ref="306775537"/>
    <nd ref="306775393"/>
    <nd ref="306753932"/>
    <tag k="highway" v="residential"/>
    <tag k="maxspeed" v="50"/>
    <tag k="maxspeed:source" v="default residential speed limit in Australia"/>
    <tag k="name" v="Oakover Road"/>
  </way>
  <way id="27945235" version="5" timestamp="2010-07-09T04:10:37Z" uid="74617" user="JohnSmith" changeset="5170825">
    <nd ref="306754049"/>
    <nd ref="306754733"/>
    <nd ref="306755005"/>
    <nd ref="306754150"/>
    <tag k="highway" v="residential"/>
    <tag k="maxspeed" v="50"/>
    <tag k="maxspeed:source" v="default residential speed limit in Australia"/>
    <tag k="name" v="Davies Street"/>
    <tag k="source" v="survey"/>
  </way>
  <way id="27945240" version="5" timestamp="2010-07-09T03:59:01Z" uid="74617" user="JohnSmith" changeset="5170825">
    <nd ref="306754215"/>
    <nd ref="306754566"/>
    <nd ref="306754763"/>
    <nd ref="306754335"/>
    <tag k="highway" v="residential"/>
    <tag k="maxspeed" v="50"/>
    <tag k="maxspeed:source" v="default residential speed limit in Australia"/>
    <tag k="name" v="Devon Street"/>
    <tag k="source" v="survey"/>
  </way>
  <way id="27945241" version="2" timestamp="2010-07-09T04:12:20Z" uid="74617" user="JohnSmith" changeset="5170825">
    <nd ref="306754566"/>
    <nd ref="306754733"/>
    <tag k="highway" v="residential"/>
    <tag k="maxspeed" v="50"/>
    <tag k="maxspeed:source" v="default residential speed limit in Australia"/>
    <tag k="name" v="Stephen Street"/>
    <tag k="source" v="survey"/>
  </way>
  <way id="27945245" version="2" timestamp="2010-07-09T04:14:35Z" uid="74617" user="JohnSmith" changeset="5170825">
    <nd ref="306754763"/>
    <nd ref="306755005"/>
    <tag k="highway" v="residential"/>
    <tag k="maxspeed" v="50"/>
    <tag k="maxspeed:source" v="default residential speed limit in Australia"/>
    <tag k="name" v="Gillingham Street"/>
    <tag k="source" v="survey"/>
  </way>
  <way id="27945248" version="2" timestamp="2010-07-09T04:14:19Z" uid="74617" user="JohnSmith" changeset="5170825">
    <nd ref="306755148"/>
    <nd ref="306755281"/>
    <tag k="highway" v="residential"/>
    <tag k="maxspeed" v="50"/>
    <tag k="maxspeed:source" v="default residential speed limit in Australia"/>
    <tag k="name" v="Carthew Grove"/>
    <tag k="source" v="survey"/>
  </way>
  <way id="27945252" version="2" timestamp="2010-07-09T04:00:54Z" uid="74617" user="JohnSmith" changeset="5170825">
    <nd ref="306755308"/>
    <nd ref="306755465"/>
    <tag k="highway" v="residential"/>
    <tag k="maxspeed" v="50"/>
    <tag k="maxspeed:source" v="default residential speed limit in Australia"/>
    <tag k="name" v="Mitchell Street"/>
    <tag k="source" v="survey"/>
  </way>
  <way id="27945254" version="2" timestamp="2010-07-09T04:10:14Z" uid="74617" user="JohnSmith" changeset="5170825">
    <nd ref="306755681"/>
    <nd ref="306755812"/>
    <tag k="highway" v="residential"/>
    <tag k="maxspeed" v="50"/>
    <tag k="maxspeed:source" v="default residential speed limit in Australia"/>
    <tag k="name" v="Newman Street"/>
    <tag k="source" v="survey"/>
  </way>
  <way id="27945255" version="4" timestamp="2010-07-09T04:06:44Z" uid="74617" user="JohnSmith" changeset="5170825">
    <nd ref="276838953"/>
    <nd ref="311673505"/>
    <nd ref="311673506"/>
    <tag k="highway" v="residential"/>
    <tag k="maxspeed" v="50"/>
    <tag k="maxspeed:source" v="default residential speed limit in Australia"/>
    <tag k="name" v="Showers Street"/>
    <tag k="source" v="survey"/>
  </way>
  <way id="27945256" version="3" timestamp="2010-07-09T04:09:45Z" uid="74617" user="JohnSmith" changeset="5170825">
    <nd ref="306756268"/>
    <nd ref="306756278"/>
    <tag k="highway" v="residential"/>
    <tag k="maxspeed" v="50"/>
    <tag k="maxspeed:source" v="default residential speed limit in Australia"/>
    <tag k="name" v="Penola Street"/>
    <tag k="source" v="survey"/>
  </way>
  <way id="27945257" version="3" timestamp="2010-07-09T04:06:13Z" uid="74617" user="JohnSmith" changeset="5170825">
    <nd ref="306756231"/>
    <nd ref="306756508"/>
    <nd ref="306756509"/>
    <tag k="highway" v="residential"/>
    <tag k="maxspeed" v="50"/>
    <tag k="maxspeed:source" v="default residential speed limit in Australia"/>
    <tag k="name" v="Stokes Street"/>
    <tag k="source" v="survey"/>
  </way>
  <way id="27945259" version="3" timestamp="2010-07-09T03:58:20Z" uid="74617" user="JohnSmith" changeset="5170825">
    <nd ref="306756821"/>
    <nd ref="306756984"/>
    <nd ref="306756882"/>
    <tag k="highway" v="residential"/>
    <tag k="maxspeed" v="50"/>
    <tag k="maxspeed:source" v="default residential speed limit in Australia"/>
    <tag k="name" v="Austral Avenue"/>
    <tag k="source" v="survey"/>
  </way>
  <way id="27945260" version="3" timestamp="2010-07-09T04:12:03Z" uid="74617" user="JohnSmith" changeset="5170825">
    <nd ref="306756984"/>
    <nd ref="306757085"/>
    <nd ref="306757087"/>
    <tag k="highway" v="residential"/>
    <tag k="maxspeed" v="50"/>
    <tag k="maxspeed:source" v="default residential speed limit in Australia"/>
    <tag k="name" v="Stott Street"/>
    <tag k="source" v="survey"/>
  </way>
  <way id="27945263" version="5" timestamp="2010-07-09T04:01:55Z" uid="74617" user="JohnSmith" changeset="5170825">
    <nd ref="306757310"/>
    <nd ref="306757355"/>
    <tag k="highway" v="residential"/>
    <tag k="maxspeed" v="50"/>
    <tag k="maxspeed:source" v="default residential speed limit in Australia"/>
    <tag k="name" v="Erin Street"/>
    <tag k="source" v="survey"/>
  </way>
  <way id="27945270" version="5" timestamp="2010-07-09T04:03:49Z" uid="74617" user="JohnSmith" changeset="5170825">
    <nd ref="306757969"/>
    <nd ref="306759176"/>
    <nd ref="306759228"/>
    <nd ref="306758180"/>
    <tag k="highway" v="residential"/>
    <tag k="maxspeed" v="50"/>
    <tag k="maxspeed:source" v="default residential speed limit in Australia"/>
    <tag k="name" v="Scotia Street"/>
    <tag k="source" v="survey"/>
  </way>
  <way id="27945278" version="3" timestamp="2010-07-09T03:57:37Z" uid="74617" user="JohnSmith" changeset="5170825">
    <nd ref="306755465"/>
    <nd ref="306758716"/>
    <nd ref="306758699"/>
    <tag k="highway" v="residential"/>
    <tag k="maxspeed" v="50"/>
    <tag k="maxspeed:source" v="default residential speed limit in Australia"/>
    <tag k="name" v="Etnam Street"/>
    <tag k="source" v="survey"/>
  </way>
  <way id="27945279" version="2" timestamp="2010-07-09T04:11:40Z" uid="74617" user="JohnSmith" changeset="5170825">
    <nd ref="306758716"/>
    <nd ref="276592169"/>
    <tag k="highway" v="residential"/>
    <tag k="maxspeed" v="50"/>
    <tag k="maxspeed:source" v="default residential speed limit in Australia"/>
    <tag k="name" v="Ivy Street"/>
    <tag k="source" v="survey"/>
  </way>
  <way id="27945284" version="2" timestamp="2010-07-09T04:04:24Z" uid="74617" user="JohnSmith" changeset="5170825">
    <nd ref="276592171"/>
    <nd ref="306759176"/>
    <tag k="highway" v="residential"/>
    <tag k="maxspeed" v="50"/>
    <tag k="maxspeed:source" v="default residential speed limit in Australia"/>
    <tag k="name" v="Latona Avenue"/>
    <tag k="source" v="survey"/>
  </way>
  <way id="27945287" version="2" timestamp="2010-07-09T04:10:29Z" uid="74617" user="JohnSmith" changeset="5170825">
    <nd ref="306759205"/>
    <nd ref="306759228"/>
    <tag k="highway" v="residential"/>
    <tag k="maxspeed" v="50"/>
    <tag k="maxspeed:source" v="default residential speed limit in Australia"/>
    <tag k="name" v="Orient Grove"/>
    <tag k="source" v="survey"/>
  </way>
  <way id="27945300" version="7" timestamp="2010-07-09T04:14:11Z" uid="74617" user="JohnSmith" changeset="5170825">
    <nd ref="276592168"/>
    <nd ref="306766180"/>
    <nd ref="306760227"/>
    <nd ref="306760435"/>
    <nd ref="306760228"/>
    <nd ref="306763748"/>
    <nd ref="306765216"/>
    <nd ref="306760230"/>
    <nd ref="268945614"/>
    <tag k="highway" v="residential"/>
    <tag k="maxspeed" v="50"/>
    <tag k="maxspeed:source" v="default residential speed limit in Australia"/>
    <tag k="name" v="Kendall Street"/>
  </way>
  <way id="27945303" version="10" timestamp="2010-07-09T04:04:02Z" uid="74617" user="JohnSmith" changeset="5170825">
    <nd ref="306773023"/>
    <nd ref="306773374"/>
    <nd ref="306773061"/>
    <nd ref="306760370"/>
    <nd ref="306765913"/>
    <nd ref="306760435"/>
    <nd ref="306760496"/>
    <nd ref="306763639"/>
    <nd ref="306769267"/>
    <nd ref="306760436"/>
    <tag k="highway" v="residential"/>
    <tag k="maxspeed" v="50"/>
    <tag k="maxspeed:source" v="default residential speed limit in Australia"/>
    <tag k="name" v="Robeson Street"/>
  </way>
  <way id="27945309" version="2" timestamp="2010-07-09T04:06:01Z" uid="74617" user="JohnSmith" changeset="5170825">
    <nd ref="306760496"/>
    <nd ref="276592170"/>
    <tag k="highway" v="residential"/>
    <tag k="maxspeed" v="50"/>
    <tag k="maxspeed:source" v="default residential speed limit in Australia"/>
    <tag k="name" v="Concord Street"/>
  </way>
  <way id="27945320" version="4" timestamp="2010-07-09T04:00:45Z" uid="74617" user="JohnSmith" changeset="5170825">
    <nd ref="276592172"/>
    <nd ref="306763639"/>
    <nd ref="306764021"/>
    <nd ref="306765199"/>
    <nd ref="268945611"/>
    <tag k="highway" v="residential"/>
    <tag k="maxspeed" v="50"/>
    <tag k="maxspeed:source" v="default residential speed limit in Australia"/>
    <tag k="name" v="Matlock Street"/>
  </way>
  <way id="27945322" version="2" timestamp="2010-07-09T04:10:07Z" uid="74617" user="JohnSmith" changeset="5170825">
    <nd ref="306763748"/>
    <nd ref="306764021"/>
    <tag k="highway" v="residential"/>
    <tag k="maxspeed" v="50"/>
    <tag k="maxspeed:source" v="default residential speed limit in Australia"/>
    <tag k="name" v="Rowan Street"/>
  </way>
  <way id="27945324" version="5" timestamp="2010-07-09T04:03:07Z" uid="74617" user="JohnSmith" changeset="5170825">
    <nd ref="268945613"/>
    <nd ref="306764377"/>
    <nd ref="306764378"/>
    <nd ref="306764380"/>
    <nd ref="306764381"/>
    <nd ref="599378120"/>
    <nd ref="306769489"/>
    <nd ref="306769490"/>
    <tag k="highway" v="residential"/>
    <tag k="maxspeed" v="50"/>
    <tag k="maxspeed:source" v="default residential speed limit in Australia"/>
    <tag k="name" v="Willows Street"/>
  </way>
  <way id="27945329" version="5" timestamp="2010-07-09T04:12:06Z" uid="74617" user="JohnSmith" changeset="5170825">
    <nd ref="306765195"/>
    <nd ref="314791240"/>
    <nd ref="306769268"/>
    <nd ref="306765199"/>
    <nd ref="306765214"/>
    <nd ref="306765215"/>
    <nd ref="306765216"/>
    <tag k="highway" v="residential"/>
    <tag k="maxspeed" v="50"/>
    <tag k="maxspeed:source" v="default residential speed limit in Australia"/>
    <tag k="name" v="Stafford Street"/>
  </way>
  <way id="27945338" version="4" timestamp="2010-07-09T04:03:41Z" uid="74617" user="JohnSmith" changeset="5170825">
    <nd ref="306765913"/>
    <nd ref="306775394"/>
    <nd ref="268945615"/>
    <nd ref="306765950"/>
    <nd ref="306765951"/>
    <nd ref="306766112"/>
    <nd ref="306766113"/>
    <nd ref="306766114"/>
    <tag k="highway" v="residential"/>
    <tag k="maxspeed" v="50"/>
    <tag k="maxspeed:source" v="default residential speed limit in Australia"/>
    <tag k="name" v="Goodwin Street"/>
  </way>
  <way id="27945340" version="2" timestamp="2010-07-09T04:12:58Z" uid="74617" user="JohnSmith" changeset="5170825">
    <nd ref="306766115"/>
    <nd ref="306766180"/>
    <tag k="highway" v="residential"/>
    <tag k="maxspeed" v="50"/>
    <tag k="maxspeed:source" v="default residential speed limit in Australia"/>
    <tag k="name" v="Dudley Street"/>
  </way>
  <way id="27945349" version="4" timestamp="2010-07-09T04:08:23Z" uid="74617" user="JohnSmith" changeset="5170825">
    <nd ref="276592173"/>
    <nd ref="306769267"/>
    <nd ref="314791240"/>
    <tag k="highway" v="residential"/>
    <tag k="maxspeed" v="50"/>
    <tag k="maxspeed:source" v="default residential speed limit in Australia"/>
    <tag k="name" v="Birch Street"/>
  </way>
  <way id="27945350" version="3" timestamp="2010-07-09T04:04:54Z" uid="74617" user="JohnSmith" changeset="5170825">
    <nd ref="306769490"/>
    <nd ref="599378135"/>
    <nd ref="306769691"/>
    <nd ref="306769692"/>
    <tag k="highway" v="residential"/>
    <tag k="maxspeed" v="50"/>
    <tag k="maxspeed:source" v="default residential speed limit in Australia"/>
    <tag k="name" v="Ward Street"/>
  </way>
  <way id="27945351" version="5" timestamp="2010-07-09T05:09:16Z" uid="74617" user="JohnSmith" changeset="5170972">
    <nd ref="306769490"/>
    <nd ref="599378136"/>
    <nd ref="306769787"/>
    <nd ref="599378153"/>
    <nd ref="306769788"/>
    <nd ref="306769789"/>
    <tag k="highway" v="residential"/>
    <tag k="maxspeed" v="50"/>
    <tag k="maxspeed:source" v="default residential speed limit in Australia"/>
    <tag k="name" v="Eleanor Street"/>
  </way>
  <way id="27945360" version="6" timestamp="2010-07-09T04:03:00Z" uid="74617" user="JohnSmith" changeset="5170825">
    <nd ref="314791029"/>
    <nd ref="306773023"/>
    <nd ref="306779409"/>
    <nd ref="306772210"/>
    <tag k="highway" v="residential"/>
    <tag k="maxspeed" v="50"/>
    <tag k="maxspeed:source" v="default residential speed limit in Australia"/>
    <tag k="name" v="Miller Street"/>
  </way>
  <way id="27945361" version="3" timestamp="2010-07-09T03:58:55Z" uid="74617" user="JohnSmith" changeset="5170825">
    <nd ref="306765950"/>
    <nd ref="306772587"/>
    <nd ref="306753932"/>
    <nd ref="306772588"/>
    <nd ref="306772589"/>
    <nd ref="306772590"/>
    <nd ref="306772591"/>
    <tag k="highway" v="residential"/>
    <tag k="maxspeed" v="50"/>
    <tag k="maxspeed:source" v="default residential speed limit in Australia"/>
    <tag k="name" v="Halwyn Crescent"/>
  </way>
  <way id="27945363" version="2" timestamp="2010-07-09T04:09:02Z" uid="74617" user="JohnSmith" changeset="5170825">
    <nd ref="306772591"/>
    <nd ref="306772592"/>
    <tag k="highway" v="residential"/>
    <tag k="maxspeed" v="50"/>
    <tag k="maxspeed:source" v="default residential speed limit in Australia"/>
    <tag k="name" v="Halwyn Crescent"/>
  </way>
  <way id="27945364" version="4" timestamp="2010-07-09T04:05:28Z" uid="74617" user="JohnSmith" changeset="5170825">
    <nd ref="306772590"/>
    <nd ref="306775258"/>
    <nd ref="306775408"/>
    <nd ref="306773061"/>
    <tag k="highway" v="residential"/>
    <tag k="maxspeed" v="50"/>
    <tag k="maxspeed:source" v="default residential speed limit in Australia"/>
    <tag k="name" v="Calbourne Street"/>
  </way>
  <way id="27945368" version="2" timestamp="2010-07-09T04:14:04Z" uid="74617" user="JohnSmith" changeset="5170825">
    <nd ref="306773374"/>
    <nd ref="276592166"/>
    <tag k="highway" v="residential"/>
    <tag k="maxspeed" v="50"/>
    <tag k="maxspeed:source" v="default residential speed limit in Australia"/>
    <tag k="name" v="Burgess Street"/>
  </way>
  <way id="27945381" version="2" timestamp="2010-07-09T04:11:59Z" uid="74617" user="JohnSmith" changeset="5170825">
    <nd ref="306775258"/>
    <nd ref="306775393"/>
    <nd ref="306775394"/>
    <tag k="highway" v="residential"/>
    <tag k="maxspeed" v="50"/>
    <tag k="maxspeed:source" v="default residential speed limit in Australia"/>
    <tag k="name" v="Ventnor Street"/>
  </way>
  <way id="27945383" version="2" timestamp="2010-07-09T04:05:09Z" uid="74617" user="JohnSmith" changeset="5170825">
    <nd ref="306775408"/>
    <nd ref="306775537"/>
    <tag k="highway" v="residential"/>
    <tag k="maxspeed" v="50"/>
    <tag k="maxspeed:source" v="default residential speed limit in Australia"/>
    <tag k="name" v="Ryde Street"/>
  </way>
  <way id="27945386" version="3" timestamp="2010-03-28T00:16:29Z" uid="20587" user="balrog-kun" changeset="4250871">
    <nd ref="306775834"/>
    <nd ref="306775829"/>
    <tag k="bridge" v="yes"/>
    <tag k="created_by" v="Potlatch 0.10e"/>
    <tag k="highway" v="motorway"/>
    <tag k="layer" v="1"/>
    <tag k="name" v="Junipero Serra Freeway"/>
    <tag k="oneway" v="yes"/>
    <tag k="ref" v="I 280"/>
  </way>
  <way id="27945387" version="4" timestamp="2010-03-28T00:16:30Z" uid="20587" user="balrog-kun" changeset="4250871">
    <nd ref="306775829"/>
    <nd ref="30677830"/>
    <nd ref="30677832"/>
    <nd ref="30677833"/>
    <nd ref="30677834"/>
    <nd ref="315192193"/>
    <nd ref="306775848"/>
    <tag k="created_by" v="Potlatch 0.10f"/>
    <tag k="highway" v="motorway"/>
    <tag k="name" v="Junipero Serra Freeway"/>
    <tag k="oneway" v="yes"/>
    <tag k="ref" v="I 280"/>
  </way>
  <way id="27945388" version="4" timestamp="2010-03-28T00:16:30Z" uid="20587" user="balrog-kun" changeset="4250871">
    <nd ref="31053180"/>
    <nd ref="31053181"/>
    <nd ref="31053182"/>
    <nd ref="31053183"/>
    <nd ref="306086001"/>
    <nd ref="671083965"/>
    <tag k="highway" v="motorway"/>
    <tag k="name" v="Junipero Serra Freeway"/>
    <tag k="oneway" v="yes"/>
    <tag k="ref" v="I 280"/>
  </way>
  <way id="27945389" version="3" timestamp="2010-03-28T00:16:30Z" uid="20587" user="balrog-kun" changeset="4250871">
    <nd ref="306775839"/>
    <nd ref="31053180"/>
    <tag k="bridge" v="yes"/>
    <tag k="created_by" v="Potlatch 0.10e"/>
    <tag k="highway" v="motorway"/>
    <tag k="layer" v="1"/>
    <tag k="name" v="Junipero Serra Freeway"/>
    <tag k="oneway" v="yes"/>
    <tag k="ref" v="I 280"/>
  </way>
  <way id="27945390" version="4" timestamp="2010-03-28T00:16:30Z" uid="20587" user="balrog-kun" changeset="4250871">
    <nd ref="306775848"/>
    <nd ref="30677835"/>
    <tag k="bridge" v="yes"/>
    <tag k="highway" v="motorway"/>
    <tag k="layer" v="1"/>
    <tag k="name" v="Junipero Serra Freeway"/>
    <tag k="oneway" v="yes"/>
    <tag k="ref" v="I 280"/>
  </way>
  <way id="27945391" version="6" timestamp="2010-03-28T00:16:30Z" uid="20587" user="balrog-kun" changeset="4250871">
    <nd ref="30677835"/>
    <nd ref="541340341"/>
    <nd ref="541340603"/>
    <nd ref="541340606"/>
    <nd ref="30677836"/>
    <nd ref="541340307"/>
    <nd ref="541340308"/>
    <nd ref="30677837"/>
    <nd ref="541340310"/>
    <nd ref="336129308"/>
    <nd ref="306775861"/>
    <tag k="highway" v="motorway"/>
    <tag k="name" v="Junipero Serra Freeway"/>
    <tag k="oneway" v="yes"/>
    <tag k="ref" v="I 280"/>
  </way>
  <way id="27945392" version="3" timestamp="2010-03-28T00:16:31Z" uid="20587" user="balrog-kun" changeset="4250871">
    <nd ref="31053175"/>
    <nd ref="306775843"/>
    <tag k="bridge" v="yes"/>
    <tag k="created_by" v="Potlatch 0.10e"/>
    <tag k="highway" v="motorway"/>
    <tag k="layer" v="1"/>
    <tag k="name" v="Junipero Serra Freeway"/>
    <tag k="oneway" v="yes"/>
    <tag k="ref" v="I 280"/>
  </way>
  <way id="27945393" version="3" timestamp="2010-03-28T00:16:31Z" uid="20587" user="balrog-kun" changeset="4250871">
    <nd ref="306775843"/>
    <nd ref="31053176"/>
    <nd ref="306085967"/>
    <nd ref="31053177"/>
    <nd ref="31053178"/>
    <nd ref="239553418"/>
    <nd ref="31053179"/>
    <nd ref="306775839"/>
    <tag k="created_by" v="Potlatch 0.10e"/>
    <tag k="highway" v="motorway"/>
    <tag k="name" v="Junipero Serra Freeway"/>
    <tag k="oneway" v="yes"/>
    <tag k="ref" v="I 280"/>
  </way>
  <way id="27945394" version="4" timestamp="2010-03-28T00:16:31Z" uid="20587" user="balrog-kun" changeset="4250871">
    <nd ref="306775853"/>
    <nd ref="31053172"/>
    <nd ref="336129313"/>
    <nd ref="31053173"/>
    <nd ref="31053174"/>
    <nd ref="31053175"/>
    <tag k="highway" v="motorway"/>
    <tag k="name" v="Junipero Serra Freeway"/>
    <tag k="oneway" v="yes"/>
    <tag k="ref" v="I 280"/>
  </way>
  <way id="27945395" version="4" timestamp="2010-03-28T00:16:31Z" uid="20587" user="balrog-kun" changeset="4250871">
    <nd ref="306775857"/>
    <nd ref="306775853"/>
    <tag k="bridge" v="yes"/>
    <tag k="highway" v="motorway"/>
    <tag k="layer" v="1"/>
    <tag k="name" v="Junipero Serra Freeway"/>
    <tag k="oneway" v="yes"/>
    <tag k="ref" v="I 280"/>
  </way>
  <way id="27945396" version="4" timestamp="2010-03-28T00:16:31Z" uid="20587" user="balrog-kun" changeset="4250871">
    <nd ref="306775861"/>
    <nd ref="30677838"/>
    <tag k="bridge" v="yes"/>
    <tag k="highway" v="motorway"/>
    <tag k="layer" v="1"/>
    <tag k="name" v="Junipero Serra Freeway"/>
    <tag k="oneway" v="yes"/>
    <tag k="ref" v="I 280"/>
  </way>
  <way id="27945397" version="7" timestamp="2010-03-28T00:16:31Z" uid="20587" user="balrog-kun" changeset="4250871">
    <nd ref="30677838"/>
    <nd ref="541340266"/>
    <nd ref="541340267"/>
    <nd ref="541340269"/>
    <nd ref="30677839"/>
    <nd ref="30677840"/>
    <nd ref="30677841"/>
    <nd ref="541340236"/>
    <nd ref="541340237"/>
    <nd ref="306085580"/>
    <nd ref="541340168"/>
    <nd ref="306085572"/>
    <nd ref="541340239"/>
    <nd ref="93366918"/>
    <nd ref="541339936"/>
    <nd ref="306085561"/>
    <nd ref="541339938"/>
    <nd ref="541339939"/>
    <nd ref="301049438"/>
    <tag k="highway" v="motorway"/>
    <tag k="name" v="Junipero Serra Freeway"/>
    <tag k="oneway" v="yes"/>
    <tag k="ref" v="I 280"/>
  </way>
  <way id="27945412" version="10" timestamp="2010-07-09T04:02:53Z" uid="74617" user="JohnSmith" changeset="5170825">
    <nd ref="306772210"/>
    <nd ref="306778008"/>
    <nd ref="306778149"/>
    <nd ref="306785400"/>
    <nd ref="364000895"/>
    <nd ref="306785452"/>
    <nd ref="306785723"/>
    <nd ref="306777433"/>
    <nd ref="306787024"/>
    <nd ref="306777434"/>
    <nd ref="364000882"/>
    <tag k="highway" v="residential"/>
    <tag k="maxspeed" v="50"/>
    <tag k="maxspeed:source" v="default residential speed limit in Australia"/>
    <tag k="name" v="Strettle Street"/>
  </way>
  <way id="27945415" version="6" timestamp="2010-07-09T04:08:50Z" uid="74617" user="JohnSmith" changeset="5170825">
    <nd ref="306778008"/>
    <nd ref="306779408"/>
    <nd ref="306781725"/>
    <nd ref="306783403"/>
    <nd ref="460415162"/>
    <nd ref="306778113"/>
    <tag k="highway" v="residential"/>
    <tag k="maxspeed" v="50"/>
    <tag k="maxspeed:source" v="default residential speed limit in Australia"/>
    <tag k="name" v="Keon Street"/>
  </way>
  <way id="27945417" version="6" timestamp="2010-07-09T04:08:15Z" uid="74617" user="JohnSmith" changeset="5170825">
    <nd ref="306778149"/>
    <nd ref="306779407"/>
    <nd ref="306781724"/>
    <nd ref="306783402"/>
    <nd ref="306782276"/>
    <nd ref="306778409"/>
    <tag k="highway" v="residential"/>
    <tag k="maxspeed" v="50"/>
    <tag k="maxspeed:source" v="default residential speed limit in Australia"/>
    <tag k="name" v="Rennie Street"/>
  </way>
  <way id="27945426" version="7" timestamp="2010-07-09T04:03:25Z" uid="74617" user="JohnSmith" changeset="5170825">
    <nd ref="306779406"/>
    <nd ref="306779432"/>
    <nd ref="306785644"/>
    <nd ref="306779607"/>
    <nd ref="306781151"/>
    <nd ref="306779407"/>
    <nd ref="306779408"/>
    <nd ref="306779409"/>
    <tag k="highway" v="residential"/>
    <tag k="maxspeed" v="50"/>
    <tag k="maxspeed:source" v="default residential speed limit in Australia"/>
    <tag k="name" v="Comas Grove"/>
  </way>
  <way id="27945429" version="6" timestamp="2010-07-09T04:09:34Z" uid="74617" user="JohnSmith" changeset="5170825">
    <nd ref="306779432"/>
    <nd ref="306781417"/>
    <nd ref="306783200"/>
    <nd ref="306782272"/>
    <nd ref="306779558"/>
    <tag k="highway" v="residential"/>
    <tag k="maxspeed" v="50"/>
    <tag k="maxspeed:source" v="default residential speed limit in Australia"/>
    <tag k="name" v="Harold Street"/>
  </way>
  <way id="27945445" version="7" timestamp="2010-07-09T04:03:03Z" uid="74617" user="JohnSmith" changeset="5170825">
    <nd ref="306780961"/>
    <nd ref="306779406"/>
    <nd ref="306786147"/>
    <nd ref="306786710"/>
    <nd ref="306785184"/>
    <nd ref="306782084"/>
    <nd ref="306780962"/>
    <tag k="highway" v="residential"/>
    <tag k="maxspeed" v="50"/>
    <tag k="maxspeed:source" v="default residential speed limit in Australia"/>
    <tag k="name" v="Smith Street"/>
  </way>
  <way id="27945447" version="6" timestamp="2010-07-09T04:12:23Z" uid="74617" user="JohnSmith" changeset="5170825">
    <nd ref="306785400"/>
    <nd ref="306785402"/>
    <nd ref="306785403"/>
    <nd ref="306781151"/>
    <nd ref="306781723"/>
    <nd ref="306783401"/>
    <nd ref="306782274"/>
    <nd ref="306781270"/>
    <tag k="highway" v="residential"/>
    <tag k="maxspeed" v="50"/>
    <tag k="maxspeed:source" v="default residential speed limit in Australia"/>
    <tag k="name" v="Fyffe Street"/>
  </way>
  <way id="27945450" version="4" timestamp="2010-07-09T04:08:30Z" uid="74617" user="JohnSmith" changeset="5170825">
    <nd ref="306781417"/>
    <nd ref="306781722"/>
    <nd ref="306781723"/>
    <nd ref="306781724"/>
    <nd ref="306781725"/>
    <nd ref="314790767"/>
    <nd ref="276592163"/>
    <tag k="highway" v="residential"/>
    <tag k="maxspeed" v="50"/>
    <tag k="maxspeed:source" v="default residential speed limit in Australia"/>
    <tag k="name" v="Taylor Street"/>
  </way>
  <way id="27945455" version="3" timestamp="2010-07-09T04:07:36Z" uid="74617" user="JohnSmith" changeset="5170825">
    <nd ref="306782084"/>
    <nd ref="306782272"/>
    <nd ref="306782273"/>
    <nd ref="306782274"/>
    <nd ref="306782276"/>
    <nd ref="460415162"/>
    <nd ref="306782278"/>
    <tag k="highway" v="residential"/>
    <tag k="maxspeed" v="50"/>
    <tag k="maxspeed:source" v="default residential speed limit in Australia"/>
    <tag k="name" v="Hobson Street"/>
  </way>
  <way id="27945458" version="7" timestamp="2009-07-26T13:24:01Z" uid="4467" user="Rosscoe" changeset="1944686">
    <nd ref="306785184"/>
    <nd ref="306783200"/>
    <nd ref="306783400"/>
    <nd ref="306783401"/>
    <nd ref="306783402"/>
    <nd ref="306783403"/>
    <nd ref="306754335"/>
    <tag k="bicycle" v="yes"/>
    <tag k="foot" v="yes"/>
    <tag k="highway" v="track"/>
    <tag k="motor_vehicle" v="no"/>
    <tag k="name" v="Bracken Avenue"/>
    <tag k="surface" v="gravel"/>
  </way>
  <way id="27945458" version="8" timestamp="2010-08-16T01:24:47Z" uid="4467" user="Rosscoe" changeset="5505638">
    <nd ref="306785184"/>
    <nd ref="306783200"/>
    <nd ref="306783400"/>
    <nd ref="306783401"/>
    <nd ref="306783402"/>
    <nd ref="306783403"/>
    <nd ref="306754335"/>
    <tag k="bicycle" v="yes"/>
    <tag k="foot" v="yes"/>
    <tag k="highway" v="track"/>
    <tag k="motorvehicle" v="no"/>
    <tag k="name" v="Bracken Avenue"/>
    <tag k="surface" v="gravel"/>
  </way>
  <way id="27945467" version="5" timestamp="2010-03-28T00:16:32Z" uid="20587" user="balrog-kun" changeset="4250871">
    <nd ref="30677882"/>
    <nd ref="30677883"/>
    <tag k="bridge" v="yes"/>
    <tag k="highway" v="motorway"/>
    <tag k="layer" v="1"/>
    <tag k="name" v="Junipero Serra Freeway"/>
    <tag k="oneway" v="yes"/>
    <tag k="ref" v="I 280"/>
  </way>
  <way id="27945469" version="3" timestamp="2010-03-28T00:16:32Z" uid="20587" user="balrog-kun" changeset="4250871">
    <nd ref="30677883"/>
    <nd ref="30677884"/>
    <nd ref="250048122"/>
    <nd ref="30677885"/>
    <nd ref="30677886"/>
    <nd ref="30677887"/>
    <nd ref="30677888"/>
    <nd ref="30677889"/>
    <nd ref="257562678"/>
    <nd ref="30677890"/>
    <nd ref="30677891"/>
    <nd ref="30677892"/>
    <tag k="created_by" v="Potlatch 0.10e"/>
    <tag k="highway" v="motorway"/>
    <tag k="name" v="Junipero Serra Freeway"/>
    <tag k="oneway" v="yes"/>
    <tag k="ref" v="I 280"/>
  </way>
  <way id="27945470" version="4" timestamp="2010-03-28T00:16:32Z" uid="20587" user="balrog-kun" changeset="4250871">
    <nd ref="31053131"/>
    <nd ref="31053132"/>
    <tag k="bridge" v="yes"/>
    <tag k="created_by" v="Potlatch 0.10f"/>
    <tag k="highway" v="motorway"/>
    <tag k="layer" v="1"/>
    <tag k="name" v="Junipero Serra Freeway"/>
    <tag k="oneway" v="yes"/>
    <tag k="ref" v="I 280"/>
  </way>
  <way id="27945472" version="3" timestamp="2010-03-28T00:16:32Z" uid="20587" user="balrog-kun" changeset="4250871">
    <nd ref="30677892"/>
    <nd ref="30677893"/>
    <tag k="bridge" v="yes"/>
    <tag k="created_by" v="Potlatch 0.10e"/>
    <tag k="highway" v="motorway"/>
    <tag k="layer" v="1"/>
    <tag k="name" v="Junipero Serra Freeway"/>
    <tag k="oneway" v="yes"/>
    <tag k="ref" v="I 280"/>
  </way>
  <way id="27945473" version="3" timestamp="2010-03-28T00:16:32Z" uid="20587" user="balrog-kun" changeset="4250871">
    <nd ref="30677893"/>
    <nd ref="303919892"/>
    <nd ref="303919990"/>
    <nd ref="30677894"/>
    <nd ref="303919060"/>
    <nd ref="30677895"/>
    <tag k="created_by" v="Potlatch 0.10e"/>
    <tag k="highway" v="motorway"/>
    <tag k="name" v="Junipero Serra Freeway"/>
    <tag k="oneway" v="yes"/>
    <tag k="ref" v="I 280"/>
  </way>
  <way id="27945474" version="2" timestamp="2010-03-28T00:16:32Z" uid="20587" user="balrog-kun" changeset="4250871">
    <nd ref="31053122"/>
    <nd ref="31053123"/>
    <tag k="bridge" v="yes"/>
    <tag k="created_by" v="Potlatch 0.10e"/>
    <tag k="highway" v="motorway"/>
    <tag k="layer" v="1"/>
    <tag k="name" v="Junipero Serra Freeway"/>
    <tag k="oneway" v="yes"/>
    <tag k="ref" v="I 280"/>
  </way>
  <way id="27945475" version="5" timestamp="2010-03-28T00:16:33Z" uid="20587" user="balrog-kun" changeset="4250871">
    <nd ref="351105890"/>
    <nd ref="31053120"/>
    <tag k="bridge" v="yes"/>
    <tag k="created_by" v="Potlatch 0.10f"/>
    <tag k="highway" v="motorway"/>
    <tag k="history" v="Retrieved from v1"/>
    <tag k="layer" v="1"/>
    <tag k="name" v="Junipero Serra Freeway"/>
    <tag k="oneway" v="yes"/>
    <tag k="ref" v="I 280"/>
  </way>
  <way id="27945477" version="2" timestamp="2010-03-28T00:16:33Z" uid="20587" user="balrog-kun" changeset="4250871">
    <nd ref="31053120"/>
    <nd ref="303919842"/>
    <nd ref="31053121"/>
    <nd ref="303919844"/>
    <nd ref="31053122"/>
    <tag k="created_by" v="Potlatch 0.10e"/>
    <tag k="highway" v="motorway"/>
    <tag k="name" v="Junipero Serra Freeway"/>
    <tag k="oneway" v="yes"/>
    <tag k="ref" v="I 280"/>
  </way>
  <way id="27945478" version="3" timestamp="2010-03-28T00:16:33Z" uid="20587" user="balrog-kun" changeset="4250871">
    <nd ref="30677895"/>
    <nd ref="303919051"/>
    <tag k="bridge" v="yes"/>
    <tag k="created_by" v="Potlatch 0.10e"/>
    <tag k="highway" v="motorway"/>
    <tag k="layer" v="1"/>
    <tag k="name" v="Junipero Serra Freeway"/>
    <tag k="oneway" v="yes"/>
    <tag k="ref" v="I 280"/>
  </way>
  <way id="27945479" version="5" timestamp="2010-03-28T00:16:33Z" uid="20587" user="balrog-kun" changeset="4250871">
    <nd ref="303919051"/>
    <nd ref="30677896"/>
    <nd ref="351106057"/>
    <nd ref="351106058"/>
    <nd ref="351106059"/>
    <nd ref="351106060"/>
    <nd ref="30677901"/>
    <nd ref="31354480"/>
    <nd ref="30677902"/>
    <nd ref="303912481"/>
    <nd ref="30677903"/>
    <tag k="created_by" v="Potlatch 0.10f"/>
    <tag k="highway" v="motorway"/>
    <tag k="history" v="Retrieved from v2"/>
    <tag k="name" v="Junipero Serra Freeway"/>
    <tag k="oneway" v="yes"/>
    <tag k="ref" v="I 280"/>
  </way>
  <way id="27945481" version="3" timestamp="2010-03-28T00:16:33Z" uid="20587" user="balrog-kun" changeset="4250871">
    <nd ref="30677903"/>
    <nd ref="303912134"/>
    <tag k="bridge" v="yes"/>
    <tag k="created_by" v="Potlatch 0.10e"/>
    <tag k="highway" v="motorway"/>
    <tag k="layer" v="1"/>
    <tag k="name" v="Junipero Serra Freeway"/>
    <tag k="oneway" v="yes"/>
    <tag k="ref" v="I 280"/>
  </way>
  <way id="27945482" version="4" timestamp="2010-03-28T00:16:33Z" uid="20587" user="balrog-kun" changeset="4250871">
    <nd ref="31053111"/>
    <nd ref="267069805"/>
    <nd ref="31053112"/>
    <nd ref="31053114"/>
    <nd ref="31053115"/>
    <nd ref="31053116"/>
    <nd ref="31053117"/>
    <nd ref="31053118"/>
    <nd ref="351105889"/>
    <nd ref="351105890"/>
    <tag k="created_by" v="Potlatch 0.10f"/>
    <tag k="highway" v="motorway"/>
    <tag k="history" v="Retrieved from v1"/>
    <tag k="name" v="Junipero Serra Freeway"/>
    <tag k="oneway" v="yes"/>
    <tag k="ref" v="I 280"/>
  </way>
  <way id="27945483" version="3" timestamp="2010-03-28T00:16:34Z" uid="20587" user="balrog-kun" changeset="4250871">
    <nd ref="31053107"/>
    <nd ref="31053108"/>
    <nd ref="257900052"/>
    <nd ref="31053109"/>
    <nd ref="267069669"/>
    <nd ref="31053110"/>
    <tag k="created_by" v="Potlatch 0.10e"/>
    <tag k="highway" v="motorway"/>
    <tag k="name" v="Junipero Serra Freeway"/>
    <tag k="oneway" v="yes"/>
    <tag k="ref" v="I 280"/>
  </way>
  <way id="27945484" version="4" timestamp="2010-03-28T00:16:34Z" uid="20587" user="balrog-kun" changeset="4250871">
    <nd ref="303912134"/>
    <nd ref="30677904"/>
    <nd ref="30677905"/>
    <nd ref="267069670"/>
    <nd ref="30677906"/>
    <nd ref="257900110"/>
    <nd ref="30677907"/>
    <nd ref="30677908"/>
    <tag k="created_by" v="Potlatch 0.10e"/>
    <tag k="highway" v="motorway"/>
    <tag k="name" v="Junipero Serra Freeway"/>
    <tag k="oneway" v="yes"/>
    <tag k="ref" v="I 280"/>
  </way>
  <way id="27945486" version="4" timestamp="2010-07-09T04:08:14Z" uid="74617" user="JohnSmith" changeset="5170825">
    <nd ref="306785403"/>
    <nd ref="306785451"/>
    <nd ref="306785452"/>
    <tag k="highway" v="residential"/>
    <tag k="maxspeed" v="50"/>
    <tag k="maxspeed:source" v="default residential speed limit in Australia"/>
  </way>
  <way id="27945487" version="2" timestamp="2010-07-09T04:04:44Z" uid="74617" user="JohnSmith" changeset="5170825">
    <nd ref="306785644"/>
    <nd ref="306785723"/>
    <tag k="highway" v="residential"/>
    <tag k="maxspeed" v="50"/>
    <tag k="maxspeed:source" v="default residential speed limit in Australia"/>
    <tag k="name" v="Hill Street"/>
  </way>
  <way id="27945492" version="4" timestamp="2010-07-09T04:13:34Z" uid="74617" user="JohnSmith" changeset="5170825">
    <nd ref="306786147"/>
    <nd ref="306787019"/>
    <nd ref="306787078"/>
    <nd ref="306786321"/>
    <tag k="highway" v="residential"/>
    <tag k="maxspeed" v="50"/>
    <tag k="maxspeed:source" v="default residential speed limit in Australia"/>
    <tag k="name" v="Comas Grove"/>
  </way>
  <way id="27945497" version="2" timestamp="2010-07-09T04:02:51Z" uid="74617" user="JohnSmith" changeset="5170825">
    <nd ref="306786798"/>
    <nd ref="306787019"/>
    <nd ref="306787021"/>
    <nd ref="306787022"/>
    <nd ref="306787023"/>
    <nd ref="306787024"/>
    <tag k="highway" v="residential"/>
    <tag k="maxspeed" v="50"/>
    <tag k="maxspeed:source" v="default residential speed limit in Australia"/>
    <tag k="name" v="Newman Street"/>
  </way>
  <way id="27945498" version="2" timestamp="2010-07-09T03:58:38Z" uid="74617" user="JohnSmith" changeset="5170825">
    <nd ref="306787078"/>
    <nd ref="306787187"/>
    <tag k="highway" v="residential"/>
    <tag k="maxspeed" v="50"/>
    <tag k="maxspeed:source" v="default residential speed limit in Australia"/>
    <tag k="name" v="Lewis Street"/>
  </way>
  <way id="27945500" version="2" timestamp="2010-07-09T04:08:49Z" uid="74617" user="JohnSmith" changeset="5170825">
    <nd ref="306787301"/>
    <nd ref="306787384"/>
    <tag k="highway" v="residential"/>
    <tag k="maxspeed" v="50"/>
    <tag k="maxspeed:source" v="default residential speed limit in Australia"/>
    <tag k="name" v="Ballantyne Street"/>
  </way>
  <way id="27945502" version="5" timestamp="2010-07-09T04:02:00Z" uid="74617" user="JohnSmith" changeset="5170825">
    <nd ref="306779607"/>
    <nd ref="306781722"/>
    <nd ref="306783400"/>
    <nd ref="306782273"/>
    <nd ref="30327303"/>
    <tag k="highway" v="residential"/>
    <tag k="maxspeed" v="50"/>
    <tag k="maxspeed:source" v="default residential speed limit in Australia"/>
    <tag k="name" v="Hutton Street"/>
  </way>
  <way id="27945505" version="5" timestamp="2010-07-09T04:01:40Z" uid="74617" user="JohnSmith" changeset="5170825">
    <nd ref="306788264"/>
    <nd ref="306788470"/>
    <nd ref="306788687"/>
    <nd ref="306788939"/>
    <nd ref="306788415"/>
    <tag k="highway" v="residential"/>
    <tag k="maxspeed" v="50"/>
    <tag k="maxspeed:source" v="default residential speed limit in Australia"/>
    <tag k="name" v="Clapham Street"/>
  </way>
  <way id="27945539" version="3" timestamp="2010-07-09T04:14:19Z" uid="74617" user="JohnSmith" changeset="5170825">
    <nd ref="306788470"/>
    <nd ref="313099148"/>
    <nd ref="306788664"/>
    <tag k="highway" v="residential"/>
    <tag k="maxspeed" v="50"/>
    <tag k="maxspeed:source" v="default residential speed limit in Australia"/>
    <tag k="name" v="Harold Street"/>
  </way>
  <way id="27945547" version="3" timestamp="2010-07-09T04:09:45Z" uid="74617" user="JohnSmith" changeset="5170825">
    <nd ref="306788687"/>
    <nd ref="313099153"/>
    <nd ref="306788831"/>
    <tag k="highway" v="residential"/>
    <tag k="maxspeed" v="50"/>
    <tag k="maxspeed:source" v="default residential speed limit in Australia"/>
    <tag k="name" v="Smith Street"/>
  </way>
  <way id="27945548" version="3" timestamp="2010-07-09T04:06:13Z" uid="74617" user="JohnSmith" changeset="5170825">
    <nd ref="306788848"/>
    <nd ref="313099152"/>
    <nd ref="306788939"/>
    <tag k="highway" v="residential"/>
    <tag k="maxspeed" v="50"/>
    <tag k="maxspeed:source" v="default residential speed limit in Australia"/>
    <tag k="name" v="Ballantyne Street"/>
  </way>
  <way id="27945549" version="6" timestamp="2010-07-09T04:02:42Z" uid="74617" user="JohnSmith" changeset="5170825">
    <nd ref="306789113"/>
    <nd ref="306789266"/>
    <nd ref="306789410"/>
    <nd ref="306789637"/>
    <nd ref="306789211"/>
    <tag k="highway" v="residential"/>
    <tag k="maxspeed" v="50"/>
    <tag k="maxspeed:source" v="default residential speed limit in Australia"/>
    <tag k="name" v="Stott Street"/>
  </way>
  <way id="27945550" version="2" timestamp="2010-07-09T03:58:19Z" uid="74617" user="JohnSmith" changeset="5170825">
    <nd ref="306789266"/>
    <nd ref="306789387"/>
    <tag k="highway" v="residential"/>
    <tag k="maxspeed" v="50"/>
    <tag k="maxspeed:source" v="default residential speed limit in Australia"/>
    <tag k="name" v="Harold Street"/>
  </way>
  <way id="27945551" version="2" timestamp="2010-07-09T04:12:02Z" uid="74617" user="JohnSmith" changeset="5170825">
    <nd ref="306789410"/>
    <nd ref="306789616"/>
    <tag k="highway" v="residential"/>
    <tag k="maxspeed" v="50"/>
    <tag k="maxspeed:source" v="default residential speed limit in Australia"/>
    <tag k="name" v="Smith Street"/>
  </way>
  <way id="27945552" version="2" timestamp="2010-07-09T04:02:25Z" uid="74617" user="JohnSmith" changeset="5170825">
    <nd ref="306789637"/>
    <nd ref="280871387"/>
    <tag k="highway" v="residential"/>
    <tag k="maxspeed" v="50"/>
    <tag k="maxspeed:source" v="default residential speed limit in Australia"/>
    <tag k="name" v="Ballantyne Street"/>
  </way>
  <way id="27945554" version="2" timestamp="2010-03-28T00:16:34Z" uid="20587" user="balrog-kun" changeset="4250871">
    <nd ref="257900051"/>
    <nd ref="31053107"/>
    <tag k="bridge" v="yes"/>
    <tag k="created_by" v="Potlatch 0.10e"/>
    <tag k="highway" v="motorway"/>
    <tag k="layer" v="1"/>
    <tag k="name" v="Junipero Serra Freeway"/>
    <tag k="oneway" v="yes"/>
    <tag k="ref" v="I 280"/>
  </way>
  <way id="27945555" version="3" timestamp="2010-03-28T00:16:34Z" uid="20587" user="balrog-kun" changeset="4250871">
    <nd ref="30677909"/>
    <nd ref="267069522"/>
    <nd ref="30677910"/>
    <nd ref="30677911"/>
    <nd ref="250047650"/>
    <nd ref="30677912"/>
    <nd ref="260296950"/>
    <nd ref="30677913"/>
    <nd ref="260296948"/>
    <nd ref="30677914"/>
    <nd ref="30677915"/>
    <nd ref="30677916"/>
    <nd ref="250047649"/>
    <nd ref="30677918"/>
    <nd ref="30677919"/>
    <nd ref="30677920"/>
    <nd ref="30677921"/>
    <nd ref="250047116"/>
    <nd ref="30677922"/>
    <nd ref="30677923"/>
    <nd ref="306081658"/>
    <nd ref="30677924"/>
    <nd ref="30677925"/>
    <nd ref="306081657"/>
    <nd ref="30677926"/>
    <nd ref="30677928"/>
    <nd ref="250047063"/>
    <nd ref="30677929"/>
    <nd ref="30677930"/>
    <nd ref="30677931"/>
    <nd ref="306081627"/>
    <nd ref="260239385"/>
    <nd ref="30677932"/>
    <tag k="created_by" v="Potlatch 0.10f"/>
    <tag k="highway" v="motorway"/>
    <tag k="name" v="Junipero Serra Freeway"/>
    <tag k="oneway" v="yes"/>
    <tag k="ref" v="I 280"/>
  </way>
  <way id="27945556" version="3" timestamp="2010-03-28T00:16:35Z" uid="20587" user="balrog-kun" changeset="4250871">
    <nd ref="30677908"/>
    <nd ref="30677909"/>
    <tag k="bridge" v="yes"/>
    <tag k="created_by" v="Potlatch 0.10e"/>
    <tag k="highway" v="motorway"/>
    <tag k="layer" v="1"/>
    <tag k="name" v="Junipero Serra Freeway"/>
    <tag k="oneway" v="yes"/>
    <tag k="ref" v="I 280"/>
  </way>
  <way id="27945563" version="2" timestamp="2010-07-09T04:03:14Z" uid="74617" user="JohnSmith" changeset="5170825">
    <nd ref="302002155"/>
    <nd ref="306791397"/>
    <nd ref="306791398"/>
    <tag k="highway" v="residential"/>
    <tag k="maxspeed" v="50"/>
    <tag k="maxspeed:source" v="default residential speed limit in Australia"/>
    <tag k="name" v="Blythe Street"/>
  </way>
  <way id="27945564" version="2" timestamp="2010-07-09T03:59:17Z" uid="74617" user="JohnSmith" changeset="5170825">
    <nd ref="306791397"/>
    <nd ref="302003015"/>
    <tag k="highway" v="residential"/>
    <tag k="maxspeed" v="50"/>
    <tag k="maxspeed:source" v="default residential speed limit in Australia"/>
    <tag k="name" v="Plow Street"/>
  </way>
  <way id="27945596" version="1" timestamp="2008-10-24T04:25:38Z" uid="36809" user="pfoten_weg_!_" changeset="545688">
    <nd ref="306802810"/>
    <nd ref="306802812"/>
    <nd ref="306802808"/>
    <nd ref="31406106"/>
    <nd ref="291904441"/>
    <nd ref="31406230"/>
    <nd ref="31406512"/>
    <tag k="created_by" v="RambaZamba"/>
    <tag k="highway" v="residential"/>
    <tag k="name" v="Fritz-Reuter-Strae"/>
  </way>
  <way id="27945596" version="3" timestamp="2009-08-21T20:47:05Z" uid="36809" user="pfoten_weg_!_" changeset="2228117">
    <nd ref="306802810"/>
    <nd ref="306802812"/>
    <nd ref="306802808"/>
    <nd ref="31406106"/>
    <nd ref="291904441"/>
    <nd ref="31406230"/>
    <nd ref="31406512"/>
    <tag k="discovered_by" v="RambaZamba"/>
    <tag k="highway" v="residential"/>
    <tag k="name" v="Fritz-Reuter-Strae"/>
    <tag k="source" v="survey"/>
  </way>
  <way id="27945596" version="5" timestamp="2009-08-31T22:16:23Z" uid="36809" user="pfoten_weg_!_" changeset="2332133">
    <nd ref="306802810"/>
    <nd ref="306802812"/>
    <nd ref="306802808"/>
    <nd ref="31406106"/>
    <nd ref="291904441"/>
    <nd ref="31406230"/>
    <nd ref="31406512"/>
    <tag k="highway" v="residential"/>
    <tag k="name" v="Fritz-Reuter-Strae"/>
    <tag k="source" v="survey"/>
  </way>
  <way id="27945596" version="6" timestamp="2009-10-03T08:41:25Z" uid="179968" user="Ich_hasse_doitsche_OSM-Korinthenkacker" changeset="2720861">
    <nd ref="306802810"/>
    <nd ref="306802812"/>
    <nd ref="306802808"/>
    <nd ref="31406106"/>
    <nd ref="291904441"/>
    <nd ref="31406230"/>
    <nd ref="31406512"/>
    <tag k="highway" v="residential"/>
    <tag k="name" v="Fritz-Reuter-Strae"/>
  </way>
  <way id="27945597" version="1" timestamp="2008-10-24T04:25:39Z" uid="36809" user="pfoten_weg_!_" changeset="545688">
    <nd ref="306802812"/>
    <nd ref="306802815"/>
    <tag k="created_by" v="RambaZamba"/>
    <tag k="highway" v="residential"/>
    <tag k="name" v="Fritz-Reuter-Strae"/>
    <tag k="osmarender:renderName" v="no"/>
  </way>
  <way id="27945597" version="3" timestamp="2009-08-21T20:45:30Z" uid="36809" user="pfoten_weg_!_" changeset="2228117">
    <nd ref="306802812"/>
    <nd ref="306802815"/>
    <tag k="discovered_by" v="RambaZamba"/>
    <tag k="highway" v="residential"/>
    <tag k="name" v="Fritz-Reuter-Strae"/>
    <tag k="osmarender:renderName" v="no"/>
    <tag k="source" v="survey"/>
  </way>
  <way id="27945597" version="5" timestamp="2009-08-31T22:18:01Z" uid="36809" user="pfoten_weg_!_" changeset="2332133">
    <nd ref="306802812"/>
    <nd ref="306802815"/>
    <tag k="highway" v="residential"/>
    <tag k="name" v="Fritz-Reuter-Strae"/>
    <tag k="osmarender:renderName" v="no"/>
    <tag k="source" v="survey"/>
  </way>
  <way id="27945597" version="6" timestamp="2009-10-03T08:41:25Z" uid="179968" user="Ich_hasse_doitsche_OSM-Korinthenkacker" changeset="2720861">
    <nd ref="306802812"/>
    <nd ref="306802815"/>
    <tag k="highway" v="residential"/>
    <tag k="name" v="Fritz-Reuter-Strae"/>
    <tag k="osmarender:renderName" v="no"/>
  </way>
  <way id="27945598" version="1" timestamp="2008-10-24T04:25:39Z" uid="36809" user="pfoten_weg_!_" changeset="545688">
    <nd ref="306802817"/>
    <nd ref="31406705"/>
    <tag k="bridge" v="yes"/>
    <tag k="created_by" v="RambaZamba"/>
    <tag k="highway" v="footway"/>
    <tag k="man_made" v="pier"/>
    <tag k="name" v="Seebrcke Zingst"/>
  </way>
  <way id="27945598" version="4" timestamp="2009-08-21T20:51:34Z" uid="36809" user="pfoten_weg_!_" changeset="2228117">
    <nd ref="306802817"/>
    <nd ref="31406705"/>
    <tag k="discovered_by" v="RambaZamba"/>
    <tag k="highway" v="footway"/>
    <tag k="man_made" v="pier"/>
    <tag k="name" v="Seebrcke Zingst"/>
    <tag k="source" v="survey"/>
  </way>
  <way id="27945598" version="6" timestamp="2009-08-31T22:22:28Z" uid="36809" user="pfoten_weg_!_" changeset="2332133">
    <nd ref="306802817"/>
    <nd ref="31406705"/>
    <tag k="highway" v="footway"/>
    <tag k="man_made" v="pier"/>
    <tag k="name" v="Seebrcke Zingst"/>
    <tag k="source" v="survey"/>
  </way>
  <way id="27945598" version="7" timestamp="2009-10-03T08:41:26Z" uid="179968" user="Ich_hasse_doitsche_OSM-Korinthenkacker" changeset="2720861">
    <nd ref="306802817"/>
    <nd ref="31406705"/>
    <tag k="highway" v="footway"/>
    <tag k="man_made" v="pier"/>
    <tag k="name" v="Seebrcke Zingst"/>
  </way>
  <way id="27945600" version="8" timestamp="2010-02-26T18:19:30Z" uid="16922" user="amai" changeset="3982492">
    <nd ref="306802615"/>
    <nd ref="306802616"/>
    <nd ref="306802617"/>
    <nd ref="306802618"/>
    <nd ref="306802620"/>
    <nd ref="306802621"/>
    <nd ref="306802622"/>
    <nd ref="654190392"/>
    <nd ref="306802623"/>
    <nd ref="306802624"/>
    <nd ref="306802625"/>
    <nd ref="306802626"/>
    <nd ref="306802627"/>
    <nd ref="306802628"/>
    <nd ref="306802630"/>
    <nd ref="306802631"/>
    <nd ref="306802632"/>
    <nd ref="306802633"/>
    <nd ref="306802634"/>
    <nd ref="306802636"/>
    <nd ref="306802637"/>
    <nd ref="306802638"/>
    <nd ref="306802639"/>
    <nd ref="306802640"/>
    <nd ref="306802642"/>
    <nd ref="306802643"/>
    <nd ref="306802644"/>
    <nd ref="306802645"/>
    <nd ref="306802646"/>
    <nd ref="306802647"/>
    <nd ref="306802648"/>
    <nd ref="306802650"/>
    <nd ref="306802651"/>
    <nd ref="306802652"/>
    <nd ref="306802653"/>
    <nd ref="306802654"/>
    <nd ref="306802656"/>
    <nd ref="306802657"/>
    <nd ref="306802658"/>
    <tag k="highway" v="primary"/>
    <tag k="name" v="Marsekal Surya D."/>
  </way>
  <way id="27945607" version="3" timestamp="2010-03-28T00:16:35Z" uid="20587" user="balrog-kun" changeset="4250871">
    <nd ref="65472039"/>
    <nd ref="306805912"/>
    <tag k="bridge" v="yes"/>
    <tag k="created_by" v="Potlatch 0.10c"/>
    <tag k="highway" v="motorway"/>
    <tag k="layer" v="1"/>
    <tag k="name" v="Junipero Serra Freeway"/>
    <tag k="oneway" v="yes"/>
    <tag k="ref" v="I 280"/>
    <tag k="tiger:cfcc" v="A11"/>
    <tag k="tiger:county" v="San Mateo, CA"/>
    <tag k="tiger:name_base_1" v="Junipero Serra"/>
    <tag k="tiger:name_type" v="Fwy"/>
    <tag k="tiger:source" v="tiger_import_dch_v0.6_20070809"/>
    <tag k="tiger:tlid" v="192365835:192401751:192401752:192407820:192363761:192363762:192363706:192363677:192363723:192363359:192363360:192363648:192363650:192362415:192362424:192386232:192386236:192396952:192395372:192383707:192411774:192386204:192386207:192395373:192362436:19241"/>
  </way>
  <way id="27945608" version="3" timestamp="2010-03-28T00:16:35Z" uid="20587" user="balrog-kun" changeset="4250871">
    <nd ref="32927475"/>
    <nd ref="250042933"/>
    <nd ref="32927476"/>
    <nd ref="32927477"/>
    <nd ref="32927478"/>
    <nd ref="32927479"/>
    <nd ref="32927480"/>
    <nd ref="32927481"/>
    <nd ref="32927482"/>
    <nd ref="32927483"/>
    <nd ref="32927484"/>
    <nd ref="32927485"/>
    <nd ref="263072212"/>
    <nd ref="32927486"/>
    <nd ref="32927487"/>
    <nd ref="32927488"/>
    <nd ref="263073112"/>
    <nd ref="250041927"/>
    <nd ref="32927489"/>
    <nd ref="32927490"/>
    <nd ref="32927491"/>
    <tag k="created_by" v="Potlatch 0.10e"/>
    <tag k="highway" v="motorway"/>
    <tag k="name" v="Junipero Serra Freeway"/>
    <tag k="oneway" v="yes"/>
    <tag k="ref" v="I 280"/>
  </way>
  <way id="27945609" version="3" timestamp="2010-03-28T00:16:36Z" uid="20587" user="balrog-kun" changeset="4250871">
    <nd ref="32927474"/>
    <nd ref="32927475"/>
    <tag k="bridge" v="yes"/>
    <tag k="created_by" v="Potlatch 0.10e"/>
    <tag k="highway" v="motorway"/>
    <tag k="layer" v="1"/>
    <tag k="name" v="Junipero Serra Freeway"/>
    <tag k="oneway" v="yes"/>
    <tag k="ref" v="I 280"/>
  </way>
  <way id="27945610" version="3" timestamp="2010-03-28T00:16:36Z" uid="20587" user="balrog-kun" changeset="4250871">
    <nd ref="306805912"/>
    <nd ref="65369497"/>
    <nd ref="65511611"/>
    <nd ref="250043327"/>
    <nd ref="268007371"/>
    <nd ref="268007372"/>
    <tag k="created_by" v="Potlatch 0.10f"/>
    <tag k="highway" v="motorway"/>
    <tag k="name" v="Junipero Serra Freeway"/>
    <tag k="oneway" v="yes"/>
    <tag k="ref" v="I 280"/>
    <tag k="tiger:cfcc" v="A11"/>
    <tag k="tiger:county" v="San Mateo, CA"/>
    <tag k="tiger:name_base_1" v="Junipero Serra"/>
    <tag k="tiger:name_type" v="Fwy"/>
    <tag k="tiger:source" v="tiger_import_dch_v0.6_20070809"/>
    <tag k="tiger:tlid" v="192365835:192401751:192401752:192407820:192363761:192363762:192363706:192363677:192363723:192363359:192363360:192363648:192363650:192362415:192362424:192386232:192386236:192396952:192395372:192383707:192411774:192386204:192386207:192395373:192362436:19241"/>
  </way>
  <way id="27945611" version="3" timestamp="2010-03-28T00:16:37Z" uid="20587" user="balrog-kun" changeset="4250871">
    <nd ref="65394690"/>
    <nd ref="65511590"/>
    <nd ref="65511594"/>
    <nd ref="65369451"/>
    <nd ref="263073114"/>
    <nd ref="65511597"/>
    <nd ref="257561463"/>
    <nd ref="263071659"/>
    <nd ref="263072210"/>
    <nd ref="65511599"/>
    <nd ref="65511601"/>
    <nd ref="262732852"/>
    <nd ref="65511603"/>
    <nd ref="65511607"/>
    <nd ref="262732851"/>
    <nd ref="250041972"/>
    <nd ref="250041973"/>
    <nd ref="262732850"/>
    <nd ref="65394754"/>
    <nd ref="65369493"/>
    <nd ref="65472039"/>
    <tag k="created_by" v="Potlatch 0.10c"/>
    <tag k="highway" v="motorway"/>
    <tag k="name" v="Junipero Serra Freeway"/>
    <tag k="oneway" v="yes"/>
    <tag k="ref" v="I 280"/>
    <tag k="tiger:cfcc" v="A11"/>
    <tag k="tiger:county" v="San Mateo, CA"/>
    <tag k="tiger:name_base_1" v="Junipero Serra"/>
    <tag k="tiger:name_type" v="Fwy"/>
    <tag k="tiger:source" v="tiger_import_dch_v0.6_20070809"/>
    <tag k="tiger:tlid" v="192365835:192401751:192401752:192407820:192363761:192363762:192363706:192363677:192363723:192363359:192363360:192363648:192363650:192362415:192362424:192386232:192386236:192396952:192395372:192383707:192411774:192386204:192386207:192395373:192362436:19241"/>
  </way>
  <way id="27945612" version="3" timestamp="2010-03-28T00:16:37Z" uid="20587" user="balrog-kun" changeset="4250871">
    <nd ref="263073573"/>
    <nd ref="65394690"/>
    <tag k="bridge" v="yes"/>
    <tag k="created_by" v="Potlatch 0.10c"/>
    <tag k="highway" v="motorway"/>
    <tag k="layer" v="1"/>
    <tag k="name" v="Junipero Serra Freeway"/>
    <tag k="oneway" v="yes"/>
    <tag k="ref" v="I 280"/>
    <tag k="tiger:cfcc" v="A11"/>
    <tag k="tiger:county" v="San Mateo, CA"/>
    <tag k="tiger:name_base_1" v="Junipero Serra"/>
    <tag k="tiger:name_type" v="Fwy"/>
    <tag k="tiger:source" v="tiger_import_dch_v0.6_20070809"/>
    <tag k="tiger:tlid" v="192365835:192401751:192401752:192407820:192363761:192363762:192363706:192363677:192363723:192363359:192363360:192363648:192363650:192362415:192362424:192386232:192386236:192396952:192395372:192383707:192411774:192386204:192386207:192395373:192362436:19241"/>
  </way>
  <way id="27945613" version="3" timestamp="2010-03-28T00:16:37Z" uid="20587" user="balrog-kun" changeset="4250871">
    <nd ref="32927491"/>
    <nd ref="32927492"/>
    <tag k="bridge" v="yes"/>
    <tag k="created_by" v="Potlatch 0.10e"/>
    <tag k="highway" v="motorway"/>
    <tag k="layer" v="1"/>
    <tag k="name" v="Junipero Serra Freeway"/>
    <tag k="oneway" v="yes"/>
    <tag k="ref" v="I 280"/>
  </way>
  <way id="27945614" version="4" timestamp="2010-03-28T00:16:37Z" uid="20587" user="balrog-kun" changeset="4250871">
    <nd ref="32927492"/>
    <nd ref="258312414"/>
    <tag k="created_by" v="Potlatch 0.10e"/>
    <tag k="highway" v="motorway"/>
    <tag k="name" v="Junipero Serra Freeway"/>
    <tag k="oneway" v="yes"/>
    <tag k="ref" v="I 280"/>
  </way>
  <way id="27945615" version="4" timestamp="2010-03-28T00:16:37Z" uid="20587" user="balrog-kun" changeset="4250871">
    <nd ref="65511581"/>
    <nd ref="65415647"/>
    <tag k="created_by" v="Potlatch 0.10c"/>
    <tag k="highway" v="motorway"/>
    <tag k="name" v="Junipero Serra Freeway"/>
    <tag k="oneway" v="yes"/>
    <tag k="ref" v="I 280"/>
    <tag k="tiger:cfcc" v="A11"/>
    <tag k="tiger:county" v="San Mateo, CA"/>
    <tag k="tiger:name_base_1" v="Junipero Serra"/>
    <tag k="tiger:name_type" v="Fwy"/>
    <tag k="tiger:source" v="tiger_import_dch_v0.6_20070809"/>
    <tag k="tiger:tlid" v="192365835:192401751:192401752:192407820:192363761:192363762:192363706:192363677:192363723:192363359:192363360:192363648:192363650:192362415:192362424:192386232:192386236:192396952:192395372:192383707:192411774:192386204:192386207:192395373:192362436:19241"/>
  </way>
  <way id="27945616" version="4" timestamp="2010-03-28T00:16:38Z" uid="20587" user="balrog-kun" changeset="4250871">
    <nd ref="32927496"/>
    <nd ref="306805915"/>
    <tag k="highway" v="motorway"/>
    <tag k="name" v="Junipero Serra Freeway"/>
    <tag k="oneway" v="yes"/>
    <tag k="ref" v="I 280"/>
  </way>
  <way id="27945617" version="3" timestamp="2010-03-28T00:16:38Z" uid="20587" user="balrog-kun" changeset="4250871">
    <nd ref="306805913"/>
    <nd ref="32927496"/>
    <tag k="bridge" v="yes"/>
    <tag k="created_by" v="Potlatch 0.10e"/>
    <tag k="highway" v="motorway"/>
    <tag k="layer" v="1"/>
    <tag k="name" v="Junipero Serra Freeway"/>
    <tag k="oneway" v="yes"/>
    <tag k="ref" v="I 280"/>
  </way>
  <way id="27945618" version="3" timestamp="2010-03-28T00:16:38Z" uid="20587" user="balrog-kun" changeset="4250871">
    <nd ref="306805914"/>
    <nd ref="65511581"/>
    <tag k="bridge" v="yes"/>
    <tag k="created_by" v="Potlatch 0.10c"/>
    <tag k="highway" v="motorway"/>
    <tag k="layer" v="1"/>
    <tag k="name" v="Junipero Serra Freeway"/>
    <tag k="oneway" v="yes"/>
    <tag k="ref" v="I 280"/>
    <tag k="tiger:cfcc" v="A11"/>
    <tag k="tiger:county" v="San Mateo, CA"/>
    <tag k="tiger:name_base_1" v="Junipero Serra"/>
    <tag k="tiger:name_type" v="Fwy"/>
    <tag k="tiger:source" v="tiger_import_dch_v0.6_20070809"/>
    <tag k="tiger:tlid" v="192365835:192401751:192401752:192407820:192363761:192363762:192363706:192363677:192363723:192363359:192363360:192363648:192363650:192362415:192362424:192386232:192386236:192396952:192395372:192383707:192411774:192386204:192386207:192395373:192362436:19241"/>
  </way>
  <way id="27945619" version="7" timestamp="2010-03-28T00:16:38Z" uid="20587" user="balrog-kun" changeset="4250871">
    <nd ref="32927497"/>
    <nd ref="250040690"/>
    <tag k="created_by" v="Potlatch 0.10f"/>
    <tag k="highway" v="motorway"/>
    <tag k="name" v="Junipero Serra Freeway"/>
    <tag k="oneway" v="yes"/>
    <tag k="ref" v="I 280"/>
  </way>
  <way id="27945620" version="3" timestamp="2010-03-28T00:16:38Z" uid="20587" user="balrog-kun" changeset="4250871">
    <nd ref="65416565"/>
    <nd ref="65511575"/>
    <tag k="bridge" v="yes"/>
    <tag k="created_by" v="Potlatch 0.10c"/>
    <tag k="highway" v="motorway"/>
    <tag k="layer" v="1"/>
    <tag k="name" v="Junipero Serra Freeway"/>
    <tag k="oneway" v="yes"/>
    <tag k="ref" v="I 280"/>
    <tag k="tiger:cfcc" v="A11"/>
    <tag k="tiger:county" v="San Mateo, CA"/>
    <tag k="tiger:name_base_1" v="Junipero Serra"/>
    <tag k="tiger:name_type" v="Fwy"/>
    <tag k="tiger:source" v="tiger_import_dch_v0.6_20070809"/>
    <tag k="tiger:tlid" v="192365835:192401751:192401752:192407820:192363761:192363762:192363706:192363677:192363723:192363359:192363360:192363648:192363650:192362415:192362424:192386232:192386236:192396952:192395372:192383707:192411774:192386204:192386207:192395373:192362436:19241"/>
  </way>
  <way id="27945621" version="4" timestamp="2010-03-28T00:16:38Z" uid="20587" user="balrog-kun" changeset="4250871">
    <nd ref="306805915"/>
    <nd ref="32927497"/>
    <tag k="bridge" v="yes"/>
    <tag k="highway" v="motorway"/>
    <tag k="layer" v="1"/>
    <tag k="name" v="Junipero Serra Freeway"/>
    <tag k="oneway" v="yes"/>
    <tag k="ref" v="I 280"/>
  </way>
  <way id="27945622" version="3" timestamp="2010-03-28T00:16:38Z" uid="20587" user="balrog-kun" changeset="4250871">
    <nd ref="65511575"/>
    <nd ref="65511577"/>
    <nd ref="65511580"/>
    <nd ref="306805914"/>
    <tag k="created_by" v="Potlatch 0.10c"/>
    <tag k="highway" v="motorway"/>
    <tag k="name" v="Junipero Serra Freeway"/>
    <tag k="oneway" v="yes"/>
    <tag k="ref" v="I 280"/>
    <tag k="tiger:cfcc" v="A11"/>
    <tag k="tiger:county" v="San Mateo, CA"/>
    <tag k="tiger:name_base_1" v="Junipero Serra"/>
    <tag k="tiger:name_type" v="Fwy"/>
    <tag k="tiger:source" v="tiger_import_dch_v0.6_20070809"/>
    <tag k="tiger:tlid" v="192365835:192401751:192401752:192407820:192363761:192363762:192363706:192363677:192363723:192363359:192363360:192363648:192363650:192362415:192362424:192386232:192386236:192396952:192395372:192383707:192411774:192386204:192386207:192395373:192362436:19241"/>
  </way>
  <way id="27945625" version="4" timestamp="2010-03-28T00:16:39Z" uid="20587" user="balrog-kun" changeset="4250871">
    <nd ref="65520159"/>
    <nd ref="360896374"/>
    <nd ref="360896375"/>
    <nd ref="65440544"/>
    <tag k="created_by" v="Potlatch 0.10f"/>
    <tag k="highway" v="residential"/>
    <tag k="name" v="Crestmoor Drive"/>
    <tag k="tiger:cfcc" v="A41"/>
    <tag k="tiger:county" v="San Mateo, CA"/>
    <tag k="tiger:name_base" v="Crestmoor"/>
    <tag k="tiger:name_type" v="Dr"/>
    <tag k="tiger:reviewed" v="no"/>
    <tag k="tiger:separated" v="no"/>
    <tag k="tiger:source" v="tiger_import_dch_v0.6_20070809"/>
    <tag k="tiger:tlid" v="192392860"/>
  </way>
  <way id="27945626" version="3" timestamp="2010-03-28T00:16:39Z" uid="20587" user="balrog-kun" changeset="4250871">
    <nd ref="65520158"/>
    <nd ref="65520159"/>
    <tag k="bridge" v="yes"/>
    <tag k="created_by" v="Potlatch 0.10"/>
    <tag k="highway" v="residential"/>
    <tag k="layer" v="1"/>
    <tag k="name" v="Crestmoor Drive"/>
    <tag k="tiger:cfcc" v="A41"/>
    <tag k="tiger:county" v="San Mateo, CA"/>
    <tag k="tiger:name_base" v="Crestmoor"/>
    <tag k="tiger:name_type" v="Dr"/>
    <tag k="tiger:separated" v="no"/>
    <tag k="tiger:source" v="tiger_import_dch_v0.6_20070809"/>
    <tag k="tiger:tlid" v="192392860"/>
  </way>
  <way id="27945627" version="4" timestamp="2010-03-28T00:16:39Z" uid="20587" user="balrog-kun" changeset="4250871">
    <nd ref="65379634"/>
    <nd ref="306805917"/>
    <tag k="bridge" v="yes"/>
    <tag k="created_by" v="Potlatch 0.10f"/>
    <tag k="highway" v="motorway"/>
    <tag k="layer" v="1"/>
    <tag k="name" v="Junipero Serra Freeway"/>
    <tag k="oneway" v="yes"/>
    <tag k="ref" v="I 280"/>
    <tag k="tiger:cfcc" v="A11"/>
    <tag k="tiger:county" v="San Mateo, CA"/>
    <tag k="tiger:name_base_1" v="Junipero Serra"/>
    <tag k="tiger:name_type" v="Fwy"/>
    <tag k="tiger:source" v="tiger_import_dch_v0.6_20070809"/>
    <tag k="tiger:tlid" v="192365835:192401751:192401752:192407820:192363761:192363762:192363706:192363677:192363723:192363359:192363360:192363648:192363650:192362415:192362424:192386232:192386236:192396952:192395372:192383707:192411774:192386204:192386207:192395373:192362436:19241"/>
  </way>
  <way id="27945628" version="3" timestamp="2010-03-28T00:16:39Z" uid="20587" user="balrog-kun" changeset="4250871">
    <nd ref="306805917"/>
    <nd ref="65511544"/>
    <nd ref="65511547"/>
    <tag k="created_by" v="Potlatch 0.10c"/>
    <tag k="highway" v="motorway"/>
    <tag k="name" v="Junipero Serra Freeway"/>
    <tag k="oneway" v="yes"/>
    <tag k="ref" v="I 280"/>
    <tag k="tiger:cfcc" v="A11"/>
    <tag k="tiger:county" v="San Mateo, CA"/>
    <tag k="tiger:name_base_1" v="Junipero Serra"/>
    <tag k="tiger:name_type" v="Fwy"/>
    <tag k="tiger:source" v="tiger_import_dch_v0.6_20070809"/>
    <tag k="tiger:tlid" v="192365835:192401751:192401752:192407820:192363761:192363762:192363706:192363677:192363723:192363359:192363360:192363648:192363650:192362415:192362424:192386232:192386236:192396952:192395372:192383707:192411774:192386204:192386207:192395373:192362436:19241"/>
  </way>
  <way id="27945629" version="3" timestamp="2010-03-28T00:16:40Z" uid="20587" user="balrog-kun" changeset="4250871">
    <nd ref="32927507"/>
    <nd ref="32927508"/>
    <nd ref="262079117"/>
    <nd ref="257560607"/>
    <nd ref="262079200"/>
    <tag k="created_by" v="Potlatch 0.10e"/>
    <tag k="highway" v="motorway"/>
    <tag k="name" v="Junipero Serra Freeway"/>
    <tag k="oneway" v="yes"/>
    <tag k="ref" v="I 280"/>
  </way>
  <way id="27945632" version="3" timestamp="2010-03-28T00:16:40Z" uid="20587" user="balrog-kun" changeset="4250871">
    <nd ref="306805918"/>
    <nd ref="32927507"/>
    <tag k="bridge" v="yes"/>
    <tag k="created_by" v="Potlatch 0.10e"/>
    <tag k="highway" v="motorway"/>
    <tag k="layer" v="1"/>
    <tag k="name" v="Junipero Serra Freeway"/>
    <tag k="oneway" v="yes"/>
    <tag k="ref" v="I 280"/>
  </way>
  <way id="27945633" version="7" timestamp="2010-03-28T00:16:40Z" uid="20587" user="balrog-kun" changeset="4250871">
    <nd ref="65511549"/>
    <nd ref="65511550"/>
    <nd ref="65358539"/>
    <nd ref="360983467"/>
    <nd ref="265670281"/>
    <nd ref="65511551"/>
    <nd ref="65511552"/>
    <nd ref="65511554"/>
    <nd ref="65511556"/>
    <nd ref="360896542"/>
    <nd ref="257561138"/>
    <nd ref="65440547"/>
    <nd ref="65511560"/>
    <nd ref="529842245"/>
    <nd ref="65356991"/>
    <tag k="highway" v="motorway"/>
    <tag k="name" v="Junipero Serra Freeway"/>
    <tag k="oneway" v="yes"/>
    <tag k="ref" v="I 280"/>
    <tag k="tiger:cfcc" v="A11"/>
    <tag k="tiger:county" v="San Mateo, CA"/>
    <tag k="tiger:name_base_1" v="Junipero Serra"/>
    <tag k="tiger:name_type" v="Fwy"/>
    <tag k="tiger:source" v="tiger_import_dch_v0.6_20070809"/>
    <tag k="tiger:tlid" v="192365835:192401751:192401752:192407820:192363761:192363762:192363706:192363677:192363723:192363359:192363360:192363648:192363650:192362415:192362424:192386232:192386236:192396952:192395372:192383707:192411774:192386204:192386207:192395373:192362436:19241"/>
  </way>
  <way id="27945634" version="4" timestamp="2010-03-28T00:16:40Z" uid="20587" user="balrog-kun" changeset="4250871">
    <nd ref="65511547"/>
    <nd ref="65511549"/>
    <tag k="bridge" v="yes"/>
    <tag k="created_by" v="Potlatch 0.10f"/>
    <tag k="highway" v="motorway"/>
    <tag k="layer" v="1"/>
    <tag k="name" v="Junipero Serra Freeway"/>
    <tag k="oneway" v="yes"/>
    <tag k="ref" v="I 280"/>
    <tag k="tiger:cfcc" v="A11"/>
    <tag k="tiger:county" v="San Mateo, CA"/>
    <tag k="tiger:name_base_1" v="Junipero Serra"/>
    <tag k="tiger:name_type" v="Fwy"/>
    <tag k="tiger:source" v="tiger_import_dch_v0.6_20070809"/>
    <tag k="tiger:tlid" v="192365835:192401751:192401752:192407820:192363761:192363762:192363706:192363677:192363723:192363359:192363360:192363648:192363650:192362415:192362424:192386232:192386236:192396952:192395372:192383707:192411774:192386204:192386207:192395373:192362436:19241"/>
  </way>
  <way id="27945635" version="4" timestamp="2010-03-28T00:16:41Z" uid="20587" user="balrog-kun" changeset="4250871">
    <nd ref="265670283"/>
    <nd ref="265670284"/>
    <nd ref="252345306"/>
    <nd ref="306805918"/>
    <tag k="created_by" v="Potlatch 0.10f"/>
    <tag k="highway" v="motorway"/>
    <tag k="name" v="Junipero Serra Freeway"/>
    <tag k="oneway" v="yes"/>
    <tag k="ref" v="I 280"/>
  </way>
  <way id="27945636" version="4" timestamp="2010-03-28T00:16:41Z" uid="20587" user="balrog-kun" changeset="4250871">
    <nd ref="265670282"/>
    <nd ref="265670283"/>
    <tag k="bridge" v="yes"/>
    <tag k="created_by" v="Potlatch 0.10f"/>
    <tag k="highway" v="motorway"/>
    <tag k="layer" v="1"/>
    <tag k="name" v="Junipero Serra Freeway"/>
    <tag k="oneway" v="yes"/>
    <tag k="ref" v="I 280"/>
  </way>
  <way id="27945638" version="1" timestamp="2008-10-24T04:33:10Z" uid="36809" user="pfoten_weg_!_" changeset="545688">
    <nd ref="275577527"/>
    <nd ref="275577528"/>
    <nd ref="275577529"/>
    <nd ref="275577530"/>
    <nd ref="275577531"/>
    <nd ref="275577532"/>
    <nd ref="275577533"/>
    <nd ref="275577534"/>
    <nd ref="275577535"/>
    <nd ref="275577536"/>
    <nd ref="275577537"/>
    <nd ref="275577538"/>
    <nd ref="275577539"/>
    <nd ref="275577541"/>
    <nd ref="275577542"/>
    <nd ref="275577544"/>
    <nd ref="275577545"/>
    <nd ref="291893757"/>
    <tag k="created_by" v="RambaZamba"/>
    <tag k="cycleway" v="track"/>
    <tag k="foot" v="yes"/>
    <tag k="highway" v="cycleway"/>
    <tag k="source" v="survey"/>
    <tag k="surface" v="paved"/>
  </way>
  <way id="27945638" version="4" timestamp="2009-08-21T20:55:56Z" uid="36809" user="pfoten_weg_!_" changeset="2228117">
    <nd ref="275577527"/>
    <nd ref="275577528"/>
    <nd ref="275577529"/>
    <nd ref="275577530"/>
    <nd ref="275577531"/>
    <nd ref="275577532"/>
    <nd ref="275577533"/>
    <nd ref="275577534"/>
    <nd ref="275577535"/>
    <nd ref="275577536"/>
    <nd ref="275577537"/>
    <nd ref="275577538"/>
    <nd ref="275577539"/>
    <nd ref="285580672"/>
    <nd ref="275577542"/>
    <nd ref="275577544"/>
    <nd ref="275577545"/>
    <nd ref="291893757"/>
    <tag k="cycleway" v="track"/>
    <tag k="discovered_by" v="RambaZamba"/>
    <tag k="foot" v="yes"/>
    <tag k="highway" v="cycleway"/>
    <tag k="source" v="survey"/>
    <tag k="surface" v="paved"/>
  </way>
  <way id="27945638" version="6" timestamp="2009-08-31T22:19:07Z" uid="36809" user="pfoten_weg_!_" changeset="2332133">
    <nd ref="275577527"/>
    <nd ref="275577528"/>
    <nd ref="275577529"/>
    <nd ref="275577530"/>
    <nd ref="275577531"/>
    <nd ref="275577532"/>
    <nd ref="275577533"/>
    <nd ref="275577534"/>
    <nd ref="275577535"/>
    <nd ref="275577536"/>
    <nd ref="275577537"/>
    <nd ref="275577538"/>
    <nd ref="275577539"/>
    <nd ref="285580672"/>
    <nd ref="275577542"/>
    <nd ref="275577544"/>
    <nd ref="275577545"/>
    <nd ref="291893757"/>
    <tag k="cycleway" v="track"/>
    <tag k="foot" v="yes"/>
    <tag k="highway" v="cycleway"/>
    <tag k="source" v="survey"/>
    <tag k="surface" v="paved"/>
  </way>
  <way id="27945638" version="7" timestamp="2009-10-03T08:41:33Z" uid="179968" user="Ich_hasse_doitsche_OSM-Korinthenkacker" changeset="2720861">
    <nd ref="275577527"/>
    <nd ref="275577528"/>
    <nd ref="275577529"/>
    <nd ref="275577530"/>
    <nd ref="275577531"/>
    <nd ref="275577532"/>
    <nd ref="275577533"/>
    <nd ref="275577534"/>
    <nd ref="275577535"/>
    <nd ref="275577536"/>
    <nd ref="275577537"/>
    <nd ref="275577538"/>
    <nd ref="275577539"/>
    <nd ref="285580672"/>
    <nd ref="275577542"/>
    <nd ref="275577544"/>
    <nd ref="275577545"/>
    <nd ref="291893757"/>
    <tag k="cycleway" v="track"/>
    <tag k="foot" v="yes"/>
    <tag k="highway" v="cycleway"/>
    <tag k="surface" v="paved"/>
  </way>
  <way id="27945639" version="1" timestamp="2008-10-24T04:33:11Z" uid="36809" user="pfoten_weg_!_" changeset="545688">
    <nd ref="291893757"/>
    <nd ref="291893755"/>
    <nd ref="275577551"/>
    <nd ref="275577552"/>
    <nd ref="275577554"/>
    <nd ref="275577556"/>
    <nd ref="275577557"/>
    <nd ref="275577558"/>
    <nd ref="275577559"/>
    <nd ref="291910555"/>
    <nd ref="275577561"/>
    <nd ref="275577562"/>
    <nd ref="291893746"/>
    <nd ref="275577564"/>
    <nd ref="275577565"/>
    <nd ref="275577566"/>
    <nd ref="275577568"/>
    <nd ref="275577569"/>
    <nd ref="275577570"/>
    <nd ref="275577571"/>
    <nd ref="275577573"/>
    <nd ref="275577575"/>
    <nd ref="31405993"/>
    <tag k="created_by" v="RambaZamba"/>
    <tag k="cycleway" v="track"/>
    <tag k="foot" v="yes"/>
    <tag k="highway" v="cycleway"/>
    <tag k="source" v="survey"/>
    <tag k="surface" v="paved"/>
  </way>
  <way id="27945639" version="6" timestamp="2009-08-24T22:03:17Z" uid="36809" user="pfoten_weg_!_" changeset="2250603">
    <nd ref="291893757"/>
    <nd ref="353763838"/>
    <nd ref="353763839"/>
    <nd ref="291893755"/>
    <nd ref="275577551"/>
    <nd ref="275577552"/>
    <nd ref="275577554"/>
    <nd ref="353763875"/>
    <nd ref="353763876"/>
    <nd ref="353763878"/>
    <tag k="cycleway" v="track"/>
    <tag k="embankment" v="yes"/>
    <tag k="foot" v="yes"/>
    <tag k="highway" v="cycleway"/>
    <tag k="nore:de" v="Warnung"/>
    <tag k="source" v="survey"/>
    <tag k="surface" v="paved"/>
  </way>
  <way id="27945639" version="7" timestamp="2009-08-24T22:32:44Z" uid="36809" user="pfoten_weg_!_" changeset="2250754">
    <nd ref="291893757"/>
    <nd ref="353763838"/>
    <nd ref="353763839"/>
    <nd ref="291893755"/>
    <nd ref="275577551"/>
    <nd ref="275577552"/>
    <nd ref="275577554"/>
    <nd ref="353763875"/>
    <nd ref="353763876"/>
    <nd ref="353763878"/>
    <tag k="cycleway" v="track"/>
    <tag k="embankment" v="yes"/>
    <tag k="foot" v="yes"/>
    <tag k="highway" v="cycleway"/>
    <tag k="source" v="survey"/>
    <tag k="surface" v="paved"/>
  </way>
  <way id="27945639" version="8" timestamp="2009-08-24T22:46:46Z" uid="36809" user="pfoten_weg_!_" changeset="2250819">
    <nd ref="291893757"/>
    <nd ref="353763838"/>
    <nd ref="353763839"/>
    <nd ref="291893755"/>
    <nd ref="275577551"/>
    <nd ref="275577552"/>
    <nd ref="275577554"/>
    <nd ref="353763875"/>
    <nd ref="353763876"/>
    <nd ref="353763878"/>
    <tag k="cycleway" v="track"/>
    <tag k="discovered_by" v="RambaZamba"/>
    <tag k="embankment" v="yes"/>
    <tag k="foot" v="yes"/>
    <tag k="highway" v="cycleway"/>
    <tag k="source" v="survey"/>
    <tag k="surface" v="paved"/>
  </way>
  <way id="27945639" version="10" timestamp="2009-08-31T22:19:58Z" uid="36809" user="pfoten_weg_!_" changeset="2332133">
    <nd ref="291893757"/>
    <nd ref="353763838"/>
    <nd ref="353763839"/>
    <nd ref="291893755"/>
    <nd ref="275577551"/>
    <nd ref="275577552"/>
    <nd ref="275577554"/>
    <nd ref="353763875"/>
    <nd ref="353763876"/>
    <nd ref="353763878"/>
    <tag k="cycleway" v="track"/>
    <tag k="embankment" v="yes"/>
    <tag k="foot" v="yes"/>
    <tag k="highway" v="cycleway"/>
    <tag k="source" v="survey"/>
    <tag k="surface" v="paved"/>
  </way>
  <way id="27945639" version="11" timestamp="2009-10-03T08:41:32Z" uid="179968" user="Ich_hasse_doitsche_OSM-Korinthenkacker" changeset="2720861">
    <nd ref="291893757"/>
    <nd ref="353763838"/>
    <nd ref="353763839"/>
    <nd ref="291893755"/>
    <nd ref="275577551"/>
    <nd ref="275577552"/>
    <nd ref="275577554"/>
    <nd ref="353763875"/>
    <nd ref="353763876"/>
    <nd ref="353763878"/>
    <tag k="cycleway" v="track"/>
    <tag k="embankment" v="yes"/>
    <tag k="foot" v="yes"/>
    <tag k="highway" v="cycleway"/>
    <tag k="surface" v="paved"/>
  </way>
  <way id="27945640" version="1" timestamp="2008-10-24T04:33:12Z" uid="36809" user="pfoten_weg_!_" changeset="545688">
    <nd ref="289890402"/>
    <nd ref="289890574"/>
    <nd ref="289890549"/>
    <nd ref="289890550"/>
    <nd ref="289890575"/>
    <nd ref="289890279"/>
    <nd ref="289890281"/>
    <nd ref="289890250"/>
    <nd ref="289890410"/>
    <nd ref="289890411"/>
    <nd ref="289890576"/>
    <nd ref="289890554"/>
    <nd ref="289890555"/>
    <nd ref="289890578"/>
    <nd ref="289890557"/>
    <nd ref="289890558"/>
    <nd ref="289890544"/>
    <tag k="created_by" v="Potlatch 0.10b"/>
    <tag k="highway" v="cycleway"/>
    <tag k="name" v="Hinterm Deich"/>
  </way>
  <way id="27945641" version="1" timestamp="2008-10-24T04:33:12Z" uid="36809" user="pfoten_weg_!_" changeset="545688">
    <nd ref="275577113"/>
    <nd ref="306806272"/>
    <nd ref="306806270"/>
    <nd ref="306806286"/>
    <nd ref="306806279"/>
    <nd ref="306806275"/>
    <nd ref="306806267"/>
    <nd ref="306806293"/>
    <nd ref="306806291"/>
    <nd ref="306806284"/>
    <nd ref="306806277"/>
    <nd ref="306806288"/>
    <nd ref="306806282"/>
    <nd ref="289890402"/>
    <tag k="created_by" v="RambaZamba"/>
    <tag k="highway" v="cycleway"/>
    <tag k="name" v="Hinterm Deich"/>
  </way>
  <way id="27945641" version="3" timestamp="2009-08-31T22:22:41Z" uid="36809" user="pfoten_weg_!_" changeset="2332133">
    <nd ref="275577113"/>
    <nd ref="306806272"/>
    <nd ref="306806270"/>
    <nd ref="306806286"/>
    <nd ref="306806279"/>
    <nd ref="306806275"/>
    <nd ref="306806267"/>
    <nd ref="306806293"/>
    <nd ref="306806291"/>
    <nd ref="306806284"/>
    <nd ref="306806277"/>
    <nd ref="306806288"/>
    <nd ref="306806282"/>
    <nd ref="289890402"/>
    <tag k="highway" v="cycleway"/>
    <tag k="name" v="Hinterm Deich"/>
  </way>
  <way id="27945670" version="4" timestamp="2010-04-03T13:41:51Z" uid="20587" user="balrog-kun" changeset="4312927">
    <nd ref="84421920"/>
    <nd ref="84421924"/>
    <nd ref="84421927"/>
    <nd ref="595964374"/>
    <nd ref="84404933"/>
    <tag k="highway" v="residential"/>
    <tag k="lanes" v="2"/>
    <tag k="name" v="South 1275 West"/>
    <tag k="tiger:cfcc" v="A41"/>
    <tag k="tiger:county" v="Weber, UT"/>
    <tag k="tiger:name_base" v="1275"/>
    <tag k="tiger:name_direction_suffix" v="W"/>
    <tag k="tiger:reviewed" v="yes"/>
    <tag k="tiger:separated" v="no"/>
    <tag k="tiger:source" v="tiger_import_dch_v0.6_20070830"/>
    <tag k="tiger:tlid" v="155717526"/>
  </way>
  <way id="27945711" version="2" timestamp="2010-03-28T00:16:41Z" uid="20587" user="balrog-kun" changeset="4250871">
    <nd ref="65477653"/>
    <nd ref="265834508"/>
    <nd ref="65405336"/>
    <tag k="created_by" v="Potlatch 0.10d"/>
    <tag k="highway" v="residential"/>
    <tag k="name" v="Laurel Hill Court"/>
    <tag k="tiger:cfcc" v="A41"/>
    <tag k="tiger:county" v="San Mateo, CA"/>
    <tag k="tiger:name_base" v="Laurel Hill"/>
    <tag k="tiger:name_type" v="Ct"/>
    <tag k="tiger:reviewed" v="no"/>
    <tag k="tiger:separated" v="no"/>
    <tag k="tiger:source" v="tiger_import_dch_v0.6_20070809"/>
    <tag k="tiger:tlid" v="192378481"/>
    <tag k="tiger:zip_left" v="94402"/>
    <tag k="tiger:zip_right" v="94402"/>
  </way>
  <way id="27945754" version="1" timestamp="2008-10-24T05:03:41Z" uid="36809" user="pfoten_weg_!_" changeset="545688">
    <nd ref="305295947"/>
    <nd ref="275576161"/>
    <tag k="created_by" v="RambaZamba"/>
    <tag k="highway" v="footway"/>
    <tag k="layer" v="0"/>
    <tag k="source" v="survey"/>
  </way>
  <way id="27945754" version="3" timestamp="2009-08-26T18:15:10Z" uid="36809" user="pfoten_weg_!_" changeset="2270114">
    <nd ref="305295947"/>
    <nd ref="275576161"/>
    <tag k="highway" v="footway"/>
    <tag k="source" v="survey"/>
  </way>
  <way id="27945754" version="4" timestamp="2009-10-03T08:40:53Z" uid="179968" user="Ich_hasse_doitsche_OSM-Korinthenkacker" changeset="2720861">
    <nd ref="305295947"/>
    <nd ref="275576161"/>
    <tag k="highway" v="footway"/>
  </way>
  <way id="27945755" version="1" timestamp="2008-10-24T05:03:42Z" uid="36809" user="pfoten_weg_!_" changeset="545688">
    <nd ref="31405920"/>
    <nd ref="289891083"/>
    <nd ref="306819883"/>
    <nd ref="306819874"/>
    <nd ref="306819869"/>
    <nd ref="306819871"/>
    <nd ref="306819880"/>
    <nd ref="306819887"/>
    <nd ref="275576067"/>
    <nd ref="306819890"/>
    <nd ref="306819876"/>
    <nd ref="306819894"/>
    <nd ref="306819901"/>
    <nd ref="306819899"/>
    <nd ref="306819885"/>
    <nd ref="306819892"/>
    <nd ref="306819866"/>
    <nd ref="306819878"/>
    <nd ref="306819896"/>
    <nd ref="306819903"/>
    <nd ref="306819901"/>
    <tag k="access" v="designated"/>
    <tag k="bicycle" v="yes"/>
    <tag k="created_by" v="RambaZamba"/>
    <tag k="foot" v="yes"/>
    <tag k="highway" v="service"/>
    <tag k="layer" v="0"/>
    <tag k="motorcar" v="no"/>
    <tag k="motorcycle" v="no"/>
    <tag k="noexit" v="yes"/>
    <tag k="surface" v="paved"/>
    <tag k="width" v="4"/>
  </way>
  <way id="27945755" version="2" timestamp="2008-10-24T05:21:26Z" uid="36809" user="pfoten_weg_!_" changeset="545688">
    <nd ref="31405920"/>
    <nd ref="289891083"/>
    <nd ref="306819883"/>
    <nd ref="306819874"/>
    <nd ref="306819869"/>
    <nd ref="306819871"/>
    <nd ref="306819880"/>
    <nd ref="306819887"/>
    <nd ref="306823065"/>
    <nd ref="306819890"/>
    <nd ref="306819876"/>
    <nd ref="306819894"/>
    <nd ref="306819901"/>
    <nd ref="306819899"/>
    <nd ref="306819885"/>
    <nd ref="306819892"/>
    <nd ref="306819866"/>
    <nd ref="306819878"/>
    <nd ref="306819896"/>
    <nd ref="306819903"/>
    <nd ref="306819901"/>
    <tag k="access" v="designated"/>
    <tag k="bicycle" v="yes"/>
    <tag k="created_by" v="RambaZamba"/>
    <tag k="foot" v="yes"/>
    <tag k="highway" v="service"/>
    <tag k="layer" v="0"/>
    <tag k="motorcar" v="no"/>
    <tag k="motorcycle" v="no"/>
    <tag k="noexit" v="yes"/>
    <tag k="surface" v="paved"/>
    <tag k="width" v="4"/>
  </way>
  <way id="27945756" version="1" timestamp="2008-10-24T05:03:42Z" uid="36809" user="pfoten_weg_!_" changeset="545688">
    <nd ref="31406081"/>
    <nd ref="306820001"/>
    <nd ref="306819950"/>
    <nd ref="306819920"/>
    <nd ref="306819965"/>
    <nd ref="306819918"/>
    <nd ref="306819938"/>
    <nd ref="306819934"/>
    <nd ref="306819994"/>
    <nd ref="306819987"/>
    <nd ref="275576998"/>
    <nd ref="275577081"/>
    <nd ref="306819982"/>
    <nd ref="306819945"/>
    <nd ref="306819922"/>
    <nd ref="306819975"/>
    <nd ref="306819943"/>
    <nd ref="306819906"/>
    <nd ref="306819908"/>
    <nd ref="306819915"/>
    <nd ref="306819961"/>
    <nd ref="289890251"/>
    <nd ref="306819952"/>
    <nd ref="306819980"/>
    <nd ref="306819936"/>
    <nd ref="306819941"/>
    <nd ref="306819954"/>
    <nd ref="306819991"/>
    <nd ref="306819925"/>
    <nd ref="306819910"/>
    <nd ref="306819996"/>
    <nd ref="306819978"/>
    <nd ref="306819927"/>
    <nd ref="306819947"/>
    <nd ref="306819932"/>
    <nd ref="306819958"/>
    <nd ref="306819989"/>
    <nd ref="306819929"/>
    <nd ref="306819985"/>
    <nd ref="306819971"/>
    <nd ref="306819963"/>
    <nd ref="306819968"/>
    <nd ref="306819913"/>
    <nd ref="306819973"/>
    <nd ref="306819956"/>
    <nd ref="31407189"/>
    <tag k="created_by" v="RambaZamba"/>
    <tag k="highway" v="residential"/>
    <tag k="name" v="Dorfstrae"/>
    <tag k="source" v="survey"/>
  </way>
  <way id="27945756" version="5" timestamp="2009-08-24T22:05:38Z" uid="36809" user="pfoten_weg_!_" changeset="2250603">
    <nd ref="31406081"/>
    <nd ref="306820001"/>
    <nd ref="306819950"/>
    <nd ref="353839538"/>
    <nd ref="306819920"/>
    <nd ref="306819965"/>
    <nd ref="306819918"/>
    <nd ref="306819938"/>
    <tag k="highway" v="unclassified"/>
    <tag k="maxspeed" v="40"/>
    <tag k="name" v="Landstrae"/>
    <tag k="nore:de" v="Warnung"/>
    <tag k="source" v="survey"/>
    <tag k="surface" v="paved"/>
  </way>
  <way id="27945756" version="6" timestamp="2009-08-24T22:34:19Z" uid="36809" user="pfoten_weg_!_" changeset="2250754">
    <nd ref="31406081"/>
    <nd ref="306820001"/>
    <nd ref="306819950"/>
    <nd ref="353839538"/>
    <nd ref="306819920"/>
    <nd ref="306819965"/>
    <nd ref="306819918"/>
    <nd ref="306819938"/>
    <tag k="highway" v="unclassified"/>
    <tag k="maxspeed" v="40"/>
    <tag k="name" v="Landstrae"/>
    <tag k="source" v="survey"/>
    <tag k="surface" v="paved"/>
  </way>
  <way id="27945756" version="7" timestamp="2009-08-24T22:50:02Z" uid="36809" user="pfoten_weg_!_" changeset="2250819">
    <nd ref="31406081"/>
    <nd ref="306820001"/>
    <nd ref="306819950"/>
    <nd ref="353839538"/>
    <nd ref="306819920"/>
    <nd ref="306819965"/>
    <nd ref="306819918"/>
    <nd ref="306819938"/>
    <tag k="discovered_by" v="RambaZamba"/>
    <tag k="highway" v="unclassified"/>
    <tag k="maxspeed" v="40"/>
    <tag k="name" v="Landstrae"/>
    <tag k="source" v="survey"/>
    <tag k="surface" v="paved"/>
  </way>
  <way id="27945756" version="9" timestamp="2009-08-31T21:59:07Z" uid="36809" user="pfoten_weg_!_" changeset="2331993">
    <nd ref="31406081"/>
    <nd ref="306820001"/>
    <nd ref="306819950"/>
    <nd ref="353839538"/>
    <nd ref="306819920"/>
    <nd ref="306819965"/>
    <nd ref="306819918"/>
    <nd ref="306819938"/>
    <tag k="highway" v="unclassified"/>
    <tag k="maxspeed" v="40"/>
    <tag k="name" v="Landstrae"/>
    <tag k="source" v="survey"/>
    <tag k="surface" v="paved"/>
  </way>
  <way id="27945756" version="10" timestamp="2009-10-03T08:40:53Z" uid="179968" user="Ich_hasse_doitsche_OSM-Korinthenkacker" changeset="2720861">
    <nd ref="31406081"/>
    <nd ref="306820001"/>
    <nd ref="306819950"/>
    <nd ref="353839538"/>
    <nd ref="306819920"/>
    <nd ref="306819965"/>
    <nd ref="306819918"/>
    <nd ref="306819938"/>
    <tag k="highway" v="unclassified"/>
    <tag k="maxspeed" v="40"/>
    <tag k="name" v="Landstrae"/>
    <tag k="surface" v="paved"/>
  </way>
  <way id="27945757" version="1" timestamp="2008-10-24T05:03:43Z" uid="36809" user="pfoten_weg_!_" changeset="545688">
    <nd ref="31406081"/>
    <nd ref="306820005"/>
    <nd ref="306820014"/>
    <nd ref="306820009"/>
    <nd ref="306820011"/>
    <nd ref="306820003"/>
    <nd ref="306820007"/>
    <nd ref="306820016"/>
    <nd ref="306820019"/>
    <nd ref="306820017"/>
    <nd ref="285327098"/>
    <nd ref="306820013"/>
    <nd ref="31405935"/>
    <tag k="created_by" v="RambaZamba"/>
    <tag k="highway" v="residential"/>
    <tag k="name" v="Straminke"/>
    <tag k="source" v="survey"/>
  </way>
  <way id="27945757" version="4" timestamp="2009-08-24T22:05:12Z" uid="36809" user="pfoten_weg_!_" changeset="2250603">
    <nd ref="31406081"/>
    <nd ref="306820014"/>
    <nd ref="306820009"/>
    <tag k="highway" v="residential"/>
    <tag k="maxspeed" v="40"/>
    <tag k="name" v="Straminke"/>
    <tag k="nore:de" v="Warnung"/>
    <tag k="source" v="survey"/>
    <tag k="surface" v="paved"/>
  </way>
  <way id="27945757" version="5" timestamp="2009-08-24T22:34:02Z" uid="36809" user="pfoten_weg_!_" changeset="2250754">
    <nd ref="31406081"/>
    <nd ref="306820014"/>
    <nd ref="306820009"/>
    <tag k="highway" v="residential"/>
    <tag k="maxspeed" v="40"/>
    <tag k="name" v="Straminke"/>
    <tag k="source" v="survey"/>
    <tag k="surface" v="paved"/>
  </way>
  <way id="27945757" version="6" timestamp="2009-08-24T22:49:18Z" uid="36809" user="pfoten_weg_!_" changeset="2250819">
    <nd ref="31406081"/>
    <nd ref="306820014"/>
    <nd ref="306820009"/>
    <tag k="discovered_by" v="RambaZamba"/>
    <tag k="highway" v="residential"/>
    <tag k="maxspeed" v="40"/>
    <tag k="name" v="Straminke"/>
    <tag k="source" v="survey"/>
    <tag k="surface" v="paved"/>
  </way>
  <way id="27945757" version="8" timestamp="2009-08-31T22:19:54Z" uid="36809" user="pfoten_weg_!_" changeset="2332133">
    <nd ref="31406081"/>
    <nd ref="306820014"/>
    <nd ref="306820009"/>
    <tag k="highway" v="residential"/>
    <tag k="maxspeed" v="40"/>
    <tag k="name" v="Straminke"/>
    <tag k="source" v="survey"/>
    <tag k="surface" v="paved"/>
  </way>
  <way id="27945757" version="9" timestamp="2009-10-03T08:40:52Z" uid="179968" user="Ich_hasse_doitsche_OSM-Korinthenkacker" changeset="2720861">
    <nd ref="31406081"/>
    <nd ref="306820014"/>
    <nd ref="306820009"/>
    <tag k="highway" v="residential"/>
    <tag k="maxspeed" v="40"/>
    <tag k="name" v="Straminke"/>
    <tag k="surface" v="paved"/>
  </way>
  <way id="27945758" version="1" timestamp="2008-10-24T05:03:43Z" uid="36809" user="pfoten_weg_!_" changeset="545688">
    <nd ref="275577081"/>
    <nd ref="275577113"/>
    <nd ref="306820022"/>
    <tag k="created_by" v="RambaZamba"/>
    <tag k="highway" v="residential"/>
    <tag k="name" v="Dorfstrae"/>
    <tag k="source" v="survey"/>
  </way>
  <way id="27945758" version="3" timestamp="2009-08-31T22:22:49Z" uid="36809" user="pfoten_weg_!_" changeset="2332133">
    <nd ref="275577081"/>
    <nd ref="275577113"/>
    <nd ref="306820022"/>
    <tag k="highway" v="residential"/>
    <tag k="name" v="Dorfstrae"/>
    <tag k="source" v="survey"/>
  </way>
  <way id="27945758" version="4" timestamp="2009-10-03T08:40:53Z" uid="179968" user="Ich_hasse_doitsche_OSM-Korinthenkacker" changeset="2720861">
    <nd ref="275577081"/>
    <nd ref="275577113"/>
    <nd ref="306820022"/>
    <tag k="highway" v="residential"/>
    <tag k="name" v="Dorfstrae"/>
  </way>
  <way id="27945759" version="1" timestamp="2008-10-24T05:03:43Z" uid="36809" user="pfoten_weg_!_" changeset="545688">
    <nd ref="31405993"/>
    <nd ref="306820024"/>
    <nd ref="31407186"/>
    <nd ref="306820045"/>
    <nd ref="31406802"/>
    <nd ref="289889943"/>
    <nd ref="306820054"/>
    <nd ref="306820026"/>
    <nd ref="306820047"/>
    <nd ref="306820038"/>
    <nd ref="306820056"/>
    <nd ref="306820040"/>
    <nd ref="31407022"/>
    <nd ref="306820049"/>
    <nd ref="306820036"/>
    <nd ref="306820031"/>
    <nd ref="306820033"/>
    <nd ref="306820043"/>
    <nd ref="306820052"/>
    <nd ref="306820029"/>
    <nd ref="31407475"/>
    <nd ref="305235896"/>
    <tag k="created_by" v="RambaZamba"/>
    <tag k="highway" v="cycleway"/>
    <tag k="source" v="survey"/>
  </way>
  <way id="27945759" version="5" timestamp="2009-08-24T22:03:50Z" uid="36809" user="pfoten_weg_!_" changeset="2250603">
    <nd ref="31405993"/>
    <nd ref="306820024"/>
    <nd ref="31407186"/>
    <nd ref="306820045"/>
    <nd ref="31406802"/>
    <tag k="bicycle" v="designated"/>
    <tag k="foot" v="designated"/>
    <tag k="highway" v="path"/>
    <tag k="nore:de" v="Warnung"/>
    <tag k="segregated" v="no"/>
    <tag k="source" v="survey, photo"/>
  </way>
  <way id="27945759" version="6" timestamp="2009-08-24T22:33:15Z" uid="36809" user="pfoten_weg_!_" changeset="2250754">
    <nd ref="31405993"/>
    <nd ref="306820024"/>
    <nd ref="31407186"/>
    <nd ref="306820045"/>
    <nd ref="31406802"/>
    <tag k="bicycle" v="designated"/>
    <tag k="foot" v="designated"/>
    <tag k="highway" v="path"/>
    <tag k="segregated" v="no"/>
    <tag k="source" v="survey, photo"/>
  </way>
  <way id="27945759" version="7" timestamp="2009-08-24T22:47:14Z" uid="36809" user="pfoten_weg_!_" changeset="2250819">
    <nd ref="31405993"/>
    <nd ref="306820024"/>
    <nd ref="31407186"/>
    <nd ref="306820045"/>
    <nd ref="31406802"/>
    <tag k="bicycle" v="designated"/>
    <tag k="discovered_by" v="RambaZamba"/>
    <tag k="foot" v="designated"/>
    <tag k="highway" v="path"/>
    <tag k="segregated" v="no"/>
    <tag k="source" v="survey, photo"/>
  </way>
  <way id="27945759" version="9" timestamp="2009-08-31T22:23:14Z" uid="36809" user="pfoten_weg_!_" changeset="2332133">
    <nd ref="31405993"/>
    <nd ref="306820024"/>
    <nd ref="31407186"/>
    <nd ref="306820045"/>
    <nd ref="31406802"/>
    <tag k="bicycle" v="designated"/>
    <tag k="foot" v="designated"/>
    <tag k="highway" v="path"/>
    <tag k="segregated" v="no"/>
    <tag k="source" v="survey, photo"/>
  </way>
  <way id="27945759" version="10" timestamp="2009-10-03T08:40:53Z" uid="179968" user="Ich_hasse_doitsche_OSM-Korinthenkacker" changeset="2720861">
    <nd ref="31405993"/>
    <nd ref="306820024"/>
    <nd ref="31407186"/>
    <nd ref="306820045"/>
    <nd ref="31406802"/>
    <tag k="bicycle" v="designated"/>
    <tag k="foot" v="designated"/>
    <tag k="highway" v="path"/>
    <tag k="segregated" v="no"/>
  </way>
  <way id="27945760" version="1" timestamp="2008-10-24T05:03:44Z" uid="36809" user="pfoten_weg_!_" changeset="545688">
    <nd ref="31407005"/>
    <nd ref="306820098"/>
    <nd ref="306820070"/>
    <nd ref="306820088"/>
    <nd ref="306820061"/>
    <nd ref="306820086"/>
    <nd ref="306820084"/>
    <nd ref="306820109"/>
    <nd ref="306820095"/>
    <nd ref="306820102"/>
    <nd ref="306820091"/>
    <nd ref="306820072"/>
    <nd ref="306820093"/>
    <nd ref="306820107"/>
    <nd ref="306820065"/>
    <nd ref="60735725"/>
    <nd ref="31405912"/>
    <nd ref="306820111"/>
    <nd ref="306820077"/>
    <nd ref="306820081"/>
    <nd ref="306820104"/>
    <nd ref="306820058"/>
    <nd ref="306820068"/>
    <nd ref="306820075"/>
    <nd ref="306820063"/>
    <nd ref="31406624"/>
    <tag k="created_by" v="RambaZamba"/>
    <tag k="highway" v="secondary"/>
    <tag k="name" v="Am Freesenbruch"/>
    <tag k="reg_ref" v="L21"/>
    <tag k="source" v="survey"/>
  </way>
  <way id="27945760" version="7" timestamp="2009-08-24T22:45:15Z" uid="36809" user="pfoten_weg_!_" changeset="2250819">
    <nd ref="353092427"/>
    <nd ref="306820098"/>
    <nd ref="306820070"/>
    <nd ref="306820088"/>
    <nd ref="306820061"/>
    <nd ref="306820086"/>
    <nd ref="306820084"/>
    <nd ref="306820109"/>
    <nd ref="306820095"/>
    <nd ref="306820102"/>
    <nd ref="306820091"/>
    <nd ref="306820072"/>
    <nd ref="306820093"/>
    <nd ref="306820107"/>
    <nd ref="306820065"/>
    <nd ref="60735725"/>
    <nd ref="31405912"/>
    <tag k="discovered_by" v="RambaZamba"/>
    <tag k="highway" v="secondary"/>
    <tag k="maxspeed" v="70"/>
    <tag k="name" v="Am Freesenbruch"/>
    <tag k="ref" v="L 21"/>
    <tag k="source" v="survey"/>
  </way>
  <way id="27945760" version="9" timestamp="2009-08-31T22:23:28Z" uid="36809" user="pfoten_weg_!_" changeset="2332133">
    <nd ref="353092427"/>
    <nd ref="306820098"/>
    <nd ref="306820070"/>
    <nd ref="306820088"/>
    <nd ref="306820061"/>
    <nd ref="306820086"/>
    <nd ref="306820084"/>
    <nd ref="306820109"/>
    <nd ref="306820095"/>
    <nd ref="306820102"/>
    <nd ref="306820091"/>
    <nd ref="306820072"/>
    <nd ref="306820093"/>
    <nd ref="306820107"/>
    <nd ref="306820065"/>
    <nd ref="60735725"/>
    <nd ref="31405912"/>
    <tag k="highway" v="secondary"/>
    <tag k="maxspeed" v="70"/>
    <tag k="name" v="Am Freesenbruch"/>
    <tag k="ref" v="L 21"/>
    <tag k="source" v="survey"/>
  </way>
  <way id="27945760" version="11" timestamp="2009-10-03T08:40:54Z" uid="179968" user="Ich_hasse_doitsche_OSM-Korinthenkacker" changeset="2720861">
    <nd ref="353092427"/>
    <nd ref="306820098"/>
    <nd ref="306820070"/>
    <nd ref="306820088"/>
    <nd ref="306820061"/>
    <nd ref="306820086"/>
    <nd ref="484613203"/>
    <nd ref="484613201"/>
    <nd ref="306820084"/>
    <nd ref="306820109"/>
    <nd ref="484613199"/>
    <nd ref="306820095"/>
    <nd ref="484613197"/>
    <nd ref="484613195"/>
    <nd ref="306820102"/>
    <nd ref="484613193"/>
    <nd ref="484613189"/>
    <nd ref="484613191"/>
    <nd ref="306820091"/>
    <nd ref="484613187"/>
    <nd ref="306820072"/>
    <nd ref="306820093"/>
    <nd ref="306820107"/>
    <nd ref="306820065"/>
    <nd ref="60735725"/>
    <nd ref="31405912"/>
    <tag k="highway" v="secondary"/>
    <tag k="maxspeed" v="70"/>
    <tag k="name" v="Am Freesenbruch"/>
    <tag k="ref" v="L 21"/>
  </way>
  <way id="27945761" version="1" timestamp="2008-10-24T05:03:44Z" uid="36809" user="pfoten_weg_!_" changeset="545688">
    <nd ref="31406293"/>
    <nd ref="306820079"/>
    <nd ref="306820100"/>
    <nd ref="31406624"/>
    <tag k="created_by" v="RambaZamba"/>
    <tag k="highway" v="secondary"/>
    <tag k="name" v="Am Freesenbruch"/>
    <tag k="reg_ref" v="L21"/>
    <tag k="source" v="survey"/>
  </way>
  <way id="27945761" version="5" timestamp="2009-08-24T22:05:14Z" uid="36809" user="pfoten_weg_!_" changeset="2250603">
    <nd ref="31406293"/>
    <nd ref="306820079"/>
    <nd ref="306820100"/>
    <nd ref="31406624"/>
    <tag k="footway" v="right"/>
    <tag k="footway:right:bicycle" v="yes"/>
    <tag k="highway" v="secondary"/>
    <tag k="maxspeed" v="50"/>
    <tag k="name" v="Am Freesenbruch"/>
    <tag k="nore:de" v="Warnung"/>
    <tag k="ref" v="L 21"/>
    <tag k="source" v="survey"/>
  </way>
  <way id="27945761" version="6" timestamp="2009-08-24T22:34:03Z" uid="36809" user="pfoten_weg_!_" changeset="2250754">
    <nd ref="31406293"/>
    <nd ref="306820079"/>
    <nd ref="306820100"/>
    <nd ref="31406624"/>
    <tag k="footway" v="right"/>
    <tag k="footway:right:bicycle" v="yes"/>
    <tag k="highway" v="secondary"/>
    <tag k="maxspeed" v="50"/>
    <tag k="name" v="Am Freesenbruch"/>
    <tag k="ref" v="L 21"/>
    <tag k="source" v="survey"/>
  </way>
  <way id="27945761" version="7" timestamp="2009-08-24T22:49:19Z" uid="36809" user="pfoten_weg_!_" changeset="2250819">
    <nd ref="31406293"/>
    <nd ref="306820079"/>
    <nd ref="306820100"/>
    <nd ref="31406624"/>
    <tag k="discovered_by" v="RambaZamba"/>
    <tag k="footway" v="right"/>
    <tag k="footway:right:bicycle" v="yes"/>
    <tag k="highway" v="secondary"/>
    <tag k="maxspeed" v="50"/>
    <tag k="name" v="Am Freesenbruch"/>
    <tag k="ref" v="L 21"/>
    <tag k="source" v="survey"/>
  </way>
  <way id="27945761" version="9" timestamp="2009-08-31T22:18:36Z" uid="36809" user="pfoten_weg_!_" changeset="2332133">
    <nd ref="31406293"/>
    <nd ref="306820079"/>
    <nd ref="306820100"/>
    <nd ref="31406624"/>
    <tag k="footway" v="right"/>
    <tag k="footway:right:bicycle" v="yes"/>
    <tag k="highway" v="secondary"/>
    <tag k="maxspeed" v="50"/>
    <tag k="name" v="Am Freesenbruch"/>
    <tag k="ref" v="L 21"/>
    <tag k="source" v="survey"/>
  </way>
  <way id="27945761" version="10" timestamp="2009-10-03T08:40:55Z" uid="179968" user="Ich_hasse_doitsche_OSM-Korinthenkacker" changeset="2720861">
    <nd ref="31406293"/>
    <nd ref="306820079"/>
    <nd ref="306820100"/>
    <nd ref="31406624"/>
    <tag k="footway" v="right"/>
    <tag k="footway:right:bicycle" v="yes"/>
    <tag k="highway" v="secondary"/>
    <tag k="maxspeed" v="50"/>
    <tag k="name" v="Am Freesenbruch"/>
    <tag k="ref" v="L 21"/>
  </way>
  <way id="27945762" version="1" timestamp="2008-10-24T05:03:44Z" uid="36809" user="pfoten_weg_!_" changeset="545688">
    <nd ref="31407182"/>
    <nd ref="31406293"/>
    <tag k="bridge" v="yes"/>
    <tag k="created_by" v="RambaZamba"/>
    <tag k="highway" v="secondary"/>
    <tag k="layer" v="1"/>
    <tag k="name" v="Meiningen-Brcke"/>
    <tag k="oneway" v="true"/>
    <tag k="ref" v="L 21"/>
  </way>
  <way id="27945762" version="5" timestamp="2009-08-24T22:04:24Z" uid="36809" user="pfoten_weg_!_" changeset="2250603">
    <nd ref="31407182"/>
    <nd ref="31406293"/>
    <tag k="bridge" v="yes"/>
    <tag k="footway" v="right"/>
    <tag k="footway:right:bicycle" v="yes"/>
    <tag k="highway" v="secondary"/>
    <tag k="layer" v="1"/>
    <tag k="maxspeed" v="50"/>
    <tag k="maxweight" v="30"/>
    <tag k="name" v="Meiningen-Brcke"/>
    <tag k="nore:de" v="Warnung"/>
    <tag k="ref" v="L 21"/>
  </way>
  <way id="27945762" version="6" timestamp="2009-08-24T22:33:33Z" uid="36809" user="pfoten_weg_!_" changeset="2250754">
    <nd ref="31407182"/>
    <nd ref="31406293"/>
    <tag k="bridge" v="yes"/>
    <tag k="footway" v="right"/>
    <tag k="footway:right:bicycle" v="yes"/>
    <tag k="highway" v="secondary"/>
    <tag k="layer" v="1"/>
    <tag k="maxspeed" v="50"/>
    <tag k="maxweight" v="30"/>
    <tag k="name" v="Meiningen-Brcke"/>
    <tag k="ref" v="L 21"/>
  </way>
  <way id="27945762" version="7" timestamp="2009-08-24T22:48:03Z" uid="36809" user="pfoten_weg_!_" changeset="2250819">
    <nd ref="31407182"/>
    <nd ref="31406293"/>
    <tag k="bridge" v="yes"/>
    <tag k="discovered_by" v="RambaZamba"/>
    <tag k="footway" v="right"/>
    <tag k="footway:right:bicycle" v="yes"/>
    <tag k="highway" v="secondary"/>
    <tag k="layer" v="1"/>
    <tag k="maxspeed" v="50"/>
    <tag k="maxweight" v="30"/>
    <tag k="name" v="Meiningen-Brcke"/>
    <tag k="ref" v="L 21"/>
  </way>
  <way id="27945762" version="9" timestamp="2009-08-31T22:20:07Z" uid="36809" user="pfoten_weg_!_" changeset="2332133">
    <nd ref="31407182"/>
    <nd ref="31406293"/>
    <tag k="bridge" v="yes"/>
    <tag k="footway" v="right"/>
    <tag k="footway:right:bicycle" v="yes"/>
    <tag k="highway" v="secondary"/>
    <tag k="layer" v="1"/>
    <tag k="maxspeed" v="50"/>
    <tag k="maxweight" v="30"/>
    <tag k="name" v="Meiningen-Brcke"/>
    <tag k="ref" v="L 21"/>
  </way>
  <way id="27945763" version="1" timestamp="2008-10-24T05:03:44Z" uid="36809" user="pfoten_weg_!_" changeset="545688">
    <nd ref="306820123"/>
    <nd ref="306820113"/>
    <tag k="bridge" v="yes"/>
    <tag k="created_by" v="RambaZamba"/>
    <tag k="highway" v="tertiary"/>
    <tag k="layer" v="1"/>
    <tag k="name" v="Ponton-Brcke (April - Okt.)"/>
    <tag k="oneway" v="true"/>
    <tag k="source" v="survey"/>
  </way>
  <way id="27945763" version="5" timestamp="2009-08-24T22:50:56Z" uid="36809" user="pfoten_weg_!_" changeset="2250819">
    <nd ref="306820123"/>
    <nd ref="353657048"/>
    <tag k="bridge" v="yes"/>
    <tag k="discovered_by" v="RambaZamba"/>
    <tag k="highway" v="tertiary"/>
    <tag k="layer" v="1"/>
    <tag k="name" v="Ponton-Brcke (April - Okt.)"/>
    <tag k="oneway" v="yes"/>
    <tag k="source" v="survey"/>
  </way>
  <way id="27945763" version="7" timestamp="2009-08-31T22:18:13Z" uid="36809" user="pfoten_weg_!_" changeset="2332133">
    <nd ref="306820123"/>
    <nd ref="353657048"/>
    <tag k="bridge" v="yes"/>
    <tag k="highway" v="tertiary"/>
    <tag k="layer" v="1"/>
    <tag k="name" v="Ponton-Brcke (April - Okt.)"/>
    <tag k="oneway" v="yes"/>
    <tag k="source" v="survey"/>
  </way>
  <way id="27945763" version="8" timestamp="2009-10-03T08:40:54Z" uid="179968" user="Ich_hasse_doitsche_OSM-Korinthenkacker" changeset="2720861">
    <nd ref="306820123"/>
    <nd ref="353657048"/>
    <tag k="bridge" v="yes"/>
    <tag k="highway" v="tertiary"/>
    <tag k="layer" v="1"/>
    <tag k="name" v="Ponton-Brcke (April - Okt.)"/>
    <tag k="oneway" v="yes"/>
  </way>
  <way id="27945764" version="1" timestamp="2008-10-24T05:03:45Z" uid="36809" user="pfoten_weg_!_" changeset="545688">
    <nd ref="31406624"/>
    <nd ref="306820127"/>
    <nd ref="306820125"/>
    <nd ref="306820118"/>
    <nd ref="306820120"/>
    <nd ref="306820123"/>
    <tag k="created_by" v="RambaZamba"/>
    <tag k="highway" v="tertiary"/>
    <tag k="name" v="Am Freesenbruch"/>
    <tag k="oneway" v="yes"/>
    <tag k="source" v="survey"/>
  </way>
  <way id="27945764" version="3" timestamp="2009-08-24T22:43:53Z" uid="36809" user="pfoten_weg_!_" changeset="2250819">
    <nd ref="31406624"/>
    <nd ref="306820127"/>
    <nd ref="306820125"/>
    <nd ref="306820118"/>
    <nd ref="306820120"/>
    <nd ref="306820123"/>
    <tag k="discovered_by" v="RambaZamba"/>
    <tag k="highway" v="tertiary"/>
    <tag k="name" v="Am Freesenbruch"/>
    <tag k="oneway" v="yes"/>
    <tag k="source" v="survey"/>
  </way>
  <way id="27945764" version="5" timestamp="2009-08-31T22:17:22Z" uid="36809" user="pfoten_weg_!_" changeset="2332133">
    <nd ref="31406624"/>
    <nd ref="306820127"/>
    <nd ref="306820125"/>
    <nd ref="306820118"/>
    <nd ref="306820120"/>
    <nd ref="306820123"/>
    <tag k="highway" v="tertiary"/>
    <tag k="name" v="Am Freesenbruch"/>
    <tag k="oneway" v="yes"/>
    <tag k="source" v="survey"/>
  </way>
  <way id="27945764" version="6" timestamp="2009-10-03T08:40:54Z" uid="179968" user="Ich_hasse_doitsche_OSM-Korinthenkacker" changeset="2720861">
    <nd ref="31406624"/>
    <nd ref="306820127"/>
    <nd ref="306820125"/>
    <nd ref="306820118"/>
    <nd ref="306820120"/>
    <nd ref="306820123"/>
    <tag k="highway" v="tertiary"/>
    <tag k="name" v="Am Freesenbruch"/>
    <tag k="oneway" v="yes"/>
  </way>
  <way id="27945765" version="1" timestamp="2008-10-24T05:03:45Z" uid="36809" user="pfoten_weg_!_" changeset="545688">
    <nd ref="306820113"/>
    <nd ref="306820116"/>
    <nd ref="306820130"/>
    <nd ref="31405960"/>
    <nd ref="31406339"/>
    <tag k="created_by" v="RambaZamba"/>
    <tag k="highway" v="tertiary"/>
    <tag k="name" v="Am Freesenbruch"/>
    <tag k="oneway" v="yes"/>
    <tag k="source" v="survey"/>
  </way>
  <way id="27945765" version="4" timestamp="2009-08-24T22:43:28Z" uid="36809" user="pfoten_weg_!_" changeset="2250819">
    <nd ref="306820113"/>
    <nd ref="306820116"/>
    <nd ref="306820130"/>
    <nd ref="31405960"/>
    <tag k="discovered_by" v="RambaZamba"/>
    <tag k="highway" v="tertiary"/>
    <tag k="name" v="Am Freesenbruch"/>
    <tag k="oneway" v="yes"/>
    <tag k="source" v="survey"/>
  </way>
  <way id="27945765" version="6" timestamp="2009-08-31T22:16:47Z" uid="36809" user="pfoten_weg_!_" changeset="2332133">
    <nd ref="306820113"/>
    <nd ref="306820116"/>
    <nd ref="306820130"/>
    <nd ref="31405960"/>
    <tag k="highway" v="tertiary"/>
    <tag k="name" v="Am Freesenbruch"/>
    <tag k="oneway" v="yes"/>
    <tag k="source" v="survey"/>
  </way>
  <way id="27945765" version="7" timestamp="2009-10-03T08:40:54Z" uid="179968" user="Ich_hasse_doitsche_OSM-Korinthenkacker" changeset="2720861">
    <nd ref="306820113"/>
    <nd ref="306820116"/>
    <nd ref="306820130"/>
    <nd ref="31405960"/>
    <tag k="highway" v="tertiary"/>
    <tag k="name" v="Am Freesenbruch"/>
    <tag k="oneway" v="yes"/>
  </way>
  <way id="27945781" version="1" timestamp="2008-10-24T05:08:27Z" uid="36809" user="pfoten_weg_!_" changeset="545688">
    <nd ref="306822817"/>
    <nd ref="306822812"/>
    <tag k="created_by" v="RambaZamba"/>
    <tag k="highway" v="footway"/>
    <tag k="source" v="survey"/>
  </way>
  <way id="27945781" version="2" timestamp="2008-10-24T05:21:25Z" uid="36809" user="pfoten_weg_!_" changeset="545688">
    <nd ref="306819899"/>
    <nd ref="306822812"/>
    <tag k="created_by" v="RambaZamba"/>
    <tag k="highway" v="footway"/>
    <tag k="source" v="survey"/>
  </way>
  <way id="27945781" version="4" timestamp="2009-08-31T22:17:01Z" uid="36809" user="pfoten_weg_!_" changeset="2332133">
    <nd ref="306819899"/>
    <nd ref="306822812"/>
    <tag k="highway" v="footway"/>
    <tag k="source" v="survey"/>
  </way>
  <way id="27945781" version="5" timestamp="2009-10-03T08:40:55Z" uid="179968" user="Ich_hasse_doitsche_OSM-Korinthenkacker" changeset="2720861">
    <nd ref="306819899"/>
    <nd ref="306822812"/>
    <tag k="highway" v="footway"/>
  </way>
  <way id="27945783" version="1" timestamp="2008-10-24T05:08:54Z" uid="36809" user="pfoten_weg_!_" changeset="545688">
    <nd ref="306823065"/>
    <nd ref="33240419"/>
    <nd ref="275576161"/>
    <tag k="bicycle" v="yes"/>
    <tag k="created_by" v="Potlatch 0.10b"/>
    <tag k="foot" v="yes"/>
    <tag k="highway" v="track"/>
  </way>
  <way id="27945812" version="1" timestamp="2008-10-24T05:19:22Z" uid="36809" user="pfoten_weg_!_" changeset="545688">
    <nd ref="305296609"/>
    <nd ref="306828397"/>
    <nd ref="306828396"/>
    <nd ref="275674021"/>
    <tag k="access" v="designated"/>
    <tag k="created_by" v="RambaZamba"/>
    <tag k="highway" v="track"/>
    <tag k="layer" v="0"/>
    <tag k="source" v="survey"/>
    <tag k="surface" v="gravel"/>
    <tag k="tracktype" v="grade3"/>
  </way>
  <way id="27945812" version="3" timestamp="2009-08-11T17:03:13Z" uid="36099" user="olli_g" changeset="2110270">
    <nd ref="305296609"/>
    <nd ref="306828397"/>
    <nd ref="306828396"/>
    <nd ref="275674021"/>
    <tag k="access" v="designated"/>
    <tag k="created_by" v="RambaZamba"/>
    <tag k="highway" v="cycleway"/>
    <tag k="source" v="survey"/>
    <tag k="surface" v="gravel"/>
    <tag k="tracktype" v="grade3"/>
  </way>
  <way id="27945812" version="5" timestamp="2009-08-31T22:25:13Z" uid="36809" user="pfoten_weg_!_" changeset="2332133">
    <nd ref="305296609"/>
    <nd ref="306828397"/>
    <nd ref="306828396"/>
    <nd ref="275674021"/>
    <tag k="access" v="designated"/>
    <tag k="highway" v="cycleway"/>
    <tag k="source" v="survey"/>
    <tag k="surface" v="gravel"/>
    <tag k="tracktype" v="grade3"/>
  </way>
  <way id="27945812" version="6" timestamp="2009-10-03T08:40:51Z" uid="179968" user="Ich_hasse_doitsche_OSM-Korinthenkacker" changeset="2720861">
    <nd ref="305296609"/>
    <nd ref="306828397"/>
    <nd ref="306828396"/>
    <nd ref="275674021"/>
    <tag k="access" v="designated"/>
    <tag k="highway" v="cycleway"/>
    <tag k="surface" v="gravel"/>
    <tag k="tracktype" v="grade3"/>
  </way>
  <way id="27945828" version="3" timestamp="2009-02-23T12:23:40Z" uid="34428" user="usm78-gis" changeset="634299"/>
  <way id="27945891" version="11" timestamp="2010-02-25T19:57:06Z" uid="16922" user="amai" changeset="3975085">
    <nd ref="306833733"/>
    <nd ref="306833734"/>
    <nd ref="306833735"/>
    <nd ref="306833736"/>
    <nd ref="306833737"/>
    <nd ref="317196043"/>
    <nd ref="317196040"/>
    <nd ref="306833738"/>
    <nd ref="306833739"/>
    <nd ref="653850026"/>
    <nd ref="306833740"/>
    <nd ref="653849999"/>
    <nd ref="306833741"/>
    <nd ref="317195763"/>
    <nd ref="306833742"/>
    <nd ref="306833743"/>
    <nd ref="317195510"/>
    <nd ref="317194599"/>
    <tag k="highway" v="primary"/>
    <tag k="name" v="Kol. Soegiono"/>
  </way>
  <way id="27945912" version="8" timestamp="2010-03-28T00:16:41Z" uid="20587" user="balrog-kun" changeset="4250871">
    <nd ref="92115589"/>
    <nd ref="92467062"/>
    <nd ref="92467058"/>
    <nd ref="92467056"/>
    <nd ref="92467054"/>
    <nd ref="92467052"/>
    <nd ref="92467050"/>
    <nd ref="92467045"/>
    <nd ref="92467044"/>
    <nd ref="92467042"/>
    <nd ref="92467040"/>
    <nd ref="92467038"/>
    <nd ref="92467036"/>
    <nd ref="92467034"/>
    <nd ref="92467031"/>
    <nd ref="92466652"/>
    <nd ref="92466653"/>
    <nd ref="92466655"/>
    <nd ref="92466658"/>
    <nd ref="92466660"/>
    <nd ref="92466662"/>
    <nd ref="92466666"/>
    <nd ref="92466667"/>
    <nd ref="92466673"/>
    <nd ref="92466675"/>
    <nd ref="92466679"/>
    <nd ref="92466682"/>
    <nd ref="92466684"/>
    <nd ref="92466688"/>
    <nd ref="92466691"/>
    <nd ref="92466695"/>
    <nd ref="92466698"/>
    <nd ref="92466701"/>
    <nd ref="92466704"/>
    <nd ref="92466707"/>
    <nd ref="92466710"/>
    <nd ref="92466713"/>
    <nd ref="92466718"/>
    <nd ref="92466720"/>
    <nd ref="92466722"/>
    <nd ref="92466724"/>
    <nd ref="92466727"/>
    <nd ref="92466729"/>
    <nd ref="92466731"/>
    <nd ref="92466735"/>
    <nd ref="92466736"/>
    <nd ref="92466740"/>
    <nd ref="92466743"/>
    <nd ref="92466746"/>
    <nd ref="92466747"/>
    <nd ref="92466748"/>
    <nd ref="92466750"/>
    <nd ref="92466751"/>
    <nd ref="92466752"/>
    <nd ref="92466753"/>
    <nd ref="92466754"/>
    <nd ref="92466757"/>
    <nd ref="92466760"/>
    <nd ref="92466762"/>
    <nd ref="92466764"/>
    <nd ref="92466766"/>
    <nd ref="92466769"/>
    <nd ref="92466771"/>
    <nd ref="92466773"/>
    <nd ref="92466776"/>
    <nd ref="92466780"/>
    <nd ref="92466783"/>
    <nd ref="92466785"/>
    <nd ref="92466786"/>
    <nd ref="92466790"/>
    <nd ref="92466792"/>
    <nd ref="92466794"/>
    <nd ref="92466797"/>
    <nd ref="92466804"/>
    <nd ref="92466806"/>
    <nd ref="92466809"/>
    <nd ref="92466811"/>
    <nd ref="91516857"/>
    <nd ref="92466813"/>
    <nd ref="91415816"/>
    <nd ref="92466816"/>
    <nd ref="92466818"/>
    <nd ref="29945494"/>
    <nd ref="92466824"/>
    <nd ref="92466831"/>
    <nd ref="91643091"/>
    <nd ref="92466834"/>
    <nd ref="92466838"/>
    <nd ref="92466840"/>
    <nd ref="92466843"/>
    <nd ref="92466845"/>
    <nd ref="92466850"/>
    <nd ref="91415778"/>
    <nd ref="92466854"/>
    <nd ref="92466858"/>
    <nd ref="92466862"/>
    <nd ref="92466863"/>
    <nd ref="92466865"/>
    <nd ref="92466868"/>
    <nd ref="92466870"/>
    <nd ref="92466872"/>
    <nd ref="92466874"/>
    <nd ref="92466876"/>
    <nd ref="92466879"/>
    <nd ref="92466881"/>
    <nd ref="92466884"/>
    <nd ref="92466887"/>
    <nd ref="91416921"/>
    <nd ref="92466889"/>
    <nd ref="91516795"/>
    <nd ref="92466894"/>
    <nd ref="92466900"/>
    <nd ref="92466902"/>
    <nd ref="92466905"/>
    <nd ref="92466907"/>
    <nd ref="92466909"/>
    <nd ref="91249974"/>
    <nd ref="92466912"/>
    <nd ref="92466914"/>
    <nd ref="92403514"/>
    <tag k="hgv" v="destination"/>
    <tag k="highway" v="primary"/>
    <tag k="name" v="Lassen Park Road"/>
    <tag k="name_1" v="State Route 89 (Scenic)"/>
    <tag k="ref" v="CA 89"/>
    <tag k="tiger:cfcc" v="A31:A41"/>
    <tag k="tiger:county" v="Shasta, CA"/>
    <tag k="tiger:name_base" v="Lassen Peak"/>
    <tag k="tiger:name_base_1" v="State Route 89 (Scenic)"/>
    <tag k="tiger:name_type" v="Hwy"/>
    <tag k="tiger:separated" v="no"/>
    <tag k="tiger:source" v="tiger_import_dch_v0.6_20070809"/>
    <tag k="tiger:tlid" v="126608478:126608506:126608508:126608526:126608528:126608538:126608545:126614708:126614709:126614726:126614727:126614732:126614761:126614834:126614940:126615062:126615071:126654414:126654415:126654519:126654520:126654579:126655602:126664013:126664014:12668"/>
    <tag k="toll" v="yes"/>
  </way>
  <way id="27945941" version="1" timestamp="2008-10-24T05:41:29Z" uid="36809" user="pfoten_weg_!_" changeset="545688">
    <nd ref="60629209"/>
    <nd ref="306834049"/>
    <nd ref="306834050"/>
    <nd ref="306834046"/>
    <nd ref="306834048"/>
    <nd ref="306834042"/>
    <nd ref="306834044"/>
    <nd ref="306834038"/>
    <nd ref="306834040"/>
    <nd ref="306834045"/>
    <nd ref="306834047"/>
    <nd ref="306834041"/>
    <nd ref="306834043"/>
    <nd ref="306834037"/>
    <nd ref="306834039"/>
    <nd ref="60629179"/>
    <tag k="created_by" v="RambaZamba"/>
    <tag k="highway" v="unclassified"/>
    <tag k="layer" v="0"/>
    <tag k="source" v="Kreis Nordvorpommern"/>
  </way>
  <way id="27945941" version="2" timestamp="2008-10-24T05:59:39Z" uid="36809" user="pfoten_weg_!_" changeset="545688">
    <nd ref="60629209"/>
    <nd ref="306834049"/>
    <nd ref="306834050"/>
    <nd ref="306834046"/>
    <nd ref="306834048"/>
    <nd ref="306834042"/>
    <nd ref="306834044"/>
    <nd ref="306834038"/>
    <nd ref="60629126"/>
    <nd ref="306834045"/>
    <nd ref="306834047"/>
    <nd ref="306834041"/>
    <nd ref="306834043"/>
    <nd ref="306834037"/>
    <nd ref="306834039"/>
    <nd ref="60629179"/>
    <tag k="created_by" v="RambaZamba"/>
    <tag k="highway" v="unclassified"/>
    <tag k="layer" v="0"/>
    <tag k="source" v="Kreis Nordvorpommern"/>
  </way>
  <way id="27945941" version="7" timestamp="2009-10-03T08:40:56Z" uid="179968" user="Ich_hasse_doitsche_OSM-Korinthenkacker" changeset="2720861">
    <nd ref="60629209"/>
    <nd ref="306834049"/>
    <nd ref="306834050"/>
    <nd ref="306834046"/>
    <nd ref="306834048"/>
    <nd ref="306834042"/>
    <nd ref="306834044"/>
    <nd ref="306834038"/>
    <nd ref="60629126"/>
    <nd ref="306834045"/>
    <nd ref="306834047"/>
    <nd ref="306834041"/>
    <nd ref="306834043"/>
    <nd ref="306834037"/>
    <nd ref="306834039"/>
    <nd ref="60629179"/>
    <tag k="highway" v="unclassified"/>
  </way>
  <way id="27945942" version="1" timestamp="2008-10-24T05:41:29Z" uid="36809" user="pfoten_weg_!_" changeset="545688">
    <nd ref="60629195"/>
    <nd ref="60629228"/>
    <nd ref="306834058"/>
    <nd ref="306834054"/>
    <nd ref="306834057"/>
    <nd ref="306834056"/>
    <nd ref="306834055"/>
    <nd ref="306834052"/>
    <nd ref="306834051"/>
    <nd ref="306834053"/>
    <tag k="created_by" v="RambaZamba"/>
    <tag k="highway" v="unclassified"/>
    <tag k="layer" v="0"/>
    <tag k="source" v="Kreis Nordvorpommern"/>
  </way>
  <way id="27945942" version="6" timestamp="2009-08-26T18:13:38Z" uid="36809" user="pfoten_weg_!_" changeset="2270114">
    <nd ref="60629248"/>
    <nd ref="271952241"/>
    <nd ref="350544217"/>
    <nd ref="350544224"/>
    <nd ref="350544232"/>
    <nd ref="350544240"/>
    <nd ref="306834052"/>
    <nd ref="350544267"/>
    <nd ref="350544273"/>
    <nd ref="306834055"/>
    <nd ref="350544278"/>
    <nd ref="306834056"/>
    <nd ref="350544283"/>
    <nd ref="306834057"/>
    <nd ref="350544287"/>
    <nd ref="306834054"/>
    <tag k="alley" v="left"/>
    <tag k="highway" v="unclassified"/>
    <tag k="maxspeed" v="default"/>
    <tag k="ncn_ref" v="D2"/>
    <tag k="source" v="Kreis Nordvorpommern"/>
    <tag k="surface" v="paved"/>
    <tag k="width" v="5"/>
  </way>
  <way id="27945942" version="8" timestamp="2009-10-03T08:40:57Z" uid="179968" user="Ich_hasse_doitsche_OSM-Korinthenkacker" changeset="2720861">
    <nd ref="60629248"/>
    <nd ref="271952241"/>
    <nd ref="350544217"/>
    <nd ref="350544224"/>
    <nd ref="350544232"/>
    <nd ref="350544240"/>
    <nd ref="306834052"/>
    <nd ref="350544267"/>
    <nd ref="350544273"/>
    <nd ref="306834055"/>
    <nd ref="350544278"/>
    <nd ref="306834056"/>
    <nd ref="350544283"/>
    <nd ref="306834057"/>
    <nd ref="350544287"/>
    <nd ref="306834054"/>
    <tag k="alley" v="left"/>
    <tag k="highway" v="unclassified"/>
    <tag k="maxspeed" v="default"/>
    <tag k="surface" v="paved"/>
    <tag k="width" v="5"/>
  </way>
  <way id="27945943" version="1" timestamp="2008-10-24T05:41:30Z" uid="36809" user="pfoten_weg_!_" changeset="545688">
    <nd ref="60629228"/>
    <nd ref="289690472"/>
    <tag k="created_by" v="RambaZamba"/>
    <tag k="highway" v="unclassified"/>
    <tag k="layer" v="0"/>
  </way>
  <way id="27945943" version="3" timestamp="2009-08-26T18:13:41Z" uid="36809" user="pfoten_weg_!_" changeset="2270114">
    <nd ref="306834054"/>
    <nd ref="350544291"/>
    <nd ref="306834058"/>
    <nd ref="350544343"/>
    <nd ref="60629228"/>
    <nd ref="350544347"/>
    <nd ref="289690472"/>
    <tag k="highway" v="unclassified"/>
    <tag k="maxspeed" v="city_limits"/>
    <tag k="ncn_ref" v="D2"/>
    <tag k="source" v="Kreis Nordvorpommern"/>
    <tag k="surface" v="paved"/>
  </way>
  <way id="27945943" version="5" timestamp="2009-10-03T08:40:57Z" uid="179968" user="Ich_hasse_doitsche_OSM-Korinthenkacker" changeset="2720861">
    <nd ref="306834054"/>
    <nd ref="350544291"/>
    <nd ref="306834058"/>
    <nd ref="350544343"/>
    <nd ref="60629228"/>
    <nd ref="350544347"/>
    <nd ref="289690472"/>
    <tag k="highway" v="unclassified"/>
    <tag k="maxspeed" v="city_limits"/>
    <tag k="surface" v="paved"/>
  </way>
  <way id="27945944" version="1" timestamp="2008-10-24T05:41:30Z" uid="36809" user="pfoten_weg_!_" changeset="545688">
    <nd ref="60629179"/>
    <nd ref="306834059"/>
    <nd ref="306834061"/>
    <nd ref="306834060"/>
    <nd ref="60629195"/>
    <tag k="created_by" v="RambaZamba"/>
    <tag k="highway" v="unclassified"/>
    <tag k="layer" v="0"/>
    <tag k="source" v="Kreis Nordvorpommern"/>
  </way>
  <way id="27945944" version="6" timestamp="2009-08-26T18:14:04Z" uid="36809" user="pfoten_weg_!_" changeset="2270114">
    <nd ref="60629179"/>
    <nd ref="350544338"/>
    <nd ref="306834059"/>
    <nd ref="350544333"/>
    <nd ref="306834061"/>
    <nd ref="350544328"/>
    <nd ref="306834060"/>
    <nd ref="60629195"/>
    <tag k="bus" v="no"/>
    <tag k="highway" v="residential"/>
    <tag k="maxspeed" v="city_limits"/>
    <tag k="ncn_ref" v="D2"/>
    <tag k="surface" v="paved"/>
  </way>
  <way id="27945945" version="1" timestamp="2008-10-24T05:41:30Z" uid="36809" user="pfoten_weg_!_" changeset="545688">
    <nd ref="306834069"/>
    <nd ref="306834063"/>
    <nd ref="306834070"/>
    <nd ref="306834067"/>
    <nd ref="306834065"/>
    <nd ref="60629074"/>
    <nd ref="306834071"/>
    <nd ref="306834072"/>
    <nd ref="306834066"/>
    <nd ref="306834068"/>
    <nd ref="306834062"/>
    <nd ref="306834064"/>
    <nd ref="306834074"/>
    <nd ref="306834073"/>
    <nd ref="60629113"/>
    <tag k="created_by" v="RambaZamba"/>
    <tag k="highway" v="unclassified"/>
    <tag k="layer" v="0"/>
    <tag k="source" v="Kreis Nordvorpommern"/>
  </way>
  <way id="27945945" version="3" timestamp="2009-08-26T18:13:24Z" uid="36809" user="pfoten_weg_!_" changeset="2270114">
    <nd ref="60629084"/>
    <nd ref="306834069"/>
    <nd ref="306834063"/>
    <tag k="alley" v="both"/>
    <tag k="bus" v="no"/>
    <tag k="highway" v="residential"/>
    <tag k="lit" v="yes"/>
    <tag k="maxspeed" v="city_limits"/>
    <tag k="name" v="Langendorfer Weg"/>
    <tag k="surface" v="paved"/>
  </way>
  <way id="27945946" version="1" timestamp="2008-10-24T05:41:30Z" uid="36809" user="pfoten_weg_!_" changeset="545688">
    <nd ref="306834075"/>
    <nd ref="306834077"/>
    <nd ref="306834076"/>
    <tag k="created_by" v="RambaZamba"/>
    <tag k="highway" v="service"/>
    <tag k="source" v="knowledge"/>
  </way>
  <way id="27945946" version="3" timestamp="2009-09-25T15:13:42Z" uid="36809" user="pfoten_weg_!_" changeset="2621317">
    <nd ref="306834075"/>
    <nd ref="306834077"/>
    <nd ref="306834076"/>
    <tag k="highway" v="service"/>
    <tag k="source" v="knowledge"/>
  </way>
  <way id="27945946" version="4" timestamp="2009-10-03T08:40:56Z" uid="179968" user="Ich_hasse_doitsche_OSM-Korinthenkacker" changeset="2720861">
    <nd ref="306834075"/>
    <nd ref="306834077"/>
    <nd ref="306834076"/>
    <tag k="highway" v="service"/>
  </way>
  <way id="27945947" version="1" timestamp="2008-10-24T05:41:30Z" uid="36809" user="pfoten_weg_!_" changeset="545688">
    <nd ref="306834076"/>
    <nd ref="271952256"/>
    <nd ref="271952257"/>
    <tag k="highway" v="service"/>
  </way>
  <way id="27945948" version="1" timestamp="2008-10-24T05:41:31Z" uid="36809" user="pfoten_weg_!_" changeset="545688">
    <nd ref="271952255"/>
    <nd ref="271952260"/>
    <nd ref="271952259"/>
    <nd ref="271952258"/>
    <nd ref="306834078"/>
    <nd ref="271952255"/>
    <tag k="amenity" v="parking"/>
    <tag k="created_by" v="RambaZamba"/>
    <tag k="source" v="knowledge"/>
  </way>
  <way id="27945948" version="3" timestamp="2009-09-25T15:13:43Z" uid="36809" user="pfoten_weg_!_" changeset="2621317">
    <nd ref="271952255"/>
    <nd ref="271952260"/>
    <nd ref="271952259"/>
    <nd ref="271952258"/>
    <nd ref="306834078"/>
    <nd ref="271952255"/>
    <tag k="amenity" v="parking"/>
    <tag k="source" v="knowledge"/>
  </way>
  <way id="27945948" version="4" timestamp="2009-10-03T08:40:56Z" uid="179968" user="Ich_hasse_doitsche_OSM-Korinthenkacker" changeset="2720861">
    <nd ref="271952255"/>
    <nd ref="271952260"/>
    <nd ref="271952259"/>
    <nd ref="271952258"/>
    <nd ref="306834078"/>
    <nd ref="271952255"/>
    <tag k="amenity" v="parking"/>
  </way>
  <way id="27945949" version="1" timestamp="2008-10-24T05:41:31Z" uid="36809" user="pfoten_weg_!_" changeset="545688">
    <nd ref="306834077"/>
    <nd ref="306834078"/>
    <tag k="created_by" v="RambaZamba"/>
    <tag k="highway" v="service"/>
    <tag k="source" v="knowledge"/>
  </way>
  <way id="27945949" version="3" timestamp="2009-09-25T15:13:43Z" uid="36809" user="pfoten_weg_!_" changeset="2621317">
    <nd ref="306834077"/>
    <nd ref="306834078"/>
    <tag k="highway" v="service"/>
    <tag k="source" v="knowledge"/>
  </way>
  <way id="27945949" version="4" timestamp="2009-10-03T08:40:56Z" uid="179968" user="Ich_hasse_doitsche_OSM-Korinthenkacker" changeset="2720861">
    <nd ref="306834077"/>
    <nd ref="306834078"/>
    <tag k="highway" v="service"/>
  </way>
  <way id="27945989" version="16" timestamp="2010-05-25T08:22:33Z" uid="115477" user="wowik" changeset="4801316">
    <nd ref="306834179"/>
    <nd ref="434429928"/>
    <nd ref="306834180"/>
    <nd ref="306834181"/>
    <nd ref="306834221"/>
    <nd ref="306834182"/>
    <nd ref="306834222"/>
    <nd ref="306834183"/>
    <nd ref="306834184"/>
    <nd ref="306834223"/>
    <nd ref="306834185"/>
    <nd ref="306834226"/>
    <nd ref="306834224"/>
    <nd ref="306834186"/>
    <nd ref="306834230"/>
    <nd ref="306834225"/>
    <nd ref="306834229"/>
    <nd ref="306834238"/>
    <nd ref="434429906"/>
    <nd ref="306834231"/>
    <nd ref="306834237"/>
    <nd ref="306834187"/>
    <nd ref="434429908"/>
    <nd ref="306834232"/>
    <nd ref="306834234"/>
    <nd ref="747705103"/>
    <nd ref="747705104"/>
    <nd ref="306834197"/>
    <nd ref="306834198"/>
    <nd ref="306834199"/>
    <nd ref="434429950"/>
    <nd ref="306834200"/>
    <nd ref="306834202"/>
    <nd ref="306834255"/>
    <nd ref="306834254"/>
    <nd ref="306834253"/>
    <nd ref="306834252"/>
    <nd ref="306834203"/>
    <nd ref="306834251"/>
    <nd ref="322026117"/>
    <nd ref="434666931"/>
    <nd ref="306834205"/>
    <nd ref="434666938"/>
    <nd ref="434666940"/>
    <nd ref="434666935"/>
    <nd ref="434666942"/>
    <nd ref="434666946"/>
    <nd ref="434666949"/>
    <nd ref="690549739"/>
    <nd ref="434666952"/>
    <nd ref="690549735"/>
    <nd ref="306834548"/>
    <nd ref="306834214"/>
    <nd ref="306834215"/>
    <nd ref="306834216"/>
    <nd ref="306834217"/>
    <nd ref="434388132"/>
    <nd ref="434401100"/>
    <nd ref="306834218"/>
    <nd ref="306834219"/>
    <nd ref="306834220"/>
    <nd ref="306834179"/>
    <tag k="leisure" v="park"/>
    <tag k="name" v="-"/>
  </way>
  <way id="27945989" version="17" timestamp="2010-06-02T09:09:22Z" uid="115477" user="wowik" changeset="4882128">
    <nd ref="306834179"/>
    <nd ref="434429928"/>
    <nd ref="306834180"/>
    <nd ref="306834181"/>
    <nd ref="306834221"/>
    <nd ref="306834182"/>
    <nd ref="306834222"/>
    <nd ref="306834183"/>
    <nd ref="306834184"/>
    <nd ref="306834223"/>
    <nd ref="306834185"/>
    <nd ref="306834226"/>
    <nd ref="306834224"/>
    <nd ref="306834186"/>
    <nd ref="306834230"/>
    <nd ref="306834225"/>
    <nd ref="306834229"/>
    <nd ref="306834238"/>
    <nd ref="434429906"/>
    <nd ref="306834231"/>
    <nd ref="306834237"/>
    <nd ref="306834187"/>
    <nd ref="434429908"/>
    <nd ref="306834232"/>
    <nd ref="306834234"/>
    <nd ref="747705103"/>
    <nd ref="747705104"/>
    <nd ref="762018855"/>
    <nd ref="762018856"/>
    <nd ref="762018857"/>
    <nd ref="762018858"/>
    <nd ref="762018859"/>
    <nd ref="762018860"/>
    <nd ref="762018861"/>
    <nd ref="762018862"/>
    <nd ref="762018863"/>
    <nd ref="762018864"/>
    <nd ref="762018865"/>
    <nd ref="306834197"/>
    <nd ref="306834198"/>
    <nd ref="306834199"/>
    <nd ref="434429950"/>
    <nd ref="762018866"/>
    <nd ref="306834200"/>
    <nd ref="762018867"/>
    <nd ref="762018868"/>
    <nd ref="762018869"/>
    <nd ref="762018870"/>
    <nd ref="762018871"/>
    <nd ref="762018872"/>
    <nd ref="762018873"/>
    <nd ref="762018874"/>
    <nd ref="762018875"/>
    <nd ref="306834202"/>
    <nd ref="306834255"/>
    <nd ref="306834254"/>
    <nd ref="306834253"/>
    <nd ref="306834252"/>
    <nd ref="306834203"/>
    <nd ref="306834251"/>
    <nd ref="322026117"/>
    <nd ref="434666931"/>
    <nd ref="306834205"/>
    <nd ref="434666938"/>
    <nd ref="434666940"/>
    <nd ref="434666935"/>
    <nd ref="434666942"/>
    <nd ref="434666946"/>
    <nd ref="434666949"/>
    <nd ref="690549739"/>
    <nd ref="434666952"/>
    <nd ref="690549735"/>
    <nd ref="306834548"/>
    <nd ref="306834214"/>
    <nd ref="306834215"/>
    <nd ref="306834216"/>
    <nd ref="306834217"/>
    <nd ref="434388132"/>
    <nd ref="434401100"/>
    <nd ref="306834218"/>
    <nd ref="306834219"/>
    <nd ref="306834220"/>
    <nd ref="306834179"/>
    <tag k="leisure" v="park"/>
    <tag k="name" v="-"/>
  </way>
  <way id="27945989" version="18" timestamp="2010-06-02T09:09:54Z" uid="115477" user="wowik" changeset="4882128">
    <nd ref="306834179"/>
    <nd ref="434429928"/>
    <nd ref="306834180"/>
    <nd ref="306834181"/>
    <nd ref="306834221"/>
    <nd ref="306834182"/>
    <nd ref="306834222"/>
    <nd ref="306834183"/>
    <nd ref="306834184"/>
    <nd ref="306834223"/>
    <nd ref="306834185"/>
    <nd ref="306834226"/>
    <nd ref="306834224"/>
    <nd ref="306834186"/>
    <nd ref="306834230"/>
    <nd ref="306834225"/>
    <nd ref="306834229"/>
    <nd ref="306834238"/>
    <nd ref="434429906"/>
    <nd ref="306834231"/>
    <nd ref="306834237"/>
    <nd ref="306834187"/>
    <nd ref="434429908"/>
    <nd ref="306834232"/>
    <nd ref="306834234"/>
    <nd ref="747705103"/>
    <nd ref="747705104"/>
    <nd ref="762018855"/>
    <nd ref="762018856"/>
    <nd ref="762018857"/>
    <nd ref="762018858"/>
    <nd ref="762018859"/>
    <nd ref="762018860"/>
    <nd ref="762018861"/>
    <nd ref="762018919"/>
    <nd ref="762018862"/>
    <nd ref="762018863"/>
    <nd ref="762018864"/>
    <nd ref="762018865"/>
    <nd ref="306834197"/>
    <nd ref="306834198"/>
    <nd ref="306834199"/>
    <nd ref="434429950"/>
    <nd ref="762018866"/>
    <nd ref="306834200"/>
    <nd ref="762018867"/>
    <nd ref="762018868"/>
    <nd ref="762018869"/>
    <nd ref="762018870"/>
    <nd ref="762018871"/>
    <nd ref="762018872"/>
    <nd ref="762018873"/>
    <nd ref="762018874"/>
    <nd ref="762018875"/>
    <nd ref="306834202"/>
    <nd ref="306834255"/>
    <nd ref="306834254"/>
    <nd ref="306834253"/>
    <nd ref="306834252"/>
    <nd ref="306834203"/>
    <nd ref="306834251"/>
    <nd ref="322026117"/>
    <nd ref="434666931"/>
    <nd ref="306834205"/>
    <nd ref="434666938"/>
    <nd ref="434666940"/>
    <nd ref="434666935"/>
    <nd ref="434666942"/>
    <nd ref="434666946"/>
    <nd ref="434666949"/>
    <nd ref="690549739"/>
    <nd ref="434666952"/>
    <nd ref="690549735"/>
    <nd ref="306834548"/>
    <nd ref="306834214"/>
    <nd ref="306834215"/>
    <nd ref="306834216"/>
    <nd ref="306834217"/>
    <nd ref="434388132"/>
    <nd ref="434401100"/>
    <nd ref="306834218"/>
    <nd ref="306834219"/>
    <nd ref="306834220"/>
    <nd ref="306834179"/>
    <tag k="leisure" v="park"/>
    <tag k="name" v="-"/>
  </way>
</osm>
