<?xml version='1.0' encoding='UTF-8'?>
<osm version="0.6" generator="libosmium/2.20.0">
  <way id="28131234" version="2" timestamp="2008-11-26T18:22:53Z" uid="6975" user="ulfl" changeset="797054">
    <nd ref="308973185"/>
    <nd ref="308973184"/>
    <tag k="foot" v="yes"/>
    <tag k="highway" v="footway"/>
    <tag k="tracktype" v="grade1"/>
  </way>
  <way id="28131248" version="2" timestamp="2008-11-26T18:23:22Z" uid="6975" user="ulfl" changeset="797054">
    <nd ref="24464208"/>
    <nd ref="308973149"/>
    <nd ref="308973148"/>
    <nd ref="308973146"/>
    <nd ref="308973144"/>
    <nd ref="308973143"/>
    <tag k="foot" v="yes"/>
    <tag k="highway" v="footway"/>
    <tag k="tracktype" v="grade2"/>
  </way>
  <way id="28131271" version="2" timestamp="2008-12-04T20:40:12Z" uid="6975" user="ulfl" changeset="107048">
    <nd ref="308973029"/>
    <nd ref="308973027"/>
    <nd ref="308973026"/>
    <nd ref="308973024"/>
    <tag k="access" v="permissive"/>
    <tag k="highway" v="track"/>
    <tag k="motorcar" v="permissive"/>
    <tag k="motorcycle" v="permissive"/>
    <tag k="tracktype" v="grade3"/>
  </way>
  <way id="28131339" version="1" timestamp="2008-10-31T19:27:47Z" uid="20587" user="balrog-kun" changeset="641927">
    <nd ref="308973977"/>
    <nd ref="308973981"/>
    <nd ref="308973983"/>
    <nd ref="308973979"/>
    <nd ref="308973977"/>
    <tag k="addr:housenumber" v="177"/>
    <tag k="addr:street" v="Aleja Niepodległości"/>
    <tag k="building" v="yes"/>
  </way>
  <way id="28131340" version="1" timestamp="2008-10-31T19:27:47Z" uid="20587" user="balrog-kun" changeset="641927">
    <nd ref="308973985"/>
    <nd ref="308973988"/>
    <nd ref="308973990"/>
    <nd ref="308973987"/>
    <nd ref="308973985"/>
    <tag k="addr:housenumber" v="82"/>
    <tag k="addr:street" v="Marszałkowska"/>
    <tag k="building" v="yes"/>
    <tag k="note" v="TODO: to jest jakis urząd państwowy.."/>
  </way>
  <way id="28131340" version="2" timestamp="2008-11-14T20:56:49Z" uid="20587" user="balrog-kun" changeset="747594">
    <nd ref="308973985"/>
    <nd ref="308973988"/>
    <nd ref="308973990"/>
    <nd ref="308973987"/>
    <nd ref="308973985"/>
    <tag k="addr:housenumber" v="82"/>
    <tag k="addr:postcode" v="00-517"/>
    <tag k="addr:street" v="Marszałkowska"/>
    <tag k="building" v="yes"/>
    <tag k="name" v="Sąd Rejonowy"/>
  </way>
  <way id="28131340" version="3" timestamp="2009-01-18T17:35:11Z" uid="20587" user="balrog-kun" changeset="805695"/>
  <way id="28131341" version="1" timestamp="2008-10-31T19:27:48Z" uid="20587" user="balrog-kun" changeset="641927">
    <nd ref="308973996"/>
    <nd ref="308973992"/>
    <nd ref="308973997"/>
    <nd ref="308973994"/>
    <nd ref="308973996"/>
    <tag k="addr:housenumber" v="92"/>
    <tag k="addr:street" v="Marszałkowska"/>
    <tag k="building" v="yes"/>
  </way>
  <way id="28131341" version="2" timestamp="2008-11-14T20:56:46Z" uid="20587" user="balrog-kun" changeset="747594">
    <nd ref="308973996"/>
    <nd ref="308973992"/>
    <nd ref="308973997"/>
    <nd ref="308973994"/>
    <nd ref="308973996"/>
    <tag k="addr:housenumber" v="92"/>
    <tag k="addr:postcode" v="00-517"/>
    <tag k="addr:street" v="Marszałkowska"/>
    <tag k="building" v="yes"/>
  </way>
  <way id="28131341" version="3" timestamp="2009-01-19T01:29:51Z" uid="20587" user="balrog-kun" changeset="810103">
    <nd ref="333427696"/>
    <nd ref="333138388"/>
    <nd ref="333138387"/>
    <nd ref="333427705"/>
    <nd ref="308973996"/>
    <nd ref="308973992"/>
    <nd ref="333427696"/>
    <tag k="addr:housenumber" v="84/92"/>
    <tag k="addr:postcode" v="00-517"/>
    <tag k="addr:street" v="Marszałkowska"/>
    <tag k="building" v="yes"/>
  </way>
  <way id="28131341" version="4" timestamp="2011-05-15T04:16:22Z" uid="20587" user="balrog-kun" changeset="8147591">
    <nd ref="333427696"/>
    <nd ref="333138388"/>
    <nd ref="333138387"/>
    <nd ref="333427705"/>
    <nd ref="308973996"/>
    <nd ref="308973992"/>
    <nd ref="333427696"/>
    <tag k="addr:housenumber" v="84/92"/>
    <tag k="addr:postcode" v="00-517"/>
    <tag k="addr:street" v="Marszałkowska"/>
    <tag k="building" v="office"/>
  </way>
  <way id="28131342" version="1" timestamp="2008-10-31T19:27:48Z" uid="20587" user="balrog-kun" changeset="641927">
    <nd ref="308974003"/>
    <nd ref="308974001"/>
    <nd ref="308974002"/>
    <nd ref="308973999"/>
    <nd ref="308974003"/>
    <tag k="addr:housenumber" v="11/19"/>
    <tag k="addr:street" v="Aleje Jerozolimskie"/>
    <tag k="building" v="yes"/>
    <tag k="name" v="Bank Gospodarstwa Krajowego"/>
  </way>
  <way id="28131342" version="2" timestamp="2008-11-29T01:11:38Z" uid="20587" user="balrog-kun" changeset="809609">
    <nd ref="315403609"/>
    <nd ref="315403608"/>
    <nd ref="308973999"/>
    <nd ref="308974003"/>
    <nd ref="315403609"/>
    <tag k="addr:housenumber" v="11/19"/>
    <tag k="addr:street" v="Aleje Jerozolimskie"/>
    <tag k="building" v="yes"/>
    <tag k="name" v="Bank Gospodarstwa Krajowego"/>
  </way>
  <way id="28131342" version="3" timestamp="2008-12-02T11:16:40Z" uid="20587" user="balrog-kun" changeset="35167"/>
  <way id="28131343" version="1" timestamp="2008-10-31T19:27:48Z" uid="20587" user="balrog-kun" changeset="641927">
    <nd ref="308974015"/>
    <nd ref="308974017"/>
    <nd ref="308974019"/>
    <nd ref="308974021"/>
    <nd ref="308974020"/>
    <nd ref="308974018"/>
    <nd ref="308974016"/>
    <nd ref="308974015"/>
    <tag k="addr:housenumber" v="10"/>
    <tag k="addr:street" v="Jakubowska"/>
    <tag k="building" v="yes"/>
  </way>
  <way id="28131343" version="2" timestamp="2009-01-13T10:19:58Z" uid="20587" user="balrog-kun" changeset="781705">
    <nd ref="308974015"/>
    <nd ref="308974017"/>
    <nd ref="308974019"/>
    <nd ref="308974021"/>
    <nd ref="308974020"/>
    <nd ref="308974018"/>
    <nd ref="308974016"/>
    <nd ref="308974015"/>
    <tag k="addr:housenumber" v="10"/>
    <tag k="addr:street" v="Jakubowska"/>
    <tag k="building" v="yes"/>
    <tag k="building:levels" v="2"/>
  </way>
  <way id="28131344" version="1" timestamp="2008-10-31T19:27:49Z" uid="20587" user="balrog-kun" changeset="641927">
    <nd ref="308974023"/>
    <nd ref="308974024"/>
    <nd ref="308974025"/>
    <nd ref="308974022"/>
    <nd ref="308974023"/>
    <tag k="addr:housenumber" v="12"/>
    <tag k="addr:street" v="Jakubowska"/>
    <tag k="building" v="yes"/>
  </way>
  <way id="28131344" version="2" timestamp="2009-01-13T10:19:58Z" uid="20587" user="balrog-kun" changeset="781705">
    <nd ref="308974023"/>
    <nd ref="308974024"/>
    <nd ref="308974025"/>
    <nd ref="308974022"/>
    <nd ref="308974023"/>
    <tag k="addr:housenumber" v="12"/>
    <tag k="addr:street" v="Jakubowska"/>
    <tag k="building" v="yes"/>
    <tag k="building:levels" v="2"/>
  </way>
  <way id="28131345" version="1" timestamp="2008-10-31T19:27:49Z" uid="20587" user="balrog-kun" changeset="641927">
    <nd ref="308974026"/>
    <nd ref="308974028"/>
    <nd ref="308974029"/>
    <nd ref="308974027"/>
    <nd ref="308974026"/>
    <tag k="addr:housenumber" v="14"/>
    <tag k="addr:street" v="Jakubowska"/>
    <tag k="building" v="yes"/>
  </way>
  <way id="28131345" version="2" timestamp="2009-01-13T10:19:58Z" uid="20587" user="balrog-kun" changeset="781705">
    <nd ref="308974026"/>
    <nd ref="308974028"/>
    <nd ref="308974029"/>
    <nd ref="308974027"/>
    <nd ref="308974026"/>
    <tag k="addr:housenumber" v="14"/>
    <tag k="addr:street" v="Jakubowska"/>
    <tag k="building" v="yes"/>
    <tag k="building:levels" v="2"/>
  </way>
  <way id="28131345" version="3" timestamp="2009-05-24T19:05:31Z" uid="20587" user="balrog-kun" changeset="1310017">
    <nd ref="410706925"/>
    <nd ref="410706920"/>
    <nd ref="308974026"/>
    <nd ref="308974027"/>
    <nd ref="410706925"/>
    <tag k="addr:housenumber" v="14"/>
    <tag k="addr:street" v="Jakubowska"/>
    <tag k="building" v="yes"/>
    <tag k="building:levels" v="2"/>
  </way>
  <way id="28131346" version="1" timestamp="2008-10-31T19:27:50Z" uid="20587" user="balrog-kun" changeset="641927">
    <nd ref="308974030"/>
    <nd ref="308974032"/>
    <nd ref="308974033"/>
    <nd ref="308974031"/>
    <nd ref="308974030"/>
    <tag k="addr:housenumber" v="26"/>
    <tag k="addr:street" v="Jakubowska"/>
    <tag k="building" v="yes"/>
  </way>
  <way id="28131346" version="2" timestamp="2009-01-13T10:19:57Z" uid="20587" user="balrog-kun" changeset="781705">
    <nd ref="308974030"/>
    <nd ref="308974032"/>
    <nd ref="308974033"/>
    <nd ref="308974031"/>
    <nd ref="308974030"/>
    <tag k="addr:housenumber" v="26"/>
    <tag k="addr:street" v="Jakubowska"/>
    <tag k="building" v="yes"/>
    <tag k="building:levels" v="2"/>
  </way>
  <way id="28131346" version="3" timestamp="2009-02-08T23:16:37Z" uid="20587" user="balrog-kun" changeset="288825">
    <nd ref="308974030"/>
    <nd ref="308974032"/>
    <nd ref="308974033"/>
    <nd ref="308974031"/>
    <nd ref="308974030"/>
    <tag k="addr:housenumber" v="26"/>
    <tag k="addr:street" v="Jakubowska"/>
    <tag k="building" v="yes"/>
    <tag k="building:levels" v="3"/>
  </way>
  <way id="28131346" version="4" timestamp="2009-02-09T00:41:04Z" uid="20587" user="balrog-kun" changeset="288825">
    <nd ref="308974030"/>
    <nd ref="308974032"/>
    <nd ref="308974033"/>
    <nd ref="308974031"/>
    <nd ref="308974030"/>
    <tag k="addr:housenumber" v="26"/>
    <tag k="addr:street" v="Jakubowska"/>
    <tag k="building" v="yes"/>
    <tag k="building:levels" v="3"/>
  </way>
  <way id="28131346" version="5" timestamp="2009-02-11T21:39:27Z" uid="20587" user="balrog-kun" changeset="351230">
    <nd ref="308974030"/>
    <nd ref="308974032"/>
    <nd ref="308974033"/>
    <nd ref="308974031"/>
    <nd ref="308974030"/>
    <tag k="addr:housenumber" v="26"/>
    <tag k="addr:street" v="Jakubowska"/>
    <tag k="building" v="yes"/>
    <tag k="building:levels" v="3"/>
  </way>
  <way id="28131347" version="1" timestamp="2008-10-31T19:27:50Z" uid="20587" user="balrog-kun" changeset="641927">
    <nd ref="308974034"/>
    <nd ref="308974036"/>
    <nd ref="308974037"/>
    <nd ref="308974035"/>
    <nd ref="308974034"/>
    <tag k="addr:housenumber" v="24"/>
    <tag k="addr:street" v="Jakubowska"/>
    <tag k="building" v="yes"/>
  </way>
  <way id="28131347" version="2" timestamp="2009-01-13T10:19:58Z" uid="20587" user="balrog-kun" changeset="781705">
    <nd ref="308974034"/>
    <nd ref="308974036"/>
    <nd ref="308974037"/>
    <nd ref="308974035"/>
    <nd ref="308974034"/>
    <tag k="addr:housenumber" v="24"/>
    <tag k="addr:street" v="Jakubowska"/>
    <tag k="building" v="yes"/>
    <tag k="building:levels" v="2"/>
  </way>
  <way id="28131347" version="3" timestamp="2009-01-31T01:07:09Z" uid="20587" user="balrog-kun" changeset="857442">
    <nd ref="308974035"/>
    <nd ref="308974034"/>
    <nd ref="308974036"/>
    <nd ref="308974037"/>
    <nd ref="308974035"/>
    <tag k="addr:housenumber" v="24"/>
    <tag k="addr:street" v="Jakubowska"/>
    <tag k="building" v="yes"/>
    <tag k="building:levels" v="2"/>
  </way>
  <way id="28131347" version="4" timestamp="2009-02-08T23:16:38Z" uid="20587" user="balrog-kun" changeset="288825">
    <nd ref="308974035"/>
    <nd ref="308974034"/>
    <nd ref="308974036"/>
    <nd ref="308974037"/>
    <nd ref="308974035"/>
    <tag k="addr:housenumber" v="24"/>
    <tag k="addr:street" v="Jakubowska"/>
    <tag k="building" v="yes"/>
    <tag k="building:levels" v="3"/>
  </way>
  <way id="28131347" version="5" timestamp="2009-02-09T00:41:04Z" uid="20587" user="balrog-kun" changeset="288825">
    <nd ref="308974035"/>
    <nd ref="308974034"/>
    <nd ref="308974036"/>
    <nd ref="308974037"/>
    <nd ref="308974035"/>
    <tag k="addr:housenumber" v="24"/>
    <tag k="addr:street" v="Jakubowska"/>
    <tag k="building" v="yes"/>
    <tag k="building:levels" v="3"/>
  </way>
  <way id="28131347" version="6" timestamp="2009-02-11T21:39:27Z" uid="20587" user="balrog-kun" changeset="351230">
    <nd ref="308974035"/>
    <nd ref="308974034"/>
    <nd ref="308974036"/>
    <nd ref="308974037"/>
    <nd ref="308974035"/>
    <tag k="addr:housenumber" v="24"/>
    <tag k="addr:street" v="Jakubowska"/>
    <tag k="building" v="yes"/>
    <tag k="building:levels" v="3"/>
  </way>
  <way id="28131625" version="1" timestamp="2008-10-31T19:43:46Z" uid="20587" user="balrog-kun" changeset="641927">
    <nd ref="308976483"/>
    <nd ref="308976480"/>
    <nd ref="308976473"/>
    <nd ref="308976467"/>
    <nd ref="308976476"/>
    <nd ref="308976474"/>
    <nd ref="308976468"/>
    <nd ref="308976484"/>
    <nd ref="308976481"/>
    <nd ref="308976492"/>
    <nd ref="308976471"/>
    <nd ref="308976489"/>
    <nd ref="308976482"/>
    <nd ref="308976486"/>
    <nd ref="308976472"/>
    <nd ref="308976469"/>
    <nd ref="308976475"/>
    <nd ref="308976479"/>
    <nd ref="308976478"/>
    <nd ref="308976487"/>
    <nd ref="308976490"/>
    <nd ref="308976488"/>
    <nd ref="308976477"/>
    <nd ref="308976491"/>
    <nd ref="308976470"/>
    <nd ref="308976485"/>
    <nd ref="308976483"/>
    <tag k="addr:housenumber" v="49"/>
    <tag k="addr:street" v="Francuska"/>
    <tag k="building" v="yes"/>
  </way>
  <way id="28131625" version="2" timestamp="2009-01-07T12:29:32Z" uid="20587" user="balrog-kun" changeset="750476">
    <nd ref="308976483"/>
    <nd ref="308976480"/>
    <nd ref="308976473"/>
    <nd ref="308976467"/>
    <nd ref="308976476"/>
    <nd ref="308976474"/>
    <nd ref="308976468"/>
    <nd ref="308976484"/>
    <nd ref="308976481"/>
    <nd ref="308976492"/>
    <nd ref="308976471"/>
    <nd ref="308976489"/>
    <nd ref="308976482"/>
    <nd ref="308976486"/>
    <nd ref="308976472"/>
    <nd ref="308976469"/>
    <nd ref="308976475"/>
    <nd ref="308976479"/>
    <nd ref="308976478"/>
    <nd ref="308976487"/>
    <nd ref="308976490"/>
    <nd ref="308976488"/>
    <nd ref="308976477"/>
    <nd ref="308976491"/>
    <nd ref="308976470"/>
    <nd ref="308976485"/>
    <nd ref="308976483"/>
    <tag k="addr:housenumber" v="49"/>
    <tag k="addr:street" v="Francuska"/>
    <tag k="building" v="yes"/>
    <tag k="building:levels" v="3"/>
  </way>
  <way id="28131625" version="3" timestamp="2009-01-31T01:07:09Z" uid="20587" user="balrog-kun" changeset="857442">
    <nd ref="308976483"/>
    <nd ref="339262973"/>
    <nd ref="308976480"/>
    <nd ref="308976473"/>
    <nd ref="308976467"/>
    <nd ref="308976476"/>
    <nd ref="308976474"/>
    <nd ref="308976468"/>
    <nd ref="308976484"/>
    <nd ref="308976481"/>
    <nd ref="308976492"/>
    <nd ref="308976471"/>
    <nd ref="308976489"/>
    <nd ref="308976482"/>
    <nd ref="308976486"/>
    <nd ref="308976472"/>
    <nd ref="308976469"/>
    <nd ref="308976475"/>
    <nd ref="308976479"/>
    <nd ref="308976478"/>
    <nd ref="308976487"/>
    <nd ref="308976490"/>
    <nd ref="308976488"/>
    <nd ref="308976477"/>
    <nd ref="308976491"/>
    <nd ref="308976470"/>
    <nd ref="339262972"/>
    <nd ref="308976485"/>
    <nd ref="308976483"/>
    <tag k="addr:housenumber" v="49"/>
    <tag k="addr:street" v="Francuska"/>
    <tag k="building" v="yes"/>
    <tag k="building:levels" v="3"/>
  </way>
  <way id="28131626" version="1" timestamp="2008-10-31T19:43:46Z" uid="20587" user="balrog-kun" changeset="641927">
    <nd ref="308976494"/>
    <nd ref="302874407"/>
    <nd ref="302874418"/>
    <nd ref="308976493"/>
    <nd ref="308976494"/>
    <tag k="addr:housenumber" v="42"/>
    <tag k="addr:street" v="Jerzego Waszyngtona"/>
    <tag k="building" v="yes"/>
  </way>
  <way id="28131626" version="2" timestamp="2008-11-05T10:51:20Z" uid="20587" user="balrog-kun" changeset="684368">
    <nd ref="308976494"/>
    <nd ref="302874407"/>
    <nd ref="302874418"/>
    <nd ref="308976493"/>
    <nd ref="308976494"/>
    <tag k="addr:housenumber" v="42"/>
    <tag k="addr:street" v="Aleja Jerzego Waszyngtona"/>
    <tag k="building" v="yes"/>
  </way>
  <way id="28131626" version="3" timestamp="2009-01-08T14:17:52Z" uid="20587" user="balrog-kun" changeset="756602">
    <nd ref="308976494"/>
    <nd ref="302874407"/>
    <nd ref="302874418"/>
    <nd ref="308976493"/>
    <nd ref="308976494"/>
    <tag k="addr:housenumber" v="42"/>
    <tag k="addr:street" v="Aleja Jerzego Waszyngtona"/>
    <tag k="building" v="yes"/>
    <tag k="building:levels" v="4"/>
  </way>
  <way id="28131626" version="4" timestamp="2011-02-14T15:25:51Z" uid="20587" user="balrog-kun" changeset="7286624">
    <nd ref="308976494"/>
    <nd ref="302874407"/>
    <nd ref="302874418"/>
    <nd ref="308976493"/>
    <nd ref="308976494"/>
    <tag k="addr:housenumber" v="42"/>
    <tag k="addr:street" v="Aleja Jerzego Waszyngtona"/>
    <tag k="building" v="residential"/>
    <tag k="building:levels" v="4"/>
  </way>
  <way id="28131735" version="4" timestamp="2008-11-13T21:22:08Z" uid="67142" user="zottel" changeset="744661">
    <nd ref="308977732"/>
    <nd ref="299323968"/>
    <nd ref="308977714"/>
    <nd ref="308977716"/>
    <nd ref="308977719"/>
    <nd ref="308977721"/>
    <nd ref="311847186"/>
    <nd ref="308977724"/>
    <nd ref="311824642"/>
    <tag k="access" v="destination"/>
    <tag k="highway" v="residential"/>
    <tag k="maxspeed" v="30"/>
    <tag k="name" v="Riedstraße"/>
  </way>
  <way id="28131787" version="4" timestamp="2010-03-28T00:17:17Z" uid="20587" user="balrog-kun" changeset="4250871">
    <nd ref="255639801"/>
    <nd ref="53155314"/>
    <nd ref="53032774"/>
    <nd ref="53076136"/>
    <nd ref="53022813"/>
    <nd ref="53126804"/>
    <nd ref="53091975"/>
    <nd ref="53043278"/>
    <nd ref="53157355"/>
    <nd ref="53122861"/>
    <nd ref="53084276"/>
    <nd ref="53038428"/>
    <tag k="created_by" v="Potlatch 0.10f"/>
    <tag k="highway" v="secondary"/>
    <tag k="name" v="East 12th Street"/>
  </way>
  <way id="28131791" version="4" timestamp="2008-12-01T10:40:33Z" uid="9581" user="Lobelt" changeset="7902">
    <nd ref="311386077"/>
    <nd ref="33135857"/>
    <nd ref="33135858"/>
    <nd ref="33135859"/>
    <nd ref="33135860"/>
    <nd ref="310827311"/>
    <nd ref="33135861"/>
    <nd ref="33135862"/>
    <nd ref="33135863"/>
    <nd ref="33135864"/>
    <tag k="created_by" v="JOSM"/>
    <tag k="highway" v="unclassified"/>
  </way>
  <way id="28131821" version="7" timestamp="2010-03-28T00:17:20Z" uid="20587" user="balrog-kun" changeset="4250871">
    <nd ref="53091717"/>
    <nd ref="53087248"/>
    <nd ref="53045506"/>
    <nd ref="53113832"/>
    <nd ref="53078084"/>
    <nd ref="53143658"/>
    <nd ref="53118723"/>
    <nd ref="53027375"/>
    <nd ref="53077112"/>
    <tag k="created_by" v="Potlatch 0.10f"/>
    <tag k="highway" v="primary"/>
    <tag k="name" v="12th Street"/>
    <tag k="oneway" v="yes"/>
    <tag k="tiger:cfcc" v="A41"/>
    <tag k="tiger:county" v="Alameda, CA"/>
    <tag k="tiger:name_base" v="12th"/>
    <tag k="tiger:name_type" v="St"/>
    <tag k="tiger:separated" v="no"/>
    <tag k="tiger:source" v="tiger_import_dch_v0.6_20070809"/>
    <tag k="tiger:tlid" v="124996668:124996674:124996677:124996693:124996805:124996808:124996962:124996964:125065746:125065747:124996777:124996700:124996799:124996971:124996978:124997016:125054071:124996697:124997192:124997194:124997178:124997223:125000935:125000937:125000947:12500"/>
    <tag k="tiger:zip_left" v="94607"/>
    <tag k="tiger:zip_right" v="94607"/>
  </way>
  <way id="28131828" version="5" timestamp="2009-10-03T20:58:45Z" uid="179968" user="Ich_hasse_doitsche_OSM-Korinthenkacker" changeset="2729559">
    <nd ref="275493232"/>
    <nd ref="310141410"/>
    <nd ref="310141408"/>
    <nd ref="310141406"/>
    <nd ref="310141405"/>
    <nd ref="310141403"/>
    <nd ref="310141401"/>
    <nd ref="310141399"/>
    <nd ref="310141398"/>
    <nd ref="310141396"/>
    <nd ref="310141395"/>
    <nd ref="310141393"/>
    <nd ref="310141392"/>
    <nd ref="310141390"/>
    <nd ref="310141388"/>
    <nd ref="310141386"/>
    <nd ref="310141385"/>
    <nd ref="310141383"/>
    <nd ref="310141382"/>
    <nd ref="310141380"/>
    <nd ref="310141378"/>
    <nd ref="310141376"/>
    <nd ref="310141374"/>
    <nd ref="310141372"/>
    <nd ref="310141370"/>
    <nd ref="310141368"/>
    <nd ref="519402980"/>
    <nd ref="310141367"/>
    <nd ref="310141365"/>
    <nd ref="310141363"/>
    <nd ref="310141361"/>
    <nd ref="310141360"/>
    <nd ref="310141358"/>
    <nd ref="310141356"/>
    <nd ref="310141354"/>
    <nd ref="310141350"/>
    <nd ref="310141347"/>
    <nd ref="310141342"/>
    <nd ref="310141339"/>
    <nd ref="310141336"/>
    <nd ref="310141333"/>
    <nd ref="310141332"/>
    <nd ref="310141330"/>
    <nd ref="310141329"/>
    <nd ref="275470606"/>
    <nd ref="310141326"/>
    <nd ref="275490883"/>
    <nd ref="310141325"/>
    <nd ref="310141322"/>
    <nd ref="310141321"/>
    <nd ref="310141318"/>
    <nd ref="275464463"/>
    <nd ref="310141316"/>
    <nd ref="310141315"/>
    <nd ref="310141312"/>
    <nd ref="310141310"/>
    <nd ref="310141309"/>
    <nd ref="275485329"/>
    <nd ref="275509068"/>
    <nd ref="275462788"/>
    <nd ref="275503666"/>
    <nd ref="310141306"/>
    <nd ref="310141304"/>
    <nd ref="310141301"/>
    <nd ref="310141299"/>
    <nd ref="310141298"/>
    <nd ref="310141296"/>
    <nd ref="310141295"/>
    <nd ref="310141294"/>
    <nd ref="310141292"/>
    <nd ref="275473067"/>
    <nd ref="310141291"/>
    <nd ref="310141289"/>
    <nd ref="310141288"/>
    <nd ref="310141285"/>
    <nd ref="310141284"/>
    <nd ref="310141282"/>
    <nd ref="310141281"/>
    <nd ref="275485100"/>
    <nd ref="275463513"/>
    <nd ref="310141278"/>
    <nd ref="310141277"/>
    <nd ref="310141275"/>
    <nd ref="310141273"/>
    <nd ref="275471779"/>
    <nd ref="310141272"/>
    <nd ref="310141271"/>
    <nd ref="275499101"/>
    <nd ref="310141268"/>
    <nd ref="310141261"/>
    <nd ref="310141259"/>
    <nd ref="310141258"/>
    <nd ref="310141256"/>
    <nd ref="310141262"/>
    <nd ref="275469766"/>
    <nd ref="310141254"/>
    <nd ref="310141253"/>
    <nd ref="275484627"/>
    <nd ref="275480186"/>
    <nd ref="275496689"/>
    <nd ref="310141250"/>
    <nd ref="310141249"/>
    <nd ref="275477004"/>
    <nd ref="275485445"/>
    <nd ref="310141247"/>
    <nd ref="310141246"/>
    <nd ref="310141243"/>
    <nd ref="275477226"/>
    <nd ref="275494389"/>
    <nd ref="275473153"/>
    <nd ref="310141242"/>
    <nd ref="310141240"/>
    <nd ref="310141238"/>
    <nd ref="275484403"/>
    <nd ref="310141237"/>
    <nd ref="275498711"/>
    <nd ref="310141235"/>
    <nd ref="310141234"/>
    <nd ref="310141231"/>
    <nd ref="275498001"/>
    <nd ref="310141230"/>
    <nd ref="310141228"/>
    <nd ref="275489223"/>
    <nd ref="310141227"/>
    <nd ref="275471746"/>
    <nd ref="275468799"/>
    <nd ref="310141225"/>
    <nd ref="310141221"/>
    <nd ref="275505240"/>
    <nd ref="275476360"/>
    <nd ref="275465766"/>
    <nd ref="310141216"/>
    <nd ref="310141212"/>
    <nd ref="310141207"/>
    <nd ref="310141202"/>
    <nd ref="310141200"/>
    <nd ref="310141198"/>
    <nd ref="275485204"/>
    <nd ref="310141196"/>
    <nd ref="310141194"/>
    <nd ref="310141193"/>
    <nd ref="310141190"/>
    <nd ref="310141189"/>
    <nd ref="310141187"/>
    <nd ref="310141186"/>
    <nd ref="310141184"/>
    <nd ref="310141182"/>
    <nd ref="275500473"/>
    <nd ref="275502440"/>
    <nd ref="310141180"/>
    <nd ref="310141178"/>
    <nd ref="275467642"/>
    <nd ref="275481186"/>
    <nd ref="275467155"/>
    <nd ref="310141176"/>
    <nd ref="275493181"/>
    <nd ref="275495608"/>
    <nd ref="310141175"/>
    <nd ref="310141173"/>
    <nd ref="310141171"/>
    <nd ref="275480639"/>
    <nd ref="275489317"/>
    <nd ref="310141170"/>
    <nd ref="310141168"/>
    <nd ref="310141167"/>
    <nd ref="275502661"/>
    <nd ref="310141165"/>
    <nd ref="310141164"/>
    <nd ref="275490226"/>
    <nd ref="275476426"/>
    <nd ref="310141161"/>
    <nd ref="310141160"/>
    <nd ref="275495425"/>
    <nd ref="275465116"/>
    <nd ref="275508157"/>
    <nd ref="310141158"/>
    <nd ref="310141156"/>
    <nd ref="275476662"/>
    <nd ref="310141155"/>
    <nd ref="310141153"/>
    <nd ref="275481778"/>
    <nd ref="310141151"/>
    <nd ref="310141149"/>
    <nd ref="275477155"/>
    <nd ref="275465832"/>
    <nd ref="310141148"/>
    <nd ref="310141146"/>
    <nd ref="310141145"/>
    <nd ref="310141142"/>
    <nd ref="275479431"/>
    <nd ref="275478235"/>
    <nd ref="310141141"/>
    <nd ref="310141139"/>
    <nd ref="275494215"/>
    <nd ref="275464036"/>
    <nd ref="275505626"/>
    <nd ref="275483868"/>
    <nd ref="310141088"/>
    <nd ref="310141085"/>
    <nd ref="310141136"/>
    <nd ref="275481898"/>
    <nd ref="275475569"/>
    <nd ref="310141105"/>
    <nd ref="275484449"/>
    <nd ref="275491293"/>
    <nd ref="310141103"/>
    <nd ref="275495484"/>
    <nd ref="275503323"/>
    <nd ref="310141101"/>
    <nd ref="310141099"/>
    <nd ref="275498258"/>
    <nd ref="275507113"/>
    <nd ref="275470558"/>
    <nd ref="275478923"/>
    <nd ref="310141097"/>
    <nd ref="275508317"/>
    <nd ref="275467809"/>
    <nd ref="310141112"/>
    <nd ref="275481514"/>
    <nd ref="310141117"/>
    <nd ref="275497585"/>
    <nd ref="310141119"/>
    <nd ref="275504087"/>
    <nd ref="275495087"/>
    <nd ref="310141121"/>
    <nd ref="310141123"/>
    <nd ref="310141125"/>
    <nd ref="310141132"/>
    <nd ref="275506173"/>
    <nd ref="275495388"/>
    <nd ref="310141127"/>
    <nd ref="310141114"/>
    <nd ref="275488577"/>
    <nd ref="275464990"/>
    <nd ref="310141108"/>
    <nd ref="275487712"/>
    <nd ref="275506864"/>
    <nd ref="275488780"/>
    <nd ref="275508999"/>
    <nd ref="275469999"/>
    <nd ref="275505305"/>
    <nd ref="310141095"/>
    <nd ref="275474728"/>
    <nd ref="275464164"/>
    <nd ref="275479932"/>
    <nd ref="275490545"/>
    <nd ref="310141094"/>
    <nd ref="310141092"/>
    <nd ref="275472093"/>
    <nd ref="310141089"/>
    <nd ref="310141084"/>
    <nd ref="310141081"/>
    <nd ref="310141079"/>
    <nd ref="310141078"/>
    <nd ref="310141076"/>
    <nd ref="275509248"/>
    <nd ref="310141074"/>
    <nd ref="310141072"/>
    <nd ref="275466631"/>
    <nd ref="275501963"/>
    <nd ref="310141070"/>
    <nd ref="310141067"/>
    <nd ref="310141068"/>
    <nd ref="275495685"/>
    <nd ref="275476167"/>
    <nd ref="310141064"/>
    <nd ref="275473114"/>
    <nd ref="310141063"/>
    <nd ref="310141061"/>
    <nd ref="275464050"/>
    <nd ref="310141059"/>
    <nd ref="310141057"/>
    <nd ref="310141054"/>
    <nd ref="310141052"/>
    <nd ref="275473254"/>
    <nd ref="275490145"/>
    <nd ref="310141051"/>
    <nd ref="275493156"/>
    <nd ref="275479564"/>
    <nd ref="310141048"/>
    <nd ref="275473377"/>
    <nd ref="275502200"/>
    <nd ref="310141045"/>
    <nd ref="310141044"/>
    <nd ref="310141041"/>
    <nd ref="275468887"/>
    <nd ref="310141040"/>
    <nd ref="275509613"/>
    <nd ref="275487620"/>
    <nd ref="275498209"/>
    <nd ref="275484079"/>
    <nd ref="275494498"/>
    <nd ref="275470680"/>
    <nd ref="310141037"/>
    <nd ref="310141032"/>
    <nd ref="310141030"/>
    <nd ref="310141026"/>
    <nd ref="275496415"/>
    <nd ref="310141025"/>
    <nd ref="275492361"/>
    <nd ref="275509938"/>
    <nd ref="275504063"/>
    <nd ref="275500469"/>
    <nd ref="310141023"/>
    <nd ref="275488764"/>
    <nd ref="310141022"/>
    <nd ref="275509228"/>
    <nd ref="275475560"/>
    <nd ref="275473277"/>
    <nd ref="310141019"/>
    <nd ref="310141018"/>
    <nd ref="310141015"/>
    <nd ref="275496339"/>
    <nd ref="275471871"/>
    <nd ref="275510796"/>
    <nd ref="275465692"/>
    <nd ref="310141014"/>
    <nd ref="310141012"/>
    <nd ref="275471508"/>
    <nd ref="310141010"/>
    <nd ref="310141008"/>
    <nd ref="275492521"/>
    <nd ref="275471652"/>
    <nd ref="275473653"/>
    <nd ref="310141007"/>
    <nd ref="310141004"/>
    <nd ref="275502465"/>
    <nd ref="275466005"/>
    <nd ref="310141003"/>
    <nd ref="275472899"/>
    <nd ref="275464411"/>
    <nd ref="275498797"/>
    <nd ref="275475155"/>
    <nd ref="275464437"/>
    <nd ref="275488631"/>
    <nd ref="310141000"/>
    <nd ref="310140998"/>
    <nd ref="275476983"/>
    <nd ref="310140997"/>
    <nd ref="310140994"/>
    <nd ref="275482866"/>
    <nd ref="310140993"/>
    <nd ref="310140991"/>
    <nd ref="310140988"/>
    <nd ref="310140986"/>
    <nd ref="275490356"/>
    <nd ref="275507356"/>
    <nd ref="310140928"/>
    <nd ref="310140927"/>
    <nd ref="310140924"/>
    <nd ref="275507849"/>
    <nd ref="275500508"/>
    <nd ref="275477106"/>
    <nd ref="310140922"/>
    <nd ref="310140919"/>
    <nd ref="310140916"/>
    <nd ref="275497526"/>
    <nd ref="310140914"/>
    <nd ref="275491344"/>
    <nd ref="310140911"/>
    <nd ref="275462376"/>
    <nd ref="275470879"/>
    <nd ref="275480080"/>
    <nd ref="310140908"/>
    <nd ref="310140905"/>
    <nd ref="310140901"/>
    <nd ref="310140899"/>
    <nd ref="275468529"/>
    <nd ref="275481205"/>
    <nd ref="275470235"/>
    <nd ref="310140896"/>
    <nd ref="275469220"/>
    <nd ref="275495044"/>
    <nd ref="275502708"/>
    <nd ref="275478223"/>
    <nd ref="275462375"/>
    <nd ref="310140894"/>
    <nd ref="275463910"/>
    <nd ref="310140891"/>
    <nd ref="275484373"/>
    <nd ref="310140889"/>
    <nd ref="310140821"/>
    <nd ref="275491116"/>
    <nd ref="310140818"/>
    <nd ref="275491786"/>
    <nd ref="275465581"/>
    <nd ref="275495983"/>
    <nd ref="310140815"/>
    <nd ref="275498091"/>
    <nd ref="275505937"/>
    <nd ref="310140814"/>
    <nd ref="310140813"/>
    <nd ref="310140812"/>
    <nd ref="275503072"/>
    <nd ref="310140811"/>
    <nd ref="310140810"/>
    <nd ref="310140809"/>
    <nd ref="275504188"/>
    <nd ref="275469360"/>
    <nd ref="275465216"/>
    <nd ref="310140808"/>
    <nd ref="275484336"/>
    <nd ref="275463586"/>
    <nd ref="275500186"/>
    <nd ref="275509351"/>
    <nd ref="310140807"/>
    <nd ref="275500011"/>
    <nd ref="275510123"/>
    <nd ref="275496047"/>
    <nd ref="275507251"/>
    <nd ref="275497832"/>
    <nd ref="275487369"/>
    <nd ref="275497991"/>
    <nd ref="275476368"/>
    <nd ref="275483357"/>
    <nd ref="275478563"/>
    <nd ref="275493186"/>
    <nd ref="310140806"/>
    <nd ref="275481083"/>
    <nd ref="275473445"/>
    <nd ref="310140805"/>
    <nd ref="275467826"/>
    <nd ref="275484470"/>
    <nd ref="310140804"/>
    <nd ref="275470528"/>
    <nd ref="275490694"/>
    <nd ref="310140803"/>
    <nd ref="275484021"/>
    <nd ref="275485621"/>
    <nd ref="275482834"/>
    <nd ref="275473975"/>
    <nd ref="275506780"/>
    <nd ref="275468471"/>
    <nd ref="275478628"/>
    <nd ref="275497472"/>
    <nd ref="275478480"/>
    <nd ref="275477643"/>
    <nd ref="275498265"/>
    <nd ref="275510075"/>
    <nd ref="310140802"/>
    <nd ref="310140801"/>
    <nd ref="310140800"/>
    <nd ref="310140799"/>
    <nd ref="275506215"/>
    <nd ref="310140798"/>
    <nd ref="310140797"/>
    <nd ref="310140796"/>
    <nd ref="275493434"/>
    <nd ref="275497346"/>
    <nd ref="310140795"/>
    <nd ref="310140794"/>
    <nd ref="310140793"/>
    <nd ref="275486756"/>
    <nd ref="275495151"/>
    <nd ref="275465720"/>
    <nd ref="275480622"/>
    <nd ref="310140792"/>
    <nd ref="275468349"/>
    <nd ref="275478365"/>
    <nd ref="310140791"/>
    <nd ref="310140790"/>
    <nd ref="310140789"/>
    <nd ref="275509987"/>
    <nd ref="310140788"/>
    <nd ref="275484740"/>
    <nd ref="310140787"/>
    <nd ref="275502460"/>
    <nd ref="310140786"/>
    <nd ref="275481004"/>
    <nd ref="310140785"/>
    <nd ref="310140784"/>
    <nd ref="310140783"/>
    <nd ref="310140782"/>
    <nd ref="310140781"/>
    <nd ref="275475044"/>
    <nd ref="275465437"/>
    <nd ref="275508904"/>
    <nd ref="310140780"/>
    <nd ref="310140779"/>
    <nd ref="310140778"/>
    <nd ref="310140777"/>
    <nd ref="310140776"/>
    <nd ref="275478266"/>
    <nd ref="275496231"/>
    <nd ref="275474026"/>
    <nd ref="275493109"/>
    <nd ref="275465446"/>
    <nd ref="275491869"/>
    <nd ref="275494750"/>
    <nd ref="275482206"/>
    <nd ref="275483443"/>
    <nd ref="275462418"/>
    <nd ref="275471701"/>
    <nd ref="275469011"/>
    <nd ref="310140774"/>
    <nd ref="310140775"/>
    <nd ref="275494857"/>
    <nd ref="275488398"/>
    <nd ref="275490431"/>
    <nd ref="275510344"/>
    <nd ref="310140773"/>
    <nd ref="275489675"/>
    <nd ref="310140772"/>
    <nd ref="310140771"/>
    <nd ref="275487423"/>
    <nd ref="310140770"/>
    <nd ref="310140769"/>
    <nd ref="275482958"/>
    <nd ref="310140768"/>
    <nd ref="310140758"/>
    <nd ref="275509129"/>
    <nd ref="275475226"/>
    <nd ref="310140757"/>
    <nd ref="275491315"/>
    <tag k="natural" v="coastline"/>
    <tag k="note" v="who knows an exact source?"/>
  </way>
</osm>
