<?xml version='1.0' encoding='UTF-8'?>
<osm version="0.6" generator="libosmium/2.20.0">
  <way id="28222019" version="3" timestamp="2010-07-09T05:00:41Z" uid="74617" user="JohnSmith" changeset="5170972">
    <nd ref="309971000"/>
    <nd ref="309971064"/>
    <tag k="highway" v="residential"/>
    <tag k="maxspeed" v="50"/>
    <tag k="maxspeed:source" v="default residential speed limit in Australia"/>
    <tag k="name" v="Ridgeway Avenue"/>
    <tag k="source" v="MMBW"/>
  </way>
  <way id="28222049" version="3" timestamp="2010-07-09T04:53:27Z" uid="74617" user="JohnSmith" changeset="5170972">
    <nd ref="304704429"/>
    <nd ref="309971843"/>
    <nd ref="309971844"/>
    <nd ref="309971845"/>
    <nd ref="309971847"/>
    <nd ref="309971848"/>
    <tag k="highway" v="residential"/>
    <tag k="maxspeed" v="50"/>
    <tag k="maxspeed:source" v="default residential speed limit in Australia"/>
    <tag k="name" v="Kent Street"/>
    <tag k="source" v="MMBW"/>
  </way>
  <way id="28222070" version="2" timestamp="2010-07-09T05:04:13Z" uid="74617" user="JohnSmith" changeset="5170972">
    <nd ref="309972045"/>
    <nd ref="309972094"/>
    <nd ref="309972095"/>
    <nd ref="309972096"/>
    <nd ref="309972097"/>
    <nd ref="309972098"/>
    <nd ref="309972099"/>
    <tag k="highway" v="residential"/>
    <tag k="maxspeed" v="50"/>
    <tag k="maxspeed:source" v="default residential speed limit in Australia"/>
    <tag k="name" v="Hillcrest Avenue"/>
    <tag k="source" v="MMBW"/>
  </way>
  <way id="28222074" version="8" timestamp="2010-07-08T19:52:12Z" uid="74617" user="JohnSmith" changeset="5168688">
    <nd ref="34857912"/>
    <nd ref="659759195"/>
    <nd ref="659759368"/>
    <nd ref="309972975"/>
    <nd ref="309973075"/>
    <nd ref="309973253"/>
    <nd ref="309973338"/>
    <nd ref="309973413"/>
    <nd ref="309972111"/>
    <tag k="highway" v="residential"/>
    <tag k="maxspeed" v="50"/>
    <tag k="maxspeed:source" v="default residential speed limit in Australia"/>
    <tag k="name" v="Rathgar Road"/>
  </way>
  <way id="28222077" version="2" timestamp="2010-07-09T04:58:17Z" uid="74617" user="JohnSmith" changeset="5170972">
    <nd ref="309972112"/>
    <nd ref="309972204"/>
    <tag k="highway" v="residential"/>
    <tag k="maxspeed" v="50"/>
    <tag k="maxspeed:source" v="default residential speed limit in Australia"/>
    <tag k="name" v="Ermington Place"/>
    <tag k="source" v="MMBW"/>
  </way>
  <way id="28222082" version="3" timestamp="2010-07-09T04:53:17Z" uid="74617" user="JohnSmith" changeset="5170972">
    <nd ref="309972299"/>
    <nd ref="309972455"/>
    <nd ref="309972457"/>
    <nd ref="309972459"/>
    <nd ref="309972462"/>
    <nd ref="309972476"/>
    <nd ref="309972464"/>
    <tag k="highway" v="residential"/>
    <tag k="maxspeed" v="50"/>
    <tag k="maxspeed:source" v="default residential speed limit in Australia"/>
    <tag k="name" v="Belmont Avenue"/>
    <tag k="source" v="MMBW"/>
  </way>
  <way id="28222092" version="2" timestamp="2010-07-09T04:57:52Z" uid="74617" user="JohnSmith" changeset="5170972">
    <nd ref="309972476"/>
    <nd ref="309972504"/>
    <tag k="highway" v="residential"/>
    <tag k="maxspeed" v="50"/>
    <tag k="maxspeed:source" v="default residential speed limit in Australia"/>
    <tag k="name" v="Waverley Avenue"/>
    <tag k="source" v="MMBW"/>
  </way>
  <way id="28222096" version="2" timestamp="2010-07-09T04:55:48Z" uid="74617" user="JohnSmith" changeset="5170972">
    <nd ref="304704440"/>
    <nd ref="309972524"/>
    <tag k="highway" v="residential"/>
    <tag k="maxspeed" v="50"/>
    <tag k="maxspeed:source" v="default residential speed limit in Australia"/>
    <tag k="name" v="Barrington Avenue"/>
    <tag k="source" v="MMBW"/>
  </way>
  <way id="28222104" version="2" timestamp="2010-07-09T05:02:47Z" uid="74617" user="JohnSmith" changeset="5170972">
    <nd ref="304704443"/>
    <nd ref="309972628"/>
    <tag k="highway" v="residential"/>
    <tag k="maxspeed" v="50"/>
    <tag k="maxspeed:source" v="default residential speed limit in Australia"/>
    <tag k="name" v="Uvadale Grove"/>
    <tag k="source" v="MMBW"/>
  </way>
  <way id="28222113" version="5" timestamp="2010-03-28T00:18:03Z" uid="20587" user="balrog-kun" changeset="4250871">
    <nd ref="53133864"/>
    <nd ref="53133866"/>
    <tag k="bridge" v="yes"/>
    <tag k="created_by" v="Potlatch 0.10f"/>
    <tag k="highway" v="tertiary"/>
    <tag k="name" v="Grand Street"/>
    <tag k="tiger:cfcc" v="A41"/>
    <tag k="tiger:county" v="Alameda, CA"/>
    <tag k="tiger:name_base" v="Grand"/>
    <tag k="tiger:name_type" v="St"/>
    <tag k="tiger:reviewed" v="no"/>
    <tag k="tiger:separated" v="no"/>
    <tag k="tiger:source" v="tiger_import_dch_v0.6_20070809"/>
    <tag k="tiger:tlid" v="125085825:125005259:125038232"/>
    <tag k="tiger:zip_left" v="94501"/>
  </way>
  <way id="28222115" version="7" timestamp="2010-03-28T00:18:03Z" uid="20587" user="balrog-kun" changeset="4250871">
    <nd ref="53133866"/>
    <nd ref="53080025"/>
    <nd ref="53120404"/>
    <nd ref="53098556"/>
    <nd ref="53127583"/>
    <nd ref="53095661"/>
    <nd ref="53131597"/>
    <nd ref="53036598"/>
    <nd ref="53133872"/>
    <nd ref="53085067"/>
    <nd ref="53088128"/>
    <nd ref="53127234"/>
    <nd ref="53126368"/>
    <nd ref="53092455"/>
    <nd ref="53093769"/>
    <nd ref="53133877"/>
    <nd ref="53133879"/>
    <nd ref="53133880"/>
    <tag k="created_by" v="Potlatch 0.10f"/>
    <tag k="highway" v="tertiary"/>
    <tag k="name" v="Grand Street"/>
    <tag k="tiger:cfcc" v="A41"/>
    <tag k="tiger:county" v="Alameda, CA"/>
    <tag k="tiger:name_base" v="Grand"/>
    <tag k="tiger:name_type" v="St"/>
    <tag k="tiger:reviewed" v="no"/>
    <tag k="tiger:separated" v="no"/>
    <tag k="tiger:source" v="tiger_import_dch_v0.6_20070809"/>
    <tag k="tiger:tlid" v="125085825:125005259:125038232"/>
    <tag k="tiger:zip_left" v="94501"/>
  </way>
  <way id="28222127" version="2" timestamp="2010-07-09T05:02:23Z" uid="74617" user="JohnSmith" changeset="5170972">
    <nd ref="309972751"/>
    <nd ref="309972956"/>
    <nd ref="309972957"/>
    <nd ref="309972959"/>
    <nd ref="309972960"/>
    <nd ref="309972963"/>
    <tag k="highway" v="residential"/>
    <tag k="maxspeed" v="50"/>
    <tag k="maxspeed:source" v="default residential speed limit in Australia"/>
    <tag k="name" v="Marshall Avenue"/>
    <tag k="source" v="MMBW"/>
  </way>
  <way id="28222149" version="2" timestamp="2010-07-08T20:00:38Z" uid="74617" user="JohnSmith" changeset="5168688">
    <nd ref="309972975"/>
    <nd ref="309973042"/>
    <tag k="highway" v="residential"/>
    <tag k="maxspeed" v="50"/>
    <tag k="maxspeed:source" v="default residential speed limit in Australia"/>
    <tag k="name" v="Danbec Court"/>
  </way>
  <way id="28222161" version="3" timestamp="2010-07-08T19:53:56Z" uid="74617" user="JohnSmith" changeset="5168688">
    <nd ref="309973075"/>
    <nd ref="309973135"/>
    <nd ref="309973136"/>
    <tag k="highway" v="residential"/>
    <tag k="maxspeed" v="50"/>
    <tag k="maxspeed:source" v="default residential speed limit in Australia"/>
    <tag k="name" v="Grandview Place"/>
  </way>
  <way id="28222172" version="2" timestamp="2010-07-08T19:53:26Z" uid="74617" user="JohnSmith" changeset="5168688">
    <nd ref="309973075"/>
    <nd ref="309973252"/>
    <tag k="highway" v="residential"/>
    <tag k="maxspeed" v="50"/>
    <tag k="maxspeed:source" v="default residential speed limit in Australia"/>
    <tag k="name" v="Amley Rise"/>
  </way>
  <way id="28222182" version="2" timestamp="2010-07-08T19:54:19Z" uid="74617" user="JohnSmith" changeset="5168688">
    <nd ref="309973253"/>
    <nd ref="309973336"/>
    <tag k="highway" v="residential"/>
    <tag k="maxspeed" v="50"/>
    <tag k="maxspeed:source" v="default residential speed limit in Australia"/>
    <tag k="name" v="Sunset Terrace"/>
  </way>
  <way id="28222195" version="2" timestamp="2010-07-08T19:52:14Z" uid="74617" user="JohnSmith" changeset="5168688">
    <nd ref="309973338"/>
    <nd ref="309973404"/>
    <nd ref="309973405"/>
    <nd ref="309973406"/>
    <nd ref="309973407"/>
    <nd ref="309973408"/>
    <nd ref="309973409"/>
    <nd ref="309973410"/>
    <nd ref="309973411"/>
    <nd ref="309973412"/>
    <tag k="highway" v="residential"/>
    <tag k="maxspeed" v="50"/>
    <tag k="maxspeed:source" v="default residential speed limit in Australia"/>
    <tag k="name" v="Grand Valley Terrace"/>
  </way>
  <way id="28222231" version="2" timestamp="2010-07-08T19:51:11Z" uid="74617" user="JohnSmith" changeset="5168688">
    <nd ref="309973413"/>
    <nd ref="309973644"/>
    <tag k="highway" v="residential"/>
    <tag k="maxspeed" v="50"/>
    <tag k="maxspeed:source" v="default residential speed limit in Australia"/>
    <tag k="name" v="Ridge View Terrace"/>
  </way>
  <way id="28222364" version="2" timestamp="2010-07-09T05:02:26Z" uid="74617" user="JohnSmith" changeset="5170972">
    <nd ref="309975063"/>
    <nd ref="309975064"/>
    <tag k="highway" v="residential"/>
    <tag k="maxspeed" v="50"/>
    <tag k="maxspeed:source" v="default residential speed limit in Australia"/>
    <tag k="name" v="Florence Avenue"/>
    <tag k="source" v="MMBW"/>
  </way>
  <way id="28222368" version="2" timestamp="2010-07-09T04:55:30Z" uid="74617" user="JohnSmith" changeset="5170972">
    <nd ref="309975083"/>
    <nd ref="309975092"/>
    <tag k="highway" v="residential"/>
    <tag k="maxspeed" v="50"/>
    <tag k="maxspeed:source" v="default residential speed limit in Australia"/>
    <tag k="name" v="Wimba Avenue"/>
    <tag k="source" v="MMBW"/>
  </way>
  <way id="28222390" version="7" timestamp="2010-07-09T04:57:05Z" uid="74617" user="JohnSmith" changeset="5170972">
    <nd ref="309975281"/>
    <nd ref="309975325"/>
    <nd ref="309975326"/>
    <nd ref="309975327"/>
    <nd ref="309975329"/>
    <nd ref="311903530"/>
    <nd ref="311903508"/>
    <nd ref="309975334"/>
    <nd ref="309975335"/>
    <nd ref="309975324"/>
    <tag k="highway" v="residential"/>
    <tag k="maxspeed" v="50"/>
    <tag k="maxspeed:source" v="default residential speed limit in Australia"/>
    <tag k="name" v="Cecil Street"/>
    <tag k="source" v="MMBW"/>
  </way>
  <way id="28222402" version="7" timestamp="2009-08-11T23:08:40Z" uid="4467" user="Rosscoe" changeset="2113772">
    <nd ref="21590395"/>
    <nd ref="454717128"/>
    <nd ref="309975361"/>
    <nd ref="454717129"/>
    <nd ref="454716852"/>
    <tag k="highway" v="primary"/>
    <tag k="is_in" v="Brisbane, QLD, Queensland, Australia"/>
    <tag k="name" v="Airport Drive"/>
    <tag k="oneway" v="yes"/>
    <tag k="ref" v="S20"/>
  </way>
  <way id="28222402" version="12" timestamp="2010-03-20T16:02:43Z" uid="74617" user="JohnSmith" changeset="4181375">
    <nd ref="21590377"/>
    <nd ref="21590383"/>
    <nd ref="21590384"/>
    <nd ref="21590385"/>
    <nd ref="311427790"/>
    <nd ref="264249870"/>
    <nd ref="330805760"/>
    <nd ref="21590386"/>
    <nd ref="565675442"/>
    <nd ref="565675449"/>
    <nd ref="565675457"/>
    <nd ref="565675461"/>
    <nd ref="565675467"/>
    <nd ref="557589039"/>
    <nd ref="474981811"/>
    <tag k="highway" v="primary"/>
    <tag k="name" v="Airport Drive"/>
    <tag k="oneway" v="yes"/>
  </way>
  <way id="28222410" version="3" timestamp="2010-07-09T05:14:25Z" uid="74617" user="JohnSmith" changeset="5170986">
    <nd ref="311903508"/>
    <nd ref="309975450"/>
    <nd ref="309975451"/>
    <tag k="highway" v="residential"/>
    <tag k="maxspeed" v="50"/>
    <tag k="maxspeed:source" v="default residential speed limit in Australia"/>
    <tag k="name" v="Downton Grove"/>
    <tag k="source" v="MMBW"/>
  </way>
  <way id="28222478" version="3" timestamp="2010-07-09T03:06:41Z" uid="74617" user="JohnSmith" changeset="5170713">
    <nd ref="309976181"/>
    <nd ref="309976220"/>
    <tag k="highway" v="residential"/>
    <tag k="maxspeed" v="50"/>
    <tag k="maxspeed:source" v="default residential speed limit in Australia"/>
    <tag k="name" v="Darren Court"/>
  </way>
  <way id="28222489" version="15" timestamp="2010-04-26T12:12:30Z" uid="4467" user="Rosscoe" changeset="4531219">
    <nd ref="309976180"/>
    <nd ref="619004877"/>
    <nd ref="309976398"/>
    <nd ref="309976930"/>
    <nd ref="619004878"/>
    <nd ref="707239146"/>
    <tag k="highway" v="residential"/>
    <tag k="name" v="Wilson Street"/>
  </way>
  <way id="28222489" version="16" timestamp="2010-07-09T03:08:40Z" uid="74617" user="JohnSmith" changeset="5170713">
    <nd ref="309976180"/>
    <nd ref="619004877"/>
    <nd ref="309976398"/>
    <nd ref="309976930"/>
    <nd ref="619004878"/>
    <nd ref="707239146"/>
    <tag k="highway" v="residential"/>
    <tag k="maxspeed" v="50"/>
    <tag k="maxspeed:source" v="default residential speed limit in Australia"/>
    <tag k="name" v="Wilson Street"/>
  </way>
  <way id="28222496" version="4" timestamp="2010-07-09T03:06:36Z" uid="74617" user="JohnSmith" changeset="5170713">
    <nd ref="309976377"/>
    <nd ref="309985130"/>
    <nd ref="309976397"/>
    <nd ref="309976432"/>
    <nd ref="309976398"/>
    <tag k="highway" v="residential"/>
    <tag k="maxspeed" v="50"/>
    <tag k="maxspeed:source" v="default residential speed limit in Australia"/>
    <tag k="name" v="Keamy Avenue"/>
  </way>
  <way id="28222500" version="2" timestamp="2010-07-09T03:10:23Z" uid="74617" user="JohnSmith" changeset="5170713">
    <nd ref="309976397"/>
    <nd ref="309976420"/>
    <nd ref="309976421"/>
    <tag k="highway" v="residential"/>
    <tag k="maxspeed" v="50"/>
    <tag k="maxspeed:source" v="default residential speed limit in Australia"/>
    <tag k="name" v="Lauriston Court"/>
  </way>
  <way id="28222510" version="2" timestamp="2010-07-09T03:09:08Z" uid="74617" user="JohnSmith" changeset="5170713">
    <nd ref="309976432"/>
    <nd ref="309976456"/>
    <tag k="highway" v="residential"/>
    <tag k="maxspeed" v="50"/>
    <tag k="maxspeed:source" v="default residential speed limit in Australia"/>
    <tag k="name" v="Ikara Court"/>
  </way>
  <way id="28222519" version="5" timestamp="2010-07-09T03:06:52Z" uid="74617" user="JohnSmith" changeset="5170713">
    <nd ref="309976459"/>
    <nd ref="309976784"/>
    <nd ref="309977190"/>
    <nd ref="309976785"/>
    <nd ref="309976787"/>
    <nd ref="309977027"/>
    <nd ref="309976789"/>
    <tag k="highway" v="residential"/>
    <tag k="maxspeed" v="50"/>
    <tag k="maxspeed:source" v="default residential speed limit in Australia"/>
    <tag k="name" v="Rosewarne Avenue"/>
  </way>
  <way id="28222532" version="3" timestamp="2010-07-09T03:07:28Z" uid="74617" user="JohnSmith" changeset="5170713">
    <nd ref="309976784"/>
    <nd ref="309976928"/>
    <nd ref="309976825"/>
    <nd ref="309976826"/>
    <tag k="highway" v="residential"/>
    <tag k="maxspeed" v="50"/>
    <tag k="maxspeed:source" v="default residential speed limit in Australia"/>
    <tag k="name" v="Chelsea Street"/>
  </way>
  <way id="28222537" version="2" timestamp="2010-07-09T03:09:18Z" uid="74617" user="JohnSmith" changeset="5170713">
    <nd ref="309976827"/>
    <nd ref="309976928"/>
    <tag k="highway" v="residential"/>
    <tag k="maxspeed" v="50"/>
    <tag k="maxspeed:source" v="default residential speed limit in Australia"/>
    <tag k="name" v="Parnell Street"/>
  </way>
  <way id="28222543" version="2" timestamp="2010-07-09T03:08:34Z" uid="74617" user="JohnSmith" changeset="5170713">
    <nd ref="309976930"/>
    <nd ref="309976980"/>
    <nd ref="309976785"/>
    <tag k="highway" v="residential"/>
    <tag k="maxspeed" v="50"/>
    <tag k="maxspeed:source" v="default residential speed limit in Australia"/>
    <tag k="name" v="Newry Street"/>
  </way>
  <way id="28222548" version="2" timestamp="2010-07-09T03:06:09Z" uid="74617" user="JohnSmith" changeset="5170713">
    <nd ref="309976980"/>
    <nd ref="309977021"/>
    <nd ref="309977022"/>
    <nd ref="309977023"/>
    <nd ref="309977024"/>
    <tag k="highway" v="residential"/>
    <tag k="maxspeed" v="50"/>
    <tag k="maxspeed:source" v="default residential speed limit in Australia"/>
    <tag k="name" v="Glyn Court"/>
  </way>
  <way id="28222559" version="18" timestamp="2010-07-09T04:56:39Z" uid="74617" user="JohnSmith" changeset="5170972">
    <nd ref="263991606"/>
    <nd ref="309977132"/>
    <nd ref="309977428"/>
    <nd ref="309977300"/>
    <nd ref="309977505"/>
    <nd ref="309977235"/>
    <nd ref="370482117"/>
    <tag k="highway" v="residential"/>
    <tag k="maxspeed" v="50"/>
    <tag k="maxspeed:source" v="default residential speed limit in Australia"/>
    <tag k="name" v="Argyle Road"/>
    <tag k="source" v="MMBW"/>
  </way>
  <way id="28222561" version="2" timestamp="2010-07-09T03:08:31Z" uid="74617" user="JohnSmith" changeset="5170713">
    <nd ref="309977027"/>
    <nd ref="309977108"/>
    <tag k="highway" v="residential"/>
    <tag k="maxspeed" v="50"/>
    <tag k="maxspeed:source" v="default residential speed limit in Australia"/>
    <tag k="name" v="Hartwell Place"/>
  </way>
  <way id="28222564" version="2" timestamp="2010-07-09T04:55:06Z" uid="74617" user="JohnSmith" changeset="5170972">
    <nd ref="309977112"/>
    <nd ref="309977130"/>
    <nd ref="309977131"/>
    <nd ref="309977132"/>
    <tag k="highway" v="residential"/>
    <tag k="maxspeed" v="50"/>
    <tag k="maxspeed:source" v="default residential speed limit in Australia"/>
    <tag k="name" v="Lalla Street"/>
    <tag k="source" v="MMBW"/>
  </way>
  <way id="28222571" version="3" timestamp="2010-07-09T04:56:44Z" uid="74617" user="JohnSmith" changeset="5170972">
    <nd ref="309977130"/>
    <nd ref="309977174"/>
    <nd ref="309977175"/>
    <tag k="highway" v="residential"/>
    <tag k="maxspeed" v="50"/>
    <tag k="maxspeed:source" v="default residential speed limit in Australia"/>
    <tag k="name" v="Lalla Court"/>
  </way>
  <way id="28222572" version="6" timestamp="2010-07-09T03:07:50Z" uid="74617" user="JohnSmith" changeset="5170713">
    <nd ref="309977111"/>
    <nd ref="309977180"/>
    <nd ref="309977181"/>
    <nd ref="309977301"/>
    <nd ref="309977182"/>
    <nd ref="309977183"/>
    <nd ref="309977184"/>
    <nd ref="309977185"/>
    <nd ref="309977186"/>
    <nd ref="309977187"/>
    <nd ref="309977253"/>
    <nd ref="309977260"/>
    <nd ref="309977273"/>
    <nd ref="309977188"/>
    <tag k="highway" v="residential"/>
    <tag k="maxspeed" v="50"/>
    <tag k="maxspeed:source" v="default residential speed limit in Australia"/>
    <tag k="name" v="Regent Parade"/>
  </way>
  <way id="28222575" version="3" timestamp="2010-07-09T05:19:24Z" uid="74617" user="JohnSmith" changeset="5170986">
    <nd ref="309977202"/>
    <nd ref="309977235"/>
    <nd ref="309977487"/>
    <nd ref="309977488"/>
    <nd ref="309977489"/>
    <tag k="highway" v="residential"/>
    <tag k="maxspeed" v="50"/>
    <tag k="maxspeed:source" v="default residential speed limit in Australia"/>
    <tag k="name" v="Cecil Street"/>
    <tag k="source" v="MMBW"/>
  </way>
  <way id="28222578" version="3" timestamp="2010-07-09T03:05:36Z" uid="74617" user="JohnSmith" changeset="5170713">
    <nd ref="309977190"/>
    <nd ref="309977252"/>
    <nd ref="309977253"/>
    <tag k="highway" v="residential"/>
    <tag k="maxspeed" v="50"/>
    <tag k="maxspeed:source" v="default residential speed limit in Australia"/>
    <tag k="name" v="Pike Street"/>
  </way>
  <way id="28222585" version="2" timestamp="2010-07-09T03:10:29Z" uid="74617" user="JohnSmith" changeset="5170713">
    <nd ref="309977260"/>
    <nd ref="309977272"/>
    <tag k="highway" v="residential"/>
    <tag k="maxspeed" v="50"/>
    <tag k="maxspeed:source" v="default residential speed limit in Australia"/>
    <tag k="name" v="Marita Court"/>
  </way>
  <way id="28222586" version="2" timestamp="2010-07-09T05:01:19Z" uid="74617" user="JohnSmith" changeset="5170972">
    <nd ref="309977265"/>
    <nd ref="309977282"/>
    <tag k="highway" v="residential"/>
    <tag k="maxspeed" v="50"/>
    <tag k="maxspeed:source" v="default residential speed limit in Australia"/>
    <tag k="name" v="Weir Street"/>
    <tag k="source" v="MMBW"/>
  </way>
  <way id="28222590" version="2" timestamp="2010-07-09T03:07:24Z" uid="74617" user="JohnSmith" changeset="5170713">
    <nd ref="309977273"/>
    <nd ref="309977298"/>
    <tag k="highway" v="residential"/>
    <tag k="maxspeed" v="50"/>
    <tag k="maxspeed:source" v="default residential speed limit in Australia"/>
    <tag k="name" v="Dendy Court"/>
  </way>
  <way id="28222598" version="3" timestamp="2010-07-09T03:09:51Z" uid="74617" user="JohnSmith" changeset="5170713">
    <nd ref="309977301"/>
    <nd ref="309977459"/>
    <nd ref="309977418"/>
    <tag k="highway" v="residential"/>
    <tag k="maxspeed" v="50"/>
    <tag k="maxspeed:source" v="default residential speed limit in Australia"/>
    <tag k="name" v="Mayne Street"/>
  </way>
  <way id="28222600" version="2" timestamp="2010-07-09T04:58:03Z" uid="74617" user="JohnSmith" changeset="5170972">
    <nd ref="309977132"/>
    <nd ref="309977425"/>
    <tag k="highway" v="residential"/>
    <tag k="maxspeed" v="50"/>
    <tag k="maxspeed:source" v="default residential speed limit in Australia"/>
    <tag k="name" v="Wishart Street"/>
    <tag k="source" v="MMBW"/>
  </way>
  <way id="28222602" version="2" timestamp="2010-07-09T03:09:27Z" uid="74617" user="JohnSmith" changeset="5170713">
    <nd ref="309977182"/>
    <nd ref="309977432"/>
    <tag k="highway" v="residential"/>
    <tag k="maxspeed" v="50"/>
    <tag k="maxspeed:source" v="default residential speed limit in Australia"/>
    <tag k="name" v="Neish Court"/>
  </way>
  <way id="28222604" version="2" timestamp="2010-07-09T04:59:47Z" uid="74617" user="JohnSmith" changeset="5170972">
    <nd ref="309977428"/>
    <nd ref="309977442"/>
    <tag k="highway" v="residential"/>
    <tag k="maxspeed" v="50"/>
    <tag k="maxspeed:source" v="default residential speed limit in Australia"/>
    <tag k="name" v="Hunter Street"/>
    <tag k="source" v="MMBW"/>
  </way>
  <way id="28222608" version="2" timestamp="2010-07-09T05:20:04Z" uid="74617" user="JohnSmith" changeset="5170986">
    <nd ref="309977505"/>
    <nd ref="309977585"/>
    <nd ref="309977586"/>
    <nd ref="309977587"/>
    <tag k="highway" v="residential"/>
    <tag k="maxspeed" v="50"/>
    <tag k="maxspeed:source" v="default residential speed limit in Australia"/>
    <tag k="name" v="Simpson Street"/>
    <tag k="source" v="MMBW"/>
  </way>
  <way id="28222611" version="2" timestamp="2010-07-09T03:07:09Z" uid="74617" user="JohnSmith" changeset="5170713">
    <nd ref="309977459"/>
    <nd ref="309977630"/>
    <nd ref="309977631"/>
    <nd ref="309977632"/>
    <nd ref="309977633"/>
    <nd ref="309977634"/>
    <nd ref="309977635"/>
    <nd ref="305879384"/>
    <tag k="highway" v="residential"/>
    <tag k="maxspeed" v="50"/>
    <tag k="maxspeed:source" v="default residential speed limit in Australia"/>
    <tag k="name" v="Fairview Avenue"/>
  </way>
  <way id="28222665" version="2" timestamp="2010-03-28T00:18:04Z" uid="20587" user="balrog-kun" changeset="4250871">
    <nd ref="57861081"/>
    <nd ref="309978525"/>
    <nd ref="309978526"/>
    <nd ref="309978527"/>
    <nd ref="57861081"/>
    <tag k="highway" v="residential"/>
    <tag k="name" v="Grissom Lane"/>
    <tag k="name_1" v="Grissom Street"/>
    <tag k="oneway" v="yes"/>
    <tag k="tiger:cfcc" v="A41"/>
    <tag k="tiger:county" v="Contra Costa, CA"/>
    <tag k="tiger:name_base" v="Grissom"/>
    <tag k="tiger:name_base_1" v="Grissom"/>
    <tag k="tiger:name_type" v="Ln"/>
    <tag k="tiger:name_type_1" v="St"/>
    <tag k="tiger:reviewed" v="no"/>
    <tag k="tiger:separated" v="no"/>
    <tag k="tiger:source" v="tiger_import_dch_v0.6_20070809"/>
    <tag k="tiger:tlid" v="192093342:192093343"/>
    <tag k="tiger:zip_left" v="94547"/>
    <tag k="tiger:zip_right" v="94547"/>
  </way>
  <way id="28222666" version="2" timestamp="2010-03-28T00:18:04Z" uid="20587" user="balrog-kun" changeset="4250871">
    <nd ref="57869470"/>
    <nd ref="309978528"/>
    <nd ref="309978529"/>
    <nd ref="309978530"/>
    <nd ref="57869470"/>
    <tag k="highway" v="residential"/>
    <tag k="name" v="Jarvis Lane"/>
    <tag k="oneway" v="yes"/>
    <tag k="tiger:cfcc" v="A41"/>
    <tag k="tiger:county" v="Contra Costa, CA"/>
    <tag k="tiger:name_base" v="Jarvis"/>
    <tag k="tiger:name_type" v="Ln"/>
    <tag k="tiger:reviewed" v="no"/>
    <tag k="tiger:separated" v="no"/>
    <tag k="tiger:source" v="tiger_import_dch_v0.6_20070809"/>
    <tag k="tiger:tlid" v="192093344"/>
    <tag k="tiger:zip_left" v="94547"/>
    <tag k="tiger:zip_right" v="94547"/>
  </way>
  <way id="28222667" version="2" timestamp="2010-03-28T00:18:04Z" uid="20587" user="balrog-kun" changeset="4250871">
    <nd ref="57950982"/>
    <nd ref="309978531"/>
    <nd ref="309978532"/>
    <nd ref="309978533"/>
    <nd ref="309978534"/>
    <nd ref="57950982"/>
    <tag k="highway" v="residential"/>
    <tag k="name" v="Armstrong Street"/>
    <tag k="oneway" v="yes"/>
    <tag k="tiger:cfcc" v="A41"/>
    <tag k="tiger:county" v="Contra Costa, CA"/>
    <tag k="tiger:name_base" v="Armstrong"/>
    <tag k="tiger:name_type" v="St"/>
    <tag k="tiger:reviewed" v="no"/>
    <tag k="tiger:separated" v="no"/>
    <tag k="tiger:source" v="tiger_import_dch_v0.6_20070809"/>
    <tag k="tiger:tlid" v="192093334:192093340"/>
  </way>
  <way id="28222668" version="2" timestamp="2010-03-28T00:18:05Z" uid="20587" user="balrog-kun" changeset="4250871">
    <nd ref="57929838"/>
    <nd ref="309978535"/>
    <nd ref="309978536"/>
    <nd ref="309978537"/>
    <nd ref="309978538"/>
    <nd ref="57929838"/>
    <tag k="highway" v="residential"/>
    <tag k="name" v="Grissom Court"/>
    <tag k="oneway" v="yes"/>
    <tag k="tiger:cfcc" v="A41"/>
    <tag k="tiger:county" v="Contra Costa, CA"/>
    <tag k="tiger:name_base" v="Grissom"/>
    <tag k="tiger:name_type" v="Ct"/>
    <tag k="tiger:reviewed" v="no"/>
    <tag k="tiger:separated" v="no"/>
    <tag k="tiger:source" v="tiger_import_dch_v0.6_20070809"/>
    <tag k="tiger:tlid" v="192093345"/>
    <tag k="tiger:zip_left" v="94547"/>
    <tag k="tiger:zip_right" v="94547"/>
  </way>
  <way id="28222669" version="2" timestamp="2010-03-28T00:18:05Z" uid="20587" user="balrog-kun" changeset="4250871">
    <nd ref="57827680"/>
    <nd ref="309978545"/>
    <nd ref="309978546"/>
    <nd ref="309978547"/>
    <nd ref="57827680"/>
    <tag k="highway" v="residential"/>
    <tag k="name" v="Balboa Court"/>
    <tag k="oneway" v="yes"/>
    <tag k="tiger:cfcc" v="A41"/>
    <tag k="tiger:county" v="Contra Costa, CA"/>
    <tag k="tiger:name_base" v="Balboa"/>
    <tag k="tiger:name_type" v="Ct"/>
    <tag k="tiger:reviewed" v="no"/>
    <tag k="tiger:separated" v="no"/>
    <tag k="tiger:source" v="tiger_import_dch_v0.6_20070809"/>
    <tag k="tiger:tlid" v="192093280"/>
    <tag k="tiger:zip_left" v="94547"/>
    <tag k="tiger:zip_right" v="94547"/>
  </way>
  <way id="28222670" version="2" timestamp="2010-03-28T00:18:05Z" uid="20587" user="balrog-kun" changeset="4250871">
    <nd ref="57886445"/>
    <nd ref="309978551"/>
    <nd ref="309978552"/>
    <nd ref="309978554"/>
    <nd ref="57886445"/>
    <tag k="highway" v="residential"/>
    <tag k="name" v="Fremont Court"/>
    <tag k="oneway" v="yes"/>
    <tag k="tiger:cfcc" v="A41"/>
    <tag k="tiger:county" v="Contra Costa, CA"/>
    <tag k="tiger:name_base" v="Fremont"/>
    <tag k="tiger:name_type" v="Ct"/>
    <tag k="tiger:reviewed" v="no"/>
    <tag k="tiger:separated" v="no"/>
    <tag k="tiger:source" v="tiger_import_dch_v0.6_20070809"/>
    <tag k="tiger:tlid" v="192093298:192093299"/>
    <tag k="tiger:zip_left" v="94547"/>
    <tag k="tiger:zip_right" v="94547"/>
  </way>
  <way id="28222671" version="2" timestamp="2010-03-28T00:18:05Z" uid="20587" user="balrog-kun" changeset="4250871">
    <nd ref="57925038"/>
    <nd ref="309978555"/>
    <nd ref="309978556"/>
    <nd ref="309978557"/>
    <nd ref="57925038"/>
    <tag k="highway" v="residential"/>
    <tag k="name" v="Decatur Court"/>
    <tag k="oneway" v="yes"/>
    <tag k="tiger:cfcc" v="A41"/>
    <tag k="tiger:county" v="Contra Costa, CA"/>
    <tag k="tiger:name_base" v="Decatur"/>
    <tag k="tiger:name_type" v="Ct"/>
    <tag k="tiger:reviewed" v="no"/>
    <tag k="tiger:separated" v="no"/>
    <tag k="tiger:source" v="tiger_import_dch_v0.6_20070809"/>
    <tag k="tiger:tlid" v="192093283"/>
    <tag k="tiger:zip_left" v="94547"/>
    <tag k="tiger:zip_right" v="94547"/>
  </way>
  <way id="28222686" version="3" timestamp="2009-05-17T10:46:46Z" uid="43863" user="Rundling" changeset="1220372">
    <nd ref="250089979"/>
    <nd ref="250089995"/>
    <nd ref="250090000"/>
    <nd ref="303562208"/>
    <nd ref="250089998"/>
    <tag k="created_by" v="Merkaartor 0.13"/>
    <tag k="highway" v="unclassified"/>
    <tag k="surface" v="paved"/>
  </way>
  <way id="28222689" version="2" timestamp="2009-05-17T10:47:58Z" uid="43863" user="Rundling" changeset="1220386">
    <nd ref="303562203"/>
    <nd ref="309978610"/>
    <nd ref="309978612"/>
    <nd ref="303562208"/>
    <tag k="created_by" v="Merkaartor 0.13"/>
    <tag k="highway" v="track"/>
    <tag k="surface" v="unpaved"/>
    <tag k="tracktype" v="grade4"/>
  </way>
  <way id="28222690" version="16" timestamp="2010-07-09T04:58:38Z" uid="74617" user="JohnSmith" changeset="5170972">
    <nd ref="309978619"/>
    <nd ref="309989441"/>
    <nd ref="309989117"/>
    <nd ref="309988243"/>
    <nd ref="309985040"/>
    <nd ref="309984722"/>
    <nd ref="309983319"/>
    <nd ref="309981758"/>
    <nd ref="309981463"/>
    <nd ref="309979012"/>
    <nd ref="309979139"/>
    <nd ref="309978829"/>
    <nd ref="309978724"/>
    <nd ref="127418809"/>
    <tag k="highway" v="residential"/>
    <tag k="maxspeed" v="50"/>
    <tag k="maxspeed:source" v="default residential speed limit in Australia"/>
    <tag k="name" v="Eglinton Street"/>
    <tag k="source" v="MMBW"/>
  </way>
  <way id="28222693" version="3" timestamp="2009-10-26T21:11:23Z" uid="9581" user="Lobelt" changeset="2960529">
    <nd ref="309978630"/>
    <nd ref="541008101"/>
    <nd ref="359590934"/>
    <nd ref="359590933"/>
    <nd ref="541008104"/>
    <nd ref="26086545"/>
    <nd ref="541008105"/>
    <nd ref="359590936"/>
    <nd ref="541008106"/>
    <nd ref="26086546"/>
    <nd ref="541008113"/>
    <nd ref="541008114"/>
    <nd ref="359590937"/>
    <nd ref="359590939"/>
    <nd ref="541008123"/>
    <nd ref="541008120"/>
    <nd ref="541008124"/>
    <nd ref="26086547"/>
    <nd ref="541008132"/>
    <nd ref="541008125"/>
    <nd ref="541008131"/>
    <nd ref="359590941"/>
    <nd ref="541008130"/>
    <nd ref="26086548"/>
    <nd ref="359590942"/>
    <nd ref="541008138"/>
    <nd ref="26086549"/>
    <nd ref="294863097"/>
    <tag k="railway" v="rail"/>
    <tag k="source" v="Hochbefliegung LMBVmbH 2.Hj.2007"/>
  </way>
  <way id="28222703" version="2" timestamp="2009-05-17T10:47:58Z" uid="43863" user="Rundling" changeset="1220386">
    <nd ref="309978649"/>
    <nd ref="309978650"/>
    <tag k="created_by" v="Merkaartor 0.13"/>
    <tag k="waterway" v="drain"/>
  </way>
  <way id="28222742" version="3" timestamp="2010-07-09T05:00:30Z" uid="74617" user="JohnSmith" changeset="5170972">
    <nd ref="309978787"/>
    <nd ref="309991301"/>
    <nd ref="309978829"/>
    <nd ref="309978830"/>
    <nd ref="309978831"/>
    <tag k="highway" v="residential"/>
    <tag k="maxspeed" v="50"/>
    <tag k="maxspeed:source" v="default residential speed limit in Australia"/>
    <tag k="name" v="Brougham Street"/>
    <tag k="source" v="MMBW"/>
  </way>
  <way id="28222750" version="3" timestamp="2010-07-09T04:57:06Z" uid="74617" user="JohnSmith" changeset="5170972">
    <nd ref="309978928"/>
    <nd ref="309978831"/>
    <nd ref="370479305"/>
    <nd ref="309978934"/>
    <tag k="highway" v="residential"/>
    <tag k="maxspeed" v="50"/>
    <tag k="maxspeed:source" v="default residential speed limit in Australia"/>
    <tag k="name" v="Duke Street"/>
    <tag k="source" v="MMBW"/>
  </way>
  <way id="28222752" version="3" timestamp="2010-07-09T03:09:56Z" uid="74617" user="JohnSmith" changeset="5170713">
    <nd ref="309978818"/>
    <nd ref="309978941"/>
    <nd ref="619004874"/>
    <nd ref="619004875"/>
    <nd ref="309978942"/>
    <tag k="highway" v="residential"/>
    <tag k="maxspeed" v="50"/>
    <tag k="maxspeed:source" v="default residential speed limit in Australia"/>
    <tag k="name" v="Kingswood Road"/>
  </way>
  <way id="28222753" version="2" timestamp="2010-10-20T21:20:35Z" uid="9581" user="Lobelt" changeset="6120197">
    <nd ref="167347674"/>
    <nd ref="167981212"/>
    <nd ref="167881959"/>
    <nd ref="167772221"/>
    <nd ref="167679410"/>
    <nd ref="168325153"/>
    <nd ref="168229375"/>
    <nd ref="168140762"/>
    <nd ref="168052741"/>
    <nd ref="167371309"/>
    <nd ref="168806749"/>
    <nd ref="168676622"/>
    <nd ref="168581972"/>
    <nd ref="167712346"/>
    <nd ref="167619826"/>
    <nd ref="167495898"/>
    <nd ref="167424057"/>
    <nd ref="168083871"/>
    <nd ref="167987116"/>
    <nd ref="167864534"/>
    <nd ref="167778873"/>
    <nd ref="168426455"/>
    <nd ref="168333942"/>
    <nd ref="168221387"/>
    <nd ref="168149646"/>
    <nd ref="167445530"/>
    <nd ref="167374688"/>
    <nd ref="168791322"/>
    <nd ref="168688599"/>
    <nd ref="167802359"/>
    <nd ref="167716067"/>
    <nd ref="167620432"/>
    <nd ref="167496691"/>
    <nd ref="168150728"/>
    <nd ref="168086088"/>
    <nd ref="167988139"/>
    <nd ref="167865423"/>
    <nd ref="168686160"/>
    <nd ref="168425249"/>
    <nd ref="167701370"/>
    <nd ref="168518109"/>
    <nd ref="168612051"/>
    <nd ref="168746832"/>
    <nd ref="168088586"/>
    <nd ref="167366902"/>
    <nd ref="167437111"/>
    <nd ref="167564074"/>
    <nd ref="168431456"/>
    <nd ref="167705375"/>
    <nd ref="167795076"/>
    <nd ref="167936769"/>
    <nd ref="168037660"/>
    <nd ref="168080315"/>
    <nd ref="168167950"/>
    <nd ref="168283557"/>
    <nd ref="168418650"/>
    <nd ref="168506959"/>
    <nd ref="168643236"/>
    <nd ref="168744571"/>
    <nd ref="168026529"/>
    <nd ref="167367949"/>
    <nd ref="167438468"/>
    <nd ref="167565714"/>
    <nd ref="168375108"/>
    <nd ref="167697553"/>
    <nd ref="167829779"/>
    <nd ref="167925970"/>
    <nd ref="168738181"/>
    <nd ref="168071258"/>
    <nd ref="168203491"/>
    <nd ref="168275626"/>
    <nd ref="167552194"/>
    <nd ref="168421235"/>
    <nd ref="168512609"/>
    <nd ref="168642338"/>
    <nd ref="167926124"/>
    <nd ref="167347674"/>
  </way>
  <way id="28222764" version="3" timestamp="2010-04-26T10:58:08Z" uid="4467" user="Rosscoe" changeset="4530575">
    <nd ref="309978945"/>
    <nd ref="707157984"/>
    <tag k="highway" v="residential"/>
    <tag k="name" v="Radcliff Avenue"/>
  </way>
  <way id="28222764" version="4" timestamp="2010-07-09T03:06:06Z" uid="74617" user="JohnSmith" changeset="5170713">
    <nd ref="309978945"/>
    <nd ref="707157984"/>
    <tag k="highway" v="residential"/>
    <tag k="maxspeed" v="50"/>
    <tag k="maxspeed:source" v="default residential speed limit in Australia"/>
    <tag k="name" v="Radcliff Avenue"/>
  </way>
  <way id="28222778" version="2" timestamp="2010-04-26T10:58:08Z" uid="4467" user="Rosscoe" changeset="4530575">
    <nd ref="309979077"/>
    <nd ref="707157968"/>
    <tag k="highway" v="residential"/>
    <tag k="name" v="Reeve Court"/>
  </way>
  <way id="28222778" version="3" timestamp="2010-07-09T03:07:29Z" uid="74617" user="JohnSmith" changeset="5170713">
    <nd ref="309979077"/>
    <nd ref="707157968"/>
    <tag k="highway" v="residential"/>
    <tag k="maxspeed" v="50"/>
    <tag k="maxspeed:source" v="default residential speed limit in Australia"/>
    <tag k="name" v="Reeve Court"/>
  </way>
  <way id="28222783" version="1" timestamp="2008-11-05T00:04:14Z" uid="30632" user="antblant" changeset="687931">
    <nd ref="302572461"/>
    <nd ref="302572459"/>
    <nd ref="302572457"/>
    <nd ref="302572473"/>
    <tag k="created_by" v="Potlatch 0.10f"/>
    <tag k="highway" v="residential"/>
    <tag k="name" v="Budziszyńska"/>
    <tag k="source" v="UMP-PL, ./UMP-Szczecin/src/SZCZECIN.ulice.txt"/>
  </way>
  <way id="28222783" version="2" timestamp="2008-11-05T00:04:22Z" uid="30632" user="antblant" changeset="687931">
    <nd ref="302572461"/>
    <nd ref="302572459"/>
    <nd ref="302572457"/>
    <nd ref="302572473"/>
    <tag k="created_by" v="Potlatch 0.10f"/>
    <tag k="highway" v="residential"/>
    <tag k="name" v="Budziszyńska"/>
  </way>
  <way id="28222783" version="3" timestamp="2009-11-03T01:40:59Z" uid="36809" user="pfoten_weg_!_" changeset="3021530">
    <nd ref="302572461"/>
    <nd ref="302572459"/>
    <nd ref="302572457"/>
    <nd ref="302572473"/>
    <tag k="highway" v="residential"/>
    <tag k="name" v="Budziszyńska"/>
  </way>
  <way id="28222784" version="1" timestamp="2008-11-05T00:04:24Z" uid="30632" user="antblant" changeset="687931">
    <nd ref="302572304"/>
    <nd ref="302572313"/>
    <tag k="created_by" v="Potlatch 0.10f"/>
    <tag k="highway" v="residential"/>
    <tag k="name" v="Boryny"/>
    <tag k="source" v="UMP-PL, ./UMP-Szczecin/src/SZCZECIN.ulice.txt"/>
  </way>
  <way id="28222784" version="2" timestamp="2009-11-03T01:41:29Z" uid="36809" user="pfoten_weg_!_" changeset="3021530">
    <nd ref="302572304"/>
    <nd ref="302572313"/>
    <tag k="highway" v="residential"/>
    <tag k="name" v="Boryny"/>
    <tag k="source" v="UMP-PL, ./UMP-Szczecin/src/SZCZECIN.ulice.txt"/>
  </way>
  <way id="28222784" version="3" timestamp="2010-04-26T23:50:24Z" uid="20587" user="balrog-kun" changeset="4537333">
    <nd ref="302572304"/>
    <nd ref="302572313"/>
    <nd ref="708273640"/>
    <nd ref="708275968"/>
    <nd ref="708276261"/>
    <tag k="highway" v="residential"/>
    <tag k="name" v="Boryny"/>
  </way>
  <way id="28222784" version="4" timestamp="2010-07-24T13:54:52Z" uid="20587" user="balrog-kun" changeset="5304120">
    <nd ref="302572304"/>
    <nd ref="302572313"/>
    <nd ref="708273640"/>
    <nd ref="831313139"/>
    <nd ref="708275968"/>
    <nd ref="708276261"/>
    <tag k="highway" v="residential"/>
    <tag k="name" v="Boryny"/>
  </way>
  <way id="28222785" version="2" timestamp="2010-07-09T03:09:16Z" uid="74617" user="JohnSmith" changeset="5170713">
    <nd ref="309979089"/>
    <nd ref="309979120"/>
    <tag k="highway" v="residential"/>
    <tag k="maxspeed" v="50"/>
    <tag k="maxspeed:source" v="default residential speed limit in Australia"/>
    <tag k="name" v="Chaprowe Court"/>
  </way>
  <way id="28222790" version="6" timestamp="2010-07-09T04:59:31Z" uid="74617" user="JohnSmith" changeset="5170972">
    <nd ref="309979105"/>
    <nd ref="370479395"/>
    <nd ref="309991302"/>
    <nd ref="309979139"/>
    <nd ref="370479304"/>
    <nd ref="370479305"/>
    <tag k="highway" v="residential"/>
    <tag k="maxspeed" v="50"/>
    <tag k="maxspeed:source" v="default residential speed limit in Australia"/>
    <tag k="name" v="Walpole Street"/>
    <tag k="source" v="Yahoo"/>
    <tag k="source:name" v="Collins 1936"/>
  </way>
  <way id="28222798" version="3" timestamp="2010-07-09T03:09:28Z" uid="74617" user="JohnSmith" changeset="5170713">
    <nd ref="309979136"/>
    <nd ref="309979243"/>
    <nd ref="309979185"/>
    <tag k="highway" v="residential"/>
    <tag k="maxspeed" v="50"/>
    <tag k="maxspeed:source" v="default residential speed limit in Australia"/>
    <tag k="name" v="Freda Avenue"/>
  </way>
  <way id="28222802" version="2" timestamp="2010-03-28T00:18:06Z" uid="20587" user="balrog-kun" changeset="4250871">
    <nd ref="57883619"/>
    <nd ref="309979205"/>
    <nd ref="309979208"/>
    <nd ref="309979209"/>
    <nd ref="57883619"/>
    <tag k="highway" v="residential"/>
    <tag k="name" v="Raleigh Court"/>
    <tag k="oneway" v="yes"/>
    <tag k="tiger:cfcc" v="A41"/>
    <tag k="tiger:county" v="Contra Costa, CA"/>
    <tag k="tiger:name_base" v="Raleigh"/>
    <tag k="tiger:name_type" v="Ct"/>
    <tag k="tiger:reviewed" v="no"/>
    <tag k="tiger:separated" v="no"/>
    <tag k="tiger:source" v="tiger_import_dch_v0.6_20070809"/>
    <tag k="tiger:tlid" v="192093309"/>
    <tag k="tiger:zip_left" v="94547"/>
    <tag k="tiger:zip_right" v="94547"/>
  </way>
  <way id="28222803" version="2" timestamp="2010-03-28T00:18:06Z" uid="20587" user="balrog-kun" changeset="4250871">
    <nd ref="57873054"/>
    <nd ref="309979194"/>
    <nd ref="309979195"/>
    <nd ref="309979196"/>
    <nd ref="309979197"/>
    <nd ref="57873054"/>
    <tag k="highway" v="residential"/>
    <tag k="name" v="Stanley Court"/>
    <tag k="oneway" v="yes"/>
    <tag k="tiger:cfcc" v="A41"/>
    <tag k="tiger:county" v="Contra Costa, CA"/>
    <tag k="tiger:name_base" v="Stanley"/>
    <tag k="tiger:name_type" v="Ct"/>
    <tag k="tiger:reviewed" v="no"/>
    <tag k="tiger:separated" v="no"/>
    <tag k="tiger:source" v="tiger_import_dch_v0.6_20070809"/>
    <tag k="tiger:tlid" v="192093306"/>
    <tag k="tiger:zip_left" v="94547"/>
    <tag k="tiger:zip_right" v="94547"/>
  </way>
  <way id="28222804" version="2" timestamp="2010-03-28T00:18:06Z" uid="20587" user="balrog-kun" changeset="4250871">
    <nd ref="309979188"/>
    <nd ref="309979189"/>
    <nd ref="309979191"/>
    <nd ref="309979192"/>
    <nd ref="309979188"/>
    <tag k="highway" v="residential"/>
    <tag k="name" v="Halsey Court"/>
    <tag k="oneway" v="yes"/>
    <tag k="tiger:cfcc" v="A41"/>
    <tag k="tiger:county" v="Contra Costa, CA"/>
    <tag k="tiger:name_base" v="Halsey"/>
    <tag k="tiger:name_type" v="Ct"/>
    <tag k="tiger:reviewed" v="no"/>
    <tag k="tiger:separated" v="no"/>
    <tag k="tiger:source" v="tiger_import_dch_v0.6_20070809"/>
    <tag k="tiger:tlid" v="192093303"/>
    <tag k="tiger:zip_left" v="94547"/>
    <tag k="tiger:zip_right" v="94547"/>
  </way>
  <way id="28222805" version="2" timestamp="2010-03-28T00:18:06Z" uid="20587" user="balrog-kun" changeset="4250871">
    <nd ref="57873708"/>
    <nd ref="309979222"/>
    <nd ref="309979223"/>
    <nd ref="309979224"/>
    <nd ref="57873708"/>
    <tag k="highway" v="residential"/>
    <tag k="name" v="Midship Drive"/>
    <tag k="oneway" v="yes"/>
    <tag k="tiger:cfcc" v="A41"/>
    <tag k="tiger:county" v="Contra Costa, CA"/>
    <tag k="tiger:name_base" v="Midship"/>
    <tag k="tiger:name_type" v="Dr"/>
    <tag k="tiger:reviewed" v="no"/>
    <tag k="tiger:separated" v="no"/>
    <tag k="tiger:source" v="tiger_import_dch_v0.6_20070809"/>
    <tag k="tiger:tlid" v="192093347"/>
    <tag k="tiger:zip_left" v="94547"/>
    <tag k="tiger:zip_left_1" v="94547"/>
  </way>
  <way id="28222810" version="4" timestamp="2010-07-09T03:09:53Z" uid="74617" user="JohnSmith" changeset="5170713">
    <nd ref="309979186"/>
    <nd ref="309979347"/>
    <nd ref="309979242"/>
    <nd ref="309979243"/>
    <nd ref="309979245"/>
    <nd ref="309979246"/>
    <nd ref="309979247"/>
    <tag k="highway" v="residential"/>
    <tag k="maxspeed" v="50"/>
    <tag k="maxspeed:source" v="default residential speed limit in Australia"/>
    <tag k="name" v="Leon Street"/>
  </way>
  <way id="28222823" version="3" timestamp="2010-07-09T03:10:52Z" uid="74617" user="JohnSmith" changeset="5170713">
    <nd ref="309979185"/>
    <nd ref="309979504"/>
    <nd ref="309979265"/>
    <nd ref="309979266"/>
    <nd ref="309979267"/>
    <nd ref="309979268"/>
    <tag k="highway" v="residential"/>
    <tag k="maxspeed" v="50"/>
    <tag k="maxspeed:source" v="default residential speed limit in Australia"/>
    <tag k="name" v="Reuben Street"/>
  </way>
  <way id="28222829" version="2" timestamp="2008-11-26T16:04:33Z" uid="6975" user="ulfl" changeset="797054">
    <nd ref="309979327"/>
    <nd ref="309979328"/>
    <nd ref="309979329"/>
    <nd ref="309979330"/>
    <nd ref="309979331"/>
    <nd ref="309979332"/>
    <nd ref="309979333"/>
    <nd ref="309979334"/>
    <nd ref="309979335"/>
    <nd ref="309979327"/>
    <tag k="amenity" v="parking"/>
  </way>
  <way id="28222832" version="2" timestamp="2010-07-09T03:08:17Z" uid="74617" user="JohnSmith" changeset="5170713">
    <nd ref="309979274"/>
    <nd ref="309979342"/>
    <nd ref="309979343"/>
    <nd ref="309979344"/>
    <nd ref="309979268"/>
    <tag k="highway" v="residential"/>
    <tag k="maxspeed" v="50"/>
    <tag k="maxspeed:source" v="default residential speed limit in Australia"/>
    <tag k="name" v="Weymar Street"/>
  </way>
  <way id="28222835" version="1" timestamp="2008-11-05T00:08:27Z" uid="30632" user="antblant" changeset="687931">
    <nd ref="254068862"/>
    <nd ref="267045686"/>
    <nd ref="267045687"/>
    <nd ref="309979374"/>
    <nd ref="267045689"/>
    <nd ref="309979376"/>
    <tag k="created_by" v="Potlatch 0.10f"/>
  </way>
  <way id="28222835" version="2" timestamp="2008-11-05T00:08:44Z" uid="30632" user="antblant" changeset="687931"/>
  <way id="28222836" version="2" timestamp="2010-07-09T03:06:29Z" uid="74617" user="JohnSmith" changeset="5170713">
    <nd ref="309979347"/>
    <nd ref="309979386"/>
    <nd ref="309979387"/>
    <nd ref="309979389"/>
    <nd ref="309979390"/>
    <nd ref="309979392"/>
    <nd ref="309979393"/>
    <nd ref="309979395"/>
    <nd ref="309979399"/>
    <nd ref="309979401"/>
    <nd ref="309979403"/>
    <tag k="highway" v="residential"/>
    <tag k="maxspeed" v="50"/>
    <tag k="maxspeed:source" v="default residential speed limit in Australia"/>
    <tag k="name" v="Kelmar Street"/>
  </way>
  <way id="28222843" version="2" timestamp="2010-07-09T03:09:12Z" uid="74617" user="JohnSmith" changeset="5170713">
    <nd ref="309979386"/>
    <nd ref="309979499"/>
    <nd ref="309979500"/>
    <nd ref="309979501"/>
    <tag k="highway" v="residential"/>
    <tag k="maxspeed" v="50"/>
    <tag k="maxspeed:source" v="default residential speed limit in Australia"/>
    <tag k="name" v="Harvey Court"/>
  </way>
  <way id="28222847" version="8" timestamp="2010-03-04T19:40:59Z" uid="137033" user="lubomir" changeset="4035592">
    <nd ref="267278412"/>
    <nd ref="267278413"/>
    <nd ref="253724777"/>
    <nd ref="429378672"/>
    <nd ref="253724776"/>
    <nd ref="273193755"/>
    <nd ref="253724775"/>
    <nd ref="253724774"/>
    <nd ref="253724773"/>
    <nd ref="253724772"/>
    <nd ref="253724771"/>
    <nd ref="253724770"/>
    <nd ref="410213644"/>
    <nd ref="253724769"/>
    <nd ref="253724768"/>
    <nd ref="253724767"/>
    <nd ref="253724766"/>
    <nd ref="253724765"/>
    <nd ref="253724764"/>
    <nd ref="253724763"/>
    <nd ref="253724762"/>
    <nd ref="253724761"/>
    <nd ref="253724760"/>
    <nd ref="253724759"/>
    <nd ref="253724758"/>
    <nd ref="253724757"/>
    <nd ref="253724756"/>
    <nd ref="253724755"/>
    <nd ref="433319653"/>
    <nd ref="253724754"/>
    <nd ref="253724753"/>
    <nd ref="253724752"/>
    <nd ref="253724751"/>
    <nd ref="253724750"/>
    <nd ref="253724749"/>
    <nd ref="253724748"/>
    <nd ref="253724747"/>
    <nd ref="253724746"/>
    <nd ref="253724745"/>
    <nd ref="253724744"/>
    <nd ref="253724743"/>
    <nd ref="253724742"/>
    <nd ref="273194369"/>
    <nd ref="253724741"/>
    <nd ref="410197824"/>
    <nd ref="273194358"/>
    <nd ref="253724740"/>
    <nd ref="429375148"/>
    <nd ref="253724739"/>
    <nd ref="253724738"/>
    <nd ref="253724737"/>
    <nd ref="253724736"/>
    <nd ref="253724735"/>
    <nd ref="253724734"/>
    <nd ref="253724733"/>
    <nd ref="660428765"/>
    <nd ref="253724732"/>
    <nd ref="253724731"/>
    <nd ref="253724730"/>
    <nd ref="253724729"/>
    <nd ref="410197754"/>
    <nd ref="253724728"/>
    <nd ref="253724727"/>
    <nd ref="253724726"/>
    <nd ref="253724725"/>
    <nd ref="253724724"/>
    <nd ref="253724723"/>
    <tag k="highway" v="trunk"/>
    <tag k="name" v="N-332"/>
    <tag k="ref" v="N-332"/>
  </way>
  <way id="28222855" version="2" timestamp="2010-07-09T03:10:00Z" uid="74617" user="JohnSmith" changeset="5170713">
    <nd ref="309979504"/>
    <nd ref="309979542"/>
    <tag k="highway" v="residential"/>
    <tag k="maxspeed" v="50"/>
    <tag k="maxspeed:source" v="default residential speed limit in Australia"/>
    <tag k="name" v="Parkin Avenue"/>
  </way>
  <way id="28222856" version="3" timestamp="2010-07-09T03:06:25Z" uid="74617" user="JohnSmith" changeset="5170713">
    <nd ref="309979267"/>
    <nd ref="309979544"/>
    <tag k="highway" v="residential"/>
    <tag k="maxspeed" v="50"/>
    <tag k="maxspeed:source" v="default residential speed limit in Australia"/>
    <tag k="name" v="Weymar Street"/>
  </way>
  <way id="28222858" version="1" timestamp="2008-11-05T00:09:49Z" uid="30632" user="antblant" changeset="687931">
    <nd ref="309979600"/>
    <nd ref="309979601"/>
    <tag k="created_by" v="Potlatch 0.10f"/>
  </way>
  <way id="28222858" version="2" timestamp="2008-11-05T00:10:21Z" uid="30632" user="antblant" changeset="687931"/>
  <way id="28222863" version="1" timestamp="2008-11-05T00:10:19Z" uid="30632" user="antblant" changeset="687931">
    <nd ref="309979543"/>
    <nd ref="309979612"/>
    <nd ref="309979600"/>
    <nd ref="309979601"/>
    <nd ref="309979613"/>
    <nd ref="309979614"/>
    <tag k="created_by" v="Potlatch 0.10f"/>
  </way>
  <way id="28222863" version="2" timestamp="2008-11-05T00:10:59Z" uid="30632" user="antblant" changeset="687931">
    <nd ref="309979543"/>
    <nd ref="309979612"/>
    <nd ref="309979600"/>
    <nd ref="309979601"/>
    <nd ref="309979613"/>
    <nd ref="309979614"/>
    <tag k="created_by" v="Potlatch 0.10f"/>
    <tag k="highway" v="primary"/>
    <tag k="name" v="Autostrada Poznańska"/>
    <tag k="oneway" v="yes"/>
    <tag k="ref" v="31"/>
  </way>
  <way id="28222863" version="3" timestamp="2008-11-05T00:11:45Z" uid="30632" user="antblant" changeset="687931">
    <nd ref="309979543"/>
    <nd ref="309979612"/>
    <nd ref="309979600"/>
    <nd ref="309979601"/>
    <nd ref="309979824"/>
    <nd ref="309979613"/>
    <nd ref="309979614"/>
    <tag k="created_by" v="Potlatch 0.10f"/>
    <tag k="highway" v="primary"/>
    <tag k="name" v="Autostrada Poznańska"/>
    <tag k="oneway" v="yes"/>
    <tag k="ref" v="31"/>
  </way>
  <way id="28222863" version="4" timestamp="2008-11-05T00:34:14Z" uid="30632" user="antblant" changeset="687931">
    <nd ref="309979543"/>
    <nd ref="309979612"/>
    <nd ref="309979600"/>
    <nd ref="309984402"/>
    <nd ref="309979601"/>
    <nd ref="309979824"/>
    <nd ref="309979613"/>
    <nd ref="309979614"/>
    <tag k="created_by" v="Potlatch 0.10f"/>
    <tag k="highway" v="primary"/>
    <tag k="name" v="Autostrada Poznańska"/>
    <tag k="oneway" v="yes"/>
    <tag k="ref" v="31"/>
  </way>
  <way id="28222863" version="5" timestamp="2008-11-05T00:34:32Z" uid="30632" user="antblant" changeset="687931">
    <nd ref="309979543"/>
    <nd ref="309979612"/>
    <nd ref="309979600"/>
    <nd ref="309984402"/>
    <nd ref="309979601"/>
    <nd ref="309979824"/>
    <nd ref="309979613"/>
    <nd ref="309979614"/>
    <tag k="created_by" v="Potlatch 0.10f"/>
    <tag k="highway" v="primary"/>
    <tag k="name" v="Autostrada Poznańska"/>
    <tag k="oneway" v="yes"/>
    <tag k="ref" v="31"/>
  </way>
  <way id="28222863" version="6" timestamp="2008-11-05T00:36:22Z" uid="30632" user="antblant" changeset="687931">
    <nd ref="309979543"/>
    <nd ref="309979612"/>
    <nd ref="309979600"/>
    <nd ref="309984714"/>
    <nd ref="309984402"/>
    <nd ref="309979601"/>
    <nd ref="309979824"/>
    <nd ref="309979613"/>
    <nd ref="309979614"/>
    <tag k="created_by" v="Potlatch 0.10f"/>
    <tag k="highway" v="primary"/>
    <tag k="name" v="Autostrada Poznańska"/>
    <tag k="oneway" v="yes"/>
    <tag k="ref" v="31"/>
  </way>
  <way id="28222863" version="7" timestamp="2009-04-13T09:17:09Z" uid="30632" user="antblant" changeset="475237">
    <nd ref="309979543"/>
    <nd ref="309979612"/>
    <nd ref="309979600"/>
    <nd ref="309984714"/>
    <nd ref="309984402"/>
    <nd ref="309979601"/>
    <nd ref="309979824"/>
    <nd ref="309979613"/>
    <nd ref="309979614"/>
    <tag k="created_by" v="Potlatch 0.10f"/>
    <tag k="highway" v="primary"/>
    <tag k="name" v="Autostrada Poznańska"/>
    <tag k="oneway" v="yes"/>
    <tag k="ref" v="31"/>
  </way>
  <way id="28222863" version="8" timestamp="2009-04-21T22:42:33Z" uid="30632" user="antblant" changeset="890110">
    <nd ref="309979543"/>
    <nd ref="379938930"/>
    <nd ref="309979612"/>
    <nd ref="309979600"/>
    <nd ref="309984714"/>
    <nd ref="309984402"/>
    <nd ref="309979601"/>
    <nd ref="309979824"/>
    <nd ref="309979613"/>
    <nd ref="309979614"/>
    <tag k="created_by" v="Potlatch 0.10f"/>
    <tag k="highway" v="primary"/>
    <tag k="name" v="Autostrada Poznańska"/>
    <tag k="oneway" v="yes"/>
    <tag k="ref" v="31"/>
  </way>
  <way id="28222863" version="9" timestamp="2009-11-03T01:39:57Z" uid="36809" user="pfoten_weg_!_" changeset="3021530">
    <nd ref="309979543"/>
    <nd ref="379938930"/>
    <nd ref="309979612"/>
    <nd ref="309979600"/>
    <nd ref="309984714"/>
    <nd ref="309984402"/>
    <nd ref="309979601"/>
    <nd ref="309979824"/>
    <nd ref="309979613"/>
    <nd ref="309979614"/>
    <tag k="highway" v="primary"/>
    <tag k="name" v="Autostrada Poznańska"/>
    <tag k="oneway" v="yes"/>
    <tag k="ref" v="31"/>
  </way>
  <way id="28222864" version="3" timestamp="2010-07-09T03:07:19Z" uid="74617" user="JohnSmith" changeset="5170713">
    <nd ref="309976373"/>
    <nd ref="769479650"/>
    <nd ref="769479648"/>
    <nd ref="769479645"/>
    <nd ref="769479643"/>
    <nd ref="309979642"/>
    <tag k="highway" v="residential"/>
    <tag k="maxspeed" v="50"/>
    <tag k="maxspeed:source" v="default residential speed limit in Australia"/>
    <tag k="name" v="Jelicoe Street"/>
  </way>
  <way id="28222867" version="1" timestamp="2008-11-05T00:10:45Z" uid="30632" user="antblant" changeset="687931">
    <nd ref="309979614"/>
    <nd ref="302573760"/>
    <nd ref="302574347"/>
    <nd ref="302574309"/>
    <nd ref="254060810"/>
    <nd ref="254060825"/>
    <nd ref="254060823"/>
    <tag k="created_by" v="Potlatch 0.10f"/>
    <tag k="highway" v="primary"/>
    <tag k="name" v="Autostrada Poznańska"/>
    <tag k="ref" v="31"/>
  </way>
  <way id="28222867" version="2" timestamp="2008-11-05T00:10:55Z" uid="30632" user="antblant" changeset="687931">
    <nd ref="309979614"/>
    <nd ref="302573760"/>
    <nd ref="302574347"/>
    <nd ref="302574309"/>
    <nd ref="254060810"/>
    <nd ref="254060825"/>
    <nd ref="254060823"/>
    <tag k="created_by" v="Potlatch 0.10f"/>
    <tag k="highway" v="primary"/>
    <tag k="name" v="Autostrada Poznańska"/>
    <tag k="oneway" v="yes"/>
    <tag k="ref" v="31"/>
  </way>
  <way id="28222867" version="3" timestamp="2008-11-05T00:11:23Z" uid="30632" user="antblant" changeset="687931">
    <nd ref="309979614"/>
    <nd ref="302573760"/>
    <nd ref="302574347"/>
    <nd ref="302574309"/>
    <nd ref="254060810"/>
    <nd ref="254060825"/>
    <nd ref="254060823"/>
    <tag k="created_by" v="Potlatch 0.10f"/>
    <tag k="highway" v="primary"/>
    <tag k="name" v="Autostrada Poznańska"/>
    <tag k="oneway" v="yes"/>
    <tag k="ref" v="31"/>
  </way>
  <way id="28222867" version="4" timestamp="2008-11-05T00:12:46Z" uid="30632" user="antblant" changeset="687931">
    <nd ref="309979614"/>
    <nd ref="302573760"/>
    <nd ref="302574347"/>
    <nd ref="302574309"/>
    <nd ref="254060810"/>
    <nd ref="254060825"/>
    <nd ref="254060823"/>
    <tag k="created_by" v="Potlatch 0.10f"/>
    <tag k="highway" v="primary"/>
    <tag k="name" v="Autostrada Poznańska"/>
    <tag k="oneway" v="yes"/>
    <tag k="ref" v="31"/>
  </way>
  <way id="28222867" version="5" timestamp="2008-11-05T00:28:17Z" uid="30632" user="antblant" changeset="687931">
    <nd ref="309979614"/>
    <nd ref="302573760"/>
    <nd ref="302574347"/>
    <nd ref="302574309"/>
    <nd ref="254060810"/>
    <nd ref="254060825"/>
    <nd ref="254060823"/>
    <tag k="created_by" v="Potlatch 0.10f"/>
    <tag k="highway" v="primary"/>
    <tag k="name" v="Autostrada Poznańska"/>
    <tag k="oneway" v="yes"/>
    <tag k="ref" v="31"/>
  </way>
  <way id="28222867" version="6" timestamp="2008-11-05T00:28:53Z" uid="30632" user="antblant" changeset="687931">
    <nd ref="309979614"/>
    <nd ref="302573760"/>
    <nd ref="302574347"/>
    <nd ref="302574309"/>
    <nd ref="309982884"/>
    <nd ref="254060810"/>
    <nd ref="254060825"/>
    <nd ref="254060823"/>
    <tag k="created_by" v="Potlatch 0.10f"/>
    <tag k="highway" v="primary"/>
    <tag k="name" v="Autostrada Poznańska"/>
    <tag k="oneway" v="yes"/>
    <tag k="ref" v="31"/>
  </way>
  <way id="28222867" version="7" timestamp="2008-11-05T00:29:07Z" uid="30632" user="antblant" changeset="687931">
    <nd ref="309979614"/>
    <nd ref="302573760"/>
    <nd ref="302574347"/>
    <nd ref="302574309"/>
    <nd ref="309982884"/>
    <nd ref="254060825"/>
    <nd ref="254060823"/>
    <tag k="created_by" v="Potlatch 0.10f"/>
    <tag k="highway" v="primary"/>
    <tag k="name" v="Autostrada Poznańska"/>
    <tag k="oneway" v="yes"/>
    <tag k="ref" v="31"/>
  </way>
  <way id="28222867" version="8" timestamp="2008-11-05T00:30:14Z" uid="30632" user="antblant" changeset="687931">
    <nd ref="309979614"/>
    <nd ref="302573760"/>
    <nd ref="302574347"/>
    <nd ref="302574309"/>
    <nd ref="309983247"/>
    <nd ref="309982884"/>
    <nd ref="254060825"/>
    <nd ref="254060823"/>
    <tag k="created_by" v="Potlatch 0.10f"/>
    <tag k="highway" v="primary"/>
    <tag k="name" v="Autostrada Poznańska"/>
    <tag k="oneway" v="yes"/>
    <tag k="ref" v="31"/>
  </way>
  <way id="28222867" version="9" timestamp="2008-11-05T00:34:57Z" uid="30632" user="antblant" changeset="687931">
    <nd ref="309979614"/>
    <nd ref="302573760"/>
    <nd ref="302574347"/>
    <nd ref="302574309"/>
    <nd ref="309983247"/>
    <nd ref="309984618"/>
    <nd ref="309982884"/>
    <nd ref="254060825"/>
    <nd ref="254060823"/>
    <tag k="created_by" v="Potlatch 0.10f"/>
    <tag k="highway" v="primary"/>
    <tag k="name" v="Autostrada Poznańska"/>
    <tag k="oneway" v="yes"/>
    <tag k="ref" v="31"/>
  </way>
  <way id="28222867" version="10" timestamp="2008-11-05T00:35:59Z" uid="30632" user="antblant" changeset="687931">
    <nd ref="309979614"/>
    <nd ref="302573760"/>
    <nd ref="302574347"/>
    <nd ref="302574309"/>
    <nd ref="309983247"/>
    <nd ref="309984618"/>
    <nd ref="309984698"/>
    <nd ref="309982884"/>
    <nd ref="254060825"/>
    <nd ref="254060823"/>
    <tag k="created_by" v="Potlatch 0.10f"/>
    <tag k="highway" v="primary"/>
    <tag k="name" v="Autostrada Poznańska"/>
    <tag k="oneway" v="yes"/>
    <tag k="ref" v="31"/>
  </way>
  <way id="28222867" version="11" timestamp="2008-11-05T00:36:26Z" uid="30632" user="antblant" changeset="687931">
    <nd ref="309979614"/>
    <nd ref="302573760"/>
    <nd ref="302574347"/>
    <nd ref="302574309"/>
    <nd ref="309983247"/>
    <nd ref="309984618"/>
    <nd ref="309984698"/>
    <nd ref="309982884"/>
    <nd ref="254060825"/>
    <nd ref="254060823"/>
    <tag k="created_by" v="Potlatch 0.10f"/>
    <tag k="highway" v="primary"/>
    <tag k="name" v="Autostrada Poznańska"/>
    <tag k="oneway" v="yes"/>
    <tag k="ref" v="31"/>
  </way>
  <way id="28222867" version="12" timestamp="2009-03-23T00:29:21Z" uid="30632" user="antblant" changeset="847345">
    <nd ref="309979614"/>
    <nd ref="302573760"/>
    <nd ref="302574347"/>
    <nd ref="302574309"/>
    <nd ref="309983247"/>
    <nd ref="309984618"/>
    <nd ref="309984698"/>
    <nd ref="309982884"/>
    <nd ref="254060825"/>
    <nd ref="364858353"/>
    <nd ref="254060823"/>
    <tag k="created_by" v="Potlatch 0.10f"/>
    <tag k="highway" v="primary"/>
    <tag k="name" v="Autostrada Poznańska"/>
    <tag k="oneway" v="yes"/>
    <tag k="ref" v="31"/>
  </way>
  <way id="28222867" version="13" timestamp="2009-11-03T01:39:56Z" uid="36809" user="pfoten_weg_!_" changeset="3021530">
    <nd ref="309979614"/>
    <nd ref="302573760"/>
    <nd ref="302574347"/>
    <nd ref="302574309"/>
    <nd ref="309983247"/>
    <nd ref="309984618"/>
    <nd ref="309984698"/>
    <nd ref="309982884"/>
    <nd ref="254060825"/>
    <nd ref="364858353"/>
    <nd ref="254060823"/>
    <tag k="highway" v="primary"/>
    <tag k="name" v="Autostrada Poznańska"/>
    <tag k="oneway" v="yes"/>
    <tag k="ref" v="31"/>
  </way>
  <way id="28222872" version="2" timestamp="2010-07-09T03:10:38Z" uid="74617" user="JohnSmith" changeset="5170713">
    <nd ref="309979716"/>
    <nd ref="309979780"/>
    <nd ref="309979781"/>
    <nd ref="309979782"/>
    <nd ref="309979783"/>
    <tag k="highway" v="residential"/>
    <tag k="maxspeed" v="50"/>
    <tag k="maxspeed:source" v="default residential speed limit in Australia"/>
    <tag k="name" v="Sunray Avenue"/>
  </way>
  <way id="28222879" version="5" timestamp="2010-04-26T09:10:52Z" uid="4467" user="Rosscoe" changeset="4529747">
    <nd ref="309976374"/>
    <nd ref="309979935"/>
    <nd ref="309980096"/>
    <nd ref="309980118"/>
    <nd ref="309979846"/>
    <nd ref="707059310"/>
    <tag k="highway" v="residential"/>
    <tag k="name" v="Silver Street"/>
  </way>
  <way id="28222879" version="6" timestamp="2010-07-09T03:06:41Z" uid="74617" user="JohnSmith" changeset="5170713">
    <nd ref="309976374"/>
    <nd ref="309979935"/>
    <nd ref="309980096"/>
    <nd ref="309980118"/>
    <nd ref="309979846"/>
    <nd ref="707059310"/>
    <tag k="highway" v="residential"/>
    <tag k="maxspeed" v="50"/>
    <tag k="maxspeed:source" v="default residential speed limit in Australia"/>
    <tag k="name" v="Silver Street"/>
  </way>
  <way id="28222889" version="2" timestamp="2010-07-09T03:05:39Z" uid="74617" user="JohnSmith" changeset="5170713">
    <nd ref="309979846"/>
    <nd ref="309979929"/>
    <tag k="highway" v="residential"/>
    <tag k="maxspeed" v="50"/>
    <tag k="maxspeed:source" v="default residential speed limit in Australia"/>
    <tag k="name" v="Jedda Court"/>
  </way>
  <way id="28222898" version="2" timestamp="2010-07-09T03:10:35Z" uid="74617" user="JohnSmith" changeset="5170713">
    <nd ref="309979935"/>
    <nd ref="309980049"/>
    <nd ref="309980051"/>
    <tag k="highway" v="residential"/>
    <tag k="maxspeed" v="50"/>
    <tag k="maxspeed:source" v="default residential speed limit in Australia"/>
    <tag k="name" v="Classon Court"/>
  </way>
  <way id="28222908" version="5" timestamp="2010-05-17T21:59:44Z" uid="9581" user="Lobelt" changeset="4734013">
    <nd ref="27376743"/>
    <nd ref="27427976"/>
    <nd ref="27427977"/>
    <nd ref="27427978"/>
    <nd ref="265627005"/>
    <nd ref="27427979"/>
    <nd ref="81497925"/>
    <nd ref="27427980"/>
    <nd ref="27427981"/>
    <nd ref="27427982"/>
    <nd ref="249626153"/>
    <nd ref="27427983"/>
    <nd ref="27427984"/>
    <nd ref="27427985"/>
    <nd ref="27427986"/>
    <nd ref="738112659"/>
    <nd ref="27427987"/>
    <nd ref="27427988"/>
    <nd ref="27427989"/>
    <nd ref="27427990"/>
    <nd ref="582138232"/>
    <tag k="highway" v="primary"/>
    <tag k="lanes" v="2"/>
    <tag k="maxspeed" v="50"/>
    <tag k="oneway" v="yes"/>
    <tag k="ref" v="B 44"/>
  </way>
  <way id="28222908" version="6" timestamp="2011-01-29T20:25:25Z" uid="9581" user="Lobelt" changeset="7126894">
    <nd ref="27376743"/>
    <nd ref="1126774401"/>
    <nd ref="27427976"/>
    <nd ref="1126774425"/>
    <nd ref="1126774486"/>
    <tag k="highway" v="primary"/>
    <tag k="lanes" v="2"/>
    <tag k="maxspeed" v="50"/>
    <tag k="oneway" v="yes"/>
    <tag k="ref" v="B 44"/>
  </way>
  <way id="28222913" version="3" timestamp="2010-07-09T03:10:17Z" uid="74617" user="JohnSmith" changeset="5170713">
    <nd ref="309980062"/>
    <nd ref="309980112"/>
    <nd ref="309980113"/>
    <nd ref="309980117"/>
    <nd ref="309980121"/>
    <nd ref="309980114"/>
    <tag k="highway" v="residential"/>
    <tag k="maxspeed" v="50"/>
    <tag k="maxspeed:source" v="default residential speed limit in Australia"/>
    <tag k="name" v="Baringhup Street"/>
  </way>
  <way id="28222914" version="2" timestamp="2010-07-09T03:08:54Z" uid="74617" user="JohnSmith" changeset="5170713">
    <nd ref="309980096"/>
    <nd ref="309980117"/>
    <tag k="highway" v="residential"/>
    <tag k="maxspeed" v="50"/>
    <tag k="maxspeed:source" v="default residential speed limit in Australia"/>
    <tag k="name" v="Gold Street"/>
  </way>
  <way id="28222924" version="2" timestamp="2010-07-09T03:09:40Z" uid="74617" user="JohnSmith" changeset="5170713">
    <nd ref="309980118"/>
    <nd ref="309980151"/>
    <nd ref="309980152"/>
    <nd ref="309980121"/>
    <tag k="highway" v="residential"/>
    <tag k="maxspeed" v="50"/>
    <tag k="maxspeed:source" v="default residential speed limit in Australia"/>
    <tag k="name" v="Punkett Street"/>
  </way>
  <way id="28222928" version="2" timestamp="2009-10-19T21:02:17Z" uid="36809" user="pfoten_weg_!_" changeset="2898607">
    <nd ref="309980161"/>
    <nd ref="309980257"/>
    <nd ref="309980251"/>
    <nd ref="309980246"/>
    <nd ref="309980240"/>
    <nd ref="309980232"/>
    <nd ref="309980223"/>
    <nd ref="309980218"/>
    <nd ref="309980203"/>
    <nd ref="309980183"/>
    <nd ref="309980169"/>
    <nd ref="309980162"/>
    <nd ref="309980161"/>
    <tag k="name" v="Grünsee"/>
    <tag k="natural" v="water"/>
  </way>
  <way id="28222930" version="1" timestamp="2008-11-05T00:16:02Z" uid="36809" user="pfoten_weg_!_" changeset="683734">
    <nd ref="309980160"/>
    <nd ref="309980248"/>
    <nd ref="309980239"/>
    <nd ref="309980157"/>
    <nd ref="309980163"/>
    <nd ref="309980215"/>
    <nd ref="309980231"/>
    <nd ref="309980220"/>
    <nd ref="309980185"/>
    <nd ref="309980225"/>
    <nd ref="309980245"/>
    <nd ref="309980171"/>
    <nd ref="309980160"/>
    <tag k="building" v="yes"/>
    <tag k="created_by" v="RambaZamba"/>
    <tag k="source" v="landsat"/>
  </way>
  <way id="28222930" version="7" timestamp="2008-11-18T21:45:27Z" uid="36809" user="pfoten_weg_!_" changeset="765700"/>
  <way id="28222931" version="1" timestamp="2008-11-05T00:16:03Z" uid="36809" user="pfoten_weg_!_" changeset="683734">
    <nd ref="309980262"/>
    <nd ref="309980254"/>
    <nd ref="309980273"/>
    <nd ref="309980275"/>
    <nd ref="309980262"/>
    <tag k="building" v="yes"/>
    <tag k="created_by" v="RambaZamba"/>
    <tag k="source" v="landsat"/>
  </way>
  <way id="28222931" version="2" timestamp="2008-11-18T21:54:31Z" uid="36809" user="pfoten_weg_!_" changeset="765700"/>
  <way id="28222938" version="1" timestamp="2008-11-05T00:16:46Z" uid="30632" user="antblant" changeset="687931">
    <nd ref="302572256"/>
    <nd ref="302572260"/>
    <nd ref="302572251"/>
    <nd ref="302572254"/>
    <tag k="created_by" v="Potlatch 0.10f"/>
    <tag k="highway" v="tertiary"/>
    <tag k="name" v="Ustowska"/>
  </way>
  <way id="28222938" version="2" timestamp="2009-04-21T22:42:32Z" uid="30632" user="antblant" changeset="890110">
    <nd ref="302572256"/>
    <nd ref="379938999"/>
    <nd ref="302572260"/>
    <nd ref="302572251"/>
    <nd ref="302572254"/>
    <tag k="created_by" v="Potlatch 0.10f"/>
    <tag k="highway" v="tertiary"/>
    <tag k="name" v="Ustowska"/>
  </way>
  <way id="28222938" version="3" timestamp="2009-11-03T01:40:14Z" uid="36809" user="pfoten_weg_!_" changeset="3021530">
    <nd ref="302572256"/>
    <nd ref="379938999"/>
    <nd ref="302572260"/>
    <nd ref="302572251"/>
    <nd ref="302572254"/>
    <tag k="highway" v="tertiary"/>
    <tag k="name" v="Ustowska"/>
  </way>
  <way id="28222960" version="1" timestamp="2008-11-05T00:18:44Z" uid="30632" user="antblant" changeset="687931">
    <nd ref="309979824"/>
    <nd ref="302572048"/>
    <nd ref="302574227"/>
    <nd ref="302574230"/>
    <nd ref="302574347"/>
    <nd ref="302572340"/>
    <nd ref="302572342"/>
    <tag k="created_by" v="Potlatch 0.10f"/>
    <tag k="highway" v="tertiary"/>
    <tag k="name" v="Ustowska"/>
    <tag k="oneway" v="yes"/>
  </way>
  <way id="28222960" version="2" timestamp="2009-11-03T01:39:56Z" uid="36809" user="pfoten_weg_!_" changeset="3021530">
    <nd ref="309979824"/>
    <nd ref="302572048"/>
    <nd ref="302574227"/>
    <nd ref="302574230"/>
    <nd ref="302574347"/>
    <nd ref="302572340"/>
    <nd ref="302572342"/>
    <tag k="highway" v="tertiary"/>
    <tag k="name" v="Ustowska"/>
    <tag k="oneway" v="yes"/>
  </way>
  <way id="28222960" version="3" timestamp="2010-03-11T19:56:27Z" uid="30632" user="antblant" changeset="4100829">
    <nd ref="309979824"/>
    <nd ref="302572048"/>
    <nd ref="302574230"/>
    <nd ref="302574347"/>
    <nd ref="302572340"/>
    <nd ref="302572342"/>
    <tag k="highway" v="tertiary"/>
    <tag k="name" v="Ustowska"/>
    <tag k="oneway" v="yes"/>
  </way>
  <way id="28222973" version="1" timestamp="2008-11-05T00:19:17Z" uid="30632" user="antblant" changeset="687931">
    <nd ref="309979824"/>
    <nd ref="309980619"/>
    <nd ref="302574309"/>
    <tag k="created_by" v="Potlatch 0.10f"/>
    <tag k="highway" v="tertiary"/>
    <tag k="name" v="Ustowska"/>
    <tag k="oneway" v="yes"/>
  </way>
  <way id="28222973" version="2" timestamp="2009-11-03T01:40:13Z" uid="36809" user="pfoten_weg_!_" changeset="3021530">
    <nd ref="309979824"/>
    <nd ref="309980619"/>
    <nd ref="302574309"/>
    <tag k="highway" v="tertiary"/>
    <tag k="name" v="Ustowska"/>
    <tag k="oneway" v="yes"/>
  </way>
  <way id="28222991" version="17" timestamp="2010-04-26T09:10:55Z" uid="4467" user="Rosscoe" changeset="4529747">
    <nd ref="623040965"/>
    <nd ref="309980546"/>
    <nd ref="309980666"/>
    <nd ref="326237044"/>
    <nd ref="326236335"/>
    <nd ref="707059535"/>
    <tag k="highway" v="residential"/>
    <tag k="name" v="Herald Street"/>
  </way>
  <way id="28222991" version="18" timestamp="2010-07-09T03:10:06Z" uid="74617" user="JohnSmith" changeset="5170713">
    <nd ref="623040965"/>
    <nd ref="309980546"/>
    <nd ref="309980666"/>
    <nd ref="326237044"/>
    <nd ref="326236335"/>
    <nd ref="707059535"/>
    <tag k="highway" v="residential"/>
    <tag k="maxspeed" v="50"/>
    <tag k="maxspeed:source" v="default residential speed limit in Australia"/>
    <tag k="name" v="Herald Street"/>
  </way>
</osm>
