<?xml version='1.0' encoding='UTF-8'?>
<osm version="0.6" generator="libosmium/2.20.0">
  <way id="28333001" version="4" timestamp="2009-09-30T14:02:49Z" uid="36809" user="pfoten_weg_!_" changeset="2688655">
    <nd ref="311143237"/>
    <nd ref="311143410"/>
    <nd ref="311143412"/>
    <nd ref="311143415"/>
    <nd ref="311143613"/>
    <tag k="highway" v="track"/>
  </way>
  <way id="28333015" version="4" timestamp="2009-01-02T21:10:15Z" uid="43863" user="Rundling" changeset="713869">
    <nd ref="187167511"/>
    <nd ref="311143626"/>
    <nd ref="311143627"/>
    <nd ref="324754560"/>
    <nd ref="324754566"/>
    <nd ref="324754563"/>
    <nd ref="311143628"/>
    <nd ref="311143629"/>
    <tag k="created_by" v="Potlatch 0.10f"/>
    <tag k="highway" v="service"/>
  </way>
  <way id="28333015" version="5" timestamp="2009-06-11T06:15:28Z" uid="43863" user="Rundling" changeset="1483756">
    <nd ref="187167511"/>
    <nd ref="311143626"/>
    <nd ref="311143627"/>
    <nd ref="418599322"/>
    <nd ref="324754560"/>
    <nd ref="324754563"/>
    <nd ref="311143628"/>
    <nd ref="311143629"/>
    <tag k="created_by" v="Potlatch 0.10f"/>
    <tag k="highway" v="service"/>
  </way>
  <way id="28333018" version="3" timestamp="2009-09-30T14:02:51Z" uid="36809" user="pfoten_weg_!_" changeset="2688655">
    <nd ref="311143533"/>
    <nd ref="311143633"/>
    <nd ref="311143634"/>
    <nd ref="311143635"/>
    <nd ref="311143636"/>
    <nd ref="311143613"/>
    <nd ref="311143637"/>
    <tag k="highway" v="track"/>
  </way>
  <way id="28333046" version="3" timestamp="2009-09-30T14:02:55Z" uid="36809" user="pfoten_weg_!_" changeset="2688655">
    <nd ref="311143877"/>
    <nd ref="311143986"/>
    <nd ref="311143987"/>
    <nd ref="311143988"/>
    <nd ref="311143990"/>
    <nd ref="311143991"/>
    <nd ref="311144219"/>
    <tag k="highway" v="track"/>
  </way>
  <way id="28333049" version="2" timestamp="2009-09-30T14:02:56Z" uid="36809" user="pfoten_weg_!_" changeset="2688655">
    <nd ref="311143876"/>
    <nd ref="311144023"/>
    <nd ref="311144024"/>
    <nd ref="311144025"/>
    <nd ref="311144026"/>
    <tag k="highway" v="track"/>
  </way>
  <way id="28333086" version="2" timestamp="2009-05-06T21:15:48Z" uid="49111" user="Markus B" changeset="1101989">
    <nd ref="311144311"/>
    <nd ref="311144317"/>
    <nd ref="311144319"/>
    <nd ref="311144324"/>
    <nd ref="311144333"/>
    <nd ref="311144336"/>
    <nd ref="311144341"/>
    <nd ref="311144344"/>
    <nd ref="311144347"/>
    <nd ref="311144351"/>
    <nd ref="311144355"/>
    <nd ref="311144360"/>
    <nd ref="311144364"/>
    <nd ref="311144368"/>
    <nd ref="311144371"/>
    <nd ref="311144378"/>
    <nd ref="311144384"/>
    <nd ref="311144387"/>
    <nd ref="311144389"/>
    <nd ref="311144392"/>
    <nd ref="311144396"/>
    <nd ref="311144404"/>
    <nd ref="311144413"/>
    <nd ref="311144422"/>
    <nd ref="311144426"/>
    <nd ref="311144430"/>
    <nd ref="311144433"/>
    <nd ref="311144434"/>
    <nd ref="311144436"/>
    <nd ref="311144438"/>
    <nd ref="311144440"/>
    <nd ref="311144442"/>
    <nd ref="311144445"/>
    <nd ref="311144450"/>
    <nd ref="311144459"/>
    <nd ref="311144468"/>
    <nd ref="311144475"/>
    <nd ref="311144482"/>
    <nd ref="311144487"/>
    <nd ref="311144513"/>
    <nd ref="311144530"/>
    <nd ref="311144540"/>
    <nd ref="311144555"/>
    <nd ref="302084192"/>
    <nd ref="311144565"/>
    <nd ref="311144569"/>
    <nd ref="302084194"/>
    <nd ref="311144576"/>
    <nd ref="311144587"/>
    <nd ref="311144591"/>
    <nd ref="311144593"/>
    <nd ref="311144599"/>
    <nd ref="311144607"/>
    <nd ref="311144612"/>
    <nd ref="311144624"/>
    <nd ref="311144632"/>
    <nd ref="311144641"/>
    <nd ref="311144650"/>
    <nd ref="311144669"/>
    <nd ref="311144676"/>
    <nd ref="311144680"/>
    <nd ref="311144691"/>
    <nd ref="311144706"/>
    <nd ref="311144710"/>
    <nd ref="311144714"/>
    <nd ref="311144718"/>
    <nd ref="311144723"/>
    <nd ref="311144734"/>
    <nd ref="311144742"/>
    <nd ref="311144752"/>
    <nd ref="311144755"/>
    <nd ref="311144759"/>
    <nd ref="311144768"/>
    <nd ref="311144779"/>
    <nd ref="311144311"/>
    <tag k="landuse" v="forest"/>
  </way>
  <way id="28333171" version="7" timestamp="2008-11-26T16:09:22Z" uid="6975" user="ulfl" changeset="797054">
    <nd ref="311144398"/>
    <nd ref="311145125"/>
    <nd ref="312534665"/>
    <tag k="bicycle" v="yes"/>
    <tag k="highway" v="footway"/>
    <tag k="name" v="Am Kornhaus"/>
  </way>
  <way id="28333197" version="1" timestamp="2008-11-10T20:12:27Z" uid="20587" user="balrog-kun" changeset="729925">
    <nd ref="311145158"/>
    <nd ref="311145159"/>
    <nd ref="311145160"/>
    <nd ref="311145161"/>
    <nd ref="311145162"/>
    <nd ref="311145163"/>
    <nd ref="311145164"/>
    <nd ref="311145165"/>
    <nd ref="311145166"/>
    <nd ref="311145167"/>
    <nd ref="311145168"/>
    <nd ref="311145169"/>
    <nd ref="311145171"/>
    <nd ref="311145172"/>
    <nd ref="311145173"/>
    <nd ref="311145174"/>
    <nd ref="311145175"/>
    <nd ref="311145176"/>
    <nd ref="311145158"/>
    <tag k="landuse" v="reservoir"/>
  </way>
  <way id="28333198" version="1" timestamp="2008-11-10T20:12:28Z" uid="20587" user="balrog-kun" changeset="729925">
    <nd ref="131673827"/>
    <nd ref="131673829"/>
    <nd ref="131672737"/>
    <tag k="created_by" v="Potlatch 0.5d"/>
    <tag k="highway" v="residential"/>
  </way>
  <way id="28333198" version="2" timestamp="2009-05-28T11:35:00Z" uid="20587" user="balrog-kun" changeset="1341971">
    <nd ref="131673827"/>
    <nd ref="131673829"/>
    <nd ref="131672737"/>
    <tag k="created_by" v="Potlatch 0.5d"/>
    <tag k="highway" v="residential"/>
    <tag k="name" v="Rynkowa"/>
  </way>
  <way id="28333199" version="1" timestamp="2008-11-10T20:12:29Z" uid="20587" user="balrog-kun" changeset="729925">
    <nd ref="311145179"/>
    <nd ref="311145181"/>
    <nd ref="311145182"/>
    <nd ref="311145180"/>
    <nd ref="311145179"/>
    <tag k="leisure" v="common"/>
  </way>
  <way id="28333200" version="1" timestamp="2008-11-10T20:12:30Z" uid="20587" user="balrog-kun" changeset="729925">
    <nd ref="311145183"/>
    <nd ref="311145184"/>
    <nd ref="311145185"/>
    <nd ref="311145186"/>
    <nd ref="311145188"/>
    <nd ref="311145189"/>
    <nd ref="311145190"/>
    <nd ref="311145183"/>
    <tag k="leisure" v="park"/>
  </way>
  <way id="28333201" version="1" timestamp="2008-11-10T20:12:31Z" uid="20587" user="balrog-kun" changeset="729925">
    <nd ref="311145193"/>
    <nd ref="311145191"/>
    <nd ref="302685137"/>
    <nd ref="302685140"/>
    <nd ref="311145193"/>
    <tag k="addr:housenumber" v="5a"/>
    <tag k="addr:street" v="Siennicka"/>
    <tag k="building" v="yes"/>
  </way>
  <way id="28333203" version="1" timestamp="2008-11-10T20:12:32Z" uid="20587" user="balrog-kun" changeset="729925">
    <nd ref="311145193"/>
    <nd ref="311145194"/>
    <nd ref="311145192"/>
    <nd ref="311145191"/>
    <nd ref="311145193"/>
    <tag k="addr:housenumber" v="5"/>
    <tag k="addr:street" v="Siennicka"/>
    <tag k="building" v="yes"/>
  </way>
  <way id="28333203" version="2" timestamp="2010-06-23T19:35:02Z" uid="20587" user="balrog-kun" changeset="5061349">
    <nd ref="311145193"/>
    <nd ref="311145194"/>
    <nd ref="311145192"/>
    <nd ref="311145191"/>
    <nd ref="311145193"/>
    <tag k="addr:housenumber" v="5"/>
    <tag k="addr:street" v="Siennicka"/>
    <tag k="building" v="residential"/>
  </way>
  <way id="28333204" version="1" timestamp="2008-11-10T20:12:32Z" uid="20587" user="balrog-kun" changeset="729925">
    <nd ref="311145196"/>
    <nd ref="302874297"/>
    <nd ref="302874296"/>
    <nd ref="311145195"/>
    <nd ref="311145196"/>
    <tag k="addr:housenumber" v="8"/>
    <tag k="addr:street" v="Siennicka"/>
    <tag k="building" v="yes"/>
  </way>
  <way id="28333204" version="2" timestamp="2009-01-06T18:36:24Z" uid="20587" user="balrog-kun" changeset="745819">
    <nd ref="311145196"/>
    <nd ref="302874297"/>
    <nd ref="302874296"/>
    <nd ref="311145195"/>
    <nd ref="311145196"/>
    <tag k="addr:housenumber" v="8"/>
    <tag k="addr:street" v="Siennicka"/>
    <tag k="building" v="yes"/>
    <tag k="building:levels" v="3"/>
  </way>
  <way id="28333204" version="3" timestamp="2009-04-08T18:04:59Z" uid="20587" user="balrog-kun" changeset="326158">
    <nd ref="311145196"/>
    <nd ref="302874297"/>
    <nd ref="302874296"/>
    <nd ref="311145195"/>
    <nd ref="311145196"/>
    <tag k="addr:housenumber" v="8"/>
    <tag k="addr:street" v="Siennicka"/>
    <tag k="building" v="residential"/>
    <tag k="building:levels" v="3"/>
  </way>
  <way id="28333205" version="1" timestamp="2008-11-10T20:12:33Z" uid="20587" user="balrog-kun" changeset="729925">
    <nd ref="311145198"/>
    <nd ref="311145200"/>
    <nd ref="311145203"/>
    <nd ref="311145207"/>
    <nd ref="311145211"/>
    <nd ref="311145209"/>
    <nd ref="311145205"/>
    <nd ref="311145202"/>
    <nd ref="311145198"/>
    <tag k="addr:housenumber" v="14/16"/>
    <tag k="addr:street" v="Dobrowoja"/>
    <tag k="building" v="yes"/>
  </way>
  <way id="28333206" version="1" timestamp="2008-11-10T20:12:34Z" uid="20587" user="balrog-kun" changeset="729925">
    <nd ref="311145245"/>
    <nd ref="311145243"/>
    <nd ref="311145247"/>
    <nd ref="311145248"/>
    <nd ref="311145249"/>
    <nd ref="311145245"/>
    <tag k="addr:housenumber" v="1"/>
    <tag k="addr:street" v="Dobrowoja"/>
    <tag k="building" v="yes"/>
  </way>
  <way id="28333206" version="2" timestamp="2009-01-06T18:36:28Z" uid="20587" user="balrog-kun" changeset="745819">
    <nd ref="311145245"/>
    <nd ref="311145243"/>
    <nd ref="311145247"/>
    <nd ref="311145248"/>
    <nd ref="311145249"/>
    <nd ref="311145245"/>
    <tag k="addr:housenumber" v="1"/>
    <tag k="addr:street" v="Dobrowoja"/>
    <tag k="building" v="yes"/>
    <tag k="building:levels" v="4"/>
  </way>
  <way id="28333206" version="3" timestamp="2009-04-08T18:05:01Z" uid="20587" user="balrog-kun" changeset="326158">
    <nd ref="311145245"/>
    <nd ref="311145243"/>
    <nd ref="311145247"/>
    <nd ref="311145248"/>
    <nd ref="311145249"/>
    <nd ref="311145245"/>
    <tag k="addr:housenumber" v="1"/>
    <tag k="addr:street" v="Dobrowoja"/>
    <tag k="building" v="residential"/>
    <tag k="building:levels" v="4"/>
  </way>
  <way id="28333207" version="1" timestamp="2008-11-10T20:12:35Z" uid="20587" user="balrog-kun" changeset="729925">
    <nd ref="311145214"/>
    <nd ref="311145212"/>
    <nd ref="311145213"/>
    <nd ref="311145215"/>
    <nd ref="311145214"/>
    <tag k="addr:housenumber" v="19"/>
    <tag k="addr:street" v="Dobrowoja"/>
    <tag k="building" v="yes"/>
  </way>
  <way id="28333207" version="2" timestamp="2009-01-06T18:36:26Z" uid="20587" user="balrog-kun" changeset="745819">
    <nd ref="311145214"/>
    <nd ref="311145212"/>
    <nd ref="311145213"/>
    <nd ref="311145215"/>
    <nd ref="311145214"/>
    <tag k="addr:housenumber" v="19"/>
    <tag k="addr:street" v="Dobrowoja"/>
    <tag k="building" v="yes"/>
    <tag k="building:levels" v="4"/>
  </way>
  <way id="28333207" version="3" timestamp="2009-04-08T18:05:00Z" uid="20587" user="balrog-kun" changeset="326158">
    <nd ref="311145214"/>
    <nd ref="311145212"/>
    <nd ref="311145213"/>
    <nd ref="311145215"/>
    <nd ref="311145214"/>
    <tag k="addr:housenumber" v="19"/>
    <tag k="addr:street" v="Dobrowoja"/>
    <tag k="building" v="residential"/>
    <tag k="building:levels" v="4"/>
  </way>
  <way id="28333208" version="1" timestamp="2008-11-10T20:12:36Z" uid="20587" user="balrog-kun" changeset="729925">
    <nd ref="311145216"/>
    <nd ref="311145214"/>
    <nd ref="311145215"/>
    <nd ref="311145218"/>
    <nd ref="311145216"/>
    <tag k="addr:housenumber" v="17"/>
    <tag k="addr:street" v="Dobrowoja"/>
    <tag k="building" v="yes"/>
  </way>
  <way id="28333208" version="2" timestamp="2009-01-06T18:36:04Z" uid="20587" user="balrog-kun" changeset="745819">
    <nd ref="311145216"/>
    <nd ref="311145214"/>
    <nd ref="311145215"/>
    <nd ref="311145218"/>
    <nd ref="311145216"/>
    <tag k="addr:housenumber" v="17"/>
    <tag k="addr:street" v="Dobrowoja"/>
    <tag k="building" v="yes"/>
    <tag k="building:levels" v="4"/>
  </way>
  <way id="28333208" version="3" timestamp="2009-04-08T18:04:54Z" uid="20587" user="balrog-kun" changeset="326158">
    <nd ref="311145216"/>
    <nd ref="311145214"/>
    <nd ref="311145215"/>
    <nd ref="311145218"/>
    <nd ref="311145216"/>
    <tag k="addr:housenumber" v="17"/>
    <tag k="addr:street" v="Dobrowoja"/>
    <tag k="building" v="residential"/>
    <tag k="building:levels" v="4"/>
  </way>
  <way id="28333210" version="1" timestamp="2008-11-10T20:12:36Z" uid="20587" user="balrog-kun" changeset="729925">
    <nd ref="311145220"/>
    <nd ref="311145216"/>
    <nd ref="311145218"/>
    <nd ref="311145221"/>
    <nd ref="311145220"/>
    <tag k="addr:housenumber" v="15"/>
    <tag k="addr:street" v="Dobrowoja"/>
    <tag k="building" v="yes"/>
  </way>
  <way id="28333210" version="2" timestamp="2009-01-06T18:36:09Z" uid="20587" user="balrog-kun" changeset="745819">
    <nd ref="311145220"/>
    <nd ref="311145216"/>
    <nd ref="311145218"/>
    <nd ref="311145221"/>
    <nd ref="311145220"/>
    <tag k="addr:housenumber" v="15"/>
    <tag k="addr:street" v="Dobrowoja"/>
    <tag k="building" v="yes"/>
    <tag k="building:levels" v="4"/>
  </way>
  <way id="28333210" version="3" timestamp="2009-04-08T18:04:55Z" uid="20587" user="balrog-kun" changeset="326158">
    <nd ref="311145220"/>
    <nd ref="311145216"/>
    <nd ref="311145218"/>
    <nd ref="311145221"/>
    <nd ref="311145220"/>
    <tag k="addr:housenumber" v="15"/>
    <tag k="addr:street" v="Dobrowoja"/>
    <tag k="building" v="residential"/>
    <tag k="building:levels" v="4"/>
  </way>
  <way id="28333211" version="1" timestamp="2008-11-10T20:12:37Z" uid="20587" user="balrog-kun" changeset="729925">
    <nd ref="311145222"/>
    <nd ref="311145220"/>
    <nd ref="311145221"/>
    <nd ref="311145223"/>
    <nd ref="311145222"/>
    <tag k="addr:housenumber" v="13"/>
    <tag k="addr:street" v="Dobrowoja"/>
    <tag k="building" v="yes"/>
  </way>
  <way id="28333211" version="2" timestamp="2009-01-06T18:36:06Z" uid="20587" user="balrog-kun" changeset="745819">
    <nd ref="311145222"/>
    <nd ref="311145220"/>
    <nd ref="311145221"/>
    <nd ref="311145223"/>
    <nd ref="311145222"/>
    <tag k="addr:housenumber" v="13"/>
    <tag k="addr:street" v="Dobrowoja"/>
    <tag k="building" v="yes"/>
    <tag k="building:levels" v="4"/>
  </way>
  <way id="28333211" version="3" timestamp="2009-04-08T18:04:55Z" uid="20587" user="balrog-kun" changeset="326158">
    <nd ref="311145222"/>
    <nd ref="311145220"/>
    <nd ref="311145221"/>
    <nd ref="311145223"/>
    <nd ref="311145222"/>
    <tag k="addr:housenumber" v="13"/>
    <tag k="addr:street" v="Dobrowoja"/>
    <tag k="building" v="residential"/>
    <tag k="building:levels" v="4"/>
  </way>
  <way id="28333212" version="1" timestamp="2008-11-10T20:12:37Z" uid="20587" user="balrog-kun" changeset="729925">
    <nd ref="311145226"/>
    <nd ref="311145222"/>
    <nd ref="311145223"/>
    <nd ref="311145227"/>
    <nd ref="311145226"/>
    <tag k="addr:housenumber" v="11"/>
    <tag k="addr:street" v="Dobrowoja"/>
    <tag k="building" v="yes"/>
  </way>
  <way id="28333212" version="2" timestamp="2009-01-06T18:36:12Z" uid="20587" user="balrog-kun" changeset="745819">
    <nd ref="311145226"/>
    <nd ref="311145222"/>
    <nd ref="311145223"/>
    <nd ref="311145227"/>
    <nd ref="311145226"/>
    <tag k="addr:housenumber" v="11"/>
    <tag k="addr:street" v="Dobrowoja"/>
    <tag k="building" v="yes"/>
    <tag k="building:levels" v="4"/>
  </way>
  <way id="28333212" version="3" timestamp="2009-04-08T18:04:57Z" uid="20587" user="balrog-kun" changeset="326158">
    <nd ref="311145226"/>
    <nd ref="311145222"/>
    <nd ref="311145223"/>
    <nd ref="311145227"/>
    <nd ref="311145226"/>
    <tag k="addr:housenumber" v="11"/>
    <tag k="addr:street" v="Dobrowoja"/>
    <tag k="building" v="residential"/>
    <tag k="building:levels" v="4"/>
  </way>
  <way id="28333213" version="1" timestamp="2008-11-10T20:12:38Z" uid="20587" user="balrog-kun" changeset="729925">
    <nd ref="311145230"/>
    <nd ref="311145228"/>
    <nd ref="311145229"/>
    <nd ref="311145231"/>
    <nd ref="311145230"/>
    <tag k="addr:housenumber" v="9"/>
    <tag k="addr:street" v="Dobrowoja"/>
    <tag k="building" v="yes"/>
  </way>
  <way id="28333213" version="2" timestamp="2009-01-06T18:36:11Z" uid="20587" user="balrog-kun" changeset="745819">
    <nd ref="311145230"/>
    <nd ref="311145228"/>
    <nd ref="311145229"/>
    <nd ref="311145231"/>
    <nd ref="311145230"/>
    <tag k="addr:housenumber" v="9"/>
    <tag k="addr:street" v="Dobrowoja"/>
    <tag k="building" v="yes"/>
    <tag k="building:levels" v="4"/>
  </way>
  <way id="28333213" version="3" timestamp="2009-04-08T18:04:56Z" uid="20587" user="balrog-kun" changeset="326158">
    <nd ref="311145230"/>
    <nd ref="311145228"/>
    <nd ref="311145229"/>
    <nd ref="311145231"/>
    <nd ref="311145230"/>
    <tag k="addr:housenumber" v="9"/>
    <tag k="addr:street" v="Dobrowoja"/>
    <tag k="building" v="residential"/>
    <tag k="building:levels" v="4"/>
  </way>
  <way id="28333214" version="1" timestamp="2008-11-10T20:12:39Z" uid="20587" user="balrog-kun" changeset="729925">
    <nd ref="311145236"/>
    <nd ref="311145233"/>
    <nd ref="311145235"/>
    <nd ref="311145237"/>
    <nd ref="311145236"/>
    <tag k="addr:housenumber" v="7"/>
    <tag k="addr:street" v="Dobrowoja"/>
    <tag k="building" v="yes"/>
  </way>
  <way id="28333214" version="2" timestamp="2009-01-06T18:36:17Z" uid="20587" user="balrog-kun" changeset="745819">
    <nd ref="311145236"/>
    <nd ref="311145233"/>
    <nd ref="311145235"/>
    <nd ref="311145237"/>
    <nd ref="311145236"/>
    <tag k="addr:housenumber" v="7"/>
    <tag k="addr:street" v="Dobrowoja"/>
    <tag k="building" v="yes"/>
    <tag k="building:levels" v="4"/>
  </way>
  <way id="28333214" version="3" timestamp="2009-04-08T18:04:58Z" uid="20587" user="balrog-kun" changeset="326158">
    <nd ref="311145236"/>
    <nd ref="311145233"/>
    <nd ref="311145235"/>
    <nd ref="311145237"/>
    <nd ref="311145236"/>
    <tag k="addr:housenumber" v="7"/>
    <tag k="addr:street" v="Dobrowoja"/>
    <tag k="building" v="residential"/>
    <tag k="building:levels" v="4"/>
  </way>
  <way id="28333215" version="1" timestamp="2008-11-10T20:12:40Z" uid="20587" user="balrog-kun" changeset="729925">
    <nd ref="311145239"/>
    <nd ref="311145236"/>
    <nd ref="311145237"/>
    <nd ref="311145241"/>
    <nd ref="311145239"/>
    <tag k="addr:housenumber" v="5"/>
    <tag k="addr:street" v="Dobrowoja"/>
    <tag k="building" v="yes"/>
  </way>
  <way id="28333215" version="2" timestamp="2009-01-06T18:36:15Z" uid="20587" user="balrog-kun" changeset="745819">
    <nd ref="311145239"/>
    <nd ref="311145236"/>
    <nd ref="311145237"/>
    <nd ref="311145241"/>
    <nd ref="311145239"/>
    <tag k="addr:housenumber" v="5"/>
    <tag k="addr:street" v="Dobrowoja"/>
    <tag k="building" v="yes"/>
    <tag k="building:levels" v="4"/>
  </way>
  <way id="28333215" version="3" timestamp="2009-04-08T18:04:58Z" uid="20587" user="balrog-kun" changeset="326158">
    <nd ref="311145239"/>
    <nd ref="311145236"/>
    <nd ref="311145237"/>
    <nd ref="311145241"/>
    <nd ref="311145239"/>
    <tag k="addr:housenumber" v="5"/>
    <tag k="addr:street" v="Dobrowoja"/>
    <tag k="building" v="residential"/>
    <tag k="building:levels" v="4"/>
  </way>
  <way id="28333216" version="1" timestamp="2008-11-10T20:12:40Z" uid="20587" user="balrog-kun" changeset="729925">
    <nd ref="311145243"/>
    <nd ref="311145239"/>
    <nd ref="311145241"/>
    <nd ref="311145245"/>
    <nd ref="311145243"/>
    <tag k="addr:housenumber" v="3"/>
    <tag k="addr:street" v="Dobrowoja"/>
    <tag k="building" v="yes"/>
  </way>
  <way id="28333216" version="2" timestamp="2009-01-06T18:36:01Z" uid="20587" user="balrog-kun" changeset="745819">
    <nd ref="311145243"/>
    <nd ref="311145239"/>
    <nd ref="311145241"/>
    <nd ref="311145245"/>
    <nd ref="311145243"/>
    <tag k="addr:housenumber" v="3"/>
    <tag k="addr:street" v="Dobrowoja"/>
    <tag k="building" v="yes"/>
    <tag k="building:levels" v="4"/>
  </way>
  <way id="28333216" version="3" timestamp="2009-04-08T18:04:48Z" uid="20587" user="balrog-kun" changeset="326158">
    <nd ref="311145243"/>
    <nd ref="311145239"/>
    <nd ref="311145241"/>
    <nd ref="311145245"/>
    <nd ref="311145243"/>
    <tag k="addr:housenumber" v="3"/>
    <tag k="addr:street" v="Dobrowoja"/>
    <tag k="building" v="residential"/>
    <tag k="building:levels" v="4"/>
  </way>
  <way id="28333217" version="1" timestamp="2008-11-10T20:12:41Z" uid="20587" user="balrog-kun" changeset="729925">
    <nd ref="311145255"/>
    <nd ref="311145253"/>
    <nd ref="311145250"/>
    <nd ref="311145251"/>
    <nd ref="311145255"/>
    <tag k="addr:housenumber" v="12"/>
    <tag k="addr:street" v="Dobrowoja"/>
    <tag k="building" v="yes"/>
  </way>
  <way id="28333217" version="2" timestamp="2009-04-08T18:04:49Z" uid="20587" user="balrog-kun" changeset="326158">
    <nd ref="311145255"/>
    <nd ref="311145253"/>
    <nd ref="311145250"/>
    <nd ref="311145251"/>
    <nd ref="311145255"/>
    <tag k="addr:housenumber" v="12"/>
    <tag k="addr:street" v="Dobrowoja"/>
    <tag k="building" v="residential"/>
  </way>
  <way id="28333218" version="1" timestamp="2008-11-10T20:12:42Z" uid="20587" user="balrog-kun" changeset="729925">
    <nd ref="311145257"/>
    <nd ref="311145253"/>
    <nd ref="311145255"/>
    <nd ref="311145259"/>
    <nd ref="311145257"/>
    <tag k="addr:housenumber" v="10"/>
    <tag k="addr:street" v="Dobrowoja"/>
    <tag k="building" v="yes"/>
  </way>
  <way id="28333218" version="2" timestamp="2009-04-08T18:04:46Z" uid="20587" user="balrog-kun" changeset="326158">
    <nd ref="311145257"/>
    <nd ref="311145253"/>
    <nd ref="311145255"/>
    <nd ref="311145259"/>
    <nd ref="311145257"/>
    <tag k="addr:housenumber" v="10"/>
    <tag k="addr:street" v="Dobrowoja"/>
    <tag k="building" v="residential"/>
  </way>
  <way id="28333219" version="1" timestamp="2008-11-10T20:12:43Z" uid="20587" user="balrog-kun" changeset="729925">
    <nd ref="311145261"/>
    <nd ref="311145257"/>
    <nd ref="311145259"/>
    <nd ref="311145264"/>
    <nd ref="311145261"/>
    <tag k="addr:housenumber" v="8"/>
    <tag k="addr:street" v="Dobrowoja"/>
    <tag k="building" v="yes"/>
  </way>
  <way id="28333219" version="2" timestamp="2009-04-08T18:04:47Z" uid="20587" user="balrog-kun" changeset="326158">
    <nd ref="311145261"/>
    <nd ref="311145257"/>
    <nd ref="311145259"/>
    <nd ref="311145264"/>
    <nd ref="311145261"/>
    <tag k="addr:housenumber" v="8"/>
    <tag k="addr:street" v="Dobrowoja"/>
    <tag k="building" v="residential"/>
  </way>
  <way id="28333220" version="1" timestamp="2008-11-10T20:12:43Z" uid="20587" user="balrog-kun" changeset="729925">
    <nd ref="311145269"/>
    <nd ref="311145274"/>
    <nd ref="311145285"/>
    <nd ref="311145279"/>
    <nd ref="311145269"/>
    <tag k="addr:housenumber" v="6"/>
    <tag k="addr:street" v="Dobrowoja"/>
    <tag k="building" v="yes"/>
  </way>
  <way id="28333220" version="2" timestamp="2009-04-08T18:04:51Z" uid="20587" user="balrog-kun" changeset="326158">
    <nd ref="311145269"/>
    <nd ref="311145274"/>
    <nd ref="311145285"/>
    <nd ref="311145279"/>
    <nd ref="311145269"/>
    <tag k="addr:housenumber" v="6"/>
    <tag k="addr:street" v="Dobrowoja"/>
    <tag k="building" v="residential"/>
  </way>
  <way id="28333221" version="1" timestamp="2008-11-10T20:12:44Z" uid="20587" user="balrog-kun" changeset="729925">
    <nd ref="311145290"/>
    <nd ref="311145279"/>
    <nd ref="311145285"/>
    <nd ref="311145296"/>
    <nd ref="311145290"/>
    <tag k="addr:housenumber" v="4"/>
    <tag k="addr:street" v="Dobrowoja"/>
    <tag k="building" v="yes"/>
  </way>
  <way id="28333221" version="2" timestamp="2009-04-08T18:04:53Z" uid="20587" user="balrog-kun" changeset="326158">
    <nd ref="311145290"/>
    <nd ref="311145279"/>
    <nd ref="311145285"/>
    <nd ref="311145296"/>
    <nd ref="311145290"/>
    <tag k="addr:housenumber" v="4"/>
    <tag k="addr:street" v="Dobrowoja"/>
    <tag k="building" v="residential"/>
  </way>
  <way id="28333222" version="1" timestamp="2008-11-10T20:12:45Z" uid="20587" user="balrog-kun" changeset="729925">
    <nd ref="311145337"/>
    <nd ref="311145290"/>
    <nd ref="311145296"/>
    <nd ref="311145340"/>
    <tag k="addr:housenumber" v="2"/>
    <tag k="addr:street" v="Dobrowoja"/>
    <tag k="building" v="yes"/>
  </way>
  <way id="28333222" version="2" timestamp="2008-11-30T14:55:21Z" uid="20587" user="balrog-kun" changeset="814824">
    <nd ref="311145337"/>
    <nd ref="311145290"/>
    <nd ref="311145296"/>
    <nd ref="311145340"/>
    <nd ref="311145337"/>
    <tag k="addr:housenumber" v="2"/>
    <tag k="addr:street" v="Dobrowoja"/>
    <tag k="building" v="yes"/>
  </way>
  <way id="28333222" version="3" timestamp="2009-04-08T18:04:49Z" uid="20587" user="balrog-kun" changeset="326158">
    <nd ref="311145337"/>
    <nd ref="311145290"/>
    <nd ref="311145296"/>
    <nd ref="311145340"/>
    <nd ref="311145337"/>
    <tag k="addr:housenumber" v="2"/>
    <tag k="addr:street" v="Dobrowoja"/>
    <tag k="building" v="residential"/>
  </way>
  <way id="28333223" version="1" timestamp="2008-11-10T20:12:46Z" uid="20587" user="balrog-kun" changeset="729925">
    <nd ref="311145300"/>
    <nd ref="311145303"/>
    <nd ref="311145310"/>
    <nd ref="311145307"/>
    <nd ref="311145300"/>
    <tag k="addr:housenumber" v="6"/>
    <tag k="addr:street" v="Modrzewiowa"/>
    <tag k="building" v="yes"/>
  </way>
  <way id="28333223" version="2" timestamp="2009-04-08T18:04:50Z" uid="20587" user="balrog-kun" changeset="326158">
    <nd ref="311145300"/>
    <nd ref="311145303"/>
    <nd ref="311145310"/>
    <nd ref="311145307"/>
    <nd ref="311145300"/>
    <tag k="addr:housenumber" v="6"/>
    <tag k="addr:street" v="Modrzewiowa"/>
    <tag k="building" v="residential"/>
  </way>
  <way id="28333224" version="1" timestamp="2008-11-10T20:12:47Z" uid="20587" user="balrog-kun" changeset="729925">
    <nd ref="311145307"/>
    <nd ref="311145310"/>
    <nd ref="311145316"/>
    <nd ref="311145313"/>
    <nd ref="311145307"/>
    <tag k="addr:housenumber" v="4"/>
    <tag k="addr:street" v="Modrzewiowa"/>
    <tag k="building" v="yes"/>
  </way>
  <way id="28333224" version="2" timestamp="2009-04-08T18:04:44Z" uid="20587" user="balrog-kun" changeset="326158">
    <nd ref="311145307"/>
    <nd ref="311145310"/>
    <nd ref="311145316"/>
    <nd ref="311145313"/>
    <nd ref="311145307"/>
    <tag k="addr:housenumber" v="4"/>
    <tag k="addr:street" v="Modrzewiowa"/>
    <tag k="building" v="residential"/>
  </way>
  <way id="28333225" version="1" timestamp="2008-11-10T20:12:47Z" uid="20587" user="balrog-kun" changeset="729925">
    <nd ref="311145313"/>
    <nd ref="311145316"/>
    <nd ref="311145320"/>
    <nd ref="311145325"/>
    <nd ref="311145313"/>
    <tag k="addr:housenumber" v="2"/>
    <tag k="addr:street" v="Modrzewiowa"/>
    <tag k="building" v="yes"/>
  </way>
  <way id="28333225" version="2" timestamp="2009-04-08T18:04:44Z" uid="20587" user="balrog-kun" changeset="326158">
    <nd ref="311145313"/>
    <nd ref="311145316"/>
    <nd ref="311145320"/>
    <nd ref="311145325"/>
    <nd ref="311145313"/>
    <tag k="addr:housenumber" v="2"/>
    <tag k="addr:street" v="Modrzewiowa"/>
    <tag k="building" v="residential"/>
  </way>
  <way id="28333226" version="1" timestamp="2008-11-10T20:12:48Z" uid="20587" user="balrog-kun" changeset="729925">
    <nd ref="311145329"/>
    <nd ref="311145337"/>
    <nd ref="311145340"/>
    <nd ref="311145333"/>
    <nd ref="311145329"/>
    <tag k="addr:housenumber" v="7"/>
    <tag k="addr:street" v="Modrzewiowa"/>
    <tag k="building" v="yes"/>
  </way>
  <way id="28333226" version="2" timestamp="2009-04-08T18:04:39Z" uid="20587" user="balrog-kun" changeset="326158">
    <nd ref="311145329"/>
    <nd ref="311145337"/>
    <nd ref="311145340"/>
    <nd ref="311145333"/>
    <nd ref="311145329"/>
    <tag k="addr:housenumber" v="7"/>
    <tag k="addr:street" v="Modrzewiowa"/>
    <tag k="building" v="residential"/>
  </way>
  <way id="28333228" version="1" timestamp="2008-11-10T20:12:50Z" uid="20587" user="balrog-kun" changeset="729925">
    <nd ref="311145366"/>
    <nd ref="311145363"/>
    <nd ref="311145369"/>
    <nd ref="311145371"/>
    <nd ref="311145366"/>
    <tag k="addr:housenumber" v="8"/>
    <tag k="addr:street" v="Próżna"/>
    <tag k="building" v="yes"/>
  </way>
  <way id="28333230" version="1" timestamp="2008-11-10T20:12:50Z" uid="20587" user="balrog-kun" changeset="729925">
    <nd ref="311145369"/>
    <nd ref="311145372"/>
    <nd ref="311145374"/>
    <nd ref="311145371"/>
    <nd ref="311145369"/>
    <tag k="addr:housenumber" v="12"/>
    <tag k="addr:street" v="Próżna"/>
    <tag k="building" v="yes"/>
  </way>
  <way id="28333232" version="1" timestamp="2008-11-10T20:12:51Z" uid="20587" user="balrog-kun" changeset="729925">
    <nd ref="311145386"/>
    <nd ref="302711820"/>
    <nd ref="302711805"/>
    <nd ref="302711808"/>
    <nd ref="311145383"/>
    <nd ref="311145382"/>
    <nd ref="302711815"/>
    <nd ref="311145378"/>
    <nd ref="311145376"/>
    <nd ref="302711811"/>
    <nd ref="302711823"/>
    <nd ref="311145386"/>
    <tag k="addr:housenumber" v="41/43"/>
    <tag k="addr:street" v="Zielna"/>
    <tag k="amenity" v="bank"/>
    <tag k="building" v="yes"/>
    <tag k="name" v="Bank BGŻ"/>
  </way>
  <way id="28333232" version="2" timestamp="2011-02-05T18:36:18Z" uid="20587" user="balrog-kun" changeset="7195763">
    <nd ref="311145386"/>
    <nd ref="302711820"/>
    <nd ref="302711805"/>
    <nd ref="302711808"/>
    <nd ref="311145383"/>
    <nd ref="311145382"/>
    <nd ref="302711815"/>
    <nd ref="311145378"/>
    <nd ref="311145376"/>
    <nd ref="302711811"/>
    <nd ref="302711823"/>
    <nd ref="311145393"/>
    <nd ref="311145386"/>
    <tag k="addr:housenumber" v="41/43"/>
    <tag k="addr:street" v="Zielna"/>
    <tag k="amenity" v="bank"/>
    <tag k="building" v="yes"/>
    <tag k="name" v="Bank BGŻ"/>
  </way>
  <way id="28333234" version="1" timestamp="2008-11-10T20:12:52Z" uid="20587" user="balrog-kun" changeset="729925">
    <nd ref="311145419"/>
    <nd ref="311145423"/>
    <nd ref="311145428"/>
    <nd ref="311145426"/>
    <nd ref="311145419"/>
    <tag k="addr:housenumber" v="6"/>
    <tag k="addr:street" v="Zielna"/>
    <tag k="building" v="yes"/>
  </way>
  <way id="28333258" version="3" timestamp="2008-12-25T09:57:58Z" uid="43863" user="Rundling" changeset="594284">
    <nd ref="311145501"/>
    <nd ref="311145696"/>
    <nd ref="311145698"/>
    <nd ref="311145628"/>
    <tag k="created_by" v="Potlatch 0.10f"/>
    <tag k="highway" v="unclassified"/>
  </way>
  <way id="28333296" version="4" timestamp="2010-04-03T04:01:35Z" uid="20587" user="balrog-kun" changeset="4309442">
    <nd ref="311143973"/>
    <nd ref="311146255"/>
    <nd ref="311146257"/>
    <tag k="created_by" v="Potlatch 0.10f"/>
    <tag k="highway" v="residential"/>
    <tag k="name" v="North Raleigh Court"/>
  </way>
  <way id="28333306" version="4" timestamp="2010-04-03T04:01:35Z" uid="20587" user="balrog-kun" changeset="4309442">
    <nd ref="311144045"/>
    <nd ref="311146375"/>
    <tag k="created_by" v="Potlatch 0.10f"/>
    <tag k="highway" v="residential"/>
    <tag k="name" v="North Ericson Court"/>
  </way>
  <way id="28333347" version="4" timestamp="2010-04-03T04:01:36Z" uid="20587" user="balrog-kun" changeset="4309442">
    <nd ref="311143802"/>
    <nd ref="311146848"/>
    <nd ref="311146850"/>
    <nd ref="311146853"/>
    <tag k="created_by" v="Potlatch 0.10f"/>
    <tag k="highway" v="residential"/>
    <tag k="name" v="West Glacier Court"/>
  </way>
  <way id="28333349" version="4" timestamp="2010-04-03T04:01:36Z" uid="20587" user="balrog-kun" changeset="4309442">
    <nd ref="311143801"/>
    <nd ref="311146920"/>
    <nd ref="311146921"/>
    <tag k="created_by" v="Potlatch 0.10f"/>
    <tag k="highway" v="residential"/>
    <tag k="name" v="West Cartier Court"/>
  </way>
  <way id="28333381" version="4" timestamp="2010-04-03T04:01:36Z" uid="20587" user="balrog-kun" changeset="4309442">
    <nd ref="42031218"/>
    <nd ref="311147647"/>
    <nd ref="311147650"/>
    <nd ref="311147653"/>
    <nd ref="311147656"/>
    <nd ref="311147659"/>
    <nd ref="311147663"/>
    <nd ref="311147665"/>
    <nd ref="311147669"/>
    <nd ref="311147672"/>
    <nd ref="311147675"/>
    <nd ref="311147679"/>
    <nd ref="311147682"/>
    <tag k="created_by" v="Potlatch 0.10f"/>
    <tag k="highway" v="residential"/>
    <tag k="name" v="West Magellan Drive"/>
  </way>
  <way id="28333407" version="5" timestamp="2010-04-03T04:01:36Z" uid="20587" user="balrog-kun" changeset="4309442">
    <nd ref="311147663"/>
    <nd ref="311147886"/>
    <tag k="created_by" v="Potlatch 0.10f"/>
    <tag k="highway" v="residential"/>
    <tag k="name" v="North Acadia Way"/>
  </way>
  <way id="28333412" version="3" timestamp="2008-12-03T18:30:56Z" uid="43863" user="Rundling" changeset="82725">
    <nd ref="94804256"/>
    <nd ref="311147935"/>
    <nd ref="311147938"/>
    <nd ref="311147941"/>
    <nd ref="311147944"/>
    <nd ref="311147947"/>
    <nd ref="313481202"/>
    <nd ref="311147950"/>
    <nd ref="311147989"/>
    <tag k="highway" v="tertiary"/>
    <tag k="surface" v="paved"/>
  </way>
  <way id="28333414" version="3" timestamp="2008-12-03T18:30:57Z" uid="43863" user="Rundling" changeset="82725">
    <nd ref="311147986"/>
    <nd ref="311147956"/>
    <nd ref="311147959"/>
    <nd ref="313481244"/>
    <nd ref="311147962"/>
    <nd ref="311147965"/>
    <nd ref="311147968"/>
    <nd ref="311147971"/>
    <nd ref="311147974"/>
    <nd ref="311147976"/>
    <nd ref="311147979"/>
    <nd ref="311147983"/>
    <tag k="highway" v="tertiary"/>
  </way>
  <way id="28333416" version="2" timestamp="2008-12-03T18:31:01Z" uid="43863" user="Rundling" changeset="82725">
    <nd ref="311147953"/>
    <nd ref="311147986"/>
    <tag k="bridge" v="yes"/>
    <tag k="highway" v="tertiary"/>
    <tag k="layer" v="1"/>
  </way>
  <way id="28333466" version="4" timestamp="2010-04-03T04:01:36Z" uid="20587" user="balrog-kun" changeset="4309442">
    <nd ref="311147886"/>
    <nd ref="311147887"/>
    <nd ref="311147889"/>
    <nd ref="311147891"/>
    <nd ref="311147893"/>
    <nd ref="311147894"/>
    <tag k="created_by" v="Potlatch 0.10f"/>
    <tag k="highway" v="residential"/>
    <tag k="name" v="West Plymouth Drive"/>
  </way>
  <way id="28333470" version="3" timestamp="2010-04-03T04:01:36Z" uid="20587" user="balrog-kun" changeset="4309442">
    <nd ref="311147894"/>
    <nd ref="311147682"/>
    <nd ref="311147896"/>
    <nd ref="311147898"/>
    <nd ref="311147900"/>
    <nd ref="311147901"/>
    <nd ref="311147903"/>
    <nd ref="311147904"/>
    <tag k="created_by" v="Potlatch 0.10f"/>
    <tag k="highway" v="residential"/>
    <tag k="name" v="North National Trail"/>
  </way>
  <way id="28333521" version="7" timestamp="2010-04-03T04:01:36Z" uid="20587" user="balrog-kun" changeset="4309442">
    <nd ref="311620069"/>
    <nd ref="311620114"/>
    <nd ref="311149826"/>
    <nd ref="311149831"/>
    <nd ref="311149835"/>
    <nd ref="311143557"/>
    <nd ref="311149842"/>
    <nd ref="311149846"/>
    <nd ref="311149850"/>
    <nd ref="311149855"/>
    <nd ref="311144047"/>
    <nd ref="311149863"/>
    <nd ref="311149868"/>
    <nd ref="311149875"/>
    <nd ref="311149880"/>
    <nd ref="311149883"/>
    <nd ref="311149887"/>
    <nd ref="311149891"/>
    <nd ref="311149895"/>
    <nd ref="311149899"/>
    <nd ref="311149235"/>
    <nd ref="311149904"/>
    <nd ref="311149908"/>
    <nd ref="311149913"/>
    <nd ref="311147904"/>
    <nd ref="311149920"/>
    <nd ref="311149924"/>
    <nd ref="311149927"/>
    <tag k="created_by" v="Potlatch 0.10f"/>
    <tag k="highway" v="residential"/>
    <tag k="name" v="North Navigation Way"/>
  </way>
  <way id="28333538" version="4" timestamp="2010-04-03T04:01:37Z" uid="20587" user="balrog-kun" changeset="4309442">
    <nd ref="311150327"/>
    <nd ref="311150331"/>
    <nd ref="311150334"/>
    <nd ref="311150337"/>
    <nd ref="311150341"/>
    <nd ref="311150346"/>
    <nd ref="311150347"/>
    <nd ref="311150350"/>
    <nd ref="311150353"/>
    <nd ref="311150357"/>
    <tag k="created_by" v="Potlatch 0.10f"/>
    <tag k="highway" v="residential"/>
    <tag k="name" v="North Challenger Trail"/>
  </way>
  <way id="28333540" version="4" timestamp="2010-04-03T04:01:37Z" uid="20587" user="balrog-kun" changeset="4309442">
    <nd ref="311150357"/>
    <nd ref="311150375"/>
    <tag k="created_by" v="Potlatch 0.10f"/>
    <tag k="highway" v="residential"/>
    <tag k="name" v="East Adamanda Trail"/>
  </way>
  <way id="28333541" version="3" timestamp="2010-04-03T04:01:37Z" uid="20587" user="balrog-kun" changeset="4309442">
    <nd ref="311150385"/>
    <nd ref="311150389"/>
    <nd ref="311150393"/>
    <tag k="created_by" v="Potlatch 0.10f"/>
    <tag k="highway" v="residential"/>
    <tag k="name" v="West Ranier Court"/>
  </way>
  <way id="28333544" version="3" timestamp="2010-04-03T04:01:37Z" uid="20587" user="balrog-kun" changeset="4309442">
    <nd ref="311149850"/>
    <nd ref="311150423"/>
    <tag k="created_by" v="Potlatch 0.10f"/>
    <tag k="highway" v="residential"/>
    <tag k="name" v="North Ericson Lane"/>
  </way>
  <way id="28333548" version="4" timestamp="2010-04-03T04:01:37Z" uid="20587" user="balrog-kun" changeset="4309442">
    <nd ref="311150423"/>
    <nd ref="311150385"/>
    <nd ref="311150454"/>
    <nd ref="311150460"/>
    <nd ref="311150375"/>
    <nd ref="311150471"/>
    <nd ref="311150327"/>
    <tag k="created_by" v="Potlatch 0.10f"/>
    <tag k="highway" v="residential"/>
    <tag k="name" v="North Voyage Trail"/>
  </way>
  <way id="28333596" version="2" timestamp="2010-04-03T04:01:37Z" uid="20587" user="balrog-kun" changeset="4309442">
    <nd ref="311150341"/>
    <nd ref="311149891"/>
    <tag k="created_by" v="Potlatch 0.10f"/>
    <tag k="highway" v="residential"/>
    <tag k="name" v="North Acadia Way"/>
  </way>
  <way id="28333611" version="6" timestamp="2010-04-03T04:01:37Z" uid="20587" user="balrog-kun" changeset="4309442">
    <nd ref="311149927"/>
    <nd ref="311151906"/>
    <nd ref="311151914"/>
    <nd ref="311151921"/>
    <nd ref="311151926"/>
    <nd ref="311151933"/>
    <nd ref="311151937"/>
    <nd ref="311151943"/>
    <nd ref="311151947"/>
    <nd ref="311151952"/>
    <nd ref="311151958"/>
    <nd ref="311629552"/>
    <nd ref="311629462"/>
    <nd ref="311151971"/>
    <tag k="created_by" v="Potlatch 0.10f"/>
    <tag k="highway" v="residential"/>
    <tag k="name" v="North Livingstone Way"/>
  </way>
  <way id="28333617" version="3" timestamp="2010-04-03T04:01:37Z" uid="20587" user="balrog-kun" changeset="4309442">
    <nd ref="311152002"/>
    <nd ref="311152176"/>
    <nd ref="311152183"/>
    <nd ref="311152188"/>
    <nd ref="311152196"/>
    <nd ref="311152203"/>
    <nd ref="311152208"/>
    <nd ref="311152214"/>
    <tag k="created_by" v="Potlatch 0.10f"/>
    <tag k="highway" v="residential"/>
    <tag k="name" v="North Courage Trail"/>
  </way>
  <way id="28333622" version="3" timestamp="2010-04-03T04:01:37Z" uid="20587" user="balrog-kun" changeset="4309442">
    <nd ref="311152214"/>
    <nd ref="311152401"/>
    <nd ref="311152404"/>
    <nd ref="311151958"/>
    <nd ref="311152415"/>
    <nd ref="311152420"/>
    <nd ref="311152426"/>
    <nd ref="311152432"/>
    <tag k="created_by" v="Potlatch 0.10f"/>
    <tag k="highway" v="residential"/>
    <tag k="name" v="West Ashton Drive"/>
  </way>
  <way id="28333623" version="3" timestamp="2010-04-03T04:01:37Z" uid="20587" user="balrog-kun" changeset="4309442">
    <nd ref="311152432"/>
    <nd ref="311152462"/>
    <tag k="created_by" v="Potlatch 0.10f"/>
    <tag k="highway" v="residential"/>
    <tag k="name" v="North National Trail"/>
  </way>
  <way id="28333629" version="3" timestamp="2010-04-03T04:01:38Z" uid="20587" user="balrog-kun" changeset="4309442">
    <nd ref="311152462"/>
    <nd ref="311152777"/>
    <nd ref="311152783"/>
    <nd ref="311152787"/>
    <nd ref="311152793"/>
    <nd ref="311151943"/>
    <tag k="created_by" v="Potlatch 0.10f"/>
    <tag k="highway" v="residential"/>
    <tag k="name" v="West Powell Drive"/>
  </way>
  <way id="28333720" version="4" timestamp="2010-04-03T04:01:38Z" uid="20587" user="balrog-kun" changeset="4309442">
    <nd ref="311154012"/>
    <nd ref="311629567"/>
    <nd ref="311154022"/>
    <tag k="created_by" v="Potlatch 0.10f"/>
    <tag k="highway" v="residential"/>
    <tag k="name" v="North Hudson Trail"/>
  </way>
  <way id="28333734" version="2" timestamp="2010-04-03T04:01:38Z" uid="20587" user="balrog-kun" changeset="4309442">
    <nd ref="311154163"/>
    <nd ref="311154165"/>
    <nd ref="311154022"/>
    <nd ref="311154168"/>
    <nd ref="311154170"/>
    <tag k="created_by" v="Potlatch 0.10f"/>
    <tag k="highway" v="residential"/>
    <tag k="name" v="West Ranier Court"/>
  </way>
  <way id="28333752" version="5" timestamp="2010-04-03T04:01:38Z" uid="20587" user="balrog-kun" changeset="4309442">
    <nd ref="311155381"/>
    <nd ref="311155385"/>
    <nd ref="311155388"/>
    <nd ref="311155391"/>
    <nd ref="311155393"/>
    <nd ref="311155398"/>
    <nd ref="311155402"/>
    <nd ref="311155405"/>
    <nd ref="311155408"/>
    <nd ref="311149831"/>
    <nd ref="311154618"/>
    <nd ref="311154569"/>
    <nd ref="311154574"/>
    <nd ref="311154579"/>
    <nd ref="311154584"/>
    <nd ref="311154589"/>
    <nd ref="311154595"/>
    <nd ref="311155115"/>
    <tag k="created_by" v="Potlatch 0.10f"/>
    <tag k="highway" v="residential"/>
    <tag k="name" v="West Links Drive"/>
  </way>
  <way id="28333755" version="4" timestamp="2010-04-03T04:01:38Z" uid="20587" user="balrog-kun" changeset="4309442">
    <nd ref="311155115"/>
    <nd ref="311154525"/>
    <nd ref="311154012"/>
    <nd ref="311154532"/>
    <nd ref="311154533"/>
    <nd ref="311154538"/>
    <nd ref="311154543"/>
    <nd ref="311154549"/>
    <nd ref="311154554"/>
    <nd ref="311154559"/>
    <nd ref="311154618"/>
    <tag k="created_by" v="Potlatch 0.10f"/>
    <tag k="highway" v="residential"/>
    <tag k="name" v="West Ashton Drive"/>
  </way>
  <way id="28333756" version="5" timestamp="2010-04-03T04:01:38Z" uid="20587" user="balrog-kun" changeset="4309442">
    <nd ref="311154559"/>
    <nd ref="311154554"/>
    <nd ref="311154549"/>
    <nd ref="311154543"/>
    <nd ref="311154538"/>
    <nd ref="311154533"/>
    <nd ref="311154532"/>
    <nd ref="311154012"/>
    <nd ref="311154525"/>
    <nd ref="311155115"/>
    <tag k="created_by" v="Potlatch 0.10f"/>
    <tag k="highway" v="residential"/>
    <tag k="name" v="West Ashton Drive"/>
  </way>
  <way id="28333801" version="4" timestamp="2010-04-03T04:01:38Z" uid="20587" user="balrog-kun" changeset="4309442">
    <nd ref="311155381"/>
    <nd ref="311155634"/>
    <nd ref="311155641"/>
    <tag k="created_by" v="Potlatch 0.10f"/>
    <tag k="highway" v="residential"/>
    <tag k="name" v="North Acadia Way"/>
  </way>
  <way id="28333804" version="3" timestamp="2010-04-03T04:01:38Z" uid="20587" user="balrog-kun" changeset="4309442">
    <nd ref="311155671"/>
    <nd ref="311155701"/>
    <nd ref="311155706"/>
    <nd ref="311155713"/>
    <nd ref="311155391"/>
    <tag k="created_by" v="Potlatch 0.10f"/>
    <tag k="highway" v="residential"/>
    <tag k="name" v="North Parker Lane"/>
  </way>
  <way id="28333811" version="4" timestamp="2010-04-03T04:01:39Z" uid="20587" user="balrog-kun" changeset="4309442">
    <nd ref="311155893"/>
    <nd ref="311155899"/>
    <nd ref="311155904"/>
    <nd ref="311155405"/>
    <tag k="created_by" v="Potlatch 0.10f"/>
    <tag k="highway" v="residential"/>
    <tag k="name" v="North Ericson Court"/>
  </way>
  <way id="28333865" version="4" timestamp="2010-04-03T04:01:39Z" uid="20587" user="balrog-kun" changeset="4309442">
    <nd ref="311155405"/>
    <nd ref="311155913"/>
    <tag k="created_by" v="Potlatch 0.10f"/>
    <tag k="highway" v="residential"/>
    <tag k="name" v="North Ericson Lane"/>
  </way>
  <way id="28333881" version="3" timestamp="2010-04-03T04:01:39Z" uid="20587" user="balrog-kun" changeset="4309442">
    <nd ref="311155913"/>
    <nd ref="311155920"/>
    <nd ref="311155925"/>
    <tag k="created_by" v="Potlatch 0.10f"/>
    <tag k="highway" v="residential"/>
    <tag k="name" v="West Ashton Court"/>
  </way>
  <way id="28333905" version="3" timestamp="2010-04-03T04:01:39Z" uid="20587" user="balrog-kun" changeset="4309442">
    <nd ref="311155641"/>
    <nd ref="311155647"/>
    <nd ref="311155655"/>
    <nd ref="311155661"/>
    <nd ref="311151971"/>
    <nd ref="311155671"/>
    <tag k="created_by" v="Potlatch 0.10f"/>
    <tag k="highway" v="residential"/>
    <tag k="name" v="West Summit Walk Drive"/>
  </way>
  <way id="28333992" version="4" timestamp="2010-04-03T04:01:39Z" uid="20587" user="balrog-kun" changeset="4309442">
    <nd ref="311629469"/>
    <nd ref="311629547"/>
    <nd ref="311159964"/>
    <nd ref="311159965"/>
    <nd ref="311159967"/>
    <nd ref="311159968"/>
    <nd ref="311159969"/>
    <nd ref="311159970"/>
    <nd ref="311159971"/>
    <nd ref="311159972"/>
    <nd ref="311159973"/>
    <nd ref="311159974"/>
    <nd ref="311159975"/>
    <nd ref="311159977"/>
    <nd ref="311159978"/>
    <tag k="created_by" v="Potlatch 0.10f"/>
    <tag k="highway" v="residential"/>
    <tag k="name" v="West Summit Walk Drive"/>
  </way>
  <way id="28333998" version="3" timestamp="2010-04-03T04:01:40Z" uid="20587" user="balrog-kun" changeset="4309442">
    <nd ref="311159970"/>
    <nd ref="311160124"/>
    <nd ref="311160125"/>
    <nd ref="311160127"/>
    <nd ref="311160128"/>
    <nd ref="311160129"/>
    <nd ref="311160130"/>
    <nd ref="311160132"/>
    <nd ref="311160133"/>
    <nd ref="311160134"/>
    <nd ref="311160135"/>
    <tag k="created_by" v="Potlatch 0.10f"/>
    <tag k="highway" v="residential"/>
    <tag k="name" v="West Links Drive"/>
  </way>
</osm>
