<?xml version='1.0' encoding='UTF-8'?>
<osm version="0.6" generator="libosmium/2.20.0">
  <way id="28454104" version="6" timestamp="2011-02-20T14:41:31Z" uid="49111" user="Markus B" changeset="7343258">
    <nd ref="11302182"/>
    <nd ref="569501338"/>
    <nd ref="1163439760"/>
    <nd ref="11302180"/>
    <nd ref="569501336"/>
    <nd ref="569501340"/>
    <nd ref="11302178"/>
    <nd ref="569501343"/>
    <nd ref="569501350"/>
    <nd ref="11302177"/>
    <nd ref="569501383"/>
    <nd ref="569501400"/>
    <nd ref="11302176"/>
    <tag k="highway" v="tertiary"/>
    <tag k="maxspeed" v="70"/>
    <tag k="name" v="Sylvaniastraße"/>
    <tag k="ref" v="ER 2"/>
  </way>
  <way id="28454156" version="1" timestamp="2008-11-16T20:19:01Z" uid="36809" user="pfoten_weg_!_" changeset="756083">
    <nd ref="264501680"/>
    <nd ref="53277132"/>
    <nd ref="53277316"/>
    <nd ref="53352551"/>
    <nd ref="53277317"/>
    <tag k="created_by" v="RambaZamba"/>
    <tag k="highway" v="residential"/>
    <tag k="name" v="Anton-Köck-Straße"/>
    <tag k="source" v="survey"/>
  </way>
  <way id="28454156" version="2" timestamp="2009-06-06T20:11:13Z" uid="36809" user="pfoten_weg_!_" changeset="1442156"/>
  <way id="28454157" version="1" timestamp="2008-11-16T20:19:01Z" uid="36809" user="pfoten_weg_!_" changeset="756083">
    <nd ref="53277317"/>
    <nd ref="312595585"/>
    <nd ref="53277318"/>
    <nd ref="53277320"/>
    <nd ref="312609193"/>
    <nd ref="262160182"/>
    <tag k="created_by" v="RambaZamba"/>
    <tag k="highway" v="residential"/>
    <tag k="name" v="Anton-Köck-Straße"/>
    <tag k="source" v="survey"/>
  </way>
  <way id="28454157" version="2" timestamp="2009-06-01T00:41:52Z" uid="36809" user="pfoten_weg_!_" changeset="1374816">
    <nd ref="53277317"/>
    <nd ref="312595585"/>
    <nd ref="413752448"/>
    <nd ref="53277318"/>
    <nd ref="413752449"/>
    <nd ref="53277320"/>
    <nd ref="312609193"/>
    <nd ref="262160182"/>
    <tag k="created_by" v="RambaZamba"/>
    <tag k="highway" v="residential"/>
    <tag k="name" v="Anton-Köck-Straße"/>
    <tag k="source" v="survey"/>
  </way>
  <way id="28454157" version="3" timestamp="2009-06-06T20:11:13Z" uid="36809" user="pfoten_weg_!_" changeset="1442156"/>
  <way id="28454226" version="3" timestamp="2009-12-09T02:43:32Z" uid="200463" user="harmagedon" changeset="3330572">
    <nd ref="282570854"/>
    <nd ref="312610031"/>
    <nd ref="312610036"/>
    <nd ref="443018994"/>
    <tag k="highway" v="service"/>
  </way>
  <way id="28454326" version="1" timestamp="2008-11-16T20:22:55Z" uid="36809" user="pfoten_weg_!_" changeset="756083">
    <nd ref="53277320"/>
    <nd ref="312612185"/>
    <nd ref="53277388"/>
    <tag k="created_by" v="RambaZamba"/>
    <tag k="highway" v="residential"/>
    <tag k="name" v="Gottfried-Winter-Straße"/>
    <tag k="source" v="survey"/>
  </way>
  <way id="28454326" version="2" timestamp="2009-06-06T11:59:51Z" uid="36809" user="pfoten_weg_!_" changeset="1437402">
    <nd ref="53277320"/>
    <nd ref="312612185"/>
    <nd ref="416422616"/>
    <nd ref="53277388"/>
    <tag k="created_by" v="RambaZamba"/>
    <tag k="highway" v="residential"/>
    <tag k="name" v="Gottfried-Winter-Straße"/>
    <tag k="source" v="survey"/>
  </way>
  <way id="28454326" version="3" timestamp="2009-06-06T19:57:38Z" uid="36809" user="pfoten_weg_!_" changeset="1442045"/>
  <way id="28454328" version="1" timestamp="2008-11-16T20:22:56Z" uid="36809" user="pfoten_weg_!_" changeset="756083">
    <nd ref="312612180"/>
    <nd ref="312612131"/>
    <tag k="created_by" v="RambaZamba"/>
    <tag k="highway" v="residential"/>
    <tag k="name" v="Richard-Strauss-Straße"/>
    <tag k="source" v="survey"/>
  </way>
  <way id="28454328" version="2" timestamp="2009-07-17T15:10:54Z" uid="36809" user="pfoten_weg_!_" changeset="1855298">
    <nd ref="312612180"/>
    <nd ref="312612131"/>
    <tag k="discovered_by" v="RambaZamba"/>
    <tag k="highway" v="residential"/>
    <tag k="name" v="Richard-Strauss-Straße"/>
    <tag k="source" v="survey"/>
  </way>
  <way id="28454328" version="4" timestamp="2009-08-28T21:03:10Z" uid="36809" user="pfoten_weg_!_" changeset="2295155">
    <nd ref="312612180"/>
    <nd ref="312612131"/>
    <tag k="discovered_by" v="RambaZamba"/>
    <tag k="highway" v="residential"/>
    <tag k="name" v="Richard-Strauss-Straße"/>
    <tag k="source" v="survey"/>
  </way>
  <way id="28454328" version="6" timestamp="2009-09-01T11:09:10Z" uid="36809" user="pfoten_weg_!_" changeset="2335754">
    <nd ref="312612180"/>
    <nd ref="312612131"/>
    <tag k="highway" v="residential"/>
    <tag k="name" v="Richard-Strauss-Straße"/>
    <tag k="source" v="survey"/>
  </way>
  <way id="28454328" version="7" timestamp="2009-10-02T21:25:10Z" uid="86259" user="hasse_osm_korinthenkacker" changeset="2717728">
    <nd ref="312612180"/>
    <nd ref="312612131"/>
    <tag k="highway" v="residential"/>
    <tag k="name" v="Richard-Strauss-Straße"/>
  </way>
  <way id="28454329" version="1" timestamp="2008-11-16T20:22:56Z" uid="36809" user="pfoten_weg_!_" changeset="756083">
    <nd ref="312612167"/>
    <nd ref="312612160"/>
    <tag k="created_by" v="RambaZamba"/>
    <tag k="highway" v="residential"/>
    <tag k="name" v="Richard-Strauss-Straße"/>
    <tag k="source" v="survey"/>
  </way>
  <way id="28454329" version="2" timestamp="2009-07-17T15:10:57Z" uid="36809" user="pfoten_weg_!_" changeset="1855298">
    <nd ref="312612167"/>
    <nd ref="312612160"/>
    <tag k="discovered_by" v="RambaZamba"/>
    <tag k="highway" v="residential"/>
    <tag k="name" v="Richard-Strauss-Straße"/>
    <tag k="source" v="survey"/>
  </way>
  <way id="28454329" version="4" timestamp="2009-08-28T21:16:47Z" uid="36809" user="pfoten_weg_!_" changeset="2295155">
    <nd ref="312612167"/>
    <nd ref="312612160"/>
    <tag k="discovered_by" v="RambaZamba"/>
    <tag k="highway" v="residential"/>
    <tag k="name" v="Richard-Strauss-Straße"/>
    <tag k="source" v="survey"/>
  </way>
  <way id="28454329" version="6" timestamp="2009-09-01T10:52:07Z" uid="36809" user="pfoten_weg_!_" changeset="2335754">
    <nd ref="312612167"/>
    <nd ref="312612160"/>
    <tag k="highway" v="residential"/>
    <tag k="name" v="Richard-Strauss-Straße"/>
    <tag k="source" v="survey"/>
  </way>
  <way id="28454329" version="7" timestamp="2009-10-02T21:25:10Z" uid="86259" user="hasse_osm_korinthenkacker" changeset="2717728">
    <nd ref="312612167"/>
    <nd ref="312612160"/>
    <tag k="highway" v="residential"/>
    <tag k="name" v="Richard-Strauss-Straße"/>
  </way>
  <way id="28454330" version="1" timestamp="2008-11-16T20:22:57Z" uid="36809" user="pfoten_weg_!_" changeset="756083">
    <nd ref="312612173"/>
    <nd ref="312612138"/>
    <tag k="created_by" v="RambaZamba"/>
    <tag k="highway" v="residential"/>
    <tag k="name" v="Richard-Strauss-Straße"/>
    <tag k="source" v="survey"/>
  </way>
  <way id="28454330" version="2" timestamp="2009-07-17T15:10:50Z" uid="36809" user="pfoten_weg_!_" changeset="1855298">
    <nd ref="312612173"/>
    <nd ref="312612138"/>
    <tag k="discovered_by" v="RambaZamba"/>
    <tag k="highway" v="residential"/>
    <tag k="name" v="Richard-Strauss-Straße"/>
    <tag k="source" v="survey"/>
  </way>
  <way id="28454330" version="4" timestamp="2009-08-28T20:59:37Z" uid="36809" user="pfoten_weg_!_" changeset="2295155">
    <nd ref="312612173"/>
    <nd ref="312612138"/>
    <tag k="discovered_by" v="RambaZamba"/>
    <tag k="highway" v="residential"/>
    <tag k="name" v="Richard-Strauss-Straße"/>
    <tag k="source" v="survey"/>
  </way>
  <way id="28454330" version="6" timestamp="2009-09-01T10:59:31Z" uid="36809" user="pfoten_weg_!_" changeset="2335754">
    <nd ref="312612173"/>
    <nd ref="312612138"/>
    <tag k="highway" v="residential"/>
    <tag k="name" v="Richard-Strauss-Straße"/>
    <tag k="source" v="survey"/>
  </way>
  <way id="28454330" version="7" timestamp="2009-10-02T21:25:10Z" uid="86259" user="hasse_osm_korinthenkacker" changeset="2717728">
    <nd ref="312612173"/>
    <nd ref="312612138"/>
    <tag k="highway" v="residential"/>
    <tag k="name" v="Richard-Strauss-Straße"/>
  </way>
  <way id="28454331" version="1" timestamp="2008-11-16T20:22:57Z" uid="36809" user="pfoten_weg_!_" changeset="756083">
    <nd ref="289063437"/>
    <nd ref="312612191"/>
    <nd ref="312612125"/>
    <nd ref="312612143"/>
    <nd ref="312612155"/>
    <nd ref="312612180"/>
    <nd ref="312612167"/>
    <nd ref="312612173"/>
    <nd ref="269232191"/>
    <tag k="created_by" v="RambaZamba"/>
    <tag k="highway" v="residential"/>
    <tag k="name" v="Richard-Strauss-Straße"/>
    <tag k="source" v="survey"/>
  </way>
  <way id="28454331" version="2" timestamp="2009-06-06T11:59:53Z" uid="36809" user="pfoten_weg_!_" changeset="1437402">
    <nd ref="289063437"/>
    <nd ref="416422615"/>
    <nd ref="312612191"/>
    <nd ref="312612125"/>
    <nd ref="312612143"/>
    <nd ref="312612155"/>
    <nd ref="312612180"/>
    <nd ref="312612167"/>
    <nd ref="312612173"/>
    <nd ref="269232191"/>
    <tag k="created_by" v="RambaZamba"/>
    <tag k="highway" v="residential"/>
    <tag k="name" v="Richard-Strauss-Straße"/>
    <tag k="source" v="survey"/>
  </way>
  <way id="28454331" version="3" timestamp="2009-07-17T15:10:39Z" uid="36809" user="pfoten_weg_!_" changeset="1855298">
    <nd ref="289063437"/>
    <nd ref="416422615"/>
    <nd ref="312612191"/>
    <nd ref="312612125"/>
    <nd ref="312612143"/>
    <nd ref="312612155"/>
    <nd ref="312612180"/>
    <nd ref="312612167"/>
    <nd ref="312612173"/>
    <nd ref="269232191"/>
    <tag k="discovered_by" v="RambaZamba"/>
    <tag k="highway" v="residential"/>
    <tag k="name" v="Richard-Strauss-Straße"/>
    <tag k="source" v="survey"/>
  </way>
  <way id="28454331" version="5" timestamp="2009-08-28T21:06:35Z" uid="36809" user="pfoten_weg_!_" changeset="2295155">
    <nd ref="289063437"/>
    <nd ref="416422615"/>
    <nd ref="312612191"/>
    <nd ref="312612125"/>
    <nd ref="312612143"/>
    <nd ref="312612155"/>
    <nd ref="312612180"/>
    <nd ref="312612167"/>
    <nd ref="312612173"/>
    <nd ref="269232191"/>
    <tag k="discovered_by" v="RambaZamba"/>
    <tag k="highway" v="residential"/>
    <tag k="name" v="Richard-Strauss-Straße"/>
    <tag k="source" v="survey"/>
  </way>
  <way id="28454331" version="7" timestamp="2009-09-01T10:43:57Z" uid="36809" user="pfoten_weg_!_" changeset="2335754">
    <nd ref="289063437"/>
    <nd ref="416422615"/>
    <nd ref="312612191"/>
    <nd ref="312612125"/>
    <nd ref="312612143"/>
    <nd ref="312612155"/>
    <nd ref="312612180"/>
    <nd ref="312612167"/>
    <nd ref="312612173"/>
    <nd ref="269232191"/>
    <tag k="highway" v="residential"/>
    <tag k="name" v="Richard-Strauss-Straße"/>
    <tag k="source" v="survey"/>
  </way>
  <way id="28454331" version="8" timestamp="2009-10-02T21:25:10Z" uid="86259" user="hasse_osm_korinthenkacker" changeset="2717728">
    <nd ref="289063437"/>
    <nd ref="416422615"/>
    <nd ref="312612191"/>
    <nd ref="312612125"/>
    <nd ref="312612143"/>
    <nd ref="312612155"/>
    <nd ref="312612180"/>
    <nd ref="312612167"/>
    <nd ref="312612173"/>
    <nd ref="269232191"/>
    <tag k="highway" v="residential"/>
    <tag k="name" v="Richard-Strauss-Straße"/>
  </way>
  <way id="28454331" version="9" timestamp="2009-10-02T21:34:42Z" uid="86259" user="hasse_osm_korinthenkacker" changeset="2717862">
    <nd ref="289063437"/>
    <nd ref="416422615"/>
    <nd ref="312612191"/>
    <nd ref="312612125"/>
    <nd ref="312612143"/>
    <nd ref="312612155"/>
    <nd ref="312612180"/>
    <nd ref="312612167"/>
    <nd ref="312612173"/>
    <nd ref="269232191"/>
    <tag k="highway" v="residential"/>
    <tag k="name" v="Richard-Strauss-Straße"/>
    <tag k="source" v="survey"/>
    <tag k="surface" v="asphalt"/>
  </way>
  <way id="28454331" version="10" timestamp="2009-10-12T21:16:31Z" uid="36809" user="pfoten_weg_!_" changeset="2831027">
    <nd ref="289063437"/>
    <nd ref="416422615"/>
    <nd ref="312612191"/>
    <nd ref="312612125"/>
    <nd ref="312612143"/>
    <nd ref="312612155"/>
    <nd ref="312612180"/>
    <nd ref="312612167"/>
    <nd ref="312612173"/>
    <nd ref="269232191"/>
    <tag k="highway" v="residential"/>
    <tag k="name" v="Richard-Strauss-Straße"/>
    <tag k="surface" v="asphalt"/>
  </way>
  <way id="28454431" version="2" timestamp="2008-11-27T06:36:28Z" uid="36809" user="pfoten_weg_!_" changeset="801431">
    <nd ref="312613422"/>
    <nd ref="312613428"/>
    <nd ref="312613433"/>
    <nd ref="312613425"/>
    <nd ref="312613422"/>
    <tag k="layer" v="1"/>
    <tag k="leisure" v="pitch"/>
  </way>
  <way id="28454498" version="5" timestamp="2010-05-01T15:50:08Z" uid="151899" user="Bikeman2000" changeset="4576359">
    <nd ref="133067678"/>
    <nd ref="312613816"/>
    <nd ref="715610775"/>
    <nd ref="133067674"/>
    <tag k="cycleway" v="opposite_lane"/>
    <tag k="highway" v="residential"/>
    <tag k="name" v="Pionierstraße"/>
    <tag k="oneway" v="yes"/>
    <tag k="postal_code" v="40215"/>
  </way>
  <way id="28454996" version="3" timestamp="2009-10-20T23:51:55Z" uid="36809" user="pfoten_weg_!_" changeset="2908189">
    <nd ref="312619042"/>
    <nd ref="312619076"/>
    <nd ref="312619070"/>
    <nd ref="312619065"/>
    <nd ref="312619059"/>
    <nd ref="312619052"/>
    <nd ref="312619047"/>
    <nd ref="312619042"/>
    <tag k="natural" v="water"/>
  </way>
</osm>
