<?xml version='1.0' encoding='UTF-8'?>
<osm version="0.6" generator="libosmium/2.20.0">
  <way id="28466027" version="2" timestamp="2010-07-06T08:44:16Z" uid="74617" user="JohnSmith" changeset="5147679">
    <nd ref="261685046"/>
    <nd ref="261685228"/>
    <tag k="highway" v="residential"/>
    <tag k="maxspeed" v="50"/>
    <tag k="maxspeed:source" v="default residential speed limit in Australia"/>
    <tag k="name" v="Moorland Street"/>
  </way>
  <way id="28466033" version="5" timestamp="2010-07-09T20:59:17Z" uid="74617" user="JohnSmith" changeset="5176956">
    <nd ref="312738406"/>
    <nd ref="312728066"/>
    <nd ref="312738408"/>
    <nd ref="312738410"/>
    <nd ref="312738411"/>
    <tag k="highway" v="residential"/>
    <tag k="maxspeed" v="50"/>
    <tag k="maxspeed:source" v="default residential speed limit in Australia"/>
    <tag k="name" v="Sexton Road"/>
  </way>
  <way id="28466207" version="4" timestamp="2010-07-09T20:56:43Z" uid="74617" user="JohnSmith" changeset="5176956">
    <nd ref="312740818"/>
    <nd ref="312739354"/>
    <tag k="highway" v="residential"/>
    <tag k="maxspeed" v="50"/>
    <tag k="maxspeed:source" v="default residential speed limit in Australia"/>
    <tag k="name" v="Normanby Road"/>
  </way>
  <way id="28466214" version="3" timestamp="2010-07-09T20:53:40Z" uid="74617" user="JohnSmith" changeset="5176956">
    <nd ref="312739381"/>
    <nd ref="312739382"/>
    <nd ref="312739383"/>
    <nd ref="312739384"/>
    <nd ref="312739385"/>
    <nd ref="312739386"/>
    <nd ref="64619704"/>
    <tag k="highway" v="residential"/>
    <tag k="maxspeed" v="50"/>
    <tag k="maxspeed:source" v="default residential speed limit in Australia"/>
    <tag k="name" v="Normanby Road"/>
  </way>
  <way id="28466225" version="3" timestamp="2010-07-09T21:13:51Z" uid="74617" user="JohnSmith" changeset="5176956">
    <nd ref="312739673"/>
    <nd ref="312739386"/>
    <nd ref="312738162"/>
    <nd ref="312739462"/>
    <tag k="highway" v="residential"/>
    <tag k="maxspeed" v="50"/>
    <tag k="maxspeed:source" v="default residential speed limit in Australia"/>
    <tag k="name" v="Arthur Street"/>
  </way>
  <way id="28466349" version="3" timestamp="2010-05-11T03:14:17Z" uid="4467" user="Rosscoe" changeset="4665261">
    <nd ref="312740647"/>
    <nd ref="312740649"/>
    <nd ref="729417190"/>
    <tag k="highway" v="tertiary"/>
    <tag k="name" v="Homer Street"/>
  </way>
  <way id="28466355" version="2" timestamp="2009-09-15T15:02:50Z" uid="43967" user="railsnail" changeset="2493366">
    <nd ref="307130377"/>
    <nd ref="44419308"/>
    <nd ref="31088196"/>
    <nd ref="301198266"/>
    <nd ref="31088197"/>
    <nd ref="301198264"/>
    <nd ref="301198262"/>
    <nd ref="31088198"/>
    <nd ref="301198277"/>
    <nd ref="301198261"/>
    <nd ref="31088199"/>
    <nd ref="31088200"/>
    <nd ref="301198279"/>
    <nd ref="31088201"/>
    <nd ref="301198280"/>
    <nd ref="301198282"/>
    <nd ref="31088202"/>
    <nd ref="31088203"/>
    <nd ref="301198283"/>
    <nd ref="31088204"/>
    <nd ref="301198285"/>
    <nd ref="31088205"/>
    <nd ref="31088206"/>
    <nd ref="256068469"/>
    <nd ref="256068470"/>
    <nd ref="256068471"/>
    <nd ref="256068472"/>
    <nd ref="256068473"/>
    <nd ref="256068474"/>
    <nd ref="256068475"/>
    <nd ref="256068476"/>
    <nd ref="301198287"/>
    <nd ref="256068477"/>
    <nd ref="256068478"/>
    <nd ref="256068479"/>
    <nd ref="256068480"/>
    <nd ref="256068481"/>
    <nd ref="256068482"/>
    <nd ref="256068483"/>
    <nd ref="256068484"/>
    <nd ref="256068485"/>
    <nd ref="256068486"/>
    <nd ref="50849761"/>
    <tag k="natural" v="coastline"/>
  </way>
  <way id="28466355" version="3" timestamp="2009-09-17T07:54:20Z" uid="43967" user="railsnail" changeset="2509698">
    <nd ref="307130377"/>
    <nd ref="44419308"/>
    <nd ref="31088196"/>
    <nd ref="498766108"/>
    <nd ref="301198266"/>
    <nd ref="498766106"/>
    <nd ref="498766105"/>
    <nd ref="498766104"/>
    <nd ref="498766103"/>
    <nd ref="498766102"/>
    <nd ref="31088197"/>
    <nd ref="301198264"/>
    <nd ref="301198262"/>
    <nd ref="498766074"/>
    <nd ref="498766075"/>
    <nd ref="31088198"/>
    <nd ref="301198277"/>
    <nd ref="498766076"/>
    <nd ref="498766077"/>
    <nd ref="498766078"/>
    <nd ref="498766079"/>
    <nd ref="498766080"/>
    <nd ref="301198261"/>
    <nd ref="498766081"/>
    <nd ref="498766082"/>
    <nd ref="31088199"/>
    <nd ref="498766083"/>
    <nd ref="498766084"/>
    <nd ref="498766086"/>
    <nd ref="31088200"/>
    <nd ref="498766087"/>
    <nd ref="498766088"/>
    <nd ref="498766089"/>
    <nd ref="301198279"/>
    <nd ref="498766090"/>
    <nd ref="31088201"/>
    <nd ref="498766091"/>
    <nd ref="498766092"/>
    <nd ref="301198280"/>
    <nd ref="498766093"/>
    <nd ref="498766094"/>
    <nd ref="498766095"/>
    <nd ref="301198282"/>
    <nd ref="31088202"/>
    <nd ref="498766096"/>
    <nd ref="31088203"/>
    <nd ref="498766097"/>
    <nd ref="301198283"/>
    <nd ref="498766098"/>
    <nd ref="498766099"/>
    <nd ref="31088204"/>
    <nd ref="498766100"/>
    <nd ref="301198285"/>
    <nd ref="498766101"/>
    <nd ref="31088205"/>
    <nd ref="31088206"/>
    <nd ref="256068469"/>
    <nd ref="256068470"/>
    <nd ref="256068471"/>
    <nd ref="256068472"/>
    <nd ref="256068473"/>
    <nd ref="256068474"/>
    <nd ref="256068475"/>
    <nd ref="256068476"/>
    <nd ref="301198287"/>
    <nd ref="256068477"/>
    <nd ref="256068478"/>
    <nd ref="256068479"/>
    <nd ref="256068480"/>
    <nd ref="256068481"/>
    <nd ref="256068482"/>
    <nd ref="256068483"/>
    <nd ref="256068484"/>
    <nd ref="256068485"/>
    <nd ref="256068486"/>
    <nd ref="50849761"/>
    <tag k="natural" v="coastline"/>
  </way>
  <way id="28466370" version="2" timestamp="2010-07-09T21:10:21Z" uid="74617" user="JohnSmith" changeset="5176956">
    <nd ref="312740818"/>
    <nd ref="312740819"/>
    <nd ref="312740820"/>
    <nd ref="312740822"/>
    <tag k="highway" v="residential"/>
    <tag k="maxspeed" v="50"/>
    <tag k="maxspeed:source" v="default residential speed limit in Australia"/>
    <tag k="name" v="Lancaster Street"/>
  </way>
  <way id="28466370" version="3" timestamp="2011-04-16T03:38:36Z" uid="4467" user="Rosscoe" changeset="7875153">
    <nd ref="312740818"/>
    <nd ref="312740819"/>
    <nd ref="312740820"/>
    <nd ref="312740822"/>
    <tag k="highway" v="residential"/>
    <tag k="maxspeed" v="50"/>
    <tag k="name" v="Lancaster Street"/>
    <tag k="source:maxspeed" v="default residential speed limit in Australia"/>
  </way>
  <way id="28466393" version="4" timestamp="2010-07-09T20:54:52Z" uid="74617" user="JohnSmith" changeset="5176956">
    <nd ref="312741412"/>
    <nd ref="312741413"/>
    <nd ref="312741414"/>
    <nd ref="312741415"/>
    <nd ref="312741416"/>
    <tag k="highway" v="residential"/>
    <tag k="maxspeed" v="50"/>
    <tag k="maxspeed:source" v="default residential speed limit in Australia"/>
    <tag k="name" v="Crawford Road"/>
  </way>
  <way id="28466393" version="6" timestamp="2011-04-16T03:38:41Z" uid="4467" user="Rosscoe" changeset="7875153">
    <nd ref="312741412"/>
    <nd ref="1245745971"/>
    <nd ref="1245745974"/>
    <nd ref="312741413"/>
    <nd ref="312741414"/>
    <nd ref="312741415"/>
    <nd ref="312741416"/>
    <tag k="highway" v="residential"/>
    <tag k="maxspeed" v="50"/>
    <tag k="name" v="Crawford Road"/>
    <tag k="source:maxspeed" v="default residential speed limit in Australia"/>
  </way>
  <way id="28466431" version="2" timestamp="2010-07-09T21:06:21Z" uid="74617" user="JohnSmith" changeset="5176956">
    <nd ref="312741472"/>
    <nd ref="312741473"/>
    <nd ref="312741474"/>
    <nd ref="312741475"/>
    <nd ref="312741476"/>
    <tag k="highway" v="residential"/>
    <tag k="maxspeed" v="50"/>
    <tag k="maxspeed:source" v="default residential speed limit in Australia"/>
    <tag k="name" v="Boulton Street"/>
  </way>
  <way id="28466431" version="3" timestamp="2011-04-16T03:38:56Z" uid="4467" user="Rosscoe" changeset="7875153">
    <nd ref="312741472"/>
    <nd ref="312741473"/>
    <nd ref="312741474"/>
    <nd ref="312741475"/>
    <nd ref="312741476"/>
    <tag k="highway" v="residential"/>
    <tag k="maxspeed" v="50"/>
    <tag k="name" v="Boulton Street"/>
    <tag k="source:maxspeed" v="default residential speed limit in Australia"/>
  </way>
  <way id="28466435" version="3" timestamp="2009-08-03T11:18:13Z" uid="4467" user="Rosscoe" changeset="2024270">
    <nd ref="261687001"/>
    <nd ref="318317190"/>
    <nd ref="261687031"/>
    <tag k="highway" v="residential"/>
    <tag k="name" v="Woodlea Street"/>
    <tag k="oneway" v="yes"/>
  </way>
  <way id="28466435" version="4" timestamp="2010-07-06T08:48:19Z" uid="74617" user="JohnSmith" changeset="5147679">
    <nd ref="261687001"/>
    <nd ref="318317190"/>
    <nd ref="261687031"/>
    <tag k="highway" v="residential"/>
    <tag k="maxspeed" v="50"/>
    <tag k="maxspeed:source" v="default residential speed limit in Australia"/>
    <tag k="name" v="Woodlea Street"/>
    <tag k="oneway" v="yes"/>
  </way>
  <way id="28466437" version="3" timestamp="2009-08-03T11:26:15Z" uid="4467" user="Rosscoe" changeset="2024358">
    <nd ref="261687032"/>
    <nd ref="261687011"/>
    <nd ref="261687010"/>
    <nd ref="261687009"/>
    <nd ref="261687008"/>
    <nd ref="254609433"/>
    <nd ref="312741772"/>
    <tag k="highway" v="residential"/>
    <tag k="name" v="Homestead Street"/>
    <tag k="oneway" v="yes"/>
  </way>
  <way id="28466437" version="4" timestamp="2009-08-03T11:26:23Z" uid="4467" user="Rosscoe" changeset="2024361">
    <nd ref="261687032"/>
    <nd ref="261687011"/>
    <nd ref="261687010"/>
    <nd ref="261687009"/>
    <nd ref="261687008"/>
    <nd ref="312741772"/>
    <tag k="highway" v="residential"/>
    <tag k="name" v="Homestead Street"/>
    <tag k="oneway" v="yes"/>
  </way>
  <way id="28466437" version="5" timestamp="2010-07-06T08:44:22Z" uid="74617" user="JohnSmith" changeset="5147679">
    <nd ref="261687032"/>
    <nd ref="261687011"/>
    <nd ref="261687010"/>
    <nd ref="261687009"/>
    <nd ref="261687008"/>
    <nd ref="312741772"/>
    <tag k="highway" v="residential"/>
    <tag k="maxspeed" v="50"/>
    <tag k="maxspeed:source" v="default residential speed limit in Australia"/>
    <tag k="name" v="Homestead Street"/>
    <tag k="oneway" v="yes"/>
  </way>
  <way id="28466440" version="2" timestamp="2009-08-03T11:26:15Z" uid="4467" user="Rosscoe" changeset="2024358">
    <nd ref="254609338"/>
    <nd ref="263229505"/>
    <nd ref="261686998"/>
    <nd ref="455038563"/>
    <tag k="highway" v="residential"/>
    <tag k="name" v="Kine Street"/>
  </way>
  <way id="28466440" version="4" timestamp="2010-07-06T08:47:58Z" uid="74617" user="JohnSmith" changeset="5147679">
    <nd ref="254609338"/>
    <nd ref="263229505"/>
    <nd ref="261686998"/>
    <nd ref="499950537"/>
    <tag k="highway" v="residential"/>
    <tag k="maxspeed" v="50"/>
    <tag k="maxspeed:source" v="default residential speed limit in Australia"/>
    <tag k="name" v="Kine Street"/>
  </way>
  <way id="28466442" version="3" timestamp="2009-08-03T11:26:15Z" uid="4467" user="Rosscoe" changeset="2024358">
    <nd ref="312741772"/>
    <nd ref="261687005"/>
    <nd ref="261687004"/>
    <nd ref="261687003"/>
    <nd ref="261687002"/>
    <nd ref="318317189"/>
    <nd ref="261687001"/>
    <tag k="highway" v="residential"/>
    <tag k="name" v="Homestead Street"/>
    <tag k="oneway" v="yes"/>
  </way>
  <way id="28466442" version="4" timestamp="2010-07-06T08:45:34Z" uid="74617" user="JohnSmith" changeset="5147679">
    <nd ref="312741772"/>
    <nd ref="261687005"/>
    <nd ref="261687004"/>
    <nd ref="261687003"/>
    <nd ref="261687002"/>
    <nd ref="318317189"/>
    <nd ref="261687001"/>
    <tag k="highway" v="residential"/>
    <tag k="maxspeed" v="50"/>
    <tag k="maxspeed:source" v="default residential speed limit in Australia"/>
    <tag k="name" v="Homestead Street"/>
    <tag k="oneway" v="yes"/>
  </way>
  <way id="28466449" version="4" timestamp="2010-07-09T21:42:20Z" uid="74617" user="JohnSmith" changeset="5176956">
    <nd ref="312741934"/>
    <nd ref="312741935"/>
    <nd ref="312741936"/>
    <nd ref="312741937"/>
    <nd ref="312741938"/>
    <nd ref="312741940"/>
    <tag k="highway" v="residential"/>
    <tag k="maxspeed" v="50"/>
    <tag k="maxspeed:source" v="default residential speed limit in Australia"/>
    <tag k="name" v="Boulton Street"/>
  </way>
  <way id="28466449" version="5" timestamp="2011-04-16T03:39:09Z" uid="4467" user="Rosscoe" changeset="7875153">
    <nd ref="312741934"/>
    <nd ref="312741935"/>
    <nd ref="312741936"/>
    <nd ref="312741937"/>
    <nd ref="312741938"/>
    <nd ref="312741940"/>
    <tag k="highway" v="residential"/>
    <tag k="maxspeed" v="50"/>
    <tag k="name" v="Boulton Street"/>
    <tag k="source:maxspeed" v="default residential speed limit in Australia"/>
  </way>
  <way id="28466470" version="1" timestamp="2008-11-17T12:05:50Z" uid="30201" user="rrankin" changeset="760307">
    <nd ref="312743252"/>
    <nd ref="277029382"/>
    <nd ref="277029384"/>
    <nd ref="277029385"/>
    <nd ref="277029386"/>
    <nd ref="277029387"/>
    <nd ref="277029388"/>
    <nd ref="277029389"/>
    <nd ref="312646100"/>
    <tag k="created_by" v="Potlatch 0.9c"/>
    <tag k="highway" v="residential"/>
    <tag k="name" v="McDermott Drive"/>
  </way>
  <way id="28466470" version="3" timestamp="2010-07-07T08:14:52Z" uid="74617" user="JohnSmith" changeset="5156250">
    <nd ref="312743252"/>
    <nd ref="317316749"/>
    <nd ref="317316756"/>
    <tag k="highway" v="residential"/>
    <tag k="maxspeed" v="50"/>
    <tag k="maxspeed:source" v="default residential speed limit in Australia"/>
    <tag k="name" v="McDermott Drive"/>
  </way>
  <way id="28466471" version="1" timestamp="2008-11-17T12:05:51Z" uid="30201" user="rrankin" changeset="760307">
    <nd ref="312743263"/>
    <nd ref="312743252"/>
    <tag k="bridge" v="yes"/>
    <tag k="created_by" v="Potlatch 0.9c"/>
    <tag k="highway" v="residential"/>
    <tag k="layer" v="1"/>
    <tag k="name" v="McDermott Drive"/>
  </way>
  <way id="28466471" version="2" timestamp="2010-07-07T08:15:27Z" uid="74617" user="JohnSmith" changeset="5156250">
    <nd ref="312743263"/>
    <nd ref="312743252"/>
    <tag k="bridge" v="yes"/>
    <tag k="highway" v="residential"/>
    <tag k="layer" v="1"/>
    <tag k="maxspeed" v="50"/>
    <tag k="maxspeed:source" v="default residential speed limit in Australia"/>
    <tag k="name" v="McDermott Drive"/>
  </way>
  <way id="28466472" version="3" timestamp="2010-05-11T03:14:17Z" uid="4467" user="Rosscoe" changeset="4665261">
    <nd ref="312740655"/>
    <nd ref="729417187"/>
    <tag k="highway" v="residential"/>
    <tag k="name" v="Delphine Avenue"/>
  </way>
  <way id="28466472" version="4" timestamp="2010-07-09T21:44:11Z" uid="74617" user="JohnSmith" changeset="5176956">
    <nd ref="312740655"/>
    <nd ref="729417187"/>
    <tag k="highway" v="residential"/>
    <tag k="maxspeed" v="50"/>
    <tag k="maxspeed:source" v="default residential speed limit in Australia"/>
    <tag k="name" v="Delphine Avenue"/>
  </way>
  <way id="28466472" version="5" timestamp="2011-04-16T03:39:15Z" uid="4467" user="Rosscoe" changeset="7875153">
    <nd ref="312740655"/>
    <nd ref="729417187"/>
    <tag k="highway" v="residential"/>
    <tag k="maxspeed" v="50"/>
    <tag k="name" v="Delphine Avenue"/>
    <tag k="source:maxspeed" v="default residential speed limit in Australia"/>
  </way>
  <way id="28466473" version="1" timestamp="2008-11-17T12:05:52Z" uid="30201" user="rrankin" changeset="760307">
    <nd ref="312646100"/>
    <nd ref="277029390"/>
    <nd ref="277029391"/>
    <nd ref="277029392"/>
    <nd ref="277029396"/>
    <nd ref="277029405"/>
    <nd ref="277029397"/>
    <nd ref="277029398"/>
    <tag k="created_by" v="Potlatch 0.9c"/>
    <tag k="highway" v="residential"/>
    <tag k="name" v="Queen Street"/>
  </way>
  <way id="28466473" version="4" timestamp="2010-07-07T08:15:44Z" uid="74617" user="JohnSmith" changeset="5156250">
    <nd ref="312646100"/>
    <nd ref="277029390"/>
    <nd ref="317200425"/>
    <nd ref="317200434"/>
    <nd ref="277029391"/>
    <nd ref="317193225"/>
    <nd ref="277029392"/>
    <nd ref="277029396"/>
    <nd ref="277029405"/>
    <nd ref="277029397"/>
    <nd ref="277029398"/>
    <nd ref="277031111"/>
    <tag k="highway" v="residential"/>
    <tag k="maxspeed" v="50"/>
    <tag k="maxspeed:source" v="default residential speed limit in Australia"/>
    <tag k="name" v="Queen Street"/>
  </way>
  <way id="28466474" version="1" timestamp="2008-11-17T12:05:52Z" uid="30201" user="rrankin" changeset="760307">
    <nd ref="260362266"/>
    <nd ref="312743287"/>
    <nd ref="277029377"/>
    <tag k="highway" v="residential"/>
    <tag k="name" v="Bourke Street"/>
  </way>
  <way id="28466474" version="5" timestamp="2010-07-07T08:16:11Z" uid="74617" user="JohnSmith" changeset="5156250">
    <nd ref="260362266"/>
    <nd ref="317153322"/>
    <nd ref="317367189"/>
    <nd ref="317367196"/>
    <tag k="highway" v="residential"/>
    <tag k="maxspeed" v="50"/>
    <tag k="maxspeed:source" v="default residential speed limit in Australia"/>
    <tag k="name" v="Bourke Street"/>
  </way>
  <way id="28466475" version="1" timestamp="2008-11-17T12:05:53Z" uid="30201" user="rrankin" changeset="760307">
    <nd ref="277031088"/>
    <nd ref="277031089"/>
    <nd ref="277031092"/>
    <nd ref="277031093"/>
    <tag k="created_by" v="Potlatch 0.9c"/>
    <tag k="highway" v="residential"/>
    <tag k="name" v="Brewer Street"/>
  </way>
  <way id="28466475" version="2" timestamp="2010-07-07T08:15:01Z" uid="74617" user="JohnSmith" changeset="5156250">
    <nd ref="277031088"/>
    <nd ref="277031089"/>
    <nd ref="277031092"/>
    <nd ref="277031093"/>
    <tag k="highway" v="residential"/>
    <tag k="maxspeed" v="50"/>
    <tag k="maxspeed:source" v="default residential speed limit in Australia"/>
    <tag k="name" v="Brewer Street"/>
  </way>
  <way id="28466476" version="1" timestamp="2008-11-17T12:05:54Z" uid="30201" user="rrankin" changeset="760307">
    <nd ref="277031088"/>
    <nd ref="85006297"/>
    <nd ref="85006298"/>
    <tag k="created_by" v="Potlatch alpha"/>
    <tag k="highway" v="secondary"/>
    <tag k="name" v="Tarlo Street"/>
    <tag k="ref" v="MR256"/>
    <tag k="source" v="survey"/>
  </way>
  <way id="28466476" version="2" timestamp="2008-11-17T20:41:09Z" uid="30201" user="rrankin" changeset="760473"/>
  <way id="28466477" version="1" timestamp="2008-11-17T12:05:55Z" uid="30201" user="rrankin" changeset="760307">
    <nd ref="112399614"/>
    <nd ref="112399615"/>
    <nd ref="112399616"/>
    <nd ref="112399617"/>
    <tag k="created_by" v="Potlatch 0.5a"/>
    <tag k="highway" v="residential"/>
    <tag k="name" v="Tarlo Street"/>
  </way>
  <way id="28466477" version="2" timestamp="2008-11-17T20:41:06Z" uid="30201" user="rrankin" changeset="760473">
    <nd ref="112399614"/>
    <nd ref="112399615"/>
    <nd ref="112399616"/>
    <nd ref="112399617"/>
    <tag k="created_by" v="Potlatch 0.5a"/>
    <tag k="highway" v="secondary"/>
    <tag k="name" v="Tarlo Street"/>
  </way>
  <way id="28466478" version="1" timestamp="2008-11-17T12:05:56Z" uid="30201" user="rrankin" changeset="760307">
    <nd ref="277031109"/>
    <nd ref="277031103"/>
    <nd ref="277031110"/>
    <nd ref="277031111"/>
    <nd ref="277031115"/>
    <nd ref="277031122"/>
    <nd ref="277031128"/>
    <tag k="created_by" v="Potlatch 0.9c"/>
    <tag k="highway" v="residential"/>
    <tag k="name" v="Dalley Street"/>
  </way>
  <way id="28466478" version="4" timestamp="2010-07-07T08:15:52Z" uid="74617" user="JohnSmith" changeset="5156250">
    <nd ref="277031109"/>
    <nd ref="317195486"/>
    <nd ref="317195478"/>
    <nd ref="317195470"/>
    <nd ref="317208471"/>
    <nd ref="277031103"/>
    <nd ref="277031110"/>
    <nd ref="277031111"/>
    <nd ref="277031115"/>
    <nd ref="277031122"/>
    <nd ref="277031128"/>
    <tag k="highway" v="residential"/>
    <tag k="maxspeed" v="50"/>
    <tag k="maxspeed:source" v="default residential speed limit in Australia"/>
    <tag k="name" v="Dalley Street"/>
  </way>
  <way id="28466479" version="1" timestamp="2008-11-17T12:05:56Z" uid="30201" user="rrankin" changeset="760307">
    <nd ref="277031106"/>
    <nd ref="277031107"/>
    <nd ref="277031108"/>
    <nd ref="277031109"/>
    <tag k="created_by" v="Potlatch 0.9c"/>
    <tag k="highway" v="residential"/>
    <tag k="name" v="Dewhirst Street"/>
  </way>
  <way id="28466479" version="2" timestamp="2010-07-07T08:16:19Z" uid="74617" user="JohnSmith" changeset="5156250">
    <nd ref="277031106"/>
    <nd ref="277031107"/>
    <nd ref="277031108"/>
    <nd ref="277031109"/>
    <tag k="highway" v="residential"/>
    <tag k="maxspeed" v="50"/>
    <tag k="maxspeed:source" v="default residential speed limit in Australia"/>
    <tag k="name" v="Dewhirst Street"/>
  </way>
  <way id="28466480" version="1" timestamp="2008-11-17T12:05:57Z" uid="30201" user="rrankin" changeset="760307">
    <nd ref="277031145"/>
    <nd ref="277031152"/>
    <nd ref="277031186"/>
    <nd ref="277031158"/>
    <nd ref="277031160"/>
    <nd ref="277031161"/>
    <nd ref="277031162"/>
    <tag k="created_by" v="Potlatch 0.9c"/>
    <tag k="highway" v="residential"/>
    <tag k="name" v="Chatsbury Street"/>
  </way>
  <way id="28466480" version="2" timestamp="2008-11-17T20:41:07Z" uid="30201" user="rrankin" changeset="760473">
    <nd ref="277031145"/>
    <nd ref="277031152"/>
    <nd ref="277031186"/>
    <nd ref="277031160"/>
    <nd ref="277031161"/>
    <nd ref="277031162"/>
    <tag k="created_by" v="Potlatch 0.9c"/>
    <tag k="highway" v="residential"/>
    <tag k="name" v="Chatsbury Street"/>
  </way>
  <way id="28466480" version="5" timestamp="2010-07-07T08:15:49Z" uid="74617" user="JohnSmith" changeset="5156250">
    <nd ref="277031145"/>
    <nd ref="277031152"/>
    <nd ref="277031186"/>
    <nd ref="574164913"/>
    <tag k="highway" v="residential"/>
    <tag k="maxspeed" v="50"/>
    <tag k="maxspeed:source" v="default residential speed limit in Australia"/>
    <tag k="name" v="Chatsbury Street"/>
  </way>
  <way id="28466481" version="1" timestamp="2008-11-17T12:05:58Z" uid="30201" user="rrankin" changeset="760307">
    <nd ref="277031162"/>
    <nd ref="277031163"/>
    <nd ref="277031164"/>
    <nd ref="277031165"/>
    <nd ref="277031184"/>
    <nd ref="277031166"/>
    <nd ref="277031167"/>
    <nd ref="277031168"/>
    <tag k="created_by" v="Potlatch 0.9c"/>
    <tag k="highway" v="residential"/>
  </way>
  <way id="28466481" version="2" timestamp="2008-11-17T20:41:07Z" uid="30201" user="rrankin" changeset="760473">
    <nd ref="277031162"/>
    <nd ref="277031163"/>
    <nd ref="277031164"/>
    <nd ref="277031165"/>
    <nd ref="277031184"/>
    <nd ref="277031166"/>
    <nd ref="277031167"/>
    <nd ref="277031168"/>
    <tag k="created_by" v="Potlatch 0.9c"/>
    <tag k="highway" v="residential"/>
    <tag k="name" v="Maude Street"/>
  </way>
  <way id="28466481" version="5" timestamp="2010-07-07T08:16:16Z" uid="74617" user="JohnSmith" changeset="5156250">
    <nd ref="277031162"/>
    <nd ref="277031163"/>
    <nd ref="277031164"/>
    <nd ref="277031165"/>
    <nd ref="277031184"/>
    <nd ref="277031166"/>
    <nd ref="317037614"/>
    <nd ref="317186431"/>
    <tag k="highway" v="residential"/>
    <tag k="maxspeed" v="50"/>
    <tag k="maxspeed:source" v="default residential speed limit in Australia"/>
    <tag k="name" v="Maude Street"/>
  </way>
  <way id="28466482" version="1" timestamp="2008-11-17T12:05:59Z" uid="30201" user="rrankin" changeset="760307">
    <nd ref="312743318"/>
    <nd ref="277031187"/>
    <nd ref="277031188"/>
    <tag k="created_by" v="Potlatch 0.9c"/>
    <tag k="highway" v="residential"/>
  </way>
  <way id="28466482" version="3" timestamp="2010-07-07T08:15:06Z" uid="74617" user="JohnSmith" changeset="5156250">
    <nd ref="312743318"/>
    <nd ref="277031187"/>
    <nd ref="277031188"/>
    <tag k="highway" v="residential"/>
    <tag k="maxspeed" v="50"/>
    <tag k="maxspeed:source" v="default residential speed limit in Australia"/>
    <tag k="name" v="Strathaird Lane"/>
  </way>
  <way id="28466517" version="3" timestamp="2010-07-09T21:41:21Z" uid="74617" user="JohnSmith" changeset="5176956">
    <nd ref="312743360"/>
    <nd ref="312744129"/>
    <tag k="highway" v="residential"/>
    <tag k="maxspeed" v="50"/>
    <tag k="maxspeed:source" v="default residential speed limit in Australia"/>
    <tag k="name" v="Ibrahim Court"/>
  </way>
  <way id="28466517" version="4" timestamp="2011-04-16T03:38:48Z" uid="4467" user="Rosscoe" changeset="7875153">
    <nd ref="312743360"/>
    <nd ref="312744129"/>
    <tag k="highway" v="residential"/>
    <tag k="maxspeed" v="50"/>
    <tag k="name" v="Ibrahim Court"/>
    <tag k="source:maxspeed" v="default residential speed limit in Australia"/>
  </way>
  <way id="28466529" version="2" timestamp="2010-05-11T03:14:17Z" uid="4467" user="Rosscoe" changeset="4665261">
    <nd ref="312744170"/>
    <nd ref="312744171"/>
    <nd ref="729417193"/>
    <tag k="highway" v="residential"/>
    <tag k="name" v="Crawford Road"/>
  </way>
  <way id="28466529" version="3" timestamp="2010-07-09T21:42:08Z" uid="74617" user="JohnSmith" changeset="5176956">
    <nd ref="312744170"/>
    <nd ref="312744171"/>
    <nd ref="729417193"/>
    <tag k="highway" v="residential"/>
    <tag k="maxspeed" v="50"/>
    <tag k="maxspeed:source" v="default residential speed limit in Australia"/>
    <tag k="name" v="Crawford Road"/>
  </way>
  <way id="28466529" version="4" timestamp="2011-04-16T03:39:09Z" uid="4467" user="Rosscoe" changeset="7875153">
    <nd ref="312744170"/>
    <nd ref="312744171"/>
    <nd ref="729417193"/>
    <tag k="highway" v="residential"/>
    <tag k="maxspeed" v="50"/>
    <tag k="name" v="Crawford Road"/>
    <tag k="source:maxspeed" v="default residential speed limit in Australia"/>
  </way>
  <way id="28466541" version="3" timestamp="2010-07-09T21:43:47Z" uid="74617" user="JohnSmith" changeset="5176956">
    <nd ref="312740656"/>
    <nd ref="312744172"/>
    <tag k="highway" v="residential"/>
    <tag k="maxspeed" v="50"/>
    <tag k="maxspeed:source" v="default residential speed limit in Australia"/>
    <tag k="name" v="Bailey Street"/>
  </way>
  <way id="28466541" version="4" timestamp="2011-04-16T03:39:31Z" uid="4467" user="Rosscoe" changeset="7875153">
    <nd ref="312740656"/>
    <nd ref="312744172"/>
    <tag k="highway" v="residential"/>
    <tag k="maxspeed" v="50"/>
    <tag k="name" v="Bailey Street"/>
    <tag k="source:maxspeed" v="default residential speed limit in Australia"/>
  </way>
  <way id="28466552" version="4" timestamp="2010-07-09T21:43:53Z" uid="74617" user="JohnSmith" changeset="5176956">
    <nd ref="312744276"/>
    <nd ref="312744277"/>
    <nd ref="312744173"/>
    <nd ref="312744278"/>
    <nd ref="312744279"/>
    <tag k="highway" v="residential"/>
    <tag k="maxspeed" v="50"/>
    <tag k="maxspeed:source" v="default residential speed limit in Australia"/>
    <tag k="name" v="Bathurst Street"/>
  </way>
  <way id="28466552" version="5" timestamp="2011-04-16T03:39:17Z" uid="4467" user="Rosscoe" changeset="7875153">
    <nd ref="312744276"/>
    <nd ref="312744277"/>
    <nd ref="312744173"/>
    <nd ref="312744278"/>
    <nd ref="312744279"/>
    <tag k="highway" v="residential"/>
    <tag k="maxspeed" v="50"/>
    <tag k="name" v="Bathurst Street"/>
    <tag k="source:maxspeed" v="default residential speed limit in Australia"/>
  </way>
  <way id="28466554" version="6" timestamp="2010-07-09T21:42:18Z" uid="74617" user="JohnSmith" changeset="5176956">
    <nd ref="312743362"/>
    <nd ref="312744285"/>
    <tag k="highway" v="residential"/>
    <tag k="maxspeed" v="50"/>
    <tag k="maxspeed:source" v="default residential speed limit in Australia"/>
    <tag k="name" v="Cleaveland Street"/>
    <tag k="oneway" v="yes"/>
  </way>
  <way id="28466554" version="8" timestamp="2011-04-16T03:39:29Z" uid="4467" user="Rosscoe" changeset="7875153">
    <nd ref="312743362"/>
    <nd ref="312744285"/>
    <tag k="highway" v="residential"/>
    <tag k="maxspeed" v="50"/>
    <tag k="name" v="Cleveland Street"/>
    <tag k="oneway" v="yes"/>
    <tag k="source:maxspeed" v="default residential speed limit in Australia"/>
  </way>
  <way id="28466580" version="2" timestamp="2010-03-12T02:03:50Z" uid="245275" user="Marianian" changeset="4103087">
    <nd ref="38438628"/>
    <nd ref="38438627"/>
    <nd ref="207646467"/>
    <tag k="highway" v="trunk"/>
    <tag k="ref" v="A39"/>
  </way>
  <way id="28466580" version="3" timestamp="2010-03-12T02:04:10Z" uid="245275" user="Marianian" changeset="4103087">
    <nd ref="38438628"/>
    <nd ref="38438627"/>
    <nd ref="664318678"/>
    <nd ref="664318679"/>
    <nd ref="207646467"/>
    <tag k="highway" v="trunk"/>
    <tag k="ref" v="A361"/>
  </way>
  <way id="28466580" version="4" timestamp="2010-03-12T02:04:53Z" uid="245275" user="Marianian" changeset="4103087">
    <nd ref="38438628"/>
    <nd ref="38438627"/>
    <nd ref="664318678"/>
    <nd ref="664318679"/>
    <nd ref="207646467"/>
    <tag k="highway" v="motorway"/>
    <tag k="oneway" v="yes"/>
    <tag k="ref" v="A361(M)"/>
  </way>
  <way id="28466580" version="5" timestamp="2010-03-12T02:07:02Z" uid="245275" user="Marianian" changeset="4103087">
    <nd ref="38438628"/>
    <nd ref="38438627"/>
    <nd ref="664318678"/>
    <nd ref="664318679"/>
    <nd ref="207646467"/>
    <tag k="highway" v="motorway"/>
    <tag k="name" v="Atlantic Highway"/>
    <tag k="oneway" v="yes"/>
    <tag k="ref" v="A361(M)"/>
  </way>
  <way id="28466580" version="6" timestamp="2010-03-12T04:10:25Z" uid="245275" user="Marianian" changeset="4103450">
    <nd ref="38438628"/>
    <nd ref="38438627"/>
    <nd ref="664318678"/>
    <nd ref="664318679"/>
    <nd ref="207646467"/>
    <tag k="highway" v="motorway"/>
    <tag k="lanes" v="3"/>
    <tag k="name" v="Atlantic Highway"/>
    <tag k="oneway" v="yes"/>
    <tag k="ref" v="A361(M)"/>
  </way>
  <way id="28466580" version="7" timestamp="2010-03-12T05:03:17Z" uid="245275" user="Marianian" changeset="4103532">
    <nd ref="38438628"/>
    <nd ref="38438627"/>
    <nd ref="664318678"/>
    <nd ref="664334669"/>
    <tag k="highway" v="motorway"/>
    <tag k="lanes" v="3"/>
    <tag k="name" v="Atlantic Highway"/>
    <tag k="oneway" v="yes"/>
    <tag k="ref" v="A361(M)"/>
  </way>
  <way id="28466580" version="8" timestamp="2010-03-12T05:03:44Z" uid="245275" user="Marianian" changeset="4103532">
    <nd ref="38438628"/>
    <nd ref="38438627"/>
    <nd ref="664318678"/>
    <nd ref="664334669"/>
    <tag k="highway" v="motorway"/>
    <tag k="lanes" v="3"/>
    <tag k="name" v="Atlantic Highway"/>
    <tag k="oneway" v="yes"/>
    <tag k="ref" v="M361"/>
  </way>
  <way id="28466580" version="9" timestamp="2010-03-12T05:11:13Z" uid="245275" user="Marianian" changeset="4103532">
    <nd ref="38438628"/>
    <nd ref="38438627"/>
    <nd ref="664318678"/>
    <nd ref="664334669"/>
    <nd ref="664337486"/>
    <nd ref="664337487"/>
    <nd ref="664337488"/>
    <nd ref="664337489"/>
    <nd ref="664337485"/>
    <tag k="highway" v="motorway"/>
    <tag k="lanes" v="3"/>
    <tag k="name" v="Atlantic Highway"/>
    <tag k="oneway" v="yes"/>
    <tag k="ref" v="M361"/>
  </way>
  <way id="28466580" version="10" timestamp="2010-03-12T05:11:21Z" uid="245275" user="Marianian" changeset="4103532">
    <nd ref="38438628"/>
    <nd ref="38438627"/>
    <nd ref="664318678"/>
    <nd ref="664334669"/>
    <nd ref="664337486"/>
    <nd ref="664337487"/>
    <nd ref="664337488"/>
    <nd ref="664337489"/>
    <nd ref="664337490"/>
    <nd ref="664337485"/>
    <tag k="highway" v="motorway"/>
    <tag k="lanes" v="3"/>
    <tag k="name" v="Atlantic Highway"/>
    <tag k="oneway" v="yes"/>
    <tag k="ref" v="M361"/>
  </way>
  <way id="28466580" version="11" timestamp="2010-03-12T05:11:47Z" uid="245275" user="Marianian" changeset="4103532">
    <nd ref="38438628"/>
    <nd ref="38438627"/>
    <nd ref="664318678"/>
    <nd ref="664334669"/>
    <nd ref="664337486"/>
    <nd ref="664337487"/>
    <nd ref="664337488"/>
    <nd ref="664337489"/>
    <nd ref="664337490"/>
    <nd ref="664337485"/>
    <tag k="highway" v="motorway"/>
    <tag k="lanes" v="3"/>
    <tag k="name" v="Atlantic Highway"/>
    <tag k="oneway" v="yes"/>
    <tag k="ref" v="M39"/>
  </way>
  <way id="28466580" version="12" timestamp="2010-03-12T05:13:11Z" uid="245275" user="Marianian" changeset="4103532">
    <nd ref="38438628"/>
    <nd ref="38438627"/>
    <nd ref="664318678"/>
    <nd ref="664334669"/>
    <tag k="highway" v="motorway"/>
    <tag k="lanes" v="3"/>
    <tag k="name" v="Atlantic Highway"/>
    <tag k="oneway" v="yes"/>
    <tag k="ref" v="M39"/>
  </way>
  <way id="28466581" version="3" timestamp="2010-03-12T02:03:35Z" uid="245275" user="Marianian" changeset="4103087">
    <nd ref="312744581"/>
    <nd ref="38438628"/>
    <tag k="bridge" v="yes"/>
    <tag k="highway" v="motorway"/>
    <tag k="layer" v="1"/>
    <tag k="name" v="Rumsam Bridge"/>
    <tag k="oneway" v="yes"/>
    <tag k="ref" v="A361(M)"/>
  </way>
  <way id="28466581" version="4" timestamp="2010-03-12T04:10:26Z" uid="245275" user="Marianian" changeset="4103450">
    <nd ref="312744581"/>
    <nd ref="38438628"/>
    <tag k="bridge" v="yes"/>
    <tag k="highway" v="motorway"/>
    <tag k="lanes" v="3"/>
    <tag k="layer" v="1"/>
    <tag k="name" v="Rumsam Bridge"/>
    <tag k="oneway" v="yes"/>
    <tag k="ref" v="A361(M)"/>
  </way>
  <way id="28466581" version="5" timestamp="2010-03-12T05:03:54Z" uid="245275" user="Marianian" changeset="4103532">
    <nd ref="312744581"/>
    <nd ref="38438628"/>
    <tag k="bridge" v="yes"/>
    <tag k="highway" v="motorway"/>
    <tag k="lanes" v="3"/>
    <tag k="layer" v="1"/>
    <tag k="name" v="Rumsam Bridge"/>
    <tag k="oneway" v="yes"/>
    <tag k="ref" v="M361"/>
  </way>
  <way id="28466581" version="6" timestamp="2010-03-12T05:04:04Z" uid="245275" user="Marianian" changeset="4103532">
    <nd ref="312744581"/>
    <nd ref="38438628"/>
    <tag k="bridge" v="yes"/>
    <tag k="highway" v="motorway"/>
    <tag k="lanes" v="3"/>
    <tag k="layer" v="2"/>
    <tag k="name" v="Rumsam Bridge"/>
    <tag k="oneway" v="yes"/>
    <tag k="ref" v="M361"/>
  </way>
  <way id="28466581" version="7" timestamp="2010-03-12T05:11:53Z" uid="245275" user="Marianian" changeset="4103532">
    <nd ref="312744581"/>
    <nd ref="38438628"/>
    <tag k="bridge" v="yes"/>
    <tag k="highway" v="motorway"/>
    <tag k="lanes" v="3"/>
    <tag k="layer" v="2"/>
    <tag k="name" v="Rumsam Bridge"/>
    <tag k="oneway" v="yes"/>
    <tag k="ref" v="M39"/>
  </way>
  <way id="28466599" version="4" timestamp="2010-05-11T03:14:17Z" uid="4467" user="Rosscoe" changeset="4665261">
    <nd ref="729417192"/>
    <nd ref="729417181"/>
    <nd ref="312740820"/>
    <nd ref="312741414"/>
    <nd ref="312741474"/>
    <nd ref="312744967"/>
    <tag k="highway" v="residential"/>
    <tag k="name" v="Wordsworth Street"/>
  </way>
  <way id="28466599" version="5" timestamp="2010-07-09T21:05:30Z" uid="74617" user="JohnSmith" changeset="5176956">
    <nd ref="729417192"/>
    <nd ref="729417181"/>
    <nd ref="312740820"/>
    <nd ref="312741414"/>
    <nd ref="312741474"/>
    <nd ref="312744967"/>
    <tag k="highway" v="residential"/>
    <tag k="maxspeed" v="50"/>
    <tag k="maxspeed:source" v="default residential speed limit in Australia"/>
    <tag k="name" v="Wordsworth Street"/>
  </way>
  <way id="28466599" version="6" timestamp="2011-04-16T03:39:13Z" uid="4467" user="Rosscoe" changeset="7875153">
    <nd ref="729417192"/>
    <nd ref="729417181"/>
    <nd ref="312740820"/>
    <nd ref="312741414"/>
    <nd ref="312741474"/>
    <nd ref="312744967"/>
    <tag k="highway" v="residential"/>
    <tag k="maxspeed" v="50"/>
    <tag k="name" v="Wordsworth Street"/>
    <tag k="source:maxspeed" v="default residential speed limit in Australia"/>
  </way>
  <way id="28466622" version="2" timestamp="2010-07-09T20:53:17Z" uid="74617" user="JohnSmith" changeset="5176956">
    <nd ref="312745088"/>
    <nd ref="312740819"/>
    <nd ref="312741415"/>
    <nd ref="312745089"/>
    <tag k="highway" v="residential"/>
    <tag k="maxspeed" v="50"/>
    <tag k="maxspeed:source" v="default residential speed limit in Australia"/>
    <tag k="name" v="Elsegood Street"/>
  </way>
  <way id="28466628" version="6" timestamp="2010-07-09T21:05:15Z" uid="74617" user="JohnSmith" changeset="5176956">
    <nd ref="312741473"/>
    <nd ref="312745151"/>
    <tag k="highway" v="residential"/>
    <tag k="maxspeed" v="50"/>
    <tag k="maxspeed:source" v="default residential speed limit in Australia"/>
    <tag k="name" v="Elsegood Street"/>
  </way>
  <way id="28466630" version="4" timestamp="2010-07-09T20:55:16Z" uid="74617" user="JohnSmith" changeset="5176956">
    <nd ref="312745156"/>
    <nd ref="312744967"/>
    <nd ref="312745151"/>
    <tag k="highway" v="residential"/>
    <tag k="maxspeed" v="50"/>
    <tag k="maxspeed:source" v="default residential speed limit in Australia"/>
    <tag k="name" v="Harold Street"/>
  </way>
  <way id="28466630" version="5" timestamp="2011-04-16T03:39:12Z" uid="4467" user="Rosscoe" changeset="7875153">
    <nd ref="312745156"/>
    <nd ref="312744967"/>
    <nd ref="312745151"/>
    <tag k="highway" v="residential"/>
    <tag k="maxspeed" v="50"/>
    <tag k="name" v="Harold Street"/>
    <tag k="source:maxspeed" v="default residential speed limit in Australia"/>
  </way>
  <way id="28466636" version="3" timestamp="2010-07-09T21:12:20Z" uid="74617" user="JohnSmith" changeset="5176956">
    <nd ref="312745188"/>
    <nd ref="312745152"/>
    <tag k="highway" v="residential"/>
    <tag k="maxspeed" v="50"/>
    <tag k="maxspeed:source" v="default residential speed limit in Australia"/>
    <tag k="name" v="Cleaveland Street"/>
  </way>
  <way id="28466641" version="2" timestamp="2010-07-09T21:41:09Z" uid="74617" user="JohnSmith" changeset="5176956">
    <nd ref="312745189"/>
    <nd ref="312745207"/>
    <nd ref="312745208"/>
    <nd ref="312745153"/>
    <tag k="highway" v="residential"/>
    <tag k="maxspeed" v="50"/>
    <tag k="maxspeed:source" v="default residential speed limit in Australia"/>
    <tag k="name" v="Valerie Street"/>
  </way>
  <way id="28466641" version="3" timestamp="2011-04-16T03:38:54Z" uid="4467" user="Rosscoe" changeset="7875153">
    <nd ref="312745189"/>
    <nd ref="312745207"/>
    <nd ref="312745208"/>
    <nd ref="312745153"/>
    <tag k="highway" v="residential"/>
    <tag k="maxspeed" v="50"/>
    <tag k="name" v="Valerie Street"/>
    <tag k="source:maxspeed" v="default residential speed limit in Australia"/>
  </way>
  <way id="28466645" version="3" timestamp="2011-04-16T03:39:25Z" uid="4467" user="Rosscoe" changeset="7875153">
    <nd ref="313663542"/>
    <nd ref="312745208"/>
    <tag k="foot" v="yes"/>
    <tag k="highway" v="footway"/>
  </way>
  <way id="28466647" version="3" timestamp="2011-04-16T03:38:37Z" uid="4467" user="Rosscoe" changeset="7875153">
    <nd ref="312751678"/>
    <nd ref="312745224"/>
    <nd ref="312745225"/>
    <tag k="foot" v="yes"/>
    <tag k="highway" v="footway"/>
  </way>
  <way id="28466663" version="2" timestamp="2010-03-12T00:14:25Z" uid="245275" user="Marianian" changeset="4102729">
    <nd ref="312745806"/>
    <nd ref="664305035"/>
    <nd ref="664305036"/>
    <nd ref="664305037"/>
    <nd ref="664305038"/>
    <nd ref="38438645"/>
    <tag k="bridge" v="yes"/>
    <tag k="highway" v="motorway"/>
    <tag k="layer" v="1"/>
    <tag k="name" v="Atlantic Highway"/>
    <tag k="oneway" v="yes"/>
    <tag k="ref" v="A39"/>
  </way>
  <way id="28466663" version="3" timestamp="2010-03-12T00:30:57Z" uid="245275" user="Marianian" changeset="4102795">
    <nd ref="312745806"/>
    <nd ref="664305035"/>
    <nd ref="664305036"/>
    <nd ref="664305037"/>
    <nd ref="664305038"/>
    <nd ref="38438645"/>
    <tag k="bridge" v="yes"/>
    <tag k="highway" v="motorway"/>
    <tag k="layer" v="2"/>
    <tag k="name" v="Atlantic Highway"/>
    <tag k="oneway" v="yes"/>
    <tag k="ref" v="A39(M)"/>
  </way>
  <way id="28466663" version="4" timestamp="2010-03-12T02:18:59Z" uid="245275" user="Marianian" changeset="4103119">
    <nd ref="312745806"/>
    <nd ref="664305035"/>
    <nd ref="664305036"/>
    <nd ref="664305037"/>
    <nd ref="664305038"/>
    <nd ref="38438645"/>
    <nd ref="664319702"/>
    <nd ref="664319703"/>
    <nd ref="664319704"/>
    <nd ref="664319701"/>
    <nd ref="664319705"/>
    <nd ref="664319706"/>
    <nd ref="312745802"/>
    <tag k="bridge" v="yes"/>
    <tag k="highway" v="motorway"/>
    <tag k="layer" v="2"/>
    <tag k="name" v="Atlantic Highway"/>
    <tag k="oneway" v="yes"/>
    <tag k="ref" v="A39(M)"/>
  </way>
  <way id="28466663" version="5" timestamp="2010-03-12T03:11:07Z" uid="245275" user="Marianian" changeset="4103252">
    <nd ref="312745806"/>
    <nd ref="664305035"/>
    <nd ref="664305036"/>
    <nd ref="664305037"/>
    <nd ref="664305038"/>
    <nd ref="38438645"/>
    <nd ref="664319702"/>
    <nd ref="664319703"/>
    <nd ref="664319704"/>
    <nd ref="664319701"/>
    <nd ref="664319705"/>
    <nd ref="664319706"/>
    <nd ref="312745802"/>
    <tag k="bridge" v="yes"/>
    <tag k="highway" v="motorway"/>
    <tag k="layer" v="2"/>
    <tag k="name" v="Atlantic Highway"/>
    <tag k="oneway" v="yes"/>
    <tag k="ref" v="M39"/>
  </way>
  <way id="28466663" version="6" timestamp="2010-03-12T03:37:50Z" uid="245275" user="Marianian" changeset="4103351">
    <nd ref="312745806"/>
    <nd ref="664305035"/>
    <nd ref="664305036"/>
    <nd ref="664305037"/>
    <nd ref="664305038"/>
    <nd ref="38438645"/>
    <nd ref="664319702"/>
    <nd ref="664319703"/>
    <nd ref="664319704"/>
    <nd ref="664319701"/>
    <nd ref="664319705"/>
    <nd ref="664319706"/>
    <nd ref="312745802"/>
    <tag k="bridge" v="yes"/>
    <tag k="highway" v="motorway"/>
    <tag k="lanes" v="3"/>
    <tag k="layer" v="2"/>
    <tag k="name" v="Atlantic Highway"/>
    <tag k="oneway" v="yes"/>
    <tag k="ref" v="M39"/>
  </way>
  <way id="28466664" version="3" timestamp="2010-03-11T23:46:10Z" uid="245275" user="Marianian" changeset="4102612">
    <nd ref="38438645"/>
    <nd ref="312745805"/>
    <nd ref="664288503"/>
    <nd ref="312745804"/>
    <nd ref="664288504"/>
    <nd ref="38438644"/>
    <nd ref="664288505"/>
    <nd ref="312745802"/>
    <nd ref="38438643"/>
    <nd ref="38438642"/>
    <nd ref="38438641"/>
    <nd ref="664288487"/>
    <tag k="highway" v="trunk"/>
    <tag k="name" v="Atlantic Highway"/>
    <tag k="ref" v="A39"/>
  </way>
  <way id="28466664" version="4" timestamp="2010-03-12T00:14:25Z" uid="245275" user="Marianian" changeset="4102729">
    <nd ref="38438645"/>
    <nd ref="664288503"/>
    <nd ref="312745804"/>
    <nd ref="664288504"/>
    <nd ref="38438644"/>
    <nd ref="664288505"/>
    <nd ref="664305034"/>
    <nd ref="312745802"/>
    <nd ref="38438643"/>
    <nd ref="38438642"/>
    <nd ref="38438641"/>
    <nd ref="664288487"/>
    <tag k="highway" v="motorway"/>
    <tag k="name" v="Atlantic Highway"/>
    <tag k="oneway" v="yes"/>
    <tag k="ref" v="A39"/>
  </way>
  <way id="28466664" version="5" timestamp="2010-03-12T00:30:59Z" uid="245275" user="Marianian" changeset="4102795">
    <nd ref="38438645"/>
    <nd ref="664288503"/>
    <nd ref="312745804"/>
    <nd ref="664288504"/>
    <nd ref="38438644"/>
    <nd ref="664288505"/>
    <nd ref="664305034"/>
    <nd ref="312745802"/>
    <nd ref="38438643"/>
    <nd ref="38438642"/>
    <nd ref="38438641"/>
    <nd ref="664288487"/>
    <tag k="highway" v="motorway"/>
    <tag k="name" v="Atlantic Highway"/>
    <tag k="oneway" v="yes"/>
    <tag k="ref" v="A39(M)"/>
  </way>
  <way id="28466664" version="6" timestamp="2010-03-12T02:18:45Z" uid="245275" user="Marianian" changeset="4103119">
    <nd ref="312745802"/>
    <nd ref="38438643"/>
    <nd ref="38438642"/>
    <nd ref="38438641"/>
    <nd ref="664288487"/>
    <tag k="highway" v="motorway"/>
    <tag k="name" v="Atlantic Highway"/>
    <tag k="oneway" v="yes"/>
    <tag k="ref" v="A39(M)"/>
  </way>
  <way id="28466664" version="7" timestamp="2010-03-12T03:09:41Z" uid="245275" user="Marianian" changeset="4103252">
    <nd ref="312745802"/>
    <nd ref="38438643"/>
    <nd ref="38438642"/>
    <nd ref="38438641"/>
    <nd ref="664288487"/>
    <tag k="highway" v="motorway"/>
    <tag k="name" v="Atlantic Highway"/>
    <tag k="oneway" v="yes"/>
    <tag k="ref" v="M39"/>
  </way>
  <way id="28466664" version="8" timestamp="2010-03-12T03:09:52Z" uid="245275" user="Marianian" changeset="4103252"/>
  <way id="28466717" version="9" timestamp="2010-07-09T20:52:03Z" uid="74617" user="JohnSmith" changeset="5176956">
    <nd ref="470526885"/>
    <nd ref="312746196"/>
    <nd ref="312746197"/>
    <nd ref="695439223"/>
    <tag k="highway" v="residential"/>
    <tag k="maxspeed" v="50"/>
    <tag k="maxspeed:source" v="default residential speed limit in Australia"/>
    <tag k="name" v="Robinson Street"/>
  </way>
  <way id="28466869" version="2" timestamp="2009-09-30T15:41:19Z" uid="36809" user="pfoten_weg_!_" changeset="2689684">
    <nd ref="278801566"/>
    <nd ref="312747443"/>
    <nd ref="312747444"/>
    <nd ref="312747445"/>
    <nd ref="312747446"/>
    <nd ref="312747447"/>
    <tag k="highway" v="unclassified"/>
  </way>
  <way id="28466889" version="4" timestamp="2009-09-30T15:40:23Z" uid="36809" user="pfoten_weg_!_" changeset="2689684">
    <nd ref="312747444"/>
    <nd ref="312747653"/>
    <nd ref="312747654"/>
    <nd ref="355726797"/>
    <nd ref="355726798"/>
    <nd ref="312747656"/>
    <nd ref="312747657"/>
    <nd ref="312747658"/>
    <nd ref="312747659"/>
    <nd ref="312747660"/>
    <nd ref="312747661"/>
    <nd ref="312747662"/>
    <nd ref="312747663"/>
    <nd ref="312747664"/>
    <nd ref="312747665"/>
    <nd ref="312747666"/>
    <nd ref="312747667"/>
    <nd ref="312747668"/>
    <nd ref="312747669"/>
    <nd ref="312747670"/>
    <nd ref="312747672"/>
    <nd ref="312747673"/>
    <nd ref="333234917"/>
    <nd ref="312747675"/>
    <tag k="highway" v="unclassified"/>
  </way>
  <way id="28466897" version="5" timestamp="2009-09-30T15:40:41Z" uid="36809" user="pfoten_weg_!_" changeset="2689684">
    <nd ref="312747740"/>
    <nd ref="312747741"/>
    <nd ref="312747742"/>
    <nd ref="312747743"/>
    <nd ref="312747744"/>
    <tag k="highway" v="residential"/>
    <tag k="name" v="BahnhofstraÃŸe"/>
  </way>
  <way id="28466929" version="4" timestamp="2009-09-30T15:40:18Z" uid="36809" user="pfoten_weg_!_" changeset="2689684">
    <nd ref="312747859"/>
    <nd ref="312747861"/>
    <nd ref="312748856"/>
    <nd ref="312748857"/>
    <nd ref="312748860"/>
    <nd ref="312748861"/>
    <nd ref="312748862"/>
    <nd ref="312748863"/>
    <nd ref="312748864"/>
    <nd ref="312748779"/>
    <tag k="highway" v="track"/>
  </way>
  <way id="28466931" version="2" timestamp="2009-09-30T15:40:21Z" uid="36809" user="pfoten_weg_!_" changeset="2689684">
    <nd ref="241521996"/>
    <nd ref="312747865"/>
    <nd ref="312747866"/>
    <nd ref="312747867"/>
    <nd ref="312747868"/>
    <nd ref="312747869"/>
    <nd ref="312747870"/>
    <nd ref="312747871"/>
    <nd ref="312747872"/>
    <nd ref="312747873"/>
    <nd ref="312747874"/>
    <nd ref="312747875"/>
    <nd ref="312747876"/>
    <nd ref="312747877"/>
    <nd ref="312747878"/>
    <nd ref="312747879"/>
    <nd ref="312747880"/>
    <nd ref="312747881"/>
    <nd ref="312747859"/>
    <tag k="highway" v="track"/>
  </way>
  <way id="28466947" version="3" timestamp="2009-09-30T15:39:59Z" uid="36809" user="pfoten_weg_!_" changeset="2689684">
    <nd ref="241522006"/>
    <nd ref="312747964"/>
    <nd ref="312747965"/>
    <nd ref="312747966"/>
    <nd ref="312747967"/>
    <nd ref="312747968"/>
    <nd ref="312747969"/>
    <nd ref="312747970"/>
    <nd ref="312747971"/>
    <nd ref="312747972"/>
    <nd ref="312747973"/>
    <nd ref="312748688"/>
    <nd ref="312747974"/>
    <nd ref="312747975"/>
    <nd ref="312747976"/>
    <tag k="highway" v="track"/>
  </way>
  <way id="28466948" version="2" timestamp="2009-09-30T15:39:58Z" uid="36809" user="pfoten_weg_!_" changeset="2689684">
    <nd ref="312747977"/>
    <nd ref="312747978"/>
    <nd ref="312747979"/>
    <nd ref="312747980"/>
    <nd ref="312747976"/>
    <tag k="highway" v="residential"/>
  </way>
  <way id="28466976" version="5" timestamp="2009-09-30T15:39:50Z" uid="36809" user="pfoten_weg_!_" changeset="2689684">
    <nd ref="241522006"/>
    <nd ref="241522009"/>
    <nd ref="241522013"/>
    <nd ref="241522019"/>
    <tag k="highway" v="service"/>
  </way>
  <way id="28466987" version="2" timestamp="2009-09-30T15:39:51Z" uid="36809" user="pfoten_weg_!_" changeset="2689684">
    <nd ref="312747967"/>
    <nd ref="312748118"/>
    <nd ref="312748119"/>
    <nd ref="312748120"/>
    <nd ref="312748121"/>
    <nd ref="312748123"/>
    <nd ref="312748125"/>
    <nd ref="312748126"/>
    <nd ref="312748127"/>
    <tag k="highway" v="track"/>
  </way>
  <way id="28466990" version="2" timestamp="2009-09-30T15:39:51Z" uid="36809" user="pfoten_weg_!_" changeset="2689684">
    <nd ref="312748119"/>
    <nd ref="312748133"/>
    <nd ref="312747968"/>
    <tag k="highway" v="track"/>
  </way>
</osm>
