<?xml version='1.0' encoding='UTF-8'?>
<osm version="0.6" generator="libosmium/2.20.0">
  <way id="28483001" version="8" timestamp="2010-04-07T13:08:29Z" uid="20587" user="balrog-kun" changeset="4353646">
    <nd ref="580324024"/>
    <nd ref="312914023"/>
    <nd ref="312914360"/>
    <nd ref="312914024"/>
    <nd ref="312914025"/>
    <nd ref="312914026"/>
    <tag k="highway" v="residential"/>
    <tag k="name" v="Saddle Blanket Place"/>
  </way>
  <way id="28483006" version="2" timestamp="2010-07-08T19:58:13Z" uid="74617" user="JohnSmith" changeset="5168688">
    <nd ref="312914168"/>
    <nd ref="266152268"/>
    <tag k="highway" v="residential"/>
    <tag k="maxspeed" v="50"/>
    <tag k="maxspeed:source" v="default residential speed limit in Australia"/>
    <tag k="name" v="Yeronga Avenue"/>
  </way>
  <way id="28483017" version="2" timestamp="2010-07-08T19:53:31Z" uid="74617" user="JohnSmith" changeset="5168688">
    <nd ref="312914293"/>
    <nd ref="312914308"/>
    <nd ref="312914309"/>
    <tag k="highway" v="residential"/>
    <tag k="maxspeed" v="50"/>
    <tag k="maxspeed:source" v="default residential speed limit in Australia"/>
    <tag k="name" v="St Kilda Avenue"/>
  </way>
  <way id="28483027" version="3" timestamp="2010-07-08T19:50:26Z" uid="74617" user="JohnSmith" changeset="5168688">
    <nd ref="77850455"/>
    <nd ref="312914374"/>
    <nd ref="312914375"/>
    <nd ref="312914376"/>
    <nd ref="677169856"/>
    <nd ref="312914377"/>
    <nd ref="312914378"/>
    <tag k="highway" v="residential"/>
    <tag k="maxspeed" v="50"/>
    <tag k="maxspeed:source" v="default residential speed limit in Australia"/>
    <tag k="name" v="Olivette Avenue"/>
  </way>
  <way id="28483080" version="1" timestamp="2008-11-18T02:06:25Z" uid="36809" user="pfoten_weg_!_" changeset="764020">
    <nd ref="289063351"/>
    <nd ref="269232191"/>
    <nd ref="53277367"/>
    <nd ref="263985374"/>
    <tag k="created_by" v="RambaZamba"/>
    <tag k="highway" v="residential"/>
    <tag k="name" v="Gistlstraße"/>
  </way>
  <way id="28483080" version="2" timestamp="2009-02-15T13:09:41Z" uid="36809" user="pfoten_weg_!_" changeset="463903">
    <nd ref="289063351"/>
    <nd ref="269232191"/>
    <nd ref="53277367"/>
    <nd ref="263985374"/>
    <tag k="created_by" v="RambaZamba"/>
    <tag k="highway" v="residential"/>
    <tag k="name" v="Gistlstraße"/>
    <tag k="source" v="survey"/>
  </way>
  <way id="28483080" version="3" timestamp="2009-07-17T15:09:58Z" uid="36809" user="pfoten_weg_!_" changeset="1855298">
    <nd ref="289063351"/>
    <nd ref="269232191"/>
    <nd ref="53277367"/>
    <nd ref="263985374"/>
    <tag k="discovered_by" v="RambaZamba"/>
    <tag k="highway" v="residential"/>
    <tag k="name" v="Gistlstraße"/>
    <tag k="source" v="survey"/>
  </way>
  <way id="28483080" version="5" timestamp="2009-08-28T21:08:59Z" uid="36809" user="pfoten_weg_!_" changeset="2295155">
    <nd ref="289063351"/>
    <nd ref="269232191"/>
    <nd ref="53277367"/>
    <nd ref="263985374"/>
    <tag k="discovered_by" v="RambaZamba"/>
    <tag k="highway" v="residential"/>
    <tag k="name" v="Gistlstraße"/>
    <tag k="source" v="survey"/>
  </way>
  <way id="28483080" version="7" timestamp="2009-09-01T11:02:37Z" uid="36809" user="pfoten_weg_!_" changeset="2335754">
    <nd ref="289063351"/>
    <nd ref="269232191"/>
    <nd ref="53277367"/>
    <nd ref="263985374"/>
    <tag k="highway" v="residential"/>
    <tag k="name" v="Gistlstraße"/>
    <tag k="source" v="survey"/>
  </way>
  <way id="28483080" version="8" timestamp="2009-10-02T21:24:46Z" uid="86259" user="hasse_osm_korinthenkacker" changeset="2717728">
    <nd ref="289063351"/>
    <nd ref="269232191"/>
    <nd ref="53277367"/>
    <nd ref="263985374"/>
    <tag k="highway" v="residential"/>
    <tag k="name" v="Gistlstraße"/>
  </way>
  <way id="28483080" version="9" timestamp="2009-10-02T21:34:42Z" uid="86259" user="hasse_osm_korinthenkacker" changeset="2717862">
    <nd ref="289063351"/>
    <nd ref="269232191"/>
    <nd ref="53277367"/>
    <nd ref="263985374"/>
    <tag k="highway" v="residential"/>
    <tag k="name" v="Gistlstraße"/>
    <tag k="source" v="survey"/>
    <tag k="surface" v="asphalt"/>
  </way>
  <way id="28483080" version="10" timestamp="2009-10-12T21:16:29Z" uid="36809" user="pfoten_weg_!_" changeset="2831027">
    <nd ref="289063351"/>
    <nd ref="269232191"/>
    <nd ref="53277367"/>
    <nd ref="263985374"/>
    <tag k="highway" v="residential"/>
    <tag k="name" v="Gistlstraße"/>
    <tag k="surface" v="asphalt"/>
  </way>
  <way id="28483082" version="5" timestamp="2009-07-24T18:58:49Z" uid="74617" user="JohnSmith" changeset="1928321">
    <nd ref="313124643"/>
    <nd ref="312914912"/>
    <nd ref="313123978"/>
    <nd ref="312914913"/>
    <nd ref="312914863"/>
    <nd ref="312914914"/>
    <nd ref="312914915"/>
    <nd ref="312914916"/>
    <nd ref="312914917"/>
    <nd ref="312914918"/>
    <nd ref="312914919"/>
    <nd ref="312914920"/>
    <nd ref="312914921"/>
    <nd ref="312914922"/>
    <nd ref="312914923"/>
    <nd ref="312914924"/>
    <nd ref="312914925"/>
    <nd ref="312914926"/>
    <nd ref="312914927"/>
    <nd ref="312914928"/>
    <nd ref="312914929"/>
    <nd ref="312914930"/>
    <nd ref="312914931"/>
    <nd ref="312914932"/>
    <nd ref="312914933"/>
    <tag k="highway" v="residential"/>
    <tag k="maxspeed" v="50"/>
    <tag k="name" v="Heritage Drive"/>
  </way>
  <way id="28483288" version="2" timestamp="2010-04-03T04:02:58Z" uid="20587" user="balrog-kun" changeset="4309442">
    <nd ref="312813331"/>
    <nd ref="312813360"/>
    <nd ref="312813372"/>
    <nd ref="312813380"/>
    <tag k="created_by" v="Merkaartor 0.12"/>
    <tag k="highway" v="unclassified"/>
    <tag k="name" v="East Butler Avenue"/>
  </way>
  <way id="28483289" version="2" timestamp="2010-04-03T04:02:58Z" uid="20587" user="balrog-kun" changeset="4309442">
    <nd ref="312916367"/>
    <nd ref="312916366"/>
    <nd ref="312916363"/>
    <tag k="created_by" v="Merkaartor 0.12"/>
    <tag k="highway" v="residential"/>
    <tag k="name" v="East Roosevelt Avenue"/>
  </way>
  <way id="28483290" version="2" timestamp="2010-04-03T04:02:58Z" uid="20587" user="balrog-kun" changeset="4309442">
    <nd ref="312813396"/>
    <nd ref="312813377"/>
    <tag k="created_by" v="Merkaartor 0.12"/>
    <tag k="highway" v="unclassified"/>
    <tag k="name" v="East Butler Avenue"/>
  </way>
  <way id="28483291" version="2" timestamp="2010-04-03T04:02:58Z" uid="20587" user="balrog-kun" changeset="4309442">
    <nd ref="312916364"/>
    <nd ref="312916365"/>
    <nd ref="312916362"/>
    <nd ref="312916361"/>
    <tag k="created_by" v="Merkaartor 0.12"/>
    <tag k="highway" v="residential"/>
    <tag k="name" v="East Roosevelt Avenue"/>
  </way>
  <way id="28483292" version="2" timestamp="2010-04-03T04:02:59Z" uid="20587" user="balrog-kun" changeset="4309442">
    <nd ref="312813449"/>
    <nd ref="312813422"/>
    <nd ref="312813416"/>
    <nd ref="312813408"/>
    <tag k="created_by" v="Merkaartor 0.12"/>
    <tag k="highway" v="residential"/>
    <tag k="name" v="East Roosevelt Avenue"/>
  </way>
  <way id="28483293" version="2" timestamp="2010-04-03T04:02:59Z" uid="20587" user="balrog-kun" changeset="4309442">
    <nd ref="312916380"/>
    <nd ref="312916379"/>
    <nd ref="312916378"/>
    <nd ref="312916368"/>
    <nd ref="312916373"/>
    <nd ref="312916372"/>
    <nd ref="312916371"/>
    <nd ref="312916370"/>
    <tag k="created_by" v="Merkaartor 0.12"/>
    <tag k="highway" v="residential"/>
    <tag k="name" v="East Edison Avenue"/>
  </way>
  <way id="28483294" version="2" timestamp="2010-04-03T04:02:59Z" uid="20587" user="balrog-kun" changeset="4309442">
    <nd ref="312916374"/>
    <nd ref="312916375"/>
    <nd ref="312916376"/>
    <nd ref="312916377"/>
    <tag k="created_by" v="Merkaartor 0.12"/>
    <tag k="highway" v="residential"/>
    <tag k="name" v="East Eason Avenue"/>
  </way>
  <way id="28483295" version="2" timestamp="2010-04-03T04:02:59Z" uid="20587" user="balrog-kun" changeset="4309442">
    <nd ref="312916388"/>
    <nd ref="312916387"/>
    <tag k="created_by" v="Merkaartor 0.12"/>
    <tag k="highway" v="residential"/>
    <tag k="name" v="East Nelson Avenue"/>
  </way>
  <way id="28483296" version="2" timestamp="2010-04-03T04:02:59Z" uid="20587" user="balrog-kun" changeset="4309442">
    <nd ref="312916386"/>
    <nd ref="312916385"/>
    <tag k="created_by" v="Merkaartor 0.12"/>
    <tag k="highway" v="residential"/>
    <tag k="name" v="East Nelson Avenue"/>
  </way>
  <way id="28483328" version="3" timestamp="2009-06-15T10:48:44Z" uid="99207" user="Lar Kiesel" changeset="1523662">
    <nd ref="312916580"/>
    <nd ref="312916581"/>
    <tag k="bridge" v="yes"/>
    <tag k="highway" v="motorway"/>
    <tag k="name" v="Interstate Highway 77"/>
    <tag k="nat_ref" v="I-77"/>
    <tag k="oneway" v="yes"/>
    <tag k="ref" v="I 77"/>
    <tag k="tiger:cfcc" v="A11"/>
    <tag k="tiger:county" v="York, SC"/>
    <tag k="tiger:name_base" v="I-77"/>
    <tag k="tiger:reviewed" v="no"/>
    <tag k="tiger:separated" v="no"/>
    <tag k="tiger:source" v="tiger_import_dch_v0.6_20070829"/>
    <tag k="tiger:tlid" v="19824497:19803233:19793280:19823500:19813661:19813662:19789626:19823373:19823374:19822823:19822824:19793236:19819157:19793214:19793217:19822841:19822843:19822844:19825251:19825252:19808943:19839521:19793226:19808930:19812867:19812868:19799132:19822911:198"/>
    <tag k="tiger:upload_uuid" v="bulk_upload.pl-4b0961ec-1534-49b3-b8ec-8214b987d5d6"/>
  </way>
  <way id="28483330" version="3" timestamp="2009-06-15T10:48:43Z" uid="99207" user="Lar Kiesel" changeset="1523662">
    <nd ref="312916581"/>
    <nd ref="114503004"/>
    <nd ref="114503005"/>
    <nd ref="114503007"/>
    <tag k="highway" v="motorway"/>
    <tag k="name" v="Interstate Highway 77"/>
    <tag k="nat_ref" v="I-77"/>
    <tag k="oneway" v="yes"/>
    <tag k="ref" v="I 77"/>
    <tag k="tiger:cfcc" v="A11"/>
    <tag k="tiger:county" v="York, SC"/>
    <tag k="tiger:name_base" v="I-77"/>
    <tag k="tiger:reviewed" v="no"/>
    <tag k="tiger:separated" v="no"/>
    <tag k="tiger:source" v="tiger_import_dch_v0.6_20070829"/>
    <tag k="tiger:tlid" v="19824497:19803233:19793280:19823500:19813661:19813662:19789626:19823373:19823374:19822823:19822824:19793236:19819157:19793214:19793217:19822841:19822843:19822844:19825251:19825252:19808943:19839521:19793226:19808930:19812867:19812868:19799132:19822911:198"/>
    <tag k="tiger:upload_uuid" v="bulk_upload.pl-4b0961ec-1534-49b3-b8ec-8214b987d5d6"/>
  </way>
  <way id="28483331" version="3" timestamp="2009-06-15T10:48:46Z" uid="99207" user="Lar Kiesel" changeset="1523662">
    <nd ref="312916579"/>
    <nd ref="312916578"/>
    <tag k="bridge" v="yes"/>
    <tag k="created_by" v="JOSM"/>
    <tag k="highway" v="motorway"/>
    <tag k="layer" v="1"/>
    <tag k="name" v="Interstate Highway 77"/>
    <tag k="nat_ref" v="I-77"/>
    <tag k="oneway" v="yes"/>
    <tag k="ref" v="I 77"/>
  </way>
  <way id="28483332" version="2" timestamp="2009-05-15T07:16:43Z" uid="99207" user="Lar Kiesel" changeset="1195758">
    <nd ref="301694475"/>
    <nd ref="301694473"/>
    <nd ref="301694469"/>
    <nd ref="114444992"/>
    <nd ref="114502943"/>
    <nd ref="233913536"/>
    <nd ref="301319131"/>
    <tag k="created_by" v="JOSM"/>
    <tag k="highway" v="motorway"/>
    <tag k="ref" v="I 77"/>
  </way>
  <way id="28483332" version="3" timestamp="2009-06-20T07:34:03Z" uid="99207" user="Lar Kiesel" changeset="1571779">
    <nd ref="301694475"/>
    <nd ref="301694473"/>
    <nd ref="301694469"/>
    <nd ref="114444992"/>
    <nd ref="114502943"/>
    <nd ref="233913536"/>
    <nd ref="301319131"/>
    <tag k="created_by" v="JOSM"/>
    <tag k="highway" v="motorway"/>
    <tag k="name" v="Interstate Highway 77"/>
    <tag k="ref" v="I 77"/>
  </way>
  <way id="28483332" version="4" timestamp="2009-08-28T12:01:49Z" uid="99207" user="Lar Kiesel" changeset="2288981">
    <nd ref="301694475"/>
    <nd ref="301694473"/>
    <nd ref="301694469"/>
    <nd ref="114444992"/>
    <nd ref="114502943"/>
    <nd ref="233913536"/>
    <nd ref="301319131"/>
    <tag k="created_by" v="JOSM"/>
    <tag k="highway" v="motorway"/>
    <tag k="name" v="Interstate Highway 77"/>
    <tag k="oneway" v="yes"/>
    <tag k="ref" v="I 77"/>
  </way>
  <way id="28483374" version="2" timestamp="2011-01-31T12:59:46Z" uid="6269" user="Mueck" changeset="7144777">
    <nd ref="312916742"/>
    <nd ref="312916743"/>
    <nd ref="1129382397"/>
    <nd ref="1129382392"/>
    <nd ref="312916744"/>
    <nd ref="312916745"/>
    <nd ref="312916742"/>
    <tag k="leisure" v="playground"/>
  </way>
  <way id="28483616" version="4" timestamp="2010-04-07T13:08:29Z" uid="20587" user="balrog-kun" changeset="4353646">
    <nd ref="316376425"/>
    <nd ref="312918931"/>
    <nd ref="147482200"/>
    <tag k="created_by" v="Potlatch 0.10f"/>
    <tag k="highway" v="residential"/>
    <tag k="name" v="South Central Avenue"/>
    <tag k="tiger:cfcc" v="A41"/>
    <tag k="tiger:county" v="Oklahoma, OK"/>
    <tag k="tiger:name_base" v="Central"/>
    <tag k="tiger:name_direction_prefix" v="S"/>
    <tag k="tiger:name_type" v="Ave"/>
    <tag k="tiger:reviewed" v="no"/>
    <tag k="tiger:separated" v="no"/>
    <tag k="tiger:source" v="tiger_import_dch_v0.6_20070829"/>
    <tag k="tiger:tlid" v="100403794:100403796:100403738:100403610:100403617:100403619:100403621:100403740:100403742:100403751:100403754:100403756:100403591:100403633:100403606:100403607:100403609"/>
    <tag k="tiger:zip_left" v="73129"/>
    <tag k="tiger:zip_right" v="73129"/>
  </way>
  <way id="28483628" version="2" timestamp="2010-04-07T13:08:29Z" uid="20587" user="balrog-kun" changeset="4353646">
    <nd ref="147496738"/>
    <nd ref="147496739"/>
    <tag k="created_by" v="Potlatch 0.10f"/>
    <tag k="highway" v="residential"/>
    <tag k="name" v="South Phillips Avenue"/>
    <tag k="tiger:cfcc" v="A41"/>
    <tag k="tiger:county" v="Oklahoma, OK"/>
    <tag k="tiger:name_base" v="Phillips"/>
    <tag k="tiger:name_direction_prefix" v="S"/>
    <tag k="tiger:name_type" v="Ave"/>
    <tag k="tiger:reviewed" v="no"/>
    <tag k="tiger:separated" v="no"/>
    <tag k="tiger:source" v="tiger_import_dch_v0.6_20070829"/>
    <tag k="tiger:tlid" v="100404011:100404013:100404014:100407361:100407363:100407364:100403978:100403981:100403983:100403998:100403999:100404001:100404009"/>
    <tag k="tiger:zip_left" v="73129"/>
    <tag k="tiger:zip_right" v="73129"/>
  </way>
  <way id="28483632" version="3" timestamp="2010-04-07T13:08:30Z" uid="20587" user="balrog-kun" changeset="4353646">
    <nd ref="147401770"/>
    <nd ref="147406121"/>
    <nd ref="147406123"/>
    <tag k="created_by" v="Potlatch 0.10f"/>
    <tag k="highway" v="residential"/>
    <tag k="name" v="Southeast 30th Street"/>
    <tag k="tiger:cfcc" v="A41"/>
    <tag k="tiger:county" v="Oklahoma, OK"/>
    <tag k="tiger:name_base" v="30th"/>
    <tag k="tiger:name_direction_prefix" v="SE"/>
    <tag k="tiger:name_type" v="St"/>
    <tag k="tiger:reviewed" v="no"/>
    <tag k="tiger:separated" v="no"/>
    <tag k="tiger:source" v="tiger_import_dch_v0.6_20070829"/>
    <tag k="tiger:tlid" v="100403858:100403839:100404000:100404007"/>
    <tag k="tiger:zip_left" v="73129"/>
    <tag k="tiger:zip_right" v="73129"/>
  </way>
  <way id="28483658" version="2" timestamp="2010-04-03T04:02:59Z" uid="20587" user="balrog-kun" changeset="4309442">
    <nd ref="312919596"/>
    <nd ref="312919597"/>
    <nd ref="312919598"/>
    <tag k="created_by" v="Merkaartor 0.12"/>
    <tag k="highway" v="residential"/>
    <tag k="name" v="North Kell Road"/>
  </way>
  <way id="28483659" version="2" timestamp="2010-04-03T04:02:59Z" uid="20587" user="balrog-kun" changeset="4309442">
    <nd ref="312919598"/>
    <nd ref="312919599"/>
    <nd ref="312916397"/>
    <nd ref="312916396"/>
    <nd ref="312916395"/>
    <nd ref="312919600"/>
    <nd ref="312916394"/>
    <nd ref="312916393"/>
    <nd ref="312916391"/>
    <nd ref="312916390"/>
    <tag k="created_by" v="Merkaartor 0.12"/>
    <tag k="highway" v="residential"/>
    <tag k="name" v="East Narramore Avenue"/>
  </way>
  <way id="28483664" version="3" timestamp="2010-04-03T04:02:59Z" uid="20587" user="balrog-kun" changeset="4309442">
    <nd ref="312919600"/>
    <nd ref="312919605"/>
    <tag k="created_by" v="Merkaartor 0.12"/>
    <tag k="highway" v="residential"/>
    <tag k="name" v="North 5th Street"/>
  </way>
  <way id="28483665" version="2" timestamp="2010-04-03T04:03:00Z" uid="20587" user="balrog-kun" changeset="4309442">
    <nd ref="312916398"/>
    <nd ref="312919606"/>
    <tag k="created_by" v="Merkaartor 0.12"/>
    <tag k="highway" v="residential"/>
    <tag k="name" v="North Beloat Avenue"/>
  </way>
  <way id="28483666" version="2" timestamp="2010-04-03T04:03:00Z" uid="20587" user="balrog-kun" changeset="4309442">
    <nd ref="312919608"/>
    <nd ref="312919609"/>
    <nd ref="312919610"/>
    <nd ref="312919611"/>
    <nd ref="312919612"/>
    <tag k="created_by" v="Merkaartor 0.12"/>
    <tag k="highway" v="residential"/>
    <tag k="name" v="North Gable Cove"/>
  </way>
  <way id="28483667" version="2" timestamp="2010-04-03T04:03:00Z" uid="20587" user="balrog-kun" changeset="4309442">
    <nd ref="312919605"/>
    <nd ref="312919601"/>
    <nd ref="312919614"/>
    <nd ref="312919613"/>
    <nd ref="312919612"/>
    <nd ref="312919615"/>
    <nd ref="312919616"/>
    <tag k="created_by" v="Merkaartor 0.12"/>
    <tag k="highway" v="residential"/>
    <tag k="name" v="East Arizona Avenue"/>
  </way>
  <way id="28483668" version="2" timestamp="2010-04-03T04:03:00Z" uid="20587" user="balrog-kun" changeset="4309442">
    <nd ref="312919617"/>
    <nd ref="312919618"/>
    <nd ref="312919619"/>
    <nd ref="312919616"/>
    <tag k="created_by" v="Merkaartor 0.12"/>
    <tag k="highway" v="residential"/>
    <tag k="name" v="North Rubel Cort"/>
  </way>
  <way id="28483693" version="3" timestamp="2008-11-26T02:08:47Z" uid="6975" user="ulfl" changeset="794829">
    <nd ref="312919914"/>
    <nd ref="312919915"/>
    <tag k="highway" v="track"/>
    <tag k="tracktype" v="grade5"/>
  </way>
  <way id="28483696" version="1" timestamp="2008-11-18T04:36:20Z" uid="30201" user="rrankin" changeset="763762">
    <nd ref="312919927"/>
    <nd ref="312919955"/>
    <nd ref="312919956"/>
    <nd ref="312919957"/>
    <nd ref="312919958"/>
    <nd ref="312919928"/>
    <nd ref="312919929"/>
    <nd ref="312919930"/>
    <nd ref="312919931"/>
    <nd ref="312919932"/>
    <nd ref="312919933"/>
    <nd ref="312919947"/>
    <nd ref="312919946"/>
    <nd ref="312919934"/>
    <nd ref="312919935"/>
    <nd ref="312919936"/>
    <nd ref="312919953"/>
    <nd ref="312919952"/>
    <nd ref="312919937"/>
    <nd ref="312919938"/>
    <nd ref="312919948"/>
    <nd ref="312919939"/>
    <nd ref="312919940"/>
    <nd ref="312919951"/>
    <nd ref="312919941"/>
    <nd ref="312919942"/>
    <nd ref="312919943"/>
    <nd ref="312919944"/>
    <nd ref="312919950"/>
    <nd ref="312919945"/>
    <nd ref="312919949"/>
    <nd ref="312919954"/>
    <nd ref="312919927"/>
    <tag k="created_by" v="Dshpak_landsat_lakes"/>
    <tag k="natural" v="water"/>
  </way>
  <way id="28483704" version="10" timestamp="2011-05-31T12:57:56Z" uid="115477" user="wowik" changeset="8301336">
    <nd ref="312920159"/>
    <nd ref="312920162"/>
    <nd ref="312920164"/>
    <nd ref="1306722275"/>
    <nd ref="1306722177"/>
    <nd ref="312920166"/>
    <nd ref="522418590"/>
    <nd ref="522418600"/>
    <nd ref="312920167"/>
    <nd ref="1306722401"/>
    <nd ref="1306722332"/>
    <nd ref="312920165"/>
    <nd ref="312920163"/>
    <nd ref="312920160"/>
    <nd ref="522418599"/>
    <nd ref="522418591"/>
    <nd ref="312920159"/>
    <tag k="addr:housenumber" v="78 к1"/>
    <tag k="addr:postcode" v="119049"/>
    <tag k="addr:street" v="Ленинградский проспект"/>
    <tag k="building" v="yes"/>
    <tag k="building:levels" v="9"/>
    <tag k="cladr:code" v="77000000000168500"/>
  </way>
  <way id="28483705" version="9" timestamp="2011-05-31T12:58:03Z" uid="115477" user="wowik" changeset="8301336">
    <nd ref="312920176"/>
    <nd ref="312920172"/>
    <nd ref="312920177"/>
    <nd ref="1306722226"/>
    <nd ref="1306722404"/>
    <nd ref="312920170"/>
    <nd ref="1306722294"/>
    <nd ref="1306722374"/>
    <nd ref="1306722181"/>
    <nd ref="1306722155"/>
    <nd ref="312920169"/>
    <nd ref="1306722394"/>
    <nd ref="1306722250"/>
    <nd ref="312920173"/>
    <nd ref="312920175"/>
    <nd ref="312920171"/>
    <nd ref="312920176"/>
    <tag k="addr:housenumber" v="74 к1"/>
    <tag k="addr:postcode" v="119049"/>
    <tag k="addr:street" v="Ленинградский проспект"/>
    <tag k="building" v="yes"/>
    <tag k="building:levels" v="8"/>
    <tag k="cladr:code" v="77000000000168500"/>
  </way>
  <way id="28483712" version="6" timestamp="2010-06-12T09:23:54Z" uid="30201" user="rrankin" changeset="4968689">
    <nd ref="312920016"/>
    <nd ref="312920017"/>
    <nd ref="312920018"/>
    <nd ref="735058148"/>
    <nd ref="312920019"/>
    <nd ref="735058078"/>
    <nd ref="312920020"/>
    <nd ref="735058208"/>
    <nd ref="769843090"/>
    <nd ref="312920021"/>
    <nd ref="735058239"/>
    <nd ref="312920045"/>
    <nd ref="312920044"/>
    <nd ref="312920043"/>
    <nd ref="312920142"/>
    <tag k="highway" v="cycleway"/>
  </way>
  <way id="28483718" version="6" timestamp="2010-06-12T09:23:53Z" uid="30201" user="rrankin" changeset="4968689">
    <nd ref="312920032"/>
    <nd ref="312920038"/>
    <nd ref="312920039"/>
    <nd ref="735058042"/>
    <nd ref="312920040"/>
    <nd ref="769843087"/>
    <nd ref="312920041"/>
    <nd ref="312920046"/>
    <nd ref="312920042"/>
    <nd ref="312920142"/>
    <tag k="highway" v="cycleway"/>
  </way>
  <way id="28483728" version="2" timestamp="2010-06-12T09:23:55Z" uid="30201" user="rrankin" changeset="4968689">
    <nd ref="312920191"/>
    <nd ref="312920192"/>
    <nd ref="769843090"/>
    <nd ref="312920193"/>
    <nd ref="312920194"/>
    <nd ref="769843087"/>
    <nd ref="312920195"/>
    <nd ref="312920196"/>
    <tag k="waterway" v="stream"/>
  </way>
  <way id="28483755" version="5" timestamp="2011-05-31T12:57:49Z" uid="115477" user="wowik" changeset="8301336">
    <nd ref="312920484"/>
    <nd ref="1306722260"/>
    <nd ref="312920485"/>
    <nd ref="1306722347"/>
    <nd ref="312920486"/>
    <nd ref="312920487"/>
    <nd ref="1306722187"/>
    <nd ref="312920489"/>
    <nd ref="1306722271"/>
    <nd ref="312920490"/>
    <nd ref="1306722383"/>
    <nd ref="312920491"/>
    <nd ref="835241985"/>
    <nd ref="312920492"/>
    <nd ref="312920500"/>
    <nd ref="1306722379"/>
    <nd ref="312920493"/>
    <nd ref="1306722238"/>
    <nd ref="312920494"/>
    <nd ref="1306722140"/>
    <nd ref="312920496"/>
    <nd ref="312920497"/>
    <nd ref="1306722162"/>
    <nd ref="312920498"/>
    <nd ref="312920499"/>
    <nd ref="252856429"/>
    <nd ref="312920484"/>
    <tag k="building" v="yes"/>
    <tag k="building:levels" v="1"/>
  </way>
  <way id="28483802" version="11" timestamp="2011-05-31T15:47:33Z" uid="115477" user="wowik" changeset="8301336">
    <nd ref="312920741"/>
    <nd ref="312920743"/>
    <nd ref="312920745"/>
    <nd ref="312920747"/>
    <nd ref="312920748"/>
    <nd ref="312920746"/>
    <nd ref="312920744"/>
    <nd ref="312920742"/>
    <nd ref="312920741"/>
    <tag k="addr:city" v="Москва"/>
    <tag k="addr:country" v="RU"/>
    <tag k="addr:housenumber" v="4"/>
    <tag k="addr:street" v="Балтийская улица"/>
    <tag k="building" v="yes"/>
    <tag k="building:levels" v="8"/>
    <tag k="source" v="ggk"/>
  </way>
  <way id="28483805" version="8" timestamp="2011-05-31T12:58:03Z" uid="115477" user="wowik" changeset="8301336">
    <nd ref="312920787"/>
    <nd ref="1306722137"/>
    <nd ref="1306722329"/>
    <nd ref="1306722406"/>
    <nd ref="1306722176"/>
    <nd ref="312920795"/>
    <nd ref="312920771"/>
    <nd ref="312920774"/>
    <nd ref="312920787"/>
    <tag k="addr:housenumber" v="74 к5"/>
    <tag k="addr:postcode" v="125315"/>
    <tag k="addr:street" v="Ленинградский проспект"/>
    <tag k="building" v="yes"/>
    <tag k="building:levels" v="8"/>
    <tag k="cladr:code" v="77000000000168500"/>
  </way>
  <way id="28483808" version="8" timestamp="2011-05-31T12:58:02Z" uid="115477" user="wowik" changeset="8301336">
    <nd ref="312920793"/>
    <nd ref="312920765"/>
    <nd ref="312920797"/>
    <nd ref="312920796"/>
    <nd ref="1306722241"/>
    <nd ref="1306722149"/>
    <nd ref="1306722236"/>
    <nd ref="1306722253"/>
    <nd ref="312920766"/>
    <nd ref="312920757"/>
    <nd ref="312920773"/>
    <nd ref="312920764"/>
    <nd ref="312920793"/>
    <tag k="addr:housenumber" v="74 к4"/>
    <tag k="addr:postcode" v="125315"/>
    <tag k="addr:street" v="Ленинградский проспект"/>
    <tag k="building" v="yes"/>
    <tag k="building:levels" v="8"/>
    <tag k="cladr:code" v="77000000000168500"/>
  </way>
  <way id="28483820" version="7" timestamp="2011-05-31T12:57:48Z" uid="115477" user="wowik" changeset="8301336">
    <nd ref="312920956"/>
    <nd ref="312920958"/>
    <nd ref="1306722270"/>
    <nd ref="1306722234"/>
    <nd ref="312920959"/>
    <nd ref="312920957"/>
    <nd ref="312920956"/>
    <tag k="addr:housenumber" v="72 с4"/>
    <tag k="addr:postcode" v="125315"/>
    <tag k="addr:street" v="Ленинградский проспект"/>
    <tag k="building" v="yes"/>
    <tag k="building:levels" v="8"/>
    <tag k="cladr:code" v="77000000000168500"/>
  </way>
  <way id="28483827" version="9" timestamp="2010-04-07T13:08:30Z" uid="20587" user="balrog-kun" changeset="4353646">
    <nd ref="147476887"/>
    <nd ref="312920985"/>
    <nd ref="312920986"/>
    <nd ref="312921061"/>
    <nd ref="312921076"/>
    <nd ref="312921073"/>
    <nd ref="147523055"/>
    <nd ref="312921107"/>
    <nd ref="312921085"/>
    <nd ref="312921098"/>
    <nd ref="312921108"/>
    <nd ref="147466049"/>
    <tag k="created_by" v="Potlatch 0.10f"/>
    <tag k="highway" v="residential"/>
    <tag k="name" v="Hospitality Drive"/>
    <tag k="tiger:cfcc" v="A41"/>
    <tag k="tiger:county" v="Oklahoma, OK"/>
    <tag k="tiger:name_base" v="Hospitality"/>
    <tag k="tiger:name_type" v="Dr"/>
    <tag k="tiger:reviewed" v="no"/>
    <tag k="tiger:separated" v="no"/>
    <tag k="tiger:source" v="tiger_import_dch_v0.6_20070829"/>
    <tag k="tiger:tlid" v="100407209"/>
    <tag k="tiger:zip_left" v="73129"/>
    <tag k="tiger:zip_right" v="73129"/>
  </way>
  <way id="28483837" version="4" timestamp="2010-04-07T13:08:30Z" uid="20587" user="balrog-kun" changeset="4353646">
    <nd ref="312921069"/>
    <nd ref="312921061"/>
    <tag k="created_by" v="Potlatch 0.10f"/>
    <tag k="highway" v="residential"/>
    <tag k="name" v="Southeast 41st Street"/>
    <tag k="tiger:cfcc" v="A41"/>
    <tag k="tiger:county" v="Oklahoma, OK"/>
    <tag k="tiger:name_base" v="41st"/>
    <tag k="tiger:name_direction_prefix" v="SE"/>
    <tag k="tiger:name_type" v="St"/>
    <tag k="tiger:reviewed" v="no"/>
    <tag k="tiger:separated" v="no"/>
    <tag k="tiger:source" v="tiger_import_dch_v0.6_20070829"/>
    <tag k="tiger:tlid" v="100407225:100407158:100407164:100407182"/>
    <tag k="tiger:zip_left" v="73129"/>
    <tag k="tiger:zip_right" v="73129"/>
  </way>
  <way id="28483840" version="4" timestamp="2010-04-07T13:08:30Z" uid="20587" user="balrog-kun" changeset="4353646">
    <nd ref="147516614"/>
    <nd ref="312921073"/>
    <tag k="created_by" v="Potlatch 0.10f"/>
    <tag k="highway" v="residential"/>
    <tag k="name" v="Southeast 42nd Street"/>
    <tag k="tiger:cfcc" v="A41"/>
    <tag k="tiger:county" v="Oklahoma, OK"/>
    <tag k="tiger:name_base" v="42nd"/>
    <tag k="tiger:name_direction_prefix" v="SE"/>
    <tag k="tiger:name_type" v="St"/>
    <tag k="tiger:reviewed" v="no"/>
    <tag k="tiger:separated" v="no"/>
    <tag k="tiger:source" v="tiger_import_dch_v0.6_20070829"/>
    <tag k="tiger:tlid" v="100407227:100407160:100407166:100407184"/>
    <tag k="tiger:zip_left" v="73129"/>
    <tag k="tiger:zip_right" v="73129"/>
  </way>
  <way id="28483843" version="5" timestamp="2010-04-07T13:08:31Z" uid="20587" user="balrog-kun" changeset="4353646">
    <nd ref="147453289"/>
    <nd ref="312921125"/>
    <nd ref="312921098"/>
    <nd ref="312921126"/>
    <nd ref="312921099"/>
    <tag k="created_by" v="Potlatch 0.10f"/>
    <tag k="highway" v="residential"/>
    <tag k="name" v="Southeast 43rd Street"/>
    <tag k="tiger:cfcc" v="A41"/>
    <tag k="tiger:county" v="Oklahoma, OK"/>
    <tag k="tiger:name_base" v="43rd"/>
    <tag k="tiger:name_direction_prefix" v="SE"/>
    <tag k="tiger:name_type" v="St"/>
    <tag k="tiger:reviewed" v="no"/>
    <tag k="tiger:separated" v="no"/>
    <tag k="tiger:source" v="tiger_import_dch_v0.6_20070829"/>
    <tag k="tiger:tlid" v="100407162:100407168:100407179:100407181"/>
    <tag k="tiger:zip_left" v="73129"/>
    <tag k="tiger:zip_right" v="73129"/>
  </way>
  <way id="28483849" version="5" timestamp="2010-04-07T13:08:31Z" uid="20587" user="balrog-kun" changeset="4353646">
    <nd ref="312921103"/>
    <nd ref="248838787"/>
    <tag k="created_by" v="Potlatch 0.10f"/>
    <tag k="highway" v="residential"/>
    <tag k="name" v="South Byers Avenue"/>
    <tag k="tiger:cfcc" v="A41"/>
    <tag k="tiger:county" v="Oklahoma, OK"/>
    <tag k="tiger:name_base" v="Byers"/>
    <tag k="tiger:name_direction_prefix" v="S"/>
    <tag k="tiger:name_type" v="Ave"/>
    <tag k="tiger:reviewed" v="no"/>
    <tag k="tiger:separated" v="no"/>
    <tag k="tiger:source" v="tiger_import_dch_v0.6_20070829"/>
    <tag k="tiger:tlid" v="100407340:100407342:100407343:100407345:100407351:100407305:100407307:100407226:100407228:100407229:100407231:100407234:100407236:100407238:100407310:100407319:100407208:100407321:100407322:100407324:100407325:100407339"/>
    <tag k="tiger:zip_left" v="73129"/>
    <tag k="tiger:zip_right" v="73129"/>
  </way>
  <way id="28483865" version="2" timestamp="2010-04-03T04:03:00Z" uid="20587" user="balrog-kun" changeset="4309442">
    <nd ref="312921149"/>
    <nd ref="312921148"/>
    <tag k="bridge" v="yes"/>
    <tag k="created_by" v="Merkaartor 0.12"/>
    <tag k="highway" v="residential"/>
    <tag k="layer" v="1"/>
    <tag k="name" v="North 1st Street"/>
  </way>
  <way id="28483869" version="3" timestamp="2010-04-03T04:03:00Z" uid="20587" user="balrog-kun" changeset="4309442">
    <nd ref="312921157"/>
    <nd ref="312921158"/>
    <nd ref="312921159"/>
    <nd ref="323209787"/>
    <nd ref="312921164"/>
    <nd ref="312921165"/>
    <nd ref="312921166"/>
    <tag k="created_by" v="Merkaartor 0.12"/>
    <tag k="highway" v="residential"/>
    <tag k="name" v="North 4th Street"/>
  </way>
  <way id="28483870" version="2" timestamp="2010-04-03T04:03:00Z" uid="20587" user="balrog-kun" changeset="4309442">
    <nd ref="312921156"/>
    <nd ref="312921157"/>
    <tag k="bridge" v="yes"/>
    <tag k="created_by" v="Merkaartor 0.12"/>
    <tag k="highway" v="residential"/>
    <tag k="layer" v="1"/>
    <tag k="name" v="North 4th Street"/>
  </way>
  <way id="28483876" version="3" timestamp="2010-04-03T04:03:00Z" uid="20587" user="balrog-kun" changeset="4309442">
    <nd ref="312921181"/>
    <nd ref="312921151"/>
    <nd ref="312921150"/>
    <nd ref="312921149"/>
    <tag k="highway" v="secondary"/>
    <tag k="name" v="North 1st Street"/>
  </way>
  <way id="28483879" version="2" timestamp="2010-04-03T04:03:01Z" uid="20587" user="balrog-kun" changeset="4309442">
    <nd ref="312921159"/>
    <nd ref="312921184"/>
    <tag k="created_by" v="Merkaartor 0.12"/>
    <tag k="highway" v="unclassified"/>
    <tag k="name" v="East Arizona Eastern Avenue"/>
  </way>
  <way id="28483887" version="4" timestamp="2010-03-28T00:20:36Z" uid="20587" user="balrog-kun" changeset="4250871">
    <nd ref="90383877"/>
    <nd ref="90383879"/>
    <tag k="created_by" v="Potlatch 0.10f"/>
    <tag k="highway" v="footway"/>
    <tag k="layer" v="-1"/>
    <tag k="name" v="American River Bike Trail"/>
    <tag k="tiger:cfcc" v="A71"/>
    <tag k="tiger:county" v="Sacramento, CA"/>
    <tag k="tiger:name_base" v="American River Bike"/>
    <tag k="tiger:name_type" v="Trl"/>
    <tag k="tiger:reviewed" v="no"/>
    <tag k="tiger:source" v="tiger_import_dch_v0.6_20070809"/>
    <tag k="tiger:tlid" v="133440466:133439778"/>
    <tag k="tunnel" v="yes"/>
  </way>
  <way id="28483888" version="5" timestamp="2010-03-28T00:20:36Z" uid="20587" user="balrog-kun" changeset="4250871">
    <nd ref="90383879"/>
    <nd ref="90383881"/>
    <nd ref="90383884"/>
    <nd ref="90383886"/>
    <nd ref="90383888"/>
    <nd ref="90383889"/>
    <nd ref="90383891"/>
    <nd ref="90383892"/>
    <nd ref="90383893"/>
    <nd ref="90383894"/>
    <nd ref="312921369"/>
    <nd ref="312921370"/>
    <nd ref="90383896"/>
    <nd ref="90383897"/>
    <nd ref="90383899"/>
    <nd ref="90383901"/>
    <nd ref="90383903"/>
    <nd ref="90383905"/>
    <nd ref="90383907"/>
    <nd ref="90383909"/>
    <nd ref="90383910"/>
    <nd ref="90383912"/>
    <nd ref="90383913"/>
    <nd ref="90383914"/>
    <nd ref="90383915"/>
    <nd ref="90383917"/>
    <nd ref="90383918"/>
    <nd ref="90383919"/>
    <nd ref="90383921"/>
    <nd ref="90383922"/>
    <nd ref="90383924"/>
    <nd ref="90383927"/>
    <nd ref="90383929"/>
    <nd ref="90383930"/>
    <nd ref="90383932"/>
    <nd ref="90383941"/>
    <nd ref="90383943"/>
    <nd ref="90383945"/>
    <nd ref="90383948"/>
    <nd ref="90383950"/>
    <nd ref="90383953"/>
    <nd ref="90383956"/>
    <nd ref="90383958"/>
    <nd ref="90383961"/>
    <nd ref="90383965"/>
    <nd ref="90383967"/>
    <nd ref="90383969"/>
    <nd ref="90383971"/>
    <nd ref="90383973"/>
    <nd ref="90383975"/>
    <nd ref="90383978"/>
    <nd ref="90383980"/>
    <nd ref="90383983"/>
    <nd ref="90383985"/>
    <nd ref="90383987"/>
    <nd ref="90383989"/>
    <nd ref="90383991"/>
    <nd ref="90383993"/>
    <nd ref="90383996"/>
    <nd ref="90383998"/>
    <nd ref="90384001"/>
    <nd ref="90384003"/>
    <nd ref="90384005"/>
    <nd ref="90384007"/>
    <nd ref="321340411"/>
    <nd ref="90384008"/>
    <nd ref="90384010"/>
    <nd ref="90384011"/>
    <nd ref="90384012"/>
    <nd ref="90384015"/>
    <nd ref="90384017"/>
    <nd ref="90384027"/>
    <nd ref="90384029"/>
    <nd ref="90384030"/>
    <nd ref="90384032"/>
    <nd ref="90384033"/>
    <nd ref="90384035"/>
    <nd ref="90384037"/>
    <nd ref="90384039"/>
    <nd ref="90384040"/>
    <nd ref="90384042"/>
    <nd ref="90384043"/>
    <tag k="highway" v="cycleway"/>
    <tag k="name" v="American River Bike Trail"/>
    <tag k="tiger:cfcc" v="A71"/>
    <tag k="tiger:county" v="Sacramento, CA"/>
    <tag k="tiger:name_base" v="American River Bike"/>
    <tag k="tiger:name_type" v="Trl"/>
    <tag k="tiger:reviewed" v="no"/>
    <tag k="tiger:source" v="tiger_import_dch_v0.6_20070809"/>
    <tag k="tiger:tlid" v="133440466:133439778"/>
  </way>
  <way id="28483913" version="4" timestamp="2010-04-07T13:08:31Z" uid="20587" user="balrog-kun" changeset="4353646">
    <nd ref="36507598"/>
    <nd ref="36507537"/>
    <nd ref="312921463"/>
    <nd ref="82462268"/>
    <nd ref="82462269"/>
    <nd ref="82462270"/>
    <nd ref="82462271"/>
    <nd ref="82462272"/>
    <nd ref="82462273"/>
    <nd ref="82462274"/>
    <nd ref="82462275"/>
    <nd ref="82462276"/>
    <nd ref="82462280"/>
    <nd ref="82462287"/>
    <nd ref="82462211"/>
    <tag k="created_by" v="Potlatch 0.10f"/>
    <tag k="highway" v="residential"/>
    <tag k="name" v="Keller Hicks Road"/>
    <tag k="tiger:cfcc" v="A41"/>
    <tag k="tiger:county" v="Tarrant, TX"/>
    <tag k="tiger:name_base" v="Keller Hicks"/>
    <tag k="tiger:name_type" v="Rd"/>
    <tag k="tiger:reviewed" v="no"/>
    <tag k="tiger:separated" v="no"/>
    <tag k="tiger:source" v="tiger_import_dch_v0.6_20070830"/>
    <tag k="tiger:tlid" v="101854020:101922596:102097438:101854035:102146035:102146036"/>
  </way>
  <way id="28483976" version="4" timestamp="2010-04-07T13:08:32Z" uid="20587" user="balrog-kun" changeset="4353646">
    <nd ref="82712814"/>
    <nd ref="82438852"/>
    <nd ref="601754175"/>
    <nd ref="82712815"/>
    <nd ref="601754165"/>
    <nd ref="601754172"/>
    <nd ref="82712816"/>
    <nd ref="82388178"/>
    <nd ref="82712817"/>
    <nd ref="82712818"/>
    <nd ref="82712819"/>
    <nd ref="82712820"/>
    <nd ref="82712821"/>
    <nd ref="82712822"/>
    <nd ref="82386476"/>
    <nd ref="82712823"/>
    <tag k="created_by" v="Potlatch 0.10f"/>
    <tag k="highway" v="residential"/>
    <tag k="name" v="North Freeway"/>
    <tag k="tiger:cfcc" v="A41"/>
    <tag k="tiger:county" v="Tarrant, TX"/>
    <tag k="tiger:name_base" v="North"/>
    <tag k="tiger:name_type" v="Fwy"/>
    <tag k="tiger:reviewed" v="no"/>
    <tag k="tiger:separated" v="no"/>
    <tag k="tiger:source" v="tiger_import_dch_v0.6_20070830"/>
    <tag k="tiger:tlid" v="102143251:102143252:102143179:102143181:102143182:101857058:102143195:102143197:102143198:102120140"/>
  </way>
</osm>
