<?xml version='1.0' encoding='UTF-8'?>
<osm version="0.6" generator="libosmium/2.20.0">
  <way id="28511004" version="9" timestamp="2010-04-07T13:08:42Z" uid="20587" user="balrog-kun" changeset="4353646">
    <nd ref="147361666"/>
    <nd ref="313190906"/>
    <nd ref="313191027"/>
    <nd ref="313191028"/>
    <nd ref="313191029"/>
    <nd ref="313191030"/>
    <nd ref="313191031"/>
    <nd ref="313191032"/>
    <nd ref="313191033"/>
    <nd ref="313191038"/>
    <nd ref="313109783"/>
    <nd ref="147472864"/>
    <nd ref="147524384"/>
    <nd ref="315559464"/>
    <nd ref="240349902"/>
    <nd ref="315559490"/>
    <nd ref="147466690"/>
    <nd ref="315559493"/>
    <nd ref="315559495"/>
    <nd ref="315559575"/>
    <nd ref="147524382"/>
    <nd ref="315559578"/>
    <nd ref="315559580"/>
    <nd ref="315559583"/>
    <nd ref="315559585"/>
    <nd ref="315559588"/>
    <nd ref="315559590"/>
    <tag k="created_by" v="Potlatch 0.10f"/>
    <tag k="highway" v="residential"/>
    <tag k="name" v="South Hattie Avenue"/>
    <tag k="tiger:cfcc" v="A41"/>
    <tag k="tiger:county" v="Oklahoma, OK"/>
    <tag k="tiger:name_base" v="Hattie"/>
    <tag k="tiger:name_direction_prefix" v="S"/>
    <tag k="tiger:name_type" v="Ave"/>
    <tag k="tiger:reviewed" v="no"/>
    <tag k="tiger:separated" v="no"/>
    <tag k="tiger:source" v="tiger_import_dch_v0.6_20070829"/>
    <tag k="tiger:tlid" v="100436762:100407555"/>
    <tag k="tiger:zip_left" v="73129"/>
    <tag k="tiger:zip_right" v="73129"/>
  </way>
  <way id="28511168" version="1" timestamp="2008-11-19T18:26:20Z" uid="67142" user="zottel" changeset="768047">
    <nd ref="313192037"/>
    <nd ref="313192040"/>
    <tag k="bicycle" v="yes"/>
    <tag k="foot" v="designated"/>
    <tag k="highway" v="path"/>
  </way>
  <way id="28511170" version="1" timestamp="2008-11-19T18:26:21Z" uid="67142" user="zottel" changeset="768047">
    <nd ref="313192042"/>
    <nd ref="313192043"/>
    <tag k="bicycle" v="yes"/>
    <tag k="foot" v="designated"/>
    <tag k="highway" v="path"/>
  </way>
  <way id="28511173" version="1" timestamp="2008-11-19T18:26:22Z" uid="67142" user="zottel" changeset="768047">
    <nd ref="110000046"/>
    <nd ref="282954677"/>
    <nd ref="291059633"/>
    <nd ref="270786827"/>
    <nd ref="270780045"/>
    <nd ref="270786829"/>
    <nd ref="311865957"/>
    <nd ref="270786830"/>
    <nd ref="270786831"/>
    <nd ref="304607038"/>
    <nd ref="291067435"/>
    <nd ref="270786832"/>
    <nd ref="291067437"/>
    <nd ref="293997373"/>
    <tag k="bicycle" v="designated"/>
    <tag k="foot" v="designated"/>
    <tag k="highway" v="path"/>
    <tag k="name" v="Enzuferweg"/>
    <tag k="surface" v="unpaved"/>
    <tag k="surface_material" v="sand"/>
    <tag k="surface_state" v="plane"/>
  </way>
  <way id="28511177" version="1" timestamp="2008-11-19T18:26:23Z" uid="67142" user="zottel" changeset="768047">
    <nd ref="99246177"/>
    <nd ref="311138889"/>
    <tag k="bicycle" v="designated"/>
    <tag k="foot" v="designated"/>
    <tag k="highway" v="path"/>
    <tag k="name" v="Hoyerswerda-Ufer"/>
    <tag k="segregated" v="no"/>
    <tag k="surface" v="paved"/>
  </way>
  <way id="28511284" version="1" timestamp="2008-11-19T18:37:23Z" uid="20587" user="balrog-kun" changeset="767985">
    <nd ref="33207656"/>
    <nd ref="179870495"/>
    <nd ref="313192927"/>
    <nd ref="313192928"/>
    <nd ref="313192929"/>
    <nd ref="313192930"/>
    <nd ref="313192931"/>
    <tag k="created_by" v="JOSM"/>
    <tag k="highway" v="footway"/>
  </way>
  <way id="28511285" version="1" timestamp="2008-11-19T18:37:24Z" uid="20587" user="balrog-kun" changeset="767985">
    <nd ref="313192940"/>
    <nd ref="313192938"/>
    <nd ref="313192936"/>
    <nd ref="313192935"/>
    <nd ref="313192937"/>
    <nd ref="313192939"/>
    <nd ref="313192940"/>
    <tag k="addr:housenumber" v="19"/>
    <tag k="addr:street" v="Wawelska"/>
    <tag k="building" v="yes"/>
  </way>
  <way id="28511285" version="2" timestamp="2009-11-12T18:11:29Z" uid="20587" user="balrog-kun" changeset="3100206">
    <nd ref="313192940"/>
    <nd ref="313192938"/>
    <nd ref="313192936"/>
    <nd ref="313192935"/>
    <nd ref="313192937"/>
    <nd ref="313192939"/>
    <nd ref="313192940"/>
    <tag k="addr:housenumber" v="19"/>
    <tag k="addr:street" v="Wawelska"/>
    <tag k="building" v="residential"/>
  </way>
  <way id="28511286" version="1" timestamp="2008-11-19T18:37:25Z" uid="20587" user="balrog-kun" changeset="767985">
    <nd ref="313192941"/>
    <nd ref="313192943"/>
    <nd ref="313192944"/>
    <nd ref="313192947"/>
    <nd ref="313192953"/>
    <nd ref="313192955"/>
    <nd ref="313192956"/>
    <nd ref="313192957"/>
    <nd ref="313192958"/>
    <nd ref="313192954"/>
    <nd ref="313192949"/>
    <nd ref="313192951"/>
    <nd ref="313192952"/>
    <nd ref="313192950"/>
    <nd ref="313192948"/>
    <nd ref="313192945"/>
    <nd ref="313192946"/>
    <nd ref="313192942"/>
    <nd ref="313192941"/>
    <tag k="addr:housenumber" v="17"/>
    <tag k="addr:street" v="Wawelska"/>
    <tag k="building" v="yes"/>
  </way>
  <way id="28511286" version="4" timestamp="2008-12-05T23:02:04Z" uid="20587" user="balrog-kun" changeset="142225">
    <nd ref="313192941"/>
    <nd ref="313192943"/>
    <nd ref="313192944"/>
    <nd ref="313192947"/>
    <nd ref="313192953"/>
    <nd ref="313192955"/>
    <nd ref="313192956"/>
    <nd ref="313192957"/>
    <nd ref="313192958"/>
    <nd ref="313192954"/>
    <nd ref="313192949"/>
    <nd ref="313192951"/>
    <nd ref="313192952"/>
    <nd ref="313192950"/>
    <nd ref="313192948"/>
    <nd ref="313192945"/>
    <nd ref="313192946"/>
    <nd ref="313192942"/>
    <nd ref="313192941"/>
    <tag k="addr:housenumber" v="15"/>
    <tag k="addr:street" v="Wawelska"/>
    <tag k="amenity" v="hospital"/>
    <tag k="created_by" v="Potlatch 0.10f"/>
  </way>
  <way id="28511287" version="1" timestamp="2008-11-19T18:37:25Z" uid="20587" user="balrog-kun" changeset="767985">
    <nd ref="313193018"/>
    <nd ref="313193016"/>
    <nd ref="313193017"/>
    <nd ref="313193026"/>
    <nd ref="313193030"/>
    <nd ref="313193028"/>
    <nd ref="313193027"/>
    <nd ref="313193024"/>
    <nd ref="313193018"/>
    <tag k="addr:housenumber" v="42"/>
    <tag k="addr:street" v="Grójecka"/>
    <tag k="building" v="yes"/>
  </way>
  <way id="28511287" version="2" timestamp="2008-12-11T14:26:55Z" uid="20587" user="balrog-kun" changeset="319688">
    <nd ref="313193018"/>
    <nd ref="317953344"/>
    <nd ref="317953345"/>
    <nd ref="313193016"/>
    <nd ref="313193018"/>
    <tag k="addr:housenumber" v="42a"/>
    <tag k="addr:street" v="Grójecka"/>
    <tag k="building" v="yes"/>
  </way>
  <way id="28511287" version="3" timestamp="2009-01-08T15:20:41Z" uid="20587" user="balrog-kun" changeset="756602">
    <nd ref="313193018"/>
    <nd ref="317953344"/>
    <nd ref="317953345"/>
    <nd ref="313193016"/>
    <nd ref="313193018"/>
    <tag k="addr:housenumber" v="42a"/>
    <tag k="addr:street" v="Grójecka"/>
    <tag k="building" v="yes"/>
    <tag k="building:levels" v="1"/>
  </way>
  <way id="28511288" version="1" timestamp="2008-11-19T18:37:26Z" uid="20587" user="balrog-kun" changeset="767985">
    <nd ref="313193026"/>
    <nd ref="313193019"/>
    <nd ref="313193021"/>
    <nd ref="313193020"/>
    <nd ref="313193022"/>
    <nd ref="313193023"/>
    <nd ref="313193025"/>
    <nd ref="313193029"/>
    <nd ref="313193030"/>
    <nd ref="313193026"/>
    <tag k="addr:housenumber" v="40"/>
    <tag k="addr:street" v="Grójecka"/>
    <tag k="building" v="yes"/>
  </way>
  <way id="28511288" version="2" timestamp="2008-12-11T14:13:22Z" uid="20587" user="balrog-kun" changeset="319688">
    <nd ref="317951812"/>
    <nd ref="313193025"/>
    <nd ref="313193029"/>
    <nd ref="313193030"/>
    <nd ref="313193026"/>
    <nd ref="313193019"/>
    <nd ref="317951814"/>
    <nd ref="317951812"/>
    <tag k="addr:housenumber" v="40a"/>
    <tag k="addr:street" v="Grójecka"/>
    <tag k="building" v="yes"/>
  </way>
  <way id="28511288" version="3" timestamp="2009-01-08T15:20:42Z" uid="20587" user="balrog-kun" changeset="756602">
    <nd ref="317951812"/>
    <nd ref="313193025"/>
    <nd ref="313193029"/>
    <nd ref="313193030"/>
    <nd ref="313193026"/>
    <nd ref="313193019"/>
    <nd ref="317951814"/>
    <nd ref="317951812"/>
    <tag k="addr:housenumber" v="40a"/>
    <tag k="addr:street" v="Grójecka"/>
    <tag k="building" v="yes"/>
    <tag k="building:levels" v="5"/>
  </way>
  <way id="28511289" version="1" timestamp="2008-11-19T18:37:26Z" uid="20587" user="balrog-kun" changeset="767985">
    <nd ref="313193046"/>
    <nd ref="313193048"/>
    <nd ref="313193049"/>
    <nd ref="313193047"/>
    <nd ref="313193046"/>
    <tag k="building" v="yes"/>
  </way>
  <way id="28511289" version="2" timestamp="2008-12-09T20:24:26Z" uid="20587" user="balrog-kun" changeset="281476">
    <nd ref="313193046"/>
    <nd ref="313193047"/>
    <nd ref="313193049"/>
    <nd ref="313193048"/>
    <nd ref="313193046"/>
    <tag k="building" v="yes"/>
  </way>
  <way id="28511290" version="1" timestamp="2008-11-19T18:37:27Z" uid="20587" user="balrog-kun" changeset="767985">
    <nd ref="313193036"/>
    <nd ref="313193038"/>
    <nd ref="313193042"/>
    <nd ref="313193044"/>
    <nd ref="313193045"/>
    <nd ref="313193043"/>
    <nd ref="313193040"/>
    <nd ref="313193041"/>
    <nd ref="313193039"/>
    <nd ref="313193037"/>
    <nd ref="313193036"/>
    <tag k="addr:city" v="32"/>
    <tag k="addr:street" v="Grójecka"/>
    <tag k="building" v="yes"/>
  </way>
  <way id="28511290" version="2" timestamp="2008-12-09T20:24:27Z" uid="20587" user="balrog-kun" changeset="281476">
    <nd ref="313193036"/>
    <nd ref="313193038"/>
    <nd ref="313193042"/>
    <nd ref="317641545"/>
    <nd ref="313193045"/>
    <nd ref="313193043"/>
    <nd ref="313193040"/>
    <nd ref="313193041"/>
    <nd ref="313193039"/>
    <nd ref="313193037"/>
    <nd ref="313193036"/>
    <tag k="addr:city" v="32"/>
    <tag k="addr:street" v="Grójecka"/>
    <tag k="building" v="yes"/>
  </way>
  <way id="28511290" version="3" timestamp="2008-12-11T14:13:22Z" uid="20587" user="balrog-kun" changeset="319688">
    <nd ref="313193039"/>
    <nd ref="313193037"/>
    <nd ref="313193036"/>
    <nd ref="313193038"/>
    <nd ref="313193041"/>
    <nd ref="313193039"/>
    <tag k="addr:city" v="32"/>
    <tag k="addr:street" v="Grójecka"/>
    <tag k="building" v="yes"/>
  </way>
  <way id="28511290" version="4" timestamp="2009-01-11T01:05:13Z" uid="20587" user="balrog-kun" changeset="769936">
    <nd ref="313193037"/>
    <nd ref="313193036"/>
    <nd ref="313193038"/>
    <nd ref="313193039"/>
    <nd ref="313193037"/>
    <tag k="addr:city" v="32"/>
    <tag k="addr:street" v="Grójecka"/>
    <tag k="building" v="yes"/>
  </way>
  <way id="28511290" version="5" timestamp="2009-01-15T18:29:31Z" uid="20587" user="balrog-kun" changeset="791946">
    <nd ref="313193037"/>
    <nd ref="313193036"/>
    <nd ref="313193038"/>
    <nd ref="313193039"/>
    <nd ref="313193037"/>
    <tag k="addr:city" v="32"/>
    <tag k="addr:street" v="Grójecka"/>
    <tag k="building" v="yes"/>
    <tag k="building:levels" v="6"/>
  </way>
  <way id="28511291" version="1" timestamp="2008-11-19T18:37:27Z" uid="20587" user="balrog-kun" changeset="767985">
    <nd ref="313193037"/>
    <nd ref="313193035"/>
    <nd ref="313193033"/>
    <nd ref="313193032"/>
    <nd ref="313193048"/>
    <nd ref="313193049"/>
    <nd ref="313193034"/>
    <nd ref="313193036"/>
    <nd ref="313193037"/>
    <tag k="addr:housenumber" v="28/30"/>
    <tag k="addr:street" v="Grójecka"/>
    <tag k="building" v="yes"/>
  </way>
  <way id="28511291" version="2" timestamp="2009-01-15T18:29:31Z" uid="20587" user="balrog-kun" changeset="791946">
    <nd ref="313193037"/>
    <nd ref="313193035"/>
    <nd ref="313193033"/>
    <nd ref="313193032"/>
    <nd ref="313193048"/>
    <nd ref="313193049"/>
    <nd ref="313193034"/>
    <nd ref="313193036"/>
    <nd ref="313193037"/>
    <tag k="addr:housenumber" v="28/30"/>
    <tag k="addr:street" v="Grójecka"/>
    <tag k="building" v="yes"/>
    <tag k="building:levels" v="6"/>
  </way>
  <way id="28511339" version="1" timestamp="2008-11-19T18:40:32Z" uid="36809" user="pfoten_weg_!_" changeset="769196">
    <nd ref="311679514"/>
    <nd ref="313193350"/>
    <nd ref="313193348"/>
    <nd ref="313193349"/>
    <tag k="created_by" v="RambaZamba"/>
    <tag k="highway" v="residential"/>
    <tag k="layer" v="0"/>
    <tag k="name" v="Fabryczna"/>
    <tag k="source" v="survey"/>
    <tag k="surface" v="paved"/>
    <tag k="width" v="6"/>
  </way>
  <way id="28511339" version="2" timestamp="2008-11-21T21:27:59Z" uid="36809" user="pfoten_weg_!_" changeset="776750">
    <nd ref="311679514"/>
    <nd ref="313193350"/>
    <nd ref="313193348"/>
    <nd ref="313579753"/>
    <nd ref="313583385"/>
    <nd ref="313193349"/>
    <tag k="created_by" v="RambaZamba"/>
    <tag k="highway" v="residential"/>
    <tag k="layer" v="0"/>
    <tag k="name" v="Fabryczna"/>
    <tag k="source" v="survey"/>
    <tag k="surface" v="paved"/>
    <tag k="width" v="6"/>
  </way>
  <way id="28511339" version="3" timestamp="2008-12-16T23:57:37Z" uid="36809" user="pfoten_weg_!_" changeset="445211"/>
  <way id="28511340" version="1" timestamp="2008-11-19T18:40:33Z" uid="36809" user="pfoten_weg_!_" changeset="769196">
    <nd ref="313193349"/>
    <nd ref="313193351"/>
    <nd ref="311679520"/>
    <tag k="created_by" v="RambaZamba"/>
    <tag k="highway" v="residential"/>
    <tag k="layer" v="0"/>
    <tag k="name" v="Fabryczna"/>
    <tag k="source" v="survey"/>
    <tag k="surface" v="paved"/>
    <tag k="width" v="6"/>
  </way>
  <way id="28511340" version="2" timestamp="2009-08-26T14:42:21Z" uid="36809" user="pfoten_weg_!_" changeset="2268294">
    <nd ref="313193349"/>
    <nd ref="313193351"/>
    <nd ref="311679520"/>
    <tag k="discovered_by" v="RambaZamba"/>
    <tag k="highway" v="residential"/>
    <tag k="layer" v="0"/>
    <tag k="name" v="Fabryczna"/>
    <tag k="source" v="survey"/>
    <tag k="surface" v="paved"/>
    <tag k="width" v="6"/>
  </way>
  <way id="28511340" version="4" timestamp="2009-08-28T22:11:08Z" uid="36809" user="pfoten_weg_!_" changeset="2295858">
    <nd ref="313193349"/>
    <nd ref="313193351"/>
    <nd ref="311679520"/>
    <tag k="discovered_by" v="RambaZamba"/>
    <tag k="highway" v="residential"/>
    <tag k="layer" v="0"/>
    <tag k="name" v="Fabryczna"/>
    <tag k="source" v="survey"/>
    <tag k="surface" v="paved"/>
    <tag k="width" v="6"/>
  </way>
  <way id="28511340" version="6" timestamp="2009-08-31T11:54:45Z" uid="64924" user="leck_mich_alle_am_arsch" changeset="2325369">
    <nd ref="313193349"/>
    <nd ref="313193351"/>
    <nd ref="311679520"/>
    <tag k="highway" v="residential"/>
    <tag k="layer" v="0"/>
    <tag k="name" v="Fabryczna"/>
    <tag k="source" v="survey"/>
    <tag k="surface" v="paved"/>
    <tag k="width" v="6"/>
  </way>
  <way id="28511340" version="7" timestamp="2009-10-21T17:53:39Z" uid="36809" user="pfoten_weg_!_" changeset="2914872">
    <nd ref="313193349"/>
    <nd ref="313193351"/>
    <nd ref="311679520"/>
    <tag k="highway" v="residential"/>
    <tag k="layer" v="0"/>
    <tag k="name" v="Fabryczna"/>
    <tag k="surface" v="paved"/>
    <tag k="width" v="6"/>
  </way>
  <way id="28511394" version="6" timestamp="2010-12-11T12:23:10Z" uid="6269" user="Mueck" changeset="6622363">
    <nd ref="313193664"/>
    <nd ref="1033108934"/>
    <nd ref="313193665"/>
    <nd ref="313193666"/>
    <nd ref="313193667"/>
    <nd ref="313193668"/>
    <nd ref="313193669"/>
    <nd ref="313193670"/>
    <nd ref="403137913"/>
    <nd ref="498785551"/>
    <nd ref="403137916"/>
    <nd ref="498550713"/>
    <nd ref="498550719"/>
    <nd ref="498770150"/>
    <nd ref="498550723"/>
    <nd ref="498550726"/>
    <nd ref="498550729"/>
    <nd ref="498550732"/>
    <nd ref="498550735"/>
    <nd ref="498550739"/>
    <nd ref="498550742"/>
    <nd ref="498550745"/>
    <nd ref="498550748"/>
    <nd ref="498550752"/>
    <nd ref="498550755"/>
    <nd ref="498550764"/>
    <nd ref="498550767"/>
    <tag k="boat" v="no"/>
    <tag k="name" v="Neue Aue"/>
    <tag k="waterway" v="drain"/>
  </way>
  <way id="28511394" version="7" timestamp="2010-12-15T19:02:46Z" uid="6269" user="Mueck" changeset="6670427">
    <nd ref="508703853"/>
    <nd ref="508703858"/>
    <nd ref="1033108946"/>
    <nd ref="1033108926"/>
    <nd ref="1033108942"/>
    <nd ref="1033108956"/>
    <nd ref="508703863"/>
    <nd ref="1033108943"/>
    <nd ref="660366941"/>
    <nd ref="1033108967"/>
    <nd ref="313193664"/>
    <nd ref="1033108934"/>
    <nd ref="313193665"/>
    <nd ref="313193666"/>
    <nd ref="313193667"/>
    <nd ref="1039624746"/>
    <nd ref="313193668"/>
    <nd ref="1039624642"/>
    <nd ref="1039624896"/>
    <nd ref="313193669"/>
    <nd ref="1039624545"/>
    <nd ref="313193670"/>
    <nd ref="1039624808"/>
    <nd ref="1039624583"/>
    <nd ref="403137913"/>
    <nd ref="1039624734"/>
    <nd ref="1039624813"/>
    <nd ref="498785551"/>
    <nd ref="1039624744"/>
    <nd ref="1039624617"/>
    <nd ref="403137916"/>
    <nd ref="498550713"/>
    <nd ref="1039624757"/>
    <nd ref="498550719"/>
    <nd ref="498770150"/>
    <nd ref="498550723"/>
    <nd ref="498550726"/>
    <nd ref="498550729"/>
    <nd ref="498550732"/>
    <nd ref="1039624766"/>
    <nd ref="498550735"/>
    <nd ref="498550739"/>
    <nd ref="498550742"/>
    <nd ref="498550745"/>
    <nd ref="498550748"/>
    <nd ref="498550752"/>
    <nd ref="498550755"/>
    <nd ref="498550764"/>
    <nd ref="1039624856"/>
    <nd ref="498550767"/>
    <tag k="boat" v="no"/>
    <tag k="name" v="Neue Aue"/>
    <tag k="waterway" v="stream"/>
  </way>
  <way id="28511558" version="2" timestamp="2009-10-08T21:59:22Z" uid="179968" user="Ich_hasse_doitsche_OSM-Korinthenkacker" changeset="2788120">
    <nd ref="290553513"/>
    <nd ref="290553514"/>
    <tag k="highway" v="track"/>
    <tag k="tracktype" v="grade3"/>
  </way>
  <way id="28511601" version="1" timestamp="2008-11-19T18:58:17Z" uid="70800" user="Cellpaq" changeset="770106">
    <nd ref="313195404"/>
    <nd ref="313195406"/>
    <tag k="highway" v="service"/>
  </way>
  <way id="28511650" version="2" timestamp="2009-02-03T21:02:22Z" uid="67142" user="zottel" changeset="99016">
    <nd ref="277011556"/>
    <nd ref="340282696"/>
    <nd ref="29506341"/>
    <nd ref="30551344"/>
    <nd ref="308981595"/>
    <nd ref="29506342"/>
    <nd ref="29506344"/>
    <tag k="created_by" v="Potlatch 0.7a"/>
    <tag k="highway" v="primary"/>
    <tag k="name" v="Wildbader Straße"/>
    <tag k="ref" v="B 294"/>
  </way>
  <way id="28511654" version="2" timestamp="2009-02-03T22:12:25Z" uid="67142" user="zottel" changeset="108922">
    <nd ref="301815537"/>
    <nd ref="301815508"/>
    <nd ref="300645555"/>
    <nd ref="300645554"/>
    <nd ref="300645556"/>
    <nd ref="300645557"/>
    <nd ref="300645704"/>
    <tag k="highway" v="residential"/>
    <tag k="maxspeed" v="30"/>
    <tag k="name" v="Kreuzstraße"/>
  </way>
  <way id="28511655" version="2" timestamp="2009-02-03T22:12:21Z" uid="67142" user="zottel" changeset="108922">
    <nd ref="29579989"/>
    <nd ref="340299531"/>
    <nd ref="301815507"/>
    <nd ref="301815537"/>
    <tag k="highway" v="residential"/>
    <tag k="maxspeed" v="30"/>
    <tag k="name" v="Kreuzstraße"/>
  </way>
  <way id="28511659" version="2" timestamp="2009-02-04T14:55:49Z" uid="67142" user="zottel" changeset="138503"/>
  <way id="28511662" version="2" timestamp="2009-02-03T22:12:41Z" uid="67142" user="zottel" changeset="108922"/>
  <way id="28511918" version="5" timestamp="2010-12-09T11:43:44Z" uid="115477" user="wowik" changeset="6593942">
    <nd ref="1029493743"/>
    <nd ref="1029493881"/>
    <nd ref="1029493738"/>
    <nd ref="1029493840"/>
    <nd ref="1029493718"/>
    <nd ref="313198369"/>
    <nd ref="313198370"/>
    <nd ref="313253816"/>
    <nd ref="313253817"/>
    <nd ref="313253818"/>
    <nd ref="575963713"/>
    <nd ref="313253819"/>
    <tag k="railway" v="rail"/>
  </way>
  <way id="28511918" version="6" timestamp="2010-12-09T11:47:57Z" uid="115477" user="wowik" changeset="6594147">
    <nd ref="1029502763"/>
    <nd ref="1029502883"/>
    <nd ref="1029502756"/>
    <nd ref="1029502868"/>
    <nd ref="1029502736"/>
    <nd ref="313198369"/>
    <nd ref="313198370"/>
    <nd ref="313253816"/>
    <nd ref="313253817"/>
    <nd ref="313253818"/>
    <nd ref="575963713"/>
    <nd ref="313253819"/>
    <tag k="railway" v="rail"/>
  </way>
  <way id="28511918" version="7" timestamp="2010-12-09T14:30:15Z" uid="115477" user="wowik" changeset="6595693">
    <nd ref="1029502763"/>
    <nd ref="1029502883"/>
    <nd ref="1029502756"/>
    <nd ref="1029502868"/>
    <nd ref="1029502736"/>
    <nd ref="313198369"/>
    <nd ref="1029618801"/>
    <nd ref="313198370"/>
    <nd ref="1029618832"/>
    <nd ref="1029618756"/>
    <nd ref="313253816"/>
    <nd ref="1029618765"/>
    <tag k="railway" v="rail"/>
  </way>
  <way id="28511918" version="8" timestamp="2010-12-09T16:45:23Z" uid="115477" user="wowik" changeset="6596854">
    <nd ref="1029732189"/>
    <nd ref="1029732623"/>
    <nd ref="1029732343"/>
    <nd ref="1029731895"/>
    <nd ref="1029731848"/>
    <nd ref="1029732155"/>
    <nd ref="1029732043"/>
    <nd ref="1029732337"/>
    <nd ref="1029732094"/>
    <nd ref="1029731883"/>
    <nd ref="1029732103"/>
    <nd ref="1029732224"/>
    <nd ref="1029732141"/>
    <nd ref="1029732362"/>
    <nd ref="1029732001"/>
    <nd ref="304611442"/>
    <nd ref="1029732512"/>
    <nd ref="1029732259"/>
    <nd ref="1029732149"/>
    <nd ref="1029732032"/>
    <nd ref="1029732267"/>
    <nd ref="1029732233"/>
    <nd ref="1029731764"/>
    <nd ref="1029732508"/>
    <nd ref="1029731991"/>
    <nd ref="1029732396"/>
    <nd ref="1029731910"/>
    <nd ref="1029731749"/>
    <nd ref="1029732108"/>
    <nd ref="1029732060"/>
    <nd ref="1029732294"/>
    <nd ref="1029732198"/>
    <nd ref="1029732650"/>
    <nd ref="1029502763"/>
    <tag k="railway" v="rail"/>
    <tag k="service" v="spur"/>
  </way>
  <way id="28511964" version="2" timestamp="2009-02-03T22:12:24Z" uid="67142" user="zottel" changeset="108922">
    <nd ref="301815537"/>
    <nd ref="301815508"/>
    <nd ref="300645555"/>
    <nd ref="300645554"/>
    <nd ref="300645556"/>
    <nd ref="300645557"/>
    <nd ref="300645704"/>
    <nd ref="340299529"/>
    <nd ref="300645666"/>
    <tag k="highway" v="residential"/>
    <tag k="maxspeed" v="30"/>
    <tag k="name" v="Kreuzstraße"/>
  </way>
  <way id="28511972" version="3" timestamp="2009-02-04T14:55:26Z" uid="67142" user="zottel" changeset="138503">
    <nd ref="301815505"/>
    <nd ref="301808572"/>
    <nd ref="301837292"/>
    <nd ref="301808567"/>
    <nd ref="301808562"/>
    <nd ref="303800241"/>
    <nd ref="300658867"/>
    <nd ref="29580002"/>
    <tag k="created_by" v="Potlatch 0.10b"/>
    <tag k="highway" v="secondary"/>
    <tag k="name" v="Gräfenhausener Straße"/>
    <tag k="ref" v="L 565"/>
  </way>
  <way id="28511972" version="4" timestamp="2009-02-05T10:38:29Z" uid="67142" user="zottel" changeset="154176">
    <nd ref="301815505"/>
    <nd ref="301808572"/>
    <nd ref="301837292"/>
    <nd ref="301808567"/>
    <nd ref="301808562"/>
    <nd ref="303800241"/>
    <nd ref="300658867"/>
    <nd ref="29580002"/>
    <tag k="created_by" v="Potlatch 0.10b"/>
    <tag k="highway" v="secondary"/>
    <tag k="name" v="Gräfenhäuser Straße"/>
    <tag k="ref" v="L 565"/>
  </way>
</osm>
