<?xml version='1.0' encoding='UTF-8'?>
<osm version="0.6" generator="libosmium/2.20.0">
  <way id="28513055" version="1" timestamp="2008-11-19T20:07:57Z" uid="20587" user="balrog-kun" changeset="768754">
    <nd ref="313206519"/>
    <nd ref="302904566"/>
    <nd ref="302904568"/>
    <nd ref="313206520"/>
    <nd ref="313206519"/>
    <tag k="addr:housenumber" v="117"/>
    <tag k="addr:street" v="Aleje Jerozolimskie"/>
    <tag k="building" v="yes"/>
  </way>
  <way id="28513055" version="2" timestamp="2009-01-13T20:15:47Z" uid="20587" user="balrog-kun" changeset="783761">
    <nd ref="313206519"/>
    <nd ref="302904566"/>
    <nd ref="302904568"/>
    <nd ref="313206520"/>
    <nd ref="313206519"/>
    <tag k="addr:housenumber" v="117"/>
    <tag k="addr:street" v="Aleje Jerozolimskie"/>
    <tag k="building" v="yes"/>
    <tag k="building:levels" v="7"/>
  </way>
  <way id="28513056" version="1" timestamp="2008-11-19T20:07:58Z" uid="20587" user="balrog-kun" changeset="768754">
    <nd ref="313206530"/>
    <nd ref="313206532"/>
    <nd ref="302904569"/>
    <nd ref="302904570"/>
    <nd ref="313206535"/>
    <nd ref="313206531"/>
    <nd ref="313206530"/>
    <tag k="addr:housenumber" v="109"/>
    <tag k="addr:street" v="Aleje Jerozolimskie"/>
    <tag k="building" v="yes"/>
  </way>
  <way id="28513056" version="2" timestamp="2009-01-13T20:15:46Z" uid="20587" user="balrog-kun" changeset="783761">
    <nd ref="313206530"/>
    <nd ref="313206532"/>
    <nd ref="302904569"/>
    <nd ref="302904570"/>
    <nd ref="313206535"/>
    <nd ref="313206531"/>
    <nd ref="313206530"/>
    <tag k="addr:housenumber" v="109"/>
    <tag k="addr:street" v="Aleje Jerozolimskie"/>
    <tag k="building" v="yes"/>
    <tag k="building:levels" v="7"/>
  </way>
  <way id="28513056" version="3" timestamp="2009-02-07T17:50:13Z" uid="20587" user="balrog-kun" changeset="232111">
    <nd ref="313206530"/>
    <nd ref="313206532"/>
    <nd ref="302904569"/>
    <nd ref="302904570"/>
    <nd ref="313206535"/>
    <nd ref="313206531"/>
    <nd ref="313206530"/>
    <tag k="addr:housenumber" v="109"/>
    <tag k="addr:street" v="Aleje Jerozolimskie"/>
    <tag k="building" v="yes"/>
    <tag k="building:levels" v="7"/>
    <tag k="note" v="TODO: 111"/>
  </way>
  <way id="28513057" version="1" timestamp="2008-11-19T20:07:58Z" uid="20587" user="balrog-kun" changeset="768754">
    <nd ref="313206535"/>
    <nd ref="313206533"/>
    <nd ref="313206534"/>
    <nd ref="313206529"/>
    <nd ref="313206528"/>
    <nd ref="313206530"/>
    <nd ref="313206531"/>
    <nd ref="313206535"/>
    <tag k="addr:housenumber" v="107"/>
    <tag k="addr:street" v="Aleje Jerozolimskie"/>
    <tag k="building" v="yes"/>
  </way>
  <way id="28513057" version="2" timestamp="2009-01-13T20:15:47Z" uid="20587" user="balrog-kun" changeset="783761">
    <nd ref="313206535"/>
    <nd ref="313206533"/>
    <nd ref="313206534"/>
    <nd ref="313206529"/>
    <nd ref="313206528"/>
    <nd ref="313206530"/>
    <nd ref="313206531"/>
    <nd ref="313206535"/>
    <tag k="addr:housenumber" v="107"/>
    <tag k="addr:street" v="Aleje Jerozolimskie"/>
    <tag k="building" v="yes"/>
    <tag k="building:levels" v="7"/>
  </way>
  <way id="28513058" version="1" timestamp="2008-11-19T20:07:59Z" uid="20587" user="balrog-kun" changeset="768754">
    <nd ref="313206525"/>
    <nd ref="313206528"/>
    <nd ref="313206529"/>
    <nd ref="313206527"/>
    <nd ref="313206525"/>
    <tag k="addr:housenumber" v="105"/>
    <tag k="addr:street" v="Aleje Jerozolimskie"/>
    <tag k="building" v="yes"/>
  </way>
  <way id="28513058" version="2" timestamp="2009-01-13T20:15:44Z" uid="20587" user="balrog-kun" changeset="783761">
    <nd ref="313206525"/>
    <nd ref="313206528"/>
    <nd ref="313206529"/>
    <nd ref="313206527"/>
    <nd ref="313206525"/>
    <tag k="addr:housenumber" v="105"/>
    <tag k="addr:street" v="Aleje Jerozolimskie"/>
    <tag k="building" v="yes"/>
    <tag k="building:levels" v="6"/>
  </way>
  <way id="28513058" version="3" timestamp="2009-11-12T18:11:29Z" uid="20587" user="balrog-kun" changeset="3100206">
    <nd ref="313206525"/>
    <nd ref="313206528"/>
    <nd ref="313206529"/>
    <nd ref="313206527"/>
    <nd ref="313206525"/>
    <tag k="addr:housenumber" v="105"/>
    <tag k="addr:street" v="Aleje Jerozolimskie"/>
    <tag k="building" v="residential"/>
    <tag k="building:levels" v="6"/>
  </way>
  <way id="28513059" version="1" timestamp="2008-11-19T20:07:59Z" uid="20587" user="balrog-kun" changeset="768754">
    <nd ref="313206525"/>
    <nd ref="313206527"/>
    <nd ref="313206524"/>
    <nd ref="313206523"/>
    <nd ref="313206525"/>
    <tag k="addr:housenumber" v="103"/>
    <tag k="addr:street" v="Aleje Jerozolimskie"/>
    <tag k="building" v="yes"/>
  </way>
  <way id="28513059" version="2" timestamp="2008-11-25T10:57:05Z" uid="20587" user="balrog-kun" changeset="793095">
    <nd ref="313206525"/>
    <nd ref="313206527"/>
    <nd ref="314594135"/>
    <nd ref="313206524"/>
    <nd ref="313206523"/>
    <nd ref="313206525"/>
    <tag k="addr:housenumber" v="103"/>
    <tag k="addr:street" v="Aleje Jerozolimskie"/>
    <tag k="building" v="yes"/>
  </way>
  <way id="28513059" version="3" timestamp="2009-01-13T20:15:45Z" uid="20587" user="balrog-kun" changeset="783761">
    <nd ref="313206525"/>
    <nd ref="313206527"/>
    <nd ref="314594135"/>
    <nd ref="313206524"/>
    <nd ref="313206523"/>
    <nd ref="313206525"/>
    <tag k="addr:housenumber" v="103"/>
    <tag k="addr:street" v="Aleje Jerozolimskie"/>
    <tag k="building" v="yes"/>
    <tag k="building:levels" v="6"/>
  </way>
  <way id="28513059" version="4" timestamp="2009-11-12T18:11:32Z" uid="20587" user="balrog-kun" changeset="3100206">
    <nd ref="313206525"/>
    <nd ref="313206527"/>
    <nd ref="314594135"/>
    <nd ref="313206524"/>
    <nd ref="313206523"/>
    <nd ref="313206525"/>
    <tag k="addr:housenumber" v="103"/>
    <tag k="addr:street" v="Aleje Jerozolimskie"/>
    <tag k="building" v="residential"/>
    <tag k="building:levels" v="6"/>
  </way>
  <way id="28513060" version="1" timestamp="2008-11-19T20:08:00Z" uid="20587" user="balrog-kun" changeset="768754">
    <nd ref="32594628"/>
    <nd ref="32596181"/>
    <nd ref="32596179"/>
    <nd ref="32594510"/>
    <nd ref="32596180"/>
    <nd ref="32596178"/>
    <nd ref="32596177"/>
    <nd ref="32594629"/>
    <nd ref="32594628"/>
    <tag k="leisure" v="common"/>
  </way>
  <way id="28513060" version="2" timestamp="2009-01-21T14:22:20Z" uid="20587" user="balrog-kun" changeset="821206">
    <nd ref="32594628"/>
    <nd ref="32596181"/>
    <nd ref="32596179"/>
    <nd ref="32594510"/>
    <nd ref="32596180"/>
    <nd ref="32596178"/>
    <nd ref="32596177"/>
    <nd ref="32594629"/>
    <nd ref="32594628"/>
    <tag k="leisure" v="common"/>
    <tag k="name" v="Skwer inÅ¼yniera Alfonsa Grotowskiego"/>
  </way>
  <way id="28513062" version="1" timestamp="2008-11-19T20:08:00Z" uid="20587" user="balrog-kun" changeset="768754">
    <nd ref="313206537"/>
    <nd ref="313206538"/>
    <nd ref="313206539"/>
    <nd ref="313206540"/>
    <nd ref="313206541"/>
    <nd ref="313206542"/>
    <tag k="highway" v="residential"/>
    <tag k="oneway" v="yes"/>
  </way>
  <way id="28513062" version="2" timestamp="2010-05-01T17:19:22Z" uid="20587" user="balrog-kun" changeset="4577369">
    <nd ref="313206537"/>
    <nd ref="313206538"/>
    <nd ref="313206539"/>
    <nd ref="313206540"/>
    <nd ref="313206541"/>
    <nd ref="313206542"/>
    <tag k="highway" v="residential"/>
    <tag k="lanes" v="1"/>
    <tag k="oneway" v="yes"/>
  </way>
  <way id="28513063" version="1" timestamp="2008-11-19T20:08:01Z" uid="20587" user="balrog-kun" changeset="768754">
    <nd ref="313206542"/>
    <nd ref="313206543"/>
    <nd ref="313206544"/>
    <nd ref="313206545"/>
    <nd ref="313206546"/>
    <nd ref="313206547"/>
    <tag k="highway" v="residential"/>
    <tag k="oneway" v="yes"/>
  </way>
  <way id="28513063" version="2" timestamp="2010-05-01T17:19:30Z" uid="20587" user="balrog-kun" changeset="4577369">
    <nd ref="313206542"/>
    <nd ref="313206543"/>
    <nd ref="313206544"/>
    <nd ref="313206545"/>
    <nd ref="313206546"/>
    <nd ref="313206547"/>
    <tag k="highway" v="residential"/>
    <tag k="lanes" v="1"/>
    <tag k="oneway" v="yes"/>
  </way>
  <way id="28513065" version="1" timestamp="2008-11-19T20:08:01Z" uid="20587" user="balrog-kun" changeset="768754">
    <nd ref="313206562"/>
    <nd ref="313206563"/>
    <nd ref="313206564"/>
    <nd ref="313206565"/>
    <nd ref="313206562"/>
    <tag k="building" v="yes"/>
  </way>
  <way id="28513065" version="2" timestamp="2011-06-19T00:13:43Z" uid="20587" user="balrog-kun" changeset="8479249"/>
  <way id="28513067" version="1" timestamp="2008-11-19T20:08:02Z" uid="20587" user="balrog-kun" changeset="768754">
    <nd ref="313206562"/>
    <nd ref="313206550"/>
    <nd ref="313206548"/>
    <nd ref="313206558"/>
    <nd ref="313206562"/>
    <tag k="addr:housenumber" v="53"/>
    <tag k="addr:street" v="Aleje Jerozolimskie"/>
    <tag k="building" v="yes"/>
  </way>
  <way id="28513067" version="2" timestamp="2011-06-19T00:13:35Z" uid="20587" user="balrog-kun" changeset="8479249">
    <nd ref="313206562"/>
    <nd ref="313206550"/>
    <nd ref="313206548"/>
    <nd ref="313206558"/>
    <nd ref="313206562"/>
    <tag k="addr:housenumber" v="53"/>
    <tag k="addr:street" v="Aleje Jerozolimskie"/>
    <tag k="building" v="residential"/>
  </way>
  <way id="28513068" version="1" timestamp="2008-11-19T20:08:04Z" uid="20587" user="balrog-kun" changeset="768754">
    <nd ref="313206559"/>
    <nd ref="313206549"/>
    <nd ref="313206551"/>
    <nd ref="313206563"/>
    <nd ref="313206559"/>
    <tag k="building" v="yes"/>
  </way>
  <way id="28513068" version="2" timestamp="2009-02-25T16:27:30Z" uid="20587" user="balrog-kun" changeset="666062">
    <nd ref="313206559"/>
    <nd ref="313206549"/>
    <nd ref="313206551"/>
    <nd ref="313206563"/>
    <nd ref="313206559"/>
    <tag k="addr:housenumber" v="48"/>
    <tag k="addr:street" v="Nowogrodzka"/>
    <tag k="building" v="yes"/>
  </way>
  <way id="28513068" version="3" timestamp="2011-06-19T00:13:29Z" uid="20587" user="balrog-kun" changeset="8479249">
    <nd ref="313206559"/>
    <nd ref="313206549"/>
    <nd ref="313206551"/>
    <nd ref="313206563"/>
    <nd ref="313206559"/>
    <tag k="addr:housenumber" v="48"/>
    <tag k="addr:street" v="Nowogrodzka"/>
    <tag k="building" v="residential"/>
  </way>
  <way id="28513069" version="1" timestamp="2008-11-19T20:08:05Z" uid="20587" user="balrog-kun" changeset="768754">
    <nd ref="313206552"/>
    <nd ref="313206565"/>
    <nd ref="313206566"/>
    <nd ref="313206554"/>
    <nd ref="313206552"/>
    <tag k="addr:housenumber" v="49"/>
    <tag k="addr:street" v="Aleje Jerozolimskie"/>
    <tag k="building" v="yes"/>
  </way>
  <way id="28513069" version="2" timestamp="2011-06-19T00:13:40Z" uid="20587" user="balrog-kun" changeset="8479249">
    <nd ref="313206552"/>
    <nd ref="313206565"/>
    <nd ref="1330252833"/>
    <nd ref="313206566"/>
    <nd ref="313206554"/>
    <nd ref="313206552"/>
    <tag k="addr:housenumber" v="49"/>
    <tag k="addr:street" v="Aleje Jerozolimskie"/>
    <tag k="building" v="residential"/>
  </way>
  <way id="28513070" version="1" timestamp="2008-11-19T20:08:05Z" uid="20587" user="balrog-kun" changeset="768754">
    <nd ref="313206566"/>
    <nd ref="313206560"/>
    <nd ref="313206556"/>
    <nd ref="313206554"/>
    <nd ref="313206566"/>
    <tag k="addr:housenumber" v="47"/>
    <tag k="addr:street" v="Aleje Jerozolimskie"/>
    <tag k="building" v="yes"/>
  </way>
  <way id="28513070" version="2" timestamp="2011-06-19T00:13:34Z" uid="20587" user="balrog-kun" changeset="8479249">
    <nd ref="313206566"/>
    <nd ref="313206560"/>
    <nd ref="313206556"/>
    <nd ref="313206554"/>
    <nd ref="313206566"/>
    <tag k="addr:housenumber" v="47"/>
    <tag k="addr:street" v="Aleje Jerozolimskie"/>
    <tag k="building" v="residential"/>
  </way>
  <way id="28513071" version="1" timestamp="2008-11-19T20:08:06Z" uid="20587" user="balrog-kun" changeset="768754">
    <nd ref="313206567"/>
    <nd ref="313206555"/>
    <nd ref="313206557"/>
    <nd ref="313206561"/>
    <nd ref="313206567"/>
    <tag k="building" v="yes"/>
  </way>
  <way id="28513071" version="2" timestamp="2009-02-25T16:27:30Z" uid="20587" user="balrog-kun" changeset="666062">
    <nd ref="313206567"/>
    <nd ref="313206555"/>
    <nd ref="313206557"/>
    <nd ref="313206561"/>
    <nd ref="313206567"/>
    <tag k="addr:housenumber" v="42"/>
    <tag k="addr:street" v="Nowogrodzka"/>
    <tag k="building" v="yes"/>
  </way>
  <way id="28513071" version="3" timestamp="2011-06-19T00:13:25Z" uid="20587" user="balrog-kun" changeset="8479249">
    <nd ref="313206567"/>
    <nd ref="313206555"/>
    <nd ref="313206557"/>
    <nd ref="313206561"/>
    <nd ref="313206567"/>
    <tag k="addr:housenumber" v="42"/>
    <tag k="addr:street" v="Nowogrodzka"/>
    <tag k="building" v="residential"/>
  </way>
  <way id="28513072" version="1" timestamp="2008-11-19T20:08:06Z" uid="20587" user="balrog-kun" changeset="768754">
    <nd ref="313206553"/>
    <nd ref="313206555"/>
    <nd ref="313206567"/>
    <nd ref="313206564"/>
    <nd ref="313206553"/>
    <tag k="building" v="yes"/>
  </way>
  <way id="28513072" version="2" timestamp="2009-02-25T16:27:29Z" uid="20587" user="balrog-kun" changeset="666062">
    <nd ref="313206553"/>
    <nd ref="313206555"/>
    <nd ref="313206567"/>
    <nd ref="313206564"/>
    <nd ref="313206553"/>
    <tag k="addr:housenumber" v="44"/>
    <tag k="addr:street" v="Nowogrodzka"/>
    <tag k="building" v="yes"/>
  </way>
  <way id="28513072" version="3" timestamp="2011-06-19T00:13:32Z" uid="20587" user="balrog-kun" changeset="8479249">
    <nd ref="313206553"/>
    <nd ref="313206555"/>
    <nd ref="313206567"/>
    <nd ref="313206564"/>
    <nd ref="313206553"/>
    <tag k="addr:housenumber" v="44"/>
    <tag k="addr:street" v="Nowogrodzka"/>
    <tag k="building" v="residential"/>
  </way>
  <way id="28513074" version="1" timestamp="2008-11-19T20:08:06Z" uid="20587" user="balrog-kun" changeset="768754">
    <nd ref="313206562"/>
    <nd ref="313206565"/>
    <nd ref="313206552"/>
    <nd ref="313206550"/>
    <nd ref="313206562"/>
    <tag k="addr:housenumber" v="51"/>
    <tag k="addr:street" v="Aleje Jerozolimskie"/>
    <tag k="building" v="yes"/>
  </way>
  <way id="28513074" version="2" timestamp="2011-06-19T00:13:37Z" uid="20587" user="balrog-kun" changeset="8479249">
    <nd ref="313206562"/>
    <nd ref="1330252785"/>
    <nd ref="313206565"/>
    <nd ref="313206552"/>
    <nd ref="313206550"/>
    <nd ref="313206562"/>
    <tag k="addr:housenumber" v="51"/>
    <tag k="addr:street" v="Aleje Jerozolimskie"/>
    <tag k="building" v="residential"/>
  </way>
  <way id="28513075" version="1" timestamp="2008-11-19T20:08:07Z" uid="20587" user="balrog-kun" changeset="768754">
    <nd ref="313206562"/>
    <nd ref="313206558"/>
    <nd ref="313206559"/>
    <nd ref="313206563"/>
    <nd ref="313206562"/>
    <tag k="building" v="yes"/>
  </way>
  <way id="28513075" version="2" timestamp="2009-02-25T16:27:28Z" uid="20587" user="balrog-kun" changeset="666062">
    <nd ref="313206562"/>
    <nd ref="313206558"/>
    <nd ref="313206559"/>
    <nd ref="313206563"/>
    <nd ref="313206562"/>
    <tag k="addr:housenumber" v="4"/>
    <tag k="addr:street" v="Jana Pankiewicza"/>
    <tag k="building" v="yes"/>
  </way>
  <way id="28513075" version="3" timestamp="2009-03-15T14:13:54Z" uid="20587" user="balrog-kun" changeset="814691">
    <nd ref="313206562"/>
    <nd ref="313206558"/>
    <nd ref="313206559"/>
    <nd ref="313206563"/>
    <nd ref="313206562"/>
    <tag k="addr:housenumber" v="4"/>
    <tag k="addr:street" v="Jana Pankiewicza"/>
    <tag k="building" v="yes"/>
    <tag k="landuse" v="commercial"/>
  </way>
  <way id="28513075" version="4" timestamp="2011-06-19T00:13:28Z" uid="20587" user="balrog-kun" changeset="8479249">
    <nd ref="313206562"/>
    <nd ref="313206558"/>
    <nd ref="313206559"/>
    <nd ref="313206563"/>
    <nd ref="1330252785"/>
    <nd ref="313206562"/>
    <tag k="addr:housenumber" v="4"/>
    <tag k="addr:street" v="Jana Pankiewicza"/>
    <tag k="building" v="residential"/>
    <tag k="landuse" v="commercial"/>
  </way>
  <way id="28513076" version="1" timestamp="2008-11-19T20:08:07Z" uid="20587" user="balrog-kun" changeset="768754">
    <nd ref="313206566"/>
    <nd ref="313206565"/>
    <nd ref="313206564"/>
    <nd ref="313206567"/>
    <nd ref="313206566"/>
    <tag k="building" v="yes"/>
  </way>
  <way id="28513076" version="2" timestamp="2011-06-19T00:13:43Z" uid="20587" user="balrog-kun" changeset="8479249"/>
  <way id="28513077" version="1" timestamp="2008-11-19T20:08:08Z" uid="20587" user="balrog-kun" changeset="768754">
    <nd ref="313206560"/>
    <nd ref="313206566"/>
    <nd ref="313206567"/>
    <nd ref="313206561"/>
    <nd ref="313206560"/>
    <tag k="building" v="yes"/>
  </way>
  <way id="28513077" version="2" timestamp="2009-02-25T16:27:29Z" uid="20587" user="balrog-kun" changeset="666062">
    <nd ref="313206560"/>
    <nd ref="313206566"/>
    <nd ref="313206567"/>
    <nd ref="313206561"/>
    <nd ref="313206560"/>
    <tag k="addr:housenumber" v="37"/>
    <tag k="addr:street" v="PoznaÅska"/>
    <tag k="building" v="yes"/>
  </way>
  <way id="28513077" version="3" timestamp="2011-06-19T00:13:35Z" uid="20587" user="balrog-kun" changeset="8479249">
    <nd ref="313206560"/>
    <nd ref="313206566"/>
    <nd ref="1330252833"/>
    <nd ref="313206567"/>
    <nd ref="313206561"/>
    <nd ref="313206560"/>
    <tag k="addr:housenumber" v="37"/>
    <tag k="addr:street" v="PoznaÅska"/>
    <tag k="building" v="residential"/>
  </way>
  <way id="28513078" version="1" timestamp="2008-11-19T20:08:08Z" uid="20587" user="balrog-kun" changeset="768754">
    <nd ref="313206563"/>
    <nd ref="313206551"/>
    <nd ref="313206553"/>
    <nd ref="313206564"/>
    <nd ref="313206563"/>
    <tag k="building" v="yes"/>
  </way>
  <way id="28513078" version="2" timestamp="2009-02-25T16:27:29Z" uid="20587" user="balrog-kun" changeset="666062">
    <nd ref="313206563"/>
    <nd ref="313206551"/>
    <nd ref="313206553"/>
    <nd ref="313206564"/>
    <nd ref="313206563"/>
    <tag k="addr:housenumber" v="46"/>
    <tag k="addr:street" v="Nowogrodzka"/>
    <tag k="building" v="yes"/>
  </way>
  <way id="28513078" version="3" timestamp="2011-06-19T00:13:27Z" uid="20587" user="balrog-kun" changeset="8479249">
    <nd ref="313206563"/>
    <nd ref="313206551"/>
    <nd ref="313206553"/>
    <nd ref="313206564"/>
    <nd ref="313206563"/>
    <tag k="addr:housenumber" v="46"/>
    <tag k="addr:street" v="Nowogrodzka"/>
    <tag k="building" v="residential"/>
  </way>
  <way id="28513079" version="1" timestamp="2008-11-19T20:08:08Z" uid="20587" user="balrog-kun" changeset="768754">
    <nd ref="313206577"/>
    <nd ref="308942569"/>
    <nd ref="313206581"/>
    <nd ref="313206570"/>
    <nd ref="313206571"/>
    <nd ref="302711672"/>
    <nd ref="313206577"/>
    <tag k="addr:housenumber" v="24"/>
    <tag k="addr:street" v="Bracka"/>
    <tag k="building" v="yes"/>
  </way>
  <way id="28513080" version="1" timestamp="2008-11-19T20:08:09Z" uid="20587" user="balrog-kun" changeset="768754">
    <nd ref="313206584"/>
    <nd ref="313206582"/>
    <nd ref="308942573"/>
    <nd ref="313206580"/>
    <nd ref="313206581"/>
    <nd ref="308942569"/>
    <nd ref="308942571"/>
    <nd ref="313206584"/>
    <tag k="addr:housenumber" v="22"/>
    <tag k="addr:street" v="Bracka"/>
    <tag k="building" v="yes"/>
  </way>
  <way id="28513080" version="2" timestamp="2008-12-06T01:31:01Z" uid="20587" user="balrog-kun" changeset="204571">
    <nd ref="313206584"/>
    <nd ref="313206582"/>
    <nd ref="308942573"/>
    <nd ref="316892371"/>
    <nd ref="313206580"/>
    <nd ref="313206581"/>
    <nd ref="308942569"/>
    <nd ref="308942571"/>
    <nd ref="313206584"/>
    <tag k="addr:housenumber" v="22"/>
    <tag k="addr:street" v="Bracka"/>
    <tag k="building" v="yes"/>
  </way>
  <way id="28513080" version="3" timestamp="2010-11-10T23:57:10Z" uid="20587" user="balrog-kun" changeset="6340644">
    <nd ref="313206584"/>
    <nd ref="313206582"/>
    <nd ref="308942573"/>
    <nd ref="313206581"/>
    <nd ref="308942569"/>
    <nd ref="308942571"/>
    <nd ref="313206584"/>
    <tag k="addr:housenumber" v="22"/>
    <tag k="addr:street" v="Bracka"/>
    <tag k="building" v="yes"/>
  </way>
  <way id="28513082" version="1" timestamp="2008-11-19T20:08:10Z" uid="20587" user="balrog-kun" changeset="768754">
    <nd ref="313206584"/>
    <nd ref="313206585"/>
    <nd ref="313206583"/>
    <nd ref="313206582"/>
    <nd ref="313206584"/>
    <tag k="addr:housenumber" v="20"/>
    <tag k="addr:street" v="Bracka"/>
    <tag k="building" v="yes"/>
  </way>
  <way id="28513082" version="2" timestamp="2008-12-06T01:31:00Z" uid="20587" user="balrog-kun" changeset="204571">
    <nd ref="313206584"/>
    <nd ref="313206585"/>
    <nd ref="313206583"/>
    <nd ref="316892404"/>
    <nd ref="316892402"/>
    <nd ref="313206582"/>
    <nd ref="313206584"/>
    <tag k="addr:housenumber" v="20"/>
    <tag k="addr:street" v="Bracka"/>
    <tag k="building" v="yes"/>
  </way>
  <way id="28513082" version="3" timestamp="2009-02-08T23:06:17Z" uid="20587" user="balrog-kun" changeset="288825">
    <nd ref="313206584"/>
    <nd ref="313206585"/>
    <nd ref="313206583"/>
    <nd ref="316892404"/>
    <nd ref="316892402"/>
    <nd ref="313206582"/>
    <nd ref="313206584"/>
    <tag k="addr:housenumber" v="20"/>
    <tag k="addr:street" v="Bracka"/>
    <tag k="building" v="yes"/>
    <tag k="building:levels" v="5"/>
  </way>
  <way id="28513083" version="1" timestamp="2008-11-19T20:08:10Z" uid="20587" user="balrog-kun" changeset="768754">
    <nd ref="313206586"/>
    <nd ref="313206587"/>
    <nd ref="313206589"/>
    <nd ref="313206598"/>
    <nd ref="313206597"/>
    <nd ref="313206592"/>
    <nd ref="313206591"/>
    <nd ref="313206590"/>
    <nd ref="313206596"/>
    <nd ref="313206595"/>
    <nd ref="313206594"/>
    <nd ref="313206593"/>
    <nd ref="313206588"/>
    <nd ref="313206586"/>
    <tag k="addr:housenumber" v="50"/>
    <tag k="addr:street" v="Krucza"/>
    <tag k="building" v="yes"/>
  </way>
  <way id="28513083" version="2" timestamp="2009-02-08T23:06:16Z" uid="20587" user="balrog-kun" changeset="288825">
    <nd ref="313206586"/>
    <nd ref="313206587"/>
    <nd ref="313206589"/>
    <nd ref="313206598"/>
    <nd ref="313206597"/>
    <nd ref="313206592"/>
    <nd ref="313206591"/>
    <nd ref="313206590"/>
    <nd ref="313206596"/>
    <nd ref="313206595"/>
    <nd ref="313206594"/>
    <nd ref="313206593"/>
    <nd ref="313206588"/>
    <nd ref="313206586"/>
    <tag k="addr:housenumber" v="50"/>
    <tag k="addr:street" v="Krucza"/>
    <tag k="building" v="yes"/>
    <tag k="building:levels" v="10"/>
  </way>
  <way id="28513084" version="1" timestamp="2008-11-19T20:08:11Z" uid="20587" user="balrog-kun" changeset="768754">
    <nd ref="313206599"/>
    <nd ref="313206601"/>
    <nd ref="313206603"/>
    <nd ref="313206604"/>
    <nd ref="313206605"/>
    <nd ref="313206606"/>
    <nd ref="313206602"/>
    <nd ref="313206600"/>
    <nd ref="313206599"/>
    <tag k="addr:housenumber" v="18/20"/>
    <tag k="addr:street" v="Nowy Åwiat"/>
    <tag k="building" v="yes"/>
  </way>
  <way id="28513084" version="2" timestamp="2009-01-08T20:01:18Z" uid="20587" user="balrog-kun" changeset="757533">
    <nd ref="313206599"/>
    <nd ref="313206601"/>
    <nd ref="313206603"/>
    <nd ref="313206604"/>
    <nd ref="313206605"/>
    <nd ref="313206606"/>
    <nd ref="313206602"/>
    <nd ref="313206600"/>
    <nd ref="313206599"/>
    <tag k="addr:housenumber" v="18/20"/>
    <tag k="addr:street" v="Nowy Åwiat"/>
    <tag k="building" v="yes"/>
    <tag k="building:levels" v="2"/>
  </way>
  <way id="28513085" version="1" timestamp="2008-11-19T20:08:12Z" uid="20587" user="balrog-kun" changeset="768754">
    <nd ref="313206610"/>
    <nd ref="313206609"/>
    <nd ref="312954537"/>
    <nd ref="312954538"/>
    <nd ref="313206610"/>
    <tag k="addr:housenumber" v="50"/>
    <tag k="addr:street" v="Nowy Åwiat"/>
    <tag k="building" v="yes"/>
  </way>
  <way id="28513085" version="2" timestamp="2009-01-08T20:01:18Z" uid="20587" user="balrog-kun" changeset="757533">
    <nd ref="313206610"/>
    <nd ref="313206609"/>
    <nd ref="312954537"/>
    <nd ref="312954538"/>
    <nd ref="313206610"/>
    <tag k="addr:housenumber" v="50"/>
    <tag k="addr:street" v="Nowy Åwiat"/>
    <tag k="building" v="yes"/>
    <tag k="building:levels" v="3"/>
  </way>
  <way id="28513086" version="1" timestamp="2008-11-19T20:08:13Z" uid="20587" user="balrog-kun" changeset="768754">
    <nd ref="312954539"/>
    <nd ref="313206609"/>
    <nd ref="313206610"/>
    <nd ref="313206618"/>
    <nd ref="313206619"/>
    <nd ref="313206611"/>
    <nd ref="313206614"/>
    <nd ref="313206615"/>
    <nd ref="313206613"/>
    <nd ref="313206616"/>
    <nd ref="313206617"/>
    <nd ref="312954540"/>
    <nd ref="312954539"/>
    <tag k="addr:housenumber" v="52"/>
    <tag k="addr:street" v="Nowy Åwiat"/>
    <tag k="building" v="yes"/>
  </way>
  <way id="28513086" version="2" timestamp="2008-12-17T02:22:44Z" uid="20587" user="balrog-kun" changeset="433442">
    <nd ref="313206616"/>
    <nd ref="313206617"/>
    <nd ref="312954540"/>
    <nd ref="312954539"/>
    <nd ref="313206609"/>
    <nd ref="313206610"/>
    <nd ref="313206618"/>
    <nd ref="313206619"/>
    <nd ref="313206616"/>
    <tag k="addr:housenumber" v="52"/>
    <tag k="addr:street" v="Nowy Åwiat"/>
    <tag k="building" v="yes"/>
  </way>
  <way id="28513086" version="3" timestamp="2009-01-08T20:01:17Z" uid="20587" user="balrog-kun" changeset="757533">
    <nd ref="313206616"/>
    <nd ref="313206617"/>
    <nd ref="312954540"/>
    <nd ref="312954539"/>
    <nd ref="313206609"/>
    <nd ref="313206610"/>
    <nd ref="313206618"/>
    <nd ref="313206619"/>
    <nd ref="313206616"/>
    <tag k="addr:housenumber" v="52"/>
    <tag k="addr:street" v="Nowy Åwiat"/>
    <tag k="building" v="yes"/>
    <tag k="building:levels" v="3"/>
  </way>
  <way id="28513087" version="1" timestamp="2008-11-19T20:08:13Z" uid="20587" user="balrog-kun" changeset="768754">
    <nd ref="313206620"/>
    <nd ref="313206621"/>
    <nd ref="312954525"/>
    <nd ref="312954524"/>
    <nd ref="313206620"/>
    <tag k="addr:housenumber" v="36"/>
    <tag k="addr:street" v="Nowy Åwiat"/>
    <tag k="building" v="yes"/>
  </way>
  <way id="28513087" version="2" timestamp="2009-01-08T20:01:17Z" uid="20587" user="balrog-kun" changeset="757533">
    <nd ref="313206620"/>
    <nd ref="313206621"/>
    <nd ref="312954525"/>
    <nd ref="312954524"/>
    <nd ref="313206620"/>
    <tag k="addr:housenumber" v="36"/>
    <tag k="addr:street" v="Nowy Åwiat"/>
    <tag k="building" v="yes"/>
    <tag k="building:levels" v="3"/>
  </way>
  <way id="28513088" version="1" timestamp="2008-11-19T20:08:14Z" uid="20587" user="balrog-kun" changeset="768754">
    <nd ref="313206622"/>
    <nd ref="313206623"/>
    <nd ref="312954532"/>
    <nd ref="312954530"/>
    <nd ref="313206622"/>
    <tag k="addr:housenumber" v="42"/>
    <tag k="addr:street" v="Nowy Åwiat"/>
    <tag k="building" v="yes"/>
  </way>
  <way id="28513088" version="2" timestamp="2008-12-17T02:22:45Z" uid="20587" user="balrog-kun" changeset="433442">
    <nd ref="313206622"/>
    <nd ref="313206623"/>
    <nd ref="319428775"/>
    <nd ref="312954532"/>
    <nd ref="312954530"/>
    <nd ref="313206622"/>
    <tag k="addr:housenumber" v="42"/>
    <tag k="addr:street" v="Nowy Åwiat"/>
    <tag k="building" v="yes"/>
  </way>
  <way id="28513088" version="3" timestamp="2009-01-08T20:01:29Z" uid="20587" user="balrog-kun" changeset="757533">
    <nd ref="313206622"/>
    <nd ref="313206623"/>
    <nd ref="319428775"/>
    <nd ref="312954532"/>
    <nd ref="312954530"/>
    <nd ref="313206622"/>
    <tag k="addr:housenumber" v="42"/>
    <tag k="addr:street" v="Nowy Åwiat"/>
    <tag k="building" v="yes"/>
    <tag k="building:levels" v="3"/>
  </way>
  <way id="28513089" version="1" timestamp="2008-11-19T20:08:14Z" uid="20587" user="balrog-kun" changeset="768754">
    <nd ref="313206642"/>
    <nd ref="312954539"/>
    <nd ref="312954540"/>
    <nd ref="313206643"/>
    <nd ref="313206642"/>
    <tag k="addr:housenumber" v="58"/>
    <tag k="addr:street" v="Nowy Åwiat"/>
    <tag k="building" v="yes"/>
  </way>
  <way id="28513089" version="2" timestamp="2008-12-07T00:53:19Z" uid="20587" user="balrog-kun" changeset="238679">
    <nd ref="313206642"/>
    <nd ref="312954539"/>
    <nd ref="312954540"/>
    <nd ref="317095524"/>
    <nd ref="317095525"/>
    <nd ref="317095526"/>
    <nd ref="313206643"/>
    <nd ref="313206642"/>
    <tag k="addr:housenumber" v="58"/>
    <tag k="addr:street" v="Nowy Åwiat"/>
    <tag k="building" v="yes"/>
  </way>
  <way id="28513089" version="3" timestamp="2009-01-08T20:01:29Z" uid="20587" user="balrog-kun" changeset="757533">
    <nd ref="313206642"/>
    <nd ref="312954539"/>
    <nd ref="312954540"/>
    <nd ref="317095524"/>
    <nd ref="317095525"/>
    <nd ref="317095526"/>
    <nd ref="313206643"/>
    <nd ref="313206642"/>
    <tag k="addr:housenumber" v="58"/>
    <tag k="addr:street" v="Nowy Åwiat"/>
    <tag k="building" v="yes"/>
    <tag k="building:levels" v="3"/>
  </way>
  <way id="28513090" version="1" timestamp="2008-11-19T20:08:14Z" uid="20587" user="balrog-kun" changeset="768754">
    <nd ref="313206644"/>
    <nd ref="313206645"/>
    <nd ref="313206650"/>
    <nd ref="313206652"/>
    <nd ref="313206653"/>
    <nd ref="313206651"/>
    <nd ref="313206644"/>
    <tag k="addr:housenumber" v="66"/>
    <tag k="addr:street" v="Nowy Åwiat"/>
    <tag k="building" v="yes"/>
  </way>
  <way id="28513090" version="2" timestamp="2009-01-07T11:47:35Z" uid="20587" user="balrog-kun" changeset="750476">
    <nd ref="313206652"/>
    <nd ref="313206653"/>
    <nd ref="313206651"/>
    <nd ref="313206644"/>
    <nd ref="313206645"/>
    <nd ref="313206650"/>
    <nd ref="313206652"/>
    <tag k="addr:housenumber" v="66"/>
    <tag k="addr:street" v="Nowy Åwiat"/>
    <tag k="building" v="yes"/>
  </way>
  <way id="28513090" version="3" timestamp="2009-01-08T20:01:29Z" uid="20587" user="balrog-kun" changeset="757533">
    <nd ref="313206652"/>
    <nd ref="313206653"/>
    <nd ref="313206651"/>
    <nd ref="313206644"/>
    <nd ref="313206645"/>
    <nd ref="313206650"/>
    <nd ref="313206652"/>
    <tag k="addr:housenumber" v="66"/>
    <tag k="addr:street" v="Nowy Åwiat"/>
    <tag k="building" v="yes"/>
    <tag k="building:levels" v="3"/>
  </way>
  <way id="28513090" version="4" timestamp="2010-04-26T04:43:28Z" uid="20587" user="balrog-kun" changeset="4528260">
    <nd ref="313206652"/>
    <nd ref="313206653"/>
    <nd ref="313206651"/>
    <nd ref="706923166"/>
    <nd ref="313206644"/>
    <nd ref="313206645"/>
    <nd ref="706923161"/>
    <nd ref="313206650"/>
    <nd ref="313206652"/>
    <tag k="addr:housenumber" v="66"/>
    <tag k="addr:street" v="Nowy Åwiat"/>
    <tag k="building" v="yes"/>
    <tag k="building:levels" v="3"/>
  </way>
  <way id="28513091" version="1" timestamp="2008-11-19T20:08:15Z" uid="20587" user="balrog-kun" changeset="768754">
    <nd ref="313206646"/>
    <nd ref="313206648"/>
    <nd ref="313206649"/>
    <nd ref="313206647"/>
    <nd ref="313206646"/>
    <tag k="addr:housenumber" v="62"/>
    <tag k="addr:street" v="Nowy Åwiat"/>
    <tag k="building" v="yes"/>
  </way>
  <way id="28513091" version="2" timestamp="2008-12-07T00:53:20Z" uid="20587" user="balrog-kun" changeset="238679">
    <nd ref="313206646"/>
    <nd ref="317095512"/>
    <nd ref="313206648"/>
    <nd ref="317095515"/>
    <nd ref="317095513"/>
    <nd ref="313206647"/>
    <nd ref="313206646"/>
    <tag k="addr:housenumber" v="62"/>
    <tag k="addr:street" v="Nowy Åwiat"/>
    <tag k="building" v="yes"/>
  </way>
  <way id="28513091" version="3" timestamp="2009-01-08T20:01:30Z" uid="20587" user="balrog-kun" changeset="757533">
    <nd ref="313206646"/>
    <nd ref="317095512"/>
    <nd ref="313206648"/>
    <nd ref="317095515"/>
    <nd ref="317095513"/>
    <nd ref="313206647"/>
    <nd ref="313206646"/>
    <tag k="addr:housenumber" v="62"/>
    <tag k="addr:street" v="Nowy Åwiat"/>
    <tag k="building" v="yes"/>
    <tag k="building:levels" v="3"/>
  </way>
  <way id="28513092" version="1" timestamp="2008-11-19T20:08:16Z" uid="20587" user="balrog-kun" changeset="768754">
    <nd ref="313206645"/>
    <nd ref="313206644"/>
    <nd ref="313206646"/>
    <nd ref="313206647"/>
    <nd ref="313206645"/>
    <tag k="addr:housenumber" v="64"/>
    <tag k="addr:street" v="Nowy Åwiat"/>
    <tag k="building" v="yes"/>
  </way>
  <way id="28513092" version="2" timestamp="2009-01-08T20:01:28Z" uid="20587" user="balrog-kun" changeset="757533">
    <nd ref="313206645"/>
    <nd ref="313206644"/>
    <nd ref="313206646"/>
    <nd ref="313206647"/>
    <nd ref="313206645"/>
    <tag k="addr:housenumber" v="64"/>
    <tag k="addr:street" v="Nowy Åwiat"/>
    <tag k="building" v="yes"/>
    <tag k="building:levels" v="3"/>
  </way>
  <way id="28513092" version="3" timestamp="2009-05-14T10:03:24Z" uid="20587" user="balrog-kun" changeset="1186090">
    <nd ref="313206645"/>
    <nd ref="313206644"/>
    <nd ref="313206646"/>
    <nd ref="313206647"/>
    <nd ref="313206645"/>
    <tag k="addr:housenumber" v="64"/>
    <tag k="addr:postcode" v="00-357"/>
    <tag k="addr:street" v="Nowy Åwiat"/>
    <tag k="building" v="yes"/>
    <tag k="building:levels" v="3"/>
  </way>
  <way id="28513092" version="4" timestamp="2010-04-26T04:43:27Z" uid="20587" user="balrog-kun" changeset="4528260">
    <nd ref="313206645"/>
    <nd ref="313206644"/>
    <nd ref="706923163"/>
    <nd ref="313206646"/>
    <nd ref="313206647"/>
    <nd ref="706923165"/>
    <nd ref="313206645"/>
    <tag k="addr:housenumber" v="64"/>
    <tag k="addr:postcode" v="00-357"/>
    <tag k="addr:street" v="Nowy Åwiat"/>
    <tag k="building" v="yes"/>
    <tag k="building:levels" v="3"/>
  </way>
  <way id="28513094" version="1" timestamp="2008-11-19T20:08:16Z" uid="20587" user="balrog-kun" changeset="768754">
    <nd ref="224852311"/>
    <nd ref="224852313"/>
    <tag k="created_by" v="Potlatch 0.6a"/>
    <tag k="highway" v="residential"/>
    <tag k="name" v="Warecka"/>
  </way>
  <way id="28513095" version="1" timestamp="2008-11-19T20:08:17Z" uid="20587" user="balrog-kun" changeset="768754">
    <nd ref="313206667"/>
    <nd ref="313206668"/>
    <nd ref="313206670"/>
    <nd ref="313206671"/>
    <nd ref="313206663"/>
    <nd ref="313206662"/>
    <nd ref="313206672"/>
    <nd ref="313206666"/>
    <nd ref="313206667"/>
    <tag k="addr:housenumber" v="53"/>
    <tag k="addr:street" v="Nowy Åwiat"/>
    <tag k="building" v="yes"/>
  </way>
  <way id="28513095" version="2" timestamp="2009-01-08T20:01:28Z" uid="20587" user="balrog-kun" changeset="757533">
    <nd ref="313206667"/>
    <nd ref="313206668"/>
    <nd ref="313206670"/>
    <nd ref="313206671"/>
    <nd ref="313206663"/>
    <nd ref="313206662"/>
    <nd ref="313206672"/>
    <nd ref="313206666"/>
    <nd ref="313206667"/>
    <tag k="addr:housenumber" v="53"/>
    <tag k="addr:street" v="Nowy Åwiat"/>
    <tag k="building" v="yes"/>
    <tag k="building:levels" v="3"/>
  </way>
  <way id="28513096" version="1" timestamp="2008-11-19T20:08:17Z" uid="20587" user="balrog-kun" changeset="768754">
    <nd ref="313206660"/>
    <nd ref="313206662"/>
    <nd ref="313206663"/>
    <nd ref="313206661"/>
    <nd ref="313206660"/>
    <tag k="addr:housenumber" v="55"/>
    <tag k="addr:street" v="Nowy Åwiat"/>
    <tag k="building" v="yes"/>
  </way>
  <way id="28513096" version="2" timestamp="2009-01-08T20:01:27Z" uid="20587" user="balrog-kun" changeset="757533">
    <nd ref="313206660"/>
    <nd ref="313206662"/>
    <nd ref="313206663"/>
    <nd ref="313206661"/>
    <nd ref="313206660"/>
    <tag k="addr:housenumber" v="55"/>
    <tag k="addr:street" v="Nowy Åwiat"/>
    <tag k="building" v="yes"/>
    <tag k="building:levels" v="3"/>
  </way>
  <way id="28513097" version="1" timestamp="2008-11-19T20:08:17Z" uid="20587" user="balrog-kun" changeset="768754">
    <nd ref="313206658"/>
    <nd ref="313206660"/>
    <nd ref="313206661"/>
    <nd ref="313206659"/>
    <nd ref="313206658"/>
    <tag k="addr:housenumber" v="57"/>
    <tag k="addr:street" v="Nowy Åwiat"/>
    <tag k="building" v="yes"/>
  </way>
  <way id="28513097" version="2" timestamp="2009-01-08T20:01:27Z" uid="20587" user="balrog-kun" changeset="757533">
    <nd ref="313206658"/>
    <nd ref="313206660"/>
    <nd ref="313206661"/>
    <nd ref="313206659"/>
    <nd ref="313206658"/>
    <tag k="addr:housenumber" v="57"/>
    <tag k="addr:street" v="Nowy Åwiat"/>
    <tag k="building" v="yes"/>
    <tag k="building:levels" v="3"/>
  </way>
  <way id="28513098" version="1" timestamp="2008-11-19T20:08:18Z" uid="20587" user="balrog-kun" changeset="768754">
    <nd ref="313206656"/>
    <nd ref="313206658"/>
    <nd ref="313206659"/>
    <nd ref="313206657"/>
    <nd ref="313206656"/>
    <tag k="addr:housenumber" v="59"/>
    <tag k="addr:street" v="Nowy Åwiat"/>
    <tag k="building" v="yes"/>
  </way>
  <way id="28513098" version="2" timestamp="2009-01-08T20:01:27Z" uid="20587" user="balrog-kun" changeset="757533">
    <nd ref="313206656"/>
    <nd ref="313206658"/>
    <nd ref="313206659"/>
    <nd ref="313206657"/>
    <nd ref="313206656"/>
    <tag k="addr:housenumber" v="59"/>
    <tag k="addr:street" v="Nowy Åwiat"/>
    <tag k="building" v="yes"/>
    <tag k="building:levels" v="3"/>
  </way>
  <way id="28513099" version="1" timestamp="2008-11-19T20:08:18Z" uid="20587" user="balrog-kun" changeset="768754">
    <nd ref="313206654"/>
    <nd ref="313206656"/>
    <nd ref="313206657"/>
    <nd ref="313206655"/>
    <nd ref="313206654"/>
    <tag k="addr:housenumber" v="61"/>
    <tag k="addr:street" v="Nowy Åwiat"/>
    <tag k="building" v="yes"/>
  </way>
  <way id="28513099" version="2" timestamp="2009-01-08T20:01:28Z" uid="20587" user="balrog-kun" changeset="757533">
    <nd ref="313206654"/>
    <nd ref="313206656"/>
    <nd ref="313206657"/>
    <nd ref="313206655"/>
    <nd ref="313206654"/>
    <tag k="addr:housenumber" v="61"/>
    <tag k="addr:street" v="Nowy Åwiat"/>
    <tag k="building" v="yes"/>
    <tag k="building:levels" v="3"/>
  </way>
  <way id="28513100" version="1" timestamp="2008-11-19T20:08:19Z" uid="20587" user="balrog-kun" changeset="768754">
    <nd ref="313206673"/>
    <nd ref="313206654"/>
    <nd ref="313206655"/>
    <nd ref="313206674"/>
    <nd ref="313206675"/>
    <nd ref="313206679"/>
    <nd ref="313206664"/>
    <nd ref="313206665"/>
    <nd ref="313206673"/>
    <tag k="addr:housenumber" v="63"/>
    <tag k="addr:street" v="Nowy Åwiat"/>
    <tag k="building" v="yes"/>
  </way>
  <way id="28513100" version="2" timestamp="2009-01-08T20:01:25Z" uid="20587" user="balrog-kun" changeset="757533">
    <nd ref="313206673"/>
    <nd ref="313206654"/>
    <nd ref="313206655"/>
    <nd ref="313206674"/>
    <nd ref="313206675"/>
    <nd ref="313206679"/>
    <nd ref="313206664"/>
    <nd ref="313206665"/>
    <nd ref="313206673"/>
    <tag k="addr:housenumber" v="63"/>
    <tag k="addr:street" v="Nowy Åwiat"/>
    <tag k="building" v="yes"/>
    <tag k="building:levels" v="3"/>
  </way>
  <way id="28513100" version="3" timestamp="2011-01-20T19:00:36Z" uid="20587" user="balrog-kun" changeset="7033402">
    <nd ref="313206673"/>
    <nd ref="313206654"/>
    <nd ref="313206655"/>
    <nd ref="313206674"/>
    <nd ref="313206675"/>
    <nd ref="313206679"/>
    <nd ref="313206664"/>
    <nd ref="1111952028"/>
    <nd ref="313206665"/>
    <nd ref="313206673"/>
    <tag k="addr:housenumber" v="63"/>
    <tag k="addr:street" v="Nowy Åwiat"/>
    <tag k="building" v="yes"/>
    <tag k="building:levels" v="3"/>
  </way>
  <way id="28513101" version="1" timestamp="2008-11-19T20:08:19Z" uid="20587" user="balrog-kun" changeset="768754">
    <nd ref="313206682"/>
    <nd ref="308530518"/>
    <nd ref="308530517"/>
    <nd ref="313206684"/>
    <nd ref="313206682"/>
    <tag k="addr:housenumber" v="67"/>
    <tag k="addr:street" v="Nowy Åwiat"/>
    <tag k="building" v="yes"/>
    <tag k="name" v="Instytut Filologii Klasycznej UW"/>
    <tag k="ref" v="1225"/>
  </way>
  <way id="28513101" version="2" timestamp="2009-01-21T08:39:50Z" uid="20587" user="balrog-kun" changeset="819595">
    <nd ref="313206682"/>
    <nd ref="308530518"/>
    <nd ref="308530517"/>
    <nd ref="313206684"/>
    <nd ref="313206682"/>
    <tag k="addr:housenumber" v="67"/>
    <tag k="addr:street" v="Nowy Åwiat"/>
    <tag k="building" v="yes"/>
    <tag k="building:levels" v="3"/>
    <tag k="name" v="WydziaÅ Dziennikarstwa UW"/>
    <tag k="ref" v="1225"/>
  </way>
  <way id="28513102" version="1" timestamp="2008-11-19T20:08:20Z" uid="20587" user="balrog-kun" changeset="768754">
    <nd ref="270372608"/>
    <nd ref="313206689"/>
    <nd ref="313206700"/>
    <nd ref="313206696"/>
    <nd ref="313206694"/>
    <nd ref="270372607"/>
    <nd ref="270372608"/>
    <tag k="addr:housenumber" v="72"/>
    <tag k="addr:street" v="Nowy Åwiat"/>
    <tag k="building" v="hall"/>
    <tag k="created_by" v="JOSM"/>
    <tag k="int_name" v="Polish Academy of Sciences"/>
    <tag k="name" v="Polska Akademia Nauk (PaÅac Staszica)"/>
    <tag k="name:en" v="Polish Academy of Sciences (former Staszic Palace)"/>
  </way>
  <way id="28513102" version="2" timestamp="2009-01-06T10:55:42Z" uid="20587" user="balrog-kun" changeset="743955">
    <nd ref="270372608"/>
    <nd ref="313206689"/>
    <nd ref="313206700"/>
    <nd ref="313206696"/>
    <nd ref="313206694"/>
    <nd ref="270372607"/>
    <nd ref="270372608"/>
    <tag k="addr:housenumber" v="72"/>
    <tag k="addr:street" v="Nowy Åwiat"/>
    <tag k="building" v="hall"/>
    <tag k="created_by" v="JOSM"/>
    <tag k="name" v="Towarzystwo Naukowe Warszawskie"/>
    <tag k="name:la" v="Societas Scientarum Varsoviensis"/>
    <tag k="wikipedia" v="Warsaw Scientific Society"/>
    <tag k="wikipedia:pl" v="Towarzystwo Naukowe Warszawskie"/>
  </way>
  <way id="28513102" version="3" timestamp="2009-01-07T14:25:16Z" uid="20587" user="balrog-kun" changeset="752764">
    <nd ref="270372608"/>
    <nd ref="313206689"/>
    <nd ref="313206700"/>
    <nd ref="313206696"/>
    <nd ref="313206694"/>
    <nd ref="270372607"/>
    <nd ref="270372608"/>
    <tag k="addr:housenumber" v="72"/>
    <tag k="addr:street" v="Nowy Åwiat"/>
    <tag k="building" v="hall"/>
    <tag k="created_by" v="JOSM"/>
    <tag k="name" v="Towarzystwo Naukowe Warszawskie"/>
    <tag k="name:la" v="Societas Scientarum Varsoviensis"/>
    <tag k="wikipedia" v="pl:Towarzystwo Naukowe Warszawskie"/>
  </way>
  <way id="28513103" version="1" timestamp="2008-11-19T20:08:20Z" uid="20587" user="balrog-kun" changeset="768754">
    <nd ref="313206694"/>
    <nd ref="313206696"/>
    <nd ref="313206697"/>
    <nd ref="313206699"/>
    <nd ref="313206700"/>
    <nd ref="313206689"/>
    <nd ref="270372609"/>
    <nd ref="313206685"/>
    <nd ref="313206691"/>
    <nd ref="313206693"/>
    <nd ref="313206688"/>
    <nd ref="270372614"/>
    <nd ref="313206694"/>
    <tag k="addr:housenumber" v="4"/>
    <tag k="addr:street" v="ÅwiÄtokrzyska"/>
    <tag k="building" v="hall"/>
    <tag k="created_by" v="JOSM"/>
    <tag k="int_name" v="Polish Academy of Sciences"/>
    <tag k="name" v="Polska Akademia Nauk (PaÅac Staszica)"/>
    <tag k="name:en" v="Polish Academy of Sciences (former Staszic Palace)"/>
  </way>
  <way id="28513104" version="1" timestamp="2008-11-19T20:08:21Z" uid="20587" user="balrog-kun" changeset="768754">
    <nd ref="313206723"/>
    <nd ref="313206725"/>
    <nd ref="313206719"/>
    <nd ref="313206717"/>
    <nd ref="313206723"/>
    <tag k="building" v="yes"/>
  </way>
  <way id="28513104" version="2" timestamp="2008-12-16T10:03:36Z" uid="20587" user="balrog-kun" changeset="411753">
    <nd ref="319165219"/>
    <nd ref="319165218"/>
    <nd ref="313206725"/>
    <nd ref="313206723"/>
    <nd ref="319165219"/>
    <tag k="addr:housenumber" v="1"/>
    <tag k="addr:street" v="Warecka"/>
    <tag k="building" v="yes"/>
  </way>
  <way id="28513105" version="1" timestamp="2008-11-19T20:08:21Z" uid="20587" user="balrog-kun" changeset="768754">
    <nd ref="308595264"/>
    <nd ref="308595261"/>
    <nd ref="313206702"/>
    <nd ref="313206703"/>
    <nd ref="308595264"/>
    <tag k="addr:housenumber" v="41"/>
    <tag k="addr:street" v="Nowy Åwiat"/>
    <tag k="building" v="yes"/>
  </way>
  <way id="28513105" version="2" timestamp="2009-01-08T20:01:24Z" uid="20587" user="balrog-kun" changeset="757533">
    <nd ref="308595264"/>
    <nd ref="308595261"/>
    <nd ref="313206702"/>
    <nd ref="313206703"/>
    <nd ref="308595264"/>
    <tag k="addr:housenumber" v="41"/>
    <tag k="addr:street" v="Nowy Åwiat"/>
    <tag k="building" v="yes"/>
    <tag k="building:levels" v="3"/>
  </way>
  <way id="28513105" version="3" timestamp="2010-05-23T15:04:29Z" uid="20587" user="balrog-kun" changeset="4784060">
    <nd ref="308595264"/>
    <nd ref="308595261"/>
    <nd ref="746513282"/>
    <nd ref="313206702"/>
    <nd ref="313206703"/>
    <nd ref="746513269"/>
    <nd ref="308595264"/>
    <tag k="addr:housenumber" v="41"/>
    <tag k="addr:street" v="Nowy Åwiat"/>
    <tag k="building" v="yes"/>
    <tag k="building:levels" v="3"/>
  </way>
  <way id="28513106" version="1" timestamp="2008-11-19T20:08:22Z" uid="20587" user="balrog-kun" changeset="768754">
    <nd ref="313206706"/>
    <nd ref="313206703"/>
    <nd ref="313206702"/>
    <nd ref="313206705"/>
    <nd ref="313206706"/>
    <tag k="addr:housenumber" v="43"/>
    <tag k="addr:street" v="Nowy Åwiat"/>
    <tag k="building" v="yes"/>
  </way>
  <way id="28513106" version="2" timestamp="2009-01-08T20:01:25Z" uid="20587" user="balrog-kun" changeset="757533">
    <nd ref="313206706"/>
    <nd ref="313206703"/>
    <nd ref="313206702"/>
    <nd ref="313206705"/>
    <nd ref="313206706"/>
    <tag k="addr:housenumber" v="43"/>
    <tag k="addr:street" v="Nowy Åwiat"/>
    <tag k="building" v="yes"/>
    <tag k="building:levels" v="3"/>
  </way>
  <way id="28513107" version="1" timestamp="2008-11-19T20:08:22Z" uid="20587" user="balrog-kun" changeset="768754">
    <nd ref="313206710"/>
    <nd ref="313206706"/>
    <nd ref="313206705"/>
    <nd ref="313206708"/>
    <nd ref="313206710"/>
    <tag k="addr:housenumber" v="45"/>
    <tag k="addr:street" v="Nowy Åwiat"/>
    <tag k="building" v="yes"/>
  </way>
  <way id="28513107" version="2" timestamp="2009-01-08T20:01:25Z" uid="20587" user="balrog-kun" changeset="757533">
    <nd ref="313206710"/>
    <nd ref="313206706"/>
    <nd ref="313206705"/>
    <nd ref="313206708"/>
    <nd ref="313206710"/>
    <tag k="addr:housenumber" v="45"/>
    <tag k="addr:street" v="Nowy Åwiat"/>
    <tag k="building" v="yes"/>
    <tag k="building:levels" v="3"/>
  </way>
  <way id="28513108" version="1" timestamp="2008-11-19T20:08:22Z" uid="20587" user="balrog-kun" changeset="768754">
    <nd ref="313206713"/>
    <nd ref="313206710"/>
    <nd ref="313206708"/>
    <nd ref="313206711"/>
    <nd ref="313206713"/>
    <tag k="addr:housenumber" v="47"/>
    <tag k="addr:street" v="Nowy Åwiat"/>
    <tag k="building" v="yes"/>
  </way>
  <way id="28513108" version="2" timestamp="2009-01-08T20:01:24Z" uid="20587" user="balrog-kun" changeset="757533">
    <nd ref="313206713"/>
    <nd ref="313206710"/>
    <nd ref="313206708"/>
    <nd ref="313206711"/>
    <nd ref="313206713"/>
    <tag k="addr:housenumber" v="47"/>
    <tag k="addr:street" v="Nowy Åwiat"/>
    <tag k="building" v="yes"/>
    <tag k="building:levels" v="3"/>
  </way>
  <way id="28513109" version="1" timestamp="2008-11-19T20:08:23Z" uid="20587" user="balrog-kun" changeset="768754">
    <nd ref="313206716"/>
    <nd ref="313206713"/>
    <nd ref="313206711"/>
    <nd ref="313206714"/>
    <nd ref="313206716"/>
    <tag k="addr:housenumber" v="49"/>
    <tag k="addr:street" v="Nowy Åwiat"/>
    <tag k="building" v="yes"/>
  </way>
  <way id="28513109" version="2" timestamp="2009-01-08T20:01:23Z" uid="20587" user="balrog-kun" changeset="757533">
    <nd ref="313206716"/>
    <nd ref="313206713"/>
    <nd ref="313206711"/>
    <nd ref="313206714"/>
    <nd ref="313206716"/>
    <tag k="addr:housenumber" v="49"/>
    <tag k="addr:street" v="Nowy Åwiat"/>
    <tag k="building" v="yes"/>
    <tag k="building:levels" v="3"/>
  </way>
  <way id="28513110" version="1" timestamp="2008-11-19T20:08:23Z" uid="20587" user="balrog-kun" changeset="768754">
    <nd ref="313206725"/>
    <nd ref="313206716"/>
    <nd ref="313206714"/>
    <nd ref="313206720"/>
    <nd ref="313206722"/>
    <nd ref="313206723"/>
    <nd ref="313206725"/>
    <tag k="addr:housenumber" v="51"/>
    <tag k="addr:street" v="Nowy Åwiat"/>
    <tag k="building" v="yes"/>
  </way>
  <way id="28513110" version="2" timestamp="2009-01-08T20:01:24Z" uid="20587" user="balrog-kun" changeset="757533">
    <nd ref="313206725"/>
    <nd ref="313206716"/>
    <nd ref="313206714"/>
    <nd ref="313206720"/>
    <nd ref="313206722"/>
    <nd ref="313206723"/>
    <nd ref="313206725"/>
    <tag k="addr:housenumber" v="51"/>
    <tag k="addr:street" v="Nowy Åwiat"/>
    <tag k="building" v="yes"/>
    <tag k="building:levels" v="3"/>
  </way>
  <way id="28513112" version="1" timestamp="2008-11-19T20:08:23Z" uid="20587" user="balrog-kun" changeset="768754">
    <nd ref="313206726"/>
    <nd ref="224876299"/>
    <tag k="highway" v="service"/>
  </way>
  <way id="28513113" version="1" timestamp="2008-11-19T20:08:23Z" uid="20587" user="balrog-kun" changeset="768754">
    <nd ref="313206758"/>
    <nd ref="308199674"/>
    <nd ref="308199676"/>
    <nd ref="313206742"/>
    <nd ref="313206743"/>
    <nd ref="313206758"/>
    <tag k="addr:housenumber" v="20/22"/>
    <tag k="addr:street" v="Krakowskie PrzedmieÅcie"/>
    <tag k="building" v="yes"/>
  </way>
  <way id="28513114" version="1" timestamp="2008-11-19T20:08:24Z" uid="20587" user="balrog-kun" changeset="768754">
    <nd ref="313206758"/>
    <nd ref="313206743"/>
    <nd ref="313206744"/>
    <nd ref="313206757"/>
    <nd ref="313206760"/>
    <nd ref="313206759"/>
    <nd ref="313206758"/>
    <tag k="addr:housenumber" v="16/18"/>
    <tag k="addr:street" v="Krakowskie PrzedmieÅcie"/>
    <tag k="building" v="yes"/>
  </way>
  <way id="28513114" version="2" timestamp="2009-04-27T21:11:49Z" uid="20587" user="balrog-kun" changeset="997530">
    <nd ref="313206758"/>
    <nd ref="313206743"/>
    <nd ref="313206744"/>
    <nd ref="313206757"/>
    <nd ref="313206760"/>
    <nd ref="313206759"/>
    <nd ref="313206758"/>
    <tag k="addr:housenumber" v="16/18"/>
    <tag k="addr:postcode" v="00-325"/>
    <tag k="addr:street" v="Krakowskie PrzedmieÅcie"/>
    <tag k="building" v="yes"/>
  </way>
  <way id="28513114" version="3" timestamp="2010-05-23T15:04:28Z" uid="20587" user="balrog-kun" changeset="4784060">
    <nd ref="313206758"/>
    <nd ref="313206743"/>
    <nd ref="746513250"/>
    <nd ref="313206744"/>
    <nd ref="313206757"/>
    <nd ref="313206760"/>
    <nd ref="313206759"/>
    <nd ref="746513253"/>
    <nd ref="313206758"/>
    <tag k="addr:housenumber" v="16/18"/>
    <tag k="addr:postcode" v="00-325"/>
    <tag k="addr:street" v="Krakowskie PrzedmieÅcie"/>
    <tag k="building" v="yes"/>
  </way>
  <way id="28513115" version="1" timestamp="2008-11-19T20:08:24Z" uid="20587" user="balrog-kun" changeset="768754">
    <nd ref="313206744"/>
    <nd ref="313206745"/>
    <nd ref="313206756"/>
    <nd ref="313206761"/>
    <nd ref="313206763"/>
    <nd ref="313206762"/>
    <nd ref="313206764"/>
    <nd ref="313206765"/>
    <nd ref="313206757"/>
    <nd ref="313206744"/>
    <tag k="addr:housenumber" v="14"/>
    <tag k="addr:street" v="Krakowskie PrzedmieÅcie"/>
    <tag k="building" v="yes"/>
  </way>
  <way id="28513116" version="1" timestamp="2008-11-19T20:08:24Z" uid="20587" user="balrog-kun" changeset="768754">
    <nd ref="313206745"/>
    <nd ref="313206746"/>
    <nd ref="313206755"/>
    <nd ref="313206766"/>
    <nd ref="313206756"/>
    <nd ref="313206745"/>
    <tag k="addr:housenumber" v="12"/>
    <tag k="addr:street" v="Krakowskie PrzedmieÅcie"/>
    <tag k="building" v="yes"/>
  </way>
  <way id="28513117" version="1" timestamp="2008-11-19T20:08:25Z" uid="20587" user="balrog-kun" changeset="768754">
    <nd ref="313206746"/>
    <nd ref="313206747"/>
    <nd ref="313206754"/>
    <nd ref="313206768"/>
    <nd ref="313206769"/>
    <nd ref="313206767"/>
    <nd ref="313206755"/>
    <nd ref="313206746"/>
    <tag k="addr:housenumber" v="10"/>
    <tag k="addr:street" v="Krakowskie PrzedmieÅcie"/>
    <tag k="building" v="yes"/>
  </way>
  <way id="28513117" version="2" timestamp="2009-01-14T12:28:36Z" uid="20587" user="balrog-kun" changeset="787609">
    <nd ref="313206746"/>
    <nd ref="313206747"/>
    <nd ref="313206754"/>
    <nd ref="332022002"/>
    <nd ref="332022001"/>
    <nd ref="313206767"/>
    <nd ref="313206755"/>
    <nd ref="313206746"/>
    <tag k="addr:housenumber" v="10"/>
    <tag k="addr:street" v="Krakowskie PrzedmieÅcie"/>
    <tag k="building" v="yes"/>
  </way>
  <way id="28513118" version="1" timestamp="2008-11-19T20:08:25Z" uid="20587" user="balrog-kun" changeset="768754">
    <nd ref="313206747"/>
    <nd ref="313206748"/>
    <nd ref="313206753"/>
    <nd ref="313206754"/>
    <nd ref="313206747"/>
    <tag k="addr:housenumber" v="8"/>
    <tag k="addr:street" v="Krakowskie PrzedmieÅcie"/>
    <tag k="building" v="yes"/>
  </way>
  <way id="28513119" version="1" timestamp="2008-11-19T20:08:25Z" uid="20587" user="balrog-kun" changeset="768754">
    <nd ref="313206748"/>
    <nd ref="313206749"/>
    <nd ref="313206752"/>
    <nd ref="313206753"/>
    <nd ref="313206748"/>
    <tag k="addr:housenumber" v="6"/>
    <tag k="addr:street" v="Krakowskie PrzedmieÅcie"/>
    <tag k="building" v="yes"/>
  </way>
  <way id="28513121" version="1" timestamp="2008-11-19T20:08:25Z" uid="20587" user="balrog-kun" changeset="768754">
    <nd ref="313206749"/>
    <nd ref="313206750"/>
    <nd ref="313206751"/>
    <nd ref="313206752"/>
    <nd ref="313206749"/>
    <tag k="addr:housenumber" v="4/6"/>
    <tag k="addr:street" v="Krakowskie PrzedmieÅcie"/>
    <tag k="building" v="yes"/>
  </way>
  <way id="28513121" version="2" timestamp="2009-01-14T12:28:36Z" uid="20587" user="balrog-kun" changeset="787609">
    <nd ref="313206749"/>
    <nd ref="313206750"/>
    <nd ref="313206751"/>
    <nd ref="332021995"/>
    <nd ref="332021997"/>
    <nd ref="332021998"/>
    <nd ref="332021999"/>
    <nd ref="332022000"/>
    <nd ref="332022001"/>
    <nd ref="332022002"/>
    <nd ref="332021996"/>
    <nd ref="313206752"/>
    <nd ref="313206749"/>
    <tag k="addr:housenumber" v="4/6"/>
    <tag k="addr:postcode" v="00-333"/>
    <tag k="addr:street" v="Krakowskie PrzedmieÅcie"/>
    <tag k="building" v="yes"/>
  </way>
  <way id="28513121" version="3" timestamp="2009-11-20T13:57:13Z" uid="20587" user="balrog-kun" changeset="3168585">
    <nd ref="313206749"/>
    <nd ref="313206750"/>
    <nd ref="313206751"/>
    <nd ref="332021995"/>
    <nd ref="332021997"/>
    <nd ref="332021998"/>
    <nd ref="332021999"/>
    <nd ref="332022000"/>
    <nd ref="332022001"/>
    <nd ref="332022002"/>
    <nd ref="332021996"/>
    <nd ref="313206752"/>
    <nd ref="313206749"/>
    <tag k="addr:housenumber" v="4/6"/>
    <tag k="addr:postcode" v="00-333"/>
    <tag k="addr:street" v="Krakowskie PrzedmieÅcie"/>
    <tag k="building" v="yes"/>
    <tag k="building:levels" v="4"/>
  </way>
  <way id="28513122" version="1" timestamp="2008-11-19T20:08:26Z" uid="20587" user="balrog-kun" changeset="768754">
    <nd ref="313206772"/>
    <nd ref="313206774"/>
    <nd ref="313206775"/>
    <nd ref="313206773"/>
    <nd ref="313206772"/>
    <tag k="addr:housenumber" v="42"/>
    <tag k="addr:street" v="Lipska"/>
    <tag k="building" v="yes"/>
  </way>
  <way id="28513122" version="2" timestamp="2009-01-08T14:18:02Z" uid="20587" user="balrog-kun" changeset="756602">
    <nd ref="313206772"/>
    <nd ref="313206774"/>
    <nd ref="313206775"/>
    <nd ref="313206773"/>
    <nd ref="313206772"/>
    <tag k="addr:housenumber" v="42"/>
    <tag k="addr:street" v="Lipska"/>
    <tag k="building" v="yes"/>
    <tag k="building:levels" v="3"/>
  </way>
  <way id="28513122" version="3" timestamp="2009-01-13T10:19:58Z" uid="20587" user="balrog-kun" changeset="781705">
    <nd ref="313206772"/>
    <nd ref="313206774"/>
    <nd ref="313206775"/>
    <nd ref="313206773"/>
    <nd ref="313206772"/>
    <tag k="addr:housenumber" v="42"/>
    <tag k="addr:street" v="Lipska"/>
    <tag k="building" v="yes"/>
    <tag k="building:levels" v="4"/>
  </way>
  <way id="28513122" version="4" timestamp="2009-02-04T12:40:07Z" uid="20587" user="balrog-kun" changeset="125964">
    <nd ref="313206772"/>
    <nd ref="313206773"/>
    <nd ref="313206775"/>
    <nd ref="313206774"/>
    <nd ref="313206772"/>
    <tag k="addr:housenumber" v="42"/>
    <tag k="addr:street" v="Lipska"/>
    <tag k="building" v="yes"/>
    <tag k="building:levels" v="4"/>
  </way>
  <way id="28513123" version="1" timestamp="2008-11-19T20:08:26Z" uid="20587" user="balrog-kun" changeset="768754">
    <nd ref="313206776"/>
    <nd ref="313206777"/>
    <nd ref="313206778"/>
    <nd ref="313206779"/>
    <nd ref="313206776"/>
    <tag k="addr:housenumber" v="20"/>
    <tag k="addr:street" v="Kinowa"/>
    <tag k="building" v="yes"/>
  </way>
  <way id="28513123" version="2" timestamp="2009-01-08T14:00:40Z" uid="20587" user="balrog-kun" changeset="756602">
    <nd ref="313206776"/>
    <nd ref="313206777"/>
    <nd ref="313206778"/>
    <nd ref="313206779"/>
    <nd ref="313206776"/>
    <tag k="addr:housenumber" v="20"/>
    <tag k="addr:street" v="Kinowa"/>
    <tag k="building" v="yes"/>
    <tag k="building:levels" v="11"/>
  </way>
  <way id="28513123" version="3" timestamp="2009-04-08T17:34:27Z" uid="20587" user="balrog-kun" changeset="326158">
    <nd ref="313206776"/>
    <nd ref="313206777"/>
    <nd ref="313206778"/>
    <nd ref="313206779"/>
    <nd ref="313206776"/>
    <tag k="addr:housenumber" v="20"/>
    <tag k="addr:street" v="Kinowa"/>
    <tag k="building" v="residential"/>
    <tag k="building:levels" v="11"/>
  </way>
  <way id="28513124" version="1" timestamp="2008-11-19T20:08:27Z" uid="20587" user="balrog-kun" changeset="768754">
    <nd ref="313206780"/>
    <nd ref="313206781"/>
    <nd ref="313206783"/>
    <nd ref="313206782"/>
    <nd ref="313206780"/>
    <tag k="addr:housenumber" v="42"/>
    <tag k="addr:street" v="KirasjerÃ³w"/>
    <tag k="building" v="yes"/>
  </way>
  <way id="28513124" version="2" timestamp="2008-11-21T17:37:44Z" uid="20587" user="balrog-kun" changeset="777282">
    <nd ref="313206780"/>
    <nd ref="313206781"/>
    <nd ref="313206783"/>
    <nd ref="313206782"/>
    <nd ref="313206780"/>
    <tag k="addr:housenumber" v="6"/>
    <tag k="addr:street" v="KirasjerÃ³w"/>
    <tag k="building" v="yes"/>
  </way>
  <way id="28513124" version="3" timestamp="2009-01-08T14:00:39Z" uid="20587" user="balrog-kun" changeset="756602">
    <nd ref="313206780"/>
    <nd ref="313206781"/>
    <nd ref="313206783"/>
    <nd ref="313206782"/>
    <nd ref="313206780"/>
    <tag k="addr:housenumber" v="6"/>
    <tag k="addr:street" v="KirasjerÃ³w"/>
    <tag k="building" v="yes"/>
    <tag k="building:levels" v="4"/>
  </way>
  <way id="28513124" version="4" timestamp="2009-04-08T18:04:48Z" uid="20587" user="balrog-kun" changeset="326158">
    <nd ref="313206780"/>
    <nd ref="313206781"/>
    <nd ref="313206783"/>
    <nd ref="313206782"/>
    <nd ref="313206780"/>
    <tag k="addr:housenumber" v="6"/>
    <tag k="addr:street" v="KirasjerÃ³w"/>
    <tag k="building" v="residential"/>
    <tag k="building:levels" v="4"/>
  </way>
  <way id="28513125" version="1" timestamp="2008-11-19T20:08:27Z" uid="20587" user="balrog-kun" changeset="768754">
    <nd ref="286603917"/>
    <nd ref="313206784"/>
    <nd ref="313206785"/>
    <nd ref="286603916"/>
    <nd ref="286603917"/>
    <tag k="addr:housenumber" v="212"/>
    <tag k="addr:street" v="Grochowska"/>
    <tag k="building" v="yes"/>
  </way>
  <way id="28513125" version="2" timestamp="2009-01-06T18:36:51Z" uid="20587" user="balrog-kun" changeset="745819">
    <nd ref="286603917"/>
    <nd ref="313206784"/>
    <nd ref="313206785"/>
    <nd ref="286603916"/>
    <nd ref="286603917"/>
    <tag k="addr:housenumber" v="212"/>
    <tag k="addr:street" v="Grochowska"/>
    <tag k="building" v="yes"/>
    <tag k="building:levels" v="1"/>
  </way>
  <way id="28513125" version="3" timestamp="2010-01-21T17:05:55Z" uid="20587" user="balrog-kun" changeset="3676232">
    <nd ref="286603917"/>
    <nd ref="313206784"/>
    <nd ref="313206785"/>
    <nd ref="286603916"/>
    <nd ref="286603917"/>
    <tag k="addr:housenumber" v="212"/>
    <tag k="addr:street" v="Grochowska"/>
    <tag k="building" v="retail"/>
    <tag k="building:levels" v="1"/>
  </way>
  <way id="28513198" version="1" timestamp="2008-11-19T20:11:00Z" uid="8619" user="cetest" changeset="768487">
    <nd ref="313207175"/>
    <nd ref="313207176"/>
    <nd ref="313207177"/>
    <nd ref="313207178"/>
    <nd ref="313207175"/>
    <tag k="building" v="yes"/>
  </way>
  <way id="28513201" version="1" timestamp="2008-11-19T20:11:00Z" uid="8619" user="cetest" changeset="768487">
    <nd ref="313207179"/>
    <nd ref="313207182"/>
    <nd ref="313207185"/>
    <nd ref="313207188"/>
    <nd ref="313207179"/>
    <tag k="building" v="yes"/>
  </way>
  <way id="28513202" version="1" timestamp="2008-11-19T20:11:01Z" uid="8619" user="cetest" changeset="768487">
    <nd ref="313207191"/>
    <nd ref="313207195"/>
    <nd ref="313207197"/>
    <nd ref="313207200"/>
    <nd ref="313207191"/>
    <tag k="building" v="yes"/>
  </way>
  <way id="28513203" version="1" timestamp="2008-11-19T20:11:02Z" uid="8619" user="cetest" changeset="768487">
    <nd ref="313207203"/>
    <nd ref="313207207"/>
    <nd ref="313207209"/>
    <nd ref="313207212"/>
    <nd ref="313207203"/>
    <tag k="building" v="yes"/>
  </way>
  <way id="28513206" version="1" timestamp="2008-11-19T20:11:02Z" uid="8619" user="cetest" changeset="768487">
    <nd ref="313207215"/>
    <nd ref="313207218"/>
    <nd ref="313207220"/>
    <nd ref="313207223"/>
    <nd ref="313207215"/>
    <tag k="building" v="yes"/>
  </way>
  <way id="28513208" version="1" timestamp="2008-11-19T20:11:03Z" uid="8619" user="cetest" changeset="768487">
    <nd ref="313207226"/>
    <nd ref="313207229"/>
    <nd ref="313207234"/>
    <nd ref="313207241"/>
    <nd ref="313207226"/>
    <tag k="building" v="yes"/>
  </way>
  <way id="28513212" version="1" timestamp="2008-11-19T20:11:03Z" uid="8619" user="cetest" changeset="768487">
    <nd ref="313207248"/>
    <nd ref="313207253"/>
    <nd ref="313207258"/>
    <nd ref="313207264"/>
    <nd ref="313207248"/>
    <tag k="building" v="yes"/>
  </way>
  <way id="28513215" version="1" timestamp="2008-11-19T20:11:04Z" uid="8619" user="cetest" changeset="768487">
    <nd ref="313207266"/>
    <nd ref="313207270"/>
    <nd ref="313207276"/>
    <nd ref="313207279"/>
    <nd ref="313207280"/>
    <nd ref="313207281"/>
    <nd ref="313207266"/>
    <tag k="building" v="yes"/>
  </way>
  <way id="28513217" version="1" timestamp="2008-11-19T20:11:05Z" uid="8619" user="cetest" changeset="768487">
    <nd ref="313207282"/>
    <nd ref="313207288"/>
    <nd ref="313207289"/>
    <nd ref="313207290"/>
    <nd ref="313207282"/>
    <tag k="building" v="yes"/>
  </way>
  <way id="28513220" version="1" timestamp="2008-11-19T20:11:05Z" uid="8619" user="cetest" changeset="768487">
    <nd ref="313207291"/>
    <nd ref="313207292"/>
    <nd ref="313207293"/>
    <nd ref="313207294"/>
    <nd ref="313207291"/>
    <tag k="building" v="yes"/>
  </way>
  <way id="28513223" version="1" timestamp="2008-11-19T20:11:06Z" uid="8619" user="cetest" changeset="768487">
    <nd ref="313207295"/>
    <nd ref="313207296"/>
    <nd ref="313207297"/>
    <nd ref="313207298"/>
    <nd ref="313207295"/>
    <tag k="building" v="yes"/>
  </way>
  <way id="28513226" version="1" timestamp="2008-11-19T20:11:06Z" uid="8619" user="cetest" changeset="768487">
    <nd ref="313207299"/>
    <nd ref="313207300"/>
    <nd ref="313207301"/>
    <nd ref="313207302"/>
    <nd ref="313207299"/>
    <tag k="building" v="yes"/>
  </way>
  <way id="28513229" version="1" timestamp="2008-11-19T20:11:07Z" uid="8619" user="cetest" changeset="768487">
    <nd ref="313207303"/>
    <nd ref="313207304"/>
    <nd ref="313207320"/>
    <nd ref="313207321"/>
    <nd ref="313207303"/>
    <tag k="building" v="yes"/>
  </way>
  <way id="28513231" version="1" timestamp="2008-11-19T20:11:07Z" uid="8619" user="cetest" changeset="768487">
    <nd ref="313207322"/>
    <nd ref="313207323"/>
    <nd ref="313207326"/>
    <nd ref="313207328"/>
    <nd ref="313207322"/>
    <tag k="building" v="yes"/>
  </way>
  <way id="28513233" version="1" timestamp="2008-11-19T20:11:08Z" uid="8619" user="cetest" changeset="768487">
    <nd ref="313207331"/>
    <nd ref="313207334"/>
    <nd ref="313207337"/>
    <nd ref="313207340"/>
    <nd ref="313207331"/>
    <tag k="building" v="yes"/>
  </way>
  <way id="28513234" version="1" timestamp="2008-11-19T20:11:09Z" uid="8619" user="cetest" changeset="768487">
    <nd ref="313207343"/>
    <nd ref="313207346"/>
    <nd ref="313207349"/>
    <nd ref="313207352"/>
    <nd ref="313207343"/>
    <tag k="building" v="yes"/>
  </way>
  <way id="28513235" version="1" timestamp="2008-11-19T20:11:09Z" uid="8619" user="cetest" changeset="768487">
    <nd ref="313207354"/>
    <nd ref="313207357"/>
    <nd ref="313207360"/>
    <nd ref="313207373"/>
    <nd ref="313207354"/>
    <tag k="building" v="yes"/>
  </way>
  <way id="28513236" version="1" timestamp="2008-11-19T20:11:10Z" uid="8619" user="cetest" changeset="768487">
    <nd ref="313207375"/>
    <nd ref="313207378"/>
    <nd ref="313207381"/>
    <nd ref="313207383"/>
    <nd ref="313207375"/>
    <tag k="building" v="yes"/>
  </way>
  <way id="28513237" version="1" timestamp="2008-11-19T20:11:11Z" uid="8619" user="cetest" changeset="768487">
    <nd ref="313207386"/>
    <nd ref="313207389"/>
    <nd ref="313207392"/>
    <nd ref="313207395"/>
    <nd ref="313207386"/>
    <tag k="building" v="yes"/>
  </way>
  <way id="28513239" version="1" timestamp="2008-11-19T20:11:11Z" uid="8619" user="cetest" changeset="768487">
    <nd ref="313207399"/>
    <nd ref="313207402"/>
    <nd ref="313207405"/>
    <nd ref="313207408"/>
    <nd ref="313207399"/>
    <tag k="building" v="yes"/>
  </way>
  <way id="28513240" version="1" timestamp="2008-11-19T20:11:12Z" uid="8619" user="cetest" changeset="768487">
    <nd ref="313207412"/>
    <nd ref="313207415"/>
    <nd ref="313207418"/>
    <nd ref="313207421"/>
    <nd ref="313207412"/>
    <tag k="building" v="yes"/>
  </way>
  <way id="28513241" version="1" timestamp="2008-11-19T20:11:12Z" uid="8619" user="cetest" changeset="768487">
    <nd ref="313207424"/>
    <nd ref="313207427"/>
    <nd ref="313207430"/>
    <nd ref="313207448"/>
    <nd ref="313207424"/>
    <tag k="building" v="yes"/>
  </way>
  <way id="28513242" version="1" timestamp="2008-11-19T20:11:13Z" uid="8619" user="cetest" changeset="768487">
    <nd ref="313207459"/>
    <nd ref="313207463"/>
    <nd ref="313207465"/>
    <nd ref="313207469"/>
    <nd ref="313207459"/>
    <tag k="building" v="yes"/>
  </way>
  <way id="28513243" version="1" timestamp="2008-11-19T20:11:13Z" uid="8619" user="cetest" changeset="768487">
    <nd ref="313207470"/>
    <nd ref="313207472"/>
    <nd ref="313207475"/>
    <nd ref="313207477"/>
    <nd ref="313207470"/>
    <tag k="building" v="yes"/>
  </way>
  <way id="28513244" version="1" timestamp="2008-11-19T20:11:14Z" uid="8619" user="cetest" changeset="768487">
    <nd ref="313207478"/>
    <nd ref="313207482"/>
    <nd ref="313207486"/>
    <nd ref="313207491"/>
    <nd ref="313207478"/>
    <tag k="building" v="yes"/>
  </way>
  <way id="28513245" version="1" timestamp="2008-11-19T20:11:14Z" uid="8619" user="cetest" changeset="768487">
    <nd ref="313207496"/>
    <nd ref="313207505"/>
    <nd ref="313207502"/>
    <nd ref="313207499"/>
    <nd ref="313207496"/>
    <tag k="building" v="yes"/>
  </way>
  <way id="28513247" version="1" timestamp="2008-11-19T20:11:15Z" uid="8619" user="cetest" changeset="768487">
    <nd ref="313207516"/>
    <nd ref="313207517"/>
    <nd ref="313207508"/>
    <nd ref="313207515"/>
    <nd ref="313207516"/>
    <tag k="building" v="yes"/>
  </way>
  <way id="28513248" version="1" timestamp="2008-11-19T20:11:15Z" uid="8619" user="cetest" changeset="768487">
    <nd ref="313207518"/>
    <nd ref="313207521"/>
    <nd ref="313207522"/>
    <nd ref="313207523"/>
    <nd ref="313207518"/>
    <tag k="building" v="yes"/>
  </way>
  <way id="28513249" version="1" timestamp="2008-11-19T20:11:16Z" uid="8619" user="cetest" changeset="768487">
    <nd ref="313207526"/>
    <nd ref="313207525"/>
    <nd ref="313207528"/>
    <nd ref="313207524"/>
    <nd ref="313207526"/>
    <tag k="building" v="yes"/>
  </way>
  <way id="28513250" version="1" timestamp="2008-11-19T20:11:16Z" uid="8619" user="cetest" changeset="768487">
    <nd ref="313207529"/>
    <nd ref="313207530"/>
    <nd ref="313207531"/>
    <nd ref="313207532"/>
    <nd ref="313207529"/>
    <tag k="building" v="yes"/>
  </way>
  <way id="28513359" version="1" timestamp="2008-11-19T20:20:29Z" uid="8619" user="cetest" changeset="768487">
    <nd ref="313209321"/>
    <nd ref="313209324"/>
    <nd ref="313209328"/>
    <nd ref="313209332"/>
    <nd ref="313209321"/>
    <tag k="building" v="yes"/>
  </way>
  <way id="28513360" version="1" timestamp="2008-11-19T20:20:30Z" uid="8619" user="cetest" changeset="768487">
    <nd ref="313209336"/>
    <nd ref="313209339"/>
    <nd ref="313209343"/>
    <nd ref="313209346"/>
    <nd ref="313209336"/>
    <tag k="building" v="yes"/>
  </way>
  <way id="28513361" version="1" timestamp="2008-11-19T20:20:30Z" uid="8619" user="cetest" changeset="768487">
    <nd ref="313209350"/>
    <nd ref="313209354"/>
    <nd ref="313209358"/>
    <nd ref="313209361"/>
    <nd ref="313209350"/>
    <tag k="building" v="yes"/>
  </way>
  <way id="28513363" version="1" timestamp="2008-11-19T20:20:31Z" uid="8619" user="cetest" changeset="768487">
    <nd ref="313209365"/>
    <nd ref="313209369"/>
    <nd ref="313209373"/>
    <nd ref="313209378"/>
    <nd ref="313209365"/>
    <tag k="building" v="yes"/>
  </way>
  <way id="28513364" version="1" timestamp="2008-11-19T20:20:32Z" uid="8619" user="cetest" changeset="768487">
    <nd ref="313209381"/>
    <nd ref="313209385"/>
    <nd ref="313209388"/>
    <nd ref="313209392"/>
    <nd ref="313209381"/>
    <tag k="building" v="yes"/>
  </way>
  <way id="28513365" version="1" timestamp="2008-11-19T20:20:32Z" uid="8619" user="cetest" changeset="768487">
    <nd ref="313209395"/>
    <nd ref="313209398"/>
    <nd ref="313209402"/>
    <nd ref="313209406"/>
    <nd ref="313209395"/>
    <tag k="building" v="yes"/>
  </way>
  <way id="28513366" version="1" timestamp="2008-11-19T20:20:33Z" uid="8619" user="cetest" changeset="768487">
    <nd ref="313209409"/>
    <nd ref="313209412"/>
    <nd ref="313209416"/>
    <nd ref="313209419"/>
    <nd ref="313209409"/>
    <tag k="building" v="yes"/>
  </way>
  <way id="28513367" version="1" timestamp="2008-11-19T20:20:33Z" uid="8619" user="cetest" changeset="768487">
    <nd ref="313209423"/>
    <nd ref="313209426"/>
    <nd ref="313209430"/>
    <nd ref="313209433"/>
    <nd ref="313209423"/>
    <tag k="building" v="yes"/>
  </way>
  <way id="28513368" version="1" timestamp="2008-11-19T20:20:34Z" uid="8619" user="cetest" changeset="768487">
    <nd ref="313209440"/>
    <nd ref="313209444"/>
    <nd ref="313209448"/>
    <nd ref="313209451"/>
    <nd ref="313209440"/>
    <tag k="building" v="yes"/>
  </way>
  <way id="28513369" version="1" timestamp="2008-11-19T20:20:34Z" uid="8619" user="cetest" changeset="768487">
    <nd ref="313209461"/>
    <nd ref="313209458"/>
    <nd ref="313209455"/>
    <nd ref="313209465"/>
    <nd ref="313209461"/>
    <tag k="building" v="yes"/>
  </way>
  <way id="28513370" version="1" timestamp="2008-11-19T20:20:35Z" uid="8619" user="cetest" changeset="768487">
    <nd ref="313209472"/>
    <nd ref="313209475"/>
    <nd ref="313209478"/>
    <nd ref="313209469"/>
    <nd ref="313209472"/>
    <tag k="building" v="yes"/>
  </way>
  <way id="28513371" version="1" timestamp="2008-11-19T20:20:35Z" uid="8619" user="cetest" changeset="768487">
    <nd ref="313209492"/>
    <nd ref="313209485"/>
    <nd ref="313209488"/>
    <nd ref="313209481"/>
    <nd ref="313209492"/>
    <tag k="building" v="yes"/>
  </way>
  <way id="28513372" version="1" timestamp="2008-11-19T20:20:36Z" uid="8619" user="cetest" changeset="768487">
    <nd ref="313209513"/>
    <nd ref="313209499"/>
    <nd ref="313209505"/>
    <nd ref="313209495"/>
    <nd ref="313209513"/>
    <tag k="building" v="yes"/>
  </way>
  <way id="28513373" version="1" timestamp="2008-11-19T20:20:36Z" uid="8619" user="cetest" changeset="768487">
    <nd ref="44737740"/>
    <nd ref="44737741"/>
    <tag k="AND_nosr_r" v="15077710"/>
    <tag k="highway" v="unclassified"/>
    <tag k="name" v="Zomerdijkhof"/>
  </way>
  <way id="28513488" version="2" timestamp="2008-11-26T02:07:34Z" uid="6975" user="ulfl" changeset="794829">
    <nd ref="285957628"/>
    <nd ref="313210852"/>
    <nd ref="313210854"/>
    <nd ref="313210856"/>
    <nd ref="313210861"/>
    <nd ref="313210863"/>
    <nd ref="313210865"/>
    <tag k="highway" v="track"/>
    <tag k="tracktype" v="grade2"/>
  </way>
  <way id="28513513" version="2" timestamp="2010-04-03T04:03:11Z" uid="20587" user="balrog-kun" changeset="4309442">
    <nd ref="313211096"/>
    <nd ref="313211095"/>
    <tag k="bridge" v="yes"/>
    <tag k="created_by" v="Merkaartor 0.12"/>
    <tag k="highway" v="unclassified"/>
    <tag k="layer" v="1"/>
    <tag k="name" v="South Jackrabbit Trail"/>
  </way>
  <way id="28513514" version="3" timestamp="2010-04-03T04:03:11Z" uid="20587" user="balrog-kun" changeset="4309442">
    <nd ref="313211119"/>
    <nd ref="313211118"/>
    <nd ref="313211117"/>
    <nd ref="313211116"/>
    <nd ref="313211115"/>
    <nd ref="313211107"/>
    <nd ref="313211106"/>
    <nd ref="313211105"/>
    <nd ref="313211104"/>
    <nd ref="313211103"/>
    <nd ref="313211102"/>
    <nd ref="313211101"/>
    <nd ref="313211100"/>
    <nd ref="313211099"/>
    <nd ref="313211098"/>
    <nd ref="313211097"/>
    <nd ref="313211114"/>
    <nd ref="313211108"/>
    <nd ref="313211096"/>
    <tag k="highway" v="secondary"/>
    <tag k="name" v="South Jackrabbit Trail"/>
  </way>
  <way id="28513515" version="3" timestamp="2010-04-03T04:03:11Z" uid="20587" user="balrog-kun" changeset="4309442">
    <nd ref="313211120"/>
    <nd ref="313211119"/>
    <tag k="bridge" v="yes"/>
    <tag k="highway" v="secondary"/>
    <tag k="layer" v="1"/>
    <tag k="name" v="South Jackrabbit Trail"/>
  </way>
  <way id="28513553" version="1" timestamp="2008-11-19T20:29:23Z" uid="8619" user="cetest" changeset="768487">
    <nd ref="44737331"/>
    <nd ref="84704285"/>
    <nd ref="313140242"/>
    <nd ref="84704280"/>
    <tag k="AND_nosr_r" v="15077832"/>
    <tag k="created_by" v="JOSM"/>
    <tag k="highway" v="cycleway"/>
    <tag k="name" v="Wielengahof"/>
  </way>
  <way id="28513554" version="1" timestamp="2008-11-19T20:29:24Z" uid="8619" user="cetest" changeset="768487">
    <nd ref="313211494"/>
    <nd ref="313211502"/>
    <nd ref="313211513"/>
    <nd ref="313211527"/>
    <nd ref="313211494"/>
  </way>
  <way id="28513554" version="2" timestamp="2008-11-20T12:40:43Z" uid="8619" user="cetest" changeset="771895">
    <nd ref="313211494"/>
    <nd ref="313211502"/>
    <nd ref="313211513"/>
    <nd ref="313211527"/>
    <nd ref="313211494"/>
    <tag k="building" v="yes"/>
  </way>
  <way id="28513555" version="1" timestamp="2008-11-19T20:29:24Z" uid="8619" user="cetest" changeset="768487">
    <nd ref="313211533"/>
    <nd ref="313211534"/>
    <nd ref="313211535"/>
    <nd ref="313211536"/>
    <nd ref="313211533"/>
  </way>
  <way id="28513555" version="2" timestamp="2008-11-20T12:40:42Z" uid="8619" user="cetest" changeset="771895">
    <nd ref="313211533"/>
    <nd ref="313211534"/>
    <nd ref="313211535"/>
    <nd ref="313211536"/>
    <nd ref="313211533"/>
    <tag k="building" v="yes"/>
  </way>
  <way id="28513557" version="1" timestamp="2008-11-19T20:29:25Z" uid="8619" user="cetest" changeset="768487">
    <nd ref="313211537"/>
    <nd ref="313211540"/>
    <nd ref="313211541"/>
    <nd ref="313211542"/>
    <nd ref="313211537"/>
  </way>
  <way id="28513557" version="2" timestamp="2008-11-20T12:40:42Z" uid="8619" user="cetest" changeset="771895">
    <nd ref="313211537"/>
    <nd ref="313211540"/>
    <nd ref="313211541"/>
    <nd ref="313211542"/>
    <nd ref="313211537"/>
    <tag k="building" v="yes"/>
  </way>
  <way id="28513558" version="1" timestamp="2008-11-19T20:29:25Z" uid="8619" user="cetest" changeset="768487">
    <nd ref="313211543"/>
    <nd ref="313211544"/>
    <nd ref="313211545"/>
    <nd ref="313211546"/>
    <nd ref="313211543"/>
    <tag k="building" v="yes"/>
  </way>
  <way id="28513559" version="1" timestamp="2008-11-19T20:29:26Z" uid="8619" user="cetest" changeset="768487">
    <nd ref="313211547"/>
    <nd ref="313211548"/>
    <nd ref="313211549"/>
    <nd ref="313211550"/>
    <nd ref="313211547"/>
    <tag k="building" v="yes"/>
  </way>
  <way id="28513560" version="1" timestamp="2008-11-19T20:29:27Z" uid="8619" user="cetest" changeset="768487">
    <nd ref="313211551"/>
    <nd ref="313211552"/>
    <nd ref="313211553"/>
    <nd ref="313211554"/>
    <nd ref="313211551"/>
    <tag k="building" v="yes"/>
  </way>
  <way id="28513605" version="1" timestamp="2008-11-19T20:32:24Z" uid="8619" user="cetest" changeset="768487">
    <nd ref="44734705"/>
    <nd ref="44735514"/>
    <nd ref="44735115"/>
    <nd ref="313211899"/>
    <tag k="highway" v="cycleway"/>
  </way>
  <way id="28513605" version="2" timestamp="2008-11-20T08:43:13Z" uid="8619" user="cetest" changeset="770823">
    <nd ref="44734705"/>
    <nd ref="44735514"/>
    <nd ref="313275651"/>
    <nd ref="44735115"/>
    <nd ref="313211899"/>
    <tag k="highway" v="cycleway"/>
  </way>
  <way id="28513735" version="1" timestamp="2008-11-19T20:37:12Z" uid="8619" user="cetest" changeset="768487">
    <nd ref="313213328"/>
    <nd ref="313213338"/>
    <nd ref="313213342"/>
    <nd ref="313213344"/>
    <nd ref="313213328"/>
    <tag k="building" v="yes"/>
  </way>
  <way id="28513736" version="1" timestamp="2008-11-19T20:37:13Z" uid="8619" user="cetest" changeset="768487">
    <nd ref="313213348"/>
    <nd ref="313213352"/>
    <nd ref="313213357"/>
    <nd ref="313213361"/>
    <nd ref="313213348"/>
    <tag k="building" v="yes"/>
  </way>
  <way id="28513737" version="1" timestamp="2008-11-19T20:37:13Z" uid="8619" user="cetest" changeset="768487">
    <nd ref="313213367"/>
    <nd ref="313213371"/>
    <nd ref="313213379"/>
    <nd ref="313213384"/>
    <nd ref="313213367"/>
    <tag k="building" v="yes"/>
  </way>
  <way id="28513738" version="1" timestamp="2008-11-19T20:37:14Z" uid="8619" user="cetest" changeset="768487">
    <nd ref="313213391"/>
    <nd ref="313213403"/>
    <nd ref="313213388"/>
    <nd ref="313213396"/>
    <nd ref="313213391"/>
    <tag k="building" v="yes"/>
  </way>
  <way id="28513739" version="1" timestamp="2008-11-19T20:37:15Z" uid="8619" user="cetest" changeset="768487">
    <nd ref="313213408"/>
    <nd ref="313213416"/>
    <nd ref="313213423"/>
    <nd ref="313213427"/>
    <nd ref="313213408"/>
    <tag k="building" v="yes"/>
  </way>
  <way id="28513740" version="1" timestamp="2008-11-19T20:37:16Z" uid="8619" user="cetest" changeset="768487">
    <nd ref="313213437"/>
    <nd ref="313213431"/>
    <nd ref="313213434"/>
    <nd ref="313213429"/>
    <nd ref="313213437"/>
    <tag k="building" v="yes"/>
  </way>
  <way id="28513741" version="1" timestamp="2008-11-19T20:37:17Z" uid="8619" user="cetest" changeset="768487">
    <nd ref="313213442"/>
    <nd ref="313213447"/>
    <nd ref="313213445"/>
    <nd ref="313213440"/>
    <nd ref="313213442"/>
    <tag k="building" v="yes"/>
  </way>
  <way id="28513744" version="1" timestamp="2008-11-19T20:37:18Z" uid="8619" user="cetest" changeset="768487">
    <nd ref="313213449"/>
    <nd ref="313213452"/>
    <nd ref="313213460"/>
    <nd ref="313213462"/>
    <nd ref="313213449"/>
    <tag k="building" v="yes"/>
  </way>
  <way id="28513745" version="1" timestamp="2008-11-19T20:37:18Z" uid="8619" user="cetest" changeset="768487">
    <nd ref="313213477"/>
    <nd ref="313213472"/>
    <nd ref="313213475"/>
    <nd ref="313213466"/>
    <nd ref="313213477"/>
    <tag k="building" v="yes"/>
  </way>
  <way id="28513747" version="1" timestamp="2008-11-19T20:37:19Z" uid="8619" user="cetest" changeset="768487">
    <nd ref="313213484"/>
    <nd ref="313213485"/>
    <nd ref="313213486"/>
    <nd ref="313213487"/>
    <nd ref="313213484"/>
    <tag k="building" v="yes"/>
  </way>
  <way id="28513998" version="5" timestamp="2009-11-06T11:20:56Z" uid="36809" user="pfoten_weg_!_" changeset="3047170">
    <nd ref="313215594"/>
    <nd ref="313215276"/>
    <nd ref="313215277"/>
    <nd ref="313215278"/>
    <nd ref="313215279"/>
    <nd ref="313215280"/>
    <nd ref="313215281"/>
    <nd ref="60114860"/>
    <tag k="highway" v="residential"/>
    <tag k="name" v="SteichelestraÃe"/>
  </way>
</osm>
