<?xml version='1.0' encoding='UTF-8'?>
<osm version="0.6" generator="libosmium/2.20.0">
  <way id="28542179" version="3" timestamp="2008-12-14T02:33:51Z" uid="6975" user="ulfl" changeset="365670">
    <nd ref="313530055"/>
    <nd ref="313530056"/>
    <nd ref="313530057"/>
    <nd ref="313530058"/>
    <tag k="bicycle" v="yes"/>
    <tag k="highway" v="footway"/>
    <tag k="surface" v="paved"/>
  </way>
  <way id="28542264" version="2" timestamp="2008-12-14T02:50:42Z" uid="6975" user="ulfl" changeset="365670">
    <nd ref="313530904"/>
    <nd ref="313530907"/>
    <nd ref="313530910"/>
    <nd ref="313530912"/>
    <nd ref="313530915"/>
    <nd ref="313530917"/>
    <nd ref="313530920"/>
    <nd ref="313530922"/>
    <tag k="highway" v="residential"/>
    <tag k="name" v="Farnley Hey Road"/>
    <tag k="postal_code" v="DH1 4EA"/>
  </way>
  <way id="28542266" version="2" timestamp="2008-12-14T02:50:41Z" uid="6975" user="ulfl" changeset="365670">
    <nd ref="177369518"/>
    <nd ref="313530936"/>
    <nd ref="313530939"/>
    <nd ref="313530942"/>
    <nd ref="313530944"/>
    <nd ref="313530946"/>
    <nd ref="313530949"/>
    <nd ref="313530952"/>
    <nd ref="313530954"/>
    <nd ref="313530956"/>
    <nd ref="313530959"/>
    <nd ref="313530962"/>
    <nd ref="313530910"/>
    <tag k="highway" v="residential"/>
    <tag k="name" v="Farnley Mount"/>
    <tag k="postal_code" v="DH1 4DZ"/>
  </way>
  <way id="28542517" version="2" timestamp="2010-06-29T19:03:23Z" uid="74617" user="JohnSmith" changeset="5108182">
    <nd ref="313534129"/>
    <nd ref="313534130"/>
    <nd ref="313534131"/>
    <nd ref="313534132"/>
    <nd ref="313534129"/>
    <tag k="disused" v="yes"/>
    <tag k="fixme" v="sport=football is ambiguous, see http://wiki.osm.org/wiki/Football for more details"/>
    <tag k="sport" v="football"/>
  </way>
  <way id="28542534" version="2" timestamp="2008-11-26T01:41:33Z" uid="6975" user="ulfl" changeset="794829">
    <nd ref="313534427"/>
    <nd ref="313534429"/>
    <nd ref="313534430"/>
    <nd ref="313534431"/>
    <nd ref="313534427"/>
    <tag k="building" v="yes"/>
  </way>
  <way id="28542548" version="1" timestamp="2008-11-21T17:27:47Z" uid="36809" user="pfoten_weg_!_" changeset="776421">
    <nd ref="313534722"/>
    <nd ref="313534718"/>
    <nd ref="313534712"/>
    <nd ref="313534709"/>
    <nd ref="313534707"/>
    <nd ref="313534723"/>
    <nd ref="313534725"/>
    <nd ref="313534716"/>
    <nd ref="313534719"/>
    <nd ref="313534710"/>
    <nd ref="313534714"/>
    <nd ref="313534704"/>
    <nd ref="313534708"/>
    <nd ref="313534724"/>
    <nd ref="313534717"/>
    <nd ref="313534721"/>
    <nd ref="313534711"/>
    <nd ref="313534715"/>
    <nd ref="313534705"/>
    <nd ref="313534722"/>
    <tag k="created_by" v="RambaZamba"/>
    <tag k="layer" v="-1"/>
    <tag k="leisure" v="water_park"/>
    <tag k="name" v="Naturbad Maria Einsiedel"/>
    <tag k="source" v="landsat"/>
    <tag k="sport" v="swimming"/>
  </way>
  <way id="28542548" version="2" timestamp="2009-02-15T13:13:32Z" uid="36809" user="pfoten_weg_!_" changeset="463903">
    <nd ref="313534722"/>
    <nd ref="313534718"/>
    <nd ref="313534712"/>
    <nd ref="313534709"/>
    <nd ref="313534707"/>
    <nd ref="313534723"/>
    <nd ref="313534725"/>
    <nd ref="313534716"/>
    <nd ref="313534719"/>
    <nd ref="313534710"/>
    <nd ref="313534714"/>
    <nd ref="313534704"/>
    <nd ref="313534708"/>
    <nd ref="313534724"/>
    <nd ref="313534717"/>
    <nd ref="313534721"/>
    <nd ref="313534711"/>
    <nd ref="313534715"/>
    <nd ref="313534705"/>
    <nd ref="313534722"/>
    <tag k="created_by" v="RambaZamba"/>
    <tag k="layer" v="-1"/>
    <tag k="leisure" v="water_park"/>
    <tag k="name" v="Naturbad Maria Einsiedel"/>
    <tag k="source" v="survey"/>
    <tag k="sport" v="swimming"/>
  </way>
  <way id="28542548" version="4" timestamp="2009-06-08T13:39:58Z" uid="36809" user="pfoten_weg_!_" changeset="1458869">
    <nd ref="313534722"/>
    <nd ref="313534718"/>
    <nd ref="313534712"/>
    <nd ref="313534709"/>
    <nd ref="313534707"/>
    <nd ref="313534723"/>
    <nd ref="313534725"/>
    <nd ref="313534716"/>
    <nd ref="313534719"/>
    <nd ref="313534710"/>
    <nd ref="313534714"/>
    <nd ref="313534704"/>
    <nd ref="313534708"/>
    <nd ref="313534724"/>
    <nd ref="313534717"/>
    <nd ref="313534721"/>
    <nd ref="313534711"/>
    <nd ref="313534715"/>
    <nd ref="313534705"/>
    <nd ref="313534722"/>
    <tag k="created_by" v="RambaZamba"/>
    <tag k="layer" v="-1"/>
    <tag k="leisure" v="water_park"/>
    <tag k="name" v="Naturbad Maria Einsiedel"/>
    <tag k="source" v="survey"/>
    <tag k="sport" v="swimming"/>
  </way>
  <way id="28542548" version="6" timestamp="2009-09-01T10:30:51Z" uid="36809" user="pfoten_weg_!_" changeset="2335754">
    <nd ref="313534722"/>
    <nd ref="313534718"/>
    <nd ref="313534712"/>
    <nd ref="313534709"/>
    <nd ref="313534707"/>
    <nd ref="313534723"/>
    <nd ref="313534725"/>
    <nd ref="313534716"/>
    <nd ref="313534719"/>
    <nd ref="313534710"/>
    <nd ref="313534714"/>
    <nd ref="313534704"/>
    <nd ref="313534708"/>
    <nd ref="313534724"/>
    <nd ref="313534717"/>
    <nd ref="313534721"/>
    <nd ref="313534711"/>
    <nd ref="313534715"/>
    <nd ref="313534705"/>
    <nd ref="313534722"/>
    <tag k="layer" v="-1"/>
    <tag k="leisure" v="water_park"/>
    <tag k="name" v="Naturbad Maria Einsiedel"/>
    <tag k="source" v="survey"/>
    <tag k="sport" v="swimming"/>
  </way>
  <way id="28542548" version="7" timestamp="2009-10-13T23:43:08Z" uid="36809" user="pfoten_weg_!_" changeset="2841273">
    <nd ref="313534722"/>
    <nd ref="313534718"/>
    <nd ref="313534712"/>
    <nd ref="313534709"/>
    <nd ref="313534707"/>
    <nd ref="313534723"/>
    <nd ref="313534725"/>
    <nd ref="313534716"/>
    <nd ref="313534719"/>
    <nd ref="313534710"/>
    <nd ref="313534714"/>
    <nd ref="313534704"/>
    <nd ref="313534708"/>
    <nd ref="313534724"/>
    <nd ref="313534717"/>
    <nd ref="313534721"/>
    <nd ref="313534711"/>
    <nd ref="313534715"/>
    <nd ref="313534705"/>
    <nd ref="313534722"/>
    <tag k="layer" v="-1"/>
    <tag k="leisure" v="water_park"/>
    <tag k="name" v="Naturbad Maria Einsiedel"/>
    <tag k="sport" v="swimming"/>
  </way>
  <way id="28542549" version="1" timestamp="2008-11-21T17:27:47Z" uid="36809" user="pfoten_weg_!_" changeset="776421">
    <nd ref="313534728"/>
    <nd ref="313534733"/>
    <nd ref="313534741"/>
    <nd ref="313534738"/>
    <nd ref="313534735"/>
    <nd ref="313534730"/>
    <nd ref="313534726"/>
    <nd ref="313534736"/>
    <nd ref="313534737"/>
    <nd ref="313534729"/>
    <nd ref="313534732"/>
    <nd ref="313534731"/>
    <nd ref="313534739"/>
    <nd ref="313534728"/>
    <tag k="created_by" v="RambaZamba"/>
    <tag k="layer" v="-1"/>
    <tag k="leisure" v="golf_course"/>
    <tag k="source" v="landsat"/>
    <tag k="sport" v="golf"/>
  </way>
  <way id="28542549" version="2" timestamp="2009-02-15T13:13:33Z" uid="36809" user="pfoten_weg_!_" changeset="463903">
    <nd ref="313534728"/>
    <nd ref="313534733"/>
    <nd ref="313534741"/>
    <nd ref="313534738"/>
    <nd ref="313534735"/>
    <nd ref="313534730"/>
    <nd ref="313534726"/>
    <nd ref="313534736"/>
    <nd ref="313534737"/>
    <nd ref="313534729"/>
    <nd ref="313534732"/>
    <nd ref="313534731"/>
    <nd ref="313534739"/>
    <nd ref="313534728"/>
    <tag k="created_by" v="RambaZamba"/>
    <tag k="layer" v="-1"/>
    <tag k="leisure" v="golf_course"/>
    <tag k="source" v="survey"/>
    <tag k="sport" v="golf"/>
  </way>
  <way id="28542549" version="4" timestamp="2009-04-23T23:45:28Z" uid="36809" user="pfoten_weg_!_" changeset="921383"/>
  <way id="28542583" version="4" timestamp="2009-10-03T14:22:38Z" uid="179968" user="Ich_hasse_doitsche_OSM-Korinthenkacker" changeset="2724403">
    <nd ref="266981130"/>
    <nd ref="313535057"/>
    <nd ref="313535058"/>
    <nd ref="313535059"/>
    <nd ref="313535060"/>
    <nd ref="313535061"/>
    <nd ref="313535062"/>
    <nd ref="313535284"/>
    <tag k="highway" v="track"/>
    <tag k="tracktype" v="grade4"/>
  </way>
  <way id="28542607" version="6" timestamp="2009-10-03T14:22:16Z" uid="179968" user="Ich_hasse_doitsche_OSM-Korinthenkacker" changeset="2724403">
    <nd ref="324239361"/>
    <nd ref="343805855"/>
    <nd ref="324239359"/>
    <nd ref="324239357"/>
    <nd ref="343805861"/>
    <nd ref="324239356"/>
    <nd ref="343805844"/>
    <nd ref="324239354"/>
    <nd ref="324239353"/>
    <nd ref="324239344"/>
    <nd ref="324239341"/>
    <nd ref="324239338"/>
    <nd ref="343805872"/>
    <nd ref="324239337"/>
    <nd ref="324239335"/>
    <nd ref="324239334"/>
    <nd ref="324239332"/>
    <nd ref="313536962"/>
    <nd ref="313535905"/>
    <nd ref="313535684"/>
    <nd ref="313535685"/>
    <nd ref="313535686"/>
    <nd ref="324239330"/>
    <nd ref="324239331"/>
    <nd ref="324239329"/>
    <tag k="railway" v="rail"/>
  </way>
  <way id="28542677" version="1" timestamp="2008-11-21T17:37:39Z" uid="20587" user="balrog-kun" changeset="777282">
    <nd ref="313536648"/>
    <nd ref="313536649"/>
    <nd ref="313536645"/>
    <nd ref="262889027"/>
    <nd ref="313536644"/>
    <nd ref="313536643"/>
    <nd ref="313536642"/>
    <nd ref="313536646"/>
    <nd ref="313536648"/>
    <tag k="addr:housenumber" v="207"/>
    <tag k="addr:street" v="Grochowska"/>
    <tag k="building" v="yes"/>
    <tag k="created_by" v="JOSM"/>
  </way>
  <way id="28542677" version="2" timestamp="2009-01-06T10:23:32Z" uid="20587" user="balrog-kun" changeset="743955">
    <nd ref="313536648"/>
    <nd ref="313536649"/>
    <nd ref="313536645"/>
    <nd ref="262889027"/>
    <nd ref="313536644"/>
    <nd ref="313536643"/>
    <nd ref="313536642"/>
    <nd ref="313536646"/>
    <nd ref="313536648"/>
    <tag k="addr:housenumber" v="207"/>
    <tag k="addr:street" v="Grochowska"/>
    <tag k="building" v="yes"/>
    <tag k="building:levels" v="3"/>
    <tag k="created_by" v="JOSM"/>
  </way>
  <way id="28542677" version="3" timestamp="2009-01-07T11:23:31Z" uid="20587" user="balrog-kun" changeset="750476">
    <nd ref="313536648"/>
    <nd ref="313536649"/>
    <nd ref="313536645"/>
    <nd ref="262889027"/>
    <nd ref="313536644"/>
    <nd ref="313536643"/>
    <nd ref="313536642"/>
    <nd ref="313536646"/>
    <nd ref="313536648"/>
    <tag k="addr:housenumber" v="207"/>
    <tag k="addr:street" v="Grochowska"/>
    <tag k="building" v="yes"/>
    <tag k="building:levels" v="3"/>
    <tag k="created_by" v="JOSM"/>
  </way>
  <way id="28542677" version="4" timestamp="2009-01-07T14:24:05Z" uid="20587" user="balrog-kun" changeset="752764">
    <nd ref="313536648"/>
    <nd ref="313536649"/>
    <nd ref="313536645"/>
    <nd ref="262889027"/>
    <nd ref="313536644"/>
    <nd ref="313536643"/>
    <nd ref="313536642"/>
    <nd ref="313536646"/>
    <nd ref="313536648"/>
    <tag k="addr:housenumber" v="207"/>
    <tag k="addr:street" v="Grochowska"/>
    <tag k="building" v="yes"/>
    <tag k="building:levels" v="3"/>
    <tag k="created_by" v="JOSM"/>
    <tag k="wikipedia" v="pl:Uniwersam Grochów"/>
  </way>
  <way id="28542677" version="5" timestamp="2009-12-02T19:47:18Z" uid="20587" user="balrog-kun" changeset="3274837">
    <nd ref="313536648"/>
    <nd ref="313536649"/>
    <nd ref="313536645"/>
    <nd ref="262889027"/>
    <nd ref="313536644"/>
    <nd ref="313536643"/>
    <nd ref="313536642"/>
    <nd ref="313536646"/>
    <nd ref="313536648"/>
    <tag k="addr:housenumber" v="207"/>
    <tag k="addr:street" v="Grochowska"/>
    <tag k="building" v="retail"/>
    <tag k="building:levels" v="3"/>
    <tag k="wikipedia" v="pl:Uniwersam Grochów"/>
  </way>
  <way id="28542678" version="1" timestamp="2008-11-21T17:37:39Z" uid="20587" user="balrog-kun" changeset="777282">
    <nd ref="313536653"/>
    <nd ref="313536652"/>
    <nd ref="313536650"/>
    <nd ref="313536651"/>
    <nd ref="313536653"/>
    <tag k="amenity" v="parking"/>
    <tag k="created_by" v="JOSM"/>
  </way>
  <way id="28542678" version="2" timestamp="2009-01-04T14:02:40Z" uid="20587" user="balrog-kun" changeset="728731">
    <nd ref="313536653"/>
    <nd ref="313536651"/>
    <nd ref="313536650"/>
    <nd ref="313536652"/>
    <nd ref="313536653"/>
    <tag k="amenity" v="parking"/>
    <tag k="created_by" v="JOSM"/>
  </way>
  <way id="28542679" version="1" timestamp="2008-11-21T17:37:39Z" uid="20587" user="balrog-kun" changeset="777282">
    <nd ref="313536658"/>
    <nd ref="313536659"/>
    <nd ref="313536657"/>
    <nd ref="313536656"/>
    <nd ref="313536658"/>
    <tag k="addr:housenumber" v="4"/>
    <tag k="addr:street" v="Kirasjerów"/>
    <tag k="building" v="yes"/>
  </way>
  <way id="28542679" version="2" timestamp="2009-02-04T01:58:15Z" uid="20587" user="balrog-kun" changeset="116230">
    <nd ref="313536658"/>
    <nd ref="313536659"/>
    <nd ref="313536657"/>
    <nd ref="313536656"/>
    <nd ref="313536658"/>
    <tag k="addr:housenumber" v="4"/>
    <tag k="addr:street" v="Kirasjerów"/>
    <tag k="building" v="yes"/>
    <tag k="building:levels" v="4"/>
  </way>
  <way id="28542679" version="3" timestamp="2009-04-26T09:13:48Z" uid="20587" user="balrog-kun" changeset="970655">
    <nd ref="313536658"/>
    <nd ref="313536659"/>
    <nd ref="313536657"/>
    <nd ref="313536656"/>
    <nd ref="313536658"/>
    <tag k="addr:housenumber" v="4"/>
    <tag k="addr:street" v="Kirasjerów"/>
    <tag k="building" v="residential"/>
    <tag k="building:levels" v="4"/>
  </way>
  <way id="28542680" version="1" timestamp="2008-11-21T17:37:40Z" uid="20587" user="balrog-kun" changeset="777282">
    <nd ref="313536665"/>
    <nd ref="313536667"/>
    <nd ref="313536668"/>
    <nd ref="313536666"/>
    <nd ref="313536664"/>
    <nd ref="313536661"/>
    <nd ref="310271313"/>
    <nd ref="310271311"/>
    <nd ref="313536660"/>
    <nd ref="313536663"/>
    <nd ref="313536665"/>
    <tag k="addr:housenumber" v="2"/>
    <tag k="building" v="yes"/>
  </way>
  <way id="28542680" version="2" timestamp="2009-01-08T14:00:44Z" uid="20587" user="balrog-kun" changeset="756602">
    <nd ref="313536665"/>
    <nd ref="313536667"/>
    <nd ref="313536668"/>
    <nd ref="313536666"/>
    <nd ref="313536664"/>
    <nd ref="313536661"/>
    <nd ref="310271313"/>
    <nd ref="310271311"/>
    <nd ref="313536660"/>
    <nd ref="313536663"/>
    <nd ref="313536665"/>
    <tag k="addr:housenumber" v="2"/>
    <tag k="building" v="yes"/>
    <tag k="building:levels" v="6"/>
  </way>
  <way id="28542680" version="3" timestamp="2009-04-08T18:04:52Z" uid="20587" user="balrog-kun" changeset="326158">
    <nd ref="313536665"/>
    <nd ref="313536667"/>
    <nd ref="313536668"/>
    <nd ref="313536666"/>
    <nd ref="313536664"/>
    <nd ref="313536661"/>
    <nd ref="310271313"/>
    <nd ref="310271311"/>
    <nd ref="313536660"/>
    <nd ref="313536663"/>
    <nd ref="313536665"/>
    <tag k="addr:housenumber" v="2"/>
    <tag k="building" v="residential"/>
    <tag k="building:levels" v="6"/>
  </way>
  <way id="28542680" version="4" timestamp="2009-11-23T17:33:35Z" uid="20587" user="balrog-kun" changeset="3197568">
    <nd ref="313536665"/>
    <nd ref="313536667"/>
    <nd ref="313536668"/>
    <nd ref="569488273"/>
    <nd ref="569488284"/>
    <nd ref="313536666"/>
    <nd ref="313536664"/>
    <nd ref="569488282"/>
    <nd ref="569488256"/>
    <nd ref="313536661"/>
    <nd ref="310271313"/>
    <nd ref="310271311"/>
    <nd ref="313536660"/>
    <nd ref="313536663"/>
    <nd ref="313536665"/>
    <tag k="addr:housenumber" v="2"/>
    <tag k="addr:street" v="Giuseppe Garibaldiego"/>
    <tag k="building" v="residential"/>
    <tag k="building:levels" v="6"/>
  </way>
  <way id="28542681" version="1" timestamp="2008-11-21T17:37:40Z" uid="20587" user="balrog-kun" changeset="777282">
    <nd ref="313536672"/>
    <nd ref="313536673"/>
    <nd ref="313536671"/>
    <nd ref="313536670"/>
    <nd ref="313536672"/>
    <tag k="addr:housenumber" v="8"/>
    <tag k="building" v="yes"/>
  </way>
  <way id="28542681" version="2" timestamp="2009-01-08T14:00:43Z" uid="20587" user="balrog-kun" changeset="756602">
    <nd ref="313536672"/>
    <nd ref="313536673"/>
    <nd ref="313536671"/>
    <nd ref="313536670"/>
    <nd ref="313536672"/>
    <tag k="addr:housenumber" v="8"/>
    <tag k="building" v="yes"/>
    <tag k="building:levels" v="4"/>
  </way>
  <way id="28542681" version="3" timestamp="2009-02-04T01:58:15Z" uid="20587" user="balrog-kun" changeset="116230">
    <nd ref="313536672"/>
    <nd ref="313536673"/>
    <nd ref="313536671"/>
    <nd ref="313536670"/>
    <nd ref="313536672"/>
    <tag k="addr:housenumber" v="7"/>
    <tag k="addr:street" v="Giuseppe Garibaldiego"/>
    <tag k="building" v="yes"/>
    <tag k="building:levels" v="4"/>
  </way>
  <way id="28542681" version="4" timestamp="2009-04-08T18:04:51Z" uid="20587" user="balrog-kun" changeset="326158">
    <nd ref="313536672"/>
    <nd ref="313536673"/>
    <nd ref="313536671"/>
    <nd ref="313536670"/>
    <nd ref="313536672"/>
    <tag k="addr:housenumber" v="7"/>
    <tag k="addr:street" v="Giuseppe Garibaldiego"/>
    <tag k="building" v="residential"/>
    <tag k="building:levels" v="4"/>
  </way>
  <way id="28542682" version="1" timestamp="2008-11-21T17:37:40Z" uid="20587" user="balrog-kun" changeset="777282">
    <nd ref="313536674"/>
    <nd ref="313536676"/>
    <nd ref="313536678"/>
    <nd ref="313536677"/>
    <nd ref="313536674"/>
    <tag k="addr:housenumber" v="65"/>
    <tag k="addr:street" v="Międzynarodowa"/>
    <tag k="building" v="yes"/>
  </way>
  <way id="28542682" version="2" timestamp="2009-01-13T10:19:55Z" uid="20587" user="balrog-kun" changeset="781705">
    <nd ref="313536674"/>
    <nd ref="313536676"/>
    <nd ref="313536678"/>
    <nd ref="313536677"/>
    <nd ref="313536674"/>
    <tag k="addr:housenumber" v="65"/>
    <tag k="addr:street" v="Międzynarodowa"/>
    <tag k="building" v="yes"/>
    <tag k="building:levels" v="8"/>
  </way>
  <way id="28542682" version="3" timestamp="2011-02-14T15:26:02Z" uid="20587" user="balrog-kun" changeset="7286624">
    <nd ref="313536674"/>
    <nd ref="313536676"/>
    <nd ref="313536678"/>
    <nd ref="313536677"/>
    <nd ref="313536674"/>
    <tag k="addr:housenumber" v="65"/>
    <tag k="addr:street" v="Międzynarodowa"/>
    <tag k="building" v="residential"/>
    <tag k="building:levels" v="8"/>
  </way>
  <way id="28542683" version="1" timestamp="2008-11-21T17:37:40Z" uid="20587" user="balrog-kun" changeset="777282">
    <nd ref="313536679"/>
    <nd ref="313536681"/>
    <nd ref="313536682"/>
    <nd ref="313536680"/>
    <nd ref="313536679"/>
    <tag k="addr:housenumber" v="38a"/>
    <tag k="addr:street" v="Aleja Jerzego Waszyngtona"/>
    <tag k="building" v="yes"/>
  </way>
  <way id="28542683" version="2" timestamp="2009-01-08T14:17:57Z" uid="20587" user="balrog-kun" changeset="756602">
    <nd ref="313536679"/>
    <nd ref="313536681"/>
    <nd ref="313536682"/>
    <nd ref="313536680"/>
    <nd ref="313536679"/>
    <tag k="addr:housenumber" v="38a"/>
    <tag k="addr:street" v="Aleja Jerzego Waszyngtona"/>
    <tag k="building" v="yes"/>
    <tag k="building:levels" v="4"/>
  </way>
  <way id="28542683" version="3" timestamp="2011-02-14T15:25:53Z" uid="20587" user="balrog-kun" changeset="7286624">
    <nd ref="313536679"/>
    <nd ref="313536681"/>
    <nd ref="313536682"/>
    <nd ref="313536680"/>
    <nd ref="313536679"/>
    <tag k="addr:housenumber" v="38a"/>
    <tag k="addr:street" v="Aleja Jerzego Waszyngtona"/>
    <tag k="building" v="residential"/>
    <tag k="building:levels" v="4"/>
  </way>
  <way id="28542684" version="1" timestamp="2008-11-21T17:37:41Z" uid="20587" user="balrog-kun" changeset="777282">
    <nd ref="313536686"/>
    <nd ref="313536684"/>
    <nd ref="313536685"/>
    <nd ref="313536687"/>
    <nd ref="313536686"/>
    <tag k="addr:housenumber" v="40"/>
    <tag k="addr:street" v="Lipska"/>
    <tag k="building" v="yes"/>
  </way>
  <way id="28542684" version="2" timestamp="2009-01-08T14:17:59Z" uid="20587" user="balrog-kun" changeset="756602">
    <nd ref="313536686"/>
    <nd ref="313536684"/>
    <nd ref="313536685"/>
    <nd ref="313536687"/>
    <nd ref="313536686"/>
    <tag k="addr:housenumber" v="40"/>
    <tag k="addr:street" v="Lipska"/>
    <tag k="building" v="yes"/>
    <tag k="building:levels" v="3"/>
  </way>
  <way id="28542684" version="3" timestamp="2009-01-13T10:19:54Z" uid="20587" user="balrog-kun" changeset="781705">
    <nd ref="313536686"/>
    <nd ref="313536684"/>
    <nd ref="313536685"/>
    <nd ref="313536687"/>
    <nd ref="313536686"/>
    <tag k="addr:housenumber" v="40"/>
    <tag k="addr:street" v="Lipska"/>
    <tag k="building" v="yes"/>
    <tag k="building:levels" v="2"/>
  </way>
  <way id="28542684" version="4" timestamp="2009-02-04T12:39:58Z" uid="20587" user="balrog-kun" changeset="125964">
    <nd ref="313536685"/>
    <nd ref="313536684"/>
    <nd ref="313536686"/>
    <nd ref="340377797"/>
    <nd ref="340377796"/>
    <nd ref="313536685"/>
    <tag k="addr:housenumber" v="40"/>
    <tag k="addr:street" v="Lipska"/>
    <tag k="building" v="yes"/>
    <tag k="building:levels" v="2"/>
  </way>
  <way id="28542685" version="1" timestamp="2008-11-21T17:37:41Z" uid="20587" user="balrog-kun" changeset="777282">
    <nd ref="313536690"/>
    <nd ref="313536691"/>
    <nd ref="313536692"/>
    <nd ref="313536693"/>
    <nd ref="313536690"/>
    <tag k="amenity" v="bank"/>
    <tag k="building" v="yes"/>
    <tag k="name" v="ING Bank"/>
  </way>
  <way id="28542685" version="2" timestamp="2009-01-08T20:00:44Z" uid="20587" user="balrog-kun" changeset="757533">
    <nd ref="313536690"/>
    <nd ref="313536691"/>
    <nd ref="313536692"/>
    <nd ref="313536693"/>
    <nd ref="313536690"/>
    <tag k="amenity" v="bank"/>
    <tag k="building" v="yes"/>
    <tag k="building:levels" v="10"/>
    <tag k="name" v="ING Bank"/>
  </way>
  <way id="28542685" version="3" timestamp="2009-03-15T09:50:45Z" uid="20587" user="balrog-kun" changeset="811339">
    <nd ref="313536690"/>
    <nd ref="313536691"/>
    <nd ref="313536692"/>
    <nd ref="313536693"/>
    <nd ref="313536690"/>
    <tag k="addr:housenumber" v="2"/>
    <tag k="addr:street" v="Ludna"/>
    <tag k="amenity" v="bank"/>
    <tag k="building" v="yes"/>
    <tag k="building:levels" v="10"/>
    <tag k="landuse" v="commercial"/>
    <tag k="name" v="ING Bank"/>
  </way>
  <way id="28542686" version="1" timestamp="2008-11-21T17:37:41Z" uid="20587" user="balrog-kun" changeset="777282">
    <nd ref="313536694"/>
    <nd ref="313536696"/>
    <nd ref="313536699"/>
    <nd ref="313536701"/>
    <nd ref="313536703"/>
    <nd ref="313536706"/>
    <nd ref="313536707"/>
    <nd ref="313536704"/>
    <nd ref="313536702"/>
    <nd ref="313536700"/>
    <nd ref="313536698"/>
    <nd ref="313536695"/>
    <nd ref="313536694"/>
    <tag k="addr:housenumber" v="22"/>
    <tag k="addr:street" v="Solec"/>
    <tag k="building" v="yes"/>
  </way>
  <way id="28542686" version="2" timestamp="2009-01-08T20:00:42Z" uid="20587" user="balrog-kun" changeset="757533">
    <nd ref="313536694"/>
    <nd ref="313536696"/>
    <nd ref="313536699"/>
    <nd ref="313536701"/>
    <nd ref="313536703"/>
    <nd ref="313536706"/>
    <nd ref="313536707"/>
    <nd ref="313536704"/>
    <nd ref="313536702"/>
    <nd ref="313536700"/>
    <nd ref="313536698"/>
    <nd ref="313536695"/>
    <nd ref="313536694"/>
    <tag k="addr:housenumber" v="22"/>
    <tag k="addr:street" v="Solec"/>
    <tag k="building" v="yes"/>
    <tag k="building:levels" v="10"/>
  </way>
  <way id="28542686" version="3" timestamp="2010-12-11T23:55:33Z" uid="20587" user="balrog-kun" changeset="6631232">
    <nd ref="313536696"/>
    <nd ref="313536699"/>
    <nd ref="313536701"/>
    <nd ref="313536703"/>
    <nd ref="1034379748"/>
    <nd ref="313536706"/>
    <nd ref="1034381574"/>
    <nd ref="313536707"/>
    <nd ref="1034381512"/>
    <nd ref="313536700"/>
    <nd ref="313536698"/>
    <nd ref="313536696"/>
    <tag k="addr:housenumber" v="22"/>
    <tag k="addr:street" v="Solec"/>
    <tag k="building" v="office"/>
    <tag k="building:levels" v="10"/>
  </way>
  <way id="28542781" version="2" timestamp="2008-11-26T01:23:30Z" uid="6975" user="ulfl" changeset="794829">
    <nd ref="313537843"/>
    <nd ref="313537844"/>
    <nd ref="313537845"/>
    <nd ref="313537846"/>
    <nd ref="313537847"/>
    <nd ref="313537848"/>
    <nd ref="313537849"/>
    <nd ref="313537850"/>
    <nd ref="313537851"/>
    <nd ref="313537852"/>
    <nd ref="313537853"/>
    <nd ref="313537843"/>
    <tag k="amenity" v="parking"/>
  </way>
  <way id="28542860" version="6" timestamp="2008-11-26T01:17:38Z" uid="6975" user="ulfl" changeset="794829">
    <nd ref="313538479"/>
    <nd ref="313538478"/>
    <nd ref="313538477"/>
    <nd ref="313538476"/>
    <nd ref="313538475"/>
    <nd ref="313536140"/>
    <tag k="highway" v="motorway_link"/>
    <tag k="oneway" v="yes"/>
  </way>
</osm>
