<?xml version='1.0' encoding='UTF-8'?>
<osm version="0.6" generator="libosmium/2.20.0">
  <way id="28648027" version="1" timestamp="2008-11-26T10:58:09Z" uid="43863" user="Rundling" changeset="795746">
    <nd ref="314878534"/>
    <nd ref="31328539"/>
    <tag k="highway" v="residential"/>
    <tag k="name" v="Wittenwater"/>
    <tag k="surface" v="paved"/>
  </way>
  <way id="28648028" version="1" timestamp="2008-11-26T10:58:09Z" uid="43863" user="Rundling" changeset="795746">
    <nd ref="300424148"/>
    <nd ref="314878536"/>
    <tag k="access" v="designated"/>
    <tag k="highway" v="track"/>
    <tag k="surface" v="paved"/>
    <tag k="tracktype" v="grade1"/>
  </way>
  <way id="28648032" version="5" timestamp="2010-03-28T00:21:57Z" uid="20587" user="balrog-kun" changeset="4250871">
    <nd ref="518808821"/>
    <nd ref="65606852"/>
    <nd ref="65547563"/>
    <tag k="highway" v="secondary"/>
    <tag k="name" v="University Avenue"/>
    <tag k="tiger:cfcc" v="A41"/>
    <tag k="tiger:county" v="San Mateo, CA; Santa Clara, CA"/>
    <tag k="tiger:name_base" v="University"/>
    <tag k="tiger:name_type" v="Ave"/>
    <tag k="tiger:separated" v="no"/>
    <tag k="tiger:source" v="tiger_import_dch_v0.6_20070809"/>
    <tag k="tiger:tlid" v="192366614:192366615:192366585:192366588:192366589; 192361975:192361980:192366427:192366429:192361982:192366431; 122950232:122972313:122950200:122950202:122950204:122950206:122950216:122950217:122950218:122950222:122950402:122950314:122950311:122950313:122"/>
    <tag k="tiger:zip_left" v="94301"/>
    <tag k="tiger:zip_right" v="94301"/>
  </way>
  <way id="28648055" version="1" timestamp="2008-11-26T11:00:49Z" uid="43863" user="Rundling" changeset="795746">
    <nd ref="314879806"/>
    <nd ref="314879807"/>
    <tag k="access" v="designated"/>
    <tag k="highway" v="track"/>
    <tag k="surface" v="gravel"/>
    <tag k="tracktype" v="grade2"/>
  </way>
  <way id="28648056" version="1" timestamp="2008-11-26T11:00:49Z" uid="43863" user="Rundling" changeset="795746">
    <nd ref="314879810"/>
    <nd ref="314879812"/>
    <nd ref="314879814"/>
    <nd ref="314879816"/>
    <nd ref="314879817"/>
    <nd ref="314879819"/>
    <nd ref="314879806"/>
    <tag k="highway" v="footway"/>
    <tag k="surface" v="unpaved"/>
  </way>
  <way id="28648108" version="3" timestamp="2009-09-30T16:23:45Z" uid="36809" user="pfoten_weg_!_" changeset="2690373">
    <nd ref="254110143"/>
    <nd ref="254110144"/>
    <nd ref="254110145"/>
    <nd ref="254110146"/>
    <nd ref="254110147"/>
    <nd ref="254110148"/>
    <nd ref="254110149"/>
    <nd ref="254110150"/>
    <nd ref="254110074"/>
    <tag k="name" v="Tutzing Bernried"/>
    <tag k="route" v="ferry"/>
  </way>
  <way id="28648109" version="3" timestamp="2009-09-30T16:23:46Z" uid="36809" user="pfoten_weg_!_" changeset="2690373">
    <nd ref="254110135"/>
    <nd ref="254110136"/>
    <nd ref="254110137"/>
    <nd ref="254110138"/>
    <nd ref="254110139"/>
    <nd ref="254110140"/>
    <nd ref="254110141"/>
    <nd ref="254110142"/>
    <nd ref="254110143"/>
    <tag k="name" v="Bernried - Seeshaupt"/>
    <tag k="route" v="ferry"/>
  </way>
  <way id="28648110" version="2" timestamp="2009-09-30T16:23:46Z" uid="36809" user="pfoten_weg_!_" changeset="2690373">
    <nd ref="254110130"/>
    <nd ref="254110131"/>
    <nd ref="254110135"/>
    <tag k="name" v="Seeshaupt - Ambach"/>
    <tag k="route" v="ferry"/>
  </way>
  <way id="28648111" version="2" timestamp="2009-09-30T16:23:47Z" uid="36809" user="pfoten_weg_!_" changeset="2690373">
    <nd ref="254110075"/>
    <nd ref="254110123"/>
    <nd ref="254110124"/>
    <nd ref="254110125"/>
    <nd ref="254110126"/>
    <nd ref="254110127"/>
    <nd ref="254110128"/>
    <nd ref="254110129"/>
    <nd ref="254110130"/>
    <tag k="name" v="Ammerland - Ambach"/>
    <tag k="route" v="ferry"/>
  </way>
  <way id="28648121" version="1" timestamp="2008-11-26T11:08:27Z" uid="43863" user="Rundling" changeset="795746">
    <nd ref="314882863"/>
    <nd ref="314882876"/>
    <nd ref="314882865"/>
    <nd ref="314882867"/>
    <nd ref="314882869"/>
    <tag k="highway" v="residential"/>
    <tag k="name" v="Verladestraße"/>
    <tag k="surface" v="cobblestone"/>
  </way>
  <way id="28648122" version="1" timestamp="2008-11-26T11:08:27Z" uid="43863" user="Rundling" changeset="795746">
    <nd ref="314882870"/>
    <nd ref="314882872"/>
    <nd ref="314882874"/>
    <nd ref="314882876"/>
    <tag k="highway" v="residential"/>
    <tag k="name" v="Am Bahnhof"/>
    <tag k="surface" v="paved"/>
  </way>
  <way id="28648123" version="1" timestamp="2008-11-26T11:08:27Z" uid="43863" user="Rundling" changeset="795746">
    <nd ref="314882878"/>
    <nd ref="314882879"/>
    <nd ref="314882881"/>
    <nd ref="314882883"/>
    <nd ref="314882885"/>
    <nd ref="314882886"/>
    <tag k="highway" v="residential"/>
    <tag k="name" v="Georg-Marwede-Straße"/>
    <tag k="surface" v="paved"/>
  </way>
  <way id="28648123" version="2" timestamp="2008-11-26T11:13:00Z" uid="43863" user="Rundling" changeset="795746">
    <nd ref="314882878"/>
    <nd ref="314882879"/>
    <nd ref="314882881"/>
    <nd ref="314885101"/>
    <nd ref="314885108"/>
    <nd ref="314882883"/>
    <nd ref="314885130"/>
    <nd ref="314885131"/>
    <nd ref="314882885"/>
    <nd ref="314882886"/>
    <tag k="highway" v="residential"/>
    <tag k="name" v="Georg-Marwede-Straße"/>
    <tag k="surface" v="paved"/>
  </way>
  <way id="28648123" version="3" timestamp="2010-09-08T19:54:12Z" uid="43863" user="Rundling" changeset="5727398">
    <nd ref="314882878"/>
    <nd ref="314882879"/>
    <nd ref="314882881"/>
    <nd ref="314885101"/>
    <nd ref="314885108"/>
    <nd ref="314882885"/>
    <nd ref="314882886"/>
    <tag k="highway" v="residential"/>
    <tag k="name" v="Georg-Marwede-Straße"/>
    <tag k="surface" v="paved"/>
  </way>
  <way id="28648124" version="1" timestamp="2008-11-26T11:08:28Z" uid="43863" user="Rundling" changeset="795746">
    <nd ref="314882879"/>
    <nd ref="314882888"/>
    <nd ref="314882890"/>
    <nd ref="314882892"/>
    <nd ref="314882893"/>
    <nd ref="314882895"/>
    <nd ref="314882897"/>
    <nd ref="314882883"/>
    <tag k="highway" v="residential"/>
    <tag k="name" v="Im Forstland"/>
    <tag k="surface" v="paved"/>
  </way>
  <way id="28648125" version="1" timestamp="2008-11-26T11:08:28Z" uid="43863" user="Rundling" changeset="795746">
    <nd ref="314882899"/>
    <nd ref="314882892"/>
    <tag k="highway" v="residential"/>
    <tag k="surface" v="cobblestone"/>
  </way>
  <way id="28648126" version="1" timestamp="2008-11-26T11:08:28Z" uid="43863" user="Rundling" changeset="795746">
    <nd ref="300424113"/>
    <nd ref="314882906"/>
    <nd ref="314882901"/>
    <nd ref="314882902"/>
    <nd ref="314882904"/>
    <nd ref="260561887"/>
    <tag k="highway" v="residential"/>
    <tag k="name" v="Celler Straße"/>
    <tag k="surface" v="paved"/>
  </way>
  <way id="28648126" version="2" timestamp="2008-11-26T11:15:32Z" uid="43863" user="Rundling" changeset="795746">
    <nd ref="300424113"/>
    <nd ref="314882906"/>
    <nd ref="314886165"/>
    <nd ref="314882901"/>
    <nd ref="314882902"/>
    <nd ref="314882904"/>
    <nd ref="260561887"/>
    <tag k="highway" v="residential"/>
    <tag k="name" v="Celler Straße"/>
    <tag k="surface" v="paved"/>
  </way>
  <way id="28648126" version="3" timestamp="2008-11-26T11:21:30Z" uid="43863" user="Rundling" changeset="795746">
    <nd ref="300424113"/>
    <nd ref="314882906"/>
    <nd ref="314886165"/>
    <nd ref="314882901"/>
    <nd ref="314888644"/>
    <nd ref="314882902"/>
    <nd ref="314888662"/>
    <nd ref="314882904"/>
    <nd ref="260561887"/>
    <tag k="highway" v="residential"/>
    <tag k="name" v="Celler Straße"/>
    <tag k="surface" v="paved"/>
  </way>
  <way id="28648126" version="6" timestamp="2009-06-07T16:17:21Z" uid="43863" user="Rundling" changeset="1450305">
    <nd ref="300424113"/>
    <nd ref="314882906"/>
    <nd ref="314886165"/>
    <nd ref="374024094"/>
    <nd ref="417022878"/>
    <nd ref="314882901"/>
    <nd ref="314888644"/>
    <nd ref="314888662"/>
    <nd ref="373923787"/>
    <nd ref="314882904"/>
    <nd ref="260561887"/>
    <tag k="highway" v="residential"/>
    <tag k="name" v="Celler Straße"/>
    <tag k="surface" v="paved"/>
  </way>
  <way id="28648128" version="1" timestamp="2008-11-26T11:08:29Z" uid="43863" user="Rundling" changeset="795746">
    <nd ref="280796339"/>
    <nd ref="314882906"/>
    <tag k="access" v="destination"/>
    <tag k="highway" v="residential"/>
    <tag k="name" v="Alte Salzstraße"/>
    <tag k="surface" v="paved"/>
  </way>
  <way id="28648171" version="1" timestamp="2008-11-26T11:12:58Z" uid="43863" user="Rundling" changeset="795746">
    <nd ref="314885101"/>
    <nd ref="314885103"/>
    <nd ref="314885105"/>
    <nd ref="314885106"/>
    <tag k="highway" v="residential"/>
    <tag k="name" v="Am Hornsgehege"/>
    <tag k="surface" v="paved"/>
  </way>
  <way id="28648172" version="1" timestamp="2008-11-26T11:12:58Z" uid="43863" user="Rundling" changeset="795746">
    <nd ref="314885108"/>
    <nd ref="314885110"/>
    <nd ref="314885112"/>
    <nd ref="314885117"/>
    <nd ref="314885114"/>
    <nd ref="314885115"/>
    <tag k="highway" v="residential"/>
    <tag k="name" v="Auf den Blöcken"/>
    <tag k="surface" v="paved"/>
  </way>
  <way id="28648172" version="2" timestamp="2008-11-26T11:15:33Z" uid="43863" user="Rundling" changeset="795746">
    <nd ref="314885108"/>
    <nd ref="314885110"/>
    <nd ref="314885112"/>
    <nd ref="314885117"/>
    <nd ref="314885114"/>
    <nd ref="314886171"/>
    <nd ref="314885115"/>
    <tag k="highway" v="residential"/>
    <tag k="name" v="Auf den Blöcken"/>
    <tag k="surface" v="paved"/>
  </way>
  <way id="28648172" version="3" timestamp="2008-11-26T11:21:30Z" uid="43863" user="Rundling" changeset="795746">
    <nd ref="314885108"/>
    <nd ref="314885110"/>
    <nd ref="314885112"/>
    <nd ref="314885117"/>
    <nd ref="314885114"/>
    <nd ref="314888642"/>
    <nd ref="314886171"/>
    <nd ref="314885115"/>
    <tag k="highway" v="residential"/>
    <tag k="name" v="Auf den Blöcken"/>
    <tag k="surface" v="paved"/>
  </way>
  <way id="28648172" version="4" timestamp="2008-12-02T20:15:45Z" uid="43863" user="Rundling" changeset="53627">
    <nd ref="314885108"/>
    <nd ref="314885110"/>
    <nd ref="314885112"/>
    <nd ref="314885117"/>
    <nd ref="314885114"/>
    <nd ref="314888642"/>
    <nd ref="314886171"/>
    <nd ref="314888668"/>
    <tag k="highway" v="residential"/>
    <tag k="name" v="Auf den Blöcken"/>
    <tag k="surface" v="paved"/>
  </way>
  <way id="28648172" version="7" timestamp="2010-09-08T19:54:11Z" uid="43863" user="Rundling" changeset="5727398">
    <nd ref="314885108"/>
    <nd ref="314885110"/>
    <nd ref="314885112"/>
    <nd ref="314885117"/>
    <nd ref="314888642"/>
    <nd ref="314886171"/>
    <nd ref="614425546"/>
    <nd ref="321989804"/>
    <nd ref="314888668"/>
    <tag k="highway" v="residential"/>
    <tag k="name" v="Auf den Blöcken"/>
    <tag k="surface" v="paved"/>
  </way>
  <way id="28648173" version="1" timestamp="2008-11-26T11:12:58Z" uid="43863" user="Rundling" changeset="795746">
    <nd ref="314885117"/>
    <nd ref="314885119"/>
    <nd ref="314885121"/>
    <nd ref="314885123"/>
    <nd ref="314885124"/>
    <nd ref="314885126"/>
    <nd ref="314885128"/>
    <nd ref="314885106"/>
    <tag k="highway" v="residential"/>
    <tag k="name" v="Am Mohngarten"/>
    <tag k="surface" v="cobblestone"/>
  </way>
  <way id="28648173" version="2" timestamp="2010-09-08T19:54:11Z" uid="43863" user="Rundling" changeset="5727398">
    <nd ref="314885117"/>
    <nd ref="314885123"/>
    <nd ref="314885124"/>
    <nd ref="314885126"/>
    <nd ref="314885128"/>
    <nd ref="314885106"/>
    <tag k="highway" v="residential"/>
    <tag k="name" v="Am Mohngarten"/>
    <tag k="surface" v="cobblestone"/>
  </way>
  <way id="28648175" version="1" timestamp="2008-11-26T11:12:59Z" uid="43863" user="Rundling" changeset="795746">
    <nd ref="314885131"/>
    <nd ref="314885146"/>
    <nd ref="314885133"/>
    <tag k="highway" v="residential"/>
    <tag k="name" v="Obere Schreberstraße"/>
    <tag k="surface" v="paved"/>
  </way>
  <way id="28648176" version="1" timestamp="2008-11-26T11:12:59Z" uid="43863" user="Rundling" changeset="795746">
    <nd ref="314885135"/>
    <nd ref="314885136"/>
    <nd ref="314885144"/>
    <nd ref="314885146"/>
    <tag k="highway" v="residential"/>
    <tag k="name" v="Weg"/>
    <tag k="surface" v="cobblestone"/>
  </way>
  <way id="28648193" version="1" timestamp="2008-11-26T11:15:31Z" uid="43863" user="Rundling" changeset="795746">
    <nd ref="314886165"/>
    <nd ref="314886172"/>
    <nd ref="314886166"/>
    <nd ref="314886167"/>
    <nd ref="314886186"/>
    <nd ref="314886168"/>
    <nd ref="314886169"/>
    <nd ref="314886194"/>
    <nd ref="314886170"/>
    <nd ref="314886171"/>
    <tag k="highway" v="residential"/>
    <tag k="name" v="Am Feldrain"/>
    <tag k="surface" v="paved"/>
  </way>
  <way id="28648193" version="2" timestamp="2010-09-08T19:54:09Z" uid="43863" user="Rundling" changeset="5727398">
    <nd ref="314886165"/>
    <nd ref="314886172"/>
    <nd ref="314886166"/>
    <nd ref="314886186"/>
    <nd ref="314886168"/>
    <nd ref="314886194"/>
    <nd ref="314886170"/>
    <nd ref="314886171"/>
    <tag k="highway" v="residential"/>
    <tag k="name" v="Am Feldrain"/>
    <tag k="surface" v="paved"/>
  </way>
  <way id="28648194" version="1" timestamp="2008-11-26T11:15:32Z" uid="43863" user="Rundling" changeset="795746">
    <nd ref="314886172"/>
    <nd ref="314886173"/>
    <nd ref="314886174"/>
    <nd ref="314886175"/>
    <nd ref="314886176"/>
    <nd ref="314886177"/>
    <nd ref="314886179"/>
    <nd ref="314886180"/>
    <nd ref="314886182"/>
    <nd ref="314886184"/>
    <nd ref="314886166"/>
    <tag k="highway" v="residential"/>
    <tag k="name" v="Am Kornfeld"/>
    <tag k="surface" v="cobblestone"/>
  </way>
  <way id="28648195" version="1" timestamp="2008-11-26T11:15:32Z" uid="43863" user="Rundling" changeset="795746">
    <nd ref="314886186"/>
    <nd ref="314886187"/>
    <nd ref="314886189"/>
    <nd ref="314886191"/>
    <nd ref="314886193"/>
    <nd ref="314886168"/>
    <tag k="highway" v="residential"/>
    <tag k="name" v="Am Rübenacker"/>
    <tag k="surface" v="cobblestone"/>
  </way>
  <way id="28648196" version="1" timestamp="2008-11-26T11:15:32Z" uid="43863" user="Rundling" changeset="795746">
    <nd ref="314886194"/>
    <nd ref="314886196"/>
    <nd ref="314886198"/>
    <nd ref="314886200"/>
    <nd ref="314886201"/>
    <nd ref="314886170"/>
    <tag k="highway" v="residential"/>
    <tag k="name" v="Am Rapsfeld"/>
    <tag k="surface" v="cobblestone"/>
  </way>
  <way id="28648443" version="5" timestamp="2010-11-22T18:41:20Z" uid="9581" user="Lobelt" changeset="6433833">
    <nd ref="261067197"/>
    <nd ref="261067216"/>
    <nd ref="261067198"/>
    <nd ref="261067199"/>
    <nd ref="261067200"/>
    <nd ref="261067202"/>
    <nd ref="394575570"/>
    <nd ref="261067203"/>
    <nd ref="261067204"/>
    <nd ref="261067205"/>
    <nd ref="999802713"/>
    <nd ref="261067206"/>
    <nd ref="369785295"/>
    <nd ref="261067208"/>
    <nd ref="366143852"/>
    <nd ref="261067210"/>
    <tag k="highway" v="secondary"/>
    <tag k="maxspeed" v="80"/>
    <tag k="ref" v="L 3345"/>
  </way>
  <way id="28648585" version="1" timestamp="2008-11-26T11:21:28Z" uid="43863" user="Rundling" changeset="795746">
    <nd ref="314888642"/>
    <nd ref="314888659"/>
    <nd ref="314882885"/>
    <tag k="highway" v="residential"/>
    <tag k="name" v="Schreberstraße"/>
    <tag k="surface" v="paved"/>
  </way>
  <way id="28648586" version="1" timestamp="2008-11-26T11:21:28Z" uid="43863" user="Rundling" changeset="795746">
    <nd ref="314888644"/>
    <nd ref="314888646"/>
    <nd ref="314888647"/>
    <nd ref="314888649"/>
    <nd ref="314888651"/>
    <nd ref="314888652"/>
    <nd ref="314888667"/>
    <nd ref="314888654"/>
    <nd ref="314888655"/>
    <nd ref="314888657"/>
    <tag k="highway" v="residential"/>
    <tag k="name" v="Sprengelstraße"/>
    <tag k="surface" v="paved"/>
  </way>
  <way id="28648586" version="2" timestamp="2008-11-26T11:26:11Z" uid="43863" user="Rundling" changeset="795746">
    <nd ref="314888644"/>
    <nd ref="314888646"/>
    <nd ref="314888647"/>
    <nd ref="314888649"/>
    <nd ref="314888651"/>
    <nd ref="314890277"/>
    <nd ref="314888652"/>
    <nd ref="314888667"/>
    <nd ref="314888654"/>
    <nd ref="314888655"/>
    <nd ref="314888657"/>
    <tag k="highway" v="residential"/>
    <tag k="name" v="Sprengelstraße"/>
    <tag k="surface" v="paved"/>
  </way>
  <way id="28648586" version="4" timestamp="2009-06-07T15:56:08Z" uid="43863" user="Rundling" changeset="1450014">
    <nd ref="314888644"/>
    <nd ref="314888646"/>
    <nd ref="321989804"/>
    <nd ref="314888651"/>
    <nd ref="314890277"/>
    <nd ref="314888667"/>
    <nd ref="314888655"/>
    <nd ref="314888657"/>
    <tag k="highway" v="residential"/>
    <tag k="name" v="Sprengelstraße"/>
    <tag k="surface" v="paved"/>
  </way>
  <way id="28648588" version="1" timestamp="2008-11-26T11:21:28Z" uid="43863" user="Rundling" changeset="795746">
    <nd ref="314888659"/>
    <nd ref="314888651"/>
    <tag k="highway" v="residential"/>
    <tag k="name" v="Carl-Hincke-Straße"/>
    <tag k="surface" v="paved"/>
  </way>
  <way id="28648590" version="1" timestamp="2008-11-26T11:21:28Z" uid="43863" user="Rundling" changeset="795746">
    <nd ref="314888660"/>
    <nd ref="314888662"/>
    <tag k="highway" v="residential"/>
    <tag k="name" v="Am Fünfdiemenland"/>
    <tag k="surface" v="paved"/>
  </way>
  <way id="28648590" version="2" timestamp="2008-12-02T20:15:44Z" uid="43863" user="Rundling" changeset="53627">
    <nd ref="314888668"/>
    <nd ref="314888662"/>
    <tag k="highway" v="residential"/>
    <tag k="name" v="Am Fünfdiemenland"/>
    <tag k="surface" v="paved"/>
  </way>
  <way id="28648590" version="4" timestamp="2010-09-08T19:54:12Z" uid="43863" user="Rundling" changeset="5727398">
    <nd ref="314888668"/>
    <nd ref="614425345"/>
    <nd ref="614425403"/>
    <nd ref="314888662"/>
    <tag k="highway" v="residential"/>
    <tag k="name" v="Am Fünfdiemenland"/>
    <tag k="surface" v="paved"/>
  </way>
  <way id="28648592" version="1" timestamp="2008-11-26T11:21:29Z" uid="43863" user="Rundling" changeset="795746">
    <nd ref="314888663"/>
    <nd ref="314888665"/>
    <nd ref="314888667"/>
    <tag k="highway" v="residential"/>
    <tag k="name" v="Weinbergstraße"/>
    <tag k="surface" v="paved"/>
  </way>
  <way id="28648592" version="2" timestamp="2008-11-26T11:26:11Z" uid="43863" user="Rundling" changeset="795746">
    <nd ref="314888663"/>
    <nd ref="314890285"/>
    <nd ref="314888665"/>
    <nd ref="314888667"/>
    <tag k="highway" v="residential"/>
    <tag k="name" v="Weinbergstraße"/>
    <tag k="surface" v="paved"/>
  </way>
  <way id="28648593" version="1" timestamp="2008-11-26T11:21:29Z" uid="43863" user="Rundling" changeset="795746">
    <nd ref="314888668"/>
    <nd ref="314888665"/>
    <tag k="highway" v="residential"/>
    <tag k="name" v="Am Weinberg"/>
    <tag k="surface" v="paved"/>
  </way>
  <way id="28648593" version="2" timestamp="2008-11-26T11:26:11Z" uid="43863" user="Rundling" changeset="795746">
    <nd ref="314888668"/>
    <nd ref="314890276"/>
    <nd ref="314888665"/>
    <tag k="highway" v="residential"/>
    <tag k="name" v="Am Weinberg"/>
    <tag k="surface" v="paved"/>
  </way>
</osm>
