<?xml version='1.0' encoding='UTF-8'?>
<osm version="0.6" generator="libosmium/2.20.0">
  <way id="28709005" version="9" timestamp="2008-12-04T20:41:29Z" uid="6975" user="ulfl" changeset="107048">
    <nd ref="315580839"/>
    <nd ref="315738462"/>
    <nd ref="250851051"/>
    <tag k="highway" v="track"/>
    <tag k="motorcycle" v="no"/>
    <tag k="tracktype" v="grade3"/>
  </way>
  <way id="28709132" version="8" timestamp="2009-09-18T11:40:31Z" uid="20587" user="balrog-kun" changeset="2523165">
    <nd ref="315582037"/>
    <nd ref="315582237"/>
    <nd ref="315582038"/>
    <nd ref="333598669"/>
    <nd ref="315582039"/>
    <nd ref="315582040"/>
    <tag k="layer" v="-1"/>
    <tag k="name" v="Bzura"/>
    <tag k="waterway" v="river"/>
    <tag k="wikipedia" v="Bzura"/>
  </way>
  <way id="28709241" version="4" timestamp="2008-12-04T19:41:11Z" uid="6975" user="ulfl" changeset="107048">
    <nd ref="272285411"/>
    <nd ref="315582839"/>
    <nd ref="315582840"/>
    <nd ref="315582841"/>
    <nd ref="315582842"/>
    <nd ref="315582843"/>
    <nd ref="315582853"/>
    <nd ref="315582854"/>
    <nd ref="315582855"/>
    <nd ref="315582856"/>
    <nd ref="315582857"/>
    <nd ref="315598033"/>
    <nd ref="315582858"/>
    <tag k="highway" v="residential"/>
    <tag k="name" v="Eagleton Drive"/>
    <tag k="postal_code" v="S35"/>
  </way>
  <way id="28709576" version="3" timestamp="2011-06-01T16:14:24Z" uid="115477" user="wowik" changeset="8311498">
    <nd ref="315587111"/>
    <nd ref="315587115"/>
    <nd ref="315587117"/>
    <nd ref="315587113"/>
    <nd ref="315587111"/>
    <tag k="addr:city" v="Москва"/>
    <tag k="addr:country" v="RU"/>
    <tag k="addr:housenumber" v="50"/>
    <tag k="addr:street" v="Ленинградское шоссе"/>
    <tag k="building" v="yes"/>
  </way>
  <way id="28709577" version="3" timestamp="2011-06-01T16:14:23Z" uid="115477" user="wowik" changeset="8311498">
    <nd ref="315587121"/>
    <nd ref="315587119"/>
    <nd ref="315587123"/>
    <nd ref="315587125"/>
    <nd ref="1307855348"/>
    <nd ref="1307855365"/>
    <nd ref="315587121"/>
    <tag k="addr:city" v="Москва"/>
    <tag k="addr:country" v="RU"/>
    <tag k="addr:housenumber" v="52"/>
    <tag k="addr:street" v="Ленинградское шоссе"/>
    <tag k="building" v="yes"/>
  </way>
  <way id="28709591" version="3" timestamp="2011-06-01T16:14:23Z" uid="115477" user="wowik" changeset="8311498">
    <nd ref="315587260"/>
    <nd ref="315587276"/>
    <nd ref="315587282"/>
    <nd ref="315587284"/>
    <nd ref="315587279"/>
    <nd ref="315587274"/>
    <nd ref="315587264"/>
    <nd ref="315587268"/>
    <nd ref="315587270"/>
    <nd ref="315587272"/>
    <nd ref="315587266"/>
    <nd ref="315587262"/>
    <nd ref="315587260"/>
    <tag k="addr:city" v="Москва"/>
    <tag k="addr:country" v="RU"/>
    <tag k="addr:housenumber" v="46"/>
    <tag k="addr:street" v="Ленинградское шоссе"/>
    <tag k="building" v="yes"/>
  </way>
  <way id="28709709" version="3" timestamp="2008-12-06T01:14:43Z" uid="6269" user="Mueck" changeset="201914">
    <nd ref="315590018"/>
    <nd ref="315590020"/>
    <nd ref="315590021"/>
    <nd ref="315590023"/>
    <nd ref="315590025"/>
    <nd ref="315590027"/>
    <nd ref="315590028"/>
    <nd ref="315590030"/>
    <tag k="FIXME" v="Bitte Verlauf korrigieren. Nur in etwa abgeschätzt."/>
    <tag k="admin_level" v="10"/>
    <tag k="boundary" v="administrative"/>
    <tag k="name" v="Bezirksteil Dom Pedro / Neuhausen"/>
    <tag k="note" v="neuer level nach DE:Grenze"/>
  </way>
  <way id="28709760" version="10" timestamp="2009-11-02T21:47:14Z" uid="9581" user="Lobelt" changeset="3020335"/>
  <way id="28709888" version="3" timestamp="2009-03-25T23:21:54Z" uid="49111" user="Markus B" changeset="861683">
    <nd ref="315593403"/>
    <nd ref="315593404"/>
    <nd ref="315593405"/>
    <nd ref="315593406"/>
    <nd ref="315593407"/>
    <nd ref="315593403"/>
    <tag k="created_by" v="Potlatch 0.10f"/>
    <tag k="landuse" v="forest"/>
  </way>
</osm>
