<?xml version='1.0' encoding='UTF-8'?>
<osm version="0.6" generator="libosmium/2.20.0">
  <way id="28778022" version="2" timestamp="2009-02-11T13:34:15Z" uid="9581" user="Lobelt" changeset="344494">
    <nd ref="122013824"/>
    <nd ref="122013828"/>
    <nd ref="122013829"/>
    <nd ref="122013830"/>
    <nd ref="122013831"/>
    <nd ref="122013832"/>
    <nd ref="122013836"/>
    <nd ref="122013838"/>
    <nd ref="122013842"/>
    <nd ref="122013844"/>
    <nd ref="122013847"/>
    <nd ref="344438787"/>
    <nd ref="122013848"/>
    <nd ref="35305440"/>
    <tag k="created_by" v="Potlatch 0.10f"/>
    <tag k="highway" v="unclassified"/>
  </way>
  <way id="28778069" version="2" timestamp="2010-04-02T17:23:31Z" uid="20587" user="balrog-kun" changeset="4304500">
    <nd ref="51834140"/>
    <nd ref="316435449"/>
    <tag k="highway" v="secondary"/>
    <tag k="name" v="Selah Road"/>
    <tag k="name_1" v="State Highway 823"/>
    <tag k="tiger:cfcc" v="A31"/>
    <tag k="tiger:county" v="Yakima, WA"/>
    <tag k="tiger:name_base" v="Selah"/>
    <tag k="tiger:name_base_1" v="State Highway 823"/>
    <tag k="tiger:name_type" v="Rd"/>
    <tag k="tiger:reviewed" v="no"/>
    <tag k="tiger:separated" v="no"/>
    <tag k="tiger:source" v="tiger_import_dch_v0.6_20070830"/>
    <tag k="tiger:tlid" v="184936201:184936195:184936198:184936199:184934090:184934094:184934097:184934100:184934110:184934123:184934124"/>
  </way>
  <way id="28778070" version="2" timestamp="2010-04-02T17:23:31Z" uid="20587" user="balrog-kun" changeset="4304500">
    <nd ref="51834136"/>
    <nd ref="51834140"/>
    <tag k="bridge" v="yes"/>
    <tag k="highway" v="secondary"/>
    <tag k="layer" v="1"/>
    <tag k="name" v="Selah Road"/>
    <tag k="name_1" v="State Highway 823"/>
    <tag k="tiger:cfcc" v="A31"/>
    <tag k="tiger:county" v="Yakima, WA"/>
    <tag k="tiger:name_base" v="Selah"/>
    <tag k="tiger:name_base_1" v="State Highway 823"/>
    <tag k="tiger:name_type" v="Rd"/>
    <tag k="tiger:reviewed" v="no"/>
    <tag k="tiger:separated" v="no"/>
    <tag k="tiger:source" v="tiger_import_dch_v0.6_20070830"/>
    <tag k="tiger:tlid" v="184936201:184936195:184936198:184936199:184934090:184934094:184934097:184934100:184934110:184934123:184934124"/>
  </way>
  <way id="28778071" version="2" timestamp="2010-04-02T17:23:32Z" uid="20587" user="balrog-kun" changeset="4304500">
    <nd ref="316435443"/>
    <nd ref="316435447"/>
    <nd ref="51803565"/>
    <nd ref="51834136"/>
    <tag k="highway" v="secondary"/>
    <tag k="name" v="Selah Road"/>
    <tag k="name_1" v="State Highway 823"/>
    <tag k="tiger:cfcc" v="A31"/>
    <tag k="tiger:county" v="Yakima, WA"/>
    <tag k="tiger:name_base" v="Selah"/>
    <tag k="tiger:name_base_1" v="State Highway 823"/>
    <tag k="tiger:name_type" v="Rd"/>
    <tag k="tiger:reviewed" v="no"/>
    <tag k="tiger:separated" v="no"/>
    <tag k="tiger:source" v="tiger_import_dch_v0.6_20070830"/>
    <tag k="tiger:tlid" v="184936201:184936195:184936198:184936199:184934090:184934094:184934097:184934100:184934110:184934123:184934124"/>
  </way>
  <way id="28778072" version="2" timestamp="2010-04-02T17:23:32Z" uid="20587" user="balrog-kun" changeset="4304500">
    <nd ref="51834135"/>
    <nd ref="316435445"/>
    <nd ref="316435443"/>
    <tag k="bridge" v="yes"/>
    <tag k="highway" v="secondary"/>
    <tag k="layer" v="1"/>
    <tag k="name" v="Selah Road"/>
    <tag k="name_1" v="State Highway 823"/>
    <tag k="tiger:cfcc" v="A31"/>
    <tag k="tiger:county" v="Yakima, WA"/>
    <tag k="tiger:name_base" v="Selah"/>
    <tag k="tiger:name_base_1" v="State Highway 823"/>
    <tag k="tiger:name_type" v="Rd"/>
    <tag k="tiger:reviewed" v="no"/>
    <tag k="tiger:separated" v="no"/>
    <tag k="tiger:source" v="tiger_import_dch_v0.6_20070830"/>
    <tag k="tiger:tlid" v="184936201:184936195:184936198:184936199:184934090:184934094:184934097:184934100:184934110:184934123:184934124"/>
  </way>
  <way id="28778073" version="2" timestamp="2010-04-02T17:23:32Z" uid="20587" user="balrog-kun" changeset="4304500">
    <nd ref="51834129"/>
    <nd ref="51834135"/>
    <tag k="highway" v="secondary"/>
    <tag k="name" v="Selah Road"/>
    <tag k="name_1" v="State Highway 823"/>
    <tag k="tiger:cfcc" v="A31"/>
    <tag k="tiger:county" v="Yakima, WA"/>
    <tag k="tiger:name_base" v="Selah"/>
    <tag k="tiger:name_base_1" v="State Highway 823"/>
    <tag k="tiger:name_type" v="Rd"/>
    <tag k="tiger:reviewed" v="no"/>
    <tag k="tiger:separated" v="no"/>
    <tag k="tiger:source" v="tiger_import_dch_v0.6_20070830"/>
    <tag k="tiger:tlid" v="184936201:184936195:184936198:184936199:184934090:184934094:184934097:184934100:184934110:184934123:184934124"/>
  </way>
  <way id="28778088" version="2" timestamp="2010-04-02T17:23:32Z" uid="20587" user="balrog-kun" changeset="4304500">
    <nd ref="316435454"/>
    <nd ref="316435452"/>
    <tag k="bridge" v="yes"/>
    <tag k="highway" v="residential"/>
    <tag k="layer" v="1"/>
    <tag k="name" v="Rest Haven Road"/>
    <tag k="tiger:cfcc" v="A41"/>
    <tag k="tiger:county" v="Yakima, WA"/>
    <tag k="tiger:name_base" v="Rest Haven"/>
    <tag k="tiger:name_type" v="Rd"/>
    <tag k="tiger:reviewed" v="no"/>
    <tag k="tiger:separated" v="no"/>
    <tag k="tiger:source" v="tiger_import_dch_v0.6_20070830"/>
    <tag k="tiger:tlid" v="184963725:184963726:184937623:184968855:184964560:184937130:184937151:184936210:184954906:184959801"/>
    <tag k="tiger:zip_left" v="98901"/>
    <tag k="tiger:zip_right" v="98901"/>
  </way>
  <way id="28778090" version="2" timestamp="2010-04-02T17:23:33Z" uid="20587" user="balrog-kun" changeset="4304500">
    <nd ref="51834126"/>
    <nd ref="51834129"/>
    <tag k="bridge" v="yes"/>
    <tag k="highway" v="secondary"/>
    <tag k="layer" v="1"/>
    <tag k="name" v="Selah Road"/>
    <tag k="name_1" v="State Highway 823"/>
    <tag k="tiger:cfcc" v="A31"/>
    <tag k="tiger:county" v="Yakima, WA"/>
    <tag k="tiger:name_base" v="Selah"/>
    <tag k="tiger:name_base_1" v="State Highway 823"/>
    <tag k="tiger:name_type" v="Rd"/>
    <tag k="tiger:reviewed" v="no"/>
    <tag k="tiger:separated" v="no"/>
    <tag k="tiger:source" v="tiger_import_dch_v0.6_20070830"/>
    <tag k="tiger:tlid" v="184936201:184936195:184936198:184936199:184934090:184934094:184934097:184934100:184934110:184934123:184934124"/>
  </way>
  <way id="28778091" version="2" timestamp="2010-04-02T17:23:33Z" uid="20587" user="balrog-kun" changeset="4304500">
    <nd ref="316435452"/>
    <nd ref="51621453"/>
    <nd ref="316435992"/>
    <nd ref="316435994"/>
    <nd ref="316436026"/>
    <nd ref="316436028"/>
    <nd ref="51755642"/>
    <nd ref="51755645"/>
    <nd ref="51755647"/>
    <nd ref="51755649"/>
    <nd ref="51755650"/>
    <nd ref="51755651"/>
    <nd ref="51755655"/>
    <nd ref="51755657"/>
    <nd ref="51755659"/>
    <nd ref="51755661"/>
    <nd ref="51755663"/>
    <nd ref="51755665"/>
    <nd ref="51732413"/>
    <nd ref="51755668"/>
    <nd ref="51755670"/>
    <nd ref="51755672"/>
    <nd ref="51755674"/>
    <nd ref="51755676"/>
    <nd ref="51755677"/>
    <nd ref="51755679"/>
    <nd ref="51755681"/>
    <nd ref="51755683"/>
    <nd ref="51755686"/>
    <nd ref="51755687"/>
    <nd ref="51755688"/>
    <nd ref="51755690"/>
    <nd ref="51755692"/>
    <nd ref="51755694"/>
    <nd ref="51755696"/>
    <nd ref="51755698"/>
    <nd ref="51755700"/>
    <nd ref="51755702"/>
    <nd ref="51755705"/>
    <nd ref="51755707"/>
    <nd ref="51755709"/>
    <nd ref="51755711"/>
    <nd ref="51755713"/>
    <nd ref="51755715"/>
    <nd ref="51755718"/>
    <nd ref="51755719"/>
    <nd ref="51755720"/>
    <nd ref="51738663"/>
    <nd ref="51755723"/>
    <nd ref="51755725"/>
    <nd ref="51755727"/>
    <tag k="highway" v="residential"/>
    <tag k="name" v="Rest Haven Road"/>
    <tag k="tiger:cfcc" v="A41"/>
    <tag k="tiger:county" v="Yakima, WA"/>
    <tag k="tiger:name_base" v="Rest Haven"/>
    <tag k="tiger:name_type" v="Rd"/>
    <tag k="tiger:reviewed" v="no"/>
    <tag k="tiger:separated" v="no"/>
    <tag k="tiger:source" v="tiger_import_dch_v0.6_20070830"/>
    <tag k="tiger:tlid" v="184963725:184963726:184937623:184968855:184964560:184937130:184937151:184936210:184954906:184959801"/>
    <tag k="tiger:zip_left" v="98901"/>
    <tag k="tiger:zip_right" v="98901"/>
  </way>
  <way id="28778093" version="2" timestamp="2010-04-02T17:23:34Z" uid="20587" user="balrog-kun" changeset="4304500">
    <nd ref="316435888"/>
    <nd ref="316435885"/>
    <nd ref="316435893"/>
    <nd ref="316435890"/>
    <nd ref="316435900"/>
    <nd ref="316435897"/>
    <nd ref="316435843"/>
    <nd ref="316435837"/>
    <nd ref="316435849"/>
    <nd ref="316435846"/>
    <tag k="highway" v="secondary"/>
    <tag k="layer" v="0"/>
    <tag k="name" v="Selah Road"/>
    <tag k="name_1" v="State Highway 823"/>
    <tag k="tiger:cfcc" v="A31"/>
    <tag k="tiger:county" v="Yakima, WA"/>
    <tag k="tiger:name_base" v="Selah"/>
    <tag k="tiger:name_base_1" v="State Highway 823"/>
    <tag k="tiger:name_type" v="Rd"/>
    <tag k="tiger:reviewed" v="no"/>
    <tag k="tiger:separated" v="no"/>
    <tag k="tiger:source" v="tiger_import_dch_v0.6_20070830"/>
    <tag k="tiger:tlid" v="184936201:184936195:184936198:184936199:184934090:184934094:184934097:184934100:184934110:184934123:184934124"/>
  </way>
  <way id="28778094" version="2" timestamp="2010-04-02T17:23:34Z" uid="20587" user="balrog-kun" changeset="4304500">
    <nd ref="316435449"/>
    <nd ref="316435888"/>
    <tag k="bridge" v="yes"/>
    <tag k="highway" v="secondary"/>
    <tag k="layer" v="1"/>
    <tag k="name" v="Selah Road"/>
    <tag k="name_1" v="State Highway 823"/>
    <tag k="tiger:cfcc" v="A31"/>
    <tag k="tiger:county" v="Yakima, WA"/>
    <tag k="tiger:name_base" v="Selah"/>
    <tag k="tiger:name_base_1" v="State Highway 823"/>
    <tag k="tiger:name_type" v="Rd"/>
    <tag k="tiger:reviewed" v="no"/>
    <tag k="tiger:separated" v="no"/>
    <tag k="tiger:source" v="tiger_import_dch_v0.6_20070830"/>
    <tag k="tiger:tlid" v="184936201:184936195:184936198:184936199:184934090:184934094:184934097:184934100:184934110:184934123:184934124"/>
  </way>
  <way id="28778104" version="2" timestamp="2010-04-02T17:23:34Z" uid="20587" user="balrog-kun" changeset="4304500">
    <nd ref="316435852"/>
    <nd ref="316435876"/>
    <tag k="bridge" v="yes"/>
    <tag k="highway" v="secondary"/>
    <tag k="layer" v="1"/>
    <tag k="name" v="Selah Road"/>
    <tag k="name_1" v="State Highway 823"/>
    <tag k="tiger:cfcc" v="A31"/>
    <tag k="tiger:county" v="Yakima, WA"/>
    <tag k="tiger:name_base" v="Selah"/>
    <tag k="tiger:name_base_1" v="State Highway 823"/>
    <tag k="tiger:name_type" v="Rd"/>
    <tag k="tiger:reviewed" v="no"/>
    <tag k="tiger:separated" v="no"/>
    <tag k="tiger:source" v="tiger_import_dch_v0.6_20070830"/>
    <tag k="tiger:tlid" v="184936201:184936195:184936198:184936199:184934090:184934094:184934097:184934100:184934110:184934123:184934124"/>
  </way>
  <way id="28778107" version="3" timestamp="2010-04-02T17:23:35Z" uid="20587" user="balrog-kun" changeset="4304500">
    <nd ref="316435876"/>
    <nd ref="316435871"/>
    <nd ref="316435916"/>
    <nd ref="316435919"/>
    <nd ref="316435921"/>
    <nd ref="316435927"/>
    <nd ref="316435929"/>
    <nd ref="316435932"/>
    <nd ref="316435737"/>
    <nd ref="316435914"/>
    <nd ref="316435907"/>
    <nd ref="316435904"/>
    <nd ref="316435934"/>
    <tag k="highway" v="secondary"/>
    <tag k="layer" v="0"/>
    <tag k="name" v="Selah Road"/>
    <tag k="name_1" v="State Highway 823"/>
    <tag k="tiger:cfcc" v="A31"/>
    <tag k="tiger:county" v="Yakima, WA"/>
    <tag k="tiger:name_base" v="Selah"/>
    <tag k="tiger:name_base_1" v="State Highway 823"/>
    <tag k="tiger:name_type" v="Rd"/>
    <tag k="tiger:reviewed" v="no"/>
    <tag k="tiger:separated" v="no"/>
    <tag k="tiger:source" v="tiger_import_dch_v0.6_20070830"/>
    <tag k="tiger:tlid" v="184936201:184936195:184936198:184936199:184934090:184934094:184934097:184934100:184934110:184934123:184934124"/>
  </way>
  <way id="28778114" version="2" timestamp="2010-04-02T17:23:35Z" uid="20587" user="balrog-kun" changeset="4304500">
    <nd ref="316435846"/>
    <nd ref="316435859"/>
    <tag k="bridge" v="yes"/>
    <tag k="highway" v="secondary"/>
    <tag k="layer" v="1"/>
    <tag k="name" v="Selah Road"/>
    <tag k="name_1" v="State Highway 823"/>
    <tag k="tiger:cfcc" v="A31"/>
    <tag k="tiger:county" v="Yakima, WA"/>
    <tag k="tiger:name_base" v="Selah"/>
    <tag k="tiger:name_base_1" v="State Highway 823"/>
    <tag k="tiger:name_type" v="Rd"/>
    <tag k="tiger:reviewed" v="no"/>
    <tag k="tiger:separated" v="no"/>
    <tag k="tiger:source" v="tiger_import_dch_v0.6_20070830"/>
    <tag k="tiger:tlid" v="184936201:184936195:184936198:184936199:184934090:184934094:184934097:184934100:184934110:184934123:184934124"/>
  </way>
  <way id="28778115" version="2" timestamp="2010-04-02T17:23:35Z" uid="20587" user="balrog-kun" changeset="4304500">
    <nd ref="316435859"/>
    <nd ref="316435852"/>
    <tag k="highway" v="secondary"/>
    <tag k="name" v="Selah Road"/>
    <tag k="name_1" v="State Highway 823"/>
    <tag k="tiger:cfcc" v="A31"/>
    <tag k="tiger:county" v="Yakima, WA"/>
    <tag k="tiger:name_base" v="Selah"/>
    <tag k="tiger:name_base_1" v="State Highway 823"/>
    <tag k="tiger:name_type" v="Rd"/>
    <tag k="tiger:reviewed" v="no"/>
    <tag k="tiger:separated" v="no"/>
    <tag k="tiger:source" v="tiger_import_dch_v0.6_20070830"/>
    <tag k="tiger:tlid" v="184936201:184936195:184936198:184936199:184934090:184934094:184934097:184934100:184934110:184934123:184934124"/>
  </way>
  <way id="28778255" version="2" timestamp="2009-09-12T19:12:30Z" uid="12188" user="Babis" changeset="2461545"/>
  <way id="28778258" version="2" timestamp="2009-09-12T19:14:59Z" uid="12188" user="Babis" changeset="2461545">
    <nd ref="316437146"/>
    <nd ref="316437147"/>
    <tag k="highway" v="residential"/>
    <tag k="name" v="Βυζαντίου"/>
    <tag k="name:en" v="Vizantiou"/>
  </way>
  <way id="28778261" version="3" timestamp="2009-09-12T17:22:43Z" uid="12188" user="Babis" changeset="2460358">
    <nd ref="269613002"/>
    <nd ref="269613047"/>
    <nd ref="269613035"/>
    <nd ref="269613032"/>
    <nd ref="269613003"/>
    <tag k="highway" v="secondary"/>
  </way>
  <way id="28778261" version="4" timestamp="2009-09-12T17:24:11Z" uid="12188" user="Babis" changeset="2460358">
    <nd ref="269613002"/>
    <nd ref="269613047"/>
    <nd ref="269613035"/>
    <nd ref="269613032"/>
    <nd ref="269613003"/>
    <tag k="highway" v="secondary"/>
    <tag k="name" v="Αγ.Γεωργίου"/>
    <tag k="name:en" v="Ag.Georgiou"/>
  </way>
  <way id="28778264" version="2" timestamp="2010-06-29T19:14:01Z" uid="74617" user="JohnSmith" changeset="5108182">
    <nd ref="316437166"/>
    <nd ref="316437167"/>
    <nd ref="316437168"/>
    <nd ref="316437169"/>
    <nd ref="316437166"/>
    <tag k="fixme" v="sport=football is ambiguous, see http://wiki.osm.org/wiki/Football for more details"/>
    <tag k="leisure" v="pitch"/>
    <tag k="sport" v="football"/>
  </way>
  <way id="28778267" version="2" timestamp="2009-04-12T19:15:28Z" uid="12188" user="Babis" changeset="447991">
    <nd ref="269613092"/>
    <nd ref="269789161"/>
    <nd ref="269613093"/>
    <nd ref="270601149"/>
    <nd ref="373429811"/>
    <nd ref="269613094"/>
    <tag k="created_by" v="Potlatch 0.10f"/>
    <tag k="highway" v="residential"/>
  </way>
  <way id="28778267" version="3" timestamp="2009-09-12T19:16:03Z" uid="12188" user="Babis" changeset="2461545"/>
  <way id="28778269" version="3" timestamp="2009-09-12T19:16:03Z" uid="12188" user="Babis" changeset="2461545">
    <nd ref="269613091"/>
    <nd ref="269613092"/>
    <nd ref="269789161"/>
    <nd ref="269613093"/>
    <nd ref="270601149"/>
    <nd ref="373429811"/>
    <nd ref="269613094"/>
    <tag k="highway" v="secondary; residential"/>
  </way>
  <way id="28778269" version="4" timestamp="2009-09-12T19:16:06Z" uid="12188" user="Babis" changeset="2461545"/>
  <way id="28778273" version="2" timestamp="2010-06-29T19:08:52Z" uid="74617" user="JohnSmith" changeset="5108182">
    <nd ref="316437184"/>
    <nd ref="316437185"/>
    <nd ref="316437186"/>
    <nd ref="316437187"/>
    <nd ref="316437184"/>
    <tag k="fixme" v="sport=football is ambiguous, see http://wiki.osm.org/wiki/Football for more details"/>
    <tag k="leisure" v="pitch"/>
    <tag k="sport" v="football"/>
  </way>
  <way id="28778281" version="2" timestamp="2009-04-12T19:18:39Z" uid="12188" user="Babis" changeset="447991">
    <nd ref="373431391"/>
    <nd ref="316437218"/>
    <nd ref="316437224"/>
    <tag k="created_by" v="Potlatch 0.10f"/>
    <tag k="highway" v="residential"/>
  </way>
  <way id="28778281" version="3" timestamp="2009-09-12T19:25:07Z" uid="12188" user="Babis" changeset="2461742">
    <nd ref="373431391"/>
    <nd ref="316437218"/>
    <nd ref="316437224"/>
    <tag k="highway" v="trunk"/>
    <tag k="name" v="28ης Οκτωβρίου"/>
    <tag k="name:en" v="28th Oktovriou"/>
  </way>
  <way id="28778281" version="4" timestamp="2009-09-12T19:25:38Z" uid="12188" user="Babis" changeset="2461742">
    <nd ref="373431391"/>
    <nd ref="316437218"/>
    <nd ref="316437224"/>
    <tag k="highway" v="residential"/>
    <tag k="name" v="28ης Οκτωβρίου"/>
    <tag k="name:en" v="28th Oktovriou"/>
  </way>
  <way id="28778459" version="1" timestamp="2008-12-03T14:59:42Z" uid="17602" user="B10xyz" changeset="73579">
    <nd ref="286839593"/>
    <nd ref="292766679"/>
    <nd ref="292766758"/>
    <nd ref="316438362"/>
    <nd ref="167021613"/>
    <nd ref="316438363"/>
    <tag k="created_by" v="Merkaartor 0.11"/>
    <tag k="highway" v="footway"/>
  </way>
  <way id="28778459" version="2" timestamp="2009-11-17T18:33:29Z" uid="17602" user="B10xyz" changeset="3143268">
    <nd ref="286839593"/>
    <nd ref="292766679"/>
    <nd ref="292766758"/>
    <nd ref="316438362"/>
    <nd ref="167021613"/>
    <nd ref="316438363"/>
    <tag k="highway" v="footway"/>
  </way>
  <way id="28778463" version="1" timestamp="2008-12-03T14:59:47Z" uid="17602" user="B10xyz" changeset="73579">
    <nd ref="316438363"/>
    <nd ref="292766759"/>
    <nd ref="292766677"/>
    <nd ref="316438372"/>
    <nd ref="316438373"/>
    <tag k="created_by" v="Merkaartor 0.11"/>
    <tag k="highway" v="footway"/>
  </way>
  <way id="28778463" version="2" timestamp="2009-11-17T18:33:31Z" uid="17602" user="B10xyz" changeset="3143268">
    <nd ref="316438363"/>
    <nd ref="292766759"/>
    <nd ref="292766677"/>
    <nd ref="316438372"/>
    <nd ref="316438373"/>
    <tag k="highway" v="footway"/>
  </way>
  <way id="28778464" version="1" timestamp="2008-12-03T14:59:50Z" uid="17602" user="B10xyz" changeset="73579">
    <nd ref="286839601"/>
    <nd ref="292766676"/>
    <nd ref="292766677"/>
    <nd ref="292766678"/>
    <nd ref="292766679"/>
    <nd ref="292766680"/>
    <tag k="created_by" v="Merkaartor 0.11"/>
    <tag k="highway" v="footway"/>
    <tag k="history" v="Retrieved from v5"/>
  </way>
  <way id="28778464" version="2" timestamp="2009-11-17T18:33:21Z" uid="17602" user="B10xyz" changeset="3143268">
    <nd ref="286839601"/>
    <nd ref="292766676"/>
    <nd ref="292766677"/>
    <nd ref="292766678"/>
    <nd ref="292766679"/>
    <nd ref="292766680"/>
    <tag k="highway" v="footway"/>
  </way>
  <way id="28778465" version="1" timestamp="2008-12-03T14:59:51Z" uid="17602" user="B10xyz" changeset="73579">
    <nd ref="294042285"/>
    <nd ref="292766676"/>
    <nd ref="286839598"/>
    <tag k="created_by" v="Merkaartor 0.11"/>
    <tag k="highway" v="footway"/>
  </way>
  <way id="28778465" version="2" timestamp="2009-11-17T18:33:20Z" uid="17602" user="B10xyz" changeset="3143268">
    <nd ref="294042285"/>
    <nd ref="292766676"/>
    <nd ref="566327421"/>
    <nd ref="286839598"/>
    <tag k="highway" v="footway"/>
  </way>
  <way id="28778466" version="1" timestamp="2008-12-03T14:59:51Z" uid="17602" user="B10xyz" changeset="73579">
    <nd ref="316438363"/>
    <nd ref="294042285"/>
    <tag k="created_by" v="Merkaartor 0.11"/>
    <tag k="highway" v="footway"/>
  </way>
  <way id="28778466" version="2" timestamp="2008-12-03T15:00:49Z" uid="17602" user="B10xyz" changeset="73579"/>
  <way id="28778491" version="2" timestamp="2009-03-10T19:19:23Z" uid="12188" user="Babis" changeset="777657">
    <nd ref="316437930"/>
    <nd ref="358485508"/>
    <nd ref="316438745"/>
    <nd ref="316438750"/>
    <nd ref="316438751"/>
    <nd ref="316438752"/>
    <nd ref="316438753"/>
    <nd ref="316438754"/>
    <nd ref="316438755"/>
    <tag k="created_by" v="Potlatch 0.10f"/>
    <tag k="highway" v="unclassified"/>
  </way>
  <way id="28778493" version="2" timestamp="2009-03-14T06:43:20Z" uid="12188" user="Babis" changeset="807354">
    <nd ref="316438754"/>
    <nd ref="316438769"/>
    <nd ref="316438770"/>
    <nd ref="316438771"/>
    <nd ref="316438772"/>
    <nd ref="316438773"/>
    <nd ref="316438774"/>
    <nd ref="316438775"/>
    <nd ref="316438776"/>
    <nd ref="316438777"/>
    <nd ref="316438778"/>
    <nd ref="316438779"/>
    <nd ref="316438780"/>
    <nd ref="316438781"/>
    <nd ref="316438782"/>
    <nd ref="360144506"/>
    <nd ref="360144507"/>
    <nd ref="360144509"/>
    <nd ref="360144510"/>
    <nd ref="360144511"/>
    <nd ref="360144512"/>
    <nd ref="360144513"/>
    <nd ref="360144515"/>
    <nd ref="360144516"/>
    <nd ref="360144518"/>
    <nd ref="360144519"/>
    <nd ref="360144520"/>
    <nd ref="269612951"/>
    <tag k="created_by" v="Potlatch 0.10f"/>
    <tag k="highway" v="unclassified"/>
  </way>
  <way id="28778493" version="3" timestamp="2009-03-14T06:43:34Z" uid="12188" user="Babis" changeset="807354">
    <nd ref="316438754"/>
    <nd ref="316438769"/>
    <nd ref="316438770"/>
    <nd ref="316438771"/>
    <nd ref="316438772"/>
    <nd ref="316438773"/>
    <nd ref="316438774"/>
    <nd ref="316438775"/>
    <nd ref="316438776"/>
    <nd ref="316438777"/>
    <nd ref="316438778"/>
    <nd ref="316438779"/>
    <nd ref="316438780"/>
    <nd ref="316438781"/>
    <nd ref="316438782"/>
    <nd ref="360144506"/>
    <nd ref="360144507"/>
    <nd ref="360144509"/>
    <nd ref="360144510"/>
    <nd ref="360144511"/>
    <nd ref="360144512"/>
    <nd ref="360144513"/>
    <nd ref="360144515"/>
    <nd ref="360144516"/>
    <nd ref="360144518"/>
    <nd ref="360144519"/>
    <nd ref="360144520"/>
    <nd ref="269612951"/>
    <tag k="created_by" v="Potlatch 0.10f"/>
    <tag k="highway" v="residential"/>
  </way>
  <way id="28778505" version="5" timestamp="2010-05-01T12:58:30Z" uid="151899" user="Bikeman2000" changeset="4574675">
    <nd ref="47947753"/>
    <nd ref="715340486"/>
    <nd ref="715340489"/>
    <nd ref="715340493"/>
    <nd ref="715340496"/>
    <nd ref="715340498"/>
    <nd ref="253392824"/>
    <tag k="highway" v="primary"/>
    <tag k="name" v="Brehmstraße"/>
    <tag k="oneway" v="yes"/>
  </way>
  <way id="28778505" version="6" timestamp="2010-05-02T12:11:13Z" uid="151899" user="Bikeman2000" changeset="4584250">
    <nd ref="47947753"/>
    <nd ref="253392824"/>
    <tag k="highway" v="primary"/>
    <tag k="name" v="Brehmstraße"/>
    <tag k="oneway" v="yes"/>
  </way>
  <way id="28778506" version="4" timestamp="2010-05-01T20:36:11Z" uid="151899" user="Bikeman2000" changeset="4579158">
    <nd ref="253798034"/>
    <nd ref="409828679"/>
    <nd ref="193091183"/>
    <nd ref="253802105"/>
    <nd ref="193092234"/>
    <nd ref="715855568"/>
    <nd ref="5270122"/>
    <tag k="cycleway" v="track"/>
    <tag k="foot" v="yes"/>
    <tag k="highway" v="primary"/>
    <tag k="maxspeed" v="60"/>
    <tag k="name" v="Südring"/>
    <tag k="oneway" v="yes"/>
    <tag k="ref" v="B 326"/>
  </way>
  <way id="28778547" version="2" timestamp="2008-12-14T11:38:52Z" uid="6975" user="ulfl" changeset="366940">
    <nd ref="30061016"/>
    <nd ref="30061017"/>
    <tag k="waterway" v="dam"/>
  </way>
  <way id="28778705" version="3" timestamp="2009-04-12T19:04:00Z" uid="12188" user="Babis" changeset="447991">
    <nd ref="43417925"/>
    <nd ref="186360877"/>
    <nd ref="316440613"/>
    <nd ref="316440627"/>
    <tag k="admin_level" v="8"/>
    <tag k="boundary" v="administrative"/>
    <tag k="created_by" v="Potlatch 0.10f"/>
    <tag k="highway" v="residential"/>
  </way>
  <way id="28778768" version="3" timestamp="2009-12-23T10:33:19Z" uid="74027" user="katzlbt" changeset="3433401">
    <nd ref="316441824"/>
    <nd ref="316441825"/>
    <nd ref="316441826"/>
    <nd ref="316441827"/>
    <nd ref="316441828"/>
    <nd ref="316441829"/>
    <nd ref="316441831"/>
    <nd ref="316441833"/>
    <nd ref="316441835"/>
    <nd ref="316441836"/>
    <nd ref="316441838"/>
    <nd ref="316441840"/>
    <nd ref="316441841"/>
    <nd ref="316441843"/>
    <nd ref="316441845"/>
    <nd ref="316441846"/>
    <nd ref="316441848"/>
    <nd ref="316441849"/>
    <nd ref="316441851"/>
    <nd ref="316441852"/>
    <nd ref="316441854"/>
    <nd ref="316441855"/>
    <nd ref="316441857"/>
    <nd ref="321676871"/>
    <nd ref="316441858"/>
    <nd ref="316441860"/>
    <nd ref="316441862"/>
    <nd ref="316441863"/>
    <nd ref="316441865"/>
    <nd ref="316441866"/>
    <nd ref="316441868"/>
    <nd ref="316441869"/>
    <nd ref="316441871"/>
    <nd ref="316441872"/>
    <nd ref="316441874"/>
    <nd ref="316441875"/>
    <nd ref="316441877"/>
    <nd ref="316441878"/>
    <nd ref="316441880"/>
    <nd ref="316441881"/>
    <nd ref="316441883"/>
    <nd ref="316441884"/>
    <nd ref="316441886"/>
    <nd ref="316441887"/>
    <nd ref="316441889"/>
    <nd ref="316441890"/>
    <nd ref="316441892"/>
    <nd ref="316441893"/>
    <nd ref="316441895"/>
    <nd ref="316441896"/>
    <nd ref="316441899"/>
    <nd ref="316441900"/>
    <nd ref="316441902"/>
    <nd ref="316441903"/>
    <nd ref="316441905"/>
    <nd ref="316441906"/>
    <nd ref="316441908"/>
    <nd ref="316441910"/>
    <nd ref="316441911"/>
    <nd ref="316441913"/>
    <nd ref="316441914"/>
    <nd ref="316441916"/>
    <nd ref="316441917"/>
    <nd ref="316441919"/>
    <nd ref="316441920"/>
    <nd ref="316441921"/>
    <nd ref="316441922"/>
    <nd ref="316441923"/>
    <nd ref="316441924"/>
    <nd ref="316441925"/>
    <nd ref="316441926"/>
    <nd ref="316441927"/>
    <nd ref="316441928"/>
    <nd ref="316441929"/>
    <nd ref="316441930"/>
    <nd ref="316441931"/>
    <nd ref="316441933"/>
    <nd ref="316441934"/>
    <nd ref="316441935"/>
    <nd ref="316441936"/>
    <nd ref="316441937"/>
    <nd ref="316441938"/>
    <nd ref="316441939"/>
    <nd ref="316441940"/>
    <nd ref="316441941"/>
    <nd ref="316441942"/>
    <nd ref="316441943"/>
    <nd ref="316441944"/>
    <nd ref="316441945"/>
    <nd ref="316441946"/>
    <nd ref="316441947"/>
    <nd ref="316441948"/>
    <nd ref="316441949"/>
    <nd ref="316441950"/>
    <nd ref="316441951"/>
    <nd ref="316441824"/>
    <tag k="natural" v="wood"/>
  </way>
  <way id="28778801" version="4" timestamp="2009-04-12T17:26:09Z" uid="12188" user="Babis" changeset="447991">
    <nd ref="316442272"/>
    <nd ref="316442273"/>
    <nd ref="316442274"/>
    <nd ref="270602993"/>
    <nd ref="316442275"/>
    <nd ref="316442276"/>
    <nd ref="316442277"/>
    <nd ref="373378127"/>
    <nd ref="316442278"/>
    <nd ref="316442279"/>
    <nd ref="316442280"/>
    <nd ref="316442281"/>
    <nd ref="316442282"/>
    <nd ref="316442283"/>
    <nd ref="316442284"/>
    <nd ref="316442285"/>
    <nd ref="316442286"/>
    <nd ref="316442287"/>
    <nd ref="316442288"/>
    <nd ref="316444119"/>
    <tag k="created_by" v="Potlatch 0.10f"/>
    <tag k="highway" v="residential"/>
  </way>
  <way id="28778801" version="5" timestamp="2009-04-13T09:07:05Z" uid="12188" user="Babis" changeset="484194">
    <nd ref="316442272"/>
    <nd ref="316442273"/>
    <nd ref="316442274"/>
    <nd ref="270602993"/>
    <nd ref="316442275"/>
    <nd ref="316442276"/>
    <nd ref="316442277"/>
    <nd ref="373378127"/>
    <nd ref="316442278"/>
    <tag k="created_by" v="Potlatch 0.10f"/>
    <tag k="highway" v="residential"/>
  </way>
  <way id="28778801" version="6" timestamp="2009-04-13T09:08:03Z" uid="12188" user="Babis" changeset="484194">
    <nd ref="316442272"/>
    <nd ref="316442273"/>
    <nd ref="316442274"/>
    <nd ref="270602993"/>
    <nd ref="316442275"/>
    <nd ref="316442276"/>
    <nd ref="316442277"/>
    <nd ref="373378127"/>
    <nd ref="316442278"/>
    <tag k="created_by" v="Potlatch 0.10f"/>
    <tag k="highway" v="residential"/>
    <tag k="name" v="Ανθηρού"/>
    <tag k="name:en" v="Anthirou"/>
    <tag k="oneway" v="yes"/>
  </way>
  <way id="28778804" version="4" timestamp="2009-03-25T07:27:11Z" uid="12188" user="Babis" changeset="855585">
    <nd ref="270602989"/>
    <nd ref="316442300"/>
    <nd ref="316442301"/>
    <nd ref="316442302"/>
    <nd ref="270603755"/>
    <nd ref="316442323"/>
    <nd ref="316442303"/>
    <nd ref="316442278"/>
    <tag k="created_by" v="Potlatch 0.10f"/>
    <tag k="highway" v="residential"/>
    <tag k="name" v="Θεοτόκη"/>
    <tag k="name:en" v="Theotoki"/>
  </way>
  <way id="28778810" version="2" timestamp="2009-04-13T09:11:41Z" uid="12188" user="Babis" changeset="484194">
    <nd ref="316442303"/>
    <nd ref="316442351"/>
    <nd ref="316442352"/>
    <nd ref="316442353"/>
    <nd ref="316442354"/>
    <nd ref="316442355"/>
    <nd ref="316442356"/>
    <nd ref="316442357"/>
    <nd ref="316442358"/>
    <nd ref="316442359"/>
    <nd ref="270603837"/>
    <nd ref="270603696"/>
    <tag k="created_by" v="Potlatch 0.10f"/>
    <tag k="highway" v="residential"/>
    <tag k="name" v="Μαβίλη"/>
    <tag k="name:en" v="Mavili"/>
  </way>
  <way id="28778815" version="2" timestamp="2009-06-08T08:03:53Z" uid="12188" user="Babis" changeset="1456112">
    <nd ref="316442351"/>
    <nd ref="316442402"/>
    <tag k="created_by" v="Potlatch 0.10f"/>
    <tag k="highway" v="residential"/>
    <tag k="name" v="Παπακώστα"/>
    <tag k="name:en" v="Papakosta"/>
  </way>
  <way id="28778824" version="2" timestamp="2009-06-08T08:01:43Z" uid="12188" user="Babis" changeset="1456112">
    <nd ref="316442466"/>
    <nd ref="316442467"/>
    <nd ref="316442469"/>
    <nd ref="316442470"/>
    <nd ref="316442471"/>
    <nd ref="316442402"/>
    <tag k="created_by" v="Potlatch 0.10f"/>
    <tag k="highway" v="residential"/>
  </way>
  <way id="28778824" version="3" timestamp="2009-06-08T08:03:21Z" uid="12188" user="Babis" changeset="1456112">
    <nd ref="316442466"/>
    <nd ref="316442467"/>
    <nd ref="316442469"/>
    <nd ref="316442470"/>
    <nd ref="316442471"/>
    <nd ref="316442402"/>
    <tag k="created_by" v="Potlatch 0.10f"/>
    <tag k="highway" v="residential"/>
    <tag k="name" v="Δροσίνη"/>
    <tag k="name:en" v="Drosini"/>
  </way>
  <way id="28778832" version="1" timestamp="2008-12-03T15:27:03Z" uid="17602" user="B10xyz" changeset="73579">
    <nd ref="316442417"/>
    <nd ref="316442613"/>
    <tag k="created_by" v="Potlatch 0.10f"/>
    <tag k="highway" v="footway"/>
  </way>
  <way id="28778832" version="2" timestamp="2009-03-25T23:42:42Z" uid="17602" user="B10xyz" changeset="861172">
    <nd ref="316442417"/>
    <nd ref="316442613"/>
    <tag k="highway" v="footway"/>
  </way>
  <way id="28778832" version="3" timestamp="2009-11-17T18:12:34Z" uid="17602" user="B10xyz" changeset="3143268">
    <nd ref="316442417"/>
    <nd ref="566307647"/>
    <nd ref="566307608"/>
    <nd ref="316442613"/>
    <tag k="highway" v="footway"/>
    <tag k="visible_name" v="CORTE SEMENZI"/>
  </way>
  <way id="28778833" version="4" timestamp="2009-06-08T07:57:29Z" uid="12188" user="Babis" changeset="1456112">
    <nd ref="316442283"/>
    <nd ref="316442614"/>
    <nd ref="316442615"/>
    <nd ref="316442616"/>
    <nd ref="316442617"/>
    <nd ref="316442466"/>
    <nd ref="316442618"/>
    <nd ref="316442619"/>
    <nd ref="316442620"/>
    <nd ref="316442479"/>
    <nd ref="316442621"/>
    <nd ref="316442622"/>
    <nd ref="316442623"/>
    <nd ref="316442624"/>
    <nd ref="316442625"/>
    <nd ref="316442626"/>
    <nd ref="316442627"/>
    <tag k="created_by" v="Potlatch 0.10f"/>
    <tag k="highway" v="residential"/>
  </way>
  <way id="28778833" version="5" timestamp="2009-06-08T07:58:23Z" uid="12188" user="Babis" changeset="1456112">
    <nd ref="316442283"/>
    <nd ref="316442614"/>
    <nd ref="316442615"/>
    <nd ref="316442616"/>
    <nd ref="316442617"/>
    <nd ref="316442466"/>
    <nd ref="316442618"/>
    <nd ref="316442619"/>
    <nd ref="316442620"/>
    <nd ref="316442479"/>
    <nd ref="316442621"/>
    <nd ref="316442622"/>
    <nd ref="316442623"/>
    <nd ref="316442624"/>
    <nd ref="316442625"/>
    <nd ref="316442626"/>
    <nd ref="316442627"/>
    <tag k="created_by" v="Potlatch 0.10f"/>
    <tag k="highway" v="residential"/>
    <tag k="name" v="Αντισμηνάρχου Πουλόπουλου"/>
    <tag k="name:en" v="Antrisminarxou Poulopoulou"/>
  </way>
  <way id="28778837" version="2" timestamp="2009-06-08T08:00:36Z" uid="12188" user="Babis" changeset="1456112">
    <nd ref="270603696"/>
    <nd ref="316442639"/>
    <nd ref="316442640"/>
    <nd ref="316442625"/>
    <tag k="created_by" v="Potlatch 0.10f"/>
    <tag k="highway" v="residential"/>
    <tag k="name" v="Τσουκά"/>
    <tag k="name:en" v="Tsouka"/>
  </way>
  <way id="28778838" version="1" timestamp="2008-12-03T15:27:29Z" uid="17602" user="B10xyz" changeset="73579">
    <nd ref="316442638"/>
    <nd ref="316442641"/>
    <tag k="created_by" v="Potlatch 0.10f"/>
    <tag k="source" v="Yahoo"/>
  </way>
  <way id="28778838" version="2" timestamp="2008-12-03T15:27:44Z" uid="17602" user="B10xyz" changeset="73579">
    <nd ref="316442638"/>
    <nd ref="316442641"/>
    <tag k="created_by" v="Potlatch 0.10f"/>
    <tag k="highway" v="footway"/>
  </way>
  <way id="28778838" version="3" timestamp="2009-03-25T23:42:39Z" uid="17602" user="B10xyz" changeset="861172">
    <nd ref="316442638"/>
    <nd ref="316442641"/>
    <tag k="highway" v="footway"/>
    <tag k="name" v="CALLE FRA&apos; PIETRO D&apos; ASSISI"/>
  </way>
  <way id="28778838" version="4" timestamp="2009-07-10T23:21:47Z" uid="17602" user="B10xyz" changeset="1793392">
    <nd ref="316442638"/>
    <nd ref="316442641"/>
    <tag k="highway" v="footway"/>
    <tag k="visible_name" v="CALLE FRA&apos; PIETRO D&apos; ASSISI"/>
  </way>
  <way id="28778840" version="2" timestamp="2010-03-28T18:15:02Z" uid="12188" user="Babis" changeset="4260035">
    <nd ref="270603837"/>
    <nd ref="316442872"/>
    <nd ref="316442873"/>
    <nd ref="316442876"/>
    <nd ref="316442621"/>
    <tag k="highway" v="residential"/>
    <tag k="name" v="Επισμηναγου Μόκα"/>
  </way>
  <way id="28778842" version="3" timestamp="2009-06-08T08:01:13Z" uid="12188" user="Babis" changeset="1456112">
    <nd ref="270603696"/>
    <nd ref="316443098"/>
    <nd ref="316443100"/>
    <nd ref="316443101"/>
    <nd ref="316443102"/>
    <nd ref="36438223"/>
    <tag k="created_by" v="Potlatch 0.10f"/>
    <tag k="highway" v="residential"/>
    <tag k="name" v="Αδελφών Διδασκάλου"/>
    <tag k="name:en" v="Adelfon Didaskalou"/>
  </way>
  <way id="28778843" version="2" timestamp="2009-06-08T07:57:24Z" uid="12188" user="Babis" changeset="1456112">
    <nd ref="316443102"/>
    <nd ref="316442627"/>
    <tag k="created_by" v="Potlatch 0.10f"/>
    <tag k="highway" v="residential"/>
    <tag k="name" v="Επισμηναγού Μιχαηλίδη"/>
    <tag k="name:en" v="Episminagou Mihailidi"/>
  </way>
  <way id="28778845" version="2" timestamp="2009-06-08T07:59:55Z" uid="12188" user="Babis" changeset="1456112">
    <nd ref="316443101"/>
    <nd ref="316442626"/>
    <tag k="created_by" v="Potlatch 0.10f"/>
    <tag k="highway" v="residential"/>
    <tag k="name" v="Ικάρων"/>
    <tag k="name:en" v="Ikaron"/>
  </way>
  <way id="28778861" version="2" timestamp="2010-03-28T18:18:50Z" uid="12188" user="Babis" changeset="4260035">
    <nd ref="316443564"/>
    <nd ref="316442623"/>
    <tag k="highway" v="residential"/>
    <tag k="name" v="Αγγ.Σικελιανού"/>
    <tag k="name:en" v="Agg.Sikelianou"/>
  </way>
  <way id="28778865" version="2" timestamp="2010-03-28T18:20:25Z" uid="12188" user="Babis" changeset="4260035">
    <nd ref="316443430"/>
    <nd ref="316442625"/>
    <tag k="highway" v="residential"/>
    <tag k="name" v="Αεροπόρου Σταυραετού"/>
    <tag k="name:en" v="Aeroporou Stavraetou"/>
  </way>
  <way id="28778871" version="3" timestamp="2010-06-29T19:15:11Z" uid="74617" user="JohnSmith" changeset="5108182">
    <nd ref="316443706"/>
    <nd ref="316443707"/>
    <nd ref="316443708"/>
    <nd ref="316443709"/>
    <nd ref="316443706"/>
    <tag k="fixme" v="sport=football is ambiguous, see http://wiki.osm.org/wiki/Football for more details"/>
    <tag k="leisure" v="pitch"/>
    <tag k="sport" v="football"/>
  </way>
  <way id="28778882" version="2" timestamp="2009-06-08T07:41:16Z" uid="12188" user="Babis" changeset="1455993">
    <nd ref="316443761"/>
    <nd ref="316443843"/>
    <nd ref="316443931"/>
    <nd ref="316443933"/>
    <nd ref="316443934"/>
    <tag k="created_by" v="Potlatch 0.10f"/>
    <tag k="highway" v="residential"/>
    <tag k="name" v="Παπαναστασίου Αλεξάνδρου"/>
    <tag k="name:en" v="Papanastasiou Alexandrou"/>
  </way>
  <way id="28778884" version="3" timestamp="2009-06-08T07:39:58Z" uid="12188" user="Babis" changeset="1455993">
    <nd ref="316442286"/>
    <nd ref="316443940"/>
    <nd ref="316443941"/>
    <nd ref="316443942"/>
    <nd ref="316443934"/>
    <nd ref="316443943"/>
    <nd ref="316444187"/>
    <nd ref="316443944"/>
    <nd ref="316443945"/>
    <nd ref="316443946"/>
    <tag k="created_by" v="Potlatch 0.10f"/>
    <tag k="highway" v="residential"/>
  </way>
  <way id="28778884" version="4" timestamp="2009-06-08T07:40:23Z" uid="12188" user="Babis" changeset="1455993">
    <nd ref="316442286"/>
    <nd ref="316443940"/>
    <nd ref="316443941"/>
    <nd ref="316443942"/>
    <nd ref="316443934"/>
    <nd ref="316443943"/>
    <nd ref="316444187"/>
    <nd ref="316443944"/>
    <nd ref="316443945"/>
    <nd ref="316443946"/>
    <tag k="created_by" v="Potlatch 0.10f"/>
    <tag k="highway" v="residential"/>
    <tag k="name" v="Γρανικού"/>
    <tag k="name:en" v="Granikou"/>
  </way>
  <way id="28778887" version="5" timestamp="2009-06-08T07:37:23Z" uid="12188" user="Babis" changeset="1455993">
    <nd ref="316443931"/>
    <nd ref="316443951"/>
    <nd ref="316443941"/>
    <tag k="created_by" v="Potlatch 0.10f"/>
    <tag k="highway" v="residential"/>
  </way>
  <way id="28778887" version="6" timestamp="2009-06-08T07:39:03Z" uid="12188" user="Babis" changeset="1455993">
    <nd ref="316443931"/>
    <nd ref="316443951"/>
    <nd ref="316443941"/>
    <tag k="created_by" v="Potlatch 0.10f"/>
    <tag k="highway" v="residential"/>
    <tag k="name" v="Ζακλίν Ρομιγύ"/>
    <tag k="name:en" v="Zaklin Romigy"/>
  </way>
  <way id="28778893" version="2" timestamp="2009-06-08T07:39:45Z" uid="12188" user="Babis" changeset="1455993">
    <nd ref="316442287"/>
    <nd ref="316444029"/>
    <tag k="created_by" v="Potlatch 0.10f"/>
    <tag k="highway" v="residential"/>
    <tag k="name" v="Ξάνθης"/>
    <tag k="name:en" v="Xanthis"/>
  </way>
  <way id="28778901" version="4" timestamp="2009-06-08T07:30:03Z" uid="12188" user="Babis" changeset="1455929">
    <nd ref="316444119"/>
    <nd ref="316444277"/>
    <nd ref="316444275"/>
    <nd ref="316444132"/>
    <nd ref="270599100"/>
    <tag k="created_by" v="Potlatch 0.10f"/>
    <tag k="highway" v="residential"/>
    <tag k="name" v="Παπάγου Αλεξάνδρου"/>
    <tag k="name:en" v="Papagou Alexandrou"/>
  </way>
  <way id="28778904" version="3" timestamp="2010-04-07T13:11:19Z" uid="20587" user="balrog-kun" changeset="4353646">
    <nd ref="316444201"/>
    <nd ref="82030673"/>
    <nd ref="82030675"/>
    <nd ref="81697819"/>
    <tag k="created_by" v="Potlatch 0.10f"/>
    <tag k="highway" v="residential"/>
    <tag k="name" v="West Crosby Road"/>
    <tag k="tiger:cfcc" v="A41"/>
    <tag k="tiger:county" v="Dallas, TX"/>
    <tag k="tiger:name_base" v="Crosby"/>
    <tag k="tiger:name_direction_prefix" v="W"/>
    <tag k="tiger:name_type" v="Rd"/>
    <tag k="tiger:reviewed" v="no"/>
    <tag k="tiger:separated" v="no"/>
    <tag k="tiger:source" v="tiger_import_dch_v0.6_20070829"/>
    <tag k="tiger:tlid" v="102995292:103209280:103209281:103209290:103209291:102996824:102996825:102888665:102888683:102888743:102888684:102888606:103209310:103209311:102995279"/>
    <tag k="tiger:zip_left" v="75006"/>
    <tag k="tiger:zip_right" v="75006"/>
  </way>
  <way id="28778910" version="2" timestamp="2009-06-08T07:52:29Z" uid="12188" user="Babis" changeset="1456112">
    <nd ref="316443942"/>
    <nd ref="316444202"/>
    <tag k="created_by" v="Potlatch 0.10f"/>
    <tag k="highway" v="residential"/>
    <tag k="name" v="Κακρίδη"/>
    <tag k="name:en" v="Kakridi"/>
  </way>
  <way id="28778913" version="2" timestamp="2009-06-08T07:54:10Z" uid="12188" user="Babis" changeset="1456112">
    <nd ref="269613007"/>
    <nd ref="316444266"/>
    <nd ref="316444267"/>
    <nd ref="316444268"/>
    <nd ref="316443944"/>
    <tag k="created_by" v="Potlatch 0.10f"/>
    <tag k="highway" v="residential"/>
    <tag k="name" v="Απόλλωνος"/>
    <tag k="name:en" v="Apollonos"/>
  </way>
  <way id="28778926" version="2" timestamp="2009-04-16T11:25:17Z" uid="12188" user="Babis" changeset="578233">
    <nd ref="316444347"/>
    <nd ref="316444348"/>
    <nd ref="316444279"/>
    <nd ref="316444276"/>
    <nd ref="316444351"/>
    <nd ref="270467037"/>
    <tag k="created_by" v="Potlatch 0.10f"/>
    <tag k="highway" v="residential"/>
    <tag k="name" v="Αρκαδίου"/>
    <tag k="name:en" v="Arkadiou"/>
  </way>
  <way id="28778931" version="3" timestamp="2009-06-08T08:15:23Z" uid="12188" user="Babis" changeset="1456233">
    <nd ref="417288470"/>
    <nd ref="316444382"/>
    <nd ref="316444498"/>
    <nd ref="36231621"/>
    <nd ref="316444383"/>
    <nd ref="250928540"/>
    <tag k="created_by" v="Potlatch 0.10f"/>
    <tag k="highway" v="residential"/>
  </way>
  <way id="28778931" version="4" timestamp="2009-06-08T08:16:25Z" uid="12188" user="Babis" changeset="1456233">
    <nd ref="417288470"/>
    <nd ref="316444382"/>
    <nd ref="316444498"/>
    <nd ref="36231621"/>
    <nd ref="316444383"/>
    <nd ref="250928540"/>
    <tag k="created_by" v="Potlatch 0.10f"/>
    <tag k="highway" v="residential"/>
    <tag k="name" v="Θεμιστοκλέους"/>
    <tag k="name:en" v="Themistokleous"/>
  </way>
  <way id="28778931" version="5" timestamp="2009-06-08T08:18:45Z" uid="12188" user="Babis" changeset="1456233">
    <nd ref="417288470"/>
    <nd ref="316444382"/>
    <nd ref="316444498"/>
    <nd ref="417289855"/>
    <nd ref="36231621"/>
    <nd ref="316444383"/>
    <nd ref="250928540"/>
    <tag k="created_by" v="Potlatch 0.10f"/>
    <tag k="highway" v="residential"/>
    <tag k="name" v="Θεμιστοκλέους"/>
    <tag k="name:en" v="Themistokleous"/>
  </way>
  <way id="28778931" version="6" timestamp="2009-10-03T08:41:15Z" uid="12188" user="Babis" changeset="2720585">
    <nd ref="417288470"/>
    <nd ref="518494681"/>
    <nd ref="316444382"/>
    <nd ref="316444498"/>
    <nd ref="417289855"/>
    <nd ref="36231621"/>
    <nd ref="316444383"/>
    <nd ref="250928540"/>
    <tag k="highway" v="residential"/>
    <tag k="name" v="Θεμιστοκλέους"/>
    <tag k="name:en" v="Themistokleous"/>
  </way>
  <way id="28778931" version="8" timestamp="2010-04-16T12:52:16Z" uid="12188" user="Babis" changeset="4438550">
    <nd ref="417288470"/>
    <nd ref="518494681"/>
    <nd ref="316444382"/>
    <nd ref="316444498"/>
    <nd ref="417289855"/>
    <nd ref="36231621"/>
    <nd ref="565471098"/>
    <nd ref="698623964"/>
    <nd ref="316444383"/>
    <nd ref="250928540"/>
    <tag k="highway" v="residential"/>
    <tag k="name" v="Θεμιστοκλέους"/>
    <tag k="name:en" v="Themistokleous"/>
  </way>
  <way id="28778931" version="9" timestamp="2010-04-16T12:55:10Z" uid="12188" user="Babis" changeset="4438550">
    <nd ref="417288470"/>
    <nd ref="518494681"/>
    <nd ref="316444382"/>
    <nd ref="316444498"/>
    <nd ref="417289855"/>
    <nd ref="36231621"/>
    <nd ref="698625981"/>
    <nd ref="565471098"/>
    <nd ref="698623964"/>
    <nd ref="316444383"/>
    <nd ref="250928540"/>
    <tag k="highway" v="residential"/>
    <tag k="name" v="Θεμιστοκλέους"/>
    <tag k="name:en" v="Themistokleous"/>
  </way>
  <way id="28778933" version="2" timestamp="2009-04-12T15:44:20Z" uid="12188" user="Babis" changeset="439595">
    <nd ref="316444382"/>
    <nd ref="250928771"/>
    <nd ref="316444384"/>
    <nd ref="316444385"/>
    <nd ref="278345734"/>
    <nd ref="278345735"/>
    <nd ref="278345736"/>
    <nd ref="373317502"/>
    <nd ref="278345737"/>
    <nd ref="270597227"/>
    <tag k="created_by" v="Potlatch 0.10f"/>
    <tag k="highway" v="residential"/>
    <tag k="name" v="Υψηλάντου"/>
    <tag k="name:en" v="Ipsilantou"/>
    <tag k="oneway" v="yes"/>
  </way>
  <way id="28778933" version="3" timestamp="2009-04-12T15:47:36Z" uid="12188" user="Babis" changeset="439595">
    <nd ref="316444382"/>
    <nd ref="250928771"/>
    <nd ref="316444384"/>
    <nd ref="316444385"/>
    <nd ref="278345734"/>
    <nd ref="373321267"/>
    <nd ref="278345735"/>
    <nd ref="278345736"/>
    <nd ref="373317502"/>
    <nd ref="278345737"/>
    <nd ref="270597227"/>
    <tag k="created_by" v="Potlatch 0.10f"/>
    <tag k="highway" v="residential"/>
    <tag k="name" v="Υψηλάντου"/>
    <tag k="name:en" v="Ipsilantou"/>
    <tag k="oneway" v="yes"/>
  </way>
  <way id="28778933" version="4" timestamp="2009-04-12T15:48:38Z" uid="12188" user="Babis" changeset="439595">
    <nd ref="316444382"/>
    <nd ref="250928771"/>
    <nd ref="316444384"/>
    <nd ref="316444385"/>
    <nd ref="278345734"/>
    <nd ref="373321913"/>
    <nd ref="373321267"/>
    <nd ref="278345735"/>
    <nd ref="278345736"/>
    <nd ref="373317502"/>
    <nd ref="278345737"/>
    <nd ref="270597227"/>
    <tag k="created_by" v="Potlatch 0.10f"/>
    <tag k="highway" v="residential"/>
    <tag k="name" v="Υψηλάντου"/>
    <tag k="name:en" v="Ipsilantou"/>
    <tag k="oneway" v="yes"/>
  </way>
  <way id="28778933" version="5" timestamp="2009-04-12T17:20:49Z" uid="12188" user="Babis" changeset="447991">
    <nd ref="316444382"/>
    <nd ref="250928771"/>
    <nd ref="316444384"/>
    <nd ref="316444385"/>
    <nd ref="373376104"/>
    <nd ref="278345734"/>
    <nd ref="373321913"/>
    <nd ref="373321267"/>
    <nd ref="278345735"/>
    <nd ref="278345736"/>
    <nd ref="373317502"/>
    <nd ref="278345737"/>
    <nd ref="270597227"/>
    <tag k="created_by" v="Potlatch 0.10f"/>
    <tag k="highway" v="residential"/>
    <tag k="name" v="Υψηλάντου"/>
    <tag k="name:en" v="Ipsilantou"/>
    <tag k="oneway" v="yes"/>
  </way>
  <way id="28778933" version="6" timestamp="2009-04-12T17:21:40Z" uid="12188" user="Babis" changeset="447991">
    <nd ref="316444382"/>
    <nd ref="250928771"/>
    <nd ref="316444384"/>
    <nd ref="373376375"/>
    <nd ref="316444385"/>
    <nd ref="373376104"/>
    <nd ref="278345734"/>
    <nd ref="373321913"/>
    <nd ref="373321267"/>
    <nd ref="278345735"/>
    <nd ref="278345736"/>
    <nd ref="373317502"/>
    <nd ref="278345737"/>
    <nd ref="270597227"/>
    <tag k="created_by" v="Potlatch 0.10f"/>
    <tag k="highway" v="residential"/>
    <tag k="name" v="Υψηλάντου"/>
    <tag k="name:en" v="Ipsilantou"/>
    <tag k="oneway" v="yes"/>
  </way>
  <way id="28778933" version="7" timestamp="2009-04-12T17:22:28Z" uid="12188" user="Babis" changeset="447991">
    <nd ref="316444382"/>
    <nd ref="250928771"/>
    <nd ref="373376645"/>
    <nd ref="316444384"/>
    <nd ref="373376375"/>
    <nd ref="316444385"/>
    <nd ref="373376104"/>
    <nd ref="278345734"/>
    <nd ref="373321913"/>
    <nd ref="373321267"/>
    <nd ref="278345735"/>
    <nd ref="278345736"/>
    <nd ref="373317502"/>
    <nd ref="278345737"/>
    <nd ref="270597227"/>
    <tag k="created_by" v="Potlatch 0.10f"/>
    <tag k="highway" v="residential"/>
    <tag k="name" v="Υψηλάντου"/>
    <tag k="name:en" v="Ipsilantou"/>
    <tag k="oneway" v="yes"/>
  </way>
  <way id="28778933" version="8" timestamp="2009-04-12T17:25:49Z" uid="12188" user="Babis" changeset="447991">
    <nd ref="316444382"/>
    <nd ref="250928771"/>
    <nd ref="373378034"/>
    <nd ref="373376645"/>
    <nd ref="316444384"/>
    <nd ref="373376375"/>
    <nd ref="316444385"/>
    <nd ref="373376104"/>
    <nd ref="278345734"/>
    <nd ref="373321913"/>
    <nd ref="373321267"/>
    <nd ref="278345735"/>
    <nd ref="278345736"/>
    <nd ref="373317502"/>
    <nd ref="278345737"/>
    <nd ref="270597227"/>
    <tag k="created_by" v="Potlatch 0.10f"/>
    <tag k="highway" v="residential"/>
    <tag k="name" v="Υψηλάντου"/>
    <tag k="name:en" v="Ipsilantou"/>
    <tag k="oneway" v="yes"/>
  </way>
  <way id="28778933" version="9" timestamp="2009-04-12T17:29:01Z" uid="12188" user="Babis" changeset="447991">
    <nd ref="316444382"/>
    <nd ref="250928771"/>
    <nd ref="373378034"/>
    <nd ref="373376645"/>
    <nd ref="316444384"/>
    <nd ref="373376375"/>
    <nd ref="316444385"/>
    <nd ref="373376104"/>
    <nd ref="278345734"/>
    <nd ref="373321913"/>
    <nd ref="373321267"/>
    <nd ref="278345735"/>
    <nd ref="278345736"/>
    <nd ref="373317502"/>
    <nd ref="278345737"/>
    <tag k="created_by" v="Potlatch 0.10f"/>
    <tag k="highway" v="residential"/>
    <tag k="name" v="Υψηλάντου"/>
    <tag k="name:en" v="Ipsilantou"/>
    <tag k="oneway" v="yes"/>
  </way>
  <way id="28778933" version="10" timestamp="2009-04-12T17:30:23Z" uid="12188" user="Babis" changeset="447991">
    <nd ref="316444382"/>
    <nd ref="250928771"/>
    <nd ref="373378034"/>
    <nd ref="373376645"/>
    <nd ref="316444384"/>
    <nd ref="373376375"/>
    <nd ref="316444385"/>
    <nd ref="373376104"/>
    <nd ref="278345734"/>
    <nd ref="373321913"/>
    <nd ref="373321267"/>
    <nd ref="278345735"/>
    <nd ref="278345736"/>
    <nd ref="373317502"/>
    <nd ref="278345737"/>
    <nd ref="373379917"/>
    <nd ref="373379789"/>
    <tag k="created_by" v="Potlatch 0.10f"/>
    <tag k="highway" v="residential"/>
    <tag k="name" v="Υψηλάντου"/>
    <tag k="name:en" v="Ipsilantou"/>
    <tag k="oneway" v="yes"/>
  </way>
  <way id="28778933" version="11" timestamp="2009-04-12T17:32:26Z" uid="12188" user="Babis" changeset="447991">
    <nd ref="316444382"/>
    <nd ref="250928771"/>
    <nd ref="373378034"/>
    <nd ref="373376645"/>
    <nd ref="316444384"/>
    <nd ref="373376375"/>
    <nd ref="316444385"/>
    <nd ref="373376104"/>
    <nd ref="278345734"/>
    <nd ref="373321913"/>
    <nd ref="373321267"/>
    <nd ref="278345735"/>
    <nd ref="278345736"/>
    <nd ref="373317502"/>
    <nd ref="373381267"/>
    <nd ref="373381275"/>
    <nd ref="278345737"/>
    <nd ref="373379917"/>
    <nd ref="373379789"/>
    <tag k="created_by" v="Potlatch 0.10f"/>
    <tag k="highway" v="residential"/>
    <tag k="name" v="Υψηλάντου"/>
    <tag k="name:en" v="Ipsilantou"/>
    <tag k="oneway" v="yes"/>
  </way>
  <way id="28778933" version="12" timestamp="2009-04-12T17:33:08Z" uid="12188" user="Babis" changeset="447991">
    <nd ref="316444382"/>
    <nd ref="250928771"/>
    <nd ref="373378034"/>
    <nd ref="373376645"/>
    <nd ref="316444384"/>
    <nd ref="373376375"/>
    <nd ref="316444385"/>
    <nd ref="373376104"/>
    <nd ref="278345734"/>
    <nd ref="373321913"/>
    <nd ref="278345735"/>
    <nd ref="278345736"/>
    <nd ref="373317502"/>
    <nd ref="373381267"/>
    <nd ref="373381275"/>
    <nd ref="278345737"/>
    <nd ref="373379917"/>
    <nd ref="373379789"/>
    <tag k="created_by" v="Potlatch 0.10f"/>
    <tag k="highway" v="residential"/>
    <tag k="name" v="Υψηλάντου"/>
    <tag k="name:en" v="Ipsilantou"/>
    <tag k="oneway" v="yes"/>
  </way>
  <way id="28778933" version="13" timestamp="2009-04-12T17:33:39Z" uid="12188" user="Babis" changeset="447991">
    <nd ref="316444382"/>
    <nd ref="250928771"/>
    <nd ref="373378034"/>
    <nd ref="373376645"/>
    <nd ref="316444384"/>
    <nd ref="373376375"/>
    <nd ref="316444385"/>
    <nd ref="373376104"/>
    <nd ref="278345734"/>
    <nd ref="373321913"/>
    <nd ref="278345735"/>
    <nd ref="278345736"/>
    <nd ref="373317502"/>
    <nd ref="373381267"/>
    <nd ref="373381275"/>
    <nd ref="278345737"/>
    <nd ref="373379917"/>
    <nd ref="373379789"/>
    <tag k="created_by" v="Potlatch 0.10f"/>
    <tag k="highway" v="residential"/>
    <tag k="name" v="Υψηλάντου"/>
    <tag k="name:en" v="Ipsilantou"/>
    <tag k="oneway" v="yes"/>
  </way>
  <way id="28778933" version="14" timestamp="2009-04-12T17:33:42Z" uid="12188" user="Babis" changeset="447991">
    <nd ref="316444382"/>
    <nd ref="250928771"/>
    <nd ref="373378034"/>
    <nd ref="373376645"/>
    <nd ref="316444384"/>
    <nd ref="373376375"/>
    <nd ref="316444385"/>
    <nd ref="373376104"/>
    <nd ref="278345734"/>
    <nd ref="373321913"/>
    <nd ref="373382288"/>
    <nd ref="278345735"/>
    <nd ref="278345736"/>
    <nd ref="373317502"/>
    <nd ref="373381267"/>
    <nd ref="373381275"/>
    <nd ref="278345737"/>
    <nd ref="373379917"/>
    <nd ref="373379789"/>
    <tag k="created_by" v="Potlatch 0.10f"/>
    <tag k="highway" v="residential"/>
    <tag k="name" v="Υψηλάντου"/>
    <tag k="name:en" v="Ipsilantou"/>
    <tag k="oneway" v="yes"/>
  </way>
  <way id="28778933" version="15" timestamp="2009-04-12T17:34:45Z" uid="12188" user="Babis" changeset="447991">
    <nd ref="316444382"/>
    <nd ref="250928771"/>
    <nd ref="373378034"/>
    <nd ref="373376645"/>
    <nd ref="316444384"/>
    <nd ref="373376375"/>
    <nd ref="316444385"/>
    <nd ref="373376104"/>
    <nd ref="278345734"/>
    <nd ref="373321913"/>
    <nd ref="373382841"/>
    <nd ref="373382288"/>
    <nd ref="278345735"/>
    <nd ref="278345736"/>
    <nd ref="373317502"/>
    <nd ref="373381267"/>
    <nd ref="373381275"/>
    <nd ref="278345737"/>
    <nd ref="373379917"/>
    <nd ref="373379789"/>
    <tag k="created_by" v="Potlatch 0.10f"/>
    <tag k="highway" v="residential"/>
    <tag k="name" v="Υψηλάντου"/>
    <tag k="name:en" v="Ipsilantou"/>
    <tag k="oneway" v="yes"/>
  </way>
  <way id="28778933" version="16" timestamp="2009-10-03T08:22:34Z" uid="12188" user="Babis" changeset="2720585">
    <nd ref="316444382"/>
    <nd ref="518470928"/>
    <nd ref="250928771"/>
    <nd ref="373378034"/>
    <nd ref="373376645"/>
    <nd ref="316444384"/>
    <nd ref="373376375"/>
    <nd ref="316444385"/>
    <nd ref="373376104"/>
    <nd ref="278345734"/>
    <nd ref="373321913"/>
    <nd ref="373382841"/>
    <nd ref="373382288"/>
    <nd ref="278345735"/>
    <nd ref="278345736"/>
    <nd ref="373317502"/>
    <nd ref="373381267"/>
    <nd ref="373381275"/>
    <nd ref="278345737"/>
    <nd ref="373379917"/>
    <nd ref="373379789"/>
    <tag k="highway" v="residential"/>
    <tag k="name" v="Υψηλάντου"/>
    <tag k="name:en" v="Ipsilantou"/>
    <tag k="oneway" v="yes"/>
  </way>
  <way id="28778933" version="17" timestamp="2009-10-03T08:37:10Z" uid="12188" user="Babis" changeset="2720585">
    <nd ref="316444382"/>
    <nd ref="518489220"/>
    <nd ref="518470928"/>
    <nd ref="250928771"/>
    <nd ref="373378034"/>
    <nd ref="373376645"/>
    <nd ref="316444384"/>
    <nd ref="373376375"/>
    <nd ref="316444385"/>
    <nd ref="373376104"/>
    <nd ref="278345734"/>
    <nd ref="373321913"/>
    <nd ref="373382841"/>
    <nd ref="373382288"/>
    <nd ref="278345735"/>
    <nd ref="278345736"/>
    <nd ref="373317502"/>
    <nd ref="373381267"/>
    <nd ref="373381275"/>
    <nd ref="278345737"/>
    <nd ref="373379917"/>
    <nd ref="373379789"/>
    <tag k="highway" v="residential"/>
    <tag k="name" v="Υψηλάντου"/>
    <tag k="name:en" v="Ipsilantou"/>
    <tag k="oneway" v="yes"/>
  </way>
  <way id="28778933" version="18" timestamp="2009-10-03T08:39:52Z" uid="12188" user="Babis" changeset="2720585">
    <nd ref="316444382"/>
    <nd ref="518493169"/>
    <nd ref="518489220"/>
    <nd ref="518470928"/>
    <nd ref="250928771"/>
    <nd ref="373378034"/>
    <nd ref="373376645"/>
    <nd ref="316444384"/>
    <nd ref="373376375"/>
    <nd ref="316444385"/>
    <nd ref="373376104"/>
    <nd ref="278345734"/>
    <nd ref="373321913"/>
    <nd ref="373382841"/>
    <nd ref="373382288"/>
    <nd ref="278345735"/>
    <nd ref="278345736"/>
    <nd ref="373317502"/>
    <nd ref="373381267"/>
    <nd ref="373381275"/>
    <nd ref="278345737"/>
    <nd ref="373379917"/>
    <nd ref="373379789"/>
    <tag k="highway" v="residential"/>
    <tag k="name" v="Υψηλάντου"/>
    <tag k="name:en" v="Ipsilantou"/>
    <tag k="oneway" v="yes"/>
  </way>
  <way id="28778933" version="20" timestamp="2010-03-28T18:30:41Z" uid="12188" user="Babis" changeset="4260035">
    <nd ref="316444382"/>
    <nd ref="518493169"/>
    <nd ref="518489220"/>
    <nd ref="518470928"/>
    <nd ref="250928771"/>
    <nd ref="676873952"/>
    <nd ref="373378034"/>
    <nd ref="373376645"/>
    <nd ref="316444384"/>
    <nd ref="373376375"/>
    <nd ref="316444385"/>
    <nd ref="373376104"/>
    <nd ref="278345734"/>
    <nd ref="373321913"/>
    <nd ref="373382841"/>
    <nd ref="373382288"/>
    <nd ref="572681053"/>
    <nd ref="278345736"/>
    <nd ref="373317502"/>
    <nd ref="373381267"/>
    <nd ref="373381275"/>
    <nd ref="278345737"/>
    <nd ref="373379917"/>
    <nd ref="373379789"/>
    <tag k="highway" v="residential"/>
    <tag k="name" v="Υψηλάντου"/>
    <tag k="name:en" v="Ipsilantou"/>
    <tag k="oneway" v="yes"/>
  </way>
  <way id="28778935" version="2" timestamp="2009-04-12T15:41:50Z" uid="12188" user="Babis" changeset="439595">
    <nd ref="316444387"/>
    <nd ref="316444400"/>
    <nd ref="316444401"/>
    <nd ref="316444385"/>
    <nd ref="373317508"/>
    <nd ref="316444402"/>
    <nd ref="316444403"/>
    <nd ref="316444404"/>
    <nd ref="46577387"/>
    <tag k="created_by" v="Potlatch 0.10f"/>
    <tag k="highway" v="residential"/>
  </way>
  <way id="28778935" version="3" timestamp="2009-04-12T18:04:53Z" uid="12188" user="Babis" changeset="447991"/>
  <way id="28778938" version="2" timestamp="2009-04-12T15:55:29Z" uid="12188" user="Babis" changeset="439595">
    <nd ref="316444402"/>
    <nd ref="316444448"/>
    <nd ref="316444449"/>
    <nd ref="373326407"/>
    <nd ref="316444450"/>
    <nd ref="270599149"/>
    <nd ref="316444451"/>
    <tag k="created_by" v="Potlatch 0.10f"/>
    <tag k="highway" v="residential"/>
  </way>
  <way id="28778938" version="3" timestamp="2009-04-12T15:59:04Z" uid="12188" user="Babis" changeset="439595">
    <nd ref="316444402"/>
    <nd ref="316444448"/>
    <nd ref="316444449"/>
    <nd ref="373326407"/>
    <nd ref="316444450"/>
    <nd ref="270599149"/>
    <nd ref="316444451"/>
    <tag k="created_by" v="Potlatch 0.10f"/>
    <tag k="highway" v="residential"/>
    <tag k="name" v="17ης Νοεμβρίου 1973"/>
    <tag k="name:en" v="17th November 1973"/>
  </way>
  <way id="28778938" version="4" timestamp="2009-04-12T15:59:55Z" uid="12188" user="Babis" changeset="439595">
    <nd ref="316444455"/>
    <nd ref="373330866"/>
    <nd ref="373330871"/>
    <nd ref="373330874"/>
    <nd ref="373330877"/>
    <nd ref="316444402"/>
    <nd ref="316444448"/>
    <nd ref="316444449"/>
    <nd ref="373326407"/>
    <nd ref="316444450"/>
    <nd ref="270599149"/>
    <nd ref="316444451"/>
    <tag k="created_by" v="Potlatch 0.10f"/>
    <tag k="highway" v="residential"/>
    <tag k="name" v="17ης Νοεμβρίου 1973"/>
    <tag k="name:en" v="17th November 1973"/>
  </way>
  <way id="28778938" version="5" timestamp="2009-04-12T17:20:56Z" uid="12188" user="Babis" changeset="447991">
    <nd ref="316444455"/>
    <nd ref="373330866"/>
    <nd ref="373330871"/>
    <nd ref="373330874"/>
    <nd ref="373330877"/>
    <nd ref="316444402"/>
    <nd ref="373376092"/>
    <nd ref="316444448"/>
    <nd ref="316444449"/>
    <nd ref="373326407"/>
    <nd ref="316444450"/>
    <nd ref="270599149"/>
    <nd ref="316444451"/>
    <tag k="created_by" v="Potlatch 0.10f"/>
    <tag k="highway" v="residential"/>
    <tag k="name" v="17ης Νοεμβρίου 1973"/>
    <tag k="name:en" v="17th November 1973"/>
  </way>
  <way id="28778938" version="6" timestamp="2009-04-12T17:21:28Z" uid="12188" user="Babis" changeset="447991">
    <nd ref="373376288"/>
    <nd ref="316444455"/>
    <nd ref="373330866"/>
    <nd ref="373330871"/>
    <nd ref="373330874"/>
    <nd ref="373330877"/>
    <nd ref="316444402"/>
    <nd ref="373376092"/>
    <nd ref="316444448"/>
    <nd ref="316444449"/>
    <nd ref="373326407"/>
    <nd ref="316444450"/>
    <nd ref="270599149"/>
    <nd ref="316444451"/>
    <tag k="created_by" v="Potlatch 0.10f"/>
    <tag k="highway" v="residential"/>
    <tag k="name" v="17ης Νοεμβρίου 1973"/>
    <tag k="name:en" v="17th November 1973"/>
  </way>
  <way id="28778938" version="7" timestamp="2009-04-12T17:38:24Z" uid="12188" user="Babis" changeset="447991">
    <nd ref="373376288"/>
    <nd ref="316444455"/>
    <nd ref="373330866"/>
    <nd ref="373330871"/>
    <nd ref="373330874"/>
    <nd ref="373330877"/>
    <nd ref="316444402"/>
    <nd ref="373376092"/>
    <nd ref="316444448"/>
    <nd ref="316444449"/>
    <nd ref="373326407"/>
    <nd ref="316444450"/>
    <nd ref="270599149"/>
    <nd ref="373384260"/>
    <tag k="created_by" v="Potlatch 0.10f"/>
    <tag k="highway" v="residential"/>
    <tag k="name" v="17ης Νοεμβρίου 1973"/>
    <tag k="name:en" v="17th November 1973"/>
  </way>
  <way id="28778938" version="8" timestamp="2009-06-08T07:13:18Z" uid="12188" user="Babis" changeset="1455871">
    <nd ref="373376288"/>
    <nd ref="316444455"/>
    <nd ref="373330866"/>
    <nd ref="373330871"/>
    <nd ref="373330874"/>
    <nd ref="373330877"/>
    <nd ref="316444402"/>
    <nd ref="373376092"/>
    <nd ref="316444448"/>
    <nd ref="316444449"/>
    <nd ref="373326407"/>
    <nd ref="316444450"/>
    <nd ref="270599149"/>
    <nd ref="417282045"/>
    <nd ref="373384260"/>
    <tag k="created_by" v="Potlatch 0.10f"/>
    <tag k="highway" v="residential"/>
    <tag k="name" v="17ης Νοεμβρίου 1973"/>
    <tag k="name:en" v="17th November 1973"/>
  </way>
  <way id="28778938" version="9" timestamp="2009-06-08T07:14:03Z" uid="12188" user="Babis" changeset="1455871">
    <nd ref="373376288"/>
    <nd ref="316444455"/>
    <nd ref="373330866"/>
    <nd ref="373330871"/>
    <nd ref="373330874"/>
    <nd ref="373330877"/>
    <nd ref="316444402"/>
    <nd ref="373376092"/>
    <nd ref="316444448"/>
    <nd ref="316444449"/>
    <nd ref="373326407"/>
    <nd ref="316444450"/>
    <nd ref="270599149"/>
    <nd ref="417282050"/>
    <nd ref="417282045"/>
    <nd ref="373384260"/>
    <tag k="created_by" v="Potlatch 0.10f"/>
    <tag k="highway" v="residential"/>
    <tag k="name" v="17ης Νοεμβρίου 1973"/>
    <tag k="name:en" v="17th November 1973"/>
  </way>
  <way id="28778939" version="3" timestamp="2009-04-12T15:41:51Z" uid="12188" user="Babis" changeset="439595">
    <nd ref="316444454"/>
    <nd ref="316444496"/>
    <nd ref="316444384"/>
    <nd ref="373317510"/>
    <nd ref="316444455"/>
    <nd ref="316444456"/>
    <tag k="created_by" v="Potlatch 0.10f"/>
    <tag k="highway" v="residential"/>
  </way>
  <way id="28778939" version="4" timestamp="2009-06-08T08:18:45Z" uid="12188" user="Babis" changeset="1456233">
    <nd ref="316444454"/>
    <nd ref="417289853"/>
    <nd ref="316444496"/>
    <nd ref="316444384"/>
    <nd ref="373317510"/>
    <nd ref="316444455"/>
    <nd ref="316444456"/>
    <tag k="created_by" v="Potlatch 0.10f"/>
    <tag k="highway" v="residential"/>
  </way>
  <way id="28778939" version="5" timestamp="2009-10-03T08:17:23Z" uid="12188" user="Babis" changeset="2720585">
    <nd ref="316444454"/>
    <nd ref="417289853"/>
    <nd ref="316444496"/>
    <nd ref="316444384"/>
    <nd ref="373317510"/>
    <nd ref="316444455"/>
    <tag k="highway" v="residential"/>
    <tag k="name" v="Ερεχθείου"/>
    <tag k="name:en" v="Erehtheiou"/>
  </way>
  <way id="28778939" version="6" timestamp="2009-10-03T08:17:49Z" uid="12188" user="Babis" changeset="2720585">
    <nd ref="518465134"/>
    <nd ref="316444454"/>
    <nd ref="417289853"/>
    <nd ref="316444496"/>
    <nd ref="316444384"/>
    <nd ref="373317510"/>
    <nd ref="316444455"/>
    <tag k="highway" v="residential"/>
    <tag k="name" v="Ερεχθείου"/>
    <tag k="name:en" v="Erehtheiou"/>
  </way>
  <way id="28778939" version="7" timestamp="2009-10-03T08:18:56Z" uid="12188" user="Babis" changeset="2720585">
    <nd ref="518465134"/>
    <nd ref="518466444"/>
    <nd ref="316444454"/>
    <nd ref="417289853"/>
    <nd ref="316444496"/>
    <nd ref="316444384"/>
    <nd ref="373317510"/>
    <nd ref="316444455"/>
    <tag k="highway" v="residential"/>
    <tag k="name" v="Ερεχθείου"/>
    <tag k="name:en" v="Erehtheiou"/>
  </way>
  <way id="28778939" version="8" timestamp="2009-10-03T08:36:11Z" uid="12188" user="Babis" changeset="2720585">
    <nd ref="518465134"/>
    <nd ref="518487726"/>
    <nd ref="518466444"/>
    <nd ref="316444454"/>
    <nd ref="417289853"/>
    <nd ref="316444496"/>
    <nd ref="316444384"/>
    <nd ref="373317510"/>
    <nd ref="316444455"/>
    <tag k="highway" v="residential"/>
    <tag k="name" v="Ερεχθείου"/>
    <tag k="name:en" v="Erehtheiou"/>
  </way>
  <way id="28778942" version="2" timestamp="2009-04-12T15:42:58Z" uid="12188" user="Babis" changeset="439595"/>
</osm>
