<?xml version='1.0' encoding='UTF-8'?>
<osm version="0.6" generator="libosmium/2.20.0">
  <way id="28850055" version="2" timestamp="2008-12-13T20:49:04Z" uid="6975" user="ulfl" changeset="352865">
    <nd ref="317180756"/>
    <nd ref="317180757"/>
    <nd ref="317180758"/>
    <nd ref="317180759"/>
    <nd ref="317180756"/>
    <tag k="area" v="yes"/>
    <tag k="foot" v="yes"/>
  </way>
  <way id="28850057" version="2" timestamp="2010-07-07T08:15:09Z" uid="74617" user="JohnSmith" changeset="5156250">
    <nd ref="317162442"/>
    <nd ref="277029375"/>
    <tag k="highway" v="residential"/>
    <tag k="maxspeed" v="50"/>
    <tag k="maxspeed:source" v="default residential speed limit in Australia"/>
    <tag k="name" v="Park Street"/>
  </way>
  <way id="28850058" version="2" timestamp="2010-07-07T08:15:44Z" uid="74617" user="JohnSmith" changeset="5156250">
    <nd ref="317162443"/>
    <nd ref="317180788"/>
    <nd ref="317180793"/>
    <tag k="highway" v="residential"/>
    <tag k="maxspeed" v="50"/>
    <tag k="maxspeed:source" v="default residential speed limit in Australia"/>
    <tag k="name" v="George Street"/>
  </way>
  <way id="28850059" version="2" timestamp="2010-07-07T08:16:12Z" uid="74617" user="JohnSmith" changeset="5156250">
    <nd ref="317180788"/>
    <nd ref="317180798"/>
    <nd ref="317180809"/>
    <nd ref="317162493"/>
    <tag k="highway" v="residential"/>
    <tag k="maxspeed" v="50"/>
    <tag k="maxspeed:source" v="default residential speed limit in Australia"/>
    <tag k="name" v="Shepherd Street"/>
  </way>
  <way id="28850190" version="2" timestamp="2010-07-07T08:16:10Z" uid="74617" user="JohnSmith" changeset="5156250">
    <nd ref="317180820"/>
    <nd ref="317182285"/>
    <nd ref="317182286"/>
    <nd ref="317182287"/>
    <tag k="highway" v="residential"/>
    <tag k="maxspeed" v="50"/>
    <tag k="maxspeed:source" v="default residential speed limit in Australia"/>
    <tag k="name" v="Avoca Street"/>
  </way>
  <way id="28850191" version="2" timestamp="2010-07-07T08:14:59Z" uid="74617" user="JohnSmith" changeset="5156250">
    <nd ref="317182287"/>
    <nd ref="317182288"/>
    <tag k="highway" v="residential"/>
    <tag k="maxspeed" v="50"/>
    <tag k="maxspeed:source" v="default residential speed limit in Australia"/>
    <tag k="name" v="Albion Street"/>
  </way>
  <way id="28850193" version="2" timestamp="2010-07-07T08:14:56Z" uid="74617" user="JohnSmith" changeset="5156250">
    <nd ref="317182285"/>
    <nd ref="317182292"/>
    <tag k="highway" v="residential"/>
    <tag k="maxspeed" v="50"/>
    <tag k="maxspeed:source" v="default residential speed limit in Australia"/>
    <tag k="name" v="Giddings Street"/>
  </way>
  <way id="28850241" version="2" timestamp="2010-07-07T08:16:09Z" uid="74617" user="JohnSmith" changeset="5156250">
    <nd ref="317180814"/>
    <nd ref="317182292"/>
    <nd ref="317182518"/>
    <tag k="highway" v="residential"/>
    <tag k="maxspeed" v="50"/>
    <tag k="maxspeed:source" v="default residential speed limit in Australia"/>
    <tag k="name" v="Bellevue Street"/>
  </way>
  <way id="28850242" version="2" timestamp="2010-07-07T08:14:57Z" uid="74617" user="JohnSmith" changeset="5156250">
    <nd ref="317182518"/>
    <nd ref="317182519"/>
    <tag k="highway" v="residential"/>
    <tag k="maxspeed" v="50"/>
    <tag k="maxspeed:source" v="default residential speed limit in Australia"/>
    <tag k="name" v="Derwent Street"/>
  </way>
  <way id="28850243" version="2" timestamp="2010-07-07T08:15:31Z" uid="74617" user="JohnSmith" changeset="5156250">
    <nd ref="317182519"/>
    <nd ref="317182520"/>
    <nd ref="317182521"/>
    <nd ref="317037608"/>
    <tag k="highway" v="residential"/>
    <tag k="maxspeed" v="50"/>
    <tag k="maxspeed:source" v="default residential speed limit in Australia"/>
    <tag k="name" v="Kenmore Street"/>
  </way>
  <way id="28850295" version="2" timestamp="2010-07-07T08:15:17Z" uid="74617" user="JohnSmith" changeset="5156250">
    <nd ref="317182520"/>
    <nd ref="317182756"/>
    <tag k="highway" v="residential"/>
    <tag k="maxspeed" v="50"/>
    <tag k="maxspeed:source" v="default residential speed limit in Australia"/>
    <tag k="name" v="Saint Michaels Close"/>
  </way>
  <way id="28850386" version="2" timestamp="2010-07-07T08:15:09Z" uid="74617" user="JohnSmith" changeset="5156250">
    <nd ref="317162445"/>
    <nd ref="317183389"/>
    <tag k="highway" v="residential"/>
    <tag k="maxspeed" v="50"/>
    <tag k="maxspeed:source" v="default residential speed limit in Australia"/>
    <tag k="name" v="Manion Street"/>
  </way>
  <way id="28850387" version="2" timestamp="2010-07-07T08:15:43Z" uid="74617" user="JohnSmith" changeset="5156250">
    <nd ref="317162454"/>
    <nd ref="317183390"/>
    <nd ref="317183392"/>
    <tag k="highway" v="residential"/>
    <tag k="maxspeed" v="50"/>
    <tag k="maxspeed:source" v="default residential speed limit in Australia"/>
    <tag k="name" v="Bishop Street"/>
  </way>
  <way id="28850388" version="2" timestamp="2010-07-07T08:15:28Z" uid="74617" user="JohnSmith" changeset="5156250">
    <nd ref="317183390"/>
    <nd ref="317183389"/>
    <nd ref="317162492"/>
    <tag k="highway" v="residential"/>
    <tag k="maxspeed" v="50"/>
    <tag k="maxspeed:source" v="default residential speed limit in Australia"/>
    <tag k="name" v="Brownhill Street"/>
  </way>
  <way id="28850451" version="2" timestamp="2010-07-07T08:14:59Z" uid="74617" user="JohnSmith" changeset="5156250">
    <nd ref="317183715"/>
    <nd ref="317183716"/>
    <nd ref="317183717"/>
    <nd ref="317183718"/>
    <nd ref="317162458"/>
    <tag k="highway" v="residential"/>
    <tag k="maxspeed" v="50"/>
    <tag k="maxspeed:source" v="default residential speed limit in Australia"/>
    <tag k="name" v="Wheatley Avenue"/>
  </way>
  <way id="28850452" version="2" timestamp="2010-07-07T08:16:26Z" uid="74617" user="JohnSmith" changeset="5156250">
    <nd ref="317183728"/>
    <nd ref="317183727"/>
    <nd ref="317183726"/>
    <nd ref="317183725"/>
    <nd ref="317183724"/>
    <nd ref="317183723"/>
    <nd ref="317183722"/>
    <nd ref="317183716"/>
    <tag k="highway" v="residential"/>
    <tag k="maxspeed" v="50"/>
    <tag k="maxspeed:source" v="default residential speed limit in Australia"/>
    <tag k="name" v="Usshers Lane"/>
    <tag k="oneway" v="yes"/>
  </way>
  <way id="28850616" version="2" timestamp="2010-07-07T08:15:03Z" uid="74617" user="JohnSmith" changeset="5156250">
    <nd ref="317185230"/>
    <nd ref="317185234"/>
    <tag k="highway" v="residential"/>
    <tag k="maxspeed" v="50"/>
    <tag k="maxspeed:source" v="default residential speed limit in Australia"/>
    <tag k="name" v="Soho Street"/>
  </way>
  <way id="28850617" version="2" timestamp="2010-07-07T08:15:37Z" uid="74617" user="JohnSmith" changeset="5156250">
    <nd ref="277031161"/>
    <nd ref="317185236"/>
    <tag k="highway" v="residential"/>
    <tag k="maxspeed" v="50"/>
    <tag k="maxspeed:source" v="default residential speed limit in Australia"/>
    <tag k="name" v="Chantry Street"/>
  </way>
  <way id="28850619" version="2" timestamp="2010-07-07T08:14:55Z" uid="74617" user="JohnSmith" changeset="5156250">
    <nd ref="317037612"/>
    <nd ref="317185237"/>
    <nd ref="317185238"/>
    <nd ref="277031165"/>
    <tag k="highway" v="residential"/>
    <tag k="maxspeed" v="50"/>
    <tag k="maxspeed:source" v="default residential speed limit in Australia"/>
    <tag k="name" v="Wilmot Street"/>
  </way>
  <way id="28850647" version="2" timestamp="2010-07-07T08:16:02Z" uid="74617" user="JohnSmith" changeset="5156250">
    <nd ref="277031134"/>
    <nd ref="317185853"/>
    <nd ref="317185854"/>
    <nd ref="317185855"/>
    <nd ref="317185857"/>
    <tag k="highway" v="residential"/>
    <tag k="maxspeed" v="50"/>
    <tag k="maxspeed:source" v="default residential speed limit in Australia"/>
    <tag k="name" v="Riverview Place"/>
  </way>
  <way id="28850709" version="2" timestamp="2010-07-07T08:16:27Z" uid="74617" user="JohnSmith" changeset="5156250">
    <nd ref="317186070"/>
    <nd ref="317185238"/>
    <nd ref="317037613"/>
    <nd ref="317186071"/>
    <tag k="highway" v="residential"/>
    <tag k="maxspeed" v="50"/>
    <tag k="maxspeed:source" v="default residential speed limit in Australia"/>
    <tag k="name" v="Wayo Street"/>
  </way>
  <way id="28850760" version="2" timestamp="2010-07-07T08:15:06Z" uid="74617" user="JohnSmith" changeset="5156250">
    <nd ref="317037614"/>
    <nd ref="317037615"/>
    <nd ref="277031167"/>
    <nd ref="277031168"/>
    <tag k="highway" v="residential"/>
    <tag k="maxspeed" v="50"/>
    <tag k="maxspeed:source" v="default residential speed limit in Australia"/>
    <tag k="name" v="Twynam Drive"/>
  </way>
  <way id="28850900" version="2" timestamp="2010-07-07T08:15:43Z" uid="74617" user="JohnSmith" changeset="5156250">
    <nd ref="277031163"/>
    <nd ref="317188387"/>
    <nd ref="317188391"/>
    <nd ref="317188396"/>
    <nd ref="317188401"/>
    <nd ref="317188414"/>
    <nd ref="317188445"/>
    <nd ref="317188468"/>
    <nd ref="317188491"/>
    <tag k="highway" v="residential"/>
    <tag k="maxspeed" v="50"/>
    <tag k="maxspeed:source" v="default residential speed limit in Australia"/>
    <tag k="name" v="Cemetery Street"/>
  </way>
  <way id="28850902" version="2" timestamp="2010-07-07T08:14:59Z" uid="74617" user="JohnSmith" changeset="5156250">
    <nd ref="317188556"/>
    <nd ref="317188568"/>
    <tag k="highway" v="residential"/>
    <tag k="maxspeed" v="50"/>
    <tag k="maxspeed:source" v="default residential speed limit in Australia"/>
    <tag k="name" v="Mortis Street"/>
  </way>
</osm>
