<?xml version='1.0' encoding='UTF-8'?>
<osm version="0.6" generator="libosmium/2.20.0">
  <way id="28892004" version="4" timestamp="2010-03-28T00:24:19Z" uid="20587" user="balrog-kun" changeset="4250871">
    <nd ref="54598134"/>
    <nd ref="54598137"/>
    <nd ref="54598138"/>
    <nd ref="54598140"/>
    <nd ref="54598141"/>
    <nd ref="54598143"/>
    <nd ref="54598144"/>
    <nd ref="54598146"/>
    <nd ref="54598147"/>
    <nd ref="54598149"/>
    <nd ref="54598151"/>
    <nd ref="54598152"/>
    <nd ref="54598154"/>
    <nd ref="54598156"/>
    <nd ref="54598158"/>
    <nd ref="54598160"/>
    <nd ref="54598161"/>
    <nd ref="54598163"/>
    <nd ref="54598166"/>
    <nd ref="54598168"/>
    <tag k="created_by" v="Potlatch 0.10f"/>
    <tag k="highway" v="track"/>
    <tag k="name" v="Aster Road"/>
    <tag k="tiger:cfcc" v="A41"/>
    <tag k="tiger:county" v="San Bernardino, CA"/>
    <tag k="tiger:name_base" v="Aster"/>
    <tag k="tiger:name_type" v="Rd"/>
    <tag k="tiger:reviewed" v="no"/>
    <tag k="tiger:separated" v="no"/>
    <tag k="tiger:source" v="tiger_import_dch_v0.6_20070809"/>
    <tag k="tiger:tlid" v="144567963:144569192:144751603:144751604:144744925:144744926:144751786:144751787:144744966:144744975:144568090"/>
  </way>
  <way id="28892020" version="6" timestamp="2010-03-28T00:24:19Z" uid="20587" user="balrog-kun" changeset="4250871">
    <nd ref="54598427"/>
    <nd ref="338646670"/>
    <nd ref="54598428"/>
    <nd ref="54598430"/>
    <nd ref="338644776"/>
    <nd ref="54491805"/>
    <tag k="created_by" v="Potlatch 0.10f"/>
    <tag k="highway" v="residential"/>
    <tag k="name" v="Aster Road"/>
    <tag k="tiger:cfcc" v="A41"/>
    <tag k="tiger:county" v="San Bernardino, CA"/>
    <tag k="tiger:name_base" v="Aster"/>
    <tag k="tiger:name_type" v="Rd"/>
    <tag k="tiger:reviewed" v="no"/>
    <tag k="tiger:separated" v="no"/>
    <tag k="tiger:source" v="tiger_import_dch_v0.6_20070809"/>
    <tag k="tiger:tlid" v="144728574:144750317"/>
    <tag k="tiger:zip_left" v="92301"/>
    <tag k="tiger:zip_right" v="92301"/>
  </way>
  <way id="28892084" version="4" timestamp="2010-10-16T20:10:58Z" uid="9581" user="Lobelt" changeset="6061073">
    <nd ref="69085081"/>
    <nd ref="259087006"/>
    <nd ref="472072476"/>
    <nd ref="259087005"/>
    <nd ref="952356506"/>
    <nd ref="69085078"/>
    <tag k="highway" v="primary"/>
    <tag k="maxspeed" v="20"/>
    <tag k="name" v="Sachsenflurer Straße"/>
    <tag k="ref" v="B 292"/>
  </way>
  <way id="28892183" version="1" timestamp="2008-12-09T15:34:27Z" uid="33382" user="de_muur" changeset="276015">
    <nd ref="295427234"/>
    <nd ref="295427235"/>
    <tag k="created_by" v="JOSM"/>
    <tag k="highway" v="unclassified"/>
    <tag k="surface" v="paved"/>
  </way>
  <way id="28892184" version="1" timestamp="2008-12-09T15:34:27Z" uid="33382" user="de_muur" changeset="276015">
    <nd ref="317586747"/>
    <nd ref="317586748"/>
    <tag k="bridge" v="true"/>
    <tag k="created_by" v="JOSM"/>
    <tag k="highway" v="unclassified"/>
    <tag k="layer" v="1"/>
    <tag k="name" v="Kamper Weg"/>
    <tag k="surface" v="paved"/>
  </way>
  <way id="28892184" version="5" timestamp="2010-09-16T06:10:11Z" uid="33382" user="de_muur" changeset="5792594">
    <nd ref="317586747"/>
    <nd ref="317586748"/>
    <tag k="bridge" v="yes"/>
    <tag k="construction" v="unclassified"/>
    <tag k="highway" v="construction"/>
    <tag k="layer" v="1"/>
    <tag k="maxspeed" v="30"/>
    <tag k="maxweight" v="12"/>
    <tag k="name" v="Kamper Weg"/>
    <tag k="postal_code" v="28876"/>
    <tag k="surface" v="paved"/>
  </way>
  <way id="28892185" version="1" timestamp="2008-12-09T15:34:27Z" uid="33382" user="de_muur" changeset="276015">
    <nd ref="317586750"/>
    <nd ref="317586751"/>
    <tag k="created_by" v="JOSM"/>
    <tag k="highway" v="unclassified"/>
    <tag k="surface" v="paved"/>
  </way>
  <way id="28892186" version="1" timestamp="2008-12-09T15:34:28Z" uid="33382" user="de_muur" changeset="276015">
    <nd ref="317586754"/>
    <nd ref="317586751"/>
    <nd ref="317586755"/>
    <tag k="created_by" v="JOSM"/>
    <tag k="highway" v="unclassified"/>
    <tag k="name" v="Auf dem Kamp"/>
    <tag k="note" v="to be continued"/>
    <tag k="surface" v="paved"/>
  </way>
  <way id="28892187" version="1" timestamp="2008-12-09T15:34:28Z" uid="33382" user="de_muur" changeset="276015">
    <nd ref="317586748"/>
    <nd ref="317586750"/>
    <nd ref="317586754"/>
    <nd ref="317586757"/>
    <nd ref="317586758"/>
    <nd ref="317586759"/>
    <tag k="created_by" v="JOSM"/>
    <tag k="highway" v="unclassified"/>
    <tag k="name" v="Kamper Weg"/>
    <tag k="surface" v="paved"/>
  </way>
  <way id="28892187" version="4" timestamp="2010-07-11T12:41:32Z" uid="33382" user="de_muur" changeset="5189989">
    <nd ref="317586748"/>
    <nd ref="317586750"/>
    <tag k="highway" v="unclassified"/>
    <tag k="name" v="Kamper Weg"/>
    <tag k="postal_code" v="28876"/>
    <tag k="surface" v="paved"/>
  </way>
  <way id="28892188" version="1" timestamp="2008-12-09T15:34:28Z" uid="33382" user="de_muur" changeset="276015">
    <nd ref="295427234"/>
    <nd ref="317586753"/>
    <nd ref="317586743"/>
    <nd ref="317586744"/>
    <nd ref="317586746"/>
    <nd ref="317586747"/>
    <tag k="created_by" v="JOSM"/>
    <tag k="highway" v="unclassified"/>
    <tag k="name" v="Kamper Weg"/>
    <tag k="surface" v="paved"/>
  </way>
  <way id="28892189" version="1" timestamp="2008-12-09T15:34:28Z" uid="33382" user="de_muur" changeset="276015">
    <nd ref="317586746"/>
    <nd ref="317586763"/>
    <nd ref="317586765"/>
    <tag k="created_by" v="JOSM"/>
    <tag k="highway" v="track"/>
    <tag k="surface" v="unpaved"/>
    <tag k="tracktype" v="grade4"/>
  </way>
  <way id="28892190" version="1" timestamp="2008-12-09T15:34:29Z" uid="33382" user="de_muur" changeset="276015">
    <nd ref="317586765"/>
    <nd ref="317586767"/>
    <nd ref="317586769"/>
    <tag k="created_by" v="JOSM"/>
    <tag k="highway" v="track"/>
    <tag k="surface" v="unpaved"/>
    <tag k="tracktype" v="grade5"/>
  </way>
  <way id="28892191" version="1" timestamp="2008-12-09T15:34:29Z" uid="33382" user="de_muur" changeset="276015">
    <nd ref="317586765"/>
    <nd ref="317586766"/>
    <tag k="created_by" v="JOSM"/>
    <tag k="highway" v="track"/>
    <tag k="surface" v="unpaved"/>
    <tag k="tracktype" v="grade5"/>
  </way>
  <way id="28892192" version="1" timestamp="2008-12-09T15:34:29Z" uid="33382" user="de_muur" changeset="276015">
    <nd ref="295422660"/>
    <nd ref="317586770"/>
    <nd ref="317586772"/>
    <tag k="created_by" v="JOSM"/>
    <tag k="highway" v="track"/>
    <tag k="name" v="Mühlenwiese"/>
    <tag k="surface" v="unpaved"/>
    <tag k="tracktype" v="grade4"/>
  </way>
  <way id="28892193" version="1" timestamp="2008-12-09T15:34:29Z" uid="33382" user="de_muur" changeset="276015">
    <nd ref="317586770"/>
    <nd ref="317586773"/>
    <tag k="created_by" v="JOSM"/>
    <tag k="highway" v="track"/>
    <tag k="surface" v="unpaved"/>
    <tag k="tracktype" v="grade4"/>
  </way>
  <way id="28892194" version="1" timestamp="2008-12-09T15:34:30Z" uid="33382" user="de_muur" changeset="276015">
    <nd ref="295422617"/>
    <nd ref="317586776"/>
    <nd ref="317586777"/>
    <nd ref="317586778"/>
    <tag k="created_by" v="JOSM"/>
    <tag k="highway" v="track"/>
    <tag k="surface" v="unpaved"/>
    <tag k="tracktype" v="grade4"/>
  </way>
  <way id="28892195" version="1" timestamp="2008-12-09T15:34:30Z" uid="33382" user="de_muur" changeset="276015">
    <nd ref="317586777"/>
    <nd ref="317586780"/>
    <nd ref="317586781"/>
    <nd ref="317586782"/>
    <nd ref="317586784"/>
    <nd ref="317586785"/>
    <nd ref="317586787"/>
    <nd ref="317586789"/>
    <nd ref="317586790"/>
    <nd ref="317586791"/>
    <tag k="created_by" v="JOSM"/>
    <tag k="highway" v="track"/>
    <tag k="surface" v="unpaved"/>
    <tag k="tracktype" v="grade4"/>
  </way>
  <way id="28892196" version="1" timestamp="2008-12-09T15:34:31Z" uid="33382" user="de_muur" changeset="276015">
    <nd ref="317586780"/>
    <nd ref="317586793"/>
    <nd ref="317586794"/>
    <tag k="created_by" v="JOSM"/>
    <tag k="highway" v="track"/>
    <tag k="surface" v="unpaved"/>
    <tag k="tracktype" v="grade4"/>
  </way>
  <way id="28892197" version="1" timestamp="2008-12-09T15:34:31Z" uid="33382" user="de_muur" changeset="276015">
    <nd ref="254849564"/>
    <nd ref="317586797"/>
    <nd ref="317586798"/>
    <nd ref="317586799"/>
    <tag k="created_by" v="JOSM"/>
    <tag k="highway" v="residential"/>
    <tag k="name" v="Pflanzenhöfe"/>
    <tag k="surface" v="paved"/>
  </way>
  <way id="28892197" version="3" timestamp="2010-03-20T17:40:32Z" uid="33382" user="de_muur" changeset="4182565">
    <nd ref="254849564"/>
    <nd ref="670655035"/>
    <tag k="highway" v="residential"/>
    <tag k="maxspeed" v="50"/>
    <tag k="name" v="Pflanzenhöfe"/>
    <tag k="postal_code" v="28876"/>
    <tag k="surface" v="paved"/>
  </way>
  <way id="28892198" version="1" timestamp="2008-12-09T15:34:31Z" uid="33382" user="de_muur" changeset="276015">
    <nd ref="317586800"/>
    <nd ref="317586802"/>
    <nd ref="317586803"/>
    <nd ref="317586804"/>
    <tag k="created_by" v="JOSM"/>
    <tag k="highway" v="living_street"/>
    <tag k="name" v="Bockhorster Dorfstraße"/>
    <tag k="surface" v="paved"/>
  </way>
  <way id="28892199" version="1" timestamp="2008-12-09T15:34:31Z" uid="33382" user="de_muur" changeset="276015">
    <nd ref="317586798"/>
    <nd ref="287220707"/>
    <tag k="created_by" v="JOSM"/>
    <tag k="highway" v="track"/>
    <tag k="surface" v="unpaved"/>
    <tag k="tracktype" v="grade3"/>
  </way>
  <way id="28892200" version="1" timestamp="2008-12-09T15:34:32Z" uid="33382" user="de_muur" changeset="276015">
    <nd ref="254849566"/>
    <nd ref="317586806"/>
    <tag k="created_by" v="JOSM"/>
    <tag k="highway" v="track"/>
    <tag k="note" v="to be continued"/>
    <tag k="surface" v="unpaved"/>
  </way>
  <way id="28892242" version="1" timestamp="2008-12-09T15:37:40Z" uid="20587" user="balrog-kun" changeset="276660">
    <nd ref="317587185"/>
    <nd ref="317587186"/>
    <nd ref="317587193"/>
    <nd ref="317587189"/>
    <nd ref="317587185"/>
    <tag k="addr:housenumber" v="1"/>
    <tag k="addr:street" v="Plac Powstańców Warszawy"/>
    <tag k="building" v="yes"/>
  </way>
  <way id="28892242" version="2" timestamp="2008-12-19T16:38:19Z" uid="20587" user="balrog-kun" changeset="474388">
    <nd ref="317587185"/>
    <nd ref="317587186"/>
    <nd ref="317587193"/>
    <nd ref="317587189"/>
    <nd ref="317587185"/>
    <tag k="addr:housenumber" v="1"/>
    <tag k="addr:street" v="Plac Powstańców Warszawy"/>
    <tag k="building" v="yes"/>
    <tag k="name" v="Komisja Papierów Wartościowych"/>
    <tag k="name:en" v="Stock Exchange Commission"/>
  </way>
  <way id="28892243" version="1" timestamp="2008-12-09T15:37:41Z" uid="20587" user="balrog-kun" changeset="276660">
    <nd ref="317587207"/>
    <nd ref="317587208"/>
    <nd ref="317587209"/>
    <nd ref="317587210"/>
    <tag k="highway" v="service"/>
  </way>
  <way id="28892244" version="1" timestamp="2008-12-09T15:37:41Z" uid="20587" user="balrog-kun" changeset="276660">
    <nd ref="317587211"/>
    <nd ref="317587213"/>
    <nd ref="317587214"/>
    <nd ref="317587212"/>
    <nd ref="317587211"/>
    <tag k="addr:housenumber" v="6"/>
    <tag k="addr:postcode" v="00-013"/>
    <tag k="addr:street" v="Jasna"/>
    <tag k="building" v="yes"/>
    <tag k="name" v="Naczelny Sąd Administracyjny"/>
  </way>
  <way id="28892244" version="2" timestamp="2009-01-06T13:07:00Z" uid="20587" user="balrog-kun" changeset="745301">
    <nd ref="329115614"/>
    <nd ref="329115610"/>
    <nd ref="317587212"/>
    <nd ref="317587211"/>
    <nd ref="329115614"/>
    <tag k="addr:housenumber" v="6"/>
    <tag k="addr:postcode" v="00-013"/>
    <tag k="addr:street" v="Jasna"/>
    <tag k="building" v="yes"/>
    <tag k="name" v="Naczelny Sąd Administracyjny"/>
  </way>
  <way id="28892291" version="3" timestamp="2010-03-16T09:24:49Z" uid="74617" user="JohnSmith" changeset="4141765">
    <nd ref="251492086"/>
    <nd ref="667267292"/>
    <nd ref="30885165"/>
    <nd ref="667267258"/>
    <nd ref="30885164"/>
    <nd ref="667267261"/>
    <nd ref="30885163"/>
    <nd ref="667267260"/>
    <nd ref="30885162"/>
    <nd ref="667267259"/>
    <nd ref="30885161"/>
    <nd ref="30885160"/>
    <nd ref="30885159"/>
    <nd ref="667267256"/>
    <nd ref="667267254"/>
    <nd ref="667267253"/>
    <nd ref="667267251"/>
    <nd ref="251492799"/>
    <tag k="highway" v="motorway_link"/>
    <tag k="oneway" v="yes"/>
  </way>
  <way id="28892342" version="2" timestamp="2008-12-10T00:13:15Z" uid="6975" user="ulfl" changeset="299549">
    <nd ref="317588276"/>
    <nd ref="317588274"/>
    <nd ref="317588275"/>
    <tag k="access" v="no"/>
    <tag k="foot" v="yes"/>
    <tag k="highway" v="track"/>
    <tag k="tracktype" v="grade5"/>
  </way>
  <way id="28892366" version="1" timestamp="2008-12-09T15:45:54Z" uid="43863" user="Rundling" changeset="284435">
    <nd ref="293718969"/>
    <nd ref="293730947"/>
    <nd ref="293642911"/>
    <tag k="created_by" v="Potlatch 0.10b"/>
    <tag k="highway" v="pedestrian"/>
    <tag k="name" v="Bei der Kirche"/>
  </way>
  <way id="28892366" version="2" timestamp="2010-01-10T20:06:40Z" uid="43863" user="Rundling" changeset="3591027">
    <nd ref="293718969"/>
    <nd ref="293730947"/>
    <nd ref="293642911"/>
    <tag k="highway" v="pedestrian"/>
    <tag k="name" v="Bei der Kirche"/>
  </way>
  <way id="28892368" version="3" timestamp="2009-05-31T16:24:30Z" uid="20587" user="balrog-kun" changeset="1370750"/>
  <way id="28892374" version="5" timestamp="2009-05-31T16:24:29Z" uid="20587" user="balrog-kun" changeset="1370750">
    <nd ref="132456353"/>
    <nd ref="317589216"/>
    <nd ref="317588803"/>
    <nd ref="132456064"/>
    <nd ref="317588804"/>
    <tag k="created_by" v="Potlatch 0.10f"/>
    <tag k="highway" v="residential"/>
    <tag k="name" v="Klonowa"/>
  </way>
  <way id="28892432" version="4" timestamp="2009-05-31T16:24:26Z" uid="20587" user="balrog-kun" changeset="1370750">
    <nd ref="317588804"/>
    <nd ref="317589667"/>
    <nd ref="375813393"/>
    <tag k="bicycle" v="yes"/>
    <tag k="created_by" v="Merkaartor 0.13"/>
    <tag k="highway" v="footway"/>
    <tag k="name" v="Centralna"/>
  </way>
  <way id="28892432" version="5" timestamp="2009-05-31T22:18:02Z" uid="20587" user="balrog-kun" changeset="1374292">
    <nd ref="317588804"/>
    <nd ref="317589667"/>
    <nd ref="413738766"/>
    <nd ref="375813393"/>
    <tag k="bicycle" v="yes"/>
    <tag k="created_by" v="Merkaartor 0.13"/>
    <tag k="highway" v="footway"/>
    <tag k="name" v="Centralna"/>
  </way>
  <way id="28892543" version="7" timestamp="2011-02-01T23:41:26Z" uid="23543" user="jkjk" changeset="7160654">
    <nd ref="317589704"/>
    <nd ref="317589705"/>
    <nd ref="317589706"/>
    <nd ref="317589707"/>
    <nd ref="317589883"/>
    <nd ref="317589708"/>
    <nd ref="964013794"/>
    <nd ref="317589709"/>
    <nd ref="317589710"/>
    <nd ref="317589711"/>
    <nd ref="317589713"/>
    <nd ref="317589714"/>
    <nd ref="317589715"/>
    <nd ref="1064132303"/>
    <nd ref="1064132331"/>
    <nd ref="317589716"/>
    <nd ref="575972641"/>
    <nd ref="317589717"/>
    <nd ref="1064132334"/>
    <nd ref="317589718"/>
    <nd ref="317589719"/>
    <nd ref="1131722578"/>
    <nd ref="317589720"/>
    <nd ref="317589726"/>
    <nd ref="405114714"/>
    <nd ref="405114713"/>
    <nd ref="1038284271"/>
    <nd ref="1038284291"/>
    <nd ref="1038284339"/>
    <nd ref="317589727"/>
    <tag k="highway" v="secondary"/>
    <tag k="lanes" v="2"/>
    <tag k="name" v="Greater Road"/>
  </way>
  <way id="28892556" version="1" timestamp="2008-12-09T16:01:58Z" uid="6269" user="Mueck" changeset="279864">
    <nd ref="305465498"/>
    <nd ref="305465499"/>
    <nd ref="305465501"/>
    <tag k="created_by" v="Potlatch 0.10f"/>
    <tag k="highway" v="track"/>
    <tag k="smoothness" v="bad"/>
    <tag k="surface" v="ground"/>
    <tag k="tracktype" v="grade5"/>
  </way>
  <way id="28892599" version="3" timestamp="2009-02-07T17:13:23Z" uid="6975" user="ulfl" changeset="238208">
    <nd ref="262850452"/>
    <nd ref="320702425"/>
    <tag k="highway" v="footway"/>
    <tag k="layer" v="-1"/>
    <tag k="tunnel" v="yes"/>
  </way>
  <way id="28892673" version="2" timestamp="2008-12-09T23:33:48Z" uid="6975" user="ulfl" changeset="299549">
    <nd ref="317592441"/>
    <nd ref="317592442"/>
    <nd ref="317592443"/>
    <nd ref="317592444"/>
    <nd ref="317592441"/>
    <tag k="landuse" v="recreation_ground"/>
  </way>
</osm>
