<?xml version='1.0' encoding='UTF-8'?>
<osm version="0.6" generator="libosmium/2.20.0">
  <way id="29030030" version="1" timestamp="2008-12-16T17:57:09Z" uid="43863" user="Rundling" changeset="424249">
    <nd ref="319254997"/>
    <nd ref="319254382"/>
    <tag k="highway" v="residential"/>
    <tag k="name" v="Amselstieg"/>
    <tag k="surface" v="paved"/>
  </way>
  <way id="29030102" version="5" timestamp="2010-05-01T23:11:23Z" uid="151899" user="Bikeman2000" changeset="4580328">
    <nd ref="193264383"/>
    <nd ref="319255551"/>
    <nd ref="319255550"/>
    <nd ref="574847058"/>
    <nd ref="319255549"/>
    <nd ref="574847044"/>
    <nd ref="715947678"/>
    <nd ref="319255553"/>
    <nd ref="319255548"/>
    <nd ref="319255546"/>
    <tag k="highway" v="secondary"/>
    <tag k="maxspeed" v="50"/>
    <tag k="name" v="Kölner Straße"/>
    <tag k="oneway" v="yes"/>
    <tag k="postal_code" v="40227"/>
    <tag k="ref" v="L 56"/>
  </way>
  <way id="29030137" version="1" timestamp="2008-12-16T18:03:11Z" uid="43863" user="Rundling" changeset="424249">
    <nd ref="319255868"/>
    <nd ref="319255869"/>
    <tag k="bicycle" v="yes"/>
    <tag k="bridge" v="yes"/>
    <tag k="foot" v="yes"/>
    <tag k="highway" v="cycleway"/>
    <tag k="layer" v="1"/>
  </way>
  <way id="29030137" version="2" timestamp="2009-05-07T17:25:24Z" uid="43863" user="Rundling" changeset="1109440">
    <nd ref="319255868"/>
    <nd ref="319255869"/>
    <tag k="bicycle" v="yes"/>
    <tag k="bridge" v="yes"/>
    <tag k="foot" v="yes"/>
    <tag k="highway" v="footway"/>
    <tag k="layer" v="1"/>
  </way>
  <way id="29030138" version="1" timestamp="2008-12-16T18:03:11Z" uid="43863" user="Rundling" changeset="424249">
    <nd ref="280695194"/>
    <nd ref="319255868"/>
    <tag k="bicycle" v="yes"/>
    <tag k="foot" v="yes"/>
    <tag k="highway" v="cycleway"/>
  </way>
  <way id="29030138" version="2" timestamp="2009-05-07T17:21:51Z" uid="43863" user="Rundling" changeset="1109390"/>
  <way id="29030139" version="1" timestamp="2008-12-16T18:03:11Z" uid="43863" user="Rundling" changeset="424249">
    <nd ref="319255869"/>
    <nd ref="319254997"/>
    <tag k="bicycle" v="yes"/>
    <tag k="foot" v="yes"/>
    <tag k="highway" v="cycleway"/>
  </way>
  <way id="29030139" version="2" timestamp="2009-05-07T13:19:29Z" uid="43863" user="Rundling" changeset="1107150">
    <nd ref="319255869"/>
    <nd ref="319254997"/>
    <tag k="bicycle" v="yes"/>
    <tag k="foot" v="yes"/>
    <tag k="highway" v="footway"/>
    <tag k="surface" v="cobblestone"/>
  </way>
  <way id="29030139" version="3" timestamp="2011-02-15T10:52:10Z" uid="43863" user="Rundling" changeset="7293758">
    <nd ref="319255869"/>
    <nd ref="1154261340"/>
    <nd ref="319254997"/>
    <tag k="bicycle" v="yes"/>
    <tag k="foot" v="yes"/>
    <tag k="highway" v="footway"/>
    <tag k="surface" v="cobblestone"/>
  </way>
  <way id="29030146" version="2" timestamp="2010-04-03T04:06:05Z" uid="20587" user="balrog-kun" changeset="4309442">
    <nd ref="319255898"/>
    <nd ref="319255900"/>
    <nd ref="319255901"/>
    <nd ref="319255903"/>
    <nd ref="319255905"/>
    <nd ref="319255906"/>
    <nd ref="319255897"/>
    <tag k="created_by" v="Merkaartor 0.12"/>
    <tag k="highway" v="unclassified"/>
    <tag k="name" v="North 139th Drive"/>
  </way>
  <way id="29030550" version="1" timestamp="2008-12-16T18:21:57Z" uid="43863" user="Rundling" changeset="424249">
    <nd ref="319259405"/>
    <nd ref="270333072"/>
    <nd ref="270333073"/>
    <nd ref="270333074"/>
    <nd ref="315343491"/>
    <nd ref="315343493"/>
    <nd ref="270333075"/>
    <tag k="created_by" v="Potlatch 0.10f"/>
    <tag k="highway" v="secondary"/>
    <tag k="name" v="Alt Prielip"/>
  </way>
  <way id="29030550" version="2" timestamp="2008-12-21T10:16:28Z" uid="43863" user="Rundling" changeset="511102">
    <nd ref="319259405"/>
    <nd ref="270333072"/>
    <nd ref="320477232"/>
    <nd ref="270333073"/>
    <nd ref="270333074"/>
    <nd ref="315343491"/>
    <nd ref="315343493"/>
    <nd ref="270333075"/>
    <tag k="created_by" v="Potlatch 0.10f"/>
    <tag k="highway" v="secondary"/>
    <tag k="name" v="Alt Prielip"/>
  </way>
  <way id="29030550" version="3" timestamp="2008-12-21T12:29:06Z" uid="43863" user="Rundling" changeset="514034">
    <nd ref="319259405"/>
    <nd ref="270333072"/>
    <nd ref="320477232"/>
    <nd ref="270333073"/>
    <nd ref="270333074"/>
    <nd ref="315343491"/>
    <nd ref="315343493"/>
    <nd ref="270333075"/>
    <tag k="created_by" v="Potlatch 0.10f"/>
    <tag k="highway" v="tertiary"/>
    <tag k="name" v="Alt Prielip"/>
  </way>
  <way id="29030550" version="4" timestamp="2008-12-23T21:58:39Z" uid="43863" user="Rundling" changeset="574593">
    <nd ref="319259405"/>
    <nd ref="270333072"/>
    <nd ref="320477232"/>
    <nd ref="270333073"/>
    <nd ref="321364940"/>
    <nd ref="270333074"/>
    <nd ref="315343491"/>
    <nd ref="315343493"/>
    <nd ref="270333075"/>
    <tag k="created_by" v="Potlatch 0.10f"/>
    <tag k="highway" v="tertiary"/>
    <tag k="name" v="Alt Prielip"/>
  </way>
  <way id="29030550" version="6" timestamp="2008-12-28T22:52:55Z" uid="43863" user="Rundling" changeset="655201">
    <nd ref="319259405"/>
    <nd ref="270333072"/>
    <nd ref="320477232"/>
    <nd ref="270333073"/>
    <nd ref="321364940"/>
    <nd ref="270333074"/>
    <nd ref="315343491"/>
    <nd ref="315343493"/>
    <nd ref="270333075"/>
    <tag k="created_by" v="Potlatch 0.10f"/>
    <tag k="highway" v="tertiary"/>
    <tag k="history" v="Retrieved from v4"/>
    <tag k="name" v="Alt Prielip"/>
  </way>
  <way id="29030550" version="7" timestamp="2009-01-08T21:05:22Z" uid="43863" user="Rundling" changeset="758106">
    <nd ref="319259405"/>
    <nd ref="270333072"/>
    <nd ref="320477232"/>
    <nd ref="270333073"/>
    <nd ref="321364940"/>
    <nd ref="270333074"/>
    <nd ref="315343491"/>
    <nd ref="315343493"/>
    <nd ref="270333075"/>
    <tag k="highway" v="tertiary"/>
    <tag k="name" v="Alt Prielip"/>
    <tag k="ref" v="K 16"/>
  </way>
  <way id="29030550" version="8" timestamp="2009-01-11T21:01:28Z" uid="43863" user="Rundling" changeset="774178">
    <nd ref="319259405"/>
    <nd ref="270333072"/>
    <nd ref="320477232"/>
    <nd ref="321364940"/>
    <nd ref="270333074"/>
    <nd ref="315343491"/>
    <nd ref="315343493"/>
    <nd ref="270333075"/>
    <tag k="highway" v="tertiary"/>
    <tag k="name" v="Alt Prielip"/>
    <tag k="ref" v="K 16"/>
  </way>
  <way id="29030550" version="9" timestamp="2009-01-29T15:02:16Z" uid="43863" user="Rundling" changeset="851066">
    <nd ref="319259405"/>
    <nd ref="338929299"/>
    <tag k="highway" v="tertiary"/>
    <tag k="name" v="Alt Prielip"/>
    <tag k="ref" v="K 16"/>
  </way>
  <way id="29030550" version="10" timestamp="2009-02-01T08:31:07Z" uid="43863" user="Rundling" changeset="9737"/>
  <way id="29030718" version="11" timestamp="2010-04-03T21:07:08Z" uid="20587" user="balrog-kun" changeset="4315899">
    <nd ref="319260610"/>
    <nd ref="319262248"/>
    <nd ref="319260630"/>
    <nd ref="319262250"/>
    <nd ref="319262251"/>
    <nd ref="319262530"/>
    <nd ref="319262252"/>
    <nd ref="319262253"/>
    <nd ref="319262531"/>
    <nd ref="319262254"/>
    <nd ref="319262255"/>
    <nd ref="319262532"/>
    <nd ref="319262257"/>
    <nd ref="319262258"/>
    <nd ref="319262534"/>
    <nd ref="319260610"/>
    <tag k="created_by" v="Potlatch 0.10f"/>
    <tag k="highway" v="residential"/>
    <tag k="name" v="Village Downtown Boulevard"/>
    <tag k="oneway" v="yes"/>
  </way>
  <way id="29030768" version="5" timestamp="2010-04-03T21:07:08Z" uid="20587" user="balrog-kun" changeset="4315899">
    <nd ref="319260621"/>
    <nd ref="319260641"/>
    <tag k="created_by" v="Potlatch 0.10f"/>
    <tag k="highway" v="residential"/>
    <tag k="name" v="Village Downtown Boulevard"/>
  </way>
  <way id="29030772" version="8" timestamp="2010-04-03T21:07:08Z" uid="20587" user="balrog-kun" changeset="4315899">
    <nd ref="40839680"/>
    <nd ref="319260647"/>
    <nd ref="319260646"/>
    <nd ref="319260645"/>
    <nd ref="319260644"/>
    <nd ref="319260643"/>
    <nd ref="319260642"/>
    <nd ref="319260641"/>
    <nd ref="319260640"/>
    <nd ref="319264250"/>
    <tag k="created_by" v="Potlatch 0.10f"/>
    <tag k="highway" v="residential"/>
    <tag k="name" v="Village Downtown Boulevard"/>
    <tag k="oneway" v="yes"/>
  </way>
  <way id="29030792" version="3" timestamp="2010-04-03T21:07:08Z" uid="20587" user="balrog-kun" changeset="4315899">
    <nd ref="319260611"/>
    <nd ref="319260631"/>
    <tag k="created_by" v="Potlatch 0.10f"/>
    <tag k="highway" v="residential"/>
    <tag k="name" v="Village Downtown Boulevard"/>
  </way>
  <way id="29030796" version="3" timestamp="2010-04-03T21:07:09Z" uid="20587" user="balrog-kun" changeset="4315899">
    <nd ref="319260617"/>
    <nd ref="319260637"/>
    <tag k="created_by" v="Potlatch 0.10f"/>
    <tag k="highway" v="residential"/>
    <tag k="name" v="Village Downtown Boulevard"/>
  </way>
  <way id="29030872" version="4" timestamp="2010-04-03T21:07:09Z" uid="20587" user="balrog-kun" changeset="4315899">
    <nd ref="319260625"/>
    <nd ref="319260645"/>
    <tag k="created_by" v="Potlatch 0.10f"/>
    <tag k="highway" v="residential"/>
    <tag k="name" v="Village Downtown Boulevard"/>
  </way>
  <way id="29030881" version="4" timestamp="2010-04-03T21:07:09Z" uid="20587" user="balrog-kun" changeset="4315899">
    <nd ref="319260626"/>
    <nd ref="319260646"/>
    <tag k="created_by" v="Potlatch 0.10f"/>
    <tag k="highway" v="residential"/>
    <tag k="name" v="Village Downtown Boulevard"/>
  </way>
  <way id="29030917" version="4" timestamp="2010-04-03T21:07:09Z" uid="20587" user="balrog-kun" changeset="4315899">
    <nd ref="319260620"/>
    <nd ref="319260640"/>
    <tag k="created_by" v="Potlatch 0.10f"/>
    <tag k="highway" v="residential"/>
    <tag k="name" v="Village Downtown Boulevard"/>
  </way>
  <way id="29030945" version="7" timestamp="2010-04-03T21:07:09Z" uid="20587" user="balrog-kun" changeset="4315899">
    <nd ref="319260610"/>
    <nd ref="319260611"/>
    <nd ref="319260612"/>
    <nd ref="319260613"/>
    <nd ref="319260614"/>
    <nd ref="319260615"/>
    <nd ref="319260616"/>
    <nd ref="319260617"/>
    <nd ref="319264257"/>
    <tag k="created_by" v="Potlatch 0.10f"/>
    <tag k="highway" v="residential"/>
    <tag k="name" v="Village Downtown Boulevard"/>
    <tag k="oneway" v="yes"/>
  </way>
  <way id="29030973" version="6" timestamp="2010-04-03T21:07:09Z" uid="20587" user="balrog-kun" changeset="4315899">
    <nd ref="319264262"/>
    <nd ref="319260620"/>
    <nd ref="319260621"/>
    <nd ref="319260622"/>
    <nd ref="319260623"/>
    <nd ref="319260624"/>
    <nd ref="319260625"/>
    <nd ref="319260626"/>
    <nd ref="319260627"/>
    <nd ref="40839680"/>
    <tag k="created_by" v="Potlatch 0.10f"/>
    <tag k="highway" v="residential"/>
    <tag k="name" v="Village Downtown Boulevard"/>
    <tag k="oneway" v="yes"/>
  </way>
  <way id="29030977" version="3" timestamp="2010-04-03T21:07:09Z" uid="20587" user="balrog-kun" changeset="4315899">
    <nd ref="319264254"/>
    <nd ref="319260638"/>
    <nd ref="319260637"/>
    <nd ref="319260636"/>
    <nd ref="319260635"/>
    <nd ref="319260634"/>
    <nd ref="319260633"/>
    <nd ref="319260632"/>
    <nd ref="319260631"/>
    <nd ref="319260630"/>
    <tag k="created_by" v="Potlatch 0.10f"/>
    <tag k="highway" v="residential"/>
    <tag k="name" v="Village Downtown Boulevard"/>
    <tag k="oneway" v="yes"/>
  </way>
  <way id="29030983" version="2" timestamp="2009-12-09T16:08:31Z" uid="200463" user="harmagedon" changeset="3334003">
    <nd ref="35126507"/>
    <nd ref="35126509"/>
    <nd ref="35126512"/>
    <nd ref="35126515"/>
    <nd ref="35126517"/>
    <nd ref="35126519"/>
    <nd ref="35126521"/>
    <nd ref="35126524"/>
    <nd ref="35126527"/>
    <nd ref="35126529"/>
    <tag k="highway" v="path"/>
    <tag k="name" v="Auerhahnloipe"/>
    <tag k="piste:type" v="nordic"/>
    <tag k="sac_scale" v="hiking"/>
  </way>
  <way id="29030984" version="3" timestamp="2009-12-09T16:08:15Z" uid="200463" user="harmagedon" changeset="3334003">
    <nd ref="35126507"/>
    <nd ref="319262723"/>
    <nd ref="319262724"/>
    <nd ref="319262725"/>
    <nd ref="319262729"/>
    <nd ref="319262726"/>
    <nd ref="35122001"/>
    <tag k="highway" v="track"/>
    <tag k="name" v="Auerhahnloipe"/>
    <tag k="piste:type" v="nordic"/>
    <tag k="tracktype" v="grade3"/>
  </way>
</osm>
