<?xml version='1.0' encoding='UTF-8'?>
<osm version="0.6" generator="libosmium/2.20.0">
  <way id="29031009" version="3" timestamp="2009-09-26T18:00:56Z" uid="9581" user="Lobelt" changeset="2644385">
    <nd ref="319262122"/>
    <nd ref="319263084"/>
    <nd ref="319262702"/>
    <nd ref="319262727"/>
    <nd ref="336133524"/>
    <nd ref="319262728"/>
    <nd ref="509042300"/>
    <nd ref="304355879"/>
    <tag k="highway" v="residential"/>
    <tag k="name" v="Elisenstraße"/>
  </way>
  <way id="29031029" version="7" timestamp="2009-09-26T18:01:03Z" uid="9581" user="Lobelt" changeset="2644385">
    <nd ref="319262702"/>
    <nd ref="319263428"/>
    <nd ref="319266338"/>
    <nd ref="319263429"/>
    <nd ref="319263430"/>
    <nd ref="509042340"/>
    <nd ref="319263431"/>
    <nd ref="331237966"/>
    <nd ref="319263432"/>
    <nd ref="336133523"/>
    <tag k="highway" v="residential"/>
    <tag k="name" v="Agnestraße"/>
  </way>
  <way id="29031093" version="5" timestamp="2010-04-03T21:07:10Z" uid="20587" user="balrog-kun" changeset="4315899">
    <nd ref="319264249"/>
    <nd ref="319264250"/>
    <nd ref="319264251"/>
    <nd ref="319264252"/>
    <nd ref="319264253"/>
    <nd ref="319264254"/>
    <nd ref="319264255"/>
    <nd ref="319264256"/>
    <nd ref="319264257"/>
    <nd ref="319264258"/>
    <nd ref="319264259"/>
    <nd ref="319264260"/>
    <nd ref="319264261"/>
    <nd ref="319264262"/>
    <nd ref="319264264"/>
    <nd ref="319264265"/>
    <tag k="created_by" v="Potlatch 0.10f"/>
    <tag k="highway" v="residential"/>
    <tag k="name" v="Village Downtown Boulevard"/>
    <tag k="oneway" v="yes"/>
  </way>
  <way id="29031210" version="2" timestamp="2009-09-26T18:00:54Z" uid="9581" user="Lobelt" changeset="2644385">
    <nd ref="319265962"/>
    <nd ref="319265963"/>
    <nd ref="319265964"/>
    <nd ref="319265965"/>
    <nd ref="319265966"/>
    <nd ref="509042209"/>
    <tag k="highway" v="residential"/>
    <tag k="name" v="Goethestraße"/>
  </way>
  <way id="29031246" version="4" timestamp="2009-09-26T18:00:54Z" uid="9581" user="Lobelt" changeset="2644385">
    <nd ref="336133524"/>
    <nd ref="319266367"/>
    <nd ref="319266338"/>
    <nd ref="331237966"/>
    <nd ref="509042344"/>
    <tag k="highway" v="residential"/>
    <tag k="name" v="Steinstraße"/>
  </way>
  <way id="29031263" version="3" timestamp="2009-12-09T16:08:30Z" uid="200463" user="harmagedon" changeset="3334003">
    <nd ref="317771210"/>
    <nd ref="318571325"/>
    <tag k="highway" v="path"/>
    <tag k="sac_scale" v="hiking"/>
  </way>
  <way id="29031303" version="1" timestamp="2008-12-16T19:00:02Z" uid="43863" user="Rundling" changeset="424249">
    <nd ref="272285742"/>
    <nd ref="280696384"/>
    <nd ref="319254205"/>
    <nd ref="309730911"/>
    <nd ref="59186912"/>
    <tag k="created_by" v="Potlatch 0.10f"/>
    <tag k="highway" v="primary"/>
    <tag k="name" v="Soltauer Straße"/>
    <tag k="ref" v="B 71"/>
  </way>
  <way id="29031303" version="2" timestamp="2009-04-29T15:33:49Z" uid="43863" user="Rundling" changeset="1016890">
    <nd ref="272285742"/>
    <nd ref="280696384"/>
    <nd ref="319254205"/>
    <nd ref="309730911"/>
    <nd ref="387419073"/>
    <nd ref="59186912"/>
    <tag k="created_by" v="Potlatch 0.10f"/>
    <tag k="highway" v="primary"/>
    <tag k="name" v="Soltauer Straße"/>
    <tag k="ref" v="B 71"/>
  </way>
  <way id="29031303" version="3" timestamp="2009-06-22T18:35:10Z" uid="43863" user="Rundling" changeset="1596461">
    <nd ref="272285742"/>
    <nd ref="280696384"/>
    <nd ref="319254205"/>
    <nd ref="309730911"/>
    <nd ref="387419073"/>
    <nd ref="59186912"/>
    <tag k="highway" v="primary"/>
    <tag k="name" v="Soltauer Straße"/>
    <tag k="ref" v="B 71"/>
  </way>
  <way id="29031328" version="2" timestamp="2009-12-09T16:08:30Z" uid="200463" user="harmagedon" changeset="3334003">
    <nd ref="318571325"/>
    <nd ref="35122001"/>
    <tag k="highway" v="path"/>
    <tag k="piste:type" v="nordic"/>
    <tag k="sac_scale" v="hiking"/>
  </way>
  <way id="29031524" version="3" timestamp="2008-12-20T02:27:54Z" uid="6975" user="ulfl" changeset="489842">
    <nd ref="319268459"/>
    <nd ref="319268460"/>
    <nd ref="319268461"/>
    <nd ref="319268462"/>
    <nd ref="319268463"/>
    <nd ref="319268464"/>
    <nd ref="319268465"/>
    <nd ref="319268466"/>
    <nd ref="319268467"/>
    <nd ref="319268468"/>
    <nd ref="319268469"/>
    <nd ref="319268470"/>
    <nd ref="319268471"/>
    <nd ref="319268472"/>
    <nd ref="319268473"/>
    <nd ref="319268474"/>
    <nd ref="319268475"/>
    <tag k="name" v="Trows Burn"/>
    <tag k="source" v="npe"/>
    <tag k="waterway" v="stream"/>
  </way>
  <way id="29031649" version="2" timestamp="2009-12-09T16:07:34Z" uid="200463" user="harmagedon" changeset="3334003">
    <nd ref="303035566"/>
    <nd ref="303035570"/>
    <nd ref="303035574"/>
    <nd ref="303035579"/>
    <tag k="highway" v="track"/>
    <tag k="tracktype" v="grade2"/>
  </way>
  <way id="29031650" version="2" timestamp="2009-12-09T16:08:14Z" uid="200463" user="harmagedon" changeset="3334003">
    <nd ref="303035489"/>
    <nd ref="303035492"/>
    <nd ref="303035493"/>
    <nd ref="303035498"/>
    <nd ref="319269649"/>
    <nd ref="303035552"/>
    <nd ref="303035566"/>
    <tag k="highway" v="track"/>
    <tag k="name" v="Auerhahnloipe"/>
    <tag k="piste:type" v="nordic"/>
    <tag k="tracktype" v="grade2"/>
  </way>
  <way id="29031651" version="2" timestamp="2009-12-09T16:08:13Z" uid="200463" user="harmagedon" changeset="3334003">
    <nd ref="303035483"/>
    <nd ref="303035484"/>
    <nd ref="303035485"/>
    <nd ref="303035486"/>
    <nd ref="319269652"/>
    <tag k="highway" v="track"/>
    <tag k="name" v="Auerhahnloipe"/>
    <tag k="piste:type" v="nordic"/>
    <tag k="tracktype" v="grade2"/>
  </way>
  <way id="29031754" version="3" timestamp="2010-06-29T19:16:34Z" uid="74617" user="JohnSmith" changeset="5108182">
    <nd ref="319270460"/>
    <nd ref="319270461"/>
    <nd ref="319270462"/>
    <nd ref="319270463"/>
    <nd ref="319270460"/>
    <tag k="fixme" v="sport=football is ambiguous, see http://wiki.osm.org/wiki/Football for more details"/>
    <tag k="leisure" v="pitch"/>
    <tag k="sport" v="football"/>
  </way>
  <way id="29031762" version="1" timestamp="2008-12-16T19:25:42Z" uid="43863" user="Rundling" changeset="424249">
    <nd ref="319270755"/>
    <nd ref="31328835"/>
    <nd ref="31328570"/>
    <nd ref="319270764"/>
    <tag k="created_by" v="Potlatch 0.10b"/>
    <tag k="highway" v="secondary"/>
    <tag k="name" v="Bahnhofsstraße"/>
    <tag k="ref" v="K 4"/>
    <tag k="surface" v="paved"/>
  </way>
  <way id="29031762" version="2" timestamp="2008-12-24T10:07:39Z" uid="43863" user="Rundling" changeset="581932">
    <nd ref="319270755"/>
    <nd ref="31328835"/>
    <nd ref="31328570"/>
    <nd ref="319270764"/>
    <tag k="created_by" v="Potlatch 0.10b"/>
    <tag k="highway" v="tertiary"/>
    <tag k="name" v="Bahnhofsstraße"/>
    <tag k="ref" v="K 4"/>
    <tag k="surface" v="paved"/>
  </way>
  <way id="29031762" version="3" timestamp="2008-12-30T15:31:01Z" uid="43863" user="Rundling" changeset="671125">
    <nd ref="319270755"/>
    <nd ref="31328835"/>
    <nd ref="31328570"/>
    <nd ref="319270764"/>
    <tag k="created_by" v="Potlatch 0.10b"/>
    <tag k="highway" v="tertiary"/>
    <tag k="name" v="Bahnhofsstraße"/>
    <tag k="ref" v="K 54"/>
    <tag k="surface" v="paved"/>
  </way>
  <way id="29031762" version="4" timestamp="2009-06-10T16:53:04Z" uid="43863" user="Rundling" changeset="1479536">
    <nd ref="319270755"/>
    <nd ref="31328835"/>
    <nd ref="31328570"/>
    <nd ref="319270764"/>
    <tag k="highway" v="tertiary"/>
    <tag k="name" v="Bahnhofsstraße"/>
    <tag k="ref" v="K 54"/>
    <tag k="surface" v="paved"/>
  </way>
  <way id="29031763" version="1" timestamp="2008-12-16T19:25:42Z" uid="43863" user="Rundling" changeset="424249">
    <nd ref="287539107"/>
    <nd ref="319270762"/>
    <tag k="highway" v="service"/>
  </way>
</osm>
