<?xml version='1.0' encoding='UTF-8'?>
<osm version="0.6" generator="libosmium/2.20.0">
  <way id="29073000" version="1" timestamp="2008-12-18T19:23:53Z" uid="43863" user="Rundling" changeset="458488">
    <nd ref="319798013"/>
    <nd ref="319798015"/>
    <tag k="highway" v="service"/>
    <tag k="surface" v="paved"/>
  </way>
  <way id="29073000" version="2" timestamp="2008-12-23T18:59:12Z" uid="43863" user="Rundling" changeset="574593">
    <nd ref="321324922"/>
    <nd ref="321324921"/>
    <nd ref="319798015"/>
    <nd ref="321324920"/>
    <tag k="highway" v="service"/>
    <tag k="surface" v="paved"/>
  </way>
  <way id="29073035" version="6" timestamp="2010-04-03T21:07:14Z" uid="20587" user="balrog-kun" changeset="4315899">
    <nd ref="40867395"/>
    <nd ref="319798594"/>
    <nd ref="40928745"/>
    <nd ref="40853927"/>
    <nd ref="40777309"/>
    <nd ref="40928758"/>
    <nd ref="40928764"/>
    <nd ref="40928767"/>
    <nd ref="40928770"/>
    <nd ref="40806012"/>
    <nd ref="40928775"/>
    <nd ref="40928778"/>
    <nd ref="40928781"/>
    <nd ref="40928784"/>
    <nd ref="40928788"/>
    <nd ref="40928792"/>
    <tag k="highway" v="primary"/>
    <tag k="name" v="West Main Street"/>
    <tag k="name_1" v="State Highway 84"/>
    <tag k="name_2" v="United States Highway 191"/>
    <tag k="name_3" v="Huffine Lane"/>
    <tag k="ref" v="US 191"/>
    <tag k="tiger:cfcc" v="A21"/>
    <tag k="tiger:county" v="Gallatin, MT"/>
    <tag k="tiger:name_base" v="Main"/>
    <tag k="tiger:name_base_1" v="State Highway 84"/>
    <tag k="tiger:name_base_2" v="United States Highway 191"/>
    <tag k="tiger:name_base_3" v="Huffine"/>
    <tag k="tiger:name_direction_prefix" v="W"/>
    <tag k="tiger:name_type" v="St"/>
    <tag k="tiger:name_type_3" v="Ln"/>
    <tag k="tiger:reviewed" v="no"/>
    <tag k="tiger:separated" v="no"/>
    <tag k="tiger:source" v="tiger_import_dch_v0.6_20070813"/>
    <tag k="tiger:tlid" v="163516131:163549995:163498054:163498056:163498057:163498062:163498728:163498063:163498066:163498046:163498048:163498050:163498059"/>
    <tag k="tiger:zip_left" v="59715"/>
    <tag k="tiger:zip_right" v="59715"/>
  </way>
  <way id="29073098" version="3" timestamp="2010-04-03T21:07:14Z" uid="20587" user="balrog-kun" changeset="4315899">
    <nd ref="319798594"/>
    <nd ref="319798619"/>
    <nd ref="319798620"/>
    <nd ref="319798621"/>
    <nd ref="319798622"/>
    <nd ref="319798623"/>
    <nd ref="319798624"/>
    <nd ref="319798625"/>
    <tag k="created_by" v="Potlatch 0.10f"/>
    <tag k="highway" v="residential"/>
    <tag k="name" v="South 23rd Avenue"/>
    <tag k="oneway" v="yes"/>
  </way>
  <way id="29073156" version="2" timestamp="2009-12-09T17:39:05Z" uid="200463" user="harmagedon" changeset="3335331">
    <nd ref="15832885"/>
    <nd ref="27409354"/>
    <nd ref="319271020"/>
    <nd ref="311426459"/>
    <nd ref="96650480"/>
    <tag k="highway" v="secondary"/>
    <tag k="maxspeed" v="50"/>
    <tag k="name" v="Hauptstraße"/>
    <tag k="ref" v="St 2154"/>
  </way>
  <way id="29073207" version="3" timestamp="2010-03-30T22:39:30Z" uid="163746" user="anti_bot-nonsense" changeset="4281484">
    <nd ref="272909251"/>
    <nd ref="272909337"/>
    <nd ref="272909338"/>
    <tag k="bridge" v="yes"/>
    <tag k="highway" v="motorway"/>
    <tag k="layer" v="1"/>
  </way>
  <way id="29073224" version="1" timestamp="2008-12-18T19:32:42Z" uid="58091" user="Andreas M" changeset="464491">
    <nd ref="291190325"/>
    <nd ref="291190049"/>
    <tag k="bridge" v="yes"/>
    <tag k="created_by" v="Potlatch 0.10c"/>
    <tag k="highway" v="tertiary"/>
    <tag k="layer" v="1"/>
    <tag k="name" v="Sieveringer Brücke"/>
  </way>
  <way id="29073226" version="1" timestamp="2008-12-18T19:32:43Z" uid="58091" user="Andreas M" changeset="464491">
    <nd ref="291190049"/>
    <nd ref="291190401"/>
    <nd ref="291190327"/>
    <nd ref="291190402"/>
    <nd ref="291190053"/>
    <nd ref="291190588"/>
    <nd ref="291190330"/>
    <nd ref="101183224"/>
    <nd ref="25616868"/>
    <nd ref="25616869"/>
    <nd ref="25616870"/>
    <nd ref="25616871"/>
    <nd ref="25616873"/>
    <nd ref="301347564"/>
    <nd ref="301347764"/>
    <nd ref="25616874"/>
    <nd ref="101183225"/>
    <nd ref="25616875"/>
    <nd ref="25616877"/>
    <tag k="created_by" v="Potlatch 0.10c"/>
    <tag k="highway" v="tertiary"/>
    <tag k="name" v="Höhenstraße"/>
  </way>
  <way id="29073308" version="2" timestamp="2010-04-03T04:06:16Z" uid="20587" user="balrog-kun" changeset="4309442">
    <nd ref="319800272"/>
    <nd ref="319800300"/>
    <nd ref="319800302"/>
    <nd ref="319800304"/>
    <nd ref="319800305"/>
    <nd ref="319800307"/>
    <nd ref="319800310"/>
    <nd ref="319800312"/>
    <nd ref="319800314"/>
    <nd ref="319800300"/>
    <tag k="created_by" v="Merkaartor 0.12"/>
    <tag k="highway" v="residential"/>
    <tag k="name" v="East Windsor Drive"/>
  </way>
  <way id="29073309" version="2" timestamp="2010-04-03T04:06:16Z" uid="20587" user="balrog-kun" changeset="4309442">
    <nd ref="319800276"/>
    <nd ref="319800318"/>
    <tag k="created_by" v="Merkaartor 0.12"/>
    <tag k="highway" v="residential"/>
    <tag k="name" v="East Parkview Drive"/>
  </way>
  <way id="29073311" version="2" timestamp="2010-04-03T04:06:16Z" uid="20587" user="balrog-kun" changeset="4309442">
    <nd ref="319800280"/>
    <nd ref="319800333"/>
    <nd ref="319800340"/>
    <nd ref="319800345"/>
    <nd ref="319800351"/>
    <nd ref="319800354"/>
    <nd ref="319800359"/>
    <nd ref="319800363"/>
    <nd ref="319800367"/>
    <nd ref="319800371"/>
    <nd ref="319800340"/>
    <tag k="created_by" v="Merkaartor 0.12"/>
    <tag k="highway" v="residential"/>
    <tag k="name" v="East Chatteau Drive"/>
  </way>
  <way id="29073350" version="1" timestamp="2008-12-18T19:38:44Z" uid="58091" user="Andreas M" changeset="464491">
    <nd ref="381770"/>
    <nd ref="319801534"/>
    <nd ref="319801535"/>
    <nd ref="319801536"/>
    <nd ref="319801538"/>
    <nd ref="319801539"/>
    <tag k="created_by" v="Potlatch 0.10c"/>
    <tag k="fixme" v="Geht hinter der Zierleitenbrücke weiter"/>
    <tag k="highway" v="track"/>
    <tag k="name" v="Salmannsdorfer Höhe"/>
    <tag k="tracktype" v="grade3"/>
  </way>
  <way id="29073351" version="1" timestamp="2008-12-18T19:38:44Z" uid="58091" user="Andreas M" changeset="464491">
    <nd ref="101186680"/>
    <nd ref="101186681"/>
    <tag k="bridge" v="yes"/>
    <tag k="created_by" v="Potlatch 0.10c"/>
    <tag k="cycleway" v="lane"/>
    <tag k="highway" v="tertiary"/>
    <tag k="layer" v="1"/>
    <tag k="name" v="Zierleitenbrücke"/>
  </way>
  <way id="29073352" version="1" timestamp="2008-12-18T19:38:44Z" uid="58091" user="Andreas M" changeset="464491">
    <nd ref="101186681"/>
    <nd ref="381771"/>
    <tag k="created_by" v="Potlatch 0.10c"/>
    <tag k="cycleway" v="lane"/>
    <tag k="highway" v="tertiary"/>
    <tag k="name" v="Höhenstraße"/>
  </way>
  <way id="29073726" version="4" timestamp="2010-09-02T18:04:37Z" uid="96874" user="Quedel" changeset="5664311">
    <nd ref="469225473"/>
    <nd ref="469225471"/>
    <nd ref="469234439"/>
    <nd ref="297755551"/>
    <nd ref="469234438"/>
    <nd ref="253995899"/>
    <tag k="bus" v="destination"/>
    <tag k="highway" v="service"/>
    <tag k="layer" v="0"/>
    <tag k="motorcar" v="no"/>
    <tag k="surface" v="cobblestone"/>
  </way>
  <way id="29073726" version="6" timestamp="2010-10-13T18:08:25Z" uid="96874" user="Quedel" changeset="6030469">
    <nd ref="469225473"/>
    <nd ref="897127208"/>
    <nd ref="469225471"/>
    <nd ref="469234439"/>
    <nd ref="297755551"/>
    <nd ref="469234438"/>
    <nd ref="253995899"/>
    <tag k="bus" v="destination"/>
    <tag k="highway" v="service"/>
    <tag k="layer" v="0"/>
    <tag k="motorcar" v="no"/>
    <tag k="psv" v="yes"/>
    <tag k="surface" v="cobblestone"/>
  </way>
  <way id="29073728" version="3" timestamp="2009-05-17T20:30:41Z" uid="96874" user="Quedel" changeset="1228920">
    <nd ref="290174208"/>
    <nd ref="297471644"/>
    <nd ref="297471638"/>
    <nd ref="320052907"/>
    <nd ref="297471631"/>
    <nd ref="297471625"/>
    <nd ref="297471746"/>
    <nd ref="306201352"/>
    <nd ref="403454480"/>
    <nd ref="306201356"/>
    <nd ref="33506144"/>
    <tag k="created_by" v="Potlatch 0.10b"/>
    <tag k="highway" v="residential"/>
    <tag k="name" v="Steinweg"/>
  </way>
  <way id="29073728" version="5" timestamp="2010-09-01T18:20:58Z" uid="96874" user="Quedel" changeset="5656024">
    <nd ref="290174208"/>
    <nd ref="297471644"/>
    <nd ref="297471638"/>
    <nd ref="320052907"/>
    <nd ref="297471631"/>
    <nd ref="297471625"/>
    <nd ref="297471746"/>
    <nd ref="306201352"/>
    <nd ref="403454480"/>
    <nd ref="306201356"/>
    <nd ref="33506144"/>
    <tag k="highway" v="residential"/>
    <tag k="maxspeed" v="30"/>
    <tag k="name" v="Steinweg"/>
    <tag k="oneway" v="yes"/>
    <tag k="surface" v="cobblestone"/>
  </way>
  <way id="29073728" version="6" timestamp="2010-10-05T22:12:44Z" uid="96874" user="Quedel" changeset="5965439">
    <nd ref="290174208"/>
    <nd ref="297471644"/>
    <nd ref="297471638"/>
    <nd ref="320052907"/>
    <nd ref="297471631"/>
    <tag k="highway" v="residential"/>
    <tag k="maxspeed" v="30"/>
    <tag k="name" v="Steinweg"/>
    <tag k="oneway" v="yes"/>
    <tag k="surface" v="cobblestone"/>
  </way>
  <way id="29073728" version="7" timestamp="2010-10-15T18:48:56Z" uid="96874" user="Quedel" changeset="6051410">
    <nd ref="290174208"/>
    <nd ref="297471644"/>
    <nd ref="297471638"/>
    <nd ref="320052907"/>
    <nd ref="297471631"/>
    <tag k="highway" v="residential"/>
    <tag k="maxspeed" v="30"/>
    <tag k="name" v="Steinweg"/>
    <tag k="oneway" v="yes"/>
    <tag k="parking:condition:right" v="free"/>
    <tag k="parking:lane:left" v="no_parking"/>
    <tag k="parking:lane:right" v="inline"/>
    <tag k="surface" v="cobblestone"/>
  </way>
  <way id="29073910" version="2" timestamp="2010-04-03T04:06:16Z" uid="20587" user="balrog-kun" changeset="4309442">
    <nd ref="319807865"/>
    <nd ref="319807885"/>
    <nd ref="319807887"/>
    <nd ref="319807889"/>
    <nd ref="319807891"/>
    <nd ref="319807894"/>
    <nd ref="319807896"/>
    <nd ref="319807897"/>
    <nd ref="319807899"/>
    <nd ref="319807901"/>
    <nd ref="319807903"/>
    <tag k="created_by" v="Merkaartor 0.12"/>
    <tag k="highway" v="residential"/>
    <tag k="name" v="North Las Palmas Drive"/>
  </way>
  <way id="29073914" version="2" timestamp="2010-04-03T04:06:16Z" uid="20587" user="balrog-kun" changeset="4309442">
    <nd ref="319807867"/>
    <nd ref="319807912"/>
    <tag k="created_by" v="Merkaartor 0.12"/>
    <tag k="highway" v="residential"/>
    <tag k="name" v="North Los Alamos Drive"/>
  </way>
  <way id="29073916" version="2" timestamp="2010-04-03T04:06:17Z" uid="20587" user="balrog-kun" changeset="4309442">
    <nd ref="319807920"/>
    <nd ref="319807903"/>
    <tag k="created_by" v="Merkaartor 0.12"/>
    <tag k="highway" v="residential"/>
    <tag k="name" v="East Solano Drive"/>
  </way>
  <way id="29073918" version="2" timestamp="2010-04-03T04:06:17Z" uid="20587" user="balrog-kun" changeset="4309442">
    <nd ref="319807869"/>
    <nd ref="319807921"/>
    <nd ref="319807920"/>
    <tag k="created_by" v="Merkaartor 0.12"/>
    <tag k="highway" v="residential"/>
    <tag k="name" v="North Los Robles Drive"/>
  </way>
  <way id="29073920" version="3" timestamp="2010-04-03T04:06:17Z" uid="20587" user="balrog-kun" changeset="4309442">
    <nd ref="319810078"/>
    <nd ref="319810091"/>
    <nd ref="319807928"/>
    <nd ref="319807927"/>
    <tag k="created_by" v="Merkaartor 0.12"/>
    <tag k="highway" v="unclassified"/>
    <tag k="name" v="North La Jolla Boulevard"/>
  </way>
  <way id="29073922" version="2" timestamp="2010-04-03T04:06:17Z" uid="20587" user="balrog-kun" changeset="4309442">
    <nd ref="319807931"/>
    <nd ref="319807930"/>
    <nd ref="319807929"/>
    <tag k="created_by" v="Merkaartor 0.12"/>
    <tag k="highway" v="residential"/>
    <tag k="name" v="North 4th Avenue"/>
  </way>
  <way id="29073923" version="3" timestamp="2010-04-03T04:06:17Z" uid="20587" user="balrog-kun" changeset="4309442">
    <nd ref="319807929"/>
    <nd ref="319807882"/>
    <nd ref="321671219"/>
    <tag k="created_by" v="Merkaartor 0.12"/>
    <tag k="highway" v="residential"/>
    <tag k="name" v="East Loma Linda Boulevard"/>
  </way>
  <way id="29073924" version="2" timestamp="2010-04-03T04:06:17Z" uid="20587" user="balrog-kun" changeset="4309442">
    <nd ref="319807882"/>
    <nd ref="319807933"/>
    <nd ref="319807934"/>
    <tag k="created_by" v="Merkaartor 0.12"/>
    <tag k="highway" v="residential"/>
    <tag k="name" v="North Los Olivos Drive"/>
  </way>
  <way id="29073925" version="2" timestamp="2010-04-03T04:06:17Z" uid="20587" user="balrog-kun" changeset="4309442">
    <nd ref="319807935"/>
    <nd ref="319807936"/>
    <nd ref="319807933"/>
    <nd ref="319807924"/>
    <nd ref="319807921"/>
    <tag k="created_by" v="Merkaartor 0.12"/>
    <tag k="highway" v="residential"/>
    <tag k="name" v="East La Pasada Boulevard"/>
  </way>
  <way id="29073926" version="3" timestamp="2010-04-03T04:06:17Z" uid="20587" user="balrog-kun" changeset="4309442">
    <nd ref="321671217"/>
    <nd ref="319807931"/>
    <tag k="created_by" v="Merkaartor 0.12"/>
    <tag k="highway" v="residential"/>
    <tag k="name" v="West Brinker Drive"/>
  </way>
  <way id="29073928" version="3" timestamp="2010-04-03T04:06:17Z" uid="20587" user="balrog-kun" changeset="4309442">
    <nd ref="321671218"/>
    <nd ref="319807930"/>
    <tag k="created_by" v="Merkaartor 0.12"/>
    <tag k="highway" v="residential"/>
    <tag k="name" v="West Lawrence Boulevard"/>
  </way>
  <way id="29073929" version="2" timestamp="2010-04-03T04:06:17Z" uid="20587" user="balrog-kun" changeset="4309442">
    <nd ref="319807936"/>
    <nd ref="319807943"/>
    <tag k="created_by" v="Merkaartor 0.12"/>
    <tag k="highway" v="residential"/>
    <tag k="name" v="North Las Verdes Drive"/>
  </way>
  <way id="29073930" version="3" timestamp="2010-04-03T04:06:18Z" uid="20587" user="balrog-kun" changeset="4309442">
    <nd ref="321671220"/>
    <nd ref="319807946"/>
    <nd ref="319807947"/>
    <nd ref="319807948"/>
    <nd ref="319807944"/>
    <nd ref="319807935"/>
    <tag k="created_by" v="Merkaartor 0.12"/>
    <tag k="highway" v="unclassified"/>
    <tag k="name" v="East La Pasada Boulevard"/>
  </way>
</osm>
