<?xml version='1.0' encoding='UTF-8'?>
<osm version="0.6" generator="libosmium/2.20.0">
  <way id="29104016" version="1" timestamp="2008-12-20T10:37:08Z" uid="19626" user="Swamp" changeset="500793">
    <nd ref="320133116"/>
    <nd ref="320133117"/>
    <nd ref="320133118"/>
    <nd ref="320133121"/>
    <nd ref="320133127"/>
    <nd ref="320133131"/>
    <nd ref="320133116"/>
    <tag k="landuse" v="recreation_ground"/>
    <tag k="source" v="survey"/>
  </way>
  <way id="29104017" version="1" timestamp="2008-12-20T10:37:09Z" uid="19626" user="Swamp" changeset="500793">
    <nd ref="320133134"/>
    <nd ref="320133136"/>
    <nd ref="320133142"/>
    <nd ref="320133139"/>
    <tag k="highway" v="residential"/>
    <tag k="name" v="Balaro Street"/>
  </way>
  <way id="29104035" version="1" timestamp="2008-12-20T10:38:13Z" uid="58091" user="Andreas M" changeset="504586">
    <nd ref="101049016"/>
    <nd ref="92740255"/>
    <tag k="created_by" v="Potlatch 0.4c"/>
    <tag k="highway" v="residential"/>
    <tag k="name" v="Zrinyigasse"/>
  </way>
  <way id="29104036" version="1" timestamp="2008-12-20T10:38:13Z" uid="58091" user="Andreas M" changeset="504586">
    <nd ref="92740254"/>
    <nd ref="16055243"/>
    <tag k="created_by" v="Potlatch 0.4c"/>
    <tag k="highway" v="residential"/>
    <tag k="name" v="Hartlgasse"/>
  </way>
  <way id="29104037" version="1" timestamp="2008-12-20T10:38:13Z" uid="58091" user="Andreas M" changeset="504586">
    <nd ref="16055243"/>
    <nd ref="92740255"/>
    <tag k="created_by" v="Potlatch 0.4c"/>
    <tag k="highway" v="residential"/>
    <tag k="name" v="Hartlgasse"/>
  </way>
  <way id="29104056" version="2" timestamp="2010-06-29T19:10:20Z" uid="74617" user="JohnSmith" changeset="5108182">
    <nd ref="320133416"/>
    <nd ref="320133417"/>
    <nd ref="320133419"/>
    <nd ref="320133421"/>
    <nd ref="320133436"/>
    <nd ref="320133452"/>
    <nd ref="320133453"/>
    <nd ref="320133454"/>
    <nd ref="320133455"/>
    <nd ref="320133456"/>
    <nd ref="320133458"/>
    <nd ref="320133459"/>
    <nd ref="320133460"/>
    <nd ref="320133461"/>
    <nd ref="320133463"/>
    <nd ref="320133465"/>
    <nd ref="320133466"/>
    <nd ref="320133467"/>
    <nd ref="320133469"/>
    <nd ref="320133470"/>
    <nd ref="320133472"/>
    <nd ref="320133473"/>
    <nd ref="320133474"/>
    <nd ref="320133475"/>
    <nd ref="320133476"/>
    <nd ref="320133478"/>
    <nd ref="320133479"/>
    <nd ref="320133416"/>
    <tag k="fixme" v="sport=football is ambiguous, see http://wiki.osm.org/wiki/Football for more details"/>
    <tag k="leisure" v="stadium"/>
    <tag k="name" v="National Sports Stadium"/>
    <tag k="sport" v="football"/>
  </way>
  <way id="29104100" version="1" timestamp="2008-12-20T10:41:21Z" uid="19626" user="Swamp" changeset="500793">
    <nd ref="298086503"/>
    <nd ref="298086473"/>
    <tag k="highway" v="residential"/>
    <tag k="name" v="Boree Street"/>
    <tag k="source" v="survey"/>
    <tag k="surface" v="unpaved"/>
  </way>
  <way id="29104104" version="1" timestamp="2008-12-20T10:41:22Z" uid="19626" user="Swamp" changeset="500793">
    <nd ref="298086500"/>
    <nd ref="298086470"/>
    <tag k="highway" v="residential"/>
    <tag k="name" v="Bunganbil Street"/>
    <tag k="source" v="survey"/>
    <tag k="surface" v="unpaved"/>
  </way>
  <way id="29104107" version="4" timestamp="2009-01-19T15:49:52Z" uid="58091" user="Andreas M" changeset="812902">
    <nd ref="46866187"/>
    <nd ref="46921393"/>
    <nd ref="46921400"/>
    <nd ref="333689376"/>
    <nd ref="46921407"/>
    <tag k="created_by" v="Potlatch 0.10f"/>
    <tag k="highway" v="residential"/>
    <tag k="name" v="Pfeiffergasse"/>
    <tag k="oneway" v="yes"/>
    <tag k="source" v="yahoo"/>
  </way>
  <way id="29104108" version="1" timestamp="2008-12-20T10:41:41Z" uid="58091" user="Andreas M" changeset="504586">
    <nd ref="696505"/>
    <nd ref="122109738"/>
    <nd ref="320133785"/>
    <nd ref="696500"/>
    <tag k="created_by" v="Potlatch alpha"/>
    <tag k="cycleway" v="track"/>
    <tag k="highway" v="residential"/>
    <tag k="name" v="Universumstraße"/>
  </way>
  <way id="29104124" version="1" timestamp="2008-12-20T10:43:20Z" uid="58091" user="Andreas M" changeset="504586">
    <nd ref="33254347"/>
    <nd ref="33254348"/>
    <nd ref="33254349"/>
    <nd ref="33254350"/>
    <tag k="created_by" v="Potlatch 0.7"/>
    <tag k="highway" v="residential"/>
    <tag k="name" v="Waldmüllergasse"/>
    <tag k="source" v="yahoo"/>
  </way>
  <way id="29104188" version="1" timestamp="2008-12-20T10:49:59Z" uid="19626" user="Swamp" changeset="500793">
    <nd ref="320134431"/>
    <nd ref="320134436"/>
    <tag k="highway" v="unclassified"/>
    <tag k="name" v="Pethers Road"/>
    <tag k="source" v="gps fix/landsat"/>
  </way>
  <way id="29104304" version="1" timestamp="2008-12-20T11:00:29Z" uid="58091" user="Andreas M" changeset="504586">
    <nd ref="60058451"/>
    <nd ref="60059989"/>
    <tag k="created_by" v="Potlatch alpha"/>
    <tag k="highway" v="residential"/>
    <tag k="name" v="Kornhäuselgasse"/>
    <tag k="oneway" v="yes"/>
    <tag k="source" v="yahoo"/>
  </way>
  <way id="29104305" version="1" timestamp="2008-12-20T11:00:29Z" uid="58091" user="Andreas M" changeset="504586">
    <nd ref="60595878"/>
    <nd ref="60058451"/>
    <tag k="created_by" v="Potlatch alpha"/>
    <tag k="highway" v="residential"/>
    <tag k="name" v="Schongauergasse"/>
    <tag k="source" v="yahoo"/>
  </way>
  <way id="29104306" version="1" timestamp="2008-12-20T11:00:29Z" uid="58091" user="Andreas M" changeset="504586">
    <nd ref="60595878"/>
    <nd ref="60595879"/>
    <tag k="created_by" v="Potlatch alpha"/>
    <tag k="highway" v="residential"/>
    <tag k="name" v="Griegstraße"/>
    <tag k="source" v="yahoo"/>
  </way>
  <way id="29104307" version="1" timestamp="2008-12-20T11:00:29Z" uid="58091" user="Andreas M" changeset="504586">
    <nd ref="320135830"/>
    <nd ref="320135831"/>
    <tag k="highway" v="residential"/>
    <tag k="name" v="Luntzgasse"/>
  </way>
  <way id="29104308" version="1" timestamp="2008-12-20T11:00:29Z" uid="58091" user="Andreas M" changeset="504586">
    <nd ref="69706580"/>
    <nd ref="60596494"/>
    <tag k="created_by" v="Potlatch 0.6a"/>
    <tag k="fixme" v="yes"/>
    <tag k="highway" v="unclassified"/>
    <tag k="name" v="Kapaunplatz"/>
    <tag k="source" v="yahoo"/>
  </way>
  <way id="29104308" version="2" timestamp="2008-12-20T11:10:50Z" uid="58091" user="Andreas M" changeset="504586">
    <nd ref="69706580"/>
    <nd ref="60596494"/>
    <tag k="created_by" v="Potlatch 0.6a"/>
    <tag k="highway" v="residential"/>
    <tag k="name" v="Kapaunplatz"/>
    <tag k="source" v="yahoo"/>
  </way>
  <way id="29104309" version="1" timestamp="2008-12-20T11:00:30Z" uid="58091" user="Andreas M" changeset="504586">
    <nd ref="60596494"/>
    <nd ref="69704723"/>
    <nd ref="69701858"/>
    <tag k="created_by" v="Potlatch alpha"/>
    <tag k="highway" v="residential"/>
    <tag k="name" v="Kapaunplatz"/>
    <tag k="oneway" v="yes"/>
  </way>
  <way id="29104310" version="1" timestamp="2008-12-20T11:00:30Z" uid="58091" user="Andreas M" changeset="504586">
    <nd ref="60596494"/>
    <nd ref="69705044"/>
    <tag k="created_by" v="Potlatch 0.6a"/>
    <tag k="highway" v="unclassified"/>
    <tag k="name" v="Kapaunplatz"/>
  </way>
  <way id="29104310" version="2" timestamp="2008-12-20T11:10:50Z" uid="58091" user="Andreas M" changeset="504586">
    <nd ref="60596494"/>
    <nd ref="69705044"/>
    <tag k="created_by" v="Potlatch 0.6a"/>
    <tag k="highway" v="residential"/>
    <tag k="name" v="Kapaunplatz"/>
  </way>
  <way id="29104311" version="1" timestamp="2008-12-20T11:00:30Z" uid="58091" user="Andreas M" changeset="504586">
    <nd ref="69705044"/>
    <nd ref="17324324"/>
    <tag k="created_by" v="Potlatch 0.6a"/>
    <tag k="highway" v="unclassified"/>
    <tag k="name" v="Aignerstraße"/>
  </way>
  <way id="29104311" version="2" timestamp="2008-12-20T11:10:50Z" uid="58091" user="Andreas M" changeset="504586">
    <nd ref="69705044"/>
    <nd ref="17324324"/>
    <tag k="created_by" v="Potlatch 0.6a"/>
    <tag k="highway" v="residential"/>
    <tag k="name" v="Aignerstraße"/>
  </way>
  <way id="29104312" version="1" timestamp="2008-12-20T11:00:30Z" uid="58091" user="Andreas M" changeset="504586">
    <nd ref="69700564"/>
    <nd ref="69700566"/>
    <nd ref="69700567"/>
    <nd ref="69700568"/>
    <nd ref="69700569"/>
    <nd ref="69701857"/>
    <tag k="created_by" v="Potlatch alpha"/>
    <tag k="highway" v="residential"/>
    <tag k="name" v="Friedrich-Engels-Platz"/>
    <tag k="oneway" v="yes"/>
  </way>
  <way id="29104313" version="1" timestamp="2008-12-20T11:00:31Z" uid="58091" user="Andreas M" changeset="504586">
    <nd ref="69701857"/>
    <nd ref="69701858"/>
    <tag k="created_by" v="Potlatch alpha"/>
    <tag k="highway" v="residential"/>
    <tag k="name" v="Friedrich-Engels-Platz"/>
  </way>
  <way id="29104314" version="1" timestamp="2008-12-20T11:00:31Z" uid="58091" user="Andreas M" changeset="504586">
    <nd ref="17324323"/>
    <nd ref="60596331"/>
    <tag k="highway" v="residential"/>
    <tag k="name" v="Wehlistraße"/>
    <tag k="oneway" v="yes"/>
  </way>
  <way id="29104315" version="1" timestamp="2008-12-20T11:00:31Z" uid="58091" user="Andreas M" changeset="504586">
    <nd ref="60596331"/>
    <nd ref="60595879"/>
    <tag k="created_by" v="Potlatch alpha"/>
    <tag k="highway" v="residential"/>
    <tag k="name" v="Robert-Blum-Gasse"/>
    <tag k="oneway" v="yes"/>
    <tag k="source" v="yahoo"/>
  </way>
  <way id="29104316" version="1" timestamp="2008-12-20T11:00:31Z" uid="58091" user="Andreas M" changeset="504586">
    <nd ref="60595879"/>
    <nd ref="60595399"/>
    <tag k="created_by" v="Potlatch alpha"/>
    <tag k="highway" v="residential"/>
    <tag k="name" v="Robert-Blum-Gasse"/>
    <tag k="source" v="yahoo"/>
  </way>
  <way id="29104452" version="2" timestamp="2009-10-07T16:58:19Z" uid="86259" user="hasse_osm_korinthenkacker" changeset="2773624">
    <nd ref="320137265"/>
    <nd ref="320137268"/>
    <nd ref="320137252"/>
    <tag k="highway" v="service"/>
    <tag k="surface" v="paved"/>
  </way>
  <way id="29104491" version="1" timestamp="2008-12-20T11:10:48Z" uid="58091" user="Andreas M" changeset="504586">
    <nd ref="17324323"/>
    <nd ref="320137633"/>
    <tag k="highway" v="residential"/>
    <tag k="name" v="Aignerstraße"/>
  </way>
  <way id="29104493" version="1" timestamp="2008-12-20T11:10:48Z" uid="58091" user="Andreas M" changeset="504586">
    <nd ref="320137633"/>
    <nd ref="320137636"/>
    <tag k="bicycle" v="yes"/>
    <tag k="bridge" v="yes"/>
    <tag k="highway" v="footway"/>
    <tag k="layer" v="1"/>
    <tag k="name" v="Aignersteg"/>
  </way>
  <way id="29104494" version="1" timestamp="2008-12-20T11:10:48Z" uid="58091" user="Andreas M" changeset="504586">
    <nd ref="300447759"/>
    <nd ref="320137638"/>
    <nd ref="320137636"/>
    <nd ref="320137639"/>
    <nd ref="320137640"/>
    <tag k="foot" v="yes"/>
    <tag k="highway" v="cycleway"/>
  </way>
  <way id="29104515" version="1" timestamp="2008-12-20T11:12:58Z" uid="58091" user="Andreas M" changeset="504586">
    <nd ref="33254385"/>
    <nd ref="33254331"/>
    <nd ref="380084"/>
    <nd ref="33254384"/>
    <nd ref="380088"/>
    <nd ref="114215762"/>
    <nd ref="33254338"/>
    <nd ref="33254339"/>
    <nd ref="33254340"/>
    <nd ref="33254341"/>
    <tag k="created_by" v="Potlatch alpha"/>
    <tag k="highway" v="secondary"/>
    <tag k="name" v="Wallensteinstraße"/>
    <tag k="source" v="yahoo"/>
  </way>
  <way id="29104515" version="2" timestamp="2009-01-01T17:11:54Z" uid="58091" user="Andreas M" changeset="703113">
    <nd ref="33254385"/>
    <nd ref="33254331"/>
    <nd ref="380084"/>
    <nd ref="33254384"/>
    <nd ref="380088"/>
    <nd ref="114215762"/>
    <tag k="created_by" v="Potlatch alpha"/>
    <tag k="highway" v="secondary"/>
    <tag k="name" v="Wallensteinstraße"/>
    <tag k="railway" v="tram"/>
    <tag k="source" v="yahoo"/>
  </way>
  <way id="29104629" version="1" timestamp="2008-12-20T11:18:26Z" uid="58091" user="Andreas M" changeset="504586">
    <nd ref="320138512"/>
    <nd ref="320138514"/>
    <nd ref="274612178"/>
    <tag k="foot" v="yes"/>
    <tag k="highway" v="pedestrian"/>
    <tag k="name" v="Leipziger Platz"/>
    <tag k="source" v="yahoo"/>
  </way>
  <way id="29104681" version="1" timestamp="2008-12-20T11:20:36Z" uid="58091" user="Andreas M" changeset="504586">
    <nd ref="60296239"/>
    <nd ref="60296240"/>
    <nd ref="60296242"/>
    <nd ref="60296243"/>
    <nd ref="60732835"/>
    <tag k="created_by" v="Potlatch 0.10b"/>
    <tag k="highway" v="tertiary"/>
    <tag k="name" v="Marchfeldstraße"/>
  </way>
  <way id="29104681" version="2" timestamp="2009-01-02T15:49:26Z" uid="58091" user="Andreas M" changeset="708469">
    <nd ref="60296239"/>
    <nd ref="60296240"/>
    <nd ref="60296242"/>
    <nd ref="60296243"/>
    <tag k="created_by" v="Potlatch 0.10b"/>
    <tag k="highway" v="tertiary"/>
    <tag k="name" v="Marchfeldstraße"/>
    <tag k="railway" v="tram"/>
  </way>
  <way id="29104769" version="1" timestamp="2008-12-20T11:31:17Z" uid="58091" user="Andreas M" changeset="504586">
    <nd ref="71562898"/>
    <nd ref="71562900"/>
    <nd ref="320140838"/>
    <nd ref="320140835"/>
    <nd ref="320140837"/>
    <nd ref="320140836"/>
    <nd ref="71562898"/>
    <tag k="area" v="yes"/>
    <tag k="highway" v="pedestrian"/>
    <tag k="name" v="Maria-Restituta-Platz"/>
  </way>
  <way id="29104796" version="1" timestamp="2008-12-20T11:37:56Z" uid="58091" user="Andreas M" changeset="504586">
    <nd ref="122109718"/>
    <nd ref="122109723"/>
    <tag k="created_by" v="JOSM"/>
    <tag k="cycleway" v="track"/>
    <tag k="highway" v="unclassified"/>
    <tag k="lcn" v="yes"/>
    <tag k="name" v="Winarskystraße"/>
  </way>
  <way id="29104797" version="1" timestamp="2008-12-20T11:37:56Z" uid="58091" user="Andreas M" changeset="504586">
    <nd ref="75207185"/>
    <nd ref="302855517"/>
    <nd ref="122109700"/>
    <tag k="created_by" v="Potlatch alpha"/>
    <tag k="cycleway" v="track"/>
    <tag k="fixme" v="Fläche einzeichnen"/>
    <tag k="highway" v="unclassified"/>
    <tag k="lcn" v="yes"/>
    <tag k="name" v="Platz der Kinderrechte"/>
    <tag k="note" v="lt. Bezirksjournal November 2008"/>
  </way>
  <way id="29104801" version="4" timestamp="2009-01-01T14:05:10Z" uid="6975" user="ulfl" changeset="699648">
    <nd ref="320141597"/>
    <nd ref="320141598"/>
    <nd ref="320141599"/>
    <nd ref="320141600"/>
    <nd ref="320141601"/>
    <nd ref="320141602"/>
    <nd ref="320141603"/>
    <nd ref="320141604"/>
    <nd ref="320141605"/>
    <nd ref="320141606"/>
    <nd ref="320141607"/>
    <nd ref="320141597"/>
    <tag k="landuse" v="cemetery"/>
  </way>
  <way id="29104927" version="2" timestamp="2011-03-18T15:17:49Z" uid="4467" user="Rosscoe" changeset="7596265">
    <nd ref="91116942"/>
    <nd ref="320143119"/>
    <nd ref="320143121"/>
    <nd ref="320143127"/>
    <nd ref="148951394"/>
    <nd ref="148951434"/>
    <tag k="highway" v="unclassified"/>
    <tag k="is_in" v="Marleston,South Australia,Australia"/>
    <tag k="name" v="Sutton Terrace"/>
    <tag k="postal_code" v="5033"/>
    <tag k="source" v="survey;Yahoo"/>
  </way>
</osm>
