<?xml version='1.0' encoding='UTF-8'?>
<osm version="0.6" generator="libosmium/2.20.0">
  <way id="29118077" version="2" timestamp="2010-05-08T19:49:08Z" uid="33382" user="de_muur" changeset="4642387">
    <nd ref="253021891"/>
    <nd ref="253021892"/>
    <tag k="highway" v="residential"/>
    <tag k="name" v="Katrepeler Landstraße"/>
    <tag k="surface" v="paved"/>
  </way>
  <way id="29118077" version="3" timestamp="2010-05-08T20:04:13Z" uid="33382" user="de_muur" changeset="4642528">
    <nd ref="253021891"/>
    <nd ref="253021892"/>
    <tag k="highway" v="residential"/>
    <tag k="name" v="Katrepeler Landstraße"/>
    <tag k="surface" v="paved"/>
  </way>
  <way id="29118078" version="3" timestamp="2010-05-09T16:00:37Z" uid="33382" user="de_muur" changeset="4650334">
    <nd ref="248458823"/>
    <nd ref="248458824"/>
    <nd ref="649237634"/>
    <nd ref="248458920"/>
    <tag k="highway" v="residential"/>
    <tag k="name" v="Upper Borg"/>
    <tag k="surface" v="paved"/>
    <tag k="traffic_calming" v="yes"/>
  </way>
  <way id="29118082" version="7" timestamp="2010-05-09T16:00:38Z" uid="33382" user="de_muur" changeset="4650334">
    <nd ref="248458920"/>
    <nd ref="649237593"/>
    <nd ref="671487043"/>
    <nd ref="248458918"/>
    <nd ref="248773585"/>
    <nd ref="454649690"/>
    <nd ref="454649784"/>
    <nd ref="248773586"/>
    <nd ref="454649656"/>
    <nd ref="253021987"/>
    <nd ref="253021891"/>
    <tag k="highway" v="residential"/>
    <tag k="name" v="Upper Borg"/>
    <tag k="surface" v="paved"/>
    <tag k="traffic_calming" v="yes"/>
  </way>
  <way id="29118462" version="4" timestamp="2010-08-15T07:18:30Z" uid="33382" user="de_muur" changeset="5496573">
    <nd ref="248498224"/>
    <nd ref="735116956"/>
    <nd ref="442118284"/>
    <tag k="highway" v="primary"/>
    <tag k="maxspeed" v="50"/>
    <tag k="name" v="Neuenlander Straße"/>
    <tag k="oneway" v="yes"/>
    <tag k="ref" v="B 6"/>
    <tag k="surface" v="paved"/>
  </way>
  <way id="29118463" version="3" timestamp="2010-08-15T07:18:32Z" uid="33382" user="de_muur" changeset="5496573">
    <nd ref="442118031"/>
    <nd ref="823319265"/>
    <nd ref="21725020"/>
    <tag k="highway" v="primary"/>
    <tag k="lanes" v="2"/>
    <tag k="maxspeed" v="50"/>
    <tag k="name" v="Neuenlander Straße"/>
    <tag k="note" v="TODO: Kraftfahrstraße? in 2008 spätestens trunk (A281 segment Flughafen)"/>
    <tag k="oneway" v="yes"/>
    <tag k="ref" v="B 6"/>
    <tag k="surface" v="paved"/>
  </way>
  <way id="29118470" version="3" timestamp="2010-03-19T22:04:32Z" uid="9581" user="Lobelt" changeset="4174890">
    <nd ref="669989468"/>
    <nd ref="318234122"/>
    <nd ref="318234123"/>
    <tag k="highway" v="residential"/>
    <tag k="name" v="Kettelerstraße"/>
  </way>
  <way id="29118470" version="4" timestamp="2010-10-10T13:14:46Z" uid="9581" user="Lobelt" changeset="6001924">
    <nd ref="669989468"/>
    <nd ref="318234122"/>
    <nd ref="318234123"/>
    <tag k="highway" v="residential"/>
    <tag k="maxspeed" v="30"/>
    <tag k="name" v="Kettelerstraße"/>
  </way>
  <way id="29118472" version="5" timestamp="2010-10-10T13:14:50Z" uid="9581" user="Lobelt" changeset="6001924">
    <nd ref="10785181"/>
    <nd ref="320334224"/>
    <nd ref="320334225"/>
    <nd ref="262946851"/>
    <tag k="embankment" v="yes"/>
    <tag k="highway" v="primary_link"/>
    <tag k="motorroad" v="yes"/>
    <tag k="oneway" v="yes"/>
    <tag k="ref" v="K 4229"/>
    <tag k="source" v="interpolation"/>
  </way>
  <way id="29118473" version="5" timestamp="2010-10-10T13:15:00Z" uid="9581" user="Lobelt" changeset="6001924">
    <nd ref="262946851"/>
    <nd ref="262946853"/>
    <nd ref="262946856"/>
    <nd ref="262946858"/>
    <nd ref="262946860"/>
    <nd ref="262946863"/>
    <nd ref="262946872"/>
    <tag k="embankment" v="yes"/>
    <tag k="highway" v="secondary"/>
    <tag k="motorroad" v="yes"/>
    <tag k="ref" v="K 4229"/>
  </way>
  <way id="29118474" version="3" timestamp="2011-03-16T15:38:15Z" uid="9581" user="Lobelt" changeset="7576818">
    <nd ref="262946870"/>
    <nd ref="262946871"/>
    <tag k="highway" v="secondary"/>
    <tag k="ref" v="K 4229"/>
  </way>
  <way id="29118712" version="2" timestamp="2010-02-21T17:19:24Z" uid="33382" user="de_muur" changeset="3935770">
    <nd ref="108259539"/>
    <nd ref="30387802"/>
    <tag k="cycleway" v="track"/>
    <tag k="highway" v="secondary"/>
    <tag k="maxspeed" v="50"/>
    <tag k="name" v="Zum Allerhafen"/>
    <tag k="oneway" v="yes"/>
    <tag k="surface" v="paved"/>
  </way>
  <way id="29118712" version="3" timestamp="2010-02-21T17:45:44Z" uid="33382" user="de_muur" changeset="3935770"/>
  <way id="29118714" version="2" timestamp="2010-02-21T17:19:24Z" uid="33382" user="de_muur" changeset="3935770">
    <nd ref="108259493"/>
    <nd ref="30259866"/>
    <tag k="cycleway" v="track"/>
    <tag k="highway" v="secondary"/>
    <tag k="maxspeed" v="50"/>
    <tag k="name" v="An der Grenzpappel"/>
    <tag k="oneway" v="yes"/>
    <tag k="surface" v="paved"/>
  </way>
  <way id="29118716" version="4" timestamp="2010-02-21T17:19:24Z" uid="33382" user="de_muur" changeset="3935770">
    <nd ref="108259539"/>
    <nd ref="76469976"/>
    <nd ref="197766128"/>
    <tag k="cycleway" v="track"/>
    <tag k="highway" v="secondary"/>
    <tag k="maxspeed" v="50"/>
    <tag k="name" v="Zum Allerhafen"/>
    <tag k="oneway" v="yes"/>
    <tag k="surface" v="paved"/>
  </way>
  <way id="29118717" version="3" timestamp="2010-01-09T17:22:40Z" uid="33382" user="de_muur" changeset="3579771">
    <nd ref="159943225"/>
    <nd ref="431708822"/>
    <nd ref="159943220"/>
    <nd ref="171310727"/>
    <tag k="cycleway" v="track"/>
    <tag k="highway" v="secondary"/>
    <tag k="maxspeed" v="30"/>
    <tag k="name" v="Zum Sebaldsbrücker Bahnhof"/>
    <tag k="surface" v="paved"/>
  </way>
  <way id="29118928" version="2" timestamp="2008-12-24T11:00:06Z" uid="64977" user="CLoeser" changeset="590639">
    <nd ref="320329719"/>
    <nd ref="320341232"/>
    <nd ref="320341234"/>
    <nd ref="320341236"/>
    <nd ref="320341237"/>
    <nd ref="320341239"/>
    <nd ref="302729686"/>
    <tag k="created_by" v="Potlatch 0.10f"/>
    <tag k="highway" v="footway"/>
    <tag k="source" v="GPS Tracks"/>
  </way>
</osm>
