<?xml version='1.0' encoding='UTF-8'?>
<osm version="0.6" generator="libosmium/2.20.0">
  <way id="29111013" version="2" timestamp="2009-01-01T14:00:58Z" uid="6975" user="ulfl" changeset="699648">
    <nd ref="320212734"/>
    <nd ref="320212736"/>
    <tag k="foot" v="yes"/>
    <tag k="highway" v="steps"/>
  </way>
  <way id="29111016" version="2" timestamp="2009-10-02T19:51:01Z" uid="86259" user="hasse_osm_korinthenkacker" changeset="2716821">
    <nd ref="320212860"/>
    <nd ref="320212861"/>
  </way>
  <way id="29111061" version="2" timestamp="2009-10-02T19:50:23Z" uid="86259" user="hasse_osm_korinthenkacker" changeset="2716821">
    <nd ref="320213332"/>
    <nd ref="320213333"/>
    <nd ref="320212890"/>
  </way>
  <way id="29111127" version="2" timestamp="2009-01-01T12:44:02Z" uid="6975" user="ulfl" changeset="699648">
    <nd ref="320214283"/>
    <nd ref="320214284"/>
    <nd ref="320214285"/>
    <nd ref="320214286"/>
    <nd ref="320214287"/>
    <nd ref="320214288"/>
    <nd ref="320214289"/>
    <nd ref="320214290"/>
    <nd ref="320214292"/>
    <nd ref="320214293"/>
    <nd ref="320214294"/>
    <nd ref="320214283"/>
    <tag k="amenity" v="school"/>
    <tag k="denomination" v="None"/>
    <tag k="name" v="Pasadena Polytechnic School"/>
    <tag k="type" v="Private"/>
  </way>
  <way id="29111375" version="4" timestamp="2010-10-15T17:20:13Z" uid="9581" user="Lobelt" changeset="6050841">
    <nd ref="35306118"/>
    <nd ref="950501839"/>
    <nd ref="950501890"/>
    <nd ref="320216926"/>
    <nd ref="779362565"/>
    <nd ref="292272812"/>
    <tag k="highway" v="residential"/>
    <tag k="name" v="Heerstraße"/>
  </way>
  <way id="29111387" version="5" timestamp="2010-10-15T17:20:18Z" uid="9581" user="Lobelt" changeset="6050841">
    <nd ref="320217045"/>
    <nd ref="950501856"/>
    <nd ref="320217046"/>
    <tag k="highway" v="residential"/>
    <tag k="name" v="Im Döppelter"/>
  </way>
  <way id="29111443" version="5" timestamp="2010-10-15T17:20:12Z" uid="9581" user="Lobelt" changeset="6050841">
    <nd ref="319047232"/>
    <nd ref="950501927"/>
    <nd ref="950501861"/>
    <nd ref="319047233"/>
    <nd ref="320217045"/>
    <nd ref="319047234"/>
    <nd ref="319047235"/>
    <nd ref="369802424"/>
    <nd ref="319047236"/>
    <nd ref="319047238"/>
    <nd ref="319047239"/>
    <nd ref="950501886"/>
    <nd ref="319047242"/>
    <tag k="highway" v="residential"/>
    <tag k="name" v="Zum Klausental"/>
  </way>
  <way id="29111792" version="6" timestamp="2010-04-07T13:14:18Z" uid="20587" user="balrog-kun" changeset="4353646">
    <nd ref="298901740"/>
    <nd ref="320100168"/>
    <nd ref="320223753"/>
    <nd ref="147419396"/>
    <nd ref="320223725"/>
    <nd ref="147369671"/>
    <nd ref="147359547"/>
    <nd ref="320223211"/>
    <nd ref="147419400"/>
    <nd ref="320223213"/>
    <nd ref="320223214"/>
    <nd ref="147382908"/>
    <nd ref="147419450"/>
    <nd ref="320222379"/>
    <nd ref="147419454"/>
    <nd ref="320222380"/>
    <nd ref="147419456"/>
    <nd ref="320222383"/>
    <nd ref="147419465"/>
    <nd ref="320222384"/>
    <nd ref="147382978"/>
    <nd ref="320222386"/>
    <nd ref="320222115"/>
    <nd ref="320222116"/>
    <nd ref="147388872"/>
    <nd ref="320222117"/>
    <nd ref="320222118"/>
    <nd ref="147369600"/>
    <tag k="created_by" v="Potlatch 0.10f"/>
    <tag k="highway" v="residential"/>
    <tag k="name" v="Brawdy Drive"/>
    <tag k="tiger:cfcc" v="A41"/>
    <tag k="tiger:county" v="Oklahoma, OK"/>
    <tag k="tiger:name_base" v="Brawdy"/>
    <tag k="tiger:name_type" v="Dr"/>
    <tag k="tiger:reviewed" v="no"/>
    <tag k="tiger:separated" v="no"/>
    <tag k="tiger:source" v="tiger_import_dch_v0.6_20070829"/>
    <tag k="tiger:tlid" v="100444191; 100446732:100446733:100444213:100444214:100444189"/>
    <tag k="tiger:zip_left" v="73150"/>
    <tag k="tiger:zip_right" v="73150"/>
  </way>
  <way id="29111917" version="9" timestamp="2010-04-07T13:14:19Z" uid="20587" user="balrog-kun" changeset="4353646">
    <nd ref="335999582"/>
    <nd ref="335998893"/>
    <nd ref="147462676"/>
    <nd ref="147392263"/>
    <nd ref="147462677"/>
    <nd ref="147404588"/>
    <nd ref="147462679"/>
    <nd ref="147423050"/>
    <nd ref="320224286"/>
    <nd ref="320224287"/>
    <nd ref="147462680"/>
    <tag k="created_by" v="Potlatch 0.10f"/>
    <tag k="highway" v="secondary"/>
    <tag k="name" v="South Post Road"/>
    <tag k="oneway" v="yes"/>
    <tag k="tiger:cfcc" v="A41"/>
    <tag k="tiger:county" v="Oklahoma, OK"/>
    <tag k="tiger:name_base" v="Post"/>
    <tag k="tiger:name_direction_prefix" v="S"/>
    <tag k="tiger:name_type" v="Rd"/>
    <tag k="tiger:reviewed" v="no"/>
    <tag k="tiger:separated" v="no"/>
    <tag k="tiger:source" v="tiger_import_dch_v0.6_20070829"/>
    <tag k="tiger:tlid" v="100429002:100429003:100419083:100419086:100419088:100425543:100419047:100419049:100425513:100425555:100444249:100444250:100433300:100433301:100425544:100422703:100444227:100444228:100446747:100446748:100417076:100417068:100417086:100419038"/>
    <tag k="tiger:zip_left" v="73150"/>
    <tag k="tiger:zip_right" v="73150"/>
  </way>
  <way id="29111951" version="1" timestamp="2008-12-20T17:11:11Z" uid="20587" user="balrog-kun" changeset="495301">
    <nd ref="320224869"/>
    <nd ref="320224872"/>
    <nd ref="320224874"/>
    <nd ref="320224871"/>
    <nd ref="320224869"/>
    <tag k="addr:housenumber" v="4"/>
    <tag k="addr:street" v="Jerzego Bukowskiego"/>
    <tag k="building" v="yes"/>
  </way>
  <way id="29111951" version="2" timestamp="2009-02-10T20:42:11Z" uid="20587" user="balrog-kun" changeset="329978">
    <nd ref="320224869"/>
    <nd ref="320224871"/>
    <nd ref="320224874"/>
    <nd ref="320224872"/>
    <nd ref="320224869"/>
    <tag k="addr:housenumber" v="1"/>
    <tag k="building" v="yes"/>
    <tag k="building:levels" v="8"/>
    <tag k="source:addr" v="msi"/>
  </way>
  <way id="29111951" version="3" timestamp="2009-02-12T20:07:06Z" uid="20587" user="balrog-kun" changeset="373828">
    <nd ref="320224869"/>
    <nd ref="320224871"/>
    <nd ref="320224874"/>
    <nd ref="320224872"/>
    <nd ref="320224869"/>
    <tag k="addr:housenumber" v="1"/>
    <tag k="addr:street" v="Bronisława Bohaterowicza"/>
    <tag k="building" v="yes"/>
    <tag k="building:levels" v="8"/>
    <tag k="source:addr" v="msi"/>
  </way>
  <way id="29111953" version="1" timestamp="2008-12-20T17:11:11Z" uid="20587" user="balrog-kun" changeset="495301">
    <nd ref="320224874"/>
    <nd ref="320224882"/>
    <nd ref="320224884"/>
    <nd ref="320224876"/>
    <nd ref="320224874"/>
    <tag k="addr:housenumber" v="4"/>
    <tag k="addr:street" v="Jerzego Bukowskiego"/>
    <tag k="building" v="yes"/>
  </way>
  <way id="29111953" version="2" timestamp="2009-02-10T20:42:09Z" uid="20587" user="balrog-kun" changeset="329978">
    <nd ref="320224874"/>
    <nd ref="320224876"/>
    <nd ref="320224884"/>
    <nd ref="320224882"/>
    <nd ref="320224874"/>
    <tag k="addr:housenumber" v="4"/>
    <tag k="addr:street" v="Jerzego Bukowskiego"/>
    <tag k="building" v="yes"/>
    <tag k="building:levels" v="5"/>
  </way>
  <way id="29111953" version="3" timestamp="2009-02-12T20:07:06Z" uid="20587" user="balrog-kun" changeset="373828"/>
  <way id="29111954" version="1" timestamp="2008-12-20T17:11:11Z" uid="20587" user="balrog-kun" changeset="495301">
    <nd ref="320224884"/>
    <nd ref="320224887"/>
    <nd ref="320224889"/>
    <nd ref="320224885"/>
    <nd ref="320224884"/>
    <tag k="addr:housenumber" v="4"/>
    <tag k="addr:street" v="Jerzego Bukowskiego"/>
    <tag k="building" v="yes"/>
  </way>
  <way id="29111954" version="2" timestamp="2009-02-10T20:42:07Z" uid="20587" user="balrog-kun" changeset="329978">
    <nd ref="320224884"/>
    <nd ref="320224885"/>
    <nd ref="320224889"/>
    <nd ref="320224887"/>
    <nd ref="320224884"/>
    <tag k="addr:housenumber" v="4"/>
    <tag k="addr:street" v="Jerzego Bukowskiego"/>
    <tag k="building" v="yes"/>
    <tag k="building:levels" v="5"/>
  </way>
  <way id="29111954" version="3" timestamp="2009-02-12T20:07:05Z" uid="20587" user="balrog-kun" changeset="373828">
    <nd ref="320224884"/>
    <nd ref="320224876"/>
    <nd ref="320224874"/>
    <nd ref="320224882"/>
    <nd ref="320224884"/>
    <nd ref="320224885"/>
    <nd ref="320224889"/>
    <nd ref="320224887"/>
    <nd ref="320224884"/>
    <tag k="addr:housenumber" v="4"/>
    <tag k="addr:street" v="Jerzego Bukowskiego"/>
    <tag k="building" v="yes"/>
    <tag k="building:levels" v="5"/>
  </way>
  <way id="29111955" version="1" timestamp="2008-12-20T17:11:12Z" uid="20587" user="balrog-kun" changeset="495301">
    <nd ref="320224891"/>
    <nd ref="320224892"/>
    <nd ref="320224895"/>
    <nd ref="320224894"/>
    <nd ref="320224891"/>
    <tag k="addr:housenumber" v="2"/>
    <tag k="building" v="yes"/>
  </way>
  <way id="29111955" version="2" timestamp="2009-02-10T20:42:09Z" uid="20587" user="balrog-kun" changeset="329978">
    <nd ref="320224891"/>
    <nd ref="320224892"/>
    <nd ref="320224895"/>
    <nd ref="320224894"/>
    <nd ref="320224891"/>
    <tag k="addr:housenumber" v="2"/>
    <tag k="building" v="yes"/>
    <tag k="building:levels" v="5"/>
  </way>
  <way id="29111956" version="1" timestamp="2008-12-20T17:11:12Z" uid="20587" user="balrog-kun" changeset="495301">
    <nd ref="320224899"/>
    <nd ref="320224902"/>
    <nd ref="320224904"/>
    <nd ref="320224901"/>
    <nd ref="320224899"/>
    <tag k="addr:housenumber" v="89"/>
    <tag k="building" v="yes"/>
  </way>
  <way id="29111956" version="2" timestamp="2009-02-12T22:36:50Z" uid="20587" user="balrog-kun" changeset="400565">
    <nd ref="320224899"/>
    <nd ref="320224902"/>
    <nd ref="320224904"/>
    <nd ref="344789278"/>
    <nd ref="344789277"/>
    <nd ref="320224901"/>
    <nd ref="320224899"/>
    <tag k="addr:housenumber" v="89"/>
    <tag k="building" v="yes"/>
  </way>
  <way id="29111956" version="3" timestamp="2010-06-18T23:56:03Z" uid="20587" user="balrog-kun" changeset="5020371"/>
  <way id="29111957" version="1" timestamp="2008-12-20T17:11:12Z" uid="20587" user="balrog-kun" changeset="495301">
    <nd ref="320224905"/>
    <nd ref="320224907"/>
    <nd ref="320224910"/>
    <nd ref="320224909"/>
    <nd ref="320224905"/>
    <tag k="addr:housenumber" v="91"/>
    <tag k="addr:street" v="Ostrobramska"/>
    <tag k="building" v="yes"/>
  </way>
  <way id="29111958" version="1" timestamp="2008-12-20T17:11:12Z" uid="20587" user="balrog-kun" changeset="495301">
    <nd ref="320224914"/>
    <nd ref="320224916"/>
    <nd ref="320224919"/>
    <nd ref="320224917"/>
    <nd ref="320224914"/>
    <tag k="addr:housenumber" v="9"/>
    <tag k="addr:postcode" v="04-123"/>
    <tag k="addr:street" v="Łukiska"/>
  </way>
  <way id="29111958" version="2" timestamp="2008-12-21T00:48:05Z" uid="20587" user="balrog-kun" changeset="513272">
    <nd ref="320224914"/>
    <nd ref="320224916"/>
    <nd ref="320224919"/>
    <nd ref="320224917"/>
    <nd ref="320224914"/>
    <tag k="addr:housenumber" v="9"/>
    <tag k="addr:postcode" v="04-123"/>
    <tag k="addr:street" v="Łukiska"/>
    <tag k="building" v="yes"/>
  </way>
  <way id="29111959" version="1" timestamp="2008-12-20T17:11:13Z" uid="20587" user="balrog-kun" changeset="495301">
    <nd ref="320224921"/>
    <nd ref="320224922"/>
    <nd ref="320224926"/>
    <nd ref="320224924"/>
    <nd ref="320224921"/>
    <tag k="addr:housenumber" v="5"/>
    <tag k="addr:postcode" v="04-123"/>
    <tag k="addr:street" v="Łukiska"/>
  </way>
  <way id="29111959" version="2" timestamp="2008-12-21T00:48:05Z" uid="20587" user="balrog-kun" changeset="513272">
    <nd ref="320224921"/>
    <nd ref="320224922"/>
    <nd ref="320224926"/>
    <nd ref="320224924"/>
    <nd ref="320224921"/>
    <tag k="addr:housenumber" v="5"/>
    <tag k="addr:postcode" v="04-123"/>
    <tag k="addr:street" v="Łukiska"/>
    <tag k="building" v="yes"/>
  </way>
  <way id="29111961" version="1" timestamp="2008-12-20T17:11:13Z" uid="20587" user="balrog-kun" changeset="495301">
    <nd ref="320224927"/>
    <nd ref="320224929"/>
    <nd ref="320224932"/>
    <nd ref="320224931"/>
    <nd ref="320224927"/>
    <tag k="addr:housenumber" v="7"/>
    <tag k="addr:postcode" v="04-123"/>
    <tag k="addr:street" v="Łukiska"/>
  </way>
  <way id="29111961" version="2" timestamp="2008-12-21T00:48:06Z" uid="20587" user="balrog-kun" changeset="513272">
    <nd ref="320224927"/>
    <nd ref="320224929"/>
    <nd ref="320224932"/>
    <nd ref="320224931"/>
    <nd ref="320224927"/>
    <tag k="addr:housenumber" v="7"/>
    <tag k="addr:postcode" v="04-123"/>
    <tag k="addr:street" v="Łukiska"/>
    <tag k="building" v="yes"/>
  </way>
  <way id="29111962" version="1" timestamp="2008-12-20T17:11:13Z" uid="20587" user="balrog-kun" changeset="495301">
    <nd ref="320224934"/>
    <nd ref="320224936"/>
    <nd ref="320224939"/>
    <nd ref="320224937"/>
    <nd ref="320224934"/>
    <tag k="addr:housenumber" v="1"/>
    <tag k="addr:postcode" v="04-123"/>
    <tag k="addr:street" v="Łukiska"/>
  </way>
  <way id="29111962" version="2" timestamp="2008-12-21T00:48:06Z" uid="20587" user="balrog-kun" changeset="513272">
    <nd ref="320224934"/>
    <nd ref="320224936"/>
    <nd ref="320224939"/>
    <nd ref="320224937"/>
    <nd ref="320224934"/>
    <tag k="addr:housenumber" v="1"/>
    <tag k="addr:postcode" v="04-123"/>
    <tag k="addr:street" v="Łukiska"/>
    <tag k="building" v="yes"/>
  </way>
  <way id="29111963" version="1" timestamp="2008-12-20T17:11:13Z" uid="20587" user="balrog-kun" changeset="495301">
    <nd ref="320224941"/>
    <nd ref="320224942"/>
    <nd ref="320224946"/>
    <nd ref="320224944"/>
    <nd ref="320224941"/>
    <tag k="addr:housenumber" v="4"/>
    <tag k="addr:postcode" v="04-123"/>
    <tag k="addr:street" v="Łukiska"/>
  </way>
  <way id="29111963" version="2" timestamp="2008-12-21T00:48:06Z" uid="20587" user="balrog-kun" changeset="513272">
    <nd ref="320224941"/>
    <nd ref="320224942"/>
    <nd ref="320224946"/>
    <nd ref="320224944"/>
    <nd ref="320224941"/>
    <tag k="addr:housenumber" v="4"/>
    <tag k="addr:postcode" v="04-123"/>
    <tag k="addr:street" v="Łukiska"/>
    <tag k="building" v="yes"/>
  </way>
  <way id="29111964" version="1" timestamp="2008-12-20T17:11:13Z" uid="20587" user="balrog-kun" changeset="495301">
    <nd ref="320224948"/>
    <nd ref="320224949"/>
    <nd ref="320224953"/>
    <nd ref="320224951"/>
    <nd ref="320224948"/>
    <tag k="addr:housenumber" v="2"/>
    <tag k="addr:postcode" v="04-123"/>
    <tag k="addr:street" v="Łukiska"/>
  </way>
  <way id="29111964" version="2" timestamp="2008-12-21T00:48:06Z" uid="20587" user="balrog-kun" changeset="513272">
    <nd ref="320224948"/>
    <nd ref="320224949"/>
    <nd ref="320224953"/>
    <nd ref="320224951"/>
    <nd ref="320224948"/>
    <tag k="addr:housenumber" v="2"/>
    <tag k="addr:postcode" v="04-123"/>
    <tag k="addr:street" v="Łukiska"/>
    <tag k="building" v="yes"/>
  </way>
  <way id="29111965" version="1" timestamp="2008-12-20T17:11:14Z" uid="20587" user="balrog-kun" changeset="495301">
    <nd ref="320224961"/>
    <nd ref="320224958"/>
    <nd ref="320224954"/>
    <nd ref="320224956"/>
    <nd ref="320224959"/>
    <nd ref="320224963"/>
    <nd ref="320224961"/>
    <tag k="addr:housenumber" v="8"/>
    <tag k="addr:postcode" v="04-123"/>
    <tag k="addr:street" v="Łukiska"/>
  </way>
  <way id="29111965" version="2" timestamp="2008-12-21T00:48:06Z" uid="20587" user="balrog-kun" changeset="513272">
    <nd ref="320224961"/>
    <nd ref="320224958"/>
    <nd ref="320224954"/>
    <nd ref="320224956"/>
    <nd ref="320224959"/>
    <nd ref="320224963"/>
    <nd ref="320224961"/>
    <tag k="addr:housenumber" v="8"/>
    <tag k="addr:postcode" v="04-123"/>
    <tag k="addr:street" v="Łukiska"/>
    <tag k="building" v="yes"/>
  </way>
  <way id="29111966" version="1" timestamp="2008-12-20T17:11:14Z" uid="20587" user="balrog-kun" changeset="495301">
    <nd ref="320224963"/>
    <nd ref="320224964"/>
    <nd ref="320224966"/>
    <nd ref="320224961"/>
    <nd ref="320224963"/>
    <tag k="addr:housenumber" v="6"/>
    <tag k="addr:postcode" v="04-123"/>
    <tag k="addr:street" v="Łukiska"/>
  </way>
  <way id="29111966" version="2" timestamp="2008-12-21T00:48:05Z" uid="20587" user="balrog-kun" changeset="513272">
    <nd ref="320224963"/>
    <nd ref="320224964"/>
    <nd ref="320224966"/>
    <nd ref="320224961"/>
    <nd ref="320224963"/>
    <tag k="addr:housenumber" v="6"/>
    <tag k="addr:postcode" v="04-123"/>
    <tag k="addr:street" v="Łukiska"/>
    <tag k="building" v="yes"/>
  </way>
  <way id="29111967" version="1" timestamp="2008-12-20T17:11:14Z" uid="20587" user="balrog-kun" changeset="495301">
    <nd ref="320224967"/>
    <nd ref="320224969"/>
    <nd ref="320224973"/>
    <nd ref="320224971"/>
    <nd ref="320224967"/>
    <tag k="addr:housenumber" v="10"/>
    <tag k="addr:postcode" v="04-123"/>
    <tag k="addr:street" v="Łukiska"/>
  </way>
  <way id="29111967" version="2" timestamp="2008-12-21T00:48:05Z" uid="20587" user="balrog-kun" changeset="513272">
    <nd ref="320224967"/>
    <nd ref="320224969"/>
    <nd ref="320224973"/>
    <nd ref="320224971"/>
    <nd ref="320224967"/>
    <tag k="addr:housenumber" v="10"/>
    <tag k="addr:postcode" v="04-123"/>
    <tag k="addr:street" v="Łukiska"/>
    <tag k="building" v="yes"/>
  </way>
  <way id="29111968" version="1" timestamp="2008-12-20T17:11:14Z" uid="20587" user="balrog-kun" changeset="495301">
    <nd ref="320224984"/>
    <nd ref="320224986"/>
    <nd ref="320224989"/>
    <nd ref="320224987"/>
    <nd ref="320224984"/>
    <tag k="addr:housenumber" v="94"/>
    <tag k="addr:street" v="Ostrobramska"/>
    <tag k="building" v="yes"/>
  </way>
  <way id="29111968" version="2" timestamp="2010-06-20T03:22:56Z" uid="20587" user="balrog-kun" changeset="5029412">
    <nd ref="320224984"/>
    <nd ref="320224986"/>
    <nd ref="320224989"/>
    <nd ref="320224987"/>
    <nd ref="320224984"/>
    <tag k="addr:housenumber" v="94"/>
    <tag k="addr:postcode" v="04-118"/>
    <tag k="addr:street" v="Ostrobramska"/>
    <tag k="amenity" v="kindergarten"/>
    <tag k="building" v="yes"/>
    <tag k="name" v="Centrum Wiedzy i Umiejętności dla dzieci"/>
    <tag k="phone" v="+48228103251"/>
    <tag k="url" v="http://junior.dumel.pl/"/>
  </way>
  <way id="29111970" version="1" timestamp="2008-12-20T17:11:14Z" uid="20587" user="balrog-kun" changeset="495301">
    <nd ref="320224994"/>
    <nd ref="320224997"/>
    <nd ref="320224991"/>
    <nd ref="320224995"/>
    <nd ref="320224994"/>
    <tag k="addr:housenumber" v="96"/>
    <tag k="addr:street" v="Ostrobramska"/>
    <tag k="building" v="yes"/>
  </way>
  <way id="29111970" version="2" timestamp="2010-06-20T03:22:57Z" uid="20587" user="balrog-kun" changeset="5029412">
    <nd ref="320224994"/>
    <nd ref="320224997"/>
    <nd ref="320224991"/>
    <nd ref="320224995"/>
    <nd ref="320224994"/>
    <tag k="addr:housenumber" v="96"/>
    <tag k="addr:street" v="Ostrobramska"/>
    <tag k="building" v="residential"/>
  </way>
  <way id="29111971" version="1" timestamp="2008-12-20T17:11:15Z" uid="20587" user="balrog-kun" changeset="495301">
    <nd ref="320225000"/>
    <nd ref="320224999"/>
    <nd ref="320225008"/>
    <nd ref="320225005"/>
    <nd ref="320225000"/>
    <tag k="addr:housenumber" v="96a"/>
    <tag k="addr:street" v="Ostrobramska"/>
    <tag k="building" v="yes"/>
  </way>
  <way id="29111972" version="1" timestamp="2008-12-20T17:11:15Z" uid="20587" user="balrog-kun" changeset="495301">
    <nd ref="320225009"/>
    <nd ref="320225011"/>
    <nd ref="320225014"/>
    <nd ref="320225013"/>
    <nd ref="320225009"/>
    <tag k="addr:housenumber" v="98"/>
    <tag k="addr:street" v="Ostrobramska"/>
    <tag k="building" v="yes"/>
  </way>
  <way id="29111973" version="1" timestamp="2008-12-20T17:11:15Z" uid="20587" user="balrog-kun" changeset="495301">
    <nd ref="320225016"/>
    <nd ref="320225018"/>
    <nd ref="320225022"/>
    <nd ref="320225019"/>
    <nd ref="320225016"/>
    <tag k="addr:housenumber" v="16"/>
    <tag k="addr:street" v="Filomatów"/>
    <tag k="building" v="yes"/>
  </way>
  <way id="29111974" version="1" timestamp="2008-12-20T17:11:15Z" uid="20587" user="balrog-kun" changeset="495301">
    <nd ref="320225025"/>
    <nd ref="320225028"/>
    <nd ref="320225032"/>
    <nd ref="320225030"/>
    <nd ref="320225025"/>
    <tag k="addr:housenumber" v="18"/>
    <tag k="addr:street" v="Filomatów"/>
    <tag k="building" v="yes"/>
  </way>
  <way id="29111975" version="1" timestamp="2008-12-20T17:11:15Z" uid="20587" user="balrog-kun" changeset="495301">
    <nd ref="320225033"/>
    <nd ref="320225035"/>
    <nd ref="320225038"/>
    <nd ref="320225041"/>
    <nd ref="320225040"/>
    <nd ref="320225037"/>
    <nd ref="320225033"/>
    <tag k="addr:housenumber" v="20"/>
    <tag k="addr:street" v="Filomatów"/>
    <tag k="building" v="yes"/>
  </way>
  <way id="29111976" version="1" timestamp="2008-12-20T17:11:16Z" uid="20587" user="balrog-kun" changeset="495301">
    <nd ref="320225043"/>
    <nd ref="320225045"/>
    <nd ref="320225048"/>
    <nd ref="320225051"/>
    <nd ref="320225050"/>
    <nd ref="320225046"/>
    <nd ref="320225043"/>
    <tag k="addr:housenumber" v="22"/>
    <tag k="addr:street" v="Filomatów"/>
    <tag k="building" v="yes"/>
  </way>
  <way id="29111977" version="1" timestamp="2008-12-20T17:11:16Z" uid="20587" user="balrog-kun" changeset="495301">
    <nd ref="320225053"/>
    <nd ref="320225054"/>
    <tag k="addr:interpolation" v="odd"/>
    <tag k="addr:street" v="Filomatów"/>
  </way>
  <way id="29111978" version="1" timestamp="2008-12-20T17:11:16Z" uid="20587" user="balrog-kun" changeset="495301">
    <nd ref="320225056"/>
    <nd ref="320225075"/>
    <nd ref="320225058"/>
    <tag k="addr:interpolation" v="odd"/>
    <tag k="addr:street" v="Filomatów"/>
  </way>
  <way id="29111979" version="1" timestamp="2008-12-20T17:11:17Z" uid="20587" user="balrog-kun" changeset="495301">
    <nd ref="320225061"/>
    <nd ref="320225059"/>
    <tag k="addr:interpolation" v="even"/>
    <tag k="addr:street" v="Filomatów"/>
  </way>
  <way id="29111981" version="1" timestamp="2008-12-20T17:11:17Z" uid="20587" user="balrog-kun" changeset="495301">
    <nd ref="320225063"/>
    <nd ref="320225074"/>
    <nd ref="320225069"/>
    <nd ref="320225072"/>
    <tag k="access" v="private"/>
    <tag k="highway" v="service"/>
  </way>
  <way id="29111981" version="2" timestamp="2010-06-05T21:18:10Z" uid="20587" user="balrog-kun" changeset="4912646">
    <nd ref="320225063"/>
    <nd ref="320225074"/>
    <nd ref="320225069"/>
    <nd ref="320225072"/>
    <nd ref="765333809"/>
    <tag k="access" v="private"/>
    <tag k="highway" v="service"/>
  </way>
  <way id="29111982" version="1" timestamp="2008-12-20T17:11:17Z" uid="20587" user="balrog-kun" changeset="495301">
    <nd ref="320225077"/>
    <nd ref="320225079"/>
    <nd ref="320225082"/>
    <nd ref="320225080"/>
    <nd ref="320225077"/>
    <tag k="addr:housenumber" v="15"/>
    <tag k="addr:street" v="Filomatów"/>
    <tag k="building" v="yes"/>
  </way>
  <way id="29111983" version="1" timestamp="2008-12-20T17:11:17Z" uid="20587" user="balrog-kun" changeset="495301">
    <nd ref="320225084"/>
    <nd ref="320225085"/>
    <nd ref="320225089"/>
    <nd ref="320225087"/>
    <nd ref="320225084"/>
    <tag k="addr:housenumber" v="17"/>
    <tag k="addr:street" v="Filomatów"/>
    <tag k="building" v="yes"/>
  </way>
  <way id="29111985" version="1" timestamp="2008-12-20T17:11:18Z" uid="20587" user="balrog-kun" changeset="495301">
    <nd ref="320225090"/>
    <nd ref="320225100"/>
    <nd ref="320225110"/>
    <nd ref="320225112"/>
    <nd ref="320225108"/>
    <nd ref="320225102"/>
    <nd ref="320225105"/>
    <nd ref="320225107"/>
    <nd ref="320225103"/>
    <nd ref="320225098"/>
    <nd ref="320225097"/>
    <nd ref="320225093"/>
    <nd ref="320225095"/>
    <nd ref="320225092"/>
    <nd ref="320225090"/>
    <tag k="addr:housenumber" v="19"/>
    <tag k="addr:street" v="Filomatów"/>
    <tag k="building" v="yes"/>
  </way>
  <way id="29111986" version="1" timestamp="2008-12-20T17:11:18Z" uid="20587" user="balrog-kun" changeset="495301">
    <nd ref="320225113"/>
    <nd ref="320225115"/>
    <nd ref="320225118"/>
    <nd ref="320225117"/>
    <nd ref="320225113"/>
    <tag k="addr:housenumber" v="21"/>
    <tag k="addr:street" v="Filomatów"/>
    <tag k="building" v="yes"/>
  </way>
  <way id="29111986" version="2" timestamp="2008-12-30T18:55:31Z" uid="20587" user="balrog-kun" changeset="672149">
    <nd ref="320225113"/>
    <nd ref="320225115"/>
    <nd ref="320225118"/>
    <nd ref="320225117"/>
    <nd ref="320225113"/>
    <tag k="addr:housenumber" v="15"/>
    <tag k="addr:street" v="Znicza"/>
    <tag k="building" v="yes"/>
  </way>
  <way id="29111987" version="1" timestamp="2008-12-20T17:11:18Z" uid="20587" user="balrog-kun" changeset="495301">
    <nd ref="320225120"/>
    <nd ref="320225122"/>
    <nd ref="320225126"/>
    <nd ref="320225124"/>
    <nd ref="320225120"/>
    <tag k="addr:housenumber" v="14"/>
    <tag k="addr:street" v="Łukiska"/>
    <tag k="building" v="yes"/>
  </way>
  <way id="29111988" version="1" timestamp="2008-12-20T17:11:18Z" uid="20587" user="balrog-kun" changeset="495301">
    <nd ref="320225127"/>
    <nd ref="320225134"/>
    <nd ref="320225137"/>
    <nd ref="320225129"/>
    <nd ref="320225127"/>
    <tag k="addr:housenumber" v="16"/>
    <tag k="addr:street" v="Łukiska"/>
    <tag k="building" v="yes"/>
  </way>
  <way id="29111989" version="1" timestamp="2008-12-20T17:11:18Z" uid="20587" user="balrog-kun" changeset="495301">
    <nd ref="320225139"/>
    <nd ref="320225141"/>
    <nd ref="320225144"/>
    <nd ref="320225142"/>
    <nd ref="320225139"/>
    <tag k="addr:housenumber" v="18"/>
    <tag k="addr:street" v="Łukiska"/>
    <tag k="building" v="yes"/>
  </way>
  <way id="29111990" version="1" timestamp="2008-12-20T17:11:19Z" uid="20587" user="balrog-kun" changeset="495301">
    <nd ref="320225146"/>
    <nd ref="320225147"/>
    <nd ref="320225151"/>
    <nd ref="320225149"/>
    <nd ref="320225146"/>
    <tag k="addr:housenumber" v="22"/>
    <tag k="addr:street" v="Łukiska"/>
    <tag k="building" v="yes"/>
  </way>
  <way id="29111991" version="1" timestamp="2008-12-20T17:11:19Z" uid="20587" user="balrog-kun" changeset="495301">
    <nd ref="320225152"/>
    <nd ref="320225154"/>
    <nd ref="320225157"/>
    <nd ref="320225156"/>
    <nd ref="320225152"/>
    <tag k="addr:housenumber" v="24"/>
    <tag k="addr:street" v="Łukiska"/>
    <tag k="building" v="yes"/>
  </way>
  <way id="29111992" version="1" timestamp="2008-12-20T17:11:19Z" uid="20587" user="balrog-kun" changeset="495301">
    <nd ref="320225171"/>
    <nd ref="320225173"/>
    <nd ref="320225215"/>
    <nd ref="320225177"/>
    <nd ref="320225171"/>
    <tag k="addr:housenumber" v="21"/>
    <tag k="addr:street" v="Łukiska"/>
    <tag k="building" v="yes"/>
  </way>
  <way id="29111993" version="1" timestamp="2008-12-20T17:11:19Z" uid="20587" user="balrog-kun" changeset="495301">
    <nd ref="320225218"/>
    <nd ref="320225221"/>
    <nd ref="320225228"/>
    <nd ref="320225224"/>
    <nd ref="320225218"/>
    <tag k="addr:housenumber" v="19"/>
    <tag k="addr:street" v="Łukiska"/>
    <tag k="building" v="yes"/>
  </way>
  <way id="29111994" version="1" timestamp="2008-12-20T17:11:19Z" uid="20587" user="balrog-kun" changeset="495301">
    <nd ref="320225235"/>
    <nd ref="320225231"/>
    <nd ref="320225293"/>
    <nd ref="320225292"/>
    <nd ref="320225235"/>
    <tag k="addr:housenumber" v="17a"/>
    <tag k="addr:street" v="Łukiska"/>
    <tag k="building" v="yes"/>
  </way>
  <way id="29111995" version="1" timestamp="2008-12-20T17:11:20Z" uid="20587" user="balrog-kun" changeset="495301">
    <nd ref="320225245"/>
    <nd ref="320225248"/>
    <nd ref="320225255"/>
    <nd ref="320225251"/>
    <nd ref="320225245"/>
    <tag k="addr:housenumber" v="15"/>
    <tag k="addr:street" v="Łukiska"/>
    <tag k="building" v="yes"/>
  </way>
  <way id="29111995" version="2" timestamp="2010-06-20T03:22:56Z" uid="20587" user="balrog-kun" changeset="5029412">
    <nd ref="320225245"/>
    <nd ref="320225248"/>
    <nd ref="320225255"/>
    <nd ref="320225251"/>
    <nd ref="320225245"/>
    <tag k="addr:housenumber" v="15"/>
    <tag k="addr:street" v="Łukiska"/>
    <tag k="building" v="residential"/>
  </way>
  <way id="29111996" version="1" timestamp="2008-12-20T17:11:20Z" uid="20587" user="balrog-kun" changeset="495301">
    <nd ref="320225264"/>
    <nd ref="320225267"/>
    <nd ref="320225271"/>
    <nd ref="320225269"/>
    <nd ref="320225264"/>
    <tag k="addr:housenumber" v="51"/>
    <tag k="addr:street" v="Sulejkowska"/>
    <tag k="building" v="yes"/>
  </way>
  <way id="29111997" version="1" timestamp="2008-12-20T17:11:20Z" uid="20587" user="balrog-kun" changeset="495301">
    <nd ref="320225257"/>
    <nd ref="320225260"/>
    <nd ref="318495434"/>
    <nd ref="318495435"/>
    <nd ref="320225257"/>
    <tag k="addr:housenumber" v="53"/>
    <tag k="addr:street" v="Sulejkowska"/>
    <tag k="building" v="yes"/>
  </way>
  <way id="29111998" version="1" timestamp="2008-12-20T17:11:20Z" uid="20587" user="balrog-kun" changeset="495301">
    <nd ref="320225273"/>
    <nd ref="320225279"/>
    <nd ref="320225285"/>
    <nd ref="320225289"/>
    <nd ref="320225283"/>
    <nd ref="320225275"/>
    <nd ref="320225273"/>
    <tag k="addr:housenumber" v="61"/>
    <tag k="addr:street" v="Sulejkowska"/>
    <tag k="building" v="yes"/>
  </way>
  <way id="29111998" version="2" timestamp="2011-02-16T00:23:25Z" uid="20587" user="balrog-kun" changeset="7300399">
    <nd ref="320225273"/>
    <nd ref="320225279"/>
    <nd ref="320225285"/>
    <nd ref="320225289"/>
    <nd ref="320225283"/>
    <nd ref="320225275"/>
    <nd ref="320225273"/>
    <tag k="addr:housenumber" v="61"/>
    <tag k="addr:street" v="Sulejkowska"/>
    <tag k="building" v="yes"/>
    <tag k="building:levels" v="2"/>
  </way>
  <way id="29111999" version="1" timestamp="2008-12-20T17:11:20Z" uid="20587" user="balrog-kun" changeset="495301">
    <nd ref="320225293"/>
    <nd ref="320225238"/>
    <nd ref="320225241"/>
    <nd ref="320225292"/>
    <nd ref="320225293"/>
    <tag k="addr:housenumber" v="17"/>
    <tag k="addr:street" v="Łukiska"/>
    <tag k="building" v="yes"/>
  </way>
</osm>
