<?xml version='1.0' encoding='UTF-8'?>
<osm version="0.6" generator="libosmium/2.20.0">
  <way id="29129203" version="1" timestamp="2008-12-21T09:30:38Z" uid="18775" user="drlizau" changeset="525678">
    <nd ref="247304423"/>
    <nd ref="320459709"/>
    <nd ref="320459714"/>
    <nd ref="320459719"/>
    <nd ref="320459724"/>
    <tag k="highway" v="unclassified"/>
    <tag k="name" v="South Lake Drive"/>
  </way>
  <way id="29129203" version="2" timestamp="2010-12-20T12:29:49Z" uid="19626" user="Swamp" changeset="6715499">
    <nd ref="247304423"/>
    <nd ref="320459709"/>
    <nd ref="320459714"/>
    <nd ref="320459719"/>
    <nd ref="320459724"/>
    <tag k="highway" v="unclassified"/>
    <tag k="maxspeed" v="50"/>
    <tag k="name" v="South Lake Drive"/>
  </way>
  <way id="29129522" version="2" timestamp="2009-11-29T22:46:50Z" uid="200463" user="harmagedon" changeset="3251061">
    <nd ref="320462127"/>
    <nd ref="320462128"/>
    <nd ref="320462129"/>
    <nd ref="320462130"/>
    <nd ref="320462131"/>
    <nd ref="320462132"/>
    <nd ref="320462133"/>
    <nd ref="320462134"/>
    <tag k="highway" v="service"/>
  </way>
  <way id="29129584" version="1" timestamp="2008-12-21T09:37:53Z" uid="58091" user="Andreas M" changeset="514916">
    <nd ref="127358204"/>
    <nd ref="127358205"/>
    <tag k="created_by" v="Potlatch 0.5b"/>
    <tag k="highway" v="residential"/>
    <tag k="name" v="Karl-Drescher-Gasse"/>
  </way>
  <way id="29129585" version="1" timestamp="2008-12-21T09:37:53Z" uid="58091" user="Andreas M" changeset="514916">
    <nd ref="108219378"/>
    <nd ref="108218783"/>
    <nd ref="280563030"/>
    <nd ref="280562093"/>
    <nd ref="108218784"/>
    <nd ref="108218786"/>
    <tag k="created_by" v="Potlatch 0.10"/>
    <tag k="highway" v="residential"/>
    <tag k="name" v="Pretschgasse"/>
  </way>
  <way id="29129586" version="1" timestamp="2008-12-21T09:37:54Z" uid="58091" user="Andreas M" changeset="514916">
    <nd ref="108218786"/>
    <nd ref="108218787"/>
    <nd ref="108218788"/>
    <nd ref="108218789"/>
    <nd ref="108218791"/>
    <nd ref="108218792"/>
    <tag k="created_by" v="Potlatch 0.10"/>
    <tag k="highway" v="residential"/>
    <tag k="name" v="Anton-Steinböck-Gasse"/>
  </way>
  <way id="29129587" version="1" timestamp="2008-12-21T09:37:54Z" uid="58091" user="Andreas M" changeset="514916">
    <nd ref="320462785"/>
    <nd ref="117589234"/>
    <tag k="created_by" v="Potlatch 0.10"/>
    <tag k="highway" v="residential"/>
    <tag k="name" v="Wilhelm-Kreß-Platz"/>
  </way>
  <way id="29129588" version="1" timestamp="2008-12-21T09:37:54Z" uid="58091" user="Andreas M" changeset="514916">
    <nd ref="117588489"/>
    <nd ref="280562017"/>
    <nd ref="117588490"/>
    <tag k="created_by" v="Potlatch 0.10"/>
    <tag k="highway" v="residential"/>
    <tag k="name" v="Petzoldgasse"/>
  </way>
  <way id="29129589" version="1" timestamp="2008-12-21T09:37:54Z" uid="58091" user="Andreas M" changeset="514916">
    <nd ref="117575166"/>
    <nd ref="108218792"/>
    <nd ref="117588717"/>
    <nd ref="117588489"/>
    <tag k="created_by" v="Potlatch 0.10"/>
    <tag k="highway" v="residential"/>
    <tag k="name" v="Reischekgasse"/>
  </way>
  <way id="29129590" version="1" timestamp="2008-12-21T09:37:54Z" uid="58091" user="Andreas M" changeset="514916">
    <nd ref="108219378"/>
    <nd ref="108219356"/>
    <nd ref="117588490"/>
    <nd ref="280562762"/>
    <tag k="created_by" v="Potlatch 0.10e"/>
    <tag k="highway" v="residential"/>
    <tag k="name" v="Weißenböckstraße"/>
  </way>
  <way id="29129591" version="1" timestamp="2008-12-21T09:37:55Z" uid="58091" user="Andreas M" changeset="514916">
    <nd ref="280562762"/>
    <nd ref="117589234"/>
    <nd ref="117570406"/>
    <nd ref="280562856"/>
    <tag k="created_by" v="Potlatch 0.10e"/>
    <tag k="highway" v="residential"/>
    <tag k="name" v="Wilhelm-Kreß-Platz"/>
  </way>
  <way id="29129592" version="1" timestamp="2008-12-21T09:37:55Z" uid="58091" user="Andreas M" changeset="514916">
    <nd ref="280562856"/>
    <nd ref="108219357"/>
    <nd ref="117573907"/>
    <nd ref="117570968"/>
    <nd ref="29666815"/>
    <tag k="created_by" v="Potlatch 0.10e"/>
    <tag k="highway" v="residential"/>
    <tag k="name" v="Weißenböckstraße"/>
  </way>
  <way id="29129593" version="1" timestamp="2008-12-21T09:37:55Z" uid="58091" user="Andreas M" changeset="514916">
    <nd ref="320462787"/>
    <nd ref="320462790"/>
    <nd ref="108224395"/>
    <nd ref="108224396"/>
    <nd ref="108224372"/>
    <tag k="created_by" v="Potlatch 0.10f"/>
    <tag k="highway" v="residential"/>
    <tag k="name" v="Ewaldgasse"/>
    <tag k="oneway" v="yes"/>
  </way>
  <way id="29129593" version="2" timestamp="2008-12-22T13:03:56Z" uid="58091" user="Andreas M" changeset="555602">
    <nd ref="320462787"/>
    <nd ref="320462790"/>
    <nd ref="108224395"/>
    <nd ref="108224396"/>
    <nd ref="108224372"/>
    <tag k="created_by" v="Potlatch 0.10f"/>
    <tag k="highway" v="residential"/>
    <tag k="name" v="Ewaldgasse"/>
  </way>
  <way id="29129747" version="14" timestamp="2010-04-22T02:29:37Z" uid="4467" user="Rosscoe" changeset="4492200"/>
</osm>
