<?xml version='1.0' encoding='UTF-8'?>
<osm version="0.6" generator="libosmium/2.20.0">
  <way id="29125011" version="3" timestamp="2010-07-09T06:20:31Z" uid="74617" user="JohnSmith" changeset="5171128">
    <nd ref="320416258"/>
    <nd ref="320416323"/>
    <nd ref="320416324"/>
    <nd ref="726349363"/>
    <nd ref="320416325"/>
    <nd ref="320416326"/>
    <nd ref="320416257"/>
    <tag k="highway" v="residential"/>
    <tag k="maxspeed" v="50"/>
    <tag k="maxspeed:source" v="default residential speed limit in Australia"/>
    <tag k="name" v="Davenport Way"/>
  </way>
  <way id="29125016" version="3" timestamp="2010-07-09T06:23:49Z" uid="74617" user="JohnSmith" changeset="5171128">
    <nd ref="320416323"/>
    <nd ref="320416363"/>
    <nd ref="726350288"/>
    <nd ref="726350293"/>
    <tag k="highway" v="residential"/>
    <tag k="maxspeed" v="50"/>
    <tag k="maxspeed:source" v="default residential speed limit in Australia"/>
    <tag k="name" v="Davenport Way"/>
  </way>
  <way id="29125039" version="7" timestamp="2010-06-29T19:10:57Z" uid="74617" user="JohnSmith" changeset="5108182">
    <nd ref="320416536"/>
    <nd ref="320416537"/>
    <nd ref="320416538"/>
    <nd ref="320416539"/>
    <nd ref="320416536"/>
    <tag k="area" v="yes"/>
    <tag k="fixme" v="sport=football is ambiguous, see http://wiki.osm.org/wiki/Football for more details"/>
    <tag k="leisure" v="pitch"/>
    <tag k="name" v="Youngman Field"/>
    <tag k="sport" v="football"/>
  </way>
  <way id="29125971" version="10" timestamp="2010-04-06T18:16:33Z" uid="9581" user="Lobelt" changeset="4346961">
    <nd ref="320423844"/>
    <nd ref="320423904"/>
    <nd ref="320423911"/>
    <nd ref="320423917"/>
    <nd ref="320423922"/>
    <nd ref="320423925"/>
    <nd ref="320423930"/>
    <nd ref="686825214"/>
    <tag k="highway" v="tertiary"/>
    <tag k="name" v="SteinbergstraÃŸe"/>
    <tag k="ref" v="K 72"/>
  </way>
</osm>
