<?xml version='1.0' encoding='UTF-8'?>
<osm version="0.6" generator="libosmium/2.20.0">
  <way id="29142577" version="10" timestamp="2010-10-02T07:21:18Z" uid="33382" user="de_muur" changeset="5933518">
    <nd ref="934573050"/>
    <nd ref="122454"/>
    <nd ref="16542173"/>
    <nd ref="934573054"/>
    <nd ref="934573055"/>
    <nd ref="122453"/>
    <nd ref="319677635"/>
    <nd ref="319677647"/>
    <nd ref="122452"/>
    <nd ref="934573059"/>
    <nd ref="934573060"/>
    <tag k="highway" v="motorway"/>
    <tag k="int_ref" v="E 22"/>
    <tag k="lanes" v="2"/>
    <tag k="maxspeed" v="100"/>
    <tag k="oneway" v="yes"/>
    <tag k="ref" v="A 1"/>
  </way>
  <way id="29142577" version="11" timestamp="2010-10-19T13:56:47Z" uid="33382" user="de_muur" changeset="6099506">
    <nd ref="934573050"/>
    <nd ref="122454"/>
    <nd ref="16542173"/>
    <nd ref="934573054"/>
    <nd ref="934573055"/>
    <nd ref="122453"/>
    <tag k="highway" v="motorway"/>
    <tag k="int_ref" v="E 22"/>
    <tag k="lanes" v="2"/>
    <tag k="maxspeed" v="100"/>
    <tag k="oneway" v="yes"/>
    <tag k="ref" v="A 1"/>
  </way>
  <way id="29142577" version="14" timestamp="2011-01-23T17:04:57Z" uid="33382" user="de_muur" changeset="7064012">
    <nd ref="934573050"/>
    <nd ref="122454"/>
    <nd ref="16542173"/>
    <nd ref="934573054"/>
    <nd ref="934573055"/>
    <nd ref="122453"/>
    <tag k="highway" v="motorway"/>
    <tag k="int_ref" v="E 22"/>
    <tag k="lanes" v="2"/>
    <tag k="maxspeed" v="80"/>
    <tag k="note:name" v="Der reg_name, sowie ggf. der loc_name sind dem zugehörigen Wikipediaartikel entnommen."/>
    <tag k="oneway" v="yes"/>
    <tag k="ref" v="A 1"/>
    <tag k="reg_name" v="Hansalinie"/>
  </way>
  <way id="29142763" version="2" timestamp="2009-01-12T01:19:29Z" uid="6975" user="ulfl" changeset="778582">
    <nd ref="309392003"/>
    <nd ref="27361767"/>
    <tag k="created_by" v="Potlatch 0.10f"/>
    <tag k="highway" v="secondary"/>
    <tag k="maxspeed" v="50"/>
    <tag k="name" v="Am Plärrer"/>
  </way>
  <way id="29142763" version="5" timestamp="2010-03-02T13:11:49Z" uid="49111" user="Markus B" changeset="4016689">
    <nd ref="309392003"/>
    <nd ref="354447359"/>
    <nd ref="659172962"/>
    <nd ref="354447356"/>
    <nd ref="659172960"/>
    <nd ref="354447352"/>
    <nd ref="354447341"/>
    <tag k="highway" v="secondary"/>
    <tag k="maxspeed" v="50"/>
    <tag k="name" v="Am Plärrer"/>
    <tag k="oneway" v="yes"/>
  </way>
  <way id="29142817" version="11" timestamp="2010-05-01T19:51:54Z" uid="151899" user="Bikeman2000" changeset="4578779">
    <nd ref="27154340"/>
    <nd ref="253280000"/>
    <nd ref="320588754"/>
    <nd ref="715836058"/>
    <nd ref="42344464"/>
    <nd ref="715836064"/>
    <nd ref="320586892"/>
    <nd ref="715836076"/>
    <nd ref="320586894"/>
    <tag k="highway" v="residential"/>
    <tag k="name" v="Joachimstraße"/>
    <tag k="oneway" v="yes"/>
  </way>
  <way id="29142889" version="4" timestamp="2010-05-01T19:51:55Z" uid="151899" user="Bikeman2000" changeset="4578779">
    <nd ref="42344472"/>
    <nd ref="715836102"/>
    <nd ref="320586894"/>
    <tag k="highway" v="residential"/>
    <tag k="name" v="Mönchenwerther Straße"/>
  </way>
</osm>
