<?xml version='1.0' encoding='UTF-8'?>
<osm version="0.6" generator="libosmium/2.20.0">
  <way id="29166783" version="12" timestamp="2010-07-08T20:01:49Z" uid="74617" user="JohnSmith" changeset="5168730">
    <nd ref="320776718"/>
    <nd ref="319842159"/>
    <nd ref="320776968"/>
    <nd ref="320777097"/>
    <nd ref="320777538"/>
    <nd ref="320777155"/>
    <nd ref="320777197"/>
    <nd ref="320777261"/>
    <nd ref="250287978"/>
    <tag k="highway" v="residential"/>
    <tag k="maxspeed" v="50"/>
    <tag k="maxspeed:source" v="default residential speed limit in Australia"/>
    <tag k="name" v="Cyclamen Avenue"/>
    <tag k="source" v="MMBW"/>
  </way>
  <way id="29166828" version="2" timestamp="2010-07-08T19:59:59Z" uid="74617" user="JohnSmith" changeset="5168730">
    <nd ref="320776952"/>
    <nd ref="320776968"/>
    <tag k="highway" v="residential"/>
    <tag k="maxspeed" v="50"/>
    <tag k="maxspeed:source" v="default residential speed limit in Australia"/>
    <tag k="name" v="Begonia Avenue"/>
    <tag k="source" v="MMBW"/>
  </way>
  <way id="29166851" version="2" timestamp="2010-07-08T19:55:58Z" uid="74617" user="JohnSmith" changeset="5168730">
    <nd ref="320777076"/>
    <nd ref="320777097"/>
    <tag k="highway" v="residential"/>
    <tag k="maxspeed" v="50"/>
    <tag k="maxspeed:source" v="default residential speed limit in Australia"/>
    <tag k="name" v="Amaranth Avenue"/>
    <tag k="source" v="MMBW"/>
  </way>
  <way id="29166864" version="2" timestamp="2010-07-08T19:57:28Z" uid="74617" user="JohnSmith" changeset="5168730">
    <nd ref="320777133"/>
    <nd ref="320777155"/>
    <tag k="highway" v="residential"/>
    <tag k="maxspeed" v="50"/>
    <tag k="maxspeed:source" v="default residential speed limit in Australia"/>
    <tag k="name" v="Delphin Avenue"/>
    <tag k="source" v="MMBW"/>
  </way>
  <way id="29166879" version="2" timestamp="2010-07-08T20:02:02Z" uid="74617" user="JohnSmith" changeset="5168730">
    <nd ref="320777180"/>
    <nd ref="320777197"/>
    <tag k="highway" v="residential"/>
    <tag k="maxspeed" v="50"/>
    <tag k="maxspeed:source" v="default residential speed limit in Australia"/>
    <tag k="name" v="Huxtable Avenue"/>
    <tag k="source" v="MMBW"/>
  </way>
  <way id="29166895" version="2" timestamp="2010-07-08T20:00:35Z" uid="74617" user="JohnSmith" changeset="5168730">
    <nd ref="320777227"/>
    <nd ref="320777261"/>
    <tag k="highway" v="residential"/>
    <tag k="maxspeed" v="50"/>
    <tag k="maxspeed:source" v="default residential speed limit in Australia"/>
    <tag k="name" v="Valerian Avenue"/>
    <tag k="source" v="MMBW"/>
  </way>
  <way id="29166925" version="2" timestamp="2009-02-01T20:32:10Z" uid="6975" user="ulfl" changeset="27333">
    <nd ref="320775920"/>
    <nd ref="320775921"/>
    <nd ref="320775919"/>
    <nd ref="320775918"/>
    <nd ref="320775920"/>
    <tag k="landuse" v="residential"/>
  </way>
  <way id="29166935" version="3" timestamp="2010-07-08T20:00:06Z" uid="74617" user="JohnSmith" changeset="5168730">
    <nd ref="320777447"/>
    <nd ref="320777590"/>
    <nd ref="320777492"/>
    <tag k="highway" v="residential"/>
    <tag k="maxspeed" v="50"/>
    <tag k="maxspeed:source" v="default residential speed limit in Australia"/>
    <tag k="name" v="Clematis Avenue"/>
    <tag k="source" v="MMBW"/>
  </way>
  <way id="29166983" version="2" timestamp="2010-07-08T19:59:33Z" uid="74617" user="JohnSmith" changeset="5168730">
    <nd ref="320777538"/>
    <nd ref="320777568"/>
    <nd ref="320777590"/>
    <tag k="highway" v="residential"/>
    <tag k="maxspeed" v="50"/>
    <tag k="maxspeed:source" v="default residential speed limit in Australia"/>
    <tag k="name" v="Cycade Avenue"/>
  </way>
  <way id="29166997" version="2" timestamp="2009-02-01T20:27:36Z" uid="6975" user="ulfl" changeset="27333">
    <nd ref="320776077"/>
    <nd ref="320776081"/>
    <nd ref="320776080"/>
    <nd ref="320776078"/>
    <nd ref="320776074"/>
    <nd ref="320776079"/>
    <nd ref="320776076"/>
    <nd ref="320776073"/>
    <nd ref="320776077"/>
    <tag k="landuse" v="residential"/>
    <tag k="name" v="Жидомля"/>
  </way>
</osm>
