<?xml version='1.0' encoding='UTF-8'?>
<osm version="0.6" generator="libosmium/2.20.0">
  <way id="29213017" version="2" timestamp="2009-05-21T05:39:37Z" uid="43863" user="Rundling" changeset="1271316">
    <nd ref="372827958"/>
    <nd ref="321325238"/>
    <tag k="created_by" v="Potlatch 0.10f"/>
    <tag k="highway" v="residential"/>
  </way>
  <way id="29213049" version="1" timestamp="2008-12-23T19:01:38Z" uid="33382" user="de_muur" changeset="573520">
    <nd ref="269361658"/>
    <nd ref="321325553"/>
    <tag k="created_by" v="JOSM"/>
    <tag k="highway" v="track"/>
    <tag k="note" v="to be continued"/>
    <tag k="surface" v="unpaved"/>
    <tag k="tracktype" v="grade2"/>
  </way>
  <way id="29213049" version="2" timestamp="2009-08-21T14:04:28Z" uid="33382" user="de_muur" changeset="2224507">
    <nd ref="269361658"/>
    <nd ref="321325553"/>
    <nd ref="471949047"/>
    <tag k="highway" v="track"/>
    <tag k="surface" v="unpaved"/>
    <tag k="tracktype" v="grade3"/>
  </way>
  <way id="29213050" version="1" timestamp="2008-12-23T19:01:39Z" uid="33382" user="de_muur" changeset="573520">
    <nd ref="321325551"/>
    <nd ref="269361828"/>
    <tag k="created_by" v="JOSM"/>
    <tag k="highway" v="track"/>
    <tag k="surface" v="unpaved"/>
    <tag k="tracktype" v="grade2"/>
  </way>
  <way id="29213073" version="7" timestamp="2009-01-01T14:06:49Z" uid="6975" user="ulfl" changeset="699648">
    <nd ref="321325693"/>
    <nd ref="323077260"/>
    <tag k="amenity" v="grave_yard"/>
    <tag k="religion" v="jewish"/>
  </way>
  <way id="29213315" version="6" timestamp="2010-01-31T08:11:53Z" uid="151899" user="Bikeman2000" changeset="3756752">
    <nd ref="321328314"/>
    <nd ref="45108175"/>
    <nd ref="310642045"/>
    <nd ref="45108187"/>
    <nd ref="45108191"/>
    <nd ref="310642048"/>
    <nd ref="522284020"/>
    <nd ref="285772418"/>
    <nd ref="45108194"/>
    <nd ref="522284012"/>
    <nd ref="45108202"/>
    <nd ref="309396516"/>
    <nd ref="291321734"/>
    <nd ref="45108218"/>
    <nd ref="509656926"/>
    <nd ref="309396495"/>
    <nd ref="309396493"/>
    <nd ref="309396490"/>
    <nd ref="45108223"/>
    <tag k="highway" v="tertiary"/>
    <tag k="name" v="Stratumer Straße"/>
    <tag k="postal_code" v="40668"/>
    <tag k="ref" v="K 9"/>
    <tag k="source:ref" v="http://wiki.openstreetmap.org/wiki/Import/Catalogue/Strassen_NRW"/>
  </way>
  <way id="29213358" version="4" timestamp="2010-03-28T00:27:08Z" uid="20587" user="balrog-kun" changeset="4250871">
    <nd ref="123058122"/>
    <nd ref="123058127"/>
    <nd ref="123058134"/>
    <nd ref="123058137"/>
    <nd ref="122850066"/>
    <tag k="created_by" v="JOSM"/>
    <tag k="cycleway" v="lane"/>
    <tag k="highway" v="tertiary"/>
    <tag k="lanes" v="2"/>
    <tag k="name" v="Harvard Avenue"/>
    <tag k="tiger:cfcc" v="A41"/>
    <tag k="tiger:county" v="Orange, CA"/>
    <tag k="tiger:name_base" v="Harvard"/>
    <tag k="tiger:name_type" v="Ave"/>
    <tag k="tiger:separated" v="no"/>
    <tag k="tiger:source" v="tiger_import_dch_v0.6_20070809"/>
    <tag k="tiger:tlid" v="144058476:144058479:144058401:144058406:144077322:144058407:144416719:144095138:144405392:144381863:144419086:144381202:144419107:144419108:144419034:144111319:144101590:144424603:144424604:144381932:144106068:144419050:144381933:144381934:144120506:14405"/>
    <tag k="tiger:zip_left" v="92612"/>
    <tag k="tiger:zip_right" v="92612"/>
  </way>
  <way id="29213403" version="11" timestamp="2009-12-20T15:16:33Z" uid="4467" user="Rosscoe" changeset="3414268">
    <nd ref="321329193"/>
    <nd ref="321329194"/>
    <nd ref="371186542"/>
    <tag k="highway" v="residential"/>
    <tag k="name" v="Ridgeview Drive"/>
    <tag k="oneway" v="yes"/>
    <tag k="source" v="nearmap"/>
  </way>
  <way id="29213403" version="12" timestamp="2010-02-08T07:57:24Z" uid="74617" user="JohnSmith" changeset="3821217">
    <nd ref="321329193"/>
    <nd ref="321329194"/>
    <nd ref="371186542"/>
    <tag k="highway" v="residential"/>
    <tag k="maxspeed" v="50"/>
    <tag k="name" v="Ridgeview Drive"/>
    <tag k="oneway" v="yes"/>
    <tag k="source" v="nearmap"/>
  </way>
  <way id="29213406" version="7" timestamp="2009-12-21T03:32:12Z" uid="4467" user="Rosscoe" changeset="3418245">
    <nd ref="371186474"/>
    <nd ref="597549125"/>
    <nd ref="321329256"/>
    <nd ref="597549123"/>
    <nd ref="321329257"/>
    <nd ref="370821146"/>
    <nd ref="321329258"/>
    <nd ref="321329259"/>
    <nd ref="321329260"/>
    <nd ref="321329261"/>
    <nd ref="597549120"/>
    <nd ref="321329221"/>
    <tag k="highway" v="residential"/>
    <tag k="name" v="Satinash Street"/>
    <tag k="source" v="nearmap"/>
  </way>
  <way id="29213406" version="8" timestamp="2010-02-08T07:57:31Z" uid="74617" user="JohnSmith" changeset="3821217">
    <nd ref="371186474"/>
    <nd ref="597549125"/>
    <nd ref="321329256"/>
    <nd ref="597549123"/>
    <nd ref="321329257"/>
    <nd ref="370821146"/>
    <nd ref="321329258"/>
    <nd ref="321329259"/>
    <nd ref="321329260"/>
    <nd ref="321329261"/>
    <nd ref="597549120"/>
    <nd ref="321329221"/>
    <tag k="highway" v="residential"/>
    <tag k="maxspeed" v="50"/>
    <tag k="name" v="Satinash Street"/>
    <tag k="source" v="nearmap"/>
  </way>
  <way id="29213409" version="4" timestamp="2010-02-08T07:57:22Z" uid="74617" user="JohnSmith" changeset="3821217">
    <nd ref="321329266"/>
    <nd ref="321329219"/>
    <tag k="highway" v="residential"/>
    <tag k="maxspeed" v="50"/>
    <tag k="name" v="Myrtle Court"/>
  </way>
  <way id="29213413" version="4" timestamp="2010-02-08T07:57:22Z" uid="74617" user="JohnSmith" changeset="3821217">
    <nd ref="321329277"/>
    <nd ref="321329217"/>
    <tag k="highway" v="residential"/>
    <tag k="maxspeed" v="50"/>
    <tag k="name" v="Forte Court"/>
  </way>
  <way id="29213420" version="3" timestamp="2009-12-21T02:34:51Z" uid="4467" user="Rosscoe" changeset="3418185">
    <nd ref="321329298"/>
    <nd ref="321329216"/>
    <tag k="highway" v="residential"/>
    <tag k="name" v="Australe Place"/>
    <tag k="source" v="nearmap"/>
  </way>
  <way id="29213432" version="5" timestamp="2009-12-21T02:34:51Z" uid="4467" user="Rosscoe" changeset="3418185">
    <nd ref="370821641"/>
    <nd ref="321329334"/>
    <nd ref="597546902"/>
    <nd ref="321329335"/>
    <nd ref="321329212"/>
    <tag k="highway" v="residential"/>
    <tag k="name" v="Boonjee Close"/>
  </way>
  <way id="29213439" version="5" timestamp="2009-12-21T03:32:10Z" uid="4467" user="Rosscoe" changeset="3418245">
    <nd ref="321329369"/>
    <nd ref="321329371"/>
    <nd ref="597549034"/>
    <nd ref="321329373"/>
    <nd ref="371186530"/>
    <tag k="highway" v="residential"/>
    <tag k="name" v="Mapleton Court"/>
  </way>
  <way id="29213439" version="6" timestamp="2010-02-08T07:57:22Z" uid="74617" user="JohnSmith" changeset="3821217">
    <nd ref="321329369"/>
    <nd ref="321329371"/>
    <nd ref="597549034"/>
    <nd ref="321329373"/>
    <nd ref="371186530"/>
    <tag k="highway" v="residential"/>
    <tag k="maxspeed" v="50"/>
    <tag k="name" v="Mapleton Court"/>
  </way>
  <way id="29213441" version="4" timestamp="2010-02-08T07:57:24Z" uid="74617" user="JohnSmith" changeset="3821217">
    <nd ref="321329413"/>
    <nd ref="321329414"/>
    <nd ref="321329415"/>
    <nd ref="321329199"/>
    <tag k="highway" v="residential"/>
    <tag k="maxspeed" v="50"/>
    <tag k="name" v="Elgenia Court"/>
  </way>
  <way id="29213446" version="6" timestamp="2009-12-20T15:16:33Z" uid="4467" user="Rosscoe" changeset="3414268">
    <nd ref="321329514"/>
    <nd ref="321329515"/>
    <nd ref="321329516"/>
    <nd ref="370821372"/>
    <nd ref="321329517"/>
    <nd ref="371186498"/>
    <tag k="highway" v="residential"/>
    <tag k="name" v="Springbrook Place"/>
    <tag k="source" v="nearmap"/>
  </way>
  <way id="29213446" version="7" timestamp="2010-02-08T07:57:23Z" uid="74617" user="JohnSmith" changeset="3821217">
    <nd ref="321329514"/>
    <nd ref="321329515"/>
    <nd ref="321329516"/>
    <nd ref="370821372"/>
    <nd ref="321329517"/>
    <nd ref="371186498"/>
    <tag k="highway" v="residential"/>
    <tag k="maxspeed" v="50"/>
    <tag k="name" v="Springbrook Place"/>
    <tag k="source" v="nearmap"/>
  </way>
  <way id="29213466" version="7" timestamp="2009-12-21T01:11:27Z" uid="4467" user="Rosscoe" changeset="3418067">
    <nd ref="371186489"/>
    <nd ref="321329806"/>
    <nd ref="597514880"/>
    <nd ref="321329807"/>
    <nd ref="321329808"/>
    <nd ref="321329809"/>
    <nd ref="443348526"/>
    <nd ref="321329810"/>
    <nd ref="370821127"/>
    <nd ref="321329812"/>
    <nd ref="321329813"/>
    <nd ref="321329226"/>
    <tag k="highway" v="residential"/>
    <tag k="name" v="Magenta Crescent"/>
  </way>
  <way id="29213466" version="8" timestamp="2009-12-21T02:34:55Z" uid="4467" user="Rosscoe" changeset="3418185">
    <nd ref="371186489"/>
    <nd ref="321329806"/>
    <nd ref="597514880"/>
    <nd ref="321329807"/>
    <nd ref="321329808"/>
    <nd ref="321329809"/>
    <nd ref="443348526"/>
    <nd ref="321329810"/>
    <nd ref="370821127"/>
    <nd ref="321329812"/>
    <nd ref="321329813"/>
    <nd ref="597547046"/>
    <nd ref="321329226"/>
    <tag k="highway" v="residential"/>
    <tag k="name" v="Magenta Crescent"/>
  </way>
  <way id="29213466" version="9" timestamp="2009-12-21T03:32:13Z" uid="4467" user="Rosscoe" changeset="3418245">
    <nd ref="371186489"/>
    <nd ref="321329806"/>
    <nd ref="597514880"/>
    <nd ref="321329807"/>
    <nd ref="321329808"/>
    <nd ref="321329809"/>
    <nd ref="443348526"/>
    <nd ref="321329810"/>
    <nd ref="370821127"/>
    <nd ref="321329812"/>
    <nd ref="321329813"/>
    <nd ref="597547046"/>
    <nd ref="321329226"/>
    <tag k="highway" v="residential"/>
    <tag k="name" v="Magenta Crescent"/>
    <tag k="source" v="nearmap"/>
  </way>
  <way id="29213466" version="10" timestamp="2010-02-08T07:57:37Z" uid="74617" user="JohnSmith" changeset="3821217">
    <nd ref="371186489"/>
    <nd ref="321329806"/>
    <nd ref="597514880"/>
    <nd ref="321329807"/>
    <nd ref="321329808"/>
    <nd ref="321329809"/>
    <nd ref="443348526"/>
    <nd ref="321329810"/>
    <nd ref="370821127"/>
    <nd ref="321329812"/>
    <nd ref="321329813"/>
    <nd ref="597547046"/>
    <nd ref="321329226"/>
    <tag k="highway" v="residential"/>
    <tag k="maxspeed" v="50"/>
    <tag k="name" v="Magenta Crescent"/>
    <tag k="source" v="nearmap"/>
  </way>
  <way id="29213480" version="4" timestamp="2010-02-08T07:57:19Z" uid="74617" user="JohnSmith" changeset="3821217">
    <nd ref="321330102"/>
    <nd ref="321330103"/>
    <nd ref="321330104"/>
    <nd ref="321330105"/>
    <nd ref="321330007"/>
    <tag k="highway" v="residential"/>
    <tag k="maxspeed" v="50"/>
    <tag k="name" v="Peppermint Court"/>
  </way>
  <way id="29213483" version="4" timestamp="2010-02-08T07:57:24Z" uid="74617" user="JohnSmith" changeset="3821217">
    <nd ref="321330139"/>
    <nd ref="321330105"/>
    <tag k="highway" v="residential"/>
    <tag k="maxspeed" v="50"/>
    <tag k="name" v="Marlock Court"/>
  </way>
  <way id="29213487" version="4" timestamp="2010-02-08T07:57:24Z" uid="74617" user="JohnSmith" changeset="3821217">
    <nd ref="321330221"/>
    <nd ref="321330222"/>
    <tag k="highway" v="residential"/>
    <tag k="maxspeed" v="50"/>
    <tag k="name" v="Bunya Court"/>
  </way>
  <way id="29213490" version="4" timestamp="2010-02-08T07:57:24Z" uid="74617" user="JohnSmith" changeset="3821217">
    <nd ref="321330256"/>
    <nd ref="321330011"/>
    <tag k="highway" v="residential"/>
    <tag k="maxspeed" v="50"/>
    <tag k="name" v="Myall Court"/>
  </way>
  <way id="29213526" version="5" timestamp="2010-02-08T07:57:35Z" uid="74617" user="JohnSmith" changeset="3821217">
    <nd ref="321330677"/>
    <nd ref="321330678"/>
    <nd ref="416363150"/>
    <tag k="highway" v="residential"/>
    <tag k="maxspeed" v="50"/>
    <tag k="name" v="Golden Wattle Drive"/>
  </way>
  <way id="29213533" version="5" timestamp="2009-12-21T02:34:54Z" uid="4467" user="Rosscoe" changeset="3418185">
    <nd ref="321330727"/>
    <nd ref="321330730"/>
    <nd ref="321330731"/>
    <nd ref="597547031"/>
    <nd ref="597547029"/>
    <nd ref="321330732"/>
    <nd ref="597547034"/>
    <nd ref="558198479"/>
    <nd ref="321330677"/>
    <tag k="highway" v="residential"/>
    <tag k="name" v="Mitta Court"/>
  </way>
  <way id="29213533" version="8" timestamp="2010-02-08T07:57:35Z" uid="74617" user="JohnSmith" changeset="3821217">
    <nd ref="321330727"/>
    <nd ref="321330730"/>
    <nd ref="321330731"/>
    <tag k="highway" v="residential"/>
    <tag k="maxspeed" v="50"/>
    <tag k="name" v="Mulga Court"/>
  </way>
  <way id="29213536" version="2" timestamp="2010-05-22T21:46:45Z" uid="9581" user="Lobelt" changeset="4778711">
    <nd ref="321330700"/>
    <nd ref="321330701"/>
    <nd ref="321330702"/>
    <nd ref="321330703"/>
    <nd ref="745951608"/>
    <nd ref="321330704"/>
    <tag k="highway" v="track"/>
    <tag k="tracktype" v="grade4"/>
  </way>
  <way id="29213538" version="3" timestamp="2010-05-22T21:46:50Z" uid="9581" user="Lobelt" changeset="4778711">
    <nd ref="321330707"/>
    <nd ref="321330708"/>
    <nd ref="488560259"/>
    <nd ref="745951729"/>
    <nd ref="321330709"/>
    <tag k="highway" v="residential"/>
    <tag k="name" v="Am Pulverhäuschen"/>
  </way>
  <way id="29213548" version="6" timestamp="2010-02-08T07:57:31Z" uid="74617" user="JohnSmith" changeset="3821217">
    <nd ref="321330754"/>
    <nd ref="321330755"/>
    <nd ref="416363162"/>
    <nd ref="558198933"/>
    <nd ref="321330682"/>
    <tag k="highway" v="residential"/>
    <tag k="maxspeed" v="50"/>
    <tag k="name" v="Bendee Court"/>
  </way>
  <way id="29213583" version="4" timestamp="2010-06-14T13:58:43Z" uid="74617" user="JohnSmith" changeset="4987691">
    <nd ref="321331400"/>
    <nd ref="443330241"/>
    <nd ref="443330239"/>
    <nd ref="443330237"/>
    <nd ref="443330234"/>
    <nd ref="321331400"/>
    <tag k="leisure" v="common"/>
  </way>
  <way id="29213638" version="5" timestamp="2009-12-20T15:12:59Z" uid="4467" user="Rosscoe" changeset="3414245">
    <nd ref="321331506"/>
    <nd ref="321331507"/>
    <nd ref="597307877"/>
    <nd ref="321331194"/>
    <tag k="highway" v="residential"/>
    <tag k="name" v="Yarran Street"/>
    <tag k="source" v="nearmap"/>
  </way>
  <way id="29213641" version="6" timestamp="2010-06-14T13:58:43Z" uid="74617" user="JohnSmith" changeset="4987691">
    <nd ref="321331532"/>
    <nd ref="443340976"/>
    <nd ref="443340975"/>
    <nd ref="321331533"/>
    <nd ref="443340972"/>
    <nd ref="321331534"/>
    <nd ref="332514320"/>
    <nd ref="321331535"/>
    <nd ref="443340971"/>
    <nd ref="321331536"/>
    <nd ref="321331537"/>
    <tag k="highway" v="residential"/>
    <tag k="name" v="Ringtail Court"/>
  </way>
  <way id="29213866" version="4" timestamp="2011-05-08T09:12:35Z" uid="9581" user="Lobelt" changeset="8080437">
    <nd ref="281497956"/>
    <nd ref="320947914"/>
    <nd ref="281500133"/>
    <tag k="highway" v="residential"/>
    <tag k="name" v="Weinbergstraße"/>
  </way>
  <way id="29213905" version="1" timestamp="2008-12-23T19:44:29Z" uid="7617" user="Franc" changeset="571232">
    <nd ref="321335135"/>
    <nd ref="321335158"/>
    <nd ref="321335149"/>
    <tag k="highway" v="service"/>
    <tag k="maxspeed" v="10"/>
    <tag k="name" v="Mullins Street"/>
    <tag k="note" v="sign posted as a shared zone"/>
    <tag k="oneway" v="yes"/>
    <tag k="source" v="survey"/>
  </way>
  <way id="29213906" version="1" timestamp="2008-12-23T19:44:30Z" uid="7617" user="Franc" changeset="571232">
    <nd ref="321335154"/>
    <nd ref="321335158"/>
    <nd ref="321335157"/>
    <tag k="highway" v="service"/>
    <tag k="name" v="Market Row"/>
    <tag k="source" v="survey"/>
  </way>
  <way id="29213991" version="3" timestamp="2011-05-08T09:12:16Z" uid="9581" user="Lobelt" changeset="8080437">
    <nd ref="289189473"/>
    <nd ref="28892764"/>
    <tag k="highway" v="pedestrian"/>
    <tag k="name" v="Kreuzstraße"/>
  </way>
</osm>
