<?xml version='1.0' encoding='UTF-8'?>
<osm version="0.6" generator="libosmium/2.20.0">
  <way id="29303047" version="3" timestamp="2010-09-23T02:28:39Z" uid="4467" user="Rosscoe" changeset="5850707">
    <nd ref="922166016"/>
    <nd ref="567361402"/>
    <nd ref="322285139"/>
    <nd ref="322285141"/>
    <nd ref="322285142"/>
    <nd ref="922166028"/>
    <nd ref="922166092"/>
    <nd ref="322285143"/>
    <nd ref="111159383"/>
    <tag k="highway" v="unclassified"/>
    <tag k="name" v="Hillview Road"/>
    <tag k="source" v="survey"/>
  </way>
  <way id="29303099" version="2" timestamp="2010-08-28T13:58:53Z" uid="4467" user="Rosscoe" changeset="5616350">
    <nd ref="322286199"/>
    <nd ref="322286200"/>
    <nd ref="322286201"/>
    <nd ref="322286202"/>
    <nd ref="322286199"/>
    <nd ref="322286204"/>
    <nd ref="322286205"/>
    <nd ref="322286207"/>
    <nd ref="322286208"/>
    <nd ref="322286209"/>
    <nd ref="322286210"/>
    <tag k="highway" v="unclassified"/>
  </way>
  <way id="29303099" version="3" timestamp="2010-09-09T11:22:59Z" uid="4467" user="Rosscoe" changeset="5731739">
    <nd ref="322286199"/>
    <nd ref="322286200"/>
    <tag k="highway" v="unclassified"/>
    <tag k="maxspeed" v="60"/>
  </way>
  <way id="29303099" version="4" timestamp="2010-09-22T08:34:28Z" uid="4467" user="Rosscoe" changeset="5843500">
    <nd ref="322286199"/>
    <nd ref="322286200"/>
    <tag k="highway" v="unclassified"/>
    <tag k="maxspeed" v="60"/>
    <tag k="name" v="Goodard Street"/>
  </way>
  <way id="29303099" version="5" timestamp="2011-03-27T09:42:04Z" uid="4467" user="Rosscoe" changeset="7683895">
    <nd ref="322286199"/>
    <nd ref="1221199482"/>
    <nd ref="322286200"/>
    <tag k="highway" v="unclassified"/>
    <tag k="maxspeed" v="60"/>
    <tag k="name" v="Goodard Street"/>
  </way>
  <way id="29303145" version="3" timestamp="2010-09-17T09:48:07Z" uid="4467" user="Rosscoe" changeset="5802160">
    <nd ref="308872911"/>
    <nd ref="322287076"/>
    <nd ref="322287078"/>
    <tag k="highway" v="residential"/>
    <tag k="maxspeed" v="50"/>
  </way>
  <way id="29303145" version="4" timestamp="2010-11-13T00:52:56Z" uid="4467" user="Rosscoe" changeset="6355242"/>
  <way id="29303193" version="6" timestamp="2011-01-20T22:42:20Z" uid="23543" user="jkjk" changeset="7035724">
    <nd ref="243838237"/>
    <nd ref="322287968"/>
    <nd ref="322287970"/>
    <nd ref="322287972"/>
    <nd ref="243838238"/>
    <nd ref="243838239"/>
    <nd ref="322221402"/>
    <nd ref="322287974"/>
    <nd ref="243838240"/>
    <nd ref="322221410"/>
    <nd ref="243838241"/>
    <nd ref="322287976"/>
    <nd ref="322287979"/>
    <nd ref="243838243"/>
    <nd ref="322287980"/>
    <nd ref="243838244"/>
    <nd ref="322287983"/>
    <nd ref="243838245"/>
    <nd ref="322287984"/>
    <nd ref="243838246"/>
    <nd ref="322220986"/>
    <nd ref="1112371994"/>
    <tag k="fixme" v="check import"/>
    <tag k="highway" v="tertiary"/>
    <tag k="is_in" v="Böheimkirchen,Sankt Pölten-Land,Niederösterreich,Österreich,Europe"/>
    <tag k="ref" v="L5076"/>
    <tag k="source" v="plan.at 2008"/>
  </way>
  <way id="29303208" version="2" timestamp="2009-01-01T14:12:24Z" uid="6975" user="ulfl" changeset="699648">
    <nd ref="322288195"/>
    <nd ref="322288198"/>
    <nd ref="247352526"/>
    <nd ref="322288199"/>
    <nd ref="248047159"/>
    <nd ref="322288202"/>
    <nd ref="322288205"/>
    <nd ref="322288207"/>
    <nd ref="322288209"/>
    <tag k="addr:postcode" v="3100"/>
    <tag k="area" v="yes"/>
    <tag k="fixme" v="check import"/>
    <tag k="is_in" v="...,Bezirk St. Pölten,Niederösterreich,Österreich,Europa"/>
    <tag k="leisure" v="nature_reserve"/>
    <tag k="name" v="Veranstaltungsgelände"/>
    <tag k="natural" v="plan.at:p_:reserve"/>
    <tag k="note" v="imported from plan.at; (C)=CC-by-sa or oDBL; feel free to change if necessary"/>
    <tag k="plan_at:acad_id" v="p_3352"/>
    <tag k="source" v="plan.at 2008"/>
    <tag k="uploaded_by" v="Wolfgang W. Wasserburger"/>
  </way>
  <way id="29303403" version="2" timestamp="2010-03-28T00:42:41Z" uid="20587" user="balrog-kun" changeset="4250871">
    <nd ref="122904045"/>
    <nd ref="122904047"/>
    <nd ref="122648901"/>
    <nd ref="122904050"/>
    <nd ref="322294165"/>
    <tag k="created_by" v="Potlatch 0.10b"/>
    <tag k="highway" v="residential"/>
    <tag k="name" v="North Long Beach Boulevard"/>
    <tag k="tiger:cfcc" v="A41"/>
    <tag k="tiger:county" v="Los Angeles, CA"/>
    <tag k="tiger:name_base" v="Long Beach"/>
    <tag k="tiger:name_direction_prefix" v="N"/>
    <tag k="tiger:name_type" v="Blvd"/>
    <tag k="tiger:reviewed" v="no"/>
    <tag k="tiger:separated" v="no"/>
    <tag k="tiger:source" v="tiger_import_dch_v0.6_20070809"/>
    <tag k="tiger:tlid" v="141683080:141683081:141683082:141683083:141683085:141683097:142650971:142650972:141683143:141683145:141683203:141792396:141683211:141683213:141683215:141683216:141683218:141683319:141683321:141683325:141683327:141683329:141683330:141683332:141683334:14168"/>
    <tag k="tiger:zip_left" v="90805"/>
    <tag k="tiger:zip_right" v="90805"/>
  </way>
  <way id="29303633" version="2" timestamp="2009-01-01T14:12:27Z" uid="6975" user="ulfl" changeset="699648">
    <nd ref="322298307"/>
    <nd ref="322298309"/>
    <nd ref="322298310"/>
    <nd ref="322298312"/>
    <nd ref="322298313"/>
    <nd ref="322298315"/>
    <nd ref="322298307"/>
    <tag k="addr:postcode" v="3106"/>
    <tag k="area" v="yes"/>
    <tag k="fixme" v="check import"/>
    <tag k="is_in" v="...,Bezirk St. Pölten,Niederösterreich,Österreich,Europa"/>
    <tag k="leisure" v="nature_reserve"/>
    <tag k="name" v="Sportplatz"/>
    <tag k="natural" v="plan.at:p_:reserve"/>
    <tag k="note" v="imported from plan.at; (C)=CC-by-sa or oDBL; feel free to change if necessary"/>
    <tag k="plan_at:acad_id" v="p_2F8E"/>
    <tag k="source" v="plan.at 2008"/>
    <tag k="uploaded_by" v="Wolfgang W. Wasserburger"/>
  </way>
  <way id="29303721" version="2" timestamp="2009-01-01T14:12:33Z" uid="6975" user="ulfl" changeset="699648">
    <nd ref="322302208"/>
    <nd ref="322302211"/>
    <nd ref="322302213"/>
    <nd ref="322302216"/>
    <nd ref="322302208"/>
    <tag k="addr:postcode" v="8530"/>
    <tag k="area" v="yes"/>
    <tag k="fixme" v="check import"/>
    <tag k="is_in" v="...,Bezirk Deutschlandsberg,Steiermark,Österreich,Europa"/>
    <tag k="leisure" v="nature_reserve"/>
    <tag k="name" v="Tennisplatz"/>
    <tag k="natural" v="plan.at:dl:reserve"/>
    <tag k="note" v="imported from plan.at; (C)=CC-by-sa or oDBL; feel free to change if necessary"/>
    <tag k="plan_at:acad_id" v="dlF6B"/>
    <tag k="source" v="plan.at 2008"/>
    <tag k="uploaded_by" v="Wolfgang W. Wasserburger"/>
  </way>
  <way id="29303736" version="2" timestamp="2009-01-01T14:12:32Z" uid="6975" user="ulfl" changeset="699648">
    <nd ref="322302407"/>
    <nd ref="322302410"/>
    <nd ref="322302412"/>
    <nd ref="322302414"/>
    <nd ref="322302407"/>
    <tag k="addr:postcode" v="8530"/>
    <tag k="area" v="yes"/>
    <tag k="fixme" v="check import"/>
    <tag k="is_in" v="...,Bezirk Deutschlandsberg,Steiermark,Österreich,Europa"/>
    <tag k="leisure" v="nature_reserve"/>
    <tag k="name" v="Fußballplatz"/>
    <tag k="natural" v="plan.at:dl:reserve"/>
    <tag k="note" v="imported from plan.at; (C)=CC-by-sa or oDBL; feel free to change if necessary"/>
    <tag k="plan_at:acad_id" v="dlF43"/>
    <tag k="source" v="plan.at 2008"/>
    <tag k="uploaded_by" v="Wolfgang W. Wasserburger"/>
  </way>
  <way id="29303789" version="2" timestamp="2009-01-01T14:12:35Z" uid="6975" user="ulfl" changeset="699648">
    <nd ref="322303491"/>
    <nd ref="322303493"/>
    <nd ref="322303496"/>
    <nd ref="322303498"/>
    <nd ref="322303491"/>
    <tag k="addr:postcode" v="8530"/>
    <tag k="area" v="yes"/>
    <tag k="fixme" v="check import"/>
    <tag k="is_in" v="...,Bezirk Deutschlandsberg,Steiermark,Österreich,Europa"/>
    <tag k="leisure" v="nature_reserve"/>
    <tag k="name" v="Tennisplatz"/>
    <tag k="natural" v="plan.at:dl:reserve"/>
    <tag k="note" v="imported from plan.at; (C)=CC-by-sa or oDBL; feel free to change if necessary"/>
    <tag k="plan_at:acad_id" v="dlE86"/>
    <tag k="source" v="plan.at 2008"/>
    <tag k="uploaded_by" v="Wolfgang W. Wasserburger"/>
  </way>
  <way id="29303972" version="6" timestamp="2009-01-01T12:24:08Z" uid="6975" user="ulfl" changeset="699648">
    <nd ref="322306643"/>
    <nd ref="322306691"/>
    <nd ref="322664751"/>
    <nd ref="322664752"/>
    <tag k="highway" v="residential"/>
    <tag k="name" v="Cap. Alfonso Tunon"/>
  </way>
  <way id="29303974" version="4" timestamp="2009-01-01T12:24:03Z" uid="6975" user="ulfl" changeset="699648">
    <nd ref="322306724"/>
    <nd ref="322306777"/>
    <tag k="highway" v="residential"/>
    <tag k="name" v="Dr. Fleming"/>
  </way>
  <way id="29303976" version="4" timestamp="2009-01-01T12:24:12Z" uid="6975" user="ulfl" changeset="699648">
    <nd ref="322306810"/>
    <nd ref="322306830"/>
    <tag k="highway" v="residential"/>
    <tag k="name" v="Gomez De La Fuente"/>
  </way>
  <way id="29303979" version="4" timestamp="2009-01-01T12:24:09Z" uid="6975" user="ulfl" changeset="699648">
    <nd ref="322306858"/>
    <nd ref="322306900"/>
    <tag k="highway" v="residential"/>
    <tag k="name" v="Rio Apa"/>
  </way>
  <way id="29303983" version="3" timestamp="2009-01-01T12:24:13Z" uid="6975" user="ulfl" changeset="699648">
    <nd ref="322307221"/>
    <nd ref="322306936"/>
    <nd ref="322306975"/>
    <tag k="highway" v="residential"/>
    <tag k="name" v="Mercelino Ayala"/>
  </way>
  <way id="29303986" version="5" timestamp="2009-01-01T12:24:15Z" uid="6975" user="ulfl" changeset="699648">
    <nd ref="322307012"/>
    <nd ref="322307049"/>
    <tag k="highway" v="residential"/>
    <tag k="name" v="Mby Ya Co&apos;e"/>
  </way>
  <way id="29303988" version="3" timestamp="2009-01-01T12:24:17Z" uid="6975" user="ulfl" changeset="699648">
    <nd ref="322307076"/>
    <nd ref="322307107"/>
    <tag k="highway" v="residential"/>
    <tag k="name" v="Rio Aquidavan"/>
  </way>
  <way id="29303989" version="2" timestamp="2009-01-01T12:24:17Z" uid="6975" user="ulfl" changeset="699648">
    <nd ref="322307137"/>
    <nd ref="322307167"/>
    <tag k="highway" v="residential"/>
    <tag k="name" v="Coronel M. Villasboa"/>
  </way>
  <way id="29303993" version="2" timestamp="2009-01-01T12:24:20Z" uid="6975" user="ulfl" changeset="699648">
    <nd ref="322307259"/>
    <nd ref="322307297"/>
    <tag k="highway" v="residential"/>
    <tag k="name" v="Rio Ypane"/>
  </way>
  <way id="29303998" version="3" timestamp="2009-01-01T12:24:22Z" uid="6975" user="ulfl" changeset="699648">
    <nd ref="322307332"/>
    <nd ref="322307364"/>
    <tag k="highway" v="residential"/>
    <tag k="name" v="Pablo Neruda"/>
  </way>
</osm>
