<?xml version='1.0' encoding='UTF-8'?>
<osm version="0.6" generator="libosmium/2.20.0">
  <way id="29388040" version="1" timestamp="2008-12-30T21:23:18Z" uid="33382" user="de_muur" changeset="675152">
    <nd ref="323233973"/>
    <nd ref="323233975"/>
    <nd ref="323233976"/>
    <nd ref="323233978"/>
    <nd ref="323233979"/>
    <nd ref="323233981"/>
    <nd ref="323233982"/>
    <nd ref="323233983"/>
    <nd ref="323233984"/>
    <nd ref="323233985"/>
    <nd ref="323233986"/>
    <nd ref="323233973"/>
    <tag k="created_by" v="JOSM"/>
    <tag k="landuse" v="forest"/>
  </way>
  <way id="29388041" version="1" timestamp="2008-12-30T21:23:19Z" uid="33382" user="de_muur" changeset="675152">
    <nd ref="323233987"/>
    <nd ref="323233988"/>
    <nd ref="323233968"/>
    <nd ref="322092626"/>
    <nd ref="322092627"/>
    <nd ref="322092628"/>
    <nd ref="322092629"/>
    <nd ref="323233990"/>
    <nd ref="322092630"/>
    <nd ref="322092624"/>
    <nd ref="322092652"/>
    <nd ref="322092594"/>
    <nd ref="322092591"/>
    <nd ref="323233987"/>
    <tag k="created_by" v="JOSM"/>
    <tag k="natural" v="scrub"/>
  </way>
  <way id="29388069" version="1" timestamp="2008-12-30T21:25:01Z" uid="7617" user="Franc" changeset="673189">
    <nd ref="323234282"/>
    <nd ref="323234286"/>
    <nd ref="323234290"/>
    <nd ref="323234294"/>
    <nd ref="323234311"/>
    <tag k="highway" v="residential"/>
    <tag k="source" v="yahoo"/>
  </way>
  <way id="29388083" version="1" timestamp="2008-12-30T21:25:36Z" uid="20587" user="balrog-kun" changeset="674468">
    <nd ref="323234335"/>
    <nd ref="323234338"/>
    <nd ref="323234346"/>
    <nd ref="323234354"/>
    <nd ref="323234368"/>
    <nd ref="323234366"/>
    <nd ref="323234357"/>
    <nd ref="323234360"/>
    <nd ref="323234370"/>
    <nd ref="323234376"/>
    <nd ref="323234374"/>
    <nd ref="323234372"/>
    <nd ref="323234358"/>
    <nd ref="323234355"/>
    <nd ref="323234364"/>
    <nd ref="323234362"/>
    <nd ref="323234351"/>
    <nd ref="323234341"/>
    <nd ref="323234335"/>
    <tag k="addr:housenumber" v="3/5"/>
    <tag k="addr:postcode" v="00-950"/>
    <tag k="addr:street" v="Plac Bankowy"/>
    <tag k="building" v="yes"/>
    <tag k="name" v="Mazowiecki Urząd Wojewódzki"/>
  </way>
  <way id="29388083" version="2" timestamp="2009-01-05T21:56:46Z" uid="20587" user="balrog-kun" changeset="739335">
    <nd ref="323234335"/>
    <nd ref="323234338"/>
    <nd ref="327614448"/>
    <nd ref="327614457"/>
    <nd ref="323234346"/>
    <nd ref="323234354"/>
    <nd ref="323234368"/>
    <nd ref="323234366"/>
    <nd ref="323234357"/>
    <nd ref="323234360"/>
    <nd ref="323234370"/>
    <nd ref="323234376"/>
    <nd ref="323234374"/>
    <nd ref="323234372"/>
    <nd ref="323234358"/>
    <nd ref="323234355"/>
    <nd ref="323234364"/>
    <nd ref="323234362"/>
    <nd ref="323234351"/>
    <nd ref="323234341"/>
    <nd ref="323234335"/>
    <tag k="addr:housenumber" v="3/5"/>
    <tag k="addr:postcode" v="00-950"/>
    <tag k="addr:street" v="Plac Bankowy"/>
    <tag k="building" v="yes"/>
    <tag k="name" v="Mazowiecki Urząd Wojewódzki"/>
  </way>
  <way id="29388084" version="1" timestamp="2008-12-30T21:25:36Z" uid="20587" user="balrog-kun" changeset="674468">
    <nd ref="323234380"/>
    <nd ref="323234383"/>
    <nd ref="323234392"/>
    <nd ref="323234386"/>
    <nd ref="323234385"/>
    <nd ref="323234380"/>
    <tag k="amenity" v="parking"/>
  </way>
  <way id="29388085" version="1" timestamp="2008-12-30T21:25:37Z" uid="20587" user="balrog-kun" changeset="674468">
    <nd ref="323234388"/>
    <nd ref="323234390"/>
    <nd ref="323234392"/>
    <tag k="highway" v="service"/>
    <tag k="name" v="Nowolipie"/>
  </way>
  <way id="29388085" version="2" timestamp="2009-02-12T00:56:57Z" uid="20587" user="balrog-kun" changeset="365293">
    <nd ref="323234388"/>
    <nd ref="323234390"/>
    <nd ref="323234392"/>
    <tag k="highway" v="service"/>
    <tag k="name" v="Nowolipie"/>
    <tag k="wikipedia" v="pl:Ulica Nowolipie w Warszawie"/>
  </way>
  <way id="29388086" version="1" timestamp="2008-12-30T21:25:37Z" uid="20587" user="balrog-kun" changeset="674468">
    <nd ref="323234397"/>
    <nd ref="323234400"/>
    <nd ref="323234402"/>
    <nd ref="323234405"/>
    <nd ref="323234397"/>
    <tag k="amenity" v="parking"/>
  </way>
  <way id="29388087" version="1" timestamp="2008-12-30T21:25:38Z" uid="20587" user="balrog-kun" changeset="674468">
    <nd ref="323234409"/>
    <nd ref="323234413"/>
    <nd ref="323234415"/>
    <nd ref="323234411"/>
    <nd ref="323234409"/>
    <tag k="addr:housenumber" v="76a"/>
    <tag k="addr:postcode" v="00-145"/>
    <tag k="addr:street" v="Aleja Solidarności"/>
    <tag k="building" v="yes"/>
  </way>
  <way id="29388088" version="1" timestamp="2008-12-30T21:25:38Z" uid="20587" user="balrog-kun" changeset="674468">
    <nd ref="323234417"/>
    <nd ref="323234421"/>
    <nd ref="323234423"/>
    <nd ref="323234419"/>
    <nd ref="323234417"/>
    <tag k="addr:housenumber" v="74a"/>
    <tag k="addr:street" v="Aleja Solidarności"/>
    <tag k="building" v="yes"/>
    <tag k="name" v="Pałac Działyńskich"/>
  </way>
  <way id="29388088" version="2" timestamp="2009-01-06T13:07:02Z" uid="20587" user="balrog-kun" changeset="745301">
    <nd ref="323234417"/>
    <nd ref="323234421"/>
    <nd ref="323234423"/>
    <nd ref="323234419"/>
    <nd ref="323234417"/>
    <tag k="addr:housenumber" v="74a"/>
    <tag k="addr:street" v="Aleja Solidarności"/>
    <tag k="building" v="yes"/>
    <tag k="name" v="Pałac Działyńskich"/>
    <tag k="wikipedia:pl" v="Pałac Działyńskich w Warszawie"/>
  </way>
  <way id="29388090" version="1" timestamp="2008-12-30T21:25:38Z" uid="20587" user="balrog-kun" changeset="674468">
    <nd ref="323234426"/>
    <nd ref="253964940"/>
    <nd ref="323234428"/>
    <tag k="highway" v="service"/>
  </way>
  <way id="29388092" version="1" timestamp="2008-12-30T21:25:38Z" uid="20587" user="balrog-kun" changeset="674468">
    <nd ref="323234432"/>
    <nd ref="323234434"/>
    <nd ref="323234436"/>
    <nd ref="323234437"/>
    <tag k="highway" v="service"/>
  </way>
  <way id="29388093" version="1" timestamp="2008-12-30T21:25:39Z" uid="20587" user="balrog-kun" changeset="674468">
    <nd ref="323234440"/>
    <nd ref="323234437"/>
    <nd ref="280013762"/>
    <tag k="highway" v="service"/>
  </way>
  <way id="29388095" version="1" timestamp="2008-12-30T21:25:40Z" uid="20587" user="balrog-kun" changeset="674468">
    <nd ref="323234450"/>
    <nd ref="323234487"/>
    <nd ref="323234489"/>
    <nd ref="323234491"/>
    <nd ref="323234493"/>
    <nd ref="323234456"/>
    <nd ref="323234461"/>
    <nd ref="323234470"/>
    <nd ref="323234479"/>
    <nd ref="323234482"/>
    <nd ref="323234483"/>
    <nd ref="323234485"/>
    <nd ref="323234450"/>
    <tag k="leisure" v="common"/>
  </way>
  <way id="29388095" version="2" timestamp="2009-05-24T15:58:29Z" uid="20587" user="balrog-kun" changeset="1307609">
    <nd ref="323234450"/>
    <nd ref="323234487"/>
    <nd ref="323234489"/>
    <nd ref="323234491"/>
    <nd ref="323234493"/>
    <nd ref="323234456"/>
    <nd ref="323234461"/>
    <nd ref="323234470"/>
    <nd ref="323234479"/>
    <nd ref="323234482"/>
    <nd ref="323234483"/>
    <nd ref="323234485"/>
    <nd ref="323234450"/>
    <tag k="leisure" v="common"/>
    <tag k="name" v="Skwer Batalionu Harcerskiego AK Wigry"/>
  </way>
  <way id="29388096" version="1" timestamp="2008-12-30T21:25:41Z" uid="20587" user="balrog-kun" changeset="674468">
    <nd ref="323234501"/>
    <nd ref="323234507"/>
    <nd ref="323234515"/>
    <nd ref="323234554"/>
    <nd ref="323234552"/>
    <nd ref="323234533"/>
    <nd ref="323234538"/>
    <nd ref="323234542"/>
    <nd ref="323234544"/>
    <nd ref="323234556"/>
    <nd ref="323234559"/>
    <nd ref="323234548"/>
    <nd ref="323234552"/>
    <nd ref="323234554"/>
    <nd ref="323234550"/>
    <nd ref="323234546"/>
    <nd ref="323234526"/>
    <nd ref="323234520"/>
    <nd ref="323234511"/>
    <nd ref="323234502"/>
    <nd ref="323234505"/>
    <nd ref="323234503"/>
    <nd ref="323234501"/>
    <tag k="addr:housenumber" v="52"/>
    <tag k="addr:postcode" v="00-241"/>
    <tag k="addr:street" v="Długa"/>
    <tag k="building" v="yes"/>
  </way>
  <way id="29388096" version="2" timestamp="2009-01-04T13:46:09Z" uid="20587" user="balrog-kun" changeset="728731">
    <nd ref="323234554"/>
    <nd ref="323234550"/>
    <nd ref="323234546"/>
    <nd ref="323234526"/>
    <nd ref="323234520"/>
    <nd ref="323234511"/>
    <nd ref="323234502"/>
    <nd ref="323234505"/>
    <nd ref="323234503"/>
    <nd ref="323234501"/>
    <nd ref="323234507"/>
    <nd ref="323234515"/>
    <nd ref="323234554"/>
    <tag k="addr:housenumber" v="52"/>
    <tag k="addr:postcode" v="00-241"/>
    <tag k="addr:street" v="Długa"/>
    <tag k="building" v="yes"/>
  </way>
  <way id="29388096" version="3" timestamp="2009-05-14T13:07:02Z" uid="20587" user="balrog-kun" changeset="1187910">
    <nd ref="323234554"/>
    <nd ref="323234550"/>
    <nd ref="323234546"/>
    <nd ref="323234526"/>
    <nd ref="323234520"/>
    <nd ref="323234511"/>
    <nd ref="323234502"/>
    <nd ref="323234505"/>
    <nd ref="323234503"/>
    <nd ref="323234501"/>
    <nd ref="323234507"/>
    <nd ref="323234515"/>
    <nd ref="323234554"/>
    <tag k="addr:housenumber" v="52"/>
    <tag k="addr:postcode" v="00-241"/>
    <tag k="addr:street" v="Długa"/>
    <tag k="building" v="yes"/>
    <tag k="old_name" v="Arsenał"/>
  </way>
  <way id="29388097" version="1" timestamp="2008-12-30T21:25:41Z" uid="20587" user="balrog-kun" changeset="674468">
    <nd ref="323234561"/>
    <nd ref="323234563"/>
    <nd ref="323234567"/>
    <nd ref="323234565"/>
    <nd ref="323234561"/>
    <tag k="leisure" v="pitch"/>
  </way>
  <way id="29388098" version="1" timestamp="2008-12-30T21:25:42Z" uid="20587" user="balrog-kun" changeset="674468">
    <nd ref="323234569"/>
    <nd ref="323234573"/>
    <nd ref="323234579"/>
    <nd ref="323234581"/>
    <nd ref="323234587"/>
    <nd ref="323234589"/>
    <nd ref="323234591"/>
    <nd ref="323234585"/>
    <nd ref="323234583"/>
    <nd ref="323234577"/>
    <nd ref="323234575"/>
    <nd ref="323234571"/>
    <nd ref="323234596"/>
    <nd ref="323234595"/>
    <nd ref="323234569"/>
    <tag k="addr:housenumber" v="2"/>
    <tag k="addr:street" v="Nowolipie"/>
    <tag k="building" v="yes"/>
    <tag k="name" v="Pałac Mostowskich"/>
    <tag k="old_addr:housenumber" v="15"/>
    <tag k="old_addr:street" v="Przejazd"/>
  </way>
  <way id="29388098" version="2" timestamp="2009-01-06T13:07:01Z" uid="20587" user="balrog-kun" changeset="745301">
    <nd ref="323234569"/>
    <nd ref="323234573"/>
    <nd ref="323234579"/>
    <nd ref="323234581"/>
    <nd ref="323234587"/>
    <nd ref="323234589"/>
    <nd ref="323234591"/>
    <nd ref="323234585"/>
    <nd ref="323234583"/>
    <nd ref="323234577"/>
    <nd ref="323234575"/>
    <nd ref="323234571"/>
    <nd ref="323234596"/>
    <nd ref="323234595"/>
    <nd ref="323234569"/>
    <tag k="addr:housenumber" v="2"/>
    <tag k="addr:street" v="Nowolipie"/>
    <tag k="building" v="yes"/>
    <tag k="name" v="Pałac Mostowskich"/>
    <tag k="old_addr:housenumber" v="15"/>
    <tag k="old_addr:street" v="Przejazd"/>
    <tag k="wikipedia:pl" v="Pałac Mostowskich"/>
  </way>
  <way id="29388099" version="1" timestamp="2008-12-30T21:25:42Z" uid="20587" user="balrog-kun" changeset="674468">
    <nd ref="323234392"/>
    <nd ref="323234386"/>
    <nd ref="323234394"/>
    <tag k="highway" v="service"/>
  </way>
  <way id="29388100" version="1" timestamp="2008-12-30T21:25:42Z" uid="20587" user="balrog-kun" changeset="674468">
    <nd ref="323234604"/>
    <nd ref="323234606"/>
    <nd ref="323234610"/>
    <nd ref="323234608"/>
    <nd ref="323234604"/>
    <tag k="addr:housenumber" v="76b"/>
    <tag k="addr:postcode" v="00-145"/>
    <tag k="addr:street" v="Aleja Solidarności"/>
    <tag k="building" v="yes"/>
    <tag k="name" v="Opera Kameralna"/>
  </way>
  <way id="29388101" version="1" timestamp="2008-12-30T21:25:43Z" uid="20587" user="balrog-kun" changeset="674468">
    <nd ref="323234614"/>
    <nd ref="323234625"/>
    <nd ref="323234627"/>
    <nd ref="323234617"/>
    <nd ref="323234621"/>
    <nd ref="323234623"/>
    <nd ref="323234619"/>
    <nd ref="323234616"/>
    <nd ref="323234614"/>
    <tag k="addr:housenumber" v="80"/>
    <tag k="addr:street" v="Aleja Solidarności"/>
    <tag k="building" v="yes"/>
    <tag k="old_addr:housenumber" v="32"/>
    <tag k="old_addr:street" v="Leszno"/>
    <tag k="source:name" v="wikipedia"/>
  </way>
  <way id="29388101" version="2" timestamp="2009-01-06T11:15:40Z" uid="20587" user="balrog-kun" changeset="743955">
    <nd ref="323234614"/>
    <nd ref="323234625"/>
    <nd ref="323234627"/>
    <nd ref="323234617"/>
    <nd ref="323234621"/>
    <nd ref="323234623"/>
    <nd ref="323234619"/>
    <nd ref="323234616"/>
    <nd ref="323234614"/>
    <tag k="addr:housenumber" v="80"/>
    <tag k="addr:street" v="Aleja Solidarności"/>
    <tag k="building" v="yes"/>
    <tag k="old_addr:housenumber" v="32"/>
    <tag k="old_addr:street" v="Leszno"/>
    <tag k="wikipedia:pl" v="Kościół Narodzenia NMP w Warszawie"/>
  </way>
  <way id="29388101" version="3" timestamp="2009-01-09T08:38:35Z" uid="20587" user="balrog-kun" changeset="762615">
    <nd ref="323234614"/>
    <nd ref="323234625"/>
    <nd ref="323234627"/>
    <nd ref="323234617"/>
    <nd ref="323234621"/>
    <nd ref="323234623"/>
    <nd ref="323234619"/>
    <nd ref="323234616"/>
    <nd ref="323234614"/>
    <tag k="addr:housenumber" v="80"/>
    <tag k="addr:street" v="Aleja Solidarności"/>
    <tag k="building" v="yes"/>
    <tag k="old_addr:housenumber" v="32"/>
    <tag k="old_addr:street" v="Leszno"/>
    <tag k="wikipedia" v="pl:Kościół Narodzenia NMP w Warszawie"/>
  </way>
  <way id="29388101" version="5" timestamp="2011-05-11T11:15:56Z" uid="20587" user="balrog-kun" changeset="8111137">
    <nd ref="323234614"/>
    <nd ref="323234625"/>
    <nd ref="323234627"/>
    <nd ref="323234617"/>
    <nd ref="323234621"/>
    <nd ref="323234623"/>
    <nd ref="323234619"/>
    <nd ref="323234616"/>
    <nd ref="1169386165"/>
    <nd ref="1169386068"/>
    <nd ref="1169386082"/>
    <nd ref="1169386107"/>
    <nd ref="323234614"/>
    <tag k="addr:housenumber" v="80"/>
    <tag k="addr:street" v="Aleja Solidarności"/>
    <tag k="amenity" v="place_of_worship"/>
    <tag k="building" v="yes"/>
    <tag k="denomination" v="catholic"/>
    <tag k="loc_name" v="Kościół Przesuwany"/>
    <tag k="name" v="Kościół pod wezwaniem Narodzenia Najświętszej Panny Marii"/>
    <tag k="old_addr:housenumber" v="32"/>
    <tag k="old_addr:street" v="Leszno"/>
    <tag k="religion" v="christian"/>
    <tag k="wikipedia" v="pl:Kościół Narodzenia NMP w Warszawie"/>
  </way>
  <way id="29388102" version="1" timestamp="2008-12-30T21:25:43Z" uid="20587" user="balrog-kun" changeset="674468">
    <nd ref="251851936"/>
    <nd ref="323234629"/>
    <nd ref="323234631"/>
    <nd ref="323234633"/>
    <nd ref="323234656"/>
    <nd ref="323234635"/>
    <tag k="highway" v="service"/>
    <tag k="oneway" v="yes"/>
  </way>
  <way id="29388103" version="1" timestamp="2008-12-30T21:25:43Z" uid="20587" user="balrog-kun" changeset="674468">
    <nd ref="323234637"/>
    <nd ref="323234639"/>
    <nd ref="323234643"/>
    <nd ref="323234641"/>
    <nd ref="323234637"/>
    <tag k="addr:housenumber" v="38"/>
    <tag k="addr:postcode" v="00-095"/>
    <tag k="addr:street" v="Senatorska"/>
    <tag k="building" v="yes"/>
    <tag k="name" v="Instytut Francuski"/>
    <tag k="name:fr" v="Institut Français de Varsovie"/>
  </way>
  <way id="29388104" version="1" timestamp="2008-12-30T21:25:43Z" uid="20587" user="balrog-kun" changeset="674468">
    <nd ref="323234645"/>
    <nd ref="323234646"/>
    <nd ref="323234653"/>
    <nd ref="323234650"/>
    <nd ref="323234645"/>
    <tag k="addr:housenumber" v="34"/>
    <tag k="addr:postcode" v="00-095"/>
    <tag k="addr:street" v="Senatorska"/>
    <tag k="amenity" v="embassy"/>
    <tag k="building" v="yes"/>
    <tag k="name" v="Ambasada Belgii"/>
    <tag k="name:en" v="Embassy of Belgium"/>
    <tag k="name:es" v="Embajada de Belgica"/>
    <tag k="name:fr" v="L&apos;Ambassade de Belgique"/>
    <tag k="name:nl" v="Ambassade van België"/>
  </way>
  <way id="29388104" version="2" timestamp="2009-01-11T01:05:16Z" uid="20587" user="balrog-kun" changeset="769936">
    <nd ref="323234645"/>
    <nd ref="323234646"/>
    <nd ref="323234653"/>
    <nd ref="323234650"/>
    <nd ref="323234645"/>
    <tag k="addr:housenumber" v="34"/>
    <tag k="addr:postcode" v="00-095"/>
    <tag k="addr:street" v="Senatorska"/>
    <tag k="amenity" v="embassy"/>
    <tag k="building" v="yes"/>
    <tag k="name" v="Ambasada Belgii"/>
    <tag k="name:en" v="Embassy of Belgium"/>
    <tag k="name:es" v="Embajada de Belgica"/>
    <tag k="name:fr" v="L&apos;Ambassade de Belgique"/>
    <tag k="name:nl" v="Ambassade van België"/>
    <tag k="wikipedia" v="pl:Pałac Mniszchów w Warszawie"/>
  </way>
  <way id="29388105" version="1" timestamp="2008-12-30T21:25:44Z" uid="20587" user="balrog-kun" changeset="674468">
    <nd ref="323234633"/>
    <nd ref="323234656"/>
    <nd ref="323234629"/>
    <nd ref="323234631"/>
    <nd ref="323234633"/>
    <tag k="leisure" v="garden"/>
  </way>
  <way id="29388106" version="1" timestamp="2008-12-30T21:25:44Z" uid="20587" user="balrog-kun" changeset="674468">
    <nd ref="323234701"/>
    <nd ref="323234704"/>
    <nd ref="323234710"/>
    <nd ref="323234707"/>
    <nd ref="323234701"/>
    <tag k="leisure" v="pitch"/>
  </way>
  <way id="29388110" version="2" timestamp="2009-01-03T17:30:21Z" uid="6975" user="ulfl" changeset="722303">
    <nd ref="299164751"/>
    <nd ref="323234880"/>
    <nd ref="323234881"/>
    <nd ref="323234884"/>
    <nd ref="323234885"/>
    <nd ref="323234886"/>
    <tag k="highway" v="track"/>
    <tag k="tracktype" v="grade3"/>
  </way>
  <way id="29388156" version="1" timestamp="2008-12-30T21:26:47Z" uid="33382" user="de_muur" changeset="675152">
    <nd ref="323235038"/>
    <nd ref="323235041"/>
    <nd ref="323235044"/>
    <nd ref="323235046"/>
    <nd ref="323235048"/>
    <nd ref="323235038"/>
    <tag k="created_by" v="JOSM"/>
    <tag k="landuse" v="forest"/>
  </way>
  <way id="29388157" version="1" timestamp="2008-12-30T21:26:48Z" uid="33382" user="de_muur" changeset="675152">
    <nd ref="323235049"/>
    <nd ref="323235050"/>
    <nd ref="323235051"/>
    <nd ref="323235124"/>
    <nd ref="323235126"/>
    <nd ref="323235127"/>
    <nd ref="323235129"/>
    <nd ref="323235049"/>
    <tag k="created_by" v="JOSM"/>
    <tag k="landuse" v="forest"/>
  </way>
  <way id="29388286" version="2" timestamp="2009-10-20T22:42:04Z" uid="20587" user="balrog-kun" changeset="2908055">
    <nd ref="323236234"/>
    <nd ref="323235998"/>
    <nd ref="323236016"/>
    <nd ref="323236040"/>
    <nd ref="323236062"/>
    <nd ref="323236084"/>
    <nd ref="323236104"/>
    <nd ref="323232843"/>
    <nd ref="323236117"/>
    <nd ref="323236135"/>
    <tag k="highway" v="road"/>
  </way>
  <way id="29388362" version="1" timestamp="2008-12-30T21:33:25Z" uid="33382" user="de_muur" changeset="675152">
    <nd ref="323237142"/>
    <nd ref="323237144"/>
    <nd ref="323237146"/>
    <nd ref="323237148"/>
    <nd ref="323237151"/>
    <nd ref="323237152"/>
    <nd ref="323237153"/>
    <nd ref="323237154"/>
    <nd ref="323237142"/>
    <tag k="created_by" v="JOSM"/>
    <tag k="landuse" v="forest"/>
  </way>
  <way id="29388363" version="1" timestamp="2008-12-30T21:33:25Z" uid="33382" user="de_muur" changeset="675152">
    <nd ref="323237155"/>
    <nd ref="323237156"/>
    <nd ref="323237158"/>
    <nd ref="323237159"/>
    <nd ref="323237161"/>
    <nd ref="323237162"/>
    <nd ref="323237163"/>
    <nd ref="323237164"/>
    <nd ref="323237155"/>
    <tag k="created_by" v="JOSM"/>
    <tag k="landuse" v="forest"/>
  </way>
  <way id="29388457" version="1" timestamp="2008-12-30T21:35:13Z" uid="7617" user="Franc" changeset="673189">
    <nd ref="323237454"/>
    <nd ref="323237456"/>
    <nd ref="323237457"/>
    <nd ref="323237458"/>
    <nd ref="323237459"/>
    <nd ref="323237461"/>
    <nd ref="323237464"/>
    <tag k="highway" v="unclassified"/>
    <tag k="source" v="yahoo"/>
  </way>
  <way id="29388457" version="2" timestamp="2011-06-13T11:14:12Z" uid="30201" user="rrankin" changeset="8424707">
    <nd ref="323237454"/>
    <nd ref="323237456"/>
    <nd ref="323237457"/>
    <nd ref="323237458"/>
    <nd ref="323237459"/>
    <nd ref="323237461"/>
    <nd ref="323237464"/>
    <tag k="highway" v="unclassified"/>
    <tag k="name" v="Heron Close"/>
    <tag k="name:source" v="survey"/>
    <tag k="source" v="yahoo"/>
  </way>
  <way id="29388514" version="2" timestamp="2009-01-01T14:34:19Z" uid="6975" user="ulfl" changeset="699648">
    <nd ref="323237798"/>
    <nd ref="323237802"/>
    <nd ref="323237806"/>
    <nd ref="323237811"/>
    <nd ref="323237815"/>
    <tag k="highway" v="path"/>
    <tag k="surface" v="grass"/>
  </way>
  <way id="29388564" version="1" timestamp="2008-12-30T21:41:28Z" uid="43863" user="Rundling" changeset="675772">
    <nd ref="309292568"/>
    <nd ref="309292569"/>
    <tag k="bridge" v="yes"/>
    <tag k="created_by" v="Potlatch 0.10f"/>
    <tag k="highway" v="track"/>
    <tag k="layer" v="1"/>
  </way>
  <way id="29388564" version="2" timestamp="2008-12-31T17:21:08Z" uid="43863" user="Rundling" changeset="691045">
    <nd ref="309292568"/>
    <nd ref="309292569"/>
    <tag k="bridge" v="yes"/>
    <tag k="created_by" v="Potlatch 0.10f"/>
    <tag k="highway" v="tertiary"/>
    <tag k="layer" v="1"/>
  </way>
  <way id="29388566" version="1" timestamp="2008-12-30T21:41:28Z" uid="43863" user="Rundling" changeset="675772">
    <nd ref="309292569"/>
    <nd ref="309292570"/>
    <nd ref="309292571"/>
    <nd ref="309292572"/>
    <nd ref="309292573"/>
    <nd ref="309292574"/>
    <nd ref="309292575"/>
    <nd ref="309292576"/>
    <nd ref="309292577"/>
    <nd ref="309292578"/>
    <nd ref="309292579"/>
    <nd ref="309292580"/>
    <nd ref="309292581"/>
    <tag k="created_by" v="Potlatch 0.10f"/>
    <tag k="highway" v="track"/>
  </way>
  <way id="29388566" version="2" timestamp="2008-12-31T17:21:08Z" uid="43863" user="Rundling" changeset="691045">
    <nd ref="309292569"/>
    <nd ref="309292570"/>
    <nd ref="309292571"/>
    <nd ref="309292573"/>
    <nd ref="309292575"/>
    <nd ref="309292576"/>
    <nd ref="309292578"/>
    <nd ref="309292579"/>
    <nd ref="324017385"/>
    <nd ref="309292582"/>
    <tag k="created_by" v="Potlatch 0.10f"/>
    <tag k="highway" v="tertiary"/>
    <tag k="ref" v="K1"/>
  </way>
  <way id="29388566" version="3" timestamp="2009-03-08T07:56:00Z" uid="43863" user="Rundling" changeset="754864">
    <nd ref="309292569"/>
    <nd ref="309292570"/>
    <nd ref="309292571"/>
    <nd ref="309292573"/>
    <nd ref="357080398"/>
    <nd ref="309292575"/>
    <nd ref="309292576"/>
    <nd ref="309292578"/>
    <nd ref="309292579"/>
    <nd ref="324017385"/>
    <nd ref="309292582"/>
    <tag k="created_by" v="Potlatch 0.10f"/>
    <tag k="highway" v="tertiary"/>
    <tag k="ref" v="K1"/>
  </way>
  <way id="29388566" version="5" timestamp="2009-10-16T14:54:28Z" uid="43863" user="Rundling" changeset="2865547">
    <nd ref="309292569"/>
    <nd ref="309292570"/>
    <nd ref="309292571"/>
    <nd ref="309292573"/>
    <nd ref="357080398"/>
    <nd ref="309292575"/>
    <nd ref="309292576"/>
    <nd ref="309292578"/>
    <nd ref="309292579"/>
    <nd ref="309292582"/>
    <tag k="highway" v="tertiary"/>
    <tag k="ref" v="K 1"/>
  </way>
  <way id="29388579" version="4" timestamp="2009-12-09T16:07:24Z" uid="200463" user="harmagedon" changeset="3334003">
    <nd ref="323238627"/>
    <nd ref="323238629"/>
    <nd ref="323238630"/>
    <nd ref="323238631"/>
    <nd ref="323238633"/>
    <nd ref="323238634"/>
    <nd ref="323238635"/>
    <nd ref="323238637"/>
    <nd ref="323238638"/>
    <nd ref="323238639"/>
    <nd ref="323238640"/>
    <nd ref="323238642"/>
    <nd ref="323238643"/>
    <nd ref="323238644"/>
    <nd ref="323238646"/>
    <nd ref="323238649"/>
    <nd ref="323238655"/>
    <nd ref="323238657"/>
    <nd ref="323238659"/>
    <nd ref="323238660"/>
    <nd ref="323238661"/>
    <nd ref="323238663"/>
    <nd ref="323238664"/>
    <nd ref="323238665"/>
    <tag k="highway" v="track"/>
    <tag k="source" v="DOP_LVA_BY_01"/>
  </way>
  <way id="29388641" version="2" timestamp="2009-01-01T13:54:25Z" uid="6975" user="ulfl" changeset="699648">
    <nd ref="323216804"/>
    <nd ref="323216803"/>
    <nd ref="323216802"/>
    <nd ref="323216801"/>
    <nd ref="323216800"/>
    <nd ref="323216799"/>
    <tag k="highway" v="ford"/>
    <tag k="surface" v="concrete"/>
  </way>
  <way id="29388698" version="2" timestamp="2009-01-01T13:02:45Z" uid="6975" user="ulfl" changeset="699648">
    <nd ref="323240871"/>
    <nd ref="323240867"/>
    <tag k="highway" v="secondary"/>
    <tag k="is_in" v="Cuernavaca"/>
    <tag k="lanes" v="2"/>
    <tag k="layer" v="0"/>
    <tag k="name" v="Degollado"/>
    <tag k="oneway" v="yes"/>
  </way>
  <way id="29388699" version="2" timestamp="2009-01-01T13:02:45Z" uid="6975" user="ulfl" changeset="699648">
    <nd ref="323240867"/>
    <nd ref="323240874"/>
    <tag k="highway" v="secondary"/>
    <tag k="is_in" v="Cuernavaca"/>
    <tag k="lanes" v="2"/>
    <tag k="layer" v="-1"/>
    <tag k="name" v="Degollado"/>
    <tag k="oneway" v="yes"/>
  </way>
  <way id="29388700" version="2" timestamp="2009-01-01T13:02:43Z" uid="6975" user="ulfl" changeset="699648">
    <nd ref="323240874"/>
    <nd ref="323240862"/>
    <tag k="highway" v="secondary"/>
    <tag k="is_in" v="Cuernavaca"/>
    <tag k="lanes" v="2"/>
    <tag k="layer" v="0"/>
    <tag k="name" v="Degollado"/>
    <tag k="oneway" v="yes"/>
  </way>
  <way id="29388775" version="1" timestamp="2008-12-30T21:50:41Z" uid="16922" user="amai" changeset="674203">
    <nd ref="323241916"/>
    <nd ref="323241917"/>
    <nd ref="323241918"/>
    <nd ref="280964301"/>
    <nd ref="323241919"/>
    <nd ref="323241920"/>
    <nd ref="323241921"/>
    <nd ref="323241922"/>
    <nd ref="323241923"/>
    <nd ref="323241924"/>
    <nd ref="323241925"/>
    <nd ref="323241926"/>
    <nd ref="323241927"/>
    <nd ref="323241928"/>
    <nd ref="323241929"/>
    <nd ref="323241930"/>
    <nd ref="323241931"/>
    <nd ref="323241916"/>
    <tag k="created_by" v="Potlatch 0.10f"/>
    <tag k="landuse" v="forest"/>
    <tag k="source" v="yahoo sat"/>
  </way>
  <way id="29388786" version="1" timestamp="2008-12-30T21:51:19Z" uid="16922" user="amai" changeset="674203">
    <nd ref="323241993"/>
    <nd ref="323241995"/>
    <nd ref="323241996"/>
    <nd ref="323241998"/>
    <nd ref="323241999"/>
    <nd ref="323241993"/>
    <tag k="created_by" v="Potlatch 0.10f"/>
    <tag k="landuse" v="forest"/>
    <tag k="source" v="yahoo sat"/>
  </way>
  <way id="29388803" version="1" timestamp="2008-12-30T21:51:50Z" uid="16922" user="amai" changeset="674203">
    <nd ref="323242183"/>
    <nd ref="323242184"/>
    <nd ref="323242185"/>
    <nd ref="323242188"/>
    <nd ref="323242190"/>
    <nd ref="323242192"/>
    <nd ref="323242194"/>
    <nd ref="323242197"/>
    <nd ref="323242198"/>
    <nd ref="323242200"/>
    <nd ref="323242183"/>
    <tag k="created_by" v="Potlatch 0.10f"/>
    <tag k="landuse" v="forest"/>
    <tag k="source" v="yahoo sat"/>
  </way>
  <way id="29388816" version="1" timestamp="2008-12-30T21:52:06Z" uid="16922" user="amai" changeset="674203">
    <nd ref="323242325"/>
    <nd ref="323242326"/>
    <nd ref="323242327"/>
    <nd ref="323242328"/>
    <nd ref="323242329"/>
    <nd ref="323242325"/>
    <tag k="created_by" v="Potlatch 0.10f"/>
    <tag k="landuse" v="forest"/>
    <tag k="source" v="yahoo sat"/>
  </way>
  <way id="29388842" version="1" timestamp="2008-12-30T21:53:36Z" uid="16922" user="amai" changeset="674203">
    <nd ref="323242495"/>
    <nd ref="323242496"/>
    <nd ref="323242497"/>
    <nd ref="323242498"/>
    <nd ref="323242499"/>
    <nd ref="323242500"/>
    <nd ref="323242501"/>
    <nd ref="323242502"/>
    <nd ref="323242495"/>
    <tag k="created_by" v="Potlatch 0.10f"/>
    <tag k="landuse" v="forest"/>
    <tag k="source" v="yahoo sat"/>
  </way>
  <way id="29388941" version="1" timestamp="2008-12-30T21:58:56Z" uid="33382" user="de_muur" changeset="675152">
    <nd ref="323243425"/>
    <nd ref="311748609"/>
    <nd ref="311748303"/>
    <nd ref="311748298"/>
    <nd ref="323243425"/>
    <tag k="created_by" v="JOSM"/>
    <tag k="landuse" v="farm"/>
  </way>
  <way id="29388942" version="1" timestamp="2008-12-30T21:58:58Z" uid="33382" user="de_muur" changeset="675152">
    <nd ref="323243428"/>
    <nd ref="323243439"/>
    <nd ref="323243437"/>
    <nd ref="323243435"/>
    <nd ref="323243432"/>
    <nd ref="323243425"/>
    <nd ref="311748645"/>
    <nd ref="311750213"/>
    <nd ref="311750211"/>
    <nd ref="323243428"/>
    <tag k="created_by" v="Potlatch 0.7b"/>
    <tag k="landuse" v="forest"/>
    <tag k="military" v="danger_area"/>
  </way>
  <way id="29388942" version="2" timestamp="2009-01-01T14:18:43Z" uid="33382" user="de_muur" changeset="697771">
    <nd ref="323243428"/>
    <nd ref="323243439"/>
    <nd ref="323243437"/>
    <nd ref="323243435"/>
    <nd ref="323243432"/>
    <nd ref="323243425"/>
    <nd ref="311748645"/>
    <nd ref="311750213"/>
    <nd ref="324263004"/>
    <nd ref="311750211"/>
    <nd ref="323243428"/>
    <tag k="created_by" v="Potlatch 0.7b"/>
    <tag k="landuse" v="forest"/>
    <tag k="military" v="danger_area"/>
  </way>
  <way id="29388943" version="1" timestamp="2008-12-30T21:58:59Z" uid="33382" user="de_muur" changeset="675152">
    <nd ref="323243418"/>
    <nd ref="323243421"/>
    <nd ref="311748609"/>
    <nd ref="323243440"/>
    <nd ref="323243441"/>
    <nd ref="323243443"/>
    <nd ref="311748605"/>
    <nd ref="323243415"/>
    <nd ref="323243418"/>
    <tag k="created_by" v="Potlatch 0.7b"/>
    <tag k="landuse" v="forest"/>
    <tag k="military" v="danger_area"/>
  </way>
  <way id="29388943" version="2" timestamp="2009-01-01T14:09:53Z" uid="33382" user="de_muur" changeset="697771">
    <nd ref="323243418"/>
    <nd ref="323243421"/>
    <nd ref="311748609"/>
    <nd ref="323243440"/>
    <nd ref="323243441"/>
    <nd ref="323243443"/>
    <nd ref="324260526"/>
    <nd ref="311748605"/>
    <nd ref="323243415"/>
    <nd ref="323243418"/>
    <tag k="created_by" v="Potlatch 0.7b"/>
    <tag k="landuse" v="forest"/>
    <tag k="military" v="danger_area"/>
  </way>
  <way id="29388944" version="1" timestamp="2008-12-30T21:59:01Z" uid="33382" user="de_muur" changeset="675152">
    <nd ref="323243428"/>
    <nd ref="311748606"/>
    <nd ref="323243443"/>
    <nd ref="323243441"/>
    <nd ref="323243440"/>
    <nd ref="311748609"/>
    <nd ref="323243425"/>
    <nd ref="323243432"/>
    <nd ref="323243435"/>
    <nd ref="323243437"/>
    <nd ref="323243439"/>
    <nd ref="323243428"/>
    <tag k="created_by" v="Potlatch 0.7b"/>
    <tag k="landuse" v="military"/>
    <tag k="military" v="danger_area"/>
  </way>
  <way id="29388984" version="1" timestamp="2008-12-30T22:01:17Z" uid="17602" user="B10xyz" changeset="674297">
    <nd ref="26916360"/>
    <nd ref="323243802"/>
    <tag k="highway" v="service"/>
  </way>
  <way id="29388985" version="1" timestamp="2008-12-30T22:01:18Z" uid="16922" user="amai" changeset="674203">
    <nd ref="323243552"/>
    <nd ref="323243633"/>
    <nd ref="323243634"/>
    <nd ref="323243635"/>
    <nd ref="323243554"/>
    <nd ref="295693574"/>
    <nd ref="295693576"/>
    <nd ref="295693578"/>
    <nd ref="295693580"/>
    <nd ref="295693582"/>
    <nd ref="295693583"/>
    <nd ref="295693584"/>
    <nd ref="295693585"/>
    <nd ref="295693586"/>
    <nd ref="295693587"/>
    <nd ref="295693588"/>
    <nd ref="295693589"/>
    <nd ref="295693590"/>
    <nd ref="301596911"/>
    <tag k="created_by" v="Potlatch 0.10f"/>
    <tag k="landuse" v="forest"/>
  </way>
  <way id="29388985" version="2" timestamp="2008-12-30T22:02:46Z" uid="16922" user="amai" changeset="674203"/>
  <way id="29388985" version="3" timestamp="2008-12-30T22:02:47Z" uid="16922" user="amai" changeset="674203">
    <nd ref="323243552"/>
    <nd ref="323243633"/>
    <tag k="created_by" v="Potlatch 0.10f"/>
    <tag k="landuse" v="forest"/>
  </way>
  <way id="29388985" version="4" timestamp="2008-12-30T22:02:49Z" uid="16922" user="amai" changeset="674203"/>
  <way id="29388994" version="1" timestamp="2008-12-30T22:01:27Z" uid="16922" user="amai" changeset="674203">
    <nd ref="323243633"/>
    <nd ref="323243634"/>
    <nd ref="323243635"/>
    <nd ref="323243554"/>
    <nd ref="295693574"/>
    <nd ref="295693576"/>
    <nd ref="295693578"/>
    <nd ref="295693580"/>
    <nd ref="295693582"/>
    <nd ref="295693583"/>
    <nd ref="295693584"/>
    <nd ref="295693585"/>
    <nd ref="295693586"/>
    <nd ref="295693587"/>
    <nd ref="295693588"/>
    <nd ref="295693589"/>
    <nd ref="295693590"/>
    <nd ref="301596911"/>
    <tag k="created_by" v="Potlatch 0.10f"/>
    <tag k="landuse" v="forest"/>
  </way>
  <way id="29388994" version="2" timestamp="2008-12-30T22:02:31Z" uid="16922" user="amai" changeset="674203"/>
</osm>
