<?xml version='1.0' encoding='UTF-8'?>
<osm version="0.6" generator="libosmium/2.20.0">
  <way id="29393126" version="4" timestamp="2009-09-23T08:18:36Z" uid="43863" user="Rundling" changeset="2591894">
    <nd ref="323333113"/>
    <nd ref="505396587"/>
    <tag k="addr:postcode" v="6890"/>
    <tag k="at:maxspeed" v="Ortsgebiet"/>
    <tag k="fixme" v="check import"/>
    <tag k="highway" v="residential"/>
    <tag k="is_in" v="...,Bezirk Dornbirn,Vorarlberg,Österreich,Europa"/>
    <tag k="name" v="Feldgasse"/>
    <tag k="note" v="imported from plan.at; (C)=CC-by-sa or oDBL; feel free to change if necessary"/>
    <tag k="plan_at:acad_id" v="do3FE"/>
    <tag k="source" v="plan.at 2008"/>
    <tag k="uploaded_by" v="Wolfgang W. Wasserburger"/>
  </way>
  <way id="29393809" version="3" timestamp="2009-01-01T13:02:43Z" uid="6975" user="ulfl" changeset="699648">
    <nd ref="323363759"/>
    <nd ref="323363768"/>
    <tag k="is_in" v="Cuernavaca"/>
    <tag k="lanes" v="2"/>
    <tag k="name" v="Oaxaca"/>
    <tag k="oneway" v="yes"/>
  </way>
  <way id="29393953" version="10" timestamp="2010-03-28T00:43:23Z" uid="20587" user="balrog-kun" changeset="4250871">
    <nd ref="323371855"/>
    <nd ref="665558424"/>
    <nd ref="258777638"/>
    <nd ref="665556729"/>
    <nd ref="665556730"/>
    <nd ref="665556731"/>
    <nd ref="258777637"/>
    <nd ref="323372498"/>
    <nd ref="665556735"/>
    <nd ref="323371636"/>
    <nd ref="436982286"/>
    <nd ref="323371635"/>
    <tag k="bridge" v="yes"/>
    <tag k="highway" v="primary_link"/>
    <tag k="history" v="Retrieved from v5"/>
    <tag k="layer" v="1"/>
    <tag k="name" v="San Jose Avenue"/>
    <tag k="oneway" v="yes"/>
    <tag k="tiger:cfcc" v="A63"/>
    <tag k="tiger:county" v="San Francisco, CA"/>
    <tag k="tiger:reviewed" v="no"/>
    <tag k="tiger:source" v="tiger_import_dch_v0.6_20070809"/>
    <tag k="tiger:tlid" v="192300062:192300720:192300165:192302214:192300728:192300048:192300606:192300024:192300025:192300601:192299521:192300540:192300014:192300015:192300037:192300050:192299516:192302215; 192300063:192300722:192300164:192300067:192300054:192300051:192300055:1923"/>
  </way>
  <way id="29393963" version="2" timestamp="2009-01-01T14:12:50Z" uid="6975" user="ulfl" changeset="699648">
    <nd ref="323373355"/>
    <nd ref="323373358"/>
    <nd ref="323373360"/>
    <nd ref="323373362"/>
    <nd ref="323373355"/>
    <tag k="addr:postcode" v="3571"/>
    <tag k="area" v="yes"/>
    <tag k="fixme" v="check import"/>
    <tag k="is_in" v="...,Bezirk Horn,Niederösterreich,Österreich,Europa"/>
    <tag k="leisure" v="nature_reserve"/>
    <tag k="name" v="Tennisplatz"/>
    <tag k="natural" v="plan.at:ho:reserve"/>
    <tag k="note" v="imported from plan.at; (C)=CC-by-sa or oDBL; feel free to change if necessary"/>
    <tag k="plan_at:acad_id" v="hoBAC"/>
    <tag k="source" v="plan.at 2008"/>
    <tag k="uploaded_by" v="Wolfgang W. Wasserburger"/>
  </way>
  <way id="29393971" version="2" timestamp="2009-01-01T14:12:38Z" uid="6975" user="ulfl" changeset="699648">
    <nd ref="323373486"/>
    <nd ref="323373489"/>
    <nd ref="323373491"/>
    <nd ref="323373494"/>
    <nd ref="323373486"/>
    <tag k="addr:postcode" v="3571"/>
    <tag k="area" v="yes"/>
    <tag k="fixme" v="check import"/>
    <tag k="is_in" v="...,Bezirk Horn,Niederösterreich,Österreich,Europa"/>
    <tag k="leisure" v="nature_reserve"/>
    <tag k="name" v="Sportplatz"/>
    <tag k="natural" v="plan.at:ho:reserve"/>
    <tag k="note" v="imported from plan.at; (C)=CC-by-sa or oDBL; feel free to change if necessary"/>
    <tag k="plan_at:acad_id" v="hoB9C"/>
    <tag k="source" v="plan.at 2008"/>
    <tag k="uploaded_by" v="Wolfgang W. Wasserburger"/>
  </way>
</osm>
