<?xml version='1.0' encoding='UTF-8'?>
<osm version="0.6" generator="libosmium/2.20.0">
  <way id="29402473" version="5" timestamp="2009-01-01T13:55:26Z" uid="6975" user="ulfl" changeset="699648">
    <nd ref="323858633"/>
    <nd ref="323858637"/>
    <tag k="highway" v="living_street"/>
    <tag k="maxspeed" v="7"/>
    <tag k="name" v="Heinz-Lange-Straße"/>
    <tag k="surface" v="paved"/>
  </way>
  <way id="29402477" version="9" timestamp="2009-01-01T13:55:25Z" uid="6975" user="ulfl" changeset="699648">
    <nd ref="323858639"/>
    <nd ref="323858641"/>
    <nd ref="323858643"/>
    <tag k="highway" v="living_street"/>
    <tag k="maxspeed" v="7"/>
    <tag k="name" v="Ernst-Hadler-Straße"/>
    <tag k="surface" v="paved"/>
  </way>
  <way id="29402482" version="6" timestamp="2010-06-22T18:31:49Z" uid="33382" user="de_muur" changeset="5053422">
    <nd ref="317265904"/>
    <nd ref="376832242"/>
    <nd ref="323858677"/>
    <nd ref="323858679"/>
    <nd ref="323858682"/>
    <tag k="highway" v="residential"/>
    <tag k="maxspeed" v="50"/>
    <tag k="postal_code" v="27321"/>
    <tag k="surface" v="paved"/>
  </way>
  <way id="29402487" version="8" timestamp="2010-06-22T18:31:57Z" uid="33382" user="de_muur" changeset="5053422">
    <nd ref="323858682"/>
    <nd ref="323858684"/>
    <nd ref="323858686"/>
    <nd ref="323858689"/>
    <nd ref="271668541"/>
    <tag k="highway" v="track"/>
    <tag k="maxweight" v="3.5"/>
    <tag k="surface" v="paved"/>
    <tag k="tracktype" v="grade1"/>
  </way>
  <way id="29402488" version="4" timestamp="2010-06-18T18:25:52Z" uid="33382" user="de_muur" changeset="5018299">
    <nd ref="323858728"/>
    <nd ref="603031457"/>
    <nd ref="271668539"/>
    <tag k="highway" v="unclassified"/>
    <tag k="layer" v="1"/>
    <tag k="maxspeed" v="50"/>
    <tag k="name" v="Beppener Bruchweg"/>
    <tag k="surface" v="paved"/>
  </way>
  <way id="29402489" version="5" timestamp="2010-06-18T18:26:09Z" uid="33382" user="de_muur" changeset="5018299">
    <nd ref="323858725"/>
    <nd ref="254331556"/>
    <tag k="highway" v="unclassified"/>
    <tag k="layer" v="1"/>
    <tag k="maxspeed" v="100"/>
    <tag k="maxweight" v="24"/>
    <tag k="name" v="Beppener Bruchweg"/>
    <tag k="surface" v="paved"/>
  </way>
  <way id="29402490" version="6" timestamp="2010-08-11T16:30:56Z" uid="33382" user="de_muur" changeset="5464519">
    <nd ref="254331553"/>
    <nd ref="599346788"/>
    <tag k="highway" v="unclassified"/>
    <tag k="maxspeed" v="70"/>
    <tag k="name" v="Thedinghauser Straße"/>
    <tag k="surface" v="paved"/>
  </way>
  <way id="29402491" version="2" timestamp="2010-04-06T19:57:45Z" uid="33382" user="de_muur" changeset="4348316">
    <nd ref="254331552"/>
    <nd ref="88990889"/>
    <nd ref="600816918"/>
    <nd ref="344894342"/>
    <nd ref="88990890"/>
    <nd ref="88990891"/>
    <nd ref="254331550"/>
    <nd ref="323858735"/>
    <nd ref="88990892"/>
    <nd ref="97955457"/>
    <nd ref="88990893"/>
    <nd ref="88990894"/>
    <nd ref="323858739"/>
    <nd ref="323858744"/>
    <nd ref="88990895"/>
    <tag k="highway" v="tertiary"/>
    <tag k="maxspeed" v="50"/>
    <tag k="name" v="Härsenstraße"/>
    <tag k="ref" v="K 8"/>
    <tag k="surface" v="paved"/>
  </way>
  <way id="29402491" version="3" timestamp="2010-04-10T20:21:12Z" uid="33382" user="de_muur" changeset="4386862">
    <nd ref="254331552"/>
    <nd ref="88990889"/>
    <nd ref="600816918"/>
    <nd ref="344894342"/>
    <nd ref="88990890"/>
    <tag k="highway" v="tertiary"/>
    <tag k="maxspeed" v="50"/>
    <tag k="name" v="Härsenstraße"/>
    <tag k="ref" v="K 8"/>
    <tag k="surface" v="paved"/>
  </way>
  <way id="29402491" version="4" timestamp="2010-04-13T17:52:56Z" uid="33382" user="de_muur" changeset="4416076">
    <nd ref="254331552"/>
    <nd ref="88990889"/>
    <tag k="highway" v="tertiary"/>
    <tag k="maxspeed" v="50"/>
    <tag k="name" v="Härsenstraße"/>
    <tag k="ref" v="K 8"/>
    <tag k="surface" v="paved"/>
  </way>
  <way id="29402492" version="5" timestamp="2010-04-06T19:57:52Z" uid="33382" user="de_muur" changeset="4348316"/>
  <way id="29402493" version="2" timestamp="2010-04-06T19:57:53Z" uid="33382" user="de_muur" changeset="4348316"/>
  <way id="29402496" version="4" timestamp="2010-04-06T19:57:42Z" uid="33382" user="de_muur" changeset="4348316">
    <nd ref="323858748"/>
    <nd ref="323858753"/>
    <nd ref="489346668"/>
    <nd ref="323858758"/>
    <nd ref="323858763"/>
    <nd ref="323858769"/>
    <nd ref="323858773"/>
    <nd ref="323858791"/>
    <nd ref="323858795"/>
    <nd ref="323858799"/>
    <nd ref="323858804"/>
    <nd ref="323858810"/>
    <nd ref="323858748"/>
    <tag k="highway" v="tertiary"/>
    <tag k="junction" v="roundabout"/>
    <tag k="maxspeed" v="50"/>
    <tag k="name" v="Härsenstraße"/>
    <tag k="oneway" v="yes"/>
    <tag k="ref" v="K 143"/>
    <tag k="surface" v="paved"/>
  </way>
  <way id="29402497" version="3" timestamp="2010-04-10T20:21:11Z" uid="33382" user="de_muur" changeset="4386862">
    <nd ref="88990898"/>
    <nd ref="97955460"/>
    <nd ref="97955463"/>
    <nd ref="269210287"/>
    <nd ref="93012287"/>
    <nd ref="88990900"/>
    <nd ref="88990901"/>
    <nd ref="88990902"/>
    <nd ref="269210286"/>
    <nd ref="292693260"/>
    <nd ref="349258823"/>
    <nd ref="349258809"/>
    <nd ref="323858814"/>
    <tag k="highway" v="tertiary"/>
    <tag k="ref" v="K 145"/>
    <tag k="surface" v="paved"/>
  </way>
  <way id="29402497" version="5" timestamp="2011-03-13T16:46:24Z" uid="33382" user="de_muur" changeset="7547317">
    <nd ref="88990898"/>
    <nd ref="97955460"/>
    <nd ref="97955463"/>
    <nd ref="269210287"/>
    <nd ref="1200415537"/>
    <nd ref="93012287"/>
    <tag k="highway" v="tertiary"/>
    <tag k="maxspeed" v="70"/>
    <tag k="ref" v="K 145"/>
    <tag k="surface" v="paved"/>
  </way>
  <way id="29402498" version="2" timestamp="2010-04-10T20:21:11Z" uid="33382" user="de_muur" changeset="4386862">
    <nd ref="323858814"/>
    <nd ref="302976075"/>
    <nd ref="88990903"/>
    <nd ref="302976068"/>
    <nd ref="302976644"/>
    <nd ref="88990904"/>
    <nd ref="302976645"/>
    <nd ref="88990905"/>
    <nd ref="88990906"/>
    <nd ref="256128403"/>
    <nd ref="302976646"/>
    <nd ref="93438170"/>
    <tag k="highway" v="tertiary"/>
    <tag k="maxspeed" v="50"/>
    <tag k="name" v="Holzmaase"/>
    <tag k="ref" v="K 145"/>
    <tag k="surface" v="paved"/>
  </way>
  <way id="29402499" version="2" timestamp="2010-04-10T20:21:12Z" uid="33382" user="de_muur" changeset="4386862">
    <nd ref="692021860"/>
    <nd ref="93438170"/>
    <nd ref="33601240"/>
    <nd ref="33601242"/>
    <nd ref="33601244"/>
    <nd ref="33601246"/>
    <nd ref="33601248"/>
    <nd ref="194383391"/>
    <nd ref="692021858"/>
    <nd ref="33601252"/>
    <tag k="highway" v="secondary"/>
    <tag k="maxspeed" v="50"/>
    <tag k="name" v="Verdener Straße"/>
    <tag k="ref" v="L 202"/>
    <tag k="surface" v="paved"/>
  </way>
  <way id="29402500" version="3" timestamp="2011-03-16T18:50:47Z" uid="33382" user="de_muur" changeset="7578365">
    <nd ref="323858828"/>
    <nd ref="256128366"/>
    <nd ref="256128365"/>
    <nd ref="256128364"/>
    <tag k="highway" v="tertiary"/>
    <tag k="name" v="Eitzendorfer Straße"/>
    <tag k="ref" v="K 142"/>
    <tag k="surface" v="paved"/>
  </way>
  <way id="29402501" version="4" timestamp="2011-03-16T18:49:58Z" uid="33382" user="de_muur" changeset="7578365">
    <nd ref="256128378"/>
    <nd ref="1204554781"/>
    <tag k="highway" v="secondary"/>
    <tag k="maxspeed" v="50"/>
    <tag k="ref" v="L 331"/>
    <tag k="surface" v="paved"/>
  </way>
  <way id="29402502" version="3" timestamp="2011-03-16T18:50:12Z" uid="33382" user="de_muur" changeset="7578365">
    <nd ref="256128364"/>
    <nd ref="1204554773"/>
    <nd ref="194383157"/>
    <nd ref="194383159"/>
    <nd ref="323858833"/>
    <tag k="highway" v="tertiary"/>
    <tag k="maxspeed" v="50"/>
    <tag k="name" v="Eitzendorfer Straße"/>
    <tag k="ref" v="K 142"/>
  </way>
  <way id="29402503" version="4" timestamp="2011-03-15T20:13:21Z" uid="33382" user="de_muur" changeset="7569879">
    <nd ref="323858833"/>
    <nd ref="256128371"/>
    <nd ref="256128342"/>
    <nd ref="377086028"/>
    <tag k="highway" v="tertiary"/>
    <tag k="name" v="Eitzendorfer Straße"/>
    <tag k="ref" v="K 142"/>
    <tag k="surface" v="paved"/>
  </way>
  <way id="29402504" version="6" timestamp="2011-03-15T20:13:20Z" uid="33382" user="de_muur" changeset="7569879">
    <nd ref="323858838"/>
    <nd ref="256128271"/>
    <nd ref="1203548603"/>
    <nd ref="194383122"/>
    <nd ref="1064098501"/>
    <nd ref="194383111"/>
    <nd ref="194383114"/>
    <tag k="highway" v="tertiary"/>
    <tag k="maxspeed" v="50"/>
    <tag k="ref" v="K 142"/>
    <tag k="surface" v="asphalt"/>
  </way>
  <way id="29402650" version="2" timestamp="2009-01-01T13:05:56Z" uid="6975" user="ulfl" changeset="699648">
    <nd ref="280249899"/>
    <nd ref="323862477"/>
    <nd ref="323862478"/>
    <nd ref="323862481"/>
    <nd ref="323862483"/>
    <nd ref="323862485"/>
    <nd ref="323862487"/>
    <nd ref="323862490"/>
    <nd ref="323862491"/>
    <nd ref="323862493"/>
    <nd ref="323862495"/>
    <nd ref="323862496"/>
    <nd ref="323862499"/>
    <nd ref="323862500"/>
    <nd ref="323862501"/>
    <nd ref="323862503"/>
    <nd ref="323862504"/>
    <nd ref="323862506"/>
    <nd ref="323862507"/>
    <nd ref="323862508"/>
    <nd ref="323862510"/>
    <nd ref="323862511"/>
    <nd ref="323862512"/>
    <nd ref="323862514"/>
    <nd ref="323862515"/>
    <nd ref="323862516"/>
    <nd ref="323862518"/>
    <nd ref="323862519"/>
    <nd ref="323862521"/>
    <nd ref="323862523"/>
    <nd ref="323862525"/>
    <nd ref="323862526"/>
    <nd ref="323862527"/>
    <nd ref="323862529"/>
    <nd ref="323862530"/>
    <nd ref="323862532"/>
    <nd ref="323862533"/>
    <nd ref="323862534"/>
    <nd ref="323862536"/>
    <nd ref="323862537"/>
    <nd ref="323862538"/>
    <nd ref="323862540"/>
    <nd ref="323862541"/>
    <nd ref="323862542"/>
    <nd ref="323862544"/>
    <nd ref="323862545"/>
    <nd ref="323862546"/>
    <nd ref="323862548"/>
    <nd ref="323862549"/>
    <nd ref="323862551"/>
    <nd ref="323862553"/>
    <nd ref="323862554"/>
    <nd ref="323862556"/>
    <nd ref="323862557"/>
    <nd ref="323862558"/>
    <nd ref="323862561"/>
    <nd ref="323862562"/>
    <nd ref="323862564"/>
    <nd ref="323862566"/>
    <nd ref="323862567"/>
    <nd ref="323862569"/>
    <nd ref="323862570"/>
    <nd ref="323862572"/>
    <nd ref="323862573"/>
    <nd ref="323862499"/>
    <tag k="highway" v="road"/>
    <tag k="source" v="DOP_LVA_BY_01"/>
  </way>
  <way id="29402711" version="2" timestamp="2009-01-01T13:05:57Z" uid="6975" user="ulfl" changeset="699648">
    <nd ref="323862503"/>
    <nd ref="323864062"/>
    <nd ref="323864063"/>
    <nd ref="323864064"/>
    <nd ref="323864065"/>
    <nd ref="323864067"/>
    <nd ref="323864068"/>
    <tag k="highway" v="track"/>
    <tag k="source" v="DOP_LVA_BY_01"/>
  </way>
  <way id="29402946" version="2" timestamp="2009-01-01T14:37:50Z" uid="6975" user="ulfl" changeset="699648">
    <nd ref="323170985"/>
    <nd ref="323868974"/>
    <nd ref="292191606"/>
    <tag k="bicycle" v="yes"/>
    <tag k="foot" v="yes"/>
    <tag k="highway" v="footway"/>
    <tag k="tracktype" v="grade1"/>
  </way>
  <way id="29402947" version="2" timestamp="2009-01-01T14:37:49Z" uid="6975" user="ulfl" changeset="699648">
    <nd ref="323869638"/>
    <nd ref="323170985"/>
    <tag k="bicycle" v="yes"/>
    <tag k="foot" v="yes"/>
    <tag k="highway" v="footway"/>
    <tag k="tracktype" v="grade1"/>
  </way>
</osm>
