<?xml version='1.0' encoding='UTF-8'?>
<osm version="0.6" generator="libosmium/2.20.0">
  <way id="29461047" version="3" timestamp="2009-03-09T01:10:28Z" uid="26515" user="Simon Ward" changeset="768313">
    <nd ref="324692414"/>
    <nd ref="251516080"/>
    <tag k="created_by" v="Potlatch 0.10f"/>
    <tag k="highway" v="residential"/>
    <tag k="lit" v="yes"/>
    <tag k="name" v="Gooding Avenue"/>
    <tag k="surface" v="asphalt"/>
  </way>
  <way id="29461047" version="4" timestamp="2009-03-09T16:59:52Z" uid="26515" user="Simon Ward" changeset="768990">
    <nd ref="324692414"/>
    <nd ref="358038281"/>
    <nd ref="251516083"/>
    <tag k="created_by" v="Potlatch 0.10f"/>
    <tag k="highway" v="residential"/>
    <tag k="lit" v="yes"/>
    <tag k="name" v="Gooding Avenue"/>
    <tag k="surface" v="asphalt"/>
  </way>
  <way id="29461208" version="3" timestamp="2009-10-11T02:41:56Z" uid="20587" user="balrog-kun" changeset="2809762"/>
  <way id="29461240" version="5" timestamp="2010-05-31T21:57:49Z" uid="151899" user="Bikeman2000" changeset="4868981">
    <nd ref="324695433"/>
    <nd ref="324695524"/>
    <nd ref="324695523"/>
    <nd ref="324695522"/>
    <nd ref="324695521"/>
    <nd ref="324695519"/>
    <nd ref="324695518"/>
    <nd ref="324695517"/>
    <nd ref="324695516"/>
    <nd ref="324695514"/>
    <nd ref="324695513"/>
    <nd ref="324695512"/>
    <nd ref="324695511"/>
    <nd ref="324695510"/>
    <nd ref="324695509"/>
    <nd ref="324695507"/>
    <nd ref="324695506"/>
    <nd ref="324695505"/>
    <nd ref="324695504"/>
    <nd ref="324695502"/>
    <nd ref="324695501"/>
    <nd ref="324695500"/>
    <nd ref="324695499"/>
    <nd ref="324695498"/>
    <nd ref="324695497"/>
    <nd ref="324695495"/>
    <nd ref="760742308"/>
    <nd ref="324695494"/>
    <nd ref="760742266"/>
    <nd ref="345242775"/>
    <nd ref="760742331"/>
    <nd ref="324695493"/>
    <nd ref="345242770"/>
    <nd ref="760742273"/>
    <nd ref="324695491"/>
    <nd ref="324695490"/>
    <nd ref="324695489"/>
    <nd ref="324695488"/>
    <nd ref="324695487"/>
    <nd ref="324695486"/>
    <nd ref="324695485"/>
    <nd ref="324695484"/>
    <nd ref="324695482"/>
    <nd ref="324695481"/>
    <nd ref="324695480"/>
    <nd ref="324695479"/>
    <nd ref="760742277"/>
    <nd ref="760742283"/>
    <nd ref="324695478"/>
    <nd ref="324695476"/>
    <nd ref="324695474"/>
    <nd ref="760742312"/>
    <nd ref="324695473"/>
    <nd ref="324695472"/>
    <nd ref="324695471"/>
    <nd ref="324695469"/>
    <nd ref="324695468"/>
    <nd ref="324695467"/>
    <nd ref="324695466"/>
    <nd ref="324695465"/>
    <nd ref="324695464"/>
    <nd ref="324695462"/>
    <nd ref="324695461"/>
    <nd ref="345284515"/>
    <nd ref="324695460"/>
    <nd ref="324695458"/>
    <nd ref="324695457"/>
    <nd ref="324695455"/>
    <nd ref="324695454"/>
    <nd ref="324695452"/>
    <nd ref="324695451"/>
    <nd ref="324695450"/>
    <nd ref="324695448"/>
    <nd ref="324695447"/>
    <nd ref="324695446"/>
    <nd ref="324695444"/>
    <nd ref="324695443"/>
    <nd ref="324695442"/>
    <nd ref="324695441"/>
    <nd ref="324695440"/>
    <nd ref="324695439"/>
    <nd ref="324695437"/>
    <nd ref="324695436"/>
    <nd ref="324695435"/>
    <nd ref="324695433"/>
    <tag k="landuse" v="residential"/>
    <tag k="source" v="Yahoo"/>
  </way>
  <way id="29461262" version="7" timestamp="2009-03-08T14:39:29Z" uid="6975" user="ulfl" changeset="757880">
    <nd ref="324695907"/>
    <nd ref="324695908"/>
    <nd ref="324695909"/>
    <nd ref="324695910"/>
    <nd ref="324695907"/>
    <tag k="amenity" v="restaurant"/>
    <tag k="architect" v="Ian Simpson"/>
    <tag k="building" v="mixed_use"/>
    <tag k="name" v="Beetham Tower"/>
    <tag k="start_date" v="2006"/>
    <tag k="tourism" v="hotel"/>
  </way>
  <way id="29461268" version="2" timestamp="2009-10-11T02:41:27Z" uid="20587" user="balrog-kun" changeset="2809762"/>
  <way id="29461288" version="2" timestamp="2010-05-31T21:57:53Z" uid="151899" user="Bikeman2000" changeset="4868981">
    <nd ref="324696511"/>
    <nd ref="324696512"/>
    <nd ref="324696513"/>
    <nd ref="324696514"/>
    <nd ref="324696515"/>
    <nd ref="324696516"/>
    <nd ref="760742326"/>
    <nd ref="760742262"/>
    <nd ref="324696517"/>
    <nd ref="760742329"/>
    <nd ref="324696519"/>
    <nd ref="760742313"/>
    <nd ref="324696520"/>
    <tag k="highway" v="residential"/>
    <tag k="source" v="Yahoo"/>
  </way>
  <way id="29461297" version="2" timestamp="2010-05-31T21:57:52Z" uid="151899" user="Bikeman2000" changeset="4868981">
    <nd ref="73648845"/>
    <nd ref="760742333"/>
    <nd ref="760742279"/>
    <nd ref="324696781"/>
    <nd ref="324696782"/>
    <nd ref="324696783"/>
    <tag k="highway" v="residential"/>
    <tag k="source" v="Yahoo"/>
  </way>
  <way id="29461308" version="2" timestamp="2009-10-11T02:41:28Z" uid="20587" user="balrog-kun" changeset="2809762"/>
  <way id="29461500" version="2" timestamp="2009-02-07T16:46:46Z" uid="6975" user="ulfl" changeset="238208">
    <nd ref="324699531"/>
    <nd ref="324699532"/>
    <nd ref="324699533"/>
    <nd ref="324699534"/>
    <nd ref="324699535"/>
    <nd ref="324699536"/>
    <nd ref="324699537"/>
    <nd ref="324699538"/>
    <nd ref="324699539"/>
    <nd ref="324699540"/>
    <nd ref="324699541"/>
    <nd ref="324699542"/>
    <nd ref="324699543"/>
    <nd ref="324699544"/>
    <nd ref="324699545"/>
    <nd ref="324699546"/>
    <nd ref="324699531"/>
    <tag k="building" v="yes"/>
    <tag k="name" v="Maison de la Culture du Japon"/>
    <tag k="tourism" v="museum"/>
  </way>
  <way id="29461513" version="3" timestamp="2010-08-11T16:40:16Z" uid="33382" user="de_muur" changeset="5464602">
    <nd ref="324699608"/>
    <nd ref="429984804"/>
    <tag k="highway" v="track"/>
    <tag k="surface" v="paved"/>
    <tag k="tracktype" v="grade1"/>
  </way>
  <way id="29461514" version="4" timestamp="2010-08-11T16:40:24Z" uid="33382" user="de_muur" changeset="5464602">
    <nd ref="324699608"/>
    <nd ref="600904498"/>
    <nd ref="600904473"/>
    <nd ref="324699606"/>
    <nd ref="324699609"/>
    <tag k="highway" v="track"/>
  </way>
  <way id="29461525" version="3" timestamp="2010-08-11T16:31:14Z" uid="33382" user="de_muur" changeset="5464519">
    <nd ref="254331553"/>
    <nd ref="324699581"/>
    <tag k="highway" v="track"/>
    <tag k="surface" v="paved"/>
    <tag k="tracktype" v="grade1"/>
  </way>
  <way id="29461527" version="3" timestamp="2010-08-11T16:31:15Z" uid="33382" user="de_muur" changeset="5464519">
    <nd ref="324699581"/>
    <nd ref="324699583"/>
    <nd ref="324699584"/>
    <nd ref="271668524"/>
    <tag k="highway" v="track"/>
    <tag k="surface" v="paved"/>
    <tag k="tracktype" v="grade1"/>
  </way>
  <way id="29461537" version="4" timestamp="2010-08-11T16:40:15Z" uid="33382" user="de_muur" changeset="5464602">
    <nd ref="324699607"/>
    <nd ref="324699608"/>
    <tag k="highway" v="track"/>
    <tag k="surface" v="paved"/>
    <tag k="tracktype" v="grade1"/>
  </way>
  <way id="29461646" version="2" timestamp="2009-01-02T22:34:08Z" uid="6975" user="ulfl" changeset="711688">
    <nd ref="322810556"/>
    <nd ref="322810551"/>
    <nd ref="322810549"/>
    <nd ref="322810548"/>
    <tag k="access" v="no"/>
    <tag k="agricultural" v="yes"/>
    <tag k="bicycle" v="yes"/>
    <tag k="foot" v="yes"/>
    <tag k="highway" v="track"/>
    <tag k="source" v="GPS"/>
    <tag k="tracktype" v="grade2"/>
  </way>
  <way id="29461676" version="3" timestamp="2010-03-28T00:43:43Z" uid="20587" user="balrog-kun" changeset="4250871">
    <nd ref="32581150"/>
    <nd ref="324700303"/>
    <tag k="bridge" v="yes"/>
    <tag k="highway" v="motorway"/>
    <tag k="layer" v="1"/>
    <tag k="name" v="Chino Valley Freeway"/>
    <tag k="oneway" v="yes"/>
    <tag k="ref" v="CA 71"/>
  </way>
  <way id="29461677" version="3" timestamp="2010-03-28T00:43:43Z" uid="20587" user="balrog-kun" changeset="4250871">
    <nd ref="324700303"/>
    <nd ref="55224419"/>
    <nd ref="55201623"/>
    <nd ref="32583657"/>
    <nd ref="32581153"/>
    <nd ref="32583658"/>
    <tag k="highway" v="motorway"/>
    <tag k="name" v="Chino Valley Freeway"/>
    <tag k="oneway" v="yes"/>
    <tag k="ref" v="CA 71"/>
  </way>
  <way id="29461678" version="3" timestamp="2010-03-28T00:43:43Z" uid="20587" user="balrog-kun" changeset="4250871">
    <nd ref="324700304"/>
    <nd ref="324700305"/>
    <tag k="bridge" v="yes"/>
    <tag k="highway" v="motorway"/>
    <tag k="layer" v="1"/>
    <tag k="name" v="Chino Valley Freeway"/>
    <tag k="oneway" v="yes"/>
    <tag k="ref" v="CA 71"/>
  </way>
  <way id="29461679" version="3" timestamp="2010-03-28T00:43:43Z" uid="20587" user="balrog-kun" changeset="4250871">
    <nd ref="324700305"/>
    <nd ref="32599428"/>
    <nd ref="324700317"/>
    <nd ref="32581221"/>
    <nd ref="32599429"/>
    <nd ref="324700334"/>
    <nd ref="324700330"/>
    <nd ref="32599430"/>
    <nd ref="324700336"/>
    <tag k="highway" v="motorway"/>
    <tag k="name" v="Chino Valley Freeway"/>
    <tag k="oneway" v="yes"/>
    <tag k="ref" v="CA 71"/>
  </way>
  <way id="29461686" version="4" timestamp="2010-03-28T00:43:43Z" uid="20587" user="balrog-kun" changeset="4250871">
    <nd ref="324700336"/>
    <nd ref="32599432"/>
    <nd ref="324700338"/>
    <nd ref="32581222"/>
    <nd ref="324700487"/>
    <nd ref="324707559"/>
    <tag k="bridge" v="yes"/>
    <tag k="highway" v="motorway"/>
    <tag k="layer" v="1"/>
    <tag k="name" v="Chino Valley Freeway"/>
    <tag k="oneway" v="yes"/>
    <tag k="ref" v="CA 71"/>
  </way>
  <way id="29461687" version="3" timestamp="2010-03-28T00:43:43Z" uid="20587" user="balrog-kun" changeset="4250871">
    <nd ref="324700335"/>
    <nd ref="32581146"/>
    <nd ref="324700667"/>
    <nd ref="55224426"/>
    <nd ref="32583655"/>
    <nd ref="32583656"/>
    <nd ref="32581150"/>
    <tag k="highway" v="motorway"/>
    <tag k="name" v="Chino Valley Freeway"/>
    <tag k="oneway" v="yes"/>
    <tag k="ref" v="CA 71"/>
  </way>
  <way id="29461697" version="4" timestamp="2010-03-28T00:43:44Z" uid="20587" user="balrog-kun" changeset="4250871">
    <nd ref="324700476"/>
    <nd ref="324700470"/>
    <nd ref="324700647"/>
    <nd ref="324700411"/>
    <tag k="highway" v="motorway"/>
    <tag k="name" v="Pomona Freeway"/>
    <tag k="oneway" v="yes"/>
    <tag k="ref" v="CA 60"/>
  </way>
  <way id="29461700" version="12" timestamp="2010-03-28T00:43:44Z" uid="20587" user="balrog-kun" changeset="4250871">
    <nd ref="324700411"/>
    <nd ref="324700414"/>
    <tag k="bridge" v="yes"/>
    <tag k="highway" v="motorway"/>
    <tag k="layer" v="1"/>
    <tag k="name" v="Pomona Freeway"/>
    <tag k="oneway" v="yes"/>
    <tag k="ref" v="CA 60"/>
  </way>
  <way id="29461702" version="6" timestamp="2010-03-28T00:43:44Z" uid="20587" user="balrog-kun" changeset="4250871">
    <nd ref="407275017"/>
    <nd ref="407275052"/>
    <nd ref="15390933"/>
    <nd ref="407275063"/>
    <nd ref="407275064"/>
    <nd ref="407275069"/>
    <nd ref="407275077"/>
    <nd ref="15390934"/>
    <nd ref="407275083"/>
    <nd ref="407275087"/>
    <nd ref="407275092"/>
    <nd ref="407275096"/>
    <nd ref="15390936"/>
    <nd ref="407275100"/>
    <nd ref="407275102"/>
    <nd ref="523352898"/>
    <nd ref="407275117"/>
    <nd ref="407275130"/>
    <nd ref="15390937"/>
    <nd ref="324852252"/>
    <nd ref="55120312"/>
    <nd ref="324852197"/>
    <nd ref="407275277"/>
    <nd ref="324700674"/>
    <nd ref="324707557"/>
    <nd ref="324700671"/>
    <nd ref="324700672"/>
    <nd ref="15390938"/>
    <nd ref="324700386"/>
    <nd ref="324700668"/>
    <nd ref="324700418"/>
    <nd ref="324700388"/>
    <nd ref="15390939"/>
    <nd ref="324700408"/>
    <tag k="highway" v="motorway"/>
    <tag k="name" v="Pomona Freeway"/>
    <tag k="oneway" v="yes"/>
    <tag k="ref" v="CA 60"/>
  </way>
  <way id="29461703" version="4" timestamp="2010-03-28T00:43:44Z" uid="20587" user="balrog-kun" changeset="4250871">
    <nd ref="324700408"/>
    <nd ref="324700407"/>
    <tag k="bridge" v="yes"/>
    <tag k="highway" v="motorway"/>
    <tag k="layer" v="1"/>
    <tag k="name" v="Pomona Freeway"/>
    <tag k="oneway" v="yes"/>
    <tag k="ref" v="CA 60"/>
  </way>
  <way id="29461705" version="4" timestamp="2010-03-28T00:43:45Z" uid="20587" user="balrog-kun" changeset="4250871">
    <nd ref="324777653"/>
    <nd ref="324777745"/>
    <nd ref="56859369"/>
    <nd ref="324700472"/>
    <nd ref="324700475"/>
    <tag k="highway" v="motorway"/>
    <tag k="name" v="Pomona Freeway"/>
    <tag k="oneway" v="yes"/>
    <tag k="ref" v="CA 60"/>
  </way>
  <way id="29461706" version="4" timestamp="2010-03-28T00:43:45Z" uid="20587" user="balrog-kun" changeset="4250871">
    <nd ref="324700475"/>
    <nd ref="324700476"/>
    <tag k="bridge" v="yes"/>
    <tag k="highway" v="motorway"/>
    <tag k="layer" v="1"/>
    <tag k="name" v="Pomona Freeway"/>
    <tag k="oneway" v="yes"/>
    <tag k="ref" v="CA 60"/>
  </way>
  <way id="29461707" version="4" timestamp="2010-03-28T00:43:45Z" uid="20587" user="balrog-kun" changeset="4250871">
    <nd ref="324700407"/>
    <nd ref="324700406"/>
    <nd ref="324700646"/>
    <nd ref="324700471"/>
    <tag k="highway" v="motorway"/>
    <tag k="name" v="Pomona Freeway"/>
    <tag k="oneway" v="yes"/>
    <tag k="ref" v="CA 60"/>
  </way>
  <way id="29461708" version="5" timestamp="2010-03-28T00:43:45Z" uid="20587" user="balrog-kun" changeset="4250871">
    <nd ref="324700471"/>
    <nd ref="324700474"/>
    <tag k="bridge" v="yes"/>
    <tag k="highway" v="motorway"/>
    <tag k="layer" v="1"/>
    <tag k="name" v="Pomona Freeway"/>
    <tag k="oneway" v="yes"/>
    <tag k="ref" v="CA 60"/>
  </way>
  <way id="29461712" version="2" timestamp="2010-03-28T00:43:45Z" uid="20587" user="balrog-kun" changeset="4250871">
    <nd ref="123220465"/>
    <nd ref="123220468"/>
    <tag k="bridge" v="yes"/>
    <tag k="highway" v="tertiary"/>
    <tag k="layer" v="1"/>
    <tag k="name" v="Rio Rancho Road"/>
    <tag k="tiger:cfcc" v="A41"/>
    <tag k="tiger:county" v="Los Angeles, CA"/>
    <tag k="tiger:name_base" v="Rio Rancho"/>
    <tag k="tiger:name_type" v="Rd"/>
    <tag k="tiger:reviewed" v="no"/>
    <tag k="tiger:separated" v="no"/>
    <tag k="tiger:source" v="tiger_import_dch_v0.6_20070809"/>
    <tag k="tiger:tlid" v="141772255:141735281:141735296:141820132:141735307:141798681:141735279:141731190:141771963:141731207:141731198:141731135:141776232:141771967:141771969:142667929"/>
    <tag k="tiger:zip_left" v="91766"/>
    <tag k="tiger:zip_right" v="91766"/>
  </way>
  <way id="29461715" version="4" timestamp="2010-03-28T00:43:45Z" uid="20587" user="balrog-kun" changeset="4250871">
    <nd ref="123220468"/>
    <nd ref="123220473"/>
    <nd ref="123220477"/>
    <nd ref="123220481"/>
    <nd ref="122572031"/>
    <nd ref="123220489"/>
    <nd ref="123220492"/>
    <nd ref="123220495"/>
    <nd ref="123085935"/>
    <nd ref="123220497"/>
    <nd ref="122682711"/>
    <nd ref="123220500"/>
    <nd ref="123220503"/>
    <nd ref="123220506"/>
    <nd ref="123220509"/>
    <nd ref="123220513"/>
    <nd ref="123220515"/>
    <nd ref="123220517"/>
    <nd ref="123085930"/>
    <nd ref="408517701"/>
    <nd ref="408517697"/>
    <nd ref="408517699"/>
    <nd ref="123220519"/>
    <nd ref="123220521"/>
    <nd ref="123220524"/>
    <nd ref="408517702"/>
    <nd ref="123220528"/>
    <nd ref="123220530"/>
    <nd ref="123220532"/>
    <tag k="highway" v="tertiary"/>
    <tag k="name" v="Rio Rancho Road"/>
    <tag k="tiger:cfcc" v="A41"/>
    <tag k="tiger:county" v="Los Angeles, CA"/>
    <tag k="tiger:name_base" v="Rio Rancho"/>
    <tag k="tiger:name_type" v="Rd"/>
    <tag k="tiger:separated" v="no"/>
    <tag k="tiger:source" v="tiger_import_dch_v0.6_20070809"/>
    <tag k="tiger:tlid" v="141772255:141735281:141735296:141820132:141735307:141798681:141735279:141731190:141771963:141731207:141731198:141731135:141776232:141771967:141771969:142667929"/>
    <tag k="tiger:zip_left" v="91766"/>
    <tag k="tiger:zip_right" v="91766"/>
  </way>
  <way id="29461882" version="3" timestamp="2009-02-08T23:44:38Z" uid="6975" user="ulfl" changeset="302124">
    <nd ref="324702996"/>
    <nd ref="324702997"/>
    <nd ref="324702998"/>
    <nd ref="324702999"/>
    <nd ref="324703000"/>
    <nd ref="324703001"/>
    <nd ref="324703002"/>
    <nd ref="324703003"/>
    <nd ref="324703004"/>
    <nd ref="324703005"/>
    <nd ref="324703006"/>
    <nd ref="324703007"/>
    <nd ref="324702996"/>
    <tag k="area" v="yes"/>
    <tag k="building" v="yes"/>
    <tag k="name" v="Palais de Tokyo"/>
    <tag k="tourism" v="museum"/>
  </way>
  <way id="29461976" version="3" timestamp="2010-08-04T17:43:21Z" uid="9581" user="Lobelt" changeset="5401263">
    <nd ref="324704488"/>
    <nd ref="324704506"/>
    <nd ref="324704496"/>
    <nd ref="324704483"/>
    <nd ref="324704428"/>
    <tag k="cables" v="2"/>
    <tag k="frequency" v="16.7"/>
    <tag k="name" v="Datteln - Marl"/>
    <tag k="operator" v="DB_Energie"/>
    <tag k="power" v="line"/>
    <tag k="source" v="Yahoo"/>
    <tag k="voltage" v="110000"/>
    <tag k="wires" v="single"/>
  </way>
  <way id="29461980" version="4" timestamp="2010-08-04T17:41:00Z" uid="9581" user="Lobelt" changeset="5401263">
    <nd ref="324704428"/>
    <nd ref="324704421"/>
    <tag k="cables" v="4"/>
    <tag k="frequency" v="16.7"/>
    <tag k="name" v="Datteln - Marl"/>
    <tag k="operator" v="DB_Energie"/>
    <tag k="power" v="line"/>
    <tag k="source" v="Yahoo"/>
    <tag k="voltage" v="110000"/>
    <tag k="wires" v="single"/>
  </way>
</osm>
