<?xml version='1.0' encoding='UTF-8'?>
<osm version="0.6" generator="libosmium/2.20.0">
  <way id="2949688" version="1" timestamp="2007-09-09T03:09:47Z" uid="7617" user="Franc" changeset="396695">
    <nd ref="13764183"/>
    <nd ref="20930159"/>
    <nd ref="8407285"/>
    <tag k="created_by" v="JOSM"/>
    <tag k="highway" v="secondary"/>
    <tag k="name" v="Rawson Place"/>
  </way>
  <way id="2949689" version="2" timestamp="2008-09-16T08:03:17Z" uid="7617" user="Franc" changeset="648218">
    <nd ref="8109388"/>
    <nd ref="297424107"/>
    <nd ref="13764184"/>
    <tag k="abutters" v="mixed"/>
    <tag k="created_by" v="JOSM"/>
    <tag k="highway" v="unclassified"/>
    <tag k="name" v="Little Regent Street"/>
  </way>
  <way id="2949689" version="3" timestamp="2009-09-22T05:22:05Z" uid="4467" user="Rosscoe" changeset="2564660">
    <nd ref="8109388"/>
    <nd ref="504905125"/>
    <nd ref="297424107"/>
    <nd ref="13764184"/>
    <tag k="abutters" v="mixed"/>
    <tag k="highway" v="unclassified"/>
    <tag k="name" v="Little Regent Street"/>
  </way>
  <way id="2949689" version="5" timestamp="2009-12-24T10:27:51Z" uid="30201" user="rrankin" changeset="3440994">
    <nd ref="8109388"/>
    <nd ref="504905125"/>
    <nd ref="297424107"/>
    <nd ref="13764184"/>
    <tag k="highway" v="unclassified"/>
    <tag k="name" v="Little Regent Street"/>
  </way>
  <way id="2949691" version="1" timestamp="2007-09-09T03:09:48Z" uid="7617" user="Franc" changeset="396695">
    <nd ref="8965938"/>
    <nd ref="13764184"/>
    <nd ref="26526825"/>
    <nd ref="26526862"/>
    <nd ref="8109387"/>
    <tag k="abutters" v="mixed"/>
    <tag k="created_by" v="JOSM"/>
    <tag k="highway" v="primary"/>
    <tag k="name" v="Lee Street"/>
  </way>
  <way id="2949691" version="2" timestamp="2008-09-28T07:31:37Z" uid="7617" user="Franc" changeset="709194">
    <nd ref="8965938"/>
    <nd ref="13764184"/>
    <nd ref="300503041"/>
    <nd ref="300503048"/>
    <nd ref="300503054"/>
    <nd ref="26526825"/>
    <nd ref="26526862"/>
    <nd ref="8109387"/>
    <tag k="abutters" v="mixed"/>
    <tag k="created_by" v="JOSM"/>
    <tag k="highway" v="primary"/>
    <tag k="name" v="Lee Street"/>
  </way>
  <way id="2949691" version="5" timestamp="2009-12-24T10:27:51Z" uid="30201" user="rrankin" changeset="3440994">
    <nd ref="8965938"/>
    <nd ref="13764184"/>
    <nd ref="300503041"/>
    <nd ref="576277099"/>
    <nd ref="300503048"/>
    <nd ref="300503054"/>
    <nd ref="26526825"/>
    <nd ref="26526862"/>
    <nd ref="8109387"/>
    <tag k="highway" v="primary"/>
    <tag k="name" v="Lee Street"/>
  </way>
  <way id="2949692" version="1" timestamp="2007-09-09T03:09:46Z" uid="7617" user="Franc" changeset="396695">
    <nd ref="20827843"/>
    <nd ref="20827842"/>
    <nd ref="20827884"/>
    <nd ref="20930480"/>
    <nd ref="20930478"/>
    <nd ref="20827841"/>
    <nd ref="20930486"/>
    <nd ref="8109404"/>
    <nd ref="13764189"/>
    <nd ref="13764190"/>
    <nd ref="13764188"/>
    <nd ref="8407285"/>
    <nd ref="8109400"/>
    <nd ref="13764182"/>
    <nd ref="32901242"/>
    <nd ref="8109387"/>
    <tag k="created_by" v="Potlatch alpha"/>
    <tag k="highway" v="secondary"/>
    <tag k="name" v="Pitt Street"/>
  </way>
  <way id="2949692" version="3" timestamp="2008-09-28T07:31:35Z" uid="7617" user="Franc" changeset="709194">
    <nd ref="20827843"/>
    <nd ref="20827842"/>
    <nd ref="20827884"/>
    <nd ref="20930480"/>
    <nd ref="20930478"/>
    <nd ref="20827841"/>
    <nd ref="20930486"/>
    <nd ref="8109404"/>
    <nd ref="13764189"/>
    <nd ref="13764190"/>
    <nd ref="13764188"/>
    <nd ref="8407285"/>
    <nd ref="8109400"/>
    <nd ref="13764182"/>
    <nd ref="32901242"/>
    <nd ref="300503160"/>
    <nd ref="8109387"/>
    <tag k="created_by" v="Potlatch alpha"/>
    <tag k="highway" v="secondary"/>
    <tag k="name" v="Pitt Street"/>
  </way>
  <way id="2949692" version="6" timestamp="2010-05-15T02:45:05Z" uid="7617" user="Franc" changeset="4702113">
    <nd ref="20827843"/>
    <nd ref="20827842"/>
    <nd ref="20827884"/>
    <nd ref="20930480"/>
    <nd ref="20930478"/>
    <nd ref="20827841"/>
    <nd ref="20930486"/>
    <nd ref="734825743"/>
    <nd ref="8109404"/>
    <nd ref="13764189"/>
    <nd ref="13764190"/>
    <nd ref="13764188"/>
    <nd ref="8407285"/>
    <nd ref="8109400"/>
    <nd ref="13764182"/>
    <nd ref="32901242"/>
    <nd ref="300503160"/>
    <nd ref="8109387"/>
    <tag k="highway" v="secondary"/>
    <tag k="maxspeed" v="50"/>
    <tag k="name" v="Pitt Street"/>
  </way>
  <way id="2949695" version="1" timestamp="2007-09-16T09:54:58Z" uid="7617" user="Franc" changeset="440397">
    <nd ref="13764193"/>
    <nd ref="20827841"/>
    <nd ref="15405755"/>
    <nd ref="13757740"/>
    <nd ref="20930430"/>
    <nd ref="20930136"/>
    <nd ref="20930202"/>
    <nd ref="13764191"/>
    <tag k="created_by" v="JOSM"/>
    <tag k="highway" v="primary"/>
    <tag k="name" v="Liverpool Street"/>
  </way>
  <way id="2949695" version="2" timestamp="2008-08-31T08:18:18Z" uid="7617" user="Franc" changeset="469164">
    <nd ref="13764191"/>
    <nd ref="20930202"/>
    <nd ref="20930136"/>
    <nd ref="20930430"/>
    <nd ref="13757740"/>
    <tag k="created_by" v="JOSM"/>
    <tag k="highway" v="primary"/>
    <tag k="name" v="Liverpool Street"/>
  </way>
  <way id="2949697" version="1" timestamp="2007-07-18T23:04:57Z" uid="7617" user="Franc" changeset="152538">
    <nd ref="25921201"/>
    <nd ref="25921204"/>
    <nd ref="29824284"/>
    <nd ref="29824285"/>
    <nd ref="29824286"/>
    <nd ref="26375001"/>
    <nd ref="26374965"/>
    <nd ref="29824390"/>
    <tag k="created_by" v="JOSM"/>
    <tag k="highway" v="unclassified"/>
    <tag k="name" v="Liverpool Street"/>
  </way>
  <way id="2949697" version="2" timestamp="2008-11-13T08:38:30Z" uid="7617" user="Franc" changeset="741820">
    <nd ref="25921201"/>
    <nd ref="311720827"/>
    <nd ref="25921204"/>
    <nd ref="29824284"/>
    <nd ref="29824285"/>
    <nd ref="29824286"/>
    <nd ref="26375001"/>
    <nd ref="26374965"/>
    <nd ref="29824390"/>
    <tag k="created_by" v="JOSM"/>
    <tag k="highway" v="unclassified"/>
    <tag k="name" v="Liverpool Street"/>
  </way>
  <way id="2949697" version="4" timestamp="2009-11-29T05:42:59Z" uid="7617" user="Franc" changeset="3242421">
    <nd ref="25921201"/>
    <nd ref="311720827"/>
    <nd ref="25921204"/>
    <nd ref="574186273"/>
    <nd ref="29824284"/>
    <nd ref="29824285"/>
    <nd ref="29824286"/>
    <nd ref="26375001"/>
    <nd ref="26374965"/>
    <nd ref="29824390"/>
    <tag k="highway" v="unclassified"/>
    <tag k="name" v="Liverpool Street"/>
  </way>
  <way id="2949697" version="5" timestamp="2010-03-11T13:24:17Z" uid="7617" user="Franc" changeset="4097674">
    <nd ref="25921201"/>
    <nd ref="311720827"/>
    <nd ref="25921204"/>
    <nd ref="664020902"/>
    <nd ref="574186273"/>
    <nd ref="29824284"/>
    <tag k="highway" v="unclassified"/>
    <tag k="name" v="Liverpool Street"/>
  </way>
  <way id="2949697" version="6" timestamp="2010-10-24T02:05:31Z" uid="7617" user="Franc" changeset="6152962">
    <nd ref="25921201"/>
    <nd ref="311720827"/>
    <nd ref="25921204"/>
    <nd ref="664020902"/>
    <nd ref="962625952"/>
    <nd ref="574186273"/>
    <nd ref="29824284"/>
    <tag k="highway" v="unclassified"/>
    <tag k="name" v="Liverpool Street"/>
  </way>
  <way id="2949702" version="2" timestamp="2009-08-16T04:58:17Z" uid="4467" user="Rosscoe" changeset="2160150">
    <nd ref="8109385"/>
    <nd ref="26526582"/>
    <nd ref="13757633"/>
    <nd ref="13877970"/>
    <nd ref="8109386"/>
    <nd ref="20930164"/>
    <nd ref="20930162"/>
    <nd ref="13764189"/>
    <nd ref="13764210"/>
    <nd ref="13764211"/>
    <tag k="highway" v="unclassified"/>
    <tag k="name" v="Hay Street"/>
    <tag k="railway" v="tram"/>
  </way>
  <way id="2949702" version="4" timestamp="2009-12-24T10:27:58Z" uid="30201" user="rrankin" changeset="3440994">
    <nd ref="8109385"/>
    <nd ref="569936466"/>
    <nd ref="26526582"/>
    <nd ref="13757633"/>
    <nd ref="8109386"/>
    <nd ref="20930164"/>
    <nd ref="20930162"/>
    <nd ref="13764189"/>
    <nd ref="13764210"/>
    <nd ref="13764211"/>
    <tag k="highway" v="unclassified"/>
    <tag k="name" v="Hay Street"/>
    <tag k="railway" v="tram"/>
  </way>
  <way id="2949702" version="5" timestamp="2010-02-10T19:15:44Z" uid="9719" user="dvaey" changeset="3842651">
    <nd ref="8109385"/>
    <nd ref="569936466"/>
    <nd ref="26526582"/>
    <nd ref="13757633"/>
    <nd ref="635148679"/>
    <nd ref="8109386"/>
    <nd ref="20930164"/>
    <nd ref="20930162"/>
    <nd ref="13764189"/>
    <nd ref="13764210"/>
    <nd ref="13764211"/>
    <tag k="highway" v="unclassified"/>
    <tag k="name" v="Hay Street"/>
    <tag k="railway" v="tram"/>
  </way>
  <way id="2949702" version="6" timestamp="2010-02-10T19:18:26Z" uid="9719" user="dvaey" changeset="3842651">
    <nd ref="8109385"/>
    <nd ref="569936466"/>
    <nd ref="26526582"/>
    <nd ref="13757633"/>
    <nd ref="635148679"/>
    <nd ref="8109386"/>
    <nd ref="20930164"/>
    <nd ref="635150591"/>
    <nd ref="20930162"/>
    <nd ref="13764189"/>
    <nd ref="13764210"/>
    <nd ref="13764211"/>
    <tag k="highway" v="unclassified"/>
    <tag k="name" v="Hay Street"/>
    <tag k="railway" v="tram"/>
  </way>
  <way id="2949702" version="7" timestamp="2010-03-21T23:20:52Z" uid="9719" user="dvaey" changeset="4198009">
    <nd ref="8109385"/>
    <nd ref="569936466"/>
    <nd ref="26526582"/>
    <nd ref="13757633"/>
    <nd ref="635148679"/>
    <nd ref="671800023"/>
    <nd ref="8109386"/>
    <nd ref="20930164"/>
    <nd ref="635150591"/>
    <nd ref="20930162"/>
    <nd ref="13764189"/>
    <nd ref="13764210"/>
    <nd ref="13764211"/>
    <tag k="highway" v="unclassified"/>
    <tag k="name" v="Hay Street"/>
    <tag k="railway" v="tram"/>
  </way>
  <way id="2949702" version="11" timestamp="2011-06-14T12:04:53Z" uid="7617" user="Franc" changeset="8436623">
    <nd ref="8109385"/>
    <nd ref="569936466"/>
    <nd ref="26526582"/>
    <nd ref="13757633"/>
    <tag k="highway" v="unclassified"/>
    <tag k="maxspeed" v="50"/>
    <tag k="name" v="Hay Street"/>
    <tag k="railway" v="light_rail"/>
    <tag k="source:maxspeed" v="state_limit"/>
  </way>
  <way id="2949704" version="2" timestamp="2007-10-18T07:57:23Z" uid="7617" user="Franc" changeset="233230"/>
  <way id="2949705" version="1" timestamp="2007-09-09T03:09:39Z" uid="7617" user="Franc" changeset="396695">
    <nd ref="13757742"/>
    <nd ref="15405751"/>
    <nd ref="20827843"/>
    <nd ref="13757743"/>
    <nd ref="18249488"/>
    <nd ref="18249468"/>
    <nd ref="18249478"/>
    <nd ref="8107810"/>
    <tag k="abutters" v="retail"/>
    <tag k="created_by" v="JOSM"/>
    <tag k="highway" v="secondary"/>
    <tag k="name" v="Market Street"/>
    <tag k="oneway" v="yes"/>
  </way>
  <way id="2949705" version="6" timestamp="2010-01-06T00:57:55Z" uid="30201" user="rrankin" changeset="3550442">
    <nd ref="13757742"/>
    <nd ref="15405751"/>
    <nd ref="20827843"/>
    <nd ref="13757743"/>
    <nd ref="18249488"/>
    <nd ref="18249468"/>
    <nd ref="18249478"/>
    <tag k="highway" v="secondary"/>
    <tag k="name" v="Market Street"/>
    <tag k="oneway" v="yes"/>
  </way>
  <way id="2949707" version="3" timestamp="2009-08-16T04:58:19Z" uid="4467" user="Rosscoe" changeset="2160150">
    <nd ref="13764206"/>
    <nd ref="13764207"/>
    <nd ref="469071229"/>
    <tag k="railway" v="rail"/>
  </way>
  <way id="2949707" version="5" timestamp="2010-02-10T15:58:05Z" uid="9719" user="dvaey" changeset="3841229">
    <nd ref="13764206"/>
    <nd ref="635038593"/>
    <nd ref="13764207"/>
    <nd ref="469071229"/>
    <tag k="railway" v="rail"/>
  </way>
  <way id="2949707" version="6" timestamp="2010-02-10T16:23:07Z" uid="9719" user="dvaey" changeset="3841280">
    <nd ref="13764206"/>
    <nd ref="635038593"/>
    <nd ref="635055136"/>
    <nd ref="469071229"/>
    <tag k="railway" v="rail"/>
  </way>
  <way id="2949707" version="7" timestamp="2010-02-10T16:23:30Z" uid="9719" user="dvaey" changeset="3841280">
    <nd ref="13764206"/>
    <nd ref="635055267"/>
    <nd ref="635038593"/>
    <nd ref="635055136"/>
    <nd ref="469071229"/>
    <tag k="railway" v="rail"/>
  </way>
  <way id="2949707" version="8" timestamp="2010-02-10T16:24:19Z" uid="9719" user="dvaey" changeset="3841280">
    <nd ref="13764206"/>
    <nd ref="635055388"/>
    <nd ref="635055267"/>
    <nd ref="635038593"/>
    <nd ref="635055136"/>
    <nd ref="469071229"/>
    <tag k="railway" v="rail"/>
  </way>
  <way id="2949707" version="9" timestamp="2010-02-11T09:40:24Z" uid="9719" user="dvaey" changeset="3846728"/>
  <way id="2949708" version="4" timestamp="2009-08-16T05:06:06Z" uid="4467" user="Rosscoe" changeset="2160169">
    <nd ref="13764210"/>
    <nd ref="13764215"/>
    <nd ref="13764219"/>
    <nd ref="409184761"/>
    <nd ref="13764212"/>
    <nd ref="13764213"/>
    <nd ref="173142758"/>
    <nd ref="13764214"/>
    <nd ref="13764211"/>
    <tag k="oneway" v="yes"/>
    <tag k="railway" v="tram"/>
  </way>
  <way id="2949708" version="5" timestamp="2009-08-16T06:32:15Z" uid="4467" user="Rosscoe" changeset="2160593">
    <nd ref="13764210"/>
    <nd ref="13764215"/>
    <nd ref="13764219"/>
    <nd ref="469083198"/>
    <tag k="oneway" v="yes"/>
    <tag k="railway" v="tram"/>
  </way>
  <way id="2949708" version="7" timestamp="2010-03-21T23:20:43Z" uid="9719" user="dvaey" changeset="4198009">
    <nd ref="13764210"/>
    <nd ref="671799946"/>
    <nd ref="13764215"/>
    <nd ref="13764219"/>
    <nd ref="671799947"/>
    <nd ref="671799949"/>
    <nd ref="671799953"/>
    <nd ref="469083198"/>
    <tag k="oneway" v="yes"/>
    <tag k="railway" v="tram"/>
  </way>
  <way id="2949709" version="1" timestamp="2007-09-16T09:54:59Z" uid="7617" user="Franc" changeset="440397">
    <nd ref="13764196"/>
    <nd ref="26375227"/>
    <nd ref="15401526"/>
    <nd ref="26375228"/>
    <nd ref="26375229"/>
    <tag k="created_by" v="JOSM"/>
    <tag k="highway" v="residential"/>
    <tag k="name" v="Stanley Street"/>
  </way>
  <way id="2949709" version="2" timestamp="2008-11-16T12:33:20Z" uid="7617" user="Franc" changeset="756610">
    <nd ref="13764196"/>
    <nd ref="312484269"/>
    <nd ref="26375227"/>
    <tag k="created_by" v="JOSM"/>
    <tag k="highway" v="residential"/>
    <tag k="name" v="Stanley Street"/>
    <tag k="oneway" v="yes"/>
  </way>
  <way id="2949709" version="4" timestamp="2010-07-07T22:09:32Z" uid="74617" user="JohnSmith" changeset="5161069">
    <nd ref="13764196"/>
    <nd ref="312484269"/>
    <nd ref="26375227"/>
    <tag k="highway" v="residential"/>
    <tag k="maxspeed" v="50"/>
    <tag k="maxspeed:source" v="default residential speed limit in Australia"/>
    <tag k="name" v="Stanley Street"/>
    <tag k="oneway" v="yes"/>
  </way>
  <way id="2949710" version="1" timestamp="2007-09-16T09:54:49Z" uid="7617" user="Franc" changeset="440397">
    <nd ref="13764199"/>
    <nd ref="52584319"/>
    <nd ref="13764198"/>
    <nd ref="26377229"/>
    <tag k="created_by" v="JOSM"/>
    <tag k="highway" v="residential"/>
    <tag k="name" v="Francis Street"/>
  </way>
  <way id="2949710" version="2" timestamp="2008-11-16T12:33:19Z" uid="7617" user="Franc" changeset="756610">
    <nd ref="13764199"/>
    <nd ref="312484248"/>
    <nd ref="52584319"/>
    <nd ref="13764198"/>
    <nd ref="26377229"/>
    <tag k="created_by" v="JOSM"/>
    <tag k="highway" v="residential"/>
    <tag k="name" v="Francis Street"/>
  </way>
  <way id="2949710" version="4" timestamp="2010-07-07T22:10:13Z" uid="74617" user="JohnSmith" changeset="5161069">
    <nd ref="13764199"/>
    <nd ref="312484248"/>
    <nd ref="52584319"/>
    <nd ref="13764198"/>
    <nd ref="26377229"/>
    <tag k="highway" v="residential"/>
    <tag k="maxspeed" v="50"/>
    <tag k="maxspeed:source" v="default residential speed limit in Australia"/>
    <tag k="name" v="Francis Street"/>
  </way>
  <way id="2949893" version="2" timestamp="2008-02-06T04:22:14Z" uid="7617" user="Franc" changeset="52343">
    <nd ref="8965980"/>
    <nd ref="13765745"/>
    <nd ref="13765743"/>
    <tag k="abutters" v="mixed"/>
    <tag k="created_by" v="JOSM"/>
    <tag k="highway" v="unclassified"/>
    <tag k="name" v="O&apos;Connor Street"/>
  </way>
  <way id="2949893" version="3" timestamp="2008-09-08T13:33:47Z" uid="7617" user="Franc" changeset="573936">
    <nd ref="8965980"/>
    <nd ref="13765743"/>
    <tag k="abutters" v="mixed"/>
    <tag k="created_by" v="JOSM"/>
    <tag k="highway" v="unclassified"/>
    <tag k="name" v="O&apos;Connor Street"/>
  </way>
  <way id="2949893" version="5" timestamp="2009-12-24T10:27:52Z" uid="30201" user="rrankin" changeset="3440994">
    <nd ref="8965980"/>
    <nd ref="13765743"/>
    <tag k="highway" v="unclassified"/>
    <tag k="name" v="O&apos;Connor Street"/>
  </way>
  <way id="2949895" version="3" timestamp="2009-12-24T10:27:52Z" uid="30201" user="rrankin" changeset="3440994">
    <nd ref="13765748"/>
    <nd ref="13765738"/>
    <tag k="highway" v="unclassified"/>
    <tag k="name" v="Dick Street"/>
  </way>
  <way id="2949896" version="3" timestamp="2010-07-07T22:11:01Z" uid="74617" user="JohnSmith" changeset="5161069">
    <nd ref="13765719"/>
    <nd ref="13765747"/>
    <tag k="highway" v="residential"/>
    <tag k="maxspeed" v="50"/>
    <tag k="maxspeed:source" v="default residential speed limit in Australia"/>
    <tag k="name" v="Wellington Street"/>
  </way>
  <way id="2949896" version="4" timestamp="2011-03-13T15:22:34Z" uid="4467" user="Rosscoe" changeset="7546162">
    <nd ref="13765719"/>
    <nd ref="13765747"/>
    <tag k="highway" v="residential"/>
    <tag k="maxspeed" v="50"/>
    <tag k="name" v="Wellington Street"/>
    <tag k="source:maxspeed" v="default residential speed limit in Australia"/>
  </way>
  <way id="2949896" version="5" timestamp="2011-05-28T12:51:51Z" uid="7617" user="Franc" changeset="8271467">
    <nd ref="13765719"/>
    <nd ref="1303492240"/>
    <nd ref="13765747"/>
    <tag k="highway" v="residential"/>
    <tag k="maxspeed" v="50"/>
    <tag k="name" v="Wellington Street"/>
    <tag k="source:maxspeed" v="default residential speed limit in Australia"/>
  </way>
  <way id="2949897" version="3" timestamp="2009-12-24T10:27:53Z" uid="30201" user="rrankin" changeset="3440994">
    <nd ref="13765727"/>
    <nd ref="13765733"/>
    <tag k="highway" v="unclassified"/>
    <tag k="name" v="Henrietta Street"/>
  </way>
  <way id="2949898" version="3" timestamp="2010-07-07T22:10:40Z" uid="74617" user="JohnSmith" changeset="5161069">
    <nd ref="13765708"/>
    <nd ref="13765723"/>
    <nd ref="13765737"/>
    <tag k="highway" v="residential"/>
    <tag k="maxspeed" v="50"/>
    <tag k="maxspeed:source" v="default residential speed limit in Australia"/>
    <tag k="name" v="Queen Street"/>
  </way>
  <way id="2949898" version="4" timestamp="2011-03-13T15:21:49Z" uid="4467" user="Rosscoe" changeset="7546162">
    <nd ref="13765708"/>
    <nd ref="13765723"/>
    <nd ref="13765737"/>
    <tag k="highway" v="residential"/>
    <tag k="maxspeed" v="50"/>
    <tag k="name" v="Queen Street"/>
    <tag k="source:maxspeed" v="default residential speed limit in Australia"/>
  </way>
  <way id="2949899" version="5" timestamp="2011-05-28T12:52:14Z" uid="7617" user="Franc" changeset="8271467"/>
  <way id="2949900" version="2" timestamp="2009-01-31T03:01:19Z" uid="7617" user="Franc" changeset="857276">
    <nd ref="13765736"/>
    <nd ref="339267708"/>
    <nd ref="8965964"/>
    <tag k="abutters" v="residential"/>
    <tag k="created_by" v="JOSM"/>
    <tag k="highway" v="unclassified"/>
    <tag k="name" v="Little Queen Street"/>
  </way>
  <way id="2949900" version="4" timestamp="2009-12-24T10:27:52Z" uid="30201" user="rrankin" changeset="3440994">
    <nd ref="13765736"/>
    <nd ref="339267708"/>
    <nd ref="8965964"/>
    <tag k="highway" v="unclassified"/>
    <tag k="name" v="Little Queen Street"/>
  </way>
  <way id="2949901" version="2" timestamp="2007-10-16T08:45:33Z" uid="7617" user="Franc" changeset="200414">
    <nd ref="13886565"/>
    <nd ref="13886566"/>
    <nd ref="13886567"/>
    <nd ref="18802158"/>
    <nd ref="13886568"/>
    <nd ref="13886569"/>
    <nd ref="74961839"/>
    <nd ref="15445774"/>
    <nd ref="15445739"/>
    <tag k="created_by" v="JOSM"/>
    <tag k="highway" v="primary"/>
    <tag k="image" v="80n:dsc04344.jpg"/>
    <tag k="name" v="Regent Street"/>
    <tag k="oneway" v="yes"/>
  </way>
  <way id="2949901" version="3" timestamp="2007-10-16T08:52:00Z" uid="7617" user="Franc" changeset="200414">
    <nd ref="13886565"/>
    <nd ref="13886566"/>
    <nd ref="13886567"/>
    <nd ref="18802158"/>
    <nd ref="13886568"/>
    <nd ref="74967642"/>
    <nd ref="74961839"/>
    <nd ref="15445774"/>
    <nd ref="15445739"/>
    <tag k="created_by" v="JOSM"/>
    <tag k="highway" v="primary"/>
    <tag k="image" v="80n:dsc04344.jpg"/>
    <tag k="name" v="Regent Street"/>
    <tag k="oneway" v="yes"/>
  </way>
  <way id="2949901" version="4" timestamp="2008-03-21T12:08:53Z" uid="7617" user="Franc" changeset="364835">
    <nd ref="13886565"/>
    <nd ref="13886566"/>
    <nd ref="253161197"/>
    <nd ref="18802158"/>
    <nd ref="253161199"/>
    <nd ref="253161198"/>
    <nd ref="13886568"/>
    <nd ref="253161180"/>
    <nd ref="74967642"/>
    <nd ref="74961839"/>
    <nd ref="15445774"/>
    <nd ref="15445739"/>
    <tag k="created_by" v="JOSM"/>
    <tag k="highway" v="primary"/>
    <tag k="image" v="80n:dsc04344.jpg"/>
    <tag k="name" v="Regent Street"/>
    <tag k="oneway" v="yes"/>
  </way>
  <way id="2949901" version="11" timestamp="2009-08-20T08:08:05Z" uid="7617" user="Franc" changeset="2209149">
    <nd ref="13886565"/>
    <nd ref="13886566"/>
    <nd ref="253161197"/>
    <nd ref="471324437"/>
    <nd ref="18802158"/>
    <nd ref="253161199"/>
    <tag k="created_by" v="JOSM"/>
    <tag k="highway" v="primary"/>
    <tag k="image" v="80n:dsc04344.jpg"/>
    <tag k="name" v="Regent Street"/>
    <tag k="oneway" v="yes"/>
  </way>
  <way id="2949901" version="13" timestamp="2009-12-25T00:04:38Z" uid="30201" user="rrankin" changeset="3445648"/>
</osm>
