<?xml version='1.0' encoding='UTF-8'?>
<osm version="0.6" generator="libosmium/2.20.0">
  <way id="29597234" version="4" timestamp="2009-11-02T00:15:26Z" uid="20587" user="balrog-kun" changeset="3012820">
    <nd ref="213636697"/>
    <nd ref="32063370"/>
    <nd ref="32063368"/>
    <nd ref="271132889"/>
    <nd ref="283659899"/>
    <nd ref="29783003"/>
    <nd ref="32063367"/>
    <nd ref="29783004"/>
    <nd ref="32063434"/>
    <nd ref="32063364"/>
    <nd ref="213610666"/>
    <tag k="highway" v="primary"/>
    <tag k="lanes" v="2"/>
    <tag k="name" v="Aleja generała Władysława Andersa"/>
    <tag k="oneway" v="yes"/>
    <tag k="ref" v="79"/>
  </way>
  <way id="29597312" version="3" timestamp="2009-11-02T00:15:26Z" uid="20587" user="balrog-kun" changeset="3012820">
    <nd ref="213610661"/>
    <nd ref="32063436"/>
    <nd ref="32063433"/>
    <nd ref="271132890"/>
    <nd ref="32063431"/>
    <nd ref="283659857"/>
    <nd ref="32063426"/>
    <nd ref="32063425"/>
    <nd ref="32063423"/>
    <tag k="highway" v="primary"/>
    <tag k="lanes" v="2"/>
    <tag k="name" v="Aleja generała Władysława Andersa"/>
    <tag k="oneway" v="yes"/>
    <tag k="ref" v="79"/>
  </way>
</osm>
