<?xml version='1.0' encoding='UTF-8'?>
<osm version="0.6" generator="libosmium/2.20.0">
  <way id="29605002" version="6" timestamp="2009-12-09T02:08:20Z" uid="200463" user="harmagedon" changeset="3330540">
    <nd ref="326114739"/>
    <nd ref="334075263"/>
    <nd ref="334075265"/>
    <nd ref="326121425"/>
    <nd ref="335549658"/>
    <nd ref="326121488"/>
    <nd ref="326113328"/>
    <nd ref="326120040"/>
    <nd ref="326121496"/>
    <nd ref="326121454"/>
    <nd ref="330178660"/>
    <nd ref="326113296"/>
    <nd ref="326115104"/>
    <nd ref="326121500"/>
    <nd ref="326121503"/>
    <nd ref="326121507"/>
    <nd ref="326121517"/>
    <tag k="addr:postcode" v="5280"/>
    <tag k="at:maxspeed" v="Ortsgebiet"/>
    <tag k="highway" v="residential"/>
    <tag k="is_in" v="...,Bezirk Braunau,Oberösterreich,Österreich,Europa"/>
    <tag k="name" v="Raitfeldstraße"/>
    <tag k="note" v="imported from plan.at; (C)=CC-by-sa or oDBL; feel free to change if necessary"/>
    <tag k="plan_at:acad_id" v="br1233A"/>
    <tag k="source" v="plan.at 2009"/>
  </way>
  <way id="29605010" version="6" timestamp="2009-12-09T02:04:48Z" uid="200463" user="harmagedon" changeset="3330540">
    <nd ref="235715909"/>
    <nd ref="326114845"/>
    <nd ref="334513494"/>
    <nd ref="361633104"/>
    <nd ref="326121529"/>
    <nd ref="326119881"/>
    <nd ref="334513495"/>
    <nd ref="326113391"/>
    <nd ref="330178647"/>
    <nd ref="334513496"/>
    <nd ref="326121534"/>
    <nd ref="330178648"/>
    <nd ref="326121540"/>
    <nd ref="334513497"/>
    <nd ref="326121517"/>
    <nd ref="304754026"/>
    <nd ref="326119862"/>
    <nd ref="326115085"/>
    <nd ref="326121549"/>
    <nd ref="326115074"/>
    <nd ref="326121556"/>
    <nd ref="326121561"/>
    <nd ref="326119814"/>
    <nd ref="326121566"/>
    <nd ref="326110613"/>
    <tag k="addr:postcode" v="5280"/>
    <tag k="at:maxspeed" v="Ortsgebiet"/>
    <tag k="highway" v="tertiary"/>
    <tag k="is_in" v="...,Bezirk Braunau,Oberösterreich,Österreich,Europa"/>
    <tag k="name" v="Haselbacher Straße"/>
    <tag k="note" v="imported from plan.at; (C)=CC-by-sa or oDBL; feel free to change if necessary"/>
    <tag k="plan_at:acad_id" v="br1224C"/>
    <tag k="source" v="plan.at 2009"/>
  </way>
  <way id="29605014" version="4" timestamp="2009-12-09T02:08:51Z" uid="200463" user="harmagedon" changeset="3330540">
    <nd ref="326121582"/>
    <nd ref="270910190"/>
    <tag k="addr:postcode" v="5280"/>
    <tag k="at:maxspeed" v="Ortsgebiet"/>
    <tag k="highway" v="residential"/>
    <tag k="is_in" v="...,Bezirk Braunau,Oberösterreich,Österreich,Europa"/>
    <tag k="name" v="Högenauerstraße"/>
    <tag k="note" v="imported from plan.at; (C)=CC-by-sa or oDBL; feel free to change if necessary"/>
    <tag k="plan_at:acad_id" v="br121D5"/>
    <tag k="source" v="plan.at 2009"/>
  </way>
  <way id="29605017" version="4" timestamp="2009-12-09T02:10:07Z" uid="200463" user="harmagedon" changeset="3330540">
    <nd ref="270910188"/>
    <nd ref="326115095"/>
    <tag k="addr:postcode" v="5280"/>
    <tag k="at:maxspeed" v="Ortsgebiet"/>
    <tag k="highway" v="residential"/>
    <tag k="is_in" v="...,Bezirk Braunau,Oberösterreich,Österreich,Europa"/>
    <tag k="name" v="Krumenauerstraße"/>
    <tag k="note" v="imported from plan.at; (C)=CC-by-sa or oDBL; feel free to change if necessary"/>
    <tag k="plan_at:acad_id" v="br1215E"/>
    <tag k="source" v="plan.at 2009"/>
  </way>
  <way id="29605024" version="5" timestamp="2009-12-09T02:08:50Z" uid="200463" user="harmagedon" changeset="3330540">
    <nd ref="326121610"/>
    <nd ref="334082138"/>
    <nd ref="326121613"/>
    <nd ref="326121616"/>
    <tag k="addr:postcode" v="5280"/>
    <tag k="at:maxspeed" v="Ortsgebiet"/>
    <tag k="highway" v="residential"/>
    <tag k="is_in" v="...,Bezirk Braunau,Oberösterreich,Österreich,Europa"/>
    <tag k="name" v="Teichstraße"/>
    <tag k="note" v="imported from plan.at; (C)=CC-by-sa or oDBL; feel free to change if necessary"/>
    <tag k="plan_at:acad_id" v="br120E7"/>
    <tag k="source" v="plan.at 2009"/>
  </way>
  <way id="29605036" version="4" timestamp="2009-12-09T02:08:50Z" uid="200463" user="harmagedon" changeset="3330540">
    <nd ref="326121632"/>
    <nd ref="326121635"/>
    <nd ref="270910193"/>
    <tag k="addr:postcode" v="5280"/>
    <tag k="at:maxspeed" v="Ortsgebiet"/>
    <tag k="highway" v="residential"/>
    <tag k="is_in" v="...,Bezirk Braunau,Oberösterreich,Österreich,Europa"/>
    <tag k="name" v="Kaspar-Sing-Straße"/>
    <tag k="note" v="imported from plan.at; (C)=CC-by-sa or oDBL; feel free to change if necessary"/>
    <tag k="plan_at:acad_id" v="br12011"/>
    <tag k="source" v="plan.at 2009"/>
  </way>
  <way id="29605054" version="4" timestamp="2009-12-09T02:08:51Z" uid="200463" user="harmagedon" changeset="3330540">
    <nd ref="326114749"/>
    <nd ref="326119956"/>
    <nd ref="326119966"/>
    <nd ref="326121671"/>
    <nd ref="326119912"/>
    <nd ref="326121675"/>
    <nd ref="326113572"/>
    <nd ref="326121645"/>
    <nd ref="326121677"/>
    <nd ref="326121679"/>
    <nd ref="326121682"/>
    <nd ref="326121686"/>
    <nd ref="335549886"/>
    <nd ref="326121689"/>
    <nd ref="326121693"/>
    <tag k="addr:postcode" v="5280"/>
    <tag k="at:maxspeed" v="Ortsgebiet"/>
    <tag k="highway" v="residential"/>
    <tag k="is_in" v="...,Bezirk Braunau,Oberösterreich,Österreich,Europa"/>
    <tag k="name" v="Laaber Holzweg"/>
    <tag k="note" v="imported from plan.at; (C)=CC-by-sa or oDBL; feel free to change if necessary"/>
    <tag k="plan_at:acad_id" v="br11F3B"/>
    <tag k="source" v="plan.at 2009"/>
  </way>
  <way id="29605065" version="5" timestamp="2009-12-09T02:08:19Z" uid="200463" user="harmagedon" changeset="3330540">
    <nd ref="326121704"/>
    <nd ref="326121706"/>
    <nd ref="326119976"/>
    <nd ref="326121708"/>
    <nd ref="326121682"/>
    <nd ref="326120058"/>
    <nd ref="326113559"/>
    <nd ref="270910194"/>
    <nd ref="335571967"/>
    <nd ref="326120047"/>
    <nd ref="326121714"/>
    <nd ref="330185947"/>
    <nd ref="326121616"/>
    <nd ref="326115095"/>
    <nd ref="335571971"/>
    <nd ref="335571978"/>
    <nd ref="326113609"/>
    <nd ref="335571979"/>
    <nd ref="326121721"/>
    <tag k="addr:postcode" v="5280"/>
    <tag k="at:maxspeed" v="Ortsgebiet"/>
    <tag k="highway" v="residential"/>
    <tag k="is_in" v="...,Bezirk Braunau,Oberösterreich,Österreich,Europa"/>
    <tag k="name" v="Rainerstraße"/>
    <tag k="note" v="imported from plan.at; (C)=CC-by-sa or oDBL; feel free to change if necessary"/>
    <tag k="plan_at:acad_id" v="br11ED0"/>
    <tag k="source" v="plan.at 2009"/>
  </way>
  <way id="29605070" version="4" timestamp="2009-12-09T02:10:34Z" uid="200463" user="harmagedon" changeset="3330540">
    <nd ref="326112306"/>
    <nd ref="245918186"/>
    <nd ref="245918187"/>
    <nd ref="245920038"/>
    <nd ref="326120140"/>
    <nd ref="245918188"/>
    <nd ref="326121737"/>
    <nd ref="326121739"/>
    <nd ref="326121721"/>
    <nd ref="326113906"/>
    <nd ref="335571994"/>
    <nd ref="265792893"/>
    <nd ref="265792877"/>
    <nd ref="326121742"/>
    <nd ref="335571993"/>
    <nd ref="245918195"/>
    <nd ref="335571992"/>
    <nd ref="335571991"/>
    <nd ref="335571988"/>
    <nd ref="326119814"/>
    <tag k="addr:postcode" v="5280"/>
    <tag k="at:maxspeed" v="Ortsgebiet"/>
    <tag k="highway" v="residential"/>
    <tag k="is_in" v="...,Bezirk Braunau,Oberösterreich,Österreich,Europa"/>
    <tag k="name" v="Bahnweg"/>
    <tag k="note" v="imported from plan.at; (C)=CC-by-sa or oDBL; feel free to change if necessary"/>
    <tag k="plan_at:acad_id" v="br11E65"/>
    <tag k="source" v="plan.at 2009"/>
  </way>
  <way id="29605078" version="6" timestamp="2009-12-09T02:08:20Z" uid="200463" user="harmagedon" changeset="3330540">
    <nd ref="326121749"/>
    <nd ref="246099728"/>
    <nd ref="326121753"/>
    <nd ref="326121755"/>
    <nd ref="326121704"/>
    <nd ref="326121757"/>
    <nd ref="326121761"/>
    <nd ref="334075381"/>
    <nd ref="326121693"/>
    <nd ref="326121764"/>
    <nd ref="326121632"/>
    <nd ref="326121767"/>
    <nd ref="334082142"/>
    <nd ref="326121610"/>
    <nd ref="326121770"/>
    <nd ref="334082146"/>
    <nd ref="334082149"/>
    <nd ref="326121774"/>
    <nd ref="334082152"/>
    <nd ref="326121778"/>
    <nd ref="334082154"/>
    <nd ref="245920038"/>
    <tag k="addr:postcode" v="5280"/>
    <tag k="at:maxspeed" v="Ortsgebiet"/>
    <tag k="highway" v="residential"/>
    <tag k="is_in" v="...,Bezirk Braunau,Oberösterreich,Österreich,Europa"/>
    <tag k="name" v="Bahnhofstraße"/>
    <tag k="note" v="imported from plan.at; (C)=CC-by-sa or oDBL; feel free to change if necessary"/>
    <tag k="plan_at:acad_id" v="br11E5F"/>
    <tag k="source" v="plan.at 2009"/>
  </way>
  <way id="29605083" version="5" timestamp="2009-12-09T02:08:49Z" uid="200463" user="harmagedon" changeset="3330540">
    <nd ref="326121791"/>
    <nd ref="335566834"/>
    <nd ref="326121795"/>
    <nd ref="326121798"/>
    <nd ref="334075279"/>
    <nd ref="326110993"/>
    <tag k="addr:postcode" v="5280"/>
    <tag k="at:maxspeed" v="Ortsgebiet"/>
    <tag k="highway" v="residential"/>
    <tag k="is_in" v="...,Bezirk Braunau,Oberösterreich,Österreich,Europa"/>
    <tag k="name" v="Auf der Schanz"/>
    <tag k="note" v="imported from plan.at; (C)=CC-by-sa or oDBL; feel free to change if necessary"/>
    <tag k="plan_at:acad_id" v="br11E59"/>
    <tag k="source" v="plan.at 2009"/>
  </way>
  <way id="29605087" version="4" timestamp="2009-12-09T02:09:16Z" uid="200463" user="harmagedon" changeset="3330540">
    <nd ref="326121802"/>
    <nd ref="326111569"/>
    <tag k="addr:postcode" v="5280"/>
    <tag k="at:maxspeed" v="Ortsgebiet"/>
    <tag k="fixme" v="check import"/>
    <tag k="highway" v="residential"/>
    <tag k="is_in" v="...,Bezirk Braunau,Oberösterreich,Österreich,Europa"/>
    <tag k="name" v="Quergasse"/>
    <tag k="note" v="imported from plan.at; (C)=CC-by-sa or oDBL; feel free to change if necessary"/>
    <tag k="plan_at:acad_id" v="br11DEE"/>
    <tag k="source" v="plan.at 2009"/>
  </way>
  <way id="29605090" version="6" timestamp="2009-12-09T02:09:02Z" uid="200463" user="harmagedon" changeset="3330540">
    <nd ref="326120013"/>
    <nd ref="326120793"/>
    <nd ref="365765206"/>
    <nd ref="326121807"/>
    <nd ref="365765195"/>
    <nd ref="365765209"/>
    <nd ref="326122854"/>
    <tag k="addr:postcode" v="5280"/>
    <tag k="at:maxspeed" v="Ortsgebiet"/>
    <tag k="fixme" v="check import"/>
    <tag k="highway" v="residential"/>
    <tag k="is_in" v="...,Bezirk Braunau,Oberösterreich,Österreich,Europa"/>
    <tag k="name" v="Ringstraße"/>
    <tag k="note" v="imported from plan.at; (C)=CC-by-sa or oDBL; feel free to change if necessary"/>
    <tag k="plan_at:acad_id" v="br11D83"/>
    <tag k="source" v="plan.at 2009"/>
  </way>
  <way id="29605092" version="4" timestamp="2009-12-09T02:09:12Z" uid="200463" user="harmagedon" changeset="3330540">
    <nd ref="326121811"/>
    <nd ref="326111557"/>
    <tag k="addr:postcode" v="5280"/>
    <tag k="at:maxspeed" v="Ortsgebiet"/>
    <tag k="fixme" v="check import"/>
    <tag k="highway" v="residential"/>
    <tag k="is_in" v="...,Bezirk Braunau,Oberösterreich,Österreich,Europa"/>
    <tag k="name" v="Braunau"/>
    <tag k="note" v="imported from plan.at; (C)=CC-by-sa or oDBL; feel free to change if necessary"/>
    <tag k="plan_at:acad_id" v="br11D18"/>
    <tag k="source" v="plan.at 2009"/>
  </way>
  <way id="29605099" version="4" timestamp="2009-12-09T02:08:58Z" uid="200463" user="harmagedon" changeset="3330540">
    <nd ref="326111553"/>
    <nd ref="326121802"/>
    <nd ref="326121822"/>
    <nd ref="326121823"/>
    <tag k="addr:postcode" v="5280"/>
    <tag k="at:maxspeed" v="Ortsgebiet"/>
    <tag k="fixme" v="check import"/>
    <tag k="highway" v="residential"/>
    <tag k="is_in" v="...,Bezirk Braunau,Oberösterreich,Österreich,Europa"/>
    <tag k="name" v="Zeughausgasse"/>
    <tag k="note" v="imported from plan.at; (C)=CC-by-sa or oDBL; feel free to change if necessary"/>
    <tag k="plan_at:acad_id" v="br11D0C"/>
    <tag k="source" v="plan.at 2009"/>
  </way>
  <way id="29605101" version="4" timestamp="2009-12-09T02:09:12Z" uid="200463" user="harmagedon" changeset="3330540">
    <nd ref="326111785"/>
    <nd ref="326121827"/>
    <nd ref="326121830"/>
    <nd ref="326112901"/>
    <nd ref="326111553"/>
    <tag k="addr:postcode" v="5280"/>
    <tag k="at:maxspeed" v="Ortsgebiet"/>
    <tag k="fixme" v="check import"/>
    <tag k="highway" v="residential"/>
    <tag k="is_in" v="...,Bezirk Braunau,Oberösterreich,Österreich,Europa"/>
    <tag k="name" v="Hans-Steininger-Gasse"/>
    <tag k="note" v="imported from plan.at; (C)=CC-by-sa or oDBL; feel free to change if necessary"/>
    <tag k="plan_at:acad_id" v="br11CA1"/>
    <tag k="source" v="plan.at 2009"/>
  </way>
  <way id="29605104" version="4" timestamp="2009-12-09T02:08:48Z" uid="200463" user="harmagedon" changeset="3330540">
    <nd ref="326111766"/>
    <nd ref="326121838"/>
    <nd ref="326121840"/>
    <nd ref="326121843"/>
    <nd ref="326121846"/>
    <nd ref="326111780"/>
    <tag k="addr:postcode" v="5280"/>
    <tag k="at:maxspeed" v="Ortsgebiet"/>
    <tag k="fixme" v="check import"/>
    <tag k="highway" v="residential"/>
    <tag k="is_in" v="...,Bezirk Braunau,Oberösterreich,Österreich,Europa"/>
    <tag k="name" v="Kirchenplatz"/>
    <tag k="note" v="imported from plan.at; (C)=CC-by-sa or oDBL; feel free to change if necessary"/>
    <tag k="plan_at:acad_id" v="br11C36"/>
    <tag k="source" v="plan.at 2009"/>
  </way>
  <way id="29605106" version="4" timestamp="2009-12-09T02:09:39Z" uid="200463" user="harmagedon" changeset="3330540">
    <nd ref="326111769"/>
    <nd ref="326121849"/>
    <tag k="addr:postcode" v="5280"/>
    <tag k="at:maxspeed" v="Ortsgebiet"/>
    <tag k="fixme" v="check import"/>
    <tag k="highway" v="residential"/>
    <tag k="is_in" v="...,Bezirk Braunau,Oberösterreich,Österreich,Europa"/>
    <tag k="name" v="Kleine Kirchengasse"/>
    <tag k="note" v="imported from plan.at; (C)=CC-by-sa or oDBL; feel free to change if necessary"/>
    <tag k="plan_at:acad_id" v="br11BCB"/>
    <tag k="source" v="plan.at 2009"/>
  </way>
  <way id="29605109" version="4" timestamp="2009-12-09T02:09:13Z" uid="200463" user="harmagedon" changeset="3330540">
    <nd ref="326111772"/>
    <nd ref="326111780"/>
    <tag k="addr:postcode" v="5280"/>
    <tag k="at:maxspeed" v="Ortsgebiet"/>
    <tag k="fixme" v="check import"/>
    <tag k="highway" v="residential"/>
    <tag k="is_in" v="...,Bezirk Braunau,Oberösterreich,Österreich,Europa"/>
    <tag k="name" v="Kirchenplatz"/>
    <tag k="note" v="imported from plan.at; (C)=CC-by-sa or oDBL; feel free to change if necessary"/>
    <tag k="plan_at:acad_id" v="br11BC7"/>
    <tag k="source" v="plan.at 2009"/>
  </way>
  <way id="29605111" version="4" timestamp="2009-12-09T02:09:03Z" uid="200463" user="harmagedon" changeset="3330540">
    <nd ref="326111772"/>
    <nd ref="326121863"/>
    <tag k="addr:postcode" v="5280"/>
    <tag k="at:maxspeed" v="Ortsgebiet"/>
    <tag k="fixme" v="check import"/>
    <tag k="highway" v="residential"/>
    <tag k="is_in" v="...,Bezirk Braunau,Oberösterreich,Österreich,Europa"/>
    <tag k="name" v="Pfarrhofgasse"/>
    <tag k="note" v="imported from plan.at; (C)=CC-by-sa or oDBL; feel free to change if necessary"/>
    <tag k="plan_at:acad_id" v="br11BC3"/>
    <tag k="source" v="plan.at 2009"/>
  </way>
  <way id="29605114" version="4" timestamp="2009-12-09T02:09:39Z" uid="200463" user="harmagedon" changeset="3330540">
    <nd ref="326121871"/>
    <nd ref="326111766"/>
    <tag k="addr:postcode" v="5280"/>
    <tag k="at:maxspeed" v="Ortsgebiet"/>
    <tag k="fixme" v="check import"/>
    <tag k="highway" v="residential"/>
    <tag k="is_in" v="...,Bezirk Braunau,Oberösterreich,Österreich,Europa"/>
    <tag k="name" v="Kirchengasse"/>
    <tag k="note" v="imported from plan.at; (C)=CC-by-sa or oDBL; feel free to change if necessary"/>
    <tag k="plan_at:acad_id" v="br11B58"/>
    <tag k="source" v="plan.at 2009"/>
  </way>
  <way id="29605118" version="4" timestamp="2009-12-09T02:09:39Z" uid="200463" user="harmagedon" changeset="3330540">
    <nd ref="326121881"/>
    <nd ref="326121871"/>
    <tag k="addr:postcode" v="5280"/>
    <tag k="at:maxspeed" v="Ortsgebiet"/>
    <tag k="fixme" v="check import"/>
    <tag k="highway" v="residential"/>
    <tag k="is_in" v="...,Bezirk Braunau,Oberösterreich,Österreich,Europa"/>
    <tag k="name" v="Poststallgasse"/>
    <tag k="note" v="imported from plan.at; (C)=CC-by-sa or oDBL; feel free to change if necessary"/>
    <tag k="plan_at:acad_id" v="br11AED"/>
    <tag k="source" v="plan.at 2009"/>
  </way>
  <way id="29605124" version="4" timestamp="2009-12-09T02:09:38Z" uid="200463" user="harmagedon" changeset="3330540">
    <nd ref="326121910"/>
    <nd ref="326121915"/>
    <nd ref="326121838"/>
    <tag k="addr:postcode" v="5280"/>
    <tag k="at:maxspeed" v="Ortsgebiet"/>
    <tag k="fixme" v="check import"/>
    <tag k="highway" v="residential"/>
    <tag k="is_in" v="...,Bezirk Braunau,Oberösterreich,Österreich,Europa"/>
    <tag k="name" v="Altstadt"/>
    <tag k="note" v="imported from plan.at; (C)=CC-by-sa or oDBL; feel free to change if necessary"/>
    <tag k="plan_at:acad_id" v="br11A17"/>
    <tag k="source" v="plan.at 2009"/>
  </way>
  <way id="29605131" version="4" timestamp="2009-12-09T02:09:28Z" uid="200463" user="harmagedon" changeset="3330540">
    <nd ref="326111575"/>
    <nd ref="326110831"/>
    <nd ref="326121935"/>
    <nd ref="326110928"/>
    <tag k="addr:postcode" v="5280"/>
    <tag k="at:maxspeed" v="Ortsgebiet"/>
    <tag k="fixme" v="check import"/>
    <tag k="highway" v="residential"/>
    <tag k="is_in" v="...,Bezirk Braunau,Oberösterreich,Österreich,Europa"/>
    <tag k="name" v="Lederergasse"/>
    <tag k="note" v="imported from plan.at; (C)=CC-by-sa or oDBL; feel free to change if necessary"/>
    <tag k="plan_at:acad_id" v="br11A0F"/>
    <tag k="source" v="plan.at 2009"/>
  </way>
  <way id="29605136" version="6" timestamp="2009-12-09T02:09:47Z" uid="200463" user="harmagedon" changeset="3330540">
    <nd ref="244410678"/>
    <nd ref="245920010"/>
    <nd ref="245920020"/>
    <tag k="addr:postcode" v="5280"/>
    <tag k="at:maxspeed" v="Ortsgebiet"/>
    <tag k="fixme" v="check import"/>
    <tag k="highway" v="residential"/>
    <tag k="is_in" v="...,Bezirk Braunau,Oberösterreich,Österreich,Europa"/>
    <tag k="name" v="Theatergasse"/>
    <tag k="note" v="imported from plan.at; (C)=CC-by-sa or oDBL; feel free to change if necessary"/>
    <tag k="plan_at:acad_id" v="br118CE"/>
    <tag k="source" v="plan.at 2009"/>
  </way>
  <way id="29605143" version="4" timestamp="2009-12-08T08:42:49Z" uid="200463" user="harmagedon" changeset="3322149">
    <nd ref="326110554"/>
    <nd ref="326121973"/>
    <nd ref="326121979"/>
    <nd ref="326113467"/>
    <nd ref="245920081"/>
    <nd ref="275128190"/>
    <nd ref="326121988"/>
    <nd ref="330185929"/>
    <nd ref="245920071"/>
    <nd ref="334511478"/>
    <nd ref="326113484"/>
    <nd ref="326121991"/>
    <nd ref="334511476"/>
    <nd ref="326121993"/>
    <nd ref="326121997"/>
    <nd ref="241467038"/>
    <nd ref="326114226"/>
    <nd ref="334511473"/>
    <nd ref="334511475"/>
    <nd ref="235574118"/>
    <tag k="addr:postcode" v="5280"/>
    <tag k="at:maxspeed" v="Ortsgebiet"/>
    <tag k="highway" v="residential"/>
    <tag k="is_in" v="...,Bezirk Braunau,Oberösterreich,Österreich,Europa"/>
    <tag k="name" v="Industriezeile"/>
    <tag k="note" v="imported from plan.at; (C)=CC-by-sa or oDBL; feel free to change if necessary"/>
    <tag k="plan_at:acad_id" v="br118CA"/>
    <tag k="source" v="plan.at 2009"/>
    <tag k="uploaded_by" v="Wolfgang W. Wasserburger"/>
  </way>
  <way id="29605143" version="5" timestamp="2009-12-09T02:07:42Z" uid="200463" user="harmagedon" changeset="3330540">
    <nd ref="326110554"/>
    <nd ref="326121973"/>
    <nd ref="326121979"/>
    <nd ref="326113467"/>
    <nd ref="245920081"/>
    <nd ref="275128190"/>
    <nd ref="326121988"/>
    <nd ref="330185929"/>
    <nd ref="245920071"/>
    <nd ref="334511478"/>
    <nd ref="326113484"/>
    <nd ref="326121991"/>
    <nd ref="334511476"/>
    <nd ref="326121993"/>
    <nd ref="326121997"/>
    <nd ref="241467038"/>
    <nd ref="326114226"/>
    <nd ref="334511473"/>
    <nd ref="334511475"/>
    <nd ref="235574118"/>
    <tag k="addr:postcode" v="5280"/>
    <tag k="at:maxspeed" v="Ortsgebiet"/>
    <tag k="highway" v="residential"/>
    <tag k="is_in" v="...,Bezirk Braunau,Oberösterreich,Österreich,Europa"/>
    <tag k="name" v="Industriezeile"/>
    <tag k="note" v="imported from plan.at; (C)=CC-by-sa or oDBL; feel free to change if necessary"/>
    <tag k="plan_at:acad_id" v="br118CA"/>
    <tag k="source" v="plan.at 2009"/>
  </way>
  <way id="29605150" version="3" timestamp="2009-12-08T08:43:03Z" uid="200463" user="harmagedon" changeset="3322149">
    <nd ref="326110554"/>
    <nd ref="326122011"/>
    <nd ref="326122015"/>
    <nd ref="326122020"/>
    <nd ref="326122023"/>
    <nd ref="326122027"/>
    <nd ref="326122031"/>
    <nd ref="326113412"/>
    <nd ref="326113339"/>
    <nd ref="326122034"/>
    <tag k="addr:postcode" v="5280"/>
    <tag k="at:maxspeed" v="Ortsgebiet"/>
    <tag k="fixme" v="check import"/>
    <tag k="highway" v="residential"/>
    <tag k="is_in" v="...,Bezirk Braunau,Oberösterreich,Österreich,Europa"/>
    <tag k="name" v="Franz-Schubert-Straße"/>
    <tag k="note" v="imported from plan.at; (C)=CC-by-sa or oDBL; feel free to change if necessary"/>
    <tag k="plan_at:acad_id" v="br118C6"/>
    <tag k="source" v="plan.at 2009"/>
    <tag k="uploaded_by" v="Wolfgang W. Wasserburger"/>
  </way>
  <way id="29605150" version="4" timestamp="2009-12-09T02:08:06Z" uid="200463" user="harmagedon" changeset="3330540">
    <nd ref="326110554"/>
    <nd ref="326122011"/>
    <nd ref="326122015"/>
    <nd ref="326122020"/>
    <nd ref="326122023"/>
    <nd ref="326122027"/>
    <nd ref="326122031"/>
    <nd ref="326113412"/>
    <nd ref="326113339"/>
    <nd ref="326122034"/>
    <tag k="addr:postcode" v="5280"/>
    <tag k="at:maxspeed" v="Ortsgebiet"/>
    <tag k="fixme" v="check import"/>
    <tag k="highway" v="residential"/>
    <tag k="is_in" v="...,Bezirk Braunau,Oberösterreich,Österreich,Europa"/>
    <tag k="name" v="Franz-Schubert-Straße"/>
    <tag k="note" v="imported from plan.at; (C)=CC-by-sa or oDBL; feel free to change if necessary"/>
    <tag k="plan_at:acad_id" v="br118C6"/>
    <tag k="source" v="plan.at 2009"/>
  </way>
  <way id="29605170" version="4" timestamp="2009-12-08T08:43:53Z" uid="200463" user="harmagedon" changeset="3322149">
    <nd ref="326119711"/>
    <nd ref="326122048"/>
    <nd ref="326122050"/>
    <nd ref="326122054"/>
    <nd ref="326122057"/>
    <nd ref="334510652"/>
    <tag k="addr:postcode" v="5280"/>
    <tag k="at:maxspeed" v="Ortsgebiet"/>
    <tag k="fixme" v="check import"/>
    <tag k="highway" v="track"/>
    <tag k="is_in" v="...,Bezirk Braunau,Oberösterreich,Österreich,Europa"/>
    <tag k="name" v="Weg"/>
    <tag k="note" v="imported from plan.at; (C)=CC-by-sa or oDBL; feel free to change if necessary"/>
    <tag k="plan_at:acad_id" v="br117F0"/>
    <tag k="source" v="plan.at 2009"/>
    <tag k="uploaded_by" v="Wolfgang W. Wasserburger"/>
  </way>
  <way id="29605170" version="5" timestamp="2009-12-09T02:11:01Z" uid="200463" user="harmagedon" changeset="3330540">
    <nd ref="326119711"/>
    <nd ref="326122048"/>
    <nd ref="326122050"/>
    <nd ref="326122054"/>
    <nd ref="326122057"/>
    <nd ref="334510652"/>
    <tag k="addr:postcode" v="5280"/>
    <tag k="at:maxspeed" v="Ortsgebiet"/>
    <tag k="fixme" v="check import"/>
    <tag k="highway" v="track"/>
    <tag k="is_in" v="...,Bezirk Braunau,Oberösterreich,Österreich,Europa"/>
    <tag k="name" v="Weg"/>
    <tag k="note" v="imported from plan.at; (C)=CC-by-sa or oDBL; feel free to change if necessary"/>
    <tag k="plan_at:acad_id" v="br117F0"/>
    <tag k="source" v="plan.at 2009"/>
  </way>
  <way id="29605177" version="5" timestamp="2009-12-09T02:04:42Z" uid="200463" user="harmagedon" changeset="3330540">
    <nd ref="326121540"/>
    <nd ref="326122133"/>
    <nd ref="326122137"/>
    <nd ref="330178649"/>
    <nd ref="326119853"/>
    <nd ref="326122140"/>
    <nd ref="326116888"/>
    <nd ref="326122143"/>
    <nd ref="330178655"/>
    <nd ref="326122148"/>
    <nd ref="330178650"/>
    <nd ref="326110589"/>
    <nd ref="326122153"/>
    <nd ref="326122158"/>
    <nd ref="276074006"/>
    <nd ref="326122165"/>
    <tag k="addr:postcode" v="5280"/>
    <tag k="at:maxspeed" v="Ortsgebiet"/>
    <tag k="highway" v="residential"/>
    <tag k="is_in" v="...,Bezirk Braunau,Oberösterreich,Österreich,Europa"/>
    <tag k="name" v="Lachweg"/>
    <tag k="note" v="imported from plan.at; (C)=CC-by-sa or oDBL; feel free to change if necessary"/>
    <tag k="plan_at:acad_id" v="br11785"/>
    <tag k="source" v="plan.at 2009"/>
  </way>
  <way id="29605184" version="6" timestamp="2009-12-09T02:07:32Z" uid="200463" user="harmagedon" changeset="3330540">
    <nd ref="235715872"/>
    <nd ref="235715964"/>
    <tag k="addr:postcode" v="5280"/>
    <tag k="at:maxspeed" v="Ortsgebiet"/>
    <tag k="highway" v="tertiary"/>
    <tag k="is_in" v="...,Bezirk Braunau,Oberösterreich,Österreich,Europa"/>
    <tag k="name" v="Auf der Haiden"/>
    <tag k="note" v="imported from plan.at; (C)=CC-by-sa or oDBL; feel free to change if necessary"/>
    <tag k="plan_at:acad_id" v="br11781"/>
    <tag k="source" v="plan.at 2009"/>
  </way>
  <way id="29605201" version="4" timestamp="2009-12-09T02:04:41Z" uid="200463" user="harmagedon" changeset="3330540">
    <nd ref="326111867"/>
    <nd ref="326122211"/>
    <nd ref="326122214"/>
    <nd ref="326122218"/>
    <nd ref="326122221"/>
    <nd ref="326122222"/>
    <nd ref="326122223"/>
    <nd ref="326122224"/>
    <nd ref="326122225"/>
    <nd ref="326122227"/>
    <nd ref="326122229"/>
    <nd ref="326122231"/>
    <nd ref="326122235"/>
    <nd ref="326117835"/>
    <nd ref="326122238"/>
    <nd ref="326122241"/>
    <nd ref="330442425"/>
    <nd ref="330442426"/>
    <nd ref="330442427"/>
    <nd ref="326122246"/>
    <nd ref="330442428"/>
    <nd ref="326122249"/>
    <nd ref="326122252"/>
    <nd ref="326117874"/>
    <nd ref="326122254"/>
    <nd ref="326122256"/>
    <nd ref="326122260"/>
    <nd ref="326122265"/>
    <nd ref="289348001"/>
    <nd ref="326122269"/>
    <nd ref="289347999"/>
    <tag k="addr:postcode" v="5280"/>
    <tag k="at:maxspeed" v="Ortsgebiet"/>
    <tag k="fixme" v="check import"/>
    <tag k="highway" v="unclassified"/>
    <tag k="is_in" v="...,Bezirk Braunau,Oberösterreich,Österreich,Europa"/>
    <tag k="name" v="Talstraße"/>
    <tag k="note" v="imported from plan.at; (C)=CC-by-sa or oDBL; feel free to change if necessary"/>
    <tag k="plan_at:acad_id" v="br1177D"/>
    <tag k="source" v="plan.at 2009"/>
  </way>
  <way id="29605204" version="3" timestamp="2009-12-08T08:42:27Z" uid="200463" user="harmagedon" changeset="3322149">
    <nd ref="326114056"/>
    <nd ref="326110780"/>
    <nd ref="326110770"/>
    <nd ref="330444239"/>
    <nd ref="326110774"/>
    <tag k="addr:postcode" v="5280"/>
    <tag k="at:maxspeed" v="Ortsgebiet"/>
    <tag k="highway" v="living_street"/>
    <tag k="is_in" v="...,Bezirk Braunau,Oberösterreich,Österreich,Europa"/>
    <tag k="name" v="Fleschenfeldstraße"/>
    <tag k="note" v="imported from plan.at; (C)=CC-by-sa or oDBL; feel free to change if necessary"/>
    <tag k="plan_at:acad_id" v="br11712"/>
    <tag k="source" v="plan.at 2009"/>
    <tag k="uploaded_by" v="Wolfgang W. Wasserburger"/>
  </way>
  <way id="29605204" version="4" timestamp="2009-12-09T02:07:04Z" uid="200463" user="harmagedon" changeset="3330540">
    <nd ref="326114056"/>
    <nd ref="326110780"/>
    <nd ref="326110770"/>
    <nd ref="330444239"/>
    <nd ref="326110774"/>
    <tag k="addr:postcode" v="5280"/>
    <tag k="at:maxspeed" v="Ortsgebiet"/>
    <tag k="highway" v="living_street"/>
    <tag k="is_in" v="...,Bezirk Braunau,Oberösterreich,Österreich,Europa"/>
    <tag k="name" v="Fleschenfeldstraße"/>
    <tag k="note" v="imported from plan.at; (C)=CC-by-sa or oDBL; feel free to change if necessary"/>
    <tag k="plan_at:acad_id" v="br11712"/>
    <tag k="source" v="plan.at 2009"/>
  </way>
  <way id="29605209" version="4" timestamp="2009-12-09T02:07:05Z" uid="200463" user="harmagedon" changeset="3330540">
    <nd ref="326122288"/>
    <nd ref="326122292"/>
    <nd ref="326122296"/>
    <nd ref="326122303"/>
    <nd ref="326122305"/>
    <nd ref="326122308"/>
    <nd ref="326117306"/>
    <tag k="addr:postcode" v="5280"/>
    <tag k="at:maxspeed" v="Ortsgebiet"/>
    <tag k="highway" v="residential"/>
    <tag k="is_in" v="...,Bezirk Braunau,Oberösterreich,Österreich,Europa"/>
    <tag k="name" v="Mozartstraße"/>
    <tag k="note" v="imported from plan.at; (C)=CC-by-sa or oDBL; feel free to change if necessary"/>
    <tag k="plan_at:acad_id" v="br116A7"/>
    <tag k="source" v="plan.at 2009"/>
  </way>
  <way id="29605213" version="4" timestamp="2009-12-09T02:07:17Z" uid="200463" user="harmagedon" changeset="3330540">
    <nd ref="326120954"/>
    <nd ref="289346787"/>
    <nd ref="326119573"/>
    <nd ref="326120827"/>
    <nd ref="326116851"/>
    <nd ref="326110790"/>
    <tag k="addr:postcode" v="5280"/>
    <tag k="at:maxspeed" v="Ortsgebiet"/>
    <tag k="highway" v="residential"/>
    <tag k="is_in" v="...,Bezirk Braunau,Oberösterreich,Österreich,Europa"/>
    <tag k="name" v="Kranewittweg"/>
    <tag k="note" v="imported from plan.at; (C)=CC-by-sa or oDBL; feel free to change if necessary"/>
    <tag k="plan_at:acad_id" v="br1163C"/>
    <tag k="source" v="plan.at 2009"/>
  </way>
  <way id="29605217" version="5" timestamp="2009-12-09T02:04:39Z" uid="200463" user="harmagedon" changeset="3330540">
    <nd ref="326121134"/>
    <nd ref="326122332"/>
    <nd ref="335538912"/>
    <nd ref="335549641"/>
    <nd ref="326122191"/>
    <tag k="addr:postcode" v="5280"/>
    <tag k="at:maxspeed" v="Ortsgebiet"/>
    <tag k="fixme" v="check import"/>
    <tag k="foot" v="yes"/>
    <tag k="highway" v="cycleway"/>
    <tag k="is_in" v="...,Bezirk Braunau,Oberösterreich,Österreich,Europa"/>
    <tag k="name" v="Auf der Haiden"/>
    <tag k="note" v="imported from plan.at; (C)=CC-by-sa or oDBL; feel free to change if necessary"/>
    <tag k="plan_at:acad_id" v="br115D1"/>
    <tag k="source" v="plan.at 2009"/>
  </way>
  <way id="29605221" version="5" timestamp="2009-12-09T02:04:40Z" uid="200463" user="harmagedon" changeset="3330540">
    <nd ref="326119814"/>
    <nd ref="326122348"/>
    <nd ref="326122352"/>
    <nd ref="335574645"/>
    <nd ref="335574647"/>
    <nd ref="245920052"/>
    <nd ref="275128175"/>
    <nd ref="335574653"/>
    <nd ref="326122357"/>
    <nd ref="275128178"/>
    <nd ref="335574654"/>
    <nd ref="245920057"/>
    <nd ref="335574655"/>
    <nd ref="245920059"/>
    <nd ref="326119762"/>
    <nd ref="245920061"/>
    <nd ref="245920062"/>
    <nd ref="245920063"/>
    <nd ref="334510653"/>
    <nd ref="245920066"/>
    <nd ref="326116965"/>
    <nd ref="335574656"/>
    <nd ref="245920071"/>
    <tag k="addr:postcode" v="5280"/>
    <tag k="at:maxspeed" v="Ortsgebiet"/>
    <tag k="highway" v="residential"/>
    <tag k="is_in" v="...,Bezirk Braunau,Oberösterreich,Österreich,Europa"/>
    <tag k="name" v="Gasteigerstraße"/>
    <tag k="note" v="imported from plan.at; (C)=CC-by-sa or oDBL; feel free to change if necessary"/>
    <tag k="plan_at:acad_id" v="br115CC"/>
    <tag k="source" v="plan.at 2009"/>
  </way>
  <way id="29605227" version="6" timestamp="2009-12-09T02:07:59Z" uid="200463" user="harmagedon" changeset="3330540">
    <nd ref="326114617"/>
    <nd ref="390926472"/>
    <nd ref="326122375"/>
    <nd ref="559614512"/>
    <nd ref="326114961"/>
    <tag k="addr:postcode" v="5280"/>
    <tag k="at:maxspeed" v="Ortsgebiet"/>
    <tag k="fixme" v="check import, Auffahrt"/>
    <tag k="highway" v="trunk"/>
    <tag k="is_in" v="...,Bezirk Braunau,Oberösterreich,Österreich,Europa"/>
    <tag k="name" v="Braunau"/>
    <tag k="note" v="imported from plan.at; (C)=CC-by-sa or oDBL; feel free to change if necessary"/>
    <tag k="plan_at:acad_id" v="br17EB"/>
    <tag k="ref" v="148"/>
    <tag k="source" v="plan.at 2009"/>
  </way>
  <way id="29605251" version="4" timestamp="2009-12-09T02:04:01Z" uid="200463" user="harmagedon" changeset="3330540">
    <nd ref="247320787"/>
    <nd ref="326122433"/>
    <nd ref="326122438"/>
    <nd ref="326122443"/>
    <nd ref="326122447"/>
    <nd ref="326122452"/>
    <nd ref="326102764"/>
    <nd ref="326122456"/>
    <nd ref="326102546"/>
    <nd ref="241884483"/>
    <tag k="addr:postcode" v="5280"/>
    <tag k="at:maxspeed" v="Ortsgebiet"/>
    <tag k="fixme" v="check import"/>
    <tag k="highway" v="tertiary"/>
    <tag k="is_in" v="...,Bezirk Braunau,Oberösterreich,Österreich,Europa"/>
    <tag k="name" v="Blankenbach"/>
    <tag k="note" v="imported from plan.at; (C)=CC-by-sa or oDBL; feel free to change if necessary"/>
    <tag k="plan_at:acad_id" v="br17DF"/>
    <tag k="source" v="plan.at 2009"/>
  </way>
  <way id="29605258" version="6" timestamp="2009-12-08T08:42:33Z" uid="200463" user="harmagedon" changeset="3322149">
    <nd ref="326114660"/>
    <nd ref="326122479"/>
    <nd ref="326122482"/>
    <nd ref="326122487"/>
    <nd ref="365765235"/>
    <nd ref="365765232"/>
    <nd ref="365765226"/>
    <nd ref="326122489"/>
    <tag k="addr:postcode" v="5280"/>
    <tag k="at:maxspeed" v="Ortsgebiet"/>
    <tag k="fixme" v="check import, Auffahrt"/>
    <tag k="highway" v="trunk"/>
    <tag k="is_in" v="...,Bezirk Braunau,Oberösterreich,Österreich,Europa"/>
    <tag k="name" v="Braunau"/>
    <tag k="note" v="imported from plan.at; (C)=CC-by-sa or oDBL; feel free to change if necessary"/>
    <tag k="plan_at:acad_id" v="br17DB"/>
    <tag k="ref" v="147/148"/>
    <tag k="source" v="plan.at 2009"/>
    <tag k="uploaded_by" v="Wolfgang W. Wasserburger"/>
  </way>
  <way id="29605258" version="7" timestamp="2009-12-09T02:07:22Z" uid="200463" user="harmagedon" changeset="3330540">
    <nd ref="326114660"/>
    <nd ref="326122479"/>
    <nd ref="326122482"/>
    <nd ref="326122487"/>
    <nd ref="365765235"/>
    <nd ref="365765232"/>
    <nd ref="365765226"/>
    <nd ref="326122489"/>
    <tag k="addr:postcode" v="5280"/>
    <tag k="at:maxspeed" v="Ortsgebiet"/>
    <tag k="fixme" v="check import, Auffahrt"/>
    <tag k="highway" v="trunk"/>
    <tag k="is_in" v="...,Bezirk Braunau,Oberösterreich,Österreich,Europa"/>
    <tag k="name" v="Braunau"/>
    <tag k="note" v="imported from plan.at; (C)=CC-by-sa or oDBL; feel free to change if necessary"/>
    <tag k="plan_at:acad_id" v="br17DB"/>
    <tag k="ref" v="147/148"/>
    <tag k="source" v="plan.at 2009"/>
  </way>
  <way id="29605262" version="6" timestamp="2009-12-08T08:42:37Z" uid="200463" user="harmagedon" changeset="3322149">
    <nd ref="326122489"/>
    <nd ref="332210287"/>
    <nd ref="326113503"/>
    <tag k="addr:postcode" v="5280"/>
    <tag k="at:maxspeed" v="Ortsgebiet"/>
    <tag k="fixme" v="check import, Auffahrt"/>
    <tag k="highway" v="trunk"/>
    <tag k="is_in" v="...,Bezirk Braunau,Oberösterreich,Österreich,Europa"/>
    <tag k="name" v="Braunau"/>
    <tag k="note" v="imported from plan.at; (C)=CC-by-sa or oDBL; feel free to change if necessary"/>
    <tag k="plan_at:acad_id" v="br17D7"/>
    <tag k="ref" v="147/148"/>
    <tag k="source" v="plan.at 2009"/>
    <tag k="uploaded_by" v="Wolfgang W. Wasserburger"/>
  </way>
  <way id="29605262" version="7" timestamp="2009-12-09T02:07:24Z" uid="200463" user="harmagedon" changeset="3330540">
    <nd ref="326122489"/>
    <nd ref="332210287"/>
    <nd ref="326113503"/>
    <tag k="addr:postcode" v="5280"/>
    <tag k="at:maxspeed" v="Ortsgebiet"/>
    <tag k="fixme" v="check import, Auffahrt"/>
    <tag k="highway" v="trunk"/>
    <tag k="is_in" v="...,Bezirk Braunau,Oberösterreich,Österreich,Europa"/>
    <tag k="name" v="Braunau"/>
    <tag k="note" v="imported from plan.at; (C)=CC-by-sa or oDBL; feel free to change if necessary"/>
    <tag k="plan_at:acad_id" v="br17D7"/>
    <tag k="ref" v="147/148"/>
    <tag k="source" v="plan.at 2009"/>
  </way>
  <way id="29605292" version="4" timestamp="2009-12-09T02:06:07Z" uid="200463" user="harmagedon" changeset="3330540">
    <nd ref="326117865"/>
    <nd ref="326122606"/>
    <nd ref="326111955"/>
    <nd ref="326118725"/>
    <nd ref="326122609"/>
    <nd ref="326122612"/>
    <nd ref="326122614"/>
    <nd ref="326122617"/>
    <nd ref="326122620"/>
    <nd ref="326122623"/>
    <nd ref="326112854"/>
    <nd ref="326122626"/>
    <tag k="addr:postcode" v="5280"/>
    <tag k="at:maxspeed" v="Ortsgebiet"/>
    <tag k="fixme" v="check import"/>
    <tag k="highway" v="secondary"/>
    <tag k="is_in" v="...,Bezirk Braunau,Oberösterreich,Österreich,Europa"/>
    <tag k="name" v="Ranshofner Straße"/>
    <tag k="note" v="imported from plan.at; (C)=CC-by-sa or oDBL; feel free to change if necessary"/>
    <tag k="plan_at:acad_id" v="br17C0"/>
    <tag k="ref" v="L501"/>
    <tag k="source" v="plan.at 2009"/>
  </way>
  <way id="29605297" version="4" timestamp="2009-12-08T08:41:30Z" uid="200463" user="harmagedon" changeset="3322149">
    <nd ref="326117865"/>
    <nd ref="326122632"/>
    <nd ref="326122636"/>
    <nd ref="326118581"/>
    <nd ref="326122637"/>
    <nd ref="326118750"/>
    <nd ref="326118523"/>
    <nd ref="326122638"/>
    <nd ref="235468664"/>
    <tag k="addr:postcode" v="5280"/>
    <tag k="at:maxspeed" v="Ortsgebiet"/>
    <tag k="fixme" v="check import"/>
    <tag k="highway" v="secondary"/>
    <tag k="is_in" v="...,Bezirk Braunau,Oberösterreich,Österreich,Europa"/>
    <tag k="name" v="Untere Hofmark"/>
    <tag k="note" v="imported from plan.at; (C)=CC-by-sa or oDBL; feel free to change if necessary"/>
    <tag k="plan_at:acad_id" v="br17BD"/>
    <tag k="ref" v="L501"/>
    <tag k="source" v="plan.at 2009"/>
    <tag k="uploaded_by" v="Wolfgang W. Wasserburger"/>
  </way>
  <way id="29605297" version="5" timestamp="2009-12-09T02:06:06Z" uid="200463" user="harmagedon" changeset="3330540">
    <nd ref="326117865"/>
    <nd ref="326122632"/>
    <nd ref="326122636"/>
    <nd ref="326118581"/>
    <nd ref="326122637"/>
    <nd ref="326118750"/>
    <nd ref="326118523"/>
    <nd ref="326122638"/>
    <nd ref="235468664"/>
    <tag k="addr:postcode" v="5280"/>
    <tag k="at:maxspeed" v="Ortsgebiet"/>
    <tag k="fixme" v="check import"/>
    <tag k="highway" v="secondary"/>
    <tag k="is_in" v="...,Bezirk Braunau,Oberösterreich,Österreich,Europa"/>
    <tag k="name" v="Untere Hofmark"/>
    <tag k="note" v="imported from plan.at; (C)=CC-by-sa or oDBL; feel free to change if necessary"/>
    <tag k="plan_at:acad_id" v="br17BD"/>
    <tag k="ref" v="L501"/>
    <tag k="source" v="plan.at 2009"/>
  </way>
  <way id="29605319" version="5" timestamp="2009-12-09T02:05:10Z" uid="200463" user="harmagedon" changeset="3330540">
    <nd ref="326122674"/>
    <nd ref="399590627"/>
    <nd ref="326112048"/>
    <nd ref="326122678"/>
    <nd ref="326118799"/>
    <nd ref="326122681"/>
    <nd ref="326122683"/>
    <nd ref="326122684"/>
    <nd ref="326122686"/>
    <nd ref="326122690"/>
    <nd ref="326122693"/>
    <nd ref="326119409"/>
    <nd ref="326122695"/>
    <nd ref="326122697"/>
    <nd ref="326122698"/>
    <nd ref="326122701"/>
    <nd ref="326122704"/>
    <nd ref="326119500"/>
    <nd ref="326108475"/>
    <nd ref="326122710"/>
    <nd ref="326119129"/>
    <tag k="addr:postcode" v="5280"/>
    <tag k="at:maxspeed" v="Ortsgebiet"/>
    <tag k="fixme" v="check import"/>
    <tag k="highway" v="tertiary"/>
    <tag k="is_in" v="...,Bezirk Braunau,Oberösterreich,Österreich,Europa"/>
    <tag k="name" v="Am Hang"/>
    <tag k="note" v="imported from plan.at; (C)=CC-by-sa or oDBL; feel free to change if necessary"/>
    <tag k="plan_at:acad_id" v="br17A7"/>
    <tag k="source" v="plan.at 2009"/>
  </way>
  <way id="29605326" version="4" timestamp="2009-12-09T02:04:43Z" uid="200463" user="harmagedon" changeset="3330540">
    <nd ref="326114056"/>
    <nd ref="326120915"/>
    <nd ref="326120833"/>
    <nd ref="326122738"/>
    <nd ref="326120869"/>
    <nd ref="326120739"/>
    <nd ref="326122743"/>
    <nd ref="326120790"/>
    <nd ref="326122748"/>
    <nd ref="326122752"/>
    <nd ref="326121116"/>
    <tag k="addr:postcode" v="5280"/>
    <tag k="at:maxspeed" v="Ortsgebiet"/>
    <tag k="fixme" v="check import"/>
    <tag k="highway" v="tertiary"/>
    <tag k="is_in" v="...,Bezirk Braunau,Oberösterreich,Österreich,Europa"/>
    <tag k="name" v="Friedhofstraße"/>
    <tag k="note" v="imported from plan.at; (C)=CC-by-sa or oDBL; feel free to change if necessary"/>
    <tag k="plan_at:acad_id" v="br179C"/>
    <tag k="source" v="plan.at 2009"/>
  </way>
  <way id="29605342" version="4" timestamp="2009-12-09T02:08:44Z" uid="200463" user="harmagedon" changeset="3330540">
    <nd ref="326122815"/>
    <nd ref="326122820"/>
    <nd ref="326122827"/>
    <nd ref="326121749"/>
    <nd ref="246100565"/>
    <nd ref="326112232"/>
    <tag k="addr:postcode" v="5280"/>
    <tag k="at:maxspeed" v="Ortsgebiet"/>
    <tag k="fixme" v="check import"/>
    <tag k="highway" v="secondary"/>
    <tag k="is_in" v="...,Bezirk Braunau,Oberösterreich,Österreich,Europa"/>
    <tag k="name" v="Bahnstraße"/>
    <tag k="note" v="imported from plan.at; (C)=CC-by-sa or oDBL; feel free to change if necessary"/>
    <tag k="plan_at:acad_id" v="br177B"/>
    <tag k="source" v="plan.at 2009"/>
  </way>
  <way id="29605368" version="6" timestamp="2009-12-09T02:08:44Z" uid="200463" user="harmagedon" changeset="3330540">
    <nd ref="326112959"/>
    <nd ref="326122815"/>
    <nd ref="326122956"/>
    <nd ref="326122962"/>
    <nd ref="326121791"/>
    <nd ref="326122978"/>
    <nd ref="326111237"/>
    <nd ref="326113055"/>
    <nd ref="244411265"/>
    <nd ref="326122982"/>
    <nd ref="326111050"/>
    <nd ref="326122986"/>
    <nd ref="326111178"/>
    <nd ref="329993239"/>
    <nd ref="326122990"/>
    <nd ref="326110841"/>
    <nd ref="326122994"/>
    <nd ref="326122854"/>
    <tag k="addr:postcode" v="5280"/>
    <tag k="at:maxspeed" v="Ortsgebiet"/>
    <tag k="highway" v="secondary"/>
    <tag k="is_in" v="...,Bezirk Braunau,Oberösterreich,Österreich,Europa"/>
    <tag k="name" v="Ringstraße"/>
    <tag k="note" v="imported from plan.at; (C)=CC-by-sa or oDBL; feel free to change if necessary"/>
    <tag k="plan_at:acad_id" v="br1765"/>
    <tag k="source" v="plan.at 2009"/>
  </way>
  <way id="29605370" version="11" timestamp="2010-03-28T00:44:27Z" uid="20587" user="balrog-kun" changeset="4250871">
    <nd ref="326122996"/>
    <nd ref="91027571"/>
    <nd ref="670924077"/>
    <nd ref="91027573"/>
    <nd ref="670924081"/>
    <nd ref="91027575"/>
    <nd ref="91027577"/>
    <nd ref="428595983"/>
    <nd ref="410138949"/>
    <tag k="highway" v="residential"/>
    <tag k="name" v="Highland Avenue"/>
    <tag k="tiger:cfcc" v="A41"/>
    <tag k="tiger:county" v="Santa Cruz, CA"/>
    <tag k="tiger:name_base" v="Highland"/>
    <tag k="tiger:name_type" v="Ave"/>
    <tag k="tiger:reviewed" v="no"/>
    <tag k="tiger:separated" v="no"/>
    <tag k="tiger:source" v="tiger_import_dch_v0.6_20070809"/>
    <tag k="tiger:tlid" v="125505424:125505427:125505442:125505443:125505444:125505991:125505992:125505994:125505448:125506016"/>
    <tag k="tiger:zip_left" v="95060"/>
    <tag k="tiger:zip_right" v="95060"/>
  </way>
  <way id="29605376" version="6" timestamp="2010-03-28T00:44:27Z" uid="20587" user="balrog-kun" changeset="4250871">
    <nd ref="326122996"/>
    <nd ref="91047710"/>
    <tag k="created_by" v="Potlatch 0.10f"/>
    <tag k="cycleway" v="opposite_lane"/>
    <tag k="highway" v="secondary"/>
    <tag k="name" v="High Street"/>
    <tag k="oneway" v="yes"/>
    <tag k="tiger:cfcc" v="A41"/>
    <tag k="tiger:county" v="Santa Cruz, CA"/>
    <tag k="tiger:name_base" v="High"/>
    <tag k="tiger:name_type" v="St"/>
    <tag k="tiger:reviewed" v="no"/>
    <tag k="tiger:separated" v="no"/>
    <tag k="tiger:source" v="tiger_import_dch_v0.6_20070809"/>
    <tag k="tiger:tlid" v="125505269"/>
  </way>
  <way id="29605379" version="5" timestamp="2009-12-09T02:10:13Z" uid="200463" user="harmagedon" changeset="3330540">
    <nd ref="326112983"/>
    <nd ref="334082129"/>
    <nd ref="334082125"/>
    <nd ref="326123008"/>
    <nd ref="326123015"/>
    <nd ref="326123019"/>
    <nd ref="326123024"/>
    <nd ref="326123031"/>
    <nd ref="334075261"/>
    <nd ref="326123034"/>
    <nd ref="326123037"/>
    <tag k="addr:postcode" v="5280"/>
    <tag k="at:maxspeed" v="Ortsgebiet"/>
    <tag k="fixme" v="check import"/>
    <tag k="highway" v="secondary"/>
    <tag k="is_in" v="...,Bezirk Braunau,Oberösterreich,Österreich,Europa"/>
    <tag k="name" v="Simbacher Straße"/>
    <tag k="note" v="imported from plan.at; (C)=CC-by-sa or oDBL; feel free to change if necessary"/>
    <tag k="plan_at:acad_id" v="br1762"/>
    <tag k="source" v="plan.at 2009"/>
  </way>
  <way id="29605394" version="6" timestamp="2009-12-09T02:04:50Z" uid="200463" user="harmagedon" changeset="3330540">
    <nd ref="235733748"/>
    <nd ref="326123097"/>
    <nd ref="326123104"/>
    <nd ref="326123109"/>
    <nd ref="326123115"/>
    <nd ref="326123121"/>
    <nd ref="326123126"/>
    <nd ref="330178646"/>
    <nd ref="326121448"/>
    <nd ref="326123132"/>
    <nd ref="235733790"/>
    <nd ref="326114831"/>
    <tag k="addr:postcode" v="5280"/>
    <tag k="at:maxspeed" v="Ortsgebiet"/>
    <tag k="highway" v="secondary"/>
    <tag k="is_in" v="...,Bezirk Braunau,Oberösterreich,Österreich,Europa"/>
    <tag k="name" v="Simbacher Straße"/>
    <tag k="note" v="imported from plan.at; (C)=CC-by-sa or oDBL; feel free to change if necessary"/>
    <tag k="plan_at:acad_id" v="br13C2"/>
    <tag k="source" v="plan.at 2009"/>
  </way>
  <way id="29605472" version="11" timestamp="2009-12-09T02:03:32Z" uid="200463" user="harmagedon" changeset="3330540">
    <nd ref="440276722"/>
    <nd ref="440276721"/>
    <nd ref="440276719"/>
    <nd ref="440276718"/>
    <nd ref="440276717"/>
    <nd ref="440276716"/>
    <nd ref="440276715"/>
    <nd ref="440276714"/>
    <nd ref="440276713"/>
    <nd ref="440276712"/>
    <nd ref="440276711"/>
    <nd ref="440276710"/>
    <nd ref="440276709"/>
    <nd ref="440276708"/>
    <nd ref="440276707"/>
    <nd ref="440276706"/>
    <nd ref="440276704"/>
    <nd ref="440276703"/>
    <nd ref="440276702"/>
    <nd ref="440276701"/>
    <nd ref="440276700"/>
    <nd ref="440276699"/>
    <nd ref="440276698"/>
    <nd ref="440276697"/>
    <nd ref="440276696"/>
    <nd ref="440276695"/>
    <nd ref="440276694"/>
    <nd ref="440276693"/>
    <nd ref="440276692"/>
    <nd ref="440276691"/>
    <nd ref="440276690"/>
    <nd ref="440276689"/>
    <nd ref="440276687"/>
    <nd ref="440276686"/>
    <nd ref="440276685"/>
    <nd ref="440276684"/>
    <nd ref="440276683"/>
    <nd ref="440276682"/>
    <nd ref="440276681"/>
    <nd ref="440276680"/>
    <nd ref="440276679"/>
    <nd ref="440276677"/>
    <nd ref="440276676"/>
    <nd ref="440276675"/>
    <nd ref="440293298"/>
    <nd ref="440276674"/>
    <nd ref="440276672"/>
    <nd ref="440276671"/>
    <nd ref="440276670"/>
    <nd ref="440276669"/>
    <nd ref="440276668"/>
    <nd ref="440276667"/>
    <nd ref="440276666"/>
    <nd ref="440276664"/>
    <nd ref="440276663"/>
    <nd ref="440276662"/>
    <nd ref="440276661"/>
    <nd ref="440276660"/>
    <nd ref="440276659"/>
    <nd ref="440276657"/>
    <nd ref="440276656"/>
    <nd ref="440276655"/>
    <nd ref="440276653"/>
    <nd ref="440276652"/>
    <nd ref="440276651"/>
    <nd ref="440276650"/>
    <nd ref="440276649"/>
    <nd ref="440276648"/>
    <nd ref="440276647"/>
    <nd ref="440276646"/>
    <nd ref="440276645"/>
    <nd ref="440276643"/>
    <nd ref="440276642"/>
    <nd ref="440276641"/>
    <nd ref="440276640"/>
    <nd ref="440276639"/>
    <nd ref="440276638"/>
    <nd ref="440276637"/>
    <nd ref="440276636"/>
    <nd ref="440276635"/>
    <nd ref="440276634"/>
    <nd ref="440276633"/>
    <nd ref="440276632"/>
    <nd ref="440276631"/>
    <nd ref="440276630"/>
    <nd ref="440276628"/>
    <nd ref="440276627"/>
    <nd ref="440276604"/>
    <nd ref="440276605"/>
    <nd ref="440276606"/>
    <nd ref="440276608"/>
    <nd ref="440276609"/>
    <nd ref="440276610"/>
    <nd ref="440276611"/>
    <nd ref="440276612"/>
    <nd ref="440276614"/>
    <nd ref="440276615"/>
    <nd ref="440276616"/>
    <nd ref="440276617"/>
    <nd ref="440276619"/>
    <nd ref="440276620"/>
    <nd ref="440276621"/>
    <nd ref="440276624"/>
    <nd ref="440276625"/>
    <nd ref="440276626"/>
    <nd ref="440276603"/>
    <nd ref="440276602"/>
    <nd ref="440276601"/>
    <nd ref="440276600"/>
    <nd ref="440276599"/>
    <nd ref="440276598"/>
    <nd ref="440276596"/>
    <nd ref="440276595"/>
    <nd ref="440276594"/>
    <nd ref="440276593"/>
    <nd ref="440276592"/>
    <nd ref="440276591"/>
    <nd ref="440276590"/>
    <nd ref="440276589"/>
    <nd ref="440276586"/>
    <nd ref="440276585"/>
    <nd ref="440276584"/>
    <nd ref="440276583"/>
    <nd ref="440276582"/>
    <nd ref="440276581"/>
    <nd ref="440276580"/>
    <nd ref="440276579"/>
    <nd ref="440276578"/>
    <nd ref="440276576"/>
    <nd ref="440276575"/>
    <nd ref="440276574"/>
    <nd ref="440276573"/>
    <nd ref="440276572"/>
    <nd ref="440276571"/>
    <nd ref="440276570"/>
    <nd ref="440276569"/>
    <nd ref="440276568"/>
    <nd ref="440276566"/>
    <nd ref="440261065"/>
    <nd ref="440261064"/>
    <nd ref="440261063"/>
    <nd ref="440215815"/>
    <nd ref="440215817"/>
    <nd ref="440215818"/>
    <nd ref="440215819"/>
    <nd ref="440215820"/>
    <nd ref="440215821"/>
    <nd ref="440215823"/>
    <nd ref="440215824"/>
    <nd ref="440215825"/>
    <nd ref="440215826"/>
    <nd ref="440215827"/>
    <nd ref="440215828"/>
    <nd ref="440215829"/>
    <nd ref="440215831"/>
    <nd ref="440215832"/>
    <nd ref="440215833"/>
    <nd ref="440215834"/>
    <nd ref="326123151"/>
    <nd ref="326123158"/>
    <nd ref="326123164"/>
    <nd ref="326123172"/>
    <nd ref="326123182"/>
    <nd ref="326123196"/>
    <nd ref="326123213"/>
    <nd ref="326123226"/>
    <nd ref="326123240"/>
    <nd ref="326123255"/>
    <nd ref="326123258"/>
    <nd ref="326123262"/>
    <nd ref="326123267"/>
    <nd ref="326123270"/>
    <nd ref="326123276"/>
    <nd ref="326123277"/>
    <nd ref="326123280"/>
    <nd ref="326123282"/>
    <nd ref="326123286"/>
    <nd ref="326123293"/>
    <nd ref="326123298"/>
    <nd ref="326123304"/>
    <nd ref="326123311"/>
    <nd ref="326123314"/>
    <nd ref="326123318"/>
    <nd ref="326123323"/>
    <nd ref="326123328"/>
    <nd ref="326123343"/>
    <nd ref="326123349"/>
    <nd ref="326123353"/>
    <nd ref="326123357"/>
    <nd ref="326123361"/>
    <nd ref="326123364"/>
    <nd ref="326123368"/>
    <nd ref="326123375"/>
    <nd ref="326123379"/>
    <nd ref="326123383"/>
    <nd ref="326123385"/>
    <nd ref="326123387"/>
    <nd ref="326123390"/>
    <nd ref="326123392"/>
    <nd ref="326123394"/>
    <nd ref="326123395"/>
    <nd ref="326123397"/>
    <nd ref="326123399"/>
    <nd ref="326123400"/>
    <nd ref="326123402"/>
    <nd ref="326123404"/>
    <nd ref="326123408"/>
    <nd ref="326123410"/>
    <nd ref="326123411"/>
    <nd ref="326123413"/>
    <nd ref="326123416"/>
    <nd ref="326123418"/>
    <nd ref="326123419"/>
    <nd ref="326123420"/>
    <nd ref="326123423"/>
    <nd ref="326123426"/>
    <nd ref="326123428"/>
    <nd ref="326123433"/>
    <nd ref="326123436"/>
    <nd ref="326123438"/>
    <nd ref="326123440"/>
    <nd ref="326123443"/>
    <nd ref="326123448"/>
    <nd ref="326123451"/>
    <nd ref="326123454"/>
    <nd ref="326123458"/>
    <nd ref="573248727"/>
    <nd ref="326123463"/>
    <nd ref="326123468"/>
    <nd ref="326123469"/>
    <nd ref="326116027"/>
    <nd ref="326123471"/>
    <nd ref="326123474"/>
    <nd ref="326123477"/>
    <nd ref="326123479"/>
    <nd ref="326123482"/>
    <nd ref="326123485"/>
    <nd ref="326123489"/>
    <nd ref="326123491"/>
    <nd ref="326123493"/>
    <nd ref="326123498"/>
    <nd ref="326123503"/>
    <nd ref="326123506"/>
    <nd ref="326123509"/>
    <nd ref="326123513"/>
    <nd ref="326123516"/>
    <nd ref="326116006"/>
    <nd ref="326123519"/>
    <nd ref="326123521"/>
    <nd ref="326123523"/>
    <nd ref="326116002"/>
    <nd ref="326123526"/>
    <nd ref="319148135"/>
    <nd ref="319148134"/>
    <nd ref="326123529"/>
    <nd ref="326123533"/>
    <nd ref="330185988"/>
    <nd ref="316217569"/>
    <nd ref="319148132"/>
    <nd ref="326123535"/>
    <nd ref="326106359"/>
    <nd ref="326123537"/>
    <nd ref="326123541"/>
    <nd ref="326123545"/>
    <nd ref="326106725"/>
    <nd ref="326123549"/>
    <nd ref="326123553"/>
    <nd ref="326123557"/>
    <nd ref="326123560"/>
    <nd ref="326123563"/>
    <nd ref="326123566"/>
    <nd ref="326123572"/>
    <nd ref="326123577"/>
    <nd ref="326123583"/>
    <nd ref="573248744"/>
    <nd ref="326123586"/>
    <tag k="fixme" v="check import"/>
    <tag k="is_in" v="...,Bezirk Braunau,Oberösterreich,Österreich,Europa"/>
    <tag k="name" v="Mattig"/>
    <tag k="note" v="imported from plan.at; (C)=CC-by-sa or oDBL; feel free to change if necessary"/>
    <tag k="plan_at:acad_id" v="br132F"/>
    <tag k="source" v="plan.at 2009 / Yahoo"/>
    <tag k="waterway" v="river"/>
  </way>
  <way id="29605487" version="5" timestamp="2009-12-09T02:08:26Z" uid="200463" user="harmagedon" changeset="3330540">
    <nd ref="310209002"/>
    <nd ref="326123607"/>
    <nd ref="326123613"/>
    <nd ref="326123618"/>
    <nd ref="326123623"/>
    <nd ref="326123627"/>
    <nd ref="326123630"/>
    <nd ref="326123635"/>
    <tag k="bridge" v="yes"/>
    <tag k="fixme" v="check import"/>
    <tag k="is_in" v="...,Bezirk Braunau,Oberösterreich,Österreich,Europa"/>
    <tag k="lanes" v="2"/>
    <tag k="layer" v="1"/>
    <tag k="name" v="ÖBB"/>
    <tag k="note" v="imported from plan.at; (C)=CC-by-sa or oDBL; feel free to change if necessary"/>
    <tag k="plan_at:acad_id" v="br1259"/>
    <tag k="railway" v="rail"/>
    <tag k="source" v="plan.at 2009"/>
  </way>
  <way id="29605516" version="5" timestamp="2009-12-09T02:04:51Z" uid="200463" user="harmagedon" changeset="3330540">
    <nd ref="244408748"/>
    <nd ref="330185937"/>
    <nd ref="326123704"/>
    <nd ref="326123708"/>
    <nd ref="326123712"/>
    <nd ref="326123717"/>
    <nd ref="330185936"/>
    <nd ref="326123721"/>
    <nd ref="326123725"/>
    <nd ref="326123736"/>
    <nd ref="326123745"/>
    <nd ref="330185935"/>
    <nd ref="319147842"/>
    <nd ref="319147843"/>
    <nd ref="330185934"/>
    <nd ref="326122015"/>
    <nd ref="319147846"/>
    <nd ref="330185932"/>
    <nd ref="326123751"/>
    <nd ref="326123756"/>
    <nd ref="326123761"/>
    <nd ref="326123763"/>
    <nd ref="326123777"/>
    <nd ref="326123780"/>
    <nd ref="326123785"/>
    <nd ref="326123789"/>
    <nd ref="326123795"/>
    <nd ref="326123800"/>
    <nd ref="326123806"/>
    <nd ref="326123813"/>
    <nd ref="326123818"/>
    <nd ref="326123822"/>
    <nd ref="326123834"/>
    <nd ref="326123850"/>
    <nd ref="326123856"/>
    <nd ref="326123860"/>
    <nd ref="326123864"/>
    <nd ref="326123869"/>
    <nd ref="326123872"/>
    <nd ref="326123875"/>
    <nd ref="326123880"/>
    <nd ref="326123884"/>
    <nd ref="326123887"/>
    <nd ref="326123891"/>
    <tag k="fixme" v="check import"/>
    <tag k="is_in" v="...,Bezirk Braunau,Oberösterreich,Österreich,Europa"/>
    <tag k="lanes" v="2"/>
    <tag k="name" v="ÖBB"/>
    <tag k="note" v="imported from plan.at; (C)=CC-by-sa or oDBL; feel free to change if necessary"/>
    <tag k="plan_at:acad_id" v="br11EE"/>
    <tag k="railway" v="rail"/>
    <tag k="source" v="plan.at 2009"/>
  </way>
  <way id="29605529" version="4" timestamp="2009-12-08T08:41:23Z" uid="200463" user="harmagedon" changeset="3322149">
    <nd ref="241889465"/>
    <nd ref="245921217"/>
    <nd ref="326113503"/>
    <nd ref="326122502"/>
    <nd ref="245921157"/>
    <nd ref="326113495"/>
    <nd ref="289321002"/>
    <nd ref="326123958"/>
    <nd ref="21519000"/>
    <nd ref="241887644"/>
    <nd ref="241888222"/>
    <nd ref="326123960"/>
    <tag k="addr:postcode" v="5280"/>
    <tag k="at:maxspeed" v="Ortsgebiet"/>
    <tag k="highway" v="trunk"/>
    <tag k="is_in" v="...,Bezirk Braunau,Oberösterreich,Österreich,Europa"/>
    <tag k="name" v="Innviertler Ersatzstraße"/>
    <tag k="note" v="imported from plan.at; (C)=CC-by-sa or oDBL; feel free to change if necessary"/>
    <tag k="plan_at:acad_id" v="br103A"/>
    <tag k="ref" v="B148"/>
    <tag k="source" v="plan.at 2009"/>
    <tag k="uploaded_by" v="Wolfgang W. Wasserburger"/>
  </way>
  <way id="29605529" version="5" timestamp="2009-12-09T02:05:41Z" uid="200463" user="harmagedon" changeset="3330540">
    <nd ref="241889465"/>
    <nd ref="245921217"/>
    <nd ref="326113503"/>
    <nd ref="326122502"/>
    <nd ref="245921157"/>
    <nd ref="326113495"/>
    <nd ref="289321002"/>
    <nd ref="326123958"/>
    <nd ref="21519000"/>
    <nd ref="241887644"/>
    <nd ref="241888222"/>
    <nd ref="326123960"/>
    <tag k="addr:postcode" v="5280"/>
    <tag k="at:maxspeed" v="Ortsgebiet"/>
    <tag k="highway" v="trunk"/>
    <tag k="is_in" v="...,Bezirk Braunau,Oberösterreich,Österreich,Europa"/>
    <tag k="name" v="Innviertler Ersatzstraße"/>
    <tag k="note" v="imported from plan.at; (C)=CC-by-sa or oDBL; feel free to change if necessary"/>
    <tag k="plan_at:acad_id" v="br103A"/>
    <tag k="ref" v="B148"/>
    <tag k="source" v="plan.at 2009"/>
  </way>
  <way id="29605562" version="5" timestamp="2009-12-09T02:05:11Z" uid="200463" user="harmagedon" changeset="3330540">
    <nd ref="326116208"/>
    <nd ref="326124091"/>
    <nd ref="326124097"/>
    <nd ref="326124101"/>
    <nd ref="326124104"/>
    <nd ref="326124106"/>
    <nd ref="326122674"/>
    <nd ref="326115244"/>
    <nd ref="326124110"/>
    <nd ref="326124114"/>
    <nd ref="326124116"/>
    <nd ref="326124121"/>
    <nd ref="326124125"/>
    <nd ref="326124129"/>
    <nd ref="326124132"/>
    <nd ref="326124136"/>
    <nd ref="326124140"/>
    <nd ref="326124145"/>
    <nd ref="326124150"/>
    <tag k="addr:postcode" v="5280"/>
    <tag k="at:maxspeed" v="Ortsgebiet"/>
    <tag k="fixme" v="check import"/>
    <tag k="highway" v="primary"/>
    <tag k="is_in" v="...,Bezirk Braunau,Oberösterreich,Österreich,Europa"/>
    <tag k="name" v="Lamprechtshausener Straße"/>
    <tag k="note" v="imported from plan.at; (C)=CC-by-sa or oDBL; feel free to change if necessary"/>
    <tag k="plan_at:acad_id" v="brFA1"/>
    <tag k="ref" v="B156"/>
    <tag k="source" v="plan.at 2009"/>
  </way>
  <way id="29605570" version="4" timestamp="2009-12-09T02:09:28Z" uid="200463" user="harmagedon" changeset="3330540">
    <nd ref="326124176"/>
    <nd ref="326110905"/>
    <nd ref="326124181"/>
    <nd ref="326111491"/>
    <tag k="addr:postcode" v="5280"/>
    <tag k="at:maxspeed" v="Ortsgebiet"/>
    <tag k="fixme" v="check import"/>
    <tag k="highway" v="residential"/>
    <tag k="is_in" v="...,Bezirk Braunau,Oberösterreich,Österreich,Europa"/>
    <tag k="name" v="Berggasse"/>
    <tag k="note" v="imported from plan.at; (C)=CC-by-sa or oDBL; feel free to change if necessary"/>
    <tag k="plan_at:acad_id" v="brAC8"/>
    <tag k="source" v="plan.at 2009"/>
  </way>
  <way id="29605575" version="6" timestamp="2009-12-09T02:09:22Z" uid="200463" user="harmagedon" changeset="3330540">
    <nd ref="326122854"/>
    <nd ref="365765202"/>
    <nd ref="326124197"/>
    <nd ref="326111575"/>
    <nd ref="326111499"/>
    <nd ref="326124201"/>
    <nd ref="326121823"/>
    <nd ref="326124176"/>
    <nd ref="326124204"/>
    <nd ref="326124207"/>
    <nd ref="326111526"/>
    <nd ref="326111792"/>
    <tag k="addr:postcode" v="5280"/>
    <tag k="at:maxspeed" v="Ortsgebiet"/>
    <tag k="fixme" v="check import"/>
    <tag k="highway" v="residential"/>
    <tag k="is_in" v="...,Bezirk Braunau,Oberösterreich,Österreich,Europa"/>
    <tag k="name" v="Salzburger Vorstadt"/>
    <tag k="note" v="imported from plan.at; (C)=CC-by-sa or oDBL; feel free to change if necessary"/>
    <tag k="oneway" v="yes"/>
    <tag k="plan_at:acad_id" v="brAC5"/>
    <tag k="source" v="plan.at 2009"/>
  </way>
  <way id="29605581" version="5" timestamp="2009-12-09T02:09:41Z" uid="200463" user="harmagedon" changeset="3330540">
    <nd ref="326111295"/>
    <nd ref="326124226"/>
    <nd ref="326124231"/>
    <nd ref="326124235"/>
    <nd ref="326124239"/>
    <nd ref="331796935"/>
    <nd ref="326124244"/>
    <nd ref="244411258"/>
    <tag k="addr:postcode" v="5280"/>
    <tag k="at:maxspeed" v="Ortsgebiet"/>
    <tag k="fixme" v="check import"/>
    <tag k="highway" v="residential"/>
    <tag k="is_in" v="...,Bezirk Braunau,Oberösterreich,Österreich,Europa"/>
    <tag k="name" v="Lerchenfeldgasse"/>
    <tag k="note" v="imported from plan.at; (C)=CC-by-sa or oDBL; feel free to change if necessary"/>
    <tag k="oneway" v="yes"/>
    <tag k="plan_at:acad_id" v="brAC0"/>
    <tag k="source" v="plan.at 2009"/>
  </way>
  <way id="29605586" version="6" timestamp="2009-12-09T02:08:52Z" uid="200463" user="harmagedon" changeset="3330540">
    <nd ref="326111792"/>
    <nd ref="326121863"/>
    <nd ref="326124257"/>
    <nd ref="326121849"/>
    <nd ref="244410672"/>
    <nd ref="326124260"/>
    <nd ref="241466872"/>
    <nd ref="326121924"/>
    <nd ref="326124265"/>
    <nd ref="326121891"/>
    <nd ref="244410665"/>
    <nd ref="326124269"/>
    <nd ref="493645853"/>
    <nd ref="326112939"/>
    <tag k="addr:postcode" v="5280"/>
    <tag k="at:maxspeed" v="Ortsgebiet"/>
    <tag k="fixme" v="check import"/>
    <tag k="highway" v="residential"/>
    <tag k="is_in" v="...,Bezirk Braunau,Oberösterreich,Österreich,Europa"/>
    <tag k="name" v="Stadtplatz"/>
    <tag k="note" v="imported from plan.at; (C)=CC-by-sa or oDBL; feel free to change if necessary"/>
    <tag k="oneway" v="yes"/>
    <tag k="plan_at:acad_id" v="brABB"/>
    <tag k="source" v="plan.at 2009"/>
  </way>
  <way id="29605589" version="4" timestamp="2009-12-09T02:09:35Z" uid="200463" user="harmagedon" changeset="3330540">
    <nd ref="326122815"/>
    <nd ref="326111295"/>
    <nd ref="326124282"/>
    <nd ref="326111187"/>
    <nd ref="326111337"/>
    <nd ref="331796893"/>
    <nd ref="326124288"/>
    <nd ref="331796883"/>
    <nd ref="326124265"/>
    <tag k="addr:postcode" v="5280"/>
    <tag k="at:maxspeed" v="Ortsgebiet"/>
    <tag k="fixme" v="check import"/>
    <tag k="highway" v="residential"/>
    <tag k="is_in" v="...,Bezirk Braunau,Oberösterreich,Österreich,Europa"/>
    <tag k="name" v="Linzer Straße"/>
    <tag k="note" v="imported from plan.at; (C)=CC-by-sa or oDBL; feel free to change if necessary"/>
    <tag k="plan_at:acad_id" v="brAB6"/>
    <tag k="source" v="plan.at 2009"/>
  </way>
</osm>
