<?xml version='1.0' encoding='UTF-8'?>
<osm version="0.6" generator="libosmium/2.20.0">
  <way id="29604040" version="6" timestamp="2009-12-09T02:03:50Z" uid="200463" user="harmagedon" changeset="3330540">
    <nd ref="324072144"/>
    <nd ref="326115862"/>
    <nd ref="326115867"/>
    <nd ref="326115875"/>
    <nd ref="326115880"/>
    <nd ref="326115885"/>
    <nd ref="326115889"/>
    <nd ref="326115898"/>
    <nd ref="326115905"/>
    <nd ref="326115910"/>
    <nd ref="326115916"/>
    <nd ref="326115920"/>
    <nd ref="326115923"/>
    <nd ref="326115926"/>
    <nd ref="326115929"/>
    <nd ref="326115934"/>
    <nd ref="326115940"/>
    <nd ref="326115945"/>
    <nd ref="326115949"/>
    <nd ref="326115952"/>
    <nd ref="326115957"/>
    <nd ref="326115961"/>
    <nd ref="326115964"/>
    <nd ref="326115968"/>
    <nd ref="326115972"/>
    <nd ref="326115977"/>
    <nd ref="326115980"/>
    <nd ref="326115984"/>
    <nd ref="326115987"/>
    <nd ref="326115991"/>
    <nd ref="326115998"/>
    <nd ref="326116002"/>
    <nd ref="326116006"/>
    <nd ref="326116010"/>
    <nd ref="326116013"/>
    <nd ref="326116018"/>
    <nd ref="326116023"/>
    <nd ref="326116027"/>
    <nd ref="326116030"/>
    <nd ref="326116035"/>
    <nd ref="326116038"/>
    <nd ref="326116042"/>
    <nd ref="326116046"/>
    <nd ref="326116050"/>
    <nd ref="326116054"/>
    <nd ref="326116057"/>
    <nd ref="326116061"/>
    <nd ref="326116066"/>
    <nd ref="326116071"/>
    <nd ref="326116076"/>
    <nd ref="326116082"/>
    <nd ref="326116088"/>
    <nd ref="326116092"/>
    <nd ref="326116097"/>
    <nd ref="326116105"/>
    <nd ref="326116155"/>
    <nd ref="326116164"/>
    <nd ref="326116169"/>
    <nd ref="326116175"/>
    <nd ref="326116179"/>
    <nd ref="326116185"/>
    <nd ref="326116191"/>
    <nd ref="326116197"/>
    <nd ref="326116201"/>
    <nd ref="326116204"/>
    <nd ref="326116208"/>
    <nd ref="326116210"/>
    <nd ref="326116213"/>
    <nd ref="326101683"/>
    <nd ref="326116220"/>
    <nd ref="326116226"/>
    <nd ref="326116231"/>
    <nd ref="326116236"/>
    <nd ref="326116241"/>
    <nd ref="326116246"/>
    <nd ref="326116250"/>
    <nd ref="326116255"/>
    <nd ref="326116269"/>
    <nd ref="326116273"/>
    <nd ref="326116277"/>
    <nd ref="326116283"/>
    <nd ref="326116288"/>
    <nd ref="326116297"/>
    <nd ref="326116304"/>
    <nd ref="326116307"/>
    <nd ref="326116312"/>
    <nd ref="326116315"/>
    <nd ref="326116320"/>
    <nd ref="326116325"/>
    <nd ref="326116328"/>
    <nd ref="326116332"/>
    <nd ref="326116337"/>
    <nd ref="326116342"/>
    <nd ref="326116347"/>
    <nd ref="326116354"/>
    <nd ref="326116359"/>
    <nd ref="326116363"/>
    <nd ref="326116371"/>
    <nd ref="326116376"/>
    <nd ref="326116380"/>
    <nd ref="326116386"/>
    <nd ref="326116390"/>
    <nd ref="326116394"/>
    <nd ref="326116399"/>
    <nd ref="326116401"/>
    <nd ref="326116408"/>
    <nd ref="326116413"/>
    <nd ref="326116418"/>
    <nd ref="326116423"/>
    <nd ref="326116427"/>
    <nd ref="326116432"/>
    <nd ref="326116436"/>
    <nd ref="326116439"/>
    <nd ref="326116444"/>
    <nd ref="326116448"/>
    <nd ref="326116454"/>
    <nd ref="326116460"/>
    <nd ref="326116464"/>
    <nd ref="326116467"/>
    <nd ref="326101063"/>
    <nd ref="326116473"/>
    <nd ref="326116481"/>
    <nd ref="326116488"/>
    <nd ref="326116496"/>
    <nd ref="326116501"/>
    <nd ref="326116505"/>
    <nd ref="326116509"/>
    <nd ref="326116516"/>
    <nd ref="326116521"/>
    <nd ref="326116526"/>
    <nd ref="326116529"/>
    <nd ref="326116533"/>
    <nd ref="326116537"/>
    <nd ref="326116543"/>
    <nd ref="323628452"/>
    <tag k="admin_level" v="8"/>
    <tag k="boundary" v="administrative"/>
    <tag k="fixme" v="check import"/>
    <tag k="is_in" v="...,Bezirk Braunau,Oberösterreich,Österreich,Europa"/>
    <tag k="note" v="imported from plan.at; (C)=CC-by-sa or oDBL; feel free to change if necessary"/>
    <tag k="plan_at:acad_id" v="br15C3D"/>
    <tag k="source" v="plan.at 2009"/>
  </way>
  <way id="29604061" version="3" timestamp="2009-12-08T08:41:19Z" uid="200463" user="harmagedon" changeset="3322149">
    <nd ref="21519004"/>
    <nd ref="326116677"/>
    <nd ref="326116678"/>
    <nd ref="326116679"/>
    <nd ref="326116682"/>
    <nd ref="326116685"/>
    <nd ref="326116686"/>
    <nd ref="326116687"/>
    <nd ref="326116690"/>
    <nd ref="326116693"/>
    <nd ref="326100759"/>
    <tag k="addr:postcode" v="5280"/>
    <tag k="at:maxspeed" v="Ortsgebiet"/>
    <tag k="fixme" v="check import"/>
    <tag k="highway" v="track"/>
    <tag k="is_in" v="...,Bezirk Braunau,Oberösterreich,Österreich,Europa"/>
    <tag k="name" v="Weg"/>
    <tag k="note" v="imported from plan.at; (C)=CC-by-sa or oDBL; feel free to change if necessary"/>
    <tag k="plan_at:acad_id" v="br15BCC"/>
    <tag k="source" v="plan.at 2009"/>
    <tag k="uploaded_by" v="Wolfgang W. Wasserburger"/>
  </way>
  <way id="29604061" version="4" timestamp="2009-12-09T02:05:39Z" uid="200463" user="harmagedon" changeset="3330540">
    <nd ref="21519004"/>
    <nd ref="326116677"/>
    <nd ref="326116678"/>
    <nd ref="326116679"/>
    <nd ref="326116682"/>
    <nd ref="326116685"/>
    <nd ref="326116686"/>
    <nd ref="326116687"/>
    <nd ref="326116690"/>
    <nd ref="326116693"/>
    <nd ref="326100759"/>
    <tag k="addr:postcode" v="5280"/>
    <tag k="at:maxspeed" v="Ortsgebiet"/>
    <tag k="fixme" v="check import"/>
    <tag k="highway" v="track"/>
    <tag k="is_in" v="...,Bezirk Braunau,Oberösterreich,Österreich,Europa"/>
    <tag k="name" v="Weg"/>
    <tag k="note" v="imported from plan.at; (C)=CC-by-sa or oDBL; feel free to change if necessary"/>
    <tag k="plan_at:acad_id" v="br15BCC"/>
    <tag k="source" v="plan.at 2009"/>
  </way>
  <way id="29604066" version="3" timestamp="2009-12-08T08:42:43Z" uid="200463" user="harmagedon" changeset="3322149">
    <nd ref="326116709"/>
    <nd ref="326116713"/>
    <nd ref="326116717"/>
    <nd ref="276088563"/>
    <tag k="addr:postcode" v="5280"/>
    <tag k="at:maxspeed" v="Ortsgebiet"/>
    <tag k="fixme" v="check import"/>
    <tag k="highway" v="track"/>
    <tag k="is_in" v="...,Bezirk Braunau,Oberösterreich,Österreich,Europa"/>
    <tag k="name" v="Braunau"/>
    <tag k="note" v="imported from plan.at; (C)=CC-by-sa or oDBL; feel free to change if necessary"/>
    <tag k="plan_at:acad_id" v="br15BC9"/>
    <tag k="source" v="plan.at 2009"/>
    <tag k="uploaded_by" v="Wolfgang W. Wasserburger"/>
  </way>
  <way id="29604066" version="4" timestamp="2009-12-09T02:07:34Z" uid="200463" user="harmagedon" changeset="3330540">
    <nd ref="326116709"/>
    <nd ref="326116713"/>
    <nd ref="326116717"/>
    <nd ref="276088563"/>
    <tag k="addr:postcode" v="5280"/>
    <tag k="at:maxspeed" v="Ortsgebiet"/>
    <tag k="fixme" v="check import"/>
    <tag k="highway" v="track"/>
    <tag k="is_in" v="...,Bezirk Braunau,Oberösterreich,Österreich,Europa"/>
    <tag k="name" v="Braunau"/>
    <tag k="note" v="imported from plan.at; (C)=CC-by-sa or oDBL; feel free to change if necessary"/>
    <tag k="plan_at:acad_id" v="br15BC9"/>
    <tag k="source" v="plan.at 2009"/>
  </way>
  <way id="29604070" version="3" timestamp="2009-12-08T08:42:51Z" uid="200463" user="harmagedon" changeset="3322149">
    <nd ref="326114221"/>
    <nd ref="326116727"/>
    <nd ref="326116734"/>
    <nd ref="326116741"/>
    <nd ref="326116746"/>
    <nd ref="326116748"/>
    <nd ref="326116750"/>
    <nd ref="326116752"/>
    <nd ref="326116754"/>
    <tag k="addr:postcode" v="5280"/>
    <tag k="at:maxspeed" v="Ortsgebiet"/>
    <tag k="fixme" v="check import"/>
    <tag k="highway" v="track"/>
    <tag k="is_in" v="...,Bezirk Braunau,Oberösterreich,Österreich,Europa"/>
    <tag k="name" v="Braunau"/>
    <tag k="note" v="imported from plan.at; (C)=CC-by-sa or oDBL; feel free to change if necessary"/>
    <tag k="plan_at:acad_id" v="br15BC6"/>
    <tag k="source" v="plan.at 2009"/>
    <tag k="uploaded_by" v="Wolfgang W. Wasserburger"/>
  </way>
  <way id="29604070" version="4" timestamp="2009-12-09T02:07:48Z" uid="200463" user="harmagedon" changeset="3330540">
    <nd ref="326114221"/>
    <nd ref="326116727"/>
    <nd ref="326116734"/>
    <nd ref="326116741"/>
    <nd ref="326116746"/>
    <nd ref="326116748"/>
    <nd ref="326116750"/>
    <nd ref="326116752"/>
    <nd ref="326116754"/>
    <tag k="addr:postcode" v="5280"/>
    <tag k="at:maxspeed" v="Ortsgebiet"/>
    <tag k="fixme" v="check import"/>
    <tag k="highway" v="track"/>
    <tag k="is_in" v="...,Bezirk Braunau,Oberösterreich,Österreich,Europa"/>
    <tag k="name" v="Braunau"/>
    <tag k="note" v="imported from plan.at; (C)=CC-by-sa or oDBL; feel free to change if necessary"/>
    <tag k="plan_at:acad_id" v="br15BC6"/>
    <tag k="source" v="plan.at 2009"/>
  </way>
  <way id="29604072" version="4" timestamp="2009-12-09T02:07:22Z" uid="200463" user="harmagedon" changeset="3330540">
    <nd ref="326117232"/>
    <nd ref="326114246"/>
    <tag k="addr:postcode" v="5280"/>
    <tag k="at:maxspeed" v="Ortsgebiet"/>
    <tag k="fixme" v="check import"/>
    <tag k="highway" v="residential"/>
    <tag k="is_in" v="...,Bezirk Braunau,Oberösterreich,Österreich,Europa"/>
    <tag k="name" v="Braunau"/>
    <tag k="note" v="imported from plan.at; (C)=CC-by-sa or oDBL; feel free to change if necessary"/>
    <tag k="plan_at:acad_id" v="br15BC3"/>
    <tag k="source" v="plan.at 2009"/>
  </way>
  <way id="29604078" version="3" timestamp="2009-12-08T08:41:19Z" uid="200463" user="harmagedon" changeset="3322149">
    <nd ref="326116775"/>
    <nd ref="326116778"/>
    <nd ref="326116780"/>
    <nd ref="326116781"/>
    <nd ref="326116783"/>
    <nd ref="326116784"/>
    <nd ref="326116788"/>
    <nd ref="326116792"/>
    <nd ref="326116794"/>
    <nd ref="326116796"/>
    <nd ref="326116799"/>
    <nd ref="326116803"/>
    <nd ref="326116805"/>
    <nd ref="326111933"/>
    <tag k="addr:postcode" v="5280"/>
    <tag k="at:maxspeed" v="Ortsgebiet"/>
    <tag k="fixme" v="check import"/>
    <tag k="highway" v="track"/>
    <tag k="is_in" v="...,Bezirk Braunau,Oberösterreich,Österreich,Europa"/>
    <tag k="name" v="Neue Heimat Weg"/>
    <tag k="note" v="imported from plan.at; (C)=CC-by-sa or oDBL; feel free to change if necessary"/>
    <tag k="plan_at:acad_id" v="br15BC0"/>
    <tag k="source" v="plan.at 2009"/>
    <tag k="uploaded_by" v="Wolfgang W. Wasserburger"/>
  </way>
  <way id="29604078" version="4" timestamp="2009-12-09T02:05:38Z" uid="200463" user="harmagedon" changeset="3330540">
    <nd ref="326116775"/>
    <nd ref="326116778"/>
    <nd ref="326116780"/>
    <nd ref="326116781"/>
    <nd ref="326116783"/>
    <nd ref="326116784"/>
    <nd ref="326116788"/>
    <nd ref="326116792"/>
    <nd ref="326116794"/>
    <nd ref="326116796"/>
    <nd ref="326116799"/>
    <nd ref="326116803"/>
    <nd ref="326116805"/>
    <nd ref="326111933"/>
    <tag k="addr:postcode" v="5280"/>
    <tag k="at:maxspeed" v="Ortsgebiet"/>
    <tag k="fixme" v="check import"/>
    <tag k="highway" v="track"/>
    <tag k="is_in" v="...,Bezirk Braunau,Oberösterreich,Österreich,Europa"/>
    <tag k="name" v="Neue Heimat Weg"/>
    <tag k="note" v="imported from plan.at; (C)=CC-by-sa or oDBL; feel free to change if necessary"/>
    <tag k="plan_at:acad_id" v="br15BC0"/>
    <tag k="source" v="plan.at 2009"/>
  </way>
  <way id="29604083" version="3" timestamp="2009-12-08T08:42:26Z" uid="200463" user="harmagedon" changeset="3322149">
    <nd ref="326116815"/>
    <nd ref="326116818"/>
    <nd ref="326116821"/>
    <nd ref="326116825"/>
    <nd ref="326110774"/>
    <nd ref="326116829"/>
    <nd ref="326116831"/>
    <nd ref="326113006"/>
    <tag k="addr:postcode" v="5280"/>
    <tag k="at:maxspeed" v="Ortsgebiet"/>
    <tag k="fixme" v="check import"/>
    <tag k="highway" v="track"/>
    <tag k="is_in" v="...,Bezirk Braunau,Oberösterreich,Österreich,Europa"/>
    <tag k="name" v="Braunau"/>
    <tag k="note" v="imported from plan.at; (C)=CC-by-sa or oDBL; feel free to change if necessary"/>
    <tag k="plan_at:acad_id" v="br15BBD"/>
    <tag k="source" v="plan.at 2009"/>
    <tag k="uploaded_by" v="Wolfgang W. Wasserburger"/>
  </way>
  <way id="29604083" version="4" timestamp="2009-12-09T02:07:04Z" uid="200463" user="harmagedon" changeset="3330540">
    <nd ref="326116815"/>
    <nd ref="326116818"/>
    <nd ref="326116821"/>
    <nd ref="326116825"/>
    <nd ref="326110774"/>
    <nd ref="326116829"/>
    <nd ref="326116831"/>
    <nd ref="326113006"/>
    <tag k="addr:postcode" v="5280"/>
    <tag k="at:maxspeed" v="Ortsgebiet"/>
    <tag k="fixme" v="check import"/>
    <tag k="highway" v="track"/>
    <tag k="is_in" v="...,Bezirk Braunau,Oberösterreich,Österreich,Europa"/>
    <tag k="name" v="Braunau"/>
    <tag k="note" v="imported from plan.at; (C)=CC-by-sa or oDBL; feel free to change if necessary"/>
    <tag k="plan_at:acad_id" v="br15BBD"/>
    <tag k="source" v="plan.at 2009"/>
  </way>
  <way id="29604086" version="3" timestamp="2009-12-08T08:42:31Z" uid="200463" user="harmagedon" changeset="3322149">
    <nd ref="326116846"/>
    <nd ref="326116851"/>
    <tag k="addr:postcode" v="5280"/>
    <tag k="at:maxspeed" v="Ortsgebiet"/>
    <tag k="highway" v="residential"/>
    <tag k="is_in" v="...,Bezirk Braunau,Oberösterreich,Österreich,Europa"/>
    <tag k="name" v="Kranewittweg"/>
    <tag k="note" v="imported from plan.at; (C)=CC-by-sa or oDBL; feel free to change if necessary"/>
    <tag k="plan_at:acad_id" v="br15BBA"/>
    <tag k="source" v="plan.at 2009"/>
    <tag k="uploaded_by" v="Wolfgang W. Wasserburger"/>
  </way>
  <way id="29604086" version="4" timestamp="2009-12-09T02:07:16Z" uid="200463" user="harmagedon" changeset="3330540">
    <nd ref="326116846"/>
    <nd ref="326116851"/>
    <tag k="addr:postcode" v="5280"/>
    <tag k="at:maxspeed" v="Ortsgebiet"/>
    <tag k="highway" v="residential"/>
    <tag k="is_in" v="...,Bezirk Braunau,Oberösterreich,Österreich,Europa"/>
    <tag k="name" v="Kranewittweg"/>
    <tag k="note" v="imported from plan.at; (C)=CC-by-sa or oDBL; feel free to change if necessary"/>
    <tag k="plan_at:acad_id" v="br15BBA"/>
    <tag k="source" v="plan.at 2009"/>
  </way>
  <way id="29604087" version="4" timestamp="2009-12-08T08:42:52Z" uid="200463" user="harmagedon" changeset="3322149">
    <nd ref="326110589"/>
    <nd ref="330178651"/>
    <nd ref="330178652"/>
    <nd ref="326116858"/>
    <tag k="addr:postcode" v="5280"/>
    <tag k="at:maxspeed" v="Ortsgebiet"/>
    <tag k="fixme" v="check import"/>
    <tag k="highway" v="residential"/>
    <tag k="is_in" v="...,Bezirk Braunau,Oberösterreich,Österreich,Europa"/>
    <tag k="name" v="Lachweg"/>
    <tag k="note" v="imported from plan.at; (C)=CC-by-sa or oDBL; feel free to change if necessary"/>
    <tag k="plan_at:acad_id" v="br15BB7"/>
    <tag k="source" v="plan.at 2009"/>
    <tag k="uploaded_by" v="Wolfgang W. Wasserburger"/>
  </way>
  <way id="29604087" version="5" timestamp="2009-12-09T02:07:51Z" uid="200463" user="harmagedon" changeset="3330540">
    <nd ref="326110589"/>
    <nd ref="330178651"/>
    <nd ref="330178652"/>
    <nd ref="326116858"/>
    <tag k="addr:postcode" v="5280"/>
    <tag k="at:maxspeed" v="Ortsgebiet"/>
    <tag k="fixme" v="check import"/>
    <tag k="highway" v="residential"/>
    <tag k="is_in" v="...,Bezirk Braunau,Oberösterreich,Österreich,Europa"/>
    <tag k="name" v="Lachweg"/>
    <tag k="note" v="imported from plan.at; (C)=CC-by-sa or oDBL; feel free to change if necessary"/>
    <tag k="plan_at:acad_id" v="br15BB7"/>
    <tag k="source" v="plan.at 2009"/>
  </way>
  <way id="29604091" version="4" timestamp="2009-12-08T08:42:53Z" uid="200463" user="harmagedon" changeset="3322149">
    <nd ref="326110582"/>
    <nd ref="326116873"/>
    <nd ref="326116876"/>
    <nd ref="330178654"/>
    <tag k="addr:postcode" v="5280"/>
    <tag k="at:maxspeed" v="Ortsgebiet"/>
    <tag k="highway" v="residential"/>
    <tag k="is_in" v="...,Bezirk Braunau,Oberösterreich,Österreich,Europa"/>
    <tag k="name" v="Josef-Posch-Straße"/>
    <tag k="note" v="imported from plan.at; (C)=CC-by-sa or oDBL; feel free to change if necessary"/>
    <tag k="plan_at:acad_id" v="br15B9B"/>
    <tag k="source" v="plan.at 2009"/>
    <tag k="uploaded_by" v="Wolfgang W. Wasserburger"/>
  </way>
  <way id="29604091" version="5" timestamp="2009-12-09T02:07:51Z" uid="200463" user="harmagedon" changeset="3330540">
    <nd ref="326110582"/>
    <nd ref="326116873"/>
    <nd ref="326116876"/>
    <nd ref="330178654"/>
    <tag k="addr:postcode" v="5280"/>
    <tag k="at:maxspeed" v="Ortsgebiet"/>
    <tag k="highway" v="residential"/>
    <tag k="is_in" v="...,Bezirk Braunau,Oberösterreich,Österreich,Europa"/>
    <tag k="name" v="Josef-Posch-Straße"/>
    <tag k="note" v="imported from plan.at; (C)=CC-by-sa or oDBL; feel free to change if necessary"/>
    <tag k="plan_at:acad_id" v="br15B9B"/>
    <tag k="source" v="plan.at 2009"/>
  </way>
  <way id="29604107" version="3" timestamp="2009-12-08T08:42:46Z" uid="200463" user="harmagedon" changeset="3322149">
    <nd ref="326116982"/>
    <nd ref="326116983"/>
    <nd ref="326116985"/>
    <nd ref="326116988"/>
    <nd ref="326110293"/>
    <nd ref="326116992"/>
    <nd ref="326116995"/>
    <nd ref="326117000"/>
    <nd ref="326117003"/>
    <nd ref="326117008"/>
    <nd ref="326117011"/>
    <nd ref="326117013"/>
    <nd ref="326117016"/>
    <tag k="addr:postcode" v="5280"/>
    <tag k="at:maxspeed" v="Ortsgebiet"/>
    <tag k="fixme" v="check import"/>
    <tag k="highway" v="track"/>
    <tag k="is_in" v="...,Bezirk Braunau,Oberösterreich,Österreich,Europa"/>
    <tag k="name" v="Braunau"/>
    <tag k="note" v="imported from plan.at; (C)=CC-by-sa or oDBL; feel free to change if necessary"/>
    <tag k="plan_at:acad_id" v="br15A88"/>
    <tag k="source" v="plan.at 2009"/>
    <tag k="uploaded_by" v="Wolfgang W. Wasserburger"/>
  </way>
  <way id="29604107" version="4" timestamp="2009-12-09T02:07:37Z" uid="200463" user="harmagedon" changeset="3330540">
    <nd ref="326116982"/>
    <nd ref="326116983"/>
    <nd ref="326116985"/>
    <nd ref="326116988"/>
    <nd ref="326110293"/>
    <nd ref="326116992"/>
    <nd ref="326116995"/>
    <nd ref="326117000"/>
    <nd ref="326117003"/>
    <nd ref="326117008"/>
    <nd ref="326117011"/>
    <nd ref="326117013"/>
    <nd ref="326117016"/>
    <tag k="addr:postcode" v="5280"/>
    <tag k="at:maxspeed" v="Ortsgebiet"/>
    <tag k="fixme" v="check import"/>
    <tag k="highway" v="track"/>
    <tag k="is_in" v="...,Bezirk Braunau,Oberösterreich,Österreich,Europa"/>
    <tag k="name" v="Braunau"/>
    <tag k="note" v="imported from plan.at; (C)=CC-by-sa or oDBL; feel free to change if necessary"/>
    <tag k="plan_at:acad_id" v="br15A88"/>
    <tag k="source" v="plan.at 2009"/>
  </way>
  <way id="29604114" version="4" timestamp="2009-12-08T08:40:49Z" uid="200463" user="harmagedon" changeset="3322149">
    <nd ref="326117052"/>
    <nd ref="326117058"/>
    <nd ref="326117064"/>
    <nd ref="326117071"/>
    <nd ref="326116754"/>
    <nd ref="326117075"/>
    <nd ref="326117083"/>
    <nd ref="326117094"/>
    <nd ref="326117100"/>
    <nd ref="326117104"/>
    <nd ref="326117107"/>
    <nd ref="326116709"/>
    <nd ref="361636815"/>
    <nd ref="326117109"/>
    <nd ref="326117110"/>
    <nd ref="326117111"/>
    <nd ref="326110271"/>
    <tag k="addr:postcode" v="5280"/>
    <tag k="at:maxspeed" v="Ortsgebiet"/>
    <tag k="fixme" v="check import"/>
    <tag k="highway" v="track"/>
    <tag k="is_in" v="...,Bezirk Braunau,Oberösterreich,Österreich,Europa"/>
    <tag k="name" v="Braunau"/>
    <tag k="note" v="imported from plan.at; (C)=CC-by-sa or oDBL; feel free to change if necessary"/>
    <tag k="plan_at:acad_id" v="br15A85"/>
    <tag k="source" v="plan.at 2009"/>
    <tag k="uploaded_by" v="Wolfgang W. Wasserburger"/>
  </way>
  <way id="29604114" version="5" timestamp="2009-12-09T02:05:05Z" uid="200463" user="harmagedon" changeset="3330540">
    <nd ref="326117052"/>
    <nd ref="326117058"/>
    <nd ref="326117064"/>
    <nd ref="326117071"/>
    <nd ref="326116754"/>
    <nd ref="326117075"/>
    <nd ref="326117083"/>
    <nd ref="326117094"/>
    <nd ref="326117100"/>
    <nd ref="326117104"/>
    <nd ref="326117107"/>
    <nd ref="326116709"/>
    <nd ref="361636815"/>
    <nd ref="326117109"/>
    <nd ref="326117110"/>
    <nd ref="326117111"/>
    <nd ref="326110271"/>
    <tag k="addr:postcode" v="5280"/>
    <tag k="at:maxspeed" v="Ortsgebiet"/>
    <tag k="fixme" v="check import"/>
    <tag k="highway" v="track"/>
    <tag k="is_in" v="...,Bezirk Braunau,Oberösterreich,Österreich,Europa"/>
    <tag k="name" v="Braunau"/>
    <tag k="note" v="imported from plan.at; (C)=CC-by-sa or oDBL; feel free to change if necessary"/>
    <tag k="plan_at:acad_id" v="br15A85"/>
    <tag k="source" v="plan.at 2009"/>
  </way>
  <way id="29604121" version="4" timestamp="2009-12-09T02:05:04Z" uid="200463" user="harmagedon" changeset="3330540">
    <nd ref="326114513"/>
    <nd ref="326117124"/>
    <nd ref="326117127"/>
    <nd ref="326117131"/>
    <nd ref="326102454"/>
    <nd ref="326117134"/>
    <nd ref="326117137"/>
    <nd ref="326100793"/>
    <nd ref="326117139"/>
    <nd ref="326117142"/>
    <nd ref="326117144"/>
    <nd ref="326117146"/>
    <nd ref="326117150"/>
    <tag k="addr:postcode" v="5280"/>
    <tag k="at:maxspeed" v="Ortsgebiet"/>
    <tag k="fixme" v="check import"/>
    <tag k="highway" v="unclassified"/>
    <tag k="is_in" v="...,Bezirk Braunau,Oberösterreich,Österreich,Europa"/>
    <tag k="name" v="Achinger Totenweg"/>
    <tag k="note" v="imported from plan.at; (C)=CC-by-sa or oDBL; feel free to change if necessary"/>
    <tag k="plan_at:acad_id" v="br15A82"/>
    <tag k="source" v="plan.at 2009"/>
  </way>
  <way id="29604129" version="3" timestamp="2009-12-08T08:42:04Z" uid="200463" user="harmagedon" changeset="3322149">
    <nd ref="326114425"/>
    <nd ref="326117180"/>
    <nd ref="326117184"/>
    <nd ref="326117190"/>
    <nd ref="326117193"/>
    <tag k="addr:postcode" v="5280"/>
    <tag k="at:maxspeed" v="Ortsgebiet"/>
    <tag k="fixme" v="check import"/>
    <tag k="highway" v="residential"/>
    <tag k="is_in" v="...,Bezirk Braunau,Oberösterreich,Österreich,Europa"/>
    <tag k="name" v="Am Wald"/>
    <tag k="note" v="imported from plan.at; (C)=CC-by-sa or oDBL; feel free to change if necessary"/>
    <tag k="plan_at:acad_id" v="br15A66"/>
    <tag k="source" v="plan.at 2009"/>
    <tag k="uploaded_by" v="Wolfgang W. Wasserburger"/>
  </way>
  <way id="29604129" version="4" timestamp="2009-12-09T02:06:51Z" uid="200463" user="harmagedon" changeset="3330540">
    <nd ref="326114425"/>
    <nd ref="326117180"/>
    <nd ref="326117184"/>
    <nd ref="326117190"/>
    <nd ref="326117193"/>
    <tag k="addr:postcode" v="5280"/>
    <tag k="at:maxspeed" v="Ortsgebiet"/>
    <tag k="fixme" v="check import"/>
    <tag k="highway" v="residential"/>
    <tag k="is_in" v="...,Bezirk Braunau,Oberösterreich,Österreich,Europa"/>
    <tag k="name" v="Am Wald"/>
    <tag k="note" v="imported from plan.at; (C)=CC-by-sa or oDBL; feel free to change if necessary"/>
    <tag k="plan_at:acad_id" v="br15A66"/>
    <tag k="source" v="plan.at 2009"/>
  </way>
  <way id="29604130" version="2" timestamp="2009-01-06T10:26:01Z" uid="27600" user="Islanit" changeset="744602">
    <nd ref="326116864"/>
    <nd ref="326116878"/>
    <nd ref="326116882"/>
    <nd ref="326116871"/>
    <nd ref="326116864"/>
    <tag k="building" v="yes"/>
    <tag k="name" v="Friedhofskapelle"/>
  </way>
  <way id="29604131" version="3" timestamp="2009-12-08T08:42:05Z" uid="200463" user="harmagedon" changeset="3322149">
    <nd ref="326117190"/>
    <nd ref="326117209"/>
    <tag k="addr:postcode" v="5280"/>
    <tag k="at:maxspeed" v="Ortsgebiet"/>
    <tag k="fixme" v="check import"/>
    <tag k="highway" v="residential"/>
    <tag k="is_in" v="...,Bezirk Braunau,Oberösterreich,Österreich,Europa"/>
    <tag k="name" v="Am Wald"/>
    <tag k="note" v="imported from plan.at; (C)=CC-by-sa or oDBL; feel free to change if necessary"/>
    <tag k="plan_at:acad_id" v="br15A4A"/>
    <tag k="source" v="plan.at 2009"/>
    <tag k="uploaded_by" v="Wolfgang W. Wasserburger"/>
  </way>
  <way id="29604131" version="4" timestamp="2009-12-09T02:06:51Z" uid="200463" user="harmagedon" changeset="3330540">
    <nd ref="326117190"/>
    <nd ref="326117209"/>
    <tag k="addr:postcode" v="5280"/>
    <tag k="at:maxspeed" v="Ortsgebiet"/>
    <tag k="fixme" v="check import"/>
    <tag k="highway" v="residential"/>
    <tag k="is_in" v="...,Bezirk Braunau,Oberösterreich,Österreich,Europa"/>
    <tag k="name" v="Am Wald"/>
    <tag k="note" v="imported from plan.at; (C)=CC-by-sa or oDBL; feel free to change if necessary"/>
    <tag k="plan_at:acad_id" v="br15A4A"/>
    <tag k="source" v="plan.at 2009"/>
  </way>
  <way id="29604134" version="3" timestamp="2009-12-08T08:42:35Z" uid="200463" user="harmagedon" changeset="3322149">
    <nd ref="326117225"/>
    <nd ref="326100747"/>
    <nd ref="326117232"/>
    <tag k="addr:postcode" v="5280"/>
    <tag k="at:maxspeed" v="Ortsgebiet"/>
    <tag k="fixme" v="check import"/>
    <tag k="highway" v="residential"/>
    <tag k="is_in" v="...,Bezirk Braunau,Oberösterreich,Österreich,Europa"/>
    <tag k="name" v="Rennerweg"/>
    <tag k="note" v="imported from plan.at; (C)=CC-by-sa or oDBL; feel free to change if necessary"/>
    <tag k="plan_at:acad_id" v="br159DF"/>
    <tag k="source" v="plan.at 2009"/>
    <tag k="uploaded_by" v="Wolfgang W. Wasserburger"/>
  </way>
  <way id="29604134" version="4" timestamp="2009-12-09T02:07:24Z" uid="200463" user="harmagedon" changeset="3330540">
    <nd ref="326117225"/>
    <nd ref="326100747"/>
    <nd ref="326117232"/>
    <tag k="addr:postcode" v="5280"/>
    <tag k="at:maxspeed" v="Ortsgebiet"/>
    <tag k="fixme" v="check import"/>
    <tag k="highway" v="residential"/>
    <tag k="is_in" v="...,Bezirk Braunau,Oberösterreich,Österreich,Europa"/>
    <tag k="name" v="Rennerweg"/>
    <tag k="note" v="imported from plan.at; (C)=CC-by-sa or oDBL; feel free to change if necessary"/>
    <tag k="plan_at:acad_id" v="br159DF"/>
    <tag k="source" v="plan.at 2009"/>
  </way>
  <way id="29604138" version="3" timestamp="2009-12-08T08:42:30Z" uid="200463" user="harmagedon" changeset="3322149">
    <nd ref="326117260"/>
    <nd ref="326117266"/>
    <nd ref="326117272"/>
    <tag k="addr:postcode" v="5280"/>
    <tag k="at:maxspeed" v="Ortsgebiet"/>
    <tag k="fixme" v="check import"/>
    <tag k="highway" v="residential"/>
    <tag k="is_in" v="...,Bezirk Braunau,Oberösterreich,Österreich,Europa"/>
    <tag k="name" v="Braunau"/>
    <tag k="note" v="imported from plan.at; (C)=CC-by-sa or oDBL; feel free to change if necessary"/>
    <tag k="plan_at:acad_id" v="br159DC"/>
    <tag k="source" v="plan.at 2009"/>
    <tag k="uploaded_by" v="Wolfgang W. Wasserburger"/>
  </way>
  <way id="29604138" version="4" timestamp="2009-12-09T02:07:15Z" uid="200463" user="harmagedon" changeset="3330540">
    <nd ref="326117260"/>
    <nd ref="326117266"/>
    <nd ref="326117272"/>
    <tag k="addr:postcode" v="5280"/>
    <tag k="at:maxspeed" v="Ortsgebiet"/>
    <tag k="fixme" v="check import"/>
    <tag k="highway" v="residential"/>
    <tag k="is_in" v="...,Bezirk Braunau,Oberösterreich,Österreich,Europa"/>
    <tag k="name" v="Braunau"/>
    <tag k="note" v="imported from plan.at; (C)=CC-by-sa or oDBL; feel free to change if necessary"/>
    <tag k="plan_at:acad_id" v="br159DC"/>
    <tag k="source" v="plan.at 2009"/>
  </way>
  <way id="29604142" version="2" timestamp="2009-01-06T10:26:01Z" uid="27600" user="Islanit" changeset="744602">
    <nd ref="326116925"/>
    <nd ref="326116929"/>
    <nd ref="326116937"/>
    <nd ref="326116945"/>
    <nd ref="326116925"/>
    <tag k="landuse" v="cemetery"/>
    <tag k="name" v="Friedhof Schopfloch"/>
  </way>
  <way id="29604143" version="3" timestamp="2009-12-08T08:42:25Z" uid="200463" user="harmagedon" changeset="3322149">
    <nd ref="326117289"/>
    <nd ref="326117292"/>
    <tag k="addr:postcode" v="5280"/>
    <tag k="at:maxspeed" v="Ortsgebiet"/>
    <tag k="fixme" v="check import"/>
    <tag k="highway" v="residential"/>
    <tag k="is_in" v="...,Bezirk Braunau,Oberösterreich,Österreich,Europa"/>
    <tag k="name" v="Braunau"/>
    <tag k="note" v="imported from plan.at; (C)=CC-by-sa or oDBL; feel free to change if necessary"/>
    <tag k="plan_at:acad_id" v="br159D9"/>
    <tag k="source" v="plan.at 2009"/>
    <tag k="uploaded_by" v="Wolfgang W. Wasserburger"/>
  </way>
  <way id="29604143" version="4" timestamp="2009-12-09T02:07:03Z" uid="200463" user="harmagedon" changeset="3330540">
    <nd ref="326117289"/>
    <nd ref="326117292"/>
    <tag k="addr:postcode" v="5280"/>
    <tag k="at:maxspeed" v="Ortsgebiet"/>
    <tag k="fixme" v="check import"/>
    <tag k="highway" v="residential"/>
    <tag k="is_in" v="...,Bezirk Braunau,Oberösterreich,Österreich,Europa"/>
    <tag k="name" v="Braunau"/>
    <tag k="note" v="imported from plan.at; (C)=CC-by-sa or oDBL; feel free to change if necessary"/>
    <tag k="plan_at:acad_id" v="br159D9"/>
    <tag k="source" v="plan.at 2009"/>
  </way>
  <way id="29604146" version="4" timestamp="2009-12-08T08:42:29Z" uid="200463" user="harmagedon" changeset="3322149">
    <nd ref="326117303"/>
    <nd ref="326117306"/>
    <tag k="addr:postcode" v="5280"/>
    <tag k="at:maxspeed" v="Ortsgebiet"/>
    <tag k="highway" v="residential"/>
    <tag k="is_in" v="...,Bezirk Braunau,Oberösterreich,Österreich,Europa"/>
    <tag k="name" v="Mozartstraße"/>
    <tag k="note" v="imported from plan.at; (C)=CC-by-sa or oDBL; feel free to change if necessary"/>
    <tag k="plan_at:acad_id" v="br159A1"/>
    <tag k="source" v="plan.at 2009"/>
    <tag k="uploaded_by" v="Wolfgang W. Wasserburger"/>
  </way>
  <way id="29604146" version="5" timestamp="2009-12-09T02:07:15Z" uid="200463" user="harmagedon" changeset="3330540">
    <nd ref="326117303"/>
    <nd ref="326117306"/>
    <tag k="addr:postcode" v="5280"/>
    <tag k="at:maxspeed" v="Ortsgebiet"/>
    <tag k="highway" v="residential"/>
    <tag k="is_in" v="...,Bezirk Braunau,Oberösterreich,Österreich,Europa"/>
    <tag k="name" v="Mozartstraße"/>
    <tag k="note" v="imported from plan.at; (C)=CC-by-sa or oDBL; feel free to change if necessary"/>
    <tag k="plan_at:acad_id" v="br159A1"/>
    <tag k="source" v="plan.at 2009"/>
  </way>
  <way id="29604151" version="4" timestamp="2009-12-08T08:42:12Z" uid="200463" user="harmagedon" changeset="3322149">
    <nd ref="326117324"/>
    <nd ref="326117329"/>
    <nd ref="326117332"/>
    <nd ref="326117335"/>
    <nd ref="335279174"/>
    <nd ref="289320989"/>
    <nd ref="335279179"/>
    <tag k="addr:postcode" v="5280"/>
    <tag k="highway" v="residential"/>
    <tag k="is_in" v="...,Bezirk Braunau,Oberösterreich,Österreich,Europa"/>
    <tag k="name" v="Neue Heimat"/>
    <tag k="source" v="GPS"/>
  </way>
  <way id="29604156" version="5" timestamp="2009-12-08T08:42:20Z" uid="200463" user="harmagedon" changeset="3322149">
    <nd ref="326110754"/>
    <nd ref="361626596"/>
    <nd ref="326110756"/>
    <nd ref="326117359"/>
    <tag k="addr:postcode" v="5280"/>
    <tag k="highway" v="residential"/>
    <tag k="is_in" v="...,Bezirk Braunau,Oberösterreich,Österreich,Europa"/>
    <tag k="name" v="Braunau"/>
    <tag k="source" v="GPS"/>
  </way>
  <way id="29604160" version="5" timestamp="2009-12-08T08:42:21Z" uid="200463" user="harmagedon" changeset="3322149">
    <nd ref="326117972"/>
    <nd ref="289343865"/>
    <nd ref="332210301"/>
    <nd ref="326110743"/>
    <nd ref="326117329"/>
    <tag k="addr:postcode" v="5280"/>
    <tag k="highway" v="residential"/>
    <tag k="is_in" v="...,Bezirk Braunau,Oberösterreich,Österreich,Europa"/>
    <tag k="name" v="Friedrich-Leistner-Weg"/>
    <tag k="source" v="GPS"/>
  </way>
  <way id="29604164" version="5" timestamp="2009-12-08T08:42:17Z" uid="200463" user="harmagedon" changeset="3322149">
    <nd ref="326117404"/>
    <nd ref="332210299"/>
    <nd ref="332210300"/>
    <nd ref="326113511"/>
    <nd ref="326117414"/>
    <nd ref="326117366"/>
    <nd ref="326117419"/>
    <nd ref="326117422"/>
    <nd ref="326117332"/>
    <tag k="addr:postcode" v="5280"/>
    <tag k="highway" v="residential"/>
    <tag k="is_in" v="...,Bezirk Braunau,Oberösterreich,Österreich,Europa"/>
    <tag k="name" v="Peter-Rosegger-Weg"/>
    <tag k="source" v="GPS"/>
  </way>
  <way id="29604168" version="4" timestamp="2009-12-08T08:42:39Z" uid="200463" user="harmagedon" changeset="3322149">
    <nd ref="326117445"/>
    <nd ref="326117446"/>
    <tag k="addr:postcode" v="5280"/>
    <tag k="highway" v="residential"/>
    <tag k="is_in" v="...,Bezirk Braunau,Oberösterreich,Österreich,Europa"/>
    <tag k="name" v="Braunau"/>
    <tag k="source" v="GPS"/>
  </way>
  <way id="29604170" version="3" timestamp="2009-12-08T08:42:39Z" uid="200463" user="harmagedon" changeset="3322149">
    <nd ref="326117454"/>
    <nd ref="326110729"/>
    <tag k="addr:postcode" v="5280"/>
    <tag k="at:maxspeed" v="Ortsgebiet"/>
    <tag k="fixme" v="check import"/>
    <tag k="highway" v="residential"/>
    <tag k="is_in" v="...,Bezirk Braunau,Oberösterreich,Österreich,Europa"/>
    <tag k="name" v="Georg-Plattner-Straße"/>
    <tag k="note" v="imported from plan.at; (C)=CC-by-sa or oDBL; feel free to change if necessary"/>
    <tag k="plan_at:acad_id" v="br158F9"/>
    <tag k="source" v="plan.at 2009"/>
    <tag k="uploaded_by" v="Wolfgang W. Wasserburger"/>
  </way>
  <way id="29604170" version="4" timestamp="2009-12-09T02:07:26Z" uid="200463" user="harmagedon" changeset="3330540">
    <nd ref="326117454"/>
    <nd ref="326110729"/>
    <tag k="addr:postcode" v="5280"/>
    <tag k="at:maxspeed" v="Ortsgebiet"/>
    <tag k="fixme" v="check import"/>
    <tag k="highway" v="residential"/>
    <tag k="is_in" v="...,Bezirk Braunau,Oberösterreich,Österreich,Europa"/>
    <tag k="name" v="Georg-Plattner-Straße"/>
    <tag k="note" v="imported from plan.at; (C)=CC-by-sa or oDBL; feel free to change if necessary"/>
    <tag k="plan_at:acad_id" v="br158F9"/>
    <tag k="source" v="plan.at 2009"/>
  </way>
  <way id="29604173" version="3" timestamp="2009-12-08T08:42:16Z" uid="200463" user="harmagedon" changeset="3322149">
    <nd ref="326117468"/>
    <nd ref="287128875"/>
    <tag k="addr:postcode" v="5280"/>
    <tag k="at:maxspeed" v="Ortsgebiet"/>
    <tag k="highway" v="residential"/>
    <tag k="is_in" v="...,Bezirk Braunau,Oberösterreich,Österreich,Europa"/>
    <tag k="name" v="Aloys-Wach-Straße"/>
    <tag k="note" v="imported from plan.at; (C)=CC-by-sa or oDBL; feel free to change if necessary"/>
    <tag k="plan_at:acad_id" v="br158DD"/>
    <tag k="source" v="plan.at 2009"/>
    <tag k="uploaded_by" v="Wolfgang W. Wasserburger"/>
  </way>
  <way id="29604173" version="4" timestamp="2009-12-09T02:07:00Z" uid="200463" user="harmagedon" changeset="3330540">
    <nd ref="326117468"/>
    <nd ref="287128875"/>
    <tag k="addr:postcode" v="5280"/>
    <tag k="at:maxspeed" v="Ortsgebiet"/>
    <tag k="highway" v="residential"/>
    <tag k="is_in" v="...,Bezirk Braunau,Oberösterreich,Österreich,Europa"/>
    <tag k="name" v="Aloys-Wach-Straße"/>
    <tag k="note" v="imported from plan.at; (C)=CC-by-sa or oDBL; feel free to change if necessary"/>
    <tag k="plan_at:acad_id" v="br158DD"/>
    <tag k="source" v="plan.at 2009"/>
  </way>
  <way id="29604177" version="3" timestamp="2009-12-08T08:42:40Z" uid="200463" user="harmagedon" changeset="3322149">
    <nd ref="326117487"/>
    <nd ref="326117493"/>
    <tag k="addr:postcode" v="5280"/>
    <tag k="at:maxspeed" v="Ortsgebiet"/>
    <tag k="highway" v="residential"/>
    <tag k="is_in" v="...,Bezirk Braunau,Oberösterreich,Österreich,Europa"/>
    <tag k="name" v="Anton Wächter Straße"/>
    <tag k="note" v="imported from plan.at; (C)=CC-by-sa or oDBL; feel free to change if necessary"/>
    <tag k="plan_at:acad_id" v="br158C1"/>
    <tag k="source" v="plan.at 2009"/>
    <tag k="uploaded_by" v="Wolfgang W. Wasserburger"/>
  </way>
  <way id="29604177" version="4" timestamp="2009-12-09T02:07:30Z" uid="200463" user="harmagedon" changeset="3330540">
    <nd ref="326117487"/>
    <nd ref="326117493"/>
    <tag k="addr:postcode" v="5280"/>
    <tag k="at:maxspeed" v="Ortsgebiet"/>
    <tag k="highway" v="residential"/>
    <tag k="is_in" v="...,Bezirk Braunau,Oberösterreich,Österreich,Europa"/>
    <tag k="name" v="Anton Wächter Straße"/>
    <tag k="note" v="imported from plan.at; (C)=CC-by-sa or oDBL; feel free to change if necessary"/>
    <tag k="plan_at:acad_id" v="br158C1"/>
    <tag k="source" v="plan.at 2009"/>
  </way>
  <way id="29604187" version="4" timestamp="2009-12-08T08:42:15Z" uid="200463" user="harmagedon" changeset="3322149">
    <nd ref="326110804"/>
    <nd ref="326117516"/>
    <nd ref="326117521"/>
    <nd ref="326117523"/>
    <nd ref="361619781"/>
    <nd ref="287128875"/>
    <nd ref="326117526"/>
    <nd ref="326110729"/>
    <nd ref="326117531"/>
    <nd ref="326117543"/>
    <nd ref="289320979"/>
    <tag k="addr:postcode" v="5280"/>
    <tag k="at:maxspeed" v="Ortsgebiet"/>
    <tag k="highway" v="residential"/>
    <tag k="is_in" v="...,Bezirk Braunau,Oberösterreich,Österreich,Europa"/>
    <tag k="name" v="Schüdlbauerstraße"/>
    <tag k="note" v="imported from plan.at; (C)=CC-by-sa or oDBL; feel free to change if necessary"/>
    <tag k="plan_at:acad_id" v="br158A5"/>
    <tag k="source" v="plan.at 2009"/>
    <tag k="uploaded_by" v="Wolfgang W. Wasserburger"/>
  </way>
  <way id="29604187" version="5" timestamp="2009-12-09T02:06:59Z" uid="200463" user="harmagedon" changeset="3330540">
    <nd ref="326110804"/>
    <nd ref="326117516"/>
    <nd ref="326117521"/>
    <nd ref="326117523"/>
    <nd ref="361619781"/>
    <nd ref="287128875"/>
    <nd ref="326117526"/>
    <nd ref="326110729"/>
    <nd ref="326117531"/>
    <nd ref="326117543"/>
    <nd ref="289320979"/>
    <tag k="addr:postcode" v="5280"/>
    <tag k="at:maxspeed" v="Ortsgebiet"/>
    <tag k="highway" v="residential"/>
    <tag k="is_in" v="...,Bezirk Braunau,Oberösterreich,Österreich,Europa"/>
    <tag k="name" v="Schüdlbauerstraße"/>
    <tag k="note" v="imported from plan.at; (C)=CC-by-sa or oDBL; feel free to change if necessary"/>
    <tag k="plan_at:acad_id" v="br158A5"/>
    <tag k="source" v="plan.at 2009"/>
  </way>
  <way id="29604196" version="5" timestamp="2009-12-08T08:42:39Z" uid="200463" user="harmagedon" changeset="3322149">
    <nd ref="326117584"/>
    <nd ref="287128926"/>
    <tag k="addr:postcode" v="5280"/>
    <tag k="highway" v="residential"/>
    <tag k="is_in" v="...,Bezirk Braunau,Oberösterreich,Österreich,Europa"/>
    <tag k="name" v="Josef-Prechtl-Weg"/>
    <tag k="source" v="GPS"/>
  </way>
  <way id="29604200" version="4" timestamp="2009-12-08T08:42:14Z" uid="200463" user="harmagedon" changeset="3322149">
    <nd ref="326117602"/>
    <nd ref="330444254"/>
    <nd ref="326117607"/>
    <nd ref="326110735"/>
    <nd ref="326117612"/>
    <tag k="addr:postcode" v="5280"/>
    <tag k="at:maxspeed" v="Ortsgebiet"/>
    <tag k="highway" v="residential"/>
    <tag k="is_in" v="...,Bezirk Braunau,Oberösterreich,Österreich,Europa"/>
    <tag k="name" v="Stadionstraße"/>
    <tag k="note" v="imported from plan.at; (C)=CC-by-sa or oDBL; feel free to change if necessary"/>
    <tag k="plan_at:acad_id" v="br15851"/>
    <tag k="source" v="plan.at 2009"/>
    <tag k="uploaded_by" v="Wolfgang W. Wasserburger"/>
  </way>
  <way id="29604200" version="5" timestamp="2009-12-09T02:06:58Z" uid="200463" user="harmagedon" changeset="3330540">
    <nd ref="326117602"/>
    <nd ref="330444254"/>
    <nd ref="326117607"/>
    <nd ref="326110735"/>
    <nd ref="326117612"/>
    <tag k="addr:postcode" v="5280"/>
    <tag k="at:maxspeed" v="Ortsgebiet"/>
    <tag k="highway" v="residential"/>
    <tag k="is_in" v="...,Bezirk Braunau,Oberösterreich,Österreich,Europa"/>
    <tag k="name" v="Stadionstraße"/>
    <tag k="note" v="imported from plan.at; (C)=CC-by-sa or oDBL; feel free to change if necessary"/>
    <tag k="plan_at:acad_id" v="br15851"/>
    <tag k="source" v="plan.at 2009"/>
  </way>
  <way id="29604206" version="3" timestamp="2009-12-08T08:42:15Z" uid="200463" user="harmagedon" changeset="3322149">
    <nd ref="326117621"/>
    <nd ref="326117624"/>
    <tag k="addr:postcode" v="5280"/>
    <tag k="at:maxspeed" v="Ortsgebiet"/>
    <tag k="highway" v="residential"/>
    <tag k="is_in" v="...,Bezirk Braunau,Oberösterreich,Österreich,Europa"/>
    <tag k="name" v="Braunau"/>
    <tag k="note" v="imported from plan.at; (C)=CC-by-sa or oDBL; feel free to change if necessary"/>
    <tag k="plan_at:acad_id" v="br15835"/>
    <tag k="source" v="plan.at 2009"/>
    <tag k="uploaded_by" v="Wolfgang W. Wasserburger"/>
  </way>
  <way id="29604206" version="4" timestamp="2009-12-09T02:06:59Z" uid="200463" user="harmagedon" changeset="3330540">
    <nd ref="326117621"/>
    <nd ref="326117624"/>
    <tag k="addr:postcode" v="5280"/>
    <tag k="at:maxspeed" v="Ortsgebiet"/>
    <tag k="highway" v="residential"/>
    <tag k="is_in" v="...,Bezirk Braunau,Oberösterreich,Österreich,Europa"/>
    <tag k="name" v="Braunau"/>
    <tag k="note" v="imported from plan.at; (C)=CC-by-sa or oDBL; feel free to change if necessary"/>
    <tag k="plan_at:acad_id" v="br15835"/>
    <tag k="source" v="plan.at 2009"/>
  </way>
  <way id="29604208" version="3" timestamp="2009-12-08T08:42:41Z" uid="200463" user="harmagedon" changeset="3322149">
    <nd ref="326117635"/>
    <nd ref="326117637"/>
    <tag k="addr:postcode" v="5280"/>
    <tag k="at:maxspeed" v="Ortsgebiet"/>
    <tag k="highway" v="residential"/>
    <tag k="is_in" v="...,Bezirk Braunau,Oberösterreich,Österreich,Europa"/>
    <tag k="name" v="Braunau"/>
    <tag k="note" v="imported from plan.at; (C)=CC-by-sa or oDBL; feel free to change if necessary"/>
    <tag k="plan_at:acad_id" v="br15819"/>
    <tag k="source" v="plan.at 2009"/>
    <tag k="uploaded_by" v="Wolfgang W. Wasserburger"/>
  </way>
  <way id="29604208" version="4" timestamp="2009-12-09T02:07:31Z" uid="200463" user="harmagedon" changeset="3330540">
    <nd ref="326117635"/>
    <nd ref="326117637"/>
    <tag k="addr:postcode" v="5280"/>
    <tag k="at:maxspeed" v="Ortsgebiet"/>
    <tag k="highway" v="residential"/>
    <tag k="is_in" v="...,Bezirk Braunau,Oberösterreich,Österreich,Europa"/>
    <tag k="name" v="Braunau"/>
    <tag k="note" v="imported from plan.at; (C)=CC-by-sa or oDBL; feel free to change if necessary"/>
    <tag k="plan_at:acad_id" v="br15819"/>
    <tag k="source" v="plan.at 2009"/>
  </way>
  <way id="29604213" version="3" timestamp="2009-12-08T08:42:32Z" uid="200463" user="harmagedon" changeset="3322149">
    <nd ref="326117674"/>
    <nd ref="326117573"/>
    <nd ref="326117445"/>
    <nd ref="289320979"/>
    <nd ref="326117677"/>
    <nd ref="326113522"/>
    <nd ref="326113526"/>
    <nd ref="326113528"/>
    <nd ref="287122659"/>
    <tag k="addr:postcode" v="5280"/>
    <tag k="at:maxspeed" v="Ortsgebiet"/>
    <tag k="highway" v="residential"/>
    <tag k="is_in" v="...,Bezirk Braunau,Oberösterreich,Österreich,Europa"/>
    <tag k="name" v="Quellenweg"/>
    <tag k="note" v="imported from plan.at; (C)=CC-by-sa or oDBL; feel free to change if necessary"/>
    <tag k="plan_at:acad_id" v="br157F9"/>
    <tag k="source" v="plan.at 2009"/>
    <tag k="uploaded_by" v="Wolfgang W. Wasserburger"/>
  </way>
  <way id="29604213" version="4" timestamp="2009-12-09T02:07:21Z" uid="200463" user="harmagedon" changeset="3330540">
    <nd ref="326117674"/>
    <nd ref="326117573"/>
    <nd ref="326117445"/>
    <nd ref="289320979"/>
    <nd ref="326117677"/>
    <nd ref="326113522"/>
    <nd ref="326113526"/>
    <nd ref="326113528"/>
    <nd ref="287122659"/>
    <tag k="addr:postcode" v="5280"/>
    <tag k="at:maxspeed" v="Ortsgebiet"/>
    <tag k="highway" v="residential"/>
    <tag k="is_in" v="...,Bezirk Braunau,Oberösterreich,Österreich,Europa"/>
    <tag k="name" v="Quellenweg"/>
    <tag k="note" v="imported from plan.at; (C)=CC-by-sa or oDBL; feel free to change if necessary"/>
    <tag k="plan_at:acad_id" v="br157F9"/>
    <tag k="source" v="plan.at 2009"/>
  </way>
  <way id="29604218" version="4" timestamp="2009-12-08T08:42:13Z" uid="200463" user="harmagedon" changeset="3322149">
    <nd ref="326117306"/>
    <nd ref="326117695"/>
    <nd ref="326117698"/>
    <nd ref="287129178"/>
    <nd ref="326117702"/>
    <nd ref="361622064"/>
    <nd ref="326117557"/>
    <tag k="addr:postcode" v="5280"/>
    <tag k="at:maxspeed" v="Ortsgebiet"/>
    <tag k="highway" v="residential"/>
    <tag k="is_in" v="...,Bezirk Braunau,Oberösterreich,Österreich,Europa"/>
    <tag k="name" v="Mozartstraße"/>
    <tag k="note" v="imported from plan.at; (C)=CC-by-sa or oDBL; feel free to change if necessary"/>
    <tag k="plan_at:acad_id" v="br157F5"/>
    <tag k="source" v="plan.at 2009"/>
    <tag k="uploaded_by" v="Wolfgang W. Wasserburger"/>
  </way>
  <way id="29604218" version="5" timestamp="2009-12-09T02:06:57Z" uid="200463" user="harmagedon" changeset="3330540">
    <nd ref="326117306"/>
    <nd ref="326117695"/>
    <nd ref="326117698"/>
    <nd ref="287129178"/>
    <nd ref="326117702"/>
    <nd ref="361622064"/>
    <nd ref="326117557"/>
    <tag k="addr:postcode" v="5280"/>
    <tag k="at:maxspeed" v="Ortsgebiet"/>
    <tag k="highway" v="residential"/>
    <tag k="is_in" v="...,Bezirk Braunau,Oberösterreich,Österreich,Europa"/>
    <tag k="name" v="Mozartstraße"/>
    <tag k="note" v="imported from plan.at; (C)=CC-by-sa or oDBL; feel free to change if necessary"/>
    <tag k="plan_at:acad_id" v="br157F5"/>
    <tag k="source" v="plan.at 2009"/>
  </way>
  <way id="29604231" version="5" timestamp="2009-12-09T02:05:37Z" uid="200463" user="harmagedon" changeset="3330540">
    <nd ref="326117710"/>
    <nd ref="330442420"/>
    <nd ref="330442419"/>
    <nd ref="330442418"/>
    <nd ref="330442417"/>
    <nd ref="326117722"/>
    <nd ref="326117778"/>
    <nd ref="326117781"/>
    <nd ref="326117785"/>
    <nd ref="326117790"/>
    <nd ref="330442421"/>
    <nd ref="326117794"/>
    <nd ref="326117796"/>
    <nd ref="326117799"/>
    <nd ref="326117804"/>
    <nd ref="326117808"/>
    <nd ref="330442422"/>
    <nd ref="326117811"/>
    <nd ref="326117814"/>
    <nd ref="326117816"/>
    <nd ref="326117818"/>
    <nd ref="326117820"/>
    <nd ref="330442423"/>
    <nd ref="326117822"/>
    <nd ref="326117824"/>
    <nd ref="326117827"/>
    <nd ref="326117831"/>
    <nd ref="326117834"/>
    <nd ref="330442424"/>
    <nd ref="326117835"/>
    <tag k="addr:postcode" v="5280"/>
    <tag k="at:maxspeed" v="Ortsgebiet"/>
    <tag k="highway" v="unclassified"/>
    <tag k="is_in" v="...,Bezirk Braunau,Oberösterreich,Österreich,Europa"/>
    <tag k="name" v="Aubauernweg"/>
    <tag k="note" v="imported from plan.at; (C)=CC-by-sa or oDBL; feel free to change if necessary"/>
    <tag k="plan_at:acad_id" v="br157EF"/>
    <tag k="source" v="plan.at 2009"/>
  </way>
  <way id="29604237" version="7" timestamp="2009-12-09T02:05:37Z" uid="200463" user="harmagedon" changeset="3330540">
    <nd ref="283398923"/>
    <nd ref="326117841"/>
    <nd ref="326117842"/>
    <nd ref="330442414"/>
    <nd ref="495491075"/>
    <nd ref="326117843"/>
    <nd ref="330442415"/>
    <nd ref="326117844"/>
    <nd ref="326117845"/>
    <nd ref="330442416"/>
    <nd ref="330442412"/>
    <nd ref="330442413"/>
    <nd ref="326117846"/>
    <nd ref="326117849"/>
    <nd ref="326117852"/>
    <nd ref="326117856"/>
    <nd ref="326117858"/>
    <nd ref="326103088"/>
    <nd ref="330442410"/>
    <nd ref="326117710"/>
    <tag k="addr:postcode" v="5280"/>
    <tag k="at:maxspeed" v="Ortsgebiet"/>
    <tag k="highway" v="unclassified"/>
    <tag k="is_in" v="...,Bezirk Braunau,Oberösterreich,Österreich,Europa"/>
    <tag k="name" v="Kraftwerksstraße"/>
    <tag k="note" v="imported from plan.at; (C)=CC-by-sa or oDBL; feel free to change if necessary"/>
    <tag k="plan_at:acad_id" v="br157EC"/>
    <tag k="source" v="plan.at 2009"/>
  </way>
  <way id="29604240" version="3" timestamp="2009-12-08T08:41:55Z" uid="200463" user="harmagedon" changeset="3322149">
    <nd ref="326117874"/>
    <nd ref="326117877"/>
    <nd ref="326117878"/>
    <nd ref="326117882"/>
    <nd ref="326117886"/>
    <tag k="addr:postcode" v="5280"/>
    <tag k="at:maxspeed" v="Ortsgebiet"/>
    <tag k="fixme" v="check import"/>
    <tag k="highway" v="residential"/>
    <tag k="is_in" v="...,Bezirk Braunau,Oberösterreich,Österreich,Europa"/>
    <tag k="name" v="Gießereistraße"/>
    <tag k="note" v="imported from plan.at; (C)=CC-by-sa or oDBL; feel free to change if necessary"/>
    <tag k="plan_at:acad_id" v="br157E8"/>
    <tag k="source" v="plan.at 2009"/>
    <tag k="uploaded_by" v="Wolfgang W. Wasserburger"/>
  </way>
  <way id="29604240" version="4" timestamp="2009-12-09T02:06:35Z" uid="200463" user="harmagedon" changeset="3330540">
    <nd ref="326117874"/>
    <nd ref="326117877"/>
    <nd ref="326117878"/>
    <nd ref="326117882"/>
    <nd ref="326117886"/>
    <tag k="addr:postcode" v="5280"/>
    <tag k="at:maxspeed" v="Ortsgebiet"/>
    <tag k="fixme" v="check import"/>
    <tag k="highway" v="residential"/>
    <tag k="is_in" v="...,Bezirk Braunau,Oberösterreich,Österreich,Europa"/>
    <tag k="name" v="Gießereistraße"/>
    <tag k="note" v="imported from plan.at; (C)=CC-by-sa or oDBL; feel free to change if necessary"/>
    <tag k="plan_at:acad_id" v="br157E8"/>
    <tag k="source" v="plan.at 2009"/>
  </way>
  <way id="29604242" version="3" timestamp="2009-12-08T08:41:51Z" uid="200463" user="harmagedon" changeset="3322149">
    <nd ref="326112028"/>
    <nd ref="326117911"/>
    <nd ref="326117914"/>
    <nd ref="326116775"/>
    <nd ref="326117919"/>
    <tag k="addr:postcode" v="5280"/>
    <tag k="at:maxspeed" v="Ortsgebiet"/>
    <tag k="fixme" v="check import"/>
    <tag k="highway" v="track"/>
    <tag k="is_in" v="...,Bezirk Braunau,Oberösterreich,Österreich,Europa"/>
    <tag k="name" v="Buchenwaldweg"/>
    <tag k="note" v="imported from plan.at; (C)=CC-by-sa or oDBL; feel free to change if necessary"/>
    <tag k="plan_at:acad_id" v="br157E1"/>
    <tag k="source" v="plan.at 2009"/>
    <tag k="uploaded_by" v="Wolfgang W. Wasserburger"/>
  </way>
  <way id="29604242" version="4" timestamp="2009-12-09T02:06:32Z" uid="200463" user="harmagedon" changeset="3330540">
    <nd ref="326112028"/>
    <nd ref="326117911"/>
    <nd ref="326117914"/>
    <nd ref="326116775"/>
    <nd ref="326117919"/>
    <tag k="addr:postcode" v="5280"/>
    <tag k="at:maxspeed" v="Ortsgebiet"/>
    <tag k="fixme" v="check import"/>
    <tag k="highway" v="track"/>
    <tag k="is_in" v="...,Bezirk Braunau,Oberösterreich,Österreich,Europa"/>
    <tag k="name" v="Buchenwaldweg"/>
    <tag k="note" v="imported from plan.at; (C)=CC-by-sa or oDBL; feel free to change if necessary"/>
    <tag k="plan_at:acad_id" v="br157E1"/>
    <tag k="source" v="plan.at 2009"/>
  </way>
  <way id="29604247" version="4" timestamp="2009-12-08T08:41:18Z" uid="200463" user="harmagedon" changeset="3322149">
    <nd ref="326117933"/>
    <nd ref="326117937"/>
    <nd ref="326117942"/>
    <nd ref="326117944"/>
    <nd ref="332210295"/>
    <tag k="addr:postcode" v="5280"/>
    <tag k="at:maxspeed" v="Ortsgebiet"/>
    <tag k="fixme" v="check import"/>
    <tag k="highway" v="residential"/>
    <tag k="is_in" v="...,Bezirk Braunau,Oberösterreich,Österreich,Europa"/>
    <tag k="name" v="Heinrichstraße"/>
    <tag k="note" v="imported from plan.at; (C)=CC-by-sa or oDBL; feel free to change if necessary"/>
    <tag k="plan_at:acad_id" v="br157DE"/>
    <tag k="source" v="plan.at 2009"/>
    <tag k="uploaded_by" v="Wolfgang W. Wasserburger"/>
  </way>
  <way id="29604247" version="5" timestamp="2009-12-09T02:05:36Z" uid="200463" user="harmagedon" changeset="3330540">
    <nd ref="326117933"/>
    <nd ref="326117937"/>
    <nd ref="326117942"/>
    <nd ref="326117944"/>
    <nd ref="332210295"/>
    <tag k="addr:postcode" v="5280"/>
    <tag k="at:maxspeed" v="Ortsgebiet"/>
    <tag k="fixme" v="check import"/>
    <tag k="highway" v="residential"/>
    <tag k="is_in" v="...,Bezirk Braunau,Oberösterreich,Österreich,Europa"/>
    <tag k="name" v="Heinrichstraße"/>
    <tag k="note" v="imported from plan.at; (C)=CC-by-sa or oDBL; feel free to change if necessary"/>
    <tag k="plan_at:acad_id" v="br157DE"/>
    <tag k="source" v="plan.at 2009"/>
  </way>
  <way id="29604250" version="4" timestamp="2009-12-08T08:41:56Z" uid="200463" user="harmagedon" changeset="3322149">
    <nd ref="326117954"/>
    <nd ref="331791293"/>
    <nd ref="326117955"/>
    <nd ref="326117957"/>
    <nd ref="326122580"/>
    <tag k="access" v="permissive"/>
    <tag k="addr:postcode" v="5280"/>
    <tag k="at:maxspeed" v="Ortsgebiet"/>
    <tag k="fixme" v="check import"/>
    <tag k="highway" v="residential"/>
    <tag k="is_in" v="...,Bezirk Braunau,Oberösterreich,Österreich,Europa"/>
    <tag k="name" v="Vogelbeerweg"/>
    <tag k="note" v="imported from plan.at; (C)=CC-by-sa or oDBL; feel free to change if necessary"/>
    <tag k="plan_at:acad_id" v="br157DB"/>
    <tag k="source" v="plan.at 2009"/>
    <tag k="uploaded_by" v="Wolfgang W. Wasserburger"/>
  </way>
  <way id="29604250" version="5" timestamp="2009-12-09T02:06:46Z" uid="200463" user="harmagedon" changeset="3330540">
    <nd ref="326117954"/>
    <nd ref="331791293"/>
    <nd ref="326117955"/>
    <nd ref="326117957"/>
    <nd ref="326122580"/>
    <tag k="access" v="permissive"/>
    <tag k="addr:postcode" v="5280"/>
    <tag k="at:maxspeed" v="Ortsgebiet"/>
    <tag k="fixme" v="check import"/>
    <tag k="highway" v="residential"/>
    <tag k="is_in" v="...,Bezirk Braunau,Oberösterreich,Österreich,Europa"/>
    <tag k="name" v="Vogelbeerweg"/>
    <tag k="note" v="imported from plan.at; (C)=CC-by-sa or oDBL; feel free to change if necessary"/>
    <tag k="plan_at:acad_id" v="br157DB"/>
    <tag k="source" v="plan.at 2009"/>
  </way>
  <way id="29604257" version="7" timestamp="2009-12-08T08:41:17Z" uid="200463" user="harmagedon" changeset="3322149">
    <nd ref="326117966"/>
    <nd ref="326117404"/>
    <nd ref="326117972"/>
    <nd ref="326117974"/>
    <nd ref="326110754"/>
    <nd ref="326117978"/>
    <nd ref="326117982"/>
    <nd ref="335268257"/>
    <nd ref="335268255"/>
    <nd ref="326117986"/>
    <nd ref="326117991"/>
    <nd ref="332210296"/>
    <nd ref="332210295"/>
    <nd ref="326117999"/>
    <nd ref="330442433"/>
    <nd ref="237038910"/>
    <tag k="addr:postcode" v="5280"/>
    <tag k="highway" v="secondary"/>
    <tag k="is_in" v="...,Bezirk Braunau,Oberösterreich,Österreich,Europa"/>
    <tag k="name" v="Michaelistraße"/>
    <tag k="source" v="GPS"/>
  </way>
  <way id="29604260" version="4" timestamp="2009-12-08T08:42:21Z" uid="200463" user="harmagedon" changeset="3322149">
    <nd ref="326118015"/>
    <nd ref="289344446"/>
    <nd ref="335268276"/>
    <nd ref="326118020"/>
    <tag k="addr:postcode" v="5280"/>
    <tag k="at:maxspeed" v="Ortsgebiet"/>
    <tag k="highway" v="residential"/>
    <tag k="is_in" v="...,Bezirk Braunau,Oberösterreich,Österreich,Europa"/>
    <tag k="name" v="Michaelistraße"/>
    <tag k="source" v="GPS"/>
  </way>
  <way id="29604263" version="5" timestamp="2009-12-08T08:42:22Z" uid="200463" user="harmagedon" changeset="3322149">
    <nd ref="326118031"/>
    <nd ref="326118044"/>
    <nd ref="326118020"/>
    <nd ref="326118049"/>
    <nd ref="326117982"/>
    <tag k="addr:postcode" v="5280"/>
    <tag k="highway" v="residential"/>
    <tag k="is_in" v="...,Bezirk Braunau,Oberösterreich,Österreich,Europa"/>
    <tag k="name" v="Michaelistraße"/>
    <tag k="source" v="GPS"/>
  </way>
  <way id="29604265" version="3" timestamp="2009-12-08T08:42:22Z" uid="200463" user="harmagedon" changeset="3322149">
    <nd ref="326118058"/>
    <nd ref="326118061"/>
    <tag k="addr:postcode" v="5280"/>
    <tag k="at:maxspeed" v="Ortsgebiet"/>
    <tag k="fixme" v="check import"/>
    <tag k="highway" v="service"/>
    <tag k="is_in" v="...,Bezirk Braunau,Oberösterreich,Österreich,Europa"/>
    <tag k="name" v="Braunau"/>
    <tag k="note" v="imported from plan.at; (C)=CC-by-sa or oDBL; feel free to change if necessary"/>
    <tag k="plan_at:acad_id" v="br157CD"/>
    <tag k="source" v="plan.at 2009"/>
    <tag k="uploaded_by" v="Wolfgang W. Wasserburger"/>
  </way>
  <way id="29604265" version="4" timestamp="2009-12-09T02:07:01Z" uid="200463" user="harmagedon" changeset="3330540">
    <nd ref="326118058"/>
    <nd ref="326118061"/>
    <tag k="addr:postcode" v="5280"/>
    <tag k="at:maxspeed" v="Ortsgebiet"/>
    <tag k="fixme" v="check import"/>
    <tag k="highway" v="service"/>
    <tag k="is_in" v="...,Bezirk Braunau,Oberösterreich,Österreich,Europa"/>
    <tag k="name" v="Braunau"/>
    <tag k="note" v="imported from plan.at; (C)=CC-by-sa or oDBL; feel free to change if necessary"/>
    <tag k="plan_at:acad_id" v="br157CD"/>
    <tag k="source" v="plan.at 2009"/>
  </way>
  <way id="29604270" version="4" timestamp="2009-12-08T08:42:18Z" uid="200463" user="harmagedon" changeset="3322149">
    <nd ref="326113002"/>
    <nd ref="326118078"/>
    <nd ref="326118031"/>
    <nd ref="326118061"/>
    <nd ref="326118079"/>
    <nd ref="335268270"/>
    <nd ref="335268267"/>
    <nd ref="335268261"/>
    <nd ref="326118080"/>
    <nd ref="326118083"/>
    <nd ref="326118085"/>
    <nd ref="326117986"/>
    <tag k="addr:postcode" v="5280"/>
    <tag k="highway" v="residential"/>
    <tag k="is_in" v="...,Bezirk Braunau,Oberösterreich,Österreich,Europa"/>
    <tag k="name" v="Sparkassenstraße"/>
  </way>
  <way id="29604272" version="4" timestamp="2009-12-08T08:42:17Z" uid="200463" user="harmagedon" changeset="3322149">
    <nd ref="326118091"/>
    <nd ref="335279157"/>
    <nd ref="335279167"/>
    <nd ref="326117978"/>
    <tag k="addr:postcode" v="5280"/>
    <tag k="highway" v="residential"/>
    <tag k="is_in" v="...,Bezirk Braunau,Oberösterreich,Österreich,Europa"/>
    <tag k="name" v="Schmollstraße"/>
    <tag k="source" v="GPS"/>
  </way>
  <way id="29604275" version="4" timestamp="2009-12-08T08:42:18Z" uid="200463" user="harmagedon" changeset="3322149">
    <nd ref="326118096"/>
    <nd ref="326118100"/>
    <tag k="addr:postcode" v="5280"/>
    <tag k="highway" v="residential"/>
    <tag k="is_in" v="...,Bezirk Braunau,Oberösterreich,Österreich,Europa"/>
    <tag k="name" v="Steindlstraße"/>
    <tag k="source" v="GPS"/>
  </way>
  <way id="29604284" version="4" timestamp="2009-12-08T08:42:25Z" uid="200463" user="harmagedon" changeset="3322149">
    <nd ref="326118107"/>
    <nd ref="326113002"/>
    <nd ref="326118091"/>
    <nd ref="326118096"/>
    <nd ref="326118141"/>
    <tag k="addr:postcode" v="5280"/>
    <tag k="highway" v="residential"/>
    <tag k="is_in" v="...,Bezirk Braunau,Oberösterreich,Österreich,Europa"/>
    <tag k="name" v="Sebastianistraße"/>
    <tag k="source" v="GPS"/>
  </way>
  <way id="29604288" version="3" timestamp="2009-12-08T08:41:31Z" uid="200463" user="harmagedon" changeset="3322149">
    <nd ref="326118152"/>
    <nd ref="326118154"/>
    <nd ref="326118157"/>
    <nd ref="326118160"/>
    <nd ref="326115466"/>
    <tag k="addr:postcode" v="5280"/>
    <tag k="at:maxspeed" v="Ortsgebiet"/>
    <tag k="fixme" v="check import"/>
    <tag k="highway" v="track"/>
    <tag k="is_in" v="...,Bezirk Braunau,Oberösterreich,Österreich,Europa"/>
    <tag k="name" v="Scheuhub"/>
    <tag k="note" v="imported from plan.at; (C)=CC-by-sa or oDBL; feel free to change if necessary"/>
    <tag k="plan_at:acad_id" v="br157B9"/>
    <tag k="source" v="plan.at 2009"/>
    <tag k="uploaded_by" v="Wolfgang W. Wasserburger"/>
  </way>
  <way id="29604288" version="4" timestamp="2009-12-09T02:06:09Z" uid="200463" user="harmagedon" changeset="3330540">
    <nd ref="326118152"/>
    <nd ref="326118154"/>
    <nd ref="326118157"/>
    <nd ref="326118160"/>
    <nd ref="326115466"/>
    <tag k="addr:postcode" v="5280"/>
    <tag k="at:maxspeed" v="Ortsgebiet"/>
    <tag k="fixme" v="check import"/>
    <tag k="highway" v="track"/>
    <tag k="is_in" v="...,Bezirk Braunau,Oberösterreich,Österreich,Europa"/>
    <tag k="name" v="Scheuhub"/>
    <tag k="note" v="imported from plan.at; (C)=CC-by-sa or oDBL; feel free to change if necessary"/>
    <tag k="plan_at:acad_id" v="br157B9"/>
    <tag k="source" v="plan.at 2009"/>
  </way>
  <way id="29604294" version="3" timestamp="2009-12-08T08:41:36Z" uid="200463" user="harmagedon" changeset="3322149">
    <nd ref="326112545"/>
    <nd ref="326118168"/>
    <nd ref="326118170"/>
    <nd ref="326115481"/>
    <tag k="addr:postcode" v="5280"/>
    <tag k="at:maxspeed" v="Ortsgebiet"/>
    <tag k="fixme" v="check import"/>
    <tag k="highway" v="residential"/>
    <tag k="is_in" v="...,Bezirk Braunau,Oberösterreich,Österreich,Europa"/>
    <tag k="name" v="Hessenstraße"/>
    <tag k="note" v="imported from plan.at; (C)=CC-by-sa or oDBL; feel free to change if necessary"/>
    <tag k="plan_at:acad_id" v="br157B6"/>
    <tag k="source" v="plan.at 2009"/>
    <tag k="uploaded_by" v="Wolfgang W. Wasserburger"/>
  </way>
  <way id="29604294" version="4" timestamp="2009-12-09T02:06:13Z" uid="200463" user="harmagedon" changeset="3330540">
    <nd ref="326112545"/>
    <nd ref="326118168"/>
    <nd ref="326118170"/>
    <nd ref="326115481"/>
    <tag k="addr:postcode" v="5280"/>
    <tag k="at:maxspeed" v="Ortsgebiet"/>
    <tag k="fixme" v="check import"/>
    <tag k="highway" v="residential"/>
    <tag k="is_in" v="...,Bezirk Braunau,Oberösterreich,Österreich,Europa"/>
    <tag k="name" v="Hessenstraße"/>
    <tag k="note" v="imported from plan.at; (C)=CC-by-sa or oDBL; feel free to change if necessary"/>
    <tag k="plan_at:acad_id" v="br157B6"/>
    <tag k="source" v="plan.at 2009"/>
  </way>
  <way id="29604297" version="3" timestamp="2009-12-08T08:41:37Z" uid="200463" user="harmagedon" changeset="3322149">
    <nd ref="326112542"/>
    <nd ref="326118177"/>
    <nd ref="326118180"/>
    <nd ref="326112108"/>
    <tag k="addr:postcode" v="5280"/>
    <tag k="at:maxspeed" v="Ortsgebiet"/>
    <tag k="fixme" v="check import"/>
    <tag k="highway" v="residential"/>
    <tag k="is_in" v="...,Bezirk Braunau,Oberösterreich,Österreich,Europa"/>
    <tag k="name" v="Freiwillige Schützenstraße"/>
    <tag k="note" v="imported from plan.at; (C)=CC-by-sa or oDBL; feel free to change if necessary"/>
    <tag k="plan_at:acad_id" v="br157B2"/>
    <tag k="source" v="plan.at 2009"/>
    <tag k="uploaded_by" v="Wolfgang W. Wasserburger"/>
  </way>
  <way id="29604297" version="4" timestamp="2009-12-09T02:06:13Z" uid="200463" user="harmagedon" changeset="3330540">
    <nd ref="326112542"/>
    <nd ref="326118177"/>
    <nd ref="326118180"/>
    <nd ref="326112108"/>
    <tag k="addr:postcode" v="5280"/>
    <tag k="at:maxspeed" v="Ortsgebiet"/>
    <tag k="fixme" v="check import"/>
    <tag k="highway" v="residential"/>
    <tag k="is_in" v="...,Bezirk Braunau,Oberösterreich,Österreich,Europa"/>
    <tag k="name" v="Freiwillige Schützenstraße"/>
    <tag k="note" v="imported from plan.at; (C)=CC-by-sa or oDBL; feel free to change if necessary"/>
    <tag k="plan_at:acad_id" v="br157B2"/>
    <tag k="source" v="plan.at 2009"/>
  </way>
  <way id="29604301" version="3" timestamp="2009-12-08T08:40:51Z" uid="200463" user="harmagedon" changeset="3322149">
    <nd ref="326112533"/>
    <nd ref="326118187"/>
    <nd ref="326118191"/>
    <nd ref="326112099"/>
    <tag k="addr:postcode" v="5280"/>
    <tag k="at:maxspeed" v="Ortsgebiet"/>
    <tag k="fixme" v="check import"/>
    <tag k="highway" v="residential"/>
    <tag k="is_in" v="...,Bezirk Braunau,Oberösterreich,Österreich,Europa"/>
    <tag k="name" v="Wennefeldstraße"/>
    <tag k="note" v="imported from plan.at; (C)=CC-by-sa or oDBL; feel free to change if necessary"/>
    <tag k="plan_at:acad_id" v="br157AE"/>
    <tag k="source" v="plan.at 2009"/>
    <tag k="uploaded_by" v="Wolfgang W. Wasserburger"/>
  </way>
  <way id="29604301" version="4" timestamp="2009-12-09T02:05:06Z" uid="200463" user="harmagedon" changeset="3330540">
    <nd ref="326112533"/>
    <nd ref="326118187"/>
    <nd ref="326118191"/>
    <nd ref="326112099"/>
    <tag k="addr:postcode" v="5280"/>
    <tag k="at:maxspeed" v="Ortsgebiet"/>
    <tag k="fixme" v="check import"/>
    <tag k="highway" v="residential"/>
    <tag k="is_in" v="...,Bezirk Braunau,Oberösterreich,Österreich,Europa"/>
    <tag k="name" v="Wennefeldstraße"/>
    <tag k="note" v="imported from plan.at; (C)=CC-by-sa or oDBL; feel free to change if necessary"/>
    <tag k="plan_at:acad_id" v="br157AE"/>
    <tag k="source" v="plan.at 2009"/>
  </way>
  <way id="29604306" version="3" timestamp="2009-12-08T08:40:50Z" uid="200463" user="harmagedon" changeset="3322149">
    <nd ref="326112531"/>
    <nd ref="326118208"/>
    <nd ref="326118212"/>
    <nd ref="326112090"/>
    <tag k="addr:postcode" v="5280"/>
    <tag k="at:maxspeed" v="Ortsgebiet"/>
    <tag k="fixme" v="check import"/>
    <tag k="highway" v="residential"/>
    <tag k="is_in" v="...,Bezirk Braunau,Oberösterreich,Österreich,Europa"/>
    <tag k="name" v="Franzosenkreuzweg"/>
    <tag k="note" v="imported from plan.at; (C)=CC-by-sa or oDBL; feel free to change if necessary"/>
    <tag k="plan_at:acad_id" v="br157AB"/>
    <tag k="source" v="plan.at 2009"/>
    <tag k="uploaded_by" v="Wolfgang W. Wasserburger"/>
  </way>
  <way id="29604306" version="4" timestamp="2009-12-09T02:05:05Z" uid="200463" user="harmagedon" changeset="3330540">
    <nd ref="326112531"/>
    <nd ref="326118208"/>
    <nd ref="326118212"/>
    <nd ref="326112090"/>
    <tag k="addr:postcode" v="5280"/>
    <tag k="at:maxspeed" v="Ortsgebiet"/>
    <tag k="fixme" v="check import"/>
    <tag k="highway" v="residential"/>
    <tag k="is_in" v="...,Bezirk Braunau,Oberösterreich,Österreich,Europa"/>
    <tag k="name" v="Franzosenkreuzweg"/>
    <tag k="note" v="imported from plan.at; (C)=CC-by-sa or oDBL; feel free to change if necessary"/>
    <tag k="plan_at:acad_id" v="br157AB"/>
    <tag k="source" v="plan.at 2009"/>
  </way>
  <way id="29604310" version="3" timestamp="2009-12-08T08:40:57Z" uid="200463" user="harmagedon" changeset="3322149">
    <nd ref="326112529"/>
    <nd ref="326118225"/>
    <nd ref="326112088"/>
    <tag k="addr:postcode" v="5280"/>
    <tag k="at:maxspeed" v="Ortsgebiet"/>
    <tag k="fixme" v="check import"/>
    <tag k="highway" v="residential"/>
    <tag k="is_in" v="...,Bezirk Braunau,Oberösterreich,Österreich,Europa"/>
    <tag k="name" v="Franzosenkreuzweg"/>
    <tag k="note" v="imported from plan.at; (C)=CC-by-sa or oDBL; feel free to change if necessary"/>
    <tag k="plan_at:acad_id" v="br157A8"/>
    <tag k="source" v="plan.at 2009"/>
    <tag k="uploaded_by" v="Wolfgang W. Wasserburger"/>
  </way>
  <way id="29604310" version="4" timestamp="2009-12-09T02:05:17Z" uid="200463" user="harmagedon" changeset="3330540">
    <nd ref="326112529"/>
    <nd ref="326118225"/>
    <nd ref="326112088"/>
    <tag k="addr:postcode" v="5280"/>
    <tag k="at:maxspeed" v="Ortsgebiet"/>
    <tag k="fixme" v="check import"/>
    <tag k="highway" v="residential"/>
    <tag k="is_in" v="...,Bezirk Braunau,Oberösterreich,Österreich,Europa"/>
    <tag k="name" v="Franzosenkreuzweg"/>
    <tag k="note" v="imported from plan.at; (C)=CC-by-sa or oDBL; feel free to change if necessary"/>
    <tag k="plan_at:acad_id" v="br157A8"/>
    <tag k="source" v="plan.at 2009"/>
  </way>
  <way id="29604314" version="4" timestamp="2009-12-09T02:04:15Z" uid="200463" user="harmagedon" changeset="3330540">
    <nd ref="326118244"/>
    <nd ref="326112152"/>
    <nd ref="326115511"/>
    <tag k="addr:postcode" v="5280"/>
    <tag k="at:maxspeed" v="Ortsgebiet"/>
    <tag k="fixme" v="check import"/>
    <tag k="highway" v="residential"/>
    <tag k="is_in" v="...,Bezirk Braunau,Oberösterreich,Österreich,Europa"/>
    <tag k="name" v="Scheuhub"/>
    <tag k="note" v="imported from plan.at; (C)=CC-by-sa or oDBL; feel free to change if necessary"/>
    <tag k="plan_at:acad_id" v="br157A5"/>
    <tag k="source" v="plan.at 2009"/>
  </way>
  <way id="29604317" version="4" timestamp="2009-12-09T02:04:16Z" uid="200463" user="harmagedon" changeset="3330540">
    <nd ref="326118253"/>
    <nd ref="326115530"/>
    <tag k="addr:postcode" v="5280"/>
    <tag k="at:maxspeed" v="Ortsgebiet"/>
    <tag k="fixme" v="check import"/>
    <tag k="highway" v="residential"/>
    <tag k="is_in" v="...,Bezirk Braunau,Oberösterreich,Österreich,Europa"/>
    <tag k="name" v="Siedlerstraße"/>
    <tag k="note" v="imported from plan.at; (C)=CC-by-sa or oDBL; feel free to change if necessary"/>
    <tag k="plan_at:acad_id" v="br157A1"/>
    <tag k="source" v="plan.at 2009"/>
  </way>
  <way id="29604322" version="5" timestamp="2009-12-09T02:04:14Z" uid="200463" user="harmagedon" changeset="3330540">
    <nd ref="326115530"/>
    <nd ref="326118262"/>
    <nd ref="326118269"/>
    <nd ref="326118272"/>
    <tag k="addr:postcode" v="5280"/>
    <tag k="at:maxspeed" v="Ortsgebiet"/>
    <tag k="fixme" v="check import"/>
    <tag k="highway" v="residential"/>
    <tag k="is_in" v="...,Bezirk Braunau,Oberösterreich,Österreich,Europa"/>
    <tag k="name" v="Siedlerstraße"/>
    <tag k="note" v="imported from plan.at; (C)=CC-by-sa or oDBL; feel free to change if necessary"/>
    <tag k="plan_at:acad_id" v="br1579D"/>
    <tag k="source" v="plan.at 2009"/>
  </way>
  <way id="29604330" version="4" timestamp="2009-12-09T02:03:50Z" uid="200463" user="harmagedon" changeset="3330540">
    <nd ref="326101611"/>
    <nd ref="326118280"/>
    <nd ref="326118282"/>
    <nd ref="326118283"/>
    <nd ref="326118284"/>
    <nd ref="326118285"/>
    <nd ref="326118286"/>
    <nd ref="326118287"/>
    <nd ref="326118289"/>
    <nd ref="326118293"/>
    <nd ref="326118298"/>
    <nd ref="326118304"/>
    <nd ref="326118309"/>
    <nd ref="330323614"/>
    <nd ref="330323594"/>
    <nd ref="326118313"/>
    <nd ref="326118316"/>
    <nd ref="326118318"/>
    <nd ref="326118322"/>
    <nd ref="326118325"/>
    <nd ref="330323582"/>
    <nd ref="330323531"/>
    <nd ref="326117710"/>
    <tag k="addr:postcode" v="5280"/>
    <tag k="at:maxspeed" v="Ortsgebiet"/>
    <tag k="fixme" v="check import"/>
    <tag k="highway" v="tertiary"/>
    <tag k="is_in" v="...,Bezirk Braunau,Oberösterreich,Österreich,Europa"/>
    <tag k="name" v="Klostermühlstraße"/>
    <tag k="note" v="imported from plan.at; (C)=CC-by-sa or oDBL; feel free to change if necessary"/>
    <tag k="plan_at:acad_id" v="br1579A"/>
    <tag k="source" v="plan.at 2009"/>
  </way>
  <way id="29604331" version="4" timestamp="2009-12-09T02:04:15Z" uid="200463" user="harmagedon" changeset="3330540">
    <nd ref="326118286"/>
    <nd ref="326118336"/>
    <tag k="addr:postcode" v="5280"/>
    <tag k="at:maxspeed" v="Ortsgebiet"/>
    <tag k="fixme" v="check import"/>
    <tag k="highway" v="residential"/>
    <tag k="is_in" v="...,Bezirk Braunau,Oberösterreich,Österreich,Europa"/>
    <tag k="name" v="Scheuhub"/>
    <tag k="note" v="imported from plan.at; (C)=CC-by-sa or oDBL; feel free to change if necessary"/>
    <tag k="plan_at:acad_id" v="br15794"/>
    <tag k="source" v="plan.at 2009"/>
  </way>
  <way id="29604335" version="4" timestamp="2009-12-09T02:04:15Z" uid="200463" user="harmagedon" changeset="3330540">
    <nd ref="326118287"/>
    <nd ref="326118349"/>
    <nd ref="326112114"/>
    <nd ref="326118350"/>
    <tag k="addr:postcode" v="5280"/>
    <tag k="at:maxspeed" v="Ortsgebiet"/>
    <tag k="fixme" v="check import"/>
    <tag k="highway" v="residential"/>
    <tag k="is_in" v="...,Bezirk Braunau,Oberösterreich,Österreich,Europa"/>
    <tag k="name" v="Raffoldstraße"/>
    <tag k="note" v="imported from plan.at; (C)=CC-by-sa or oDBL; feel free to change if necessary"/>
    <tag k="plan_at:acad_id" v="br15791"/>
    <tag k="source" v="plan.at 2009"/>
  </way>
  <way id="29604338" version="4" timestamp="2009-12-09T02:04:13Z" uid="200463" user="harmagedon" changeset="3330540">
    <nd ref="326118355"/>
    <nd ref="326118336"/>
    <nd ref="326112114"/>
    <tag k="addr:postcode" v="5280"/>
    <tag k="at:maxspeed" v="Ortsgebiet"/>
    <tag k="fixme" v="check import"/>
    <tag k="highway" v="residential"/>
    <tag k="is_in" v="...,Bezirk Braunau,Oberösterreich,Österreich,Europa"/>
    <tag k="name" v="Haunerstraße"/>
    <tag k="note" v="imported from plan.at; (C)=CC-by-sa or oDBL; feel free to change if necessary"/>
    <tag k="plan_at:acad_id" v="br1578D"/>
    <tag k="source" v="plan.at 2009"/>
  </way>
  <way id="29604341" version="4" timestamp="2009-12-09T02:04:13Z" uid="200463" user="harmagedon" changeset="3330540">
    <nd ref="326118285"/>
    <nd ref="326118362"/>
    <nd ref="326118355"/>
    <nd ref="326118364"/>
    <nd ref="326118365"/>
    <tag k="addr:postcode" v="5280"/>
    <tag k="at:maxspeed" v="Ortsgebiet"/>
    <tag k="fixme" v="check import"/>
    <tag k="highway" v="residential"/>
    <tag k="is_in" v="...,Bezirk Braunau,Oberösterreich,Österreich,Europa"/>
    <tag k="name" v="Klostermühlgasse"/>
    <tag k="note" v="imported from plan.at; (C)=CC-by-sa or oDBL; feel free to change if necessary"/>
    <tag k="plan_at:acad_id" v="br15789"/>
    <tag k="source" v="plan.at 2009"/>
  </way>
  <way id="29604349" version="6" timestamp="2009-12-09T02:03:48Z" uid="200463" user="harmagedon" changeset="3330540">
    <nd ref="326101611"/>
    <nd ref="326118373"/>
    <nd ref="361641001"/>
    <nd ref="326118244"/>
    <nd ref="326118381"/>
    <nd ref="326118365"/>
    <nd ref="326118253"/>
    <nd ref="326118389"/>
    <nd ref="326118350"/>
    <nd ref="326118408"/>
    <nd ref="326112120"/>
    <nd ref="326118411"/>
    <nd ref="326118415"/>
    <nd ref="326118272"/>
    <nd ref="326118425"/>
    <nd ref="326118429"/>
    <nd ref="326118433"/>
    <nd ref="326118435"/>
    <nd ref="326112140"/>
    <nd ref="326118443"/>
    <nd ref="326112553"/>
    <tag k="addr:postcode" v="5280"/>
    <tag k="at:maxspeed" v="Ortsgebiet"/>
    <tag k="fixme" v="check import"/>
    <tag k="highway" v="residential"/>
    <tag k="is_in" v="...,Bezirk Braunau,Oberösterreich,Österreich,Europa"/>
    <tag k="name" v="Scheuhubstraße"/>
    <tag k="note" v="imported from plan.at; (C)=CC-by-sa or oDBL; feel free to change if necessary"/>
    <tag k="plan_at:acad_id" v="br15786"/>
    <tag k="source" v="plan.at 2009"/>
  </way>
  <way id="29604354" version="3" timestamp="2009-12-08T08:41:34Z" uid="200463" user="harmagedon" changeset="3322149">
    <nd ref="326118454"/>
    <nd ref="326118455"/>
    <nd ref="326118457"/>
    <nd ref="326118152"/>
    <nd ref="326118460"/>
    <nd ref="326118464"/>
    <nd ref="326118468"/>
    <nd ref="326118471"/>
    <nd ref="326118473"/>
    <nd ref="326112578"/>
    <tag k="addr:postcode" v="5280"/>
    <tag k="at:maxspeed" v="Ortsgebiet"/>
    <tag k="fixme" v="check import"/>
    <tag k="highway" v="residential"/>
    <tag k="is_in" v="...,Bezirk Braunau,Oberösterreich,Österreich,Europa"/>
    <tag k="name" v="Rorerstraße"/>
    <tag k="note" v="imported from plan.at; (C)=CC-by-sa or oDBL; feel free to change if necessary"/>
    <tag k="plan_at:acad_id" v="br15783"/>
    <tag k="source" v="plan.at 2009"/>
    <tag k="uploaded_by" v="Wolfgang W. Wasserburger"/>
  </way>
  <way id="29604354" version="4" timestamp="2009-12-09T02:06:11Z" uid="200463" user="harmagedon" changeset="3330540">
    <nd ref="326118454"/>
    <nd ref="326118455"/>
    <nd ref="326118457"/>
    <nd ref="326118152"/>
    <nd ref="326118460"/>
    <nd ref="326118464"/>
    <nd ref="326118468"/>
    <nd ref="326118471"/>
    <nd ref="326118473"/>
    <nd ref="326112578"/>
    <tag k="addr:postcode" v="5280"/>
    <tag k="at:maxspeed" v="Ortsgebiet"/>
    <tag k="fixme" v="check import"/>
    <tag k="highway" v="residential"/>
    <tag k="is_in" v="...,Bezirk Braunau,Oberösterreich,Österreich,Europa"/>
    <tag k="name" v="Rorerstraße"/>
    <tag k="note" v="imported from plan.at; (C)=CC-by-sa or oDBL; feel free to change if necessary"/>
    <tag k="plan_at:acad_id" v="br15783"/>
    <tag k="source" v="plan.at 2009"/>
  </way>
  <way id="29604357" version="3" timestamp="2009-12-08T08:41:42Z" uid="200463" user="harmagedon" changeset="3322149">
    <nd ref="326118484"/>
    <nd ref="326118489"/>
    <nd ref="326118491"/>
    <tag k="addr:postcode" v="5280"/>
    <tag k="at:maxspeed" v="Ortsgebiet"/>
    <tag k="fixme" v="check import"/>
    <tag k="highway" v="residential"/>
    <tag k="is_in" v="...,Bezirk Braunau,Oberösterreich,Österreich,Europa"/>
    <tag k="name" v="Abenspergstraße"/>
    <tag k="note" v="imported from plan.at; (C)=CC-by-sa or oDBL; feel free to change if necessary"/>
    <tag k="plan_at:acad_id" v="br15780"/>
    <tag k="source" v="plan.at 2009"/>
    <tag k="uploaded_by" v="Wolfgang W. Wasserburger"/>
  </way>
  <way id="29604357" version="4" timestamp="2009-12-09T02:06:20Z" uid="200463" user="harmagedon" changeset="3330540">
    <nd ref="326118484"/>
    <nd ref="326118489"/>
    <nd ref="326118491"/>
    <tag k="addr:postcode" v="5280"/>
    <tag k="at:maxspeed" v="Ortsgebiet"/>
    <tag k="fixme" v="check import"/>
    <tag k="highway" v="residential"/>
    <tag k="is_in" v="...,Bezirk Braunau,Oberösterreich,Österreich,Europa"/>
    <tag k="name" v="Abenspergstraße"/>
    <tag k="note" v="imported from plan.at; (C)=CC-by-sa or oDBL; feel free to change if necessary"/>
    <tag k="plan_at:acad_id" v="br15780"/>
    <tag k="source" v="plan.at 2009"/>
  </way>
  <way id="29604360" version="3" timestamp="2009-12-08T08:41:32Z" uid="200463" user="harmagedon" changeset="3322149">
    <nd ref="326118457"/>
    <nd ref="326118505"/>
    <nd ref="326118507"/>
    <nd ref="326118512"/>
    <nd ref="326118491"/>
    <nd ref="326118515"/>
    <nd ref="326118517"/>
    <nd ref="326118523"/>
    <tag k="addr:postcode" v="5280"/>
    <tag k="at:maxspeed" v="Ortsgebiet"/>
    <tag k="fixme" v="check import"/>
    <tag k="highway" v="residential"/>
    <tag k="is_in" v="...,Bezirk Braunau,Oberösterreich,Österreich,Europa"/>
    <tag k="name" v="Brunnenweg"/>
    <tag k="note" v="imported from plan.at; (C)=CC-by-sa or oDBL; feel free to change if necessary"/>
    <tag k="plan_at:acad_id" v="br1577C"/>
    <tag k="source" v="plan.at 2009"/>
    <tag k="uploaded_by" v="Wolfgang W. Wasserburger"/>
  </way>
  <way id="29604360" version="4" timestamp="2009-12-09T02:06:10Z" uid="200463" user="harmagedon" changeset="3330540">
    <nd ref="326118457"/>
    <nd ref="326118505"/>
    <nd ref="326118507"/>
    <nd ref="326118512"/>
    <nd ref="326118491"/>
    <nd ref="326118515"/>
    <nd ref="326118517"/>
    <nd ref="326118523"/>
    <tag k="addr:postcode" v="5280"/>
    <tag k="at:maxspeed" v="Ortsgebiet"/>
    <tag k="fixme" v="check import"/>
    <tag k="highway" v="residential"/>
    <tag k="is_in" v="...,Bezirk Braunau,Oberösterreich,Österreich,Europa"/>
    <tag k="name" v="Brunnenweg"/>
    <tag k="note" v="imported from plan.at; (C)=CC-by-sa or oDBL; feel free to change if necessary"/>
    <tag k="plan_at:acad_id" v="br1577C"/>
    <tag k="source" v="plan.at 2009"/>
  </way>
  <way id="29604362" version="3" timestamp="2009-12-08T08:41:33Z" uid="200463" user="harmagedon" changeset="3322149">
    <nd ref="326118455"/>
    <nd ref="326118533"/>
    <nd ref="326118535"/>
    <nd ref="326118537"/>
    <nd ref="326118489"/>
    <tag k="addr:postcode" v="5280"/>
    <tag k="at:maxspeed" v="Ortsgebiet"/>
    <tag k="fixme" v="check import"/>
    <tag k="highway" v="residential"/>
    <tag k="is_in" v="...,Bezirk Braunau,Oberösterreich,Österreich,Europa"/>
    <tag k="name" v="Wasserfeldweg"/>
    <tag k="note" v="imported from plan.at; (C)=CC-by-sa or oDBL; feel free to change if necessary"/>
    <tag k="plan_at:acad_id" v="br15778"/>
    <tag k="source" v="plan.at 2009"/>
    <tag k="uploaded_by" v="Wolfgang W. Wasserburger"/>
  </way>
  <way id="29604362" version="4" timestamp="2009-12-09T02:06:11Z" uid="200463" user="harmagedon" changeset="3330540">
    <nd ref="326118455"/>
    <nd ref="326118533"/>
    <nd ref="326118535"/>
    <nd ref="326118537"/>
    <nd ref="326118489"/>
    <tag k="addr:postcode" v="5280"/>
    <tag k="at:maxspeed" v="Ortsgebiet"/>
    <tag k="fixme" v="check import"/>
    <tag k="highway" v="residential"/>
    <tag k="is_in" v="...,Bezirk Braunau,Oberösterreich,Österreich,Europa"/>
    <tag k="name" v="Wasserfeldweg"/>
    <tag k="note" v="imported from plan.at; (C)=CC-by-sa or oDBL; feel free to change if necessary"/>
    <tag k="plan_at:acad_id" v="br15778"/>
    <tag k="source" v="plan.at 2009"/>
  </way>
  <way id="29604369" version="3" timestamp="2009-12-08T08:41:35Z" uid="200463" user="harmagedon" changeset="3322149">
    <nd ref="326118546"/>
    <nd ref="326118549"/>
    <nd ref="326118553"/>
    <nd ref="326118556"/>
    <nd ref="326118454"/>
    <nd ref="326118558"/>
    <nd ref="326118561"/>
    <nd ref="326118566"/>
    <nd ref="326118567"/>
    <nd ref="326118572"/>
    <nd ref="326118577"/>
    <nd ref="326118484"/>
    <nd ref="326118579"/>
    <nd ref="326118581"/>
    <tag k="addr:postcode" v="5280"/>
    <tag k="at:maxspeed" v="Ortsgebiet"/>
    <tag k="fixme" v="check import"/>
    <tag k="highway" v="residential"/>
    <tag k="is_in" v="...,Bezirk Braunau,Oberösterreich,Österreich,Europa"/>
    <tag k="name" v="Rorerstraße"/>
    <tag k="note" v="imported from plan.at; (C)=CC-by-sa or oDBL; feel free to change if necessary"/>
    <tag k="plan_at:acad_id" v="br15775"/>
    <tag k="source" v="plan.at 2009"/>
    <tag k="uploaded_by" v="Wolfgang W. Wasserburger"/>
  </way>
  <way id="29604369" version="4" timestamp="2009-12-09T02:06:12Z" uid="200463" user="harmagedon" changeset="3330540">
    <nd ref="326118546"/>
    <nd ref="326118549"/>
    <nd ref="326118553"/>
    <nd ref="326118556"/>
    <nd ref="326118454"/>
    <nd ref="326118558"/>
    <nd ref="326118561"/>
    <nd ref="326118566"/>
    <nd ref="326118567"/>
    <nd ref="326118572"/>
    <nd ref="326118577"/>
    <nd ref="326118484"/>
    <nd ref="326118579"/>
    <nd ref="326118581"/>
    <tag k="addr:postcode" v="5280"/>
    <tag k="at:maxspeed" v="Ortsgebiet"/>
    <tag k="fixme" v="check import"/>
    <tag k="highway" v="residential"/>
    <tag k="is_in" v="...,Bezirk Braunau,Oberösterreich,Österreich,Europa"/>
    <tag k="name" v="Rorerstraße"/>
    <tag k="note" v="imported from plan.at; (C)=CC-by-sa or oDBL; feel free to change if necessary"/>
    <tag k="plan_at:acad_id" v="br15775"/>
    <tag k="source" v="plan.at 2009"/>
  </way>
  <way id="29604374" version="3" timestamp="2009-12-08T08:41:29Z" uid="200463" user="harmagedon" changeset="3322149">
    <nd ref="326118586"/>
    <nd ref="326118593"/>
    <nd ref="326118599"/>
    <nd ref="326115310"/>
    <nd ref="326118605"/>
    <nd ref="326118611"/>
    <nd ref="326115541"/>
    <tag k="addr:postcode" v="5280"/>
    <tag k="at:maxspeed" v="Ortsgebiet"/>
    <tag k="fixme" v="check import"/>
    <tag k="highway" v="residential"/>
    <tag k="is_in" v="...,Bezirk Braunau,Oberösterreich,Österreich,Europa"/>
    <tag k="name" v="Brühlweg"/>
    <tag k="note" v="imported from plan.at; (C)=CC-by-sa or oDBL; feel free to change if necessary"/>
    <tag k="plan_at:acad_id" v="br1576F"/>
    <tag k="source" v="plan.at 2009"/>
    <tag k="uploaded_by" v="Wolfgang W. Wasserburger"/>
  </way>
  <way id="29604374" version="4" timestamp="2009-12-09T02:06:04Z" uid="200463" user="harmagedon" changeset="3330540">
    <nd ref="326118586"/>
    <nd ref="326118593"/>
    <nd ref="326118599"/>
    <nd ref="326115310"/>
    <nd ref="326118605"/>
    <nd ref="326118611"/>
    <nd ref="326115541"/>
    <tag k="addr:postcode" v="5280"/>
    <tag k="at:maxspeed" v="Ortsgebiet"/>
    <tag k="fixme" v="check import"/>
    <tag k="highway" v="residential"/>
    <tag k="is_in" v="...,Bezirk Braunau,Oberösterreich,Österreich,Europa"/>
    <tag k="name" v="Brühlweg"/>
    <tag k="note" v="imported from plan.at; (C)=CC-by-sa or oDBL; feel free to change if necessary"/>
    <tag k="plan_at:acad_id" v="br1576F"/>
    <tag k="source" v="plan.at 2009"/>
  </way>
  <way id="29604376" version="3" timestamp="2009-12-08T08:41:27Z" uid="200463" user="harmagedon" changeset="3322149">
    <nd ref="326118634"/>
    <nd ref="326115357"/>
    <nd ref="326115320"/>
    <tag k="addr:postcode" v="5280"/>
    <tag k="at:maxspeed" v="Ortsgebiet"/>
    <tag k="fixme" v="check import"/>
    <tag k="highway" v="residential"/>
    <tag k="is_in" v="...,Bezirk Braunau,Oberösterreich,Österreich,Europa"/>
    <tag k="name" v="Ranshofen"/>
    <tag k="note" v="imported from plan.at; (C)=CC-by-sa or oDBL; feel free to change if necessary"/>
    <tag k="plan_at:acad_id" v="br1576B"/>
    <tag k="source" v="plan.at 2009"/>
    <tag k="uploaded_by" v="Wolfgang W. Wasserburger"/>
  </way>
  <way id="29604376" version="4" timestamp="2009-12-09T02:06:02Z" uid="200463" user="harmagedon" changeset="3330540">
    <nd ref="326118634"/>
    <nd ref="326115357"/>
    <nd ref="326115320"/>
    <tag k="addr:postcode" v="5280"/>
    <tag k="at:maxspeed" v="Ortsgebiet"/>
    <tag k="fixme" v="check import"/>
    <tag k="highway" v="residential"/>
    <tag k="is_in" v="...,Bezirk Braunau,Oberösterreich,Österreich,Europa"/>
    <tag k="name" v="Ranshofen"/>
    <tag k="note" v="imported from plan.at; (C)=CC-by-sa or oDBL; feel free to change if necessary"/>
    <tag k="plan_at:acad_id" v="br1576B"/>
    <tag k="source" v="plan.at 2009"/>
  </way>
  <way id="29604379" version="3" timestamp="2009-12-08T08:41:27Z" uid="200463" user="harmagedon" changeset="3322149">
    <nd ref="326118652"/>
    <nd ref="326118660"/>
    <nd ref="326118672"/>
    <nd ref="326118677"/>
    <nd ref="326115342"/>
    <nd ref="326115312"/>
    <tag k="addr:postcode" v="5280"/>
    <tag k="at:maxspeed" v="Ortsgebiet"/>
    <tag k="fixme" v="check import"/>
    <tag k="highway" v="residential"/>
    <tag k="is_in" v="...,Bezirk Braunau,Oberösterreich,Österreich,Europa"/>
    <tag k="name" v="Ölschlagerweg"/>
    <tag k="note" v="imported from plan.at; (C)=CC-by-sa or oDBL; feel free to change if necessary"/>
    <tag k="plan_at:acad_id" v="br15767"/>
    <tag k="source" v="plan.at 2009"/>
    <tag k="uploaded_by" v="Wolfgang W. Wasserburger"/>
  </way>
  <way id="29604379" version="4" timestamp="2009-12-09T02:06:02Z" uid="200463" user="harmagedon" changeset="3330540">
    <nd ref="326118652"/>
    <nd ref="326118660"/>
    <nd ref="326118672"/>
    <nd ref="326118677"/>
    <nd ref="326115342"/>
    <nd ref="326115312"/>
    <tag k="addr:postcode" v="5280"/>
    <tag k="at:maxspeed" v="Ortsgebiet"/>
    <tag k="fixme" v="check import"/>
    <tag k="highway" v="residential"/>
    <tag k="is_in" v="...,Bezirk Braunau,Oberösterreich,Österreich,Europa"/>
    <tag k="name" v="Ölschlagerweg"/>
    <tag k="note" v="imported from plan.at; (C)=CC-by-sa or oDBL; feel free to change if necessary"/>
    <tag k="plan_at:acad_id" v="br15767"/>
    <tag k="source" v="plan.at 2009"/>
  </way>
  <way id="29604382" version="3" timestamp="2009-12-08T08:41:28Z" uid="200463" user="harmagedon" changeset="3322149">
    <nd ref="326118697"/>
    <nd ref="326115379"/>
    <nd ref="326115369"/>
    <nd ref="326118701"/>
    <nd ref="326118706"/>
    <tag k="addr:postcode" v="5280"/>
    <tag k="at:maxspeed" v="Ortsgebiet"/>
    <tag k="fixme" v="check import"/>
    <tag k="highway" v="residential"/>
    <tag k="is_in" v="...,Bezirk Braunau,Oberösterreich,Österreich,Europa"/>
    <tag k="name" v="Auf der Pfarrwiese"/>
    <tag k="note" v="imported from plan.at; (C)=CC-by-sa or oDBL; feel free to change if necessary"/>
    <tag k="plan_at:acad_id" v="br15764"/>
    <tag k="source" v="plan.at 2009"/>
    <tag k="uploaded_by" v="Wolfgang W. Wasserburger"/>
  </way>
  <way id="29604382" version="4" timestamp="2009-12-09T02:06:03Z" uid="200463" user="harmagedon" changeset="3330540">
    <nd ref="326118697"/>
    <nd ref="326115379"/>
    <nd ref="326115369"/>
    <nd ref="326118701"/>
    <nd ref="326118706"/>
    <tag k="addr:postcode" v="5280"/>
    <tag k="at:maxspeed" v="Ortsgebiet"/>
    <tag k="fixme" v="check import"/>
    <tag k="highway" v="residential"/>
    <tag k="is_in" v="...,Bezirk Braunau,Oberösterreich,Österreich,Europa"/>
    <tag k="name" v="Auf der Pfarrwiese"/>
    <tag k="note" v="imported from plan.at; (C)=CC-by-sa or oDBL; feel free to change if necessary"/>
    <tag k="plan_at:acad_id" v="br15764"/>
    <tag k="source" v="plan.at 2009"/>
  </way>
  <way id="29604385" version="3" timestamp="2009-12-08T08:41:45Z" uid="200463" user="harmagedon" changeset="3322149">
    <nd ref="326118725"/>
    <nd ref="326118732"/>
    <tag k="addr:postcode" v="5280"/>
    <tag k="at:maxspeed" v="Ortsgebiet"/>
    <tag k="fixme" v="check import"/>
    <tag k="highway" v="residential"/>
    <tag k="is_in" v="...,Bezirk Braunau,Oberösterreich,Österreich,Europa"/>
    <tag k="name" v="Brieffeldstraße"/>
    <tag k="note" v="imported from plan.at; (C)=CC-by-sa or oDBL; feel free to change if necessary"/>
    <tag k="plan_at:acad_id" v="br15761"/>
    <tag k="source" v="plan.at 2009"/>
    <tag k="uploaded_by" v="Wolfgang W. Wasserburger"/>
  </way>
  <way id="29604385" version="4" timestamp="2009-12-09T02:06:24Z" uid="200463" user="harmagedon" changeset="3330540">
    <nd ref="326118725"/>
    <nd ref="326118732"/>
    <tag k="addr:postcode" v="5280"/>
    <tag k="at:maxspeed" v="Ortsgebiet"/>
    <tag k="fixme" v="check import"/>
    <tag k="highway" v="residential"/>
    <tag k="is_in" v="...,Bezirk Braunau,Oberösterreich,Österreich,Europa"/>
    <tag k="name" v="Brieffeldstraße"/>
    <tag k="note" v="imported from plan.at; (C)=CC-by-sa or oDBL; feel free to change if necessary"/>
    <tag k="plan_at:acad_id" v="br15761"/>
    <tag k="source" v="plan.at 2009"/>
  </way>
  <way id="29604391" version="4" timestamp="2009-12-09T02:06:05Z" uid="200463" user="harmagedon" changeset="3330540">
    <nd ref="326118750"/>
    <nd ref="326118753"/>
    <nd ref="326118697"/>
    <nd ref="326118652"/>
    <nd ref="326118634"/>
    <nd ref="326115364"/>
    <nd ref="326118757"/>
    <nd ref="326118765"/>
    <nd ref="326118706"/>
    <nd ref="326115334"/>
    <nd ref="326118770"/>
    <nd ref="326115299"/>
    <nd ref="326118773"/>
    <nd ref="326118776"/>
    <nd ref="326118777"/>
    <nd ref="326118780"/>
    <nd ref="326112854"/>
    <tag k="addr:postcode" v="5280"/>
    <tag k="at:maxspeed" v="Ortsgebiet"/>
    <tag k="fixme" v="check import"/>
    <tag k="highway" v="residential"/>
    <tag k="is_in" v="...,Bezirk Braunau,Oberösterreich,Österreich,Europa"/>
    <tag k="name" v="Mitterweg"/>
    <tag k="note" v="imported from plan.at; (C)=CC-by-sa or oDBL; feel free to change if necessary"/>
    <tag k="plan_at:acad_id" v="br1575E"/>
    <tag k="source" v="plan.at 2009"/>
  </way>
  <way id="29604396" version="4" timestamp="2009-12-09T02:05:07Z" uid="200463" user="harmagedon" changeset="3330540">
    <nd ref="326118791"/>
    <nd ref="326118792"/>
    <nd ref="326115235"/>
    <nd ref="326118796"/>
    <nd ref="326118799"/>
    <tag k="addr:postcode" v="5280"/>
    <tag k="at:maxspeed" v="Ortsgebiet"/>
    <tag k="fixme" v="check import"/>
    <tag k="highway" v="residential"/>
    <tag k="is_in" v="...,Bezirk Braunau,Oberösterreich,Österreich,Europa"/>
    <tag k="name" v="Ranshofen"/>
    <tag k="note" v="imported from plan.at; (C)=CC-by-sa or oDBL; feel free to change if necessary"/>
    <tag k="plan_at:acad_id" v="br1575B"/>
    <tag k="source" v="plan.at 2009"/>
  </way>
  <way id="29604398" version="3" timestamp="2009-12-08T08:41:40Z" uid="200463" user="harmagedon" changeset="3322149">
    <nd ref="326118804"/>
    <nd ref="326118808"/>
    <tag k="addr:postcode" v="5280"/>
    <tag k="at:maxspeed" v="Ortsgebiet"/>
    <tag k="fixme" v="check import"/>
    <tag k="highway" v="track"/>
    <tag k="is_in" v="...,Bezirk Braunau,Oberösterreich,Österreich,Europa"/>
    <tag k="name" v="Ranshofen"/>
    <tag k="note" v="imported from plan.at; (C)=CC-by-sa or oDBL; feel free to change if necessary"/>
    <tag k="plan_at:acad_id" v="br15757"/>
    <tag k="source" v="plan.at 2009"/>
    <tag k="uploaded_by" v="Wolfgang W. Wasserburger"/>
  </way>
  <way id="29604398" version="4" timestamp="2009-12-09T02:06:18Z" uid="200463" user="harmagedon" changeset="3330540">
    <nd ref="326118804"/>
    <nd ref="326118808"/>
    <tag k="addr:postcode" v="5280"/>
    <tag k="at:maxspeed" v="Ortsgebiet"/>
    <tag k="fixme" v="check import"/>
    <tag k="highway" v="track"/>
    <tag k="is_in" v="...,Bezirk Braunau,Oberösterreich,Österreich,Europa"/>
    <tag k="name" v="Ranshofen"/>
    <tag k="note" v="imported from plan.at; (C)=CC-by-sa or oDBL; feel free to change if necessary"/>
    <tag k="plan_at:acad_id" v="br15757"/>
    <tag k="source" v="plan.at 2009"/>
  </way>
  <way id="29604401" version="3" timestamp="2009-12-08T08:41:41Z" uid="200463" user="harmagedon" changeset="3322149">
    <nd ref="326118815"/>
    <nd ref="326118818"/>
    <tag k="addr:postcode" v="5280"/>
    <tag k="at:maxspeed" v="Ortsgebiet"/>
    <tag k="fixme" v="check import"/>
    <tag k="highway" v="residential"/>
    <tag k="is_in" v="...,Bezirk Braunau,Oberösterreich,Österreich,Europa"/>
    <tag k="name" v="Ranshofen"/>
    <tag k="note" v="imported from plan.at; (C)=CC-by-sa or oDBL; feel free to change if necessary"/>
    <tag k="plan_at:acad_id" v="br15753"/>
    <tag k="source" v="plan.at 2009"/>
    <tag k="uploaded_by" v="Wolfgang W. Wasserburger"/>
  </way>
  <way id="29604401" version="4" timestamp="2009-12-09T02:06:18Z" uid="200463" user="harmagedon" changeset="3330540">
    <nd ref="326118815"/>
    <nd ref="326118818"/>
    <tag k="addr:postcode" v="5280"/>
    <tag k="at:maxspeed" v="Ortsgebiet"/>
    <tag k="fixme" v="check import"/>
    <tag k="highway" v="residential"/>
    <tag k="is_in" v="...,Bezirk Braunau,Oberösterreich,Österreich,Europa"/>
    <tag k="name" v="Ranshofen"/>
    <tag k="note" v="imported from plan.at; (C)=CC-by-sa or oDBL; feel free to change if necessary"/>
    <tag k="plan_at:acad_id" v="br15753"/>
    <tag k="source" v="plan.at 2009"/>
  </way>
  <way id="29604408" version="3" timestamp="2009-12-08T08:40:51Z" uid="200463" user="harmagedon" changeset="3322149">
    <nd ref="326112592"/>
    <nd ref="326118825"/>
    <nd ref="326118827"/>
    <nd ref="326118830"/>
    <nd ref="326118835"/>
    <nd ref="326118839"/>
    <nd ref="326118804"/>
    <nd ref="326118843"/>
    <nd ref="326118815"/>
    <nd ref="326118845"/>
    <nd ref="326118846"/>
    <nd ref="326118847"/>
    <nd ref="326115438"/>
    <nd ref="326118849"/>
    <nd ref="326102242"/>
    <nd ref="326118854"/>
    <nd ref="326118859"/>
    <nd ref="326118860"/>
    <tag k="addr:postcode" v="5280"/>
    <tag k="at:maxspeed" v="Ortsgebiet"/>
    <tag k="fixme" v="check import"/>
    <tag k="highway" v="residential"/>
    <tag k="is_in" v="...,Bezirk Braunau,Oberösterreich,Österreich,Europa"/>
    <tag k="name" v="Gänsgasse"/>
    <tag k="note" v="imported from plan.at; (C)=CC-by-sa or oDBL; feel free to change if necessary"/>
    <tag k="plan_at:acad_id" v="br15750"/>
    <tag k="source" v="plan.at 2009"/>
    <tag k="uploaded_by" v="Wolfgang W. Wasserburger"/>
  </way>
  <way id="29604408" version="4" timestamp="2009-12-09T02:05:08Z" uid="200463" user="harmagedon" changeset="3330540">
    <nd ref="326112592"/>
    <nd ref="326118825"/>
    <nd ref="326118827"/>
    <nd ref="326118830"/>
    <nd ref="326118835"/>
    <nd ref="326118839"/>
    <nd ref="326118804"/>
    <nd ref="326118843"/>
    <nd ref="326118815"/>
    <nd ref="326118845"/>
    <nd ref="326118846"/>
    <nd ref="326118847"/>
    <nd ref="326115438"/>
    <nd ref="326118849"/>
    <nd ref="326102242"/>
    <nd ref="326118854"/>
    <nd ref="326118859"/>
    <nd ref="326118860"/>
    <tag k="addr:postcode" v="5280"/>
    <tag k="at:maxspeed" v="Ortsgebiet"/>
    <tag k="fixme" v="check import"/>
    <tag k="highway" v="residential"/>
    <tag k="is_in" v="...,Bezirk Braunau,Oberösterreich,Österreich,Europa"/>
    <tag k="name" v="Gänsgasse"/>
    <tag k="note" v="imported from plan.at; (C)=CC-by-sa or oDBL; feel free to change if necessary"/>
    <tag k="plan_at:acad_id" v="br15750"/>
    <tag k="source" v="plan.at 2009"/>
  </way>
  <way id="29604414" version="3" timestamp="2009-12-08T08:40:52Z" uid="200463" user="harmagedon" changeset="3322149">
    <nd ref="326112592"/>
    <nd ref="326118867"/>
    <nd ref="326118872"/>
    <nd ref="326118875"/>
    <nd ref="326118879"/>
    <nd ref="326118808"/>
    <nd ref="326118883"/>
    <nd ref="326118885"/>
    <nd ref="326118818"/>
    <nd ref="326118887"/>
    <nd ref="326118890"/>
    <nd ref="326118895"/>
    <nd ref="326118898"/>
    <nd ref="326118899"/>
    <tag k="addr:postcode" v="5280"/>
    <tag k="at:maxspeed" v="Ortsgebiet"/>
    <tag k="fixme" v="check import"/>
    <tag k="highway" v="residential"/>
    <tag k="is_in" v="...,Bezirk Braunau,Oberösterreich,Österreich,Europa"/>
    <tag k="name" v="Obere Hofmark"/>
    <tag k="note" v="imported from plan.at; (C)=CC-by-sa or oDBL; feel free to change if necessary"/>
    <tag k="plan_at:acad_id" v="br1574D"/>
    <tag k="source" v="plan.at 2009"/>
    <tag k="uploaded_by" v="Wolfgang W. Wasserburger"/>
  </way>
  <way id="29604414" version="4" timestamp="2009-12-09T02:05:08Z" uid="200463" user="harmagedon" changeset="3330540">
    <nd ref="326112592"/>
    <nd ref="326118867"/>
    <nd ref="326118872"/>
    <nd ref="326118875"/>
    <nd ref="326118879"/>
    <nd ref="326118808"/>
    <nd ref="326118883"/>
    <nd ref="326118885"/>
    <nd ref="326118818"/>
    <nd ref="326118887"/>
    <nd ref="326118890"/>
    <nd ref="326118895"/>
    <nd ref="326118898"/>
    <nd ref="326118899"/>
    <tag k="addr:postcode" v="5280"/>
    <tag k="at:maxspeed" v="Ortsgebiet"/>
    <tag k="fixme" v="check import"/>
    <tag k="highway" v="residential"/>
    <tag k="is_in" v="...,Bezirk Braunau,Oberösterreich,Österreich,Europa"/>
    <tag k="name" v="Obere Hofmark"/>
    <tag k="note" v="imported from plan.at; (C)=CC-by-sa or oDBL; feel free to change if necessary"/>
    <tag k="plan_at:acad_id" v="br1574D"/>
    <tag k="source" v="plan.at 2009"/>
  </way>
  <way id="29604418" version="3" timestamp="2009-12-08T08:41:14Z" uid="200463" user="harmagedon" changeset="3322149">
    <nd ref="326118913"/>
    <nd ref="326118919"/>
    <tag k="addr:postcode" v="5280"/>
    <tag k="at:maxspeed" v="Ortsgebiet"/>
    <tag k="fixme" v="check import"/>
    <tag k="highway" v="residential"/>
    <tag k="is_in" v="...,Bezirk Braunau,Oberösterreich,Österreich,Europa"/>
    <tag k="name" v="Ranshofen"/>
    <tag k="note" v="imported from plan.at; (C)=CC-by-sa or oDBL; feel free to change if necessary"/>
    <tag k="plan_at:acad_id" v="br1574A"/>
    <tag k="source" v="plan.at 2009"/>
    <tag k="uploaded_by" v="Wolfgang W. Wasserburger"/>
  </way>
  <way id="29604418" version="4" timestamp="2009-12-09T02:05:21Z" uid="200463" user="harmagedon" changeset="3330540">
    <nd ref="326118913"/>
    <nd ref="326118919"/>
    <tag k="addr:postcode" v="5280"/>
    <tag k="at:maxspeed" v="Ortsgebiet"/>
    <tag k="fixme" v="check import"/>
    <tag k="highway" v="residential"/>
    <tag k="is_in" v="...,Bezirk Braunau,Oberösterreich,Österreich,Europa"/>
    <tag k="name" v="Ranshofen"/>
    <tag k="note" v="imported from plan.at; (C)=CC-by-sa or oDBL; feel free to change if necessary"/>
    <tag k="plan_at:acad_id" v="br1574A"/>
    <tag k="source" v="plan.at 2009"/>
  </way>
  <way id="29604426" version="4" timestamp="2009-12-09T02:05:20Z" uid="200463" user="harmagedon" changeset="3330540">
    <nd ref="326118929"/>
    <nd ref="326118934"/>
    <nd ref="326118936"/>
    <nd ref="326118941"/>
    <nd ref="326118947"/>
    <nd ref="326118950"/>
    <nd ref="326118952"/>
    <nd ref="326115450"/>
    <nd ref="326118956"/>
    <tag k="addr:postcode" v="5280"/>
    <tag k="at:maxspeed" v="Ortsgebiet"/>
    <tag k="fixme" v="check import"/>
    <tag k="highway" v="residential"/>
    <tag k="is_in" v="...,Bezirk Braunau,Oberösterreich,Österreich,Europa"/>
    <tag k="name" v="Werkstraße"/>
    <tag k="note" v="imported from plan.at; (C)=CC-by-sa or oDBL; feel free to change if necessary"/>
    <tag k="plan_at:acad_id" v="br156D3"/>
    <tag k="source" v="plan.at 2009"/>
  </way>
  <way id="29604430" version="4" timestamp="2009-12-09T02:05:20Z" uid="200463" user="harmagedon" changeset="3330540">
    <nd ref="326118967"/>
    <nd ref="326118973"/>
    <tag k="addr:postcode" v="5280"/>
    <tag k="at:maxspeed" v="Ortsgebiet"/>
    <tag k="fixme" v="check import"/>
    <tag k="highway" v="residential"/>
    <tag k="is_in" v="...,Bezirk Braunau,Oberösterreich,Österreich,Europa"/>
    <tag k="name" v="Ranshofen"/>
    <tag k="note" v="imported from plan.at; (C)=CC-by-sa or oDBL; feel free to change if necessary"/>
    <tag k="plan_at:acad_id" v="br1565C"/>
    <tag k="source" v="plan.at 2009"/>
  </way>
  <way id="29604449" version="4" timestamp="2009-12-09T02:05:22Z" uid="200463" user="harmagedon" changeset="3330540">
    <nd ref="326118899"/>
    <nd ref="326118985"/>
    <nd ref="326118990"/>
    <nd ref="326118996"/>
    <nd ref="326119000"/>
    <nd ref="326119004"/>
    <nd ref="326119009"/>
    <nd ref="326119014"/>
    <nd ref="326119019"/>
    <nd ref="326119022"/>
    <nd ref="326118929"/>
    <nd ref="326118967"/>
    <nd ref="326119030"/>
    <nd ref="326119034"/>
    <nd ref="326119037"/>
    <nd ref="326119039"/>
    <nd ref="326119041"/>
    <nd ref="326119045"/>
    <nd ref="326119050"/>
    <nd ref="326119056"/>
    <nd ref="326119060"/>
    <tag k="addr:postcode" v="5280"/>
    <tag k="at:maxspeed" v="Ortsgebiet"/>
    <tag k="fixme" v="check import"/>
    <tag k="highway" v="residential"/>
    <tag k="is_in" v="...,Bezirk Braunau,Oberösterreich,Österreich,Europa"/>
    <tag k="name" v="Obere Hofmark"/>
    <tag k="note" v="imported from plan.at; (C)=CC-by-sa or oDBL; feel free to change if necessary"/>
    <tag k="plan_at:acad_id" v="br155E5"/>
    <tag k="source" v="plan.at 2009"/>
  </way>
  <way id="29604458" version="4" timestamp="2009-12-09T02:05:21Z" uid="200463" user="harmagedon" changeset="3330540">
    <nd ref="326119086"/>
    <nd ref="326119089"/>
    <nd ref="326119091"/>
    <nd ref="326119094"/>
    <nd ref="326119099"/>
    <nd ref="326119105"/>
    <nd ref="326119108"/>
    <nd ref="326119014"/>
    <tag k="addr:postcode" v="5280"/>
    <tag k="at:maxspeed" v="Ortsgebiet"/>
    <tag k="fixme" v="check import"/>
    <tag k="highway" v="residential"/>
    <tag k="is_in" v="...,Bezirk Braunau,Oberösterreich,Österreich,Europa"/>
    <tag k="name" v="Terrassenweg"/>
    <tag k="note" v="imported from plan.at; (C)=CC-by-sa or oDBL; feel free to change if necessary"/>
    <tag k="plan_at:acad_id" v="br1556E"/>
    <tag k="source" v="plan.at 2009"/>
  </way>
  <way id="29604476" version="3" timestamp="2009-12-08T08:40:53Z" uid="200463" user="harmagedon" changeset="3322149">
    <nd ref="326119129"/>
    <nd ref="326119132"/>
    <nd ref="326119133"/>
    <nd ref="326119135"/>
    <nd ref="326119141"/>
    <nd ref="326119146"/>
    <nd ref="326118913"/>
    <nd ref="326119152"/>
    <nd ref="326119160"/>
    <nd ref="326118899"/>
    <nd ref="326119166"/>
    <nd ref="326119086"/>
    <nd ref="326119171"/>
    <nd ref="326119177"/>
    <nd ref="326119183"/>
    <nd ref="326119189"/>
    <nd ref="326119194"/>
    <nd ref="326119199"/>
    <nd ref="326119204"/>
    <nd ref="326119209"/>
    <nd ref="326119214"/>
    <nd ref="326119219"/>
    <nd ref="326118860"/>
    <nd ref="326119224"/>
    <nd ref="326102399"/>
    <tag k="addr:postcode" v="5280"/>
    <tag k="at:maxspeed" v="Ortsgebiet"/>
    <tag k="fixme" v="check import"/>
    <tag k="highway" v="residential"/>
    <tag k="is_in" v="...,Bezirk Braunau,Oberösterreich,Österreich,Europa"/>
    <tag k="name" v="Hochstraße"/>
    <tag k="note" v="imported from plan.at; (C)=CC-by-sa or oDBL; feel free to change if necessary"/>
    <tag k="plan_at:acad_id" v="br154F7"/>
    <tag k="source" v="plan.at 2009"/>
    <tag k="uploaded_by" v="Wolfgang W. Wasserburger"/>
  </way>
  <way id="29604476" version="4" timestamp="2009-12-09T02:05:09Z" uid="200463" user="harmagedon" changeset="3330540">
    <nd ref="326119129"/>
    <nd ref="326119132"/>
    <nd ref="326119133"/>
    <nd ref="326119135"/>
    <nd ref="326119141"/>
    <nd ref="326119146"/>
    <nd ref="326118913"/>
    <nd ref="326119152"/>
    <nd ref="326119160"/>
    <nd ref="326118899"/>
    <nd ref="326119166"/>
    <nd ref="326119086"/>
    <nd ref="326119171"/>
    <nd ref="326119177"/>
    <nd ref="326119183"/>
    <nd ref="326119189"/>
    <nd ref="326119194"/>
    <nd ref="326119199"/>
    <nd ref="326119204"/>
    <nd ref="326119209"/>
    <nd ref="326119214"/>
    <nd ref="326119219"/>
    <nd ref="326118860"/>
    <nd ref="326119224"/>
    <nd ref="326102399"/>
    <tag k="addr:postcode" v="5280"/>
    <tag k="at:maxspeed" v="Ortsgebiet"/>
    <tag k="fixme" v="check import"/>
    <tag k="highway" v="residential"/>
    <tag k="is_in" v="...,Bezirk Braunau,Oberösterreich,Österreich,Europa"/>
    <tag k="name" v="Hochstraße"/>
    <tag k="note" v="imported from plan.at; (C)=CC-by-sa or oDBL; feel free to change if necessary"/>
    <tag k="plan_at:acad_id" v="br154F7"/>
    <tag k="source" v="plan.at 2009"/>
  </way>
  <way id="29604486" version="4" timestamp="2009-12-08T08:41:29Z" uid="200463" user="harmagedon" changeset="3322149">
    <nd ref="326119242"/>
    <nd ref="326108472"/>
    <nd ref="326119247"/>
    <nd ref="326119253"/>
    <nd ref="326119259"/>
    <nd ref="326119267"/>
    <nd ref="326119274"/>
    <nd ref="326119280"/>
    <nd ref="326119441"/>
    <tag k="addr:postcode" v="5280"/>
    <tag k="at:maxspeed" v="Ortsgebiet"/>
    <tag k="fixme" v="check import"/>
    <tag k="highway" v="residential"/>
    <tag k="is_in" v="...,Bezirk Braunau,Oberösterreich,Österreich,Europa"/>
    <tag k="name" v="Wertheimer Platz"/>
    <tag k="note" v="imported from plan.at; (C)=CC-by-sa or oDBL; feel free to change if necessary"/>
    <tag k="plan_at:acad_id" v="br15480"/>
    <tag k="source" v="plan.at 2009"/>
    <tag k="uploaded_by" v="Wolfgang W. Wasserburger"/>
  </way>
  <way id="29604486" version="5" timestamp="2009-12-09T02:06:06Z" uid="200463" user="harmagedon" changeset="3330540">
    <nd ref="326119242"/>
    <nd ref="326108472"/>
    <nd ref="326119247"/>
    <nd ref="326119253"/>
    <nd ref="326119259"/>
    <nd ref="326119267"/>
    <nd ref="326119274"/>
    <nd ref="326119280"/>
    <nd ref="326119441"/>
    <tag k="addr:postcode" v="5280"/>
    <tag k="at:maxspeed" v="Ortsgebiet"/>
    <tag k="fixme" v="check import"/>
    <tag k="highway" v="residential"/>
    <tag k="is_in" v="...,Bezirk Braunau,Oberösterreich,Österreich,Europa"/>
    <tag k="name" v="Wertheimer Platz"/>
    <tag k="note" v="imported from plan.at; (C)=CC-by-sa or oDBL; feel free to change if necessary"/>
    <tag k="plan_at:acad_id" v="br15480"/>
    <tag k="source" v="plan.at 2009"/>
  </way>
  <way id="29604492" version="3" timestamp="2009-12-08T08:41:48Z" uid="200463" user="harmagedon" changeset="3322149">
    <nd ref="326119318"/>
    <nd ref="326119323"/>
    <tag k="addr:postcode" v="5280"/>
    <tag k="at:maxspeed" v="Ortsgebiet"/>
    <tag k="fixme" v="check import"/>
    <tag k="highway" v="residential"/>
    <tag k="is_in" v="...,Bezirk Braunau,Oberösterreich,Österreich,Europa"/>
    <tag k="name" v="Parkstraße"/>
    <tag k="note" v="imported from plan.at; (C)=CC-by-sa or oDBL; feel free to change if necessary"/>
    <tag k="plan_at:acad_id" v="br15409"/>
    <tag k="source" v="plan.at 2009"/>
    <tag k="uploaded_by" v="Wolfgang W. Wasserburger"/>
  </way>
  <way id="29604492" version="4" timestamp="2009-12-09T02:06:29Z" uid="200463" user="harmagedon" changeset="3330540">
    <nd ref="326119318"/>
    <nd ref="326119323"/>
    <tag k="addr:postcode" v="5280"/>
    <tag k="at:maxspeed" v="Ortsgebiet"/>
    <tag k="fixme" v="check import"/>
    <tag k="highway" v="residential"/>
    <tag k="is_in" v="...,Bezirk Braunau,Oberösterreich,Österreich,Europa"/>
    <tag k="name" v="Parkstraße"/>
    <tag k="note" v="imported from plan.at; (C)=CC-by-sa or oDBL; feel free to change if necessary"/>
    <tag k="plan_at:acad_id" v="br15409"/>
    <tag k="source" v="plan.at 2009"/>
  </way>
  <way id="29604493" version="3" timestamp="2009-12-08T08:41:49Z" uid="200463" user="harmagedon" changeset="3322149">
    <nd ref="326119323"/>
    <nd ref="326115402"/>
    <tag k="addr:postcode" v="5280"/>
    <tag k="at:maxspeed" v="Ortsgebiet"/>
    <tag k="fixme" v="check import"/>
    <tag k="highway" v="residential"/>
    <tag k="is_in" v="...,Bezirk Braunau,Oberösterreich,Österreich,Europa"/>
    <tag k="name" v="Parkstraße"/>
    <tag k="note" v="imported from plan.at; (C)=CC-by-sa or oDBL; feel free to change if necessary"/>
    <tag k="plan_at:acad_id" v="br15392"/>
    <tag k="source" v="plan.at 2009"/>
    <tag k="uploaded_by" v="Wolfgang W. Wasserburger"/>
  </way>
  <way id="29604493" version="4" timestamp="2009-12-09T02:06:29Z" uid="200463" user="harmagedon" changeset="3330540">
    <nd ref="326119323"/>
    <nd ref="326115402"/>
    <tag k="addr:postcode" v="5280"/>
    <tag k="at:maxspeed" v="Ortsgebiet"/>
    <tag k="fixme" v="check import"/>
    <tag k="highway" v="residential"/>
    <tag k="is_in" v="...,Bezirk Braunau,Oberösterreich,Österreich,Europa"/>
    <tag k="name" v="Parkstraße"/>
    <tag k="note" v="imported from plan.at; (C)=CC-by-sa or oDBL; feel free to change if necessary"/>
    <tag k="plan_at:acad_id" v="br15392"/>
    <tag k="source" v="plan.at 2009"/>
  </way>
  <way id="29604502" version="6" timestamp="2009-12-08T08:41:49Z" uid="200463" user="harmagedon" changeset="3322149">
    <nd ref="326115254"/>
    <nd ref="326119353"/>
    <nd ref="410735891"/>
    <nd ref="326119318"/>
    <tag k="addr:postcode" v="5280"/>
    <tag k="at:maxspeed" v="Ortsgebiet"/>
    <tag k="fixme" v="check import"/>
    <tag k="highway" v="track"/>
    <tag k="is_in" v="...,Bezirk Braunau,Oberösterreich,Österreich,Europa"/>
    <tag k="note" v="imported from plan.at; (C)=CC-by-sa or oDBL; feel free to change if necessary"/>
    <tag k="plan_at:acad_id" v="br1531B"/>
    <tag k="source" v="plan.at 2009"/>
    <tag k="uploaded_by" v="Wolfgang W. Wasserburger"/>
  </way>
  <way id="29604502" version="7" timestamp="2009-12-09T02:06:29Z" uid="200463" user="harmagedon" changeset="3330540">
    <nd ref="326115254"/>
    <nd ref="326119353"/>
    <nd ref="410735891"/>
    <nd ref="326119318"/>
    <tag k="addr:postcode" v="5280"/>
    <tag k="at:maxspeed" v="Ortsgebiet"/>
    <tag k="fixme" v="check import"/>
    <tag k="highway" v="track"/>
    <tag k="is_in" v="...,Bezirk Braunau,Oberösterreich,Österreich,Europa"/>
    <tag k="note" v="imported from plan.at; (C)=CC-by-sa or oDBL; feel free to change if necessary"/>
    <tag k="plan_at:acad_id" v="br1531B"/>
    <tag k="source" v="plan.at 2009"/>
  </way>
  <way id="29604510" version="4" timestamp="2009-12-09T02:05:10Z" uid="200463" user="harmagedon" changeset="3330540">
    <nd ref="326119441"/>
    <nd ref="326119448"/>
    <nd ref="326119396"/>
    <nd ref="326119453"/>
    <nd ref="326119461"/>
    <nd ref="326115422"/>
    <nd ref="326119466"/>
    <nd ref="326119473"/>
    <nd ref="326119478"/>
    <nd ref="326115235"/>
    <tag k="addr:postcode" v="5280"/>
    <tag k="at:maxspeed" v="Ortsgebiet"/>
    <tag k="fixme" v="check import"/>
    <tag k="highway" v="residential"/>
    <tag k="is_in" v="...,Bezirk Braunau,Oberösterreich,Österreich,Europa"/>
    <tag k="name" v="Benno-Maier-Straße"/>
    <tag k="note" v="imported from plan.at; (C)=CC-by-sa or oDBL; feel free to change if necessary"/>
    <tag k="plan_at:acad_id" v="br152A4"/>
    <tag k="source" v="plan.at 2009"/>
  </way>
  <way id="29604521" version="4" timestamp="2009-12-08T08:41:20Z" uid="200463" user="harmagedon" changeset="3322149">
    <nd ref="326119500"/>
    <nd ref="326119509"/>
    <nd ref="410734021"/>
    <nd ref="326119441"/>
    <nd ref="326119517"/>
    <nd ref="326119522"/>
    <nd ref="326119287"/>
    <nd ref="326119528"/>
    <nd ref="326119533"/>
    <nd ref="326115402"/>
    <nd ref="326119537"/>
    <nd ref="326115288"/>
    <nd ref="326111971"/>
    <nd ref="326119542"/>
    <nd ref="326119547"/>
    <nd ref="326119553"/>
    <nd ref="326114538"/>
    <tag k="addr:postcode" v="5280"/>
    <tag k="at:maxspeed" v="Ortsgebiet"/>
    <tag k="fixme" v="check import"/>
    <tag k="highway" v="residential"/>
    <tag k="is_in" v="...,Bezirk Braunau,Oberösterreich,Österreich,Europa"/>
    <tag k="name" v="Schloßstraße"/>
    <tag k="note" v="imported from plan.at; (C)=CC-by-sa or oDBL; feel free to change if necessary"/>
    <tag k="plan_at:acad_id" v="br1522D"/>
    <tag k="source" v="plan.at 2009"/>
    <tag k="uploaded_by" v="Wolfgang W. Wasserburger"/>
  </way>
  <way id="29604521" version="5" timestamp="2009-12-09T02:05:40Z" uid="200463" user="harmagedon" changeset="3330540">
    <nd ref="326119500"/>
    <nd ref="326119509"/>
    <nd ref="410734021"/>
    <nd ref="326119441"/>
    <nd ref="326119517"/>
    <nd ref="326119522"/>
    <nd ref="326119287"/>
    <nd ref="326119528"/>
    <nd ref="326119533"/>
    <nd ref="326115402"/>
    <nd ref="326119537"/>
    <nd ref="326115288"/>
    <nd ref="326111971"/>
    <nd ref="326119542"/>
    <nd ref="326119547"/>
    <nd ref="326119553"/>
    <nd ref="326114538"/>
    <tag k="addr:postcode" v="5280"/>
    <tag k="at:maxspeed" v="Ortsgebiet"/>
    <tag k="fixme" v="check import"/>
    <tag k="highway" v="residential"/>
    <tag k="is_in" v="...,Bezirk Braunau,Oberösterreich,Österreich,Europa"/>
    <tag k="name" v="Schloßstraße"/>
    <tag k="note" v="imported from plan.at; (C)=CC-by-sa or oDBL; feel free to change if necessary"/>
    <tag k="plan_at:acad_id" v="br1522D"/>
    <tag k="source" v="plan.at 2009"/>
  </way>
  <way id="29604526" version="4" timestamp="2009-12-09T02:07:17Z" uid="200463" user="harmagedon" changeset="3330540">
    <nd ref="326119568"/>
    <nd ref="326119573"/>
    <tag k="addr:postcode" v="5280"/>
    <tag k="at:maxspeed" v="Ortsgebiet"/>
    <tag k="highway" v="residential"/>
    <tag k="is_in" v="...,Bezirk Braunau,Oberösterreich,Österreich,Europa"/>
    <tag k="name" v="Kranewittweg"/>
    <tag k="note" v="imported from plan.at; (C)=CC-by-sa or oDBL; feel free to change if necessary"/>
    <tag k="plan_at:acad_id" v="br150C8"/>
    <tag k="source" v="plan.at 2009"/>
  </way>
  <way id="29604556" version="4" timestamp="2009-12-09T02:08:25Z" uid="200463" user="harmagedon" changeset="3330540">
    <nd ref="326105402"/>
    <nd ref="326119637"/>
    <nd ref="326119643"/>
    <nd ref="326119646"/>
    <nd ref="326119648"/>
    <nd ref="326111912"/>
    <nd ref="326119654"/>
    <nd ref="326119658"/>
    <nd ref="326119661"/>
    <nd ref="326119665"/>
    <nd ref="326119668"/>
    <nd ref="326119674"/>
    <nd ref="326119678"/>
    <nd ref="326111878"/>
    <tag k="addr:postcode" v="5280"/>
    <tag k="at:maxspeed" v="Ortsgebiet"/>
    <tag k="fixme" v="check import"/>
    <tag k="highway" v="unclassified"/>
    <tag k="is_in" v="...,Bezirk Braunau,Oberösterreich,Österreich,Europa"/>
    <tag k="name" v="Braunau"/>
    <tag k="note" v="imported from plan.at; (C)=CC-by-sa or oDBL; feel free to change if necessary"/>
    <tag k="plan_at:acad_id" v="br14EEC"/>
    <tag k="source" v="plan.at 2009"/>
  </way>
  <way id="29604565" version="4" timestamp="2009-12-09T02:08:32Z" uid="200463" user="harmagedon" changeset="3330540">
    <nd ref="326119691"/>
    <nd ref="326119694"/>
    <nd ref="326119698"/>
    <nd ref="326119702"/>
    <nd ref="326119705"/>
    <nd ref="326111835"/>
    <nd ref="326111816"/>
    <tag k="addr:postcode" v="5280"/>
    <tag k="at:maxspeed" v="Ortsgebiet"/>
    <tag k="fixme" v="check import"/>
    <tag k="highway" v="unclassified"/>
    <tag k="is_in" v="...,Bezirk Braunau,Oberösterreich,Österreich,Europa"/>
    <tag k="name" v="Braunau"/>
    <tag k="note" v="imported from plan.at; (C)=CC-by-sa or oDBL; feel free to change if necessary"/>
    <tag k="plan_at:acad_id" v="br14E75"/>
    <tag k="source" v="plan.at 2009"/>
  </way>
  <way id="29604568" version="4" timestamp="2009-12-09T02:11:00Z" uid="200463" user="harmagedon" changeset="3330540">
    <nd ref="326119711"/>
    <nd ref="326110546"/>
    <tag k="addr:postcode" v="5280"/>
    <tag k="at:maxspeed" v="Ortsgebiet"/>
    <tag k="fixme" v="check import"/>
    <tag k="highway" v="residential"/>
    <tag k="is_in" v="...,Bezirk Braunau,Oberösterreich,Österreich,Europa"/>
    <tag k="name" v="Mattigsenke"/>
    <tag k="note" v="imported from plan.at; (C)=CC-by-sa or oDBL; feel free to change if necessary"/>
    <tag k="plan_at:acad_id" v="br14DFE"/>
    <tag k="source" v="plan.at 2009"/>
  </way>
  <way id="29604572" version="3" timestamp="2009-12-08T08:42:47Z" uid="200463" user="harmagedon" changeset="3322149">
    <nd ref="276074160"/>
    <nd ref="326119734"/>
    <tag k="addr:postcode" v="5280"/>
    <tag k="at:maxspeed" v="Ortsgebiet"/>
    <tag k="highway" v="residential"/>
    <tag k="is_in" v="...,Bezirk Braunau,Oberösterreich,Österreich,Europa"/>
    <tag k="name" v="Rupert Gugg Straße"/>
    <tag k="note" v="imported from plan.at; (C)=CC-by-sa or oDBL; feel free to change if necessary"/>
    <tag k="plan_at:acad_id" v="br14D87"/>
    <tag k="source" v="plan.at 2009"/>
    <tag k="uploaded_by" v="Wolfgang W. Wasserburger"/>
  </way>
  <way id="29604572" version="4" timestamp="2009-12-09T02:07:39Z" uid="200463" user="harmagedon" changeset="3330540">
    <nd ref="276074160"/>
    <nd ref="326119734"/>
    <tag k="addr:postcode" v="5280"/>
    <tag k="at:maxspeed" v="Ortsgebiet"/>
    <tag k="highway" v="residential"/>
    <tag k="is_in" v="...,Bezirk Braunau,Oberösterreich,Österreich,Europa"/>
    <tag k="name" v="Rupert Gugg Straße"/>
    <tag k="note" v="imported from plan.at; (C)=CC-by-sa or oDBL; feel free to change if necessary"/>
    <tag k="plan_at:acad_id" v="br14D87"/>
    <tag k="source" v="plan.at 2009"/>
  </way>
  <way id="29604576" version="4" timestamp="2009-12-08T08:42:48Z" uid="200463" user="harmagedon" changeset="3322149">
    <nd ref="335579015"/>
    <nd ref="276074166"/>
    <nd ref="326119747"/>
    <nd ref="276076668"/>
    <nd ref="326110597"/>
    <tag k="addr:postcode" v="5280"/>
    <tag k="at:maxspeed" v="Ortsgebiet"/>
    <tag k="highway" v="residential"/>
    <tag k="is_in" v="...,Bezirk Braunau,Oberösterreich,Österreich,Europa"/>
    <tag k="name" v="Franz Xaver Gruber Straße"/>
    <tag k="note" v="imported from plan.at; (C)=CC-by-sa or oDBL; feel free to change if necessary"/>
    <tag k="plan_at:acad_id" v="br14D10"/>
    <tag k="source" v="plan.at 2009"/>
    <tag k="uploaded_by" v="Wolfgang W. Wasserburger"/>
  </way>
  <way id="29604576" version="5" timestamp="2009-12-09T02:07:41Z" uid="200463" user="harmagedon" changeset="3330540">
    <nd ref="335579015"/>
    <nd ref="276074166"/>
    <nd ref="326119747"/>
    <nd ref="276076668"/>
    <nd ref="326110597"/>
    <tag k="addr:postcode" v="5280"/>
    <tag k="at:maxspeed" v="Ortsgebiet"/>
    <tag k="highway" v="residential"/>
    <tag k="is_in" v="...,Bezirk Braunau,Oberösterreich,Österreich,Europa"/>
    <tag k="name" v="Franz Xaver Gruber Straße"/>
    <tag k="note" v="imported from plan.at; (C)=CC-by-sa or oDBL; feel free to change if necessary"/>
    <tag k="plan_at:acad_id" v="br14D10"/>
    <tag k="source" v="plan.at 2009"/>
  </way>
  <way id="29604579" version="4" timestamp="2009-12-08T08:42:48Z" uid="200463" user="harmagedon" changeset="3322149">
    <nd ref="276074155"/>
    <nd ref="276074160"/>
    <nd ref="335579015"/>
    <nd ref="326115211"/>
    <nd ref="326115222"/>
    <nd ref="326115226"/>
    <tag k="addr:postcode" v="5280"/>
    <tag k="at:maxspeed" v="Ortsgebiet"/>
    <tag k="highway" v="residential"/>
    <tag k="is_in" v="...,Bezirk Braunau,Oberösterreich,Österreich,Europa"/>
    <tag k="name" v="Rupert Gugg Straße"/>
    <tag k="note" v="imported from plan.at; (C)=CC-by-sa or oDBL; feel free to change if necessary"/>
    <tag k="plan_at:acad_id" v="br14C99"/>
    <tag k="source" v="plan.at 2009"/>
    <tag k="uploaded_by" v="Wolfgang W. Wasserburger"/>
  </way>
  <way id="29604579" version="5" timestamp="2009-12-09T02:07:40Z" uid="200463" user="harmagedon" changeset="3330540">
    <nd ref="276074155"/>
    <nd ref="276074160"/>
    <nd ref="335579015"/>
    <nd ref="326115211"/>
    <nd ref="326115222"/>
    <nd ref="326115226"/>
    <tag k="addr:postcode" v="5280"/>
    <tag k="at:maxspeed" v="Ortsgebiet"/>
    <tag k="highway" v="residential"/>
    <tag k="is_in" v="...,Bezirk Braunau,Oberösterreich,Österreich,Europa"/>
    <tag k="name" v="Rupert Gugg Straße"/>
    <tag k="note" v="imported from plan.at; (C)=CC-by-sa or oDBL; feel free to change if necessary"/>
    <tag k="plan_at:acad_id" v="br14C99"/>
    <tag k="source" v="plan.at 2009"/>
  </way>
  <way id="29604582" version="4" timestamp="2009-12-09T02:08:02Z" uid="200463" user="harmagedon" changeset="3330540">
    <nd ref="326119762"/>
    <nd ref="326119765"/>
    <tag k="addr:postcode" v="5280"/>
    <tag k="at:maxspeed" v="Ortsgebiet"/>
    <tag k="fixme" v="check import"/>
    <tag k="highway" v="track"/>
    <tag k="is_in" v="...,Bezirk Braunau,Oberösterreich,Österreich,Europa"/>
    <tag k="name" v="Roitfeldweg"/>
    <tag k="note" v="imported from plan.at; (C)=CC-by-sa or oDBL; feel free to change if necessary"/>
    <tag k="plan_at:acad_id" v="br14C22"/>
    <tag k="source" v="plan.at 2009"/>
  </way>
  <way id="29604589" version="3" timestamp="2009-12-08T08:43:48Z" uid="200463" user="harmagedon" changeset="3322149">
    <nd ref="326119798"/>
    <nd ref="326119802"/>
    <tag k="addr:postcode" v="5280"/>
    <tag k="at:maxspeed" v="Ortsgebiet"/>
    <tag k="highway" v="residential"/>
    <tag k="is_in" v="...,Bezirk Braunau,Oberösterreich,Österreich,Europa"/>
    <tag k="name" v="Braunau"/>
    <tag k="note" v="imported from plan.at; (C)=CC-by-sa or oDBL; feel free to change if necessary"/>
    <tag k="plan_at:acad_id" v="br14B34"/>
    <tag k="source" v="plan.at 2009"/>
    <tag k="uploaded_by" v="Wolfgang W. Wasserburger"/>
  </way>
  <way id="29604589" version="4" timestamp="2009-12-09T02:10:32Z" uid="200463" user="harmagedon" changeset="3330540">
    <nd ref="326119798"/>
    <nd ref="326119802"/>
    <tag k="addr:postcode" v="5280"/>
    <tag k="at:maxspeed" v="Ortsgebiet"/>
    <tag k="highway" v="residential"/>
    <tag k="is_in" v="...,Bezirk Braunau,Oberösterreich,Österreich,Europa"/>
    <tag k="name" v="Braunau"/>
    <tag k="note" v="imported from plan.at; (C)=CC-by-sa or oDBL; feel free to change if necessary"/>
    <tag k="plan_at:acad_id" v="br14B34"/>
    <tag k="source" v="plan.at 2009"/>
  </way>
  <way id="29604597" version="4" timestamp="2009-12-09T02:10:45Z" uid="200463" user="harmagedon" changeset="3330540">
    <nd ref="326119814"/>
    <nd ref="326119818"/>
    <nd ref="326119820"/>
    <nd ref="326119824"/>
    <nd ref="326119828"/>
    <nd ref="326119830"/>
    <tag k="addr:postcode" v="5280"/>
    <tag k="at:maxspeed" v="Ortsgebiet"/>
    <tag k="fixme" v="check import"/>
    <tag k="highway" v="track"/>
    <tag k="is_in" v="...,Bezirk Braunau,Oberösterreich,Österreich,Europa"/>
    <tag k="name" v="Braunau"/>
    <tag k="note" v="imported from plan.at; (C)=CC-by-sa or oDBL; feel free to change if necessary"/>
    <tag k="plan_at:acad_id" v="br14ABD"/>
    <tag k="source" v="plan.at 2009"/>
  </way>
  <way id="29604601" version="3" timestamp="2009-12-08T08:43:53Z" uid="200463" user="harmagedon" changeset="3322149">
    <nd ref="326119840"/>
    <nd ref="326119844"/>
    <tag k="addr:postcode" v="5280"/>
    <tag k="at:maxspeed" v="Ortsgebiet"/>
    <tag k="highway" v="residential"/>
    <tag k="is_in" v="...,Bezirk Braunau,Oberösterreich,Österreich,Europa"/>
    <tag k="name" v="Wagnerbauerstraße"/>
    <tag k="note" v="imported from plan.at; (C)=CC-by-sa or oDBL; feel free to change if necessary"/>
    <tag k="plan_at:acad_id" v="br14A46"/>
    <tag k="source" v="plan.at 2009"/>
    <tag k="uploaded_by" v="Wolfgang W. Wasserburger"/>
  </way>
  <way id="29604601" version="4" timestamp="2009-12-09T02:11:00Z" uid="200463" user="harmagedon" changeset="3330540">
    <nd ref="326119840"/>
    <nd ref="326119844"/>
    <tag k="addr:postcode" v="5280"/>
    <tag k="at:maxspeed" v="Ortsgebiet"/>
    <tag k="highway" v="residential"/>
    <tag k="is_in" v="...,Bezirk Braunau,Oberösterreich,Österreich,Europa"/>
    <tag k="name" v="Wagnerbauerstraße"/>
    <tag k="note" v="imported from plan.at; (C)=CC-by-sa or oDBL; feel free to change if necessary"/>
    <tag k="plan_at:acad_id" v="br14A46"/>
    <tag k="source" v="plan.at 2009"/>
  </way>
  <way id="29604607" version="5" timestamp="2009-12-09T02:08:00Z" uid="200463" user="harmagedon" changeset="3330540">
    <nd ref="326119853"/>
    <nd ref="330178656"/>
    <nd ref="330178658"/>
    <nd ref="275017260"/>
    <tag k="addr:postcode" v="5280"/>
    <tag k="at:maxspeed" v="Ortsgebiet"/>
    <tag k="highway" v="residential"/>
    <tag k="is_in" v="...,Bezirk Braunau,Oberösterreich,Österreich,Europa"/>
    <tag k="name" v="Slatnerstraße"/>
    <tag k="note" v="imported from plan.at; (C)=CC-by-sa or oDBL; feel free to change if necessary"/>
    <tag k="plan_at:acad_id" v="br149CF"/>
    <tag k="source" v="plan.at 2009"/>
  </way>
  <way id="29604610" version="5" timestamp="2009-12-09T02:04:37Z" uid="200463" user="harmagedon" changeset="3330540">
    <nd ref="326119862"/>
    <nd ref="326119867"/>
    <nd ref="330178659"/>
    <nd ref="326119857"/>
    <tag k="addr:postcode" v="5280"/>
    <tag k="at:maxspeed" v="Ortsgebiet"/>
    <tag k="fixme" v="check import"/>
    <tag k="highway" v="residential"/>
    <tag k="is_in" v="...,Bezirk Braunau,Oberösterreich,Österreich,Europa"/>
    <tag k="name" v="Vierthalerstraße"/>
    <tag k="note" v="imported from plan.at; (C)=CC-by-sa or oDBL; feel free to change if necessary"/>
    <tag k="plan_at:acad_id" v="br14958"/>
    <tag k="source" v="plan.at 2009"/>
  </way>
  <way id="29604616" version="5" timestamp="2009-12-09T02:07:32Z" uid="200463" user="harmagedon" changeset="3330540">
    <nd ref="326119881"/>
    <nd ref="334513493"/>
    <nd ref="330178639"/>
    <nd ref="326119884"/>
    <nd ref="326119887"/>
    <nd ref="326119889"/>
    <tag k="addr:postcode" v="5280"/>
    <tag k="at:maxspeed" v="Ortsgebiet"/>
    <tag k="highway" v="residential"/>
    <tag k="is_in" v="...,Bezirk Braunau,Oberösterreich,Österreich,Europa"/>
    <tag k="name" v="Sepp-Auer-Weg"/>
    <tag k="note" v="imported from plan.at; (C)=CC-by-sa or oDBL; feel free to change if necessary"/>
    <tag k="plan_at:acad_id" v="br148E1"/>
    <tag k="source" v="plan.at 2009"/>
  </way>
  <way id="29604621" version="5" timestamp="2009-12-09T02:04:36Z" uid="200463" user="harmagedon" changeset="3330540">
    <nd ref="326119897"/>
    <nd ref="326112991"/>
    <nd ref="244401558"/>
    <nd ref="244400324"/>
    <nd ref="326119898"/>
    <nd ref="335549650"/>
    <nd ref="335538916"/>
    <nd ref="335538918"/>
    <tag k="addr:postcode" v="5280"/>
    <tag k="at:maxspeed" v="Ortsgebiet"/>
    <tag k="highway" v="residential"/>
    <tag k="is_in" v="...,Bezirk Braunau,Oberösterreich,Österreich,Europa"/>
    <tag k="name" v="Erlachweg"/>
    <tag k="note" v="imported from plan.at; (C)=CC-by-sa or oDBL; feel free to change if necessary"/>
    <tag k="plan_at:acad_id" v="br1486A"/>
    <tag k="source" v="plan.at 2009"/>
  </way>
  <way id="29604626" version="5" timestamp="2009-12-09T02:09:48Z" uid="200463" user="harmagedon" changeset="3330540">
    <nd ref="326119912"/>
    <nd ref="326119916"/>
    <nd ref="330185939"/>
    <nd ref="330185941"/>
    <nd ref="330185942"/>
    <nd ref="326119920"/>
    <tag k="addr:postcode" v="5280"/>
    <tag k="at:maxspeed" v="Ortsgebiet"/>
    <tag k="highway" v="living_street"/>
    <tag k="is_in" v="...,Bezirk Braunau,Oberösterreich,Österreich,Europa"/>
    <tag k="name" v="Am Stadtbach"/>
    <tag k="note" v="imported from plan.at; (C)=CC-by-sa or oDBL; feel free to change if necessary"/>
    <tag k="plan_at:acad_id" v="br147F3"/>
    <tag k="source" v="plan.at 2009"/>
  </way>
  <way id="29604639" version="5" timestamp="2009-12-09T02:10:02Z" uid="200463" user="harmagedon" changeset="3330540">
    <nd ref="265802357"/>
    <nd ref="326119931"/>
    <nd ref="326119934"/>
    <nd ref="326119940"/>
    <nd ref="265802372"/>
    <nd ref="287116626"/>
    <nd ref="326119944"/>
    <nd ref="326119947"/>
    <nd ref="335556823"/>
    <nd ref="326119953"/>
    <nd ref="335556824"/>
    <nd ref="335556825"/>
    <nd ref="326119956"/>
    <tag k="addr:postcode" v="5280"/>
    <tag k="at:maxspeed" v="Ortsgebiet"/>
    <tag k="foot" v="yes"/>
    <tag k="highway" v="cycleway"/>
    <tag k="is_in" v="...,Bezirk Braunau,Oberösterreich,Österreich,Europa"/>
    <tag k="name" v="Haselbacher Gehweg"/>
    <tag k="note" v="imported from plan.at; (C)=CC-by-sa or oDBL; feel free to change if necessary"/>
    <tag k="plan_at:acad_id" v="br1477C"/>
    <tag k="source" v="plan.at 2009"/>
  </way>
  <way id="29604645" version="5" timestamp="2009-12-09T02:09:48Z" uid="200463" user="harmagedon" changeset="3330540">
    <nd ref="326119966"/>
    <nd ref="335549856"/>
    <nd ref="326119967"/>
    <tag k="addr:postcode" v="5280"/>
    <tag k="at:maxspeed" v="Ortsgebiet"/>
    <tag k="highway" v="residential"/>
    <tag k="is_in" v="...,Bezirk Braunau,Oberösterreich,Österreich,Europa"/>
    <tag k="name" v="Bachgasse"/>
    <tag k="note" v="imported from plan.at; (C)=CC-by-sa or oDBL; feel free to change if necessary"/>
    <tag k="plan_at:acad_id" v="br14705"/>
    <tag k="source" v="plan.at 2009"/>
  </way>
  <way id="29604648" version="5" timestamp="2009-12-09T02:10:12Z" uid="200463" user="harmagedon" changeset="3330540">
    <nd ref="326119976"/>
    <nd ref="334075273"/>
    <nd ref="326119978"/>
    <tag k="addr:postcode" v="5280"/>
    <tag k="at:maxspeed" v="Ortsgebiet"/>
    <tag k="highway" v="footway"/>
    <tag k="is_in" v="...,Bezirk Braunau,Oberösterreich,Österreich,Europa"/>
    <tag k="name" v="Kaiserschützenstraße"/>
    <tag k="note" v="imported from plan.at; (C)=CC-by-sa or oDBL; feel free to change if necessary"/>
    <tag k="plan_at:acad_id" v="br14617"/>
    <tag k="source" v="plan.at 2009"/>
  </way>
  <way id="29604656" version="7" timestamp="2009-12-09T02:09:11Z" uid="200463" user="harmagedon" changeset="3330540">
    <nd ref="326115603"/>
    <nd ref="326119991"/>
    <nd ref="326119995"/>
    <nd ref="326119998"/>
    <nd ref="326120000"/>
    <nd ref="326120004"/>
    <nd ref="326120008"/>
    <nd ref="326120013"/>
    <tag k="access" v="private"/>
    <tag k="addr:postcode" v="5280"/>
    <tag k="at:maxspeed" v="Ortsgebiet"/>
    <tag k="fixme" v="check import"/>
    <tag k="highway" v="road"/>
    <tag k="is_in" v="...,Bezirk Braunau,Oberösterreich,Österreich,Europa"/>
    <tag k="name" v="Ringstraße"/>
    <tag k="note" v="imported from plan.at; (C)=CC-by-sa or oDBL; feel free to change if necessary"/>
    <tag k="plan_at:acad_id" v="br145A0"/>
    <tag k="source" v="plan.at 2009"/>
  </way>
  <way id="29604658" version="6" timestamp="2009-12-09T02:10:43Z" uid="200463" user="harmagedon" changeset="3330540">
    <nd ref="326115107"/>
    <nd ref="265794181"/>
    <nd ref="326120023"/>
    <tag k="addr:postcode" v="5280"/>
    <tag k="at:maxspeed" v="Ortsgebiet"/>
    <tag k="highway" v="residential"/>
    <tag k="is_in" v="...,Bezirk Braunau,Oberösterreich,Österreich,Europa"/>
    <tag k="name" v="Am Buttingergrund"/>
    <tag k="note" v="imported from plan.at; (C)=CC-by-sa or oDBL; feel free to change if necessary"/>
    <tag k="plan_at:acad_id" v="br14529"/>
    <tag k="source" v="plan.at 2009"/>
  </way>
  <way id="29604663" version="6" timestamp="2009-12-09T02:10:04Z" uid="200463" user="harmagedon" changeset="3330540">
    <nd ref="326120040"/>
    <nd ref="326120038"/>
    <nd ref="326120035"/>
    <tag k="addr:postcode" v="5280"/>
    <tag k="at:maxspeed" v="Ortsgebiet"/>
    <tag k="highway" v="residential"/>
    <tag k="is_in" v="...,Bezirk Braunau,Oberösterreich,Österreich,Europa"/>
    <tag k="name" v="Haselbacher Gehweg"/>
    <tag k="note" v="imported from plan.at; (C)=CC-by-sa or oDBL; feel free to change if necessary"/>
    <tag k="plan_at:acad_id" v="br144B2"/>
    <tag k="source" v="plan.at 2009"/>
  </way>
  <way id="29604665" version="4" timestamp="2009-12-09T02:10:06Z" uid="200463" user="harmagedon" changeset="3330540">
    <nd ref="326120047"/>
    <nd ref="245920327"/>
    <tag k="addr:postcode" v="5280"/>
    <tag k="at:maxspeed" v="Ortsgebiet"/>
    <tag k="highway" v="residential"/>
    <tag k="is_in" v="...,Bezirk Braunau,Oberösterreich,Österreich,Europa"/>
    <tag k="name" v="Aventinstraße"/>
    <tag k="note" v="imported from plan.at; (C)=CC-by-sa or oDBL; feel free to change if necessary"/>
    <tag k="plan_at:acad_id" v="br1443B"/>
    <tag k="source" v="plan.at 2009"/>
  </way>
  <way id="29604669" version="4" timestamp="2009-12-09T02:10:07Z" uid="200463" user="harmagedon" changeset="3330540">
    <nd ref="326120058"/>
    <nd ref="326113576"/>
    <tag k="addr:postcode" v="5280"/>
    <tag k="at:maxspeed" v="Ortsgebiet"/>
    <tag k="highway" v="residential"/>
    <tag k="is_in" v="...,Bezirk Braunau,Oberösterreich,Österreich,Europa"/>
    <tag k="name" v="Auf der Wiese"/>
    <tag k="note" v="imported from plan.at; (C)=CC-by-sa or oDBL; feel free to change if necessary"/>
    <tag k="plan_at:acad_id" v="br143C4"/>
    <tag k="source" v="plan.at 2009"/>
  </way>
  <way id="29604676" version="4" timestamp="2009-12-08T08:43:52Z" uid="200463" user="harmagedon" changeset="3322149">
    <nd ref="235754169"/>
    <nd ref="326120068"/>
    <nd ref="326120070"/>
    <nd ref="326120073"/>
    <nd ref="326120076"/>
    <nd ref="326120081"/>
    <nd ref="326120084"/>
    <nd ref="326120088"/>
    <nd ref="326119711"/>
    <tag k="addr:postcode" v="5280"/>
    <tag k="at:maxspeed" v="Ortsgebiet"/>
    <tag k="fixme" v="check import"/>
    <tag k="highway" v="residential"/>
    <tag k="is_in" v="...,Bezirk Braunau,Oberösterreich,Österreich,Europa"/>
    <tag k="name" v="Mattigstraße"/>
    <tag k="note" v="imported from plan.at; (C)=CC-by-sa or oDBL; feel free to change if necessary"/>
    <tag k="plan_at:acad_id" v="br1434D"/>
    <tag k="source" v="plan.at 2009"/>
    <tag k="uploaded_by" v="Wolfgang W. Wasserburger"/>
  </way>
  <way id="29604676" version="5" timestamp="2009-12-09T02:11:00Z" uid="200463" user="harmagedon" changeset="3330540">
    <nd ref="235754169"/>
    <nd ref="326120068"/>
    <nd ref="326120070"/>
    <nd ref="326120073"/>
    <nd ref="326120076"/>
    <nd ref="326120081"/>
    <nd ref="326120084"/>
    <nd ref="326120088"/>
    <nd ref="326119711"/>
    <tag k="addr:postcode" v="5280"/>
    <tag k="at:maxspeed" v="Ortsgebiet"/>
    <tag k="fixme" v="check import"/>
    <tag k="highway" v="residential"/>
    <tag k="is_in" v="...,Bezirk Braunau,Oberösterreich,Österreich,Europa"/>
    <tag k="name" v="Mattigstraße"/>
    <tag k="note" v="imported from plan.at; (C)=CC-by-sa or oDBL; feel free to change if necessary"/>
    <tag k="plan_at:acad_id" v="br1434D"/>
    <tag k="source" v="plan.at 2009"/>
  </way>
  <way id="29604685" version="4" timestamp="2009-12-09T02:08:24Z" uid="200463" user="harmagedon" changeset="3330540">
    <nd ref="326120110"/>
    <nd ref="326120111"/>
    <tag k="addr:postcode" v="5280"/>
    <tag k="at:maxspeed" v="Ortsgebiet"/>
    <tag k="highway" v="residential"/>
    <tag k="is_in" v="...,Bezirk Braunau,Oberösterreich,Österreich,Europa"/>
    <tag k="name" v="Cornelius Flir Straße"/>
    <tag k="note" v="imported from plan.at; (C)=CC-by-sa or oDBL; feel free to change if necessary"/>
    <tag k="plan_at:acad_id" v="br1425F"/>
    <tag k="source" v="plan.at 2009"/>
  </way>
  <way id="29604689" version="4" timestamp="2009-12-09T02:10:25Z" uid="200463" user="harmagedon" changeset="3330540">
    <nd ref="326120119"/>
    <nd ref="326110443"/>
    <nd ref="326120121"/>
    <nd ref="326113697"/>
    <nd ref="270909796"/>
    <nd ref="326113714"/>
    <nd ref="326113744"/>
    <nd ref="326120130"/>
    <tag k="addr:postcode" v="5280"/>
    <tag k="at:maxspeed" v="Ortsgebiet"/>
    <tag k="highway" v="residential"/>
    <tag k="is_in" v="...,Bezirk Braunau,Oberösterreich,Österreich,Europa"/>
    <tag k="name" v="Grenzstraße"/>
    <tag k="note" v="imported from plan.at; (C)=CC-by-sa or oDBL; feel free to change if necessary"/>
    <tag k="plan_at:acad_id" v="br141E8"/>
    <tag k="source" v="plan.at 2009"/>
  </way>
  <way id="29604695" version="4" timestamp="2009-12-09T02:10:53Z" uid="200463" user="harmagedon" changeset="3330540">
    <nd ref="326120140"/>
    <nd ref="326120142"/>
    <nd ref="245920042"/>
    <tag k="addr:postcode" v="5280"/>
    <tag k="at:maxspeed" v="Ortsgebiet"/>
    <tag k="highway" v="residential"/>
    <tag k="is_in" v="...,Bezirk Braunau,Oberösterreich,Österreich,Europa"/>
    <tag k="name" v="Prof.-Weinberger-Straße"/>
    <tag k="note" v="imported from plan.at; (C)=CC-by-sa or oDBL; feel free to change if necessary"/>
    <tag k="plan_at:acad_id" v="br14171"/>
    <tag k="source" v="plan.at 2009"/>
  </way>
  <way id="29604700" version="5" timestamp="2009-12-09T02:10:31Z" uid="200463" user="harmagedon" changeset="3330540">
    <nd ref="326120188"/>
    <nd ref="335598278"/>
    <nd ref="326120190"/>
    <nd ref="335598279"/>
    <nd ref="326120192"/>
    <nd ref="326120195"/>
    <nd ref="335598281"/>
    <nd ref="326120154"/>
    <nd ref="335598293"/>
    <nd ref="326120157"/>
    <nd ref="326120161"/>
    <nd ref="326120165"/>
    <nd ref="335598294"/>
    <nd ref="326113766"/>
    <nd ref="330185956"/>
    <nd ref="330185957"/>
    <nd ref="330185955"/>
    <nd ref="335598295"/>
    <nd ref="335598315"/>
    <nd ref="330185953"/>
    <nd ref="326120169"/>
    <tag k="addr:postcode" v="5280"/>
    <tag k="at:maxspeed" v="Ortsgebiet"/>
    <tag k="highway" v="residential"/>
    <tag k="is_in" v="...,Bezirk Braunau,Oberösterreich,Österreich,Europa"/>
    <tag k="name" v="Josef-Reiter-Straße"/>
    <tag k="note" v="imported from plan.at; (C)=CC-by-sa or oDBL; feel free to change if necessary"/>
    <tag k="plan_at:acad_id" v="br14083"/>
    <tag k="source" v="plan.at 2009"/>
  </way>
  <way id="29604716" version="4" timestamp="2009-12-09T02:10:50Z" uid="200463" user="harmagedon" changeset="3330540">
    <nd ref="326120201"/>
    <nd ref="326120188"/>
    <nd ref="326120208"/>
    <nd ref="270910161"/>
    <nd ref="326120220"/>
    <nd ref="326120103"/>
    <nd ref="326120224"/>
    <nd ref="335598276"/>
    <nd ref="335598277"/>
    <nd ref="326120231"/>
    <tag k="addr:postcode" v="5280"/>
    <tag k="at:maxspeed" v="Ortsgebiet"/>
    <tag k="highway" v="residential"/>
    <tag k="is_in" v="...,Bezirk Braunau,Oberösterreich,Österreich,Europa"/>
    <tag k="name" v="Franz-Amberger-Straße"/>
    <tag k="note" v="imported from plan.at; (C)=CC-by-sa or oDBL; feel free to change if necessary"/>
    <tag k="plan_at:acad_id" v="br1400C"/>
    <tag k="source" v="plan.at 2009"/>
  </way>
  <way id="29604721" version="4" timestamp="2009-12-09T02:10:49Z" uid="200463" user="harmagedon" changeset="3330540">
    <nd ref="326120251"/>
    <nd ref="326120255"/>
    <nd ref="270910176"/>
    <nd ref="273098721"/>
    <nd ref="270910161"/>
    <tag k="addr:postcode" v="5280"/>
    <tag k="at:maxspeed" v="Ortsgebiet"/>
    <tag k="highway" v="residential"/>
    <tag k="is_in" v="...,Bezirk Braunau,Oberösterreich,Österreich,Europa"/>
    <tag k="name" v="Adolf-Wenger-Straße"/>
    <tag k="note" v="imported from plan.at; (C)=CC-by-sa or oDBL; feel free to change if necessary"/>
    <tag k="plan_at:acad_id" v="br13F95"/>
    <tag k="source" v="plan.at 2009"/>
  </way>
  <way id="29604724" version="4" timestamp="2009-12-09T02:10:54Z" uid="200463" user="harmagedon" changeset="3330540">
    <nd ref="326120275"/>
    <nd ref="270910176"/>
    <tag k="addr:postcode" v="5280"/>
    <tag k="at:maxspeed" v="Ortsgebiet"/>
    <tag k="highway" v="residential"/>
    <tag k="is_in" v="...,Bezirk Braunau,Oberösterreich,Österreich,Europa"/>
    <tag k="name" v="Josef-Reischl-Straße"/>
    <tag k="note" v="imported from plan.at; (C)=CC-by-sa or oDBL; feel free to change if necessary"/>
    <tag k="plan_at:acad_id" v="br13F1E"/>
    <tag k="source" v="plan.at 2009"/>
  </way>
  <way id="29604730" version="4" timestamp="2009-12-09T02:10:49Z" uid="200463" user="harmagedon" changeset="3330540">
    <nd ref="270910157"/>
    <nd ref="326120289"/>
    <nd ref="326120297"/>
    <tag k="addr:postcode" v="5280"/>
    <tag k="at:maxspeed" v="Ortsgebiet"/>
    <tag k="fixme" v="check import"/>
    <tag k="highway" v="footway"/>
    <tag k="is_in" v="...,Bezirk Braunau,Oberösterreich,Österreich,Europa"/>
    <tag k="name" v="Braunau"/>
    <tag k="note" v="imported from plan.at; (C)=CC-by-sa or oDBL; feel free to change if necessary"/>
    <tag k="plan_at:acad_id" v="br13EA7"/>
    <tag k="source" v="plan.at 2009"/>
  </way>
  <way id="29604736" version="4" timestamp="2009-12-09T02:10:12Z" uid="200463" user="harmagedon" changeset="3330540">
    <nd ref="326120307"/>
    <nd ref="326120309"/>
    <tag k="addr:postcode" v="5280"/>
    <tag k="at:maxspeed" v="Ortsgebiet"/>
    <tag k="highway" v="service"/>
    <tag k="is_in" v="...,Bezirk Braunau,Oberösterreich,Österreich,Europa"/>
    <tag k="name" v="Braunau"/>
    <tag k="note" v="imported from plan.at; (C)=CC-by-sa or oDBL; feel free to change if necessary"/>
    <tag k="plan_at:acad_id" v="br13E30"/>
    <tag k="source" v="plan.at 2009"/>
  </way>
  <way id="29604739" version="4" timestamp="2009-12-09T02:10:09Z" uid="200463" user="harmagedon" changeset="3330540">
    <nd ref="326112255"/>
    <nd ref="326120317"/>
    <tag k="addr:postcode" v="5280"/>
    <tag k="at:maxspeed" v="Ortsgebiet"/>
    <tag k="highway" v="residential"/>
    <tag k="is_in" v="...,Bezirk Braunau,Oberösterreich,Österreich,Europa"/>
    <tag k="name" v="Braunau"/>
    <tag k="note" v="imported from plan.at; (C)=CC-by-sa or oDBL; feel free to change if necessary"/>
    <tag k="plan_at:acad_id" v="br13DB9"/>
    <tag k="source" v="plan.at 2009"/>
  </way>
  <way id="29604751" version="5" timestamp="2009-12-09T02:10:09Z" uid="200463" user="harmagedon" changeset="3330540">
    <nd ref="326112268"/>
    <nd ref="326120329"/>
    <nd ref="326120334"/>
    <nd ref="326120339"/>
    <nd ref="326120344"/>
    <nd ref="326120348"/>
    <nd ref="326120358"/>
    <nd ref="326120361"/>
    <nd ref="326120364"/>
    <nd ref="326120317"/>
    <nd ref="326120367"/>
    <nd ref="326120372"/>
    <nd ref="326120307"/>
    <nd ref="270909013"/>
    <tag k="addr:postcode" v="5280"/>
    <tag k="at:maxspeed" v="Ortsgebiet"/>
    <tag k="highway" v="residential"/>
    <tag k="is_in" v="...,Bezirk Braunau,Oberösterreich,Österreich,Europa"/>
    <tag k="name" v="Hans-Sachs-Straße"/>
    <tag k="note" v="imported from plan.at; (C)=CC-by-sa or oDBL; feel free to change if necessary"/>
    <tag k="plan_at:acad_id" v="br13D42"/>
    <tag k="source" v="plan.at 2009"/>
  </way>
  <way id="29604755" version="5" timestamp="2009-12-09T02:10:21Z" uid="200463" user="harmagedon" changeset="3330540">
    <nd ref="326120382"/>
    <nd ref="335598317"/>
    <nd ref="326113679"/>
    <nd ref="270909772"/>
    <tag k="addr:postcode" v="5280"/>
    <tag k="at:maxspeed" v="Ortsgebiet"/>
    <tag k="highway" v="residential"/>
    <tag k="is_in" v="...,Bezirk Braunau,Oberösterreich,Österreich,Europa"/>
    <tag k="name" v="Franz-Resl-Straße"/>
    <tag k="note" v="imported from plan.at; (C)=CC-by-sa or oDBL; feel free to change if necessary"/>
    <tag k="plan_at:acad_id" v="br13CCB"/>
    <tag k="source" v="plan.at 2009"/>
  </way>
  <way id="29604757" version="4" timestamp="2009-12-09T02:10:17Z" uid="200463" user="harmagedon" changeset="3330540">
    <nd ref="326120387"/>
    <nd ref="326112232"/>
    <tag k="addr:postcode" v="5280"/>
    <tag k="at:maxspeed" v="Ortsgebiet"/>
    <tag k="fixme" v="check import"/>
    <tag k="highway" v="residential"/>
    <tag k="is_in" v="...,Bezirk Braunau,Oberösterreich,Österreich,Europa"/>
    <tag k="name" v="Braunau"/>
    <tag k="note" v="imported from plan.at; (C)=CC-by-sa or oDBL; feel free to change if necessary"/>
    <tag k="plan_at:acad_id" v="br13C54"/>
    <tag k="source" v="plan.at 2009"/>
  </way>
  <way id="29604760" version="4" timestamp="2009-12-09T02:10:19Z" uid="200463" user="harmagedon" changeset="3330540">
    <nd ref="326112236"/>
    <nd ref="326120391"/>
    <nd ref="326113652"/>
    <nd ref="326110427"/>
    <tag k="addr:postcode" v="5280"/>
    <tag k="at:maxspeed" v="Ortsgebiet"/>
    <tag k="fixme" v="check import"/>
    <tag k="highway" v="residential"/>
    <tag k="is_in" v="...,Bezirk Braunau,Oberösterreich,Österreich,Europa"/>
    <tag k="name" v="Hammersteinstraße"/>
    <tag k="note" v="imported from plan.at; (C)=CC-by-sa or oDBL; feel free to change if necessary"/>
    <tag k="plan_at:acad_id" v="br13BDD"/>
    <tag k="source" v="plan.at 2009"/>
  </way>
  <way id="29604763" version="4" timestamp="2009-12-09T02:10:18Z" uid="200463" user="harmagedon" changeset="3330540">
    <nd ref="326120398"/>
    <nd ref="326110427"/>
    <tag k="addr:postcode" v="5280"/>
    <tag k="at:maxspeed" v="Ortsgebiet"/>
    <tag k="fixme" v="check import"/>
    <tag k="highway" v="residential"/>
    <tag k="is_in" v="...,Bezirk Braunau,Oberösterreich,Österreich,Europa"/>
    <tag k="name" v="Hammersteinplatz"/>
    <tag k="note" v="imported from plan.at; (C)=CC-by-sa or oDBL; feel free to change if necessary"/>
    <tag k="plan_at:acad_id" v="br13B66"/>
    <tag k="source" v="plan.at 2009"/>
  </way>
  <way id="29604766" version="4" timestamp="2009-12-09T02:10:50Z" uid="200463" user="harmagedon" changeset="3330540">
    <nd ref="326120404"/>
    <nd ref="270910157"/>
    <nd ref="326120407"/>
    <tag k="addr:postcode" v="5280"/>
    <tag k="at:maxspeed" v="Ortsgebiet"/>
    <tag k="highway" v="residential"/>
    <tag k="is_in" v="...,Bezirk Braunau,Oberösterreich,Österreich,Europa"/>
    <tag k="name" v="Franz-Plasser-Straße"/>
    <tag k="note" v="imported from plan.at; (C)=CC-by-sa or oDBL; feel free to change if necessary"/>
    <tag k="plan_at:acad_id" v="br13AEF"/>
    <tag k="source" v="plan.at 2009"/>
  </way>
  <way id="29604772" version="4" timestamp="2009-12-09T02:10:22Z" uid="200463" user="harmagedon" changeset="3330540">
    <nd ref="326120417"/>
    <nd ref="335598319"/>
    <nd ref="326120421"/>
    <nd ref="335598322"/>
    <nd ref="326120424"/>
    <nd ref="326120426"/>
    <tag k="addr:postcode" v="5280"/>
    <tag k="at:maxspeed" v="Ortsgebiet"/>
    <tag k="highway" v="residential"/>
    <tag k="is_in" v="...,Bezirk Braunau,Oberösterreich,Österreich,Europa"/>
    <tag k="name" v="Gartenstraße"/>
    <tag k="note" v="imported from plan.at; (C)=CC-by-sa or oDBL; feel free to change if necessary"/>
    <tag k="plan_at:acad_id" v="br13A78"/>
    <tag k="source" v="plan.at 2009"/>
  </way>
  <way id="29604781" version="5" timestamp="2009-12-09T02:08:17Z" uid="200463" user="harmagedon" changeset="3330540">
    <nd ref="326120433"/>
    <nd ref="326120435"/>
    <nd ref="335598211"/>
    <nd ref="326120439"/>
    <nd ref="326120446"/>
    <nd ref="335598218"/>
    <nd ref="326120449"/>
    <nd ref="335598223"/>
    <nd ref="326120407"/>
    <nd ref="326120453"/>
    <nd ref="326120455"/>
    <nd ref="326120458"/>
    <nd ref="326120462"/>
    <nd ref="270910174"/>
    <nd ref="326120471"/>
    <tag k="addr:postcode" v="5280"/>
    <tag k="at:maxspeed" v="Ortsgebiet"/>
    <tag k="highway" v="residential"/>
    <tag k="is_in" v="...,Bezirk Braunau,Oberösterreich,Österreich,Europa"/>
    <tag k="name" v="Verladestraße"/>
    <tag k="note" v="imported from plan.at; (C)=CC-by-sa or oDBL; feel free to change if necessary"/>
    <tag k="plan_at:acad_id" v="br13A01"/>
    <tag k="source" v="plan.at 2009"/>
  </way>
  <way id="29604787" version="4" timestamp="2009-12-09T02:10:52Z" uid="200463" user="harmagedon" changeset="3330540">
    <nd ref="326120255"/>
    <nd ref="326120467"/>
    <nd ref="326120471"/>
    <nd ref="326120483"/>
    <nd ref="335598229"/>
    <nd ref="335598244"/>
    <nd ref="335598268"/>
    <nd ref="335598275"/>
    <nd ref="326110450"/>
    <nd ref="326120487"/>
    <nd ref="326120490"/>
    <nd ref="326120231"/>
    <nd ref="326120161"/>
    <tag k="addr:postcode" v="5280"/>
    <tag k="at:maxspeed" v="Ortsgebiet"/>
    <tag k="highway" v="residential"/>
    <tag k="is_in" v="...,Bezirk Braunau,Oberösterreich,Österreich,Europa"/>
    <tag k="name" v="Dr.-Rudolf-Guby-Straße"/>
    <tag k="note" v="imported from plan.at; (C)=CC-by-sa or oDBL; feel free to change if necessary"/>
    <tag k="plan_at:acad_id" v="br1398A"/>
    <tag k="source" v="plan.at 2009"/>
  </way>
  <way id="29604795" version="4" timestamp="2009-12-09T02:10:26Z" uid="200463" user="harmagedon" changeset="3330540">
    <nd ref="270909009"/>
    <nd ref="326110441"/>
    <nd ref="270909780"/>
    <nd ref="245918777"/>
    <nd ref="270909787"/>
    <nd ref="326120504"/>
    <nd ref="270909786"/>
    <nd ref="326113710"/>
    <nd ref="245918768"/>
    <nd ref="326120297"/>
    <nd ref="326120251"/>
    <nd ref="326120462"/>
    <tag k="addr:postcode" v="5280"/>
    <tag k="at:maxspeed" v="Ortsgebiet"/>
    <tag k="highway" v="residential"/>
    <tag k="is_in" v="...,Bezirk Braunau,Oberösterreich,Österreich,Europa"/>
    <tag k="name" v="Franz-Stelzhamer-Straße"/>
    <tag k="note" v="imported from plan.at; (C)=CC-by-sa or oDBL; feel free to change if necessary"/>
    <tag k="plan_at:acad_id" v="br13913"/>
    <tag k="source" v="plan.at 2009"/>
  </way>
  <way id="29604819" version="5" timestamp="2009-12-09T02:08:18Z" uid="200463" user="harmagedon" changeset="3330540">
    <nd ref="245918772"/>
    <nd ref="326120426"/>
    <nd ref="326120433"/>
    <nd ref="326120562"/>
    <nd ref="326120404"/>
    <nd ref="245918768"/>
    <nd ref="326120575"/>
    <nd ref="326120275"/>
    <nd ref="335598200"/>
    <nd ref="326120582"/>
    <nd ref="326120201"/>
    <nd ref="326120587"/>
    <nd ref="326120130"/>
    <nd ref="326120598"/>
    <nd ref="326120602"/>
    <nd ref="245918760"/>
    <nd ref="335598205"/>
    <nd ref="270908903"/>
    <nd ref="326120606"/>
    <nd ref="326120608"/>
    <nd ref="326120611"/>
    <nd ref="326120613"/>
    <nd ref="326113798"/>
    <nd ref="245918753"/>
    <nd ref="326120620"/>
    <nd ref="326120154"/>
    <tag k="addr:postcode" v="5280"/>
    <tag k="at:maxspeed" v="Ortsgebiet"/>
    <tag k="highway" v="residential"/>
    <tag k="is_in" v="...,Bezirk Braunau,Oberösterreich,Österreich,Europa"/>
    <tag k="name" v="Höfter Straße"/>
    <tag k="note" v="imported from plan.at; (C)=CC-by-sa or oDBL; feel free to change if necessary"/>
    <tag k="plan_at:acad_id" v="br13825"/>
    <tag k="source" v="plan.at 2009"/>
  </way>
  <way id="29604835" version="6" timestamp="2009-12-09T02:10:20Z" uid="200463" user="harmagedon" changeset="3330540">
    <nd ref="270909004"/>
    <nd ref="276083285"/>
    <tag k="addr:postcode" v="5280"/>
    <tag k="at:maxspeed" v="Ortsgebiet"/>
    <tag k="highway" v="residential"/>
    <tag k="is_in" v="...,Bezirk Braunau,Oberösterreich,Österreich,Europa"/>
    <tag k="name" v="Uferstraße"/>
    <tag k="note" v="imported from plan.at; (C)=CC-by-sa or oDBL; feel free to change if necessary"/>
    <tag k="plan_at:acad_id" v="br13737"/>
    <tag k="source" v="plan.at 2009"/>
  </way>
  <way id="29604839" version="6" timestamp="2009-12-09T02:10:19Z" uid="200463" user="harmagedon" changeset="3330540">
    <nd ref="270909013"/>
    <nd ref="361616854"/>
    <nd ref="326120693"/>
    <nd ref="326120698"/>
    <nd ref="326113670"/>
    <nd ref="270909015"/>
    <tag k="addr:postcode" v="5280"/>
    <tag k="at:maxspeed" v="Ortsgebiet"/>
    <tag k="fixme" v="check import"/>
    <tag k="highway" v="residential"/>
    <tag k="is_in" v="...,Bezirk Braunau,Oberösterreich,Österreich,Europa"/>
    <tag k="name" v="Weidenweg"/>
    <tag k="note" v="imported from plan.at; (C)=CC-by-sa or oDBL; feel free to change if necessary"/>
    <tag k="plan_at:acad_id" v="br136C0"/>
    <tag k="source" v="plan.at 2009"/>
  </way>
  <way id="29604843" version="4" timestamp="2009-12-09T02:08:56Z" uid="200463" user="harmagedon" changeset="3330540">
    <nd ref="326120710"/>
    <nd ref="326120712"/>
    <nd ref="326120715"/>
    <tag k="addr:postcode" v="5280"/>
    <tag k="at:maxspeed" v="Ortsgebiet"/>
    <tag k="fixme" v="check import"/>
    <tag k="highway" v="residential"/>
    <tag k="is_in" v="...,Bezirk Braunau,Oberösterreich,Österreich,Europa"/>
    <tag k="name" v="Loys-Auffanger-Weg"/>
    <tag k="note" v="imported from plan.at; (C)=CC-by-sa or oDBL; feel free to change if necessary"/>
    <tag k="plan_at:acad_id" v="br13649"/>
    <tag k="source" v="plan.at 2009"/>
  </way>
  <way id="29604849" version="5" timestamp="2009-12-09T02:09:04Z" uid="200463" user="harmagedon" changeset="3330540">
    <nd ref="326120727"/>
    <nd ref="326120730"/>
    <nd ref="326120734"/>
    <nd ref="361633120"/>
    <nd ref="326120737"/>
    <nd ref="326120739"/>
    <tag k="addr:postcode" v="5280"/>
    <tag k="at:maxspeed" v="Ortsgebiet"/>
    <tag k="fixme" v="check import"/>
    <tag k="highway" v="residential"/>
    <tag k="is_in" v="...,Bezirk Braunau,Oberösterreich,Österreich,Europa"/>
    <tag k="name" v="Max-Fink-Straße"/>
    <tag k="note" v="imported from plan.at; (C)=CC-by-sa or oDBL; feel free to change if necessary"/>
    <tag k="plan_at:acad_id" v="br135D2"/>
    <tag k="source" v="plan.at 2009"/>
  </way>
  <way id="29604852" version="4" timestamp="2009-12-09T02:09:03Z" uid="200463" user="harmagedon" changeset="3330540">
    <nd ref="326120727"/>
    <nd ref="326120750"/>
    <tag k="addr:postcode" v="5280"/>
    <tag k="at:maxspeed" v="Ortsgebiet"/>
    <tag k="fixme" v="check import"/>
    <tag k="highway" v="residential"/>
    <tag k="is_in" v="...,Bezirk Braunau,Oberösterreich,Österreich,Europa"/>
    <tag k="name" v="Dr.-Brunner-Straße"/>
    <tag k="note" v="imported from plan.at; (C)=CC-by-sa or oDBL; feel free to change if necessary"/>
    <tag k="plan_at:acad_id" v="br1355B"/>
    <tag k="source" v="plan.at 2009"/>
  </way>
  <way id="29604859" version="4" timestamp="2009-12-09T02:08:25Z" uid="200463" user="harmagedon" changeset="3330540">
    <nd ref="326120013"/>
    <nd ref="326120757"/>
    <nd ref="326120759"/>
    <nd ref="326120763"/>
    <nd ref="326120727"/>
    <nd ref="326120766"/>
    <nd ref="326120769"/>
    <nd ref="326120771"/>
    <nd ref="326120774"/>
    <nd ref="326120778"/>
    <nd ref="326120783"/>
    <nd ref="326111867"/>
    <tag k="addr:postcode" v="5280"/>
    <tag k="at:maxspeed" v="Ortsgebiet"/>
    <tag k="fixme" v="check import"/>
    <tag k="highway" v="residential"/>
    <tag k="is_in" v="...,Bezirk Braunau,Oberösterreich,Österreich,Europa"/>
    <tag k="name" v="Talstraße"/>
    <tag k="note" v="imported from plan.at; (C)=CC-by-sa or oDBL; feel free to change if necessary"/>
    <tag k="plan_at:acad_id" v="br134E4"/>
    <tag k="source" v="plan.at 2009"/>
  </way>
  <way id="29604862" version="4" timestamp="2009-12-09T02:08:55Z" uid="200463" user="harmagedon" changeset="3330540">
    <nd ref="326120790"/>
    <nd ref="326120750"/>
    <nd ref="326120793"/>
    <tag k="addr:postcode" v="5280"/>
    <tag k="at:maxspeed" v="Ortsgebiet"/>
    <tag k="fixme" v="check import"/>
    <tag k="highway" v="residential"/>
    <tag k="is_in" v="...,Bezirk Braunau,Oberösterreich,Österreich,Europa"/>
    <tag k="name" v="Jubiläumstraße"/>
    <tag k="note" v="imported from plan.at; (C)=CC-by-sa or oDBL; feel free to change if necessary"/>
    <tag k="plan_at:acad_id" v="br1346D"/>
    <tag k="source" v="plan.at 2009"/>
  </way>
  <way id="29604865" version="4" timestamp="2009-12-09T02:07:11Z" uid="200463" user="harmagedon" changeset="3330540">
    <nd ref="326120801"/>
    <nd ref="326120804"/>
    <tag k="addr:postcode" v="5280"/>
    <tag k="at:maxspeed" v="Ortsgebiet"/>
    <tag k="highway" v="residential"/>
    <tag k="is_in" v="...,Bezirk Braunau,Oberösterreich,Österreich,Europa"/>
    <tag k="name" v="Friedrich-Wöhler-Straße"/>
    <tag k="note" v="imported from plan.at; (C)=CC-by-sa or oDBL; feel free to change if necessary"/>
    <tag k="plan_at:acad_id" v="br133F6"/>
    <tag k="source" v="plan.at 2009"/>
  </way>
  <way id="29604868" version="4" timestamp="2009-12-09T02:07:10Z" uid="200463" user="harmagedon" changeset="3330540">
    <nd ref="326120812"/>
    <nd ref="326120816"/>
    <tag k="addr:postcode" v="5280"/>
    <tag k="at:maxspeed" v="Ortsgebiet"/>
    <tag k="fixme" v="check import"/>
    <tag k="highway" v="residential"/>
    <tag k="is_in" v="...,Bezirk Braunau,Oberösterreich,Österreich,Europa"/>
    <tag k="name" v="Anton-Bruckner-Straße"/>
    <tag k="note" v="imported from plan.at; (C)=CC-by-sa or oDBL; feel free to change if necessary"/>
    <tag k="plan_at:acad_id" v="br1337F"/>
    <tag k="source" v="plan.at 2009"/>
  </way>
  <way id="29604872" version="4" timestamp="2009-12-09T02:07:19Z" uid="200463" user="harmagedon" changeset="3330540">
    <nd ref="326120821"/>
    <nd ref="326120827"/>
    <tag k="addr:postcode" v="5280"/>
    <tag k="at:maxspeed" v="Ortsgebiet"/>
    <tag k="highway" v="residential"/>
    <tag k="is_in" v="...,Bezirk Braunau,Oberösterreich,Österreich,Europa"/>
    <tag k="name" v="Kranewittweg"/>
    <tag k="note" v="imported from plan.at; (C)=CC-by-sa or oDBL; feel free to change if necessary"/>
    <tag k="plan_at:acad_id" v="br13308"/>
    <tag k="source" v="plan.at 2009"/>
  </way>
  <way id="29604874" version="5" timestamp="2009-12-09T02:07:12Z" uid="200463" user="harmagedon" changeset="3330540">
    <nd ref="326120833"/>
    <nd ref="330444242"/>
    <nd ref="326120836"/>
    <nd ref="326116815"/>
    <tag k="addr:postcode" v="5280"/>
    <tag k="at:maxspeed" v="Ortsgebiet"/>
    <tag k="highway" v="residential"/>
    <tag k="is_in" v="...,Bezirk Braunau,Oberösterreich,Österreich,Europa"/>
    <tag k="name" v="Dr.-Bayer-Straße"/>
    <tag k="note" v="imported from plan.at; (C)=CC-by-sa or oDBL; feel free to change if necessary"/>
    <tag k="plan_at:acad_id" v="br13291"/>
    <tag k="source" v="plan.at 2009"/>
  </way>
  <way id="29604877" version="4" timestamp="2009-12-09T02:07:19Z" uid="200463" user="harmagedon" changeset="3330540">
    <nd ref="326120845"/>
    <nd ref="326110818"/>
    <tag k="addr:postcode" v="5280"/>
    <tag k="at:maxspeed" v="Ortsgebiet"/>
    <tag k="fixme" v="check import;check name"/>
    <tag k="highway" v="residential"/>
    <tag k="is_in" v="...,Bezirk Braunau,Oberösterreich,Österreich,Europa"/>
    <tag k="name" v="Falserstraße"/>
    <tag k="note" v="imported from plan.at; (C)=CC-by-sa or oDBL; feel free to change if necessary"/>
    <tag k="plan_at:acad_id" v="br1321A"/>
    <tag k="source" v="plan.at 2009"/>
  </way>
  <way id="29604881" version="5" timestamp="2009-12-09T02:04:47Z" uid="200463" user="harmagedon" changeset="3330540">
    <nd ref="326120869"/>
    <nd ref="326120872"/>
    <nd ref="326120877"/>
    <nd ref="330444244"/>
    <nd ref="326120882"/>
    <tag k="addr:postcode" v="5280"/>
    <tag k="at:maxspeed" v="Ortsgebiet"/>
    <tag k="highway" v="residential"/>
    <tag k="is_in" v="...,Bezirk Braunau,Oberösterreich,Österreich,Europa"/>
    <tag k="name" v="Hugo-von-Preen-Straße"/>
    <tag k="note" v="imported from plan.at; (C)=CC-by-sa or oDBL; feel free to change if necessary"/>
    <tag k="plan_at:acad_id" v="br1312C"/>
    <tag k="source" v="plan.at 2009"/>
  </way>
  <way id="29604884" version="5" timestamp="2009-12-09T02:07:20Z" uid="200463" user="harmagedon" changeset="3330540">
    <nd ref="326120899"/>
    <nd ref="330444247"/>
    <nd ref="326120905"/>
    <nd ref="330444249"/>
    <nd ref="326110820"/>
    <tag k="addr:postcode" v="5280"/>
    <tag k="at:maxspeed" v="Ortsgebiet"/>
    <tag k="highway" v="residential"/>
    <tag k="is_in" v="...,Bezirk Braunau,Oberösterreich,Österreich,Europa"/>
    <tag k="name" v="Dr.-Pascher-Straße"/>
    <tag k="note" v="imported from plan.at; (C)=CC-by-sa or oDBL; feel free to change if necessary"/>
    <tag k="plan_at:acad_id" v="br130B5"/>
    <tag k="source" v="plan.at 2009"/>
  </way>
  <way id="29604887" version="5" timestamp="2009-12-09T02:07:05Z" uid="200463" user="harmagedon" changeset="3330540">
    <nd ref="326120915"/>
    <nd ref="335300887"/>
    <nd ref="326120920"/>
    <nd ref="330444241"/>
    <nd ref="326120836"/>
    <nd ref="326120801"/>
    <nd ref="326120812"/>
    <nd ref="326120899"/>
    <tag k="addr:postcode" v="5280"/>
    <tag k="at:maxspeed" v="Ortsgebiet"/>
    <tag k="highway" v="residential"/>
    <tag k="is_in" v="...,Bezirk Braunau,Oberösterreich,Österreich,Europa"/>
    <tag k="name" v="Adalbert-Stifter-Straße"/>
    <tag k="note" v="imported from plan.at; (C)=CC-by-sa or oDBL; feel free to change if necessary"/>
    <tag k="plan_at:acad_id" v="br1303E"/>
    <tag k="source" v="plan.at 2009"/>
  </way>
  <way id="29604895" version="4" timestamp="2009-12-09T02:04:47Z" uid="200463" user="harmagedon" changeset="3330540">
    <nd ref="326120935"/>
    <nd ref="326120859"/>
    <nd ref="326120905"/>
    <nd ref="326120845"/>
    <nd ref="335300881"/>
    <nd ref="326120954"/>
    <nd ref="326119568"/>
    <nd ref="326120821"/>
    <nd ref="326116846"/>
    <nd ref="326117312"/>
    <nd ref="326110787"/>
    <nd ref="326120975"/>
    <nd ref="335300879"/>
    <nd ref="326110804"/>
    <tag k="addr:postcode" v="5280"/>
    <tag k="at:maxspeed" v="Ortsgebiet"/>
    <tag k="highway" v="residential"/>
    <tag k="is_in" v="...,Bezirk Braunau,Oberösterreich,Österreich,Europa"/>
    <tag k="name" v="Kranewittweg"/>
    <tag k="note" v="imported from plan.at; (C)=CC-by-sa or oDBL; feel free to change if necessary"/>
    <tag k="plan_at:acad_id" v="br12FC7"/>
    <tag k="source" v="plan.at 2009"/>
  </way>
  <way id="29604900" version="5" timestamp="2009-12-09T02:08:47Z" uid="200463" user="harmagedon" changeset="3330540">
    <nd ref="265802357"/>
    <nd ref="326121006"/>
    <nd ref="326121010"/>
    <tag k="addr:postcode" v="5280"/>
    <tag k="at:maxspeed" v="Ortsgebiet"/>
    <tag k="highway" v="residential"/>
    <tag k="is_in" v="...,Bezirk Braunau,Oberösterreich,Österreich,Europa"/>
    <tag k="name" v="Zürnstraße"/>
    <tag k="note" v="imported from plan.at; (C)=CC-by-sa or oDBL; feel free to change if necessary"/>
    <tag k="plan_at:acad_id" v="br12F50"/>
    <tag k="source" v="plan.at 2009"/>
  </way>
  <way id="29604903" version="4" timestamp="2009-12-09T02:08:46Z" uid="200463" user="harmagedon" changeset="3330540">
    <nd ref="326122982"/>
    <nd ref="326111042"/>
    <nd ref="326121076"/>
    <nd ref="287119611"/>
    <nd ref="326111260"/>
    <nd ref="326111231"/>
    <nd ref="335556826"/>
    <nd ref="265802357"/>
    <tag k="addr:postcode" v="5280"/>
    <tag k="at:maxspeed" v="Ortsgebiet"/>
    <tag k="highway" v="residential"/>
    <tag k="is_in" v="...,Bezirk Braunau,Oberösterreich,Österreich,Europa"/>
    <tag k="name" v="Haselbacher Gehweg"/>
    <tag k="note" v="imported from plan.at; (C)=CC-by-sa or oDBL; feel free to change if necessary"/>
    <tag k="plan_at:acad_id" v="br12D74"/>
    <tag k="source" v="plan.at 2009"/>
  </way>
  <way id="29604907" version="4" timestamp="2009-12-09T02:08:57Z" uid="200463" user="harmagedon" changeset="3330540">
    <nd ref="326121035"/>
    <nd ref="326121039"/>
    <nd ref="326121045"/>
    <tag k="addr:postcode" v="5280"/>
    <tag k="at:maxspeed" v="Ortsgebiet"/>
    <tag k="highway" v="residential"/>
    <tag k="is_in" v="...,Bezirk Braunau,Oberösterreich,Österreich,Europa"/>
    <tag k="name" v="Stettheimer Straße"/>
    <tag k="note" v="imported from plan.at; (C)=CC-by-sa or oDBL; feel free to change if necessary"/>
    <tag k="plan_at:acad_id" v="br12E62"/>
    <tag k="source" v="plan.at 2009"/>
  </way>
  <way id="29604915" version="4" timestamp="2009-12-09T02:08:47Z" uid="200463" user="harmagedon" changeset="3330540">
    <nd ref="287119611"/>
    <nd ref="326121056"/>
    <nd ref="326121060"/>
    <nd ref="326121035"/>
    <nd ref="335556827"/>
    <nd ref="326121065"/>
    <tag k="addr:postcode" v="5280"/>
    <tag k="at:maxspeed" v="Ortsgebiet"/>
    <tag k="highway" v="residential"/>
    <tag k="is_in" v="...,Bezirk Braunau,Oberösterreich,Österreich,Europa"/>
    <tag k="name" v="Lieglstraße"/>
    <tag k="note" v="imported from plan.at; (C)=CC-by-sa or oDBL; feel free to change if necessary"/>
    <tag k="plan_at:acad_id" v="br12DEB"/>
    <tag k="source" v="plan.at 2009"/>
  </way>
  <way id="29604922" version="5" timestamp="2009-12-09T02:08:57Z" uid="200463" user="harmagedon" changeset="3330540">
    <nd ref="326110841"/>
    <nd ref="335566823"/>
    <nd ref="326121095"/>
    <nd ref="335566829"/>
    <nd ref="326121099"/>
    <nd ref="326121065"/>
    <tag k="addr:postcode" v="5280"/>
    <tag k="at:maxspeed" v="Ortsgebiet"/>
    <tag k="highway" v="residential"/>
    <tag k="is_in" v="...,Bezirk Braunau,Oberösterreich,Österreich,Europa"/>
    <tag k="name" v="Jahnstraße"/>
    <tag k="note" v="imported from plan.at; (C)=CC-by-sa or oDBL; feel free to change if necessary"/>
    <tag k="oneway" v="yes"/>
    <tag k="plan_at:acad_id" v="br12CFD"/>
    <tag k="source" v="plan.at 2009"/>
  </way>
  <way id="29604929" version="5" timestamp="2009-12-09T02:08:45Z" uid="200463" user="harmagedon" changeset="3330540">
    <nd ref="326121116"/>
    <nd ref="335538947"/>
    <nd ref="326120715"/>
    <nd ref="361633111"/>
    <nd ref="335538945"/>
    <nd ref="326121109"/>
    <nd ref="326121010"/>
    <nd ref="335538928"/>
    <nd ref="326121124"/>
    <nd ref="326121129"/>
    <nd ref="335538931"/>
    <nd ref="335538926"/>
    <nd ref="335538923"/>
    <nd ref="335538921"/>
    <nd ref="326121134"/>
    <nd ref="335538934"/>
    <nd ref="335538936"/>
    <nd ref="326121137"/>
    <nd ref="326121142"/>
    <nd ref="326119897"/>
    <nd ref="335538939"/>
    <nd ref="326114715"/>
    <tag k="addr:postcode" v="5280"/>
    <tag k="at:maxspeed" v="Ortsgebiet"/>
    <tag k="highway" v="tertiary"/>
    <tag k="is_in" v="...,Bezirk Braunau,Oberösterreich,Österreich,Europa"/>
    <tag k="name" v="Konrad-Meindl-Straße"/>
    <tag k="note" v="imported from plan.at; (C)=CC-by-sa or oDBL; feel free to change if necessary"/>
    <tag k="plan_at:acad_id" v="br12C86"/>
    <tag k="source" v="plan.at 2009"/>
  </way>
  <way id="29604935" version="3" timestamp="2009-12-08T08:43:04Z" uid="200463" user="harmagedon" changeset="3322149">
    <nd ref="326110597"/>
    <nd ref="326121173"/>
    <nd ref="326121177"/>
    <tag k="addr:postcode" v="5280"/>
    <tag k="at:maxspeed" v="Ortsgebiet"/>
    <tag k="highway" v="residential"/>
    <tag k="is_in" v="...,Bezirk Braunau,Oberösterreich,Österreich,Europa"/>
    <tag k="name" v="Franz Xaver Gruber Straße"/>
    <tag k="note" v="imported from plan.at; (C)=CC-by-sa or oDBL; feel free to change if necessary"/>
    <tag k="plan_at:acad_id" v="br12B98"/>
    <tag k="source" v="plan.at 2009"/>
    <tag k="uploaded_by" v="Wolfgang W. Wasserburger"/>
  </way>
  <way id="29604935" version="4" timestamp="2009-12-09T02:08:06Z" uid="200463" user="harmagedon" changeset="3330540">
    <nd ref="326110597"/>
    <nd ref="326121173"/>
    <nd ref="326121177"/>
    <tag k="addr:postcode" v="5280"/>
    <tag k="at:maxspeed" v="Ortsgebiet"/>
    <tag k="highway" v="residential"/>
    <tag k="is_in" v="...,Bezirk Braunau,Oberösterreich,Österreich,Europa"/>
    <tag k="name" v="Franz Xaver Gruber Straße"/>
    <tag k="note" v="imported from plan.at; (C)=CC-by-sa or oDBL; feel free to change if necessary"/>
    <tag k="plan_at:acad_id" v="br12B98"/>
    <tag k="source" v="plan.at 2009"/>
  </way>
  <way id="29604942" version="4" timestamp="2009-12-08T08:40:27Z" uid="200463" user="harmagedon" changeset="3322149">
    <nd ref="326121206"/>
    <nd ref="326115142"/>
    <nd ref="330178668"/>
    <nd ref="326110597"/>
    <tag k="addr:postcode" v="5280"/>
    <tag k="at:maxspeed" v="Ortsgebiet"/>
    <tag k="highway" v="residential"/>
    <tag k="is_in" v="...,Bezirk Braunau,Oberösterreich,Österreich,Europa"/>
    <tag k="name" v="Schwarzkreuzweg"/>
    <tag k="note" v="imported from plan.at; (C)=CC-by-sa or oDBL; feel free to change if necessary"/>
    <tag k="plan_at:acad_id" v="br12AAA"/>
    <tag k="source" v="plan.at 2009"/>
    <tag k="uploaded_by" v="Wolfgang W. Wasserburger"/>
  </way>
  <way id="29604942" version="5" timestamp="2009-12-09T02:04:46Z" uid="200463" user="harmagedon" changeset="3330540">
    <nd ref="326121206"/>
    <nd ref="326115142"/>
    <nd ref="330178668"/>
    <nd ref="326110597"/>
    <tag k="addr:postcode" v="5280"/>
    <tag k="at:maxspeed" v="Ortsgebiet"/>
    <tag k="highway" v="residential"/>
    <tag k="is_in" v="...,Bezirk Braunau,Oberösterreich,Österreich,Europa"/>
    <tag k="name" v="Schwarzkreuzweg"/>
    <tag k="note" v="imported from plan.at; (C)=CC-by-sa or oDBL; feel free to change if necessary"/>
    <tag k="plan_at:acad_id" v="br12AAA"/>
    <tag k="source" v="plan.at 2009"/>
  </way>
  <way id="29604946" version="4" timestamp="2009-12-08T08:40:28Z" uid="200463" user="harmagedon" changeset="3322149">
    <nd ref="326121217"/>
    <nd ref="330178667"/>
    <nd ref="326119802"/>
    <nd ref="276076668"/>
    <tag k="addr:postcode" v="5280"/>
    <tag k="at:maxspeed" v="Ortsgebiet"/>
    <tag k="highway" v="residential"/>
    <tag k="is_in" v="...,Bezirk Braunau,Oberösterreich,Österreich,Europa"/>
    <tag k="name" v="Kriegerfriedhofstraße"/>
    <tag k="note" v="imported from plan.at; (C)=CC-by-sa or oDBL; feel free to change if necessary"/>
    <tag k="plan_at:acad_id" v="br12A33"/>
    <tag k="source" v="plan.at 2009"/>
    <tag k="uploaded_by" v="Wolfgang W. Wasserburger"/>
  </way>
  <way id="29604946" version="5" timestamp="2009-12-09T02:04:46Z" uid="200463" user="harmagedon" changeset="3330540">
    <nd ref="326121217"/>
    <nd ref="330178667"/>
    <nd ref="326119802"/>
    <nd ref="276076668"/>
    <tag k="addr:postcode" v="5280"/>
    <tag k="at:maxspeed" v="Ortsgebiet"/>
    <tag k="highway" v="residential"/>
    <tag k="is_in" v="...,Bezirk Braunau,Oberösterreich,Österreich,Europa"/>
    <tag k="name" v="Kriegerfriedhofstraße"/>
    <tag k="note" v="imported from plan.at; (C)=CC-by-sa or oDBL; feel free to change if necessary"/>
    <tag k="plan_at:acad_id" v="br12A33"/>
    <tag k="source" v="plan.at 2009"/>
  </way>
  <way id="29604949" version="4" timestamp="2009-12-08T08:43:05Z" uid="200463" user="harmagedon" changeset="3322149">
    <nd ref="326115226"/>
    <nd ref="326121177"/>
    <nd ref="326121239"/>
    <nd ref="326121245"/>
    <nd ref="330185923"/>
    <nd ref="330185926"/>
    <nd ref="326113354"/>
    <tag k="addr:postcode" v="5280"/>
    <tag k="at:maxspeed" v="Ortsgebiet"/>
    <tag k="highway" v="residential"/>
    <tag k="is_in" v="...,Bezirk Braunau,Oberösterreich,Österreich,Europa"/>
    <tag k="name" v="Franz-Xaver-Gruber-Straße"/>
    <tag k="note" v="imported from plan.at; (C)=CC-by-sa or oDBL; feel free to change if necessary"/>
    <tag k="plan_at:acad_id" v="br129BC"/>
    <tag k="source" v="plan.at 2009"/>
    <tag k="uploaded_by" v="Wolfgang W. Wasserburger"/>
  </way>
  <way id="29604949" version="5" timestamp="2009-12-09T02:08:07Z" uid="200463" user="harmagedon" changeset="3330540">
    <nd ref="326115226"/>
    <nd ref="326121177"/>
    <nd ref="326121239"/>
    <nd ref="326121245"/>
    <nd ref="330185923"/>
    <nd ref="330185926"/>
    <nd ref="326113354"/>
    <tag k="addr:postcode" v="5280"/>
    <tag k="at:maxspeed" v="Ortsgebiet"/>
    <tag k="highway" v="residential"/>
    <tag k="is_in" v="...,Bezirk Braunau,Oberösterreich,Österreich,Europa"/>
    <tag k="name" v="Franz-Xaver-Gruber-Straße"/>
    <tag k="note" v="imported from plan.at; (C)=CC-by-sa or oDBL; feel free to change if necessary"/>
    <tag k="plan_at:acad_id" v="br129BC"/>
    <tag k="source" v="plan.at 2009"/>
  </way>
  <way id="29604953" version="4" timestamp="2009-12-09T02:07:46Z" uid="200463" user="harmagedon" changeset="3330540">
    <nd ref="245920059"/>
    <nd ref="326121272"/>
    <nd ref="326121160"/>
    <nd ref="276074155"/>
    <nd ref="326121277"/>
    <tag k="addr:postcode" v="5280"/>
    <tag k="at:maxspeed" v="Ortsgebiet"/>
    <tag k="highway" v="residential"/>
    <tag k="is_in" v="...,Bezirk Braunau,Oberösterreich,Österreich,Europa"/>
    <tag k="name" v="Rupert-Gugg-Straße"/>
    <tag k="note" v="imported from plan.at; (C)=CC-by-sa or oDBL; feel free to change if necessary"/>
    <tag k="plan_at:acad_id" v="br12945"/>
    <tag k="source" v="plan.at 2009"/>
  </way>
  <way id="29604961" version="3" timestamp="2009-12-08T08:43:54Z" uid="200463" user="harmagedon" changeset="3322149">
    <nd ref="316217667"/>
    <nd ref="326119840"/>
    <nd ref="245920111"/>
    <nd ref="245920108"/>
    <nd ref="334513513"/>
    <nd ref="334513502"/>
    <nd ref="334513503"/>
    <nd ref="245920105"/>
    <tag k="addr:postcode" v="5280"/>
    <tag k="at:maxspeed" v="Ortsgebiet"/>
    <tag k="highway" v="residential"/>
    <tag k="is_in" v="...,Bezirk Braunau,Oberösterreich,Österreich,Europa"/>
    <tag k="name" v="Wagnerbauerstraße"/>
    <tag k="note" v="imported from plan.at; (C)=CC-by-sa or oDBL; feel free to change if necessary"/>
    <tag k="plan_at:acad_id" v="br12769"/>
    <tag k="source" v="plan.at 2009"/>
    <tag k="uploaded_by" v="Wolfgang W. Wasserburger"/>
  </way>
  <way id="29604961" version="4" timestamp="2009-12-09T02:11:01Z" uid="200463" user="harmagedon" changeset="3330540">
    <nd ref="316217667"/>
    <nd ref="326119840"/>
    <nd ref="245920111"/>
    <nd ref="245920108"/>
    <nd ref="334513513"/>
    <nd ref="334513502"/>
    <nd ref="334513503"/>
    <nd ref="245920105"/>
    <tag k="addr:postcode" v="5280"/>
    <tag k="at:maxspeed" v="Ortsgebiet"/>
    <tag k="highway" v="residential"/>
    <tag k="is_in" v="...,Bezirk Braunau,Oberösterreich,Österreich,Europa"/>
    <tag k="name" v="Wagnerbauerstraße"/>
    <tag k="note" v="imported from plan.at; (C)=CC-by-sa or oDBL; feel free to change if necessary"/>
    <tag k="plan_at:acad_id" v="br12769"/>
    <tag k="source" v="plan.at 2009"/>
  </way>
  <way id="29604965" version="3" timestamp="2009-12-08T08:43:56Z" uid="200463" user="harmagedon" changeset="3322149">
    <nd ref="326121343"/>
    <nd ref="334513513"/>
    <tag k="addr:postcode" v="5280"/>
    <tag k="at:maxspeed" v="Ortsgebiet"/>
    <tag k="highway" v="residential"/>
    <tag k="is_in" v="...,Bezirk Braunau,Oberösterreich,Österreich,Europa"/>
    <tag k="name" v="Valentinstraße"/>
    <tag k="note" v="imported from plan.at; (C)=CC-by-sa or oDBL; feel free to change if necessary"/>
    <tag k="plan_at:acad_id" v="br126F2"/>
    <tag k="source" v="plan.at 2009"/>
    <tag k="uploaded_by" v="Wolfgang W. Wasserburger"/>
  </way>
  <way id="29604965" version="4" timestamp="2009-12-09T02:11:03Z" uid="200463" user="harmagedon" changeset="3330540">
    <nd ref="326121343"/>
    <nd ref="334513513"/>
    <tag k="addr:postcode" v="5280"/>
    <tag k="at:maxspeed" v="Ortsgebiet"/>
    <tag k="highway" v="residential"/>
    <tag k="is_in" v="...,Bezirk Braunau,Oberösterreich,Österreich,Europa"/>
    <tag k="name" v="Valentinstraße"/>
    <tag k="note" v="imported from plan.at; (C)=CC-by-sa or oDBL; feel free to change if necessary"/>
    <tag k="plan_at:acad_id" v="br126F2"/>
    <tag k="source" v="plan.at 2009"/>
  </way>
  <way id="29604967" version="3" timestamp="2009-12-08T08:43:55Z" uid="200463" user="harmagedon" changeset="3322149">
    <nd ref="326110621"/>
    <nd ref="326119844"/>
    <tag k="addr:postcode" v="5280"/>
    <tag k="at:maxspeed" v="Ortsgebiet"/>
    <tag k="highway" v="residential"/>
    <tag k="is_in" v="...,Bezirk Braunau,Oberösterreich,Österreich,Europa"/>
    <tag k="name" v="Steinfeldstraße"/>
    <tag k="note" v="imported from plan.at; (C)=CC-by-sa or oDBL; feel free to change if necessary"/>
    <tag k="plan_at:acad_id" v="br1267B"/>
    <tag k="source" v="plan.at 2009"/>
    <tag k="uploaded_by" v="Wolfgang W. Wasserburger"/>
  </way>
  <way id="29604967" version="4" timestamp="2009-12-09T02:11:02Z" uid="200463" user="harmagedon" changeset="3330540">
    <nd ref="326110621"/>
    <nd ref="326119844"/>
    <tag k="addr:postcode" v="5280"/>
    <tag k="at:maxspeed" v="Ortsgebiet"/>
    <tag k="highway" v="residential"/>
    <tag k="is_in" v="...,Bezirk Braunau,Oberösterreich,Österreich,Europa"/>
    <tag k="name" v="Steinfeldstraße"/>
    <tag k="note" v="imported from plan.at; (C)=CC-by-sa or oDBL; feel free to change if necessary"/>
    <tag k="plan_at:acad_id" v="br1267B"/>
    <tag k="source" v="plan.at 2009"/>
  </way>
  <way id="29604973" version="4" timestamp="2009-12-09T02:10:32Z" uid="200463" user="harmagedon" changeset="3330540">
    <nd ref="326121372"/>
    <nd ref="326121379"/>
    <nd ref="326121383"/>
    <nd ref="326121206"/>
    <nd ref="326121388"/>
    <nd ref="275128167"/>
    <nd ref="334513500"/>
    <nd ref="245920105"/>
    <tag k="addr:postcode" v="5280"/>
    <tag k="at:maxspeed" v="Ortsgebiet"/>
    <tag k="highway" v="residential"/>
    <tag k="is_in" v="...,Bezirk Braunau,Oberösterreich,Österreich,Europa"/>
    <tag k="name" v="Schwarzkreuzweg"/>
    <tag k="note" v="imported from plan.at; (C)=CC-by-sa or oDBL; feel free to change if necessary"/>
    <tag k="plan_at:acad_id" v="br12604"/>
    <tag k="source" v="plan.at 2009"/>
  </way>
  <way id="29604978" version="4" timestamp="2009-12-09T02:04:44Z" uid="200463" user="harmagedon" changeset="3330540">
    <nd ref="326110613"/>
    <nd ref="326121404"/>
    <nd ref="326121409"/>
    <nd ref="326121372"/>
    <nd ref="275128157"/>
    <nd ref="326119798"/>
    <nd ref="326121412"/>
    <nd ref="326121277"/>
    <nd ref="326119734"/>
    <nd ref="326121191"/>
    <nd ref="326119747"/>
    <nd ref="326121416"/>
    <nd ref="326115226"/>
    <tag k="addr:postcode" v="5280"/>
    <tag k="at:maxspeed" v="Ortsgebiet"/>
    <tag k="highway" v="residential"/>
    <tag k="is_in" v="...,Bezirk Braunau,Oberösterreich,Österreich,Europa"/>
    <tag k="name" v="Rupert-Gugg-Straße"/>
    <tag k="note" v="imported from plan.at; (C)=CC-by-sa or oDBL; feel free to change if necessary"/>
    <tag k="plan_at:acad_id" v="br1258D"/>
    <tag k="source" v="plan.at 2009"/>
  </way>
  <way id="29604984" version="4" timestamp="2009-12-09T02:09:50Z" uid="200463" user="harmagedon" changeset="3330540">
    <nd ref="326121425"/>
    <nd ref="326121429"/>
    <nd ref="326121433"/>
    <nd ref="334505874"/>
    <tag k="addr:postcode" v="5280"/>
    <tag k="at:maxspeed" v="Ortsgebiet"/>
    <tag k="highway" v="residential"/>
    <tag k="is_in" v="...,Bezirk Braunau,Oberösterreich,Österreich,Europa"/>
    <tag k="name" v="Max-Schlickinger-Straße"/>
    <tag k="note" v="imported from plan.at; (C)=CC-by-sa or oDBL; feel free to change if necessary"/>
    <tag k="plan_at:acad_id" v="br12516"/>
    <tag k="source" v="plan.at 2009"/>
  </way>
  <way id="29604988" version="5" timestamp="2009-12-09T02:10:04Z" uid="200463" user="harmagedon" changeset="3330540">
    <nd ref="326121454"/>
    <nd ref="326113316"/>
    <tag k="addr:postcode" v="5280"/>
    <tag k="at:maxspeed" v="Ortsgebiet"/>
    <tag k="highway" v="residential"/>
    <tag k="is_in" v="...,Bezirk Braunau,Oberösterreich,Österreich,Europa"/>
    <tag k="name" v="Mehlknechtstraße"/>
    <tag k="note" v="imported from plan.at; (C)=CC-by-sa or oDBL; feel free to change if necessary"/>
    <tag k="plan_at:acad_id" v="br1249F"/>
    <tag k="source" v="plan.at 2009"/>
  </way>
  <way id="29604991" version="4" timestamp="2009-12-09T02:04:45Z" uid="200463" user="harmagedon" changeset="3330540">
    <nd ref="326121496"/>
    <nd ref="326113313"/>
    <nd ref="326121467"/>
    <tag k="addr:postcode" v="5280"/>
    <tag k="at:maxspeed" v="Ortsgebiet"/>
    <tag k="highway" v="residential"/>
    <tag k="is_in" v="...,Bezirk Braunau,Oberösterreich,Österreich,Europa"/>
    <tag k="name" v="Artur-Waltl-Straße"/>
    <tag k="note" v="imported from plan.at; (C)=CC-by-sa or oDBL; feel free to change if necessary"/>
    <tag k="plan_at:acad_id" v="br12428"/>
    <tag k="source" v="plan.at 2009"/>
  </way>
  <way id="29604995" version="4" timestamp="2009-12-09T02:08:22Z" uid="200463" user="harmagedon" changeset="3330540">
    <nd ref="326119956"/>
    <nd ref="326121481"/>
    <nd ref="335549841"/>
    <nd ref="335549830"/>
    <nd ref="326120035"/>
    <nd ref="335549811"/>
    <nd ref="326113300"/>
    <nd ref="335549667"/>
    <nd ref="326115109"/>
    <nd ref="335549770"/>
    <nd ref="335549783"/>
    <nd ref="335549796"/>
    <nd ref="245920345"/>
    <nd ref="245920344"/>
    <nd ref="326115081"/>
    <tag k="addr:postcode" v="5280"/>
    <tag k="at:maxspeed" v="Ortsgebiet"/>
    <tag k="highway" v="cycleway"/>
    <tag k="is_in" v="...,Bezirk Braunau,Oberösterreich,Österreich,Europa"/>
    <tag k="name" v="Haselbacher Gehweg"/>
    <tag k="note" v="imported from plan.at; (C)=CC-by-sa or oDBL; feel free to change if necessary"/>
    <tag k="plan_at:acad_id" v="br123B1"/>
    <tag k="source" v="plan.at 2009"/>
  </way>
</osm>
