<?xml version='1.0' encoding='UTF-8'?>
<osm version="0.6" generator="libosmium/2.20.0">
  <way id="29603001" version="6" timestamp="2009-12-09T02:10:53Z" uid="200463" user="harmagedon" changeset="3330540">
    <nd ref="326109969"/>
    <nd ref="326109973"/>
    <nd ref="326109976"/>
    <nd ref="326109978"/>
    <nd ref="326109980"/>
    <nd ref="326109984"/>
    <nd ref="326109988"/>
    <nd ref="326109992"/>
    <nd ref="326109994"/>
    <nd ref="326109996"/>
    <nd ref="326109969"/>
    <tag k="addr:postcode" v="5280"/>
    <tag k="amenity" v="school"/>
    <tag k="building" v="yes"/>
    <tag k="fixme" v="check import"/>
    <tag k="is_in" v="...,Bezirk Braunau,Oberösterreich,Österreich,Europa"/>
    <tag k="name" v="Volksschule Laab"/>
    <tag k="note" v="imported from plan.at; (C)=CC-by-sa or oDBL; feel free to change if necessary"/>
    <tag k="plan_at:acad_id" v="br16361"/>
    <tag k="source" v="plan.at 2009"/>
  </way>
  <way id="29603006" version="6" timestamp="2009-12-09T02:10:24Z" uid="200463" user="harmagedon" changeset="3330540">
    <nd ref="326110003"/>
    <nd ref="326110007"/>
    <nd ref="326110011"/>
    <nd ref="326110018"/>
    <nd ref="326110023"/>
    <nd ref="326110028"/>
    <nd ref="326110032"/>
    <nd ref="326110035"/>
    <nd ref="326110039"/>
    <nd ref="326110042"/>
    <nd ref="326110003"/>
    <tag k="addr:postcode" v="5280"/>
    <tag k="amenity" v="school"/>
    <tag k="building" v="yes"/>
    <tag k="fixme" v="check import"/>
    <tag k="is_in" v="...,Bezirk Braunau,Oberösterreich,Österreich,Europa"/>
    <tag k="name" v="Realgymnasium"/>
    <tag k="note" v="imported from plan.at; (C)=CC-by-sa or oDBL; feel free to change if necessary"/>
    <tag k="plan_at:acad_id" v="br1635D"/>
    <tag k="source" v="plan.at 2009"/>
  </way>
  <way id="29603018" version="4" timestamp="2009-12-09T02:10:21Z" uid="200463" user="harmagedon" changeset="3330540">
    <nd ref="326110083"/>
    <nd ref="326110086"/>
    <nd ref="326110088"/>
    <nd ref="326110089"/>
    <nd ref="326110083"/>
    <tag k="addr:postcode" v="5280"/>
    <tag k="building" v="yes"/>
    <tag k="fixme" v="check import"/>
    <tag k="is_in" v="...,Bezirk Braunau,Oberösterreich,Österreich,Europa"/>
    <tag k="name" v="Wählamt"/>
    <tag k="note" v="imported from plan.at; (C)=CC-by-sa or oDBL; feel free to change if necessary"/>
    <tag k="plan_at:acad_id" v="br16354"/>
    <tag k="source" v="plan.at 2009"/>
  </way>
  <way id="29603037" version="4" timestamp="2009-12-09T02:10:40Z" uid="200463" user="harmagedon" changeset="3330540">
    <nd ref="326110127"/>
    <nd ref="326110129"/>
    <nd ref="326110132"/>
    <nd ref="326110136"/>
    <nd ref="326110137"/>
    <nd ref="326110143"/>
    <nd ref="326110149"/>
    <nd ref="326110153"/>
    <nd ref="326110159"/>
    <nd ref="326110165"/>
    <nd ref="326110171"/>
    <nd ref="326110179"/>
    <nd ref="326110183"/>
    <nd ref="326110187"/>
    <nd ref="326110127"/>
    <tag k="addr:postcode" v="5280"/>
    <tag k="amenity" v="place_of_worship"/>
    <tag k="building" v="yes"/>
    <tag k="fixme" v="check import"/>
    <tag k="is_in" v="...,Bezirk Braunau,Oberösterreich,Österreich,Europa"/>
    <tag k="note" v="imported from plan.at; (C)=CC-by-sa or oDBL; feel free to change if necessary"/>
    <tag k="plan_at:acad_id" v="br1634B"/>
    <tag k="source" v="plan.at 2009"/>
  </way>
  <way id="29603041" version="5" timestamp="2009-12-09T02:10:40Z" uid="200463" user="harmagedon" changeset="3330540">
    <nd ref="326110201"/>
    <nd ref="326110205"/>
    <nd ref="326110210"/>
    <nd ref="326110214"/>
    <nd ref="326110201"/>
    <tag k="addr:postcode" v="5280"/>
    <tag k="amenity" v="place_of_worship"/>
    <tag k="building" v="yes"/>
    <tag k="fixme" v="check import"/>
    <tag k="is_in" v="...,Bezirk Braunau,Oberösterreich,Österreich,Europa"/>
    <tag k="note" v="imported from plan.at; (C)=CC-by-sa or oDBL; feel free to change if necessary"/>
    <tag k="plan_at:acad_id" v="br16346"/>
    <tag k="source" v="plan.at 2009"/>
  </way>
  <way id="29603044" version="4" timestamp="2009-12-09T02:07:47Z" uid="200463" user="harmagedon" changeset="3330540">
    <nd ref="326110223"/>
    <nd ref="326110226"/>
    <nd ref="326110230"/>
    <nd ref="326110233"/>
    <nd ref="326110223"/>
    <tag k="addr:postcode" v="5280"/>
    <tag k="building" v="yes"/>
    <tag k="fixme" v="check import"/>
    <tag k="is_in" v="...,Bezirk Braunau,Oberösterreich,Österreich,Europa"/>
    <tag k="name" v="BFI - Berufsförderungsinstitut"/>
    <tag k="note" v="imported from plan.at; (C)=CC-by-sa or oDBL; feel free to change if necessary"/>
    <tag k="plan_at:acad_id" v="br16345"/>
    <tag k="source" v="plan.at 2009"/>
  </way>
  <way id="29603049" version="4" timestamp="2009-12-08T08:42:44Z" uid="200463" user="harmagedon" changeset="3322149">
    <nd ref="361636815"/>
    <nd ref="326110244"/>
    <nd ref="326110247"/>
    <nd ref="326110250"/>
    <nd ref="326110251"/>
    <nd ref="326110252"/>
    <nd ref="326110255"/>
    <nd ref="326110258"/>
    <nd ref="326110261"/>
    <nd ref="326110265"/>
    <tag k="addr:postcode" v="5280"/>
    <tag k="at:maxspeed" v="Ortsgebiet"/>
    <tag k="fixme" v="check import"/>
    <tag k="highway" v="track"/>
    <tag k="is_in" v="...,Bezirk Braunau,Oberösterreich,Österreich,Europa"/>
    <tag k="name" v="Lindach"/>
    <tag k="note" v="imported from plan.at; (C)=CC-by-sa or oDBL; feel free to change if necessary"/>
    <tag k="plan_at:acad_id" v="br16342"/>
    <tag k="source" v="plan.at 2009"/>
    <tag k="uploaded_by" v="Wolfgang W. Wasserburger"/>
  </way>
  <way id="29603049" version="5" timestamp="2009-12-09T02:07:35Z" uid="200463" user="harmagedon" changeset="3330540">
    <nd ref="361636815"/>
    <nd ref="326110244"/>
    <nd ref="326110247"/>
    <nd ref="326110250"/>
    <nd ref="326110251"/>
    <nd ref="326110252"/>
    <nd ref="326110255"/>
    <nd ref="326110258"/>
    <nd ref="326110261"/>
    <nd ref="326110265"/>
    <tag k="addr:postcode" v="5280"/>
    <tag k="at:maxspeed" v="Ortsgebiet"/>
    <tag k="fixme" v="check import"/>
    <tag k="highway" v="track"/>
    <tag k="is_in" v="...,Bezirk Braunau,Oberösterreich,Österreich,Europa"/>
    <tag k="name" v="Lindach"/>
    <tag k="note" v="imported from plan.at; (C)=CC-by-sa or oDBL; feel free to change if necessary"/>
    <tag k="plan_at:acad_id" v="br16342"/>
    <tag k="source" v="plan.at 2009"/>
  </way>
  <way id="29603055" version="3" timestamp="2009-12-08T08:42:45Z" uid="200463" user="harmagedon" changeset="3322149">
    <nd ref="326110271"/>
    <nd ref="326110274"/>
    <nd ref="326110278"/>
    <nd ref="326110283"/>
    <nd ref="326110285"/>
    <nd ref="326110288"/>
    <nd ref="326110290"/>
    <nd ref="326110291"/>
    <nd ref="326110292"/>
    <nd ref="326110293"/>
    <tag k="addr:postcode" v="5280"/>
    <tag k="at:maxspeed" v="Ortsgebiet"/>
    <tag k="fixme" v="check import"/>
    <tag k="highway" v="track"/>
    <tag k="is_in" v="...,Bezirk Braunau,Oberösterreich,Österreich,Europa"/>
    <tag k="name" v="Braunau"/>
    <tag k="note" v="imported from plan.at; (C)=CC-by-sa or oDBL; feel free to change if necessary"/>
    <tag k="plan_at:acad_id" v="br1633C"/>
    <tag k="source" v="plan.at 2009"/>
    <tag k="uploaded_by" v="Wolfgang W. Wasserburger"/>
  </way>
  <way id="29603055" version="4" timestamp="2009-12-09T02:07:36Z" uid="200463" user="harmagedon" changeset="3330540">
    <nd ref="326110271"/>
    <nd ref="326110274"/>
    <nd ref="326110278"/>
    <nd ref="326110283"/>
    <nd ref="326110285"/>
    <nd ref="326110288"/>
    <nd ref="326110290"/>
    <nd ref="326110291"/>
    <nd ref="326110292"/>
    <nd ref="326110293"/>
    <tag k="addr:postcode" v="5280"/>
    <tag k="at:maxspeed" v="Ortsgebiet"/>
    <tag k="fixme" v="check import"/>
    <tag k="highway" v="track"/>
    <tag k="is_in" v="...,Bezirk Braunau,Oberösterreich,Österreich,Europa"/>
    <tag k="name" v="Braunau"/>
    <tag k="note" v="imported from plan.at; (C)=CC-by-sa or oDBL; feel free to change if necessary"/>
    <tag k="plan_at:acad_id" v="br1633C"/>
    <tag k="source" v="plan.at 2009"/>
  </way>
  <way id="29603060" version="3" timestamp="2009-12-08T08:42:42Z" uid="200463" user="harmagedon" changeset="3322149">
    <nd ref="326110301"/>
    <nd ref="326110306"/>
    <nd ref="326110309"/>
    <nd ref="326110312"/>
    <nd ref="326110317"/>
    <nd ref="326110321"/>
    <nd ref="326110324"/>
    <nd ref="326110330"/>
    <nd ref="326110336"/>
    <nd ref="326110340"/>
    <nd ref="326110271"/>
    <tag k="addr:postcode" v="5280"/>
    <tag k="at:maxspeed" v="Ortsgebiet"/>
    <tag k="fixme" v="check import"/>
    <tag k="highway" v="track"/>
    <tag k="is_in" v="...,Bezirk Braunau,Oberösterreich,Österreich,Europa"/>
    <tag k="name" v="Maierhof"/>
    <tag k="note" v="imported from plan.at; (C)=CC-by-sa or oDBL; feel free to change if necessary"/>
    <tag k="plan_at:acad_id" v="br1633B"/>
    <tag k="source" v="plan.at 2009"/>
    <tag k="uploaded_by" v="Wolfgang W. Wasserburger"/>
  </way>
  <way id="29603060" version="4" timestamp="2009-12-09T02:07:33Z" uid="200463" user="harmagedon" changeset="3330540">
    <nd ref="326110301"/>
    <nd ref="326110306"/>
    <nd ref="326110309"/>
    <nd ref="326110312"/>
    <nd ref="326110317"/>
    <nd ref="326110321"/>
    <nd ref="326110324"/>
    <nd ref="326110330"/>
    <nd ref="326110336"/>
    <nd ref="326110340"/>
    <nd ref="326110271"/>
    <tag k="addr:postcode" v="5280"/>
    <tag k="at:maxspeed" v="Ortsgebiet"/>
    <tag k="fixme" v="check import"/>
    <tag k="highway" v="track"/>
    <tag k="is_in" v="...,Bezirk Braunau,Oberösterreich,Österreich,Europa"/>
    <tag k="name" v="Maierhof"/>
    <tag k="note" v="imported from plan.at; (C)=CC-by-sa or oDBL; feel free to change if necessary"/>
    <tag k="plan_at:acad_id" v="br1633B"/>
    <tag k="source" v="plan.at 2009"/>
  </way>
  <way id="29603070" version="4" timestamp="2009-12-08T08:40:46Z" uid="200463" user="harmagedon" changeset="3322149">
    <nd ref="276088590"/>
    <nd ref="326110349"/>
    <nd ref="326110353"/>
    <nd ref="326110354"/>
    <nd ref="326110365"/>
    <nd ref="326110368"/>
    <nd ref="326110370"/>
    <nd ref="276088563"/>
    <nd ref="335574706"/>
    <nd ref="326110379"/>
    <nd ref="276088559"/>
    <nd ref="326110271"/>
    <nd ref="326110395"/>
    <nd ref="326110398"/>
    <nd ref="326110402"/>
    <nd ref="276088500"/>
    <nd ref="326110406"/>
    <nd ref="326110410"/>
    <nd ref="382412907"/>
    <nd ref="276088493"/>
    <nd ref="335574657"/>
    <nd ref="335574658"/>
    <nd ref="335574659"/>
    <nd ref="335574660"/>
    <nd ref="335574661"/>
    <nd ref="335574662"/>
    <nd ref="335574663"/>
    <nd ref="335574664"/>
    <nd ref="335574676"/>
    <nd ref="335574692"/>
    <nd ref="335574693"/>
    <nd ref="335574697"/>
    <nd ref="276088039"/>
    <tag k="addr:postcode" v="5280"/>
    <tag k="at:maxspeed" v="Ortsgebiet"/>
    <tag k="highway" v="tertiary"/>
    <tag k="is_in" v="...,Bezirk Braunau,Oberösterreich,Österreich,Europa"/>
    <tag k="name" v="Gasteig...Aching"/>
    <tag k="note" v="imported from plan.at; (C)=CC-by-sa or oDBL; feel free to change if necessary"/>
    <tag k="plan_at:acad_id" v="br16336"/>
    <tag k="source" v="plan.at 2009"/>
    <tag k="uploaded_by" v="Wolfgang W. Wasserburger"/>
  </way>
  <way id="29603070" version="5" timestamp="2009-12-09T02:04:58Z" uid="200463" user="harmagedon" changeset="3330540">
    <nd ref="276088590"/>
    <nd ref="326110349"/>
    <nd ref="326110353"/>
    <nd ref="326110354"/>
    <nd ref="326110365"/>
    <nd ref="326110368"/>
    <nd ref="326110370"/>
    <nd ref="276088563"/>
    <nd ref="335574706"/>
    <nd ref="326110379"/>
    <nd ref="276088559"/>
    <nd ref="326110271"/>
    <nd ref="326110395"/>
    <nd ref="326110398"/>
    <nd ref="326110402"/>
    <nd ref="276088500"/>
    <nd ref="326110406"/>
    <nd ref="326110410"/>
    <nd ref="382412907"/>
    <nd ref="276088493"/>
    <nd ref="335574657"/>
    <nd ref="335574658"/>
    <nd ref="335574659"/>
    <nd ref="335574660"/>
    <nd ref="335574661"/>
    <nd ref="335574662"/>
    <nd ref="335574663"/>
    <nd ref="335574664"/>
    <nd ref="335574676"/>
    <nd ref="335574692"/>
    <nd ref="335574693"/>
    <nd ref="335574697"/>
    <nd ref="276088039"/>
    <tag k="addr:postcode" v="5280"/>
    <tag k="at:maxspeed" v="Ortsgebiet"/>
    <tag k="highway" v="tertiary"/>
    <tag k="is_in" v="...,Bezirk Braunau,Oberösterreich,Österreich,Europa"/>
    <tag k="name" v="Gasteig...Aching"/>
    <tag k="note" v="imported from plan.at; (C)=CC-by-sa or oDBL; feel free to change if necessary"/>
    <tag k="plan_at:acad_id" v="br16336"/>
    <tag k="source" v="plan.at 2009"/>
  </way>
  <way id="29603073" version="4" timestamp="2009-12-09T02:10:13Z" uid="200463" user="harmagedon" changeset="3330540">
    <nd ref="326110427"/>
    <nd ref="326110430"/>
    <tag k="addr:postcode" v="5280"/>
    <tag k="at:maxspeed" v="Ortsgebiet"/>
    <tag k="fixme" v="check import"/>
    <tag k="highway" v="residential"/>
    <tag k="is_in" v="...,Bezirk Braunau,Oberösterreich,Österreich,Europa"/>
    <tag k="name" v="Hammersteinstraße"/>
    <tag k="note" v="imported from plan.at; (C)=CC-by-sa or oDBL; feel free to change if necessary"/>
    <tag k="plan_at:acad_id" v="br16331"/>
    <tag k="source" v="plan.at 2009"/>
  </way>
  <way id="29603091" version="5" timestamp="2009-12-09T02:10:55Z" uid="200463" user="harmagedon" changeset="3330540">
    <nd ref="326110450"/>
    <nd ref="270908897"/>
    <tag k="addr:postcode" v="5280"/>
    <tag k="at:maxspeed" v="Ortsgebiet"/>
    <tag k="fixme" v="check import"/>
    <tag k="highway" v="residential"/>
    <tag k="is_in" v="...,Bezirk Braunau,Oberösterreich,Österreich,Europa"/>
    <tag k="name" v="Braunau"/>
    <tag k="note" v="imported from plan.at; (C)=CC-by-sa or oDBL; feel free to change if necessary"/>
    <tag k="plan_at:acad_id" v="br16323"/>
    <tag k="source" v="plan.at 2009"/>
  </way>
  <way id="29603096" version="4" timestamp="2009-12-08T08:43:58Z" uid="200463" user="harmagedon" changeset="3322149">
    <nd ref="326110536"/>
    <nd ref="270908889"/>
    <nd ref="330185976"/>
    <nd ref="330185982"/>
    <nd ref="326110537"/>
    <tag k="addr:postcode" v="5280"/>
    <tag k="at:maxspeed" v="Ortsgebiet"/>
    <tag k="highway" v="residential"/>
    <tag k="is_in" v="...,Bezirk Braunau,Oberösterreich,Österreich,Europa"/>
    <tag k="name" v="Herzog-Heinrich-Straße"/>
    <tag k="note" v="imported from plan.at; (C)=CC-by-sa or oDBL; feel free to change if necessary"/>
    <tag k="plan_at:acad_id" v="br1631C"/>
    <tag k="source" v="plan.at 2009"/>
    <tag k="uploaded_by" v="Wolfgang W. Wasserburger"/>
  </way>
  <way id="29603096" version="5" timestamp="2009-12-09T02:11:03Z" uid="200463" user="harmagedon" changeset="3330540">
    <nd ref="326110536"/>
    <nd ref="270908889"/>
    <nd ref="330185976"/>
    <nd ref="330185982"/>
    <nd ref="326110537"/>
    <tag k="addr:postcode" v="5280"/>
    <tag k="at:maxspeed" v="Ortsgebiet"/>
    <tag k="highway" v="residential"/>
    <tag k="is_in" v="...,Bezirk Braunau,Oberösterreich,Österreich,Europa"/>
    <tag k="name" v="Herzog-Heinrich-Straße"/>
    <tag k="note" v="imported from plan.at; (C)=CC-by-sa or oDBL; feel free to change if necessary"/>
    <tag k="plan_at:acad_id" v="br1631C"/>
    <tag k="source" v="plan.at 2009"/>
  </way>
  <way id="29603100" version="3" timestamp="2009-12-08T08:40:01Z" uid="200463" user="harmagedon" changeset="3322149">
    <nd ref="326110546"/>
    <nd ref="326110548"/>
    <nd ref="326110549"/>
    <nd ref="326110550"/>
    <nd ref="326110551"/>
    <nd ref="326110552"/>
    <nd ref="326110553"/>
    <nd ref="326110554"/>
    <tag k="addr:postcode" v="5280"/>
    <tag k="at:maxspeed" v="Ortsgebiet"/>
    <tag k="fixme" v="check import"/>
    <tag k="highway" v="residential"/>
    <tag k="is_in" v="...,Bezirk Braunau,Oberösterreich,Österreich,Europa"/>
    <tag k="name" v="Industriezeile"/>
    <tag k="note" v="imported from plan.at; (C)=CC-by-sa or oDBL; feel free to change if necessary"/>
    <tag k="plan_at:acad_id" v="br162F9"/>
    <tag k="source" v="plan.at 2009"/>
    <tag k="uploaded_by" v="Wolfgang W. Wasserburger"/>
  </way>
  <way id="29603100" version="4" timestamp="2009-12-09T02:04:29Z" uid="200463" user="harmagedon" changeset="3330540">
    <nd ref="326110546"/>
    <nd ref="326110548"/>
    <nd ref="326110549"/>
    <nd ref="326110550"/>
    <nd ref="326110551"/>
    <nd ref="326110552"/>
    <nd ref="326110553"/>
    <nd ref="326110554"/>
    <tag k="addr:postcode" v="5280"/>
    <tag k="at:maxspeed" v="Ortsgebiet"/>
    <tag k="fixme" v="check import"/>
    <tag k="highway" v="residential"/>
    <tag k="is_in" v="...,Bezirk Braunau,Oberösterreich,Österreich,Europa"/>
    <tag k="name" v="Industriezeile"/>
    <tag k="note" v="imported from plan.at; (C)=CC-by-sa or oDBL; feel free to change if necessary"/>
    <tag k="plan_at:acad_id" v="br162F9"/>
    <tag k="source" v="plan.at 2009"/>
  </way>
  <way id="29603103" version="9" timestamp="2009-12-09T02:10:36Z" uid="200463" user="harmagedon" changeset="3330540">
    <nd ref="326110561"/>
    <nd ref="326110562"/>
    <nd ref="330178661"/>
    <nd ref="326110563"/>
    <nd ref="326110566"/>
    <nd ref="326110571"/>
    <nd ref="326115074"/>
    <tag k="addr:postcode" v="5280"/>
    <tag k="at:maxspeed" v="Ortsgebiet"/>
    <tag k="bicycle" v="yes"/>
    <tag k="fixme" v="check import"/>
    <tag k="foot" v="yes"/>
    <tag k="highway" v="track"/>
    <tag k="is_in" v="...,Bezirk Braunau,Oberösterreich,Österreich,Europa"/>
    <tag k="name" v="Martin-Heigl-Weg"/>
    <tag k="note" v="imported from plan.at; (C)=CC-by-sa or oDBL; feel free to change if necessary"/>
    <tag k="plan_at:acad_id" v="br162E5"/>
    <tag k="source" v="plan.at 2009"/>
  </way>
  <way id="29603107" version="4" timestamp="2009-12-08T08:42:54Z" uid="200463" user="harmagedon" changeset="3322149">
    <nd ref="326110577"/>
    <nd ref="326110580"/>
    <nd ref="326110582"/>
    <tag k="addr:postcode" v="5280"/>
    <tag k="at:maxspeed" v="Ortsgebiet"/>
    <tag k="fixme" v="check import"/>
    <tag k="highway" v="residential"/>
    <tag k="is_in" v="...,Bezirk Braunau,Oberösterreich,Österreich,Europa"/>
    <tag k="name" v="Burgfriedfeldstraße"/>
    <tag k="note" v="imported from plan.at; (C)=CC-by-sa or oDBL; feel free to change if necessary"/>
    <tag k="plan_at:acad_id" v="br162DF"/>
    <tag k="source" v="plan.at 2009"/>
    <tag k="uploaded_by" v="Wolfgang W. Wasserburger"/>
  </way>
  <way id="29603107" version="5" timestamp="2009-12-09T02:07:55Z" uid="200463" user="harmagedon" changeset="3330540">
    <nd ref="326110577"/>
    <nd ref="326110580"/>
    <nd ref="326110582"/>
    <tag k="addr:postcode" v="5280"/>
    <tag k="at:maxspeed" v="Ortsgebiet"/>
    <tag k="fixme" v="check import"/>
    <tag k="highway" v="residential"/>
    <tag k="is_in" v="...,Bezirk Braunau,Oberösterreich,Österreich,Europa"/>
    <tag k="name" v="Burgfriedfeldstraße"/>
    <tag k="note" v="imported from plan.at; (C)=CC-by-sa or oDBL; feel free to change if necessary"/>
    <tag k="plan_at:acad_id" v="br162DF"/>
    <tag k="source" v="plan.at 2009"/>
  </way>
  <way id="29603111" version="3" timestamp="2009-12-08T08:39:58Z" uid="200463" user="harmagedon" changeset="3322149">
    <nd ref="326110597"/>
    <nd ref="326110599"/>
    <nd ref="326110601"/>
    <tag k="addr:postcode" v="5280"/>
    <tag k="at:maxspeed" v="Ortsgebiet"/>
    <tag k="highway" v="residential"/>
    <tag k="is_in" v="...,Bezirk Braunau,Oberösterreich,Österreich,Europa"/>
    <tag k="name" v="Wagnerbauernstraße"/>
    <tag k="note" v="imported from plan.at; (C)=CC-by-sa or oDBL; feel free to change if necessary"/>
    <tag k="plan_at:acad_id" v="br162D9"/>
    <tag k="source" v="plan.at 2009"/>
    <tag k="uploaded_by" v="Wolfgang W. Wasserburger"/>
  </way>
  <way id="29603111" version="4" timestamp="2009-12-09T02:04:28Z" uid="200463" user="harmagedon" changeset="3330540">
    <nd ref="326110597"/>
    <nd ref="326110599"/>
    <nd ref="326110601"/>
    <tag k="addr:postcode" v="5280"/>
    <tag k="at:maxspeed" v="Ortsgebiet"/>
    <tag k="highway" v="residential"/>
    <tag k="is_in" v="...,Bezirk Braunau,Oberösterreich,Österreich,Europa"/>
    <tag k="name" v="Wagnerbauernstraße"/>
    <tag k="note" v="imported from plan.at; (C)=CC-by-sa or oDBL; feel free to change if necessary"/>
    <tag k="plan_at:acad_id" v="br162D9"/>
    <tag k="source" v="plan.at 2009"/>
  </way>
  <way id="29603113" version="3" timestamp="2009-12-08T08:43:50Z" uid="200463" user="harmagedon" changeset="3322149">
    <nd ref="326110607"/>
    <nd ref="319147839"/>
    <tag k="addr:postcode" v="5280"/>
    <tag k="at:maxspeed" v="Ortsgebiet"/>
    <tag k="highway" v="residential"/>
    <tag k="is_in" v="...,Bezirk Braunau,Oberösterreich,Österreich,Europa"/>
    <tag k="name" v="Flurstraße"/>
    <tag k="note" v="imported from plan.at; (C)=CC-by-sa or oDBL; feel free to change if necessary"/>
    <tag k="plan_at:acad_id" v="br162D6"/>
    <tag k="source" v="plan.at 2009"/>
    <tag k="uploaded_by" v="Wolfgang W. Wasserburger"/>
  </way>
  <way id="29603113" version="4" timestamp="2009-12-09T02:10:58Z" uid="200463" user="harmagedon" changeset="3330540">
    <nd ref="326110607"/>
    <nd ref="319147839"/>
    <tag k="addr:postcode" v="5280"/>
    <tag k="at:maxspeed" v="Ortsgebiet"/>
    <tag k="highway" v="residential"/>
    <tag k="is_in" v="...,Bezirk Braunau,Oberösterreich,Österreich,Europa"/>
    <tag k="name" v="Flurstraße"/>
    <tag k="note" v="imported from plan.at; (C)=CC-by-sa or oDBL; feel free to change if necessary"/>
    <tag k="plan_at:acad_id" v="br162D6"/>
    <tag k="source" v="plan.at 2009"/>
  </way>
  <way id="29603117" version="4" timestamp="2009-12-09T02:10:29Z" uid="200463" user="harmagedon" changeset="3330540">
    <nd ref="326110613"/>
    <nd ref="326110616"/>
    <nd ref="326110619"/>
    <nd ref="326110621"/>
    <nd ref="334513498"/>
    <nd ref="316217667"/>
    <nd ref="326110625"/>
    <tag k="addr:postcode" v="5280"/>
    <tag k="at:maxspeed" v="Ortsgebiet"/>
    <tag k="highway" v="tertiary"/>
    <tag k="is_in" v="...,Bezirk Braunau,Oberösterreich,Österreich,Europa"/>
    <tag k="name" v="Dietfurter Straße"/>
    <tag k="note" v="imported from plan.at; (C)=CC-by-sa or oDBL; feel free to change if necessary"/>
    <tag k="plan_at:acad_id" v="br162C7"/>
    <tag k="source" v="plan.at 2009"/>
  </way>
  <way id="29603122" version="6" timestamp="2009-12-09T02:07:28Z" uid="200463" user="harmagedon" changeset="3330540">
    <nd ref="326110642"/>
    <nd ref="326110650"/>
    <nd ref="326110646"/>
    <nd ref="326110643"/>
    <nd ref="326110642"/>
    <tag k="fixme" v="check import"/>
    <tag k="is_in" v="...,Bezirk Braunau,Oberösterreich,Österreich,Europa"/>
    <tag k="name" v="Freibad"/>
    <tag k="natural" v="water"/>
    <tag k="note" v="imported from plan.at; (C)=CC-by-sa or oDBL; feel free to change if necessary"/>
    <tag k="plan_at:acad_id" v="br162BD"/>
    <tag k="source" v="plan.at 2009"/>
  </way>
  <way id="29603129" version="3" timestamp="2009-12-09T02:07:27Z" uid="200463" user="harmagedon" changeset="3330540">
    <nd ref="326110658"/>
    <nd ref="326110660"/>
    <nd ref="326110665"/>
    <nd ref="326110670"/>
    <nd ref="326110672"/>
    <nd ref="326110674"/>
    <nd ref="326110676"/>
    <nd ref="326110680"/>
    <nd ref="326110683"/>
    <nd ref="326110685"/>
    <nd ref="326110691"/>
    <nd ref="326110658"/>
    <tag k="addr:postcode" v="5280"/>
    <tag k="building" v="yes"/>
    <tag k="fixme" v="check import"/>
    <tag k="is_in" v="...,Bezirk Braunau,Oberösterreich,Österreich,Europa"/>
    <tag k="leisure" v="sports_centre"/>
    <tag k="name" v="Bezirkssporthalle"/>
    <tag k="note" v="imported from plan.at; (C)=CC-by-sa or oDBL; feel free to change if necessary"/>
    <tag k="plan_at:acad_id" v="br162B0"/>
    <tag k="source" v="plan.at 2009"/>
  </way>
  <way id="29603133" version="4" timestamp="2009-12-09T02:07:29Z" uid="200463" user="harmagedon" changeset="3330540">
    <nd ref="326110697"/>
    <nd ref="326110699"/>
    <nd ref="326110703"/>
    <nd ref="326110705"/>
    <nd ref="326110706"/>
    <nd ref="326110710"/>
    <nd ref="326110697"/>
    <tag k="addr:postcode" v="5280"/>
    <tag k="building" v="yes"/>
    <tag k="fixme" v="check import"/>
    <tag k="is_in" v="...,Bezirk Braunau,Oberösterreich,Österreich,Europa"/>
    <tag k="name" v="Freizeitzentrum"/>
    <tag k="note" v="imported from plan.at; (C)=CC-by-sa or oDBL; feel free to change if necessary"/>
    <tag k="plan_at:acad_id" v="br162AF"/>
    <tag k="source" v="plan.at 2009"/>
  </way>
  <way id="29603138" version="3" timestamp="2009-12-08T08:42:11Z" uid="200463" user="harmagedon" changeset="3322149">
    <nd ref="326110729"/>
    <nd ref="326110732"/>
    <nd ref="326110735"/>
    <tag k="addr:postcode" v="5280"/>
    <tag k="at:maxspeed" v="Ortsgebiet"/>
    <tag k="highway" v="residential"/>
    <tag k="is_in" v="...,Bezirk Braunau,Oberösterreich,Österreich,Europa"/>
    <tag k="name" v="Stadionstraße"/>
    <tag k="note" v="imported from plan.at; (C)=CC-by-sa or oDBL; feel free to change if necessary"/>
    <tag k="plan_at:acad_id" v="br162A8"/>
    <tag k="source" v="plan.at 2009"/>
    <tag k="uploaded_by" v="Wolfgang W. Wasserburger"/>
  </way>
  <way id="29603138" version="4" timestamp="2009-12-09T02:06:56Z" uid="200463" user="harmagedon" changeset="3330540">
    <nd ref="326110729"/>
    <nd ref="326110732"/>
    <nd ref="326110735"/>
    <tag k="addr:postcode" v="5280"/>
    <tag k="at:maxspeed" v="Ortsgebiet"/>
    <tag k="highway" v="residential"/>
    <tag k="is_in" v="...,Bezirk Braunau,Oberösterreich,Österreich,Europa"/>
    <tag k="name" v="Stadionstraße"/>
    <tag k="note" v="imported from plan.at; (C)=CC-by-sa or oDBL; feel free to change if necessary"/>
    <tag k="plan_at:acad_id" v="br162A8"/>
    <tag k="source" v="plan.at 2009"/>
  </way>
  <way id="29603141" version="5" timestamp="2009-12-08T08:42:20Z" uid="200463" user="harmagedon" changeset="3322149">
    <nd ref="326117419"/>
    <nd ref="289321008"/>
    <nd ref="326110743"/>
    <tag k="highway" v="residential"/>
    <tag k="is_in" v="...,Bezirk Braunau,Oberösterreich,Österreich,Europa"/>
    <tag k="note" v="imported from plan.at; (C)=CC-by-sa or oDBL; feel free to change if necessary"/>
    <tag k="source" v="GPS"/>
  </way>
  <way id="29603150" version="4" timestamp="2009-12-09T02:07:02Z" uid="200463" user="harmagedon" changeset="3330540">
    <nd ref="326110780"/>
    <nd ref="326110783"/>
    <tag k="addr:postcode" v="5280"/>
    <tag k="at:maxspeed" v="Ortsgebiet"/>
    <tag k="fixme" v="check import;check if street really exists"/>
    <tag k="highway" v="living_street"/>
    <tag k="is_in" v="...,Bezirk Braunau,Oberösterreich,Österreich,Europa"/>
    <tag k="name" v="Fleschenfeldstraße"/>
    <tag k="note" v="imported from plan.at; (C)=CC-by-sa or oDBL; feel free to change if necessary"/>
    <tag k="plan_at:acad_id" v="br16219"/>
    <tag k="source" v="plan.at 2009"/>
  </way>
  <way id="29603152" version="3" timestamp="2009-12-08T08:42:24Z" uid="200463" user="harmagedon" changeset="3322149">
    <nd ref="326110787"/>
    <nd ref="335300885"/>
    <nd ref="335300883"/>
    <nd ref="326110790"/>
    <tag k="addr:postcode" v="5280"/>
    <tag k="at:maxspeed" v="Ortsgebiet"/>
    <tag k="highway" v="residential"/>
    <tag k="is_in" v="...,Bezirk Braunau,Oberösterreich,Österreich,Europa"/>
    <tag k="name" v="Kranewittweg"/>
    <tag k="note" v="imported from plan.at; (C)=CC-by-sa or oDBL; feel free to change if necessary"/>
    <tag k="plan_at:acad_id" v="br16215"/>
    <tag k="source" v="plan.at 2009"/>
    <tag k="uploaded_by" v="Wolfgang W. Wasserburger"/>
  </way>
  <way id="29603152" version="4" timestamp="2009-12-09T02:07:02Z" uid="200463" user="harmagedon" changeset="3330540">
    <nd ref="326110787"/>
    <nd ref="335300885"/>
    <nd ref="335300883"/>
    <nd ref="326110790"/>
    <tag k="addr:postcode" v="5280"/>
    <tag k="at:maxspeed" v="Ortsgebiet"/>
    <tag k="highway" v="residential"/>
    <tag k="is_in" v="...,Bezirk Braunau,Oberösterreich,Österreich,Europa"/>
    <tag k="name" v="Kranewittweg"/>
    <tag k="note" v="imported from plan.at; (C)=CC-by-sa or oDBL; feel free to change if necessary"/>
    <tag k="plan_at:acad_id" v="br16215"/>
    <tag k="source" v="plan.at 2009"/>
  </way>
  <way id="29603156" version="3" timestamp="2009-12-08T08:42:11Z" uid="200463" user="harmagedon" changeset="3322149">
    <nd ref="326110790"/>
    <nd ref="326110797"/>
    <nd ref="326110800"/>
    <nd ref="326110804"/>
    <tag k="addr:postcode" v="5280"/>
    <tag k="at:maxspeed" v="Ortsgebiet"/>
    <tag k="fixme" v="check import"/>
    <tag k="highway" v="track"/>
    <tag k="is_in" v="...,Bezirk Braunau,Oberösterreich,Österreich,Europa"/>
    <tag k="name" v="Richard-Billinger-Straße"/>
    <tag k="note" v="imported from plan.at; (C)=CC-by-sa or oDBL; feel free to change if necessary"/>
    <tag k="plan_at:acad_id" v="br16212"/>
    <tag k="source" v="plan.at 2009"/>
    <tag k="uploaded_by" v="Wolfgang W. Wasserburger"/>
  </way>
  <way id="29603156" version="4" timestamp="2009-12-09T02:06:56Z" uid="200463" user="harmagedon" changeset="3330540">
    <nd ref="326110790"/>
    <nd ref="326110797"/>
    <nd ref="326110800"/>
    <nd ref="326110804"/>
    <tag k="addr:postcode" v="5280"/>
    <tag k="at:maxspeed" v="Ortsgebiet"/>
    <tag k="fixme" v="check import"/>
    <tag k="highway" v="track"/>
    <tag k="is_in" v="...,Bezirk Braunau,Oberösterreich,Österreich,Europa"/>
    <tag k="name" v="Richard-Billinger-Straße"/>
    <tag k="note" v="imported from plan.at; (C)=CC-by-sa or oDBL; feel free to change if necessary"/>
    <tag k="plan_at:acad_id" v="br16212"/>
    <tag k="source" v="plan.at 2009"/>
  </way>
  <way id="29603162" version="4" timestamp="2009-12-09T02:04:27Z" uid="200463" user="harmagedon" changeset="3330540">
    <nd ref="326110818"/>
    <nd ref="326110820"/>
    <nd ref="287130899"/>
    <nd ref="330444246"/>
    <nd ref="326120859"/>
    <nd ref="326120854"/>
    <tag k="addr:postcode" v="5280"/>
    <tag k="at:maxspeed" v="Ortsgebiet"/>
    <tag k="fixme" v="check import"/>
    <tag k="highway" v="residential"/>
    <tag k="is_in" v="...,Bezirk Braunau,Oberösterreich,Österreich,Europa"/>
    <tag k="name" v="Dr.-Martin-Straße"/>
    <tag k="note" v="imported from plan.at; (C)=CC-by-sa or oDBL; feel free to change if necessary"/>
    <tag k="plan_at:acad_id" v="br131A3"/>
    <tag k="source" v="plan.at 2009"/>
  </way>
  <way id="29603165" version="4" timestamp="2009-12-09T02:09:21Z" uid="200463" user="harmagedon" changeset="3330540">
    <nd ref="326110831"/>
    <nd ref="326110834"/>
    <nd ref="326110839"/>
    <nd ref="326110841"/>
    <tag k="addr:postcode" v="5280"/>
    <tag k="at:maxspeed" v="Ortsgebiet"/>
    <tag k="fixme" v="check import"/>
    <tag k="highway" v="residential"/>
    <tag k="is_in" v="...,Bezirk Braunau,Oberösterreich,Österreich,Europa"/>
    <tag k="name" v="Braunau"/>
    <tag k="note" v="imported from plan.at; (C)=CC-by-sa or oDBL; feel free to change if necessary"/>
    <tag k="plan_at:acad_id" v="br16187"/>
    <tag k="source" v="plan.at 2009"/>
  </way>
  <way id="29603170" version="5" timestamp="2009-12-09T02:09:26Z" uid="200463" user="harmagedon" changeset="3330540">
    <nd ref="326110848"/>
    <nd ref="326110850"/>
    <nd ref="326110855"/>
    <nd ref="326110858"/>
    <nd ref="326110861"/>
    <nd ref="326110866"/>
    <nd ref="326110873"/>
    <nd ref="326110877"/>
    <nd ref="326110880"/>
    <nd ref="326110848"/>
    <tag k="addr:postcode" v="5280"/>
    <tag k="amenity" v="parking"/>
    <tag k="fixme" v="check import"/>
    <tag k="is_in" v="...,Bezirk Braunau,Oberösterreich,Österreich,Europa"/>
    <tag k="name" v="Parkplatz"/>
    <tag k="note" v="imported from plan.at; (C)=CC-by-sa or oDBL; feel free to change if necessary"/>
    <tag k="plan_at:acad_id" v="br16184"/>
    <tag k="source" v="plan.at 2009"/>
  </way>
  <way id="29603173" version="4" timestamp="2009-12-09T02:09:27Z" uid="200463" user="harmagedon" changeset="3330540">
    <nd ref="326110905"/>
    <nd ref="326110914"/>
    <nd ref="326110923"/>
    <nd ref="326110928"/>
    <nd ref="326121815"/>
    <tag k="addr:postcode" v="5280"/>
    <tag k="at:maxspeed" v="Ortsgebiet"/>
    <tag k="fixme" v="check import"/>
    <tag k="highway" v="residential"/>
    <tag k="is_in" v="...,Bezirk Braunau,Oberösterreich,Österreich,Europa"/>
    <tag k="name" v="Kaserngasse"/>
    <tag k="note" v="imported from plan.at; (C)=CC-by-sa or oDBL; feel free to change if necessary"/>
    <tag k="plan_at:acad_id" v="br11D12"/>
    <tag k="source" v="plan.at 2009"/>
  </way>
  <way id="29603180" version="6" timestamp="2009-12-09T02:08:36Z" uid="200463" user="harmagedon" changeset="3330540">
    <nd ref="326110976"/>
    <nd ref="326110969"/>
    <nd ref="326110961"/>
    <nd ref="326110955"/>
    <nd ref="326110948"/>
    <tag k="addr:postcode" v="5280"/>
    <tag k="at:maxspeed" v="Ortsgebiet"/>
    <tag k="highway" v="residential"/>
    <tag k="is_in" v="...,Bezirk Braunau,Oberösterreich,Österreich,Europa"/>
    <tag k="name" v="Kaiserschützenstraße"/>
    <tag k="note" v="imported from plan.at; (C)=CC-by-sa or oDBL; feel free to change if necessary"/>
    <tag k="plan_at:acad_id" v="br16175"/>
    <tag k="source" v="plan.at 2009"/>
  </way>
  <way id="29603187" version="4" timestamp="2009-12-09T02:09:29Z" uid="200463" user="harmagedon" changeset="3330540">
    <nd ref="326111042"/>
    <nd ref="326111045"/>
    <tag k="addr:postcode" v="5280"/>
    <tag k="at:maxspeed" v="Ortsgebiet"/>
    <tag k="fixme" v="check import"/>
    <tag k="highway" v="residential"/>
    <tag k="is_in" v="...,Bezirk Braunau,Oberösterreich,Österreich,Europa"/>
    <tag k="name" v="Braunau"/>
    <tag k="note" v="imported from plan.at; (C)=CC-by-sa or oDBL; feel free to change if necessary"/>
    <tag k="plan_at:acad_id" v="br16168"/>
    <tag k="source" v="plan.at 2009"/>
  </way>
  <way id="29603217" version="4" timestamp="2009-12-09T02:09:30Z" uid="200463" user="harmagedon" changeset="3330540">
    <nd ref="326111187"/>
    <nd ref="326111191"/>
    <nd ref="326111193"/>
    <nd ref="326111196"/>
    <nd ref="326111200"/>
    <nd ref="326111203"/>
    <tag k="addr:postcode" v="5280"/>
    <tag k="at:maxspeed" v="Ortsgebiet"/>
    <tag k="fixme" v="check import"/>
    <tag k="highway" v="residential"/>
    <tag k="is_in" v="...,Bezirk Braunau,Oberösterreich,Österreich,Europa"/>
    <tag k="name" v="Braunau"/>
    <tag k="note" v="imported from plan.at; (C)=CC-by-sa or oDBL; feel free to change if necessary"/>
    <tag k="plan_at:acad_id" v="br16164"/>
    <tag k="source" v="plan.at 2009"/>
  </way>
  <way id="29603221" version="5" timestamp="2009-12-09T02:09:47Z" uid="200463" user="harmagedon" changeset="3330540">
    <nd ref="326111210"/>
    <nd ref="326111214"/>
    <nd ref="326111215"/>
    <nd ref="326111218"/>
    <nd ref="326111210"/>
    <tag k="addr:postcode" v="5280"/>
    <tag k="fixme" v="check import"/>
    <tag k="highway" v="residential"/>
    <tag k="is_in" v="...,Bezirk Braunau,Oberösterreich,Österreich,Europa"/>
    <tag k="name" v="Busbahnhof"/>
    <tag k="note" v="imported from plan.at; (C)=CC-by-sa or oDBL; feel free to change if necessary"/>
    <tag k="plan_at:acad_id" v="br1615F"/>
    <tag k="source" v="plan.at 2009"/>
  </way>
  <way id="29603224" version="4" timestamp="2009-12-09T02:09:57Z" uid="200463" user="harmagedon" changeset="3330540">
    <nd ref="326111226"/>
    <nd ref="326111231"/>
    <tag k="addr:postcode" v="5280"/>
    <tag k="at:maxspeed" v="Ortsgebiet"/>
    <tag k="highway" v="residential"/>
    <tag k="is_in" v="...,Bezirk Braunau,Oberösterreich,Österreich,Europa"/>
    <tag k="name" v="Stettheimer Straße"/>
    <tag k="note" v="imported from plan.at; (C)=CC-by-sa or oDBL; feel free to change if necessary"/>
    <tag k="plan_at:acad_id" v="br1615A"/>
    <tag k="source" v="plan.at 2009"/>
  </way>
  <way id="29603235" version="5" timestamp="2009-12-09T02:09:20Z" uid="200463" user="harmagedon" changeset="3330540">
    <nd ref="326111268"/>
    <nd ref="326111272"/>
    <nd ref="326111274"/>
    <nd ref="326111275"/>
    <nd ref="326111268"/>
    <tag k="addr:postcode" v="5280"/>
    <tag k="amenity" v="parking"/>
    <tag k="fixme" v="check import"/>
    <tag k="is_in" v="...,Bezirk Braunau,Oberösterreich,Österreich,Europa"/>
    <tag k="name" v="Parkplatz Filzmoser Wiese"/>
    <tag k="note" v="imported from plan.at; (C)=CC-by-sa or oDBL; feel free to change if necessary"/>
    <tag k="plan_at:acad_id" v="br16156"/>
    <tag k="source" v="plan.at 2009"/>
  </way>
  <way id="29603238" version="4" timestamp="2009-12-09T02:09:19Z" uid="200463" user="harmagedon" changeset="3330540">
    <nd ref="326111284"/>
    <nd ref="326111286"/>
    <nd ref="326111287"/>
    <tag k="addr:postcode" v="5280"/>
    <tag k="at:maxspeed" v="Ortsgebiet"/>
    <tag k="fixme" v="check import"/>
    <tag k="highway" v="residential"/>
    <tag k="is_in" v="...,Bezirk Braunau,Oberösterreich,Österreich,Europa"/>
    <tag k="name" v="Palmweg"/>
    <tag k="note" v="imported from plan.at; (C)=CC-by-sa or oDBL; feel free to change if necessary"/>
    <tag k="plan_at:acad_id" v="br160DE"/>
    <tag k="source" v="plan.at 2009"/>
  </way>
  <way id="29603241" version="5" timestamp="2009-12-09T02:09:29Z" uid="200463" user="harmagedon" changeset="3330540">
    <nd ref="329995572"/>
    <nd ref="326111294"/>
    <nd ref="326111295"/>
    <tag k="addr:postcode" v="5280"/>
    <tag k="at:maxspeed" v="Ortsgebiet"/>
    <tag k="fixme" v="check import"/>
    <tag k="highway" v="residential"/>
    <tag k="is_in" v="...,Bezirk Braunau,Oberösterreich,Österreich,Europa"/>
    <tag k="name" v="Lerchenfeldgasse"/>
    <tag k="note" v="imported from plan.at; (C)=CC-by-sa or oDBL; feel free to change if necessary"/>
    <tag k="plan_at:acad_id" v="br16073"/>
    <tag k="source" v="plan.at 2009"/>
  </way>
  <way id="29603243" version="4" timestamp="2009-12-09T02:09:43Z" uid="200463" user="harmagedon" changeset="3330540">
    <nd ref="326111300"/>
    <nd ref="326111304"/>
    <tag k="addr:postcode" v="5280"/>
    <tag k="at:maxspeed" v="Ortsgebiet"/>
    <tag k="fixme" v="check import"/>
    <tag k="highway" v="residential"/>
    <tag k="is_in" v="...,Bezirk Braunau,Oberösterreich,Österreich,Europa"/>
    <tag k="name" v="Palmplatz"/>
    <tag k="note" v="imported from plan.at; (C)=CC-by-sa or oDBL; feel free to change if necessary"/>
    <tag k="plan_at:acad_id" v="br16069"/>
    <tag k="source" v="plan.at 2009"/>
  </way>
  <way id="29603245" version="4" timestamp="2009-12-09T02:09:25Z" uid="200463" user="harmagedon" changeset="3330540">
    <nd ref="326111310"/>
    <nd ref="326111311"/>
    <nd ref="326111329"/>
    <nd ref="326111315"/>
    <tag k="addr:postcode" v="5280"/>
    <tag k="at:maxspeed" v="Ortsgebiet"/>
    <tag k="fixme" v="check import"/>
    <tag k="highway" v="residential"/>
    <tag k="is_in" v="...,Bezirk Braunau,Oberösterreich,Österreich,Europa"/>
    <tag k="name" v="Am Berg"/>
    <tag k="note" v="imported from plan.at; (C)=CC-by-sa or oDBL; feel free to change if necessary"/>
    <tag k="plan_at:acad_id" v="br16068"/>
    <tag k="source" v="plan.at 2009"/>
  </way>
  <way id="29603249" version="4" timestamp="2009-12-09T02:09:26Z" uid="200463" user="harmagedon" changeset="3330540">
    <nd ref="326111323"/>
    <nd ref="326111327"/>
    <nd ref="326111329"/>
    <nd ref="326110905"/>
    <tag k="addr:postcode" v="5280"/>
    <tag k="at:maxspeed" v="Ortsgebiet"/>
    <tag k="fixme" v="check import"/>
    <tag k="highway" v="residential"/>
    <tag k="is_in" v="...,Bezirk Braunau,Oberösterreich,Österreich,Europa"/>
    <tag k="name" v="Palmstraße"/>
    <tag k="note" v="imported from plan.at; (C)=CC-by-sa or oDBL; feel free to change if necessary"/>
    <tag k="plan_at:acad_id" v="br16067"/>
    <tag k="source" v="plan.at 2009"/>
  </way>
  <way id="29603253" version="4" timestamp="2009-12-09T02:09:40Z" uid="200463" user="harmagedon" changeset="3330540">
    <nd ref="326111337"/>
    <nd ref="326111341"/>
    <nd ref="326111300"/>
    <tag k="addr:postcode" v="5280"/>
    <tag k="at:maxspeed" v="Ortsgebiet"/>
    <tag k="fixme" v="check import"/>
    <tag k="highway" v="residential"/>
    <tag k="is_in" v="...,Bezirk Braunau,Oberösterreich,Österreich,Europa"/>
    <tag k="name" v="Palmstraße"/>
    <tag k="note" v="imported from plan.at; (C)=CC-by-sa or oDBL; feel free to change if necessary"/>
    <tag k="plan_at:acad_id" v="br1605E"/>
    <tag k="source" v="plan.at 2009"/>
  </way>
  <way id="29603271" version="7" timestamp="2009-12-09T02:09:42Z" uid="200463" user="harmagedon" changeset="3330540">
    <nd ref="326111371"/>
    <nd ref="326111373"/>
    <nd ref="326111375"/>
    <nd ref="326111379"/>
    <nd ref="326111380"/>
    <nd ref="326111384"/>
    <nd ref="326111386"/>
    <nd ref="326111389"/>
    <nd ref="326111393"/>
    <nd ref="326111396"/>
    <nd ref="326111398"/>
    <nd ref="326111401"/>
    <nd ref="326111403"/>
    <nd ref="326111406"/>
    <nd ref="326111410"/>
    <nd ref="326111412"/>
    <nd ref="326111415"/>
    <nd ref="326111421"/>
    <nd ref="326111423"/>
    <nd ref="326111425"/>
    <nd ref="326111429"/>
    <nd ref="326111430"/>
    <nd ref="326111433"/>
    <nd ref="326111438"/>
    <nd ref="326111441"/>
    <nd ref="326111445"/>
    <nd ref="326111449"/>
    <nd ref="326111453"/>
    <nd ref="326111371"/>
    <tag k="addr:postcode" v="5280"/>
    <tag k="amenity" v="place_of_worship"/>
    <tag k="building" v="yes"/>
    <tag k="denomination" v="catholic"/>
    <tag k="fixme" v="check import"/>
    <tag k="is_in" v="...,Bezirk Braunau,Oberösterreich,Österreich,Europa"/>
    <tag k="name" v="Hl. Geist  Spital und Kirche"/>
    <tag k="note" v="imported from plan.at; (C)=CC-by-sa or oDBL; feel free to change if necessary"/>
    <tag k="plan_at:acad_id" v="br1605B"/>
    <tag k="religion" v="christian"/>
    <tag k="source" v="plan.at 2009"/>
  </way>
  <way id="29603278" version="4" timestamp="2009-12-09T02:09:23Z" uid="200463" user="harmagedon" changeset="3330540">
    <nd ref="326110928"/>
    <nd ref="326111486"/>
    <nd ref="326111490"/>
    <nd ref="326111491"/>
    <tag k="addr:postcode" v="5280"/>
    <tag k="at:maxspeed" v="Ortsgebiet"/>
    <tag k="fixme" v="check import"/>
    <tag k="highway" v="residential"/>
    <tag k="is_in" v="...,Bezirk Braunau,Oberösterreich,Österreich,Europa"/>
    <tag k="name" v="Lederergasse"/>
    <tag k="note" v="imported from plan.at; (C)=CC-by-sa or oDBL; feel free to change if necessary"/>
    <tag k="plan_at:acad_id" v="br1603A"/>
    <tag k="source" v="plan.at 2009"/>
  </way>
  <way id="29603280" version="4" timestamp="2009-12-09T02:09:23Z" uid="200463" user="harmagedon" changeset="3330540">
    <nd ref="326111499"/>
    <nd ref="326111505"/>
    <nd ref="326111509"/>
    <nd ref="326110928"/>
    <tag k="addr:postcode" v="5280"/>
    <tag k="at:maxspeed" v="Ortsgebiet"/>
    <tag k="fixme" v="check import"/>
    <tag k="highway" v="residential"/>
    <tag k="is_in" v="...,Bezirk Braunau,Oberösterreich,Österreich,Europa"/>
    <tag k="name" v="Schmiedgasse"/>
    <tag k="note" v="imported from plan.at; (C)=CC-by-sa or oDBL; feel free to change if necessary"/>
    <tag k="plan_at:acad_id" v="br16039"/>
    <tag k="source" v="plan.at 2009"/>
  </way>
  <way id="29603282" version="5" timestamp="2009-12-09T02:08:35Z" uid="200463" user="harmagedon" changeset="3330540">
    <nd ref="326111491"/>
    <nd ref="326111516"/>
    <nd ref="331796924"/>
    <nd ref="326113060"/>
    <tag k="addr:postcode" v="5280"/>
    <tag k="at:maxspeed" v="Ortsgebiet"/>
    <tag k="fixme" v="check import"/>
    <tag k="highway" v="residential"/>
    <tag k="is_in" v="...,Bezirk Braunau,Oberösterreich,Österreich,Europa"/>
    <tag k="name" v="Lederergasse"/>
    <tag k="note" v="imported from plan.at; (C)=CC-by-sa or oDBL; feel free to change if necessary"/>
    <tag k="plan_at:acad_id" v="br16038"/>
    <tag k="source" v="plan.at 2009"/>
  </way>
  <way id="29603285" version="4" timestamp="2009-12-09T02:09:24Z" uid="200463" user="harmagedon" changeset="3330540">
    <nd ref="326111310"/>
    <nd ref="326111526"/>
    <tag k="addr:postcode" v="5280"/>
    <tag k="at:maxspeed" v="Ortsgebiet"/>
    <tag k="fixme" v="check import"/>
    <tag k="highway" v="residential"/>
    <tag k="is_in" v="...,Bezirk Braunau,Oberösterreich,Österreich,Europa"/>
    <tag k="name" v="Färbergasse"/>
    <tag k="note" v="imported from plan.at; (C)=CC-by-sa or oDBL; feel free to change if necessary"/>
    <tag k="plan_at:acad_id" v="br16035"/>
    <tag k="source" v="plan.at 2009"/>
  </way>
  <way id="29603287" version="5" timestamp="2009-12-09T02:08:55Z" uid="200463" user="harmagedon" changeset="3330540">
    <nd ref="326111531"/>
    <nd ref="326111535"/>
    <nd ref="326111539"/>
    <nd ref="326111543"/>
    <nd ref="326111531"/>
    <tag k="addr:postcode" v="5280"/>
    <tag k="amenity" v="parking"/>
    <tag k="fixme" v="check import"/>
    <tag k="is_in" v="...,Bezirk Braunau,Oberösterreich,Österreich,Europa"/>
    <tag k="name" v="Parkplatz"/>
    <tag k="note" v="imported from plan.at; (C)=CC-by-sa or oDBL; feel free to change if necessary"/>
    <tag k="plan_at:acad_id" v="br16032"/>
    <tag k="source" v="plan.at 2009"/>
  </way>
  <way id="29603290" version="4" timestamp="2009-12-09T02:09:05Z" uid="200463" user="harmagedon" changeset="3330540">
    <nd ref="326111553"/>
    <nd ref="326111557"/>
    <nd ref="326111559"/>
    <tag k="addr:postcode" v="5280"/>
    <tag k="at:maxspeed" v="Ortsgebiet"/>
    <tag k="fixme" v="check import"/>
    <tag k="highway" v="residential"/>
    <tag k="is_in" v="...,Bezirk Braunau,Oberösterreich,Österreich,Europa"/>
    <tag k="name" v="Dr.-Scheuba-Gasse"/>
    <tag k="note" v="imported from plan.at; (C)=CC-by-sa or oDBL; feel free to change if necessary"/>
    <tag k="plan_at:acad_id" v="br16030"/>
    <tag k="source" v="plan.at 2009"/>
  </way>
  <way id="29603293" version="4" timestamp="2009-12-09T02:08:54Z" uid="200463" user="harmagedon" changeset="3330540">
    <nd ref="326111559"/>
    <nd ref="326111569"/>
    <nd ref="326111575"/>
    <tag k="addr:postcode" v="5280"/>
    <tag k="at:maxspeed" v="Ortsgebiet"/>
    <tag k="fixme" v="check import"/>
    <tag k="highway" v="residential"/>
    <tag k="is_in" v="...,Bezirk Braunau,Oberösterreich,Österreich,Europa"/>
    <tag k="name" v="Krankenhausgasse"/>
    <tag k="note" v="imported from plan.at; (C)=CC-by-sa or oDBL; feel free to change if necessary"/>
    <tag k="plan_at:acad_id" v="br1602F"/>
    <tag k="source" v="plan.at 2009"/>
  </way>
  <way id="29603315" version="4" timestamp="2009-12-09T02:09:04Z" uid="200463" user="harmagedon" changeset="3330540">
    <nd ref="326111553"/>
    <nd ref="326111583"/>
    <nd ref="326111588"/>
    <nd ref="326111591"/>
    <tag k="addr:postcode" v="5280"/>
    <tag k="at:maxspeed" v="Ortsgebiet"/>
    <tag k="fixme" v="check import"/>
    <tag k="highway" v="residential"/>
    <tag k="is_in" v="...,Bezirk Braunau,Oberösterreich,Österreich,Europa"/>
    <tag k="name" v="Braunau"/>
    <tag k="note" v="imported from plan.at; (C)=CC-by-sa or oDBL; feel free to change if necessary"/>
    <tag k="plan_at:acad_id" v="br16026"/>
    <tag k="source" v="plan.at 2009"/>
  </way>
  <way id="29603325" version="4" timestamp="2009-12-09T02:08:34Z" uid="200463" user="harmagedon" changeset="3330540">
    <nd ref="326111719"/>
    <nd ref="326111721"/>
    <nd ref="326111726"/>
    <nd ref="326111730"/>
    <nd ref="326111733"/>
    <nd ref="326111739"/>
    <nd ref="326111740"/>
    <nd ref="326111745"/>
    <nd ref="326111749"/>
    <nd ref="326111752"/>
    <nd ref="326111755"/>
    <nd ref="326111759"/>
    <nd ref="326111719"/>
    <tag k="addr:postcode" v="5280"/>
    <tag k="area" v="yes"/>
    <tag k="fixme" v="check import"/>
    <tag k="highway" v="pedestrian"/>
    <tag k="is_in" v="...,Bezirk Braunau,Oberösterreich,Österreich,Europa"/>
    <tag k="name" v="Stadtplatz"/>
    <tag k="note" v="imported from plan.at; (C)=CC-by-sa or oDBL; feel free to change if necessary"/>
    <tag k="plan_at:acad_id" v="br16022"/>
    <tag k="source" v="plan.at 2009"/>
  </way>
  <way id="29603328" version="4" timestamp="2009-12-09T02:08:42Z" uid="200463" user="harmagedon" changeset="3330540">
    <nd ref="326111766"/>
    <nd ref="326111769"/>
    <nd ref="326111772"/>
    <tag k="addr:postcode" v="5280"/>
    <tag k="at:maxspeed" v="Ortsgebiet"/>
    <tag k="fixme" v="check import"/>
    <tag k="highway" v="residential"/>
    <tag k="is_in" v="...,Bezirk Braunau,Oberösterreich,Österreich,Europa"/>
    <tag k="name" v="Kirchenplatz"/>
    <tag k="note" v="imported from plan.at; (C)=CC-by-sa or oDBL; feel free to change if necessary"/>
    <tag k="plan_at:acad_id" v="br1601E"/>
    <tag k="source" v="plan.at 2009"/>
  </way>
  <way id="29603330" version="4" timestamp="2009-12-09T02:09:10Z" uid="200463" user="harmagedon" changeset="3330540">
    <nd ref="326111780"/>
    <nd ref="326111783"/>
    <nd ref="326111785"/>
    <tag k="addr:postcode" v="5280"/>
    <tag k="at:maxspeed" v="Ortsgebiet"/>
    <tag k="fixme" v="check import"/>
    <tag k="highway" v="residential"/>
    <tag k="is_in" v="...,Bezirk Braunau,Oberösterreich,Österreich,Europa"/>
    <tag k="name" v="Schleifmühlgasse"/>
    <tag k="note" v="imported from plan.at; (C)=CC-by-sa or oDBL; feel free to change if necessary"/>
    <tag k="plan_at:acad_id" v="br1601D"/>
    <tag k="source" v="plan.at 2009"/>
  </way>
  <way id="29603335" version="4" timestamp="2009-12-09T02:08:30Z" uid="200463" user="harmagedon" changeset="3330540">
    <nd ref="326101590"/>
    <nd ref="326105600"/>
    <nd ref="326111808"/>
    <nd ref="326105549"/>
    <nd ref="326111810"/>
    <nd ref="326111811"/>
    <nd ref="326111816"/>
    <tag k="addr:postcode" v="5280"/>
    <tag k="at:maxspeed" v="Ortsgebiet"/>
    <tag k="fixme" v="check import"/>
    <tag k="highway" v="unclassified"/>
    <tag k="is_in" v="...,Bezirk Braunau,Oberösterreich,Österreich,Europa"/>
    <tag k="name" v="Kleingärten"/>
    <tag k="note" v="imported from plan.at; (C)=CC-by-sa or oDBL; feel free to change if necessary"/>
    <tag k="plan_at:acad_id" v="br1600B"/>
    <tag k="source" v="plan.at 2009"/>
  </way>
  <way id="29603338" version="4" timestamp="2009-12-09T02:08:31Z" uid="200463" user="harmagedon" changeset="3330540">
    <nd ref="326111823"/>
    <nd ref="326111825"/>
    <tag k="addr:postcode" v="5280"/>
    <tag k="at:maxspeed" v="Ortsgebiet"/>
    <tag k="fixme" v="check import"/>
    <tag k="highway" v="unclassified"/>
    <tag k="is_in" v="...,Bezirk Braunau,Oberösterreich,Österreich,Europa"/>
    <tag k="name" v="Kleingärten"/>
    <tag k="note" v="imported from plan.at; (C)=CC-by-sa or oDBL; feel free to change if necessary"/>
    <tag k="plan_at:acad_id" v="br16004"/>
    <tag k="source" v="plan.at 2009"/>
  </way>
  <way id="29603342" version="4" timestamp="2009-12-09T02:08:31Z" uid="200463" user="harmagedon" changeset="3330540">
    <nd ref="326111835"/>
    <nd ref="326111825"/>
    <nd ref="326111838"/>
    <nd ref="326111841"/>
    <nd ref="326111845"/>
    <nd ref="326111849"/>
    <nd ref="326111853"/>
    <nd ref="326111857"/>
    <nd ref="326111823"/>
    <tag k="addr:postcode" v="5280"/>
    <tag k="at:maxspeed" v="Ortsgebiet"/>
    <tag k="fixme" v="check import"/>
    <tag k="highway" v="unclassified"/>
    <tag k="is_in" v="...,Bezirk Braunau,Oberösterreich,Österreich,Europa"/>
    <tag k="name" v="Kleingärten"/>
    <tag k="note" v="imported from plan.at; (C)=CC-by-sa or oDBL; feel free to change if necessary"/>
    <tag k="plan_at:acad_id" v="br16003"/>
    <tag k="source" v="plan.at 2009"/>
  </way>
  <way id="29603349" version="4" timestamp="2009-12-09T02:08:28Z" uid="200463" user="harmagedon" changeset="3330540">
    <nd ref="326111867"/>
    <nd ref="326111872"/>
    <nd ref="326111874"/>
    <nd ref="326111878"/>
    <nd ref="326111884"/>
    <nd ref="326111889"/>
    <nd ref="326111895"/>
    <nd ref="326111898"/>
    <nd ref="326111816"/>
    <tag k="addr:postcode" v="5280"/>
    <tag k="at:maxspeed" v="Ortsgebiet"/>
    <tag k="fixme" v="check import"/>
    <tag k="highway" v="unclassified"/>
    <tag k="is_in" v="...,Bezirk Braunau,Oberösterreich,Österreich,Europa"/>
    <tag k="name" v="Braunau"/>
    <tag k="note" v="imported from plan.at; (C)=CC-by-sa or oDBL; feel free to change if necessary"/>
    <tag k="plan_at:acad_id" v="br16000"/>
    <tag k="source" v="plan.at 2009"/>
  </way>
  <way id="29603351" version="4" timestamp="2009-12-09T02:08:29Z" uid="200463" user="harmagedon" changeset="3330540">
    <nd ref="326111835"/>
    <nd ref="326111912"/>
    <tag k="addr:postcode" v="5280"/>
    <tag k="at:maxspeed" v="Ortsgebiet"/>
    <tag k="fixme" v="check import"/>
    <tag k="highway" v="unclassified"/>
    <tag k="is_in" v="...,Bezirk Braunau,Oberösterreich,Österreich,Europa"/>
    <tag k="name" v="Kleingärten"/>
    <tag k="note" v="imported from plan.at; (C)=CC-by-sa or oDBL; feel free to change if necessary"/>
    <tag k="plan_at:acad_id" v="br15FFD"/>
    <tag k="source" v="plan.at 2009"/>
  </way>
  <way id="29603354" version="4" timestamp="2009-12-08T08:41:15Z" uid="200463" user="harmagedon" changeset="3322149">
    <nd ref="326117991"/>
    <nd ref="326111926"/>
    <nd ref="326111929"/>
    <nd ref="326111930"/>
    <nd ref="326111933"/>
    <nd ref="332211799"/>
    <tag k="addr:postcode" v="5280"/>
    <tag k="at:maxspeed" v="Ortsgebiet"/>
    <tag k="fixme" v="check import"/>
    <tag k="highway" v="tertiary"/>
    <tag k="is_in" v="...,Bezirk Braunau,Oberösterreich,Österreich,Europa"/>
    <tag k="name" v="Heinrichstraße"/>
    <tag k="note" v="imported from plan.at; (C)=CC-by-sa or oDBL; feel free to change if necessary"/>
    <tag k="plan_at:acad_id" v="br15FFA"/>
    <tag k="source" v="plan.at 2009"/>
    <tag k="uploaded_by" v="Wolfgang W. Wasserburger"/>
  </way>
  <way id="29603354" version="5" timestamp="2009-12-09T02:05:35Z" uid="200463" user="harmagedon" changeset="3330540">
    <nd ref="326117991"/>
    <nd ref="326111926"/>
    <nd ref="326111929"/>
    <nd ref="326111930"/>
    <nd ref="326111933"/>
    <nd ref="332211799"/>
    <tag k="addr:postcode" v="5280"/>
    <tag k="at:maxspeed" v="Ortsgebiet"/>
    <tag k="fixme" v="check import"/>
    <tag k="highway" v="tertiary"/>
    <tag k="is_in" v="...,Bezirk Braunau,Oberösterreich,Österreich,Europa"/>
    <tag k="name" v="Heinrichstraße"/>
    <tag k="note" v="imported from plan.at; (C)=CC-by-sa or oDBL; feel free to change if necessary"/>
    <tag k="plan_at:acad_id" v="br15FFA"/>
    <tag k="source" v="plan.at 2009"/>
  </way>
  <way id="29603361" version="3" timestamp="2009-12-08T08:41:43Z" uid="200463" user="harmagedon" changeset="3322149">
    <nd ref="326111955"/>
    <nd ref="326111961"/>
    <tag k="addr:postcode" v="5280"/>
    <tag k="at:maxspeed" v="Ortsgebiet"/>
    <tag k="fixme" v="check import"/>
    <tag k="highway" v="residential"/>
    <tag k="is_in" v="...,Bezirk Braunau,Oberösterreich,Österreich,Europa"/>
    <tag k="name" v="Ranshofen"/>
    <tag k="note" v="imported from plan.at; (C)=CC-by-sa or oDBL; feel free to change if necessary"/>
    <tag k="plan_at:acad_id" v="br15FE1"/>
    <tag k="source" v="plan.at 2009"/>
    <tag k="uploaded_by" v="Wolfgang W. Wasserburger"/>
  </way>
  <way id="29603361" version="4" timestamp="2009-12-09T02:06:21Z" uid="200463" user="harmagedon" changeset="3330540">
    <nd ref="326111955"/>
    <nd ref="326111961"/>
    <tag k="addr:postcode" v="5280"/>
    <tag k="at:maxspeed" v="Ortsgebiet"/>
    <tag k="fixme" v="check import"/>
    <tag k="highway" v="residential"/>
    <tag k="is_in" v="...,Bezirk Braunau,Oberösterreich,Österreich,Europa"/>
    <tag k="name" v="Ranshofen"/>
    <tag k="note" v="imported from plan.at; (C)=CC-by-sa or oDBL; feel free to change if necessary"/>
    <tag k="plan_at:acad_id" v="br15FE1"/>
    <tag k="source" v="plan.at 2009"/>
  </way>
  <way id="29603364" version="3" timestamp="2009-12-08T08:41:24Z" uid="200463" user="harmagedon" changeset="3322149">
    <nd ref="326111971"/>
    <nd ref="326111973"/>
    <nd ref="326111975"/>
    <nd ref="326111978"/>
    <nd ref="326111981"/>
    <nd ref="326111984"/>
    <tag k="addr:postcode" v="5280"/>
    <tag k="at:maxspeed" v="Ortsgebiet"/>
    <tag k="fixme" v="check import"/>
    <tag k="highway" v="residential"/>
    <tag k="is_in" v="...,Bezirk Braunau,Oberösterreich,Österreich,Europa"/>
    <tag k="name" v="Buchenwaldweg"/>
    <tag k="note" v="imported from plan.at; (C)=CC-by-sa or oDBL; feel free to change if necessary"/>
    <tag k="plan_at:acad_id" v="br15FDA"/>
    <tag k="source" v="plan.at 2009"/>
    <tag k="uploaded_by" v="Wolfgang W. Wasserburger"/>
  </way>
  <way id="29603364" version="4" timestamp="2009-12-09T02:05:43Z" uid="200463" user="harmagedon" changeset="3330540">
    <nd ref="326111971"/>
    <nd ref="326111973"/>
    <nd ref="326111975"/>
    <nd ref="326111978"/>
    <nd ref="326111981"/>
    <nd ref="326111984"/>
    <tag k="addr:postcode" v="5280"/>
    <tag k="at:maxspeed" v="Ortsgebiet"/>
    <tag k="fixme" v="check import"/>
    <tag k="highway" v="residential"/>
    <tag k="is_in" v="...,Bezirk Braunau,Oberösterreich,Österreich,Europa"/>
    <tag k="name" v="Buchenwaldweg"/>
    <tag k="note" v="imported from plan.at; (C)=CC-by-sa or oDBL; feel free to change if necessary"/>
    <tag k="plan_at:acad_id" v="br15FDA"/>
    <tag k="source" v="plan.at 2009"/>
  </way>
  <way id="29603369" version="3" timestamp="2009-12-08T08:41:50Z" uid="200463" user="harmagedon" changeset="3322149">
    <nd ref="326111984"/>
    <nd ref="326112014"/>
    <nd ref="326112025"/>
    <nd ref="326112028"/>
    <tag k="addr:postcode" v="5280"/>
    <tag k="at:maxspeed" v="Ortsgebiet"/>
    <tag k="fixme" v="check import"/>
    <tag k="highway" v="track"/>
    <tag k="is_in" v="...,Bezirk Braunau,Oberösterreich,Österreich,Europa"/>
    <tag k="name" v="Buchenwaldweg"/>
    <tag k="note" v="imported from plan.at; (C)=CC-by-sa or oDBL; feel free to change if necessary"/>
    <tag k="plan_at:acad_id" v="br15FCF"/>
    <tag k="source" v="plan.at 2009"/>
    <tag k="uploaded_by" v="Wolfgang W. Wasserburger"/>
  </way>
  <way id="29603369" version="4" timestamp="2009-12-09T02:06:31Z" uid="200463" user="harmagedon" changeset="3330540">
    <nd ref="326111984"/>
    <nd ref="326112014"/>
    <nd ref="326112025"/>
    <nd ref="326112028"/>
    <tag k="addr:postcode" v="5280"/>
    <tag k="at:maxspeed" v="Ortsgebiet"/>
    <tag k="fixme" v="check import"/>
    <tag k="highway" v="track"/>
    <tag k="is_in" v="...,Bezirk Braunau,Oberösterreich,Österreich,Europa"/>
    <tag k="name" v="Buchenwaldweg"/>
    <tag k="note" v="imported from plan.at; (C)=CC-by-sa or oDBL; feel free to change if necessary"/>
    <tag k="plan_at:acad_id" v="br15FCF"/>
    <tag k="source" v="plan.at 2009"/>
  </way>
  <way id="29603384" version="3" timestamp="2009-12-08T08:40:49Z" uid="200463" user="harmagedon" changeset="3322149">
    <nd ref="326112088"/>
    <nd ref="326112090"/>
    <nd ref="326112094"/>
    <nd ref="326112099"/>
    <nd ref="326112103"/>
    <nd ref="326112108"/>
    <tag k="addr:postcode" v="5280"/>
    <tag k="at:maxspeed" v="Ortsgebiet"/>
    <tag k="fixme" v="check import"/>
    <tag k="highway" v="residential"/>
    <tag k="is_in" v="...,Bezirk Braunau,Oberösterreich,Österreich,Europa"/>
    <tag k="name" v="Franzosenkreuzweg"/>
    <tag k="note" v="imported from plan.at; (C)=CC-by-sa or oDBL; feel free to change if necessary"/>
    <tag k="plan_at:acad_id" v="br15FC2"/>
    <tag k="source" v="plan.at 2009"/>
    <tag k="uploaded_by" v="Wolfgang W. Wasserburger"/>
  </way>
  <way id="29603384" version="4" timestamp="2009-12-09T02:05:04Z" uid="200463" user="harmagedon" changeset="3330540">
    <nd ref="326112088"/>
    <nd ref="326112090"/>
    <nd ref="326112094"/>
    <nd ref="326112099"/>
    <nd ref="326112103"/>
    <nd ref="326112108"/>
    <tag k="addr:postcode" v="5280"/>
    <tag k="at:maxspeed" v="Ortsgebiet"/>
    <tag k="fixme" v="check import"/>
    <tag k="highway" v="residential"/>
    <tag k="is_in" v="...,Bezirk Braunau,Oberösterreich,Österreich,Europa"/>
    <tag k="name" v="Franzosenkreuzweg"/>
    <tag k="note" v="imported from plan.at; (C)=CC-by-sa or oDBL; feel free to change if necessary"/>
    <tag k="plan_at:acad_id" v="br15FC2"/>
    <tag k="source" v="plan.at 2009"/>
  </way>
  <way id="29603386" version="4" timestamp="2009-12-09T02:04:12Z" uid="200463" user="harmagedon" changeset="3330540">
    <nd ref="326112113"/>
    <nd ref="326112114"/>
    <tag k="addr:postcode" v="5280"/>
    <tag k="at:maxspeed" v="Ortsgebiet"/>
    <tag k="fixme" v="check import"/>
    <tag k="highway" v="track"/>
    <tag k="is_in" v="...,Bezirk Braunau,Oberösterreich,Österreich,Europa"/>
    <tag k="name" v="Scheuhub"/>
    <tag k="note" v="imported from plan.at; (C)=CC-by-sa or oDBL; feel free to change if necessary"/>
    <tag k="plan_at:acad_id" v="br15FB8"/>
    <tag k="source" v="plan.at 2009"/>
  </way>
  <way id="29603388" version="4" timestamp="2009-12-09T02:04:12Z" uid="200463" user="harmagedon" changeset="3330540">
    <nd ref="326112113"/>
    <nd ref="326112120"/>
    <tag k="addr:postcode" v="5280"/>
    <tag k="at:maxspeed" v="Ortsgebiet"/>
    <tag k="fixme" v="check import"/>
    <tag k="highway" v="residential"/>
    <tag k="is_in" v="...,Bezirk Braunau,Oberösterreich,Österreich,Europa"/>
    <tag k="name" v="Scheuhub"/>
    <tag k="note" v="imported from plan.at; (C)=CC-by-sa or oDBL; feel free to change if necessary"/>
    <tag k="plan_at:acad_id" v="br15FB5"/>
    <tag k="source" v="plan.at 2009"/>
  </way>
  <way id="29603392" version="4" timestamp="2009-12-09T02:03:48Z" uid="200463" user="harmagedon" changeset="3330540">
    <nd ref="326112120"/>
    <nd ref="326112127"/>
    <nd ref="326112130"/>
    <nd ref="326112132"/>
    <nd ref="326112136"/>
    <nd ref="326112139"/>
    <nd ref="326112140"/>
    <tag k="addr:postcode" v="5280"/>
    <tag k="at:maxspeed" v="Ortsgebiet"/>
    <tag k="fixme" v="check import"/>
    <tag k="highway" v="residential"/>
    <tag k="is_in" v="...,Bezirk Braunau,Oberösterreich,Österreich,Europa"/>
    <tag k="name" v="Rothböckstraße"/>
    <tag k="note" v="imported from plan.at; (C)=CC-by-sa or oDBL; feel free to change if necessary"/>
    <tag k="plan_at:acad_id" v="br15FB4"/>
    <tag k="source" v="plan.at 2009"/>
  </way>
  <way id="29603395" version="4" timestamp="2009-12-09T02:04:11Z" uid="200463" user="harmagedon" changeset="3330540">
    <nd ref="326112148"/>
    <nd ref="326112152"/>
    <tag k="addr:postcode" v="5280"/>
    <tag k="at:maxspeed" v="Ortsgebiet"/>
    <tag k="fixme" v="check import"/>
    <tag k="highway" v="residential"/>
    <tag k="is_in" v="...,Bezirk Braunau,Oberösterreich,Österreich,Europa"/>
    <tag k="name" v="Scheuhub"/>
    <tag k="note" v="imported from plan.at; (C)=CC-by-sa or oDBL; feel free to change if necessary"/>
    <tag k="plan_at:acad_id" v="br15FB0"/>
    <tag k="source" v="plan.at 2009"/>
  </way>
  <way id="29603398" version="5" timestamp="2009-12-09T02:04:11Z" uid="200463" user="harmagedon" changeset="3330540">
    <nd ref="361641001"/>
    <nd ref="326112166"/>
    <tag k="addr:postcode" v="5280"/>
    <tag k="at:maxspeed" v="Ortsgebiet"/>
    <tag k="fixme" v="check import"/>
    <tag k="highway" v="residential"/>
    <tag k="is_in" v="...,Bezirk Braunau,Oberösterreich,Österreich,Europa"/>
    <tag k="name" v="Scheuhub"/>
    <tag k="note" v="imported from plan.at; (C)=CC-by-sa or oDBL; feel free to change if necessary"/>
    <tag k="plan_at:acad_id" v="br15FAC"/>
    <tag k="source" v="plan.at 2009"/>
  </way>
  <way id="29603404" version="4" timestamp="2009-12-09T02:04:06Z" uid="200463" user="harmagedon" changeset="3330540">
    <nd ref="326112187"/>
    <nd ref="326102123"/>
    <tag k="addr:postcode" v="5280"/>
    <tag k="at:maxspeed" v="Ortsgebiet"/>
    <tag k="fixme" v="check import"/>
    <tag k="highway" v="residential"/>
    <tag k="is_in" v="...,Bezirk Braunau,Oberösterreich,Österreich,Europa"/>
    <tag k="name" v="Blankenbach"/>
    <tag k="note" v="imported from plan.at; (C)=CC-by-sa or oDBL; feel free to change if necessary"/>
    <tag k="plan_at:acad_id" v="br15FA0"/>
    <tag k="source" v="plan.at 2009"/>
  </way>
  <way id="29603426" version="6" timestamp="2009-12-09T02:08:15Z" uid="200463" user="harmagedon" changeset="3330540">
    <nd ref="326112232"/>
    <nd ref="326112236"/>
    <nd ref="326112237"/>
    <nd ref="326110430"/>
    <nd ref="270909013"/>
    <nd ref="326112255"/>
    <nd ref="270909772"/>
    <nd ref="334086577"/>
    <nd ref="326112268"/>
    <nd ref="270909776"/>
    <nd ref="334086570"/>
    <nd ref="326112272"/>
    <nd ref="326112275"/>
    <nd ref="245918772"/>
    <nd ref="326112284"/>
    <nd ref="326112289"/>
    <nd ref="326112294"/>
    <nd ref="326112298"/>
    <nd ref="326112302"/>
    <nd ref="326112306"/>
    <nd ref="326112310"/>
    <nd ref="326112316"/>
    <nd ref="326112320"/>
    <nd ref="326112323"/>
    <nd ref="326112326"/>
    <nd ref="326112327"/>
    <nd ref="326112328"/>
    <nd ref="326112329"/>
    <nd ref="326112330"/>
    <nd ref="326112331"/>
    <nd ref="335566836"/>
    <nd ref="270908897"/>
    <nd ref="326112332"/>
    <nd ref="326112333"/>
    <nd ref="244408761"/>
    <nd ref="326122766"/>
    <nd ref="326113932"/>
    <nd ref="326122771"/>
    <nd ref="326122774"/>
    <nd ref="335566837"/>
    <nd ref="326120169"/>
    <nd ref="326122777"/>
    <nd ref="326113877"/>
    <nd ref="326110625"/>
    <nd ref="326122784"/>
    <nd ref="326122788"/>
    <nd ref="235754169"/>
    <tag k="addr:postcode" v="5280"/>
    <tag k="at:maxspeed" v="Ortsgebiet"/>
    <tag k="highway" v="secondary"/>
    <tag k="is_in" v="...,Bezirk Braunau,Oberösterreich,Österreich,Europa"/>
    <tag k="name" v="Laabstraße"/>
    <tag k="note" v="imported from plan.at; (C)=CC-by-sa or oDBL; feel free to change if necessary"/>
    <tag k="plan_at:acad_id" v="br15F97"/>
    <tag k="source" v="plan.at 2009"/>
  </way>
  <way id="29603432" version="4" timestamp="2009-12-09T02:06:43Z" uid="200463" user="harmagedon" changeset="3330540">
    <nd ref="326112342"/>
    <nd ref="326112344"/>
    <nd ref="326112346"/>
    <nd ref="326112348"/>
    <nd ref="326112350"/>
    <nd ref="326112353"/>
    <nd ref="326112355"/>
    <nd ref="326112359"/>
    <nd ref="326112360"/>
    <nd ref="326112362"/>
    <nd ref="326112363"/>
    <nd ref="326112366"/>
    <nd ref="326112342"/>
    <tag k="addr:postcode" v="5280"/>
    <tag k="amenity" v="public_building"/>
    <tag k="building" v="yes"/>
    <tag k="fixme" v="check import"/>
    <tag k="is_in" v="...,Bezirk Braunau,Oberösterreich,Österreich,Europa"/>
    <tag k="name" v="Zollamt"/>
    <tag k="note" v="imported from plan.at; (C)=CC-by-sa or oDBL; feel free to change if necessary"/>
    <tag k="plan_at:acad_id" v="br15F5B"/>
    <tag k="source" v="plan.at 2009"/>
  </way>
  <way id="29603437" version="6" timestamp="2009-12-09T02:05:16Z" uid="200463" user="harmagedon" changeset="3330540">
    <nd ref="326112373"/>
    <nd ref="326112377"/>
    <nd ref="326112379"/>
    <nd ref="326112383"/>
    <nd ref="326112390"/>
    <nd ref="326112394"/>
    <nd ref="326112400"/>
    <nd ref="326112404"/>
    <nd ref="326112408"/>
    <nd ref="326112413"/>
    <nd ref="326112418"/>
    <nd ref="326112423"/>
    <nd ref="326112373"/>
    <tag k="addr:postcode" v="5280"/>
    <tag k="fixme" v="check import"/>
    <tag k="is_in" v="...,Bezirk Braunau,Oberösterreich,Österreich,Europa"/>
    <tag k="landuse" v="industrial"/>
    <tag k="name" v="AMST - Systemtechnik"/>
    <tag k="note" v="imported from plan.at; (C)=CC-by-sa or oDBL; feel free to change if necessary"/>
    <tag k="plan_at:acad_id" v="br15F51"/>
    <tag k="source" v="plan.at 2009"/>
  </way>
  <way id="29603445" version="5" timestamp="2009-12-09T02:05:02Z" uid="200463" user="harmagedon" changeset="3330540">
    <nd ref="326112423"/>
    <nd ref="326112439"/>
    <nd ref="326112440"/>
    <nd ref="326112442"/>
    <nd ref="326112445"/>
    <nd ref="326112447"/>
    <nd ref="326112449"/>
    <nd ref="326112450"/>
    <nd ref="326112452"/>
    <nd ref="326112455"/>
    <nd ref="326112457"/>
    <nd ref="326112460"/>
    <nd ref="326112423"/>
    <tag k="addr:postcode" v="5280"/>
    <tag k="fixme" v="check import"/>
    <tag k="is_in" v="...,Bezirk Braunau,Oberösterreich,Österreich,Europa"/>
    <tag k="landuse" v="industrial"/>
    <tag k="name" v="AMAG  Austria Metal Aktiengesellschaft"/>
    <tag k="note" v="imported from plan.at; (C)=CC-by-sa or oDBL; feel free to change if necessary"/>
    <tag k="plan_at:acad_id" v="br15F4E"/>
    <tag k="source" v="plan.at 2009"/>
  </way>
  <way id="29603448" version="5" timestamp="2009-12-09T02:05:16Z" uid="200463" user="harmagedon" changeset="3330540">
    <nd ref="326112469"/>
    <nd ref="326112471"/>
    <nd ref="326112475"/>
    <nd ref="326112479"/>
    <nd ref="326112481"/>
    <nd ref="326112485"/>
    <nd ref="326112469"/>
    <tag k="addr:postcode" v="5280"/>
    <tag k="fixme" v="check import"/>
    <tag k="is_in" v="...,Bezirk Braunau,Oberösterreich,Österreich,Europa"/>
    <tag k="landuse" v="industrial"/>
    <tag k="name" v="Austria Alu-Guss"/>
    <tag k="note" v="imported from plan.at; (C)=CC-by-sa or oDBL; feel free to change if necessary"/>
    <tag k="plan_at:acad_id" v="br15F47"/>
    <tag k="source" v="plan.at 2009"/>
  </way>
  <way id="29603495" version="3" timestamp="2009-12-08T08:41:56Z" uid="200463" user="harmagedon" changeset="3322149">
    <nd ref="326112801"/>
    <nd ref="326112825"/>
    <nd ref="326112828"/>
    <tag k="addr:postcode" v="5280"/>
    <tag k="at:maxspeed" v="Ortsgebiet"/>
    <tag k="fixme" v="check import"/>
    <tag k="highway" v="unclassified"/>
    <tag k="is_in" v="...,Bezirk Braunau,Oberösterreich,Österreich,Europa"/>
    <tag k="name" v="Osternberg"/>
    <tag k="note" v="imported from plan.at; (C)=CC-by-sa or oDBL; feel free to change if necessary"/>
    <tag k="plan_at:acad_id" v="br15EC2"/>
    <tag k="source" v="plan.at 2009"/>
    <tag k="uploaded_by" v="Wolfgang W. Wasserburger"/>
  </way>
  <way id="29603495" version="4" timestamp="2009-12-09T02:06:45Z" uid="200463" user="harmagedon" changeset="3330540">
    <nd ref="326112801"/>
    <nd ref="326112825"/>
    <nd ref="326112828"/>
    <tag k="addr:postcode" v="5280"/>
    <tag k="at:maxspeed" v="Ortsgebiet"/>
    <tag k="fixme" v="check import"/>
    <tag k="highway" v="unclassified"/>
    <tag k="is_in" v="...,Bezirk Braunau,Oberösterreich,Österreich,Europa"/>
    <tag k="name" v="Osternberg"/>
    <tag k="note" v="imported from plan.at; (C)=CC-by-sa or oDBL; feel free to change if necessary"/>
    <tag k="plan_at:acad_id" v="br15EC2"/>
    <tag k="source" v="plan.at 2009"/>
  </way>
  <way id="29603500" version="4" timestamp="2009-12-09T02:05:34Z" uid="200463" user="harmagedon" changeset="3330540">
    <nd ref="326112790"/>
    <nd ref="326112834"/>
    <nd ref="326112837"/>
    <nd ref="326112842"/>
    <nd ref="326112845"/>
    <nd ref="326112847"/>
    <nd ref="326112849"/>
    <nd ref="326112852"/>
    <nd ref="326112854"/>
    <tag k="addr:postcode" v="5280"/>
    <tag k="at:maxspeed" v="Ortsgebiet"/>
    <tag k="fixme" v="check import"/>
    <tag k="highway" v="unclassified"/>
    <tag k="is_in" v="...,Bezirk Braunau,Oberösterreich,Österreich,Europa"/>
    <tag k="name" v="Mitterweg"/>
    <tag k="note" v="imported from plan.at; (C)=CC-by-sa or oDBL; feel free to change if necessary"/>
    <tag k="plan_at:acad_id" v="br15EC1"/>
    <tag k="source" v="plan.at 2009"/>
  </way>
  <way id="29603506" version="5" timestamp="2009-12-09T02:09:09Z" uid="200463" user="harmagedon" changeset="3330540">
    <nd ref="326112865"/>
    <nd ref="326112868"/>
    <nd ref="326112870"/>
    <nd ref="326112872"/>
    <nd ref="365765193"/>
    <nd ref="326112877"/>
    <nd ref="326112879"/>
    <nd ref="326112883"/>
    <nd ref="326112888"/>
    <nd ref="326112890"/>
    <nd ref="326112865"/>
    <tag k="addr:postcode" v="5280"/>
    <tag k="fixme" v="check import"/>
    <tag k="is_in" v="...,Bezirk Braunau,Oberösterreich,Österreich,Europa"/>
    <tag k="leisure" v="park"/>
    <tag k="name" v="Stadtpark"/>
    <tag k="note" v="imported from plan.at; (C)=CC-by-sa or oDBL; feel free to change if necessary"/>
    <tag k="plan_at:acad_id" v="br15EBF"/>
    <tag k="source" v="plan.at 2009"/>
  </way>
  <way id="29603511" version="4" timestamp="2009-12-09T02:09:09Z" uid="200463" user="harmagedon" changeset="3330540">
    <nd ref="326112901"/>
    <nd ref="326112905"/>
    <tag k="addr:postcode" v="5280"/>
    <tag k="at:maxspeed" v="Ortsgebiet"/>
    <tag k="fixme" v="check import"/>
    <tag k="highway" v="residential"/>
    <tag k="is_in" v="...,Bezirk Braunau,Oberösterreich,Österreich,Europa"/>
    <tag k="name" v="Braunau"/>
    <tag k="note" v="imported from plan.at; (C)=CC-by-sa or oDBL; feel free to change if necessary"/>
    <tag k="plan_at:acad_id" v="br15EBC"/>
    <tag k="source" v="plan.at 2009"/>
  </way>
  <way id="29603514" version="4" timestamp="2009-12-09T02:09:08Z" uid="200463" user="harmagedon" changeset="3330540">
    <nd ref="326111785"/>
    <nd ref="326112912"/>
    <nd ref="326112915"/>
    <nd ref="326112918"/>
    <nd ref="326112919"/>
    <tag k="addr:postcode" v="5280"/>
    <tag k="at:maxspeed" v="Ortsgebiet"/>
    <tag k="fixme" v="check import"/>
    <tag k="highway" v="residential"/>
    <tag k="is_in" v="...,Bezirk Braunau,Oberösterreich,Österreich,Europa"/>
    <tag k="name" v="Schleifmühlgasse"/>
    <tag k="note" v="imported from plan.at; (C)=CC-by-sa or oDBL; feel free to change if necessary"/>
    <tag k="plan_at:acad_id" v="br15EBA"/>
    <tag k="source" v="plan.at 2009"/>
  </way>
  <way id="29603523" version="6" timestamp="2009-12-09T02:09:31Z" uid="200463" user="harmagedon" changeset="3330540">
    <nd ref="326112925"/>
    <nd ref="326112930"/>
    <nd ref="326112935"/>
    <tag k="addr:postcode" v="5280"/>
    <tag k="at:maxspeed" v="Ortsgebiet"/>
    <tag k="bridge" v="yes"/>
    <tag k="fixme" v="check import"/>
    <tag k="highway" v="secondary"/>
    <tag k="is_in" v="...,Bezirk Braunau,Oberösterreich,Österreich,Europa"/>
    <tag k="layer" v="1"/>
    <tag k="name" v="Simbacher Straße"/>
    <tag k="note" v="imported from plan.at; (C)=CC-by-sa or oDBL; feel free to change if necessary"/>
    <tag k="plan_at:acad_id" v="br15EB7"/>
    <tag k="source" v="plan.at 2009"/>
  </way>
  <way id="29603526" version="6" timestamp="2009-12-09T02:08:41Z" uid="200463" user="harmagedon" changeset="3330540">
    <nd ref="326112967"/>
    <nd ref="326112979"/>
    <nd ref="334077095"/>
    <nd ref="334082133"/>
    <nd ref="326112983"/>
    <tag k="addr:postcode" v="5280"/>
    <tag k="at:maxspeed" v="Ortsgebiet"/>
    <tag k="bridge" v="yes"/>
    <tag k="fixme" v="check import"/>
    <tag k="highway" v="secondary"/>
    <tag k="is_in" v="...,Bezirk Braunau,Oberösterreich,Österreich,Europa"/>
    <tag k="layer" v="1"/>
    <tag k="name" v="Simbacher Straße"/>
    <tag k="note" v="imported from plan.at; (C)=CC-by-sa or oDBL; feel free to change if necessary"/>
    <tag k="plan_at:acad_id" v="br15EB2"/>
    <tag k="source" v="plan.at 2009"/>
  </way>
  <way id="29603529" version="4" timestamp="2009-12-09T02:09:54Z" uid="200463" user="harmagedon" changeset="3330540">
    <nd ref="326112991"/>
    <nd ref="326112995"/>
    <tag k="addr:postcode" v="5280"/>
    <tag k="at:maxspeed" v="Ortsgebiet"/>
    <tag k="fixme" v="check import"/>
    <tag k="highway" v="residential"/>
    <tag k="is_in" v="...,Bezirk Braunau,Oberösterreich,Österreich,Europa"/>
    <tag k="name" v="Bautenbacherstraße"/>
    <tag k="note" v="imported from plan.at; (C)=CC-by-sa or oDBL; feel free to change if necessary"/>
    <tag k="plan_at:acad_id" v="br15EB1"/>
    <tag k="source" v="plan.at 2009"/>
  </way>
  <way id="29603531" version="3" timestamp="2009-12-08T08:42:28Z" uid="200463" user="harmagedon" changeset="3322149">
    <nd ref="326113002"/>
    <nd ref="326113006"/>
    <tag k="addr:postcode" v="5280"/>
    <tag k="at:maxspeed" v="Ortsgebiet"/>
    <tag k="fixme" v="check import"/>
    <tag k="highway" v="residential"/>
    <tag k="is_in" v="...,Bezirk Braunau,Oberösterreich,Österreich,Europa"/>
    <tag k="name" v="Braunau"/>
    <tag k="note" v="imported from plan.at; (C)=CC-by-sa or oDBL; feel free to change if necessary"/>
    <tag k="plan_at:acad_id" v="br15E44"/>
    <tag k="source" v="plan.at 2009"/>
    <tag k="uploaded_by" v="Wolfgang W. Wasserburger"/>
  </way>
  <way id="29603531" version="4" timestamp="2009-12-09T02:07:09Z" uid="200463" user="harmagedon" changeset="3330540">
    <nd ref="326113002"/>
    <nd ref="326113006"/>
    <tag k="addr:postcode" v="5280"/>
    <tag k="at:maxspeed" v="Ortsgebiet"/>
    <tag k="fixme" v="check import"/>
    <tag k="highway" v="residential"/>
    <tag k="is_in" v="...,Bezirk Braunau,Oberösterreich,Österreich,Europa"/>
    <tag k="name" v="Braunau"/>
    <tag k="note" v="imported from plan.at; (C)=CC-by-sa or oDBL; feel free to change if necessary"/>
    <tag k="plan_at:acad_id" v="br15E44"/>
    <tag k="source" v="plan.at 2009"/>
  </way>
  <way id="29603564" version="6" timestamp="2009-12-09T02:05:01Z" uid="200463" user="harmagedon" changeset="3330540">
    <nd ref="326113074"/>
    <nd ref="326113078"/>
    <nd ref="326113083"/>
    <nd ref="326113086"/>
    <nd ref="287128993"/>
    <nd ref="326113088"/>
    <nd ref="326113092"/>
    <nd ref="326113093"/>
    <nd ref="326113096"/>
    <nd ref="326113099"/>
    <nd ref="326113101"/>
    <nd ref="330178638"/>
    <tag k="fixme" v="check import"/>
    <tag k="is_in" v="...,Bezirk Braunau,Oberösterreich,Österreich,Europa"/>
    <tag k="name" v="Stadtbach"/>
    <tag k="note" v="imported from plan.at; (C)=CC-by-sa or oDBL; feel free to change if necessary"/>
    <tag k="plan_at:acad_id" v="br15E3A"/>
    <tag k="source" v="plan.at 2009"/>
    <tag k="waterway" v="stream"/>
  </way>
  <way id="29603567" version="4" timestamp="2009-12-09T02:10:03Z" uid="200463" user="harmagedon" changeset="3330540">
    <nd ref="326113296"/>
    <nd ref="326113300"/>
    <tag k="addr:postcode" v="5280"/>
    <tag k="at:maxspeed" v="Ortsgebiet"/>
    <tag k="highway" v="residential"/>
    <tag k="is_in" v="...,Bezirk Braunau,Oberösterreich,Österreich,Europa"/>
    <tag k="name" v="Putscherweg"/>
    <tag k="note" v="imported from plan.at; (C)=CC-by-sa or oDBL; feel free to change if necessary"/>
    <tag k="plan_at:acad_id" v="br15E34"/>
    <tag k="source" v="plan.at 2009"/>
  </way>
  <way id="29603570" version="5" timestamp="2009-12-09T02:04:31Z" uid="200463" user="harmagedon" changeset="3330540">
    <nd ref="326113308"/>
    <nd ref="326113313"/>
    <nd ref="326113316"/>
    <tag k="addr:postcode" v="5280"/>
    <tag k="at:maxspeed" v="Ortsgebiet"/>
    <tag k="highway" v="residential"/>
    <tag k="is_in" v="...,Bezirk Braunau,Oberösterreich,Österreich,Europa"/>
    <tag k="name" v="Mehlknechtstraße"/>
    <tag k="note" v="imported from plan.at; (C)=CC-by-sa or oDBL; feel free to change if necessary"/>
    <tag k="plan_at:acad_id" v="br15E30"/>
    <tag k="source" v="plan.at 2009"/>
  </way>
  <way id="29603573" version="4" timestamp="2009-12-09T02:04:31Z" uid="200463" user="harmagedon" changeset="3330540">
    <nd ref="326113328"/>
    <nd ref="326113308"/>
    <nd ref="326113331"/>
    <tag k="addr:postcode" v="5280"/>
    <tag k="at:maxspeed" v="Ortsgebiet"/>
    <tag k="highway" v="residential"/>
    <tag k="is_in" v="...,Bezirk Braunau,Oberösterreich,Österreich,Europa"/>
    <tag k="name" v="Braunau"/>
    <tag k="note" v="imported from plan.at; (C)=CC-by-sa or oDBL; feel free to change if necessary"/>
    <tag k="plan_at:acad_id" v="br15E2F"/>
    <tag k="source" v="plan.at 2009"/>
  </way>
  <way id="29603576" version="3" timestamp="2009-12-08T08:43:02Z" uid="200463" user="harmagedon" changeset="3322149">
    <nd ref="326113339"/>
    <nd ref="326113344"/>
    <nd ref="326113349"/>
    <tag k="addr:postcode" v="5280"/>
    <tag k="at:maxspeed" v="Ortsgebiet"/>
    <tag k="fixme" v="check import"/>
    <tag k="highway" v="residential"/>
    <tag k="is_in" v="...,Bezirk Braunau,Oberösterreich,Österreich,Europa"/>
    <tag k="name" v="Braunau"/>
    <tag k="note" v="imported from plan.at; (C)=CC-by-sa or oDBL; feel free to change if necessary"/>
    <tag k="plan_at:acad_id" v="br15E2D"/>
    <tag k="source" v="plan.at 2009"/>
    <tag k="uploaded_by" v="Wolfgang W. Wasserburger"/>
  </way>
  <way id="29603576" version="4" timestamp="2009-12-09T02:08:05Z" uid="200463" user="harmagedon" changeset="3330540">
    <nd ref="326113339"/>
    <nd ref="326113344"/>
    <nd ref="326113349"/>
    <tag k="addr:postcode" v="5280"/>
    <tag k="at:maxspeed" v="Ortsgebiet"/>
    <tag k="fixme" v="check import"/>
    <tag k="highway" v="residential"/>
    <tag k="is_in" v="...,Bezirk Braunau,Oberösterreich,Österreich,Europa"/>
    <tag k="name" v="Braunau"/>
    <tag k="note" v="imported from plan.at; (C)=CC-by-sa or oDBL; feel free to change if necessary"/>
    <tag k="plan_at:acad_id" v="br15E2D"/>
    <tag k="source" v="plan.at 2009"/>
  </way>
  <way id="29603579" version="3" timestamp="2009-12-08T08:40:10Z" uid="200463" user="harmagedon" changeset="3322149">
    <nd ref="326113354"/>
    <nd ref="276076679"/>
    <tag k="addr:postcode" v="5280"/>
    <tag k="at:maxspeed" v="Ortsgebiet"/>
    <tag k="fixme" v="check import; check name"/>
    <tag k="highway" v="track"/>
    <tag k="is_in" v="...,Bezirk Braunau,Oberösterreich,Österreich,Europa"/>
    <tag k="name" v="Franz-Xaver-Gruber-Weg"/>
    <tag k="note" v="imported from plan.at; (C)=CC-by-sa or oDBL; feel free to change if necessary"/>
    <tag k="plan_at:acad_id" v="br15E2B"/>
    <tag k="source" v="plan.at 2009"/>
    <tag k="uploaded_by" v="Wolfgang W. Wasserburger"/>
  </way>
  <way id="29603579" version="4" timestamp="2009-12-09T02:04:31Z" uid="200463" user="harmagedon" changeset="3330540">
    <nd ref="326113354"/>
    <nd ref="276076679"/>
    <tag k="addr:postcode" v="5280"/>
    <tag k="at:maxspeed" v="Ortsgebiet"/>
    <tag k="fixme" v="check import; check name"/>
    <tag k="highway" v="track"/>
    <tag k="is_in" v="...,Bezirk Braunau,Oberösterreich,Österreich,Europa"/>
    <tag k="name" v="Franz-Xaver-Gruber-Weg"/>
    <tag k="note" v="imported from plan.at; (C)=CC-by-sa or oDBL; feel free to change if necessary"/>
    <tag k="plan_at:acad_id" v="br15E2B"/>
    <tag k="source" v="plan.at 2009"/>
  </way>
  <way id="29603584" version="5" timestamp="2009-12-09T02:10:41Z" uid="200463" user="harmagedon" changeset="3330540">
    <nd ref="326113362"/>
    <nd ref="330178664"/>
    <nd ref="330178663"/>
    <nd ref="326113365"/>
    <nd ref="326113369"/>
    <nd ref="275017092"/>
    <tag k="addr:postcode" v="5280"/>
    <tag k="at:maxspeed" v="Ortsgebiet"/>
    <tag k="highway" v="residential"/>
    <tag k="is_in" v="...,Bezirk Braunau,Oberösterreich,Österreich,Europa"/>
    <tag k="name" v="Haselbach"/>
    <tag k="note" v="imported from plan.at; (C)=CC-by-sa or oDBL; feel free to change if necessary"/>
    <tag k="plan_at:acad_id" v="br15E23"/>
    <tag k="source" v="plan.at 2009"/>
  </way>
  <way id="29603587" version="5" timestamp="2009-12-09T02:07:32Z" uid="200463" user="harmagedon" changeset="3330540">
    <nd ref="326113391"/>
    <nd ref="326113397"/>
    <nd ref="330178640"/>
    <nd ref="334513488"/>
    <nd ref="330178641"/>
    <nd ref="326113401"/>
    <nd ref="326113403"/>
    <tag k="addr:postcode" v="5280"/>
    <tag k="at:maxspeed" v="Ortsgebiet"/>
    <tag k="highway" v="residential"/>
    <tag k="is_in" v="...,Bezirk Braunau,Oberösterreich,Österreich,Europa"/>
    <tag k="name" v="Friedensstraße"/>
    <tag k="note" v="imported from plan.at; (C)=CC-by-sa or oDBL; feel free to change if necessary"/>
    <tag k="plan_at:acad_id" v="br15E21"/>
    <tag k="source" v="plan.at 2009"/>
  </way>
  <way id="29603589" version="3" timestamp="2009-12-08T08:43:00Z" uid="200463" user="harmagedon" changeset="3322149">
    <nd ref="326113412"/>
    <nd ref="326113416"/>
    <tag k="addr:postcode" v="5280"/>
    <tag k="at:maxspeed" v="Ortsgebiet"/>
    <tag k="fixme" v="check import"/>
    <tag k="highway" v="residential"/>
    <tag k="is_in" v="...,Bezirk Braunau,Oberösterreich,Österreich,Europa"/>
    <tag k="name" v="Braunau"/>
    <tag k="note" v="imported from plan.at; (C)=CC-by-sa or oDBL; feel free to change if necessary"/>
    <tag k="plan_at:acad_id" v="br15E1F"/>
    <tag k="source" v="plan.at 2009"/>
    <tag k="uploaded_by" v="Wolfgang W. Wasserburger"/>
  </way>
  <way id="29603589" version="4" timestamp="2009-12-09T02:08:03Z" uid="200463" user="harmagedon" changeset="3330540">
    <nd ref="326113412"/>
    <nd ref="326113416"/>
    <tag k="addr:postcode" v="5280"/>
    <tag k="at:maxspeed" v="Ortsgebiet"/>
    <tag k="fixme" v="check import"/>
    <tag k="highway" v="residential"/>
    <tag k="is_in" v="...,Bezirk Braunau,Oberösterreich,Österreich,Europa"/>
    <tag k="name" v="Braunau"/>
    <tag k="note" v="imported from plan.at; (C)=CC-by-sa or oDBL; feel free to change if necessary"/>
    <tag k="plan_at:acad_id" v="br15E1F"/>
    <tag k="source" v="plan.at 2009"/>
  </way>
  <way id="29603595" version="3" timestamp="2009-12-08T08:43:01Z" uid="200463" user="harmagedon" changeset="3322149">
    <nd ref="326110553"/>
    <nd ref="326113431"/>
    <nd ref="326113438"/>
    <nd ref="326113416"/>
    <nd ref="326113446"/>
    <nd ref="326113448"/>
    <nd ref="326113449"/>
    <nd ref="326113454"/>
    <nd ref="326113458"/>
    <tag k="addr:postcode" v="5280"/>
    <tag k="at:maxspeed" v="Ortsgebiet"/>
    <tag k="fixme" v="check import"/>
    <tag k="highway" v="residential"/>
    <tag k="is_in" v="...,Bezirk Braunau,Oberösterreich,Österreich,Europa"/>
    <tag k="name" v="Maierhof"/>
    <tag k="note" v="imported from plan.at; (C)=CC-by-sa or oDBL; feel free to change if necessary"/>
    <tag k="plan_at:acad_id" v="br15E1E"/>
    <tag k="source" v="plan.at 2009"/>
    <tag k="uploaded_by" v="Wolfgang W. Wasserburger"/>
  </way>
  <way id="29603595" version="4" timestamp="2009-12-09T02:08:03Z" uid="200463" user="harmagedon" changeset="3330540">
    <nd ref="326110553"/>
    <nd ref="326113431"/>
    <nd ref="326113438"/>
    <nd ref="326113416"/>
    <nd ref="326113446"/>
    <nd ref="326113448"/>
    <nd ref="326113449"/>
    <nd ref="326113454"/>
    <nd ref="326113458"/>
    <tag k="addr:postcode" v="5280"/>
    <tag k="at:maxspeed" v="Ortsgebiet"/>
    <tag k="fixme" v="check import"/>
    <tag k="highway" v="residential"/>
    <tag k="is_in" v="...,Bezirk Braunau,Oberösterreich,Österreich,Europa"/>
    <tag k="name" v="Maierhof"/>
    <tag k="note" v="imported from plan.at; (C)=CC-by-sa or oDBL; feel free to change if necessary"/>
    <tag k="plan_at:acad_id" v="br15E1E"/>
    <tag k="source" v="plan.at 2009"/>
  </way>
  <way id="29603597" version="3" timestamp="2009-12-08T08:43:01Z" uid="200463" user="harmagedon" changeset="3322149">
    <nd ref="326113467"/>
    <nd ref="326113471"/>
    <nd ref="326113473"/>
    <nd ref="326113476"/>
    <tag k="addr:postcode" v="5280"/>
    <tag k="at:maxspeed" v="Ortsgebiet"/>
    <tag k="fixme" v="check import"/>
    <tag k="highway" v="residential"/>
    <tag k="is_in" v="...,Bezirk Braunau,Oberösterreich,Österreich,Europa"/>
    <tag k="name" v="Braunau"/>
    <tag k="note" v="imported from plan.at; (C)=CC-by-sa or oDBL; feel free to change if necessary"/>
    <tag k="plan_at:acad_id" v="br15E1D"/>
    <tag k="source" v="plan.at 2009"/>
    <tag k="uploaded_by" v="Wolfgang W. Wasserburger"/>
  </way>
  <way id="29603597" version="4" timestamp="2009-12-09T02:08:04Z" uid="200463" user="harmagedon" changeset="3330540">
    <nd ref="326113467"/>
    <nd ref="326113471"/>
    <nd ref="326113473"/>
    <nd ref="326113476"/>
    <tag k="addr:postcode" v="5280"/>
    <tag k="at:maxspeed" v="Ortsgebiet"/>
    <tag k="fixme" v="check import"/>
    <tag k="highway" v="residential"/>
    <tag k="is_in" v="...,Bezirk Braunau,Oberösterreich,Österreich,Europa"/>
    <tag k="name" v="Braunau"/>
    <tag k="note" v="imported from plan.at; (C)=CC-by-sa or oDBL; feel free to change if necessary"/>
    <tag k="plan_at:acad_id" v="br15E1D"/>
    <tag k="source" v="plan.at 2009"/>
  </way>
  <way id="29603599" version="3" timestamp="2009-12-08T08:42:59Z" uid="200463" user="harmagedon" changeset="3322149">
    <nd ref="326113484"/>
    <nd ref="326113488"/>
    <tag k="addr:postcode" v="5280"/>
    <tag k="at:maxspeed" v="Ortsgebiet"/>
    <tag k="fixme" v="check import"/>
    <tag k="highway" v="residential"/>
    <tag k="is_in" v="...,Bezirk Braunau,Oberösterreich,Österreich,Europa"/>
    <tag k="name" v="Braunau"/>
    <tag k="note" v="imported from plan.at; (C)=CC-by-sa or oDBL; feel free to change if necessary"/>
    <tag k="plan_at:acad_id" v="br15E1C"/>
    <tag k="source" v="plan.at 2009"/>
    <tag k="uploaded_by" v="Wolfgang W. Wasserburger"/>
  </way>
  <way id="29603599" version="4" timestamp="2009-12-09T02:08:02Z" uid="200463" user="harmagedon" changeset="3330540">
    <nd ref="326113484"/>
    <nd ref="326113488"/>
    <tag k="addr:postcode" v="5280"/>
    <tag k="at:maxspeed" v="Ortsgebiet"/>
    <tag k="fixme" v="check import"/>
    <tag k="highway" v="residential"/>
    <tag k="is_in" v="...,Bezirk Braunau,Oberösterreich,Österreich,Europa"/>
    <tag k="name" v="Braunau"/>
    <tag k="note" v="imported from plan.at; (C)=CC-by-sa or oDBL; feel free to change if necessary"/>
    <tag k="plan_at:acad_id" v="br15E1C"/>
    <tag k="source" v="plan.at 2009"/>
  </way>
  <way id="29603609" version="5" timestamp="2009-12-08T08:42:38Z" uid="200463" user="harmagedon" changeset="3322149">
    <nd ref="326113511"/>
    <nd ref="326113512"/>
    <tag k="addr:postcode" v="5280"/>
    <tag k="highway" v="residential"/>
    <tag k="is_in" v="...,Bezirk Braunau,Oberösterreich,Österreich,Europa"/>
    <tag k="name" v="Friedrich-Seitz-Straße"/>
    <tag k="source" v="GPS"/>
  </way>
  <way id="29603620" version="4" timestamp="2009-12-09T02:10:05Z" uid="200463" user="harmagedon" changeset="3330540">
    <nd ref="326113559"/>
    <nd ref="326113566"/>
    <tag k="addr:postcode" v="5280"/>
    <tag k="at:maxspeed" v="Ortsgebiet"/>
    <tag k="highway" v="residential"/>
    <tag k="is_in" v="...,Bezirk Braunau,Oberösterreich,Österreich,Europa"/>
    <tag k="name" v="Auf der Wiese"/>
    <tag k="note" v="imported from plan.at; (C)=CC-by-sa or oDBL; feel free to change if necessary"/>
    <tag k="plan_at:acad_id" v="br15E13"/>
    <tag k="source" v="plan.at 2009"/>
  </way>
  <way id="29603624" version="5" timestamp="2009-12-09T02:08:14Z" uid="200463" user="harmagedon" changeset="3330540">
    <nd ref="326113572"/>
    <nd ref="326113576"/>
    <nd ref="326113566"/>
    <nd ref="245920326"/>
    <nd ref="245920327"/>
    <nd ref="326113590"/>
    <nd ref="330185949"/>
    <nd ref="326113593"/>
    <nd ref="245920331"/>
    <nd ref="330185951"/>
    <nd ref="326113597"/>
    <nd ref="330185952"/>
    <nd ref="326113599"/>
    <nd ref="326113602"/>
    <nd ref="326110561"/>
    <nd ref="265792893"/>
    <tag k="addr:postcode" v="5280"/>
    <tag k="at:maxspeed" v="Ortsgebiet"/>
    <tag k="highway" v="residential"/>
    <tag k="is_in" v="...,Bezirk Braunau,Oberösterreich,Österreich,Europa"/>
    <tag k="name" v="Aventinstraße"/>
    <tag k="note" v="imported from plan.at; (C)=CC-by-sa or oDBL; feel free to change if necessary"/>
    <tag k="plan_at:acad_id" v="br15E12"/>
    <tag k="source" v="plan.at 2009"/>
  </way>
  <way id="29603626" version="4" timestamp="2009-12-09T02:10:44Z" uid="200463" user="harmagedon" changeset="3330540">
    <nd ref="326113609"/>
    <nd ref="326113614"/>
    <tag k="addr:postcode" v="5280"/>
    <tag k="at:maxspeed" v="Ortsgebiet"/>
    <tag k="highway" v="residential"/>
    <tag k="is_in" v="...,Bezirk Braunau,Oberösterreich,Österreich,Europa"/>
    <tag k="name" v="Rainerstraße"/>
    <tag k="note" v="imported from plan.at; (C)=CC-by-sa or oDBL; feel free to change if necessary"/>
    <tag k="plan_at:acad_id" v="br15E11"/>
    <tag k="source" v="plan.at 2009"/>
  </way>
  <way id="29603628" version="6" timestamp="2009-12-09T02:10:08Z" uid="200463" user="harmagedon" changeset="3330540">
    <nd ref="326113620"/>
    <nd ref="326113622"/>
    <nd ref="326113625"/>
    <nd ref="329999341"/>
    <nd ref="326113628"/>
    <nd ref="326113620"/>
    <tag k="addr:postcode" v="5280"/>
    <tag k="building" v="yes"/>
    <tag k="fixme" v="check import"/>
    <tag k="is_in" v="...,Bezirk Braunau,Oberösterreich,Österreich,Europa"/>
    <tag k="name" v="ehem. Postamt"/>
    <tag k="note" v="imported from plan.at; (C)=CC-by-sa or oDBL; feel free to change if necessary"/>
    <tag k="plan_at:acad_id" v="br15E0E"/>
    <tag k="source" v="plan.at 2009"/>
  </way>
  <way id="29603631" version="5" timestamp="2009-12-09T02:10:08Z" uid="200463" user="harmagedon" changeset="3330540">
    <nd ref="326113634"/>
    <nd ref="326113636"/>
    <nd ref="326113638"/>
    <nd ref="326113642"/>
    <nd ref="326113645"/>
    <nd ref="326113649"/>
    <nd ref="326113634"/>
    <tag k="addr:postcode" v="5280"/>
    <tag k="fixme" v="check import"/>
    <tag k="is_in" v="...,Bezirk Braunau,Oberösterreich,Österreich,Europa"/>
    <tag k="landuse" v="railway"/>
    <tag k="name" v="Bahnhof   Braunau"/>
    <tag k="note" v="imported from plan.at; (C)=CC-by-sa or oDBL; feel free to change if necessary"/>
    <tag k="plan_at:acad_id" v="br15E0B"/>
    <tag k="source" v="plan.at 2009"/>
  </way>
  <way id="29603634" version="4" timestamp="2009-12-09T02:10:16Z" uid="200463" user="harmagedon" changeset="3330540">
    <nd ref="326113652"/>
    <nd ref="326113654"/>
    <tag k="addr:postcode" v="5280"/>
    <tag k="at:maxspeed" v="Ortsgebiet"/>
    <tag k="fixme" v="check import"/>
    <tag k="highway" v="residential"/>
    <tag k="is_in" v="...,Bezirk Braunau,Oberösterreich,Österreich,Europa"/>
    <tag k="name" v="Braunau"/>
    <tag k="note" v="imported from plan.at; (C)=CC-by-sa or oDBL; feel free to change if necessary"/>
    <tag k="plan_at:acad_id" v="br15E08"/>
    <tag k="source" v="plan.at 2009"/>
  </way>
  <way id="29603645" version="4" timestamp="2009-12-09T02:11:07Z" uid="200463" user="harmagedon" changeset="3330540">
    <nd ref="326113697"/>
    <nd ref="326113700"/>
    <tag k="addr:postcode" v="5280"/>
    <tag k="at:maxspeed" v="Ortsgebiet"/>
    <tag k="highway" v="service"/>
    <tag k="is_in" v="...,Bezirk Braunau,Oberösterreich,Österreich,Europa"/>
    <tag k="name" v="Braunau"/>
    <tag k="note" v="imported from plan.at; (C)=CC-by-sa or oDBL; feel free to change if necessary"/>
    <tag k="plan_at:acad_id" v="br15E02"/>
    <tag k="source" v="plan.at 2009"/>
  </way>
  <way id="29603648" version="4" timestamp="2009-12-09T02:10:54Z" uid="200463" user="harmagedon" changeset="3330540">
    <nd ref="326113710"/>
    <nd ref="326113712"/>
    <nd ref="270909796"/>
    <tag k="addr:postcode" v="5280"/>
    <tag k="at:maxspeed" v="Ortsgebiet"/>
    <tag k="highway" v="residential"/>
    <tag k="is_in" v="...,Bezirk Braunau,Oberösterreich,Österreich,Europa"/>
    <tag k="name" v="Südtirolerstraße"/>
    <tag k="note" v="imported from plan.at; (C)=CC-by-sa or oDBL; feel free to change if necessary"/>
    <tag k="plan_at:acad_id" v="br15E01"/>
    <tag k="source" v="plan.at 2009"/>
  </way>
  <way id="29603657" version="4" timestamp="2009-12-09T02:10:48Z" uid="200463" user="harmagedon" changeset="3330540">
    <nd ref="326113744"/>
    <nd ref="326113731"/>
    <tag k="addr:postcode" v="5280"/>
    <tag k="at:maxspeed" v="Ortsgebiet"/>
    <tag k="highway" v="residential"/>
    <tag k="is_in" v="...,Bezirk Braunau,Oberösterreich,Österreich,Europa"/>
    <tag k="name" v="Karl-Höld-Straße"/>
    <tag k="note" v="imported from plan.at; (C)=CC-by-sa or oDBL; feel free to change if necessary"/>
    <tag k="plan_at:acad_id" v="br15DFF"/>
    <tag k="source" v="plan.at 2009"/>
  </way>
  <way id="29603661" version="4" timestamp="2009-12-08T08:43:58Z" uid="200463" user="harmagedon" changeset="3322149">
    <nd ref="326113757"/>
    <nd ref="330185962"/>
    <nd ref="330185961"/>
    <nd ref="335598334"/>
    <nd ref="270908884"/>
    <tag k="addr:postcode" v="5280"/>
    <tag k="at:maxspeed" v="Ortsgebiet"/>
    <tag k="highway" v="residential"/>
    <tag k="is_in" v="...,Bezirk Braunau,Oberösterreich,Österreich,Europa"/>
    <tag k="name" v="Finstererstraße"/>
    <tag k="note" v="imported from plan.at; (C)=CC-by-sa or oDBL; feel free to change if necessary"/>
    <tag k="plan_at:acad_id" v="br15DFE"/>
    <tag k="source" v="plan.at 2009"/>
    <tag k="uploaded_by" v="Wolfgang W. Wasserburger"/>
  </way>
  <way id="29603661" version="5" timestamp="2009-12-09T02:11:04Z" uid="200463" user="harmagedon" changeset="3330540">
    <nd ref="326113757"/>
    <nd ref="330185962"/>
    <nd ref="330185961"/>
    <nd ref="335598334"/>
    <nd ref="270908884"/>
    <tag k="addr:postcode" v="5280"/>
    <tag k="at:maxspeed" v="Ortsgebiet"/>
    <tag k="highway" v="residential"/>
    <tag k="is_in" v="...,Bezirk Braunau,Oberösterreich,Österreich,Europa"/>
    <tag k="name" v="Finstererstraße"/>
    <tag k="note" v="imported from plan.at; (C)=CC-by-sa or oDBL; feel free to change if necessary"/>
    <tag k="plan_at:acad_id" v="br15DFE"/>
    <tag k="source" v="plan.at 2009"/>
  </way>
  <way id="29603663" version="4" timestamp="2009-12-08T08:43:47Z" uid="200463" user="harmagedon" changeset="3322149">
    <nd ref="326113766"/>
    <nd ref="270908882"/>
    <nd ref="330185959"/>
    <nd ref="270908884"/>
    <tag k="addr:postcode" v="5280"/>
    <tag k="at:maxspeed" v="Ortsgebiet"/>
    <tag k="highway" v="residential"/>
    <tag k="is_in" v="...,Bezirk Braunau,Oberösterreich,Österreich,Europa"/>
    <tag k="name" v="Braunau"/>
    <tag k="note" v="imported from plan.at; (C)=CC-by-sa or oDBL; feel free to change if necessary"/>
    <tag k="plan_at:acad_id" v="br15DFD"/>
    <tag k="source" v="plan.at 2009"/>
    <tag k="uploaded_by" v="Wolfgang W. Wasserburger"/>
  </way>
  <way id="29603663" version="5" timestamp="2009-12-09T02:10:30Z" uid="200463" user="harmagedon" changeset="3330540">
    <nd ref="326113766"/>
    <nd ref="270908882"/>
    <nd ref="330185959"/>
    <nd ref="270908884"/>
    <tag k="addr:postcode" v="5280"/>
    <tag k="at:maxspeed" v="Ortsgebiet"/>
    <tag k="highway" v="residential"/>
    <tag k="is_in" v="...,Bezirk Braunau,Oberösterreich,Österreich,Europa"/>
    <tag k="name" v="Braunau"/>
    <tag k="note" v="imported from plan.at; (C)=CC-by-sa or oDBL; feel free to change if necessary"/>
    <tag k="plan_at:acad_id" v="br15DFD"/>
    <tag k="source" v="plan.at 2009"/>
  </way>
  <way id="29603677" version="3" timestamp="2009-12-08T08:43:44Z" uid="200463" user="harmagedon" changeset="3322149">
    <nd ref="326113812"/>
    <nd ref="326113817"/>
    <nd ref="326113819"/>
    <tag k="addr:postcode" v="5280"/>
    <tag k="at:maxspeed" v="Ortsgebiet"/>
    <tag k="fixme" v="check import"/>
    <tag k="highway" v="unclassified"/>
    <tag k="is_in" v="...,Bezirk Braunau,Oberösterreich,Österreich,Europa"/>
    <tag k="name" v="Kleingärten"/>
    <tag k="note" v="imported from plan.at; (C)=CC-by-sa or oDBL; feel free to change if necessary"/>
    <tag k="plan_at:acad_id" v="br15DFB"/>
    <tag k="source" v="plan.at 2009"/>
    <tag k="uploaded_by" v="Wolfgang W. Wasserburger"/>
  </way>
  <way id="29603677" version="4" timestamp="2009-12-09T02:10:24Z" uid="200463" user="harmagedon" changeset="3330540">
    <nd ref="326113812"/>
    <nd ref="326113817"/>
    <nd ref="326113819"/>
    <tag k="addr:postcode" v="5280"/>
    <tag k="at:maxspeed" v="Ortsgebiet"/>
    <tag k="fixme" v="check import"/>
    <tag k="highway" v="unclassified"/>
    <tag k="is_in" v="...,Bezirk Braunau,Oberösterreich,Österreich,Europa"/>
    <tag k="name" v="Kleingärten"/>
    <tag k="note" v="imported from plan.at; (C)=CC-by-sa or oDBL; feel free to change if necessary"/>
    <tag k="plan_at:acad_id" v="br15DFB"/>
    <tag k="source" v="plan.at 2009"/>
  </way>
  <way id="29603679" version="3" timestamp="2009-12-08T08:44:01Z" uid="200463" user="harmagedon" changeset="3322149">
    <nd ref="326113776"/>
    <nd ref="326113812"/>
    <tag k="addr:postcode" v="5280"/>
    <tag k="at:maxspeed" v="Ortsgebiet"/>
    <tag k="fixme" v="check import"/>
    <tag k="highway" v="unclassified"/>
    <tag k="is_in" v="...,Bezirk Braunau,Oberösterreich,Österreich,Europa"/>
    <tag k="name" v="Kleingärten"/>
    <tag k="note" v="imported from plan.at; (C)=CC-by-sa or oDBL; feel free to change if necessary"/>
    <tag k="plan_at:acad_id" v="br15DFA"/>
    <tag k="source" v="plan.at 2009"/>
    <tag k="uploaded_by" v="Wolfgang W. Wasserburger"/>
  </way>
  <way id="29603679" version="4" timestamp="2009-12-09T02:11:09Z" uid="200463" user="harmagedon" changeset="3330540">
    <nd ref="326113776"/>
    <nd ref="326113812"/>
    <tag k="addr:postcode" v="5280"/>
    <tag k="at:maxspeed" v="Ortsgebiet"/>
    <tag k="fixme" v="check import"/>
    <tag k="highway" v="unclassified"/>
    <tag k="is_in" v="...,Bezirk Braunau,Oberösterreich,Österreich,Europa"/>
    <tag k="name" v="Kleingärten"/>
    <tag k="note" v="imported from plan.at; (C)=CC-by-sa or oDBL; feel free to change if necessary"/>
    <tag k="plan_at:acad_id" v="br15DFA"/>
    <tag k="source" v="plan.at 2009"/>
  </way>
  <way id="29603681" version="3" timestamp="2009-12-08T08:44:02Z" uid="200463" user="harmagedon" changeset="3322149">
    <nd ref="326113850"/>
    <nd ref="326113853"/>
    <nd ref="326113812"/>
    <tag k="addr:postcode" v="5280"/>
    <tag k="at:maxspeed" v="Ortsgebiet"/>
    <tag k="fixme" v="check import"/>
    <tag k="highway" v="unclassified"/>
    <tag k="is_in" v="...,Bezirk Braunau,Oberösterreich,Österreich,Europa"/>
    <tag k="name" v="Kleingärten"/>
    <tag k="note" v="imported from plan.at; (C)=CC-by-sa or oDBL; feel free to change if necessary"/>
    <tag k="plan_at:acad_id" v="br15DF9"/>
    <tag k="source" v="plan.at 2009"/>
    <tag k="uploaded_by" v="Wolfgang W. Wasserburger"/>
  </way>
  <way id="29603681" version="4" timestamp="2009-12-09T02:11:10Z" uid="200463" user="harmagedon" changeset="3330540">
    <nd ref="326113850"/>
    <nd ref="326113853"/>
    <nd ref="326113812"/>
    <tag k="addr:postcode" v="5280"/>
    <tag k="at:maxspeed" v="Ortsgebiet"/>
    <tag k="fixme" v="check import"/>
    <tag k="highway" v="unclassified"/>
    <tag k="is_in" v="...,Bezirk Braunau,Oberösterreich,Österreich,Europa"/>
    <tag k="name" v="Kleingärten"/>
    <tag k="note" v="imported from plan.at; (C)=CC-by-sa or oDBL; feel free to change if necessary"/>
    <tag k="plan_at:acad_id" v="br15DF9"/>
    <tag k="source" v="plan.at 2009"/>
  </way>
  <way id="29603686" version="3" timestamp="2009-12-08T08:44:02Z" uid="200463" user="harmagedon" changeset="3322149">
    <nd ref="319149236"/>
    <nd ref="326113860"/>
    <nd ref="326113863"/>
    <nd ref="326113866"/>
    <nd ref="361636832"/>
    <tag k="fixme" v="check import"/>
    <tag k="highway" v="track"/>
    <tag k="is_in" v="...,Bezirk Braunau,Oberösterreich,Österreich,Europa"/>
    <tag k="note" v="imported from plan.at; (C)=CC-by-sa or oDBL; feel free to change if necessary"/>
    <tag k="plan_at:acad_id" v="br15DF7"/>
    <tag k="source" v="plan.at 2009"/>
    <tag k="uploaded_by" v="Wolfgang W. Wasserburger"/>
  </way>
  <way id="29603686" version="4" timestamp="2009-12-09T02:11:09Z" uid="200463" user="harmagedon" changeset="3330540">
    <nd ref="319149236"/>
    <nd ref="326113860"/>
    <nd ref="326113863"/>
    <nd ref="326113866"/>
    <nd ref="361636832"/>
    <tag k="fixme" v="check import"/>
    <tag k="highway" v="track"/>
    <tag k="is_in" v="...,Bezirk Braunau,Oberösterreich,Österreich,Europa"/>
    <tag k="note" v="imported from plan.at; (C)=CC-by-sa or oDBL; feel free to change if necessary"/>
    <tag k="plan_at:acad_id" v="br15DF7"/>
    <tag k="source" v="plan.at 2009"/>
  </way>
  <way id="29603690" version="3" timestamp="2009-12-08T08:43:50Z" uid="200463" user="harmagedon" changeset="3322149">
    <nd ref="326113877"/>
    <nd ref="326113889"/>
    <nd ref="326113894"/>
    <tag k="addr:postcode" v="5280"/>
    <tag k="at:maxspeed" v="Ortsgebiet"/>
    <tag k="fixme" v="check import"/>
    <tag k="highway" v="residential"/>
    <tag k="is_in" v="...,Bezirk Braunau,Oberösterreich,Österreich,Europa"/>
    <tag k="name" v="Braunau"/>
    <tag k="note" v="imported from plan.at; (C)=CC-by-sa or oDBL; feel free to change if necessary"/>
    <tag k="plan_at:acad_id" v="br15DF4"/>
    <tag k="source" v="plan.at 2009"/>
    <tag k="uploaded_by" v="Wolfgang W. Wasserburger"/>
  </way>
  <way id="29603690" version="4" timestamp="2009-12-09T02:10:59Z" uid="200463" user="harmagedon" changeset="3330540">
    <nd ref="326113877"/>
    <nd ref="326113889"/>
    <nd ref="326113894"/>
    <tag k="addr:postcode" v="5280"/>
    <tag k="at:maxspeed" v="Ortsgebiet"/>
    <tag k="fixme" v="check import"/>
    <tag k="highway" v="residential"/>
    <tag k="is_in" v="...,Bezirk Braunau,Oberösterreich,Österreich,Europa"/>
    <tag k="name" v="Braunau"/>
    <tag k="note" v="imported from plan.at; (C)=CC-by-sa or oDBL; feel free to change if necessary"/>
    <tag k="plan_at:acad_id" v="br15DF4"/>
    <tag k="source" v="plan.at 2009"/>
  </way>
  <way id="29603693" version="5" timestamp="2009-12-09T02:10:38Z" uid="200463" user="harmagedon" changeset="3330540">
    <nd ref="326113906"/>
    <nd ref="326113911"/>
    <nd ref="326113914"/>
    <tag k="addr:postcode" v="5280"/>
    <tag k="at:maxspeed" v="Ortsgebiet"/>
    <tag k="highway" v="residential"/>
    <tag k="is_in" v="...,Bezirk Braunau,Oberösterreich,Österreich,Europa"/>
    <tag k="name" v="Rainerstraße"/>
    <tag k="note" v="imported from plan.at; (C)=CC-by-sa or oDBL; feel free to change if necessary"/>
    <tag k="plan_at:acad_id" v="br15DF3"/>
    <tag k="source" v="plan.at 2009"/>
  </way>
  <way id="29603700" version="4" timestamp="2009-12-09T02:06:57Z" uid="200463" user="harmagedon" changeset="3330540">
    <nd ref="326113941"/>
    <nd ref="326113946"/>
    <nd ref="326113950"/>
    <nd ref="326113952"/>
    <nd ref="326113956"/>
    <nd ref="326113941"/>
    <tag k="addr:postcode" v="5280"/>
    <tag k="fixme" v="check import"/>
    <tag k="is_in" v="...,Bezirk Braunau,Oberösterreich,Österreich,Europa"/>
    <tag k="leisure" v="stadium"/>
    <tag k="name" v="Grenzlandstadion"/>
    <tag k="note" v="imported from plan.at; (C)=CC-by-sa or oDBL; feel free to change if necessary"/>
    <tag k="plan_at:acad_id" v="br15DF0"/>
    <tag k="source" v="plan.at 2009"/>
  </way>
  <way id="29603705" version="5" timestamp="2009-12-09T02:05:33Z" uid="200463" user="harmagedon" changeset="3330540">
    <nd ref="326113968"/>
    <nd ref="326113971"/>
    <nd ref="326113974"/>
    <nd ref="326113977"/>
    <nd ref="326113980"/>
    <nd ref="326113982"/>
    <nd ref="326113986"/>
    <nd ref="326113989"/>
    <nd ref="326113992"/>
    <nd ref="326113968"/>
    <tag k="addr:postcode" v="5280"/>
    <tag k="amenity" v="grave_yard"/>
    <tag k="fixme" v="check import"/>
    <tag k="is_in" v="...,Bezirk Braunau,Oberösterreich,Österreich,Europa"/>
    <tag k="landuse" v="cemetery"/>
    <tag k="name" v="Friedhof"/>
    <tag k="note" v="imported from plan.at; (C)=CC-by-sa or oDBL; feel free to change if necessary"/>
    <tag k="plan_at:acad_id" v="br15DE1"/>
    <tag k="source" v="plan.at 2009"/>
  </way>
  <way id="29603711" version="4" timestamp="2009-12-09T02:05:33Z" uid="200463" user="harmagedon" changeset="3330540">
    <nd ref="326114001"/>
    <nd ref="326114004"/>
    <nd ref="326114006"/>
    <nd ref="326114010"/>
    <nd ref="326114013"/>
    <nd ref="326114017"/>
    <nd ref="326114022"/>
    <nd ref="326114024"/>
    <nd ref="326114027"/>
    <nd ref="326114032"/>
    <nd ref="326114038"/>
    <nd ref="326114044"/>
    <nd ref="326114051"/>
    <nd ref="331791300"/>
    <tag k="addr:postcode" v="5280"/>
    <tag k="at:maxspeed" v="Ortsgebiet"/>
    <tag k="fixme" v="check import"/>
    <tag k="highway" v="residential"/>
    <tag k="is_in" v="...,Bezirk Braunau,Oberösterreich,Österreich,Europa"/>
    <tag k="name" v="Nizefeldweg"/>
    <tag k="note" v="imported from plan.at; (C)=CC-by-sa or oDBL; feel free to change if necessary"/>
    <tag k="plan_at:acad_id" v="br15DE0"/>
    <tag k="source" v="plan.at 2009"/>
  </way>
  <way id="29603718" version="6" timestamp="2009-12-09T02:09:41Z" uid="200463" user="harmagedon" changeset="3330540">
    <nd ref="326114073"/>
    <nd ref="326114077"/>
    <nd ref="326114080"/>
    <nd ref="326114088"/>
    <nd ref="326114092"/>
    <nd ref="326114095"/>
    <nd ref="326114099"/>
    <nd ref="326114102"/>
    <nd ref="326114104"/>
    <nd ref="326114106"/>
    <nd ref="326114109"/>
    <nd ref="326114112"/>
    <nd ref="326114114"/>
    <nd ref="326114115"/>
    <nd ref="326114116"/>
    <nd ref="326114073"/>
    <tag k="addr:postcode" v="5280"/>
    <tag k="fixme" v="check import"/>
    <tag k="is_in" v="...,Bezirk Braunau,Oberösterreich,Österreich,Europa"/>
    <tag k="leisure" v="park"/>
    <tag k="name" v="Palmpark"/>
    <tag k="note" v="imported from plan.at; (C)=CC-by-sa or oDBL; feel free to change if necessary"/>
    <tag k="plan_at:acad_id" v="br15DDE"/>
    <tag k="source" v="plan.at 2009"/>
  </way>
  <way id="29603720" version="4" timestamp="2009-12-09T02:08:40Z" uid="200463" user="harmagedon" changeset="3330540">
    <nd ref="326111304"/>
    <nd ref="326114124"/>
    <nd ref="326111323"/>
    <tag k="addr:postcode" v="5280"/>
    <tag k="at:maxspeed" v="Ortsgebiet"/>
    <tag k="fixme" v="check import"/>
    <tag k="highway" v="residential"/>
    <tag k="is_in" v="...,Bezirk Braunau,Oberösterreich,Österreich,Europa"/>
    <tag k="name" v="Palmplatz"/>
    <tag k="note" v="imported from plan.at; (C)=CC-by-sa or oDBL; feel free to change if necessary"/>
    <tag k="plan_at:acad_id" v="br15DDD"/>
    <tag k="source" v="plan.at 2009"/>
  </way>
  <way id="29603725" version="5" timestamp="2009-12-09T02:06:42Z" uid="200463" user="harmagedon" changeset="3330540">
    <nd ref="326114149"/>
    <nd ref="326114143"/>
    <nd ref="494131959"/>
    <nd ref="326114138"/>
    <nd ref="326114135"/>
    <nd ref="326114132"/>
    <tag k="addr:postcode" v="5280"/>
    <tag k="at:maxspeed" v="Ortsgebiet"/>
    <tag k="fixme" v="check import"/>
    <tag k="highway" v="trunk"/>
    <tag k="is_in" v="...,Bezirk Braunau,Oberösterreich,Österreich,Europa"/>
    <tag k="name" v="Neue Innbrückenstraße"/>
    <tag k="note" v="imported from plan.at; (C)=CC-by-sa or oDBL; feel free to change if necessary"/>
    <tag k="oneway" v="yes"/>
    <tag k="plan_at:acad_id" v="br15DD7"/>
    <tag k="ref" v="B 148"/>
    <tag k="source" v="plan.at 2009"/>
  </way>
  <way id="29603738" version="3" timestamp="2009-12-08T08:42:31Z" uid="200463" user="harmagedon" changeset="3322149">
    <nd ref="326114237"/>
    <nd ref="326114240"/>
    <nd ref="326114242"/>
    <nd ref="326114246"/>
    <nd ref="326114250"/>
    <tag k="addr:postcode" v="5280"/>
    <tag k="at:maxspeed" v="Ortsgebiet"/>
    <tag k="fixme" v="check import"/>
    <tag k="highway" v="residential"/>
    <tag k="is_in" v="...,Bezirk Braunau,Oberösterreich,Österreich,Europa"/>
    <tag k="name" v="Braunau"/>
    <tag k="note" v="imported from plan.at; (C)=CC-by-sa or oDBL; feel free to change if necessary"/>
    <tag k="plan_at:acad_id" v="br15DCA"/>
    <tag k="source" v="plan.at 2009"/>
    <tag k="uploaded_by" v="Wolfgang W. Wasserburger"/>
  </way>
  <way id="29603738" version="4" timestamp="2009-12-09T02:07:20Z" uid="200463" user="harmagedon" changeset="3330540">
    <nd ref="326114237"/>
    <nd ref="326114240"/>
    <nd ref="326114242"/>
    <nd ref="326114246"/>
    <nd ref="326114250"/>
    <tag k="addr:postcode" v="5280"/>
    <tag k="at:maxspeed" v="Ortsgebiet"/>
    <tag k="fixme" v="check import"/>
    <tag k="highway" v="residential"/>
    <tag k="is_in" v="...,Bezirk Braunau,Oberösterreich,Österreich,Europa"/>
    <tag k="name" v="Braunau"/>
    <tag k="note" v="imported from plan.at; (C)=CC-by-sa or oDBL; feel free to change if necessary"/>
    <tag k="plan_at:acad_id" v="br15DCA"/>
    <tag k="source" v="plan.at 2009"/>
  </way>
  <way id="29603745" version="4" timestamp="2009-12-09T02:05:43Z" uid="200463" user="harmagedon" changeset="3330540">
    <nd ref="326114307"/>
    <nd ref="326114311"/>
    <nd ref="326101802"/>
    <tag k="fixme" v="check import"/>
    <tag k="is_in" v="...,Bezirk Braunau,Oberösterreich,Österreich,Europa"/>
    <tag k="name" v="Bach"/>
    <tag k="note" v="imported from plan.at; (C)=CC-by-sa or oDBL; feel free to change if necessary"/>
    <tag k="plan_at:acad_id" v="br15DBD"/>
    <tag k="source" v="plan.at 2009"/>
    <tag k="waterway" v="stream"/>
  </way>
  <way id="29603750" version="4" timestamp="2009-12-09T02:06:46Z" uid="200463" user="harmagedon" changeset="3330540">
    <nd ref="326114323"/>
    <nd ref="326114327"/>
    <nd ref="326114333"/>
    <nd ref="326114336"/>
    <nd ref="326114339"/>
    <nd ref="326101895"/>
    <tag k="fixme" v="check import"/>
    <tag k="is_in" v="...,Bezirk Braunau,Oberösterreich,Österreich,Europa"/>
    <tag k="name" v="Enknach"/>
    <tag k="note" v="imported from plan.at; (C)=CC-by-sa or oDBL; feel free to change if necessary"/>
    <tag k="plan_at:acad_id" v="br15DBC"/>
    <tag k="source" v="plan.at 2009"/>
    <tag k="waterway" v="stream"/>
  </way>
  <way id="29603768" version="4" timestamp="2009-12-08T08:41:58Z" uid="200463" user="harmagedon" changeset="3322149">
    <nd ref="21519005"/>
    <nd ref="326114481"/>
    <nd ref="326114485"/>
    <nd ref="326114488"/>
    <nd ref="326114492"/>
    <nd ref="326114496"/>
    <nd ref="326114425"/>
    <nd ref="241887704"/>
    <nd ref="326111938"/>
    <nd ref="21519004"/>
    <tag k="addr:postcode" v="5280"/>
    <tag k="at:maxspeed" v="Ortsgebiet"/>
    <tag k="fixme" v="check import"/>
    <tag k="highway" v="primary"/>
    <tag k="is_in" v="...,Bezirk Braunau,Oberösterreich,Österreich,Europa"/>
    <tag k="name" v="Lamprechtshausener Straße"/>
    <tag k="note" v="imported from plan.at; (C)=CC-by-sa or oDBL; feel free to change if necessary"/>
    <tag k="plan_at:acad_id" v="br15DAD"/>
    <tag k="ref" v="B156"/>
    <tag k="source" v="plan.at 2009"/>
    <tag k="uploaded_by" v="Wolfgang W. Wasserburger"/>
  </way>
  <way id="29603768" version="5" timestamp="2009-12-09T02:06:47Z" uid="200463" user="harmagedon" changeset="3330540">
    <nd ref="21519005"/>
    <nd ref="326114481"/>
    <nd ref="326114485"/>
    <nd ref="326114488"/>
    <nd ref="326114492"/>
    <nd ref="326114496"/>
    <nd ref="326114425"/>
    <nd ref="241887704"/>
    <nd ref="326111938"/>
    <nd ref="21519004"/>
    <tag k="addr:postcode" v="5280"/>
    <tag k="at:maxspeed" v="Ortsgebiet"/>
    <tag k="fixme" v="check import"/>
    <tag k="highway" v="primary"/>
    <tag k="is_in" v="...,Bezirk Braunau,Oberösterreich,Österreich,Europa"/>
    <tag k="name" v="Lamprechtshausener Straße"/>
    <tag k="note" v="imported from plan.at; (C)=CC-by-sa or oDBL; feel free to change if necessary"/>
    <tag k="plan_at:acad_id" v="br15DAD"/>
    <tag k="ref" v="B156"/>
    <tag k="source" v="plan.at 2009"/>
  </way>
  <way id="29603793" version="5" timestamp="2009-12-08T08:40:09Z" uid="200463" user="harmagedon" changeset="3322149">
    <nd ref="326114590"/>
    <nd ref="334510651"/>
    <nd ref="326114602"/>
    <nd ref="326114606"/>
    <tag k="addr:postcode" v="5280"/>
    <tag k="at:maxspeed" v="Ortsgebiet"/>
    <tag k="bridge" v="yes"/>
    <tag k="highway" v="trunk"/>
    <tag k="is_in" v="...,Bezirk Braunau,Oberösterreich,Österreich,Europa"/>
    <tag k="layer" v="1"/>
    <tag k="name" v="Innviertler Ersatzstraße"/>
    <tag k="note" v="imported from plan.at; (C)=CC-by-sa or oDBL; feel free to change if necessary"/>
    <tag k="plan_at:acad_id" v="br15DA4"/>
    <tag k="ref" v="148"/>
    <tag k="source" v="plan.at 2009"/>
    <tag k="uploaded_by" v="Wolfgang W. Wasserburger"/>
  </way>
  <way id="29603793" version="6" timestamp="2009-12-09T02:04:30Z" uid="200463" user="harmagedon" changeset="3330540">
    <nd ref="326114590"/>
    <nd ref="334510651"/>
    <nd ref="326114602"/>
    <nd ref="326114606"/>
    <tag k="addr:postcode" v="5280"/>
    <tag k="at:maxspeed" v="Ortsgebiet"/>
    <tag k="bridge" v="yes"/>
    <tag k="highway" v="trunk"/>
    <tag k="is_in" v="...,Bezirk Braunau,Oberösterreich,Österreich,Europa"/>
    <tag k="layer" v="1"/>
    <tag k="name" v="Innviertler Ersatzstraße"/>
    <tag k="note" v="imported from plan.at; (C)=CC-by-sa or oDBL; feel free to change if necessary"/>
    <tag k="plan_at:acad_id" v="br15DA4"/>
    <tag k="ref" v="148"/>
    <tag k="source" v="plan.at 2009"/>
  </way>
  <way id="29603801" version="5" timestamp="2009-12-09T02:07:56Z" uid="200463" user="harmagedon" changeset="3330540">
    <nd ref="326114614"/>
    <nd ref="326114617"/>
    <nd ref="326114620"/>
    <nd ref="559614516"/>
    <nd ref="334510647"/>
    <nd ref="334510646"/>
    <tag k="addr:postcode" v="5280"/>
    <tag k="at:maxspeed" v="Ortsgebiet"/>
    <tag k="highway" v="trunk"/>
    <tag k="is_in" v="...,Bezirk Braunau,Oberösterreich,Österreich,Europa"/>
    <tag k="name" v="Innviertler Ersatzstraße"/>
    <tag k="note" v="imported from plan.at; (C)=CC-by-sa or oDBL; feel free to change if necessary"/>
    <tag k="plan_at:acad_id" v="br15DA3"/>
    <tag k="ref" v="148"/>
    <tag k="source" v="plan.at 2009"/>
  </way>
  <way id="29603806" version="4" timestamp="2009-12-08T08:40:47Z" uid="200463" user="harmagedon" changeset="3322149">
    <nd ref="326114656"/>
    <nd ref="326114660"/>
    <nd ref="326114667"/>
    <nd ref="326114672"/>
    <nd ref="326114676"/>
    <nd ref="326114940"/>
    <nd ref="334510635"/>
    <tag k="addr:postcode" v="5280"/>
    <tag k="at:maxspeed" v="Ortsgebiet"/>
    <tag k="highway" v="trunk"/>
    <tag k="is_in" v="...,Bezirk Braunau,Oberösterreich,Österreich,Europa"/>
    <tag k="name" v="Innviertler Ersatzstraße"/>
    <tag k="note" v="imported from plan.at; (C)=CC-by-sa or oDBL; feel free to change if necessary"/>
    <tag k="plan_at:acad_id" v="br15D97"/>
    <tag k="ref" v="B148"/>
    <tag k="source" v="plan.at 2009"/>
    <tag k="uploaded_by" v="Wolfgang W. Wasserburger"/>
  </way>
  <way id="29603806" version="5" timestamp="2009-12-09T02:05:00Z" uid="200463" user="harmagedon" changeset="3330540">
    <nd ref="326114656"/>
    <nd ref="326114660"/>
    <nd ref="326114667"/>
    <nd ref="326114672"/>
    <nd ref="326114676"/>
    <nd ref="326114940"/>
    <nd ref="334510635"/>
    <tag k="addr:postcode" v="5280"/>
    <tag k="at:maxspeed" v="Ortsgebiet"/>
    <tag k="highway" v="trunk"/>
    <tag k="is_in" v="...,Bezirk Braunau,Oberösterreich,Österreich,Europa"/>
    <tag k="name" v="Innviertler Ersatzstraße"/>
    <tag k="note" v="imported from plan.at; (C)=CC-by-sa or oDBL; feel free to change if necessary"/>
    <tag k="plan_at:acad_id" v="br15D97"/>
    <tag k="ref" v="B148"/>
    <tag k="source" v="plan.at 2009"/>
  </way>
  <way id="29603835" version="4" timestamp="2009-12-08T08:42:51Z" uid="200463" user="harmagedon" changeset="3322149">
    <nd ref="326114623"/>
    <nd ref="326114896"/>
    <nd ref="326114898"/>
    <nd ref="326114902"/>
    <nd ref="334510648"/>
    <nd ref="326114907"/>
    <tag k="addr:postcode" v="5280"/>
    <tag k="at:maxspeed" v="Ortsgebiet"/>
    <tag k="highway" v="trunk"/>
    <tag k="is_in" v="...,Bezirk Braunau,Oberösterreich,Österreich,Europa"/>
    <tag k="name" v="Braunau"/>
    <tag k="note" v="imported from plan.at; (C)=CC-by-sa or oDBL; feel free to change if necessary"/>
    <tag k="plan_at:acad_id" v="br15D83"/>
    <tag k="ref" v="148"/>
    <tag k="source" v="plan.at 2009"/>
    <tag k="uploaded_by" v="Wolfgang W. Wasserburger"/>
  </way>
  <way id="29603835" version="5" timestamp="2009-12-09T02:07:50Z" uid="200463" user="harmagedon" changeset="3330540">
    <nd ref="326114623"/>
    <nd ref="326114896"/>
    <nd ref="326114898"/>
    <nd ref="326114902"/>
    <nd ref="334510648"/>
    <nd ref="326114907"/>
    <tag k="addr:postcode" v="5280"/>
    <tag k="at:maxspeed" v="Ortsgebiet"/>
    <tag k="highway" v="trunk"/>
    <tag k="is_in" v="...,Bezirk Braunau,Oberösterreich,Österreich,Europa"/>
    <tag k="name" v="Braunau"/>
    <tag k="note" v="imported from plan.at; (C)=CC-by-sa or oDBL; feel free to change if necessary"/>
    <tag k="plan_at:acad_id" v="br15D83"/>
    <tag k="ref" v="148"/>
    <tag k="source" v="plan.at 2009"/>
  </way>
  <way id="29603844" version="4" timestamp="2009-12-08T08:42:55Z" uid="200463" user="harmagedon" changeset="3322149">
    <nd ref="326114920"/>
    <nd ref="326114951"/>
    <nd ref="326114937"/>
    <tag k="addr:postcode" v="5280"/>
    <tag k="at:maxspeed" v="Ortsgebiet"/>
    <tag k="highway" v="trunk"/>
    <tag k="is_in" v="...,Bezirk Braunau,Oberösterreich,Österreich,Europa"/>
    <tag k="name" v="Braunau"/>
    <tag k="note" v="imported from plan.at; (C)=CC-by-sa or oDBL; feel free to change if necessary"/>
    <tag k="plan_at:acad_id" v="br15D7E"/>
    <tag k="ref" v="148"/>
    <tag k="source" v="plan.at 2009"/>
    <tag k="uploaded_by" v="Wolfgang W. Wasserburger"/>
  </way>
  <way id="29603844" version="5" timestamp="2009-12-09T02:07:57Z" uid="200463" user="harmagedon" changeset="3330540">
    <nd ref="326114920"/>
    <nd ref="326114951"/>
    <nd ref="326114937"/>
    <tag k="addr:postcode" v="5280"/>
    <tag k="at:maxspeed" v="Ortsgebiet"/>
    <tag k="highway" v="trunk"/>
    <tag k="is_in" v="...,Bezirk Braunau,Oberösterreich,Österreich,Europa"/>
    <tag k="name" v="Braunau"/>
    <tag k="note" v="imported from plan.at; (C)=CC-by-sa or oDBL; feel free to change if necessary"/>
    <tag k="plan_at:acad_id" v="br15D7E"/>
    <tag k="ref" v="148"/>
    <tag k="source" v="plan.at 2009"/>
  </way>
  <way id="29603847" version="5" timestamp="2009-12-09T02:07:58Z" uid="200463" user="harmagedon" changeset="3330540">
    <nd ref="326114961"/>
    <nd ref="559614514"/>
    <nd ref="326114965"/>
    <nd ref="559614515"/>
    <nd ref="559614517"/>
    <nd ref="334510647"/>
    <tag k="addr:postcode" v="5280"/>
    <tag k="at:maxspeed" v="Ortsgebiet"/>
    <tag k="highway" v="trunk"/>
    <tag k="is_in" v="...,Bezirk Braunau,Oberösterreich,Österreich,Europa"/>
    <tag k="name" v="Braunau"/>
    <tag k="note" v="imported from plan.at; (C)=CC-by-sa or oDBL; feel free to change if necessary"/>
    <tag k="plan_at:acad_id" v="br15D7D"/>
    <tag k="ref" v="148"/>
    <tag k="source" v="plan.at 2009"/>
  </way>
  <way id="29603861" version="5" timestamp="2009-12-09T02:10:42Z" uid="200463" user="harmagedon" changeset="3330540">
    <nd ref="326115069"/>
    <nd ref="326110571"/>
    <tag k="addr:postcode" v="5280"/>
    <tag k="at:maxspeed" v="Ortsgebiet"/>
    <tag k="fixme" v="check import"/>
    <tag k="highway" v="service"/>
    <tag k="is_in" v="...,Bezirk Braunau,Oberösterreich,Österreich,Europa"/>
    <tag k="name" v="Braunau"/>
    <tag k="note" v="imported from plan.at; (C)=CC-by-sa or oDBL; feel free to change if necessary"/>
    <tag k="plan_at:acad_id" v="br15D76"/>
    <tag k="source" v="plan.at 2009"/>
  </way>
  <way id="29603863" version="5" timestamp="2009-12-09T02:10:43Z" uid="200463" user="harmagedon" changeset="3330540">
    <nd ref="326115081"/>
    <nd ref="330178662"/>
    <nd ref="326115069"/>
    <nd ref="335549745"/>
    <nd ref="326115085"/>
    <tag k="addr:postcode" v="5280"/>
    <tag k="at:maxspeed" v="Ortsgebiet"/>
    <tag k="highway" v="residential"/>
    <tag k="is_in" v="...,Bezirk Braunau,Oberösterreich,Österreich,Europa"/>
    <tag k="name" v="Haselbacher Gehweg"/>
    <tag k="note" v="imported from plan.at; (C)=CC-by-sa or oDBL; feel free to change if necessary"/>
    <tag k="plan_at:acad_id" v="br15D75"/>
    <tag k="source" v="plan.at 2009"/>
  </way>
  <way id="29603865" version="4" timestamp="2009-12-09T02:10:06Z" uid="200463" user="harmagedon" changeset="3330540">
    <nd ref="326115095"/>
    <nd ref="326113593"/>
    <tag k="addr:postcode" v="5280"/>
    <tag k="at:maxspeed" v="Ortsgebiet"/>
    <tag k="highway" v="residential"/>
    <tag k="is_in" v="...,Bezirk Braunau,Oberösterreich,Österreich,Europa"/>
    <tag k="name" v="Aventinstraße"/>
    <tag k="note" v="imported from plan.at; (C)=CC-by-sa or oDBL; feel free to change if necessary"/>
    <tag k="plan_at:acad_id" v="br15D74"/>
    <tag k="source" v="plan.at 2009"/>
  </way>
  <way id="29603869" version="4" timestamp="2009-12-09T02:10:42Z" uid="200463" user="harmagedon" changeset="3330540">
    <nd ref="326115104"/>
    <nd ref="326115107"/>
    <nd ref="326115109"/>
    <tag k="addr:postcode" v="5280"/>
    <tag k="at:maxspeed" v="Ortsgebiet"/>
    <tag k="highway" v="residential"/>
    <tag k="is_in" v="...,Bezirk Braunau,Oberösterreich,Österreich,Europa"/>
    <tag k="name" v="Am Buttingergrund"/>
    <tag k="note" v="imported from plan.at; (C)=CC-by-sa or oDBL; feel free to change if necessary"/>
    <tag k="plan_at:acad_id" v="br15D73"/>
    <tag k="source" v="plan.at 2009"/>
  </way>
  <way id="29603872" version="4" timestamp="2009-12-09T02:10:44Z" uid="200463" user="harmagedon" changeset="3330540">
    <nd ref="275128196"/>
    <nd ref="326115119"/>
    <nd ref="275128204"/>
    <nd ref="326115124"/>
    <tag k="addr:postcode" v="5280"/>
    <tag k="at:maxspeed" v="Ortsgebiet"/>
    <tag k="highway" v="residential"/>
    <tag k="is_in" v="...,Bezirk Braunau,Oberösterreich,Österreich,Europa"/>
    <tag k="name" v="Josef-Mohr-Straße"/>
    <tag k="note" v="imported from plan.at; (C)=CC-by-sa or oDBL; feel free to change if necessary"/>
    <tag k="plan_at:acad_id" v="br15D71"/>
    <tag k="source" v="plan.at 2009"/>
  </way>
  <way id="29603877" version="3" timestamp="2009-12-08T08:43:52Z" uid="200463" user="harmagedon" changeset="3322149">
    <nd ref="326115142"/>
    <nd ref="326115146"/>
    <nd ref="326110607"/>
    <tag k="addr:postcode" v="5280"/>
    <tag k="at:maxspeed" v="Ortsgebiet"/>
    <tag k="highway" v="residential"/>
    <tag k="is_in" v="...,Bezirk Braunau,Oberösterreich,Österreich,Europa"/>
    <tag k="name" v="Wagnerbauernstraße"/>
    <tag k="note" v="imported from plan.at; (C)=CC-by-sa or oDBL; feel free to change if necessary"/>
    <tag k="plan_at:acad_id" v="br15D6F"/>
    <tag k="source" v="plan.at 2009"/>
    <tag k="uploaded_by" v="Wolfgang W. Wasserburger"/>
  </way>
  <way id="29603877" version="4" timestamp="2009-12-09T02:10:59Z" uid="200463" user="harmagedon" changeset="3330540">
    <nd ref="326115142"/>
    <nd ref="326115146"/>
    <nd ref="326110607"/>
    <tag k="addr:postcode" v="5280"/>
    <tag k="at:maxspeed" v="Ortsgebiet"/>
    <tag k="highway" v="residential"/>
    <tag k="is_in" v="...,Bezirk Braunau,Oberösterreich,Österreich,Europa"/>
    <tag k="name" v="Wagnerbauernstraße"/>
    <tag k="note" v="imported from plan.at; (C)=CC-by-sa or oDBL; feel free to change if necessary"/>
    <tag k="plan_at:acad_id" v="br15D6F"/>
    <tag k="source" v="plan.at 2009"/>
  </way>
  <way id="29603883" version="5" timestamp="2009-12-09T02:10:30Z" uid="200463" user="harmagedon" changeset="3330540">
    <nd ref="326115161"/>
    <nd ref="326115165"/>
    <nd ref="326115169"/>
    <nd ref="326115174"/>
    <nd ref="326115179"/>
    <nd ref="326115184"/>
    <nd ref="275128164"/>
    <nd ref="326115190"/>
    <nd ref="326115192"/>
    <nd ref="326115196"/>
    <nd ref="326115161"/>
    <tag k="addr:postcode" v="5280"/>
    <tag k="fixme" v="check import"/>
    <tag k="is_in" v="...,Bezirk Braunau,Oberösterreich,Österreich,Europa"/>
    <tag k="landuse" v="cemetery"/>
    <tag k="name" v="Kriegerfriedhof"/>
    <tag k="note" v="imported from plan.at; (C)=CC-by-sa or oDBL; feel free to change if necessary"/>
    <tag k="plan_at:acad_id" v="br15D6C"/>
    <tag k="source" v="plan.at 2009"/>
  </way>
  <way id="29603889" version="4" timestamp="2009-12-09T02:05:18Z" uid="200463" user="harmagedon" changeset="3330540">
    <nd ref="326115235"/>
    <nd ref="326115238"/>
    <nd ref="326115241"/>
    <nd ref="326115244"/>
    <tag k="addr:postcode" v="5280"/>
    <tag k="at:maxspeed" v="Ortsgebiet"/>
    <tag k="fixme" v="check import"/>
    <tag k="highway" v="residential"/>
    <tag k="is_in" v="...,Bezirk Braunau,Oberösterreich,Österreich,Europa"/>
    <tag k="name" v="Ranshofen"/>
    <tag k="note" v="imported from plan.at; (C)=CC-by-sa or oDBL; feel free to change if necessary"/>
    <tag k="plan_at:acad_id" v="br15D67"/>
    <tag k="source" v="plan.at 2009"/>
  </way>
  <way id="29603892" version="4" timestamp="2009-12-08T08:41:47Z" uid="200463" user="harmagedon" changeset="3322149">
    <nd ref="326119267"/>
    <nd ref="410735524"/>
    <nd ref="410735528"/>
    <nd ref="410735530"/>
    <nd ref="410735531"/>
    <nd ref="410735533"/>
    <nd ref="410735535"/>
    <nd ref="326115254"/>
    <nd ref="326115257"/>
    <nd ref="326115261"/>
    <nd ref="326115266"/>
    <nd ref="326115270"/>
    <nd ref="326115273"/>
    <nd ref="326115276"/>
    <nd ref="326115279"/>
    <tag k="addr:postcode" v="5280"/>
    <tag k="at:maxspeed" v="Ortsgebiet"/>
    <tag k="fixme" v="check import"/>
    <tag k="highway" v="track"/>
    <tag k="is_in" v="...,Bezirk Braunau,Oberösterreich,Österreich,Europa"/>
    <tag k="name" v="Ranshofen"/>
    <tag k="note" v="imported from plan.at; (C)=CC-by-sa or oDBL; feel free to change if necessary"/>
    <tag k="plan_at:acad_id" v="br15D66"/>
    <tag k="source" v="plan.at 2009"/>
    <tag k="uploaded_by" v="Wolfgang W. Wasserburger"/>
  </way>
  <way id="29603892" version="5" timestamp="2009-12-09T02:06:26Z" uid="200463" user="harmagedon" changeset="3330540">
    <nd ref="326119267"/>
    <nd ref="410735524"/>
    <nd ref="410735528"/>
    <nd ref="410735530"/>
    <nd ref="410735531"/>
    <nd ref="410735533"/>
    <nd ref="410735535"/>
    <nd ref="326115254"/>
    <nd ref="326115257"/>
    <nd ref="326115261"/>
    <nd ref="326115266"/>
    <nd ref="326115270"/>
    <nd ref="326115273"/>
    <nd ref="326115276"/>
    <nd ref="326115279"/>
    <tag k="addr:postcode" v="5280"/>
    <tag k="at:maxspeed" v="Ortsgebiet"/>
    <tag k="fixme" v="check import"/>
    <tag k="highway" v="track"/>
    <tag k="is_in" v="...,Bezirk Braunau,Oberösterreich,Österreich,Europa"/>
    <tag k="name" v="Ranshofen"/>
    <tag k="note" v="imported from plan.at; (C)=CC-by-sa or oDBL; feel free to change if necessary"/>
    <tag k="plan_at:acad_id" v="br15D66"/>
    <tag k="source" v="plan.at 2009"/>
  </way>
  <way id="29603894" version="3" timestamp="2009-12-08T08:41:46Z" uid="200463" user="harmagedon" changeset="3322149">
    <nd ref="326115288"/>
    <nd ref="326115279"/>
    <nd ref="326115293"/>
    <tag k="addr:postcode" v="5280"/>
    <tag k="at:maxspeed" v="Ortsgebiet"/>
    <tag k="fixme" v="check import"/>
    <tag k="highway" v="residential"/>
    <tag k="is_in" v="...,Bezirk Braunau,Oberösterreich,Österreich,Europa"/>
    <tag k="name" v="Ranshofen"/>
    <tag k="note" v="imported from plan.at; (C)=CC-by-sa or oDBL; feel free to change if necessary"/>
    <tag k="plan_at:acad_id" v="br15D64"/>
    <tag k="source" v="plan.at 2009"/>
    <tag k="uploaded_by" v="Wolfgang W. Wasserburger"/>
  </way>
  <way id="29603894" version="4" timestamp="2009-12-09T02:06:25Z" uid="200463" user="harmagedon" changeset="3330540">
    <nd ref="326115288"/>
    <nd ref="326115279"/>
    <nd ref="326115293"/>
    <tag k="addr:postcode" v="5280"/>
    <tag k="at:maxspeed" v="Ortsgebiet"/>
    <tag k="fixme" v="check import"/>
    <tag k="highway" v="residential"/>
    <tag k="is_in" v="...,Bezirk Braunau,Oberösterreich,Österreich,Europa"/>
    <tag k="name" v="Ranshofen"/>
    <tag k="note" v="imported from plan.at; (C)=CC-by-sa or oDBL; feel free to change if necessary"/>
    <tag k="plan_at:acad_id" v="br15D64"/>
    <tag k="source" v="plan.at 2009"/>
  </way>
  <way id="29603896" version="4" timestamp="2009-12-09T02:06:33Z" uid="200463" user="harmagedon" changeset="3330540">
    <nd ref="326115299"/>
    <nd ref="326115303"/>
    <tag k="addr:postcode" v="5280"/>
    <tag k="at:maxspeed" v="Ortsgebiet"/>
    <tag k="fixme" v="check import"/>
    <tag k="highway" v="residential"/>
    <tag k="is_in" v="...,Bezirk Braunau,Oberösterreich,Österreich,Europa"/>
    <tag k="name" v="Ranshofen"/>
    <tag k="note" v="imported from plan.at; (C)=CC-by-sa or oDBL; feel free to change if necessary"/>
    <tag k="plan_at:acad_id" v="br15D63"/>
    <tag k="source" v="plan.at 2009"/>
  </way>
  <way id="29603902" version="3" timestamp="2009-12-08T08:41:25Z" uid="200463" user="harmagedon" changeset="3322149">
    <nd ref="326115310"/>
    <nd ref="326115312"/>
    <nd ref="326115315"/>
    <nd ref="326115320"/>
    <nd ref="326115325"/>
    <nd ref="326115330"/>
    <nd ref="326115334"/>
    <tag k="addr:postcode" v="5280"/>
    <tag k="at:maxspeed" v="Ortsgebiet"/>
    <tag k="fixme" v="check import"/>
    <tag k="highway" v="residential"/>
    <tag k="is_in" v="...,Bezirk Braunau,Oberösterreich,Österreich,Europa"/>
    <tag k="name" v="Ölschlagerweg"/>
    <tag k="note" v="imported from plan.at; (C)=CC-by-sa or oDBL; feel free to change if necessary"/>
    <tag k="plan_at:acad_id" v="br15D62"/>
    <tag k="source" v="plan.at 2009"/>
    <tag k="uploaded_by" v="Wolfgang W. Wasserburger"/>
  </way>
  <way id="29603902" version="4" timestamp="2009-12-09T02:05:44Z" uid="200463" user="harmagedon" changeset="3330540">
    <nd ref="326115310"/>
    <nd ref="326115312"/>
    <nd ref="326115315"/>
    <nd ref="326115320"/>
    <nd ref="326115325"/>
    <nd ref="326115330"/>
    <nd ref="326115334"/>
    <tag k="addr:postcode" v="5280"/>
    <tag k="at:maxspeed" v="Ortsgebiet"/>
    <tag k="fixme" v="check import"/>
    <tag k="highway" v="residential"/>
    <tag k="is_in" v="...,Bezirk Braunau,Oberösterreich,Österreich,Europa"/>
    <tag k="name" v="Ölschlagerweg"/>
    <tag k="note" v="imported from plan.at; (C)=CC-by-sa or oDBL; feel free to change if necessary"/>
    <tag k="plan_at:acad_id" v="br15D62"/>
    <tag k="source" v="plan.at 2009"/>
  </way>
  <way id="29603905" version="3" timestamp="2009-12-08T08:41:41Z" uid="200463" user="harmagedon" changeset="3322149">
    <nd ref="326115342"/>
    <nd ref="326115346"/>
    <tag k="addr:postcode" v="5280"/>
    <tag k="at:maxspeed" v="Ortsgebiet"/>
    <tag k="fixme" v="check import"/>
    <tag k="highway" v="residential"/>
    <tag k="is_in" v="...,Bezirk Braunau,Oberösterreich,Österreich,Europa"/>
    <tag k="name" v="Moosweg"/>
    <tag k="note" v="imported from plan.at; (C)=CC-by-sa or oDBL; feel free to change if necessary"/>
    <tag k="plan_at:acad_id" v="br15D61"/>
    <tag k="source" v="plan.at 2009"/>
    <tag k="uploaded_by" v="Wolfgang W. Wasserburger"/>
  </way>
  <way id="29603905" version="4" timestamp="2009-12-09T02:06:19Z" uid="200463" user="harmagedon" changeset="3330540">
    <nd ref="326115342"/>
    <nd ref="326115346"/>
    <tag k="addr:postcode" v="5280"/>
    <tag k="at:maxspeed" v="Ortsgebiet"/>
    <tag k="fixme" v="check import"/>
    <tag k="highway" v="residential"/>
    <tag k="is_in" v="...,Bezirk Braunau,Oberösterreich,Österreich,Europa"/>
    <tag k="name" v="Moosweg"/>
    <tag k="note" v="imported from plan.at; (C)=CC-by-sa or oDBL; feel free to change if necessary"/>
    <tag k="plan_at:acad_id" v="br15D61"/>
    <tag k="source" v="plan.at 2009"/>
  </way>
  <way id="29603908" version="3" timestamp="2009-12-08T08:41:26Z" uid="200463" user="harmagedon" changeset="3322149">
    <nd ref="326115353"/>
    <nd ref="326115357"/>
    <tag k="addr:postcode" v="5280"/>
    <tag k="at:maxspeed" v="Ortsgebiet"/>
    <tag k="fixme" v="check import"/>
    <tag k="highway" v="residential"/>
    <tag k="is_in" v="...,Bezirk Braunau,Oberösterreich,Österreich,Europa"/>
    <tag k="name" v="Moosweg"/>
    <tag k="note" v="imported from plan.at; (C)=CC-by-sa or oDBL; feel free to change if necessary"/>
    <tag k="plan_at:acad_id" v="br15D60"/>
    <tag k="source" v="plan.at 2009"/>
    <tag k="uploaded_by" v="Wolfgang W. Wasserburger"/>
  </way>
  <way id="29603908" version="4" timestamp="2009-12-09T02:05:46Z" uid="200463" user="harmagedon" changeset="3330540">
    <nd ref="326115353"/>
    <nd ref="326115357"/>
    <tag k="addr:postcode" v="5280"/>
    <tag k="at:maxspeed" v="Ortsgebiet"/>
    <tag k="fixme" v="check import"/>
    <tag k="highway" v="residential"/>
    <tag k="is_in" v="...,Bezirk Braunau,Oberösterreich,Österreich,Europa"/>
    <tag k="name" v="Moosweg"/>
    <tag k="note" v="imported from plan.at; (C)=CC-by-sa or oDBL; feel free to change if necessary"/>
    <tag k="plan_at:acad_id" v="br15D60"/>
    <tag k="source" v="plan.at 2009"/>
  </way>
  <way id="29603910" version="3" timestamp="2009-12-08T08:41:45Z" uid="200463" user="harmagedon" changeset="3322149">
    <nd ref="326115364"/>
    <nd ref="326115369"/>
    <tag k="addr:postcode" v="5280"/>
    <tag k="at:maxspeed" v="Ortsgebiet"/>
    <tag k="fixme" v="check import"/>
    <tag k="highway" v="residential"/>
    <tag k="is_in" v="...,Bezirk Braunau,Oberösterreich,Österreich,Europa"/>
    <tag k="name" v="Brieffeldstraße"/>
    <tag k="note" v="imported from plan.at; (C)=CC-by-sa or oDBL; feel free to change if necessary"/>
    <tag k="plan_at:acad_id" v="br15D5F"/>
    <tag k="source" v="plan.at 2009"/>
    <tag k="uploaded_by" v="Wolfgang W. Wasserburger"/>
  </way>
  <way id="29603910" version="4" timestamp="2009-12-09T02:06:23Z" uid="200463" user="harmagedon" changeset="3330540">
    <nd ref="326115364"/>
    <nd ref="326115369"/>
    <tag k="addr:postcode" v="5280"/>
    <tag k="at:maxspeed" v="Ortsgebiet"/>
    <tag k="fixme" v="check import"/>
    <tag k="highway" v="residential"/>
    <tag k="is_in" v="...,Bezirk Braunau,Oberösterreich,Österreich,Europa"/>
    <tag k="name" v="Brieffeldstraße"/>
    <tag k="note" v="imported from plan.at; (C)=CC-by-sa or oDBL; feel free to change if necessary"/>
    <tag k="plan_at:acad_id" v="br15D5F"/>
    <tag k="source" v="plan.at 2009"/>
  </way>
  <way id="29603912" version="3" timestamp="2009-12-08T08:41:44Z" uid="200463" user="harmagedon" changeset="3322149">
    <nd ref="326115379"/>
    <nd ref="326115383"/>
    <tag k="addr:postcode" v="5280"/>
    <tag k="at:maxspeed" v="Ortsgebiet"/>
    <tag k="fixme" v="check import"/>
    <tag k="highway" v="residential"/>
    <tag k="is_in" v="...,Bezirk Braunau,Oberösterreich,Österreich,Europa"/>
    <tag k="name" v="Ranshofen"/>
    <tag k="note" v="imported from plan.at; (C)=CC-by-sa or oDBL; feel free to change if necessary"/>
    <tag k="plan_at:acad_id" v="br15D5E"/>
    <tag k="source" v="plan.at 2009"/>
    <tag k="uploaded_by" v="Wolfgang W. Wasserburger"/>
  </way>
  <way id="29603912" version="4" timestamp="2009-12-09T02:06:22Z" uid="200463" user="harmagedon" changeset="3330540">
    <nd ref="326115379"/>
    <nd ref="326115383"/>
    <tag k="addr:postcode" v="5280"/>
    <tag k="at:maxspeed" v="Ortsgebiet"/>
    <tag k="fixme" v="check import"/>
    <tag k="highway" v="residential"/>
    <tag k="is_in" v="...,Bezirk Braunau,Oberösterreich,Österreich,Europa"/>
    <tag k="name" v="Ranshofen"/>
    <tag k="note" v="imported from plan.at; (C)=CC-by-sa or oDBL; feel free to change if necessary"/>
    <tag k="plan_at:acad_id" v="br15D5E"/>
    <tag k="source" v="plan.at 2009"/>
  </way>
  <way id="29603917" version="4" timestamp="2009-12-09T02:06:27Z" uid="200463" user="harmagedon" changeset="3330540">
    <nd ref="326115402"/>
    <nd ref="326115408"/>
    <nd ref="326115414"/>
    <nd ref="326115416"/>
    <nd ref="326115418"/>
    <nd ref="326115422"/>
    <tag k="addr:postcode" v="5280"/>
    <tag k="at:maxspeed" v="Ortsgebiet"/>
    <tag k="fixme" v="check import"/>
    <tag k="highway" v="residential"/>
    <tag k="is_in" v="...,Bezirk Braunau,Oberösterreich,Österreich,Europa"/>
    <tag k="name" v="Klosterstraße"/>
    <tag k="note" v="imported from plan.at; (C)=CC-by-sa or oDBL; feel free to change if necessary"/>
    <tag k="plan_at:acad_id" v="br15D5C"/>
    <tag k="source" v="plan.at 2009"/>
  </way>
  <way id="29603919" version="3" timestamp="2009-12-08T08:41:13Z" uid="200463" user="harmagedon" changeset="3322149">
    <nd ref="326115438"/>
    <nd ref="326115442"/>
    <tag k="addr:postcode" v="5280"/>
    <tag k="at:maxspeed" v="Ortsgebiet"/>
    <tag k="fixme" v="check import"/>
    <tag k="highway" v="residential"/>
    <tag k="is_in" v="...,Bezirk Braunau,Oberösterreich,Österreich,Europa"/>
    <tag k="name" v="Ranshofen"/>
    <tag k="note" v="imported from plan.at; (C)=CC-by-sa or oDBL; feel free to change if necessary"/>
    <tag k="plan_at:acad_id" v="br15D59"/>
    <tag k="source" v="plan.at 2009"/>
    <tag k="uploaded_by" v="Wolfgang W. Wasserburger"/>
  </way>
  <way id="29603919" version="4" timestamp="2009-12-09T02:05:19Z" uid="200463" user="harmagedon" changeset="3330540">
    <nd ref="326115438"/>
    <nd ref="326115442"/>
    <tag k="addr:postcode" v="5280"/>
    <tag k="at:maxspeed" v="Ortsgebiet"/>
    <tag k="fixme" v="check import"/>
    <tag k="highway" v="residential"/>
    <tag k="is_in" v="...,Bezirk Braunau,Oberösterreich,Österreich,Europa"/>
    <tag k="name" v="Ranshofen"/>
    <tag k="note" v="imported from plan.at; (C)=CC-by-sa or oDBL; feel free to change if necessary"/>
    <tag k="plan_at:acad_id" v="br15D59"/>
    <tag k="source" v="plan.at 2009"/>
  </way>
  <way id="29603923" version="5" timestamp="2009-12-09T02:05:19Z" uid="200463" user="harmagedon" changeset="3330540">
    <nd ref="326115450"/>
    <nd ref="326115454"/>
    <nd ref="326115457"/>
    <nd ref="326112073"/>
    <nd ref="399590622"/>
    <tag k="fixme" v="check import"/>
    <tag k="highway" v="track"/>
    <tag k="is_in" v="...,Bezirk Braunau,Oberösterreich,Österreich,Europa"/>
    <tag k="note" v="imported from plan.at; (C)=CC-by-sa or oDBL; feel free to change if necessary"/>
    <tag k="plan_at:acad_id" v="br15D58"/>
    <tag k="source" v="plan.at 2009"/>
  </way>
  <way id="29603925" version="3" timestamp="2009-12-08T08:41:39Z" uid="200463" user="harmagedon" changeset="3322149">
    <nd ref="326115466"/>
    <nd ref="326115471"/>
    <nd ref="326112136"/>
    <tag k="addr:postcode" v="5280"/>
    <tag k="at:maxspeed" v="Ortsgebiet"/>
    <tag k="fixme" v="check import"/>
    <tag k="highway" v="residential"/>
    <tag k="is_in" v="...,Bezirk Braunau,Oberösterreich,Österreich,Europa"/>
    <tag k="name" v="Scheuhub"/>
    <tag k="note" v="imported from plan.at; (C)=CC-by-sa or oDBL; feel free to change if necessary"/>
    <tag k="plan_at:acad_id" v="br15D57"/>
    <tag k="source" v="plan.at 2009"/>
    <tag k="uploaded_by" v="Wolfgang W. Wasserburger"/>
  </way>
  <way id="29603925" version="4" timestamp="2009-12-09T02:06:17Z" uid="200463" user="harmagedon" changeset="3330540">
    <nd ref="326115466"/>
    <nd ref="326115471"/>
    <nd ref="326112136"/>
    <tag k="addr:postcode" v="5280"/>
    <tag k="at:maxspeed" v="Ortsgebiet"/>
    <tag k="fixme" v="check import"/>
    <tag k="highway" v="residential"/>
    <tag k="is_in" v="...,Bezirk Braunau,Oberösterreich,Österreich,Europa"/>
    <tag k="name" v="Scheuhub"/>
    <tag k="note" v="imported from plan.at; (C)=CC-by-sa or oDBL; feel free to change if necessary"/>
    <tag k="plan_at:acad_id" v="br15D57"/>
    <tag k="source" v="plan.at 2009"/>
  </way>
  <way id="29603928" version="3" timestamp="2009-12-08T08:41:38Z" uid="200463" user="harmagedon" changeset="3322149">
    <nd ref="326115481"/>
    <nd ref="326115485"/>
    <nd ref="326115488"/>
    <nd ref="326115491"/>
    <tag k="addr:postcode" v="5280"/>
    <tag k="at:maxspeed" v="Ortsgebiet"/>
    <tag k="fixme" v="check import"/>
    <tag k="highway" v="residential"/>
    <tag k="is_in" v="...,Bezirk Braunau,Oberösterreich,Österreich,Europa"/>
    <tag k="name" v="Franzosenkreuzweg"/>
    <tag k="note" v="imported from plan.at; (C)=CC-by-sa or oDBL; feel free to change if necessary"/>
    <tag k="plan_at:acad_id" v="br15D55"/>
    <tag k="source" v="plan.at 2009"/>
    <tag k="uploaded_by" v="Wolfgang W. Wasserburger"/>
  </way>
  <way id="29603928" version="4" timestamp="2009-12-09T02:06:15Z" uid="200463" user="harmagedon" changeset="3330540">
    <nd ref="326115481"/>
    <nd ref="326115485"/>
    <nd ref="326115488"/>
    <nd ref="326115491"/>
    <tag k="addr:postcode" v="5280"/>
    <tag k="at:maxspeed" v="Ortsgebiet"/>
    <tag k="fixme" v="check import"/>
    <tag k="highway" v="residential"/>
    <tag k="is_in" v="...,Bezirk Braunau,Oberösterreich,Österreich,Europa"/>
    <tag k="name" v="Franzosenkreuzweg"/>
    <tag k="note" v="imported from plan.at; (C)=CC-by-sa or oDBL; feel free to change if necessary"/>
    <tag k="plan_at:acad_id" v="br15D55"/>
    <tag k="source" v="plan.at 2009"/>
  </way>
  <way id="29603930" version="3" timestamp="2009-12-08T08:41:38Z" uid="200463" user="harmagedon" changeset="3322149">
    <nd ref="326115481"/>
    <nd ref="326115503"/>
    <nd ref="326112108"/>
    <tag k="addr:postcode" v="5280"/>
    <tag k="at:maxspeed" v="Ortsgebiet"/>
    <tag k="fixme" v="check import"/>
    <tag k="highway" v="track"/>
    <tag k="is_in" v="...,Bezirk Braunau,Oberösterreich,Österreich,Europa"/>
    <tag k="name" v="Franzosenkreuzweg"/>
    <tag k="note" v="imported from plan.at; (C)=CC-by-sa or oDBL; feel free to change if necessary"/>
    <tag k="plan_at:acad_id" v="br15D54"/>
    <tag k="source" v="plan.at 2009"/>
    <tag k="uploaded_by" v="Wolfgang W. Wasserburger"/>
  </way>
  <way id="29603930" version="4" timestamp="2009-12-09T02:06:17Z" uid="200463" user="harmagedon" changeset="3330540">
    <nd ref="326115481"/>
    <nd ref="326115503"/>
    <nd ref="326112108"/>
    <tag k="addr:postcode" v="5280"/>
    <tag k="at:maxspeed" v="Ortsgebiet"/>
    <tag k="fixme" v="check import"/>
    <tag k="highway" v="track"/>
    <tag k="is_in" v="...,Bezirk Braunau,Oberösterreich,Österreich,Europa"/>
    <tag k="name" v="Franzosenkreuzweg"/>
    <tag k="note" v="imported from plan.at; (C)=CC-by-sa or oDBL; feel free to change if necessary"/>
    <tag k="plan_at:acad_id" v="br15D54"/>
    <tag k="source" v="plan.at 2009"/>
  </way>
  <way id="29603935" version="4" timestamp="2009-12-09T02:04:17Z" uid="200463" user="harmagedon" changeset="3330540">
    <nd ref="326115511"/>
    <nd ref="326115515"/>
    <nd ref="326115518"/>
    <tag k="addr:postcode" v="5280"/>
    <tag k="at:maxspeed" v="Ortsgebiet"/>
    <tag k="fixme" v="check import"/>
    <tag k="highway" v="track"/>
    <tag k="is_in" v="...,Bezirk Braunau,Oberösterreich,Österreich,Europa"/>
    <tag k="name" v="Scheuhub"/>
    <tag k="note" v="imported from plan.at; (C)=CC-by-sa or oDBL; feel free to change if necessary"/>
    <tag k="plan_at:acad_id" v="br15D50"/>
    <tag k="source" v="plan.at 2009"/>
  </way>
  <way id="29603938" version="4" timestamp="2009-12-09T02:04:17Z" uid="200463" user="harmagedon" changeset="3330540">
    <nd ref="326115530"/>
    <nd ref="326115518"/>
    <nd ref="326115533"/>
    <tag k="addr:postcode" v="5280"/>
    <tag k="at:maxspeed" v="Ortsgebiet"/>
    <tag k="fixme" v="check import"/>
    <tag k="highway" v="track"/>
    <tag k="is_in" v="...,Bezirk Braunau,Oberösterreich,Österreich,Europa"/>
    <tag k="name" v="Scheuhub"/>
    <tag k="note" v="imported from plan.at; (C)=CC-by-sa or oDBL; feel free to change if necessary"/>
    <tag k="plan_at:acad_id" v="br15D4F"/>
    <tag k="source" v="plan.at 2009"/>
  </way>
  <way id="29603947" version="4" timestamp="2009-12-08T08:41:26Z" uid="200463" user="harmagedon" changeset="3322149">
    <nd ref="326115541"/>
    <nd ref="326115545"/>
    <nd ref="326115548"/>
    <nd ref="326115552"/>
    <nd ref="326115555"/>
    <nd ref="326115557"/>
    <nd ref="326115561"/>
    <nd ref="326115564"/>
    <nd ref="326111984"/>
    <tag k="addr:postcode" v="5280"/>
    <tag k="at:maxspeed" v="Ortsgebiet"/>
    <tag k="fixme" v="check import"/>
    <tag k="highway" v="residential"/>
    <tag k="is_in" v="...,Bezirk Braunau,Oberösterreich,Österreich,Europa"/>
    <tag k="name" v="Brühlweg"/>
    <tag k="note" v="imported from plan.at; (C)=CC-by-sa or oDBL; feel free to change if necessary"/>
    <tag k="plan_at:acad_id" v="br15D4E"/>
    <tag k="source" v="plan.at 2009"/>
    <tag k="uploaded_by" v="Wolfgang W. Wasserburger"/>
  </way>
  <way id="29603947" version="5" timestamp="2009-12-09T02:05:45Z" uid="200463" user="harmagedon" changeset="3330540">
    <nd ref="326115541"/>
    <nd ref="326115545"/>
    <nd ref="326115548"/>
    <nd ref="326115552"/>
    <nd ref="326115555"/>
    <nd ref="326115557"/>
    <nd ref="326115561"/>
    <nd ref="326115564"/>
    <nd ref="326111984"/>
    <tag k="addr:postcode" v="5280"/>
    <tag k="at:maxspeed" v="Ortsgebiet"/>
    <tag k="fixme" v="check import"/>
    <tag k="highway" v="residential"/>
    <tag k="is_in" v="...,Bezirk Braunau,Oberösterreich,Österreich,Europa"/>
    <tag k="name" v="Brühlweg"/>
    <tag k="note" v="imported from plan.at; (C)=CC-by-sa or oDBL; feel free to change if necessary"/>
    <tag k="plan_at:acad_id" v="br15D4E"/>
    <tag k="source" v="plan.at 2009"/>
  </way>
  <way id="29603954" version="3" timestamp="2009-12-08T08:40:58Z" uid="200463" user="harmagedon" changeset="3322149">
    <nd ref="326102399"/>
    <nd ref="326115574"/>
    <nd ref="326115578"/>
    <nd ref="326115580"/>
    <nd ref="326115582"/>
    <nd ref="326102319"/>
    <nd ref="326115585"/>
    <nd ref="326115591"/>
    <tag k="addr:postcode" v="5280"/>
    <tag k="at:maxspeed" v="Ortsgebiet"/>
    <tag k="fixme" v="check import"/>
    <tag k="highway" v="track"/>
    <tag k="is_in" v="...,Bezirk Braunau,Oberösterreich,Österreich,Europa"/>
    <tag k="name" v="Hochstraße"/>
    <tag k="note" v="imported from plan.at; (C)=CC-by-sa or oDBL; feel free to change if necessary"/>
    <tag k="plan_at:acad_id" v="br15D4D"/>
    <tag k="source" v="plan.at 2009"/>
    <tag k="uploaded_by" v="Wolfgang W. Wasserburger"/>
  </way>
  <way id="29603954" version="4" timestamp="2009-12-09T02:05:18Z" uid="200463" user="harmagedon" changeset="3330540">
    <nd ref="326102399"/>
    <nd ref="326115574"/>
    <nd ref="326115578"/>
    <nd ref="326115580"/>
    <nd ref="326115582"/>
    <nd ref="326102319"/>
    <nd ref="326115585"/>
    <nd ref="326115591"/>
    <tag k="addr:postcode" v="5280"/>
    <tag k="at:maxspeed" v="Ortsgebiet"/>
    <tag k="fixme" v="check import"/>
    <tag k="highway" v="track"/>
    <tag k="is_in" v="...,Bezirk Braunau,Oberösterreich,Österreich,Europa"/>
    <tag k="name" v="Hochstraße"/>
    <tag k="note" v="imported from plan.at; (C)=CC-by-sa or oDBL; feel free to change if necessary"/>
    <tag k="plan_at:acad_id" v="br15D4D"/>
    <tag k="source" v="plan.at 2009"/>
  </way>
  <way id="29603962" version="6" timestamp="2009-12-09T02:08:43Z" uid="200463" user="harmagedon" changeset="3330540">
    <nd ref="326115603"/>
    <nd ref="326115607"/>
    <nd ref="326115612"/>
    <nd ref="415963724"/>
    <nd ref="276083986"/>
    <tag k="fixme" v="check import"/>
    <tag k="highway" v="path"/>
    <tag k="is_in" v="...,Bezirk Braunau,Oberösterreich,Österreich,Europa"/>
    <tag k="note" v="imported from plan.at; (C)=CC-by-sa or oDBL; feel free to change if necessary"/>
    <tag k="plan_at:acad_id" v="br15D4B"/>
    <tag k="source" v="plan.at 2009"/>
  </way>
</osm>
