<?xml version='1.0' encoding='UTF-8'?>
<osm version="0.6" generator="libosmium/2.20.0">
  <way id="29640452" version="3" timestamp="2009-12-09T16:12:11Z" uid="200463" user="harmagedon" changeset="3334003">
    <nd ref="281927002"/>
    <nd ref="288560632"/>
    <nd ref="474803717"/>
    <nd ref="281927133"/>
    <nd ref="325233393"/>
    <nd ref="325233392"/>
    <nd ref="288560594"/>
    <tag k="highway" v="tertiary"/>
    <tag k="ref" v="16911"/>
    <tag k="source:ref" v="rsd_cr"/>
  </way>
  <way id="29640949" version="5" timestamp="2009-06-08T16:53:04Z" uid="58091" user="Andreas M" changeset="1460651">
    <nd ref="326252731"/>
    <nd ref="326252733"/>
    <nd ref="326252735"/>
    <nd ref="326252737"/>
    <nd ref="326252738"/>
    <nd ref="326252740"/>
    <nd ref="326252742"/>
    <nd ref="326252743"/>
    <nd ref="326252731"/>
    <tag k="addr:city" v="Wien"/>
    <tag k="addr:country" v="AT"/>
    <tag k="addr:housenumber" v="32"/>
    <tag k="addr:postcode" v="1190"/>
    <tag k="addr:street" v="Hohe Warte"/>
    <tag k="amenity" v="police"/>
    <tag k="building" v="yes"/>
    <tag k="created_by" v="Potlatch 0.10f"/>
    <tag k="phone" v="+43-1-31310-27330"/>
  </way>
</osm>
