<?xml version='1.0' encoding='UTF-8'?>
<osm version="0.6" generator="libosmium/2.20.0">
  <way id="29703023" version="4" timestamp="2010-05-27T15:11:25Z" uid="4467" user="Rosscoe" changeset="4823034">
    <nd ref="330111008"/>
    <nd ref="327143636"/>
    <nd ref="327143637"/>
    <nd ref="327143639"/>
    <tag k="highway" v="residential"/>
    <tag k="name" v="Carsten Court"/>
  </way>
  <way id="29703023" version="5" timestamp="2010-07-09T06:03:55Z" uid="74617" user="JohnSmith" changeset="5171134">
    <nd ref="330111008"/>
    <nd ref="327143636"/>
    <nd ref="327143637"/>
    <nd ref="327143639"/>
    <tag k="highway" v="residential"/>
    <tag k="maxspeed" v="50"/>
    <tag k="maxspeed:source" v="default residential speed limit in Australia"/>
    <tag k="name" v="Carsten Court"/>
  </way>
  <way id="29703137" version="19" timestamp="2010-08-04T17:44:12Z" uid="9581" user="Lobelt" changeset="5401263">
    <nd ref="380562369"/>
    <nd ref="259037183"/>
    <nd ref="259037182"/>
    <nd ref="259037181"/>
    <nd ref="308007705"/>
    <nd ref="308007706"/>
    <nd ref="308007707"/>
    <nd ref="262477003"/>
    <nd ref="262477309"/>
    <nd ref="262477308"/>
    <nd ref="308007711"/>
    <nd ref="262477169"/>
    <nd ref="262477155"/>
    <nd ref="308007712"/>
    <nd ref="308007713"/>
    <nd ref="308007714"/>
    <nd ref="262475102"/>
    <nd ref="308007715"/>
    <nd ref="262475101"/>
    <nd ref="308007716"/>
    <nd ref="308007717"/>
    <nd ref="308007718"/>
    <tag k="cables" v="12"/>
    <tag k="frequency" v="50"/>
    <tag k="name" v="Leitung 1164;Leitung 1165"/>
    <tag k="operator" v="EON_Netz"/>
    <tag k="power" v="line"/>
    <tag k="ref" v="1164;1165"/>
    <tag k="voltage" v="110000"/>
    <tag k="wires" v="single"/>
  </way>
  <way id="29703152" version="9" timestamp="2010-05-27T01:18:28Z" uid="4467" user="Rosscoe" changeset="4818592">
    <nd ref="251873525"/>
    <nd ref="327143950"/>
    <nd ref="330095053"/>
    <nd ref="327143954"/>
    <nd ref="327143956"/>
    <nd ref="327143958"/>
    <nd ref="327139713"/>
    <nd ref="327143961"/>
    <nd ref="327143964"/>
    <nd ref="330095309"/>
    <nd ref="327143965"/>
    <nd ref="327143968"/>
    <nd ref="327143969"/>
    <nd ref="327143971"/>
    <nd ref="327143973"/>
    <nd ref="327143974"/>
    <nd ref="327143977"/>
    <nd ref="330111054"/>
    <tag k="highway" v="residential"/>
    <tag k="name" v="Southern Cross Drive"/>
  </way>
  <way id="29703152" version="10" timestamp="2010-07-09T06:11:22Z" uid="74617" user="JohnSmith" changeset="5171134">
    <nd ref="251873525"/>
    <nd ref="327143950"/>
    <nd ref="330095053"/>
    <nd ref="327143954"/>
    <nd ref="327143956"/>
    <nd ref="327143958"/>
    <nd ref="327139713"/>
    <nd ref="327143961"/>
    <nd ref="327143964"/>
    <nd ref="330095309"/>
    <nd ref="327143965"/>
    <nd ref="327143968"/>
    <nd ref="327143969"/>
    <nd ref="327143971"/>
    <nd ref="327143973"/>
    <nd ref="327143974"/>
    <nd ref="327143977"/>
    <nd ref="330111054"/>
    <tag k="highway" v="residential"/>
    <tag k="maxspeed" v="50"/>
    <tag k="maxspeed:source" v="default residential speed limit in Australia"/>
    <tag k="name" v="Southern Cross Drive"/>
  </way>
  <way id="29703287" version="4" timestamp="2010-05-27T15:11:14Z" uid="4467" user="Rosscoe" changeset="4823034">
    <nd ref="327144202"/>
    <nd ref="330095309"/>
    <tag k="highway" v="residential"/>
    <tag k="name" v="Contender Court"/>
  </way>
  <way id="29703287" version="5" timestamp="2010-07-09T06:08:24Z" uid="74617" user="JohnSmith" changeset="5171134">
    <nd ref="327144202"/>
    <nd ref="330095309"/>
    <tag k="highway" v="residential"/>
    <tag k="maxspeed" v="50"/>
    <tag k="maxspeed:source" v="default residential speed limit in Australia"/>
    <tag k="name" v="Contender Court"/>
  </way>
  <way id="29703386" version="3" timestamp="2010-05-27T15:11:15Z" uid="4467" user="Rosscoe" changeset="4823034">
    <nd ref="327144359"/>
    <nd ref="327144360"/>
    <nd ref="327144361"/>
    <nd ref="327144362"/>
    <nd ref="327143973"/>
    <tag k="highway" v="residential"/>
    <tag k="name" v="Challenger Court"/>
  </way>
  <way id="29703386" version="4" timestamp="2010-07-09T06:03:54Z" uid="74617" user="JohnSmith" changeset="5171134">
    <nd ref="327144359"/>
    <nd ref="327144360"/>
    <nd ref="327144361"/>
    <nd ref="327144362"/>
    <nd ref="327143973"/>
    <tag k="highway" v="residential"/>
    <tag k="maxspeed" v="50"/>
    <tag k="maxspeed:source" v="default residential speed limit in Australia"/>
    <tag k="name" v="Challenger Court"/>
  </way>
  <way id="29703454" version="4" timestamp="2010-07-09T06:03:52Z" uid="74617" user="JohnSmith" changeset="5171134">
    <nd ref="327144566"/>
    <nd ref="327144568"/>
    <nd ref="327144570"/>
    <nd ref="327144572"/>
    <nd ref="327144574"/>
    <nd ref="330095444"/>
    <nd ref="327144576"/>
    <nd ref="327144578"/>
    <tag k="highway" v="residential"/>
    <tag k="maxspeed" v="50"/>
    <tag k="maxspeed:source" v="default residential speed limit in Australia"/>
    <tag k="name" v="Romney Road"/>
  </way>
  <way id="29703538" version="8" timestamp="2010-07-09T06:07:08Z" uid="74617" user="JohnSmith" changeset="5171134">
    <nd ref="330095444"/>
    <nd ref="327145092"/>
    <nd ref="327145093"/>
    <nd ref="327145094"/>
    <nd ref="327145096"/>
    <nd ref="327145098"/>
    <nd ref="327145099"/>
    <nd ref="327145326"/>
    <nd ref="327145343"/>
    <nd ref="327145101"/>
    <nd ref="327145102"/>
    <nd ref="327145104"/>
    <nd ref="327145105"/>
    <nd ref="327145387"/>
    <nd ref="327145107"/>
    <nd ref="327145396"/>
    <nd ref="327145108"/>
    <nd ref="327145109"/>
    <nd ref="327145497"/>
    <nd ref="327145499"/>
    <nd ref="327145111"/>
    <nd ref="327145112"/>
    <nd ref="327145113"/>
    <nd ref="327145115"/>
    <nd ref="327145116"/>
    <nd ref="327145118"/>
    <nd ref="327145119"/>
    <nd ref="327145121"/>
    <nd ref="329585769"/>
    <tag k="highway" v="residential"/>
    <tag k="maxspeed" v="50"/>
    <tag k="maxspeed:source" v="default residential speed limit in Australia"/>
    <tag k="name" v="Seaview Drive"/>
  </way>
  <way id="29703575" version="5" timestamp="2010-07-09T06:07:24Z" uid="74617" user="JohnSmith" changeset="5171134">
    <nd ref="327145317"/>
    <nd ref="327145318"/>
    <nd ref="327145320"/>
    <nd ref="327145321"/>
    <nd ref="327145323"/>
    <nd ref="327145325"/>
    <nd ref="327145326"/>
    <tag k="highway" v="residential"/>
    <tag k="maxspeed" v="50"/>
    <tag k="maxspeed:source" v="default residential speed limit in Australia"/>
    <tag k="name" v="Melingie Court"/>
  </way>
  <way id="29703591" version="6" timestamp="2010-07-09T06:08:40Z" uid="74617" user="JohnSmith" changeset="5171134">
    <nd ref="327145380"/>
    <nd ref="327145382"/>
    <nd ref="327145384"/>
    <nd ref="327145385"/>
    <nd ref="327145387"/>
    <tag k="highway" v="residential"/>
    <tag k="maxspeed" v="50"/>
    <tag k="maxspeed:source" v="default residential speed limit in Australia"/>
    <tag k="name" v="Dorset Court"/>
  </way>
  <way id="29703593" version="4" timestamp="2010-07-09T06:08:23Z" uid="74617" user="JohnSmith" changeset="5171134">
    <nd ref="327145393"/>
    <nd ref="327145394"/>
    <nd ref="327145396"/>
    <tag k="highway" v="residential"/>
    <tag k="maxspeed" v="50"/>
    <tag k="maxspeed:source" v="default residential speed limit in Australia"/>
    <tag k="name" v="View Court"/>
  </way>
  <way id="29703646" version="4" timestamp="2010-07-09T06:06:53Z" uid="74617" user="JohnSmith" changeset="5171134">
    <nd ref="327145665"/>
    <nd ref="327145669"/>
    <nd ref="327145672"/>
    <nd ref="327145674"/>
    <nd ref="327145676"/>
    <nd ref="327145679"/>
    <nd ref="327145497"/>
    <tag k="highway" v="residential"/>
    <tag k="maxspeed" v="50"/>
    <tag k="maxspeed:source" v="default residential speed limit in Australia"/>
    <tag k="name" v="Sargent Court"/>
  </way>
  <way id="29703968" version="1" timestamp="2009-01-05T13:47:39Z" uid="58091" user="Andreas M" changeset="740529">
    <nd ref="130232720"/>
    <nd ref="123734077"/>
    <nd ref="327147912"/>
    <nd ref="298626774"/>
    <nd ref="298627155"/>
    <nd ref="298627254"/>
    <nd ref="123734080"/>
    <nd ref="321403887"/>
    <tag k="created_by" v="Potlatch 0.10f"/>
    <tag k="name" v="67"/>
    <tag k="railway" v="tram"/>
  </way>
  <way id="29703971" version="1" timestamp="2009-01-05T13:47:40Z" uid="58091" user="Andreas M" changeset="740529">
    <nd ref="123768936"/>
    <nd ref="123768937"/>
    <nd ref="123768939"/>
    <nd ref="123768940"/>
    <nd ref="123768941"/>
    <nd ref="123768943"/>
    <nd ref="123768944"/>
    <nd ref="123768945"/>
    <nd ref="123768946"/>
    <nd ref="123768947"/>
    <nd ref="123768948"/>
    <nd ref="123768949"/>
    <nd ref="123768936"/>
    <tag k="created_by" v="Potlatch 0.10f"/>
    <tag k="name" v="67"/>
    <tag k="oneway" v="yes"/>
    <tag k="railway" v="tram"/>
  </way>
  <way id="29703996" version="14" timestamp="2010-05-11T00:54:01Z" uid="4467" user="Rosscoe" changeset="4664915">
    <nd ref="143668723"/>
    <nd ref="666554629"/>
    <nd ref="666554847"/>
    <nd ref="666554808"/>
    <nd ref="666554803"/>
    <nd ref="330094067"/>
    <nd ref="729337647"/>
    <nd ref="729337626"/>
    <tag k="highway" v="secondary"/>
    <tag k="maxspeed" v="50"/>
    <tag k="name" v="Windebanks Road"/>
    <tag k="source" v="survey"/>
    <tag k="surface" v="paved"/>
  </way>
</osm>
