<?xml version='1.0' encoding='UTF-8'?>
<osm version="0.6" generator="libosmium/2.20.0">
  <way id="29735164" version="3" timestamp="2010-03-27T17:39:06Z" uid="59758" user="rendle" changeset="4248882">
    <nd ref="327610054"/>
    <nd ref="327610595"/>
    <nd ref="327609897"/>
    <tag k="highway" v="residential"/>
  </way>
  <way id="29735164" version="4" timestamp="2010-03-27T17:48:49Z" uid="59758" user="rendle" changeset="4249011">
    <nd ref="327610054"/>
    <nd ref="327610595"/>
    <nd ref="676079352"/>
    <nd ref="327609897"/>
    <tag k="highway" v="residential"/>
  </way>
  <way id="29735287" version="1" timestamp="2009-01-05T21:55:05Z" uid="65847" user="LKK" changeset="740749">
    <nd ref="28470010"/>
    <nd ref="28470006"/>
    <nd ref="67515499"/>
    <nd ref="304678678"/>
    <nd ref="304678673"/>
    <nd ref="28470004"/>
    <nd ref="28470000"/>
    <nd ref="28469998"/>
    <nd ref="53557219"/>
    <nd ref="28469995"/>
    <nd ref="28490023"/>
    <nd ref="304682344"/>
    <nd ref="53497638"/>
    <nd ref="43274459"/>
    <nd ref="304682976"/>
    <nd ref="43274462"/>
    <nd ref="53497666"/>
    <nd ref="53497673"/>
    <nd ref="304671600"/>
    <nd ref="53557290"/>
    <nd ref="53557286"/>
    <nd ref="2387616"/>
    <nd ref="53556877"/>
    <nd ref="53556871"/>
    <nd ref="53556862"/>
    <nd ref="53556857"/>
    <nd ref="53557137"/>
    <nd ref="53556821"/>
    <nd ref="2387631"/>
    <nd ref="2387632"/>
    <nd ref="2387633"/>
    <nd ref="2387627"/>
    <nd ref="268405263"/>
    <nd ref="316701559"/>
    <nd ref="31191770"/>
    <nd ref="266276987"/>
    <nd ref="31191769"/>
    <nd ref="268405220"/>
    <nd ref="268405208"/>
    <nd ref="31191768"/>
    <nd ref="270599276"/>
    <nd ref="270601380"/>
    <nd ref="31191767"/>
    <nd ref="268405416"/>
    <nd ref="31191766"/>
    <nd ref="31191575"/>
    <nd ref="67493241"/>
    <nd ref="268405417"/>
    <nd ref="31191765"/>
    <nd ref="69547452"/>
    <nd ref="69550527"/>
    <nd ref="31191599"/>
    <nd ref="31191600"/>
    <nd ref="31191601"/>
    <nd ref="327612866"/>
    <nd ref="327612910"/>
    <nd ref="67537374"/>
    <nd ref="31191764"/>
    <nd ref="67493221"/>
    <nd ref="67493225"/>
    <nd ref="67493232"/>
    <nd ref="67493237"/>
    <nd ref="67515719"/>
    <nd ref="67515605"/>
    <nd ref="67515617"/>
    <nd ref="327612805"/>
    <nd ref="327612821"/>
    <nd ref="69551875"/>
    <nd ref="67515764"/>
    <nd ref="28470010"/>
    <tag k="landuse" v="residential"/>
  </way>
  <way id="29735386" version="1" timestamp="2009-01-05T21:56:39Z" uid="20587" user="balrog-kun" changeset="739335">
    <nd ref="327614136"/>
    <nd ref="327614151"/>
    <nd ref="327614157"/>
    <nd ref="327614144"/>
    <nd ref="327614136"/>
    <tag k="addr:housenumber" v="68"/>
    <tag k="addr:street" v="Aleja Solidarności"/>
    <tag k="building" v="yes"/>
  </way>
  <way id="29735386" version="2" timestamp="2009-01-11T08:12:59Z" uid="20587" user="balrog-kun" changeset="770017">
    <nd ref="327614136"/>
    <nd ref="327614151"/>
    <nd ref="327614157"/>
    <nd ref="327614144"/>
    <nd ref="327614136"/>
    <tag k="addr:housenumber" v="68"/>
    <tag k="addr:street" v="Aleja Solidarności"/>
    <tag k="building" v="yes"/>
    <tag k="building:levels" v="9"/>
  </way>
  <way id="29735389" version="1" timestamp="2009-01-05T21:56:39Z" uid="20587" user="balrog-kun" changeset="739335">
    <nd ref="327614164"/>
    <nd ref="327614188"/>
    <nd ref="327614171"/>
    <nd ref="327614179"/>
    <nd ref="327614164"/>
    <tag k="addr:housenumber" v="66"/>
    <tag k="addr:street" v="Aleja Solidarności"/>
    <tag k="building" v="yes"/>
  </way>
  <way id="29735389" version="2" timestamp="2009-01-11T08:12:58Z" uid="20587" user="balrog-kun" changeset="770017">
    <nd ref="327614164"/>
    <nd ref="327614188"/>
    <nd ref="327614171"/>
    <nd ref="327614179"/>
    <nd ref="327614164"/>
    <tag k="addr:housenumber" v="66"/>
    <tag k="addr:street" v="Aleja Solidarności"/>
    <tag k="building" v="yes"/>
    <tag k="building:levels" v="9"/>
  </way>
  <way id="29735389" version="3" timestamp="2009-05-14T13:07:01Z" uid="20587" user="balrog-kun" changeset="1187910">
    <nd ref="327614164"/>
    <nd ref="327614188"/>
    <nd ref="327614171"/>
    <nd ref="327614179"/>
    <nd ref="327614164"/>
    <tag k="addr:housenumber" v="66"/>
    <tag k="addr:street" v="Aleja Solidarności"/>
    <tag k="building" v="residential"/>
    <tag k="building:levels" v="9"/>
  </way>
  <way id="29735391" version="1" timestamp="2009-01-05T21:56:40Z" uid="20587" user="balrog-kun" changeset="739335">
    <nd ref="327614222"/>
    <nd ref="327614204"/>
    <nd ref="327614195"/>
    <nd ref="327614212"/>
    <nd ref="327614222"/>
    <tag k="addr:housenumber" v="68"/>
    <tag k="addr:street" v="Aleja Solidarności"/>
    <tag k="building" v="yes"/>
  </way>
  <way id="29735391" version="2" timestamp="2009-01-11T08:12:59Z" uid="20587" user="balrog-kun" changeset="770017">
    <nd ref="327614222"/>
    <nd ref="327614204"/>
    <nd ref="327614195"/>
    <nd ref="327614212"/>
    <nd ref="327614222"/>
    <tag k="addr:housenumber" v="64"/>
    <tag k="addr:street" v="Aleja Solidarności"/>
    <tag k="building" v="yes"/>
    <tag k="building:levels" v="9"/>
  </way>
  <way id="29735391" version="3" timestamp="2009-05-14T13:07:02Z" uid="20587" user="balrog-kun" changeset="1187910">
    <nd ref="327614222"/>
    <nd ref="327614204"/>
    <nd ref="327614195"/>
    <nd ref="327614212"/>
    <nd ref="327614222"/>
    <tag k="addr:housenumber" v="64"/>
    <tag k="addr:street" v="Aleja Solidarności"/>
    <tag k="building" v="residential"/>
    <tag k="building:levels" v="9"/>
  </way>
  <way id="29735393" version="1" timestamp="2009-01-05T21:56:40Z" uid="20587" user="balrog-kun" changeset="739335">
    <nd ref="327614231"/>
    <nd ref="327614243"/>
    <nd ref="327614250"/>
    <nd ref="327614237"/>
    <nd ref="327614231"/>
    <tag k="addr:housenumber" v="64"/>
    <tag k="addr:street" v="Aleja Solidarności"/>
    <tag k="building" v="yes"/>
  </way>
  <way id="29735393" version="2" timestamp="2009-01-11T08:13:00Z" uid="20587" user="balrog-kun" changeset="770017">
    <nd ref="327614231"/>
    <nd ref="327614243"/>
    <nd ref="327614250"/>
    <nd ref="327614237"/>
    <nd ref="327614231"/>
    <tag k="addr:housenumber" v="62"/>
    <tag k="addr:street" v="Aleja Solidarności"/>
    <tag k="building" v="yes"/>
    <tag k="building:levels" v="9"/>
  </way>
  <way id="29735393" version="3" timestamp="2009-01-28T01:18:58Z" uid="20587" user="balrog-kun" changeset="847025">
    <nd ref="327614231"/>
    <nd ref="327614243"/>
    <nd ref="327614250"/>
    <nd ref="327614237"/>
    <nd ref="327614231"/>
    <tag k="addr:housenumber" v="60a"/>
    <tag k="addr:street" v="Aleja Solidarności"/>
    <tag k="building" v="yes"/>
    <tag k="building:levels" v="9"/>
  </way>
  <way id="29735393" version="4" timestamp="2009-05-14T13:07:02Z" uid="20587" user="balrog-kun" changeset="1187910">
    <nd ref="327614231"/>
    <nd ref="327614243"/>
    <nd ref="327614250"/>
    <nd ref="327614237"/>
    <nd ref="327614231"/>
    <tag k="addr:housenumber" v="60a"/>
    <tag k="addr:street" v="Aleja Solidarności"/>
    <tag k="building" v="residential"/>
    <tag k="building:levels" v="9"/>
  </way>
  <way id="29735393" version="5" timestamp="2011-01-24T13:48:30Z" uid="20587" user="balrog-kun" changeset="7073235">
    <nd ref="327614231"/>
    <nd ref="327614243"/>
    <nd ref="327614250"/>
    <nd ref="327614237"/>
    <nd ref="327614231"/>
    <tag k="addr:housenumber" v="60b"/>
    <tag k="addr:street" v="Aleja Solidarności"/>
    <tag k="building" v="residential"/>
    <tag k="building:levels" v="9"/>
  </way>
  <way id="29735394" version="1" timestamp="2009-01-05T21:56:41Z" uid="20587" user="balrog-kun" changeset="739335">
    <nd ref="327614256"/>
    <nd ref="327614265"/>
    <nd ref="327614273"/>
    <nd ref="327614280"/>
    <nd ref="327614256"/>
    <tag k="addr:housenumber" v="62"/>
    <tag k="addr:street" v="Aleja Solidarności"/>
    <tag k="building" v="yes"/>
  </way>
  <way id="29735394" version="2" timestamp="2009-01-06T13:14:30Z" uid="20587" user="balrog-kun" changeset="745301">
    <nd ref="327614256"/>
    <nd ref="327614265"/>
    <nd ref="327614273"/>
    <nd ref="327614280"/>
    <nd ref="327614256"/>
    <tag k="addr:housenumber" v="62"/>
    <tag k="addr:street" v="Aleja Solidarności"/>
    <tag k="building" v="yes"/>
    <tag k="building:levels" v="3"/>
    <tag k="name" v="Pałac Przebendowskich"/>
    <tag k="wikipedia:pl" v="Pałac Przebendowskich w Warszawie"/>
  </way>
  <way id="29735394" version="3" timestamp="2009-05-24T15:58:28Z" uid="20587" user="balrog-kun" changeset="1307609">
    <nd ref="327614256"/>
    <nd ref="327614265"/>
    <nd ref="327614273"/>
    <nd ref="327614280"/>
    <nd ref="327614256"/>
    <tag k="addr:housenumber" v="62"/>
    <tag k="addr:street" v="Aleja Solidarności"/>
    <tag k="building" v="yes"/>
    <tag k="building:levels" v="3"/>
    <tag k="name" v="Pałac Przebendowskich-Radziwiłłów"/>
    <tag k="wikipedia:pl" v="Pałac Przebendowskich w Warszawie"/>
  </way>
  <way id="29735394" version="4" timestamp="2011-01-24T13:48:18Z" uid="20587" user="balrog-kun" changeset="7073235">
    <nd ref="327614256"/>
    <nd ref="327614265"/>
    <nd ref="1118690375"/>
    <nd ref="1118690507"/>
    <nd ref="1118690552"/>
    <nd ref="1118690610"/>
    <nd ref="1118690551"/>
    <nd ref="1118690320"/>
    <nd ref="1118690370"/>
    <nd ref="1118690480"/>
    <nd ref="1118690215"/>
    <nd ref="1118690264"/>
    <nd ref="327614273"/>
    <nd ref="327614280"/>
    <nd ref="1118690553"/>
    <nd ref="1118690313"/>
    <nd ref="1118690463"/>
    <nd ref="1118690483"/>
    <nd ref="327614256"/>
    <tag k="addr:housenumber" v="62"/>
    <tag k="addr:street" v="Aleja Solidarności"/>
    <tag k="building" v="yes"/>
    <tag k="building:levels" v="3"/>
    <tag k="name" v="Pałac Przebendowskich-Radziwiłłów"/>
    <tag k="wikipedia:pl" v="Pałac Przebendowskich w Warszawie"/>
  </way>
  <way id="29735397" version="1" timestamp="2009-01-05T21:56:42Z" uid="20587" user="balrog-kun" changeset="739335">
    <nd ref="327614317"/>
    <nd ref="327614326"/>
    <nd ref="327614311"/>
    <nd ref="327614331"/>
    <nd ref="327614317"/>
    <tag k="addr:housenumber" v="60a"/>
    <tag k="addr:street" v="Aleja Solidarności"/>
    <tag k="building" v="yes"/>
  </way>
  <way id="29735397" version="2" timestamp="2009-01-11T08:13:00Z" uid="20587" user="balrog-kun" changeset="770017">
    <nd ref="327614317"/>
    <nd ref="327614326"/>
    <nd ref="327614311"/>
    <nd ref="327614331"/>
    <nd ref="327614317"/>
    <tag k="addr:housenumber" v="60a"/>
    <tag k="addr:street" v="Aleja Solidarności"/>
    <tag k="building" v="yes"/>
    <tag k="building:levels" v="9"/>
  </way>
  <way id="29735397" version="3" timestamp="2009-01-28T01:18:58Z" uid="20587" user="balrog-kun" changeset="847025">
    <nd ref="327614317"/>
    <nd ref="327614326"/>
    <nd ref="327614311"/>
    <nd ref="327614331"/>
    <nd ref="327614317"/>
    <tag k="addr:housenumber" v="60"/>
    <tag k="addr:street" v="Aleja Solidarności"/>
    <tag k="building" v="yes"/>
    <tag k="building:levels" v="9"/>
  </way>
  <way id="29735397" version="4" timestamp="2009-05-14T13:07:01Z" uid="20587" user="balrog-kun" changeset="1187910">
    <nd ref="327614317"/>
    <nd ref="327614326"/>
    <nd ref="327614311"/>
    <nd ref="327614331"/>
    <nd ref="327614317"/>
    <tag k="addr:housenumber" v="60"/>
    <tag k="addr:street" v="Aleja Solidarności"/>
    <tag k="building" v="residential"/>
    <tag k="building:levels" v="9"/>
  </way>
  <way id="29735398" version="1" timestamp="2009-01-05T21:56:42Z" uid="20587" user="balrog-kun" changeset="739335">
    <nd ref="327614358"/>
    <nd ref="327614344"/>
    <nd ref="327614351"/>
    <nd ref="327614338"/>
    <nd ref="327614358"/>
    <tag k="addr:housenumber" v="60"/>
    <tag k="addr:street" v="Aleja Solidarności"/>
    <tag k="building" v="yes"/>
  </way>
  <way id="29735398" version="2" timestamp="2009-01-28T01:18:57Z" uid="20587" user="balrog-kun" changeset="847025">
    <nd ref="327614358"/>
    <nd ref="327614344"/>
    <nd ref="327614351"/>
    <nd ref="327614338"/>
    <nd ref="327614358"/>
    <tag k="addr:housenumber" v="10"/>
    <tag k="addr:street" v="Leona Schillera"/>
    <tag k="building" v="yes"/>
  </way>
  <way id="29735399" version="1" timestamp="2009-01-05T21:56:42Z" uid="20587" user="balrog-kun" changeset="739335">
    <nd ref="327614363"/>
    <nd ref="327614368"/>
    <nd ref="327614381"/>
    <nd ref="327614396"/>
    <nd ref="327614411"/>
    <nd ref="327614404"/>
    <nd ref="327614388"/>
    <nd ref="327614375"/>
    <nd ref="327614363"/>
    <tag k="addr:housenumber" v="58"/>
    <tag k="addr:postcode" v="00-240"/>
    <tag k="addr:street" v="Aleja Solidarności"/>
    <tag k="building" v="yes"/>
    <tag k="name" v="Sąd Okręgowy"/>
  </way>
  <way id="29735399" version="2" timestamp="2009-01-11T08:12:59Z" uid="20587" user="balrog-kun" changeset="770017">
    <nd ref="327614363"/>
    <nd ref="327614368"/>
    <nd ref="327614381"/>
    <nd ref="327614396"/>
    <nd ref="327614411"/>
    <nd ref="327614404"/>
    <nd ref="327614388"/>
    <nd ref="327614375"/>
    <nd ref="327614363"/>
    <tag k="addr:housenumber" v="58"/>
    <tag k="addr:postcode" v="00-240"/>
    <tag k="addr:street" v="Aleja Solidarności"/>
    <tag k="building" v="yes"/>
    <tag k="building:levels" v="3"/>
    <tag k="name" v="Sąd Okręgowy"/>
  </way>
  <way id="29735399" version="3" timestamp="2009-05-24T16:22:02Z" uid="20587" user="balrog-kun" changeset="1307977">
    <nd ref="327614363"/>
    <nd ref="327614368"/>
    <nd ref="327614381"/>
    <nd ref="327614396"/>
    <nd ref="327614411"/>
    <nd ref="327614404"/>
    <nd ref="327614388"/>
    <nd ref="327614375"/>
    <nd ref="327614363"/>
    <tag k="addr:housenumber" v="58"/>
    <tag k="addr:postcode" v="00-240"/>
    <tag k="addr:street" v="Aleja Solidarności"/>
    <tag k="building" v="yes"/>
    <tag k="building:levels" v="3"/>
    <tag k="name" v="Sąd Okręgowy, Wydział Ksiąg Wieczystych"/>
  </way>
  <way id="29735400" version="1" timestamp="2009-01-05T21:56:43Z" uid="20587" user="balrog-kun" changeset="739335">
    <nd ref="327614430"/>
    <nd ref="327614448"/>
    <nd ref="327614457"/>
    <nd ref="327614440"/>
    <nd ref="327614509"/>
    <nd ref="327614524"/>
    <nd ref="327614468"/>
    <nd ref="327614517"/>
    <nd ref="327614530"/>
    <nd ref="327614475"/>
    <nd ref="327614485"/>
    <nd ref="327614494"/>
    <nd ref="327614500"/>
    <nd ref="327614430"/>
    <tag k="addr:housenumber" v="3/5"/>
    <tag k="addr:street" v="Plac Bankowy"/>
    <tag k="building" v="yes"/>
  </way>
  <way id="29735400" version="2" timestamp="2009-04-03T17:50:48Z" uid="20587" user="balrog-kun" changeset="134852">
    <nd ref="327614430"/>
    <nd ref="327614448"/>
    <nd ref="327614457"/>
    <nd ref="327614440"/>
    <nd ref="327614509"/>
    <nd ref="327614524"/>
    <nd ref="327614468"/>
    <nd ref="327614517"/>
    <nd ref="327614530"/>
    <nd ref="327614475"/>
    <nd ref="327614485"/>
    <nd ref="327614494"/>
    <nd ref="327614500"/>
    <nd ref="327614430"/>
    <tag k="addr:housenumber" v="3/5"/>
    <tag k="addr:street" v="Plac Bankowy"/>
    <tag k="building" v="yes"/>
    <tag k="name" v="Pałac Corazziego"/>
  </way>
  <way id="29735401" version="1" timestamp="2009-01-05T21:56:43Z" uid="20587" user="balrog-kun" changeset="739335">
    <nd ref="327614544"/>
    <nd ref="327614557"/>
    <nd ref="327614574"/>
    <nd ref="327614592"/>
    <nd ref="327614602"/>
    <nd ref="327614582"/>
    <nd ref="327614565"/>
    <nd ref="327614552"/>
    <nd ref="327614544"/>
    <tag k="addr:housenumber" v="115"/>
    <tag k="addr:postcode" v="00-102"/>
    <tag k="addr:street" v="Marszałkowska"/>
    <tag k="building" v="yes"/>
  </way>
  <way id="29735829" version="1" timestamp="2009-01-05T22:04:37Z" uid="20587" user="balrog-kun" changeset="739335">
    <nd ref="327626094"/>
    <nd ref="327626112"/>
    <nd ref="327626118"/>
    <nd ref="327626104"/>
    <nd ref="327626094"/>
    <tag k="addr:housenumber" v="3"/>
    <tag k="addr:street" v="Wolnej Wszechnicy"/>
    <tag k="building" v="yes"/>
  </way>
  <way id="29735831" version="1" timestamp="2009-01-05T22:04:38Z" uid="20587" user="balrog-kun" changeset="739335">
    <nd ref="327626125"/>
    <nd ref="327626134"/>
    <tag k="highway" v="service"/>
  </way>
  <way id="29735832" version="1" timestamp="2009-01-05T22:04:39Z" uid="20587" user="balrog-kun" changeset="739335">
    <nd ref="327626199"/>
    <nd ref="327626191"/>
    <nd ref="327626165"/>
    <nd ref="327626150"/>
    <nd ref="327626143"/>
    <nd ref="327626157"/>
    <nd ref="327626173"/>
    <nd ref="327626180"/>
    <nd ref="327626186"/>
    <nd ref="327626199"/>
    <tag k="addr:housenumber" v="5"/>
    <tag k="addr:street" v="Wolnej Wszechnicy"/>
    <tag k="building" v="yes"/>
  </way>
  <way id="29735834" version="1" timestamp="2009-01-05T22:04:40Z" uid="20587" user="balrog-kun" changeset="739335">
    <nd ref="327626206"/>
    <nd ref="327626214"/>
    <nd ref="327626199"/>
    <nd ref="327626186"/>
    <nd ref="327626206"/>
    <tag k="addr:housenumber" v="2"/>
    <tag k="building" v="yes"/>
    <tag k="landuse" v="military"/>
  </way>
  <way id="29735834" version="2" timestamp="2009-04-15T11:06:15Z" uid="20587" user="balrog-kun" changeset="551593">
    <nd ref="327626206"/>
    <nd ref="327626214"/>
    <nd ref="327626199"/>
    <nd ref="327626186"/>
    <nd ref="327626206"/>
    <tag k="addr:housenumber" v="2"/>
    <tag k="building" v="yes"/>
    <tag k="landuse" v="military"/>
    <tag k="name" v="Prawosławny Ordynariat Polowy Wojska Polskiego"/>
    <tag k="wikipedia" v="pl:Prawosławny Ordynariat Polowy Wojska Polskiego"/>
  </way>
  <way id="29735984" version="4" timestamp="2009-02-01T17:46:29Z" uid="6975" user="ulfl" changeset="27333">
    <nd ref="327628449"/>
    <nd ref="327626845"/>
    <nd ref="327628466"/>
    <nd ref="327626538"/>
    <nd ref="327628480"/>
    <nd ref="327628449"/>
    <tag k="highway" v="residential"/>
    <tag k="junction" v="roundabout"/>
  </way>
</osm>
