<?xml version='1.0' encoding='UTF-8'?>
<osm version="0.6" generator="libosmium/2.20.0">
  <way id="29884192" version="1" timestamp="2009-01-06T17:19:11Z" uid="43967" user="railsnail" changeset="748125">
    <nd ref="270732621"/>
    <nd ref="206376888"/>
    <tag k="created_by" v="Potlatch 0.10f"/>
    <tag k="highway" v="residential"/>
    <tag k="name" v="Fanny-Wibmer-Pedit-Straße; Josef-Schraffl-Gasse"/>
  </way>
  <way id="29884192" version="2" timestamp="2009-01-06T17:20:03Z" uid="43967" user="railsnail" changeset="748125"/>
  <way id="29884345" version="1" timestamp="2009-01-06T17:20:02Z" uid="43967" user="railsnail" changeset="748125">
    <nd ref="270732621"/>
    <nd ref="206376888"/>
    <tag k="created_by" v="Potlatch 0.10f"/>
    <tag k="highway" v="residential"/>
    <tag k="name" v="Fanny-Wibmer-Pedit-Straße; Josef-Schraffl-Gasse"/>
  </way>
  <way id="29884345" version="2" timestamp="2009-01-06T17:20:21Z" uid="43967" user="railsnail" changeset="748125">
    <nd ref="270732534"/>
    <nd ref="270732621"/>
    <nd ref="206376888"/>
    <tag k="created_by" v="Potlatch 0.10f"/>
    <tag k="highway" v="residential"/>
    <tag k="name" v="Vinzenz-Goller-Straße"/>
  </way>
  <way id="29884345" version="3" timestamp="2009-01-06T17:20:57Z" uid="43967" user="railsnail" changeset="748125">
    <nd ref="270732534"/>
    <nd ref="270732621"/>
    <nd ref="206376888"/>
    <tag k="addr:postcode" v="9900"/>
    <tag k="at:maxspeed" v="Ortsgebiet"/>
    <tag k="created_by" v="Potlatch 0.10f"/>
    <tag k="highway" v="residential"/>
    <tag k="is_in" v="...,Bezirk Lienz,Tirol,Österreich,Europa"/>
    <tag k="name" v="Vinzenz-Goller-Straße"/>
    <tag k="note" v="imported from plan.at; (C)=CC-by-sa or oDBL; feel free to change if necessary"/>
    <tag k="plan_at:acad_id" v="lz361"/>
    <tag k="source" v="plan.at 2008"/>
    <tag k="uploaded_by" v="Wolfgang W. Wasserburger"/>
  </way>
  <way id="29884345" version="4" timestamp="2010-05-12T12:37:31Z" uid="43967" user="railsnail" changeset="4676850">
    <nd ref="270732534"/>
    <nd ref="270732621"/>
    <nd ref="730793267"/>
    <nd ref="206376888"/>
    <tag k="addr:postcode" v="9900"/>
    <tag k="at:maxspeed" v="Ortsgebiet"/>
    <tag k="highway" v="residential"/>
    <tag k="is_in" v="...,Bezirk Lienz,Tirol,Österreich,Europa"/>
    <tag k="name" v="Vinzenz-Goller-Straße"/>
    <tag k="note" v="imported from plan.at; (C)=CC-by-sa or oDBL; feel free to change if necessary"/>
    <tag k="plan_at:acad_id" v="lz361"/>
    <tag k="source" v="plan.at 2008"/>
    <tag k="uploaded_by" v="Wolfgang W. Wasserburger"/>
  </way>
  <way id="29884937" version="1" timestamp="2009-01-06T17:22:54Z" uid="43967" user="railsnail" changeset="748125">
    <nd ref="271734593"/>
    <nd ref="271734594"/>
    <nd ref="271281104"/>
    <nd ref="271281103"/>
    <nd ref="271281102"/>
    <nd ref="271281101"/>
    <nd ref="271281100"/>
    <nd ref="206376888"/>
    <tag k="created_by" v="Potlatch 0.10f"/>
    <tag k="highway" v="residential"/>
    <tag k="name" v="Ignaz-Mitterer-Straße"/>
  </way>
  <way id="29884937" version="2" timestamp="2009-01-09T20:01:00Z" uid="43967" user="railsnail" changeset="763383">
    <nd ref="271734593"/>
    <nd ref="271734594"/>
    <nd ref="330628505"/>
    <nd ref="271281104"/>
    <nd ref="271281103"/>
    <nd ref="271281102"/>
    <nd ref="271281101"/>
    <nd ref="271281100"/>
    <nd ref="206376888"/>
    <tag k="created_by" v="Potlatch 0.10f"/>
    <tag k="highway" v="residential"/>
    <tag k="name" v="Ignaz-Mitterer-Straße"/>
  </way>
  <way id="29884937" version="3" timestamp="2009-03-18T19:16:20Z" uid="43967" user="railsnail" changeset="828760">
    <nd ref="271734593"/>
    <nd ref="271734594"/>
    <nd ref="330628505"/>
    <nd ref="271281104"/>
    <nd ref="271281103"/>
    <nd ref="271281102"/>
    <nd ref="271281101"/>
    <nd ref="271281100"/>
    <nd ref="206376888"/>
    <tag k="addr:postcode" v="9900"/>
    <tag k="at:maxspeed" v="Ortsgebiet"/>
    <tag k="created_by" v="Potlatch 0.10f"/>
    <tag k="fixme" v="check import"/>
    <tag k="highway" v="plan.at:lz:residential"/>
    <tag k="is_in" v="...,Bezirk Lienz,Tirol,Österreich,Europa"/>
    <tag k="name" v="Ignaz-Mitterer-Straße"/>
    <tag k="note" v="imported from plan.at; (C)=CC-by-sa or oDBL; feel free to change if necessary"/>
    <tag k="plan_at:acad_id" v="lzDC"/>
    <tag k="source" v="plan.at 2008"/>
    <tag k="uploaded_by" v="Wolfgang W. Wasserburger"/>
  </way>
  <way id="29884937" version="4" timestamp="2009-03-18T19:16:36Z" uid="43967" user="railsnail" changeset="828760">
    <nd ref="271734593"/>
    <nd ref="271734594"/>
    <nd ref="330628505"/>
    <nd ref="271281104"/>
    <nd ref="271281103"/>
    <nd ref="271281102"/>
    <nd ref="271281101"/>
    <nd ref="271281100"/>
    <nd ref="206376888"/>
    <tag k="addr:postcode" v="9900"/>
    <tag k="at:maxspeed" v="Ortsgebiet"/>
    <tag k="created_by" v="Potlatch 0.10f"/>
    <tag k="fixme" v="check import"/>
    <tag k="highway" v="residential"/>
    <tag k="is_in" v="...,Bezirk Lienz,Tirol,Österreich,Europa"/>
    <tag k="name" v="Ignaz-Mitterer-Straße"/>
    <tag k="note" v="imported from plan.at; (C)=CC-by-sa or oDBL; feel free to change if necessary"/>
    <tag k="plan_at:acad_id" v="lzDC"/>
    <tag k="source" v="plan.at 2008"/>
    <tag k="uploaded_by" v="Wolfgang W. Wasserburger"/>
  </way>
  <way id="29884937" version="5" timestamp="2009-03-18T19:16:51Z" uid="43967" user="railsnail" changeset="828760">
    <nd ref="271734593"/>
    <nd ref="271734594"/>
    <tag k="addr:postcode" v="9900"/>
    <tag k="at:maxspeed" v="Ortsgebiet"/>
    <tag k="created_by" v="Potlatch 0.10f"/>
    <tag k="fixme" v="check import"/>
    <tag k="highway" v="residential"/>
    <tag k="is_in" v="...,Bezirk Lienz,Tirol,Österreich,Europa"/>
    <tag k="name" v="Ignaz-Mitterer-Straße"/>
    <tag k="note" v="imported from plan.at; (C)=CC-by-sa or oDBL; feel free to change if necessary"/>
    <tag k="plan_at:acad_id" v="lzDC"/>
    <tag k="source" v="plan.at 2008"/>
    <tag k="uploaded_by" v="Wolfgang W. Wasserburger"/>
  </way>
  <way id="29884937" version="6" timestamp="2009-03-18T19:17:01Z" uid="43967" user="railsnail" changeset="828760">
    <nd ref="271734591"/>
    <nd ref="271734592"/>
    <nd ref="271734593"/>
    <nd ref="271734594"/>
    <tag k="addr:postcode" v="9900"/>
    <tag k="at:maxspeed" v="Ortsgebiet"/>
    <tag k="created_by" v="Potlatch 0.10f"/>
    <tag k="fixme" v="check import"/>
    <tag k="highway" v="residential"/>
    <tag k="is_in" v="...,Bezirk Lienz,Tirol,Österreich,Europa"/>
    <tag k="name" v="Schillerstraße"/>
    <tag k="note" v="imported from plan.at; (C)=CC-by-sa or oDBL; feel free to change if necessary"/>
    <tag k="plan_at:acad_id" v="lz31F"/>
    <tag k="source" v="plan.at 2008"/>
    <tag k="uploaded_by" v="Wolfgang W. Wasserburger"/>
  </way>
  <way id="29884977" version="2" timestamp="2011-01-04T16:16:16Z" uid="9581" user="Lobelt" changeset="6862399">
    <nd ref="329365530"/>
    <nd ref="325635744"/>
    <tag k="highway" v="footway"/>
  </way>
</osm>
