<?xml version='1.0' encoding='UTF-8'?>
<osm version="0.6" generator="libosmium/2.20.0">
  <way id="29905428" version="3" timestamp="2010-03-18T05:01:46Z" uid="74617" user="JohnSmith" changeset="4158637">
    <nd ref="329583853"/>
    <nd ref="329584359"/>
    <nd ref="329584361"/>
    <tag k="highway" v="residential"/>
    <tag k="name" v="Gem Place"/>
  </way>
  <way id="29905428" version="4" timestamp="2010-03-18T11:15:11Z" uid="74617" user="JohnSmith" changeset="4160350">
    <nd ref="329583853"/>
    <nd ref="329584359"/>
    <nd ref="668716957"/>
    <nd ref="329584361"/>
    <tag k="highway" v="residential"/>
    <tag k="maxspeed" v="50"/>
    <tag k="name" v="Gem Place"/>
    <tag k="source" v="nearmap"/>
  </way>
  <way id="29905684" version="4" timestamp="2010-07-09T06:11:34Z" uid="74617" user="JohnSmith" changeset="5171134">
    <nd ref="329584742"/>
    <nd ref="330095615"/>
    <tag k="highway" v="residential"/>
    <tag k="maxspeed" v="50"/>
    <tag k="maxspeed:source" v="default residential speed limit in Australia"/>
    <tag k="name" v="Kingsview Close"/>
  </way>
  <way id="29905787" version="4" timestamp="2010-07-09T06:07:39Z" uid="74617" user="JohnSmith" changeset="5171134">
    <nd ref="329585064"/>
    <nd ref="330095714"/>
    <tag k="highway" v="residential"/>
    <tag k="maxspeed" v="50"/>
    <tag k="maxspeed:source" v="default residential speed limit in Australia"/>
    <tag k="name" v="Silton Walk"/>
  </way>
  <way id="29905939" version="4" timestamp="2010-06-01T08:11:50Z" uid="4467" user="Rosscoe" changeset="4872544">
    <nd ref="330095816"/>
    <nd ref="329585431"/>
    <nd ref="329585435"/>
    <nd ref="329585437"/>
    <nd ref="666559787"/>
    <nd ref="329585441"/>
    <nd ref="329585444"/>
    <tag k="highway" v="residential"/>
    <tag k="name" v="Kevin Court"/>
  </way>
  <way id="29905939" version="5" timestamp="2010-07-09T06:05:16Z" uid="74617" user="JohnSmith" changeset="5171134">
    <nd ref="330095816"/>
    <nd ref="329585431"/>
    <nd ref="329585435"/>
    <nd ref="329585437"/>
    <nd ref="666559787"/>
    <nd ref="329585441"/>
    <nd ref="329585444"/>
    <tag k="highway" v="residential"/>
    <tag k="maxspeed" v="50"/>
    <tag k="maxspeed:source" v="default residential speed limit in Australia"/>
    <tag k="name" v="Kevin Court"/>
  </way>
</osm>
