<?xml version='1.0' encoding='UTF-8'?>
<osm version="0.6" generator="libosmium/2.20.0">
  <way id="29920093" version="3" timestamp="2009-08-25T20:08:34Z" uid="23543" user="jkjk" changeset="2261211">
    <nd ref="329737943"/>
    <nd ref="329737947"/>
    <nd ref="329737952"/>
    <nd ref="329737958"/>
    <nd ref="329737963"/>
    <nd ref="329737968"/>
    <nd ref="329737973"/>
    <nd ref="339915795"/>
    <nd ref="339915798"/>
    <nd ref="339915800"/>
    <nd ref="473834533"/>
    <tag k="waterway" v="stream"/>
  </way>
  <way id="29920106" version="3" timestamp="2010-03-28T00:44:42Z" uid="20587" user="balrog-kun" changeset="4250871">
    <nd ref="62392283"/>
    <nd ref="62290095"/>
    <nd ref="62338509"/>
    <nd ref="62392288"/>
    <nd ref="62392290"/>
    <nd ref="62244525"/>
    <nd ref="62245188"/>
    <nd ref="62392292"/>
    <nd ref="62392295"/>
    <nd ref="62392297"/>
    <nd ref="62392299"/>
    <nd ref="62288883"/>
    <nd ref="62251447"/>
    <nd ref="62392302"/>
    <nd ref="62251517"/>
    <nd ref="62250947"/>
    <nd ref="62392304"/>
    <nd ref="62392306"/>
    <tag k="created_by" v="Potlatch 0.10f"/>
    <tag k="highway" v="secondary"/>
    <tag k="name" v="Allendale Road"/>
    <tag k="tiger:cfcc" v="A41"/>
    <tag k="tiger:county" v="Solano, CA"/>
    <tag k="tiger:name_base" v="Allendale"/>
    <tag k="tiger:name_type" v="Rd"/>
    <tag k="tiger:reviewed" v="no"/>
    <tag k="tiger:separated" v="no"/>
    <tag k="tiger:source" v="tiger_import_dch_v0.6_20070809"/>
    <tag k="tiger:tlid" v="192609900:192610549:192584859:192584860:192610550:192541827:192610524:192610525:192584863:192584864:192560724:192560725:192541818:192584841"/>
    <tag k="tiger:zip_left" v="95688"/>
    <tag k="tiger:zip_right" v="95688"/>
  </way>
  <way id="29920108" version="1" timestamp="2009-01-06T23:49:28Z" uid="30201" user="rrankin" changeset="749929">
    <nd ref="313865683"/>
    <nd ref="329739330"/>
    <nd ref="329739352"/>
    <nd ref="329739373"/>
    <tag k="highway" v="unclassified"/>
    <tag k="name" v="Cook Road"/>
    <tag k="source" v="yahoo"/>
  </way>
  <way id="29920109" version="1" timestamp="2009-01-06T23:49:29Z" uid="30201" user="rrankin" changeset="749929">
    <nd ref="280033746"/>
    <nd ref="280033747"/>
    <nd ref="280033748"/>
    <nd ref="280033749"/>
    <nd ref="313865805"/>
    <nd ref="313865845"/>
    <nd ref="313865680"/>
    <nd ref="313865833"/>
    <nd ref="313865769"/>
    <nd ref="280033750"/>
    <nd ref="280033751"/>
    <nd ref="280033752"/>
    <nd ref="313860425"/>
    <nd ref="280033753"/>
    <nd ref="280033754"/>
    <nd ref="280033755"/>
    <tag k="highway" v="residential"/>
    <tag k="name" v="Daniels Road"/>
    <tag k="source" v="yahoo"/>
  </way>
  <way id="29920109" version="2" timestamp="2010-07-07T23:00:51Z" uid="74617" user="JohnSmith" changeset="5162525">
    <nd ref="280033746"/>
    <nd ref="280033747"/>
    <nd ref="280033748"/>
    <nd ref="280033749"/>
    <nd ref="313865805"/>
    <nd ref="313865845"/>
    <nd ref="313865680"/>
    <nd ref="313865833"/>
    <nd ref="313865769"/>
    <nd ref="280033750"/>
    <nd ref="280033751"/>
    <nd ref="280033752"/>
    <nd ref="313860425"/>
    <nd ref="280033753"/>
    <nd ref="280033754"/>
    <nd ref="280033755"/>
    <tag k="highway" v="residential"/>
    <tag k="maxspeed" v="50"/>
    <tag k="maxspeed:source" v="default residential speed limit in Australia"/>
    <tag k="name" v="Daniels Road"/>
    <tag k="source" v="yahoo"/>
  </way>
  <way id="29920109" version="3" timestamp="2010-12-30T13:56:00Z" uid="4467" user="Rosscoe" changeset="6809642">
    <nd ref="280033746"/>
    <nd ref="280033747"/>
    <nd ref="280033748"/>
    <nd ref="280033749"/>
    <nd ref="313865805"/>
    <nd ref="313865845"/>
    <nd ref="313865680"/>
    <nd ref="1072864529"/>
    <tag k="highway" v="tertiary"/>
    <tag k="maxspeed" v="50"/>
    <tag k="name" v="Daniels Road"/>
    <tag k="source" v="yahoo"/>
    <tag k="source:maxspeed" v="default residential speed limit in Australia"/>
  </way>
  <way id="29920124" version="1" timestamp="2009-01-06T23:49:38Z" uid="30201" user="rrankin" changeset="749929">
    <nd ref="329739391"/>
    <nd ref="329739407"/>
    <tag k="highway" v="unclassified"/>
    <tag k="name" v="Bidwill Square"/>
    <tag k="source" v="yahoo"/>
  </way>
  <way id="29920126" version="1" timestamp="2009-01-06T23:49:39Z" uid="30201" user="rrankin" changeset="749929">
    <nd ref="329739424"/>
    <nd ref="329739448"/>
    <nd ref="329739470"/>
    <tag k="highway" v="residential"/>
    <tag k="name" v="Fitzroy Way"/>
    <tag k="source" v="yahoo"/>
  </way>
  <way id="29920126" version="2" timestamp="2010-07-07T23:00:31Z" uid="74617" user="JohnSmith" changeset="5162525">
    <nd ref="329739424"/>
    <nd ref="329739448"/>
    <nd ref="329739470"/>
    <tag k="highway" v="residential"/>
    <tag k="maxspeed" v="50"/>
    <tag k="maxspeed:source" v="default residential speed limit in Australia"/>
    <tag k="name" v="Fitzroy Way"/>
    <tag k="source" v="yahoo"/>
  </way>
  <way id="29920127" version="1" timestamp="2009-01-06T23:49:40Z" uid="30201" user="rrankin" changeset="749929">
    <nd ref="329739486"/>
    <nd ref="329739470"/>
    <nd ref="329739504"/>
    <tag k="highway" v="residential"/>
    <tag k="name" v="Fitzroy Way"/>
    <tag k="source" v="yahoo"/>
  </way>
  <way id="29920127" version="2" timestamp="2010-07-07T23:03:34Z" uid="74617" user="JohnSmith" changeset="5162525">
    <nd ref="329739486"/>
    <nd ref="329739470"/>
    <nd ref="329739504"/>
    <tag k="highway" v="residential"/>
    <tag k="maxspeed" v="50"/>
    <tag k="maxspeed:source" v="default residential speed limit in Australia"/>
    <tag k="name" v="Fitzroy Way"/>
    <tag k="source" v="yahoo"/>
  </way>
  <way id="29920129" version="1" timestamp="2009-01-06T23:49:40Z" uid="30201" user="rrankin" changeset="749929">
    <nd ref="329739528"/>
    <nd ref="329739542"/>
    <nd ref="329739555"/>
    <tag k="highway" v="residential"/>
    <tag k="name" v="Camden Way"/>
    <tag k="source" v="yahoo"/>
  </way>
  <way id="29920129" version="2" timestamp="2010-07-07T23:03:29Z" uid="74617" user="JohnSmith" changeset="5162525">
    <nd ref="329739528"/>
    <nd ref="329739542"/>
    <nd ref="329739555"/>
    <tag k="highway" v="residential"/>
    <tag k="maxspeed" v="50"/>
    <tag k="maxspeed:source" v="default residential speed limit in Australia"/>
    <tag k="name" v="Camden Way"/>
    <tag k="source" v="yahoo"/>
  </way>
  <way id="29920130" version="1" timestamp="2009-01-06T23:49:41Z" uid="30201" user="rrankin" changeset="749929">
    <nd ref="313908952"/>
    <nd ref="329739569"/>
    <tag k="highway" v="residential"/>
    <tag k="name" v="Rose Court"/>
    <tag k="source" v="yahoo"/>
  </way>
  <way id="29920130" version="2" timestamp="2010-07-07T23:01:26Z" uid="74617" user="JohnSmith" changeset="5162525">
    <nd ref="313908952"/>
    <nd ref="329739569"/>
    <tag k="highway" v="residential"/>
    <tag k="maxspeed" v="50"/>
    <tag k="maxspeed:source" v="default residential speed limit in Australia"/>
    <tag k="name" v="Rose Court"/>
    <tag k="source" v="yahoo"/>
  </way>
  <way id="29920131" version="1" timestamp="2009-01-06T23:49:42Z" uid="30201" user="rrankin" changeset="749929">
    <nd ref="313908886"/>
    <nd ref="313908888"/>
    <nd ref="313908889"/>
    <nd ref="313908859"/>
    <tag k="highway" v="residential"/>
    <tag k="name" v="Cork Place"/>
    <tag k="source" v="yahoo_imagery"/>
  </way>
  <way id="29920131" version="2" timestamp="2010-07-07T23:04:42Z" uid="74617" user="JohnSmith" changeset="5162525">
    <nd ref="313908886"/>
    <nd ref="313908888"/>
    <nd ref="313908889"/>
    <nd ref="313908859"/>
    <tag k="highway" v="residential"/>
    <tag k="maxspeed" v="50"/>
    <tag k="maxspeed:source" v="default residential speed limit in Australia"/>
    <tag k="name" v="Cork Place"/>
    <tag k="source" v="yahoo_imagery"/>
  </way>
  <way id="29920132" version="1" timestamp="2009-01-06T23:49:43Z" uid="30201" user="rrankin" changeset="749929">
    <nd ref="329739578"/>
    <nd ref="329739593"/>
    <tag k="highway" v="residential"/>
    <tag k="name" v="Wiggles Way"/>
    <tag k="source" v="yahoo"/>
  </way>
  <way id="29920132" version="2" timestamp="2010-07-07T22:58:13Z" uid="74617" user="JohnSmith" changeset="5162525">
    <nd ref="329739578"/>
    <nd ref="329739593"/>
    <tag k="highway" v="residential"/>
    <tag k="maxspeed" v="50"/>
    <tag k="maxspeed:source" v="default residential speed limit in Australia"/>
    <tag k="name" v="Wiggles Way"/>
    <tag k="source" v="yahoo"/>
  </way>
  <way id="29920133" version="1" timestamp="2009-01-06T23:49:44Z" uid="30201" user="rrankin" changeset="749929">
    <nd ref="329739616"/>
    <nd ref="329739640"/>
    <nd ref="329739661"/>
    <tag k="highway" v="residential"/>
    <tag k="name" v="Dutch Place"/>
    <tag k="source" v="yahoo"/>
  </way>
  <way id="29920133" version="2" timestamp="2010-07-07T23:01:14Z" uid="74617" user="JohnSmith" changeset="5162525">
    <nd ref="329739616"/>
    <nd ref="329739640"/>
    <nd ref="329739661"/>
    <tag k="highway" v="residential"/>
    <tag k="maxspeed" v="50"/>
    <tag k="maxspeed:source" v="default residential speed limit in Australia"/>
    <tag k="name" v="Dutch Place"/>
    <tag k="source" v="yahoo"/>
  </way>
  <way id="29920134" version="1" timestamp="2009-01-06T23:49:44Z" uid="30201" user="rrankin" changeset="749929">
    <nd ref="329739686"/>
    <nd ref="329739719"/>
    <tag k="highway" v="residential"/>
    <tag k="name" v="Jellie Place"/>
    <tag k="source" v="yahoo"/>
  </way>
  <way id="29920134" version="2" timestamp="2010-07-07T22:59:23Z" uid="74617" user="JohnSmith" changeset="5162525">
    <nd ref="329739686"/>
    <nd ref="329739719"/>
    <tag k="highway" v="residential"/>
    <tag k="maxspeed" v="50"/>
    <tag k="maxspeed:source" v="default residential speed limit in Australia"/>
    <tag k="name" v="Jellie Place"/>
    <tag k="source" v="yahoo"/>
  </way>
  <way id="29920135" version="1" timestamp="2009-01-06T23:49:46Z" uid="30201" user="rrankin" changeset="749929">
    <nd ref="329739735"/>
    <nd ref="329739742"/>
    <tag k="highway" v="residential"/>
    <tag k="name" v="Simms Road"/>
    <tag k="source" v="yahoo"/>
  </way>
  <way id="29920135" version="2" timestamp="2010-04-16T01:43:13Z" uid="30201" user="rrankin" changeset="4435621">
    <nd ref="329739735"/>
    <nd ref="329739742"/>
    <tag k="highway" v="residential"/>
    <tag k="name" v="Simms Road"/>
    <tag k="source" v="nearmap"/>
  </way>
  <way id="29920135" version="3" timestamp="2010-07-07T23:02:17Z" uid="74617" user="JohnSmith" changeset="5162525">
    <nd ref="329739735"/>
    <nd ref="329739742"/>
    <tag k="highway" v="residential"/>
    <tag k="maxspeed" v="50"/>
    <tag k="maxspeed:source" v="default residential speed limit in Australia"/>
    <tag k="name" v="Simms Road"/>
    <tag k="source" v="nearmap"/>
  </way>
  <way id="29920136" version="1" timestamp="2009-01-06T23:49:46Z" uid="30201" user="rrankin" changeset="749929">
    <nd ref="329739769"/>
    <nd ref="329739773"/>
    <tag k="highway" v="residential"/>
    <tag k="name" v="Maygar Place"/>
    <tag k="source" v="yahoo"/>
  </way>
  <way id="29920136" version="2" timestamp="2010-07-07T23:03:13Z" uid="74617" user="JohnSmith" changeset="5162525">
    <nd ref="329739769"/>
    <nd ref="329739773"/>
    <tag k="highway" v="residential"/>
    <tag k="maxspeed" v="50"/>
    <tag k="maxspeed:source" v="default residential speed limit in Australia"/>
    <tag k="name" v="Maygar Place"/>
    <tag k="source" v="yahoo"/>
  </way>
  <way id="29920137" version="1" timestamp="2009-01-06T23:49:47Z" uid="30201" user="rrankin" changeset="749929">
    <nd ref="329739821"/>
    <nd ref="329739883"/>
    <nd ref="329739846"/>
    <nd ref="329739862"/>
    <tag k="highway" v="residential"/>
    <tag k="name" v="Natalie Place"/>
    <tag k="source" v="yahoo"/>
  </way>
  <way id="29920137" version="2" timestamp="2010-07-07T22:59:11Z" uid="74617" user="JohnSmith" changeset="5162525">
    <nd ref="329739821"/>
    <nd ref="329739883"/>
    <nd ref="329739846"/>
    <nd ref="329739862"/>
    <tag k="highway" v="residential"/>
    <tag k="maxspeed" v="50"/>
    <tag k="maxspeed:source" v="default residential speed limit in Australia"/>
    <tag k="name" v="Natalie Place"/>
    <tag k="source" v="yahoo"/>
  </way>
  <way id="29920138" version="1" timestamp="2009-01-06T23:49:48Z" uid="30201" user="rrankin" changeset="749929">
    <nd ref="329739883"/>
    <nd ref="329739909"/>
    <nd ref="329739929"/>
    <tag k="highway" v="residential"/>
    <tag k="name" v="Ridgeview Place"/>
    <tag k="source" v="yahoo"/>
  </way>
  <way id="29920138" version="2" timestamp="2010-07-07T23:04:22Z" uid="74617" user="JohnSmith" changeset="5162525">
    <nd ref="329739883"/>
    <nd ref="329739909"/>
    <nd ref="329739929"/>
    <tag k="highway" v="residential"/>
    <tag k="maxspeed" v="50"/>
    <tag k="maxspeed:source" v="default residential speed limit in Australia"/>
    <tag k="name" v="Ridgeview Place"/>
    <tag k="source" v="yahoo"/>
  </way>
  <way id="29920139" version="1" timestamp="2009-01-06T23:49:49Z" uid="30201" user="rrankin" changeset="749929">
    <nd ref="19145672"/>
    <nd ref="19145812"/>
    <nd ref="329739801"/>
    <nd ref="329739821"/>
    <nd ref="19145783"/>
    <tag k="abutters" v="residential"/>
    <tag k="created_by" v="JOSM"/>
    <tag k="highway" v="residential"/>
    <tag k="name" v="Chilton Avenue"/>
    <tag k="source" v="yahoo"/>
  </way>
  <way id="29920139" version="2" timestamp="2009-12-21T22:30:02Z" uid="30201" user="rrankin" changeset="3423659">
    <nd ref="19145672"/>
    <nd ref="19145812"/>
    <nd ref="329739801"/>
    <nd ref="329739821"/>
    <nd ref="19145783"/>
    <tag k="highway" v="residential"/>
    <tag k="name" v="Chilton Avenue"/>
    <tag k="source" v="yahoo"/>
  </way>
  <way id="29920139" version="3" timestamp="2010-04-16T01:43:11Z" uid="30201" user="rrankin" changeset="4435621">
    <nd ref="19145672"/>
    <nd ref="19145812"/>
    <nd ref="329739801"/>
    <nd ref="698111911"/>
    <nd ref="329739821"/>
    <nd ref="19145783"/>
    <tag k="highway" v="residential"/>
    <tag k="name" v="Chilton Avenue"/>
    <tag k="source" v="yahoo"/>
  </way>
  <way id="29920139" version="4" timestamp="2010-07-07T23:00:14Z" uid="74617" user="JohnSmith" changeset="5162525">
    <nd ref="19145672"/>
    <nd ref="19145812"/>
    <nd ref="329739801"/>
    <nd ref="698111911"/>
    <nd ref="329739821"/>
    <nd ref="19145783"/>
    <tag k="highway" v="residential"/>
    <tag k="maxspeed" v="50"/>
    <tag k="maxspeed:source" v="default residential speed limit in Australia"/>
    <tag k="name" v="Chilton Avenue"/>
    <tag k="source" v="yahoo"/>
  </way>
  <way id="29920140" version="1" timestamp="2009-01-06T23:49:50Z" uid="30201" user="rrankin" changeset="749929">
    <nd ref="329739801"/>
    <nd ref="329739950"/>
    <nd ref="329739974"/>
    <tag k="highway" v="residential"/>
    <tag k="name" v="Seal Way"/>
    <tag k="source" v="yahoo"/>
  </way>
  <way id="29920140" version="2" timestamp="2010-07-07T23:01:01Z" uid="74617" user="JohnSmith" changeset="5162525">
    <nd ref="329739801"/>
    <nd ref="329739950"/>
    <nd ref="329739974"/>
    <tag k="highway" v="residential"/>
    <tag k="maxspeed" v="50"/>
    <tag k="maxspeed:source" v="default residential speed limit in Australia"/>
    <tag k="name" v="Seal Way"/>
    <tag k="source" v="yahoo"/>
  </way>
  <way id="29920142" version="1" timestamp="2009-01-06T23:49:51Z" uid="30201" user="rrankin" changeset="749929">
    <nd ref="59601674"/>
    <nd ref="329740038"/>
    <nd ref="329740018"/>
    <tag k="highway" v="residential"/>
    <tag k="name" v="Shaughnessy Street"/>
    <tag k="source" v="yahoo"/>
  </way>
  <way id="29920142" version="2" timestamp="2010-07-07T23:02:03Z" uid="74617" user="JohnSmith" changeset="5162525">
    <nd ref="59601674"/>
    <nd ref="329740038"/>
    <nd ref="329740018"/>
    <tag k="highway" v="residential"/>
    <tag k="maxspeed" v="50"/>
    <tag k="maxspeed:source" v="default residential speed limit in Australia"/>
    <tag k="name" v="Shaughnessy Street"/>
    <tag k="source" v="yahoo"/>
  </way>
  <way id="29920143" version="1" timestamp="2009-01-06T23:49:52Z" uid="30201" user="rrankin" changeset="749929">
    <nd ref="329740038"/>
    <nd ref="329740056"/>
    <nd ref="329740074"/>
    <nd ref="329740095"/>
    <tag k="highway" v="residential"/>
    <tag k="name" v="Cassar Place"/>
    <tag k="source" v="yahoo"/>
  </way>
  <way id="29920143" version="2" timestamp="2010-07-07T23:05:23Z" uid="74617" user="JohnSmith" changeset="5162525">
    <nd ref="329740038"/>
    <nd ref="329740056"/>
    <nd ref="329740074"/>
    <nd ref="329740095"/>
    <tag k="highway" v="residential"/>
    <tag k="maxspeed" v="50"/>
    <tag k="maxspeed:source" v="default residential speed limit in Australia"/>
    <tag k="name" v="Cassar Place"/>
    <tag k="source" v="yahoo"/>
  </way>
  <way id="29920241" version="3" timestamp="2009-12-10T00:05:02Z" uid="200463" user="harmagedon" changeset="3338481">
    <nd ref="324038500"/>
    <nd ref="323405367"/>
    <nd ref="323774812"/>
    <nd ref="323277330"/>
    <nd ref="323897320"/>
    <nd ref="323669670"/>
    <nd ref="323512307"/>
    <nd ref="323964677"/>
    <nd ref="323940565"/>
    <nd ref="323559180"/>
    <nd ref="323568904"/>
    <nd ref="323958472"/>
    <nd ref="323849865"/>
    <nd ref="323923341"/>
    <nd ref="323934066"/>
    <nd ref="323348965"/>
    <nd ref="323796937"/>
    <nd ref="323878089"/>
    <nd ref="323640549"/>
    <nd ref="323257651"/>
    <nd ref="323340153"/>
    <nd ref="323683713"/>
    <nd ref="324110892"/>
    <nd ref="323457351"/>
    <nd ref="323260602"/>
    <nd ref="323335551"/>
    <nd ref="324136865"/>
    <nd ref="324129958"/>
    <nd ref="323802542"/>
    <nd ref="323377206"/>
    <nd ref="323799849"/>
    <nd ref="323987812"/>
    <nd ref="323755647"/>
    <nd ref="323509240"/>
    <nd ref="323615546"/>
    <nd ref="324038108"/>
    <nd ref="323366142"/>
    <nd ref="323324309"/>
    <nd ref="324136637"/>
    <nd ref="323734581"/>
    <nd ref="323870056"/>
    <nd ref="323613638"/>
    <nd ref="323898086"/>
    <nd ref="323847931"/>
    <nd ref="324085596"/>
    <nd ref="323381742"/>
    <nd ref="324113972"/>
    <nd ref="323612539"/>
    <nd ref="324048519"/>
    <nd ref="323694781"/>
    <nd ref="323508799"/>
    <nd ref="323542018"/>
    <nd ref="323256488"/>
    <nd ref="323264900"/>
    <nd ref="323988988"/>
    <nd ref="323263129"/>
    <nd ref="324002755"/>
    <nd ref="323933988"/>
    <nd ref="323432880"/>
    <nd ref="323419347"/>
    <nd ref="323782290"/>
    <nd ref="323290659"/>
    <nd ref="323822305"/>
    <nd ref="323659878"/>
    <tag k="admin_level" v="6"/>
    <tag k="boundary" v="administrative"/>
    <tag k="source" v="http://wiki.openstreetmap.org/wiki/Import/Catalogue/Kreisgrenzen_Deutschland_2005"/>
  </way>
  <way id="29920261" version="5" timestamp="2010-03-28T00:44:42Z" uid="20587" user="balrog-kun" changeset="4250871">
    <nd ref="62483710"/>
    <nd ref="62356518"/>
    <nd ref="62495324"/>
    <nd ref="62379174"/>
    <nd ref="62495323"/>
    <nd ref="62495322"/>
    <nd ref="62495321"/>
    <nd ref="62495319"/>
    <nd ref="62489060"/>
    <tag k="created_by" v="Potlatch 0.10f"/>
    <tag k="highway" v="unclassified"/>
    <tag k="name" v="Sparks Ranch Road"/>
    <tag k="tiger:cfcc" v="A41"/>
    <tag k="tiger:county" v="Solano, CA"/>
    <tag k="tiger:name_base" v="Sparks Ranch"/>
    <tag k="tiger:name_type" v="Rd"/>
    <tag k="tiger:reviewed" v="no"/>
    <tag k="tiger:separated" v="no"/>
    <tag k="tiger:source" v="tiger_import_dch_v0.6_20070809"/>
    <tag k="tiger:tlid" v="192585245:192619663:192611859:192611860"/>
    <tag k="tiger:zip_left" v="95620"/>
    <tag k="tiger:zip_right" v="95620"/>
  </way>
  <way id="29920713" version="5" timestamp="2010-07-09T05:57:14Z" uid="74617" user="JohnSmith" changeset="5171134">
    <nd ref="302549749"/>
    <nd ref="304709520"/>
    <nd ref="302549750"/>
    <nd ref="304709521"/>
    <nd ref="302460831"/>
    <nd ref="302549751"/>
    <nd ref="302549622"/>
    <tag k="highway" v="residential"/>
    <tag k="maxspeed" v="50"/>
    <tag k="maxspeed:source" v="default residential speed limit in Australia"/>
    <tag k="name" v="Kitson Road"/>
    <tag k="source" v="gps"/>
  </way>
</osm>
