<?xml version='1.0' encoding='UTF-8'?>
<osm version="0.6" generator="libosmium/2.20.0">
  <way id="29927522" version="1" timestamp="2009-01-07T00:52:04Z" uid="30201" user="rrankin" changeset="749929">
    <nd ref="329775667"/>
    <nd ref="329775669"/>
    <nd ref="329775670"/>
    <tag k="highway" v="residential"/>
    <tag k="name" v="McCubbin Place"/>
    <tag k="source" v="yahoo"/>
  </way>
  <way id="29927522" version="2" timestamp="2010-07-07T23:01:14Z" uid="74617" user="JohnSmith" changeset="5162525">
    <nd ref="329775667"/>
    <nd ref="329775669"/>
    <nd ref="329775670"/>
    <tag k="highway" v="residential"/>
    <tag k="maxspeed" v="50"/>
    <tag k="maxspeed:source" v="default residential speed limit in Australia"/>
    <tag k="name" v="McCubbin Place"/>
    <tag k="source" v="yahoo"/>
  </way>
  <way id="29927525" version="1" timestamp="2009-01-07T00:52:06Z" uid="30201" user="rrankin" changeset="749929">
    <nd ref="329775675"/>
    <nd ref="329775681"/>
    <tag k="highway" v="residential"/>
    <tag k="name" v="Streeton Place"/>
    <tag k="source" v="yahoo"/>
  </way>
  <way id="29927525" version="2" timestamp="2010-07-07T23:01:00Z" uid="74617" user="JohnSmith" changeset="5162525">
    <nd ref="329775675"/>
    <nd ref="329775681"/>
    <tag k="highway" v="residential"/>
    <tag k="maxspeed" v="50"/>
    <tag k="maxspeed:source" v="default residential speed limit in Australia"/>
    <tag k="name" v="Streeton Place"/>
    <tag k="source" v="yahoo"/>
  </way>
  <way id="29927530" version="1" timestamp="2009-01-07T00:52:06Z" uid="30201" user="rrankin" changeset="749929">
    <nd ref="288108229"/>
    <nd ref="329775687"/>
    <nd ref="329775693"/>
    <tag k="highway" v="residential"/>
    <tag k="name" v="Capsian Court"/>
    <tag k="source" v="yahoo"/>
  </way>
  <way id="29927530" version="2" timestamp="2010-07-07T23:04:02Z" uid="74617" user="JohnSmith" changeset="5162525">
    <nd ref="288108229"/>
    <nd ref="329775687"/>
    <nd ref="329775693"/>
    <tag k="highway" v="residential"/>
    <tag k="maxspeed" v="50"/>
    <tag k="maxspeed:source" v="default residential speed limit in Australia"/>
    <tag k="name" v="Capsian Court"/>
    <tag k="source" v="yahoo"/>
  </way>
  <way id="29927537" version="1" timestamp="2009-01-07T00:52:07Z" uid="30201" user="rrankin" changeset="749929">
    <nd ref="288108177"/>
    <nd ref="329775695"/>
    <nd ref="329775701"/>
    <nd ref="329775706"/>
    <tag k="highway" v="residential"/>
    <tag k="name" v="Tallowood Court"/>
    <tag k="source" v="yahoo"/>
  </way>
  <way id="29927537" version="2" timestamp="2010-07-07T23:05:02Z" uid="74617" user="JohnSmith" changeset="5162525">
    <nd ref="288108177"/>
    <nd ref="329775695"/>
    <nd ref="329775701"/>
    <nd ref="329775706"/>
    <tag k="highway" v="residential"/>
    <tag k="maxspeed" v="50"/>
    <tag k="maxspeed:source" v="default residential speed limit in Australia"/>
    <tag k="name" v="Tallowood Court"/>
    <tag k="source" v="yahoo"/>
  </way>
</osm>
