<?xml version='1.0' encoding='UTF-8'?>
<osm version="0.6" generator="libosmium/2.20.0">
  <way id="29954212" version="1" timestamp="2009-01-07T02:57:34Z" uid="30201" user="rrankin" changeset="749929">
    <nd ref="329849239"/>
    <nd ref="329849279"/>
    <nd ref="329849449"/>
    <nd ref="329849318"/>
    <nd ref="329849257"/>
    <tag k="highway" v="residential"/>
    <tag k="name" v="Grayson Avenue"/>
    <tag k="source" v="yahoo"/>
  </way>
  <way id="29954212" version="2" timestamp="2010-07-07T23:00:42Z" uid="74617" user="JohnSmith" changeset="5162525">
    <nd ref="329849239"/>
    <nd ref="329849279"/>
    <nd ref="329849449"/>
    <nd ref="329849318"/>
    <nd ref="329849257"/>
    <tag k="highway" v="residential"/>
    <tag k="maxspeed" v="50"/>
    <tag k="maxspeed:source" v="default residential speed limit in Australia"/>
    <tag k="name" v="Grayson Avenue"/>
    <tag k="source" v="yahoo"/>
  </way>
  <way id="29954215" version="1" timestamp="2009-01-07T02:57:35Z" uid="30201" user="rrankin" changeset="749929">
    <nd ref="329849279"/>
    <nd ref="329849302"/>
    <tag k="highway" v="residential"/>
    <tag k="name" v="Della Place"/>
    <tag k="source" v="yahoo"/>
  </way>
  <way id="29954215" version="2" timestamp="2010-07-07T23:05:02Z" uid="74617" user="JohnSmith" changeset="5162525">
    <nd ref="329849279"/>
    <nd ref="329849302"/>
    <tag k="highway" v="residential"/>
    <tag k="maxspeed" v="50"/>
    <tag k="maxspeed:source" v="default residential speed limit in Australia"/>
    <tag k="name" v="Della Place"/>
    <tag k="source" v="yahoo"/>
  </way>
  <way id="29954218" version="1" timestamp="2009-01-07T02:57:36Z" uid="30201" user="rrankin" changeset="749929">
    <nd ref="329849318"/>
    <nd ref="329849337"/>
    <tag k="highway" v="residential"/>
    <tag k="name" v="Madrid Place"/>
    <tag k="source" v="yahoo"/>
  </way>
  <way id="29954218" version="2" timestamp="2010-07-07T22:59:37Z" uid="74617" user="JohnSmith" changeset="5162525">
    <nd ref="329849318"/>
    <nd ref="329849337"/>
    <tag k="highway" v="residential"/>
    <tag k="maxspeed" v="50"/>
    <tag k="maxspeed:source" v="default residential speed limit in Australia"/>
    <tag k="name" v="Madrid Place"/>
    <tag k="source" v="yahoo"/>
  </way>
  <way id="29954221" version="1" timestamp="2009-01-07T02:57:37Z" uid="30201" user="rrankin" changeset="749929">
    <nd ref="26620073"/>
    <nd ref="329849355"/>
    <nd ref="329849373"/>
    <tag k="highway" v="unclassified"/>
    <tag k="name" v="Stone Street"/>
    <tag k="source" v="yahoo"/>
  </way>
  <way id="29954245" version="1" timestamp="2009-01-07T02:57:46Z" uid="30201" user="rrankin" changeset="749929">
    <nd ref="19145765"/>
    <nd ref="329849585"/>
    <nd ref="329849654"/>
    <nd ref="329849220"/>
    <nd ref="329849466"/>
    <nd ref="329849390"/>
    <nd ref="329849411"/>
    <nd ref="329849429"/>
    <nd ref="329849449"/>
    <tag k="highway" v="residential"/>
    <tag k="name" v="Bellingham Avenue"/>
    <tag k="source" v="yahoo"/>
  </way>
  <way id="29954245" version="2" timestamp="2009-11-20T00:25:10Z" uid="30201" user="rrankin" changeset="3165345">
    <nd ref="19145765"/>
    <nd ref="567245787"/>
    <nd ref="329849585"/>
    <nd ref="329849654"/>
    <nd ref="329849220"/>
    <nd ref="329849466"/>
    <nd ref="329849390"/>
    <nd ref="329849411"/>
    <nd ref="329849429"/>
    <nd ref="329849449"/>
    <tag k="highway" v="residential"/>
    <tag k="name" v="Bellingham Avenue"/>
    <tag k="source" v="yahoo"/>
  </way>
  <way id="29954245" version="3" timestamp="2010-07-07T22:59:49Z" uid="74617" user="JohnSmith" changeset="5162525">
    <nd ref="19145765"/>
    <nd ref="567245787"/>
    <nd ref="329849585"/>
    <nd ref="329849654"/>
    <nd ref="329849220"/>
    <nd ref="329849466"/>
    <nd ref="329849390"/>
    <nd ref="329849411"/>
    <nd ref="329849429"/>
    <nd ref="329849449"/>
    <tag k="highway" v="residential"/>
    <tag k="maxspeed" v="50"/>
    <tag k="maxspeed:source" v="default residential speed limit in Australia"/>
    <tag k="name" v="Bellingham Avenue"/>
    <tag k="source" v="yahoo"/>
  </way>
  <way id="29954248" version="1" timestamp="2009-01-07T02:57:47Z" uid="30201" user="rrankin" changeset="749929">
    <nd ref="329849466"/>
    <nd ref="329849485"/>
    <nd ref="329849501"/>
    <nd ref="329849518"/>
    <nd ref="329849538"/>
    <nd ref="329849559"/>
    <nd ref="329849573"/>
    <tag k="highway" v="residential"/>
    <tag k="name" v="Wigmore Grove"/>
    <tag k="source" v="yahoo"/>
  </way>
  <way id="29954248" version="2" timestamp="2010-07-07T23:01:36Z" uid="74617" user="JohnSmith" changeset="5162525">
    <nd ref="329849466"/>
    <nd ref="329849485"/>
    <nd ref="329849501"/>
    <nd ref="329849518"/>
    <nd ref="329849538"/>
    <nd ref="329849559"/>
    <nd ref="329849573"/>
    <tag k="highway" v="residential"/>
    <tag k="maxspeed" v="50"/>
    <tag k="maxspeed:source" v="default residential speed limit in Australia"/>
    <tag k="name" v="Wigmore Grove"/>
    <tag k="source" v="yahoo"/>
  </way>
  <way id="29954252" version="1" timestamp="2009-01-07T02:57:48Z" uid="30201" user="rrankin" changeset="749929">
    <nd ref="329849585"/>
    <nd ref="329849619"/>
    <nd ref="329849601"/>
    <nd ref="26620070"/>
    <tag k="highway" v="residential"/>
    <tag k="name" v="Sanford Street"/>
    <tag k="source" v="yahoo"/>
  </way>
  <way id="29954252" version="2" timestamp="2010-07-07T22:59:33Z" uid="74617" user="JohnSmith" changeset="5162525">
    <nd ref="329849585"/>
    <nd ref="329849619"/>
    <nd ref="329849601"/>
    <nd ref="26620070"/>
    <tag k="highway" v="residential"/>
    <tag k="maxspeed" v="50"/>
    <tag k="maxspeed:source" v="default residential speed limit in Australia"/>
    <tag k="name" v="Sanford Street"/>
    <tag k="source" v="yahoo"/>
  </way>
  <way id="29954255" version="1" timestamp="2009-01-07T02:57:48Z" uid="30201" user="rrankin" changeset="749929">
    <nd ref="329849619"/>
    <nd ref="329849634"/>
    <nd ref="329849641"/>
    <tag k="highway" v="residential"/>
    <tag k="name" v="Fonda Place"/>
    <tag k="source" v="yahoo"/>
  </way>
  <way id="29954255" version="2" timestamp="2010-07-07T23:03:42Z" uid="74617" user="JohnSmith" changeset="5162525">
    <nd ref="329849619"/>
    <nd ref="329849634"/>
    <nd ref="329849641"/>
    <tag k="highway" v="residential"/>
    <tag k="maxspeed" v="50"/>
    <tag k="maxspeed:source" v="default residential speed limit in Australia"/>
    <tag k="name" v="Fonda Place"/>
    <tag k="source" v="yahoo"/>
  </way>
  <way id="29954257" version="1" timestamp="2009-01-07T02:57:49Z" uid="30201" user="rrankin" changeset="749929">
    <nd ref="329849654"/>
    <nd ref="329849705"/>
    <nd ref="329849665"/>
    <nd ref="329849682"/>
    <nd ref="329849694"/>
    <nd ref="26620083"/>
    <tag k="highway" v="residential"/>
    <tag k="name" v="Ornella Avenue"/>
    <tag k="source" v="yahoo"/>
  </way>
  <way id="29954257" version="2" timestamp="2010-07-07T23:03:38Z" uid="74617" user="JohnSmith" changeset="5162525">
    <nd ref="329849654"/>
    <nd ref="329849705"/>
    <nd ref="329849665"/>
    <nd ref="329849682"/>
    <nd ref="329849694"/>
    <nd ref="26620083"/>
    <tag k="highway" v="residential"/>
    <tag k="maxspeed" v="50"/>
    <tag k="maxspeed:source" v="default residential speed limit in Australia"/>
    <tag k="name" v="Ornella Avenue"/>
    <tag k="source" v="yahoo"/>
  </way>
  <way id="29954260" version="1" timestamp="2009-01-07T02:57:50Z" uid="30201" user="rrankin" changeset="749929">
    <nd ref="329849705"/>
    <nd ref="329849718"/>
    <nd ref="329849729"/>
    <tag k="highway" v="residential"/>
    <tag k="name" v="Gerbulin Street"/>
    <tag k="source" v="yahoo"/>
  </way>
  <way id="29954260" version="2" timestamp="2010-07-07T22:58:23Z" uid="74617" user="JohnSmith" changeset="5162525">
    <nd ref="329849705"/>
    <nd ref="329849718"/>
    <nd ref="329849729"/>
    <tag k="highway" v="residential"/>
    <tag k="maxspeed" v="50"/>
    <tag k="maxspeed:source" v="default residential speed limit in Australia"/>
    <tag k="name" v="Gerbulin Street"/>
    <tag k="source" v="yahoo"/>
  </way>
  <way id="29954263" version="1" timestamp="2009-01-07T02:57:51Z" uid="30201" user="rrankin" changeset="749929">
    <nd ref="329849742"/>
    <nd ref="329849729"/>
    <nd ref="329849754"/>
    <tag k="highway" v="residential"/>
    <tag k="name" v="Vassallo Place"/>
    <tag k="source" v="yahoo"/>
  </way>
  <way id="29954263" version="2" timestamp="2010-07-07T23:02:25Z" uid="74617" user="JohnSmith" changeset="5162525">
    <nd ref="329849742"/>
    <nd ref="329849729"/>
    <nd ref="329849754"/>
    <tag k="highway" v="residential"/>
    <tag k="maxspeed" v="50"/>
    <tag k="maxspeed:source" v="default residential speed limit in Australia"/>
    <tag k="name" v="Vassallo Place"/>
    <tag k="source" v="yahoo"/>
  </way>
  <way id="29954265" version="1" timestamp="2009-01-07T02:57:52Z" uid="30201" user="rrankin" changeset="749929">
    <nd ref="329849682"/>
    <nd ref="329849765"/>
    <tag k="highway" v="residential"/>
    <tag k="name" v="Evelyn Place"/>
    <tag k="source" v="yahoo"/>
  </way>
  <way id="29954265" version="2" timestamp="2010-07-07T22:59:18Z" uid="74617" user="JohnSmith" changeset="5162525">
    <nd ref="329849682"/>
    <nd ref="329849765"/>
    <tag k="highway" v="residential"/>
    <tag k="maxspeed" v="50"/>
    <tag k="maxspeed:source" v="default residential speed limit in Australia"/>
    <tag k="name" v="Evelyn Place"/>
    <tag k="source" v="yahoo"/>
  </way>
  <way id="29954893" version="2" timestamp="2009-08-26T18:28:47Z" uid="43967" user="railsnail" changeset="2270444">
    <nd ref="329830887"/>
    <nd ref="329854517"/>
    <nd ref="329854521"/>
    <tag k="created_by" v="WWWOSM 0.1"/>
    <tag k="fixme" v="check import"/>
    <tag k="highway" v="track"/>
    <tag k="is_in" v="...,Bezirk Hermagor,Kärnten,Österreich,Europa"/>
    <tag k="note" v="imported from plan.at; (C)=CC-by-sa or oDBL; feel free to change if necessary"/>
    <tag k="plan_at:acad_id" v="he11A8"/>
    <tag k="source" v="plan.at 2009"/>
    <tag k="uploaded_by" v="Wolfgang W. Wasserburger"/>
  </way>
</osm>
