<?xml version='1.0' encoding='UTF-8'?>
<osm version="0.6" generator="libosmium/2.20.0">
  <way id="29991277" version="1" timestamp="2009-01-08T10:15:55Z" uid="30201" user="rrankin" changeset="756774">
    <nd ref="330159354"/>
    <nd ref="330159383"/>
    <nd ref="330159394"/>
    <nd ref="330159358"/>
    <nd ref="330159391"/>
    <nd ref="330159355"/>
    <nd ref="330159356"/>
    <nd ref="330159372"/>
    <nd ref="330159357"/>
    <tag k="highway" v="residential"/>
    <tag k="name" v="Judith Anderson Drive"/>
    <tag k="source" v="yahoo"/>
  </way>
  <way id="29991277" version="2" timestamp="2010-07-07T23:02:14Z" uid="74617" user="JohnSmith" changeset="5162525">
    <nd ref="330159354"/>
    <nd ref="330159383"/>
    <nd ref="330159394"/>
    <nd ref="330159358"/>
    <nd ref="330159391"/>
    <nd ref="330159355"/>
    <nd ref="330159356"/>
    <nd ref="330159372"/>
    <nd ref="330159357"/>
    <tag k="highway" v="residential"/>
    <tag k="maxspeed" v="50"/>
    <tag k="maxspeed:source" v="default residential speed limit in Australia"/>
    <tag k="name" v="Judith Anderson Drive"/>
    <tag k="source" v="yahoo"/>
  </way>
  <way id="29991277" version="3" timestamp="2010-08-17T23:20:58Z" uid="4467" user="Rosscoe" changeset="5522589">
    <nd ref="330159354"/>
    <nd ref="330159383"/>
    <nd ref="330159394"/>
    <nd ref="330159358"/>
    <nd ref="330159391"/>
    <nd ref="330159355"/>
    <nd ref="330159356"/>
    <nd ref="330159372"/>
    <nd ref="330159357"/>
    <tag k="highway" v="residential"/>
    <tag k="maxspeed" v="50"/>
    <tag k="name" v="Judith Anderson Drive"/>
    <tag k="source" v="yahoo"/>
    <tag k="source:maxspeed" v="default residential speed limit in Australia"/>
  </way>
  <way id="29991280" version="1" timestamp="2009-01-08T10:15:57Z" uid="30201" user="rrankin" changeset="756774">
    <nd ref="330159358"/>
    <nd ref="330159359"/>
    <nd ref="330159368"/>
    <nd ref="330159362"/>
    <nd ref="330159364"/>
    <nd ref="330159398"/>
    <nd ref="330159363"/>
    <tag k="highway" v="residential"/>
    <tag k="name" v="Mundin Street"/>
    <tag k="source" v="yahoo"/>
  </way>
  <way id="29991280" version="2" timestamp="2010-07-07T23:12:58Z" uid="74617" user="JohnSmith" changeset="5162525">
    <nd ref="330159358"/>
    <nd ref="330159359"/>
    <nd ref="330159368"/>
    <nd ref="330159362"/>
    <nd ref="330159364"/>
    <nd ref="330159398"/>
    <nd ref="330159363"/>
    <tag k="highway" v="residential"/>
    <tag k="maxspeed" v="50"/>
    <tag k="maxspeed:source" v="default residential speed limit in Australia"/>
    <tag k="name" v="Mundin Street"/>
    <tag k="source" v="yahoo"/>
  </way>
  <way id="29991280" version="3" timestamp="2010-08-14T04:19:20Z" uid="61114" user="Trav" changeset="5487416">
    <nd ref="330159358"/>
    <nd ref="330159359"/>
    <nd ref="330159368"/>
    <nd ref="330159362"/>
    <nd ref="330159364"/>
    <nd ref="330159398"/>
    <nd ref="330159363"/>
    <tag k="highway" v="residential"/>
    <tag k="maxspeed" v="50"/>
    <tag k="maxspeed:source" v="default residential speed limit in Australia"/>
    <tag k="name" v="Mundin Street"/>
    <tag k="source" v="yahoo"/>
    <tag k="source:name" v="survey"/>
  </way>
  <way id="29991280" version="4" timestamp="2010-08-17T23:24:07Z" uid="4467" user="Rosscoe" changeset="5522589">
    <nd ref="330159358"/>
    <nd ref="330159359"/>
    <nd ref="330159368"/>
    <nd ref="330159362"/>
    <nd ref="330159364"/>
    <nd ref="330159398"/>
    <nd ref="330159363"/>
    <tag k="highway" v="residential"/>
    <tag k="maxspeed" v="50"/>
    <tag k="name" v="Mundin Street"/>
    <tag k="source" v="yahoo"/>
    <tag k="source:maxspeed" v="default residential speed limit in Australia"/>
    <tag k="source:name" v="survey"/>
  </way>
  <way id="29991283" version="1" timestamp="2009-01-08T10:15:57Z" uid="30201" user="rrankin" changeset="756774">
    <nd ref="330159364"/>
    <nd ref="330159365"/>
    <nd ref="330159366"/>
    <nd ref="330159367"/>
    <tag k="highway" v="residential"/>
    <tag k="name" v="Rignold Street"/>
    <tag k="source" v="yahoo"/>
  </way>
  <way id="29991283" version="2" timestamp="2010-07-07T23:19:29Z" uid="74617" user="JohnSmith" changeset="5162525">
    <nd ref="330159364"/>
    <nd ref="330159365"/>
    <nd ref="330159366"/>
    <nd ref="330159367"/>
    <tag k="highway" v="residential"/>
    <tag k="maxspeed" v="50"/>
    <tag k="maxspeed:source" v="default residential speed limit in Australia"/>
    <tag k="name" v="Rignold Street"/>
    <tag k="source" v="yahoo"/>
  </way>
  <way id="29991283" version="3" timestamp="2010-08-17T23:21:59Z" uid="4467" user="Rosscoe" changeset="5522589">
    <nd ref="330159364"/>
    <nd ref="330159365"/>
    <nd ref="330159366"/>
    <nd ref="330159367"/>
    <tag k="highway" v="residential"/>
    <tag k="maxspeed" v="50"/>
    <tag k="name" v="Rignold Street"/>
    <tag k="source" v="yahoo"/>
    <tag k="source:maxspeed" v="default residential speed limit in Australia"/>
  </way>
  <way id="29991284" version="1" timestamp="2009-01-08T10:15:58Z" uid="30201" user="rrankin" changeset="756774">
    <nd ref="330159368"/>
    <nd ref="330159369"/>
    <nd ref="330159371"/>
    <nd ref="330159356"/>
    <tag k="highway" v="residential"/>
    <tag k="name" v="Asche Street"/>
    <tag k="source" v="yahoo"/>
  </way>
  <way id="29991284" version="2" timestamp="2010-07-07T23:20:39Z" uid="74617" user="JohnSmith" changeset="5162525">
    <nd ref="330159368"/>
    <nd ref="330159369"/>
    <nd ref="330159371"/>
    <nd ref="330159356"/>
    <tag k="highway" v="residential"/>
    <tag k="maxspeed" v="50"/>
    <tag k="maxspeed:source" v="default residential speed limit in Australia"/>
    <tag k="name" v="Asche Street"/>
    <tag k="source" v="yahoo"/>
  </way>
  <way id="29991284" version="3" timestamp="2010-08-17T23:22:17Z" uid="4467" user="Rosscoe" changeset="5522589">
    <nd ref="330159368"/>
    <nd ref="330159369"/>
    <nd ref="330159371"/>
    <nd ref="330159356"/>
    <tag k="highway" v="residential"/>
    <tag k="maxspeed" v="50"/>
    <tag k="name" v="Asche Street"/>
    <tag k="source" v="yahoo"/>
    <tag k="source:maxspeed" v="default residential speed limit in Australia"/>
  </way>
  <way id="29991286" version="1" timestamp="2009-01-08T10:15:59Z" uid="30201" user="rrankin" changeset="756774">
    <nd ref="330159372"/>
    <nd ref="330159373"/>
    <nd ref="330159407"/>
    <nd ref="330159376"/>
    <nd ref="330159392"/>
    <nd ref="330159409"/>
    <nd ref="330159390"/>
    <nd ref="330159377"/>
    <nd ref="330159378"/>
    <nd ref="330159379"/>
    <nd ref="330159380"/>
    <nd ref="330159381"/>
    <nd ref="330159382"/>
    <tag k="highway" v="residential"/>
    <tag k="name" v="Wilton Road"/>
    <tag k="source" v="yahoo"/>
  </way>
  <way id="29991286" version="2" timestamp="2010-07-07T22:59:17Z" uid="74617" user="JohnSmith" changeset="5162525">
    <nd ref="330159372"/>
    <nd ref="330159373"/>
    <nd ref="330159407"/>
    <nd ref="330159376"/>
    <nd ref="330159392"/>
    <nd ref="330159409"/>
    <nd ref="330159390"/>
    <nd ref="330159377"/>
    <nd ref="330159378"/>
    <nd ref="330159379"/>
    <nd ref="330159380"/>
    <nd ref="330159381"/>
    <nd ref="330159382"/>
    <tag k="highway" v="residential"/>
    <tag k="maxspeed" v="50"/>
    <tag k="maxspeed:source" v="default residential speed limit in Australia"/>
    <tag k="name" v="Wilton Road"/>
    <tag k="source" v="yahoo"/>
  </way>
  <way id="29991287" version="1" timestamp="2009-01-08T10:16:00Z" uid="30201" user="rrankin" changeset="756774">
    <nd ref="330159378"/>
    <nd ref="330159384"/>
    <nd ref="330159385"/>
    <nd ref="330159386"/>
    <nd ref="330159387"/>
    <nd ref="330159416"/>
    <nd ref="330159388"/>
    <nd ref="330159382"/>
    <nd ref="330159383"/>
    <tag k="highway" v="residential"/>
    <tag k="name" v="Kellaway Street"/>
    <tag k="source" v="yahoo"/>
  </way>
  <way id="29991287" version="2" timestamp="2010-07-07T23:02:11Z" uid="74617" user="JohnSmith" changeset="5162525">
    <nd ref="330159378"/>
    <nd ref="330159384"/>
    <nd ref="330159385"/>
    <nd ref="330159386"/>
    <nd ref="330159387"/>
    <nd ref="330159416"/>
    <nd ref="330159388"/>
    <nd ref="330159382"/>
    <nd ref="330159383"/>
    <tag k="highway" v="residential"/>
    <tag k="maxspeed" v="50"/>
    <tag k="maxspeed:source" v="default residential speed limit in Australia"/>
    <tag k="name" v="Kellaway Street"/>
    <tag k="source" v="yahoo"/>
  </way>
  <way id="29991287" version="3" timestamp="2010-08-17T23:23:35Z" uid="4467" user="Rosscoe" changeset="5522589">
    <nd ref="330159378"/>
    <nd ref="330159384"/>
    <nd ref="330159385"/>
    <nd ref="330159386"/>
    <nd ref="330159387"/>
    <nd ref="330159416"/>
    <nd ref="330159388"/>
    <nd ref="330159382"/>
    <nd ref="330159383"/>
    <tag k="highway" v="residential"/>
    <tag k="maxspeed" v="50"/>
    <tag k="name" v="Kellaway Street"/>
    <tag k="source" v="yahoo"/>
    <tag k="source:maxspeed" v="default residential speed limit in Australia"/>
  </way>
  <way id="29991290" version="1" timestamp="2009-01-08T10:16:02Z" uid="30201" user="rrankin" changeset="756774">
    <nd ref="330159385"/>
    <nd ref="330159389"/>
    <tag k="highway" v="residential"/>
    <tag k="name" v="Rudd Place"/>
    <tag k="source" v="yahoo"/>
  </way>
  <way id="29991290" version="2" timestamp="2010-07-07T23:04:12Z" uid="74617" user="JohnSmith" changeset="5162525">
    <nd ref="330159385"/>
    <nd ref="330159389"/>
    <tag k="highway" v="residential"/>
    <tag k="maxspeed" v="50"/>
    <tag k="maxspeed:source" v="default residential speed limit in Australia"/>
    <tag k="name" v="Rudd Place"/>
    <tag k="source" v="yahoo"/>
  </way>
  <way id="29991295" version="1" timestamp="2009-01-08T10:16:03Z" uid="30201" user="rrankin" changeset="756774">
    <nd ref="330159390"/>
    <nd ref="330159391"/>
    <tag k="highway" v="residential"/>
    <tag k="name" v="Fitton Street"/>
    <tag k="source" v="yahoo"/>
  </way>
  <way id="29991295" version="2" timestamp="2010-07-07T23:05:16Z" uid="74617" user="JohnSmith" changeset="5162525">
    <nd ref="330159390"/>
    <nd ref="330159391"/>
    <tag k="highway" v="residential"/>
    <tag k="maxspeed" v="50"/>
    <tag k="maxspeed:source" v="default residential speed limit in Australia"/>
    <tag k="name" v="Fitton Street"/>
    <tag k="source" v="yahoo"/>
  </way>
  <way id="29991296" version="1" timestamp="2009-01-08T10:16:03Z" uid="30201" user="rrankin" changeset="756774">
    <nd ref="330159392"/>
    <nd ref="330159393"/>
    <tag k="highway" v="residential"/>
    <tag k="name" v="Rene Place"/>
    <tag k="source" v="yahoo"/>
  </way>
  <way id="29991296" version="2" timestamp="2010-07-07T23:01:50Z" uid="74617" user="JohnSmith" changeset="5162525">
    <nd ref="330159392"/>
    <nd ref="330159393"/>
    <tag k="highway" v="residential"/>
    <tag k="maxspeed" v="50"/>
    <tag k="maxspeed:source" v="default residential speed limit in Australia"/>
    <tag k="name" v="Rene Place"/>
    <tag k="source" v="yahoo"/>
  </way>
  <way id="29991297" version="1" timestamp="2009-01-08T10:16:04Z" uid="30201" user="rrankin" changeset="756774">
    <nd ref="330159394"/>
    <nd ref="330159395"/>
    <tag k="highway" v="residential"/>
    <tag k="name" v="Holt Street"/>
    <tag k="source" v="yahoo"/>
  </way>
  <way id="29991297" version="2" timestamp="2010-07-07T23:20:07Z" uid="74617" user="JohnSmith" changeset="5162525">
    <nd ref="330159394"/>
    <nd ref="330159395"/>
    <tag k="highway" v="residential"/>
    <tag k="maxspeed" v="50"/>
    <tag k="maxspeed:source" v="default residential speed limit in Australia"/>
    <tag k="name" v="Holt Street"/>
    <tag k="source" v="yahoo"/>
  </way>
  <way id="29991297" version="3" timestamp="2010-08-17T23:24:27Z" uid="4467" user="Rosscoe" changeset="5522589">
    <nd ref="330159394"/>
    <nd ref="330159395"/>
    <tag k="highway" v="residential"/>
    <tag k="maxspeed" v="50"/>
    <tag k="name" v="Holt Street"/>
    <tag k="source" v="yahoo"/>
    <tag k="source:maxspeed" v="default residential speed limit in Australia"/>
  </way>
  <way id="29991298" version="1" timestamp="2009-01-08T10:16:05Z" uid="30201" user="rrankin" changeset="756774">
    <nd ref="330159399"/>
    <nd ref="330159400"/>
    <nd ref="330159406"/>
    <tag k="highway" v="residential"/>
    <tag k="name" v="Wilkie Crescent"/>
    <tag k="source" v="yahoo"/>
  </way>
  <way id="29991298" version="2" timestamp="2010-07-07T23:17:29Z" uid="74617" user="JohnSmith" changeset="5162525">
    <nd ref="330159399"/>
    <nd ref="330159400"/>
    <nd ref="330159406"/>
    <tag k="highway" v="residential"/>
    <tag k="maxspeed" v="50"/>
    <tag k="maxspeed:source" v="default residential speed limit in Australia"/>
    <tag k="name" v="Wilkie Crescent"/>
    <tag k="source" v="yahoo"/>
  </way>
  <way id="29991298" version="3" timestamp="2010-08-17T23:21:18Z" uid="4467" user="Rosscoe" changeset="5522589">
    <nd ref="330159399"/>
    <nd ref="330159400"/>
    <nd ref="330159406"/>
    <tag k="highway" v="residential"/>
    <tag k="maxspeed" v="50"/>
    <tag k="name" v="Wilkie Crescent"/>
    <tag k="source" v="yahoo"/>
    <tag k="source:maxspeed" v="default residential speed limit in Australia"/>
  </way>
  <way id="29991299" version="1" timestamp="2009-01-08T10:16:06Z" uid="30201" user="rrankin" changeset="756774">
    <nd ref="330159406"/>
    <nd ref="330159395"/>
    <nd ref="330159396"/>
    <nd ref="330159397"/>
    <nd ref="330159399"/>
    <nd ref="330159398"/>
    <tag k="highway" v="residential"/>
    <tag k="name" v="Wilkie Crescent"/>
    <tag k="source" v="yahoo"/>
  </way>
  <way id="29991299" version="2" timestamp="2010-07-07T23:10:23Z" uid="74617" user="JohnSmith" changeset="5162525">
    <nd ref="330159406"/>
    <nd ref="330159395"/>
    <nd ref="330159396"/>
    <nd ref="330159397"/>
    <nd ref="330159399"/>
    <nd ref="330159398"/>
    <tag k="highway" v="residential"/>
    <tag k="maxspeed" v="50"/>
    <tag k="maxspeed:source" v="default residential speed limit in Australia"/>
    <tag k="name" v="Wilkie Crescent"/>
    <tag k="source" v="yahoo"/>
  </way>
  <way id="29991299" version="3" timestamp="2010-08-17T23:23:33Z" uid="4467" user="Rosscoe" changeset="5522589">
    <nd ref="330159406"/>
    <nd ref="330159395"/>
    <nd ref="330159396"/>
    <nd ref="330159397"/>
    <nd ref="330159399"/>
    <nd ref="330159398"/>
    <tag k="highway" v="residential"/>
    <tag k="maxspeed" v="50"/>
    <tag k="name" v="Wilkie Crescent"/>
    <tag k="source" v="yahoo"/>
    <tag k="source:maxspeed" v="default residential speed limit in Australia"/>
  </way>
  <way id="29991301" version="1" timestamp="2009-01-08T10:16:07Z" uid="30201" user="rrankin" changeset="756774">
    <nd ref="330159407"/>
    <nd ref="330159408"/>
    <tag k="highway" v="residential"/>
    <tag k="name" v="Tivoli Place"/>
    <tag k="source" v="yahoo"/>
  </way>
  <way id="29991301" version="2" timestamp="2010-07-07T23:02:41Z" uid="74617" user="JohnSmith" changeset="5162525">
    <nd ref="330159407"/>
    <nd ref="330159408"/>
    <tag k="highway" v="residential"/>
    <tag k="maxspeed" v="50"/>
    <tag k="maxspeed:source" v="default residential speed limit in Australia"/>
    <tag k="name" v="Tivoli Place"/>
    <tag k="source" v="yahoo"/>
  </way>
  <way id="29991302" version="1" timestamp="2009-01-08T10:16:08Z" uid="30201" user="rrankin" changeset="756774">
    <nd ref="330159409"/>
    <nd ref="330159411"/>
    <tag k="highway" v="residential"/>
    <tag k="name" v="Fane Place"/>
    <tag k="source" v="yahoo"/>
  </way>
  <way id="29991302" version="2" timestamp="2010-07-07T23:00:50Z" uid="74617" user="JohnSmith" changeset="5162525">
    <nd ref="330159409"/>
    <nd ref="330159411"/>
    <tag k="highway" v="residential"/>
    <tag k="maxspeed" v="50"/>
    <tag k="maxspeed:source" v="default residential speed limit in Australia"/>
    <tag k="name" v="Fane Place"/>
    <tag k="source" v="yahoo"/>
  </way>
  <way id="29991359" version="3" timestamp="2009-02-01T19:43:26Z" uid="6975" user="ulfl" changeset="27333">
    <nd ref="330159696"/>
    <nd ref="330159697"/>
    <nd ref="330159699"/>
    <nd ref="330159700"/>
    <nd ref="330159696"/>
    <tag k="amenity" v="place_of_worship"/>
    <tag k="name" v="Abbasiyya Synagogue"/>
    <tag k="religion" v="jewish"/>
  </way>
  <way id="29991619" version="3" timestamp="2009-02-01T19:43:27Z" uid="6975" user="ulfl" changeset="27333">
    <nd ref="315584886"/>
    <nd ref="315584887"/>
    <nd ref="315207508"/>
    <nd ref="315210510"/>
    <nd ref="315584886"/>
    <tag k="amenity" v="place_of_worship"/>
    <tag k="name" v="St. Josef Church for Franciscan Padres"/>
    <tag k="name:ar" v="كنيسة سان جوزيف للاباء الفرنسيسكان"/>
    <tag k="religion" v="christian"/>
  </way>
  <way id="29991957" version="12" timestamp="2010-11-01T14:33:29Z" uid="9581" user="Lobelt" changeset="6255411">
    <nd ref="499833"/>
    <nd ref="499836"/>
    <nd ref="499837"/>
    <nd ref="499838"/>
    <nd ref="243083154"/>
    <nd ref="499839"/>
    <nd ref="499840"/>
    <nd ref="499844"/>
    <tag k="highway" v="motorway"/>
    <tag k="int_ref" v="E 451"/>
    <tag k="lanes" v="2"/>
    <tag k="maxspeed" v="no"/>
    <tag k="oneway" v="yes"/>
    <tag k="ref" v="A 67"/>
  </way>
  <way id="29991957" version="13" timestamp="2010-11-01T14:37:02Z" uid="9581" user="Lobelt" changeset="6255445"/>
</osm>
