<?xml version='1.0' encoding='UTF-8'?>
<osm version="0.6" generator="libosmium/2.20.0">
  <way id="29999122" version="1" timestamp="2009-01-08T16:58:08Z" uid="43863" user="Rundling" changeset="756417">
    <nd ref="330250010"/>
    <nd ref="330250006"/>
    <nd ref="330250007"/>
    <nd ref="330250005"/>
    <nd ref="330250010"/>
    <tag k="addr:city" v="Rosche"/>
    <tag k="addr:housenumber" v="1"/>
    <tag k="addr:postcode" v="29571"/>
    <tag k="addr:street" v="Am Lerchenberg"/>
    <tag k="building" v="yes"/>
  </way>
  <way id="29999123" version="1" timestamp="2009-01-08T16:58:08Z" uid="43863" user="Rundling" changeset="756417">
    <nd ref="330250014"/>
    <nd ref="330250012"/>
    <nd ref="330250011"/>
    <nd ref="330250013"/>
    <nd ref="330250014"/>
    <tag k="addr:city" v="Rosche"/>
    <tag k="addr:housenumber" v="3"/>
    <tag k="addr:postcode" v="29571"/>
    <tag k="addr:street" v="Am Lerchenberg"/>
    <tag k="building" v="yes"/>
  </way>
  <way id="29999125" version="1" timestamp="2009-01-08T16:58:09Z" uid="43863" user="Rundling" changeset="756417">
    <nd ref="330250018"/>
    <nd ref="330250016"/>
    <nd ref="330250015"/>
    <nd ref="330250017"/>
    <nd ref="330250018"/>
    <tag k="addr:city" v="Rosche"/>
    <tag k="addr:housenumber" v="5"/>
    <tag k="addr:postcode" v="29571"/>
    <tag k="addr:street" v="Am Lerchenberg"/>
    <tag k="building" v="yes"/>
  </way>
  <way id="29999126" version="1" timestamp="2009-01-08T16:58:10Z" uid="43863" user="Rundling" changeset="756417">
    <nd ref="330250023"/>
    <nd ref="330250021"/>
    <nd ref="330250019"/>
    <nd ref="330250022"/>
    <nd ref="330250023"/>
    <tag k="addr:city" v="Rosche"/>
    <tag k="addr:housenumber" v="7"/>
    <tag k="addr:postcode" v="29571"/>
    <tag k="addr:street" v="Am Lerchenberg"/>
    <tag k="building" v="yes"/>
  </way>
  <way id="29999127" version="1" timestamp="2009-01-08T16:58:10Z" uid="43863" user="Rundling" changeset="756417">
    <nd ref="330250033"/>
    <nd ref="330250025"/>
    <nd ref="330250024"/>
    <nd ref="330250032"/>
    <nd ref="330250033"/>
    <tag k="addr:city" v="Rosche"/>
    <tag k="addr:housenumber" v="9"/>
    <tag k="addr:postcode" v="29571"/>
    <tag k="addr:street" v="Am Lerchenberg"/>
    <tag k="building" v="yes"/>
  </way>
  <way id="29999128" version="1" timestamp="2009-01-08T16:58:11Z" uid="43863" user="Rundling" changeset="756417">
    <nd ref="330250046"/>
    <nd ref="330250035"/>
    <nd ref="330250034"/>
    <nd ref="330250045"/>
    <nd ref="330250046"/>
    <tag k="addr:city" v="Rosche"/>
    <tag k="addr:housenumber" v="11"/>
    <tag k="addr:postcode" v="29571"/>
    <tag k="addr:street" v="Am Lerchenberg"/>
    <tag k="building" v="yes"/>
  </way>
  <way id="29999129" version="1" timestamp="2009-01-08T16:58:11Z" uid="43863" user="Rundling" changeset="756417">
    <nd ref="330250051"/>
    <nd ref="330250048"/>
    <nd ref="330250047"/>
    <nd ref="330250049"/>
    <nd ref="330250051"/>
    <tag k="addr:city" v="Rosche"/>
    <tag k="addr:housenumber" v="13"/>
    <tag k="addr:postcode" v="29571"/>
    <tag k="addr:street" v="Am Lerchenberg"/>
    <tag k="building" v="yes"/>
  </way>
  <way id="29999130" version="1" timestamp="2009-01-08T16:58:12Z" uid="43863" user="Rundling" changeset="756417">
    <nd ref="330250055"/>
    <nd ref="330250053"/>
    <nd ref="330250052"/>
    <nd ref="330250054"/>
    <nd ref="330250055"/>
    <tag k="addr:city" v="Rosche"/>
    <tag k="addr:housenumber" v="20"/>
    <tag k="addr:postcode" v="29571"/>
    <tag k="addr:street" v="Am Lerchenberg"/>
    <tag k="building" v="yes"/>
  </way>
  <way id="29999131" version="1" timestamp="2009-01-08T16:58:13Z" uid="43863" user="Rundling" changeset="756417">
    <nd ref="330250060"/>
    <nd ref="330250058"/>
    <nd ref="330250057"/>
    <nd ref="330250059"/>
    <nd ref="330250060"/>
    <tag k="addr:city" v="Rosche"/>
    <tag k="addr:housenumber" v="22"/>
    <tag k="addr:postcode" v="29571"/>
    <tag k="addr:street" v="Am Lerchenberg"/>
    <tag k="building" v="yes"/>
  </way>
  <way id="29999132" version="1" timestamp="2009-01-08T16:58:13Z" uid="43863" user="Rundling" changeset="756417">
    <nd ref="330250067"/>
    <nd ref="330250062"/>
    <nd ref="330250061"/>
    <nd ref="330250063"/>
    <nd ref="330250067"/>
    <tag k="addr:city" v="Rosche"/>
    <tag k="addr:housenumber" v="21"/>
    <tag k="addr:postcode" v="29571"/>
    <tag k="addr:street" v="Am Lerchenberg"/>
    <tag k="building" v="yes"/>
  </way>
  <way id="29999134" version="1" timestamp="2009-01-08T16:58:14Z" uid="43863" user="Rundling" changeset="756417">
    <nd ref="330250071"/>
    <nd ref="330250069"/>
    <nd ref="330250068"/>
    <nd ref="330250070"/>
    <nd ref="330250071"/>
    <tag k="addr:city" v="Rosche"/>
    <tag k="addr:housenumber" v="16"/>
    <tag k="addr:postcode" v="29571"/>
    <tag k="addr:street" v="Am Lerchenberg"/>
    <tag k="building" v="yes"/>
  </way>
  <way id="29999135" version="1" timestamp="2009-01-08T16:58:15Z" uid="43863" user="Rundling" changeset="756417">
    <nd ref="330250075"/>
    <nd ref="330250073"/>
    <nd ref="330250072"/>
    <nd ref="330250074"/>
    <nd ref="330250075"/>
    <tag k="addr:city" v="Rosche"/>
    <tag k="addr:housenumber" v="18"/>
    <tag k="addr:postcode" v="29571"/>
    <tag k="addr:street" v="Am Lerchenberg"/>
    <tag k="building" v="yes"/>
  </way>
  <way id="29999136" version="1" timestamp="2009-01-08T16:58:15Z" uid="43863" user="Rundling" changeset="756417">
    <nd ref="330250082"/>
    <nd ref="330250078"/>
    <nd ref="330250077"/>
    <nd ref="330250081"/>
    <nd ref="330250082"/>
    <tag k="addr:city" v="Rosche"/>
    <tag k="addr:housenumber" v="14"/>
    <tag k="addr:postcode" v="29571"/>
    <tag k="addr:street" v="Am Lerchenberg"/>
    <tag k="building" v="yes"/>
  </way>
  <way id="29999137" version="1" timestamp="2009-01-08T16:58:16Z" uid="43863" user="Rundling" changeset="756417">
    <nd ref="330250090"/>
    <nd ref="330250088"/>
    <nd ref="330250087"/>
    <nd ref="330250089"/>
    <nd ref="330250090"/>
    <tag k="addr:city" v="Rosche"/>
    <tag k="addr:housenumber" v="12"/>
    <tag k="addr:postcode" v="29571"/>
    <tag k="addr:street" v="Am Lerchenberg"/>
    <tag k="building" v="yes"/>
  </way>
  <way id="29999138" version="1" timestamp="2009-01-08T16:58:16Z" uid="43863" user="Rundling" changeset="756417">
    <nd ref="330250095"/>
    <nd ref="330250092"/>
    <nd ref="330250091"/>
    <nd ref="330250094"/>
    <nd ref="330250095"/>
    <tag k="addr:city" v="Rosche"/>
    <tag k="addr:housenumber" v="10"/>
    <tag k="addr:postcode" v="29571"/>
    <tag k="addr:street" v="Am Lerchenberg"/>
    <tag k="building" v="yes"/>
  </way>
  <way id="29999139" version="1" timestamp="2009-01-08T16:58:17Z" uid="43863" user="Rundling" changeset="756417">
    <nd ref="330250120"/>
    <nd ref="330250100"/>
    <nd ref="330250098"/>
    <nd ref="330250111"/>
    <nd ref="330250120"/>
    <tag k="addr:city" v="Rosche"/>
    <tag k="addr:housenumber" v="4"/>
    <tag k="addr:postcode" v="29571"/>
    <tag k="addr:street" v="Am Lerchenberg"/>
    <tag k="building" v="yes"/>
  </way>
  <way id="29999140" version="1" timestamp="2009-01-08T16:58:18Z" uid="43863" user="Rundling" changeset="756417">
    <nd ref="330250124"/>
    <nd ref="330250122"/>
    <nd ref="330250121"/>
    <nd ref="330250123"/>
    <nd ref="330250124"/>
    <tag k="addr:city" v="Rosche"/>
    <tag k="addr:housenumber" v="1"/>
    <tag k="addr:postcode" v="29571"/>
    <tag k="addr:street" v="Lerchenberg"/>
    <tag k="building" v="yes"/>
  </way>
  <way id="29999141" version="1" timestamp="2009-01-08T16:58:18Z" uid="43863" user="Rundling" changeset="756417">
    <nd ref="330250136"/>
    <nd ref="330250137"/>
    <nd ref="330250138"/>
    <nd ref="330250139"/>
    <nd ref="330250140"/>
    <nd ref="330250141"/>
    <nd ref="330250157"/>
    <nd ref="330250142"/>
    <nd ref="330250160"/>
    <nd ref="330250143"/>
    <nd ref="330250144"/>
    <nd ref="330250145"/>
    <nd ref="330250149"/>
    <nd ref="330250151"/>
    <nd ref="330250152"/>
    <nd ref="330250153"/>
    <nd ref="330250155"/>
    <nd ref="330250156"/>
    <nd ref="330250167"/>
    <nd ref="330250165"/>
    <nd ref="330250136"/>
    <tag k="landuse" v="farmyard"/>
  </way>
  <way id="29999141" version="2" timestamp="2009-02-01T18:58:26Z" uid="43863" user="Rundling" changeset="34014"/>
  <way id="29999142" version="1" timestamp="2009-01-08T16:58:19Z" uid="43863" user="Rundling" changeset="756417">
    <nd ref="330250180"/>
    <nd ref="330250181"/>
    <nd ref="330250182"/>
    <nd ref="330250183"/>
    <nd ref="330250193"/>
    <nd ref="330250196"/>
    <nd ref="330250197"/>
    <nd ref="330250198"/>
    <nd ref="330250201"/>
    <nd ref="330250180"/>
    <tag k="landuse" v="forest"/>
  </way>
  <way id="29999142" version="2" timestamp="2009-01-27T11:58:20Z" uid="43863" user="Rundling" changeset="843319">
    <nd ref="330250180"/>
    <nd ref="330250181"/>
    <nd ref="330250182"/>
    <nd ref="330250183"/>
    <nd ref="330250193"/>
    <nd ref="338282222"/>
    <nd ref="330250196"/>
    <nd ref="330250197"/>
    <nd ref="330250198"/>
    <nd ref="330250201"/>
    <nd ref="330250180"/>
    <tag k="landuse" v="forest"/>
  </way>
  <way id="29999142" version="3" timestamp="2009-02-02T08:06:24Z" uid="43863" user="Rundling" changeset="47952">
    <nd ref="330250180"/>
    <nd ref="339952091"/>
    <nd ref="330250181"/>
    <nd ref="330250182"/>
    <nd ref="330250183"/>
    <nd ref="330250193"/>
    <nd ref="338282222"/>
    <nd ref="330250196"/>
    <nd ref="330250197"/>
    <nd ref="330250198"/>
    <nd ref="330250201"/>
    <nd ref="330250180"/>
    <tag k="landuse" v="forest"/>
  </way>
  <way id="29999142" version="4" timestamp="2009-02-02T10:54:06Z" uid="43863" user="Rundling" changeset="49567"/>
  <way id="29999208" version="1" timestamp="2009-01-08T17:02:39Z" uid="27600" user="Islanit" changeset="756647">
    <nd ref="330250657"/>
    <nd ref="330250656"/>
    <tag k="highway" v="residential"/>
  </way>
  <way id="29999208" version="2" timestamp="2009-04-03T09:28:48Z" uid="27600" user="Islanit" changeset="135901"/>
  <way id="29999216" version="2" timestamp="2009-02-01T17:53:09Z" uid="6975" user="ulfl" changeset="27333">
    <nd ref="330250724"/>
    <nd ref="330250725"/>
    <nd ref="330250727"/>
    <nd ref="330250728"/>
    <nd ref="330250730"/>
    <nd ref="330250732"/>
    <nd ref="330250733"/>
    <nd ref="330250735"/>
    <nd ref="330250736"/>
    <nd ref="330250738"/>
    <nd ref="330250739"/>
    <nd ref="330250741"/>
    <nd ref="330250724"/>
    <tag k="area" v="yes"/>
    <tag k="leisure" v="track"/>
  </way>
  <way id="29999219" version="3" timestamp="2009-10-12T21:29:18Z" uid="36809" user="pfoten_weg_!_" changeset="2831103">
    <nd ref="330250834"/>
    <nd ref="330250836"/>
    <tag k="highway" v="residential"/>
  </way>
  <way id="29999302" version="4" timestamp="2009-10-12T21:28:02Z" uid="36809" user="pfoten_weg_!_" changeset="2831103">
    <nd ref="330251755"/>
    <nd ref="330251756"/>
    <nd ref="330251757"/>
    <nd ref="330251758"/>
    <nd ref="330251755"/>
    <tag k="amenity" v="parking"/>
  </way>
  <way id="29999364" version="3" timestamp="2009-10-02T17:00:23Z" uid="86259" user="hasse_osm_korinthenkacker" changeset="2714981">
    <nd ref="330252261"/>
    <nd ref="330252262"/>
    <nd ref="330252263"/>
    <nd ref="330252264"/>
    <nd ref="330252261"/>
    <tag k="amenity" v="parking"/>
  </way>
  <way id="29999370" version="2" timestamp="2009-10-02T17:00:24Z" uid="86259" user="hasse_osm_korinthenkacker" changeset="2714981">
    <nd ref="330252453"/>
    <nd ref="330252454"/>
    <nd ref="330252455"/>
    <nd ref="330252456"/>
    <nd ref="330252453"/>
    <tag k="amenity" v="parking"/>
  </way>
  <way id="29999497" version="3" timestamp="2010-06-29T20:51:02Z" uid="74617" user="JohnSmith" changeset="5109183">
    <nd ref="330253564"/>
    <nd ref="330253565"/>
    <nd ref="330253567"/>
    <nd ref="330253569"/>
    <nd ref="330253564"/>
    <tag k="fixme" v="sport=rugby is ambiguous, see http://wiki.osm.org/wiki/Tag:sport%3Drugby for more details"/>
    <tag k="leisure" v="stadium"/>
    <tag k="name" v="ClÃ©ment Padrixe"/>
    <tag k="sport" v="rugby"/>
  </way>
  <way id="29999719" version="2" timestamp="2009-02-01T20:43:09Z" uid="6975" user="ulfl" changeset="27333">
    <nd ref="330255353"/>
    <nd ref="330255354"/>
    <nd ref="330255355"/>
    <nd ref="330255356"/>
    <nd ref="330255357"/>
    <nd ref="330255358"/>
    <nd ref="330255359"/>
    <nd ref="330255360"/>
    <nd ref="330255361"/>
    <nd ref="330255362"/>
    <nd ref="330255363"/>
    <nd ref="330255364"/>
    <nd ref="330255365"/>
    <nd ref="330255366"/>
    <nd ref="330255368"/>
    <nd ref="330255369"/>
    <nd ref="330255353"/>
    <tag k="power" v="sub_station"/>
  </way>
  <way id="29999773" version="3" timestamp="2009-10-22T20:48:25Z" uid="36809" user="pfoten_weg_!_" changeset="2925342">
    <nd ref="253325399"/>
    <nd ref="330256006"/>
    <nd ref="330255913"/>
    <nd ref="330255914"/>
    <nd ref="330255915"/>
    <nd ref="330256007"/>
    <tag k="highway" v="track"/>
    <tag k="tracktype" v="grade3"/>
  </way>
  <way id="29999798" version="4" timestamp="2009-10-22T20:48:37Z" uid="36809" user="pfoten_weg_!_" changeset="2925342">
    <nd ref="330256161"/>
    <nd ref="330256162"/>
    <nd ref="330256163"/>
    <nd ref="330256164"/>
    <nd ref="330256161"/>
    <tag k="leisure" v="pitch"/>
  </way>
  <way id="29999811" version="2" timestamp="2009-10-22T20:48:37Z" uid="36809" user="pfoten_weg_!_" changeset="2925342">
    <nd ref="330256254"/>
    <nd ref="330256255"/>
    <nd ref="330256256"/>
    <nd ref="330256257"/>
    <nd ref="330256254"/>
    <tag k="leisure" v="pitch"/>
    <tag k="sport" v="soccer"/>
  </way>
  <way id="29999954" version="3" timestamp="2009-08-24T21:59:36Z" uid="36809" user="pfoten_weg_!_" changeset="2250603">
    <nd ref="330257156"/>
    <nd ref="355716339"/>
    <nd ref="355716345"/>
    <nd ref="330257158"/>
    <nd ref="330257157"/>
    <tag k="man_made" v="pier"/>
    <tag k="nore:de" v="Warnung"/>
  </way>
  <way id="29999954" version="4" timestamp="2009-08-24T22:30:28Z" uid="36809" user="pfoten_weg_!_" changeset="2250754">
    <nd ref="330257156"/>
    <nd ref="355716339"/>
    <nd ref="355716345"/>
    <nd ref="330257158"/>
    <nd ref="330257157"/>
    <tag k="man_made" v="pier"/>
  </way>
</osm>
