<?xml version='1.0' encoding='UTF-8'?>
<osm version="0.6" generator="libosmium/2.20.0">
  <way id="30221107" version="4" timestamp="2009-10-18T10:32:35Z" uid="36809" user="pfoten_weg_!_" changeset="2881738">
    <nd ref="274017428"/>
    <nd ref="272809157"/>
    <tag k="highway" v="residential"/>
    <tag k="name" v="Am Lettenholz"/>
    <tag k="oneway" v="no"/>
  </way>
  <way id="30221277" version="4" timestamp="2009-10-07T17:00:28Z" uid="86259" user="hasse_osm_korinthenkacker" changeset="2773624">
    <nd ref="264297081"/>
    <nd ref="459271368"/>
    <nd ref="25641137"/>
    <tag k="highway" v="primary"/>
    <tag k="name" v="Biesnitzer Straße"/>
    <tag k="railway" v="tram"/>
    <tag k="ref" v="B 99"/>
  </way>
  <way id="30221278" version="4" timestamp="2009-10-07T17:00:28Z" uid="86259" user="hasse_osm_korinthenkacker" changeset="2773624">
    <nd ref="97094433"/>
    <nd ref="249755985"/>
    <nd ref="97094447"/>
    <nd ref="97094453"/>
    <nd ref="97094460"/>
    <nd ref="30515673"/>
    <tag k="highway" v="residential"/>
    <tag k="name" v="Promenadenstraße"/>
    <tag k="railway" v="tram"/>
  </way>
  <way id="30221824" version="2" timestamp="2009-10-18T10:31:15Z" uid="36809" user="pfoten_weg_!_" changeset="2881738">
    <nd ref="272813994"/>
    <nd ref="274017420"/>
    <tag k="highway" v="residential"/>
    <tag k="name" v="Am Lettenholz"/>
  </way>
  <way id="30221839" version="2" timestamp="2009-10-18T10:31:16Z" uid="36809" user="pfoten_weg_!_" changeset="2881738">
    <nd ref="272809099"/>
    <nd ref="272809103"/>
    <tag k="highway" v="residential"/>
    <tag k="name" v="Am Lettenfeld"/>
    <tag k="oneway" v="no"/>
  </way>
  <way id="30221843" version="2" timestamp="2009-10-18T10:32:32Z" uid="36809" user="pfoten_weg_!_" changeset="2881738">
    <nd ref="272809160"/>
    <nd ref="272809161"/>
    <tag k="highway" v="residential"/>
    <tag k="name" v="Am Lettenfeld"/>
    <tag k="oneway" v="no"/>
  </way>
  <way id="30221847" version="2" timestamp="2009-10-18T10:32:30Z" uid="36809" user="pfoten_weg_!_" changeset="2881738">
    <nd ref="272809200"/>
    <nd ref="272809202"/>
    <tag k="highway" v="residential"/>
    <tag k="name" v="Am Lettenfeld"/>
    <tag k="oneway" v="no"/>
  </way>
</osm>
