<?xml version='1.0' encoding='UTF-8'?>
<osm version="0.6" generator="libosmium/2.20.0">
  <way id="30259006" version="3" timestamp="2009-09-30T15:49:15Z" uid="36809" user="pfoten_weg_!_" changeset="2689684">
    <nd ref="333442600"/>
    <nd ref="333442602"/>
    <nd ref="333442607"/>
    <nd ref="333442613"/>
    <nd ref="333442615"/>
    <nd ref="333442623"/>
    <nd ref="333442628"/>
    <tag k="addr:postcode" v="6112"/>
    <tag k="at:maxspeed" v="Ortsgebiet"/>
    <tag k="fixme" v="check import"/>
    <tag k="highway" v="residential"/>
    <tag k="is_in" v="...,Bezirk Innsbruck,Tirol,Österreich,Europa"/>
    <tag k="name" v="Kirchfeld"/>
    <tag k="note" v="imported from plan.at; (C)=CC-by-sa or oDBL; feel free to change if necessary"/>
    <tag k="plan_at:acad_id" v="i9190E"/>
    <tag k="source" v="plan.at 2009"/>
  </way>
  <way id="30259009" version="3" timestamp="2009-09-30T15:50:01Z" uid="36809" user="pfoten_weg_!_" changeset="2689684">
    <nd ref="333442638"/>
    <nd ref="333442657"/>
    <nd ref="333442659"/>
    <nd ref="253337879"/>
    <tag k="addr:postcode" v="6112"/>
    <tag k="at:maxspeed" v="Ortsgebiet"/>
    <tag k="fixme" v="check import"/>
    <tag k="highway" v="residential"/>
    <tag k="is_in" v="...,Bezirk Innsbruck,Tirol,Österreich,Europa"/>
    <tag k="name" v="Karl-Heilig-Straße"/>
    <tag k="note" v="imported from plan.at; (C)=CC-by-sa or oDBL; feel free to change if necessary"/>
    <tag k="plan_at:acad_id" v="i91908"/>
    <tag k="source" v="plan.at 2009"/>
  </way>
  <way id="30259012" version="3" timestamp="2009-09-30T15:50:04Z" uid="36809" user="pfoten_weg_!_" changeset="2689684">
    <nd ref="333442673"/>
    <nd ref="333442675"/>
    <nd ref="333442677"/>
    <nd ref="333442679"/>
    <nd ref="333442681"/>
    <nd ref="333442683"/>
    <nd ref="333434999"/>
    <tag k="addr:postcode" v="6112"/>
    <tag k="at:maxspeed" v="Ortsgebiet"/>
    <tag k="fixme" v="check import"/>
    <tag k="highway" v="residential"/>
    <tag k="is_in" v="...,Bezirk Innsbruck,Tirol,Österreich,Europa"/>
    <tag k="name" v="Kaiserjägerstraße"/>
    <tag k="note" v="imported from plan.at; (C)=CC-by-sa or oDBL; feel free to change if necessary"/>
    <tag k="plan_at:acad_id" v="i91902"/>
    <tag k="source" v="plan.at 2009"/>
  </way>
  <way id="30259018" version="3" timestamp="2009-09-30T15:50:00Z" uid="36809" user="pfoten_weg_!_" changeset="2689684">
    <nd ref="333442703"/>
    <nd ref="333442705"/>
    <nd ref="333442707"/>
    <nd ref="333442709"/>
    <tag k="addr:postcode" v="6112"/>
    <tag k="at:maxspeed" v="Ortsgebiet"/>
    <tag k="fixme" v="check import"/>
    <tag k="highway" v="residential"/>
    <tag k="is_in" v="...,Bezirk Innsbruck,Tirol,Österreich,Europa"/>
    <tag k="name" v="Johann-Kleißl-Weg"/>
    <tag k="note" v="imported from plan.at; (C)=CC-by-sa or oDBL; feel free to change if necessary"/>
    <tag k="plan_at:acad_id" v="i918F9"/>
    <tag k="source" v="plan.at 2009"/>
  </way>
  <way id="30259024" version="3" timestamp="2009-09-30T15:50:08Z" uid="36809" user="pfoten_weg_!_" changeset="2689684">
    <nd ref="333436107"/>
    <nd ref="333442788"/>
    <nd ref="333442790"/>
    <nd ref="333442792"/>
    <nd ref="333442794"/>
    <nd ref="333442796"/>
    <nd ref="333442798"/>
    <tag k="addr:postcode" v="6112"/>
    <tag k="at:maxspeed" v="Ortsgebiet"/>
    <tag k="fixme" v="check import"/>
    <tag k="highway" v="residential"/>
    <tag k="is_in" v="...,Bezirk Innsbruck,Tirol,Österreich,Europa"/>
    <tag k="name" v="Im Ried"/>
    <tag k="note" v="imported from plan.at; (C)=CC-by-sa or oDBL; feel free to change if necessary"/>
    <tag k="plan_at:acad_id" v="i918F0"/>
    <tag k="source" v="plan.at 2009"/>
  </way>
  <way id="30259032" version="3" timestamp="2009-09-30T15:50:05Z" uid="36809" user="pfoten_weg_!_" changeset="2689684">
    <nd ref="333442887"/>
    <nd ref="333442889"/>
    <nd ref="333263744"/>
    <nd ref="333442891"/>
    <nd ref="333442893"/>
    <nd ref="333442894"/>
    <nd ref="333442895"/>
    <nd ref="333442896"/>
    <nd ref="333442898"/>
    <nd ref="333437940"/>
    <tag k="addr:postcode" v="6112"/>
    <tag k="at:maxspeed" v="Ortsgebiet"/>
    <tag k="fixme" v="check import"/>
    <tag k="highway" v="residential"/>
    <tag k="is_in" v="...,Bezirk Innsbruck,Tirol,Österreich,Europa"/>
    <tag k="name" v="Hochschwarzweg"/>
    <tag k="note" v="imported from plan.at; (C)=CC-by-sa or oDBL; feel free to change if necessary"/>
    <tag k="plan_at:acad_id" v="i918E4"/>
    <tag k="source" v="plan.at 2009"/>
  </way>
  <way id="30259032" version="4" timestamp="2010-01-24T08:37:58Z" uid="74027" user="katzlbt" changeset="3698385"/>
  <way id="30259039" version="3" timestamp="2009-09-30T15:50:07Z" uid="36809" user="pfoten_weg_!_" changeset="2689684">
    <nd ref="263270804"/>
    <nd ref="333442971"/>
    <nd ref="333442973"/>
    <nd ref="333436278"/>
    <nd ref="333442975"/>
    <nd ref="333442977"/>
    <nd ref="333442979"/>
    <nd ref="333442908"/>
    <tag k="addr:postcode" v="6112"/>
    <tag k="at:maxspeed" v="Ortsgebiet"/>
    <tag k="fixme" v="check import"/>
    <tag k="highway" v="residential"/>
    <tag k="is_in" v="...,Bezirk Innsbruck,Tirol,Österreich,Europa"/>
    <tag k="name" v="Greisgasse"/>
    <tag k="note" v="imported from plan.at; (C)=CC-by-sa or oDBL; feel free to change if necessary"/>
    <tag k="plan_at:acad_id" v="i918D8"/>
    <tag k="source" v="plan.at 2009"/>
  </way>
  <way id="30259068" version="3" timestamp="2009-09-30T15:49:59Z" uid="36809" user="pfoten_weg_!_" changeset="2689684">
    <nd ref="263270871"/>
    <nd ref="333439676"/>
    <tag k="addr:postcode" v="6112"/>
    <tag k="at:maxspeed" v="Ortsgebiet"/>
    <tag k="fixme" v="check import"/>
    <tag k="highway" v="residential"/>
    <tag k="is_in" v="...,Bezirk Innsbruck,Tirol,Österreich,Europa"/>
    <tag k="name" v="Giegergasse"/>
    <tag k="note" v="imported from plan.at; (C)=CC-by-sa or oDBL; feel free to change if necessary"/>
    <tag k="plan_at:acad_id" v="i918AB"/>
    <tag k="source" v="plan.at 2009"/>
  </way>
  <way id="30259093" version="3" timestamp="2009-09-30T15:50:28Z" uid="36809" user="pfoten_weg_!_" changeset="2689684">
    <nd ref="333443815"/>
    <nd ref="333443817"/>
    <nd ref="333441933"/>
    <nd ref="333443819"/>
    <nd ref="311382728"/>
    <tag k="addr:postcode" v="6114"/>
    <tag k="at:maxspeed" v="Ortsgebiet"/>
    <tag k="fixme" v="check import"/>
    <tag k="highway" v="residential"/>
    <tag k="is_in" v="...,Bezirk Innsbruck,Tirol,Österreich,Europa"/>
    <tag k="name" v="Franz-Haim-Weg"/>
    <tag k="note" v="imported from plan.at; (C)=CC-by-sa or oDBL; feel free to change if necessary"/>
    <tag k="plan_at:acad_id" v="i9187B"/>
    <tag k="source" v="plan.at 2009"/>
  </way>
  <way id="30259098" version="3" timestamp="2009-09-30T15:50:52Z" uid="36809" user="pfoten_weg_!_" changeset="2689684">
    <nd ref="333435066"/>
    <nd ref="333443886"/>
    <nd ref="333443888"/>
    <nd ref="333443890"/>
    <nd ref="333443892"/>
    <nd ref="333443894"/>
    <nd ref="253337748"/>
    <tag k="addr:postcode" v="6112"/>
    <tag k="at:maxspeed" v="Ortsgebiet"/>
    <tag k="fixme" v="check import"/>
    <tag k="highway" v="residential"/>
    <tag k="is_in" v="...,Bezirk Innsbruck,Tirol,Österreich,Europa"/>
    <tag k="name" v="Fischergasse"/>
    <tag k="note" v="imported from plan.at; (C)=CC-by-sa or oDBL; feel free to change if necessary"/>
    <tag k="plan_at:acad_id" v="i9186F"/>
    <tag k="source" v="plan.at 2009"/>
  </way>
  <way id="30259101" version="5" timestamp="2009-09-30T15:50:51Z" uid="36809" user="pfoten_weg_!_" changeset="2689684">
    <nd ref="333443929"/>
    <nd ref="333443931"/>
    <nd ref="333443933"/>
    <nd ref="333443935"/>
    <nd ref="333443937"/>
    <nd ref="333443939"/>
    <nd ref="333443941"/>
    <nd ref="333443943"/>
    <nd ref="333443945"/>
    <nd ref="408078996"/>
    <tag k="addr:postcode" v="6122"/>
    <tag k="at:maxspeed" v="Ortsgebiet"/>
    <tag k="fixme" v="check import"/>
    <tag k="highway" v="residential"/>
    <tag k="is_in" v="...,Bezirk Innsbruck,Tirol,Österreich,Europa"/>
    <tag k="name" v="Eichenweg"/>
    <tag k="note" v="imported from plan.at; (C)=CC-by-sa or oDBL; feel free to change if necessary"/>
    <tag k="plan_at:acad_id" v="i91866"/>
    <tag k="source" v="plan.at 2009"/>
  </way>
  <way id="30259113" version="6" timestamp="2009-09-30T15:50:11Z" uid="36809" user="pfoten_weg_!_" changeset="2689684">
    <nd ref="333444131"/>
    <nd ref="333444133"/>
    <nd ref="333444135"/>
    <nd ref="333444137"/>
    <nd ref="333444139"/>
    <nd ref="333443538"/>
    <nd ref="333439243"/>
    <nd ref="263283308"/>
    <tag k="addr:postcode" v="6122"/>
    <tag k="at:maxspeed" v="Ortsgebiet"/>
    <tag k="fixme" v="check import"/>
    <tag k="highway" v="residential"/>
    <tag k="is_in" v="...,Bezirk Innsbruck,Tirol,Österreich,Europa"/>
    <tag k="name" v="Dorfstraße"/>
    <tag k="note" v="imported from plan.at; (C)=CC-by-sa or oDBL; feel free to change if necessary"/>
    <tag k="plan_at:acad_id" v="i91854"/>
    <tag k="source" v="plan.at 2009"/>
  </way>
  <way id="30259115" version="3" timestamp="2009-09-30T15:50:10Z" uid="36809" user="pfoten_weg_!_" changeset="2689684">
    <nd ref="253337864"/>
    <nd ref="333444176"/>
    <nd ref="333444178"/>
    <nd ref="333444180"/>
    <nd ref="333444182"/>
    <tag k="addr:postcode" v="6112"/>
    <tag k="at:maxspeed" v="Ortsgebiet"/>
    <tag k="fixme" v="check import"/>
    <tag k="highway" v="residential"/>
    <tag k="is_in" v="...,Bezirk Innsbruck,Tirol,Österreich,Europa"/>
    <tag k="name" v="Defregger-Straße"/>
    <tag k="note" v="imported from plan.at; (C)=CC-by-sa or oDBL; feel free to change if necessary"/>
    <tag k="plan_at:acad_id" v="i9184E"/>
    <tag k="source" v="plan.at 2009"/>
  </way>
  <way id="30259118" version="3" timestamp="2009-09-30T15:50:09Z" uid="36809" user="pfoten_weg_!_" changeset="2689684">
    <nd ref="263276943"/>
    <nd ref="333444202"/>
    <nd ref="333444210"/>
    <nd ref="333444217"/>
    <nd ref="333444221"/>
    <nd ref="333444227"/>
    <nd ref="333444234"/>
    <nd ref="333444242"/>
    <tag k="addr:postcode" v="6112"/>
    <tag k="at:maxspeed" v="Ortsgebiet"/>
    <tag k="fixme" v="check import"/>
    <tag k="highway" v="residential"/>
    <tag k="is_in" v="...,Bezirk Innsbruck,Tirol,Österreich,Europa"/>
    <tag k="name" v="Blattenwaldweg"/>
    <tag k="note" v="imported from plan.at; (C)=CC-by-sa or oDBL; feel free to change if necessary"/>
    <tag k="plan_at:acad_id" v="i91848"/>
    <tag k="source" v="plan.at 2009"/>
  </way>
  <way id="30259138" version="5" timestamp="2009-09-30T15:51:16Z" uid="36809" user="pfoten_weg_!_" changeset="2689684">
    <nd ref="365476895"/>
    <nd ref="253337145"/>
    <nd ref="253337147"/>
    <tag k="addr:postcode" v="6112"/>
    <tag k="at:maxspeed" v="Ortsgebiet"/>
    <tag k="fixme" v="check import"/>
    <tag k="highway" v="residential"/>
    <tag k="is_in" v="...,Bezirk Innsbruck,Tirol,Österreich,Europa"/>
    <tag k="name" v="Aulusgasse"/>
    <tag k="note" v="imported from plan.at; (C)=CC-by-sa or oDBL; feel free to change if necessary"/>
    <tag k="plan_at:acad_id" v="i9182A"/>
    <tag k="source" v="plan.at 2009"/>
  </way>
  <way id="30259141" version="4" timestamp="2009-09-30T15:51:17Z" uid="36809" user="pfoten_weg_!_" changeset="2689684">
    <nd ref="253337865"/>
    <nd ref="333444751"/>
    <nd ref="333444753"/>
    <nd ref="333444755"/>
    <nd ref="333444182"/>
    <nd ref="333444763"/>
    <tag k="addr:postcode" v="6112"/>
    <tag k="at:maxspeed" v="Ortsgebiet"/>
    <tag k="fixme" v="check import"/>
    <tag k="highway" v="residential"/>
    <tag k="is_in" v="...,Bezirk Innsbruck,Tirol,Österreich,Europa"/>
    <tag k="name" v="Anich-Straße"/>
    <tag k="note" v="imported from plan.at; (C)=CC-by-sa or oDBL; feel free to change if necessary"/>
    <tag k="plan_at:acad_id" v="i91821"/>
    <tag k="source" v="plan.at 2009"/>
  </way>
  <way id="30259143" version="3" timestamp="2009-09-30T15:51:18Z" uid="36809" user="pfoten_weg_!_" changeset="2689684">
    <nd ref="333438808"/>
    <nd ref="333444786"/>
    <nd ref="333444788"/>
    <nd ref="333444790"/>
    <nd ref="333434971"/>
    <tag k="addr:postcode" v="6112"/>
    <tag k="at:maxspeed" v="Ortsgebiet"/>
    <tag k="fixme" v="check import"/>
    <tag k="highway" v="residential"/>
    <tag k="is_in" v="...,Bezirk Innsbruck,Tirol,Österreich,Europa"/>
    <tag k="name" v="Andrä-Angerer-Gasse"/>
    <tag k="note" v="imported from plan.at; (C)=CC-by-sa or oDBL; feel free to change if necessary"/>
    <tag k="plan_at:acad_id" v="i9181B"/>
    <tag k="source" v="plan.at 2009"/>
  </way>
  <way id="30259155" version="3" timestamp="2009-09-30T15:51:21Z" uid="36809" user="pfoten_weg_!_" changeset="2689684">
    <nd ref="333444937"/>
    <nd ref="333444940"/>
    <nd ref="333444942"/>
    <nd ref="333444944"/>
    <nd ref="333444946"/>
    <tag k="addr:postcode" v="6060"/>
    <tag k="at:maxspeed" v="Ortsgebiet"/>
    <tag k="fixme" v="check import"/>
    <tag k="highway" v="residential"/>
    <tag k="is_in" v="...,Bezirk Innsbruck,Tirol,Österreich,Europa"/>
    <tag k="name" v="Weideweg"/>
    <tag k="note" v="imported from plan.at; (C)=CC-by-sa or oDBL; feel free to change if necessary"/>
    <tag k="plan_at:acad_id" v="i917B5"/>
    <tag k="source" v="plan.at 2009"/>
  </way>
  <way id="30259161" version="3" timestamp="2009-09-30T15:51:23Z" uid="36809" user="pfoten_weg_!_" changeset="2689684">
    <nd ref="333445021"/>
    <nd ref="333445023"/>
    <nd ref="333228396"/>
    <nd ref="333445025"/>
    <nd ref="263216629"/>
    <tag k="addr:postcode" v="6060"/>
    <tag k="at:maxspeed" v="Ortsgebiet"/>
    <tag k="fixme" v="check import"/>
    <tag k="highway" v="residential"/>
    <tag k="is_in" v="...,Bezirk Innsbruck,Tirol,Österreich,Europa"/>
    <tag k="name" v="Wechselweg"/>
    <tag k="note" v="imported from plan.at; (C)=CC-by-sa or oDBL; feel free to change if necessary"/>
    <tag k="plan_at:acad_id" v="i916E0"/>
    <tag k="source" v="plan.at 2009"/>
  </way>
  <way id="30259162" version="3" timestamp="2009-09-30T15:51:24Z" uid="36809" user="pfoten_weg_!_" changeset="2689684">
    <nd ref="333445029"/>
    <nd ref="333445031"/>
    <nd ref="333445033"/>
    <nd ref="333445035"/>
    <tag k="addr:postcode" v="6060"/>
    <tag k="at:maxspeed" v="Ortsgebiet"/>
    <tag k="fixme" v="check import"/>
    <tag k="highway" v="residential"/>
    <tag k="is_in" v="...,Bezirk Innsbruck,Tirol,Österreich,Europa"/>
    <tag k="name" v="Wacholderweg"/>
    <tag k="note" v="imported from plan.at; (C)=CC-by-sa or oDBL; feel free to change if necessary"/>
    <tag k="plan_at:acad_id" v="i916D4"/>
    <tag k="source" v="plan.at 2009"/>
  </way>
  <way id="30259177" version="3" timestamp="2009-09-30T15:50:59Z" uid="36809" user="pfoten_weg_!_" changeset="2689684">
    <nd ref="333445311"/>
    <nd ref="333445313"/>
    <nd ref="333445315"/>
    <nd ref="263269819"/>
    <tag k="addr:postcode" v="6111"/>
    <tag k="at:maxspeed" v="Ortsgebiet"/>
    <tag k="fixme" v="check import"/>
    <tag k="highway" v="residential"/>
    <tag k="is_in" v="...,Bezirk Innsbruck,Tirol,Österreich,Europa"/>
    <tag k="name" v="Volders"/>
    <tag k="note" v="imported from plan.at; (C)=CC-by-sa or oDBL; feel free to change if necessary"/>
    <tag k="plan_at:acad_id" v="i916B6"/>
    <tag k="source" v="plan.at 2009"/>
  </way>
  <way id="30259178" version="3" timestamp="2009-09-30T15:50:57Z" uid="36809" user="pfoten_weg_!_" changeset="2689684">
    <nd ref="263270627"/>
    <nd ref="333445319"/>
    <nd ref="333445321"/>
    <nd ref="333445323"/>
    <nd ref="333445325"/>
    <nd ref="333445327"/>
    <tag k="addr:postcode" v="6111"/>
    <tag k="at:maxspeed" v="Ortsgebiet"/>
    <tag k="fixme" v="check import"/>
    <tag k="highway" v="residential"/>
    <tag k="is_in" v="...,Bezirk Innsbruck,Tirol,Österreich,Europa"/>
    <tag k="name" v="Volders"/>
    <tag k="note" v="imported from plan.at; (C)=CC-by-sa or oDBL; feel free to change if necessary"/>
    <tag k="plan_at:acad_id" v="i916B3"/>
    <tag k="source" v="plan.at 2009"/>
  </way>
  <way id="30259179" version="4" timestamp="2009-09-30T15:50:56Z" uid="36809" user="pfoten_weg_!_" changeset="2689684">
    <nd ref="333445332"/>
    <nd ref="333444992"/>
    <tag k="addr:postcode" v="6111"/>
    <tag k="at:maxspeed" v="Ortsgebiet"/>
    <tag k="fixme" v="check import"/>
    <tag k="highway" v="residential"/>
    <tag k="is_in" v="...,Bezirk Innsbruck,Tirol,Österreich,Europa"/>
    <tag k="name" v="Volders"/>
    <tag k="note" v="imported from plan.at; (C)=CC-by-sa or oDBL; feel free to change if necessary"/>
    <tag k="plan_at:acad_id" v="i916B0"/>
    <tag k="source" v="plan.at 2009"/>
  </way>
  <way id="30259181" version="3" timestamp="2009-09-30T15:51:04Z" uid="36809" user="pfoten_weg_!_" changeset="2689684">
    <nd ref="333445336"/>
    <nd ref="333445338"/>
    <nd ref="333445340"/>
    <nd ref="333445342"/>
    <nd ref="333445344"/>
    <nd ref="333445346"/>
    <nd ref="333445352"/>
    <nd ref="333445355"/>
    <nd ref="333445357"/>
    <nd ref="333445359"/>
    <nd ref="333445361"/>
    <nd ref="333445363"/>
    <nd ref="333445365"/>
    <nd ref="333445367"/>
    <tag k="addr:postcode" v="6111"/>
    <tag k="at:maxspeed" v="Ortsgebiet"/>
    <tag k="fixme" v="check import"/>
    <tag k="highway" v="residential"/>
    <tag k="is_in" v="...,Bezirk Innsbruck,Tirol,Österreich,Europa"/>
    <tag k="name" v="Volders"/>
    <tag k="note" v="imported from plan.at; (C)=CC-by-sa or oDBL; feel free to change if necessary"/>
    <tag k="plan_at:acad_id" v="i916AD"/>
    <tag k="source" v="plan.at 2009"/>
  </way>
  <way id="30259183" version="3" timestamp="2009-09-30T15:51:00Z" uid="36809" user="pfoten_weg_!_" changeset="2689684">
    <nd ref="263270630"/>
    <nd ref="333445372"/>
    <nd ref="333445374"/>
    <nd ref="333445375"/>
    <nd ref="333445376"/>
    <nd ref="333445377"/>
    <tag k="addr:postcode" v="6111"/>
    <tag k="at:maxspeed" v="Ortsgebiet"/>
    <tag k="fixme" v="check import"/>
    <tag k="highway" v="residential"/>
    <tag k="is_in" v="...,Bezirk Innsbruck,Tirol,Österreich,Europa"/>
    <tag k="name" v="Volders"/>
    <tag k="note" v="imported from plan.at; (C)=CC-by-sa or oDBL; feel free to change if necessary"/>
    <tag k="plan_at:acad_id" v="i916AA"/>
    <tag k="source" v="plan.at 2009"/>
  </way>
  <way id="30259184" version="3" timestamp="2009-09-30T15:51:07Z" uid="36809" user="pfoten_weg_!_" changeset="2689684">
    <nd ref="263270624"/>
    <nd ref="333445380"/>
    <nd ref="333445382"/>
    <nd ref="333445384"/>
    <nd ref="333445386"/>
    <nd ref="333445388"/>
    <nd ref="333445357"/>
    <tag k="addr:postcode" v="6111"/>
    <tag k="at:maxspeed" v="Ortsgebiet"/>
    <tag k="fixme" v="check import"/>
    <tag k="highway" v="residential"/>
    <tag k="is_in" v="...,Bezirk Innsbruck,Tirol,Österreich,Europa"/>
    <tag k="name" v="Volders"/>
    <tag k="note" v="imported from plan.at; (C)=CC-by-sa or oDBL; feel free to change if necessary"/>
    <tag k="plan_at:acad_id" v="i916A7"/>
    <tag k="source" v="plan.at 2009"/>
  </way>
  <way id="30259185" version="3" timestamp="2009-09-30T15:51:09Z" uid="36809" user="pfoten_weg_!_" changeset="2689684">
    <nd ref="263268540"/>
    <nd ref="333445392"/>
    <nd ref="333445394"/>
    <nd ref="333445396"/>
    <nd ref="333445398"/>
    <nd ref="333445400"/>
    <nd ref="263268943"/>
    <tag k="addr:postcode" v="6111"/>
    <tag k="at:maxspeed" v="Ortsgebiet"/>
    <tag k="fixme" v="check import"/>
    <tag k="highway" v="residential"/>
    <tag k="is_in" v="...,Bezirk Innsbruck,Tirol,Österreich,Europa"/>
    <tag k="name" v="Volders"/>
    <tag k="note" v="imported from plan.at; (C)=CC-by-sa or oDBL; feel free to change if necessary"/>
    <tag k="plan_at:acad_id" v="i916A4"/>
    <tag k="source" v="plan.at 2009"/>
  </way>
  <way id="30259187" version="3" timestamp="2009-09-30T15:51:06Z" uid="36809" user="pfoten_weg_!_" changeset="2689684">
    <nd ref="333445403"/>
    <nd ref="333445404"/>
    <nd ref="333445405"/>
    <nd ref="333445406"/>
    <tag k="addr:postcode" v="6111"/>
    <tag k="at:maxspeed" v="Ortsgebiet"/>
    <tag k="fixme" v="check import"/>
    <tag k="highway" v="residential"/>
    <tag k="is_in" v="...,Bezirk Innsbruck,Tirol,Österreich,Europa"/>
    <tag k="name" v="Volders"/>
    <tag k="note" v="imported from plan.at; (C)=CC-by-sa or oDBL; feel free to change if necessary"/>
    <tag k="plan_at:acad_id" v="i916A1"/>
    <tag k="source" v="plan.at 2009"/>
  </way>
  <way id="30259188" version="3" timestamp="2009-09-30T15:51:13Z" uid="36809" user="pfoten_weg_!_" changeset="2689684">
    <nd ref="333445411"/>
    <nd ref="333445413"/>
    <nd ref="333445415"/>
    <nd ref="333445417"/>
    <nd ref="333445419"/>
    <nd ref="333445421"/>
    <tag k="addr:postcode" v="6111"/>
    <tag k="at:maxspeed" v="Ortsgebiet"/>
    <tag k="fixme" v="check import"/>
    <tag k="highway" v="residential"/>
    <tag k="is_in" v="...,Bezirk Innsbruck,Tirol,Österreich,Europa"/>
    <tag k="name" v="Volders"/>
    <tag k="note" v="imported from plan.at; (C)=CC-by-sa or oDBL; feel free to change if necessary"/>
    <tag k="plan_at:acad_id" v="i9169E"/>
    <tag k="source" v="plan.at 2009"/>
  </way>
  <way id="30259191" version="3" timestamp="2009-09-30T15:51:11Z" uid="36809" user="pfoten_weg_!_" changeset="2689684">
    <nd ref="333445441"/>
    <nd ref="333445443"/>
    <nd ref="333445445"/>
    <nd ref="333445447"/>
    <tag k="addr:postcode" v="6111"/>
    <tag k="at:maxspeed" v="Ortsgebiet"/>
    <tag k="fixme" v="check import"/>
    <tag k="highway" v="residential"/>
    <tag k="is_in" v="...,Bezirk Innsbruck,Tirol,Österreich,Europa"/>
    <tag k="name" v="Vogeltennen"/>
    <tag k="note" v="imported from plan.at; (C)=CC-by-sa or oDBL; feel free to change if necessary"/>
    <tag k="plan_at:acad_id" v="i91695"/>
    <tag k="source" v="plan.at 2009"/>
  </way>
  <way id="30259201" version="3" timestamp="2009-09-30T15:42:09Z" uid="36809" user="pfoten_weg_!_" changeset="2689684">
    <nd ref="333445637"/>
    <nd ref="333445638"/>
    <nd ref="333445639"/>
    <nd ref="333445641"/>
    <nd ref="333445643"/>
    <nd ref="333445645"/>
    <nd ref="333445647"/>
    <nd ref="333445649"/>
    <nd ref="333445651"/>
    <nd ref="333445653"/>
    <nd ref="333445655"/>
    <nd ref="333445656"/>
    <nd ref="333445657"/>
    <nd ref="333445659"/>
    <nd ref="333445661"/>
    <nd ref="333445665"/>
    <nd ref="333445667"/>
    <nd ref="333445669"/>
    <nd ref="333445671"/>
    <nd ref="333445673"/>
    <nd ref="333445674"/>
    <nd ref="333445675"/>
    <nd ref="333445678"/>
    <nd ref="333445680"/>
    <nd ref="333445682"/>
    <nd ref="333445684"/>
    <nd ref="333445686"/>
    <nd ref="333445687"/>
    <nd ref="333445688"/>
    <nd ref="333445690"/>
    <nd ref="333445692"/>
    <nd ref="333445694"/>
    <tag k="addr:postcode" v="6111"/>
    <tag k="at:maxspeed" v="Ortsgebiet"/>
    <tag k="fixme" v="check import"/>
    <tag k="highway" v="residential"/>
    <tag k="is_in" v="...,Bezirk Innsbruck,Tirol,Österreich,Europa"/>
    <tag k="name" v="Unterberg"/>
    <tag k="note" v="imported from plan.at; (C)=CC-by-sa or oDBL; feel free to change if necessary"/>
    <tag k="plan_at:acad_id" v="i91668"/>
    <tag k="source" v="plan.at 2009"/>
  </way>
  <way id="30259212" version="2" timestamp="2009-09-30T14:35:12Z" uid="36809" user="pfoten_weg_!_" changeset="2688850">
    <nd ref="287146741"/>
    <nd ref="333445869"/>
    <nd ref="333445870"/>
    <nd ref="333445871"/>
    <nd ref="333268049"/>
    <nd ref="333445872"/>
    <tag k="addr:postcode" v="6060"/>
    <tag k="at:maxspeed" v="Ortsgebiet"/>
    <tag k="fixme" v="check import"/>
    <tag k="highway:plan.at:i9" v="residential"/>
    <tag k="is_in" v="...,Bezirk Innsbruck,Tirol,Österreich,Europa"/>
    <tag k="name" v="Tulfes"/>
    <tag k="note" v="imported from plan.at; (C)=CC-by-sa or oDBL; feel free to change if necessary"/>
    <tag k="plan_at:acad_id" v="i91650"/>
    <tag k="uploaded_by" v="Wolfgang W. Wasserburger"/>
  </way>
  <way id="30259212" version="3" timestamp="2009-09-30T15:42:15Z" uid="36809" user="pfoten_weg_!_" changeset="2689684">
    <nd ref="287146741"/>
    <nd ref="333445869"/>
    <nd ref="333445870"/>
    <nd ref="333445871"/>
    <nd ref="333268049"/>
    <nd ref="333445872"/>
    <tag k="addr:postcode" v="6060"/>
    <tag k="at:maxspeed" v="Ortsgebiet"/>
    <tag k="fixme" v="check import"/>
    <tag k="highway:plan.at:i9" v="residential"/>
    <tag k="is_in" v="...,Bezirk Innsbruck,Tirol,Österreich,Europa"/>
    <tag k="name" v="Tulfes"/>
    <tag k="note" v="imported from plan.at; (C)=CC-by-sa or oDBL; feel free to change if necessary"/>
    <tag k="plan_at:acad_id" v="i91650"/>
  </way>
  <way id="30259214" version="3" timestamp="2009-09-30T14:35:10Z" uid="36809" user="pfoten_weg_!_" changeset="2688850">
    <nd ref="333445877"/>
    <nd ref="333445879"/>
    <nd ref="333445881"/>
    <nd ref="333445883"/>
    <nd ref="333445885"/>
    <nd ref="333275700"/>
    <nd ref="333445887"/>
    <nd ref="333445888"/>
    <nd ref="333445890"/>
    <nd ref="333445892"/>
    <nd ref="333445894"/>
    <nd ref="333445896"/>
    <nd ref="333445897"/>
    <nd ref="333445898"/>
    <nd ref="333445900"/>
    <tag k="addr:postcode" v="6060"/>
    <tag k="at:maxspeed" v="Ortsgebiet"/>
    <tag k="fixme" v="check import"/>
    <tag k="highway" v="residential"/>
    <tag k="is_in" v="...,Bezirk Innsbruck,Tirol,Österreich,Europa"/>
    <tag k="name" v="Tulfes"/>
    <tag k="note" v="imported from plan.at; (C)=CC-by-sa or oDBL; feel free to change if necessary"/>
    <tag k="plan_at:acad_id" v="i9164D"/>
    <tag k="uploaded_by" v="Wolfgang W. Wasserburger"/>
  </way>
  <way id="30259222" version="3" timestamp="2009-09-30T14:35:21Z" uid="36809" user="pfoten_weg_!_" changeset="2688850">
    <nd ref="333446222"/>
    <nd ref="333446229"/>
    <nd ref="333446234"/>
    <nd ref="333446240"/>
    <nd ref="333446247"/>
    <nd ref="333446255"/>
    <nd ref="333275790"/>
    <tag k="addr:postcode" v="6060"/>
    <tag k="at:maxspeed" v="Ortsgebiet"/>
    <tag k="fixme" v="check import"/>
    <tag k="highway" v="residential"/>
    <tag k="is_in" v="...,Bezirk Innsbruck,Tirol,Österreich,Europa"/>
    <tag k="name" v="Stiegele"/>
    <tag k="note" v="imported from plan.at; (C)=CC-by-sa or oDBL; feel free to change if necessary"/>
    <tag k="plan_at:acad_id" v="i91602"/>
    <tag k="uploaded_by" v="Wolfgang W. Wasserburger"/>
  </way>
  <way id="30259246" version="3" timestamp="2009-09-30T15:42:31Z" uid="36809" user="pfoten_weg_!_" changeset="2689684">
    <nd ref="338478192"/>
    <nd ref="263269411"/>
    <nd ref="263269412"/>
    <nd ref="263269413"/>
    <nd ref="333445403"/>
    <nd ref="263269414"/>
    <nd ref="263269415"/>
    <nd ref="263269416"/>
    <nd ref="263269418"/>
    <nd ref="263269419"/>
    <tag k="addr:postcode" v="6111"/>
    <tag k="at:maxspeed" v="Ortsgebiet"/>
    <tag k="fixme" v="check import"/>
    <tag k="highway" v="residential"/>
    <tag k="highway:plan.at:i9" v="residential"/>
    <tag k="is_in" v="...,Bezirk Innsbruck,Tirol,Österreich,Europa"/>
    <tag k="name" v="Bruggenfeldstraße"/>
    <tag k="note" v="imported from plan.at; (C)=CC-by-sa or oDBL; feel free to change if necessary"/>
    <tag k="plan_at:acad_id" v="i9154B"/>
    <tag k="source" v="plan.at 2009"/>
  </way>
  <way id="30259248" version="3" timestamp="2009-09-30T15:42:45Z" uid="36809" user="pfoten_weg_!_" changeset="2689684">
    <nd ref="333446602"/>
    <nd ref="333446604"/>
    <nd ref="333446606"/>
    <nd ref="333446608"/>
    <tag k="addr:postcode" v="6060"/>
    <tag k="at:maxspeed" v="Ortsgebiet"/>
    <tag k="fixme" v="check import"/>
    <tag k="highway" v="residential"/>
    <tag k="is_in" v="...,Bezirk Innsbruck,Tirol,Österreich,Europa"/>
    <tag k="name" v="Schoberfeld"/>
    <tag k="note" v="imported from plan.at; (C)=CC-by-sa or oDBL; feel free to change if necessary"/>
    <tag k="plan_at:acad_id" v="i91539"/>
    <tag k="source" v="plan.at 2009"/>
  </way>
  <way id="30259253" version="3" timestamp="2009-09-30T15:42:46Z" uid="36809" user="pfoten_weg_!_" changeset="2689684">
    <nd ref="333446626"/>
    <nd ref="333446629"/>
    <nd ref="333446631"/>
    <tag k="addr:postcode" v="6060"/>
    <tag k="at:maxspeed" v="Ortsgebiet"/>
    <tag k="fixme" v="check import"/>
    <tag k="highway:plan.at:i9" v="residential"/>
    <tag k="is_in" v="...,Bezirk Innsbruck,Tirol,Österreich,Europa"/>
    <tag k="name" v="Schneeburgstraße"/>
    <tag k="note" v="imported from plan.at; (C)=CC-by-sa or oDBL; feel free to change if necessary"/>
    <tag k="plan_at:acad_id" v="i91530"/>
    <tag k="source" v="plan.at 2009"/>
  </way>
  <way id="30259263" version="3" timestamp="2009-09-30T15:42:49Z" uid="36809" user="pfoten_weg_!_" changeset="2689684">
    <nd ref="333446779"/>
    <nd ref="333446781"/>
    <nd ref="333446783"/>
    <nd ref="333446652"/>
    <tag k="addr:postcode" v="6060"/>
    <tag k="at:maxspeed" v="Ortsgebiet"/>
    <tag k="fixme" v="check import"/>
    <tag k="highway" v="residential"/>
    <tag k="is_in" v="...,Bezirk Innsbruck,Tirol,Österreich,Europa"/>
    <tag k="name" v="Schloßfeld"/>
    <tag k="note" v="imported from plan.at; (C)=CC-by-sa or oDBL; feel free to change if necessary"/>
    <tag k="plan_at:acad_id" v="i91500"/>
    <tag k="source" v="plan.at 2009"/>
  </way>
  <way id="30259267" version="3" timestamp="2009-09-30T15:41:42Z" uid="36809" user="pfoten_weg_!_" changeset="2689684">
    <nd ref="333446814"/>
    <nd ref="333446816"/>
    <nd ref="333446818"/>
    <nd ref="333446820"/>
    <nd ref="333446821"/>
    <nd ref="333446822"/>
    <nd ref="333446823"/>
    <nd ref="333446824"/>
    <nd ref="333446825"/>
    <nd ref="333446826"/>
    <nd ref="333446827"/>
    <nd ref="333446828"/>
    <nd ref="333446829"/>
    <nd ref="333446830"/>
    <nd ref="333446831"/>
    <nd ref="333446832"/>
    <nd ref="333446833"/>
    <nd ref="333446834"/>
    <nd ref="333446835"/>
    <nd ref="333446836"/>
    <nd ref="333446837"/>
    <nd ref="333446838"/>
    <nd ref="333446839"/>
    <nd ref="333446840"/>
    <nd ref="263268940"/>
    <nd ref="263268943"/>
    <tag k="addr:postcode" v="6111"/>
    <tag k="at:maxspeed" v="Ortsgebiet"/>
    <tag k="fixme" v="check import"/>
    <tag k="highway" v="residential"/>
    <tag k="is_in" v="...,Bezirk Innsbruck,Tirol,Österreich,Europa"/>
    <tag k="name" v="Schloß-Aschach-Weg"/>
    <tag k="note" v="imported from plan.at; (C)=CC-by-sa or oDBL; feel free to change if necessary"/>
    <tag k="plan_at:acad_id" v="i914F7"/>
    <tag k="source" v="plan.at 2009"/>
  </way>
  <way id="30259271" version="3" timestamp="2009-09-30T15:41:41Z" uid="36809" user="pfoten_weg_!_" changeset="2689684">
    <nd ref="333446881"/>
    <nd ref="333446882"/>
    <nd ref="333446883"/>
    <nd ref="333446885"/>
    <nd ref="333446887"/>
    <nd ref="333446889"/>
    <nd ref="333446891"/>
    <nd ref="333446893"/>
    <nd ref="333446895"/>
    <tag k="addr:postcode" v="6060"/>
    <tag k="at:maxspeed" v="Ortsgebiet"/>
    <tag k="fixme" v="check import"/>
    <tag k="highway" v="residential"/>
    <tag k="is_in" v="...,Bezirk Innsbruck,Tirol,Österreich,Europa"/>
    <tag k="name" v="Sauruggen"/>
    <tag k="note" v="imported from plan.at; (C)=CC-by-sa or oDBL; feel free to change if necessary"/>
    <tag k="plan_at:acad_id" v="i914CD"/>
    <tag k="source" v="plan.at 2009"/>
  </way>
  <way id="30259278" version="3" timestamp="2009-09-30T15:41:45Z" uid="36809" user="pfoten_weg_!_" changeset="2689684">
    <nd ref="333446950"/>
    <nd ref="333446955"/>
    <nd ref="333446961"/>
    <nd ref="333446639"/>
    <tag k="addr:postcode" v="6060"/>
    <tag k="at:maxspeed" v="Ortsgebiet"/>
    <tag k="fixme" v="check import"/>
    <tag k="highway" v="residential"/>
    <tag k="is_in" v="...,Bezirk Innsbruck,Tirol,Österreich,Europa"/>
    <tag k="name" v="Rosenweg"/>
    <tag k="note" v="imported from plan.at; (C)=CC-by-sa or oDBL; feel free to change if necessary"/>
    <tag k="plan_at:acad_id" v="i9149A"/>
    <tag k="source" v="plan.at 2009"/>
  </way>
  <way id="30259292" version="3" timestamp="2009-09-30T15:41:52Z" uid="36809" user="pfoten_weg_!_" changeset="2689684">
    <nd ref="263279614"/>
    <nd ref="333447102"/>
    <nd ref="333447104"/>
    <nd ref="333447106"/>
    <nd ref="333447108"/>
    <nd ref="333447110"/>
    <nd ref="333447112"/>
    <nd ref="333447114"/>
    <nd ref="333447116"/>
    <nd ref="333447118"/>
    <nd ref="333447120"/>
    <nd ref="333447122"/>
    <nd ref="333447124"/>
    <nd ref="333447126"/>
    <tag k="addr:postcode" v="6121"/>
    <tag k="at:maxspeed" v="Ortsgebiet"/>
    <tag k="fixme" v="check import"/>
    <tag k="highway" v="residential"/>
    <tag k="is_in" v="...,Bezirk Innsbruck,Tirol,Österreich,Europa"/>
    <tag k="name" v="Riedfeldweg"/>
    <tag k="note" v="imported from plan.at; (C)=CC-by-sa or oDBL; feel free to change if necessary"/>
    <tag k="plan_at:acad_id" v="i91461"/>
    <tag k="source" v="plan.at 2009"/>
  </way>
  <way id="30259294" version="3" timestamp="2009-09-30T15:41:50Z" uid="36809" user="pfoten_weg_!_" changeset="2689684">
    <nd ref="333446787"/>
    <nd ref="333447130"/>
    <nd ref="333447132"/>
    <nd ref="333447134"/>
    <nd ref="333447136"/>
    <nd ref="333447138"/>
    <nd ref="333447140"/>
    <nd ref="333447142"/>
    <nd ref="333447144"/>
    <nd ref="333447146"/>
    <nd ref="333447147"/>
    <nd ref="333447148"/>
    <nd ref="333447149"/>
    <nd ref="333447150"/>
    <nd ref="333446791"/>
    <tag k="addr:postcode" v="6111"/>
    <tag k="at:maxspeed" v="Ortsgebiet"/>
    <tag k="fixme" v="check import"/>
    <tag k="highway" v="residential"/>
    <tag k="is_in" v="...,Bezirk Innsbruck,Tirol,Österreich,Europa"/>
    <tag k="name" v="Rettenbergstraße"/>
    <tag k="note" v="imported from plan.at; (C)=CC-by-sa or oDBL; feel free to change if necessary"/>
    <tag k="plan_at:acad_id" v="i9144C"/>
    <tag k="source" v="plan.at 2009"/>
  </way>
  <way id="30259296" version="3" timestamp="2009-09-30T15:41:59Z" uid="36809" user="pfoten_weg_!_" changeset="2689684">
    <nd ref="333447165"/>
    <nd ref="333228012"/>
    <tag k="addr:postcode" v="6060"/>
    <tag k="at:maxspeed" v="Ortsgebiet"/>
    <tag k="fixme" v="check import"/>
    <tag k="highway" v="track"/>
    <tag k="is_in" v="...,Bezirk Innsbruck,Tirol,Österreich,Europa"/>
    <tag k="name" v="Reschweg"/>
    <tag k="note" v="imported from plan.at; (C)=CC-by-sa or oDBL; feel free to change if necessary"/>
    <tag k="plan_at:acad_id" v="i91437"/>
    <tag k="source" v="plan.at 2009"/>
  </way>
  <way id="30259297" version="3" timestamp="2009-09-30T15:41:59Z" uid="36809" user="pfoten_weg_!_" changeset="2689684">
    <nd ref="263269342"/>
    <nd ref="333447169"/>
    <nd ref="333447171"/>
    <nd ref="333447173"/>
    <nd ref="333447175"/>
    <nd ref="333447177"/>
    <nd ref="333445403"/>
    <tag k="addr:postcode" v="6111"/>
    <tag k="at:maxspeed" v="Ortsgebiet"/>
    <tag k="fixme" v="check import"/>
    <tag k="highway" v="residential"/>
    <tag k="is_in" v="...,Bezirk Innsbruck,Tirol,Österreich,Europa"/>
    <tag k="name" v="Reitgraben"/>
    <tag k="note" v="imported from plan.at; (C)=CC-by-sa or oDBL; feel free to change if necessary"/>
    <tag k="plan_at:acad_id" v="i91422"/>
    <tag k="source" v="plan.at 2009"/>
  </way>
  <way id="30259299" version="2" timestamp="2009-09-30T15:42:00Z" uid="36809" user="pfoten_weg_!_" changeset="2689684">
    <nd ref="333447187"/>
    <nd ref="333447189"/>
    <nd ref="263269907"/>
    <nd ref="263269908"/>
    <nd ref="333447191"/>
    <nd ref="263269909"/>
    <nd ref="263269187"/>
    <tag k="addr:postcode" v="6111"/>
    <tag k="at:maxspeed" v="Ortsgebiet"/>
    <tag k="fixme" v="check import"/>
    <tag k="highway:plan.at:i9" v="residential"/>
    <tag k="is_in" v="...,Bezirk Innsbruck,Tirol,Österreich,Europa"/>
    <tag k="name" v="Rauchenbergstraße"/>
    <tag k="note" v="imported from plan.at; (C)=CC-by-sa or oDBL; feel free to change if necessary"/>
    <tag k="plan_at:acad_id" v="i9140D"/>
    <tag k="source" v="plan.at 2009"/>
  </way>
  <way id="30259300" version="3" timestamp="2009-09-30T15:41:57Z" uid="36809" user="pfoten_weg_!_" changeset="2689684">
    <nd ref="333228012"/>
    <nd ref="333447195"/>
    <nd ref="333447199"/>
    <nd ref="333447205"/>
    <tag k="addr:postcode" v="6060"/>
    <tag k="at:maxspeed" v="Ortsgebiet"/>
    <tag k="fixme" v="check import"/>
    <tag k="highway" v="residential"/>
    <tag k="is_in" v="...,Bezirk Innsbruck,Tirol,Österreich,Europa"/>
    <tag k="name" v="Raschweg"/>
    <tag k="note" v="imported from plan.at; (C)=CC-by-sa or oDBL; feel free to change if necessary"/>
    <tag k="plan_at:acad_id" v="i9140A"/>
    <tag k="source" v="plan.at 2009"/>
  </way>
  <way id="30259311" version="3" timestamp="2009-09-30T15:42:02Z" uid="36809" user="pfoten_weg_!_" changeset="2689684">
    <nd ref="333447452"/>
    <nd ref="333447454"/>
    <nd ref="263279828"/>
    <tag k="addr:postcode" v="6121"/>
    <tag k="at:maxspeed" v="Ortsgebiet"/>
    <tag k="fixme" v="check import"/>
    <tag k="highway" v="residential"/>
    <tag k="is_in" v="...,Bezirk Innsbruck,Tirol,Österreich,Europa"/>
    <tag k="name" v="Oberfeldweg"/>
    <tag k="note" v="imported from plan.at; (C)=CC-by-sa or oDBL; feel free to change if necessary"/>
    <tag k="plan_at:acad_id" v="i9133E"/>
    <tag k="source" v="plan.at 2009"/>
  </way>
  <way id="30259322" version="3" timestamp="2009-09-30T14:34:59Z" uid="36809" user="pfoten_weg_!_" changeset="2688850">
    <nd ref="333447574"/>
    <nd ref="333447576"/>
    <nd ref="333447578"/>
    <nd ref="333447580"/>
    <nd ref="333447581"/>
    <nd ref="333447582"/>
    <nd ref="333447584"/>
    <nd ref="333447586"/>
    <nd ref="333447588"/>
    <nd ref="333447590"/>
    <nd ref="333447592"/>
    <nd ref="333447594"/>
    <nd ref="333447596"/>
    <nd ref="333447598"/>
    <nd ref="333447600"/>
    <nd ref="333447602"/>
    <nd ref="333447604"/>
    <nd ref="333447606"/>
    <nd ref="333447608"/>
    <nd ref="333447610"/>
    <nd ref="333447612"/>
    <nd ref="333447614"/>
    <nd ref="333447616"/>
    <nd ref="333447618"/>
    <nd ref="333447621"/>
    <nd ref="333447623"/>
    <nd ref="333447625"/>
    <nd ref="333447627"/>
    <nd ref="333447629"/>
    <nd ref="333447633"/>
    <nd ref="333447635"/>
    <nd ref="333447637"/>
    <nd ref="333447639"/>
    <nd ref="333447641"/>
    <nd ref="333447643"/>
    <nd ref="333447648"/>
    <nd ref="333447650"/>
    <nd ref="333447652"/>
    <nd ref="333447654"/>
    <nd ref="333447656"/>
    <nd ref="333447658"/>
    <nd ref="333447660"/>
    <nd ref="333447662"/>
    <nd ref="333447664"/>
    <nd ref="333447666"/>
    <nd ref="333447668"/>
    <nd ref="333447670"/>
    <nd ref="333447672"/>
    <nd ref="333447674"/>
    <nd ref="333447676"/>
    <nd ref="333447678"/>
    <nd ref="333447680"/>
    <nd ref="333447682"/>
    <nd ref="333447684"/>
    <nd ref="333447686"/>
    <nd ref="333447688"/>
    <nd ref="333447691"/>
    <nd ref="333447692"/>
    <nd ref="333447693"/>
    <nd ref="333447694"/>
    <nd ref="333447695"/>
    <nd ref="333447696"/>
    <nd ref="333447698"/>
    <nd ref="333447700"/>
    <nd ref="333447702"/>
    <nd ref="333447704"/>
    <nd ref="333447710"/>
    <nd ref="333447713"/>
    <nd ref="333447715"/>
    <nd ref="333447717"/>
    <nd ref="333447719"/>
    <nd ref="333447721"/>
    <nd ref="333447723"/>
    <nd ref="333447725"/>
    <nd ref="333447727"/>
    <nd ref="333447729"/>
    <nd ref="333447731"/>
    <nd ref="333447733"/>
    <nd ref="333447735"/>
    <nd ref="333447737"/>
    <nd ref="333447739"/>
    <nd ref="333447741"/>
    <nd ref="333447743"/>
    <nd ref="333447744"/>
    <nd ref="333447745"/>
    <nd ref="333447746"/>
    <nd ref="333447748"/>
    <nd ref="333447750"/>
    <nd ref="333447752"/>
    <nd ref="333447754"/>
    <nd ref="333447756"/>
    <nd ref="333447758"/>
    <nd ref="333447760"/>
    <nd ref="333447762"/>
    <nd ref="333447764"/>
    <nd ref="333447766"/>
    <nd ref="333447768"/>
    <nd ref="333447770"/>
    <nd ref="333447772"/>
    <tag k="addr:postcode" v="6111"/>
    <tag k="at:maxspeed" v="Ortsgebiet"/>
    <tag k="fixme" v="check import"/>
    <tag k="highway" v="residential"/>
    <tag k="is_in" v="...,Bezirk Innsbruck,Tirol,Österreich,Europa"/>
    <tag k="name" v="Oberbergstraße"/>
    <tag k="note" v="imported from plan.at; (C)=CC-by-sa or oDBL; feel free to change if necessary"/>
    <tag k="plan_at:acad_id" v="i91335"/>
    <tag k="uploaded_by" v="Wolfgang W. Wasserburger"/>
  </way>
  <way id="30259322" version="4" timestamp="2009-09-30T15:42:06Z" uid="36809" user="pfoten_weg_!_" changeset="2689684">
    <nd ref="333447574"/>
    <nd ref="333447576"/>
    <nd ref="333447578"/>
    <nd ref="333447580"/>
    <nd ref="333447581"/>
    <nd ref="333447582"/>
    <nd ref="333447584"/>
    <nd ref="333447586"/>
    <nd ref="333447588"/>
    <nd ref="333447590"/>
    <nd ref="333447592"/>
    <nd ref="333447594"/>
    <nd ref="333447596"/>
    <nd ref="333447598"/>
    <nd ref="333447600"/>
    <nd ref="333447602"/>
    <nd ref="333447604"/>
    <nd ref="333447606"/>
    <nd ref="333447608"/>
    <nd ref="333447610"/>
    <nd ref="333447612"/>
    <nd ref="333447614"/>
    <nd ref="333447616"/>
    <nd ref="333447618"/>
    <nd ref="333447621"/>
    <nd ref="333447623"/>
    <nd ref="333447625"/>
    <nd ref="333447627"/>
    <nd ref="333447629"/>
    <nd ref="333447633"/>
    <nd ref="333447635"/>
    <nd ref="333447637"/>
    <nd ref="333447639"/>
    <nd ref="333447641"/>
    <nd ref="333447643"/>
    <nd ref="333447648"/>
    <nd ref="333447650"/>
    <nd ref="333447652"/>
    <nd ref="333447654"/>
    <nd ref="333447656"/>
    <nd ref="333447658"/>
    <nd ref="333447660"/>
    <nd ref="333447662"/>
    <nd ref="333447664"/>
    <nd ref="333447666"/>
    <nd ref="333447668"/>
    <nd ref="333447670"/>
    <nd ref="333447672"/>
    <nd ref="333447674"/>
    <nd ref="333447676"/>
    <nd ref="333447678"/>
    <nd ref="333447680"/>
    <nd ref="333447682"/>
    <nd ref="333447684"/>
    <nd ref="333447686"/>
    <nd ref="333447688"/>
    <nd ref="333447691"/>
    <nd ref="333447692"/>
    <nd ref="333447693"/>
    <nd ref="333447694"/>
    <nd ref="333447695"/>
    <nd ref="333447696"/>
    <nd ref="333447698"/>
    <nd ref="333447700"/>
    <nd ref="333447702"/>
    <nd ref="333447704"/>
    <nd ref="333447710"/>
    <nd ref="333447713"/>
    <nd ref="333447715"/>
    <nd ref="333447717"/>
    <nd ref="333447719"/>
    <nd ref="333447721"/>
    <nd ref="333447723"/>
    <nd ref="333447725"/>
    <nd ref="333447727"/>
    <nd ref="333447729"/>
    <nd ref="333447731"/>
    <nd ref="333447733"/>
    <nd ref="333447735"/>
    <nd ref="333447737"/>
    <nd ref="333447739"/>
    <nd ref="333447741"/>
    <nd ref="333447743"/>
    <nd ref="333447744"/>
    <nd ref="333447745"/>
    <nd ref="333447746"/>
    <nd ref="333447748"/>
    <nd ref="333447750"/>
    <nd ref="333447752"/>
    <nd ref="333447754"/>
    <nd ref="333447756"/>
    <nd ref="333447758"/>
    <nd ref="333447760"/>
    <nd ref="333447762"/>
    <nd ref="333447764"/>
    <nd ref="333447766"/>
    <nd ref="333447768"/>
    <nd ref="333447770"/>
    <nd ref="333447772"/>
    <tag k="addr:postcode" v="6111"/>
    <tag k="at:maxspeed" v="Ortsgebiet"/>
    <tag k="fixme" v="check import"/>
    <tag k="highway" v="residential"/>
    <tag k="is_in" v="...,Bezirk Innsbruck,Tirol,Österreich,Europa"/>
    <tag k="name" v="Oberbergstraße"/>
    <tag k="note" v="imported from plan.at; (C)=CC-by-sa or oDBL; feel free to change if necessary"/>
    <tag k="plan_at:acad_id" v="i91335"/>
  </way>
  <way id="30259322" version="6" timestamp="2010-01-27T19:14:38Z" uid="74027" user="katzlbt" changeset="3730671">
    <nd ref="333447772"/>
    <nd ref="333447770"/>
    <nd ref="333447768"/>
    <nd ref="333447766"/>
    <nd ref="333447764"/>
    <nd ref="333447762"/>
    <nd ref="333447760"/>
    <nd ref="333447758"/>
    <nd ref="333447756"/>
    <nd ref="333447754"/>
    <nd ref="333447752"/>
    <nd ref="333447750"/>
    <nd ref="333447748"/>
    <nd ref="333447746"/>
    <nd ref="333447745"/>
    <nd ref="333447744"/>
    <nd ref="333447743"/>
    <nd ref="333447741"/>
    <nd ref="333447739"/>
    <nd ref="333447737"/>
    <nd ref="333447735"/>
    <nd ref="333447733"/>
    <nd ref="333447731"/>
    <nd ref="333447729"/>
    <nd ref="333447727"/>
    <nd ref="333447725"/>
    <nd ref="333447723"/>
    <nd ref="333447721"/>
    <nd ref="333447719"/>
    <nd ref="333447717"/>
    <nd ref="333447715"/>
    <nd ref="333447713"/>
    <nd ref="333447710"/>
    <nd ref="333447704"/>
    <nd ref="333447702"/>
    <nd ref="333447700"/>
    <nd ref="333447698"/>
    <nd ref="333447695"/>
    <nd ref="333447694"/>
    <nd ref="333447693"/>
    <nd ref="333447692"/>
    <nd ref="333447691"/>
    <nd ref="333447688"/>
    <nd ref="333447686"/>
    <nd ref="333447684"/>
    <nd ref="333447682"/>
    <nd ref="333447680"/>
    <nd ref="333447678"/>
    <nd ref="333447676"/>
    <nd ref="621423595"/>
    <nd ref="333447674"/>
    <nd ref="333447672"/>
    <nd ref="333447670"/>
    <nd ref="333447668"/>
    <nd ref="333447666"/>
    <nd ref="621423596"/>
    <nd ref="621423598"/>
    <nd ref="333447664"/>
    <nd ref="333447662"/>
    <nd ref="333447660"/>
    <nd ref="333447658"/>
    <nd ref="333447656"/>
    <nd ref="333447654"/>
    <nd ref="333447652"/>
    <nd ref="333447650"/>
    <nd ref="333447648"/>
    <nd ref="333447643"/>
    <nd ref="333447641"/>
    <nd ref="333447639"/>
    <nd ref="333447637"/>
    <nd ref="333447635"/>
    <nd ref="333447633"/>
    <nd ref="333447629"/>
    <nd ref="333447627"/>
    <nd ref="333447625"/>
    <nd ref="333447623"/>
    <nd ref="333447621"/>
    <nd ref="333447618"/>
    <nd ref="333447616"/>
    <nd ref="333447614"/>
    <nd ref="333447612"/>
    <nd ref="333447610"/>
    <nd ref="333447608"/>
    <nd ref="333447606"/>
    <nd ref="333447604"/>
    <nd ref="333447602"/>
    <nd ref="333447600"/>
    <nd ref="333447598"/>
    <nd ref="333447596"/>
    <nd ref="333447594"/>
    <nd ref="333447592"/>
    <nd ref="333447590"/>
    <nd ref="333447588"/>
    <nd ref="333447586"/>
    <nd ref="333447584"/>
    <nd ref="333447582"/>
    <nd ref="333447581"/>
    <nd ref="333447580"/>
    <nd ref="333447578"/>
    <nd ref="333447576"/>
    <nd ref="333447574"/>
    <nd ref="527277677"/>
    <nd ref="527277694"/>
    <nd ref="527277710"/>
    <nd ref="527277711"/>
    <nd ref="527277718"/>
    <nd ref="527277725"/>
    <nd ref="527277734"/>
    <nd ref="527277738"/>
    <nd ref="527277744"/>
    <nd ref="333452092"/>
    <tag k="highway" v="residential"/>
    <tag k="name" v="Oberbergstraße"/>
  </way>
  <way id="30259328" version="3" timestamp="2009-09-30T15:40:59Z" uid="36809" user="pfoten_weg_!_" changeset="2689684">
    <nd ref="333447851"/>
    <nd ref="263210861"/>
    <tag k="addr:postcode" v="6060"/>
    <tag k="at:maxspeed" v="Ortsgebiet"/>
    <tag k="fixme" v="check import"/>
    <tag k="highway" v="residential"/>
    <tag k="is_in" v="...,Bezirk Innsbruck,Tirol,Österreich,Europa"/>
    <tag k="name" v="Mühlenweg"/>
    <tag k="note" v="imported from plan.at; (C)=CC-by-sa or oDBL; feel free to change if necessary"/>
    <tag k="plan_at:acad_id" v="i912F6"/>
    <tag k="source" v="plan.at 2009"/>
  </way>
  <way id="30259334" version="3" timestamp="2009-09-30T15:41:01Z" uid="36809" user="pfoten_weg_!_" changeset="2689684">
    <nd ref="333448004"/>
    <nd ref="333448006"/>
    <nd ref="333446314"/>
    <tag k="addr:postcode" v="6060"/>
    <tag k="at:maxspeed" v="Ortsgebiet"/>
    <tag k="fixme" v="check import"/>
    <tag k="highway" v="residential"/>
    <tag k="is_in" v="...,Bezirk Innsbruck,Tirol,Österreich,Europa"/>
    <tag k="name" v="Mils"/>
    <tag k="note" v="imported from plan.at; (C)=CC-by-sa or oDBL; feel free to change if necessary"/>
    <tag k="plan_at:acad_id" v="i912B1"/>
    <tag k="source" v="plan.at 2009"/>
  </way>
  <way id="30259335" version="3" timestamp="2009-09-30T15:41:01Z" uid="36809" user="pfoten_weg_!_" changeset="2689684">
    <nd ref="333446324"/>
    <nd ref="333448010"/>
    <nd ref="333448012"/>
    <tag k="addr:postcode" v="6060"/>
    <tag k="at:maxspeed" v="Ortsgebiet"/>
    <tag k="fixme" v="check import"/>
    <tag k="highway" v="residential"/>
    <tag k="is_in" v="...,Bezirk Innsbruck,Tirol,Österreich,Europa"/>
    <tag k="name" v="Mils-Nord"/>
    <tag k="note" v="imported from plan.at; (C)=CC-by-sa or oDBL; feel free to change if necessary"/>
    <tag k="plan_at:acad_id" v="i912AE"/>
    <tag k="source" v="plan.at 2009"/>
  </way>
  <way id="30259336" version="3" timestamp="2009-09-30T15:40:52Z" uid="36809" user="pfoten_weg_!_" changeset="2689684">
    <nd ref="333448016"/>
    <nd ref="333228273"/>
    <nd ref="333448018"/>
    <nd ref="333448020"/>
    <tag k="addr:postcode" v="6060"/>
    <tag k="at:maxspeed" v="Ortsgebiet"/>
    <tag k="fixme" v="check import"/>
    <tag k="highway" v="residential"/>
    <tag k="is_in" v="...,Bezirk Innsbruck,Tirol,Österreich,Europa"/>
    <tag k="name" v="Mühlbachl"/>
    <tag k="note" v="imported from plan.at; (C)=CC-by-sa or oDBL; feel free to change if necessary"/>
    <tag k="plan_at:acad_id" v="i912AB"/>
    <tag k="source" v="plan.at 2009"/>
  </way>
  <way id="30259337" version="3" timestamp="2009-09-30T15:40:50Z" uid="36809" user="pfoten_weg_!_" changeset="2689684">
    <nd ref="333448024"/>
    <nd ref="333448026"/>
    <nd ref="263215368"/>
    <tag k="addr:postcode" v="6060"/>
    <tag k="at:maxspeed" v="Ortsgebiet"/>
    <tag k="fixme" v="check import"/>
    <tag k="highway" v="residential"/>
    <tag k="is_in" v="...,Bezirk Innsbruck,Tirol,Österreich,Europa"/>
    <tag k="name" v="Mils"/>
    <tag k="note" v="imported from plan.at; (C)=CC-by-sa or oDBL; feel free to change if necessary"/>
    <tag k="plan_at:acad_id" v="i912A8"/>
    <tag k="source" v="plan.at 2009"/>
  </way>
  <way id="30259341" version="3" timestamp="2009-09-30T15:40:56Z" uid="36809" user="pfoten_weg_!_" changeset="2689684">
    <nd ref="279021761"/>
    <nd ref="333448053"/>
    <nd ref="333448055"/>
    <nd ref="333448057"/>
    <nd ref="333448062"/>
    <tag k="addr:postcode" v="6060"/>
    <tag k="at:maxspeed" v="Ortsgebiet"/>
    <tag k="fixme" v="check import"/>
    <tag k="highway" v="residential"/>
    <tag k="is_in" v="...,Bezirk Innsbruck,Tirol,Österreich,Europa"/>
    <tag k="name" v="Mils"/>
    <tag k="note" v="imported from plan.at; (C)=CC-by-sa or oDBL; feel free to change if necessary"/>
    <tag k="plan_at:acad_id" v="i9129F"/>
    <tag k="source" v="plan.at 2009"/>
  </way>
  <way id="30259343" version="3" timestamp="2009-09-30T15:40:53Z" uid="36809" user="pfoten_weg_!_" changeset="2689684">
    <nd ref="333448077"/>
    <nd ref="333446280"/>
    <tag k="addr:postcode" v="6060"/>
    <tag k="at:maxspeed" v="Ortsgebiet"/>
    <tag k="fixme" v="check import"/>
    <tag k="highway" v="residential"/>
    <tag k="is_in" v="...,Bezirk Innsbruck,Tirol,Österreich,Europa"/>
    <tag k="name" v="Mils"/>
    <tag k="note" v="imported from plan.at; (C)=CC-by-sa or oDBL; feel free to change if necessary"/>
    <tag k="plan_at:acad_id" v="i91299"/>
    <tag k="source" v="plan.at 2009"/>
  </way>
  <way id="30259344" version="3" timestamp="2009-09-30T15:41:21Z" uid="36809" user="pfoten_weg_!_" changeset="2689684">
    <nd ref="333448087"/>
    <nd ref="333448089"/>
    <nd ref="333446911"/>
    <tag k="addr:postcode" v="6060"/>
    <tag k="at:maxspeed" v="Ortsgebiet"/>
    <tag k="fixme" v="check import"/>
    <tag k="highway" v="residential"/>
    <tag k="is_in" v="...,Bezirk Innsbruck,Tirol,Österreich,Europa"/>
    <tag k="name" v="Mils"/>
    <tag k="note" v="imported from plan.at; (C)=CC-by-sa or oDBL; feel free to change if necessary"/>
    <tag k="plan_at:acad_id" v="i91296"/>
    <tag k="source" v="plan.at 2009"/>
  </way>
  <way id="30259345" version="3" timestamp="2009-09-30T15:41:21Z" uid="36809" user="pfoten_weg_!_" changeset="2689684">
    <nd ref="333448094"/>
    <nd ref="333448096"/>
    <nd ref="333448098"/>
    <tag k="addr:postcode" v="6060"/>
    <tag k="at:maxspeed" v="Ortsgebiet"/>
    <tag k="fixme" v="check import"/>
    <tag k="highway" v="residential"/>
    <tag k="is_in" v="...,Bezirk Innsbruck,Tirol,Österreich,Europa"/>
    <tag k="name" v="Mils"/>
    <tag k="note" v="imported from plan.at; (C)=CC-by-sa or oDBL; feel free to change if necessary"/>
    <tag k="plan_at:acad_id" v="i91293"/>
    <tag k="source" v="plan.at 2009"/>
  </way>
  <way id="30259346" version="3" timestamp="2009-09-30T15:41:20Z" uid="36809" user="pfoten_weg_!_" changeset="2689684">
    <nd ref="333448103"/>
    <nd ref="333446905"/>
    <tag k="addr:postcode" v="6060"/>
    <tag k="at:maxspeed" v="Ortsgebiet"/>
    <tag k="fixme" v="check import"/>
    <tag k="highway" v="residential"/>
    <tag k="is_in" v="...,Bezirk Innsbruck,Tirol,Österreich,Europa"/>
    <tag k="name" v="Mils"/>
    <tag k="note" v="imported from plan.at; (C)=CC-by-sa or oDBL; feel free to change if necessary"/>
    <tag k="plan_at:acad_id" v="i91290"/>
    <tag k="source" v="plan.at 2009"/>
  </way>
  <way id="30259347" version="3" timestamp="2009-09-30T15:41:20Z" uid="36809" user="pfoten_weg_!_" changeset="2689684">
    <nd ref="333448111"/>
    <nd ref="333448113"/>
    <nd ref="333448115"/>
    <nd ref="333446322"/>
    <tag k="addr:postcode" v="6060"/>
    <tag k="at:maxspeed" v="Ortsgebiet"/>
    <tag k="fixme" v="check import"/>
    <tag k="highway" v="residential"/>
    <tag k="is_in" v="...,Bezirk Innsbruck,Tirol,Österreich,Europa"/>
    <tag k="name" v="Mils-Nord"/>
    <tag k="note" v="imported from plan.at; (C)=CC-by-sa or oDBL; feel free to change if necessary"/>
    <tag k="plan_at:acad_id" v="i9128D"/>
    <tag k="source" v="plan.at 2009"/>
  </way>
  <way id="30259349" version="3" timestamp="2009-09-30T15:41:23Z" uid="36809" user="pfoten_weg_!_" changeset="2689684">
    <nd ref="333448119"/>
    <nd ref="333448121"/>
    <nd ref="333448123"/>
    <nd ref="333448124"/>
    <nd ref="263209140"/>
    <tag k="addr:postcode" v="6060"/>
    <tag k="at:maxspeed" v="Ortsgebiet"/>
    <tag k="fixme" v="check import"/>
    <tag k="highway" v="residential"/>
    <tag k="is_in" v="...,Bezirk Innsbruck,Tirol,Österreich,Europa"/>
    <tag k="name" v="Mils"/>
    <tag k="note" v="imported from plan.at; (C)=CC-by-sa or oDBL; feel free to change if necessary"/>
    <tag k="plan_at:acad_id" v="i9128A"/>
    <tag k="source" v="plan.at 2009"/>
  </way>
  <way id="30259352" version="3" timestamp="2009-09-30T15:41:02Z" uid="36809" user="pfoten_weg_!_" changeset="2689684">
    <nd ref="333448164"/>
    <nd ref="333448178"/>
    <nd ref="333446536"/>
    <nd ref="333448181"/>
    <nd ref="333447960"/>
    <tag k="addr:postcode" v="6060"/>
    <tag k="at:maxspeed" v="Ortsgebiet"/>
    <tag k="fixme" v="check import"/>
    <tag k="highway" v="residential"/>
    <tag k="is_in" v="...,Bezirk Innsbruck,Tirol,Österreich,Europa"/>
    <tag k="name" v="Mils"/>
    <tag k="note" v="imported from plan.at; (C)=CC-by-sa or oDBL; feel free to change if necessary"/>
    <tag k="plan_at:acad_id" v="i91281"/>
    <tag k="source" v="plan.at 2009"/>
  </way>
  <way id="30259356" version="3" timestamp="2009-09-30T15:41:18Z" uid="36809" user="pfoten_weg_!_" changeset="2689684">
    <nd ref="263217103"/>
    <nd ref="263210425"/>
    <nd ref="333448207"/>
    <tag k="addr:postcode" v="6060"/>
    <tag k="at:maxspeed" v="Ortsgebiet"/>
    <tag k="fixme" v="check import"/>
    <tag k="highway" v="residential"/>
    <tag k="is_in" v="...,Bezirk Innsbruck,Tirol,Österreich,Europa"/>
    <tag k="name" v="Zunternweg"/>
    <tag k="note" v="imported from plan.at; (C)=CC-by-sa or oDBL; feel free to change if necessary"/>
    <tag k="plan_at:acad_id" v="i91278"/>
    <tag k="source" v="plan.at 2009"/>
  </way>
  <way id="30259367" version="3" timestamp="2009-09-30T15:41:34Z" uid="36809" user="pfoten_weg_!_" changeset="2689684">
    <nd ref="333227152"/>
    <nd ref="333448298"/>
    <nd ref="333448299"/>
    <nd ref="333448301"/>
    <nd ref="333448302"/>
    <nd ref="333448304"/>
    <nd ref="333448305"/>
    <nd ref="333448306"/>
    <tag k="addr:postcode" v="6060"/>
    <tag k="at:maxspeed" v="Ortsgebiet"/>
    <tag k="fixme" v="check import"/>
    <tag k="highway" v="residential"/>
    <tag k="is_in" v="...,Bezirk Innsbruck,Tirol,Österreich,Europa"/>
    <tag k="name" v="Haslachweg"/>
    <tag k="note" v="imported from plan.at; (C)=CC-by-sa or oDBL; feel free to change if necessary"/>
    <tag k="plan_at:acad_id" v="i91272"/>
    <tag k="source" v="plan.at 2009"/>
  </way>
  <way id="30259368" version="3" timestamp="2009-09-30T15:41:24Z" uid="36809" user="pfoten_weg_!_" changeset="2689684">
    <nd ref="333448309"/>
    <nd ref="333448311"/>
    <nd ref="333446548"/>
    <tag k="addr:postcode" v="6060"/>
    <tag k="at:maxspeed" v="Ortsgebiet"/>
    <tag k="fixme" v="check import"/>
    <tag k="highway" v="residential"/>
    <tag k="is_in" v="...,Bezirk Innsbruck,Tirol,Österreich,Europa"/>
    <tag k="name" v="Mils"/>
    <tag k="note" v="imported from plan.at; (C)=CC-by-sa or oDBL; feel free to change if necessary"/>
    <tag k="plan_at:acad_id" v="i9126F"/>
    <tag k="source" v="plan.at 2009"/>
  </way>
  <way id="30259370" version="3" timestamp="2009-09-30T15:41:27Z" uid="36809" user="pfoten_weg_!_" changeset="2689684">
    <nd ref="333446636"/>
    <nd ref="333448362"/>
    <nd ref="333448364"/>
    <nd ref="333447529"/>
    <tag k="addr:postcode" v="6060"/>
    <tag k="at:maxspeed" v="Ortsgebiet"/>
    <tag k="fixme" v="check import"/>
    <tag k="highway" v="residential"/>
    <tag k="is_in" v="...,Bezirk Innsbruck,Tirol,Österreich,Europa"/>
    <tag k="name" v="Mils"/>
    <tag k="note" v="imported from plan.at; (C)=CC-by-sa or oDBL; feel free to change if necessary"/>
    <tag k="plan_at:acad_id" v="i91269"/>
    <tag k="source" v="plan.at 2009"/>
  </way>
  <way id="30259371" version="3" timestamp="2009-09-30T15:41:26Z" uid="36809" user="pfoten_weg_!_" changeset="2689684">
    <nd ref="333448368"/>
    <nd ref="333448370"/>
    <nd ref="333448372"/>
    <nd ref="333228080"/>
    <tag k="addr:postcode" v="6060"/>
    <tag k="at:maxspeed" v="Ortsgebiet"/>
    <tag k="fixme" v="check import"/>
    <tag k="highway" v="residential"/>
    <tag k="is_in" v="...,Bezirk Innsbruck,Tirol,Österreich,Europa"/>
    <tag k="name" v="Mils"/>
    <tag k="note" v="imported from plan.at; (C)=CC-by-sa or oDBL; feel free to change if necessary"/>
    <tag k="plan_at:acad_id" v="i91266"/>
    <tag k="source" v="plan.at 2009"/>
  </way>
  <way id="30259372" version="3" timestamp="2009-09-30T15:41:30Z" uid="36809" user="pfoten_weg_!_" changeset="2689684">
    <nd ref="333446903"/>
    <nd ref="333448381"/>
    <tag k="addr:postcode" v="6060"/>
    <tag k="at:maxspeed" v="Ortsgebiet"/>
    <tag k="fixme" v="check import"/>
    <tag k="highway" v="residential"/>
    <tag k="is_in" v="...,Bezirk Innsbruck,Tirol,Österreich,Europa"/>
    <tag k="name" v="Holzweg"/>
    <tag k="note" v="imported from plan.at; (C)=CC-by-sa or oDBL; feel free to change if necessary"/>
    <tag k="plan_at:acad_id" v="i91263"/>
    <tag k="source" v="plan.at 2009"/>
  </way>
  <way id="30259373" version="4" timestamp="2009-09-30T15:41:29Z" uid="36809" user="pfoten_weg_!_" changeset="2689684">
    <nd ref="277206860"/>
    <nd ref="333448391"/>
    <nd ref="333448397"/>
    <nd ref="333448402"/>
    <tag k="addr:postcode" v="6060"/>
    <tag k="at:maxspeed" v="Ortsgebiet"/>
    <tag k="highway" v="service"/>
    <tag k="highway:plan.at:i9" v="residential"/>
    <tag k="is_in" v="...,Bezirk Innsbruck,Tirol,Österreich,Europa"/>
    <tag k="note" v="imported from plan.at; (C)=CC-by-sa or oDBL; feel free to change if necessary"/>
    <tag k="plan_at:acad_id" v="i91260"/>
    <tag k="source" v="plan.at 2009"/>
  </way>
  <way id="30259374" version="3" timestamp="2009-09-30T15:41:32Z" uid="36809" user="pfoten_weg_!_" changeset="2689684">
    <nd ref="333448429"/>
    <nd ref="333448431"/>
    <nd ref="333447992"/>
    <tag k="addr:postcode" v="6060"/>
    <tag k="at:maxspeed" v="Ortsgebiet"/>
    <tag k="fixme" v="check import"/>
    <tag k="highway" v="residential"/>
    <tag k="is_in" v="...,Bezirk Innsbruck,Tirol,Österreich,Europa"/>
    <tag k="name" v="Mils"/>
    <tag k="note" v="imported from plan.at; (C)=CC-by-sa or oDBL; feel free to change if necessary"/>
    <tag k="plan_at:acad_id" v="i9125D"/>
    <tag k="source" v="plan.at 2009"/>
  </way>
  <way id="30259389" version="3" timestamp="2009-09-30T15:41:36Z" uid="36809" user="pfoten_weg_!_" changeset="2689684">
    <nd ref="333448755"/>
    <nd ref="333448757"/>
    <nd ref="263217107"/>
    <nd ref="263217108"/>
    <nd ref="263210429"/>
    <nd ref="263217486"/>
    <nd ref="263217487"/>
    <nd ref="263209677"/>
    <tag k="addr:postcode" v="6060"/>
    <tag k="at:maxspeed" v="Ortsgebiet"/>
    <tag k="fixme" v="check import"/>
    <tag k="highway" v="residential"/>
    <tag k="highway:plan.at:i9" v="residential"/>
    <tag k="is_in" v="...,Bezirk Innsbruck,Tirol,Österreich,Europa"/>
    <tag k="name" v="Lindrain"/>
    <tag k="note" v="imported from plan.at; (C)=CC-by-sa or oDBL; feel free to change if necessary"/>
    <tag k="plan_at:acad_id" v="i911E5"/>
    <tag k="source" v="plan.at 2009"/>
  </way>
  <way id="30259393" version="3" timestamp="2009-09-30T15:40:15Z" uid="36809" user="pfoten_weg_!_" changeset="2689684">
    <nd ref="333448813"/>
    <nd ref="333448819"/>
    <nd ref="333448824"/>
    <nd ref="333448829"/>
    <nd ref="333448836"/>
    <nd ref="333448843"/>
    <nd ref="333448849"/>
    <nd ref="333448856"/>
    <nd ref="333448861"/>
    <nd ref="333448867"/>
    <nd ref="333447250"/>
    <nd ref="333448892"/>
    <nd ref="333448898"/>
    <nd ref="263269319"/>
    <tag k="addr:postcode" v="6111"/>
    <tag k="at:maxspeed" v="Ortsgebiet"/>
    <tag k="fixme" v="check import"/>
    <tag k="highway" v="residential"/>
    <tag k="is_in" v="...,Bezirk Innsbruck,Tirol,Österreich,Europa"/>
    <tag k="name" v="Lange Gasse"/>
    <tag k="note" v="imported from plan.at; (C)=CC-by-sa or oDBL; feel free to change if necessary"/>
    <tag k="plan_at:acad_id" v="i911A6"/>
    <tag k="source" v="plan.at 2009"/>
  </way>
  <way id="30259409" version="3" timestamp="2009-09-30T15:40:23Z" uid="36809" user="pfoten_weg_!_" changeset="2689684">
    <nd ref="333446284"/>
    <nd ref="333449286"/>
    <nd ref="333449288"/>
    <nd ref="333449292"/>
    <tag k="addr:postcode" v="6060"/>
    <tag k="at:maxspeed" v="Ortsgebiet"/>
    <tag k="fixme" v="check import"/>
    <tag k="highway" v="residential"/>
    <tag k="is_in" v="...,Bezirk Innsbruck,Tirol,Österreich,Europa"/>
    <tag k="name" v="Kugelfang"/>
    <tag k="note" v="imported from plan.at; (C)=CC-by-sa or oDBL; feel free to change if necessary"/>
    <tag k="plan_at:acad_id" v="i9118B"/>
    <tag k="source" v="plan.at 2009"/>
  </way>
  <way id="30259411" version="3" timestamp="2009-09-30T15:40:22Z" uid="36809" user="pfoten_weg_!_" changeset="2689684">
    <nd ref="333449304"/>
    <nd ref="333449308"/>
    <nd ref="333449313"/>
    <nd ref="333449315"/>
    <nd ref="333449317"/>
    <nd ref="333449319"/>
    <nd ref="333449321"/>
    <nd ref="333449330"/>
    <nd ref="333449336"/>
    <nd ref="333449338"/>
    <nd ref="333449346"/>
    <nd ref="333449348"/>
    <nd ref="333449350"/>
    <nd ref="333446814"/>
    <tag k="addr:postcode" v="6111"/>
    <tag k="at:maxspeed" v="Ortsgebiet"/>
    <tag k="fixme" v="check import"/>
    <tag k="highway" v="residential"/>
    <tag k="is_in" v="...,Bezirk Innsbruck,Tirol,Österreich,Europa"/>
    <tag k="name" v="Kröllnweg"/>
    <tag k="note" v="imported from plan.at; (C)=CC-by-sa or oDBL; feel free to change if necessary"/>
    <tag k="plan_at:acad_id" v="i91185"/>
    <tag k="source" v="plan.at 2009"/>
  </way>
  <way id="30259414" version="3" timestamp="2009-09-30T15:40:20Z" uid="36809" user="pfoten_weg_!_" changeset="2689684">
    <nd ref="262146403"/>
    <nd ref="333449352"/>
    <nd ref="333449353"/>
    <nd ref="333449362"/>
    <nd ref="333449365"/>
    <nd ref="333449368"/>
    <nd ref="333449370"/>
    <nd ref="333449371"/>
    <nd ref="333449372"/>
    <nd ref="333449374"/>
    <nd ref="333449376"/>
    <tag k="addr:postcode" v="6060"/>
    <tag k="at:maxspeed" v="Ortsgebiet"/>
    <tag k="fixme" v="check import"/>
    <tag k="highway" v="residential"/>
    <tag k="is_in" v="...,Bezirk Innsbruck,Tirol,Österreich,Europa"/>
    <tag k="name" v="Kolbenturm"/>
    <tag k="note" v="imported from plan.at; (C)=CC-by-sa or oDBL; feel free to change if necessary"/>
    <tag k="plan_at:acad_id" v="i91155"/>
    <tag k="source" v="plan.at 2009"/>
  </way>
  <way id="30259434" version="3" timestamp="2009-09-30T14:33:26Z" uid="36809" user="pfoten_weg_!_" changeset="2688850">
    <nd ref="296040353"/>
    <nd ref="333449482"/>
    <nd ref="328664583"/>
    <nd ref="333449484"/>
    <nd ref="296040350"/>
    <nd ref="296040349"/>
    <nd ref="296040348"/>
    <nd ref="333449485"/>
    <tag k="addr:postcode" v="6111"/>
    <tag k="at:maxspeed" v="Ortsgebiet"/>
    <tag k="fixme" v="check import"/>
    <tag k="highway:plan.at:i9" v="residential"/>
    <tag k="is_in" v="...,Bezirk Innsbruck,Tirol,Österreich,Europa"/>
    <tag k="name" v="Kleinvolderbergstraße"/>
    <tag k="note" v="imported from plan.at; (C)=CC-by-sa or oDBL; feel free to change if necessary"/>
    <tag k="plan_at:acad_id" v="i91131"/>
    <tag k="uploaded_by" v="Wolfgang W. Wasserburger"/>
  </way>
  <way id="30259434" version="4" timestamp="2009-09-30T15:40:29Z" uid="36809" user="pfoten_weg_!_" changeset="2689684">
    <nd ref="296040353"/>
    <nd ref="333449482"/>
    <nd ref="328664583"/>
    <nd ref="333449484"/>
    <nd ref="296040350"/>
    <nd ref="296040349"/>
    <nd ref="296040348"/>
    <nd ref="333449485"/>
    <tag k="addr:postcode" v="6111"/>
    <tag k="at:maxspeed" v="Ortsgebiet"/>
    <tag k="fixme" v="check import"/>
    <tag k="highway:plan.at:i9" v="residential"/>
    <tag k="is_in" v="...,Bezirk Innsbruck,Tirol,Österreich,Europa"/>
    <tag k="name" v="Kleinvolderbergstraße"/>
    <tag k="note" v="imported from plan.at; (C)=CC-by-sa or oDBL; feel free to change if necessary"/>
    <tag k="plan_at:acad_id" v="i91131"/>
  </way>
  <way id="30259438" version="5" timestamp="2009-09-30T15:40:24Z" uid="36809" user="pfoten_weg_!_" changeset="2689684">
    <nd ref="333262853"/>
    <nd ref="333449799"/>
    <nd ref="333449801"/>
    <nd ref="333449803"/>
    <nd ref="333449805"/>
    <nd ref="333449807"/>
    <nd ref="333449809"/>
    <nd ref="333449811"/>
    <nd ref="333449813"/>
    <nd ref="333449815"/>
    <nd ref="333449817"/>
    <nd ref="333449819"/>
    <nd ref="333449821"/>
    <nd ref="333449823"/>
    <nd ref="333449826"/>
    <nd ref="333449828"/>
    <nd ref="333449836"/>
    <nd ref="333261765"/>
    <nd ref="333449857"/>
    <nd ref="333449866"/>
    <nd ref="333449878"/>
    <nd ref="333449880"/>
    <nd ref="333449882"/>
    <nd ref="333449884"/>
    <nd ref="333449886"/>
    <nd ref="333449888"/>
    <nd ref="333449891"/>
    <tag k="addr:postcode" v="6111"/>
    <tag k="at:maxspeed" v="Ortsgebiet"/>
    <tag k="fixme" v="check import"/>
    <tag k="highway" v="residential"/>
    <tag k="is_in" v="...,Bezirk Innsbruck,Tirol,Österreich,Europa"/>
    <tag k="name" v="Kleinvolderberg"/>
    <tag k="note" v="imported from plan.at; (C)=CC-by-sa or oDBL; feel free to change if necessary"/>
    <tag k="plan_at:acad_id" v="i9112E"/>
    <tag k="source" v="plan.at 2009"/>
  </way>
  <way id="30259442" version="3" timestamp="2009-09-30T15:40:48Z" uid="36809" user="pfoten_weg_!_" changeset="2689684">
    <nd ref="333449719"/>
    <nd ref="333449950"/>
    <nd ref="333449951"/>
    <nd ref="333449953"/>
    <nd ref="333449958"/>
    <nd ref="333449959"/>
    <nd ref="333449961"/>
    <nd ref="333449963"/>
    <nd ref="333449965"/>
    <nd ref="333449967"/>
    <nd ref="333449969"/>
    <nd ref="333449971"/>
    <nd ref="333449972"/>
    <nd ref="333449973"/>
    <nd ref="333449975"/>
    <nd ref="333449977"/>
    <nd ref="333449988"/>
    <nd ref="333449991"/>
    <nd ref="333449993"/>
    <nd ref="333449995"/>
    <nd ref="333449997"/>
    <nd ref="333449999"/>
    <nd ref="333450000"/>
    <nd ref="333450001"/>
    <tag k="addr:postcode" v="6111"/>
    <tag k="at:maxspeed" v="Ortsgebiet"/>
    <tag k="fixme" v="check import"/>
    <tag k="highway" v="residential"/>
    <tag k="is_in" v="...,Bezirk Innsbruck,Tirol,Österreich,Europa"/>
    <tag k="name" v="Kleinvolderberg"/>
    <tag k="note" v="imported from plan.at; (C)=CC-by-sa or oDBL; feel free to change if necessary"/>
    <tag k="plan_at:acad_id" v="i9112B"/>
    <tag k="source" v="plan.at 2009"/>
  </way>
  <way id="30259451" version="3" timestamp="2009-09-30T15:40:39Z" uid="36809" user="pfoten_weg_!_" changeset="2689684">
    <nd ref="333450008"/>
    <nd ref="333450031"/>
    <nd ref="333450032"/>
    <nd ref="333450037"/>
    <nd ref="333450045"/>
    <nd ref="333450049"/>
    <nd ref="333450053"/>
    <nd ref="333450055"/>
    <nd ref="333450057"/>
    <nd ref="333450059"/>
    <nd ref="333450061"/>
    <nd ref="333450063"/>
    <nd ref="333450070"/>
    <nd ref="333450072"/>
    <nd ref="333450074"/>
    <nd ref="333450077"/>
    <nd ref="333450079"/>
    <nd ref="333450081"/>
    <nd ref="296011931"/>
    <tag k="addr:postcode" v="6111"/>
    <tag k="at:maxspeed" v="Ortsgebiet"/>
    <tag k="fixme" v="check import"/>
    <tag k="highway" v="residential"/>
    <tag k="is_in" v="...,Bezirk Innsbruck,Tirol,Österreich,Europa"/>
    <tag k="name" v="Kleinvolderberg"/>
    <tag k="note" v="imported from plan.at; (C)=CC-by-sa or oDBL; feel free to change if necessary"/>
    <tag k="plan_at:acad_id" v="i91128"/>
    <tag k="source" v="plan.at 2009"/>
  </way>
  <way id="30259457" version="3" timestamp="2009-09-30T15:39:45Z" uid="36809" user="pfoten_weg_!_" changeset="2689684">
    <nd ref="333263260"/>
    <nd ref="333450198"/>
    <nd ref="333450202"/>
    <nd ref="333450209"/>
    <nd ref="333450215"/>
    <nd ref="333450219"/>
    <nd ref="333450223"/>
    <nd ref="333450224"/>
    <nd ref="333450133"/>
    <tag k="addr:postcode" v="6111"/>
    <tag k="at:maxspeed" v="Ortsgebiet"/>
    <tag k="fixme" v="check import"/>
    <tag k="highway" v="residential"/>
    <tag k="is_in" v="...,Bezirk Innsbruck,Tirol,Österreich,Europa"/>
    <tag k="name" v="Kleinvolderberg"/>
    <tag k="note" v="imported from plan.at; (C)=CC-by-sa or oDBL; feel free to change if necessary"/>
    <tag k="plan_at:acad_id" v="i91122"/>
    <tag k="source" v="plan.at 2009"/>
  </way>
  <way id="30259458" version="3" timestamp="2009-09-30T15:39:47Z" uid="36809" user="pfoten_weg_!_" changeset="2689684">
    <nd ref="333450233"/>
    <nd ref="333446899"/>
    <nd ref="263216993"/>
    <nd ref="263216994"/>
    <nd ref="263216995"/>
    <nd ref="263216996"/>
    <nd ref="263216997"/>
    <nd ref="333450235"/>
    <nd ref="333450237"/>
    <nd ref="333450239"/>
    <tag k="addr:postcode" v="6060"/>
    <tag k="at:maxspeed" v="Ortsgebiet"/>
    <tag k="fixme" v="check import"/>
    <tag k="highway" v="residential"/>
    <tag k="is_in" v="...,Bezirk Innsbruck,Tirol,Österreich,Europa"/>
    <tag k="name" v="Klammstraße"/>
    <tag k="note" v="imported from plan.at; (C)=CC-by-sa or oDBL; feel free to change if necessary"/>
    <tag k="plan_at:acad_id" v="i91116"/>
    <tag k="source" v="plan.at 2009"/>
  </way>
  <way id="30259461" version="3" timestamp="2009-09-30T15:39:49Z" uid="36809" user="pfoten_weg_!_" changeset="2689684">
    <nd ref="263269907"/>
    <nd ref="333450293"/>
    <nd ref="333450297"/>
    <nd ref="333450301"/>
    <nd ref="333450306"/>
    <nd ref="333450310"/>
    <nd ref="333450317"/>
    <tag k="addr:postcode" v="6111"/>
    <tag k="at:maxspeed" v="Ortsgebiet"/>
    <tag k="fixme" v="check import"/>
    <tag k="highway" v="residential"/>
    <tag k="is_in" v="...,Bezirk Innsbruck,Tirol,Österreich,Europa"/>
    <tag k="name" v="Kirchnerstraße"/>
    <tag k="note" v="imported from plan.at; (C)=CC-by-sa or oDBL; feel free to change if necessary"/>
    <tag k="plan_at:acad_id" v="i91107"/>
    <tag k="source" v="plan.at 2009"/>
  </way>
  <way id="30259467" version="1" timestamp="2009-01-19T02:00:56Z" uid="26515" user="Simon Ward" changeset="809154">
    <nd ref="262064824"/>
    <nd ref="333450373"/>
    <tag k="FIXME" v="unsurveyed; incomplete"/>
    <tag k="highway" v="footway"/>
    <tag k="surface" v="paved"/>
  </way>
  <way id="30259469" version="3" timestamp="2009-09-30T15:39:52Z" uid="36809" user="pfoten_weg_!_" changeset="2689684">
    <nd ref="333445431"/>
    <nd ref="333450383"/>
    <nd ref="333450385"/>
    <nd ref="333450387"/>
    <nd ref="333450390"/>
    <nd ref="333450393"/>
    <nd ref="333450395"/>
    <nd ref="333450400"/>
    <nd ref="333450404"/>
    <nd ref="263268375"/>
    <tag k="addr:postcode" v="6111"/>
    <tag k="at:maxspeed" v="Ortsgebiet"/>
    <tag k="fixme" v="check import"/>
    <tag k="highway" v="residential"/>
    <tag k="is_in" v="...,Bezirk Innsbruck,Tirol,Österreich,Europa"/>
    <tag k="name" v="Karwendelstraße"/>
    <tag k="note" v="imported from plan.at; (C)=CC-by-sa or oDBL; feel free to change if necessary"/>
    <tag k="plan_at:acad_id" v="i910DD"/>
    <tag k="source" v="plan.at 2009"/>
  </way>
  <way id="30259471" version="2" timestamp="2009-09-30T14:32:27Z" uid="36809" user="pfoten_weg_!_" changeset="2688850">
    <nd ref="333450414"/>
    <nd ref="333450417"/>
    <nd ref="333450419"/>
    <nd ref="333450422"/>
    <nd ref="333450425"/>
    <nd ref="333450427"/>
    <nd ref="333450430"/>
    <nd ref="333450432"/>
    <nd ref="333450434"/>
    <nd ref="333450436"/>
    <nd ref="333450438"/>
    <nd ref="333450441"/>
    <nd ref="333274603"/>
    <nd ref="333450445"/>
    <nd ref="333450448"/>
    <nd ref="333450449"/>
    <nd ref="333450452"/>
    <nd ref="333450454"/>
    <nd ref="333450459"/>
    <nd ref="333450461"/>
    <nd ref="333450464"/>
    <nd ref="333450467"/>
    <nd ref="333450470"/>
    <nd ref="333450472"/>
    <nd ref="333450475"/>
    <nd ref="333450478"/>
    <nd ref="333450481"/>
    <nd ref="333450483"/>
    <nd ref="333450486"/>
    <nd ref="333450489"/>
    <nd ref="333450492"/>
    <nd ref="333450494"/>
    <nd ref="333450497"/>
    <nd ref="333450500"/>
    <nd ref="333450503"/>
    <nd ref="333450508"/>
    <nd ref="333450510"/>
    <nd ref="333450512"/>
    <nd ref="333450514"/>
    <nd ref="333447574"/>
    <tag k="addr:postcode" v="6111"/>
    <tag k="at:maxspeed" v="Ortsgebiet"/>
    <tag k="fixme" v="check import"/>
    <tag k="highway:plan.at:i9" v="residential"/>
    <tag k="is_in" v="...,Bezirk Innsbruck,Tirol,Österreich,Europa"/>
    <tag k="name" v="Kalkofenweg"/>
    <tag k="note" v="imported from plan.at; (C)=CC-by-sa or oDBL; feel free to change if necessary"/>
    <tag k="plan_at:acad_id" v="i910B0"/>
    <tag k="uploaded_by" v="Wolfgang W. Wasserburger"/>
  </way>
  <way id="30259471" version="4" timestamp="2010-01-27T19:23:42Z" uid="74027" user="katzlbt" changeset="3730671">
    <nd ref="333270238"/>
    <nd ref="333450417"/>
    <nd ref="333450419"/>
    <nd ref="333450422"/>
    <nd ref="333450425"/>
    <nd ref="333450427"/>
    <nd ref="333450430"/>
    <nd ref="333450432"/>
    <nd ref="333450434"/>
    <nd ref="333450436"/>
    <nd ref="333450438"/>
    <nd ref="333450441"/>
    <nd ref="333274603"/>
    <nd ref="333450445"/>
    <nd ref="333450448"/>
    <nd ref="333450449"/>
    <nd ref="333450452"/>
    <nd ref="333450454"/>
    <nd ref="333450459"/>
    <nd ref="333450461"/>
    <nd ref="333450464"/>
    <nd ref="333450467"/>
    <nd ref="333450470"/>
    <nd ref="333450472"/>
    <nd ref="333450475"/>
    <nd ref="333450478"/>
    <nd ref="333450481"/>
    <nd ref="333450483"/>
    <nd ref="333450486"/>
    <nd ref="527277738"/>
    <tag k="highway" v="residential"/>
    <tag k="name" v="Kalkofenweg"/>
  </way>
  <way id="30259498" version="3" timestamp="2009-09-30T15:40:00Z" uid="36809" user="pfoten_weg_!_" changeset="2689684">
    <nd ref="333450840"/>
    <nd ref="333450842"/>
    <nd ref="333450844"/>
    <nd ref="333450845"/>
    <nd ref="333450846"/>
    <nd ref="333450847"/>
    <nd ref="333450848"/>
    <nd ref="333450849"/>
    <nd ref="333450850"/>
    <tag k="addr:postcode" v="6111"/>
    <tag k="at:maxspeed" v="Ortsgebiet"/>
    <tag k="fixme" v="check import"/>
    <tag k="highway" v="residential"/>
    <tag k="is_in" v="...,Bezirk Innsbruck,Tirol,Österreich,Europa"/>
    <tag k="name" v="Jagerbichl"/>
    <tag k="note" v="imported from plan.at; (C)=CC-by-sa or oDBL; feel free to change if necessary"/>
    <tag k="plan_at:acad_id" v="i9104D"/>
    <tag k="source" v="plan.at 2009"/>
  </way>
  <way id="30259502" version="3" timestamp="2009-09-30T15:40:01Z" uid="36809" user="pfoten_weg_!_" changeset="2689684">
    <nd ref="333450853"/>
    <nd ref="333450854"/>
    <nd ref="333450856"/>
    <nd ref="333450858"/>
    <nd ref="333445377"/>
    <nd ref="333450840"/>
    <nd ref="333450860"/>
    <nd ref="333450862"/>
    <nd ref="333450834"/>
    <tag k="addr:postcode" v="6111"/>
    <tag k="at:maxspeed" v="Ortsgebiet"/>
    <tag k="fixme" v="check import"/>
    <tag k="highway" v="residential"/>
    <tag k="is_in" v="...,Bezirk Innsbruck,Tirol,Österreich,Europa"/>
    <tag k="name" v="Jagerbichl"/>
    <tag k="note" v="imported from plan.at; (C)=CC-by-sa or oDBL; feel free to change if necessary"/>
    <tag k="plan_at:acad_id" v="i9104A"/>
    <tag k="source" v="plan.at 2009"/>
  </way>
  <way id="30259503" version="3" timestamp="2009-09-30T15:40:03Z" uid="36809" user="pfoten_weg_!_" changeset="2689684">
    <nd ref="333450848"/>
    <nd ref="333450868"/>
    <tag k="addr:postcode" v="6111"/>
    <tag k="at:maxspeed" v="Ortsgebiet"/>
    <tag k="fixme" v="check import"/>
    <tag k="highway" v="residential"/>
    <tag k="is_in" v="...,Bezirk Innsbruck,Tirol,Österreich,Europa"/>
    <tag k="name" v="Jagerbichl"/>
    <tag k="note" v="imported from plan.at; (C)=CC-by-sa or oDBL; feel free to change if necessary"/>
    <tag k="plan_at:acad_id" v="i91047"/>
    <tag k="source" v="plan.at 2009"/>
  </way>
  <way id="30259506" version="3" timestamp="2009-09-30T15:39:54Z" uid="36809" user="pfoten_weg_!_" changeset="2689684">
    <nd ref="333261919"/>
    <nd ref="333450891"/>
    <nd ref="333450893"/>
    <nd ref="333450895"/>
    <nd ref="333450897"/>
    <nd ref="333450899"/>
    <nd ref="333450901"/>
    <nd ref="333450905"/>
    <nd ref="263281986"/>
    <tag k="addr:postcode" v="6121"/>
    <tag k="at:maxspeed" v="Ortsgebiet"/>
    <tag k="fixme" v="check import"/>
    <tag k="highway:plan.at:i9" v="residential"/>
    <tag k="is_in" v="...,Bezirk Innsbruck,Tirol,Österreich,Europa"/>
    <tag k="name" v="Innweg"/>
    <tag k="note" v="imported from plan.at; (C)=CC-by-sa or oDBL; feel free to change if necessary"/>
    <tag k="plan_at:acad_id" v="i9103E"/>
    <tag k="source" v="plan.at 2009"/>
  </way>
  <way id="30259514" version="4" timestamp="2009-09-30T15:39:55Z" uid="36809" user="pfoten_weg_!_" changeset="2689684">
    <nd ref="333446507"/>
    <nd ref="333451027"/>
    <nd ref="263269114"/>
    <tag k="addr:postcode" v="6111"/>
    <tag k="at:maxspeed" v="Ortsgebiet"/>
    <tag k="fixme" v="check import"/>
    <tag k="highway" v="residential"/>
    <tag k="is_in" v="...,Bezirk Innsbruck,Tirol,Österreich,Europa"/>
    <tag k="name" v="Hohenhausstraße"/>
    <tag k="note" v="imported from plan.at; (C)=CC-by-sa or oDBL; feel free to change if necessary"/>
    <tag k="plan_at:acad_id" v="i9FB4"/>
    <tag k="source" v="plan.at 2009"/>
  </way>
  <way id="30259517" version="3" timestamp="2009-09-30T15:39:58Z" uid="36809" user="pfoten_weg_!_" changeset="2689684">
    <nd ref="333451041"/>
    <nd ref="333451046"/>
    <nd ref="333451052"/>
    <nd ref="333451089"/>
    <tag k="addr:postcode" v="6060"/>
    <tag k="at:maxspeed" v="Ortsgebiet"/>
    <tag k="fixme" v="check import"/>
    <tag k="highway" v="residential"/>
    <tag k="is_in" v="...,Bezirk Innsbruck,Tirol,Österreich,Europa"/>
    <tag k="name" v="Hirtenweg"/>
    <tag k="note" v="imported from plan.at; (C)=CC-by-sa or oDBL; feel free to change if necessary"/>
    <tag k="plan_at:acad_id" v="i9FA8"/>
    <tag k="source" v="plan.at 2009"/>
  </way>
  <way id="30259526" version="6" timestamp="2009-09-30T14:31:46Z" uid="36809" user="pfoten_weg_!_" changeset="2688850">
    <nd ref="333268342"/>
    <nd ref="359021168"/>
    <nd ref="333451195"/>
    <nd ref="333451197"/>
    <nd ref="333451180"/>
    <nd ref="333451203"/>
    <nd ref="333451212"/>
    <nd ref="333451216"/>
    <nd ref="333716781"/>
    <tag k="addr:postcode" v="6075"/>
    <tag k="highway" v="residential"/>
    <tag k="is_in" v="Tulfes,Innsbruck Land,Tirol,Österreich,Europa"/>
    <tag k="name" v="Herrengasse"/>
  </way>
  <way id="30259530" version="2" timestamp="2009-09-30T15:39:24Z" uid="36809" user="pfoten_weg_!_" changeset="2689684">
    <nd ref="333445267"/>
    <nd ref="333451263"/>
    <nd ref="263268288"/>
    <nd ref="333451265"/>
    <nd ref="263268289"/>
    <nd ref="263268290"/>
    <nd ref="263268291"/>
    <nd ref="263268292"/>
    <nd ref="333451267"/>
    <tag k="addr:postcode" v="6111"/>
    <tag k="at:maxspeed" v="Ortsgebiet"/>
    <tag k="fixme" v="check import"/>
    <tag k="highway:plan.at:i9" v="residential"/>
    <tag k="is_in" v="...,Bezirk Innsbruck,Tirol,Österreich,Europa"/>
    <tag k="name" v="Hauptweg"/>
    <tag k="note" v="imported from plan.at; (C)=CC-by-sa or oDBL; feel free to change if necessary"/>
    <tag k="plan_at:acad_id" v="i9F57"/>
    <tag k="source" v="plan.at 2009"/>
  </way>
  <way id="30259532" version="3" timestamp="2009-09-30T15:39:22Z" uid="36809" user="pfoten_weg_!_" changeset="2689684">
    <nd ref="333451278"/>
    <nd ref="333451280"/>
    <nd ref="333451282"/>
    <nd ref="333451284"/>
    <nd ref="333451286"/>
    <nd ref="333451288"/>
    <nd ref="333451290"/>
    <nd ref="333451292"/>
    <tag k="addr:postcode" v="6121"/>
    <tag k="at:maxspeed" v="Ortsgebiet"/>
    <tag k="fixme" v="check import"/>
    <tag k="highway" v="residential"/>
    <tag k="is_in" v="...,Bezirk Innsbruck,Tirol,Österreich,Europa"/>
    <tag k="name" v="Haselweg"/>
    <tag k="note" v="imported from plan.at; (C)=CC-by-sa or oDBL; feel free to change if necessary"/>
    <tag k="plan_at:acad_id" v="i9F4E"/>
    <tag k="source" v="plan.at 2009"/>
  </way>
  <way id="30259536" version="3" timestamp="2009-09-30T15:39:14Z" uid="36809" user="pfoten_weg_!_" changeset="2689684">
    <nd ref="333450950"/>
    <nd ref="333451423"/>
    <nd ref="333451425"/>
    <nd ref="333451427"/>
    <nd ref="333446585"/>
    <tag k="addr:postcode" v="6111"/>
    <tag k="at:maxspeed" v="Ortsgebiet"/>
    <tag k="fixme" v="check import"/>
    <tag k="highway" v="residential"/>
    <tag k="is_in" v="...,Bezirk Innsbruck,Tirol,Österreich,Europa"/>
    <tag k="name" v="Hanneburgerstraße"/>
    <tag k="note" v="imported from plan.at; (C)=CC-by-sa or oDBL; feel free to change if necessary"/>
    <tag k="plan_at:acad_id" v="i9F3F"/>
    <tag k="source" v="plan.at 2009"/>
  </way>
  <way id="30259540" version="4" timestamp="2009-09-30T15:39:12Z" uid="36809" user="pfoten_weg_!_" changeset="2689684">
    <nd ref="333451469"/>
    <nd ref="333451473"/>
    <nd ref="333262888"/>
    <nd ref="333451475"/>
    <nd ref="333451484"/>
    <nd ref="333451490"/>
    <nd ref="333451491"/>
    <nd ref="333451494"/>
    <nd ref="333451496"/>
    <nd ref="333451498"/>
    <nd ref="333451500"/>
    <nd ref="333451502"/>
    <nd ref="333270032"/>
    <tag k="addr:postcode" v="6060"/>
    <tag k="at:maxspeed" v="Ortsgebiet"/>
    <tag k="fixme" v="check import"/>
    <tag k="highway" v="residential"/>
    <tag k="is_in" v="...,Bezirk Innsbruck,Tirol,Österreich,Europa"/>
    <tag k="name" v="Gschwendt"/>
    <tag k="note" v="imported from plan.at; (C)=CC-by-sa or oDBL; feel free to change if necessary"/>
    <tag k="plan_at:acad_id" v="i9F06"/>
    <tag k="source" v="plan.at 2009"/>
  </way>
  <way id="30259546" version="3" timestamp="2009-09-30T15:39:20Z" uid="36809" user="pfoten_weg_!_" changeset="2689684">
    <nd ref="333446546"/>
    <nd ref="333451667"/>
    <nd ref="333447976"/>
    <nd ref="337968103"/>
    <nd ref="333451671"/>
    <nd ref="333451674"/>
    <nd ref="333446645"/>
    <tag k="addr:postcode" v="6060"/>
    <tag k="at:maxspeed" v="Ortsgebiet"/>
    <tag k="fixme" v="check import"/>
    <tag k="highway" v="residential"/>
    <tag k="is_in" v="...,Bezirk Innsbruck,Tirol,Österreich,Europa"/>
    <tag k="name" v="Grumelweg"/>
    <tag k="note" v="imported from plan.at; (C)=CC-by-sa or oDBL; feel free to change if necessary"/>
    <tag k="plan_at:acad_id" v="i9EFD"/>
    <tag k="source" v="plan.at 2009"/>
  </way>
  <way id="30259558" version="3" timestamp="2009-09-30T15:39:37Z" uid="36809" user="pfoten_weg_!_" changeset="2689684">
    <nd ref="333451679"/>
    <nd ref="333451692"/>
    <nd ref="333451697"/>
    <nd ref="333451700"/>
    <nd ref="333451702"/>
    <nd ref="333451704"/>
    <nd ref="333451706"/>
    <nd ref="333451722"/>
    <nd ref="333451726"/>
    <nd ref="333451732"/>
    <nd ref="333451734"/>
    <nd ref="333451738"/>
    <nd ref="333451740"/>
    <nd ref="333451741"/>
    <nd ref="333451750"/>
    <nd ref="333451756"/>
    <nd ref="333451760"/>
    <nd ref="333451762"/>
    <nd ref="333451765"/>
    <nd ref="333451767"/>
    <nd ref="333451770"/>
    <nd ref="333451783"/>
    <nd ref="333451788"/>
    <nd ref="333451790"/>
    <nd ref="333451792"/>
    <nd ref="333451794"/>
    <nd ref="333451796"/>
    <nd ref="333451797"/>
    <nd ref="333451798"/>
    <nd ref="333451799"/>
    <nd ref="333451810"/>
    <nd ref="333451811"/>
    <nd ref="333451812"/>
    <nd ref="333451813"/>
    <nd ref="333451814"/>
    <nd ref="333451816"/>
    <nd ref="333451818"/>
    <nd ref="333451821"/>
    <nd ref="333451822"/>
    <nd ref="333451825"/>
    <nd ref="333451827"/>
    <nd ref="333451830"/>
    <nd ref="333451832"/>
    <nd ref="333451834"/>
    <nd ref="333451836"/>
    <nd ref="333451838"/>
    <nd ref="333451839"/>
    <nd ref="333451840"/>
    <nd ref="333451841"/>
    <nd ref="333451842"/>
    <nd ref="333451843"/>
    <nd ref="333451844"/>
    <nd ref="333451845"/>
    <nd ref="333451846"/>
    <nd ref="333451847"/>
    <nd ref="333451848"/>
    <nd ref="333451851"/>
    <nd ref="333451852"/>
    <nd ref="333451853"/>
    <nd ref="333451854"/>
    <nd ref="333451858"/>
    <nd ref="333451860"/>
    <nd ref="333451862"/>
    <nd ref="333451864"/>
    <tag k="addr:postcode" v="6111"/>
    <tag k="at:maxspeed" v="Ortsgebiet"/>
    <tag k="fixme" v="check import"/>
    <tag k="highway" v="residential"/>
    <tag k="is_in" v="...,Bezirk Innsbruck,Tirol,Österreich,Europa"/>
    <tag k="name" v="Grubertalstraße"/>
    <tag k="note" v="imported from plan.at; (C)=CC-by-sa or oDBL; feel free to change if necessary"/>
    <tag k="plan_at:acad_id" v="i9EFA"/>
    <tag k="source" v="plan.at 2009"/>
  </way>
  <way id="30259562" version="3" timestamp="2009-09-30T15:39:41Z" uid="36809" user="pfoten_weg_!_" changeset="2689684">
    <nd ref="333451869"/>
    <nd ref="333451875"/>
    <nd ref="333451876"/>
    <nd ref="333451878"/>
    <nd ref="333451880"/>
    <nd ref="333451896"/>
    <nd ref="333447744"/>
    <tag k="addr:postcode" v="6111"/>
    <tag k="at:maxspeed" v="Ortsgebiet"/>
    <tag k="fixme" v="check import"/>
    <tag k="highway" v="residential"/>
    <tag k="is_in" v="...,Bezirk Innsbruck,Tirol,Österreich,Europa"/>
    <tag k="name" v="Großvolderbergstraße"/>
    <tag k="note" v="imported from plan.at; (C)=CC-by-sa or oDBL; feel free to change if necessary"/>
    <tag k="plan_at:acad_id" v="i9EF7"/>
    <tag k="source" v="plan.at 2009"/>
  </way>
  <way id="30259569" version="3" timestamp="2009-09-30T15:39:30Z" uid="36809" user="pfoten_weg_!_" changeset="2689684">
    <nd ref="333449786"/>
    <nd ref="333451950"/>
    <nd ref="333447187"/>
    <nd ref="333451953"/>
    <nd ref="333449304"/>
    <nd ref="333451955"/>
    <nd ref="333451957"/>
    <nd ref="333451960"/>
    <nd ref="333451962"/>
    <nd ref="333451964"/>
    <nd ref="333451966"/>
    <nd ref="333451968"/>
    <nd ref="333451977"/>
    <nd ref="333451979"/>
    <nd ref="333445694"/>
    <nd ref="333451980"/>
    <nd ref="333451981"/>
    <nd ref="333451982"/>
    <nd ref="333451984"/>
    <nd ref="333451990"/>
    <nd ref="333451994"/>
    <nd ref="333451997"/>
    <nd ref="333451999"/>
    <nd ref="333452001"/>
    <nd ref="333452002"/>
    <nd ref="333452004"/>
    <nd ref="333452005"/>
    <nd ref="333452006"/>
    <nd ref="333452012"/>
    <nd ref="333452014"/>
    <nd ref="333452017"/>
    <nd ref="333452019"/>
    <nd ref="333452021"/>
    <nd ref="333452023"/>
    <nd ref="333452026"/>
    <nd ref="333451864"/>
    <tag k="addr:postcode" v="6111"/>
    <tag k="at:maxspeed" v="Ortsgebiet"/>
    <tag k="fixme" v="check import"/>
    <tag k="highway" v="residential"/>
    <tag k="is_in" v="...,Bezirk Innsbruck,Tirol,Österreich,Europa"/>
    <tag k="name" v="Großvolderbergstraße"/>
    <tag k="note" v="imported from plan.at; (C)=CC-by-sa or oDBL; feel free to change if necessary"/>
    <tag k="plan_at:acad_id" v="i9EF4"/>
    <tag k="source" v="plan.at 2009"/>
  </way>
  <way id="30259572" version="3" timestamp="2009-09-30T15:39:28Z" uid="36809" user="pfoten_weg_!_" changeset="2689684">
    <nd ref="333447702"/>
    <nd ref="333452032"/>
    <nd ref="333452034"/>
    <nd ref="333452036"/>
    <nd ref="333452054"/>
    <nd ref="333452058"/>
    <nd ref="333452060"/>
    <nd ref="333452062"/>
    <nd ref="333452063"/>
    <tag k="addr:postcode" v="6111"/>
    <tag k="at:maxspeed" v="Ortsgebiet"/>
    <tag k="fixme" v="check import"/>
    <tag k="highway" v="residential"/>
    <tag k="is_in" v="...,Bezirk Innsbruck,Tirol,Österreich,Europa"/>
    <tag k="name" v="Großvolderbergstraße"/>
    <tag k="note" v="imported from plan.at; (C)=CC-by-sa or oDBL; feel free to change if necessary"/>
    <tag k="plan_at:acad_id" v="i9EF1"/>
    <tag k="source" v="plan.at 2009"/>
  </way>
  <way id="30259574" version="3" timestamp="2009-09-30T15:39:25Z" uid="36809" user="pfoten_weg_!_" changeset="2689684">
    <nd ref="333452071"/>
    <nd ref="333452073"/>
    <nd ref="333452078"/>
    <nd ref="333452080"/>
    <nd ref="333452082"/>
    <nd ref="333452084"/>
    <nd ref="333452085"/>
    <nd ref="333452086"/>
    <tag k="addr:postcode" v="6111"/>
    <tag k="at:maxspeed" v="Ortsgebiet"/>
    <tag k="fixme" v="check import"/>
    <tag k="highway" v="residential"/>
    <tag k="is_in" v="...,Bezirk Innsbruck,Tirol,Österreich,Europa"/>
    <tag k="name" v="Großvolderberg"/>
    <tag k="note" v="imported from plan.at; (C)=CC-by-sa or oDBL; feel free to change if necessary"/>
    <tag k="plan_at:acad_id" v="i9EEE"/>
    <tag k="source" v="plan.at 2009"/>
  </way>
  <way id="30259579" version="3" timestamp="2009-09-30T14:32:04Z" uid="36809" user="pfoten_weg_!_" changeset="2688850">
    <nd ref="333450494"/>
    <nd ref="333452092"/>
    <nd ref="333452105"/>
    <nd ref="333452113"/>
    <nd ref="333452115"/>
    <nd ref="333452117"/>
    <nd ref="333452119"/>
    <nd ref="333452121"/>
    <nd ref="333452123"/>
    <nd ref="333452126"/>
    <nd ref="333452128"/>
    <nd ref="333452130"/>
    <nd ref="333452141"/>
    <nd ref="333452147"/>
    <nd ref="333452149"/>
    <nd ref="333452151"/>
    <nd ref="333452161"/>
    <nd ref="333452163"/>
    <nd ref="333452165"/>
    <nd ref="333452182"/>
    <nd ref="333452184"/>
    <nd ref="333452186"/>
    <nd ref="333452187"/>
    <nd ref="333452188"/>
    <nd ref="333452192"/>
    <nd ref="333452194"/>
    <nd ref="333452196"/>
    <nd ref="333452199"/>
    <nd ref="333452201"/>
    <nd ref="333452203"/>
    <nd ref="333452205"/>
    <nd ref="333452213"/>
    <nd ref="333452231"/>
    <nd ref="333452233"/>
    <nd ref="333452238"/>
    <nd ref="333452240"/>
    <nd ref="333452244"/>
    <nd ref="333452248"/>
    <nd ref="333452249"/>
    <tag k="addr:postcode" v="6111"/>
    <tag k="at:maxspeed" v="Ortsgebiet"/>
    <tag k="fixme" v="check import"/>
    <tag k="highway" v="residential"/>
    <tag k="is_in" v="...,Bezirk Innsbruck,Tirol,Österreich,Europa"/>
    <tag k="name" v="Großvolderberg"/>
    <tag k="note" v="imported from plan.at; (C)=CC-by-sa or oDBL; feel free to change if necessary"/>
    <tag k="plan_at:acad_id" v="i9EEB"/>
    <tag k="uploaded_by" v="Wolfgang W. Wasserburger"/>
  </way>
  <way id="30259579" version="4" timestamp="2009-09-30T15:39:33Z" uid="36809" user="pfoten_weg_!_" changeset="2689684">
    <nd ref="333450494"/>
    <nd ref="333452092"/>
    <nd ref="333452105"/>
    <nd ref="333452113"/>
    <nd ref="333452115"/>
    <nd ref="333452117"/>
    <nd ref="333452119"/>
    <nd ref="333452121"/>
    <nd ref="333452123"/>
    <nd ref="333452126"/>
    <nd ref="333452128"/>
    <nd ref="333452130"/>
    <nd ref="333452141"/>
    <nd ref="333452147"/>
    <nd ref="333452149"/>
    <nd ref="333452151"/>
    <nd ref="333452161"/>
    <nd ref="333452163"/>
    <nd ref="333452165"/>
    <nd ref="333452182"/>
    <nd ref="333452184"/>
    <nd ref="333452186"/>
    <nd ref="333452187"/>
    <nd ref="333452188"/>
    <nd ref="333452192"/>
    <nd ref="333452194"/>
    <nd ref="333452196"/>
    <nd ref="333452199"/>
    <nd ref="333452201"/>
    <nd ref="333452203"/>
    <nd ref="333452205"/>
    <nd ref="333452213"/>
    <nd ref="333452231"/>
    <nd ref="333452233"/>
    <nd ref="333452238"/>
    <nd ref="333452240"/>
    <nd ref="333452244"/>
    <nd ref="333452248"/>
    <nd ref="333452249"/>
    <tag k="addr:postcode" v="6111"/>
    <tag k="at:maxspeed" v="Ortsgebiet"/>
    <tag k="fixme" v="check import"/>
    <tag k="highway" v="residential"/>
    <tag k="is_in" v="...,Bezirk Innsbruck,Tirol,Österreich,Europa"/>
    <tag k="name" v="Großvolderberg"/>
    <tag k="note" v="imported from plan.at; (C)=CC-by-sa or oDBL; feel free to change if necessary"/>
    <tag k="plan_at:acad_id" v="i9EEB"/>
  </way>
  <way id="30259581" version="3" timestamp="2009-09-30T15:39:32Z" uid="36809" user="pfoten_weg_!_" changeset="2689684">
    <nd ref="333451842"/>
    <nd ref="333452255"/>
    <nd ref="333452257"/>
    <nd ref="333452271"/>
    <nd ref="333452273"/>
    <nd ref="333452275"/>
    <nd ref="333452278"/>
    <nd ref="333452285"/>
    <nd ref="333452370"/>
    <tag k="addr:postcode" v="6111"/>
    <tag k="at:maxspeed" v="Ortsgebiet"/>
    <tag k="fixme" v="check import"/>
    <tag k="highway" v="residential"/>
    <tag k="is_in" v="...,Bezirk Innsbruck,Tirol,Österreich,Europa"/>
    <tag k="name" v="Großvolderberg"/>
    <tag k="note" v="imported from plan.at; (C)=CC-by-sa or oDBL; feel free to change if necessary"/>
    <tag k="plan_at:acad_id" v="i9EE8"/>
    <tag k="source" v="plan.at 2009"/>
  </way>
  <way id="30259587" version="3" timestamp="2009-09-30T15:38:30Z" uid="36809" user="pfoten_weg_!_" changeset="2689684">
    <nd ref="333452384"/>
    <nd ref="333452386"/>
    <nd ref="333452392"/>
    <nd ref="333452399"/>
    <nd ref="333452403"/>
    <nd ref="333452086"/>
    <nd ref="333452405"/>
    <nd ref="333452407"/>
    <nd ref="333452409"/>
    <nd ref="333452411"/>
    <nd ref="333452413"/>
    <nd ref="333452416"/>
    <nd ref="333452422"/>
    <nd ref="333452428"/>
    <nd ref="333452430"/>
    <nd ref="333452439"/>
    <nd ref="333452441"/>
    <nd ref="333452443"/>
    <nd ref="333452449"/>
    <nd ref="333452452"/>
    <nd ref="333452454"/>
    <nd ref="333452456"/>
    <nd ref="333452463"/>
    <nd ref="333452465"/>
    <nd ref="333452476"/>
    <nd ref="333452478"/>
    <nd ref="333452480"/>
    <nd ref="333452487"/>
    <nd ref="333452492"/>
    <nd ref="333452498"/>
    <nd ref="333452502"/>
    <nd ref="333452503"/>
    <nd ref="333452504"/>
    <nd ref="333452506"/>
    <nd ref="333452508"/>
    <nd ref="333452510"/>
    <nd ref="333452512"/>
    <nd ref="333452514"/>
    <nd ref="333452517"/>
    <nd ref="333452519"/>
    <nd ref="333452521"/>
    <nd ref="333452523"/>
    <nd ref="333451679"/>
    <tag k="addr:postcode" v="6111"/>
    <tag k="at:maxspeed" v="Ortsgebiet"/>
    <tag k="fixme" v="check import"/>
    <tag k="highway" v="residential"/>
    <tag k="is_in" v="...,Bezirk Innsbruck,Tirol,Österreich,Europa"/>
    <tag k="name" v="Großvolderberg"/>
    <tag k="note" v="imported from plan.at; (C)=CC-by-sa or oDBL; feel free to change if necessary"/>
    <tag k="plan_at:acad_id" v="i9EE5"/>
    <tag k="source" v="plan.at 2009"/>
  </way>
  <way id="30259588" version="3" timestamp="2009-09-30T15:38:34Z" uid="36809" user="pfoten_weg_!_" changeset="2689684">
    <nd ref="333452537"/>
    <nd ref="333452546"/>
    <nd ref="333452550"/>
    <nd ref="333452552"/>
    <nd ref="333452554"/>
    <tag k="addr:postcode" v="6111"/>
    <tag k="at:maxspeed" v="Ortsgebiet"/>
    <tag k="fixme" v="check import"/>
    <tag k="highway" v="residential"/>
    <tag k="is_in" v="...,Bezirk Innsbruck,Tirol,Österreich,Europa"/>
    <tag k="name" v="Großvolderberg"/>
    <tag k="note" v="imported from plan.at; (C)=CC-by-sa or oDBL; feel free to change if necessary"/>
    <tag k="plan_at:acad_id" v="i9EE2"/>
    <tag k="source" v="plan.at 2009"/>
  </way>
  <way id="30259589" version="3" timestamp="2009-09-30T15:38:33Z" uid="36809" user="pfoten_weg_!_" changeset="2689684">
    <nd ref="333452558"/>
    <nd ref="333452560"/>
    <nd ref="333452562"/>
    <nd ref="333452573"/>
    <nd ref="333452575"/>
    <nd ref="333452577"/>
    <nd ref="333452584"/>
    <nd ref="333452591"/>
    <nd ref="333452597"/>
    <nd ref="333452599"/>
    <nd ref="333452601"/>
    <nd ref="333452610"/>
    <nd ref="333452613"/>
    <nd ref="333452619"/>
    <nd ref="333452621"/>
    <nd ref="333452627"/>
    <nd ref="333447702"/>
    <tag k="addr:postcode" v="6111"/>
    <tag k="at:maxspeed" v="Ortsgebiet"/>
    <tag k="fixme" v="check import"/>
    <tag k="highway" v="residential"/>
    <tag k="is_in" v="...,Bezirk Innsbruck,Tirol,Österreich,Europa"/>
    <tag k="name" v="Großvolderberg"/>
    <tag k="note" v="imported from plan.at; (C)=CC-by-sa or oDBL; feel free to change if necessary"/>
    <tag k="plan_at:acad_id" v="i9EDF"/>
    <tag k="source" v="plan.at 2009"/>
  </way>
  <way id="30259591" version="3" timestamp="2009-09-30T15:38:36Z" uid="36809" user="pfoten_weg_!_" changeset="2689684">
    <nd ref="333445639"/>
    <nd ref="333452637"/>
    <nd ref="333452640"/>
    <nd ref="333452648"/>
    <nd ref="333452650"/>
    <nd ref="333452651"/>
    <nd ref="333452537"/>
    <nd ref="333452652"/>
    <nd ref="333452653"/>
    <nd ref="333452654"/>
    <nd ref="333452655"/>
    <nd ref="333452658"/>
    <nd ref="333452662"/>
    <nd ref="333452664"/>
    <nd ref="333452666"/>
    <nd ref="333452668"/>
    <nd ref="333452670"/>
    <nd ref="333452672"/>
    <nd ref="333452676"/>
    <nd ref="333452678"/>
    <nd ref="333452680"/>
    <nd ref="333452682"/>
    <nd ref="333452685"/>
    <nd ref="333452687"/>
    <nd ref="333451838"/>
    <tag k="addr:postcode" v="6111"/>
    <tag k="at:maxspeed" v="Ortsgebiet"/>
    <tag k="fixme" v="check import"/>
    <tag k="highway" v="residential"/>
    <tag k="is_in" v="...,Bezirk Innsbruck,Tirol,Österreich,Europa"/>
    <tag k="name" v="Großvolderberg"/>
    <tag k="note" v="imported from plan.at; (C)=CC-by-sa or oDBL; feel free to change if necessary"/>
    <tag k="plan_at:acad_id" v="i9EDC"/>
    <tag k="source" v="plan.at 2009"/>
  </way>
  <way id="30259594" version="3" timestamp="2009-09-30T15:38:25Z" uid="36809" user="pfoten_weg_!_" changeset="2689684">
    <nd ref="333445637"/>
    <nd ref="333452708"/>
    <nd ref="333452710"/>
    <nd ref="333452733"/>
    <nd ref="333452735"/>
    <nd ref="333452742"/>
    <nd ref="333452745"/>
    <nd ref="333452746"/>
    <nd ref="333452749"/>
    <nd ref="333452750"/>
    <nd ref="333452752"/>
    <nd ref="333452754"/>
    <nd ref="333452757"/>
    <nd ref="333452760"/>
    <nd ref="333452761"/>
    <nd ref="333452763"/>
    <nd ref="333452766"/>
    <nd ref="333452769"/>
    <nd ref="333452771"/>
    <nd ref="333452773"/>
    <nd ref="333452775"/>
    <nd ref="333452776"/>
    <nd ref="333452778"/>
    <nd ref="333452780"/>
    <nd ref="333452786"/>
    <tag k="addr:postcode" v="6111"/>
    <tag k="at:maxspeed" v="Ortsgebiet"/>
    <tag k="fixme" v="check import"/>
    <tag k="highway" v="residential"/>
    <tag k="is_in" v="...,Bezirk Innsbruck,Tirol,Österreich,Europa"/>
    <tag k="name" v="Großvolderberg"/>
    <tag k="note" v="imported from plan.at; (C)=CC-by-sa or oDBL; feel free to change if necessary"/>
    <tag k="plan_at:acad_id" v="i9ED9"/>
    <tag k="source" v="plan.at 2009"/>
  </way>
  <way id="30259596" version="1" timestamp="2009-01-19T02:06:07Z" uid="26515" user="Simon Ward" changeset="809154">
    <nd ref="333452796"/>
    <nd ref="333452797"/>
    <tag k="highway" v="residential"/>
    <tag k="lit" v="yes"/>
    <tag k="name" v="Trust Road"/>
    <tag k="source" v="survey"/>
  </way>
  <way id="30259599" version="3" timestamp="2009-09-30T14:31:12Z" uid="36809" user="pfoten_weg_!_" changeset="2688850">
    <nd ref="333452789"/>
    <nd ref="333452790"/>
    <nd ref="333452791"/>
    <nd ref="333452792"/>
    <nd ref="333452795"/>
    <nd ref="333452802"/>
    <nd ref="333452804"/>
    <nd ref="333452806"/>
    <nd ref="333452808"/>
    <nd ref="333452810"/>
    <nd ref="333452823"/>
    <nd ref="333452831"/>
    <nd ref="333452837"/>
    <nd ref="333452845"/>
    <nd ref="333452849"/>
    <nd ref="333452852"/>
    <nd ref="333452861"/>
    <nd ref="333452863"/>
    <nd ref="333452868"/>
    <nd ref="333452872"/>
    <nd ref="333452893"/>
    <nd ref="333452895"/>
    <nd ref="333452897"/>
    <nd ref="333447674"/>
    <tag k="addr:postcode" v="6111"/>
    <tag k="at:maxspeed" v="Ortsgebiet"/>
    <tag k="fixme" v="check import"/>
    <tag k="highway" v="residential"/>
    <tag k="is_in" v="...,Bezirk Innsbruck,Tirol,Österreich,Europa"/>
    <tag k="name" v="Großvolderberg"/>
    <tag k="note" v="imported from plan.at; (C)=CC-by-sa or oDBL; feel free to change if necessary"/>
    <tag k="plan_at:acad_id" v="i9ED6"/>
    <tag k="uploaded_by" v="Wolfgang W. Wasserburger"/>
  </way>
  <way id="30259599" version="4" timestamp="2009-09-30T15:38:29Z" uid="36809" user="pfoten_weg_!_" changeset="2689684">
    <nd ref="333452789"/>
    <nd ref="333452790"/>
    <nd ref="333452791"/>
    <nd ref="333452792"/>
    <nd ref="333452795"/>
    <nd ref="333452802"/>
    <nd ref="333452804"/>
    <nd ref="333452806"/>
    <nd ref="333452808"/>
    <nd ref="333452810"/>
    <nd ref="333452823"/>
    <nd ref="333452831"/>
    <nd ref="333452837"/>
    <nd ref="333452845"/>
    <nd ref="333452849"/>
    <nd ref="333452852"/>
    <nd ref="333452861"/>
    <nd ref="333452863"/>
    <nd ref="333452868"/>
    <nd ref="333452872"/>
    <nd ref="333452893"/>
    <nd ref="333452895"/>
    <nd ref="333452897"/>
    <nd ref="333447674"/>
    <tag k="addr:postcode" v="6111"/>
    <tag k="at:maxspeed" v="Ortsgebiet"/>
    <tag k="fixme" v="check import"/>
    <tag k="highway" v="residential"/>
    <tag k="is_in" v="...,Bezirk Innsbruck,Tirol,Österreich,Europa"/>
    <tag k="name" v="Großvolderberg"/>
    <tag k="note" v="imported from plan.at; (C)=CC-by-sa or oDBL; feel free to change if necessary"/>
    <tag k="plan_at:acad_id" v="i9ED6"/>
  </way>
  <way id="30259602" version="3" timestamp="2009-09-30T15:38:19Z" uid="36809" user="pfoten_weg_!_" changeset="2689684">
    <nd ref="333452966"/>
    <nd ref="333452975"/>
    <nd ref="263279826"/>
    <tag k="addr:postcode" v="6121"/>
    <tag k="at:maxspeed" v="Ortsgebiet"/>
    <tag k="fixme" v="check import"/>
    <tag k="highway" v="residential"/>
    <tag k="is_in" v="...,Bezirk Innsbruck,Tirol,Österreich,Europa"/>
    <tag k="name" v="Graf-Galen-Weg"/>
    <tag k="note" v="imported from plan.at; (C)=CC-by-sa or oDBL; feel free to change if necessary"/>
    <tag k="plan_at:acad_id" v="i9EA6"/>
    <tag k="source" v="plan.at 2009"/>
  </way>
  <way id="30259609" version="2" timestamp="2010-07-08T17:18:03Z" uid="74617" user="JohnSmith" changeset="5167338">
    <nd ref="333453000"/>
    <nd ref="333453003"/>
    <tag k="highway" v="residential"/>
    <tag k="maxspeed" v="50"/>
    <tag k="maxspeed:source" v="default residential speed limit in Australia"/>
    <tag k="name" v="Corowa Court"/>
  </way>
  <way id="30259610" version="2" timestamp="2010-07-08T17:16:04Z" uid="74617" user="JohnSmith" changeset="5167338">
    <nd ref="333453015"/>
    <nd ref="333453141"/>
    <nd ref="333453147"/>
    <nd ref="333453153"/>
    <tag k="highway" v="residential"/>
    <tag k="maxspeed" v="50"/>
    <tag k="maxspeed:source" v="default residential speed limit in Australia"/>
    <tag k="name" v="Polley Court"/>
  </way>
  <way id="30259611" version="2" timestamp="2010-07-08T17:24:15Z" uid="74617" user="JohnSmith" changeset="5167338">
    <nd ref="333453007"/>
    <nd ref="333453160"/>
    <nd ref="333453164"/>
    <tag k="highway" v="residential"/>
    <tag k="maxspeed" v="50"/>
    <tag k="maxspeed:source" v="default residential speed limit in Australia"/>
    <tag k="name" v="Emmy Court"/>
  </way>
  <way id="30259613" version="2" timestamp="2010-07-08T17:16:42Z" uid="74617" user="JohnSmith" changeset="5167338">
    <nd ref="333453020"/>
    <nd ref="269310160"/>
    <tag k="highway" v="residential"/>
    <tag k="maxspeed" v="50"/>
    <tag k="maxspeed:source" v="default residential speed limit in Australia"/>
    <tag k="name" v="Tuffs Grove"/>
  </way>
  <way id="30259614" version="3" timestamp="2009-08-03T20:24:57Z" uid="4467" user="Rosscoe" changeset="2030021">
    <nd ref="331122596"/>
    <nd ref="333453170"/>
    <nd ref="333453174"/>
    <nd ref="331122585"/>
    <tag k="highway" v="residential"/>
    <tag k="name" v="Meadowvale Drive"/>
    <tag k="oneway" v="yes"/>
  </way>
  <way id="30259614" version="4" timestamp="2010-07-08T17:25:04Z" uid="74617" user="JohnSmith" changeset="5167338">
    <nd ref="331122596"/>
    <nd ref="333453170"/>
    <nd ref="333453174"/>
    <nd ref="331122585"/>
    <tag k="highway" v="residential"/>
    <tag k="maxspeed" v="50"/>
    <tag k="maxspeed:source" v="default residential speed limit in Australia"/>
    <tag k="name" v="Meadowvale Drive"/>
    <tag k="oneway" v="yes"/>
  </way>
  <way id="30259615" version="2" timestamp="2009-08-03T22:29:07Z" uid="4467" user="Rosscoe" changeset="2030878">
    <nd ref="331122585"/>
    <nd ref="333453181"/>
    <nd ref="333453186"/>
    <nd ref="333453195"/>
    <nd ref="329910788"/>
    <tag k="highway" v="tertiary"/>
    <tag k="name" v="Rossack Drive"/>
    <tag k="oneway" v="yes"/>
  </way>
  <way id="30259616" version="2" timestamp="2009-08-03T22:29:08Z" uid="4467" user="Rosscoe" changeset="2030878">
    <nd ref="333453209"/>
    <nd ref="329910822"/>
    <tag k="highway" v="tertiary"/>
    <tag k="name" v="Rossack Drive"/>
    <tag k="oneway" v="yes"/>
  </way>
  <way id="30259617" version="3" timestamp="2009-08-03T22:29:07Z" uid="4467" user="Rosscoe" changeset="2030878">
    <nd ref="329910769"/>
    <nd ref="443191349"/>
    <nd ref="331122593"/>
    <nd ref="329910668"/>
    <nd ref="331122592"/>
    <nd ref="331122589"/>
    <tag k="highway" v="tertiary"/>
    <tag k="name" v="Rossack Drive"/>
    <tag k="oneway" v="yes"/>
  </way>
  <way id="30259618" version="2" timestamp="2010-12-30T14:43:37Z" uid="4467" user="Rosscoe" changeset="6810166">
    <nd ref="333453209"/>
    <nd ref="333453276"/>
    <nd ref="333453227"/>
    <nd ref="333453298"/>
    <nd ref="333453241"/>
    <nd ref="333453232"/>
    <nd ref="333453203"/>
    <nd ref="333453258"/>
    <nd ref="333453216"/>
    <nd ref="333453236"/>
    <nd ref="333453224"/>
    <nd ref="333453245"/>
    <nd ref="333453288"/>
    <nd ref="333453237"/>
    <nd ref="333453250"/>
    <nd ref="333453209"/>
    <tag k="highway" v="tertiary"/>
    <tag k="junction" v="roundabout"/>
  </way>
  <way id="30259620" version="2" timestamp="2009-08-03T22:29:09Z" uid="4467" user="Rosscoe" changeset="2030878">
    <nd ref="329910804"/>
    <nd ref="333453298"/>
    <tag k="highway" v="tertiary"/>
    <tag k="name" v="Rossack Drive"/>
    <tag k="oneway" v="yes"/>
  </way>
  <way id="30259624" version="3" timestamp="2010-07-08T17:18:28Z" uid="74617" user="JohnSmith" changeset="5167338">
    <nd ref="333453311"/>
    <nd ref="333453312"/>
    <nd ref="547833043"/>
    <nd ref="333453316"/>
    <tag k="highway" v="residential"/>
    <tag k="maxspeed" v="50"/>
    <tag k="maxspeed:source" v="default residential speed limit in Australia"/>
    <tag k="name" v="Tetila Avenue"/>
  </way>
  <way id="30259625" version="2" timestamp="2010-07-08T17:16:34Z" uid="74617" user="JohnSmith" changeset="5167338">
    <nd ref="331122615"/>
    <nd ref="333453319"/>
    <nd ref="333453326"/>
    <tag k="highway" v="residential"/>
    <tag k="maxspeed" v="50"/>
    <tag k="maxspeed:source" v="default residential speed limit in Australia"/>
    <tag k="name" v="Perennial Rise"/>
  </way>
  <way id="30259626" version="3" timestamp="2010-07-08T17:24:57Z" uid="74617" user="JohnSmith" changeset="5167338">
    <nd ref="333453316"/>
    <nd ref="547833041"/>
    <nd ref="333453326"/>
    <nd ref="333453334"/>
    <nd ref="333453342"/>
    <tag k="highway" v="residential"/>
    <tag k="maxspeed" v="50"/>
    <tag k="maxspeed:source" v="default residential speed limit in Australia"/>
    <tag k="name" v="Manet Avenue"/>
  </way>
  <way id="30259627" version="5" timestamp="2010-07-08T17:22:27Z" uid="74617" user="JohnSmith" changeset="5167338">
    <nd ref="333453334"/>
    <nd ref="333453347"/>
    <nd ref="333453352"/>
    <nd ref="333453355"/>
    <nd ref="333453369"/>
    <nd ref="333453380"/>
    <nd ref="333453385"/>
    <nd ref="547833037"/>
    <nd ref="668697504"/>
    <nd ref="333453390"/>
    <nd ref="333453396"/>
    <nd ref="333453399"/>
    <nd ref="333453404"/>
    <nd ref="333453413"/>
    <nd ref="333453414"/>
    <nd ref="333454553"/>
    <nd ref="333453419"/>
    <nd ref="333453428"/>
    <nd ref="333453433"/>
    <nd ref="333453440"/>
    <nd ref="333453445"/>
    <nd ref="333453316"/>
    <tag k="highway" v="residential"/>
    <tag k="maxspeed" v="50"/>
    <tag k="maxspeed:source" v="default residential speed limit in Australia"/>
    <tag k="name" v="Pethajohn Parade"/>
  </way>
  <way id="30259640" version="3" timestamp="2009-09-30T15:38:40Z" uid="36809" user="pfoten_weg_!_" changeset="2689684">
    <nd ref="311432102"/>
    <nd ref="333454009"/>
    <nd ref="333454011"/>
    <tag k="addr:postcode" v="6122"/>
    <tag k="at:maxspeed" v="Ortsgebiet"/>
    <tag k="fixme" v="check import"/>
    <tag k="highway" v="residential"/>
    <tag k="is_in" v="...,Bezirk Innsbruck,Tirol,Österreich,Europa"/>
    <tag k="name" v="Fritzens"/>
    <tag k="note" v="imported from plan.at; (C)=CC-by-sa or oDBL; feel free to change if necessary"/>
    <tag k="plan_at:acad_id" v="i9E37"/>
    <tag k="source" v="plan.at 2009"/>
  </way>
  <way id="30259642" version="5" timestamp="2009-09-30T15:38:39Z" uid="36809" user="pfoten_weg_!_" changeset="2689684">
    <nd ref="333454028"/>
    <nd ref="333454032"/>
    <nd ref="333454038"/>
    <nd ref="333454044"/>
    <nd ref="333454046"/>
    <nd ref="333446705"/>
    <tag k="addr:postcode" v="6121"/>
    <tag k="at:maxspeed" v="Ortsgebiet"/>
    <tag k="fixme" v="check import"/>
    <tag k="highway" v="residential"/>
    <tag k="is_in" v="...,Bezirk Innsbruck,Tirol,Österreich,Europa"/>
    <tag k="name" v="Fichtenweg"/>
    <tag k="note" v="imported from plan.at; (C)=CC-by-sa or oDBL; feel free to change if necessary"/>
    <tag k="plan_at:acad_id" v="i9DEF"/>
    <tag k="source" v="plan.at 2009"/>
  </way>
  <way id="30259655" version="3" timestamp="2009-09-30T15:37:54Z" uid="36809" user="pfoten_weg_!_" changeset="2689684">
    <nd ref="333450359"/>
    <nd ref="333446625"/>
    <nd ref="333454241"/>
    <nd ref="333454064"/>
    <nd ref="333454248"/>
    <nd ref="333454251"/>
    <tag k="addr:postcode" v="6060"/>
    <tag k="at:maxspeed" v="Ortsgebiet"/>
    <tag k="fixme" v="check import"/>
    <tag k="highway" v="residential"/>
    <tag k="is_in" v="...,Bezirk Innsbruck,Tirol,Österreich,Europa"/>
    <tag k="name" v="Farnweg"/>
    <tag k="note" v="imported from plan.at; (C)=CC-by-sa or oDBL; feel free to change if necessary"/>
    <tag k="plan_at:acad_id" v="i9DD1"/>
    <tag k="source" v="plan.at 2009"/>
  </way>
  <way id="30259660" version="3" timestamp="2009-09-30T15:37:51Z" uid="36809" user="pfoten_weg_!_" changeset="2689684">
    <nd ref="333454299"/>
    <nd ref="333454302"/>
    <nd ref="333446705"/>
    <tag k="addr:postcode" v="6121"/>
    <tag k="at:maxspeed" v="Ortsgebiet"/>
    <tag k="fixme" v="check import"/>
    <tag k="highway" v="residential"/>
    <tag k="is_in" v="...,Bezirk Innsbruck,Tirol,Österreich,Europa"/>
    <tag k="name" v="Fallbach-Straße"/>
    <tag k="note" v="imported from plan.at; (C)=CC-by-sa or oDBL; feel free to change if necessary"/>
    <tag k="plan_at:acad_id" v="i9DBF"/>
    <tag k="source" v="plan.at 2009"/>
  </way>
  <way id="30259661" version="3" timestamp="2009-09-30T15:37:51Z" uid="36809" user="pfoten_weg_!_" changeset="2689684">
    <nd ref="333454319"/>
    <nd ref="333454321"/>
    <nd ref="333454323"/>
    <nd ref="333454325"/>
    <tag k="addr:postcode" v="6060"/>
    <tag k="at:maxspeed" v="Ortsgebiet"/>
    <tag k="fixme" v="check import"/>
    <tag k="highway" v="residential"/>
    <tag k="is_in" v="...,Bezirk Innsbruck,Tirol,Österreich,Europa"/>
    <tag k="name" v="Eschenweg"/>
    <tag k="note" v="imported from plan.at; (C)=CC-by-sa or oDBL; feel free to change if necessary"/>
    <tag k="plan_at:acad_id" v="i9DAD"/>
    <tag k="source" v="plan.at 2009"/>
  </way>
  <way id="30259668" version="4" timestamp="2009-09-30T15:37:48Z" uid="36809" user="pfoten_weg_!_" changeset="2689684">
    <nd ref="333447947"/>
    <nd ref="333454375"/>
    <nd ref="333454377"/>
    <nd ref="333454379"/>
    <nd ref="333454381"/>
    <nd ref="333454383"/>
    <nd ref="333454384"/>
    <nd ref="263279635"/>
    <tag k="addr:postcode" v="6121"/>
    <tag k="at:maxspeed" v="Ortsgebiet"/>
    <tag k="fixme" v="check import"/>
    <tag k="highway" v="residential"/>
    <tag k="is_in" v="...,Bezirk Innsbruck,Tirol,Österreich,Europa"/>
    <tag k="name" v="Eichenweg"/>
    <tag k="note" v="imported from plan.at; (C)=CC-by-sa or oDBL; feel free to change if necessary"/>
    <tag k="plan_at:acad_id" v="i9D8C"/>
    <tag k="source" v="plan.at 2009"/>
  </way>
  <way id="30259676" version="3" timestamp="2009-09-30T15:37:45Z" uid="36809" user="pfoten_weg_!_" changeset="2689684">
    <nd ref="333444986"/>
    <nd ref="333454500"/>
    <nd ref="333454502"/>
    <nd ref="333454505"/>
    <nd ref="333454507"/>
    <nd ref="333454509"/>
    <nd ref="312628148"/>
    <nd ref="333454510"/>
    <nd ref="333454511"/>
    <nd ref="333454512"/>
    <nd ref="333444992"/>
    <tag k="addr:postcode" v="6111"/>
    <tag k="at:maxspeed" v="Ortsgebiet"/>
    <tag k="fixme" v="check import"/>
    <tag k="highway" v="residential"/>
    <tag k="is_in" v="...,Bezirk Innsbruck,Tirol,Österreich,Europa"/>
    <tag k="name" v="Dr.-Franz-Lamer-Straße"/>
    <tag k="note" v="imported from plan.at; (C)=CC-by-sa or oDBL; feel free to change if necessary"/>
    <tag k="plan_at:acad_id" v="i9D44"/>
    <tag k="source" v="plan.at 2009"/>
  </way>
  <way id="30259680" version="2" timestamp="2010-07-08T17:20:09Z" uid="74617" user="JohnSmith" changeset="5167338">
    <nd ref="333454546"/>
    <nd ref="333454553"/>
    <tag k="highway" v="residential"/>
    <tag k="maxspeed" v="50"/>
    <tag k="maxspeed:source" v="default residential speed limit in Australia"/>
    <tag k="name" v="Pit Street"/>
  </way>
  <way id="30259698" version="3" timestamp="2009-09-30T15:38:09Z" uid="36809" user="pfoten_weg_!_" changeset="2689684">
    <nd ref="333454520"/>
    <nd ref="333454916"/>
    <nd ref="333454929"/>
    <nd ref="333454934"/>
    <nd ref="333454940"/>
    <nd ref="333454944"/>
    <nd ref="333454948"/>
    <nd ref="333454950"/>
    <nd ref="333454961"/>
    <nd ref="333454523"/>
    <tag k="addr:postcode" v="6121"/>
    <tag k="at:maxspeed" v="Ortsgebiet"/>
    <tag k="fixme" v="check import"/>
    <tag k="highway" v="residential"/>
    <tag k="is_in" v="...,Bezirk Innsbruck,Tirol,Österreich,Europa"/>
    <tag k="name" v="Breitenweg"/>
    <tag k="note" v="imported from plan.at; (C)=CC-by-sa or oDBL; feel free to change if necessary"/>
    <tag k="plan_at:acad_id" v="i9CC3"/>
    <tag k="source" v="plan.at 2009"/>
  </way>
  <way id="30259701" version="3" timestamp="2009-09-30T15:38:07Z" uid="36809" user="pfoten_weg_!_" changeset="2689684">
    <nd ref="333446290"/>
    <nd ref="333455015"/>
    <nd ref="333455017"/>
    <nd ref="333454833"/>
    <tag k="addr:postcode" v="6060"/>
    <tag k="at:maxspeed" v="Ortsgebiet"/>
    <tag k="fixme" v="check import"/>
    <tag k="highway" v="residential"/>
    <tag k="is_in" v="...,Bezirk Innsbruck,Tirol,Österreich,Europa"/>
    <tag k="name" v="Birkenweg"/>
    <tag k="note" v="imported from plan.at; (C)=CC-by-sa or oDBL; feel free to change if necessary"/>
    <tag k="plan_at:acad_id" v="i9C99"/>
    <tag k="source" v="plan.at 2009"/>
  </way>
  <way id="30259708" version="7" timestamp="2010-03-22T05:44:28Z" uid="20587" user="balrog-kun" changeset="4199043">
    <nd ref="301496904"/>
    <nd ref="333455104"/>
    <nd ref="333455106"/>
    <nd ref="40643400"/>
    <tag k="bicycle" v="designated"/>
    <tag k="created_by" v="Potlatch 0.10f"/>
    <tag k="cycleway" v="track"/>
    <tag k="foot" v="yes"/>
    <tag k="highway" v="cycleway"/>
    <tag k="name" v="Southeast Vera Katz Esplanade"/>
    <tag k="oneway" v="yes"/>
    <tag k="tiger:cfcc" v="A71"/>
    <tag k="tiger:county" v="Multnomah, OR"/>
    <tag k="tiger:name_base" v="Eastbank Esplanade"/>
    <tag k="tiger:source" v="tiger_import_dch_v0.6_20070808"/>
    <tag k="tiger:tlid" v="157592723:157590681:157590682:157590683:157590721:157590726:157607400:157590684:157607605"/>
  </way>
  <way id="30259711" version="4" timestamp="2009-09-30T15:37:56Z" uid="36809" user="pfoten_weg_!_" changeset="2689684">
    <nd ref="341419257"/>
    <nd ref="333455146"/>
    <nd ref="333455148"/>
    <nd ref="333455153"/>
    <nd ref="263278537"/>
    <tag k="addr:postcode" v="6121"/>
    <tag k="at:maxspeed" v="Ortsgebiet"/>
    <tag k="fixme" v="check import"/>
    <tag k="highway" v="track"/>
    <tag k="is_in" v="...,Bezirk Innsbruck,Tirol,Österreich,Europa"/>
    <tag k="name" v="Baumkirchen"/>
    <tag k="note" v="imported from plan.at; (C)=CC-by-sa or oDBL; feel free to change if necessary"/>
    <tag k="plan_at:acad_id" v="i9C6F"/>
    <tag k="source" v="plan.at 2009"/>
  </way>
  <way id="30259712" version="3" timestamp="2009-09-30T15:45:38Z" uid="36809" user="pfoten_weg_!_" changeset="2689684">
    <nd ref="333455186"/>
    <nd ref="263286252"/>
    <nd ref="333455189"/>
    <nd ref="333455191"/>
    <nd ref="333455204"/>
    <tag k="addr:postcode" v="6121"/>
    <tag k="at:maxspeed" v="Ortsgebiet"/>
    <tag k="fixme" v="check import"/>
    <tag k="highway" v="residential"/>
    <tag k="is_in" v="...,Bezirk Innsbruck,Tirol,Österreich,Europa"/>
    <tag k="name" v="Baumkirchen"/>
    <tag k="note" v="imported from plan.at; (C)=CC-by-sa or oDBL; feel free to change if necessary"/>
    <tag k="plan_at:acad_id" v="i9C6C"/>
    <tag k="source" v="plan.at 2009"/>
  </way>
  <way id="30259715" version="7" timestamp="2009-09-30T15:45:35Z" uid="36809" user="pfoten_weg_!_" changeset="2689684">
    <nd ref="263213842"/>
    <nd ref="365476203"/>
    <nd ref="263278534"/>
    <tag k="addr:postcode" v="6121"/>
    <tag k="at:maxspeed" v="Ortsgebiet"/>
    <tag k="fixme" v="check import"/>
    <tag k="highway" v="residential"/>
    <tag k="is_in" v="...,Bezirk Innsbruck,Tirol,Österreich,Europa"/>
    <tag k="name" v="Baumkirchen"/>
    <tag k="note" v="imported from plan.at; (C)=CC-by-sa or oDBL; feel free to change if necessary"/>
    <tag k="plan_at:acad_id" v="i9C69"/>
    <tag k="source" v="plan.at 2009"/>
  </way>
  <way id="30259716" version="3" timestamp="2009-09-30T15:45:34Z" uid="36809" user="pfoten_weg_!_" changeset="2689684">
    <nd ref="333455262"/>
    <nd ref="333454038"/>
    <tag k="addr:postcode" v="6121"/>
    <tag k="at:maxspeed" v="Ortsgebiet"/>
    <tag k="fixme" v="check import"/>
    <tag k="highway" v="residential"/>
    <tag k="is_in" v="...,Bezirk Innsbruck,Tirol,Österreich,Europa"/>
    <tag k="name" v="Baumkirchen"/>
    <tag k="note" v="imported from plan.at; (C)=CC-by-sa or oDBL; feel free to change if necessary"/>
    <tag k="plan_at:acad_id" v="i9C66"/>
    <tag k="source" v="plan.at 2009"/>
  </way>
  <way id="30259718" version="3" timestamp="2009-09-30T15:45:32Z" uid="36809" user="pfoten_weg_!_" changeset="2689684">
    <nd ref="333446719"/>
    <nd ref="333455293"/>
    <nd ref="333455295"/>
    <nd ref="333455298"/>
    <tag k="addr:postcode" v="6121"/>
    <tag k="at:maxspeed" v="Ortsgebiet"/>
    <tag k="fixme" v="check import"/>
    <tag k="highway" v="residential"/>
    <tag k="is_in" v="...,Bezirk Innsbruck,Tirol,Österreich,Europa"/>
    <tag k="name" v="Baumkirchen"/>
    <tag k="note" v="imported from plan.at; (C)=CC-by-sa or oDBL; feel free to change if necessary"/>
    <tag k="plan_at:acad_id" v="i9C60"/>
    <tag k="source" v="plan.at 2009"/>
  </way>
  <way id="30259719" version="3" timestamp="2009-09-30T15:45:33Z" uid="36809" user="pfoten_weg_!_" changeset="2689684">
    <nd ref="263279622"/>
    <nd ref="333455330"/>
    <nd ref="333446721"/>
    <tag k="addr:postcode" v="6121"/>
    <tag k="at:maxspeed" v="Ortsgebiet"/>
    <tag k="fixme" v="check import"/>
    <tag k="highway" v="residential"/>
    <tag k="is_in" v="...,Bezirk Innsbruck,Tirol,Österreich,Europa"/>
    <tag k="note" v="imported from plan.at; (C)=CC-by-sa or oDBL; feel free to change if necessary"/>
    <tag k="plan_at:acad_id" v="i9C5D"/>
    <tag k="source" v="plan.at 2009"/>
  </way>
  <way id="30259721" version="3" timestamp="2009-09-30T15:45:40Z" uid="36809" user="pfoten_weg_!_" changeset="2689684">
    <nd ref="333455339"/>
    <nd ref="333455348"/>
    <nd ref="333455351"/>
    <nd ref="263269745"/>
    <tag k="addr:postcode" v="6111"/>
    <tag k="at:maxspeed" v="Ortsgebiet"/>
    <tag k="fixme" v="check import"/>
    <tag k="highway" v="residential"/>
    <tag k="is_in" v="...,Bezirk Innsbruck,Tirol,Österreich,Europa"/>
    <tag k="name" v="Bahnhofstraße"/>
    <tag k="note" v="imported from plan.at; (C)=CC-by-sa or oDBL; feel free to change if necessary"/>
    <tag k="plan_at:acad_id" v="i9C57"/>
    <tag k="source" v="plan.at 2009"/>
  </way>
  <way id="30259722" version="4" timestamp="2010-04-03T04:09:07Z" uid="20587" user="balrog-kun" changeset="4309442">
    <nd ref="41576280"/>
    <nd ref="41900885"/>
    <tag k="created_by" v="Potlatch 0.10f"/>
    <tag k="highway" v="residential"/>
    <tag k="name" v="West Kachina Trail"/>
    <tag k="tiger:cfcc" v="A41"/>
    <tag k="tiger:county" v="Maricopa, AZ"/>
    <tag k="tiger:name_base" v="Kachina"/>
    <tag k="tiger:name_direction_prefix" v="W"/>
    <tag k="tiger:name_type" v="Trl"/>
    <tag k="tiger:reviewed" v="no"/>
    <tag k="tiger:separated" v="no"/>
    <tag k="tiger:source" v="tiger_import_dch_v0.6_20070809"/>
    <tag k="tiger:tlid" v="128217397:128217399:128217311"/>
    <tag k="tiger:zip_left" v="85041"/>
    <tag k="tiger:zip_right" v="85041"/>
  </way>
  <way id="30259733" version="3" timestamp="2009-09-30T15:45:42Z" uid="36809" user="pfoten_weg_!_" changeset="2689684">
    <nd ref="333455704"/>
    <nd ref="333455708"/>
    <nd ref="333455711"/>
    <nd ref="333455715"/>
    <nd ref="333455719"/>
    <nd ref="333455722"/>
    <nd ref="333455726"/>
    <tag k="addr:postcode" v="6111"/>
    <tag k="at:maxspeed" v="Ortsgebiet"/>
    <tag k="fixme" v="check import"/>
    <tag k="highway" v="residential"/>
    <tag k="is_in" v="...,Bezirk Innsbruck,Tirol,Österreich,Europa"/>
    <tag k="name" v="Astenweg"/>
    <tag k="note" v="imported from plan.at; (C)=CC-by-sa or oDBL; feel free to change if necessary"/>
    <tag k="plan_at:acad_id" v="i9C18"/>
    <tag k="source" v="plan.at 2009"/>
  </way>
  <way id="30259734" version="2" timestamp="2009-09-30T14:43:07Z" uid="36809" user="pfoten_weg_!_" changeset="2688850">
    <nd ref="333455739"/>
    <nd ref="333455744"/>
    <nd ref="333455749"/>
    <nd ref="333455755"/>
    <nd ref="333455758"/>
    <tag k="addr:postcode" v="6111"/>
    <tag k="at:maxspeed" v="Ortsgebiet"/>
    <tag k="fixme" v="check import"/>
    <tag k="highway:plan.at:i9" v="residential"/>
    <tag k="is_in" v="...,Bezirk Innsbruck,Tirol,Österreich,Europa"/>
    <tag k="name" v="Astenweg"/>
    <tag k="note" v="imported from plan.at; (C)=CC-by-sa or oDBL; feel free to change if necessary"/>
    <tag k="plan_at:acad_id" v="i9C15"/>
    <tag k="uploaded_by" v="Wolfgang W. Wasserburger"/>
  </way>
  <way id="30259734" version="3" timestamp="2009-09-30T15:45:41Z" uid="36809" user="pfoten_weg_!_" changeset="2689684">
    <nd ref="333455739"/>
    <nd ref="333455744"/>
    <nd ref="333455749"/>
    <nd ref="333455755"/>
    <nd ref="333455758"/>
    <tag k="addr:postcode" v="6111"/>
    <tag k="at:maxspeed" v="Ortsgebiet"/>
    <tag k="fixme" v="check import"/>
    <tag k="highway:plan.at:i9" v="residential"/>
    <tag k="is_in" v="...,Bezirk Innsbruck,Tirol,Österreich,Europa"/>
    <tag k="name" v="Astenweg"/>
    <tag k="note" v="imported from plan.at; (C)=CC-by-sa or oDBL; feel free to change if necessary"/>
    <tag k="plan_at:acad_id" v="i9C15"/>
  </way>
  <way id="30259736" version="3" timestamp="2009-09-30T14:43:21Z" uid="36809" user="pfoten_weg_!_" changeset="2688850">
    <nd ref="333455767"/>
    <nd ref="333455769"/>
    <tag k="addr:postcode" v="6111"/>
    <tag k="at:maxspeed" v="Ortsgebiet"/>
    <tag k="fixme" v="check import"/>
    <tag k="highway" v="residential"/>
    <tag k="is_in" v="...,Bezirk Innsbruck,Tirol,Österreich,Europa"/>
    <tag k="name" v="Astenweg"/>
    <tag k="note" v="imported from plan.at; (C)=CC-by-sa or oDBL; feel free to change if necessary"/>
    <tag k="plan_at:acad_id" v="i9C12"/>
    <tag k="uploaded_by" v="Wolfgang W. Wasserburger"/>
  </way>
  <way id="30259736" version="4" timestamp="2009-09-30T15:45:47Z" uid="36809" user="pfoten_weg_!_" changeset="2689684">
    <nd ref="333455767"/>
    <nd ref="333455769"/>
    <tag k="addr:postcode" v="6111"/>
    <tag k="at:maxspeed" v="Ortsgebiet"/>
    <tag k="fixme" v="check import"/>
    <tag k="highway" v="residential"/>
    <tag k="is_in" v="...,Bezirk Innsbruck,Tirol,Österreich,Europa"/>
    <tag k="name" v="Astenweg"/>
    <tag k="note" v="imported from plan.at; (C)=CC-by-sa or oDBL; feel free to change if necessary"/>
    <tag k="plan_at:acad_id" v="i9C12"/>
  </way>
  <way id="30259737" version="3" timestamp="2009-09-30T15:45:46Z" uid="36809" user="pfoten_weg_!_" changeset="2689684">
    <nd ref="333455772"/>
    <nd ref="333455774"/>
    <nd ref="333455776"/>
    <nd ref="333455790"/>
    <nd ref="333455792"/>
    <nd ref="333455793"/>
    <tag k="addr:postcode" v="6111"/>
    <tag k="at:maxspeed" v="Ortsgebiet"/>
    <tag k="fixme" v="check import"/>
    <tag k="highway" v="residential"/>
    <tag k="is_in" v="...,Bezirk Innsbruck,Tirol,Österreich,Europa"/>
    <tag k="name" v="Astenweg"/>
    <tag k="note" v="imported from plan.at; (C)=CC-by-sa or oDBL; feel free to change if necessary"/>
    <tag k="plan_at:acad_id" v="i9C0F"/>
    <tag k="source" v="plan.at 2009"/>
  </way>
  <way id="30259738" version="4" timestamp="2010-04-03T04:09:07Z" uid="20587" user="balrog-kun" changeset="4309442">
    <nd ref="333455834"/>
    <nd ref="41769988"/>
    <nd ref="41644663"/>
    <tag k="created_by" v="Potlatch 0.10f"/>
    <tag k="highway" v="residential"/>
    <tag k="name" v="West Buist Avenue"/>
    <tag k="tiger:cfcc" v="A41"/>
    <tag k="tiger:county" v="Maricopa, AZ"/>
    <tag k="tiger:name_base" v="Buist"/>
    <tag k="tiger:name_direction_prefix" v="W"/>
    <tag k="tiger:name_type" v="Ave"/>
    <tag k="tiger:reviewed" v="no"/>
    <tag k="tiger:separated" v="no"/>
    <tag k="tiger:source" v="tiger_import_dch_v0.6_20070809"/>
    <tag k="tiger:tlid" v="128283479:128292914:128825614"/>
    <tag k="tiger:zip_left" v="85041"/>
    <tag k="tiger:zip_right" v="85041"/>
  </way>
  <way id="30259742" version="3" timestamp="2009-09-30T14:43:14Z" uid="36809" user="pfoten_weg_!_" changeset="2688850">
    <nd ref="333447670"/>
    <nd ref="333455797"/>
    <nd ref="333455800"/>
    <nd ref="333455810"/>
    <nd ref="333455812"/>
    <nd ref="333455814"/>
    <nd ref="333455818"/>
    <nd ref="333455819"/>
    <nd ref="333455821"/>
    <nd ref="333455823"/>
    <nd ref="333455825"/>
    <nd ref="333455827"/>
    <nd ref="333455829"/>
    <nd ref="333455793"/>
    <nd ref="333455831"/>
    <nd ref="333455833"/>
    <nd ref="333455836"/>
    <nd ref="333455838"/>
    <nd ref="333455840"/>
    <nd ref="333455841"/>
    <nd ref="333455847"/>
    <nd ref="333455851"/>
    <nd ref="333455853"/>
    <nd ref="333455855"/>
    <nd ref="333455857"/>
    <nd ref="333455859"/>
    <nd ref="333455861"/>
    <nd ref="333455863"/>
    <nd ref="333455867"/>
    <nd ref="333455870"/>
    <nd ref="333455872"/>
    <nd ref="333455874"/>
    <nd ref="333455876"/>
    <nd ref="333455878"/>
    <nd ref="333455881"/>
    <nd ref="333455883"/>
    <nd ref="333455726"/>
    <nd ref="333455885"/>
    <nd ref="333455886"/>
    <nd ref="333455888"/>
    <nd ref="333455890"/>
    <nd ref="333455892"/>
    <nd ref="333455769"/>
    <nd ref="333455894"/>
    <nd ref="333455896"/>
    <nd ref="333455898"/>
    <nd ref="333455900"/>
    <nd ref="333455902"/>
    <nd ref="333455904"/>
    <nd ref="333455739"/>
    <nd ref="333455906"/>
    <nd ref="333455908"/>
    <nd ref="333455910"/>
    <tag k="addr:postcode" v="6111"/>
    <tag k="at:maxspeed" v="Ortsgebiet"/>
    <tag k="fixme" v="check import"/>
    <tag k="highway" v="residential"/>
    <tag k="is_in" v="...,Bezirk Innsbruck,Tirol,Österreich,Europa"/>
    <tag k="name" v="Astenweg"/>
    <tag k="note" v="imported from plan.at; (C)=CC-by-sa or oDBL; feel free to change if necessary"/>
    <tag k="plan_at:acad_id" v="i9C0C"/>
    <tag k="uploaded_by" v="Wolfgang W. Wasserburger"/>
  </way>
  <way id="30259742" version="4" timestamp="2009-09-30T15:45:44Z" uid="36809" user="pfoten_weg_!_" changeset="2689684">
    <nd ref="333447670"/>
    <nd ref="333455797"/>
    <nd ref="333455800"/>
    <nd ref="333455810"/>
    <nd ref="333455812"/>
    <nd ref="333455814"/>
    <nd ref="333455818"/>
    <nd ref="333455819"/>
    <nd ref="333455821"/>
    <nd ref="333455823"/>
    <nd ref="333455825"/>
    <nd ref="333455827"/>
    <nd ref="333455829"/>
    <nd ref="333455793"/>
    <nd ref="333455831"/>
    <nd ref="333455833"/>
    <nd ref="333455836"/>
    <nd ref="333455838"/>
    <nd ref="333455840"/>
    <nd ref="333455841"/>
    <nd ref="333455847"/>
    <nd ref="333455851"/>
    <nd ref="333455853"/>
    <nd ref="333455855"/>
    <nd ref="333455857"/>
    <nd ref="333455859"/>
    <nd ref="333455861"/>
    <nd ref="333455863"/>
    <nd ref="333455867"/>
    <nd ref="333455870"/>
    <nd ref="333455872"/>
    <nd ref="333455874"/>
    <nd ref="333455876"/>
    <nd ref="333455878"/>
    <nd ref="333455881"/>
    <nd ref="333455883"/>
    <nd ref="333455726"/>
    <nd ref="333455885"/>
    <nd ref="333455886"/>
    <nd ref="333455888"/>
    <nd ref="333455890"/>
    <nd ref="333455892"/>
    <nd ref="333455769"/>
    <nd ref="333455894"/>
    <nd ref="333455896"/>
    <nd ref="333455898"/>
    <nd ref="333455900"/>
    <nd ref="333455902"/>
    <nd ref="333455904"/>
    <nd ref="333455739"/>
    <nd ref="333455906"/>
    <nd ref="333455908"/>
    <nd ref="333455910"/>
    <tag k="addr:postcode" v="6111"/>
    <tag k="at:maxspeed" v="Ortsgebiet"/>
    <tag k="fixme" v="check import"/>
    <tag k="highway" v="residential"/>
    <tag k="is_in" v="...,Bezirk Innsbruck,Tirol,Österreich,Europa"/>
    <tag k="name" v="Astenweg"/>
    <tag k="note" v="imported from plan.at; (C)=CC-by-sa or oDBL; feel free to change if necessary"/>
    <tag k="plan_at:acad_id" v="i9C0C"/>
  </way>
  <way id="30259743" version="3" timestamp="2009-09-30T15:45:43Z" uid="36809" user="pfoten_weg_!_" changeset="2689684">
    <nd ref="333447964"/>
    <nd ref="333455917"/>
    <nd ref="333455919"/>
    <nd ref="333446635"/>
    <tag k="addr:postcode" v="6060"/>
    <tag k="at:maxspeed" v="Ortsgebiet"/>
    <tag k="fixme" v="check import"/>
    <tag k="highway" v="residential"/>
    <tag k="is_in" v="...,Bezirk Innsbruck,Tirol,Österreich,Europa"/>
    <tag k="name" v="Archenweg"/>
    <tag k="note" v="imported from plan.at; (C)=CC-by-sa or oDBL; feel free to change if necessary"/>
    <tag k="plan_at:acad_id" v="i9C00"/>
    <tag k="source" v="plan.at 2009"/>
  </way>
  <way id="30259745" version="3" timestamp="2009-09-30T15:45:14Z" uid="36809" user="pfoten_weg_!_" changeset="2689684">
    <nd ref="263279626"/>
    <nd ref="333455940"/>
    <nd ref="263286252"/>
    <nd ref="333455942"/>
    <tag k="addr:postcode" v="6121"/>
    <tag k="at:maxspeed" v="Ortsgebiet"/>
    <tag k="fixme" v="check import"/>
    <tag k="highway" v="residential"/>
    <tag k="is_in" v="...,Bezirk Innsbruck,Tirol,Österreich,Europa"/>
    <tag k="name" v="Angerstraße"/>
    <tag k="note" v="imported from plan.at; (C)=CC-by-sa or oDBL; feel free to change if necessary"/>
    <tag k="plan_at:acad_id" v="i9BD9"/>
    <tag k="source" v="plan.at 2009"/>
  </way>
  <way id="30259751" version="3" timestamp="2009-09-30T14:41:47Z" uid="36809" user="pfoten_weg_!_" changeset="2688850">
    <nd ref="333456143"/>
    <nd ref="333456146"/>
    <nd ref="333456148"/>
    <nd ref="333456152"/>
    <nd ref="333456154"/>
    <nd ref="333456156"/>
    <nd ref="333456158"/>
    <nd ref="333456160"/>
    <nd ref="333456162"/>
    <nd ref="333456163"/>
    <tag k="addr:postcode" v="6071"/>
    <tag k="at:maxspeed" v="Ortsgebiet"/>
    <tag k="fixme" v="check import"/>
    <tag k="highway" v="residential"/>
    <tag k="is_in" v="...,Bezirk Innsbruck,Tirol,Österreich,Europa"/>
    <tag k="name" v="Aldrans"/>
    <tag k="note" v="imported from plan.at; (C)=CC-by-sa or oDBL; feel free to change if necessary"/>
    <tag k="plan_at:acad_id" v="i9B82"/>
    <tag k="uploaded_by" v="Wolfgang W. Wasserburger"/>
  </way>
  <way id="30259752" version="3" timestamp="2009-09-30T14:41:51Z" uid="36809" user="pfoten_weg_!_" changeset="2688850">
    <nd ref="333456182"/>
    <nd ref="333456187"/>
    <nd ref="333456191"/>
    <nd ref="333456196"/>
    <nd ref="333456201"/>
    <nd ref="333456204"/>
    <nd ref="333456210"/>
    <tag k="addr:postcode" v="6071"/>
    <tag k="at:maxspeed" v="Ortsgebiet"/>
    <tag k="fixme" v="check import"/>
    <tag k="highway" v="residential"/>
    <tag k="is_in" v="...,Bezirk Innsbruck,Tirol,Österreich,Europa"/>
    <tag k="name" v="Aldrans"/>
    <tag k="note" v="imported from plan.at; (C)=CC-by-sa or oDBL; feel free to change if necessary"/>
    <tag k="plan_at:acad_id" v="i9B7F"/>
    <tag k="uploaded_by" v="Wolfgang W. Wasserburger"/>
  </way>
  <way id="30259753" version="3" timestamp="2009-09-30T14:41:52Z" uid="36809" user="pfoten_weg_!_" changeset="2688850">
    <nd ref="333456232"/>
    <nd ref="333456236"/>
    <nd ref="333456238"/>
    <tag k="addr:postcode" v="6071"/>
    <tag k="at:maxspeed" v="Ortsgebiet"/>
    <tag k="fixme" v="check import"/>
    <tag k="highway" v="residential"/>
    <tag k="is_in" v="...,Bezirk Innsbruck,Tirol,Österreich,Europa"/>
    <tag k="name" v="Aldrans"/>
    <tag k="note" v="imported from plan.at; (C)=CC-by-sa or oDBL; feel free to change if necessary"/>
    <tag k="plan_at:acad_id" v="i9B7C"/>
    <tag k="uploaded_by" v="Wolfgang W. Wasserburger"/>
  </way>
  <way id="30259754" version="3" timestamp="2009-09-30T14:41:52Z" uid="36809" user="pfoten_weg_!_" changeset="2688850">
    <nd ref="333456242"/>
    <nd ref="333456243"/>
    <nd ref="333456245"/>
    <nd ref="333456247"/>
    <nd ref="333456249"/>
    <nd ref="333456251"/>
    <nd ref="283154999"/>
    <tag k="addr:postcode" v="6071"/>
    <tag k="at:maxspeed" v="Ortsgebiet"/>
    <tag k="fixme" v="check import"/>
    <tag k="highway" v="residential"/>
    <tag k="is_in" v="...,Bezirk Innsbruck,Tirol,Österreich,Europa"/>
    <tag k="name" v="Aldrans"/>
    <tag k="note" v="imported from plan.at; (C)=CC-by-sa or oDBL; feel free to change if necessary"/>
    <tag k="plan_at:acad_id" v="i9B79"/>
    <tag k="uploaded_by" v="Wolfgang W. Wasserburger"/>
  </way>
  <way id="30259756" version="3" timestamp="2009-09-30T14:41:48Z" uid="36809" user="pfoten_weg_!_" changeset="2688850">
    <nd ref="333456255"/>
    <nd ref="333456258"/>
    <nd ref="333456261"/>
    <nd ref="333456263"/>
    <tag k="addr:postcode" v="6071"/>
    <tag k="at:maxspeed" v="Ortsgebiet"/>
    <tag k="fixme" v="check import"/>
    <tag k="highway" v="residential"/>
    <tag k="is_in" v="...,Bezirk Innsbruck,Tirol,Österreich,Europa"/>
    <tag k="name" v="Aldrans"/>
    <tag k="note" v="imported from plan.at; (C)=CC-by-sa or oDBL; feel free to change if necessary"/>
    <tag k="plan_at:acad_id" v="i9B76"/>
    <tag k="uploaded_by" v="Wolfgang W. Wasserburger"/>
  </way>
  <way id="30259757" version="3" timestamp="2009-09-30T14:41:48Z" uid="36809" user="pfoten_weg_!_" changeset="2688850">
    <nd ref="333456270"/>
    <nd ref="333456272"/>
    <nd ref="333456274"/>
    <nd ref="333456276"/>
    <nd ref="333456278"/>
    <nd ref="333456280"/>
    <tag k="addr:postcode" v="6071"/>
    <tag k="at:maxspeed" v="Ortsgebiet"/>
    <tag k="fixme" v="check import"/>
    <tag k="highway" v="residential"/>
    <tag k="is_in" v="...,Bezirk Innsbruck,Tirol,Österreich,Europa"/>
    <tag k="name" v="Aldrans"/>
    <tag k="note" v="imported from plan.at; (C)=CC-by-sa or oDBL; feel free to change if necessary"/>
    <tag k="plan_at:acad_id" v="i9B73"/>
    <tag k="uploaded_by" v="Wolfgang W. Wasserburger"/>
  </way>
  <way id="30259758" version="3" timestamp="2009-09-30T14:41:49Z" uid="36809" user="pfoten_weg_!_" changeset="2688850">
    <nd ref="333456284"/>
    <nd ref="333456286"/>
    <nd ref="333456288"/>
    <tag k="addr:postcode" v="6071"/>
    <tag k="at:maxspeed" v="Ortsgebiet"/>
    <tag k="fixme" v="check import"/>
    <tag k="highway" v="residential"/>
    <tag k="is_in" v="...,Bezirk Innsbruck,Tirol,Österreich,Europa"/>
    <tag k="name" v="Aldrans"/>
    <tag k="note" v="imported from plan.at; (C)=CC-by-sa or oDBL; feel free to change if necessary"/>
    <tag k="plan_at:acad_id" v="i9B70"/>
    <tag k="uploaded_by" v="Wolfgang W. Wasserburger"/>
  </way>
  <way id="30259759" version="3" timestamp="2009-09-30T14:41:50Z" uid="36809" user="pfoten_weg_!_" changeset="2688850">
    <nd ref="54500876"/>
    <nd ref="333456295"/>
    <nd ref="333456296"/>
    <nd ref="333456298"/>
    <nd ref="333456300"/>
    <nd ref="333456301"/>
    <nd ref="333456302"/>
    <nd ref="333456304"/>
    <nd ref="333456306"/>
    <nd ref="333456308"/>
    <nd ref="333456232"/>
    <nd ref="333456310"/>
    <nd ref="333456312"/>
    <nd ref="333456314"/>
    <nd ref="333456316"/>
    <tag k="addr:postcode" v="6071"/>
    <tag k="at:maxspeed" v="Ortsgebiet"/>
    <tag k="fixme" v="check import"/>
    <tag k="highway" v="residential"/>
    <tag k="is_in" v="...,Bezirk Innsbruck,Tirol,Österreich,Europa"/>
    <tag k="name" v="Aldrans"/>
    <tag k="note" v="imported from plan.at; (C)=CC-by-sa or oDBL; feel free to change if necessary"/>
    <tag k="plan_at:acad_id" v="i9B6D"/>
    <tag k="uploaded_by" v="Wolfgang W. Wasserburger"/>
  </way>
  <way id="30259762" version="3" timestamp="2009-09-30T14:42:05Z" uid="36809" user="pfoten_weg_!_" changeset="2688850">
    <nd ref="333456320"/>
    <nd ref="333456321"/>
    <nd ref="333456322"/>
    <nd ref="333456323"/>
    <nd ref="333456324"/>
    <nd ref="333456325"/>
    <nd ref="333456284"/>
    <nd ref="333456326"/>
    <nd ref="333456327"/>
    <nd ref="333456328"/>
    <nd ref="333456329"/>
    <nd ref="333456330"/>
    <tag k="addr:postcode" v="6071"/>
    <tag k="at:maxspeed" v="Ortsgebiet"/>
    <tag k="fixme" v="check import"/>
    <tag k="highway" v="residential"/>
    <tag k="is_in" v="...,Bezirk Innsbruck,Tirol,Österreich,Europa"/>
    <tag k="name" v="Aldrans"/>
    <tag k="note" v="imported from plan.at; (C)=CC-by-sa or oDBL; feel free to change if necessary"/>
    <tag k="plan_at:acad_id" v="i9B6A"/>
    <tag k="uploaded_by" v="Wolfgang W. Wasserburger"/>
  </way>
  <way id="30259763" version="3" timestamp="2009-09-30T14:42:04Z" uid="36809" user="pfoten_weg_!_" changeset="2688850">
    <nd ref="333456333"/>
    <nd ref="333456334"/>
    <nd ref="333456335"/>
    <nd ref="333456336"/>
    <nd ref="333456337"/>
    <nd ref="333456338"/>
    <nd ref="333456339"/>
    <nd ref="333456310"/>
    <tag k="addr:postcode" v="6071"/>
    <tag k="at:maxspeed" v="Ortsgebiet"/>
    <tag k="fixme" v="check import"/>
    <tag k="highway" v="residential"/>
    <tag k="is_in" v="...,Bezirk Innsbruck,Tirol,Österreich,Europa"/>
    <tag k="name" v="Aldrans"/>
    <tag k="note" v="imported from plan.at; (C)=CC-by-sa or oDBL; feel free to change if necessary"/>
    <tag k="plan_at:acad_id" v="i9B67"/>
    <tag k="uploaded_by" v="Wolfgang W. Wasserburger"/>
  </way>
  <way id="30259764" version="3" timestamp="2009-09-30T14:41:57Z" uid="36809" user="pfoten_weg_!_" changeset="2688850">
    <nd ref="333456340"/>
    <nd ref="333456341"/>
    <nd ref="333456342"/>
    <nd ref="333456280"/>
    <nd ref="333456343"/>
    <tag k="addr:postcode" v="6071"/>
    <tag k="at:maxspeed" v="Ortsgebiet"/>
    <tag k="fixme" v="check import"/>
    <tag k="highway" v="residential"/>
    <tag k="is_in" v="...,Bezirk Innsbruck,Tirol,Österreich,Europa"/>
    <tag k="name" v="Aldrans"/>
    <tag k="note" v="imported from plan.at; (C)=CC-by-sa or oDBL; feel free to change if necessary"/>
    <tag k="plan_at:acad_id" v="i9B64"/>
    <tag k="uploaded_by" v="Wolfgang W. Wasserburger"/>
  </way>
  <way id="30259765" version="3" timestamp="2009-09-30T14:41:53Z" uid="36809" user="pfoten_weg_!_" changeset="2688850">
    <nd ref="333456344"/>
    <nd ref="333456345"/>
    <nd ref="333456346"/>
    <nd ref="333456347"/>
    <nd ref="333456349"/>
    <nd ref="333456351"/>
    <nd ref="333456353"/>
    <nd ref="333456355"/>
    <nd ref="333456357"/>
    <nd ref="333456359"/>
    <nd ref="333456361"/>
    <nd ref="333456363"/>
    <nd ref="333456365"/>
    <tag k="addr:postcode" v="6071"/>
    <tag k="at:maxspeed" v="Ortsgebiet"/>
    <tag k="fixme" v="check import"/>
    <tag k="highway" v="residential"/>
    <tag k="is_in" v="...,Bezirk Innsbruck,Tirol,Österreich,Europa"/>
    <tag k="name" v="Aldrans"/>
    <tag k="note" v="imported from plan.at; (C)=CC-by-sa or oDBL; feel free to change if necessary"/>
    <tag k="plan_at:acad_id" v="i9B61"/>
    <tag k="uploaded_by" v="Wolfgang W. Wasserburger"/>
  </way>
  <way id="30259766" version="3" timestamp="2009-09-30T14:41:58Z" uid="36809" user="pfoten_weg_!_" changeset="2688850">
    <nd ref="333456375"/>
    <nd ref="333456378"/>
    <nd ref="333456381"/>
    <nd ref="333456385"/>
    <nd ref="333456389"/>
    <nd ref="333456391"/>
    <nd ref="333456393"/>
    <nd ref="333456255"/>
    <nd ref="333456395"/>
    <nd ref="333456398"/>
    <nd ref="333456400"/>
    <nd ref="54500893"/>
    <tag k="addr:postcode" v="6071"/>
    <tag k="at:maxspeed" v="Ortsgebiet"/>
    <tag k="fixme" v="check import"/>
    <tag k="highway" v="residential"/>
    <tag k="is_in" v="...,Bezirk Innsbruck,Tirol,Österreich,Europa"/>
    <tag k="name" v="Aldrans"/>
    <tag k="note" v="imported from plan.at; (C)=CC-by-sa or oDBL; feel free to change if necessary"/>
    <tag k="plan_at:acad_id" v="i9B5E"/>
    <tag k="uploaded_by" v="Wolfgang W. Wasserburger"/>
  </way>
  <way id="30259767" version="3" timestamp="2009-09-30T14:41:58Z" uid="36809" user="pfoten_weg_!_" changeset="2688850">
    <nd ref="333456408"/>
    <nd ref="333456411"/>
    <nd ref="333456345"/>
    <tag k="addr:postcode" v="6071"/>
    <tag k="at:maxspeed" v="Ortsgebiet"/>
    <tag k="fixme" v="check import"/>
    <tag k="highway" v="residential"/>
    <tag k="is_in" v="...,Bezirk Innsbruck,Tirol,Österreich,Europa"/>
    <tag k="name" v="Aldrans"/>
    <tag k="note" v="imported from plan.at; (C)=CC-by-sa or oDBL; feel free to change if necessary"/>
    <tag k="plan_at:acad_id" v="i9B5B"/>
    <tag k="uploaded_by" v="Wolfgang W. Wasserburger"/>
  </way>
  <way id="30259771" version="3" timestamp="2009-09-30T14:42:29Z" uid="36809" user="pfoten_weg_!_" changeset="2688850">
    <nd ref="54500861"/>
    <nd ref="333456439"/>
    <nd ref="333456440"/>
    <nd ref="333456441"/>
    <nd ref="333456442"/>
    <nd ref="333456444"/>
    <nd ref="333456448"/>
    <nd ref="333456450"/>
    <nd ref="333456454"/>
    <nd ref="333456456"/>
    <nd ref="333456458"/>
    <nd ref="333456460"/>
    <nd ref="333456463"/>
    <nd ref="333456466"/>
    <nd ref="333456468"/>
    <nd ref="333456470"/>
    <nd ref="333456472"/>
    <nd ref="333456474"/>
    <nd ref="333456476"/>
    <nd ref="333456478"/>
    <nd ref="333456479"/>
    <nd ref="333456480"/>
    <nd ref="283154991"/>
    <tag k="addr:postcode" v="6071"/>
    <tag k="at:maxspeed" v="Ortsgebiet"/>
    <tag k="fixme" v="check import"/>
    <tag k="highway" v="residential"/>
    <tag k="is_in" v="...,Bezirk Innsbruck,Tirol,Österreich,Europa"/>
    <tag k="name" v="Aldrans"/>
    <tag k="note" v="imported from plan.at; (C)=CC-by-sa or oDBL; feel free to change if necessary"/>
    <tag k="plan_at:acad_id" v="i9B55"/>
    <tag k="uploaded_by" v="Wolfgang W. Wasserburger"/>
  </way>
  <way id="30259777" version="3" timestamp="2009-09-30T14:41:36Z" uid="36809" user="pfoten_weg_!_" changeset="2688850">
    <nd ref="333456561"/>
    <nd ref="333456562"/>
    <nd ref="333456563"/>
    <nd ref="333456564"/>
    <nd ref="333456565"/>
    <nd ref="333456566"/>
    <nd ref="333456567"/>
    <nd ref="333456568"/>
    <nd ref="333456570"/>
    <nd ref="333456572"/>
    <nd ref="333456574"/>
    <nd ref="333456576"/>
    <nd ref="333456578"/>
    <nd ref="333456580"/>
    <nd ref="333456582"/>
    <nd ref="333456588"/>
    <nd ref="333456592"/>
    <nd ref="333456595"/>
    <nd ref="333456599"/>
    <nd ref="333456604"/>
    <nd ref="333456607"/>
    <nd ref="333456609"/>
    <nd ref="333456611"/>
    <nd ref="333456613"/>
    <nd ref="333456615"/>
    <nd ref="333456617"/>
    <nd ref="333456618"/>
    <nd ref="333456619"/>
    <nd ref="333456620"/>
    <nd ref="333456621"/>
    <nd ref="333456623"/>
    <nd ref="333456625"/>
    <nd ref="333456629"/>
    <nd ref="333456631"/>
    <nd ref="333456633"/>
    <nd ref="333456635"/>
    <nd ref="333456637"/>
    <nd ref="333456642"/>
    <nd ref="333456646"/>
    <nd ref="333456649"/>
    <nd ref="333456652"/>
    <nd ref="333456654"/>
    <nd ref="333456656"/>
    <nd ref="333456658"/>
    <nd ref="333456660"/>
    <nd ref="333456662"/>
    <tag k="addr:postcode" v="6111"/>
    <tag k="at:maxspeed" v="Ortsgebiet"/>
    <tag k="fixme" v="check import"/>
    <tag k="highway" v="residential"/>
    <tag k="is_in" v="...,Bezirk Innsbruck,Tirol,Österreich,Europa"/>
    <tag k="name" v="Aichereggweg"/>
    <tag k="note" v="imported from plan.at; (C)=CC-by-sa or oDBL; feel free to change if necessary"/>
    <tag k="plan_at:acad_id" v="i9B4F"/>
    <tag k="uploaded_by" v="Wolfgang W. Wasserburger"/>
  </way>
  <way id="30259777" version="4" timestamp="2009-09-30T15:45:04Z" uid="36809" user="pfoten_weg_!_" changeset="2689684">
    <nd ref="333456561"/>
    <nd ref="333456562"/>
    <nd ref="333456563"/>
    <nd ref="333456564"/>
    <nd ref="333456565"/>
    <nd ref="333456566"/>
    <nd ref="333456567"/>
    <nd ref="333456568"/>
    <nd ref="333456570"/>
    <nd ref="333456572"/>
    <nd ref="333456574"/>
    <nd ref="333456576"/>
    <nd ref="333456578"/>
    <nd ref="333456580"/>
    <nd ref="333456582"/>
    <nd ref="333456588"/>
    <nd ref="333456592"/>
    <nd ref="333456595"/>
    <nd ref="333456599"/>
    <nd ref="333456604"/>
    <nd ref="333456607"/>
    <nd ref="333456609"/>
    <nd ref="333456611"/>
    <nd ref="333456613"/>
    <nd ref="333456615"/>
    <nd ref="333456617"/>
    <nd ref="333456618"/>
    <nd ref="333456619"/>
    <nd ref="333456620"/>
    <nd ref="333456621"/>
    <nd ref="333456623"/>
    <nd ref="333456625"/>
    <nd ref="333456629"/>
    <nd ref="333456631"/>
    <nd ref="333456633"/>
    <nd ref="333456635"/>
    <nd ref="333456637"/>
    <nd ref="333456642"/>
    <nd ref="333456646"/>
    <nd ref="333456649"/>
    <nd ref="333456652"/>
    <nd ref="333456654"/>
    <nd ref="333456656"/>
    <nd ref="333456658"/>
    <nd ref="333456660"/>
    <nd ref="333456662"/>
    <tag k="addr:postcode" v="6111"/>
    <tag k="at:maxspeed" v="Ortsgebiet"/>
    <tag k="fixme" v="check import"/>
    <tag k="highway" v="residential"/>
    <tag k="is_in" v="...,Bezirk Innsbruck,Tirol,Österreich,Europa"/>
    <tag k="name" v="Aichereggweg"/>
    <tag k="note" v="imported from plan.at; (C)=CC-by-sa or oDBL; feel free to change if necessary"/>
    <tag k="plan_at:acad_id" v="i9B4F"/>
  </way>
  <way id="30259778" version="3" timestamp="2009-09-30T15:44:57Z" uid="36809" user="pfoten_weg_!_" changeset="2689684">
    <nd ref="263215368"/>
    <nd ref="333456674"/>
    <nd ref="333454839"/>
    <tag k="addr:postcode" v="6060"/>
    <tag k="at:maxspeed" v="Ortsgebiet"/>
    <tag k="fixme" v="check import"/>
    <tag k="highway" v="residential"/>
    <tag k="is_in" v="...,Bezirk Innsbruck,Tirol,Österreich,Europa"/>
    <tag k="name" v="Absamer Weg"/>
    <tag k="note" v="imported from plan.at; (C)=CC-by-sa or oDBL; feel free to change if necessary"/>
    <tag k="plan_at:acad_id" v="i9B34"/>
    <tag k="source" v="plan.at 2009"/>
  </way>
  <way id="30259799" version="1" timestamp="2009-01-19T02:15:56Z" uid="26515" user="Simon Ward" changeset="809154">
    <nd ref="333457217"/>
    <nd ref="333457221"/>
    <nd ref="333457224"/>
  </way>
  <way id="30259799" version="2" timestamp="2009-01-19T02:27:22Z" uid="26515" user="Simon Ward" changeset="809154">
    <nd ref="333457217"/>
    <nd ref="333457221"/>
    <nd ref="333457224"/>
    <tag k="highway" v="residential"/>
  </way>
  <way id="30259800" version="1" timestamp="2009-01-19T02:15:57Z" uid="26515" user="Simon Ward" changeset="809154">
    <nd ref="333457227"/>
    <nd ref="333457234"/>
    <nd ref="333457237"/>
    <nd ref="333457231"/>
    <nd ref="333457227"/>
    <tag k="area" v="yes"/>
    <tag k="note" v="residential parking"/>
  </way>
  <way id="30259905" version="3" timestamp="2010-03-28T00:56:43Z" uid="20587" user="balrog-kun" changeset="4250871">
    <nd ref="91082875"/>
    <nd ref="91048932"/>
    <tag k="created_by" v="Merkaartor 0.12"/>
    <tag k="highway" v="secondary"/>
    <tag k="name" v="Porter Street"/>
    <tag k="tiger:cfcc" v="A41"/>
    <tag k="tiger:county" v="Santa Cruz, CA"/>
    <tag k="tiger:name_base" v="Porter"/>
    <tag k="tiger:name_type" v="St"/>
    <tag k="tiger:reviewed" v="no"/>
    <tag k="tiger:separated" v="no"/>
    <tag k="tiger:source" v="tiger_import_dch_v0.6_20070809"/>
    <tag k="tiger:tlid" v="125509287:125509293:125509324:125509326:125509327:125509329:125509294"/>
    <tag k="tiger:zip_left" v="95073"/>
    <tag k="tiger:zip_right" v="95073"/>
  </way>
  <way id="30259908" version="5" timestamp="2010-03-28T00:56:43Z" uid="20587" user="balrog-kun" changeset="4250871">
    <nd ref="91082167"/>
    <nd ref="91082169"/>
    <nd ref="91082171"/>
    <tag k="alt_name" v="Wharf Rd"/>
    <tag k="cycleway" v="lane"/>
    <tag k="highway" v="tertiary"/>
    <tag k="name" v="Soquel Wharf Road"/>
    <tag k="oneway" v="yes"/>
    <tag k="tiger:cfcc" v="A41"/>
    <tag k="tiger:county" v="Santa Cruz, CA"/>
    <tag k="tiger:name_base" v="Soquel Wharf"/>
    <tag k="tiger:name_base_1" v="Wharf"/>
    <tag k="tiger:name_type" v="Rd"/>
    <tag k="tiger:name_type_1" v="Rd"/>
    <tag k="tiger:reviewed" v="no"/>
    <tag k="tiger:separated" v="no"/>
    <tag k="tiger:source" v="tiger_import_dch_v0.6_20070809"/>
    <tag k="tiger:tlid" v="125509319"/>
    <tag k="tiger:zip_left" v="95073"/>
  </way>
  <way id="30259911" version="5" timestamp="2010-03-28T00:56:43Z" uid="20587" user="balrog-kun" changeset="4250871">
    <nd ref="91045136"/>
    <nd ref="91045138"/>
    <nd ref="91045140"/>
    <nd ref="91032006"/>
    <nd ref="91045144"/>
    <nd ref="395039781"/>
    <nd ref="91045146"/>
    <tag k="created_by" v="Potlatch 0.10f"/>
    <tag k="highway" v="tertiary"/>
    <tag k="name" v="Capitola Avenue"/>
    <tag k="tiger:cfcc" v="A41"/>
    <tag k="tiger:county" v="Santa Cruz, CA"/>
    <tag k="tiger:name_base" v="Capitola"/>
    <tag k="tiger:name_type" v="Ave"/>
    <tag k="tiger:reviewed" v="no"/>
    <tag k="tiger:separated" v="no"/>
    <tag k="tiger:source" v="tiger_import_dch_v0.6_20070809"/>
    <tag k="tiger:tlid" v="125526143:125520364:125519757:125519758:125509594:125519822:125509589:125519767"/>
    <tag k="tiger:zip_left" v="95010"/>
    <tag k="tiger:zip_right" v="95010"/>
  </way>
  <way id="30259912" version="6" timestamp="2010-03-28T00:56:43Z" uid="20587" user="balrog-kun" changeset="4250871">
    <nd ref="91078345"/>
    <nd ref="91045136"/>
    <tag k="created_by" v="Potlatch 0.10f"/>
    <tag k="cycleway" v="lane"/>
    <tag k="highway" v="residential"/>
    <tag k="name" v="Stockton Avenue"/>
    <tag k="oneway" v="yes"/>
    <tag k="tiger:cfcc" v="A41"/>
    <tag k="tiger:county" v="Santa Cruz, CA"/>
    <tag k="tiger:name_base" v="Stockton"/>
    <tag k="tiger:name_type" v="Ave"/>
    <tag k="tiger:reviewed" v="no"/>
    <tag k="tiger:separated" v="no"/>
    <tag k="tiger:source" v="tiger_import_dch_v0.6_20070809"/>
    <tag k="tiger:tlid" v="125509591:125509644:125509590"/>
    <tag k="tiger:zip_left" v="95010"/>
    <tag k="tiger:zip_right" v="95010"/>
  </way>
  <way id="30259918" version="7" timestamp="2010-03-28T00:56:43Z" uid="20587" user="balrog-kun" changeset="4250871">
    <nd ref="91061953"/>
    <nd ref="91082718"/>
    <nd ref="91082721"/>
    <nd ref="91082722"/>
    <nd ref="91081193"/>
    <nd ref="91082724"/>
    <nd ref="431610176"/>
    <nd ref="409742274"/>
    <nd ref="91082726"/>
    <nd ref="91082728"/>
    <nd ref="91082730"/>
    <nd ref="91082732"/>
    <nd ref="91070757"/>
    <nd ref="91056986"/>
    <tag k="cycleway" v="lane"/>
    <tag k="highway" v="secondary"/>
    <tag k="name" v="7th Avenue"/>
    <tag k="tiger:cfcc" v="A41"/>
    <tag k="tiger:county" v="Santa Cruz, CA"/>
    <tag k="tiger:name_base" v="7th"/>
    <tag k="tiger:name_type" v="Ave"/>
    <tag k="tiger:reviewed" v="no"/>
    <tag k="tiger:separated" v="no"/>
    <tag k="tiger:source" v="tiger_import_dch_v0.6_20070809"/>
    <tag k="tiger:tlid" v="125520443:125507282:125526031:125526032:125526029:125532841:125532842:125526034:125528907:125528908:125507367:125507368:125526790:125537384:125507336:125526036:125507390:125507389:125507214:125507217:125520316:125508824:125519728:125507207:125507391:12550"/>
    <tag k="tiger:zip_left" v="95062"/>
    <tag k="tiger:zip_right" v="95062"/>
  </way>
  <way id="30259920" version="7" timestamp="2010-03-28T00:56:44Z" uid="20587" user="balrog-kun" changeset="4250871">
    <nd ref="91061972"/>
    <nd ref="91029028"/>
    <nd ref="91038382"/>
    <nd ref="91038392"/>
    <nd ref="91077846"/>
    <nd ref="91103133"/>
    <nd ref="91052931"/>
    <nd ref="91103135"/>
    <nd ref="91103137"/>
    <nd ref="355931760"/>
    <nd ref="91086353"/>
    <nd ref="91103139"/>
    <nd ref="91072798"/>
    <nd ref="91103141"/>
    <nd ref="91028377"/>
    <nd ref="91103142"/>
    <nd ref="91078510"/>
    <nd ref="91056998"/>
    <tag k="cycleway" v="lane"/>
    <tag k="highway" v="secondary"/>
    <tag k="name" v="17th Avenue"/>
    <tag k="tiger:cfcc" v="A41"/>
    <tag k="tiger:county" v="Santa Cruz, CA"/>
    <tag k="tiger:name_base" v="17th"/>
    <tag k="tiger:name_type" v="Ave"/>
    <tag k="tiger:reviewed" v="no"/>
    <tag k="tiger:separated" v="no"/>
    <tag k="tiger:source" v="tiger_import_dch_v0.6_20070809"/>
    <tag k="tiger:tlid" v="125526053:125507613:125529044:125529045:125528918:125539265:125539268:125538734:125520807:125520315:125539271:125539272:125507705:125507707:125507709:125518722:125528927:125528928:125507493:125507495:125518719:125528977:125528978:125528992:125528981:12552"/>
    <tag k="tiger:zip_left" v="95062"/>
    <tag k="tiger:zip_right" v="95062"/>
  </way>
  <way id="30259922" version="5" timestamp="2010-03-28T00:56:44Z" uid="20587" user="balrog-kun" changeset="4250871">
    <nd ref="91052787"/>
    <nd ref="91049363"/>
    <nd ref="91052078"/>
    <nd ref="91052789"/>
    <nd ref="91052791"/>
    <nd ref="91046413"/>
    <nd ref="91052794"/>
    <nd ref="91052796"/>
    <nd ref="91052798"/>
    <nd ref="401480327"/>
    <tag k="cycleway" v="lane"/>
    <tag k="highway" v="secondary"/>
    <tag k="name" v="Eaton Street"/>
    <tag k="tiger:cfcc" v="A41"/>
    <tag k="tiger:county" v="Santa Cruz, CA"/>
    <tag k="tiger:name_base" v="Eaton"/>
    <tag k="tiger:name_type" v="St"/>
    <tag k="tiger:reviewed" v="no"/>
    <tag k="tiger:separated" v="no"/>
    <tag k="tiger:source" v="tiger_import_dch_v0.6_20070809"/>
    <tag k="tiger:tlid" v="125507120:125507169:125520317:125537385"/>
  </way>
  <way id="30259953" version="3" timestamp="2009-03-03T16:04:37Z" uid="20587" user="balrog-kun" changeset="730427">
    <nd ref="40669175"/>
    <nd ref="40762808"/>
    <nd ref="40605632"/>
    <nd ref="40709318"/>
    <nd ref="40762812"/>
    <nd ref="40531484"/>
    <nd ref="40696430"/>
    <nd ref="40676421"/>
    <nd ref="40528464"/>
    <nd ref="31970537"/>
    <nd ref="40528403"/>
    <nd ref="40762821"/>
    <nd ref="257001334"/>
    <nd ref="40714526"/>
    <nd ref="40536576"/>
    <nd ref="257000262"/>
    <nd ref="40687677"/>
    <nd ref="40762826"/>
    <nd ref="40523775"/>
    <nd ref="40392518"/>
    <nd ref="40378608"/>
    <nd ref="40673993"/>
    <nd ref="40762838"/>
    <nd ref="40711731"/>
    <nd ref="40533675"/>
    <nd ref="40762844"/>
    <nd ref="40684483"/>
    <nd ref="40762848"/>
    <tag k="created_by" v="Potlatch 0.10f"/>
    <tag k="highway" v="tertiary"/>
    <tag k="name" v="SW Jefferson St"/>
    <tag k="tiger:cfcc" v="A41"/>
    <tag k="tiger:county" v="Multnomah, OR"/>
    <tag k="tiger:name_base" v="Jefferson"/>
    <tag k="tiger:name_direction_prefix" v="SW"/>
    <tag k="tiger:name_type" v="St"/>
    <tag k="tiger:reviewed" v="no"/>
    <tag k="tiger:separated" v="no"/>
    <tag k="tiger:source" v="tiger_import_dch_v0.6_20070808"/>
    <tag k="tiger:tlid" v="157573340:157573341:157573346:157573348:157573350:157573351:157498486:157498488:157498490:157573404:157573406:157573408:157573409:157573370:157573371:157498542:157498975:157573968:157573970:157573972:157498551:157564110:157498994:157500687:157500697:15750"/>
    <tag k="tiger:upload_uuid" v="bulk_upload.pl-c48d30be-055e-4884-8c04-6be7c12c48ba"/>
    <tag k="tiger:zip_left" v="97201"/>
    <tag k="tiger:zip_right" v="97201"/>
  </way>
  <way id="30259959" version="2" timestamp="2009-03-03T16:04:41Z" uid="20587" user="balrog-kun" changeset="730427">
    <nd ref="40669175"/>
    <nd ref="40551599"/>
    <nd ref="40503107"/>
    <nd ref="40669182"/>
    <tag k="created_by" v="Potlatch 0.10f"/>
    <tag k="highway" v="residential"/>
    <tag k="name" v="SW 1st Ave"/>
    <tag k="tiger:cfcc" v="A41"/>
    <tag k="tiger:county" v="Multnomah, OR"/>
    <tag k="tiger:name_base" v="1st"/>
    <tag k="tiger:name_direction_prefix" v="SW"/>
    <tag k="tiger:name_type" v="Ave"/>
    <tag k="tiger:reviewed" v="no"/>
    <tag k="tiger:separated" v="no"/>
    <tag k="tiger:source" v="tiger_import_dch_v0.6_20070808"/>
    <tag k="tiger:tlid" v="157501110:157501111:157501118"/>
    <tag k="tiger:upload_uuid" v="bulk_upload.pl-c48d30be-055e-4884-8c04-6be7c12c48ba"/>
    <tag k="tiger:zip_left" v="97239"/>
    <tag k="tiger:zip_right" v="97239"/>
  </way>
  <way id="30259960" version="3" timestamp="2009-03-03T16:04:36Z" uid="20587" user="balrog-kun" changeset="730427">
    <nd ref="40528400"/>
    <nd ref="32201168"/>
    <nd ref="40528461"/>
    <nd ref="40574150"/>
    <nd ref="40574147"/>
    <nd ref="40531481"/>
    <nd ref="40574139"/>
    <nd ref="40574137"/>
    <nd ref="40574134"/>
    <nd ref="40574132"/>
    <nd ref="40574130"/>
    <nd ref="40574128"/>
    <tag k="created_by" v="Potlatch 0.10f"/>
    <tag k="highway" v="residential"/>
    <tag k="name" v="SW Madison St"/>
    <tag k="oneway" v="yes"/>
    <tag k="tiger:cfcc" v="A41"/>
    <tag k="tiger:county" v="Multnomah, OR"/>
    <tag k="tiger:name_base" v="Madison"/>
    <tag k="tiger:name_direction_prefix" v="SW"/>
    <tag k="tiger:name_type" v="St"/>
    <tag k="tiger:reviewed" v="no"/>
    <tag k="tiger:separated" v="no"/>
    <tag k="tiger:source" v="tiger_import_dch_v0.6_20070808"/>
    <tag k="tiger:tlid" v="157538761"/>
    <tag k="tiger:upload_uuid" v="bulk_upload.pl-c48d30be-055e-4884-8c04-6be7c12c48ba"/>
  </way>
  <way id="30259960" version="8" timestamp="2010-03-10T09:21:10Z" uid="20587" user="balrog-kun" changeset="4087406">
    <nd ref="663564100"/>
    <nd ref="663564099"/>
    <nd ref="40528400"/>
    <tag k="highway" v="pedestrian"/>
    <tag k="name" v="Southwest Madison Street"/>
  </way>
  <way id="30259968" version="2" timestamp="2009-10-18T17:20:06Z" uid="74027" user="katzlbt" changeset="2886309">
    <nd ref="333461571"/>
    <nd ref="275888867"/>
    <nd ref="333461593"/>
    <nd ref="333461595"/>
    <nd ref="333461597"/>
    <nd ref="333461599"/>
    <nd ref="333461601"/>
    <tag k="addr:postcode" v="6410"/>
    <tag k="at:maxspeed" v="Ortsgebiet"/>
    <tag k="fixme" v="check import"/>
    <tag k="highway:plan.at:i9" v="residential"/>
    <tag k="is_in" v="...,Bezirk Innsbruck,Tirol,Österreich,Europa"/>
    <tag k="name" v="Telfs"/>
    <tag k="note" v="imported from plan.at; (C)=CC-by-sa or oDBL; feel free to change if necessary"/>
    <tag k="plan_at:acad_id" v="i9A1A"/>
    <tag k="source" v="plan.at 2009"/>
    <tag k="uploaded_by" v="Wolfgang W. Wasserburger"/>
  </way>
</osm>
