<?xml version='1.0' encoding='UTF-8'?>
<osm version="0.6" generator="libosmium/2.20.0">
  <way id="30319166" version="3" timestamp="2011-04-03T18:23:50Z" uid="6975" user="ulfl" changeset="7757414">
    <nd ref="331946600"/>
    <nd ref="334285620"/>
    <nd ref="334285622"/>
    <nd ref="334285625"/>
    <nd ref="334285628"/>
    <nd ref="334285630"/>
    <nd ref="334285632"/>
    <nd ref="334285635"/>
    <nd ref="1231230226"/>
    <nd ref="334285637"/>
    <nd ref="334285639"/>
    <tag k="highway" v="residential"/>
  </way>
  <way id="30319171" version="2" timestamp="2009-08-24T22:47:16Z" uid="36809" user="pfoten_weg_!_" changeset="2250819">
    <nd ref="310205358"/>
    <nd ref="310205357"/>
    <nd ref="310205356"/>
    <nd ref="310205355"/>
    <nd ref="310205354"/>
    <tag k="discovered_by" v="RambaZamba"/>
    <tag k="highway" v="residential"/>
    <tag k="name" v="Bleicherstraße"/>
    <tag k="oneway" v="yes"/>
  </way>
  <way id="30319171" version="4" timestamp="2009-08-31T22:00:00Z" uid="36809" user="pfoten_weg_!_" changeset="2331993">
    <nd ref="310205358"/>
    <nd ref="310205357"/>
    <nd ref="310205356"/>
    <nd ref="310205355"/>
    <nd ref="310205354"/>
    <tag k="highway" v="residential"/>
    <tag k="name" v="Bleicherstraße"/>
    <tag k="oneway" v="yes"/>
  </way>
  <way id="30319172" version="4" timestamp="2009-08-24T22:01:58Z" uid="36809" user="pfoten_weg_!_" changeset="2250603">
    <nd ref="334285671"/>
    <nd ref="330097257"/>
    <nd ref="289747669"/>
    <nd ref="310204660"/>
    <tag k="highway" v="residential"/>
    <tag k="lit" v="yes"/>
    <tag k="maxspeed" v="30"/>
    <tag k="name" v="Barthestraße"/>
    <tag k="nore:de" v="Warnung"/>
    <tag k="oneway" v="yes"/>
  </way>
  <way id="30319172" version="5" timestamp="2009-08-24T22:32:04Z" uid="36809" user="pfoten_weg_!_" changeset="2250754">
    <nd ref="334285671"/>
    <nd ref="330097257"/>
    <nd ref="289747669"/>
    <nd ref="310204660"/>
    <tag k="highway" v="residential"/>
    <tag k="lit" v="yes"/>
    <tag k="maxspeed" v="30"/>
    <tag k="name" v="Barthestraße"/>
    <tag k="oneway" v="yes"/>
  </way>
  <way id="30319172" version="6" timestamp="2009-08-24T22:45:51Z" uid="36809" user="pfoten_weg_!_" changeset="2250819">
    <nd ref="334285671"/>
    <nd ref="330097257"/>
    <nd ref="289747669"/>
    <nd ref="310204660"/>
    <tag k="discovered_by" v="RambaZamba"/>
    <tag k="highway" v="residential"/>
    <tag k="lit" v="yes"/>
    <tag k="maxspeed" v="30"/>
    <tag k="name" v="Barthestraße"/>
    <tag k="oneway" v="yes"/>
  </way>
  <way id="30319172" version="8" timestamp="2009-08-31T22:01:27Z" uid="36809" user="pfoten_weg_!_" changeset="2331993">
    <nd ref="334285671"/>
    <nd ref="330097257"/>
    <nd ref="289747669"/>
    <nd ref="310204660"/>
    <tag k="highway" v="residential"/>
    <tag k="lit" v="yes"/>
    <tag k="maxspeed" v="30"/>
    <tag k="name" v="Barthestraße"/>
    <tag k="oneway" v="yes"/>
  </way>
  <way id="30319173" version="2" timestamp="2009-08-24T22:43:45Z" uid="36809" user="pfoten_weg_!_" changeset="2250819">
    <nd ref="289747216"/>
    <nd ref="310407242"/>
    <tag k="discovered_by" v="RambaZamba"/>
    <tag k="highway" v="residential"/>
  </way>
  <way id="30319173" version="4" timestamp="2009-08-31T21:59:34Z" uid="36809" user="pfoten_weg_!_" changeset="2331993">
    <nd ref="289747216"/>
    <nd ref="310407242"/>
    <tag k="highway" v="residential"/>
  </way>
  <way id="30319174" version="3" timestamp="2009-08-24T22:00:41Z" uid="36809" user="pfoten_weg_!_" changeset="2250603">
    <nd ref="334285683"/>
    <nd ref="334285685"/>
    <nd ref="334285687"/>
    <nd ref="334285689"/>
    <nd ref="334285691"/>
    <nd ref="334285692"/>
    <nd ref="334285683"/>
    <tag k="amenity" v="place_of_worship"/>
    <tag k="denomination" v="protestant"/>
    <tag k="name" v="Sankt Marien"/>
    <tag k="nore:de" v="Warnung"/>
    <tag k="religion" v="christian"/>
  </way>
  <way id="30319174" version="4" timestamp="2009-08-24T22:31:11Z" uid="36809" user="pfoten_weg_!_" changeset="2250754">
    <nd ref="334285683"/>
    <nd ref="334285685"/>
    <nd ref="334285687"/>
    <nd ref="334285689"/>
    <nd ref="334285691"/>
    <nd ref="334285692"/>
    <nd ref="334285683"/>
    <tag k="amenity" v="place_of_worship"/>
    <tag k="denomination" v="protestant"/>
    <tag k="name" v="Sankt Marien"/>
    <tag k="religion" v="christian"/>
  </way>
  <way id="30319175" version="3" timestamp="2009-08-24T22:01:13Z" uid="36809" user="pfoten_weg_!_" changeset="2250603">
    <nd ref="310205358"/>
    <nd ref="310206351"/>
    <nd ref="334285641"/>
    <nd ref="310401123"/>
    <nd ref="334285636"/>
    <nd ref="334285733"/>
    <nd ref="310204686"/>
    <tag k="cycleway" v="opposite"/>
    <tag k="highway" v="residential"/>
    <tag k="lit" v="yes"/>
    <tag k="name" v="Bleicherstraße"/>
    <tag k="nore:de" v="Warnung"/>
    <tag k="oneway" v="yes"/>
    <tag k="surface" v="cobblestone"/>
  </way>
  <way id="30319175" version="4" timestamp="2009-08-24T22:31:34Z" uid="36809" user="pfoten_weg_!_" changeset="2250754">
    <nd ref="310205358"/>
    <nd ref="310206351"/>
    <nd ref="334285641"/>
    <nd ref="310401123"/>
    <nd ref="334285636"/>
    <nd ref="334285733"/>
    <nd ref="310204686"/>
    <tag k="cycleway" v="opposite"/>
    <tag k="highway" v="residential"/>
    <tag k="lit" v="yes"/>
    <tag k="name" v="Bleicherstraße"/>
    <tag k="oneway" v="yes"/>
    <tag k="surface" v="cobblestone"/>
  </way>
  <way id="30319175" version="5" timestamp="2009-08-24T22:44:56Z" uid="36809" user="pfoten_weg_!_" changeset="2250819">
    <nd ref="310205358"/>
    <nd ref="310206351"/>
    <nd ref="334285641"/>
    <nd ref="310401123"/>
    <nd ref="334285636"/>
    <nd ref="334285733"/>
    <nd ref="310204686"/>
    <tag k="cycleway" v="opposite"/>
    <tag k="discovered_by" v="RambaZamba"/>
    <tag k="highway" v="residential"/>
    <tag k="lit" v="yes"/>
    <tag k="name" v="Bleicherstraße"/>
    <tag k="oneway" v="yes"/>
    <tag k="surface" v="cobblestone"/>
  </way>
  <way id="30319175" version="7" timestamp="2009-08-31T22:01:54Z" uid="36809" user="pfoten_weg_!_" changeset="2331993">
    <nd ref="310205358"/>
    <nd ref="310206351"/>
    <nd ref="334285641"/>
    <nd ref="310401123"/>
    <nd ref="334285636"/>
    <nd ref="334285733"/>
    <nd ref="310204686"/>
    <tag k="cycleway" v="opposite"/>
    <tag k="highway" v="residential"/>
    <tag k="lit" v="yes"/>
    <tag k="name" v="Bleicherstraße"/>
    <tag k="oneway" v="yes"/>
    <tag k="surface" v="cobblestone"/>
  </way>
  <way id="30319176" version="3" timestamp="2009-08-24T22:02:38Z" uid="36809" user="pfoten_weg_!_" changeset="2250603">
    <nd ref="334285740"/>
    <nd ref="353118588"/>
    <nd ref="334285742"/>
    <nd ref="334285745"/>
    <nd ref="353118593"/>
    <nd ref="334285747"/>
    <nd ref="334285740"/>
    <tag k="building" v="yes"/>
    <tag k="historic" v="monument"/>
    <tag k="name" v="Dammtor"/>
    <tag k="nore:de" v="Warnung"/>
  </way>
  <way id="30319176" version="4" timestamp="2009-08-24T22:32:23Z" uid="36809" user="pfoten_weg_!_" changeset="2250754">
    <nd ref="334285740"/>
    <nd ref="353118588"/>
    <nd ref="334285742"/>
    <nd ref="334285745"/>
    <nd ref="353118593"/>
    <nd ref="334285747"/>
    <nd ref="334285740"/>
    <tag k="building" v="yes"/>
    <tag k="historic" v="monument"/>
    <tag k="name" v="Dammtor"/>
  </way>
  <way id="30319177" version="3" timestamp="2009-08-24T22:04:25Z" uid="36809" user="pfoten_weg_!_" changeset="2250603">
    <nd ref="310406947"/>
    <nd ref="59779319"/>
    <nd ref="289746975"/>
    <nd ref="334285749"/>
    <nd ref="59779318"/>
    <nd ref="334285720"/>
    <nd ref="267980262"/>
    <tag k="highway" v="residential"/>
    <tag k="name" v="Lange Straße"/>
    <tag k="nore:de" v="Warnung"/>
    <tag k="oneway" v="yes"/>
    <tag k="surface" v="cobblestone"/>
  </way>
  <way id="30319177" version="4" timestamp="2009-08-24T22:33:34Z" uid="36809" user="pfoten_weg_!_" changeset="2250754">
    <nd ref="310406947"/>
    <nd ref="59779319"/>
    <nd ref="289746975"/>
    <nd ref="334285749"/>
    <nd ref="59779318"/>
    <nd ref="334285720"/>
    <nd ref="267980262"/>
    <tag k="highway" v="residential"/>
    <tag k="name" v="Lange Straße"/>
    <tag k="oneway" v="yes"/>
    <tag k="surface" v="cobblestone"/>
  </way>
  <way id="30319177" version="5" timestamp="2009-08-24T22:48:04Z" uid="36809" user="pfoten_weg_!_" changeset="2250819">
    <nd ref="310406947"/>
    <nd ref="59779319"/>
    <nd ref="289746975"/>
    <nd ref="334285749"/>
    <nd ref="59779318"/>
    <nd ref="334285720"/>
    <nd ref="267980262"/>
    <tag k="discovered_by" v="RambaZamba"/>
    <tag k="highway" v="residential"/>
    <tag k="name" v="Lange Straße"/>
    <tag k="oneway" v="yes"/>
    <tag k="surface" v="cobblestone"/>
  </way>
  <way id="30319177" version="7" timestamp="2009-08-31T22:02:59Z" uid="36809" user="pfoten_weg_!_" changeset="2331993">
    <nd ref="310406947"/>
    <nd ref="59779319"/>
    <nd ref="289746975"/>
    <nd ref="334285749"/>
    <nd ref="59779318"/>
    <nd ref="334285720"/>
    <nd ref="267980262"/>
    <tag k="highway" v="residential"/>
    <tag k="name" v="Lange Straße"/>
    <tag k="oneway" v="yes"/>
    <tag k="surface" v="cobblestone"/>
  </way>
  <way id="30319179" version="5" timestamp="2009-08-24T22:00:41Z" uid="36809" user="pfoten_weg_!_" changeset="2250603">
    <nd ref="310405078"/>
    <nd ref="334285671"/>
    <tag k="cycleway" v="track"/>
    <tag k="highway" v="residential"/>
    <tag k="lit" v="yes"/>
    <tag k="name" v="Barthestraße"/>
    <tag k="nore:de" v="Warnung"/>
    <tag k="oneway" v="yes"/>
  </way>
  <way id="30319179" version="6" timestamp="2009-08-24T22:31:10Z" uid="36809" user="pfoten_weg_!_" changeset="2250754">
    <nd ref="310405078"/>
    <nd ref="334285671"/>
    <tag k="cycleway" v="track"/>
    <tag k="highway" v="residential"/>
    <tag k="lit" v="yes"/>
    <tag k="name" v="Barthestraße"/>
    <tag k="oneway" v="yes"/>
  </way>
  <way id="30319179" version="7" timestamp="2009-08-24T22:44:21Z" uid="36809" user="pfoten_weg_!_" changeset="2250819">
    <nd ref="310405078"/>
    <nd ref="334285671"/>
    <tag k="cycleway" v="track"/>
    <tag k="discovered_by" v="RambaZamba"/>
    <tag k="highway" v="residential"/>
    <tag k="lit" v="yes"/>
    <tag k="name" v="Barthestraße"/>
    <tag k="oneway" v="yes"/>
  </way>
  <way id="30319179" version="9" timestamp="2009-08-31T21:58:57Z" uid="36809" user="pfoten_weg_!_" changeset="2331993">
    <nd ref="310405078"/>
    <nd ref="334285671"/>
    <tag k="cycleway" v="track"/>
    <tag k="highway" v="residential"/>
    <tag k="lit" v="yes"/>
    <tag k="name" v="Barthestraße"/>
    <tag k="oneway" v="yes"/>
  </way>
  <way id="30319260" version="5" timestamp="2010-03-20T23:43:30Z" uid="30632" user="antblant" changeset="4186199">
    <nd ref="334286568"/>
    <nd ref="334286570"/>
    <nd ref="334286573"/>
    <nd ref="334286577"/>
    <nd ref="334286580"/>
    <nd ref="334287416"/>
    <nd ref="334287408"/>
    <nd ref="334286589"/>
    <tag k="highway" v="residential"/>
    <tag k="name" v="Elizy Orzeszkowej"/>
    <tag k="old_name" v="Klopstockstraße"/>
  </way>
  <way id="30319260" version="9" timestamp="2010-04-21T10:11:50Z" uid="30632" user="antblant" changeset="4485041">
    <nd ref="334286568"/>
    <nd ref="334286570"/>
    <nd ref="334286573"/>
    <nd ref="334286577"/>
    <nd ref="334286580"/>
    <nd ref="334287416"/>
    <nd ref="693973240"/>
    <nd ref="334286589"/>
    <tag k="highway" v="residential"/>
    <tag k="name" v="Elizy Orzeszkowej"/>
    <tag k="old_name" v="Klopstockstraße"/>
  </way>
  <way id="30319260" version="10" timestamp="2010-04-22T22:16:40Z" uid="30632" user="antblant" changeset="4499544">
    <nd ref="334286568"/>
    <nd ref="334286570"/>
    <nd ref="334286573"/>
    <nd ref="334286577"/>
    <nd ref="334286580"/>
    <nd ref="334287416"/>
    <nd ref="334287407"/>
    <nd ref="334286589"/>
    <tag k="highway" v="residential"/>
    <tag k="name" v="Elizy Orzeszkowej"/>
    <tag k="old_name" v="Klopstockstraße"/>
  </way>
  <way id="30319262" version="7" timestamp="2010-04-21T10:11:51Z" uid="30632" user="antblant" changeset="4485041">
    <nd ref="334286596"/>
    <nd ref="334286589"/>
    <nd ref="334286599"/>
    <nd ref="334287410"/>
    <nd ref="334286602"/>
    <nd ref="334286607"/>
    <nd ref="334286609"/>
    <nd ref="334286612"/>
    <nd ref="334286614"/>
    <tag k="alt_name:de" v="Stöwener Weg"/>
    <tag k="highway" v="secondary"/>
    <tag k="name" v="Stanisława Wyspiańskiego"/>
    <tag k="old_name" v="Schönlanker Straße"/>
  </way>
  <way id="30319287" version="3" timestamp="2010-03-20T23:43:31Z" uid="30632" user="antblant" changeset="4186199">
    <nd ref="334286890"/>
    <nd ref="334287415"/>
    <nd ref="334286939"/>
    <nd ref="334286941"/>
    <nd ref="334286942"/>
    <nd ref="334286944"/>
    <nd ref="334287416"/>
    <tag k="foot" v="yes"/>
    <tag k="highway" v="cycleway"/>
    <tag k="name" v="Pantaleona Szumana"/>
  </way>
  <way id="30319351" version="4" timestamp="2010-03-20T23:43:30Z" uid="30632" user="antblant" changeset="4186199">
    <nd ref="334287416"/>
    <nd ref="334287407"/>
    <nd ref="334287408"/>
    <nd ref="334286599"/>
    <nd ref="334287410"/>
    <nd ref="334286897"/>
    <nd ref="334287411"/>
    <nd ref="334286893"/>
    <nd ref="334287413"/>
    <nd ref="334287415"/>
    <nd ref="334286944"/>
    <nd ref="334287416"/>
    <tag k="landuse" v="retail"/>
    <tag k="layer" v="-1"/>
  </way>
  <way id="30319351" version="6" timestamp="2010-04-21T10:11:51Z" uid="30632" user="antblant" changeset="4485041">
    <nd ref="334287416"/>
    <nd ref="693973240"/>
    <nd ref="334287407"/>
    <nd ref="334286589"/>
    <nd ref="334286599"/>
    <nd ref="334287410"/>
    <nd ref="334286897"/>
    <nd ref="334287411"/>
    <nd ref="334286893"/>
    <nd ref="334287413"/>
    <nd ref="334287415"/>
    <nd ref="334286944"/>
    <nd ref="334287416"/>
    <tag k="landuse" v="retail"/>
    <tag k="layer" v="-1"/>
  </way>
  <way id="30319351" version="7" timestamp="2010-04-22T22:16:40Z" uid="30632" user="antblant" changeset="4499544">
    <nd ref="334287416"/>
    <nd ref="334287407"/>
    <nd ref="334286589"/>
    <nd ref="334286599"/>
    <nd ref="334287410"/>
    <nd ref="334286897"/>
    <nd ref="334287411"/>
    <nd ref="334286893"/>
    <nd ref="334287413"/>
    <nd ref="334287415"/>
    <nd ref="334286944"/>
    <nd ref="334287416"/>
    <tag k="landuse" v="retail"/>
    <tag k="layer" v="-1"/>
  </way>
  <way id="30319357" version="6" timestamp="2010-04-22T22:16:40Z" uid="30632" user="antblant" changeset="4499544">
    <nd ref="334287407"/>
    <nd ref="334287402"/>
    <tag k="highway" v="service"/>
  </way>
  <way id="30319373" version="4" timestamp="2010-03-20T23:43:31Z" uid="30632" user="antblant" changeset="4186199">
    <nd ref="334286959"/>
    <nd ref="334287554"/>
    <nd ref="334287555"/>
    <nd ref="334287557"/>
    <nd ref="310689638"/>
    <tag k="highway" v="secondary"/>
    <tag k="name" v="Mariana Buczka"/>
    <tag k="old_name" v="Księdza Grzegorza Piramowicza"/>
    <tag k="old_name:de" v="Bismarckstraße"/>
  </way>
  <way id="30319378" version="5" timestamp="2010-03-20T23:43:31Z" uid="30632" user="antblant" changeset="4186199">
    <nd ref="334287568"/>
    <nd ref="334287577"/>
    <nd ref="334287162"/>
    <nd ref="310689638"/>
    <tag k="highway" v="secondary"/>
    <tag k="name" v="Stefana Okrzei"/>
    <tag k="old_name:de" v="Albrechtstraße"/>
  </way>
  <way id="30319394" version="5" timestamp="2010-03-20T23:43:31Z" uid="30632" user="antblant" changeset="4186199">
    <nd ref="310689638"/>
    <nd ref="334287695"/>
    <nd ref="334287697"/>
    <nd ref="334287698"/>
    <nd ref="334287700"/>
    <nd ref="334287702"/>
    <nd ref="334287703"/>
    <tag k="highway" v="secondary"/>
    <tag k="name" v="Stefana Okrzei"/>
    <tag k="old_name" v="Albrechtstraße"/>
  </way>
  <way id="30319568" version="2" timestamp="2010-04-03T04:09:12Z" uid="20587" user="balrog-kun" changeset="4309442">
    <nd ref="334290418"/>
    <nd ref="334290419"/>
    <nd ref="334290421"/>
    <nd ref="334290424"/>
    <nd ref="333786099"/>
    <nd ref="333786100"/>
    <tag k="created_by" v="Merkaartor 0.12"/>
    <tag k="highway" v="secondary"/>
    <tag k="name" v="North 83rd Avenue"/>
  </way>
  <way id="30319575" version="2" timestamp="2010-04-03T04:09:12Z" uid="20587" user="balrog-kun" changeset="4309442">
    <nd ref="334290418"/>
    <nd ref="334290474"/>
    <nd ref="334290475"/>
    <nd ref="334290476"/>
    <tag k="created_by" v="Merkaartor 0.12"/>
    <tag k="highway" v="secondary"/>
    <tag k="name" v="North 83rd Avenue"/>
    <tag k="oneway" v="yes"/>
  </way>
  <way id="30319576" version="2" timestamp="2010-04-03T04:09:12Z" uid="20587" user="balrog-kun" changeset="4309442">
    <nd ref="334290486"/>
    <nd ref="334290487"/>
    <tag k="created_by" v="Merkaartor 0.12"/>
    <tag k="highway" v="secondary"/>
    <tag k="name" v="North 83rd Avenue"/>
    <tag k="oneway" v="yes"/>
  </way>
  <way id="30319587" version="2" timestamp="2010-04-03T04:09:12Z" uid="20587" user="balrog-kun" changeset="4309442">
    <nd ref="334290499"/>
    <nd ref="334290492"/>
    <nd ref="334290493"/>
    <nd ref="334290418"/>
    <tag k="created_by" v="Merkaartor 0.12"/>
    <tag k="highway" v="secondary"/>
    <tag k="name" v="North 83rd Avenue"/>
    <tag k="oneway" v="yes"/>
  </way>
  <way id="30319588" version="2" timestamp="2010-04-03T04:09:12Z" uid="20587" user="balrog-kun" changeset="4309442">
    <nd ref="334290476"/>
    <nd ref="334290500"/>
    <tag k="bridge" v="yes"/>
    <tag k="created_by" v="Merkaartor 0.12"/>
    <tag k="highway" v="secondary"/>
    <tag k="layer" v="1"/>
    <tag k="name" v="North 83rd Avenue"/>
    <tag k="oneway" v="yes"/>
  </way>
  <way id="30319589" version="2" timestamp="2010-04-03T04:09:13Z" uid="20587" user="balrog-kun" changeset="4309442">
    <nd ref="334290500"/>
    <nd ref="334290484"/>
    <nd ref="334290482"/>
    <tag k="created_by" v="Merkaartor 0.12"/>
    <tag k="highway" v="secondary"/>
    <tag k="name" v="North 83rd Avenue"/>
    <tag k="oneway" v="yes"/>
  </way>
  <way id="30319590" version="2" timestamp="2010-04-03T04:09:13Z" uid="20587" user="balrog-kun" changeset="4309442">
    <nd ref="334290502"/>
    <nd ref="334290499"/>
    <tag k="bridge" v="yes"/>
    <tag k="created_by" v="Merkaartor 0.12"/>
    <tag k="highway" v="secondary"/>
    <tag k="layer" v="1"/>
    <tag k="name" v="North 83rd Avenue"/>
    <tag k="oneway" v="yes"/>
  </way>
  <way id="30319591" version="2" timestamp="2010-04-03T04:09:13Z" uid="20587" user="balrog-kun" changeset="4309442">
    <nd ref="334290489"/>
    <nd ref="334290490"/>
    <nd ref="334290502"/>
    <tag k="created_by" v="Merkaartor 0.12"/>
    <tag k="highway" v="secondary"/>
    <tag k="name" v="North 83rd Avenue"/>
    <tag k="oneway" v="yes"/>
  </way>
  <way id="30319593" version="2" timestamp="2010-04-03T04:09:13Z" uid="20587" user="balrog-kun" changeset="4309442">
    <nd ref="334290487"/>
    <nd ref="334290489"/>
    <tag k="bridge" v="yes"/>
    <tag k="created_by" v="Merkaartor 0.12"/>
    <tag k="highway" v="secondary"/>
    <tag k="layer" v="1"/>
    <tag k="name" v="North 83rd Avenue"/>
    <tag k="oneway" v="yes"/>
  </way>
  <way id="30319594" version="2" timestamp="2010-04-03T04:09:13Z" uid="20587" user="balrog-kun" changeset="4309442">
    <nd ref="334290479"/>
    <nd ref="334290471"/>
    <tag k="created_by" v="Merkaartor 0.12"/>
    <tag k="highway" v="secondary"/>
    <tag k="name" v="North 83rd Avenue"/>
    <tag k="oneway" v="yes"/>
  </way>
  <way id="30319595" version="2" timestamp="2010-04-03T04:09:13Z" uid="20587" user="balrog-kun" changeset="4309442">
    <nd ref="334290482"/>
    <nd ref="334290479"/>
    <tag k="bridge" v="yes"/>
    <tag k="created_by" v="Merkaartor 0.12"/>
    <tag k="highway" v="secondary"/>
    <tag k="layer" v="1"/>
    <tag k="name" v="North 83rd Avenue"/>
    <tag k="oneway" v="yes"/>
  </way>
  <way id="30319874" version="4" timestamp="2009-10-07T16:57:35Z" uid="86259" user="hasse_osm_korinthenkacker" changeset="2773624">
    <nd ref="334293898"/>
    <nd ref="334294250"/>
    <nd ref="334294251"/>
    <nd ref="334294253"/>
    <nd ref="334294510"/>
    <tag k="highway" v="living_street"/>
    <tag k="name" v="Herrweg"/>
  </way>
  <way id="30319881" version="2" timestamp="2009-10-07T16:57:35Z" uid="86259" user="hasse_osm_korinthenkacker" changeset="2773624">
    <nd ref="334294250"/>
    <nd ref="334294392"/>
    <nd ref="334294393"/>
    <tag k="highway" v="living_street"/>
    <tag k="name" v="Herrweg"/>
  </way>
  <way id="30319892" version="2" timestamp="2009-10-07T16:57:34Z" uid="86259" user="hasse_osm_korinthenkacker" changeset="2773624">
    <nd ref="334294393"/>
    <nd ref="334294805"/>
    <tag k="bicycle" v="yes"/>
    <tag k="foot" v="yes"/>
    <tag k="highway" v="footway"/>
  </way>
  <way id="30319950" version="3" timestamp="2009-10-07T16:57:36Z" uid="86259" user="hasse_osm_korinthenkacker" changeset="2773624">
    <nd ref="334295211"/>
    <nd ref="334295334"/>
    <nd ref="334295335"/>
    <nd ref="334295337"/>
    <nd ref="334295339"/>
    <nd ref="249824344"/>
    <tag k="highway" v="track"/>
    <tag k="surface" v="paved"/>
    <tag k="tracktype" v="grade1"/>
  </way>
  <way id="30319952" version="3" timestamp="2009-08-24T22:04:14Z" uid="36809" user="pfoten_weg_!_" changeset="2250603">
    <nd ref="334295347"/>
    <nd ref="334295344"/>
    <nd ref="353216531"/>
    <nd ref="334295342"/>
    <nd ref="353216536"/>
    <nd ref="334295341"/>
    <tag k="highway" v="residential"/>
    <tag k="maxspeed" v="30"/>
    <tag k="name" v="Berthold-Brecht-Straße"/>
    <tag k="nore:de" v="Warnung"/>
  </way>
  <way id="30319952" version="4" timestamp="2009-08-24T22:33:29Z" uid="36809" user="pfoten_weg_!_" changeset="2250754">
    <nd ref="334295347"/>
    <nd ref="334295344"/>
    <nd ref="353216531"/>
    <nd ref="334295342"/>
    <nd ref="353216536"/>
    <nd ref="334295341"/>
    <tag k="highway" v="residential"/>
    <tag k="maxspeed" v="30"/>
    <tag k="name" v="Berthold-Brecht-Straße"/>
  </way>
  <way id="30319952" version="5" timestamp="2009-08-24T22:47:53Z" uid="36809" user="pfoten_weg_!_" changeset="2250819">
    <nd ref="334295347"/>
    <nd ref="334295344"/>
    <nd ref="353216531"/>
    <nd ref="334295342"/>
    <nd ref="353216536"/>
    <nd ref="334295341"/>
    <tag k="discovered_by" v="RambaZamba"/>
    <tag k="highway" v="residential"/>
    <tag k="maxspeed" v="30"/>
    <tag k="name" v="Berthold-Brecht-Straße"/>
  </way>
  <way id="30319952" version="7" timestamp="2009-08-31T22:01:59Z" uid="36809" user="pfoten_weg_!_" changeset="2331993">
    <nd ref="334295347"/>
    <nd ref="334295344"/>
    <nd ref="353216531"/>
    <nd ref="334295342"/>
    <nd ref="353216536"/>
    <nd ref="334295341"/>
    <tag k="highway" v="residential"/>
    <tag k="maxspeed" v="30"/>
    <tag k="name" v="Berthold-Brecht-Straße"/>
  </way>
  <way id="30319953" version="4" timestamp="2009-08-24T21:59:46Z" uid="36809" user="pfoten_weg_!_" changeset="2250603">
    <nd ref="334295289"/>
    <nd ref="334295313"/>
    <nd ref="334295315"/>
    <nd ref="334285709"/>
    <tag k="footway" v="left"/>
    <tag k="footway:left:bicycle" v="yes"/>
    <tag k="highway" v="residential"/>
    <tag k="maxspeed" v="30"/>
    <tag k="name" v="Hölzern-Kreuz-Weg"/>
    <tag k="nore:de" v="Warnung"/>
  </way>
  <way id="30319953" version="5" timestamp="2009-08-24T22:30:34Z" uid="36809" user="pfoten_weg_!_" changeset="2250754">
    <nd ref="334295289"/>
    <nd ref="334295313"/>
    <nd ref="334295315"/>
    <nd ref="334285709"/>
    <tag k="footway" v="left"/>
    <tag k="footway:left:bicycle" v="yes"/>
    <tag k="highway" v="residential"/>
    <tag k="maxspeed" v="30"/>
    <tag k="name" v="Hölzern-Kreuz-Weg"/>
  </way>
  <way id="30319953" version="6" timestamp="2009-08-24T22:43:07Z" uid="36809" user="pfoten_weg_!_" changeset="2250819">
    <nd ref="334295289"/>
    <nd ref="334295313"/>
    <nd ref="334295315"/>
    <nd ref="334285709"/>
    <tag k="discovered_by" v="RambaZamba"/>
    <tag k="footway" v="left"/>
    <tag k="footway:left:bicycle" v="yes"/>
    <tag k="highway" v="residential"/>
    <tag k="maxspeed" v="30"/>
    <tag k="name" v="Hölzern-Kreuz-Weg"/>
  </way>
  <way id="30319953" version="8" timestamp="2009-08-31T22:02:50Z" uid="36809" user="pfoten_weg_!_" changeset="2331993">
    <nd ref="334295289"/>
    <nd ref="334295313"/>
    <nd ref="334295315"/>
    <nd ref="334285709"/>
    <tag k="footway" v="left"/>
    <tag k="footway:left:bicycle" v="yes"/>
    <tag k="highway" v="residential"/>
    <tag k="maxspeed" v="30"/>
    <tag k="name" v="Hölzern-Kreuz-Weg"/>
  </way>
  <way id="30319954" version="3" timestamp="2009-08-24T22:06:41Z" uid="36809" user="pfoten_weg_!_" changeset="2250603">
    <nd ref="334295341"/>
    <nd ref="334295338"/>
    <nd ref="334295333"/>
    <nd ref="334295329"/>
    <nd ref="334295328"/>
    <nd ref="334295326"/>
    <nd ref="334295323"/>
    <nd ref="334295320"/>
    <nd ref="334295317"/>
    <nd ref="334295289"/>
    <tag k="highway" v="residential"/>
    <tag k="maxspeed" v="30"/>
    <tag k="name" v="Louis-Fürnberg-Straße"/>
    <tag k="nore:de" v="Warnung"/>
  </way>
  <way id="30319954" version="4" timestamp="2009-08-24T22:35:24Z" uid="36809" user="pfoten_weg_!_" changeset="2250754">
    <nd ref="334295341"/>
    <nd ref="334295338"/>
    <nd ref="334295333"/>
    <nd ref="334295329"/>
    <nd ref="334295328"/>
    <nd ref="334295326"/>
    <nd ref="334295323"/>
    <nd ref="334295320"/>
    <nd ref="334295317"/>
    <nd ref="334295289"/>
    <tag k="highway" v="residential"/>
    <tag k="maxspeed" v="30"/>
    <tag k="name" v="Louis-Fürnberg-Straße"/>
  </way>
  <way id="30319954" version="5" timestamp="2009-08-24T22:51:11Z" uid="36809" user="pfoten_weg_!_" changeset="2250819">
    <nd ref="334295341"/>
    <nd ref="334295338"/>
    <nd ref="334295333"/>
    <nd ref="334295329"/>
    <nd ref="334295328"/>
    <nd ref="334295326"/>
    <nd ref="334295323"/>
    <nd ref="334295320"/>
    <nd ref="334295317"/>
    <nd ref="334295289"/>
    <tag k="discovered_by" v="RambaZamba"/>
    <tag k="highway" v="residential"/>
    <tag k="maxspeed" v="30"/>
    <tag k="name" v="Louis-Fürnberg-Straße"/>
  </way>
  <way id="30319954" version="7" timestamp="2009-08-31T21:58:41Z" uid="36809" user="pfoten_weg_!_" changeset="2331993">
    <nd ref="334295341"/>
    <nd ref="334295338"/>
    <nd ref="334295333"/>
    <nd ref="334295329"/>
    <nd ref="334295328"/>
    <nd ref="334295326"/>
    <nd ref="334295323"/>
    <nd ref="334295320"/>
    <nd ref="334295317"/>
    <nd ref="334295289"/>
    <tag k="highway" v="residential"/>
    <tag k="maxspeed" v="30"/>
    <tag k="name" v="Louis-Fürnberg-Straße"/>
  </way>
  <way id="30319970" version="2" timestamp="2009-02-07T17:11:08Z" uid="6975" user="ulfl" changeset="238208">
    <nd ref="334295438"/>
    <nd ref="334295447"/>
    <nd ref="332648615"/>
    <tag k="highway" v="track"/>
    <tag k="tracktype" v="grade3"/>
  </way>
  <way id="30319995" version="13" timestamp="2009-10-07T16:57:38Z" uid="86259" user="hasse_osm_korinthenkacker" changeset="2773624">
    <nd ref="249824344"/>
    <nd ref="249824345"/>
    <nd ref="249824346"/>
    <nd ref="249824347"/>
    <nd ref="249824340"/>
    <nd ref="249824341"/>
    <nd ref="334308757"/>
    <nd ref="249824476"/>
    <nd ref="249824477"/>
    <nd ref="395408264"/>
    <nd ref="249824478"/>
    <nd ref="395408265"/>
    <nd ref="395413889"/>
    <nd ref="249824479"/>
    <nd ref="249824480"/>
    <nd ref="249824481"/>
    <nd ref="249825587"/>
    <nd ref="395409031"/>
    <nd ref="395409139"/>
    <nd ref="249825588"/>
    <nd ref="249825589"/>
    <nd ref="395416520"/>
    <nd ref="395415861"/>
    <nd ref="249825590"/>
    <nd ref="249825591"/>
    <nd ref="249825592"/>
    <nd ref="395413252"/>
    <nd ref="249825593"/>
    <nd ref="249825594"/>
    <nd ref="249825595"/>
    <nd ref="249825596"/>
    <tag k="highway" v="secondary"/>
    <tag k="name" v="Müncherather Straße"/>
  </way>
</osm>
