<?xml version='1.0' encoding='UTF-8'?>
<osm version="0.6" generator="libosmium/2.20.0">
  <way id="30323263" version="7" timestamp="2011-02-27T00:30:46Z" uid="6269" user="Mueck" changeset="7406074">
    <nd ref="247042314"/>
    <nd ref="249183158"/>
    <nd ref="1176016742"/>
    <nd ref="1176016755"/>
    <nd ref="1176016865"/>
    <nd ref="1176016739"/>
    <nd ref="1176016758"/>
    <nd ref="25440454"/>
    <nd ref="1176016827"/>
    <nd ref="1176016689"/>
    <nd ref="1176016843"/>
    <nd ref="333303132"/>
    <nd ref="1176016727"/>
    <nd ref="1023292961"/>
    <nd ref="1023293000"/>
    <nd ref="31502270"/>
    <tag k="electrified" v="no"/>
    <tag k="frequency" v="16.7"/>
    <tag k="gauge" v="1435"/>
    <tag k="railway" v="rail"/>
    <tag k="tracks" v="1"/>
    <tag k="usage" v="main"/>
    <tag k="voltage" v="15000"/>
  </way>
  <way id="30323263" version="8" timestamp="2011-02-27T13:22:00Z" uid="6269" user="Mueck" changeset="7409865">
    <nd ref="247042314"/>
    <nd ref="249183158"/>
    <nd ref="1176016742"/>
    <nd ref="1176016755"/>
    <nd ref="1176016865"/>
    <nd ref="1176016739"/>
    <nd ref="1176016758"/>
    <nd ref="25440454"/>
    <nd ref="1176016827"/>
    <nd ref="1176016689"/>
    <nd ref="1176016843"/>
    <nd ref="333303132"/>
    <nd ref="1176016727"/>
    <nd ref="1023292961"/>
    <nd ref="1023293000"/>
    <nd ref="31502270"/>
    <tag k="electrified" v="contact_line"/>
    <tag k="frequency" v="16.7"/>
    <tag k="gauge" v="1435"/>
    <tag k="railway" v="rail"/>
    <tag k="tracks" v="1"/>
    <tag k="usage" v="main"/>
    <tag k="voltage" v="15000"/>
  </way>
  <way id="30323263" version="9" timestamp="2011-02-27T23:27:46Z" uid="6269" user="Mueck" changeset="7416514">
    <nd ref="247042314"/>
    <nd ref="249183158"/>
    <nd ref="1176016742"/>
    <nd ref="1176016755"/>
    <nd ref="1176016865"/>
    <nd ref="1176016739"/>
    <nd ref="1176016758"/>
    <nd ref="25440454"/>
    <nd ref="1176016827"/>
    <nd ref="1176016689"/>
    <nd ref="1176016843"/>
    <nd ref="333303132"/>
    <nd ref="1176016727"/>
    <nd ref="1023292961"/>
    <nd ref="1023293000"/>
    <nd ref="31502270"/>
    <tag k="electrified" v="contact_line"/>
    <tag k="frequency" v="16.7"/>
    <tag k="gauge" v="1435"/>
    <tag k="operator" v="DB Netz"/>
    <tag k="railway" v="rail"/>
    <tag k="ref" v="6"/>
    <tag k="tracks" v="1"/>
    <tag k="usage" v="main"/>
    <tag k="voltage" v="15000"/>
    <tag k="workrule" v="EBO"/>
  </way>
  <way id="30323263" version="10" timestamp="2011-02-28T00:20:25Z" uid="6269" user="Mueck" changeset="7416756"/>
  <way id="30323264" version="3" timestamp="2011-02-27T00:30:47Z" uid="6269" user="Mueck" changeset="7406074">
    <nd ref="247042544"/>
    <nd ref="1176016656"/>
    <nd ref="1176016782"/>
    <nd ref="379520419"/>
    <nd ref="379520416"/>
    <nd ref="1176016787"/>
    <nd ref="379520430"/>
    <nd ref="1176016687"/>
    <nd ref="421648990"/>
    <nd ref="379520422"/>
    <nd ref="1176016732"/>
    <nd ref="1176081631"/>
    <nd ref="1176081650"/>
    <nd ref="1176081660"/>
    <nd ref="247041390"/>
    <tag k="electrified" v="no"/>
    <tag k="frequency" v="16.7"/>
    <tag k="gauge" v="1435"/>
    <tag k="railway" v="rail"/>
    <tag k="tracks" v="1"/>
    <tag k="usage" v="main"/>
    <tag k="voltage" v="15000"/>
  </way>
  <way id="30323264" version="4" timestamp="2011-02-27T13:22:01Z" uid="6269" user="Mueck" changeset="7409865">
    <nd ref="247042544"/>
    <nd ref="1176016656"/>
    <nd ref="1176016782"/>
    <nd ref="379520419"/>
    <nd ref="379520416"/>
    <nd ref="1176016787"/>
    <nd ref="379520430"/>
    <nd ref="1176016687"/>
    <nd ref="421648990"/>
    <nd ref="379520422"/>
    <nd ref="1176016732"/>
    <nd ref="1176081631"/>
    <nd ref="1176081650"/>
    <nd ref="1176081660"/>
    <nd ref="247041390"/>
    <tag k="electrified" v="contact_line"/>
    <tag k="frequency" v="16.7"/>
    <tag k="gauge" v="1435"/>
    <tag k="railway" v="rail"/>
    <tag k="tracks" v="1"/>
    <tag k="usage" v="main"/>
    <tag k="voltage" v="15000"/>
  </way>
  <way id="30323264" version="5" timestamp="2011-02-27T23:27:46Z" uid="6269" user="Mueck" changeset="7416514">
    <nd ref="247042544"/>
    <nd ref="1176016656"/>
    <nd ref="1176016782"/>
    <nd ref="379520419"/>
    <nd ref="379520416"/>
    <nd ref="1176016787"/>
    <nd ref="379520430"/>
    <nd ref="1176016687"/>
    <nd ref="421648990"/>
    <nd ref="379520422"/>
    <nd ref="1176016732"/>
    <nd ref="1176081631"/>
    <nd ref="1176081650"/>
    <nd ref="1176081660"/>
    <nd ref="247041390"/>
    <tag k="electrified" v="contact_line"/>
    <tag k="frequency" v="16.7"/>
    <tag k="gauge" v="1435"/>
    <tag k="operator" v="DB Netz"/>
    <tag k="railway" v="rail"/>
    <tag k="ref" v="1"/>
    <tag k="tracks" v="1"/>
    <tag k="usage" v="main"/>
    <tag k="voltage" v="15000"/>
    <tag k="workrule" v="EBO"/>
  </way>
  <way id="30323264" version="6" timestamp="2011-02-28T00:19:47Z" uid="6269" user="Mueck" changeset="7416756">
    <nd ref="247042544"/>
    <nd ref="1176016656"/>
    <nd ref="1176016782"/>
    <nd ref="379520419"/>
    <nd ref="379520416"/>
    <nd ref="1176016787"/>
    <nd ref="379520430"/>
    <nd ref="1176016687"/>
    <nd ref="421648990"/>
    <nd ref="379520422"/>
    <nd ref="1176016732"/>
    <nd ref="1176081631"/>
    <nd ref="1176081650"/>
    <nd ref="1176081660"/>
    <nd ref="247041390"/>
    <tag k="electrified" v="contact_line"/>
    <tag k="frequency" v="16.7"/>
    <tag k="gauge" v="1435"/>
    <tag k="operator" v="DB Netz"/>
    <tag k="railway" v="rail"/>
    <tag k="ref" v="1"/>
    <tag k="tracks" v="1"/>
    <tag k="usage" v="main"/>
    <tag k="voltage" v="15000"/>
    <tag k="workrules" v="EBO"/>
  </way>
  <way id="30323264" version="7" timestamp="2011-02-28T18:18:40Z" uid="6269" user="Mueck" changeset="7422830">
    <nd ref="1020505198"/>
    <nd ref="1179351449"/>
    <nd ref="247042544"/>
    <nd ref="1176016656"/>
    <nd ref="1176016782"/>
    <nd ref="379520419"/>
    <nd ref="379520416"/>
    <nd ref="1176016787"/>
    <nd ref="379520430"/>
    <nd ref="1176016687"/>
    <nd ref="421648990"/>
    <nd ref="379520422"/>
    <nd ref="1176016732"/>
    <nd ref="1176081631"/>
    <nd ref="1176081650"/>
    <nd ref="1176081660"/>
    <nd ref="247041390"/>
    <tag k="electrified" v="contact_line"/>
    <tag k="frequency" v="16.7"/>
    <tag k="gauge" v="1435"/>
    <tag k="operator" v="DB Netz"/>
    <tag k="railway" v="rail"/>
    <tag k="ref" v="1"/>
    <tag k="tracks" v="1"/>
    <tag k="usage" v="main"/>
    <tag k="voltage" v="15000"/>
    <tag k="workrules" v="EBO"/>
  </way>
  <way id="30323418" version="4" timestamp="2010-05-02T16:11:31Z" uid="58091" user="Andreas M" changeset="4586807">
    <nd ref="25267632"/>
    <nd ref="319731619"/>
    <nd ref="339438511"/>
    <nd ref="25267633"/>
    <tag k="cycleway" v="opposite"/>
    <tag k="highway" v="residential"/>
    <tag k="name" v="Schottengasse"/>
    <tag k="oneway" v="yes"/>
  </way>
  <way id="30323419" version="1" timestamp="2009-01-20T20:33:11Z" uid="20587" user="balrog-kun" changeset="817713">
    <nd ref="334348827"/>
    <nd ref="334348829"/>
    <nd ref="334348832"/>
    <nd ref="334348835"/>
    <nd ref="334348836"/>
    <tag k="highway" v="living_street"/>
    <tag k="name" v="Dunajecka"/>
  </way>
  <way id="30323421" version="1" timestamp="2009-01-20T20:33:12Z" uid="20587" user="balrog-kun" changeset="817713">
    <nd ref="334348840"/>
    <nd ref="334348842"/>
    <nd ref="334348846"/>
    <nd ref="334348844"/>
    <nd ref="334348840"/>
    <tag k="addr:housenumber" v="7"/>
    <tag k="addr:postcode" v="02-366"/>
    <tag k="addr:street" v="Bitwy Warszawskiej 1920 roku"/>
    <tag k="building" v="yes"/>
    <tag k="building:levels" v="8"/>
    <tag k="name" v="Business Centre"/>
    <tag k="operator" v="Grupa Żywiec"/>
  </way>
  <way id="30323423" version="1" timestamp="2009-01-20T20:33:14Z" uid="20587" user="balrog-kun" changeset="817713">
    <nd ref="334348853"/>
    <nd ref="334348848"/>
    <nd ref="334348851"/>
    <nd ref="334348857"/>
    <nd ref="334348853"/>
  </way>
  <way id="30323424" version="1" timestamp="2009-01-20T20:33:15Z" uid="20587" user="balrog-kun" changeset="817713">
    <nd ref="334348882"/>
    <nd ref="334348869"/>
    <nd ref="334348860"/>
    <nd ref="334348889"/>
    <nd ref="334348882"/>
  </way>
  <way id="30323425" version="1" timestamp="2009-01-20T20:33:15Z" uid="20587" user="balrog-kun" changeset="817713">
    <nd ref="334348884"/>
    <nd ref="334348887"/>
    <nd ref="334348866"/>
    <nd ref="334348877"/>
    <nd ref="334348884"/>
  </way>
  <way id="30323426" version="1" timestamp="2009-01-20T20:33:16Z" uid="20587" user="balrog-kun" changeset="817713">
    <nd ref="334348891"/>
    <nd ref="334348894"/>
    <nd ref="334348899"/>
    <nd ref="334348897"/>
    <nd ref="334348891"/>
    <tag k="addr:housenumber" v="1"/>
    <tag k="addr:street" v="Bitwy Warszawskiej 1920 roku"/>
    <tag k="building" v="yes"/>
    <tag k="source:addr" v="msi"/>
  </way>
  <way id="30323426" version="2" timestamp="2009-12-06T23:55:56Z" uid="20587" user="balrog-kun" changeset="3311730">
    <nd ref="334348891"/>
    <nd ref="334348894"/>
    <nd ref="334348899"/>
    <nd ref="334348897"/>
    <nd ref="334348891"/>
    <tag k="addr:housenumber" v="1"/>
    <tag k="addr:street" v="Bitwy Warszawskiej 1920 roku"/>
    <tag k="building" v="residential"/>
    <tag k="building:levels" v="4"/>
    <tag k="source:addr" v="msi"/>
  </way>
  <way id="30323427" version="1" timestamp="2009-01-20T20:33:16Z" uid="20587" user="balrog-kun" changeset="817713">
    <nd ref="334348901"/>
    <nd ref="334348904"/>
    <nd ref="334348909"/>
    <nd ref="334348906"/>
    <nd ref="334348901"/>
    <tag k="addr:housenumber" v="3"/>
    <tag k="addr:street" v="Bitwy Warszawskiej 1920 roku"/>
    <tag k="building" v="yes"/>
    <tag k="source:addr" v="msi"/>
  </way>
  <way id="30323427" version="2" timestamp="2009-05-12T07:11:26Z" uid="20587" user="balrog-kun" changeset="1161692">
    <nd ref="334348901"/>
    <nd ref="334348904"/>
    <nd ref="334348909"/>
    <nd ref="334348906"/>
    <nd ref="334348901"/>
    <tag k="addr:housenumber" v="3"/>
    <tag k="addr:street" v="Bitwy Warszawskiej 1920 roku"/>
    <tag k="building" v="yes"/>
    <tag k="building:levels" v="3"/>
    <tag k="name" v="Instytut Badawczy Leśnictwa"/>
    <tag k="name:en" v="Forest Research Institute"/>
    <tag k="wikipedia" v="pl:Instytut Badawczy Leśnictwa"/>
  </way>
  <way id="30323428" version="1" timestamp="2009-01-20T20:33:17Z" uid="20587" user="balrog-kun" changeset="817713">
    <nd ref="334348914"/>
    <nd ref="334348916"/>
    <nd ref="334348921"/>
    <nd ref="334348918"/>
    <nd ref="334348914"/>
    <tag k="addr:housenumber" v="6"/>
    <tag k="addr:street" v="Dunajecka"/>
    <tag k="building" v="yes"/>
    <tag k="source:addr" v="msi"/>
  </way>
  <way id="30323428" version="2" timestamp="2009-12-06T23:55:54Z" uid="20587" user="balrog-kun" changeset="3311730">
    <nd ref="334348914"/>
    <nd ref="334348916"/>
    <nd ref="334348921"/>
    <nd ref="334348918"/>
    <nd ref="334348914"/>
    <tag k="addr:housenumber" v="6"/>
    <tag k="addr:street" v="Dunajecka"/>
    <tag k="building" v="residential"/>
    <tag k="building:levels" v="5"/>
    <tag k="source:addr" v="msi"/>
  </way>
  <way id="30323429" version="1" timestamp="2009-01-20T20:33:17Z" uid="20587" user="balrog-kun" changeset="817713">
    <nd ref="334348923"/>
    <nd ref="334348927"/>
    <nd ref="334348929"/>
    <nd ref="334348925"/>
    <nd ref="334348923"/>
    <tag k="addr:housenumber" v="8"/>
    <tag k="addr:street" v="Dunajecka"/>
    <tag k="building" v="yes"/>
    <tag k="source:addr" v="msi"/>
  </way>
  <way id="30323429" version="2" timestamp="2009-12-06T23:55:53Z" uid="20587" user="balrog-kun" changeset="3311730">
    <nd ref="334348923"/>
    <nd ref="334348927"/>
    <nd ref="334348929"/>
    <nd ref="334348925"/>
    <nd ref="334348923"/>
    <tag k="addr:housenumber" v="8"/>
    <tag k="addr:street" v="Dunajecka"/>
    <tag k="building" v="residential"/>
    <tag k="building:levels" v="3"/>
    <tag k="source:addr" v="msi"/>
  </way>
  <way id="30323430" version="1" timestamp="2009-01-20T20:33:18Z" uid="20587" user="balrog-kun" changeset="817713">
    <nd ref="334348932"/>
    <nd ref="334348934"/>
    <nd ref="334348938"/>
    <nd ref="334348936"/>
    <nd ref="334348932"/>
    <tag k="addr:housenumber" v="2"/>
    <tag k="addr:street" v="Dunajecka"/>
    <tag k="building" v="yes"/>
    <tag k="source:addr" v="msi"/>
  </way>
  <way id="30323430" version="2" timestamp="2009-12-06T23:55:56Z" uid="20587" user="balrog-kun" changeset="3311730">
    <nd ref="334348932"/>
    <nd ref="334348934"/>
    <nd ref="334348938"/>
    <nd ref="334348936"/>
    <nd ref="334348932"/>
    <tag k="addr:housenumber" v="2"/>
    <tag k="addr:street" v="Dunajecka"/>
    <tag k="building" v="yes"/>
    <tag k="building:levels" v="4"/>
    <tag k="source:addr" v="msi"/>
  </way>
  <way id="30323431" version="1" timestamp="2009-01-20T20:33:19Z" uid="20587" user="balrog-kun" changeset="817713">
    <nd ref="334349017"/>
    <nd ref="334349046"/>
    <nd ref="334349043"/>
    <nd ref="334349013"/>
    <nd ref="334349017"/>
    <tag k="addr:housenumber" v="14"/>
    <tag k="addr:street" v="Białobrzeska"/>
    <tag k="building" v="yes"/>
    <tag k="source:addr" v="msi"/>
  </way>
  <way id="30323432" version="1" timestamp="2009-01-20T20:33:20Z" uid="20587" user="balrog-kun" changeset="817713">
    <nd ref="334348957"/>
    <nd ref="334348955"/>
    <nd ref="334348950"/>
    <nd ref="334348952"/>
    <nd ref="334348957"/>
    <tag k="addr:housenumber" v="14"/>
    <tag k="addr:street" v="Opaczewska"/>
    <tag k="building" v="yes"/>
    <tag k="source:addr" v="msi"/>
  </way>
  <way id="30323433" version="1" timestamp="2009-01-20T20:33:22Z" uid="20587" user="balrog-kun" changeset="817713">
    <nd ref="334348941"/>
    <nd ref="334348943"/>
    <nd ref="334348948"/>
    <nd ref="334348945"/>
    <nd ref="334348941"/>
    <tag k="amenity" v="parking"/>
  </way>
  <way id="30323434" version="1" timestamp="2009-01-20T20:33:22Z" uid="20587" user="balrog-kun" changeset="817713">
    <nd ref="334348996"/>
    <nd ref="334349000"/>
    <nd ref="334349002"/>
    <nd ref="334348998"/>
    <nd ref="334348996"/>
    <tag k="building" v="yes"/>
  </way>
  <way id="30323435" version="1" timestamp="2009-01-20T20:33:23Z" uid="20587" user="balrog-kun" changeset="817713">
    <nd ref="334349014"/>
    <nd ref="334349015"/>
    <nd ref="334348952"/>
    <nd ref="334348950"/>
    <nd ref="334349017"/>
    <nd ref="334349013"/>
    <nd ref="334349014"/>
    <tag k="addr:housenumber" v="16"/>
    <tag k="addr:street" v="Opaczewska"/>
    <tag k="building" v="yes"/>
    <tag k="source:addr" v="msi"/>
  </way>
  <way id="30323436" version="1" timestamp="2009-01-20T20:33:24Z" uid="20587" user="balrog-kun" changeset="817713">
    <nd ref="334348976"/>
    <nd ref="334348955"/>
    <nd ref="334348957"/>
    <nd ref="334349005"/>
    <nd ref="334349007"/>
    <nd ref="334348980"/>
    <nd ref="334348992"/>
    <nd ref="334348985"/>
    <nd ref="334348976"/>
    <tag k="addr:housenumber" v="12"/>
    <tag k="addr:street" v="Opaczewska"/>
    <tag k="building" v="yes"/>
    <tag k="source:addr" v="msi"/>
  </way>
  <way id="30323438" version="1" timestamp="2009-01-20T20:33:25Z" uid="20587" user="balrog-kun" changeset="817713">
    <nd ref="334348961"/>
    <nd ref="334348966"/>
    <nd ref="334348963"/>
    <nd ref="334348959"/>
    <nd ref="334348961"/>
    <tag k="addr:housenumber" v="8"/>
    <tag k="addr:street" v="Opaczewska"/>
    <tag k="building" v="yes"/>
    <tag k="name" v="Komenda Rejonowa Policji"/>
    <tag k="source:addr" v="msi"/>
  </way>
  <way id="30323439" version="1" timestamp="2009-01-20T20:33:28Z" uid="20587" user="balrog-kun" changeset="817713">
    <nd ref="334348959"/>
    <nd ref="334348980"/>
    <nd ref="334349007"/>
    <nd ref="334348961"/>
    <nd ref="334348959"/>
    <tag k="addr:housenumber" v="10"/>
    <tag k="addr:street" v="Opaczewska"/>
    <tag k="building" v="yes"/>
    <tag k="source:addr" v="msi"/>
  </way>
  <way id="30323440" version="1" timestamp="2009-01-20T20:33:29Z" uid="20587" user="balrog-kun" changeset="817713">
    <nd ref="334348968"/>
    <nd ref="334348963"/>
    <nd ref="334348966"/>
    <nd ref="334348970"/>
    <nd ref="334348968"/>
    <tag k="addr:housenumber" v="6"/>
    <tag k="addr:street" v="Opaczewska"/>
    <tag k="building" v="yes"/>
    <tag k="source:addr" v="msi"/>
  </way>
  <way id="30323441" version="1" timestamp="2009-01-20T20:33:30Z" uid="20587" user="balrog-kun" changeset="817713">
    <nd ref="334349011"/>
    <nd ref="334348972"/>
    <nd ref="334349009"/>
    <nd ref="334348968"/>
    <nd ref="334348970"/>
    <nd ref="334348974"/>
    <nd ref="334349011"/>
    <tag k="addr:housenumber" v="4"/>
    <tag k="addr:street" v="Opaczewska"/>
    <tag k="building" v="yes"/>
    <tag k="source:addr" v="msi"/>
  </way>
  <way id="30323442" version="1" timestamp="2009-01-20T20:33:32Z" uid="20587" user="balrog-kun" changeset="817713">
    <nd ref="334349028"/>
    <nd ref="334349024"/>
    <nd ref="334349021"/>
    <nd ref="334349026"/>
    <nd ref="334349028"/>
    <tag k="addr:housenumber" v="13"/>
    <tag k="addr:street" v="Dunajecka"/>
    <tag k="building" v="yes"/>
    <tag k="source:addr" v="msi"/>
  </way>
  <way id="30323443" version="1" timestamp="2009-01-20T20:33:35Z" uid="20587" user="balrog-kun" changeset="817713">
    <nd ref="334349028"/>
    <nd ref="334349026"/>
    <nd ref="334349031"/>
    <nd ref="334349035"/>
    <nd ref="334349040"/>
    <nd ref="334349043"/>
    <nd ref="334349046"/>
    <nd ref="334349033"/>
    <nd ref="334349028"/>
    <tag k="addr:housenumber" v="15"/>
    <tag k="addr:street" v="Dunajecka"/>
    <tag k="building" v="yes"/>
    <tag k="source:addr" v="msi"/>
  </way>
  <way id="30323444" version="1" timestamp="2009-01-20T20:33:36Z" uid="20587" user="balrog-kun" changeset="817713">
    <nd ref="334349052"/>
    <nd ref="334349065"/>
    <nd ref="334349061"/>
    <nd ref="334349060"/>
    <nd ref="334349048"/>
    <nd ref="334349052"/>
    <tag k="building" v="yes"/>
    <tag k="note" v="TODO: addresses"/>
  </way>
  <way id="30323445" version="1" timestamp="2009-01-20T20:33:38Z" uid="20587" user="balrog-kun" changeset="817713">
    <nd ref="334349049"/>
    <nd ref="334349063"/>
    <nd ref="334349062"/>
    <nd ref="334349067"/>
    <nd ref="334349066"/>
    <nd ref="334349054"/>
    <nd ref="334349049"/>
    <tag k="building" v="yes"/>
    <tag k="note" v="TODO: addresses"/>
  </way>
  <way id="30323445" version="2" timestamp="2009-04-15T10:11:40Z" uid="20587" user="balrog-kun" changeset="551593">
    <nd ref="334349049"/>
    <nd ref="334349063"/>
    <nd ref="334349062"/>
    <nd ref="334349067"/>
    <nd ref="334349066"/>
    <nd ref="334349054"/>
    <nd ref="334349049"/>
    <tag k="addr:housenumber" v="104"/>
    <tag k="addr:street" v="Grójecka"/>
    <tag k="building" v="yes"/>
  </way>
  <way id="30323447" version="1" timestamp="2009-01-20T20:33:39Z" uid="20587" user="balrog-kun" changeset="817713">
    <nd ref="334349061"/>
    <nd ref="334349065"/>
    <nd ref="334349064"/>
    <nd ref="334349066"/>
    <nd ref="334349067"/>
    <nd ref="334349061"/>
    <tag k="building" v="yes"/>
    <tag k="note" v="TODO: addresses"/>
  </way>
  <way id="30323515" version="1" timestamp="2009-01-20T20:38:14Z" uid="6269" user="Mueck" changeset="817451">
    <nd ref="17069091"/>
    <nd ref="25278259"/>
    <tag k="created_by" v="Potlatch 0.10f"/>
    <tag k="highway" v="residential"/>
    <tag k="name" v="Cäciliastraße"/>
  </way>
  <way id="30323515" version="2" timestamp="2009-01-20T20:39:08Z" uid="6269" user="Mueck" changeset="817451">
    <nd ref="25278259"/>
    <nd ref="334351282"/>
    <tag k="created_by" v="Potlatch 0.10f"/>
    <tag k="highway" v="residential"/>
    <tag k="name" v="Cäciliastraße"/>
    <tag k="note" v="FIXME: Westende geschätzt korrigiert"/>
  </way>
  <way id="30323515" version="5" timestamp="2011-03-31T00:31:24Z" uid="6269" user="Mueck" changeset="7721806">
    <nd ref="25278259"/>
    <nd ref="1226195868"/>
    <nd ref="1226195862"/>
    <nd ref="334351282"/>
    <tag k="highway" v="residential"/>
    <tag k="name" v="Cäciliastraße"/>
  </way>
  <way id="30323531" version="1" timestamp="2009-01-20T20:39:36Z" uid="20587" user="balrog-kun" changeset="817713">
    <nd ref="334351421"/>
    <nd ref="248664536"/>
    <tag k="highway" v="living_street"/>
    <tag k="name" v="Przemuska"/>
  </way>
  <way id="30323531" version="4" timestamp="2009-01-30T18:11:43Z" uid="20587" user="balrog-kun" changeset="855125">
    <nd ref="334351421"/>
    <nd ref="248664536"/>
    <tag k="highway" v="living_street"/>
    <tag k="name" v="Przemyska"/>
  </way>
  <way id="30323533" version="1" timestamp="2009-01-20T20:39:36Z" uid="20587" user="balrog-kun" changeset="817713">
    <nd ref="334351422"/>
    <nd ref="334351424"/>
    <tag k="highway" v="residential"/>
    <tag k="name" v="Siewierska"/>
  </way>
  <way id="30323555" version="2" timestamp="2009-12-21T09:37:04Z" uid="23543" user="jkjk" changeset="3418757">
    <nd ref="334352118"/>
    <nd ref="597577442"/>
    <nd ref="334352121"/>
    <tag k="highway" v="residential"/>
    <tag k="name" v="Vozová"/>
  </way>
  <way id="30323563" version="7" timestamp="2011-04-19T00:42:26Z" uid="23543" user="jkjk" changeset="7902630">
    <nd ref="334352418"/>
    <nd ref="715678233"/>
    <nd ref="715678218"/>
    <nd ref="715678220"/>
    <nd ref="299170093"/>
    <nd ref="715678136"/>
    <nd ref="715678115"/>
    <nd ref="715678117"/>
    <nd ref="715678086"/>
    <nd ref="299170143"/>
    <nd ref="715678023"/>
    <nd ref="715677868"/>
    <nd ref="715677837"/>
    <nd ref="299170144"/>
    <nd ref="715677785"/>
    <nd ref="715677784"/>
    <nd ref="299170145"/>
    <nd ref="299170146"/>
    <nd ref="299170147"/>
    <nd ref="299170099"/>
    <nd ref="715677660"/>
    <nd ref="299170148"/>
    <nd ref="715677625"/>
    <nd ref="715677571"/>
    <nd ref="299170149"/>
    <nd ref="1026049797"/>
    <nd ref="299170150"/>
    <nd ref="715677517"/>
    <nd ref="299170151"/>
    <tag k="layer" v="0"/>
    <tag k="name" v="Metropolitana di Catania"/>
    <tag k="operator" v="Ferrovia Circumetnea"/>
    <tag k="railway" v="subway"/>
    <tag k="tunnel" v="no"/>
  </way>
  <way id="30323567" version="1" timestamp="2009-01-20T20:42:24Z" uid="20587" user="balrog-kun" changeset="817713">
    <nd ref="334352554"/>
    <nd ref="334352557"/>
    <tag k="highway" v="living_street"/>
    <tag k="name" v="Nieborowska"/>
  </way>
  <way id="30323589" version="1" timestamp="2009-01-20T20:43:16Z" uid="6269" user="Mueck" changeset="817451">
    <nd ref="25297222"/>
    <nd ref="16816742"/>
    <tag k="created_by" v="Potlatch 0.10f"/>
    <tag k="highway" v="cycleway"/>
    <tag k="layer" v="-1"/>
  </way>
  <way id="30323589" version="2" timestamp="2009-01-20T20:43:27Z" uid="6269" user="Mueck" changeset="817451">
    <nd ref="25297222"/>
    <nd ref="16816742"/>
    <tag k="created_by" v="Potlatch 0.10f"/>
    <tag k="highway" v="cycleway"/>
  </way>
  <way id="30323589" version="6" timestamp="2011-04-01T17:32:50Z" uid="6269" user="Mueck" changeset="7737379">
    <nd ref="25297222"/>
    <nd ref="1228105007"/>
    <nd ref="607911774"/>
    <nd ref="16816742"/>
    <nd ref="1228104689"/>
    <nd ref="546653686"/>
    <nd ref="546653707"/>
    <tag k="foot" v="yes"/>
    <tag k="highway" v="cycleway"/>
  </way>
  <way id="30323634" version="3" timestamp="2009-06-05T13:38:52Z" uid="43863" user="Rundling" changeset="1429438">
    <nd ref="286813071"/>
    <nd ref="286813073"/>
    <tag k="highway" v="residential"/>
    <tag k="name" v="Heideweg"/>
    <tag k="surface" v="paved"/>
  </way>
  <way id="30323651" version="1" timestamp="2009-01-20T20:45:44Z" uid="6269" user="Mueck" changeset="817451">
    <nd ref="334353299"/>
    <nd ref="334354011"/>
    <tag k="created_by" v="Potlatch 0.10f"/>
    <tag k="highway" v="cycleway"/>
    <tag k="layer" v="-1"/>
    <tag k="tunnel" v="yes"/>
  </way>
  <way id="30323651" version="3" timestamp="2009-09-14T20:34:13Z" uid="6269" user="Mueck" changeset="2486655">
    <nd ref="334353299"/>
    <nd ref="334354011"/>
    <tag k="highway" v="cycleway"/>
  </way>
  <way id="30323651" version="4" timestamp="2011-04-01T17:32:50Z" uid="6269" user="Mueck" changeset="7737379">
    <nd ref="334353299"/>
    <nd ref="1228104957"/>
    <nd ref="334354011"/>
    <tag k="highway" v="cycleway"/>
  </way>
  <way id="30323793" version="2" timestamp="2009-06-05T13:47:47Z" uid="43863" user="Rundling" changeset="1429500">
    <nd ref="26105749"/>
    <nd ref="26105707"/>
    <nd ref="26105747"/>
    <nd ref="89327639"/>
    <nd ref="293952782"/>
    <nd ref="26105703"/>
    <nd ref="314678681"/>
    <nd ref="293952635"/>
    <nd ref="26105758"/>
    <nd ref="21404262"/>
    <nd ref="21404261"/>
    <nd ref="21404260"/>
    <nd ref="21404259"/>
    <nd ref="21404258"/>
    <nd ref="21404257"/>
    <nd ref="21404256"/>
    <nd ref="21404255"/>
    <nd ref="21404254"/>
    <nd ref="21430836"/>
    <nd ref="21404253"/>
    <nd ref="21404252"/>
    <nd ref="21404251"/>
    <nd ref="21404250"/>
    <nd ref="21404249"/>
    <nd ref="21404248"/>
    <nd ref="21404247"/>
    <tag k="highway" v="primary"/>
    <tag k="ref" v="B 4; B 191"/>
  </way>
  <way id="30323793" version="3" timestamp="2009-08-19T14:23:31Z" uid="43863" user="Rundling" changeset="2201840">
    <nd ref="26105749"/>
    <nd ref="26105707"/>
    <nd ref="26105747"/>
    <nd ref="89327639"/>
    <nd ref="293952782"/>
    <nd ref="26105703"/>
    <nd ref="314678681"/>
    <nd ref="293952635"/>
    <nd ref="26105758"/>
    <nd ref="21404262"/>
    <nd ref="21404261"/>
    <nd ref="21404260"/>
    <nd ref="21404259"/>
    <nd ref="21404258"/>
    <nd ref="21404257"/>
    <nd ref="21404256"/>
    <nd ref="21404255"/>
    <nd ref="21404254"/>
    <nd ref="21430836"/>
    <nd ref="21404253"/>
    <nd ref="21404252"/>
    <nd ref="21404251"/>
    <nd ref="21404250"/>
    <nd ref="21404249"/>
    <nd ref="21404248"/>
    <nd ref="21404247"/>
    <tag k="highway" v="primary"/>
    <tag k="name" v="Uhlenring"/>
    <tag k="ref" v="B 4"/>
  </way>
  <way id="30323793" version="5" timestamp="2009-12-31T09:59:38Z" uid="43863" user="Rundling" changeset="3498919">
    <nd ref="26105749"/>
    <nd ref="26105707"/>
    <nd ref="26105747"/>
    <nd ref="89327639"/>
    <nd ref="293952782"/>
    <nd ref="26105703"/>
    <nd ref="293952635"/>
    <nd ref="26105758"/>
    <nd ref="21404262"/>
    <nd ref="21404261"/>
    <nd ref="21404260"/>
    <nd ref="21404259"/>
    <nd ref="21404258"/>
    <nd ref="21404257"/>
    <nd ref="21404256"/>
    <nd ref="21404255"/>
    <nd ref="21404254"/>
    <nd ref="21430836"/>
    <nd ref="21404253"/>
    <nd ref="21404252"/>
    <nd ref="21404251"/>
    <nd ref="21404250"/>
    <nd ref="21404249"/>
    <nd ref="21404248"/>
    <nd ref="21404247"/>
    <tag k="highway" v="primary"/>
    <tag k="name" v="Uhlenring"/>
    <tag k="ref" v="B 4"/>
  </way>
  <way id="30323793" version="7" timestamp="2011-02-06T19:02:22Z" uid="43863" user="Rundling" changeset="7208079">
    <nd ref="26105749"/>
    <nd ref="26105707"/>
    <nd ref="26105747"/>
    <nd ref="89327639"/>
    <nd ref="293952782"/>
    <nd ref="26105703"/>
    <nd ref="1139553708"/>
    <nd ref="293952635"/>
    <nd ref="26105758"/>
    <nd ref="1139553748"/>
    <nd ref="21404262"/>
    <nd ref="21404261"/>
    <nd ref="21404260"/>
    <nd ref="21404259"/>
    <nd ref="21404258"/>
    <nd ref="21404257"/>
    <nd ref="21404256"/>
    <nd ref="21404255"/>
    <nd ref="21404254"/>
    <nd ref="616728202"/>
    <tag k="highway" v="primary"/>
    <tag k="name" v="Uhlenring"/>
    <tag k="ref" v="B 4"/>
  </way>
  <way id="30323798" version="2" timestamp="2009-02-22T10:34:15Z" uid="58091" user="Andreas M" changeset="606483">
    <nd ref="61846238"/>
    <nd ref="349042355"/>
    <nd ref="61846010"/>
    <nd ref="61846013"/>
    <nd ref="349042359"/>
    <nd ref="98808835"/>
    <nd ref="25280881"/>
    <nd ref="349042365"/>
    <nd ref="61846777"/>
    <nd ref="61849337"/>
    <nd ref="25280880"/>
    <tag k="created_by" v="Potlatch 0.10f"/>
    <tag k="highway" v="residential"/>
    <tag k="name" v="Ratschkygasse"/>
    <tag k="oneway" v="yes"/>
  </way>
  <way id="30323858" version="3" timestamp="2009-02-20T16:31:29Z" uid="58091" user="Andreas M" changeset="580553">
    <nd ref="61847693"/>
    <nd ref="61847563"/>
    <nd ref="61847366"/>
    <tag k="created_by" v="Potlatch 0.10f"/>
    <tag k="highway" v="residential"/>
    <tag k="name" v="Schwenkgasse"/>
  </way>
  <way id="30323941" version="2" timestamp="2009-02-22T10:34:10Z" uid="58091" user="Andreas M" changeset="606483">
    <nd ref="61848330"/>
    <nd ref="98808831"/>
    <nd ref="25280886"/>
    <nd ref="349042389"/>
    <nd ref="25280882"/>
    <nd ref="25280885"/>
    <nd ref="61849353"/>
    <nd ref="91567972"/>
    <nd ref="349042383"/>
    <nd ref="61847693"/>
    <tag k="created_by" v="Potlatch 0.10f"/>
    <tag k="highway" v="residential"/>
    <tag k="name" v="Tivoligasse"/>
  </way>
  <way id="30323963" version="3" timestamp="2009-06-05T13:42:10Z" uid="43863" user="Rundling" changeset="1429453">
    <nd ref="334360876"/>
    <nd ref="314750752"/>
    <nd ref="314396740"/>
    <nd ref="59187030"/>
    <nd ref="59187033"/>
    <nd ref="89327690"/>
    <tag k="highway" v="tertiary"/>
    <tag k="name" v="Holdenstedter Straße"/>
    <tag k="ref" v="K 8"/>
  </way>
  <way id="30323999" version="4" timestamp="2010-03-22T05:45:06Z" uid="20587" user="balrog-kun" changeset="4199043">
    <nd ref="334361281"/>
    <nd ref="334361283"/>
    <tag k="highway" v="residential"/>
    <tag k="name" v="Southwest Wright PL"/>
  </way>
</osm>
