<?xml version='1.0' encoding='UTF-8'?>
<osm version="0.6" generator="libosmium/2.20.0">
  <way id="30438076" version="2" timestamp="2010-07-22T17:34:30Z" uid="9581" user="Lobelt" changeset="5289481">
    <nd ref="335905889"/>
    <nd ref="335905890"/>
    <nd ref="335905891"/>
    <nd ref="335905892"/>
    <nd ref="829113029"/>
    <nd ref="829113070"/>
    <nd ref="335905893"/>
    <nd ref="335905889"/>
    <tag k="landuse" v="cemetery"/>
    <tag k="name" v="Hauptfriedhof Weinheim"/>
  </way>
  <way id="30438113" version="2" timestamp="2009-10-05T18:47:55Z" uid="9581" user="Lobelt" changeset="2753834"/>
  <way id="30438157" version="3" timestamp="2009-08-26T19:19:22Z" uid="36809" user="pfoten_weg_!_" changeset="2270948">
    <nd ref="335253947"/>
    <nd ref="31437120"/>
    <tag k="highway" v="tertiary"/>
    <tag k="maxspeed" v="50"/>
    <tag k="name" v="Seehamer Straße"/>
    <tag k="ref" v="MB 17, MB 18"/>
  </way>
  <way id="30438158" version="6" timestamp="2009-08-26T18:40:33Z" uid="36809" user="pfoten_weg_!_" changeset="2270662"/>
  <way id="30438196" version="2" timestamp="2009-02-01T20:48:10Z" uid="6975" user="ulfl" changeset="27333">
    <nd ref="335906972"/>
    <nd ref="335906973"/>
    <nd ref="335906974"/>
    <nd ref="335906975"/>
    <nd ref="335906976"/>
    <nd ref="335906977"/>
    <nd ref="335906978"/>
    <nd ref="335906979"/>
    <nd ref="335906980"/>
    <nd ref="335906981"/>
    <nd ref="335906982"/>
    <nd ref="335906983"/>
    <nd ref="335906972"/>
    <tag k="building" v="yes"/>
    <tag k="name" v="Globus"/>
    <tag k="shop" v="doityourself"/>
  </way>
  <way id="30438295" version="2" timestamp="2009-03-16T10:34:58Z" uid="64269" user="Triffnix" changeset="820679"/>
  <way id="30438374" version="2" timestamp="2009-02-01T20:43:37Z" uid="6975" user="ulfl" changeset="27333">
    <nd ref="621992"/>
    <nd ref="621993"/>
    <nd ref="658053"/>
    <nd ref="658054"/>
    <nd ref="658058"/>
    <nd ref="658055"/>
    <tag k="route" v="bicycle"/>
  </way>
  <way id="30438510" version="2" timestamp="2009-08-02T17:16:48Z" uid="20587" user="balrog-kun" changeset="2017141">
    <nd ref="335910390"/>
    <nd ref="335910395"/>
    <nd ref="335910397"/>
    <nd ref="335910392"/>
    <nd ref="335910390"/>
    <tag k="amenity" v="courthouse"/>
    <tag k="building" v="offices"/>
    <tag k="name" v="Sąd Rejonowy Poznań - Grunwald Jeżyce"/>
  </way>
  <way id="30438527" version="7" timestamp="2009-07-22T16:20:54Z" uid="74617" user="JohnSmith" changeset="1906563">
    <nd ref="361099381"/>
    <nd ref="370537840"/>
    <nd ref="252817896"/>
    <nd ref="370540589"/>
    <nd ref="262743518"/>
    <nd ref="262743962"/>
    <nd ref="370540599"/>
    <nd ref="356458789"/>
    <tag k="highway" v="primary"/>
    <tag k="name" v="Red Hill Road"/>
  </way>
  <way id="30438527" version="8" timestamp="2009-08-17T21:07:47Z" uid="18775" user="drlizau" changeset="2183475">
    <nd ref="361099381"/>
    <nd ref="370537840"/>
    <nd ref="252817896"/>
    <nd ref="370540589"/>
    <nd ref="262743518"/>
    <nd ref="262743962"/>
    <nd ref="370540599"/>
    <nd ref="356458789"/>
    <tag k="highway" v="secondary"/>
    <tag k="name" v="Red Hill Road"/>
  </way>
  <way id="30438527" version="9" timestamp="2010-07-25T04:47:34Z" uid="74617" user="JohnSmith" changeset="5308799">
    <nd ref="361099381"/>
    <nd ref="370537840"/>
    <nd ref="252817896"/>
    <nd ref="370540589"/>
    <nd ref="262743518"/>
    <nd ref="262743962"/>
    <nd ref="370540599"/>
    <nd ref="832355493"/>
    <tag k="highway" v="secondary"/>
    <tag k="name" v="Red Hill Road"/>
  </way>
  <way id="30438819" version="3" timestamp="2009-02-01T20:53:06Z" uid="6975" user="ulfl" changeset="27333">
    <nd ref="335912562"/>
    <nd ref="335912564"/>
    <nd ref="335912566"/>
    <nd ref="335912568"/>
    <nd ref="335912562"/>
    <tag k="leisure" v="pitch"/>
    <tag k="sport" v="soccer"/>
  </way>
  <way id="30438865" version="1" timestamp="2009-01-24T14:13:37Z" uid="7617" user="Franc" changeset="830819">
    <nd ref="335912718"/>
    <nd ref="335912722"/>
    <nd ref="335912736"/>
    <nd ref="335912721"/>
    <tag k="highway" v="service"/>
    <tag k="name" v="Bourke Lane"/>
    <tag k="source" v="survey"/>
  </way>
  <way id="30438865" version="3" timestamp="2010-06-16T11:39:10Z" uid="74617" user="JohnSmith" changeset="4999605">
    <nd ref="335912718"/>
    <nd ref="335912722"/>
    <nd ref="335912736"/>
    <nd ref="773590705"/>
    <tag k="highway" v="service"/>
    <tag k="name" v="Bourke Lane"/>
    <tag k="source" v="survey"/>
  </way>
  <way id="30438866" version="1" timestamp="2009-01-24T14:13:38Z" uid="7617" user="Franc" changeset="830819">
    <nd ref="335912724"/>
    <nd ref="334508478"/>
    <nd ref="335912741"/>
    <nd ref="335912732"/>
    <tag k="highway" v="residential"/>
    <tag k="name" v="Arnold Street"/>
    <tag k="source" v="survey"/>
  </way>
  <way id="30438866" version="3" timestamp="2010-07-07T21:52:09Z" uid="74617" user="JohnSmith" changeset="5161069">
    <nd ref="335912724"/>
    <nd ref="334508478"/>
    <nd ref="335912741"/>
    <nd ref="335912732"/>
    <tag k="highway" v="residential"/>
    <tag k="maxspeed" v="50"/>
    <tag k="maxspeed:source" v="default residential speed limit in Australia"/>
    <tag k="name" v="Arnold Street"/>
    <tag k="source" v="survey"/>
  </way>
  <way id="30438867" version="1" timestamp="2009-01-24T14:13:39Z" uid="7617" user="Franc" changeset="830819">
    <nd ref="335912736"/>
    <nd ref="335912741"/>
    <tag k="highway" v="service"/>
    <tag k="source" v="survey"/>
  </way>
  <way id="30438867" version="3" timestamp="2010-10-16T02:42:29Z" uid="7617" user="Franc" changeset="6053967">
    <nd ref="335912736"/>
    <nd ref="335912741"/>
    <tag k="fixme:sign:no" v="20101016"/>
    <tag k="highway" v="service"/>
    <tag k="source" v="survey"/>
  </way>
  <way id="30438868" version="1" timestamp="2009-01-24T14:13:40Z" uid="7617" user="Franc" changeset="830819">
    <nd ref="335912742"/>
    <nd ref="335912743"/>
    <tag k="highway" v="residential"/>
    <tag k="name" v="Arnold Street"/>
    <tag k="source" v="survey"/>
  </way>
  <way id="30438868" version="3" timestamp="2010-06-16T11:39:11Z" uid="74617" user="JohnSmith" changeset="4999605">
    <nd ref="773590706"/>
    <nd ref="335912743"/>
    <tag k="highway" v="residential"/>
    <tag k="name" v="Arnold Street"/>
    <tag k="source" v="survey"/>
  </way>
  <way id="30438868" version="4" timestamp="2010-07-07T21:48:11Z" uid="74617" user="JohnSmith" changeset="5161069">
    <nd ref="773590706"/>
    <nd ref="335912743"/>
    <tag k="highway" v="residential"/>
    <tag k="maxspeed" v="50"/>
    <tag k="maxspeed:source" v="default residential speed limit in Australia"/>
    <tag k="name" v="Arnold Street"/>
    <tag k="source" v="survey"/>
  </way>
  <way id="30438869" version="1" timestamp="2009-01-24T14:13:41Z" uid="7617" user="Franc" changeset="830819">
    <nd ref="335912743"/>
    <nd ref="335912745"/>
    <nd ref="335912749"/>
    <nd ref="335912753"/>
    <nd ref="335912758"/>
    <tag k="highway" v="residential"/>
    <tag k="name" v="Arnold Street"/>
    <tag k="source" v="survey"/>
  </way>
  <way id="30438869" version="3" timestamp="2010-07-07T21:52:31Z" uid="74617" user="JohnSmith" changeset="5161069">
    <nd ref="335912743"/>
    <nd ref="335912745"/>
    <nd ref="335912749"/>
    <nd ref="335912753"/>
    <nd ref="335912758"/>
    <tag k="highway" v="residential"/>
    <tag k="maxspeed" v="50"/>
    <tag k="maxspeed:source" v="default residential speed limit in Australia"/>
    <tag k="name" v="Arnold Street"/>
    <tag k="source" v="survey"/>
  </way>
  <way id="30438869" version="4" timestamp="2010-10-16T02:42:39Z" uid="7617" user="Franc" changeset="6053967">
    <nd ref="335912743"/>
    <nd ref="335912745"/>
    <nd ref="335912749"/>
    <nd ref="951024859"/>
    <nd ref="335912753"/>
    <nd ref="335912758"/>
    <tag k="highway" v="residential"/>
    <tag k="maxspeed" v="50"/>
    <tag k="maxspeed:source" v="default residential speed limit in Australia"/>
    <tag k="name" v="Arnold Street"/>
    <tag k="source" v="survey"/>
  </way>
  <way id="30438870" version="1" timestamp="2009-01-24T14:13:42Z" uid="7617" user="Franc" changeset="830819">
    <nd ref="335912749"/>
    <nd ref="335912764"/>
    <tag k="highway" v="service"/>
    <tag k="name" v="Blenheim Lane"/>
    <tag k="source" v="survey"/>
  </way>
  <way id="30438871" version="1" timestamp="2009-01-24T14:13:42Z" uid="7617" user="Franc" changeset="830819">
    <nd ref="335912769"/>
    <nd ref="335912774"/>
    <nd ref="335912779"/>
    <nd ref="335912784"/>
    <nd ref="335912788"/>
    <nd ref="335912753"/>
    <tag k="highway" v="residential"/>
    <tag k="name" v="Yenda Avenue"/>
    <tag k="source" v="survey"/>
  </way>
  <way id="30438871" version="3" timestamp="2010-07-07T21:51:08Z" uid="74617" user="JohnSmith" changeset="5161069">
    <nd ref="335912769"/>
    <nd ref="335912774"/>
    <nd ref="335912779"/>
    <nd ref="335912784"/>
    <nd ref="335912788"/>
    <nd ref="335912753"/>
    <tag k="highway" v="residential"/>
    <tag k="maxspeed" v="50"/>
    <tag k="maxspeed:source" v="default residential speed limit in Australia"/>
    <tag k="name" v="Yenda Avenue"/>
    <tag k="source" v="survey"/>
  </way>
  <way id="30438872" version="1" timestamp="2009-01-24T14:13:44Z" uid="7617" user="Franc" changeset="830819">
    <nd ref="335912794"/>
    <nd ref="335912859"/>
    <nd ref="335912865"/>
    <nd ref="335912854"/>
    <tag k="highway" v="residential"/>
    <tag k="name" v="Cuthbert Street"/>
    <tag k="source" v="survey"/>
  </way>
  <way id="30438872" version="2" timestamp="2009-08-30T07:28:08Z" uid="74617" user="JohnSmith" changeset="2309686">
    <nd ref="335912794"/>
    <nd ref="335912859"/>
    <nd ref="335912865"/>
    <nd ref="335912854"/>
    <tag k="highway" v="residential"/>
    <tag k="name" v="Cuthbert Street"/>
    <tag k="oneway" v="yes"/>
    <tag k="source" v="survey"/>
  </way>
  <way id="30438872" version="4" timestamp="2010-07-07T21:48:41Z" uid="74617" user="JohnSmith" changeset="5161069">
    <nd ref="335912794"/>
    <nd ref="335912859"/>
    <nd ref="335912865"/>
    <nd ref="335912854"/>
    <tag k="highway" v="residential"/>
    <tag k="maxspeed" v="50"/>
    <tag k="maxspeed:source" v="default residential speed limit in Australia"/>
    <tag k="name" v="Cuthbert Street"/>
    <tag k="oneway" v="yes"/>
    <tag k="source" v="survey"/>
  </way>
  <way id="30438872" version="5" timestamp="2010-10-16T02:42:32Z" uid="7617" user="Franc" changeset="6053967">
    <nd ref="335912794"/>
    <nd ref="335912865"/>
    <nd ref="335912854"/>
    <tag k="highway" v="residential"/>
    <tag k="maxspeed" v="50"/>
    <tag k="maxspeed:source" v="default residential speed limit in Australia"/>
    <tag k="name" v="Cuthbert Street"/>
    <tag k="oneway" v="yes"/>
    <tag k="source" v="survey"/>
  </way>
  <way id="30438873" version="1" timestamp="2009-01-24T14:13:44Z" uid="7617" user="Franc" changeset="830819">
    <nd ref="335912812"/>
    <nd ref="335912918"/>
    <nd ref="335912874"/>
    <nd ref="335912876"/>
    <nd ref="335912885"/>
    <nd ref="335912893"/>
    <nd ref="335912901"/>
    <nd ref="335912914"/>
    <nd ref="335912828"/>
    <tag k="highway" v="residential"/>
    <tag k="name" v="Cuthbert Street"/>
    <tag k="oneway" v="yes"/>
    <tag k="source" v="survey"/>
  </way>
  <way id="30438873" version="3" timestamp="2010-06-14T00:57:48Z" uid="4467" user="Rosscoe" changeset="4984296">
    <nd ref="335912812"/>
    <nd ref="772352113"/>
    <nd ref="335912918"/>
    <nd ref="335912876"/>
    <tag k="highway" v="residential"/>
    <tag k="name" v="Cuthbert Street"/>
    <tag k="oneway" v="yes"/>
    <tag k="source" v="survey"/>
  </way>
  <way id="30438873" version="4" timestamp="2010-06-14T00:58:41Z" uid="4467" user="Rosscoe" changeset="4984296">
    <nd ref="335912812"/>
    <nd ref="772352113"/>
    <nd ref="335912918"/>
    <nd ref="335912876"/>
    <tag k="highway" v="residential"/>
    <tag k="name" v="Cuthbert Street"/>
    <tag k="oneway" v="yes"/>
    <tag k="source" v="survey"/>
  </way>
  <way id="30438873" version="5" timestamp="2010-06-14T00:59:49Z" uid="4467" user="Rosscoe" changeset="4984296">
    <nd ref="335912812"/>
    <nd ref="772352113"/>
    <nd ref="335912918"/>
    <nd ref="335912876"/>
    <tag k="highway" v="residential"/>
    <tag k="name" v="Cuthbert Street"/>
    <tag k="oneway" v="yes"/>
    <tag k="source" v="survey"/>
  </way>
  <way id="30438873" version="6" timestamp="2010-07-07T21:53:32Z" uid="74617" user="JohnSmith" changeset="5161069">
    <nd ref="335912812"/>
    <nd ref="772352113"/>
    <nd ref="335912918"/>
    <nd ref="335912876"/>
    <tag k="highway" v="residential"/>
    <tag k="maxspeed" v="50"/>
    <tag k="maxspeed:source" v="default residential speed limit in Australia"/>
    <tag k="name" v="Cuthbert Street"/>
    <tag k="oneway" v="yes"/>
    <tag k="source" v="survey"/>
  </way>
  <way id="30438873" version="7" timestamp="2010-10-16T02:42:36Z" uid="7617" user="Franc" changeset="6053967">
    <nd ref="335912812"/>
    <nd ref="772352113"/>
    <nd ref="335912918"/>
    <nd ref="951024802"/>
    <nd ref="335912876"/>
    <tag k="highway" v="residential"/>
    <tag k="maxspeed" v="50"/>
    <tag k="maxspeed:source" v="default residential speed limit in Australia"/>
    <tag k="name" v="Cuthbert Street"/>
    <tag k="oneway" v="yes"/>
    <tag k="source" v="survey"/>
  </way>
  <way id="30438874" version="1" timestamp="2009-01-24T14:13:45Z" uid="7617" user="Franc" changeset="830819">
    <nd ref="335912908"/>
    <nd ref="335912918"/>
    <nd ref="335912914"/>
    <tag k="highway" v="residential"/>
    <tag k="name" v="Isabella Street"/>
    <tag k="source" v="survey"/>
  </way>
  <way id="30438874" version="3" timestamp="2010-07-07T21:47:44Z" uid="74617" user="JohnSmith" changeset="5161069">
    <nd ref="335912908"/>
    <nd ref="335912918"/>
    <nd ref="335912914"/>
    <tag k="highway" v="residential"/>
    <tag k="maxspeed" v="50"/>
    <tag k="maxspeed:source" v="default residential speed limit in Australia"/>
    <tag k="name" v="Isabella Street"/>
    <tag k="source" v="survey"/>
  </way>
  <way id="30438875" version="1" timestamp="2009-01-24T14:13:46Z" uid="7617" user="Franc" changeset="830819">
    <nd ref="335912743"/>
    <nd ref="335912921"/>
    <nd ref="335912927"/>
    <tag k="highway" v="residential"/>
    <tag k="name" v="Arnold Street"/>
    <tag k="source" v="survey"/>
  </way>
  <way id="30438875" version="3" timestamp="2010-07-07T21:51:47Z" uid="74617" user="JohnSmith" changeset="5161069">
    <nd ref="335912743"/>
    <nd ref="335912921"/>
    <nd ref="335912927"/>
    <tag k="highway" v="residential"/>
    <tag k="maxspeed" v="50"/>
    <tag k="maxspeed:source" v="default residential speed limit in Australia"/>
    <tag k="name" v="Arnold Street"/>
    <tag k="source" v="survey"/>
  </way>
  <way id="30438875" version="4" timestamp="2010-10-16T02:42:23Z" uid="7617" user="Franc" changeset="6053967">
    <nd ref="335912743"/>
    <nd ref="335912921"/>
    <nd ref="335912927"/>
    <nd ref="951025043"/>
    <tag k="highway" v="residential"/>
    <tag k="maxspeed" v="50"/>
    <tag k="maxspeed:source" v="default residential speed limit in Australia"/>
    <tag k="name" v="Arnold Street"/>
    <tag k="source" v="survey"/>
  </way>
  <way id="30438876" version="1" timestamp="2009-01-24T14:13:47Z" uid="7617" user="Franc" changeset="830819">
    <nd ref="335912914"/>
    <nd ref="335912963"/>
    <nd ref="335912927"/>
    <tag k="highway" v="service"/>
    <tag k="source" v="survey"/>
  </way>
  <way id="30438876" version="3" timestamp="2010-10-23T02:44:30Z" uid="7617" user="Franc" changeset="6141823">
    <nd ref="335912914"/>
    <nd ref="335912963"/>
    <nd ref="335912927"/>
    <tag k="fixme:sign:no" v="20101010"/>
    <tag k="highway" v="service"/>
    <tag k="source" v="survey"/>
  </way>
  <way id="30438877" version="1" timestamp="2009-01-24T14:13:48Z" uid="7617" user="Franc" changeset="830819">
    <nd ref="335912942"/>
    <nd ref="335912963"/>
    <tag k="highway" v="service"/>
    <tag k="source" v="survey"/>
  </way>
  <way id="30438877" version="3" timestamp="2010-10-23T02:44:26Z" uid="7617" user="Franc" changeset="6141823">
    <nd ref="335912942"/>
    <nd ref="335912963"/>
    <tag k="fixme:sign:no" v="20101010"/>
    <tag k="highway" v="service"/>
    <tag k="source" v="survey"/>
  </way>
  <way id="30438879" version="1" timestamp="2009-01-24T14:13:49Z" uid="7617" user="Franc" changeset="830819">
    <nd ref="335912988"/>
    <nd ref="335913011"/>
    <nd ref="335913014"/>
    <nd ref="335912876"/>
    <tag k="highway" v="residential"/>
    <tag k="name" v="Blenheim Street"/>
    <tag k="oneway" v="yes"/>
    <tag k="source" v="survey"/>
  </way>
  <way id="30438879" version="3" timestamp="2010-07-07T21:55:29Z" uid="74617" user="JohnSmith" changeset="5161069">
    <nd ref="335912988"/>
    <nd ref="335913011"/>
    <nd ref="335913014"/>
    <nd ref="335912876"/>
    <tag k="highway" v="residential"/>
    <tag k="maxspeed" v="50"/>
    <tag k="maxspeed:source" v="default residential speed limit in Australia"/>
    <tag k="name" v="Blenheim Street"/>
    <tag k="oneway" v="yes"/>
    <tag k="source" v="survey"/>
  </way>
  <way id="30438879" version="4" timestamp="2010-10-16T02:42:43Z" uid="7617" user="Franc" changeset="6053967">
    <nd ref="335912988"/>
    <nd ref="335913014"/>
    <nd ref="951024858"/>
    <nd ref="335912876"/>
    <tag k="highway" v="residential"/>
    <tag k="maxspeed" v="50"/>
    <tag k="maxspeed:source" v="default residential speed limit in Australia"/>
    <tag k="name" v="Blenheim Street"/>
    <tag k="oneway" v="yes"/>
    <tag k="source" v="survey"/>
  </way>
  <way id="30438879" version="5" timestamp="2010-10-16T05:27:20Z" uid="7617" user="Franc" changeset="6054570">
    <nd ref="335912988"/>
    <nd ref="951198521"/>
    <nd ref="335913014"/>
    <nd ref="951024858"/>
    <nd ref="335912876"/>
    <tag k="highway" v="residential"/>
    <tag k="maxspeed" v="50"/>
    <tag k="maxspeed:source" v="default residential speed limit in Australia"/>
    <tag k="name" v="Blenheim Street"/>
    <tag k="oneway" v="yes"/>
    <tag k="source" v="survey"/>
  </way>
  <way id="30438884" version="1" timestamp="2009-01-24T14:13:49Z" uid="7617" user="Franc" changeset="830819">
    <nd ref="335913035"/>
    <nd ref="335913066"/>
    <tag k="highway" v="residential"/>
    <tag k="name" v="Stanley Street"/>
    <tag k="source" v="survey"/>
  </way>
  <way id="30438884" version="2" timestamp="2009-03-21T11:59:57Z" uid="7617" user="Franc" changeset="839912">
    <nd ref="335913035"/>
    <nd ref="335913066"/>
    <nd ref="364341587"/>
    <nd ref="334508469"/>
    <tag k="highway" v="residential"/>
    <tag k="name" v="Stanley Street"/>
    <tag k="source" v="survey"/>
  </way>
  <way id="30438884" version="4" timestamp="2010-07-07T21:50:33Z" uid="74617" user="JohnSmith" changeset="5161069">
    <nd ref="335913035"/>
    <nd ref="335913066"/>
    <nd ref="364341587"/>
    <nd ref="334508469"/>
    <tag k="highway" v="residential"/>
    <tag k="maxspeed" v="50"/>
    <tag k="maxspeed:source" v="default residential speed limit in Australia"/>
    <tag k="name" v="Stanley Street"/>
    <tag k="source" v="survey"/>
  </way>
  <way id="30438887" version="1" timestamp="2009-01-24T14:13:50Z" uid="7617" user="Franc" changeset="830819">
    <nd ref="335913096"/>
    <nd ref="334508466"/>
    <nd ref="335913066"/>
    <tag k="highway" v="service"/>
    <tag k="source" v="survey"/>
  </way>
  <way id="30438887" version="3" timestamp="2010-10-16T05:27:10Z" uid="7617" user="Franc" changeset="6054570">
    <nd ref="335913096"/>
    <nd ref="334508466"/>
    <nd ref="335913066"/>
    <tag k="fixme:sign:no" v="20101016"/>
    <tag k="highway" v="service"/>
    <tag k="source" v="survey"/>
  </way>
  <way id="30438890" version="1" timestamp="2009-01-24T14:13:51Z" uid="7617" user="Franc" changeset="830819">
    <nd ref="335913118"/>
    <nd ref="335913144"/>
    <tag k="highway" v="service"/>
    <tag k="source" v="survey"/>
  </way>
  <way id="30438890" version="3" timestamp="2010-10-16T05:27:06Z" uid="7617" user="Franc" changeset="6054570">
    <nd ref="335913118"/>
    <nd ref="335913144"/>
    <tag k="highway" v="service"/>
    <tag k="name" v="Gardiner Lane"/>
    <tag k="source" v="survey"/>
  </way>
  <way id="30438894" version="1" timestamp="2009-01-24T14:13:52Z" uid="7617" user="Franc" changeset="830819">
    <nd ref="26525112"/>
    <nd ref="335913221"/>
    <tag k="highway" v="footway"/>
    <tag k="note" v="existance from survey postion from yahoo"/>
    <tag k="source" v="mixed"/>
  </way>
  <way id="30438898" version="1" timestamp="2009-01-24T14:13:53Z" uid="7617" user="Franc" changeset="830819">
    <nd ref="14296298"/>
    <nd ref="335913226"/>
    <tag k="highway" v="residential"/>
    <tag k="name" v="Moore Street"/>
    <tag k="source" v="survey"/>
  </way>
  <way id="30438898" version="2" timestamp="2010-07-07T21:48:46Z" uid="74617" user="JohnSmith" changeset="5161069">
    <nd ref="14296298"/>
    <nd ref="335913226"/>
    <tag k="highway" v="residential"/>
    <tag k="maxspeed" v="50"/>
    <tag k="maxspeed:source" v="default residential speed limit in Australia"/>
    <tag k="name" v="Moore Street"/>
    <tag k="source" v="survey"/>
  </way>
  <way id="30438899" version="1" timestamp="2009-01-24T14:13:53Z" uid="7617" user="Franc" changeset="830819">
    <nd ref="26525091"/>
    <nd ref="335913259"/>
    <nd ref="335913260"/>
    <nd ref="335913277"/>
    <nd ref="335913261"/>
    <nd ref="335913276"/>
    <nd ref="335913262"/>
    <nd ref="335913264"/>
    <nd ref="335913265"/>
    <nd ref="335913266"/>
    <nd ref="335913270"/>
    <nd ref="335913274"/>
    <nd ref="335913263"/>
    <tag k="highway" v="residential"/>
    <tag k="name" v="Parsley Road"/>
    <tag k="source" v="survey"/>
  </way>
  <way id="30438899" version="3" timestamp="2010-07-07T21:53:41Z" uid="74617" user="JohnSmith" changeset="5161069">
    <nd ref="26525091"/>
    <nd ref="335913259"/>
    <nd ref="335913277"/>
    <nd ref="335913261"/>
    <nd ref="335913276"/>
    <nd ref="335913262"/>
    <nd ref="335913264"/>
    <nd ref="335913265"/>
    <nd ref="335913266"/>
    <nd ref="335913270"/>
    <nd ref="335913274"/>
    <nd ref="335913263"/>
    <tag k="highway" v="residential"/>
    <tag k="maxspeed" v="50"/>
    <tag k="maxspeed:source" v="default residential speed limit in Australia"/>
    <tag k="name" v="Parsley Road"/>
    <tag k="source" v="survey"/>
  </way>
  <way id="30438900" version="1" timestamp="2009-01-24T14:13:56Z" uid="7617" user="Franc" changeset="830819">
    <nd ref="335913261"/>
    <nd ref="335913278"/>
    <nd ref="335913279"/>
    <nd ref="335913280"/>
    <nd ref="335913281"/>
    <nd ref="335913282"/>
    <nd ref="335913283"/>
    <nd ref="335913284"/>
    <nd ref="335913285"/>
    <nd ref="335913286"/>
    <tag k="highway" v="residential"/>
    <tag k="name" v="Horner Avenue"/>
    <tag k="source" v="survey"/>
  </way>
  <way id="30438900" version="3" timestamp="2010-07-07T21:52:17Z" uid="74617" user="JohnSmith" changeset="5161069">
    <nd ref="335913261"/>
    <nd ref="335913278"/>
    <nd ref="335913280"/>
    <nd ref="335913281"/>
    <nd ref="335913282"/>
    <nd ref="335913284"/>
    <nd ref="335913286"/>
    <tag k="highway" v="residential"/>
    <tag k="maxspeed" v="50"/>
    <tag k="maxspeed:source" v="default residential speed limit in Australia"/>
    <tag k="name" v="Horner Avenue"/>
    <tag k="source" v="survey"/>
  </way>
  <way id="30438901" version="1" timestamp="2009-01-24T14:13:57Z" uid="7617" user="Franc" changeset="830819">
    <nd ref="335913286"/>
    <nd ref="335913287"/>
    <nd ref="335913289"/>
    <nd ref="335913291"/>
    <nd ref="335913292"/>
    <tag k="highway" v="service"/>
    <tag k="name" v="Horner Avenue"/>
    <tag k="source" v="survey"/>
  </way>
  <way id="30438902" version="1" timestamp="2009-01-24T14:13:58Z" uid="7617" user="Franc" changeset="830819">
    <nd ref="335913293"/>
    <nd ref="335913294"/>
    <nd ref="335913295"/>
    <nd ref="335913296"/>
    <nd ref="335913297"/>
    <tag k="amenity" v="parking"/>
  </way>
  <way id="30438903" version="1" timestamp="2009-01-24T14:13:59Z" uid="7617" user="Franc" changeset="830819">
    <nd ref="335913305"/>
    <nd ref="335913306"/>
    <nd ref="335913307"/>
    <nd ref="335913308"/>
    <nd ref="335913305"/>
    <tag k="leisure" v="pitch"/>
    <tag k="source" v="yahoo_imagery"/>
  </way>
  <way id="30438904" version="1" timestamp="2009-01-24T14:14:00Z" uid="7617" user="Franc" changeset="830819">
    <nd ref="335913311"/>
    <nd ref="335913309"/>
    <nd ref="335913310"/>
    <nd ref="335913312"/>
    <nd ref="335913311"/>
    <tag k="leisure" v="pitch"/>
    <tag k="source" v="yahoo_imagery"/>
  </way>
  <way id="30438905" version="1" timestamp="2009-01-24T14:14:01Z" uid="7617" user="Franc" changeset="830819">
    <nd ref="335913319"/>
    <nd ref="335913314"/>
    <nd ref="335913315"/>
    <nd ref="335913321"/>
    <nd ref="335913319"/>
    <tag k="leisure" v="pitch"/>
    <tag k="source" v="yahoo_imagery"/>
  </way>
  <way id="30438906" version="1" timestamp="2009-01-24T14:14:02Z" uid="7617" user="Franc" changeset="830819">
    <nd ref="335913330"/>
    <nd ref="335913328"/>
    <tag k="highway" v="residential"/>
    <tag k="name" v="Petrach Avenue"/>
    <tag k="source" v="survey"/>
  </way>
  <way id="30438906" version="2" timestamp="2010-07-07T21:51:35Z" uid="74617" user="JohnSmith" changeset="5161069">
    <nd ref="335913330"/>
    <nd ref="335913328"/>
    <tag k="highway" v="residential"/>
    <tag k="maxspeed" v="50"/>
    <tag k="maxspeed:source" v="default residential speed limit in Australia"/>
    <tag k="name" v="Petrach Avenue"/>
    <tag k="source" v="survey"/>
  </way>
  <way id="30438907" version="1" timestamp="2009-01-24T14:14:03Z" uid="7617" user="Franc" changeset="830819">
    <nd ref="335913331"/>
    <nd ref="335913332"/>
    <nd ref="335913333"/>
    <nd ref="335913335"/>
    <nd ref="335913336"/>
    <tag k="highway" v="residential"/>
    <tag k="name" v="Laguna Street"/>
    <tag k="source" v="survey"/>
  </way>
  <way id="30438907" version="2" timestamp="2010-07-07T21:48:29Z" uid="74617" user="JohnSmith" changeset="5161069">
    <nd ref="335913331"/>
    <nd ref="335913332"/>
    <nd ref="335913333"/>
    <nd ref="335913335"/>
    <nd ref="335913336"/>
    <tag k="highway" v="residential"/>
    <tag k="maxspeed" v="50"/>
    <tag k="maxspeed:source" v="default residential speed limit in Australia"/>
    <tag k="name" v="Laguna Street"/>
    <tag k="source" v="survey"/>
  </way>
</osm>
