<?xml version='1.0' encoding='UTF-8'?>
<osm version="0.6" generator="libosmium/2.20.0">
  <way id="30478001" version="2" timestamp="2009-09-22T05:59:24Z" uid="4467" user="Rosscoe" changeset="2565302">
    <nd ref="336277942"/>
    <nd ref="336278297"/>
    <tag k="highway" v="residential"/>
    <tag k="name" v="Warrawee Place"/>
    <tag k="source" v="survey"/>
  </way>
  <way id="30478001" version="3" timestamp="2010-07-08T16:30:19Z" uid="74617" user="JohnSmith" changeset="5167338">
    <nd ref="336277942"/>
    <nd ref="336278297"/>
    <tag k="highway" v="residential"/>
    <tag k="maxspeed" v="50"/>
    <tag k="maxspeed:source" v="default residential speed limit in Australia"/>
    <tag k="name" v="Warrawee Place"/>
    <tag k="source" v="survey"/>
  </way>
  <way id="30478057" version="2" timestamp="2010-07-08T16:27:50Z" uid="74617" user="JohnSmith" changeset="5167338">
    <nd ref="336279357"/>
    <nd ref="336280746"/>
    <nd ref="336280747"/>
    <nd ref="336280748"/>
    <nd ref="336280750"/>
    <tag k="highway" v="residential"/>
    <tag k="maxspeed" v="50"/>
    <tag k="maxspeed:source" v="default residential speed limit in Australia"/>
    <tag k="name" v="Willott Close"/>
    <tag k="source" v="GPS"/>
  </way>
  <way id="30478097" version="2" timestamp="2010-07-08T16:26:56Z" uid="74617" user="JohnSmith" changeset="5167338">
    <nd ref="336281326"/>
    <nd ref="336281327"/>
    <nd ref="336281329"/>
    <tag k="highway" v="residential"/>
    <tag k="maxspeed" v="50"/>
    <tag k="maxspeed:source" v="default residential speed limit in Australia"/>
    <tag k="name" v="Parker Place"/>
    <tag k="source" v="GPS"/>
  </way>
  <way id="30478120" version="2" timestamp="2010-07-08T16:28:55Z" uid="74617" user="JohnSmith" changeset="5167338">
    <nd ref="336282406"/>
    <nd ref="336282407"/>
    <nd ref="336282409"/>
    <tag k="highway" v="residential"/>
    <tag k="maxspeed" v="50"/>
    <tag k="maxspeed:source" v="default residential speed limit in Australia"/>
    <tag k="name" v="McCarthy Close"/>
    <tag k="source" v="GPS"/>
  </way>
  <way id="30478344" version="3" timestamp="2010-07-08T16:29:05Z" uid="74617" user="JohnSmith" changeset="5167338">
    <nd ref="319174177"/>
    <nd ref="336283699"/>
    <nd ref="336283701"/>
    <nd ref="336283702"/>
    <tag k="highway" v="residential"/>
    <tag k="maxspeed" v="50"/>
    <tag k="maxspeed:source" v="default residential speed limit in Australia"/>
    <tag k="name" v="Cox Lane"/>
  </way>
  <way id="30478391" version="2" timestamp="2010-07-08T16:29:24Z" uid="74617" user="JohnSmith" changeset="5167338">
    <nd ref="336285009"/>
    <nd ref="336285010"/>
    <tag k="highway" v="residential"/>
    <tag k="maxspeed" v="50"/>
    <tag k="maxspeed:source" v="default residential speed limit in Australia"/>
    <tag k="name" v="Ranken Street"/>
    <tag k="source" v="GPS"/>
  </way>
  <way id="30478401" version="3" timestamp="2010-07-08T16:27:48Z" uid="74617" user="JohnSmith" changeset="5167338">
    <nd ref="748873632"/>
    <nd ref="319174553"/>
    <nd ref="319174177"/>
    <tag k="highway" v="residential"/>
    <tag k="maxspeed" v="50"/>
    <tag k="maxspeed:source" v="default residential speed limit in Australia"/>
    <tag k="name" v="Hamilton Street"/>
    <tag k="source" v="survey"/>
    <tag k="surface" v="asphalt"/>
  </way>
  <way id="30478450" version="4" timestamp="2010-07-08T16:30:38Z" uid="74617" user="JohnSmith" changeset="5167338">
    <nd ref="336286787"/>
    <nd ref="336286788"/>
    <nd ref="336286789"/>
    <nd ref="336286791"/>
    <nd ref="336287925"/>
    <nd ref="336288781"/>
    <nd ref="336286792"/>
    <nd ref="336286793"/>
    <nd ref="336286792"/>
    <tag k="highway" v="residential"/>
    <tag k="maxspeed" v="50"/>
    <tag k="maxspeed:source" v="default residential speed limit in Australia"/>
    <tag k="name" v="Cottonwood Drive"/>
    <tag k="source" v="GPS"/>
  </way>
  <way id="30478459" version="3" timestamp="2010-07-08T16:27:41Z" uid="74617" user="JohnSmith" changeset="5167338">
    <nd ref="336286791"/>
    <nd ref="336287167"/>
    <tag k="highway" v="residential"/>
    <tag k="maxspeed" v="50"/>
    <tag k="maxspeed:source" v="default residential speed limit in Australia"/>
    <tag k="source" v="GPS"/>
  </way>
  <way id="30478477" version="2" timestamp="2010-07-08T16:29:49Z" uid="74617" user="JohnSmith" changeset="5167338">
    <nd ref="336287925"/>
    <nd ref="336287926"/>
    <tag k="highway" v="residential"/>
    <tag k="maxspeed" v="50"/>
    <tag k="maxspeed:source" v="default residential speed limit in Australia"/>
    <tag k="name" v="Delaney Place"/>
    <tag k="source" v="GPS"/>
  </way>
  <way id="30478500" version="2" timestamp="2010-07-08T16:27:24Z" uid="74617" user="JohnSmith" changeset="5167338">
    <nd ref="336288781"/>
    <nd ref="336288782"/>
    <tag k="highway" v="residential"/>
    <tag k="maxspeed" v="50"/>
    <tag k="maxspeed:source" v="default residential speed limit in Australia"/>
    <tag k="name" v="Hollyhock Place"/>
  </way>
  <way id="30478578" version="2" timestamp="2009-09-22T05:59:26Z" uid="4467" user="Rosscoe" changeset="2565302">
    <nd ref="336289480"/>
    <nd ref="336290285"/>
    <nd ref="336290286"/>
    <tag k="highway" v="residential"/>
    <tag k="name" v="Park Street"/>
    <tag k="source" v="survey"/>
  </way>
  <way id="30478578" version="3" timestamp="2010-07-08T16:28:52Z" uid="74617" user="JohnSmith" changeset="5167338">
    <nd ref="336289480"/>
    <nd ref="336290285"/>
    <nd ref="336290286"/>
    <tag k="highway" v="residential"/>
    <tag k="maxspeed" v="50"/>
    <tag k="maxspeed:source" v="default residential speed limit in Australia"/>
    <tag k="name" v="Park Street"/>
    <tag k="source" v="survey"/>
  </way>
  <way id="30478597" version="4" timestamp="2009-09-22T05:59:25Z" uid="4467" user="Rosscoe" changeset="2565302">
    <nd ref="336290827"/>
    <nd ref="336291607"/>
    <nd ref="336290828"/>
    <tag k="highway" v="residential"/>
    <tag k="name" v="Cox Street"/>
    <tag k="source" v="survey"/>
  </way>
  <way id="30478597" version="5" timestamp="2010-07-08T16:29:30Z" uid="74617" user="JohnSmith" changeset="5167338">
    <nd ref="336290827"/>
    <nd ref="336291607"/>
    <nd ref="336290828"/>
    <tag k="highway" v="residential"/>
    <tag k="maxspeed" v="50"/>
    <tag k="maxspeed:source" v="default residential speed limit in Australia"/>
    <tag k="name" v="Cox Street"/>
    <tag k="source" v="survey"/>
  </way>
  <way id="30478639" version="2" timestamp="2009-09-22T05:59:25Z" uid="4467" user="Rosscoe" changeset="2565302">
    <nd ref="336291607"/>
    <nd ref="336291609"/>
    <nd ref="336291610"/>
    <nd ref="336291611"/>
    <nd ref="336291612"/>
    <tag k="highway" v="residential"/>
    <tag k="name" v="Taylor Street"/>
    <tag k="source" v="survey"/>
  </way>
  <way id="30478639" version="3" timestamp="2010-07-08T16:26:54Z" uid="74617" user="JohnSmith" changeset="5167338">
    <nd ref="336291607"/>
    <nd ref="336291609"/>
    <nd ref="336291610"/>
    <nd ref="336291611"/>
    <nd ref="336291612"/>
    <tag k="highway" v="residential"/>
    <tag k="maxspeed" v="50"/>
    <tag k="maxspeed:source" v="default residential speed limit in Australia"/>
    <tag k="name" v="Taylor Street"/>
    <tag k="source" v="survey"/>
  </way>
  <way id="30478676" version="2" timestamp="2009-09-22T05:59:25Z" uid="4467" user="Rosscoe" changeset="2565302">
    <nd ref="336291607"/>
    <nd ref="336292769"/>
    <nd ref="336292771"/>
    <nd ref="336292772"/>
    <nd ref="336292773"/>
    <tag k="highway" v="residential"/>
    <tag k="name" v="Halstead Street"/>
    <tag k="source" v="survey"/>
  </way>
  <way id="30478676" version="4" timestamp="2010-07-08T16:30:30Z" uid="74617" user="JohnSmith" changeset="5167338">
    <nd ref="336291607"/>
    <nd ref="336292769"/>
    <nd ref="336292771"/>
    <nd ref="336292772"/>
    <nd ref="336292773"/>
    <nd ref="670320364"/>
    <tag k="highway" v="residential"/>
    <tag k="maxspeed" v="50"/>
    <tag k="maxspeed:source" v="default residential speed limit in Australia"/>
    <tag k="name" v="Halstead Street"/>
    <tag k="source" v="survey"/>
  </way>
  <way id="30478688" version="3" timestamp="2009-09-22T05:59:25Z" uid="4467" user="Rosscoe" changeset="2565302">
    <nd ref="336292771"/>
    <nd ref="336293041"/>
    <tag k="highway" v="residential"/>
    <tag k="name" v="Dinger Close"/>
    <tag k="source" v="survey"/>
  </way>
  <way id="30478688" version="4" timestamp="2010-07-08T16:30:22Z" uid="74617" user="JohnSmith" changeset="5167338">
    <nd ref="336292771"/>
    <nd ref="336293041"/>
    <tag k="highway" v="residential"/>
    <tag k="maxspeed" v="50"/>
    <tag k="maxspeed:source" v="default residential speed limit in Australia"/>
    <tag k="name" v="Dinger Close"/>
    <tag k="source" v="survey"/>
  </way>
  <way id="30478712" version="2" timestamp="2009-09-22T05:59:24Z" uid="4467" user="Rosscoe" changeset="2565302">
    <nd ref="336294154"/>
    <nd ref="336294156"/>
    <nd ref="336294157"/>
    <nd ref="336294158"/>
    <nd ref="336294159"/>
    <tag k="highway" v="residential"/>
    <tag k="name" v="Oates Place"/>
    <tag k="source" v="survey"/>
  </way>
  <way id="30478712" version="3" timestamp="2010-07-08T16:29:15Z" uid="74617" user="JohnSmith" changeset="5167338">
    <nd ref="336294154"/>
    <nd ref="336294156"/>
    <nd ref="336294157"/>
    <nd ref="336294158"/>
    <nd ref="336294159"/>
    <tag k="highway" v="residential"/>
    <tag k="maxspeed" v="50"/>
    <tag k="maxspeed:source" v="default residential speed limit in Australia"/>
    <tag k="name" v="Oates Place"/>
    <tag k="source" v="survey"/>
  </way>
  <way id="30478754" version="2" timestamp="2011-02-01T07:58:45Z" uid="4467" user="Rosscoe" changeset="7152257">
    <nd ref="250432443"/>
    <nd ref="250430698"/>
    <nd ref="320822072"/>
    <tag k="highway" v="trunk"/>
    <tag k="name" v="Goderich Street"/>
    <tag k="ref" v="A8"/>
    <tag k="source" v="survey"/>
  </way>
  <way id="30478755" version="3" timestamp="2009-08-15T13:01:49Z" uid="4467" user="Rosscoe" changeset="2153865">
    <nd ref="83238344"/>
    <nd ref="83238343"/>
    <nd ref="83238341"/>
    <nd ref="83238338"/>
    <nd ref="83238336"/>
    <nd ref="83238335"/>
    <nd ref="83238334"/>
    <nd ref="246936569"/>
    <nd ref="83238332"/>
    <nd ref="83238331"/>
    <nd ref="83238329"/>
    <nd ref="83238327"/>
    <nd ref="250434249"/>
    <nd ref="250434081"/>
    <nd ref="246936230"/>
    <nd ref="246936228"/>
    <nd ref="246936223"/>
    <nd ref="246936225"/>
    <nd ref="246936227"/>
    <nd ref="83238326"/>
    <nd ref="83238325"/>
    <nd ref="320809308"/>
    <nd ref="83238322"/>
    <nd ref="83238320"/>
    <nd ref="83238319"/>
    <nd ref="83238317"/>
    <nd ref="83238315"/>
    <nd ref="83238314"/>
    <nd ref="83255982"/>
    <nd ref="83255981"/>
    <nd ref="250286155"/>
    <nd ref="250432443"/>
    <tag k="highway" v="primary"/>
    <tag k="maxspeed" v="60"/>
    <tag k="name" v="Bathurst Street"/>
    <tag k="oneway" v="yes"/>
    <tag k="ref" v="M1"/>
  </way>
  <way id="30478755" version="4" timestamp="2009-11-04T05:15:02Z" uid="4467" user="Rosscoe" changeset="3030311">
    <nd ref="83238344"/>
    <nd ref="83238343"/>
    <nd ref="83238341"/>
    <nd ref="83238338"/>
    <nd ref="83238336"/>
    <nd ref="83238335"/>
    <nd ref="83238334"/>
    <nd ref="246936569"/>
    <nd ref="83238332"/>
    <nd ref="83238331"/>
    <nd ref="83238329"/>
    <nd ref="83238327"/>
    <nd ref="250434249"/>
    <nd ref="250434081"/>
    <nd ref="246936230"/>
    <nd ref="246936228"/>
    <nd ref="246936223"/>
    <nd ref="246936225"/>
    <tag k="highway" v="primary"/>
    <tag k="maxspeed" v="60"/>
    <tag k="name" v="Bathurst Street"/>
    <tag k="oneway" v="yes"/>
    <tag k="ref" v="M1"/>
  </way>
  <way id="30478755" version="5" timestamp="2009-11-04T05:18:20Z" uid="4467" user="Rosscoe" changeset="3030311">
    <nd ref="83238344"/>
    <nd ref="83238343"/>
    <nd ref="83238341"/>
    <nd ref="83238338"/>
    <nd ref="83238336"/>
    <nd ref="83238335"/>
    <nd ref="83238334"/>
    <nd ref="246936569"/>
    <nd ref="83238332"/>
    <nd ref="83238331"/>
    <nd ref="83238329"/>
    <nd ref="83238327"/>
    <nd ref="250434249"/>
    <nd ref="250434081"/>
    <nd ref="246936230"/>
    <nd ref="246936228"/>
    <nd ref="246936223"/>
    <nd ref="246936225"/>
    <tag k="highway" v="trunk"/>
    <tag k="maxspeed" v="60"/>
    <tag k="name" v="Bathurst Street"/>
    <tag k="oneway" v="yes"/>
    <tag k="ref" v="1"/>
  </way>
  <way id="30478755" version="7" timestamp="2010-03-05T07:00:53Z" uid="4467" user="Rosscoe" changeset="4038399">
    <nd ref="83238344"/>
    <nd ref="83238343"/>
    <nd ref="83238341"/>
    <nd ref="83238338"/>
    <nd ref="660567164"/>
    <nd ref="83238335"/>
    <tag k="highway" v="trunk"/>
    <tag k="maxspeed" v="60"/>
    <tag k="name" v="Bathurst Street"/>
    <tag k="oneway" v="yes"/>
    <tag k="ref" v="1"/>
  </way>
  <way id="30478755" version="10" timestamp="2011-02-01T07:58:07Z" uid="4467" user="Rosscoe" changeset="7152257">
    <nd ref="83238344"/>
    <nd ref="83238343"/>
    <nd ref="83238341"/>
    <nd ref="660567164"/>
    <nd ref="83238335"/>
    <tag k="highway" v="trunk"/>
    <tag k="maxspeed" v="60"/>
    <tag k="name" v="Bathurst Street"/>
    <tag k="oneway" v="yes"/>
    <tag k="ref" v="1"/>
    <tag k="source" v="survey"/>
  </way>
  <way id="30478834" version="3" timestamp="2010-07-08T16:27:47Z" uid="74617" user="JohnSmith" changeset="5167338">
    <nd ref="336296701"/>
    <nd ref="336296702"/>
    <nd ref="336296704"/>
    <nd ref="336296705"/>
    <nd ref="336296706"/>
    <nd ref="336296708"/>
    <nd ref="336296710"/>
    <nd ref="336296711"/>
    <nd ref="336296712"/>
    <nd ref="336296713"/>
    <nd ref="336296714"/>
    <nd ref="336296715"/>
    <nd ref="336296718"/>
    <nd ref="336296719"/>
    <nd ref="336296720"/>
    <nd ref="336296721"/>
    <nd ref="336296723"/>
    <nd ref="336296724"/>
    <nd ref="336296726"/>
    <nd ref="336296727"/>
    <nd ref="336296728"/>
    <nd ref="336296730"/>
    <nd ref="336296731"/>
    <nd ref="336296733"/>
    <nd ref="336296734"/>
    <tag k="highway" v="residential"/>
    <tag k="maxspeed" v="50"/>
    <tag k="maxspeed:source" v="default residential speed limit in Australia"/>
    <tag k="name" v="Cedar Drive"/>
    <tag k="source" v="GPS"/>
  </way>
  <way id="30478908" version="2" timestamp="2010-07-08T16:30:20Z" uid="74617" user="JohnSmith" changeset="5167338">
    <nd ref="336296730"/>
    <nd ref="336297943"/>
    <nd ref="336297945"/>
    <nd ref="336297947"/>
    <nd ref="336297949"/>
    <nd ref="336297952"/>
    <nd ref="336297954"/>
    <nd ref="336297955"/>
    <nd ref="336297957"/>
    <nd ref="336296713"/>
    <tag k="highway" v="residential"/>
    <tag k="maxspeed" v="50"/>
    <tag k="maxspeed:source" v="default residential speed limit in Australia"/>
    <tag k="name" v="Cherrywood Crescent"/>
    <tag k="source" v="GPS"/>
  </way>
  <way id="30478924" version="2" timestamp="2010-07-08T16:27:09Z" uid="74617" user="JohnSmith" changeset="5167338">
    <nd ref="336297955"/>
    <nd ref="336298133"/>
    <tag k="highway" v="residential"/>
    <tag k="maxspeed" v="50"/>
    <tag k="maxspeed:source" v="default residential speed limit in Australia"/>
    <tag k="name" v="Cherrywood Crescent"/>
    <tag k="source" v="GPS"/>
  </way>
  <way id="30478968" version="2" timestamp="2010-07-08T16:27:25Z" uid="74617" user="JohnSmith" changeset="5167338">
    <nd ref="336296705"/>
    <nd ref="78069845"/>
    <tag k="highway" v="residential"/>
    <tag k="maxspeed" v="50"/>
    <tag k="maxspeed:source" v="default residential speed limit in Australia"/>
    <tag k="name" v="Cedar Drive"/>
    <tag k="source" v="GPS"/>
  </way>
  <way id="30478974" version="2" timestamp="2010-07-08T16:30:48Z" uid="74617" user="JohnSmith" changeset="5167338">
    <nd ref="336296728"/>
    <nd ref="336299661"/>
    <tag k="highway" v="residential"/>
    <tag k="maxspeed" v="50"/>
    <tag k="maxspeed:source" v="default residential speed limit in Australia"/>
    <tag k="name" v="Cedar Drive"/>
    <tag k="source" v="GPS"/>
  </way>
</osm>
