<?xml version='1.0' encoding='UTF-8'?>
<osm version="0.6" generator="libosmium/2.20.0">
  <way id="30497080" version="2" timestamp="2010-04-06T14:36:43Z" uid="20587" user="balrog-kun" changeset="4342997">
    <nd ref="336584210"/>
    <nd ref="336584216"/>
    <nd ref="336584222"/>
    <nd ref="336584226"/>
    <nd ref="336584231"/>
    <nd ref="336584236"/>
    <tag k="addr:city" v="Haysville"/>
    <tag k="addr:postcode" v="67060"/>
    <tag k="created_by" v="Potlatch 0.10f"/>
    <tag k="highway" v="residential"/>
    <tag k="name" v="South Hydraulic Court"/>
  </way>
  <way id="30497388" version="8" timestamp="2011-04-30T12:49:53Z" uid="9581" user="Lobelt" changeset="8011373">
    <nd ref="305264559"/>
    <nd ref="305512396"/>
    <nd ref="60498585"/>
    <nd ref="305265567"/>
    <nd ref="417401451"/>
    <nd ref="305264560"/>
    <nd ref="417406257"/>
    <nd ref="60498596"/>
    <nd ref="60498598"/>
    <nd ref="60498573"/>
    <nd ref="417401450"/>
    <tag k="highway" v="secondary"/>
    <tag k="name" v="HauptstraÃŸe"/>
    <tag k="ref" v="L 3272"/>
  </way>
  <way id="30497712" version="3" timestamp="2009-02-01T20:35:39Z" uid="6975" user="ulfl" changeset="27333">
    <nd ref="336595999"/>
    <nd ref="336596002"/>
    <nd ref="336596007"/>
    <nd ref="336596012"/>
    <nd ref="336595999"/>
    <tag k="building" v="yes"/>
    <tag k="leisure" v="sports_centre"/>
    <tag k="sport" v="multi"/>
  </way>
  <way id="30497753" version="2" timestamp="2010-04-25T07:29:08Z" uid="58091" user="Andreas M" changeset="4518289">
    <nd ref="93547150"/>
    <nd ref="93547151"/>
    <nd ref="93547154"/>
    <nd ref="61929259"/>
    <tag k="highway" v="residential"/>
    <tag k="name" v="Starkfriedgasse"/>
  </way>
</osm>
