<?xml version='1.0' encoding='UTF-8'?>
<osm version="0.6" generator="libosmium/2.20.0">
  <way id="30498135" version="5" timestamp="2010-04-06T14:36:43Z" uid="20587" user="balrog-kun" changeset="4342997">
    <nd ref="336603005"/>
    <nd ref="336603009"/>
    <nd ref="336603014"/>
    <nd ref="336603020"/>
    <nd ref="336603024"/>
    <nd ref="336603028"/>
    <nd ref="336603031"/>
    <nd ref="336603035"/>
    <nd ref="336603038"/>
    <nd ref="336603041"/>
    <nd ref="336603046"/>
    <nd ref="336603048"/>
    <nd ref="336603009"/>
    <tag k="addr:postcode" v="67216"/>
    <tag k="created_by" v="Potlatch 0.10f"/>
    <tag k="highway" v="residential"/>
    <tag k="name" v="South Kansas Court"/>
  </way>
  <way id="30498232" version="3" timestamp="2010-01-30T21:20:57Z" uid="38524" user="Kuddy" changeset="3754900">
    <nd ref="336604007"/>
    <nd ref="336604013"/>
    <nd ref="336604019"/>
    <nd ref="336604023"/>
    <nd ref="336604028"/>
    <nd ref="336604032"/>
    <nd ref="336604039"/>
    <nd ref="336604045"/>
    <nd ref="336604052"/>
    <nd ref="336604057"/>
    <nd ref="336604062"/>
    <nd ref="336604067"/>
    <nd ref="336604073"/>
    <nd ref="336604081"/>
    <nd ref="336604086"/>
    <nd ref="336604092"/>
    <nd ref="490537572"/>
    <tag k="access" v="designated"/>
    <tag k="highway" v="track"/>
    <tag k="layer" v="0"/>
    <tag k="surface" v="paved"/>
  </way>
  <way id="30498282" version="3" timestamp="2009-09-16T17:03:06Z" uid="107674" user="GeoCounter" changeset="2504417">
    <nd ref="336606699"/>
    <nd ref="60166623"/>
    <nd ref="60166624"/>
    <nd ref="60166625"/>
    <nd ref="60166626"/>
    <nd ref="60166627"/>
    <nd ref="60166628"/>
    <nd ref="60166629"/>
    <nd ref="60166630"/>
    <nd ref="429357986"/>
    <nd ref="429357984"/>
    <nd ref="60166631"/>
    <nd ref="60166632"/>
    <nd ref="429358008"/>
    <nd ref="60166633"/>
    <nd ref="60166634"/>
    <nd ref="60166635"/>
    <nd ref="264129278"/>
    <nd ref="264129274"/>
    <tag k="created_by" v="JOSM"/>
    <tag k="highway" v="residential"/>
    <tag k="maxspeed" v="50"/>
  </way>
  <way id="30498484" version="3" timestamp="2009-02-01T17:50:44Z" uid="6975" user="ulfl" changeset="27333">
    <nd ref="288395825"/>
    <nd ref="336609011"/>
    <tag k="bridge" v="viaduc"/>
    <tag k="highway" v="trunk"/>
    <tag k="lanes" v="2"/>
    <tag k="layer" v="1"/>
    <tag k="maxspeed" v="110"/>
    <tag k="name" v="rocade sud"/>
    <tag k="oneway" v="yes"/>
  </way>
  <way id="30498712" version="4" timestamp="2010-04-06T14:36:43Z" uid="20587" user="balrog-kun" changeset="4342997">
    <nd ref="336614879"/>
    <nd ref="336614883"/>
    <nd ref="336614889"/>
    <nd ref="336614896"/>
    <nd ref="336614902"/>
    <nd ref="336614908"/>
    <nd ref="336616478"/>
    <nd ref="336614915"/>
    <nd ref="336614922"/>
    <nd ref="336614928"/>
    <tag k="addr:postcode" v="67060"/>
    <tag k="created_by" v="Potlatch 0.10f"/>
    <tag k="highway" v="residential"/>
    <tag k="name" v="West Hannah Lane"/>
  </way>
  <way id="30498785" version="3" timestamp="2009-02-01T17:42:18Z" uid="6975" user="ulfl" changeset="27333">
    <nd ref="336614900"/>
    <nd ref="336614911"/>
    <nd ref="336614918"/>
    <nd ref="336614931"/>
    <nd ref="336614900"/>
    <tag k="amenity" v="place_of_worship"/>
    <tag k="building" v="yes"/>
    <tag k="denomination" v="evangelical"/>
    <tag k="name" v="Michaelskirche"/>
    <tag k="religion" v="christian"/>
  </way>
  <way id="30498850" version="6" timestamp="2010-04-06T14:36:44Z" uid="20587" user="balrog-kun" changeset="4342997">
    <nd ref="336616466"/>
    <nd ref="336616471"/>
    <nd ref="336614915"/>
    <tag k="addr:postcode" v="67060"/>
    <tag k="created_by" v="Potlatch 0.10f"/>
    <tag k="highway" v="residential"/>
    <tag k="name" v="West Hannah Lane"/>
  </way>
</osm>
