<?xml version='1.0' encoding='UTF-8'?>
<osm version="0.6" generator="libosmium/2.20.0">
  <way id="30627210" version="1" timestamp="2009-01-28T18:59:49Z" uid="68769" user="david lynch" changeset="849252">
    <nd ref="312116423"/>
    <nd ref="312116424"/>
    <tag k="bridge" v="yes"/>
    <tag k="created_by" v="Potlatch 0.10f"/>
    <tag k="highway" v="motorway_link"/>
    <tag k="layer" v="3"/>
    <tag k="oneway" v="yes"/>
  </way>
  <way id="30627210" version="2" timestamp="2009-01-28T18:59:53Z" uid="68769" user="david lynch" changeset="849252">
    <nd ref="312116423"/>
    <nd ref="312116424"/>
    <tag k="created_by" v="Potlatch 0.10f"/>
    <tag k="highway" v="motorway_link"/>
    <tag k="oneway" v="yes"/>
  </way>
  <way id="30627389" version="5" timestamp="2009-04-26T11:29:50Z" uid="20587" user="balrog-kun" changeset="972444">
    <nd ref="34814894"/>
    <nd ref="338750139"/>
    <nd ref="385186261"/>
    <nd ref="34815623"/>
    <nd ref="35163852"/>
    <tag k="created_by" v="Merkaartor 0.12"/>
    <tag k="highway" v="primary"/>
    <tag k="int_ref" v="E 30"/>
    <tag k="maxheight" v="3,8"/>
    <tag k="name" v="Marcina Kasprzaka"/>
    <tag k="oneway" v="yes"/>
    <tag k="ref" v="2"/>
  </way>
  <way id="30627389" version="6" timestamp="2009-05-25T21:42:14Z" uid="20587" user="balrog-kun" changeset="1321398">
    <nd ref="34814894"/>
    <nd ref="338750139"/>
    <nd ref="385186261"/>
    <nd ref="34815623"/>
    <nd ref="35163852"/>
    <tag k="created_by" v="Merkaartor 0.12"/>
    <tag k="highway" v="primary"/>
    <tag k="int_ref" v="E 30"/>
    <tag k="maxheight" v="3,8"/>
    <tag k="name" v="Marcina Kasprzaka"/>
    <tag k="oneway" v="yes"/>
    <tag k="ref" v="2"/>
    <tag k="wikipedia" v="pl:Ulica Marcina Kasprzaka w Warszawie"/>
  </way>
  <way id="30627389" version="8" timestamp="2010-12-13T14:48:27Z" uid="20587" user="balrog-kun" changeset="6648449">
    <nd ref="34814894"/>
    <nd ref="338750139"/>
    <nd ref="385186261"/>
    <nd ref="34815623"/>
    <nd ref="35163852"/>
    <tag k="highway" v="primary"/>
    <tag k="horse" v="no"/>
    <tag k="horsedrawn" v="no"/>
    <tag k="int_ref" v="E 30"/>
    <tag k="maxheight" v="3.8"/>
    <tag k="name" v="Marcina Kasprzaka"/>
    <tag k="oneway" v="yes"/>
    <tag k="ref" v="2"/>
    <tag k="wikipedia" v="pl:Ulica Marcina Kasprzaka w Warszawie"/>
  </way>
  <way id="30627389" version="9" timestamp="2011-01-24T16:03:13Z" uid="20587" user="balrog-kun" changeset="7073235">
    <nd ref="34814894"/>
    <nd ref="338750139"/>
    <nd ref="385186261"/>
    <nd ref="1118839300"/>
    <nd ref="1118839895"/>
    <nd ref="34815623"/>
    <nd ref="35163852"/>
    <tag k="highway" v="primary"/>
    <tag k="horse" v="no"/>
    <tag k="horsedrawn" v="no"/>
    <tag k="int_ref" v="E 30"/>
    <tag k="maxheight" v="3.8"/>
    <tag k="name" v="Marcina Kasprzaka"/>
    <tag k="oneway" v="yes"/>
    <tag k="ref" v="2"/>
    <tag k="wikipedia" v="pl:Ulica Marcina Kasprzaka w Warszawie"/>
  </way>
  <way id="30627439" version="2" timestamp="2009-11-12T01:55:27Z" uid="36809" user="pfoten_weg_!_" changeset="3095145">
    <nd ref="338750530"/>
    <nd ref="338750532"/>
    <nd ref="338750533"/>
    <nd ref="338750535"/>
    <nd ref="338750536"/>
    <nd ref="338750538"/>
    <nd ref="338750540"/>
    <nd ref="338750541"/>
    <nd ref="338750543"/>
    <nd ref="338750544"/>
    <nd ref="338750546"/>
    <nd ref="338750547"/>
    <nd ref="338750549"/>
    <nd ref="338750551"/>
    <nd ref="338750553"/>
    <nd ref="338750554"/>
    <nd ref="338750556"/>
    <nd ref="338750557"/>
    <nd ref="338750559"/>
    <nd ref="338750561"/>
    <nd ref="338750562"/>
    <nd ref="338750564"/>
    <nd ref="338750565"/>
    <nd ref="338750568"/>
    <nd ref="338750572"/>
    <nd ref="338750575"/>
    <nd ref="338750577"/>
    <nd ref="338750580"/>
    <nd ref="338750581"/>
    <nd ref="338750584"/>
    <nd ref="338750585"/>
    <nd ref="338750588"/>
    <nd ref="338750589"/>
    <nd ref="338750590"/>
    <nd ref="338750593"/>
    <nd ref="338750594"/>
    <nd ref="338750530"/>
    <tag k="landuse" v="residential"/>
  </way>
  <way id="30627893" version="2" timestamp="2009-02-08T20:04:49Z" uid="65847" user="LKK" changeset="281346">
    <nd ref="338754679"/>
    <nd ref="338754680"/>
    <tag k="created_by" v="Potlatch 0.10f"/>
    <tag k="highway" v="residential"/>
  </way>
  <way id="30627943" version="2" timestamp="2009-02-08T20:04:48Z" uid="65847" user="LKK" changeset="281346">
    <nd ref="338755373"/>
    <nd ref="276775431"/>
    <nd ref="338755376"/>
    <nd ref="338755379"/>
    <nd ref="338755382"/>
    <tag k="created_by" v="Potlatch 0.10f"/>
    <tag k="highway" v="residential"/>
  </way>
  <way id="30627992" version="10" timestamp="2010-03-16T10:00:29Z" uid="58091" user="Andreas M" changeset="4141985">
    <nd ref="337311977"/>
    <nd ref="338757245"/>
    <nd ref="338757216"/>
    <nd ref="338757248"/>
    <nd ref="338757250"/>
    <nd ref="338757256"/>
    <nd ref="338757258"/>
    <nd ref="338757260"/>
    <nd ref="338757262"/>
    <nd ref="338757263"/>
    <nd ref="251503157"/>
    <nd ref="338756931"/>
    <nd ref="338756934"/>
    <nd ref="338756937"/>
    <nd ref="338756941"/>
    <nd ref="338756944"/>
    <nd ref="338756945"/>
    <nd ref="338756946"/>
    <nd ref="338756948"/>
    <nd ref="338756951"/>
    <nd ref="338756954"/>
    <nd ref="338756955"/>
    <nd ref="338756230"/>
    <nd ref="338756231"/>
    <nd ref="338756233"/>
    <nd ref="338756234"/>
    <nd ref="338756235"/>
    <tag k="addr:postcode" v="3430"/>
    <tag k="fixme" v="check import"/>
    <tag k="highway" v="unclassified"/>
    <tag k="is_in" v="...,Bezirk Tulln,Niederösterreich,Österreich,Europa"/>
    <tag k="note" v="imported from plan.at; (C)=CC-by-sa or oDBL; feel free to change if necessary"/>
    <tag k="plan_at:acad_id" v="tu2069"/>
    <tag k="source" v="plan.at 2009"/>
    <tag k="uploaded_by" v="Wolfgang W. Wasserburger"/>
  </way>
</osm>
