<?xml version='1.0' encoding='UTF-8'?>
<osm version="0.6" generator="libosmium/2.20.0">
  <way id="30800403" version="1" timestamp="2009-02-05T14:56:30Z" uid="43863" user="Rundling" changeset="154108">
    <nd ref="341114499"/>
    <nd ref="341114501"/>
    <nd ref="341114503"/>
    <nd ref="341114505"/>
    <nd ref="341114499"/>
    <tag k="landuse" v="forest"/>
  </way>
  <way id="30800403" version="2" timestamp="2009-02-05T16:26:57Z" uid="43863" user="Rundling" changeset="155697">
    <nd ref="341114499"/>
    <nd ref="341114501"/>
    <nd ref="341114503"/>
    <nd ref="341177399"/>
    <nd ref="341177396"/>
    <nd ref="341114505"/>
    <nd ref="341114499"/>
    <tag k="landuse" v="forest"/>
  </way>
  <way id="30800424" version="2" timestamp="2009-02-23T12:31:02Z" uid="34428" user="usm78-gis" changeset="634299"/>
  <way id="30800458" version="2" timestamp="2009-05-24T13:33:23Z" uid="6269" user="Mueck" changeset="1305649">
    <nd ref="341116469"/>
    <nd ref="28089435"/>
    <nd ref="28089453"/>
    <nd ref="341116489"/>
    <tag k="created_by" v="Merkaartor 0.13"/>
    <tag k="cycleway" v="track"/>
    <tag k="highway" v="secondary"/>
    <tag k="lanes" v="1"/>
    <tag k="maxspeed" v="50"/>
    <tag k="name" v="Durlacher Allee"/>
    <tag k="note" v="im SHP des NVK: I, mit Kriegsstr-Ost aber III sinnvoller"/>
    <tag k="oneway" v="yes"/>
  </way>
  <way id="30800458" version="5" timestamp="2011-02-04T15:12:47Z" uid="6269" user="Mueck" changeset="7184150">
    <nd ref="21498796"/>
    <nd ref="341116469"/>
    <nd ref="759814615"/>
    <nd ref="28089435"/>
    <nd ref="28089453"/>
    <nd ref="341116489"/>
    <tag k="cycleway" v="track"/>
    <tag k="highway" v="secondary"/>
    <tag k="lanes" v="1"/>
    <tag k="maxspeed" v="50"/>
    <tag k="name" v="Durlacher Allee"/>
    <tag k="note" v="im SHP des NVK: I, mit Kriegsstr-Ost aber III sinnvoller"/>
    <tag k="oneway" v="yes"/>
  </way>
  <way id="30800458" version="6" timestamp="2011-02-04T15:36:16Z" uid="6269" user="Mueck" changeset="7184150">
    <nd ref="21498796"/>
    <nd ref="341116469"/>
    <nd ref="759814615"/>
    <nd ref="1135779240"/>
    <nd ref="1135779371"/>
    <nd ref="1135779311"/>
    <nd ref="1135779286"/>
    <nd ref="28089435"/>
    <nd ref="1135779267"/>
    <nd ref="1135779305"/>
    <nd ref="28089453"/>
    <nd ref="341116489"/>
    <tag k="cycleway" v="track"/>
    <tag k="highway" v="secondary"/>
    <tag k="lanes" v="1"/>
    <tag k="maxspeed" v="50"/>
    <tag k="name" v="Durlacher Allee"/>
    <tag k="note" v="im SHP des NVK: I, mit Kriegsstr-Ost aber III sinnvoller"/>
    <tag k="oneway" v="yes"/>
  </way>
  <way id="30800460" version="3" timestamp="2009-05-24T13:34:35Z" uid="6269" user="Mueck" changeset="1305649">
    <nd ref="341116489"/>
    <nd ref="341117301"/>
    <tag k="created_by" v="Merkaartor 0.13"/>
    <tag k="cycleway" v="lane"/>
    <tag k="highway" v="secondary"/>
    <tag k="maxspeed" v="50"/>
    <tag k="name" v="Durlacher Allee"/>
    <tag k="note" v="im SHP des NVK: I, mit Kriegsstr-Ost aber III sinnvoller"/>
    <tag k="oneway" v="yes"/>
  </way>
  <way id="30800460" version="4" timestamp="2009-06-03T09:40:58Z" uid="6269" user="Mueck" changeset="1411346"/>
  <way id="30800490" version="2" timestamp="2009-02-07T16:29:40Z" uid="6975" user="ulfl" changeset="238208">
    <nd ref="60296500"/>
    <nd ref="60296501"/>
    <nd ref="60296502"/>
    <nd ref="341116995"/>
    <tag k="highway" v="motorway"/>
    <tag k="tunnel" v="yes"/>
  </way>
  <way id="30800508" version="3" timestamp="2009-05-24T13:34:51Z" uid="6269" user="Mueck" changeset="1305649">
    <nd ref="341117303"/>
    <nd ref="14911509"/>
    <nd ref="14911511"/>
    <nd ref="14911503"/>
    <nd ref="341124008"/>
    <tag k="created_by" v="Merkaartor 0.13"/>
    <tag k="cycleway" v="lane"/>
    <tag k="highway" v="secondary"/>
    <tag k="maxspeed" v="50"/>
    <tag k="name" v="Durlacher Allee"/>
    <tag k="note" v="im SHP des NVK: I, mit Kriegsstr-Ost aber III sinnvoller"/>
    <tag k="oneway" v="yes"/>
  </way>
  <way id="30800508" version="5" timestamp="2011-03-20T20:07:17Z" uid="6269" user="Mueck" changeset="7621113">
    <nd ref="341117303"/>
    <nd ref="14911509"/>
    <nd ref="14911511"/>
    <nd ref="1211015964"/>
    <nd ref="14911503"/>
    <nd ref="341124008"/>
    <tag k="cycleway" v="lane"/>
    <tag k="highway" v="secondary"/>
    <tag k="maxspeed" v="50"/>
    <tag k="name" v="Durlacher Allee"/>
    <tag k="note" v="im SHP des NVK: I, mit Kriegsstr-Ost aber III sinnvoller"/>
    <tag k="oneway" v="yes"/>
  </way>
  <way id="30800509" version="4" timestamp="2009-06-03T09:40:58Z" uid="6269" user="Mueck" changeset="1411346">
    <nd ref="341116489"/>
    <nd ref="341117301"/>
    <nd ref="341117303"/>
    <tag k="created_by" v="Merkaartor 0.13"/>
    <tag k="cycleway" v="lane"/>
    <tag k="highway" v="secondary"/>
    <tag k="maxspeed" v="50"/>
    <tag k="name" v="Durlacher Allee"/>
    <tag k="note" v="im SHP des NVK: I, mit Kriegsstr-Ost aber III sinnvoller"/>
    <tag k="oneway" v="yes"/>
  </way>
  <way id="30800509" version="6" timestamp="2011-02-04T15:36:20Z" uid="6269" user="Mueck" changeset="7184150">
    <nd ref="341116489"/>
    <nd ref="1135779210"/>
    <nd ref="341117301"/>
    <nd ref="341117303"/>
    <tag k="cycleway" v="track"/>
    <tag k="highway" v="secondary"/>
    <tag k="maxspeed" v="50"/>
    <tag k="name" v="Durlacher Allee"/>
    <tag k="note" v="im SHP des NVK: I, mit Kriegsstr-Ost aber III sinnvoller"/>
    <tag k="oneway" v="yes"/>
  </way>
  <way id="30800514" version="3" timestamp="2009-02-26T17:59:20Z" uid="68769" user="david lynch" changeset="673619">
    <nd ref="341117562"/>
    <nd ref="341117563"/>
    <nd ref="341117564"/>
    <nd ref="341117566"/>
    <nd ref="341117568"/>
    <tag k="created_by" v="Potlatch 0.10f"/>
    <tag k="landuse" v="commercial"/>
    <tag k="name" v="Factory Outlet Mall"/>
  </way>
  <way id="30800514" version="4" timestamp="2009-02-26T17:59:42Z" uid="68769" user="david lynch" changeset="673619">
    <nd ref="341117562"/>
    <nd ref="341117563"/>
    <nd ref="341117564"/>
    <nd ref="341117566"/>
    <nd ref="353004309"/>
    <tag k="created_by" v="Potlatch 0.10f"/>
    <tag k="landuse" v="commercial"/>
    <tag k="name" v="Factory Outlet Mall"/>
  </way>
  <way id="30800514" version="5" timestamp="2009-02-26T17:59:59Z" uid="68769" user="david lynch" changeset="673619"/>
  <way id="30800724" version="3" timestamp="2009-05-24T13:36:28Z" uid="6269" user="Mueck" changeset="1305649">
    <nd ref="341124008"/>
    <nd ref="14911499"/>
    <tag k="created_by" v="Merkaartor 0.13"/>
    <tag k="highway" v="secondary"/>
    <tag k="lanes" v="1"/>
    <tag k="maxspeed" v="50"/>
    <tag k="name" v="Durlacher Allee"/>
    <tag k="note" v="im SHP des NVK: I, mit Kriegsstr-Ost aber III sinnvoller"/>
    <tag k="oneway" v="yes"/>
  </way>
  <way id="30800724" version="4" timestamp="2009-05-24T13:36:35Z" uid="6269" user="Mueck" changeset="1305649">
    <nd ref="341124008"/>
    <nd ref="14911499"/>
    <tag k="created_by" v="Merkaartor 0.13"/>
    <tag k="cycleway" v="lane"/>
    <tag k="highway" v="secondary"/>
    <tag k="lanes" v="1"/>
    <tag k="maxspeed" v="50"/>
    <tag k="name" v="Durlacher Allee"/>
    <tag k="note" v="im SHP des NVK: I, mit Kriegsstr-Ost aber III sinnvoller"/>
    <tag k="oneway" v="yes"/>
  </way>
  <way id="30800725" version="2" timestamp="2009-05-24T13:36:57Z" uid="6269" user="Mueck" changeset="1305649">
    <nd ref="341124012"/>
    <nd ref="262843061"/>
    <nd ref="526165"/>
    <nd ref="412542"/>
    <tag k="created_by" v="Merkaartor 0.13"/>
    <tag k="cycleway" v="track"/>
    <tag k="highway" v="secondary"/>
    <tag k="maxspeed" v="50"/>
    <tag k="name" v="Durlacher Allee"/>
    <tag k="note" v="im SHP des NVK: I, mit Kriegsstr-Ost aber III sinnvoller"/>
    <tag k="oneway" v="yes"/>
  </way>
  <way id="30800725" version="4" timestamp="2011-02-04T23:03:48Z" uid="6269" user="Mueck" changeset="7188115">
    <nd ref="341124012"/>
    <nd ref="1136518673"/>
    <nd ref="262843061"/>
    <nd ref="526165"/>
    <nd ref="412542"/>
    <tag k="cycleway" v="track"/>
    <tag k="highway" v="secondary"/>
    <tag k="maxspeed" v="50"/>
    <tag k="name" v="Durlacher Allee"/>
    <tag k="note" v="im SHP des NVK: I, mit Kriegsstr-Ost aber III sinnvoller"/>
    <tag k="oneway" v="yes"/>
  </way>
  <way id="30800737" version="2" timestamp="2009-05-24T13:39:19Z" uid="6269" user="Mueck" changeset="1305649">
    <nd ref="341124741"/>
    <nd ref="286376292"/>
    <nd ref="31088866"/>
    <nd ref="286376300"/>
    <nd ref="28088672"/>
    <tag k="created_by" v="Merkaartor 0.13"/>
    <tag k="cycleway" v="track"/>
    <tag k="highway" v="primary"/>
    <tag k="maxspeed" v="60"/>
    <tag k="name" v="Durlacher Allee"/>
    <tag k="oneway" v="yes"/>
    <tag k="ref" v="B 10"/>
  </way>
  <way id="30800737" version="4" timestamp="2009-07-01T23:11:35Z" uid="6269" user="Mueck" changeset="1705642">
    <nd ref="341124741"/>
    <nd ref="421648989"/>
    <nd ref="286376292"/>
    <nd ref="31088866"/>
    <nd ref="286376300"/>
    <nd ref="432029742"/>
    <nd ref="28088672"/>
    <tag k="cycleway" v="track"/>
    <tag k="highway" v="primary"/>
    <tag k="maxspeed" v="60"/>
    <tag k="name" v="Durlacher Allee"/>
    <tag k="oneway" v="yes"/>
    <tag k="ref" v="B 10"/>
  </way>
  <way id="30800737" version="5" timestamp="2009-07-01T23:11:40Z" uid="6269" user="Mueck" changeset="1705642">
    <nd ref="341124741"/>
    <nd ref="421648989"/>
    <nd ref="286376292"/>
    <nd ref="31088866"/>
    <nd ref="286376300"/>
    <nd ref="432029742"/>
    <tag k="cycleway" v="track"/>
    <tag k="highway" v="primary"/>
    <tag k="maxspeed" v="60"/>
    <tag k="name" v="Durlacher Allee"/>
    <tag k="oneway" v="yes"/>
    <tag k="ref" v="B 10"/>
  </way>
  <way id="30800737" version="8" timestamp="2010-04-22T16:09:49Z" uid="6269" user="Mueck" changeset="4496275">
    <nd ref="341124741"/>
    <nd ref="286376292"/>
    <nd ref="31088866"/>
    <nd ref="286376300"/>
    <nd ref="432029742"/>
    <tag k="cycleway" v="track"/>
    <tag k="highway" v="primary"/>
    <tag k="maxspeed" v="60"/>
    <tag k="motorroad" v="no"/>
    <tag k="name" v="Durlacher Allee"/>
    <tag k="oneway" v="yes"/>
    <tag k="ref" v="B 10"/>
  </way>
  <way id="30800737" version="9" timestamp="2011-02-04T23:03:48Z" uid="6269" user="Mueck" changeset="7188115">
    <nd ref="341124741"/>
    <nd ref="286376292"/>
    <nd ref="286376300"/>
    <nd ref="432029742"/>
    <tag k="cycleway" v="track"/>
    <tag k="highway" v="primary"/>
    <tag k="maxspeed" v="60"/>
    <tag k="motorroad" v="no"/>
    <tag k="name" v="Durlacher Allee"/>
    <tag k="oneway" v="yes"/>
    <tag k="ref" v="B 10"/>
  </way>
  <way id="30800737" version="10" timestamp="2011-02-06T00:14:00Z" uid="6269" user="Mueck" changeset="7199030">
    <nd ref="341124741"/>
    <nd ref="286376292"/>
    <nd ref="286376300"/>
    <nd ref="1138258510"/>
    <nd ref="432029742"/>
    <tag k="cycleway" v="track"/>
    <tag k="highway" v="primary"/>
    <tag k="maxspeed" v="60"/>
    <tag k="motorroad" v="no"/>
    <tag k="name" v="Durlacher Allee"/>
    <tag k="oneway" v="yes"/>
    <tag k="ref" v="B 10"/>
  </way>
  <way id="30800738" version="2" timestamp="2009-05-24T13:38:56Z" uid="6269" user="Mueck" changeset="1305649">
    <nd ref="341124736"/>
    <nd ref="17199074"/>
    <nd ref="17199065"/>
    <nd ref="341124741"/>
    <tag k="created_by" v="Merkaartor 0.13"/>
    <tag k="cycleway" v="track"/>
    <tag k="highway" v="primary"/>
    <tag k="lanes" v="3"/>
    <tag k="maxspeed" v="60"/>
    <tag k="name" v="Durlacher Allee"/>
    <tag k="oneway" v="yes"/>
    <tag k="ref" v="B 10"/>
  </way>
  <way id="30800738" version="5" timestamp="2010-04-22T16:10:07Z" uid="6269" user="Mueck" changeset="4496275">
    <nd ref="341124736"/>
    <nd ref="17199074"/>
    <nd ref="17199065"/>
    <nd ref="341124741"/>
    <tag k="cycleway" v="track"/>
    <tag k="highway" v="primary"/>
    <tag k="lanes" v="3"/>
    <tag k="maxspeed" v="60"/>
    <tag k="motorroad" v="no"/>
    <tag k="name" v="Durlacher Allee"/>
    <tag k="oneway" v="yes"/>
    <tag k="ref" v="B 10"/>
  </way>
  <way id="30800738" version="6" timestamp="2011-02-04T23:03:48Z" uid="6269" user="Mueck" changeset="7188115">
    <nd ref="341124736"/>
    <nd ref="17199074"/>
    <nd ref="1136518680"/>
    <nd ref="17199065"/>
    <nd ref="341124741"/>
    <tag k="cycleway" v="track"/>
    <tag k="highway" v="primary"/>
    <tag k="lanes" v="3"/>
    <tag k="maxspeed" v="60"/>
    <tag k="motorroad" v="no"/>
    <tag k="name" v="Durlacher Allee"/>
    <tag k="oneway" v="yes"/>
    <tag k="ref" v="B 10"/>
  </way>
  <way id="30800925" version="3" timestamp="2010-04-30T16:56:22Z" uid="6269" user="Mueck" changeset="4567938">
    <nd ref="341132334"/>
    <nd ref="452539"/>
    <nd ref="441104"/>
    <nd ref="713563425"/>
    <nd ref="713563431"/>
    <nd ref="452540"/>
    <nd ref="440994"/>
    <nd ref="341132339"/>
    <tag k="highway" v="motorway"/>
    <tag k="int_ref" v="E 35"/>
    <tag k="lanes" v="4"/>
    <tag k="maxspeed" v="120"/>
    <tag k="oneway" v="yes"/>
    <tag k="ref" v="A 5"/>
  </way>
  <way id="30800925" version="4" timestamp="2010-04-30T16:56:36Z" uid="6269" user="Mueck" changeset="4567938">
    <nd ref="341132334"/>
    <nd ref="452539"/>
    <nd ref="441104"/>
    <nd ref="713563425"/>
    <nd ref="713563431"/>
    <tag k="highway" v="motorway"/>
    <tag k="int_ref" v="E 35"/>
    <tag k="lanes" v="4"/>
    <tag k="maxspeed" v="120"/>
    <tag k="oneway" v="yes"/>
    <tag k="ref" v="A 5"/>
  </way>
  <way id="30800925" version="5" timestamp="2010-05-03T20:32:11Z" uid="6269" user="Mueck" changeset="4598970">
    <nd ref="341132334"/>
    <nd ref="452539"/>
    <nd ref="441104"/>
    <nd ref="713563425"/>
    <tag k="highway" v="motorway"/>
    <tag k="int_ref" v="E 35"/>
    <tag k="lanes" v="4"/>
    <tag k="maxspeed" v="120"/>
    <tag k="oneway" v="yes"/>
    <tag k="ref" v="A 5"/>
  </way>
</osm>
