<?xml version='1.0' encoding='UTF-8'?>
<osm version="0.6" generator="libosmium/2.20.0">
  <way id="30836159" version="3" timestamp="2009-02-23T13:36:11Z" uid="34428" user="usm78-gis" changeset="634299"/>
  <way id="30836185" version="7" timestamp="2010-07-09T04:58:39Z" uid="74617" user="JohnSmith" changeset="5170986">
    <nd ref="218202945"/>
    <nd ref="523697839"/>
    <nd ref="342883061"/>
    <nd ref="364000681"/>
    <nd ref="363999787"/>
    <nd ref="342883017"/>
    <nd ref="363999789"/>
    <nd ref="362970932"/>
    <nd ref="363999791"/>
    <nd ref="362970979"/>
    <nd ref="361831742"/>
    <nd ref="361831892"/>
    <nd ref="361831767"/>
    <nd ref="361831793"/>
    <nd ref="361831816"/>
    <nd ref="361831841"/>
    <nd ref="363999794"/>
    <nd ref="361831866"/>
    <tag k="highway" v="residential"/>
    <tag k="maxspeed" v="50"/>
    <tag k="maxspeed:source" v="default residential speed limit in Australia"/>
    <tag k="name" v="Victoria Avenue"/>
  </way>
  <way id="30836185" version="8" timestamp="2011-04-20T14:38:24Z" uid="4467" user="Rosscoe" changeset="7916821">
    <nd ref="218202945"/>
    <nd ref="523697839"/>
    <nd ref="1252481072"/>
    <nd ref="342883061"/>
    <nd ref="364000681"/>
    <nd ref="363999787"/>
    <nd ref="342883017"/>
    <nd ref="363999789"/>
    <nd ref="362970932"/>
    <nd ref="363999791"/>
    <nd ref="362970979"/>
    <nd ref="361831742"/>
    <nd ref="361831892"/>
    <nd ref="361831767"/>
    <nd ref="361831793"/>
    <nd ref="361831816"/>
    <nd ref="361831841"/>
    <nd ref="363999794"/>
    <nd ref="361831866"/>
    <tag k="highway" v="residential"/>
    <tag k="maxspeed" v="50"/>
    <tag k="name" v="Victoria Avenue"/>
    <tag k="source:maxspeed" v="default residential speed limit in Australia"/>
  </way>
  <way id="30836187" version="3" timestamp="2010-07-09T05:03:13Z" uid="74617" user="JohnSmith" changeset="5170986">
    <nd ref="342883017"/>
    <nd ref="342883033"/>
    <tag k="highway" v="residential"/>
    <tag k="maxspeed" v="50"/>
    <tag k="maxspeed:source" v="default residential speed limit in Australia"/>
    <tag k="name" v="Fellow Street"/>
  </way>
  <way id="30836187" version="4" timestamp="2011-04-20T14:38:20Z" uid="4467" user="Rosscoe" changeset="7916821">
    <nd ref="342883017"/>
    <nd ref="342883033"/>
    <tag k="highway" v="residential"/>
    <tag k="maxspeed" v="50"/>
    <tag k="name" v="Fellow Street"/>
    <tag k="source:maxspeed" v="default residential speed limit in Australia"/>
  </way>
  <way id="30836190" version="2" timestamp="2010-07-09T05:06:37Z" uid="74617" user="JohnSmith" changeset="5170986">
    <nd ref="342883061"/>
    <nd ref="342883072"/>
    <tag k="highway" v="residential"/>
    <tag k="maxspeed" v="50"/>
    <tag k="maxspeed:source" v="default residential speed limit in Australia"/>
    <tag k="name" v="Haines Street"/>
  </way>
  <way id="30836190" version="3" timestamp="2011-04-20T14:38:18Z" uid="4467" user="Rosscoe" changeset="7916821">
    <nd ref="342883061"/>
    <nd ref="342883072"/>
    <tag k="highway" v="residential"/>
    <tag k="maxspeed" v="50"/>
    <tag k="name" v="Haines Street"/>
    <tag k="source:maxspeed" v="default residential speed limit in Australia"/>
  </way>
  <way id="30836192" version="4" timestamp="2010-07-09T05:04:11Z" uid="74617" user="JohnSmith" changeset="5170986">
    <nd ref="342883033"/>
    <nd ref="342883072"/>
    <nd ref="342883050"/>
    <tag k="highway" v="residential"/>
    <tag k="maxspeed" v="50"/>
    <tag k="maxspeed:source" v="default residential speed limit in Australia"/>
    <tag k="name" v="Ormond Avenue"/>
  </way>
  <way id="30836192" version="5" timestamp="2011-04-20T14:38:18Z" uid="4467" user="Rosscoe" changeset="7916821">
    <nd ref="342883033"/>
    <nd ref="342883072"/>
    <nd ref="342883050"/>
    <tag k="highway" v="residential"/>
    <tag k="maxspeed" v="50"/>
    <tag k="name" v="Ormond Avenue"/>
    <tag k="source:maxspeed" v="default residential speed limit in Australia"/>
  </way>
  <way id="30836201" version="11" timestamp="2009-02-23T13:15:10Z" uid="34428" user="usm78-gis" changeset="634299"/>
  <way id="30836217" version="1" timestamp="2009-02-07T11:04:00Z" uid="58091" user="Andreas M" changeset="247803">
    <nd ref="293189909"/>
    <nd ref="319826868"/>
    <nd ref="60354561"/>
    <nd ref="60215905"/>
    <nd ref="34516812"/>
    <nd ref="76463278"/>
    <nd ref="111164141"/>
    <nd ref="30059975"/>
    <tag k="created_by" v="Merkaartor 0.13"/>
    <tag k="highway" v="primary"/>
    <tag k="maxspeed" v="50"/>
    <tag k="name" v="Schlachthausgasse"/>
    <tag k="railway" v="tram"/>
    <tag k="ref" v="B221"/>
  </way>
  <way id="30836283" version="1" timestamp="2009-02-07T11:06:49Z" uid="58091" user="Andreas M" changeset="247803">
    <nd ref="322064003"/>
    <nd ref="323849562"/>
    <nd ref="31588072"/>
    <nd ref="323849106"/>
    <nd ref="322000648"/>
    <nd ref="31586023"/>
    <nd ref="31907198"/>
    <nd ref="31588073"/>
    <nd ref="31588074"/>
    <nd ref="31588075"/>
    <nd ref="323845754"/>
    <nd ref="31588076"/>
    <nd ref="31588077"/>
    <nd ref="31588079"/>
    <nd ref="245709247"/>
    <nd ref="320917969"/>
    <nd ref="251909974"/>
    <nd ref="31588080"/>
    <nd ref="31588081"/>
    <nd ref="31588082"/>
    <nd ref="31588083"/>
    <nd ref="31588084"/>
    <nd ref="323844017"/>
    <nd ref="31588085"/>
    <nd ref="31588086"/>
    <nd ref="31588087"/>
    <nd ref="31588088"/>
    <nd ref="31588089"/>
    <tag k="created_by" v="Potlatch 0.10f"/>
    <tag k="highway" v="secondary"/>
    <tag k="lcn" v="yes"/>
    <tag k="maxspeed" v="50"/>
    <tag k="name" v="Langobardenstraße"/>
    <tag k="railway" v="tram"/>
  </way>
  <way id="30836290" version="6" timestamp="2009-02-23T13:16:42Z" uid="34428" user="usm78-gis" changeset="634299"/>
  <way id="30836303" version="3" timestamp="2009-02-23T12:57:47Z" uid="34428" user="usm78-gis" changeset="634299"/>
  <way id="30836329" version="1" timestamp="2009-02-07T11:09:24Z" uid="58091" user="Andreas M" changeset="247803">
    <nd ref="66953469"/>
    <nd ref="66953470"/>
    <nd ref="311191337"/>
    <nd ref="66953471"/>
    <nd ref="66953472"/>
    <nd ref="311191335"/>
    <nd ref="66953473"/>
    <nd ref="66953474"/>
    <nd ref="66953475"/>
    <nd ref="66953477"/>
    <nd ref="311191343"/>
    <nd ref="66953469"/>
    <tag k="created_by" v="Potlatch 0.10f"/>
    <tag k="name" v="31"/>
    <tag k="railway" v="tram"/>
    <tag k="ref" v="31"/>
  </way>
  <way id="30836368" version="3" timestamp="2010-01-20T00:37:31Z" uid="30201" user="rrankin" changeset="3663739">
    <nd ref="342890409"/>
    <nd ref="342890410"/>
    <tag k="highway" v="residential"/>
    <tag k="name" v="Truton Place"/>
  </way>
  <way id="30836368" version="4" timestamp="2010-07-08T01:37:21Z" uid="74617" user="JohnSmith" changeset="5162525">
    <nd ref="342890409"/>
    <nd ref="342890410"/>
    <tag k="highway" v="residential"/>
    <tag k="maxspeed" v="50"/>
    <tag k="maxspeed:source" v="default residential speed limit in Australia"/>
    <tag k="name" v="Truton Place"/>
  </way>
  <way id="30836379" version="1" timestamp="2009-02-07T11:13:18Z" uid="58091" user="Andreas M" changeset="247803">
    <nd ref="57520639"/>
    <nd ref="95042240"/>
    <nd ref="57520638"/>
    <nd ref="95042239"/>
    <nd ref="57520636"/>
    <nd ref="329352922"/>
    <nd ref="57520633"/>
    <nd ref="329352928"/>
    <nd ref="95042236"/>
    <nd ref="329352935"/>
    <nd ref="57520632"/>
    <nd ref="329352939"/>
    <nd ref="57520629"/>
    <nd ref="95042235"/>
    <nd ref="57520627"/>
    <nd ref="57520626"/>
    <nd ref="57520623"/>
    <nd ref="95041980"/>
    <nd ref="57520639"/>
    <tag k="created_by" v="Potlatch 0.10e"/>
    <tag k="railway" v="tram"/>
    <tag k="ref" v="31"/>
  </way>
  <way id="30836388" version="4" timestamp="2009-02-23T12:40:52Z" uid="34428" user="usm78-gis" changeset="634299"/>
  <way id="30836414" version="7" timestamp="2010-07-08T01:31:37Z" uid="74617" user="JohnSmith" changeset="5162525">
    <nd ref="342925391"/>
    <nd ref="342892750"/>
    <nd ref="342892751"/>
    <nd ref="342894462"/>
    <nd ref="342892700"/>
    <tag k="highway" v="residential"/>
    <tag k="maxspeed" v="50"/>
    <tag k="maxspeed:source" v="default residential speed limit in Australia"/>
    <tag k="name" v="Dawes Avenue"/>
  </way>
  <way id="30836429" version="8" timestamp="2010-01-02T07:08:50Z" uid="61114" user="Trav" changeset="3516062">
    <nd ref="342924368"/>
    <nd ref="342893532"/>
    <nd ref="602923744"/>
    <nd ref="342893533"/>
    <nd ref="342893534"/>
    <nd ref="342893535"/>
    <nd ref="342893537"/>
    <nd ref="342893539"/>
    <tag k="highway" v="residential"/>
    <tag k="name" v="Sexton Av"/>
  </way>
  <way id="30836429" version="10" timestamp="2010-07-08T01:33:50Z" uid="74617" user="JohnSmith" changeset="5162525">
    <nd ref="342924368"/>
    <nd ref="342893532"/>
    <nd ref="602923744"/>
    <nd ref="342893533"/>
    <nd ref="342893534"/>
    <nd ref="342893535"/>
    <nd ref="342893537"/>
    <nd ref="342893539"/>
    <tag k="highway" v="residential"/>
    <tag k="maxspeed" v="50"/>
    <tag k="maxspeed:source" v="default residential speed limit in Australia"/>
    <tag k="name" v="Sexton Avenue"/>
  </way>
  <way id="30836445" version="5" timestamp="2009-02-23T12:15:29Z" uid="34428" user="usm78-gis" changeset="634299"/>
  <way id="30836455" version="5" timestamp="2009-10-09T22:10:12Z" uid="61114" user="Trav" changeset="2798760">
    <nd ref="342894972"/>
    <nd ref="342894456"/>
    <nd ref="342894457"/>
    <nd ref="342894459"/>
    <nd ref="342894460"/>
    <nd ref="342894461"/>
    <tag k="highway" v="residential"/>
    <tag k="name" v="Cadman Crescent"/>
  </way>
  <way id="30836455" version="6" timestamp="2010-07-08T01:34:47Z" uid="74617" user="JohnSmith" changeset="5162525">
    <nd ref="342894972"/>
    <nd ref="342894456"/>
    <nd ref="342894457"/>
    <nd ref="342894459"/>
    <nd ref="342894460"/>
    <nd ref="342894461"/>
    <tag k="highway" v="residential"/>
    <tag k="maxspeed" v="50"/>
    <tag k="maxspeed:source" v="default residential speed limit in Australia"/>
    <tag k="name" v="Cadman Crescent"/>
  </way>
  <way id="30836503" version="4" timestamp="2009-02-23T13:39:24Z" uid="34428" user="usm78-gis" changeset="634299"/>
  <way id="30836572" version="4" timestamp="2009-02-23T13:11:32Z" uid="34428" user="usm78-gis" changeset="634299"/>
  <way id="30836624" version="2" timestamp="2010-07-09T04:58:24Z" uid="74617" user="JohnSmith" changeset="5170972">
    <nd ref="248267204"/>
    <nd ref="248267208"/>
    <nd ref="248266973"/>
    <tag k="highway" v="residential"/>
    <tag k="maxspeed" v="50"/>
    <tag k="maxspeed:source" v="default residential speed limit in Australia"/>
  </way>
  <way id="30836669" version="1" timestamp="2009-02-07T11:26:28Z" uid="58091" user="Andreas M" changeset="247803">
    <nd ref="64969715"/>
    <nd ref="29048472"/>
    <nd ref="269542535"/>
    <nd ref="291088171"/>
    <tag k="created_by" v="Potlatch 0.7b"/>
    <tag k="highway" v="tertiary"/>
    <tag k="name" v="Kreuzgasse"/>
    <tag k="railway" v="tram"/>
  </way>
  <way id="30836679" version="5" timestamp="2010-07-08T01:34:33Z" uid="74617" user="JohnSmith" changeset="5162525">
    <nd ref="342894773"/>
    <nd ref="342894972"/>
    <nd ref="342894775"/>
    <nd ref="342894776"/>
    <nd ref="342894461"/>
    <nd ref="342894462"/>
    <tag k="highway" v="residential"/>
    <tag k="maxspeed" v="50"/>
    <tag k="maxspeed:source" v="default residential speed limit in Australia"/>
    <tag k="name" v="Hughes Avenue"/>
  </way>
  <way id="30836699" version="2" timestamp="2010-07-09T04:57:16Z" uid="74617" user="JohnSmith" changeset="5170972">
    <nd ref="248266973"/>
    <nd ref="315715858"/>
    <tag k="highway" v="residential"/>
    <tag k="maxspeed" v="50"/>
    <tag k="maxspeed:source" v="default residential speed limit in Australia"/>
    <tag k="name" v="White Street"/>
    <tag k="source" v="Yahoo"/>
    <tag k="source:name" v="Collins 1936"/>
  </way>
  <way id="30836750" version="5" timestamp="2010-07-09T04:56:23Z" uid="74617" user="JohnSmith" changeset="5170972">
    <nd ref="315715855"/>
    <nd ref="342905072"/>
    <nd ref="342904387"/>
    <nd ref="342905704"/>
    <nd ref="342906533"/>
    <nd ref="342904388"/>
    <tag k="highway" v="residential"/>
    <tag k="maxspeed" v="50"/>
    <tag k="maxspeed:source" v="default residential speed limit in Australia"/>
    <tag k="name" v="Walnut Street"/>
    <tag k="source" v="Yahoo"/>
    <tag k="source:name" v="Collins 1936"/>
  </way>
  <way id="30836788" version="2" timestamp="2010-07-09T04:59:02Z" uid="74617" user="JohnSmith" changeset="5170972">
    <nd ref="342905072"/>
    <nd ref="342905512"/>
    <tag k="highway" v="residential"/>
    <tag k="maxspeed" v="50"/>
    <tag k="maxspeed:source" v="default residential speed limit in Australia"/>
    <tag k="name" v="Pearson Street"/>
    <tag k="source" v="Yahoo"/>
    <tag k="source:name" v="Collins 1936"/>
  </way>
  <way id="30836812" version="2" timestamp="2010-07-09T04:57:35Z" uid="74617" user="JohnSmith" changeset="5170972">
    <nd ref="342905704"/>
    <nd ref="342905896"/>
    <tag k="highway" v="residential"/>
    <tag k="maxspeed" v="50"/>
    <tag k="maxspeed:source" v="default residential speed limit in Australia"/>
    <tag k="name" v="Hutchings Street"/>
    <tag k="source" v="Yahoo"/>
    <tag k="source:name" v="Collins 1936"/>
  </way>
  <way id="30836844" version="2" timestamp="2010-07-09T04:55:38Z" uid="74617" user="JohnSmith" changeset="5170972">
    <nd ref="342906533"/>
    <nd ref="342906834"/>
    <tag k="highway" v="residential"/>
    <tag k="maxspeed" v="50"/>
    <tag k="maxspeed:source" v="default residential speed limit in Australia"/>
    <tag k="name" v="Hill Street"/>
    <tag k="source" v="Yahoo"/>
    <tag k="source:name" v="Collins 1936"/>
  </way>
  <way id="30836852" version="2" timestamp="2010-07-09T04:54:31Z" uid="74617" user="JohnSmith" changeset="5170972">
    <nd ref="342906924"/>
    <nd ref="342904388"/>
    <nd ref="342907126"/>
    <tag k="highway" v="residential"/>
    <tag k="maxspeed" v="50"/>
    <tag k="maxspeed:source" v="default residential speed limit in Australia"/>
    <tag k="name" v="William Street"/>
    <tag k="source" v="Yahoo"/>
    <tag k="source:name" v="Collins 1936"/>
  </way>
  <way id="30836854" version="1" timestamp="2009-02-07T11:33:05Z" uid="58091" user="Andreas M" changeset="247803">
    <nd ref="320193074"/>
    <nd ref="320193082"/>
    <tag k="created_by" v="Potlatch 0.10b"/>
    <tag k="highway" v="secondary"/>
    <tag k="name" v="Dornbacher Straße"/>
    <tag k="railway" v="tram"/>
  </way>
  <way id="30836859" version="3" timestamp="2010-07-09T04:56:21Z" uid="74617" user="JohnSmith" changeset="5170972">
    <nd ref="342907194"/>
    <nd ref="342908529"/>
    <nd ref="342907571"/>
    <nd ref="342907572"/>
    <tag k="highway" v="residential"/>
    <tag k="maxspeed" v="50"/>
    <tag k="maxspeed:source" v="default residential speed limit in Australia"/>
    <tag k="name" v="Adelaide Street"/>
    <tag k="source" v="Yahoo"/>
    <tag k="source:name" v="Collins 1936"/>
  </way>
  <way id="30836958" version="3" timestamp="2010-07-09T04:58:55Z" uid="74617" user="JohnSmith" changeset="5170972">
    <nd ref="342909428"/>
    <nd ref="342913012"/>
    <nd ref="342909685"/>
    <tag k="highway" v="residential"/>
    <tag k="maxspeed" v="50"/>
    <tag k="maxspeed:source" v="default residential speed limit in Australia"/>
    <tag k="name" v="Gordon Street"/>
    <tag k="source" v="Yahoo"/>
    <tag k="source:name" v="Collins 1936"/>
  </way>
  <way id="30836970" version="4" timestamp="2010-02-15T06:02:56Z" uid="74617" user="JohnSmith" changeset="3880328">
    <nd ref="270224651"/>
    <nd ref="342910645"/>
    <nd ref="342910646"/>
    <tag k="access" v="permissive"/>
    <tag k="highway" v="service"/>
    <tag k="layer" v="-1"/>
    <tag k="maxspeed" v="50"/>
    <tag k="name" v="underground carpark"/>
    <tag k="tunnel" v="yes"/>
  </way>
  <way id="30836982" version="4" timestamp="2010-02-15T06:02:57Z" uid="74617" user="JohnSmith" changeset="3880328">
    <nd ref="270226172"/>
    <nd ref="342911055"/>
    <nd ref="342910645"/>
    <tag k="access" v="permissive"/>
    <tag k="highway" v="service"/>
    <tag k="layer" v="-1"/>
    <tag k="maxspeed" v="50"/>
    <tag k="name" v="underground carpark"/>
    <tag k="oneway" v="yes"/>
    <tag k="tunnel" v="yes"/>
  </way>
  <way id="30836986" version="4" timestamp="2010-02-15T06:02:57Z" uid="74617" user="JohnSmith" changeset="3880328">
    <nd ref="342910645"/>
    <nd ref="342911301"/>
    <nd ref="270226280"/>
    <tag k="access" v="permissive"/>
    <tag k="highway" v="service"/>
    <tag k="layer" v="-1"/>
    <tag k="maxspeed" v="50"/>
    <tag k="name" v="underground carpark"/>
    <tag k="oneway" v="yes"/>
    <tag k="tunnel" v="yes"/>
  </way>
</osm>
