<?xml version='1.0' encoding='UTF-8'?>
<osm version="0.6" generator="libosmium/2.20.0">
  <way id="30835030" version="1" timestamp="2009-02-07T09:54:46Z" uid="64977" user="CLoeser" changeset="248648">
    <nd ref="342834220"/>
    <nd ref="342834221"/>
    <nd ref="342834222"/>
    <nd ref="342834224"/>
    <nd ref="342834225"/>
    <nd ref="342834226"/>
    <nd ref="342834220"/>
    <tag k="created_by" v="Potlatch 0.10f"/>
    <tag k="landuse" v="fell"/>
  </way>
  <way id="30835030" version="2" timestamp="2009-02-07T09:56:26Z" uid="64977" user="CLoeser" changeset="248648">
    <nd ref="342834220"/>
    <nd ref="342834221"/>
    <nd ref="342834222"/>
    <nd ref="342834224"/>
    <nd ref="342834225"/>
    <nd ref="342834226"/>
    <nd ref="342834220"/>
    <tag k="created_by" v="Potlatch 0.10f"/>
    <tag k="natural" v="fell"/>
  </way>
  <way id="30835101" version="6" timestamp="2009-02-07T16:02:41Z" uid="6975" user="ulfl" changeset="238208">
    <nd ref="342842628"/>
    <nd ref="342842629"/>
    <nd ref="342842630"/>
    <nd ref="342842631"/>
    <nd ref="342842628"/>
    <tag k="addr:housenumber" v="1"/>
    <tag k="addr:street" v="Katiskakuja"/>
    <tag k="building" v="shed"/>
    <tag k="name" v="As.Oy Espoon Danrica"/>
  </way>
  <way id="30835137" version="3" timestamp="2009-02-07T16:02:33Z" uid="6975" user="ulfl" changeset="238208">
    <nd ref="342845687"/>
    <nd ref="342845689"/>
    <nd ref="342845690"/>
    <nd ref="342845692"/>
    <nd ref="342845693"/>
    <nd ref="342845694"/>
    <nd ref="342845695"/>
    <nd ref="342845697"/>
    <nd ref="342845698"/>
    <nd ref="342845699"/>
    <nd ref="342845700"/>
    <nd ref="342845702"/>
    <nd ref="342845687"/>
    <tag k="addr:housenumber" v="1 a"/>
    <tag k="addr:street" v="Katiskakuja"/>
    <tag k="building" v="house"/>
    <tag k="name" v="As.Oy Espoon Danrica"/>
  </way>
  <way id="30835150" version="2" timestamp="2009-02-07T16:02:36Z" uid="6975" user="ulfl" changeset="238208">
    <nd ref="342846186"/>
    <nd ref="342846188"/>
    <nd ref="342846189"/>
    <nd ref="342846190"/>
    <nd ref="342846186"/>
    <tag k="addr:housenumber" v="1 e"/>
    <tag k="addr:street" v="Katiskakuja"/>
    <tag k="building" v="house"/>
    <tag k="name" v="As.Oy Espoon Danrica"/>
  </way>
  <way id="30835154" version="4" timestamp="2009-02-07T16:02:29Z" uid="6975" user="ulfl" changeset="238208">
    <nd ref="342846397"/>
    <nd ref="342846398"/>
    <nd ref="342846399"/>
    <nd ref="342846401"/>
    <nd ref="342846397"/>
    <tag k="addr:housenumber" v="1 d"/>
    <tag k="addr:street" v="Katiskakuja"/>
    <tag k="building" v="house"/>
    <tag k="name" v="As.Oy Espoon Danrica"/>
  </way>
  <way id="30835155" version="2" timestamp="2009-02-07T16:02:31Z" uid="6975" user="ulfl" changeset="238208">
    <nd ref="342846654"/>
    <nd ref="342846656"/>
    <nd ref="342846657"/>
    <nd ref="342846658"/>
    <nd ref="342846654"/>
    <tag k="addr:housenumber" v="1 c"/>
    <tag k="addr:street" v="Katiskakuja"/>
    <tag k="building" v="house"/>
    <tag k="name" v="As.Oy Espoon Danrica"/>
  </way>
  <way id="30835161" version="2" timestamp="2009-02-07T16:02:41Z" uid="6975" user="ulfl" changeset="238208">
    <nd ref="342847086"/>
    <nd ref="342847087"/>
    <nd ref="342847089"/>
    <nd ref="342847090"/>
    <nd ref="342847086"/>
    <tag k="addr:housenumber" v="1 b"/>
    <tag k="addr:street" v="Katiskakuja"/>
    <tag k="building" v="house"/>
    <tag k="name" v="As.Oy Espoon Danrica"/>
  </way>
  <way id="30835168" version="5" timestamp="2009-09-30T13:53:56Z" uid="36809" user="pfoten_weg_!_" changeset="2688655">
    <nd ref="221663071"/>
    <nd ref="221662337"/>
    <tag k="highway" v="unclassified"/>
    <tag k="layer" v="-1"/>
    <tag k="maxheight" v="3.8"/>
    <tag k="tunnel" v="yes"/>
  </way>
  <way id="30835266" version="8" timestamp="2011-03-16T11:26:04Z" uid="4467" user="Rosscoe" changeset="7574640">
    <nd ref="342827904"/>
    <nd ref="737063965"/>
    <nd ref="737063503"/>
    <nd ref="342852693"/>
    <nd ref="737063505"/>
    <nd ref="737063507"/>
    <nd ref="342852694"/>
    <nd ref="737063509"/>
    <nd ref="342852696"/>
    <nd ref="768242015"/>
    <nd ref="342852697"/>
    <nd ref="737063510"/>
    <nd ref="737063511"/>
    <nd ref="342852698"/>
    <nd ref="737063512"/>
    <nd ref="737063514"/>
    <nd ref="737063516"/>
    <tag k="highway" v="residential"/>
    <tag k="maxspeed" v="50"/>
    <tag k="name" v="Laughlin Avenue"/>
  </way>
  <way id="30835308" version="7" timestamp="2011-01-30T18:43:23Z" uid="9581" user="Lobelt" changeset="7137881">
    <nd ref="342855369"/>
    <nd ref="638959674"/>
    <nd ref="1128335477"/>
    <tag k="access" v="no"/>
    <tag k="foot" v="yes"/>
    <tag k="highway" v="service"/>
    <tag k="service" v="construction_access"/>
    <tag k="surface" v="asphalt"/>
    <tag k="tracktype" v="grade5"/>
  </way>
  <way id="30835407" version="5" timestamp="2009-09-30T13:08:58Z" uid="36809" user="pfoten_weg_!_" changeset="2687909">
    <nd ref="384925856"/>
    <nd ref="384925855"/>
    <nd ref="384925854"/>
    <nd ref="384925853"/>
    <nd ref="384925852"/>
    <nd ref="384925851"/>
    <nd ref="384925741"/>
    <nd ref="384925744"/>
    <nd ref="384925746"/>
    <nd ref="384925750"/>
    <nd ref="384925757"/>
    <nd ref="384925760"/>
    <nd ref="384925762"/>
    <nd ref="384925766"/>
    <nd ref="384925769"/>
    <nd ref="384925773"/>
    <nd ref="384925776"/>
    <nd ref="384925779"/>
    <nd ref="384925780"/>
    <nd ref="384925781"/>
    <nd ref="384925782"/>
    <nd ref="384925783"/>
    <nd ref="384925784"/>
    <nd ref="384925785"/>
    <nd ref="384925791"/>
    <nd ref="384925793"/>
    <nd ref="384931284"/>
    <nd ref="384931285"/>
    <nd ref="384931286"/>
    <nd ref="384931287"/>
    <nd ref="384931288"/>
    <nd ref="384931289"/>
    <nd ref="384931290"/>
    <nd ref="384931291"/>
    <nd ref="384931292"/>
    <nd ref="384931293"/>
    <nd ref="384931294"/>
    <nd ref="384931295"/>
    <nd ref="384931296"/>
    <nd ref="384931297"/>
    <nd ref="384931298"/>
    <nd ref="384931299"/>
    <nd ref="384931300"/>
    <nd ref="384931301"/>
    <nd ref="384931302"/>
    <nd ref="384931303"/>
    <nd ref="384931304"/>
    <nd ref="384931305"/>
    <nd ref="384931306"/>
    <nd ref="384931307"/>
    <nd ref="384931308"/>
    <nd ref="384931309"/>
    <nd ref="384931310"/>
    <nd ref="384931311"/>
    <nd ref="384931312"/>
    <nd ref="385132132"/>
    <nd ref="385132133"/>
    <nd ref="423496063"/>
    <nd ref="423496067"/>
    <nd ref="468614470"/>
    <nd ref="423496069"/>
    <nd ref="423496073"/>
    <nd ref="423496065"/>
    <nd ref="307368939"/>
    <nd ref="311347715"/>
    <nd ref="311347714"/>
    <nd ref="311347712"/>
    <nd ref="311347710"/>
    <nd ref="311347709"/>
    <nd ref="311347708"/>
    <nd ref="311347717"/>
    <nd ref="311347718"/>
    <nd ref="342859548"/>
    <nd ref="311347719"/>
    <nd ref="311347721"/>
    <nd ref="342859550"/>
    <nd ref="311347722"/>
    <nd ref="311347723"/>
    <nd ref="311347725"/>
    <nd ref="342859508"/>
    <nd ref="342859528"/>
    <tag k="barrier" v="fence"/>
  </way>
  <way id="30835568" version="3" timestamp="2010-07-09T05:18:30Z" uid="74617" user="JohnSmith" changeset="5170986">
    <nd ref="342866087"/>
    <nd ref="342866310"/>
    <tag k="highway" v="residential"/>
    <tag k="maxspeed" v="50"/>
    <tag k="maxspeed:source" v="default residential speed limit in Australia"/>
    <tag k="name" v="Cromwell Court"/>
  </way>
  <way id="30835609" version="3" timestamp="2010-07-09T05:19:52Z" uid="74617" user="JohnSmith" changeset="5170986">
    <nd ref="342867742"/>
    <nd ref="342867794"/>
    <tag k="highway" v="residential"/>
    <tag k="maxspeed" v="50"/>
    <tag k="maxspeed:source" v="default residential speed limit in Australia"/>
    <tag k="name" v="Fulview Court"/>
  </way>
  <way id="30835719" version="1" timestamp="2009-02-07T10:47:40Z" uid="58091" user="Andreas M" changeset="247803">
    <nd ref="62647424"/>
    <nd ref="62647427"/>
    <nd ref="117602573"/>
    <nd ref="62647428"/>
    <nd ref="62647429"/>
    <nd ref="62647431"/>
    <nd ref="62647432"/>
    <nd ref="62647434"/>
    <nd ref="62647435"/>
    <nd ref="62647436"/>
    <nd ref="62647437"/>
    <nd ref="62647438"/>
    <nd ref="117560547"/>
    <nd ref="117559752"/>
    <nd ref="117551778"/>
    <nd ref="117558903"/>
    <nd ref="117534113"/>
    <nd ref="62647440"/>
    <nd ref="117526485"/>
    <nd ref="62647441"/>
    <nd ref="117523912"/>
    <nd ref="62645831"/>
    <nd ref="324997828"/>
    <tag k="created_by" v="Potlatch 0.10e"/>
    <tag k="name" v="6,71"/>
    <tag k="railway" v="tram"/>
  </way>
  <way id="30835722" version="4" timestamp="2010-05-10T07:32:47Z" uid="4467" user="Rosscoe" changeset="4656575">
    <nd ref="342871131"/>
    <nd ref="342871356"/>
    <nd ref="728217430"/>
    <nd ref="342871802"/>
    <tag k="bicycle" v="yes"/>
    <tag k="cycleway" v="track"/>
    <tag k="foot" v="yes"/>
    <tag k="highway" v="cycleway"/>
  </way>
  <way id="30835761" version="5" timestamp="2010-07-09T05:19:41Z" uid="74617" user="JohnSmith" changeset="5170986">
    <nd ref="29961324"/>
    <nd ref="342874126"/>
    <tag k="highway" v="residential"/>
    <tag k="maxspeed" v="50"/>
    <tag k="maxspeed:source" v="default residential speed limit in Australia"/>
    <tag k="name" v="Alfred Street"/>
    <tag k="source" v="Yahoo"/>
    <tag k="source:name" v="Collins 1936"/>
  </way>
  <way id="30835767" version="4" timestamp="2010-05-10T07:32:47Z" uid="4467" user="Rosscoe" changeset="4656575">
    <nd ref="342871356"/>
    <nd ref="342874251"/>
    <nd ref="728217413"/>
    <nd ref="342874253"/>
    <nd ref="577465677"/>
    <nd ref="342874254"/>
    <tag k="foot" v="yes"/>
    <tag k="highway" v="footway"/>
  </way>
  <way id="30835769" version="5" timestamp="2010-07-09T05:17:10Z" uid="74617" user="JohnSmith" changeset="5170986">
    <nd ref="342874254"/>
    <nd ref="314097102"/>
    <tag k="highway" v="residential"/>
    <tag k="maxspeed" v="50"/>
    <tag k="maxspeed:source" v="default residential speed limit in Australia"/>
    <tag k="name" v="Cottage Street"/>
    <tag k="source" v="Yahoo"/>
    <tag k="source:name" v="Collins 1936"/>
  </way>
  <way id="30835794" version="1" timestamp="2009-02-07T10:54:01Z" uid="58091" user="Andreas M" changeset="247803">
    <nd ref="287235525"/>
    <nd ref="270328298"/>
    <nd ref="287235512"/>
    <tag k="created_by" v="Potlatch 0.10f"/>
    <tag k="name" v="6, 9, 18"/>
    <tag k="railway" v="tram"/>
    <tag k="ref" v="6;9;18"/>
  </way>
  <way id="30835841" version="4" timestamp="2009-11-09T15:41:52Z" uid="74617" user="JohnSmith" changeset="3074446">
    <nd ref="342469078"/>
    <nd ref="342469098"/>
    <tag k="bridge" v="yes"/>
    <tag k="highway" v="secondary"/>
    <tag k="layer" v="1"/>
    <tag k="name" v="Sinnathamby Boulevard"/>
    <tag k="source" v="nearmap"/>
  </way>
  <way id="30835923" version="1" timestamp="2009-02-07T10:59:09Z" uid="58091" user="Andreas M" changeset="247803">
    <nd ref="106013175"/>
    <nd ref="162762692"/>
    <nd ref="105997268"/>
    <nd ref="162758815"/>
    <nd ref="310611326"/>
    <tag k="created_by" v="Potlatch 0.10f"/>
    <tag k="highway" v="secondary"/>
    <tag k="name" v="Sandleitengasse"/>
    <tag k="railway" v="tram"/>
  </way>
</osm>
