<?xml version='1.0' encoding='UTF-8'?>
<osm version="0.6" generator="libosmium/2.20.0">
  <way id="30874038" version="1" timestamp="2009-02-08T02:02:31Z" uid="26515" user="Simon Ward" changeset="276237">
    <nd ref="333452796"/>
    <nd ref="306707279"/>
    <nd ref="306707283"/>
    <nd ref="306707287"/>
    <nd ref="306707288"/>
    <tag k="highway" v="residential"/>
    <tag k="lit" v="yes"/>
    <tag k="name" v="Balmain Avenue"/>
    <tag k="source" v="survey"/>
  </way>
  <way id="30874190" version="1" timestamp="2009-02-08T02:03:25Z" uid="26515" user="Simon Ward" changeset="276237">
    <nd ref="343293943"/>
    <nd ref="343293944"/>
    <nd ref="343293945"/>
    <nd ref="343293946"/>
    <nd ref="343293947"/>
    <nd ref="343293948"/>
    <nd ref="343293949"/>
    <nd ref="343293950"/>
    <nd ref="343293943"/>
    <tag k="landuse" v="grass"/>
  </way>
  <way id="30874190" version="2" timestamp="2009-02-08T02:03:49Z" uid="26515" user="Simon Ward" changeset="276237">
    <nd ref="343293943"/>
    <nd ref="343293944"/>
    <nd ref="343293945"/>
    <nd ref="343293946"/>
    <nd ref="343293947"/>
    <nd ref="343293948"/>
    <nd ref="343293949"/>
    <nd ref="343293950"/>
    <nd ref="343293943"/>
    <tag k="landuse" v="grass"/>
    <tag k="source" v="yahoo;survey"/>
  </way>
  <way id="30874593" version="1" timestamp="2009-02-08T02:05:51Z" uid="26515" user="Simon Ward" changeset="276237">
    <nd ref="343294159"/>
    <nd ref="343294160"/>
    <tag k="highway" v="residential"/>
    <tag k="lit" v="yes"/>
    <tag k="name" v="Sutton Road"/>
    <tag k="source" v="survey"/>
  </way>
  <way id="30874884" version="1" timestamp="2009-02-08T02:07:36Z" uid="20587" user="balrog-kun" changeset="256625">
    <nd ref="343294560"/>
    <nd ref="343294558"/>
    <nd ref="343294559"/>
    <nd ref="343294561"/>
    <nd ref="343294560"/>
    <tag k="addr:housenumber" v="14"/>
    <tag k="addr:street" v="Aleja Jana Chrystiana Szucha"/>
    <tag k="building" v="yes"/>
    <tag k="name" v="Kancelaria Prezesa Rady MinistrÃ³w"/>
    <tag k="source" v="msi"/>
    <tag k="wikipedia" v="Chancellery of Prime Minister of Poland"/>
  </way>
  <way id="30874887" version="1" timestamp="2009-02-08T02:07:37Z" uid="20587" user="balrog-kun" changeset="256625">
    <nd ref="343294562"/>
    <nd ref="343294570"/>
    <nd ref="343294566"/>
    <nd ref="343294568"/>
    <nd ref="343294571"/>
    <nd ref="343294563"/>
    <nd ref="343294564"/>
    <nd ref="343294562"/>
    <tag k="addr:housenumber" v="16"/>
    <tag k="addr:street" v="Aleja Jana Chrystiana Szucha"/>
    <tag k="building" v="yes"/>
    <tag k="name" v="Ministerstwo Spraw Zagranicznych"/>
    <tag k="name:en" v="Ministry of Foreign Affairs"/>
    <tag k="name:es" v="El Ministerio de Asuntos Exteriores"/>
    <tag k="source" v="msi"/>
  </way>
  <way id="30874887" version="2" timestamp="2009-02-08T03:40:05Z" uid="20587" user="balrog-kun" changeset="270015">
    <nd ref="343294562"/>
    <nd ref="343294570"/>
    <nd ref="343294566"/>
    <nd ref="343294568"/>
    <nd ref="343294571"/>
    <nd ref="343294563"/>
    <nd ref="343294564"/>
    <nd ref="343294562"/>
    <tag k="addr:housenumber" v="16"/>
    <tag k="addr:street" v="Aleja Jana Chrystiana Szucha"/>
    <tag k="building" v="yes"/>
    <tag k="name" v="Ministerstwo Spraw Zagranicznych"/>
    <tag k="name:en" v="Ministry of Foreign Affairs"/>
    <tag k="name:es" v="El Ministerio de Asuntos Exteriores"/>
    <tag k="source" v="msi"/>
    <tag k="wikipedia" v="Ministry of Foreign Affairs (Poland)"/>
  </way>
  <way id="30874890" version="1" timestamp="2009-02-08T02:07:37Z" uid="20587" user="balrog-kun" changeset="256625">
    <nd ref="343294574"/>
    <nd ref="343294593"/>
    <nd ref="343294585"/>
    <nd ref="343294579"/>
    <nd ref="343294582"/>
    <nd ref="343294576"/>
    <nd ref="343294574"/>
    <tag k="building" v="yes"/>
  </way>
  <way id="30874893" version="1" timestamp="2009-02-08T02:07:37Z" uid="20587" user="balrog-kun" changeset="256625">
    <nd ref="343294598"/>
    <nd ref="343294601"/>
    <nd ref="343294608"/>
    <nd ref="343294615"/>
    <nd ref="343294612"/>
    <nd ref="343294621"/>
    <nd ref="343294618"/>
    <nd ref="343294605"/>
    <nd ref="343294598"/>
    <tag k="building" v="yes"/>
  </way>
</osm>
