<?xml version='1.0' encoding='UTF-8'?>
<osm version="0.6" generator="libosmium/2.20.0">
  <way id="30893016" version="2" timestamp="2009-05-11T19:16:25Z" uid="30632" user="antblant" changeset="1157117">
    <nd ref="343479600"/>
    <nd ref="343479609"/>
    <nd ref="343479622"/>
    <nd ref="343479614"/>
    <nd ref="343479643"/>
    <nd ref="343479629"/>
    <nd ref="343479655"/>
    <nd ref="343479650"/>
    <nd ref="343479665"/>
    <nd ref="343479661"/>
    <nd ref="343479675"/>
    <nd ref="343479671"/>
    <nd ref="343479722"/>
    <nd ref="343479716"/>
    <nd ref="343479760"/>
    <tag k="highway" v="residential"/>
    <tag k="name" v="Żwirowa"/>
    <tag k="source" v="UMP-PL, ./UMP-Koszalin/src/POLANOW.ulice.txt"/>
  </way>
  <way id="30893017" version="2" timestamp="2009-05-11T19:16:25Z" uid="30632" user="antblant" changeset="1157117">
    <nd ref="343480003"/>
    <nd ref="343480034"/>
    <nd ref="343480029"/>
    <tag k="highway" v="residential"/>
    <tag k="name" v="Polna"/>
    <tag k="source" v="UMP-PL, ./UMP-Koszalin/src/POLANOW.ulice.txt"/>
  </way>
  <way id="30893018" version="2" timestamp="2009-05-11T19:16:26Z" uid="30632" user="antblant" changeset="1157117">
    <nd ref="343479940"/>
    <nd ref="343479976"/>
    <nd ref="343479994"/>
    <nd ref="343479996"/>
    <tag k="highway" v="residential"/>
    <tag k="name" v="Stawna"/>
    <tag k="source" v="UMP-PL, ./UMP-Koszalin/src/POLANOW.ulice.txt"/>
  </way>
  <way id="30893019" version="2" timestamp="2009-05-11T19:16:26Z" uid="30632" user="antblant" changeset="1157117">
    <nd ref="343479754"/>
    <nd ref="343479777"/>
    <nd ref="343479769"/>
    <nd ref="343479798"/>
    <nd ref="343479809"/>
    <nd ref="343479783"/>
    <tag k="highway" v="residential"/>
    <tag k="name" v="Kolejowa"/>
    <tag k="source" v="UMP-PL, ./UMP-Koszalin/src/POLANOW.ulice.txt"/>
  </way>
  <way id="30893020" version="2" timestamp="2009-05-11T19:16:25Z" uid="30632" user="antblant" changeset="1157117">
    <nd ref="343479996"/>
    <nd ref="343479998"/>
    <tag k="highway" v="residential"/>
    <tag k="name" v="Szpitalna"/>
    <tag k="source" v="UMP-PL, ./UMP-Koszalin/src/POLANOW.ulice.txt"/>
  </way>
  <way id="30893021" version="2" timestamp="2009-05-11T19:16:25Z" uid="30632" user="antblant" changeset="1157117">
    <nd ref="343480014"/>
    <nd ref="343479998"/>
    <nd ref="343480046"/>
    <nd ref="343479777"/>
    <tag k="highway" v="residential"/>
    <tag k="name" v="Dworcowa"/>
    <tag k="source" v="UMP-PL, ./UMP-Koszalin/src/POLANOW.ulice.txt"/>
  </way>
  <way id="30893022" version="2" timestamp="2009-05-11T19:16:25Z" uid="30632" user="antblant" changeset="1157117">
    <nd ref="343479791"/>
    <nd ref="343479826"/>
    <nd ref="343479832"/>
    <nd ref="343479815"/>
    <nd ref="343479820"/>
    <nd ref="343479850"/>
    <nd ref="343479856"/>
    <nd ref="343479840"/>
    <nd ref="343479845"/>
    <nd ref="343479875"/>
    <nd ref="343479877"/>
    <nd ref="343479865"/>
    <nd ref="343479871"/>
    <tag k="highway" v="residential"/>
    <tag k="name" v="Partyzancka"/>
    <tag k="source" v="UMP-PL, ./UMP-Koszalin/src/POLANOW.ulice.txt"/>
  </way>
  <way id="30893023" version="2" timestamp="2009-05-11T19:16:25Z" uid="30632" user="antblant" changeset="1157117">
    <nd ref="343479994"/>
    <nd ref="343479535"/>
    <tag k="highway" v="residential"/>
    <tag k="name" v="Rybna"/>
    <tag k="source" v="UMP-PL, ./UMP-Koszalin/src/POLANOW.ulice.txt"/>
  </way>
  <way id="30893024" version="2" timestamp="2009-05-11T19:16:26Z" uid="30632" user="antblant" changeset="1157117">
    <nd ref="343479522"/>
    <nd ref="343480070"/>
    <nd ref="343480071"/>
    <nd ref="343480068"/>
    <nd ref="343480069"/>
    <nd ref="343480066"/>
    <nd ref="343479894"/>
    <nd ref="343480067"/>
    <tag k="highway" v="secondary"/>
    <tag k="name" v="Sławieńska"/>
    <tag k="ref" v="205"/>
    <tag k="source" v="UMP-PL, ./UMP-Koszalin/src/POLANOW.ulice.txt"/>
  </way>
  <way id="30893025" version="2" timestamp="2009-05-11T19:16:27Z" uid="30632" user="antblant" changeset="1157117">
    <nd ref="343479820"/>
    <nd ref="343479890"/>
    <nd ref="343479886"/>
    <nd ref="343479884"/>
    <tag k="highway" v="residential"/>
    <tag k="name" v="Wiejska"/>
    <tag k="source" v="UMP-PL, ./UMP-Koszalin/src/POLANOW.ulice.txt"/>
  </way>
  <way id="30893027" version="2" timestamp="2009-05-11T19:16:26Z" uid="30632" user="antblant" changeset="1157117">
    <nd ref="343479522"/>
    <nd ref="343480009"/>
    <nd ref="343480011"/>
    <nd ref="343480014"/>
    <tag k="highway" v="residential"/>
    <tag k="name" v="Mokra"/>
    <tag k="source" v="UMP-PL, ./UMP-Koszalin/src/POLANOW.ulice.txt"/>
  </way>
  <way id="30893028" version="2" timestamp="2009-05-11T19:16:26Z" uid="30632" user="antblant" changeset="1157117">
    <nd ref="343480050"/>
    <nd ref="343480056"/>
    <nd ref="343480054"/>
    <nd ref="343480072"/>
    <nd ref="343479600"/>
    <nd ref="343480073"/>
    <nd ref="343479549"/>
    <nd ref="343479754"/>
    <nd ref="343479996"/>
    <nd ref="343479529"/>
    <tag k="highway" v="secondary"/>
    <tag k="name" v="Bobolicka"/>
    <tag k="ref" v="205"/>
    <tag k="source" v="UMP-PL, ./UMP-Koszalin/src/POLANOW.ulice.txt"/>
  </way>
  <way id="30893029" version="2" timestamp="2009-05-11T19:16:26Z" uid="30632" user="antblant" changeset="1157117">
    <nd ref="343479880"/>
    <nd ref="343479899"/>
    <nd ref="343479897"/>
    <nd ref="343479896"/>
    <nd ref="343479894"/>
    <tag k="highway" v="residential"/>
    <tag k="name" v="Młyńska"/>
    <tag k="source" v="UMP-PL, ./UMP-Koszalin/src/POLANOW.ulice.txt"/>
  </way>
  <way id="30893030" version="2" timestamp="2009-05-11T19:16:26Z" uid="30632" user="antblant" changeset="1157117">
    <nd ref="343479981"/>
    <nd ref="343480005"/>
    <nd ref="343479978"/>
    <nd ref="343479517"/>
    <tag k="highway" v="residential"/>
    <tag k="name" v="plac Mestwina"/>
    <tag k="source" v="UMP-PL, ./UMP-Koszalin/src/POLANOW.ulice.txt"/>
  </way>
  <way id="30893031" version="2" timestamp="2009-05-11T19:16:26Z" uid="30632" user="antblant" changeset="1157117">
    <nd ref="343479511"/>
    <nd ref="343479517"/>
    <nd ref="343479522"/>
    <tag k="highway" v="secondary"/>
    <tag k="name" v="Jana Pawła II"/>
    <tag k="ref" v="205"/>
    <tag k="source" v="UMP-PL, ./UMP-Koszalin/src/POLANOW.ulice.txt"/>
  </way>
  <way id="30893032" version="2" timestamp="2009-05-11T19:16:26Z" uid="30632" user="antblant" changeset="1157117">
    <nd ref="343480062"/>
    <nd ref="343480060"/>
    <nd ref="343480065"/>
    <nd ref="343480064"/>
    <nd ref="343479791"/>
    <nd ref="343480052"/>
    <nd ref="343479884"/>
    <nd ref="343479947"/>
    <nd ref="343479511"/>
    <tag k="highway" v="secondary"/>
    <tag k="name" v="Wolności"/>
    <tag k="ref" v="206"/>
    <tag k="source" v="UMP-PL, ./UMP-Koszalin/src/POLANOW.ulice.txt"/>
  </way>
  <way id="30893034" version="2" timestamp="2009-05-11T19:16:25Z" uid="30632" user="antblant" changeset="1157117">
    <nd ref="343479886"/>
    <nd ref="343479978"/>
    <tag k="highway" v="residential"/>
    <tag k="name" v="Magazynowa"/>
    <tag k="source" v="UMP-PL, ./UMP-Koszalin/src/POLANOW.ulice.txt"/>
  </way>
  <way id="30893035" version="2" timestamp="2009-05-11T19:16:26Z" uid="30632" user="antblant" changeset="1157117">
    <nd ref="343479529"/>
    <nd ref="343479535"/>
    <nd ref="343479542"/>
    <nd ref="343479511"/>
    <tag k="highway" v="secondary"/>
    <tag k="name" v="Wolności"/>
    <tag k="ref" v="205/206"/>
    <tag k="source" v="UMP-PL, ./UMP-Koszalin/src/POLANOW.ulice.txt"/>
  </way>
  <way id="30893036" version="2" timestamp="2009-05-11T19:16:25Z" uid="30632" user="antblant" changeset="1157117">
    <nd ref="343479529"/>
    <nd ref="343480014"/>
    <nd ref="343480003"/>
    <nd ref="343480016"/>
    <nd ref="343480024"/>
    <nd ref="343480021"/>
    <tag k="highway" v="secondary"/>
    <tag k="name" v="Koszalińska"/>
    <tag k="ref" v="206"/>
    <tag k="source" v="UMP-PL, ./UMP-Koszalin/src/POLANOW.ulice.txt"/>
  </way>
  <way id="30893037" version="2" timestamp="2009-05-11T19:16:25Z" uid="30632" user="antblant" changeset="1157117">
    <nd ref="343479983"/>
    <nd ref="343479985"/>
    <nd ref="343479987"/>
    <nd ref="343479992"/>
    <nd ref="343479974"/>
    <nd ref="343479976"/>
    <nd ref="343479542"/>
    <tag k="highway" v="residential"/>
    <tag k="name" v="Cmentarna"/>
    <tag k="source" v="UMP-PL, ./UMP-Koszalin/src/POLANOW.ulice.txt"/>
  </way>
  <way id="30893038" version="2" timestamp="2009-05-11T19:16:25Z" uid="30632" user="antblant" changeset="1157117">
    <nd ref="343479930"/>
    <nd ref="343479924"/>
    <nd ref="343479920"/>
    <nd ref="343479845"/>
    <tag k="highway" v="residential"/>
    <tag k="name" v="Mariańskie Wzgórze"/>
    <tag k="source" v="UMP-PL, ./UMP-Koszalin/src/POLANOW.ulice.txt"/>
  </way>
  <way id="30893039" version="2" timestamp="2009-05-11T19:16:25Z" uid="30632" user="antblant" changeset="1157117">
    <nd ref="343480029"/>
    <nd ref="343480075"/>
    <nd ref="343480076"/>
    <nd ref="343480043"/>
    <tag k="highway" v="residential"/>
    <tag k="name" v="Różana"/>
    <tag k="source" v="UMP-PL, ./UMP-Koszalin/src/POLANOW.ulice.txt"/>
  </way>
  <way id="30893041" version="2" timestamp="2009-05-11T19:16:26Z" uid="30632" user="antblant" changeset="1157117">
    <nd ref="343479549"/>
    <nd ref="343479556"/>
    <nd ref="343479565"/>
    <nd ref="343479572"/>
    <nd ref="343479576"/>
    <nd ref="343479581"/>
    <nd ref="343479587"/>
    <nd ref="343479594"/>
    <tag k="highway" v="tertiary"/>
    <tag k="name" v="Zacisze"/>
    <tag k="source" v="UMP-PL, ./UMP-Koszalin/src/POLANOW.ulice.txt"/>
  </way>
  <way id="30893042" version="2" timestamp="2009-05-11T19:16:26Z" uid="30632" user="antblant" changeset="1157117">
    <nd ref="343480046"/>
    <nd ref="343480043"/>
    <nd ref="343480019"/>
    <tag k="highway" v="residential"/>
    <tag k="name" v="Kolejowa"/>
    <tag k="source" v="UMP-PL, ./UMP-Koszalin/src/POLANOW.ulice.txt"/>
  </way>
  <way id="30893044" version="2" timestamp="2009-05-11T19:16:26Z" uid="30632" user="antblant" changeset="1157117">
    <nd ref="343479947"/>
    <nd ref="343479940"/>
    <tag k="highway" v="residential"/>
    <tag k="name" v="Strumykowa"/>
    <tag k="source" v="UMP-PL, ./UMP-Koszalin/src/POLANOW.ulice.txt"/>
  </way>
  <way id="30893046" version="2" timestamp="2009-05-11T19:16:26Z" uid="30632" user="antblant" changeset="1157117">
    <nd ref="343479875"/>
    <nd ref="343480074"/>
    <tag k="highway" v="residential"/>
    <tag k="name" v="Młodzieżowa"/>
    <tag k="source" v="UMP-PL, ./UMP-Koszalin/src/POLANOW.ulice.txt"/>
  </way>
  <way id="30893084" version="2" timestamp="2009-07-19T11:05:50Z" uid="64977" user="CLoeser" changeset="1872122">
    <nd ref="343480593"/>
    <nd ref="343480595"/>
    <nd ref="343480597"/>
    <nd ref="343480600"/>
    <nd ref="343480602"/>
    <nd ref="343480604"/>
    <nd ref="443673529"/>
    <nd ref="343480606"/>
    <nd ref="343480608"/>
    <nd ref="343480610"/>
    <nd ref="343480613"/>
    <nd ref="343480614"/>
    <nd ref="343480617"/>
    <nd ref="343480619"/>
    <tag k="highway" v="residential"/>
    <tag k="name" v="Untere Dorfstraße"/>
    <tag k="source" v="GPS Tracks"/>
  </way>
  <way id="30893095" version="2" timestamp="2009-04-10T19:08:39Z" uid="64977" user="CLoeser" changeset="388086">
    <nd ref="317227549"/>
    <nd ref="343480678"/>
    <nd ref="343480679"/>
    <nd ref="343480682"/>
    <nd ref="343480683"/>
    <nd ref="343480687"/>
    <nd ref="343480690"/>
    <nd ref="343480692"/>
    <nd ref="343480693"/>
    <nd ref="371699100"/>
    <nd ref="343480695"/>
    <nd ref="343480697"/>
    <nd ref="343480698"/>
    <nd ref="343480700"/>
    <nd ref="343480701"/>
    <nd ref="343480703"/>
    <nd ref="343480704"/>
    <nd ref="343480706"/>
    <nd ref="343480707"/>
    <nd ref="343480709"/>
    <nd ref="343480711"/>
    <nd ref="343480713"/>
    <nd ref="343480716"/>
    <nd ref="343480717"/>
    <nd ref="343480720"/>
    <nd ref="343480722"/>
    <nd ref="343480724"/>
    <nd ref="343480726"/>
    <nd ref="343480728"/>
    <nd ref="343480730"/>
    <nd ref="343480733"/>
    <nd ref="343480682"/>
    <tag k="bicycle" v="designated"/>
    <tag k="created_by" v="Potlatch 0.10f"/>
    <tag k="foot" v="designated"/>
    <tag k="highway" v="path"/>
    <tag k="source" v="GPS Tracks"/>
  </way>
  <way id="30893139" version="2" timestamp="2009-02-23T12:56:13Z" uid="34428" user="usm78-gis" changeset="634299"/>
  <way id="30893141" version="3" timestamp="2009-04-11T23:26:52Z" uid="34428" user="usm78-gis" changeset="432108"/>
  <way id="30893153" version="1" timestamp="2009-02-08T17:54:44Z" uid="67142" user="zottel" changeset="271188">
    <nd ref="343481243"/>
    <nd ref="92260830"/>
    <nd ref="92260832"/>
    <nd ref="92260835"/>
    <nd ref="92260839"/>
    <nd ref="92260842"/>
    <nd ref="92260845"/>
    <nd ref="92260847"/>
    <nd ref="92260850"/>
    <nd ref="92260851"/>
    <nd ref="92260854"/>
    <nd ref="92260857"/>
    <nd ref="92260860"/>
    <nd ref="92260862"/>
    <nd ref="92260865"/>
    <nd ref="92260869"/>
    <nd ref="92260872"/>
    <nd ref="92260874"/>
    <nd ref="92260877"/>
    <nd ref="92260881"/>
    <nd ref="92260883"/>
    <nd ref="92260887"/>
    <nd ref="92260889"/>
    <nd ref="92260890"/>
    <nd ref="92260892"/>
    <nd ref="92260894"/>
    <nd ref="92260898"/>
    <nd ref="92260901"/>
    <nd ref="92260905"/>
    <nd ref="92260909"/>
    <nd ref="92260911"/>
    <nd ref="92260915"/>
    <nd ref="92260919"/>
    <nd ref="92260920"/>
    <nd ref="92260921"/>
    <nd ref="92260924"/>
    <nd ref="92260927"/>
    <nd ref="92260930"/>
    <nd ref="92260932"/>
    <nd ref="92260937"/>
    <nd ref="92260941"/>
    <nd ref="92260944"/>
    <nd ref="343481245"/>
    <nd ref="92260948"/>
    <nd ref="92260951"/>
    <nd ref="92260954"/>
    <nd ref="92260957"/>
    <nd ref="343481246"/>
    <tag k="agricultural" v="yes"/>
    <tag k="bicycle" v="designated"/>
    <tag k="created_by" v="Potlatch 0.5d"/>
    <tag k="foot" v="designated"/>
    <tag k="highway" v="track"/>
    <tag k="maxspeed" v="30"/>
    <tag k="moped" v="yes"/>
    <tag k="motorcar" v="no"/>
    <tag k="motorcycle" v="no"/>
    <tag k="tracktype" v="grade1"/>
  </way>
  <way id="30893154" version="1" timestamp="2009-02-08T17:54:45Z" uid="67142" user="zottel" changeset="271188">
    <nd ref="343481246"/>
    <nd ref="92260960"/>
    <tag k="agricultural" v="yes"/>
    <tag k="bicycle" v="designated"/>
    <tag k="bridge" v="yes"/>
    <tag k="created_by" v="Potlatch 0.5d"/>
    <tag k="foot" v="designated"/>
    <tag k="highway" v="track"/>
    <tag k="maxspeed" v="30"/>
    <tag k="maxwight" v="3.0"/>
    <tag k="moped" v="yes"/>
    <tag k="motorcar" v="no"/>
    <tag k="motorcycle" v="no"/>
    <tag k="tracktype" v="grade1"/>
  </way>
  <way id="30893154" version="2" timestamp="2009-02-08T23:36:18Z" uid="6975" user="ulfl" changeset="302124">
    <nd ref="343481246"/>
    <nd ref="92260960"/>
    <tag k="agricultural" v="yes"/>
    <tag k="bicycle" v="designated"/>
    <tag k="bridge" v="yes"/>
    <tag k="foot" v="designated"/>
    <tag k="highway" v="track"/>
    <tag k="maxspeed" v="30"/>
    <tag k="maxweight" v="3.0"/>
    <tag k="moped" v="yes"/>
    <tag k="motorcar" v="no"/>
    <tag k="motorcycle" v="no"/>
    <tag k="tracktype" v="grade1"/>
  </way>
  <way id="30893155" version="1" timestamp="2009-02-08T17:54:46Z" uid="67142" user="zottel" changeset="271188">
    <nd ref="92260960"/>
    <nd ref="92260963"/>
    <nd ref="92260967"/>
    <nd ref="92260972"/>
    <nd ref="92260975"/>
    <nd ref="92260977"/>
    <nd ref="92260981"/>
    <nd ref="92260986"/>
    <nd ref="92260991"/>
    <nd ref="92260995"/>
    <nd ref="92260999"/>
    <nd ref="92261001"/>
    <nd ref="92261003"/>
    <nd ref="92261004"/>
    <nd ref="92261007"/>
    <nd ref="92261008"/>
    <nd ref="92261009"/>
    <nd ref="92261010"/>
    <nd ref="92261011"/>
    <nd ref="92261012"/>
    <nd ref="92261013"/>
    <nd ref="92261015"/>
    <nd ref="92261021"/>
    <nd ref="92261022"/>
    <nd ref="92261023"/>
    <nd ref="92261024"/>
    <nd ref="92261025"/>
    <nd ref="92261028"/>
    <nd ref="92261029"/>
    <nd ref="92261030"/>
    <nd ref="92261034"/>
    <nd ref="92261035"/>
    <nd ref="92261036"/>
    <nd ref="343481249"/>
    <tag k="agricultural" v="yes"/>
    <tag k="bicycle" v="designated"/>
    <tag k="foot" v="designated"/>
    <tag k="highway" v="track"/>
    <tag k="maxspeed" v="30"/>
    <tag k="moped" v="yes"/>
    <tag k="motorcar" v="no"/>
    <tag k="motorcycle" v="no"/>
    <tag k="tracktype" v="grade1"/>
  </way>
  <way id="30893156" version="1" timestamp="2009-02-08T17:54:46Z" uid="67142" user="zottel" changeset="271188">
    <nd ref="130150638"/>
    <nd ref="343481247"/>
    <tag k="bridge" v="yes"/>
    <tag k="created_by" v="Merkaartor 0.12"/>
    <tag k="highway" v="primary"/>
    <tag k="layer" v="1"/>
    <tag k="ref" v="B 463"/>
  </way>
  <way id="30893157" version="1" timestamp="2009-02-08T17:54:47Z" uid="67142" user="zottel" changeset="271188">
    <nd ref="343481247"/>
    <nd ref="130150640"/>
    <nd ref="130150642"/>
    <nd ref="130150643"/>
    <nd ref="130150645"/>
    <nd ref="130150646"/>
    <nd ref="130150648"/>
    <nd ref="130150650"/>
    <nd ref="130150654"/>
    <nd ref="130150655"/>
    <nd ref="130150656"/>
    <nd ref="130150658"/>
    <nd ref="130150659"/>
    <nd ref="130150663"/>
    <nd ref="130150667"/>
    <nd ref="130150670"/>
    <nd ref="130150671"/>
    <nd ref="130150672"/>
    <nd ref="130150673"/>
    <nd ref="130150675"/>
    <nd ref="130150676"/>
    <nd ref="130150678"/>
    <nd ref="130150680"/>
    <nd ref="130150697"/>
    <nd ref="130150687"/>
    <nd ref="130150689"/>
    <nd ref="130150692"/>
    <nd ref="130150694"/>
    <nd ref="147887375"/>
    <nd ref="147887377"/>
    <nd ref="147887378"/>
    <nd ref="147887379"/>
    <nd ref="147887380"/>
    <nd ref="147887381"/>
    <nd ref="147887382"/>
    <nd ref="147887383"/>
    <nd ref="147887384"/>
    <nd ref="147887386"/>
    <nd ref="147887387"/>
    <nd ref="147887388"/>
    <nd ref="147887389"/>
    <nd ref="147887391"/>
    <nd ref="147887392"/>
    <nd ref="147887395"/>
    <nd ref="147887398"/>
    <nd ref="147887399"/>
    <nd ref="268747095"/>
    <nd ref="147887401"/>
    <nd ref="268747093"/>
    <nd ref="147887402"/>
    <nd ref="147887403"/>
    <nd ref="147887404"/>
    <nd ref="147887405"/>
    <nd ref="147887406"/>
    <nd ref="147887408"/>
    <nd ref="147887410"/>
    <nd ref="147887411"/>
    <nd ref="147887413"/>
    <nd ref="42457365"/>
    <tag k="created_by" v="Merkaartor 0.12"/>
    <tag k="highway" v="primary"/>
    <tag k="ref" v="B 463"/>
  </way>
  <way id="30893157" version="2" timestamp="2009-02-08T23:06:07Z" uid="67142" user="zottel" changeset="291664">
    <nd ref="343481247"/>
    <nd ref="130150640"/>
    <nd ref="130150642"/>
    <nd ref="130150643"/>
    <nd ref="130150645"/>
    <nd ref="130150646"/>
    <nd ref="130150648"/>
    <nd ref="130150650"/>
    <nd ref="343576174"/>
    <nd ref="130150654"/>
    <nd ref="130150655"/>
    <nd ref="130150656"/>
    <nd ref="130150658"/>
    <nd ref="130150659"/>
    <nd ref="130150663"/>
    <nd ref="343576183"/>
    <nd ref="343576180"/>
    <nd ref="130150667"/>
    <nd ref="343576181"/>
    <nd ref="130150670"/>
    <nd ref="130150671"/>
    <nd ref="343576182"/>
    <nd ref="130150672"/>
    <nd ref="130150673"/>
    <nd ref="130150675"/>
    <nd ref="343576188"/>
    <nd ref="130150676"/>
    <nd ref="130150678"/>
    <nd ref="343576190"/>
    <nd ref="130150680"/>
    <nd ref="343576189"/>
    <nd ref="130150697"/>
    <nd ref="343576193"/>
    <nd ref="130150687"/>
    <nd ref="130150689"/>
    <nd ref="130150692"/>
    <nd ref="130150694"/>
    <nd ref="147887375"/>
    <nd ref="147887377"/>
    <nd ref="147887378"/>
    <nd ref="147887379"/>
    <nd ref="147887380"/>
    <nd ref="147887381"/>
    <nd ref="147887382"/>
    <nd ref="147887383"/>
    <nd ref="147887384"/>
    <nd ref="147887386"/>
    <nd ref="147887387"/>
    <nd ref="147887388"/>
    <nd ref="147887389"/>
    <nd ref="147887391"/>
    <nd ref="147887392"/>
    <nd ref="147887395"/>
    <nd ref="147887398"/>
    <nd ref="147887399"/>
    <nd ref="268747095"/>
    <nd ref="147887401"/>
    <nd ref="268747093"/>
    <nd ref="147887402"/>
    <nd ref="147887403"/>
    <nd ref="147887404"/>
    <nd ref="147887405"/>
    <nd ref="147887406"/>
    <nd ref="147887408"/>
    <nd ref="147887410"/>
    <nd ref="147887411"/>
    <nd ref="147887413"/>
    <nd ref="42457365"/>
    <tag k="created_by" v="Merkaartor 0.12"/>
    <tag k="highway" v="primary"/>
    <tag k="name" v="Pforzheimer Straße"/>
    <tag k="ref" v="B 463"/>
  </way>
  <way id="30893160" version="1" timestamp="2009-02-08T17:54:48Z" uid="67142" user="zottel" changeset="271188">
    <nd ref="343481249"/>
    <nd ref="343481248"/>
    <tag k="bicycle" v="designated"/>
    <tag k="bridge" v="yes"/>
    <tag k="foot" v="designated"/>
    <tag k="highway" v="track"/>
    <tag k="maxspeed" v="30"/>
    <tag k="moped" v="yes"/>
    <tag k="motorcar" v="no"/>
    <tag k="motorcycle" v="no"/>
    <tag k="tracktype" v="grade1"/>
  </way>
  <way id="30893161" version="1" timestamp="2009-02-08T17:54:49Z" uid="67142" user="zottel" changeset="271188">
    <nd ref="343481248"/>
    <nd ref="92261041"/>
    <nd ref="92261045"/>
    <nd ref="92261049"/>
    <nd ref="92261052"/>
    <nd ref="92266575"/>
    <nd ref="92266576"/>
    <nd ref="92266577"/>
    <nd ref="92266579"/>
    <nd ref="92266582"/>
    <nd ref="92266584"/>
    <nd ref="92266586"/>
    <nd ref="92266587"/>
    <nd ref="92266590"/>
    <nd ref="92266594"/>
    <nd ref="92266596"/>
    <nd ref="92266598"/>
    <nd ref="92266606"/>
    <nd ref="92266608"/>
    <nd ref="92266609"/>
    <nd ref="92266611"/>
    <nd ref="92266613"/>
    <nd ref="92266617"/>
    <nd ref="92266620"/>
    <nd ref="92266623"/>
    <nd ref="92266628"/>
    <nd ref="92266631"/>
    <nd ref="92266634"/>
    <nd ref="92266638"/>
    <nd ref="92266640"/>
    <nd ref="92266642"/>
    <nd ref="92266646"/>
    <nd ref="92266651"/>
    <nd ref="92266653"/>
    <nd ref="92266656"/>
    <nd ref="92266658"/>
    <nd ref="92266663"/>
    <nd ref="92266667"/>
    <nd ref="92266671"/>
    <nd ref="92266674"/>
    <nd ref="92266677"/>
    <nd ref="92266679"/>
    <nd ref="92266681"/>
    <nd ref="92266685"/>
    <nd ref="105544880"/>
    <tag k="agricultural" v="yes"/>
    <tag k="bicycle" v="designated"/>
    <tag k="created_by" v="Potlatch 0.5d"/>
    <tag k="foot" v="designated"/>
    <tag k="highway" v="track"/>
    <tag k="maxspeed" v="30"/>
    <tag k="moped" v="yes"/>
    <tag k="motorcar" v="no"/>
    <tag k="motorcycle" v="no"/>
    <tag k="tracktype" v="grade1"/>
  </way>
  <way id="30893161" version="2" timestamp="2009-02-08T22:29:09Z" uid="67142" user="zottel" changeset="291664">
    <nd ref="343481248"/>
    <nd ref="92261041"/>
    <nd ref="92261045"/>
    <nd ref="92261049"/>
    <nd ref="92261052"/>
    <nd ref="92266575"/>
    <nd ref="92266576"/>
    <nd ref="92266577"/>
    <nd ref="92266579"/>
    <nd ref="92266582"/>
    <nd ref="92266584"/>
    <nd ref="92266586"/>
    <nd ref="92266587"/>
    <nd ref="92266590"/>
    <nd ref="92266594"/>
    <nd ref="92266596"/>
    <nd ref="92266598"/>
    <nd ref="343566985"/>
    <tag k="agricultural" v="yes"/>
    <tag k="bicycle" v="designated"/>
    <tag k="foot" v="designated"/>
    <tag k="highway" v="track"/>
    <tag k="maxspeed" v="30"/>
    <tag k="moped" v="yes"/>
    <tag k="motorcar" v="no"/>
    <tag k="motorcycle" v="no"/>
    <tag k="tracktype" v="grade1"/>
  </way>
  <way id="30893161" version="3" timestamp="2009-02-08T23:06:06Z" uid="67142" user="zottel" changeset="291664">
    <nd ref="343481248"/>
    <nd ref="92261041"/>
    <nd ref="92261045"/>
    <nd ref="92261049"/>
    <nd ref="92261052"/>
    <nd ref="92266575"/>
    <nd ref="92266576"/>
    <nd ref="92266577"/>
    <nd ref="92266579"/>
    <nd ref="92266582"/>
    <nd ref="92266584"/>
    <nd ref="92266586"/>
    <nd ref="92266587"/>
    <nd ref="92266590"/>
    <nd ref="92266594"/>
    <nd ref="92266596"/>
    <nd ref="92266598"/>
    <nd ref="343576171"/>
    <nd ref="343566985"/>
    <tag k="agricultural" v="yes"/>
    <tag k="bicycle" v="designated"/>
    <tag k="foot" v="designated"/>
    <tag k="highway" v="track"/>
    <tag k="maxspeed" v="30"/>
    <tag k="moped" v="yes"/>
    <tag k="motorcar" v="no"/>
    <tag k="motorcycle" v="no"/>
    <tag k="tracktype" v="grade1"/>
  </way>
  <way id="30893174" version="2" timestamp="2009-02-23T12:06:02Z" uid="34428" user="usm78-gis" changeset="634299"/>
  <way id="30893536" version="3" timestamp="2011-05-08T08:06:40Z" uid="9581" user="Lobelt" changeset="8079820">
    <nd ref="343482647"/>
    <nd ref="343482648"/>
    <nd ref="343482649"/>
    <nd ref="343482650"/>
    <nd ref="343482647"/>
    <tag k="landuse" v="commercial"/>
    <tag k="name" v="Golfclub Rheinhessen"/>
  </way>
  <way id="30893553" version="2" timestamp="2010-12-29T20:33:11Z" uid="43863" user="Rundling" changeset="6803026"/>
  <way id="30893554" version="2" timestamp="2010-12-29T20:33:12Z" uid="43863" user="Rundling" changeset="6803026"/>
  <way id="30893576" version="2" timestamp="2009-03-31T23:14:33Z" uid="34428" user="usm78-gis" changeset="27604">
    <nd ref="315282"/>
    <nd ref="25719007"/>
    <tag k="created_by" v="Potlatch 0.10f"/>
    <tag k="highway" v="primary"/>
    <tag k="name" v="Литейный пр."/>
  </way>
  <way id="30893577" version="2" timestamp="2009-03-21T00:28:59Z" uid="34428" user="usm78-gis" changeset="839442">
    <nd ref="315283"/>
    <nd ref="315282"/>
    <tag k="created_by" v="Potlatch 0.10f"/>
    <tag k="highway" v="primary"/>
    <tag k="name" v="Литейный пр."/>
  </way>
  <way id="30893596" version="1" timestamp="2009-02-08T18:04:13Z" uid="38524" user="Kuddy" changeset="277810">
    <nd ref="318550725"/>
    <nd ref="343483481"/>
    <nd ref="343483483"/>
    <nd ref="343483485"/>
    <nd ref="343483488"/>
    <nd ref="246805578"/>
    <tag k="created_by" v="JOSM"/>
    <tag k="highway" v="tertiary"/>
  </way>
  <way id="30893657" version="2" timestamp="2009-02-23T12:22:47Z" uid="34428" user="usm78-gis" changeset="634299"/>
  <way id="30893745" version="2" timestamp="2009-02-23T13:26:19Z" uid="34428" user="usm78-gis" changeset="634299"/>
  <way id="30893772" version="5" timestamp="2011-05-08T08:04:51Z" uid="9581" user="Lobelt" changeset="8079820">
    <nd ref="343485460"/>
    <nd ref="343485461"/>
    <nd ref="343485462"/>
    <nd ref="343485463"/>
    <nd ref="343485859"/>
    <nd ref="343485460"/>
    <tag k="area" v="yes"/>
  </way>
  <way id="30893795" version="1" timestamp="2009-02-08T18:12:44Z" uid="43863" user="Rundling" changeset="278556">
    <nd ref="299907493"/>
    <nd ref="343486056"/>
    <nd ref="343486059"/>
    <nd ref="299907494"/>
    <nd ref="299907493"/>
    <tag k="addr:city" v="Rosche"/>
    <tag k="addr:housenumber" v="16"/>
    <tag k="addr:postcode" v="29571"/>
    <tag k="addr:street" v="Uelzener Straße"/>
    <tag k="building" v="yes"/>
  </way>
  <way id="30893795" version="2" timestamp="2009-02-18T09:15:06Z" uid="43863" user="Rundling" changeset="526632"/>
  <way id="30893796" version="1" timestamp="2009-02-08T18:12:44Z" uid="43863" user="Rundling" changeset="278556">
    <nd ref="343486056"/>
    <nd ref="299907496"/>
    <nd ref="299907495"/>
    <nd ref="343486059"/>
    <nd ref="343486056"/>
    <tag k="addr:city" v="Rosche"/>
    <tag k="addr:housenumber" v="14"/>
    <tag k="addr:postcode" v="29571"/>
    <tag k="addr:street" v="Uelzener Straße"/>
    <tag k="building" v="yes"/>
  </way>
  <way id="30893796" version="2" timestamp="2009-02-18T09:15:06Z" uid="43863" user="Rundling" changeset="526632"/>
  <way id="30893829" version="2" timestamp="2009-04-13T18:58:58Z" uid="30632" user="antblant" changeset="487279">
    <nd ref="343486100"/>
    <nd ref="343486254"/>
    <nd ref="343486393"/>
    <tag k="highway" v="residential"/>
    <tag k="name" v="Księcia Witolda"/>
    <tag k="source" v="UMP-PL, ./UMP-Koszalin/src/SZCZECINEK.ulice.txt"/>
  </way>
  <way id="30893830" version="2" timestamp="2009-04-13T18:59:07Z" uid="30632" user="antblant" changeset="487279">
    <nd ref="343485330"/>
    <nd ref="343485505"/>
    <nd ref="343485451"/>
    <nd ref="343486573"/>
    <tag k="highway" v="secondary"/>
    <tag k="name" v="Lipowa"/>
    <tag k="ref" v="172"/>
    <tag k="source" v="UMP-PL, ./UMP-Koszalin/src/SZCZECINEK.ulice.txt"/>
  </way>
  <way id="30893831" version="2" timestamp="2009-04-13T18:59:03Z" uid="30632" user="antblant" changeset="487279">
    <nd ref="343485574"/>
    <nd ref="343485605"/>
    <nd ref="343485597"/>
    <nd ref="343485599"/>
    <tag k="highway" v="residential"/>
    <tag k="name" v="Pomorska"/>
    <tag k="source" v="UMP-PL, ./UMP-Koszalin/src/SZCZECINEK.ulice.txt"/>
  </way>
  <way id="30893832" version="2" timestamp="2009-04-13T18:58:38Z" uid="30632" user="antblant" changeset="487279">
    <nd ref="343485454"/>
    <nd ref="343485458"/>
    <nd ref="343485316"/>
    <nd ref="343485456"/>
    <tag k="highway" v="residential"/>
    <tag k="name" v="Kaszubska"/>
    <tag k="source" v="UMP-PL, ./UMP-Koszalin/src/SZCZECINEK.ulice.txt"/>
  </way>
  <way id="30893834" version="2" timestamp="2009-04-13T18:58:42Z" uid="30632" user="antblant" changeset="487279">
    <nd ref="343486411"/>
    <nd ref="343486277"/>
    <tag k="highway" v="residential"/>
    <tag k="name" v="Derdowskiego"/>
    <tag k="source" v="UMP-PL, ./UMP-Koszalin/src/SZCZECINEK.ulice.txt"/>
  </way>
  <way id="30893836" version="2" timestamp="2009-04-13T18:58:46Z" uid="30632" user="antblant" changeset="487279">
    <nd ref="343485605"/>
    <nd ref="343485598"/>
    <nd ref="343485613"/>
    <tag k="highway" v="residential"/>
    <tag k="name" v="Moniuszki"/>
    <tag k="source" v="UMP-PL, ./UMP-Koszalin/src/SZCZECINEK.ulice.txt"/>
  </way>
  <way id="30893836" version="3" timestamp="2010-10-02T21:54:33Z" uid="20587" user="balrog-kun" changeset="5940049">
    <nd ref="343485605"/>
    <nd ref="343485598"/>
    <nd ref="343485613"/>
    <tag k="highway" v="residential"/>
    <tag k="name" v="Stanisława Moniuszki"/>
    <tag k="source" v="UMP-PL, ./UMP-Koszalin/src/SZCZECINEK.ulice.txt"/>
  </way>
  <way id="30893837" version="2" timestamp="2009-04-13T18:58:44Z" uid="30632" user="antblant" changeset="487279">
    <nd ref="343485451"/>
    <nd ref="343485450"/>
    <nd ref="343485453"/>
    <nd ref="343485452"/>
    <nd ref="343485473"/>
    <tag k="highway" v="residential"/>
    <tag k="name" v="Wodociągowa"/>
    <tag k="source" v="UMP-PL, ./UMP-Koszalin/src/SZCZECINEK.ulice.txt"/>
  </way>
  <way id="30893838" version="2" timestamp="2009-04-13T18:58:51Z" uid="30632" user="antblant" changeset="487279">
    <nd ref="343486256"/>
    <nd ref="343486204"/>
    <tag k="highway" v="residential"/>
    <tag k="name" v="Ziemowita"/>
    <tag k="source" v="UMP-PL, ./UMP-Koszalin/src/SZCZECINEK.ulice.txt"/>
  </way>
  <way id="30893840" version="2" timestamp="2009-04-13T18:58:17Z" uid="30632" user="antblant" changeset="487279">
    <nd ref="343485643"/>
    <nd ref="343485598"/>
    <tag k="highway" v="residential"/>
    <tag k="name" v="Matusewicz"/>
    <tag k="source" v="UMP-PL, ./UMP-Koszalin/src/SZCZECINEK.ulice.txt"/>
  </way>
  <way id="30893840" version="3" timestamp="2010-10-02T21:54:29Z" uid="20587" user="balrog-kun" changeset="5940049">
    <nd ref="343485643"/>
    <nd ref="343485598"/>
    <tag k="highway" v="residential"/>
    <tag k="name" v="Doktor Genowefy Matusewicz"/>
    <tag k="source" v="UMP-PL, ./UMP-Koszalin/src/SZCZECINEK.ulice.txt"/>
  </way>
  <way id="30893841" version="2" timestamp="2009-04-13T18:58:20Z" uid="30632" user="antblant" changeset="487279">
    <nd ref="343486517"/>
    <nd ref="343486475"/>
    <nd ref="343486474"/>
    <nd ref="343485497"/>
    <nd ref="343486490"/>
    <nd ref="343486508"/>
    <nd ref="343486473"/>
    <nd ref="343485571"/>
    <nd ref="343485534"/>
    <nd ref="343485507"/>
    <nd ref="343486403"/>
    <tag k="highway" v="residential"/>
    <tag k="name" v="28 Lutego"/>
    <tag k="source" v="UMP-PL, ./UMP-Koszalin/src/SZCZECINEK.ulice.txt"/>
  </way>
  <way id="30893842" version="2" timestamp="2009-04-13T18:58:22Z" uid="30632" user="antblant" changeset="487279">
    <nd ref="343485438"/>
    <nd ref="343485448"/>
    <tag k="highway" v="residential"/>
    <tag k="name" v="Skargi"/>
    <tag k="source" v="UMP-PL, ./UMP-Koszalin/src/SZCZECINEK.ulice.txt"/>
  </way>
  <way id="30893843" version="2" timestamp="2009-04-13T18:58:23Z" uid="30632" user="antblant" changeset="487279">
    <nd ref="343486242"/>
    <nd ref="343486250"/>
    <nd ref="343486084"/>
    <nd ref="343486269"/>
    <tag k="highway" v="residential"/>
    <tag k="name" v="Jagiełły"/>
    <tag k="source" v="UMP-PL, ./UMP-Koszalin/src/SZCZECINEK.ulice.txt"/>
  </way>
  <way id="30893846" version="2" timestamp="2009-04-13T18:58:29Z" uid="30632" user="antblant" changeset="487279">
    <nd ref="343485570"/>
    <nd ref="343485640"/>
    <nd ref="343485648"/>
    <tag k="highway" v="residential"/>
    <tag k="name" v="Chełmińska"/>
    <tag k="source" v="UMP-PL, ./UMP-Koszalin/src/SZCZECINEK.ulice.txt"/>
  </way>
  <way id="30893847" version="2" timestamp="2009-04-13T18:58:33Z" uid="30632" user="antblant" changeset="487279">
    <nd ref="343485720"/>
    <nd ref="343486456"/>
    <nd ref="343486451"/>
    <nd ref="343486453"/>
    <nd ref="343486477"/>
    <nd ref="343486476"/>
    <tag k="highway" v="residential"/>
    <tag k="name" v="Waryńskiego"/>
    <tag k="source" v="UMP-PL, ./UMP-Koszalin/src/SZCZECINEK.ulice.txt"/>
  </way>
  <way id="30893848" version="2" timestamp="2009-04-13T18:57:45Z" uid="30632" user="antblant" changeset="487279">
    <nd ref="343485443"/>
    <nd ref="343485440"/>
    <nd ref="343485438"/>
    <nd ref="343485359"/>
    <nd ref="343485455"/>
    <tag k="highway" v="residential"/>
    <tag k="name" v="Zamkowa"/>
    <tag k="source" v="UMP-PL, ./UMP-Koszalin/src/SZCZECINEK.ulice.txt"/>
  </way>
  <way id="30893849" version="2" timestamp="2009-04-13T18:57:51Z" uid="30632" user="antblant" changeset="487279">
    <nd ref="343485607"/>
    <nd ref="343485608"/>
    <nd ref="343485613"/>
    <nd ref="343485614"/>
    <nd ref="343485611"/>
    <nd ref="343485612"/>
    <nd ref="343485595"/>
    <tag k="highway" v="residential"/>
    <tag k="name" v="Kopernika"/>
    <tag k="source" v="UMP-PL, ./UMP-Koszalin/src/SZCZECINEK.ulice.txt"/>
  </way>
  <way id="30893849" version="3" timestamp="2010-10-02T21:54:33Z" uid="20587" user="balrog-kun" changeset="5940049">
    <nd ref="343485607"/>
    <nd ref="343485608"/>
    <nd ref="343485613"/>
    <nd ref="343485614"/>
    <nd ref="343485611"/>
    <nd ref="343485612"/>
    <nd ref="343485595"/>
    <tag k="highway" v="residential"/>
    <tag k="name" v="Mikołaja Kopernika"/>
    <tag k="source" v="UMP-PL, ./UMP-Koszalin/src/SZCZECINEK.ulice.txt"/>
  </way>
  <way id="30893851" version="2" timestamp="2009-04-13T18:57:54Z" uid="30632" user="antblant" changeset="487279">
    <nd ref="343486403"/>
    <nd ref="343485537"/>
    <nd ref="343485500"/>
    <nd ref="343485595"/>
    <nd ref="343485496"/>
    <nd ref="343485504"/>
    <nd ref="343485681"/>
    <tag k="highway" v="residential"/>
    <tag k="name" v="Wyszyńskiego"/>
    <tag k="source" v="UMP-PL, ./UMP-Koszalin/src/SZCZECINEK.ulice.txt"/>
  </way>
  <way id="30893851" version="4" timestamp="2010-10-02T21:54:20Z" uid="20587" user="balrog-kun" changeset="5940049">
    <nd ref="343486403"/>
    <nd ref="343485537"/>
    <nd ref="814954274"/>
    <nd ref="814954216"/>
    <nd ref="814954383"/>
    <nd ref="343485500"/>
    <nd ref="343485595"/>
    <nd ref="343485496"/>
    <nd ref="343485504"/>
    <nd ref="343485681"/>
    <tag k="highway" v="residential"/>
    <tag k="name" v="Kardynała Stefana Wyszyńskiego"/>
    <tag k="source" v="UMP-PL, ./UMP-Koszalin/src/SZCZECINEK.ulice.txt"/>
  </way>
  <way id="30893852" version="2" timestamp="2009-04-13T18:58:07Z" uid="30632" user="antblant" changeset="487279">
    <nd ref="343485459"/>
    <nd ref="343485465"/>
    <nd ref="343485495"/>
    <tag k="highway" v="residential"/>
    <tag k="name" v="Mariacka"/>
    <tag k="source" v="UMP-PL, ./UMP-Koszalin/src/SZCZECINEK.ulice.txt"/>
  </way>
  <way id="30893853" version="2" timestamp="2009-04-13T18:58:11Z" uid="30632" user="antblant" changeset="487279">
    <nd ref="343486321"/>
    <nd ref="343485323"/>
    <tag k="highway" v="primary"/>
    <tag k="name" v="Słupska"/>
    <tag k="ref" v="20"/>
    <tag k="source" v="UMP-PL, ./UMP-Koszalin/src/SZCZECINEK.ulice.txt"/>
  </way>
  <way id="30893853" version="3" timestamp="2009-04-13T19:06:50Z" uid="30632" user="antblant" changeset="487279">
    <nd ref="343486321"/>
    <nd ref="343485323"/>
    <tag k="created_by" v="Potlatch 0.10f"/>
    <tag k="highway" v="primary"/>
    <tag k="name" v="Słupska"/>
    <tag k="oneway" v="yes"/>
    <tag k="ref" v="20"/>
    <tag k="source" v="UMP-PL, ./UMP-Koszalin/src/SZCZECINEK.ulice.txt"/>
  </way>
  <way id="30893854" version="2" timestamp="2009-04-13T18:58:14Z" uid="30632" user="antblant" changeset="487279">
    <nd ref="343485611"/>
    <nd ref="343485596"/>
    <nd ref="343485592"/>
    <nd ref="343485504"/>
    <tag k="highway" v="residential"/>
    <tag k="name" v="Reja"/>
    <tag k="source" v="UMP-PL, ./UMP-Koszalin/src/SZCZECINEK.ulice.txt"/>
  </way>
  <way id="30893857" version="2" timestamp="2009-04-13T18:57:27Z" uid="30632" user="antblant" changeset="487279">
    <nd ref="343485496"/>
    <nd ref="343485493"/>
    <nd ref="343485467"/>
    <nd ref="343485494"/>
    <tag k="highway" v="residential"/>
    <tag k="name" v="Rzemieślnicza"/>
    <tag k="source" v="UMP-PL, ./UMP-Koszalin/src/SZCZECINEK.ulice.txt"/>
  </way>
  <way id="30893860" version="2" timestamp="2009-04-13T18:57:41Z" uid="30632" user="antblant" changeset="487279">
    <nd ref="343485323"/>
    <nd ref="343486470"/>
    <nd ref="343486469"/>
    <nd ref="343486488"/>
    <nd ref="343486487"/>
    <nd ref="343486485"/>
    <nd ref="343485331"/>
    <nd ref="343486484"/>
    <nd ref="343486482"/>
    <nd ref="343485713"/>
    <nd ref="343486481"/>
    <nd ref="343486480"/>
    <nd ref="343486479"/>
    <nd ref="343486581"/>
    <nd ref="343486582"/>
    <nd ref="343486583"/>
    <nd ref="343486585"/>
    <nd ref="343485953"/>
    <nd ref="329994585"/>
    <tag k="highway" v="primary"/>
    <tag k="name" v="Słupska"/>
    <tag k="ref" v="20"/>
    <tag k="source" v="UMP-PL, ./UMP-Koszalin/src/SZCZECINEK.ulice.txt"/>
  </way>
  <way id="30893860" version="7" timestamp="2011-02-27T20:13:30Z" uid="30632" user="antblant" changeset="7414991">
    <nd ref="343485323"/>
    <nd ref="343486470"/>
    <nd ref="343486469"/>
    <nd ref="816748581"/>
    <nd ref="343486488"/>
    <nd ref="816748536"/>
    <nd ref="816748650"/>
    <nd ref="343486487"/>
    <nd ref="343486485"/>
    <nd ref="1068968101"/>
    <nd ref="343485331"/>
    <nd ref="343486484"/>
    <nd ref="816748544"/>
    <nd ref="343486482"/>
    <nd ref="343485713"/>
    <nd ref="816748658"/>
    <nd ref="343486481"/>
    <nd ref="343486480"/>
    <nd ref="343486479"/>
    <nd ref="814954297"/>
    <nd ref="343486581"/>
    <nd ref="816748613"/>
    <nd ref="343486582"/>
    <nd ref="343486583"/>
    <nd ref="816748526"/>
    <nd ref="816748647"/>
    <nd ref="343486585"/>
    <nd ref="343485953"/>
    <nd ref="816748594"/>
    <nd ref="1080111647"/>
    <nd ref="329994585"/>
    <tag k="highway" v="primary"/>
    <tag k="name" v="Słupska"/>
    <tag k="ref" v="20"/>
    <tag k="source" v="UMP-PL, ./UMP-Koszalin/src/SZCZECINEK.ulice.txt"/>
  </way>
  <way id="30893861" version="2" timestamp="2009-04-13T18:57:38Z" uid="30632" user="antblant" changeset="487279">
    <nd ref="343486381"/>
    <nd ref="343485648"/>
    <nd ref="343485537"/>
    <tag k="highway" v="residential"/>
    <tag k="name" v="Kamienna"/>
    <tag k="source" v="UMP-PL, ./UMP-Koszalin/src/SZCZECINEK.ulice.txt"/>
  </way>
  <way id="30893862" version="2" timestamp="2009-04-13T18:57:37Z" uid="30632" user="antblant" changeset="487279">
    <nd ref="343485318"/>
    <nd ref="343486038"/>
    <nd ref="343486040"/>
    <nd ref="343486042"/>
    <tag k="highway" v="residential"/>
    <tag k="name" v="Koszalińska"/>
    <tag k="source" v="UMP-PL, ./UMP-Koszalin/src/SZCZECINEK.ulice.txt"/>
  </way>
  <way id="30893863" version="2" timestamp="2009-04-13T18:57:35Z" uid="30632" user="antblant" changeset="487279">
    <nd ref="343485453"/>
    <nd ref="343485474"/>
    <nd ref="343485471"/>
    <nd ref="343485315"/>
    <tag k="highway" v="residential"/>
    <tag k="name" v="Wodociągowa"/>
    <tag k="source" v="UMP-PL, ./UMP-Koszalin/src/SZCZECINEK.ulice.txt"/>
  </way>
  <way id="30893864" version="2" timestamp="2009-04-13T18:57:02Z" uid="30632" user="antblant" changeset="487279">
    <nd ref="343485594"/>
    <nd ref="343485599"/>
    <nd ref="343485614"/>
    <tag k="highway" v="residential"/>
    <tag k="name" v="Poniatowskiego"/>
    <tag k="source" v="UMP-PL, ./UMP-Koszalin/src/SZCZECINEK.ulice.txt"/>
  </way>
  <way id="30893864" version="3" timestamp="2010-10-02T21:54:31Z" uid="20587" user="balrog-kun" changeset="5940049">
    <nd ref="343485594"/>
    <nd ref="343485599"/>
    <nd ref="343485614"/>
    <tag k="highway" v="residential"/>
    <tag k="name" v="Stanisława Augusta Poniatowskiego"/>
    <tag k="source" v="UMP-PL, ./UMP-Koszalin/src/SZCZECINEK.ulice.txt"/>
  </way>
  <way id="30893865" version="2" timestamp="2009-04-13T18:56:58Z" uid="30632" user="antblant" changeset="487279">
    <nd ref="343486361"/>
    <nd ref="343486472"/>
    <nd ref="343485330"/>
    <tag k="highway" v="secondary"/>
    <tag k="name" v="Lipowa"/>
    <tag k="ref" v="172"/>
    <tag k="source" v="UMP-PL, ./UMP-Koszalin/src/SZCZECINEK.ulice.txt"/>
  </way>
  <way id="30893866" version="2" timestamp="2009-04-13T18:56:53Z" uid="30632" user="antblant" changeset="487279">
    <nd ref="343485626"/>
    <nd ref="343486381"/>
    <tag k="highway" v="residential"/>
    <tag k="name" v="Młyńska"/>
    <tag k="source" v="UMP-PL, ./UMP-Koszalin/src/SZCZECINEK.ulice.txt"/>
  </way>
  <way id="30893868" version="2" timestamp="2009-04-13T18:57:21Z" uid="30632" user="antblant" changeset="487279">
    <nd ref="343485472"/>
    <nd ref="343485466"/>
    <nd ref="343485467"/>
    <tag k="highway" v="residential"/>
    <tag k="name" v="Wojska Polskiego"/>
    <tag k="source" v="UMP-PL, ./UMP-Koszalin/src/SZCZECINEK.ulice.txt"/>
  </way>
  <way id="30893869" version="3" timestamp="2009-04-13T18:57:19Z" uid="30632" user="antblant" changeset="487279">
    <nd ref="343485500"/>
    <nd ref="343485499"/>
    <nd ref="343485498"/>
    <tag k="created_by" v="Potlatch 0.10f"/>
    <tag k="highway" v="residential"/>
    <tag k="name" v="Bohaterów Stalingradu"/>
    <tag k="source" v="UMP-PL, ./UMP-Koszalin/src/SZCZECINEK.ulice.txt"/>
  </way>
  <way id="30893870" version="4" timestamp="2009-04-13T18:57:16Z" uid="30632" user="antblant" changeset="487279">
    <nd ref="343486237"/>
    <nd ref="343486244"/>
    <nd ref="343486234"/>
    <tag k="created_by" v="Potlatch 0.10f"/>
    <tag k="highway" v="residential"/>
    <tag k="name" v="Wileńska"/>
    <tag k="source" v="UMP-PL, ./UMP-Koszalin/src/SZCZECINEK.ulice.txt"/>
  </way>
  <way id="30893871" version="2" timestamp="2009-04-13T18:57:05Z" uid="30632" user="antblant" changeset="487279">
    <nd ref="343486206"/>
    <nd ref="343486431"/>
    <nd ref="343486430"/>
    <nd ref="343486422"/>
    <nd ref="343486211"/>
    <nd ref="343486247"/>
    <tag k="highway" v="residential"/>
    <tag k="name" v="Myśliwska"/>
    <tag k="source" v="UMP-PL, ./UMP-Koszalin/src/SZCZECINEK.ulice.txt"/>
  </way>
  <way id="30893872" version="2" timestamp="2009-04-13T18:56:33Z" uid="30632" user="antblant" changeset="487279">
    <nd ref="343485455"/>
    <nd ref="343485675"/>
    <nd ref="343486199"/>
    <nd ref="343485352"/>
    <tag k="highway" v="secondary"/>
    <tag k="name" v="Jana Pawła II"/>
    <tag k="ref" v="172"/>
    <tag k="source" v="UMP-PL, ./UMP-Koszalin/src/SZCZECINEK.ulice.txt"/>
  </way>
  <way id="30893874" version="2" timestamp="2009-04-13T18:56:31Z" uid="30632" user="antblant" changeset="487279">
    <nd ref="343485497"/>
    <nd ref="343485523"/>
    <nd ref="343485521"/>
    <nd ref="343485412"/>
    <nd ref="343485520"/>
    <nd ref="343485519"/>
    <tag k="highway" v="residential"/>
    <tag k="name" v="Piłsudskiego"/>
    <tag k="source" v="UMP-PL, ./UMP-Koszalin/src/SZCZECINEK.ulice.txt"/>
  </way>
  <way id="30893875" version="2" timestamp="2009-04-13T18:56:32Z" uid="30632" user="antblant" changeset="487279">
    <nd ref="343486242"/>
    <nd ref="343486204"/>
    <nd ref="343486089"/>
    <tag k="highway" v="residential"/>
    <tag k="name" v="Lwowska"/>
    <tag k="source" v="UMP-PL, ./UMP-Koszalin/src/SZCZECINEK.ulice.txt"/>
  </way>
  <way id="30893876" version="4" timestamp="2009-04-13T18:56:39Z" uid="30632" user="antblant" changeset="487279">
    <nd ref="343485430"/>
    <nd ref="343486194"/>
    <tag k="created_by" v="Potlatch 0.10f"/>
    <tag k="highway" v="service"/>
    <tag k="source" v="UMP-PL, ./UMP-Koszalin/src/SZCZECINEK.ulice.txt"/>
  </way>
  <way id="30893877" version="2" timestamp="2009-04-13T18:56:40Z" uid="30632" user="antblant" changeset="487279">
    <nd ref="343486563"/>
    <nd ref="343485473"/>
    <nd ref="343486447"/>
    <nd ref="343485458"/>
    <tag k="highway" v="residential"/>
    <tag k="name" v="Szafera"/>
    <tag k="source" v="UMP-PL, ./UMP-Koszalin/src/SZCZECINEK.ulice.txt"/>
  </way>
  <way id="30893877" version="3" timestamp="2010-10-02T21:54:18Z" uid="20587" user="balrog-kun" changeset="5940049">
    <nd ref="343486563"/>
    <nd ref="343485473"/>
    <nd ref="343486447"/>
    <nd ref="343485458"/>
    <tag k="highway" v="residential"/>
    <tag k="name" v="Profesora Władysława Szafera"/>
    <tag k="source" v="UMP-PL, ./UMP-Koszalin/src/SZCZECINEK.ulice.txt"/>
  </way>
  <way id="30893878" version="2" timestamp="2009-04-13T18:56:36Z" uid="30632" user="antblant" changeset="487279">
    <nd ref="343485359"/>
    <nd ref="343485692"/>
    <nd ref="343485690"/>
    <nd ref="343485472"/>
    <nd ref="343485459"/>
    <nd ref="343485679"/>
    <nd ref="343485687"/>
    <tag k="highway" v="residential"/>
    <tag k="name" v="9 Maja"/>
    <tag k="source" v="UMP-PL, ./UMP-Koszalin/src/SZCZECINEK.ulice.txt"/>
  </way>
  <way id="30893878" version="3" timestamp="2010-10-02T21:54:33Z" uid="20587" user="balrog-kun" changeset="5940049">
    <nd ref="343485359"/>
    <nd ref="343485692"/>
    <nd ref="343485690"/>
    <nd ref="343485472"/>
    <nd ref="343485459"/>
    <nd ref="343485679"/>
    <tag k="highway" v="residential"/>
    <tag k="name" v="9 Maja"/>
    <tag k="source" v="UMP-PL, ./UMP-Koszalin/src/SZCZECINEK.ulice.txt"/>
  </way>
  <way id="30893879" version="2" timestamp="2009-04-13T18:56:37Z" uid="30632" user="antblant" changeset="487279">
    <nd ref="343485490"/>
    <nd ref="343485491"/>
    <nd ref="343485475"/>
    <nd ref="343485489"/>
    <nd ref="343485505"/>
    <tag k="highway" v="residential"/>
    <tag k="name" v="Winnicza"/>
    <tag k="source" v="UMP-PL, ./UMP-Koszalin/src/SZCZECINEK.ulice.txt"/>
  </way>
  <way id="30893880" version="2" timestamp="2009-04-13T18:56:21Z" uid="30632" user="antblant" changeset="487279">
    <nd ref="343486042"/>
    <nd ref="343486420"/>
    <nd ref="343486426"/>
    <nd ref="343486424"/>
    <nd ref="343486033"/>
    <nd ref="343486416"/>
    <nd ref="343486413"/>
    <nd ref="343486419"/>
    <nd ref="343486417"/>
    <tag k="highway" v="residential"/>
    <tag k="name" v="Bugno"/>
    <tag k="source" v="UMP-PL, ./UMP-Koszalin/src/SZCZECINEK.ulice.txt"/>
  </way>
  <way id="30893881" version="2" timestamp="2009-04-13T18:56:22Z" uid="30632" user="antblant" changeset="487279">
    <nd ref="343486084"/>
    <nd ref="343486094"/>
    <nd ref="343486258"/>
    <nd ref="343486227"/>
    <tag k="highway" v="residential"/>
    <tag k="name" v="Grunwaldzka"/>
    <tag k="source" v="UMP-PL, ./UMP-Koszalin/src/SZCZECINEK.ulice.txt"/>
  </way>
  <way id="30893882" version="2" timestamp="2009-04-13T18:56:13Z" uid="30632" user="antblant" changeset="487279">
    <nd ref="343485683"/>
    <nd ref="343485466"/>
    <nd ref="343485495"/>
    <nd ref="343485681"/>
    <tag k="highway" v="residential"/>
    <tag k="name" v="Powstańców Wielkopolskich"/>
    <tag k="source" v="UMP-PL, ./UMP-Koszalin/src/SZCZECINEK.ulice.txt"/>
  </way>
  <way id="30893883" version="2" timestamp="2009-04-13T18:56:17Z" uid="30632" user="antblant" changeset="487279">
    <nd ref="343486580"/>
    <nd ref="343486573"/>
    <tag k="highway" v="secondary"/>
    <tag k="name" v="Lipowa"/>
    <tag k="ref" v="172"/>
    <tag k="source" v="UMP-PL, ./UMP-Koszalin/src/SZCZECINEK.ulice.txt"/>
  </way>
  <way id="30893884" version="2" timestamp="2009-04-13T18:56:28Z" uid="30632" user="antblant" changeset="487279">
    <nd ref="343485504"/>
    <nd ref="343485503"/>
    <nd ref="343485501"/>
    <nd ref="343485475"/>
    <tag k="highway" v="residential"/>
    <tag k="name" v="Winnicza"/>
    <tag k="source" v="UMP-PL, ./UMP-Koszalin/src/SZCZECINEK.ulice.txt"/>
  </way>
  <way id="30893885" version="2" timestamp="2009-04-13T18:56:30Z" uid="30632" user="antblant" changeset="487279">
    <nd ref="343486216"/>
    <nd ref="343486431"/>
    <tag k="highway" v="residential"/>
    <tag k="name" v="Kręta"/>
    <tag k="source" v="UMP-PL, ./UMP-Koszalin/src/SZCZECINEK.ulice.txt"/>
  </way>
  <way id="30893887" version="4" timestamp="2009-04-13T18:56:25Z" uid="30632" user="antblant" changeset="487279">
    <nd ref="343486224"/>
    <nd ref="343486234"/>
    <nd ref="343486229"/>
    <nd ref="343486240"/>
    <tag k="created_by" v="Potlatch 0.10f"/>
    <tag k="highway" v="residential"/>
    <tag k="name" v="Kosińskiego"/>
    <tag k="source" v="UMP-PL, ./UMP-Koszalin/src/SZCZECINEK.ulice.txt"/>
  </way>
  <way id="30893888" version="2" timestamp="2009-04-13T18:59:02Z" uid="30632" user="antblant" changeset="487279">
    <nd ref="343485681"/>
    <nd ref="343485679"/>
    <nd ref="343485677"/>
    <tag k="highway" v="residential"/>
    <tag k="name" v="Wyszyńskiego"/>
    <tag k="source" v="UMP-PL, ./UMP-Koszalin/src/SZCZECINEK.ulice.txt"/>
  </way>
  <way id="30893888" version="4" timestamp="2010-10-02T21:54:22Z" uid="20587" user="balrog-kun" changeset="5940049">
    <nd ref="343485681"/>
    <nd ref="814954330"/>
    <nd ref="814954214"/>
    <nd ref="343485679"/>
    <nd ref="814954172"/>
    <nd ref="343485677"/>
    <tag k="highway" v="residential"/>
    <tag k="name" v="Kardynała Stefana Wyszyńskiego"/>
    <tag k="source" v="UMP-PL, ./UMP-Koszalin/src/SZCZECINEK.ulice.txt"/>
  </way>
  <way id="30893890" version="2" timestamp="2009-04-13T18:59:10Z" uid="30632" user="antblant" changeset="487279">
    <nd ref="343485534"/>
    <nd ref="343485533"/>
    <tag k="highway" v="residential"/>
    <tag k="name" v="Warszawska"/>
    <tag k="source" v="UMP-PL, ./UMP-Koszalin/src/SZCZECINEK.ulice.txt"/>
  </way>
  <way id="30893891" version="2" timestamp="2009-04-13T18:59:06Z" uid="30632" user="antblant" changeset="487279">
    <nd ref="343486315"/>
    <nd ref="343486443"/>
    <nd ref="343486440"/>
    <nd ref="343486441"/>
    <nd ref="343486466"/>
    <nd ref="343486468"/>
    <nd ref="343486459"/>
    <nd ref="343486461"/>
    <nd ref="343486454"/>
    <nd ref="343486262"/>
    <tag k="highway" v="tertiary"/>
    <tag k="name" v="Karlińska"/>
    <tag k="source" v="UMP-PL, ./UMP-Koszalin/src/SZCZECINEK.ulice.txt"/>
  </way>
  <way id="30893892" version="2" timestamp="2009-04-13T18:58:53Z" uid="30632" user="antblant" changeset="487279">
    <nd ref="343485645"/>
    <nd ref="343485640"/>
    <tag k="highway" v="residential"/>
    <tag k="name" v="Chodkiewicza"/>
    <tag k="source" v="UMP-PL, ./UMP-Koszalin/src/SZCZECINEK.ulice.txt"/>
  </way>
  <way id="30893894" version="2" timestamp="2009-04-13T18:58:55Z" uid="30632" user="antblant" changeset="487279">
    <nd ref="343486250"/>
    <nd ref="343486256"/>
    <nd ref="343486100"/>
    <tag k="highway" v="residential"/>
    <tag k="name" v="Zawiszy"/>
    <tag k="source" v="UMP-PL, ./UMP-Koszalin/src/SZCZECINEK.ulice.txt"/>
  </way>
  <way id="30893895" version="2" timestamp="2009-04-13T18:58:54Z" uid="30632" user="antblant" changeset="487279">
    <nd ref="343486089"/>
    <nd ref="343486408"/>
    <nd ref="343486407"/>
    <tag k="highway" v="residential"/>
    <tag k="name" v="Krakowska"/>
    <tag k="source" v="UMP-PL, ./UMP-Koszalin/src/SZCZECINEK.ulice.txt"/>
  </way>
  <way id="30893896" version="2" timestamp="2009-04-13T18:58:45Z" uid="30632" user="antblant" changeset="487279">
    <nd ref="343485536"/>
    <nd ref="343485535"/>
    <nd ref="343485538"/>
    <tag k="highway" v="residential"/>
    <tag k="name" v="Matejki"/>
    <tag k="source" v="UMP-PL, ./UMP-Koszalin/src/SZCZECINEK.ulice.txt"/>
  </way>
  <way id="30893898" version="2" timestamp="2009-04-13T18:58:50Z" uid="30632" user="antblant" changeset="487279">
    <nd ref="343486573"/>
    <nd ref="343486578"/>
    <tag k="highway" v="secondary"/>
    <tag k="name" v="Lipowa"/>
    <tag k="ref" v="172"/>
    <tag k="source" v="UMP-PL, ./UMP-Koszalin/src/SZCZECINEK.ulice.txt"/>
  </way>
  <way id="30893899" version="2" timestamp="2009-04-13T18:58:48Z" uid="30632" user="antblant" changeset="487279">
    <nd ref="343485631"/>
    <nd ref="343485569"/>
    <tag k="highway" v="residential"/>
    <tag k="name" v="Skłodowskiej-Curie"/>
    <tag k="source" v="UMP-PL, ./UMP-Koszalin/src/SZCZECINEK.ulice.txt"/>
  </way>
  <way id="30893900" version="2" timestamp="2009-04-13T18:58:35Z" uid="30632" user="antblant" changeset="487279">
    <nd ref="343486254"/>
    <nd ref="343486259"/>
    <tag k="highway" v="residential"/>
    <tag k="name" v="Królowej Jadwigi"/>
    <tag k="source" v="UMP-PL, ./UMP-Koszalin/src/SZCZECINEK.ulice.txt"/>
  </way>
  <way id="30893902" version="2" timestamp="2009-04-13T18:58:40Z" uid="30632" user="antblant" changeset="487279">
    <nd ref="343485518"/>
    <nd ref="343485508"/>
    <tag k="highway" v="residential"/>
    <tag k="name" v="28 Lutego"/>
    <tag k="source" v="UMP-PL, ./UMP-Koszalin/src/SZCZECINEK.ulice.txt"/>
  </way>
  <way id="30893903" version="2" timestamp="2009-04-13T18:58:39Z" uid="30632" user="antblant" changeset="487279">
    <nd ref="343485590"/>
    <nd ref="343485630"/>
    <nd ref="343485637"/>
    <nd ref="343485635"/>
    <nd ref="343485622"/>
    <tag k="highway" v="residential"/>
    <tag k="name" v="Artyleryjska"/>
    <tag k="source" v="UMP-PL, ./UMP-Koszalin/src/SZCZECINEK.ulice.txt"/>
  </way>
  <way id="30893904" version="2" timestamp="2009-04-13T18:58:26Z" uid="30632" user="antblant" changeset="487279">
    <nd ref="343485455"/>
    <nd ref="343486446"/>
    <nd ref="343486442"/>
    <nd ref="343486574"/>
    <tag k="highway" v="secondary"/>
    <tag k="name" v="Jana Pawła II"/>
    <tag k="ref" v="172"/>
    <tag k="source" v="UMP-PL, ./UMP-Koszalin/src/SZCZECINEK.ulice.txt"/>
  </way>
  <way id="30893905" version="2" timestamp="2009-04-13T18:58:28Z" uid="30632" user="antblant" changeset="487279">
    <nd ref="343486410"/>
    <nd ref="343486393"/>
    <nd ref="343486258"/>
    <tag k="highway" v="residential"/>
    <tag k="name" v="Malborska"/>
    <tag k="source" v="UMP-PL, ./UMP-Koszalin/src/SZCZECINEK.ulice.txt"/>
  </way>
  <way id="30893906" version="2" timestamp="2009-04-13T18:58:32Z" uid="30632" user="antblant" changeset="487279">
    <nd ref="343486082"/>
    <nd ref="343486094"/>
    <nd ref="343486100"/>
    <nd ref="343486089"/>
    <tag k="highway" v="residential"/>
    <tag k="name" v="Pułaskiego"/>
    <tag k="source" v="UMP-PL, ./UMP-Koszalin/src/SZCZECINEK.ulice.txt"/>
  </way>
  <way id="30893908" version="2" timestamp="2009-04-13T18:58:17Z" uid="30632" user="antblant" changeset="487279">
    <nd ref="343485635"/>
    <nd ref="343485621"/>
    <nd ref="343485626"/>
    <tag k="highway" v="residential"/>
    <tag k="name" v="Niecała"/>
    <tag k="source" v="UMP-PL, ./UMP-Koszalin/src/SZCZECINEK.ulice.txt"/>
  </way>
  <way id="30893909" version="2" timestamp="2009-04-13T18:58:21Z" uid="30632" user="antblant" changeset="487279">
    <nd ref="343486544"/>
    <nd ref="343486449"/>
    <nd ref="343486444"/>
    <nd ref="343485455"/>
    <tag k="highway" v="secondary"/>
    <tag k="name" v="Jana Pawła II"/>
    <tag k="ref" v="172"/>
    <tag k="source" v="UMP-PL, ./UMP-Koszalin/src/SZCZECINEK.ulice.txt"/>
  </way>
  <way id="30893910" version="4" timestamp="2009-04-13T18:58:23Z" uid="30632" user="antblant" changeset="487279">
    <nd ref="343486089"/>
    <nd ref="343486259"/>
    <nd ref="343486410"/>
    <nd ref="343486411"/>
    <nd ref="343486229"/>
    <tag k="created_by" v="Potlatch 0.10f"/>
    <tag k="highway" v="residential"/>
    <tag k="name" v="Derdowskiego"/>
    <tag k="source" v="UMP-PL, ./UMP-Koszalin/src/SZCZECINEK.ulice.txt"/>
  </way>
  <way id="30893911" version="2" timestamp="2009-04-13T18:58:24Z" uid="30632" user="antblant" changeset="487279">
    <nd ref="343485318"/>
    <nd ref="343486092"/>
    <nd ref="343485429"/>
    <nd ref="343486247"/>
    <nd ref="343486246"/>
    <nd ref="343486252"/>
    <tag k="highway" v="residential"/>
    <tag k="name" v="Koszalińska"/>
    <tag k="source" v="UMP-PL, ./UMP-Koszalin/src/SZCZECINEK.ulice.txt"/>
  </way>
  <way id="30893914" version="2" timestamp="2009-04-13T18:58:13Z" uid="30632" user="antblant" changeset="487279">
    <nd ref="343485527"/>
    <nd ref="343485529"/>
    <nd ref="343485523"/>
    <tag k="highway" v="residential"/>
    <tag k="name" v="Toruńska"/>
    <tag k="source" v="UMP-PL, ./UMP-Koszalin/src/SZCZECINEK.ulice.txt"/>
  </way>
  <way id="30893915" version="2" timestamp="2009-04-13T18:58:16Z" uid="30632" user="antblant" changeset="487279">
    <nd ref="343485523"/>
    <nd ref="343486490"/>
    <tag k="highway" v="residential"/>
    <tag k="name" v="plac Przyjaźni"/>
    <tag k="source" v="UMP-PL, ./UMP-Koszalin/src/SZCZECINEK.ulice.txt"/>
  </way>
  <way id="30893916" version="2" timestamp="2009-04-13T18:57:43Z" uid="30632" user="antblant" changeset="487279">
    <nd ref="343485319"/>
    <nd ref="343485320"/>
    <nd ref="343485321"/>
    <tag k="highway" v="primary"/>
    <tag k="name" v="Sikorskiego"/>
    <tag k="ref" v="11"/>
    <tag k="source" v="UMP-PL, ./UMP-Koszalin/src/SZCZECINEK.ulice.txt"/>
  </way>
  <way id="30893917" version="2" timestamp="2009-04-13T18:57:47Z" uid="30632" user="antblant" changeset="487279">
    <nd ref="343485352"/>
    <nd ref="343485426"/>
    <nd ref="343486363"/>
    <nd ref="343486252"/>
    <tag k="highway" v="residential"/>
    <tag k="name" v="Koszalińska"/>
    <tag k="source" v="UMP-PL, ./UMP-Koszalin/src/SZCZECINEK.ulice.txt"/>
  </way>
  <way id="30893919" version="2" timestamp="2009-04-13T18:57:53Z" uid="30632" user="antblant" changeset="487279">
    <nd ref="343485526"/>
    <nd ref="343485497"/>
    <tag k="highway" v="residential"/>
    <tag k="name" v="Kanałowa"/>
    <tag k="source" v="UMP-PL, ./UMP-Koszalin/src/SZCZECINEK.ulice.txt"/>
  </way>
  <way id="30893920" version="2" timestamp="2009-04-13T18:57:42Z" uid="30632" user="antblant" changeset="487279">
    <nd ref="343485566"/>
    <nd ref="343486494"/>
    <nd ref="343486495"/>
    <nd ref="343486506"/>
    <nd ref="343486508"/>
    <tag k="highway" v="residential"/>
    <tag k="name" v="Wiśniowa"/>
    <tag k="source" v="UMP-PL, ./UMP-Koszalin/src/SZCZECINEK.ulice.txt"/>
  </way>
  <way id="30893921" version="2" timestamp="2009-04-13T18:57:40Z" uid="30632" user="antblant" changeset="487279">
    <nd ref="343485311"/>
    <nd ref="343485312"/>
    <nd ref="343485314"/>
    <nd ref="343485315"/>
    <nd ref="343485316"/>
    <nd ref="343485317"/>
    <nd ref="343485318"/>
    <tag k="highway" v="primary"/>
    <tag k="name" v="Narutowicza"/>
    <tag k="ref" v="11"/>
    <tag k="source" v="UMP-PL, ./UMP-Koszalin/src/SZCZECINEK.ulice.txt"/>
  </way>
  <way id="30893922" version="2" timestamp="2009-04-13T18:57:37Z" uid="30632" user="antblant" changeset="487279">
    <nd ref="343485810"/>
    <nd ref="343485783"/>
    <nd ref="343485780"/>
    <nd ref="343485777"/>
    <nd ref="343485818"/>
    <tag k="highway" v="residential"/>
    <tag k="name" v="Świątki"/>
    <tag k="source" v="UMP-PL, ./UMP-Koszalin/src/SZCZECINEK.ulice.txt"/>
  </way>
  <way id="30893924" version="2" timestamp="2009-04-13T18:57:30Z" uid="30632" user="antblant" changeset="487279">
    <nd ref="343485533"/>
    <nd ref="343485536"/>
    <nd ref="343485520"/>
    <tag k="highway" v="residential"/>
    <tag k="name" v="Traugutta"/>
    <tag k="source" v="UMP-PL, ./UMP-Koszalin/src/SZCZECINEK.ulice.txt"/>
  </way>
  <way id="30893925" version="2" timestamp="2009-04-13T18:57:28Z" uid="30632" user="antblant" changeset="487279">
    <nd ref="343485530"/>
    <nd ref="343485561"/>
    <nd ref="343485565"/>
    <nd ref="343485518"/>
    <nd ref="343485566"/>
    <tag k="highway" v="residential"/>
    <tag k="name" v="Dworcowa"/>
    <tag k="source" v="UMP-PL, ./UMP-Koszalin/src/SZCZECINEK.ulice.txt"/>
  </way>
  <way id="30893927" version="2" timestamp="2009-04-13T18:57:22Z" uid="30632" user="antblant" changeset="487279">
    <nd ref="343485860"/>
    <nd ref="343485862"/>
    <nd ref="343485856"/>
    <nd ref="343485858"/>
    <nd ref="343485866"/>
    <nd ref="343485868"/>
    <nd ref="343485863"/>
    <nd ref="343485759"/>
    <nd ref="343485865"/>
    <nd ref="343485774"/>
    <nd ref="343485771"/>
    <nd ref="343485768"/>
    <nd ref="343485762"/>
    <tag k="highway" v="tertiary"/>
    <tag k="name" v="Leśna"/>
    <tag k="source" v="UMP-PL, ./UMP-Koszalin/src/SZCZECINEK.ulice.txt"/>
  </way>
  <way id="30893928" version="2" timestamp="2009-04-13T19:07:03Z" uid="30632" user="antblant" changeset="487279">
    <nd ref="343485311"/>
    <nd ref="343486361"/>
    <nd ref="343486359"/>
    <nd ref="343485333"/>
    <nd ref="343486335"/>
    <nd ref="343486331"/>
    <nd ref="343486326"/>
    <nd ref="343486321"/>
    <nd ref="343485324"/>
    <nd ref="343486318"/>
    <nd ref="343485311"/>
    <tag k="created_by" v="Potlatch 0.10f"/>
    <tag k="highway" v="primary"/>
    <tag k="junction" v="roundabout"/>
    <tag k="ref" v="11; 20"/>
    <tag k="source" v="UMP-PL, ./UMP-Koszalin/src/SZCZECINEK.ulice.txt"/>
  </way>
  <way id="30893929" version="2" timestamp="2009-04-13T18:57:17Z" uid="30632" user="antblant" changeset="487279">
    <nd ref="343485412"/>
    <nd ref="343485533"/>
    <nd ref="343485506"/>
    <nd ref="343486403"/>
    <tag k="highway" v="residential"/>
    <tag k="name" v="Klasztorna"/>
    <tag k="source" v="UMP-PL, ./UMP-Koszalin/src/SZCZECINEK.ulice.txt"/>
  </way>
  <way id="30893930" version="2" timestamp="2009-04-13T18:57:14Z" uid="30632" user="antblant" changeset="487279">
    <nd ref="343485528"/>
    <nd ref="343485532"/>
    <nd ref="343485529"/>
    <tag k="highway" v="residential"/>
    <tag k="name" v="Grudziądzka"/>
    <tag k="source" v="UMP-PL, ./UMP-Koszalin/src/SZCZECINEK.ulice.txt"/>
  </way>
  <way id="30893931" version="2" timestamp="2009-04-13T18:57:02Z" uid="30632" user="antblant" changeset="487279">
    <nd ref="343485535"/>
    <nd ref="343485525"/>
    <tag k="highway" v="residential"/>
    <tag k="name" v="Mestwina"/>
    <tag k="source" v="UMP-PL, ./UMP-Koszalin/src/SZCZECINEK.ulice.txt"/>
  </way>
  <way id="30893932" version="2" timestamp="2009-04-13T18:57:00Z" uid="30632" user="antblant" changeset="487279">
    <nd ref="343486512"/>
    <nd ref="343486511"/>
    <nd ref="343486517"/>
    <nd ref="343485526"/>
    <nd ref="343486506"/>
    <nd ref="343485567"/>
    <nd ref="343486388"/>
    <tag k="highway" v="primary"/>
    <tag k="name" v="Sikorskiego"/>
    <tag k="ref" v="11/20"/>
    <tag k="source" v="UMP-PL, ./UMP-Koszalin/src/SZCZECINEK.ulice.txt"/>
  </way>
  <way id="30893932" version="3" timestamp="2009-04-13T19:04:58Z" uid="30632" user="antblant" changeset="487279">
    <nd ref="343486512"/>
    <nd ref="343486511"/>
    <nd ref="343486517"/>
    <nd ref="343485526"/>
    <nd ref="343486506"/>
    <nd ref="343485567"/>
    <nd ref="343486388"/>
    <tag k="created_by" v="Potlatch 0.10f"/>
    <tag k="highway" v="primary"/>
    <tag k="name" v="Sikorskiego"/>
    <tag k="ref" v="11; 20"/>
    <tag k="source" v="UMP-PL, ./UMP-Koszalin/src/SZCZECINEK.ulice.txt"/>
  </way>
  <way id="30893933" version="2" timestamp="2009-04-13T18:56:57Z" uid="30632" user="antblant" changeset="487279">
    <nd ref="343485455"/>
    <nd ref="343485454"/>
    <nd ref="343485427"/>
    <nd ref="343485317"/>
    <tag k="highway" v="residential"/>
    <tag k="name" v="1 Maja"/>
    <tag k="source" v="UMP-PL, ./UMP-Koszalin/src/SZCZECINEK.ulice.txt"/>
  </way>
  <way id="30893934" version="2" timestamp="2009-04-13T18:56:51Z" uid="30632" user="antblant" changeset="487279">
    <nd ref="343485331"/>
    <nd ref="343485335"/>
    <nd ref="343485334"/>
    <nd ref="343485337"/>
    <nd ref="343485336"/>
    <nd ref="343485339"/>
    <nd ref="343485338"/>
    <nd ref="343485342"/>
    <nd ref="343485340"/>
    <nd ref="343485344"/>
    <nd ref="343485343"/>
    <nd ref="343485346"/>
    <nd ref="343485345"/>
    <nd ref="343485350"/>
    <nd ref="343485351"/>
    <nd ref="343485347"/>
    <nd ref="343485349"/>
    <nd ref="343485355"/>
    <nd ref="343485356"/>
    <tag k="highway" v="residential"/>
    <tag k="name" v="Rybacka"/>
    <tag k="source" v="UMP-PL, ./UMP-Koszalin/src/SZCZECINEK.ulice.txt"/>
  </way>
  <way id="30893935" version="2" timestamp="2009-04-13T18:56:44Z" uid="30632" user="antblant" changeset="487279">
    <nd ref="343485537"/>
    <nd ref="343485541"/>
    <nd ref="343485538"/>
    <nd ref="343485540"/>
    <tag k="highway" v="residential"/>
    <tag k="name" v="Kamińskiego"/>
    <tag k="source" v="UMP-PL, ./UMP-Koszalin/src/SZCZECINEK.ulice.txt"/>
  </way>
  <way id="30893936" version="2" timestamp="2009-04-13T19:05:10Z" uid="30632" user="antblant" changeset="487279">
    <nd ref="343486512"/>
    <nd ref="343485524"/>
    <nd ref="343486513"/>
    <nd ref="343485321"/>
    <nd ref="343486577"/>
    <nd ref="343485530"/>
    <nd ref="343486576"/>
    <nd ref="343486512"/>
    <tag k="created_by" v="Potlatch 0.10f"/>
    <tag k="highway" v="primary"/>
    <tag k="junction" v="roundabout"/>
    <tag k="ref" v="11; 20"/>
    <tag k="source" v="UMP-PL, ./UMP-Koszalin/src/SZCZECINEK.ulice.txt"/>
  </way>
  <way id="30893937" version="2" timestamp="2009-04-13T18:56:42Z" uid="30632" user="antblant" changeset="487279">
    <nd ref="343485426"/>
    <nd ref="343486362"/>
    <nd ref="343486366"/>
    <nd ref="343486313"/>
    <nd ref="343485427"/>
    <nd ref="343485458"/>
    <tag k="highway" v="residential"/>
    <tag k="name" v="Zielona"/>
    <tag k="source" v="UMP-PL, ./UMP-Koszalin/src/SZCZECINEK.ulice.txt"/>
  </way>
  <way id="30893938" version="2" timestamp="2009-04-13T18:56:36Z" uid="30632" user="antblant" changeset="487279">
    <nd ref="343485718"/>
    <nd ref="343485719"/>
    <nd ref="343485715"/>
    <nd ref="343485410"/>
    <nd ref="343485717"/>
    <nd ref="343485713"/>
    <tag k="highway" v="residential"/>
    <tag k="name" v="Prusa"/>
    <tag k="source" v="UMP-PL, ./UMP-Koszalin/src/SZCZECINEK.ulice.txt"/>
  </way>
  <way id="30893939" version="2" timestamp="2009-04-13T18:56:38Z" uid="30632" user="antblant" changeset="487279">
    <nd ref="343485330"/>
    <nd ref="343485329"/>
    <nd ref="343485333"/>
    <tag k="highway" v="secondary"/>
    <tag k="name" v="Lipowa"/>
    <tag k="ref" v="172"/>
    <tag k="source" v="UMP-PL, ./UMP-Koszalin/src/SZCZECINEK.ulice.txt"/>
  </way>
  <way id="30893941" version="2" timestamp="2009-04-13T18:56:35Z" uid="30632" user="antblant" changeset="487279">
    <nd ref="343485524"/>
    <nd ref="343485527"/>
    <nd ref="343485411"/>
    <tag k="highway" v="primary"/>
    <tag k="name" v="Gdańska"/>
    <tag k="ref" v="20"/>
    <tag k="source" v="UMP-PL, ./UMP-Koszalin/src/SZCZECINEK.ulice.txt"/>
  </way>
  <way id="30893942" version="2" timestamp="2009-04-13T18:56:32Z" uid="30632" user="antblant" changeset="487279">
    <nd ref="343485759"/>
    <nd ref="343485742"/>
    <nd ref="343485750"/>
    <nd ref="343485725"/>
    <nd ref="343485737"/>
    <nd ref="343485723"/>
    <nd ref="343485724"/>
    <nd ref="343485720"/>
    <nd ref="343485721"/>
    <tag k="highway" v="residential"/>
    <tag k="name" v="Waryńskiego"/>
    <tag k="source" v="UMP-PL, ./UMP-Koszalin/src/SZCZECINEK.ulice.txt"/>
  </way>
  <way id="30893943" version="2" timestamp="2009-04-16T20:28:44Z" uid="30632" user="antblant" changeset="598077">
    <nd ref="343485318"/>
    <nd ref="343486315"/>
    <nd ref="343486304"/>
    <nd ref="343486308"/>
    <nd ref="343486298"/>
    <nd ref="343486301"/>
    <nd ref="343486069"/>
    <nd ref="343486291"/>
    <nd ref="343486295"/>
    <nd ref="343486285"/>
    <nd ref="60632556"/>
    <nd ref="60632557"/>
    <nd ref="60632558"/>
    <nd ref="60632559"/>
    <nd ref="60632560"/>
    <nd ref="60632562"/>
    <nd ref="60632563"/>
    <nd ref="60632564"/>
    <nd ref="60632566"/>
    <nd ref="60632567"/>
    <nd ref="60632568"/>
    <nd ref="60632569"/>
    <nd ref="60632570"/>
    <nd ref="60632571"/>
    <nd ref="60632573"/>
    <nd ref="60632574"/>
    <nd ref="60632575"/>
    <nd ref="60632576"/>
    <nd ref="60632577"/>
    <nd ref="60632578"/>
    <nd ref="60632579"/>
    <nd ref="60632580"/>
    <nd ref="60632581"/>
    <nd ref="60632582"/>
    <nd ref="60632584"/>
    <nd ref="60632585"/>
    <nd ref="60632586"/>
    <nd ref="60632587"/>
    <nd ref="60632588"/>
    <nd ref="60632589"/>
    <nd ref="60632591"/>
    <nd ref="60632592"/>
    <nd ref="60632593"/>
    <nd ref="60632594"/>
    <nd ref="60632596"/>
    <nd ref="60632597"/>
    <nd ref="60632598"/>
    <nd ref="60632599"/>
    <nd ref="60632600"/>
    <nd ref="60632601"/>
    <nd ref="60632602"/>
    <nd ref="60632603"/>
    <nd ref="60632604"/>
    <nd ref="60632606"/>
    <nd ref="60632607"/>
    <nd ref="60632608"/>
    <nd ref="60632609"/>
    <nd ref="60632610"/>
    <nd ref="60632611"/>
    <nd ref="60632612"/>
    <nd ref="60632613"/>
    <nd ref="378342831"/>
    <nd ref="60632614"/>
    <tag k="created_by" v="Potlatch 0.10f"/>
    <tag k="highway" v="primary"/>
    <tag k="name" v="Koszalińska"/>
    <tag k="ref" v="11"/>
  </way>
  <way id="30893944" version="2" timestamp="2009-04-13T18:56:26Z" uid="30632" user="antblant" changeset="487279">
    <nd ref="343485319"/>
    <nd ref="343485325"/>
    <nd ref="343485326"/>
    <nd ref="343485327"/>
    <nd ref="343485328"/>
    <tag k="highway" v="residential"/>
    <tag k="name" v="Chojnicka"/>
    <tag k="source" v="UMP-PL, ./UMP-Koszalin/src/SZCZECINEK.ulice.txt"/>
  </way>
  <way id="30893945" version="2" timestamp="2009-04-13T18:56:28Z" uid="30632" user="antblant" changeset="487279">
    <nd ref="343485325"/>
    <nd ref="343485411"/>
    <tag k="highway" v="residential"/>
    <tag k="name" v="Miła"/>
    <tag k="source" v="UMP-PL, ./UMP-Koszalin/src/SZCZECINEK.ulice.txt"/>
  </way>
  <way id="30893946" version="2" timestamp="2009-04-13T18:56:23Z" uid="30632" user="antblant" changeset="487279">
    <nd ref="343485675"/>
    <nd ref="343485755"/>
    <nd ref="343485361"/>
    <tag k="highway" v="residential"/>
    <tag k="name" v="Podwale"/>
    <tag k="source" v="UMP-PL, ./UMP-Koszalin/src/SZCZECINEK.ulice.txt"/>
  </way>
  <way id="30893948" version="6" timestamp="2009-04-13T18:56:18Z" uid="30632" user="antblant" changeset="487279">
    <nd ref="343485352"/>
    <nd ref="343485435"/>
    <nd ref="343486191"/>
    <nd ref="343486184"/>
    <nd ref="343485413"/>
    <nd ref="343486206"/>
    <nd ref="343486589"/>
    <nd ref="343486237"/>
    <nd ref="343486274"/>
    <nd ref="343486224"/>
    <nd ref="343486277"/>
    <nd ref="343486227"/>
    <nd ref="343486082"/>
    <nd ref="343486269"/>
    <nd ref="343486272"/>
    <nd ref="343486262"/>
    <nd ref="343485624"/>
    <nd ref="343486112"/>
    <nd ref="343486264"/>
    <nd ref="343486434"/>
    <nd ref="343486166"/>
    <nd ref="343486433"/>
    <nd ref="343486438"/>
    <tag k="created_by" v="Potlatch 0.10f"/>
    <tag k="highway" v="secondary"/>
    <tag k="name" v="Kościuszki"/>
    <tag k="ref" v="172"/>
    <tag k="source" v="UMP-PL, ./UMP-Koszalin/src/SZCZECINEK.ulice.txt"/>
  </way>
  <way id="30893950" version="2" timestamp="2009-04-13T18:55:57Z" uid="30632" user="antblant" changeset="487279">
    <nd ref="343485323"/>
    <nd ref="343485324"/>
    <tag k="highway" v="primary"/>
    <tag k="name" v="Słupska"/>
    <tag k="ref" v="20"/>
    <tag k="source" v="UMP-PL, ./UMP-Koszalin/src/SZCZECINEK.ulice.txt"/>
  </way>
  <way id="30893950" version="3" timestamp="2009-04-13T19:06:47Z" uid="30632" user="antblant" changeset="487279">
    <nd ref="343485323"/>
    <nd ref="343485324"/>
    <tag k="created_by" v="Potlatch 0.10f"/>
    <tag k="highway" v="primary"/>
    <tag k="name" v="Słupska"/>
    <tag k="oneway" v="yes"/>
    <tag k="ref" v="20"/>
    <tag k="source" v="UMP-PL, ./UMP-Koszalin/src/SZCZECINEK.ulice.txt"/>
  </way>
  <way id="30893951" version="2" timestamp="2009-04-13T18:56:16Z" uid="30632" user="antblant" changeset="487279">
    <nd ref="343485413"/>
    <nd ref="343485430"/>
    <tag k="highway" v="residential"/>
    <tag k="name" v="Lelewela"/>
    <tag k="source" v="UMP-PL, ./UMP-Koszalin/src/SZCZECINEK.ulice.txt"/>
  </way>
  <way id="30893953" version="2" timestamp="2009-04-13T18:58:36Z" uid="30632" user="antblant" changeset="487279">
    <nd ref="343485657"/>
    <nd ref="343486206"/>
    <tag k="highway" v="residential"/>
    <tag k="name" v="Kilińskiego"/>
    <tag k="source" v="UMP-PL, ./UMP-Koszalin/src/SZCZECINEK.ulice.txt"/>
  </way>
  <way id="30893958" version="2" timestamp="2009-04-13T18:58:47Z" uid="30632" user="antblant" changeset="487279">
    <nd ref="343485574"/>
    <nd ref="343486390"/>
    <nd ref="343485643"/>
    <nd ref="343485610"/>
    <nd ref="343485607"/>
    <nd ref="343486372"/>
    <nd ref="343486373"/>
    <nd ref="343486375"/>
    <nd ref="343485490"/>
    <nd ref="343486331"/>
    <tag k="highway" v="primary"/>
    <tag k="name" v="Cieślaka"/>
    <tag k="ref" v="11/20"/>
    <tag k="source" v="UMP-PL, ./UMP-Koszalin/src/SZCZECINEK.ulice.txt"/>
  </way>
  <way id="30893958" version="3" timestamp="2009-04-13T19:06:25Z" uid="30632" user="antblant" changeset="487279">
    <nd ref="343485574"/>
    <nd ref="343486390"/>
    <nd ref="343485643"/>
    <nd ref="343485610"/>
    <nd ref="343485607"/>
    <nd ref="343486372"/>
    <nd ref="343486373"/>
    <nd ref="343486375"/>
    <nd ref="343485490"/>
    <nd ref="343486331"/>
    <tag k="created_by" v="Potlatch 0.10f"/>
    <tag k="highway" v="primary"/>
    <tag k="name" v="Cieślaka"/>
    <tag k="ref" v="11; 20"/>
    <tag k="source" v="UMP-PL, ./UMP-Koszalin/src/SZCZECINEK.ulice.txt"/>
  </way>
  <way id="30893959" version="3" timestamp="2009-04-13T18:58:49Z" uid="30632" user="antblant" changeset="487279">
    <nd ref="343485411"/>
    <nd ref="343485412"/>
    <tag k="created_by" v="Potlatch 0.10f"/>
    <tag k="highway" v="secondary"/>
    <tag k="name" v="Szczecińska"/>
    <tag k="source" v="UMP-PL, ./UMP-Koszalin/src/SZCZECINEK.ulice.txt"/>
  </way>
  <way id="30893963" version="2" timestamp="2009-04-13T18:58:57Z" uid="30632" user="antblant" changeset="487279">
    <nd ref="343485558"/>
    <nd ref="343486376"/>
    <nd ref="343485607"/>
    <tag k="highway" v="residential"/>
    <tag k="name" v="Szymanowskiego"/>
    <tag k="source" v="UMP-PL, ./UMP-Koszalin/src/SZCZECINEK.ulice.txt"/>
  </way>
  <way id="30893963" version="3" timestamp="2010-10-02T21:54:25Z" uid="20587" user="balrog-kun" changeset="5940049">
    <nd ref="343485558"/>
    <nd ref="343486376"/>
    <nd ref="343485607"/>
    <tag k="highway" v="residential"/>
    <tag k="name" v="Karola Szymanowskiego"/>
    <tag k="source" v="UMP-PL, ./UMP-Koszalin/src/SZCZECINEK.ulice.txt"/>
  </way>
  <way id="30893966" version="2" timestamp="2009-04-13T18:59:05Z" uid="30632" user="antblant" changeset="487279">
    <nd ref="343486213"/>
    <nd ref="343486216"/>
    <tag k="highway" v="residential"/>
    <tag k="name" v="Nowa"/>
    <tag k="source" v="UMP-PL, ./UMP-Koszalin/src/SZCZECINEK.ulice.txt"/>
  </way>
  <way id="30893967" version="2" timestamp="2009-04-13T18:59:08Z" uid="30632" user="antblant" changeset="487279">
    <nd ref="343485648"/>
    <nd ref="343486384"/>
    <tag k="highway" v="residential"/>
    <tag k="name" v="Kochanowskiego"/>
    <tag k="source" v="UMP-PL, ./UMP-Koszalin/src/SZCZECINEK.ulice.txt"/>
  </way>
  <way id="30893968" version="2" timestamp="2009-04-13T18:57:48Z" uid="30632" user="antblant" changeset="487279">
    <nd ref="343485553"/>
    <nd ref="343485609"/>
    <nd ref="343485610"/>
    <tag k="highway" v="residential"/>
    <tag k="name" v="Sienkiewicza"/>
    <tag k="source" v="UMP-PL, ./UMP-Koszalin/src/SZCZECINEK.ulice.txt"/>
  </way>
  <way id="30893968" version="3" timestamp="2010-10-02T21:54:19Z" uid="20587" user="balrog-kun" changeset="5940049">
    <nd ref="343485553"/>
    <nd ref="343485609"/>
    <nd ref="343485610"/>
    <tag k="highway" v="residential"/>
    <tag k="name" v="Henryka Sienkiewicza"/>
    <tag k="source" v="UMP-PL, ./UMP-Koszalin/src/SZCZECINEK.ulice.txt"/>
  </way>
  <way id="30893969" version="2" timestamp="2009-04-13T18:57:44Z" uid="30632" user="antblant" changeset="487279">
    <nd ref="343485352"/>
    <nd ref="343485353"/>
    <nd ref="343485360"/>
    <nd ref="343485361"/>
    <nd ref="343485358"/>
    <nd ref="343485444"/>
    <nd ref="343485359"/>
    <tag k="highway" v="residential"/>
    <tag k="name" v="Bohaterów Warszawy"/>
    <tag k="source" v="UMP-PL, ./UMP-Koszalin/src/SZCZECINEK.ulice.txt"/>
  </way>
  <way id="30893971" version="4" timestamp="2009-04-13T18:57:52Z" uid="30632" user="antblant" changeset="487279">
    <nd ref="343486252"/>
    <nd ref="343486218"/>
    <nd ref="343486221"/>
    <nd ref="343486182"/>
    <nd ref="343486184"/>
    <tag k="created_by" v="Potlatch 0.10f"/>
    <tag k="highway" v="residential"/>
    <tag k="name" v="Mierosławskiego"/>
    <tag k="source" v="UMP-PL, ./UMP-Koszalin/src/SZCZECINEK.ulice.txt"/>
  </way>
  <way id="30893972" version="2" timestamp="2009-04-13T18:58:10Z" uid="30632" user="antblant" changeset="487279">
    <nd ref="343486388"/>
    <nd ref="343485590"/>
    <nd ref="343485575"/>
    <nd ref="343485574"/>
    <tag k="highway" v="primary"/>
    <tag k="name" v="Słowiańska"/>
    <tag k="ref" v="11/20"/>
    <tag k="source" v="UMP-PL, ./UMP-Koszalin/src/SZCZECINEK.ulice.txt"/>
  </way>
  <way id="30893972" version="3" timestamp="2009-04-13T19:06:08Z" uid="30632" user="antblant" changeset="487279">
    <nd ref="343486388"/>
    <nd ref="343485590"/>
    <nd ref="343485575"/>
    <nd ref="343485574"/>
    <tag k="created_by" v="Potlatch 0.10f"/>
    <tag k="highway" v="primary"/>
    <tag k="name" v="Słowiańska"/>
    <tag k="ref" v="11; 20"/>
    <tag k="source" v="UMP-PL, ./UMP-Koszalin/src/SZCZECINEK.ulice.txt"/>
  </way>
  <way id="30893973" version="2" timestamp="2009-04-13T18:57:55Z" uid="30632" user="antblant" changeset="487279">
    <nd ref="343485574"/>
    <nd ref="343485573"/>
    <nd ref="343485583"/>
    <nd ref="343485579"/>
    <nd ref="343485578"/>
    <nd ref="343485577"/>
    <nd ref="343485551"/>
    <tag k="highway" v="residential"/>
    <tag k="name" v="Wiejska"/>
    <tag k="source" v="UMP-PL, ./UMP-Koszalin/src/SZCZECINEK.ulice.txt"/>
  </way>
  <way id="30893974" version="2" timestamp="2009-04-13T18:58:15Z" uid="30632" user="antblant" changeset="487279">
    <nd ref="343485444"/>
    <nd ref="343485448"/>
    <nd ref="343485447"/>
    <nd ref="343485439"/>
    <tag k="highway" v="residential"/>
    <tag k="name" v="Księżnej Elżbiety"/>
    <tag k="source" v="UMP-PL, ./UMP-Koszalin/src/SZCZECINEK.ulice.txt"/>
  </way>
  <way id="30893975" version="2" timestamp="2009-04-13T18:58:12Z" uid="30632" user="antblant" changeset="487279">
    <nd ref="343485572"/>
    <nd ref="343485542"/>
    <nd ref="343485543"/>
    <nd ref="343485545"/>
    <nd ref="343485547"/>
    <nd ref="343485551"/>
    <nd ref="343485553"/>
    <nd ref="343485556"/>
    <nd ref="343485558"/>
    <tag k="highway" v="residential"/>
    <tag k="name" v="Kwiatowa"/>
    <tag k="source" v="UMP-PL, ./UMP-Koszalin/src/SZCZECINEK.ulice.txt"/>
  </way>
  <way id="30893977" version="2" timestamp="2009-04-13T18:58:19Z" uid="30632" user="antblant" changeset="487279">
    <nd ref="343485519"/>
    <nd ref="343486500"/>
    <nd ref="343485525"/>
    <nd ref="343485540"/>
    <nd ref="343485498"/>
    <tag k="highway" v="residential"/>
    <tag k="name" v="Mickiewicza"/>
    <tag k="source" v="UMP-PL, ./UMP-Koszalin/src/SZCZECINEK.ulice.txt"/>
  </way>
  <way id="30893980" version="2" timestamp="2009-04-13T18:58:27Z" uid="30632" user="antblant" changeset="487279">
    <nd ref="343485358"/>
    <nd ref="343485446"/>
    <tag k="highway" v="residential"/>
    <tag k="name" v="Drzymały"/>
    <tag k="source" v="UMP-PL, ./UMP-Koszalin/src/SZCZECINEK.ulice.txt"/>
  </way>
  <way id="30893981" version="2" timestamp="2009-04-13T18:58:26Z" uid="30632" user="antblant" changeset="487279">
    <nd ref="343485567"/>
    <nd ref="343485569"/>
    <nd ref="343485570"/>
    <nd ref="343485571"/>
    <tag k="highway" v="residential"/>
    <tag k="name" v="Warszawska"/>
    <tag k="source" v="UMP-PL, ./UMP-Koszalin/src/SZCZECINEK.ulice.txt"/>
  </way>
  <way id="30893982" version="2" timestamp="2009-04-13T18:58:34Z" uid="30632" user="antblant" changeset="487279">
    <nd ref="343485495"/>
    <nd ref="343485493"/>
    <nd ref="343486489"/>
    <nd ref="343486401"/>
    <tag k="highway" v="residential"/>
    <tag k="name" v="Plater"/>
    <tag k="source" v="UMP-PL, ./UMP-Koszalin/src/SZCZECINEK.ulice.txt"/>
  </way>
  <way id="30893982" version="3" timestamp="2010-10-02T21:54:32Z" uid="20587" user="balrog-kun" changeset="5940049">
    <nd ref="343485495"/>
    <nd ref="343485493"/>
    <nd ref="343486489"/>
    <nd ref="343486401"/>
    <tag k="highway" v="residential"/>
    <tag k="name" v="Emilii Plater"/>
    <tag k="source" v="UMP-PL, ./UMP-Koszalin/src/SZCZECINEK.ulice.txt"/>
  </way>
  <way id="30893983" version="4" timestamp="2009-04-13T18:58:30Z" uid="30632" user="antblant" changeset="487279">
    <nd ref="343486191"/>
    <nd ref="343486194"/>
    <tag k="created_by" v="Potlatch 0.10f"/>
    <tag k="highway" v="tertiary"/>
    <tag k="name" v="Jasna"/>
    <tag k="source" v="UMP-PL, ./UMP-Koszalin/src/SZCZECINEK.ulice.txt"/>
  </way>
  <way id="30893984" version="2" timestamp="2009-04-13T18:56:55Z" uid="30632" user="antblant" changeset="487279">
    <nd ref="343485880"/>
    <nd ref="343485364"/>
    <nd ref="343485878"/>
    <nd ref="343485882"/>
    <nd ref="343485881"/>
    <nd ref="343485884"/>
    <nd ref="343485883"/>
    <nd ref="343485887"/>
    <nd ref="343485885"/>
    <nd ref="343485856"/>
    <tag k="highway" v="residential"/>
    <tag k="name" v="Czarnobór"/>
    <tag k="source" v="UMP-PL, ./UMP-Koszalin/src/SZCZECINEK.ulice.txt"/>
  </way>
  <way id="30893985" version="2" timestamp="2009-04-13T18:56:59Z" uid="30632" user="antblant" changeset="487279">
    <nd ref="343485427"/>
    <nd ref="343485428"/>
    <nd ref="343485429"/>
    <tag k="highway" v="residential"/>
    <tag k="name" v="Wiatraczna"/>
    <tag k="source" v="UMP-PL, ./UMP-Koszalin/src/SZCZECINEK.ulice.txt"/>
  </way>
  <way id="30893986" version="2" timestamp="2009-04-13T18:56:42Z" uid="30632" user="antblant" changeset="487279">
    <nd ref="343485572"/>
    <nd ref="343486496"/>
    <nd ref="343485587"/>
    <nd ref="343486388"/>
    <nd ref="343485631"/>
    <nd ref="343486497"/>
    <nd ref="343485622"/>
    <nd ref="343485645"/>
    <nd ref="343486381"/>
    <nd ref="343486384"/>
    <nd ref="343485594"/>
    <nd ref="343486499"/>
    <nd ref="343485500"/>
    <tag k="highway" v="residential"/>
    <tag k="name" v="Armii Krajowej"/>
    <tag k="source" v="UMP-PL, ./UMP-Koszalin/src/SZCZECINEK.ulice.txt"/>
  </way>
  <way id="30893989" version="2" timestamp="2009-04-13T18:57:20Z" uid="30632" user="antblant" changeset="487279">
    <nd ref="343486196"/>
    <nd ref="343485360"/>
    <nd ref="343486199"/>
    <tag k="highway" v="residential"/>
    <tag k="name" v="Parkowa"/>
    <tag k="source" v="UMP-PL, ./UMP-Koszalin/src/SZCZECINEK.ulice.txt"/>
  </way>
  <way id="30893990" version="4" timestamp="2009-04-13T18:57:03Z" uid="30632" user="antblant" changeset="487279">
    <nd ref="343485431"/>
    <nd ref="343485435"/>
    <nd ref="343485437"/>
    <nd ref="343485426"/>
    <tag k="created_by" v="Potlatch 0.10f"/>
    <tag k="highway" v="tertiary"/>
    <tag k="name" v="Jeziorna"/>
    <tag k="source" v="UMP-PL, ./UMP-Koszalin/src/SZCZECINEK.ulice.txt"/>
  </way>
  <way id="30893991" version="2" timestamp="2009-04-13T18:57:15Z" uid="30632" user="antblant" changeset="487279">
    <nd ref="343485498"/>
    <nd ref="343486397"/>
    <nd ref="343485683"/>
    <tag k="highway" v="residential"/>
    <tag k="name" v="3 Maja"/>
    <tag k="source" v="UMP-PL, ./UMP-Koszalin/src/SZCZECINEK.ulice.txt"/>
  </way>
</osm>
