<?xml version='1.0' encoding='UTF-8'?>
<osm version="0.6" generator="libosmium/2.20.0">
  <way id="30991007" version="5" timestamp="2010-04-07T15:07:02Z" uid="20587" user="balrog-kun" changeset="4353646">
    <nd ref="344583745"/>
    <nd ref="344583746"/>
    <nd ref="344583747"/>
    <nd ref="344583748"/>
    <nd ref="344583749"/>
    <nd ref="229397089"/>
    <nd ref="229397093"/>
    <nd ref="229397097"/>
    <nd ref="229397100"/>
    <nd ref="229397103"/>
    <nd ref="229397107"/>
    <nd ref="229397111"/>
    <nd ref="229397115"/>
    <tag k="highway" v="tertiary"/>
    <tag k="name" v="East Calton Road"/>
    <tag k="tiger:cfcc" v="A41"/>
    <tag k="tiger:county" v="Webb, TX"/>
    <tag k="tiger:name_base" v="Calton"/>
    <tag k="tiger:name_direction_prefix" v="E"/>
    <tag k="tiger:name_type" v="Rd"/>
    <tag k="tiger:reviewed" v="no"/>
    <tag k="tiger:separated" v="no"/>
    <tag k="tiger:source" v="tiger_import_dch_v0.6_20070830"/>
    <tag k="tiger:tlid" v="21672810:21672791:21672709:21672711:21672713:21672680:21672809:21672666:21672702:21685208:21685209:21676268:21676263:21670980:21670989:21671102:21671108:21671123:21671126:21670947:21670976:21681523:21678687:21670936"/>
    <tag k="tiger:zip_left" v="78041"/>
    <tag k="tiger:zip_right" v="78041"/>
  </way>
  <way id="30991010" version="2" timestamp="2009-04-30T21:19:23Z" uid="6269" user="Mueck" changeset="1031076">
    <nd ref="14892149"/>
    <nd ref="21498829"/>
    <nd ref="278070632"/>
    <tag k="created_by" v="Potlatch 0.10a"/>
    <tag k="highway" v="secondary"/>
    <tag k="oneway" v="yes"/>
  </way>
  <way id="30991010" version="3" timestamp="2009-05-24T14:01:38Z" uid="6269" user="Mueck" changeset="1305941">
    <nd ref="14892149"/>
    <nd ref="21498829"/>
    <nd ref="278070632"/>
    <tag k="created_by" v="Potlatch 0.10a"/>
    <tag k="cycleway" v="track"/>
    <tag k="highway" v="secondary"/>
    <tag k="oneway" v="yes"/>
  </way>
  <way id="30991010" version="5" timestamp="2010-03-28T23:43:48Z" uid="6269" user="Mueck" changeset="4263037">
    <nd ref="14892149"/>
    <nd ref="21498829"/>
    <nd ref="278070632"/>
    <tag k="cycleway" v="track"/>
    <tag k="highway" v="secondary"/>
    <tag k="name" v="Kapellenstraße"/>
    <tag k="oneway" v="yes"/>
  </way>
  <way id="30991010" version="6" timestamp="2011-02-03T01:28:16Z" uid="6269" user="Mueck" changeset="7170427">
    <nd ref="14892149"/>
    <nd ref="21498829"/>
    <nd ref="1133166075"/>
    <nd ref="1133166056"/>
    <nd ref="278070632"/>
    <tag k="cycleway" v="track"/>
    <tag k="highway" v="secondary"/>
    <tag k="name" v="Kapellenstraße"/>
    <tag k="oneway" v="yes"/>
  </way>
  <way id="30991011" version="3" timestamp="2009-05-08T23:47:42Z" uid="6269" user="Mueck" changeset="1122795">
    <nd ref="412335"/>
    <nd ref="412334"/>
    <nd ref="412333"/>
    <tag k="created_by" v="Potlatch 0.9c"/>
    <tag k="highway" v="trunk"/>
    <tag k="maxspeed" v="80"/>
    <tag k="motorroad" v="yes"/>
    <tag k="name" v="Südtangente"/>
    <tag k="oneway" v="yes"/>
    <tag k="ref" v="B 10;B 36"/>
  </way>
  <way id="30991013" version="6" timestamp="2011-02-14T23:32:29Z" uid="6269" user="Mueck" changeset="7290890">
    <nd ref="26470133"/>
    <nd ref="1126475618"/>
    <nd ref="26470134"/>
    <nd ref="26470135"/>
    <nd ref="1153718384"/>
    <nd ref="26470136"/>
    <tag k="bridge" v="yes"/>
    <tag k="highway" v="primary"/>
    <tag k="layer" v="1"/>
    <tag k="maxspeed" v="50"/>
    <tag k="name" v="Vogesenbrücke"/>
    <tag k="oneway" v="yes"/>
    <tag k="ref" v="B 36"/>
  </way>
  <way id="30991014" version="3" timestamp="2009-05-08T23:47:01Z" uid="6269" user="Mueck" changeset="1122795">
    <nd ref="412339"/>
    <nd ref="412338"/>
    <nd ref="29399613"/>
    <tag k="created_by" v="Potlatch 0.9c"/>
    <tag k="highway" v="trunk"/>
    <tag k="maxspeed" v="80"/>
    <tag k="motorroad" v="yes"/>
    <tag k="name" v="Südtangente"/>
    <tag k="oneway" v="yes"/>
    <tag k="ref" v="B 10"/>
  </way>
  <way id="30991015" version="4" timestamp="2009-05-08T23:40:12Z" uid="6269" user="Mueck" changeset="1122795">
    <nd ref="31118141"/>
    <nd ref="15843212"/>
    <nd ref="342902"/>
    <nd ref="15848793"/>
    <nd ref="342900"/>
    <nd ref="342899"/>
    <nd ref="342898"/>
    <nd ref="30122609"/>
    <tag k="created_by" v="Potlatch 0.10f"/>
    <tag k="highway" v="trunk"/>
    <tag k="maxspeed" v="80"/>
    <tag k="motorroad" v="yes"/>
    <tag k="name" v="Südtangente"/>
    <tag k="oneway" v="yes"/>
    <tag k="ref" v="K9657"/>
  </way>
  <way id="30991015" version="5" timestamp="2009-05-09T08:09:41Z" uid="6269" user="Mueck" changeset="1124719">
    <nd ref="31118141"/>
    <nd ref="15843212"/>
    <nd ref="342902"/>
    <nd ref="15848793"/>
    <nd ref="342900"/>
    <nd ref="342899"/>
    <nd ref="342898"/>
    <nd ref="30122609"/>
    <nd ref="31118145"/>
    <tag k="created_by" v="Potlatch 0.10f; JOSM"/>
    <tag k="highway" v="trunk"/>
    <tag k="maxspeed" v="80"/>
    <tag k="motorroad" v="yes"/>
    <tag k="name" v="Südtangente"/>
    <tag k="oneway" v="yes"/>
    <tag k="ref" v="K9657"/>
  </way>
  <way id="30991018" version="7" timestamp="2011-03-27T17:36:16Z" uid="6269" user="Mueck" changeset="7688761">
    <nd ref="526073"/>
    <nd ref="16718471"/>
    <nd ref="410168185"/>
    <nd ref="548906917"/>
    <nd ref="687898183"/>
    <nd ref="601492130"/>
    <nd ref="16718474"/>
    <nd ref="1221942281"/>
    <nd ref="16718515"/>
    <tag k="highway" v="secondary"/>
    <tag k="name" v="Fautenbruchstraße"/>
    <tag k="note" v="im SHP des NVK: II"/>
  </way>
  <way id="30991020" version="5" timestamp="2011-02-20T02:42:25Z" uid="6269" user="Mueck" changeset="7338246">
    <nd ref="31410608"/>
    <nd ref="31410944"/>
    <nd ref="1162700704"/>
    <nd ref="15432589"/>
    <nd ref="1162700784"/>
    <nd ref="89337223"/>
    <nd ref="707960767"/>
    <nd ref="249138732"/>
    <nd ref="249138730"/>
    <nd ref="89313571"/>
    <nd ref="15432623"/>
    <nd ref="94614071"/>
    <nd ref="24956905"/>
    <nd ref="15432406"/>
    <nd ref="94617102"/>
    <nd ref="15432412"/>
    <tag k="highway" v="primary"/>
    <tag k="lanes" v="2"/>
    <tag k="maxspeed" v="60"/>
    <tag k="name" v="Neureuter Straße"/>
    <tag k="oneway" v="yes"/>
    <tag k="ref" v="B 36"/>
  </way>
  <way id="30991105" version="6" timestamp="2010-07-08T19:38:56Z" uid="74617" user="JohnSmith" changeset="5168688">
    <nd ref="344580131"/>
    <nd ref="344583926"/>
    <nd ref="344585068"/>
    <nd ref="344585028"/>
    <nd ref="344585029"/>
    <nd ref="344585030"/>
    <nd ref="344585031"/>
    <nd ref="344585032"/>
    <nd ref="344585033"/>
    <nd ref="344585034"/>
    <nd ref="344585035"/>
    <tag k="highway" v="residential"/>
    <tag k="maxspeed" v="50"/>
    <tag k="maxspeed:source" v="default residential speed limit in Australia"/>
    <tag k="name" v="Clegg Avenue"/>
  </way>
  <way id="30991106" version="4" timestamp="2010-05-01T03:36:00Z" uid="4467" user="Rosscoe" changeset="4571405">
    <nd ref="344583926"/>
    <nd ref="344583927"/>
    <nd ref="344583965"/>
    <nd ref="344583966"/>
    <nd ref="714468151"/>
    <tag k="highway" v="residential"/>
    <tag k="name" v="Mount Dandenong Road Service Road"/>
  </way>
  <way id="30991106" version="5" timestamp="2010-07-08T19:41:52Z" uid="74617" user="JohnSmith" changeset="5168688">
    <nd ref="344583926"/>
    <nd ref="344583927"/>
    <nd ref="344583965"/>
    <nd ref="344583966"/>
    <nd ref="714468151"/>
    <tag k="highway" v="residential"/>
    <tag k="maxspeed" v="50"/>
    <tag k="maxspeed:source" v="default residential speed limit in Australia"/>
    <tag k="name" v="Mount Dandenong Road Service Road"/>
  </way>
  <way id="30991110" version="3" timestamp="2010-04-07T15:07:03Z" uid="20587" user="balrog-kun" changeset="4353646">
    <nd ref="229380684"/>
    <nd ref="344583949"/>
    <nd ref="344583950"/>
    <nd ref="344583951"/>
    <nd ref="344583952"/>
    <nd ref="344583752"/>
    <nd ref="344583953"/>
    <nd ref="344583954"/>
    <nd ref="344583955"/>
    <nd ref="344583745"/>
    <nd ref="344583956"/>
    <nd ref="344583957"/>
    <nd ref="344583958"/>
    <nd ref="229380684"/>
    <tag k="created_by" v="Potlatch 0.10f"/>
    <tag k="highway" v="tertiary"/>
    <tag k="junction" v="roundabout"/>
    <tag k="name" v="East Calton Road"/>
    <tag k="oneway" v="yes"/>
  </way>
  <way id="30991115" version="4" timestamp="2010-05-01T03:35:48Z" uid="4467" user="Rosscoe" changeset="4571405">
    <nd ref="714468245"/>
    <nd ref="714468243"/>
    <nd ref="344584007"/>
    <nd ref="344583973"/>
    <nd ref="344583974"/>
    <nd ref="344583975"/>
    <tag k="highway" v="residential"/>
    <tag k="name" v="Mount Dandenong Road Service Road"/>
    <tag k="oneway" v="yes"/>
  </way>
  <way id="30991115" version="5" timestamp="2010-07-08T19:37:51Z" uid="74617" user="JohnSmith" changeset="5168688">
    <nd ref="714468245"/>
    <nd ref="714468243"/>
    <nd ref="344584007"/>
    <nd ref="344583973"/>
    <nd ref="344583974"/>
    <nd ref="344583975"/>
    <tag k="highway" v="residential"/>
    <tag k="maxspeed" v="50"/>
    <tag k="maxspeed:source" v="default residential speed limit in Australia"/>
    <tag k="name" v="Mount Dandenong Road Service Road"/>
    <tag k="oneway" v="yes"/>
  </way>
  <way id="30991119" version="9" timestamp="2009-08-13T12:35:04Z" uid="4467" user="Rosscoe" changeset="2130930">
    <nd ref="26968397"/>
    <nd ref="281124765"/>
    <nd ref="448779230"/>
    <nd ref="281125014"/>
    <nd ref="30678224"/>
    <nd ref="281126236"/>
    <nd ref="29822928"/>
    <nd ref="344587720"/>
    <nd ref="344587721"/>
    <nd ref="344587722"/>
    <tag k="highway" v="primary"/>
    <tag k="maxspeed" v="60"/>
    <tag k="name" v="Mount Dandenong Road"/>
    <tag k="oneway" v="yes"/>
    <tag k="ref" v="S62"/>
  </way>
  <way id="30991119" version="16" timestamp="2010-08-17T07:17:54Z" uid="4467" user="Rosscoe" changeset="5515084">
    <nd ref="26968397"/>
    <nd ref="864430013"/>
    <nd ref="661031472"/>
    <nd ref="524734694"/>
    <nd ref="281124765"/>
    <nd ref="661030929"/>
    <nd ref="661030940"/>
    <nd ref="661030930"/>
    <nd ref="448779230"/>
    <nd ref="281125014"/>
    <nd ref="661031552"/>
    <nd ref="30678224"/>
    <nd ref="281126236"/>
    <nd ref="29822928"/>
    <nd ref="344587720"/>
    <nd ref="344587721"/>
    <nd ref="344587722"/>
    <tag k="highway" v="primary"/>
    <tag k="maxspeed" v="60"/>
    <tag k="name" v="Mount Dandenong Road"/>
    <tag k="oneway" v="yes"/>
  </way>
  <way id="30991119" version="17" timestamp="2010-08-17T07:24:10Z" uid="4467" user="Rosscoe" changeset="5515107">
    <nd ref="26968397"/>
    <nd ref="864430013"/>
    <nd ref="661031472"/>
    <nd ref="524734694"/>
    <nd ref="281124765"/>
    <nd ref="661030929"/>
    <nd ref="661030940"/>
    <nd ref="661030930"/>
    <nd ref="448779230"/>
    <nd ref="281125014"/>
    <nd ref="661031552"/>
    <nd ref="30678224"/>
    <nd ref="281126236"/>
    <nd ref="29822928"/>
    <nd ref="344587720"/>
    <nd ref="344587721"/>
    <nd ref="344587722"/>
    <tag k="highway" v="primary"/>
    <tag k="maxspeed" v="60"/>
    <tag k="name" v="Mount Dandenong Road"/>
    <tag k="oneway" v="yes"/>
  </way>
  <way id="30991119" version="18" timestamp="2010-08-17T07:33:05Z" uid="4467" user="Rosscoe" changeset="5515151">
    <nd ref="26968397"/>
    <nd ref="864430013"/>
    <nd ref="661031472"/>
    <nd ref="524734694"/>
    <nd ref="281124765"/>
    <nd ref="661030929"/>
    <nd ref="661030940"/>
    <nd ref="661030930"/>
    <nd ref="448779230"/>
    <nd ref="281125014"/>
    <nd ref="661031552"/>
    <nd ref="30678224"/>
    <nd ref="281126236"/>
    <nd ref="29822928"/>
    <nd ref="344587720"/>
    <nd ref="344587721"/>
    <nd ref="344587722"/>
    <tag k="highway" v="primary"/>
    <tag k="maxspeed" v="60"/>
    <tag k="name" v="Mount Dandenong Road"/>
    <tag k="oneway" v="yes"/>
  </way>
  <way id="30991133" version="2" timestamp="2010-07-09T05:18:08Z" uid="74617" user="JohnSmith" changeset="5170986">
    <nd ref="344581260"/>
    <nd ref="344584191"/>
    <tag k="highway" v="residential"/>
    <tag k="maxspeed" v="50"/>
    <tag k="maxspeed:source" v="default residential speed limit in Australia"/>
    <tag k="name" v="Lawson Street"/>
    <tag k="source" v="Yahoo"/>
    <tag k="source:name" v="Collins 1936"/>
  </way>
  <way id="30991139" version="2" timestamp="2010-07-09T05:17:16Z" uid="74617" user="JohnSmith" changeset="5170986">
    <nd ref="344584194"/>
    <nd ref="344584210"/>
    <nd ref="344584211"/>
    <tag k="highway" v="residential"/>
    <tag k="maxspeed" v="50"/>
    <tag k="maxspeed:source" v="default residential speed limit in Australia"/>
    <tag k="name" v="Musk Street"/>
    <tag k="source" v="Yahoo"/>
    <tag k="source:name" v="Collins 1936"/>
  </way>
  <way id="30991225" version="5" timestamp="2010-07-08T19:41:54Z" uid="74617" user="JohnSmith" changeset="5168688">
    <nd ref="344585266"/>
    <nd ref="344585065"/>
    <nd ref="344585166"/>
    <nd ref="344585267"/>
    <nd ref="344585268"/>
    <nd ref="455751017"/>
    <nd ref="344585269"/>
    <tag k="highway" v="residential"/>
    <tag k="maxspeed" v="50"/>
    <tag k="maxspeed:source" v="default residential speed limit in Australia"/>
    <tag k="name" v="Ross Road"/>
  </way>
  <way id="30991231" version="5" timestamp="2010-04-02T17:29:15Z" uid="20587" user="balrog-kun" changeset="4304500">
    <nd ref="48712526"/>
    <nd ref="257374383"/>
    <tag k="bridge" v="yes"/>
    <tag k="highway" v="residential"/>
    <tag k="layer" v="1"/>
    <tag k="name" v="Red Bridge Road"/>
    <tag k="tiger:cfcc" v="A41"/>
    <tag k="tiger:county" v="Kittitas, WA"/>
    <tag k="tiger:name_base" v="Red Bridge"/>
    <tag k="tiger:name_type" v="Rd"/>
    <tag k="tiger:reviewed" v="no"/>
    <tag k="tiger:separated" v="no"/>
    <tag k="tiger:source" v="tiger_import_dch_v0.6_20070830"/>
    <tag k="tiger:tlid" v="157199989:157200137:157222096:157199988:157226386:157226387:157200420:157222108"/>
    <tag k="tiger:zip_left" v="98922"/>
    <tag k="tiger:zip_right" v="98922"/>
  </way>
  <way id="30991234" version="2" timestamp="2010-04-02T17:29:16Z" uid="20587" user="balrog-kun" changeset="4304500">
    <nd ref="257374383"/>
    <nd ref="48712528"/>
    <nd ref="48712531"/>
    <nd ref="48712532"/>
    <nd ref="48712534"/>
    <nd ref="48712536"/>
    <nd ref="257374384"/>
    <nd ref="48712537"/>
    <nd ref="257374385"/>
    <nd ref="257374386"/>
    <nd ref="48712538"/>
    <nd ref="257374387"/>
    <nd ref="257374388"/>
    <nd ref="48712541"/>
    <nd ref="48712543"/>
    <nd ref="48712544"/>
    <nd ref="48712546"/>
    <nd ref="257374389"/>
    <nd ref="257374390"/>
    <nd ref="257374391"/>
    <nd ref="257374392"/>
    <nd ref="48712549"/>
    <nd ref="48712551"/>
    <nd ref="48634718"/>
    <nd ref="257374393"/>
    <nd ref="48712554"/>
    <nd ref="257374394"/>
    <nd ref="48712556"/>
    <nd ref="48609706"/>
    <nd ref="257373518"/>
    <nd ref="257373477"/>
    <nd ref="48712559"/>
    <nd ref="257373478"/>
    <nd ref="257373479"/>
    <nd ref="48712561"/>
    <nd ref="48712563"/>
    <nd ref="257373480"/>
    <nd ref="257373481"/>
    <nd ref="48712564"/>
    <nd ref="48712565"/>
    <nd ref="257373482"/>
    <nd ref="257373483"/>
    <nd ref="48712567"/>
    <nd ref="48712569"/>
    <nd ref="48712571"/>
    <nd ref="48712573"/>
    <nd ref="257373484"/>
    <nd ref="257373485"/>
    <nd ref="48712575"/>
    <nd ref="257373486"/>
    <nd ref="48712577"/>
    <nd ref="257373487"/>
    <nd ref="48712579"/>
    <nd ref="257373488"/>
    <nd ref="257373489"/>
    <nd ref="257373490"/>
    <nd ref="257373491"/>
    <nd ref="257373492"/>
    <nd ref="48712581"/>
    <nd ref="48712583"/>
    <nd ref="48712585"/>
    <tag k="created_by" v="Potlatch 0.10f"/>
    <tag k="highway" v="residential"/>
    <tag k="name" v="Red Bridge Road"/>
    <tag k="tiger:cfcc" v="A41"/>
    <tag k="tiger:county" v="Kittitas, WA"/>
    <tag k="tiger:name_base" v="Red Bridge"/>
    <tag k="tiger:name_type" v="Rd"/>
    <tag k="tiger:reviewed" v="no"/>
    <tag k="tiger:separated" v="no"/>
    <tag k="tiger:source" v="tiger_import_dch_v0.6_20070830"/>
    <tag k="tiger:tlid" v="157199989:157200137:157222096:157199988:157226386:157226387:157200420:157222108"/>
    <tag k="tiger:zip_left" v="98922"/>
    <tag k="tiger:zip_right" v="98922"/>
  </way>
  <way id="30991244" version="5" timestamp="2010-07-08T19:39:12Z" uid="74617" user="JohnSmith" changeset="5168688">
    <nd ref="344585340"/>
    <nd ref="552751757"/>
    <nd ref="344585312"/>
    <tag k="highway" v="residential"/>
    <tag k="maxspeed" v="50"/>
    <tag k="maxspeed:source" v="default residential speed limit in Australia"/>
    <tag k="name" v="Beaufort Road"/>
    <tag k="oneway" v="yes"/>
  </way>
  <way id="30991244" version="6" timestamp="2011-03-04T11:02:37Z" uid="4467" user="Rosscoe" changeset="7453371"/>
  <way id="30991245" version="4" timestamp="2011-03-04T11:02:35Z" uid="4467" user="Rosscoe" changeset="7453371">
    <nd ref="344585339"/>
    <nd ref="344585340"/>
    <nd ref="552751757"/>
    <nd ref="1185698398"/>
    <tag k="highway" v="residential"/>
    <tag k="maxspeed" v="50"/>
    <tag k="maxspeed:source" v="default residential speed limit in Australia"/>
    <tag k="name" v="Beaufort Road"/>
    <tag k="oneway" v="yes"/>
  </way>
  <way id="30991251" version="4" timestamp="2010-07-08T19:39:24Z" uid="74617" user="JohnSmith" changeset="5168688">
    <nd ref="344585307"/>
    <nd ref="344585356"/>
    <nd ref="344585462"/>
    <nd ref="344585463"/>
    <nd ref="344579816"/>
    <tag k="highway" v="residential"/>
    <tag k="maxspeed" v="50"/>
    <tag k="maxspeed:source" v="default residential speed limit in Australia"/>
    <tag k="name" v="Diana Street"/>
  </way>
  <way id="30991257" version="3" timestamp="2010-07-08T19:45:45Z" uid="74617" user="JohnSmith" changeset="5168688">
    <nd ref="344585301"/>
    <nd ref="344585269"/>
    <nd ref="344585384"/>
    <tag k="highway" v="residential"/>
    <tag k="maxspeed" v="50"/>
    <tag k="maxspeed:source" v="default residential speed limit in Australia"/>
    <tag k="name" v="Edith Avenue"/>
  </way>
  <way id="30991385" version="1" timestamp="2009-02-12T07:57:00Z" uid="20587" user="balrog-kun" changeset="366239">
    <nd ref="344587112"/>
    <nd ref="344587113"/>
    <nd ref="344587114"/>
    <nd ref="344587115"/>
    <tag k="highway" v="service"/>
  </way>
  <way id="30991386" version="1" timestamp="2009-02-12T07:57:00Z" uid="20587" user="balrog-kun" changeset="366239">
    <nd ref="344587117"/>
    <nd ref="344587118"/>
    <nd ref="344587119"/>
    <nd ref="344587120"/>
    <tag k="highway" v="living_street"/>
  </way>
  <way id="30991387" version="1" timestamp="2009-02-12T07:57:00Z" uid="20587" user="balrog-kun" changeset="366239">
    <nd ref="61225307"/>
    <nd ref="344587121"/>
    <nd ref="344587122"/>
    <nd ref="344587123"/>
    <tag k="highway" v="living_street"/>
  </way>
  <way id="30991388" version="1" timestamp="2009-02-12T07:57:00Z" uid="20587" user="balrog-kun" changeset="366239">
    <nd ref="344587124"/>
    <nd ref="344587125"/>
    <tag k="highway" v="service"/>
  </way>
  <way id="30991389" version="1" timestamp="2009-02-12T07:57:01Z" uid="20587" user="balrog-kun" changeset="366239">
    <nd ref="344583323"/>
    <nd ref="344587117"/>
    <nd ref="26405528"/>
    <nd ref="344587124"/>
    <nd ref="344587125"/>
    <nd ref="344587126"/>
    <nd ref="344583323"/>
    <tag k="landuse" v="retail"/>
  </way>
  <way id="30991390" version="1" timestamp="2009-02-12T07:57:01Z" uid="20587" user="balrog-kun" changeset="366239">
    <nd ref="344587131"/>
    <nd ref="344587132"/>
    <nd ref="344587134"/>
    <nd ref="344587133"/>
    <nd ref="344587131"/>
    <tag k="leisure" v="pitch"/>
  </way>
  <way id="30991391" version="1" timestamp="2009-02-12T07:57:01Z" uid="20587" user="balrog-kun" changeset="366239">
    <nd ref="344587135"/>
    <nd ref="344587137"/>
    <nd ref="344587138"/>
    <nd ref="344587136"/>
    <nd ref="344587135"/>
    <tag k="amenity" v="school"/>
  </way>
  <way id="30991392" version="1" timestamp="2009-02-12T07:57:01Z" uid="20587" user="balrog-kun" changeset="366239">
    <nd ref="344587139"/>
    <nd ref="344587140"/>
    <nd ref="344587142"/>
    <nd ref="344587141"/>
    <nd ref="344587139"/>
    <tag k="addr:housenumber" v="16"/>
    <tag k="addr:street" v="Gotarda"/>
    <tag k="building" v="yes"/>
    <tag k="building:levels" v="2"/>
    <tag k="name" v="Dom Kultury Kadr"/>
  </way>
  <way id="30991393" version="1" timestamp="2009-02-12T07:57:01Z" uid="20587" user="balrog-kun" changeset="366239">
    <nd ref="344587143"/>
    <nd ref="344587144"/>
    <nd ref="344587146"/>
    <nd ref="344587145"/>
    <nd ref="344587143"/>
    <tag k="amenity" v="parking"/>
  </way>
  <way id="30991394" version="1" timestamp="2009-02-12T07:57:02Z" uid="20587" user="balrog-kun" changeset="366239">
    <nd ref="344587202"/>
    <nd ref="344587209"/>
    <nd ref="344587221"/>
    <nd ref="344587222"/>
    <nd ref="344587223"/>
    <nd ref="344587224"/>
    <nd ref="344587225"/>
    <nd ref="344587226"/>
    <nd ref="344587214"/>
    <nd ref="344587202"/>
    <tag k="amenity" v="parking"/>
  </way>
  <way id="30991395" version="1" timestamp="2009-02-12T07:57:02Z" uid="20587" user="balrog-kun" changeset="366239">
    <nd ref="344587228"/>
    <nd ref="344587229"/>
    <nd ref="344587230"/>
    <nd ref="344587231"/>
    <nd ref="344587232"/>
    <nd ref="344587233"/>
    <nd ref="344587234"/>
    <nd ref="344587235"/>
    <nd ref="344587236"/>
    <nd ref="344587237"/>
    <nd ref="344587239"/>
    <nd ref="344587228"/>
    <tag k="amenity" v="parking"/>
  </way>
  <way id="30991396" version="1" timestamp="2009-02-12T07:57:02Z" uid="20587" user="balrog-kun" changeset="366239">
    <nd ref="344587241"/>
    <nd ref="344587242"/>
    <nd ref="344587244"/>
    <nd ref="344587255"/>
    <nd ref="344587256"/>
    <nd ref="344587246"/>
    <nd ref="344587248"/>
    <nd ref="344587249"/>
    <nd ref="344587251"/>
    <nd ref="344587252"/>
    <nd ref="344587250"/>
    <nd ref="344587247"/>
    <nd ref="344587245"/>
    <nd ref="344587253"/>
    <nd ref="344587254"/>
    <nd ref="344587243"/>
    <nd ref="344587241"/>
    <tag k="addr:housenumber" v="35"/>
    <tag k="addr:street" v="Wincentego Rzymowskiego"/>
    <tag k="building" v="yes"/>
  </way>
  <way id="30991397" version="1" timestamp="2009-02-12T07:57:02Z" uid="20587" user="balrog-kun" changeset="366239">
    <nd ref="344587258"/>
    <nd ref="344587260"/>
    <nd ref="344587261"/>
    <nd ref="344587259"/>
    <nd ref="344587258"/>
    <tag k="addr:housenumber" v="37"/>
    <tag k="addr:street" v="Wincentego Rzymowskiego"/>
    <tag k="building" v="yes"/>
    <tag k="building:levels" v="2"/>
    <tag k="name" v="Cukiernia Antolak"/>
  </way>
  <way id="30991398" version="1" timestamp="2009-02-12T07:57:03Z" uid="20587" user="balrog-kun" changeset="366239">
    <nd ref="344587262"/>
    <nd ref="344587263"/>
    <nd ref="344587264"/>
    <nd ref="344587265"/>
    <nd ref="344587266"/>
    <nd ref="344587267"/>
    <nd ref="344587268"/>
    <tag k="highway" v="service"/>
  </way>
  <way id="30991399" version="1" timestamp="2009-02-12T07:57:03Z" uid="20587" user="balrog-kun" changeset="366239">
    <nd ref="344587278"/>
    <nd ref="344587279"/>
    <nd ref="344587280"/>
    <nd ref="344587281"/>
    <nd ref="344587282"/>
    <nd ref="344587283"/>
    <nd ref="344587284"/>
    <nd ref="344587285"/>
    <nd ref="344587286"/>
    <nd ref="344587287"/>
    <nd ref="344587288"/>
    <nd ref="344587289"/>
    <nd ref="344587290"/>
    <nd ref="344587291"/>
    <nd ref="344587292"/>
    <nd ref="344587293"/>
    <nd ref="344587294"/>
    <nd ref="344587295"/>
    <nd ref="344587272"/>
    <nd ref="344587273"/>
    <nd ref="344587274"/>
    <nd ref="344587296"/>
    <nd ref="344587275"/>
    <nd ref="344587276"/>
    <nd ref="344587277"/>
    <nd ref="344587278"/>
    <tag k="addr:housenumber" v="69"/>
    <tag k="addr:street" v="Aleja Niepodległości"/>
    <tag k="building" v="yes"/>
    <tag k="building:levels" v="10"/>
    <tag k="name" v="BTC Metro"/>
    <tag k="operator" v="GTS Energis"/>
  </way>
  <way id="30991400" version="1" timestamp="2009-02-12T07:57:03Z" uid="20587" user="balrog-kun" changeset="366239">
    <nd ref="344587303"/>
    <nd ref="344587315"/>
    <nd ref="344587317"/>
    <nd ref="344587304"/>
    <nd ref="344587303"/>
    <tag k="amenity" v="parking"/>
  </way>
  <way id="30991401" version="1" timestamp="2009-02-12T07:57:04Z" uid="20587" user="balrog-kun" changeset="366239">
    <nd ref="344587305"/>
    <nd ref="344587311"/>
    <nd ref="344587313"/>
    <nd ref="344587328"/>
    <nd ref="344587306"/>
    <nd ref="344587305"/>
    <tag k="amenity" v="parking"/>
  </way>
  <way id="30991402" version="1" timestamp="2009-02-12T07:57:04Z" uid="20587" user="balrog-kun" changeset="366239">
    <nd ref="344587307"/>
    <nd ref="344587324"/>
    <nd ref="344587309"/>
    <nd ref="344587310"/>
    <nd ref="344587308"/>
    <nd ref="344587307"/>
    <tag k="amenity" v="parking"/>
  </way>
  <way id="30991403" version="1" timestamp="2009-02-12T07:57:04Z" uid="20587" user="balrog-kun" changeset="366239">
    <nd ref="344587320"/>
    <nd ref="344587322"/>
    <nd ref="344587323"/>
    <nd ref="344587324"/>
    <nd ref="344587325"/>
    <nd ref="344587326"/>
    <nd ref="344587327"/>
    <nd ref="344587328"/>
    <nd ref="344587329"/>
    <tag k="highway" v="service"/>
  </way>
  <way id="30991404" version="1" timestamp="2009-02-12T07:57:04Z" uid="20587" user="balrog-kun" changeset="366239">
    <nd ref="344587337"/>
    <nd ref="344587338"/>
    <nd ref="344587339"/>
    <nd ref="344587340"/>
    <nd ref="344587341"/>
    <nd ref="344587342"/>
    <nd ref="344587337"/>
    <tag k="amenity" v="school"/>
  </way>
  <way id="30991404" version="2" timestamp="2009-05-24T20:16:18Z" uid="20587" user="balrog-kun" changeset="1310894">
    <nd ref="344587337"/>
    <nd ref="344587338"/>
    <nd ref="344587339"/>
    <nd ref="344587340"/>
    <nd ref="344587341"/>
    <nd ref="344587342"/>
    <nd ref="344587337"/>
    <tag k="amenity" v="school"/>
    <tag k="name" v="Centrum Kształcenia Nauczycieli"/>
  </way>
  <way id="30991405" version="1" timestamp="2009-02-12T07:57:05Z" uid="20587" user="balrog-kun" changeset="366239">
    <nd ref="26206617"/>
    <nd ref="344587346"/>
    <nd ref="344587345"/>
    <nd ref="344587344"/>
    <nd ref="344587343"/>
    <tag k="created_by" v="JOSM"/>
    <tag k="highway" v="residential"/>
    <tag k="name" v="Zygmunta Modzelewskiego"/>
    <tag k="oneway" v="yes"/>
  </way>
  <way id="30991405" version="2" timestamp="2009-06-21T10:00:38Z" uid="20587" user="balrog-kun" changeset="1581238">
    <nd ref="26206617"/>
    <nd ref="344587346"/>
    <nd ref="344587345"/>
    <nd ref="344587344"/>
    <nd ref="344587343"/>
    <tag k="created_by" v="JOSM"/>
    <tag k="highway" v="residential"/>
    <tag k="name" v="Wincentego Rzymowskiego"/>
    <tag k="oneway" v="yes"/>
  </way>
  <way id="30991406" version="1" timestamp="2009-02-12T07:57:05Z" uid="20587" user="balrog-kun" changeset="366239">
    <nd ref="344587343"/>
    <nd ref="344587347"/>
    <nd ref="344587348"/>
    <nd ref="344587349"/>
    <nd ref="344587350"/>
    <nd ref="344587351"/>
    <tag k="created_by" v="JOSM"/>
    <tag k="highway" v="residential"/>
    <tag k="name" v="Zygmunta Modzelewskiego"/>
    <tag k="oneway" v="yes"/>
  </way>
  <way id="30991406" version="2" timestamp="2009-06-21T10:00:38Z" uid="20587" user="balrog-kun" changeset="1581238">
    <nd ref="344587343"/>
    <nd ref="344587347"/>
    <nd ref="344587348"/>
    <nd ref="344587349"/>
    <nd ref="344587350"/>
    <nd ref="344587351"/>
    <tag k="created_by" v="JOSM"/>
    <tag k="highway" v="residential"/>
    <tag k="name" v="Wincentego Rzymowskiego"/>
    <tag k="oneway" v="yes"/>
  </way>
  <way id="30991459" version="3" timestamp="2009-10-04T00:12:57Z" uid="20587" user="balrog-kun" changeset="2730731">
    <nd ref="344588104"/>
    <nd ref="344588105"/>
    <nd ref="344588106"/>
    <nd ref="344588107"/>
    <nd ref="344588108"/>
    <nd ref="344588109"/>
    <nd ref="344588110"/>
    <nd ref="344588111"/>
    <nd ref="344588112"/>
    <nd ref="344588113"/>
    <nd ref="344588114"/>
    <nd ref="344588115"/>
    <nd ref="344588116"/>
    <nd ref="344588117"/>
    <nd ref="344588104"/>
    <tag k="building" v="yes"/>
    <tag k="name" v="Tesco"/>
    <tag k="operator" v="Tesco"/>
    <tag k="shop" v="mall"/>
  </way>
  <way id="30991477" version="3" timestamp="2009-10-04T00:12:56Z" uid="20587" user="balrog-kun" changeset="2730731">
    <nd ref="344589046"/>
    <nd ref="344589053"/>
    <tag k="highway" v="service"/>
    <tag k="service" v="parking_aisle"/>
  </way>
  <way id="30991527" version="1" timestamp="2009-02-12T08:14:26Z" uid="20587" user="balrog-kun" changeset="366239">
    <nd ref="320069170"/>
    <nd ref="320069143"/>
    <nd ref="320069149"/>
    <tag k="highway" v="residential"/>
    <tag k="name" v="Władysława Reymonta"/>
  </way>
  <way id="30991528" version="1" timestamp="2009-02-12T08:14:26Z" uid="20587" user="balrog-kun" changeset="366239">
    <nd ref="344589616"/>
    <nd ref="344589617"/>
    <nd ref="344589619"/>
    <nd ref="344589620"/>
    <tag k="highway" v="residential"/>
    <tag k="name" v="Jana III Sobieskiego"/>
  </way>
  <way id="30991529" version="1" timestamp="2009-02-12T08:14:26Z" uid="20587" user="balrog-kun" changeset="366239">
    <nd ref="344589625"/>
    <nd ref="344589626"/>
    <nd ref="344589627"/>
    <nd ref="344589628"/>
    <nd ref="344589629"/>
    <nd ref="344589630"/>
    <nd ref="344589625"/>
    <tag k="amenity" v="grave_yard"/>
    <tag k="name" v="Cmentarz Żydowski"/>
  </way>
  <way id="30991529" version="2" timestamp="2009-10-20T22:45:44Z" uid="20587" user="balrog-kun" changeset="2908055">
    <nd ref="344589625"/>
    <nd ref="344589626"/>
    <nd ref="344589627"/>
    <nd ref="344589628"/>
    <nd ref="344589629"/>
    <nd ref="344589630"/>
    <nd ref="344589625"/>
    <tag k="amenity" v="grave_yard"/>
    <tag k="name" v="Cmentarz Żydowski"/>
    <tag k="relation" v="jewish"/>
  </way>
  <way id="30991529" version="3" timestamp="2009-10-31T22:50:05Z" uid="20587" user="balrog-kun" changeset="3002253">
    <nd ref="344589625"/>
    <nd ref="344589626"/>
    <nd ref="344589627"/>
    <nd ref="344589628"/>
    <nd ref="344589629"/>
    <nd ref="344589630"/>
    <nd ref="344589625"/>
    <tag k="amenity" v="grave_yard"/>
    <tag k="name" v="Cmentarz Żydowski"/>
    <tag k="religion" v="jewish"/>
  </way>
  <way id="30991530" version="1" timestamp="2009-02-12T08:14:27Z" uid="20587" user="balrog-kun" changeset="366239">
    <nd ref="344589631"/>
    <nd ref="344589632"/>
    <nd ref="344589634"/>
    <nd ref="344589633"/>
    <nd ref="344589631"/>
    <tag k="addr:housenumber" v="5"/>
    <tag k="addr:street" v="Juliana Tuwima"/>
    <tag k="building" v="residential"/>
  </way>
  <way id="30991531" version="1" timestamp="2009-02-12T08:14:27Z" uid="20587" user="balrog-kun" changeset="366239">
    <nd ref="344589637"/>
    <nd ref="344589638"/>
    <nd ref="344589639"/>
    <nd ref="344589636"/>
    <nd ref="344589637"/>
    <tag k="addr:housenumber" v="6"/>
    <tag k="addr:street" v="Juliana Tuwima"/>
    <tag k="building" v="residential"/>
  </way>
  <way id="30991532" version="1" timestamp="2009-02-12T08:14:27Z" uid="20587" user="balrog-kun" changeset="366239">
    <nd ref="344589642"/>
    <nd ref="344589643"/>
    <nd ref="344589641"/>
    <nd ref="344589644"/>
    <nd ref="344589642"/>
    <tag k="addr:housenumber" v="3"/>
    <tag k="addr:street" v="Juliana Tuwima"/>
    <tag k="building" v="residential"/>
  </way>
  <way id="30991533" version="1" timestamp="2009-02-12T08:14:28Z" uid="20587" user="balrog-kun" changeset="366239">
    <nd ref="344589648"/>
    <nd ref="344589645"/>
    <nd ref="344589646"/>
    <nd ref="344589647"/>
    <nd ref="344589648"/>
    <tag k="addr:housenumber" v="4"/>
    <tag k="addr:street" v="Juliana Tuwima"/>
    <tag k="building" v="residential"/>
  </way>
  <way id="30991629" version="1" timestamp="2009-02-12T08:22:54Z" uid="20587" user="balrog-kun" changeset="366239">
    <nd ref="344590637"/>
    <nd ref="344590638"/>
    <tag k="addr:interpolation" v="odd"/>
  </way>
  <way id="30991631" version="1" timestamp="2009-02-12T08:22:55Z" uid="20587" user="balrog-kun" changeset="366239">
    <nd ref="344590673"/>
    <nd ref="344590682"/>
    <tag k="addr:interpolation" v="even"/>
  </way>
  <way id="30991631" version="2" timestamp="2009-04-15T16:42:50Z" uid="20587" user="balrog-kun" changeset="561631"/>
  <way id="30991682" version="2" timestamp="2009-06-08T09:44:20Z" uid="18775" user="drlizau" changeset="1456883">
    <nd ref="344591206"/>
    <nd ref="344591207"/>
    <nd ref="344591208"/>
    <nd ref="344591209"/>
    <nd ref="344591210"/>
    <nd ref="344591211"/>
    <nd ref="344591212"/>
    <nd ref="344591213"/>
    <nd ref="344591214"/>
    <nd ref="344591216"/>
    <nd ref="344591217"/>
    <nd ref="344591219"/>
    <nd ref="344591221"/>
    <nd ref="344591223"/>
    <nd ref="344591224"/>
    <nd ref="344591225"/>
    <nd ref="344591226"/>
    <nd ref="344591227"/>
    <nd ref="344591228"/>
    <nd ref="344591229"/>
    <tag k="highway" v="unclassified"/>
    <tag k="name" v="Yamma Road"/>
  </way>
  <way id="30991682" version="3" timestamp="2009-07-05T01:05:32Z" uid="19626" user="Swamp" changeset="1734643">
    <nd ref="344591206"/>
    <nd ref="344591207"/>
    <nd ref="344591208"/>
    <nd ref="344591209"/>
    <nd ref="344591210"/>
    <nd ref="344591211"/>
    <nd ref="344591212"/>
    <nd ref="344591213"/>
    <nd ref="344591214"/>
    <nd ref="344591216"/>
    <nd ref="344591217"/>
    <nd ref="344591219"/>
    <nd ref="344591221"/>
    <nd ref="344591223"/>
    <nd ref="344591224"/>
    <nd ref="344591225"/>
    <nd ref="344591226"/>
    <nd ref="344591227"/>
    <nd ref="434271984"/>
    <nd ref="344591228"/>
    <nd ref="344591229"/>
    <tag k="highway" v="unclassified"/>
    <tag k="name" v="Yamma Road"/>
  </way>
  <way id="30991682" version="4" timestamp="2009-07-05T01:37:21Z" uid="19626" user="Swamp" changeset="1734699">
    <nd ref="344591206"/>
    <nd ref="344591207"/>
    <nd ref="344591208"/>
    <nd ref="344591209"/>
    <nd ref="344591210"/>
    <nd ref="344591211"/>
    <nd ref="344591212"/>
    <nd ref="344591213"/>
    <nd ref="344591214"/>
    <nd ref="344591216"/>
    <nd ref="344591217"/>
    <nd ref="344591219"/>
    <nd ref="344591221"/>
    <nd ref="344591223"/>
    <nd ref="344591224"/>
    <nd ref="344591225"/>
    <nd ref="344591226"/>
    <nd ref="344591227"/>
    <nd ref="434271984"/>
    <nd ref="434281055"/>
    <nd ref="344591228"/>
    <nd ref="434281059"/>
    <nd ref="344591229"/>
    <tag k="highway" v="unclassified"/>
    <tag k="name" v="Yamma Road"/>
  </way>
  <way id="30991682" version="5" timestamp="2009-07-05T01:53:42Z" uid="19626" user="Swamp" changeset="1734741">
    <nd ref="344591206"/>
    <nd ref="344591207"/>
    <nd ref="344591208"/>
    <nd ref="344591209"/>
    <nd ref="344591210"/>
    <nd ref="344591211"/>
    <nd ref="344591212"/>
    <nd ref="344591213"/>
    <nd ref="344591214"/>
    <nd ref="344591216"/>
    <nd ref="344591217"/>
    <nd ref="344591219"/>
    <nd ref="344591221"/>
    <nd ref="344591223"/>
    <nd ref="344591224"/>
    <nd ref="344591225"/>
    <nd ref="344591226"/>
    <nd ref="344591227"/>
    <nd ref="434271984"/>
    <nd ref="434283494"/>
    <tag k="highway" v="unclassified"/>
    <tag k="name" v="Yamma Road"/>
  </way>
  <way id="30991682" version="6" timestamp="2009-07-11T07:48:21Z" uid="18775" user="drlizau" changeset="1794829">
    <nd ref="344591206"/>
    <nd ref="344591207"/>
    <nd ref="344591208"/>
    <nd ref="344591209"/>
    <nd ref="344591210"/>
    <nd ref="344591211"/>
    <nd ref="344591212"/>
    <nd ref="344591213"/>
    <nd ref="344591214"/>
    <nd ref="344591216"/>
    <nd ref="344591217"/>
    <nd ref="344591219"/>
    <nd ref="344591221"/>
    <nd ref="344591223"/>
    <nd ref="344591224"/>
    <nd ref="344591225"/>
    <nd ref="344591226"/>
    <nd ref="344591227"/>
    <nd ref="434271984"/>
    <nd ref="434283494"/>
    <tag k="highway" v="tertiary"/>
    <tag k="name" v="Yamma Road"/>
  </way>
  <way id="30991703" version="2" timestamp="2009-07-05T01:05:32Z" uid="19626" user="Swamp" changeset="1734643">
    <nd ref="434271899"/>
    <nd ref="434271898"/>
    <nd ref="434271897"/>
    <nd ref="434271895"/>
    <nd ref="344591350"/>
    <nd ref="344591351"/>
    <nd ref="344591352"/>
    <nd ref="344591354"/>
    <nd ref="344591355"/>
    <nd ref="434271894"/>
    <nd ref="344591356"/>
    <nd ref="344591357"/>
    <nd ref="344591358"/>
    <nd ref="344591206"/>
    <tag k="created_by" v="Potlatch 0.10f"/>
    <tag k="highway" v="unclassified"/>
  </way>
  <way id="30991786" version="1" timestamp="2009-02-12T08:31:25Z" uid="20587" user="balrog-kun" changeset="366239">
    <nd ref="311520999"/>
    <nd ref="344591907"/>
    <tag k="highway" v="track"/>
    <tag k="name" v="Blasku Księżyca"/>
  </way>
  <way id="30991788" version="1" timestamp="2009-02-12T08:31:25Z" uid="20587" user="balrog-kun" changeset="366239">
    <nd ref="344591908"/>
    <nd ref="344591909"/>
    <tag k="highway" v="residential"/>
    <tag k="name" v="Białej Róży"/>
  </way>
</osm>
