<?xml version='1.0' encoding='UTF-8'?>
<osm version="0.6" generator="libosmium/2.20.0">
  <way id="3100113" version="3" timestamp="2008-07-30T09:56:47Z" uid="6269" user="Mueck" changeset="628766">
    <nd ref="14791406"/>
    <nd ref="14791411"/>
    <nd ref="14791371"/>
    <nd ref="14791370"/>
    <nd ref="14791366"/>
    <nd ref="278974160"/>
    <nd ref="14791361"/>
    <nd ref="14791360"/>
    <nd ref="31261893"/>
    <nd ref="14791355"/>
    <nd ref="14791354"/>
    <tag k="created_by" v="Potlatch 0.10a"/>
    <tag k="highway" v="tertiary"/>
    <tag k="name" v="Am Fasanengarten"/>
    <tag k="note" v="im SHP des NVK: III"/>
  </way>
  <way id="3100113" version="11" timestamp="2011-04-05T23:38:28Z" uid="6269" user="Mueck" changeset="7780144">
    <nd ref="14791406"/>
    <nd ref="365925556"/>
    <nd ref="322514951"/>
    <nd ref="14791411"/>
    <nd ref="14791371"/>
    <nd ref="14791370"/>
    <tag k="highway" v="tertiary"/>
    <tag k="lanes" v="3"/>
    <tag k="maxspeed" v="30"/>
    <tag k="name" v="Am Fasanengarten"/>
    <tag k="note" v="im SHP des NVK: III"/>
  </way>
  <way id="3100643" version="2" timestamp="2008-02-20T13:53:29Z" uid="6269" user="Mueck" changeset="164462">
    <nd ref="14795306"/>
    <nd ref="14795308"/>
    <tag k="created_by" v="Potlatch 0.7b"/>
    <tag k="highway" v="residential"/>
    <tag k="name" v="Scheffelplatz"/>
  </way>
</osm>
