<?xml version='1.0' encoding='UTF-8'?>
<osm version="0.6" generator="libosmium/2.20.0">
  <way id="31147637" version="2" timestamp="2010-07-08T04:05:20Z" uid="74617" user="JohnSmith" changeset="5163091">
    <nd ref="346498918"/>
    <nd ref="346498924"/>
    <nd ref="344830312"/>
    <tag k="highway" v="residential"/>
    <tag k="maxspeed" v="50"/>
    <tag k="maxspeed:source" v="default residential speed limit in Australia"/>
  </way>
  <way id="31147648" version="2" timestamp="2009-08-03T12:30:20Z" uid="4467" user="Rosscoe" changeset="2025007">
    <nd ref="346498979"/>
    <nd ref="346498972"/>
    <nd ref="344911141"/>
    <tag k="highway" v="service"/>
    <tag k="oneway" v="yes"/>
  </way>
  <way id="31147648" version="3" timestamp="2009-08-05T00:36:17Z" uid="74617" user="JohnSmith" changeset="2041130"/>
  <way id="31147656" version="2" timestamp="2009-08-03T12:30:19Z" uid="4467" user="Rosscoe" changeset="2025007">
    <nd ref="344911131"/>
    <nd ref="346499015"/>
    <nd ref="346499008"/>
    <nd ref="346498989"/>
    <tag k="highway" v="service"/>
    <tag k="oneway" v="yes"/>
  </way>
  <way id="31147656" version="3" timestamp="2009-08-05T00:36:17Z" uid="74617" user="JohnSmith" changeset="2041130"/>
  <way id="31147820" version="3" timestamp="2010-07-08T19:23:06Z" uid="74617" user="JohnSmith" changeset="5168688">
    <nd ref="346492938"/>
    <nd ref="346498921"/>
    <nd ref="346493062"/>
    <nd ref="346498926"/>
    <nd ref="346498930"/>
    <nd ref="346493010"/>
    <nd ref="346498934"/>
    <nd ref="346498940"/>
    <nd ref="346498944"/>
    <nd ref="346498949"/>
    <nd ref="346498954"/>
    <tag k="highway" v="residential"/>
    <tag k="maxspeed" v="50"/>
    <tag k="maxspeed:source" v="default residential speed limit in Australia"/>
    <tag k="name" v="Yalonga Avenue"/>
  </way>
  <way id="31147822" version="3" timestamp="2010-07-08T19:18:05Z" uid="74617" user="JohnSmith" changeset="5168688">
    <nd ref="346498944"/>
    <nd ref="346498958"/>
    <nd ref="346498963"/>
    <nd ref="346498967"/>
    <tag k="highway" v="residential"/>
    <tag k="maxspeed" v="50"/>
    <tag k="maxspeed:source" v="default residential speed limit in Australia"/>
    <tag k="name" v="Delatite Court"/>
  </way>
  <way id="31147828" version="3" timestamp="2010-07-08T19:24:14Z" uid="74617" user="JohnSmith" changeset="5168688">
    <nd ref="346498930"/>
    <nd ref="346499003"/>
    <nd ref="346499007"/>
    <nd ref="346499013"/>
    <nd ref="346499018"/>
    <nd ref="346499022"/>
    <nd ref="346499026"/>
    <nd ref="346492932"/>
    <tag k="highway" v="residential"/>
    <tag k="maxspeed" v="50"/>
    <tag k="maxspeed:source" v="default residential speed limit in Australia"/>
    <tag k="name" v="Acheron Crescent"/>
  </way>
  <way id="31147830" version="3" timestamp="2010-07-08T19:19:06Z" uid="74617" user="JohnSmith" changeset="5168688">
    <nd ref="346499026"/>
    <nd ref="346499030"/>
    <nd ref="346499034"/>
    <tag k="highway" v="residential"/>
    <tag k="maxspeed" v="50"/>
    <tag k="maxspeed:source" v="default residential speed limit in Australia"/>
    <tag k="name" v="Avon Court"/>
  </way>
  <way id="31147832" version="3" timestamp="2010-07-08T19:17:39Z" uid="74617" user="JohnSmith" changeset="5168688">
    <nd ref="346499022"/>
    <nd ref="346499038"/>
    <tag k="highway" v="residential"/>
    <tag k="maxspeed" v="50"/>
    <tag k="maxspeed:source" v="default residential speed limit in Australia"/>
    <tag k="name" v="Howitt Court"/>
  </way>
  <way id="31147834" version="2" timestamp="2011-02-24T03:17:09Z" uid="4467" user="Rosscoe" changeset="7378558">
    <nd ref="1169343023"/>
    <nd ref="346499062"/>
    <nd ref="346499059"/>
    <nd ref="346499042"/>
    <tag k="highway" v="path"/>
  </way>
  <way id="31147838" version="3" timestamp="2010-07-08T19:22:41Z" uid="74617" user="JohnSmith" changeset="5168688">
    <nd ref="346499042"/>
    <nd ref="346499007"/>
    <tag k="highway" v="residential"/>
    <tag k="maxspeed" v="50"/>
    <tag k="maxspeed:source" v="default residential speed limit in Australia"/>
    <tag k="name" v="Mitta Court"/>
  </way>
  <way id="31147840" version="3" timestamp="2010-07-08T19:24:07Z" uid="74617" user="JohnSmith" changeset="5168688">
    <nd ref="346499067"/>
    <nd ref="346499068"/>
    <tag k="highway" v="residential"/>
    <tag k="maxspeed" v="50"/>
    <tag k="maxspeed:source" v="default residential speed limit in Australia"/>
    <tag k="name" v="Filippin Court"/>
  </way>
  <way id="31147844" version="3" timestamp="2010-07-08T19:22:08Z" uid="74617" user="JohnSmith" changeset="5168688">
    <nd ref="346492878"/>
    <nd ref="346499096"/>
    <nd ref="346499099"/>
    <nd ref="346499120"/>
    <nd ref="346499116"/>
    <nd ref="346499103"/>
    <nd ref="346499101"/>
    <tag k="highway" v="residential"/>
    <tag k="maxspeed" v="50"/>
    <tag k="maxspeed:source" v="default residential speed limit in Australia"/>
    <tag k="name" v="Lock Avenue"/>
  </way>
  <way id="31147846" version="3" timestamp="2010-07-08T19:17:07Z" uid="74617" user="JohnSmith" changeset="5168688">
    <nd ref="346499103"/>
    <nd ref="346499107"/>
    <nd ref="346499105"/>
    <tag k="highway" v="residential"/>
    <tag k="maxspeed" v="50"/>
    <tag k="maxspeed:source" v="default residential speed limit in Australia"/>
    <tag k="name" v="Loop Road"/>
  </way>
  <way id="31147847" version="3" timestamp="2010-07-08T19:19:40Z" uid="74617" user="JohnSmith" changeset="5168688">
    <nd ref="346499107"/>
    <nd ref="346499109"/>
    <nd ref="346499112"/>
    <nd ref="346499114"/>
    <nd ref="346499116"/>
    <tag k="highway" v="residential"/>
    <tag k="maxspeed" v="50"/>
    <tag k="maxspeed:source" v="default residential speed limit in Australia"/>
    <tag k="name" v="Loop Road"/>
  </way>
  <way id="31147848" version="3" timestamp="2010-07-08T19:15:54Z" uid="74617" user="JohnSmith" changeset="5168688">
    <nd ref="346499118"/>
    <nd ref="346499120"/>
    <tag k="highway" v="residential"/>
    <tag k="maxspeed" v="50"/>
    <tag k="maxspeed:source" v="default residential speed limit in Australia"/>
    <tag k="name" v="Merchants Court"/>
  </way>
  <way id="31147849" version="3" timestamp="2010-07-08T19:18:15Z" uid="74617" user="JohnSmith" changeset="5168688">
    <nd ref="346499122"/>
    <nd ref="346499124"/>
    <tag k="highway" v="residential"/>
    <tag k="maxspeed" v="50"/>
    <tag k="maxspeed:source" v="default residential speed limit in Australia"/>
    <tag k="name" v="King Street"/>
  </way>
  <way id="31147850" version="4" timestamp="2010-07-08T19:22:35Z" uid="74617" user="JohnSmith" changeset="5168688">
    <nd ref="346492797"/>
    <nd ref="346499132"/>
    <nd ref="346499137"/>
    <nd ref="346499130"/>
    <tag k="highway" v="residential"/>
    <tag k="maxspeed" v="50"/>
    <tag k="maxspeed:source" v="default residential speed limit in Australia"/>
    <tag k="name" v="Pyke Street"/>
    <tag k="oneway" v="yes"/>
  </way>
  <way id="31147852" version="2" timestamp="2011-02-24T03:17:27Z" uid="4467" user="Rosscoe" changeset="7378558">
    <nd ref="346499135"/>
    <nd ref="346499137"/>
    <tag k="highway" v="residential"/>
  </way>
  <way id="31147854" version="3" timestamp="2010-07-08T19:20:47Z" uid="74617" user="JohnSmith" changeset="5168688">
    <nd ref="346492800"/>
    <nd ref="346492797"/>
    <nd ref="346499140"/>
    <nd ref="346499143"/>
    <tag k="highway" v="residential"/>
    <tag k="maxspeed" v="50"/>
    <tag k="maxspeed:source" v="default residential speed limit in Australia"/>
    <tag k="name" v="Werribee Street"/>
  </way>
  <way id="31147854" version="4" timestamp="2011-02-24T03:16:52Z" uid="4467" user="Rosscoe" changeset="7378558">
    <nd ref="346492800"/>
    <nd ref="346492797"/>
    <nd ref="346499140"/>
    <tag k="highway" v="residential"/>
    <tag k="maxspeed" v="50"/>
    <tag k="maxspeed:source" v="default residential speed limit in Australia"/>
    <tag k="name" v="Werribee Street"/>
  </way>
  <way id="31147856" version="4" timestamp="2010-07-08T19:16:45Z" uid="74617" user="JohnSmith" changeset="5168688">
    <nd ref="346499146"/>
    <nd ref="346499149"/>
    <nd ref="346499152"/>
    <nd ref="346499154"/>
    <nd ref="346499156"/>
    <tag k="highway" v="residential"/>
    <tag k="maxspeed" v="50"/>
    <tag k="maxspeed:source" v="default residential speed limit in Australia"/>
    <tag k="name" v="Purcell Court"/>
  </way>
  <way id="31147860" version="3" timestamp="2010-07-08T19:26:49Z" uid="74617" user="JohnSmith" changeset="5168688">
    <nd ref="346499171"/>
    <nd ref="346499173"/>
    <nd ref="346499175"/>
    <nd ref="346499176"/>
    <nd ref="346499177"/>
    <nd ref="346499178"/>
    <nd ref="346499179"/>
    <tag k="highway" v="residential"/>
    <tag k="maxspeed" v="50"/>
    <tag k="maxspeed:source" v="default residential speed limit in Australia"/>
    <tag k="name" v="Tesron Court"/>
  </way>
  <way id="31147862" version="3" timestamp="2010-07-08T19:21:41Z" uid="74617" user="JohnSmith" changeset="5168688">
    <nd ref="346499180"/>
    <nd ref="346499183"/>
    <nd ref="346499181"/>
    <nd ref="346499182"/>
    <tag k="highway" v="residential"/>
    <tag k="maxspeed" v="50"/>
    <tag k="maxspeed:source" v="default residential speed limit in Australia"/>
    <tag k="name" v="Hodge Street"/>
  </way>
  <way id="31147864" version="3" timestamp="2010-07-08T19:20:26Z" uid="74617" user="JohnSmith" changeset="5168688">
    <nd ref="346499183"/>
    <nd ref="346499184"/>
    <nd ref="346499185"/>
    <nd ref="346499186"/>
    <tag k="highway" v="residential"/>
    <tag k="maxspeed" v="50"/>
    <tag k="maxspeed:source" v="default residential speed limit in Australia"/>
    <tag k="name" v="Milone Court"/>
  </way>
  <way id="31147866" version="5" timestamp="2010-07-08T19:27:33Z" uid="74617" user="JohnSmith" changeset="5168688">
    <nd ref="346499181"/>
    <nd ref="346499203"/>
    <nd ref="444671293"/>
    <nd ref="346499179"/>
    <tag k="highway" v="residential"/>
    <tag k="maxspeed" v="50"/>
    <tag k="maxspeed:source" v="default residential speed limit in Australia"/>
    <tag k="name" v="Rainsford Street"/>
  </way>
  <way id="31147868" version="4" timestamp="2010-07-08T19:18:31Z" uid="74617" user="JohnSmith" changeset="5168688">
    <nd ref="346499199"/>
    <nd ref="346499201"/>
    <nd ref="346499203"/>
    <tag k="highway" v="residential"/>
    <tag k="maxspeed" v="50"/>
    <tag k="maxspeed:source" v="default residential speed limit in Australia"/>
    <tag k="name" v="Pagnoccolo Street"/>
  </way>
  <way id="31147870" version="3" timestamp="2010-07-08T19:25:25Z" uid="74617" user="JohnSmith" changeset="5168688">
    <nd ref="346499218"/>
    <nd ref="346499222"/>
    <nd ref="346499224"/>
    <nd ref="346499228"/>
    <nd ref="346499230"/>
    <nd ref="346499233"/>
    <nd ref="346499235"/>
    <nd ref="346499237"/>
    <tag k="highway" v="residential"/>
    <tag k="maxspeed" v="50"/>
    <tag k="maxspeed:source" v="default residential speed limit in Australia"/>
    <tag k="name" v="Melita Avenue"/>
  </way>
  <way id="31147872" version="4" timestamp="2010-07-08T19:26:41Z" uid="74617" user="JohnSmith" changeset="5168688">
    <nd ref="346499239"/>
    <nd ref="346499241"/>
    <nd ref="346499243"/>
    <tag k="highway" v="residential"/>
    <tag k="maxspeed" v="50"/>
    <tag k="maxspeed:source" v="default residential speed limit in Australia"/>
    <tag k="name" v="Maher Court"/>
  </way>
  <way id="31147874" version="4" timestamp="2010-07-08T19:21:33Z" uid="74617" user="JohnSmith" changeset="5168688">
    <nd ref="346499251"/>
    <nd ref="346499253"/>
    <nd ref="346499255"/>
    <tag k="highway" v="residential"/>
    <tag k="maxspeed" v="50"/>
    <tag k="maxspeed:source" v="default residential speed limit in Australia"/>
    <tag k="name" v="Gibbons Street"/>
  </way>
  <way id="31147874" version="5" timestamp="2011-02-24T03:17:25Z" uid="4467" user="Rosscoe" changeset="7378558">
    <nd ref="346499251"/>
    <nd ref="346499253"/>
    <nd ref="1169342895"/>
    <tag k="highway" v="residential"/>
    <tag k="maxspeed" v="50"/>
    <tag k="maxspeed:source" v="default residential speed limit in Australia"/>
    <tag k="name" v="Gibbons Street"/>
  </way>
  <way id="31147876" version="4" timestamp="2010-07-08T19:24:57Z" uid="74617" user="JohnSmith" changeset="5168688">
    <nd ref="29318841"/>
    <nd ref="346499266"/>
    <nd ref="346499270"/>
    <nd ref="346499272"/>
    <tag k="highway" v="residential"/>
    <tag k="maxspeed" v="50"/>
    <tag k="maxspeed:source" v="default residential speed limit in Australia"/>
    <tag k="name" v="Salisbury Street"/>
  </way>
  <way id="31147878" version="7" timestamp="2010-05-01T04:02:25Z" uid="4467" user="Rosscoe" changeset="4571452">
    <nd ref="346499288"/>
    <nd ref="653992854"/>
    <nd ref="346503457"/>
    <nd ref="346503258"/>
    <nd ref="653992813"/>
    <nd ref="346499301"/>
    <nd ref="346499327"/>
    <nd ref="346499290"/>
    <nd ref="714521034"/>
    <tag k="highway" v="residential"/>
    <tag k="name" v="Edwards Road"/>
  </way>
  <way id="31147878" version="8" timestamp="2010-07-08T19:19:52Z" uid="74617" user="JohnSmith" changeset="5168688">
    <nd ref="346499288"/>
    <nd ref="653992854"/>
    <nd ref="346503457"/>
    <nd ref="346503258"/>
    <nd ref="653992813"/>
    <nd ref="346499301"/>
    <nd ref="346499327"/>
    <nd ref="346499290"/>
    <nd ref="714521034"/>
    <tag k="highway" v="residential"/>
    <tag k="maxspeed" v="50"/>
    <tag k="maxspeed:source" v="default residential speed limit in Australia"/>
    <tag k="name" v="Edwards Road"/>
  </way>
  <way id="31147881" version="3" timestamp="2010-07-08T19:20:54Z" uid="74617" user="JohnSmith" changeset="5168688">
    <nd ref="346499301"/>
    <nd ref="346499303"/>
    <nd ref="346499305"/>
    <nd ref="346499307"/>
    <nd ref="346499309"/>
    <nd ref="346499311"/>
    <nd ref="346499313"/>
    <nd ref="346499315"/>
    <nd ref="346499317"/>
    <tag k="highway" v="residential"/>
    <tag k="maxspeed" v="50"/>
    <tag k="maxspeed:source" v="default residential speed limit in Australia"/>
    <tag k="name" v="Montpellier Drive"/>
  </way>
  <way id="31147883" version="3" timestamp="2010-07-08T19:16:02Z" uid="74617" user="JohnSmith" changeset="5168688">
    <nd ref="346499309"/>
    <nd ref="346499319"/>
    <tag k="highway" v="residential"/>
    <tag k="maxspeed" v="50"/>
    <tag k="maxspeed:source" v="default residential speed limit in Australia"/>
    <tag k="name" v="Nicole Court"/>
  </way>
  <way id="31147885" version="3" timestamp="2010-07-08T19:19:08Z" uid="74617" user="JohnSmith" changeset="5168688">
    <nd ref="346499321"/>
    <nd ref="346499303"/>
    <tag k="highway" v="residential"/>
    <tag k="maxspeed" v="50"/>
    <tag k="maxspeed:source" v="default residential speed limit in Australia"/>
    <tag k="name" v="Patricia Close"/>
  </way>
  <way id="31147887" version="3" timestamp="2010-07-08T19:25:58Z" uid="74617" user="JohnSmith" changeset="5168688">
    <nd ref="346499323"/>
    <nd ref="346499325"/>
    <nd ref="346499327"/>
    <tag k="highway" v="residential"/>
    <tag k="maxspeed" v="50"/>
    <tag k="maxspeed:source" v="default residential speed limit in Australia"/>
    <tag k="name" v="Mia Court"/>
  </way>
  <way id="31147889" version="3" timestamp="2010-07-08T19:21:49Z" uid="74617" user="JohnSmith" changeset="5168688">
    <nd ref="346499329"/>
    <nd ref="346499331"/>
    <tag k="highway" v="residential"/>
    <tag k="maxspeed" v="50"/>
    <tag k="maxspeed:source" v="default residential speed limit in Australia"/>
    <tag k="name" v="Jacqueline Close"/>
  </way>
  <way id="31147891" version="3" timestamp="2010-07-08T19:16:53Z" uid="74617" user="JohnSmith" changeset="5168688">
    <nd ref="346499334"/>
    <nd ref="346499336"/>
    <nd ref="346499338"/>
    <nd ref="346499340"/>
    <nd ref="346499331"/>
    <nd ref="346499342"/>
    <nd ref="346499344"/>
    <nd ref="346499346"/>
    <nd ref="346499348"/>
    <tag k="highway" v="residential"/>
    <tag k="maxspeed" v="50"/>
    <tag k="maxspeed:source" v="default residential speed limit in Australia"/>
    <tag k="name" v="Jacqueline Close"/>
  </way>
  <way id="31147893" version="3" timestamp="2010-07-08T19:20:07Z" uid="74617" user="JohnSmith" changeset="5168688">
    <nd ref="346499350"/>
    <nd ref="346499352"/>
    <tag k="highway" v="residential"/>
    <tag k="maxspeed" v="50"/>
    <tag k="maxspeed:source" v="default residential speed limit in Australia"/>
    <tag k="name" v="Gabrielle Close"/>
  </way>
  <way id="31147895" version="3" timestamp="2010-07-08T19:27:03Z" uid="74617" user="JohnSmith" changeset="5168688">
    <nd ref="346499355"/>
    <nd ref="346499357"/>
    <nd ref="346499359"/>
    <nd ref="346499361"/>
    <nd ref="346499352"/>
    <nd ref="346499363"/>
    <nd ref="346499365"/>
    <nd ref="346499367"/>
    <nd ref="346499369"/>
    <tag k="highway" v="residential"/>
    <tag k="maxspeed" v="50"/>
    <tag k="maxspeed:source" v="default residential speed limit in Australia"/>
    <tag k="name" v="Gabrielle Close"/>
  </way>
  <way id="31147897" version="3" timestamp="2010-07-08T19:25:32Z" uid="74617" user="JohnSmith" changeset="5168688">
    <nd ref="346499372"/>
    <nd ref="346499374"/>
    <nd ref="346499376"/>
    <nd ref="346499378"/>
    <nd ref="346499380"/>
    <tag k="highway" v="residential"/>
    <tag k="maxspeed" v="50"/>
    <tag k="maxspeed:source" v="default residential speed limit in Australia"/>
    <tag k="name" v="Carter Crescent"/>
  </way>
  <way id="31147899" version="3" timestamp="2010-07-08T19:20:33Z" uid="74617" user="JohnSmith" changeset="5168688">
    <nd ref="346492882"/>
    <nd ref="346499382"/>
    <nd ref="346499384"/>
    <nd ref="346499386"/>
    <nd ref="346499380"/>
    <nd ref="346499388"/>
    <nd ref="346499391"/>
    <tag k="highway" v="residential"/>
    <tag k="maxspeed" v="50"/>
    <tag k="maxspeed:source" v="default residential speed limit in Australia"/>
    <tag k="name" v="Mary Avenue"/>
  </way>
</osm>
