<?xml version='1.0' encoding='UTF-8'?>
<osm version="0.6" generator="libosmium/2.20.0">
  <way id="31173100" version="3" timestamp="2010-07-09T07:09:31Z" uid="74617" user="JohnSmith" changeset="5171412">
    <nd ref="346953591"/>
    <nd ref="597405204"/>
    <nd ref="597405219"/>
    <nd ref="597405218"/>
    <nd ref="597405217"/>
    <nd ref="597405216"/>
    <nd ref="597405215"/>
    <nd ref="597405214"/>
    <nd ref="597405213"/>
    <nd ref="597405212"/>
    <nd ref="597405211"/>
    <nd ref="597405210"/>
    <nd ref="597405209"/>
    <nd ref="597405208"/>
    <nd ref="597405207"/>
    <nd ref="597405206"/>
    <nd ref="346953591"/>
    <tag k="area" v="yes"/>
    <tag k="highway" v="residential"/>
    <tag k="maxspeed" v="50"/>
    <tag k="maxspeed:source" v="default residential speed limit in Australia"/>
    <tag k="source" v="NearMap"/>
  </way>
  <way id="31173265" version="2" timestamp="2010-07-09T07:09:29Z" uid="74617" user="JohnSmith" changeset="5171412">
    <nd ref="264144330"/>
    <nd ref="346956460"/>
    <nd ref="346956464"/>
    <nd ref="346956466"/>
    <tag k="highway" v="residential"/>
    <tag k="maxspeed" v="50"/>
    <tag k="maxspeed:source" v="default residential speed limit in Australia"/>
    <tag k="source" v="Yahoo Imagery"/>
  </way>
  <way id="31173273" version="3" timestamp="2009-04-29T14:19:08Z" uid="30632" user="antblant" changeset="1015966">
    <nd ref="346956784"/>
    <nd ref="346956785"/>
    <nd ref="346956787"/>
    <nd ref="346956788"/>
    <nd ref="346956789"/>
    <nd ref="314889012"/>
    <tag k="created_by" v="Potlatch 0.10f"/>
    <tag k="highway" v="tertiary"/>
    <tag k="oneway" v="yes"/>
  </way>
  <way id="31173273" version="4" timestamp="2009-04-29T14:19:18Z" uid="30632" user="antblant" changeset="1015966">
    <nd ref="346956784"/>
    <nd ref="346956785"/>
    <nd ref="346956787"/>
    <nd ref="346956788"/>
    <nd ref="346956789"/>
    <nd ref="314889012"/>
    <tag k="created_by" v="Potlatch 0.10f"/>
    <tag k="highway" v="residential"/>
    <tag k="oneway" v="yes"/>
  </way>
  <way id="31173273" version="6" timestamp="2010-03-16T22:46:28Z" uid="163746" user="anti_bot-nonsense" changeset="4147795">
    <nd ref="346954973"/>
    <nd ref="346956785"/>
    <nd ref="346956787"/>
    <nd ref="346956788"/>
    <nd ref="346956789"/>
    <nd ref="314889012"/>
    <tag k="highway" v="residential"/>
    <tag k="oneway" v="yes"/>
  </way>
  <way id="31173289" version="3" timestamp="2009-04-29T14:18:35Z" uid="30632" user="antblant" changeset="1015966">
    <nd ref="346957152"/>
    <nd ref="346957153"/>
    <nd ref="346957155"/>
    <tag k="created_by" v="Potlatch 0.10f"/>
    <tag k="highway" v="primary_link"/>
    <tag k="oneway" v="yes"/>
  </way>
  <way id="31173289" version="4" timestamp="2009-04-29T14:18:54Z" uid="30632" user="antblant" changeset="1015966">
    <nd ref="346957152"/>
    <nd ref="346957153"/>
    <nd ref="346957155"/>
    <tag k="created_by" v="Potlatch 0.10f"/>
    <tag k="highway" v="residential"/>
    <tag k="oneway" v="yes"/>
  </way>
  <way id="31173289" version="9" timestamp="2010-03-26T01:21:36Z" uid="163746" user="anti_bot-nonsense" changeset="4234482">
    <nd ref="346957152"/>
    <nd ref="346957153"/>
    <nd ref="346957155"/>
    <tag k="highway" v="residential"/>
    <tag k="oneway" v="yes"/>
  </way>
  <way id="31173292" version="1" timestamp="2009-02-17T19:42:42Z" uid="58091" user="Andreas M" changeset="518785">
    <nd ref="346957299"/>
    <nd ref="346957301"/>
    <nd ref="346957303"/>
    <nd ref="346957305"/>
    <nd ref="346957299"/>
    <tag k="building" v="yes"/>
  </way>
  <way id="31173292" version="2" timestamp="2009-02-18T14:13:52Z" uid="58091" user="Andreas M" changeset="531056">
    <nd ref="346957299"/>
    <nd ref="346957305"/>
    <nd ref="346957303"/>
    <nd ref="346957301"/>
    <nd ref="346957299"/>
    <tag k="building" v="yes"/>
  </way>
  <way id="31173293" version="1" timestamp="2009-02-17T19:42:42Z" uid="58091" user="Andreas M" changeset="518785">
    <nd ref="346957313"/>
    <nd ref="346957322"/>
    <nd ref="346957329"/>
    <nd ref="346957331"/>
    <nd ref="346957313"/>
  </way>
  <way id="31173367" version="4" timestamp="2010-04-05T16:14:14Z" uid="163746" user="anti_bot-nonsense" changeset="4334877">
    <nd ref="346959197"/>
    <nd ref="346959198"/>
    <tag k="highway" v="tertiary"/>
    <tag k="layer" v="-1"/>
    <tag k="name" v="Kapitulna"/>
    <tag k="tunnel" v="yes"/>
  </way>
  <way id="31173368" version="2" timestamp="2010-04-05T17:47:16Z" uid="163746" user="anti_bot-nonsense" changeset="4334877">
    <nd ref="346959198"/>
    <nd ref="290322350"/>
    <tag k="highway" v="tertiary"/>
    <tag k="layer" v="-1"/>
    <tag k="name" v="Kapitulna"/>
  </way>
  <way id="31173371" version="1" timestamp="2009-02-17T19:45:38Z" uid="58091" user="Andreas M" changeset="518785">
    <nd ref="346959360"/>
    <nd ref="346959364"/>
    <nd ref="346959368"/>
    <nd ref="346959371"/>
    <nd ref="346959374"/>
    <nd ref="346959378"/>
    <nd ref="346959382"/>
    <nd ref="346959388"/>
    <nd ref="346959395"/>
    <nd ref="346959403"/>
    <nd ref="346959360"/>
    <tag k="building" v="yes"/>
  </way>
  <way id="31173371" version="2" timestamp="2009-02-18T14:45:22Z" uid="58091" user="Andreas M" changeset="531056">
    <nd ref="346959360"/>
    <nd ref="346959364"/>
    <nd ref="346959368"/>
    <nd ref="346959371"/>
    <nd ref="346959378"/>
    <nd ref="346959382"/>
    <nd ref="346959395"/>
    <nd ref="346959403"/>
    <nd ref="346959360"/>
    <tag k="building" v="yes"/>
  </way>
  <way id="31173371" version="3" timestamp="2009-02-20T13:52:19Z" uid="58091" user="Andreas M" changeset="572748">
    <nd ref="346959360"/>
    <nd ref="346959364"/>
    <nd ref="346959368"/>
    <nd ref="346959371"/>
    <nd ref="346959378"/>
    <nd ref="346959382"/>
    <nd ref="346959395"/>
    <nd ref="346959403"/>
    <nd ref="346959360"/>
    <tag k="amenity" v="kindergarten"/>
  </way>
  <way id="31173371" version="4" timestamp="2009-02-21T09:05:55Z" uid="58091" user="Andreas M" changeset="586977">
    <nd ref="346959360"/>
    <nd ref="346959364"/>
    <nd ref="346959368"/>
    <nd ref="346959371"/>
    <nd ref="346959378"/>
    <nd ref="346959382"/>
    <nd ref="346959395"/>
    <nd ref="346959403"/>
    <nd ref="346959360"/>
    <tag k="addr:city" v="Wien"/>
    <tag k="addr:housenumber" v="23"/>
    <tag k="addr:postcode" v="1020"/>
    <tag k="addr:street" v="Max-Winter-Platz"/>
    <tag k="amenity" v="kindergarten"/>
    <tag k="building" v="yes"/>
  </way>
  <way id="31173371" version="5" timestamp="2009-03-15T19:36:17Z" uid="58091" user="Andreas M" changeset="815744">
    <nd ref="346959360"/>
    <nd ref="346959364"/>
    <nd ref="346959368"/>
    <nd ref="346959371"/>
    <nd ref="346959378"/>
    <nd ref="346959382"/>
    <nd ref="346959395"/>
    <nd ref="346959403"/>
    <nd ref="346959360"/>
    <tag k="addr:city" v="Wien"/>
    <tag k="addr:country" v="AT"/>
    <tag k="addr:housenumber" v="23"/>
    <tag k="addr:postcode" v="1020"/>
    <tag k="addr:street" v="Max-Winter-Platz"/>
    <tag k="amenity" v="kindergarten"/>
    <tag k="building" v="yes"/>
  </way>
  <way id="31173371" version="6" timestamp="2009-12-28T15:17:55Z" uid="58091" user="Andreas M" changeset="3472549">
    <nd ref="346959360"/>
    <nd ref="346959364"/>
    <nd ref="346959368"/>
    <nd ref="346959371"/>
    <nd ref="346959378"/>
    <nd ref="346959382"/>
    <nd ref="346959395"/>
    <nd ref="346959403"/>
    <nd ref="346959360"/>
    <tag k="addr:city" v="Wien"/>
    <tag k="addr:country" v="AT"/>
    <tag k="addr:housenumber" v="23"/>
    <tag k="addr:postcode" v="1020"/>
    <tag k="addr:street" v="Max-Winter-Platz"/>
    <tag k="amenity" v="public_building"/>
    <tag k="name" v="GrÃ¤tzelzentrum"/>
  </way>
</osm>
