<?xml version='1.0' encoding='UTF-8'?>
<osm version="0.6" generator="libosmium/2.20.0">
  <way id="31202148" version="3" timestamp="2010-05-13T13:50:03Z" uid="4467" user="Rosscoe" changeset="4686274"/>
  <way id="31202150" version="3" timestamp="2010-07-08T19:25:42Z" uid="74617" user="JohnSmith" changeset="5168688">
    <nd ref="347148618"/>
    <nd ref="347148645"/>
    <nd ref="347148650"/>
    <nd ref="347148653"/>
    <nd ref="347148655"/>
    <nd ref="347148657"/>
    <nd ref="347148660"/>
    <nd ref="347148662"/>
    <tag k="highway" v="residential"/>
    <tag k="maxspeed" v="50"/>
    <tag k="maxspeed:source" v="default residential speed limit in Australia"/>
    <tag k="name" v="Redgum Close"/>
  </way>
  <way id="31202151" version="3" timestamp="2010-07-08T19:16:23Z" uid="74617" user="JohnSmith" changeset="5168688">
    <nd ref="347148665"/>
    <nd ref="347148668"/>
    <nd ref="347148671"/>
    <nd ref="347148673"/>
    <nd ref="347148676"/>
    <tag k="highway" v="residential"/>
    <tag k="maxspeed" v="50"/>
    <tag k="maxspeed:source" v="default residential speed limit in Australia"/>
    <tag k="name" v="John Ball Place"/>
  </way>
  <way id="31202154" version="3" timestamp="2010-07-08T19:19:18Z" uid="74617" user="JohnSmith" changeset="5168688">
    <nd ref="347148679"/>
    <nd ref="347148681"/>
    <nd ref="347148683"/>
    <nd ref="347148686"/>
    <nd ref="347148688"/>
    <nd ref="347148690"/>
    <nd ref="347148630"/>
    <tag k="highway" v="residential"/>
    <tag k="maxspeed" v="50"/>
    <tag k="maxspeed:source" v="default residential speed limit in Australia"/>
    <tag k="name" v="De Garis Place"/>
  </way>
  <way id="31202157" version="3" timestamp="2010-07-08T19:25:06Z" uid="74617" user="JohnSmith" changeset="5168688">
    <nd ref="347148692"/>
    <nd ref="347148695"/>
    <nd ref="347148697"/>
    <nd ref="347148700"/>
    <nd ref="347148616"/>
    <tag k="highway" v="residential"/>
    <tag k="maxspeed" v="50"/>
    <tag k="maxspeed:source" v="default residential speed limit in Australia"/>
    <tag k="name" v="The Old Ford"/>
  </way>
  <way id="31202384" version="5" timestamp="2010-04-02T17:29:35Z" uid="20587" user="balrog-kun" changeset="4304500">
    <nd ref="347149867"/>
    <nd ref="359612230"/>
    <nd ref="359611938"/>
    <nd ref="53146908"/>
    <nd ref="53195103"/>
    <nd ref="53178027"/>
    <tag k="created_by" v="Potlatch 0.10f"/>
    <tag k="highway" v="residential"/>
    <tag k="name" v="47th Avenue South"/>
    <tag k="tiger:cfcc" v="A41"/>
    <tag k="tiger:county" v="King, WA"/>
    <tag k="tiger:name_base" v="47th"/>
    <tag k="tiger:name_direction_suffix" v="S"/>
    <tag k="tiger:name_type" v="Ave"/>
    <tag k="tiger:reviewed" v="no"/>
    <tag k="tiger:separated" v="no"/>
    <tag k="tiger:source" v="tiger_import_dch_v0.6_20070830"/>
    <tag k="tiger:tlid" v="186596330:186596332:186596334:186596309:186596311:186596316:186596318:186596260:186596270:186596275:186696339"/>
    <tag k="tiger:zip_left" v="98118"/>
    <tag k="tiger:zip_right" v="98118"/>
  </way>
  <way id="31202497" version="5" timestamp="2010-04-07T13:27:23Z" uid="20587" user="balrog-kun" changeset="4353646">
    <nd ref="347150179"/>
    <nd ref="347150180"/>
    <nd ref="347149979"/>
    <nd ref="347150182"/>
    <nd ref="347150183"/>
    <nd ref="347150185"/>
    <nd ref="347150186"/>
    <nd ref="347150187"/>
    <nd ref="347150189"/>
    <nd ref="152944720"/>
    <tag k="created_by" v="Potlatch 0.10f"/>
    <tag k="highway" v="residential"/>
    <tag k="name" v="Sycamore Street"/>
  </way>
  <way id="31202714" version="2" timestamp="2009-03-08T14:33:52Z" uid="6975" user="ulfl" changeset="757880">
    <nd ref="347151115"/>
    <nd ref="347151116"/>
    <nd ref="347151118"/>
    <nd ref="347151120"/>
    <nd ref="347151122"/>
    <nd ref="347151124"/>
    <nd ref="347151125"/>
    <nd ref="347151126"/>
    <nd ref="347151128"/>
    <nd ref="347151129"/>
    <nd ref="347151130"/>
    <nd ref="347151132"/>
    <nd ref="347151115"/>
    <tag k="building" v="yes"/>
    <tag k="note" v="under construction"/>
    <tag k="tourism" v="hotel"/>
  </way>
  <way id="31202970" version="5" timestamp="2009-03-08T14:35:56Z" uid="6975" user="ulfl" changeset="757880">
    <nd ref="347152137"/>
    <nd ref="347152138"/>
    <nd ref="347152139"/>
    <nd ref="347152141"/>
    <nd ref="347152137"/>
    <tag k="amenity" v="nightclub"/>
    <tag k="building" v="yes"/>
    <tag k="name" v="Elbo Room"/>
  </way>
  <way id="31202970" version="7" timestamp="2009-07-05T07:13:14Z" uid="74617" user="JohnSmith" changeset="1736233">
    <nd ref="347152137"/>
    <nd ref="347152138"/>
    <nd ref="347152139"/>
    <nd ref="347152141"/>
    <nd ref="347152137"/>
    <tag k="addr:housenumber" v="647"/>
    <tag k="addr:street" v="Valencia Street"/>
    <tag k="amenity" v="nightclub"/>
    <tag k="building" v="yes"/>
    <tag k="name" v="Elbo Room"/>
  </way>
</osm>
