<?xml version='1.0' encoding='UTF-8'?>
<osm version="0.6" generator="libosmium/2.20.0">
  <way id="31221120" version="3" timestamp="2010-07-08T19:26:29Z" uid="74617" user="JohnSmith" changeset="5168688">
    <nd ref="347199198"/>
    <nd ref="347199204"/>
    <nd ref="347199199"/>
    <nd ref="347199200"/>
    <nd ref="347199201"/>
    <nd ref="347199202"/>
    <nd ref="347199203"/>
    <nd ref="347199210"/>
    <nd ref="347199207"/>
    <nd ref="347199209"/>
    <nd ref="347199166"/>
    <tag k="highway" v="residential"/>
    <tag k="maxspeed" v="50"/>
    <tag k="maxspeed:source" v="default residential speed limit in Australia"/>
    <tag k="name" v="Bower Drive"/>
  </way>
  <way id="31221123" version="3" timestamp="2010-07-08T19:24:08Z" uid="74617" user="JohnSmith" changeset="5168688">
    <nd ref="347199204"/>
    <nd ref="347199205"/>
    <tag k="highway" v="residential"/>
    <tag k="maxspeed" v="50"/>
    <tag k="maxspeed:source" v="default residential speed limit in Australia"/>
    <tag k="name" v="Avocet Court"/>
  </way>
  <way id="31221125" version="3" timestamp="2010-07-08T19:27:36Z" uid="74617" user="JohnSmith" changeset="5168688">
    <nd ref="347199206"/>
    <nd ref="347199207"/>
    <tag k="highway" v="residential"/>
    <tag k="maxspeed" v="50"/>
    <tag k="maxspeed:source" v="default residential speed limit in Australia"/>
    <tag k="name" v="Warbler Close"/>
  </way>
  <way id="31221127" version="3" timestamp="2010-07-08T19:22:10Z" uid="74617" user="JohnSmith" changeset="5168688">
    <nd ref="347199208"/>
    <nd ref="347199209"/>
    <tag k="highway" v="residential"/>
    <tag k="maxspeed" v="50"/>
    <tag k="maxspeed:source" v="default residential speed limit in Australia"/>
    <tag k="name" v="Lorikeet Court"/>
  </way>
  <way id="31221129" version="3" timestamp="2010-07-08T19:20:48Z" uid="74617" user="JohnSmith" changeset="5168688">
    <nd ref="347199210"/>
    <nd ref="347199211"/>
    <tag k="highway" v="residential"/>
    <tag k="maxspeed" v="50"/>
    <tag k="maxspeed:source" v="default residential speed limit in Australia"/>
    <tag k="name" v="Egret Court"/>
  </way>
  <way id="31221131" version="3" timestamp="2010-07-08T19:15:54Z" uid="74617" user="JohnSmith" changeset="5168688">
    <nd ref="347199212"/>
    <nd ref="347199213"/>
    <nd ref="347199214"/>
    <nd ref="347199201"/>
    <tag k="highway" v="residential"/>
    <tag k="maxspeed" v="50"/>
    <tag k="maxspeed:source" v="default residential speed limit in Australia"/>
    <tag k="name" v="Jabiru Court"/>
  </way>
  <way id="31221133" version="5" timestamp="2010-07-08T19:18:58Z" uid="74617" user="JohnSmith" changeset="5168688">
    <nd ref="347199215"/>
    <nd ref="347199540"/>
    <nd ref="347199216"/>
    <nd ref="347199217"/>
    <nd ref="347199218"/>
    <nd ref="347199219"/>
    <nd ref="347199220"/>
    <nd ref="347199470"/>
    <nd ref="347199221"/>
    <nd ref="347199222"/>
    <nd ref="347199468"/>
    <nd ref="347199223"/>
    <nd ref="347199224"/>
    <nd ref="347199225"/>
    <nd ref="347199226"/>
    <nd ref="347199227"/>
    <nd ref="347199228"/>
    <nd ref="347199229"/>
    <nd ref="347199230"/>
    <nd ref="347199231"/>
    <nd ref="347199232"/>
    <nd ref="347199233"/>
    <nd ref="347199234"/>
    <nd ref="347199235"/>
    <nd ref="347199169"/>
    <tag k="highway" v="residential"/>
    <tag k="maxspeed" v="50"/>
    <tag k="maxspeed:source" v="default residential speed limit in Australia"/>
    <tag k="name" v="Songlark Crescent"/>
  </way>
  <way id="31221546" version="3" timestamp="2010-07-08T19:21:55Z" uid="74617" user="JohnSmith" changeset="5168688">
    <nd ref="347199463"/>
    <nd ref="347199464"/>
    <nd ref="347199465"/>
    <nd ref="347199466"/>
    <nd ref="347199467"/>
    <nd ref="347199468"/>
    <tag k="highway" v="residential"/>
    <tag k="maxspeed" v="50"/>
    <tag k="maxspeed:source" v="default residential speed limit in Australia"/>
    <tag k="name" v="Kestrel Place"/>
  </way>
  <way id="31221549" version="3" timestamp="2010-07-08T19:15:57Z" uid="74617" user="JohnSmith" changeset="5168688">
    <nd ref="347199469"/>
    <nd ref="347199470"/>
    <tag k="highway" v="residential"/>
    <tag k="maxspeed" v="50"/>
    <tag k="maxspeed:source" v="default residential speed limit in Australia"/>
    <tag k="name" v="Sittella Court"/>
  </way>
  <way id="31221551" version="3" timestamp="2010-07-08T19:22:38Z" uid="74617" user="JohnSmith" changeset="5168688">
    <nd ref="347199471"/>
    <nd ref="347199472"/>
    <nd ref="347199218"/>
    <tag k="highway" v="residential"/>
    <tag k="maxspeed" v="50"/>
    <tag k="maxspeed:source" v="default residential speed limit in Australia"/>
    <tag k="name" v="Corella Place"/>
  </way>
  <way id="31221553" version="3" timestamp="2010-07-08T19:18:35Z" uid="74617" user="JohnSmith" changeset="5168688">
    <nd ref="347199473"/>
    <nd ref="347199232"/>
    <tag k="highway" v="residential"/>
    <tag k="maxspeed" v="50"/>
    <tag k="maxspeed:source" v="default residential speed limit in Australia"/>
    <tag k="name" v="Whimbrel Court"/>
  </way>
  <way id="31221555" version="3" timestamp="2010-07-08T19:25:29Z" uid="74617" user="JohnSmith" changeset="5168688">
    <nd ref="347199474"/>
    <nd ref="347199231"/>
    <tag k="highway" v="residential"/>
    <tag k="maxspeed" v="50"/>
    <tag k="maxspeed:source" v="default residential speed limit in Australia"/>
    <tag k="name" v="Nightjar Court"/>
  </way>
  <way id="31221558" version="3" timestamp="2010-07-08T19:21:02Z" uid="74617" user="JohnSmith" changeset="5168688">
    <nd ref="347199475"/>
    <nd ref="347199229"/>
    <tag k="highway" v="residential"/>
    <tag k="maxspeed" v="50"/>
    <tag k="maxspeed:source" v="default residential speed limit in Australia"/>
    <tag k="name" v="Pardalote Close"/>
  </way>
  <way id="31221560" version="3" timestamp="2010-07-08T19:19:45Z" uid="74617" user="JohnSmith" changeset="5168688">
    <nd ref="347199476"/>
    <nd ref="347199477"/>
    <nd ref="347199328"/>
    <tag k="highway" v="residential"/>
    <tag k="maxspeed" v="50"/>
    <tag k="maxspeed:source" v="default residential speed limit in Australia"/>
    <tag k="name" v="Wattlebird Court"/>
  </way>
  <way id="31221562" version="3" timestamp="2010-07-08T19:26:33Z" uid="74617" user="JohnSmith" changeset="5168688">
    <nd ref="347199330"/>
    <nd ref="347199478"/>
    <tag k="highway" v="residential"/>
    <tag k="maxspeed" v="50"/>
    <tag k="maxspeed:source" v="default residential speed limit in Australia"/>
    <tag k="name" v="Koel Place"/>
  </way>
  <way id="31221564" version="3" timestamp="2010-07-08T19:17:53Z" uid="74617" user="JohnSmith" changeset="5168688">
    <nd ref="347199332"/>
    <nd ref="347199479"/>
    <nd ref="347199480"/>
    <nd ref="347199481"/>
    <nd ref="347199485"/>
    <tag k="highway" v="residential"/>
    <tag k="maxspeed" v="50"/>
    <tag k="maxspeed:source" v="default residential speed limit in Australia"/>
    <tag k="name" v="Whipbird Close"/>
  </way>
  <way id="31221566" version="3" timestamp="2010-07-08T19:24:51Z" uid="74617" user="JohnSmith" changeset="5168688">
    <nd ref="347199486"/>
    <nd ref="347199487"/>
    <nd ref="347199488"/>
    <nd ref="347199489"/>
    <tag k="highway" v="residential"/>
    <tag k="maxspeed" v="50"/>
    <tag k="maxspeed:source" v="default residential speed limit in Australia"/>
    <tag k="name" v="Kingfisher Court"/>
  </way>
  <way id="31221569" version="3" timestamp="2010-07-08T19:16:42Z" uid="74617" user="JohnSmith" changeset="5168688">
    <nd ref="347199490"/>
    <nd ref="347199491"/>
    <nd ref="347199492"/>
    <nd ref="347199339"/>
    <tag k="highway" v="residential"/>
    <tag k="maxspeed" v="50"/>
    <tag k="maxspeed:source" v="default residential speed limit in Australia"/>
    <tag k="name" v="Curlew Place"/>
  </way>
  <way id="31221674" version="6" timestamp="2010-07-09T07:58:12Z" uid="74617" user="JohnSmith" changeset="5171412">
    <nd ref="347199511"/>
    <nd ref="347199512"/>
    <tag k="highway" v="residential"/>
    <tag k="maxspeed" v="50"/>
    <tag k="maxspeed:source" v="default residential speed limit in Australia"/>
    <tag k="name" v="Lewington Street"/>
  </way>
  <way id="31221679" version="3" timestamp="2010-07-08T19:23:52Z" uid="74617" user="JohnSmith" changeset="5168688">
    <nd ref="347199539"/>
    <nd ref="347199540"/>
    <tag k="highway" v="residential"/>
    <tag k="maxspeed" v="50"/>
    <tag k="maxspeed:source" v="default residential speed limit in Australia"/>
    <tag k="name" v="Currawong Court"/>
  </way>
  <way id="31221680" version="10" timestamp="2010-07-09T07:53:45Z" uid="74617" user="JohnSmith" changeset="5171412">
    <nd ref="347199598"/>
    <nd ref="347199512"/>
    <nd ref="634789945"/>
    <nd ref="347199639"/>
    <nd ref="347199513"/>
    <tag k="highway" v="residential"/>
    <tag k="maxspeed" v="50"/>
    <tag k="maxspeed:source" v="default residential speed limit in Australia"/>
    <tag k="name" v="Grosvenor Street"/>
  </way>
  <way id="31221694" version="4" timestamp="2010-03-28T01:02:56Z" uid="20587" user="balrog-kun" changeset="4250871">
    <nd ref="347199593"/>
    <nd ref="347200381"/>
    <nd ref="347200383"/>
    <nd ref="347200385"/>
    <nd ref="347200386"/>
    <nd ref="347200387"/>
    <nd ref="347200388"/>
    <tag k="created_by" v="Potlatch 0.10f"/>
    <tag k="highway" v="residential"/>
    <tag k="name" v="East Village Lane"/>
  </way>
  <way id="31221700" version="3" timestamp="2010-07-08T19:25:25Z" uid="74617" user="JohnSmith" changeset="5168688">
    <nd ref="347201779"/>
    <nd ref="347201782"/>
    <tag k="highway" v="residential"/>
    <tag k="maxspeed" v="50"/>
    <tag k="maxspeed:source" v="default residential speed limit in Australia"/>
    <tag k="name" v="Peacock Street"/>
  </way>
  <way id="31221738" version="4" timestamp="2010-07-09T08:07:41Z" uid="74617" user="JohnSmith" changeset="5171412">
    <nd ref="347199639"/>
    <nd ref="347207649"/>
    <tag k="highway" v="residential"/>
    <tag k="maxspeed" v="50"/>
    <tag k="maxspeed:source" v="default residential speed limit in Australia"/>
    <tag k="name" v="Field Street"/>
  </way>
  <way id="31221769" version="8" timestamp="2010-07-09T07:56:42Z" uid="74617" user="JohnSmith" changeset="5171412">
    <nd ref="347208900"/>
    <nd ref="622196450"/>
    <nd ref="347209299"/>
    <nd ref="365932932"/>
    <nd ref="465216580"/>
    <nd ref="713018620"/>
    <nd ref="623009967"/>
    <nd ref="623009946"/>
    <nd ref="713018600"/>
    <nd ref="347209300"/>
    <tag k="highway" v="residential"/>
    <tag k="maxspeed" v="50"/>
    <tag k="maxspeed:source" v="default residential speed limit in Australia"/>
  </way>
  <way id="31221770" version="6" timestamp="2010-07-09T08:01:39Z" uid="74617" user="JohnSmith" changeset="5171412">
    <nd ref="347208900"/>
    <nd ref="653345556"/>
    <nd ref="347209382"/>
    <nd ref="365932853"/>
    <nd ref="365932850"/>
    <nd ref="365932849"/>
    <nd ref="347209383"/>
    <nd ref="347209384"/>
    <tag k="highway" v="residential"/>
    <tag k="maxspeed" v="50"/>
    <tag k="maxspeed:source" v="default residential speed limit in Australia"/>
    <tag k="name" v="Annie Street"/>
  </way>
  <way id="31221771" version="3" timestamp="2010-07-08T19:21:09Z" uid="74617" user="JohnSmith" changeset="5168688">
    <nd ref="347209476"/>
    <nd ref="347209478"/>
    <nd ref="347209481"/>
    <tag k="highway" v="residential"/>
    <tag k="maxspeed" v="50"/>
    <tag k="maxspeed:source" v="default residential speed limit in Australia"/>
    <tag k="name" v="Lockhart Court"/>
  </way>
  <way id="31221772" version="6" timestamp="2010-07-08T19:21:51Z" uid="74617" user="JohnSmith" changeset="5168688">
    <nd ref="347209487"/>
    <nd ref="347210932"/>
    <nd ref="347209476"/>
    <nd ref="347210929"/>
    <nd ref="347210926"/>
    <nd ref="347201782"/>
    <nd ref="347210935"/>
    <nd ref="347210923"/>
    <nd ref="347210921"/>
    <nd ref="347210918"/>
    <nd ref="347210915"/>
    <nd ref="347210914"/>
    <nd ref="347210913"/>
    <nd ref="347210910"/>
    <nd ref="347210908"/>
    <nd ref="347209484"/>
    <tag k="highway" v="residential"/>
    <tag k="maxspeed" v="50"/>
    <tag k="maxspeed:source" v="default residential speed limit in Australia"/>
    <tag k="name" v="Marlborough Crescent"/>
  </way>
  <way id="31221778" version="3" timestamp="2010-07-08T19:19:42Z" uid="74617" user="JohnSmith" changeset="5168688">
    <nd ref="347210935"/>
    <nd ref="347210938"/>
    <nd ref="347210941"/>
    <nd ref="347210944"/>
    <nd ref="347210947"/>
    <nd ref="347210961"/>
    <nd ref="347210949"/>
    <nd ref="347210952"/>
    <nd ref="347210913"/>
    <tag k="highway" v="residential"/>
    <tag k="maxspeed" v="50"/>
    <tag k="maxspeed:source" v="default residential speed limit in Australia"/>
    <tag k="name" v="Burnham Drive"/>
  </way>
  <way id="31221779" version="3" timestamp="2010-07-08T19:22:10Z" uid="74617" user="JohnSmith" changeset="5168688">
    <nd ref="347210955"/>
    <nd ref="347210958"/>
    <nd ref="347210961"/>
    <tag k="highway" v="residential"/>
    <tag k="maxspeed" v="50"/>
    <tag k="maxspeed:source" v="default residential speed limit in Australia"/>
    <tag k="name" v="St. Georges Court"/>
  </way>
  <way id="31221780" version="3" timestamp="2010-07-08T19:22:52Z" uid="74617" user="JohnSmith" changeset="5168688">
    <nd ref="347210941"/>
    <nd ref="347210964"/>
    <nd ref="347210967"/>
    <nd ref="347210969"/>
    <tag k="highway" v="residential"/>
    <tag k="maxspeed" v="50"/>
    <tag k="maxspeed:source" v="default residential speed limit in Australia"/>
    <tag k="name" v="Broadlands Court"/>
  </way>
  <way id="31221781" version="3" timestamp="2010-07-08T19:25:26Z" uid="74617" user="JohnSmith" changeset="5168688">
    <nd ref="347210972"/>
    <nd ref="347210918"/>
    <tag k="highway" v="residential"/>
    <tag k="maxspeed" v="50"/>
    <tag k="maxspeed:source" v="default residential speed limit in Australia"/>
    <tag k="name" v="Allora Close"/>
  </way>
  <way id="31221794" version="3" timestamp="2010-07-08T19:17:42Z" uid="74617" user="JohnSmith" changeset="5168688">
    <nd ref="347212839"/>
    <nd ref="347212841"/>
    <nd ref="347212844"/>
    <tag k="highway" v="residential"/>
    <tag k="maxspeed" v="50"/>
    <tag k="maxspeed:source" v="default residential speed limit in Australia"/>
    <tag k="name" v="Ulster Court"/>
  </way>
  <way id="31221799" version="4" timestamp="2010-07-08T19:18:25Z" uid="74617" user="JohnSmith" changeset="5168688">
    <nd ref="347200322"/>
    <nd ref="347213295"/>
    <nd ref="347213299"/>
    <nd ref="347213305"/>
    <nd ref="347213344"/>
    <nd ref="444669356"/>
    <nd ref="347213307"/>
    <nd ref="347213310"/>
    <nd ref="347213333"/>
    <nd ref="347213313"/>
    <nd ref="347213316"/>
    <nd ref="347213318"/>
    <nd ref="347213321"/>
    <nd ref="347213325"/>
    <nd ref="347213328"/>
    <nd ref="347200315"/>
    <tag k="highway" v="residential"/>
    <tag k="maxspeed" v="50"/>
    <tag k="maxspeed:source" v="default residential speed limit in Australia"/>
    <tag k="name" v="Roseland Crescent"/>
  </way>
  <way id="31221800" version="3" timestamp="2010-07-08T19:26:22Z" uid="74617" user="JohnSmith" changeset="5168688">
    <nd ref="347213328"/>
    <nd ref="347213330"/>
    <tag k="highway" v="residential"/>
    <tag k="maxspeed" v="50"/>
    <tag k="maxspeed:source" v="default residential speed limit in Australia"/>
    <tag k="name" v="Grange Court"/>
  </way>
  <way id="31221801" version="3" timestamp="2010-07-08T19:17:02Z" uid="74617" user="JohnSmith" changeset="5168688">
    <nd ref="347213333"/>
    <nd ref="347213336"/>
    <tag k="highway" v="residential"/>
    <tag k="maxspeed" v="50"/>
    <tag k="maxspeed:source" v="default residential speed limit in Australia"/>
    <tag k="name" v="Yenda Court"/>
  </way>
  <way id="31221802" version="3" timestamp="2010-07-08T19:21:17Z" uid="74617" user="JohnSmith" changeset="5168688">
    <nd ref="347213339"/>
    <nd ref="347213342"/>
    <nd ref="347213344"/>
    <tag k="highway" v="residential"/>
    <tag k="maxspeed" v="50"/>
    <tag k="maxspeed:source" v="default residential speed limit in Australia"/>
    <tag k="name" v="Karoola Court"/>
  </way>
  <way id="31221803" version="3" timestamp="2010-07-08T19:23:58Z" uid="74617" user="JohnSmith" changeset="5168688">
    <nd ref="347213347"/>
    <nd ref="347213350"/>
    <nd ref="347213353"/>
    <nd ref="347213318"/>
    <tag k="highway" v="residential"/>
    <tag k="maxspeed" v="50"/>
    <tag k="maxspeed:source" v="default residential speed limit in Australia"/>
    <tag k="name" v="Noonan Road"/>
  </way>
  <way id="31221804" version="3" timestamp="2010-07-08T19:24:44Z" uid="74617" user="JohnSmith" changeset="5168688">
    <nd ref="347213295"/>
    <nd ref="347213357"/>
    <nd ref="347213359"/>
    <tag k="highway" v="residential"/>
    <tag k="maxspeed" v="50"/>
    <tag k="maxspeed:source" v="default residential speed limit in Australia"/>
    <tag k="name" v="Mindara Court"/>
  </way>
  <way id="31221806" version="3" timestamp="2010-07-08T19:19:35Z" uid="74617" user="JohnSmith" changeset="5168688">
    <nd ref="347213718"/>
    <nd ref="347213721"/>
    <tag k="highway" v="residential"/>
    <tag k="maxspeed" v="50"/>
    <tag k="maxspeed:source" v="default residential speed limit in Australia"/>
    <tag k="name" v="Sunset Court"/>
  </way>
  <way id="31221807" version="2" timestamp="2010-04-06T14:36:59Z" uid="20587" user="balrog-kun" changeset="4342997">
    <nd ref="324460976"/>
    <nd ref="191093844"/>
    <tag k="bridge" v="yes"/>
    <tag k="highway" v="residential"/>
    <tag k="layer" v="1"/>
    <tag k="name" v="West 14th Street"/>
    <tag k="name_1" v="West 14 Street"/>
    <tag k="tiger:cfcc" v="A41"/>
    <tag k="tiger:county" v="Jackson, MO"/>
    <tag k="tiger:name_base" v="14th"/>
    <tag k="tiger:name_base_1" v="14"/>
    <tag k="tiger:name_direction_prefix" v="W"/>
    <tag k="tiger:name_direction_prefix_1" v="W"/>
    <tag k="tiger:name_type" v="St"/>
    <tag k="tiger:name_type_1" v="St"/>
    <tag k="tiger:reviewed" v="no"/>
    <tag k="tiger:separated" v="no"/>
    <tag k="tiger:source" v="tiger_import_dch_v0.6_20070813"/>
    <tag k="tiger:tlid" v="91444359:91444394:91528781:91528782"/>
    <tag k="tiger:zip_left" v="64105"/>
    <tag k="tiger:zip_right" v="64105"/>
  </way>
  <way id="31221808" version="3" timestamp="2010-04-06T14:36:59Z" uid="20587" user="balrog-kun" changeset="4342997">
    <nd ref="191093844"/>
    <nd ref="191093849"/>
    <nd ref="191012210"/>
    <nd ref="191093871"/>
    <tag k="highway" v="residential"/>
    <tag k="name" v="West 14th Street"/>
    <tag k="name_1" v="West 14 Street"/>
    <tag k="tiger:cfcc" v="A41"/>
    <tag k="tiger:county" v="Jackson, MO"/>
    <tag k="tiger:name_base" v="14th"/>
    <tag k="tiger:name_base_1" v="14"/>
    <tag k="tiger:name_direction_prefix" v="W"/>
    <tag k="tiger:name_direction_prefix_1" v="W"/>
    <tag k="tiger:name_type" v="St"/>
    <tag k="tiger:name_type_1" v="St"/>
    <tag k="tiger:reviewed" v="no"/>
    <tag k="tiger:separated" v="no"/>
    <tag k="tiger:source" v="tiger_import_dch_v0.6_20070813"/>
    <tag k="tiger:tlid" v="91444359:91444394:91528781:91528782"/>
    <tag k="tiger:zip_left" v="64105"/>
    <tag k="tiger:zip_right" v="64105"/>
  </way>
  <way id="31221809" version="3" timestamp="2010-07-08T19:18:00Z" uid="74617" user="JohnSmith" changeset="5168688">
    <nd ref="347214102"/>
    <nd ref="347214105"/>
    <nd ref="347214108"/>
    <tag k="highway" v="residential"/>
    <tag k="maxspeed" v="50"/>
    <tag k="maxspeed:source" v="default residential speed limit in Australia"/>
    <tag k="name" v="Taree Court"/>
  </way>
  <way id="31221810" version="4" timestamp="2010-07-08T19:22:20Z" uid="74617" user="JohnSmith" changeset="5168688">
    <nd ref="347214111"/>
    <nd ref="347214114"/>
    <nd ref="347214151"/>
    <nd ref="347214116"/>
    <nd ref="347214119"/>
    <nd ref="444669357"/>
    <nd ref="347214122"/>
    <nd ref="347214125"/>
    <nd ref="347214128"/>
    <nd ref="347214131"/>
    <nd ref="347214133"/>
    <tag k="highway" v="residential"/>
    <tag k="maxspeed" v="50"/>
    <tag k="maxspeed:source" v="default residential speed limit in Australia"/>
    <tag k="name" v="Claremont Crescent"/>
  </way>
  <way id="31221811" version="3" timestamp="2010-07-08T19:24:58Z" uid="74617" user="JohnSmith" changeset="5168688">
    <nd ref="347214136"/>
    <nd ref="347214139"/>
    <nd ref="347214142"/>
    <nd ref="347214145"/>
    <nd ref="347214148"/>
    <nd ref="347214151"/>
    <tag k="highway" v="residential"/>
    <tag k="maxspeed" v="50"/>
    <tag k="maxspeed:source" v="default residential speed limit in Australia"/>
    <tag k="name" v="Dunbarton Avenue"/>
  </way>
  <way id="31221812" version="4" timestamp="2010-07-08T19:25:34Z" uid="74617" user="JohnSmith" changeset="5168688">
    <nd ref="347214317"/>
    <nd ref="347223606"/>
    <nd ref="347214320"/>
    <nd ref="347214323"/>
    <tag k="highway" v="residential"/>
    <tag k="maxspeed" v="50"/>
    <tag k="maxspeed:source" v="default residential speed limit in Australia"/>
    <tag k="name" v="Paloma Court"/>
  </way>
  <way id="31221813" version="3" timestamp="2010-07-08T19:16:17Z" uid="74617" user="JohnSmith" changeset="5168688">
    <nd ref="347214612"/>
    <nd ref="347214616"/>
    <tag k="highway" v="residential"/>
    <tag k="maxspeed" v="50"/>
    <tag k="maxspeed:source" v="default residential speed limit in Australia"/>
    <tag k="name" v="Victor Court"/>
  </way>
  <way id="31221814" version="3" timestamp="2010-07-08T19:20:33Z" uid="74617" user="JohnSmith" changeset="5168688">
    <nd ref="347214619"/>
    <nd ref="347214623"/>
    <nd ref="347214626"/>
    <nd ref="347214629"/>
    <tag k="highway" v="residential"/>
    <tag k="maxspeed" v="50"/>
    <tag k="maxspeed:source" v="default residential speed limit in Australia"/>
    <tag k="name" v="Torana Court"/>
  </way>
  <way id="31221815" version="3" timestamp="2010-04-07T13:27:29Z" uid="20587" user="balrog-kun" changeset="4353646">
    <nd ref="347214995"/>
    <nd ref="347214996"/>
    <nd ref="347214997"/>
    <nd ref="347214999"/>
    <nd ref="147477621"/>
    <tag k="created_by" v="Potlatch 0.10f"/>
    <tag k="highway" v="tertiary"/>
    <tag k="name" v="Travelers Place"/>
    <tag k="oneway" v="yes"/>
    <tag k="tiger:cfcc" v="A41"/>
    <tag k="tiger:county" v="Oklahoma, OK"/>
    <tag k="tiger:name_base" v="Travelers"/>
    <tag k="tiger:name_type" v="Pl"/>
    <tag k="tiger:reviewed" v="no"/>
    <tag k="tiger:separated" v="no"/>
    <tag k="tiger:source" v="tiger_import_dch_v0.6_20070829"/>
    <tag k="tiger:tlid" v="100434118; 100434117"/>
  </way>
  <way id="31221816" version="2" timestamp="2010-08-16T01:55:54Z" uid="4467" user="Rosscoe" changeset="5505701">
    <nd ref="347214402"/>
    <nd ref="862413183"/>
    <nd ref="119207606"/>
    <tag k="highway" v="tertiary"/>
    <tag k="name" v="Pembroke Road"/>
  </way>
  <way id="31221820" version="3" timestamp="2010-03-20T17:25:12Z" uid="74617" user="JohnSmith" changeset="4182376">
    <nd ref="119085068"/>
    <nd ref="119083452"/>
    <tag k="highway" v="primary"/>
    <tag k="name" v="Cavendish Road"/>
  </way>
  <way id="31221821" version="2" timestamp="2010-08-16T01:56:40Z" uid="4467" user="Rosscoe" changeset="5505701">
    <nd ref="347214402"/>
    <nd ref="119209574"/>
    <nd ref="119209187"/>
    <nd ref="119209577"/>
    <tag k="highway" v="tertiary"/>
    <tag k="name" v="Pembroke Road"/>
    <tag k="oneway" v="yes"/>
  </way>
  <way id="31221822" version="2" timestamp="2010-08-16T01:55:38Z" uid="4467" user="Rosscoe" changeset="5505701">
    <nd ref="347214594"/>
    <nd ref="347214600"/>
    <nd ref="347214606"/>
    <nd ref="347214614"/>
    <nd ref="862413135"/>
    <nd ref="347214622"/>
    <nd ref="347214594"/>
    <tag k="leisure" v="park"/>
  </way>
  <way id="31221823" version="2" timestamp="2010-07-06T10:01:21Z" uid="74617" user="JohnSmith" changeset="5147679">
    <nd ref="347214656"/>
    <nd ref="347214662"/>
    <nd ref="347214668"/>
    <nd ref="347214643"/>
    <nd ref="347214674"/>
    <nd ref="347214681"/>
    <nd ref="347214687"/>
    <nd ref="347214650"/>
    <nd ref="347214694"/>
    <nd ref="347214656"/>
    <tag k="highway" v="residential"/>
    <tag k="junction" v="roundabout"/>
    <tag k="maxspeed" v="50"/>
    <tag k="maxspeed:source" v="default residential speed limit in Australia"/>
    <tag k="name" v="Hipwood Avenue"/>
  </way>
  <way id="31221824" version="2" timestamp="2010-07-06T10:05:14Z" uid="74617" user="JohnSmith" changeset="5147679">
    <nd ref="347214643"/>
    <nd ref="237265551"/>
    <nd ref="119180388"/>
    <nd ref="119222729"/>
    <tag k="highway" v="residential"/>
    <tag k="maxspeed" v="50"/>
    <tag k="maxspeed:source" v="default residential speed limit in Australia"/>
    <tag k="name" v="Hipwood Avenue"/>
  </way>
  <way id="31221827" version="2" timestamp="2010-07-06T10:11:04Z" uid="74617" user="JohnSmith" changeset="5147679">
    <nd ref="191272829"/>
    <nd ref="191271415"/>
    <nd ref="191266261"/>
    <tag k="highway" v="residential"/>
    <tag k="maxspeed" v="50"/>
    <tag k="maxspeed:source" v="default residential speed limit in Australia"/>
    <tag k="name" v="Mona Street"/>
    <tag k="oneway" v="yes"/>
  </way>
  <way id="31221828" version="2" timestamp="2010-07-06T10:02:17Z" uid="74617" user="JohnSmith" changeset="5147679">
    <nd ref="191270318"/>
    <nd ref="191270510"/>
    <nd ref="191270649"/>
    <nd ref="191270775"/>
    <nd ref="191273392"/>
    <nd ref="119089350"/>
    <tag k="highway" v="residential"/>
    <tag k="maxspeed" v="50"/>
    <tag k="maxspeed:source" v="default residential speed limit in Australia"/>
    <tag k="name" v="West Street"/>
    <tag k="oneway" v="yes"/>
  </way>
  <way id="31221829" version="2" timestamp="2010-07-06T10:13:08Z" uid="74617" user="JohnSmith" changeset="5147679">
    <nd ref="119230941"/>
    <nd ref="119230942"/>
    <nd ref="119230944"/>
    <nd ref="119096284"/>
    <nd ref="119230947"/>
    <nd ref="119230948"/>
    <nd ref="119230953"/>
    <nd ref="119230955"/>
    <nd ref="119230928"/>
    <tag k="highway" v="residential"/>
    <tag k="maxspeed" v="50"/>
    <tag k="maxspeed:source" v="default residential speed limit in Australia"/>
    <tag k="name" v="Welwyn Crescent"/>
  </way>
  <way id="31221829" version="3" timestamp="2010-08-16T01:55:59Z" uid="4467" user="Rosscoe" changeset="5505701">
    <nd ref="119230941"/>
    <nd ref="119230942"/>
    <nd ref="119230944"/>
    <nd ref="119096284"/>
    <nd ref="119230947"/>
    <nd ref="119230948"/>
    <nd ref="119230953"/>
    <nd ref="119230955"/>
    <nd ref="119230928"/>
    <tag k="highway" v="residential"/>
    <tag k="maxspeed" v="50"/>
    <tag k="name" v="Welwyn Crescent"/>
    <tag k="source:maxspeed" v="default residential speed limit in Australia"/>
  </way>
  <way id="31221831" version="3" timestamp="2010-07-06T10:08:24Z" uid="74617" user="JohnSmith" changeset="5147679">
    <nd ref="119119415"/>
    <nd ref="585074597"/>
    <nd ref="347214776"/>
    <nd ref="191257827"/>
    <nd ref="191257045"/>
    <tag k="highway" v="residential"/>
    <tag k="maxspeed" v="50"/>
    <tag k="maxspeed:source" v="default residential speed limit in Australia"/>
    <tag k="name" v="Kenneth Street"/>
  </way>
  <way id="31221833" version="3" timestamp="2010-07-06T10:06:48Z" uid="74617" user="JohnSmith" changeset="5147679">
    <nd ref="191264717"/>
    <nd ref="347214776"/>
    <tag k="highway" v="residential"/>
    <tag k="maxspeed" v="50"/>
    <tag k="maxspeed:source" v="default residential speed limit in Australia"/>
    <tag k="name" v="Arvon Street"/>
  </way>
  <way id="31221838" version="2" timestamp="2010-04-07T13:27:30Z" uid="20587" user="balrog-kun" changeset="4353646">
    <nd ref="147477621"/>
    <nd ref="347214991"/>
    <nd ref="347214992"/>
    <nd ref="347214993"/>
    <nd ref="147357065"/>
    <tag k="created_by" v="Potlatch 0.10f"/>
    <tag k="highway" v="tertiary"/>
    <tag k="name" v="Travelers Place"/>
    <tag k="oneway" v="yes"/>
    <tag k="tiger:cfcc" v="A41"/>
    <tag k="tiger:county" v="Oklahoma, OK"/>
    <tag k="tiger:name_base" v="Travelers"/>
    <tag k="tiger:name_type" v="Pl"/>
    <tag k="tiger:reviewed" v="no"/>
    <tag k="tiger:separated" v="no"/>
    <tag k="tiger:source" v="tiger_import_dch_v0.6_20070829"/>
    <tag k="tiger:tlid" v="100434118; 100434117"/>
  </way>
  <way id="31221860" version="2" timestamp="2010-04-06T14:36:59Z" uid="20587" user="balrog-kun" changeset="4342997">
    <nd ref="347219470"/>
    <nd ref="191012214"/>
    <tag k="bridge" v="yes"/>
    <tag k="highway" v="residential"/>
    <tag k="layer" v="1"/>
    <tag k="name" v="Summit Street"/>
    <tag k="tiger:cfcc" v="A41"/>
    <tag k="tiger:county" v="Jackson, MO"/>
    <tag k="tiger:name_base" v="Summit"/>
    <tag k="tiger:name_type" v="St"/>
    <tag k="tiger:reviewed" v="no"/>
    <tag k="tiger:separated" v="no"/>
    <tag k="tiger:source" v="tiger_import_dch_v0.6_20070813"/>
    <tag k="tiger:tlid" v="91528015:91487020"/>
  </way>
  <way id="31221861" version="3" timestamp="2010-04-06T14:37:00Z" uid="20587" user="balrog-kun" changeset="4342997">
    <nd ref="191012214"/>
    <nd ref="191012216"/>
    <nd ref="191001767"/>
    <nd ref="191012217"/>
    <nd ref="191012218"/>
    <nd ref="191007731"/>
    <nd ref="191012220"/>
    <nd ref="190994426"/>
    <nd ref="191012222"/>
    <nd ref="191012224"/>
    <nd ref="191012228"/>
    <nd ref="191012230"/>
    <nd ref="191012232"/>
    <nd ref="191012234"/>
    <nd ref="191012236"/>
    <nd ref="191012239"/>
    <nd ref="191012240"/>
    <tag k="highway" v="residential"/>
    <tag k="name" v="Summit Street"/>
    <tag k="tiger:cfcc" v="A41"/>
    <tag k="tiger:county" v="Jackson, MO"/>
    <tag k="tiger:name_base" v="Summit"/>
    <tag k="tiger:name_type" v="St"/>
    <tag k="tiger:reviewed" v="no"/>
    <tag k="tiger:separated" v="no"/>
    <tag k="tiger:source" v="tiger_import_dch_v0.6_20070813"/>
    <tag k="tiger:tlid" v="91528015:91487020"/>
  </way>
  <way id="31221868" version="2" timestamp="2010-04-06T14:37:00Z" uid="20587" user="balrog-kun" changeset="4342997">
    <nd ref="347220312"/>
    <nd ref="347220316"/>
    <tag k="bridge" v="yes"/>
    <tag k="highway" v="residential"/>
    <tag k="layer" v="1"/>
    <tag k="name" v="West 12th Street"/>
    <tag k="tiger:cfcc" v="A41"/>
    <tag k="tiger:county" v="Jackson, MO"/>
    <tag k="tiger:name_base" v="12th"/>
    <tag k="tiger:name_direction_prefix" v="W"/>
    <tag k="tiger:name_type" v="St"/>
    <tag k="tiger:reviewed" v="no"/>
    <tag k="tiger:separated" v="no"/>
    <tag k="tiger:source" v="tiger_import_dch_v0.6_20070813"/>
    <tag k="tiger:tlid" v="91535543"/>
  </way>
  <way id="31221869" version="6" timestamp="2010-04-06T14:37:00Z" uid="20587" user="balrog-kun" changeset="4342997">
    <nd ref="347220316"/>
    <nd ref="190942224"/>
    <nd ref="634240331"/>
    <tag k="highway" v="residential"/>
    <tag k="name" v="West 12th Street"/>
    <tag k="tiger:cfcc" v="A41"/>
    <tag k="tiger:county" v="Jackson, MO"/>
    <tag k="tiger:name_base" v="12th"/>
    <tag k="tiger:name_direction_prefix" v="W"/>
    <tag k="tiger:name_type" v="St"/>
    <tag k="tiger:reviewed" v="aerial"/>
    <tag k="tiger:separated" v="no"/>
    <tag k="tiger:source" v="tiger_import_dch_v0.6_20070813"/>
    <tag k="tiger:tlid" v="91535543"/>
  </way>
  <way id="31221875" version="1" timestamp="2009-02-18T04:54:11Z" uid="68769" user="david lynch" changeset="529739">
    <nd ref="347222117"/>
    <nd ref="347222119"/>
    <nd ref="347222120"/>
    <nd ref="347222121"/>
    <nd ref="347222122"/>
    <nd ref="347222123"/>
    <nd ref="347222124"/>
    <nd ref="347222126"/>
    <nd ref="347222128"/>
    <nd ref="347222129"/>
    <nd ref="347222130"/>
    <nd ref="347222131"/>
    <nd ref="347222132"/>
    <nd ref="347222134"/>
    <nd ref="347222135"/>
    <nd ref="347222136"/>
    <nd ref="347222137"/>
    <nd ref="347222138"/>
    <nd ref="347222117"/>
    <tag k="amenity" v="hospital"/>
    <tag k="building" v="yes"/>
    <tag k="created_by" v="Potlatch 0.10f"/>
    <tag k="name" v="Seton Northwest Hospital"/>
  </way>
  <way id="31221880" version="3" timestamp="2010-07-08T19:24:37Z" uid="74617" user="JohnSmith" changeset="5168688">
    <nd ref="347223217"/>
    <nd ref="347223220"/>
    <nd ref="347223223"/>
    <nd ref="347223226"/>
    <tag k="highway" v="residential"/>
    <tag k="maxspeed" v="50"/>
    <tag k="maxspeed:source" v="default residential speed limit in Australia"/>
    <tag k="name" v="Sierra Court"/>
  </way>
  <way id="31221882" version="3" timestamp="2010-07-08T19:19:30Z" uid="74617" user="JohnSmith" changeset="5168688">
    <nd ref="347223228"/>
    <nd ref="347223231"/>
    <tag k="highway" v="residential"/>
    <tag k="maxspeed" v="50"/>
    <tag k="maxspeed:source" v="default residential speed limit in Australia"/>
    <tag k="name" v="Teal Street"/>
  </way>
  <way id="31221883" version="3" timestamp="2010-07-08T19:21:56Z" uid="74617" user="JohnSmith" changeset="5168688">
    <nd ref="347223234"/>
    <nd ref="347223237"/>
    <tag k="highway" v="residential"/>
    <tag k="maxspeed" v="50"/>
    <tag k="maxspeed:source" v="default residential speed limit in Australia"/>
    <tag k="name" v="Lyndall Court"/>
  </way>
  <way id="31221884" version="3" timestamp="2010-07-08T19:22:39Z" uid="74617" user="JohnSmith" changeset="5168688">
    <nd ref="347223240"/>
    <nd ref="347223243"/>
    <nd ref="347223246"/>
    <tag k="highway" v="residential"/>
    <tag k="maxspeed" v="50"/>
    <tag k="maxspeed:source" v="default residential speed limit in Australia"/>
    <tag k="name" v="Lantana Avenue"/>
  </way>
  <way id="31221885" version="5" timestamp="2010-07-08T19:25:16Z" uid="74617" user="JohnSmith" changeset="5168688">
    <nd ref="347223248"/>
    <nd ref="347223251"/>
    <nd ref="347223254"/>
    <nd ref="347223257"/>
    <nd ref="347223231"/>
    <nd ref="347223260"/>
    <nd ref="347223263"/>
    <nd ref="347223266"/>
    <nd ref="347223269"/>
    <nd ref="347223272"/>
    <nd ref="347223275"/>
    <nd ref="347226045"/>
    <tag k="highway" v="residential"/>
    <tag k="maxspeed" v="50"/>
    <tag k="maxspeed:source" v="default residential speed limit in Australia"/>
    <tag k="name" v="Strathmore Crescent"/>
  </way>
  <way id="31221886" version="3" timestamp="2010-04-02T17:29:35Z" uid="20587" user="balrog-kun" changeset="4304500">
    <nd ref="110833530"/>
    <nd ref="110833531"/>
    <tag k="bridge" v="yes"/>
    <tag k="highway" v="tertiary"/>
    <tag k="layer" v="1"/>
    <tag k="name" v="Olympic Drive Northwest"/>
    <tag k="tiger:cfcc" v="A41"/>
    <tag k="tiger:county" v="Pierce, WA"/>
    <tag k="tiger:name_base" v="Olympic"/>
    <tag k="tiger:name_direction_suffix" v="NW"/>
    <tag k="tiger:name_type" v="Dr"/>
    <tag k="tiger:separated" v="no"/>
    <tag k="tiger:source" v="tiger_import_dch_v0.6_20070830"/>
    <tag k="tiger:tlid" v="184667736:184667729:184734498:184734499:184711359:184667745:184642630:184715621"/>
    <tag k="tiger:zip_left" v="98335"/>
    <tag k="tiger:zip_right" v="98335"/>
  </way>
  <way id="31221889" version="4" timestamp="2010-04-02T17:29:36Z" uid="20587" user="balrog-kun" changeset="4304500">
    <nd ref="110833531"/>
    <nd ref="110404026"/>
    <nd ref="110833532"/>
    <nd ref="110833535"/>
    <nd ref="110833536"/>
    <nd ref="110833537"/>
    <nd ref="110414618"/>
    <nd ref="110833539"/>
    <nd ref="110833542"/>
    <nd ref="110833543"/>
    <nd ref="490608658"/>
    <nd ref="490608661"/>
    <nd ref="110833548"/>
    <nd ref="110833549"/>
    <nd ref="110833550"/>
    <nd ref="110440240"/>
    <nd ref="110833551"/>
    <nd ref="110833554"/>
    <nd ref="110833555"/>
    <nd ref="110833556"/>
    <nd ref="110833557"/>
    <nd ref="110833558"/>
    <nd ref="110833561"/>
    <nd ref="110588880"/>
    <nd ref="110833562"/>
    <nd ref="110833565"/>
    <nd ref="110833566"/>
    <nd ref="110833567"/>
    <nd ref="110833569"/>
    <nd ref="110833571"/>
    <nd ref="110833572"/>
    <nd ref="110768287"/>
    <nd ref="110833574"/>
    <nd ref="110833576"/>
    <nd ref="110833577"/>
    <nd ref="110768202"/>
    <tag k="highway" v="tertiary"/>
    <tag k="name" v="Olympic Drive Northwest"/>
    <tag k="tiger:cfcc" v="A41"/>
    <tag k="tiger:county" v="Pierce, WA"/>
    <tag k="tiger:name_base" v="Olympic"/>
    <tag k="tiger:name_direction_suffix" v="NW"/>
    <tag k="tiger:name_type" v="Dr"/>
    <tag k="tiger:reviewed" v="no"/>
    <tag k="tiger:separated" v="no"/>
    <tag k="tiger:source" v="tiger_import_dch_v0.6_20070830"/>
    <tag k="tiger:tlid" v="184667736:184667729:184734498:184734499:184711359:184667745:184642630:184715621"/>
    <tag k="tiger:zip_left" v="98335"/>
    <tag k="tiger:zip_right" v="98335"/>
  </way>
  <way id="31221890" version="4" timestamp="2010-07-08T19:16:19Z" uid="74617" user="JohnSmith" changeset="5168688">
    <nd ref="347223329"/>
    <nd ref="347223332"/>
    <nd ref="347223417"/>
    <nd ref="347226050"/>
    <nd ref="347223335"/>
    <nd ref="347223338"/>
    <nd ref="347223341"/>
    <nd ref="347223344"/>
    <nd ref="347223347"/>
    <nd ref="347223350"/>
    <nd ref="347223352"/>
    <tag k="highway" v="residential"/>
    <tag k="maxspeed" v="50"/>
    <tag k="maxspeed:source" v="default residential speed limit in Australia"/>
    <tag k="name" v="Hampstead Drive"/>
  </way>
  <way id="31221891" version="2" timestamp="2010-04-02T17:29:36Z" uid="20587" user="balrog-kun" changeset="4304500">
    <nd ref="110705322"/>
    <nd ref="110705323"/>
    <nd ref="110705324"/>
    <nd ref="110705325"/>
    <nd ref="110705327"/>
    <nd ref="110705330"/>
    <nd ref="110705332"/>
    <nd ref="110488708"/>
    <nd ref="110705335"/>
    <nd ref="110705336"/>
    <nd ref="110705337"/>
    <nd ref="110705339"/>
    <nd ref="110627685"/>
    <nd ref="110705341"/>
    <tag k="created_by" v="JOSM"/>
    <tag k="highway" v="residential"/>
    <tag k="name" v="28th Avenue Northwest"/>
    <tag k="tiger:cfcc" v="A41"/>
    <tag k="tiger:county" v="Pierce, WA"/>
    <tag k="tiger:name_base" v="28th"/>
    <tag k="tiger:name_direction_suffix" v="NW"/>
    <tag k="tiger:name_type" v="Ave"/>
    <tag k="tiger:reviewed" v="no"/>
    <tag k="tiger:separated" v="no"/>
    <tag k="tiger:source" v="tiger_import_dch_v0.6_20070830"/>
    <tag k="tiger:tlid" v="184642165:184642166:184642168:184718846:184642170:184658433:184642175:184642176"/>
    <tag k="tiger:zip_left" v="98335"/>
    <tag k="tiger:zip_right" v="98335"/>
  </way>
  <way id="31221892" version="4" timestamp="2010-07-08T19:19:29Z" uid="74617" user="JohnSmith" changeset="5168688">
    <nd ref="347223312"/>
    <nd ref="347223355"/>
    <nd ref="347223357"/>
    <nd ref="347223581"/>
    <nd ref="347223358"/>
    <nd ref="347223361"/>
    <nd ref="347223364"/>
    <nd ref="347223367"/>
    <nd ref="347213721"/>
    <nd ref="347223396"/>
    <nd ref="347223535"/>
    <nd ref="347223370"/>
    <nd ref="347223373"/>
    <nd ref="347223578"/>
    <nd ref="347223572"/>
    <nd ref="347223375"/>
    <nd ref="347223552"/>
    <nd ref="347223378"/>
    <nd ref="347223381"/>
    <nd ref="347223384"/>
    <nd ref="347223387"/>
    <nd ref="347223390"/>
    <tag k="highway" v="residential"/>
    <tag k="maxspeed" v="50"/>
    <tag k="maxspeed:source" v="default residential speed limit in Australia"/>
    <tag k="name" v="Powell Drive"/>
  </way>
  <way id="31221893" version="3" timestamp="2010-07-08T19:21:55Z" uid="74617" user="JohnSmith" changeset="5168688">
    <nd ref="347223396"/>
    <nd ref="347223399"/>
    <nd ref="347223401"/>
    <nd ref="347223451"/>
    <nd ref="347223327"/>
    <nd ref="347223434"/>
    <nd ref="347223403"/>
    <nd ref="347223406"/>
    <nd ref="347223408"/>
    <nd ref="347223411"/>
    <nd ref="347223414"/>
    <nd ref="347223417"/>
    <tag k="highway" v="residential"/>
    <tag k="maxspeed" v="50"/>
    <tag k="maxspeed:source" v="default residential speed limit in Australia"/>
    <tag k="name" v="Warrenwood Avenue"/>
  </way>
  <way id="31221895" version="3" timestamp="2010-07-08T19:16:56Z" uid="74617" user="JohnSmith" changeset="5168688">
    <nd ref="347223420"/>
    <nd ref="347223423"/>
    <tag k="highway" v="residential"/>
    <tag k="maxspeed" v="50"/>
    <tag k="maxspeed:source" v="default residential speed limit in Australia"/>
    <tag k="name" v="Yatama Court"/>
  </way>
  <way id="31221896" version="3" timestamp="2010-07-08T19:25:01Z" uid="74617" user="JohnSmith" changeset="5168688">
    <nd ref="347223338"/>
    <nd ref="347223425"/>
    <nd ref="347223428"/>
    <nd ref="347223431"/>
    <nd ref="347223423"/>
    <nd ref="347223434"/>
    <tag k="highway" v="residential"/>
    <tag k="maxspeed" v="50"/>
    <tag k="maxspeed:source" v="default residential speed limit in Australia"/>
    <tag k="name" v="Doynton Parade"/>
  </way>
  <way id="31221897" version="3" timestamp="2010-07-08T19:15:43Z" uid="74617" user="JohnSmith" changeset="5168688">
    <nd ref="347223437"/>
    <nd ref="347223454"/>
    <nd ref="347223440"/>
    <nd ref="347223443"/>
    <nd ref="347223446"/>
    <nd ref="347223448"/>
    <nd ref="347223451"/>
    <tag k="highway" v="residential"/>
    <tag k="maxspeed" v="50"/>
    <tag k="maxspeed:source" v="default residential speed limit in Australia"/>
    <tag k="name" v="Madison Avenue"/>
  </way>
  <way id="31221898" version="3" timestamp="2010-07-08T19:19:56Z" uid="74617" user="JohnSmith" changeset="5168688">
    <nd ref="347223454"/>
    <nd ref="347223457"/>
    <nd ref="347223460"/>
    <nd ref="347223463"/>
    <nd ref="347223465"/>
    <tag k="highway" v="residential"/>
    <tag k="maxspeed" v="50"/>
    <tag k="maxspeed:source" v="default residential speed limit in Australia"/>
    <tag k="name" v="Fairway Avenue"/>
  </way>
  <way id="31221899" version="3" timestamp="2010-07-08T19:22:23Z" uid="74617" user="JohnSmith" changeset="5168688">
    <nd ref="347223468"/>
    <nd ref="347223471"/>
    <tag k="highway" v="residential"/>
    <tag k="maxspeed" v="50"/>
    <tag k="maxspeed:source" v="default residential speed limit in Australia"/>
    <tag k="name" v="Aquinas Court"/>
  </way>
  <way id="31221900" version="3" timestamp="2010-07-08T19:23:03Z" uid="74617" user="JohnSmith" changeset="5168688">
    <nd ref="347223473"/>
    <nd ref="347223476"/>
    <tag k="highway" v="residential"/>
    <tag k="maxspeed" v="50"/>
    <tag k="maxspeed:source" v="default residential speed limit in Australia"/>
    <tag k="name" v="Christen Court"/>
  </way>
  <way id="31221901" version="3" timestamp="2010-07-08T19:25:35Z" uid="74617" user="JohnSmith" changeset="5168688">
    <nd ref="347223479"/>
    <nd ref="347223482"/>
    <tag k="highway" v="residential"/>
    <tag k="maxspeed" v="50"/>
    <tag k="maxspeed:source" v="default residential speed limit in Australia"/>
    <tag k="name" v="Appian Court"/>
  </way>
  <way id="31221902" version="5" timestamp="2010-07-08T19:18:02Z" uid="74617" user="JohnSmith" changeset="5168688">
    <nd ref="347223485"/>
    <nd ref="347223352"/>
    <nd ref="347223531"/>
    <nd ref="347223488"/>
    <nd ref="347223491"/>
    <nd ref="347223525"/>
    <nd ref="347226048"/>
    <nd ref="347223494"/>
    <nd ref="347223496"/>
    <nd ref="347223499"/>
    <nd ref="347223502"/>
    <nd ref="347223505"/>
    <nd ref="347226049"/>
    <tag k="highway" v="residential"/>
    <tag k="maxspeed" v="50"/>
    <tag k="maxspeed:source" v="default residential speed limit in Australia"/>
    <tag k="name" v="Wiltonvale Avenue"/>
  </way>
  <way id="31221903" version="5" timestamp="2010-07-08T19:20:36Z" uid="74617" user="JohnSmith" changeset="5168688">
    <nd ref="444669485"/>
    <nd ref="347226018"/>
    <nd ref="347223531"/>
    <tag k="highway" v="residential"/>
    <tag k="maxspeed" v="50"/>
    <tag k="maxspeed:source" v="default residential speed limit in Australia"/>
    <tag k="name" v="Orion Street"/>
  </way>
  <way id="31221904" version="3" timestamp="2010-07-08T19:25:52Z" uid="74617" user="JohnSmith" changeset="5168688">
    <nd ref="347223538"/>
    <nd ref="347223567"/>
    <nd ref="347223547"/>
    <nd ref="347223544"/>
    <nd ref="347223393"/>
    <nd ref="347223541"/>
    <tag k="highway" v="residential"/>
    <tag k="maxspeed" v="50"/>
    <tag k="maxspeed:source" v="default residential speed limit in Australia"/>
    <tag k="name" v="Baden Drive"/>
  </way>
  <way id="31221905" version="3" timestamp="2010-07-08T19:16:34Z" uid="74617" user="JohnSmith" changeset="5168688">
    <nd ref="347223544"/>
    <nd ref="347223378"/>
    <tag k="highway" v="residential"/>
    <tag k="maxspeed" v="50"/>
    <tag k="maxspeed:source" v="default residential speed limit in Australia"/>
    <tag k="name" v="Third Avenue"/>
  </way>
  <way id="31221906" version="4" timestamp="2010-07-08T19:20:50Z" uid="74617" user="JohnSmith" changeset="5168688">
    <nd ref="347223547"/>
    <nd ref="347223550"/>
    <nd ref="347223552"/>
    <tag k="highway" v="residential"/>
    <tag k="maxspeed" v="50"/>
    <tag k="maxspeed:source" v="default residential speed limit in Australia"/>
    <tag k="name" v="Second Avenue"/>
  </way>
  <way id="31221907" version="3" timestamp="2010-07-08T19:23:20Z" uid="74617" user="JohnSmith" changeset="5168688">
    <nd ref="347223567"/>
    <nd ref="347223570"/>
    <nd ref="347223572"/>
    <tag k="highway" v="residential"/>
    <tag k="maxspeed" v="50"/>
    <tag k="maxspeed:source" v="default residential speed limit in Australia"/>
    <tag k="name" v="First Avenue"/>
  </way>
  <way id="31221908" version="3" timestamp="2010-07-08T19:24:12Z" uid="74617" user="JohnSmith" changeset="5168688">
    <nd ref="347223575"/>
    <nd ref="347223578"/>
    <tag k="highway" v="residential"/>
    <tag k="maxspeed" v="50"/>
    <tag k="maxspeed:source" v="default residential speed limit in Australia"/>
    <tag k="name" v="Bedford Court"/>
  </way>
  <way id="31221909" version="4" timestamp="2010-07-08T19:26:34Z" uid="74617" user="JohnSmith" changeset="5168688">
    <nd ref="347223581"/>
    <nd ref="347223584"/>
    <nd ref="347223586"/>
    <nd ref="444669376"/>
    <nd ref="347223589"/>
    <nd ref="347223592"/>
    <nd ref="347223595"/>
    <nd ref="347223361"/>
    <tag k="highway" v="residential"/>
    <tag k="maxspeed" v="50"/>
    <tag k="maxspeed:source" v="default residential speed limit in Australia"/>
    <tag k="name" v="Bernhardt Avenue"/>
  </way>
  <way id="31221910" version="3" timestamp="2010-07-08T19:19:02Z" uid="74617" user="JohnSmith" changeset="5168688">
    <nd ref="347223294"/>
    <nd ref="347214629"/>
    <nd ref="347223240"/>
    <nd ref="347223598"/>
    <nd ref="347223601"/>
    <nd ref="347214616"/>
    <nd ref="347223228"/>
    <nd ref="347223226"/>
    <nd ref="347223603"/>
    <tag k="highway" v="residential"/>
    <tag k="maxspeed" v="50"/>
    <tag k="maxspeed:source" v="default residential speed limit in Australia"/>
    <tag k="name" v="Yarrabee Drive"/>
  </way>
  <way id="31221911" version="4" timestamp="2010-07-08T19:21:24Z" uid="74617" user="JohnSmith" changeset="5168688">
    <nd ref="347223606"/>
    <nd ref="347223609"/>
    <nd ref="347223612"/>
    <nd ref="347223615"/>
    <nd ref="595533493"/>
    <nd ref="595533516"/>
    <tag k="highway" v="residential"/>
    <tag k="maxspeed" v="50"/>
    <tag k="maxspeed:source" v="default residential speed limit in Australia"/>
    <tag k="name" v="Drury Lane"/>
  </way>
  <way id="31221912" version="3" timestamp="2010-07-08T19:17:36Z" uid="74617" user="JohnSmith" changeset="5168688">
    <nd ref="347223621"/>
    <nd ref="347223624"/>
    <nd ref="347223615"/>
    <tag k="highway" v="residential"/>
    <tag k="maxspeed" v="50"/>
    <tag k="maxspeed:source" v="default residential speed limit in Australia"/>
    <tag k="name" v="Drury Lane"/>
  </way>
  <way id="31221913" version="4" timestamp="2010-07-08T19:20:13Z" uid="74617" user="JohnSmith" changeset="5168688">
    <nd ref="347223627"/>
    <nd ref="347223630"/>
    <nd ref="347223633"/>
    <nd ref="595533492"/>
    <nd ref="347223635"/>
    <nd ref="347223638"/>
    <nd ref="347223641"/>
    <tag k="highway" v="residential"/>
    <tag k="maxspeed" v="50"/>
    <tag k="maxspeed:source" v="default residential speed limit in Australia"/>
    <tag k="name" v="Geddes Crescent"/>
  </way>
  <way id="31221914" version="3" timestamp="2010-07-08T19:24:36Z" uid="74617" user="JohnSmith" changeset="5168688">
    <nd ref="347223644"/>
    <nd ref="347223679"/>
    <nd ref="347223676"/>
    <nd ref="347223647"/>
    <tag k="highway" v="residential"/>
    <tag k="maxspeed" v="50"/>
    <tag k="maxspeed:source" v="default residential speed limit in Australia"/>
    <tag k="name" v="Hayden Street"/>
  </way>
  <way id="31221915" version="3" timestamp="2010-07-08T19:27:10Z" uid="74617" user="JohnSmith" changeset="5168688">
    <nd ref="347223650"/>
    <nd ref="347223647"/>
    <nd ref="347223653"/>
    <tag k="highway" v="residential"/>
    <tag k="maxspeed" v="50"/>
    <tag k="maxspeed:source" v="default residential speed limit in Australia"/>
    <tag k="name" v="Crowe Street"/>
  </way>
  <way id="31221916" version="5" timestamp="2010-07-08T19:15:57Z" uid="74617" user="JohnSmith" changeset="5168688">
    <nd ref="347223656"/>
    <nd ref="347429238"/>
    <nd ref="347223659"/>
    <nd ref="347223662"/>
    <nd ref="595525294"/>
    <nd ref="347223902"/>
    <nd ref="347223899"/>
    <nd ref="595525298"/>
    <nd ref="347223653"/>
    <nd ref="347223673"/>
    <nd ref="347223665"/>
    <nd ref="347223667"/>
    <nd ref="347223928"/>
    <nd ref="347223670"/>
    <tag k="highway" v="residential"/>
    <tag k="maxspeed" v="50"/>
    <tag k="maxspeed:source" v="default residential speed limit in Australia"/>
    <tag k="name" v="Guinane Avenue"/>
  </way>
  <way id="31221917" version="3" timestamp="2010-07-08T19:18:19Z" uid="74617" user="JohnSmith" changeset="5168688">
    <nd ref="347223673"/>
    <nd ref="347223676"/>
    <tag k="highway" v="residential"/>
    <tag k="maxspeed" v="50"/>
    <tag k="maxspeed:source" v="default residential speed limit in Australia"/>
    <tag k="name" v="Hyslop Street"/>
  </way>
  <way id="31221918" version="3" timestamp="2010-07-08T19:22:39Z" uid="74617" user="JohnSmith" changeset="5168688">
    <nd ref="347223679"/>
    <nd ref="347223682"/>
    <nd ref="347223685"/>
    <nd ref="347223688"/>
    <nd ref="347223694"/>
    <nd ref="347223691"/>
    <tag k="highway" v="residential"/>
    <tag k="maxspeed" v="50"/>
    <tag k="maxspeed:source" v="default residential speed limit in Australia"/>
    <tag k="name" v="Oppy Crescent"/>
  </way>
  <way id="31221919" version="3" timestamp="2010-07-08T19:25:15Z" uid="74617" user="JohnSmith" changeset="5168688">
    <nd ref="347223694"/>
    <nd ref="347223705"/>
    <nd ref="347223696"/>
    <nd ref="347223699"/>
    <nd ref="347223702"/>
    <tag k="highway" v="residential"/>
    <tag k="maxspeed" v="50"/>
    <tag k="maxspeed:source" v="default residential speed limit in Australia"/>
    <tag k="name" v="Patterson Avenue"/>
  </way>
  <way id="31221920" version="3" timestamp="2010-07-08T19:24:02Z" uid="74617" user="JohnSmith" changeset="5168688">
    <nd ref="347223705"/>
    <nd ref="347223641"/>
    <nd ref="347223708"/>
    <nd ref="347223644"/>
    <nd ref="347223711"/>
    <nd ref="347223714"/>
    <tag k="highway" v="residential"/>
    <tag k="maxspeed" v="50"/>
    <tag k="maxspeed:source" v="default residential speed limit in Australia"/>
    <tag k="name" v="McIntosh Avenue"/>
  </way>
  <way id="31221921" version="3" timestamp="2010-07-08T19:26:26Z" uid="74617" user="JohnSmith" changeset="5168688">
    <nd ref="347223633"/>
    <nd ref="347223717"/>
    <nd ref="347223720"/>
    <nd ref="347223702"/>
    <nd ref="347223723"/>
    <nd ref="347223726"/>
    <tag k="highway" v="residential"/>
    <tag k="maxspeed" v="50"/>
    <tag k="maxspeed:source" v="default residential speed limit in Australia"/>
    <tag k="name" v="Hafey Crescent"/>
  </way>
  <way id="31221922" version="6" timestamp="2010-05-10T14:30:45Z" uid="4467" user="Rosscoe" changeset="4659854">
    <nd ref="595523907"/>
    <nd ref="347223729"/>
    <nd ref="347223726"/>
    <nd ref="347223731"/>
    <nd ref="347223734"/>
    <nd ref="347223737"/>
    <nd ref="347223740"/>
    <nd ref="347223691"/>
    <nd ref="347223743"/>
    <nd ref="347223670"/>
    <nd ref="347223745"/>
    <nd ref="347223748"/>
    <nd ref="347223751"/>
    <nd ref="347223754"/>
    <nd ref="595521283"/>
    <nd ref="347223757"/>
    <nd ref="347223911"/>
    <nd ref="728587105"/>
    <tag k="highway" v="residential"/>
    <tag k="name" v="Baggott Drive"/>
  </way>
  <way id="31221922" version="7" timestamp="2010-05-18T04:34:51Z" uid="4467" user="Rosscoe" changeset="4735194">
    <nd ref="595523907"/>
    <nd ref="347223726"/>
    <nd ref="347223731"/>
    <nd ref="347223734"/>
    <nd ref="347223737"/>
    <nd ref="347223740"/>
    <nd ref="347223691"/>
    <nd ref="347223743"/>
    <nd ref="347223670"/>
    <nd ref="347223745"/>
    <nd ref="347223748"/>
    <nd ref="347223751"/>
    <nd ref="347223754"/>
    <nd ref="595521283"/>
    <nd ref="347223757"/>
    <nd ref="347223911"/>
    <nd ref="728587105"/>
    <tag k="highway" v="residential"/>
    <tag k="name" v="Baggott Drive"/>
  </way>
  <way id="31221922" version="8" timestamp="2010-07-08T19:18:55Z" uid="74617" user="JohnSmith" changeset="5168688">
    <nd ref="595523907"/>
    <nd ref="347223726"/>
    <nd ref="347223731"/>
    <nd ref="347223734"/>
    <nd ref="347223737"/>
    <nd ref="347223740"/>
    <nd ref="347223691"/>
    <nd ref="347223743"/>
    <nd ref="347223670"/>
    <nd ref="347223745"/>
    <nd ref="347223748"/>
    <nd ref="347223751"/>
    <nd ref="347223754"/>
    <nd ref="595521283"/>
    <nd ref="347223757"/>
    <nd ref="347223911"/>
    <nd ref="728587105"/>
    <tag k="highway" v="residential"/>
    <tag k="maxspeed" v="50"/>
    <tag k="maxspeed:source" v="default residential speed limit in Australia"/>
    <tag k="name" v="Baggott Drive"/>
  </way>
  <way id="31221923" version="3" timestamp="2010-05-10T14:30:41Z" uid="4467" user="Rosscoe" changeset="4659854">
    <nd ref="347223773"/>
    <nd ref="347223779"/>
    <nd ref="347223776"/>
    <tag k="highway" v="residential"/>
    <tag k="name" v="Enea Place"/>
    <tag k="source" v="nearmap"/>
  </way>
  <way id="31221923" version="4" timestamp="2010-07-08T19:21:19Z" uid="74617" user="JohnSmith" changeset="5168688">
    <nd ref="347223773"/>
    <nd ref="347223779"/>
    <nd ref="347223776"/>
    <tag k="highway" v="residential"/>
    <tag k="maxspeed" v="50"/>
    <tag k="maxspeed:source" v="default residential speed limit in Australia"/>
    <tag k="name" v="Enea Place"/>
    <tag k="source" v="nearmap"/>
  </way>
  <way id="31221924" version="3" timestamp="2010-05-10T14:30:42Z" uid="4467" user="Rosscoe" changeset="4659854">
    <nd ref="347223779"/>
    <nd ref="347223782"/>
    <tag k="highway" v="residential"/>
    <tag k="name" v="Enea Place"/>
    <tag k="source" v="nearmap"/>
  </way>
  <way id="31221924" version="4" timestamp="2010-07-08T19:22:06Z" uid="74617" user="JohnSmith" changeset="5168688">
    <nd ref="347223779"/>
    <nd ref="347223782"/>
    <tag k="highway" v="residential"/>
    <tag k="maxspeed" v="50"/>
    <tag k="maxspeed:source" v="default residential speed limit in Australia"/>
    <tag k="name" v="Enea Place"/>
    <tag k="source" v="nearmap"/>
  </way>
  <way id="31221925" version="3" timestamp="2010-07-08T19:24:46Z" uid="74617" user="JohnSmith" changeset="5168688">
    <nd ref="347223784"/>
    <nd ref="347223787"/>
    <nd ref="347223790"/>
    <nd ref="347223793"/>
    <nd ref="347223796"/>
    <nd ref="347223797"/>
    <nd ref="347223799"/>
    <tag k="highway" v="residential"/>
    <tag k="maxspeed" v="50"/>
    <tag k="maxspeed:source" v="default residential speed limit in Australia"/>
    <tag k="name" v="Rita Court"/>
  </way>
  <way id="31221926" version="3" timestamp="2010-07-08T19:17:05Z" uid="74617" user="JohnSmith" changeset="5168688">
    <nd ref="347223802"/>
    <nd ref="347223799"/>
    <nd ref="347223805"/>
    <tag k="highway" v="residential"/>
    <tag k="maxspeed" v="50"/>
    <tag k="maxspeed:source" v="default residential speed limit in Australia"/>
    <tag k="name" v="Rita Court"/>
  </way>
  <way id="31221927" version="11" timestamp="2010-05-10T14:30:44Z" uid="4467" user="Rosscoe" changeset="4659854">
    <nd ref="347223808"/>
    <nd ref="347429272"/>
    <nd ref="347223771"/>
    <nd ref="595517447"/>
    <nd ref="595520152"/>
    <nd ref="595517484"/>
    <nd ref="728587092"/>
    <nd ref="347256673"/>
    <nd ref="347256672"/>
    <nd ref="347256702"/>
    <nd ref="347256703"/>
    <nd ref="595517893"/>
    <nd ref="728587099"/>
    <tag k="highway" v="tertiary"/>
    <tag k="name" v="Pannam Drive"/>
    <tag k="source" v="nearmap"/>
  </way>
  <way id="31221928" version="3" timestamp="2010-07-08T19:15:51Z" uid="74617" user="JohnSmith" changeset="5168688">
    <nd ref="347223828"/>
    <nd ref="347223737"/>
    <tag k="highway" v="residential"/>
    <tag k="maxspeed" v="50"/>
    <tag k="maxspeed:source" v="default residential speed limit in Australia"/>
    <tag k="name" v="Sharp Street"/>
  </way>
  <way id="31221929" version="4" timestamp="2010-05-18T04:34:49Z" uid="4467" user="Rosscoe" changeset="4735194">
    <nd ref="595523906"/>
    <nd ref="347223834"/>
    <nd ref="347223837"/>
    <nd ref="347223840"/>
    <nd ref="347223828"/>
    <nd ref="347223843"/>
    <nd ref="347223846"/>
    <nd ref="595523856"/>
    <nd ref="347223849"/>
    <nd ref="347223852"/>
    <tag k="highway" v="residential"/>
    <tag k="name" v="Minogue Crescent"/>
  </way>
  <way id="31221929" version="5" timestamp="2010-07-08T19:18:13Z" uid="74617" user="JohnSmith" changeset="5168688">
    <nd ref="595523906"/>
    <nd ref="347223834"/>
    <nd ref="347223837"/>
    <nd ref="347223840"/>
    <nd ref="347223828"/>
    <nd ref="347223843"/>
    <nd ref="347223846"/>
    <nd ref="595523856"/>
    <nd ref="347223849"/>
    <nd ref="347223852"/>
    <tag k="highway" v="residential"/>
    <tag k="maxspeed" v="50"/>
    <tag k="maxspeed:source" v="default residential speed limit in Australia"/>
    <tag k="name" v="Minogue Crescent"/>
  </way>
  <way id="31221930" version="3" timestamp="2010-07-08T19:22:33Z" uid="74617" user="JohnSmith" changeset="5168688">
    <nd ref="347223748"/>
    <nd ref="347223852"/>
    <nd ref="347223882"/>
    <nd ref="347223854"/>
    <nd ref="347223858"/>
    <nd ref="347223861"/>
    <nd ref="347223864"/>
    <tag k="highway" v="residential"/>
    <tag k="maxspeed" v="50"/>
    <tag k="maxspeed:source" v="default residential speed limit in Australia"/>
    <tag k="name" v="Durham Crescent"/>
  </way>
  <way id="31221931" version="4" timestamp="2010-07-08T19:25:10Z" uid="74617" user="JohnSmith" changeset="5168688">
    <nd ref="347223867"/>
    <nd ref="595523782"/>
    <nd ref="347223869"/>
    <nd ref="347223834"/>
    <tag k="highway" v="residential"/>
    <tag k="maxspeed" v="50"/>
    <tag k="maxspeed:source" v="default residential speed limit in Australia"/>
    <tag k="name" v="Wilkinson Street"/>
  </way>
  <way id="31221932" version="4" timestamp="2010-07-08T19:25:46Z" uid="74617" user="JohnSmith" changeset="5168688">
    <nd ref="347223869"/>
    <nd ref="347223872"/>
    <nd ref="347223873"/>
    <nd ref="347223876"/>
    <nd ref="595523810"/>
    <nd ref="595523858"/>
    <nd ref="347223879"/>
    <nd ref="347223882"/>
    <tag k="highway" v="residential"/>
    <tag k="maxspeed" v="50"/>
    <tag k="maxspeed:source" v="default residential speed limit in Australia"/>
    <tag k="name" v="Bentley Crescent"/>
  </way>
  <way id="31221933" version="4" timestamp="2010-07-08T19:16:27Z" uid="74617" user="JohnSmith" changeset="5168688">
    <nd ref="595523916"/>
    <nd ref="595523883"/>
    <nd ref="347223885"/>
    <nd ref="347223867"/>
    <nd ref="347223864"/>
    <nd ref="347223888"/>
    <tag k="highway" v="residential"/>
    <tag k="maxspeed" v="50"/>
    <tag k="maxspeed:source" v="default residential speed limit in Australia"/>
    <tag k="name" v="Hughes Street"/>
  </way>
  <way id="31221934" version="3" timestamp="2010-07-08T19:20:45Z" uid="74617" user="JohnSmith" changeset="5168688">
    <nd ref="347223891"/>
    <nd ref="347223894"/>
    <nd ref="347223896"/>
    <nd ref="347223899"/>
    <tag k="highway" v="residential"/>
    <tag k="maxspeed" v="50"/>
    <tag k="maxspeed:source" v="default residential speed limit in Australia"/>
    <tag k="name" v="Don Avenue"/>
  </way>
  <way id="31221935" version="3" timestamp="2010-07-08T19:23:14Z" uid="74617" user="JohnSmith" changeset="5168688">
    <nd ref="347223902"/>
    <nd ref="347223905"/>
    <nd ref="347223908"/>
    <nd ref="347223914"/>
    <nd ref="347223911"/>
    <tag k="highway" v="residential"/>
    <tag k="maxspeed" v="50"/>
    <tag k="maxspeed:source" v="default residential speed limit in Australia"/>
    <tag k="name" v="Smeaton Avenue"/>
  </way>
  <way id="31221936" version="4" timestamp="2010-07-08T19:16:43Z" uid="74617" user="JohnSmith" changeset="5168688">
    <nd ref="347223914"/>
    <nd ref="347223891"/>
    <nd ref="595521300"/>
    <nd ref="347223917"/>
    <nd ref="347223920"/>
    <nd ref="347223923"/>
    <nd ref="347223925"/>
    <nd ref="347223928"/>
    <tag k="highway" v="residential"/>
    <tag k="maxspeed" v="50"/>
    <tag k="maxspeed:source" v="default residential speed limit in Australia"/>
    <tag k="name" v="Clay Avenue"/>
  </way>
  <way id="31221937" version="3" timestamp="2010-07-08T19:19:13Z" uid="74617" user="JohnSmith" changeset="5168688">
    <nd ref="347223754"/>
    <nd ref="347223963"/>
    <nd ref="347223946"/>
    <nd ref="347223934"/>
    <nd ref="347223937"/>
    <nd ref="347223940"/>
    <nd ref="347223888"/>
    <nd ref="347223943"/>
    <tag k="highway" v="residential"/>
    <tag k="maxspeed" v="50"/>
    <tag k="maxspeed:source" v="default residential speed limit in Australia"/>
    <tag k="name" v="McCormack Crescent"/>
  </way>
  <way id="31221938" version="3" timestamp="2010-07-08T19:23:32Z" uid="74617" user="JohnSmith" changeset="5168688">
    <nd ref="347223946"/>
    <nd ref="347223949"/>
    <nd ref="347223952"/>
    <nd ref="347223955"/>
    <nd ref="347223957"/>
    <nd ref="347223960"/>
    <tag k="highway" v="residential"/>
    <tag k="maxspeed" v="50"/>
    <tag k="maxspeed:source" v="default residential speed limit in Australia"/>
    <tag k="name" v="Merrett Avenue"/>
  </way>
  <way id="31221939" version="4" timestamp="2010-07-08T19:26:02Z" uid="74617" user="JohnSmith" changeset="5168688">
    <nd ref="347223963"/>
    <nd ref="347223966"/>
    <nd ref="347223969"/>
    <nd ref="347429241"/>
    <nd ref="347223972"/>
    <tag k="highway" v="residential"/>
    <tag k="maxspeed" v="50"/>
    <tag k="maxspeed:source" v="default residential speed limit in Australia"/>
    <tag k="name" v="Dummett Avenue"/>
  </way>
  <way id="31221940" version="4" timestamp="2010-07-08T19:26:45Z" uid="74617" user="JohnSmith" changeset="5168688">
    <nd ref="347223975"/>
    <nd ref="595518059"/>
    <nd ref="595518047"/>
    <nd ref="347223977"/>
    <nd ref="347223980"/>
    <nd ref="347223983"/>
    <nd ref="347223986"/>
    <nd ref="347223989"/>
    <tag k="highway" v="residential"/>
    <tag k="maxspeed" v="50"/>
    <tag k="maxspeed:source" v="default residential speed limit in Australia"/>
    <tag k="name" v="Hunter Avenue"/>
  </way>
  <way id="31221941" version="5" timestamp="2010-07-08T19:17:21Z" uid="74617" user="JohnSmith" changeset="5168688">
    <nd ref="347223992"/>
    <nd ref="347429242"/>
    <nd ref="347223995"/>
    <nd ref="347223989"/>
    <nd ref="347223960"/>
    <nd ref="595518071"/>
    <nd ref="347223943"/>
    <nd ref="347223998"/>
    <nd ref="347224000"/>
    <nd ref="347224003"/>
    <nd ref="347224006"/>
    <nd ref="347224009"/>
    <nd ref="347223975"/>
    <nd ref="347224012"/>
    <tag k="highway" v="residential"/>
    <tag k="maxspeed" v="50"/>
    <tag k="maxspeed:source" v="default residential speed limit in Australia"/>
    <tag k="name" v="Bourke Crescent"/>
  </way>
  <way id="31221942" version="3" timestamp="2010-07-08T19:21:38Z" uid="74617" user="JohnSmith" changeset="5168688">
    <nd ref="347224015"/>
    <nd ref="347224003"/>
    <tag k="highway" v="residential"/>
    <tag k="maxspeed" v="50"/>
    <tag k="maxspeed:source" v="default residential speed limit in Australia"/>
    <tag k="name" v="Elliot Court"/>
  </way>
  <way id="31221943" version="4" timestamp="2010-05-10T14:30:43Z" uid="4467" user="Rosscoe" changeset="4659854">
    <nd ref="347224017"/>
    <nd ref="347224020"/>
    <nd ref="347224012"/>
    <nd ref="347256585"/>
    <nd ref="347224023"/>
    <nd ref="347224026"/>
    <nd ref="347256623"/>
    <nd ref="728587101"/>
    <tag k="highway" v="residential"/>
    <tag k="name" v="Cameron Drive"/>
  </way>
  <way id="31221943" version="5" timestamp="2010-07-08T19:24:22Z" uid="74617" user="JohnSmith" changeset="5168688">
    <nd ref="347224017"/>
    <nd ref="347224020"/>
    <nd ref="347224012"/>
    <nd ref="347256585"/>
    <nd ref="347224023"/>
    <nd ref="347224026"/>
    <nd ref="347256623"/>
    <nd ref="728587101"/>
    <tag k="highway" v="residential"/>
    <tag k="maxspeed" v="50"/>
    <tag k="maxspeed:source" v="default residential speed limit in Australia"/>
    <tag k="name" v="Cameron Drive"/>
  </way>
  <way id="31221944" version="7" timestamp="2010-05-18T04:07:10Z" uid="4467" user="Rosscoe" changeset="4735134"/>
  <way id="31221945" version="3" timestamp="2010-07-08T19:22:49Z" uid="74617" user="JohnSmith" changeset="5168688">
    <nd ref="347224043"/>
    <nd ref="347224183"/>
    <nd ref="347224046"/>
    <nd ref="347224049"/>
    <nd ref="347224052"/>
    <nd ref="347224229"/>
    <nd ref="347224055"/>
    <tag k="highway" v="residential"/>
    <tag k="maxspeed" v="50"/>
    <tag k="maxspeed:source" v="default residential speed limit in Australia"/>
    <tag k="name" v="Titus Avenue"/>
  </way>
  <way id="31221946" version="6" timestamp="2010-05-18T04:06:58Z" uid="4467" user="Rosscoe" changeset="4735134">
    <nd ref="347224058"/>
    <nd ref="347429193"/>
    <nd ref="347224244"/>
    <nd ref="347224061"/>
    <nd ref="347224064"/>
    <nd ref="347224055"/>
    <nd ref="347224203"/>
    <nd ref="347224200"/>
    <nd ref="347224072"/>
    <nd ref="347224222"/>
    <nd ref="347224168"/>
    <nd ref="728587097"/>
    <tag k="highway" v="residential"/>
    <tag k="name" v="Branton Road"/>
  </way>
  <way id="31221946" version="7" timestamp="2010-07-08T19:27:26Z" uid="74617" user="JohnSmith" changeset="5168688">
    <nd ref="347224058"/>
    <nd ref="347429193"/>
    <nd ref="347224244"/>
    <nd ref="347224061"/>
    <nd ref="347224064"/>
    <nd ref="347224055"/>
    <nd ref="347224203"/>
    <nd ref="347224200"/>
    <nd ref="347224072"/>
    <nd ref="347224222"/>
    <nd ref="347224168"/>
    <nd ref="728587097"/>
    <tag k="highway" v="residential"/>
    <tag k="maxspeed" v="50"/>
    <tag k="maxspeed:source" v="default residential speed limit in Australia"/>
    <tag k="name" v="Branton Road"/>
  </way>
  <way id="31221947" version="3" timestamp="2010-07-08T19:17:46Z" uid="74617" user="JohnSmith" changeset="5168688">
    <nd ref="347224070"/>
    <nd ref="347224072"/>
    <tag k="highway" v="residential"/>
    <tag k="maxspeed" v="50"/>
    <tag k="maxspeed:source" v="default residential speed limit in Australia"/>
    <tag k="name" v="Hall Street"/>
  </way>
  <way id="31221948" version="3" timestamp="2010-07-08T19:18:28Z" uid="74617" user="JohnSmith" changeset="5168688">
    <nd ref="347224075"/>
    <nd ref="347224078"/>
    <nd ref="347224081"/>
    <nd ref="347224084"/>
    <nd ref="347224070"/>
    <nd ref="347224087"/>
    <nd ref="347224090"/>
    <nd ref="347224093"/>
    <nd ref="347224095"/>
    <nd ref="347224098"/>
    <tag k="highway" v="residential"/>
    <tag k="maxspeed" v="50"/>
    <tag k="maxspeed:source" v="default residential speed limit in Australia"/>
    <tag k="name" v="Herbert Avenue"/>
  </way>
  <way id="31221949" version="3" timestamp="2010-07-08T19:20:57Z" uid="74617" user="JohnSmith" changeset="5168688">
    <nd ref="347224095"/>
    <nd ref="347224101"/>
    <nd ref="347224104"/>
    <nd ref="347224107"/>
    <nd ref="347224110"/>
    <nd ref="347224112"/>
    <nd ref="347224115"/>
    <nd ref="347224118"/>
    <nd ref="347224121"/>
    <nd ref="347224123"/>
    <nd ref="347224126"/>
    <tag k="highway" v="residential"/>
    <tag k="maxspeed" v="50"/>
    <tag k="maxspeed:source" v="default residential speed limit in Australia"/>
    <tag k="name" v="Thorpe Avenue"/>
  </way>
  <way id="31221950" version="4" timestamp="2010-07-08T19:25:23Z" uid="74617" user="JohnSmith" changeset="5168688">
    <nd ref="347224087"/>
    <nd ref="347224129"/>
    <nd ref="347224131"/>
    <nd ref="347224134"/>
    <nd ref="347224137"/>
    <nd ref="347224148"/>
    <nd ref="347224140"/>
    <nd ref="347224143"/>
    <nd ref="347224075"/>
    <nd ref="347429281"/>
    <nd ref="347224145"/>
    <tag k="highway" v="residential"/>
    <tag k="maxspeed" v="50"/>
    <tag k="maxspeed:source" v="default residential speed limit in Australia"/>
    <tag k="name" v="Moffatt Crescent"/>
  </way>
  <way id="31221951" version="3" timestamp="2010-07-08T19:16:04Z" uid="74617" user="JohnSmith" changeset="5168688">
    <nd ref="347224148"/>
    <nd ref="347224150"/>
    <nd ref="347224153"/>
    <nd ref="347224156"/>
    <tag k="highway" v="residential"/>
    <tag k="maxspeed" v="50"/>
    <tag k="maxspeed:source" v="default residential speed limit in Australia"/>
    <tag k="name" v="Wright Street"/>
  </way>
  <way id="31221952" version="5" timestamp="2010-05-18T04:07:02Z" uid="4467" user="Rosscoe" changeset="4735134">
    <nd ref="347224110"/>
    <nd ref="347224159"/>
    <nd ref="347224162"/>
    <nd ref="347429192"/>
    <nd ref="347224165"/>
    <tag k="highway" v="residential"/>
    <tag k="name" v="Swift Street"/>
  </way>
  <way id="31221952" version="6" timestamp="2010-05-20T13:44:30Z" uid="4467" user="Rosscoe" changeset="4757584">
    <nd ref="347224110"/>
    <nd ref="347224159"/>
    <nd ref="347224162"/>
    <nd ref="740968318"/>
    <nd ref="347429192"/>
    <nd ref="347224165"/>
    <tag k="highway" v="residential"/>
    <tag k="name" v="Swift Street"/>
  </way>
  <way id="31221952" version="7" timestamp="2010-07-08T19:26:39Z" uid="74617" user="JohnSmith" changeset="5168688">
    <nd ref="347224110"/>
    <nd ref="347224159"/>
    <nd ref="347224162"/>
    <nd ref="740968318"/>
    <nd ref="347429192"/>
    <nd ref="347224165"/>
    <tag k="highway" v="residential"/>
    <tag k="maxspeed" v="50"/>
    <tag k="maxspeed:source" v="default residential speed limit in Australia"/>
    <tag k="name" v="Swift Street"/>
  </way>
  <way id="31221953" version="3" timestamp="2010-07-08T19:17:13Z" uid="74617" user="JohnSmith" changeset="5168688">
    <nd ref="347224168"/>
    <nd ref="347224249"/>
    <nd ref="347224173"/>
    <nd ref="347224171"/>
    <tag k="highway" v="residential"/>
    <tag k="maxspeed" v="50"/>
    <tag k="maxspeed:source" v="default residential speed limit in Australia"/>
    <tag k="name" v="Dyer Street"/>
  </way>
  <way id="31221954" version="3" timestamp="2010-07-08T19:21:30Z" uid="74617" user="JohnSmith" changeset="5168688">
    <nd ref="347224173"/>
    <nd ref="347224225"/>
    <nd ref="347224176"/>
    <nd ref="347224180"/>
    <nd ref="347224188"/>
    <nd ref="347224191"/>
    <nd ref="347224213"/>
    <nd ref="347224183"/>
    <tag k="highway" v="residential"/>
    <tag k="maxspeed" v="50"/>
    <tag k="maxspeed:source" v="default residential speed limit in Australia"/>
    <tag k="name" v="Langridge Street"/>
  </way>
  <way id="31221955" version="3" timestamp="2010-07-08T19:24:16Z" uid="74617" user="JohnSmith" changeset="5168688">
    <nd ref="347224185"/>
    <nd ref="347224188"/>
    <tag k="highway" v="residential"/>
    <tag k="maxspeed" v="50"/>
    <tag k="maxspeed:source" v="default residential speed limit in Australia"/>
    <tag k="name" v="Hart Street"/>
  </way>
  <way id="31221956" version="3" timestamp="2010-07-08T19:24:56Z" uid="74617" user="JohnSmith" changeset="5168688">
    <nd ref="347224191"/>
    <nd ref="347224216"/>
    <nd ref="347224194"/>
    <nd ref="347224197"/>
    <nd ref="347224200"/>
    <tag k="highway" v="residential"/>
    <tag k="maxspeed" v="50"/>
    <tag k="maxspeed:source" v="default residential speed limit in Australia"/>
    <tag k="name" v="Barrot Avenue"/>
  </way>
  <way id="31221957" version="3" timestamp="2010-07-08T19:15:38Z" uid="74617" user="JohnSmith" changeset="5168688">
    <nd ref="347224203"/>
    <nd ref="347224206"/>
    <nd ref="347224209"/>
    <nd ref="347224213"/>
    <tag k="highway" v="residential"/>
    <tag k="maxspeed" v="50"/>
    <tag k="maxspeed:source" v="default residential speed limit in Australia"/>
    <tag k="name" v="Harris Avenue"/>
  </way>
  <way id="31221958" version="3" timestamp="2010-07-08T19:19:49Z" uid="74617" user="JohnSmith" changeset="5168688">
    <nd ref="347224216"/>
    <nd ref="347224219"/>
    <tag k="highway" v="residential"/>
    <tag k="maxspeed" v="50"/>
    <tag k="maxspeed:source" v="default residential speed limit in Australia"/>
    <tag k="name" v="Weidner Street"/>
  </way>
  <way id="31221959" version="3" timestamp="2010-07-08T19:22:17Z" uid="74617" user="JohnSmith" changeset="5168688">
    <nd ref="347224222"/>
    <nd ref="347224219"/>
    <nd ref="347224225"/>
    <tag k="highway" v="residential"/>
    <tag k="maxspeed" v="50"/>
    <tag k="maxspeed:source" v="default residential speed limit in Australia"/>
    <tag k="name" v="Strang Street"/>
  </way>
  <way id="31221960" version="3" timestamp="2010-07-08T19:18:22Z" uid="74617" user="JohnSmith" changeset="5168688">
    <nd ref="347224229"/>
    <nd ref="347224232"/>
    <nd ref="347224235"/>
    <nd ref="347224238"/>
    <tag k="highway" v="residential"/>
    <tag k="maxspeed" v="50"/>
    <tag k="maxspeed:source" v="default residential speed limit in Australia"/>
    <tag k="name" v="Bolger Crescent"/>
  </way>
  <way id="31221961" version="3" timestamp="2010-05-18T04:07:07Z" uid="4467" user="Rosscoe" changeset="4735134">
    <nd ref="347224241"/>
    <nd ref="347224244"/>
    <tag k="highway" v="residential"/>
    <tag k="name" v="Rudolph Street"/>
    <tag k="source" v="nearmap"/>
  </way>
  <way id="31221961" version="4" timestamp="2010-07-08T19:20:53Z" uid="74617" user="JohnSmith" changeset="5168688">
    <nd ref="347224241"/>
    <nd ref="347224244"/>
    <tag k="highway" v="residential"/>
    <tag k="maxspeed" v="50"/>
    <tag k="maxspeed:source" v="default residential speed limit in Australia"/>
    <tag k="name" v="Rudolph Street"/>
    <tag k="source" v="nearmap"/>
  </way>
  <way id="31221962" version="4" timestamp="2010-05-10T14:30:43Z" uid="4467" user="Rosscoe" changeset="4659854">
    <nd ref="347224246"/>
    <nd ref="347429276"/>
    <nd ref="347224249"/>
    <tag k="highway" v="residential"/>
    <tag k="name" v="Dean Street"/>
    <tag k="source" v="nearmap"/>
  </way>
  <way id="31221962" version="5" timestamp="2010-07-08T19:25:19Z" uid="74617" user="JohnSmith" changeset="5168688">
    <nd ref="347224246"/>
    <nd ref="347429276"/>
    <nd ref="347224249"/>
    <tag k="highway" v="residential"/>
    <tag k="maxspeed" v="50"/>
    <tag k="maxspeed:source" v="default residential speed limit in Australia"/>
    <tag k="name" v="Dean Street"/>
    <tag k="source" v="nearmap"/>
  </way>
  <way id="31221963" version="3" timestamp="2010-05-18T04:07:10Z" uid="4467" user="Rosscoe" changeset="4735134">
    <nd ref="347224252"/>
    <nd ref="347224255"/>
    <nd ref="347224258"/>
    <nd ref="347224261"/>
    <nd ref="347224266"/>
    <nd ref="347224269"/>
    <tag k="highway" v="road"/>
  </way>
  <way id="31221973" version="6" timestamp="2010-07-08T19:20:05Z" uid="74617" user="JohnSmith" changeset="5168688">
    <nd ref="347225425"/>
    <nd ref="347225428"/>
    <nd ref="347225431"/>
    <nd ref="347225433"/>
    <nd ref="347225436"/>
    <nd ref="347225439"/>
    <nd ref="347225721"/>
    <tag k="highway" v="residential"/>
    <tag k="maxspeed" v="50"/>
    <tag k="maxspeed:source" v="default residential speed limit in Australia"/>
    <tag k="name" v="Nelson Way"/>
  </way>
</osm>
