<?xml version='1.0' encoding='UTF-8'?>
<osm version="0.6" generator="libosmium/2.20.0">
  <way id="31224014" version="1" timestamp="2009-02-18T05:14:44Z" uid="68769" user="david lynch" changeset="529739">
    <nd ref="347226095"/>
    <nd ref="347226295"/>
    <nd ref="152540258"/>
    <tag k="created_by" v="Potlatch 0.10f"/>
  </way>
  <way id="31224014" version="2" timestamp="2009-02-18T05:15:09Z" uid="68769" user="david lynch" changeset="529739">
    <nd ref="347226095"/>
    <nd ref="347226295"/>
    <nd ref="152540258"/>
    <tag k="created_by" v="Potlatch 0.10f"/>
    <tag k="highway" v="secondary"/>
    <tag k="name" v="W 38th St"/>
    <tag k="oneway" v="yes"/>
  </way>
  <way id="31224014" version="3" timestamp="2010-04-07T13:27:34Z" uid="20587" user="balrog-kun" changeset="4353646">
    <nd ref="347226095"/>
    <nd ref="347226295"/>
    <nd ref="152540258"/>
    <tag k="created_by" v="Potlatch 0.10f"/>
    <tag k="highway" v="secondary"/>
    <tag k="name" v="West 38th Street"/>
    <tag k="oneway" v="yes"/>
  </way>
  <way id="31224016" version="1" timestamp="2009-02-18T05:14:44Z" uid="68769" user="david lynch" changeset="529739">
    <nd ref="152424039"/>
    <nd ref="347226299"/>
    <nd ref="347226300"/>
    <nd ref="347226095"/>
    <tag k="created_by" v="Potlatch 0.10f"/>
  </way>
  <way id="31224016" version="2" timestamp="2009-02-18T05:14:56Z" uid="68769" user="david lynch" changeset="529739">
    <nd ref="152424039"/>
    <nd ref="347226299"/>
    <nd ref="347226300"/>
    <nd ref="347226095"/>
    <tag k="created_by" v="Potlatch 0.10f"/>
    <tag k="highway" v="secondary"/>
    <tag k="name" v="W 35th St Cutoff"/>
  </way>
  <way id="31224016" version="3" timestamp="2009-02-18T05:15:13Z" uid="68769" user="david lynch" changeset="529739">
    <nd ref="152424039"/>
    <nd ref="347226299"/>
    <nd ref="347226300"/>
    <nd ref="347226095"/>
    <tag k="created_by" v="Potlatch 0.10f"/>
    <tag k="highway" v="secondary"/>
    <tag k="name" v="W 35th St Cutoff"/>
  </way>
  <way id="31224016" version="4" timestamp="2010-04-07T13:27:34Z" uid="20587" user="balrog-kun" changeset="4353646">
    <nd ref="152424039"/>
    <nd ref="347226299"/>
    <nd ref="347226300"/>
    <nd ref="347226095"/>
    <tag k="created_by" v="Potlatch 0.10f"/>
    <tag k="highway" v="secondary"/>
    <tag k="name" v="West 35th Street Cutoff"/>
  </way>
</osm>
