<?xml version='1.0' encoding='UTF-8'?>
<osm version="0.6" generator="libosmium/2.20.0">
  <way id="31249000" version="1" timestamp="2009-02-18T23:55:10Z" uid="17602" user="B10xyz" changeset="558148">
    <nd ref="347424519"/>
    <nd ref="347424524"/>
    <nd ref="347424522"/>
    <nd ref="347424523"/>
    <tag k="highway" v="footway"/>
  </way>
  <way id="31249000" version="2" timestamp="2009-05-29T13:11:38Z" uid="17602" user="B10xyz" changeset="1350821">
    <nd ref="347424522"/>
    <nd ref="347424524"/>
    <nd ref="347424519"/>
    <nd ref="347424520"/>
    <tag k="highway" v="footway"/>
    <tag k="name" v="CHIOVERE S. GIROLAMO"/>
  </way>
  <way id="31249000" version="3" timestamp="2009-11-17T18:23:12Z" uid="17602" user="B10xyz" changeset="3143268">
    <nd ref="347424522"/>
    <nd ref="347424524"/>
    <nd ref="347424519"/>
    <nd ref="347424520"/>
    <tag k="highway" v="footway"/>
    <tag k="visible_name" v="CHIOVERE S. GIROLAMO"/>
  </way>
  <way id="31249001" version="1" timestamp="2009-02-18T23:55:10Z" uid="17602" user="B10xyz" changeset="558148">
    <nd ref="347424524"/>
    <nd ref="347424525"/>
    <tag k="highway" v="footway"/>
  </way>
  <way id="31249001" version="2" timestamp="2009-11-17T18:23:12Z" uid="17602" user="B10xyz" changeset="3143268">
    <nd ref="347424524"/>
    <nd ref="347424525"/>
    <tag k="highway" v="footway"/>
    <tag k="note" v="n_n_vis"/>
  </way>
  <way id="31249002" version="1" timestamp="2009-02-18T23:55:10Z" uid="17602" user="B10xyz" changeset="558148">
    <nd ref="347424526"/>
    <nd ref="347424527"/>
    <nd ref="347424528"/>
    <tag k="highway" v="footway"/>
  </way>
  <way id="31249002" version="2" timestamp="2009-11-17T18:23:12Z" uid="17602" user="B10xyz" changeset="3143268">
    <nd ref="347424526"/>
    <nd ref="347424527"/>
    <nd ref="347424528"/>
    <tag k="highway" v="footway"/>
    <tag k="note" v="n_n_vis"/>
  </way>
  <way id="31249019" version="3" timestamp="2009-11-10T13:34:41Z" uid="20587" user="balrog-kun" changeset="3082011"/>
  <way id="31249020" version="4" timestamp="2009-11-10T13:34:42Z" uid="20587" user="balrog-kun" changeset="3082011"/>
  <way id="31249041" version="5" timestamp="2010-07-09T04:57:41Z" uid="74617" user="JohnSmith" changeset="5170972">
    <nd ref="233255026"/>
    <nd ref="347425129"/>
    <tag k="highway" v="residential"/>
    <tag k="maxspeed" v="50"/>
    <tag k="maxspeed:source" v="default residential speed limit in Australia"/>
    <tag k="name" v="Gore Street"/>
  </way>
  <way id="31249041" version="6" timestamp="2011-04-10T20:38:54Z" uid="4467" user="Rosscoe" changeset="7827395">
    <nd ref="233255026"/>
    <nd ref="347425129"/>
    <tag k="highway" v="residential"/>
    <tag k="maxspeed" v="50"/>
    <tag k="name" v="Gore Street"/>
    <tag k="source:maxspeed" v="default residential speed limit in Australia"/>
  </way>
  <way id="31249062" version="5" timestamp="2010-05-01T05:57:04Z" uid="4467" user="Rosscoe" changeset="4571708">
    <nd ref="347425011"/>
    <nd ref="347425013"/>
    <nd ref="347425016"/>
    <nd ref="347425018"/>
    <nd ref="347425020"/>
    <nd ref="347425522"/>
    <nd ref="347425021"/>
    <nd ref="347425022"/>
    <nd ref="607944951"/>
    <nd ref="347415119"/>
    <nd ref="347425024"/>
    <nd ref="347425025"/>
    <nd ref="347425027"/>
    <nd ref="347425029"/>
    <nd ref="347425031"/>
    <nd ref="347425033"/>
    <nd ref="347415103"/>
    <nd ref="347425034"/>
    <nd ref="347425035"/>
    <nd ref="347425037"/>
    <nd ref="347425040"/>
    <nd ref="714741183"/>
    <tag k="highway" v="tertiary"/>
    <tag k="name" v="Bethany Road"/>
  </way>
  <way id="31249065" version="3" timestamp="2010-07-08T19:15:43Z" uid="74617" user="JohnSmith" changeset="5168688">
    <nd ref="347425056"/>
    <nd ref="347425061"/>
    <nd ref="347425063"/>
    <nd ref="347425140"/>
    <nd ref="347425137"/>
    <nd ref="347425065"/>
    <nd ref="347425068"/>
    <nd ref="347425117"/>
    <nd ref="347425070"/>
    <nd ref="347425072"/>
    <nd ref="347425075"/>
    <nd ref="347425077"/>
    <nd ref="347425079"/>
    <nd ref="347425120"/>
    <nd ref="347425081"/>
    <nd ref="347425084"/>
    <nd ref="347425103"/>
    <nd ref="347425087"/>
    <nd ref="347425091"/>
    <tag k="highway" v="residential"/>
    <tag k="maxspeed" v="50"/>
    <tag k="maxspeed:source" v="default residential speed limit in Australia"/>
    <tag k="name" v="Ashton Crescent"/>
  </way>
  <way id="31249066" version="3" timestamp="2010-07-08T19:19:56Z" uid="74617" user="JohnSmith" changeset="5168688">
    <nd ref="347425094"/>
    <nd ref="347425097"/>
    <nd ref="347425099"/>
    <nd ref="347425087"/>
    <tag k="highway" v="residential"/>
    <tag k="maxspeed" v="50"/>
    <tag k="maxspeed:source" v="default residential speed limit in Australia"/>
    <tag k="name" v="Voltaire Court"/>
  </way>
  <way id="31249067" version="3" timestamp="2010-07-08T19:22:22Z" uid="74617" user="JohnSmith" changeset="5168688">
    <nd ref="347425101"/>
    <nd ref="347425102"/>
    <nd ref="347425103"/>
    <tag k="highway" v="residential"/>
    <tag k="maxspeed" v="50"/>
    <tag k="maxspeed:source" v="default residential speed limit in Australia"/>
    <tag k="name" v="Calais Court"/>
  </way>
  <way id="31249068" version="3" timestamp="2010-07-08T19:23:02Z" uid="74617" user="JohnSmith" changeset="5168688">
    <nd ref="347425104"/>
    <nd ref="347425105"/>
    <nd ref="347425106"/>
    <nd ref="347425107"/>
    <nd ref="347425108"/>
    <nd ref="347425079"/>
    <tag k="highway" v="residential"/>
    <tag k="maxspeed" v="50"/>
    <tag k="maxspeed:source" v="default residential speed limit in Australia"/>
    <tag k="name" v="Normandy Close"/>
  </way>
  <way id="31249070" version="3" timestamp="2010-07-08T19:18:02Z" uid="74617" user="JohnSmith" changeset="5168688">
    <nd ref="347425109"/>
    <nd ref="347425106"/>
    <tag k="highway" v="residential"/>
    <tag k="maxspeed" v="50"/>
    <tag k="maxspeed:source" v="default residential speed limit in Australia"/>
    <tag k="name" v="Lyon Court"/>
  </way>
  <way id="31249071" version="3" timestamp="2010-07-08T19:20:35Z" uid="74617" user="JohnSmith" changeset="5168688">
    <nd ref="347425110"/>
    <nd ref="347425112"/>
    <nd ref="347425113"/>
    <nd ref="347425114"/>
    <tag k="highway" v="residential"/>
    <tag k="maxspeed" v="50"/>
    <tag k="maxspeed:source" v="default residential speed limit in Australia"/>
    <tag k="name" v="Falconer Terrace"/>
  </way>
  <way id="31249072" version="3" timestamp="2010-07-08T19:25:51Z" uid="74617" user="JohnSmith" changeset="5168688">
    <nd ref="347425115"/>
    <nd ref="347425116"/>
    <nd ref="347425072"/>
    <tag k="highway" v="residential"/>
    <tag k="maxspeed" v="50"/>
    <tag k="maxspeed:source" v="default residential speed limit in Australia"/>
    <tag k="name" v="Brittany Court"/>
  </way>
  <way id="31249073" version="3" timestamp="2010-07-08T19:16:34Z" uid="74617" user="JohnSmith" changeset="5168688">
    <nd ref="347425117"/>
    <nd ref="347425118"/>
    <nd ref="347425119"/>
    <nd ref="125118364"/>
    <tag k="highway" v="residential"/>
    <tag k="maxspeed" v="50"/>
    <tag k="maxspeed:source" v="default residential speed limit in Australia"/>
    <tag k="name" v="Estelle Avenue"/>
  </way>
  <way id="31249074" version="3" timestamp="2010-07-08T19:20:50Z" uid="74617" user="JohnSmith" changeset="5168688">
    <nd ref="347425120"/>
    <nd ref="347425121"/>
    <nd ref="347425122"/>
    <nd ref="347425123"/>
    <nd ref="347425124"/>
    <nd ref="347425125"/>
    <tag k="highway" v="residential"/>
    <tag k="maxspeed" v="50"/>
    <tag k="maxspeed:source" v="default residential speed limit in Australia"/>
    <tag k="name" v="Loire Close"/>
  </way>
  <way id="31249075" version="3" timestamp="2010-07-08T19:23:20Z" uid="74617" user="JohnSmith" changeset="5168688">
    <nd ref="347425128"/>
    <nd ref="347425127"/>
    <nd ref="347425126"/>
    <nd ref="347425130"/>
    <nd ref="347425122"/>
    <tag k="highway" v="residential"/>
    <tag k="maxspeed" v="50"/>
    <tag k="maxspeed:source" v="default residential speed limit in Australia"/>
    <tag k="name" v="Marche Court"/>
  </way>
  <way id="31249076" version="3" timestamp="2010-07-08T19:24:11Z" uid="74617" user="JohnSmith" changeset="5168688">
    <nd ref="347425131"/>
    <nd ref="347425132"/>
    <nd ref="347425139"/>
    <nd ref="347425133"/>
    <nd ref="347425134"/>
    <nd ref="347425135"/>
    <nd ref="347425136"/>
    <nd ref="347425137"/>
    <tag k="highway" v="residential"/>
    <tag k="maxspeed" v="50"/>
    <tag k="maxspeed:source" v="default residential speed limit in Australia"/>
    <tag k="name" v="Romany Place"/>
  </way>
  <way id="31249077" version="3" timestamp="2010-07-08T19:26:34Z" uid="74617" user="JohnSmith" changeset="5168688">
    <nd ref="347425138"/>
    <nd ref="347425139"/>
    <tag k="highway" v="residential"/>
    <tag k="maxspeed" v="50"/>
    <tag k="maxspeed:source" v="default residential speed limit in Australia"/>
    <tag k="name" v="Romany Place"/>
  </way>
  <way id="31249078" version="3" timestamp="2010-07-08T19:19:02Z" uid="74617" user="JohnSmith" changeset="5168688">
    <nd ref="347425140"/>
    <nd ref="347425141"/>
    <nd ref="347425142"/>
    <nd ref="347425144"/>
    <nd ref="347425145"/>
    <nd ref="347425146"/>
    <nd ref="347425147"/>
    <tag k="highway" v="residential"/>
    <tag k="maxspeed" v="50"/>
    <tag k="maxspeed:source" v="default residential speed limit in Australia"/>
    <tag k="name" v="Chateau Close"/>
  </way>
  <way id="31249079" version="4" timestamp="2010-05-01T05:57:11Z" uid="4467" user="Rosscoe" changeset="4571708">
    <nd ref="714741174"/>
    <nd ref="347425148"/>
    <nd ref="347425165"/>
    <nd ref="347425149"/>
    <nd ref="347425150"/>
    <nd ref="347425151"/>
    <nd ref="347425091"/>
    <nd ref="347425153"/>
    <nd ref="347425155"/>
    <nd ref="347425157"/>
    <nd ref="290312030"/>
    <tag k="highway" v="residential"/>
    <tag k="name" v="Alsace Avenue"/>
  </way>
  <way id="31249079" version="5" timestamp="2010-07-08T19:21:24Z" uid="74617" user="JohnSmith" changeset="5168688">
    <nd ref="714741174"/>
    <nd ref="347425148"/>
    <nd ref="347425165"/>
    <nd ref="347425149"/>
    <nd ref="347425150"/>
    <nd ref="347425151"/>
    <nd ref="347425091"/>
    <nd ref="347425153"/>
    <nd ref="347425155"/>
    <nd ref="347425157"/>
    <nd ref="290312030"/>
    <tag k="highway" v="residential"/>
    <tag k="maxspeed" v="50"/>
    <tag k="maxspeed:source" v="default residential speed limit in Australia"/>
    <tag k="name" v="Alsace Avenue"/>
  </way>
  <way id="31249080" version="4" timestamp="2010-07-08T19:17:36Z" uid="74617" user="JohnSmith" changeset="5168688">
    <nd ref="347425161"/>
    <nd ref="347425163"/>
    <nd ref="347425165"/>
    <tag k="highway" v="residential"/>
    <tag k="history" v="Retrieved from v1"/>
    <tag k="maxspeed" v="50"/>
    <tag k="maxspeed:source" v="default residential speed limit in Australia"/>
    <tag k="name" v="Picardy Court"/>
  </way>
  <way id="31249081" version="3" timestamp="2010-07-08T19:20:11Z" uid="74617" user="JohnSmith" changeset="5168688">
    <nd ref="347425166"/>
    <nd ref="347425174"/>
    <nd ref="347425167"/>
    <nd ref="347425168"/>
    <nd ref="347425151"/>
    <tag k="highway" v="residential"/>
    <tag k="maxspeed" v="50"/>
    <tag k="maxspeed:source" v="default residential speed limit in Australia"/>
    <tag k="name" v="Guyenne Court"/>
  </way>
  <way id="31249082" version="3" timestamp="2010-07-08T19:24:36Z" uid="74617" user="JohnSmith" changeset="5168688">
    <nd ref="347425169"/>
    <nd ref="347425170"/>
    <nd ref="347425171"/>
    <nd ref="347425172"/>
    <nd ref="347425174"/>
    <tag k="highway" v="residential"/>
    <tag k="maxspeed" v="50"/>
    <tag k="maxspeed:source" v="default residential speed limit in Australia"/>
    <tag k="name" v="Chardonnay Place"/>
  </way>
  <way id="31249083" version="3" timestamp="2010-07-08T19:27:08Z" uid="74617" user="JohnSmith" changeset="5168688">
    <nd ref="347425155"/>
    <nd ref="347425175"/>
    <nd ref="347425176"/>
    <nd ref="347425177"/>
    <nd ref="347425178"/>
    <nd ref="347425179"/>
    <nd ref="347425180"/>
    <nd ref="347425184"/>
    <nd ref="347425185"/>
    <nd ref="347425186"/>
    <nd ref="347425187"/>
    <nd ref="347425188"/>
    <nd ref="347425189"/>
    <nd ref="347425190"/>
    <nd ref="347425044"/>
    <tag k="highway" v="residential"/>
    <tag k="maxspeed" v="50"/>
    <tag k="maxspeed:source" v="default residential speed limit in Australia"/>
    <tag k="name" v="Breton Drive"/>
  </way>
  <way id="31249084" version="3" timestamp="2010-07-08T19:15:57Z" uid="74617" user="JohnSmith" changeset="5168688">
    <nd ref="347425188"/>
    <nd ref="347425191"/>
    <nd ref="347425192"/>
    <nd ref="347425193"/>
    <nd ref="347425194"/>
    <nd ref="347425195"/>
    <tag k="highway" v="residential"/>
    <tag k="maxspeed" v="50"/>
    <tag k="maxspeed:source" v="default residential speed limit in Australia"/>
    <tag k="name" v="Scherbourg Place"/>
  </way>
  <way id="31249085" version="3" timestamp="2010-07-08T19:18:18Z" uid="74617" user="JohnSmith" changeset="5168688">
    <nd ref="347425196"/>
    <nd ref="347425195"/>
    <nd ref="347425197"/>
    <tag k="highway" v="residential"/>
    <tag k="maxspeed" v="50"/>
    <tag k="maxspeed:source" v="default residential speed limit in Australia"/>
    <tag k="name" v="Scherbourg Place"/>
  </way>
  <way id="31249086" version="3" timestamp="2010-07-08T19:22:38Z" uid="74617" user="JohnSmith" changeset="5168688">
    <nd ref="347425198"/>
    <nd ref="347425199"/>
    <nd ref="347425201"/>
    <nd ref="347425185"/>
    <tag k="highway" v="residential"/>
    <tag k="maxspeed" v="50"/>
    <tag k="maxspeed:source" v="default residential speed limit in Australia"/>
    <tag k="name" v="Bastille Court"/>
  </way>
  <way id="31249087" version="4" timestamp="2010-07-08T19:25:15Z" uid="74617" user="JohnSmith" changeset="5168688">
    <nd ref="347425184"/>
    <nd ref="347425204"/>
    <nd ref="347425206"/>
    <nd ref="347425208"/>
    <nd ref="347425211"/>
    <nd ref="347425214"/>
    <nd ref="347425216"/>
    <nd ref="347425217"/>
    <nd ref="347425218"/>
    <nd ref="347425219"/>
    <nd ref="347425220"/>
    <nd ref="347425221"/>
    <nd ref="347425222"/>
    <nd ref="347425230"/>
    <nd ref="347425178"/>
    <tag k="highway" v="residential"/>
    <tag k="maxspeed" v="50"/>
    <tag k="maxspeed:source" v="default residential speed limit in Australia"/>
    <tag k="name" v="Toulouse Crescent"/>
  </way>
  <way id="31249089" version="3" timestamp="2010-07-08T19:26:26Z" uid="74617" user="JohnSmith" changeset="5168688">
    <nd ref="347425231"/>
    <nd ref="347425233"/>
    <nd ref="347425232"/>
    <tag k="highway" v="residential"/>
    <tag k="maxspeed" v="50"/>
    <tag k="maxspeed:source" v="default residential speed limit in Australia"/>
    <tag k="name" v="Cantal Court"/>
  </way>
  <way id="31249090" version="3" timestamp="2010-07-08T19:18:55Z" uid="74617" user="JohnSmith" changeset="5168688">
    <nd ref="347425233"/>
    <nd ref="347425234"/>
    <nd ref="347425235"/>
    <nd ref="347425236"/>
    <nd ref="347425237"/>
    <nd ref="347425037"/>
    <tag k="highway" v="residential"/>
    <tag k="maxspeed" v="50"/>
    <tag k="maxspeed:source" v="default residential speed limit in Australia"/>
    <tag k="name" v="Cantal Court"/>
  </way>
  <way id="31249091" version="3" timestamp="2010-07-08T19:21:19Z" uid="74617" user="JohnSmith" changeset="5168688">
    <nd ref="347425238"/>
    <nd ref="347425239"/>
    <nd ref="347425240"/>
    <nd ref="347425242"/>
    <tag k="highway" v="residential"/>
    <tag k="maxspeed" v="50"/>
    <tag k="maxspeed:source" v="default residential speed limit in Australia"/>
    <tag k="name" v="Daly Court"/>
  </way>
  <way id="31249092" version="3" timestamp="2010-07-08T19:22:05Z" uid="74617" user="JohnSmith" changeset="5168688">
    <nd ref="347425244"/>
    <nd ref="347425245"/>
    <nd ref="347425246"/>
    <nd ref="347425247"/>
    <nd ref="347415137"/>
    <tag k="highway" v="residential"/>
    <tag k="maxspeed" v="50"/>
    <tag k="maxspeed:source" v="default residential speed limit in Australia"/>
    <tag k="name" v="Majelia Court"/>
  </way>
  <way id="31249093" version="3" timestamp="2010-07-08T19:24:46Z" uid="74617" user="JohnSmith" changeset="5168688">
    <nd ref="347425248"/>
    <nd ref="347425249"/>
    <nd ref="347425250"/>
    <nd ref="347425251"/>
    <nd ref="347425252"/>
    <tag k="highway" v="residential"/>
    <tag k="maxspeed" v="50"/>
    <tag k="maxspeed:source" v="default residential speed limit in Australia"/>
    <tag k="name" v="Sark Court"/>
  </way>
  <way id="31249094" version="3" timestamp="2010-07-08T19:17:04Z" uid="74617" user="JohnSmith" changeset="5168688">
    <nd ref="347425253"/>
    <nd ref="347425254"/>
    <nd ref="347415135"/>
    <tag k="highway" v="residential"/>
    <tag k="maxspeed" v="50"/>
    <tag k="maxspeed:source" v="default residential speed limit in Australia"/>
    <tag k="name" v="Shearwater Court"/>
  </way>
  <way id="31249095" version="3" timestamp="2010-07-08T19:19:38Z" uid="74617" user="JohnSmith" changeset="5168688">
    <nd ref="347425255"/>
    <nd ref="347425256"/>
    <nd ref="347425257"/>
    <nd ref="347425258"/>
    <tag k="highway" v="residential"/>
    <tag k="maxspeed" v="50"/>
    <tag k="maxspeed:source" v="default residential speed limit in Australia"/>
    <tag k="name" v="Eyre Close"/>
  </way>
  <way id="31249096" version="4" timestamp="2010-07-08T19:15:51Z" uid="74617" user="JohnSmith" changeset="5168688">
    <nd ref="347425259"/>
    <nd ref="607944994"/>
    <nd ref="607945028"/>
    <nd ref="347415121"/>
    <tag k="highway" v="residential"/>
    <tag k="maxspeed" v="50"/>
    <tag k="maxspeed:source" v="default residential speed limit in Australia"/>
    <tag k="name" v="Clearview Court"/>
  </way>
  <way id="31249097" version="3" timestamp="2010-07-08T19:18:13Z" uid="74617" user="JohnSmith" changeset="5168688">
    <nd ref="347425260"/>
    <nd ref="347425262"/>
    <nd ref="347425261"/>
    <tag k="highway" v="residential"/>
    <tag k="maxspeed" v="50"/>
    <tag k="maxspeed:source" v="default residential speed limit in Australia"/>
    <tag k="name" v="Lisa Court"/>
  </way>
  <way id="31249098" version="3" timestamp="2010-07-08T19:22:33Z" uid="74617" user="JohnSmith" changeset="5168688">
    <nd ref="347425262"/>
    <nd ref="347425263"/>
    <nd ref="347425264"/>
    <nd ref="347425265"/>
    <nd ref="347425266"/>
    <tag k="highway" v="residential"/>
    <tag k="maxspeed" v="50"/>
    <tag k="maxspeed:source" v="default residential speed limit in Australia"/>
    <tag k="name" v="Lisa Court"/>
  </way>
  <way id="31249099" version="3" timestamp="2010-07-08T19:25:10Z" uid="74617" user="JohnSmith" changeset="5168688">
    <nd ref="347415124"/>
    <nd ref="347425267"/>
    <nd ref="347425266"/>
    <nd ref="347425268"/>
    <nd ref="347425269"/>
    <nd ref="347425270"/>
    <nd ref="347425271"/>
    <nd ref="347425272"/>
    <nd ref="347425273"/>
    <nd ref="347425276"/>
    <nd ref="347425278"/>
    <tag k="highway" v="residential"/>
    <tag k="maxspeed" v="50"/>
    <tag k="maxspeed:source" v="default residential speed limit in Australia"/>
    <tag k="name" v="Harkaway Avenue"/>
  </way>
  <way id="31249100" version="3" timestamp="2010-07-08T19:25:46Z" uid="74617" user="JohnSmith" changeset="5168688">
    <nd ref="347425280"/>
    <nd ref="347425282"/>
    <nd ref="347425285"/>
    <tag k="highway" v="residential"/>
    <tag k="maxspeed" v="50"/>
    <tag k="maxspeed:source" v="default residential speed limit in Australia"/>
    <tag k="name" v="Hazelwood Court"/>
  </way>
  <way id="31249101" version="3" timestamp="2010-07-08T19:16:27Z" uid="74617" user="JohnSmith" changeset="5168688">
    <nd ref="347425287"/>
    <nd ref="347425289"/>
    <nd ref="347425288"/>
    <tag k="highway" v="residential"/>
    <tag k="maxspeed" v="50"/>
    <tag k="maxspeed:source" v="default residential speed limit in Australia"/>
    <tag k="name" v="Foley Court"/>
  </way>
  <way id="31249102" version="3" timestamp="2010-07-08T19:20:45Z" uid="74617" user="JohnSmith" changeset="5168688">
    <nd ref="347425289"/>
    <nd ref="347425292"/>
    <nd ref="347425294"/>
    <nd ref="347425296"/>
    <tag k="highway" v="residential"/>
    <tag k="maxspeed" v="50"/>
    <tag k="maxspeed:source" v="default residential speed limit in Australia"/>
    <tag k="name" v="Foley Court"/>
  </way>
  <way id="31249103" version="3" timestamp="2010-07-08T19:23:13Z" uid="74617" user="JohnSmith" changeset="5168688">
    <nd ref="347425298"/>
    <nd ref="347425301"/>
    <nd ref="347425303"/>
    <nd ref="347425306"/>
    <nd ref="347425308"/>
    <nd ref="347425310"/>
    <nd ref="347425312"/>
    <nd ref="347425314"/>
    <nd ref="347425316"/>
    <nd ref="347425319"/>
    <nd ref="347415126"/>
    <tag k="highway" v="residential"/>
    <tag k="maxspeed" v="50"/>
    <tag k="maxspeed:source" v="default residential speed limit in Australia"/>
    <tag k="name" v="Beckford Close"/>
  </way>
  <way id="31249104" version="3" timestamp="2010-07-08T19:16:43Z" uid="74617" user="JohnSmith" changeset="5168688">
    <nd ref="347425321"/>
    <nd ref="347425325"/>
    <nd ref="347425324"/>
    <tag k="highway" v="residential"/>
    <tag k="maxspeed" v="50"/>
    <tag k="maxspeed:source" v="default residential speed limit in Australia"/>
    <tag k="name" v="Quarrion Court"/>
  </way>
  <way id="31249105" version="3" timestamp="2010-07-08T19:19:12Z" uid="74617" user="JohnSmith" changeset="5168688">
    <nd ref="347425325"/>
    <nd ref="347425328"/>
    <nd ref="347425330"/>
    <nd ref="347425332"/>
    <nd ref="347425335"/>
    <nd ref="347425341"/>
    <nd ref="347425337"/>
    <nd ref="347425339"/>
    <nd ref="347415132"/>
    <tag k="highway" v="residential"/>
    <tag k="maxspeed" v="50"/>
    <tag k="maxspeed:source" v="default residential speed limit in Australia"/>
    <tag k="name" v="Quarrion Court"/>
  </way>
  <way id="31249106" version="4" timestamp="2010-07-08T19:23:32Z" uid="74617" user="JohnSmith" changeset="5168688">
    <nd ref="347425341"/>
    <nd ref="347425344"/>
    <nd ref="347425347"/>
    <nd ref="347425349"/>
    <nd ref="347425351"/>
    <nd ref="347425353"/>
    <nd ref="347425355"/>
    <nd ref="347425357"/>
    <nd ref="347425359"/>
    <nd ref="347425362"/>
    <nd ref="347425363"/>
    <nd ref="347425488"/>
    <nd ref="347425366"/>
    <nd ref="347425368"/>
    <nd ref="347425371"/>
    <nd ref="347425373"/>
    <nd ref="347425376"/>
    <nd ref="347425378"/>
    <nd ref="347425381"/>
    <nd ref="347425383"/>
    <nd ref="347425386"/>
    <tag k="highway" v="residential"/>
    <tag k="maxspeed" v="50"/>
    <tag k="maxspeed:source" v="default residential speed limit in Australia"/>
    <tag k="name" v="Casey Drive"/>
  </way>
  <way id="31249107" version="3" timestamp="2010-07-08T19:26:01Z" uid="74617" user="JohnSmith" changeset="5168688">
    <nd ref="347425420"/>
    <nd ref="347425422"/>
    <nd ref="347425425"/>
    <tag k="highway" v="residential"/>
    <tag k="maxspeed" v="50"/>
    <tag k="maxspeed:source" v="default residential speed limit in Australia"/>
    <tag k="name" v="Glenwood Close"/>
  </way>
  <way id="31249108" version="3" timestamp="2010-07-08T19:26:44Z" uid="74617" user="JohnSmith" changeset="5168688">
    <nd ref="347425427"/>
    <nd ref="347425430"/>
    <tag k="highway" v="residential"/>
    <tag k="maxspeed" v="50"/>
    <tag k="maxspeed:source" v="default residential speed limit in Australia"/>
    <tag k="name" v="Silflay Court"/>
  </way>
  <way id="31249109" version="3" timestamp="2010-07-08T19:17:21Z" uid="74617" user="JohnSmith" changeset="5168688">
    <nd ref="347425432"/>
    <nd ref="347425436"/>
    <nd ref="347425438"/>
    <nd ref="347425440"/>
    <nd ref="347425443"/>
    <tag k="highway" v="residential"/>
    <tag k="maxspeed" v="50"/>
    <tag k="maxspeed:source" v="default residential speed limit in Australia"/>
    <tag k="name" v="Oakwood Crescent"/>
  </way>
  <way id="31249110" version="4" timestamp="2010-07-08T19:21:37Z" uid="74617" user="JohnSmith" changeset="5168688">
    <nd ref="347425417"/>
    <nd ref="347425415"/>
    <nd ref="347425412"/>
    <nd ref="347425410"/>
    <nd ref="347425408"/>
    <nd ref="347425405"/>
    <nd ref="347425403"/>
    <nd ref="347425430"/>
    <nd ref="347425400"/>
    <nd ref="347425397"/>
    <nd ref="347425393"/>
    <nd ref="347425391"/>
    <nd ref="347425389"/>
    <nd ref="347425386"/>
    <nd ref="347425445"/>
    <nd ref="347425447"/>
    <nd ref="347425296"/>
    <tag k="highway" v="residential"/>
    <tag k="maxspeed" v="50"/>
    <tag k="maxspeed:source" v="default residential speed limit in Australia"/>
    <tag k="name" v="Sandleford Way"/>
  </way>
  <way id="31249111" version="3" timestamp="2010-07-08T19:24:21Z" uid="74617" user="JohnSmith" changeset="5168688">
    <nd ref="347425466"/>
    <nd ref="347425468"/>
    <nd ref="347425471"/>
    <nd ref="347425474"/>
    <nd ref="347425477"/>
    <nd ref="347425480"/>
    <nd ref="347425376"/>
    <tag k="highway" v="residential"/>
    <tag k="maxspeed" v="50"/>
    <tag k="maxspeed:source" v="default residential speed limit in Australia"/>
    <tag k="name" v="Buckhurst Way"/>
  </way>
  <way id="31249112" version="3" timestamp="2010-07-08T19:20:22Z" uid="74617" user="JohnSmith" changeset="5168688">
    <nd ref="347425484"/>
    <nd ref="347425488"/>
    <tag k="highway" v="residential"/>
    <tag k="maxspeed" v="50"/>
    <tag k="maxspeed:source" v="default residential speed limit in Australia"/>
    <tag k="name" v="Chigwell Court"/>
  </way>
  <way id="31249113" version="3" timestamp="2010-07-08T19:22:48Z" uid="74617" user="JohnSmith" changeset="5168688">
    <nd ref="347425492"/>
    <nd ref="347425495"/>
    <nd ref="347425500"/>
    <nd ref="347425359"/>
    <tag k="highway" v="residential"/>
    <tag k="maxspeed" v="50"/>
    <tag k="maxspeed:source" v="default residential speed limit in Australia"/>
    <tag k="name" v="Gos-Hawk Court"/>
  </way>
  <way id="31249114" version="3" timestamp="2010-07-08T19:27:26Z" uid="74617" user="JohnSmith" changeset="5168688">
    <nd ref="347425502"/>
    <nd ref="347425353"/>
    <tag k="highway" v="residential"/>
    <tag k="maxspeed" v="50"/>
    <tag k="maxspeed:source" v="default residential speed limit in Australia"/>
    <tag k="name" v="Zebrafinch Court"/>
  </way>
  <way id="31249115" version="3" timestamp="2010-07-08T19:17:45Z" uid="74617" user="JohnSmith" changeset="5168688">
    <nd ref="347425506"/>
    <nd ref="347425508"/>
    <nd ref="347425332"/>
    <tag k="highway" v="residential"/>
    <tag k="maxspeed" v="50"/>
    <tag k="maxspeed:source" v="default residential speed limit in Australia"/>
    <tag k="name" v="Quarrion Court"/>
  </way>
  <way id="31249119" version="3" timestamp="2010-07-08T19:16:04Z" uid="74617" user="JohnSmith" changeset="5168688">
    <nd ref="347425538"/>
    <nd ref="347425545"/>
    <nd ref="347425546"/>
    <nd ref="347425547"/>
    <nd ref="347425016"/>
    <tag k="highway" v="residential"/>
    <tag k="maxspeed" v="50"/>
    <tag k="maxspeed:source" v="default residential speed limit in Australia"/>
    <tag k="name" v="Hawkhurst Court"/>
  </way>
  <way id="31249120" version="3" timestamp="2010-07-08T19:26:38Z" uid="74617" user="JohnSmith" changeset="5168688">
    <nd ref="347425272"/>
    <nd ref="347425549"/>
    <nd ref="347425550"/>
    <tag k="highway" v="residential"/>
    <tag k="maxspeed" v="50"/>
    <tag k="maxspeed:source" v="default residential speed limit in Australia"/>
    <tag k="name" v="Buchan Court"/>
  </way>
  <way id="31249121" version="3" timestamp="2010-07-08T19:17:13Z" uid="74617" user="JohnSmith" changeset="5168688">
    <nd ref="347425405"/>
    <nd ref="347425556"/>
    <nd ref="347425551"/>
    <nd ref="347425432"/>
    <nd ref="347425552"/>
    <nd ref="347425553"/>
    <nd ref="347425554"/>
    <nd ref="347425555"/>
    <tag k="highway" v="residential"/>
    <tag k="maxspeed" v="50"/>
    <tag k="maxspeed:source" v="default residential speed limit in Australia"/>
    <tag k="name" v="Priorswood Drive"/>
  </way>
  <way id="31249122" version="3" timestamp="2010-07-08T19:21:29Z" uid="74617" user="JohnSmith" changeset="5168688">
    <nd ref="347425397"/>
    <nd ref="347425557"/>
    <nd ref="347425558"/>
    <nd ref="347425280"/>
    <nd ref="347425425"/>
    <nd ref="347425559"/>
    <nd ref="347425278"/>
    <nd ref="347425560"/>
    <nd ref="347425443"/>
    <nd ref="347425593"/>
    <nd ref="347425555"/>
    <nd ref="347425703"/>
    <nd ref="347425704"/>
    <tag k="highway" v="residential"/>
    <tag k="maxspeed" v="50"/>
    <tag k="maxspeed:source" v="default residential speed limit in Australia"/>
    <tag k="name" v="Abbotswood Drive"/>
  </way>
  <way id="31249134" version="5" timestamp="2010-05-27T13:49:09Z" uid="4467" user="Rosscoe" changeset="4822150">
    <nd ref="595557834"/>
    <nd ref="659656911"/>
    <nd ref="595558005"/>
    <nd ref="659656912"/>
    <nd ref="347425714"/>
    <nd ref="750856388"/>
    <nd ref="347425713"/>
    <nd ref="659657019"/>
    <nd ref="750856278"/>
    <nd ref="347425711"/>
    <nd ref="750856843"/>
    <nd ref="347425763"/>
    <nd ref="347425770"/>
    <nd ref="347425756"/>
    <nd ref="347425706"/>
    <tag k="highway" v="residential"/>
    <tag k="name" v="Harrington Avenue"/>
    <tag k="source" v="nearmap"/>
  </way>
  <way id="31249134" version="6" timestamp="2010-07-08T19:23:24Z" uid="74617" user="JohnSmith" changeset="5168688">
    <nd ref="595557834"/>
    <nd ref="659656911"/>
    <nd ref="595558005"/>
    <nd ref="659656912"/>
    <nd ref="347425714"/>
    <nd ref="750856388"/>
    <nd ref="347425713"/>
    <nd ref="659657019"/>
    <nd ref="750856278"/>
    <nd ref="347425711"/>
    <nd ref="750856843"/>
    <nd ref="347425763"/>
    <nd ref="347425770"/>
    <nd ref="347425756"/>
    <nd ref="347425706"/>
    <tag k="highway" v="residential"/>
    <tag k="maxspeed" v="50"/>
    <tag k="maxspeed:source" v="default residential speed limit in Australia"/>
    <tag k="name" v="Harrington Avenue"/>
    <tag k="source" v="nearmap"/>
  </way>
  <way id="31249134" version="7" timestamp="2011-03-16T10:54:28Z" uid="4467" user="Rosscoe" changeset="7574339">
    <nd ref="1204092659"/>
    <nd ref="659656911"/>
    <nd ref="595558005"/>
    <nd ref="659656912"/>
    <nd ref="347425714"/>
    <nd ref="750856388"/>
    <nd ref="347425713"/>
    <nd ref="659657019"/>
    <nd ref="750856278"/>
    <nd ref="347425711"/>
    <nd ref="750856843"/>
    <nd ref="347425763"/>
    <nd ref="347425770"/>
    <nd ref="347425756"/>
    <nd ref="347425706"/>
    <tag k="highway" v="residential"/>
    <tag k="maxspeed" v="50"/>
    <tag k="maxspeed:source" v="default residential speed limit in Australia"/>
    <tag k="name" v="Harrington Avenue"/>
    <tag k="source" v="nearmap"/>
  </way>
  <way id="31249135" version="3" timestamp="2010-05-01T05:15:37Z" uid="4467" user="Rosscoe" changeset="4571615">
    <nd ref="595557777"/>
    <nd ref="660478687"/>
    <nd ref="347425707"/>
    <nd ref="347425709"/>
    <nd ref="347425710"/>
    <nd ref="347425719"/>
    <nd ref="347425711"/>
    <tag k="highway" v="residential"/>
    <tag k="name" v="Danfield Drive"/>
  </way>
  <way id="31249135" version="5" timestamp="2010-05-27T13:49:12Z" uid="4467" user="Rosscoe" changeset="4822150">
    <nd ref="733639106"/>
    <nd ref="733639122"/>
    <nd ref="733639123"/>
    <nd ref="733639116"/>
    <tag k="highway" v="residential"/>
    <tag k="maxspeed" v="50"/>
    <tag k="name" v="Danfield Drive"/>
    <tag k="source" v="nearmap"/>
  </way>
  <way id="31249136" version="3" timestamp="2010-05-27T13:49:05Z" uid="4467" user="Rosscoe" changeset="4822150">
    <nd ref="347425712"/>
    <nd ref="750856388"/>
    <tag k="highway" v="residential"/>
    <tag k="name" v="Stroud Glen"/>
    <tag k="source" v="nearmap"/>
  </way>
  <way id="31249136" version="4" timestamp="2010-07-08T19:19:23Z" uid="74617" user="JohnSmith" changeset="5168688">
    <nd ref="347425712"/>
    <nd ref="750856388"/>
    <tag k="highway" v="residential"/>
    <tag k="maxspeed" v="50"/>
    <tag k="maxspeed:source" v="default residential speed limit in Australia"/>
    <tag k="name" v="Stroud Glen"/>
    <tag k="source" v="nearmap"/>
  </way>
  <way id="31249137" version="4" timestamp="2010-05-27T13:49:07Z" uid="4467" user="Rosscoe" changeset="4822150">
    <nd ref="347425714"/>
    <nd ref="750856325"/>
    <nd ref="347425715"/>
    <nd ref="347425716"/>
    <nd ref="659656914"/>
    <nd ref="659656915"/>
    <nd ref="659656916"/>
    <nd ref="659656917"/>
    <nd ref="659656918"/>
    <tag k="highway" v="residential"/>
    <tag k="name" v="Balladong Cresent"/>
  </way>
  <way id="31249137" version="5" timestamp="2010-07-08T19:21:48Z" uid="74617" user="JohnSmith" changeset="5168688">
    <nd ref="347425714"/>
    <nd ref="750856325"/>
    <nd ref="347425715"/>
    <nd ref="347425716"/>
    <nd ref="659656914"/>
    <nd ref="659656915"/>
    <nd ref="659656916"/>
    <nd ref="659656917"/>
    <nd ref="659656918"/>
    <tag k="highway" v="residential"/>
    <tag k="maxspeed" v="50"/>
    <tag k="maxspeed:source" v="default residential speed limit in Australia"/>
    <tag k="name" v="Balladong Cresent"/>
  </way>
  <way id="31249138" version="3" timestamp="2010-07-08T19:26:10Z" uid="74617" user="JohnSmith" changeset="5168688">
    <nd ref="347425719"/>
    <nd ref="347425720"/>
    <nd ref="347425721"/>
    <nd ref="347425722"/>
    <nd ref="347425723"/>
    <tag k="highway" v="residential"/>
    <tag k="maxspeed" v="50"/>
    <tag k="maxspeed:source" v="default residential speed limit in Australia"/>
    <tag k="name" v="Kerlin Cresent"/>
  </way>
  <way id="31249139" version="4" timestamp="2010-05-01T05:15:39Z" uid="4467" user="Rosscoe" changeset="4571615">
    <nd ref="347425709"/>
    <nd ref="347425723"/>
    <nd ref="714689012"/>
    <tag k="highway" v="residential"/>
    <tag k="name" v="Millendon Boulevard"/>
    <tag k="source" v="nearmap"/>
  </way>
  <way id="31249139" version="6" timestamp="2010-07-08T19:16:51Z" uid="74617" user="JohnSmith" changeset="5168688">
    <nd ref="347425709"/>
    <nd ref="347425723"/>
    <nd ref="733632359"/>
    <tag k="highway" v="residential"/>
    <tag k="maxspeed" v="50"/>
    <tag k="maxspeed:source" v="default residential speed limit in Australia"/>
    <tag k="name" v="Millendon Boulevard"/>
    <tag k="source" v="nearmap"/>
  </way>
  <way id="31249140" version="5" timestamp="2010-05-01T05:15:37Z" uid="4467" user="Rosscoe" changeset="4571615">
    <nd ref="347425730"/>
    <nd ref="347425753"/>
    <nd ref="347425733"/>
    <nd ref="347425735"/>
    <nd ref="347425737"/>
    <nd ref="659657071"/>
    <nd ref="347425739"/>
    <nd ref="347425742"/>
    <nd ref="347425744"/>
    <nd ref="595572395"/>
    <nd ref="347425754"/>
    <nd ref="347425752"/>
    <nd ref="714688983"/>
    <tag k="highway" v="residential"/>
    <tag k="name" v="Clarafield Cresent"/>
  </way>
  <way id="31249140" version="9" timestamp="2010-07-08T19:17:30Z" uid="74617" user="JohnSmith" changeset="5168688">
    <nd ref="347425730"/>
    <nd ref="347425753"/>
    <nd ref="733854045"/>
    <nd ref="733854047"/>
    <nd ref="347425733"/>
    <nd ref="733854048"/>
    <nd ref="347425735"/>
    <nd ref="347425737"/>
    <nd ref="659657071"/>
    <nd ref="347425739"/>
    <nd ref="347425742"/>
    <nd ref="734893045"/>
    <nd ref="734893043"/>
    <nd ref="347425744"/>
    <nd ref="595572395"/>
    <nd ref="347425754"/>
    <nd ref="347425752"/>
    <nd ref="714688983"/>
    <tag k="highway" v="residential"/>
    <tag k="maxspeed" v="50"/>
    <tag k="maxspeed:source" v="default residential speed limit in Australia"/>
    <tag k="name" v="Clarafield Cresent"/>
  </way>
  <way id="31249141" version="3" timestamp="2010-05-01T05:15:39Z" uid="4467" user="Rosscoe" changeset="4571615">
    <nd ref="347425747"/>
    <nd ref="347425749"/>
    <tag k="highway" v="residential"/>
    <tag k="name" v="Oldbury Grange"/>
    <tag k="source" v="nearmap"/>
  </way>
  <way id="31249141" version="4" timestamp="2010-07-08T19:20:05Z" uid="74617" user="JohnSmith" changeset="5168688">
    <nd ref="347425747"/>
    <nd ref="347425749"/>
    <tag k="highway" v="residential"/>
    <tag k="maxspeed" v="50"/>
    <tag k="maxspeed:source" v="default residential speed limit in Australia"/>
    <tag k="name" v="Oldbury Grange"/>
    <tag k="source" v="nearmap"/>
  </way>
  <way id="31249142" version="4" timestamp="2010-05-01T05:15:39Z" uid="4467" user="Rosscoe" changeset="4571615">
    <nd ref="347425726"/>
    <nd ref="595557951"/>
    <tag k="highway" v="residential"/>
    <tag k="name" v="Mallina Glen"/>
    <tag k="source" v="nearmap"/>
  </way>
  <way id="31249142" version="5" timestamp="2010-07-08T19:24:30Z" uid="74617" user="JohnSmith" changeset="5168688">
    <nd ref="347425726"/>
    <nd ref="595557951"/>
    <tag k="highway" v="residential"/>
    <tag k="maxspeed" v="50"/>
    <tag k="maxspeed:source" v="default residential speed limit in Australia"/>
    <tag k="name" v="Mallina Glen"/>
    <tag k="source" v="nearmap"/>
  </way>
  <way id="31249143" version="3" timestamp="2010-07-08T19:27:01Z" uid="74617" user="JohnSmith" changeset="5168688">
    <nd ref="347425751"/>
    <nd ref="347425752"/>
    <tag k="highway" v="residential"/>
    <tag k="maxspeed" v="50"/>
    <tag k="maxspeed:source" v="default residential speed limit in Australia"/>
    <tag k="name" v="Mandora Grange"/>
  </way>
  <way id="31249144" version="3" timestamp="2010-07-08T19:22:57Z" uid="74617" user="JohnSmith" changeset="5168688">
    <nd ref="347425753"/>
    <nd ref="347425754"/>
    <tag k="highway" v="residential"/>
    <tag k="maxspeed" v="50"/>
    <tag k="maxspeed:source" v="default residential speed limit in Australia"/>
    <tag k="name" v="Tahlee Road"/>
  </way>
  <way id="31249145" version="4" timestamp="2010-05-01T05:15:38Z" uid="4467" user="Rosscoe" changeset="4571615">
    <nd ref="347425755"/>
    <nd ref="659657025"/>
    <nd ref="347425756"/>
    <nd ref="347425757"/>
    <nd ref="714689031"/>
    <tag k="highway" v="residential"/>
    <tag k="name" v="Penrose Promenade"/>
    <tag k="oneway" v="yes"/>
    <tag k="source" v="nearmap"/>
  </way>
  <way id="31249146" version="4" timestamp="2010-05-01T05:15:37Z" uid="4467" user="Rosscoe" changeset="4571615">
    <nd ref="714688999"/>
    <nd ref="347425761"/>
    <nd ref="347425706"/>
    <nd ref="659657026"/>
    <nd ref="347425762"/>
    <tag k="highway" v="residential"/>
    <tag k="name" v="Penrose Promenade"/>
    <tag k="oneway" v="yes"/>
    <tag k="source" v="nearmap"/>
  </way>
  <way id="31249148" version="6" timestamp="2010-07-08T19:21:06Z" uid="74617" user="JohnSmith" changeset="5168688">
    <nd ref="347425763"/>
    <nd ref="733854952"/>
    <nd ref="659657014"/>
    <nd ref="347425764"/>
    <nd ref="733854953"/>
    <nd ref="733854954"/>
    <nd ref="347425765"/>
    <nd ref="347425766"/>
    <nd ref="733854955"/>
    <nd ref="347425767"/>
    <nd ref="347425768"/>
    <nd ref="347425769"/>
    <nd ref="659657020"/>
    <nd ref="733854525"/>
    <nd ref="347425770"/>
    <tag k="highway" v="residential"/>
    <tag k="maxspeed" v="50"/>
    <tag k="maxspeed:source" v="default residential speed limit in Australia"/>
    <tag k="name" v="Whyalla Gardens"/>
  </way>
  <way id="31249149" version="1" timestamp="2009-02-19T00:10:58Z" uid="30632" user="antblant" changeset="550364">
    <nd ref="347425774"/>
    <nd ref="347425773"/>
    <nd ref="347425772"/>
    <nd ref="347425778"/>
    <nd ref="347425777"/>
    <nd ref="347425776"/>
    <nd ref="347425775"/>
    <nd ref="347425781"/>
    <nd ref="347425782"/>
    <nd ref="347425779"/>
    <nd ref="347425780"/>
    <tag k="highway" v="residential"/>
    <tag k="source" v="UMP-PL, ./UMP-Szczecin/src/SZCZECIN.ulice.txt"/>
  </way>
  <way id="31249149" version="2" timestamp="2009-02-19T00:12:08Z" uid="30632" user="antblant" changeset="550364">
    <nd ref="347425774"/>
    <nd ref="347425773"/>
    <nd ref="347425772"/>
    <nd ref="347425778"/>
    <nd ref="347425777"/>
    <nd ref="347425776"/>
    <nd ref="347425775"/>
    <nd ref="347425781"/>
    <nd ref="347425782"/>
    <nd ref="282418530"/>
    <tag k="created_by" v="Potlatch 0.10f"/>
    <tag k="highway" v="residential"/>
    <tag k="source" v="UMP-PL, ./UMP-Szczecin/src/SZCZECIN.ulice.txt"/>
  </way>
  <way id="31249149" version="3" timestamp="2009-02-19T00:12:33Z" uid="30632" user="antblant" changeset="550364">
    <nd ref="347425774"/>
    <nd ref="347425773"/>
    <nd ref="347425772"/>
    <nd ref="347425778"/>
    <nd ref="347425777"/>
    <nd ref="347425776"/>
    <nd ref="347425775"/>
    <nd ref="347425781"/>
    <nd ref="347425782"/>
    <nd ref="282418530"/>
    <tag k="created_by" v="Potlatch 0.10f"/>
    <tag k="highway" v="residential"/>
    <tag k="source" v="UMP-PL, ./UMP-Szczecin/src/SZCZECIN.ulice.txt"/>
  </way>
  <way id="31249149" version="4" timestamp="2009-02-19T00:12:50Z" uid="30632" user="antblant" changeset="550364">
    <nd ref="347425774"/>
    <nd ref="347425773"/>
    <nd ref="347425772"/>
    <nd ref="347425778"/>
    <nd ref="347425777"/>
    <nd ref="347425776"/>
    <nd ref="347425775"/>
    <nd ref="347425781"/>
    <nd ref="347425782"/>
    <nd ref="282418530"/>
    <tag k="access" v="permissive"/>
    <tag k="created_by" v="Potlatch 0.10f"/>
    <tag k="highway" v="service"/>
    <tag k="source" v="UMP-PL, ./UMP-Szczecin/src/SZCZECIN.ulice.txt"/>
  </way>
  <way id="31249149" version="5" timestamp="2009-11-03T01:49:40Z" uid="36809" user="pfoten_weg_!_" changeset="3021530">
    <nd ref="347425774"/>
    <nd ref="347425773"/>
    <nd ref="347425772"/>
    <nd ref="347425778"/>
    <nd ref="347425777"/>
    <nd ref="347425776"/>
    <nd ref="347425775"/>
    <nd ref="347425781"/>
    <nd ref="347425782"/>
    <nd ref="282418530"/>
    <tag k="access" v="permissive"/>
    <tag k="highway" v="service"/>
    <tag k="source" v="UMP-PL, ./UMP-Szczecin/src/SZCZECIN.ulice.txt"/>
  </way>
  <way id="31249149" version="6" timestamp="2010-06-07T02:38:45Z" uid="20587" user="balrog-kun" changeset="4924414">
    <nd ref="347425774"/>
    <nd ref="347425773"/>
    <nd ref="347425772"/>
    <nd ref="347425778"/>
    <nd ref="347425777"/>
    <nd ref="347425776"/>
    <nd ref="766204386"/>
    <nd ref="766203632"/>
    <nd ref="766202355"/>
    <nd ref="766204937"/>
    <nd ref="766206112"/>
    <nd ref="347425775"/>
    <nd ref="347425781"/>
    <nd ref="347425782"/>
    <nd ref="282418530"/>
    <tag k="access" v="permissive"/>
    <tag k="highway" v="service"/>
    <tag k="name" v="WÄ™glowa"/>
    <tag k="source" v="gis.um.szczecin.pl"/>
  </way>
  <way id="31249153" version="3" timestamp="2010-07-08T19:17:34Z" uid="74617" user="JohnSmith" changeset="5168688">
    <nd ref="347415093"/>
    <nd ref="347425787"/>
    <nd ref="347425788"/>
    <nd ref="347425789"/>
    <nd ref="347425790"/>
    <nd ref="347425791"/>
    <nd ref="347425792"/>
    <nd ref="347425793"/>
    <nd ref="347425794"/>
    <nd ref="347425795"/>
    <nd ref="347425800"/>
    <nd ref="347415279"/>
    <tag k="highway" v="residential"/>
    <tag k="maxspeed" v="50"/>
    <tag k="maxspeed:source" v="default residential speed limit in Australia"/>
    <tag k="name" v="Callistemon Drive"/>
  </way>
  <way id="31249154" version="3" timestamp="2010-07-08T19:21:51Z" uid="74617" user="JohnSmith" changeset="5168688">
    <nd ref="347425796"/>
    <nd ref="347425797"/>
    <nd ref="347425798"/>
    <nd ref="347425799"/>
    <nd ref="347425800"/>
    <tag k="highway" v="residential"/>
    <tag k="maxspeed" v="50"/>
    <tag k="maxspeed:source" v="default residential speed limit in Australia"/>
    <tag k="name" v="Kennedia Close"/>
  </way>
  <way id="31249230" version="4" timestamp="2010-05-01T04:45:05Z" uid="4467" user="Rosscoe" changeset="4571542">
    <nd ref="347426422"/>
    <nd ref="595538326"/>
    <nd ref="347426424"/>
    <nd ref="347426423"/>
    <nd ref="714628629"/>
    <tag k="highway" v="residential"/>
    <tag k="name" v="Seasons Boulevard"/>
    <tag k="oneway" v="yes"/>
    <tag k="source" v="nearmap"/>
  </way>
  <way id="31249230" version="5" timestamp="2010-07-08T19:17:11Z" uid="74617" user="JohnSmith" changeset="5168688">
    <nd ref="347426422"/>
    <nd ref="595538326"/>
    <nd ref="347426424"/>
    <nd ref="347426423"/>
    <nd ref="714628629"/>
    <tag k="highway" v="residential"/>
    <tag k="maxspeed" v="50"/>
    <tag k="maxspeed:source" v="default residential speed limit in Australia"/>
    <tag k="name" v="Seasons Boulevard"/>
    <tag k="oneway" v="yes"/>
    <tag k="source" v="nearmap"/>
  </way>
  <way id="31249231" version="4" timestamp="2010-05-01T04:45:02Z" uid="4467" user="Rosscoe" changeset="4571542">
    <nd ref="714628819"/>
    <nd ref="347426420"/>
    <nd ref="347426425"/>
    <nd ref="595538327"/>
    <nd ref="347426421"/>
    <tag k="highway" v="residential"/>
    <tag k="name" v="Seasons Boulevard"/>
    <tag k="oneway" v="yes"/>
    <tag k="source" v="nearmap"/>
  </way>
  <way id="31249231" version="5" timestamp="2010-07-08T19:19:46Z" uid="74617" user="JohnSmith" changeset="5168688">
    <nd ref="714628819"/>
    <nd ref="347426420"/>
    <nd ref="347426425"/>
    <nd ref="595538327"/>
    <nd ref="347426421"/>
    <tag k="highway" v="residential"/>
    <tag k="maxspeed" v="50"/>
    <tag k="maxspeed:source" v="default residential speed limit in Australia"/>
    <tag k="name" v="Seasons Boulevard"/>
    <tag k="oneway" v="yes"/>
    <tag k="source" v="nearmap"/>
  </way>
  <way id="31249232" version="3" timestamp="2010-07-08T19:25:08Z" uid="74617" user="JohnSmith" changeset="5168688">
    <nd ref="347426428"/>
    <nd ref="347426429"/>
    <nd ref="347426430"/>
    <nd ref="347426431"/>
    <nd ref="347426432"/>
    <nd ref="347426433"/>
    <tag k="highway" v="residential"/>
    <tag k="maxspeed" v="50"/>
    <tag k="maxspeed:source" v="default residential speed limit in Australia"/>
    <tag k="name" v="Summer Court"/>
  </way>
  <way id="31249233" version="3" timestamp="2010-07-08T19:15:49Z" uid="74617" user="JohnSmith" changeset="5168688">
    <nd ref="347426435"/>
    <nd ref="347426433"/>
    <nd ref="347426438"/>
    <tag k="highway" v="residential"/>
    <tag k="maxspeed" v="50"/>
    <tag k="maxspeed:source" v="default residential speed limit in Australia"/>
    <tag k="name" v="Summer Court"/>
  </way>
  <way id="31249234" version="4" timestamp="2010-05-01T04:45:11Z" uid="4467" user="Rosscoe" changeset="4571542">
    <nd ref="347426440"/>
    <nd ref="659657204"/>
    <nd ref="714628777"/>
    <tag k="highway" v="residential"/>
    <tag k="name" v="Seasons Boulevard"/>
    <tag k="oneway" v="yes"/>
  </way>
  <way id="31249234" version="5" timestamp="2010-07-08T19:20:02Z" uid="74617" user="JohnSmith" changeset="5168688">
    <nd ref="347426440"/>
    <nd ref="659657204"/>
    <nd ref="714628777"/>
    <tag k="highway" v="residential"/>
    <tag k="maxspeed" v="50"/>
    <tag k="maxspeed:source" v="default residential speed limit in Australia"/>
    <tag k="name" v="Seasons Boulevard"/>
    <tag k="oneway" v="yes"/>
  </way>
  <way id="31249235" version="4" timestamp="2010-07-08T19:22:32Z" uid="74617" user="JohnSmith" changeset="5168688">
    <nd ref="347426442"/>
    <nd ref="659657205"/>
    <nd ref="347426444"/>
    <tag k="highway" v="residential"/>
    <tag k="maxspeed" v="50"/>
    <tag k="maxspeed:source" v="default residential speed limit in Australia"/>
    <tag k="name" v="Serenity Way"/>
  </way>
  <way id="31249236" version="3" timestamp="2010-07-08T19:23:11Z" uid="74617" user="JohnSmith" changeset="5168688">
    <nd ref="347426447"/>
    <nd ref="347426449"/>
    <tag k="highway" v="residential"/>
    <tag k="maxspeed" v="50"/>
    <tag k="maxspeed:source" v="default residential speed limit in Australia"/>
    <tag k="name" v="Tranquil Place"/>
  </way>
  <way id="31249237" version="4" timestamp="2010-05-01T04:45:12Z" uid="4467" user="Rosscoe" changeset="4571542">
    <nd ref="347426451"/>
    <nd ref="595537980"/>
    <nd ref="347426453"/>
    <nd ref="714628826"/>
    <tag k="highway" v="residential"/>
    <tag k="name" v="Sundial Boulevard"/>
    <tag k="oneway" v="yes"/>
    <tag k="source" v="nearmap"/>
  </way>
  <way id="31249237" version="5" timestamp="2010-07-08T19:25:44Z" uid="74617" user="JohnSmith" changeset="5168688">
    <nd ref="347426451"/>
    <nd ref="595537980"/>
    <nd ref="347426453"/>
    <nd ref="714628826"/>
    <tag k="highway" v="residential"/>
    <tag k="maxspeed" v="50"/>
    <tag k="maxspeed:source" v="default residential speed limit in Australia"/>
    <tag k="name" v="Sundial Boulevard"/>
    <tag k="oneway" v="yes"/>
    <tag k="source" v="nearmap"/>
  </way>
  <way id="31249237" version="6" timestamp="2011-04-20T05:50:18Z" uid="4467" user="Rosscoe" changeset="7912938">
    <nd ref="347426451"/>
    <nd ref="595537980"/>
    <nd ref="347426453"/>
    <nd ref="714628826"/>
    <tag k="highway" v="residential"/>
    <tag k="maxspeed" v="50"/>
    <tag k="maxspeed:source:maxspeed" v="default residential speed limit in Australia"/>
    <tag k="name" v="Sundial Boulevard"/>
    <tag k="oneway" v="yes"/>
    <tag k="source" v="nearmap"/>
  </way>
  <way id="31249238" version="4" timestamp="2010-05-01T04:45:09Z" uid="4467" user="Rosscoe" changeset="4571542">
    <nd ref="714628837"/>
    <nd ref="347426455"/>
    <nd ref="595537975"/>
    <nd ref="347426456"/>
    <tag k="highway" v="residential"/>
    <tag k="name" v="Sundial Boulevard"/>
    <tag k="oneway" v="yes"/>
    <tag k="source" v="nearmap"/>
  </way>
  <way id="31249238" version="5" timestamp="2010-07-08T19:18:09Z" uid="74617" user="JohnSmith" changeset="5168688">
    <nd ref="714628837"/>
    <nd ref="347426455"/>
    <nd ref="595537975"/>
    <nd ref="347426456"/>
    <tag k="highway" v="residential"/>
    <tag k="maxspeed" v="50"/>
    <tag k="maxspeed:source" v="default residential speed limit in Australia"/>
    <tag k="name" v="Sundial Boulevard"/>
    <tag k="oneway" v="yes"/>
    <tag k="source" v="nearmap"/>
  </way>
  <way id="31249238" version="6" timestamp="2011-04-20T05:50:03Z" uid="4467" user="Rosscoe" changeset="7912938">
    <nd ref="714628837"/>
    <nd ref="347426455"/>
    <nd ref="595537975"/>
    <nd ref="347426456"/>
    <tag k="highway" v="residential"/>
    <tag k="maxspeed" v="50"/>
    <tag k="maxspeed:source:maxspeed" v="default residential speed limit in Australia"/>
    <tag k="name" v="Sundial Boulevard"/>
    <tag k="oneway" v="yes"/>
    <tag k="source" v="nearmap"/>
  </way>
  <way id="31249239" version="4" timestamp="2010-05-01T04:45:08Z" uid="4467" user="Rosscoe" changeset="4571542">
    <nd ref="714628791"/>
    <nd ref="347426457"/>
    <nd ref="347426442"/>
    <nd ref="714628768"/>
    <nd ref="347426440"/>
    <nd ref="714628608"/>
    <nd ref="347426458"/>
    <nd ref="347426459"/>
    <nd ref="714628637"/>
    <nd ref="347426462"/>
    <tag k="highway" v="residential"/>
    <tag k="name" v="Sundial Boulevard"/>
    <tag k="source" v="nearmap"/>
  </way>
  <way id="31249239" version="5" timestamp="2010-07-08T19:20:43Z" uid="74617" user="JohnSmith" changeset="5168688">
    <nd ref="714628791"/>
    <nd ref="347426457"/>
    <nd ref="347426442"/>
    <nd ref="714628768"/>
    <nd ref="347426440"/>
    <nd ref="714628608"/>
    <nd ref="347426458"/>
    <nd ref="347426459"/>
    <nd ref="714628637"/>
    <nd ref="347426462"/>
    <tag k="highway" v="residential"/>
    <tag k="maxspeed" v="50"/>
    <tag k="maxspeed:source" v="default residential speed limit in Australia"/>
    <tag k="name" v="Sundial Boulevard"/>
    <tag k="source" v="nearmap"/>
  </way>
  <way id="31249239" version="6" timestamp="2011-04-20T05:50:09Z" uid="4467" user="Rosscoe" changeset="7912938">
    <nd ref="714628791"/>
    <nd ref="347426457"/>
    <nd ref="347426442"/>
    <nd ref="714628768"/>
    <nd ref="347426440"/>
    <nd ref="714628608"/>
    <nd ref="347426458"/>
    <nd ref="347426459"/>
    <nd ref="714628637"/>
    <nd ref="347426462"/>
    <tag k="highway" v="residential"/>
    <tag k="maxspeed" v="50"/>
    <tag k="maxspeed:source:maxspeed" v="default residential speed limit in Australia"/>
    <tag k="name" v="Sundial Boulevard"/>
    <tag k="source" v="nearmap"/>
  </way>
  <way id="31249240" version="1" timestamp="2009-02-19T00:22:04Z" uid="30632" user="antblant" changeset="550364">
    <nd ref="347426606"/>
    <nd ref="347426615"/>
    <nd ref="347426628"/>
    <nd ref="347426612"/>
    <tag k="UMP_Level" v="1"/>
    <tag k="highway" v="residential"/>
    <tag k="name" v="KarpiÅ„skiego"/>
    <tag k="source" v="UMP-PL, ./UMP-Szczecin/src/SZCZECIN.ulice.txt"/>
  </way>
  <way id="31249240" version="2" timestamp="2009-02-19T00:24:51Z" uid="30632" user="antblant" changeset="550364">
    <nd ref="347426606"/>
    <nd ref="347426615"/>
    <nd ref="347426628"/>
    <nd ref="347426612"/>
    <tag k="UMP_Level" v="1"/>
    <tag k="created_by" v="Potlatch 0.10f"/>
    <tag k="highway" v="residential"/>
    <tag k="name" v="KarpiÅ„skiego"/>
    <tag k="source" v="UMP-PL, ./UMP-Szczecin/src/SZCZECIN.ulice.txt"/>
  </way>
  <way id="31249240" version="3" timestamp="2009-02-19T00:25:09Z" uid="30632" user="antblant" changeset="550364">
    <nd ref="347426912"/>
    <nd ref="347426615"/>
    <nd ref="347426628"/>
    <nd ref="347426612"/>
    <tag k="UMP_Level" v="1"/>
    <tag k="created_by" v="Potlatch 0.10f"/>
    <tag k="highway" v="residential"/>
    <tag k="name" v="KarpiÅ„skiego"/>
    <tag k="source" v="UMP-PL, ./UMP-Szczecin/src/SZCZECIN.ulice.txt"/>
  </way>
  <way id="31249240" version="4" timestamp="2009-02-19T00:28:45Z" uid="30632" user="antblant" changeset="550364">
    <nd ref="347426912"/>
    <nd ref="347426615"/>
    <nd ref="347426628"/>
    <nd ref="347426612"/>
    <tag k="created_by" v="Potlatch 0.10f"/>
    <tag k="highway" v="residential"/>
    <tag k="name" v="Franciszka KarpiÅ„skiego"/>
    <tag k="source" v="UMP-PL, ./UMP-Szczecin/src/SZCZECIN.ulice.txt"/>
  </way>
  <way id="31249240" version="5" timestamp="2009-11-03T01:57:28Z" uid="36809" user="pfoten_weg_!_" changeset="3021530">
    <nd ref="347426912"/>
    <nd ref="347426615"/>
    <nd ref="347426628"/>
    <nd ref="347426612"/>
    <tag k="highway" v="residential"/>
    <tag k="name" v="Franciszka KarpiÅ„skiego"/>
    <tag k="source" v="UMP-PL, ./UMP-Szczecin/src/SZCZECIN.ulice.txt"/>
  </way>
  <way id="31249240" version="6" timestamp="2009-11-17T22:10:37Z" uid="30632" user="antblant" changeset="3146009">
    <nd ref="347426612"/>
    <nd ref="347426628"/>
    <tag k="highway" v="residential"/>
    <tag k="name" v="Franciszka KarpiÅ„skiego"/>
    <tag k="oneway" v="yes"/>
    <tag k="source" v="UMP-PL, ./UMP-Szczecin/src/SZCZECIN.ulice.txt"/>
  </way>
  <way id="31249241" version="4" timestamp="2010-07-08T19:19:20Z" uid="74617" user="JohnSmith" changeset="5168688">
    <nd ref="347426476"/>
    <nd ref="595537778"/>
    <nd ref="347426457"/>
    <tag k="highway" v="residential"/>
    <tag k="maxspeed" v="50"/>
    <tag k="maxspeed:source" v="default residential speed limit in Australia"/>
    <tag k="name" v="Highland Place"/>
  </way>
  <way id="31249242" version="1" timestamp="2009-02-19T00:22:06Z" uid="30632" user="antblant" changeset="550364">
    <nd ref="347426630"/>
    <nd ref="347426612"/>
    <nd ref="347426622"/>
    <tag k="UMP_Level" v="1"/>
    <tag k="highway" v="residential"/>
    <tag k="name" v="Reja"/>
    <tag k="source" v="UMP-PL, ./UMP-Szczecin/src/SZCZECIN.ulice.txt"/>
  </way>
  <way id="31249242" version="2" timestamp="2009-02-19T00:23:28Z" uid="30632" user="antblant" changeset="550364">
    <nd ref="347426630"/>
    <nd ref="347426612"/>
    <nd ref="347426749"/>
    <tag k="created_by" v="Potlatch 0.10f"/>
    <tag k="highway" v="residential"/>
    <tag k="name" v="Reja"/>
    <tag k="source" v="UMP-PL, ./UMP-Szczecin/src/SZCZECIN.ulice.txt"/>
  </way>
  <way id="31249242" version="3" timestamp="2009-02-19T00:23:41Z" uid="30632" user="antblant" changeset="550364">
    <nd ref="347426630"/>
    <nd ref="347426612"/>
    <nd ref="347426749"/>
    <tag k="created_by" v="Potlatch 0.10f"/>
    <tag k="highway" v="residential"/>
    <tag k="name" v="MikoÅ‚aja Reja"/>
    <tag k="source" v="UMP-PL, ./UMP-Szczecin/src/SZCZECIN.ulice.txt"/>
  </way>
  <way id="31249242" version="4" timestamp="2009-02-19T00:24:36Z" uid="30632" user="antblant" changeset="550364">
    <nd ref="347426820"/>
    <nd ref="347426612"/>
    <nd ref="347426749"/>
    <nd ref="273126660"/>
    <tag k="created_by" v="Potlatch 0.10f"/>
    <tag k="highway" v="residential"/>
    <tag k="name" v="MikoÅ‚aja Reja"/>
    <tag k="source" v="UMP-PL, ./UMP-Szczecin/src/SZCZECIN.ulice.txt"/>
  </way>
  <way id="31249242" version="6" timestamp="2009-11-03T02:04:16Z" uid="36809" user="pfoten_weg_!_" changeset="3021530">
    <nd ref="347426820"/>
    <nd ref="347426612"/>
    <nd ref="410291806"/>
    <nd ref="347426749"/>
    <nd ref="273126660"/>
    <tag k="highway" v="residential"/>
    <tag k="name" v="MikoÅ‚aja Reja"/>
    <tag k="source" v="UMP-PL, ./UMP-Szczecin/src/SZCZECIN.ulice.txt"/>
  </way>
  <way id="31249242" version="7" timestamp="2009-11-17T22:10:37Z" uid="30632" user="antblant" changeset="3146009">
    <nd ref="273126660"/>
    <nd ref="347426749"/>
    <tag k="highway" v="residential"/>
    <tag k="name" v="MikoÅ‚aja Reja"/>
    <tag k="source" v="UMP-PL, ./UMP-Szczecin/src/SZCZECIN.ulice.txt"/>
  </way>
  <way id="31249244" version="3" timestamp="2010-07-08T19:26:58Z" uid="74617" user="JohnSmith" changeset="5168688">
    <nd ref="347426477"/>
    <nd ref="347426476"/>
    <nd ref="347426478"/>
    <tag k="highway" v="residential"/>
    <tag k="maxspeed" v="50"/>
    <tag k="maxspeed:source" v="default residential speed limit in Australia"/>
    <tag k="name" v="Highland Place"/>
  </way>
  <way id="31249245" version="1" timestamp="2009-02-19T00:22:08Z" uid="30632" user="antblant" changeset="550364">
    <nd ref="347426625"/>
    <nd ref="347426609"/>
    <tag k="UMP_Level" v="1"/>
    <tag k="highway" v="residential"/>
    <tag k="name" v="Lenartowicza"/>
    <tag k="source" v="UMP-PL, ./UMP-Szczecin/src/SZCZECIN.ulice.txt"/>
  </way>
  <way id="31249245" version="2" timestamp="2009-02-19T00:26:10Z" uid="30632" user="antblant" changeset="550364">
    <nd ref="347426625"/>
    <nd ref="347426988"/>
    <tag k="created_by" v="Potlatch 0.10f"/>
    <tag k="highway" v="residential"/>
    <tag k="name" v="Lenartowicza"/>
    <tag k="source" v="UMP-PL, ./UMP-Szczecin/src/SZCZECIN.ulice.txt"/>
  </way>
  <way id="31249245" version="3" timestamp="2009-02-19T00:27:35Z" uid="30632" user="antblant" changeset="550364">
    <nd ref="347426625"/>
    <nd ref="269755398"/>
    <tag k="created_by" v="Potlatch 0.10f"/>
    <tag k="highway" v="residential"/>
    <tag k="name" v="Lenartowicza"/>
    <tag k="source" v="UMP-PL, ./UMP-Szczecin/src/SZCZECIN.ulice.txt"/>
  </way>
  <way id="31249245" version="4" timestamp="2009-02-19T00:27:51Z" uid="30632" user="antblant" changeset="550364">
    <nd ref="347426625"/>
    <nd ref="269755398"/>
    <tag k="created_by" v="Potlatch 0.10f"/>
    <tag k="highway" v="residential"/>
    <tag k="name" v="Lenartowicza"/>
    <tag k="source" v="UMP-PL, ./UMP-Szczecin/src/SZCZECIN.ulice.txt"/>
  </way>
  <way id="31249245" version="5" timestamp="2009-02-19T00:28:12Z" uid="30632" user="antblant" changeset="550364">
    <nd ref="347426625"/>
    <nd ref="269755398"/>
    <tag k="created_by" v="Potlatch 0.10f"/>
    <tag k="highway" v="residential"/>
    <tag k="name" v="Teofila Aleksandra Lenartowicza"/>
    <tag k="source" v="UMP-PL, ./UMP-Szczecin/src/SZCZECIN.ulice.txt"/>
  </way>
  <way id="31249245" version="6" timestamp="2009-02-19T18:27:51Z" uid="30632" user="antblant" changeset="556130">
    <nd ref="347426625"/>
    <nd ref="269755398"/>
    <tag k="created_by" v="Potlatch 0.10f"/>
    <tag k="highway" v="residential"/>
    <tag k="name" v="Teofila Aleksandra Lenartowicza"/>
  </way>
  <way id="31249245" version="7" timestamp="2009-11-03T01:59:37Z" uid="36809" user="pfoten_weg_!_" changeset="3021530">
    <nd ref="347426625"/>
    <nd ref="269755398"/>
    <tag k="highway" v="residential"/>
    <tag k="name" v="Teofila Aleksandra Lenartowicza"/>
  </way>
  <way id="31249246" version="3" timestamp="2010-07-08T19:21:47Z" uid="74617" user="JohnSmith" changeset="5168688">
    <nd ref="347426480"/>
    <nd ref="347426482"/>
    <nd ref="347426481"/>
    <tag k="highway" v="residential"/>
    <tag k="maxspeed" v="50"/>
    <tag k="maxspeed:source" v="default residential speed limit in Australia"/>
    <tag k="name" v="Equinox Close"/>
  </way>
  <way id="31249247" version="1" timestamp="2009-02-19T00:22:11Z" uid="30632" user="antblant" changeset="550364">
    <nd ref="347426606"/>
    <nd ref="347426625"/>
    <tag k="UMP_Level" v="1"/>
    <tag k="highway" v="residential"/>
    <tag k="name" v="Zamoyskiego"/>
    <tag k="source" v="UMP-PL, ./UMP-Szczecin/src/SZCZECIN.ulice.txt"/>
  </way>
  <way id="31249247" version="2" timestamp="2009-02-19T00:25:04Z" uid="30632" user="antblant" changeset="550364">
    <nd ref="347426625"/>
    <nd ref="347426912"/>
    <tag k="UMP_Level" v="1"/>
    <tag k="created_by" v="Potlatch 0.10f"/>
    <tag k="highway" v="residential"/>
    <tag k="name" v="Zamoyskiego"/>
    <tag k="source" v="UMP-PL, ./UMP-Szczecin/src/SZCZECIN.ulice.txt"/>
  </way>
  <way id="31249247" version="3" timestamp="2009-02-19T00:25:58Z" uid="30632" user="antblant" changeset="550364">
    <nd ref="347426625"/>
    <nd ref="347426952"/>
    <nd ref="347426912"/>
    <tag k="created_by" v="Potlatch 0.10f"/>
    <tag k="highway" v="residential"/>
    <tag k="name" v="Jana Zamoyskiego"/>
    <tag k="source" v="UMP-PL, ./UMP-Szczecin/src/SZCZECIN.ulice.txt"/>
  </way>
  <way id="31249247" version="4" timestamp="2009-02-19T18:27:52Z" uid="30632" user="antblant" changeset="556130">
    <nd ref="347426625"/>
    <nd ref="347426952"/>
    <nd ref="347426912"/>
    <tag k="created_by" v="Potlatch 0.10f"/>
    <tag k="highway" v="residential"/>
    <tag k="name" v="Jana Zamoyskiego"/>
  </way>
  <way id="31249247" version="5" timestamp="2009-11-03T01:59:38Z" uid="36809" user="pfoten_weg_!_" changeset="3021530">
    <nd ref="347426625"/>
    <nd ref="347426952"/>
    <nd ref="347426912"/>
    <tag k="highway" v="residential"/>
    <tag k="name" v="Jana Zamoyskiego"/>
  </way>
  <way id="31249248" version="3" timestamp="2010-07-08T19:23:05Z" uid="74617" user="JohnSmith" changeset="5168688">
    <nd ref="347426482"/>
    <nd ref="347426483"/>
    <nd ref="347426484"/>
    <nd ref="347426485"/>
    <nd ref="347426486"/>
    <tag k="highway" v="residential"/>
    <tag k="maxspeed" v="50"/>
    <tag k="maxspeed:source" v="default residential speed limit in Australia"/>
    <tag k="name" v="Equinox Close"/>
  </way>
  <way id="31249250" version="1" timestamp="2009-02-19T00:22:13Z" uid="30632" user="antblant" changeset="550364">
    <nd ref="347426628"/>
    <nd ref="347426618"/>
    <tag k="UMP_Level" v="1"/>
    <tag k="highway" v="residential"/>
    <tag k="name" v="Heleny"/>
    <tag k="source" v="UMP-PL, ./UMP-Szczecin/src/SZCZECIN.ulice.txt"/>
  </way>
  <way id="31249250" version="2" timestamp="2009-02-19T00:23:50Z" uid="30632" user="antblant" changeset="550364">
    <nd ref="347426628"/>
    <nd ref="347426763"/>
    <tag k="created_by" v="Potlatch 0.10f"/>
    <tag k="highway" v="residential"/>
    <tag k="name" v="Heleny"/>
    <tag k="source" v="UMP-PL, ./UMP-Szczecin/src/SZCZECIN.ulice.txt"/>
  </way>
  <way id="31249250" version="3" timestamp="2009-11-03T01:57:24Z" uid="36809" user="pfoten_weg_!_" changeset="3021530">
    <nd ref="347426628"/>
    <nd ref="347426763"/>
    <tag k="highway" v="residential"/>
    <tag k="name" v="Heleny"/>
    <tag k="source" v="UMP-PL, ./UMP-Szczecin/src/SZCZECIN.ulice.txt"/>
  </way>
  <way id="31249250" version="4" timestamp="2009-11-17T22:10:36Z" uid="30632" user="antblant" changeset="3146009">
    <nd ref="347426628"/>
    <nd ref="347426763"/>
    <tag k="highway" v="residential"/>
    <tag k="name" v="Heleny"/>
    <tag k="oneway" v="yes"/>
    <tag k="source" v="UMP-PL, ./UMP-Szczecin/src/SZCZECIN.ulice.txt"/>
  </way>
  <way id="31249251" version="6" timestamp="2010-05-01T04:45:03Z" uid="4467" user="Rosscoe" changeset="4571542">
    <nd ref="347426462"/>
    <nd ref="347426487"/>
    <nd ref="347426486"/>
    <nd ref="595537890"/>
    <nd ref="347426488"/>
    <nd ref="347426489"/>
    <nd ref="347426490"/>
    <nd ref="714628657"/>
    <tag k="highway" v="residential"/>
    <tag k="name" v="Sunset Views Boulevard"/>
  </way>
  <way id="31249251" version="7" timestamp="2010-07-08T19:20:38Z" uid="74617" user="JohnSmith" changeset="5168688">
    <nd ref="347426462"/>
    <nd ref="347426487"/>
    <nd ref="347426486"/>
    <nd ref="595537890"/>
    <nd ref="347426488"/>
    <nd ref="347426489"/>
    <nd ref="347426490"/>
    <nd ref="714628657"/>
    <tag k="highway" v="residential"/>
    <tag k="maxspeed" v="50"/>
    <tag k="maxspeed:source" v="default residential speed limit in Australia"/>
    <tag k="name" v="Sunset Views Boulevard"/>
  </way>
  <way id="31249253" version="3" timestamp="2010-07-08T19:23:51Z" uid="74617" user="JohnSmith" changeset="5168688">
    <nd ref="347426517"/>
    <nd ref="347426520"/>
    <nd ref="347426518"/>
    <tag k="highway" v="residential"/>
    <tag k="maxspeed" v="50"/>
    <tag k="maxspeed:source" v="default residential speed limit in Australia"/>
    <tag k="name" v="Eleni Place"/>
  </way>
  <way id="31249254" version="3" timestamp="2010-07-08T19:16:21Z" uid="74617" user="JohnSmith" changeset="5168688">
    <nd ref="347426520"/>
    <nd ref="347426471"/>
    <tag k="highway" v="residential"/>
    <tag k="maxspeed" v="50"/>
    <tag k="maxspeed:source" v="default residential speed limit in Australia"/>
    <tag k="name" v="Eleni Place"/>
  </way>
  <way id="31249257" version="3" timestamp="2010-07-08T19:17:22Z" uid="74617" user="JohnSmith" changeset="5168688">
    <nd ref="347426523"/>
    <nd ref="347426515"/>
    <tag k="highway" v="residential"/>
    <tag k="maxspeed" v="50"/>
    <tag k="maxspeed:source" v="default residential speed limit in Australia"/>
    <tag k="name" v="Creekwood Court"/>
  </way>
  <way id="31249257" version="4" timestamp="2011-04-20T13:36:53Z" uid="4467" user="Rosscoe" changeset="7916336">
    <nd ref="347426523"/>
    <nd ref="347426515"/>
    <tag k="highway" v="residential"/>
    <tag k="maxspeed" v="50"/>
    <tag k="name" v="Creekwood Court"/>
    <tag k="source:maxspeed" v="default residential speed limit in Australia"/>
  </way>
  <way id="31249258" version="4" timestamp="2010-05-01T04:45:11Z" uid="4467" user="Rosscoe" changeset="4571542">
    <nd ref="347426488"/>
    <nd ref="347426497"/>
    <nd ref="595551150"/>
    <nd ref="347426500"/>
    <nd ref="347426502"/>
    <nd ref="347426504"/>
    <nd ref="714628744"/>
    <tag k="highway" v="residential"/>
    <tag k="name" v="Edgevale Way"/>
  </way>
  <way id="31249258" version="5" timestamp="2010-07-08T19:21:40Z" uid="74617" user="JohnSmith" changeset="5168688">
    <nd ref="347426488"/>
    <nd ref="347426497"/>
    <nd ref="595551150"/>
    <nd ref="347426500"/>
    <nd ref="347426502"/>
    <nd ref="347426504"/>
    <nd ref="714628744"/>
    <tag k="highway" v="residential"/>
    <tag k="maxspeed" v="50"/>
    <tag k="maxspeed:source" v="default residential speed limit in Australia"/>
    <tag k="name" v="Edgevale Way"/>
  </way>
  <way id="31249259" version="3" timestamp="2010-05-01T04:45:09Z" uid="4467" user="Rosscoe" changeset="4571542">
    <nd ref="347426531"/>
    <nd ref="714628650"/>
    <tag k="highway" v="residential"/>
    <tag k="name" v="Fairview Parade"/>
    <tag k="source" v="nearmap"/>
  </way>
  <way id="31249259" version="4" timestamp="2010-07-08T19:24:24Z" uid="74617" user="JohnSmith" changeset="5168688">
    <nd ref="347426531"/>
    <nd ref="714628650"/>
    <tag k="highway" v="residential"/>
    <tag k="maxspeed" v="50"/>
    <tag k="maxspeed:source" v="default residential speed limit in Australia"/>
    <tag k="name" v="Fairview Parade"/>
    <tag k="source" v="nearmap"/>
  </way>
  <way id="31249260" version="3" timestamp="2010-07-08T19:25:02Z" uid="74617" user="JohnSmith" changeset="5168688">
    <nd ref="347426536"/>
    <nd ref="347426544"/>
    <nd ref="347426537"/>
    <tag k="highway" v="residential"/>
    <tag k="maxspeed" v="50"/>
    <tag k="maxspeed:source" v="default residential speed limit in Australia"/>
    <tag k="name" v="Cedarwood Court"/>
  </way>
  <way id="31249261" version="3" timestamp="2010-07-08T19:15:45Z" uid="74617" user="JohnSmith" changeset="5168688">
    <nd ref="347426538"/>
    <nd ref="347426543"/>
    <nd ref="347426539"/>
    <tag k="highway" v="residential"/>
    <tag k="maxspeed" v="50"/>
    <tag k="maxspeed:source" v="default residential speed limit in Australia"/>
    <tag k="name" v="Grand Place"/>
  </way>
  <way id="31249262" version="3" timestamp="2010-07-08T19:19:58Z" uid="74617" user="JohnSmith" changeset="5168688">
    <nd ref="347426540"/>
    <nd ref="347426542"/>
    <nd ref="347426541"/>
    <tag k="highway" v="residential"/>
    <tag k="maxspeed" v="50"/>
    <tag k="maxspeed:source" v="default residential speed limit in Australia"/>
    <tag k="name" v="Transit Place"/>
  </way>
  <way id="31249264" version="3" timestamp="2010-07-08T19:15:58Z" uid="74617" user="JohnSmith" changeset="5168688">
    <nd ref="347426542"/>
    <nd ref="347426497"/>
    <tag k="highway" v="residential"/>
    <tag k="maxspeed" v="50"/>
    <tag k="maxspeed:source" v="default residential speed limit in Australia"/>
    <tag k="name" v="Transit Place"/>
  </way>
  <way id="31249265" version="3" timestamp="2010-07-08T19:18:20Z" uid="74617" user="JohnSmith" changeset="5168688">
    <nd ref="347426543"/>
    <nd ref="347426500"/>
    <tag k="highway" v="residential"/>
    <tag k="maxspeed" v="50"/>
    <tag k="maxspeed:source" v="default residential speed limit in Australia"/>
    <tag k="name" v="Grand Place"/>
  </way>
  <way id="31249266" version="3" timestamp="2010-07-08T19:22:40Z" uid="74617" user="JohnSmith" changeset="5168688">
    <nd ref="347426544"/>
    <nd ref="347426504"/>
    <tag k="highway" v="residential"/>
    <tag k="maxspeed" v="50"/>
    <tag k="maxspeed:source" v="default residential speed limit in Australia"/>
    <tag k="name" v="Cedarwood Court"/>
  </way>
  <way id="31249267" version="3" timestamp="2010-07-08T19:25:17Z" uid="74617" user="JohnSmith" changeset="5168688">
    <nd ref="347426545"/>
    <nd ref="347426547"/>
    <nd ref="347426546"/>
    <tag k="highway" v="residential"/>
    <tag k="maxspeed" v="50"/>
    <tag k="maxspeed:source" v="default residential speed limit in Australia"/>
    <tag k="name" v="Windward Close"/>
  </way>
  <way id="31249268" version="3" timestamp="2010-07-08T19:25:53Z" uid="74617" user="JohnSmith" changeset="5168688">
    <nd ref="347426547"/>
    <nd ref="347426548"/>
    <tag k="highway" v="residential"/>
    <tag k="maxspeed" v="50"/>
    <tag k="maxspeed:source" v="default residential speed limit in Australia"/>
    <tag k="name" v="Windward Close"/>
  </way>
  <way id="31249269" version="3" timestamp="2010-07-08T19:16:36Z" uid="74617" user="JohnSmith" changeset="5168688">
    <nd ref="347426458"/>
    <nd ref="347426549"/>
    <nd ref="347426553"/>
    <nd ref="347426550"/>
    <tag k="highway" v="residential"/>
    <tag k="maxspeed" v="50"/>
    <tag k="maxspeed:source" v="default residential speed limit in Australia"/>
    <tag k="name" v="Cyclic Place"/>
  </way>
  <way id="31249270" version="3" timestamp="2010-07-08T19:20:52Z" uid="74617" user="JohnSmith" changeset="5168688">
    <nd ref="347426551"/>
    <nd ref="347426550"/>
    <nd ref="347426552"/>
    <tag k="highway" v="residential"/>
    <tag k="maxspeed" v="50"/>
    <tag k="maxspeed:source" v="default residential speed limit in Australia"/>
    <tag k="name" v="Cyclic Place"/>
  </way>
  <way id="31249271" version="3" timestamp="2010-05-01T04:45:10Z" uid="4467" user="Rosscoe" changeset="4571542">
    <nd ref="347426554"/>
    <nd ref="347426556"/>
    <nd ref="347426555"/>
    <tag k="highway" v="residential"/>
    <tag k="name" v="Moonlight Place"/>
    <tag k="source" v="nearmap"/>
  </way>
  <way id="31249271" version="4" timestamp="2010-07-08T19:23:22Z" uid="74617" user="JohnSmith" changeset="5168688">
    <nd ref="347426554"/>
    <nd ref="347426556"/>
    <nd ref="347426555"/>
    <tag k="highway" v="residential"/>
    <tag k="maxspeed" v="50"/>
    <tag k="maxspeed:source" v="default residential speed limit in Australia"/>
    <tag k="name" v="Moonlight Place"/>
    <tag k="source" v="nearmap"/>
  </way>
  <way id="31249273" version="3" timestamp="2010-05-01T04:45:09Z" uid="4467" user="Rosscoe" changeset="4571542">
    <nd ref="347426556"/>
    <nd ref="347426557"/>
    <tag k="highway" v="residential"/>
    <tag k="name" v="Moonlight Place"/>
    <tag k="source" v="nearmap"/>
  </way>
  <way id="31249273" version="4" timestamp="2010-07-08T19:21:57Z" uid="74617" user="JohnSmith" changeset="5168688">
    <nd ref="347426556"/>
    <nd ref="347426557"/>
    <tag k="highway" v="residential"/>
    <tag k="maxspeed" v="50"/>
    <tag k="maxspeed:source" v="default residential speed limit in Australia"/>
    <tag k="name" v="Moonlight Place"/>
    <tag k="source" v="nearmap"/>
  </way>
  <way id="31249274" version="3" timestamp="2010-05-01T04:45:04Z" uid="4467" user="Rosscoe" changeset="4571542">
    <nd ref="347426558"/>
    <nd ref="347426560"/>
    <nd ref="347426559"/>
    <tag k="highway" v="residential"/>
    <tag k="name" v="Forest Place"/>
    <tag k="source" v="nearmap"/>
  </way>
  <way id="31249274" version="4" timestamp="2010-07-08T19:26:19Z" uid="74617" user="JohnSmith" changeset="5168688">
    <nd ref="347426558"/>
    <nd ref="347426560"/>
    <nd ref="347426559"/>
    <tag k="highway" v="residential"/>
    <tag k="maxspeed" v="50"/>
    <tag k="maxspeed:source" v="default residential speed limit in Australia"/>
    <tag k="name" v="Forest Place"/>
    <tag k="source" v="nearmap"/>
  </way>
  <way id="31249275" version="3" timestamp="2010-05-01T04:45:01Z" uid="4467" user="Rosscoe" changeset="4571542">
    <nd ref="347426560"/>
    <nd ref="347426561"/>
    <tag k="highway" v="residential"/>
    <tag k="name" v="Forest Place"/>
    <tag k="source" v="nearmap"/>
  </way>
  <way id="31249275" version="4" timestamp="2010-07-08T19:16:57Z" uid="74617" user="JohnSmith" changeset="5168688">
    <nd ref="347426560"/>
    <nd ref="347426561"/>
    <tag k="highway" v="residential"/>
    <tag k="maxspeed" v="50"/>
    <tag k="maxspeed:source" v="default residential speed limit in Australia"/>
    <tag k="name" v="Forest Place"/>
    <tag k="source" v="nearmap"/>
  </way>
  <way id="31249276" version="3" timestamp="2010-05-01T04:45:09Z" uid="4467" user="Rosscoe" changeset="4571542">
    <nd ref="347426562"/>
    <nd ref="347426564"/>
    <nd ref="347426563"/>
    <tag k="highway" v="residential"/>
    <tag k="name" v="Birdsong Glade"/>
    <tag k="source" v="nearmap"/>
  </way>
  <way id="31249276" version="4" timestamp="2010-07-08T19:17:38Z" uid="74617" user="JohnSmith" changeset="5168688">
    <nd ref="347426562"/>
    <nd ref="347426564"/>
    <nd ref="347426563"/>
    <tag k="highway" v="residential"/>
    <tag k="maxspeed" v="50"/>
    <tag k="maxspeed:source" v="default residential speed limit in Australia"/>
    <tag k="name" v="Birdsong Glade"/>
    <tag k="source" v="nearmap"/>
  </way>
  <way id="31249277" version="3" timestamp="2010-05-01T04:45:05Z" uid="4467" user="Rosscoe" changeset="4571542">
    <nd ref="347426564"/>
    <nd ref="347426565"/>
    <nd ref="347426566"/>
    <tag k="highway" v="residential"/>
    <tag k="name" v="Birdsong Glade"/>
    <tag k="source" v="nearmap"/>
  </way>
  <way id="31249277" version="4" timestamp="2010-07-08T19:20:14Z" uid="74617" user="JohnSmith" changeset="5168688">
    <nd ref="347426564"/>
    <nd ref="347426565"/>
    <nd ref="347426566"/>
    <tag k="highway" v="residential"/>
    <tag k="maxspeed" v="50"/>
    <tag k="maxspeed:source" v="default residential speed limit in Australia"/>
    <tag k="name" v="Birdsong Glade"/>
    <tag k="source" v="nearmap"/>
  </way>
  <way id="31249278" version="3" timestamp="2010-05-01T04:45:02Z" uid="4467" user="Rosscoe" changeset="4571542">
    <nd ref="347426567"/>
    <nd ref="347426569"/>
    <nd ref="347426568"/>
    <tag k="highway" v="residential"/>
    <tag k="name" v="Wildwood Place"/>
    <tag k="source" v="nearmap"/>
  </way>
  <way id="31249278" version="4" timestamp="2010-07-08T19:24:38Z" uid="74617" user="JohnSmith" changeset="5168688">
    <nd ref="347426567"/>
    <nd ref="347426569"/>
    <nd ref="347426568"/>
    <tag k="highway" v="residential"/>
    <tag k="maxspeed" v="50"/>
    <tag k="maxspeed:source" v="default residential speed limit in Australia"/>
    <tag k="name" v="Wildwood Place"/>
    <tag k="source" v="nearmap"/>
  </way>
  <way id="31249279" version="3" timestamp="2010-05-01T04:45:00Z" uid="4467" user="Rosscoe" changeset="4571542">
    <nd ref="347426569"/>
    <nd ref="347426570"/>
    <nd ref="347426571"/>
    <tag k="highway" v="residential"/>
    <tag k="name" v="Wildwood Place"/>
    <tag k="source" v="nearmap"/>
  </way>
  <way id="31249279" version="4" timestamp="2010-07-08T19:27:13Z" uid="74617" user="JohnSmith" changeset="5168688">
    <nd ref="347426569"/>
    <nd ref="347426570"/>
    <nd ref="347426571"/>
    <tag k="highway" v="residential"/>
    <tag k="maxspeed" v="50"/>
    <tag k="maxspeed:source" v="default residential speed limit in Australia"/>
    <tag k="name" v="Wildwood Place"/>
    <tag k="source" v="nearmap"/>
  </way>
  <way id="31249280" version="5" timestamp="2010-05-01T04:45:01Z" uid="4467" user="Rosscoe" changeset="4571542">
    <nd ref="347427206"/>
    <nd ref="347427205"/>
    <nd ref="347427227"/>
    <nd ref="347427224"/>
    <nd ref="347427204"/>
    <nd ref="347427203"/>
    <nd ref="347427202"/>
    <nd ref="347427201"/>
    <nd ref="347427200"/>
    <nd ref="347427199"/>
    <nd ref="347427198"/>
    <nd ref="347427197"/>
    <nd ref="347427196"/>
    <nd ref="347427195"/>
    <nd ref="347427223"/>
    <nd ref="714628825"/>
    <tag k="highway" v="residential"/>
    <tag k="name" v="Autumn Fields Circuit"/>
  </way>
  <way id="31249280" version="6" timestamp="2010-07-08T19:16:20Z" uid="74617" user="JohnSmith" changeset="5168688">
    <nd ref="347427206"/>
    <nd ref="347427205"/>
    <nd ref="347427227"/>
    <nd ref="347427224"/>
    <nd ref="347427204"/>
    <nd ref="347427203"/>
    <nd ref="347427202"/>
    <nd ref="347427201"/>
    <nd ref="347427200"/>
    <nd ref="347427199"/>
    <nd ref="347427198"/>
    <nd ref="347427197"/>
    <nd ref="347427196"/>
    <nd ref="347427195"/>
    <nd ref="347427223"/>
    <nd ref="714628825"/>
    <tag k="highway" v="residential"/>
    <tag k="maxspeed" v="50"/>
    <tag k="maxspeed:source" v="default residential speed limit in Australia"/>
    <tag k="name" v="Autumn Fields Circuit"/>
  </way>
  <way id="31249280" version="7" timestamp="2011-04-20T13:36:55Z" uid="4467" user="Rosscoe" changeset="7916336">
    <nd ref="347427206"/>
    <nd ref="347427205"/>
    <nd ref="347427227"/>
    <nd ref="347427224"/>
    <nd ref="347427204"/>
    <nd ref="347427203"/>
    <nd ref="347427202"/>
    <nd ref="347427201"/>
    <nd ref="347427200"/>
    <nd ref="347427199"/>
    <nd ref="347427198"/>
    <nd ref="347427197"/>
    <nd ref="347427196"/>
    <nd ref="347427195"/>
    <nd ref="347427223"/>
    <nd ref="714628825"/>
    <tag k="highway" v="residential"/>
    <tag k="maxspeed" v="50"/>
    <tag k="name" v="Autumn Fields Circuit"/>
    <tag k="source:maxspeed" v="default residential speed limit in Australia"/>
  </way>
  <way id="31249282" version="4" timestamp="2010-06-02T14:40:19Z" uid="4467" user="Rosscoe" changeset="4884784">
    <nd ref="281940405"/>
    <nd ref="762291000"/>
    <nd ref="347429806"/>
    <nd ref="347426572"/>
    <tag k="highway" v="tertiary"/>
    <tag k="name" v="Baden Powel Drive"/>
    <tag k="oneway" v="yes"/>
    <tag k="source" v="nearmap"/>
  </way>
  <way id="31249283" version="3" timestamp="2010-06-02T14:39:57Z" uid="4467" user="Rosscoe" changeset="4884784">
    <nd ref="347426572"/>
    <nd ref="762290915"/>
    <nd ref="347426574"/>
    <nd ref="347426575"/>
    <nd ref="762290818"/>
    <tag k="highway" v="tertiary"/>
    <tag k="name" v="Baden Powel Drive"/>
    <tag k="oneway" v="yes"/>
    <tag k="source" v="nearmap"/>
  </way>
  <way id="31249284" version="4" timestamp="2010-05-01T04:45:12Z" uid="4467" user="Rosscoe" changeset="4571542">
    <nd ref="347426576"/>
    <nd ref="347426577"/>
    <nd ref="347426578"/>
    <nd ref="347426581"/>
    <nd ref="347426588"/>
    <nd ref="347426589"/>
    <nd ref="347426590"/>
    <nd ref="347426591"/>
    <nd ref="347426592"/>
    <tag k="highway" v="residential"/>
    <tag k="name" v="Duck Haven Place"/>
  </way>
  <way id="31249284" version="5" timestamp="2010-07-08T19:26:17Z" uid="74617" user="JohnSmith" changeset="5168688">
    <nd ref="347426576"/>
    <nd ref="347426577"/>
    <nd ref="347426578"/>
    <nd ref="347426581"/>
    <nd ref="347426588"/>
    <nd ref="347426589"/>
    <nd ref="347426590"/>
    <nd ref="347426591"/>
    <nd ref="347426592"/>
    <tag k="highway" v="residential"/>
    <tag k="maxspeed" v="50"/>
    <tag k="maxspeed:source" v="default residential speed limit in Australia"/>
    <tag k="name" v="Duck Haven Place"/>
  </way>
  <way id="31249284" version="6" timestamp="2011-04-20T13:36:34Z" uid="4467" user="Rosscoe" changeset="7916336">
    <nd ref="347426576"/>
    <nd ref="347426577"/>
    <nd ref="347426578"/>
    <nd ref="347426581"/>
    <nd ref="347426588"/>
    <nd ref="347426589"/>
    <nd ref="347426590"/>
    <nd ref="347426591"/>
    <nd ref="347426592"/>
    <tag k="highway" v="residential"/>
    <tag k="maxspeed" v="50"/>
    <tag k="name" v="Duck Haven Place"/>
    <tag k="source:maxspeed" v="default residential speed limit in Australia"/>
  </way>
  <way id="31249285" version="3" timestamp="2010-07-08T19:16:57Z" uid="74617" user="JohnSmith" changeset="5168688">
    <nd ref="347426593"/>
    <nd ref="347426592"/>
    <nd ref="347426594"/>
    <tag k="highway" v="residential"/>
    <tag k="maxspeed" v="50"/>
    <tag k="maxspeed:source" v="default residential speed limit in Australia"/>
    <tag k="name" v="Duck Haven Place"/>
  </way>
  <way id="31249285" version="4" timestamp="2011-04-20T13:36:17Z" uid="4467" user="Rosscoe" changeset="7916336">
    <nd ref="347426593"/>
    <nd ref="347426592"/>
    <nd ref="347426594"/>
    <tag k="highway" v="residential"/>
    <tag k="maxspeed" v="50"/>
    <tag k="name" v="Duck Haven Place"/>
    <tag k="source:maxspeed" v="default residential speed limit in Australia"/>
  </way>
  <way id="31249286" version="3" timestamp="2010-07-08T19:21:12Z" uid="74617" user="JohnSmith" changeset="5168688">
    <nd ref="347426595"/>
    <nd ref="347426597"/>
    <nd ref="347426596"/>
    <tag k="highway" v="residential"/>
    <tag k="maxspeed" v="50"/>
    <tag k="maxspeed:source" v="default residential speed limit in Australia"/>
    <tag k="name" v="Rockbank Court"/>
  </way>
  <way id="31249286" version="4" timestamp="2011-04-20T13:36:25Z" uid="4467" user="Rosscoe" changeset="7916336">
    <nd ref="347426595"/>
    <nd ref="347426597"/>
    <nd ref="347426596"/>
    <tag k="highway" v="residential"/>
    <tag k="maxspeed" v="50"/>
    <tag k="name" v="Rockbank Court"/>
    <tag k="source:maxspeed" v="default residential speed limit in Australia"/>
  </way>
  <way id="31249287" version="4" timestamp="2010-07-08T19:23:50Z" uid="74617" user="JohnSmith" changeset="5168688">
    <nd ref="347426597"/>
    <nd ref="347426598"/>
    <nd ref="347426599"/>
    <nd ref="347426600"/>
    <nd ref="736358623"/>
    <nd ref="347426601"/>
    <tag k="highway" v="residential"/>
    <tag k="maxspeed" v="50"/>
    <tag k="maxspeed:source" v="default residential speed limit in Australia"/>
    <tag k="name" v="Rockbank Court"/>
  </way>
  <way id="31249287" version="5" timestamp="2011-04-20T13:36:53Z" uid="4467" user="Rosscoe" changeset="7916336">
    <nd ref="347426597"/>
    <nd ref="347426598"/>
    <nd ref="347426599"/>
    <nd ref="347426600"/>
    <nd ref="736358623"/>
    <nd ref="347426601"/>
    <tag k="highway" v="residential"/>
    <tag k="maxspeed" v="50"/>
    <tag k="name" v="Rockbank Court"/>
    <tag k="source:maxspeed" v="default residential speed limit in Australia"/>
  </way>
  <way id="31249352" version="7" timestamp="2010-05-01T04:45:11Z" uid="4467" user="Rosscoe" changeset="4571542">
    <nd ref="714628833"/>
    <nd ref="347427208"/>
    <nd ref="571807347"/>
    <nd ref="571807160"/>
    <nd ref="347426576"/>
    <nd ref="595541501"/>
    <nd ref="347426514"/>
    <nd ref="347427206"/>
    <nd ref="347427209"/>
    <nd ref="347427221"/>
    <nd ref="714628731"/>
    <tag k="highway" v="tertiary"/>
    <tag k="name" v="Rose Grange Boulevard"/>
    <tag k="source" v="nearmap"/>
  </way>
  <way id="31249353" version="3" timestamp="2010-07-08T19:16:01Z" uid="74617" user="JohnSmith" changeset="5168688">
    <nd ref="347427211"/>
    <nd ref="347427222"/>
    <nd ref="347427212"/>
    <nd ref="347427213"/>
    <tag k="highway" v="residential"/>
    <tag k="maxspeed" v="50"/>
    <tag k="maxspeed:source" v="default residential speed limit in Australia"/>
    <tag k="name" v="Cecilia Court"/>
  </way>
  <way id="31249353" version="4" timestamp="2011-04-20T13:36:51Z" uid="4467" user="Rosscoe" changeset="7916336">
    <nd ref="347427211"/>
    <nd ref="347427222"/>
    <nd ref="347427212"/>
    <nd ref="347427213"/>
    <tag k="highway" v="residential"/>
    <tag k="maxspeed" v="50"/>
    <tag k="name" v="Cecilia Court"/>
    <tag k="source:maxspeed" v="default residential speed limit in Australia"/>
  </way>
  <way id="31249354" version="4" timestamp="2010-07-08T19:20:17Z" uid="74617" user="JohnSmith" changeset="5168688">
    <nd ref="347427217"/>
    <nd ref="347427219"/>
    <nd ref="347427220"/>
    <nd ref="736369554"/>
    <nd ref="347427221"/>
    <tag k="highway" v="residential"/>
    <tag k="maxspeed" v="50"/>
    <tag k="maxspeed:source" v="default residential speed limit in Australia"/>
    <tag k="name" v="Briar Court"/>
  </way>
  <way id="31249354" version="5" timestamp="2011-04-20T13:36:11Z" uid="4467" user="Rosscoe" changeset="7916336">
    <nd ref="347427217"/>
    <nd ref="347427219"/>
    <nd ref="347427220"/>
    <nd ref="736369554"/>
    <nd ref="347427221"/>
    <tag k="highway" v="residential"/>
    <tag k="maxspeed" v="50"/>
    <tag k="name" v="Briar Court"/>
    <tag k="source:maxspeed" v="default residential speed limit in Australia"/>
  </way>
  <way id="31249355" version="3" timestamp="2010-07-08T19:22:44Z" uid="74617" user="JohnSmith" changeset="5168688">
    <nd ref="347427223"/>
    <nd ref="347427225"/>
    <nd ref="347427224"/>
    <tag k="highway" v="residential"/>
    <tag k="maxspeed" v="50"/>
    <tag k="maxspeed:source" v="default residential speed limit in Australia"/>
    <tag k="name" v="Aberdeen Way"/>
  </way>
  <way id="31249355" version="4" timestamp="2011-04-20T13:36:40Z" uid="4467" user="Rosscoe" changeset="7916336">
    <nd ref="347427223"/>
    <nd ref="347427225"/>
    <nd ref="347427224"/>
    <tag k="highway" v="residential"/>
    <tag k="maxspeed" v="50"/>
    <tag k="name" v="Aberdeen Way"/>
    <tag k="source:maxspeed" v="default residential speed limit in Australia"/>
  </way>
  <way id="31249356" version="3" timestamp="2010-07-08T19:23:26Z" uid="74617" user="JohnSmith" changeset="5168688">
    <nd ref="347427225"/>
    <nd ref="347427226"/>
    <tag k="highway" v="residential"/>
    <tag k="maxspeed" v="50"/>
    <tag k="maxspeed:source" v="default residential speed limit in Australia"/>
    <tag k="name" v="Jersey Court"/>
  </way>
  <way id="31249356" version="4" timestamp="2011-04-20T13:36:47Z" uid="4467" user="Rosscoe" changeset="7916336">
    <nd ref="347427225"/>
    <nd ref="347427226"/>
    <tag k="highway" v="residential"/>
    <tag k="maxspeed" v="50"/>
    <tag k="name" v="Jersey Court"/>
    <tag k="source:maxspeed" v="default residential speed limit in Australia"/>
  </way>
  <way id="31249357" version="3" timestamp="2010-07-08T19:25:56Z" uid="74617" user="JohnSmith" changeset="5168688">
    <nd ref="347427227"/>
    <nd ref="347427228"/>
    <nd ref="347427229"/>
    <nd ref="347427230"/>
    <nd ref="347427231"/>
    <nd ref="347427234"/>
    <nd ref="347427232"/>
    <tag k="highway" v="residential"/>
    <tag k="maxspeed" v="50"/>
    <tag k="maxspeed:source" v="default residential speed limit in Australia"/>
    <tag k="name" v="Devon Lane"/>
  </way>
  <way id="31249357" version="4" timestamp="2011-04-20T13:36:30Z" uid="4467" user="Rosscoe" changeset="7916336">
    <nd ref="347427227"/>
    <nd ref="347427228"/>
    <nd ref="347427229"/>
    <nd ref="347427230"/>
    <nd ref="347427231"/>
    <nd ref="347427234"/>
    <nd ref="347427232"/>
    <tag k="highway" v="residential"/>
    <tag k="maxspeed" v="50"/>
    <tag k="name" v="Devon Lane"/>
    <tag k="source:maxspeed" v="default residential speed limit in Australia"/>
  </way>
  <way id="31249358" version="3" timestamp="2010-07-08T19:18:23Z" uid="74617" user="JohnSmith" changeset="5168688">
    <nd ref="347427233"/>
    <nd ref="347427234"/>
    <tag k="highway" v="residential"/>
    <tag k="maxspeed" v="50"/>
    <tag k="maxspeed:source" v="default residential speed limit in Australia"/>
    <tag k="name" v="Devon Lane"/>
  </way>
  <way id="31249358" version="4" timestamp="2011-04-20T13:36:37Z" uid="4467" user="Rosscoe" changeset="7916336">
    <nd ref="347427233"/>
    <nd ref="347427234"/>
    <tag k="highway" v="residential"/>
    <tag k="maxspeed" v="50"/>
    <tag k="name" v="Devon Lane"/>
    <tag k="source:maxspeed" v="default residential speed limit in Australia"/>
  </way>
  <way id="31249359" version="3" timestamp="2010-05-01T04:45:01Z" uid="4467" user="Rosscoe" changeset="4571542">
    <nd ref="347427236"/>
    <nd ref="714628678"/>
    <tag k="highway" v="residential"/>
    <tag k="name" v="Alfred Park Drive"/>
    <tag k="source" v="nearmap"/>
  </way>
  <way id="31249359" version="4" timestamp="2010-07-08T19:20:53Z" uid="74617" user="JohnSmith" changeset="5168688">
    <nd ref="347427236"/>
    <nd ref="714628678"/>
    <tag k="highway" v="residential"/>
    <tag k="maxspeed" v="50"/>
    <tag k="maxspeed:source" v="default residential speed limit in Australia"/>
    <tag k="name" v="Alfred Park Drive"/>
    <tag k="source" v="nearmap"/>
  </way>
  <way id="31249359" version="5" timestamp="2011-04-20T13:36:21Z" uid="4467" user="Rosscoe" changeset="7916336">
    <nd ref="347427236"/>
    <nd ref="714628678"/>
    <tag k="highway" v="residential"/>
    <tag k="maxspeed" v="50"/>
    <tag k="name" v="Alfred Park Drive"/>
    <tag k="source" v="nearmap"/>
    <tag k="source:maxspeed" v="default residential speed limit in Australia"/>
  </way>
  <way id="31249360" version="4" timestamp="2010-05-01T04:45:01Z" uid="4467" user="Rosscoe" changeset="4571542">
    <nd ref="347427237"/>
    <nd ref="347427238"/>
    <nd ref="347427239"/>
    <nd ref="347427240"/>
    <nd ref="347427241"/>
    <nd ref="347427242"/>
    <nd ref="347427243"/>
    <nd ref="347427244"/>
    <nd ref="714628818"/>
    <tag k="highway" v="residential"/>
    <tag k="name" v="Damask Drive"/>
  </way>
  <way id="31249360" version="5" timestamp="2010-07-08T19:26:11Z" uid="74617" user="JohnSmith" changeset="5168688">
    <nd ref="347427237"/>
    <nd ref="347427238"/>
    <nd ref="347427239"/>
    <nd ref="347427240"/>
    <nd ref="347427241"/>
    <nd ref="347427242"/>
    <nd ref="347427243"/>
    <nd ref="347427244"/>
    <nd ref="714628818"/>
    <tag k="highway" v="residential"/>
    <tag k="maxspeed" v="50"/>
    <tag k="maxspeed:source" v="default residential speed limit in Australia"/>
    <tag k="name" v="Damask Drive"/>
  </way>
  <way id="31249361" version="4" timestamp="2010-07-08T19:16:52Z" uid="74617" user="JohnSmith" changeset="5168688">
    <nd ref="347427251"/>
    <nd ref="347427252"/>
    <nd ref="347427253"/>
    <nd ref="347427254"/>
    <tag k="highway" v="residential"/>
    <tag k="maxspeed" v="50"/>
    <tag k="maxspeed:source" v="default residential speed limit in Australia"/>
    <tag k="name" v="Pegasus Court"/>
  </way>
  <way id="31249362" version="3" timestamp="2010-07-08T19:21:07Z" uid="74617" user="JohnSmith" changeset="5168688">
    <nd ref="347427256"/>
    <nd ref="347427254"/>
    <nd ref="347427257"/>
    <nd ref="347427258"/>
    <nd ref="347427248"/>
    <tag k="highway" v="residential"/>
    <tag k="maxspeed" v="50"/>
    <tag k="maxspeed:source" v="default residential speed limit in Australia"/>
    <tag k="name" v="Bonica Street"/>
  </way>
  <way id="31249363" version="3" timestamp="2010-07-08T19:23:43Z" uid="74617" user="JohnSmith" changeset="5168688">
    <nd ref="347427259"/>
    <nd ref="347427250"/>
    <nd ref="347427260"/>
    <nd ref="347427261"/>
    <nd ref="347427266"/>
    <nd ref="347427267"/>
    <tag k="highway" v="residential"/>
    <tag k="maxspeed" v="50"/>
    <tag k="maxspeed:source" v="default residential speed limit in Australia"/>
    <tag k="name" v="Rosamond Avenue"/>
  </way>
  <way id="31249363" version="4" timestamp="2011-04-20T13:36:45Z" uid="4467" user="Rosscoe" changeset="7916336">
    <nd ref="347427259"/>
    <nd ref="347427250"/>
    <nd ref="347427260"/>
    <nd ref="347427261"/>
    <nd ref="347427266"/>
    <nd ref="347427267"/>
    <tag k="highway" v="residential"/>
    <tag k="maxspeed" v="50"/>
    <tag k="name" v="Rosamond Avenue"/>
    <tag k="source:maxspeed" v="default residential speed limit in Australia"/>
  </way>
  <way id="31249365" version="4" timestamp="2010-07-08T19:27:01Z" uid="74617" user="JohnSmith" changeset="5168688">
    <nd ref="347427268"/>
    <nd ref="347430488"/>
    <nd ref="347427267"/>
    <nd ref="347427269"/>
    <tag k="highway" v="residential"/>
    <tag k="maxspeed" v="50"/>
    <tag k="maxspeed:source" v="default residential speed limit in Australia"/>
    <tag k="name" v="Ingot Avenue"/>
  </way>
  <way id="31249365" version="5" timestamp="2011-04-20T13:36:34Z" uid="4467" user="Rosscoe" changeset="7916336">
    <nd ref="347427268"/>
    <nd ref="347430488"/>
    <nd ref="347427267"/>
    <nd ref="347427269"/>
    <tag k="highway" v="residential"/>
    <tag k="maxspeed" v="50"/>
    <tag k="name" v="Ingot Avenue"/>
    <tag k="source:maxspeed" v="default residential speed limit in Australia"/>
  </way>
  <way id="31249366" version="5" timestamp="2010-07-08T19:19:23Z" uid="74617" user="JohnSmith" changeset="5168688">
    <nd ref="347427272"/>
    <nd ref="350950640"/>
    <nd ref="347427273"/>
    <nd ref="347427274"/>
    <nd ref="347427261"/>
    <tag k="highway" v="residential"/>
    <tag k="maxspeed" v="50"/>
    <tag k="maxspeed:source" v="default residential speed limit in Australia"/>
    <tag k="name" v="Chloris Court"/>
  </way>
  <way id="31249368" version="3" timestamp="2010-05-01T04:45:07Z" uid="4467" user="Rosscoe" changeset="4571542">
    <nd ref="347427185"/>
    <nd ref="347427186"/>
    <nd ref="347427187"/>
    <nd ref="347427188"/>
    <nd ref="347427189"/>
    <tag k="highway" v="tertiary"/>
    <tag k="name" v="Baden Powel Drive"/>
    <tag k="oneway" v="yes"/>
  </way>
  <way id="31249369" version="3" timestamp="2010-05-01T04:45:03Z" uid="4467" user="Rosscoe" changeset="4571542">
    <nd ref="347427185"/>
    <nd ref="347427278"/>
    <nd ref="714628587"/>
    <tag k="highway" v="tertiary"/>
    <tag k="name" v="Baden Powel Drive"/>
    <tag k="source" v="nearmap"/>
  </way>
  <way id="31249370" version="3" timestamp="2010-07-08T19:24:56Z" uid="74617" user="JohnSmith" changeset="5168688">
    <nd ref="347427278"/>
    <nd ref="347427279"/>
    <nd ref="347427280"/>
    <tag k="highway" v="residential"/>
    <tag k="maxspeed" v="50"/>
    <tag k="maxspeed:source" v="default residential speed limit in Australia"/>
    <tag k="name" v="Rosebud Street"/>
  </way>
  <way id="31249371" version="3" timestamp="2010-07-08T19:15:39Z" uid="74617" user="JohnSmith" changeset="5168688">
    <nd ref="347427279"/>
    <nd ref="347427281"/>
    <tag k="highway" v="residential"/>
    <tag k="maxspeed" v="50"/>
    <tag k="maxspeed:source" v="default residential speed limit in Australia"/>
    <tag k="name" v="Flora Way"/>
  </way>
  <way id="31249372" version="3" timestamp="2010-05-01T04:45:04Z" uid="4467" user="Rosscoe" changeset="4571542">
    <nd ref="347427242"/>
    <nd ref="347427286"/>
    <nd ref="347427282"/>
    <nd ref="347427283"/>
    <nd ref="347427284"/>
    <nd ref="347427285"/>
    <tag k="highway" v="residential"/>
    <tag k="name" v="Annies Way"/>
    <tag k="source" v="nearmap"/>
  </way>
  <way id="31249372" version="4" timestamp="2010-07-08T19:16:13Z" uid="74617" user="JohnSmith" changeset="5168688">
    <nd ref="347427242"/>
    <nd ref="347427286"/>
    <nd ref="347427282"/>
    <nd ref="347427283"/>
    <nd ref="347427284"/>
    <nd ref="347427285"/>
    <tag k="highway" v="residential"/>
    <tag k="maxspeed" v="50"/>
    <tag k="maxspeed:source" v="default residential speed limit in Australia"/>
    <tag k="name" v="Annies Way"/>
    <tag k="source" v="nearmap"/>
  </way>
  <way id="31249373" version="3" timestamp="2010-07-08T19:18:40Z" uid="74617" user="JohnSmith" changeset="5168688">
    <nd ref="347427287"/>
    <nd ref="347427283"/>
    <tag k="highway" v="residential"/>
    <tag k="maxspeed" v="50"/>
    <tag k="maxspeed:source" v="default residential speed limit in Australia"/>
    <tag k="name" v="Indigo Court"/>
  </way>
  <way id="31249374" version="4" timestamp="2010-07-08T19:22:58Z" uid="74617" user="JohnSmith" changeset="5168688">
    <nd ref="347427288"/>
    <nd ref="347427290"/>
    <nd ref="347427291"/>
    <nd ref="347427292"/>
    <nd ref="595538354"/>
    <nd ref="347427299"/>
    <nd ref="347427293"/>
    <nd ref="660469016"/>
    <tag k="highway" v="residential"/>
    <tag k="maxspeed" v="50"/>
    <tag k="maxspeed:source" v="default residential speed limit in Australia"/>
    <tag k="name" v="Timberside Drive"/>
  </way>
  <way id="31249376" version="3" timestamp="2010-07-08T19:24:26Z" uid="74617" user="JohnSmith" changeset="5168688">
    <nd ref="347427299"/>
    <nd ref="347427300"/>
    <tag k="highway" v="residential"/>
    <tag k="maxspeed" v="50"/>
    <tag k="maxspeed:source" v="default residential speed limit in Australia"/>
    <tag k="name" v="Fieldstone Place"/>
  </way>
  <way id="31249378" version="4" timestamp="2010-07-08T19:19:17Z" uid="74617" user="JohnSmith" changeset="5168688">
    <nd ref="347427305"/>
    <nd ref="347427307"/>
    <nd ref="595538370"/>
    <nd ref="347427309"/>
    <nd ref="347427308"/>
    <nd ref="347427302"/>
    <tag k="highway" v="residential"/>
    <tag k="maxspeed" v="50"/>
    <tag k="maxspeed:source" v="default residential speed limit in Australia"/>
    <tag k="name" v="Silkwood Boulevard"/>
    <tag k="oneway" v="yes"/>
  </way>
  <way id="31249381" version="3" timestamp="2010-07-08T19:25:04Z" uid="74617" user="JohnSmith" changeset="5168688">
    <nd ref="347427303"/>
    <nd ref="347427310"/>
    <nd ref="347427304"/>
    <nd ref="347427305"/>
    <tag k="highway" v="residential"/>
    <tag k="maxspeed" v="50"/>
    <tag k="maxspeed:source" v="default residential speed limit in Australia"/>
    <tag k="name" v="Silkwood Boulevard"/>
    <tag k="oneway" v="yes"/>
  </way>
  <way id="31249383" version="7" timestamp="2010-07-08T19:20:00Z" uid="74617" user="JohnSmith" changeset="5168688">
    <nd ref="347427312"/>
    <nd ref="736221044"/>
    <nd ref="347346929"/>
    <nd ref="347427313"/>
    <nd ref="347427314"/>
    <nd ref="347427315"/>
    <nd ref="595538247"/>
    <nd ref="347427316"/>
    <nd ref="347427323"/>
    <nd ref="347427324"/>
    <nd ref="347427325"/>
    <nd ref="347346942"/>
    <nd ref="347427326"/>
    <nd ref="347427327"/>
    <nd ref="347427328"/>
    <tag k="highway" v="residential"/>
    <tag k="maxspeed" v="50"/>
    <tag k="maxspeed:source" v="default residential speed limit in Australia"/>
    <tag k="name" v="Leatherwood Drive"/>
  </way>
  <way id="31249384" version="5" timestamp="2010-07-08T19:16:08Z" uid="74617" user="JohnSmith" changeset="5168688">
    <nd ref="347427333"/>
    <nd ref="347427334"/>
    <nd ref="347427335"/>
    <tag k="highway" v="residential"/>
    <tag k="maxspeed" v="50"/>
    <tag k="maxspeed:source" v="default residential speed limit in Australia"/>
    <tag k="name" v="Eclipse Place"/>
  </way>
  <way id="31249385" version="4" timestamp="2010-07-08T19:18:33Z" uid="74617" user="JohnSmith" changeset="5168688">
    <nd ref="347427330"/>
    <nd ref="347427340"/>
    <nd ref="347427339"/>
    <nd ref="347427338"/>
    <nd ref="347427337"/>
    <nd ref="347427336"/>
    <nd ref="347427335"/>
    <nd ref="347427341"/>
    <nd ref="347427342"/>
    <tag k="highway" v="residential"/>
    <tag k="maxspeed" v="50"/>
    <tag k="maxspeed:source" v="default residential speed limit in Australia"/>
    <tag k="name" v="Empire Drive"/>
  </way>
  <way id="31249385" version="5" timestamp="2011-04-20T13:36:33Z" uid="4467" user="Rosscoe" changeset="7916336">
    <nd ref="347427330"/>
    <nd ref="347427340"/>
    <nd ref="347427339"/>
    <nd ref="347427338"/>
    <nd ref="347427337"/>
    <nd ref="347427336"/>
    <nd ref="347427335"/>
    <nd ref="347427341"/>
    <nd ref="347427342"/>
    <tag k="highway" v="residential"/>
    <tag k="maxspeed" v="50"/>
    <tag k="name" v="Empire Drive"/>
    <tag k="source:maxspeed" v="default residential speed limit in Australia"/>
  </way>
  <way id="31249387" version="7" timestamp="2010-05-10T14:00:35Z" uid="4467" user="Rosscoe" changeset="4659568">
    <nd ref="347427328"/>
    <nd ref="347427350"/>
    <nd ref="347427351"/>
    <nd ref="347427352"/>
    <nd ref="347427349"/>
    <nd ref="347427348"/>
    <nd ref="347427347"/>
    <nd ref="347427346"/>
    <nd ref="347427345"/>
    <nd ref="347427344"/>
    <nd ref="347427343"/>
    <nd ref="728537762"/>
    <tag k="highway" v="residential"/>
    <tag k="name" v="Phoenix Avenue"/>
  </way>
  <way id="31249387" version="8" timestamp="2010-07-08T19:25:27Z" uid="74617" user="JohnSmith" changeset="5168688">
    <nd ref="347427328"/>
    <nd ref="347427350"/>
    <nd ref="347427351"/>
    <nd ref="347427352"/>
    <nd ref="347427349"/>
    <nd ref="347427348"/>
    <nd ref="347427347"/>
    <nd ref="347427346"/>
    <nd ref="347427345"/>
    <nd ref="347427344"/>
    <nd ref="347427343"/>
    <nd ref="728537762"/>
    <tag k="highway" v="residential"/>
    <tag k="maxspeed" v="50"/>
    <tag k="maxspeed:source" v="default residential speed limit in Australia"/>
    <tag k="name" v="Phoenix Avenue"/>
  </way>
  <way id="31249388" version="4" timestamp="2010-07-08T19:26:06Z" uid="74617" user="JohnSmith" changeset="5168688">
    <nd ref="347427365"/>
    <nd ref="347427368"/>
    <nd ref="347427366"/>
    <nd ref="347427367"/>
    <tag k="highway" v="residential"/>
    <tag k="maxspeed" v="50"/>
    <tag k="maxspeed:source" v="default residential speed limit in Australia"/>
    <tag k="name" v="Eton Court"/>
  </way>
  <way id="31249389" version="4" timestamp="2010-07-08T19:16:48Z" uid="74617" user="JohnSmith" changeset="5168688">
    <nd ref="347427368"/>
    <nd ref="347427369"/>
    <tag k="highway" v="residential"/>
    <tag k="maxspeed" v="50"/>
    <tag k="maxspeed:source" v="default residential speed limit in Australia"/>
    <tag k="name" v="Eton Court"/>
  </way>
  <way id="31249411" version="5" timestamp="2010-05-10T14:00:55Z" uid="4467" user="Rosscoe" changeset="4659568"/>
  <way id="31249412" version="6" timestamp="2010-05-10T14:00:56Z" uid="4467" user="Rosscoe" changeset="4659568"/>
  <way id="31249413" version="1" timestamp="2009-02-19T00:35:25Z" uid="17602" user="B10xyz" changeset="558148">
    <nd ref="347428234"/>
    <nd ref="347428236"/>
    <nd ref="347428238"/>
    <nd ref="347428240"/>
    <tag k="highway" v="footway"/>
  </way>
  <way id="31249413" version="2" timestamp="2009-03-15T01:52:55Z" uid="17602" user="B10xyz" changeset="811362">
    <nd ref="347428234"/>
    <nd ref="347428236"/>
    <nd ref="347428238"/>
    <nd ref="347428240"/>
    <tag k="highway" v="footway"/>
    <tag k="name" v="CALLE PUGLIESE"/>
  </way>
  <way id="31249413" version="3" timestamp="2009-07-10T23:20:36Z" uid="17602" user="B10xyz" changeset="1793392">
    <nd ref="347428234"/>
    <nd ref="347428236"/>
    <nd ref="347428238"/>
    <nd ref="347428240"/>
    <tag k="highway" v="footway"/>
    <tag k="visible_name" v="CALLE PUGLIESE"/>
  </way>
  <way id="31249413" version="4" timestamp="2009-11-17T18:07:26Z" uid="17602" user="B10xyz" changeset="3143268">
    <nd ref="347428234"/>
    <nd ref="566305897"/>
    <nd ref="347428236"/>
    <tag k="highway" v="footway"/>
    <tag k="visible_name" v="CALLE PUGLIESE"/>
  </way>
  <way id="31249414" version="1" timestamp="2009-02-19T00:35:26Z" uid="17602" user="B10xyz" changeset="558148">
    <nd ref="347428242"/>
    <nd ref="347428244"/>
    <tag k="highway" v="footway"/>
  </way>
  <way id="31249414" version="2" timestamp="2010-03-21T21:30:53Z" uid="17602" user="B10xyz" changeset="4195922">
    <nd ref="347428242"/>
    <nd ref="347428244"/>
    <tag k="highway" v="footway"/>
    <tag k="visible_name" v="CALLE SAGREDO"/>
  </way>
  <way id="31249415" version="1" timestamp="2009-02-19T00:35:26Z" uid="17602" user="B10xyz" changeset="558148">
    <nd ref="347428246"/>
    <nd ref="191129588"/>
    <tag k="highway" v="footway"/>
  </way>
  <way id="31249415" version="2" timestamp="2009-11-17T18:07:25Z" uid="17602" user="B10xyz" changeset="3143268">
    <nd ref="347428246"/>
    <nd ref="191129588"/>
    <tag k="highway" v="footway"/>
    <tag k="visible_name" v="RAMO PRIULI"/>
  </way>
  <way id="31249471" version="4" timestamp="2010-07-08T19:19:21Z" uid="74617" user="JohnSmith" changeset="5168688">
    <nd ref="347429009"/>
    <nd ref="347429010"/>
    <tag k="highway" v="residential"/>
    <tag k="maxspeed" v="50"/>
    <tag k="maxspeed:source" v="default residential speed limit in Australia"/>
    <tag k="name" v="Orchid Street"/>
  </way>
  <way id="31249472" version="5" timestamp="2010-07-08T19:18:05Z" uid="74617" user="JohnSmith" changeset="5168688">
    <nd ref="347429011"/>
    <nd ref="347429012"/>
    <nd ref="347429013"/>
    <nd ref="347429014"/>
    <nd ref="571809218"/>
    <nd ref="347429015"/>
    <tag k="highway" v="residential"/>
    <tag k="maxspeed" v="50"/>
    <tag k="maxspeed:source" v="default residential speed limit in Australia"/>
    <tag k="name" v="Stephen Court"/>
  </way>
  <way id="31249473" version="4" timestamp="2010-07-08T19:20:39Z" uid="74617" user="JohnSmith" changeset="5168688">
    <nd ref="347429016"/>
    <nd ref="347429017"/>
    <nd ref="347429018"/>
    <nd ref="347429019"/>
    <nd ref="347429020"/>
    <tag k="highway" v="residential"/>
    <tag k="maxspeed" v="50"/>
    <tag k="maxspeed:source" v="default residential speed limit in Australia"/>
    <tag k="name" v="Michelle Court"/>
  </way>
  <way id="31249474" version="4" timestamp="2010-07-08T19:25:03Z" uid="74617" user="JohnSmith" changeset="5168688">
    <nd ref="347429033"/>
    <nd ref="347429036"/>
    <nd ref="347429037"/>
    <nd ref="347429038"/>
    <tag k="highway" v="residential"/>
    <tag k="maxspeed" v="50"/>
    <tag k="maxspeed:source" v="default residential speed limit in Australia"/>
    <tag k="name" v="Sheoak Court"/>
  </way>
  <way id="31249475" version="4" timestamp="2010-07-08T19:15:46Z" uid="74617" user="JohnSmith" changeset="5168688">
    <nd ref="347429039"/>
    <nd ref="347429040"/>
    <tag k="highway" v="residential"/>
    <tag k="maxspeed" v="50"/>
    <tag k="maxspeed:source" v="default residential speed limit in Australia"/>
    <tag k="name" v="Gum Close"/>
  </way>
  <way id="31249476" version="4" timestamp="2010-07-08T19:16:21Z" uid="74617" user="JohnSmith" changeset="5168688">
    <nd ref="347429025"/>
    <nd ref="347429041"/>
    <nd ref="347429042"/>
    <nd ref="347429043"/>
    <tag k="highway" v="residential"/>
    <tag k="maxspeed" v="50"/>
    <tag k="maxspeed:source" v="default residential speed limit in Australia"/>
    <tag k="name" v="Palm Street"/>
  </way>
  <way id="31249477" version="4" timestamp="2010-07-08T19:18:50Z" uid="74617" user="JohnSmith" changeset="5168688">
    <nd ref="347429044"/>
    <nd ref="347429045"/>
    <nd ref="347429046"/>
    <nd ref="347429047"/>
    <nd ref="347428997"/>
    <tag k="highway" v="residential"/>
    <tag k="maxspeed" v="50"/>
    <tag k="maxspeed:source" v="default residential speed limit in Australia"/>
    <tag k="name" v="Acer Terrace"/>
  </way>
  <way id="31249478" version="4" timestamp="2010-07-08T19:23:06Z" uid="74617" user="JohnSmith" changeset="5168688">
    <nd ref="347429048"/>
    <nd ref="347429049"/>
    <nd ref="347429050"/>
    <nd ref="347428993"/>
    <tag k="highway" v="residential"/>
    <tag k="maxspeed" v="50"/>
    <tag k="maxspeed:source" v="default residential speed limit in Australia"/>
    <tag k="name" v="Betula Rise"/>
  </way>
  <way id="31249479" version="3" timestamp="2010-05-10T14:00:19Z" uid="4467" user="Rosscoe" changeset="4659568">
    <nd ref="728537830"/>
    <nd ref="347429051"/>
    <nd ref="728538036"/>
    <nd ref="347429052"/>
    <nd ref="347429053"/>
    <tag k="highway" v="residential"/>
    <tag k="name" v="Stafford Street"/>
    <tag k="source" v="nearmap"/>
  </way>
  <way id="31249479" version="4" timestamp="2010-07-08T19:25:39Z" uid="74617" user="JohnSmith" changeset="5168688">
    <nd ref="728537830"/>
    <nd ref="347429051"/>
    <nd ref="728538036"/>
    <nd ref="347429052"/>
    <nd ref="347429053"/>
    <tag k="highway" v="residential"/>
    <tag k="maxspeed" v="50"/>
    <tag k="maxspeed:source" v="default residential speed limit in Australia"/>
    <tag k="name" v="Stafford Street"/>
    <tag k="source" v="nearmap"/>
  </way>
  <way id="31249480" version="3" timestamp="2010-07-08T19:21:41Z" uid="74617" user="JohnSmith" changeset="5168688">
    <nd ref="347347958"/>
    <nd ref="347429062"/>
    <nd ref="347429054"/>
    <nd ref="347429055"/>
    <nd ref="347429056"/>
    <tag k="highway" v="residential"/>
    <tag k="maxspeed" v="50"/>
    <tag k="maxspeed:source" v="default residential speed limit in Australia"/>
    <tag k="name" v="Carshalton Court"/>
  </way>
  <way id="31249481" version="4" timestamp="2010-07-08T19:24:24Z" uid="74617" user="JohnSmith" changeset="5168688">
    <nd ref="347429057"/>
    <nd ref="347429058"/>
    <nd ref="347429059"/>
    <nd ref="571808218"/>
    <nd ref="347429056"/>
    <nd ref="347429060"/>
    <nd ref="347429061"/>
    <tag k="highway" v="residential"/>
    <tag k="maxspeed" v="50"/>
    <tag k="maxspeed:source" v="default residential speed limit in Australia"/>
    <tag k="name" v="Carshalton Court"/>
  </way>
  <way id="31249482" version="3" timestamp="2010-07-08T19:16:46Z" uid="74617" user="JohnSmith" changeset="5168688">
    <nd ref="347429062"/>
    <nd ref="347429063"/>
    <nd ref="347429064"/>
    <nd ref="347429066"/>
    <tag k="highway" v="residential"/>
    <tag k="maxspeed" v="50"/>
    <tag k="maxspeed:source" v="default residential speed limit in Australia"/>
    <tag k="name" v="Golconda Close"/>
  </way>
  <way id="31249483" version="6" timestamp="2010-05-18T04:07:00Z" uid="4467" user="Rosscoe" changeset="4735134">
    <nd ref="347347907"/>
    <nd ref="347429545"/>
    <nd ref="347356552"/>
    <nd ref="347347911"/>
    <nd ref="347347916"/>
    <nd ref="347347919"/>
    <nd ref="347347923"/>
    <nd ref="347347927"/>
    <nd ref="347347930"/>
    <nd ref="347347933"/>
    <nd ref="347347937"/>
    <nd ref="347347940"/>
    <nd ref="347347944"/>
    <nd ref="347347948"/>
    <nd ref="347429067"/>
    <nd ref="347429068"/>
    <nd ref="347429069"/>
    <nd ref="347429070"/>
    <tag k="highway" v="residential"/>
    <tag k="name" v="Alexandra Avenue"/>
  </way>
  <way id="31249483" version="7" timestamp="2010-07-08T19:19:16Z" uid="74617" user="JohnSmith" changeset="5168688">
    <nd ref="347347907"/>
    <nd ref="347429545"/>
    <nd ref="347356552"/>
    <nd ref="347347911"/>
    <nd ref="347347916"/>
    <nd ref="347347919"/>
    <nd ref="347347923"/>
    <nd ref="347347927"/>
    <nd ref="347347930"/>
    <nd ref="347347933"/>
    <nd ref="347347937"/>
    <nd ref="347347940"/>
    <nd ref="347347944"/>
    <nd ref="347347948"/>
    <nd ref="347429067"/>
    <nd ref="347429068"/>
    <nd ref="347429069"/>
    <nd ref="347429070"/>
    <tag k="highway" v="residential"/>
    <tag k="maxspeed" v="50"/>
    <tag k="maxspeed:source" v="default residential speed limit in Australia"/>
    <tag k="name" v="Alexandra Avenue"/>
  </way>
  <way id="31249483" version="8" timestamp="2011-04-20T13:36:39Z" uid="4467" user="Rosscoe" changeset="7916336">
    <nd ref="347347907"/>
    <nd ref="347429545"/>
    <nd ref="347356552"/>
    <nd ref="347347911"/>
    <nd ref="347347916"/>
    <nd ref="347347919"/>
    <nd ref="347347923"/>
    <nd ref="347347927"/>
    <nd ref="347347930"/>
    <nd ref="347347933"/>
    <nd ref="347347937"/>
    <nd ref="347347940"/>
    <nd ref="347347944"/>
    <nd ref="347347948"/>
    <nd ref="347429067"/>
    <nd ref="347429068"/>
    <nd ref="347429069"/>
    <nd ref="347429070"/>
    <tag k="highway" v="residential"/>
    <tag k="maxspeed" v="50"/>
    <tag k="name" v="Alexandra Avenue"/>
    <tag k="source:maxspeed" v="default residential speed limit in Australia"/>
  </way>
  <way id="31249484" version="3" timestamp="2010-07-08T19:19:59Z" uid="74617" user="JohnSmith" changeset="5168688">
    <nd ref="347429075"/>
    <nd ref="347429087"/>
    <nd ref="347429076"/>
    <tag k="highway" v="residential"/>
    <tag k="maxspeed" v="50"/>
    <tag k="maxspeed:source" v="default residential speed limit in Australia"/>
    <tag k="name" v="Pluto Place"/>
  </way>
  <way id="31249485" version="3" timestamp="2010-07-08T19:22:26Z" uid="74617" user="JohnSmith" changeset="5168688">
    <nd ref="347429077"/>
    <nd ref="347429081"/>
    <nd ref="347429078"/>
    <tag k="highway" v="residential"/>
    <tag k="maxspeed" v="50"/>
    <tag k="maxspeed:source" v="default residential speed limit in Australia"/>
    <tag k="name" v="Albion Court"/>
  </way>
  <way id="31249486" version="3" timestamp="2010-07-08T19:26:49Z" uid="74617" user="JohnSmith" changeset="5168688">
    <nd ref="347429079"/>
    <nd ref="347429084"/>
    <nd ref="347429080"/>
    <tag k="highway" v="residential"/>
    <tag k="maxspeed" v="50"/>
    <tag k="maxspeed:source" v="default residential speed limit in Australia"/>
    <tag k="name" v="Tribute Court"/>
  </way>
  <way id="31249487" version="3" timestamp="2010-07-08T19:17:23Z" uid="74617" user="JohnSmith" changeset="5168688">
    <nd ref="347429081"/>
    <nd ref="347429082"/>
    <nd ref="347429083"/>
    <nd ref="347347919"/>
    <tag k="highway" v="residential"/>
    <tag k="maxspeed" v="50"/>
    <tag k="maxspeed:source" v="default residential speed limit in Australia"/>
    <tag k="name" v="Albion Court"/>
  </way>
  <way id="31249488" version="3" timestamp="2010-07-08T19:22:41Z" uid="74617" user="JohnSmith" changeset="5168688">
    <nd ref="347429084"/>
    <nd ref="347429085"/>
    <nd ref="347429086"/>
    <nd ref="347429074"/>
    <tag k="highway" v="residential"/>
    <tag k="maxspeed" v="50"/>
    <tag k="maxspeed:source" v="default residential speed limit in Australia"/>
    <tag k="name" v="Tribute Court"/>
  </way>
  <way id="31249489" version="3" timestamp="2010-07-08T19:25:18Z" uid="74617" user="JohnSmith" changeset="5168688">
    <nd ref="347429087"/>
    <nd ref="347429088"/>
    <tag k="highway" v="residential"/>
    <tag k="maxspeed" v="50"/>
    <tag k="maxspeed:source" v="default residential speed limit in Australia"/>
    <tag k="name" v="Pluto Place"/>
  </way>
  <way id="31249490" version="4" timestamp="2010-07-08T19:17:39Z" uid="74617" user="JohnSmith" changeset="5168688">
    <nd ref="347429089"/>
    <nd ref="735024604"/>
    <nd ref="347429090"/>
    <nd ref="347429092"/>
    <nd ref="347429091"/>
    <tag k="highway" v="residential"/>
    <tag k="maxspeed" v="50"/>
    <tag k="maxspeed:source" v="default residential speed limit in Australia"/>
    <tag k="name" v="Clansman Close"/>
  </way>
  <way id="31249491" version="6" timestamp="2010-07-08T19:20:15Z" uid="74617" user="JohnSmith" changeset="5168688">
    <nd ref="347429092"/>
    <nd ref="735024994"/>
    <nd ref="735024997"/>
    <nd ref="735025001"/>
    <nd ref="571806349"/>
    <nd ref="347429094"/>
    <nd ref="347429072"/>
    <nd ref="735025005"/>
    <nd ref="735025008"/>
    <nd ref="735025012"/>
    <nd ref="347429071"/>
    <nd ref="347429070"/>
    <tag k="highway" v="residential"/>
    <tag k="maxspeed" v="50"/>
    <tag k="maxspeed:source" v="default residential speed limit in Australia"/>
    <tag k="name" v="Arcadian Place"/>
  </way>
  <way id="31249514" version="4" timestamp="2009-12-16T08:32:03Z" uid="4467" user="Rosscoe" changeset="3385067">
    <nd ref="125270434"/>
    <nd ref="593236591"/>
    <nd ref="347429188"/>
    <tag k="highway" v="tertiary"/>
    <tag k="name" v="Morris Road"/>
    <tag k="oneway" v="yes"/>
  </way>
  <way id="31249515" version="4" timestamp="2009-12-16T08:32:04Z" uid="4467" user="Rosscoe" changeset="3385067">
    <nd ref="347429188"/>
    <nd ref="347429189"/>
    <nd ref="593236596"/>
    <nd ref="593236594"/>
    <tag k="highway" v="tertiary"/>
    <tag k="name" v="Morris Road"/>
    <tag k="oneway" v="yes"/>
  </way>
  <way id="31249516" version="4" timestamp="2010-05-18T04:07:10Z" uid="4467" user="Rosscoe" changeset="4735134">
    <nd ref="347429188"/>
    <nd ref="347429214"/>
    <nd ref="125269538"/>
    <tag k="highway" v="tertiary"/>
    <tag k="name" v="Morris Road"/>
  </way>
  <way id="31249517" version="7" timestamp="2010-05-10T14:30:45Z" uid="4467" user="Rosscoe" changeset="4659854">
    <nd ref="347429200"/>
    <nd ref="347429203"/>
    <nd ref="350739458"/>
    <nd ref="347429201"/>
    <tag k="highway" v="tertiary"/>
    <tag k="oneway" v="yes"/>
  </way>
  <way id="31249518" version="7" timestamp="2010-05-10T14:30:41Z" uid="4467" user="Rosscoe" changeset="4659854">
    <nd ref="347429201"/>
    <nd ref="350739517"/>
    <nd ref="347429204"/>
    <nd ref="347225422"/>
    <tag k="highway" v="tertiary"/>
    <tag k="oneway" v="yes"/>
  </way>
  <way id="31249524" version="4" timestamp="2010-05-18T04:07:08Z" uid="4467" user="Rosscoe" changeset="4735134">
    <nd ref="347429210"/>
    <nd ref="347429211"/>
    <nd ref="347429213"/>
    <tag k="highway" v="tertiary"/>
    <tag k="oneway" v="yes"/>
  </way>
  <way id="31249524" version="5" timestamp="2010-05-20T13:44:13Z" uid="4467" user="Rosscoe" changeset="4757584">
    <nd ref="347429210"/>
    <nd ref="347429211"/>
    <nd ref="347429213"/>
    <tag k="highway" v="secondary_link"/>
    <tag k="oneway" v="yes"/>
    <tag k="source" v="nearmap"/>
  </way>
  <way id="31249526" version="4" timestamp="2010-05-20T13:44:10Z" uid="4467" user="Rosscoe" changeset="4757584">
    <nd ref="347429214"/>
    <nd ref="347429215"/>
    <nd ref="347429216"/>
    <tag k="highway" v="secondary_link"/>
    <tag k="oneway" v="yes"/>
    <tag k="source" v="nearmap"/>
  </way>
  <way id="31249532" version="6" timestamp="2010-05-10T14:30:43Z" uid="4467" user="Rosscoe" changeset="4659854">
    <nd ref="347429233"/>
    <nd ref="34218855"/>
    <nd ref="347224145"/>
    <nd ref="347429234"/>
    <nd ref="347429235"/>
    <nd ref="347429236"/>
    <nd ref="728587095"/>
    <tag k="highway" v="tertiary"/>
    <tag k="name" v="Mossfiel Drive"/>
    <tag k="oneway" v="yes"/>
  </way>
  <way id="31249532" version="7" timestamp="2010-05-18T04:44:03Z" uid="4467" user="Rosscoe" changeset="4735219">
    <nd ref="347429233"/>
    <nd ref="34218855"/>
    <nd ref="347224145"/>
    <nd ref="347429234"/>
    <nd ref="347429235"/>
    <nd ref="347429236"/>
    <nd ref="728587095"/>
    <tag k="highway" v="tertiary"/>
    <tag k="name" v="Mossfiel Drive"/>
    <tag k="oneway" v="yes"/>
    <tag k="source" v="nearmap"/>
  </way>
  <way id="31249533" version="8" timestamp="2010-05-18T04:16:36Z" uid="4467" user="Rosscoe" changeset="4735152">
    <nd ref="347429253"/>
    <nd ref="347429254"/>
    <nd ref="595534662"/>
    <nd ref="347256602"/>
    <nd ref="347429255"/>
    <nd ref="347256603"/>
    <nd ref="347256617"/>
    <nd ref="347256695"/>
    <nd ref="347429271"/>
    <nd ref="347429256"/>
    <nd ref="728587084"/>
    <tag k="highway" v="tertiary"/>
    <tag k="maxspeed" v="50"/>
    <tag k="name" v="Mossfiel Drive"/>
    <tag k="oneway" v="yes"/>
  </way>
  <way id="31249533" version="9" timestamp="2010-05-18T04:44:02Z" uid="4467" user="Rosscoe" changeset="4735219">
    <nd ref="347429253"/>
    <nd ref="347429254"/>
    <tag k="highway" v="tertiary"/>
    <tag k="maxspeed" v="50"/>
    <tag k="name" v="Mossfiel Drive"/>
    <tag k="source" v="nearmap"/>
  </way>
  <way id="31249590" version="12" timestamp="2010-05-18T04:07:08Z" uid="4467" user="Rosscoe" changeset="4735134">
    <nd ref="347429536"/>
    <nd ref="736220540"/>
    <nd ref="736220542"/>
    <nd ref="736219756"/>
    <nd ref="347429537"/>
    <nd ref="347347975"/>
    <nd ref="347429538"/>
    <nd ref="347429539"/>
    <nd ref="347347907"/>
    <nd ref="736221046"/>
    <nd ref="347429653"/>
    <nd ref="38719043"/>
    <tag k="highway" v="secondary"/>
    <tag k="lanes" v="2"/>
    <tag k="maxspeed" v="60"/>
    <tag k="name" v="Morris Road"/>
    <tag k="oneway" v="yes"/>
    <tag k="source" v="nearmap"/>
  </way>
  <way id="31249591" version="9" timestamp="2010-05-18T04:06:58Z" uid="4467" user="Rosscoe" changeset="4735134">
    <nd ref="347429542"/>
    <nd ref="736372565"/>
    <nd ref="736215482"/>
    <nd ref="347429543"/>
    <nd ref="347429648"/>
    <nd ref="347429649"/>
    <nd ref="347429561"/>
    <nd ref="347429549"/>
    <nd ref="738191070"/>
    <nd ref="347429544"/>
    <tag k="highway" v="tertiary"/>
    <tag k="name" v="Morris Road"/>
    <tag k="oneway" v="yes"/>
  </way>
  <way id="31249592" version="4" timestamp="2010-05-18T04:07:12Z" uid="4467" user="Rosscoe" changeset="4735134"/>
  <way id="31249593" version="2" timestamp="2011-04-20T13:36:10Z" uid="4467" user="Rosscoe" changeset="7916336">
    <nd ref="347429557"/>
    <nd ref="347429551"/>
    <tag k="highway" v="residential"/>
    <tag k="source" v="nearmap"/>
  </way>
  <way id="31249596" version="3" timestamp="2010-05-01T05:59:04Z" uid="4467" user="Rosscoe" changeset="4571711">
    <nd ref="347429561"/>
    <nd ref="347429576"/>
    <nd ref="714743465"/>
    <tag k="highway" v="road"/>
  </way>
  <way id="31249597" version="3" timestamp="2010-05-01T05:59:04Z" uid="4467" user="Rosscoe" changeset="4571711">
    <nd ref="347429574"/>
    <nd ref="571807920"/>
    <nd ref="347429556"/>
    <nd ref="347429596"/>
    <nd ref="714743456"/>
    <tag k="highway" v="road"/>
  </way>
  <way id="31249601" version="4" timestamp="2011-04-20T13:36:26Z" uid="4467" user="Rosscoe" changeset="7916336">
    <nd ref="347429592"/>
    <nd ref="1252419311"/>
    <nd ref="347429543"/>
    <tag k="highway" v="residential"/>
    <tag k="maxspeed" v="50"/>
    <tag k="oneway" v="yes"/>
  </way>
  <way id="31249606" version="6" timestamp="2011-04-20T13:36:12Z" uid="4467" user="Rosscoe" changeset="7916336">
    <nd ref="347429543"/>
    <nd ref="347429540"/>
    <nd ref="347429612"/>
    <nd ref="347429613"/>
    <nd ref="347429614"/>
    <nd ref="347429615"/>
    <nd ref="347429616"/>
    <nd ref="347429617"/>
    <nd ref="347429618"/>
    <nd ref="347429619"/>
    <nd ref="347429620"/>
    <nd ref="347429621"/>
    <nd ref="571807348"/>
    <nd ref="714628640"/>
    <tag k="highway" v="tertiary"/>
    <tag k="name" v="Thomas Carr Drive"/>
  </way>
  <way id="31249607" version="3" timestamp="2010-07-08T19:26:53Z" uid="74617" user="JohnSmith" changeset="5168688">
    <nd ref="347429620"/>
    <nd ref="347429622"/>
    <nd ref="347429623"/>
    <nd ref="347429624"/>
    <nd ref="347429625"/>
    <nd ref="347429626"/>
    <nd ref="347429627"/>
    <nd ref="347429612"/>
    <tag k="highway" v="residential"/>
    <tag k="maxspeed" v="50"/>
    <tag k="maxspeed:source" v="default residential speed limit in Australia"/>
    <tag k="name" v="Laurel Avenue"/>
  </way>
  <way id="31249607" version="4" timestamp="2011-04-20T13:36:41Z" uid="4467" user="Rosscoe" changeset="7916336">
    <nd ref="347429620"/>
    <nd ref="347429622"/>
    <nd ref="347429623"/>
    <nd ref="347429624"/>
    <nd ref="347429625"/>
    <nd ref="347429626"/>
    <nd ref="347429627"/>
    <nd ref="347429612"/>
    <tag k="highway" v="residential"/>
    <tag k="maxspeed" v="50"/>
    <tag k="name" v="Laurel Avenue"/>
    <tag k="source:maxspeed" v="default residential speed limit in Australia"/>
  </way>
  <way id="31249608" version="3" timestamp="2010-07-08T19:22:53Z" uid="74617" user="JohnSmith" changeset="5168688">
    <nd ref="347429616"/>
    <nd ref="347429628"/>
    <nd ref="347429629"/>
    <nd ref="347429630"/>
    <nd ref="347429631"/>
    <nd ref="347429632"/>
    <tag k="highway" v="residential"/>
    <tag k="maxspeed" v="50"/>
    <tag k="maxspeed:source" v="default residential speed limit in Australia"/>
    <tag k="name" v="Honeyeater Court"/>
  </way>
  <way id="31249608" version="5" timestamp="2011-04-20T13:36:48Z" uid="4467" user="Rosscoe" changeset="7916336">
    <nd ref="347429616"/>
    <nd ref="347429628"/>
    <nd ref="347429629"/>
    <nd ref="347429630"/>
    <nd ref="347429631"/>
    <tag k="highway" v="residential"/>
    <tag k="maxspeed" v="50"/>
    <tag k="name" v="Honeyeater Court"/>
    <tag k="source:maxspeed" v="default residential speed limit in Australia"/>
  </way>
  <way id="31249609" version="3" timestamp="2010-07-08T19:25:28Z" uid="74617" user="JohnSmith" changeset="5168688">
    <nd ref="347429633"/>
    <nd ref="347429634"/>
    <nd ref="347429623"/>
    <tag k="highway" v="residential"/>
    <tag k="maxspeed" v="50"/>
    <tag k="maxspeed:source" v="default residential speed limit in Australia"/>
    <tag k="name" v="Gertrude Court"/>
  </way>
  <way id="31249609" version="4" timestamp="2011-04-20T13:36:31Z" uid="4467" user="Rosscoe" changeset="7916336">
    <nd ref="347429633"/>
    <nd ref="347429634"/>
    <nd ref="347429623"/>
    <tag k="highway" v="residential"/>
    <tag k="maxspeed" v="50"/>
    <tag k="name" v="Gertrude Court"/>
    <tag k="source:maxspeed" v="default residential speed limit in Australia"/>
  </way>
  <way id="31249610" version="3" timestamp="2010-07-08T19:17:51Z" uid="74617" user="JohnSmith" changeset="5168688">
    <nd ref="347429635"/>
    <nd ref="347429636"/>
    <tag k="highway" v="residential"/>
    <tag k="maxspeed" v="50"/>
    <tag k="maxspeed:source" v="default residential speed limit in Australia"/>
    <tag k="name" v="Primrose Place"/>
  </way>
  <way id="31249610" version="4" timestamp="2011-04-20T13:36:38Z" uid="4467" user="Rosscoe" changeset="7916336">
    <nd ref="347429635"/>
    <nd ref="347429636"/>
    <tag k="highway" v="residential"/>
    <tag k="maxspeed" v="50"/>
    <tag k="name" v="Primrose Place"/>
    <tag k="source:maxspeed" v="default residential speed limit in Australia"/>
  </way>
  <way id="31249611" version="3" timestamp="2010-07-08T19:20:28Z" uid="74617" user="JohnSmith" changeset="5168688">
    <nd ref="347429637"/>
    <nd ref="347429638"/>
    <tag k="highway" v="residential"/>
    <tag k="maxspeed" v="50"/>
    <tag k="maxspeed:source" v="default residential speed limit in Australia"/>
    <tag k="name" v="Scarborough Court"/>
  </way>
  <way id="31249611" version="4" timestamp="2011-04-20T13:36:22Z" uid="4467" user="Rosscoe" changeset="7916336">
    <nd ref="347429637"/>
    <nd ref="347429638"/>
    <tag k="highway" v="residential"/>
    <tag k="maxspeed" v="50"/>
    <tag k="name" v="Scarborough Court"/>
    <tag k="source:maxspeed" v="default residential speed limit in Australia"/>
  </way>
  <way id="31249612" version="4" timestamp="2010-07-08T19:21:01Z" uid="74617" user="JohnSmith" changeset="5168688">
    <nd ref="347429639"/>
    <nd ref="347429640"/>
    <nd ref="347429641"/>
    <nd ref="347429636"/>
    <nd ref="347429638"/>
    <nd ref="347429642"/>
    <nd ref="347429643"/>
    <nd ref="347429644"/>
    <nd ref="347429651"/>
    <nd ref="347429646"/>
    <tag k="highway" v="residential"/>
    <tag k="maxspeed" v="50"/>
    <tag k="maxspeed:source" v="default residential speed limit in Australia"/>
    <tag k="name" v="Royal Oaks Drive"/>
  </way>
  <way id="31249612" version="5" timestamp="2011-04-20T13:36:28Z" uid="4467" user="Rosscoe" changeset="7916336">
    <nd ref="347429639"/>
    <nd ref="347429640"/>
    <nd ref="347429641"/>
    <nd ref="347429636"/>
    <nd ref="347429638"/>
    <nd ref="347429642"/>
    <nd ref="347429643"/>
    <nd ref="347429644"/>
    <nd ref="1252418908"/>
    <nd ref="347429651"/>
    <nd ref="347429646"/>
    <tag k="highway" v="residential"/>
    <tag k="maxspeed" v="50"/>
    <tag k="name" v="Royal Oaks Drive"/>
    <tag k="source:maxspeed" v="default residential speed limit in Australia"/>
  </way>
  <way id="31249613" version="4" timestamp="2010-07-08T19:23:37Z" uid="74617" user="JohnSmith" changeset="5168688">
    <nd ref="347429646"/>
    <nd ref="347429647"/>
    <tag k="highway" v="residential"/>
    <tag k="maxspeed" v="50"/>
    <tag k="maxspeed:source" v="default residential speed limit in Australia"/>
    <tag k="name" v="Royal Oaks Drive"/>
    <tag k="oneway" v="yes"/>
  </way>
  <way id="31249613" version="5" timestamp="2011-04-20T13:36:57Z" uid="4467" user="Rosscoe" changeset="7916336"/>
  <way id="31249614" version="5" timestamp="2011-04-20T13:36:19Z" uid="4467" user="Rosscoe" changeset="7916336">
    <nd ref="347429649"/>
    <nd ref="347429650"/>
    <nd ref="347429651"/>
    <tag k="highway" v="residential"/>
    <tag k="maxspeed" v="50"/>
    <tag k="name" v="Royal Oaks Drive"/>
    <tag k="oneway" v="yes"/>
    <tag k="source:maxspeed" v="default residential speed limit in Australia"/>
  </way>
  <way id="31249615" version="4" timestamp="2010-05-18T04:07:02Z" uid="4467" user="Rosscoe" changeset="4735134">
    <nd ref="281940555"/>
    <nd ref="347429655"/>
    <nd ref="347429654"/>
    <nd ref="347429653"/>
    <nd ref="347429675"/>
    <nd ref="347429652"/>
    <nd ref="736221133"/>
    <nd ref="736221134"/>
    <nd ref="281940774"/>
    <tag k="highway" v="secondary"/>
    <tag k="name" v="Sayers Road"/>
    <tag k="oneway" v="yes"/>
  </way>
  <way id="31249615" version="5" timestamp="2010-05-18T04:20:20Z" uid="4467" user="Rosscoe" changeset="4735159">
    <nd ref="281940555"/>
    <nd ref="347429655"/>
    <nd ref="347429654"/>
    <nd ref="347429653"/>
    <nd ref="347429675"/>
    <nd ref="347429652"/>
    <nd ref="736221133"/>
    <nd ref="736221134"/>
    <nd ref="281940774"/>
    <tag k="highway" v="secondary"/>
    <tag k="name" v="Sayers Road"/>
    <tag k="oneway" v="yes"/>
    <tag k="source" v="nearmap"/>
  </way>
  <way id="31249615" version="6" timestamp="2011-04-20T13:36:45Z" uid="4467" user="Rosscoe" changeset="7916336">
    <nd ref="281940555"/>
    <nd ref="347429655"/>
    <nd ref="1252419115"/>
    <nd ref="347429654"/>
    <nd ref="347429653"/>
    <nd ref="347429675"/>
    <nd ref="347429652"/>
    <nd ref="736221133"/>
    <nd ref="736221134"/>
    <nd ref="281940774"/>
    <tag k="highway" v="secondary"/>
    <tag k="name" v="Sayers Road"/>
    <tag k="oneway" v="yes"/>
    <tag k="source" v="nearmap"/>
  </way>
  <way id="31249616" version="7" timestamp="2010-07-08T19:23:55Z" uid="74617" user="JohnSmith" changeset="5168688">
    <nd ref="347429652"/>
    <nd ref="281940780"/>
    <nd ref="736221650"/>
    <nd ref="736221381"/>
    <nd ref="466983349"/>
    <tag k="highway" v="residential"/>
    <tag k="maxspeed" v="50"/>
    <tag k="maxspeed:source" v="default residential speed limit in Australia"/>
    <tag k="name" v="Thomas Carr Drive"/>
  </way>
  <way id="31249616" version="8" timestamp="2011-04-20T13:36:54Z" uid="4467" user="Rosscoe" changeset="7916336">
    <nd ref="347429652"/>
    <nd ref="281940780"/>
    <nd ref="736221650"/>
    <nd ref="736221381"/>
    <nd ref="466983349"/>
    <tag k="highway" v="residential"/>
    <tag k="maxspeed" v="50"/>
    <tag k="name" v="Thomas Carr Drive"/>
    <tag k="source:maxspeed" v="default residential speed limit in Australia"/>
  </way>
  <way id="31249618" version="3" timestamp="2010-05-01T04:45:10Z" uid="4467" user="Rosscoe" changeset="4571542">
    <nd ref="347429657"/>
    <nd ref="347429658"/>
    <nd ref="347429659"/>
    <nd ref="347426601"/>
    <nd ref="347429660"/>
    <nd ref="347429661"/>
    <nd ref="347429668"/>
    <nd ref="714628784"/>
    <tag k="highway" v="residential"/>
    <tag k="name" v="Thomas Carr Drive"/>
    <tag k="oneway" v="yes"/>
    <tag k="source" v="nearmap"/>
  </way>
  <way id="31249618" version="4" timestamp="2010-07-08T19:18:52Z" uid="74617" user="JohnSmith" changeset="5168688">
    <nd ref="347429657"/>
    <nd ref="347429658"/>
    <nd ref="347429659"/>
    <nd ref="347426601"/>
    <nd ref="347429660"/>
    <nd ref="347429661"/>
    <nd ref="347429668"/>
    <nd ref="714628784"/>
    <tag k="highway" v="residential"/>
    <tag k="maxspeed" v="50"/>
    <tag k="maxspeed:source" v="default residential speed limit in Australia"/>
    <tag k="name" v="Thomas Carr Drive"/>
    <tag k="oneway" v="yes"/>
    <tag k="source" v="nearmap"/>
  </way>
  <way id="31249618" version="5" timestamp="2011-04-20T13:36:42Z" uid="4467" user="Rosscoe" changeset="7916336">
    <nd ref="347429657"/>
    <nd ref="347429658"/>
    <nd ref="347429659"/>
    <nd ref="347426601"/>
    <nd ref="347429660"/>
    <nd ref="347429661"/>
    <nd ref="347429668"/>
    <nd ref="714628784"/>
    <tag k="highway" v="residential"/>
    <tag k="maxspeed" v="50"/>
    <tag k="name" v="Thomas Carr Drive"/>
    <tag k="oneway" v="yes"/>
    <tag k="source" v="nearmap"/>
    <tag k="source:maxspeed" v="default residential speed limit in Australia"/>
  </way>
  <way id="31249619" version="3" timestamp="2010-05-01T04:45:08Z" uid="4467" user="Rosscoe" changeset="4571542">
    <nd ref="714628694"/>
    <nd ref="347429662"/>
    <nd ref="347429663"/>
    <nd ref="347429664"/>
    <nd ref="347429665"/>
    <nd ref="347429666"/>
    <nd ref="347429667"/>
    <nd ref="347429657"/>
    <tag k="highway" v="residential"/>
    <tag k="name" v="Thomas Carr Drive"/>
    <tag k="oneway" v="yes"/>
    <tag k="source" v="nearmap"/>
  </way>
  <way id="31249619" version="4" timestamp="2010-07-08T19:21:15Z" uid="74617" user="JohnSmith" changeset="5168688">
    <nd ref="714628694"/>
    <nd ref="347429662"/>
    <nd ref="347429663"/>
    <nd ref="347429664"/>
    <nd ref="347429665"/>
    <nd ref="347429666"/>
    <nd ref="347429667"/>
    <nd ref="347429657"/>
    <tag k="highway" v="residential"/>
    <tag k="maxspeed" v="50"/>
    <tag k="maxspeed:source" v="default residential speed limit in Australia"/>
    <tag k="name" v="Thomas Carr Drive"/>
    <tag k="oneway" v="yes"/>
    <tag k="source" v="nearmap"/>
  </way>
  <way id="31249619" version="5" timestamp="2011-04-20T13:36:25Z" uid="4467" user="Rosscoe" changeset="7916336">
    <nd ref="714628694"/>
    <nd ref="347429662"/>
    <nd ref="347429663"/>
    <nd ref="347429664"/>
    <nd ref="347429665"/>
    <nd ref="347429666"/>
    <nd ref="347429667"/>
    <nd ref="347429657"/>
    <tag k="highway" v="residential"/>
    <tag k="maxspeed" v="50"/>
    <tag k="name" v="Thomas Carr Drive"/>
    <tag k="oneway" v="yes"/>
    <tag k="source" v="nearmap"/>
    <tag k="source:maxspeed" v="default residential speed limit in Australia"/>
  </way>
  <way id="31249621" version="4" timestamp="2010-05-18T04:20:20Z" uid="4467" user="Rosscoe" changeset="4735159">
    <nd ref="347429675"/>
    <nd ref="736221629"/>
    <nd ref="347429676"/>
    <nd ref="347429677"/>
    <nd ref="347429672"/>
    <tag k="highway" v="residential"/>
    <tag k="name" v="Lavina Drive"/>
    <tag k="oneway" v="yes"/>
  </way>
  <way id="31249621" version="5" timestamp="2010-07-08T19:24:42Z" uid="74617" user="JohnSmith" changeset="5168688">
    <nd ref="347429675"/>
    <nd ref="736221629"/>
    <nd ref="347429676"/>
    <nd ref="347429677"/>
    <nd ref="347429672"/>
    <tag k="highway" v="residential"/>
    <tag k="maxspeed" v="50"/>
    <tag k="maxspeed:source" v="default residential speed limit in Australia"/>
    <tag k="name" v="Lavina Drive"/>
    <tag k="oneway" v="yes"/>
  </way>
  <way id="31249621" version="6" timestamp="2011-04-20T13:36:14Z" uid="4467" user="Rosscoe" changeset="7916336">
    <nd ref="347429675"/>
    <nd ref="736221629"/>
    <nd ref="347429676"/>
    <nd ref="347429677"/>
    <nd ref="347429672"/>
    <tag k="highway" v="residential"/>
    <tag k="maxspeed" v="50"/>
    <tag k="name" v="Lavina Drive"/>
    <tag k="oneway" v="yes"/>
    <tag k="source:maxspeed" v="default residential speed limit in Australia"/>
  </way>
  <way id="31249622" version="3" timestamp="2010-05-18T04:20:20Z" uid="4467" user="Rosscoe" changeset="4735159">
    <nd ref="347429672"/>
    <nd ref="347429673"/>
    <nd ref="281940778"/>
    <nd ref="347429675"/>
    <tag k="highway" v="residential"/>
    <tag k="name" v="Lavina Drive"/>
    <tag k="oneway" v="yes"/>
  </way>
  <way id="31249622" version="4" timestamp="2010-07-08T19:17:00Z" uid="74617" user="JohnSmith" changeset="5168688">
    <nd ref="347429672"/>
    <nd ref="347429673"/>
    <nd ref="281940778"/>
    <nd ref="347429675"/>
    <tag k="highway" v="residential"/>
    <tag k="maxspeed" v="50"/>
    <tag k="maxspeed:source" v="default residential speed limit in Australia"/>
    <tag k="name" v="Lavina Drive"/>
    <tag k="oneway" v="yes"/>
  </way>
  <way id="31249622" version="5" timestamp="2011-04-20T13:36:23Z" uid="4467" user="Rosscoe" changeset="7916336">
    <nd ref="347429672"/>
    <nd ref="347429673"/>
    <nd ref="281940778"/>
    <nd ref="347429675"/>
    <tag k="highway" v="residential"/>
    <tag k="maxspeed" v="50"/>
    <tag k="name" v="Lavina Drive"/>
    <tag k="oneway" v="yes"/>
    <tag k="source:maxspeed" v="default residential speed limit in Australia"/>
  </way>
  <way id="31249623" version="2" timestamp="2010-05-18T04:20:21Z" uid="4467" user="Rosscoe" changeset="4735159"/>
  <way id="31249644" version="5" timestamp="2010-07-08T19:23:48Z" uid="74617" user="JohnSmith" changeset="5168688">
    <nd ref="347429775"/>
    <nd ref="347429782"/>
    <nd ref="347429786"/>
    <nd ref="659657627"/>
    <nd ref="347429787"/>
    <nd ref="347430476"/>
    <nd ref="347429788"/>
    <nd ref="347430438"/>
    <nd ref="347430439"/>
    <nd ref="347430445"/>
    <nd ref="347430440"/>
    <nd ref="659657642"/>
    <nd ref="347430441"/>
    <nd ref="347430495"/>
    <nd ref="347430442"/>
    <tag k="highway" v="residential"/>
    <tag k="maxspeed" v="50"/>
    <tag k="maxspeed:source" v="default residential speed limit in Australia"/>
    <tag k="name" v="Leda Drive"/>
  </way>
  <way id="31249652" version="3" timestamp="2010-07-08T19:24:51Z" uid="74617" user="JohnSmith" changeset="5168688">
    <nd ref="347429804"/>
    <nd ref="347429805"/>
    <tag k="highway" v="residential"/>
    <tag k="maxspeed" v="50"/>
    <tag k="maxspeed:source" v="default residential speed limit in Australia"/>
    <tag k="name" v="Solar Court"/>
  </way>
  <way id="31249652" version="4" timestamp="2011-04-20T05:50:11Z" uid="4467" user="Rosscoe" changeset="7912938">
    <nd ref="347429804"/>
    <nd ref="347429805"/>
    <tag k="highway" v="residential"/>
    <tag k="maxspeed" v="50"/>
    <tag k="maxspeed:source:maxspeed" v="default residential speed limit in Australia"/>
    <tag k="name" v="Solar Court"/>
  </way>
  <way id="31249653" version="5" timestamp="2010-06-02T14:39:04Z" uid="4467" user="Rosscoe" changeset="4884784">
    <nd ref="347426574"/>
    <nd ref="347429806"/>
    <nd ref="762291029"/>
    <nd ref="347430500"/>
    <nd ref="762291011"/>
    <nd ref="347430499"/>
    <nd ref="347430498"/>
    <nd ref="347430497"/>
    <nd ref="347427237"/>
    <nd ref="347430505"/>
    <nd ref="347430506"/>
    <nd ref="347430496"/>
    <tag k="highway" v="residential"/>
    <tag k="name" v="Parklea Way"/>
  </way>
  <way id="31249653" version="6" timestamp="2010-07-08T19:27:38Z" uid="74617" user="JohnSmith" changeset="5168688">
    <nd ref="347426574"/>
    <nd ref="347429806"/>
    <nd ref="762291029"/>
    <nd ref="347430500"/>
    <nd ref="762291011"/>
    <nd ref="347430499"/>
    <nd ref="347430498"/>
    <nd ref="347430497"/>
    <nd ref="347427237"/>
    <nd ref="347430505"/>
    <nd ref="347430506"/>
    <nd ref="347430496"/>
    <tag k="highway" v="residential"/>
    <tag k="maxspeed" v="50"/>
    <tag k="maxspeed:source" v="default residential speed limit in Australia"/>
    <tag k="name" v="Parklea Way"/>
  </way>
  <way id="31249698" version="3" timestamp="2010-07-08T19:20:00Z" uid="74617" user="JohnSmith" changeset="5168688">
    <nd ref="347430165"/>
    <nd ref="347430190"/>
    <nd ref="347430193"/>
    <nd ref="347430195"/>
    <tag k="highway" v="residential"/>
    <tag k="maxspeed" v="50"/>
    <tag k="maxspeed:source" v="default residential speed limit in Australia"/>
    <tag k="name" v="Bromage Close"/>
  </way>
  <way id="31249701" version="3" timestamp="2010-07-08T19:25:40Z" uid="74617" user="JohnSmith" changeset="5168688">
    <nd ref="347430215"/>
    <nd ref="347430218"/>
    <nd ref="347430220"/>
    <nd ref="347430222"/>
    <nd ref="347430224"/>
    <nd ref="347430227"/>
    <tag k="highway" v="residential"/>
    <tag k="maxspeed" v="50"/>
    <tag k="maxspeed:source" v="default residential speed limit in Australia"/>
    <tag k="name" v="Desire Place"/>
  </way>
  <way id="31249740" version="6" timestamp="2010-04-07T13:27:42Z" uid="20587" user="balrog-kun" changeset="4353646">
    <nd ref="347430480"/>
    <nd ref="347430482"/>
    <nd ref="347430553"/>
    <nd ref="347430483"/>
    <nd ref="347430432"/>
    <tag k="created_by" v="Potlatch 0.10f"/>
    <tag k="highway" v="residential"/>
    <tag k="name" v="Gabriel Vista Court"/>
    <tag k="note" v="added by g1ant"/>
  </way>
  <way id="31249742" version="3" timestamp="2010-07-08T19:24:33Z" uid="74617" user="JohnSmith" changeset="5168688">
    <nd ref="347430443"/>
    <nd ref="347430444"/>
    <nd ref="347430445"/>
    <tag k="highway" v="residential"/>
    <tag k="maxspeed" v="50"/>
    <tag k="maxspeed:source" v="default residential speed limit in Australia"/>
    <tag k="name" v="Pipit Court"/>
  </way>
  <way id="31249743" version="3" timestamp="2010-07-08T19:27:06Z" uid="74617" user="JohnSmith" changeset="5168688">
    <nd ref="347430462"/>
    <nd ref="347430464"/>
    <nd ref="281939998"/>
    <tag k="highway" v="residential"/>
    <tag k="maxspeed" v="50"/>
    <tag k="maxspeed:source" v="default residential speed limit in Australia"/>
    <tag k="name" v="Kulin Drive"/>
    <tag k="oneway" v="yes"/>
  </way>
  <way id="31249743" version="4" timestamp="2011-04-20T13:36:26Z" uid="4467" user="Rosscoe" changeset="7916336">
    <nd ref="347430462"/>
    <nd ref="347430464"/>
    <nd ref="281939998"/>
    <tag k="highway" v="residential"/>
    <tag k="maxspeed" v="50"/>
    <tag k="name" v="Kulin Drive"/>
    <tag k="oneway" v="yes"/>
    <tag k="source:maxspeed" v="default residential speed limit in Australia"/>
  </way>
  <way id="31249744" version="4" timestamp="2010-05-01T04:45:05Z" uid="4467" user="Rosscoe" changeset="4571542">
    <nd ref="347430462"/>
    <nd ref="714628635"/>
    <nd ref="714628614"/>
    <tag k="highway" v="residential"/>
    <tag k="name" v="Kulin Drive"/>
  </way>
  <way id="31249744" version="5" timestamp="2010-07-08T19:20:26Z" uid="74617" user="JohnSmith" changeset="5168688">
    <nd ref="347430462"/>
    <nd ref="714628635"/>
    <nd ref="714628614"/>
    <tag k="highway" v="residential"/>
    <tag k="maxspeed" v="50"/>
    <tag k="maxspeed:source" v="default residential speed limit in Australia"/>
    <tag k="name" v="Kulin Drive"/>
  </way>
  <way id="31249744" version="6" timestamp="2011-04-20T13:36:33Z" uid="4467" user="Rosscoe" changeset="7916336">
    <nd ref="347430462"/>
    <nd ref="714628635"/>
    <nd ref="714628614"/>
    <tag k="highway" v="residential"/>
    <tag k="maxspeed" v="50"/>
    <tag k="name" v="Kulin Drive"/>
    <tag k="source:maxspeed" v="default residential speed limit in Australia"/>
  </way>
  <way id="31249745" version="3" timestamp="2010-07-08T19:22:51Z" uid="74617" user="JohnSmith" changeset="5168688">
    <nd ref="347430467"/>
    <nd ref="347430466"/>
    <nd ref="347430462"/>
    <tag k="highway" v="residential"/>
    <tag k="maxspeed" v="50"/>
    <tag k="maxspeed:source" v="default residential speed limit in Australia"/>
    <tag k="name" v="Kulin Drive"/>
    <tag k="oneway" v="yes"/>
  </way>
  <way id="31249745" version="4" timestamp="2011-04-20T13:36:16Z" uid="4467" user="Rosscoe" changeset="7916336">
    <nd ref="347430467"/>
    <nd ref="347430466"/>
    <nd ref="347430462"/>
    <tag k="highway" v="residential"/>
    <tag k="maxspeed" v="50"/>
    <tag k="name" v="Kulin Drive"/>
    <tag k="oneway" v="yes"/>
    <tag k="source:maxspeed" v="default residential speed limit in Australia"/>
  </way>
  <way id="31249746" version="3" timestamp="2010-05-01T04:45:00Z" uid="4467" user="Rosscoe" changeset="4571542">
    <nd ref="347430468"/>
    <nd ref="347430469"/>
    <nd ref="347430537"/>
    <nd ref="714628800"/>
    <tag k="highway" v="residential"/>
    <tag k="name" v="Rose Grange Boulevard"/>
  </way>
  <way id="31249746" version="4" timestamp="2010-07-08T19:27:36Z" uid="74617" user="JohnSmith" changeset="5168688">
    <nd ref="347430468"/>
    <nd ref="347430469"/>
    <nd ref="347430537"/>
    <nd ref="714628800"/>
    <tag k="highway" v="residential"/>
    <tag k="maxspeed" v="50"/>
    <tag k="maxspeed:source" v="default residential speed limit in Australia"/>
    <tag k="name" v="Rose Grange Boulevard"/>
  </way>
  <way id="31249746" version="5" timestamp="2011-04-20T13:36:24Z" uid="4467" user="Rosscoe" changeset="7916336">
    <nd ref="347430468"/>
    <nd ref="347430469"/>
    <nd ref="347430537"/>
    <nd ref="714628800"/>
    <tag k="highway" v="residential"/>
    <tag k="maxspeed" v="50"/>
    <tag k="name" v="Rose Grange Boulevard"/>
    <tag k="source:maxspeed" v="default residential speed limit in Australia"/>
  </way>
  <way id="31249747" version="3" timestamp="2010-07-08T19:17:49Z" uid="74617" user="JohnSmith" changeset="5168688">
    <nd ref="347430472"/>
    <nd ref="347430473"/>
    <tag k="highway" v="residential"/>
    <tag k="maxspeed" v="50"/>
    <tag k="maxspeed:source" v="default residential speed limit in Australia"/>
    <tag k="name" v="Anvil Court"/>
  </way>
  <way id="31249748" version="3" timestamp="2010-07-08T19:18:33Z" uid="74617" user="JohnSmith" changeset="5168688">
    <nd ref="347430474"/>
    <nd ref="347430475"/>
    <tag k="highway" v="residential"/>
    <tag k="maxspeed" v="50"/>
    <tag k="maxspeed:source" v="default residential speed limit in Australia"/>
    <tag k="name" v="Bunjil Way"/>
  </way>
  <way id="31249749" version="3" timestamp="2010-07-08T19:21:00Z" uid="74617" user="JohnSmith" changeset="5168688">
    <nd ref="347430476"/>
    <nd ref="347430446"/>
    <tag k="highway" v="residential"/>
    <tag k="maxspeed" v="50"/>
    <tag k="maxspeed:source" v="default residential speed limit in Australia"/>
    <tag k="name" v="Cornelia Street"/>
  </way>
  <way id="31249750" version="5" timestamp="2010-07-08T19:25:26Z" uid="74617" user="JohnSmith" changeset="5168688">
    <nd ref="347430477"/>
    <nd ref="659657631"/>
    <nd ref="347430478"/>
    <nd ref="347430479"/>
    <nd ref="347430481"/>
    <tag k="highway" v="residential"/>
    <tag k="maxspeed" v="50"/>
    <tag k="maxspeed:source" v="default residential speed limit in Australia"/>
    <tag k="name" v="Pringreen Court"/>
  </way>
  <way id="31249750" version="6" timestamp="2011-04-20T13:36:48Z" uid="4467" user="Rosscoe" changeset="7916336">
    <nd ref="347430477"/>
    <nd ref="659657631"/>
    <nd ref="347430478"/>
    <nd ref="347430479"/>
    <nd ref="347430481"/>
    <tag k="highway" v="residential"/>
    <tag k="maxspeed" v="50"/>
    <tag k="name" v="Pringreen Court"/>
    <tag k="source:maxspeed" v="default residential speed limit in Australia"/>
  </way>
  <way id="31249751" version="4" timestamp="2010-07-08T19:16:07Z" uid="74617" user="JohnSmith" changeset="5168688">
    <nd ref="347430470"/>
    <nd ref="347430484"/>
    <nd ref="347430485"/>
    <tag k="highway" v="residential"/>
    <tag k="maxspeed" v="50"/>
    <tag k="maxspeed:source" v="default residential speed limit in Australia"/>
    <tag k="name" v="Blaze Terrace"/>
  </way>
  <way id="31249751" version="5" timestamp="2011-04-20T13:36:30Z" uid="4467" user="Rosscoe" changeset="7916336">
    <nd ref="347430470"/>
    <nd ref="347430484"/>
    <nd ref="347430485"/>
    <tag k="highway" v="residential"/>
    <tag k="maxspeed" v="50"/>
    <tag k="name" v="Blaze Terrace"/>
    <tag k="source:maxspeed" v="default residential speed limit in Australia"/>
  </way>
  <way id="31249752" version="4" timestamp="2010-07-08T19:24:07Z" uid="74617" user="JohnSmith" changeset="5168688">
    <nd ref="347430486"/>
    <nd ref="347430487"/>
    <nd ref="347430488"/>
    <tag k="highway" v="residential"/>
    <tag k="maxspeed" v="50"/>
    <tag k="maxspeed:source" v="default residential speed limit in Australia"/>
    <tag k="name" v="Sterling Mews"/>
  </way>
  <way id="31249752" version="5" timestamp="2011-04-20T13:36:37Z" uid="4467" user="Rosscoe" changeset="7916336">
    <nd ref="347430486"/>
    <nd ref="347430487"/>
    <nd ref="347430488"/>
    <tag k="highway" v="residential"/>
    <tag k="maxspeed" v="50"/>
    <tag k="name" v="Sterling Mews"/>
    <tag k="source:maxspeed" v="default residential speed limit in Australia"/>
  </way>
  <way id="31249753" version="3" timestamp="2010-07-08T19:26:29Z" uid="74617" user="JohnSmith" changeset="5168688">
    <nd ref="347430489"/>
    <nd ref="347430501"/>
    <nd ref="347430496"/>
    <nd ref="347430490"/>
    <tag k="highway" v="residential"/>
    <tag k="maxspeed" v="50"/>
    <tag k="maxspeed:source" v="default residential speed limit in Australia"/>
    <tag k="name" v="Rebecca Promenade"/>
  </way>
  <way id="31249753" version="4" timestamp="2011-04-20T05:50:01Z" uid="4467" user="Rosscoe" changeset="7912938">
    <nd ref="347430489"/>
    <nd ref="347430501"/>
    <nd ref="347430496"/>
    <nd ref="347430490"/>
    <tag k="highway" v="residential"/>
    <tag k="maxspeed" v="50"/>
    <tag k="maxspeed:source:maxspeed" v="default residential speed limit in Australia"/>
    <tag k="name" v="Rebecca Promenade"/>
  </way>
  <way id="31249754" version="3" timestamp="2010-07-08T19:18:58Z" uid="74617" user="JohnSmith" changeset="5168688">
    <nd ref="347430494"/>
    <nd ref="347430495"/>
    <tag k="highway" v="residential"/>
    <tag k="maxspeed" v="50"/>
    <tag k="maxspeed:source" v="default residential speed limit in Australia"/>
    <tag k="name" v="Quartz Way"/>
  </way>
  <way id="31249756" version="3" timestamp="2010-07-08T19:22:10Z" uid="74617" user="JohnSmith" changeset="5168688">
    <nd ref="347430501"/>
    <nd ref="347430518"/>
    <nd ref="347430502"/>
    <nd ref="347430503"/>
    <nd ref="347430504"/>
    <nd ref="347430505"/>
    <tag k="highway" v="residential"/>
    <tag k="maxspeed" v="50"/>
    <tag k="maxspeed:source" v="default residential speed limit in Australia"/>
    <tag k="name" v="Summerhill Street"/>
  </way>
  <way id="31249757" version="3" timestamp="2010-07-08T19:24:50Z" uid="74617" user="JohnSmith" changeset="5168688">
    <nd ref="347430506"/>
    <nd ref="347430509"/>
    <nd ref="347430511"/>
    <nd ref="347430512"/>
    <nd ref="347430513"/>
    <nd ref="347427238"/>
    <tag k="highway" v="residential"/>
    <tag k="maxspeed" v="50"/>
    <tag k="maxspeed:source" v="default residential speed limit in Australia"/>
    <tag k="name" v="Dusky Crescent"/>
  </way>
  <way id="31249758" version="3" timestamp="2010-07-08T19:17:08Z" uid="74617" user="JohnSmith" changeset="5168688">
    <nd ref="347430514"/>
    <nd ref="347430515"/>
    <nd ref="347430516"/>
    <nd ref="347430517"/>
    <nd ref="347430518"/>
    <tag k="highway" v="residential"/>
    <tag k="maxspeed" v="50"/>
    <tag k="maxspeed:source" v="default residential speed limit in Australia"/>
    <tag k="name" v="Twilight Place"/>
  </way>
  <way id="31249758" version="4" timestamp="2011-04-20T05:50:08Z" uid="4467" user="Rosscoe" changeset="7912938">
    <nd ref="347430514"/>
    <nd ref="347430515"/>
    <nd ref="347430516"/>
    <nd ref="347430517"/>
    <nd ref="347430518"/>
    <tag k="highway" v="residential"/>
    <tag k="maxspeed" v="50"/>
    <tag k="maxspeed:source:maxspeed" v="default residential speed limit in Australia"/>
    <tag k="name" v="Twilight Place"/>
  </way>
  <way id="31249760" version="4" timestamp="2010-05-01T04:45:00Z" uid="4467" user="Rosscoe" changeset="4571542">
    <nd ref="441453036"/>
    <nd ref="714628720"/>
    <nd ref="714628604"/>
    <nd ref="347430529"/>
    <nd ref="714628624"/>
    <tag k="highway" v="road"/>
  </way>
  <way id="31249760" version="5" timestamp="2011-04-20T13:36:53Z" uid="4467" user="Rosscoe" changeset="7916336">
    <nd ref="1252418938"/>
    <nd ref="1252419080"/>
    <nd ref="1252419365"/>
    <nd ref="1252419228"/>
    <nd ref="1252419101"/>
    <nd ref="1252418844"/>
    <nd ref="1252419259"/>
    <nd ref="1252418994"/>
    <nd ref="1252419145"/>
    <nd ref="441453036"/>
    <nd ref="714628720"/>
    <nd ref="714628604"/>
    <nd ref="347430529"/>
    <nd ref="1252418822"/>
    <nd ref="1252418866"/>
    <nd ref="714628624"/>
    <tag k="highway" v="residential"/>
    <tag k="source" v="nearmap"/>
  </way>
  <way id="31249761" version="3" timestamp="2010-07-08T19:20:55Z" uid="74617" user="JohnSmith" changeset="5168688">
    <nd ref="347430533"/>
    <nd ref="347430534"/>
    <nd ref="347430535"/>
    <nd ref="347430536"/>
    <nd ref="347430537"/>
    <tag k="highway" v="residential"/>
    <tag k="maxspeed" v="50"/>
    <tag k="maxspeed:source" v="default residential speed limit in Australia"/>
    <tag k="name" v="Pilotbird Way"/>
  </way>
  <way id="31249761" version="4" timestamp="2011-04-20T13:36:34Z" uid="4467" user="Rosscoe" changeset="7916336">
    <nd ref="347430533"/>
    <nd ref="347430534"/>
    <nd ref="347430535"/>
    <nd ref="347430536"/>
    <nd ref="347430537"/>
    <tag k="highway" v="residential"/>
    <tag k="maxspeed" v="50"/>
    <tag k="name" v="Pilotbird Way"/>
    <tag k="source:maxspeed" v="default residential speed limit in Australia"/>
  </way>
  <way id="31249768" version="6" timestamp="2010-07-08T19:22:01Z" uid="74617" user="JohnSmith" changeset="5168688">
    <nd ref="347430607"/>
    <nd ref="736220304"/>
    <nd ref="347430601"/>
    <nd ref="347345328"/>
    <tag k="highway" v="residential"/>
    <tag k="maxspeed" v="50"/>
    <tag k="maxspeed:source" v="default residential speed limit in Australia"/>
    <tag k="name" v="Kingston Boulevard"/>
    <tag k="oneway" v="yes"/>
    <tag k="source" v="nearmap"/>
  </way>
  <way id="31249769" version="6" timestamp="2010-05-18T04:07:09Z" uid="4467" user="Rosscoe" changeset="4735134">
    <nd ref="347430613"/>
    <nd ref="347430605"/>
    <nd ref="347341293"/>
    <tag k="highway" v="tertiary"/>
    <tag k="name" v="Kingston Boulevard"/>
    <tag k="oneway" v="yes"/>
    <tag k="source" v="nearmap"/>
  </way>
  <way id="31249770" version="9" timestamp="2010-05-18T04:07:07Z" uid="4467" user="Rosscoe" changeset="4735134">
    <nd ref="347429536"/>
    <nd ref="736220651"/>
    <nd ref="736220652"/>
    <nd ref="347429547"/>
    <nd ref="347430607"/>
    <nd ref="736220654"/>
    <nd ref="736220655"/>
    <nd ref="736220656"/>
    <nd ref="347430603"/>
    <nd ref="347430609"/>
    <nd ref="736220657"/>
    <nd ref="736220659"/>
    <nd ref="738191072"/>
    <nd ref="347430613"/>
    <nd ref="736220662"/>
    <nd ref="736220663"/>
    <nd ref="736220664"/>
    <nd ref="347429536"/>
    <tag k="highway" v="secondary"/>
    <tag k="junction" v="roundabout"/>
    <tag k="source" v="nearmap"/>
  </way>
  <way id="31249771" version="6" timestamp="2010-05-18T04:06:55Z" uid="4467" user="Rosscoe" changeset="4735134">
    <nd ref="347341293"/>
    <nd ref="347430599"/>
    <nd ref="736220664"/>
    <tag k="highway" v="tertiary"/>
    <tag k="name" v="Kingston Boulevard"/>
    <tag k="oneway" v="yes"/>
    <tag k="source" v="nearmap"/>
  </way>
  <way id="31249772" version="5" timestamp="2010-07-08T19:20:19Z" uid="74617" user="JohnSmith" changeset="5168688">
    <nd ref="347345328"/>
    <nd ref="347430602"/>
    <nd ref="347430603"/>
    <tag k="highway" v="residential"/>
    <tag k="maxspeed" v="50"/>
    <tag k="maxspeed:source" v="default residential speed limit in Australia"/>
    <tag k="name" v="Kingston Boulevard"/>
    <tag k="oneway" v="yes"/>
    <tag k="source" v="nearmap"/>
  </way>
  <way id="31249788" version="2" timestamp="2011-02-24T03:58:43Z" uid="4467" user="Rosscoe" changeset="7378631">
    <nd ref="347430704"/>
    <nd ref="347430705"/>
    <tag k="highway" v="residential"/>
    <tag k="oneway" v="yes"/>
    <tag k="source" v="nearmap"/>
    <tag k="surface" v="asphalt"/>
  </way>
  <way id="31249789" version="2" timestamp="2011-02-24T03:58:22Z" uid="4467" user="Rosscoe" changeset="7378631">
    <nd ref="347430706"/>
    <nd ref="204464930"/>
    <tag k="highway" v="residential"/>
    <tag k="oneway" v="yes"/>
    <tag k="source" v="nearmap"/>
    <tag k="surface" v="asphalt"/>
  </way>
  <way id="31249863" version="5" timestamp="2010-07-08T19:24:35Z" uid="74617" user="JohnSmith" changeset="5168688">
    <nd ref="347431582"/>
    <nd ref="347431608"/>
    <tag k="highway" v="residential"/>
    <tag k="maxspeed" v="50"/>
    <tag k="maxspeed:source" v="default residential speed limit in Australia"/>
    <tag k="name" v="Devitt Place"/>
  </way>
  <way id="31249864" version="4" timestamp="2010-07-08T19:20:35Z" uid="74617" user="JohnSmith" changeset="5168688">
    <nd ref="347431608"/>
    <nd ref="347431763"/>
    <nd ref="347431768"/>
    <nd ref="735029257"/>
    <nd ref="735029258"/>
    <nd ref="347431764"/>
    <nd ref="347431765"/>
    <tag k="highway" v="residential"/>
    <tag k="maxspeed" v="50"/>
    <tag k="maxspeed:source" v="default residential speed limit in Australia"/>
    <tag k="name" v="Doubell Boulevard"/>
    <tag k="oneway" v="yes"/>
  </way>
  <way id="31249865" version="3" timestamp="2010-07-08T19:23:02Z" uid="74617" user="JohnSmith" changeset="5168688">
    <nd ref="347431598"/>
    <nd ref="347431613"/>
    <tag k="highway" v="residential"/>
    <tag k="maxspeed" v="50"/>
    <tag k="maxspeed:source" v="default residential speed limit in Australia"/>
    <tag k="name" v="Theile Court"/>
  </way>
  <way id="31249866" version="3" timestamp="2010-07-08T19:15:42Z" uid="74617" user="JohnSmith" changeset="5168688">
    <nd ref="347431610"/>
    <nd ref="347431614"/>
    <nd ref="347431615"/>
    <nd ref="347431616"/>
    <nd ref="347431617"/>
    <nd ref="347431618"/>
    <tag k="highway" v="residential"/>
    <tag k="maxspeed" v="50"/>
    <tag k="maxspeed:source" v="default residential speed limit in Australia"/>
    <tag k="name" v="Nunn Avenue"/>
  </way>
  <way id="31249867" version="3" timestamp="2010-07-08T19:18:02Z" uid="74617" user="JohnSmith" changeset="5168688">
    <nd ref="347431619"/>
    <nd ref="347431620"/>
    <nd ref="347431605"/>
    <tag k="highway" v="residential"/>
    <tag k="maxspeed" v="50"/>
    <tag k="maxspeed:source" v="default residential speed limit in Australia"/>
    <tag k="name" v="Sonnet Way"/>
  </way>
  <way id="31249868" version="3" timestamp="2010-05-01T06:26:51Z" uid="4467" user="Rosscoe" changeset="4571796">
    <nd ref="347431711"/>
    <nd ref="347431712"/>
    <nd ref="714788162"/>
    <tag k="highway" v="residential"/>
    <tag k="name" v="Tennyson Drive"/>
  </way>
  <way id="31249868" version="4" timestamp="2010-07-08T19:18:47Z" uid="74617" user="JohnSmith" changeset="5168688">
    <nd ref="347431711"/>
    <nd ref="347431712"/>
    <nd ref="714788162"/>
    <tag k="highway" v="residential"/>
    <tag k="maxspeed" v="50"/>
    <tag k="maxspeed:source" v="default residential speed limit in Australia"/>
    <tag k="name" v="Tennyson Drive"/>
  </way>
  <way id="31249869" version="3" timestamp="2010-05-01T06:26:49Z" uid="4467" user="Rosscoe" changeset="4571796">
    <nd ref="347431626"/>
    <nd ref="347431629"/>
    <nd ref="347431630"/>
    <nd ref="347431631"/>
    <nd ref="347431632"/>
    <tag k="highway" v="residential"/>
    <tag k="name" v="Tennyson Drive"/>
    <tag k="oneway" v="yes"/>
    <tag k="source" v="nearmap"/>
  </way>
  <way id="31249869" version="4" timestamp="2010-07-08T19:21:11Z" uid="74617" user="JohnSmith" changeset="5168688">
    <nd ref="347431626"/>
    <nd ref="347431629"/>
    <nd ref="347431630"/>
    <nd ref="347431631"/>
    <nd ref="347431632"/>
    <tag k="highway" v="residential"/>
    <tag k="maxspeed" v="50"/>
    <tag k="maxspeed:source" v="default residential speed limit in Australia"/>
    <tag k="name" v="Tennyson Drive"/>
    <tag k="oneway" v="yes"/>
    <tag k="source" v="nearmap"/>
  </way>
  <way id="31249870" version="2" timestamp="2010-05-01T06:26:51Z" uid="4467" user="Rosscoe" changeset="4571796"/>
  <way id="31249871" version="3" timestamp="2010-07-08T19:16:19Z" uid="74617" user="JohnSmith" changeset="5168688">
    <nd ref="347431633"/>
    <nd ref="347431635"/>
    <nd ref="347431634"/>
    <tag k="highway" v="residential"/>
    <tag k="maxspeed" v="50"/>
    <tag k="maxspeed:source" v="default residential speed limit in Australia"/>
    <tag k="name" v="Shakespeare Grove"/>
  </way>
  <way id="31249872" version="3" timestamp="2010-05-01T06:26:47Z" uid="4467" user="Rosscoe" changeset="4571796">
    <nd ref="347431635"/>
    <nd ref="714788035"/>
    <nd ref="714788079"/>
    <nd ref="347431632"/>
    <tag k="highway" v="residential"/>
    <tag k="name" v="Shakespeare Grove"/>
  </way>
  <way id="31249872" version="4" timestamp="2010-07-08T19:21:23Z" uid="74617" user="JohnSmith" changeset="5168688">
    <nd ref="347431635"/>
    <nd ref="714788035"/>
    <nd ref="714788079"/>
    <nd ref="347431632"/>
    <tag k="highway" v="residential"/>
    <tag k="maxspeed" v="50"/>
    <tag k="maxspeed:source" v="default residential speed limit in Australia"/>
    <tag k="name" v="Shakespeare Grove"/>
  </way>
  <way id="31249873" version="4" timestamp="2010-05-01T06:26:45Z" uid="4467" user="Rosscoe" changeset="4571796">
    <nd ref="347431627"/>
    <nd ref="347431636"/>
    <nd ref="347431637"/>
    <nd ref="347431638"/>
    <nd ref="347431639"/>
    <nd ref="347431640"/>
    <tag k="highway" v="residential"/>
    <tag k="name" v="Prospero Way"/>
  </way>
  <way id="31249873" version="5" timestamp="2010-07-08T19:24:11Z" uid="74617" user="JohnSmith" changeset="5168688">
    <nd ref="347431627"/>
    <nd ref="347431636"/>
    <nd ref="347431637"/>
    <nd ref="347431638"/>
    <nd ref="347431639"/>
    <nd ref="347431640"/>
    <tag k="highway" v="residential"/>
    <tag k="maxspeed" v="50"/>
    <tag k="maxspeed:source" v="default residential speed limit in Australia"/>
    <tag k="name" v="Prospero Way"/>
  </way>
  <way id="31249873" version="6" timestamp="2011-03-04T14:23:17Z" uid="4467" user="Rosscoe" changeset="7454775">
    <nd ref="347431627"/>
    <nd ref="347431636"/>
    <nd ref="347431637"/>
    <nd ref="347431638"/>
    <nd ref="347431639"/>
    <nd ref="347431640"/>
    <tag k="highway" v="residential"/>
    <tag k="maxspeed" v="50"/>
    <tag k="maxspeed:source" v="default residential speed limit in Australia"/>
    <tag k="name" v="Prospero Way"/>
  </way>
  <way id="31249874" version="3" timestamp="2010-07-08T19:16:34Z" uid="74617" user="JohnSmith" changeset="5168688">
    <nd ref="347431641"/>
    <nd ref="347431643"/>
    <nd ref="347431642"/>
    <tag k="highway" v="residential"/>
    <tag k="maxspeed" v="50"/>
    <tag k="maxspeed:source" v="default residential speed limit in Australia"/>
    <tag k="name" v="Blake Court"/>
  </way>
  <way id="31249875" version="4" timestamp="2010-07-08T19:19:02Z" uid="74617" user="JohnSmith" changeset="5168688">
    <nd ref="347431643"/>
    <nd ref="347431644"/>
    <nd ref="347431645"/>
    <tag k="highway" v="residential"/>
    <tag k="maxspeed" v="50"/>
    <tag k="maxspeed:source" v="default residential speed limit in Australia"/>
    <tag k="name" v="Blake Court"/>
  </way>
  <way id="31249876" version="3" timestamp="2010-07-08T19:19:45Z" uid="74617" user="JohnSmith" changeset="5168688">
    <nd ref="347431678"/>
    <nd ref="347431679"/>
    <tag k="highway" v="residential"/>
    <tag k="maxspeed" v="50"/>
    <tag k="maxspeed:source" v="default residential speed limit in Australia"/>
  </way>
  <way id="31249876" version="4" timestamp="2011-03-05T06:30:16Z" uid="4467" user="Rosscoe" changeset="7460268">
    <nd ref="347431678"/>
    <nd ref="347431679"/>
    <tag k="highway" v="residential"/>
    <tag k="maxspeed" v="50"/>
    <tag k="maxspeed:source" v="default residential speed limit in Australia"/>
    <tag k="source" v="nearmap"/>
    <tag k="surface" v="asphalt"/>
  </way>
  <way id="31249877" version="3" timestamp="2010-05-01T06:26:44Z" uid="4467" user="Rosscoe" changeset="4571796">
    <nd ref="714788072"/>
    <nd ref="347431680"/>
    <nd ref="347431690"/>
    <nd ref="347431682"/>
    <nd ref="347431689"/>
    <nd ref="347431681"/>
    <tag k="highway" v="residential"/>
    <tag k="name" v="Barchester Avenue"/>
  </way>
  <way id="31249877" version="4" timestamp="2010-07-08T19:22:12Z" uid="74617" user="JohnSmith" changeset="5168688">
    <nd ref="714788072"/>
    <nd ref="347431680"/>
    <nd ref="347431690"/>
    <nd ref="347431682"/>
    <nd ref="347431689"/>
    <nd ref="347431681"/>
    <tag k="highway" v="residential"/>
    <tag k="maxspeed" v="50"/>
    <tag k="maxspeed:source" v="default residential speed limit in Australia"/>
    <tag k="name" v="Barchester Avenue"/>
  </way>
  <way id="31249877" version="5" timestamp="2011-03-04T14:23:15Z" uid="4467" user="Rosscoe" changeset="7454775">
    <nd ref="714788072"/>
    <nd ref="347431680"/>
    <nd ref="347431690"/>
    <nd ref="347431682"/>
    <nd ref="347431689"/>
    <nd ref="347431681"/>
    <nd ref="1185851235"/>
    <nd ref="571808889"/>
    <tag k="highway" v="residential"/>
    <tag k="maxspeed" v="50"/>
    <tag k="maxspeed:source" v="default residential speed limit in Australia"/>
    <tag k="name" v="Barchester Avenue"/>
  </way>
  <way id="31249878" version="3" timestamp="2010-07-08T19:26:34Z" uid="74617" user="JohnSmith" changeset="5168688">
    <nd ref="347431682"/>
    <nd ref="347431683"/>
    <tag k="highway" v="residential"/>
    <tag k="maxspeed" v="50"/>
    <tag k="maxspeed:source" v="default residential speed limit in Australia"/>
    <tag k="name" v="Guilford Court"/>
  </way>
  <way id="31249879" version="3" timestamp="2010-07-08T19:17:10Z" uid="74617" user="JohnSmith" changeset="5168688">
    <nd ref="347431684"/>
    <nd ref="347431683"/>
    <nd ref="347431685"/>
    <tag k="highway" v="residential"/>
    <tag k="maxspeed" v="50"/>
    <tag k="maxspeed:source" v="default residential speed limit in Australia"/>
  </way>
  <way id="31249880" version="3" timestamp="2010-07-08T19:25:14Z" uid="74617" user="JohnSmith" changeset="5168688">
    <nd ref="347431686"/>
    <nd ref="347431688"/>
    <nd ref="347431687"/>
    <tag k="highway" v="residential"/>
    <tag k="maxspeed" v="50"/>
    <tag k="maxspeed:source" v="default residential speed limit in Australia"/>
  </way>
  <way id="31249881" version="3" timestamp="2010-07-08T19:15:57Z" uid="74617" user="JohnSmith" changeset="5168688">
    <nd ref="347431688"/>
    <nd ref="347431689"/>
    <tag k="highway" v="residential"/>
    <tag k="maxspeed" v="50"/>
    <tag k="maxspeed:source" v="default residential speed limit in Australia"/>
    <tag k="name" v="Layton Court"/>
  </way>
  <way id="31249882" version="3" timestamp="2010-06-01T02:45:24Z" uid="4467" user="Rosscoe" changeset="4871086">
    <nd ref="347431690"/>
    <nd ref="347431691"/>
    <tag k="highway" v="residential"/>
    <tag k="name" v="Barandon Court"/>
  </way>
  <way id="31249882" version="4" timestamp="2010-07-08T19:20:11Z" uid="74617" user="JohnSmith" changeset="5168688">
    <nd ref="347431690"/>
    <nd ref="347431691"/>
    <tag k="highway" v="residential"/>
    <tag k="maxspeed" v="50"/>
    <tag k="maxspeed:source" v="default residential speed limit in Australia"/>
    <tag k="name" v="Barandon Court"/>
  </way>
  <way id="31249883" version="3" timestamp="2010-07-08T19:22:38Z" uid="74617" user="JohnSmith" changeset="5168688">
    <nd ref="347431692"/>
    <nd ref="347431691"/>
    <nd ref="347431693"/>
    <tag k="highway" v="residential"/>
    <tag k="maxspeed" v="50"/>
    <tag k="maxspeed:source" v="default residential speed limit in Australia"/>
  </way>
  <way id="31249884" version="3" timestamp="2010-07-08T19:23:20Z" uid="74617" user="JohnSmith" changeset="5168688">
    <nd ref="347431694"/>
    <nd ref="347431695"/>
    <nd ref="347431696"/>
    <tag k="highway" v="residential"/>
    <tag k="maxspeed" v="50"/>
    <tag k="maxspeed:source" v="default residential speed limit in Australia"/>
    <tag k="name" v="Windle Court"/>
  </way>
  <way id="31249885" version="3" timestamp="2010-07-08T19:25:51Z" uid="74617" user="JohnSmith" changeset="5168688">
    <nd ref="347431697"/>
    <nd ref="347431704"/>
    <nd ref="347431698"/>
    <nd ref="347431696"/>
    <nd ref="347431699"/>
    <nd ref="347431670"/>
    <tag k="highway" v="residential"/>
    <tag k="maxspeed" v="50"/>
    <tag k="maxspeed:source" v="default residential speed limit in Australia"/>
    <tag k="name" v="Whitfield Court"/>
  </way>
  <way id="31249886" version="3" timestamp="2010-07-08T19:18:18Z" uid="74617" user="JohnSmith" changeset="5168688">
    <nd ref="347431702"/>
    <nd ref="347431703"/>
    <tag k="highway" v="residential"/>
    <tag k="maxspeed" v="50"/>
    <tag k="maxspeed:source" v="default residential speed limit in Australia"/>
  </way>
  <way id="31249887" version="3" timestamp="2010-07-08T19:20:49Z" uid="74617" user="JohnSmith" changeset="5168688">
    <nd ref="347431704"/>
    <nd ref="347431705"/>
    <tag k="highway" v="residential"/>
    <tag k="maxspeed" v="50"/>
    <tag k="maxspeed:source" v="default residential speed limit in Australia"/>
  </way>
  <way id="31249888" version="3" timestamp="2010-07-08T19:19:37Z" uid="74617" user="JohnSmith" changeset="5168688">
    <nd ref="347431706"/>
    <nd ref="347431707"/>
    <tag k="highway" v="residential"/>
    <tag k="maxspeed" v="50"/>
    <tag k="maxspeed:source" v="default residential speed limit in Australia"/>
    <tag k="name" v="Wenden Court"/>
  </way>
  <way id="31249889" version="3" timestamp="2010-07-08T19:22:05Z" uid="74617" user="JohnSmith" changeset="5168688">
    <nd ref="347431708"/>
    <nd ref="347431709"/>
    <tag k="highway" v="residential"/>
    <tag k="maxspeed" v="50"/>
    <tag k="maxspeed:source" v="default residential speed limit in Australia"/>
    <tag k="name" v="Ford Court"/>
  </way>
  <way id="31249890" version="3" timestamp="2010-07-08T19:26:25Z" uid="74617" user="JohnSmith" changeset="5168688">
    <nd ref="347431606"/>
    <nd ref="347431710"/>
    <tag k="highway" v="residential"/>
    <tag k="maxspeed" v="50"/>
    <tag k="maxspeed:source" v="default residential speed limit in Australia"/>
    <tag k="name" v="Konrads Court"/>
  </way>
  <way id="31249891" version="3" timestamp="2010-07-08T19:17:04Z" uid="74617" user="JohnSmith" changeset="5168688">
    <nd ref="347431712"/>
    <nd ref="347431713"/>
    <tag k="highway" v="residential"/>
    <tag k="maxspeed" v="50"/>
    <tag k="maxspeed:source" v="default residential speed limit in Australia"/>
    <tag k="name" v="Keats Court"/>
  </way>
  <way id="31249892" version="3" timestamp="2010-07-08T19:17:45Z" uid="74617" user="JohnSmith" changeset="5168688">
    <nd ref="347431714"/>
    <nd ref="347431713"/>
    <nd ref="347431715"/>
    <tag k="highway" v="residential"/>
    <tag k="maxspeed" v="50"/>
    <tag k="maxspeed:source" v="default residential speed limit in Australia"/>
    <tag k="name" v="Keats Court"/>
  </way>
  <way id="31249893" version="4" timestamp="2010-05-01T06:26:48Z" uid="4467" user="Rosscoe" changeset="4571796">
    <nd ref="347431716"/>
    <nd ref="347431717"/>
    <nd ref="347431718"/>
    <nd ref="347431719"/>
    <nd ref="347431723"/>
    <nd ref="714788060"/>
    <tag k="highway" v="residential"/>
    <tag k="name" v="Abbington Drive"/>
  </way>
  <way id="31249893" version="5" timestamp="2010-07-08T19:20:22Z" uid="74617" user="JohnSmith" changeset="5168688">
    <nd ref="347431716"/>
    <nd ref="347431717"/>
    <nd ref="347431718"/>
    <nd ref="347431719"/>
    <nd ref="347431723"/>
    <nd ref="714788060"/>
    <tag k="highway" v="residential"/>
    <tag k="maxspeed" v="50"/>
    <tag k="maxspeed:source" v="default residential speed limit in Australia"/>
    <tag k="name" v="Abbington Drive"/>
  </way>
  <way id="31249894" version="3" timestamp="2010-07-08T19:24:46Z" uid="74617" user="JohnSmith" changeset="5168688">
    <nd ref="347431723"/>
    <nd ref="347431724"/>
    <nd ref="347431725"/>
    <nd ref="347431729"/>
    <nd ref="347431730"/>
    <nd ref="347431731"/>
    <nd ref="347431654"/>
    <tag k="highway" v="residential"/>
    <tag k="maxspeed" v="50"/>
    <tag k="maxspeed:source" v="default residential speed limit in Australia"/>
    <tag k="name" v="Kingsfield Way"/>
  </way>
  <way id="31249895" version="6" timestamp="2010-07-08T19:27:25Z" uid="74617" user="JohnSmith" changeset="5168688">
    <nd ref="347431658"/>
    <nd ref="735036114"/>
    <nd ref="347431732"/>
    <nd ref="347431733"/>
    <nd ref="347431734"/>
    <nd ref="347431735"/>
    <nd ref="347431736"/>
    <nd ref="347431737"/>
    <nd ref="347431738"/>
    <nd ref="347431739"/>
    <tag k="highway" v="residential"/>
    <tag k="maxspeed" v="50"/>
    <tag k="maxspeed:source" v="default residential speed limit in Australia"/>
    <tag k="name" v="Ellesmere Way"/>
  </way>
  <way id="31249896" version="3" timestamp="2010-07-08T19:23:13Z" uid="74617" user="JohnSmith" changeset="5168688">
    <nd ref="347431741"/>
    <nd ref="347431740"/>
    <nd ref="347431739"/>
    <nd ref="347431742"/>
    <nd ref="347431745"/>
    <nd ref="347431743"/>
    <tag k="highway" v="residential"/>
    <tag k="maxspeed" v="50"/>
    <tag k="maxspeed:source" v="default residential speed limit in Australia"/>
    <tag k="name" v="Princeton Close"/>
  </way>
  <way id="31249897" version="3" timestamp="2010-07-08T19:25:45Z" uid="74617" user="JohnSmith" changeset="5168688">
    <nd ref="347431744"/>
    <nd ref="347431745"/>
    <tag k="highway" v="residential"/>
    <tag k="maxspeed" v="50"/>
    <tag k="maxspeed:source" v="default residential speed limit in Australia"/>
    <tag k="name" v="Princeton Close"/>
  </way>
  <way id="31249898" version="2" timestamp="2010-05-01T06:26:51Z" uid="4467" user="Rosscoe" changeset="4571796"/>
  <way id="31249899" version="4" timestamp="2010-07-08T19:20:45Z" uid="74617" user="JohnSmith" changeset="5168688">
    <nd ref="347431746"/>
    <nd ref="735029351"/>
    <nd ref="347431754"/>
    <nd ref="347431747"/>
    <tag k="highway" v="residential"/>
    <tag k="maxspeed" v="50"/>
    <tag k="maxspeed:source" v="default residential speed limit in Australia"/>
    <tag k="name" v="Poets Lane"/>
    <tag k="oneway" v="yes"/>
  </way>
  <way id="31249901" version="4" timestamp="2010-07-08T19:24:01Z" uid="74617" user="JohnSmith" changeset="5168688">
    <nd ref="347431748"/>
    <nd ref="347431755"/>
    <nd ref="735029348"/>
    <nd ref="347431749"/>
    <tag k="highway" v="residential"/>
    <tag k="maxspeed" v="50"/>
    <tag k="maxspeed:source" v="default residential speed limit in Australia"/>
    <tag k="name" v="Poets Lane"/>
    <tag k="oneway" v="yes"/>
  </way>
  <way id="31249903" version="3" timestamp="2010-07-08T19:18:55Z" uid="74617" user="JohnSmith" changeset="5168688">
    <nd ref="347431766"/>
    <nd ref="347431762"/>
    <nd ref="347431769"/>
    <nd ref="347431767"/>
    <nd ref="347431608"/>
    <tag k="highway" v="residential"/>
    <tag k="maxspeed" v="50"/>
    <tag k="maxspeed:source" v="default residential speed limit in Australia"/>
    <tag k="name" v="Doubell Boulevard"/>
    <tag k="oneway" v="yes"/>
  </way>
  <way id="31249905" version="3" timestamp="2010-07-08T19:26:44Z" uid="74617" user="JohnSmith" changeset="5168688">
    <nd ref="347431608"/>
    <nd ref="347431613"/>
    <nd ref="347431609"/>
    <nd ref="347431610"/>
    <nd ref="347431611"/>
    <nd ref="347431612"/>
    <nd ref="347431603"/>
    <nd ref="347431604"/>
    <nd ref="347431605"/>
    <nd ref="347431606"/>
    <nd ref="347431708"/>
    <nd ref="347431706"/>
    <nd ref="347431607"/>
    <tag k="highway" v="residential"/>
    <tag k="maxspeed" v="50"/>
    <tag k="maxspeed:source" v="default residential speed limit in Australia"/>
    <tag k="name" v="Doubell Boulevard"/>
  </way>
  <way id="31249905" version="4" timestamp="2011-03-04T14:23:22Z" uid="4467" user="Rosscoe" changeset="7454775">
    <nd ref="347431608"/>
    <nd ref="347431613"/>
    <nd ref="347431609"/>
    <nd ref="347431610"/>
    <nd ref="347431611"/>
    <nd ref="347431612"/>
    <nd ref="347431603"/>
    <nd ref="347431604"/>
    <nd ref="347431605"/>
    <nd ref="347431606"/>
    <nd ref="1185851158"/>
    <nd ref="347431708"/>
    <nd ref="1185851193"/>
    <nd ref="347431706"/>
    <nd ref="347431607"/>
    <tag k="highway" v="residential"/>
    <tag k="maxspeed" v="50"/>
    <tag k="maxspeed:source" v="default residential speed limit in Australia"/>
    <tag k="name" v="Doubell Boulevard"/>
  </way>
  <way id="31249906" version="4" timestamp="2010-05-01T03:35:53Z" uid="4467" user="Rosscoe" changeset="4571405">
    <nd ref="346492797"/>
    <nd ref="346492795"/>
    <tag k="highway" v="residential"/>
    <tag k="name" v="Pyke Street"/>
  </way>
  <way id="31249906" version="5" timestamp="2010-07-08T19:19:12Z" uid="74617" user="JohnSmith" changeset="5168688">
    <nd ref="346492797"/>
    <nd ref="346492795"/>
    <tag k="highway" v="residential"/>
    <tag k="maxspeed" v="50"/>
    <tag k="maxspeed:source" v="default residential speed limit in Australia"/>
    <tag k="name" v="Pyke Street"/>
  </way>
  <way id="31249963" version="6" timestamp="2009-12-16T03:58:56Z" uid="4467" user="Rosscoe" changeset="3384387">
    <nd ref="347432019"/>
    <nd ref="592931579"/>
    <tag k="highway" v="residential"/>
    <tag k="name" v="Kilmarnock Court"/>
    <tag k="source" v="nearmap"/>
  </way>
  <way id="31249963" version="7" timestamp="2010-07-08T19:23:47Z" uid="74617" user="JohnSmith" changeset="5168688">
    <nd ref="347432019"/>
    <nd ref="592931579"/>
    <tag k="highway" v="residential"/>
    <tag k="maxspeed" v="50"/>
    <tag k="maxspeed:source" v="default residential speed limit in Australia"/>
    <tag k="name" v="Kilmarnock Court"/>
    <tag k="source" v="nearmap"/>
  </way>
  <way id="31249964" version="3" timestamp="2010-07-08T19:24:33Z" uid="74617" user="JohnSmith" changeset="5168688">
    <nd ref="347432036"/>
    <nd ref="347432037"/>
    <tag k="highway" v="residential"/>
    <tag k="maxspeed" v="50"/>
    <tag k="maxspeed:source" v="default residential speed limit in Australia"/>
    <tag k="name" v="Overs Court"/>
  </way>
  <way id="31249965" version="3" timestamp="2010-07-08T19:27:06Z" uid="74617" user="JohnSmith" changeset="5168688">
    <nd ref="347432038"/>
    <nd ref="347432034"/>
    <tag k="highway" v="residential"/>
    <tag k="maxspeed" v="50"/>
    <tag k="maxspeed:source" v="default residential speed limit in Australia"/>
    <tag k="name" v="Horne Street"/>
  </way>
  <way id="31249966" version="3" timestamp="2010-07-08T19:19:27Z" uid="74617" user="JohnSmith" changeset="5168688">
    <nd ref="347432039"/>
    <nd ref="347432040"/>
    <nd ref="347432038"/>
    <nd ref="347432041"/>
    <tag k="highway" v="residential"/>
    <tag k="maxspeed" v="50"/>
    <tag k="maxspeed:source" v="default residential speed limit in Australia"/>
    <tag k="name" v="Richards Road"/>
  </way>
  <way id="31249967" version="4" timestamp="2010-07-08T19:21:51Z" uid="74617" user="JohnSmith" changeset="5168688">
    <nd ref="347432042"/>
    <nd ref="347432043"/>
    <nd ref="347432044"/>
    <nd ref="347432041"/>
    <nd ref="347432045"/>
    <nd ref="347432046"/>
    <nd ref="347432047"/>
    <nd ref="347432048"/>
    <nd ref="347432049"/>
    <nd ref="347432050"/>
    <tag k="highway" v="residential"/>
    <tag k="maxspeed" v="50"/>
    <tag k="maxspeed:source" v="default residential speed limit in Australia"/>
    <tag k="name" v="Industrial Avenue"/>
  </way>
  <way id="31249968" version="2" timestamp="2009-12-16T05:42:11Z" uid="4467" user="Rosscoe" changeset="3384575">
    <nd ref="347432052"/>
    <nd ref="347432051"/>
    <tag k="highway" v="service"/>
  </way>
  <way id="31249969" version="2" timestamp="2009-12-16T05:42:10Z" uid="4467" user="Rosscoe" changeset="3384575">
    <nd ref="347432055"/>
    <nd ref="347432054"/>
    <nd ref="347432056"/>
    <nd ref="347432053"/>
    <tag k="highway" v="service"/>
    <tag k="source" v="nearmap"/>
  </way>
  <way id="31249970" version="2" timestamp="2009-12-16T05:42:11Z" uid="4467" user="Rosscoe" changeset="3384575">
    <nd ref="347432056"/>
    <nd ref="347432057"/>
    <tag k="highway" v="service"/>
    <tag k="source" v="nearmap"/>
  </way>
  <way id="31249971" version="2" timestamp="2009-12-16T05:42:10Z" uid="4467" user="Rosscoe" changeset="3384575">
    <nd ref="347432058"/>
    <nd ref="347432059"/>
    <nd ref="347432060"/>
    <nd ref="347432062"/>
    <nd ref="347432064"/>
    <tag k="highway" v="unclassified"/>
    <tag k="source" v="nearmap"/>
  </way>
  <way id="31249972" version="2" timestamp="2009-12-16T05:42:11Z" uid="4467" user="Rosscoe" changeset="3384575">
    <nd ref="347432065"/>
    <nd ref="347432066"/>
    <tag k="highway" v="secondary"/>
    <tag k="source" v="nearmap"/>
  </way>
  <way id="31249973" version="3" timestamp="2009-12-16T05:42:11Z" uid="4467" user="Rosscoe" changeset="3384575">
    <nd ref="347432067"/>
    <nd ref="347432060"/>
    <tag k="highway" v="service"/>
    <tag k="oneway" v="yes"/>
    <tag k="source" v="nearmap"/>
  </way>
  <way id="31249974" version="2" timestamp="2009-12-16T05:42:11Z" uid="4467" user="Rosscoe" changeset="3384575">
    <nd ref="125277850"/>
    <nd ref="347432069"/>
    <nd ref="347432068"/>
    <nd ref="347432067"/>
    <tag k="highway" v="service"/>
    <tag k="oneway" v="yes"/>
    <tag k="source" v="nearmap"/>
  </way>
  <way id="31249975" version="3" timestamp="2009-12-16T03:58:55Z" uid="4467" user="Rosscoe" changeset="3384387">
    <nd ref="347432070"/>
    <nd ref="347432071"/>
    <nd ref="347432072"/>
    <nd ref="347432077"/>
    <nd ref="347432073"/>
    <tag k="highway" v="residential"/>
    <tag k="name" v="Hammer Court"/>
    <tag k="source" v="nearmap"/>
  </way>
  <way id="31249975" version="4" timestamp="2010-07-08T19:22:52Z" uid="74617" user="JohnSmith" changeset="5168688">
    <nd ref="347432070"/>
    <nd ref="347432071"/>
    <nd ref="347432072"/>
    <nd ref="347432077"/>
    <nd ref="347432073"/>
    <tag k="highway" v="residential"/>
    <tag k="maxspeed" v="50"/>
    <tag k="maxspeed:source" v="default residential speed limit in Australia"/>
    <tag k="name" v="Hammer Court"/>
    <tag k="source" v="nearmap"/>
  </way>
  <way id="31249976" version="3" timestamp="2009-12-16T03:58:55Z" uid="4467" user="Rosscoe" changeset="3384387">
    <nd ref="347432074"/>
    <nd ref="347432073"/>
    <nd ref="347432075"/>
    <nd ref="347432076"/>
    <tag k="highway" v="residential"/>
    <tag k="name" v="Hammer Court"/>
    <tag k="source" v="nearmap"/>
  </way>
  <way id="31249976" version="4" timestamp="2010-07-08T19:19:00Z" uid="74617" user="JohnSmith" changeset="5168688">
    <nd ref="347432074"/>
    <nd ref="347432073"/>
    <nd ref="347432075"/>
    <nd ref="347432076"/>
    <tag k="highway" v="residential"/>
    <tag k="maxspeed" v="50"/>
    <tag k="maxspeed:source" v="default residential speed limit in Australia"/>
    <tag k="name" v="Hammer Court"/>
    <tag k="source" v="nearmap"/>
  </way>
  <way id="31249977" version="3" timestamp="2009-12-16T03:58:55Z" uid="4467" user="Rosscoe" changeset="3384387">
    <nd ref="347432077"/>
    <nd ref="347432078"/>
    <nd ref="592931581"/>
    <tag k="highway" v="residential"/>
    <tag k="name" v="Lentini Street"/>
  </way>
  <way id="31249977" version="4" timestamp="2010-07-08T19:21:22Z" uid="74617" user="JohnSmith" changeset="5168688">
    <nd ref="347432077"/>
    <nd ref="347432078"/>
    <nd ref="592931581"/>
    <tag k="highway" v="residential"/>
    <tag k="maxspeed" v="50"/>
    <tag k="maxspeed:source" v="default residential speed limit in Australia"/>
    <tag k="name" v="Lentini Street"/>
  </way>
  <way id="31249978" version="3" timestamp="2009-12-16T03:58:55Z" uid="4467" user="Rosscoe" changeset="3384387">
    <nd ref="592931594"/>
    <nd ref="347432082"/>
    <nd ref="347432083"/>
    <nd ref="347432084"/>
    <nd ref="347432085"/>
    <nd ref="347432086"/>
    <nd ref="347432081"/>
    <nd ref="347432087"/>
    <tag k="highway" v="residential"/>
    <tag k="name" v="Graham Court"/>
    <tag k="source" v="nearmap"/>
  </way>
  <way id="31249978" version="4" timestamp="2010-07-08T19:25:49Z" uid="74617" user="JohnSmith" changeset="5168688">
    <nd ref="592931594"/>
    <nd ref="347432082"/>
    <nd ref="347432083"/>
    <nd ref="347432084"/>
    <nd ref="347432085"/>
    <nd ref="347432086"/>
    <nd ref="347432081"/>
    <nd ref="347432087"/>
    <tag k="highway" v="residential"/>
    <tag k="maxspeed" v="50"/>
    <tag k="maxspeed:source" v="default residential speed limit in Australia"/>
    <tag k="name" v="Graham Court"/>
    <tag k="source" v="nearmap"/>
  </way>
  <way id="31249979" version="2" timestamp="2009-12-16T05:42:22Z" uid="4467" user="Rosscoe" changeset="3384575"/>
  <way id="31249980" version="2" timestamp="2009-12-16T03:58:56Z" uid="4467" user="Rosscoe" changeset="3384387">
    <nd ref="347432088"/>
    <nd ref="347432091"/>
    <tag k="highway" v="road"/>
  </way>
  <way id="31249980" version="3" timestamp="2009-12-16T05:42:11Z" uid="4467" user="Rosscoe" changeset="3384575">
    <nd ref="347432091"/>
    <nd ref="347432088"/>
    <nd ref="347432089"/>
    <tag k="highway" v="service"/>
    <tag k="oneway" v="yes"/>
    <tag k="source" v="nearmap"/>
  </way>
  <way id="31249981" version="2" timestamp="2009-12-16T05:42:09Z" uid="4467" user="Rosscoe" changeset="3384575">
    <nd ref="347432050"/>
    <nd ref="347432092"/>
    <nd ref="593052568"/>
    <nd ref="347432095"/>
    <nd ref="347432094"/>
    <tag k="highway" v="unclassified"/>
    <tag k="source" v="nearmap"/>
  </way>
  <way id="31249982" version="2" timestamp="2009-12-16T05:42:12Z" uid="4467" user="Rosscoe" changeset="3384575">
    <nd ref="347432095"/>
    <nd ref="347432096"/>
    <nd ref="347432050"/>
    <tag k="highway" v="unclassified"/>
    <tag k="source" v="nearmap"/>
  </way>
  <way id="31249983" version="6" timestamp="2011-03-10T00:29:12Z" uid="4467" user="Rosscoe" changeset="7510154"/>
  <way id="31249984" version="2" timestamp="2011-03-10T00:29:03Z" uid="4467" user="Rosscoe" changeset="7510154">
    <nd ref="347432110"/>
    <nd ref="347432114"/>
    <tag k="highway" v="residential"/>
    <tag k="source" v="nearmap"/>
  </way>
  <way id="31249985" version="2" timestamp="2011-03-10T00:29:05Z" uid="4467" user="Rosscoe" changeset="7510154">
    <nd ref="347432115"/>
    <nd ref="347432116"/>
    <tag k="highway" v="residential"/>
    <tag k="source" v="nearmap"/>
  </way>
  <way id="31249986" version="3" timestamp="2011-03-10T00:29:10Z" uid="4467" user="Rosscoe" changeset="7510154">
    <nd ref="347432117"/>
    <nd ref="347432164"/>
    <nd ref="347432168"/>
    <nd ref="571817117"/>
    <tag k="highway" v="residential"/>
    <tag k="source" v="nearmap"/>
  </way>
  <way id="31249988" version="3" timestamp="2010-05-01T06:26:45Z" uid="4467" user="Rosscoe" changeset="4571796">
    <nd ref="347432121"/>
    <nd ref="347432143"/>
    <nd ref="347432123"/>
    <tag k="highway" v="road"/>
  </way>
  <way id="31249988" version="4" timestamp="2011-03-10T00:29:01Z" uid="4467" user="Rosscoe" changeset="7510154">
    <nd ref="347432121"/>
    <nd ref="347432143"/>
    <nd ref="347432123"/>
    <tag k="highway" v="residential"/>
    <tag k="source" v="nearmap"/>
  </way>
  <way id="31249989" version="3" timestamp="2010-07-08T19:26:00Z" uid="74617" user="JohnSmith" changeset="5168688">
    <nd ref="347432124"/>
    <nd ref="347432125"/>
    <tag k="highway" v="residential"/>
    <tag k="maxspeed" v="50"/>
    <tag k="maxspeed:source" v="default residential speed limit in Australia"/>
    <tag k="name" v="Spoonbill Close"/>
  </way>
  <way id="31249991" version="3" timestamp="2010-05-01T06:26:48Z" uid="4467" user="Rosscoe" changeset="4571796">
    <nd ref="347432141"/>
    <nd ref="347432203"/>
    <nd ref="347432211"/>
    <nd ref="347432127"/>
    <nd ref="347432124"/>
    <nd ref="347432143"/>
    <tag k="highway" v="residential"/>
    <tag k="name" v="Scrubwren Drive"/>
  </way>
  <way id="31249991" version="4" timestamp="2010-07-08T19:20:55Z" uid="74617" user="JohnSmith" changeset="5168688">
    <nd ref="347432141"/>
    <nd ref="347432203"/>
    <nd ref="347432211"/>
    <nd ref="347432127"/>
    <nd ref="347432124"/>
    <nd ref="347432143"/>
    <tag k="highway" v="residential"/>
    <tag k="maxspeed" v="50"/>
    <tag k="maxspeed:source" v="default residential speed limit in Australia"/>
    <tag k="name" v="Scrubwren Drive"/>
  </way>
  <way id="31249991" version="5" timestamp="2011-03-10T00:28:56Z" uid="4467" user="Rosscoe" changeset="7510154">
    <nd ref="1194812963"/>
    <nd ref="1194812947"/>
    <nd ref="1194812976"/>
    <nd ref="1194812950"/>
    <nd ref="1194812917"/>
    <nd ref="347432141"/>
    <nd ref="347432203"/>
    <nd ref="347432211"/>
    <nd ref="347432127"/>
    <nd ref="347432124"/>
    <nd ref="1194812962"/>
    <nd ref="347432143"/>
    <tag k="highway" v="residential"/>
    <tag k="maxspeed" v="50"/>
    <tag k="maxspeed:source" v="default residential speed limit in Australia"/>
    <tag k="name" v="Scrubwren Drive"/>
  </way>
  <way id="31249993" version="3" timestamp="2010-05-01T06:26:47Z" uid="4467" user="Rosscoe" changeset="4571796">
    <nd ref="347432131"/>
    <nd ref="347432146"/>
    <nd ref="347432147"/>
    <nd ref="347432197"/>
    <nd ref="347432199"/>
    <nd ref="714788142"/>
    <nd ref="714788120"/>
    <tag k="highway" v="residential"/>
    <tag k="name" v="Urban Drive"/>
  </way>
  <way id="31249993" version="4" timestamp="2010-07-08T19:19:35Z" uid="74617" user="JohnSmith" changeset="5168688">
    <nd ref="347432131"/>
    <nd ref="347432146"/>
    <nd ref="347432147"/>
    <nd ref="347432197"/>
    <nd ref="347432199"/>
    <nd ref="714788142"/>
    <nd ref="714788120"/>
    <tag k="highway" v="residential"/>
    <tag k="maxspeed" v="50"/>
    <tag k="maxspeed:source" v="default residential speed limit in Australia"/>
    <tag k="name" v="Urban Drive"/>
  </way>
  <way id="31249995" version="2" timestamp="2011-03-10T00:29:01Z" uid="4467" user="Rosscoe" changeset="7510154">
    <nd ref="714788065"/>
    <nd ref="347432152"/>
    <nd ref="347432156"/>
    <nd ref="347432176"/>
    <nd ref="347432150"/>
    <nd ref="1194812932"/>
    <tag k="highway" v="residential"/>
    <tag k="maxspeed" v="50"/>
    <tag k="maxspeed:source" v="default residential speed limit in Australia"/>
    <tag k="name" v="Urban Drive"/>
  </way>
  <way id="31249997" version="2" timestamp="2011-03-10T00:29:07Z" uid="4467" user="Rosscoe" changeset="7510154">
    <nd ref="347432157"/>
    <nd ref="1194812934"/>
    <nd ref="347432153"/>
    <tag k="highway" v="residential"/>
    <tag k="source" v="nearmap"/>
  </way>
  <way id="31249998" version="2" timestamp="2011-03-10T00:28:55Z" uid="4467" user="Rosscoe" changeset="7510154">
    <nd ref="347432166"/>
    <nd ref="347432163"/>
    <nd ref="347432167"/>
    <tag k="highway" v="residential"/>
    <tag k="source" v="nearmap"/>
  </way>
  <way id="31249999" version="2" timestamp="2011-03-10T00:29:00Z" uid="4467" user="Rosscoe" changeset="7510154">
    <nd ref="347432168"/>
    <nd ref="1194812945"/>
    <nd ref="347432167"/>
    <nd ref="347432169"/>
    <nd ref="347432170"/>
    <nd ref="347432171"/>
    <nd ref="347432155"/>
    <nd ref="347432159"/>
    <nd ref="347432172"/>
    <nd ref="1194812960"/>
    <nd ref="347432173"/>
    <nd ref="347432174"/>
    <nd ref="347432175"/>
    <nd ref="347432176"/>
    <tag k="highway" v="residential"/>
    <tag k="source" v="nearmap"/>
  </way>
</osm>
