<?xml version='1.0' encoding='UTF-8'?>
<osm version="0.6" generator="libosmium/2.20.0">
  <way id="31264209" version="7" timestamp="2009-09-30T13:58:51Z" uid="36809" user="pfoten_weg_!_" changeset="2688655">
    <nd ref="359575881"/>
    <nd ref="347649472"/>
    <tag k="highway" v="service"/>
    <tag k="surface" v="unpaved"/>
  </way>
  <way id="31264222" version="5" timestamp="2009-09-30T13:58:46Z" uid="36809" user="pfoten_weg_!_" changeset="2688655">
    <nd ref="359575976"/>
    <nd ref="347649800"/>
    <tag k="highway" v="service"/>
    <tag k="surface" v="unpaved"/>
  </way>
  <way id="31264237" version="6" timestamp="2009-09-30T13:58:22Z" uid="36809" user="pfoten_weg_!_" changeset="2688655">
    <nd ref="359576033"/>
    <nd ref="347649918"/>
    <tag k="highway" v="service"/>
    <tag k="surface" v="unpaved"/>
  </way>
  <way id="31264261" version="8" timestamp="2009-09-30T13:54:47Z" uid="36809" user="pfoten_weg_!_" changeset="2688655">
    <nd ref="359575857"/>
    <nd ref="347650307"/>
    <tag k="highway" v="service"/>
    <tag k="surface" v="unpaved"/>
  </way>
  <way id="31264407" version="2" timestamp="2009-03-29T22:11:45Z" uid="39740" user="livestream" changeset="870387">
    <nd ref="367089505"/>
    <nd ref="367089506"/>
    <nd ref="367089507"/>
    <nd ref="367089508"/>
    <nd ref="367089510"/>
    <nd ref="367089511"/>
    <nd ref="367089512"/>
    <nd ref="367089513"/>
    <nd ref="367089514"/>
    <nd ref="367089515"/>
    <nd ref="367089516"/>
    <nd ref="367089517"/>
    <nd ref="347653979"/>
    <nd ref="347653983"/>
    <nd ref="347653986"/>
    <nd ref="347653989"/>
    <tag k="created_by" v="Potlatch 0.10f"/>
    <tag k="highway" v="service"/>
    <tag k="surface" v="paved"/>
  </way>
  <way id="31264808" version="3" timestamp="2010-07-09T18:17:18Z" uid="74617" user="JohnSmith" changeset="5175333">
    <nd ref="33116584"/>
    <nd ref="347661795"/>
    <nd ref="347661790"/>
    <tag k="highway" v="residential"/>
    <tag k="maxspeed" v="50"/>
    <tag k="maxspeed:source" v="default residential speed limit in Australia"/>
    <tag k="name" v="Gladstone Avenue"/>
    <tag k="source" v="Yahoo Imagery"/>
  </way>
  <way id="31264809" version="3" timestamp="2010-04-19T12:06:42Z" uid="4467" user="Rosscoe" changeset="4467241">
    <nd ref="33116623"/>
    <nd ref="53235388"/>
    <nd ref="347661795"/>
    <nd ref="701825035"/>
    <tag k="highway" v="residential"/>
    <tag k="name" v="Jameson Street"/>
    <tag k="source" v="Yahoo Imagery"/>
  </way>
  <way id="31264809" version="4" timestamp="2010-07-09T18:18:39Z" uid="74617" user="JohnSmith" changeset="5175333">
    <nd ref="33116623"/>
    <nd ref="53235388"/>
    <nd ref="347661795"/>
    <nd ref="701825035"/>
    <tag k="highway" v="residential"/>
    <tag k="maxspeed" v="50"/>
    <tag k="maxspeed:source" v="default residential speed limit in Australia"/>
    <tag k="name" v="Jameson Street"/>
    <tag k="source" v="Yahoo Imagery"/>
  </way>
  <way id="31264810" version="3" timestamp="2010-04-19T12:06:42Z" uid="4467" user="Rosscoe" changeset="4467241">
    <nd ref="33116585"/>
    <nd ref="701825032"/>
    <tag k="highway" v="residential"/>
    <tag k="name" v="Roseberry Avenue"/>
    <tag k="source" v="Yahoo Imagery"/>
  </way>
  <way id="31264810" version="4" timestamp="2010-07-09T18:20:02Z" uid="74617" user="JohnSmith" changeset="5175333">
    <nd ref="33116585"/>
    <nd ref="701825032"/>
    <tag k="highway" v="residential"/>
    <tag k="maxspeed" v="50"/>
    <tag k="maxspeed:source" v="default residential speed limit in Australia"/>
    <tag k="name" v="Roseberry Avenue"/>
    <tag k="source" v="Yahoo Imagery"/>
  </way>
  <way id="31264811" version="3" timestamp="2010-06-11T01:12:19Z" uid="4467" user="Rosscoe" changeset="4959333">
    <nd ref="347661815"/>
    <nd ref="347661809"/>
    <nd ref="347661825"/>
    <nd ref="53235361"/>
    <tag k="highway" v="residential"/>
    <tag k="name" v="Salisbury Avenue"/>
    <tag k="source" v="Yahoo Imagery"/>
  </way>
  <way id="31264811" version="4" timestamp="2010-06-11T01:34:58Z" uid="4467" user="Rosscoe" changeset="4959360">
    <nd ref="347661815"/>
    <nd ref="347661809"/>
    <nd ref="347661825"/>
    <nd ref="53235361"/>
    <tag k="highway" v="residential"/>
    <tag k="name" v="Salisbury Avenue"/>
    <tag k="source" v="Yahoo Imagery"/>
  </way>
  <way id="31264811" version="5" timestamp="2010-06-11T01:50:52Z" uid="4467" user="Rosscoe" changeset="4959360">
    <nd ref="347661815"/>
    <nd ref="347661809"/>
    <nd ref="347661825"/>
    <nd ref="53235361"/>
    <tag k="highway" v="residential"/>
    <tag k="name" v="Salisbury Avenue"/>
    <tag k="source" v="Yahoo Imagery"/>
  </way>
  <way id="31264811" version="6" timestamp="2010-07-09T18:13:48Z" uid="74617" user="JohnSmith" changeset="5175333">
    <nd ref="347661815"/>
    <nd ref="347661809"/>
    <nd ref="347661825"/>
    <nd ref="53235361"/>
    <tag k="highway" v="residential"/>
    <tag k="maxspeed" v="50"/>
    <tag k="maxspeed:source" v="default residential speed limit in Australia"/>
    <tag k="name" v="Salisbury Avenue"/>
    <tag k="source" v="Yahoo Imagery"/>
  </way>
  <way id="31264812" version="4" timestamp="2010-07-09T18:16:09Z" uid="74617" user="JohnSmith" changeset="5175333">
    <nd ref="33116586"/>
    <nd ref="347661836"/>
    <nd ref="347661820"/>
    <tag k="highway" v="residential"/>
    <tag k="maxspeed" v="50"/>
    <tag k="maxspeed:source" v="default residential speed limit in Australia"/>
    <tag k="name" v="Dyson Street"/>
    <tag k="source" v="Yahoo Imagery"/>
  </way>
  <way id="31264813" version="4" timestamp="2010-04-23T06:39:38Z" uid="4467" user="Rosscoe" changeset="4500929">
    <nd ref="33116588"/>
    <nd ref="347661830"/>
    <nd ref="33116555"/>
    <nd ref="367716666"/>
    <nd ref="367716697"/>
    <nd ref="367716736"/>
    <nd ref="704298784"/>
    <tag k="highway" v="residential"/>
    <tag k="name" v="Brandon Street"/>
    <tag k="source" v="Yahoo Imagery"/>
  </way>
  <way id="31264813" version="5" timestamp="2010-05-09T00:58:28Z" uid="4467" user="Rosscoe" changeset="4644345">
    <nd ref="33116588"/>
    <nd ref="347661830"/>
    <nd ref="33116555"/>
    <tag k="highway" v="residential"/>
    <tag k="name" v="Brandon Street"/>
    <tag k="source" v="Yahoo Imagery"/>
  </way>
  <way id="31264813" version="6" timestamp="2010-06-11T00:28:38Z" uid="4467" user="Rosscoe" changeset="4959265">
    <nd ref="33116588"/>
    <nd ref="347661830"/>
    <nd ref="768953856"/>
    <nd ref="33116555"/>
    <tag k="highway" v="residential"/>
    <tag k="name" v="Brandon Street"/>
    <tag k="source" v="Yahoo Imagery"/>
  </way>
  <way id="31264813" version="7" timestamp="2010-07-09T18:17:39Z" uid="74617" user="JohnSmith" changeset="5175333">
    <nd ref="33116588"/>
    <nd ref="347661830"/>
    <nd ref="768953856"/>
    <nd ref="33116555"/>
    <tag k="highway" v="residential"/>
    <tag k="maxspeed" v="50"/>
    <tag k="maxspeed:source" v="default residential speed limit in Australia"/>
    <tag k="name" v="Brandon Street"/>
    <tag k="source" v="Yahoo Imagery"/>
  </way>
  <way id="31264814" version="3" timestamp="2010-07-09T18:19:03Z" uid="74617" user="JohnSmith" changeset="5175333">
    <nd ref="347661825"/>
    <nd ref="347661836"/>
    <nd ref="347661830"/>
    <tag k="highway" v="residential"/>
    <tag k="maxspeed" v="50"/>
    <tag k="maxspeed:source" v="default residential speed limit in Australia"/>
    <tag k="name" v="Darling Street"/>
    <tag k="source" v="Yahoo Imagery"/>
  </way>
  <way id="31264815" version="4" timestamp="2010-06-11T00:28:57Z" uid="4467" user="Rosscoe" changeset="4959265">
    <nd ref="347661841"/>
    <nd ref="768953853"/>
    <tag k="highway" v="residential"/>
    <tag k="name" v="Banksia Terrace"/>
    <tag k="source" v="Yahoo Imagery"/>
  </way>
  <way id="31264815" version="5" timestamp="2010-07-09T18:20:23Z" uid="74617" user="JohnSmith" changeset="5175333">
    <nd ref="347661841"/>
    <nd ref="768953853"/>
    <tag k="highway" v="residential"/>
    <tag k="maxspeed" v="50"/>
    <tag k="maxspeed:source" v="default residential speed limit in Australia"/>
    <tag k="name" v="Banksia Terrace"/>
    <tag k="source" v="Yahoo Imagery"/>
  </way>
  <way id="31264816" version="3" timestamp="2010-07-09T18:17:46Z" uid="74617" user="JohnSmith" changeset="5175333">
    <nd ref="33116591"/>
    <nd ref="347661852"/>
    <nd ref="33116556"/>
    <tag k="highway" v="residential"/>
    <tag k="maxspeed" v="50"/>
    <tag k="maxspeed:source" v="default residential speed limit in Australia"/>
    <tag k="name" v="Hovia Terrace"/>
    <tag k="source" v="Yahoo Imagery"/>
  </way>
  <way id="31264817" version="3" timestamp="2010-07-09T18:19:10Z" uid="74617" user="JohnSmith" changeset="5175333">
    <nd ref="347661858"/>
    <nd ref="347661852"/>
    <tag k="highway" v="residential"/>
    <tag k="maxspeed" v="50"/>
    <tag k="maxspeed:source" v="default residential speed limit in Australia"/>
    <tag k="name" v="Westbury Road"/>
    <tag k="source" v="Yahoo Imagery"/>
  </way>
  <way id="31264939" version="2" timestamp="2009-12-07T00:12:55Z" uid="200463" user="harmagedon" changeset="3311752">
    <nd ref="327776768"/>
    <nd ref="327777549"/>
    <nd ref="327777552"/>
    <nd ref="266640432"/>
    <nd ref="327777554"/>
    <nd ref="327777557"/>
    <nd ref="327777560"/>
    <nd ref="327777563"/>
    <nd ref="327777571"/>
    <nd ref="327777573"/>
    <nd ref="327777576"/>
    <nd ref="327777579"/>
    <nd ref="257937254"/>
    <nd ref="257937255"/>
    <nd ref="327777582"/>
    <nd ref="327777584"/>
    <nd ref="327777587"/>
    <nd ref="327777588"/>
    <nd ref="327777589"/>
    <nd ref="327777592"/>
    <nd ref="327777287"/>
    <tag k="addr:postcode" v="4910"/>
    <tag k="at:maxspeed" v="Ortsgebiet"/>
    <tag k="highway" v="primary"/>
    <tag k="is_in" v="...,Bezirk Ried im Innkreis,Oberösterreich,Österreich,Europa"/>
    <tag k="name" v="Eberschwanger Straße"/>
    <tag k="ref" v="B143"/>
    <tag k="source" v="GPS"/>
  </way>
  <way id="31264942" version="2" timestamp="2009-12-07T00:12:38Z" uid="200463" user="harmagedon" changeset="3311752">
    <nd ref="266189519"/>
    <nd ref="327776842"/>
    <nd ref="327776844"/>
    <nd ref="327776845"/>
    <nd ref="327776847"/>
    <nd ref="327776849"/>
    <nd ref="347664199"/>
    <nd ref="289793988"/>
    <nd ref="266640429"/>
    <nd ref="327776850"/>
    <nd ref="327776851"/>
    <nd ref="327776853"/>
    <nd ref="327776356"/>
    <nd ref="289794056"/>
    <nd ref="327776856"/>
    <nd ref="327776858"/>
    <tag k="addr:postcode" v="143"/>
    <tag k="at:maxspeed" v="Ortsgebiet"/>
    <tag k="highway" v="secondary"/>
    <tag k="is_in" v="...,Bezirk Ried im Innkreis,Oberösterreich,Österreich,Europa"/>
    <tag k="name" v="Bahnhofstraße"/>
    <tag k="source" v="GPS"/>
  </way>
  <way id="31264973" version="4" timestamp="2009-12-07T02:35:12Z" uid="30201" user="rrankin" changeset="3312226">
    <nd ref="347664769"/>
    <nd ref="582782564"/>
    <nd ref="347664309"/>
    <nd ref="347665390"/>
    <nd ref="347665053"/>
    <nd ref="347656509"/>
    <nd ref="347665238"/>
    <nd ref="347664771"/>
    <nd ref="347664773"/>
    <nd ref="347664774"/>
    <nd ref="347664775"/>
    <nd ref="347664777"/>
    <tag k="foot" v="yes"/>
    <tag k="highway" v="footway"/>
  </way>
  <way id="31264986" version="7" timestamp="2010-03-28T01:03:45Z" uid="20587" user="balrog-kun" changeset="4250871">
    <nd ref="57917245"/>
    <nd ref="627288034"/>
    <nd ref="627288035"/>
    <nd ref="627288030"/>
    <tag k="highway" v="tertiary"/>
    <tag k="name" v="Pleasant Hill Road"/>
    <tag k="oneway" v="yes"/>
    <tag k="tiger:cfcc" v="A41"/>
    <tag k="tiger:county" v="Contra Costa, CA"/>
    <tag k="tiger:name_base" v="Pleasant Hill"/>
    <tag k="tiger:name_type" v="Rd"/>
    <tag k="tiger:reviewed" v="no"/>
    <tag k="tiger:separated" v="no"/>
    <tag k="tiger:source" v="tiger_import_dch_v0.6_20070809"/>
    <tag k="tiger:tlid" v="192049215"/>
    <tag k="tiger:zip_left" v="94523"/>
    <tag k="tiger:zip_right" v="94523"/>
  </way>
  <way id="31264989" version="9" timestamp="2010-03-28T01:03:45Z" uid="20587" user="balrog-kun" changeset="4250871">
    <nd ref="57905427"/>
    <nd ref="347665470"/>
    <nd ref="347665472"/>
    <nd ref="347665473"/>
    <nd ref="627288035"/>
    <nd ref="347665274"/>
    <tag k="highway" v="tertiary"/>
    <tag k="name" v="Geary Road"/>
    <tag k="oneway" v="yes"/>
    <tag k="tiger:cfcc" v="A41"/>
    <tag k="tiger:county" v="Contra Costa, CA"/>
    <tag k="tiger:name_base" v="Pleasant Hill"/>
    <tag k="tiger:name_type" v="Rd"/>
    <tag k="tiger:reviewed" v="no"/>
    <tag k="tiger:separated" v="no"/>
    <tag k="tiger:source" v="tiger_import_dch_v0.6_20070809"/>
    <tag k="tiger:tlid" v="192049215"/>
    <tag k="tiger:zip_left" v="94523"/>
    <tag k="tiger:zip_right" v="94523"/>
  </way>
</osm>
