<?xml version='1.0' encoding='UTF-8'?>
<osm version="0.6" generator="libosmium/2.20.0">
  <way id="31284115" version="1" timestamp="2009-02-20T16:51:01Z" uid="58091" user="Andreas M" changeset="580553">
    <nd ref="25280891"/>
    <nd ref="272387572"/>
    <nd ref="685264"/>
    <tag k="created_by" v="Potlatch 0.10f"/>
    <tag k="highway" v="primary"/>
    <tag k="lanes" v="2"/>
    <tag k="maxspeed" v="50"/>
    <tag k="name" v="Schönbrunner Straße"/>
    <tag k="oneway" v="yes"/>
    <tag k="ref" v="B1"/>
  </way>
  <way id="31284122" version="1" timestamp="2009-02-20T16:51:04Z" uid="58091" user="Andreas M" changeset="580553">
    <nd ref="378034"/>
    <nd ref="251064643"/>
    <nd ref="270328396"/>
    <tag k="created_by" v="Potlatch 0.10f"/>
    <tag k="highway" v="primary"/>
    <tag k="maxspeed" v="50"/>
    <tag k="name" v="Grünbergstraße"/>
    <tag k="oneway" v="yes"/>
    <tag k="ref" v="B224"/>
  </way>
  <way id="31284129" version="1" timestamp="2009-02-20T16:51:07Z" uid="58091" user="Andreas M" changeset="580553">
    <nd ref="25280694"/>
    <nd ref="318256628"/>
    <nd ref="60632128"/>
    <tag k="created_by" v="Potlatch 0.10f"/>
    <tag k="highway" v="secondary"/>
    <tag k="name" v="Billrothstraße"/>
    <tag k="railway" v="tram"/>
    <tag k="source" v="yahoo"/>
  </way>
  <way id="31284307" version="2" timestamp="2010-04-03T13:44:35Z" uid="20587" user="balrog-kun" changeset="4312927">
    <nd ref="348069717"/>
    <nd ref="84409198"/>
    <tag k="highway" v="residential"/>
    <tag k="name" v="South 2025 West"/>
    <tag k="tiger:cfcc" v="A41"/>
    <tag k="tiger:county" v="Weber, UT"/>
    <tag k="tiger:name_base" v="2025"/>
    <tag k="tiger:name_direction_prefix" v="S"/>
    <tag k="tiger:name_direction_suffix" v="W"/>
    <tag k="tiger:separated" v="no"/>
    <tag k="tiger:source" v="tiger_import_dch_v0.6_20070830"/>
    <tag k="tiger:tlid" v="155692530:155692531:155692422:155692426"/>
    <tag k="tiger:zip_left" v="84067"/>
    <tag k="tiger:zip_right" v="84067"/>
  </way>
  <way id="31284315" version="2" timestamp="2010-04-03T13:44:36Z" uid="20587" user="balrog-kun" changeset="4312927">
    <nd ref="84433074"/>
    <nd ref="348070060"/>
    <nd ref="348070053"/>
    <nd ref="84433654"/>
    <nd ref="84399320"/>
    <nd ref="84430837"/>
    <tag k="highway" v="residential"/>
    <tag k="name" v="South 2400 West"/>
    <tag k="name_1" v="2400 West Street"/>
    <tag k="tiger:cfcc" v="A41"/>
    <tag k="tiger:county" v="Weber, UT"/>
    <tag k="tiger:name_base" v="2400 West"/>
    <tag k="tiger:name_base_1" v="2400"/>
    <tag k="tiger:name_direction_prefix_1" v="S"/>
    <tag k="tiger:name_direction_suffix_1" v="W"/>
    <tag k="tiger:name_type" v="St"/>
    <tag k="tiger:separated" v="no"/>
    <tag k="tiger:source" v="tiger_import_dch_v0.6_20070830"/>
    <tag k="tiger:tlid" v="155692430:155692355:155692356:155692358"/>
    <tag k="tiger:zip_left" v="84067"/>
    <tag k="tiger:zip_right" v="84067"/>
  </way>
  <way id="31284609" version="1" timestamp="2009-02-20T17:05:05Z" uid="58091" user="Andreas M" changeset="580553">
    <nd ref="31259137"/>
    <nd ref="33183651"/>
    <tag k="created_by" v="Potlatch 0.10f"/>
    <tag k="highway" v="tertiary"/>
    <tag k="is_in" v="Austria, Europe,Vienna,Wien"/>
    <tag k="name" v="Josefstädter Straße"/>
    <tag k="railway" v="tram"/>
    <tag k="source" v="yahoo"/>
  </way>
  <way id="31284611" version="1" timestamp="2009-02-20T17:05:06Z" uid="58091" user="Andreas M" changeset="580553">
    <nd ref="33183651"/>
    <nd ref="314318429"/>
    <nd ref="25267624"/>
    <nd ref="31673331"/>
    <nd ref="33183656"/>
    <nd ref="31673334"/>
    <nd ref="31262598"/>
    <nd ref="314318424"/>
    <tag k="created_by" v="Potlatch 0.10f"/>
    <tag k="highway" v="tertiary"/>
    <tag k="is_in" v="Austria, Europe,Vienna,Wien"/>
    <tag k="name" v="Josefstädter Straße"/>
    <tag k="railway" v="tram"/>
    <tag k="source" v="yahoo"/>
  </way>
  <way id="31284785" version="9" timestamp="2009-04-15T05:53:38Z" uid="6975" user="ulfl" changeset="553994">
    <nd ref="348076167"/>
    <nd ref="348076168"/>
    <nd ref="348076447"/>
    <nd ref="348076170"/>
    <nd ref="348076171"/>
    <nd ref="348076167"/>
    <tag k="landuse" v="cemetery"/>
  </way>
</osm>
