<?xml version='1.0' encoding='UTF-8'?>
<osm version="0.6" generator="libosmium/2.20.0">
  <way id="31340129" version="6" timestamp="2010-07-23T08:43:38Z" uid="4467" user="Rosscoe" changeset="5293680">
    <nd ref="286383345"/>
    <nd ref="829887094"/>
    <tag k="bridge" v="yes"/>
    <tag k="cycleway" v="track"/>
    <tag k="foot" v="yes"/>
    <tag k="highway" v="cycleway"/>
    <tag k="layer" v="1"/>
    <tag k="name" v="Swingy Bridge"/>
  </way>
  <way id="31340730" version="1" timestamp="2009-02-22T11:10:52Z" uid="58091" user="Andreas M" changeset="606483">
    <nd ref="685121"/>
    <nd ref="69222447"/>
    <nd ref="685122"/>
    <nd ref="34797087"/>
    <nd ref="148414858"/>
    <nd ref="685124"/>
    <tag k="created_by" v="Potlatch 0.10f"/>
    <tag k="highway" v="primary"/>
    <tag k="lanes" v="2"/>
    <tag k="maxspeed" v="50"/>
    <tag k="name" v="Rechte Wienzeile"/>
    <tag k="oneway" v="yes"/>
    <tag k="ref" v="B1"/>
  </way>
  <way id="31340731" version="1" timestamp="2009-02-22T11:10:52Z" uid="58091" user="Andreas M" changeset="606483">
    <nd ref="34762440"/>
    <nd ref="34762439"/>
    <nd ref="685121"/>
    <tag k="created_by" v="Potlatch 0.10"/>
    <tag k="highway" v="residential"/>
    <tag k="name" v="Preßgasse"/>
    <tag k="oneway" v="yes"/>
  </way>
  <way id="31340732" version="1" timestamp="2009-02-22T11:10:53Z" uid="58091" user="Andreas M" changeset="606483">
    <nd ref="34762440"/>
    <nd ref="48071917"/>
    <nd ref="34774204"/>
    <tag k="created_by" v="Potlatch 0.10b"/>
    <tag k="fixme" v="yes"/>
    <tag k="highway" v="residential"/>
    <tag k="name" v="Mühlgasse"/>
    <tag k="oneway" v="yes"/>
    <tag k="source" v="yahoo"/>
  </way>
  <way id="31340733" version="1" timestamp="2009-02-22T11:10:53Z" uid="58091" user="Andreas M" changeset="606483">
    <nd ref="35475941"/>
    <nd ref="35476029"/>
    <tag k="created_by" v="Potlatch 0.10f"/>
    <tag k="highway" v="residential"/>
    <tag k="name" v="Heumühlgasse"/>
    <tag k="oneway" v="yes"/>
  </way>
  <way id="31340734" version="1" timestamp="2009-02-22T11:10:53Z" uid="58091" user="Andreas M" changeset="606483">
    <nd ref="35476029"/>
    <nd ref="685118"/>
    <nd ref="685116"/>
    <tag k="created_by" v="Potlatch 0.10f"/>
    <tag k="highway" v="residential"/>
    <tag k="name" v="Heumühlgasse"/>
    <tag k="oneway" v="yes"/>
  </way>
  <way id="31340735" version="1" timestamp="2009-02-22T11:10:54Z" uid="58091" user="Andreas M" changeset="606483">
    <nd ref="685289"/>
    <nd ref="46959154"/>
    <nd ref="46959159"/>
    <nd ref="46959481"/>
    <nd ref="685291"/>
    <tag k="created_by" v="Potlatch 0.10f"/>
    <tag k="highway" v="residential"/>
    <tag k="name" v="Schönbrunner Straße"/>
    <tag k="oneway" v="yes"/>
  </way>
  <way id="31340736" version="1" timestamp="2009-02-22T11:10:54Z" uid="58091" user="Andreas M" changeset="606483">
    <nd ref="46959546"/>
    <nd ref="46959552"/>
    <nd ref="46959557"/>
    <nd ref="46959566"/>
    <nd ref="319791215"/>
    <nd ref="319791216"/>
    <nd ref="30675733"/>
    <tag k="created_by" v="Potlatch 0.10f"/>
    <tag k="highway" v="tertiary"/>
    <tag k="lcn" v="yes"/>
    <tag k="name" v="Margaretenstraße"/>
    <tag k="oneway" v="yes"/>
    <tag k="source" v="yahoo"/>
  </way>
  <way id="31340737" version="1" timestamp="2009-02-22T11:10:54Z" uid="58091" user="Andreas M" changeset="606483">
    <nd ref="46959546"/>
    <nd ref="46959651"/>
    <nd ref="46959620"/>
    <tag k="created_by" v="Potlatch 0.10f"/>
    <tag k="highway" v="residential"/>
    <tag k="name" v="Ramperstorffergasse"/>
    <tag k="oneway" v="no"/>
    <tag k="source" v="yahoo"/>
  </way>
  <way id="31340738" version="1" timestamp="2009-02-22T11:10:55Z" uid="58091" user="Andreas M" changeset="606483">
    <nd ref="78217229"/>
    <nd ref="78185943"/>
    <tag k="created_by" v="Potlatch 0.10f"/>
    <tag k="highway" v="primary"/>
    <tag k="name" v="Eichenstraße"/>
    <tag k="oneway" v="yes"/>
    <tag k="ref" v="B12"/>
  </way>
  <way id="31340739" version="1" timestamp="2009-02-22T11:10:55Z" uid="58091" user="Andreas M" changeset="606483">
    <nd ref="344594624"/>
    <nd ref="274619055"/>
    <nd ref="61768036"/>
    <nd ref="78225087"/>
    <tag k="created_by" v="Potlatch 0.10f"/>
    <tag k="highway" v="primary"/>
    <tag k="name" v="Eichenstraße"/>
    <tag k="oneway" v="yes"/>
    <tag k="ref" v="B12"/>
  </way>
  <way id="31340739" version="2" timestamp="2009-02-24T17:50:16Z" uid="58091" user="Andreas M" changeset="656764">
    <nd ref="344594624"/>
    <nd ref="351677713"/>
    <nd ref="274619055"/>
    <nd ref="61768036"/>
    <nd ref="78225087"/>
    <tag k="created_by" v="Potlatch 0.10f"/>
    <tag k="highway" v="primary"/>
    <tag k="name" v="Eichenstraße"/>
    <tag k="oneway" v="yes"/>
    <tag k="ref" v="B12"/>
  </way>
  <way id="31340740" version="4" timestamp="2010-07-07T09:54:51Z" uid="74617" user="JohnSmith" changeset="5156250">
    <nd ref="589246931"/>
    <nd ref="581816523"/>
    <nd ref="581816522"/>
    <nd ref="233872177"/>
    <nd ref="581816455"/>
    <nd ref="349052811"/>
    <nd ref="349052816"/>
    <tag k="highway" v="residential"/>
    <tag k="maxspeed" v="50"/>
    <tag k="maxspeed:source" v="default residential speed limit in Australia"/>
    <tag k="name" v="Rowan Street"/>
    <tag k="source" v="survey"/>
  </way>
  <way id="31340741" version="3" timestamp="2010-04-27T02:19:32Z" uid="74617" user="JohnSmith" changeset="4537635"/>
  <way id="31340818" version="9" timestamp="2010-06-01T02:54:01Z" uid="4467" user="Rosscoe" changeset="4871102">
    <nd ref="349055069"/>
    <nd ref="322495750"/>
    <nd ref="364649451"/>
    <nd ref="665096561"/>
    <nd ref="664314899"/>
    <nd ref="665096549"/>
    <tag k="highway" v="tertiary"/>
    <tag k="maxspeed" v="60"/>
    <tag k="name" v="Olympic Parade"/>
  </way>
  <way id="31340820" version="5" timestamp="2010-04-05T03:05:46Z" uid="4467" user="Rosscoe" changeset="4328970"/>
  <way id="31340823" version="6" timestamp="2010-03-16T21:59:27Z" uid="163746" user="anti_bot-nonsense" changeset="4147354">
    <nd ref="238472733"/>
    <nd ref="355971665"/>
    <nd ref="238474419"/>
    <nd ref="238472727"/>
    <nd ref="238472721"/>
    <tag k="highway" v="service"/>
    <tag k="motorcar" v="no"/>
    <tag k="oneway" v="yes"/>
  </way>
  <way id="31340829" version="3" timestamp="2010-03-16T21:59:26Z" uid="163746" user="anti_bot-nonsense" changeset="4147354">
    <nd ref="238472721"/>
    <nd ref="238472720"/>
    <nd ref="238472715"/>
    <nd ref="238472492"/>
    <tag k="highway" v="service"/>
    <tag k="motorcar" v="no"/>
    <tag k="oneway" v="yes"/>
  </way>
  <way id="31340872" version="7" timestamp="2009-09-18T11:39:36Z" uid="20587" user="balrog-kun" changeset="2523165">
    <nd ref="31219239"/>
    <nd ref="471762497"/>
    <nd ref="471381240"/>
    <nd ref="471381318"/>
    <nd ref="348132991"/>
    <nd ref="31219245"/>
    <nd ref="31219246"/>
    <nd ref="31219248"/>
    <nd ref="31219249"/>
    <nd ref="471790221"/>
    <nd ref="31219253"/>
    <nd ref="463015419"/>
    <nd ref="254884798"/>
    <nd ref="31219256"/>
    <nd ref="31219257"/>
    <nd ref="31219258"/>
    <nd ref="31219261"/>
    <nd ref="348270693"/>
    <nd ref="348270862"/>
    <nd ref="31219262"/>
    <nd ref="348271039"/>
    <nd ref="349000833"/>
    <nd ref="349000825"/>
    <nd ref="349000819"/>
    <nd ref="31219265"/>
    <nd ref="31219266"/>
    <nd ref="31219268"/>
    <nd ref="31219269"/>
    <nd ref="349000813"/>
    <nd ref="349000757"/>
    <nd ref="31219271"/>
    <nd ref="349000677"/>
    <nd ref="349000482"/>
    <nd ref="349000583"/>
    <nd ref="349000504"/>
    <nd ref="31219275"/>
    <nd ref="499850919"/>
    <nd ref="349000481"/>
    <nd ref="289845155"/>
    <nd ref="289845156"/>
    <tag k="highway" v="secondary"/>
    <tag k="ref" v="579"/>
  </way>
  <way id="31340872" version="8" timestamp="2009-10-20T22:43:36Z" uid="20587" user="balrog-kun" changeset="2908055">
    <nd ref="31219239"/>
    <nd ref="537201538"/>
    <nd ref="537201536"/>
    <nd ref="537201533"/>
    <nd ref="537201527"/>
    <tag k="addr:city" v="Kałęczyn"/>
    <tag k="highway" v="secondary"/>
    <tag k="name" v="Radziejowicka"/>
    <tag k="ref" v="579"/>
  </way>
  <way id="31340878" version="15" timestamp="2010-02-13T21:21:41Z" uid="20587" user="balrog-kun" changeset="3868613"/>
  <way id="31340956" version="2" timestamp="2010-04-04T21:55:37Z" uid="74617" user="JohnSmith" changeset="4327637">
    <nd ref="349056233"/>
    <nd ref="349056234"/>
    <tag k="bridge" v="yes"/>
    <tag k="highway" v="motorway"/>
    <tag k="layer" v="1"/>
    <tag k="name" v="Calder Freeway"/>
    <tag k="oneway" v="yes"/>
  </way>
  <way id="31340958" version="3" timestamp="2010-04-04T21:55:38Z" uid="74617" user="JohnSmith" changeset="4327637">
    <nd ref="349056234"/>
    <nd ref="259608705"/>
    <nd ref="259608706"/>
    <nd ref="259608707"/>
    <nd ref="259608708"/>
    <nd ref="259608709"/>
    <nd ref="259608710"/>
    <nd ref="259608711"/>
    <nd ref="259608712"/>
    <nd ref="259608713"/>
    <nd ref="259608572"/>
    <tag k="highway" v="motorway"/>
    <tag k="name" v="Calder Freeway"/>
    <tag k="oneway" v="yes"/>
  </way>
  <way id="31340959" version="9" timestamp="2010-04-04T21:55:38Z" uid="74617" user="JohnSmith" changeset="4327637">
    <nd ref="349056235"/>
    <nd ref="259608650"/>
    <nd ref="259608651"/>
    <nd ref="259608652"/>
    <nd ref="315016595"/>
    <nd ref="259608653"/>
    <nd ref="259608654"/>
    <nd ref="259608655"/>
    <nd ref="259608656"/>
    <nd ref="315016538"/>
    <nd ref="389380499"/>
    <nd ref="389380518"/>
    <nd ref="389380519"/>
    <nd ref="389380520"/>
    <nd ref="389380521"/>
    <tag k="highway" v="motorway"/>
    <tag k="lanes" v="2"/>
    <tag k="maxspeed" v="110"/>
    <tag k="name" v="Calder Freeway"/>
    <tag k="oneway" v="yes"/>
  </way>
  <way id="31340960" version="2" timestamp="2010-04-04T21:55:36Z" uid="74617" user="JohnSmith" changeset="4327637">
    <nd ref="349056236"/>
    <nd ref="349056235"/>
    <tag k="bridge" v="yes"/>
    <tag k="highway" v="motorway"/>
    <tag k="layer" v="1"/>
    <tag k="name" v="Calder Freeway"/>
    <tag k="oneway" v="yes"/>
  </way>
</osm>
