<?xml version='1.0' encoding='UTF-8'?>
<osm version="0.6" generator="libosmium/2.20.0">
  <way id="31343068" version="2" timestamp="2009-03-08T14:59:57Z" uid="6975" user="ulfl" changeset="757880">
    <nd ref="349078895"/>
    <nd ref="349078896"/>
    <nd ref="349078897"/>
    <nd ref="349078898"/>
    <nd ref="349078899"/>
    <nd ref="349078900"/>
    <nd ref="349078901"/>
    <nd ref="349078902"/>
    <nd ref="283582548"/>
    <nd ref="283582549"/>
    <nd ref="349078903"/>
    <nd ref="349078904"/>
    <nd ref="349078895"/>
    <tag k="amenity" v="grave_yard"/>
  </way>
  <way id="31343211" version="2" timestamp="2009-12-09T23:06:17Z" uid="200463" user="harmagedon" changeset="3337772">
    <nd ref="349079945"/>
    <nd ref="349079946"/>
    <nd ref="349079947"/>
    <nd ref="349079948"/>
    <nd ref="349079945"/>
    <tag k="building" v="yes"/>
  </way>
  <way id="31343243" version="2" timestamp="2009-08-04T08:08:17Z" uid="4467" user="Rosscoe" changeset="2033003">
    <nd ref="455916866"/>
    <nd ref="455917131"/>
    <nd ref="349080338"/>
    <nd ref="39212536"/>
    <tag k="highway" v="motorway_link"/>
  </way>
  <way id="31343243" version="3" timestamp="2010-05-09T08:18:17Z" uid="74617" user="JohnSmith" changeset="4645450">
    <nd ref="455916866"/>
    <nd ref="727198261"/>
    <nd ref="455917131"/>
    <nd ref="727198178"/>
    <nd ref="727198244"/>
    <nd ref="727198294"/>
    <nd ref="727198150"/>
    <nd ref="727198208"/>
    <nd ref="349080338"/>
    <nd ref="727198229"/>
    <nd ref="727198137"/>
    <nd ref="727198154"/>
    <nd ref="727198152"/>
    <nd ref="39212536"/>
    <tag k="highway" v="motorway_link"/>
    <tag k="oneway" v="yes"/>
  </way>
  <way id="31343246" version="6" timestamp="2010-07-24T14:57:46Z" uid="9581" user="Lobelt" changeset="5304627">
    <nd ref="253956515"/>
    <nd ref="831385761"/>
    <nd ref="831385384"/>
    <nd ref="322074398"/>
    <nd ref="349080379"/>
    <nd ref="349080378"/>
    <tag k="highway" v="residential"/>
    <tag k="name" v="Edith-Stein-Straße"/>
  </way>
  <way id="31343347" version="7" timestamp="2009-12-09T23:04:23Z" uid="200463" user="harmagedon" changeset="3337772">
    <nd ref="349081278"/>
    <nd ref="349081280"/>
    <nd ref="349081281"/>
    <nd ref="349081282"/>
    <nd ref="349081283"/>
    <nd ref="349081284"/>
    <nd ref="349081285"/>
    <nd ref="349081286"/>
    <nd ref="349081287"/>
    <nd ref="349081289"/>
    <nd ref="349081290"/>
    <nd ref="349081292"/>
    <nd ref="349081294"/>
    <nd ref="349081295"/>
    <nd ref="349081296"/>
    <nd ref="349081297"/>
    <nd ref="349081298"/>
    <nd ref="349081300"/>
    <nd ref="349081301"/>
    <nd ref="349081302"/>
    <nd ref="349081303"/>
    <nd ref="349081304"/>
    <nd ref="349081306"/>
    <nd ref="349081307"/>
    <nd ref="349081308"/>
    <nd ref="349081309"/>
    <nd ref="349081311"/>
    <nd ref="349081312"/>
    <nd ref="349081313"/>
    <nd ref="349081316"/>
    <nd ref="349081317"/>
    <nd ref="349081318"/>
    <nd ref="349081320"/>
    <nd ref="349081321"/>
    <nd ref="349081322"/>
    <nd ref="349081323"/>
    <nd ref="349081324"/>
    <nd ref="349081326"/>
    <nd ref="355174109"/>
    <nd ref="355174729"/>
    <nd ref="355174730"/>
    <nd ref="355174731"/>
    <nd ref="355174732"/>
    <nd ref="355174733"/>
    <nd ref="355174734"/>
    <nd ref="355174736"/>
    <nd ref="355174737"/>
    <nd ref="355174738"/>
    <nd ref="355174739"/>
    <nd ref="355174883"/>
    <nd ref="355174884"/>
    <nd ref="355174885"/>
    <nd ref="355174886"/>
    <nd ref="355174887"/>
    <nd ref="355174888"/>
    <nd ref="355174889"/>
    <nd ref="355174890"/>
    <nd ref="355174891"/>
    <nd ref="355174892"/>
    <nd ref="355174893"/>
    <nd ref="349081327"/>
    <nd ref="349081329"/>
    <nd ref="349081331"/>
    <nd ref="349081278"/>
    <tag k="landuse" v="farm"/>
  </way>
  <way id="31343418" version="1" timestamp="2009-02-22T12:37:20Z" uid="4667" user="MapZ" changeset="614317">
    <nd ref="349081913"/>
    <nd ref="349081914"/>
    <tag k="addr:interpolation" v="even"/>
  </way>
  <way id="31343418" version="2" timestamp="2010-04-12T18:18:53Z" uid="9581" user="Lobelt" changeset="4407061">
    <nd ref="349081914"/>
    <nd ref="694473189"/>
    <nd ref="694473213"/>
    <nd ref="694473211"/>
    <nd ref="694473209"/>
    <nd ref="694473194"/>
    <nd ref="694473192"/>
    <nd ref="349081913"/>
    <nd ref="349081914"/>
    <tag k="addr:city" v="Hirschberg-Leutershausen"/>
    <tag k="addr:housenumber" v="4"/>
    <tag k="addr:postcode" v="69493"/>
    <tag k="addr:street" v="Hölderlinstraße"/>
    <tag k="building" v="yes"/>
  </way>
  <way id="31343471" version="3" timestamp="2010-02-09T02:04:43Z" uid="74617" user="JohnSmith" changeset="3828705">
    <nd ref="349068689"/>
    <nd ref="349081734"/>
    <tag k="highway" v="residential"/>
    <tag k="maxspeed" v="50"/>
    <tag k="name" v="Pressland Street"/>
  </way>
  <way id="31343474" version="2" timestamp="2010-02-09T02:03:24Z" uid="74617" user="JohnSmith" changeset="3828705">
    <nd ref="349068542"/>
    <nd ref="349081745"/>
    <nd ref="349081750"/>
    <nd ref="349081756"/>
    <nd ref="349081761"/>
    <nd ref="349081766"/>
    <nd ref="349081773"/>
    <nd ref="349081784"/>
    <nd ref="349081794"/>
    <tag k="highway" v="residential"/>
    <tag k="maxspeed" v="50"/>
    <tag k="name" v="Crowcombe Place"/>
  </way>
  <way id="31343484" version="5" timestamp="2010-02-09T02:03:08Z" uid="74617" user="JohnSmith" changeset="3828705">
    <nd ref="349112690"/>
    <nd ref="349081974"/>
    <tag k="highway" v="residential"/>
    <tag k="maxspeed" v="50"/>
    <tag k="name" v="Vermouth Place"/>
  </way>
  <way id="31343487" version="2" timestamp="2010-02-09T02:03:20Z" uid="74617" user="JohnSmith" changeset="3828705">
    <nd ref="349082039"/>
    <nd ref="349082053"/>
    <nd ref="349082064"/>
    <nd ref="349082070"/>
    <nd ref="349082072"/>
    <nd ref="349082085"/>
    <nd ref="349082178"/>
    <nd ref="349082344"/>
    <nd ref="349082379"/>
    <nd ref="349082410"/>
    <nd ref="349082439"/>
    <nd ref="349082471"/>
    <nd ref="349082535"/>
    <nd ref="349082536"/>
    <nd ref="349082562"/>
    <nd ref="349082618"/>
    <nd ref="349082655"/>
    <nd ref="349082684"/>
    <nd ref="349082703"/>
    <nd ref="349082729"/>
    <nd ref="349082764"/>
    <tag k="highway" v="residential"/>
    <tag k="maxspeed" v="50"/>
    <tag k="name" v="Macaranga Crescent"/>
  </way>
  <way id="31343590" version="2" timestamp="2009-02-23T12:46:12Z" uid="34428" user="usm78-gis" changeset="634299"/>
  <way id="31343900" version="8" timestamp="2010-07-09T06:38:16Z" uid="74617" user="JohnSmith" changeset="5171128">
    <nd ref="170574802"/>
    <nd ref="389156948"/>
    <nd ref="386259876"/>
    <tag k="highway" v="residential"/>
    <tag k="maxspeed" v="50"/>
    <tag k="maxspeed:source" v="default residential speed limit in Australia"/>
    <tag k="name" v="Coombe Street"/>
  </way>
  <way id="31343909" version="1" timestamp="2009-02-22T12:54:07Z" uid="58091" user="Andreas M" changeset="607437">
    <nd ref="29646678"/>
    <nd ref="108215556"/>
    <tag k="comment" v="S.H. beginns #Rinnböckstraße /al"/>
    <tag k="highway" v="primary"/>
    <tag k="name" v="Simmeringer Hauptstraße"/>
    <tag k="todo" v="don&apos;t know where Simmeringer Hptstr ends and B10 begins"/>
  </way>
  <way id="31343910" version="1" timestamp="2009-02-22T12:54:07Z" uid="58091" user="Andreas M" changeset="607437">
    <nd ref="108215556"/>
    <nd ref="117511703"/>
    <nd ref="117512472"/>
    <nd ref="117513626"/>
    <nd ref="117537482"/>
    <nd ref="78499628"/>
    <nd ref="29646680"/>
    <nd ref="117540138"/>
    <nd ref="320886500"/>
    <nd ref="320886718"/>
    <nd ref="29646682"/>
    <nd ref="29666815"/>
    <nd ref="117579584"/>
    <nd ref="29666816"/>
    <nd ref="60742767"/>
    <tag k="comment" v="S.H. beginns #Rinnböckstraße /al"/>
    <tag k="highway" v="primary"/>
    <tag k="name" v="Simmeringer Hauptstraße"/>
    <tag k="todo" v="don&apos;t know where Simmeringer Hptstr ends and B10 begins"/>
  </way>
  <way id="31343911" version="1" timestamp="2009-02-22T12:54:08Z" uid="58091" user="Andreas M" changeset="607437">
    <nd ref="108215554"/>
    <nd ref="108215555"/>
    <nd ref="312537260"/>
    <nd ref="108215556"/>
    <tag k="created_by" v="Potlatch 0.10f"/>
    <tag k="highway" v="residential"/>
    <tag k="name" v="Dommesgasse"/>
  </way>
  <way id="31343912" version="1" timestamp="2009-02-22T12:54:08Z" uid="58091" user="Andreas M" changeset="607437">
    <nd ref="76462569"/>
    <nd ref="108215554"/>
    <tag k="created_by" v="Potlatch 0.10f"/>
    <tag k="highway" v="residential"/>
    <tag k="name" v="Lorystraße"/>
  </way>
  <way id="31343913" version="1" timestamp="2009-02-22T12:54:08Z" uid="58091" user="Andreas M" changeset="607437">
    <nd ref="108215554"/>
    <nd ref="76463096"/>
    <nd ref="76463028"/>
    <nd ref="76463098"/>
    <nd ref="76463099"/>
    <nd ref="127347790"/>
    <nd ref="320446340"/>
    <nd ref="117536457"/>
    <nd ref="320446344"/>
    <nd ref="76463100"/>
    <nd ref="320894585"/>
    <tag k="created_by" v="Potlatch 0.10f"/>
    <tag k="highway" v="residential"/>
    <tag k="name" v="Lorystraße"/>
  </way>
  <way id="31343914" version="1" timestamp="2009-02-22T12:54:09Z" uid="58091" user="Andreas M" changeset="607437">
    <nd ref="76462569"/>
    <nd ref="76462973"/>
    <nd ref="76462947"/>
    <nd ref="76462908"/>
    <nd ref="307390645"/>
    <nd ref="233352379"/>
    <tag k="created_by" v="Potlatch 0.10e"/>
    <tag k="highway" v="secondary"/>
    <tag k="name" v="Grillgasse"/>
  </way>
  <way id="31343915" version="1" timestamp="2009-02-22T12:54:10Z" uid="58091" user="Andreas M" changeset="607437">
    <nd ref="98419746"/>
    <nd ref="349088710"/>
    <tag k="access" v="no"/>
    <tag k="highway" v="service"/>
    <tag k="psv" v="yes"/>
  </way>
  <way id="31343916" version="1" timestamp="2009-02-22T12:54:10Z" uid="58091" user="Andreas M" changeset="607437">
    <nd ref="98419746"/>
    <nd ref="298617396"/>
    <nd ref="98419747"/>
    <nd ref="33382004"/>
    <tag k="created_by" v="Potlatch 0.10b"/>
    <tag k="highway" v="primary"/>
    <tag k="name" v="Ludwig-von-Höhnel-Gasse"/>
    <tag k="oneway" v="yes"/>
  </way>
  <way id="31343917" version="1" timestamp="2009-02-22T12:54:11Z" uid="58091" user="Andreas M" changeset="607437">
    <nd ref="349088710"/>
    <nd ref="98420033"/>
    <tag k="access" v="no"/>
    <tag k="created_by" v="Potlatch 0.10b"/>
    <tag k="highway" v="service"/>
    <tag k="psv" v="yes"/>
  </way>
  <way id="31343919" version="1" timestamp="2009-02-22T12:54:12Z" uid="58091" user="Andreas M" changeset="607437">
    <nd ref="98420033"/>
    <nd ref="29006480"/>
    <tag k="created_by" v="Potlatch 0.10b"/>
    <tag k="highway" v="primary"/>
    <tag k="name" v="Ludwig-von-Höhnel-Gasse"/>
    <tag k="oneway" v="yes"/>
  </way>
  <way id="31343920" version="1" timestamp="2009-02-22T12:54:13Z" uid="58091" user="Andreas M" changeset="607437">
    <nd ref="349088713"/>
    <nd ref="98416672"/>
    <tag k="access" v="no"/>
    <tag k="highway" v="service"/>
    <tag k="psv" v="yes"/>
  </way>
  <way id="31343922" version="1" timestamp="2009-02-22T12:54:14Z" uid="58091" user="Andreas M" changeset="607437">
    <nd ref="349088713"/>
    <nd ref="296137800"/>
    <nd ref="296137802"/>
    <nd ref="296137803"/>
    <nd ref="298626774"/>
    <nd ref="296137805"/>
    <nd ref="298626043"/>
    <nd ref="296137806"/>
    <nd ref="296137808"/>
    <nd ref="296137809"/>
    <nd ref="298626065"/>
    <nd ref="349088710"/>
    <tag k="access" v="no"/>
    <tag k="created_by" v="Potlatch 0.10b"/>
    <tag k="highway" v="service"/>
    <tag k="psv" v="yes"/>
  </way>
  <way id="31343923" version="1" timestamp="2009-02-22T12:54:15Z" uid="58091" user="Andreas M" changeset="607437">
    <nd ref="98416672"/>
    <nd ref="98416673"/>
    <tag k="created_by" v="Potlatch 0.10e"/>
    <tag k="highway" v="primary"/>
    <tag k="name" v="Grenzackerstraße"/>
    <tag k="oneway" v="yes"/>
    <tag k="ref" v="B225"/>
  </way>
  <way id="31343924" version="1" timestamp="2009-02-22T12:54:15Z" uid="58091" user="Andreas M" changeset="607437">
    <nd ref="98414320"/>
    <nd ref="27377265"/>
    <nd ref="257754901"/>
    <tag k="created_by" v="Potlatch 0.10f"/>
    <tag k="highway" v="primary"/>
    <tag k="name" v="Raxstraße"/>
    <tag k="ref" v="B225"/>
  </way>
  <way id="31343926" version="1" timestamp="2009-02-22T12:54:16Z" uid="58091" user="Andreas M" changeset="607437">
    <nd ref="257754901"/>
    <nd ref="36621818"/>
    <tag k="created_by" v="Potlatch 0.10f"/>
    <tag k="highway" v="primary"/>
    <tag k="name" v="Triester Straße"/>
    <tag k="oneway" v="yes"/>
    <tag k="ref" v="B17"/>
  </way>
  <way id="31343927" version="1" timestamp="2009-02-22T12:54:17Z" uid="58091" user="Andreas M" changeset="607437">
    <nd ref="36621818"/>
    <nd ref="25778850"/>
    <nd ref="33382020"/>
    <nd ref="332506700"/>
    <nd ref="331040184"/>
    <nd ref="331040182"/>
    <nd ref="287263337"/>
    <nd ref="331040098"/>
    <nd ref="305653243"/>
    <tag k="created_by" v="Potlatch 0.10f"/>
    <tag k="highway" v="primary"/>
    <tag k="name" v="Triester Straße"/>
    <tag k="oneway" v="yes"/>
    <tag k="ref" v="B17"/>
  </way>
  <way id="31343928" version="1" timestamp="2009-02-22T12:54:18Z" uid="58091" user="Andreas M" changeset="607437">
    <nd ref="36621818"/>
    <nd ref="98413091"/>
    <tag k="created_by" v="Potlatch 0.10f"/>
    <tag k="highway" v="primary"/>
    <tag k="name" v="Wienerbergstraße"/>
    <tag k="ref" v="B225"/>
  </way>
  <way id="31343929" version="1" timestamp="2009-02-22T12:54:18Z" uid="58091" user="Andreas M" changeset="607437">
    <nd ref="98808485"/>
    <nd ref="270111821"/>
    <nd ref="305276700"/>
    <nd ref="270111822"/>
    <nd ref="305276676"/>
    <nd ref="25470163"/>
    <nd ref="25470162"/>
    <nd ref="25470161"/>
    <nd ref="25470160"/>
    <nd ref="25470159"/>
    <nd ref="330192147"/>
    <nd ref="84292800"/>
    <nd ref="298751931"/>
    <nd ref="127394470"/>
    <nd ref="30059947"/>
    <tag k="created_by" v="Potlatch 0.10f"/>
    <tag k="highway" v="primary"/>
    <tag k="name" v="Breitenfurter Straße"/>
    <tag k="railway" v="tram"/>
    <tag k="ref" v="B12"/>
  </way>
  <way id="31343930" version="1" timestamp="2009-02-22T12:54:20Z" uid="58091" user="Andreas M" changeset="607437">
    <nd ref="78225011"/>
    <nd ref="349088716"/>
    <nd ref="349088721"/>
    <nd ref="349088725"/>
    <tag k="highway" v="primary"/>
    <tag k="name" v="Eichenstraße"/>
    <tag k="oneway" v="yes"/>
    <tag k="ref" v="B12"/>
  </way>
  <way id="31343931" version="1" timestamp="2009-02-22T12:54:20Z" uid="58091" user="Andreas M" changeset="607437">
    <nd ref="78352201"/>
    <nd ref="349088729"/>
    <nd ref="78225068"/>
    <tag k="highway" v="primary"/>
    <tag k="name" v="Eichenstraße"/>
    <tag k="oneway" v="yes"/>
    <tag k="ref" v="B12"/>
  </way>
  <way id="31343932" version="1" timestamp="2009-02-22T12:54:20Z" uid="58091" user="Andreas M" changeset="607437">
    <nd ref="78352201"/>
    <nd ref="349088725"/>
    <tag k="created_by" v="Potlatch 0.10f"/>
    <tag k="highway" v="secondary"/>
    <tag k="name" v="Edelsinnstraße"/>
  </way>
  <way id="31343933" version="1" timestamp="2009-02-22T12:54:21Z" uid="58091" user="Andreas M" changeset="607437">
    <nd ref="349088725"/>
    <nd ref="78225087"/>
    <tag k="created_by" v="Potlatch 0.10f"/>
    <tag k="highway" v="secondary"/>
    <tag k="name" v="Edelsinnstraße"/>
  </way>
  <way id="31343934" version="1" timestamp="2009-02-22T12:54:21Z" uid="58091" user="Andreas M" changeset="607437">
    <nd ref="25280877"/>
    <nd ref="286480598"/>
    <nd ref="78352200"/>
    <nd ref="78352201"/>
    <tag k="created_by" v="Potlatch 0.10f"/>
    <tag k="highway" v="secondary"/>
    <tag k="name" v="Edelsinnstraße"/>
  </way>
  <way id="31343934" version="2" timestamp="2009-02-22T12:58:40Z" uid="58091" user="Andreas M" changeset="607437">
    <nd ref="25280877"/>
    <nd ref="286480598"/>
    <tag k="created_by" v="Potlatch 0.10f"/>
    <tag k="highway" v="secondary"/>
    <tag k="name" v="Edelsinnstraße"/>
  </way>
</osm>
