<?xml version='1.0' encoding='UTF-8'?>
<osm version="0.6" generator="libosmium/2.20.0">
  <way id="31444051" version="1" timestamp="2009-02-24T02:57:27Z" uid="68769" user="david lynch" changeset="657320">
    <nd ref="29592810"/>
    <nd ref="350923121"/>
    <nd ref="350924342"/>
    <nd ref="350924344"/>
    <nd ref="350924346"/>
    <nd ref="350924347"/>
    <tag k="created_by" v="Potlatch 0.10f"/>
    <tag k="highway" v="motorway"/>
    <tag k="name" v="SH 45 Cash Lanes"/>
  </way>
  <way id="31444051" version="2" timestamp="2009-02-24T02:57:43Z" uid="68769" user="david lynch" changeset="657320">
    <nd ref="29592810"/>
    <nd ref="350923121"/>
    <nd ref="350924342"/>
    <nd ref="350924344"/>
    <nd ref="350924747"/>
    <nd ref="350924346"/>
    <nd ref="350924347"/>
    <tag k="created_by" v="Potlatch 0.10f"/>
    <tag k="highway" v="motorway"/>
    <tag k="name" v="SH 45 Cash Lanes"/>
  </way>
  <way id="31444051" version="3" timestamp="2009-02-24T02:57:55Z" uid="68769" user="david lynch" changeset="657320">
    <nd ref="29592810"/>
    <nd ref="350923121"/>
    <nd ref="350924342"/>
    <nd ref="350924874"/>
    <tag k="created_by" v="Potlatch 0.10f"/>
    <tag k="highway" v="motorway"/>
    <tag k="name" v="SH 45 Cash Lanes"/>
  </way>
  <way id="31444061" version="1" timestamp="2009-02-24T02:57:42Z" uid="68769" user="david lynch" changeset="657320">
    <nd ref="315158646"/>
    <nd ref="350924747"/>
    <tag k="created_by" v="Potlatch 0.10f"/>
    <tag k="highway" v="motorway_link"/>
  </way>
  <way id="31444067" version="1" timestamp="2009-02-24T02:57:46Z" uid="68769" user="david lynch" changeset="657320">
    <nd ref="350924874"/>
    <nd ref="350924344"/>
    <nd ref="350924747"/>
    <nd ref="350924346"/>
    <nd ref="350924347"/>
    <tag k="created_by" v="Potlatch 0.10f"/>
    <tag k="highway" v="motorway"/>
    <tag k="name" v="SH 45 Cash Lanes"/>
  </way>
  <way id="31444239" version="1" timestamp="2009-02-24T03:00:47Z" uid="68769" user="david lynch" changeset="657320">
    <nd ref="340123880"/>
    <nd ref="350851369"/>
    <nd ref="340123881"/>
    <nd ref="340123882"/>
    <nd ref="340123883"/>
    <nd ref="340123884"/>
    <nd ref="340123886"/>
    <nd ref="340123887"/>
    <nd ref="340123888"/>
    <nd ref="340123889"/>
    <nd ref="340123891"/>
    <nd ref="340123892"/>
    <nd ref="340123893"/>
    <nd ref="340123894"/>
    <nd ref="340123895"/>
    <nd ref="340123897"/>
    <nd ref="340123898"/>
    <nd ref="340123899"/>
    <nd ref="340123901"/>
    <nd ref="340123902"/>
    <nd ref="340123903"/>
    <nd ref="340123905"/>
    <nd ref="340123907"/>
    <nd ref="340123908"/>
    <nd ref="340123909"/>
    <nd ref="340123910"/>
    <nd ref="340123911"/>
    <nd ref="340123912"/>
    <nd ref="340123914"/>
    <nd ref="340123915"/>
    <nd ref="340124108"/>
    <tag k="created_by" v="Potlatch 0.10f"/>
    <tag k="highway" v="motorway"/>
    <tag k="name" v="N MoPac Expy"/>
    <tag k="oneway" v="yes"/>
    <tag k="ref" v="Toll 1"/>
    <tag k="source" v="Yahoo"/>
    <tag k="toll" v="yes"/>
  </way>
  <way id="31444239" version="2" timestamp="2009-05-01T18:51:44Z" uid="68769" user="david lynch" changeset="1040528">
    <nd ref="340123880"/>
    <nd ref="350851369"/>
    <nd ref="340123881"/>
    <nd ref="340123882"/>
    <nd ref="340123883"/>
    <nd ref="340123884"/>
    <nd ref="340123886"/>
    <nd ref="340123887"/>
    <nd ref="340123888"/>
    <nd ref="340123889"/>
    <nd ref="340123891"/>
    <nd ref="340123892"/>
    <nd ref="340123893"/>
    <nd ref="340123894"/>
    <nd ref="340123895"/>
    <nd ref="340123897"/>
    <nd ref="388350497"/>
    <nd ref="340123898"/>
    <nd ref="340123899"/>
    <nd ref="340123901"/>
    <nd ref="340123902"/>
    <nd ref="340123903"/>
    <nd ref="340123905"/>
    <nd ref="340123907"/>
    <nd ref="340123908"/>
    <nd ref="340123909"/>
    <nd ref="340123910"/>
    <nd ref="340123911"/>
    <nd ref="340123912"/>
    <nd ref="340123914"/>
    <nd ref="340123915"/>
    <nd ref="340124108"/>
    <tag k="created_by" v="Potlatch 0.10f"/>
    <tag k="highway" v="motorway"/>
    <tag k="name" v="N MoPac Expy"/>
    <tag k="oneway" v="yes"/>
    <tag k="ref" v="Toll 1"/>
    <tag k="source" v="Yahoo"/>
    <tag k="toll" v="yes"/>
  </way>
  <way id="31444239" version="3" timestamp="2009-05-01T18:53:20Z" uid="68769" user="david lynch" changeset="1040528">
    <nd ref="340123880"/>
    <nd ref="350851369"/>
    <nd ref="340123881"/>
    <nd ref="340123882"/>
    <nd ref="340123883"/>
    <nd ref="340123884"/>
    <nd ref="340123886"/>
    <nd ref="340123887"/>
    <nd ref="340123888"/>
    <nd ref="340123889"/>
    <nd ref="340123891"/>
    <nd ref="340123892"/>
    <nd ref="340123893"/>
    <nd ref="340123894"/>
    <nd ref="340123895"/>
    <nd ref="340123897"/>
    <nd ref="388350497"/>
    <tag k="created_by" v="Potlatch 0.10f"/>
    <tag k="highway" v="motorway"/>
    <tag k="name" v="N MoPac Expy"/>
    <tag k="oneway" v="yes"/>
    <tag k="ref" v="Toll 1"/>
    <tag k="source" v="Yahoo"/>
    <tag k="toll" v="yes"/>
  </way>
  <way id="31444239" version="4" timestamp="2009-05-03T16:54:53Z" uid="68769" user="david lynch" changeset="1064301">
    <nd ref="340123880"/>
    <nd ref="350851369"/>
    <nd ref="340123882"/>
    <nd ref="340123883"/>
    <nd ref="340123884"/>
    <nd ref="340123886"/>
    <nd ref="340123887"/>
    <nd ref="340123888"/>
    <nd ref="340123889"/>
    <nd ref="340123891"/>
    <nd ref="340123892"/>
    <nd ref="340123893"/>
    <nd ref="340123894"/>
    <nd ref="340123895"/>
    <nd ref="340123897"/>
    <nd ref="388350497"/>
    <tag k="created_by" v="Potlatch 0.10f"/>
    <tag k="highway" v="motorway"/>
    <tag k="name" v="N MoPac Expy"/>
    <tag k="oneway" v="yes"/>
    <tag k="ref" v="Toll 1"/>
    <tag k="source" v="Yahoo"/>
    <tag k="toll" v="yes"/>
  </way>
  <way id="31444239" version="5" timestamp="2009-05-03T16:56:00Z" uid="68769" user="david lynch" changeset="1064333">
    <nd ref="340123880"/>
    <nd ref="350851369"/>
    <nd ref="340123882"/>
    <nd ref="340123883"/>
    <nd ref="340123884"/>
    <nd ref="340123886"/>
    <nd ref="340123887"/>
    <nd ref="340123888"/>
    <nd ref="340123889"/>
    <nd ref="340123891"/>
    <nd ref="340123892"/>
    <nd ref="340123893"/>
    <nd ref="340123894"/>
    <nd ref="340123895"/>
    <nd ref="340123897"/>
    <nd ref="388350497"/>
    <tag k="created_by" v="Potlatch 0.10f"/>
    <tag k="highway" v="motorway"/>
    <tag k="name" v="N MoPac Expy"/>
    <tag k="oneway" v="yes"/>
    <tag k="ref" v="Loop 1 Toll"/>
    <tag k="source" v="Yahoo"/>
    <tag k="toll" v="yes"/>
  </way>
  <way id="31444239" version="6" timestamp="2010-04-07T13:29:18Z" uid="20587" user="balrog-kun" changeset="4353646">
    <nd ref="340123880"/>
    <nd ref="350851369"/>
    <nd ref="340123882"/>
    <nd ref="340123883"/>
    <nd ref="340123884"/>
    <nd ref="340123886"/>
    <nd ref="340123887"/>
    <nd ref="340123888"/>
    <nd ref="340123889"/>
    <nd ref="340123891"/>
    <nd ref="340123892"/>
    <nd ref="340123893"/>
    <nd ref="340123894"/>
    <nd ref="340123895"/>
    <nd ref="340123897"/>
    <nd ref="388350497"/>
    <tag k="created_by" v="Potlatch 0.10f"/>
    <tag k="highway" v="motorway"/>
    <tag k="name" v="North MoPac Expressway"/>
    <tag k="oneway" v="yes"/>
    <tag k="ref" v="Loop 1 Toll"/>
    <tag k="source" v="Yahoo"/>
    <tag k="toll" v="yes"/>
  </way>
  <way id="31444267" version="1" timestamp="2009-02-24T03:01:01Z" uid="68769" user="david lynch" changeset="657320">
    <nd ref="340123098"/>
    <nd ref="340123100"/>
    <nd ref="340123101"/>
    <nd ref="340123102"/>
    <nd ref="340123103"/>
    <nd ref="340123104"/>
    <nd ref="340123106"/>
    <nd ref="340123107"/>
    <nd ref="340123108"/>
    <nd ref="340123109"/>
    <nd ref="340123110"/>
    <nd ref="340123111"/>
    <nd ref="29611988"/>
    <tag k="created_by" v="Potlatch 0.10f"/>
    <tag k="highway" v="motorway"/>
    <tag k="oneway" v="yes"/>
    <tag k="ref" v="Toll 1"/>
    <tag k="source" v="Yahoo"/>
  </way>
  <way id="31444267" version="2" timestamp="2009-02-24T03:01:07Z" uid="68769" user="david lynch" changeset="657320">
    <nd ref="340123098"/>
    <nd ref="340123100"/>
    <nd ref="340123101"/>
    <nd ref="340123102"/>
    <nd ref="340123103"/>
    <nd ref="340123104"/>
    <nd ref="340123106"/>
    <nd ref="340123107"/>
    <nd ref="340123108"/>
    <nd ref="340123109"/>
    <nd ref="340123110"/>
    <nd ref="340123111"/>
    <nd ref="29611988"/>
    <tag k="bridge" v="yes"/>
    <tag k="created_by" v="Potlatch 0.10f"/>
    <tag k="highway" v="motorway"/>
    <tag k="oneway" v="yes"/>
    <tag k="ref" v="Toll 1"/>
    <tag k="source" v="Yahoo"/>
  </way>
  <way id="31444267" version="3" timestamp="2009-02-24T03:02:21Z" uid="68769" user="david lynch" changeset="657320">
    <nd ref="340123098"/>
    <nd ref="340123100"/>
    <nd ref="340123101"/>
    <nd ref="340123102"/>
    <nd ref="340123103"/>
    <nd ref="340123104"/>
    <nd ref="340123106"/>
    <nd ref="340123107"/>
    <nd ref="340123108"/>
    <nd ref="340123109"/>
    <nd ref="340123110"/>
    <nd ref="340123111"/>
    <nd ref="29611988"/>
    <tag k="bridge" v="yes"/>
    <tag k="created_by" v="Potlatch 0.10f"/>
    <tag k="highway" v="motorway"/>
    <tag k="layer" v="3"/>
    <tag k="oneway" v="yes"/>
    <tag k="ref" v="Toll 1"/>
    <tag k="source" v="Yahoo"/>
  </way>
  <way id="31444267" version="4" timestamp="2009-02-24T03:02:52Z" uid="68769" user="david lynch" changeset="657320"/>
  <way id="31444273" version="1" timestamp="2009-02-24T03:01:08Z" uid="68769" user="david lynch" changeset="657320">
    <nd ref="350930984"/>
    <nd ref="29609377"/>
    <nd ref="29609378"/>
    <nd ref="29609379"/>
    <nd ref="29609380"/>
    <nd ref="29609381"/>
    <nd ref="29609382"/>
    <nd ref="29609383"/>
    <nd ref="29609384"/>
    <nd ref="29609385"/>
    <nd ref="345834614"/>
    <tag k="created_by" v="Potlatch 0.10f"/>
    <tag k="highway" v="motorway"/>
    <tag k="name" v="State Highway 45 North"/>
    <tag k="oneway" v="yes"/>
    <tag k="ref" v="TX 45"/>
    <tag k="toll" v="yes"/>
  </way>
  <way id="31444273" version="2" timestamp="2009-02-24T03:01:39Z" uid="68769" user="david lynch" changeset="657320">
    <nd ref="350930984"/>
    <nd ref="29609377"/>
    <nd ref="29609378"/>
    <nd ref="29609379"/>
    <nd ref="29609380"/>
    <nd ref="29609381"/>
    <nd ref="29609382"/>
    <nd ref="350931967"/>
    <nd ref="29609383"/>
    <nd ref="29609384"/>
    <nd ref="29609385"/>
    <nd ref="345834614"/>
    <nd ref="29609386"/>
    <tag k="bridge" v="yes"/>
    <tag k="created_by" v="Potlatch 0.10f"/>
    <tag k="highway" v="motorway"/>
    <tag k="layer" v="1"/>
    <tag k="name" v="State Highway 45 North"/>
    <tag k="oneway" v="yes"/>
    <tag k="ref" v="TX 45"/>
    <tag k="toll" v="yes"/>
  </way>
  <way id="31444273" version="3" timestamp="2009-02-24T03:02:48Z" uid="68769" user="david lynch" changeset="657320"/>
  <way id="31444340" version="1" timestamp="2009-02-24T03:02:38Z" uid="68769" user="david lynch" changeset="657320">
    <nd ref="350933795"/>
    <nd ref="29592850"/>
    <nd ref="29592851"/>
    <nd ref="29592852"/>
    <nd ref="29592853"/>
    <nd ref="29592854"/>
    <nd ref="29592855"/>
    <nd ref="29592856"/>
    <nd ref="29592857"/>
    <nd ref="29592858"/>
    <tag k="bridge" v="yes"/>
    <tag k="created_by" v="Potlatch 0.10f"/>
    <tag k="highway" v="motorway"/>
    <tag k="name" v="State Highway 45 North"/>
    <tag k="oneway" v="yes"/>
    <tag k="ref" v="TX 45"/>
    <tag k="toll" v="yes"/>
  </way>
  <way id="31444340" version="2" timestamp="2009-02-24T03:02:41Z" uid="68769" user="david lynch" changeset="657320">
    <nd ref="350933795"/>
    <nd ref="29592850"/>
    <nd ref="29592851"/>
    <nd ref="29592852"/>
    <nd ref="29592853"/>
    <nd ref="29592854"/>
    <nd ref="29592855"/>
    <nd ref="29592856"/>
    <nd ref="29592857"/>
    <nd ref="29592858"/>
    <tag k="created_by" v="Potlatch 0.10f"/>
    <tag k="highway" v="motorway"/>
    <tag k="name" v="State Highway 45 North"/>
    <tag k="oneway" v="yes"/>
    <tag k="ref" v="TX 45"/>
    <tag k="toll" v="yes"/>
  </way>
  <way id="31444344" version="1" timestamp="2009-02-24T03:02:43Z" uid="68769" user="david lynch" changeset="657320">
    <nd ref="350933978"/>
    <nd ref="29609376"/>
    <nd ref="350930984"/>
    <tag k="created_by" v="Potlatch 0.10f"/>
    <tag k="highway" v="motorway"/>
    <tag k="name" v="State Highway 45 North"/>
    <tag k="oneway" v="yes"/>
    <tag k="ref" v="TX 45"/>
    <tag k="toll" v="yes"/>
  </way>
  <way id="31444344" version="2" timestamp="2009-02-24T03:02:46Z" uid="68769" user="david lynch" changeset="657320">
    <nd ref="350933978"/>
    <nd ref="29609376"/>
    <nd ref="350930984"/>
    <nd ref="29609377"/>
    <nd ref="29609378"/>
    <nd ref="29609379"/>
    <nd ref="29609380"/>
    <nd ref="29609381"/>
    <nd ref="29609382"/>
    <nd ref="350931967"/>
    <nd ref="29609383"/>
    <nd ref="29609384"/>
    <nd ref="29609385"/>
    <nd ref="345834614"/>
    <nd ref="29609386"/>
    <tag k="bridge" v="yes"/>
    <tag k="created_by" v="Potlatch 0.10f"/>
    <tag k="highway" v="motorway"/>
    <tag k="layer" v="1"/>
    <tag k="name" v="State Highway 45 North"/>
    <tag k="oneway" v="yes"/>
    <tag k="ref" v="TX 45"/>
    <tag k="toll" v="yes"/>
  </way>
  <way id="31444350" version="1" timestamp="2009-02-24T03:02:53Z" uid="68769" user="david lynch" changeset="657320">
    <nd ref="340123097"/>
    <nd ref="340123098"/>
    <nd ref="340123100"/>
    <nd ref="340123101"/>
    <nd ref="340123102"/>
    <nd ref="340123103"/>
    <nd ref="340123104"/>
    <nd ref="340123106"/>
    <nd ref="340123107"/>
    <nd ref="340123108"/>
    <nd ref="340123109"/>
    <nd ref="340123110"/>
    <nd ref="340123111"/>
    <nd ref="29611988"/>
    <tag k="bridge" v="yes"/>
    <tag k="created_by" v="Potlatch 0.10f"/>
    <tag k="highway" v="motorway"/>
    <tag k="layer" v="3"/>
    <tag k="oneway" v="yes"/>
    <tag k="ref" v="Toll 1"/>
    <tag k="source" v="Yahoo"/>
  </way>
  <way id="31444350" version="2" timestamp="2009-05-03T17:03:23Z" uid="68769" user="david lynch" changeset="1064408">
    <nd ref="340123097"/>
    <nd ref="340123098"/>
    <nd ref="340123100"/>
    <nd ref="340123101"/>
    <nd ref="340123102"/>
    <nd ref="340123103"/>
    <nd ref="340123104"/>
    <nd ref="340123106"/>
    <nd ref="340123107"/>
    <nd ref="340123108"/>
    <nd ref="340123109"/>
    <nd ref="340123110"/>
    <nd ref="340123111"/>
    <nd ref="29611988"/>
    <tag k="bridge" v="yes"/>
    <tag k="created_by" v="Potlatch 0.10f"/>
    <tag k="highway" v="motorway"/>
    <tag k="layer" v="3"/>
    <tag k="oneway" v="yes"/>
    <tag k="ref" v="Loop 1 Toll"/>
    <tag k="source" v="Yahoo"/>
  </way>
  <way id="31444363" version="1" timestamp="2009-02-24T03:03:11Z" uid="68769" user="david lynch" changeset="657320">
    <nd ref="340123616"/>
    <nd ref="29592849"/>
    <tag k="bridge" v="yes"/>
    <tag k="created_by" v="Potlatch 0.10f"/>
    <tag k="highway" v="motorway"/>
    <tag k="layer" v="2"/>
    <tag k="oneway" v="yes"/>
    <tag k="ref" v="Toll 1"/>
    <tag k="source" v="Yahoo"/>
  </way>
  <way id="31444363" version="2" timestamp="2009-02-24T03:03:16Z" uid="68769" user="david lynch" changeset="657320">
    <nd ref="340123616"/>
    <nd ref="29592849"/>
    <tag k="bridge" v="yes"/>
    <tag k="created_by" v="Potlatch 0.10f"/>
    <tag k="highway" v="motorway"/>
    <tag k="layer" v="1"/>
    <tag k="oneway" v="yes"/>
    <tag k="ref" v="Toll 1"/>
    <tag k="source" v="Yahoo"/>
  </way>
  <way id="31444732" version="3" timestamp="2011-04-20T13:36:13Z" uid="4467" user="Rosscoe" changeset="7916336">
    <nd ref="347430453"/>
    <nd ref="350950640"/>
    <tag k="bicycle" v="yes"/>
    <tag k="cycleway" v="track"/>
    <tag k="foot" v="yes"/>
    <tag k="highway" v="cycleway"/>
  </way>
</osm>
